<?xml version="1.0" encoding="UTF-8"?><osm version="0.6" generator="github.com/aaronlidman/osm-and-geojson"><node id="-1" lat="30.312378" lon="-97.695012" changeset="false"><tag k="addr:street" v="Northridge Drive"/><tag k="addr:housenumber" v="1605"/></node><node id="-2" lat="30.312719" lon="-97.704145" changeset="false"><tag k="addr:street" v="Corona Drive"/><tag k="addr:housenumber" v="1216"/></node><node id="-3" lat="30.311352" lon="-97.694494" changeset="false"><tag k="addr:street" v="Ridgehaven Drive"/><tag k="addr:housenumber" v="1615"/></node><node id="-4" lat="30.30882" lon="-97.697312" changeset="false"><tag k="addr:street" v="Corona Drive"/><tag k="addr:housenumber" v="1603"/></node><node id="-5" lat="30.311077" lon="-97.694599" changeset="false"><tag k="addr:street" v="Berkman Drive"/><tag k="addr:housenumber" v="5604"/></node><node id="-6" lat="30.310202" lon="-97.696331" changeset="false"><tag k="addr:street" v="Ridgemont Drive"/><tag k="addr:housenumber" v="1603"/></node><node id="-7" lat="30.313742" lon="-97.703859" changeset="false"><tag k="addr:street" v="Cameron Road"/><tag k="addr:housenumber" v="5603"/></node><node id="-8" lat="30.313597" lon="-97.703883" changeset="false"><tag k="addr:street" v="Cloverleaf Drive"/><tag k="addr:housenumber" v="1200"/></node></osm>