<?xml version="1.0" encoding="UTF-8"?><osm version="0.6" generator="github.com/aaronlidman/osm-and-geojson"><node id="-1" lat="30.288528" lon="-97.764785" changeset="false"><tag k="addr:street" v="Bridle Path"/><tag k="addr:housenumber" v="2004"/><tag k="addr:postcode" v="78703"/></node><node id="-2" lat="30.287768" lon="-97.76504" changeset="false"><tag k="addr:street" v="Forest Trail"/><tag k="addr:housenumber" v="1513"/><tag k="addr:postcode" v="78703"/></node><node id="-3" lat="30.28973" lon="-97.769883" changeset="false"><tag k="addr:street" v="Enfield Road"/><tag k="addr:housenumber" v="2506"/><tag k="addr:postcode" v="78703"/></node><node id="-4" lat="30.288945" lon="-97.764341" changeset="false"><tag k="addr:street" v="Sharon Lane"/><tag k="addr:housenumber" v="1606"/><tag k="addr:postcode" v="78703"/></node><node id="-5" lat="30.28883" lon="-97.766578" changeset="false"><tag k="addr:street" v="Bridle Path"/><tag k="addr:housenumber" v="2203"/><tag k="addr:postcode" v="78703"/></node><node id="-6" lat="30.293206" lon="-97.767966" changeset="false"><tag k="addr:street" v="Forest Trail"/><tag k="addr:housenumber" v="1902"/><tag k="addr:postcode" v="78703"/></node><node id="-7" lat="30.291635" lon="-97.761357" changeset="false"><tag k="addr:street" v="Winsted Lane"/><tag k="addr:housenumber" v="2105"/><tag k="addr:postcode" v="78703"/></node><node id="-8" lat="30.294762" lon="-97.766401" changeset="false"><tag k="addr:street" v="Windsor Road"/><tag k="addr:housenumber" v="3001"/><tag k="addr:postcode" v="78703"/></node><node id="-9" lat="30.293228" lon="-97.765754" changeset="false"><tag k="addr:street" v="Vista Lane"/><tag k="addr:housenumber" v="2004"/><tag k="addr:postcode" v="78703"/></node><node id="-10" lat="30.295442" lon="-97.768332" changeset="false"><tag k="addr:street" v="Exposition Boulevard"/><tag k="addr:housenumber" v="2109"/><tag k="addr:postcode" v="78703"/></node><node id="-11" lat="30.293841" lon="-97.766559" changeset="false"><tag k="addr:street" v="Elton Lane"/><tag k="addr:housenumber" v="2010"/><tag k="addr:postcode" v="78703"/></node><node id="-12" lat="30.293866" lon="-97.765629" changeset="false"><tag k="addr:street" v="Windsor Road"/><tag k="addr:housenumber" v="2919"/><tag k="addr:postcode" v="78703"/></node><node id="-13" lat="30.291496" lon="-97.763192" changeset="false"><tag k="addr:street" v="Sharon Lane"/><tag k="addr:housenumber" v="2000"/><tag k="addr:postcode" v="78703"/></node><node id="-14" lat="30.291921" lon="-97.771084" changeset="false"><tag k="addr:street" v="Exposition Boulevard"/><tag k="addr:housenumber" v="1607"/><tag k="addr:postcode" v="78703"/></node><node id="-15" lat="30.289907" lon="-97.767329" changeset="false"><tag k="addr:street" v="Bridle Path"/><tag k="addr:housenumber" v="2312"/><tag k="addr:postcode" v="78703"/></node><node id="-16" lat="30.289393" lon="-97.765285" changeset="false"><tag k="addr:street" v="Forest Trail"/><tag k="addr:housenumber" v="1605"/><tag k="addr:postcode" v="78703"/></node><node id="-17" lat="30.292404" lon="-97.763601" changeset="false"><tag k="addr:street" v="Mc Call Road"/><tag k="addr:housenumber" v="1913"/><tag k="addr:postcode" v="78703"/></node><node id="-18" lat="30.292331" lon="-97.761142" changeset="false"><tag k="addr:street" v="Winsted Lane"/><tag k="addr:housenumber" v="2201"/><tag k="addr:postcode" v="78703"/></node><node id="-19" lat="30.289449" lon="-97.766447" changeset="false"><tag k="addr:street" v="Bridle Path"/><tag k="addr:housenumber" v="2204"/><tag k="addr:postcode" v="78703"/></node><node id="-20" lat="30.289411" lon="-97.769298" changeset="false"><tag k="addr:street" v="Enfield Road"/><tag k="addr:housenumber" v="2412"/><tag k="addr:postcode" v="78703"/></node><node id="-21" lat="30.289248" lon="-97.768418" changeset="false"><tag k="addr:street" v="Elton Lane"/><tag k="addr:housenumber" v="1506"/><tag k="addr:postcode" v="78703"/></node><node id="-22" lat="30.289307" lon="-97.769231" changeset="false"><tag k="addr:street" v="Enfield Road"/><tag k="addr:housenumber" v="2410"/><tag k="addr:postcode" v="78703"/></node><node id="-23" lat="30.291082" lon="-97.766628" changeset="false"><tag k="addr:street" v="Vista Lane"/><tag k="addr:housenumber" v="1702"/><tag k="addr:postcode" v="78703"/></node><node id="-24" lat="30.289075" lon="-97.767079" changeset="false"><tag k="addr:street" v="Bridle Path"/><tag k="addr:housenumber" v="2303"/><tag k="addr:postcode" v="78703"/></node><node id="-25" lat="30.292568" lon="-97.761303" changeset="false"><tag k="addr:street" v="Winsted Lane"/><tag k="addr:housenumber" v="2202"/><tag k="addr:postcode" v="78703"/></node><node id="-26" lat="30.288265" lon="-97.764321" changeset="false"><tag k="addr:street" v="Sharon Lane"/><tag k="addr:housenumber" v="1601"/><tag k="addr:postcode" v="78703"/></node><node id="-27" lat="30.291881" lon="-97.761701" changeset="false"><tag k="addr:street" v="Winsted Lane"/><tag k="addr:housenumber" v="2104"/><tag k="addr:postcode" v="78703"/></node><node id="-28" lat="30.291093" lon="-97.768178" changeset="false"><tag k="addr:street" v="Woodmont Avenue"/><tag k="addr:housenumber" v="2407"/><tag k="addr:postcode" v="78703"/></node><node id="-29" lat="30.290091" lon="-97.764019" changeset="false"><tag k="addr:street" v="Sharon Lane"/><tag k="addr:housenumber" v="1708"/><tag k="addr:postcode" v="78703"/></node><node id="-30" lat="30.292546" lon="-97.76134" changeset="false"><tag k="addr:street" v="Winsted Lane"/><tag k="addr:housenumber" v="2200"/><tag k="addr:postcode" v="78703"/></node><node id="-31" lat="30.289201" lon="-97.767197" changeset="false"><tag k="addr:street" v="Bridle Path"/><tag k="addr:housenumber" v="2305"/><tag k="addr:postcode" v="78703"/></node><node id="-32" lat="30.29169" lon="-97.761377" changeset="false"><tag k="addr:street" v="Winsted Lane"/><tag k="addr:housenumber" v="2107"/><tag k="addr:postcode" v="78703"/></node><node id="-33" lat="30.29233" lon="-97.761145" changeset="false"><tag k="addr:street" v="Winsted Lane"/><tag k="addr:housenumber" v="2203"/><tag k="addr:postcode" v="78703"/></node><node id="-34" lat="30.291644" lon="-97.768174" changeset="false"><tag k="addr:street" v="Woodmont Avenue"/><tag k="addr:housenumber" v="2410"/><tag k="addr:postcode" v="78703"/></node><node id="-35" lat="30.294401" lon="-97.766916" changeset="false"><tag k="addr:street" v="Forest Trail"/><tag k="addr:housenumber" v="2107"/><tag k="addr:postcode" v="78703"/></node><node id="-36" lat="30.288819" lon="-97.764903" changeset="false"><tag k="addr:street" v="Forest Trail"/><tag k="addr:housenumber" v="1601 1/2"/><tag k="addr:postcode" v="78703"/></node><node id="-37" lat="30.292339" lon="-97.761127" changeset="false"><tag k="addr:street" v="Winsted Lane"/><tag k="addr:housenumber" v="2205"/><tag k="addr:postcode" v="78703"/></node><node id="-38" lat="30.289153" lon="-97.768456" changeset="false"><tag k="addr:street" v="Elton Lane"/><tag k="addr:housenumber" v="1504"/><tag k="addr:postcode" v="78703"/></node><node id="-39" lat="30.290522" lon="-97.770041" changeset="false"><tag k="addr:street" v="Bridle Path"/><tag k="addr:housenumber" v="2511"/><tag k="addr:postcode" v="78703"/></node><node id="-40" lat="30.287102" lon="-97.764451" changeset="false"><tag k="addr:street" v="Enfield Road"/><tag k="addr:housenumber" v="2008"/><tag k="addr:postcode" v="78703"/></node><node id="-41" lat="30.295917" lon="-97.76844" changeset="false"><tag k="addr:street" v="Exposition Boulevard"/><tag k="addr:housenumber" v="2203"/><tag k="addr:postcode" v="78703"/></node><node id="-42" lat="30.29553" lon="-97.767819" changeset="false"><tag k="addr:street" v="Stamford Lane"/><tag k="addr:housenumber" v="2208"/><tag k="addr:postcode" v="78703"/></node><node id="-43" lat="30.29202" lon="-97.761673" changeset="false"><tag k="addr:street" v="Winsted Lane"/><tag k="addr:housenumber" v="2106"/><tag k="addr:postcode" v="78703"/></node><node id="-44" lat="30.294639" lon="-97.76838" changeset="false"><tag k="addr:street" v="Stamford Lane"/><tag k="addr:housenumber" v="2102"/><tag k="addr:postcode" v="78703"/></node><node id="-45" lat="30.290866" lon="-97.767834" changeset="false"><tag k="addr:street" v="Woodmont Avenue"/><tag k="addr:housenumber" v="2405"/><tag k="addr:postcode" v="78703"/></node><node id="-46" lat="30.290168" lon="-97.764019" changeset="false"><tag k="addr:street" v="Sharon Lane"/><tag k="addr:housenumber" v="1800"/><tag k="addr:postcode" v="78703"/></node><node id="-47" lat="30.288631" lon="-97.765021" changeset="false"><tag k="addr:street" v="Forest Trail"/><tag k="addr:housenumber" v="1601"/><tag k="addr:postcode" v="78703"/></node><node id="-48" lat="30.293962" lon="-97.766567" changeset="false"><tag k="addr:street" v="Elton Lane"/><tag k="addr:housenumber" v="2100"/><tag k="addr:postcode" v="78703"/></node><node id="-49" lat="30.295579" lon="-97.768465" changeset="false"><tag k="addr:street" v="Exposition Boulevard"/><tag k="addr:housenumber" v="2111"/><tag k="addr:postcode" v="78703"/></node><node id="-50" lat="30.293128" lon="-97.768008" changeset="false"><tag k="addr:street" v="Forest Trail"/><tag k="addr:housenumber" v="1900"/><tag k="addr:postcode" v="78703"/></node><node id="-51" lat="30.291212" lon="-97.766571" changeset="false"><tag k="addr:street" v="Vista Lane"/><tag k="addr:housenumber" v="1704"/><tag k="addr:postcode" v="78703"/></node><node id="-52" lat="30.288975" lon="-97.766878" changeset="false"><tag k="addr:street" v="Bridle Path"/><tag k="addr:housenumber" v="2301"/><tag k="addr:postcode" v="78703"/></node><node id="-53" lat="30.291796" lon="-97.768054" changeset="false"><tag k="addr:street" v="Forest Trail"/><tag k="addr:housenumber" v="1710"/><tag k="addr:postcode" v="78703"/></node><node id="-54" lat="30.289718" lon="-97.762582" changeset="false"><tag k="addr:street" v="Winsted Lane"/><tag k="addr:housenumber" v="1802"/><tag k="addr:postcode" v="78703"/></node><node id="-55" lat="30.289757" lon="-97.762572" changeset="false"><tag k="addr:street" v="Griswold Lane"/><tag k="addr:housenumber" v="2001"/><tag k="addr:postcode" v="78703"/></node><node id="-56" lat="30.291751" lon="-97.765208" changeset="false"><tag k="addr:street" v="Bremen Street"/><tag k="addr:housenumber" v="1812"/><tag k="addr:postcode" v="78703"/></node><node id="-57" lat="30.291783" lon="-97.765293" changeset="false"><tag k="addr:street" v="Bremen Street"/><tag k="addr:housenumber" v="1810"/><tag k="addr:postcode" v="78703"/></node><node id="-58" lat="30.291944" lon="-97.765757" changeset="false"><tag k="addr:street" v="Vista Lane"/><tag k="addr:housenumber" v="1807"/><tag k="addr:postcode" v="78703"/></node><node id="-59" lat="30.291873" lon="-97.765769" changeset="false"><tag k="addr:street" v="Vista Lane"/><tag k="addr:housenumber" v="1805"/><tag k="addr:postcode" v="78703"/></node><node id="-60" lat="30.295001" lon="-97.766793" changeset="false"><tag k="addr:street" v="Forest Trail"/><tag k="addr:housenumber" v="2207"/><tag k="addr:postcode" v="78703"/></node><node id="-61" lat="30.294977" lon="-97.766699" changeset="false"><tag k="addr:street" v="Windsor Road"/><tag k="addr:housenumber" v="3007"/><tag k="addr:postcode" v="78703"/></node><node id="-62" lat="30.29363" lon="-97.769124" changeset="false"><tag k="addr:street" v="Stamford Lane"/><tag k="addr:housenumber" v="1902"/><tag k="addr:postcode" v="78703"/></node><node id="-63" lat="30.293732" lon="-97.769046" changeset="false"><tag k="addr:street" v="Stamford Lane"/><tag k="addr:housenumber" v="1904"/><tag k="addr:postcode" v="78703"/></node><node id="-64" lat="30.291531" lon="-97.766984" changeset="false"><tag k="addr:street" v="Elton Lane"/><tag k="addr:housenumber" v="1703"/><tag k="addr:postcode" v="78703"/></node><node id="-65" lat="30.291684" lon="-97.766926" changeset="false"><tag k="addr:street" v="Elton Lane"/><tag k="addr:housenumber" v="1705"/><tag k="addr:postcode" v="78703"/></node><node id="-66" lat="30.289941" lon="-97.77025" changeset="false"><tag k="addr:street" v="Enfield Road"/><tag k="addr:housenumber" v="2508"/><tag k="addr:postcode" v="78703"/></node><node id="-67" lat="30.28998" lon="-97.770429" changeset="false"><tag k="addr:street" v="Enfield Road"/><tag k="addr:housenumber" v="2510"/><tag k="addr:postcode" v="78703"/></node></osm>