<?xml version="1.0" encoding="UTF-8"?><osm version="0.6" generator="github.com/aaronlidman/osm-and-geojson"><node id="-1" lat="30.520067" lon="-97.724717" changeset="false"><tag k="addr:street" v="Springfield Gorge Drive"/><tag k="addr:housenumber" v="8422"/></node><node id="-2" lat="30.513341" lon="-97.724656" changeset="false"><tag k="addr:street" v="Lake Pines Drive"/><tag k="addr:housenumber" v="17601"/></node><node id="-3" lat="30.51638" lon="-97.725126" changeset="false"><tag k="addr:street" v="Fern Bluff Avenue"/><tag k="addr:housenumber" v="8437"/></node><node id="-4" lat="30.516055" lon="-97.724786" changeset="false"><tag k="addr:street" v="Mount Shasta Cove"/><tag k="addr:housenumber" v="8406"/></node><node id="-5" lat="30.514125" lon="-97.724731" changeset="false"><tag k="addr:street" v="Glen Canyon Drive"/><tag k="addr:housenumber" v="8326"/></node><node id="-6" lat="30.522013" lon="-97.722762" changeset="false"><tag k="addr:street" v="Bar Harbor Bend"/><tag k="addr:housenumber" v="16912"/></node><node id="-7" lat="30.516722" lon="-97.724878" changeset="false"><tag k="addr:street" v="Park Valley Drive"/><tag k="addr:housenumber" v="17858"/></node><node id="-8" lat="30.513587" lon="-97.722214" changeset="false"><tag k="addr:street" v="Broken Branch Drive"/><tag k="addr:housenumber" v="8204"/></node><node id="-9" lat="30.519628" lon="-97.722753" changeset="false"><tag k="addr:street" v="Rosebud Place"/><tag k="addr:housenumber" v="18008"/></node><node id="-10" lat="30.515115" lon="-97.728353" changeset="false"><tag k="addr:street" v="Columbia Falls Cove"/><tag k="addr:housenumber" v="17606"/></node><node id="-11" lat="30.520013" lon="-97.723052" changeset="false"><tag k="addr:street" v="Fern Bluff Avenue"/><tag k="addr:housenumber" v="8343"/></node><node id="-12" lat="30.515908" lon="-97.725185" changeset="false"><tag k="addr:street" v="Mount Shasta Cove"/><tag k="addr:housenumber" v="8410"/></node><node id="-13" lat="30.514163" lon="-97.720403" changeset="false"><tag k="addr:street" v="Miller Falls Drive"/><tag k="addr:housenumber" v="8100"/></node><node id="-14" lat="30.514506" lon="-97.723192" changeset="false"><tag k="addr:street" v="Miller Falls Drive"/><tag k="addr:housenumber" v="8214"/></node><node id="-15" lat="30.516005" lon="-97.724635" changeset="false"><tag k="addr:street" v="Mount Shasta Cove"/><tag k="addr:housenumber" v="8404"/></node><node id="-16" lat="30.515558" lon="-97.725024" changeset="false"><tag k="addr:street" v="Mount Shasta Cove"/><tag k="addr:housenumber" v="8407"/></node><node id="-17" lat="30.519549" lon="-97.72218" changeset="false"><tag k="addr:street" v="Rosebud Place"/><tag k="addr:housenumber" v="18009"/></node><node id="-18" lat="30.517346" lon="-97.725114" changeset="false"><tag k="addr:street" v="Park Valley Drive"/><tag k="addr:housenumber" v="17863"/></node><node id="-19" lat="30.514047" lon="-97.724933" changeset="false"><tag k="addr:street" v="Glen Canyon Drive"/><tag k="addr:housenumber" v="8328"/></node><node id="-20" lat="30.513739" lon="-97.723791" changeset="false"><tag k="addr:street" v="Longdraw Drive"/><tag k="addr:housenumber" v="8218"/></node><node id="-21" lat="30.513514" lon="-97.722367" changeset="false"><tag k="addr:street" v="Broken Branch Drive"/><tag k="addr:housenumber" v="8206"/></node><node id="-22" lat="30.516296" lon="-97.72668" changeset="false"><tag k="addr:street" v="Fern Bluff Avenue"/><tag k="addr:housenumber" v="8504"/></node><node id="-23" lat="30.516218" lon="-97.725292" changeset="false"><tag k="addr:street" v="Fern Bluff Avenue"/><tag k="addr:housenumber" v="8439"/></node><node id="-24" lat="30.51602" lon="-97.724975" changeset="false"><tag k="addr:street" v="Mount Shasta Cove"/><tag k="addr:housenumber" v="8408"/></node><node id="-25" lat="30.51312" lon="-97.727853" changeset="false"><tag k="addr:street" v="Glen Canyon Drive"/><tag k="addr:housenumber" v="8410"/></node><node id="-26" lat="30.517472" lon="-97.725668" changeset="false"><tag k="addr:street" v="Box Canyon Terrace"/><tag k="addr:housenumber" v="17801"/></node><node id="-27" lat="30.515115" lon="-97.722558" changeset="false"><tag k="addr:street" v="Miller Falls Cove"/><tag k="addr:housenumber" v="17705"/></node><node id="-28" lat="30.518668" lon="-97.724478" changeset="false"><tag k="addr:street" v="Box Canyon Terrace"/><tag k="addr:housenumber" v="17917"/></node><node id="-29" lat="30.523" lon="-97.724911" changeset="false"><tag k="addr:street" v="Fern Bluff Avenue"/><tag k="addr:housenumber" v="8209"/></node><node id="-30" lat="30.514793" lon="-97.728472" changeset="false"><tag k="addr:street" v="Columbia Falls Drive"/><tag k="addr:housenumber" v="8514"/></node><node id="-31" lat="30.523344" lon="-97.723574" changeset="false"><tag k="addr:street" v="Fern Bluff Avenue"/><tag k="addr:housenumber" v="8221"/></node><node id="-32" lat="30.514854" lon="-97.722843" changeset="false"><tag k="addr:street" v="Miller Falls Cove"/><tag k="addr:housenumber" v="17702"/></node><node id="-33" lat="30.512846" lon="-97.724304" changeset="false"><tag k="addr:street" v="Broken Branch Drive"/><tag k="addr:housenumber" v="8228"/></node><node id="-34" lat="30.515066" lon="-97.721136" changeset="false"><tag k="addr:street" v="Miller Falls Drive"/><tag k="addr:housenumber" v="8114"/></node><node id="-35" lat="30.515943" lon="-97.729254" changeset="false"><tag k="addr:street" v="Columbia Falls Drive"/><tag k="addr:housenumber" v="8660"/></node><node id="-36" lat="30.515637" lon="-97.728052" changeset="false"><tag k="addr:street" v="Columbia Falls Cove"/><tag k="addr:housenumber" v="17611"/></node><node id="-37" lat="30.51422" lon="-97.724558" changeset="false"><tag k="addr:street" v="Glen Canyon Drive"/><tag k="addr:housenumber" v="8324"/></node><node id="-38" lat="30.521858" lon="-97.722729" changeset="false"><tag k="addr:street" v="Bar Harbor Bend"/><tag k="addr:housenumber" v="16910"/></node><node id="-39" lat="30.515561" lon="-97.723564" changeset="false"><tag k="addr:street" v="Glen Canyon Drive"/><tag k="addr:housenumber" v="8304"/></node><node id="-40" lat="30.514269" lon="-97.7202" changeset="false"><tag k="addr:street" v="Broken Branch Drive"/><tag k="addr:housenumber" v="8002"/></node><node id="-41" lat="30.515554" lon="-97.725751" changeset="false"><tag k="addr:street" v="Mount Shasta Cove"/><tag k="addr:housenumber" v="8416"/></node><node id="-42" lat="30.517284" lon="-97.726395" changeset="false"><tag k="addr:street" v="Box Canyon Terrace"/><tag k="addr:housenumber" v="17724"/></node><node id="-43" lat="30.522654" lon="-97.721992" changeset="false"><tag k="addr:street" v="Fern Bluff Avenue"/><tag k="addr:housenumber" v="8303"/></node><node id="-44" lat="30.515061" lon="-97.72725" changeset="false"><tag k="addr:street" v="Columbia Falls Cove"/><tag k="addr:housenumber" v="17601"/></node><node id="-45" lat="30.513378" lon="-97.727307" changeset="false"><tag k="addr:street" v="Gunnison Springs Drive"/><tag k="addr:housenumber" v="17503"/></node><node id="-46" lat="30.51536" lon="-97.727422" changeset="false"><tag k="addr:street" v="Columbia Falls Cove"/><tag k="addr:housenumber" v="17605"/></node><node id="-47" lat="30.515995" lon="-97.729351" changeset="false"><tag k="addr:street" v="Columbia Falls Drive"/><tag k="addr:housenumber" v="8658"/></node><node id="-48" lat="30.514896" lon="-97.720813" changeset="false"><tag k="addr:street" v="Miller Falls Drive"/><tag k="addr:housenumber" v="8110"/></node><node id="-49" lat="30.516321" lon="-97.726447" changeset="false"><tag k="addr:street" v="Fern Bluff Avenue"/><tag k="addr:housenumber" v="8502"/></node><node id="-50" lat="30.516163" lon="-97.723905" changeset="false"><tag k="addr:street" v="Park Valley Drive"/><tag k="addr:housenumber" v="17848"/></node><node id="-51" lat="30.515897" lon="-97.726387" changeset="false"><tag k="addr:street" v="Fern Bluff Avenue"/><tag k="addr:housenumber" v="8503"/></node><node id="-52" lat="30.516384" lon="-97.726247" changeset="false"><tag k="addr:street" v="Fern Bluff Avenue"/><tag k="addr:housenumber" v="8500"/></node><node id="-53" lat="30.514594" lon="-97.721092" changeset="false"><tag k="addr:street" v="Miller Falls Drive"/><tag k="addr:housenumber" v="8107"/></node><node id="-54" lat="30.515861" lon="-97.726591" changeset="false"><tag k="addr:street" v="Fern Bluff Avenue"/><tag k="addr:housenumber" v="8507"/></node><node id="-55" lat="30.514729" lon="-97.721523" changeset="false"><tag k="addr:street" v="Miller Falls Drive"/><tag k="addr:housenumber" v="8111"/></node><node id="-56" lat="30.512792" lon="-97.725223" changeset="false"><tag k="addr:street" v="Broken Branch Drive"/><tag k="addr:housenumber" v="8306"/></node><node id="-57" lat="30.51509" lon="-97.721382" changeset="false"><tag k="addr:street" v="Miller Falls Drive"/><tag k="addr:housenumber" v="8116"/></node><node id="-58" lat="30.513706" lon="-97.726129" changeset="false"><tag k="addr:street" v="Glen Canyon Drive"/><tag k="addr:housenumber" v="8346"/></node><node id="-59" lat="30.514279" lon="-97.728495" changeset="false"><tag k="addr:street" v="Columbia Falls Drive"/><tag k="addr:housenumber" v="8517"/></node><node id="-60" lat="30.513817" lon="-97.723613" changeset="false"><tag k="addr:street" v="Longdraw Drive"/><tag k="addr:housenumber" v="8216"/></node><node id="-61" lat="30.513839" lon="-97.725651" changeset="false"><tag k="addr:street" v="Glen Canyon Drive"/><tag k="addr:housenumber" v="8336"/></node><node id="-62" lat="30.512943" lon="-97.725295" changeset="false"><tag k="addr:street" v="Broken Branch Drive"/><tag k="addr:housenumber" v="8308"/></node><node id="-63" lat="30.521643" lon="-97.721758" changeset="false"><tag k="addr:street" v="Fern Bluff Avenue"/><tag k="addr:housenumber" v="8315"/></node><node id="-64" lat="30.514692" lon="-97.721304" changeset="false"><tag k="addr:street" v="Miller Falls Drive"/><tag k="addr:housenumber" v="8109"/></node><node id="-65" lat="30.513786" lon="-97.725833" changeset="false"><tag k="addr:street" v="Glen Canyon Drive"/><tag k="addr:housenumber" v="8338"/></node><node id="-66" lat="30.515194" lon="-97.723805" changeset="false"><tag k="addr:street" v="Glen Canyon Drive"/><tag k="addr:housenumber" v="8310"/></node><node id="-67" lat="30.514925" lon="-97.727811" changeset="false"><tag k="addr:street" v="Columbia Falls Cove"/><tag k="addr:housenumber" v="17600"/></node><node id="-68" lat="30.515082" lon="-97.727878" changeset="false"><tag k="addr:street" v="Columbia Falls Cove"/><tag k="addr:housenumber" v="17602"/></node></osm>