<?xml version="1.0" encoding="UTF-8"?><osm version="0.6" generator="github.com/aaronlidman/osm-and-geojson"><node id="-1" lat="30.224022" lon="-97.822517" changeset="false"><tag k="addr:street" v="Lovegrass Lane"/><tag k="addr:housenumber" v="2"/><tag k="coa:place_id" v="1104609"/></node><node id="-2" lat="30.224079" lon="-97.814185" changeset="false"><tag k="addr:street" v="Lovegrass Lane"/><tag k="addr:housenumber" v="50"/><tag k="coa:place_id" v="236827"/></node><node id="-3" lat="30.226754" lon="-97.804352" changeset="false"><tag k="addr:street" v="West Wind Trail"/><tag k="addr:housenumber" v="5002"/><tag k="coa:place_id" v="149456"/></node><node id="-4" lat="30.230189" lon="-97.803557" changeset="false"><tag k="addr:street" v="Sunset Trail"/><tag k="addr:housenumber" v="4700"/><tag k="coa:place_id" v="370054"/></node><node id="-5" lat="30.223217" lon="-97.810513" changeset="false"><tag k="addr:street" v="Pillow Road"/><tag k="addr:housenumber" v="29"/><tag k="coa:place_id" v="344560"/></node><node id="-6" lat="30.222944" lon="-97.810688" changeset="false"><tag k="addr:street" v="Pillow Road"/><tag k="addr:housenumber" v="31"/><tag k="coa:place_id" v="187257"/></node><node id="-7" lat="30.226351" lon="-97.807229" changeset="false"><tag k="addr:street" v="Reese Drive"/><tag k="addr:housenumber" v="4"/><tag k="coa:place_id" v="616432"/></node><node id="-8" lat="30.227479" lon="-97.808523" changeset="false"><tag k="addr:street" v="Pillow Road"/><tag k="addr:housenumber" v="2"/><tag k="coa:place_id" v="220961"/></node><node id="-9" lat="30.224564" lon="-97.814265" changeset="false"><tag k="addr:street" v="Yellow Tail Cove"/><tag k="addr:housenumber" v="22"/><tag k="coa:place_id" v="3028827"/></node><node id="-10" lat="30.217446" lon="-97.821095" changeset="false"><tag k="addr:street" v="Oakdale Drive"/><tag k="addr:housenumber" v="785"/><tag k="coa:place_id" v="875474"/></node><node id="-11" lat="30.222768" lon="-97.815674" changeset="false"><tag k="addr:street" v="Lovegrass Lane"/><tag k="addr:housenumber" v="37"/><tag k="coa:place_id" v="236784"/></node><node id="-12" lat="30.222174" lon="-97.816479" changeset="false"><tag k="addr:street" v="Lovegrass Lane"/><tag k="addr:housenumber" v="34"/><tag k="coa:place_id" v="236778"/></node><node id="-13" lat="30.221892" lon="-97.815471" changeset="false"><tag k="addr:street" v="Curley Mesquite Cove"/><tag k="addr:housenumber" v="6"/><tag k="coa:place_id" v="236794"/></node><node id="-14" lat="30.220497" lon="-97.825357" changeset="false"><tag k="addr:street" v="Brodie Lane"/><tag k="addr:housenumber" v="6209"/><tag k="coa:place_id" v="211656"/></node><node id="-15" lat="30.219317" lon="-97.819219" changeset="false"><tag k="addr:street" v="Oakdale Drive"/><tag k="addr:housenumber" v="786 1/2"/><tag k="coa:place_id" v="114181"/></node><node id="-16" lat="30.229645" lon="-97.819742" changeset="false"><tag k="addr:street" v="Brodie Lane"/><tag k="addr:housenumber" v="5493"/><tag k="coa:place_id" v="3291647"/></node><node id="-17" lat="30.22801" lon="-97.804253" changeset="false"><tag k="addr:street" v="Sunset Trail"/><tag k="addr:housenumber" v="4913"/><tag k="coa:place_id" v="3390498"/></node><node id="-18" lat="30.222888" lon="-97.81699" changeset="false"><tag k="addr:street" v="Lovegrass Lane"/><tag k="addr:housenumber" v="28"/><tag k="coa:place_id" v="236775"/></node><node id="-19" lat="30.224247" lon="-97.818022" changeset="false"><tag k="addr:street" v="Lovegrass Lane"/><tag k="addr:housenumber" v="18"/><tag k="coa:place_id" v="1120087"/></node><node id="-20" lat="30.216481" lon="-97.817871" changeset="false"><tag k="addr:street" v="Oakdale Drive"/><tag k="addr:housenumber" v="804"/><tag k="coa:place_id" v="3149426"/></node><node id="-21" lat="30.230941" lon="-97.818967" changeset="false"><tag k="addr:street" v="Brodie Lane"/><tag k="addr:housenumber" v="5207"/><tag k="coa:place_id" v="224573"/></node><node id="-22" lat="30.213465" lon="-97.828879" changeset="false"><tag k="addr:street" v="West William Cannon Drive"/><tag k="addr:housenumber" v="3416"/><tag k="coa:place_id" v="93690"/></node><node id="-23" lat="30.225251" lon="-97.804854" changeset="false"><tag k="addr:street" v="Sunset Trail"/><tag k="addr:housenumber" v="3"/><tag k="coa:place_id" v="1144791"/></node><node id="-24" lat="30.228329" lon="-97.81026" changeset="false"><tag k="addr:street" v="Jones Road"/><tag k="addr:housenumber" v="3205"/><tag k="coa:place_id" v="3106335"/></node><node id="-25" lat="30.228171" lon="-97.809725" changeset="false"><tag k="addr:street" v="Jones Road"/><tag k="addr:housenumber" v="3201 1/2"/><tag k="coa:place_id" v="3103357"/></node><node id="-26" lat="30.225072" lon="-97.812839" changeset="false"><tag k="addr:street" v="Yellow Tail Cove"/><tag k="addr:housenumber" v="28"/><tag k="coa:place_id" v="236820"/></node><node id="-27" lat="30.214662" lon="-97.829424" changeset="false"><tag k="addr:street" v="Brodie Lane"/><tag k="addr:housenumber" v="6811"/><tag k="coa:place_id" v="3049762"/></node><node id="-28" lat="30.231484" lon="-97.811318" changeset="false"><tag k="addr:street" v="Jones Road"/><tag k="addr:housenumber" v="3300 1/2"/><tag k="coa:place_id" v="5112096"/></node><node id="-29" lat="30.220822" lon="-97.812512" changeset="false"><tag k="addr:street" v="Pillow Road"/><tag k="addr:housenumber" v="44"/><tag k="coa:place_id" v="332686"/></node><node id="-30" lat="30.224314" lon="-97.81505" changeset="false"><tag k="addr:street" v="Yellow Tail Cove"/><tag k="addr:housenumber" v="18"/><tag k="coa:place_id" v="3036617"/></node><node id="-31" lat="30.222353" lon="-97.80825" changeset="false"><tag k="addr:street" v="Sunset Trail"/><tag k="addr:housenumber" v="25"/><tag k="coa:place_id" v="1144821"/></node><node id="-32" lat="30.215225" lon="-97.829674" changeset="false"><tag k="addr:street" v="Brodie Lane"/><tag k="addr:housenumber" v="6806"/><tag k="coa:place_id" v="875708"/></node><node id="-33" lat="30.223862" lon="-97.817601" changeset="false"><tag k="addr:street" v="Lovegrass Lane"/><tag k="addr:housenumber" v="20"/><tag k="coa:place_id" v="236770"/></node><node id="-34" lat="30.223681" lon="-97.809771" changeset="false"><tag k="addr:street" v="Pillow Road"/><tag k="addr:housenumber" v="17"/><tag k="coa:place_id" v="150056"/></node><node id="-35" lat="30.228824" lon="-97.81645" changeset="false"><tag k="addr:street" v="Ernest Robles Way"/><tag k="addr:housenumber" v="4540"/><tag k="coa:place_id" v="3039480"/></node><node id="-36" lat="30.221636" lon="-97.81109" changeset="false"><tag k="addr:street" v="Pillow Road"/><tag k="addr:housenumber" v="33"/><tag k="coa:place_id" v="557350"/></node><node id="-37" lat="30.232708" lon="-97.814655" changeset="false"><tag k="addr:street" v="W US Highway 290 Service Rd"/><tag k="addr:housenumber" v="4805"/><tag k="coa:place_id" v="3070130"/></node><node id="-38" lat="30.22941" lon="-97.81571" changeset="false"><tag k="addr:street" v="Ernest Robles Way"/><tag k="addr:housenumber" v="4550"/><tag k="coa:place_id" v="3223600"/></node><node id="-39" lat="30.219583" lon="-97.820274" changeset="false"><tag k="addr:street" v="Oakdale Drive"/><tag k="addr:housenumber" v="782"/><tag k="coa:place_id" v="3381521"/></node><node id="-40" lat="30.225728" lon="-97.807452" changeset="false"><tag k="addr:street" v="Reese Drive"/><tag k="addr:housenumber" v="6"/><tag k="coa:place_id" v="150170"/></node><node id="-41" lat="30.218767" lon="-97.818968" changeset="false"><tag k="addr:street" v="Oakdale Drive"/><tag k="addr:housenumber" v="790"/><tag k="coa:place_id" v="5074292"/></node><node id="-42" lat="30.228409" lon="-97.809346" changeset="false"><tag k="addr:street" v="Jones Road"/><tag k="addr:housenumber" v="3200"/><tag k="coa:place_id" v="130563"/></node><node id="-43" lat="30.2294" lon="-97.804036" changeset="false"><tag k="addr:street" v="Sunset Trail"/><tag k="addr:housenumber" v="4800"/><tag k="coa:place_id" v="5120965"/></node><node id="-44" lat="30.224625" lon="-97.813043" changeset="false"><tag k="addr:street" v="Yellow Tail Cove"/><tag k="addr:housenumber" v="26"/><tag k="coa:place_id" v="236821"/></node><node id="-45" lat="30.225559" lon="-97.805432" changeset="false"><tag k="addr:street" v="Sunset Trail"/><tag k="addr:housenumber" v="4"/><tag k="coa:place_id" v="150248"/></node><node id="-46" lat="30.217145" lon="-97.828057" changeset="false"><tag k="addr:street" v="Brodie Lane"/><tag k="addr:housenumber" v="6607"/><tag k="coa:place_id" v="214445"/></node><node id="-47" lat="30.232979" lon="-97.81253" changeset="false"><tag k="addr:street" v="W US Highway 290 Service Rd"/><tag k="addr:housenumber" v="4815 1/2"/><tag k="coa:place_id" v="3185146"/></node><node id="-48" lat="30.227277" lon="-97.80704" changeset="false"><tag k="addr:street" v="Jones Road"/><tag k="addr:housenumber" v="3000"/><tag k="coa:place_id" v="543016"/></node><node id="-49" lat="30.224701" lon="-97.816608" changeset="false"><tag k="addr:street" v="Yellow Tail Cove"/><tag k="addr:housenumber" v="12"/><tag k="coa:place_id" v="3028826"/></node><node id="-50" lat="30.224297" lon="-97.806129" changeset="false"><tag k="addr:street" v="Sunset Trail"/><tag k="addr:housenumber" v="10"/><tag k="coa:place_id" v="150230"/></node><node id="-51" lat="30.227793" lon="-97.803953" changeset="false"><tag k="addr:street" v="Sunset Trail"/><tag k="addr:housenumber" v="4917"/><tag k="coa:place_id" v="3390499"/></node><node id="-52" lat="30.228175" lon="-97.809907" changeset="false"><tag k="addr:street" v="Lone Oak Trail"/><tag k="addr:housenumber" v="2"/><tag k="coa:place_id" v="549064"/></node><node id="-53" lat="30.224963" lon="-97.817236" changeset="false"><tag k="addr:street" v="Yellow Tail Cove"/><tag k="addr:housenumber" v="4"/><tag k="coa:place_id" v="3067782"/></node><node id="-54" lat="30.225099" lon="-97.813744" changeset="false"><tag k="addr:street" v="Yellow Tail Cove"/><tag k="addr:housenumber" v="25"/><tag k="coa:place_id" v="236815"/></node><node id="-55" lat="30.225615" lon="-97.804522" changeset="false"><tag k="addr:street" v="Sunset Trail"/><tag k="addr:housenumber" v="1"/><tag k="coa:place_id" v="150260"/></node><node id="-56" lat="30.213282" lon="-97.828582" changeset="false"><tag k="addr:street" v="West William Cannon Drive"/><tag k="addr:housenumber" v="3412"/><tag k="coa:place_id" v="93689"/></node><node id="-57" lat="30.229567" lon="-97.811489" changeset="false"><tag k="addr:street" v="Jones Road"/><tag k="addr:housenumber" v="3300"/><tag k="coa:place_id" v="684652"/></node><node id="-58" lat="30.224148" lon="-97.812532" changeset="false"><tag k="addr:street" v="Lone Oak Trail"/><tag k="addr:housenumber" v="26"/><tag k="coa:place_id" v="411028"/></node><node id="-59" lat="30.223812" lon="-97.81503" changeset="false"><tag k="addr:street" v="Lovegrass Lane"/><tag k="addr:housenumber" v="45"/><tag k="coa:place_id" v="236825"/></node><node id="-60" lat="30.224282" lon="-97.808337" changeset="false"><tag k="addr:street" v="Reese Drive"/><tag k="addr:housenumber" v="12"/><tag k="coa:place_id" v="3285571"/></node><node id="-61" lat="30.229648" lon="-97.803874" changeset="false"><tag k="addr:street" v="Sunset Trail"/><tag k="addr:housenumber" v="4706"/><tag k="coa:place_id" v="5120964"/></node><node id="-62" lat="30.217661" lon="-97.821837" changeset="false"><tag k="addr:street" v="Oakdale Drive"/><tag k="addr:housenumber" v="775"/><tag k="coa:place_id" v="592888"/></node><node id="-63" lat="30.216763" lon="-97.817468" changeset="false"><tag k="addr:street" v="Oakdale Drive"/><tag k="addr:housenumber" v="802"/><tag k="coa:place_id" v="875450"/></node><node id="-64" lat="30.222759" lon="-97.809146" changeset="false"><tag k="addr:street" v="Reese Drive"/><tag k="addr:housenumber" v="20"/><tag k="coa:place_id" v="249699"/></node><node id="-65" lat="30.22599" lon="-97.804265" changeset="false"><tag k="addr:street" v="Jones Road"/><tag k="addr:housenumber" v="2704"/><tag k="coa:place_id" v="196690"/></node><node id="-66" lat="30.227961" lon="-97.804954" changeset="false"><tag k="addr:street" v="Sunset Trail"/><tag k="addr:housenumber" v="5004"/><tag k="coa:place_id" v="3348549"/></node><node id="-67" lat="30.229164" lon="-97.804167" changeset="false"><tag k="addr:street" v="Sunset Trail"/><tag k="addr:housenumber" v="4802"/><tag k="coa:place_id" v="5120966"/></node><node id="-68" lat="30.220995" lon="-97.809666" changeset="false"><tag k="addr:street" v="Reese Drive"/><tag k="addr:housenumber" v="29"/><tag k="coa:place_id" v="1144822"/></node><node id="-69" lat="30.227615" lon="-97.803608" changeset="false"><tag k="addr:street" v="Sunset Trail"/><tag k="addr:housenumber" v="5001"/><tag k="coa:place_id" v="149708"/></node><node id="-70" lat="30.222617" lon="-97.816179" changeset="false"><tag k="addr:street" v="Lovegrass Lane"/><tag k="addr:housenumber" v="35"/><tag k="coa:place_id" v="3108611"/></node><node id="-71" lat="30.230747" lon="-97.80095" changeset="false"><tag k="addr:street" v="West Gate Boulevard"/><tag k="addr:housenumber" v="4532"/><tag k="coa:place_id" v="5134833"/></node><node id="-72" lat="30.223622" lon="-97.817424" changeset="false"><tag k="addr:street" v="Lovegrass Lane"/><tag k="addr:housenumber" v="22"/><tag k="coa:place_id" v="236771"/></node><node id="-73" lat="30.229884" lon="-97.803771" changeset="false"><tag k="addr:street" v="Sunset Trail"/><tag k="addr:housenumber" v="4704"/><tag k="coa:place_id" v="5120963"/></node><node id="-74" lat="30.226147" lon="-97.810996" changeset="false"><tag k="addr:street" v="Lone Oak Trail"/><tag k="addr:housenumber" v="12"/><tag k="coa:place_id" v="745996"/></node><node id="-75" lat="30.225879" lon="-97.804077" changeset="false"><tag k="addr:street" v="West Gate Boulevard"/><tag k="addr:housenumber" v="5012"/><tag k="coa:place_id" v="148730"/></node><node id="-76" lat="30.221333" lon="-97.81162" changeset="false"><tag k="addr:street" v="Pillow Road"/><tag k="addr:housenumber" v="43"/><tag k="coa:place_id" v="374902"/></node><node id="-77" lat="30.232262" lon="-97.816532" changeset="false"><tag k="addr:street" v="W US Highway 290 Service Rd"/><tag k="addr:housenumber" v="4809"/><tag k="coa:place_id" v="3147500"/></node><node id="-78" lat="30.22531" lon="-97.813035" changeset="false"><tag k="addr:street" v="Yellow Tail Cove"/><tag k="addr:housenumber" v="29"/><tag k="coa:place_id" v="236819"/></node><node id="-79" lat="30.225188" lon="-97.812022" changeset="false"><tag k="addr:street" v="Lone Oak Trail"/><tag k="addr:housenumber" v="20"/><tag k="coa:place_id" v="142073"/></node><node id="-80" lat="30.220913" lon="-97.813911" changeset="false"><tag k="addr:street" v="Lone Oak Trail"/><tag k="addr:housenumber" v="37"/><tag k="coa:place_id" v="149936"/></node><node id="-81" lat="30.224558" lon="-97.817658" changeset="false"><tag k="addr:street" v="Lovegrass Lane"/><tag k="addr:housenumber" v="19"/><tag k="coa:place_id" v="3083405"/></node><node id="-82" lat="30.230832" lon="-97.800907" changeset="false"><tag k="addr:street" v="West Gate Boulevard"/><tag k="addr:housenumber" v="4528"/><tag k="coa:place_id" v="354099"/></node><node id="-83" lat="30.225226" lon="-97.813365" changeset="false"><tag k="addr:street" v="Yellow Tail Cove"/><tag k="addr:housenumber" v="27"/><tag k="coa:place_id" v="236818"/></node><node id="-84" lat="30.22454" lon="-97.814048" changeset="false"><tag k="addr:street" v="Lovegrass Lane"/><tag k="addr:housenumber" v="52"/><tag k="coa:place_id" v="3040680"/></node><node id="-85" lat="30.224473" lon="-97.818837" changeset="false"><tag k="addr:street" v="Lovegrass Lane"/><tag k="addr:housenumber" v="15"/><tag k="coa:place_id" v="236767"/></node><node id="-86" lat="30.226891" lon="-97.821281" changeset="false"><tag k="addr:street" v="Brodie Lane"/><tag k="addr:housenumber" v="5601"/><tag k="coa:place_id" v="735370"/></node><node id="-87" lat="30.21832" lon="-97.819766" changeset="false"><tag k="addr:street" v="Oakdale Drive"/><tag k="addr:housenumber" v="788"/><tag k="coa:place_id" v="875420"/></node><node id="-88" lat="30.221588" lon="-97.809234" changeset="false"><tag k="addr:street" v="Reese Drive"/><tag k="addr:housenumber" v="25"/><tag k="coa:place_id" v="213236"/></node><node id="-89" lat="30.22353" lon="-97.815249" changeset="false"><tag k="addr:street" v="Lovegrass Lane"/><tag k="addr:housenumber" v="43"/><tag k="coa:place_id" v="236826"/></node><node id="-90" lat="30.230961" lon="-97.814064" changeset="false"><tag k="addr:street" v="Ernest Robles Way"/><tag k="addr:housenumber" v="4802 1/2"/><tag k="coa:place_id" v="3184289"/></node><node id="-91" lat="30.225868" lon="-97.811173" changeset="false"><tag k="addr:street" v="Lone Oak Trail"/><tag k="addr:housenumber" v="14"/><tag k="coa:place_id" v="211511"/></node><node id="-92" lat="30.217325" lon="-97.825032" changeset="false"><tag k="addr:street" v="Oakdale Drive"/><tag k="addr:housenumber" v="759"/><tag k="coa:place_id" v="117954"/></node><node id="-93" lat="30.222388" lon="-97.816724" changeset="false"><tag k="addr:street" v="Lovegrass Lane"/><tag k="addr:housenumber" v="32"/><tag k="coa:place_id" v="236777"/></node><node id="-94" lat="30.229856" lon="-97.812784" changeset="false"><tag k="addr:street" v="Jones Road"/><tag k="addr:housenumber" v="3301"/><tag k="coa:place_id" v="236746"/></node><node id="-95" lat="30.225033" lon="-97.81811" changeset="false"><tag k="addr:street" v="Yellow Tail Cove"/><tag k="addr:housenumber" v="1"/><tag k="coa:place_id" v="236800"/></node><node id="-96" lat="30.226701" lon="-97.80684" changeset="false"><tag k="addr:street" v="Reese Drive"/><tag k="addr:housenumber" v="2"/><tag k="coa:place_id" v="150182"/></node><node id="-97" lat="30.231371" lon="-97.800751" changeset="false"><tag k="addr:street" v="West Gate Boulevard"/><tag k="addr:housenumber" v="4514"/><tag k="coa:place_id" v="295887"/></node></osm>