<?xml version="1.0" encoding="UTF-8"?><osm version="0.6" generator="github.com/aaronlidman/osm-and-geojson"><node id="-1" lat="30.343967" lon="-97.723284" changeset="false"><tag k="addr:street" v="Pasadena Drive"/><tag k="addr:housenumber" v="1213"/><tag k="addr:postcode" v="78757"/></node><node id="-2" lat="30.337701" lon="-97.721228" changeset="false"><tag k="addr:street" v="Justin Lane"/><tag k="addr:housenumber" v="910"/><tag k="addr:postcode" v="78757"/></node><node id="-3" lat="30.347334" lon="-97.722891" changeset="false"><tag k="addr:street" v="Morrow Street"/><tag k="addr:housenumber" v="1300"/><tag k="addr:postcode" v="78757"/></node><node id="-4" lat="30.33818" lon="-97.722157" changeset="false"><tag k="addr:street" v="Justin Lane"/><tag k="addr:housenumber" v="1020"/><tag k="addr:postcode" v="78757"/></node><node id="-5" lat="30.347278" lon="-97.722146" changeset="false"><tag k="addr:street" v="Morrow Street"/><tag k="addr:housenumber" v="1210"/><tag k="addr:postcode" v="78757"/></node><node id="-6" lat="30.340846" lon="-97.722137" changeset="false"><tag k="addr:street" v="West Saint John's Avenue"/><tag k="addr:housenumber" v="1106"/><tag k="addr:postcode" v="78757"/></node><node id="-7" lat="30.34108" lon="-97.725601" changeset="false"><tag k="addr:street" v="Cullen Avenue"/><tag k="addr:housenumber" v="1313"/><tag k="addr:postcode" v="78757"/></node><node id="-8" lat="30.34094" lon="-97.722366" changeset="false"><tag k="addr:street" v="Grover Avenue"/><tag k="addr:housenumber" v="7101"/><tag k="addr:postcode" v="78757"/></node><node id="-9" lat="30.338274" lon="-97.722098" changeset="false"><tag k="addr:street" v="Reese Lane"/><tag k="addr:housenumber" v="6901"/><tag k="addr:postcode" v="78757"/></node><node id="-10" lat="30.338801" lon="-97.720941" changeset="false"><tag k="addr:street" v="Ryan Drive"/><tag k="addr:housenumber" v="6917"/><tag k="addr:postcode" v="78757"/></node><node id="-11" lat="30.339047" lon="-97.72099" changeset="false"><tag k="addr:street" v="Ryan Drive"/><tag k="addr:housenumber" v="6927"/><tag k="addr:postcode" v="78757"/></node><node id="-12" lat="30.339514" lon="-97.723823" changeset="false"><tag k="addr:street" v="Justin Lane"/><tag k="addr:housenumber" v="1200"/><tag k="addr:postcode" v="78757"/></node><node id="-13" lat="30.339581" lon="-97.723991" changeset="false"><tag k="addr:street" v="Justin Lane"/><tag k="addr:housenumber" v="1202"/><tag k="addr:postcode" v="78757"/></node></osm>