<?xml version="1.0" encoding="UTF-8"?><osm version="0.6" generator="github.com/aaronlidman/osm-and-geojson"><node id="-1" lat="30.282596" lon="-97.792405" changeset="false"><tag k="addr:street" v="Crest Wood Court"/><tag k="addr:housenumber" v="101"/><tag k="coa:place_id" v="184727"/></node><node id="-2" lat="30.280436" lon="-97.794593" changeset="false"><tag k="addr:street" v="Las Lomas Drive"/><tag k="addr:housenumber" v="406"/><tag k="coa:place_id" v="123217"/></node><node id="-3" lat="30.285875" lon="-97.795663" changeset="false"><tag k="addr:street" v="Rock Creek Drive"/><tag k="addr:housenumber" v="803"/><tag k="coa:place_id" v="226458"/></node><node id="-4" lat="30.275199" lon="-97.793908" changeset="false"><tag k="addr:street" v="Gregory Place"/><tag k="addr:housenumber" v="5008"/><tag k="coa:place_id" v="3133931"/></node><node id="-5" lat="30.282268" lon="-97.794473" changeset="false"><tag k="addr:street" v="Split Rail Trail"/><tag k="addr:housenumber" v="705"/><tag k="coa:place_id" v="114037"/></node><node id="-6" lat="30.284178" lon="-97.794372" changeset="false"><tag k="addr:street" v="Bulian Lane"/><tag k="addr:housenumber" v="704"/><tag k="coa:place_id" v="114030"/></node><node id="-7" lat="30.285625" lon="-97.794556" changeset="false"><tag k="addr:street" v="Westbrook Drive"/><tag k="addr:housenumber" v="803"/><tag k="coa:place_id" v="682624"/></node><node id="-8" lat="30.279941" lon="-97.795702" changeset="false"><tag k="addr:street" v="Hillcrest Court"/><tag k="addr:housenumber" v="206"/><tag k="coa:place_id" v="120906"/></node><node id="-9" lat="30.277344" lon="-97.793436" changeset="false"><tag k="addr:street" v="Gentry Drive"/><tag k="addr:housenumber" v="3311"/><tag k="coa:place_id" v="1146352"/></node><node id="-10" lat="30.278628" lon="-97.792335" changeset="false"><tag k="addr:street" v="Sugar Creek Drive"/><tag k="addr:housenumber" v="9"/><tag k="coa:place_id" v="124909"/></node><node id="-11" lat="30.279128" lon="-97.797979" changeset="false"><tag k="addr:street" v="Bent Tree Court"/><tag k="addr:housenumber" v="300"/><tag k="coa:place_id" v="115901"/></node><node id="-12" lat="30.278811" lon="-97.796007" changeset="false"><tag k="addr:street" v="Las Lomas Drive"/><tag k="addr:housenumber" v="302"/><tag k="coa:place_id" v="214584"/></node><node id="-13" lat="30.276371" lon="-97.791694" changeset="false"><tag k="addr:street" v="Ridgewood Road"/><tag k="addr:housenumber" v="450"/><tag k="coa:place_id" v="168839"/></node><node id="-14" lat="30.276344" lon="-97.799746" changeset="false"><tag k="addr:street" v="Las Lomas Court"/><tag k="addr:housenumber" v="100"/><tag k="coa:place_id" v="602788"/></node><node id="-15" lat="30.282502" lon="-97.79835" changeset="false"><tag k="addr:street" v="Brookhaven Trail"/><tag k="addr:housenumber" v="610"/><tag k="coa:place_id" v="140131"/></node><node id="-16" lat="30.282304" lon="-97.792136" changeset="false"><tag k="addr:street" v="Las Lomas Drive"/><tag k="addr:housenumber" v="603"/><tag k="coa:place_id" v="116675"/></node><node id="-17" lat="30.277621" lon="-97.798704" changeset="false"><tag k="addr:street" v="Bee Caves Road"/><tag k="addr:housenumber" v="3312"/><tag k="coa:place_id" v="124286"/></node><node id="-18" lat="30.286938" lon="-97.794738" changeset="false"><tag k="addr:street" v="Westbrook Drive"/><tag k="addr:housenumber" v="804"/><tag k="coa:place_id" v="686902"/></node><node id="-19" lat="30.28234" lon="-97.793248" changeset="false"><tag k="addr:street" v="Las Lomas Drive"/><tag k="addr:housenumber" v="600"/><tag k="coa:place_id" v="115223"/></node><node id="-20" lat="30.286808" lon="-97.794029" changeset="false"><tag k="addr:street" v="Westbrook Drive"/><tag k="addr:housenumber" v="807"/><tag k="coa:place_id" v="682618"/></node><node id="-21" lat="30.286905" lon="-97.800176" changeset="false"><tag k="addr:street" v="Rocky River Road"/><tag k="addr:housenumber" v="703"/><tag k="coa:place_id" v="161870"/></node><node id="-22" lat="30.280498" lon="-97.792142" changeset="false"><tag k="addr:street" v="Sugar Creek Drive"/><tag k="addr:housenumber" v="16"/><tag k="coa:place_id" v="3126644"/></node><node id="-23" lat="30.283219" lon="-97.798718" changeset="false"><tag k="addr:street" v="Coquina Lane"/><tag k="addr:housenumber" v="600"/><tag k="coa:place_id" v="1131707"/></node><node id="-24" lat="30.276533" lon="-97.799212" changeset="false"><tag k="addr:street" v="Las Lomas Court"/><tag k="addr:housenumber" v="102"/><tag k="coa:place_id" v="131562"/></node><node id="-25" lat="30.278708" lon="-97.805976" changeset="false"><tag k="addr:street" v="Bee Caves Road"/><tag k="addr:housenumber" v="3632"/><tag k="coa:place_id" v="356259"/></node><node id="-26" lat="30.280996" lon="-97.807356" changeset="false"><tag k="addr:street" v="Reveille Road"/><tag k="addr:housenumber" v="111"/><tag k="coa:place_id" v="161636"/></node><node id="-27" lat="30.277962" lon="-97.796578" changeset="false"><tag k="addr:street" v="Las Lomas Drive"/><tag k="addr:housenumber" v="300"/><tag k="coa:place_id" v="126599"/></node><node id="-28" lat="30.282142" lon="-97.795614" changeset="false"><tag k="addr:street" v="Rainbow Cove"/><tag k="addr:housenumber" v="604"/><tag k="coa:place_id" v="114013"/></node><node id="-29" lat="30.274411" lon="-97.797054" changeset="false"><tag k="addr:street" v="Las Lomas Drive"/><tag k="addr:housenumber" v="101"/><tag k="coa:place_id" v="3107271"/></node><node id="-30" lat="30.280125" lon="-97.795012" changeset="false"><tag k="addr:street" v="Las Lomas Drive"/><tag k="addr:housenumber" v="404"/><tag k="coa:place_id" v="127743"/></node><node id="-31" lat="30.283372" lon="-97.796995" changeset="false"><tag k="addr:street" v="Westbrook Drive"/><tag k="addr:housenumber" v="616"/><tag k="coa:place_id" v="636520"/></node><node id="-32" lat="30.284004" lon="-97.795901" changeset="false"><tag k="addr:street" v="Westbrook Drive"/><tag k="addr:housenumber" v="701"/><tag k="coa:place_id" v="653734"/></node><node id="-33" lat="30.277757" lon="-97.794846" changeset="false"><tag k="addr:street" v="Woodview Court"/><tag k="addr:housenumber" v="105"/><tag k="coa:place_id" v="233221"/></node><node id="-34" lat="30.282042" lon="-97.798604" changeset="false"><tag k="addr:street" v="Westbrook Drive"/><tag k="addr:housenumber" v="604"/><tag k="coa:place_id" v="1146348"/></node><node id="-35" lat="30.28158" lon="-97.802481" changeset="false"><tag k="addr:street" v="Brookhaven Trail"/><tag k="addr:housenumber" v="402"/><tag k="coa:place_id" v="121640"/></node><node id="-36" lat="30.276694" lon="-97.795362" changeset="false"><tag k="addr:street" v="Parkwood Court"/><tag k="addr:housenumber" v="107"/><tag k="coa:place_id" v="594532"/></node><node id="-37" lat="30.281755" lon="-97.789407" changeset="false"><tag k="addr:street" v="Ridgewood Road"/><tag k="addr:housenumber" v="320"/><tag k="coa:place_id" v="177955"/></node><node id="-38" lat="30.279584" lon="-97.792464" changeset="false"><tag k="addr:street" v="Sugar Creek Drive"/><tag k="addr:housenumber" v="12"/><tag k="coa:place_id" v="338164"/></node><node id="-39" lat="30.276549" lon="-97.797302" changeset="false"><tag k="addr:street" v="Las Lomas Drive"/><tag k="addr:housenumber" v="110"/><tag k="coa:place_id" v="115025"/></node><node id="-40" lat="30.274951" lon="-97.796763" changeset="false"><tag k="addr:street" v="Las Lomas Drive"/><tag k="addr:housenumber" v="103"/><tag k="coa:place_id" v="120210"/></node><node id="-41" lat="30.282235" lon="-97.788357" changeset="false"><tag k="addr:street" v="Ridgewood Road"/><tag k="addr:housenumber" v="308"/><tag k="coa:place_id" v="122492"/></node><node id="-42" lat="30.277245" lon="-97.804009" changeset="false"><tag k="addr:street" v="Bee Caves Road"/><tag k="addr:housenumber" v="3520"/><tag k="coa:place_id" v="612436"/></node><node id="-43" lat="30.273957" lon="-97.795937" changeset="false"><tag k="addr:street" v="Rollingwood Drive"/><tag k="addr:housenumber" v="5101"/><tag k="coa:place_id" v="191938"/></node><node id="-44" lat="30.278483" lon="-97.802788" changeset="false"><tag k="addr:street" v="Westbrook Drive"/><tag k="addr:housenumber" v="201"/><tag k="coa:place_id" v="120896"/></node><node id="-45" lat="30.283407" lon="-97.78865" changeset="false"><tag k="addr:street" v="Sugar Shack Drive"/><tag k="addr:housenumber" v="8"/><tag k="coa:place_id" v="3083698"/></node><node id="-46" lat="30.286295" lon="-97.796573" changeset="false"><tag k="addr:street" v="Cedar Park Drive"/><tag k="addr:housenumber" v="803"/><tag k="coa:place_id" v="162008"/></node><node id="-47" lat="30.28746" lon="-97.798604" changeset="false"><tag k="addr:street" v="Rocky River Road"/><tag k="addr:housenumber" v="803 1/2"/><tag k="coa:place_id" v="3218008"/></node><node id="-48" lat="30.276339" lon="-97.796699" changeset="false"><tag k="addr:street" v="Las Lomas Drive"/><tag k="addr:housenumber" v="109"/><tag k="coa:place_id" v="153215"/></node><node id="-49" lat="30.281599" lon="-97.792627" changeset="false"><tag k="addr:street" v="Las Lomas Drive"/><tag k="addr:housenumber" v="503"/><tag k="coa:place_id" v="172522"/></node><node id="-50" lat="30.285006" lon="-97.798903" changeset="false"><tag k="addr:street" v="Rocky Ledge Road"/><tag k="addr:housenumber" v="617"/><tag k="coa:place_id" v="125165"/></node><node id="-51" lat="30.283624" lon="-97.802545" changeset="false"><tag k="addr:street" v="Westwood Terrace"/><tag k="addr:housenumber" v="600"/><tag k="coa:place_id" v="577240"/></node><node id="-52" lat="30.276439" lon="-97.798259" changeset="false"><tag k="addr:street" v="Las Lomas Court"/><tag k="addr:housenumber" v="106"/><tag k="coa:place_id" v="131567"/></node><node id="-53" lat="30.278019" lon="-97.799634" changeset="false"><tag k="addr:street" v="Bulian Lane"/><tag k="addr:housenumber" v="313"/><tag k="coa:place_id" v="120494"/></node><node id="-54" lat="30.281604" lon="-97.800229" changeset="false"><tag k="addr:street" v="Brookhaven Trail"/><tag k="addr:housenumber" v="503"/><tag k="coa:place_id" v="187846"/></node><node id="-55" lat="30.282868" lon="-97.792002" changeset="false"><tag k="addr:street" v="Crest Wood Court"/><tag k="addr:housenumber" v="100"/><tag k="coa:place_id" v="133791"/></node><node id="-56" lat="30.281678" lon="-97.793813" changeset="false"><tag k="addr:street" v="Las Lomas Drive"/><tag k="addr:housenumber" v="502"/><tag k="coa:place_id" v="118788"/></node><node id="-57" lat="30.285426" lon="-97.803155" changeset="false"><tag k="addr:street" v="Rocky River Road"/><tag k="addr:housenumber" v="501"/><tag k="coa:place_id" v="161726"/></node><node id="-58" lat="30.278729" lon="-97.795186" changeset="false"><tag k="addr:street" v="Woodview Court"/><tag k="addr:housenumber" v="110"/><tag k="coa:place_id" v="144234"/></node><node id="-59" lat="30.278558" lon="-97.805974" changeset="false"><tag k="addr:street" v="Westwood Terrace"/><tag k="addr:housenumber" v="100"/><tag k="coa:place_id" v="955484"/></node><node id="-60" lat="30.282064" lon="-97.806268" changeset="false"><tag k="addr:street" v="Reveille Road"/><tag k="addr:housenumber" v="109"/><tag k="coa:place_id" v="263331"/></node><node id="-61" lat="30.28248" lon="-97.796261" changeset="false"><tag k="addr:street" v="Bulian Lane"/><tag k="addr:housenumber" v="606"/><tag k="coa:place_id" v="114025"/></node><node id="-62" lat="30.284268" lon="-97.798511" changeset="false"><tag k="addr:street" v="Rocky Ledge Road"/><tag k="addr:housenumber" v="620"/><tag k="coa:place_id" v="333166"/></node><node id="-63" lat="30.284275" lon="-97.791671" changeset="false"><tag k="addr:street" v="Las Lomas Drive"/><tag k="addr:housenumber" v="708"/><tag k="coa:place_id" v="118008"/></node><node id="-64" lat="30.285362" lon="-97.804061" changeset="false"><tag k="addr:street" v="Rocky River Road"/><tag k="addr:housenumber" v="499"/><tag k="coa:place_id" v="161708"/></node><node id="-65" lat="30.279275" lon="-97.79609" changeset="false"><tag k="addr:street" v="Hillcrest Court"/><tag k="addr:housenumber" v="201"/><tag k="coa:place_id" v="117078"/></node><node id="-66" lat="30.276344" lon="-97.802256" changeset="false"><tag k="addr:street" v="Bee Caves Road"/><tag k="addr:housenumber" v="3342"/><tag k="coa:place_id" v="120848"/></node><node id="-67" lat="30.275732" lon="-97.800159" changeset="false"><tag k="addr:street" v="Bee Caves Road"/><tag k="addr:housenumber" v="3300"/><tag k="coa:place_id" v="697954"/></node><node id="-68" lat="30.287383" lon="-97.796392" changeset="false"><tag k="addr:street" v="Cedar Park Drive"/><tag k="addr:housenumber" v="809"/><tag k="coa:place_id" v="161624"/></node><node id="-69" lat="30.281876" lon="-97.795203" changeset="false"><tag k="addr:street" v="Rainbow Cove"/><tag k="addr:housenumber" v="606"/><tag k="coa:place_id" v="114017"/></node><node id="-70" lat="30.276807" lon="-97.793536" changeset="false"><tag k="addr:street" v="Gentry Drive"/><tag k="addr:housenumber" v="3312"/><tag k="coa:place_id" v="1146351"/></node><node id="-71" lat="30.283695" lon="-97.795295" changeset="false"><tag k="addr:street" v="Bulian Lane"/><tag k="addr:housenumber" v="700"/><tag k="coa:place_id" v="531429"/></node><node id="-72" lat="30.282668" lon="-97.789963" changeset="false"><tag k="addr:street" v="Sugar Shack Drive"/><tag k="addr:housenumber" v="14"/><tag k="coa:place_id" v="3051543"/></node><node id="-73" lat="30.284996" lon="-97.794982" changeset="false"><tag k="addr:street" v="Westbrook Drive"/><tag k="addr:housenumber" v="801"/><tag k="coa:place_id" v="582454"/></node><node id="-74" lat="30.284491" lon="-97.797533" changeset="false"><tag k="addr:street" v="Coquina Lane"/><tag k="addr:housenumber" v="500"/><tag k="coa:place_id" v="172733"/></node><node id="-75" lat="30.279791" lon="-97.798893" changeset="false"><tag k="addr:street" v="Bulian Lane"/><tag k="addr:housenumber" v="406"/><tag k="coa:place_id" v="502581"/></node><node id="-76" lat="30.273572" lon="-97.797552" changeset="false"><tag k="addr:street" v="Las Lomas Drive"/><tag k="addr:housenumber" v="100"/><tag k="coa:place_id" v="594472"/></node><node id="-77" lat="30.283087" lon="-97.787713" changeset="false"><tag k="addr:street" v="Ridgewood Road"/><tag k="addr:housenumber" v="220"/><tag k="coa:place_id" v="122336"/></node><node id="-78" lat="30.281331" lon="-97.788895" changeset="false"><tag k="addr:street" v="Ridgewood Road"/><tag k="addr:housenumber" v="318"/><tag k="coa:place_id" v="122468"/></node><node id="-79" lat="30.285482" lon="-97.802588" changeset="false"><tag k="addr:street" v="Rocky River Road"/><tag k="addr:housenumber" v="505"/><tag k="coa:place_id" v="1012652"/></node><node id="-80" lat="30.280589" lon="-97.79369" changeset="false"><tag k="addr:street" v="Ridgemont Court"/><tag k="addr:housenumber" v="101"/><tag k="coa:place_id" v="133513"/></node><node id="-81" lat="30.278349" lon="-97.799325" changeset="false"><tag k="addr:street" v="Bulian Lane"/><tag k="addr:housenumber" v="307"/><tag k="coa:place_id" v="170757"/></node><node id="-82" lat="30.277085" lon="-97.79564" changeset="false"><tag k="addr:street" v="Parkwood Court"/><tag k="addr:housenumber" v="108"/><tag k="coa:place_id" v="122945"/></node><node id="-83" lat="30.282972" lon="-97.79586" changeset="false"><tag k="addr:street" v="Bulian Lane"/><tag k="addr:housenumber" v="608"/><tag k="coa:place_id" v="124256"/></node><node id="-84" lat="30.279558" lon="-97.794446" changeset="false"><tag k="addr:street" v="Manor Ridge Court"/><tag k="addr:housenumber" v="107"/><tag k="coa:place_id" v="594454"/></node><node id="-85" lat="30.284763" lon="-97.804352" changeset="false"><tag k="addr:street" v="Reveille Road"/><tag k="addr:housenumber" v="303"/><tag k="coa:place_id" v="3032470"/></node><node id="-86" lat="30.278895" lon="-97.797441" changeset="false"><tag k="addr:street" v="Bent Tree Court"/><tag k="addr:housenumber" v="301"/><tag k="coa:place_id" v="211175"/></node><node id="-87" lat="30.281451" lon="-97.796125" changeset="false"><tag k="addr:street" v="Rainbow Cove"/><tag k="addr:housenumber" v="603"/><tag k="coa:place_id" v="114023"/></node><node id="-88" lat="30.28275" lon="-97.79753" changeset="false"><tag k="addr:street" v="Westbrook Drive"/><tag k="addr:housenumber" v="614"/><tag k="coa:place_id" v="686896"/></node><node id="-89" lat="30.28401" lon="-97.798775" changeset="false"><tag k="addr:street" v="Coquina Lane"/><tag k="addr:housenumber" v="606"/><tag k="coa:place_id" v="133285"/></node><node id="-90" lat="30.283866" lon="-97.792263" changeset="false"><tag k="addr:street" v="Las Lomas Drive"/><tag k="addr:housenumber" v="704"/><tag k="coa:place_id" v="118003"/></node><node id="-91" lat="30.280835" lon="-97.793403" changeset="false"><tag k="addr:street" v="Ridgemont Court"/><tag k="addr:housenumber" v="199"/><tag k="coa:place_id" v="594436"/></node><node id="-92" lat="30.277211" lon="-97.797285" changeset="false"><tag k="addr:street" v="Las Lomas Drive"/><tag k="addr:housenumber" v="200"/><tag k="coa:place_id" v="1157467"/></node><node id="-93" lat="30.284097" lon="-97.801673" changeset="false"><tag k="addr:street" v="Westwood Terrace"/><tag k="addr:housenumber" v="603"/><tag k="coa:place_id" v="3587333"/></node><node id="-94" lat="30.282425" lon="-97.791978" changeset="false"><tag k="addr:street" v="Crest Wood Court"/><tag k="addr:housenumber" v="103"/><tag k="coa:place_id" v="184723"/></node><node id="-95" lat="30.283618" lon="-97.78806" changeset="false"><tag k="addr:street" v="Sugar Shack Drive"/><tag k="addr:housenumber" v="3"/><tag k="coa:place_id" v="122354"/></node><node id="-96" lat="30.283257" lon="-97.786771" changeset="false"><tag k="addr:street" v="Ridgewood Road"/><tag k="addr:housenumber" v="202"/><tag k="coa:place_id" v="122342"/></node><node id="-97" lat="30.284917" lon="-97.799888" changeset="false"><tag k="addr:street" v="Rocky Ledge Road"/><tag k="addr:housenumber" v="616"/><tag k="coa:place_id" v="250000"/></node><node id="-98" lat="30.284424" lon="-97.798874" changeset="false"><tag k="addr:street" v="Rocky Ledge Road"/><tag k="addr:housenumber" v="618"/><tag k="coa:place_id" v="328125"/></node><node id="-99" lat="30.277984" lon="-97.792011" changeset="false"><tag k="addr:street" v="Brady Lane"/><tag k="addr:housenumber" v="432"/><tag k="coa:place_id" v="158114"/></node><node id="-100" lat="30.278001" lon="-97.795784" changeset="false"><tag k="addr:street" v="Las Lomas Drive"/><tag k="addr:housenumber" v="301"/><tag k="coa:place_id" v="127456"/></node><node id="-101" lat="30.277859" lon="-97.792676" changeset="false"><tag k="addr:street" v="Sugar Creek Drive"/><tag k="addr:housenumber" v="3"/><tag k="coa:place_id" v="193816"/></node><node id="-102" lat="30.280969" lon="-97.789332" changeset="false"><tag k="addr:street" v="Hatley Drive"/><tag k="addr:housenumber" v="3211"/><tag k="coa:place_id" v="171469"/></node><node id="-103" lat="30.285677" lon="-97.80175" changeset="false"><tag k="addr:street" v="Rocky Ledge Road"/><tag k="addr:housenumber" v="600"/><tag k="coa:place_id" v="133951"/></node><node id="-104" lat="30.279131" lon="-97.799377" changeset="false"><tag k="addr:street" v="Bulian Lane"/><tag k="addr:housenumber" v="400"/><tag k="coa:place_id" v="1001996"/></node><node id="-105" lat="30.277714" lon="-97.79532" changeset="false"><tag k="addr:street" v="Woodview Court"/><tag k="addr:housenumber" v="103"/><tag k="coa:place_id" v="186835"/></node><node id="-106" lat="30.282841" lon="-97.7909" changeset="false"><tag k="addr:street" v="Crest Wood Court"/><tag k="addr:housenumber" v="102"/><tag k="coa:place_id" v="184719"/></node><node id="-107" lat="30.279885" lon="-97.790257" changeset="false"><tag k="addr:street" v="Brady Lane"/><tag k="addr:housenumber" v="409"/><tag k="coa:place_id" v="189210"/></node><node id="-108" lat="30.276563" lon="-97.796503" changeset="false"><tag k="addr:street" v="Las Lomas Drive"/><tag k="addr:housenumber" v="201"/><tag k="coa:place_id" v="143539"/></node><node id="-109" lat="30.28084" lon="-97.794308" changeset="false"><tag k="addr:street" v="Las Lomas Drive"/><tag k="addr:housenumber" v="408"/><tag k="coa:place_id" v="144245"/></node><node id="-110" lat="30.283829" lon="-97.787455" changeset="false"><tag k="addr:street" v="Stratford Drive"/><tag k="addr:housenumber" v="3005"/><tag k="coa:place_id" v="727150"/></node><node id="-111" lat="30.278207" lon="-97.80485" changeset="false"><tag k="addr:street" v="Bee Caves Road"/><tag k="addr:housenumber" v="3532"/><tag k="coa:place_id" v="242401"/></node><node id="-112" lat="30.277439" lon="-97.796835" changeset="false"><tag k="addr:street" v="Las Lomas Drive"/><tag k="addr:housenumber" v="206"/><tag k="coa:place_id" v="122832"/></node><node id="-113" lat="30.279518" lon="-97.797664" changeset="false"><tag k="addr:street" v="Bent Tree Court"/><tag k="addr:housenumber" v="302"/><tag k="coa:place_id" v="3084329"/></node><node id="-114" lat="30.2754" lon="-97.796925" changeset="false"><tag k="addr:street" v="Las Lomas Drive"/><tag k="addr:housenumber" v="105"/><tag k="coa:place_id" v="122443"/></node><node id="-115" lat="30.279415" lon="-97.794717" changeset="false"><tag k="addr:street" v="Las Lomas Drive"/><tag k="addr:housenumber" v="401"/><tag k="coa:place_id" v="136528"/></node><node id="-116" lat="30.278438" lon="-97.805708" changeset="false"><tag k="addr:street" v="Bee Caves Road"/><tag k="addr:housenumber" v="3620"/><tag k="coa:place_id" v="979472"/></node><node id="-117" lat="30.285755" lon="-97.800256" changeset="false"><tag k="addr:street" v="Rocky Ledge Road"/><tag k="addr:housenumber" v="613"/><tag k="coa:place_id" v="161822"/></node><node id="-118" lat="30.282063" lon="-97.791597" changeset="false"><tag k="addr:street" v="Crest Wood Court"/><tag k="addr:housenumber" v="105"/><tag k="coa:place_id" v="184722"/></node><node id="-119" lat="30.279529" lon="-97.79169" changeset="false"><tag k="addr:street" v="Sugar Creek Drive"/><tag k="addr:housenumber" v="13"/><tag k="coa:place_id" v="174721"/></node><node id="-120" lat="30.273738" lon="-97.796906" changeset="false"><tag k="addr:street" v="Rollingwood Drive"/><tag k="addr:housenumber" v="5105"/><tag k="coa:place_id" v="158546"/></node><node id="-121" lat="30.284385" lon="-97.792199" changeset="false"><tag k="addr:street" v="Las Lomas Drive"/><tag k="addr:housenumber" v="706"/><tag k="coa:place_id" v="118007"/></node><node id="-122" lat="30.285398" lon="-97.797956" changeset="false"><tag k="addr:street" v="Forest View Drive"/><tag k="addr:housenumber" v="705"/><tag k="coa:place_id" v="174545"/></node><node id="-123" lat="30.277056" lon="-97.800871" changeset="false"><tag k="addr:street" v="Bulian Lane"/><tag k="addr:housenumber" v="202"/><tag k="coa:place_id" v="254878"/></node><node id="-124" lat="30.280864" lon="-97.79536" changeset="false"><tag k="addr:street" v="Rainbow Cove"/><tag k="addr:housenumber" v="607"/><tag k="coa:place_id" v="748900"/></node><node id="-125" lat="30.280687" lon="-97.798774" changeset="false"><tag k="addr:street" v="Westbrook Drive"/><tag k="addr:housenumber" v="505"/><tag k="coa:place_id" v="150805"/></node><node id="-126" lat="30.280035" lon="-97.792371" changeset="false"><tag k="addr:street" v="Sugar Creek Drive"/><tag k="addr:housenumber" v="14"/><tag k="coa:place_id" v="754504"/></node><node id="-127" lat="30.287252" lon="-97.798499" changeset="false"><tag k="addr:street" v="Rocky River Road"/><tag k="addr:housenumber" v="803"/><tag k="coa:place_id" v="1146727"/></node><node id="-128" lat="30.281019" lon="-97.79584" changeset="false"><tag k="addr:street" v="Rainbow Cove"/><tag k="addr:housenumber" v="605"/><tag k="coa:place_id" v="114022"/></node><node id="-129" lat="30.281987" lon="-97.79347" changeset="false"><tag k="addr:street" v="Las Lomas Drive"/><tag k="addr:housenumber" v="504"/><tag k="coa:place_id" v="118278"/></node><node id="-130" lat="30.280701" lon="-97.790211" changeset="false"><tag k="addr:street" v="Brady Lane"/><tag k="addr:housenumber" v="402"/><tag k="coa:place_id" v="158036"/></node><node id="-131" lat="30.280674" lon="-97.790238" changeset="false"><tag k="addr:street" v="Brady Lane"/><tag k="addr:housenumber" v="404"/><tag k="coa:place_id" v="115393"/></node><node id="-132" lat="30.286349" lon="-97.80138" changeset="false"><tag k="addr:street" v="Rocky River Road"/><tag k="addr:housenumber" v="609"/><tag k="coa:place_id" v="161846"/></node><node id="-133" lat="30.286356" lon="-97.801347" changeset="false"><tag k="addr:street" v="Rocky Ledge Road"/><tag k="addr:housenumber" v="601"/><tag k="coa:place_id" v="161738"/></node><node id="-134" lat="30.278951" lon="-97.799575" changeset="false"><tag k="addr:street" v="Stonewall Lane"/><tag k="addr:housenumber" v="307"/><tag k="coa:place_id" v="121106"/></node><node id="-135" lat="30.278882" lon="-97.799572" changeset="false"><tag k="addr:street" v="Bulian Lane"/><tag k="addr:housenumber" v="310"/><tag k="coa:place_id" v="120512"/></node><node id="-136" lat="30.279655" lon="-97.806295" changeset="false"><tag k="addr:street" v="Bee Caves Road"/><tag k="addr:housenumber" v="3652"/><tag k="coa:place_id" v="242409"/></node><node id="-137" lat="30.279571" lon="-97.806222" changeset="false"><tag k="addr:street" v="Bee Caves Road"/><tag k="addr:housenumber" v="3654"/><tag k="coa:place_id" v="242411"/></node></osm>