<?xml version="1.0" encoding="UTF-8"?><osm version="0.6" generator="github.com/aaronlidman/osm-and-geojson"><node id="-1" lat="30.490071" lon="-97.594447" changeset="false"><tag k="addr:street" v="Palm Vista Drive"/><tag k="addr:housenumber" v="1921"/><tag k="coa:place_id" v="3105735"/></node><node id="-2" lat="30.488037" lon="-97.594729" changeset="false"><tag k="addr:street" v="Willow Vista Drive"/><tag k="addr:housenumber" v="3700"/><tag k="coa:place_id" v="3105681"/></node><node id="-3" lat="30.487562" lon="-97.597441" changeset="false"><tag k="addr:street" v="Oak Vista Drive"/><tag k="addr:housenumber" v="2108"/><tag k="coa:place_id" v="3105675"/></node><node id="-4" lat="30.486437" lon="-97.593516" changeset="false"><tag k="addr:street" v="Maple Vista Drive"/><tag k="addr:housenumber" v="2113"/><tag k="coa:place_id" v="3105661"/></node><node id="-5" lat="30.494957" lon="-97.60514" changeset="false"><tag k="addr:street" v="Cisco Valley Drive"/><tag k="addr:housenumber" v="4401"/><tag k="coa:place_id" v="3092752"/></node><node id="-6" lat="30.486885" lon="-97.594342" changeset="false"><tag k="addr:street" v="Maple Vista Drive"/><tag k="addr:housenumber" v="2108"/><tag k="coa:place_id" v="3105655"/></node><node id="-7" lat="30.493388" lon="-97.593833" changeset="false"><tag k="addr:street" v="Apple Vista Circle"/><tag k="addr:housenumber" v="3712"/><tag k="coa:place_id" v="3105764"/></node><node id="-8" lat="30.490653" lon="-97.595187" changeset="false"><tag k="addr:street" v="Palm Vista Drive"/><tag k="addr:housenumber" v="1916"/><tag k="coa:place_id" v="3105728"/></node><node id="-9" lat="30.491206" lon="-97.595107" changeset="false"><tag k="addr:street" v="Palm Vista Drive"/><tag k="addr:housenumber" v="1908"/><tag k="coa:place_id" v="3105726"/></node><node id="-10" lat="30.490904" lon="-97.588409" changeset="false"><tag k="addr:street" v="Chris Lane"/><tag k="addr:housenumber" v="1404"/><tag k="coa:place_id" v="3296299"/></node><node id="-11" lat="30.492922" lon="-97.60255" changeset="false"><tag k="addr:street" v="Dark Tree Lane"/><tag k="addr:housenumber" v="513"/><tag k="coa:place_id" v="3363210"/></node><node id="-12" lat="30.490707" lon="-97.604442" changeset="false"><tag k="addr:street" v="Cheyenne Valley Drive"/><tag k="addr:housenumber" v="19720"/><tag k="coa:place_id" v="3220188"/></node><node id="-13" lat="30.499476" lon="-97.584998" changeset="false"><tag k="addr:street" v="Augusta Bend Drive"/><tag k="addr:housenumber" v="1401"/><tag k="coa:place_id" v="3294031"/></node><node id="-14" lat="30.497495" lon="-97.591827" changeset="false"><tag k="addr:street" v="Huntington Trail"/><tag k="addr:housenumber" v="1436"/><tag k="coa:place_id" v="3294125"/></node><node id="-15" lat="30.499462" lon="-97.592992" changeset="false"><tag k="addr:street" v="Huntington Trail"/><tag k="addr:housenumber" v="1405"/><tag k="coa:place_id" v="3294115"/></node><node id="-16" lat="30.48935" lon="-97.596038" changeset="false"><tag k="addr:street" v="Pine Vista Drive"/><tag k="addr:housenumber" v="3605"/><tag k="coa:place_id" v="3105699"/></node><node id="-17" lat="30.493433" lon="-97.603513" changeset="false"><tag k="addr:street" v="Cheyenne Valley Drive"/><tag k="addr:housenumber" v="19905"/><tag k="coa:place_id" v="3092659"/></node><node id="-18" lat="30.493168" lon="-97.595993" changeset="false"><tag k="addr:street" v="Peach Vista Drive"/><tag k="addr:housenumber" v="3504"/><tag k="coa:place_id" v="3105748"/></node><node id="-19" lat="30.492154" lon="-97.594279" changeset="false"><tag k="addr:street" v="Peach Vista Drive"/><tag k="addr:housenumber" v="3616"/><tag k="coa:place_id" v="3105754"/></node><node id="-20" lat="30.488129" lon="-97.596457" changeset="false"><tag k="addr:street" v="Oak Vista Drive"/><tag k="addr:housenumber" v="2021"/><tag k="coa:place_id" v="3105693"/></node><node id="-21" lat="30.487196" lon="-97.595958" changeset="false"><tag k="addr:street" v="Palm Vista Drive"/><tag k="addr:housenumber" v="2108"/><tag k="coa:place_id" v="3105668"/></node><node id="-22" lat="30.486978" lon="-97.593435" changeset="false"><tag k="addr:street" v="Maple Vista Drive"/><tag k="addr:housenumber" v="2105"/><tag k="coa:place_id" v="3105659"/></node><node id="-23" lat="30.492311" lon="-97.596421" changeset="false"><tag k="addr:street" v="Oak Vista Drive"/><tag k="addr:housenumber" v="1904"/><tag k="coa:place_id" v="3105709"/></node><node id="-24" lat="30.490347" lon="-97.594401" changeset="false"><tag k="addr:street" v="Palm Vista Drive"/><tag k="addr:housenumber" v="1917"/><tag k="coa:place_id" v="3105734"/></node><node id="-25" lat="30.488921" lon="-97.593089" changeset="false"><tag k="addr:street" v="Maple Vista Drive"/><tag k="addr:housenumber" v="2001"/><tag k="coa:place_id" v="3105703"/></node><node id="-26" lat="30.488434" lon="-97.597205" changeset="false"><tag k="addr:street" v="Oak Vista Drive"/><tag k="addr:housenumber" v="2016"/><tag k="coa:place_id" v="3105698"/></node><node id="-27" lat="30.491044" lon="-97.595855" changeset="false"><tag k="addr:street" v="Oak Vista Drive"/><tag k="addr:housenumber" v="1921"/><tag k="coa:place_id" v="3105722"/></node><node id="-28" lat="30.492766" lon="-97.595389" changeset="false"><tag k="addr:street" v="Peach Vista Drive"/><tag k="addr:housenumber" v="3600"/><tag k="coa:place_id" v="3105750"/></node><node id="-29" lat="30.490896" lon="-97.596705" changeset="false"><tag k="addr:street" v="Oak Vista Drive"/><tag k="addr:housenumber" v="1924"/><tag k="coa:place_id" v="3105714"/></node><node id="-30" lat="30.493582" lon="-97.591555" changeset="false"><tag k="addr:street" v="Priem Lane"/><tag k="addr:housenumber" v="4511"/><tag k="coa:place_id" v="3315854"/></node><node id="-31" lat="30.498789" lon="-97.595636" changeset="false"><tag k="addr:street" v="Gattis School Road"/><tag k="addr:housenumber" v="4244"/><tag k="coa:place_id" v="3363318"/></node><node id="-32" lat="30.488475" lon="-97.610003" changeset="false"><tag k="addr:street" v="Heatherwilde Boulevard"/><tag k="addr:housenumber" v="19501"/><tag k="coa:place_id" v="3293436"/></node><node id="-33" lat="30.49971" lon="-97.583994" changeset="false"><tag k="addr:street" v="Muirfield Bend Drive"/><tag k="addr:housenumber" v="1512"/><tag k="coa:place_id" v="3293923"/></node><node id="-34" lat="30.498827" lon="-97.584788" changeset="false"><tag k="addr:street" v="Augusta Bend Drive"/><tag k="addr:housenumber" v="1417"/><tag k="coa:place_id" v="3293806"/></node><node id="-35" lat="30.498578" lon="-97.584737" changeset="false"><tag k="addr:street" v="Augusta Bend Drive"/><tag k="addr:housenumber" v="1501"/><tag k="coa:place_id" v="3293819"/></node><node id="-36" lat="30.488586" lon="-97.603757" changeset="false"><tag k="addr:street" v="Bark Way"/><tag k="addr:housenumber" v="19900"/><tag k="coa:place_id" v="3367667"/></node><node id="-37" lat="30.499042" lon="-97.592637" changeset="false"><tag k="addr:street" v="Huntington Trail"/><tag k="addr:housenumber" v="1413"/><tag k="coa:place_id" v="3294116"/></node><node id="-38" lat="30.494209" lon="-97.590649" changeset="false"><tag k="addr:street" v="Priem Lane"/><tag k="addr:housenumber" v="4608"/><tag k="coa:place_id" v="1136111"/></node><node id="-39" lat="30.490332" lon="-97.596824" changeset="false"><tag k="addr:street" v="Oak Vista Drive"/><tag k="addr:housenumber" v="1932"/><tag k="coa:place_id" v="3105716"/></node><node id="-40" lat="30.488279" lon="-97.595684" changeset="false"><tag k="addr:street" v="Palm Vista Drive"/><tag k="addr:housenumber" v="2016"/><tag k="coa:place_id" v="3105685"/></node><node id="-41" lat="30.487036" lon="-97.5967" changeset="false"><tag k="addr:street" v="Oak Vista Drive"/><tag k="addr:housenumber" v="2113"/><tag k="coa:place_id" v="3105680"/></node><node id="-42" lat="30.491215" lon="-97.593959" changeset="false"><tag k="addr:street" v="Peach Vista Drive"/><tag k="addr:housenumber" v="3705"/><tag k="coa:place_id" v="3105746"/></node><node id="-43" lat="30.492594" lon="-97.5951" changeset="false"><tag k="addr:street" v="Peach Vista Drive"/><tag k="addr:housenumber" v="3604"/><tag k="coa:place_id" v="3105751"/></node><node id="-44" lat="30.497648" lon="-97.593223" changeset="false"><tag k="addr:street" v="Gattis School Road"/><tag k="addr:housenumber" v="4316"/><tag k="coa:place_id" v="1128901"/></node><node id="-45" lat="30.494492" lon="-97.583185" changeset="false"><tag k="addr:street" v="Priem Lane"/><tag k="addr:housenumber" v="1433"/><tag k="coa:place_id" v="1136108"/></node><node id="-46" lat="30.487814" lon="-97.593261" changeset="false"><tag k="addr:street" v="Maple Vista Drive"/><tag k="addr:housenumber" v="2017"/><tag k="coa:place_id" v="3105707"/></node><node id="-47" lat="30.488556" lon="-97.595625" changeset="false"><tag k="addr:street" v="Palm Vista Drive"/><tag k="addr:housenumber" v="2012"/><tag k="coa:place_id" v="3105684"/></node><node id="-48" lat="30.489923" lon="-97.593759" changeset="false"><tag k="addr:street" v="Maple Vista Drive"/><tag k="addr:housenumber" v="1916"/><tag k="coa:place_id" v="3105739"/></node><node id="-49" lat="30.48999" lon="-97.595885" changeset="false"><tag k="addr:street" v="Pine Vista Drive"/><tag k="addr:housenumber" v="3604"/><tag k="coa:place_id" v="3105730"/></node><node id="-50" lat="30.488711" lon="-97.597171" changeset="false"><tag k="addr:street" v="Oak Vista Drive"/><tag k="addr:housenumber" v="2012"/><tag k="coa:place_id" v="3105697"/></node><node id="-51" lat="30.491354" lon="-97.604843" changeset="false"><tag k="addr:street" v="San Chisolm Drive"/><tag k="addr:housenumber" v="19621"/><tag k="coa:place_id" v="3092697"/></node><node id="-52" lat="30.488948" lon="-97.596306" changeset="false"><tag k="addr:street" v="Oak Vista Drive"/><tag k="addr:housenumber" v="2009"/><tag k="coa:place_id" v="3105690"/></node><node id="-53" lat="30.488965" lon="-97.597113" changeset="false"><tag k="addr:street" v="Oak Vista Drive"/><tag k="addr:housenumber" v="2008"/><tag k="coa:place_id" v="3105696"/></node><node id="-54" lat="30.491107" lon="-97.585694" changeset="false"><tag k="addr:street" v="Chris Lane"/><tag k="addr:housenumber" v="1432"/><tag k="coa:place_id" v="3296301"/></node><node id="-55" lat="30.49555" lon="-97.603175" changeset="false"><tag k="addr:street" v="Cisco Valley Drive"/><tag k="addr:housenumber" v="4501"/><tag k="coa:place_id" v="3363266"/></node><node id="-56" lat="30.498593" lon="-97.593335" changeset="false"><tag k="addr:street" v="Huntington Trail"/><tag k="addr:housenumber" v="1416"/><tag k="coa:place_id" v="3294112"/></node><node id="-57" lat="30.499896" lon="-97.596404" changeset="false"><tag k="addr:street" v="Windcrest Drive"/><tag k="addr:housenumber" v="1404"/><tag k="coa:place_id" v="3294096"/></node><node id="-58" lat="30.496258" lon="-97.592328" changeset="false"><tag k="addr:street" v="Priem Lane"/><tag k="addr:housenumber" v="4428"/><tag k="coa:place_id" v="3315840"/></node><node id="-59" lat="30.486569" lon="-97.594392" changeset="false"><tag k="addr:street" v="Maple Vista Drive"/><tag k="addr:housenumber" v="2112"/><tag k="coa:place_id" v="3105656"/></node><node id="-60" lat="30.485923" lon="-97.593587" changeset="false"><tag k="addr:street" v="Maple Vista Drive"/><tag k="addr:housenumber" v="2121"/><tag k="coa:place_id" v="3105663"/></node><node id="-61" lat="30.489899" lon="-97.605968" changeset="false"><tag k="addr:street" v="Cisco Valley Cove"/><tag k="addr:housenumber" v="803"/><tag k="coa:place_id" v="3092710"/></node><node id="-62" lat="30.492443" lon="-97.594809" changeset="false"><tag k="addr:street" v="Peach Vista Drive"/><tag k="addr:housenumber" v="3608"/><tag k="coa:place_id" v="3105752"/></node><node id="-63" lat="30.491426" lon="-97.596588" changeset="false"><tag k="addr:street" v="Oak Vista Drive"/><tag k="addr:housenumber" v="1916"/><tag k="coa:place_id" v="3105712"/></node><node id="-64" lat="30.489794" lon="-97.592929" changeset="false"><tag k="addr:street" v="Maple Vista Drive"/><tag k="addr:housenumber" v="1913"/><tag k="coa:place_id" v="3105743"/></node><node id="-65" lat="30.489174" lon="-97.592998" changeset="false"><tag k="addr:street" v="Maple Vista Drive"/><tag k="addr:housenumber" v="1921"/><tag k="coa:place_id" v="3105745"/></node><node id="-66" lat="30.488685" lon="-97.594031" changeset="false"><tag k="addr:street" v="Maple Vista Drive"/><tag k="addr:housenumber" v="2004"/><tag k="coa:place_id" v="3105701"/></node><node id="-67" lat="30.487281" lon="-97.593394" changeset="false"><tag k="addr:street" v="Maple Vista Drive"/><tag k="addr:housenumber" v="2101"/><tag k="coa:place_id" v="3105658"/></node><node id="-68" lat="30.497593" lon="-97.593486" changeset="false"><tag k="addr:street" v="Gattis School Road"/><tag k="addr:housenumber" v="4312"/><tag k="coa:place_id" v="1128899"/></node><node id="-69" lat="30.490531" lon="-97.593626" changeset="false"><tag k="addr:street" v="Maple Vista Drive"/><tag k="addr:housenumber" v="1908"/><tag k="coa:place_id" v="3105737"/></node><node id="-70" lat="30.487566" lon="-97.596582" changeset="false"><tag k="addr:street" v="Oak Vista Drive"/><tag k="addr:housenumber" v="2105"/><tag k="coa:place_id" v="3105678"/></node><node id="-71" lat="30.486176" lon="-97.593539" changeset="false"><tag k="addr:street" v="Maple Vista Drive"/><tag k="addr:housenumber" v="2117"/><tag k="coa:place_id" v="3105662"/></node><node id="-72" lat="30.487854" lon="-97.596561" changeset="false"><tag k="addr:street" v="Oak Vista Drive"/><tag k="addr:housenumber" v="2101"/><tag k="coa:place_id" v="3105677"/></node><node id="-73" lat="30.49022" lon="-97.593648" changeset="false"><tag k="addr:street" v="Maple Vista Drive"/><tag k="addr:housenumber" v="1912"/><tag k="coa:place_id" v="3105738"/></node><node id="-74" lat="30.489528" lon="-97.596994" changeset="false"><tag k="addr:street" v="Oak Vista Drive"/><tag k="addr:housenumber" v="2000"/><tag k="coa:place_id" v="3105694"/></node><node id="-75" lat="30.49344" lon="-97.594191" changeset="false"><tag k="addr:street" v="Apple Vista Circle"/><tag k="addr:housenumber" v="3708"/><tag k="coa:place_id" v="3105763"/></node><node id="-76" lat="30.491725" lon="-97.596515" changeset="false"><tag k="addr:street" v="Oak Vista Drive"/><tag k="addr:housenumber" v="1912"/><tag k="coa:place_id" v="3105711"/></node><node id="-77" lat="30.490974" lon="-97.595139" changeset="false"><tag k="addr:street" v="Palm Vista Drive"/><tag k="addr:housenumber" v="1912"/><tag k="coa:place_id" v="3105727"/></node><node id="-78" lat="30.490878" lon="-97.594309" changeset="false"><tag k="addr:street" v="Palm Vista Drive"/><tag k="addr:housenumber" v="1903"/><tag k="coa:place_id" v="3105732"/></node><node id="-79" lat="30.49174" lon="-97.604775" changeset="false"><tag k="addr:street" v="San Chisolm Drive"/><tag k="addr:housenumber" v="19629"/><tag k="coa:place_id" v="3092699"/></node><node id="-80" lat="30.498485" lon="-97.584364" changeset="false"><tag k="addr:street" v="Augusta Bend Drive"/><tag k="addr:housenumber" v="1500"/><tag k="coa:place_id" v="3293989"/></node><node id="-81" lat="30.49822" lon="-97.585222" changeset="false"><tag k="addr:street" v="Augusta Bend Drive"/><tag k="addr:housenumber" v="1513"/><tag k="coa:place_id" v="3293822"/></node><node id="-82" lat="30.498131" lon="-97.585339" changeset="false"><tag k="addr:street" v="Augusta Bend Drive"/><tag k="addr:housenumber" v="1517"/><tag k="coa:place_id" v="3293823"/></node><node id="-83" lat="30.488551" lon="-97.619588" changeset="false"><tag k="addr:street" v="Flower Hill Drive"/><tag k="addr:housenumber" v="3008"/><tag k="coa:place_id" v="3362318"/></node><node id="-84" lat="30.490552" lon="-97.601347" changeset="false"><tag k="addr:street" v="Tree Sap Way"/><tag k="addr:housenumber" v="20013"/><tag k="coa:place_id" v="3220249"/></node><node id="-85" lat="30.496506" lon="-97.589112" changeset="false"><tag k="addr:street" v="Priem Lane"/><tag k="addr:housenumber" v="4638"/><tag k="coa:place_id" v="3316731"/></node><node id="-86" lat="30.493219" lon="-97.584842" changeset="false"><tag k="addr:street" v="Frankie Lane"/><tag k="addr:housenumber" v="20700"/><tag k="coa:place_id" v="3316811"/></node><node id="-87" lat="30.498668" lon="-97.584293" changeset="false"><tag k="addr:street" v="Augusta Bend Drive"/><tag k="addr:housenumber" v="1424"/><tag k="coa:place_id" v="3294000"/></node><node id="-88" lat="30.493135" lon="-97.587307" changeset="false"><tag k="addr:street" v="Priem Lane"/><tag k="addr:housenumber" v="4701"/><tag k="coa:place_id" v="3426966"/></node><node id="-89" lat="30.493613" lon="-97.590615" changeset="false"><tag k="addr:street" v="Priem Lane"/><tag k="addr:housenumber" v="4613"/><tag k="coa:place_id" v="3315855"/></node><node id="-90" lat="30.48855" lon="-97.619952" changeset="false"><tag k="addr:street" v="Flower Hill Drive"/><tag k="addr:housenumber" v="3004"/><tag k="coa:place_id" v="3362314"/></node><node id="-91" lat="30.497214" lon="-97.584539" changeset="false"><tag k="addr:street" v="Muirfield Bend Drive"/><tag k="addr:housenumber" v="1321"/><tag k="coa:place_id" v="3293955"/></node><node id="-92" lat="30.493369" lon="-97.586222" changeset="false"><tag k="addr:street" v="Priem Lane"/><tag k="addr:housenumber" v="4717"/><tag k="coa:place_id" v="5095109"/></node><node id="-93" lat="30.488482" lon="-97.611257" changeset="false"><tag k="addr:street" v="Heatherwilde Boulevard"/><tag k="addr:housenumber" v="19500"/><tag k="coa:place_id" v="5053841"/></node><node id="-94" lat="30.492037" lon="-97.594" changeset="false"><tag k="addr:street" v="Peach Vista Drive"/><tag k="addr:housenumber" v="3700"/><tag k="coa:place_id" v="3105755"/></node><node id="-95" lat="30.490801" lon="-97.5959" changeset="false"><tag k="addr:street" v="Oak Vista Drive"/><tag k="addr:housenumber" v="1925"/><tag k="coa:place_id" v="3105723"/></node><node id="-96" lat="30.490127" lon="-97.592894" changeset="false"><tag k="addr:street" v="Maple Vista Drive"/><tag k="addr:housenumber" v="1909"/><tag k="coa:place_id" v="3105742"/></node><node id="-97" lat="30.48839" lon="-97.593181" changeset="false"><tag k="addr:street" v="Maple Vista Drive"/><tag k="addr:housenumber" v="2009"/><tag k="coa:place_id" v="3105705"/></node><node id="-98" lat="30.487838" lon="-97.597382" changeset="false"><tag k="addr:street" v="Oak Vista Drive"/><tag k="addr:housenumber" v="2104"/><tag k="coa:place_id" v="3105674"/></node><node id="-99" lat="30.487751" lon="-97.595845" changeset="false"><tag k="addr:street" v="Palm Vista Drive"/><tag k="addr:housenumber" v="2100"/><tag k="coa:place_id" v="3105666"/></node><node id="-100" lat="30.494306" lon="-97.600489" changeset="false"><tag k="addr:street" v="Dark Tree Cove"/><tag k="addr:housenumber" v="20313"/><tag k="coa:place_id" v="3102615"/></node><node id="-101" lat="30.488131" lon="-97.604475" changeset="false"><tag k="addr:street" v="Boone Valley Drive"/><tag k="addr:housenumber" v="601"/><tag k="coa:place_id" v="3103046"/></node><node id="-102" lat="30.487549" lon="-97.59332" changeset="false"><tag k="addr:street" v="Maple Vista Drive"/><tag k="addr:housenumber" v="2021"/><tag k="coa:place_id" v="3105708"/></node><node id="-103" lat="30.486252" lon="-97.59445" changeset="false"><tag k="addr:street" v="Maple Vista Drive"/><tag k="addr:housenumber" v="2116"/><tag k="coa:place_id" v="3105657"/></node><node id="-104" lat="30.4888" lon="-97.604499" changeset="false"><tag k="addr:street" v="San Chisolm Drive"/><tag k="addr:housenumber" v="19505"/><tag k="coa:place_id" v="3103018"/></node><node id="-105" lat="30.490067" lon="-97.59687" changeset="false"><tag k="addr:street" v="Oak Vista Drive"/><tag k="addr:housenumber" v="1936"/><tag k="coa:place_id" v="3105717"/></node><node id="-106" lat="30.489451" lon="-97.592965" changeset="false"><tag k="addr:street" v="Maple Vista Drive"/><tag k="addr:housenumber" v="1917"/><tag k="coa:place_id" v="3105744"/></node><node id="-107" lat="30.490609" lon="-97.596765" changeset="false"><tag k="addr:street" v="Oak Vista Drive"/><tag k="addr:housenumber" v="1928"/><tag k="coa:place_id" v="3105715"/></node><node id="-108" lat="30.488493" lon="-97.594767" changeset="false"><tag k="addr:street" v="Palm Vista Drive"/><tag k="addr:housenumber" v="2013"/><tag k="coa:place_id" v="3105689"/></node><node id="-109" lat="30.492001" lon="-97.596469" changeset="false"><tag k="addr:street" v="Oak Vista Drive"/><tag k="addr:housenumber" v="1908"/><tag k="coa:place_id" v="3105710"/></node><node id="-110" lat="30.492109" lon="-97.605706" changeset="false"><tag k="addr:street" v="Cisco Valley Drive"/><tag k="addr:housenumber" v="4109"/><tag k="coa:place_id" v="3092725"/></node><node id="-111" lat="30.496673" lon="-97.594163" changeset="false"><tag k="addr:street" v="Gattis School Road"/><tag k="addr:housenumber" v="4257"/><tag k="coa:place_id" v="1128914"/></node><node id="-112" lat="30.488609" lon="-97.60188" changeset="false"><tag k="addr:street" v="Tree Sap Way"/><tag k="addr:housenumber" v="19900"/><tag k="coa:place_id" v="3367690"/></node><node id="-113" lat="30.499019" lon="-97.585477" changeset="false"><tag k="addr:street" v="Bethpage Drive"/><tag k="addr:housenumber" v="1212"/><tag k="coa:place_id" v="3293785"/></node><node id="-114" lat="30.497125" lon="-97.584681" changeset="false"><tag k="addr:street" v="Muirfield Bend Drive"/><tag k="addr:housenumber" v="1317"/><tag k="coa:place_id" v="3293954"/></node><node id="-115" lat="30.497318" lon="-97.584397" changeset="false"><tag k="addr:street" v="Muirfield Bend Drive"/><tag k="addr:housenumber" v="1325"/><tag k="coa:place_id" v="3293956"/></node><node id="-116" lat="30.498413" lon="-97.583965" changeset="false"><tag k="addr:street" v="Muirfield Bend Drive"/><tag k="addr:housenumber" v="1412"/><tag k="coa:place_id" v="3293960"/></node><node id="-117" lat="30.495928" lon="-97.5938" changeset="false"><tag k="addr:street" v="Gattis School Road"/><tag k="addr:housenumber" v="4301"/><tag k="coa:place_id" v="3387031"/></node><node id="-118" lat="30.496039" lon="-97.603969" changeset="false"><tag k="addr:street" v="Tiny Seed Cove"/><tag k="addr:housenumber" v="4501"/><tag k="coa:place_id" v="3363264"/></node><node id="-119" lat="30.497669" lon="-97.588173" changeset="false"><tag k="addr:street" v="Bethpage Drive"/><tag k="addr:housenumber" v="1009"/><tag k="coa:place_id" v="3168884"/></node><node id="-120" lat="30.498913" lon="-97.583828" changeset="false"><tag k="addr:street" v="Muirfield Bend Drive"/><tag k="addr:housenumber" v="1424"/><tag k="coa:place_id" v="3293927"/></node><node id="-121" lat="30.499062" lon="-97.583832" changeset="false"><tag k="addr:street" v="Muirfield Bend Drive"/><tag k="addr:housenumber" v="1428"/><tag k="coa:place_id" v="3293928"/></node><node id="-122" lat="30.4894" lon="-97.596367" changeset="false"><tag k="addr:street" v="Pine Vista Drive"/><tag k="addr:housenumber" v="3601"/><tag k="coa:place_id" v="3363283"/></node><node id="-123" lat="30.497904" lon="-97.59125" changeset="false"><tag k="addr:street" v="Huntington Trail"/><tag k="addr:housenumber" v="1437"/><tag k="coa:place_id" v="3294126"/></node><node id="-124" lat="30.498574" lon="-97.583887" changeset="false"><tag k="addr:street" v="Muirfield Bend Drive"/><tag k="addr:housenumber" v="1416"/><tag k="coa:place_id" v="3293961"/></node><node id="-125" lat="30.499528" lon="-97.583435" changeset="false"><tag k="addr:street" v="Muirfield Bend Drive"/><tag k="addr:housenumber" v="1509"/><tag k="coa:place_id" v="3293979"/></node><node id="-126" lat="30.488836" lon="-97.601863" changeset="false"><tag k="addr:street" v="Tree Sap Way"/><tag k="addr:housenumber" v="19904"/><tag k="coa:place_id" v="3367691"/></node><node id="-127" lat="30.500783" lon="-97.596885" changeset="false"><tag k="addr:street" v="Windcrest Drive"/><tag k="addr:housenumber" v="1333"/><tag k="coa:place_id" v="3294086"/></node><node id="-128" lat="30.49466" lon="-97.604055" changeset="false"><tag k="addr:street" v="San Chisolm Drive"/><tag k="addr:housenumber" v="19833"/><tag k="coa:place_id" v="3092653"/></node><node id="-129" lat="30.499882" lon="-97.595333" changeset="false"><tag k="addr:street" v="Windcrest Drive"/><tag k="addr:housenumber" v="1416"/><tag k="coa:place_id" v="3294104"/></node><node id="-130" lat="30.490521" lon="-97.604466" changeset="false"><tag k="addr:street" v="Cheyenne Valley Drive"/><tag k="addr:housenumber" v="19716"/><tag k="coa:place_id" v="3220245"/></node><node id="-131" lat="30.491493" lon="-97.595035" changeset="false"><tag k="addr:street" v="Palm Vista Drive"/><tag k="addr:housenumber" v="1904"/><tag k="coa:place_id" v="3105725"/></node><node id="-132" lat="30.48923" lon="-97.597054" changeset="false"><tag k="addr:street" v="Oak Vista Drive"/><tag k="addr:housenumber" v="2004"/><tag k="coa:place_id" v="3105695"/></node><node id="-133" lat="30.488682" lon="-97.596364" changeset="false"><tag k="addr:street" v="Oak Vista Drive"/><tag k="addr:housenumber" v="2013"/><tag k="coa:place_id" v="3105691"/></node><node id="-134" lat="30.488406" lon="-97.596411" changeset="false"><tag k="addr:street" v="Oak Vista Drive"/><tag k="addr:housenumber" v="2017"/><tag k="coa:place_id" v="3105692"/></node><node id="-135" lat="30.492807" lon="-97.59419" changeset="false"><tag k="addr:street" v="Apple Vista Circle"/><tag k="addr:housenumber" v="3709"/><tag k="coa:place_id" v="3105767"/></node><node id="-136" lat="30.486697" lon="-97.593476" changeset="false"><tag k="addr:street" v="Maple Vista Drive"/><tag k="addr:housenumber" v="2109"/><tag k="coa:place_id" v="3105660"/></node><node id="-137" lat="30.499791" lon="-97.597529" changeset="false"><tag k="addr:street" v="Windcrest Cove"/><tag k="addr:housenumber" v="101"/><tag k="coa:place_id" v="3294080"/></node><node id="-138" lat="30.487308" lon="-97.597499" changeset="false"><tag k="addr:street" v="Oak Vista Drive"/><tag k="addr:housenumber" v="2112"/><tag k="coa:place_id" v="3105676"/></node><node id="-139" lat="30.48937" lon="-97.601284" changeset="false"><tag k="addr:street" v="Tree Sap Way"/><tag k="addr:housenumber" v="19913"/><tag k="coa:place_id" v="3367698"/></node><node id="-140" lat="30.499888" lon="-97.595998" changeset="false"><tag k="addr:street" v="Windcrest Drive"/><tag k="addr:housenumber" v="1408"/><tag k="coa:place_id" v="3294097"/></node><node id="-141" lat="30.49933" lon="-97.585468" changeset="false"><tag k="addr:street" v="Augusta Bend Drive"/><tag k="addr:housenumber" v="1217"/><tag k="coa:place_id" v="3294029"/></node><node id="-142" lat="30.499064" lon="-97.593639" changeset="false"><tag k="addr:street" v="Huntington Trail"/><tag k="addr:housenumber" v="1408"/><tag k="coa:place_id" v="3294110"/></node><node id="-143" lat="30.499211" lon="-97.583861" changeset="false"><tag k="addr:street" v="Muirfield Bend Drive"/><tag k="addr:housenumber" v="1500"/><tag k="coa:place_id" v="3293917"/></node><node id="-144" lat="30.498534" lon="-97.585663" changeset="false"><tag k="addr:street" v="Bethpage Drive"/><tag k="addr:housenumber" v="1205"/><tag k="coa:place_id" v="3293787"/></node><node id="-145" lat="30.493664" lon="-97.605476" changeset="false"><tag k="addr:street" v="Cisco Valley Drive"/><tag k="addr:housenumber" v="4301"/><tag k="coa:place_id" v="3362379"/></node><node id="-146" lat="30.487951" lon="-97.594011" changeset="false"><tag k="addr:street" v="Willow Vista Drive"/><tag k="addr:housenumber" v="3712"/><tag k="coa:place_id" v="3363311"/></node><node id="-147" lat="30.491543" lon="-97.604306" changeset="false"><tag k="addr:street" v="Cheyenne Valley Drive"/><tag k="addr:housenumber" v="19800"/><tag k="coa:place_id" v="3220185"/></node><node id="-148" lat="30.499409" lon="-97.592081" changeset="false"><tag k="addr:street" v="Amistad Drive"/><tag k="addr:housenumber" v="1353"/><tag k="coa:place_id" v="3294124"/></node><node id="-149" lat="30.497276" lon="-97.592399" changeset="false"><tag k="addr:street" v="Priem Lane"/><tag k="addr:housenumber" v="4400"/><tag k="coa:place_id" v="3315839"/></node><node id="-150" lat="30.499381" lon="-97.583864" changeset="false"><tag k="addr:street" v="Muirfield Bend Drive"/><tag k="addr:housenumber" v="1504"/><tag k="coa:place_id" v="3293921"/></node><node id="-151" lat="30.497667" lon="-97.588364" changeset="false"><tag k="addr:street" v="Bethpage Drive"/><tag k="addr:housenumber" v="1005"/><tag k="coa:place_id" v="3168883"/></node><node id="-152" lat="30.497938" lon="-97.586621" changeset="false"><tag k="addr:street" v="Bethpage Drive"/><tag k="addr:housenumber" v="1105"/><tag k="coa:place_id" v="3169142"/></node><node id="-153" lat="30.493483" lon="-97.594638" changeset="false"><tag k="addr:street" v="Apple Vista Circle"/><tag k="addr:housenumber" v="3704"/><tag k="coa:place_id" v="3105762"/></node><node id="-154" lat="30.488169" lon="-97.597295" changeset="false"><tag k="addr:street" v="Oak Vista Drive"/><tag k="addr:housenumber" v="2100"/><tag k="coa:place_id" v="3105673"/></node><node id="-155" lat="30.487331" lon="-97.594435" changeset="false"><tag k="addr:street" v="Willow Vista Drive"/><tag k="addr:housenumber" v="3709"/><tag k="coa:place_id" v="3105665"/></node><node id="-156" lat="30.491535" lon="-97.605779" changeset="false"><tag k="addr:street" v="Cisco Valley Drive"/><tag k="addr:housenumber" v="4103"/><tag k="coa:place_id" v="3092722"/></node><node id="-157" lat="30.489235" lon="-97.604486" changeset="false"><tag k="addr:street" v="San Chisolm Drive"/><tag k="addr:housenumber" v="19513"/><tag k="coa:place_id" v="3103020"/></node><node id="-158" lat="30.495143" lon="-97.601512" changeset="false"><tag k="addr:street" v="San Chisolm Drive"/><tag k="addr:housenumber" v="19929"/><tag k="coa:place_id" v="3092647"/></node><node id="-159" lat="30.498026" lon="-97.586475" changeset="false"><tag k="addr:street" v="Bethpage Drive"/><tag k="addr:housenumber" v="1109"/><tag k="coa:place_id" v="3169143"/></node><node id="-160" lat="30.496239" lon="-97.604405" changeset="false"><tag k="addr:street" v="Tiny Seed Cove"/><tag k="addr:housenumber" v="4502"/><tag k="coa:place_id" v="3092773"/></node><node id="-161" lat="30.48878" lon="-97.594708" changeset="false"><tag k="addr:street" v="Palm Vista Drive"/><tag k="addr:housenumber" v="2009"/><tag k="coa:place_id" v="3105688"/></node><node id="-162" lat="30.494207" lon="-97.589731" changeset="false"><tag k="addr:street" v="Priem Lane"/><tag k="addr:housenumber" v="4632"/><tag k="coa:place_id" v="1129293"/></node><node id="-163" lat="30.488375" lon="-97.594066" changeset="false"><tag k="addr:street" v="Maple Vista Drive"/><tag k="addr:housenumber" v="2008"/><tag k="coa:place_id" v="3105702"/></node><node id="-164" lat="30.491132" lon="-97.592667" changeset="false"><tag k="addr:street" v="Maple Vista Drive"/><tag k="addr:housenumber" v="1817"/><tag k="coa:place_id" v="3105760"/></node><node id="-165" lat="30.487484" lon="-97.595901" changeset="false"><tag k="addr:street" v="Palm Vista Drive"/><tag k="addr:housenumber" v="2104"/><tag k="coa:place_id" v="3105667"/></node><node id="-166" lat="30.49884" lon="-97.583405" changeset="false"><tag k="addr:street" v="Muirfield Bend Drive"/><tag k="addr:housenumber" v="1429"/><tag k="coa:place_id" v="3293968"/></node><node id="-167" lat="30.493181" lon="-97.588483" changeset="false"><tag k="addr:street" v="Priem Lane"/><tag k="addr:housenumber" v="4645"/><tag k="coa:place_id" v="1136113"/></node><node id="-168" lat="30.492642" lon="-97.593746" changeset="false"><tag k="addr:street" v="Apple Vista Circle"/><tag k="addr:housenumber" v="3713"/><tag k="coa:place_id" v="3105768"/></node><node id="-169" lat="30.489808" lon="-97.587792" changeset="false"><tag k="addr:street" v="Chris Lane"/><tag k="addr:housenumber" v="1411"/><tag k="coa:place_id" v="3296326"/></node><node id="-170" lat="30.490774" lon="-97.593568" changeset="false"><tag k="addr:street" v="Maple Vista Drive"/><tag k="addr:housenumber" v="1904"/><tag k="coa:place_id" v="3105736"/></node><node id="-171" lat="30.490624" lon="-97.594354" changeset="false"><tag k="addr:street" v="Palm Vista Drive"/><tag k="addr:housenumber" v="1913"/><tag k="coa:place_id" v="3105733"/></node><node id="-172" lat="30.490491" lon="-97.595948" changeset="false"><tag k="addr:street" v="Oak Vista Drive"/><tag k="addr:housenumber" v="1929"/><tag k="coa:place_id" v="3105724"/></node><node id="-173" lat="30.491161" lon="-97.596634" changeset="false"><tag k="addr:street" v="Oak Vista Drive"/><tag k="addr:housenumber" v="1920"/><tag k="coa:place_id" v="3105713"/></node><node id="-174" lat="30.493337" lon="-97.593502" changeset="false"><tag k="addr:street" v="Apple Vista Circle"/><tag k="addr:housenumber" v="3716"/><tag k="coa:place_id" v="3105765"/></node><node id="-175" lat="30.492305" lon="-97.594557" changeset="false"><tag k="addr:street" v="Peach Vista Drive"/><tag k="addr:housenumber" v="3612"/><tag k="coa:place_id" v="3105753"/></node><node id="-176" lat="30.491519" lon="-97.592592" changeset="false"><tag k="addr:street" v="Maple Vista Drive"/><tag k="addr:housenumber" v="1813"/><tag k="coa:place_id" v="3105759"/></node><node id="-177" lat="30.49131" lon="-97.595822" changeset="false"><tag k="addr:street" v="Oak Vista Drive"/><tag k="addr:housenumber" v="1917"/><tag k="coa:place_id" v="3105721"/></node><node id="-178" lat="30.49079" lon="-97.592773" changeset="false"><tag k="addr:street" v="Maple Vista Drive"/><tag k="addr:housenumber" v="1901"/><tag k="coa:place_id" v="3105740"/></node><node id="-179" lat="30.483176" lon="-97.589995" changeset="false"><tag k="addr:street" v="Panther Loop"/><tag k="addr:housenumber" v="1501"/><tag k="coa:place_id" v="3296330"/></node><node id="-180" lat="30.493336" lon="-97.589644" changeset="false"><tag k="addr:street" v="Priem Lane"/><tag k="addr:housenumber" v="4629"/><tag k="coa:place_id" v="1136112"/></node><node id="-181" lat="30.489299" lon="-97.595719" changeset="false"><tag k="addr:street" v="Pine Vista Drive"/><tag k="addr:housenumber" v="3609"/><tag k="coa:place_id" v="3105700"/></node><node id="-182" lat="30.497554" lon="-97.593816" changeset="false"><tag k="addr:street" v="Gattis School Road"/><tag k="addr:housenumber" v="4308"/><tag k="coa:place_id" v="1128898"/></node><node id="-183" lat="30.493396" lon="-97.596307" changeset="false"><tag k="addr:street" v="Peach Vista Drive"/><tag k="addr:housenumber" v="3500"/><tag k="coa:place_id" v="3105747"/></node><node id="-184" lat="30.491887" lon="-97.593735" changeset="false"><tag k="addr:street" v="Peach Vista Drive"/><tag k="addr:housenumber" v="3704"/><tag k="coa:place_id" v="3105756"/></node><node id="-185" lat="30.490376" lon="-97.59522" changeset="false"><tag k="addr:street" v="Palm Vista Drive"/><tag k="addr:housenumber" v="1920"/><tag k="coa:place_id" v="3105729"/></node><node id="-186" lat="30.48995" lon="-97.59554" changeset="false"><tag k="addr:street" v="Pine Vista Drive"/><tag k="addr:housenumber" v="3608"/><tag k="coa:place_id" v="3105731"/></node><node id="-187" lat="30.488855" lon="-97.595603" changeset="false"><tag k="addr:street" v="Palm Vista Drive"/><tag k="addr:housenumber" v="2008"/><tag k="coa:place_id" v="3105683"/></node><node id="-188" lat="30.488102" lon="-97.593228" changeset="false"><tag k="addr:street" v="Maple Vista Drive"/><tag k="addr:housenumber" v="2013"/><tag k="coa:place_id" v="3105706"/></node><node id="-189" lat="30.488014" lon="-97.595717" changeset="false"><tag k="addr:street" v="Palm Vista Drive"/><tag k="addr:housenumber" v="2020"/><tag k="coa:place_id" v="3105686"/></node><node id="-190" lat="30.487381" lon="-97.594792" changeset="false"><tag k="addr:street" v="Willow Vista Drive"/><tag k="addr:housenumber" v="3705"/><tag k="coa:place_id" v="3105664"/></node><node id="-191" lat="30.492961" lon="-97.595692" changeset="false"><tag k="addr:street" v="Peach Vista Drive"/><tag k="addr:housenumber" v="3508"/><tag k="coa:place_id" v="3105749"/></node><node id="-192" lat="30.492691" lon="-97.605613" changeset="false"><tag k="addr:street" v="Cisco Valley Drive"/><tag k="addr:housenumber" v="4201"/><tag k="coa:place_id" v="3092728"/></node><node id="-193" lat="30.49174" lon="-97.605773" changeset="false"><tag k="addr:street" v="Cisco Valley Drive"/><tag k="addr:housenumber" v="4105"/><tag k="coa:place_id" v="3092723"/></node><node id="-194" lat="30.498686" lon="-97.585478" changeset="false"><tag k="addr:street" v="Bethpage Drive"/><tag k="addr:housenumber" v="1209"/><tag k="coa:place_id" v="3293788"/></node><node id="-195" lat="30.488322" lon="-97.60027" changeset="false"><tag k="addr:street" v="Boone Valley Drive"/><tag k="addr:housenumber" v="805"/><tag k="coa:place_id" v="3367665"/></node><node id="-196" lat="30.493146" lon="-97.601968" changeset="false"><tag k="addr:street" v="Tree Sap Way"/><tag k="addr:housenumber" v="20213"/><tag k="coa:place_id" v="3363212"/></node><node id="-197" lat="30.496464" lon="-97.588567" changeset="false"><tag k="addr:street" v="Priem Lane"/><tag k="addr:housenumber" v="4660"/><tag k="coa:place_id" v="3316732"/></node><node id="-198" lat="30.490917" lon="-97.604403" changeset="false"><tag k="addr:street" v="Cheyenne Valley Drive"/><tag k="addr:housenumber" v="19724"/><tag k="coa:place_id" v="3220189"/></node><node id="-199" lat="30.491099" lon="-97.604384" changeset="false"><tag k="addr:street" v="Cheyenne Valley Drive"/><tag k="addr:housenumber" v="19728"/><tag k="coa:place_id" v="3220190"/></node></osm>