<?xml version="1.0" encoding="UTF-8"?><osm version="0.6" generator="github.com/aaronlidman/osm-and-geojson"><node id="-1" lat="30.355567" lon="-97.723493" changeset="false"><tag k="addr:street" v="Pompton Drive"/><tag k="addr:housenumber" v="1802"/><tag k="addr:postcode" v="78757"/></node><node id="-2" lat="30.359458" lon="-97.72971" changeset="false"><tag k="addr:street" v="Burnet Road"/><tag k="addr:housenumber" v="8037"/><tag k="addr:postcode" v="78757"/></node><node id="-3" lat="30.355436" lon="-97.722288" changeset="false"><tag k="addr:street" v="Wooten Park Drive"/><tag k="addr:housenumber" v="1701"/><tag k="addr:postcode" v="78757"/></node><node id="-4" lat="30.352972" lon="-97.723847" changeset="false"><tag k="addr:street" v="West Anderson Lane"/><tag k="addr:housenumber" v="1714"/><tag k="addr:postcode" v="78757"/></node><node id="-5" lat="30.362374" lon="-97.728364" changeset="false"><tag k="addr:street" v="Ohlen Road"/><tag k="addr:housenumber" v="2301"/><tag k="addr:postcode" v="78757"/></node><node id="-6" lat="30.353155" lon="-97.724162" changeset="false"><tag k="addr:street" v="West Anderson Lane"/><tag k="addr:housenumber" v="1722"/><tag k="addr:postcode" v="78757"/></node><node id="-7" lat="30.354031" lon="-97.723933" changeset="false"><tag k="addr:street" v="Wooten Park Drive"/><tag k="addr:housenumber" v="1800"/><tag k="addr:postcode" v="78757"/></node><node id="-8" lat="30.359112" lon="-97.729828" changeset="false"><tag k="addr:street" v="Burnet Road"/><tag k="addr:housenumber" v="8023"/><tag k="addr:postcode" v="78757"/></node><node id="-9" lat="30.353216" lon="-97.724317" changeset="false"><tag k="addr:street" v="West Anderson Lane"/><tag k="addr:housenumber" v="1728"/><tag k="addr:postcode" v="78757"/></node><node id="-10" lat="30.353567" lon="-97.725078" changeset="false"><tag k="addr:street" v="West Anderson Lane"/><tag k="addr:housenumber" v="1802"/><tag k="addr:postcode" v="78757"/></node><node id="-11" lat="30.353352" lon="-97.724663" changeset="false"><tag k="addr:street" v="West Anderson Lane"/><tag k="addr:housenumber" v="1742"/><tag k="addr:postcode" v="78757"/></node><node id="-12" lat="30.353999" lon="-97.726035" changeset="false"><tag k="addr:street" v="West Anderson Lane"/><tag k="addr:housenumber" v="1900 1/2"/><tag k="addr:postcode" v="78757"/></node><node id="-13" lat="30.354681" lon="-97.727381" changeset="false"><tag k="addr:street" v="West Anderson Lane"/><tag k="addr:housenumber" v="2020"/><tag k="addr:postcode" v="78757"/></node><node id="-14" lat="30.353426" lon="-97.7248" changeset="false"><tag k="addr:street" v="West Anderson Lane"/><tag k="addr:housenumber" v="1740"/><tag k="addr:postcode" v="78757"/></node><node id="-15" lat="30.358461" lon="-97.72871" changeset="false"><tag k="addr:street" v="Exmoor Drive"/><tag k="addr:housenumber" v="8019"/><tag k="addr:postcode" v="78757"/></node><node id="-16" lat="30.354477" lon="-97.72698" changeset="false"><tag k="addr:street" v="West Anderson Lane"/><tag k="addr:housenumber" v="2000"/><tag k="addr:postcode" v="78757"/></node><node id="-17" lat="30.358084" lon="-97.729065" changeset="false"><tag k="addr:street" v="Brockman Street"/><tag k="addr:housenumber" v="8005"/><tag k="addr:postcode" v="78757"/></node><node id="-18" lat="30.353275" lon="-97.724403" changeset="false"><tag k="addr:street" v="West Anderson Lane"/><tag k="addr:housenumber" v="1724"/><tag k="addr:postcode" v="78757"/></node><node id="-19" lat="30.353862" lon="-97.725536" changeset="false"><tag k="addr:street" v="West Anderson Lane"/><tag k="addr:housenumber" v="1818"/><tag k="addr:postcode" v="78757"/></node><node id="-20" lat="30.359687" lon="-97.728526" changeset="false"><tag k="addr:street" v="Teakwood Drive"/><tag k="addr:housenumber" v="2301"/><tag k="addr:postcode" v="78757"/></node><node id="-21" lat="30.353068" lon="-97.723978" changeset="false"><tag k="addr:street" v="West Anderson Lane"/><tag k="addr:housenumber" v="1718"/><tag k="addr:postcode" v="78757"/></node><node id="-22" lat="30.361377" lon="-97.726255" changeset="false"><tag k="addr:street" v="Ohlen Road"/><tag k="addr:housenumber" v="2003"/><tag k="addr:postcode" v="78757"/></node><node id="-23" lat="30.355393" lon="-97.72239" changeset="false"><tag k="addr:street" v="Bon Air Drive"/><tag k="addr:housenumber" v="8015"/><tag k="addr:postcode" v="78757"/></node><node id="-24" lat="30.353935" lon="-97.725497" changeset="false"><tag k="addr:street" v="West Anderson Lane"/><tag k="addr:housenumber" v="1810"/><tag k="addr:postcode" v="78757"/></node><node id="-25" lat="30.353772" lon="-97.723319" changeset="false"><tag k="addr:street" v="Wooten Park Drive"/><tag k="addr:housenumber" v="1738"/><tag k="addr:postcode" v="78757"/></node><node id="-26" lat="30.353741" lon="-97.723234" changeset="false"><tag k="addr:street" v="Wooten Park Drive"/><tag k="addr:housenumber" v="1730"/><tag k="addr:postcode" v="78757"/></node><node id="-27" lat="30.353858" lon="-97.723574" changeset="false"><tag k="addr:street" v="Wooten Park Drive"/><tag k="addr:housenumber" v="1744"/><tag k="addr:postcode" v="78757"/></node><node id="-28" lat="30.353822" lon="-97.72346" changeset="false"><tag k="addr:street" v="Wooten Park Drive"/><tag k="addr:housenumber" v="1742"/><tag k="addr:postcode" v="78757"/></node><node id="-29" lat="30.353173" lon="-97.723836" changeset="false"><tag k="addr:street" v="West Anderson Lane"/><tag k="addr:housenumber" v="1712"/><tag k="addr:postcode" v="78757"/></node><node id="-30" lat="30.353107" lon="-97.723722" changeset="false"><tag k="addr:street" v="West Anderson Lane"/><tag k="addr:housenumber" v="1716"/><tag k="addr:postcode" v="78757"/></node><node id="-31" lat="30.353333" lon="-97.724162" changeset="false"><tag k="addr:street" v="West Anderson Lane"/><tag k="addr:housenumber" v="1726"/><tag k="addr:postcode" v="78757"/></node><node id="-32" lat="30.353245" lon="-97.723991" changeset="false"><tag k="addr:street" v="West Anderson Lane"/><tag k="addr:housenumber" v="1720"/><tag k="addr:postcode" v="78757"/></node><node id="-33" lat="30.354122" lon="-97.724144" changeset="false"><tag k="addr:street" v="Wooten Park Drive"/><tag k="addr:housenumber" v="1806"/><tag k="addr:postcode" v="78757"/></node><node id="-34" lat="30.354067" lon="-97.724008" changeset="false"><tag k="addr:street" v="Wooten Park Drive"/><tag k="addr:housenumber" v="1804"/><tag k="addr:postcode" v="78757"/></node><node id="-35" lat="30.353915" lon="-97.723697" changeset="false"><tag k="addr:street" v="Wooten Park Drive"/><tag k="addr:housenumber" v="1746"/><tag k="addr:postcode" v="78757"/></node><node id="-36" lat="30.353999" lon="-97.723885" changeset="false"><tag k="addr:street" v="Wooten Park Drive"/><tag k="addr:housenumber" v="1752"/><tag k="addr:postcode" v="78757"/></node><node id="-37" lat="30.353964" lon="-97.723784" changeset="false"><tag k="addr:street" v="Wooten Park Drive"/><tag k="addr:housenumber" v="1750"/><tag k="addr:postcode" v="78757"/></node><node id="-38" lat="30.362019" lon="-97.728899" changeset="false"><tag k="addr:street" v="Burnet Road"/><tag k="addr:housenumber" v="8225"/><tag k="addr:postcode" v="78757"/></node><node id="-39" lat="30.361956" lon="-97.728919" changeset="false"><tag k="addr:street" v="Burnet Road"/><tag k="addr:housenumber" v="8221"/><tag k="addr:postcode" v="78757"/></node><node id="-40" lat="30.361966" lon="-97.728041" changeset="false"><tag k="addr:street" v="Lanier Drive"/><tag k="addr:housenumber" v="2216"/><tag k="addr:postcode" v="78757"/></node><node id="-41" lat="30.361915" lon="-97.728089" changeset="false"><tag k="addr:street" v="Bowling Green Drive"/><tag k="addr:housenumber" v="8215"/><tag k="addr:postcode" v="78757"/></node><node id="-42" lat="30.362546" lon="-97.728817" changeset="false"><tag k="addr:street" v="Burnet Road"/><tag k="addr:housenumber" v="8241 1/2"/><tag k="addr:postcode" v="78757"/></node><node id="-43" lat="30.362471" lon="-97.728813" changeset="false"><tag k="addr:street" v="Burnet Road"/><tag k="addr:housenumber" v="8241"/><tag k="addr:postcode" v="78757"/></node><node id="-44" lat="30.360903" lon="-97.728945" changeset="false"><tag k="addr:street" v="Burnet Road"/><tag k="addr:housenumber" v="8205"/><tag k="addr:postcode" v="78757"/></node><node id="-45" lat="30.360343" lon="-97.728978" changeset="false"><tag k="addr:street" v="Burnet Road"/><tag k="addr:housenumber" v="8201"/><tag k="addr:postcode" v="78757"/></node><node id="-46" lat="30.360108" lon="-97.729078" changeset="false"><tag k="addr:street" v="Burnet Road"/><tag k="addr:housenumber" v="8111"/><tag k="addr:postcode" v="78757"/></node><node id="-47" lat="30.361122" lon="-97.728872" changeset="false"><tag k="addr:street" v="Burnet Road"/><tag k="addr:housenumber" v="8207"/><tag k="addr:postcode" v="78757"/></node><node id="-48" lat="30.360602" lon="-97.728882" changeset="false"><tag k="addr:street" v="Burnet Road"/><tag k="addr:housenumber" v="8203"/><tag k="addr:postcode" v="78757"/></node><node id="-49" lat="30.36133" lon="-97.728811" changeset="false"><tag k="addr:street" v="Burnet Road"/><tag k="addr:housenumber" v="8209"/><tag k="addr:postcode" v="78757"/></node><node id="-50" lat="30.36007" lon="-97.729073" changeset="false"><tag k="addr:street" v="Teakwood Drive"/><tag k="addr:housenumber" v="2310"/><tag k="addr:postcode" v="78757"/></node><node id="-51" lat="30.358561" lon="-97.728644" changeset="false"><tag k="addr:street" v="Exmoor Drive"/><tag k="addr:housenumber" v="8027"/><tag k="addr:postcode" v="78757"/></node><node id="-52" lat="30.358533" lon="-97.728572" changeset="false"><tag k="addr:street" v="Pompton Drive"/><tag k="addr:housenumber" v="2204"/><tag k="addr:postcode" v="78757"/></node><node id="-53" lat="30.354225" lon="-97.724338" changeset="false"><tag k="addr:street" v="Wooten Park Drive"/><tag k="addr:housenumber" v="1812"/><tag k="addr:postcode" v="78757"/></node><node id="-54" lat="30.35419" lon="-97.724241" changeset="false"><tag k="addr:street" v="Wooten Park Drive"/><tag k="addr:housenumber" v="1808"/><tag k="addr:postcode" v="78757"/></node><node id="-55" lat="30.354288" lon="-97.724443" changeset="false"><tag k="addr:street" v="Wooten Park Drive"/><tag k="addr:housenumber" v="1814"/><tag k="addr:postcode" v="78757"/></node><node id="-56" lat="30.353682" lon="-97.724938" changeset="false"><tag k="addr:street" v="West Anderson Lane"/><tag k="addr:housenumber" v="1804"/><tag k="addr:postcode" v="78757"/></node><node id="-57" lat="30.35363" lon="-97.724791" changeset="false"><tag k="addr:street" v="West Anderson Lane"/><tag k="addr:housenumber" v="1746"/><tag k="addr:postcode" v="78757"/></node><node id="-58" lat="30.353612" lon="-97.724865" changeset="false"><tag k="addr:street" v="West Anderson Lane"/><tag k="addr:housenumber" v="1748"/><tag k="addr:postcode" v="78757"/></node><node id="-59" lat="30.353527" lon="-97.724624" changeset="false"><tag k="addr:street" v="West Anderson Lane"/><tag k="addr:housenumber" v="1744"/><tag k="addr:postcode" v="78757"/></node><node id="-60" lat="30.35347" lon="-97.724522" changeset="false"><tag k="addr:street" v="West Anderson Lane"/><tag k="addr:housenumber" v="1738"/><tag k="addr:postcode" v="78757"/></node><node id="-61" lat="30.353446" lon="-97.724408" changeset="false"><tag k="addr:street" v="West Anderson Lane"/><tag k="addr:housenumber" v="1736"/><tag k="addr:postcode" v="78757"/></node><node id="-62" lat="30.35747" lon="-97.730086" changeset="false"><tag k="addr:street" v="Burnet Road"/><tag k="addr:housenumber" v="7941"/><tag k="addr:postcode" v="78757"/></node><node id="-63" lat="30.357431" lon="-97.730184" changeset="false"><tag k="addr:street" v="Burnet Road"/><tag k="addr:housenumber" v="7935 1/2"/><tag k="addr:postcode" v="78757"/></node></osm>