<?xml version="1.0" encoding="UTF-8"?><osm version="0.6" generator="github.com/aaronlidman/osm-and-geojson"><node id="-1" lat="30.473774" lon="-97.650773" changeset="false"><tag k="addr:street" v="Barilla Mountain Trail"/><tag k="addr:housenumber" v="1710"/><tag k="coa:place_id" v="3100457"/></node><node id="-2" lat="30.473642" lon="-97.65055" changeset="false"><tag k="addr:street" v="Barilla Mountain Trail"/><tag k="addr:housenumber" v="1711"/><tag k="coa:place_id" v="3100458"/></node><node id="-3" lat="30.473638" lon="-97.651616" changeset="false"><tag k="addr:street" v="Casa Piedra Place"/><tag k="addr:housenumber" v="17311"/><tag k="coa:place_id" v="3100427"/></node><node id="-4" lat="30.4764" lon="-97.644199" changeset="false"><tag k="addr:street" v="Lobo Mountain Lane"/><tag k="addr:housenumber" v="1504"/><tag k="coa:place_id" v="3100331"/></node><node id="-5" lat="30.476164" lon="-97.644993" changeset="false"><tag k="addr:street" v="Lobo Mountain Lane"/><tag k="addr:housenumber" v="1514"/><tag k="coa:place_id" v="3100341"/></node><node id="-6" lat="30.475937" lon="-97.644819" changeset="false"><tag k="addr:street" v="Lobo Mountain Lane"/><tag k="addr:housenumber" v="1515"/><tag k="coa:place_id" v="3100342"/></node><node id="-7" lat="30.474278" lon="-97.651525" changeset="false"><tag k="addr:street" v="Casa Piedra Place"/><tag k="addr:housenumber" v="17408"/><tag k="coa:place_id" v="3100439"/></node><node id="-8" lat="30.473888" lon="-97.650402" changeset="false"><tag k="addr:street" v="Barilla Mountain Trail"/><tag k="addr:housenumber" v="1707"/><tag k="coa:place_id" v="3100454"/></node><node id="-9" lat="30.473796" lon="-97.646154" changeset="false"><tag k="addr:street" v="Marfa Lights Trail"/><tag k="addr:housenumber" v="17513"/><tag k="coa:place_id" v="3100294"/></node><node id="-10" lat="30.474582" lon="-97.648953" changeset="false"><tag k="addr:street" v="Limpia Creek Drive"/><tag k="addr:housenumber" v="17501"/><tag k="coa:place_id" v="3099650"/></node><node id="-11" lat="30.475303" lon="-97.64754" changeset="false"><tag k="addr:street" v="Balmorhea Lane"/><tag k="addr:housenumber" v="1617"/><tag k="coa:place_id" v="3099684"/></node><node id="-12" lat="30.472656" lon="-97.644337" changeset="false"><tag k="addr:street" v="West Pflugerville Parkway"/><tag k="addr:housenumber" v="1416"/><tag k="coa:place_id" v="3099644"/></node><node id="-13" lat="30.475103" lon="-97.648859" changeset="false"><tag k="addr:street" v="Limpia Creek Drive"/><tag k="addr:housenumber" v="17508"/><tag k="coa:place_id" v="3099658"/></node><node id="-14" lat="30.471793" lon="-97.648768" changeset="false"><tag k="addr:street" v="West Pflugerville Parkway"/><tag k="addr:housenumber" v="1618"/><tag k="coa:place_id" v="3100496"/></node><node id="-15" lat="30.47376" lon="-97.644012" changeset="false"><tag k="addr:street" v="Fort Leaton Drive"/><tag k="addr:housenumber" v="17605"/><tag k="coa:place_id" v="3100246"/></node><node id="-16" lat="30.472639" lon="-97.644695" changeset="false"><tag k="addr:street" v="West Pflugerville Parkway"/><tag k="addr:housenumber" v="1420"/><tag k="coa:place_id" v="3099646"/></node><node id="-17" lat="30.475153" lon="-97.646586" changeset="false"><tag k="addr:street" v="Balmorhea Lane"/><tag k="addr:housenumber" v="1604"/><tag k="coa:place_id" v="3099671"/></node><node id="-18" lat="30.475431" lon="-97.644305" changeset="false"><tag k="addr:street" v="Fort Leaton Drive"/><tag k="addr:housenumber" v="17708"/><tag k="coa:place_id" v="3100312"/></node><node id="-19" lat="30.469908" lon="-97.644853" changeset="false"><tag k="addr:street" v="Guana Cay Drive"/><tag k="addr:housenumber" v="17308"/><tag k="coa:place_id" v="3110530"/></node><node id="-20" lat="30.471764" lon="-97.648919" changeset="false"><tag k="addr:street" v="West Pflugerville Parkway"/><tag k="addr:housenumber" v="1620"/><tag k="coa:place_id" v="3100497"/></node><node id="-21" lat="30.47575" lon="-97.646469" changeset="false"><tag k="addr:street" v="Lobo Mountain Lane"/><tag k="addr:housenumber" v="1605"/><tag k="coa:place_id" v="3100211"/></node><node id="-22" lat="30.472183" lon="-97.652544" changeset="false"><tag k="addr:street" v="West Pflugerville Parkway"/><tag k="addr:housenumber" v="1802"/><tag k="coa:place_id" v="3100356"/></node><node id="-23" lat="30.471924" lon="-97.648158" changeset="false"><tag k="addr:street" v="West Pflugerville Parkway"/><tag k="addr:housenumber" v="1610"/><tag k="coa:place_id" v="3100492"/></node><node id="-24" lat="30.468254" lon="-97.656659" changeset="false"><tag k="addr:street" v="Picadilly Drive"/><tag k="addr:housenumber" v="1800"/><tag k="coa:place_id" v="190043"/></node><node id="-25" lat="30.475978" lon="-97.643136" changeset="false"><tag k="addr:street" v="Quitman Mountain Way"/><tag k="addr:housenumber" v="17801"/><tag k="coa:place_id" v="3100285"/></node><node id="-26" lat="30.474999" lon="-97.643234" changeset="false"><tag k="addr:street" v="Quitman Mountain Way"/><tag k="addr:housenumber" v="17704"/><tag k="coa:place_id" v="3100269"/></node><node id="-27" lat="30.473962" lon="-97.646134" changeset="false"><tag k="addr:street" v="Marfa Lights Trail"/><tag k="addr:housenumber" v="17515"/><tag k="coa:place_id" v="3100295"/></node><node id="-28" lat="30.473763" lon="-97.650479" changeset="false"><tag k="addr:street" v="Barilla Mountain Trail"/><tag k="addr:housenumber" v="1709"/><tag k="coa:place_id" v="3100456"/></node><node id="-29" lat="30.472663" lon="-97.651179" changeset="false"><tag k="addr:street" v="Barilla Mountain Trail"/><tag k="addr:housenumber" v="1729"/><tag k="coa:place_id" v="3100407"/></node><node id="-30" lat="30.469992" lon="-97.644649" changeset="false"><tag k="addr:street" v="Guana Cay Drive"/><tag k="addr:housenumber" v="17310"/><tag k="coa:place_id" v="3110531"/></node><node id="-31" lat="30.472718" lon="-97.653659" changeset="false"><tag k="addr:street" v="West Pflugerville Parkway"/><tag k="addr:housenumber" v="1818"/><tag k="coa:place_id" v="3100363"/></node><node id="-32" lat="30.471706" lon="-97.650985" changeset="false"><tag k="addr:street" v="West Pflugerville Parkway"/><tag k="addr:housenumber" v="1702"/><tag k="coa:place_id" v="3100351"/></node><node id="-33" lat="30.471753" lon="-97.651303" changeset="false"><tag k="addr:street" v="West Pflugerville Parkway"/><tag k="addr:housenumber" v="1706"/><tag k="coa:place_id" v="3100353"/></node><node id="-34" lat="30.470281" lon="-97.649517" changeset="false"><tag k="addr:street" v="Copperhead Cove"/><tag k="addr:housenumber" v="1606"/><tag k="coa:place_id" v="62243"/></node><node id="-35" lat="30.472445" lon="-97.65311" changeset="false"><tag k="addr:street" v="West Pflugerville Parkway"/><tag k="addr:housenumber" v="1810"/><tag k="coa:place_id" v="3100359"/></node><node id="-36" lat="30.47563" lon="-97.648168" changeset="false"><tag k="addr:street" v="Balmorhea Lane"/><tag k="addr:housenumber" v="1625"/><tag k="coa:place_id" v="3361965"/></node><node id="-37" lat="30.477797" lon="-97.662216" changeset="false"><tag k="addr:street" v="Greenlawn Boulevard"/><tag k="addr:housenumber" v="3401"/><tag k="coa:place_id" v="3347972"/></node><node id="-38" lat="30.476213" lon="-97.644828" changeset="false"><tag k="addr:street" v="Lobo Mountain Lane"/><tag k="addr:housenumber" v="1512"/><tag k="coa:place_id" v="3100339"/></node><node id="-39" lat="30.473443" lon="-97.645277" changeset="false"><tag k="addr:street" v="Van Horn Court"/><tag k="addr:housenumber" v="17600"/><tag k="coa:place_id" v="3361982"/></node><node id="-40" lat="30.473517" lon="-97.645" changeset="false"><tag k="addr:street" v="Van Horn Court"/><tag k="addr:housenumber" v="17601"/><tag k="coa:place_id" v="3361983"/></node><node id="-41" lat="30.476611" lon="-97.643773" changeset="false"><tag k="addr:street" v="Quitman Mountain Way"/><tag k="addr:housenumber" v="17810"/><tag k="coa:place_id" v="3361996"/></node><node id="-42" lat="30.474252" lon="-97.650144" changeset="false"><tag k="addr:street" v="Barilla Mountain Trail"/><tag k="addr:housenumber" v="1701"/><tag k="coa:place_id" v="3361961"/></node><node id="-43" lat="30.467792" lon="-97.648569" changeset="false"><tag k="addr:street" v="Tortoise Street"/><tag k="addr:housenumber" v="17101"/><tag k="coa:place_id" v="3373967"/></node><node id="-44" lat="30.468774" lon="-97.648863" changeset="false"><tag k="addr:street" v="Tortoise Street"/><tag k="addr:housenumber" v="17115"/><tag k="coa:place_id" v="62260"/></node><node id="-45" lat="30.473769" lon="-97.652924" changeset="false"><tag k="addr:street" v="Valentine Drive"/><tag k="addr:housenumber" v="17310"/><tag k="coa:place_id" v="3100378"/></node><node id="-46" lat="30.476751" lon="-97.644849" changeset="false"><tag k="addr:street" v="Candelaria Mesa Drive"/><tag k="addr:housenumber" v="1605"/><tag k="coa:place_id" v="3100169"/></node><node id="-47" lat="30.473894" lon="-97.650678" changeset="false"><tag k="addr:street" v="Barilla Mountain Trail"/><tag k="addr:housenumber" v="1708"/><tag k="coa:place_id" v="3100455"/></node><node id="-48" lat="30.47353" lon="-97.653074" changeset="false"><tag k="addr:street" v="Valentine Drive"/><tag k="addr:housenumber" v="17306"/><tag k="coa:place_id" v="3100374"/></node><node id="-49" lat="30.473322" lon="-97.653266" changeset="false"><tag k="addr:street" v="Valentine Drive"/><tag k="addr:housenumber" v="17302"/><tag k="coa:place_id" v="3100370"/></node><node id="-50" lat="30.475448" lon="-97.647207" changeset="false"><tag k="addr:street" v="Balmorhea Lane"/><tag k="addr:housenumber" v="1612"/><tag k="coa:place_id" v="3099679"/></node><node id="-51" lat="30.472893" lon="-97.652544" changeset="false"><tag k="addr:street" v="Barilla Mountain Trail"/><tag k="addr:housenumber" v="1817"/><tag k="coa:place_id" v="3100447"/></node><node id="-52" lat="30.469428" lon="-97.650702" changeset="false"><tag k="addr:street" v="Copperhead Drive"/><tag k="addr:housenumber" v="17128"/><tag k="coa:place_id" v="62274"/></node><node id="-53" lat="30.473602" lon="-97.643982" changeset="false"><tag k="addr:street" v="Fort Leaton Drive"/><tag k="addr:housenumber" v="17603"/><tag k="coa:place_id" v="3100245"/></node><node id="-54" lat="30.474404" lon="-97.651436" changeset="false"><tag k="addr:street" v="Casa Piedra Place"/><tag k="addr:housenumber" v="17410"/><tag k="coa:place_id" v="3100441"/></node><node id="-55" lat="30.474151" lon="-97.65053" changeset="false"><tag k="addr:street" v="Barilla Mountain Trail"/><tag k="addr:housenumber" v="1704"/><tag k="coa:place_id" v="3100451"/></node><node id="-56" lat="30.47267" lon="-97.64387" changeset="false"><tag k="addr:street" v="West Pflugerville Parkway"/><tag k="addr:housenumber" v="1410"/><tag k="coa:place_id" v="3099641"/></node><node id="-57" lat="30.472373" lon="-97.652968" changeset="false"><tag k="addr:street" v="West Pflugerville Parkway"/><tag k="addr:housenumber" v="1808"/><tag k="coa:place_id" v="3100358"/></node><node id="-58" lat="30.471681" lon="-97.649409" changeset="false"><tag k="addr:street" v="West Pflugerville Parkway"/><tag k="addr:housenumber" v="1626"/><tag k="coa:place_id" v="3100500"/></node><node id="-59" lat="30.471822" lon="-97.648611" changeset="false"><tag k="addr:street" v="West Pflugerville Parkway"/><tag k="addr:housenumber" v="1616"/><tag k="coa:place_id" v="3100495"/></node><node id="-60" lat="30.468166" lon="-97.658315" changeset="false"><tag k="addr:street" v="Picadilly Drive"/><tag k="addr:housenumber" v="1912"/><tag k="coa:place_id" v="3147895"/></node><node id="-61" lat="30.474113" lon="-97.652354" changeset="false"><tag k="addr:street" v="Valentine Drive"/><tag k="addr:housenumber" v="17401"/><tag k="coa:place_id" v="3100381"/></node><node id="-62" lat="30.475726" lon="-97.6463" changeset="false"><tag k="addr:street" v="Lobo Mountain Lane"/><tag k="addr:housenumber" v="1603"/><tag k="coa:place_id" v="3100210"/></node><node id="-63" lat="30.46741" lon="-97.661637" changeset="false"><tag k="addr:street" v="Picadilly Drive"/><tag k="addr:housenumber" v="2000"/><tag k="coa:place_id" v="3181084"/></node><node id="-64" lat="30.472315" lon="-97.64951" changeset="false"><tag k="addr:street" v="Hueco Mountain Trail"/><tag k="addr:housenumber" v="1627"/><tag k="coa:place_id" v="3100518"/></node><node id="-65" lat="30.47415" lon="-97.650242" changeset="false"><tag k="addr:street" v="Barilla Mountain Trail"/><tag k="addr:housenumber" v="1703"/><tag k="coa:place_id" v="3100450"/></node><node id="-66" lat="30.472664" lon="-97.644153" changeset="false"><tag k="addr:street" v="West Pflugerville Parkway"/><tag k="addr:housenumber" v="1414"/><tag k="coa:place_id" v="3099643"/></node><node id="-67" lat="30.475233" lon="-97.647383" changeset="false"><tag k="addr:street" v="Balmorhea Lane"/><tag k="addr:housenumber" v="1615"/><tag k="coa:place_id" v="3099682"/></node><node id="-68" lat="30.475215" lon="-97.652018" changeset="false"><tag k="addr:street" v="Valentine Drive"/><tag k="addr:housenumber" v="17416"/><tag k="coa:place_id" v="3100396"/></node><node id="-69" lat="30.470065" lon="-97.644405" changeset="false"><tag k="addr:street" v="Guana Cay Drive"/><tag k="addr:housenumber" v="17312"/><tag k="coa:place_id" v="3110532"/></node><node id="-70" lat="30.467298" lon="-97.653093" changeset="false"><tag k="addr:street" v="Cranston Drive"/><tag k="addr:housenumber" v="16905"/><tag k="coa:place_id" v="62429"/></node><node id="-71" lat="30.475938" lon="-97.646949" changeset="false"><tag k="addr:street" v="Lobo Mountain Lane"/><tag k="addr:housenumber" v="1611"/><tag k="coa:place_id" v="3100214"/></node><node id="-72" lat="30.468441" lon="-97.64983" changeset="false"><tag k="addr:street" v="Copperhead Drive"/><tag k="addr:housenumber" v="17113"/><tag k="coa:place_id" v="62287"/></node><node id="-73" lat="30.474027" lon="-97.651685" changeset="false"><tag k="addr:street" v="Casa Piedra Place"/><tag k="addr:housenumber" v="17404"/><tag k="coa:place_id" v="3100435"/></node><node id="-74" lat="30.473937" lon="-97.651731" changeset="false"><tag k="addr:street" v="Casa Piedra Place"/><tag k="addr:housenumber" v="17402"/><tag k="coa:place_id" v="3100433"/></node><node id="-75" lat="30.473712" lon="-97.651866" changeset="false"><tag k="addr:street" v="Casa Piedra Place"/><tag k="addr:housenumber" v="17310"/><tag k="coa:place_id" v="3100426"/></node><node id="-76" lat="30.469817" lon="-97.65059" changeset="false"><tag k="addr:street" v="Copperhead Drive"/><tag k="addr:housenumber" v="17202"/><tag k="coa:place_id" v="62277"/></node><node id="-77" lat="30.475167" lon="-97.643229" changeset="false"><tag k="addr:street" v="Quitman Mountain Way"/><tag k="addr:housenumber" v="17706"/><tag k="coa:place_id" v="3100270"/></node><node id="-78" lat="30.471724" lon="-97.651155" changeset="false"><tag k="addr:street" v="West Pflugerville Parkway"/><tag k="addr:housenumber" v="1704"/><tag k="coa:place_id" v="3100352"/></node><node id="-79" lat="30.468762" lon="-97.649506" changeset="false"><tag k="addr:street" v="Tortoise Street"/><tag k="addr:housenumber" v="17116"/><tag k="coa:place_id" v="62253"/></node><node id="-80" lat="30.470557" lon="-97.665508" changeset="false"><tag k="addr:street" v="Picadilly Drive"/><tag k="addr:housenumber" v="2336"/><tag k="coa:place_id" v="3268738"/></node><node id="-81" lat="30.475238" lon="-97.644823" changeset="false"><tag k="addr:street" v="Balmorhea Court"/><tag k="addr:housenumber" v="17707"/><tag k="coa:place_id" v="3100323"/></node><node id="-82" lat="30.473936" lon="-97.651418" changeset="false"><tag k="addr:street" v="Casa Piedra Place"/><tag k="addr:housenumber" v="17405"/><tag k="coa:place_id" v="3100436"/></node><node id="-83" lat="30.473272" lon="-97.651112" changeset="false"><tag k="addr:street" v="Barilla Mountain Trail"/><tag k="addr:housenumber" v="1720"/><tag k="coa:place_id" v="3100468"/></node><node id="-84" lat="30.473082" lon="-97.650658" changeset="false"><tag k="addr:street" v="Hueco Mountain Trail"/><tag k="addr:housenumber" v="1704"/><tag k="coa:place_id" v="3100469"/></node><node id="-85" lat="30.474272" lon="-97.650459" changeset="false"><tag k="addr:street" v="Barilla Mountain Trail"/><tag k="addr:housenumber" v="1702"/><tag k="coa:place_id" v="3100449"/></node><node id="-86" lat="30.471639" lon="-97.650076" changeset="false"><tag k="addr:street" v="West Pflugerville Parkway"/><tag k="addr:housenumber" v="1634"/><tag k="coa:place_id" v="3100504"/></node><node id="-87" lat="30.469852" lon="-97.645077" changeset="false"><tag k="addr:street" v="Guana Cay Drive"/><tag k="addr:housenumber" v="17306"/><tag k="coa:place_id" v="3110529"/></node><node id="-88" lat="30.473315" lon="-97.644279" changeset="false"><tag k="addr:street" v="Van Horn Drive"/><tag k="addr:housenumber" v="1503"/><tag k="coa:place_id" v="3100222"/></node><node id="-89" lat="30.471641" lon="-97.649738" changeset="false"><tag k="addr:street" v="West Pflugerville Parkway"/><tag k="addr:housenumber" v="1630"/><tag k="coa:place_id" v="3100502"/></node><node id="-90" lat="30.473854" lon="-97.651794" changeset="false"><tag k="addr:street" v="Casa Piedra Place"/><tag k="addr:housenumber" v="17400"/><tag k="coa:place_id" v="3100431"/></node><node id="-91" lat="30.473507" lon="-97.650964" changeset="false"><tag k="addr:street" v="Barilla Mountain Trail"/><tag k="addr:housenumber" v="1716"/><tag k="coa:place_id" v="3100463"/></node><node id="-92" lat="30.476518" lon="-97.645759" changeset="false"><tag k="addr:street" v="Candelaria Mesa Drive"/><tag k="addr:housenumber" v="1615"/><tag k="coa:place_id" v="3100179"/></node><node id="-93" lat="30.473596" lon="-97.64529" changeset="false"><tag k="addr:street" v="Van Horn Court"/><tag k="addr:housenumber" v="17602"/><tag k="coa:place_id" v="3100235"/></node><node id="-94" lat="30.474633" lon="-97.642448" changeset="false"><tag k="addr:street" v="Balmorhea Lane"/><tag k="addr:housenumber" v="1400"/><tag k="coa:place_id" v="3100266"/></node><node id="-95" lat="30.472477" lon="-97.65122" changeset="false"><tag k="addr:street" v="Barilla Mountain Trail"/><tag k="addr:housenumber" v="1731"/><tag k="coa:place_id" v="3100408"/></node><node id="-96" lat="30.475304" lon="-97.64689" changeset="false"><tag k="addr:street" v="Balmorhea Lane"/><tag k="addr:housenumber" v="1608"/><tag k="coa:place_id" v="3099675"/></node><node id="-97" lat="30.474847" lon="-97.643238" changeset="false"><tag k="addr:street" v="Quitman Mountain Way"/><tag k="addr:housenumber" v="17702"/><tag k="coa:place_id" v="3100268"/></node><node id="-98" lat="30.475686" lon="-97.64332" changeset="false"><tag k="addr:street" v="Quitman Mountain Way"/><tag k="addr:housenumber" v="17712"/><tag k="coa:place_id" v="3100273"/></node><node id="-99" lat="30.469672" lon="-97.650628" changeset="false"><tag k="addr:street" v="Copperhead Drive"/><tag k="addr:housenumber" v="17200"/><tag k="coa:place_id" v="62276"/></node><node id="-100" lat="30.472585" lon="-97.64504" changeset="false"><tag k="addr:street" v="West Pflugerville Parkway"/><tag k="addr:housenumber" v="1424"/><tag k="coa:place_id" v="3099648"/></node><node id="-101" lat="30.476253" lon="-97.643821" changeset="false"><tag k="addr:street" v="Lobo Mountain Lane"/><tag k="addr:housenumber" v="1503"/><tag k="coa:place_id" v="3100350"/></node><node id="-102" lat="30.474424" lon="-97.643719" changeset="false"><tag k="addr:street" v="Balmorhea Lane"/><tag k="addr:housenumber" v="1505"/><tag k="coa:place_id" v="3100257"/></node><node id="-103" lat="30.474873" lon="-97.646614" changeset="false"><tag k="addr:street" v="Balmorhea Lane"/><tag k="addr:housenumber" v="1605"/><tag k="coa:place_id" v="3099672"/></node><node id="-104" lat="30.474949" lon="-97.652159" changeset="false"><tag k="addr:street" v="Valentine Drive"/><tag k="addr:housenumber" v="17410"/><tag k="coa:place_id" v="3100390"/></node><node id="-105" lat="30.472652" lon="-97.653508" changeset="false"><tag k="addr:street" v="West Pflugerville Parkway"/><tag k="addr:housenumber" v="1816"/><tag k="coa:place_id" v="3100362"/></node><node id="-106" lat="30.47252" lon="-97.651665" changeset="false"><tag k="addr:street" v="Barilla Mountain Trail"/><tag k="addr:housenumber" v="1805"/><tag k="coa:place_id" v="3100411"/></node><node id="-107" lat="30.47516" lon="-97.647223" changeset="false"><tag k="addr:street" v="Balmorhea Lane"/><tag k="addr:housenumber" v="1613"/><tag k="coa:place_id" v="3099680"/></node><node id="-108" lat="30.473653" lon="-97.652999" changeset="false"><tag k="addr:street" v="Valentine Drive"/><tag k="addr:housenumber" v="17308"/><tag k="coa:place_id" v="3100376"/></node><node id="-109" lat="30.474529" lon="-97.651365" changeset="false"><tag k="addr:street" v="Casa Piedra Place"/><tag k="addr:housenumber" v="17412"/><tag k="coa:place_id" v="3100443"/></node><node id="-110" lat="30.471978" lon="-97.64784" changeset="false"><tag k="addr:street" v="West Pflugerville Parkway"/><tag k="addr:housenumber" v="1606"/><tag k="coa:place_id" v="3100490"/></node><node id="-111" lat="30.471725" lon="-97.649092" changeset="false"><tag k="addr:street" v="West Pflugerville Parkway"/><tag k="addr:housenumber" v="1622"/><tag k="coa:place_id" v="3100498"/></node><node id="-112" lat="30.474781" lon="-97.644206" changeset="false"><tag k="addr:street" v="Fort Leaton Drive"/><tag k="addr:housenumber" v="17700"/><tag k="coa:place_id" v="3361986"/></node><node id="-113" lat="30.467498" lon="-97.644518" changeset="false"><tag k="addr:street" v="Picadilly Drive"/><tag k="addr:housenumber" v="1308"/><tag k="coa:place_id" v="3305118"/></node><node id="-114" lat="30.473037" lon="-97.649834" changeset="false"><tag k="addr:street" v="Toyahville Trail"/><tag k="addr:housenumber" v="17403"/><tag k="coa:place_id" v="3100523"/></node><node id="-115" lat="30.473397" lon="-97.651035" changeset="false"><tag k="addr:street" v="Barilla Mountain Trail"/><tag k="addr:housenumber" v="1718"/><tag k="coa:place_id" v="3100467"/></node><node id="-116" lat="30.473199" lon="-97.652211" changeset="false"><tag k="addr:street" v="Casa Piedra Place"/><tag k="addr:housenumber" v="17302"/><tag k="coa:place_id" v="3100419"/></node><node id="-117" lat="30.473303" lon="-97.645852" changeset="false"><tag k="addr:street" v="Van Horn Drive"/><tag k="addr:housenumber" v="1520"/><tag k="coa:place_id" v="3100234"/></node><node id="-118" lat="30.472797" lon="-97.651107" changeset="false"><tag k="addr:street" v="Barilla Mountain Trail"/><tag k="addr:housenumber" v="1727"/><tag k="coa:place_id" v="3100406"/></node><node id="-119" lat="30.475676" lon="-97.647688" changeset="false"><tag k="addr:street" v="Balmorhea Lane"/><tag k="addr:housenumber" v="1618"/><tag k="coa:place_id" v="3099685"/></node><node id="-120" lat="30.475514" lon="-97.648617" changeset="false"><tag k="addr:street" v="Limpia Creek Drive"/><tag k="addr:housenumber" v="17604"/><tag k="coa:place_id" v="3099661"/></node><node id="-121" lat="30.473586" lon="-97.651955" changeset="false"><tag k="addr:street" v="Casa Piedra Place"/><tag k="addr:housenumber" v="17308"/><tag k="coa:place_id" v="3100424"/></node><node id="-122" lat="30.473517" lon="-97.651699" changeset="false"><tag k="addr:street" v="Casa Piedra Place"/><tag k="addr:housenumber" v="17309"/><tag k="coa:place_id" v="3100425"/></node><node id="-123" lat="30.468189" lon="-97.649694" changeset="false"><tag k="addr:street" v="Copperhead Drive"/><tag k="addr:housenumber" v="17109"/><tag k="coa:place_id" v="62285"/></node><node id="-124" lat="30.474065" lon="-97.64522" changeset="false"><tag k="addr:street" v="Van Horn Court"/><tag k="addr:housenumber" v="17610"/><tag k="coa:place_id" v="3100243"/></node><node id="-125" lat="30.475249" lon="-97.648782" changeset="false"><tag k="addr:street" v="Limpia Creek Drive"/><tag k="addr:housenumber" v="17600"/><tag k="coa:place_id" v="3099659"/></node><node id="-126" lat="30.475745" lon="-97.645487" changeset="false"><tag k="addr:street" v="Lobo Mountain Lane"/><tag k="addr:housenumber" v="1523"/><tag k="coa:place_id" v="3100349"/></node><node id="-127" lat="30.47551" lon="-97.643272" changeset="false"><tag k="addr:street" v="Quitman Mountain Way"/><tag k="addr:housenumber" v="17710"/><tag k="coa:place_id" v="3100272"/></node><node id="-128" lat="30.474182" lon="-97.651258" changeset="false"><tag k="addr:street" v="Casa Piedra Place"/><tag k="addr:housenumber" v="17409"/><tag k="coa:place_id" v="3100440"/></node><node id="-129" lat="30.468034" lon="-97.649631" changeset="false"><tag k="addr:street" v="Copperhead Drive"/><tag k="addr:housenumber" v="17107"/><tag k="coa:place_id" v="62284"/></node><node id="-130" lat="30.467857" lon="-97.649551" changeset="false"><tag k="addr:street" v="Copperhead Drive"/><tag k="addr:housenumber" v="17105"/><tag k="coa:place_id" v="62283"/></node><node id="-131" lat="30.472368" lon="-97.649825" changeset="false"><tag k="addr:street" v="Hueco Mountain Trail"/><tag k="addr:housenumber" v="1631"/><tag k="coa:place_id" v="3100520"/></node><node id="-132" lat="30.474138" lon="-97.644273" changeset="false"><tag k="addr:street" v="Fort Leaton Drive"/><tag k="addr:housenumber" v="17608"/><tag k="coa:place_id" v="3100251"/></node><node id="-133" lat="30.473779" lon="-97.651521" changeset="false"><tag k="addr:street" v="Casa Piedra Place"/><tag k="addr:housenumber" v="17401"/><tag k="coa:place_id" v="3100432"/></node><node id="-134" lat="30.476061" lon="-97.646552" changeset="false"><tag k="addr:street" v="Lobo Mountain Lane"/><tag k="addr:housenumber" v="1604"/><tag k="coa:place_id" v="3100206"/></node><node id="-135" lat="30.473392" lon="-97.651783" changeset="false"><tag k="addr:street" v="Casa Piedra Place"/><tag k="addr:housenumber" v="17307"/><tag k="coa:place_id" v="3100423"/></node><node id="-136" lat="30.471895" lon="-97.648314" changeset="false"><tag k="addr:street" v="West Pflugerville Parkway"/><tag k="addr:housenumber" v="1612"/><tag k="coa:place_id" v="3100493"/></node><node id="-137" lat="30.474768" lon="-97.642734" changeset="false"><tag k="addr:street" v="Balmorhea Lane"/><tag k="addr:housenumber" v="1404"/><tag k="coa:place_id" v="3100265"/></node><node id="-138" lat="30.47164" lon="-97.649915" changeset="false"><tag k="addr:street" v="West Pflugerville Parkway"/><tag k="addr:housenumber" v="1632"/><tag k="coa:place_id" v="3100503"/></node><node id="-139" lat="30.473982" lon="-97.6443" changeset="false"><tag k="addr:street" v="Fort Leaton Drive"/><tag k="addr:housenumber" v="17606"/><tag k="coa:place_id" v="3100250"/></node><node id="-140" lat="30.475016" lon="-97.646918" changeset="false"><tag k="addr:street" v="Balmorhea Lane"/><tag k="addr:housenumber" v="1609"/><tag k="coa:place_id" v="3099676"/></node><node id="-141" lat="30.469151" lon="-97.667075" changeset="false"><tag k="addr:street" v="Picadilly Drive"/><tag k="addr:housenumber" v="2400"/><tag k="coa:place_id" v="3296033"/></node><node id="-142" lat="30.467525" lon="-97.649435" changeset="false"><tag k="addr:street" v="Copperhead Drive"/><tag k="addr:housenumber" v="17101"/><tag k="coa:place_id" v="3373970"/></node><node id="-143" lat="30.46748" lon="-97.662178" changeset="false"><tag k="addr:street" v="Picadilly Drive"/><tag k="addr:housenumber" v="2008"/><tag k="coa:place_id" v="3386038"/></node><node id="-144" lat="30.472503" lon="-97.650175" changeset="false"><tag k="addr:street" v="Toyahville Trail"/><tag k="addr:housenumber" v="17309"/><tag k="coa:place_id" v="3361960"/></node><node id="-145" lat="30.472931" lon="-97.65035" changeset="false"><tag k="addr:street" v="Hueco Mountain Trail"/><tag k="addr:housenumber" v="1700"/><tag k="coa:place_id" v="3361955"/></node><node id="-146" lat="30.475764" lon="-97.647856" changeset="false"><tag k="addr:street" v="Balmorhea Lane"/><tag k="addr:housenumber" v="1620"/><tag k="coa:place_id" v="3099687"/></node><node id="-147" lat="30.47529" lon="-97.644971" changeset="false"><tag k="addr:street" v="Balmorhea Court"/><tag k="addr:housenumber" v="17708"/><tag k="coa:place_id" v="3100324"/></node><node id="-148" lat="30.473427" lon="-97.650679" changeset="false"><tag k="addr:street" v="Barilla Mountain Trail"/><tag k="addr:housenumber" v="1715"/><tag k="coa:place_id" v="3100462"/></node><node id="-149" lat="30.470071" lon="-97.650473" changeset="false"><tag k="addr:street" v="Copperhead Drive"/><tag k="addr:housenumber" v="17206"/><tag k="coa:place_id" v="62279"/></node><node id="-150" lat="30.472787" lon="-97.653806" changeset="false"><tag k="addr:street" v="West Pflugerville Parkway"/><tag k="addr:housenumber" v="1820"/><tag k="coa:place_id" v="3100364"/></node><node id="-151" lat="30.474662" lon="-97.651985" changeset="false"><tag k="addr:street" v="Valentine Drive"/><tag k="addr:housenumber" v="17411"/><tag k="coa:place_id" v="3100391"/></node><node id="-152" lat="30.475461" lon="-97.647852" changeset="false"><tag k="addr:street" v="Balmorhea Lane"/><tag k="addr:housenumber" v="1621"/><tag k="coa:place_id" v="3099688"/></node><node id="-153" lat="30.475363" lon="-97.647043" changeset="false"><tag k="addr:street" v="Balmorhea Lane"/><tag k="addr:housenumber" v="1610"/><tag k="coa:place_id" v="3099677"/></node><node id="-154" lat="30.475551" lon="-97.644271" changeset="false"><tag k="addr:street" v="Fort Leaton Drive"/><tag k="addr:housenumber" v="17710"/><tag k="coa:place_id" v="3100314"/></node><node id="-155" lat="30.475277" lon="-97.644226" changeset="false"><tag k="addr:street" v="Fort Leaton Drive"/><tag k="addr:housenumber" v="17706"/><tag k="coa:place_id" v="3100310"/></node><node id="-156" lat="30.472559" lon="-97.645201" changeset="false"><tag k="addr:street" v="West Pflugerville Parkway"/><tag k="addr:housenumber" v="1426"/><tag k="coa:place_id" v="3099649"/></node><node id="-157" lat="30.473611" lon="-97.646168" changeset="false"><tag k="addr:street" v="Marfa Lights Trail"/><tag k="addr:housenumber" v="17511"/><tag k="coa:place_id" v="3100293"/></node><node id="-158" lat="30.476622" lon="-97.645398" changeset="false"><tag k="addr:street" v="Candelaria Mesa Drive"/><tag k="addr:housenumber" v="1611"/><tag k="coa:place_id" v="3100175"/></node><node id="-159" lat="30.476207" lon="-97.643983" changeset="false"><tag k="addr:street" v="Lobo Mountain Lane"/><tag k="addr:housenumber" v="1505"/><tag k="coa:place_id" v="3100332"/></node><node id="-160" lat="30.474923" lon="-97.644173" changeset="false"><tag k="addr:street" v="Fort Leaton Drive"/><tag k="addr:housenumber" v="17702"/><tag k="coa:place_id" v="3100306"/></node><node id="-161" lat="30.475994" lon="-97.644653" changeset="false"><tag k="addr:street" v="Lobo Mountain Lane"/><tag k="addr:housenumber" v="1513"/><tag k="coa:place_id" v="3100340"/></node><node id="-162" lat="30.472346" lon="-97.649192" changeset="false"><tag k="addr:street" v="Hueco Mountain Trail"/><tag k="addr:housenumber" v="1623"/><tag k="coa:place_id" v="3100516"/></node><node id="-163" lat="30.472041" lon="-97.647532" changeset="false"><tag k="addr:street" v="West Pflugerville Parkway"/><tag k="addr:housenumber" v="1602"/><tag k="coa:place_id" v="3100488"/></node><node id="-164" lat="30.472052" lon="-97.65225" changeset="false"><tag k="addr:street" v="West Pflugerville Parkway"/><tag k="addr:housenumber" v="1718"/><tag k="coa:place_id" v="62659"/></node><node id="-165" lat="30.469656" lon="-97.655069" changeset="false"><tag k="addr:street" v="Kafka Circle"/><tag k="addr:housenumber" v="1807"/><tag k="coa:place_id" v="3109923"/></node><node id="-166" lat="30.477008" lon="-97.643953" changeset="false"><tag k="addr:street" v="Quitman Mountain Way"/><tag k="addr:housenumber" v="17816"/><tag k="coa:place_id" v="3099635"/></node><node id="-167" lat="30.472108" lon="-97.652402" changeset="false"><tag k="addr:street" v="West Pflugerville Parkway"/><tag k="addr:housenumber" v="1800"/><tag k="coa:place_id" v="62661"/></node><node id="-168" lat="30.475793" lon="-97.645315" changeset="false"><tag k="addr:street" v="Lobo Mountain Lane"/><tag k="addr:housenumber" v="1521"/><tag k="coa:place_id" v="3100348"/></node><node id="-169" lat="30.472834" lon="-97.65186" changeset="false"><tag k="addr:street" v="Barilla Mountain Trail"/><tag k="addr:housenumber" v="1804"/><tag k="coa:place_id" v="3100418"/></node><node id="-170" lat="30.475863" lon="-97.646795" changeset="false"><tag k="addr:street" v="Lobo Mountain Lane"/><tag k="addr:housenumber" v="1609"/><tag k="coa:place_id" v="3100213"/></node><node id="-171" lat="30.473596" lon="-97.650907" changeset="false"><tag k="addr:street" v="Barilla Mountain Trail"/><tag k="addr:housenumber" v="1714"/><tag k="coa:place_id" v="3100461"/></node><node id="-172" lat="30.476741" lon="-97.643827" changeset="false"><tag k="addr:street" v="Quitman Mountain Way"/><tag k="addr:housenumber" v="17812"/><tag k="coa:place_id" v="3100292"/></node><node id="-173" lat="30.476356" lon="-97.644338" changeset="false"><tag k="addr:street" v="Lobo Mountain Lane"/><tag k="addr:housenumber" v="1506"/><tag k="coa:place_id" v="3100333"/></node><node id="-174" lat="30.477008" lon="-97.644621" changeset="false"><tag k="addr:street" v="Candelaria Mesa Drive"/><tag k="addr:housenumber" v="1600"/><tag k="coa:place_id" v="3100164"/></node><node id="-175" lat="30.473162" lon="-97.651182" changeset="false"><tag k="addr:street" v="Barilla Mountain Trail"/><tag k="addr:housenumber" v="1722"/><tag k="coa:place_id" v="3100473"/></node><node id="-176" lat="30.473041" lon="-97.651265" changeset="false"><tag k="addr:street" v="Barilla Mountain Trail"/><tag k="addr:housenumber" v="1724"/><tag k="coa:place_id" v="3100474"/></node><node id="-177" lat="30.468032" lon="-97.65872" changeset="false"><tag k="addr:street" v="Picadilly Drive"/><tag k="addr:housenumber" v="1916"/><tag k="coa:place_id" v="3181094"/></node><node id="-178" lat="30.472629" lon="-97.649619" changeset="false"><tag k="addr:street" v="Hueco Mountain Trail"/><tag k="addr:housenumber" v="1622"/><tag k="coa:place_id" v="3100514"/></node><node id="-179" lat="30.4724" lon="-97.651374" changeset="false"><tag k="addr:street" v="Barilla Mountain Trail"/><tag k="addr:housenumber" v="1801"/><tag k="coa:place_id" v="3100409"/></node><node id="-180" lat="30.475356" lon="-97.643879" changeset="false"><tag k="addr:street" v="Fort Leaton Drive"/><tag k="addr:housenumber" v="17709"/><tag k="coa:place_id" v="3100313"/></node><node id="-181" lat="30.474052" lon="-97.645079" changeset="false"><tag k="addr:street" v="Van Horn Court"/><tag k="addr:housenumber" v="17609"/><tag k="coa:place_id" v="3100242"/></node><node id="-182" lat="30.473349" lon="-97.64567" changeset="false"><tag k="addr:street" v="Van Horn Drive"/><tag k="addr:housenumber" v="1518"/><tag k="coa:place_id" v="3100233"/></node><node id="-183" lat="30.47471" lon="-97.643252" changeset="false"><tag k="addr:street" v="Quitman Mountain Way"/><tag k="addr:housenumber" v="17700"/><tag k="coa:place_id" v="3361993"/></node><node id="-184" lat="30.474685" lon="-97.642963" changeset="false"><tag k="addr:street" v="Balmorhea Lane"/><tag k="addr:housenumber" v="1406"/><tag k="coa:place_id" v="3361994"/></node><node id="-185" lat="30.46735" lon="-97.663042" changeset="false"><tag k="addr:street" v="Picadilly Drive"/><tag k="addr:housenumber" v="2100"/><tag k="coa:place_id" v="3326042"/></node><node id="-186" lat="30.472256" lon="-97.652696" changeset="false"><tag k="addr:street" v="West Pflugerville Parkway"/><tag k="addr:housenumber" v="1804"/><tag k="coa:place_id" v="62662"/></node><node id="-187" lat="30.472661" lon="-97.643998" changeset="false"><tag k="addr:street" v="West Pflugerville Parkway"/><tag k="addr:housenumber" v="1412"/><tag k="coa:place_id" v="3099642"/></node><node id="-188" lat="30.472012" lon="-97.647683" changeset="false"><tag k="addr:street" v="West Pflugerville Parkway"/><tag k="addr:housenumber" v="1604"/><tag k="coa:place_id" v="3100489"/></node><node id="-189" lat="30.474326" lon="-97.652546" changeset="false"><tag k="addr:street" v="Valentine Drive"/><tag k="addr:housenumber" v="17400"/><tag k="coa:place_id" v="3100398"/></node><node id="-190" lat="30.474273" lon="-97.65267" changeset="false"><tag k="addr:street" v="Sauceda Ranch Road"/><tag k="addr:housenumber" v="1824"/><tag k="coa:place_id" v="3100399"/></node><node id="-191" lat="30.473739" lon="-97.645331" changeset="false"><tag k="addr:street" v="Van Horn Court"/><tag k="addr:housenumber" v="17604"/><tag k="coa:place_id" v="3100237"/></node><node id="-192" lat="30.473872" lon="-97.64539" changeset="false"><tag k="addr:street" v="Van Horn Court"/><tag k="addr:housenumber" v="17606"/><tag k="coa:place_id" v="3100239"/></node><node id="-193" lat="30.471808" lon="-97.641998" changeset="false"><tag k="addr:street" v="West Pflugerville Parkway"/><tag k="addr:housenumber" v="1301"/><tag k="coa:place_id" v="3427740"/></node><node id="-194" lat="30.47505" lon="-97.652091" changeset="false"><tag k="addr:street" v="Valentine Drive"/><tag k="addr:housenumber" v="17412"/><tag k="coa:place_id" v="3100392"/></node><node id="-195" lat="30.474932" lon="-97.651845" changeset="false"><tag k="addr:street" v="Valentine Drive"/><tag k="addr:housenumber" v="17415"/><tag k="coa:place_id" v="3100395"/></node><node id="-196" lat="30.476891" lon="-97.643888" changeset="false"><tag k="addr:street" v="Quitman Mountain Way"/><tag k="addr:housenumber" v="17814"/><tag k="coa:place_id" v="3099634"/></node><node id="-197" lat="30.478169" lon="-97.671819" changeset="false"><tag k="addr:street" v="South Interstate Highway 35 Service Road"/><tag k="addr:housenumber" v="3105"/><tag k="coa:place_id" v="3345842"/></node><node id="-198" lat="30.474025" lon="-97.650607" changeset="false"><tag k="addr:street" v="Barilla Mountain Trail"/><tag k="addr:housenumber" v="1706"/><tag k="coa:place_id" v="3100453"/></node><node id="-199" lat="30.473088" lon="-97.653141" changeset="false"><tag k="addr:street" v="Barilla Mountain Trail"/><tag k="addr:housenumber" v="1825"/><tag k="coa:place_id" v="3100367"/></node><node id="-200" lat="30.474428" lon="-97.651098" changeset="false"><tag k="addr:street" v="Casa Piedra Place"/><tag k="addr:housenumber" v="17413"/><tag k="coa:place_id" v="3100444"/></node><node id="-201" lat="30.470685" lon="-97.64828" changeset="false"><tag k="addr:street" v="Ibex Trail"/><tag k="addr:housenumber" v="17311"/><tag k="coa:place_id" v="62346"/></node><node id="-202" lat="30.475599" lon="-97.647527" changeset="false"><tag k="addr:street" v="Balmorhea Lane"/><tag k="addr:housenumber" v="1616"/><tag k="coa:place_id" v="3099683"/></node><node id="-203" lat="30.475227" lon="-97.64673" changeset="false"><tag k="addr:street" v="Balmorhea Lane"/><tag k="addr:housenumber" v="1606"/><tag k="coa:place_id" v="3099673"/></node><node id="-204" lat="30.472884" lon="-97.665566" changeset="false"><tag k="addr:street" v="Greenlawn Boulevard"/><tag k="addr:housenumber" v="3533"/><tag k="coa:place_id" v="3381016"/></node><node id="-205" lat="30.470549" lon="-97.650195" changeset="false"><tag k="addr:street" v="Bengal Drive"/><tag k="addr:housenumber" v="1623"/><tag k="coa:place_id" v="3374012"/></node><node id="-206" lat="30.473167" lon="-97.650837" changeset="false"><tag k="addr:street" v="Hueco Mountain Trail"/><tag k="addr:housenumber" v="1706"/><tag k="coa:place_id" v="3361956"/></node><node id="-207" lat="30.473666" lon="-97.64434" changeset="false"><tag k="addr:street" v="Fort Leaton Drive"/><tag k="addr:housenumber" v="17600"/><tag k="coa:place_id" v="3361984"/></node><node id="-208" lat="30.474849" lon="-97.653979" changeset="false"><tag k="addr:street" v="Zola Lane"/><tag k="addr:housenumber" v="17401"/><tag k="coa:place_id" v="3432326"/></node><node id="-209" lat="30.475836" lon="-97.648038" changeset="false"><tag k="addr:street" v="Balmorhea Lane"/><tag k="addr:housenumber" v="1622"/><tag k="coa:place_id" v="3361964"/></node><node id="-210" lat="30.472647" lon="-97.644521" changeset="false"><tag k="addr:street" v="West Pflugerville Parkway"/><tag k="addr:housenumber" v="1418"/><tag k="coa:place_id" v="3099645"/></node><node id="-211" lat="30.476222" lon="-97.64689" changeset="false"><tag k="addr:street" v="Lobo Mountain Lane"/><tag k="addr:housenumber" v="1608"/><tag k="coa:place_id" v="3100208"/></node><node id="-212" lat="30.471201" lon="-97.651183" changeset="false"><tag k="addr:street" v="Bengal Drive"/><tag k="addr:housenumber" v="1708"/><tag k="coa:place_id" v="62497"/></node><node id="-213" lat="30.476058" lon="-97.645321" changeset="false"><tag k="addr:street" v="Lobo Mountain Lane"/><tag k="addr:housenumber" v="1518"/><tag k="coa:place_id" v="3100345"/></node><node id="-214" lat="30.475985" lon="-97.643461" changeset="false"><tag k="addr:street" v="Quitman Mountain Way"/><tag k="addr:housenumber" v="17800"/><tag k="coa:place_id" v="3100278"/></node><node id="-215" lat="30.47499" lon="-97.645152" changeset="false"><tag k="addr:street" v="Balmorhea Court"/><tag k="addr:housenumber" v="17702"/><tag k="coa:place_id" v="3100318"/></node><node id="-216" lat="30.476001" lon="-97.645507" changeset="false"><tag k="addr:street" v="Lobo Mountain Lane"/><tag k="addr:housenumber" v="1520"/><tag k="coa:place_id" v="3100347"/></node><node id="-217" lat="30.4758" lon="-97.646627" changeset="false"><tag k="addr:street" v="Lobo Mountain Lane"/><tag k="addr:housenumber" v="1607"/><tag k="coa:place_id" v="3100212"/></node><node id="-218" lat="30.47578" lon="-97.648451" changeset="false"><tag k="addr:street" v="Limpia Creek Drive"/><tag k="addr:housenumber" v="17608"/><tag k="coa:place_id" v="3099663"/></node><node id="-219" lat="30.472307" lon="-97.652829" changeset="false"><tag k="addr:street" v="West Pflugerville Parkway"/><tag k="addr:housenumber" v="1806"/><tag k="coa:place_id" v="3100357"/></node><node id="-220" lat="30.471989" lon="-97.6521" changeset="false"><tag k="addr:street" v="West Pflugerville Parkway"/><tag k="addr:housenumber" v="1716"/><tag k="coa:place_id" v="62658"/></node><node id="-221" lat="30.47319" lon="-97.653269" changeset="false"><tag k="addr:street" v="Valentine Drive"/><tag k="addr:housenumber" v="17300"/><tag k="coa:place_id" v="3100368"/></node><node id="-222" lat="30.472798" lon="-97.651704" changeset="false"><tag k="addr:street" v="Barilla Mountain Trail"/><tag k="addr:housenumber" v="1802"/><tag k="coa:place_id" v="3100417"/></node><node id="-223" lat="30.474702" lon="-97.652316" changeset="false"><tag k="addr:street" v="Valentine Drive"/><tag k="addr:housenumber" v="17406"/><tag k="coa:place_id" v="3100386"/></node><node id="-224" lat="30.474538" lon="-97.651028" changeset="false"><tag k="addr:street" v="Casa Piedra Place"/><tag k="addr:housenumber" v="17415"/><tag k="coa:place_id" v="3100446"/></node><node id="-225" lat="30.474539" lon="-97.652069" changeset="false"><tag k="addr:street" v="Valentine Drive"/><tag k="addr:housenumber" v="17409"/><tag k="coa:place_id" v="3100389"/></node><node id="-226" lat="30.466944" lon="-97.653165" changeset="false"><tag k="addr:street" v="Cranston Drive"/><tag k="addr:housenumber" v="16901"/><tag k="coa:place_id" v="3373982"/></node><node id="-227" lat="30.468619" lon="-97.648816" changeset="false"><tag k="addr:street" v="Tortoise Street"/><tag k="addr:housenumber" v="17113"/><tag k="coa:place_id" v="62259"/></node><node id="-228" lat="30.472621" lon="-97.644851" changeset="false"><tag k="addr:street" v="West Pflugerville Parkway"/><tag k="addr:housenumber" v="1422"/><tag k="coa:place_id" v="3099647"/></node><node id="-229" lat="30.47184" lon="-97.651623" changeset="false"><tag k="addr:street" v="West Pflugerville Parkway"/><tag k="addr:housenumber" v="1710"/><tag k="coa:place_id" v="3100355"/></node><node id="-230" lat="30.473192" lon="-97.644978" changeset="false"><tag k="addr:street" v="Van Horn Drive"/><tag k="addr:housenumber" v="1511"/><tag k="coa:place_id" v="3100226"/></node><node id="-231" lat="30.473166" lon="-97.645138" changeset="false"><tag k="addr:street" v="Van Horn Drive"/><tag k="addr:housenumber" v="1513"/><tag k="coa:place_id" v="3100228"/></node><node id="-232" lat="30.474287" lon="-97.652231" changeset="false"><tag k="addr:street" v="Valentine Drive"/><tag k="addr:housenumber" v="17405"/><tag k="coa:place_id" v="3100385"/></node><node id="-233" lat="30.47208" lon="-97.647381" changeset="false"><tag k="addr:street" v="West Pflugerville Parkway"/><tag k="addr:housenumber" v="1600"/><tag k="coa:place_id" v="3100487"/></node><node id="-234" lat="30.474971" lon="-97.644828" changeset="false"><tag k="addr:street" v="Balmorhea Court"/><tag k="addr:housenumber" v="17703"/><tag k="coa:place_id" v="3100319"/></node><node id="-235" lat="30.468671" lon="-97.649989" changeset="false"><tag k="addr:street" v="Copperhead Drive"/><tag k="addr:housenumber" v="17117"/><tag k="coa:place_id" v="62289"/></node><node id="-236" lat="30.472129" lon="-97.650395" changeset="false"><tag k="addr:street" v="Toyahville Trail"/><tag k="addr:housenumber" v="17305"/><tag k="coa:place_id" v="3100507"/></node><node id="-237" lat="30.476302" lon="-97.6445" changeset="false"><tag k="addr:street" v="Lobo Mountain Lane"/><tag k="addr:housenumber" v="1508"/><tag k="coa:place_id" v="3100335"/></node><node id="-238" lat="30.476152" lon="-97.644156" changeset="false"><tag k="addr:street" v="Lobo Mountain Lane"/><tag k="addr:housenumber" v="1507"/><tag k="coa:place_id" v="3100334"/></node><node id="-239" lat="30.473469" lon="-97.652763" changeset="false"><tag k="addr:street" v="Valentine Drive"/><tag k="addr:housenumber" v="17303"/><tag k="coa:place_id" v="3100371"/></node><node id="-240" lat="30.475087" lon="-97.644165" changeset="false"><tag k="addr:street" v="Fort Leaton Drive"/><tag k="addr:housenumber" v="17704"/><tag k="coa:place_id" v="3100308"/></node><node id="-241" lat="30.473245" lon="-97.651872" changeset="false"><tag k="addr:street" v="Casa Piedra Place"/><tag k="addr:housenumber" v="17305"/><tag k="coa:place_id" v="3100421"/></node><node id="-242" lat="30.473173" lon="-97.650157" changeset="false"><tag k="addr:street" v="Toyahville Trail"/><tag k="addr:housenumber" v="17402"/><tag k="coa:place_id" v="3100522"/></node><node id="-243" lat="30.474761" lon="-97.649161" changeset="false"><tag k="addr:street" v="Limpia Creek Drive"/><tag k="addr:housenumber" v="17502"/><tag k="coa:place_id" v="3099655"/></node><node id="-244" lat="30.474821" lon="-97.652248" changeset="false"><tag k="addr:street" v="Valentine Drive"/><tag k="addr:housenumber" v="17408"/><tag k="coa:place_id" v="3100388"/></node><node id="-245" lat="30.472576" lon="-97.653374" changeset="false"><tag k="addr:street" v="West Pflugerville Parkway"/><tag k="addr:housenumber" v="1814"/><tag k="coa:place_id" v="3100361"/></node><node id="-246" lat="30.472439" lon="-97.651532" changeset="false"><tag k="addr:street" v="Barilla Mountain Trail"/><tag k="addr:housenumber" v="1803"/><tag k="coa:place_id" v="3100410"/></node><node id="-247" lat="30.467503" lon="-97.660732" changeset="false"><tag k="addr:street" v="Picadilly Drive"/><tag k="addr:housenumber" v="1942"/><tag k="coa:place_id" v="3147896"/></node><node id="-248" lat="30.475611" lon="-97.643985" changeset="false"><tag k="addr:street" v="Fort Leaton Drive"/><tag k="addr:housenumber" v="17713"/><tag k="coa:place_id" v="3100317"/></node><node id="-249" lat="30.47421" lon="-97.652303" changeset="false"><tag k="addr:street" v="Valentine Drive"/><tag k="addr:housenumber" v="17403"/><tag k="coa:place_id" v="3100383"/></node><node id="-250" lat="30.473999" lon="-97.645358" changeset="false"><tag k="addr:street" v="Van Horn Court"/><tag k="addr:housenumber" v="17608"/><tag k="coa:place_id" v="3100241"/></node><node id="-251" lat="30.47309" lon="-97.645502" changeset="false"><tag k="addr:street" v="Van Horn Drive"/><tag k="addr:housenumber" v="1517"/><tag k="coa:place_id" v="3100230"/></node><node id="-252" lat="30.471953" lon="-97.648002" changeset="false"><tag k="addr:street" v="West Pflugerville Parkway"/><tag k="addr:housenumber" v="1608"/><tag k="coa:place_id" v="3100491"/></node><node id="-253" lat="30.471945" lon="-97.651944" changeset="false"><tag k="addr:street" v="West Pflugerville Parkway"/><tag k="addr:housenumber" v="1714"/><tag k="coa:place_id" v="62657"/></node><node id="-254" lat="30.473852" lon="-97.652511" changeset="false"><tag k="addr:street" v="Valentine Drive"/><tag k="addr:housenumber" v="17309"/><tag k="coa:place_id" v="3100377"/></node><node id="-255" lat="30.473004" lon="-97.6505" changeset="false"><tag k="addr:street" v="Hueco Mountain Trail"/><tag k="addr:housenumber" v="1702"/><tag k="coa:place_id" v="3100521"/></node><node id="-256" lat="30.476255" lon="-97.643265" changeset="false"><tag k="addr:street" v="Quitman Mountain Way"/><tag k="addr:housenumber" v="17805"/><tag k="coa:place_id" v="3100287"/></node><node id="-257" lat="30.474806" lon="-97.646433" changeset="false"><tag k="addr:street" v="Balmorhea Lane"/><tag k="addr:housenumber" v="1603"/><tag k="coa:place_id" v="3099670"/></node><node id="-258" lat="30.476107" lon="-97.645162" changeset="false"><tag k="addr:street" v="Lobo Mountain Lane"/><tag k="addr:housenumber" v="1516"/><tag k="coa:place_id" v="3100343"/></node><node id="-259" lat="30.476268" lon="-97.644672" changeset="false"><tag k="addr:street" v="Lobo Mountain Lane"/><tag k="addr:housenumber" v="1510"/><tag k="coa:place_id" v="3100337"/></node><node id="-260" lat="30.47445" lon="-97.652467" changeset="false"><tag k="addr:street" v="Valentine Drive"/><tag k="addr:housenumber" v="17402"/><tag k="coa:place_id" v="3100382"/></node><node id="-261" lat="30.474134" lon="-97.646129" changeset="false"><tag k="addr:street" v="Marfa Lights Trail"/><tag k="addr:housenumber" v="17601"/><tag k="coa:place_id" v="3100296"/></node><node id="-262" lat="30.47465" lon="-97.651276" changeset="false"><tag k="addr:street" v="Casa Piedra Place"/><tag k="addr:housenumber" v="17414"/><tag k="coa:place_id" v="3100445"/></node><node id="-263" lat="30.474574" lon="-97.6524" changeset="false"><tag k="addr:street" v="Valentine Drive"/><tag k="addr:housenumber" v="17404"/><tag k="coa:place_id" v="3100384"/></node><node id="-264" lat="30.477196" lon="-97.644039" changeset="false"><tag k="addr:street" v="Quitman Mountain Way"/><tag k="addr:housenumber" v="17818"/><tag k="coa:place_id" v="3099636"/></node><node id="-265" lat="30.476128" lon="-97.646724" changeset="false"><tag k="addr:street" v="Lobo Mountain Lane"/><tag k="addr:housenumber" v="1606"/><tag k="coa:place_id" v="3100207"/></node><node id="-266" lat="30.470029" lon="-97.654348" changeset="false"><tag k="addr:street" v="Kafka Circle"/><tag k="addr:housenumber" v="1800"/><tag k="coa:place_id" v="3109927"/></node><node id="-267" lat="30.475083" lon="-97.646409" changeset="false"><tag k="addr:street" v="Balmorhea Lane"/><tag k="addr:housenumber" v="1602"/><tag k="coa:place_id" v="3099669"/></node><node id="-268" lat="30.475528" lon="-97.647371" changeset="false"><tag k="addr:street" v="Balmorhea Lane"/><tag k="addr:housenumber" v="1614"/><tag k="coa:place_id" v="3099681"/></node><node id="-269" lat="30.474994" lon="-97.648954" changeset="false"><tag k="addr:street" v="Limpia Creek Drive"/><tag k="addr:housenumber" v="17506"/><tag k="coa:place_id" v="3099657"/></node><node id="-270" lat="30.475549" lon="-97.648012" changeset="false"><tag k="addr:street" v="Balmorhea Lane"/><tag k="addr:housenumber" v="1623"/><tag k="coa:place_id" v="3099668"/></node><node id="-271" lat="30.471797" lon="-97.651463" changeset="false"><tag k="addr:street" v="West Pflugerville Parkway"/><tag k="addr:housenumber" v="1708"/><tag k="coa:place_id" v="3100354"/></node><node id="-272" lat="30.47382" lon="-97.644304" changeset="false"><tag k="addr:street" v="Fort Leaton Drive"/><tag k="addr:housenumber" v="17604"/><tag k="coa:place_id" v="3100249"/></node><node id="-273" lat="30.474056" lon="-97.651335" changeset="false"><tag k="addr:street" v="Casa Piedra Place"/><tag k="addr:housenumber" v="17407"/><tag k="coa:place_id" v="3100438"/></node><node id="-274" lat="30.471663" lon="-97.65398" changeset="false"><tag k="addr:street" v="Tolstoy Circle"/><tag k="addr:housenumber" v="1800"/><tag k="coa:place_id" v="3109948"/></node><node id="-275" lat="30.473516" lon="-97.650633" changeset="false"><tag k="addr:street" v="Barilla Mountain Trail"/><tag k="addr:housenumber" v="1713"/><tag k="coa:place_id" v="3100460"/></node><node id="-276" lat="30.476676" lon="-97.643471" changeset="false"><tag k="addr:street" v="Quitman Mountain Way"/><tag k="addr:housenumber" v="17811"/><tag k="coa:place_id" v="3100290"/></node><node id="-277" lat="30.473012" lon="-97.65283" changeset="false"><tag k="addr:street" v="Barilla Mountain Trail"/><tag k="addr:housenumber" v="1821"/><tag k="coa:place_id" v="3100365"/></node><node id="-278" lat="30.474886" lon="-97.649097" changeset="false"><tag k="addr:street" v="Limpia Creek Drive"/><tag k="addr:housenumber" v="17504"/><tag k="coa:place_id" v="3099656"/></node><node id="-279" lat="30.471017" lon="-97.654059" changeset="false"><tag k="addr:street" v="Cranston Drive"/><tag k="addr:housenumber" v="17200"/><tag k="coa:place_id" v="62403"/></node><node id="-280" lat="30.472518" lon="-97.65324" changeset="false"><tag k="addr:street" v="West Pflugerville Parkway"/><tag k="addr:housenumber" v="1812"/><tag k="coa:place_id" v="3100360"/></node><node id="-281" lat="30.47535" lon="-97.643242" changeset="false"><tag k="addr:street" v="Quitman Mountain Way"/><tag k="addr:housenumber" v="17708"/><tag k="coa:place_id" v="3100271"/></node><node id="-282" lat="30.474415" lon="-97.652147" changeset="false"><tag k="addr:street" v="Valentine Drive"/><tag k="addr:housenumber" v="17407"/><tag k="coa:place_id" v="3100387"/></node><node id="-283" lat="30.473664" lon="-97.65085" changeset="false"><tag k="addr:street" v="Barilla Mountain Trail"/><tag k="addr:housenumber" v="1712"/><tag k="coa:place_id" v="3100459"/></node><node id="-284" lat="30.471701" lon="-97.649248" changeset="false"><tag k="addr:street" v="West Pflugerville Parkway"/><tag k="addr:housenumber" v="1624"/><tag k="coa:place_id" v="3100499"/></node><node id="-285" lat="30.471656" lon="-97.649576" changeset="false"><tag k="addr:street" v="West Pflugerville Parkway"/><tag k="addr:housenumber" v="1628"/><tag k="coa:place_id" v="3100501"/></node><node id="-286" lat="30.471335" lon="-97.648141" changeset="false"><tag k="addr:street" v="Bengal Drive"/><tag k="addr:housenumber" v="1606"/><tag k="coa:place_id" v="62332"/></node><node id="-287" lat="30.475624" lon="-97.648563" changeset="false"><tag k="addr:street" v="Limpia Creek Drive"/><tag k="addr:housenumber" v="17606"/><tag k="coa:place_id" v="3099662"/></node><node id="-288" lat="30.475824" lon="-97.643387" changeset="false"><tag k="addr:street" v="Quitman Mountain Way"/><tag k="addr:housenumber" v="17714"/><tag k="coa:place_id" v="3100274"/></node><node id="-289" lat="30.475093" lon="-97.647071" changeset="false"><tag k="addr:street" v="Balmorhea Lane"/><tag k="addr:housenumber" v="1611"/><tag k="coa:place_id" v="3099678"/></node><node id="-290" lat="30.471861" lon="-97.64846" changeset="false"><tag k="addr:street" v="West Pflugerville Parkway"/><tag k="addr:housenumber" v="1614"/><tag k="coa:place_id" v="3100494"/></node><node id="-291" lat="30.470526" lon="-97.6497" changeset="false"><tag k="addr:street" v="Copperhead Drive"/><tag k="addr:housenumber" v="17213"/><tag k="coa:place_id" v="62294"/></node><node id="-292" lat="30.470481" lon="-97.654126" changeset="false"><tag k="addr:street" v="Cranston Drive"/><tag k="addr:housenumber" v="17114"/><tag k="coa:place_id" v="62406"/></node><node id="-293" lat="30.474152" lon="-97.651608" changeset="false"><tag k="addr:street" v="Casa Piedra Place"/><tag k="addr:housenumber" v="17406"/><tag k="coa:place_id" v="3100437"/></node><node id="-294" lat="30.471088" lon="-97.650831" changeset="false"><tag k="addr:street" v="Bengal Drive"/><tag k="addr:housenumber" v="1704"/><tag k="coa:place_id" v="62499"/></node><node id="-295" lat="30.472615" lon="-97.651966" changeset="false"><tag k="addr:street" v="Barilla Mountain Trail"/><tag k="addr:housenumber" v="1809"/><tag k="coa:place_id" v="3100413"/></node><node id="-296" lat="30.475151" lon="-97.64519" changeset="false"><tag k="addr:street" v="Balmorhea Court"/><tag k="addr:housenumber" v="17704"/><tag k="coa:place_id" v="3100320"/></node><node id="-297" lat="30.475258" lon="-97.645104" changeset="false"><tag k="addr:street" v="Balmorhea Court"/><tag k="addr:housenumber" v="17706"/><tag k="coa:place_id" v="3100322"/></node><node id="-298" lat="30.472126" lon="-97.650706" changeset="false"><tag k="addr:street" v="Toyahville Trail"/><tag k="addr:housenumber" v="17304"/><tag k="coa:place_id" v="3100506"/></node><node id="-299" lat="30.474014" lon="-97.650307" changeset="false"><tag k="addr:street" v="Barilla Mountain Trail"/><tag k="addr:housenumber" v="1705"/><tag k="coa:place_id" v="3100452"/></node><node id="-300" lat="30.473863" lon="-97.651475" changeset="false"><tag k="addr:street" v="Casa Piedra Place"/><tag k="addr:housenumber" v="17403"/><tag k="coa:place_id" v="3100434"/></node><node id="-301" lat="30.473456" lon="-97.652044" changeset="false"><tag k="addr:street" v="Casa Piedra Place"/><tag k="addr:housenumber" v="17306"/><tag k="coa:place_id" v="3100422"/></node><node id="-302" lat="30.473433" lon="-97.653182" changeset="false"><tag k="addr:street" v="Valentine Drive"/><tag k="addr:housenumber" v="17304"/><tag k="coa:place_id" v="3100372"/></node><node id="-303" lat="30.473335" lon="-97.652133" changeset="false"><tag k="addr:street" v="Casa Piedra Place"/><tag k="addr:housenumber" v="17304"/><tag k="coa:place_id" v="3100420"/></node><node id="-304" lat="30.467336" lon="-97.661274" changeset="false"><tag k="addr:street" v="Picadilly Drive"/><tag k="addr:housenumber" v="1950"/><tag k="coa:place_id" v="3147897"/></node><node id="-305" lat="30.475379" lon="-97.648699" changeset="false"><tag k="addr:street" v="Limpia Creek Drive"/><tag k="addr:housenumber" v="17602"/><tag k="coa:place_id" v="3099660"/></node><node id="-306" lat="30.468273" lon="-97.648708" changeset="false"><tag k="addr:street" v="Tortoise Street"/><tag k="addr:housenumber" v="17109"/><tag k="coa:place_id" v="62257"/></node><node id="-307" lat="30.475631" lon="-97.644137" changeset="false"><tag k="addr:street" v="Fort Leaton Drive"/><tag k="addr:housenumber" v="17712"/><tag k="coa:place_id" v="3100316"/></node><node id="-308" lat="30.471638" lon="-97.650242" changeset="false"><tag k="addr:street" v="West Pflugerville Parkway"/><tag k="addr:housenumber" v="1636"/><tag k="coa:place_id" v="3100505"/></node><node id="-309" lat="30.473876" lon="-97.670992" changeset="false"><tag k="addr:street" v="South Interstate Highway 35 Service Road"/><tag k="addr:housenumber" v="3223"/><tag k="coa:place_id" v="3347966"/></node><node id="-310" lat="30.471882" lon="-97.651781" changeset="false"><tag k="addr:street" v="West Pflugerville Parkway"/><tag k="addr:housenumber" v="1712"/><tag k="coa:place_id" v="62656"/></node><node id="-311" lat="30.474939" lon="-97.646766" changeset="false"><tag k="addr:street" v="Balmorhea Lane"/><tag k="addr:housenumber" v="1607"/><tag k="coa:place_id" v="3099674"/></node><node id="-312" lat="30.467649" lon="-97.649098" changeset="false"><tag k="addr:street" v="Tortoise Street"/><tag k="addr:housenumber" v="17102"/><tag k="coa:place_id" v="62246"/></node><node id="-313" lat="30.467648" lon="-97.649104" changeset="false"><tag k="addr:street" v="Tortoise Street"/><tag k="addr:housenumber" v="17100"/><tag k="coa:place_id" v="3373966"/></node></osm>