<?xml version="1.0" encoding="UTF-8"?><osm version="0.6" generator="github.com/aaronlidman/osm-and-geojson"><node id="-1" lat="30.239645" lon="-97.788577" changeset="false"><tag k="addr:street" v="South Lamar Boulevard"/><tag k="addr:housenumber" v="3512"/></node><node id="-2" lat="30.243862" lon="-97.787179" changeset="false"><tag k="addr:street" v="Westhill Drive"/><tag k="addr:housenumber" v="3313"/></node><node id="-3" lat="30.23831" lon="-97.790593" changeset="false"><tag k="addr:street" v="South Lamar Boulevard"/><tag k="addr:housenumber" v="3816"/></node><node id="-4" lat="30.235922" lon="-97.793772" changeset="false"><tag k="addr:street" v="South Lamar Boulevard"/><tag k="addr:housenumber" v="4102"/></node><node id="-5" lat="30.251001" lon="-97.793838" changeset="false"><tag k="addr:street" v="Top Cove"/><tag k="addr:housenumber" v="2606"/></node><node id="-6" lat="30.235709" lon="-97.7952" changeset="false"><tag k="addr:street" v="South Lamar Boulevard"/><tag k="addr:housenumber" v="4218"/></node><node id="-7" lat="30.242752" lon="-97.799894" changeset="false"><tag k="addr:street" v="Capital of Texas Highway"/><tag k="addr:housenumber" v="3735"/></node><node id="-8" lat="30.249788" lon="-97.790662" changeset="false"><tag k="addr:street" v="Mountain View Drive"/><tag k="addr:housenumber" v="2402"/></node><node id="-9" lat="30.250354" lon="-97.794483" changeset="false"><tag k="addr:street" v="Bend Cove,1100"/><tag k="addr:housenumber" v="2602"/></node><node id="-10" lat="30.240153" lon="-97.787707" changeset="false"><tag k="addr:street" v="South Lamar Boulevard"/><tag k="addr:housenumber" v="3500"/></node><node id="-11" lat="30.2519" lon="-97.789113" changeset="false"><tag k="addr:street" v="Four Oaks Lane"/><tag k="addr:housenumber" v="2110"/></node><node id="-12" lat="30.242945" lon="-97.800758" changeset="false"><tag k="addr:street" v="Capital of Texas Highway"/><tag k="addr:housenumber" v="3751 1/2"/></node><node id="-13" lat="30.239533" lon="-97.7887" changeset="false"><tag k="addr:street" v="South Lamar Boulevard"/><tag k="addr:housenumber" v="3520"/></node><node id="-14" lat="30.243086" lon="-97.783597" changeset="false"><tag k="addr:street" v="South Lamar Boulevard"/><tag k="addr:housenumber" v="3002"/></node><node id="-15" lat="30.240011" lon="-97.798374" changeset="false"><tag k="addr:street" v="Capital of Texas Highway"/><tag k="addr:housenumber" v="4001"/></node><node id="-16" lat="30.250253" lon="-97.7919" changeset="false"><tag k="addr:street" v="Kassarine Pass"/><tag k="addr:housenumber" v="2934"/></node><node id="-17" lat="30.243692" lon="-97.787324" changeset="false"><tag k="addr:street" v="Westhill Drive"/><tag k="addr:housenumber" v="3315"/></node><node id="-18" lat="30.237175" lon="-97.798321" changeset="false"><tag k="addr:street" v="Capital of Texas Highway"/><tag k="addr:housenumber" v="4093"/></node><node id="-19" lat="30.24265" lon="-97.80044" changeset="false"><tag k="addr:street" v="Capital of Texas Highway"/><tag k="addr:housenumber" v="3749 1/2"/></node><node id="-20" lat="30.239871" lon="-97.788197" changeset="false"><tag k="addr:street" v="South Lamar Boulevard"/><tag k="addr:housenumber" v="3508"/></node><node id="-21" lat="30.243871" lon="-97.800548" changeset="false"><tag k="addr:street" v="Capital of Texas Highway"/><tag k="addr:housenumber" v="3753"/></node><node id="-22" lat="30.25027" lon="-97.790141" changeset="false"><tag k="addr:street" v="Kathy Cove"/><tag k="addr:housenumber" v="2406"/></node><node id="-23" lat="30.242366" lon="-97.78709" changeset="false"><tag k="addr:street" v="Westrock Drive"/><tag k="addr:housenumber" v="2311"/></node><node id="-24" lat="30.250019" lon="-97.789617" changeset="false"><tag k="addr:street" v="Kathy Cove"/><tag k="addr:housenumber" v="2402"/></node><node id="-25" lat="30.240622" lon="-97.786904" changeset="false"><tag k="addr:street" v="South Lamar Boulevard"/><tag k="addr:housenumber" v="3400"/></node><node id="-26" lat="30.242074" lon="-97.799563" changeset="false"><tag k="addr:street" v="Capital of Texas Highway"/><tag k="addr:housenumber" v="3815"/></node><node id="-27" lat="30.239377" lon="-97.78892" changeset="false"><tag k="addr:street" v="South Lamar Boulevard"/><tag k="addr:housenumber" v="3600"/></node><node id="-28" lat="30.242324" lon="-97.785962" changeset="false"><tag k="addr:street" v="Westrock Drive"/><tag k="addr:housenumber" v="2308"/></node><node id="-29" lat="30.250972" lon="-97.791834" changeset="false"><tag k="addr:street" v="Milfoil Cove"/><tag k="addr:housenumber" v="2500"/></node><node id="-30" lat="30.252761" lon="-97.785493" changeset="false"><tag k="addr:street" v="Barton Skyway"/><tag k="addr:housenumber" v="2725"/></node><node id="-31" lat="30.250545" lon="-97.793294" changeset="false"><tag k="addr:street" v="Barton Hills Drive"/><tag k="addr:housenumber" v="2649"/></node><node id="-32" lat="30.252062" lon="-97.790636" changeset="false"><tag k="addr:street" v="Farnswood Circle"/><tag k="addr:housenumber" v="2312"/></node><node id="-33" lat="30.245101" lon="-97.785216" changeset="false"><tag k="addr:street" v="Westhill Drive"/><tag k="addr:housenumber" v="3201"/></node><node id="-34" lat="30.245067" lon="-97.78519" changeset="false"><tag k="addr:street" v="Westoak Drive"/><tag k="addr:housenumber" v="2335"/></node><node id="-35" lat="30.250284" lon="-97.787649" changeset="false"><tag k="addr:street" v="Matterhorn Lane"/><tag k="addr:housenumber" v="2208"/></node><node id="-36" lat="30.250183" lon="-97.787729" changeset="false"><tag k="addr:street" v="Matterhorn Lane"/><tag k="addr:housenumber" v="2300"/></node><node id="-37" lat="30.236725" lon="-97.793871" changeset="false"><tag k="addr:street" v="South Lamar Boulevard"/><tag k="addr:housenumber" v="4030"/></node><node id="-38" lat="30.236884" lon="-97.793992" changeset="false"><tag k="addr:street" v="South Lamar Boulevard"/><tag k="addr:housenumber" v="4032"/></node><node id="-39" lat="30.237311" lon="-97.795016" changeset="false"><tag k="addr:street" v="South Lamar Boulevard"/><tag k="addr:housenumber" v="4040"/></node><node id="-40" lat="30.237468" lon="-97.795827" changeset="false"><tag k="addr:street" v="Capital of Texas Highway"/><tag k="addr:housenumber" v="4115"/></node><node id="-41" lat="30.237878" lon="-97.796401" changeset="false"><tag k="addr:street" v="Capital of Texas Highway"/><tag k="addr:housenumber" v="4107"/></node><node id="-42" lat="30.237148" lon="-97.795796" changeset="false"><tag k="addr:street" v="South Lamar Boulevard"/><tag k="addr:housenumber" v="4220"/></node><node id="-43" lat="30.238382" lon="-97.797561" changeset="false"><tag k="addr:street" v="Capital of Texas Highway"/><tag k="addr:housenumber" v="4025"/></node><node id="-44" lat="30.238398" lon="-97.797925" changeset="false"><tag k="addr:street" v="Capital of Texas Highway"/><tag k="addr:housenumber" v="4021"/></node><node id="-45" lat="30.237585" lon="-97.793814" changeset="false"><tag k="addr:street" v="South Lamar Boulevard"/><tag k="addr:housenumber" v="4036"/></node><node id="-46" lat="30.237931" lon="-97.793169" changeset="false"><tag k="addr:street" v="South Lamar Boulevard"/><tag k="addr:housenumber" v="4006"/></node></osm>