<?xml version="1.0" encoding="UTF-8"?><osm version="0.6" generator="github.com/aaronlidman/osm-and-geojson"><node id="-1" lat="30.33515" lon="-97.693465" changeset="false"><tag k="addr:street" v="Providence Avenue"/><tag k="addr:housenumber" v="7617"/><tag k="addr:postcode" v="78752"/></node><node id="-2" lat="30.335215" lon="-97.69393" changeset="false"><tag k="addr:street" v="Providence Avenue"/><tag k="addr:housenumber" v="7614"/><tag k="addr:postcode" v="78752"/></node><node id="-3" lat="30.335352" lon="-97.693926" changeset="false"><tag k="addr:street" v="Providence Avenue"/><tag k="addr:housenumber" v="7616"/><tag k="addr:postcode" v="78752"/></node><node id="-4" lat="30.335514" lon="-97.694597" changeset="false"><tag k="addr:street" v="Bethune Avenue"/><tag k="addr:housenumber" v="7615"/><tag k="addr:postcode" v="78752"/></node><node id="-5" lat="30.335653" lon="-97.694528" changeset="false"><tag k="addr:street" v="Bethune Avenue"/><tag k="addr:housenumber" v="7617"/><tag k="addr:postcode" v="78752"/></node><node id="-6" lat="30.334873" lon="-97.694209" changeset="false"><tag k="addr:street" v="Providence Avenue"/><tag k="addr:housenumber" v="7608"/><tag k="addr:postcode" v="78752"/></node><node id="-7" lat="30.334905" lon="-97.693627" changeset="false"><tag k="addr:street" v="Providence Avenue"/><tag k="addr:housenumber" v="7613"/><tag k="addr:postcode" v="78752"/></node><node id="-8" lat="30.335033" lon="-97.693538" changeset="false"><tag k="addr:street" v="Providence Avenue"/><tag k="addr:housenumber" v="7615"/><tag k="addr:postcode" v="78752"/></node><node id="-9" lat="30.334311" lon="-97.694004" changeset="false"><tag k="addr:street" v="Providence Avenue"/><tag k="addr:housenumber" v="7603"/><tag k="addr:postcode" v="78752"/></node><node id="-10" lat="30.334365" lon="-97.693143" changeset="false"><tag k="addr:street" v="Meador Avenue"/><tag k="addr:housenumber" v="7608"/><tag k="addr:postcode" v="78752"/></node><node id="-11" lat="30.334612" lon="-97.694347" changeset="false"><tag k="addr:street" v="Providence Avenue"/><tag k="addr:housenumber" v="7604"/><tag k="addr:postcode" v="78752"/></node><node id="-12" lat="30.334658" lon="-97.693777" changeset="false"><tag k="addr:street" v="Providence Avenue"/><tag k="addr:housenumber" v="7609"/><tag k="addr:postcode" v="78752"/></node><node id="-13" lat="30.334786" lon="-97.693695" changeset="false"><tag k="addr:street" v="Providence Avenue"/><tag k="addr:housenumber" v="7611"/><tag k="addr:postcode" v="78752"/></node><node id="-14" lat="30.334503" lon="-97.694403" changeset="false"><tag k="addr:street" v="Providence Avenue"/><tag k="addr:housenumber" v="7602"/><tag k="addr:postcode" v="78752"/></node><node id="-15" lat="30.334754" lon="-97.694278" changeset="false"><tag k="addr:street" v="Providence Avenue"/><tag k="addr:housenumber" v="7606"/><tag k="addr:postcode" v="78752"/></node><node id="-16" lat="30.334606" lon="-97.692981" changeset="false"><tag k="addr:street" v="Meador Avenue"/><tag k="addr:housenumber" v="7612"/><tag k="addr:postcode" v="78752"/></node><node id="-17" lat="30.334717" lon="-97.692903" changeset="false"><tag k="addr:street" v="Meador Avenue"/><tag k="addr:housenumber" v="7614"/><tag k="addr:postcode" v="78752"/></node><node id="-18" lat="30.332324" lon="-97.693894" changeset="false"><tag k="addr:street" v="Meador Avenue"/><tag k="addr:housenumber" v="7501"/><tag k="addr:postcode" v="78752"/></node><node id="-19" lat="30.33278" lon="-97.694092" changeset="false"><tag k="addr:street" v="Meador Avenue"/><tag k="addr:housenumber" v="7504"/><tag k="addr:postcode" v="78752"/></node><node id="-20" lat="30.332934" lon="-97.694077" changeset="false"><tag k="addr:street" v="Meador Avenue"/><tag k="addr:housenumber" v="7506"/><tag k="addr:postcode" v="78752"/></node><node id="-21" lat="30.334023" lon="-97.693364" changeset="false"><tag k="addr:street" v="Meador Avenue"/><tag k="addr:housenumber" v="7602"/><tag k="addr:postcode" v="78752"/></node><node id="-22" lat="30.334123" lon="-97.693297" changeset="false"><tag k="addr:street" v="Meador Avenue"/><tag k="addr:housenumber" v="7604"/><tag k="addr:postcode" v="78752"/></node><node id="-23" lat="30.334169" lon="-97.694098" changeset="false"><tag k="addr:street" v="Providence Avenue"/><tag k="addr:housenumber" v="7601"/><tag k="addr:postcode" v="78752"/></node><node id="-24" lat="30.334232" lon="-97.693232" changeset="false"><tag k="addr:street" v="Meador Avenue"/><tag k="addr:housenumber" v="7606"/><tag k="addr:postcode" v="78752"/></node><node id="-25" lat="30.335611" lon="-97.695048" changeset="false"><tag k="addr:street" v="Bethune Avenue"/><tag k="addr:housenumber" v="7612"/><tag k="addr:postcode" v="78752"/></node><node id="-26" lat="30.335739" lon="-97.694982" changeset="false"><tag k="addr:street" v="Bethune Avenue"/><tag k="addr:housenumber" v="7614"/><tag k="addr:postcode" v="78752"/></node><node id="-27" lat="30.335851" lon="-97.694919" changeset="false"><tag k="addr:street" v="Bethune Avenue"/><tag k="addr:housenumber" v="7616"/><tag k="addr:postcode" v="78752"/></node><node id="-28" lat="30.335917" lon="-97.69573" changeset="false"><tag k="addr:street" v="Carver Avenue"/><tag k="addr:housenumber" v="7613"/><tag k="addr:postcode" v="78752"/></node><node id="-29" lat="30.336034" lon="-97.695666" changeset="false"><tag k="addr:street" v="Carver Avenue"/><tag k="addr:housenumber" v="7615"/><tag k="addr:postcode" v="78752"/></node><node id="-30" lat="30.336116" lon="-97.69556" changeset="false"><tag k="addr:street" v="Carver Avenue"/><tag k="addr:housenumber" v="7617"/><tag k="addr:postcode" v="78752"/></node><node id="-31" lat="30.335006" lon="-97.695465" changeset="false"><tag k="addr:street" v="Bethune Avenue"/><tag k="addr:housenumber" v="7602"/><tag k="addr:postcode" v="78752"/></node><node id="-32" lat="30.335134" lon="-97.695371" changeset="false"><tag k="addr:street" v="Bethune Avenue"/><tag k="addr:housenumber" v="7604"/><tag k="addr:postcode" v="78752"/></node><node id="-33" lat="30.335237" lon="-97.695305" changeset="false"><tag k="addr:street" v="Bethune Avenue"/><tag k="addr:housenumber" v="7606"/><tag k="addr:postcode" v="78752"/></node><node id="-34" lat="30.335356" lon="-97.695213" changeset="false"><tag k="addr:street" v="Bethune Avenue"/><tag k="addr:housenumber" v="7608"/><tag k="addr:postcode" v="78752"/></node><node id="-35" lat="30.335144" lon="-97.694815" changeset="false"><tag k="addr:street" v="Bethune Avenue"/><tag k="addr:housenumber" v="7609"/><tag k="addr:postcode" v="78752"/></node><node id="-36" lat="30.335269" lon="-97.694742" changeset="false"><tag k="addr:street" v="Bethune Avenue"/><tag k="addr:housenumber" v="7611"/><tag k="addr:postcode" v="78752"/></node><node id="-37" lat="30.335392" lon="-97.694666" changeset="false"><tag k="addr:street" v="Bethune Avenue"/><tag k="addr:housenumber" v="7613"/><tag k="addr:postcode" v="78752"/></node><node id="-38" lat="30.335517" lon="-97.695195" changeset="false"><tag k="addr:street" v="Bethune Avenue"/><tag k="addr:housenumber" v="7610"/><tag k="addr:postcode" v="78752"/></node><node id="-39" lat="30.334197" lon="-97.695419" changeset="false"><tag k="addr:street" v="Bethune Avenue"/><tag k="addr:housenumber" v="7515"/><tag k="addr:postcode" v="78752"/></node><node id="-40" lat="30.334091" lon="-97.695488" changeset="false"><tag k="addr:street" v="Bethune Avenue"/><tag k="addr:housenumber" v="7513"/><tag k="addr:postcode" v="78752"/></node><node id="-41" lat="30.334182" lon="-97.694717" changeset="false"><tag k="addr:street" v="Wheatley Avenue"/><tag k="addr:housenumber" v="1021"/><tag k="addr:postcode" v="78752"/></node><node id="-42" lat="30.334528" lon="-97.69575" changeset="false"><tag k="addr:street" v="Bethune Avenue"/><tag k="addr:housenumber" v="7516"/><tag k="addr:postcode" v="78752"/></node><node id="-43" lat="30.33465" lon="-97.695668" changeset="false"><tag k="addr:street" v="Bethune Avenue"/><tag k="addr:housenumber" v="7518"/><tag k="addr:postcode" v="78752"/></node><node id="-44" lat="30.334322" lon="-97.695329" changeset="false"><tag k="addr:street" v="Bethune Avenue"/><tag k="addr:housenumber" v="7517"/><tag k="addr:postcode" v="78752"/></node><node id="-45" lat="30.334384" lon="-97.695173" changeset="false"><tag k="addr:street" v="Wheatley Avenue"/><tag k="addr:housenumber" v="1015"/><tag k="addr:postcode" v="78752"/></node><node id="-46" lat="30.3345" lon="-97.694712" changeset="false"><tag k="addr:street" v="Wheatley Avenue"/><tag k="addr:housenumber" v="1020"/><tag k="addr:postcode" v="78752"/></node><node id="-47" lat="30.334778" lon="-97.695034" changeset="false"><tag k="addr:street" v="Bethune Avenue"/><tag k="addr:housenumber" v="7603"/><tag k="addr:postcode" v="78752"/></node><node id="-48" lat="30.334922" lon="-97.694954" changeset="false"><tag k="addr:street" v="Bethune Avenue"/><tag k="addr:housenumber" v="7605"/><tag k="addr:postcode" v="78752"/></node><node id="-49" lat="30.334898" lon="-97.695518" changeset="false"><tag k="addr:street" v="Wheatley Avenue"/><tag k="addr:housenumber" v="1008"/><tag k="addr:postcode" v="78752"/></node><node id="-50" lat="30.332483" lon="-97.69568" changeset="false"><tag k="addr:street" v="Providence Avenue"/><tag k="addr:housenumber" v="7406"/><tag k="addr:postcode" v="78752"/></node><node id="-51" lat="30.333643" lon="-97.69495" changeset="false"><tag k="addr:street" v="Providence Avenue"/><tag k="addr:housenumber" v="7510"/><tag k="addr:postcode" v="78752"/></node><node id="-52" lat="30.333539" lon="-97.695008" changeset="false"><tag k="addr:street" v="Providence Avenue"/><tag k="addr:housenumber" v="7508"/><tag k="addr:postcode" v="78752"/></node><node id="-53" lat="30.332633" lon="-97.695656" changeset="false"><tag k="addr:street" v="Providence Avenue"/><tag k="addr:housenumber" v="7408"/><tag k="addr:postcode" v="78752"/></node><node id="-54" lat="30.332836" lon="-97.694786" changeset="false"><tag k="addr:street" v="Providence Avenue"/><tag k="addr:housenumber" v="7501"/><tag k="addr:postcode" v="78752"/></node><node id="-55" lat="30.333762" lon="-97.694874" changeset="false"><tag k="addr:street" v="Providence Avenue"/><tag k="addr:housenumber" v="7512"/><tag k="addr:postcode" v="78752"/></node><node id="-56" lat="30.333833" lon="-97.695658" changeset="false"><tag k="addr:street" v="Bethune Avenue"/><tag k="addr:housenumber" v="7509"/><tag k="addr:postcode" v="78752"/></node><node id="-57" lat="30.333887" lon="-97.694802" changeset="false"><tag k="addr:street" v="Providence Avenue"/><tag k="addr:housenumber" v="7514"/><tag k="addr:postcode" v="78752"/></node><node id="-58" lat="30.333979" lon="-97.695626" changeset="false"><tag k="addr:street" v="Bethune Avenue"/><tag k="addr:housenumber" v="7511"/><tag k="addr:postcode" v="78752"/></node><node id="-59" lat="30.335553" lon="-97.695947" changeset="false"><tag k="addr:street" v="Carver Avenue"/><tag k="addr:housenumber" v="7607"/><tag k="addr:postcode" v="78752"/></node><node id="-60" lat="30.335617" lon="-97.696418" changeset="false"><tag k="addr:street" v="Carver Avenue"/><tag k="addr:housenumber" v="7604"/><tag k="addr:postcode" v="78752"/></node><node id="-61" lat="30.335669" lon="-97.695867" changeset="false"><tag k="addr:street" v="Carver Avenue"/><tag k="addr:housenumber" v="7609"/><tag k="addr:postcode" v="78752"/></node><node id="-62" lat="30.335816" lon="-97.695789" changeset="false"><tag k="addr:street" v="Carver Avenue"/><tag k="addr:housenumber" v="7611"/><tag k="addr:postcode" v="78752"/></node><node id="-63" lat="30.33575" lon="-97.696329" changeset="false"><tag k="addr:street" v="Carver Avenue"/><tag k="addr:housenumber" v="7606"/><tag k="addr:postcode" v="78752"/></node><node id="-64" lat="30.335878" lon="-97.696267" changeset="false"><tag k="addr:street" v="Carver Avenue"/><tag k="addr:housenumber" v="7608"/><tag k="addr:postcode" v="78752"/></node><node id="-65" lat="30.335962" lon="-97.69621" changeset="false"><tag k="addr:street" v="Carver Avenue"/><tag k="addr:housenumber" v="7610"/><tag k="addr:postcode" v="78752"/></node><node id="-66" lat="30.336351" lon="-97.69596" changeset="false"><tag k="addr:street" v="Carver Avenue"/><tag k="addr:housenumber" v="7616"/><tag k="addr:postcode" v="78752"/></node><node id="-67" lat="30.336108" lon="-97.696177" changeset="false"><tag k="addr:street" v="Carver Avenue"/><tag k="addr:housenumber" v="7612"/><tag k="addr:postcode" v="78752"/></node><node id="-68" lat="30.336229" lon="-97.696047" changeset="false"><tag k="addr:street" v="Carver Avenue"/><tag k="addr:housenumber" v="7614"/><tag k="addr:postcode" v="78752"/></node><node id="-69" lat="30.335213" lon="-97.696171" changeset="false"><tag k="addr:street" v="Carver Avenue"/><tag k="addr:housenumber" v="7601"/><tag k="addr:postcode" v="78752"/></node><node id="-70" lat="30.334719" lon="-97.696484" changeset="false"><tag k="addr:street" v="Carver Avenue"/><tag k="addr:housenumber" v="7515"/><tag k="addr:postcode" v="78752"/></node><node id="-71" lat="30.334933" lon="-97.696331" changeset="false"><tag k="addr:street" v="Carver Avenue"/><tag k="addr:housenumber" v="7519"/><tag k="addr:postcode" v="78752"/></node><node id="-72" lat="30.334833" lon="-97.696417" changeset="false"><tag k="addr:street" v="Carver Avenue"/><tag k="addr:housenumber" v="7517"/><tag k="addr:postcode" v="78752"/></node><node id="-73" lat="30.335417" lon="-97.696028" changeset="false"><tag k="addr:street" v="Carver Avenue"/><tag k="addr:housenumber" v="7605"/><tag k="addr:postcode" v="78752"/></node><node id="-74" lat="30.334403" lon="-97.695824" changeset="false"><tag k="addr:street" v="Bethune Avenue"/><tag k="addr:housenumber" v="7514"/><tag k="addr:postcode" v="78752"/></node><node id="-75" lat="30.332768" lon="-97.696303" changeset="false"><tag k="addr:street" v="Bethune Avenue"/><tag k="addr:housenumber" v="7407"/><tag k="addr:postcode" v="78752"/></node><node id="-76" lat="30.333483" lon="-97.695897" changeset="false"><tag k="addr:street" v="Bethune Avenue"/><tag k="addr:housenumber" v="7503"/><tag k="addr:postcode" v="78752"/></node><node id="-77" lat="30.332915" lon="-97.696234" changeset="false"><tag k="addr:street" v="Bethune Avenue"/><tag k="addr:housenumber" v="7409"/><tag k="addr:postcode" v="78752"/></node><node id="-78" lat="30.334034" lon="-97.696066" changeset="false"><tag k="addr:street" v="Bethune Avenue"/><tag k="addr:housenumber" v="7508"/><tag k="addr:postcode" v="78752"/></node><node id="-79" lat="30.334276" lon="-97.695903" changeset="false"><tag k="addr:street" v="Bethune Avenue"/><tag k="addr:housenumber" v="7512"/><tag k="addr:postcode" v="78752"/></node><node id="-80" lat="30.334146" lon="-97.696006" changeset="false"><tag k="addr:street" v="Bethune Avenue"/><tag k="addr:housenumber" v="7510"/><tag k="addr:postcode" v="78752"/></node><node id="-81" lat="30.333035" lon="-97.696142" changeset="false"><tag k="addr:street" v="Bethune Avenue"/><tag k="addr:housenumber" v="7411"/><tag k="addr:postcode" v="78752"/></node><node id="-82" lat="30.332277" lon="-97.695811" changeset="false"><tag k="addr:street" v="Providence Avenue"/><tag k="addr:housenumber" v="7402"/><tag k="addr:postcode" v="78752"/></node><node id="-83" lat="30.331784" lon="-97.696204" changeset="false"><tag k="addr:street" v="Providence Avenue"/><tag k="addr:housenumber" v="7312"/><tag k="addr:postcode" v="78752"/></node><node id="-84" lat="30.33188" lon="-97.696027" changeset="false"><tag k="addr:street" v="Providence Avenue"/><tag k="addr:housenumber" v="7314"/><tag k="addr:postcode" v="78752"/></node><node id="-85" lat="30.332372" lon="-97.695755" changeset="false"><tag k="addr:street" v="Providence Avenue"/><tag k="addr:housenumber" v="7404"/><tag k="addr:postcode" v="78752"/></node><node id="-86" lat="30.332676" lon="-97.696377" changeset="false"><tag k="addr:street" v="Bethune Avenue"/><tag k="addr:housenumber" v="7405"/><tag k="addr:postcode" v="78752"/></node><node id="-87" lat="30.336169" lon="-97.696987" changeset="false"><tag k="addr:street" v="Bennett Avenue"/><tag k="addr:housenumber" v="7609"/><tag k="addr:postcode" v="78752"/></node><node id="-88" lat="30.335936" lon="-97.697084" changeset="false"><tag k="addr:street" v="Bennett Avenue"/><tag k="addr:housenumber" v="7605"/><tag k="addr:postcode" v="78752"/></node><node id="-89" lat="30.335808" lon="-97.697151" changeset="false"><tag k="addr:street" v="Bennett Avenue"/><tag k="addr:housenumber" v="7603"/><tag k="addr:postcode" v="78752"/></node><node id="-90" lat="30.336048" lon="-97.697014" changeset="false"><tag k="addr:street" v="Bennett Avenue"/><tag k="addr:housenumber" v="7607"/><tag k="addr:postcode" v="78752"/></node><node id="-91" lat="30.336314" lon="-97.696845" changeset="false"><tag k="addr:street" v="Bennett Avenue"/><tag k="addr:housenumber" v="7611"/><tag k="addr:postcode" v="78752"/></node><node id="-92" lat="30.336566" lon="-97.696668" changeset="false"><tag k="addr:street" v="Bennett Avenue"/><tag k="addr:housenumber" v="7615"/><tag k="addr:postcode" v="78752"/></node><node id="-93" lat="30.334439" lon="-97.697248" changeset="false"><tag k="addr:street" v="Carver Avenue"/><tag k="addr:housenumber" v="7506"/><tag k="addr:postcode" v="78752"/></node><node id="-94" lat="30.335403" lon="-97.696548" changeset="false"><tag k="addr:street" v="Carver Avenue"/><tag k="addr:housenumber" v="7600"/><tag k="addr:postcode" v="78752"/></node><node id="-95" lat="30.335114" lon="-97.696705" changeset="false"><tag k="addr:street" v="Carver Avenue"/><tag k="addr:housenumber" v="7518"/><tag k="addr:postcode" v="78752"/></node><node id="-96" lat="30.335686" lon="-97.697226" changeset="false"><tag k="addr:street" v="Bennett Avenue"/><tag k="addr:housenumber" v="7601"/><tag k="addr:postcode" v="78752"/></node><node id="-97" lat="30.334768" lon="-97.696976" changeset="false"><tag k="addr:street" v="Carver Avenue"/><tag k="addr:housenumber" v="7512"/><tag k="addr:postcode" v="78752"/></node><node id="-98" lat="30.332878" lon="-97.696924" changeset="false"><tag k="addr:street" v="Bethune Avenue"/><tag k="addr:housenumber" v="7404"/><tag k="addr:postcode" v="78752"/></node><node id="-99" lat="30.333386" lon="-97.697238" changeset="false"><tag k="addr:street" v="Carver Avenue"/><tag k="addr:housenumber" v="7409"/><tag k="addr:postcode" v="78752"/></node><node id="-100" lat="30.333286" lon="-97.696594" changeset="false"><tag k="addr:street" v="Bethune Avenue"/><tag k="addr:housenumber" v="7410"/><tag k="addr:postcode" v="78752"/></node><node id="-101" lat="30.333991" lon="-97.69693" changeset="false"><tag k="addr:street" v="Carver Avenue"/><tag k="addr:housenumber" v="7503"/><tag k="addr:postcode" v="78752"/></node><node id="-102" lat="30.333114" lon="-97.69667" changeset="false"><tag k="addr:street" v="Bethune Avenue"/><tag k="addr:housenumber" v="7408"/><tag k="addr:postcode" v="78752"/></node><node id="-103" lat="30.333552" lon="-97.697214" changeset="false"><tag k="addr:street" v="Carver Avenue"/><tag k="addr:housenumber" v="7411"/><tag k="addr:postcode" v="78752"/></node><node id="-104" lat="30.33302" lon="-97.69675" changeset="false"><tag k="addr:street" v="Bethune Avenue"/><tag k="addr:housenumber" v="7406"/><tag k="addr:postcode" v="78752"/></node><node id="-105" lat="30.334324" lon="-97.697315" changeset="false"><tag k="addr:street" v="Carver Avenue"/><tag k="addr:housenumber" v="7504"/><tag k="addr:postcode" v="78752"/></node><node id="-106" lat="30.334453" lon="-97.696658" changeset="false"><tag k="addr:street" v="Carver Avenue"/><tag k="addr:housenumber" v="7511"/><tag k="addr:postcode" v="78752"/></node><node id="-107" lat="30.331938" lon="-97.696833" changeset="false"><tag k="addr:street" v="Bethune Avenue"/><tag k="addr:housenumber" v="7311"/><tag k="addr:postcode" v="78752"/></node><node id="-108" lat="30.331703" lon="-97.697049" changeset="false"><tag k="addr:street" v="Bethune Avenue"/><tag k="addr:housenumber" v="7307"/><tag k="addr:postcode" v="78752"/></node><node id="-109" lat="30.33181" lon="-97.696915" changeset="false"><tag k="addr:street" v="Bethune Avenue"/><tag k="addr:housenumber" v="7309"/><tag k="addr:postcode" v="78752"/></node><node id="-110" lat="30.33221" lon="-97.696764" changeset="false"><tag k="addr:street" v="Bethune Avenue"/><tag k="addr:housenumber" v="7315"/><tag k="addr:postcode" v="78752"/></node><node id="-111" lat="30.332064" lon="-97.696808" changeset="false"><tag k="addr:street" v="Bethune Avenue"/><tag k="addr:housenumber" v="7313"/><tag k="addr:postcode" v="78752"/></node><node id="-112" lat="30.332117" lon="-97.696553" changeset="false"><tag k="addr:street" v="Blackson Avenue"/><tag k="addr:housenumber" v="1013"/><tag k="addr:postcode" v="78752"/></node><node id="-113" lat="30.332133" lon="-97.697239" changeset="false"><tag k="addr:street" v="Bethune Avenue"/><tag k="addr:housenumber" v="7310"/><tag k="addr:postcode" v="78752"/></node><node id="-114" lat="30.332272" lon="-97.697188" changeset="false"><tag k="addr:street" v="Bethune Avenue"/><tag k="addr:housenumber" v="7312"/><tag k="addr:postcode" v="78752"/></node><node id="-115" lat="30.332437" lon="-97.69653" changeset="false"><tag k="addr:street" v="Bethune Avenue"/><tag k="addr:housenumber" v="7401"/><tag k="addr:postcode" v="78752"/></node><node id="-116" lat="30.332634" lon="-97.696978" changeset="false"><tag k="addr:street" v="Bethune Avenue"/><tag k="addr:housenumber" v="7400"/><tag k="addr:postcode" v="78752"/></node><node id="-117" lat="30.33274" lon="-97.696908" changeset="false"><tag k="addr:street" v="Bethune Avenue"/><tag k="addr:housenumber" v="7402"/><tag k="addr:postcode" v="78752"/></node><node id="-118" lat="30.332554" lon="-97.696453" changeset="false"><tag k="addr:street" v="Bethune Avenue"/><tag k="addr:housenumber" v="7403"/><tag k="addr:postcode" v="78752"/></node><node id="-119" lat="30.330692" lon="-97.694858" changeset="false"><tag k="addr:street" v="Meador Avenue"/><tag k="addr:housenumber" v="7307"/><tag k="addr:postcode" v="78752"/></node><node id="-120" lat="30.33077" lon="-97.694067" changeset="false"><tag k="addr:street" v="Blessing Avenue"/><tag k="addr:housenumber" v="7312"/><tag k="addr:postcode" v="78752"/></node><node id="-121" lat="30.330807" lon="-97.694818" changeset="false"><tag k="addr:street" v="Meador Avenue"/><tag k="addr:housenumber" v="7309"/><tag k="addr:postcode" v="78752"/></node><node id="-122" lat="30.331037" lon="-97.695266" changeset="false"><tag k="addr:street" v="Meador Avenue"/><tag k="addr:housenumber" v="7308"/><tag k="addr:postcode" v="78752"/></node><node id="-123" lat="30.331074" lon="-97.694674" changeset="false"><tag k="addr:street" v="Meador Avenue"/><tag k="addr:housenumber" v="7313"/><tag k="addr:postcode" v="78752"/></node><node id="-124" lat="30.330977" lon="-97.694782" changeset="false"><tag k="addr:street" v="Meador Avenue"/><tag k="addr:housenumber" v="7311"/><tag k="addr:postcode" v="78752"/></node><node id="-125" lat="30.331151" lon="-97.695208" changeset="false"><tag k="addr:street" v="Meador Avenue"/><tag k="addr:housenumber" v="7310"/><tag k="addr:postcode" v="78752"/></node><node id="-126" lat="30.331297" lon="-97.695167" changeset="false"><tag k="addr:street" v="Meador Avenue"/><tag k="addr:housenumber" v="7312"/><tag k="addr:postcode" v="78752"/></node><node id="-127" lat="30.331487" lon="-97.695256" changeset="false"><tag k="addr:street" v="Meador Avenue"/><tag k="addr:housenumber" v="7314"/><tag k="addr:postcode" v="78752"/></node><node id="-128" lat="30.331179" lon="-97.694566" changeset="false"><tag k="addr:street" v="Meador Avenue"/><tag k="addr:housenumber" v="7315"/><tag k="addr:postcode" v="78752"/></node><node id="-129" lat="30.330017" lon="-97.694459" changeset="false"><tag k="addr:street" v="Blessing Avenue"/><tag k="addr:housenumber" v="7300"/><tag k="addr:postcode" v="78752"/></node><node id="-130" lat="30.330066" lon="-97.695306" changeset="false"><tag k="addr:street" v="Meador Avenue"/><tag k="addr:housenumber" v="7217"/><tag k="addr:postcode" v="78752"/></node><node id="-131" lat="30.330141" lon="-97.694403" changeset="false"><tag k="addr:street" v="Blessing Avenue"/><tag k="addr:housenumber" v="7302"/><tag k="addr:postcode" v="78752"/></node><node id="-132" lat="30.330275" lon="-97.694356" changeset="false"><tag k="addr:street" v="Blessing Avenue"/><tag k="addr:housenumber" v="7304"/><tag k="addr:postcode" v="78752"/></node><node id="-133" lat="30.330346" lon="-97.695153" changeset="false"><tag k="addr:street" v="Meador Avenue"/><tag k="addr:housenumber" v="7301"/><tag k="addr:postcode" v="78752"/></node><node id="-134" lat="30.330409" lon="-97.694302" changeset="false"><tag k="addr:street" v="Blessing Avenue"/><tag k="addr:housenumber" v="7306"/><tag k="addr:postcode" v="78752"/></node><node id="-135" lat="30.330648" lon="-97.694156" changeset="false"><tag k="addr:street" v="Blessing Avenue"/><tag k="addr:housenumber" v="7310"/><tag k="addr:postcode" v="78752"/></node><node id="-136" lat="30.330466" lon="-97.695083" changeset="false"><tag k="addr:street" v="Meador Avenue"/><tag k="addr:housenumber" v="7303"/><tag k="addr:postcode" v="78752"/></node><node id="-137" lat="30.330583" lon="-97.695" changeset="false"><tag k="addr:street" v="Meador Avenue"/><tag k="addr:housenumber" v="7305"/><tag k="addr:postcode" v="78752"/></node><node id="-138" lat="30.330526" lon="-97.694241" changeset="false"><tag k="addr:street" v="Blessing Avenue"/><tag k="addr:housenumber" v="7308"/><tag k="addr:postcode" v="78752"/></node><node id="-139" lat="30.328308" lon="-97.695096" changeset="false"><tag k="addr:street" v="Blessing Avenue"/><tag k="addr:housenumber" v="7109"/><tag k="addr:postcode" v="78752"/></node><node id="-140" lat="30.329065" lon="-97.695156" changeset="false"><tag k="addr:street" v="Blessing Avenue"/><tag k="addr:housenumber" v="7204"/><tag k="addr:postcode" v="78752"/></node><node id="-141" lat="30.328833" lon="-97.695278" changeset="false"><tag k="addr:street" v="Blessing Avenue"/><tag k="addr:housenumber" v="7200"/><tag k="addr:postcode" v="78752"/></node><node id="-142" lat="30.329165" lon="-97.695066" changeset="false"><tag k="addr:street" v="Blessing Avenue"/><tag k="addr:housenumber" v="7206"/><tag k="addr:postcode" v="78752"/></node><node id="-143" lat="30.329286" lon="-97.694942" changeset="false"><tag k="addr:street" v="Blessing Avenue"/><tag k="addr:housenumber" v="7208"/><tag k="addr:postcode" v="78752"/></node><node id="-144" lat="30.329423" lon="-97.694939" changeset="false"><tag k="addr:street" v="Blessing Avenue"/><tag k="addr:housenumber" v="7210"/><tag k="addr:postcode" v="78752"/></node><node id="-145" lat="30.329543" lon="-97.69487" changeset="false"><tag k="addr:street" v="Blessing Avenue"/><tag k="addr:housenumber" v="7212"/><tag k="addr:postcode" v="78752"/></node><node id="-146" lat="30.329653" lon="-97.694722" changeset="false"><tag k="addr:street" v="Blessing Avenue"/><tag k="addr:housenumber" v="7214"/><tag k="addr:postcode" v="78752"/></node><node id="-147" lat="30.329793" lon="-97.694732" changeset="false"><tag k="addr:street" v="Wilks Avenue"/><tag k="addr:housenumber" v="1109"/><tag k="addr:postcode" v="78752"/></node><node id="-148" lat="30.327734" lon="-97.694795" changeset="false"><tag k="addr:street" v="Grand Canyon Drive"/><tag k="addr:housenumber" v="7100"/><tag k="addr:postcode" v="78752"/></node><node id="-149" lat="30.327986" lon="-97.694594" changeset="false"><tag k="addr:street" v="Grand Canyon Drive"/><tag k="addr:housenumber" v="7110"/><tag k="addr:postcode" v="78752"/></node><node id="-150" lat="30.32807" lon="-97.695213" changeset="false"><tag k="addr:street" v="Blessing Avenue"/><tag k="addr:housenumber" v="7105"/><tag k="addr:postcode" v="78752"/></node><node id="-151" lat="30.327551" lon="-97.69501" changeset="false"><tag k="addr:street" v="Grand Canyon Drive"/><tag k="addr:housenumber" v="7090"/><tag k="addr:postcode" v="78752"/></node><node id="-152" lat="30.328168" lon="-97.695163" changeset="false"><tag k="addr:street" v="Blessing Avenue"/><tag k="addr:housenumber" v="7107"/><tag k="addr:postcode" v="78752"/></node><node id="-153" lat="30.33077" lon="-97.695402" changeset="false"><tag k="addr:street" v="Meador Avenue"/><tag k="addr:housenumber" v="7304"/><tag k="addr:postcode" v="78752"/></node><node id="-154" lat="30.330895" lon="-97.69535" changeset="false"><tag k="addr:street" v="Meador Avenue"/><tag k="addr:housenumber" v="7306"/><tag k="addr:postcode" v="78752"/></node><node id="-155" lat="30.331574" lon="-97.695755" changeset="false"><tag k="addr:street" v="Providence Avenue"/><tag k="addr:housenumber" v="7313"/><tag k="addr:postcode" v="78752"/></node><node id="-156" lat="30.331308" lon="-97.695893" changeset="false"><tag k="addr:street" v="Providence Avenue"/><tag k="addr:housenumber" v="7309"/><tag k="addr:postcode" v="78752"/></node><node id="-157" lat="30.331458" lon="-97.695821" changeset="false"><tag k="addr:street" v="Providence Avenue"/><tag k="addr:housenumber" v="7311"/><tag k="addr:postcode" v="78752"/></node><node id="-158" lat="30.331213" lon="-97.695972" changeset="false"><tag k="addr:street" v="Providence Avenue"/><tag k="addr:housenumber" v="7307"/><tag k="addr:postcode" v="78752"/></node><node id="-159" lat="30.331593" lon="-97.695564" changeset="false"><tag k="addr:street" v="Providence Avenue"/><tag k="addr:housenumber" v="7315"/><tag k="addr:postcode" v="78752"/></node><node id="-160" lat="30.329324" lon="-97.695747" changeset="false"><tag k="addr:street" v="Meador Avenue"/><tag k="addr:housenumber" v="7205"/><tag k="addr:postcode" v="78752"/></node><node id="-161" lat="30.329463" lon="-97.695664" changeset="false"><tag k="addr:street" v="Meador Avenue"/><tag k="addr:housenumber" v="7207"/><tag k="addr:postcode" v="78752"/></node><node id="-162" lat="30.329569" lon="-97.695581" changeset="false"><tag k="addr:street" v="Meador Avenue"/><tag k="addr:housenumber" v="7209"/><tag k="addr:postcode" v="78752"/></node><node id="-163" lat="30.329704" lon="-97.695502" changeset="false"><tag k="addr:street" v="Meador Avenue"/><tag k="addr:housenumber" v="7211"/><tag k="addr:postcode" v="78752"/></node><node id="-164" lat="30.329849" lon="-97.695457" changeset="false"><tag k="addr:street" v="Meador Avenue"/><tag k="addr:housenumber" v="7213"/><tag k="addr:postcode" v="78752"/></node><node id="-165" lat="30.330171" lon="-97.695847" changeset="false"><tag k="addr:street" v="Meador Avenue"/><tag k="addr:housenumber" v="7214"/><tag k="addr:postcode" v="78752"/></node><node id="-166" lat="30.330308" lon="-97.695689" changeset="false"><tag k="addr:street" v="Meador Avenue"/><tag k="addr:housenumber" v="7216"/><tag k="addr:postcode" v="78752"/></node><node id="-167" lat="30.330511" lon="-97.695553" changeset="false"><tag k="addr:street" v="Wilks Avenue"/><tag k="addr:housenumber" v="1034"/><tag k="addr:postcode" v="78752"/></node><node id="-168" lat="30.330662" lon="-97.695447" changeset="false"><tag k="addr:street" v="Meador Avenue"/><tag k="addr:housenumber" v="7302"/><tag k="addr:postcode" v="78752"/></node><node id="-169" lat="30.327766" lon="-97.695913" changeset="false"><tag k="addr:street" v="Blessing Avenue"/><tag k="addr:housenumber" v="7008"/><tag k="addr:postcode" v="78752"/></node><node id="-170" lat="30.327871" lon="-97.69584" changeset="false"><tag k="addr:street" v="Blessing Avenue"/><tag k="addr:housenumber" v="7010"/><tag k="addr:postcode" v="78752"/></node><node id="-171" lat="30.328013" lon="-97.695763" changeset="false"><tag k="addr:street" v="Blessing Avenue"/><tag k="addr:housenumber" v="7100"/><tag k="addr:postcode" v="78752"/></node><node id="-172" lat="30.328133" lon="-97.695705" changeset="false"><tag k="addr:street" v="Blessing Avenue"/><tag k="addr:housenumber" v="7102"/><tag k="addr:postcode" v="78752"/></node><node id="-173" lat="30.328382" lon="-97.695539" changeset="false"><tag k="addr:street" v="Blessing Avenue"/><tag k="addr:housenumber" v="7106"/><tag k="addr:postcode" v="78752"/></node><node id="-174" lat="30.328511" lon="-97.695507" changeset="false"><tag k="addr:street" v="Blessing Avenue"/><tag k="addr:housenumber" v="7108"/><tag k="addr:postcode" v="78752"/></node><node id="-175" lat="30.32911" lon="-97.695902" changeset="false"><tag k="addr:street" v="Meador Avenue"/><tag k="addr:housenumber" v="7201"/><tag k="addr:postcode" v="78752"/></node><node id="-176" lat="30.329228" lon="-97.695867" changeset="false"><tag k="addr:street" v="Meador Avenue"/><tag k="addr:housenumber" v="7203"/><tag k="addr:postcode" v="78752"/></node><node id="-177" lat="30.326194" lon="-97.695342" changeset="false"><tag k="addr:street" v="Grand Canyon Drive"/><tag k="addr:housenumber" v="7020"/><tag k="addr:postcode" v="78752"/></node><node id="-178" lat="30.327112" lon="-97.695814" changeset="false"><tag k="addr:street" v="Blessing Avenue"/><tag k="addr:housenumber" v="7001"/><tag k="addr:postcode" v="78752"/></node><node id="-179" lat="30.326874" lon="-97.696028" changeset="false"><tag k="addr:street" v="Blessing Avenue"/><tag k="addr:housenumber" v="6921"/><tag k="addr:postcode" v="78752"/></node><node id="-180" lat="30.327221" lon="-97.695765" changeset="false"><tag k="addr:street" v="Blessing Avenue"/><tag k="addr:housenumber" v="7003"/><tag k="addr:postcode" v="78752"/></node><node id="-181" lat="30.327354" lon="-97.695705" changeset="false"><tag k="addr:street" v="Blessing Avenue"/><tag k="addr:housenumber" v="7005"/><tag k="addr:postcode" v="78752"/></node><node id="-182" lat="30.327488" lon="-97.695641" changeset="false"><tag k="addr:street" v="Blessing Avenue"/><tag k="addr:housenumber" v="7007"/><tag k="addr:postcode" v="78752"/></node><node id="-183" lat="30.327577" lon="-97.695585" changeset="false"><tag k="addr:street" v="Blessing Avenue"/><tag k="addr:housenumber" v="7009"/><tag k="addr:postcode" v="78752"/></node><node id="-184" lat="30.327738" lon="-97.695502" changeset="false"><tag k="addr:street" v="Blessing Avenue"/><tag k="addr:housenumber" v="7011"/><tag k="addr:postcode" v="78752"/></node><node id="-185" lat="30.330146" lon="-97.696128" changeset="false"><tag k="addr:street" v="Meador Avenue"/><tag k="addr:housenumber" v="7212"/><tag k="addr:postcode" v="78752"/></node><node id="-186" lat="30.330478" lon="-97.696127" changeset="false"><tag k="addr:street" v="Wilks Avenue"/><tag k="addr:housenumber" v="1029"/><tag k="addr:postcode" v="78752"/></node><node id="-187" lat="30.331386" lon="-97.696378" changeset="false"><tag k="addr:street" v="Providence Avenue"/><tag k="addr:housenumber" v="7306"/><tag k="addr:postcode" v="78752"/></node><node id="-188" lat="30.3315" lon="-97.696276" changeset="false"><tag k="addr:street" v="Providence Avenue"/><tag k="addr:housenumber" v="7308"/><tag k="addr:postcode" v="78752"/></node><node id="-189" lat="30.331083" lon="-97.696055" changeset="false"><tag k="addr:street" v="Providence Avenue"/><tag k="addr:housenumber" v="7305"/><tag k="addr:postcode" v="78752"/></node><node id="-190" lat="30.330952" lon="-97.696128" changeset="false"><tag k="addr:street" v="Providence Avenue"/><tag k="addr:housenumber" v="7303"/><tag k="addr:postcode" v="78752"/></node><node id="-191" lat="30.330855" lon="-97.69621" changeset="false"><tag k="addr:street" v="Providence Avenue"/><tag k="addr:housenumber" v="7301"/><tag k="addr:postcode" v="78752"/></node><node id="-192" lat="30.330451" lon="-97.696444" changeset="false"><tag k="addr:street" v="Providence Avenue"/><tag k="addr:housenumber" v="7213"/><tag k="addr:postcode" v="78752"/></node><node id="-193" lat="30.331609" lon="-97.69621" changeset="false"><tag k="addr:street" v="Providence Avenue"/><tag k="addr:housenumber" v="7310"/><tag k="addr:postcode" v="78752"/></node><node id="-194" lat="30.331129" lon="-97.696576" changeset="false"><tag k="addr:street" v="Providence Avenue"/><tag k="addr:housenumber" v="7300"/><tag k="addr:postcode" v="78752"/></node><node id="-195" lat="30.330583" lon="-97.696359" changeset="false"><tag k="addr:street" v="Providence Avenue"/><tag k="addr:housenumber" v="7215"/><tag k="addr:postcode" v="78752"/></node><node id="-196" lat="30.328202" lon="-97.696557" changeset="false"><tag k="addr:street" v="Meador Avenue"/><tag k="addr:housenumber" v="7011"/><tag k="addr:postcode" v="78752"/></node><node id="-197" lat="30.32903" lon="-97.696558" changeset="false"><tag k="addr:street" v="East Saint John's Avenue"/><tag k="addr:housenumber" v="1035"/><tag k="addr:postcode" v="78752"/></node><node id="-198" lat="30.328454" lon="-97.696355" changeset="false"><tag k="addr:street" v="Meador Avenue"/><tag k="addr:housenumber" v="7103"/><tag k="addr:postcode" v="78752"/></node><node id="-199" lat="30.328563" lon="-97.696291" changeset="false"><tag k="addr:street" v="Meador Avenue"/><tag k="addr:housenumber" v="7105"/><tag k="addr:postcode" v="78752"/></node><node id="-200" lat="30.328339" lon="-97.69639" changeset="false"><tag k="addr:street" v="Meador Avenue"/><tag k="addr:housenumber" v="7101"/><tag k="addr:postcode" v="78752"/></node><node id="-201" lat="30.329371" lon="-97.696408" changeset="false"><tag k="addr:street" v="Meador Avenue"/><tag k="addr:housenumber" v="7200"/><tag k="addr:postcode" v="78752"/></node><node id="-202" lat="30.329458" lon="-97.69626" changeset="false"><tag k="addr:street" v="Meador Avenue"/><tag k="addr:housenumber" v="7202"/><tag k="addr:postcode" v="78752"/></node><node id="-203" lat="30.329673" lon="-97.696124" changeset="false"><tag k="addr:street" v="Meador Avenue"/><tag k="addr:housenumber" v="7206"/><tag k="addr:postcode" v="78752"/></node><node id="-204" lat="30.329513" lon="-97.696201" changeset="false"><tag k="addr:street" v="Meador Avenue"/><tag k="addr:housenumber" v="7204"/><tag k="addr:postcode" v="78752"/></node><node id="-205" lat="30.329805" lon="-97.696062" changeset="false"><tag k="addr:street" v="Meador Avenue"/><tag k="addr:housenumber" v="7208"/><tag k="addr:postcode" v="78752"/></node><node id="-206" lat="30.327545" lon="-97.696079" changeset="false"><tag k="addr:street" v="Blessing Avenue"/><tag k="addr:housenumber" v="7004"/><tag k="addr:postcode" v="78752"/></node><node id="-207" lat="30.327649" lon="-97.696008" changeset="false"><tag k="addr:street" v="Blessing Avenue"/><tag k="addr:housenumber" v="7006"/><tag k="addr:postcode" v="78752"/></node><node id="-208" lat="30.326257" lon="-97.696383" changeset="false"><tag k="addr:street" v="Blessing Avenue"/><tag k="addr:housenumber" v="6911"/><tag k="addr:postcode" v="78752"/></node><node id="-209" lat="30.326497" lon="-97.696258" changeset="false"><tag k="addr:street" v="Blessing Avenue"/><tag k="addr:housenumber" v="6915"/><tag k="addr:postcode" v="78752"/></node><node id="-210" lat="30.325991" lon="-97.696532" changeset="false"><tag k="addr:street" v="Blessing Avenue"/><tag k="addr:housenumber" v="6907"/><tag k="addr:postcode" v="78752"/></node><node id="-211" lat="30.326616" lon="-97.696179" changeset="false"><tag k="addr:street" v="Blessing Avenue"/><tag k="addr:housenumber" v="6917"/><tag k="addr:postcode" v="78752"/></node><node id="-212" lat="30.326923" lon="-97.696511" changeset="false"><tag k="addr:street" v="Blessing Avenue"/><tag k="addr:housenumber" v="6918"/><tag k="addr:postcode" v="78752"/></node><node id="-213" lat="30.326795" lon="-97.696583" changeset="false"><tag k="addr:street" v="Blessing Avenue"/><tag k="addr:housenumber" v="6916"/><tag k="addr:postcode" v="78752"/></node><node id="-214" lat="30.326736" lon="-97.696108" changeset="false"><tag k="addr:street" v="Blessing Avenue"/><tag k="addr:housenumber" v="6919"/><tag k="addr:postcode" v="78752"/></node><node id="-215" lat="30.327069" lon="-97.696529" changeset="false"><tag k="addr:street" v="Booker Avenue"/><tag k="addr:housenumber" v="1109"/><tag k="addr:postcode" v="78752"/></node><node id="-216" lat="30.32731" lon="-97.696287" changeset="false"><tag k="addr:street" v="Blessing Avenue"/><tag k="addr:housenumber" v="7000"/><tag k="addr:postcode" v="78752"/></node><node id="-217" lat="30.327437" lon="-97.696185" changeset="false"><tag k="addr:street" v="Blessing Avenue"/><tag k="addr:housenumber" v="7002"/><tag k="addr:postcode" v="78752"/></node><node id="-218" lat="30.330434" lon="-97.697031" changeset="false"><tag k="addr:street" v="Providence Avenue"/><tag k="addr:housenumber" v="7210"/><tag k="addr:postcode" v="78752"/></node><node id="-219" lat="30.330543" lon="-97.696952" changeset="false"><tag k="addr:street" v="Providence Avenue"/><tag k="addr:housenumber" v="7212"/><tag k="addr:postcode" v="78752"/></node><node id="-220" lat="30.330656" lon="-97.696858" changeset="false"><tag k="addr:street" v="Providence Avenue"/><tag k="addr:housenumber" v="7214"/><tag k="addr:postcode" v="78752"/></node><node id="-221" lat="30.331311" lon="-97.697137" changeset="false"><tag k="addr:street" v="Wilks Avenue"/><tag k="addr:housenumber" v="1012"/><tag k="addr:postcode" v="78752"/></node><node id="-222" lat="30.330778" lon="-97.696765" changeset="false"><tag k="addr:street" v="Providence Avenue"/><tag k="addr:housenumber" v="7216"/><tag k="addr:postcode" v="78752"/></node><node id="-223" lat="30.331471" lon="-97.697166" changeset="false"><tag k="addr:street" v="Bethune Avenue"/><tag k="addr:housenumber" v="7303"/><tag k="addr:postcode" v="78752"/></node><node id="-224" lat="30.33158" lon="-97.697078" changeset="false"><tag k="addr:street" v="Bethune Avenue"/><tag k="addr:housenumber" v="7305"/><tag k="addr:postcode" v="78752"/></node><node id="-225" lat="30.330103" lon="-97.696708" changeset="false"><tag k="addr:street" v="Providence Avenue"/><tag k="addr:housenumber" v="7209"/><tag k="addr:postcode" v="78752"/></node><node id="-226" lat="30.329728" lon="-97.6969" changeset="false"><tag k="addr:street" v="Providence Avenue"/><tag k="addr:housenumber" v="7203"/><tag k="addr:postcode" v="78752"/></node><node id="-227" lat="30.329199" lon="-97.697254" changeset="false"><tag k="addr:street" v="Providence Avenue"/><tag k="addr:housenumber" v="7107"/><tag k="addr:postcode" v="78752"/></node><node id="-228" lat="30.329328" lon="-97.697139" changeset="false"><tag k="addr:street" v="Providence Avenue"/><tag k="addr:housenumber" v="7109"/><tag k="addr:postcode" v="78752"/></node><node id="-229" lat="30.329836" lon="-97.696837" changeset="false"><tag k="addr:street" v="Providence Avenue"/><tag k="addr:housenumber" v="7205"/><tag k="addr:postcode" v="78752"/></node><node id="-230" lat="30.329915" lon="-97.697298" changeset="false"><tag k="addr:street" v="Providence Avenue"/><tag k="addr:housenumber" v="7202"/><tag k="addr:postcode" v="78752"/></node><node id="-231" lat="30.330253" lon="-97.696614" changeset="false"><tag k="addr:street" v="Providence Avenue"/><tag k="addr:housenumber" v="7211"/><tag k="addr:postcode" v="78752"/></node><node id="-232" lat="30.33009" lon="-97.697264" changeset="false"><tag k="addr:street" v="Providence Avenue"/><tag k="addr:housenumber" v="7204"/><tag k="addr:postcode" v="78752"/></node><node id="-233" lat="30.329074" lon="-97.697333" changeset="false"><tag k="addr:street" v="Providence Avenue"/><tag k="addr:housenumber" v="7105"/><tag k="addr:postcode" v="78752"/></node><node id="-234" lat="30.330303" lon="-97.697078" changeset="false"><tag k="addr:street" v="Providence Avenue"/><tag k="addr:housenumber" v="7208"/><tag k="addr:postcode" v="78752"/></node><node id="-235" lat="30.330186" lon="-97.697158" changeset="false"><tag k="addr:street" v="Providence Avenue"/><tag k="addr:housenumber" v="7206"/><tag k="addr:postcode" v="78752"/></node><node id="-236" lat="30.327286" lon="-97.696954" changeset="false"><tag k="addr:street" v="Booker Avenue"/><tag k="addr:housenumber" v="1103"/><tag k="addr:postcode" v="78752"/></node><node id="-237" lat="30.327615" lon="-97.696987" changeset="false"><tag k="addr:street" v="Meador Avenue"/><tag k="addr:housenumber" v="7001"/><tag k="addr:postcode" v="78752"/></node><node id="-238" lat="30.328258" lon="-97.696965" changeset="false"><tag k="addr:street" v="Meador Avenue"/><tag k="addr:housenumber" v="7008"/><tag k="addr:postcode" v="78752"/></node><node id="-239" lat="30.327823" lon="-97.696714" changeset="false"><tag k="addr:street" v="Meador Avenue"/><tag k="addr:housenumber" v="7005"/><tag k="addr:postcode" v="78752"/></node><node id="-240" lat="30.327763" lon="-97.696843" changeset="false"><tag k="addr:street" v="Meador Avenue"/><tag k="addr:housenumber" v="7003"/><tag k="addr:postcode" v="78752"/></node><node id="-241" lat="30.32797" lon="-97.696631" changeset="false"><tag k="addr:street" v="Meador Avenue"/><tag k="addr:housenumber" v="7007"/><tag k="addr:postcode" v="78752"/></node><node id="-242" lat="30.328405" lon="-97.696929" changeset="false"><tag k="addr:street" v="Meador Avenue"/><tag k="addr:housenumber" v="7010"/><tag k="addr:postcode" v="78752"/></node><node id="-243" lat="30.328067" lon="-97.696614" changeset="false"><tag k="addr:street" v="Meador Avenue"/><tag k="addr:housenumber" v="7009"/><tag k="addr:postcode" v="78752"/></node><node id="-244" lat="30.328889" lon="-97.696632" changeset="false"><tag k="addr:street" v="Meador Avenue"/><tag k="addr:housenumber" v="7106"/><tag k="addr:postcode" v="78752"/></node><node id="-245" lat="30.328763" lon="-97.696674" changeset="false"><tag k="addr:street" v="Meador Avenue"/><tag k="addr:housenumber" v="7104"/><tag k="addr:postcode" v="78752"/></node><node id="-246" lat="30.328641" lon="-97.696766" changeset="false"><tag k="addr:street" v="Meador Avenue"/><tag k="addr:housenumber" v="7102"/><tag k="addr:postcode" v="78752"/></node><node id="-247" lat="30.328524" lon="-97.696797" changeset="false"><tag k="addr:street" v="Meador Avenue"/><tag k="addr:housenumber" v="7012"/><tag k="addr:postcode" v="78752"/></node><node id="-248" lat="30.325623" lon="-97.69673" changeset="false"><tag k="addr:street" v="Blessing Avenue"/><tag k="addr:housenumber" v="6901"/><tag k="addr:postcode" v="78752"/></node><node id="-249" lat="30.326229" lon="-97.697003" changeset="false"><tag k="addr:street" v="Blessing Avenue"/><tag k="addr:housenumber" v="6906"/><tag k="addr:postcode" v="78752"/></node><node id="-250" lat="30.326089" lon="-97.697059" changeset="false"><tag k="addr:street" v="Blessing Avenue"/><tag k="addr:housenumber" v="6904"/><tag k="addr:postcode" v="78752"/></node><node id="-251" lat="30.325907" lon="-97.696626" changeset="false"><tag k="addr:street" v="Blessing Avenue"/><tag k="addr:housenumber" v="6905"/><tag k="addr:postcode" v="78752"/></node><node id="-252" lat="30.325746" lon="-97.696683" changeset="false"><tag k="addr:street" v="Blessing Avenue"/><tag k="addr:housenumber" v="6903"/><tag k="addr:postcode" v="78752"/></node><node id="-253" lat="30.325987" lon="-97.697122" changeset="false"><tag k="addr:street" v="Blessing Avenue"/><tag k="addr:housenumber" v="6902"/><tag k="addr:postcode" v="78752"/></node><node id="-254" lat="30.327079" lon="-97.697175" changeset="false"><tag k="addr:street" v="Meador Avenue"/><tag k="addr:housenumber" v="6917"/><tag k="addr:postcode" v="78752"/></node><node id="-255" lat="30.326664" lon="-97.696636" changeset="false"><tag k="addr:street" v="Blessing Avenue"/><tag k="addr:housenumber" v="6914"/><tag k="addr:postcode" v="78752"/></node><node id="-256" lat="30.326946" lon="-97.697248" changeset="false"><tag k="addr:street" v="Meador Avenue"/><tag k="addr:housenumber" v="6915"/><tag k="addr:postcode" v="78752"/></node><node id="-257" lat="30.326531" lon="-97.69672" changeset="false"><tag k="addr:street" v="Blessing Avenue"/><tag k="addr:housenumber" v="6912"/><tag k="addr:postcode" v="78752"/></node><node id="-258" lat="30.32721" lon="-97.697115" changeset="false"><tag k="addr:street" v="Meador Avenue"/><tag k="addr:housenumber" v="6919"/><tag k="addr:postcode" v="78752"/></node><node id="-259" lat="30.334457" lon="-97.697919" changeset="false"><tag k="addr:street" v="Bennett Avenue"/><tag k="addr:housenumber" v="7503"/><tag k="addr:postcode" v="78752"/></node><node id="-260" lat="30.334691" lon="-97.697786" changeset="false"><tag k="addr:street" v="Bennett Avenue"/><tag k="addr:housenumber" v="7507"/><tag k="addr:postcode" v="78752"/></node><node id="-261" lat="30.334833" lon="-97.697738" changeset="false"><tag k="addr:street" v="Bennett Avenue"/><tag k="addr:housenumber" v="7509"/><tag k="addr:postcode" v="78752"/></node><node id="-262" lat="30.334975" lon="-97.697672" changeset="false"><tag k="addr:street" v="Bennett Avenue"/><tag k="addr:housenumber" v="7511"/><tag k="addr:postcode" v="78752"/></node><node id="-263" lat="30.332949" lon="-97.697593" changeset="false"><tag k="addr:street" v="Carver Avenue"/><tag k="addr:housenumber" v="7401"/><tag k="addr:postcode" v="78752"/></node><node id="-264" lat="30.333052" lon="-97.697523" changeset="false"><tag k="addr:street" v="Carver Avenue"/><tag k="addr:housenumber" v="7403"/><tag k="addr:postcode" v="78752"/></node><node id="-265" lat="30.333176" lon="-97.697516" changeset="false"><tag k="addr:street" v="Carver Avenue"/><tag k="addr:housenumber" v="7405"/><tag k="addr:postcode" v="78752"/></node><node id="-266" lat="30.333291" lon="-97.69738" changeset="false"><tag k="addr:street" v="Carver Avenue"/><tag k="addr:housenumber" v="7407"/><tag k="addr:postcode" v="78752"/></node><node id="-267" lat="30.334202" lon="-97.697383" changeset="false"><tag k="addr:street" v="Carver Avenue"/><tag k="addr:housenumber" v="7502"/><tag k="addr:postcode" v="78752"/></node><node id="-268" lat="30.333364" lon="-97.697867" changeset="false"><tag k="addr:street" v="Carver Avenue"/><tag k="addr:housenumber" v="7404"/><tag k="addr:postcode" v="78752"/></node><node id="-269" lat="30.334012" lon="-97.697426" changeset="false"><tag k="addr:street" v="Carver Avenue"/><tag k="addr:housenumber" v="7500"/><tag k="addr:postcode" v="78752"/></node><node id="-270" lat="30.333516" lon="-97.697773" changeset="false"><tag k="addr:street" v="Carver Avenue"/><tag k="addr:housenumber" v="7406"/><tag k="addr:postcode" v="78752"/></node><node id="-271" lat="30.331668" lon="-97.697648" changeset="false"><tag k="addr:street" v="Bethune Avenue"/><tag k="addr:housenumber" v="7302"/><tag k="addr:postcode" v="78752"/></node><node id="-272" lat="30.331829" lon="-97.697553" changeset="false"><tag k="addr:street" v="Bethune Avenue"/><tag k="addr:housenumber" v="7304"/><tag k="addr:postcode" v="78752"/></node><node id="-273" lat="30.331913" lon="-97.697394" changeset="false"><tag k="addr:street" v="Bethune Avenue"/><tag k="addr:housenumber" v="7306"/><tag k="addr:postcode" v="78752"/></node><node id="-274" lat="30.33233" lon="-97.697992" changeset="false"><tag k="addr:street" v="Carver Avenue"/><tag k="addr:housenumber" v="7309"/><tag k="addr:postcode" v="78752"/></node><node id="-275" lat="30.332042" lon="-97.697366" changeset="false"><tag k="addr:street" v="Bethune Avenue"/><tag k="addr:housenumber" v="7308"/><tag k="addr:postcode" v="78752"/></node><node id="-276" lat="30.332439" lon="-97.697924" changeset="false"><tag k="addr:street" v="Carver Avenue"/><tag k="addr:housenumber" v="7311"/><tag k="addr:postcode" v="78752"/></node><node id="-277" lat="30.332571" lon="-97.69783" changeset="false"><tag k="addr:street" v="Carver Avenue"/><tag k="addr:housenumber" v="7313"/><tag k="addr:postcode" v="78752"/></node><node id="-278" lat="30.332672" lon="-97.697765" changeset="false"><tag k="addr:street" v="Carver Avenue"/><tag k="addr:housenumber" v="7315"/><tag k="addr:postcode" v="78752"/></node><node id="-279" lat="30.329636" lon="-97.697792" changeset="false"><tag k="addr:street" v="East Saint John's Avenue"/><tag k="addr:housenumber" v="1021"/><tag k="addr:postcode" v="78752"/></node><node id="-280" lat="30.330867" lon="-97.697581" changeset="false"><tag k="addr:street" v="Bethune Avenue"/><tag k="addr:housenumber" v="7213"/><tag k="addr:postcode" v="78752"/></node><node id="-281" lat="30.330712" lon="-97.697679" changeset="false"><tag k="addr:street" v="Bethune Avenue"/><tag k="addr:housenumber" v="7211"/><tag k="addr:postcode" v="78752"/></node><node id="-282" lat="30.330202" lon="-97.697893" changeset="false"><tag k="addr:street" v="East Saint John's Avenue"/><tag k="addr:housenumber" v="1012"/><tag k="addr:postcode" v="78752"/></node><node id="-283" lat="30.330463" lon="-97.697773" changeset="false"><tag k="addr:street" v="Bethune Avenue"/><tag k="addr:housenumber" v="7207"/><tag k="addr:postcode" v="78752"/></node><node id="-284" lat="30.33033" lon="-97.697846" changeset="false"><tag k="addr:street" v="Bethune Avenue"/><tag k="addr:housenumber" v="7205"/><tag k="addr:postcode" v="78752"/></node><node id="-285" lat="30.330593" lon="-97.697745" changeset="false"><tag k="addr:street" v="Bethune Avenue"/><tag k="addr:housenumber" v="7209"/><tag k="addr:postcode" v="78752"/></node><node id="-286" lat="30.331058" lon="-97.697967" changeset="false"><tag k="addr:street" v="Bethune Avenue"/><tag k="addr:housenumber" v="7212"/><tag k="addr:postcode" v="78752"/></node><node id="-287" lat="30.331277" lon="-97.697898" changeset="false"><tag k="addr:street" v="Bethune Avenue"/><tag k="addr:housenumber" v="7216"/><tag k="addr:postcode" v="78752"/></node><node id="-288" lat="30.331183" lon="-97.69792" changeset="false"><tag k="addr:street" v="Bethune Avenue"/><tag k="addr:housenumber" v="7214"/><tag k="addr:postcode" v="78752"/></node><node id="-289" lat="30.331089" lon="-97.69743" changeset="false"><tag k="addr:street" v="Bethune Avenue"/><tag k="addr:housenumber" v="7217"/><tag k="addr:postcode" v="78752"/></node><node id="-290" lat="30.331597" lon="-97.697787" changeset="false"><tag k="addr:street" v="Wilks Avenue"/><tag k="addr:housenumber" v="1008"/><tag k="addr:postcode" v="78752"/></node><node id="-291" lat="30.334572" lon="-97.698527" changeset="false"><tag k="addr:street" v="Bennett Avenue"/><tag k="addr:housenumber" v="7500"/><tag k="addr:postcode" v="78752"/></node><node id="-292" lat="30.334692" lon="-97.698425" changeset="false"><tag k="addr:street" v="Bennett Avenue"/><tag k="addr:housenumber" v="7502"/><tag k="addr:postcode" v="78752"/></node><node id="-293" lat="30.334837" lon="-97.698372" changeset="false"><tag k="addr:street" v="Bennett Avenue"/><tag k="addr:housenumber" v="7504"/><tag k="addr:postcode" v="78752"/></node><node id="-294" lat="30.334963" lon="-97.698289" changeset="false"><tag k="addr:street" v="Bennett Avenue"/><tag k="addr:housenumber" v="7506"/><tag k="addr:postcode" v="78752"/></node><node id="-295" lat="30.335182" lon="-97.698117" changeset="false"><tag k="addr:street" v="Bennett Avenue"/><tag k="addr:housenumber" v="7510"/><tag k="addr:postcode" v="78752"/></node><node id="-296" lat="30.335323" lon="-97.69802" changeset="false"><tag k="addr:street" v="Bennett Avenue"/><tag k="addr:housenumber" v="7512"/><tag k="addr:postcode" v="78752"/></node><node id="-297" lat="30.33683" lon="-97.698" changeset="false"><tag k="addr:street" v="I 35 Frontage Road"/><tag k="addr:housenumber" v="7625"/><tag k="addr:postcode" v="78752"/></node><node id="-298" lat="30.333074" lon="-97.698866" changeset="false"><tag k="addr:street" v="Bennett Avenue"/><tag k="addr:housenumber" v="7313"/><tag k="addr:postcode" v="78752"/></node><node id="-299" lat="30.332775" lon="-97.698255" changeset="false"><tag k="addr:street" v="Carver Avenue"/><tag k="addr:housenumber" v="7312"/><tag k="addr:postcode" v="78752"/></node><node id="-300" lat="30.333188" lon="-97.698794" changeset="false"><tag k="addr:street" v="Bennett Avenue"/><tag k="addr:housenumber" v="7315"/><tag k="addr:postcode" v="78752"/></node><node id="-301" lat="30.333899" lon="-97.698314" changeset="false"><tag k="addr:street" v="Bennett Avenue"/><tag k="addr:housenumber" v="7409"/><tag k="addr:postcode" v="78752"/></node><node id="-302" lat="30.331469" lon="-97.698512" changeset="false"><tag k="addr:street" v="Carver Avenue"/><tag k="addr:housenumber" v="7215"/><tag k="addr:postcode" v="78752"/></node><node id="-303" lat="30.332085" lon="-97.698165" changeset="false"><tag k="addr:street" v="Carver Avenue"/><tag k="addr:housenumber" v="7305"/><tag k="addr:postcode" v="78752"/></node><node id="-304" lat="30.332048" lon="-97.698728" changeset="false"><tag k="addr:street" v="Carver Avenue"/><tag k="addr:housenumber" v="7300"/><tag k="addr:postcode" v="78752"/></node><node id="-305" lat="30.332191" lon="-97.698064" changeset="false"><tag k="addr:street" v="Carver Avenue"/><tag k="addr:housenumber" v="7307"/><tag k="addr:postcode" v="78752"/></node><node id="-306" lat="30.332" lon="-97.698266" changeset="false"><tag k="addr:street" v="Carver Avenue"/><tag k="addr:housenumber" v="7303"/><tag k="addr:postcode" v="78752"/></node><node id="-307" lat="30.332142" lon="-97.698628" changeset="false"><tag k="addr:street" v="Carver Avenue"/><tag k="addr:housenumber" v="7302"/><tag k="addr:postcode" v="78752"/></node><node id="-308" lat="30.331869" lon="-97.698319" changeset="false"><tag k="addr:street" v="Carver Avenue"/><tag k="addr:housenumber" v="7301"/><tag k="addr:postcode" v="78752"/></node><node id="-309" lat="30.33267" lon="-97.698328" changeset="false"><tag k="addr:street" v="Carver Avenue"/><tag k="addr:housenumber" v="7310"/><tag k="addr:postcode" v="78752"/></node><node id="-310" lat="30.332534" lon="-97.69842" changeset="false"><tag k="addr:street" v="Carver Avenue"/><tag k="addr:housenumber" v="7308"/><tag k="addr:postcode" v="78752"/></node><node id="-311" lat="30.332256" lon="-97.698537" changeset="false"><tag k="addr:street" v="Carver Avenue"/><tag k="addr:housenumber" v="7304"/><tag k="addr:postcode" v="78752"/></node><node id="-312" lat="30.330036" lon="-97.698629" changeset="false"><tag k="addr:street" v="Bethune Avenue"/><tag k="addr:housenumber" v="7108"/><tag k="addr:postcode" v="78752"/></node><node id="-313" lat="30.329806" lon="-97.698169" changeset="false"><tag k="addr:street" v="Bethune Avenue"/><tag k="addr:housenumber" v="7109"/><tag k="addr:postcode" v="78752"/></node><node id="-314" lat="30.329769" lon="-97.698772" changeset="false"><tag k="addr:street" v="Bethune Avenue"/><tag k="addr:housenumber" v="7104"/><tag k="addr:postcode" v="78752"/></node><node id="-315" lat="30.329693" lon="-97.698308" changeset="false"><tag k="addr:street" v="Bethune Avenue"/><tag k="addr:housenumber" v="7107"/><tag k="addr:postcode" v="78752"/></node><node id="-316" lat="30.330441" lon="-97.698395" changeset="false"><tag k="addr:street" v="Bethune Avenue"/><tag k="addr:housenumber" v="7202"/><tag k="addr:postcode" v="78752"/></node><node id="-317" lat="30.330548" lon="-97.698293" changeset="false"><tag k="addr:street" v="Bethune Avenue"/><tag k="addr:housenumber" v="7204"/><tag k="addr:postcode" v="78752"/></node><node id="-318" lat="30.330654" lon="-97.698212" changeset="false"><tag k="addr:street" v="Bethune Avenue"/><tag k="addr:housenumber" v="7206"/><tag k="addr:postcode" v="78752"/></node><node id="-319" lat="30.330893" lon="-97.69804" changeset="false"><tag k="addr:street" v="Bethune Avenue"/><tag k="addr:housenumber" v="7210"/><tag k="addr:postcode" v="78752"/></node><node id="-320" lat="30.331241" lon="-97.698573" changeset="false"><tag k="addr:street" v="Carver Avenue"/><tag k="addr:housenumber" v="7207"/><tag k="addr:postcode" v="78752"/></node><node id="-321" lat="30.332827" lon="-97.699034" changeset="false"><tag k="addr:street" v="Bennett Avenue"/><tag k="addr:housenumber" v="7309"/><tag k="addr:postcode" v="78752"/></node><node id="-322" lat="30.332916" lon="-97.699599" changeset="false"><tag k="addr:street" v="Bennett Avenue"/><tag k="addr:housenumber" v="7306"/><tag k="addr:postcode" v="78752"/></node><node id="-323" lat="30.333413" lon="-97.699292" changeset="false"><tag k="addr:street" v="Bennett Avenue"/><tag k="addr:housenumber" v="7314"/><tag k="addr:postcode" v="78752"/></node><node id="-324" lat="30.334184" lon="-97.699611" changeset="false"><tag k="addr:street" v="Blackson Avenue"/><tag k="addr:housenumber" v="900"/><tag k="addr:postcode" v="78752"/></node><node id="-325" lat="30.333019" lon="-97.699432" changeset="false"><tag k="addr:street" v="Bennett Avenue"/><tag k="addr:housenumber" v="7308"/><tag k="addr:postcode" v="78752"/></node><node id="-326" lat="30.33331" lon="-97.699351" changeset="false"><tag k="addr:street" v="Bennett Avenue"/><tag k="addr:housenumber" v="7312"/><tag k="addr:postcode" v="78752"/></node><node id="-327" lat="30.33316" lon="-97.699426" changeset="false"><tag k="addr:street" v="Bennett Avenue"/><tag k="addr:housenumber" v="7310"/><tag k="addr:postcode" v="78752"/></node><node id="-328" lat="30.332939" lon="-97.698971" changeset="false"><tag k="addr:street" v="Bennett Avenue"/><tag k="addr:housenumber" v="7311"/><tag k="addr:postcode" v="78752"/></node><node id="-329" lat="30.336965" lon="-97.699573" changeset="false"><tag k="addr:street" v="I 35 Frontage Road"/><tag k="addr:housenumber" v="7619"/><tag k="addr:postcode" v="78752"/></node><node id="-330" lat="30.337446" lon="-97.699363" changeset="false"><tag k="addr:street" v="I 35 Frontage Road"/><tag k="addr:housenumber" v="7629"/><tag k="addr:postcode" v="78752"/></node><node id="-331" lat="30.331536" lon="-97.699469" changeset="false"><tag k="addr:street" v="Carver Avenue"/><tag k="addr:housenumber" v="7210"/><tag k="addr:postcode" v="78752"/></node><node id="-332" lat="30.332318" lon="-97.699958" changeset="false"><tag k="addr:street" v="Bennett Avenue"/><tag k="addr:housenumber" v="7216"/><tag k="addr:postcode" v="78752"/></node><node id="-333" lat="30.331707" lon="-97.699792" changeset="false"><tag k="addr:street" v="Bennett Avenue"/><tag k="addr:housenumber" v="7211"/><tag k="addr:postcode" v="78752"/></node><node id="-334" lat="30.331965" lon="-97.699619" changeset="false"><tag k="addr:street" v="Bennett Avenue"/><tag k="addr:housenumber" v="7215"/><tag k="addr:postcode" v="78752"/></node><node id="-335" lat="30.33258" lon="-97.699193" changeset="false"><tag k="addr:street" v="Bennett Avenue"/><tag k="addr:housenumber" v="7305"/><tag k="addr:postcode" v="78752"/></node><node id="-336" lat="30.331845" lon="-97.699699" changeset="false"><tag k="addr:street" v="Bennett Avenue"/><tag k="addr:housenumber" v="7213"/><tag k="addr:postcode" v="78752"/></node><node id="-337" lat="30.332114" lon="-97.69955" changeset="false"><tag k="addr:street" v="Bennett Avenue"/><tag k="addr:housenumber" v="7217"/><tag k="addr:postcode" v="78752"/></node><node id="-338" lat="30.332702" lon="-97.69911" changeset="false"><tag k="addr:street" v="Bennett Avenue"/><tag k="addr:housenumber" v="7307"/><tag k="addr:postcode" v="78752"/></node><node id="-339" lat="30.332593" lon="-97.699792" changeset="false"><tag k="addr:street" v="Bennett Avenue"/><tag k="addr:housenumber" v="7300"/><tag k="addr:postcode" v="78752"/></node><node id="-340" lat="30.331628" lon="-97.69984" changeset="false"><tag k="addr:street" v="Bennett Avenue"/><tag k="addr:housenumber" v="7209"/><tag k="addr:postcode" v="78752"/></node><node id="-341" lat="30.332339" lon="-97.699347" changeset="false"><tag k="addr:street" v="Bennett Avenue"/><tag k="addr:housenumber" v="7301"/><tag k="addr:postcode" v="78752"/></node><node id="-342" lat="30.332471" lon="-97.699247" changeset="false"><tag k="addr:street" v="Bennett Avenue"/><tag k="addr:housenumber" v="7303"/><tag k="addr:postcode" v="78752"/></node><node id="-343" lat="30.332796" lon="-97.699652" changeset="false"><tag k="addr:street" v="Bennett Avenue"/><tag k="addr:housenumber" v="7304"/><tag k="addr:postcode" v="78752"/></node><node id="-344" lat="30.330389" lon="-97.699783" changeset="false"><tag k="addr:street" v="Carver Avenue"/><tag k="addr:housenumber" v="7106"/><tag k="addr:postcode" v="78752"/></node><node id="-345" lat="30.33055" lon="-97.699725" changeset="false"><tag k="addr:street" v="Carver Avenue"/><tag k="addr:housenumber" v="7110"/><tag k="addr:postcode" v="78752"/></node><node id="-346" lat="30.330677" lon="-97.69895" changeset="false"><tag k="addr:street" v="Carver Avenue"/><tag k="addr:housenumber" v="7203"/><tag k="addr:postcode" v="78752"/></node><node id="-347" lat="30.33096" lon="-97.699472" changeset="false"><tag k="addr:street" v="Carver Avenue"/><tag k="addr:housenumber" v="7202"/><tag k="addr:postcode" v="78752"/></node><node id="-348" lat="30.331084" lon="-97.699424" changeset="false"><tag k="addr:street" v="Carver Avenue"/><tag k="addr:housenumber" v="7204"/><tag k="addr:postcode" v="78752"/></node><node id="-349" lat="30.331265" lon="-97.699165" changeset="false"><tag k="addr:street" v="Carver Avenue"/><tag k="addr:housenumber" v="7208"/><tag k="addr:postcode" v="78752"/></node><node id="-350" lat="30.331215" lon="-97.700001" changeset="false"><tag k="addr:street" v="Bennett Avenue"/><tag k="addr:housenumber" v="7203"/><tag k="addr:postcode" v="78752"/></node><node id="-351" lat="30.331355" lon="-97.699945" changeset="false"><tag k="addr:street" v="Bennett Avenue"/><tag k="addr:housenumber" v="7205"/><tag k="addr:postcode" v="78752"/></node><node id="-352" lat="30.33145" lon="-97.699871" changeset="false"><tag k="addr:street" v="Bennett Avenue"/><tag k="addr:housenumber" v="7207"/><tag k="addr:postcode" v="78752"/></node><node id="-353" lat="30.33005" lon="-97.699415" changeset="false"><tag k="addr:street" v="Carver Avenue"/><tag k="addr:housenumber" v="7105"/><tag k="addr:postcode" v="78752"/></node><node id="-354" lat="30.329726" lon="-97.699621" changeset="false"><tag k="addr:street" v="Carver Avenue"/><tag k="addr:housenumber" v="7011"/><tag k="addr:postcode" v="78752"/></node><node id="-355" lat="30.329575" lon="-97.699712" changeset="false"><tag k="addr:street" v="Carver Avenue"/><tag k="addr:housenumber" v="7009"/><tag k="addr:postcode" v="78752"/></node><node id="-356" lat="30.330028" lon="-97.69999" changeset="false"><tag k="addr:street" v="Carver Avenue"/><tag k="addr:housenumber" v="7100"/><tag k="addr:postcode" v="78752"/></node><node id="-357" lat="30.32965" lon="-97.69887" changeset="false"><tag k="addr:street" v="Bethune Avenue"/><tag k="addr:housenumber" v="7102"/><tag k="addr:postcode" v="78752"/></node><node id="-358" lat="30.329957" lon="-97.699479" changeset="false"><tag k="addr:street" v="Carver Avenue"/><tag k="addr:housenumber" v="7103"/><tag k="addr:postcode" v="78752"/></node><node id="-359" lat="30.330006" lon="-97.69898" changeset="false"><tag k="addr:street" v="Bethune Avenue"/><tag k="addr:housenumber" v="7106"/><tag k="addr:postcode" v="78752"/></node><node id="-360" lat="30.330165" lon="-97.699297" changeset="false"><tag k="addr:street" v="Carver Avenue"/><tag k="addr:housenumber" v="7107"/><tag k="addr:postcode" v="78752"/></node><node id="-361" lat="30.330132" lon="-97.699908" changeset="false"><tag k="addr:street" v="Carver Avenue"/><tag k="addr:housenumber" v="7102"/><tag k="addr:postcode" v="78752"/></node><node id="-362" lat="30.330318" lon="-97.699255" changeset="false"><tag k="addr:street" v="Carver Avenue"/><tag k="addr:housenumber" v="7109"/><tag k="addr:postcode" v="78752"/></node><node id="-363" lat="30.331782" lon="-97.700227" changeset="false"><tag k="addr:street" v="Bennett Avenue"/><tag k="addr:housenumber" v="7208"/><tag k="addr:postcode" v="78752"/></node><node id="-364" lat="30.331916" lon="-97.700173" changeset="false"><tag k="addr:street" v="Bennett Avenue"/><tag k="addr:housenumber" v="7210"/><tag k="addr:postcode" v="78752"/></node><node id="-365" lat="30.332067" lon="-97.703543" changeset="false"><tag k="addr:street" v="I 35 Frontage Road"/><tag k="addr:housenumber" v="7105"/><tag k="addr:postcode" v="78752"/></node><node id="-366" lat="30.33419" lon="-97.702259" changeset="false"><tag k="addr:street" v="I 35 Frontage Road"/><tag k="addr:housenumber" v="7309"/><tag k="addr:postcode" v="78752"/></node><node id="-367" lat="30.335452" lon="-97.701646" changeset="false"><tag k="addr:street" v="I 35 Frontage Road"/><tag k="addr:housenumber" v="7417"/><tag k="addr:postcode" v="78752"/></node><node id="-368" lat="30.335964" lon="-97.70139" changeset="false"><tag k="addr:street" v="I 35 Frontage Road"/><tag k="addr:housenumber" v="7511"/><tag k="addr:postcode" v="78752"/></node><node id="-369" lat="30.332053" lon="-97.70006" changeset="false"><tag k="addr:street" v="Bennett Avenue"/><tag k="addr:housenumber" v="7212"/><tag k="addr:postcode" v="78752"/></node><node id="-370" lat="30.330649" lon="-97.700913" changeset="false"><tag k="addr:street" v="Bennett Avenue"/><tag k="addr:housenumber" v="7102"/><tag k="addr:postcode" v="78752"/></node><node id="-371" lat="30.331224" lon="-97.701398" changeset="false"><tag k="addr:street" v="East Saint John's Avenue"/><tag k="addr:housenumber" v="907"/><tag k="addr:postcode" v="78752"/></node><node id="-372" lat="30.331491" lon="-97.70318" changeset="false"><tag k="addr:street" v="I 35 Frontage Road"/><tag k="addr:housenumber" v="7101"/><tag k="addr:postcode" v="78752"/></node><node id="-373" lat="30.331542" lon="-97.700353" changeset="false"><tag k="addr:street" v="Bennett Avenue"/><tag k="addr:housenumber" v="7204"/><tag k="addr:postcode" v="78752"/></node><node id="-374" lat="30.33071" lon="-97.700401" changeset="false"><tag k="addr:street" v="Bennett Avenue"/><tag k="addr:housenumber" v="7107"/><tag k="addr:postcode" v="78752"/></node><node id="-375" lat="30.331063" lon="-97.704049" changeset="false"><tag k="addr:street" v="I 35 Frontage Road"/><tag k="addr:housenumber" v="6937"/><tag k="addr:postcode" v="78752"/></node><node id="-376" lat="30.331424" lon="-97.70046" changeset="false"><tag k="addr:street" v="Bennett Avenue"/><tag k="addr:housenumber" v="7202"/><tag k="addr:postcode" v="78752"/></node><node id="-377" lat="30.331656" lon="-97.700278" changeset="false"><tag k="addr:street" v="Bennett Avenue"/><tag k="addr:housenumber" v="7206"/><tag k="addr:postcode" v="78752"/></node><node id="-378" lat="30.330019" lon="-97.701299" changeset="false"><tag k="addr:street" v="Bennett Avenue"/><tag k="addr:housenumber" v="7004"/><tag k="addr:postcode" v="78752"/></node><node id="-379" lat="30.330747" lon="-97.702473" changeset="false"><tag k="addr:street" v="East Saint John's Avenue"/><tag k="addr:housenumber" v="901"/><tag k="addr:postcode" v="78752"/></node><node id="-380" lat="30.330308" lon="-97.701199" changeset="false"><tag k="addr:street" v="Bennett Avenue"/><tag k="addr:housenumber" v="7008"/><tag k="addr:postcode" v="78752"/></node><node id="-381" lat="30.330102" lon="-97.700794" changeset="false"><tag k="addr:street" v="Bennett Avenue"/><tag k="addr:housenumber" v="7009"/><tag k="addr:postcode" v="78752"/></node><node id="-382" lat="30.330258" lon="-97.700735" changeset="false"><tag k="addr:street" v="Bennett Avenue"/><tag k="addr:housenumber" v="7011"/><tag k="addr:postcode" v="78752"/></node><node id="-383" lat="30.330477" lon="-97.700548" changeset="false"><tag k="addr:street" v="Bennett Avenue"/><tag k="addr:housenumber" v="7103"/><tag k="addr:postcode" v="78752"/></node><node id="-384" lat="30.330614" lon="-97.700524" changeset="false"><tag k="addr:street" v="Bennett Avenue"/><tag k="addr:housenumber" v="7105"/><tag k="addr:postcode" v="78752"/></node><node id="-385" lat="30.32975" lon="-97.700137" changeset="false"><tag k="addr:street" v="Carver Avenue"/><tag k="addr:housenumber" v="7008"/><tag k="addr:postcode" v="78752"/></node><node id="-386" lat="30.329709" lon="-97.700277" changeset="false"><tag k="addr:street" v="Carver Avenue"/><tag k="addr:housenumber" v="7006"/><tag k="addr:postcode" v="78752"/></node><node id="-387" lat="30.329829" lon="-97.700883" changeset="false"><tag k="addr:street" v="Bennett Avenue"/><tag k="addr:housenumber" v="7005"/><tag k="addr:postcode" v="78752"/></node><node id="-388" lat="30.32978" lon="-97.701452" changeset="false"><tag k="addr:street" v="Bennett Avenue"/><tag k="addr:housenumber" v="7000"/><tag k="addr:postcode" v="78752"/></node><node id="-389" lat="30.329894" lon="-97.704546" changeset="false"><tag k="addr:street" v="I 35 Frontage Road"/><tag k="addr:housenumber" v="6901"/><tag k="addr:postcode" v="78752"/></node><node id="-390" lat="30.329722" lon="-97.701008" changeset="false"><tag k="addr:street" v="Bennett Avenue"/><tag k="addr:housenumber" v="7003"/><tag k="addr:postcode" v="78752"/></node><node id="-391" lat="30.3299" lon="-97.700054" changeset="false"><tag k="addr:street" v="Carver Avenue"/><tag k="addr:housenumber" v="7010"/><tag k="addr:postcode" v="78752"/></node><node id="-392" lat="30.329925" lon="-97.701399" changeset="false"><tag k="addr:street" v="Bennett Avenue"/><tag k="addr:housenumber" v="7002"/><tag k="addr:postcode" v="78752"/></node><node id="-393" lat="30.329961" lon="-97.700894" changeset="false"><tag k="addr:street" v="Bennett Avenue"/><tag k="addr:housenumber" v="7007"/><tag k="addr:postcode" v="78752"/></node><node id="-394" lat="30.328827" lon="-97.69751" changeset="false"><tag k="addr:street" v="Providence Avenue"/><tag k="addr:housenumber" v="7101"/><tag k="addr:postcode" v="78752"/></node><node id="-395" lat="30.328863" lon="-97.697913" changeset="false"><tag k="addr:street" v="Providence Avenue"/><tag k="addr:housenumber" v="7010"/><tag k="addr:postcode" v="78752"/></node><node id="-396" lat="30.328965" lon="-97.697386" changeset="false"><tag k="addr:street" v="Providence Avenue"/><tag k="addr:housenumber" v="7103"/><tag k="addr:postcode" v="78752"/></node><node id="-397" lat="30.329035" lon="-97.697865" changeset="false"><tag k="addr:street" v="Providence Avenue"/><tag k="addr:housenumber" v="7100"/><tag k="addr:postcode" v="78752"/></node><node id="-398" lat="30.329122" lon="-97.697789" changeset="false"><tag k="addr:street" v="Providence Avenue"/><tag k="addr:housenumber" v="7102"/><tag k="addr:postcode" v="78752"/></node><node id="-399" lat="30.329253" lon="-97.697734" changeset="false"><tag k="addr:street" v="Providence Avenue"/><tag k="addr:housenumber" v="7104"/><tag k="addr:postcode" v="78752"/></node><node id="-400" lat="30.329391" lon="-97.697642" changeset="false"><tag k="addr:street" v="Providence Avenue"/><tag k="addr:housenumber" v="7106"/><tag k="addr:postcode" v="78752"/></node><node id="-401" lat="30.327582" lon="-97.697814" changeset="false"><tag k="addr:street" v="Meador Avenue"/><tag k="addr:housenumber" v="6918"/><tag k="addr:postcode" v="78752"/></node><node id="-402" lat="30.327722" lon="-97.69818" changeset="false"><tag k="addr:street" v="Providence Avenue"/><tag k="addr:housenumber" v="6919"/><tag k="addr:postcode" v="78752"/></node><node id="-403" lat="30.32812" lon="-97.697989" changeset="false"><tag k="addr:street" v="Providence Avenue"/><tag k="addr:housenumber" v="7001"/><tag k="addr:postcode" v="78752"/></node><node id="-404" lat="30.328243" lon="-97.697909" changeset="false"><tag k="addr:street" v="Providence Avenue"/><tag k="addr:housenumber" v="7003"/><tag k="addr:postcode" v="78752"/></node><node id="-405" lat="30.328599" lon="-97.697632" changeset="false"><tag k="addr:street" v="Providence Avenue"/><tag k="addr:housenumber" v="7009"/><tag k="addr:postcode" v="78752"/></node><node id="-406" lat="30.328417" lon="-97.698254" changeset="false"><tag k="addr:street" v="Providence Avenue"/><tag k="addr:housenumber" v="7002"/><tag k="addr:postcode" v="78752"/></node><node id="-407" lat="30.32829" lon="-97.698306" changeset="false"><tag k="addr:street" v="Providence Avenue"/><tag k="addr:housenumber" v="7000"/><tag k="addr:postcode" v="78752"/></node><node id="-408" lat="30.328716" lon="-97.697578" changeset="false"><tag k="addr:street" v="Providence Avenue"/><tag k="addr:housenumber" v="7011"/><tag k="addr:postcode" v="78752"/></node><node id="-409" lat="30.328776" lon="-97.698025" changeset="false"><tag k="addr:street" v="Providence Avenue"/><tag k="addr:housenumber" v="7008"/><tag k="addr:postcode" v="78752"/></node><node id="-410" lat="30.326794" lon="-97.697902" changeset="false"><tag k="addr:street" v="Meador Avenue"/><tag k="addr:housenumber" v="6908"/><tag k="addr:postcode" v="78752"/></node><node id="-411" lat="30.327293" lon="-97.697586" changeset="false"><tag k="addr:street" v="Meador Avenue"/><tag k="addr:housenumber" v="6916"/><tag k="addr:postcode" v="78752"/></node><node id="-412" lat="30.326928" lon="-97.697829" changeset="false"><tag k="addr:street" v="Meador Avenue"/><tag k="addr:housenumber" v="6910"/><tag k="addr:postcode" v="78752"/></node><node id="-413" lat="30.327517" lon="-97.69748" changeset="false"><tag k="addr:street" v="Meador Avenue"/><tag k="addr:housenumber" v="6920"/><tag k="addr:postcode" v="78752"/></node><node id="-414" lat="30.327054" lon="-97.697779" changeset="false"><tag k="addr:street" v="Meador Avenue"/><tag k="addr:housenumber" v="6912"/><tag k="addr:postcode" v="78752"/></node><node id="-415" lat="30.327177" lon="-97.697654" changeset="false"><tag k="addr:street" v="Meador Avenue"/><tag k="addr:housenumber" v="6914"/><tag k="addr:postcode" v="78752"/></node><node id="-416" lat="30.327496" lon="-97.69832" changeset="false"><tag k="addr:street" v="Providence Avenue"/><tag k="addr:housenumber" v="6915"/><tag k="addr:postcode" v="78752"/></node><node id="-417" lat="30.326067" lon="-97.697589" changeset="false"><tag k="addr:street" v="Atkinson Road"/><tag k="addr:housenumber" v="1104"/><tag k="addr:postcode" v="78752"/></node><node id="-418" lat="30.326218" lon="-97.697693" changeset="false"><tag k="addr:street" v="Meador Avenue"/><tag k="addr:housenumber" v="6903"/><tag k="addr:postcode" v="78752"/></node><node id="-419" lat="30.326281" lon="-97.697437" changeset="false"><tag k="addr:street" v="Meador Avenue"/><tag k="addr:housenumber" v="6905"/><tag k="addr:postcode" v="78752"/></node><node id="-420" lat="30.326494" lon="-97.697593" changeset="false"><tag k="addr:street" v="Meador Avenue"/><tag k="addr:housenumber" v="6907"/><tag k="addr:postcode" v="78752"/></node><node id="-421" lat="30.326382" lon="-97.69831" changeset="false"><tag k="addr:street" v="Meador Avenue"/><tag k="addr:housenumber" v="6900"/><tag k="addr:postcode" v="78752"/></node><node id="-422" lat="30.326453" lon="-97.698174" changeset="false"><tag k="addr:street" v="Meador Avenue"/><tag k="addr:housenumber" v="6902"/><tag k="addr:postcode" v="78752"/></node><node id="-423" lat="30.326581" lon="-97.698086" changeset="false"><tag k="addr:street" v="Meador Avenue"/><tag k="addr:housenumber" v="6904"/><tag k="addr:postcode" v="78752"/></node><node id="-424" lat="30.326627" lon="-97.697509" changeset="false"><tag k="addr:street" v="Meador Avenue"/><tag k="addr:housenumber" v="6909"/><tag k="addr:postcode" v="78752"/></node><node id="-425" lat="30.3267" lon="-97.698011" changeset="false"><tag k="addr:street" v="Meador Avenue"/><tag k="addr:housenumber" v="6906"/><tag k="addr:postcode" v="78752"/></node><node id="-426" lat="30.329271" lon="-97.699053" changeset="false"><tag k="addr:street" v="Bethune Avenue"/><tag k="addr:housenumber" v="7008"/><tag k="addr:postcode" v="78752"/></node><node id="-427" lat="30.329044" lon="-97.699221" changeset="false"><tag k="addr:street" v="Bethune Avenue"/><tag k="addr:housenumber" v="7004"/><tag k="addr:postcode" v="78752"/></node><node id="-428" lat="30.329229" lon="-97.698619" changeset="false"><tag k="addr:street" v="Bethune Avenue"/><tag k="addr:housenumber" v="7011"/><tag k="addr:postcode" v="78752"/></node><node id="-429" lat="30.328908" lon="-97.699281" changeset="false"><tag k="addr:street" v="Bethune Avenue"/><tag k="addr:housenumber" v="7002"/><tag k="addr:postcode" v="78752"/></node><node id="-430" lat="30.329324" lon="-97.698517" changeset="false"><tag k="addr:street" v="Bethune Avenue"/><tag k="addr:housenumber" v="7101"/><tag k="addr:postcode" v="78752"/></node><node id="-431" lat="30.328963" lon="-97.698747" changeset="false"><tag k="addr:street" v="Bethune Avenue"/><tag k="addr:housenumber" v="7007"/><tag k="addr:postcode" v="78752"/></node><node id="-432" lat="30.32919" lon="-97.699218" changeset="false"><tag k="addr:street" v="Bethune Avenue"/><tag k="addr:housenumber" v="7006"/><tag k="addr:postcode" v="78752"/></node><node id="-433" lat="30.329451" lon="-97.698431" changeset="false"><tag k="addr:street" v="Bethune Avenue"/><tag k="addr:housenumber" v="7103"/><tag k="addr:postcode" v="78752"/></node><node id="-434" lat="30.329413" lon="-97.699042" changeset="false"><tag k="addr:street" v="Bethune Avenue"/><tag k="addr:housenumber" v="7010"/><tag k="addr:postcode" v="78752"/></node><node id="-435" lat="30.329543" lon="-97.698353" changeset="false"><tag k="addr:street" v="Bethune Avenue"/><tag k="addr:housenumber" v="7105"/><tag k="addr:postcode" v="78752"/></node><node id="-436" lat="30.328217" lon="-97.69927" changeset="false"><tag k="addr:street" v="Bethune Avenue"/><tag k="addr:housenumber" v="6919"/><tag k="addr:postcode" v="78752"/></node><node id="-437" lat="30.328319" lon="-97.699151" changeset="false"><tag k="addr:street" v="Bethune Avenue"/><tag k="addr:housenumber" v="6921"/><tag k="addr:postcode" v="78752"/></node><node id="-438" lat="30.328564" lon="-97.698909" changeset="false"><tag k="addr:street" v="Bethune Avenue"/><tag k="addr:housenumber" v="7001"/><tag k="addr:postcode" v="78752"/></node><node id="-439" lat="30.32872" lon="-97.698867" changeset="false"><tag k="addr:street" v="Bethune Avenue"/><tag k="addr:housenumber" v="7003"/><tag k="addr:postcode" v="78752"/></node><node id="-440" lat="30.328802" lon="-97.699375" changeset="false"><tag k="addr:street" v="Bethune Avenue"/><tag k="addr:housenumber" v="7000"/><tag k="addr:postcode" v="78752"/></node><node id="-441" lat="30.32884" lon="-97.698807" changeset="false"><tag k="addr:street" v="Bethune Avenue"/><tag k="addr:housenumber" v="7005"/><tag k="addr:postcode" v="78752"/></node><node id="-442" lat="30.327536" lon="-97.698808" changeset="false"><tag k="addr:street" v="Providence Avenue"/><tag k="addr:housenumber" v="6912"/><tag k="addr:postcode" v="78752"/></node><node id="-443" lat="30.327832" lon="-97.69943" changeset="false"><tag k="addr:street" v="Bethune Avenue"/><tag k="addr:housenumber" v="6913"/><tag k="addr:postcode" v="78752"/></node><node id="-444" lat="30.327678" lon="-97.698733" changeset="false"><tag k="addr:street" v="Providence Avenue"/><tag k="addr:housenumber" v="6914"/><tag k="addr:postcode" v="78752"/></node><node id="-445" lat="30.327792" lon="-97.698685" changeset="false"><tag k="addr:street" v="Providence Avenue"/><tag k="addr:housenumber" v="6916"/><tag k="addr:postcode" v="78752"/></node><node id="-446" lat="30.327957" lon="-97.699335" changeset="false"><tag k="addr:street" v="Bethune Avenue"/><tag k="addr:housenumber" v="6915"/><tag k="addr:postcode" v="78752"/></node><node id="-447" lat="30.327928" lon="-97.69861" changeset="false"><tag k="addr:street" v="Providence Avenue"/><tag k="addr:housenumber" v="6918"/><tag k="addr:postcode" v="78752"/></node><node id="-448" lat="30.328038" lon="-97.698482" changeset="false"><tag k="addr:street" v="Providence Avenue"/><tag k="addr:housenumber" v="6920"/><tag k="addr:postcode" v="78752"/></node><node id="-449" lat="30.328071" lon="-97.699264" changeset="false"><tag k="addr:street" v="Bethune Avenue"/><tag k="addr:housenumber" v="6917"/><tag k="addr:postcode" v="78752"/></node><node id="-450" lat="30.326945" lon="-97.699211" changeset="false"><tag k="addr:street" v="Providence Avenue"/><tag k="addr:housenumber" v="6902"/><tag k="addr:postcode" v="78752"/></node><node id="-451" lat="30.327222" lon="-97.698489" changeset="false"><tag k="addr:street" v="Providence Avenue"/><tag k="addr:housenumber" v="6911"/><tag k="addr:postcode" v="78752"/></node><node id="-452" lat="30.3272" lon="-97.699053" changeset="false"><tag k="addr:street" v="Providence Avenue"/><tag k="addr:housenumber" v="6906"/><tag k="addr:postcode" v="78752"/></node><node id="-453" lat="30.327008" lon="-97.698663" changeset="false"><tag k="addr:street" v="Providence Avenue"/><tag k="addr:housenumber" v="6907"/><tag k="addr:postcode" v="78752"/></node><node id="-454" lat="30.327129" lon="-97.698517" changeset="false"><tag k="addr:street" v="Providence Avenue"/><tag k="addr:housenumber" v="6909"/><tag k="addr:postcode" v="78752"/></node><node id="-455" lat="30.326757" lon="-97.698781" changeset="false"><tag k="addr:street" v="Providence Avenue"/><tag k="addr:housenumber" v="6903"/><tag k="addr:postcode" v="78752"/></node><node id="-456" lat="30.326878" lon="-97.698745" changeset="false"><tag k="addr:street" v="Providence Avenue"/><tag k="addr:housenumber" v="6905"/><tag k="addr:postcode" v="78752"/></node><node id="-457" lat="30.326651" lon="-97.698832" changeset="false"><tag k="addr:street" v="Providence Avenue"/><tag k="addr:housenumber" v="6901"/><tag k="addr:postcode" v="78752"/></node><node id="-458" lat="30.327088" lon="-97.699093" changeset="false"><tag k="addr:street" v="Providence Avenue"/><tag k="addr:housenumber" v="6904"/><tag k="addr:postcode" v="78752"/></node><node id="-459" lat="30.327292" lon="-97.698982" changeset="false"><tag k="addr:street" v="Providence Avenue"/><tag k="addr:housenumber" v="6908"/><tag k="addr:postcode" v="78752"/></node><node id="-460" lat="30.327428" lon="-97.698897" changeset="false"><tag k="addr:street" v="Providence Avenue"/><tag k="addr:housenumber" v="6910"/><tag k="addr:postcode" v="78752"/></node><node id="-461" lat="30.328728" lon="-97.700325" changeset="false"><tag k="addr:street" v="Carver Avenue"/><tag k="addr:housenumber" v="6919"/><tag k="addr:postcode" v="78752"/></node><node id="-462" lat="30.329291" lon="-97.700429" changeset="false"><tag k="addr:street" v="Carver Avenue"/><tag k="addr:housenumber" v="7000"/><tag k="addr:postcode" v="78752"/></node><node id="-463" lat="30.329232" lon="-97.699947" changeset="false"><tag k="addr:street" v="Carver Avenue"/><tag k="addr:housenumber" v="7003"/><tag k="addr:postcode" v="78752"/></node><node id="-464" lat="30.329354" lon="-97.69988" changeset="false"><tag k="addr:street" v="Carver Avenue"/><tag k="addr:housenumber" v="7005"/><tag k="addr:postcode" v="78752"/></node><node id="-465" lat="30.329104" lon="-97.700021" changeset="false"><tag k="addr:street" v="Carver Avenue"/><tag k="addr:housenumber" v="7001"/><tag k="addr:postcode" v="78752"/></node><node id="-466" lat="30.329403" lon="-97.700394" changeset="false"><tag k="addr:street" v="Carver Avenue"/><tag k="addr:housenumber" v="7002"/><tag k="addr:postcode" v="78752"/></node><node id="-467" lat="30.329537" lon="-97.70033" changeset="false"><tag k="addr:street" v="Carver Avenue"/><tag k="addr:housenumber" v="7004"/><tag k="addr:postcode" v="78752"/></node><node id="-468" lat="30.329487" lon="-97.699795" changeset="false"><tag k="addr:street" v="Carver Avenue"/><tag k="addr:housenumber" v="7007"/><tag k="addr:postcode" v="78752"/></node><node id="-469" lat="30.328388" lon="-97.699582" changeset="false"><tag k="addr:street" v="Bethune Avenue"/><tag k="addr:housenumber" v="6918"/><tag k="addr:postcode" v="78752"/></node><node id="-470" lat="30.32835" lon="-97.700524" changeset="false"><tag k="addr:street" v="Carver Avenue"/><tag k="addr:housenumber" v="6913"/><tag k="addr:postcode" v="78752"/></node><node id="-471" lat="30.328475" lon="-97.700462" changeset="false"><tag k="addr:street" v="Carver Avenue"/><tag k="addr:housenumber" v="6915"/><tag k="addr:postcode" v="78752"/></node><node id="-472" lat="30.328547" lon="-97.699523" changeset="false"><tag k="addr:street" v="Bethune Avenue"/><tag k="addr:housenumber" v="6920"/><tag k="addr:postcode" v="78752"/></node><node id="-473" lat="30.328597" lon="-97.700374" changeset="false"><tag k="addr:street" v="Carver Avenue"/><tag k="addr:housenumber" v="6917"/><tag k="addr:postcode" v="78752"/></node><node id="-474" lat="30.327803" lon="-97.700026" changeset="false"><tag k="addr:street" v="Bethune Avenue"/><tag k="addr:housenumber" v="6908"/><tag k="addr:postcode" v="78752"/></node><node id="-475" lat="30.327918" lon="-97.699958" changeset="false"><tag k="addr:street" v="Bethune Avenue"/><tag k="addr:housenumber" v="6910"/><tag k="addr:postcode" v="78752"/></node><node id="-476" lat="30.328028" lon="-97.699866" changeset="false"><tag k="addr:street" v="Bethune Avenue"/><tag k="addr:housenumber" v="6912"/><tag k="addr:postcode" v="78752"/></node><node id="-477" lat="30.328162" lon="-97.699789" changeset="false"><tag k="addr:street" v="Bethune Avenue"/><tag k="addr:housenumber" v="6914"/><tag k="addr:postcode" v="78752"/></node><node id="-478" lat="30.328233" lon="-97.700563" changeset="false"><tag k="addr:street" v="Carver Avenue"/><tag k="addr:housenumber" v="6911"/><tag k="addr:postcode" v="78752"/></node><node id="-479" lat="30.328297" lon="-97.699709" changeset="false"><tag k="addr:street" v="Bethune Avenue"/><tag k="addr:housenumber" v="6916"/><tag k="addr:postcode" v="78752"/></node><node id="-480" lat="30.327113" lon="-97.699886" changeset="false"><tag k="addr:street" v="Bethune Avenue"/><tag k="addr:housenumber" v="6901"/><tag k="addr:postcode" v="78752"/></node><node id="-481" lat="30.327436" lon="-97.700196" changeset="false"><tag k="addr:street" v="Bethune Avenue"/><tag k="addr:housenumber" v="6902"/><tag k="addr:postcode" v="78752"/></node><node id="-482" lat="30.327572" lon="-97.700137" changeset="false"><tag k="addr:street" v="Bethune Avenue"/><tag k="addr:housenumber" v="6904"/><tag k="addr:postcode" v="78752"/></node><node id="-483" lat="30.327468" lon="-97.699654" changeset="false"><tag k="addr:street" v="Bethune Avenue"/><tag k="addr:housenumber" v="6907"/><tag k="addr:postcode" v="78752"/></node><node id="-484" lat="30.327244" lon="-97.699842" changeset="false"><tag k="addr:street" v="Bethune Avenue"/><tag k="addr:housenumber" v="6903"/><tag k="addr:postcode" v="78752"/></node><node id="-485" lat="30.327355" lon="-97.699751" changeset="false"><tag k="addr:street" v="Bethune Avenue"/><tag k="addr:housenumber" v="6905"/><tag k="addr:postcode" v="78752"/></node><node id="-486" lat="30.327625" lon="-97.699642" changeset="false"><tag k="addr:street" v="Bethune Avenue"/><tag k="addr:housenumber" v="6909"/><tag k="addr:postcode" v="78752"/></node><node id="-487" lat="30.327718" lon="-97.700181" changeset="false"><tag k="addr:street" v="Bethune Avenue"/><tag k="addr:housenumber" v="6906"/><tag k="addr:postcode" v="78752"/></node><node id="-488" lat="30.32773" lon="-97.699534" changeset="false"><tag k="addr:street" v="Bethune Avenue"/><tag k="addr:housenumber" v="6911"/><tag k="addr:postcode" v="78752"/></node><node id="-489" lat="30.329159" lon="-97.701908" changeset="false"><tag k="addr:street" v="Bennett Avenue"/><tag k="addr:housenumber" v="6914"/><tag k="addr:postcode" v="78752"/></node><node id="-490" lat="30.329203" lon="-97.701329" changeset="false"><tag k="addr:street" v="Bennett Avenue"/><tag k="addr:housenumber" v="6919"/><tag k="addr:postcode" v="78752"/></node><node id="-491" lat="30.329407" lon="-97.701757" changeset="false"><tag k="addr:street" v="Bennett Avenue"/><tag k="addr:housenumber" v="6918"/><tag k="addr:postcode" v="78752"/></node><node id="-492" lat="30.329297" lon="-97.701785" changeset="false"><tag k="addr:street" v="Bennett Avenue"/><tag k="addr:housenumber" v="6916"/><tag k="addr:postcode" v="78752"/></node><node id="-493" lat="30.329613" lon="-97.701107" changeset="false"><tag k="addr:street" v="Bennett Avenue"/><tag k="addr:housenumber" v="7001"/><tag k="addr:postcode" v="78752"/></node><node id="-494" lat="30.329561" lon="-97.701653" changeset="false"><tag k="addr:street" v="Bennett Avenue"/><tag k="addr:housenumber" v="6920"/><tag k="addr:postcode" v="78752"/></node><node id="-495" lat="30.328792" lon="-97.700745" changeset="false"><tag k="addr:street" v="Carver Avenue"/><tag k="addr:housenumber" v="6916"/><tag k="addr:postcode" v="78752"/></node><node id="-496" lat="30.328803" lon="-97.701486" changeset="false"><tag k="addr:street" v="Bennett Avenue"/><tag k="addr:housenumber" v="6913"/><tag k="addr:postcode" v="78752"/></node><node id="-497" lat="30.328804" lon="-97.702135" changeset="false"><tag k="addr:street" v="Bennett Avenue"/><tag k="addr:housenumber" v="6908"/><tag k="addr:postcode" v="78752"/></node><node id="-498" lat="30.328884" lon="-97.702033" changeset="false"><tag k="addr:street" v="Bennett Avenue"/><tag k="addr:housenumber" v="6910"/><tag k="addr:postcode" v="78752"/></node><node id="-499" lat="30.328938" lon="-97.700712" changeset="false"><tag k="addr:street" v="Carver Avenue"/><tag k="addr:housenumber" v="6918"/><tag k="addr:postcode" v="78752"/></node><node id="-500" lat="30.328986" lon="-97.701478" changeset="false"><tag k="addr:street" v="Bennett Avenue"/><tag k="addr:housenumber" v="6915"/><tag k="addr:postcode" v="78752"/></node><node id="-501" lat="30.3291" lon="-97.701429" changeset="false"><tag k="addr:street" v="Bennett Avenue"/><tag k="addr:housenumber" v="6917"/><tag k="addr:postcode" v="78752"/></node><node id="-502" lat="30.329034" lon="-97.70061" changeset="false"><tag k="addr:street" v="Carver Avenue"/><tag k="addr:housenumber" v="6920"/><tag k="addr:postcode" v="78752"/></node><node id="-503" lat="30.328503" lon="-97.7018" changeset="false"><tag k="addr:street" v="Bennett Avenue"/><tag k="addr:housenumber" v="6907"/><tag k="addr:postcode" v="78752"/></node><node id="-504" lat="30.328543" lon="-97.700927" changeset="false"><tag k="addr:street" v="Carver Avenue"/><tag k="addr:housenumber" v="6912"/><tag k="addr:postcode" v="78752"/></node><node id="-505" lat="30.328571" lon="-97.702305" changeset="false"><tag k="addr:street" v="Bennett Avenue"/><tag k="addr:housenumber" v="6904"/><tag k="addr:postcode" v="78752"/></node><node id="-506" lat="30.328653" lon="-97.70082" changeset="false"><tag k="addr:street" v="Carver Avenue"/><tag k="addr:housenumber" v="6914"/><tag k="addr:postcode" v="78752"/></node><node id="-507" lat="30.328598" lon="-97.701737" changeset="false"><tag k="addr:street" v="Bennett Avenue"/><tag k="addr:housenumber" v="6909"/><tag k="addr:postcode" v="78752"/></node><node id="-508" lat="30.328679" lon="-97.702198" changeset="false"><tag k="addr:street" v="Bennett Avenue"/><tag k="addr:housenumber" v="6906"/><tag k="addr:postcode" v="78752"/></node><node id="-509" lat="30.328722" lon="-97.701652" changeset="false"><tag k="addr:street" v="Bennett Avenue"/><tag k="addr:housenumber" v="6911"/><tag k="addr:postcode" v="78752"/></node><node id="-510" lat="30.327904" lon="-97.701302" changeset="false"><tag k="addr:street" v="Carver Avenue"/><tag k="addr:housenumber" v="6902"/><tag k="addr:postcode" v="78752"/></node><node id="-511" lat="30.328092" lon="-97.70067" changeset="false"><tag k="addr:street" v="Carver Avenue"/><tag k="addr:housenumber" v="6909"/><tag k="addr:postcode" v="78752"/></node><node id="-512" lat="30.327967" lon="-97.700744" changeset="false"><tag k="addr:street" v="Carver Avenue"/><tag k="addr:housenumber" v="6907"/><tag k="addr:postcode" v="78752"/></node><node id="-513" lat="30.32813" lon="-97.702015" changeset="false"><tag k="addr:street" v="Bennett Avenue"/><tag k="addr:housenumber" v="6901"/><tag k="addr:postcode" v="78752"/></node><node id="-514" lat="30.327854" lon="-97.700814" changeset="false"><tag k="addr:street" v="Carver Avenue"/><tag k="addr:housenumber" v="6905"/><tag k="addr:postcode" v="78752"/></node><node id="-515" lat="30.327635" lon="-97.700936" changeset="false"><tag k="addr:street" v="Atkinson Road"/><tag k="addr:housenumber" v="1004"/><tag k="addr:postcode" v="78752"/></node><node id="-516" lat="30.327841" lon="-97.701404" changeset="false"><tag k="addr:street" v="Carver Avenue"/><tag k="addr:housenumber" v="6900"/><tag k="addr:postcode" v="78752"/></node><node id="-517" lat="30.328309" lon="-97.701084" changeset="false"><tag k="addr:street" v="Carver Avenue"/><tag k="addr:housenumber" v="6908"/><tag k="addr:postcode" v="78752"/></node><node id="-518" lat="30.328245" lon="-97.701952" changeset="false"><tag k="addr:street" v="Bennett Avenue"/><tag k="addr:housenumber" v="6903"/><tag k="addr:postcode" v="78752"/></node><node id="-519" lat="30.32836" lon="-97.70243" changeset="false"><tag k="addr:street" v="Bennett Avenue"/><tag k="addr:housenumber" v="6900"/><tag k="addr:postcode" v="78752"/></node><node id="-520" lat="30.328367" lon="-97.701897" changeset="false"><tag k="addr:street" v="Bennett Avenue"/><tag k="addr:housenumber" v="6905"/><tag k="addr:postcode" v="78752"/></node><node id="-521" lat="30.328412" lon="-97.700983" changeset="false"><tag k="addr:street" v="Carver Avenue"/><tag k="addr:housenumber" v="6910"/><tag k="addr:postcode" v="78752"/></node></osm>