<?xml version="1.0" encoding="UTF-8"?><osm version="0.6" generator="github.com/aaronlidman/osm-and-geojson"><node id="-1" lat="30.462013" lon="-97.759822" changeset="false"><tag k="addr:street" v="Alvin High Lane"/><tag k="addr:housenumber" v="8433"/><tag k="addr:postcode" v="78729"/></node><node id="-2" lat="30.460809" lon="-97.746956" changeset="false"><tag k="addr:street" v="West Parmer Lane"/><tag k="addr:housenumber" v="7706 1/2"/><tag k="addr:postcode" v="78729"/></node><node id="-3" lat="30.460982" lon="-97.759388" changeset="false"><tag k="addr:street" v="Dulac Cove"/><tag k="addr:housenumber" v="13500"/><tag k="addr:postcode" v="78729"/></node><node id="-4" lat="30.450534" lon="-97.760532" changeset="false"><tag k="addr:street" v="Bidwell Drive"/><tag k="addr:housenumber" v="13110"/><tag k="addr:postcode" v="78729"/></node><node id="-5" lat="30.461248" lon="-97.758691" changeset="false"><tag k="addr:street" v="Dulac Cove"/><tag k="addr:housenumber" v="13512"/><tag k="addr:postcode" v="78729"/></node><node id="-6" lat="30.460504" lon="-97.754177" changeset="false"><tag k="addr:street" v="Anderson Mill Road"/><tag k="addr:housenumber" v="7910 1/2"/><tag k="addr:postcode" v="78729"/></node><node id="-7" lat="30.453992" lon="-97.76433" changeset="false"><tag k="addr:street" v="Coriander Drive"/><tag k="addr:housenumber" v="13148"/><tag k="addr:postcode" v="78729"/></node><node id="-8" lat="30.460421" lon="-97.756852" changeset="false"><tag k="addr:street" v="Anderson Mill Road"/><tag k="addr:housenumber" v="8100"/><tag k="addr:postcode" v="78729"/></node><node id="-9" lat="30.462114" lon="-97.759742" changeset="false"><tag k="addr:street" v="Alvin High Lane"/><tag k="addr:housenumber" v="8437"/><tag k="addr:postcode" v="78729"/></node><node id="-10" lat="30.460477" lon="-97.758111" changeset="false"><tag k="addr:street" v="Dulac Drive"/><tag k="addr:housenumber" v="8304"/><tag k="addr:postcode" v="78729"/></node><node id="-11" lat="30.450068" lon="-97.767773" changeset="false"><tag k="addr:street" v="Hunters Chase Drive"/><tag k="addr:housenumber" v="12810"/><tag k="addr:postcode" v="78729"/></node><node id="-12" lat="30.450285" lon="-97.767448" changeset="false"><tag k="addr:street" v="Hunters Chase Drive"/><tag k="addr:housenumber" v="12814"/><tag k="addr:postcode" v="78729"/></node><node id="-13" lat="30.462216" lon="-97.759655" changeset="false"><tag k="addr:street" v="Alvin High Lane"/><tag k="addr:housenumber" v="8441"/><tag k="addr:postcode" v="78729"/></node><node id="-14" lat="30.461902" lon="-97.759899" changeset="false"><tag k="addr:street" v="Alvin High Lane"/><tag k="addr:housenumber" v="8429"/><tag k="addr:postcode" v="78729"/></node><node id="-15" lat="30.459464" lon="-97.758888" changeset="false"><tag k="addr:street" v="Anderson Mill Road"/><tag k="addr:housenumber" v="8144"/><tag k="addr:postcode" v="78729"/></node><node id="-16" lat="30.453497" lon="-97.757718" changeset="false"><tag k="addr:street" v="Kingman Drive"/><tag k="addr:housenumber" v="13306"/><tag k="addr:postcode" v="78729"/></node><node id="-17" lat="30.454662" lon="-97.763403" changeset="false"><tag k="addr:street" v="Humphrey Drive"/><tag k="addr:housenumber" v="13224"/><tag k="addr:postcode" v="78729"/></node><node id="-18" lat="30.454908" lon="-97.757419" changeset="false"><tag k="addr:street" v="Snook Hook Trail"/><tag k="addr:housenumber" v="7901"/><tag k="addr:postcode" v="78729"/></node><node id="-19" lat="30.462311" lon="-97.759567" changeset="false"><tag k="addr:street" v="Alvin High Lane"/><tag k="addr:housenumber" v="8445"/><tag k="addr:postcode" v="78729"/></node><node id="-20" lat="30.455551" lon="-97.762692" changeset="false"><tag k="addr:street" v="Humphrey Drive"/><tag k="addr:housenumber" v="13300"/><tag k="addr:postcode" v="78729"/></node><node id="-21" lat="30.464211" lon="-97.757185" changeset="false"><tag k="addr:street" v="West Parmer Lane"/><tag k="addr:housenumber" v="8500 1/2"/><tag k="addr:postcode" v="78729"/></node><node id="-22" lat="30.453101" lon="-97.76195" changeset="false"><tag k="addr:street" v="Darwin Cove"/><tag k="addr:housenumber" v="8121"/><tag k="addr:postcode" v="78729"/></node><node id="-23" lat="30.454745" lon="-97.760666" changeset="false"><tag k="addr:street" v="Kiana Drive"/><tag k="addr:housenumber" v="8112"/><tag k="addr:postcode" v="78729"/></node><node id="-24" lat="30.449992" lon="-97.761604" changeset="false"><tag k="addr:street" v="Humphrey Drive"/><tag k="addr:housenumber" v="13100"/><tag k="addr:postcode" v="78729"/></node><node id="-25" lat="30.459197" lon="-97.756098" changeset="false"><tag k="addr:street" v="Albania Way"/><tag k="addr:housenumber" v="13505"/><tag k="addr:postcode" v="78729"/></node><node id="-26" lat="30.45369" lon="-97.762124" changeset="false"><tag k="addr:street" v="Darwin Cove"/><tag k="addr:housenumber" v="8118"/><tag k="addr:postcode" v="78729"/></node><node id="-27" lat="30.463071" lon="-97.758947" changeset="false"><tag k="addr:street" v="Alvin High Lane"/><tag k="addr:housenumber" v="8525"/><tag k="addr:postcode" v="78729"/></node><node id="-28" lat="30.457244" lon="-97.761156" changeset="false"><tag k="addr:street" v="Humphrey Drive"/><tag k="addr:housenumber" v="13344"/><tag k="addr:postcode" v="78729"/></node><node id="-29" lat="30.457486" lon="-97.750053" changeset="false"><tag k="addr:street" v="West Parmer Lane"/><tag k="addr:housenumber" v="7700"/><tag k="addr:postcode" v="78729"/></node><node id="-30" lat="30.452312" lon="-97.758409" changeset="false"><tag k="addr:street" v="Jenner Lane"/><tag k="addr:housenumber" v="13200"/><tag k="addr:postcode" v="78729"/></node><node id="-31" lat="30.454469" lon="-97.763508" changeset="false"><tag k="addr:street" v="Humphrey Drive"/><tag k="addr:housenumber" v="13220"/><tag k="addr:postcode" v="78729"/></node><node id="-32" lat="30.44996" lon="-97.768563" changeset="false"><tag k="addr:street" v="Cahill Drive"/><tag k="addr:housenumber" v="7901"/><tag k="addr:postcode" v="78729"/></node><node id="-33" lat="30.45716" lon="-97.761393" changeset="false"><tag k="addr:street" v="Humphrey Drive"/><tag k="addr:housenumber" v="13340"/><tag k="addr:postcode" v="78729"/></node><node id="-34" lat="30.456086" lon="-97.753376" changeset="false"><tag k="addr:street" v="West Parmer Lane"/><tag k="addr:housenumber" v="7701"/><tag k="addr:postcode" v="78729"/></node><node id="-35" lat="30.456482" lon="-97.761578" changeset="false"><tag k="addr:street" v="Humphrey Drive"/><tag k="addr:housenumber" v="13327"/><tag k="addr:postcode" v="78729"/></node><node id="-36" lat="30.461796" lon="-97.759965" changeset="false"><tag k="addr:street" v="Alvin High Lane"/><tag k="addr:housenumber" v="8425"/><tag k="addr:postcode" v="78729"/></node><node id="-37" lat="30.449441" lon="-97.760369" changeset="false"><tag k="addr:street" v="Bidwell Drive"/><tag k="addr:housenumber" v="13100"/><tag k="addr:postcode" v="78729"/></node><node id="-38" lat="30.455905" lon="-97.753649" changeset="false"><tag k="addr:street" v="Tamayo Drive"/><tag k="addr:housenumber" v="13450"/><tag k="addr:postcode" v="78729"/></node><node id="-39" lat="30.454244" lon="-97.763532" changeset="false"><tag k="addr:street" v="Humphrey Drive"/><tag k="addr:housenumber" v="13216"/><tag k="addr:postcode" v="78729"/></node><node id="-40" lat="30.452089" lon="-97.760702" changeset="false"><tag k="addr:street" v="Truman Cove"/><tag k="addr:housenumber" v="7906"/><tag k="addr:postcode" v="78729"/></node><node id="-41" lat="30.456022" lon="-97.759213" changeset="false"><tag k="addr:street" v="Snook Hook Trail"/><tag k="addr:housenumber" v="8012"/><tag k="addr:postcode" v="78729"/></node><node id="-42" lat="30.456646" lon="-97.761408" changeset="false"><tag k="addr:street" v="Humphrey Drive"/><tag k="addr:housenumber" v="13333"/><tag k="addr:postcode" v="78729"/></node><node id="-43" lat="30.463413" lon="-97.755414" changeset="false"><tag k="addr:street" v="West Parmer Lane"/><tag k="addr:housenumber" v="8400 1/2"/><tag k="addr:postcode" v="78729"/></node><node id="-44" lat="30.450164" lon="-97.767615" changeset="false"><tag k="addr:street" v="Hunters Chase Drive"/><tag k="addr:housenumber" v="12812"/><tag k="addr:postcode" v="78729"/></node><node id="-45" lat="30.46203" lon="-97.750741" changeset="false"><tag k="addr:street" v="Anderson Mill Road"/><tag k="addr:housenumber" v="7720 1/2"/><tag k="addr:postcode" v="78729"/></node><node id="-46" lat="30.460655" lon="-97.759679" changeset="false"><tag k="addr:street" v="Osborne Drive"/><tag k="addr:housenumber" v="8326"/><tag k="addr:postcode" v="78729"/></node><node id="-47" lat="30.459629" lon="-97.758146" changeset="false"><tag k="addr:street" v="Anderson Mill Road"/><tag k="addr:housenumber" v="8130"/><tag k="addr:postcode" v="78729"/></node><node id="-48" lat="30.4566" lon="-97.761317" changeset="false"><tag k="addr:street" v="Humphrey Drive"/><tag k="addr:housenumber" v="13329"/><tag k="addr:postcode" v="78729"/></node></osm>