<?xml version="1.0" encoding="UTF-8"?><osm version="0.6" generator="github.com/aaronlidman/osm-and-geojson"><node id="-1" lat="30.489386" lon="-97.90829" changeset="false"><tag k="addr:street" v="Johnson Road"/><tag k="addr:housenumber" v="11015"/><tag k="coa:place_id" v="1144902"/></node><node id="-2" lat="30.489117" lon="-97.904827" changeset="false"><tag k="addr:street" v="Trails End Road"/><tag k="addr:housenumber" v="11104"/><tag k="coa:place_id" v="1144903"/></node><node id="-3" lat="30.488699" lon="-97.909608" changeset="false"><tag k="addr:street" v="Johnson Road"/><tag k="addr:housenumber" v="10925"/><tag k="coa:place_id" v="1144907"/></node><node id="-4" lat="30.491392" lon="-97.898296" changeset="false"><tag k="addr:street" v="Trails End Road"/><tag k="addr:housenumber" v="11500"/><tag k="coa:place_id" v="1144882"/></node><node id="-5" lat="30.494515" lon="-97.900673" changeset="false"><tag k="addr:street" v="Johnson Road"/><tag k="addr:housenumber" v="11687"/><tag k="coa:place_id" v="1144855"/></node><node id="-6" lat="30.493068" lon="-97.902288" changeset="false"><tag k="addr:street" v="Johnson Road"/><tag k="addr:housenumber" v="11649"/><tag k="coa:place_id" v="1144868"/></node><node id="-7" lat="30.497051" lon="-97.922845" changeset="false"><tag k="addr:street" v="1st Street,1100"/><tag k="addr:housenumber" v="11010"/><tag k="coa:place_id" v="3203282"/></node><node id="-8" lat="30.49512" lon="-97.920059" changeset="false"><tag k="addr:street" v="5th Street"/><tag k="addr:housenumber" v="11003"/><tag k="coa:place_id" v="3221774"/></node><node id="-9" lat="30.495338" lon="-97.920011" changeset="false"><tag k="addr:street" v="5th Street"/><tag k="addr:housenumber" v="11007"/><tag k="coa:place_id" v="3221787"/></node><node id="-10" lat="30.497511" lon="-97.922601" changeset="false"><tag k="addr:street" v="1st Street,1100"/><tag k="addr:housenumber" v="11104"/><tag k="coa:place_id" v="3203516"/></node><node id="-11" lat="30.498118" lon="-97.922301" changeset="false"><tag k="addr:street" v="1st Street,1100"/><tag k="addr:housenumber" v="11112"/><tag k="coa:place_id" v="3203520"/></node><node id="-12" lat="30.495236" lon="-97.922889" changeset="false"><tag k="addr:street" v="2nd Street"/><tag k="addr:housenumber" v="10800"/><tag k="coa:place_id" v="3221619"/></node><node id="-13" lat="30.495717" lon="-97.922217" changeset="false"><tag k="addr:street" v="2nd Street"/><tag k="addr:housenumber" v="10905"/><tag k="coa:place_id" v="3221625"/></node><node id="-14" lat="30.496901" lon="-97.919749" changeset="false"><tag k="addr:street" v="5th Street"/><tag k="addr:housenumber" v="11104"/><tag k="coa:place_id" v="3202615"/></node><node id="-15" lat="30.496424" lon="-97.92092" changeset="false"><tag k="addr:street" v="Austin Drive"/><tag k="addr:housenumber" v="18311"/><tag k="coa:place_id" v="3202643"/></node><node id="-16" lat="30.497279" lon="-97.920384" changeset="false"><tag k="addr:street" v="4th Street"/><tag k="addr:housenumber" v="11108"/><tag k="coa:place_id" v="3202651"/></node><node id="-17" lat="30.513179" lon="-97.895719" changeset="false"><tag k="addr:street" v="Blue Canyon Cove"/><tag k="addr:housenumber" v="17021"/><tag k="coa:place_id" v="3204325"/></node><node id="-18" lat="30.497236" lon="-97.919605" changeset="false"><tag k="addr:street" v="Travis Drive"/><tag k="addr:housenumber" v="11112"/><tag k="coa:place_id" v="3202537"/></node><node id="-19" lat="30.489684" lon="-97.920504" changeset="false"><tag k="addr:street" v="Lakeside Drive"/><tag k="addr:housenumber" v="10508"/><tag k="coa:place_id" v="3222110"/></node><node id="-20" lat="30.496016" lon="-97.922873" changeset="false"><tag k="addr:street" v="1st Street,1100"/><tag k="addr:housenumber" v="11001"/><tag k="coa:place_id" v="3221642"/></node><node id="-21" lat="30.495433" lon="-97.92122" changeset="false"><tag k="addr:street" v="4th Street"/><tag k="addr:housenumber" v="11000"/><tag k="coa:place_id" v="3221675"/></node><node id="-22" lat="30.494794" lon="-97.921089" changeset="false"><tag k="addr:street" v="4th Street"/><tag k="addr:housenumber" v="10905"/><tag k="coa:place_id" v="3221685"/></node><node id="-23" lat="30.50136" lon="-97.916991" changeset="false"><tag k="addr:street" v="Roundrock Road"/><tag k="addr:housenumber" v="18324"/><tag k="coa:place_id" v="3197002"/></node><node id="-24" lat="30.499411" lon="-97.917889" changeset="false"><tag k="addr:street" v="East Lake Terrace Drive,1100"/><tag k="addr:housenumber" v="18307"/><tag k="coa:place_id" v="3197049"/></node><node id="-25" lat="30.494559" lon="-97.908975" changeset="false"><tag k="addr:street" v="Johnson Road"/><tag k="addr:housenumber" v="11334"/><tag k="coa:place_id" v="1144857"/></node><node id="-26" lat="30.497596" lon="-97.918799" changeset="false"><tag k="addr:street" v="Center Street"/><tag k="addr:housenumber" v="18310"/><tag k="coa:place_id" v="3197354"/></node><node id="-27" lat="30.497175" lon="-97.917552" changeset="false"><tag k="addr:street" v="Ledge Street"/><tag k="addr:housenumber" v="18219"/><tag k="coa:place_id" v="3197492"/></node><node id="-28" lat="30.477146" lon="-97.910792" changeset="false"><tag k="addr:street" v="East Darleen Drive"/><tag k="addr:housenumber" v="17300"/><tag k="coa:place_id" v="3198347"/></node><node id="-29" lat="30.490396" lon="-97.911258" changeset="false"><tag k="addr:street" v="Chalet Circle"/><tag k="addr:housenumber" v="17720"/><tag k="coa:place_id" v="3198366"/></node><node id="-30" lat="30.491657" lon="-97.913406" changeset="false"><tag k="addr:street" v="Hill Drive,1100"/><tag k="addr:housenumber" v="10902"/><tag k="coa:place_id" v="3198369"/></node><node id="-31" lat="30.494629" lon="-97.917535" changeset="false"><tag k="addr:street" v="Lakeside Drive"/><tag k="addr:housenumber" v="11006"/><tag k="coa:place_id" v="3197726"/></node><node id="-32" lat="30.493459" lon="-97.894994" changeset="false"><tag k="addr:street" v="Johnson Road"/><tag k="addr:housenumber" v="11759"/><tag k="coa:place_id" v="3196465"/></node><node id="-33" lat="30.494488" lon="-97.919647" changeset="false"><tag k="addr:street" v="6th Street"/><tag k="addr:housenumber" v="10907"/><tag k="coa:place_id" v="3221880"/></node><node id="-34" lat="30.501728" lon="-97.906007" changeset="false"><tag k="addr:street" v="Sandy Lane"/><tag k="addr:housenumber" v="17702"/><tag k="coa:place_id" v="3322524"/></node><node id="-35" lat="30.501718" lon="-97.917866" changeset="false"><tag k="addr:street" v="Roundrock Road"/><tag k="addr:housenumber" v="18404"/><tag k="coa:place_id" v="3197327"/></node><node id="-36" lat="30.501947" lon="-97.919425" changeset="false"><tag k="addr:street" v="Roundrock Road"/><tag k="addr:housenumber" v="18501"/><tag k="coa:place_id" v="3197331"/></node><node id="-37" lat="30.497794" lon="-97.92093" changeset="false"><tag k="addr:street" v="3rd Street"/><tag k="addr:housenumber" v="11112"/><tag k="coa:place_id" v="3202999"/></node><node id="-38" lat="30.497385" lon="-97.921928" changeset="false"><tag k="addr:street" v="2nd Street"/><tag k="addr:housenumber" v="11104"/><tag k="coa:place_id" v="3203165"/></node><node id="-39" lat="30.499531" lon="-97.920744" changeset="false"><tag k="addr:street" v="East Lake Terrace Drive,1100"/><tag k="addr:housenumber" v="18500"/><tag k="coa:place_id" v="3197286"/></node><node id="-40" lat="30.499862" lon="-97.92145" changeset="false"><tag k="addr:street" v="East Lake Terrace Drive,1100"/><tag k="addr:housenumber" v="18506"/><tag k="coa:place_id" v="3197293"/></node><node id="-41" lat="30.496018" lon="-97.918056" changeset="false"><tag k="addr:street" v="Sandy Street"/><tag k="addr:housenumber" v="18217"/><tag k="coa:place_id" v="3197569"/></node><node id="-42" lat="30.49632" lon="-97.91835" changeset="false"><tag k="addr:street" v="Sandy Street"/><tag k="addr:housenumber" v="18218"/><tag k="coa:place_id" v="3197570"/></node><node id="-43" lat="30.498732" lon="-97.918401" changeset="false"><tag k="addr:street" v="Lake Oaks Drive"/><tag k="addr:housenumber" v="18308"/><tag k="coa:place_id" v="3197155"/></node><node id="-44" lat="30.498629" lon="-97.918647" changeset="false"><tag k="addr:street" v="Lake Oaks Drive"/><tag k="addr:housenumber" v="18310"/><tag k="coa:place_id" v="3197157"/></node><node id="-45" lat="30.498333" lon="-97.918357" changeset="false"><tag k="addr:street" v="Lake Oaks Drive"/><tag k="addr:housenumber" v="18313"/><tag k="coa:place_id" v="3197160"/></node><node id="-46" lat="30.494753" lon="-97.917777" changeset="false"><tag k="addr:street" v="Fair Lane"/><tag k="addr:housenumber" v="18205"/><tag k="coa:place_id" v="3197678"/></node><node id="-47" lat="30.496564" lon="-97.917659" changeset="false"><tag k="addr:street" v="Sandy Street"/><tag k="addr:housenumber" v="18210"/><tag k="coa:place_id" v="3197560"/></node><node id="-48" lat="30.491886" lon="-97.921559" changeset="false"><tag k="addr:street" v="Park Drive,1100"/><tag k="addr:housenumber" v="18303"/><tag k="coa:place_id" v="3219662"/></node><node id="-49" lat="30.492031" lon="-97.922757" changeset="false"><tag k="addr:street" v="Park Drive,1100"/><tag k="addr:housenumber" v="18313"/><tag k="coa:place_id" v="3219667"/></node><node id="-50" lat="30.492023" lon="-97.922946" changeset="false"><tag k="addr:street" v="Park Drive,1100"/><tag k="addr:housenumber" v="18315"/><tag k="coa:place_id" v="3219668"/></node><node id="-51" lat="30.495565" lon="-97.921497" changeset="false"><tag k="addr:street" v="3rd Street"/><tag k="addr:housenumber" v="11001"/><tag k="coa:place_id" v="3221605"/></node><node id="-52" lat="30.498641" lon="-97.917295" changeset="false"><tag k="addr:street" v="Lake Oaks Drive"/><tag k="addr:housenumber" v="18301"/><tag k="coa:place_id" v="3197116"/></node><node id="-53" lat="30.497935" lon="-97.916094" changeset="false"><tag k="addr:street" v="Lakeside Drive"/><tag k="addr:housenumber" v="11304"/><tag k="coa:place_id" v="3197474"/></node><node id="-54" lat="30.494897" lon="-97.912925" changeset="false"><tag k="addr:street" v="Beach Road"/><tag k="addr:housenumber" v="11203"/><tag k="coa:place_id" v="3382429"/></node><node id="-55" lat="30.498789" lon="-97.909653" changeset="false"><tag k="addr:street" v="Cross Street"/><tag k="addr:housenumber" v="17825"/><tag k="coa:place_id" v="3389006"/></node><node id="-56" lat="30.499863" lon="-97.908673" changeset="false"><tag k="addr:street" v="Lafayette Park Road"/><tag k="addr:housenumber" v="17813"/><tag k="coa:place_id" v="3389007"/></node><node id="-57" lat="30.499716" lon="-97.9088" changeset="false"><tag k="addr:street" v="Lafayette Park Road"/><tag k="addr:housenumber" v="17815"/><tag k="coa:place_id" v="3329638"/></node><node id="-58" lat="30.499712" lon="-97.909115" changeset="false"><tag k="addr:street" v="Lafayette Park Road"/><tag k="addr:housenumber" v="17819"/><tag k="coa:place_id" v="3329639"/></node><node id="-59" lat="30.500373" lon="-97.916957" changeset="false"><tag k="addr:street" v="Roundrock Road"/><tag k="addr:housenumber" v="18304"/><tag k="coa:place_id" v="3196781"/></node><node id="-60" lat="30.50052" lon="-97.916898" changeset="false"><tag k="addr:street" v="Roundrock Road"/><tag k="addr:housenumber" v="18306"/><tag k="coa:place_id" v="3196782"/></node><node id="-61" lat="30.499879" lon="-97.91597" changeset="false"><tag k="addr:street" v="Leander Street"/><tag k="addr:housenumber" v="11404"/><tag k="coa:place_id" v="3196815"/></node><node id="-62" lat="30.498514" lon="-97.916493" changeset="false"><tag k="addr:street" v="Center Street"/><tag k="addr:housenumber" v="18210"/><tag k="coa:place_id" v="3197334"/></node><node id="-63" lat="30.497705" lon="-97.917632" changeset="false"><tag k="addr:street" v="Center Street"/><tag k="addr:housenumber" v="18223"/><tag k="coa:place_id" v="3197345"/></node><node id="-64" lat="30.500034" lon="-97.919183" changeset="false"><tag k="addr:street" v="East Lakeview Drive"/><tag k="addr:housenumber" v="18409"/><tag k="coa:place_id" v="3197206"/></node><node id="-65" lat="30.501692" lon="-97.906421" changeset="false"><tag k="addr:street" v="Sandy Lane"/><tag k="addr:housenumber" v="17706"/><tag k="coa:place_id" v="3322526"/></node><node id="-66" lat="30.504832" lon="-97.911511" changeset="false"><tag k="addr:street" v="Pecan Drive"/><tag k="addr:housenumber" v="11813"/><tag k="coa:place_id" v="3328678"/></node><node id="-67" lat="30.515347" lon="-97.906889" changeset="false"><tag k="addr:street" v="Angel Valley Drive"/><tag k="addr:housenumber" v="18408"/><tag k="coa:place_id" v="5215091"/></node><node id="-68" lat="30.501332" lon="-97.906021" changeset="false"><tag k="addr:street" v="Sandy Lane"/><tag k="addr:housenumber" v="17705"/><tag k="coa:place_id" v="3322196"/></node><node id="-69" lat="30.499436" lon="-97.911446" changeset="false"><tag k="addr:street" v="Lafayette Park Road"/><tag k="addr:housenumber" v="17917"/><tag k="coa:place_id" v="3329659"/></node><node id="-70" lat="30.477242" lon="-97.913948" changeset="false"><tag k="addr:street" v="East Darleen Drive"/><tag k="addr:housenumber" v="17405"/><tag k="coa:place_id" v="3332253"/></node><node id="-71" lat="30.476857" lon="-97.911172" changeset="false"><tag k="addr:street" v="East Darleen Drive"/><tag k="addr:housenumber" v="17301"/><tag k="coa:place_id" v="3332258"/></node><node id="-72" lat="30.47849" lon="-97.912604" changeset="false"><tag k="addr:street" v="East Darleen Drive"/><tag k="addr:housenumber" v="17404"/><tag k="coa:place_id" v="3332498"/></node><node id="-73" lat="30.495143" lon="-97.901594" changeset="false"><tag k="addr:street" v="Johnson Road"/><tag k="addr:housenumber" v="11671"/><tag k="coa:place_id" v="1144853"/></node><node id="-74" lat="30.510348" lon="-97.911723" changeset="false"><tag k="addr:street" v="Farm-to-Market Road 1431"/><tag k="addr:housenumber" v="18245"/><tag k="coa:place_id" v="1144971"/></node><node id="-75" lat="30.487911" lon="-97.911447" changeset="false"><tag k="addr:street" v="Johnson Road"/><tag k="addr:housenumber" v="10900"/><tag k="coa:place_id" v="1144912"/></node><node id="-76" lat="30.493217" lon="-97.897781" changeset="false"><tag k="addr:street" v="Johnson Road"/><tag k="addr:housenumber" v="11725"/><tag k="coa:place_id" v="1144867"/></node><node id="-77" lat="30.510304" lon="-97.892581" changeset="false"><tag k="addr:street" v="North Ridge Circle"/><tag k="addr:housenumber" v="13201"/><tag k="coa:place_id" v="3203378"/></node><node id="-78" lat="30.494652" lon="-97.920316" changeset="false"><tag k="addr:street" v="5th Street"/><tag k="addr:housenumber" v="10907"/><tag k="coa:place_id" v="3221771"/></node><node id="-79" lat="30.495919" lon="-97.92178" changeset="false"><tag k="addr:street" v="3rd Street"/><tag k="addr:housenumber" v="11004"/><tag k="coa:place_id" v="3221614"/></node><node id="-80" lat="30.495706" lon="-97.922668" changeset="false"><tag k="addr:street" v="2nd Street"/><tag k="addr:housenumber" v="10902"/><tag k="coa:place_id" v="3221623"/></node><node id="-81" lat="30.51255" lon="-97.894579" changeset="false"><tag k="addr:street" v="Blue Canyon Cove"/><tag k="addr:housenumber" v="17009"/><tag k="coa:place_id" v="3204344"/></node><node id="-82" lat="30.507818" lon="-97.895672" changeset="false"><tag k="addr:street" v="Canyon View"/><tag k="addr:housenumber" v="13108"/><tag k="coa:place_id" v="3204574"/></node><node id="-83" lat="30.496664" lon="-97.920184" changeset="false"><tag k="addr:street" v="Austin Drive"/><tag k="addr:housenumber" v="18310"/><tag k="coa:place_id" v="3202642"/></node><node id="-84" lat="30.497673" lon="-97.920166" changeset="false"><tag k="addr:street" v="4th Street"/><tag k="addr:housenumber" v="11112"/><tag k="coa:place_id" v="3202653"/></node><node id="-85" lat="30.513416" lon="-97.89264" changeset="false"><tag k="addr:street" v="North Ridge Circle"/><tag k="addr:housenumber" v="13221"/><tag k="coa:place_id" v="3204208"/></node><node id="-86" lat="30.497494" lon="-97.919774" changeset="false"><tag k="addr:street" v="Travis Drive"/><tag k="addr:housenumber" v="11116"/><tag k="coa:place_id" v="3202538"/></node><node id="-87" lat="30.497551" lon="-97.916739" changeset="false"><tag k="addr:street" v="Ledge Street"/><tag k="addr:housenumber" v="18209"/><tag k="coa:place_id" v="3197479"/></node><node id="-88" lat="30.49676" lon="-97.918375" changeset="false"><tag k="addr:street" v="Ledge Street"/><tag k="addr:housenumber" v="18303"/><tag k="coa:place_id" v="3197496"/></node><node id="-89" lat="30.496663" lon="-97.91851" changeset="false"><tag k="addr:street" v="Ledge Street"/><tag k="addr:housenumber" v="18305"/><tag k="coa:place_id" v="3197497"/></node><node id="-90" lat="30.494958" lon="-97.920119" changeset="false"><tag k="addr:street" v="5th Street"/><tag k="addr:housenumber" v="11001"/><tag k="coa:place_id" v="3221773"/></node><node id="-91" lat="30.496926" lon="-97.922115" changeset="false"><tag k="addr:street" v="2nd Street"/><tag k="addr:housenumber" v="11010"/><tag k="coa:place_id" v="3203008"/></node><node id="-92" lat="30.499213" lon="-97.918582" changeset="false"><tag k="addr:street" v="East Lake Terrace Drive,1100"/><tag k="addr:housenumber" v="18313"/><tag k="coa:place_id" v="3197271"/></node><node id="-93" lat="30.508455" lon="-97.896187" changeset="false"><tag k="addr:street" v="Canyon View"/><tag k="addr:housenumber" v="13112"/><tag k="coa:place_id" v="3204597"/></node><node id="-94" lat="30.498647" lon="-97.915208" changeset="false"><tag k="addr:street" v="Center Street"/><tag k="addr:housenumber" v="18103"/><tag k="coa:place_id" v="3197385"/></node><node id="-95" lat="30.496708" lon="-97.917326" changeset="false"><tag k="addr:street" v="Sandy Street"/><tag k="addr:housenumber" v="18206"/><tag k="coa:place_id" v="3197556"/></node><node id="-96" lat="30.496116" lon="-97.91783" changeset="false"><tag k="addr:street" v="Sandy Street"/><tag k="addr:housenumber" v="18213"/><tag k="coa:place_id" v="3197563"/></node><node id="-97" lat="30.511163" lon="-97.893939" changeset="false"><tag k="addr:street" v="North Ridge Circle"/><tag k="addr:housenumber" v="13212"/><tag k="coa:place_id" v="3204192"/></node><node id="-98" lat="30.509571" lon="-97.892559" changeset="false"><tag k="addr:street" v="North Ridge Circle"/><tag k="addr:housenumber" v="13109"/><tag k="coa:place_id" v="3204200"/></node><node id="-99" lat="30.51272" lon="-97.895452" changeset="false"><tag k="addr:street" v="Blue Canyon Cove"/><tag k="addr:housenumber" v="17017"/><tag k="coa:place_id" v="3204324"/></node><node id="-100" lat="30.498297" lon="-97.914758" changeset="false"><tag k="addr:street" v="Lakeside Drive"/><tag k="addr:housenumber" v="11311"/><tag k="coa:place_id" v="3378504"/></node><node id="-101" lat="30.489236" lon="-97.910244" changeset="false"><tag k="addr:street" v="Chalet Circle"/><tag k="addr:housenumber" v="17776"/><tag k="coa:place_id" v="3198355"/></node><node id="-102" lat="30.49857" lon="-97.917459" changeset="false"><tag k="addr:street" v="Lake Oaks Drive"/><tag k="addr:housenumber" v="18303"/><tag k="coa:place_id" v="3197118"/></node><node id="-103" lat="30.496244" lon="-97.918717" changeset="false"><tag k="addr:street" v="Sandy Street"/><tag k="addr:housenumber" v="18222"/><tag k="coa:place_id" v="3197595"/></node><node id="-104" lat="30.475307" lon="-97.910095" changeset="false"><tag k="addr:street" v="Trails End Road"/><tag k="addr:housenumber" v="9818"/><tag k="coa:place_id" v="3198332"/></node><node id="-105" lat="30.494231" lon="-97.922594" changeset="false"><tag k="addr:street" v="Crestview Drive"/><tag k="addr:housenumber" v="10710"/><tag k="coa:place_id" v="3210107"/></node><node id="-106" lat="30.498874" lon="-97.916374" changeset="false"><tag k="addr:street" v="Lake Oaks Drive"/><tag k="addr:housenumber" v="18207"/><tag k="coa:place_id" v="3197089"/></node><node id="-107" lat="30.499171" lon="-97.917235" changeset="false"><tag k="addr:street" v="Lake Oaks Drive"/><tag k="addr:housenumber" v="18208"/><tag k="coa:place_id" v="3197103"/></node><node id="-108" lat="30.492057" lon="-97.921973" changeset="false"><tag k="addr:street" v="Park Drive,1100"/><tag k="addr:housenumber" v="18307"/><tag k="coa:place_id" v="3219664"/></node><node id="-109" lat="30.492034" lon="-97.917098" changeset="false"><tag k="addr:street" v="Reedy Court"/><tag k="addr:housenumber" v="18100"/><tag k="coa:place_id" v="3222125"/></node><node id="-110" lat="30.491023" lon="-97.921274" changeset="false"><tag k="addr:street" v="Lura Lane"/><tag k="addr:housenumber" v="18216"/><tag k="coa:place_id" v="3222067"/></node><node id="-111" lat="30.500101" lon="-97.915955" changeset="false"><tag k="addr:street" v="Leander Street"/><tag k="addr:housenumber" v="11408"/><tag k="coa:place_id" v="3196816"/></node><node id="-112" lat="30.500382" lon="-97.915806" changeset="false"><tag k="addr:street" v="Leander Street"/><tag k="addr:housenumber" v="11410"/><tag k="coa:place_id" v="3196838"/></node><node id="-113" lat="30.496329" lon="-97.922732" changeset="false"><tag k="addr:street" v="1st Street,1100"/><tag k="addr:housenumber" v="11005"/><tag k="coa:place_id" v="3221656"/></node><node id="-114" lat="30.496279" lon="-97.920373" changeset="false"><tag k="addr:street" v="4th Street"/><tag k="addr:housenumber" v="11013"/><tag k="coa:place_id" v="3221699"/></node><node id="-115" lat="30.500755" lon="-97.907023" changeset="false"><tag k="addr:street" v="Cross Street"/><tag k="addr:housenumber" v="17708"/><tag k="coa:place_id" v="3329626"/></node><node id="-116" lat="30.505338" lon="-97.911876" changeset="false"><tag k="addr:street" v="Pecan Drive"/><tag k="addr:housenumber" v="11824"/><tag k="coa:place_id" v="3385950"/></node><node id="-117" lat="30.501752" lon="-97.914371" changeset="false"><tag k="addr:street" v="Main Street"/><tag k="addr:housenumber" v="11530"/><tag k="coa:place_id" v="3385959"/></node><node id="-118" lat="30.500864" lon="-97.906425" changeset="false"><tag k="addr:street" v="Cross Street"/><tag k="addr:housenumber" v="17705"/><tag k="coa:place_id" v="3322530"/></node><node id="-119" lat="30.5007" lon="-97.909505" changeset="false"><tag k="addr:street" v="Sandy Lane"/><tag k="addr:housenumber" v="17818"/><tag k="coa:place_id" v="3378475"/></node><node id="-120" lat="30.483534" lon="-97.916143" changeset="false"><tag k="addr:street" v="West Darleen Drive"/><tag k="addr:housenumber" v="10326"/><tag k="coa:place_id" v="3332218"/></node><node id="-121" lat="30.489316" lon="-97.915234" changeset="false"><tag k="addr:street" v="Hill Drive,1100"/><tag k="addr:housenumber" v="10616"/><tag k="coa:place_id" v="3308995"/></node><node id="-122" lat="30.500256" lon="-97.916182" changeset="false"><tag k="addr:street" v="Bertram Street"/><tag k="addr:housenumber" v="11407"/><tag k="coa:place_id" v="3196771"/></node><node id="-123" lat="30.490681" lon="-97.922012" changeset="false"><tag k="addr:street" v="Edna Road"/><tag k="addr:housenumber" v="18208"/><tag k="coa:place_id" v="3222031"/></node><node id="-124" lat="30.500734" lon="-97.906474" changeset="false"><tag k="addr:street" v="Cross Street"/><tag k="addr:housenumber" v="17707"/><tag k="coa:place_id" v="3322531"/></node><node id="-125" lat="30.500564" lon="-97.906625" changeset="false"><tag k="addr:street" v="Cross Street"/><tag k="addr:housenumber" v="17709"/><tag k="coa:place_id" v="3322532"/></node><node id="-126" lat="30.497883" lon="-97.918933" changeset="false"><tag k="addr:street" v="Redbud Lane"/><tag k="addr:housenumber" v="18309"/><tag k="coa:place_id" v="3197366"/></node><node id="-127" lat="30.481971" lon="-97.913869" changeset="false"><tag k="addr:street" v="West Darleen Drive"/><tag k="addr:housenumber" v="10310"/><tag k="coa:place_id" v="3379763"/></node><node id="-128" lat="30.503371" lon="-97.915079" changeset="false"><tag k="addr:street" v="Farm-to-Market Road 1431"/><tag k="addr:housenumber" v="18341"/><tag k="coa:place_id" v="3327404"/></node><node id="-129" lat="30.518655" lon="-97.90155" changeset="false"><tag k="addr:street" v="Farm-to-Market Road 1431"/><tag k="addr:housenumber" v="18059"/><tag k="coa:place_id" v="5000461"/></node><node id="-130" lat="30.500917" lon="-97.913965" changeset="false"><tag k="addr:street" v="Crumley Creek Road"/><tag k="addr:housenumber" v="11519"/><tag k="coa:place_id" v="3385966"/></node><node id="-131" lat="30.501178" lon="-97.914773" changeset="false"><tag k="addr:street" v="Crumley Creek Road"/><tag k="addr:housenumber" v="11524"/><tag k="coa:place_id" v="3329687"/></node><node id="-132" lat="30.507018" lon="-97.888069" changeset="false"><tag k="addr:street" v="Trails End Road"/><tag k="addr:housenumber" v="12600"/><tag k="coa:place_id" v="3313995"/></node><node id="-133" lat="30.496619" lon="-97.909279" changeset="false"><tag k="addr:street" v="Hill Drive,1100"/><tag k="addr:housenumber" v="11410"/><tag k="coa:place_id" v="1144925"/></node><node id="-134" lat="30.49086" lon="-97.910585" changeset="false"><tag k="addr:street" v="Johnson Road"/><tag k="addr:housenumber" v="11201"/><tag k="coa:place_id" v="1144892"/></node><node id="-135" lat="30.48802" lon="-97.910643" changeset="false"><tag k="addr:street" v="Johnson Road"/><tag k="addr:housenumber" v="10811"/><tag k="coa:place_id" v="1144911"/></node><node id="-136" lat="30.517607" lon="-97.903774" changeset="false"><tag k="addr:street" v="Farm-to-Market Road 1431"/><tag k="addr:housenumber" v="18089"/><tag k="coa:place_id" v="1144970"/></node><node id="-137" lat="30.504437" lon="-97.896442" changeset="false"><tag k="addr:street" v="Lost Ridge Circle"/><tag k="addr:housenumber" v="12908"/><tag k="coa:place_id" v="1144920"/></node><node id="-138" lat="30.504877" lon="-97.896557" changeset="false"><tag k="addr:street" v="North Rim Drive"/><tag k="addr:housenumber" v="17813"/><tag k="coa:place_id" v="1144919"/></node><node id="-139" lat="30.495779" lon="-97.902671" changeset="false"><tag k="addr:street" v="Johnson Road"/><tag k="addr:housenumber" v="11651"/><tag k="coa:place_id" v="1144850"/></node><node id="-140" lat="30.498182" lon="-97.921858" changeset="false"><tag k="addr:street" v="1st Street,1100"/><tag k="addr:housenumber" v="11113"/><tag k="coa:place_id" v="3203278"/></node><node id="-141" lat="30.499616" lon="-97.918491" changeset="false"><tag k="addr:street" v="East Lake Terrace Drive,1100"/><tag k="addr:housenumber" v="18310"/><tag k="coa:place_id" v="3197052"/></node><node id="-142" lat="30.497645" lon="-97.920538" changeset="false"><tag k="addr:street" v="3rd Street"/><tag k="addr:housenumber" v="11113"/><tag k="coa:place_id" v="3202659"/></node><node id="-143" lat="30.494464" lon="-97.917498" changeset="false"><tag k="addr:street" v="Lakeside Drive"/><tag k="addr:housenumber" v="11004"/><tag k="coa:place_id" v="3197725"/></node><node id="-144" lat="30.500683" lon="-97.920993" changeset="false"><tag k="addr:street" v="East Lakeview Drive"/><tag k="addr:housenumber" v="18506"/><tag k="coa:place_id" v="3197262"/></node><node id="-145" lat="30.50033" lon="-97.921222" changeset="false"><tag k="addr:street" v="East Lakeview Drive"/><tag k="addr:housenumber" v="18507"/><tag k="coa:place_id" v="3197263"/></node><node id="-146" lat="30.497965" lon="-97.922384" changeset="false"><tag k="addr:street" v="1st Street,1100"/><tag k="addr:housenumber" v="11110"/><tag k="coa:place_id" v="3203519"/></node><node id="-147" lat="30.496515" lon="-97.918838" changeset="false"><tag k="addr:street" v="Ledge Street"/><tag k="addr:housenumber" v="18309"/><tag k="coa:place_id" v="3197499"/></node><node id="-148" lat="30.495338" lon="-97.922043" changeset="false"><tag k="addr:street" v="3rd Street"/><tag k="addr:housenumber" v="10904"/><tag k="coa:place_id" v="3221610"/></node><node id="-149" lat="30.495062" lon="-97.91985" changeset="false"><tag k="addr:street" v="7th Street"/><tag k="addr:housenumber" v="11000"/><tag k="coa:place_id" v="3221871"/></node><node id="-150" lat="30.475526" lon="-97.91005" changeset="false"><tag k="addr:street" v="Trails End Road"/><tag k="addr:housenumber" v="9900"/><tag k="coa:place_id" v="3198327"/></node><node id="-151" lat="30.500662" lon="-97.918269" changeset="false"><tag k="addr:street" v="East Lakeview Drive"/><tag k="addr:housenumber" v="18402"/><tag k="coa:place_id" v="3196907"/></node><node id="-152" lat="30.493948" lon="-97.916968" changeset="false"><tag k="addr:street" v="Lakeside Drive"/><tag k="addr:housenumber" v="11001"/><tag k="coa:place_id" v="3197716"/></node><node id="-153" lat="30.497625" lon="-97.91778" changeset="false"><tag k="addr:street" v="Center Street"/><tag k="addr:housenumber" v="18301"/><tag k="coa:place_id" v="3197348"/></node><node id="-154" lat="30.49794" lon="-97.91816" changeset="false"><tag k="addr:street" v="Center Street"/><tag k="addr:housenumber" v="18302"/><tag k="coa:place_id" v="3197349"/></node><node id="-155" lat="30.500187" lon="-97.918618" changeset="false"><tag k="addr:street" v="East Lakeview Drive"/><tag k="addr:housenumber" v="18405"/><tag k="coa:place_id" v="3196910"/></node><node id="-156" lat="30.495939" lon="-97.921019" changeset="false"><tag k="addr:street" v="4th Street"/><tag k="addr:housenumber" v="11006"/><tag k="coa:place_id" v="3221677"/></node><node id="-157" lat="30.499459" lon="-97.919047" changeset="false"><tag k="addr:street" v="East Lake Terrace Drive,1100"/><tag k="addr:housenumber" v="18314"/><tag k="coa:place_id" v="3197272"/></node><node id="-158" lat="30.499401" lon="-97.919315" changeset="false"><tag k="addr:street" v="East Lake Terrace Drive,1100"/><tag k="addr:housenumber" v="18316"/><tag k="coa:place_id" v="3197274"/></node><node id="-159" lat="30.496332" lon="-97.917308" changeset="false"><tag k="addr:street" v="Sandy Street"/><tag k="addr:housenumber" v="18207"/><tag k="coa:place_id" v="3197557"/></node><node id="-160" lat="30.500749" lon="-97.911302" changeset="false"><tag k="addr:street" v="Travis Street"/><tag k="addr:housenumber" v="11509"/><tag k="coa:place_id" v="3329598"/></node><node id="-161" lat="30.48557" lon="-97.91703" changeset="false"><tag k="addr:street" v="West Darleen Drive"/><tag k="addr:housenumber" v="10342"/><tag k="coa:place_id" v="3198363"/></node><node id="-162" lat="30.50211" lon="-97.914067" changeset="false"><tag k="addr:street" v="Main Street"/><tag k="addr:housenumber" v="11535"/><tag k="coa:place_id" v="3385962"/></node><node id="-163" lat="30.498356" lon="-97.916945" changeset="false"><tag k="addr:street" v="Center Street"/><tag k="addr:housenumber" v="18214"/><tag k="coa:place_id" v="3197337"/></node><node id="-164" lat="30.491049" lon="-97.92262" changeset="false"><tag k="addr:street" v="Spring Lane"/><tag k="addr:housenumber" v="18311"/><tag k="coa:place_id" v="3222029"/></node><node id="-165" lat="30.494685" lon="-97.917952" changeset="false"><tag k="addr:street" v="Fair Lane"/><tag k="addr:housenumber" v="18207"/><tag k="coa:place_id" v="3197680"/></node><node id="-166" lat="30.500059" lon="-97.911369" changeset="false"><tag k="addr:street" v="Lafayette Park Road"/><tag k="addr:housenumber" v="17914"/><tag k="coa:place_id" v="3385969"/></node><node id="-167" lat="30.503696" lon="-97.890966" changeset="false"><tag k="addr:street" v="South Ridge Circle"/><tag k="addr:housenumber" v="13100"/><tag k="coa:place_id" v="3306016"/></node><node id="-168" lat="30.496432" lon="-97.918" changeset="false"><tag k="addr:street" v="Sandy Street"/><tag k="addr:housenumber" v="18214"/><tag k="coa:place_id" v="3197564"/></node><node id="-169" lat="30.495741" lon="-97.917944" changeset="false"><tag k="addr:street" v="Cedar Street"/><tag k="addr:housenumber" v="18210"/><tag k="coa:place_id" v="3197660"/></node><node id="-170" lat="30.495627" lon="-97.918221" changeset="false"><tag k="addr:street" v="Cedar Street"/><tag k="addr:housenumber" v="18214"/><tag k="coa:place_id" v="3197665"/></node><node id="-171" lat="30.502583" lon="-97.914169" changeset="false"><tag k="addr:street" v="Travis Street"/><tag k="addr:housenumber" v="11622"/><tag k="coa:place_id" v="3329698"/></node><node id="-172" lat="30.515162" lon="-97.902584" changeset="false"><tag k="addr:street" v="Angel Valley Drive"/><tag k="addr:housenumber" v="18211"/><tag k="coa:place_id" v="5060720"/></node><node id="-173" lat="30.514647" lon="-97.899628" changeset="false"><tag k="addr:street" v="Angel Valley Drive"/><tag k="addr:housenumber" v="18103"/><tag k="coa:place_id" v="5060847"/></node><node id="-174" lat="30.478881" lon="-97.9132" changeset="false"><tag k="addr:street" v="East Darleen Drive"/><tag k="addr:housenumber" v="17410"/><tag k="coa:place_id" v="3332501"/></node><node id="-175" lat="30.505754" lon="-97.911727" changeset="false"><tag k="addr:street" v="Pecan Drive"/><tag k="addr:housenumber" v="11829"/><tag k="coa:place_id" v="3329442"/></node><node id="-176" lat="30.499879" lon="-97.913586" changeset="false"><tag k="addr:street" v="Crumley Creek Road"/><tag k="addr:housenumber" v="11504"/><tag k="coa:place_id" v="3329673"/></node><node id="-177" lat="30.49657" lon="-97.909743" changeset="false"><tag k="addr:street" v="Hill Drive,1100"/><tag k="addr:housenumber" v="11406"/><tag k="coa:place_id" v="1144926"/></node><node id="-178" lat="30.481145" lon="-97.915643" changeset="false"><tag k="addr:street" v="Womack Drive"/><tag k="addr:housenumber" v="10110"/><tag k="coa:place_id" v="110832"/></node><node id="-179" lat="30.476748" lon="-97.909887" changeset="false"><tag k="addr:street" v="Trails End Road"/><tag k="addr:housenumber" v="10002"/><tag k="coa:place_id" v="3190331"/></node><node id="-180" lat="30.49734" lon="-97.922263" changeset="false"><tag k="addr:street" v="1st Street,1100"/><tag k="addr:housenumber" v="11103"/><tag k="coa:place_id" v="3203276"/></node><node id="-181" lat="30.498101" lon="-97.92156" changeset="false"><tag k="addr:street" v="2nd Street"/><tag k="addr:housenumber" v="11112"/><tag k="coa:place_id" v="3203166"/></node><node id="-182" lat="30.495259" lon="-97.917541" changeset="false"><tag k="addr:street" v="Fair Lane"/><tag k="addr:housenumber" v="18202"/><tag k="coa:place_id" v="3197675"/></node><node id="-183" lat="30.506683" lon="-97.900833" changeset="false"><tag k="addr:street" v="North Rim Drive"/><tag k="addr:housenumber" v="18008"/><tag k="coa:place_id" v="3205543"/></node><node id="-184" lat="30.509013" lon="-97.894978" changeset="false"><tag k="addr:street" v="Canyon View"/><tag k="addr:housenumber" v="13117"/><tag k="coa:place_id" v="3204438"/></node><node id="-185" lat="30.496548" lon="-97.921039" changeset="false"><tag k="addr:street" v="Austin Drive"/><tag k="addr:housenumber" v="18406"/><tag k="coa:place_id" v="3202645"/></node><node id="-186" lat="30.497092" lon="-97.92046" changeset="false"><tag k="addr:street" v="4th Street"/><tag k="addr:housenumber" v="11106"/><tag k="coa:place_id" v="3202650"/></node><node id="-187" lat="30.496726" lon="-97.920956" changeset="false"><tag k="addr:street" v="3rd Street"/><tag k="addr:housenumber" v="11101"/><tag k="coa:place_id" v="3202654"/></node><node id="-188" lat="30.497925" lon="-97.920384" changeset="false"><tag k="addr:street" v="3rd Street"/><tag k="addr:housenumber" v="11117"/><tag k="coa:place_id" v="3202663"/></node><node id="-189" lat="30.498924" lon="-97.916187" changeset="false"><tag k="addr:street" v="Lake Oaks Drive"/><tag k="addr:housenumber" v="18205"/><tag k="coa:place_id" v="3197088"/></node><node id="-190" lat="30.498836" lon="-97.917908" changeset="false"><tag k="addr:street" v="Lake Oaks Drive"/><tag k="addr:housenumber" v="18304"/><tag k="coa:place_id" v="3197119"/></node><node id="-191" lat="30.493737" lon="-97.917521" changeset="false"><tag k="addr:street" v="Travis Drive"/><tag k="addr:housenumber" v="10903"/><tag k="coa:place_id" v="3197751"/></node><node id="-192" lat="30.492032" lon="-97.921245" changeset="false"><tag k="addr:street" v="Park Drive,1100"/><tag k="addr:housenumber" v="18301"/><tag k="coa:place_id" v="3219661"/></node><node id="-193" lat="30.489981" lon="-97.921055" changeset="false"><tag k="addr:street" v="Lura Lane"/><tag k="addr:housenumber" v="18225"/><tag k="coa:place_id" v="3222076"/></node><node id="-194" lat="30.494447" lon="-97.920349" changeset="false"><tag k="addr:street" v="5th Street"/><tag k="addr:housenumber" v="10905"/><tag k="coa:place_id" v="3221770"/></node><node id="-195" lat="30.489526" lon="-97.920655" changeset="false"><tag k="addr:street" v="Lakeside Drive"/><tag k="addr:housenumber" v="10506"/><tag k="coa:place_id" v="3222109"/></node><node id="-196" lat="30.499795" lon="-97.914915" changeset="false"><tag k="addr:street" v="East Lake Terrace Drive,1100"/><tag k="addr:housenumber" v="18106"/><tag k="coa:place_id" v="3196844"/></node><node id="-197" lat="30.508655" lon="-97.888265" changeset="false"><tag k="addr:street" v="North Rim Drive"/><tag k="addr:housenumber" v="17600"/><tag k="coa:place_id" v="3205561"/></node><node id="-198" lat="30.512134" lon="-97.88631" changeset="false"><tag k="addr:street" v="Farm-to-Market Road 1431"/><tag k="addr:housenumber" v="17205"/><tag k="coa:place_id" v="3223414"/></node><node id="-199" lat="30.495628" lon="-97.921892" changeset="false"><tag k="addr:street" v="3rd Street"/><tag k="addr:housenumber" v="11000"/><tag k="coa:place_id" v="3221612"/></node><node id="-200" lat="30.494051" lon="-97.92157" changeset="false"><tag k="addr:street" v="Crestview Drive"/><tag k="addr:housenumber" v="10805"/><tag k="coa:place_id" v="3221858"/></node><node id="-201" lat="30.476808" lon="-97.910396" changeset="false"><tag k="addr:street" v="East Darleen Drive"/><tag k="addr:housenumber" v="17206"/><tag k="coa:place_id" v="3198345"/></node><node id="-202" lat="30.477425" lon="-97.90972" changeset="false"><tag k="addr:street" v="Trails End Road"/><tag k="addr:housenumber" v="10006"/><tag k="coa:place_id" v="3198349"/></node><node id="-203" lat="30.491957" lon="-97.913197" changeset="false"><tag k="addr:street" v="Hill Drive,1100"/><tag k="addr:housenumber" v="10906"/><tag k="coa:place_id" v="3198370"/></node><node id="-204" lat="30.498969" lon="-97.919812" changeset="false"><tag k="addr:street" v="East Lake Terrace Drive,1100"/><tag k="addr:housenumber" v="18403"/><tag k="coa:place_id" v="3197277"/></node><node id="-205" lat="30.4954" lon="-97.920437" changeset="false"><tag k="addr:street" v="5th Street"/><tag k="addr:housenumber" v="11004"/><tag k="coa:place_id" v="3221716"/></node><node id="-206" lat="30.4907" lon="-97.923695" changeset="false"><tag k="addr:street" v="Farm-to-Market Road 1431"/><tag k="addr:housenumber" v="18683"/><tag k="coa:place_id" v="3222053"/></node><node id="-207" lat="30.476025" lon="-97.910209" changeset="false"><tag k="addr:street" v="East Darleen Drive"/><tag k="addr:housenumber" v="17203"/><tag k="coa:place_id" v="3198326"/></node><node id="-208" lat="30.498276" lon="-97.917116" changeset="false"><tag k="addr:street" v="Center Street"/><tag k="addr:housenumber" v="18216"/><tag k="coa:place_id" v="3197339"/></node><node id="-209" lat="30.494503" lon="-97.922459" changeset="false"><tag k="addr:street" v="3rd Street"/><tag k="addr:housenumber" v="10800"/><tag k="coa:place_id" v="3210109"/></node><node id="-210" lat="30.488752" lon="-97.914848" changeset="false"><tag k="addr:street" v="Hill Drive,1100"/><tag k="addr:housenumber" v="10601"/><tag k="coa:place_id" v="3308994"/></node><node id="-211" lat="30.496826" lon="-97.917054" changeset="false"><tag k="addr:street" v="Sandy Street"/><tag k="addr:housenumber" v="18204"/><tag k="coa:place_id" v="3197554"/></node><node id="-212" lat="30.496184" lon="-97.917659" changeset="false"><tag k="addr:street" v="Sandy Street"/><tag k="addr:housenumber" v="18211"/><tag k="coa:place_id" v="3197561"/></node><node id="-213" lat="30.500134" lon="-97.906951" changeset="false"><tag k="addr:street" v="Cross Street"/><tag k="addr:housenumber" v="17715"/><tag k="coa:place_id" v="3388923"/></node><node id="-214" lat="30.494724" lon="-97.919943" changeset="false"><tag k="addr:street" v="6th Street"/><tag k="addr:housenumber" v="10908"/><tag k="coa:place_id" v="3221875"/></node><node id="-215" lat="30.491449" lon="-97.922115" changeset="false"><tag k="addr:street" v="Spring Lane"/><tag k="addr:housenumber" v="18304"/><tag k="coa:place_id" v="3222023"/></node><node id="-216" lat="30.495373" lon="-97.923155" changeset="false"><tag k="addr:street" v="1st Street,1100"/><tag k="addr:housenumber" v="10803"/><tag k="coa:place_id" v="3221637"/></node><node id="-217" lat="30.501805" lon="-97.91818" changeset="false"><tag k="addr:street" v="Roundrock Road"/><tag k="addr:housenumber" v="18408"/><tag k="coa:place_id" v="3197329"/></node><node id="-218" lat="30.498174" lon="-97.92075" changeset="false"><tag k="addr:street" v="Lake Oaks Drive"/><tag k="addr:housenumber" v="18403"/><tag k="coa:place_id" v="3202966"/></node><node id="-219" lat="30.492178" lon="-97.917743" changeset="false"><tag k="addr:street" v="Reedy Court"/><tag k="addr:housenumber" v="18105"/><tag k="coa:place_id" v="3222133"/></node><node id="-220" lat="30.492109" lon="-97.918398" changeset="false"><tag k="addr:street" v="Lakeside Drive"/><tag k="addr:housenumber" v="10703"/><tag k="coa:place_id" v="3222222"/></node><node id="-221" lat="30.502104" lon="-97.914693" changeset="false"><tag k="addr:street" v="Main Street"/><tag k="addr:housenumber" v="11536"/><tag k="coa:place_id" v="3331899"/></node><node id="-222" lat="30.484968" lon="-97.917045" changeset="false"><tag k="addr:street" v="West Darleen Drive"/><tag k="addr:housenumber" v="10338"/><tag k="coa:place_id" v="3332225"/></node><node id="-223" lat="30.498772" lon="-97.909445" changeset="false"><tag k="addr:street" v="Cross Street"/><tag k="addr:housenumber" v="17823"/><tag k="coa:place_id" v="3378472"/></node><node id="-224" lat="30.50007" lon="-97.920379" changeset="false"><tag k="addr:street" v="East Lakeview Drive"/><tag k="addr:housenumber" v="18501"/><tag k="coa:place_id" v="3197257"/></node><node id="-225" lat="30.495884" lon="-97.918521" changeset="false"><tag k="addr:street" v="Travis Drive"/><tag k="addr:housenumber" v="11013"/><tag k="coa:place_id" v="3197598"/></node><node id="-226" lat="30.488138" lon="-97.922716" changeset="false"><tag k="addr:street" v="Lakeside Drive"/><tag k="addr:housenumber" v="10300"/><tag k="coa:place_id" v="3222096"/></node><node id="-227" lat="30.488552" lon="-97.921892" changeset="false"><tag k="addr:street" v="Lakeside Drive"/><tag k="addr:housenumber" v="10400"/><tag k="coa:place_id" v="3222100"/></node><node id="-228" lat="30.505005" lon="-97.91198" changeset="false"><tag k="addr:street" v="Pecan Drive"/><tag k="addr:housenumber" v="11812"/><tag k="coa:place_id" v="3328675"/></node><node id="-229" lat="30.505021" lon="-97.911329" changeset="false"><tag k="addr:street" v="Pecan Drive"/><tag k="addr:housenumber" v="11815"/><tag k="coa:place_id" v="3385952"/></node><node id="-230" lat="30.501484" lon="-97.907512" changeset="false"><tag k="addr:street" v="Sandy Lane"/><tag k="addr:housenumber" v="17716"/><tag k="coa:place_id" v="3329580"/></node><node id="-231" lat="30.502147" lon="-97.920119" changeset="false"><tag k="addr:street" v="Farm-to-Market Road 1431"/><tag k="addr:housenumber" v="18521"/><tag k="coa:place_id" v="3391739"/></node><node id="-232" lat="30.497178" lon="-97.908156" changeset="false"><tag k="addr:street" v="Hill Drive,1100"/><tag k="addr:housenumber" v="11418"/><tag k="coa:place_id" v="1144924"/></node><node id="-233" lat="30.506426" lon="-97.90207" changeset="false"><tag k="addr:street" v="North Rim Drive"/><tag k="addr:housenumber" v="18101"/><tag k="coa:place_id" v="3205549"/></node><node id="-234" lat="30.505957" lon="-97.906843" changeset="false"><tag k="addr:street" v="North Rim Drive"/><tag k="addr:housenumber" v="18113"/><tag k="coa:place_id" v="3205556"/></node><node id="-235" lat="30.498381" lon="-97.921428" changeset="false"><tag k="addr:street" v="2nd Street"/><tag k="addr:housenumber" v="11116"/><tag k="coa:place_id" v="3203269"/></node><node id="-236" lat="30.49411" lon="-97.920511" changeset="false"><tag k="addr:street" v="5th Street"/><tag k="addr:housenumber" v="10901"/><tag k="coa:place_id" v="3221768"/></node><node id="-237" lat="30.498478" lon="-97.922524" changeset="false"><tag k="addr:street" v="Farm-to-Market Road 1431"/><tag k="addr:housenumber" v="18575"/><tag k="coa:place_id" v="3203488"/></node><node id="-238" lat="30.497635" lon="-97.922512" changeset="false"><tag k="addr:street" v="1st Street,1100"/><tag k="addr:housenumber" v="11106"/><tag k="coa:place_id" v="3203517"/></node><node id="-239" lat="30.495184" lon="-97.92245" changeset="false"><tag k="addr:street" v="2nd Street"/><tag k="addr:housenumber" v="10801"/><tag k="coa:place_id" v="3221616"/></node><node id="-240" lat="30.493596" lon="-97.91899" changeset="false"><tag k="addr:street" v="Crestview Drive"/><tag k="addr:housenumber" v="10823"/><tag k="coa:place_id" v="3221869"/></node><node id="-241" lat="30.496777" lon="-97.91937" changeset="false"><tag k="addr:street" v="5th Street"/><tag k="addr:housenumber" v="11105"/><tag k="coa:place_id" v="3202558"/></node><node id="-242" lat="30.496595" lon="-97.920721" changeset="false"><tag k="addr:street" v="Austin Drive"/><tag k="addr:housenumber" v="18400"/><tag k="coa:place_id" v="3202644"/></node><node id="-243" lat="30.497045" lon="-97.920015" changeset="false"><tag k="addr:street" v="4th Street"/><tag k="addr:housenumber" v="11105"/><tag k="coa:place_id" v="3202646"/></node><node id="-244" lat="30.493907" lon="-97.917594" changeset="false"><tag k="addr:street" v="Travis Drive"/><tag k="addr:housenumber" v="10905"/><tag k="coa:place_id" v="3197752"/></node><node id="-245" lat="30.498824" lon="-97.916545" changeset="false"><tag k="addr:street" v="Lake Oaks Drive"/><tag k="addr:housenumber" v="18209"/><tag k="coa:place_id" v="3197110"/></node><node id="-246" lat="30.500087" lon="-97.915486" changeset="false"><tag k="addr:street" v="Leander Street"/><tag k="addr:housenumber" v="11409"/><tag k="coa:place_id" v="3196837"/></node><node id="-247" lat="30.499262" lon="-97.914797" changeset="false"><tag k="addr:street" v="East Lake Terrace Drive,1100"/><tag k="addr:housenumber" v="18102"/><tag k="coa:place_id" v="3196843"/></node><node id="-248" lat="30.499071" lon="-97.915435" changeset="false"><tag k="addr:street" v="East Lakeview Drive"/><tag k="addr:housenumber" v="18201"/><tag k="coa:place_id" v="3196846"/></node><node id="-249" lat="30.500263" lon="-97.918391" changeset="false"><tag k="addr:street" v="East Lakeview Drive"/><tag k="addr:housenumber" v="18403"/><tag k="coa:place_id" v="3196908"/></node><node id="-250" lat="30.488099" lon="-97.915903" changeset="false"><tag k="addr:street" v="Hill Drive,1100"/><tag k="addr:housenumber" v="10500"/><tag k="coa:place_id" v="3308988"/></node><node id="-251" lat="30.497524" lon="-97.91897" changeset="false"><tag k="addr:street" v="Center Street"/><tag k="addr:housenumber" v="18312"/><tag k="coa:place_id" v="3197356"/></node><node id="-252" lat="30.474856" lon="-97.910179" changeset="false"><tag k="addr:street" v="Trails End Road"/><tag k="addr:housenumber" v="9814"/><tag k="coa:place_id" v="3198330"/></node><node id="-253" lat="30.475083" lon="-97.910143" changeset="false"><tag k="addr:street" v="Trails End Road"/><tag k="addr:housenumber" v="9816"/><tag k="coa:place_id" v="3198331"/></node><node id="-254" lat="30.474436" lon="-97.910196" changeset="false"><tag k="addr:street" v="Trails End Road"/><tag k="addr:housenumber" v="9810"/><tag k="coa:place_id" v="3198334"/></node><node id="-255" lat="30.501096" lon="-97.913203" changeset="false"><tag k="addr:street" v="Main Street"/><tag k="addr:housenumber" v="11521"/><tag k="coa:place_id" v="3331906"/></node><node id="-256" lat="30.494369" lon="-97.922509" changeset="false"><tag k="addr:street" v="Crestview Drive"/><tag k="addr:housenumber" v="10712"/><tag k="coa:place_id" v="3210108"/></node><node id="-257" lat="30.498932" lon="-97.908629" changeset="false"><tag k="addr:street" v="Cross Street"/><tag k="addr:housenumber" v="17815"/><tag k="coa:place_id" v="3378471"/></node><node id="-258" lat="30.498073" lon="-97.919344" changeset="false"><tag k="addr:street" v="Redbud Lane"/><tag k="addr:housenumber" v="18306"/><tag k="coa:place_id" v="3197372"/></node><node id="-259" lat="30.492245" lon="-97.918006" changeset="false"><tag k="addr:street" v="Reedy Court"/><tag k="addr:housenumber" v="18107"/><tag k="coa:place_id" v="3222134"/></node><node id="-260" lat="30.495897" lon="-97.919745" changeset="false"><tag k="addr:street" v="5th Street"/><tag k="addr:housenumber" v="11011"/><tag k="coa:place_id" v="3221816"/></node><node id="-261" lat="30.495111" lon="-97.917891" changeset="false"><tag k="addr:street" v="Fair Lane"/><tag k="addr:housenumber" v="18206"/><tag k="coa:place_id" v="3197679"/></node><node id="-262" lat="30.491459" lon="-97.922656" changeset="false"><tag k="addr:street" v="Spring Lane"/><tag k="addr:housenumber" v="18308"/><tag k="coa:place_id" v="3222025"/></node><node id="-263" lat="30.498323" lon="-97.92223" changeset="false"><tag k="addr:street" v="1st Street,1100"/><tag k="addr:housenumber" v="11114"/><tag k="coa:place_id" v="3203521"/></node><node id="-264" lat="30.4976" lon="-97.920965" changeset="false"><tag k="addr:street" v="3rd Street"/><tag k="addr:housenumber" v="11110"/><tag k="coa:place_id" v="3202998"/></node><node id="-265" lat="30.496759" lon="-97.922173" changeset="false"><tag k="addr:street" v="2nd Street"/><tag k="addr:housenumber" v="11008"/><tag k="coa:place_id" v="3203007"/></node><node id="-266" lat="30.495997" lon="-97.917262" changeset="false"><tag k="addr:street" v="Cedar Street"/><tag k="addr:housenumber" v="18202"/><tag k="coa:place_id" v="3197657"/></node><node id="-267" lat="30.495378" lon="-97.91783" changeset="false"><tag k="addr:street" v="Cedar Street"/><tag k="addr:housenumber" v="18209"/><tag k="coa:place_id" v="3197662"/></node><node id="-268" lat="30.498485" lon="-97.919863" changeset="false"><tag k="addr:street" v="Lake Oaks Drive"/><tag k="addr:housenumber" v="18322"/><tag k="coa:place_id" v="3197177"/></node><node id="-269" lat="30.5017" lon="-97.906596" changeset="false"><tag k="addr:street" v="Sandy Lane"/><tag k="addr:housenumber" v="17708"/><tag k="coa:place_id" v="3322527"/></node><node id="-270" lat="30.48847" lon="-97.922112" changeset="false"><tag k="addr:street" v="Lakeside Drive"/><tag k="addr:housenumber" v="10306"/><tag k="coa:place_id" v="3222099"/></node><node id="-271" lat="30.497839" lon="-97.916247" changeset="false"><tag k="addr:street" v="Lakeside Drive"/><tag k="addr:housenumber" v="11302"/><tag k="coa:place_id" v="3197473"/></node><node id="-272" lat="30.502234" lon="-97.914216" changeset="false"><tag k="addr:street" v="Main Street"/><tag k="addr:housenumber" v="11537"/><tag k="coa:place_id" v="3385963"/></node><node id="-273" lat="30.500765" lon="-97.913816" changeset="false"><tag k="addr:street" v="Crumley Creek Road"/><tag k="addr:housenumber" v="11517"/><tag k="coa:place_id" v="3385965"/></node><node id="-274" lat="30.502505" lon="-97.915265" changeset="false"><tag k="addr:street" v="Bee Street"/><tag k="addr:housenumber" v="11502"/><tag k="coa:place_id" v="3385961"/></node><node id="-275" lat="30.501413" lon="-97.914013" changeset="false"><tag k="addr:street" v="Main Street"/><tag k="addr:housenumber" v="11526"/><tag k="coa:place_id" v="3385958"/></node><node id="-276" lat="30.495119" lon="-97.911865" changeset="false"><tag k="addr:street" v="Hill Drive,1100"/><tag k="addr:housenumber" v="11206"/><tag k="coa:place_id" v="3382030"/></node><node id="-277" lat="30.50044" lon="-97.916631" changeset="false"><tag k="addr:street" v="Bertram Street"/><tag k="addr:housenumber" v="11406"/><tag k="coa:place_id" v="3196764"/></node><node id="-278" lat="30.492736" lon="-97.913334" changeset="false"><tag k="addr:street" v="Beach Road"/><tag k="addr:housenumber" v="11001"/><tag k="coa:place_id" v="5199724"/></node><node id="-279" lat="30.499437" lon="-97.912235" changeset="false"><tag k="addr:street" v="Lafayette Park Road"/><tag k="addr:housenumber" v="18005"/><tag k="coa:place_id" v="3329664"/></node><node id="-280" lat="30.500233" lon="-97.913977" changeset="false"><tag k="addr:street" v="Crumley Creek Road"/><tag k="addr:housenumber" v="11510"/><tag k="coa:place_id" v="3329676"/></node><node id="-281" lat="30.500655" lon="-97.913721" changeset="false"><tag k="addr:street" v="Crumley Creek Road"/><tag k="addr:housenumber" v="11515"/><tag k="coa:place_id" v="3329681"/></node><node id="-282" lat="30.495711" lon="-97.917219" changeset="false"><tag k="addr:street" v="Cedar Street"/><tag k="addr:housenumber" v="18203"/><tag k="coa:place_id" v="3197671"/></node><node id="-283" lat="30.495326" lon="-97.917315" changeset="false"><tag k="addr:street" v="Fair Lane"/><tag k="addr:housenumber" v="18200"/><tag k="coa:place_id" v="3197673"/></node><node id="-284" lat="30.494897" lon="-97.917422" changeset="false"><tag k="addr:street" v="Fair Lane"/><tag k="addr:housenumber" v="18201"/><tag k="coa:place_id" v="3197674"/></node><node id="-285" lat="30.513707" lon="-97.895853" changeset="false"><tag k="addr:street" v="Blue Canyon Cove"/><tag k="addr:housenumber" v="17025"/><tag k="coa:place_id" v="3204326"/></node><node id="-286" lat="30.496567" lon="-97.9199" changeset="false"><tag k="addr:street" v="5th Street"/><tag k="addr:housenumber" v="11100"/><tag k="coa:place_id" v="3202613"/></node><node id="-287" lat="30.497045" lon="-97.919666" changeset="false"><tag k="addr:street" v="5th Street"/><tag k="addr:housenumber" v="11106"/><tag k="coa:place_id" v="3202616"/></node><node id="-288" lat="30.49687" lon="-97.920891" changeset="false"><tag k="addr:street" v="3rd Street"/><tag k="addr:housenumber" v="11103"/><tag k="coa:place_id" v="3202655"/></node><node id="-289" lat="30.509017" lon="-97.892394" changeset="false"><tag k="addr:street" v="North Ridge Circle"/><tag k="addr:housenumber" v="13105"/><tag k="coa:place_id" v="3204604"/></node><node id="-290" lat="30.499706" lon="-97.918291" changeset="false"><tag k="addr:street" v="East Lake Terrace Drive,1100"/><tag k="addr:housenumber" v="18308"/><tag k="coa:place_id" v="3197050"/></node><node id="-291" lat="30.490518" lon="-97.922709" changeset="false"><tag k="addr:street" v="Edna Road"/><tag k="addr:housenumber" v="18222"/><tag k="coa:place_id" v="3222034"/></node><node id="-292" lat="30.480932" lon="-97.915042" changeset="false"><tag k="addr:street" v="Womack Drive"/><tag k="addr:housenumber" v="10101"/><tag k="coa:place_id" v="3381243"/></node><node id="-293" lat="30.49592" lon="-97.918332" changeset="false"><tag k="addr:street" v="Sandy Street"/><tag k="addr:housenumber" v="18219"/><tag k="coa:place_id" v="3197571"/></node><node id="-294" lat="30.495457" lon="-97.917613" changeset="false"><tag k="addr:street" v="Cedar Street"/><tag k="addr:housenumber" v="18207"/><tag k="coa:place_id" v="3197661"/></node><node id="-295" lat="30.510736" lon="-97.886449" changeset="false"><tag k="addr:street" v="Trails End Road"/><tag k="addr:housenumber" v="12810"/><tag k="coa:place_id" v="3309009"/></node><node id="-296" lat="30.496505" lon="-97.923063" changeset="false"><tag k="addr:street" v="1st Street,1100"/><tag k="addr:housenumber" v="11006"/><tag k="coa:place_id" v="3221657"/></node><node id="-297" lat="30.494819" lon="-97.921439" changeset="false"><tag k="addr:street" v="4th Street"/><tag k="addr:housenumber" v="10902"/><tag k="coa:place_id" v="3221673"/></node><node id="-298" lat="30.49513" lon="-97.920549" changeset="false"><tag k="addr:street" v="5th Street"/><tag k="addr:housenumber" v="11000"/><tag k="coa:place_id" v="3221761"/></node><node id="-299" lat="30.480849" lon="-97.913585" changeset="false"><tag k="addr:street" v="East Darleen Drive"/><tag k="addr:housenumber" v="17525"/><tag k="coa:place_id" v="3426503"/></node><node id="-300" lat="30.500357" lon="-97.91821" changeset="false"><tag k="addr:street" v="East Lakeview Drive"/><tag k="addr:housenumber" v="18309"/><tag k="coa:place_id" v="3196879"/></node><node id="-301" lat="30.496225" lon="-97.902701" changeset="false"><tag k="addr:street" v="Johnson Road"/><tag k="addr:housenumber" v="11650"/><tag k="coa:place_id" v="1144847"/></node><node id="-302" lat="30.494091" lon="-97.922651" changeset="false"><tag k="addr:street" v="Crestview Drive"/><tag k="addr:housenumber" v="10708"/><tag k="coa:place_id" v="3210106"/></node><node id="-303" lat="30.476977" lon="-97.910599" changeset="false"><tag k="addr:street" v="East Darleen Drive"/><tag k="addr:housenumber" v="17208"/><tag k="coa:place_id" v="3198346"/></node><node id="-304" lat="30.490266" lon="-97.911577" changeset="false"><tag k="addr:street" v="Chalet Circle"/><tag k="addr:housenumber" v="17724"/><tag k="coa:place_id" v="3198367"/></node><node id="-305" lat="30.498973" lon="-97.920036" changeset="false"><tag k="addr:street" v="East Lake Terrace Drive,1100"/><tag k="addr:housenumber" v="18405"/><tag k="coa:place_id" v="3197279"/></node><node id="-306" lat="30.496248" lon="-97.917484" changeset="false"><tag k="addr:street" v="Sandy Street"/><tag k="addr:housenumber" v="18209"/><tag k="coa:place_id" v="3197559"/></node><node id="-307" lat="30.494318" lon="-97.919659" changeset="false"><tag k="addr:street" v="6th Street"/><tag k="addr:housenumber" v="10905"/><tag k="coa:place_id" v="3221879"/></node><node id="-308" lat="30.489283" lon="-97.909916" changeset="false"><tag k="addr:street" v="Chalet Circle"/><tag k="addr:housenumber" v="17780"/><tag k="coa:place_id" v="3198356"/></node><node id="-309" lat="30.500018" lon="-97.911928" changeset="false"><tag k="addr:street" v="Lafayette Park Road"/><tag k="addr:housenumber" v="18002"/><tag k="coa:place_id" v="3329660"/></node><node id="-310" lat="30.502097" lon="-97.918932" changeset="false"><tag k="addr:street" v="Roundrock Road"/><tag k="addr:housenumber" v="18412"/><tag k="coa:place_id" v="3197330"/></node><node id="-311" lat="30.505575" lon="-97.911443" changeset="false"><tag k="addr:street" v="Pecan Drive"/><tag k="addr:housenumber" v="11827"/><tag k="coa:place_id" v="3385957"/></node><node id="-312" lat="30.497676" lon="-97.918628" changeset="false"><tag k="addr:street" v="Center Street"/><tag k="addr:housenumber" v="18308"/><tag k="coa:place_id" v="3197353"/></node><node id="-313" lat="30.493069" lon="-97.914659" changeset="false"><tag k="addr:street" v="Beach Road"/><tag k="addr:housenumber" v="11004"/><tag k="coa:place_id" v="3333520"/></node><node id="-314" lat="30.474637" lon="-97.910211" changeset="false"><tag k="addr:street" v="Trails End Road"/><tag k="addr:housenumber" v="9812"/><tag k="coa:place_id" v="3198329"/></node><node id="-315" lat="30.500019" lon="-97.91633" changeset="false"><tag k="addr:street" v="Bertram Street"/><tag k="addr:housenumber" v="11405"/><tag k="coa:place_id" v="3196770"/></node><node id="-316" lat="30.498115" lon="-97.922751" changeset="false"><tag k="addr:street" v="1st Street,1100"/><tag k="addr:housenumber" v="11100"/><tag k="coa:place_id" v="3203514"/></node><node id="-317" lat="30.497245" lon="-97.91813" changeset="false"><tag k="addr:street" v="Ledge Street"/><tag k="addr:housenumber" v="18222"/><tag k="coa:place_id" v="3197512"/></node><node id="-318" lat="30.495475" lon="-97.921963" changeset="false"><tag k="addr:street" v="3rd Street"/><tag k="addr:housenumber" v="10906"/><tag k="coa:place_id" v="3221611"/></node><node id="-319" lat="30.495883" lon="-97.921328" changeset="false"><tag k="addr:street" v="3rd Street"/><tag k="addr:housenumber" v="11005"/><tag k="coa:place_id" v="3221607"/></node><node id="-320" lat="30.495555" lon="-97.919635" changeset="false"><tag k="addr:street" v="7th Street"/><tag k="addr:housenumber" v="11007"/><tag k="coa:place_id" v="3221872"/></node><node id="-321" lat="30.495025" lon="-97.918104" changeset="false"><tag k="addr:street" v="Fair Lane"/><tag k="addr:housenumber" v="18208"/><tag k="coa:place_id" v="3197681"/></node><node id="-322" lat="30.49145" lon="-97.922907" changeset="false"><tag k="addr:street" v="Spring Lane"/><tag k="addr:housenumber" v="18310"/><tag k="coa:place_id" v="3222026"/></node><node id="-323" lat="30.49015" lon="-97.921868" changeset="false"><tag k="addr:street" v="Lura Lane"/><tag k="addr:housenumber" v="18228"/><tag k="coa:place_id" v="3222083"/></node><node id="-324" lat="30.498516" lon="-97.915566" changeset="false"><tag k="addr:street" v="Center Street"/><tag k="addr:housenumber" v="18201"/><tag k="coa:place_id" v="3197360"/></node><node id="-325" lat="30.497988" lon="-97.918589" changeset="false"><tag k="addr:street" v="Redbud Lane"/><tag k="addr:housenumber" v="18305"/><tag k="coa:place_id" v="3197364"/></node><node id="-326" lat="30.499005" lon="-97.916038" changeset="false"><tag k="addr:street" v="Lake Oaks Drive"/><tag k="addr:housenumber" v="18203"/><tag k="coa:place_id" v="3197087"/></node><node id="-327" lat="30.48987" lon="-97.920273" changeset="false"><tag k="addr:street" v="Lakeside Drive"/><tag k="addr:housenumber" v="10510"/><tag k="coa:place_id" v="3222111"/></node><node id="-328" lat="30.50229" lon="-97.913841" changeset="false"><tag k="addr:street" v="Travis Street"/><tag k="addr:housenumber" v="11618"/><tag k="coa:place_id" v="3329696"/></node><node id="-329" lat="30.500373" lon="-97.920163" changeset="false"><tag k="addr:street" v="East Lakeview Drive"/><tag k="addr:housenumber" v="18500"/><tag k="coa:place_id" v="3197256"/></node><node id="-330" lat="30.490564" lon="-97.923845" changeset="false"><tag k="addr:street" v="Farm-to-Market Road 1431"/><tag k="addr:housenumber" v="18685"/><tag k="coa:place_id" v="3222054"/></node><node id="-331" lat="30.49176" lon="-97.919701" changeset="false"><tag k="addr:street" v="Lura Lane"/><tag k="addr:housenumber" v="18203"/><tag k="coa:place_id" v="3222060"/></node><node id="-332" lat="30.477322" lon="-97.910939" changeset="false"><tag k="addr:street" v="East Darleen Drive"/><tag k="addr:housenumber" v="17302"/><tag k="coa:place_id" v="3198348"/></node><node id="-333" lat="30.489239" lon="-97.922063" changeset="false"><tag k="addr:street" v="Lura Lane"/><tag k="addr:housenumber" v="18237"/><tag k="coa:place_id" v="3430539"/></node><node id="-334" lat="30.500014" lon="-97.911751" changeset="false"><tag k="addr:street" v="Lafayette Park Road"/><tag k="addr:housenumber" v="18000"/><tag k="coa:place_id" v="3385970"/></node><node id="-335" lat="30.48895" lon="-97.915538" changeset="false"><tag k="addr:street" v="Hill Drive,1100"/><tag k="addr:housenumber" v="10600"/><tag k="coa:place_id" v="3308989"/></node><node id="-336" lat="30.500485" lon="-97.919689" changeset="false"><tag k="addr:street" v="East Lakeview Drive"/><tag k="addr:housenumber" v="18412"/><tag k="coa:place_id" v="3197197"/></node><node id="-337" lat="30.497082" lon="-97.9185" changeset="false"><tag k="addr:street" v="Ledge Street"/><tag k="addr:housenumber" v="18300"/><tag k="coa:place_id" v="3197518"/></node><node id="-338" lat="30.501171" lon="-97.906273" changeset="false"><tag k="addr:street" v="Cross Street"/><tag k="addr:housenumber" v="17701"/><tag k="coa:place_id" v="3322528"/></node><node id="-339" lat="30.500903" lon="-97.911675" changeset="false"><tag k="addr:street" v="Travis Street"/><tag k="addr:housenumber" v="11513"/><tag k="coa:place_id" v="3329600"/></node><node id="-340" lat="30.504902" lon="-97.912175" changeset="false"><tag k="addr:street" v="Pecan Drive"/><tag k="addr:housenumber" v="11810"/><tag k="coa:place_id" v="3328698"/></node><node id="-341" lat="30.499325" lon="-97.918108" changeset="false"><tag k="addr:street" v="East Lake Terrace Drive,1100"/><tag k="addr:housenumber" v="18309"/><tag k="coa:place_id" v="3197051"/></node><node id="-342" lat="30.477594" lon="-97.914382" changeset="false"><tag k="addr:street" v="East Darleen Drive"/><tag k="addr:housenumber" v="17409"/><tag k="coa:place_id" v="3332255"/></node><node id="-343" lat="30.499565" lon="-97.917391" changeset="false"><tag k="addr:street" v="East Lake Terrace Drive,1100"/><tag k="addr:housenumber" v="18303"/><tag k="coa:place_id" v="3197008"/></node><node id="-344" lat="30.498671" lon="-97.917116" changeset="false"><tag k="addr:street" v="Lake Oaks Drive"/><tag k="addr:housenumber" v="18215"/><tag k="coa:place_id" v="3197114"/></node><node id="-345" lat="30.498971" lon="-97.917445" changeset="false"><tag k="addr:street" v="Lake Oaks Drive"/><tag k="addr:housenumber" v="18300"/><tag k="coa:place_id" v="3197115"/></node><node id="-346" lat="30.498563" lon="-97.918876" changeset="false"><tag k="addr:street" v="Lake Oaks Drive"/><tag k="addr:housenumber" v="18312"/><tag k="coa:place_id" v="3197159"/></node><node id="-347" lat="30.49106" lon="-97.922171" changeset="false"><tag k="addr:street" v="Spring Lane"/><tag k="addr:housenumber" v="18307"/><tag k="coa:place_id" v="3222027"/></node><node id="-348" lat="30.491058" lon="-97.922384" changeset="false"><tag k="addr:street" v="Spring Lane"/><tag k="addr:housenumber" v="18309"/><tag k="coa:place_id" v="3222028"/></node><node id="-349" lat="30.516608" lon="-97.902747" changeset="false"><tag k="addr:street" v="Angel Valley Drive"/><tag k="addr:housenumber" v="18200"/><tag k="coa:place_id" v="3315405"/></node><node id="-350" lat="30.501313" lon="-97.914885" changeset="false"><tag k="addr:street" v="Crumley Creek Road"/><tag k="addr:housenumber" v="11526"/><tag k="coa:place_id" v="3329688"/></node><node id="-351" lat="30.494813" lon="-97.917598" changeset="false"><tag k="addr:street" v="Fair Lane"/><tag k="addr:housenumber" v="18203"/><tag k="coa:place_id" v="3197676"/></node><node id="-352" lat="30.501748" lon="-97.906223" changeset="false"><tag k="addr:street" v="Sandy Lane"/><tag k="addr:housenumber" v="17704"/><tag k="coa:place_id" v="3322525"/></node><node id="-353" lat="30.501029" lon="-97.906361" changeset="false"><tag k="addr:street" v="Cross Street"/><tag k="addr:housenumber" v="17703"/><tag k="coa:place_id" v="3322529"/></node><node id="-354" lat="30.501233" lon="-97.907977" changeset="false"><tag k="addr:street" v="Sandy Lane"/><tag k="addr:housenumber" v="17804"/><tag k="coa:place_id" v="3329586"/></node><node id="-355" lat="30.507216" lon="-97.902933" changeset="false"><tag k="addr:street" v="North Rim Drive"/><tag k="addr:housenumber" v="18109"/><tag k="coa:place_id" v="3205551"/></node><node id="-356" lat="30.499834" lon="-97.91566" changeset="false"><tag k="addr:street" v="Leander Street"/><tag k="addr:housenumber" v="11405"/><tag k="coa:place_id" v="3196821"/></node><node id="-357" lat="30.500601" lon="-97.916045" changeset="false"><tag k="addr:street" v="Bertram Street"/><tag k="addr:housenumber" v="11415"/><tag k="coa:place_id" v="3196804"/></node><node id="-358" lat="30.500902" lon="-97.916647" changeset="false"><tag k="addr:street" v="Roundrock Road"/><tag k="addr:housenumber" v="18312"/><tag k="coa:place_id" v="3196995"/></node><node id="-359" lat="30.49591" lon="-97.923365" changeset="false"><tag k="addr:street" v="1st Street,1100"/><tag k="addr:housenumber" v="10904"/><tag k="coa:place_id" v="3221641"/></node><node id="-360" lat="30.496199" lon="-97.923239" changeset="false"><tag k="addr:street" v="1st Street,1100"/><tag k="addr:housenumber" v="11002"/><tag k="coa:place_id" v="3221655"/></node><node id="-361" lat="30.495886" lon="-97.917493" changeset="false"><tag k="addr:street" v="Cedar Street"/><tag k="addr:housenumber" v="18206"/><tag k="coa:place_id" v="3197658"/></node><node id="-362" lat="30.495298" lon="-97.916964" changeset="false"><tag k="addr:street" v="Lakeside Drive"/><tag k="addr:housenumber" v="11101"/><tag k="coa:place_id" v="5078073"/></node><node id="-363" lat="30.475728" lon="-97.910006" changeset="false"><tag k="addr:street" v="Trails End Road"/><tag k="addr:housenumber" v="9902"/><tag k="coa:place_id" v="3198328"/></node><node id="-364" lat="30.500766" lon="-97.909093" changeset="false"><tag k="addr:street" v="Sandy Lane"/><tag k="addr:housenumber" v="17816"/><tag k="coa:place_id" v="3388860"/></node><node id="-365" lat="30.498061" lon="-97.918466" changeset="false"><tag k="addr:street" v="Redbud Lane"/><tag k="addr:housenumber" v="18303"/><tag k="coa:place_id" v="5098866"/></node><node id="-366" lat="30.514147" lon="-97.895394" changeset="false"><tag k="addr:street" v="Blue Canyon Cove"/><tag k="addr:housenumber" v="17020"/><tag k="coa:place_id" v="3204331"/></node><node id="-367" lat="30.496752" lon="-97.919832" changeset="false"><tag k="addr:street" v="5th Street"/><tag k="addr:housenumber" v="11102"/><tag k="coa:place_id" v="3202614"/></node><node id="-368" lat="30.496928" lon="-97.920546" changeset="false"><tag k="addr:street" v="4th Street"/><tag k="addr:housenumber" v="11104"/><tag k="coa:place_id" v="3202649"/></node><node id="-369" lat="30.488226" lon="-97.92252" changeset="false"><tag k="addr:street" v="Lakeside Drive"/><tag k="addr:housenumber" v="10302"/><tag k="coa:place_id" v="3222097"/></node><node id="-370" lat="30.506073" lon="-97.895875" changeset="false"><tag k="addr:street" v="North Rim Drive"/><tag k="addr:housenumber" v="17804"/><tag k="coa:place_id" v="3204720"/></node><node id="-371" lat="30.494751" lon="-97.922363" changeset="false"><tag k="addr:street" v="Georgetown Drive"/><tag k="addr:housenumber" v="18405"/><tag k="coa:place_id" v="3216399"/></node><node id="-372" lat="30.509009" lon="-97.896372" changeset="false"><tag k="addr:street" v="Canyon View"/><tag k="addr:housenumber" v="13116"/><tag k="coa:place_id" v="3204598"/></node><node id="-373" lat="30.495721" lon="-97.921416" changeset="false"><tag k="addr:street" v="3rd Street"/><tag k="addr:housenumber" v="11003"/><tag k="coa:place_id" v="3221606"/></node><node id="-374" lat="30.493611" lon="-97.917448" changeset="false"><tag k="addr:street" v="Travis Drive"/><tag k="addr:housenumber" v="10901"/><tag k="coa:place_id" v="3197750"/></node><node id="-375" lat="30.496037" lon="-97.920127" changeset="false"><tag k="addr:street" v="5th Street"/><tag k="addr:housenumber" v="11010"/><tag k="coa:place_id" v="3221764"/></node><node id="-376" lat="30.497951" lon="-97.918758" changeset="false"><tag k="addr:street" v="Redbud Lane"/><tag k="addr:housenumber" v="18307"/><tag k="coa:place_id" v="3197365"/></node><node id="-377" lat="30.496213" lon="-97.920094" changeset="false"><tag k="addr:street" v="5th Street"/><tag k="addr:housenumber" v="11012"/><tag k="coa:place_id" v="3221765"/></node><node id="-378" lat="30.494074" lon="-97.920225" changeset="false"><tag k="addr:street" v="6th Street"/><tag k="addr:housenumber" v="10900"/><tag k="coa:place_id" v="3221877"/></node><node id="-379" lat="30.491454" lon="-97.922382" changeset="false"><tag k="addr:street" v="Spring Lane"/><tag k="addr:housenumber" v="18306"/><tag k="coa:place_id" v="3222024"/></node><node id="-380" lat="30.502808" lon="-97.913618" changeset="false"><tag k="addr:street" v="Travis Street"/><tag k="addr:housenumber" v="11623"/><tag k="coa:place_id" v="3385968"/></node><node id="-381" lat="30.500393" lon="-97.906716" changeset="false"><tag k="addr:street" v="Cross Street"/><tag k="addr:housenumber" v="17711"/><tag k="coa:place_id" v="3329631"/></node><node id="-382" lat="30.496473" lon="-97.922336" changeset="false"><tag k="addr:street" v="2nd Street"/><tag k="addr:housenumber" v="11006"/><tag k="coa:place_id" v="3221627"/></node><node id="-383" lat="30.495459" lon="-97.923566" changeset="false"><tag k="addr:street" v="1st Street,1100"/><tag k="addr:housenumber" v="10800"/><tag k="coa:place_id" v="3221636"/></node><node id="-384" lat="30.497546" lon="-97.922964" changeset="false"><tag k="addr:street" v="Farm-to-Market Road 1431"/><tag k="addr:housenumber" v="18589"/><tag k="coa:place_id" v="3203484"/></node><node id="-385" lat="30.498251" lon="-97.922642" changeset="false"><tag k="addr:street" v="Farm-to-Market Road 1431"/><tag k="addr:housenumber" v="18579"/><tag k="coa:place_id" v="3203486"/></node><node id="-386" lat="30.499979" lon="-97.919462" changeset="false"><tag k="addr:street" v="East Lakeview Drive"/><tag k="addr:housenumber" v="18411"/><tag k="coa:place_id" v="3197196"/></node><node id="-387" lat="30.501462" lon="-97.918156" changeset="false"><tag k="addr:street" v="Roundrock Road"/><tag k="addr:housenumber" v="18405"/><tag k="coa:place_id" v="3197328"/></node><node id="-388" lat="30.496573" lon="-97.921539" changeset="false"><tag k="addr:street" v="3rd Street"/><tag k="addr:housenumber" v="11010"/><tag k="coa:place_id" v="3382001"/></node><node id="-389" lat="30.495384" lon="-97.922817" changeset="false"><tag k="addr:street" v="2nd Street"/><tag k="addr:housenumber" v="10802"/><tag k="coa:place_id" v="3221620"/></node><node id="-390" lat="30.482058" lon="-97.911716" changeset="false"><tag k="addr:street" v="Scenic Drive"/><tag k="addr:housenumber" v="10317"/><tag k="coa:place_id" v="1144835"/></node><node id="-391" lat="30.491881" lon="-97.902747" changeset="false"><tag k="addr:street" v="Trails End Road"/><tag k="addr:housenumber" v="11318"/><tag k="coa:place_id" v="1144875"/></node><node id="-392" lat="30.489656" lon="-97.914899" changeset="false"><tag k="addr:street" v="Beach Road"/><tag k="addr:housenumber" v="10700"/><tag k="coa:place_id" v="3050241"/></node><node id="-393" lat="30.484822" lon="-97.90513" changeset="false"><tag k="addr:street" v="Trails End Road"/><tag k="addr:housenumber" v="10708"/><tag k="coa:place_id" v="1144918"/></node><node id="-394" lat="30.497043" lon="-97.922406" changeset="false"><tag k="addr:street" v="1st Street,1100"/><tag k="addr:housenumber" v="11011"/><tag k="coa:place_id" v="3203275"/></node><node id="-395" lat="30.491951" lon="-97.910241" changeset="false"><tag k="addr:street" v="Johnson Road"/><tag k="addr:housenumber" v="11221"/><tag k="coa:place_id" v="1144876"/></node><node id="-396" lat="30.488443" lon="-97.907721" changeset="false"><tag k="addr:street" v="Johnson Road"/><tag k="addr:housenumber" v="11001"/><tag k="coa:place_id" v="1144909"/></node><node id="-397" lat="30.493485" lon="-97.899331" changeset="false"><tag k="addr:street" v="Johnson Road"/><tag k="addr:housenumber" v="11709"/><tag k="coa:place_id" v="1144864"/></node><node id="-398" lat="30.49347" lon="-97.907251" changeset="false"><tag k="addr:street" v="Johnson Road"/><tag k="addr:housenumber" v="11351"/><tag k="coa:place_id" v="1144865"/></node><node id="-399" lat="30.491317" lon="-97.901421" changeset="false"><tag k="addr:street" v="Trails End Road"/><tag k="addr:housenumber" v="11328"/><tag k="coa:place_id" v="1144885"/></node><node id="-400" lat="30.491581" lon="-97.900449" changeset="false"><tag k="addr:street" v="Trails End Road"/><tag k="addr:housenumber" v="11400"/><tag k="coa:place_id" v="1144879"/></node><node id="-401" lat="30.481061" lon="-97.906836" changeset="false"><tag k="addr:street" v="Trails End Road"/><tag k="addr:housenumber" v="10312"/><tag k="coa:place_id" v="1123707"/></node><node id="-402" lat="30.488303" lon="-97.905096" changeset="false"><tag k="addr:street" v="Trails End Road"/><tag k="addr:housenumber" v="11100"/><tag k="coa:place_id" v="1144910"/></node><node id="-403" lat="30.486344" lon="-97.916349" changeset="false"><tag k="addr:street" v="West Darleen Drive"/><tag k="addr:housenumber" v="10400"/><tag k="coa:place_id" v="219163"/></node><node id="-404" lat="30.492929" lon="-97.910357" changeset="false"><tag k="addr:street" v="Johnson Road"/><tag k="addr:housenumber" v="11300"/><tag k="coa:place_id" v="1144870"/></node><node id="-405" lat="30.497466" lon="-97.918181" changeset="false"><tag k="addr:street" v="Center Street"/><tag k="addr:housenumber" v="18307"/><tag k="coa:place_id" v="3197352"/></node><node id="-406" lat="30.497305" lon="-97.919885" changeset="false"><tag k="addr:street" v="4th Street"/><tag k="addr:housenumber" v="11109"/><tag k="coa:place_id" v="3202647"/></node><node id="-407" lat="30.505906" lon="-97.901557" changeset="false"><tag k="addr:street" v="North Rim Drive"/><tag k="addr:housenumber" v="18013"/><tag k="coa:place_id" v="3219542"/></node><node id="-408" lat="30.496091" lon="-97.922037" changeset="false"><tag k="addr:street" v="2nd Street"/><tag k="addr:housenumber" v="11003"/><tag k="coa:place_id" v="3221634"/></node><node id="-409" lat="30.494796" lon="-97.920242" changeset="false"><tag k="addr:street" v="5th Street"/><tag k="addr:housenumber" v="10909"/><tag k="coa:place_id" v="3221772"/></node><node id="-410" lat="30.494054" lon="-97.917647" changeset="false"><tag k="addr:street" v="Travis Drive"/><tag k="addr:housenumber" v="10907"/><tag k="coa:place_id" v="3197753"/></node><node id="-411" lat="30.498524" lon="-97.919109" changeset="false"><tag k="addr:street" v="Lake Oaks Drive"/><tag k="addr:housenumber" v="18314"/><tag k="coa:place_id" v="3197172"/></node><node id="-412" lat="30.501059" lon="-97.913747" changeset="false"><tag k="addr:street" v="Main Street"/><tag k="addr:housenumber" v="11520"/><tag k="coa:place_id" v="3331903"/></node><node id="-413" lat="30.494329" lon="-97.918944" changeset="false"><tag k="addr:street" v="Crestview Drive"/><tag k="addr:housenumber" v="10905"/><tag k="coa:place_id" v="3221870"/></node><node id="-414" lat="30.493071" lon="-97.917036" changeset="false"><tag k="addr:street" v="Lakeside Drive"/><tag k="addr:housenumber" v="10813"/><tag k="coa:place_id" v="3197702"/></node><node id="-415" lat="30.499328" lon="-97.916524" changeset="false"><tag k="addr:street" v="Lake Oaks Drive"/><tag k="addr:housenumber" v="18200"/><tag k="coa:place_id" v="3197096"/></node><node id="-416" lat="30.500135" lon="-97.920675" changeset="false"><tag k="addr:street" v="East Lakeview Drive"/><tag k="addr:housenumber" v="18503"/><tag k="coa:place_id" v="3197259"/></node><node id="-417" lat="30.500228" lon="-97.920962" changeset="false"><tag k="addr:street" v="East Lakeview Drive"/><tag k="addr:housenumber" v="18505"/><tag k="coa:place_id" v="3197261"/></node><node id="-418" lat="30.499547" lon="-97.918736" changeset="false"><tag k="addr:street" v="East Lake Terrace Drive,1100"/><tag k="addr:housenumber" v="18312"/><tag k="coa:place_id" v="3197270"/></node><node id="-419" lat="30.495183" lon="-97.917702" changeset="false"><tag k="addr:street" v="Fair Lane"/><tag k="addr:housenumber" v="18204"/><tag k="coa:place_id" v="3197677"/></node><node id="-420" lat="30.492118" lon="-97.923355" changeset="false"><tag k="addr:street" v="Farm-to-Market Road 1431"/><tag k="addr:housenumber" v="18655"/><tag k="coa:place_id" v="3221578"/></node><node id="-421" lat="30.499578" lon="-97.915644" changeset="false"><tag k="addr:street" v="Leander Street"/><tag k="addr:housenumber" v="11403"/><tag k="coa:place_id" v="3196820"/></node><node id="-422" lat="30.500527" lon="-97.918729" changeset="false"><tag k="addr:street" v="East Lakeview Drive"/><tag k="addr:housenumber" v="18406"/><tag k="coa:place_id" v="3196911"/></node><node id="-423" lat="30.498988" lon="-97.92046" changeset="false"><tag k="addr:street" v="East Lake Terrace Drive,1100"/><tag k="addr:housenumber" v="18407"/><tag k="coa:place_id" v="3197282"/></node><node id="-424" lat="30.490842" lon="-97.92321" changeset="false"><tag k="addr:street" v="Edna Road"/><tag k="addr:housenumber" v="18226"/><tag k="coa:place_id" v="3222036"/></node><node id="-425" lat="30.496959" lon="-97.918032" changeset="false"><tag k="addr:street" v="Ledge Street"/><tag k="addr:housenumber" v="18223"/><tag k="coa:place_id" v="3197494"/></node><node id="-426" lat="30.495685" lon="-97.923007" changeset="false"><tag k="addr:street" v="1st Street,1100"/><tag k="addr:housenumber" v="10903"/><tag k="coa:place_id" v="3221639"/></node><node id="-427" lat="30.496575" lon="-97.92262" changeset="false"><tag k="addr:street" v="1st Street,1100"/><tag k="addr:housenumber" v="11007"/><tag k="coa:place_id" v="3221658"/></node><node id="-428" lat="30.495641" lon="-97.923883" changeset="false"><tag k="addr:street" v="Farm-to-Market Road 1431"/><tag k="addr:housenumber" v="18617"/><tag k="coa:place_id" v="3221672"/></node></osm>