<?xml version="1.0" encoding="UTF-8"?><osm version="0.6" generator="github.com/aaronlidman/osm-and-geojson"><node id="-1" lat="30.218843" lon="-97.807945" changeset="false"><tag k="addr:street" v="West Gate Boulevard"/><tag k="addr:housenumber" v="5708"/><tag k="addr:postcode" v="78745"/></node><node id="-2" lat="30.217357" lon="-97.81317" changeset="false"><tag k="addr:street" v="London Drive"/><tag k="addr:housenumber" v="6001"/><tag k="addr:postcode" v="78745"/></node><node id="-3" lat="30.220497" lon="-97.808414" changeset="false"><tag k="addr:street" v="Bayton Loop"/><tag k="addr:housenumber" v="5616"/><tag k="addr:postcode" v="78745"/></node><node id="-4" lat="30.219928" lon="-97.807448" changeset="false"><tag k="addr:street" v="Burrough Cove"/><tag k="addr:housenumber" v="5613"/><tag k="addr:postcode" v="78745"/></node><node id="-5" lat="30.208806" lon="-97.81874" changeset="false"><tag k="addr:street" v="West William Cannon Drive"/><tag k="addr:housenumber" v="2910"/><tag k="addr:postcode" v="78745"/></node><node id="-6" lat="30.218699" lon="-97.808192" changeset="false"><tag k="addr:street" v="West Gate Boulevard"/><tag k="addr:housenumber" v="5716"/><tag k="addr:postcode" v="78745"/></node><node id="-7" lat="30.20876" lon="-97.817973" changeset="false"><tag k="addr:street" v="West William Cannon Drive"/><tag k="addr:housenumber" v="2800"/><tag k="addr:postcode" v="78745"/></node><node id="-8" lat="30.217549" lon="-97.813649" changeset="false"><tag k="addr:street" v="London Drive"/><tag k="addr:housenumber" v="6010"/><tag k="addr:postcode" v="78745"/></node><node id="-9" lat="30.221169" lon="-97.807762" changeset="false"><tag k="addr:street" v="Bayton Loop"/><tag k="addr:housenumber" v="5601"/><tag k="addr:postcode" v="78745"/></node><node id="-10" lat="30.220888" lon="-97.808288" changeset="false"><tag k="addr:street" v="Bayton Loop"/><tag k="addr:housenumber" v="5615"/><tag k="addr:postcode" v="78745"/></node><node id="-11" lat="30.221153" lon="-97.80805" changeset="false"><tag k="addr:street" v="Bayton Loop"/><tag k="addr:housenumber" v="5603"/><tag k="addr:postcode" v="78745"/></node><node id="-12" lat="30.217743" lon="-97.813169" changeset="false"><tag k="addr:street" v="London Drive"/><tag k="addr:housenumber" v="6004"/><tag k="addr:postcode" v="78745"/></node><node id="-13" lat="30.217739" lon="-97.812947" changeset="false"><tag k="addr:street" v="London Drive"/><tag k="addr:housenumber" v="6000"/><tag k="addr:postcode" v="78745"/></node><node id="-14" lat="30.220445" lon="-97.80818" changeset="false"><tag k="addr:street" v="Bayton Loop"/><tag k="addr:housenumber" v="5618"/><tag k="addr:postcode" v="78745"/></node><node id="-15" lat="30.21459" lon="-97.816676" changeset="false"><tag k="addr:street" v="Headly Drive"/><tag k="addr:housenumber" v="2910"/><tag k="addr:postcode" v="78745"/></node><node id="-16" lat="30.220431" lon="-97.807302" changeset="false"><tag k="addr:street" v="Burrough Cove"/><tag k="addr:housenumber" v="5609"/><tag k="addr:postcode" v="78745"/></node><node id="-17" lat="30.221662" lon="-97.807261" changeset="false"><tag k="addr:street" v="Bayton Loop"/><tag k="addr:housenumber" v="5600"/><tag k="addr:postcode" v="78745"/></node><node id="-18" lat="30.217449" lon="-97.810352" changeset="false"><tag k="addr:street" v="West Gate Boulevard"/><tag k="addr:housenumber" v="5912"/><tag k="addr:postcode" v="78745"/></node><node id="-19" lat="30.220669" lon="-97.807248" changeset="false"><tag k="addr:street" v="Burrough Cove"/><tag k="addr:housenumber" v="5607"/><tag k="addr:postcode" v="78745"/></node><node id="-20" lat="30.212022" lon="-97.817176" changeset="false"><tag k="addr:street" v="Dillionhill Drive"/><tag k="addr:housenumber" v="2916"/><tag k="addr:postcode" v="78745"/></node><node id="-21" lat="30.217318" lon="-97.810787" changeset="false"><tag k="addr:street" v="West Gate Boulevard"/><tag k="addr:housenumber" v="6002"/><tag k="addr:postcode" v="78745"/></node><node id="-22" lat="30.20841" lon="-97.816918" changeset="false"><tag k="addr:street" v="West William Cannon Drive"/><tag k="addr:housenumber" v="2716"/><tag k="addr:postcode" v="78745"/></node><node id="-23" lat="30.22019" lon="-97.807334" changeset="false"><tag k="addr:street" v="Burrough Cove"/><tag k="addr:housenumber" v="5611"/><tag k="addr:postcode" v="78745"/></node><node id="-24" lat="30.221523" lon="-97.808305" changeset="false"><tag k="addr:street" v="Bayton Loop"/><tag k="addr:housenumber" v="5606"/><tag k="addr:postcode" v="78745"/></node><node id="-25" lat="30.221424" lon="-97.80705" changeset="false"><tag k="addr:street" v="Burrough Cove"/><tag k="addr:housenumber" v="5601"/><tag k="addr:postcode" v="78745"/></node><node id="-26" lat="30.219668" lon="-97.807675" changeset="false"><tag k="addr:street" v="Cherry Creek Drive"/><tag k="addr:housenumber" v="5700"/><tag k="addr:postcode" v="78745"/></node><node id="-27" lat="30.220808" lon="-97.807731" changeset="false"><tag k="addr:street" v="Bayton Loop"/><tag k="addr:housenumber" v="5619"/><tag k="addr:postcode" v="78745"/></node><node id="-28" lat="30.220843" lon="-97.807984" changeset="false"><tag k="addr:street" v="Bayton Loop"/><tag k="addr:housenumber" v="5617"/><tag k="addr:postcode" v="78745"/></node><node id="-29" lat="30.212216" lon="-97.823971" changeset="false"><tag k="addr:street" v="Rearden Road"/><tag k="addr:housenumber" v="6813"/><tag k="addr:postcode" v="78745"/></node><node id="-30" lat="30.208416" lon="-97.81794" changeset="false"><tag k="addr:street" v="Deatonhill Drive"/><tag k="addr:housenumber" v="6902"/><tag k="addr:postcode" v="78745"/></node><node id="-31" lat="30.218557" lon="-97.80839" changeset="false"><tag k="addr:street" v="West Gate Boulevard"/><tag k="addr:housenumber" v="5800"/><tag k="addr:postcode" v="78745"/></node><node id="-32" lat="30.216768" lon="-97.812513" changeset="false"><tag k="addr:street" v="London Drive"/><tag k="addr:housenumber" v="5901"/><tag k="addr:postcode" v="78745"/></node><node id="-33" lat="30.217617" lon="-97.812866" changeset="false"><tag k="addr:street" v="London Drive"/><tag k="addr:housenumber" v="5908"/><tag k="addr:postcode" v="78745"/></node><node id="-34" lat="30.220911" lon="-97.807223" changeset="false"><tag k="addr:street" v="Burrough Cove"/><tag k="addr:housenumber" v="5605"/><tag k="addr:postcode" v="78745"/></node><node id="-35" lat="30.220859" lon="-97.808773" changeset="false"><tag k="addr:street" v="Bayton Loop"/><tag k="addr:housenumber" v="5612"/><tag k="addr:postcode" v="78745"/></node><node id="-36" lat="30.218071" lon="-97.808864" changeset="false"><tag k="addr:street" v="West Gate Boulevard"/><tag k="addr:housenumber" v="5818"/><tag k="addr:postcode" v="78745"/></node><node id="-37" lat="30.214978" lon="-97.815874" changeset="false"><tag k="addr:street" v="London Drive"/><tag k="addr:housenumber" v="6301"/><tag k="addr:postcode" v="78745"/></node><node id="-38" lat="30.220407" lon="-97.807765" changeset="false"><tag k="addr:street" v="Burrough Cove"/><tag k="addr:housenumber" v="5610"/><tag k="addr:postcode" v="78745"/></node><node id="-39" lat="30.221176" lon="-97.807146" changeset="false"><tag k="addr:street" v="Burrough Cove"/><tag k="addr:housenumber" v="5603"/><tag k="addr:postcode" v="78745"/></node><node id="-40" lat="30.217144" lon="-97.812401" changeset="false"><tag k="addr:street" v="London Drive"/><tag k="addr:housenumber" v="5904"/><tag k="addr:postcode" v="78745"/></node><node id="-41" lat="30.219187" lon="-97.80789" changeset="false"><tag k="addr:street" v="Cherry Creek Drive"/><tag k="addr:housenumber" v="5615"/><tag k="addr:postcode" v="78745"/></node><node id="-42" lat="30.219572" lon="-97.807241" changeset="false"><tag k="addr:street" v="Cherry Creek Drive"/><tag k="addr:housenumber" v="5600"/><tag k="addr:postcode" v="78745"/></node><node id="-43" lat="30.220598" lon="-97.808666" changeset="false"><tag k="addr:street" v="Bayton Loop"/><tag k="addr:housenumber" v="5614"/><tag k="addr:postcode" v="78745"/></node><node id="-44" lat="30.210423" lon="-97.817115" changeset="false"><tag k="addr:street" v="Lancret Hill Drive"/><tag k="addr:housenumber" v="6722"/><tag k="addr:postcode" v="78745"/></node><node id="-45" lat="30.221572" lon="-97.807983" changeset="false"><tag k="addr:street" v="Bayton Loop"/><tag k="addr:housenumber" v="5604"/><tag k="addr:postcode" v="78745"/></node><node id="-46" lat="30.217613" lon="-97.813488" changeset="false"><tag k="addr:street" v="London Drive"/><tag k="addr:housenumber" v="6008"/><tag k="addr:postcode" v="78745"/></node><node id="-47" lat="30.221305" lon="-97.80852" changeset="false"><tag k="addr:street" v="Bayton Loop"/><tag k="addr:housenumber" v="5608"/><tag k="addr:postcode" v="78745"/></node><node id="-48" lat="30.22111" lon="-97.808687" changeset="false"><tag k="addr:street" v="Bayton Loop"/><tag k="addr:housenumber" v="5610"/><tag k="addr:postcode" v="78745"/></node><node id="-49" lat="30.221599" lon="-97.807697" changeset="false"><tag k="addr:street" v="Bayton Loop"/><tag k="addr:housenumber" v="5602"/><tag k="addr:postcode" v="78745"/></node><node id="-50" lat="30.220179" lon="-97.807789" changeset="false"><tag k="addr:street" v="Burrough Cove"/><tag k="addr:housenumber" v="5612"/><tag k="addr:postcode" v="78745"/></node><node id="-51" lat="30.215072" lon="-97.815873" changeset="false"><tag k="addr:street" v="London Drive"/><tag k="addr:housenumber" v="6215"/><tag k="addr:postcode" v="78745"/></node></osm>