<?xml version="1.0" encoding="UTF-8"?><osm version="0.6" generator="github.com/aaronlidman/osm-and-geojson"><node id="-1" lat="30.380797" lon="-97.85275" changeset="false"><tag k="addr:street" v="River Place Boulevard"/><tag k="addr:housenumber" v="5410"/><tag k="addr:postcode" v="78730"/></node><node id="-2" lat="30.369046" lon="-97.891337" changeset="false"><tag k="addr:street" v="North Quinlan Park Road"/><tag k="addr:housenumber" v="3001 1/2"/><tag k="addr:postcode" v="78732"/></node><node id="-3" lat="30.398729" lon="-97.850602" changeset="false"><tag k="addr:street" v="Ranch to Market Road 2222"/><tag k="addr:housenumber" v="11121"/><tag k="addr:postcode" v="78730"/></node><node id="-4" lat="30.38246" lon="-97.890075" changeset="false"><tag k="addr:street" v="Canyon Glen Circle"/><tag k="addr:housenumber" v="3926"/><tag k="addr:postcode" v="78732"/></node><node id="-5" lat="30.382401" lon="-97.887579" changeset="false"><tag k="addr:street" v="Canyon Glen Circle"/><tag k="addr:housenumber" v="4309"/><tag k="addr:postcode" v="78732"/></node><node id="-6" lat="30.382236" lon="-97.888029" changeset="false"><tag k="addr:street" v="Gazley Lane"/><tag k="addr:housenumber" v="4129"/><tag k="addr:postcode" v="78732"/></node><node id="-7" lat="30.376534" lon="-97.879914" changeset="false"><tag k="addr:street" v="Via Colina Drive"/><tag k="addr:housenumber" v="4109"/><tag k="addr:postcode" v="78732"/></node><node id="-8" lat="30.390839" lon="-97.884481" changeset="false"><tag k="addr:street" v="Marshall Ford Road"/><tag k="addr:housenumber" v="5124"/><tag k="addr:postcode" v="78732"/></node><node id="-9" lat="30.40003" lon="-97.851853" changeset="false"><tag k="addr:street" v="Ranch to Market Road 2222"/><tag k="addr:housenumber" v="11213"/><tag k="addr:postcode" v="78730"/></node><node id="-10" lat="30.333907" lon="-97.926879" changeset="false"><tag k="addr:street" v="North Lakeland Drive"/><tag k="addr:housenumber" v="12906"/><tag k="addr:postcode" v="78732"/></node><node id="-11" lat="30.363154" lon="-97.887498" changeset="false"><tag k="addr:street" v="University Club Drive"/><tag k="addr:housenumber" v="2710 1/2"/><tag k="addr:postcode" v="78732"/></node><node id="-12" lat="30.347208" lon="-97.875665" changeset="false"><tag k="addr:street" v="Big View Drive"/><tag k="addr:housenumber" v="7913"/><tag k="addr:postcode" v="78732"/></node><node id="-13" lat="30.380283" lon="-97.885532" changeset="false"><tag k="addr:street" v="Canyon Glen Circle"/><tag k="addr:housenumber" v="4177"/><tag k="addr:postcode" v="78732"/></node><node id="-14" lat="30.380152" lon="-97.887484" changeset="false"><tag k="addr:street" v="Canyon Glen Circle"/><tag k="addr:housenumber" v="4117"/><tag k="addr:postcode" v="78732"/></node><node id="-15" lat="30.330991" lon="-97.929518" changeset="false"><tag k="addr:street" v="West Lakeland Drive"/><tag k="addr:housenumber" v="1506"/><tag k="addr:postcode" v="78732"/></node><node id="-16" lat="30.35709" lon="-97.890009" changeset="false"><tag k="addr:street" v="University Club Drive"/><tag k="addr:housenumber" v="2313"/><tag k="addr:postcode" v="78732"/></node><node id="-17" lat="30.357401" lon="-97.903099" changeset="false"><tag k="addr:street" v="Capella Trail"/><tag k="addr:housenumber" v="12317 1/2"/><tag k="addr:postcode" v="78732"/></node><node id="-18" lat="30.330145" lon="-97.923049" changeset="false"><tag k="addr:street" v="Mixson Drive"/><tag k="addr:housenumber" v="12604"/><tag k="addr:postcode" v="78732"/></node><node id="-19" lat="30.381574" lon="-97.891741" changeset="false"><tag k="addr:street" v="Mc Nelly Trail"/><tag k="addr:housenumber" v="12800"/><tag k="addr:postcode" v="78732"/></node><node id="-20" lat="30.377564" lon="-97.890782" changeset="false"><tag k="addr:street" v="Epperson Trail"/><tag k="addr:housenumber" v="3704"/><tag k="addr:postcode" v="78732"/></node><node id="-21" lat="30.378028" lon="-97.883654" changeset="false"><tag k="addr:street" v="North Quinlan Park Road"/><tag k="addr:housenumber" v="4001"/><tag k="addr:postcode" v="78732"/></node><node id="-22" lat="30.382043" lon="-97.89623" changeset="false"><tag k="addr:street" v="Medina River Way"/><tag k="addr:housenumber" v="13008"/><tag k="addr:postcode" v="78732"/></node><node id="-23" lat="30.382109" lon="-97.853319" changeset="false"><tag k="addr:street" v="Merrywing Circle"/><tag k="addr:housenumber" v="5502"/><tag k="addr:postcode" v="78730"/></node><node id="-24" lat="30.355475" lon="-97.891282" changeset="false"><tag k="addr:street" v="Eagles Glen Drive"/><tag k="addr:housenumber" v="11904"/><tag k="addr:postcode" v="78732"/></node><node id="-25" lat="30.358537" lon="-97.887702" changeset="false"><tag k="addr:street" v="Hunters Green Court"/><tag k="addr:housenumber" v="2413"/><tag k="addr:postcode" v="78732"/></node><node id="-26" lat="30.332502" lon="-97.931843" changeset="false"><tag k="addr:street" v="Shore Vista Drive"/><tag k="addr:housenumber" v="13400 1/2"/><tag k="addr:postcode" v="78732"/></node><node id="-27" lat="30.372616" lon="-97.886319" changeset="false"><tag k="addr:street" v="North Quinlan Park Road"/><tag k="addr:housenumber" v="3501"/><tag k="addr:postcode" v="78732"/></node><node id="-28" lat="30.332398" lon="-97.922557" changeset="false"><tag k="addr:street" v="Terjo Lane"/><tag k="addr:housenumber" v="1109"/><tag k="addr:postcode" v="78732"/></node><node id="-29" lat="30.377488" lon="-97.879902" changeset="false"><tag k="addr:street" v="Via Colina Drive"/><tag k="addr:housenumber" v="4130 1/2"/><tag k="addr:postcode" v="78732"/></node><node id="-30" lat="30.336583" lon="-97.905231" changeset="false"><tag k="addr:street" v="Selma Hughes Park Road"/><tag k="addr:housenumber" v="12017"/><tag k="addr:postcode" v="78732"/></node><node id="-31" lat="30.355171" lon="-97.903738" changeset="false"><tag k="addr:street" v="Capitol Saddlery Trail"/><tag k="addr:housenumber" v="12500"/><tag k="addr:postcode" v="78732"/></node><node id="-32" lat="30.331553" lon="-97.928084" changeset="false"><tag k="addr:street" v="East Lakeland Drive"/><tag k="addr:housenumber" v="1404"/><tag k="addr:postcode" v="78732"/></node><node id="-33" lat="30.331366" lon="-97.931781" changeset="false"><tag k="addr:street" v="Shore Vista Drive"/><tag k="addr:housenumber" v="13422"/><tag k="addr:postcode" v="78732"/></node><node id="-34" lat="30.330283" lon="-97.922641" changeset="false"><tag k="addr:street" v="River Ridge Drive"/><tag k="addr:housenumber" v="1302"/><tag k="addr:postcode" v="78732"/></node><node id="-35" lat="30.341279" lon="-97.904648" changeset="false"><tag k="addr:street" v="Palisades Parkway"/><tag k="addr:housenumber" v="11917"/><tag k="addr:postcode" v="78732"/></node><node id="-36" lat="30.339028" lon="-97.918163" changeset="false"><tag k="addr:street" v="Santaluz Path"/><tag k="addr:housenumber" v="700"/><tag k="addr:postcode" v="78732"/></node><node id="-37" lat="30.341697" lon="-97.903201" changeset="false"><tag k="addr:street" v="Piedmont Hills Pass"/><tag k="addr:housenumber" v="108"/><tag k="addr:postcode" v="78732"/></node><node id="-38" lat="30.342741" lon="-97.908574" changeset="false"><tag k="addr:street" v="Edenvale Path"/><tag k="addr:housenumber" v="12312"/><tag k="addr:postcode" v="78732"/></node><node id="-39" lat="30.351513" lon="-97.869923" changeset="false"><tag k="addr:street" v="Big View Drive"/><tag k="addr:housenumber" v="8301"/><tag k="addr:postcode" v="78732"/></node><node id="-40" lat="30.342278" lon="-97.918592" changeset="false"><tag k="addr:street" v="Santaluz Lane"/><tag k="addr:housenumber" v="333"/><tag k="addr:postcode" v="78732"/></node><node id="-41" lat="30.363172" lon="-97.893422" changeset="false"><tag k="addr:street" v="Fairway Cove"/><tag k="addr:housenumber" v="12213"/><tag k="addr:postcode" v="78732"/></node><node id="-42" lat="30.341639" lon="-97.90371" changeset="false"><tag k="addr:street" v="Palisades Parkway"/><tag k="addr:housenumber" v="11912"/><tag k="addr:postcode" v="78732"/></node><node id="-43" lat="30.364035" lon="-97.893809" changeset="false"><tag k="addr:street" v="Fairway Cove"/><tag k="addr:housenumber" v="12237"/><tag k="addr:postcode" v="78732"/></node><node id="-44" lat="30.363677" lon="-97.89324" changeset="false"><tag k="addr:street" v="Fairway Cove"/><tag k="addr:housenumber" v="12220"/><tag k="addr:postcode" v="78732"/></node><node id="-45" lat="30.364099" lon="-97.893415" changeset="false"><tag k="addr:street" v="Fairway Cove"/><tag k="addr:housenumber" v="12232"/><tag k="addr:postcode" v="78732"/></node><node id="-46" lat="30.364195" lon="-97.893854" changeset="false"><tag k="addr:street" v="Fairway Cove"/><tag k="addr:housenumber" v="12301"/><tag k="addr:postcode" v="78732"/></node><node id="-47" lat="30.364897" lon="-97.893832" changeset="false"><tag k="addr:street" v="Fairway Cove"/><tag k="addr:housenumber" v="12317"/><tag k="addr:postcode" v="78732"/></node><node id="-48" lat="30.401521" lon="-97.853734" changeset="false"><tag k="addr:street" v="Ranch Road 620"/><tag k="addr:housenumber" v="6905"/><tag k="addr:postcode" v="78730"/></node><node id="-49" lat="30.382684" lon="-97.873911" changeset="false"><tag k="addr:street" v="Steiner Ranch Boulevard"/><tag k="addr:housenumber" v="4800"/><tag k="addr:postcode" v="78732"/></node><node id="-50" lat="30.33354" lon="-97.924261" changeset="false"><tag k="addr:street" v="South Quinlan Park Road"/><tag k="addr:housenumber" v="1010"/><tag k="addr:postcode" v="78732"/></node><node id="-51" lat="30.332154" lon="-97.924851" changeset="false"><tag k="addr:street" v="South Quinlan Park Road"/><tag k="addr:housenumber" v="1104"/><tag k="addr:postcode" v="78732"/></node><node id="-52" lat="30.364188" lon="-97.892312" changeset="false"><tag k="addr:street" v="Long Bay Cove"/><tag k="addr:housenumber" v="12216"/><tag k="addr:postcode" v="78732"/></node><node id="-53" lat="30.342259" lon="-97.902989" changeset="false"><tag k="addr:street" v="Piedmont Hills Pass"/><tag k="addr:housenumber" v="117"/><tag k="addr:postcode" v="78732"/></node><node id="-54" lat="30.368597" lon="-97.862866" changeset="false"><tag k="addr:street" v="Love Bird Lane"/><tag k="addr:housenumber" v="4101"/><tag k="addr:postcode" v="78730"/></node><node id="-55" lat="30.382094" lon="-97.888054" changeset="false"><tag k="addr:street" v="Gazley Lane"/><tag k="addr:housenumber" v="4125"/><tag k="addr:postcode" v="78732"/></node><node id="-56" lat="30.38205" lon="-97.887784" changeset="false"><tag k="addr:street" v="Canyon Glen Circle"/><tag k="addr:housenumber" v="4308"/><tag k="addr:postcode" v="78732"/></node><node id="-57" lat="30.362103" lon="-97.899866" changeset="false"><tag k="addr:street" v="North Quinlan Park Road"/><tag k="addr:housenumber" v="2311 1/2"/><tag k="addr:postcode" v="78732"/></node><node id="-58" lat="30.353276" lon="-97.904164" changeset="false"><tag k="addr:street" v="Cavalry Ride Trail"/><tag k="addr:housenumber" v="916"/><tag k="addr:postcode" v="78732"/></node><node id="-59" lat="30.394066" lon="-97.867359" changeset="false"><tag k="addr:street" v="Steiner Ranch Boulevard"/><tag k="addr:housenumber" v="5810"/><tag k="addr:postcode" v="78732"/></node><node id="-60" lat="30.380063" lon="-97.853143" changeset="false"><tag k="addr:street" v="River Place Boulevard"/><tag k="addr:housenumber" v="5400"/><tag k="addr:postcode" v="78730"/></node><node id="-61" lat="30.357481" lon="-97.889439" changeset="false"><tag k="addr:street" v="University Club Drive"/><tag k="addr:housenumber" v="2325"/><tag k="addr:postcode" v="78732"/></node><node id="-62" lat="30.366446" lon="-97.861416" changeset="false"><tag k="addr:street" v="Love Bird Lane"/><tag k="addr:housenumber" v="4000"/><tag k="addr:postcode" v="78730"/></node><node id="-63" lat="30.332528" lon="-97.926204" changeset="false"><tag k="addr:street" v="Minnie Drive"/><tag k="addr:housenumber" v="1204"/><tag k="addr:postcode" v="78732"/></node><node id="-64" lat="30.328351" lon="-97.925658" changeset="false"><tag k="addr:street" v="West Lane"/><tag k="addr:housenumber" v="1601"/><tag k="addr:postcode" v="78732"/></node><node id="-65" lat="30.384097" lon="-97.883595" changeset="false"><tag k="addr:street" v="North Quinlan Park Road"/><tag k="addr:housenumber" v="4330"/><tag k="addr:postcode" v="78732"/></node><node id="-66" lat="30.355585" lon="-97.908939" changeset="false"><tag k="addr:street" v="North Quinlan Park Road"/><tag k="addr:housenumber" v="1007 1/2"/><tag k="addr:postcode" v="78732"/></node><node id="-67" lat="30.330187" lon="-97.928844" changeset="false"><tag k="addr:street" v="River Bend"/><tag k="addr:housenumber" v="12917"/><tag k="addr:postcode" v="78732"/></node><node id="-68" lat="30.381294" lon="-97.88619" changeset="false"><tag k="addr:street" v="Canyon Glen Circle"/><tag k="addr:housenumber" v="4226"/><tag k="addr:postcode" v="78732"/></node><node id="-69" lat="30.360849" lon="-97.901297" changeset="false"><tag k="addr:street" v="North Quinlan Park Road"/><tag k="addr:housenumber" v="2101"/><tag k="addr:postcode" v="78732"/></node><node id="-70" lat="30.350157" lon="-97.904085" changeset="false"><tag k="addr:street" v="Horseback Hollow"/><tag k="addr:housenumber" v="221"/><tag k="addr:postcode" v="78732"/></node><node id="-71" lat="30.33456" lon="-97.933103" changeset="false"><tag k="addr:street" v="Shore Vista Drive"/><tag k="addr:housenumber" v="13300"/><tag k="addr:postcode" v="78732"/></node><node id="-72" lat="30.333349" lon="-97.933074" changeset="false"><tag k="addr:street" v="Shore Vista Drive"/><tag k="addr:housenumber" v="13322"/><tag k="addr:postcode" v="78732"/></node><node id="-73" lat="30.330588" lon="-97.920755" changeset="false"><tag k="addr:street" v="Terjo Lane"/><tag k="addr:housenumber" v="1203"/><tag k="addr:postcode" v="78732"/></node><node id="-74" lat="30.330724" lon="-97.926584" changeset="false"><tag k="addr:street" v="Minnie Drive"/><tag k="addr:housenumber" v="1403"/><tag k="addr:postcode" v="78732"/></node><node id="-75" lat="30.346017" lon="-97.910396" changeset="false"><tag k="addr:street" v="Calistoga Way"/><tag k="addr:housenumber" v="12400 1/2"/><tag k="addr:postcode" v="78732"/></node><node id="-76" lat="30.385333" lon="-97.851613" changeset="false"><tag k="addr:street" v="Brittlyns Court"/><tag k="addr:housenumber" v="5820"/><tag k="addr:postcode" v="78730"/></node><node id="-77" lat="30.382276" lon="-97.88968" changeset="false"><tag k="addr:street" v="Seldalia Trail"/><tag k="addr:housenumber" v="4104"/><tag k="addr:postcode" v="78732"/></node><node id="-78" lat="30.381332" lon="-97.894862" changeset="false"><tag k="addr:street" v="Medina River Way"/><tag k="addr:housenumber" v="12916"/><tag k="addr:postcode" v="78732"/></node><node id="-79" lat="30.384913" lon="-97.851829" changeset="false"><tag k="addr:street" v="Brittlyns Court"/><tag k="addr:housenumber" v="5808"/><tag k="addr:postcode" v="78730"/></node><node id="-80" lat="30.380631" lon="-97.891693" changeset="false"><tag k="addr:street" v="Wharton Court"/><tag k="addr:housenumber" v="3902"/><tag k="addr:postcode" v="78732"/></node><node id="-81" lat="30.331135" lon="-97.923266" changeset="false"><tag k="addr:street" v="Summit Edge Drive"/><tag k="addr:housenumber" v="1204"/><tag k="addr:postcode" v="78732"/></node><node id="-82" lat="30.377505" lon="-97.854428" changeset="false"><tag k="addr:street" v="Eagle Trace Trail"/><tag k="addr:housenumber" v="5120"/><tag k="addr:postcode" v="78730"/></node><node id="-83" lat="30.336105" lon="-97.928576" changeset="false"><tag k="addr:street" v="Shore Vista Drive"/><tag k="addr:housenumber" v="13104 1/2"/><tag k="addr:postcode" v="78732"/></node><node id="-84" lat="30.333824" lon="-97.923654" changeset="false"><tag k="addr:street" v="South Quinlan Park Road"/><tag k="addr:housenumber" v="1006"/><tag k="addr:postcode" v="78732"/></node><node id="-85" lat="30.333135" lon="-97.923712" changeset="false"><tag k="addr:street" v="South Quinlan Park Road"/><tag k="addr:housenumber" v="1015"/><tag k="addr:postcode" v="78732"/></node><node id="-86" lat="30.380674" lon="-97.888615" changeset="false"><tag k="addr:street" v="Canyon Glen Circle"/><tag k="addr:housenumber" v="4041"/><tag k="addr:postcode" v="78732"/></node><node id="-87" lat="30.359614" lon="-97.8874" changeset="false"><tag k="addr:street" v="Woodland Hills Trail"/><tag k="addr:housenumber" v="11216"/><tag k="addr:postcode" v="78732"/></node><node id="-88" lat="30.381991" lon="-97.853871" changeset="false"><tag k="addr:street" v="Merrywing Circle"/><tag k="addr:housenumber" v="5424"/><tag k="addr:postcode" v="78730"/></node><node id="-89" lat="30.382088" lon="-97.889185" changeset="false"><tag k="addr:street" v="Seldalia Trail"/><tag k="addr:housenumber" v="4109"/><tag k="addr:postcode" v="78732"/></node><node id="-90" lat="30.357472" lon="-97.889082" changeset="false"><tag k="addr:street" v="Hunters Green Trail"/><tag k="addr:housenumber" v="11721"/><tag k="addr:postcode" v="78732"/></node><node id="-91" lat="30.357256" lon="-97.886972" changeset="false"><tag k="addr:street" v="Hunters Green Trail"/><tag k="addr:housenumber" v="11601"/><tag k="addr:postcode" v="78732"/></node><node id="-92" lat="30.38229" lon="-97.884425" changeset="false"><tag k="addr:street" v="North Quinlan Park Road"/><tag k="addr:housenumber" v="4302"/><tag k="addr:postcode" v="78732"/></node><node id="-93" lat="30.35031" lon="-97.912015" changeset="false"><tag k="addr:street" v="North Quinlan Park Road"/><tag k="addr:housenumber" v="501"/><tag k="addr:postcode" v="78732"/></node><node id="-94" lat="30.3707" lon="-97.862525" changeset="false"><tag k="addr:street" v="Range View Drive"/><tag k="addr:housenumber" v="10813"/><tag k="addr:postcode" v="78730"/></node><node id="-95" lat="30.382527" lon="-97.887855" changeset="false"><tag k="addr:street" v="Canyon Glen Circle"/><tag k="addr:housenumber" v="4317"/><tag k="addr:postcode" v="78732"/></node><node id="-96" lat="30.400465" lon="-97.851863" changeset="false"><tag k="addr:street" v="Ranch to Market Road 2222"/><tag k="addr:housenumber" v="11219"/><tag k="addr:postcode" v="78730"/></node><node id="-97" lat="30.390774" lon="-97.884516" changeset="false"><tag k="addr:street" v="Marshall Ford Road"/><tag k="addr:housenumber" v="5128"/><tag k="addr:postcode" v="78732"/></node><node id="-98" lat="30.390742" lon="-97.884533" changeset="false"><tag k="addr:street" v="Marshall Ford Road"/><tag k="addr:housenumber" v="5130"/><tag k="addr:postcode" v="78732"/></node><node id="-99" lat="30.3784" lon="-97.891599" changeset="false"><tag k="addr:street" v="Grierson Trail"/><tag k="addr:housenumber" v="12606"/><tag k="addr:postcode" v="78732"/></node><node id="-100" lat="30.368991" lon="-97.891503" changeset="false"><tag k="addr:street" v="University Club Drive"/><tag k="addr:housenumber" v="3225 1/2"/><tag k="addr:postcode" v="78732"/></node><node id="-101" lat="30.367908" lon="-97.891662" changeset="false"><tag k="addr:street" v="University Club Drive"/><tag k="addr:housenumber" v="3200"/><tag k="addr:postcode" v="78732"/></node><node id="-102" lat="30.331778" lon="-97.921401" changeset="false"><tag k="addr:street" v="Terjo Lane"/><tag k="addr:housenumber" v="1117"/><tag k="addr:postcode" v="78732"/></node><node id="-103" lat="30.375823" lon="-97.854486" changeset="false"><tag k="addr:street" v="River Place Boulevard"/><tag k="addr:housenumber" v="4902"/><tag k="addr:postcode" v="78730"/></node><node id="-104" lat="30.331639" lon="-97.926034" changeset="false"><tag k="addr:street" v="Lucile Road"/><tag k="addr:housenumber" v="10806"/><tag k="addr:postcode" v="78732"/></node><node id="-105" lat="30.330867" lon="-97.921" changeset="false"><tag k="addr:street" v="Terjo Lane"/><tag k="addr:housenumber" v="1201"/><tag k="addr:postcode" v="78732"/></node><node id="-106" lat="30.330581" lon="-97.925322" changeset="false"><tag k="addr:street" v="South Quinlan Park Road"/><tag k="addr:housenumber" v="1305"/><tag k="addr:postcode" v="78732"/></node><node id="-107" lat="30.372535" lon="-97.883479" changeset="false"><tag k="addr:street" v="Portobella Drive"/><tag k="addr:housenumber" v="12009"/><tag k="addr:postcode" v="78732"/></node><node id="-108" lat="30.332724" lon="-97.926089" changeset="false"><tag k="addr:street" v="Minnie Drive"/><tag k="addr:housenumber" v="1202"/><tag k="addr:postcode" v="78732"/></node><node id="-109" lat="30.352301" lon="-97.867818" changeset="false"><tag k="addr:street" v="Big View Drive"/><tag k="addr:housenumber" v="8500"/><tag k="addr:postcode" v="78732"/></node><node id="-110" lat="30.36662" lon="-97.888709" changeset="false"><tag k="addr:street" v="University Club Drive"/><tag k="addr:housenumber" v="2921"/><tag k="addr:postcode" v="78732"/></node><node id="-111" lat="30.366052" lon="-97.894996" changeset="false"><tag k="addr:street" v="North Quinlan Park Road"/><tag k="addr:housenumber" v="2701 1/2"/><tag k="addr:postcode" v="78732"/></node><node id="-112" lat="30.329434" lon="-97.924743" changeset="false"><tag k="addr:street" v="River Bend"/><tag k="addr:housenumber" v="12700"/><tag k="addr:postcode" v="78732"/></node><node id="-113" lat="30.332764" lon="-97.932828" changeset="false"><tag k="addr:street" v="Shore Vista Drive"/><tag k="addr:housenumber" v="13330"/><tag k="addr:postcode" v="78732"/></node><node id="-114" lat="30.381516" lon="-97.885604" changeset="false"><tag k="addr:street" v="Canyon Glen Circle"/><tag k="addr:housenumber" v="4217"/><tag k="addr:postcode" v="78732"/></node><node id="-115" lat="30.332011" lon="-97.926499" changeset="false"><tag k="addr:street" v="Minnie Drive"/><tag k="addr:housenumber" v="1302"/><tag k="addr:postcode" v="78732"/></node><node id="-116" lat="30.353076" lon="-97.905136" changeset="false"><tag k="addr:street" v="Horseback Hollow"/><tag k="addr:housenumber" v="1016"/><tag k="addr:postcode" v="78732"/></node><node id="-117" lat="30.363974" lon="-97.896478" changeset="false"><tag k="addr:street" v="North Quinlan Park Road"/><tag k="addr:housenumber" v="2601 1/2"/><tag k="addr:postcode" v="78732"/></node><node id="-118" lat="30.39412" lon="-97.868859" changeset="false"><tag k="addr:street" v="Ranch Road 620"/><tag k="addr:housenumber" v="5901 1/2"/><tag k="addr:postcode" v="78732"/></node><node id="-119" lat="30.331698" lon="-97.928502" changeset="false"><tag k="addr:street" v="West Lakeland Drive"/><tag k="addr:housenumber" v="1405"/><tag k="addr:postcode" v="78732"/></node><node id="-120" lat="30.331736" lon="-97.929066" changeset="false"><tag k="addr:street" v="West Lakeland Drive"/><tag k="addr:housenumber" v="1406"/><tag k="addr:postcode" v="78732"/></node><node id="-121" lat="30.332424" lon="-97.928007" changeset="false"><tag k="addr:street" v="West Lakeland Drive"/><tag k="addr:housenumber" v="1307"/><tag k="addr:postcode" v="78732"/></node><node id="-122" lat="30.364105" lon="-97.892665" changeset="false"><tag k="addr:street" v="Long Bay Cove"/><tag k="addr:housenumber" v="12224"/><tag k="addr:postcode" v="78732"/></node><node id="-123" lat="30.339849" lon="-97.919583" changeset="false"><tag k="addr:street" v="Santaluz Path"/><tag k="addr:housenumber" v="600"/><tag k="addr:postcode" v="78732"/></node><node id="-124" lat="30.341283" lon="-97.901924" changeset="false"><tag k="addr:street" v="Palisades Parkway"/><tag k="addr:housenumber" v="11713"/><tag k="addr:postcode" v="78732"/></node><node id="-125" lat="30.332394" lon="-97.926232" changeset="false"><tag k="addr:street" v="Minnie Drive"/><tag k="addr:housenumber" v="1206"/><tag k="addr:postcode" v="78732"/></node><node id="-126" lat="30.363915" lon="-97.893729" changeset="false"><tag k="addr:street" v="Fairway Cove"/><tag k="addr:housenumber" v="12233"/><tag k="addr:postcode" v="78732"/></node><node id="-127" lat="30.363387" lon="-97.893086" changeset="false"><tag k="addr:street" v="Fairway Cove"/><tag k="addr:housenumber" v="12212"/><tag k="addr:postcode" v="78732"/></node><node id="-128" lat="30.363746" lon="-97.893667" changeset="false"><tag k="addr:street" v="Fairway Cove"/><tag k="addr:housenumber" v="12229"/><tag k="addr:postcode" v="78732"/></node><node id="-129" lat="30.345962" lon="-97.893651" changeset="false"><tag k="addr:street" v="University Club Drive"/><tag k="addr:housenumber" v="1509"/><tag k="addr:postcode" v="78732"/></node><node id="-130" lat="30.392649" lon="-97.847375" changeset="false"><tag k="addr:street" v="River Place Boulevard"/><tag k="addr:housenumber" v="6608"/><tag k="addr:postcode" v="78730"/></node><node id="-131" lat="30.341834" lon="-97.903893" changeset="false"><tag k="addr:street" v="Palisades Parkway"/><tag k="addr:housenumber" v="11916"/><tag k="addr:postcode" v="78732"/></node><node id="-132" lat="30.353431" lon="-97.885148" changeset="false"><tag k="addr:street" v="Eagles Glen Drive"/><tag k="addr:housenumber" v="11401 1/2"/><tag k="addr:postcode" v="78732"/></node><node id="-133" lat="30.362899" lon="-97.893226" changeset="false"><tag k="addr:street" v="Fairway Cove"/><tag k="addr:housenumber" v="12205"/><tag k="addr:postcode" v="78732"/></node><node id="-134" lat="30.343176" lon="-97.905329" changeset="false"><tag k="addr:street" v="Palisades Parkway"/><tag k="addr:housenumber" v="12012"/><tag k="addr:postcode" v="78732"/></node><node id="-135" lat="30.378795" lon="-97.877297" changeset="false"><tag k="addr:street" v="Steiner Ranch Boulevard"/><tag k="addr:housenumber" v="4401"/><tag k="addr:postcode" v="78732"/></node><node id="-136" lat="30.331039" lon="-97.922591" changeset="false"><tag k="addr:street" v="River Ridge Drive"/><tag k="addr:housenumber" v="1200"/><tag k="addr:postcode" v="78732"/></node><node id="-137" lat="30.332456" lon="-97.924033" changeset="false"><tag k="addr:street" v="South Quinlan Park Road"/><tag k="addr:housenumber" v="1101"/><tag k="addr:postcode" v="78732"/></node><node id="-138" lat="30.343337" lon="-97.903609" changeset="false"><tag k="addr:street" v="Piedmont Hills Pass"/><tag k="addr:housenumber" v="217"/><tag k="addr:postcode" v="78732"/></node><node id="-139" lat="30.334434" lon="-97.922707" changeset="false"><tag k="addr:street" v="South Quinlan Park Road"/><tag k="addr:housenumber" v="1001"/><tag k="addr:postcode" v="78732"/></node><node id="-140" lat="30.328304" lon="-97.926044" changeset="false"><tag k="addr:street" v="West Lane"/><tag k="addr:housenumber" v="1602"/><tag k="addr:postcode" v="78732"/></node><node id="-141" lat="30.395254" lon="-97.847492" changeset="false"><tag k="addr:street" v="Ranch to Market Road 2222"/><tag k="addr:housenumber" v="10817"/><tag k="addr:postcode" v="78730"/></node><node id="-142" lat="30.334947" lon="-97.909713" changeset="false"><tag k="addr:street" v="Selma Hughes Park Road"/><tag k="addr:housenumber" v="12111"/><tag k="addr:postcode" v="78732"/></node><node id="-143" lat="30.381233" lon="-97.889339" changeset="false"><tag k="addr:street" v="Canyon Glen Circle"/><tag k="addr:housenumber" v="4017"/><tag k="addr:postcode" v="78732"/></node><node id="-144" lat="30.39065" lon="-97.884475" changeset="false"><tag k="addr:street" v="Marshall Ford Road"/><tag k="addr:housenumber" v="5136"/><tag k="addr:postcode" v="78732"/></node><node id="-145" lat="30.381124" lon="-97.885357" changeset="false"><tag k="addr:street" v="Canyon Glen Circle"/><tag k="addr:housenumber" v="4205"/><tag k="addr:postcode" v="78732"/></node><node id="-146" lat="30.375921" lon="-97.879756" changeset="false"><tag k="addr:street" v="Mira Mesa Drive"/><tag k="addr:housenumber" v="11912"/><tag k="addr:postcode" v="78732"/></node><node id="-147" lat="30.33734" lon="-97.931473" changeset="false"><tag k="addr:street" v="Shore Vista Drive"/><tag k="addr:housenumber" v="13218"/><tag k="addr:postcode" v="78732"/></node><node id="-148" lat="30.394182" lon="-97.866414" changeset="false"><tag k="addr:street" v="Steiner Ranch Boulevard"/><tag k="addr:housenumber" v="5925"/><tag k="addr:postcode" v="78730"/></node><node id="-149" lat="30.382667" lon="-97.88811" changeset="false"><tag k="addr:street" v="Canyon Glen Circle"/><tag k="addr:housenumber" v="4325"/><tag k="addr:postcode" v="78732"/></node><node id="-150" lat="30.382475" lon="-97.887704" changeset="false"><tag k="addr:street" v="Canyon Glen Circle"/><tag k="addr:housenumber" v="4313"/><tag k="addr:postcode" v="78732"/></node><node id="-151" lat="30.384748" lon="-97.851831" changeset="false"><tag k="addr:street" v="Brittlyns Court"/><tag k="addr:housenumber" v="5804"/><tag k="addr:postcode" v="78730"/></node><node id="-152" lat="30.383" lon="-97.888839" changeset="false"><tag k="addr:street" v="Canyon Glen Circle"/><tag k="addr:housenumber" v="4345"/><tag k="addr:postcode" v="78732"/></node><node id="-153" lat="30.380304" lon="-97.887047" changeset="false"><tag k="addr:street" v="Canyon Glen Circle"/><tag k="addr:housenumber" v="4124"/><tag k="addr:postcode" v="78732"/></node><node id="-154" lat="30.38024" lon="-97.886911" changeset="false"><tag k="addr:street" v="Canyon Glen Circle"/><tag k="addr:housenumber" v="4128"/><tag k="addr:postcode" v="78732"/></node><node id="-155" lat="30.380936" lon="-97.887349" changeset="false"><tag k="addr:street" v="Canyon Glen Drive"/><tag k="addr:housenumber" v="12533"/><tag k="addr:postcode" v="78732"/></node><node id="-156" lat="30.380762" lon="-97.887859" changeset="false"><tag k="addr:street" v="Canyon Glen Circle"/><tag k="addr:housenumber" v="4100"/><tag k="addr:postcode" v="78732"/></node><node id="-157" lat="30.335755" lon="-97.932636" changeset="false"><tag k="addr:street" v="Shore Vista Drive"/><tag k="addr:housenumber" v="13240"/><tag k="addr:postcode" v="78732"/></node><node id="-158" lat="30.335155" lon="-97.932905" changeset="false"><tag k="addr:street" v="Shore Vista Drive"/><tag k="addr:housenumber" v="13248"/><tag k="addr:postcode" v="78732"/></node><node id="-159" lat="30.328715" lon="-97.925153" changeset="false"><tag k="addr:street" v="East Lane"/><tag k="addr:housenumber" v="1504"/><tag k="addr:postcode" v="78732"/></node><node id="-160" lat="30.381821" lon="-97.890022" changeset="false"><tag k="addr:street" v="Canyon Glen Circle"/><tag k="addr:housenumber" v="3953"/><tag k="addr:postcode" v="78732"/></node><node id="-161" lat="30.402172" lon="-97.854491" changeset="false"><tag k="addr:street" v="Ranch Road 620"/><tag k="addr:housenumber" v="6911"/><tag k="addr:postcode" v="78730"/></node><node id="-162" lat="30.381621" lon="-97.886897" changeset="false"><tag k="addr:street" v="Canyon Glen Circle"/><tag k="addr:housenumber" v="4246"/><tag k="addr:postcode" v="78732"/></node><node id="-163" lat="30.381363" lon="-97.886349" changeset="false"><tag k="addr:street" v="Canyon Glen Circle"/><tag k="addr:housenumber" v="4230"/><tag k="addr:postcode" v="78732"/></node><node id="-164" lat="30.380619" lon="-97.888445" changeset="false"><tag k="addr:street" v="Canyon Glen Circle"/><tag k="addr:housenumber" v="4045"/><tag k="addr:postcode" v="78732"/></node><node id="-165" lat="30.380557" lon="-97.887628" changeset="false"><tag k="addr:street" v="Canyon Glen Circle"/><tag k="addr:housenumber" v="4108"/><tag k="addr:postcode" v="78732"/></node><node id="-166" lat="30.38154" lon="-97.888558" changeset="false"><tag k="addr:street" v="Gazley Lane"/><tag k="addr:housenumber" v="4105"/><tag k="addr:postcode" v="78732"/></node><node id="-167" lat="30.32919" lon="-97.930059" changeset="false"><tag k="addr:street" v="On the Lake Road"/><tag k="addr:housenumber" v="13003"/><tag k="addr:postcode" v="78732"/></node><node id="-168" lat="30.328395" lon="-97.926697" changeset="false"><tag k="addr:street" v="South Quinlan Park Road"/><tag k="addr:housenumber" v="1601"/><tag k="addr:postcode" v="78732"/></node><node id="-169" lat="30.330109" lon="-97.922709" changeset="false"><tag k="addr:street" v="Mixson Drive"/><tag k="addr:housenumber" v="12602"/><tag k="addr:postcode" v="78732"/></node><node id="-170" lat="30.390371" lon="-97.848285" changeset="false"><tag k="addr:street" v="River Place Boulevard"/><tag k="addr:housenumber" v="6330"/><tag k="addr:postcode" v="78730"/></node><node id="-171" lat="30.372234" lon="-97.88025" changeset="false"><tag k="addr:street" v="Portofino Drive"/><tag k="addr:housenumber" v="11817"/><tag k="addr:postcode" v="78732"/></node><node id="-172" lat="30.390683" lon="-97.884458" changeset="false"><tag k="addr:street" v="Marshall Ford Road"/><tag k="addr:housenumber" v="5134"/><tag k="addr:postcode" v="78732"/></node><node id="-173" lat="30.378522" lon="-97.891035" changeset="false"><tag k="addr:street" v="Grierson Trail"/><tag k="addr:housenumber" v="12602"/><tag k="addr:postcode" v="78732"/></node><node id="-174" lat="30.382303" lon="-97.888477" changeset="false"><tag k="addr:street" v="Gazley Lane"/><tag k="addr:housenumber" v="4124"/><tag k="addr:postcode" v="78732"/></node><node id="-175" lat="30.382181" lon="-97.888589" changeset="false"><tag k="addr:street" v="Gazley Lane"/><tag k="addr:housenumber" v="4120"/><tag k="addr:postcode" v="78732"/></node><node id="-176" lat="30.36758" lon="-97.863747" changeset="false"><tag k="addr:street" v="Love Bird Lane"/><tag k="addr:housenumber" v="4016"/><tag k="addr:postcode" v="78730"/></node><node id="-177" lat="30.358362" lon="-97.8877" changeset="false"><tag k="addr:street" v="Hunters Green Court"/><tag k="addr:housenumber" v="2409"/><tag k="addr:postcode" v="78732"/></node><node id="-178" lat="30.380433" lon="-97.887329" changeset="false"><tag k="addr:street" v="Canyon Glen Circle"/><tag k="addr:housenumber" v="4116"/><tag k="addr:postcode" v="78732"/></node><node id="-179" lat="30.400095" lon="-97.855322" changeset="false"><tag k="addr:street" v="Ranch Road 620"/><tag k="addr:housenumber" v="6715"/><tag k="addr:postcode" v="78730"/></node><node id="-180" lat="30.375214" lon="-97.883391" changeset="false"><tag k="addr:street" v="Mira Vista Drive"/><tag k="addr:housenumber" v="3800"/><tag k="addr:postcode" v="78732"/></node><node id="-181" lat="30.380078" lon="-97.887355" changeset="false"><tag k="addr:street" v="Canyon Glen Circle"/><tag k="addr:housenumber" v="4121"/><tag k="addr:postcode" v="78732"/></node><node id="-182" lat="30.379836" lon="-97.889508" changeset="false"><tag k="addr:street" v="Caney Creek Road"/><tag k="addr:housenumber" v="3916"/><tag k="addr:postcode" v="78732"/></node><node id="-183" lat="30.378146" lon="-97.891457" changeset="false"><tag k="addr:street" v="Grierson Trail"/><tag k="addr:housenumber" v="12613"/><tag k="addr:postcode" v="78732"/></node><node id="-184" lat="30.328554" lon="-97.925507" changeset="false"><tag k="addr:street" v="West Lane"/><tag k="addr:housenumber" v="1505"/><tag k="addr:postcode" v="78732"/></node><node id="-185" lat="30.327254" lon="-97.918003" changeset="false"><tag k="addr:street" v="River Bend"/><tag k="addr:housenumber" v="10711"/><tag k="addr:postcode" v="78732"/></node><node id="-186" lat="30.383284" lon="-97.88991" changeset="false"><tag k="addr:street" v="Canyon Glen Circle"/><tag k="addr:housenumber" v="3905"/><tag k="addr:postcode" v="78732"/></node><node id="-187" lat="30.334798" lon="-97.926983" changeset="false"><tag k="addr:street" v="Shore Vista Drive"/><tag k="addr:housenumber" v="13013"/><tag k="addr:postcode" v="78732"/></node><node id="-188" lat="30.355416" lon="-97.88445" changeset="false"><tag k="addr:street" v="Eagles Glen Drive"/><tag k="addr:housenumber" v="11304"/><tag k="addr:postcode" v="78732"/></node><node id="-189" lat="30.334979" lon="-97.909356" changeset="false"><tag k="addr:street" v="Selma Hughes Park Road"/><tag k="addr:housenumber" v="12109"/><tag k="addr:postcode" v="78732"/></node><node id="-190" lat="30.338186" lon="-97.905176" changeset="false"><tag k="addr:street" v="Selma Hughes Park Road"/><tag k="addr:housenumber" v="11931"/><tag k="addr:postcode" v="78732"/></node><node id="-191" lat="30.35506" lon="-97.908872" changeset="false"><tag k="addr:street" v="North Quinlan Park Road"/><tag k="addr:housenumber" v="1001 1/2"/><tag k="addr:postcode" v="78732"/></node><node id="-192" lat="30.350881" lon="-97.870153" changeset="false"><tag k="addr:street" v="Big View Drive"/><tag k="addr:housenumber" v="8216"/><tag k="addr:postcode" v="78732"/></node><node id="-193" lat="30.379408" lon="-97.888846" changeset="false"><tag k="addr:street" v="Caney Creek Road"/><tag k="addr:housenumber" v="3910"/><tag k="addr:postcode" v="78732"/></node><node id="-194" lat="30.381371" lon="-97.888825" changeset="false"><tag k="addr:street" v="Canyon Glen Circle"/><tag k="addr:housenumber" v="4026"/><tag k="addr:postcode" v="78732"/></node><node id="-195" lat="30.329756" lon="-97.924178" changeset="false"><tag k="addr:street" v="Mixson Drive"/><tag k="addr:housenumber" v="12703"/><tag k="addr:postcode" v="78732"/></node><node id="-196" lat="30.331089" lon="-97.926319" changeset="false"><tag k="addr:street" v="Minnie Drive"/><tag k="addr:housenumber" v="1309"/><tag k="addr:postcode" v="78732"/></node><node id="-197" lat="30.330914" lon="-97.921587" changeset="false"><tag k="addr:street" v="Terjo Lane"/><tag k="addr:housenumber" v="1122"/><tag k="addr:postcode" v="78732"/></node><node id="-198" lat="30.330827" lon="-97.923914" changeset="false"><tag k="addr:street" v="Merlene Drive"/><tag k="addr:housenumber" v="1205"/><tag k="addr:postcode" v="78732"/></node><node id="-199" lat="30.329871" lon="-97.924463" changeset="false"><tag k="addr:street" v="Mixson Drive"/><tag k="addr:housenumber" v="12705"/><tag k="addr:postcode" v="78732"/></node><node id="-200" lat="30.342086" lon="-97.918306" changeset="false"><tag k="addr:street" v="Santaluz Path"/><tag k="addr:housenumber" v="1001"/><tag k="addr:postcode" v="78732"/></node><node id="-201" lat="30.340534" lon="-97.919822" changeset="false"><tag k="addr:street" v="Santaluz Path"/><tag k="addr:housenumber" v="556"/><tag k="addr:postcode" v="78732"/></node><node id="-202" lat="30.364512" lon="-97.893933" changeset="false"><tag k="addr:street" v="Fairway Cove"/><tag k="addr:housenumber" v="12309"/><tag k="addr:postcode" v="78732"/></node><node id="-203" lat="30.341748" lon="-97.919759" changeset="false"><tag k="addr:street" v="Santaluz Path"/><tag k="addr:housenumber" v="517"/><tag k="addr:postcode" v="78732"/></node><node id="-204" lat="30.341771" lon="-97.917483" changeset="false"><tag k="addr:street" v="Santaluz Path"/><tag k="addr:housenumber" v="916"/><tag k="addr:postcode" v="78732"/></node><node id="-205" lat="30.388494" lon="-97.849834" changeset="false"><tag k="addr:street" v="River Place Boulevard"/><tag k="addr:housenumber" v="6202"/><tag k="addr:postcode" v="78730"/></node><node id="-206" lat="30.347958" lon="-97.913841" changeset="false"><tag k="addr:street" v="El Socorro Lane"/><tag k="addr:housenumber" v="321"/><tag k="addr:postcode" v="78732"/></node><node id="-207" lat="30.328375" lon="-97.924842" changeset="false"><tag k="addr:street" v="East Lane"/><tag k="addr:housenumber" v="1509"/><tag k="addr:postcode" v="78732"/></node><node id="-208" lat="30.329461" lon="-97.927375" changeset="false"><tag k="addr:street" v="River Bend"/><tag k="addr:housenumber" v="12813"/><tag k="addr:postcode" v="78732"/></node><node id="-209" lat="30.395776" lon="-97.861616" changeset="false"><tag k="addr:street" v="Ranch Road 620"/><tag k="addr:housenumber" v="6401 1/2"/><tag k="addr:postcode" v="78730"/></node><node id="-210" lat="30.341168" lon="-97.904469" changeset="false"><tag k="addr:street" v="Palisades Parkway"/><tag k="addr:housenumber" v="11913"/><tag k="addr:postcode" v="78732"/></node><node id="-211" lat="30.344893" lon="-97.894106" changeset="false"><tag k="addr:street" v="University Club Drive"/><tag k="addr:housenumber" v="1404"/><tag k="addr:postcode" v="78732"/></node><node id="-212" lat="30.345134" lon="-97.894199" changeset="false"><tag k="addr:street" v="University Club Drive"/><tag k="addr:housenumber" v="1408"/><tag k="addr:postcode" v="78732"/></node><node id="-213" lat="30.345666" lon="-97.894323" changeset="false"><tag k="addr:street" v="University Club Drive"/><tag k="addr:housenumber" v="1500"/><tag k="addr:postcode" v="78732"/></node><node id="-214" lat="30.380906" lon="-97.885901" changeset="false"><tag k="addr:street" v="Canyon Glen Drive"/><tag k="addr:housenumber" v="12500"/><tag k="addr:postcode" v="78732"/></node><node id="-215" lat="30.330896" lon="-97.926475" changeset="false"><tag k="addr:street" v="Minnie Drive"/><tag k="addr:housenumber" v="1401"/><tag k="addr:postcode" v="78732"/></node><node id="-216" lat="30.363542" lon="-97.893115" changeset="false"><tag k="addr:street" v="Fairway Cove"/><tag k="addr:housenumber" v="12216"/><tag k="addr:postcode" v="78732"/></node><node id="-217" lat="30.36425" lon="-97.893436" changeset="false"><tag k="addr:street" v="Fairway Cove"/><tag k="addr:housenumber" v="12236"/><tag k="addr:postcode" v="78732"/></node><node id="-218" lat="30.364772" lon="-97.893468" changeset="false"><tag k="addr:street" v="Fairway Cove"/><tag k="addr:housenumber" v="12316"/><tag k="addr:postcode" v="78732"/></node><node id="-219" lat="30.365472" lon="-97.893413" changeset="false"><tag k="addr:street" v="Fairway Cove"/><tag k="addr:housenumber" v="12337"/><tag k="addr:postcode" v="78732"/></node><node id="-220" lat="30.329286" lon="-97.923904" changeset="false"><tag k="addr:street" v="River Bend"/><tag k="addr:housenumber" v="12608"/><tag k="addr:postcode" v="78732"/></node><node id="-221" lat="30.341019" lon="-97.911005" changeset="false"><tag k="addr:street" v="Mediterra Place"/><tag k="addr:housenumber" v="12409"/><tag k="addr:postcode" v="78732"/></node><node id="-222" lat="30.34208" lon="-97.902314" changeset="false"><tag k="addr:street" v="Palisades Parkway"/><tag k="addr:housenumber" v="11708"/><tag k="addr:postcode" v="78732"/></node><node id="-223" lat="30.341065" lon="-97.902294" changeset="false"><tag k="addr:street" v="Palisades Parkway"/><tag k="addr:housenumber" v="11801"/><tag k="addr:postcode" v="78732"/></node><node id="-224" lat="30.340812" lon="-97.902625" changeset="false"><tag k="addr:street" v="Palisades Parkway"/><tag k="addr:housenumber" v="11809"/><tag k="addr:postcode" v="78732"/></node><node id="-225" lat="30.339773" lon="-97.905785" changeset="false"><tag k="addr:street" v="Azure Shores Court"/><tag k="addr:housenumber" v="12001"/><tag k="addr:postcode" v="78732"/></node><node id="-226" lat="30.331941" lon="-97.925909" changeset="false"><tag k="addr:street" v="Minnie Drive"/><tag k="addr:housenumber" v="1301"/><tag k="addr:postcode" v="78732"/></node><node id="-227" lat="30.343038" lon="-97.903285" changeset="false"><tag k="addr:street" v="Piedmont Hills Pass"/><tag k="addr:housenumber" v="209"/><tag k="addr:postcode" v="78732"/></node><node id="-228" lat="30.34601" lon="-97.91703" changeset="false"><tag k="addr:street" v="Tierra Grande Trail"/><tag k="addr:housenumber" v="12900"/><tag k="addr:postcode" v="78732"/></node><node id="-229" lat="30.339529" lon="-97.909447" changeset="false"><tag k="addr:street" v="Emerald Ridge Drive"/><tag k="addr:housenumber" v="413"/><tag k="addr:postcode" v="78732"/></node><node id="-230" lat="30.329564" lon="-97.926823" changeset="false"><tag k="addr:street" v="River Bend"/><tag k="addr:housenumber" v="12802"/><tag k="addr:postcode" v="78732"/></node><node id="-231" lat="30.330707" lon="-97.927276" changeset="false"><tag k="addr:street" v="Minnie Drive"/><tag k="addr:housenumber" v="1404"/><tag k="addr:postcode" v="78732"/></node><node id="-232" lat="30.381218" lon="-97.884519" changeset="false"><tag k="addr:street" v="North Quinlan Park Road"/><tag k="addr:housenumber" v="4214 1/2"/><tag k="addr:postcode" v="78732"/></node><node id="-233" lat="30.328427" lon="-97.923208" changeset="false"><tag k="addr:street" v="River Bend"/><tag k="addr:housenumber" v="12605"/><tag k="addr:postcode" v="78732"/></node><node id="-234" lat="30.381985" lon="-97.895506" changeset="false"><tag k="addr:street" v="Medina River Way"/><tag k="addr:housenumber" v="13002"/><tag k="addr:postcode" v="78732"/></node><node id="-235" lat="30.370838" lon="-97.861565" changeset="false"><tag k="addr:street" v="Range View Drive"/><tag k="addr:housenumber" v="10710"/><tag k="addr:postcode" v="78730"/></node><node id="-236" lat="30.332263" lon="-97.927016" changeset="false"><tag k="addr:street" v="East Lakeland Drive"/><tag k="addr:housenumber" v="1305"/><tag k="addr:postcode" v="78732"/></node><node id="-237" lat="30.370724" lon="-97.862775" changeset="false"><tag k="addr:street" v="Range View Drive"/><tag k="addr:housenumber" v="10817"/><tag k="addr:postcode" v="78730"/></node><node id="-238" lat="30.377594" lon="-97.89079" changeset="false"><tag k="addr:street" v="Epperson Trail"/><tag k="addr:housenumber" v="3708"/><tag k="addr:postcode" v="78732"/></node><node id="-239" lat="30.382464" lon="-97.892603" changeset="false"><tag k="addr:street" v="Varner Court"/><tag k="addr:housenumber" v="4006"/><tag k="addr:postcode" v="78732"/></node><node id="-240" lat="30.347089" lon="-97.916643" changeset="false"><tag k="addr:street" v="South Quinlan Park Road"/><tag k="addr:housenumber" v="201 1/2"/><tag k="addr:postcode" v="78732"/></node><node id="-241" lat="30.35577" lon="-97.905203" changeset="false"><tag k="addr:street" v="Horseback Hollow"/><tag k="addr:housenumber" v="1221"/><tag k="addr:postcode" v="78732"/></node><node id="-242" lat="30.381605" lon="-97.896348" changeset="false"><tag k="addr:street" v="Medina River Way"/><tag k="addr:housenumber" v="13009"/><tag k="addr:postcode" v="78732"/></node><node id="-243" lat="30.380219" lon="-97.886245" changeset="false"><tag k="addr:street" v="Canyon Glen Circle"/><tag k="addr:housenumber" v="4164"/><tag k="addr:postcode" v="78732"/></node><node id="-244" lat="30.32876" lon="-97.925382" changeset="false"><tag k="addr:street" v="West Lane"/><tag k="addr:housenumber" v="1503"/><tag k="addr:postcode" v="78732"/></node><node id="-245" lat="30.330698" lon="-97.922885" changeset="false"><tag k="addr:street" v="Summit Edge Drive"/><tag k="addr:housenumber" v="1207"/><tag k="addr:postcode" v="78732"/></node><node id="-246" lat="30.330507" lon="-97.928678" changeset="false"><tag k="addr:street" v="River Bend"/><tag k="addr:housenumber" v="12906"/><tag k="addr:postcode" v="78732"/></node><node id="-247" lat="30.330447" lon="-97.923658" changeset="false"><tag k="addr:street" v="Summit Edge Drive"/><tag k="addr:housenumber" v="1302"/><tag k="addr:postcode" v="78732"/></node><node id="-248" lat="30.330318" lon="-97.92437" changeset="false"><tag k="addr:street" v="Merlene Drive"/><tag k="addr:housenumber" v="1305"/><tag k="addr:postcode" v="78732"/></node><node id="-249" lat="30.329335" lon="-97.923363" changeset="false"><tag k="addr:street" v="River Bend"/><tag k="addr:housenumber" v="12606"/><tag k="addr:postcode" v="78732"/></node><node id="-250" lat="30.350681" lon="-97.886787" changeset="false"><tag k="addr:street" v="Lakecliff Hills Lane"/><tag k="addr:housenumber" v="1633"/><tag k="addr:postcode" v="78732"/></node><node id="-251" lat="30.382097" lon="-97.853569" changeset="false"><tag k="addr:street" v="Merrywing Circle"/><tag k="addr:housenumber" v="5500"/><tag k="addr:postcode" v="78730"/></node><node id="-252" lat="30.331203" lon="-97.921212" changeset="false"><tag k="addr:street" v="Terjo Lane"/><tag k="addr:housenumber" v="1121"/><tag k="addr:postcode" v="78732"/></node><node id="-253" lat="30.390582" lon="-97.884472" changeset="false"><tag k="addr:street" v="Ranch Road 620"/><tag k="addr:housenumber" v="5116"/><tag k="addr:postcode" v="78732"/></node><node id="-254" lat="30.355638" lon="-97.884836" changeset="false"><tag k="addr:street" v="Eagles Glen Drive"/><tag k="addr:housenumber" v="11308"/><tag k="addr:postcode" v="78732"/></node><node id="-255" lat="30.381581" lon="-97.889125" changeset="false"><tag k="addr:street" v="Canyon Glen Circle"/><tag k="addr:housenumber" v="4014"/><tag k="addr:postcode" v="78732"/></node><node id="-256" lat="30.330924" lon="-97.925805" changeset="false"><tag k="addr:street" v="South Quinlan Park Road"/><tag k="addr:housenumber" v="1300"/><tag k="addr:postcode" v="78732"/></node><node id="-257" lat="30.357503" lon="-97.886955" changeset="false"><tag k="addr:street" v="Hunters Green Trail"/><tag k="addr:housenumber" v="11600"/><tag k="addr:postcode" v="78732"/></node><node id="-258" lat="30.369523" lon="-97.863548" changeset="false"><tag k="addr:street" v="Love Bird Cove"/><tag k="addr:housenumber" v="10803"/><tag k="addr:postcode" v="78730"/></node><node id="-259" lat="30.382362" lon="-97.889553" changeset="false"><tag k="addr:street" v="Seldalia Trail"/><tag k="addr:housenumber" v="4108"/><tag k="addr:postcode" v="78732"/></node><node id="-260" lat="30.38103" lon="-97.889112" changeset="false"><tag k="addr:street" v="Canyon Glen Circle"/><tag k="addr:housenumber" v="4025"/><tag k="addr:postcode" v="78732"/></node><node id="-261" lat="30.393965" lon="-97.847117" changeset="false"><tag k="addr:street" v="River Place Boulevard"/><tag k="addr:housenumber" v="6628"/><tag k="addr:postcode" v="78730"/></node><node id="-262" lat="30.357514" lon="-97.889256" changeset="false"><tag k="addr:street" v="Hunters Green Trail"/><tag k="addr:housenumber" v="11725"/><tag k="addr:postcode" v="78732"/></node><node id="-263" lat="30.379693" lon="-97.88603" changeset="false"><tag k="addr:street" v="Canyon Glen Circle"/><tag k="addr:housenumber" v="4157"/><tag k="addr:postcode" v="78732"/></node><node id="-264" lat="30.402612" lon="-97.853151" changeset="false"><tag k="addr:street" v="Ranch to Market Road 2222"/><tag k="addr:housenumber" v="11401"/><tag k="addr:postcode" v="78730"/></node><node id="-265" lat="30.380847" lon="-97.877831" changeset="false"><tag k="addr:street" v="Steiner Ranch Boulevard"/><tag k="addr:housenumber" v="4500"/><tag k="addr:postcode" v="78732"/></node><node id="-266" lat="30.380642" lon="-97.886779" changeset="false"><tag k="addr:street" v="Canyon Glen Drive"/><tag k="addr:housenumber" v="12517"/><tag k="addr:postcode" v="78732"/></node><node id="-267" lat="30.365551" lon="-97.862936" changeset="false"><tag k="addr:street" v="Conference Cove"/><tag k="addr:housenumber" v="3900"/><tag k="addr:postcode" v="78730"/></node><node id="-268" lat="30.329167" lon="-97.929711" changeset="false"><tag k="addr:street" v="On the Lake Road"/><tag k="addr:housenumber" v="12923"/><tag k="addr:postcode" v="78732"/></node><node id="-269" lat="30.351656" lon="-97.886449" changeset="false"><tag k="addr:street" v="Lakecliff Hills Lane"/><tag k="addr:housenumber" v="1645"/><tag k="addr:postcode" v="78732"/></node><node id="-270" lat="30.329206" lon="-97.92182" changeset="false"><tag k="addr:street" v="River Bend"/><tag k="addr:housenumber" v="12504"/><tag k="addr:postcode" v="78732"/></node><node id="-271" lat="30.336075" lon="-97.928111" changeset="false"><tag k="addr:street" v="Shore Vista Drive"/><tag k="addr:housenumber" v="13100"/><tag k="addr:postcode" v="78732"/></node><node id="-272" lat="30.381687" lon="-97.887062" changeset="false"><tag k="addr:street" v="Canyon Glen Circle"/><tag k="addr:housenumber" v="4250"/><tag k="addr:postcode" v="78732"/></node><node id="-273" lat="30.364879" lon="-97.886537" changeset="false"><tag k="addr:street" v="University Club Drive"/><tag k="addr:housenumber" v="2901 1/2"/><tag k="addr:postcode" v="78732"/></node><node id="-274" lat="30.362196" lon="-97.889221" changeset="false"><tag k="addr:street" v="University Club Drive"/><tag k="addr:housenumber" v="2628"/><tag k="addr:postcode" v="78732"/></node><node id="-275" lat="30.331812" lon="-97.923855" changeset="false"><tag k="addr:street" v="Merlene Drive"/><tag k="addr:housenumber" v="1104"/><tag k="addr:postcode" v="78732"/></node><node id="-276" lat="30.329311" lon="-97.923144" changeset="false"><tag k="addr:street" v="River Bend"/><tag k="addr:housenumber" v="12604"/><tag k="addr:postcode" v="78732"/></node><node id="-277" lat="30.329257" lon="-97.922107" changeset="false"><tag k="addr:street" v="River Bend"/><tag k="addr:housenumber" v="12506"/><tag k="addr:postcode" v="78732"/></node><node id="-278" lat="30.330782" lon="-97.925791" changeset="false"><tag k="addr:street" v="South Quinlan Park Road"/><tag k="addr:housenumber" v="1302"/><tag k="addr:postcode" v="78732"/></node><node id="-279" lat="30.330457" lon="-97.924726" changeset="false"><tag k="addr:street" v="Merlene Drive"/><tag k="addr:housenumber" v="1304"/><tag k="addr:postcode" v="78732"/></node><node id="-280" lat="30.329852" lon="-97.921049" changeset="false"><tag k="addr:street" v="Mixson Drive"/><tag k="addr:housenumber" v="12504"/><tag k="addr:postcode" v="78732"/></node><node id="-281" lat="30.328701" lon="-97.922849" changeset="false"><tag k="addr:street" v="River Bend"/><tag k="addr:housenumber" v="12511"/><tag k="addr:postcode" v="78732"/></node><node id="-282" lat="30.356447" lon="-97.904379" changeset="false"><tag k="addr:street" v="Capitol Saddlery Trail"/><tag k="addr:housenumber" v="12600"/><tag k="addr:postcode" v="78732"/></node><node id="-283" lat="30.340751" lon="-97.919924" changeset="false"><tag k="addr:street" v="Santaluz Path"/><tag k="addr:housenumber" v="548"/><tag k="addr:postcode" v="78732"/></node><node id="-284" lat="30.390859" lon="-97.871191" changeset="false"><tag k="addr:street" v="Steiner Ranch Boulevard"/><tag k="addr:housenumber" v="5424"/><tag k="addr:postcode" v="78732"/></node><node id="-285" lat="30.331867" lon="-97.928376" changeset="false"><tag k="addr:street" v="West Lakeland Drive"/><tag k="addr:housenumber" v="1403"/><tag k="addr:postcode" v="78732"/></node><node id="-286" lat="30.340708" lon="-97.902816" changeset="false"><tag k="addr:street" v="Palisades Parkway"/><tag k="addr:housenumber" v="11813"/><tag k="addr:postcode" v="78732"/></node><node id="-287" lat="30.363236" lon="-97.893036" changeset="false"><tag k="addr:street" v="Fairway Cove"/><tag k="addr:housenumber" v="12208"/><tag k="addr:postcode" v="78732"/></node><node id="-288" lat="30.364357" lon="-97.893908" changeset="false"><tag k="addr:street" v="Fairway Cove"/><tag k="addr:housenumber" v="12305"/><tag k="addr:postcode" v="78732"/></node><node id="-289" lat="30.365354" lon="-97.893763" changeset="false"><tag k="addr:street" v="Fairway Cove"/><tag k="addr:housenumber" v="12329"/><tag k="addr:postcode" v="78732"/></node><node id="-290" lat="30.364589" lon="-97.893493" changeset="false"><tag k="addr:street" v="Fairway Cove"/><tag k="addr:housenumber" v="12312"/><tag k="addr:postcode" v="78732"/></node><node id="-291" lat="30.333625" lon="-97.926037" changeset="false"><tag k="addr:street" v="East Lakeland Drive"/><tag k="addr:housenumber" v="1201"/><tag k="addr:postcode" v="78732"/></node><node id="-292" lat="30.330739" lon="-97.928537" changeset="false"><tag k="addr:street" v="East Lakeland Drive"/><tag k="addr:housenumber" v="1502"/><tag k="addr:postcode" v="78732"/></node><node id="-293" lat="30.341385" lon="-97.90315" changeset="false"><tag k="addr:street" v="Palisades Parkway"/><tag k="addr:housenumber" v="11804"/><tag k="addr:postcode" v="78732"/></node><node id="-294" lat="30.381429" lon="-97.886503" changeset="false"><tag k="addr:street" v="Canyon Glen Circle"/><tag k="addr:housenumber" v="4234"/><tag k="addr:postcode" v="78732"/></node><node id="-295" lat="30.331513" lon="-97.928626" changeset="false"><tag k="addr:street" v="West Lakeland Drive"/><tag k="addr:housenumber" v="1407"/><tag k="addr:postcode" v="78732"/></node><node id="-296" lat="30.393598" lon="-97.847374" changeset="false"><tag k="addr:street" v="River Place Boulevard"/><tag k="addr:housenumber" v="6616"/><tag k="addr:postcode" v="78730"/></node><node id="-297" lat="30.342823" lon="-97.903664" changeset="false"><tag k="addr:street" v="Piedmont Hills Pass"/><tag k="addr:housenumber" v="208"/><tag k="addr:postcode" v="78732"/></node><node id="-298" lat="30.343016" lon="-97.903836" changeset="false"><tag k="addr:street" v="Piedmont Hills Pass"/><tag k="addr:housenumber" v="212"/><tag k="addr:postcode" v="78732"/></node><node id="-299" lat="30.346046" lon="-97.913695" changeset="false"><tag k="addr:street" v="Monterey Path"/><tag k="addr:housenumber" v="12605"/><tag k="addr:postcode" v="78732"/></node><node id="-300" lat="30.339129" lon="-97.918855" changeset="false"><tag k="addr:street" v="Santaluz Path"/><tag k="addr:housenumber" v="624"/><tag k="addr:postcode" v="78732"/></node><node id="-301" lat="30.36388" lon="-97.891948" changeset="false"><tag k="addr:street" v="Long Bay Cove"/><tag k="addr:housenumber" v="12209"/><tag k="addr:postcode" v="78732"/></node><node id="-302" lat="30.378253" lon="-97.8789" changeset="false"><tag k="addr:street" v="Steiner Ranch Boulevard"/><tag k="addr:housenumber" v="4200"/><tag k="addr:postcode" v="78732"/></node><node id="-303" lat="30.333394" lon="-97.923496" changeset="false"><tag k="addr:street" v="South Quinlan Park Road"/><tag k="addr:housenumber" v="1013"/><tag k="addr:postcode" v="78732"/></node><node id="-304" lat="30.350647" lon="-97.871933" changeset="false"><tag k="addr:street" v="Big View Drive"/><tag k="addr:housenumber" v="8109"/><tag k="addr:postcode" v="78732"/></node><node id="-305" lat="30.337215" lon="-97.908554" changeset="false"><tag k="addr:street" v="Selma Hughes Park Road"/><tag k="addr:housenumber" v="12104"/><tag k="addr:postcode" v="78732"/></node><node id="-306" lat="30.39117" lon="-97.884996" changeset="false"><tag k="addr:street" v="Ranch Road 620"/><tag k="addr:housenumber" v="5012"/><tag k="addr:postcode" v="78732"/></node><node id="-307" lat="30.329699" lon="-97.927013" changeset="false"><tag k="addr:street" v="River Bend"/><tag k="addr:housenumber" v="12804"/><tag k="addr:postcode" v="78732"/></node><node id="-308" lat="30.329955" lon="-97.925657" changeset="false"><tag k="addr:street" v="South Quinlan Park Road"/><tag k="addr:housenumber" v="1403"/><tag k="addr:postcode" v="78732"/></node><node id="-309" lat="30.366029" lon="-97.862494" changeset="false"><tag k="addr:street" v="Conference Cove"/><tag k="addr:housenumber" v="3905"/><tag k="addr:postcode" v="78730"/></node><node id="-310" lat="30.382246" lon="-97.884366" changeset="false"><tag k="addr:street" v="North Quinlan Park Road"/><tag k="addr:housenumber" v="4300"/><tag k="addr:postcode" v="78732"/></node><node id="-311" lat="30.37551" lon="-97.880306" changeset="false"><tag k="addr:street" v="Mira Mesa Drive"/><tag k="addr:housenumber" v="11913"/><tag k="addr:postcode" v="78732"/></node><node id="-312" lat="30.390966" lon="-97.884443" changeset="false"><tag k="addr:street" v="Marshall Ford Road"/><tag k="addr:housenumber" v="5122"/><tag k="addr:postcode" v="78732"/></node><node id="-313" lat="30.354628" lon="-97.864659" changeset="false"><tag k="addr:street" v="Big View Drive"/><tag k="addr:housenumber" v="8808"/><tag k="addr:postcode" v="78732"/></node><node id="-314" lat="30.347881" lon="-97.87545" changeset="false"><tag k="addr:street" v="Big View Drive"/><tag k="addr:housenumber" v="7921"/><tag k="addr:postcode" v="78732"/></node><node id="-315" lat="30.35917" lon="-97.903447" changeset="false"><tag k="addr:street" v="North Quinlan Park Road"/><tag k="addr:housenumber" v="1701 1/2"/><tag k="addr:postcode" v="78732"/></node><node id="-316" lat="30.350455" lon="-97.871217" changeset="false"><tag k="addr:street" v="Big View Drive"/><tag k="addr:housenumber" v="8124"/><tag k="addr:postcode" v="78732"/></node><node id="-317" lat="30.350288" lon="-97.871487" changeset="false"><tag k="addr:street" v="Big View Drive"/><tag k="addr:housenumber" v="8116"/><tag k="addr:postcode" v="78732"/></node><node id="-318" lat="30.336325" lon="-97.93235" changeset="false"><tag k="addr:street" v="Shore Vista Drive"/><tag k="addr:housenumber" v="13234"/><tag k="addr:postcode" v="78732"/></node><node id="-319" lat="30.331766" lon="-97.923285" changeset="false"><tag k="addr:street" v="Merlene Drive"/><tag k="addr:housenumber" v="1103"/><tag k="addr:postcode" v="78732"/></node><node id="-320" lat="30.328064" lon="-97.918916" changeset="false"><tag k="addr:street" v="River Bend"/><tag k="addr:housenumber" v="12405"/><tag k="addr:postcode" v="78732"/></node><node id="-321" lat="30.38186" lon="-97.888938" changeset="false"><tag k="addr:street" v="Gazley Lane"/><tag k="addr:housenumber" v="4104"/><tag k="addr:postcode" v="78732"/></node><node id="-322" lat="30.370701" lon="-97.861003" changeset="false"><tag k="addr:street" v="River Place Boulevard"/><tag k="addr:housenumber" v="4304"/><tag k="addr:postcode" v="78730"/></node><node id="-323" lat="30.356882" lon="-97.890397" changeset="false"><tag k="addr:street" v="University Club Drive"/><tag k="addr:housenumber" v="2305"/><tag k="addr:postcode" v="78732"/></node><node id="-324" lat="30.348948" lon="-97.873477" changeset="false"><tag k="addr:street" v="Big View Drive"/><tag k="addr:housenumber" v="7912"/><tag k="addr:postcode" v="78732"/></node><node id="-325" lat="30.354864" lon="-97.907769" changeset="false"><tag k="addr:street" v="Rush Creek Lane"/><tag k="addr:housenumber" v="12821"/><tag k="addr:postcode" v="78732"/></node><node id="-326" lat="30.351346" lon="-97.869458" changeset="false"><tag k="addr:street" v="Big View Drive"/><tag k="addr:housenumber" v="8308"/><tag k="addr:postcode" v="78732"/></node><node id="-327" lat="30.353886" lon="-97.866136" changeset="false"><tag k="addr:street" v="Big View Drive"/><tag k="addr:housenumber" v="8700"/><tag k="addr:postcode" v="78732"/></node><node id="-328" lat="30.349858" lon="-97.887396" changeset="false"><tag k="addr:street" v="Lakecliff Hills Lane"/><tag k="addr:housenumber" v="1621"/><tag k="addr:postcode" v="78732"/></node><node id="-329" lat="30.347318" lon="-97.875364" changeset="false"><tag k="addr:street" v="Big View Drive"/><tag k="addr:housenumber" v="7909"/><tag k="addr:postcode" v="78732"/></node><node id="-330" lat="30.329401" lon="-97.924187" changeset="false"><tag k="addr:street" v="River Bend"/><tag k="addr:housenumber" v="12610"/><tag k="addr:postcode" v="78732"/></node><node id="-331" lat="30.385055" lon="-97.851759" changeset="false"><tag k="addr:street" v="Brittlyns Court"/><tag k="addr:housenumber" v="5812"/><tag k="addr:postcode" v="78730"/></node><node id="-332" lat="30.3816" lon="-97.89692" changeset="false"><tag k="addr:street" v="Medina River Way"/><tag k="addr:housenumber" v="13013"/><tag k="addr:postcode" v="78732"/></node><node id="-333" lat="30.395258" lon="-97.848386" changeset="false"><tag k="addr:street" v="Ranch to Market Road 2222"/><tag k="addr:housenumber" v="10819"/><tag k="addr:postcode" v="78730"/></node><node id="-334" lat="30.389842" lon="-97.884182" changeset="false"><tag k="addr:street" v="Ranch Road 620"/><tag k="addr:housenumber" v="5139"/><tag k="addr:postcode" v="78732"/></node><node id="-335" lat="30.38192" lon="-97.887305" changeset="false"><tag k="addr:street" v="Canyon Glen Circle"/><tag k="addr:housenumber" v="4300"/><tag k="addr:postcode" v="78732"/></node><node id="-336" lat="30.400465" lon="-97.851757" changeset="false"><tag k="addr:street" v="Ranch to Market Road 2222"/><tag k="addr:housenumber" v="11219 1/2"/><tag k="addr:postcode" v="78730"/></node><node id="-337" lat="30.380751" lon="-97.888735" changeset="false"><tag k="addr:street" v="Canyon Glen Circle"/><tag k="addr:housenumber" v="4037"/><tag k="addr:postcode" v="78732"/></node><node id="-338" lat="30.368257" lon="-97.891805" changeset="false"><tag k="addr:street" v="University Club Drive"/><tag k="addr:housenumber" v="3204"/><tag k="addr:postcode" v="78732"/></node><node id="-339" lat="30.35852" lon="-97.890046" changeset="false"><tag k="addr:street" v="University Club Drive"/><tag k="addr:housenumber" v="2400"/><tag k="addr:postcode" v="78732"/></node><node id="-340" lat="30.358187" lon="-97.887794" changeset="false"><tag k="addr:street" v="Hunters Green Court"/><tag k="addr:housenumber" v="2405"/><tag k="addr:postcode" v="78732"/></node><node id="-341" lat="30.371213" lon="-97.860366" changeset="false"><tag k="addr:street" v="River Place Boulevard"/><tag k="addr:housenumber" v="4400"/><tag k="addr:postcode" v="78730"/></node><node id="-342" lat="30.381728" lon="-97.889905" changeset="false"><tag k="addr:street" v="Canyon Glen Circle"/><tag k="addr:housenumber" v="3957"/><tag k="addr:postcode" v="78732"/></node><node id="-343" lat="30.378261" lon="-97.853563" changeset="false"><tag k="addr:street" v="Sun Tree Cove"/><tag k="addr:housenumber" v="10607"/><tag k="addr:postcode" v="78730"/></node><node id="-344" lat="30.382838" lon="-97.889593" changeset="false"><tag k="addr:street" v="Canyon Glen Circle"/><tag k="addr:housenumber" v="3908"/><tag k="addr:postcode" v="78732"/></node><node id="-345" lat="30.336814" lon="-97.931883" changeset="false"><tag k="addr:street" v="Shore Vista Drive"/><tag k="addr:housenumber" v="13226"/><tag k="addr:postcode" v="78732"/></node><node id="-346" lat="30.382602" lon="-97.887993" changeset="false"><tag k="addr:street" v="Canyon Glen Circle"/><tag k="addr:housenumber" v="4321"/><tag k="addr:postcode" v="78732"/></node><node id="-347" lat="30.331185" lon="-97.921687" changeset="false"><tag k="addr:street" v="Terjo Lane"/><tag k="addr:housenumber" v="1120"/><tag k="addr:postcode" v="78732"/></node><node id="-348" lat="30.349426" lon="-97.888701" changeset="false"><tag k="addr:street" v="Lakecliff Hills Lane"/><tag k="addr:housenumber" v="1612"/><tag k="addr:postcode" v="78732"/></node><node id="-349" lat="30.330555" lon="-97.92249" changeset="false"><tag k="addr:street" v="River Ridge Drive"/><tag k="addr:housenumber" v="1300"/><tag k="addr:postcode" v="78732"/></node><node id="-350" lat="30.364912" lon="-97.887284" changeset="false"><tag k="addr:street" v="University Club Drive"/><tag k="addr:housenumber" v="2900"/><tag k="addr:postcode" v="78732"/></node><node id="-351" lat="30.338126" lon="-97.904745" changeset="false"><tag k="addr:street" v="Selma Hughes Park Road"/><tag k="addr:housenumber" v="11921"/><tag k="addr:postcode" v="78732"/></node><node id="-352" lat="30.330428" lon="-97.926091" changeset="false"><tag k="addr:street" v="South Quinlan Park Road"/><tag k="addr:housenumber" v="1310"/><tag k="addr:postcode" v="78732"/></node><node id="-353" lat="30.340624" lon="-97.919162" changeset="false"><tag k="addr:street" v="Santaluz Path"/><tag k="addr:housenumber" v="557"/><tag k="addr:postcode" v="78732"/></node><node id="-354" lat="30.332282" lon="-97.928238" changeset="false"><tag k="addr:street" v="West Lakeland Drive"/><tag k="addr:housenumber" v="1309"/><tag k="addr:postcode" v="78732"/></node><node id="-355" lat="30.374958" lon="-97.877478" changeset="false"><tag k="addr:street" v="Mira Mesa Drive"/><tag k="addr:housenumber" v="11804"/><tag k="addr:postcode" v="78732"/></node><node id="-356" lat="30.344578" lon="-97.908127" changeset="false"><tag k="addr:street" v="Palisades Parkway"/><tag k="addr:housenumber" v="12224"/><tag k="addr:postcode" v="78732"/></node><node id="-357" lat="30.346117" lon="-97.917976" changeset="false"><tag k="addr:street" v="Tierra Grande Trail"/><tag k="addr:housenumber" v="12917 1/2"/><tag k="addr:postcode" v="78732"/></node><node id="-358" lat="30.343447" lon="-97.903793" changeset="false"><tag k="addr:street" v="Piedmont Hills Pass"/><tag k="addr:housenumber" v="221"/><tag k="addr:postcode" v="78732"/></node><node id="-359" lat="30.342076" lon="-97.903373" changeset="false"><tag k="addr:street" v="Piedmont Hills Pass"/><tag k="addr:housenumber" v="116"/><tag k="addr:postcode" v="78732"/></node><node id="-360" lat="30.342249" lon="-97.903428" changeset="false"><tag k="addr:street" v="Piedmont Hills Pass"/><tag k="addr:housenumber" v="120"/><tag k="addr:postcode" v="78732"/></node><node id="-361" lat="30.34244" lon="-97.903498" changeset="false"><tag k="addr:street" v="Piedmont Hills Pass"/><tag k="addr:housenumber" v="200"/><tag k="addr:postcode" v="78732"/></node><node id="-362" lat="30.343046" lon="-97.904882" changeset="false"><tag k="addr:street" v="Piedmont Hills Pass"/><tag k="addr:housenumber" v="304"/><tag k="addr:postcode" v="78732"/></node><node id="-363" lat="30.34227" lon="-97.901932" changeset="false"><tag k="addr:street" v="Palisades Parkway"/><tag k="addr:housenumber" v="11700"/><tag k="addr:postcode" v="78732"/></node><node id="-364" lat="30.3416" lon="-97.901364" changeset="false"><tag k="addr:street" v="Palisades Parkway"/><tag k="addr:housenumber" v="11701"/><tag k="addr:postcode" v="78732"/></node><node id="-365" lat="30.341406" lon="-97.904814" changeset="false"><tag k="addr:street" v="Palisades Parkway"/><tag k="addr:housenumber" v="11921"/><tag k="addr:postcode" v="78732"/></node><node id="-366" lat="30.341054" lon="-97.911191" changeset="false"><tag k="addr:street" v="Mediterra Place"/><tag k="addr:housenumber" v="12413"/><tag k="addr:postcode" v="78732"/></node><node id="-367" lat="30.339671" lon="-97.917977" changeset="false"><tag k="addr:street" v="Santaluz Path"/><tag k="addr:housenumber" v="709"/><tag k="addr:postcode" v="78732"/></node><node id="-368" lat="30.339887" lon="-97.917718" changeset="false"><tag k="addr:street" v="Santaluz Path"/><tag k="addr:housenumber" v="717"/><tag k="addr:postcode" v="78732"/></node><node id="-369" lat="30.331657" lon="-97.927367" changeset="false"><tag k="addr:street" v="East Lakeland Drive"/><tag k="addr:housenumber" v="1401"/><tag k="addr:postcode" v="78732"/></node><node id="-370" lat="30.398707" lon="-97.85574" changeset="false"><tag k="addr:street" v="Ranch Road 620"/><tag k="addr:housenumber" v="6701"/><tag k="addr:postcode" v="78730"/></node><node id="-371" lat="30.345403" lon="-97.894275" changeset="false"><tag k="addr:street" v="University Club Drive"/><tag k="addr:housenumber" v="1412"/><tag k="addr:postcode" v="78732"/></node><node id="-372" lat="30.377143" lon="-97.884303" changeset="false"><tag k="addr:street" v="North Quinlan Park Road"/><tag k="addr:housenumber" v="3905 1/2"/><tag k="addr:postcode" v="78732"/></node><node id="-373" lat="30.350186" lon="-97.87252" changeset="false"><tag k="addr:street" v="Big View Drive"/><tag k="addr:housenumber" v="8021"/><tag k="addr:postcode" v="78732"/></node><node id="-374" lat="30.331798" lon="-97.926008" changeset="false"><tag k="addr:street" v="Minnie Drive"/><tag k="addr:housenumber" v="1303"/><tag k="addr:postcode" v="78732"/></node><node id="-375" lat="30.395387" lon="-97.862193" changeset="false"><tag k="addr:street" v="Ranch Road 620"/><tag k="addr:housenumber" v="6325"/><tag k="addr:postcode" v="78730"/></node><node id="-376" lat="30.330683" lon="-97.930959" changeset="false"><tag k="addr:street" v="Shore Vista Drive"/><tag k="addr:housenumber" v="13434"/><tag k="addr:postcode" v="78732"/></node><node id="-377" lat="30.363041" lon="-97.893322" changeset="false"><tag k="addr:street" v="Fairway Cove"/><tag k="addr:housenumber" v="12209"/><tag k="addr:postcode" v="78732"/></node><node id="-378" lat="30.363478" lon="-97.893521" changeset="false"><tag k="addr:street" v="Fairway Cove"/><tag k="addr:housenumber" v="12221"/><tag k="addr:postcode" v="78732"/></node><node id="-379" lat="30.340813" lon="-97.919287" changeset="false"><tag k="addr:street" v="Santaluz Path"/><tag k="addr:housenumber" v="549"/><tag k="addr:postcode" v="78732"/></node><node id="-380" lat="30.395968" lon="-97.848341" changeset="false"><tag k="addr:street" v="Ranch to Market Road 2222"/><tag k="addr:housenumber" v="10901"/><tag k="addr:postcode" v="78730"/></node><node id="-381" lat="30.364751" lon="-97.893902" changeset="false"><tag k="addr:street" v="Fairway Cove"/><tag k="addr:housenumber" v="12313"/><tag k="addr:postcode" v="78732"/></node><node id="-382" lat="30.365455" lon="-97.893236" changeset="false"><tag k="addr:street" v="Fairway Cove"/><tag k="addr:housenumber" v="12332"/><tag k="addr:postcode" v="78732"/></node><node id="-383" lat="30.342309" lon="-97.905461" changeset="false"><tag k="addr:street" v="Palisades Parkway"/><tag k="addr:housenumber" v="12005"/><tag k="addr:postcode" v="78732"/></node><node id="-384" lat="30.342602" lon="-97.905727" changeset="false"><tag k="addr:street" v="Palisades Parkway"/><tag k="addr:housenumber" v="12013"/><tag k="addr:postcode" v="78732"/></node><node id="-385" lat="30.370686" lon="-97.862259" changeset="false"><tag k="addr:street" v="Range View Drive"/><tag k="addr:housenumber" v="10809"/><tag k="addr:postcode" v="78730"/></node><node id="-386" lat="30.378084" lon="-97.885534" changeset="false"><tag k="addr:street" v="North Quinlan Park Road"/><tag k="addr:housenumber" v="4008 1/2"/><tag k="addr:postcode" v="78732"/></node><node id="-387" lat="30.357368" lon="-97.89202" changeset="false"><tag k="addr:street" v="University Club Drive"/><tag k="addr:housenumber" v="2210"/><tag k="addr:postcode" v="78732"/></node><node id="-388" lat="30.332876" lon="-97.923802" changeset="false"><tag k="addr:street" v="South Quinlan Park Road"/><tag k="addr:housenumber" v="1017"/><tag k="addr:postcode" v="78732"/></node><node id="-389" lat="30.36723" lon="-97.863745" changeset="false"><tag k="addr:street" v="Love Bird Lane"/><tag k="addr:housenumber" v="4014"/><tag k="addr:postcode" v="78730"/></node><node id="-390" lat="30.378497" lon="-97.85495" changeset="false"><tag k="addr:street" v="Eagle Trace Trail"/><tag k="addr:housenumber" v="5201"/><tag k="addr:postcode" v="78730"/></node><node id="-391" lat="30.375026" lon="-97.877841" changeset="false"><tag k="addr:street" v="Mira Mesa Drive"/><tag k="addr:housenumber" v="11808"/><tag k="addr:postcode" v="78732"/></node><node id="-392" lat="30.336622" lon="-97.912252" changeset="false"><tag k="addr:street" v="Selma Hughes Park Road"/><tag k="addr:housenumber" v="12319"/><tag k="addr:postcode" v="78732"/></node><node id="-393" lat="30.379921" lon="-97.887059" changeset="false"><tag k="addr:street" v="Canyon Glen Circle"/><tag k="addr:housenumber" v="4129"/><tag k="addr:postcode" v="78732"/></node><node id="-394" lat="30.37938" lon="-97.886377" changeset="false"><tag k="addr:street" v="Canyon Glen Circle"/><tag k="addr:housenumber" v="4149"/><tag k="addr:postcode" v="78732"/></node><node id="-395" lat="30.382398" lon="-97.884516" changeset="false"><tag k="addr:street" v="North Quinlan Park Road"/><tag k="addr:housenumber" v="4308"/><tag k="addr:postcode" v="78732"/></node><node id="-396" lat="30.38111" lon="-97.895151" changeset="false"><tag k="addr:street" v="Medina River Way"/><tag k="addr:housenumber" v="12911"/><tag k="addr:postcode" v="78732"/></node><node id="-397" lat="30.370406" lon="-97.887719" changeset="false"><tag k="addr:street" v="North Quinlan Park Road"/><tag k="addr:housenumber" v="3315 1/2"/><tag k="addr:postcode" v="78732"/></node><node id="-398" lat="30.328496" lon="-97.925222" changeset="false"><tag k="addr:street" v="East Lane"/><tag k="addr:housenumber" v="1506"/><tag k="addr:postcode" v="78732"/></node><node id="-399" lat="30.329422" lon="-97.927251" changeset="false"><tag k="addr:street" v="River Bend"/><tag k="addr:housenumber" v="12811"/><tag k="addr:postcode" v="78732"/></node><node id="-400" lat="30.329592" lon="-97.927904" changeset="false"><tag k="addr:street" v="River Bend"/><tag k="addr:housenumber" v="12903"/><tag k="addr:postcode" v="78732"/></node><node id="-401" lat="30.381669" lon="-97.888566" changeset="false"><tag k="addr:street" v="Gazley Lane"/><tag k="addr:housenumber" v="4113"/><tag k="addr:postcode" v="78732"/></node><node id="-402" lat="30.381408" lon="-97.887398" changeset="false"><tag k="addr:street" v="Canyon Glen Drive"/><tag k="addr:housenumber" v="12540"/><tag k="addr:postcode" v="78732"/></node><node id="-403" lat="30.334614" lon="-97.923015" changeset="false"><tag k="addr:street" v="Shore Vista Drive"/><tag k="addr:housenumber" v="12801 1/2"/><tag k="addr:postcode" v="78732"/></node><node id="-404" lat="30.334479" lon="-97.923153" changeset="false"><tag k="addr:street" v="South Quinlan Park Road"/><tag k="addr:housenumber" v="1012"/><tag k="addr:postcode" v="78732"/></node><node id="-405" lat="30.334437" lon="-97.923481" changeset="false"><tag k="addr:street" v="Shore Vista Drive"/><tag k="addr:housenumber" v="12801"/><tag k="addr:postcode" v="78732"/></node><node id="-406" lat="30.4028" lon="-97.853472" changeset="false"><tag k="addr:street" v="Ranch to Market Road 2222"/><tag k="addr:housenumber" v="11415"/><tag k="addr:postcode" v="78730"/></node><node id="-407" lat="30.373664" lon="-97.8568" changeset="false"><tag k="addr:street" v="River Place Boulevard"/><tag k="addr:housenumber" v="4706"/><tag k="addr:postcode" v="78730"/></node><node id="-408" lat="30.359288" lon="-97.886708" changeset="false"><tag k="addr:street" v="Woodland Hills Trail"/><tag k="addr:housenumber" v="11229 1/2"/><tag k="addr:postcode" v="78732"/></node><node id="-409" lat="30.38058" lon="-97.88625" changeset="false"><tag k="addr:street" v="Canyon Glen Drive"/><tag k="addr:housenumber" v="12505"/><tag k="addr:postcode" v="78732"/></node><node id="-410" lat="30.367759" lon="-97.862323" changeset="false"><tag k="addr:street" v="River Place Boulevard"/><tag k="addr:housenumber" v="4100"/><tag k="addr:postcode" v="78730"/></node><node id="-411" lat="30.388719" lon="-97.849361" changeset="false"><tag k="addr:street" v="River Place Boulevard"/><tag k="addr:housenumber" v="6214 1/2"/><tag k="addr:postcode" v="78730"/></node><node id="-412" lat="30.341802" lon="-97.918162" changeset="false"><tag k="addr:street" v="Santaluz Path"/><tag k="addr:housenumber" v="921"/><tag k="addr:postcode" v="78732"/></node><node id="-413" lat="30.367291" lon="-97.89113" changeset="false"><tag k="addr:street" v="University Club Drive"/><tag k="addr:housenumber" v="3120"/><tag k="addr:postcode" v="78732"/></node><node id="-414" lat="30.342631" lon="-97.908449" changeset="false"><tag k="addr:street" v="Edenvale Path"/><tag k="addr:housenumber" v="12308"/><tag k="addr:postcode" v="78732"/></node><node id="-415" lat="30.342151" lon="-97.903976" changeset="false"><tag k="addr:street" v="Palisades Cove"/><tag k="addr:housenumber" v="105"/><tag k="addr:postcode" v="78732"/></node><node id="-416" lat="30.341162" lon="-97.902096" changeset="false"><tag k="addr:street" v="Palisades Parkway"/><tag k="addr:housenumber" v="11717"/><tag k="addr:postcode" v="78732"/></node><node id="-417" lat="30.340686" lon="-97.903123" changeset="false"><tag k="addr:street" v="Palisades Parkway"/><tag k="addr:housenumber" v="11817"/><tag k="addr:postcode" v="78732"/></node><node id="-418" lat="30.339648" lon="-97.909151" changeset="false"><tag k="addr:street" v="Emerald Ridge Drive"/><tag k="addr:housenumber" v="409"/><tag k="addr:postcode" v="78732"/></node><node id="-419" lat="30.332298" lon="-97.925629" changeset="false"><tag k="addr:street" v="Minnie Drive"/><tag k="addr:housenumber" v="1205"/><tag k="addr:postcode" v="78732"/></node><node id="-420" lat="30.332866" lon="-97.923194" changeset="false"><tag k="addr:street" v="Merlene Drive"/><tag k="addr:housenumber" v="1028"/><tag k="addr:postcode" v="78732"/></node><node id="-421" lat="30.348019" lon="-97.913728" changeset="false"><tag k="addr:street" v="El Socorro Lane"/><tag k="addr:housenumber" v="325"/><tag k="addr:postcode" v="78732"/></node><node id="-422" lat="30.340709" lon="-97.911892" changeset="false"><tag k="addr:street" v="Emerald Ridge Drive"/><tag k="addr:housenumber" v="600"/><tag k="addr:postcode" v="78732"/></node><node id="-423" lat="30.363073" lon="-97.892941" changeset="false"><tag k="addr:street" v="Fairway Cove"/><tag k="addr:housenumber" v="12204"/><tag k="addr:postcode" v="78732"/></node><node id="-424" lat="30.365032" lon="-97.893771" changeset="false"><tag k="addr:street" v="Fairway Cove"/><tag k="addr:housenumber" v="12321"/><tag k="addr:postcode" v="78732"/></node><node id="-425" lat="30.365185" lon="-97.893751" changeset="false"><tag k="addr:street" v="Fairway Cove"/><tag k="addr:housenumber" v="12325"/><tag k="addr:postcode" v="78732"/></node><node id="-426" lat="30.339772" lon="-97.918619" changeset="false"><tag k="addr:street" v="Santaluz Path"/><tag k="addr:housenumber" v="613"/><tag k="addr:postcode" v="78732"/></node><node id="-427" lat="30.340813" lon="-97.916915" changeset="false"><tag k="addr:street" v="Santaluz Path"/><tag k="addr:housenumber" v="824"/><tag k="addr:postcode" v="78732"/></node><node id="-428" lat="30.343314" lon="-97.905441" changeset="false"><tag k="addr:street" v="Palisades Parkway"/><tag k="addr:housenumber" v="12016"/><tag k="addr:postcode" v="78732"/></node><node id="-429" lat="30.347709" lon="-97.914238" changeset="false"><tag k="addr:street" v="El Socorro Lane"/><tag k="addr:housenumber" v="309"/><tag k="addr:postcode" v="78732"/></node><node id="-430" lat="30.34235" lon="-97.911266" changeset="false"><tag k="addr:street" v="Mediterra Point"/><tag k="addr:housenumber" v="232"/><tag k="addr:postcode" v="78732"/></node><node id="-431" lat="30.37834" lon="-97.856413" changeset="false"><tag k="addr:street" v="Sun Tree Cove"/><tag k="addr:housenumber" v="10710"/><tag k="addr:postcode" v="78730"/></node><node id="-432" lat="30.345034" lon="-97.893586" changeset="false"><tag k="addr:street" v="University Club Drive"/><tag k="addr:housenumber" v="1405"/><tag k="addr:postcode" v="78732"/></node><node id="-433" lat="30.330235" lon="-97.921096" changeset="false"><tag k="addr:street" v="Terjo Lane"/><tag k="addr:housenumber" v="1204"/><tag k="addr:postcode" v="78732"/></node><node id="-434" lat="30.364389" lon="-97.893515" changeset="false"><tag k="addr:street" v="Fairway Cove"/><tag k="addr:housenumber" v="12300"/><tag k="addr:postcode" v="78732"/></node><node id="-435" lat="30.342687" lon="-97.914819" changeset="false"><tag k="addr:street" v="Tierra Grande Trail"/><tag k="addr:housenumber" v="12508"/><tag k="addr:postcode" v="78732"/></node><node id="-436" lat="30.394916" lon="-97.863912" changeset="false"><tag k="addr:street" v="Ranch Road 620"/><tag k="addr:housenumber" v="6125"/><tag k="addr:postcode" v="78730"/></node><node id="-437" lat="30.356015" lon="-97.865588" changeset="false"><tag k="addr:street" v="Big View Drive"/><tag k="addr:housenumber" v="8825"/><tag k="addr:postcode" v="78732"/></node><node id="-438" lat="30.34666" lon="-97.913463" changeset="false"><tag k="addr:street" v="Monterey Path"/><tag k="addr:housenumber" v="12608"/><tag k="addr:postcode" v="78732"/></node><node id="-439" lat="30.346165" lon="-97.913686" changeset="false"><tag k="addr:street" v="Monterey Path"/><tag k="addr:housenumber" v="12605 1/2"/><tag k="addr:postcode" v="78732"/></node><node id="-440" lat="30.340282" lon="-97.916843" changeset="false"><tag k="addr:street" v="Santaluz Path"/><tag k="addr:housenumber" v="808"/><tag k="addr:postcode" v="78732"/></node><node id="-441" lat="30.387516" lon="-97.882066" changeset="false"><tag k="addr:street" v="North Quinlan Park Road"/><tag k="addr:housenumber" v="4801"/><tag k="addr:postcode" v="78732"/></node><node id="-442" lat="30.349252" lon="-97.872879" changeset="false"><tag k="addr:street" v="Big View Drive"/><tag k="addr:housenumber" v="8008"/><tag k="addr:postcode" v="78732"/></node><node id="-443" lat="30.339795" lon="-97.908898" changeset="false"><tag k="addr:street" v="Emerald Ridge Drive"/><tag k="addr:housenumber" v="405"/><tag k="addr:postcode" v="78732"/></node><node id="-444" lat="30.330371" lon="-97.926834" changeset="false"><tag k="addr:street" v="Minnie Drive"/><tag k="addr:housenumber" v="1407"/><tag k="addr:postcode" v="78732"/></node><node id="-445" lat="30.331455" lon="-97.926174" changeset="false"><tag k="addr:street" v="Minnie Drive"/><tag k="addr:housenumber" v="1305"/><tag k="addr:postcode" v="78732"/></node><node id="-446" lat="30.365544" lon="-97.893622" changeset="false"><tag k="addr:street" v="Fairway Cove"/><tag k="addr:housenumber" v="12333"/><tag k="addr:postcode" v="78732"/></node><node id="-447" lat="30.3318" lon="-97.927299" changeset="false"><tag k="addr:street" v="East Lakeland Drive"/><tag k="addr:housenumber" v="1309"/><tag k="addr:postcode" v="78732"/></node><node id="-448" lat="30.342447" lon="-97.905614" changeset="false"><tag k="addr:street" v="Palisades Parkway"/><tag k="addr:housenumber" v="12009"/><tag k="addr:postcode" v="78732"/></node><node id="-449" lat="30.33217" lon="-97.926292" changeset="false"><tag k="addr:street" v="Minnie Drive"/><tag k="addr:housenumber" v="1300"/><tag k="addr:postcode" v="78732"/></node><node id="-450" lat="30.331634" lon="-97.926687" changeset="false"><tag k="addr:street" v="Minnie Drive"/><tag k="addr:housenumber" v="1306"/><tag k="addr:postcode" v="78732"/></node><node id="-451" lat="30.394648" lon="-97.865136" changeset="false"><tag k="addr:street" v="Ranch Road 620"/><tag k="addr:housenumber" v="6025"/><tag k="addr:postcode" v="78730"/></node><node id="-452" lat="30.391446" lon="-97.885889" changeset="false"><tag k="addr:street" v="Ranch Road 620"/><tag k="addr:housenumber" v="4900"/><tag k="addr:postcode" v="78732"/></node><node id="-453" lat="30.364914" lon="-97.893398" changeset="false"><tag k="addr:street" v="Fairway Cove"/><tag k="addr:housenumber" v="12320"/><tag k="addr:postcode" v="78732"/></node><node id="-454" lat="30.363323" lon="-97.893471" changeset="false"><tag k="addr:street" v="Fairway Cove"/><tag k="addr:housenumber" v="12217"/><tag k="addr:postcode" v="78732"/></node><node id="-455" lat="30.363601" lon="-97.893601" changeset="false"><tag k="addr:street" v="Fairway Cove"/><tag k="addr:housenumber" v="12225"/><tag k="addr:postcode" v="78732"/></node><node id="-456" lat="30.342184" lon="-97.902123" changeset="false"><tag k="addr:street" v="Palisades Parkway"/><tag k="addr:housenumber" v="11704"/><tag k="addr:postcode" v="78732"/></node><node id="-457" lat="30.341502" lon="-97.901568" changeset="false"><tag k="addr:street" v="Palisades Parkway"/><tag k="addr:housenumber" v="11705"/><tag k="addr:postcode" v="78732"/></node><node id="-458" lat="30.341387" lon="-97.901746" changeset="false"><tag k="addr:street" v="Palisades Parkway"/><tag k="addr:housenumber" v="11709"/><tag k="addr:postcode" v="78732"/></node><node id="-459" lat="30.340921" lon="-97.902453" changeset="false"><tag k="addr:street" v="Palisades Parkway"/><tag k="addr:housenumber" v="11805"/><tag k="addr:postcode" v="78732"/></node><node id="-460" lat="30.340869" lon="-97.904145" changeset="false"><tag k="addr:street" v="Palisades Parkway"/><tag k="addr:housenumber" v="11905"/><tag k="addr:postcode" v="78732"/></node><node id="-461" lat="30.341595" lon="-97.904972" changeset="false"><tag k="addr:street" v="Palisades Parkway"/><tag k="addr:housenumber" v="11925"/><tag k="addr:postcode" v="78732"/></node><node id="-462" lat="30.394679" lon="-97.847547" changeset="false"><tag k="addr:street" v="Ranch to Market Road 2222"/><tag k="addr:housenumber" v="10815"/><tag k="addr:postcode" v="78730"/></node><node id="-463" lat="30.342613" lon="-97.903082" changeset="false"><tag k="addr:street" v="Piedmont Hills Pass"/><tag k="addr:housenumber" v="201"/><tag k="addr:postcode" v="78732"/></node><node id="-464" lat="30.342622" lon="-97.903552" changeset="false"><tag k="addr:street" v="Piedmont Hills Pass"/><tag k="addr:housenumber" v="204"/><tag k="addr:postcode" v="78732"/></node><node id="-465" lat="30.343184" lon="-97.904355" changeset="false"><tag k="addr:street" v="Piedmont Hills Pass"/><tag k="addr:housenumber" v="220"/><tag k="addr:postcode" v="78732"/></node><node id="-466" lat="30.346827" lon="-97.911073" changeset="false"><tag k="addr:street" v="Calistoga Court"/><tag k="addr:housenumber" v="321"/><tag k="addr:postcode" v="78732"/></node><node id="-467" lat="30.359421" lon="-97.89996" changeset="false"><tag k="addr:street" v="Rayo de Luna Lane"/><tag k="addr:housenumber" v="12217 1/2"/><tag k="addr:postcode" v="78732"/></node><node id="-468" lat="30.340882" lon="-97.910666" changeset="false"><tag k="addr:street" v="Mediterra Place"/><tag k="addr:housenumber" v="12401"/><tag k="addr:postcode" v="78732"/></node><node id="-469" lat="30.341096" lon="-97.911371" changeset="false"><tag k="addr:street" v="Mediterra Place"/><tag k="addr:housenumber" v="12417"/><tag k="addr:postcode" v="78732"/></node><node id="-470" lat="30.347872" lon="-97.913967" changeset="false"><tag k="addr:street" v="El Socorro Lane"/><tag k="addr:housenumber" v="317"/><tag k="addr:postcode" v="78732"/></node><node id="-471" lat="30.341773" lon="-97.905137" changeset="false"><tag k="addr:street" v="Palisades Parkway"/><tag k="addr:housenumber" v="11929"/><tag k="addr:postcode" v="78732"/></node><node id="-472" lat="30.351454" lon="-97.904001" changeset="false"><tag k="addr:street" v="Horseback Hollow"/><tag k="addr:housenumber" v="818 1/2"/><tag k="addr:postcode" v="78732"/></node><node id="-473" lat="30.356578" lon="-97.904251" changeset="false"><tag k="addr:street" v="Capitol Saddlery Trail"/><tag k="addr:housenumber" v="12600 1/2"/><tag k="addr:postcode" v="78732"/></node><node id="-474" lat="30.334582" lon="-97.924372" changeset="false"><tag k="addr:street" v="Shore Vista Drive"/><tag k="addr:housenumber" v="12825"/><tag k="addr:postcode" v="78732"/></node><node id="-475" lat="30.331701" lon="-97.922826" changeset="false"><tag k="addr:street" v="River Ridge Drive"/><tag k="addr:housenumber" v="1102"/><tag k="addr:postcode" v="78732"/></node><node id="-476" lat="30.327206" lon="-97.926942" changeset="false"><tag k="addr:street" v="South Quinlan Park Road"/><tag k="addr:housenumber" v="1707"/><tag k="addr:postcode" v="78732"/></node><node id="-477" lat="30.340219" lon="-97.918947" changeset="false"><tag k="addr:street" v="Santaluz Path"/><tag k="addr:housenumber" v="601"/><tag k="addr:postcode" v="78732"/></node><node id="-478" lat="30.33911" lon="-97.917839" changeset="false"><tag k="addr:street" v="Santaluz Path"/><tag k="addr:housenumber" v="708"/><tag k="addr:postcode" v="78732"/></node><node id="-479" lat="30.363817" lon="-97.89329" changeset="false"><tag k="addr:street" v="Fairway Cove"/><tag k="addr:housenumber" v="12224"/><tag k="addr:postcode" v="78732"/></node><node id="-480" lat="30.363855" lon="-97.892151" changeset="false"><tag k="addr:street" v="Long Bay Cove"/><tag k="addr:housenumber" v="12213"/><tag k="addr:postcode" v="78732"/></node><node id="-481" lat="30.363666" lon="-97.892375" changeset="false"><tag k="addr:street" v="Long Bay Cove"/><tag k="addr:housenumber" v="12221"/><tag k="addr:postcode" v="78732"/></node><node id="-482" lat="30.341257" lon="-97.919513" changeset="false"><tag k="addr:street" v="Santaluz Path"/><tag k="addr:housenumber" v="533"/><tag k="addr:postcode" v="78732"/></node><node id="-483" lat="30.341998" lon="-97.917639" changeset="false"><tag k="addr:street" v="Santaluz Path"/><tag k="addr:housenumber" v="924"/><tag k="addr:postcode" v="78732"/></node><node id="-484" lat="30.331457" lon="-97.926873" changeset="false"><tag k="addr:street" v="Minnie Drive"/><tag k="addr:housenumber" v="1308"/><tag k="addr:postcode" v="78732"/></node><node id="-485" lat="30.350601" lon="-97.870883" changeset="false"><tag k="addr:street" v="Big View Drive"/><tag k="addr:housenumber" v="8200"/><tag k="addr:postcode" v="78732"/></node><node id="-486" lat="30.35155" lon="-97.869133" changeset="false"><tag k="addr:street" v="Big View Drive"/><tag k="addr:housenumber" v="8316"/><tag k="addr:postcode" v="78732"/></node><node id="-487" lat="30.32938" lon="-97.927562" changeset="false"><tag k="addr:street" v="River Bend"/><tag k="addr:housenumber" v="12815"/><tag k="addr:postcode" v="78732"/></node><node id="-488" lat="30.329158" lon="-97.921129" changeset="false"><tag k="addr:street" v="River Bend"/><tag k="addr:housenumber" v="12500"/><tag k="addr:postcode" v="78732"/></node><node id="-489" lat="30.380597" lon="-97.886595" changeset="false"><tag k="addr:street" v="Canyon Glen Drive"/><tag k="addr:housenumber" v="12513"/><tag k="addr:postcode" v="78732"/></node><node id="-490" lat="30.374729" lon="-97.878839" changeset="false"><tag k="addr:street" v="Mira Mesa Drive"/><tag k="addr:housenumber" v="11821"/><tag k="addr:postcode" v="78732"/></node><node id="-491" lat="30.328942" lon="-97.92508" changeset="false"><tag k="addr:street" v="East Lane"/><tag k="addr:housenumber" v="1500"/><tag k="addr:postcode" v="78732"/></node><node id="-492" lat="30.332367" lon="-97.921481" changeset="false"><tag k="addr:street" v="Rocky Drive"/><tag k="addr:housenumber" v="1003"/><tag k="addr:postcode" v="78732"/></node><node id="-493" lat="30.352713" lon="-97.887973" changeset="false"><tag k="addr:street" v="Lakecliff Hills Lane"/><tag k="addr:housenumber" v="1808 1/2"/><tag k="addr:postcode" v="78732"/></node><node id="-494" lat="30.33189" lon="-97.929798" changeset="false"><tag k="addr:street" v="Shore Vista Drive"/><tag k="addr:housenumber" v="13441"/><tag k="addr:postcode" v="78732"/></node><node id="-495" lat="30.331494" lon="-97.921286" changeset="false"><tag k="addr:street" v="Terjo Lane"/><tag k="addr:housenumber" v="1119"/><tag k="addr:postcode" v="78732"/></node><node id="-496" lat="30.331051" lon="-97.931363" changeset="false"><tag k="addr:street" v="Shore Vista Drive"/><tag k="addr:housenumber" v="13428"/><tag k="addr:postcode" v="78732"/></node><node id="-497" lat="30.330582" lon="-97.92207" changeset="false"><tag k="addr:street" v="River Ridge Drive"/><tag k="addr:housenumber" v="1205"/><tag k="addr:postcode" v="78732"/></node><node id="-498" lat="30.330545" lon="-97.926686" changeset="false"><tag k="addr:street" v="Minnie Drive"/><tag k="addr:housenumber" v="1405"/><tag k="addr:postcode" v="78732"/></node><node id="-499" lat="30.330424" lon="-97.92299" changeset="false"><tag k="addr:street" v="Summit Edge Drive"/><tag k="addr:housenumber" v="1301"/><tag k="addr:postcode" v="78732"/></node><node id="-500" lat="30.33031" lon="-97.925443" changeset="false"><tag k="addr:street" v="South Quinlan Park Road"/><tag k="addr:housenumber" v="1401"/><tag k="addr:postcode" v="78732"/></node><node id="-501" lat="30.382633" lon="-97.890502" changeset="false"><tag k="addr:street" v="Canyon Glen Circle"/><tag k="addr:housenumber" v="3929"/><tag k="addr:postcode" v="78732"/></node><node id="-502" lat="30.382469" lon="-97.88884" changeset="false"><tag k="addr:street" v="Seldalia Trail"/><tag k="addr:housenumber" v="4121"/><tag k="addr:postcode" v="78732"/></node><node id="-503" lat="30.380001" lon="-97.887207" changeset="false"><tag k="addr:street" v="Canyon Glen Circle"/><tag k="addr:housenumber" v="4125"/><tag k="addr:postcode" v="78732"/></node><node id="-504" lat="30.380871" lon="-97.888845" changeset="false"><tag k="addr:street" v="Canyon Glen Circle"/><tag k="addr:housenumber" v="4033"/><tag k="addr:postcode" v="78732"/></node><node id="-505" lat="30.371569" lon="-97.859114" changeset="false"><tag k="addr:street" v="River Place Boulevard"/><tag k="addr:housenumber" v="4500"/><tag k="addr:postcode" v="78730"/></node><node id="-506" lat="30.392018" lon="-97.848345" changeset="false"><tag k="addr:street" v="River Place Boulevard"/><tag k="addr:housenumber" v="6500"/><tag k="addr:postcode" v="78730"/></node><node id="-507" lat="30.375904" lon="-97.853707" changeset="false"><tag k="addr:street" v="River Place Boulevard"/><tag k="addr:housenumber" v="5000"/><tag k="addr:postcode" v="78730"/></node><node id="-508" lat="30.335272" lon="-97.906656" changeset="false"><tag k="addr:street" v="Selma Hughes Park Road"/><tag k="addr:housenumber" v="12035"/><tag k="addr:postcode" v="78732"/></node><node id="-509" lat="30.335035" lon="-97.907025" changeset="false"><tag k="addr:street" v="Selma Hughes Park Road"/><tag k="addr:housenumber" v="12039"/><tag k="addr:postcode" v="78732"/></node><node id="-510" lat="30.357321" lon="-97.889621" changeset="false"><tag k="addr:street" v="University Club Drive"/><tag k="addr:housenumber" v="2321"/><tag k="addr:postcode" v="78732"/></node><node id="-511" lat="30.329474" lon="-97.92773" changeset="false"><tag k="addr:street" v="River Bend"/><tag k="addr:housenumber" v="12901"/><tag k="addr:postcode" v="78732"/></node><node id="-512" lat="30.38193" lon="-97.890129" changeset="false"><tag k="addr:street" v="Canyon Glen Circle"/><tag k="addr:housenumber" v="3949"/><tag k="addr:postcode" v="78732"/></node><node id="-513" lat="30.382333" lon="-97.887454" changeset="false"><tag k="addr:street" v="Canyon Glen Circle"/><tag k="addr:housenumber" v="4305"/><tag k="addr:postcode" v="78732"/></node><node id="-514" lat="30.349892" lon="-97.871917" changeset="false"><tag k="addr:street" v="Big View Drive"/><tag k="addr:housenumber" v="8100"/><tag k="addr:postcode" v="78732"/></node><node id="-515" lat="30.383238" lon="-97.889343" changeset="false"><tag k="addr:street" v="Canyon Glen Circle"/><tag k="addr:housenumber" v="4365"/><tag k="addr:postcode" v="78732"/></node><node id="-516" lat="30.379481" lon="-97.890908" changeset="false"><tag k="addr:street" v="Mc Nelly Trail"/><tag k="addr:housenumber" v="12609"/><tag k="addr:postcode" v="78732"/></node><node id="-517" lat="30.332289" lon="-97.924313" changeset="false"><tag k="addr:street" v="South Quinlan Park Road"/><tag k="addr:housenumber" v="1103"/><tag k="addr:postcode" v="78732"/></node><node id="-518" lat="30.330877" lon="-97.9234" changeset="false"><tag k="addr:street" v="Summit Edge Drive"/><tag k="addr:housenumber" v="1206"/><tag k="addr:postcode" v="78732"/></node><node id="-519" lat="30.394363" lon="-97.845989" changeset="false"><tag k="addr:street" v="Ranch to Market Road 2222"/><tag k="addr:housenumber" v="10711"/><tag k="addr:postcode" v="78730"/></node><node id="-520" lat="30.390807" lon="-97.884499" changeset="false"><tag k="addr:street" v="Marshall Ford Road"/><tag k="addr:housenumber" v="5126"/><tag k="addr:postcode" v="78732"/></node><node id="-521" lat="30.384609" lon="-97.851891" changeset="false"><tag k="addr:street" v="Brittlyns Court"/><tag k="addr:housenumber" v="5800"/><tag k="addr:postcode" v="78730"/></node><node id="-522" lat="30.391068" lon="-97.848113" changeset="false"><tag k="addr:street" v="River Place Boulevard"/><tag k="addr:housenumber" v="6408"/><tag k="addr:postcode" v="78730"/></node><node id="-523" lat="30.380499" lon="-97.887475" changeset="false"><tag k="addr:street" v="Canyon Glen Circle"/><tag k="addr:housenumber" v="4112"/><tag k="addr:postcode" v="78732"/></node><node id="-524" lat="30.381414" lon="-97.884793" changeset="false"><tag k="addr:street" v="North Quinlan Park Road"/><tag k="addr:housenumber" v="4232"/><tag k="addr:postcode" v="78732"/></node><node id="-525" lat="30.374684" lon="-97.883384" changeset="false"><tag k="addr:street" v="Mira Vista Drive"/><tag k="addr:housenumber" v="3708"/><tag k="addr:postcode" v="78732"/></node><node id="-526" lat="30.358118" lon="-97.889489" changeset="false"><tag k="addr:street" v="University Club Drive"/><tag k="addr:housenumber" v="2400 1/2"/><tag k="addr:postcode" v="78732"/></node><node id="-527" lat="30.377414" lon="-97.892552" changeset="false"><tag k="addr:street" v="Grierson Trail"/><tag k="addr:housenumber" v="12701"/><tag k="addr:postcode" v="78732"/></node><node id="-528" lat="30.381962" lon="-97.892083" changeset="false"><tag k="addr:street" v="Varner Court"/><tag k="addr:housenumber" v="4003"/><tag k="addr:postcode" v="78732"/></node><node id="-529" lat="30.381853" lon="-97.888261" changeset="false"><tag k="addr:street" v="Gazley Lane"/><tag k="addr:housenumber" v="4117"/><tag k="addr:postcode" v="78732"/></node><node id="-530" lat="30.366999" lon="-97.889561" changeset="false"><tag k="addr:street" v="University Club Drive"/><tag k="addr:housenumber" v="3101"/><tag k="addr:postcode" v="78732"/></node><node id="-531" lat="30.327164" lon="-97.919322" changeset="false"><tag k="addr:street" v="River Bend"/><tag k="addr:housenumber" v="12407"/><tag k="addr:postcode" v="78732"/></node><node id="-532" lat="30.349434" lon="-97.872579" changeset="false"><tag k="addr:street" v="Big View Drive"/><tag k="addr:housenumber" v="8016"/><tag k="addr:postcode" v="78732"/></node><node id="-533" lat="30.372722" lon="-97.879934" changeset="false"><tag k="addr:street" v="Portofino Drive"/><tag k="addr:housenumber" v="11820"/><tag k="addr:postcode" v="78732"/></node><node id="-534" lat="30.38237" lon="-97.884482" changeset="false"><tag k="addr:street" v="North Quinlan Park Road"/><tag k="addr:housenumber" v="4306"/><tag k="addr:postcode" v="78732"/></node><node id="-535" lat="30.384426" lon="-97.851107" changeset="false"><tag k="addr:street" v="Gold Yarrow Drive"/><tag k="addr:housenumber" v="10700"/><tag k="addr:postcode" v="78730"/></node><node id="-536" lat="30.329525" lon="-97.919789" changeset="false"><tag k="addr:street" v="Terjo Lane"/><tag k="addr:housenumber" v="1215"/><tag k="addr:postcode" v="78732"/></node><node id="-537" lat="30.380211" lon="-97.886681" changeset="false"><tag k="addr:street" v="Canyon Glen Circle"/><tag k="addr:housenumber" v="4132"/><tag k="addr:postcode" v="78732"/></node><node id="-538" lat="30.380862" lon="-97.887214" changeset="false"><tag k="addr:street" v="Canyon Glen Drive"/><tag k="addr:housenumber" v="12529"/><tag k="addr:postcode" v="78732"/></node><node id="-539" lat="30.371919" lon="-97.879294" changeset="false"><tag k="addr:street" v="Portofino Drive"/><tag k="addr:housenumber" v="11801"/><tag k="addr:postcode" v="78732"/></node><node id="-540" lat="30.380622" lon="-97.887759" changeset="false"><tag k="addr:street" v="Canyon Glen Circle"/><tag k="addr:housenumber" v="4104"/><tag k="addr:postcode" v="78732"/></node><node id="-541" lat="30.380558" lon="-97.886411" changeset="false"><tag k="addr:street" v="Canyon Glen Drive"/><tag k="addr:housenumber" v="12509"/><tag k="addr:postcode" v="78732"/></node><node id="-542" lat="30.33065" lon="-97.923555" changeset="false"><tag k="addr:street" v="Summit Edge Drive"/><tag k="addr:housenumber" v="1300"/><tag k="addr:postcode" v="78732"/></node><node id="-543" lat="30.330169" lon="-97.928737" changeset="false"><tag k="addr:street" v="River Bend"/><tag k="addr:housenumber" v="12915"/><tag k="addr:postcode" v="78732"/></node><node id="-544" lat="30.329634" lon="-97.923357" changeset="false"><tag k="addr:street" v="Mixson Drive"/><tag k="addr:housenumber" v="12607"/><tag k="addr:postcode" v="78732"/></node><node id="-545" lat="30.331311" lon="-97.92355" changeset="false"><tag k="addr:street" v="Merlene Drive"/><tag k="addr:housenumber" v="1201"/><tag k="addr:postcode" v="78732"/></node><node id="-546" lat="30.380426" lon="-97.891603" changeset="false"><tag k="addr:street" v="Wharton Court"/><tag k="addr:housenumber" v="3900"/><tag k="addr:postcode" v="78732"/></node><node id="-547" lat="30.380551" lon="-97.888324" changeset="false"><tag k="addr:street" v="Canyon Glen Circle"/><tag k="addr:housenumber" v="4049"/><tag k="addr:postcode" v="78732"/></node><node id="-548" lat="30.366131" lon="-97.863261" changeset="false"><tag k="addr:street" v="Conference Cove"/><tag k="addr:housenumber" v="3908"/><tag k="addr:postcode" v="78730"/></node><node id="-549" lat="30.382606" lon="-97.89244" changeset="false"><tag k="addr:street" v="Varner Court"/><tag k="addr:housenumber" v="4008"/><tag k="addr:postcode" v="78732"/></node><node id="-550" lat="30.364041" lon="-97.896704" changeset="false"><tag k="addr:street" v="North Quinlan Park Road"/><tag k="addr:housenumber" v="2601"/><tag k="addr:postcode" v="78732"/></node><node id="-551" lat="30.377407" lon="-97.89074" changeset="false"><tag k="addr:street" v="Epperson Trail"/><tag k="addr:housenumber" v="3700"/><tag k="addr:postcode" v="78732"/></node><node id="-552" lat="30.331119" lon="-97.923711" changeset="false"><tag k="addr:street" v="Merlene Drive"/><tag k="addr:housenumber" v="1203"/><tag k="addr:postcode" v="78732"/></node><node id="-553" lat="30.330526" lon="-97.929444" changeset="false"><tag k="addr:street" v="River Bend"/><tag k="addr:housenumber" v="13009"/><tag k="addr:postcode" v="78732"/></node><node id="-554" lat="30.399504" lon="-97.851519" changeset="false"><tag k="addr:street" v="Ranch to Market Road 2222"/><tag k="addr:housenumber" v="11203"/><tag k="addr:postcode" v="78730"/></node><node id="-555" lat="30.379974" lon="-97.893062" changeset="false"><tag k="addr:street" v="John Simpson Trail"/><tag k="addr:housenumber" v="3811"/><tag k="addr:postcode" v="78732"/></node><node id="-556" lat="30.392328" lon="-97.847401" changeset="false"><tag k="addr:street" v="River Place Boulevard"/><tag k="addr:housenumber" v="6600"/><tag k="addr:postcode" v="78730"/></node><node id="-557" lat="30.38161" lon="-97.895867" changeset="false"><tag k="addr:street" v="Medina River Way"/><tag k="addr:housenumber" v="13003"/><tag k="addr:postcode" v="78732"/></node><node id="-558" lat="30.381549" lon="-97.89567" changeset="false"><tag k="addr:street" v="Medina River Way"/><tag k="addr:housenumber" v="13001"/><tag k="addr:postcode" v="78732"/></node><node id="-559" lat="30.328441" lon="-97.920524" changeset="false"><tag k="addr:street" v="River Bend"/><tag k="addr:housenumber" v="12417"/><tag k="addr:postcode" v="78732"/></node><node id="-560" lat="30.392391" lon="-97.870973" changeset="false"><tag k="addr:street" v="Steiner Ranch Boulevard"/><tag k="addr:housenumber" v="5514"/><tag k="addr:postcode" v="78732"/></node><node id="-561" lat="30.380981" lon="-97.885367" changeset="false"><tag k="addr:street" v="Canyon Glen Circle"/><tag k="addr:housenumber" v="4201"/><tag k="addr:postcode" v="78732"/></node><node id="-562" lat="30.375985" lon="-97.881545" changeset="false"><tag k="addr:street" v="Mira Mesa Drive"/><tag k="addr:housenumber" v="12009"/><tag k="addr:postcode" v="78732"/></node><node id="-563" lat="30.354703" lon="-97.88804" changeset="false"><tag k="addr:street" v="Lakecliff Hills Lane"/><tag k="addr:housenumber" v="1919 1/2"/><tag k="addr:postcode" v="78732"/></node><node id="-564" lat="30.354885" lon="-97.890844" changeset="false"><tag k="addr:street" v="Eagles Glen Drive"/><tag k="addr:housenumber" v="11901 1/2"/><tag k="addr:postcode" v="78732"/></node><node id="-565" lat="30.372638" lon="-97.880709" changeset="false"><tag k="addr:street" v="Portobella Drive"/><tag k="addr:housenumber" v="11905"/><tag k="addr:postcode" v="78732"/></node><node id="-566" lat="30.380361" lon="-97.887182" changeset="false"><tag k="addr:street" v="Canyon Glen Circle"/><tag k="addr:housenumber" v="4120"/><tag k="addr:postcode" v="78732"/></node><node id="-567" lat="30.378483" lon="-97.890677" changeset="false"><tag k="addr:street" v="Grierson Trail"/><tag k="addr:housenumber" v="12600"/><tag k="addr:postcode" v="78732"/></node><node id="-568" lat="30.360108" lon="-97.887864" changeset="false"><tag k="addr:street" v="University Club Drive"/><tag k="addr:housenumber" v="2521 1/2"/><tag k="addr:postcode" v="78732"/></node><node id="-569" lat="30.356557" lon="-97.891207" changeset="false"><tag k="addr:street" v="University Club Drive"/><tag k="addr:housenumber" v="2225 1/2"/><tag k="addr:postcode" v="78732"/></node><node id="-570" lat="30.361927" lon="-97.888708" changeset="false"><tag k="addr:street" v="University Club Drive"/><tag k="addr:housenumber" v="2630"/><tag k="addr:postcode" v="78732"/></node><node id="-571" lat="30.328512" lon="-97.927045" changeset="false"><tag k="addr:street" v="South Quinlan Park Road"/><tag k="addr:housenumber" v="1600 1/2"/><tag k="addr:postcode" v="78732"/></node><node id="-572" lat="30.349679" lon="-97.87223" changeset="false"><tag k="addr:street" v="Big View Drive"/><tag k="addr:housenumber" v="8024"/><tag k="addr:postcode" v="78732"/></node><node id="-573" lat="30.332227" lon="-97.932623" changeset="false"><tag k="addr:street" v="Shore Vista Drive"/><tag k="addr:housenumber" v="13400"/><tag k="addr:postcode" v="78732"/></node><node id="-574" lat="30.333221" lon="-97.922739" changeset="false"><tag k="addr:street" v="Merlene Drive"/><tag k="addr:housenumber" v="1024"/><tag k="addr:postcode" v="78732"/></node><node id="-575" lat="30.332847" lon="-97.924796" changeset="false"><tag k="addr:street" v="Rush Road"/><tag k="addr:housenumber" v="10804"/><tag k="addr:postcode" v="78732"/></node><node id="-576" lat="30.33666" lon="-97.911596" changeset="false"><tag k="addr:street" v="Selma Hughes Park Road"/><tag k="addr:housenumber" v="12301"/><tag k="addr:postcode" v="78732"/></node><node id="-577" lat="30.349116" lon="-97.873183" changeset="false"><tag k="addr:street" v="Big View Drive"/><tag k="addr:housenumber" v="8000"/><tag k="addr:postcode" v="78732"/></node><node id="-578" lat="30.331707" lon="-97.925339" changeset="false"><tag k="addr:street" v="South Quinlan Park Road"/><tag k="addr:housenumber" v="1200"/><tag k="addr:postcode" v="78732"/></node><node id="-579" lat="30.35257" lon="-97.88789" changeset="false"><tag k="addr:street" v="Lakecliff Hills Lane"/><tag k="addr:housenumber" v="1808"/><tag k="addr:postcode" v="78732"/></node><node id="-580" lat="30.379099" lon="-97.890671" changeset="false"><tag k="addr:street" v="Epperson Trail"/><tag k="addr:housenumber" v="3807"/><tag k="addr:postcode" v="78732"/></node><node id="-581" lat="30.34882" lon="-97.873723" changeset="false"><tag k="addr:street" v="Big View Drive"/><tag k="addr:housenumber" v="7908"/><tag k="addr:postcode" v="78732"/></node><node id="-582" lat="30.382189" lon="-97.892041" changeset="false"><tag k="addr:street" v="Varner Court"/><tag k="addr:housenumber" v="4005"/><tag k="addr:postcode" v="78732"/></node><node id="-583" lat="30.382405" lon="-97.891986" changeset="false"><tag k="addr:street" v="Varner Court"/><tag k="addr:housenumber" v="4007"/><tag k="addr:postcode" v="78732"/></node><node id="-584" lat="30.381179" lon="-97.884721" changeset="false"><tag k="addr:street" v="North Quinlan Park Road"/><tag k="addr:housenumber" v="4200"/><tag k="addr:postcode" v="78732"/></node><node id="-585" lat="30.375974" lon="-97.881259" changeset="false"><tag k="addr:street" v="Mira Mesa Drive"/><tag k="addr:housenumber" v="12005"/><tag k="addr:postcode" v="78732"/></node><node id="-586" lat="30.375969" lon="-97.881832" changeset="false"><tag k="addr:street" v="Mira Mesa Drive"/><tag k="addr:housenumber" v="12013"/><tag k="addr:postcode" v="78732"/></node><node id="-587" lat="30.333971" lon="-97.933106" changeset="false"><tag k="addr:street" v="Shore Vista Drive"/><tag k="addr:housenumber" v="13312"/><tag k="addr:postcode" v="78732"/></node><node id="-588" lat="30.335543" lon="-97.928855" changeset="false"><tag k="addr:street" v="Shore Vista Drive"/><tag k="addr:housenumber" v="13115"/><tag k="addr:postcode" v="78732"/></node><node id="-589" lat="30.37046" lon="-97.887967" changeset="false"><tag k="addr:street" v="North Quinlan Park Road"/><tag k="addr:housenumber" v="3315"/><tag k="addr:postcode" v="78732"/></node><node id="-590" lat="30.33135" lon="-97.928767" changeset="false"><tag k="addr:street" v="West Lakeland Drive"/><tag k="addr:housenumber" v="1409"/><tag k="addr:postcode" v="78732"/></node><node id="-591" lat="30.331326" lon="-97.923048" changeset="false"><tag k="addr:street" v="Summit Edge Drive"/><tag k="addr:housenumber" v="1202"/><tag k="addr:postcode" v="78732"/></node><node id="-592" lat="30.331318" lon="-97.924179" changeset="false"><tag k="addr:street" v="Merlene Drive"/><tag k="addr:housenumber" v="1202"/><tag k="addr:postcode" v="78732"/></node><node id="-593" lat="30.330049" lon="-97.923766" changeset="false"><tag k="addr:street" v="Mixson Drive"/><tag k="addr:housenumber" v="12700"/><tag k="addr:postcode" v="78732"/></node><node id="-594" lat="30.329949" lon="-97.924859" changeset="false"><tag k="addr:street" v="Mixson Drive"/><tag k="addr:housenumber" v="12707"/><tag k="addr:postcode" v="78732"/></node><node id="-595" lat="30.375184" lon="-97.854676" changeset="false"><tag k="addr:street" v="River Place Boulevard"/><tag k="addr:housenumber" v="4904"/><tag k="addr:postcode" v="78730"/></node><node id="-596" lat="30.381315" lon="-97.895565" changeset="false"><tag k="addr:street" v="Medina River Way"/><tag k="addr:housenumber" v="12919"/><tag k="addr:postcode" v="78732"/></node><node id="-597" lat="30.379876" lon="-97.886448" changeset="false"><tag k="addr:street" v="Canyon Glen Circle"/><tag k="addr:housenumber" v="4154"/><tag k="addr:postcode" v="78732"/></node><node id="-598" lat="30.331823" lon="-97.926544" changeset="false"><tag k="addr:street" v="Minnie Drive"/><tag k="addr:housenumber" v="1304"/><tag k="addr:postcode" v="78732"/></node><node id="-599" lat="30.326642" lon="-97.921336" changeset="false"><tag k="addr:street" v="River Bend"/><tag k="addr:housenumber" v="12421"/><tag k="addr:postcode" v="78732"/></node><node id="-600" lat="30.329824" lon="-97.928247" changeset="false"><tag k="addr:street" v="River Bend"/><tag k="addr:housenumber" v="12907"/><tag k="addr:postcode" v="78732"/></node><node id="-601" lat="30.347789" lon="-97.914096" changeset="false"><tag k="addr:street" v="El Socorro Lane"/><tag k="addr:housenumber" v="313"/><tag k="addr:postcode" v="78732"/></node><node id="-602" lat="30.388648" lon="-97.850954" changeset="false"><tag k="addr:street" v="Enclave Vista Cove"/><tag k="addr:housenumber" v="10825 1/2"/><tag k="addr:postcode" v="78730"/></node><node id="-603" lat="30.332101" lon="-97.925679" changeset="false"><tag k="addr:street" v="Minnie Drive"/><tag k="addr:housenumber" v="1207"/><tag k="addr:postcode" v="78732"/></node><node id="-604" lat="30.372537" lon="-97.880566" changeset="false"><tag k="addr:street" v="Portofino Drive"/><tag k="addr:housenumber" v="11825"/><tag k="addr:postcode" v="78732"/></node><node id="-605" lat="30.336469" lon="-97.909472" changeset="false"><tag k="addr:street" v="Selma Hughes Park Road"/><tag k="addr:housenumber" v="12107"/><tag k="addr:postcode" v="78732"/></node><node id="-606" lat="30.331475" lon="-97.927487" changeset="false"><tag k="addr:street" v="East Lakeland Drive"/><tag k="addr:housenumber" v="1403"/><tag k="addr:postcode" v="78732"/></node><node id="-607" lat="30.331282" lon="-97.927601" changeset="false"><tag k="addr:street" v="East Lakeland Drive"/><tag k="addr:housenumber" v="1405"/><tag k="addr:postcode" v="78732"/></node><node id="-608" lat="30.382441" lon="-97.852691" changeset="false"><tag k="addr:street" v="Merrywing Circle"/><tag k="addr:housenumber" v="5508"/><tag k="addr:postcode" v="78730"/></node><node id="-609" lat="30.328937" lon="-97.925694" changeset="false"><tag k="addr:street" v="West Lane"/><tag k="addr:housenumber" v="1502"/><tag k="addr:postcode" v="78732"/></node><node id="-610" lat="30.354869" lon="-97.901568" changeset="false"><tag k="addr:street" v="Golden Palomino Court"/><tag k="addr:housenumber" v="921 1/2"/><tag k="addr:postcode" v="78732"/></node><node id="-611" lat="30.32816" lon="-97.926679" changeset="false"><tag k="addr:street" v="South Quinlan Park Road"/><tag k="addr:housenumber" v="1609"/><tag k="addr:postcode" v="78732"/></node><node id="-612" lat="30.34901" lon="-97.873855" changeset="false"><tag k="addr:street" v="Big View Drive"/><tag k="addr:housenumber" v="7904"/><tag k="addr:postcode" v="78732"/></node><node id="-613" lat="30.350113" lon="-97.871769" changeset="false"><tag k="addr:street" v="Big View Drive"/><tag k="addr:housenumber" v="8108"/><tag k="addr:postcode" v="78732"/></node><node id="-614" lat="30.381641" lon="-97.896045" changeset="false"><tag k="addr:street" v="Medina River Way"/><tag k="addr:housenumber" v="13005"/><tag k="addr:postcode" v="78732"/></node><node id="-615" lat="30.331299" lon="-97.924836" changeset="false"><tag k="addr:street" v="South Quinlan Park Road"/><tag k="addr:housenumber" v="1205"/><tag k="addr:postcode" v="78732"/></node><node id="-616" lat="30.330365" lon="-97.920566" changeset="false"><tag k="addr:street" v="Terjo Lane"/><tag k="addr:housenumber" v="1207"/><tag k="addr:postcode" v="78732"/></node><node id="-617" lat="30.330378" lon="-97.930553" changeset="false"><tag k="addr:street" v="Shore Vista Drive"/><tag k="addr:housenumber" v="13440"/><tag k="addr:postcode" v="78732"/></node><node id="-618" lat="30.353117" lon="-97.867316" changeset="false"><tag k="addr:street" v="Big View Drive"/><tag k="addr:housenumber" v="8524"/><tag k="addr:postcode" v="78732"/></node><node id="-619" lat="30.353259" lon="-97.866719" changeset="false"><tag k="addr:street" v="Big View Drive"/><tag k="addr:housenumber" v="8612"/><tag k="addr:postcode" v="78732"/></node><node id="-620" lat="30.339355" lon="-97.919155" changeset="false"><tag k="addr:street" v="Santaluz Path"/><tag k="addr:housenumber" v="616"/><tag k="addr:postcode" v="78732"/></node><node id="-621" lat="30.330266" lon="-97.926204" changeset="false"><tag k="addr:street" v="South Quinlan Park Road"/><tag k="addr:housenumber" v="1312"/><tag k="addr:postcode" v="78732"/></node><node id="-622" lat="30.380137" lon="-97.853172" changeset="false"><tag k="addr:street" v="Merrywing Circle"/><tag k="addr:housenumber" v="5401"/><tag k="addr:postcode" v="78730"/></node><node id="-623" lat="30.382913" lon="-97.889459" changeset="false"><tag k="addr:street" v="Canyon Glen Circle"/><tag k="addr:housenumber" v="3900"/><tag k="addr:postcode" v="78732"/></node><node id="-624" lat="30.382555" lon="-97.888744" changeset="false"><tag k="addr:street" v="Seldalia Trail"/><tag k="addr:housenumber" v="4125"/><tag k="addr:postcode" v="78732"/></node><node id="-625" lat="30.381639" lon="-97.888437" changeset="false"><tag k="addr:street" v="Gazley Lane"/><tag k="addr:housenumber" v="4109"/><tag k="addr:postcode" v="78732"/></node><node id="-626" lat="30.379781" lon="-97.88592" changeset="false"><tag k="addr:street" v="Canyon Glen Circle"/><tag k="addr:housenumber" v="4161"/><tag k="addr:postcode" v="78732"/></node><node id="-627" lat="30.379158" lon="-97.890602" changeset="false"><tag k="addr:street" v="Mc Nelly Trail"/><tag k="addr:housenumber" v="12600"/><tag k="addr:postcode" v="78732"/></node><node id="-628" lat="30.377371" lon="-97.892523" changeset="false"><tag k="addr:street" v="Sandoval Court"/><tag k="addr:housenumber" v="3604"/><tag k="addr:postcode" v="78732"/></node><node id="-629" lat="30.364049" lon="-97.892902" changeset="false"><tag k="addr:street" v="Long Bay Cove"/><tag k="addr:housenumber" v="12228"/><tag k="addr:postcode" v="78732"/></node><node id="-630" lat="30.36421" lon="-97.892146" changeset="false"><tag k="addr:street" v="Long Bay Cove"/><tag k="addr:housenumber" v="12212"/><tag k="addr:postcode" v="78732"/></node><node id="-631" lat="30.380014" lon="-97.892936" changeset="false"><tag k="addr:street" v="John Simpson Trail"/><tag k="addr:housenumber" v="3809"/><tag k="addr:postcode" v="78732"/></node><node id="-632" lat="30.382812" lon="-97.8514" changeset="false"><tag k="addr:street" v="Brittlyns Court"/><tag k="addr:housenumber" v="5700 1/2"/><tag k="addr:postcode" v="78730"/></node><node id="-633" lat="30.382842" lon="-97.85144" changeset="false"><tag k="addr:street" v="Brittlyns Court"/><tag k="addr:housenumber" v="5700"/><tag k="addr:postcode" v="78730"/></node><node id="-634" lat="30.379478" lon="-97.891339" changeset="false"><tag k="addr:street" v="Epperson Trail"/><tag k="addr:housenumber" v="3815"/><tag k="addr:postcode" v="78732"/></node><node id="-635" lat="30.379522" lon="-97.89135" changeset="false"><tag k="addr:street" v="Standfield Court"/><tag k="addr:housenumber" v="3801"/><tag k="addr:postcode" v="78732"/></node><node id="-636" lat="30.379453" lon="-97.891038" changeset="false"><tag k="addr:street" v="Mc Nelly Trail"/><tag k="addr:housenumber" v="12601"/><tag k="addr:postcode" v="78732"/></node><node id="-637" lat="30.379404" lon="-97.891099" changeset="false"><tag k="addr:street" v="Epperson Trail"/><tag k="addr:housenumber" v="3813"/><tag k="addr:postcode" v="78732"/></node><node id="-638" lat="30.351667" lon="-97.903618" changeset="false"><tag k="addr:street" v="Horseback Hollow"/><tag k="addr:housenumber" v="817 1/2"/><tag k="addr:postcode" v="78732"/></node><node id="-639" lat="30.351609" lon="-97.903495" changeset="false"><tag k="addr:street" v="Horseback Hollow Court"/><tag k="addr:housenumber" v="12101"/><tag k="addr:postcode" v="78732"/></node><node id="-640" lat="30.331139" lon="-97.927207" changeset="false"><tag k="addr:street" v="Minnie Drive"/><tag k="addr:housenumber" v="1400"/><tag k="addr:postcode" v="78732"/></node><node id="-641" lat="30.331294" lon="-97.9271" changeset="false"><tag k="addr:street" v="Minnie Drive"/><tag k="addr:housenumber" v="1310"/><tag k="addr:postcode" v="78732"/></node><node id="-642" lat="30.328974" lon="-97.924584" changeset="false"><tag k="addr:street" v="River Bend"/><tag k="addr:housenumber" v="12615"/><tag k="addr:postcode" v="78732"/></node><node id="-643" lat="30.328832" lon="-97.924706" changeset="false"><tag k="addr:street" v="East Lane"/><tag k="addr:housenumber" v="1503"/><tag k="addr:postcode" v="78732"/></node></osm>