<?xml version="1.0" encoding="UTF-8"?><osm version="0.6" generator="github.com/aaronlidman/osm-and-geojson"><node id="-1" lat="30.339589" lon="-97.745419" changeset="false"><tag k="addr:street" v="Cary Drive"/><tag k="addr:housenumber" v="6107"/><tag k="coa:place_id" v="677672"/></node><node id="-2" lat="30.336316" lon="-97.743384" changeset="false"><tag k="addr:street" v="Woodview Avenue"/><tag k="addr:housenumber" v="5907"/><tag k="coa:place_id" v="718562"/></node><node id="-3" lat="30.339226" lon="-97.740815" changeset="false"><tag k="addr:street" v="White Horse Trail"/><tag k="addr:housenumber" v="2116"/><tag k="coa:place_id" v="243615"/></node><node id="-4" lat="30.344207" lon="-97.745992" changeset="false"><tag k="addr:street" v="Shoal Creek Boulevard"/><tag k="addr:housenumber" v="6410"/><tag k="coa:place_id" v="761336"/></node><node id="-5" lat="30.346154" lon="-97.743792" changeset="false"><tag k="addr:street" v="Vine Street"/><tag k="addr:housenumber" v="6712"/><tag k="coa:place_id" v="761672"/></node><node id="-6" lat="30.339" lon="-97.741039" changeset="false"><tag k="addr:street" v="White Horse Trail"/><tag k="addr:housenumber" v="2206"/><tag k="coa:place_id" v="719006"/></node><node id="-7" lat="30.344224" lon="-97.738642" changeset="false"><tag k="addr:street" v="Burnet Road"/><tag k="addr:housenumber" v="6800"/><tag k="coa:place_id" v="272288"/></node><node id="-8" lat="30.345595" lon="-97.745639" changeset="false"><tag k="addr:street" v="Shoal Creek Boulevard"/><tag k="addr:housenumber" v="6602"/><tag k="coa:place_id" v="761360"/></node><node id="-9" lat="30.339345" lon="-97.739186" changeset="false"><tag k="addr:street" v="Burnet Road"/><tag k="addr:housenumber" v="6400"/><tag k="coa:place_id" v="272312"/></node><node id="-10" lat="30.345868" lon="-97.738908" changeset="false"><tag k="addr:street" v="Daugherty Street"/><tag k="addr:housenumber" v="6818"/><tag k="coa:place_id" v="209378"/></node><node id="-11" lat="30.347381" lon="-97.743909" changeset="false"><tag k="addr:street" v="Geraghty Avenue"/><tag k="addr:housenumber" v="2802"/><tag k="coa:place_id" v="395986"/></node><node id="-12" lat="30.339462" lon="-97.746107" changeset="false"><tag k="addr:street" v="Cary Drive"/><tag k="addr:housenumber" v="6102"/><tag k="coa:place_id" v="677258"/></node><node id="-13" lat="30.345126" lon="-97.738111" changeset="false"><tag k="addr:street" v="Burnet Road"/><tag k="addr:housenumber" v="6836"/><tag k="coa:place_id" v="209264"/></node><node id="-14" lat="30.346912" lon="-97.737732" changeset="false"><tag k="addr:street" v="Daugherty Street"/><tag k="addr:housenumber" v="6909"/><tag k="coa:place_id" v="209996"/></node><node id="-15" lat="30.338966" lon="-97.739515" changeset="false"><tag k="addr:street" v="Burnet Road"/><tag k="addr:housenumber" v="6320"/><tag k="coa:place_id" v="760988"/></node><node id="-16" lat="30.335952" lon="-97.7424" changeset="false"><tag k="addr:street" v="Shoalwood Avenue"/><tag k="addr:housenumber" v="5907"/><tag k="coa:place_id" v="718808"/></node><node id="-17" lat="30.34211" lon="-97.738836" changeset="false"><tag k="addr:street" v="Burnet Road"/><tag k="addr:housenumber" v="6600"/><tag k="coa:place_id" v="363219"/></node><node id="-18" lat="30.345895" lon="-97.743152" changeset="false"><tag k="addr:street" v="Addison Avenue"/><tag k="addr:housenumber" v="2715"/><tag k="coa:place_id" v="191533"/></node><node id="-19" lat="30.343764" lon="-97.738747" changeset="false"><tag k="addr:street" v="Burnet Road"/><tag k="addr:housenumber" v="6726"/><tag k="coa:place_id" v="761066"/></node><node id="-20" lat="30.34854" lon="-97.740263" changeset="false"><tag k="addr:street" v="Ellise Avenue"/><tag k="addr:housenumber" v="2700"/><tag k="coa:place_id" v="700276"/></node><node id="-21" lat="30.345465" lon="-97.741605" changeset="false"><tag k="addr:street" v="Addison Avenue"/><tag k="addr:housenumber" v="2610"/><tag k="coa:place_id" v="762158"/></node><node id="-22" lat="30.345655" lon="-97.73813" changeset="false"><tag k="addr:street" v="Pegram Avenue"/><tag k="addr:housenumber" v="2405 1/2"/><tag k="coa:place_id" v="3194850"/></node><node id="-23" lat="30.337281" lon="-97.748016" changeset="false"><tag k="addr:street" v="Shoal Creek Boulevard"/><tag k="addr:housenumber" v="5904"/><tag k="coa:place_id" v="633674"/></node><node id="-24" lat="30.348963" lon="-97.74014" changeset="false"><tag k="addr:street" v="Ardath Street"/><tag k="addr:housenumber" v="7000"/><tag k="coa:place_id" v="241872"/></node><node id="-25" lat="30.335955" lon="-97.744006" changeset="false"><tag k="addr:street" v="Woodview Avenue"/><tag k="addr:housenumber" v="5902"/><tag k="coa:place_id" v="718418"/></node><node id="-26" lat="30.350842" lon="-97.741317" changeset="false"><tag k="addr:street" v="Greenlawn Parkway"/><tag k="addr:housenumber" v="2805"/><tag k="coa:place_id" v="3360176"/></node><node id="-27" lat="30.347902" lon="-97.736616" changeset="false"><tag k="addr:street" v="Burnet Road"/><tag k="addr:housenumber" v="7106"/><tag k="coa:place_id" v="3360177"/></node><node id="-28" lat="30.343813" lon="-97.744223" changeset="false"><tag k="addr:street" v="Vine Street"/><tag k="addr:housenumber" v="6513 1/2"/><tag k="coa:place_id" v="3314961"/></node><node id="-29" lat="30.343914" lon="-97.746034" changeset="false"><tag k="addr:street" v="Shoal Creek Boulevard"/><tag k="addr:housenumber" v="6408"/><tag k="coa:place_id" v="761330"/></node><node id="-30" lat="30.346332" lon="-97.737068" changeset="false"><tag k="addr:street" v="Burnet Road"/><tag k="addr:housenumber" v="6916"/><tag k="coa:place_id" v="95151"/></node><node id="-31" lat="30.337937" lon="-97.746153" changeset="false"><tag k="addr:street" v="Cary Drive"/><tag k="addr:housenumber" v="6005"/><tag k="coa:place_id" v="677714"/></node><node id="-32" lat="30.347369" lon="-97.743884" changeset="false"><tag k="addr:street" v="Geraghty Avenue"/><tag k="addr:housenumber" v="2800"/><tag k="coa:place_id" v="394594"/></node><node id="-33" lat="30.342557" lon="-97.738932" changeset="false"><tag k="addr:street" v="Burnet Road"/><tag k="addr:housenumber" v="6610"/><tag k="coa:place_id" v="338229"/></node><node id="-34" lat="30.340212" lon="-97.744659" changeset="false"><tag k="addr:street" v="Cary Drive"/><tag k="addr:housenumber" v="6207"/><tag k="coa:place_id" v="677648"/></node><node id="-35" lat="30.345823" lon="-97.745373" changeset="false"><tag k="addr:street" v="Shoal Creek Boulevard"/><tag k="addr:housenumber" v="6604"/><tag k="coa:place_id" v="761366"/></node><node id="-36" lat="30.348173" lon="-97.736" changeset="false"><tag k="addr:street" v="Burnet Road"/><tag k="addr:housenumber" v="7200"/><tag k="coa:place_id" v="209096"/></node><node id="-37" lat="30.339942" lon="-97.74576" changeset="false"><tag k="addr:street" v="Cary Drive"/><tag k="addr:housenumber" v="6200"/><tag k="coa:place_id" v="677276"/></node><node id="-38" lat="30.339985" lon="-97.742991" changeset="false"><tag k="addr:street" v="White Horse Trail"/><tag k="addr:housenumber" v="2502"/><tag k="coa:place_id" v="678074"/></node><node id="-39" lat="30.346833" lon="-97.737253" changeset="false"><tag k="addr:street" v="Burnet Road"/><tag k="addr:housenumber" v="6918"/><tag k="coa:place_id" v="272270"/></node><node id="-40" lat="30.34697" lon="-97.737104" changeset="false"><tag k="addr:street" v="Burnet Road"/><tag k="addr:housenumber" v="7000"/><tag k="coa:place_id" v="210038"/></node><node id="-41" lat="30.346284" lon="-97.737553" changeset="false"><tag k="addr:street" v="Burnet Road"/><tag k="addr:housenumber" v="6912"/><tag k="coa:place_id" v="977133"/></node><node id="-42" lat="30.347551" lon="-97.736702" changeset="false"><tag k="addr:street" v="Burnet Road"/><tag k="addr:housenumber" v="7012"/><tag k="coa:place_id" v="210068"/></node><node id="-43" lat="30.347418" lon="-97.736789" changeset="false"><tag k="addr:street" v="Burnet Road"/><tag k="addr:housenumber" v="7010"/><tag k="coa:place_id" v="210044"/></node><node id="-44" lat="30.347162" lon="-97.736923" changeset="false"><tag k="addr:street" v="Burnet Road"/><tag k="addr:housenumber" v="7006"/><tag k="coa:place_id" v="272264"/></node><node id="-45" lat="30.341" lon="-97.739302" changeset="false"><tag k="addr:street" v="Burnet Road"/><tag k="addr:housenumber" v="6500"/><tag k="coa:place_id" v="761012"/></node><node id="-46" lat="30.341257" lon="-97.739241" changeset="false"><tag k="addr:street" v="Burnet Road"/><tag k="addr:housenumber" v="6506"/><tag k="coa:place_id" v="761018"/></node><node id="-47" lat="30.339563" lon="-97.739836" changeset="false"><tag k="addr:street" v="Burnet Road"/><tag k="addr:housenumber" v="6412"/><tag k="coa:place_id" v="736606"/></node><node id="-48" lat="30.339255" lon="-97.739643" changeset="false"><tag k="addr:street" v="Burnet Road"/><tag k="addr:housenumber" v="6326"/><tag k="coa:place_id" v="546789"/></node><node id="-49" lat="30.335668" lon="-97.741472" changeset="false"><tag k="addr:street" v="White Rock Drive"/><tag k="addr:housenumber" v="2203"/><tag k="coa:place_id" v="3036925"/></node><node id="-50" lat="30.335341" lon="-97.741418" changeset="false"><tag k="addr:street" v="Allandale Road"/><tag k="addr:housenumber" v="2140"/><tag k="coa:place_id" v="719030"/></node></osm>