<?xml version="1.0" encoding="UTF-8"?><osm version="0.6" generator="github.com/aaronlidman/osm-and-geojson"><node id="-1" lat="30.259511" lon="-97.482203" changeset="false"><tag k="addr:street" v="Blake Manor Road"/><tag k="addr:housenumber" v="20917"/><tag k="addr:postcode" v="78653"/></node><node id="-2" lat="30.296691" lon="-97.531327" changeset="false"><tag k="addr:street" v="Taylor Lane"/><tag k="addr:housenumber" v="10100"/><tag k="addr:postcode" v="78653"/></node><node id="-3" lat="30.27559" lon="-97.579021" changeset="false"><tag k="addr:street" v="Gilbert Road"/><tag k="addr:housenumber" v="7101"/><tag k="addr:postcode" v="78653"/></node><node id="-4" lat="30.282692" lon="-97.517215" changeset="false"><tag k="addr:street" v="Blake Manor Road"/><tag k="addr:housenumber" v="19011"/><tag k="addr:postcode" v="78653"/></node><node id="-5" lat="30.272376" lon="-97.523686" changeset="false"><tag k="addr:street" v="Burleson Manor Road"/><tag k="addr:housenumber" v="8301"/><tag k="addr:postcode" v="78653"/></node><node id="-6" lat="30.220784" lon="-97.499515" changeset="false"><tag k="addr:street" v="Belinda Lane"/><tag k="addr:housenumber" v="20016"/><tag k="addr:postcode" v="78653"/></node><node id="-7" lat="30.241775" lon="-97.489309" changeset="false"><tag k="addr:street" v="Blake Manor Road"/><tag k="addr:housenumber" v="21256"/><tag k="addr:postcode" v="78621"/></node><node id="-8" lat="30.244702" lon="-97.475868" changeset="false"><tag k="addr:street" v="Webber Oaks Cove"/><tag k="addr:housenumber" v="21420"/><tag k="addr:postcode" v="78621"/></node><node id="-9" lat="30.239345" lon="-97.476387" changeset="false"><tag k="addr:street" v="South Webberwood Way"/><tag k="addr:housenumber" v="201"/><tag k="addr:postcode" v="78621"/></node><node id="-10" lat="30.242346" lon="-97.486412" changeset="false"><tag k="addr:street" v="Blake Manor Road"/><tag k="addr:housenumber" v="21246"/><tag k="addr:postcode" v="78621"/></node><node id="-11" lat="30.279716" lon="-97.572845" changeset="false"><tag k="addr:street" v="Nez Perce Trace"/><tag k="addr:housenumber" v="7645"/><tag k="addr:postcode" v="78653"/></node><node id="-12" lat="30.257603" lon="-97.529085" changeset="false"><tag k="addr:street" v="Burleson Manor Road"/><tag k="addr:housenumber" v="7201"/><tag k="addr:postcode" v="78653"/></node><node id="-13" lat="30.26863" lon="-97.50943" changeset="false"><tag k="addr:street" v="Brown Cemetery Road"/><tag k="addr:housenumber" v="7910"/><tag k="addr:postcode" v="78653"/></node><node id="-14" lat="30.256392" lon="-97.529476" changeset="false"><tag k="addr:street" v="Burleson Manor Road"/><tag k="addr:housenumber" v="7101"/><tag k="addr:postcode" v="78653"/></node><node id="-15" lat="30.28762" lon="-97.571439" changeset="false"><tag k="addr:street" v="Farm-to-Market Road 973"/><tag k="addr:housenumber" v="8215"/><tag k="addr:postcode" v="78653"/></node><node id="-16" lat="30.270479" lon="-97.508982" changeset="false"><tag k="addr:street" v="Brown Cemetery Road"/><tag k="addr:housenumber" v="8042"/><tag k="addr:postcode" v="78653"/></node><node id="-17" lat="30.271939" lon="-97.575553" changeset="false"><tag k="addr:street" v="Decker Lake Road"/><tag k="addr:housenumber" v="15324"/><tag k="addr:postcode" v="78653"/></node><node id="-18" lat="30.276909" lon="-97.56551" changeset="false"><tag k="addr:street" v="Nez Perce Trace"/><tag k="addr:housenumber" v="7609"/><tag k="addr:postcode" v="78653"/></node><node id="-19" lat="30.22021" lon="-97.500444" changeset="false"><tag k="addr:street" v="Belinda Lane"/><tag k="addr:housenumber" v="20013"/><tag k="addr:postcode" v="78653"/></node><node id="-20" lat="30.273578" lon="-97.52243" changeset="false"><tag k="addr:street" v="Burleson Manor Road"/><tag k="addr:housenumber" v="8315"/><tag k="addr:postcode" v="78653"/></node><node id="-21" lat="30.285351" lon="-97.579065" changeset="false"><tag k="addr:street" v="Hog Eye Road"/><tag k="addr:housenumber" v="15025"/><tag k="addr:postcode" v="78724"/></node><node id="-22" lat="30.230223" lon="-97.48201" changeset="false"><tag k="addr:street" v="South Webberwood Way"/><tag k="addr:housenumber" v="901"/><tag k="addr:postcode" v="78621"/></node><node id="-23" lat="30.258581" lon="-97.527649" changeset="false"><tag k="addr:street" v="Burleson Manor Road"/><tag k="addr:housenumber" v="7301"/><tag k="addr:postcode" v="78653"/></node><node id="-24" lat="30.29401" lon="-97.524434" changeset="false"><tag k="addr:street" v="Blake Manor Road"/><tag k="addr:housenumber" v="18609"/><tag k="addr:postcode" v="78653"/></node><node id="-25" lat="30.288357" lon="-97.580706" changeset="false"><tag k="addr:street" v="Farm-to-Market Road 973"/><tag k="addr:housenumber" v="8001"/><tag k="addr:postcode" v="78724"/></node><node id="-26" lat="30.254077" lon="-97.480263" changeset="false"><tag k="addr:street" v="Union Lee Church Road"/><tag k="addr:housenumber" v="21315"/><tag k="addr:postcode" v="78653"/></node><node id="-27" lat="30.275991" lon="-97.567312" changeset="false"><tag k="addr:street" v="Nez Perce Trace"/><tag k="addr:housenumber" v="7604"/><tag k="addr:postcode" v="78653"/></node><node id="-28" lat="30.243722" lon="-97.48979" changeset="false"><tag k="addr:street" v="Blake Manor Road"/><tag k="addr:housenumber" v="21232"/><tag k="addr:postcode" v="78621"/></node><node id="-29" lat="30.245708" lon="-97.473603" changeset="false"><tag k="addr:street" v="South Webberwood Way"/><tag k="addr:housenumber" v="220"/><tag k="addr:postcode" v="78621"/></node><node id="-30" lat="30.273903" lon="-97.567415" changeset="false"><tag k="addr:street" v="Nez Perce Trace"/><tag k="addr:housenumber" v="7406"/><tag k="addr:postcode" v="78653"/></node><node id="-31" lat="30.275558" lon="-97.509661" changeset="false"><tag k="addr:street" v="Eyerley Road"/><tag k="addr:housenumber" v="19416"/><tag k="addr:postcode" v="78653"/></node><node id="-32" lat="30.274482" lon="-97.505641" changeset="false"><tag k="addr:street" v="Blake Manor Road"/><tag k="addr:housenumber" v="19955"/><tag k="addr:postcode" v="78653"/></node><node id="-33" lat="30.276336" lon="-97.578855" changeset="false"><tag k="addr:street" v="Gilbert Road"/><tag k="addr:housenumber" v="7151"/><tag k="addr:postcode" v="78653"/></node><node id="-34" lat="30.274163" lon="-97.567296" changeset="false"><tag k="addr:street" v="Nez Perce Trace"/><tag k="addr:housenumber" v="7500"/><tag k="addr:postcode" v="78653"/></node><node id="-35" lat="30.223092" lon="-97.488501" changeset="false"><tag k="addr:street" v="South Webberwood Way"/><tag k="addr:housenumber" v="1402"/><tag k="addr:postcode" v="78621"/></node><node id="-36" lat="30.228259" lon="-97.486987" changeset="false"><tag k="addr:street" v="Sandy Brown Lane"/><tag k="addr:housenumber" v="20903"/><tag k="addr:postcode" v="78621"/></node><node id="-37" lat="30.238814" lon="-97.493983" changeset="false"><tag k="addr:street" v="Blake Manor Road"/><tag k="addr:housenumber" v="21333"/><tag k="addr:postcode" v="78653"/></node><node id="-38" lat="30.321286" lon="-97.56164" changeset="false"><tag k="addr:street" v="Farm-to-Market Road 973"/><tag k="addr:housenumber" v="11215"/><tag k="addr:postcode" v="78653"/></node><node id="-39" lat="30.316377" lon="-97.562693" changeset="false"><tag k="addr:street" v="Farm-to-Market Road 973"/><tag k="addr:housenumber" v="10801"/><tag k="addr:postcode" v="78653"/></node><node id="-40" lat="30.270687" lon="-97.507679" changeset="false"><tag k="addr:street" v="Brown Cemetery Road"/><tag k="addr:housenumber" v="8104"/><tag k="addr:postcode" v="78653"/></node><node id="-41" lat="30.252995" lon="-97.48285" changeset="false"><tag k="addr:street" v="Blake Manor Road"/><tag k="addr:housenumber" v="21070"/><tag k="addr:postcode" v="78653"/></node><node id="-42" lat="30.254385" lon="-97.530723" changeset="false"><tag k="addr:street" v="Burleson Manor Road"/><tag k="addr:housenumber" v="6923"/><tag k="addr:postcode" v="78653"/></node><node id="-43" lat="30.258164" lon="-97.555195" changeset="false"><tag k="addr:street" v="Taylor Lane"/><tag k="addr:housenumber" v="6714"/><tag k="addr:postcode" v="78653"/></node><node id="-44" lat="30.274418" lon="-97.509844" changeset="false"><tag k="addr:street" v="Eyerley Road"/><tag k="addr:housenumber" v="19501"/><tag k="addr:postcode" v="78653"/></node><node id="-45" lat="30.284196" lon="-97.576286" changeset="false"><tag k="addr:street" v="Hog Eye Road"/><tag k="addr:housenumber" v="15301"/><tag k="addr:postcode" v="78653"/></node><node id="-46" lat="30.282266" lon="-97.578537" changeset="false"><tag k="addr:street" v="Gilbert Road"/><tag k="addr:housenumber" v="7720"/><tag k="addr:postcode" v="78724"/></node><node id="-47" lat="30.224416" lon="-97.487667" changeset="false"><tag k="addr:street" v="South Webberwood Way"/><tag k="addr:housenumber" v="1308"/><tag k="addr:postcode" v="78621"/></node><node id="-48" lat="30.277919" lon="-97.519349" changeset="false"><tag k="addr:street" v="Lone Tree Drive"/><tag k="addr:housenumber" v="8610"/><tag k="addr:postcode" v="78653"/></node><node id="-49" lat="30.302094" lon="-97.564657" changeset="false"><tag k="addr:street" v="Farm-to-Market Road 973"/><tag k="addr:housenumber" v="9605"/><tag k="addr:postcode" v="78653"/></node><node id="-50" lat="30.238174" lon="-97.492134" changeset="false"><tag k="addr:street" v="Blake Manor Road"/><tag k="addr:housenumber" v="21346"/><tag k="addr:postcode" v="78621"/></node><node id="-51" lat="30.288244" lon="-97.568722" changeset="false"><tag k="addr:street" v="Farm-to-Market Road 973"/><tag k="addr:housenumber" v="8613"/><tag k="addr:postcode" v="78653"/></node><node id="-52" lat="30.280695" lon="-97.517611" changeset="false"><tag k="addr:street" v="Lone Tree Drive"/><tag k="addr:housenumber" v="8900"/><tag k="addr:postcode" v="78653"/></node><node id="-53" lat="30.234263" lon="-97.480841" changeset="false"><tag k="addr:street" v="Coleman Branch Creek Road"/><tag k="addr:housenumber" v="21012"/><tag k="addr:postcode" v="78621"/></node><node id="-54" lat="30.270553" lon="-97.522232" changeset="false"><tag k="addr:street" v="Burleson Manor Road"/><tag k="addr:housenumber" v="8105"/><tag k="addr:postcode" v="78653"/></node><node id="-55" lat="30.281244" lon="-97.578901" changeset="false"><tag k="addr:street" v="Gilbert Road"/><tag k="addr:housenumber" v="7604"/><tag k="addr:postcode" v="78724"/></node><node id="-56" lat="30.280465" lon="-97.520198" changeset="false"><tag k="addr:street" v="Burleson Manor Road"/><tag k="addr:housenumber" v="8905"/><tag k="addr:postcode" v="78653"/></node><node id="-57" lat="30.286559" lon="-97.583976" changeset="false"><tag k="addr:street" v="Jarrod Lee Cove"/><tag k="addr:housenumber" v="12300"/><tag k="addr:postcode" v="78724"/></node><node id="-58" lat="30.253621" lon="-97.483788" changeset="false"><tag k="addr:street" v="Blake Manor Road"/><tag k="addr:housenumber" v="21069"/><tag k="addr:postcode" v="78653"/></node><node id="-59" lat="30.245384" lon="-97.477122" changeset="false"><tag k="addr:street" v="Webber Oaks Cove"/><tag k="addr:housenumber" v="21408"/><tag k="addr:postcode" v="78621"/></node><node id="-60" lat="30.277892" lon="-97.52208" changeset="false"><tag k="addr:street" v="Burleson Manor Road"/><tag k="addr:housenumber" v="8701"/><tag k="addr:postcode" v="78653"/></node><node id="-61" lat="30.2686" lon="-97.515943" changeset="false"><tag k="addr:street" v="Burleson Manor Road"/><tag k="addr:housenumber" v="7921"/><tag k="addr:postcode" v="78653"/></node><node id="-62" lat="30.269183" lon="-97.522562" changeset="false"><tag k="addr:street" v="Burleson Manor Road"/><tag k="addr:housenumber" v="8120"/><tag k="addr:postcode" v="78653"/></node><node id="-63" lat="30.261369" lon="-97.526492" changeset="false"><tag k="addr:street" v="Burleson Manor Road"/><tag k="addr:housenumber" v="7419"/><tag k="addr:postcode" v="78653"/></node><node id="-64" lat="30.260896" lon="-97.486208" changeset="false"><tag k="addr:street" v="Blake Manor Road"/><tag k="addr:housenumber" v="20805"/><tag k="addr:postcode" v="78653"/></node><node id="-65" lat="30.276042" lon="-97.510419" changeset="false"><tag k="addr:street" v="Eyerley Road"/><tag k="addr:housenumber" v="19400"/><tag k="addr:postcode" v="78653"/></node><node id="-66" lat="30.27708" lon="-97.578582" changeset="false"><tag k="addr:street" v="Gilbert Road"/><tag k="addr:housenumber" v="7201"/><tag k="addr:postcode" v="78653"/></node><node id="-67" lat="30.22926" lon="-97.486831" changeset="false"><tag k="addr:street" v="Sandy Brown Lane"/><tag k="addr:housenumber" v="20900"/><tag k="addr:postcode" v="78621"/></node><node id="-68" lat="30.221092" lon="-97.499787" changeset="false"><tag k="addr:street" v="Belinda Lane"/><tag k="addr:housenumber" v="20012"/><tag k="addr:postcode" v="78653"/></node><node id="-69" lat="30.244015" lon="-97.477391" changeset="false"><tag k="addr:street" v="Webber Oaks Cove"/><tag k="addr:housenumber" v="21413"/><tag k="addr:postcode" v="78621"/></node><node id="-70" lat="30.243685" lon="-97.476871" changeset="false"><tag k="addr:street" v="Webber Oaks Cove"/><tag k="addr:housenumber" v="21421"/><tag k="addr:postcode" v="78621"/></node><node id="-71" lat="30.222801" lon="-97.487654" changeset="false"><tag k="addr:street" v="South Webberwood Way"/><tag k="addr:housenumber" v="1403"/><tag k="addr:postcode" v="78621"/></node><node id="-72" lat="30.219451" lon="-97.499184" changeset="false"><tag k="addr:street" v="Belinda Lane"/><tag k="addr:housenumber" v="20025"/><tag k="addr:postcode" v="78653"/></node><node id="-73" lat="30.257214" lon="-97.55497" changeset="false"><tag k="addr:street" v="Taylor Lane"/><tag k="addr:housenumber" v="6710 1/2"/><tag k="addr:postcode" v="78653"/></node><node id="-74" lat="30.266006" lon="-97.542077" changeset="false"><tag k="addr:street" v="Glass Road"/><tag k="addr:housenumber" v="17501"/><tag k="addr:postcode" v="78653"/></node><node id="-75" lat="30.243739" lon="-97.487599" changeset="false"><tag k="addr:street" v="Blake Manor Road"/><tag k="addr:housenumber" v="21228"/><tag k="addr:postcode" v="78621"/></node><node id="-76" lat="30.241336" lon="-97.484559" changeset="false"><tag k="addr:street" v="Blake Manor Road"/><tag k="addr:housenumber" v="21248"/><tag k="addr:postcode" v="78621"/></node><node id="-77" lat="30.285342" lon="-97.584061" changeset="false"><tag k="addr:street" v="Jarrod Lee Cove"/><tag k="addr:housenumber" v="12311"/><tag k="addr:postcode" v="78724"/></node><node id="-78" lat="30.261593" lon="-97.563015" changeset="false"><tag k="addr:street" v="Decker Lake Road"/><tag k="addr:housenumber" v="16200"/><tag k="addr:postcode" v="78653"/></node><node id="-79" lat="30.278482" lon="-97.58061" changeset="false"><tag k="addr:street" v="Gilbert Road"/><tag k="addr:housenumber" v="7300"/><tag k="addr:postcode" v="78724"/></node><node id="-80" lat="30.282966" lon="-97.577921" changeset="false"><tag k="addr:street" v="Gilbert Road"/><tag k="addr:housenumber" v="7724"/><tag k="addr:postcode" v="78724"/></node><node id="-81" lat="30.27896" lon="-97.521796" changeset="false"><tag k="addr:street" v="Burleson Manor Road"/><tag k="addr:housenumber" v="8719"/><tag k="addr:postcode" v="78653"/></node><node id="-82" lat="30.279464" lon="-97.520811" changeset="false"><tag k="addr:street" v="Burleson Manor Road"/><tag k="addr:housenumber" v="8821"/><tag k="addr:postcode" v="78653"/></node><node id="-83" lat="30.280044" lon="-97.520595" changeset="false"><tag k="addr:street" v="Burleson Manor Road"/><tag k="addr:housenumber" v="8825"/><tag k="addr:postcode" v="78653"/></node><node id="-84" lat="30.269915" lon="-97.507832" changeset="false"><tag k="addr:street" v="Brown Cemetery Road"/><tag k="addr:housenumber" v="8034"/><tag k="addr:postcode" v="78653"/></node><node id="-85" lat="30.304954" lon="-97.531065" changeset="false"><tag k="addr:street" v="Blake Manor Road"/><tag k="addr:housenumber" v="18201"/><tag k="addr:postcode" v="78653"/></node><node id="-86" lat="30.287223" lon="-97.582286" changeset="false"><tag k="addr:street" v="Hog Eye Road"/><tag k="addr:housenumber" v="14911"/><tag k="addr:postcode" v="78724"/></node><node id="-87" lat="30.279691" lon="-97.524232" changeset="false"><tag k="addr:street" v="Burleson Manor Road"/><tag k="addr:housenumber" v="8712"/><tag k="addr:postcode" v="78653"/></node><node id="-88" lat="30.27919" lon="-97.522875" changeset="false"><tag k="addr:street" v="Burleson Manor Road"/><tag k="addr:housenumber" v="8800"/><tag k="addr:postcode" v="78653"/></node><node id="-89" lat="30.273969" lon="-97.523529" changeset="false"><tag k="addr:street" v="Burleson Manor Road"/><tag k="addr:housenumber" v="8313"/><tag k="addr:postcode" v="78653"/></node><node id="-90" lat="30.280371" lon="-97.576955" changeset="false"><tag k="addr:street" v="Nez Perce Trace"/><tag k="addr:housenumber" v="7700"/><tag k="addr:postcode" v="78653"/></node><node id="-91" lat="30.294554" lon="-97.524812" changeset="false"><tag k="addr:street" v="Blake Manor Road"/><tag k="addr:housenumber" v="18533"/><tag k="addr:postcode" v="78653"/></node><node id="-92" lat="30.288218" lon="-97.522406" changeset="false"><tag k="addr:street" v="Blake Manor Circle"/><tag k="addr:housenumber" v="18705"/><tag k="addr:postcode" v="78653"/></node><node id="-93" lat="30.274478" lon="-97.508518" changeset="false"><tag k="addr:street" v="Eyerley Road"/><tag k="addr:housenumber" v="19512"/><tag k="addr:postcode" v="78653"/></node><node id="-94" lat="30.285992" lon="-97.582707" changeset="false"><tag k="addr:street" v="Jarrod Lee Cove"/><tag k="addr:housenumber" v="12330"/><tag k="addr:postcode" v="78724"/></node><node id="-95" lat="30.277514" lon="-97.522643" changeset="false"><tag k="addr:street" v="Burleson Manor Road"/><tag k="addr:housenumber" v="8607"/><tag k="addr:postcode" v="78653"/></node><node id="-96" lat="30.281553" lon="-97.57755" changeset="false"><tag k="addr:street" v="Nez Perce Trace"/><tag k="addr:housenumber" v="7721"/><tag k="addr:postcode" v="78653"/></node><node id="-97" lat="30.28184" lon="-97.516513" changeset="false"><tag k="addr:street" v="Lone Tree Drive"/><tag k="addr:housenumber" v="8918"/><tag k="addr:postcode" v="78653"/></node><node id="-98" lat="30.279995" lon="-97.512438" changeset="false"><tag k="addr:street" v="Blake Manor Road"/><tag k="addr:housenumber" v="19317"/><tag k="addr:postcode" v="78653"/></node><node id="-99" lat="30.271488" lon="-97.507215" changeset="false"><tag k="addr:street" v="Brown Cemetery Road"/><tag k="addr:housenumber" v="8200"/><tag k="addr:postcode" v="78653"/></node><node id="-100" lat="30.273769" lon="-97.57999" changeset="false"><tag k="addr:street" v="Gilbert Road"/><tag k="addr:housenumber" v="7001"/><tag k="addr:postcode" v="78653"/></node><node id="-101" lat="30.219897" lon="-97.500093" changeset="false"><tag k="addr:street" v="Belinda Lane"/><tag k="addr:housenumber" v="20017"/><tag k="addr:postcode" v="78653"/></node><node id="-102" lat="30.24513" lon="-97.476428" changeset="false"><tag k="addr:street" v="Webber Oaks Cove"/><tag k="addr:housenumber" v="21416"/><tag k="addr:postcode" v="78621"/></node><node id="-103" lat="30.301354" lon="-97.528957" changeset="false"><tag k="addr:street" v="Blake Manor Road"/><tag k="addr:housenumber" v="18301"/><tag k="addr:postcode" v="78653"/></node><node id="-104" lat="30.231088" lon="-97.482231" changeset="false"><tag k="addr:street" v="South Webberwood Way"/><tag k="addr:housenumber" v="815"/><tag k="addr:postcode" v="78621"/></node><node id="-105" lat="30.289952" lon="-97.52352" changeset="false"><tag k="addr:street" v="Blake Manor Road"/><tag k="addr:housenumber" v="18667"/><tag k="addr:postcode" v="78653"/></node><node id="-106" lat="30.286008" lon="-97.537923" changeset="false"><tag k="addr:street" v="Taylor Lane"/><tag k="addr:housenumber" v="9300"/><tag k="addr:postcode" v="78653"/></node><node id="-107" lat="30.244553" lon="-97.472881" changeset="false"><tag k="addr:street" v="South Webberwood Way"/><tag k="addr:housenumber" v="221"/><tag k="addr:postcode" v="78621"/></node><node id="-108" lat="30.233367" lon="-97.482593" changeset="false"><tag k="addr:street" v="Coleman Branch Creek Road"/><tag k="addr:housenumber" v="21009"/><tag k="addr:postcode" v="78621"/></node><node id="-109" lat="30.299307" lon="-97.529626" changeset="false"><tag k="addr:street" v="Taylor Lane"/><tag k="addr:housenumber" v="10301"/><tag k="addr:postcode" v="78653"/></node><node id="-110" lat="30.279177" lon="-97.518884" changeset="false"><tag k="addr:street" v="Tree Top Drive"/><tag k="addr:housenumber" v="18901"/><tag k="addr:postcode" v="78653"/></node><node id="-111" lat="30.277616" lon="-97.513793" changeset="false"><tag k="addr:street" v="Eyerley Road"/><tag k="addr:housenumber" v="19200"/><tag k="addr:postcode" v="78653"/></node><node id="-112" lat="30.277307" lon="-97.50415" changeset="false"><tag k="addr:street" v="Blake Manor Road"/><tag k="addr:housenumber" v="19809"/><tag k="addr:postcode" v="78653"/></node><node id="-113" lat="30.257769" lon="-97.527923" changeset="false"><tag k="addr:street" v="Burleson Manor Road"/><tag k="addr:housenumber" v="7221"/><tag k="addr:postcode" v="78653"/></node><node id="-114" lat="30.244226" lon="-97.476736" changeset="false"><tag k="addr:street" v="Webber Oaks Cove"/><tag k="addr:housenumber" v="21417"/><tag k="addr:postcode" v="78621"/></node><node id="-115" lat="30.268735" lon="-97.522067" changeset="false"><tag k="addr:street" v="Burleson Manor Road"/><tag k="addr:housenumber" v="8001"/><tag k="addr:postcode" v="78653"/></node><node id="-116" lat="30.266654" lon="-97.523922" changeset="false"><tag k="addr:street" v="Burleson Manor Road"/><tag k="addr:housenumber" v="7908"/><tag k="addr:postcode" v="78653"/></node><node id="-117" lat="30.267734" lon="-97.543107" changeset="false"><tag k="addr:street" v="Glass Road"/><tag k="addr:housenumber" v="17500"/><tag k="addr:postcode" v="78653"/></node><node id="-118" lat="30.223835" lon="-97.486684" changeset="false"><tag k="addr:street" v="South Webberwood Way"/><tag k="addr:housenumber" v="1309"/><tag k="addr:postcode" v="78621"/></node><node id="-119" lat="30.220567" lon="-97.499151" changeset="false"><tag k="addr:street" v="Belinda Lane"/><tag k="addr:housenumber" v="20020"/><tag k="addr:postcode" v="78653"/></node><node id="-120" lat="30.285126" lon="-97.583606" changeset="false"><tag k="addr:street" v="Jarrod Lee Cove"/><tag k="addr:housenumber" v="12321"/><tag k="addr:postcode" v="78724"/></node><node id="-121" lat="30.298945" lon="-97.530391" changeset="false"><tag k="addr:street" v="Taylor Lane"/><tag k="addr:housenumber" v="10300"/><tag k="addr:postcode" v="78653"/></node><node id="-122" lat="30.280569" lon="-97.575307" changeset="false"><tag k="addr:street" v="Nez Perce Trace"/><tag k="addr:housenumber" v="7681"/><tag k="addr:postcode" v="78653"/></node><node id="-123" lat="30.281096" lon="-97.517147" changeset="false"><tag k="addr:street" v="Lone Tree Drive"/><tag k="addr:housenumber" v="8912"/><tag k="addr:postcode" v="78653"/></node><node id="-124" lat="30.227721" lon="-97.483869" changeset="false"><tag k="addr:street" v="South Webberwood Way"/><tag k="addr:housenumber" v="1005"/><tag k="addr:postcode" v="78621"/></node><node id="-125" lat="30.275116" lon="-97.541745" changeset="false"><tag k="addr:street" v="Taylor Lane"/><tag k="addr:housenumber" v="8413"/><tag k="addr:postcode" v="78653"/></node><node id="-126" lat="30.240566" lon="-97.475537" changeset="false"><tag k="addr:street" v="South Webberwood Way"/><tag k="addr:housenumber" v="101"/><tag k="addr:postcode" v="78621"/></node><node id="-127" lat="30.279332" lon="-97.58018" changeset="false"><tag k="addr:street" v="Gilbert Road"/><tag k="addr:housenumber" v="7400"/><tag k="addr:postcode" v="78724"/></node><node id="-128" lat="30.276602" lon="-97.571155" changeset="false"><tag k="addr:street" v="Wells Trace"/><tag k="addr:housenumber" v="7502"/><tag k="addr:postcode" v="78653"/></node><node id="-129" lat="30.224908" lon="-97.487171" changeset="false"><tag k="addr:street" v="South Webberwood Way"/><tag k="addr:housenumber" v="1304"/><tag k="addr:postcode" v="78621"/></node><node id="-130" lat="30.229764" lon="-97.484311" changeset="false"><tag k="addr:street" v="South Webberwood Way"/><tag k="addr:housenumber" v="1000"/><tag k="addr:postcode" v="78621"/></node><node id="-131" lat="30.274119" lon="-97.523276" changeset="false"><tag k="addr:street" v="Burleson Manor Road"/><tag k="addr:housenumber" v="8321"/><tag k="addr:postcode" v="78653"/></node><node id="-132" lat="30.221182" lon="-97.500225" changeset="false"><tag k="addr:street" v="Belinda Lane"/><tag k="addr:housenumber" v="20008"/><tag k="addr:postcode" v="78653"/></node><node id="-133" lat="30.239244" lon="-97.493191" changeset="false"><tag k="addr:street" v="Blake Manor Road"/><tag k="addr:housenumber" v="21326"/><tag k="addr:postcode" v="78621"/></node><node id="-134" lat="30.278541" lon="-97.521963" changeset="false"><tag k="addr:street" v="Burleson Manor Road"/><tag k="addr:housenumber" v="8711"/><tag k="addr:postcode" v="78653"/></node><node id="-135" lat="30.287962" lon="-97.534853" changeset="false"><tag k="addr:street" v="Taylor Lane"/><tag k="addr:housenumber" v="9413"/><tag k="addr:postcode" v="78653"/></node><node id="-136" lat="30.267433" lon="-97.540449" changeset="false"><tag k="addr:street" v="Glass Road"/><tag k="addr:housenumber" v="17605"/><tag k="addr:postcode" v="78653"/></node><node id="-137" lat="30.313419" lon="-97.562999" changeset="false"><tag k="addr:street" v="Farm-to-Market Road 973"/><tag k="addr:housenumber" v="10601"/><tag k="addr:postcode" v="78653"/></node><node id="-138" lat="30.272144" lon="-97.576282" changeset="false"><tag k="addr:street" v="Decker Lake Road"/><tag k="addr:housenumber" v="15310"/><tag k="addr:postcode" v="78653"/></node><node id="-139" lat="30.278552" lon="-97.570901" changeset="false"><tag k="addr:street" v="Nez Perce Trace"/><tag k="addr:housenumber" v="7627"/><tag k="addr:postcode" v="78653"/></node><node id="-140" lat="30.287759" lon="-97.522042" changeset="false"><tag k="addr:street" v="Blake Manor Circle"/><tag k="addr:housenumber" v="18707"/><tag k="addr:postcode" v="78653"/></node><node id="-141" lat="30.28463" lon="-97.582526" changeset="false"><tag k="addr:street" v="Jarrod Lee Cove"/><tag k="addr:housenumber" v="12409"/><tag k="addr:postcode" v="78724"/></node><node id="-142" lat="30.265942" lon="-97.522242" changeset="false"><tag k="addr:street" v="Burleson Manor Road"/><tag k="addr:housenumber" v="7811"/><tag k="addr:postcode" v="78653"/></node><node id="-143" lat="30.269417" lon="-97.508196" changeset="false"><tag k="addr:street" v="Brown Cemetery Road"/><tag k="addr:housenumber" v="8028"/><tag k="addr:postcode" v="78653"/></node><node id="-144" lat="30.252446" lon="-97.483359" changeset="false"><tag k="addr:street" v="Blake Manor Road"/><tag k="addr:housenumber" v="21108"/><tag k="addr:postcode" v="78653"/></node><node id="-145" lat="30.250241" lon="-97.484988" changeset="false"><tag k="addr:street" v="Blake Manor Road"/><tag k="addr:housenumber" v="21134"/><tag k="addr:postcode" v="78621"/></node><node id="-146" lat="30.229548" lon="-97.487654" changeset="false"><tag k="addr:street" v="Sandy Brown Lane"/><tag k="addr:housenumber" v="20806"/><tag k="addr:postcode" v="78621"/></node><node id="-147" lat="30.24221" lon="-97.474253" changeset="false"><tag k="addr:street" v="South Webberwood Way"/><tag k="addr:housenumber" v="121"/><tag k="addr:postcode" v="78621"/></node><node id="-148" lat="30.322145" lon="-97.543183" changeset="false"><tag k="addr:street" v="Blake Manor Road"/><tag k="addr:housenumber" v="17411"/><tag k="addr:postcode" v="78653"/></node><node id="-149" lat="30.307405" lon="-97.563709" changeset="false"><tag k="addr:street" v="Farm-to-Market Road 973"/><tag k="addr:housenumber" v="10015"/><tag k="addr:postcode" v="78653"/></node><node id="-150" lat="30.268409" lon="-97.511144" changeset="false"><tag k="addr:street" v="Brown Cemetery Road"/><tag k="addr:housenumber" v="7812"/><tag k="addr:postcode" v="78653"/></node><node id="-151" lat="30.229069" lon="-97.486398" changeset="false"><tag k="addr:street" v="Sandy Brown Lane"/><tag k="addr:housenumber" v="20902"/><tag k="addr:postcode" v="78621"/></node><node id="-152" lat="30.229045" lon="-97.488915" changeset="false"><tag k="addr:street" v="Sandy Brown Lane"/><tag k="addr:housenumber" v="20803"/><tag k="addr:postcode" v="78621"/></node><node id="-153" lat="30.255715" lon="-97.482418" changeset="false"><tag k="addr:street" v="Blake Manor Road"/><tag k="addr:housenumber" v="21045"/><tag k="addr:postcode" v="78653"/></node><node id="-154" lat="30.27126" lon="-97.56751" changeset="false"><tag k="addr:street" v="Nez Perce Trace"/><tag k="addr:housenumber" v="7302"/><tag k="addr:postcode" v="78653"/></node><node id="-155" lat="30.265777" lon="-97.564733" changeset="false"><tag k="addr:street" v="Decker Lake Road"/><tag k="addr:housenumber" v="16000"/><tag k="addr:postcode" v="78653"/></node><node id="-156" lat="30.317804" lon="-97.540719" changeset="false"><tag k="addr:street" v="Blake Manor Road"/><tag k="addr:housenumber" v="17529"/><tag k="addr:postcode" v="78653"/></node><node id="-157" lat="30.275791" lon="-97.513008" changeset="false"><tag k="addr:street" v="Eyerley Road"/><tag k="addr:housenumber" v="19301"/><tag k="addr:postcode" v="78653"/></node><node id="-158" lat="30.274018" lon="-97.509432" changeset="false"><tag k="addr:street" v="Eyerley Road"/><tag k="addr:housenumber" v="19509"/><tag k="addr:postcode" v="78653"/></node><node id="-159" lat="30.275451" lon="-97.545609" changeset="false"><tag k="addr:street" v="Taylor Lane"/><tag k="addr:housenumber" v="8312"/><tag k="addr:postcode" v="78653"/></node><node id="-160" lat="30.223492" lon="-97.486966" changeset="false"><tag k="addr:street" v="South Webberwood Way"/><tag k="addr:housenumber" v="1401"/><tag k="addr:postcode" v="78621"/></node><node id="-161" lat="30.268125" lon="-97.513467" changeset="false"><tag k="addr:street" v="Brown Cemetery Road"/><tag k="addr:housenumber" v="7917"/><tag k="addr:postcode" v="78653"/></node><node id="-162" lat="30.231937" lon="-97.485253" changeset="false"><tag k="addr:street" v="South Webberwood Way"/><tag k="addr:housenumber" v="902"/><tag k="addr:postcode" v="78621"/></node><node id="-163" lat="30.226453" lon="-97.485373" changeset="false"><tag k="addr:street" v="South Webberwood Way"/><tag k="addr:housenumber" v="1115"/><tag k="addr:postcode" v="78621"/></node><node id="-164" lat="30.279615" lon="-97.509664" changeset="false"><tag k="addr:street" v="Blake Manor Road"/><tag k="addr:housenumber" v="19501"/><tag k="addr:postcode" v="78653"/></node><node id="-165" lat="30.293688" lon="-97.524216" changeset="false"><tag k="addr:street" v="Blake Manor Road"/><tag k="addr:housenumber" v="18617"/><tag k="addr:postcode" v="78653"/></node><node id="-166" lat="30.293326" lon="-97.52402" changeset="false"><tag k="addr:street" v="Blake Manor Road"/><tag k="addr:housenumber" v="18625"/><tag k="addr:postcode" v="78653"/></node><node id="-167" lat="30.220123" lon="-97.504233" changeset="false"><tag k="addr:street" v="Post Oak Road"/><tag k="addr:housenumber" v="2600"/><tag k="addr:postcode" v="78653"/></node><node id="-168" lat="30.242401" lon="-97.491115" changeset="false"><tag k="addr:street" v="Blake Manor Road"/><tag k="addr:housenumber" v="21264"/><tag k="addr:postcode" v="78621"/></node><node id="-169" lat="30.278246" lon="-97.506087" changeset="false"><tag k="addr:street" v="Blake Manor Road"/><tag k="addr:housenumber" v="19705"/><tag k="addr:postcode" v="78653"/></node><node id="-170" lat="30.295269" lon="-97.52531" changeset="false"><tag k="addr:street" v="Blake Manor Road"/><tag k="addr:housenumber" v="18517"/><tag k="addr:postcode" v="78653"/></node><node id="-171" lat="30.294894" lon="-97.525055" changeset="false"><tag k="addr:street" v="Blake Manor Road"/><tag k="addr:housenumber" v="18525"/><tag k="addr:postcode" v="78653"/></node><node id="-172" lat="30.272958" lon="-97.520626" changeset="false"><tag k="addr:street" v="Burleson Manor Road"/><tag k="addr:housenumber" v="8317"/><tag k="addr:postcode" v="78653"/></node><node id="-173" lat="30.282266" lon="-97.520398" changeset="false"><tag k="addr:street" v="Burleson Manor Road"/><tag k="addr:housenumber" v="9004"/><tag k="addr:postcode" v="78653"/></node><node id="-174" lat="30.273013" lon="-97.523666" changeset="false"><tag k="addr:street" v="Burleson Manor Road"/><tag k="addr:housenumber" v="8305"/><tag k="addr:postcode" v="78653"/></node><node id="-175" lat="30.280811" lon="-97.579264" changeset="false"><tag k="addr:street" v="Gilbert Road"/><tag k="addr:housenumber" v="7512"/><tag k="addr:postcode" v="78724"/></node><node id="-176" lat="30.270364" lon="-97.567409" changeset="false"><tag k="addr:street" v="Nez Perce Trace"/><tag k="addr:housenumber" v="7200"/><tag k="addr:postcode" v="78653"/></node><node id="-177" lat="30.279013" lon="-97.572219" changeset="false"><tag k="addr:street" v="Nez Perce Trace"/><tag k="addr:housenumber" v="7635"/><tag k="addr:postcode" v="78653"/></node><node id="-178" lat="30.279459" lon="-97.518691" changeset="false"><tag k="addr:street" v="Tree Top Drive"/><tag k="addr:housenumber" v="18900"/><tag k="addr:postcode" v="78653"/></node><node id="-179" lat="30.268702" lon="-97.54739" changeset="false"><tag k="addr:street" v="Taylor Lane"/><tag k="addr:housenumber" v="7729"/><tag k="addr:postcode" v="78653"/></node><node id="-180" lat="30.287454" lon="-97.582873" changeset="false"><tag k="addr:street" v="Hog Eye Road"/><tag k="addr:housenumber" v="14901"/><tag k="addr:postcode" v="78724"/></node><node id="-181" lat="30.274713" lon="-97.581893" changeset="false"><tag k="addr:street" v="Gilbert Road"/><tag k="addr:housenumber" v="7000"/><tag k="addr:postcode" v="78724"/></node><node id="-182" lat="30.253835" lon="-97.48231" changeset="false"><tag k="addr:street" v="Blake Manor Road"/><tag k="addr:housenumber" v="21060"/><tag k="addr:postcode" v="78653"/></node><node id="-183" lat="30.295662" lon="-97.525551" changeset="false"><tag k="addr:street" v="Blake Manor Road"/><tag k="addr:housenumber" v="18509"/><tag k="addr:postcode" v="78653"/></node><node id="-184" lat="30.281208" lon="-97.578365" changeset="false"><tag k="addr:street" v="Gilbert Road"/><tag k="addr:housenumber" v="7601"/><tag k="addr:postcode" v="78653"/></node><node id="-185" lat="30.269791" lon="-97.569977" changeset="false"><tag k="addr:street" v="Decker Lake Road"/><tag k="addr:housenumber" v="15614"/><tag k="addr:postcode" v="78653"/></node><node id="-186" lat="30.326928" lon="-97.560017" changeset="false"><tag k="addr:street" v="Farm-to-Market Road 973"/><tag k="addr:housenumber" v="11605"/><tag k="addr:postcode" v="78653"/></node><node id="-187" lat="30.233666" lon="-97.483784" changeset="false"><tag k="addr:street" v="Coleman Branch Creek Road"/><tag k="addr:housenumber" v="21005"/><tag k="addr:postcode" v="78621"/></node><node id="-188" lat="30.281649" lon="-97.539971" changeset="false"><tag k="addr:street" v="Taylor Lane"/><tag k="addr:housenumber" v="9000"/><tag k="addr:postcode" v="78653"/></node><node id="-189" lat="30.277014" lon="-97.519303" changeset="false"><tag k="addr:street" v="Lone Tree Drive"/><tag k="addr:housenumber" v="8600"/><tag k="addr:postcode" v="78653"/></node><node id="-190" lat="30.219783" lon="-97.50192" changeset="false"><tag k="addr:street" v="Post Oak Road"/><tag k="addr:housenumber" v="2506"/><tag k="addr:postcode" v="78653"/></node><node id="-191" lat="30.267748" lon="-97.513478" changeset="false"><tag k="addr:street" v="Brown Cemetery Road"/><tag k="addr:housenumber" v="7919"/><tag k="addr:postcode" v="78653"/></node><node id="-192" lat="30.251417" lon="-97.485706" changeset="false"><tag k="addr:street" v="Blake Manor Road"/><tag k="addr:housenumber" v="21121"/><tag k="addr:postcode" v="78653"/></node><node id="-193" lat="30.221461" lon="-97.500658" changeset="false"><tag k="addr:street" v="Belinda Lane"/><tag k="addr:housenumber" v="20004"/><tag k="addr:postcode" v="78653"/></node><node id="-194" lat="30.28444" lon="-97.581903" changeset="false"><tag k="addr:street" v="Jarrod Lee Cove"/><tag k="addr:housenumber" v="12419"/><tag k="addr:postcode" v="78724"/></node><node id="-195" lat="30.219629" lon="-97.499649" changeset="false"><tag k="addr:street" v="Belinda Lane"/><tag k="addr:housenumber" v="20021"/><tag k="addr:postcode" v="78653"/></node><node id="-196" lat="30.225754" lon="-97.48724" changeset="false"><tag k="addr:street" v="South Webberwood Way"/><tag k="addr:housenumber" v="1300"/><tag k="addr:postcode" v="78621"/></node><node id="-197" lat="30.242847" lon="-97.487318" changeset="false"><tag k="addr:street" v="Blake Manor Road"/><tag k="addr:housenumber" v="21244"/><tag k="addr:postcode" v="78621"/></node><node id="-198" lat="30.276251" lon="-97.512298" changeset="false"><tag k="addr:street" v="Eyerley Road"/><tag k="addr:housenumber" v="19302"/><tag k="addr:postcode" v="78653"/></node><node id="-199" lat="30.308043" lon="-97.538363" changeset="false"><tag k="addr:street" v="Blake Manor Road"/><tag k="addr:housenumber" v="17775"/><tag k="addr:postcode" v="78653"/></node><node id="-200" lat="30.256858" lon="-97.528951" changeset="false"><tag k="addr:street" v="Burleson Manor Road"/><tag k="addr:housenumber" v="7109"/><tag k="addr:postcode" v="78653"/></node><node id="-201" lat="30.271661" lon="-97.574877" changeset="false"><tag k="addr:street" v="Decker Lake Road"/><tag k="addr:housenumber" v="15400"/><tag k="addr:postcode" v="78653"/></node><node id="-202" lat="30.26899" lon="-97.568267" changeset="false"><tag k="addr:street" v="Decker Lake Road"/><tag k="addr:housenumber" v="15800"/><tag k="addr:postcode" v="78653"/></node><node id="-203" lat="30.246154" lon="-97.488322" changeset="false"><tag k="addr:street" v="Blake Manor Road"/><tag k="addr:housenumber" v="21210"/><tag k="addr:postcode" v="78621"/></node><node id="-204" lat="30.242684" lon="-97.475647" changeset="false"><tag k="addr:street" v="South Webberwood Way"/><tag k="addr:housenumber" v="118"/><tag k="addr:postcode" v="78621"/></node><node id="-205" lat="30.22766" lon="-97.485489" changeset="false"><tag k="addr:street" v="South Webberwood Way"/><tag k="addr:housenumber" v="1100"/><tag k="addr:postcode" v="78621"/></node><node id="-206" lat="30.220504" lon="-97.505289" changeset="false"><tag k="addr:street" v="Post Oak Road"/><tag k="addr:housenumber" v="2632"/><tag k="addr:postcode" v="78653"/></node><node id="-207" lat="30.268309" lon="-97.509587" changeset="false"><tag k="addr:street" v="Brown Cemetery Road"/><tag k="addr:housenumber" v="7912"/><tag k="addr:postcode" v="78653"/></node><node id="-208" lat="30.28249" lon="-97.516213" changeset="false"><tag k="addr:street" v="Blake Manor Road"/><tag k="addr:housenumber" v="19101"/><tag k="addr:postcode" v="78653"/></node><node id="-209" lat="30.220133" lon="-97.498431" changeset="false"><tag k="addr:street" v="Belinda Lane"/><tag k="addr:housenumber" v="20028"/><tag k="addr:postcode" v="78653"/></node><node id="-210" lat="30.244767" lon="-97.489443" changeset="false"><tag k="addr:street" v="Blake Manor Road"/><tag k="addr:housenumber" v="21224"/><tag k="addr:postcode" v="78621"/></node><node id="-211" lat="30.227178" lon="-97.485844" changeset="false"><tag k="addr:street" v="South Webberwood Way"/><tag k="addr:housenumber" v="1108"/><tag k="addr:postcode" v="78621"/></node><node id="-212" lat="30.280408" lon="-97.574367" changeset="false"><tag k="addr:street" v="Nez Perce Trace"/><tag k="addr:housenumber" v="7679"/><tag k="addr:postcode" v="78653"/></node><node id="-213" lat="30.26891" lon="-97.511033" changeset="false"><tag k="addr:street" v="Brown Cemetery Road"/><tag k="addr:housenumber" v="8002"/><tag k="addr:postcode" v="78653"/></node><node id="-214" lat="30.226132" lon="-97.485347" changeset="false"><tag k="addr:street" v="South Webberwood Way"/><tag k="addr:housenumber" v="1201"/><tag k="addr:postcode" v="78621"/></node><node id="-215" lat="30.220323" lon="-97.498827" changeset="false"><tag k="addr:street" v="Belinda Lane"/><tag k="addr:housenumber" v="20024"/><tag k="addr:postcode" v="78653"/></node><node id="-216" lat="30.275759" lon="-97.503833" changeset="false"><tag k="addr:street" v="Blake Manor Road"/><tag k="addr:housenumber" v="19925"/><tag k="addr:postcode" v="78653"/></node><node id="-217" lat="30.275225" lon="-97.511904" changeset="false"><tag k="addr:street" v="Eyerley Road"/><tag k="addr:housenumber" v="19315"/><tag k="addr:postcode" v="78653"/></node><node id="-218" lat="30.287568" lon="-97.577359" changeset="false"><tag k="addr:street" v="Farm-to-Market Road 973"/><tag k="addr:housenumber" v="8107"/><tag k="addr:postcode" v="78724"/></node><node id="-219" lat="30.242912" lon="-97.473917" changeset="false"><tag k="addr:street" v="South Webberwood Way"/><tag k="addr:housenumber" v="127"/><tag k="addr:postcode" v="78621"/></node><node id="-220" lat="30.23995" lon="-97.478989" changeset="false"><tag k="addr:street" v="Webberwood Ridge Drive"/><tag k="addr:housenumber" v="21418"/><tag k="addr:postcode" v="78621"/></node><node id="-221" lat="30.223948" lon="-97.488042" changeset="false"><tag k="addr:street" v="South Webberwood Way"/><tag k="addr:housenumber" v="1400"/><tag k="addr:postcode" v="78621"/></node><node id="-222" lat="30.244696" lon="-97.478314" changeset="false"><tag k="addr:street" v="Webber Oaks Cove"/><tag k="addr:housenumber" v="21405"/><tag k="addr:postcode" v="78621"/></node><node id="-223" lat="30.269015" lon="-97.565614" changeset="false"><tag k="addr:street" v="Nez Perce Trace"/><tag k="addr:housenumber" v="7101"/><tag k="addr:postcode" v="78653"/></node><node id="-224" lat="30.300394" lon="-97.565713" changeset="false"><tag k="addr:street" v="Farm-to-Market Road 973"/><tag k="addr:housenumber" v="9501"/><tag k="addr:postcode" v="78653"/></node><node id="-225" lat="30.286194" lon="-97.583127" changeset="false"><tag k="addr:street" v="Jarrod Lee Cove"/><tag k="addr:housenumber" v="12320"/><tag k="addr:postcode" v="78724"/></node><node id="-226" lat="30.286929" lon="-97.579864" changeset="false"><tag k="addr:street" v="Hog Eye Road"/><tag k="addr:housenumber" v="15020"/><tag k="addr:postcode" v="78724"/></node><node id="-227" lat="30.25993" lon="-97.526868" changeset="false"><tag k="addr:street" v="Burleson Manor Road"/><tag k="addr:housenumber" v="7407"/><tag k="addr:postcode" v="78653"/></node><node id="-228" lat="30.264373" lon="-97.524111" changeset="false"><tag k="addr:street" v="Burleson Manor Road"/><tag k="addr:housenumber" v="7717"/><tag k="addr:postcode" v="78653"/></node><node id="-229" lat="30.294273" lon="-97.524619" changeset="false"><tag k="addr:street" v="Blake Manor Road"/><tag k="addr:housenumber" v="18601"/><tag k="addr:postcode" v="78653"/></node><node id="-230" lat="30.277743" lon="-97.51559" changeset="false"><tag k="addr:street" v="Eyerley Road"/><tag k="addr:housenumber" v="19100"/><tag k="addr:postcode" v="78653"/></node><node id="-231" lat="30.2555" lon="-97.534145" changeset="false"><tag k="addr:street" v="Burleson Manor Road"/><tag k="addr:housenumber" v="6918"/><tag k="addr:postcode" v="78653"/></node><node id="-232" lat="30.272247" lon="-97.572119" changeset="false"><tag k="addr:street" v="Wells Trace"/><tag k="addr:housenumber" v="7102"/><tag k="addr:postcode" v="78653"/></node><node id="-233" lat="30.296224" lon="-97.53078" changeset="false"><tag k="addr:street" v="Taylor Lane"/><tag k="addr:housenumber" v="10017"/><tag k="addr:postcode" v="78653"/></node><node id="-234" lat="30.25184" lon="-97.478689" changeset="false"><tag k="addr:street" v="Union Lee Church Road"/><tag k="addr:housenumber" v="21419"/><tag k="addr:postcode" v="78653"/></node><node id="-235" lat="30.225293" lon="-97.485259" changeset="false"><tag k="addr:street" v="South Webberwood Way"/><tag k="addr:housenumber" v="1203"/><tag k="addr:postcode" v="78621"/></node><node id="-236" lat="30.278099" lon="-97.51475" changeset="false"><tag k="addr:street" v="Eyerley Road"/><tag k="addr:housenumber" v="19130"/><tag k="addr:postcode" v="78653"/></node><node id="-237" lat="30.276376" lon="-97.51509" changeset="false"><tag k="addr:street" v="Eyerley Road"/><tag k="addr:housenumber" v="19201"/><tag k="addr:postcode" v="78653"/></node><node id="-238" lat="30.274758" lon="-97.508912" changeset="false"><tag k="addr:street" v="Eyerley Road"/><tag k="addr:housenumber" v="19510"/><tag k="addr:postcode" v="78653"/></node><node id="-239" lat="30.274551" lon="-97.579356" changeset="false"><tag k="addr:street" v="Gilbert Road"/><tag k="addr:housenumber" v="7051"/><tag k="addr:postcode" v="78653"/></node><node id="-240" lat="30.245905" lon="-97.488522" changeset="false"><tag k="addr:street" v="Blake Manor Road"/><tag k="addr:housenumber" v="21212"/><tag k="addr:postcode" v="78621"/></node><node id="-241" lat="30.221185" lon="-97.501118" changeset="false"><tag k="addr:street" v="Belinda Lane"/><tag k="addr:housenumber" v="20000"/><tag k="addr:postcode" v="78653"/></node><node id="-242" lat="30.258807" lon="-97.52713" changeset="false"><tag k="addr:street" v="Burleson Manor Road"/><tag k="addr:housenumber" v="7309"/><tag k="addr:postcode" v="78653"/></node><node id="-243" lat="30.276063" lon="-97.571941" changeset="false"><tag k="addr:street" v="Wells Trace"/><tag k="addr:housenumber" v="7500"/><tag k="addr:postcode" v="78653"/></node><node id="-244" lat="30.269776" lon="-97.509389" changeset="false"><tag k="addr:street" v="Brown Cemetery Road"/><tag k="addr:housenumber" v="8014"/><tag k="addr:postcode" v="78653"/></node><node id="-245" lat="30.267982" lon="-97.509854" changeset="false"><tag k="addr:street" v="Brown Cemetery Road"/><tag k="addr:housenumber" v="7816"/><tag k="addr:postcode" v="78653"/></node><node id="-246" lat="30.238441" lon="-97.478719" changeset="false"><tag k="addr:street" v="Webberwood Ridge Drive"/><tag k="addr:housenumber" v="21421"/><tag k="addr:postcode" v="78621"/></node><node id="-247" lat="30.235145" lon="-97.491886" changeset="false"><tag k="addr:street" v="Blake Manor Road"/><tag k="addr:housenumber" v="21390"/><tag k="addr:postcode" v="78621"/></node><node id="-248" lat="30.229429" lon="-97.487253" changeset="false"><tag k="addr:street" v="Sandy Brown Lane"/><tag k="addr:housenumber" v="20808"/><tag k="addr:postcode" v="78621"/></node><node id="-249" lat="30.254201" lon="-97.530723" changeset="false"><tag k="addr:street" v="Burleson Manor Road"/><tag k="addr:housenumber" v="6921"/><tag k="addr:postcode" v="78653"/></node><node id="-250" lat="30.240451" lon="-97.477664" changeset="false"><tag k="addr:street" v="South Webberwood Way"/><tag k="addr:housenumber" v="112"/><tag k="addr:postcode" v="78621"/></node><node id="-251" lat="30.246387" lon="-97.488921" changeset="false"><tag k="addr:street" v="Blake Manor Road"/><tag k="addr:housenumber" v="21211"/><tag k="addr:postcode" v="78653"/></node><node id="-252" lat="30.268475" lon="-97.566764" changeset="false"><tag k="addr:street" v="Nez Perce Trace"/><tag k="addr:housenumber" v="7004"/><tag k="addr:postcode" v="78653"/></node><node id="-253" lat="30.244228" lon="-97.478034" changeset="false"><tag k="addr:street" v="Webber Oaks Cove"/><tag k="addr:housenumber" v="21409"/><tag k="addr:postcode" v="78621"/></node><node id="-254" lat="30.260966" lon="-97.526767" changeset="false"><tag k="addr:street" v="Burleson Manor Road"/><tag k="addr:housenumber" v="7415"/><tag k="addr:postcode" v="78653"/></node><node id="-255" lat="30.274453" lon="-97.524114" changeset="false"><tag k="addr:street" v="Burleson Manor Road"/><tag k="addr:housenumber" v="8318"/><tag k="addr:postcode" v="78653"/></node></osm>