<?xml version="1.0" encoding="UTF-8"?><osm version="0.6" generator="github.com/aaronlidman/osm-and-geojson"><node id="-1" lat="30.285382" lon="-97.839117" changeset="false"><tag k="addr:street" v="Augusta National Drive"/><tag k="addr:housenumber" v="6210"/><tag k="addr:postcode" v="78746"/></node><node id="-2" lat="30.285858" lon="-97.835501" changeset="false"><tag k="addr:street" v="Diamond Head Drive"/><tag k="addr:housenumber" v="6102"/><tag k="addr:postcode" v="78746"/></node><node id="-3" lat="30.289367" lon="-97.83887" changeset="false"><tag k="addr:street" v="Whitemarsh Valley Walk"/><tag k="addr:housenumber" v="6635"/><tag k="addr:postcode" v="78746"/></node><node id="-4" lat="30.288833" lon="-97.839011" changeset="false"><tag k="addr:street" v="Whitemarsh Valley Walk"/><tag k="addr:housenumber" v="6630"/><tag k="addr:postcode" v="78746"/></node><node id="-5" lat="30.287541" lon="-97.828188" changeset="false"><tag k="addr:street" v="Capital of Texas Highway"/><tag k="addr:housenumber" v="900"/><tag k="addr:postcode" v="78746"/></node><node id="-6" lat="30.292113" lon="-97.829334" changeset="false"><tag k="addr:street" v="Las Cimas Parkway"/><tag k="addr:housenumber" v="804"/><tag k="addr:postcode" v="78746"/></node><node id="-7" lat="30.287293" lon="-97.840129" changeset="false"><tag k="addr:street" v="Torrey Pines Cove"/><tag k="addr:housenumber" v="6501"/><tag k="addr:postcode" v="78746"/></node><node id="-8" lat="30.286866" lon="-97.833901" changeset="false"><tag k="addr:street" v="Worchester Cove"/><tag k="addr:housenumber" v="6003"/><tag k="addr:postcode" v="78746"/></node><node id="-9" lat="30.288441" lon="-97.831319" changeset="false"><tag k="addr:street" v="Las Cimas Parkway"/><tag k="addr:housenumber" v="911"/><tag k="addr:postcode" v="78746"/></node><node id="-10" lat="30.288187" lon="-97.834512" changeset="false"><tag k="addr:street" v="Whitemarsh Valley Walk"/><tag k="addr:housenumber" v="6662"/><tag k="addr:postcode" v="78746"/></node><node id="-11" lat="30.28374" lon="-97.824785" changeset="false"><tag k="addr:street" v="Lost Creek Boulevard"/><tag k="addr:housenumber" v="1100"/><tag k="addr:postcode" v="78746"/></node><node id="-12" lat="30.288811" lon="-97.842252" changeset="false"><tag k="addr:street" v="Falcon Ledge Drive"/><tag k="addr:housenumber" v="1217"/><tag k="addr:postcode" v="78746"/></node><node id="-13" lat="30.288847" lon="-97.839441" changeset="false"><tag k="addr:street" v="Whitemarsh Valley Walk"/><tag k="addr:housenumber" v="6628"/><tag k="addr:postcode" v="78746"/></node><node id="-14" lat="30.292454" lon="-97.830375" changeset="false"><tag k="addr:street" v="Castle Ridge Road"/><tag k="addr:housenumber" v="805"/><tag k="addr:postcode" v="78746"/></node><node id="-15" lat="30.290236" lon="-97.828916" changeset="false"><tag k="addr:street" v="Capital of Texas Highway"/><tag k="addr:housenumber" v="826"/><tag k="addr:postcode" v="78746"/></node><node id="-16" lat="30.286892" lon="-97.837764" changeset="false"><tag k="addr:street" v="Indian Canyon Drive"/><tag k="addr:housenumber" v="6307"/><tag k="addr:postcode" v="78746"/></node><node id="-17" lat="30.284652" lon="-97.831509" changeset="false"><tag k="addr:street" v="Lost Creek Boulevard"/><tag k="addr:housenumber" v="1300"/><tag k="addr:postcode" v="78746"/></node><node id="-18" lat="30.295019" lon="-97.834963" changeset="false"><tag k="addr:street" v="Knollwood Drive"/><tag k="addr:housenumber" v="713"/><tag k="addr:postcode" v="78746"/></node><node id="-19" lat="30.293941" lon="-97.832385" changeset="false"><tag k="addr:street" v="Forest Hills Drive"/><tag k="addr:housenumber" v="6207"/><tag k="addr:postcode" v="78746"/></node><node id="-20" lat="30.29459" lon="-97.834737" changeset="false"><tag k="addr:street" v="Forest Hills Drive"/><tag k="addr:housenumber" v="6413"/><tag k="addr:postcode" v="78746"/></node><node id="-21" lat="30.285807" lon="-97.83348" changeset="false"><tag k="addr:street" v="Quaker Ridge Drive"/><tag k="addr:housenumber" v="1200"/><tag k="addr:postcode" v="78746"/></node><node id="-22" lat="30.288109" lon="-97.832269" changeset="false"><tag k="addr:street" v="Whitemarsh Valley Walk"/><tag k="addr:housenumber" v="6681"/><tag k="addr:postcode" v="78746"/></node><node id="-23" lat="30.283491" lon="-97.84194" changeset="false"><tag k="addr:street" v="Whitemarsh Valley Walk"/><tag k="addr:housenumber" v="6500"/><tag k="addr:postcode" v="78746"/></node><node id="-24" lat="30.293866" lon="-97.830438" changeset="false"><tag k="addr:street" v="Castle Ridge Road"/><tag k="addr:housenumber" v="706"/><tag k="addr:postcode" v="78746"/></node><node id="-25" lat="30.2936" lon="-97.833948" changeset="false"><tag k="addr:street" v="The Living End"/><tag k="addr:housenumber" v="806"/><tag k="addr:postcode" v="78746"/></node><node id="-26" lat="30.291026" lon="-97.832964" changeset="false"><tag k="addr:street" v="Castle Ridge Road"/><tag k="addr:housenumber" v="830"/><tag k="addr:postcode" v="78746"/></node><node id="-27" lat="30.287183" lon="-97.83873" changeset="false"><tag k="addr:street" v="Glenn Cove"/><tag k="addr:housenumber" v="1202"/><tag k="addr:postcode" v="78746"/></node><node id="-28" lat="30.295601" lon="-97.829483" changeset="false"><tag k="addr:street" v="Castle Ridge Road"/><tag k="addr:housenumber" v="613"/><tag k="addr:postcode" v="78746"/></node><node id="-29" lat="30.28638" lon="-97.839769" changeset="false"><tag k="addr:street" v="Augusta National Drive"/><tag k="addr:housenumber" v="6400"/><tag k="addr:postcode" v="78746"/></node><node id="-30" lat="30.287013" lon="-97.833381" changeset="false"><tag k="addr:street" v="Quaker Ridge Drive"/><tag k="addr:housenumber" v="1108"/><tag k="addr:postcode" v="78746"/></node><node id="-31" lat="30.290064" lon="-97.838095" changeset="false"><tag k="addr:street" v="Galahad Drive"/><tag k="addr:housenumber" v="916"/><tag k="addr:postcode" v="78746"/></node><node id="-32" lat="30.288658" lon="-97.838621" changeset="false"><tag k="addr:street" v="Indian Canyon Drive"/><tag k="addr:housenumber" v="6411"/><tag k="addr:postcode" v="78746"/></node><node id="-33" lat="30.287904" lon="-97.841444" changeset="false"><tag k="addr:street" v="Whitemarsh Valley Walk"/><tag k="addr:housenumber" v="6608"/><tag k="addr:postcode" v="78746"/></node><node id="-34" lat="30.294684" lon="-97.83327" changeset="false"><tag k="addr:street" v="Forest Hills Drive"/><tag k="addr:housenumber" v="6304"/><tag k="addr:postcode" v="78746"/></node><node id="-35" lat="30.292208" lon="-97.833408" changeset="false"><tag k="addr:street" v="Green Oaks Drive"/><tag k="addr:housenumber" v="6207"/><tag k="addr:postcode" v="78746"/></node><node id="-36" lat="30.290821" lon="-97.834594" changeset="false"><tag k="addr:street" v="Castle Ridge Road"/><tag k="addr:housenumber" v="847"/><tag k="addr:postcode" v="78746"/></node><node id="-37" lat="30.292052" lon="-97.830596" changeset="false"><tag k="addr:street" v="Castle Ridge Road"/><tag k="addr:housenumber" v="809"/><tag k="addr:postcode" v="78746"/></node><node id="-38" lat="30.288436" lon="-97.842565" changeset="false"><tag k="addr:street" v="Torrey Pines Cove"/><tag k="addr:housenumber" v="6605"/><tag k="addr:postcode" v="78746"/></node><node id="-39" lat="30.292543" lon="-97.829257" changeset="false"><tag k="addr:street" v="Capital of Texas Highway"/><tag k="addr:housenumber" v="720"/><tag k="addr:postcode" v="78746"/></node><node id="-40" lat="30.285484" lon="-97.826383" changeset="false"><tag k="addr:street" v="Capital of Texas Highway"/><tag k="addr:housenumber" v="916"/><tag k="addr:postcode" v="78746"/></node><node id="-41" lat="30.291665" lon="-97.833043" changeset="false"><tag k="addr:street" v="Green Oaks Drive"/><tag k="addr:housenumber" v="6203"/><tag k="addr:postcode" v="78746"/></node><node id="-42" lat="30.290378" lon="-97.833705" changeset="false"><tag k="addr:street" v="Dartmoor Drive"/><tag k="addr:housenumber" v="902"/><tag k="addr:postcode" v="78746"/></node><node id="-43" lat="30.292871" lon="-97.836814" changeset="false"><tag k="addr:street" v="Castle Ridge Road"/><tag k="addr:housenumber" v="909"/><tag k="addr:postcode" v="78746"/></node><node id="-44" lat="30.287406" lon="-97.833309" changeset="false"><tag k="addr:street" v="Worchester Cove"/><tag k="addr:housenumber" v="6000"/><tag k="addr:postcode" v="78746"/></node><node id="-45" lat="30.286984" lon="-97.836262" changeset="false"><tag k="addr:street" v="Indian Canyon Drive"/><tag k="addr:housenumber" v="6215"/><tag k="addr:postcode" v="78746"/></node><node id="-46" lat="30.288845" lon="-97.841898" changeset="false"><tag k="addr:street" v="Falcon Ledge Drive"/><tag k="addr:housenumber" v="1215"/><tag k="addr:postcode" v="78746"/></node><node id="-47" lat="30.288099" lon="-97.833946" changeset="false"><tag k="addr:street" v="Whitemarsh Valley Walk"/><tag k="addr:housenumber" v="6666"/><tag k="addr:postcode" v="78746"/></node><node id="-48" lat="30.292573" lon="-97.830367" changeset="false"><tag k="addr:street" v="Castle Ridge Road"/><tag k="addr:housenumber" v="803"/><tag k="addr:postcode" v="78746"/></node><node id="-49" lat="30.294808" lon="-97.833307" changeset="false"><tag k="addr:street" v="Forest Hills Drive"/><tag k="addr:housenumber" v="6306"/><tag k="addr:postcode" v="78746"/></node><node id="-50" lat="30.293021" lon="-97.830221" changeset="false"><tag k="addr:street" v="Castle Ridge Road"/><tag k="addr:housenumber" v="719"/><tag k="addr:postcode" v="78746"/></node><node id="-51" lat="30.293155" lon="-97.830182" changeset="false"><tag k="addr:street" v="Castle Ridge Road"/><tag k="addr:housenumber" v="717"/><tag k="addr:postcode" v="78746"/></node><node id="-52" lat="30.295075" lon="-97.834871" changeset="false"><tag k="addr:street" v="Forest Hills Drive"/><tag k="addr:housenumber" v="6408"/><tag k="addr:postcode" v="78746"/></node><node id="-53" lat="30.295013" lon="-97.834886" changeset="false"><tag k="addr:street" v="Forest Hills Drive"/><tag k="addr:housenumber" v="6408 1/2"/><tag k="addr:postcode" v="78746"/></node><node id="-54" lat="30.285271" lon="-97.841403" changeset="false"><tag k="addr:street" v="Tom Kite Circle"/><tag k="addr:housenumber" v="6503"/><tag k="addr:postcode" v="78746"/></node><node id="-55" lat="30.285243" lon="-97.841372" changeset="false"><tag k="addr:street" v="Whitemarsh Valley Walk"/><tag k="addr:housenumber" v="6516"/><tag k="addr:postcode" v="78746"/></node></osm>