<?xml version="1.0" encoding="UTF-8"?><osm version="0.6" generator="github.com/aaronlidman/osm-and-geojson"><node id="-1" lat="30.209424" lon="-97.851743" changeset="false"><tag k="addr:street" v="Saloma Place"/><tag k="addr:housenumber" v="4607"/><tag k="coa:place_id" v="415210"/></node><node id="-2" lat="30.20329" lon="-97.846875" changeset="false"><tag k="addr:street" v="Horton Trail"/><tag k="addr:housenumber" v="8407"/><tag k="coa:place_id" v="303736"/></node><node id="-3" lat="30.207289" lon="-97.846449" changeset="false"><tag k="addr:street" v="Eskew Drive"/><tag k="addr:housenumber" v="4113"/><tag k="coa:place_id" v="542403"/></node><node id="-4" lat="30.2032" lon="-97.845398" changeset="false"><tag k="addr:street" v="Treehouse Lane"/><tag k="addr:housenumber" v="8400"/><tag k="coa:place_id" v="68999"/></node><node id="-5" lat="30.208153" lon="-97.854424" changeset="false"><tag k="addr:street" v="Molera Drive"/><tag k="addr:housenumber" v="4703"/><tag k="coa:place_id" v="428320"/></node><node id="-6" lat="30.212301" lon="-97.851886" changeset="false"><tag k="addr:street" v="Copperas Drive"/><tag k="addr:housenumber" v="7810"/><tag k="coa:place_id" v="537298"/></node><node id="-7" lat="30.208801" lon="-97.852999" changeset="false"><tag k="addr:street" v="Velasco Place"/><tag k="addr:housenumber" v="4608"/><tag k="coa:place_id" v="421054"/></node><node id="-8" lat="30.203768" lon="-97.845109" changeset="false"><tag k="addr:street" v="Kaylynn Place"/><tag k="addr:housenumber" v="4001"/><tag k="coa:place_id" v="69052"/></node><node id="-9" lat="30.2078" lon="-97.854432" changeset="false"><tag k="addr:street" v="Caymen Place"/><tag k="addr:housenumber" v="4612"/><tag k="coa:place_id" v="430060"/></node><node id="-10" lat="30.206416" lon="-97.850652" changeset="false"><tag k="addr:street" v="Copano Drive"/><tag k="addr:housenumber" v="8401"/><tag k="coa:place_id" v="68625"/></node><node id="-11" lat="30.204543" lon="-97.847824" changeset="false"><tag k="addr:street" v="Los Ranchos Drive"/><tag k="addr:housenumber" v="8312"/><tag k="coa:place_id" v="595816"/></node><node id="-12" lat="30.208881" lon="-97.853153" changeset="false"><tag k="addr:street" v="Velasco Place"/><tag k="addr:housenumber" v="4610"/><tag k="coa:place_id" v="421060"/></node><node id="-13" lat="30.207413" lon="-97.85483" changeset="false"><tag k="addr:street" v="Caymen Place"/><tag k="addr:housenumber" v="4611"/><tag k="coa:place_id" v="428182"/></node><node id="-14" lat="30.204906" lon="-97.841718" changeset="false"><tag k="addr:street" v="Eskew Drive"/><tag k="addr:housenumber" v="3809"/><tag k="coa:place_id" v="172251"/></node><node id="-15" lat="30.209693" lon="-97.851168" changeset="false"><tag k="addr:street" v="Tiffany Drive"/><tag k="addr:housenumber" v="8010"/><tag k="coa:place_id" v="66654"/></node><node id="-16" lat="30.2052" lon="-97.847222" changeset="false"><tag k="addr:street" v="Los Ranchos Drive"/><tag k="addr:housenumber" v="8302"/><tag k="coa:place_id" v="589192"/></node><node id="-17" lat="30.208089" lon="-97.85098" changeset="false"><tag k="addr:street" v="Kalama Drive"/><tag k="addr:housenumber" v="4504"/><tag k="coa:place_id" v="68590"/></node><node id="-18" lat="30.206921" lon="-97.850306" changeset="false"><tag k="addr:street" v="Copano Drive"/><tag k="addr:housenumber" v="8303"/><tag k="coa:place_id" v="68622"/></node><node id="-19" lat="30.204899" lon="-97.847014" changeset="false"><tag k="addr:street" v="Los Ranchos Drive"/><tag k="addr:housenumber" v="8301"/><tag k="coa:place_id" v="287806"/></node><node id="-20" lat="30.210013" lon="-97.8529" changeset="false"><tag k="addr:street" v="Saloma Place"/><tag k="addr:housenumber" v="4703"/><tag k="coa:place_id" v="415156"/></node><node id="-21" lat="30.20526" lon="-97.847045" changeset="false"><tag k="addr:street" v="Los Ranchos Drive"/><tag k="addr:housenumber" v="8300"/><tag k="coa:place_id" v="597202"/></node><node id="-22" lat="30.202958" lon="-97.843378" changeset="false"><tag k="addr:street" v="Arrow Drive"/><tag k="addr:housenumber" v="3811"/><tag k="coa:place_id" v="537921"/></node><node id="-23" lat="30.203554" lon="-97.841557" changeset="false"><tag k="addr:street" v="Croftwood Drive"/><tag k="addr:housenumber" v="8106"/><tag k="coa:place_id" v="1141599"/></node><node id="-24" lat="30.206552" lon="-97.850551" changeset="false"><tag k="addr:street" v="Copano Drive"/><tag k="addr:housenumber" v="8307"/><tag k="coa:place_id" v="68624"/></node><node id="-25" lat="30.204057" lon="-97.848129" changeset="false"><tag k="addr:street" v="Los Ranchos Drive"/><tag k="addr:housenumber" v="8408"/><tag k="coa:place_id" v="598234"/></node><node id="-26" lat="30.208615" lon="-97.848475" changeset="false"><tag k="addr:street" v="Manzanillo Drive"/><tag k="addr:housenumber" v="4314"/><tag k="coa:place_id" v="215050"/></node><node id="-27" lat="30.208553" lon="-97.849632" changeset="false"><tag k="addr:street" v="Manzanillo Drive"/><tag k="addr:housenumber" v="4403"/><tag k="coa:place_id" v="224170"/></node><node id="-28" lat="30.207866" lon="-97.850828" changeset="false"><tag k="addr:street" v="Kalama Drive"/><tag k="addr:housenumber" v="4500"/><tag k="coa:place_id" v="68588"/></node><node id="-29" lat="30.208963" lon="-97.850956" changeset="false"><tag k="addr:street" v="Tiffany Drive"/><tag k="addr:housenumber" v="8106"/><tag k="coa:place_id" v="415942"/></node><node id="-30" lat="30.205375" lon="-97.845912" changeset="false"><tag k="addr:street" v="Los Ranchos Drive"/><tag k="addr:housenumber" v="8207"/><tag k="coa:place_id" v="880851"/></node><node id="-31" lat="30.208182" lon="-97.851667" changeset="false"><tag k="addr:street" v="Kalama Drive"/><tag k="addr:housenumber" v="4511"/><tag k="coa:place_id" v="418960"/></node><node id="-32" lat="30.210712" lon="-97.851491" changeset="false"><tag k="addr:street" v="Tobago Cove"/><tag k="addr:housenumber" v="4610"/><tag k="coa:place_id" v="62219"/></node><node id="-33" lat="30.204665" lon="-97.84774" changeset="false"><tag k="addr:street" v="Los Ranchos Drive"/><tag k="addr:housenumber" v="8400"/><tag k="coa:place_id" v="598252"/></node><node id="-34" lat="30.209803" lon="-97.853691" changeset="false"><tag k="addr:street" v="San Simeon Drive"/><tag k="addr:housenumber" v="4706"/><tag k="coa:place_id" v="66577"/></node><node id="-35" lat="30.203287" lon="-97.843163" changeset="false"><tag k="addr:street" v="Arrow Drive"/><tag k="addr:housenumber" v="3812"/><tag k="coa:place_id" v="997233"/></node><node id="-36" lat="30.203267" lon="-97.844542" changeset="false"><tag k="addr:street" v="Treehouse Lane"/><tag k="addr:housenumber" v="8307"/><tag k="coa:place_id" v="537687"/></node><node id="-37" lat="30.206709" lon="-97.850447" changeset="false"><tag k="addr:street" v="Copano Drive"/><tag k="addr:housenumber" v="8305"/><tag k="coa:place_id" v="68623"/></node><node id="-38" lat="30.207644" lon="-97.854337" changeset="false"><tag k="addr:street" v="Caymen Place"/><tag k="addr:housenumber" v="4610"/><tag k="coa:place_id" v="430066"/></node><node id="-39" lat="30.206302" lon="-97.850722" changeset="false"><tag k="addr:street" v="Copano Drive"/><tag k="addr:housenumber" v="8403"/><tag k="coa:place_id" v="68626"/></node><node id="-40" lat="30.204848" lon="-97.848783" changeset="false"><tag k="addr:street" v="Washita Drive"/><tag k="addr:housenumber" v="8402"/><tag k="coa:place_id" v="883101"/></node><node id="-41" lat="30.204739" lon="-97.848855" changeset="false"><tag k="addr:street" v="Washita Drive"/><tag k="addr:housenumber" v="8404"/><tag k="coa:place_id" v="883125"/></node><node id="-42" lat="30.202588" lon="-97.838232" changeset="false"><tag k="addr:street" v="Brodie Lane"/><tag k="addr:housenumber" v="8014"/><tag k="coa:place_id" v="1141548"/></node><node id="-43" lat="30.202141" lon="-97.838708" changeset="false"><tag k="addr:street" v="Brodie Lane"/><tag k="addr:housenumber" v="8106"/><tag k="coa:place_id" v="264184"/></node><node id="-44" lat="30.20376" lon="-97.845005" changeset="false"><tag k="addr:street" v="Treehouse Lane"/><tag k="addr:housenumber" v="8300"/><tag k="coa:place_id" v="428032"/></node><node id="-45" lat="30.203819" lon="-97.845038" changeset="false"><tag k="addr:street" v="Lillian Lane"/><tag k="addr:housenumber" v="4003"/><tag k="coa:place_id" v="1141598"/></node><node id="-46" lat="30.203647" lon="-97.845159" changeset="false"><tag k="addr:street" v="Kaylynn Place"/><tag k="addr:housenumber" v="4003"/><tag k="coa:place_id" v="69053"/></node><node id="-47" lat="30.203575" lon="-97.845104" changeset="false"><tag k="addr:street" v="Treehouse Lane"/><tag k="addr:housenumber" v="8302"/><tag k="coa:place_id" v="996759"/></node></osm>