<?xml version="1.0" encoding="UTF-8"?><osm version="0.6" generator="github.com/aaronlidman/osm-and-geojson"><node id="-1" lat="30.489092" lon="-97.560386" changeset="false"><tag k="addr:street" v="Jan Drive"/><tag k="addr:housenumber" v="2901"/></node><node id="-2" lat="30.491285" lon="-97.577875" changeset="false"><tag k="addr:street" v="Jumpers Delight Lane"/><tag k="addr:housenumber" v="20802"/></node><node id="-3" lat="30.482459" lon="-97.564431" changeset="false"><tag k="addr:street" v="Rowe Lane"/><tag k="addr:housenumber" v="2914"/></node><node id="-4" lat="30.486035" lon="-97.563776" changeset="false"><tag k="addr:street" v="Texas Meadows Drive"/><tag k="addr:housenumber" v="20914"/></node><node id="-5" lat="30.486311" lon="-97.564171" changeset="false"><tag k="addr:street" v="Apache Plum Lane"/><tag k="addr:housenumber" v="20901"/></node><node id="-6" lat="30.49705" lon="-97.577478" changeset="false"><tag k="addr:street" v="Harness Race Way"/><tag k="addr:housenumber" v="1604"/></node><node id="-7" lat="30.483456" lon="-97.565904" changeset="false"><tag k="addr:street" v="Texas Meadows Drive"/><tag k="addr:housenumber" v="20707"/></node><node id="-8" lat="30.488712" lon="-97.573667" changeset="false"><tag k="addr:street" v="Huckabee Bend"/><tag k="addr:housenumber" v="21008"/></node><node id="-9" lat="30.489018" lon="-97.57361" changeset="false"><tag k="addr:street" v="Huckabee Bend"/><tag k="addr:housenumber" v="21016"/></node><node id="-10" lat="30.489489" lon="-97.573549" changeset="false"><tag k="addr:street" v="Huckabee Bend"/><tag k="addr:housenumber" v="21108"/></node><node id="-11" lat="30.489639" lon="-97.573502" changeset="false"><tag k="addr:street" v="Huckabee Bend"/><tag k="addr:housenumber" v="21112"/></node><node id="-12" lat="30.487697" lon="-97.573844" changeset="false"><tag k="addr:street" v="Huckabee Bend"/><tag k="addr:housenumber" v="20900"/></node><node id="-13" lat="30.486971" lon="-97.572623" changeset="false"><tag k="addr:street" v="Lynx Court"/><tag k="addr:housenumber" v="2409"/></node><node id="-14" lat="30.487131" lon="-97.571555" changeset="false"><tag k="addr:street" v="Mead Bend"/><tag k="addr:housenumber" v="20817"/></node><node id="-15" lat="30.496594" lon="-97.577401" changeset="false"><tag k="addr:street" v="Harness Race Way"/><tag k="addr:housenumber" v="1613"/></node><node id="-16" lat="30.496562" lon="-97.576626" changeset="false"><tag k="addr:street" v="Harness Race Way"/><tag k="addr:housenumber" v="1620"/></node><node id="-17" lat="30.488859" lon="-97.569293" changeset="false"><tag k="addr:street" v="Havant Way"/><tag k="addr:housenumber" v="21016"/></node><node id="-18" lat="30.482558" lon="-97.55379" changeset="false"><tag k="addr:street" v="Jakes Hill Road; County Road 137"/><tag k="addr:housenumber" v="21010"/></node><node id="-19" lat="30.484324" lon="-97.576118" changeset="false"><tag k="addr:street" v="Rowe Loop"/><tag k="addr:housenumber" v="2156"/></node><node id="-20" lat="30.498581" lon="-97.575027" changeset="false"><tag k="addr:street" v="Derby Day Avenue"/><tag k="addr:housenumber" v="21316"/></node><node id="-21" lat="30.499062" lon="-97.580394" changeset="false"><tag k="addr:street" v="TX 130 Frontage Road"/><tag k="addr:housenumber" v="21315"/></node><node id="-22" lat="30.495387" lon="-97.575806" changeset="false"><tag k="addr:street" v="Derby Day Avenue"/><tag k="addr:housenumber" v="21106"/></node><node id="-23" lat="30.492944" lon="-97.576201" changeset="false"><tag k="addr:street" v="Derby Day Avenue"/><tag k="addr:housenumber" v="20825"/></node><node id="-24" lat="30.488966" lon="-97.576595" changeset="false"><tag k="addr:street" v="Rowe Loop"/><tag k="addr:housenumber" v="1931"/></node><node id="-25" lat="30.498251" lon="-97.574519" changeset="false"><tag k="addr:street" v="Derby Day Avenue"/><tag k="addr:housenumber" v="21313"/></node><node id="-26" lat="30.486398" lon="-97.564813" changeset="false"><tag k="addr:street" v="Apache Plum Lane"/><tag k="addr:housenumber" v="20900"/></node><node id="-27" lat="30.484274" lon="-97.574005" changeset="false"><tag k="addr:street" v="Huckabee Bend"/><tag k="addr:housenumber" v="20513"/></node><node id="-28" lat="30.48413" lon="-97.57443" changeset="false"><tag k="addr:street" v="Huckabee Bend"/><tag k="addr:housenumber" v="20508"/></node><node id="-29" lat="30.48785" lon="-97.573836" changeset="false"><tag k="addr:street" v="Huckabee Bend"/><tag k="addr:housenumber" v="20904"/></node><node id="-30" lat="30.488356" lon="-97.573295" changeset="false"><tag k="addr:street" v="Stonepath Way"/><tag k="addr:housenumber" v="2300"/></node><node id="-31" lat="30.488344" lon="-97.573087" changeset="false"><tag k="addr:street" v="Stonepath Way"/><tag k="addr:housenumber" v="2304"/></node><node id="-32" lat="30.487411" lon="-97.572396" changeset="false"><tag k="addr:street" v="Lynx Court"/><tag k="addr:housenumber" v="2412"/></node><node id="-33" lat="30.496799" lon="-97.577065" changeset="false"><tag k="addr:street" v="Harness Race Way"/><tag k="addr:housenumber" v="1612"/></node><node id="-34" lat="30.496465" lon="-97.5772" changeset="false"><tag k="addr:street" v="Harness Race Way"/><tag k="addr:housenumber" v="1617"/></node><node id="-35" lat="30.496932" lon="-97.577289" changeset="false"><tag k="addr:street" v="Harness Race Way"/><tag k="addr:housenumber" v="1608"/></node><node id="-36" lat="30.488031" lon="-97.565336" changeset="false"><tag k="addr:street" v="Sleepy Daisy Cove"/><tag k="addr:housenumber" v="20915"/></node><node id="-37" lat="30.495381" lon="-97.576776" changeset="false"><tag k="addr:street" v="Royal Ascot Drive"/><tag k="addr:housenumber" v="1622"/></node><node id="-38" lat="30.492911" lon="-97.581454" changeset="false"><tag k="addr:street" v="Steeds Crossing"/><tag k="addr:housenumber" v="1506"/></node><node id="-39" lat="30.49287" lon="-97.575055" changeset="false"><tag k="addr:street" v="Gelding Lane"/><tag k="addr:housenumber" v="20914"/></node><node id="-40" lat="30.499406" lon="-97.575144" changeset="false"><tag k="addr:street" v="Saint Leger Street"/><tag k="addr:housenumber" v="1613"/></node><node id="-41" lat="30.48565" lon="-97.559528" changeset="false"><tag k="addr:street" v="Martin Lane"/><tag k="addr:housenumber" v="21016"/></node><node id="-42" lat="30.483485" lon="-97.563104" changeset="false"><tag k="addr:street" v="Penny Royal Drive"/><tag k="addr:housenumber" v="20801"/></node><node id="-43" lat="30.483501" lon="-97.572857" changeset="false"><tag k="addr:street" v="Rowe Lane"/><tag k="addr:housenumber" v="2404"/></node><node id="-44" lat="30.498467" lon="-97.575041" changeset="false"><tag k="addr:street" v="Derby Day Avenue"/><tag k="addr:housenumber" v="21314"/></node><node id="-45" lat="30.489671" lon="-97.558503" changeset="false"><tag k="addr:street" v="Jan Drive"/><tag k="addr:housenumber" v="2926"/></node><node id="-46" lat="30.496819" lon="-97.577836" changeset="false"><tag k="addr:street" v="Harness Race Way"/><tag k="addr:housenumber" v="1605"/></node><node id="-47" lat="30.488688" lon="-97.568729" changeset="false"><tag k="addr:street" v="Havant Way"/><tag k="addr:housenumber" v="21013"/></node><node id="-48" lat="30.488923" lon="-97.568783" changeset="false"><tag k="addr:street" v="Havant Way"/><tag k="addr:housenumber" v="21017"/></node><node id="-49" lat="30.486667" lon="-97.564095" changeset="false"><tag k="addr:street" v="Apache Plum Lane"/><tag k="addr:housenumber" v="20905"/></node><node id="-50" lat="30.488642" lon="-97.573171" changeset="false"><tag k="addr:street" v="Huckabee Bend"/><tag k="addr:housenumber" v="21009"/></node><node id="-51" lat="30.4894" lon="-97.573028" changeset="false"><tag k="addr:street" v="Huckabee Bend"/><tag k="addr:housenumber" v="21109"/></node><node id="-52" lat="30.489546" lon="-97.573007" changeset="false"><tag k="addr:street" v="Huckabee Bend"/><tag k="addr:housenumber" v="21113"/></node><node id="-53" lat="30.486963" lon="-97.573489" changeset="false"><tag k="addr:street" v="Huckabee Bend"/><tag k="addr:housenumber" v="20813"/></node><node id="-54" lat="30.488284" lon="-97.573746" changeset="false"><tag k="addr:street" v="Huckabee Bend"/><tag k="addr:housenumber" v="20916"/></node><node id="-55" lat="30.488214" lon="-97.572143" changeset="false"><tag k="addr:street" v="Stonepath Way"/><tag k="addr:housenumber" v="2408"/></node><node id="-56" lat="30.488004" lon="-97.573344" changeset="false"><tag k="addr:street" v="Stonepath Way"/><tag k="addr:housenumber" v="2301"/></node><node id="-57" lat="30.487894" lon="-97.572638" changeset="false"><tag k="addr:street" v="Stonepath Way"/><tag k="addr:housenumber" v="2317"/></node><node id="-58" lat="30.487877" lon="-97.57248" changeset="false"><tag k="addr:street" v="Stonepath Way"/><tag k="addr:housenumber" v="2401"/></node><node id="-59" lat="30.48738" lon="-97.572986" changeset="false"><tag k="addr:street" v="Lynx Court"/><tag k="addr:housenumber" v="2400"/></node><node id="-60" lat="30.487889" lon="-97.57173" changeset="false"><tag k="addr:street" v="Mead Bend"/><tag k="addr:housenumber" v="20913"/></node><node id="-61" lat="30.488734" lon="-97.556906" changeset="false"><tag k="addr:street" v="Jan Drive"/><tag k="addr:housenumber" v="3017"/></node><node id="-62" lat="30.488338" lon="-97.556773" changeset="false"><tag k="addr:street" v="Martin Lane"/><tag k="addr:housenumber" v="21306"/></node><node id="-63" lat="30.48372" lon="-97.573542" changeset="false"><tag k="addr:street" v="Rowe Lane"/><tag k="addr:housenumber" v="2300"/></node><node id="-64" lat="30.485734" lon="-97.562013" changeset="false"><tag k="addr:street" v="Silverbell Lane"/><tag k="addr:housenumber" v="20837"/></node><node id="-65" lat="30.484671" lon="-97.57753" changeset="false"><tag k="addr:street" v="Rowe Loop"/><tag k="addr:housenumber" v="2141"/></node><node id="-66" lat="30.49828" lon="-97.573583" changeset="false"><tag k="addr:street" v="Grand National Avenue"/><tag k="addr:housenumber" v="21319"/></node><node id="-67" lat="30.483775" lon="-97.574515" changeset="false"><tag k="addr:street" v="Huckabee Bend"/><tag k="addr:housenumber" v="20500"/></node><node id="-68" lat="30.497187" lon="-97.577706" changeset="false"><tag k="addr:street" v="Harness Race Way"/><tag k="addr:housenumber" v="1600"/></node><node id="-69" lat="30.496858" lon="-97.577173" changeset="false"><tag k="addr:street" v="Harness Race Way"/><tag k="addr:housenumber" v="1610"/></node><node id="-70" lat="30.487974" lon="-97.569082" changeset="false"><tag k="addr:street" v="Havant Way"/><tag k="addr:housenumber" v="20920"/></node><node id="-71" lat="30.482605" lon="-97.564508" changeset="false"><tag k="addr:street" v="Rowe Lane"/><tag k="addr:housenumber" v="2912"/></node><node id="-72" lat="30.491848" lon="-97.57481" changeset="false"><tag k="addr:street" v="Gelding Lane"/><tag k="addr:housenumber" v="20901"/></node><node id="-73" lat="30.496461" lon="-97.57631" changeset="false"><tag k="addr:street" v="Harness Race Way"/><tag k="addr:housenumber" v="1624"/></node><node id="-74" lat="30.488911" lon="-97.573105" changeset="false"><tag k="addr:street" v="Huckabee Bend"/><tag k="addr:housenumber" v="21017"/></node><node id="-75" lat="30.489062" lon="-97.573074" changeset="false"><tag k="addr:street" v="Huckabee Bend"/><tag k="addr:housenumber" v="21101"/></node><node id="-76" lat="30.487709" lon="-97.573327" changeset="false"><tag k="addr:street" v="Huckabee Bend"/><tag k="addr:housenumber" v="20905"/></node><node id="-77" lat="30.48785" lon="-97.572316" changeset="false"><tag k="addr:street" v="Stonepath Way"/><tag k="addr:housenumber" v="2405"/></node><node id="-78" lat="30.487288" lon="-97.571599" changeset="false"><tag k="addr:street" v="Mead Bend"/><tag k="addr:housenumber" v="20821"/></node><node id="-79" lat="30.488098" lon="-97.563889" changeset="false"><tag k="addr:street" v="Apache Plum Lane"/><tag k="addr:housenumber" v="21009"/></node><node id="-80" lat="30.481688" lon="-97.553998" changeset="false"><tag k="addr:street" v="Jakes Hill Road; County Road 137"/><tag k="addr:housenumber" v="20900"/></node><node id="-81" lat="30.493893" lon="-97.574671" changeset="false"><tag k="addr:street" v="Shire Street"/><tag k="addr:housenumber" v="1722"/></node><node id="-82" lat="30.489718" lon="-97.557506" changeset="false"><tag k="addr:street" v="Jan Drive"/><tag k="addr:housenumber" v="3014"/></node><node id="-83" lat="30.498316" lon="-97.574122" changeset="false"><tag k="addr:street" v="Grand National Avenue"/><tag k="addr:housenumber" v="21316"/></node><node id="-84" lat="30.484863" lon="-97.574269" changeset="false"><tag k="addr:street" v="Huckabee Bend"/><tag k="addr:housenumber" v="20528"/></node><node id="-85" lat="30.496937" lon="-97.578056" changeset="false"><tag k="addr:street" v="Harness Race Way"/><tag k="addr:housenumber" v="1601"/></node><node id="-86" lat="30.496874" lon="-97.577948" changeset="false"><tag k="addr:street" v="Harness Race Way"/><tag k="addr:housenumber" v="1603"/></node><node id="-87" lat="30.485561" lon="-97.565467" changeset="false"><tag k="addr:street" v="Texas Meadows Drive"/><tag k="addr:housenumber" v="20805"/></node><node id="-88" lat="30.496503" lon="-97.576501" changeset="false"><tag k="addr:street" v="Harness Race Way"/><tag k="addr:housenumber" v="1622"/></node><node id="-89" lat="30.488761" lon="-97.573146" changeset="false"><tag k="addr:street" v="Huckabee Bend"/><tag k="addr:housenumber" v="21013"/></node><node id="-90" lat="30.487074" lon="-97.573944" changeset="false"><tag k="addr:street" v="Huckabee Bend"/><tag k="addr:housenumber" v="20812"/></node><node id="-91" lat="30.488139" lon="-97.573773" changeset="false"><tag k="addr:street" v="Huckabee Bend"/><tag k="addr:housenumber" v="20912"/></node><node id="-92" lat="30.488309" lon="-97.572906" changeset="false"><tag k="addr:street" v="Stonepath Way"/><tag k="addr:housenumber" v="2308"/></node><node id="-93" lat="30.488235" lon="-97.572387" changeset="false"><tag k="addr:street" v="Stonepath Way"/><tag k="addr:housenumber" v="2400"/></node><node id="-94" lat="30.487825" lon="-97.572136" changeset="false"><tag k="addr:street" v="Stonepath Way"/><tag k="addr:housenumber" v="2409"/></node><node id="-95" lat="30.486999" lon="-97.571489" changeset="false"><tag k="addr:street" v="Mead Bend"/><tag k="addr:housenumber" v="20813"/></node><node id="-96" lat="30.487003" lon="-97.553068" changeset="false"><tag k="addr:street" v="Jakes Hill Road; County Road 137"/><tag k="addr:housenumber" v="21322"/></node><node id="-97" lat="30.498375" lon="-97.574498" changeset="false"><tag k="addr:street" v="Derby Day Avenue"/><tag k="addr:housenumber" v="21315"/></node><node id="-98" lat="30.495159" lon="-97.575339" changeset="false"><tag k="addr:street" v="Derby Day Avenue"/><tag k="addr:housenumber" v="21105"/></node><node id="-99" lat="30.49525" lon="-97.568383" changeset="false"><tag k="addr:street" v="Greenridge Drive"/><tag k="addr:housenumber" v="21311"/></node><node id="-100" lat="30.492161" lon="-97.581554" changeset="false"><tag k="addr:street" v="Steeds Crossing"/><tag k="addr:housenumber" v="1507"/></node><node id="-101" lat="30.482407" lon="-97.564077" changeset="false"><tag k="addr:street" v="Rowe Lane"/><tag k="addr:housenumber" v="2916"/></node><node id="-102" lat="30.487216" lon="-97.573935" changeset="false"><tag k="addr:street" v="Huckabee Bend"/><tag k="addr:housenumber" v="20816"/></node><node id="-103" lat="30.487368" lon="-97.573904" changeset="false"><tag k="addr:street" v="Huckabee Bend"/><tag k="addr:housenumber" v="20820"/></node><node id="-104" lat="30.487417" lon="-97.573422" changeset="false"><tag k="addr:street" v="Huckabee Bend"/><tag k="addr:housenumber" v="20825"/></node><node id="-105" lat="30.487924" lon="-97.572821" changeset="false"><tag k="addr:street" v="Stonepath Way"/><tag k="addr:housenumber" v="2313"/></node><node id="-106" lat="30.486996" lon="-97.572846" changeset="false"><tag k="addr:street" v="Lynx Court"/><tag k="addr:housenumber" v="2405"/></node><node id="-107" lat="30.485743" lon="-97.564326" changeset="false"><tag k="addr:street" v="Apache Plum Lane"/><tag k="addr:housenumber" v="20807"/></node><node id="-108" lat="30.500145" lon="-97.57666" changeset="false"><tag k="addr:street" v="Saint Leger Street"/><tag k="addr:housenumber" v="1520"/></node><node id="-109" lat="30.484665" lon="-97.564887" changeset="false"><tag k="addr:street" v="Apache Plum Lane"/><tag k="addr:housenumber" v="20800"/></node><node id="-110" lat="30.488863" lon="-97.573625" changeset="false"><tag k="addr:street" v="Huckabee Bend"/><tag k="addr:housenumber" v="21012"/></node><node id="-111" lat="30.489178" lon="-97.57359" changeset="false"><tag k="addr:street" v="Huckabee Bend"/><tag k="addr:housenumber" v="21100"/></node><node id="-112" lat="30.48726" lon="-97.573435" changeset="false"><tag k="addr:street" v="Huckabee Bend"/><tag k="addr:housenumber" v="20821"/></node><node id="-113" lat="30.48799" lon="-97.5738" changeset="false"><tag k="addr:street" v="Huckabee Bend"/><tag k="addr:housenumber" v="20908"/></node><node id="-114" lat="30.487557" lon="-97.573354" changeset="false"><tag k="addr:street" v="Huckabee Bend"/><tag k="addr:housenumber" v="20901"/></node><node id="-115" lat="30.487386" lon="-97.572217" changeset="false"><tag k="addr:street" v="Lynx Court"/><tag k="addr:housenumber" v="2416"/></node><node id="-116" lat="30.496535" lon="-97.577298" changeset="false"><tag k="addr:street" v="Harness Race Way"/><tag k="addr:housenumber" v="1615"/></node><node id="-117" lat="30.496625" lon="-97.576747" changeset="false"><tag k="addr:street" v="Harness Race Way"/><tag k="addr:housenumber" v="1618"/></node><node id="-118" lat="30.488008" lon="-97.568512" changeset="false"><tag k="addr:street" v="Havant Way"/><tag k="addr:housenumber" v="20917"/></node><node id="-119" lat="30.488316" lon="-97.569168" changeset="false"><tag k="addr:street" v="Havant Way"/><tag k="addr:housenumber" v="21004"/></node><node id="-120" lat="30.488524" lon="-97.573699" changeset="false"><tag k="addr:street" v="Huckabee Bend"/><tag k="addr:housenumber" v="21004"/></node><node id="-121" lat="30.489329" lon="-97.573569" changeset="false"><tag k="addr:street" v="Huckabee Bend"/><tag k="addr:housenumber" v="21104"/></node><node id="-122" lat="30.489213" lon="-97.57307" changeset="false"><tag k="addr:street" v="Huckabee Bend"/><tag k="addr:housenumber" v="21105"/></node><node id="-123" lat="30.482828" lon="-97.566075" changeset="false"><tag k="addr:street" v="Texas Meadows Drive"/><tag k="addr:housenumber" v="20701"/></node><node id="-124" lat="30.487108" lon="-97.573471" changeset="false"><tag k="addr:street" v="Huckabee Bend"/><tag k="addr:housenumber" v="20817"/></node><node id="-125" lat="30.487384" lon="-97.572036" changeset="false"><tag k="addr:street" v="Lynx Court"/><tag k="addr:housenumber" v="2420"/></node><node id="-126" lat="30.486966" lon="-97.572429" changeset="false"><tag k="addr:street" v="Lynx Court"/><tag k="addr:housenumber" v="2413"/></node><node id="-127" lat="30.496744" lon="-97.576962" changeset="false"><tag k="addr:street" v="Harness Race Way"/><tag k="addr:housenumber" v="1614"/></node><node id="-128" lat="30.496983" lon="-97.577379" changeset="false"><tag k="addr:street" v="Harness Race Way"/><tag k="addr:housenumber" v="1606"/></node><node id="-129" lat="30.489154" lon="-97.568776" changeset="false"><tag k="addr:street" v="Havant Way"/><tag k="addr:housenumber" v="21021"/></node><node id="-130" lat="30.486454" lon="-97.57156" changeset="false"><tag k="addr:street" v="Gavin Trail"/><tag k="addr:housenumber" v="2416 1/2"/></node><node id="-131" lat="30.491637" lon="-97.57289" changeset="false"><tag k="addr:street" v="Steeds Crossing"/><tag k="addr:housenumber" v="2008"/></node><node id="-132" lat="30.48506" lon="-97.580841" changeset="false"><tag k="addr:street" v="Rowe Loop"/><tag k="addr:housenumber" v="1700"/></node><node id="-133" lat="30.498069" lon="-97.573634" changeset="false"><tag k="addr:street" v="Grand National Avenue"/><tag k="addr:housenumber" v="21315"/></node><node id="-134" lat="30.484671" lon="-97.579734" changeset="false"><tag k="addr:street" v="Rowe Loop"/><tag k="addr:housenumber" v="1701"/></node><node id="-135" lat="30.499246" lon="-97.575729" changeset="false"><tag k="addr:street" v="Byerly Turk Drive"/><tag k="addr:housenumber" v="21321"/></node><node id="-136" lat="30.484876" lon="-97.583186" changeset="false"><tag k="addr:street" v="Rowe Lane"/><tag k="addr:housenumber" v="1704"/></node><node id="-137" lat="30.482445" lon="-97.560683" changeset="false"><tag k="addr:street" v="Martin Lane"/><tag k="addr:housenumber" v="20800"/></node><node id="-138" lat="30.492285" lon="-97.575771" changeset="false"><tag k="addr:street" v="Winners Ribbon Circle"/><tag k="addr:housenumber" v="1707"/></node><node id="-139" lat="30.484778" lon="-97.582486" changeset="false"><tag k="addr:street" v="Rowe Lane"/><tag k="addr:housenumber" v="1714"/></node><node id="-140" lat="30.491497" lon="-97.579497" changeset="false"><tag k="addr:street" v="Racers Ford Lane"/><tag k="addr:housenumber" v="20802"/></node><node id="-141" lat="30.489125" lon="-97.563628" changeset="false"><tag k="addr:street" v="Apache Plum Lane"/><tag k="addr:housenumber" v="21105"/></node><node id="-142" lat="30.488393" lon="-97.561756" changeset="false"><tag k="addr:street" v="Penny Royal Drive"/><tag k="addr:housenumber" v="21113"/></node><node id="-143" lat="30.491401" lon="-97.578696" changeset="false"><tag k="addr:street" v="Pacers Gait Lane"/><tag k="addr:housenumber" v="20802"/></node></osm>