<?xml version="1.0" encoding="UTF-8"?><osm version="0.6" generator="github.com/aaronlidman/osm-and-geojson"><node id="-1" lat="30.3549" lon="-97.732094" changeset="false"><tag k="addr:street" v="Burnet Road"/><tag k="addr:housenumber" v="7800"/><tag k="coa:place_id" v="272180"/></node><node id="-2" lat="30.35598" lon="-97.736378" changeset="false"><tag k="addr:street" v="Northcross Drive"/><tag k="addr:housenumber" v="7739"/><tag k="coa:place_id" v="205840"/></node><node id="-3" lat="30.352491" lon="-97.739491" changeset="false"><tag k="addr:street" v="Greenhaven Drive"/><tag k="addr:housenumber" v="7403"/><tag k="coa:place_id" v="803547"/></node><node id="-4" lat="30.352765" lon="-97.733865" changeset="false"><tag k="addr:street" v="Northcross Drive"/><tag k="addr:housenumber" v="7613"/><tag k="coa:place_id" v="209144"/></node><node id="-5" lat="30.355573" lon="-97.731757" changeset="false"><tag k="addr:street" v="Burnet Road"/><tag k="addr:housenumber" v="7820"/><tag k="coa:place_id" v="91743"/></node><node id="-6" lat="30.348812" lon="-97.735952" changeset="false"><tag k="addr:street" v="Greenlawn Parkway"/><tag k="addr:housenumber" v="2410"/><tag k="coa:place_id" v="209150"/></node><node id="-7" lat="30.356051" lon="-97.736942" changeset="false"><tag k="addr:street" v="Northcross Drive"/><tag k="addr:housenumber" v="7744"/><tag k="coa:place_id" v="152817"/></node><node id="-8" lat="30.353337" lon="-97.737108" changeset="false"><tag k="addr:street" v="Silvercrest Drive"/><tag k="addr:housenumber" v="7509"/><tag k="coa:place_id" v="3292389"/></node><node id="-9" lat="30.356509" lon="-97.736864" changeset="false"><tag k="addr:street" v="Northcross Drive"/><tag k="addr:housenumber" v="7756"/><tag k="coa:place_id" v="284548"/></node><node id="-10" lat="30.355084" lon="-97.73656" changeset="false"><tag k="addr:street" v="Northcross Drive"/><tag k="addr:housenumber" v="7714"/><tag k="coa:place_id" v="172071"/></node><node id="-11" lat="30.352882" lon="-97.733373" changeset="false"><tag k="addr:street" v="Burnet Road"/><tag k="addr:housenumber" v="7610"/><tag k="coa:place_id" v="272204"/></node><node id="-12" lat="30.353116" lon="-97.733712" changeset="false"><tag k="addr:street" v="Burnet Road"/><tag k="addr:housenumber" v="7600"/><tag k="coa:place_id" v="849867"/></node><node id="-13" lat="30.351927" lon="-97.733868" changeset="false"><tag k="addr:street" v="Burnet Road"/><tag k="addr:housenumber" v="7530"/><tag k="coa:place_id" v="272216"/></node><node id="-14" lat="30.352092" lon="-97.733743" changeset="false"><tag k="addr:street" v="Burnet Road"/><tag k="addr:housenumber" v="7532"/><tag k="coa:place_id" v="243337"/></node><node id="-15" lat="30.351704" lon="-97.734055" changeset="false"><tag k="addr:street" v="Burnet Road"/><tag k="addr:housenumber" v="7528"/><tag k="coa:place_id" v="209132"/></node></osm>