<?xml version="1.0" encoding="UTF-8"?><osm version="0.6" generator="github.com/aaronlidman/osm-and-geojson"><node id="-1" lat="30.287405" lon="-97.725264" changeset="false"><tag k="addr:street" v="Cole Street"/><tag k="addr:housenumber" v="2801"/><tag k="coa:place_id" v="220685"/></node><node id="-2" lat="30.28957" lon="-97.72714" changeset="false"><tag k="addr:street" v="Red River Street"/><tag k="addr:housenumber" v="3006"/><tag k="coa:place_id" v="516578"/></node><node id="-3" lat="30.293344" lon="-97.721551" changeset="false"><tag k="addr:street" v="Concordia Avenue"/><tag k="addr:housenumber" v="1004"/><tag k="coa:place_id" v="253468"/></node><node id="-4" lat="30.292788" lon="-97.725179" changeset="false"><tag k="addr:street" v="Red River Street"/><tag k="addr:housenumber" v="3401"/><tag k="coa:place_id" v="249665"/></node><node id="-5" lat="30.288561" lon="-97.732683" changeset="false"><tag k="addr:street" v="East Dean Keeton Street"/><tag k="addr:housenumber" v="701"/><tag k="coa:place_id" v="816939"/></node><node id="-6" lat="30.283977" lon="-97.727397" changeset="false"><tag k="addr:street" v="Red River Street"/><tag k="addr:housenumber" v="2207"/><tag k="coa:place_id" v="593314"/></node><node id="-7" lat="30.287932" lon="-97.729798" changeset="false"><tag k="addr:street" v="Robert Dedman Drive"/><tag k="addr:housenumber" v="2502"/><tag k="coa:place_id" v="199350"/></node><node id="-8" lat="30.289581" lon="-97.731805" changeset="false"><tag k="addr:street" v="East Dean Keeton Street"/><tag k="addr:housenumber" v="712"/><tag k="coa:place_id" v="253269"/></node><node id="-9" lat="30.289319" lon="-97.727043" changeset="false"><tag k="addr:street" v="Red River Street"/><tag k="addr:housenumber" v="3004"/><tag k="coa:place_id" v="516584"/></node><node id="-10" lat="30.28739" lon="-97.726818" changeset="false"><tag k="addr:street" v="Swisher Street"/><tag k="addr:housenumber" v="2700"/><tag k="coa:place_id" v="515738"/></node><node id="-11" lat="30.291049" lon="-97.726799" changeset="false"><tag k="addr:street" v="East 32nd Street"/><tag k="addr:housenumber" v="910"/><tag k="coa:place_id" v="381771"/></node><node id="-12" lat="30.290676" lon="-97.726737" changeset="false"><tag k="addr:street" v="East 32nd Street"/><tag k="addr:housenumber" v="919"/><tag k="coa:place_id" v="171975"/></node><node id="-13" lat="30.293153" lon="-97.724" changeset="false"><tag k="addr:street" v="Luther Lane"/><tag k="addr:housenumber" v="918"/><tag k="coa:place_id" v="551474"/></node><node id="-14" lat="30.292895" lon="-97.721316" changeset="false"><tag k="addr:street" v="Concordia Avenue"/><tag k="addr:housenumber" v="1033"/><tag k="coa:place_id" v="3047037"/></node><node id="-15" lat="30.284292" lon="-97.726897" changeset="false"><tag k="addr:street" v="North Interstate Highway 35 Service Road"/><tag k="addr:housenumber" v="2318"/><tag k="coa:place_id" v="3033321"/></node><node id="-16" lat="30.287796" lon="-97.725289" changeset="false"><tag k="addr:street" v="Cole Street"/><tag k="addr:housenumber" v="2900"/><tag k="coa:place_id" v="163982"/></node><node id="-17" lat="30.279583" lon="-97.731605" changeset="false"><tag k="addr:street" v="Red River Street"/><tag k="addr:housenumber" v="1914"/><tag k="coa:place_id" v="5116008"/></node><node id="-18" lat="30.278962" lon="-97.731208" changeset="false"><tag k="addr:street" v="East Martin Luther King Jr Boulevard"/><tag k="addr:housenumber" v="712 1/2"/><tag k="coa:place_id" v="3310277"/></node><node id="-19" lat="30.284864" lon="-97.73353" changeset="false"><tag k="addr:street" v="San Jacinto Boulevard"/><tag k="addr:housenumber" v="2139"/><tag k="coa:place_id" v="5000807"/></node><node id="-20" lat="30.282416" lon="-97.731765" changeset="false"><tag k="addr:street" v="Robert Dedman Drive"/><tag k="addr:housenumber" v="2012"/><tag k="coa:place_id" v="5000808"/></node><node id="-21" lat="30.283794" lon="-97.731418" changeset="false"><tag k="addr:street" v="Robert Dedman Drive"/><tag k="addr:housenumber" v="2200"/><tag k="coa:place_id" v="5000810"/></node><node id="-22" lat="30.28521" lon="-97.732964" changeset="false"><tag k="addr:street" v="East 23rd Street"/><tag k="addr:housenumber" v="400"/><tag k="coa:place_id" v="3430505"/></node><node id="-23" lat="30.28002" lon="-97.73525" changeset="false"><tag k="addr:street" v="East Martin Luther King Jr Boulevard"/><tag k="addr:housenumber" v="302"/><tag k="coa:place_id" v="515210"/></node><node id="-24" lat="30.280003" lon="-97.731038" changeset="false"><tag k="addr:street" v="Red River Street"/><tag k="addr:housenumber" v="1918"/><tag k="coa:place_id" v="424599"/></node><node id="-25" lat="30.291083" lon="-97.724367" changeset="false"><tag k="addr:street" v="Kim Lane"/><tag k="addr:housenumber" v="3303"/><tag k="coa:place_id" v="550388"/></node><node id="-26" lat="30.283804" lon="-97.727107" changeset="false"><tag k="addr:street" v="North Interstate Highway 35 Service Road"/><tag k="addr:housenumber" v="2310"/><tag k="coa:place_id" v="3033322"/></node><node id="-27" lat="30.29169" lon="-97.727922" changeset="false"><tag k="addr:street" v="East 32nd Street"/><tag k="addr:housenumber" v="812"/><tag k="coa:place_id" v="549836"/></node><node id="-28" lat="30.284757" lon="-97.727296" changeset="false"><tag k="addr:street" v="Red River Street"/><tag k="addr:housenumber" v="2315"/><tag k="coa:place_id" v="110481"/></node><node id="-29" lat="30.293376" lon="-97.72163" changeset="false"><tag k="addr:street" v="Concordia Avenue"/><tag k="addr:housenumber" v="1002"/><tag k="coa:place_id" v="590456"/></node><node id="-30" lat="30.289691" lon="-97.723949" changeset="false"><tag k="addr:street" v="East 32nd Street"/><tag k="addr:housenumber" v="1016"/><tag k="coa:place_id" v="549872"/></node><node id="-31" lat="30.291131" lon="-97.725267" changeset="false"><tag k="addr:street" v="Keith Lane"/><tag k="addr:housenumber" v="923"/><tag k="coa:place_id" v="246708"/></node><node id="-32" lat="30.293088" lon="-97.721015" changeset="false"><tag k="addr:street" v="Concordia Avenue"/><tag k="addr:housenumber" v="1016"/><tag k="coa:place_id" v="590432"/></node><node id="-33" lat="30.294081" lon="-97.722068" changeset="false"><tag k="addr:street" v="East 37th Street"/><tag k="addr:housenumber" v="923"/><tag k="coa:place_id" v="551756"/></node><node id="-34" lat="30.294991" lon="-97.723754" changeset="false"><tag k="addr:street" v="Red River Street"/><tag k="addr:housenumber" v="3707"/><tag k="coa:place_id" v="590270"/></node><node id="-35" lat="30.288944" lon="-97.729527" changeset="false"><tag k="addr:street" v="Hampton Road"/><tag k="addr:housenumber" v="2901"/><tag k="coa:place_id" v="516716"/></node><node id="-36" lat="30.289021" lon="-97.727024" changeset="false"><tag k="addr:street" v="Red River Street"/><tag k="addr:housenumber" v="3000"/><tag k="coa:place_id" v="163118"/></node><node id="-37" lat="30.290329" lon="-97.723512" changeset="false"><tag k="addr:street" v="East 32nd Street"/><tag k="addr:housenumber" v="1020"/><tag k="coa:place_id" v="3352153"/></node><node id="-38" lat="30.290447" lon="-97.724711" changeset="false"><tag k="addr:street" v="East 32nd Street"/><tag k="addr:housenumber" v="1000"/><tag k="coa:place_id" v="180987"/></node><node id="-39" lat="30.284249" lon="-97.727457" changeset="false"><tag k="addr:street" v="Red River Street"/><tag k="addr:housenumber" v="2313"/><tag k="coa:place_id" v="515318"/></node><node id="-40" lat="30.28336" lon="-97.731573" changeset="false"><tag k="addr:street" v="Robert Dedman Drive"/><tag k="addr:housenumber" v="2108"/><tag k="coa:place_id" v="3126006"/></node><node id="-41" lat="30.287418" lon="-97.726098" changeset="false"><tag k="addr:street" v="Swisher Street"/><tag k="addr:housenumber" v="2703"/><tag k="coa:place_id" v="164000"/></node><node id="-42" lat="30.291378" lon="-97.7283" changeset="false"><tag k="addr:street" v="East 32nd Street"/><tag k="addr:housenumber" v="811"/><tag k="coa:place_id" v="516482"/></node><node id="-43" lat="30.284663" lon="-97.732455" changeset="false"><tag k="addr:street" v="East 23rd Street"/><tag k="addr:housenumber" v="405"/><tag k="coa:place_id" v="3125547"/></node><node id="-44" lat="30.289451" lon="-97.724102" changeset="false"><tag k="addr:street" v="East 32nd Street"/><tag k="addr:housenumber" v="1017"/><tag k="coa:place_id" v="308907"/></node><node id="-45" lat="30.288982" lon="-97.732462" changeset="false"><tag k="addr:street" v="East Dean Keeton Street"/><tag k="addr:housenumber" v="707"/><tag k="coa:place_id" v="3125256"/></node><node id="-46" lat="30.294202" lon="-97.722528" changeset="false"><tag k="addr:street" v="East 37th Street"/><tag k="addr:housenumber" v="919"/><tag k="coa:place_id" v="551744"/></node><node id="-47" lat="30.29498" lon="-97.723764" changeset="false"><tag k="addr:street" v="Red River Street"/><tag k="addr:housenumber" v="3705"/><tag k="coa:place_id" v="249669"/></node><node id="-48" lat="30.28239" lon="-97.728412" changeset="false"><tag k="addr:street" v="Red River Street"/><tag k="addr:housenumber" v="2101"/><tag k="coa:place_id" v="515300"/></node><node id="-49" lat="30.290647" lon="-97.725116" changeset="false"><tag k="addr:street" v="East 32nd Street"/><tag k="addr:housenumber" v="924"/><tag k="coa:place_id" v="549950"/></node><node id="-50" lat="30.291763" lon="-97.726924" changeset="false"><tag k="addr:street" v="Red River Street"/><tag k="addr:housenumber" v="3210"/><tag k="coa:place_id" v="249664"/></node><node id="-51" lat="30.291795" lon="-97.722375" changeset="false"><tag k="addr:street" v="North Interstate Highway 35 Service Road"/><tag k="addr:housenumber" v="3400"/><tag k="coa:place_id" v="163862"/></node><node id="-52" lat="30.288514" lon="-97.729623" changeset="false"><tag k="addr:street" v="East Dean Keeton Street"/><tag k="addr:housenumber" v="811"/><tag k="coa:place_id" v="516950"/></node><node id="-53" lat="30.280667" lon="-97.730495" changeset="false"><tag k="addr:street" v="Red River Street"/><tag k="addr:housenumber" v="2006"/><tag k="coa:place_id" v="594735"/></node><node id="-54" lat="30.296023" lon="-97.72578" changeset="false"><tag k="addr:street" v="Hampton Road"/><tag k="addr:housenumber" v="3707"/><tag k="coa:place_id" v="551558"/></node><node id="-55" lat="30.283736" lon="-97.729698" changeset="false"><tag k="addr:street" v="Clyde Littlefield Drive"/><tag k="addr:housenumber" v="706"/><tag k="coa:place_id" v="3307999"/></node><node id="-56" lat="30.287893" lon="-97.732103" changeset="false"><tag k="addr:street" v="Trinity Street"/><tag k="addr:housenumber" v="2410"/><tag k="coa:place_id" v="3321870"/></node><node id="-57" lat="30.293311" lon="-97.721479" changeset="false"><tag k="addr:street" v="Concordia Avenue"/><tag k="addr:housenumber" v="1006"/><tag k="coa:place_id" v="3358166"/></node><node id="-58" lat="30.290877" lon="-97.728511" changeset="false"><tag k="addr:street" v="East 31st Street"/><tag k="addr:housenumber" v="814"/><tag k="coa:place_id" v="5076266"/></node><node id="-59" lat="30.289666" lon="-97.723895" changeset="false"><tag k="addr:street" v="East 32nd Street"/><tag k="addr:housenumber" v="1018"/><tag k="coa:place_id" v="89573"/></node><node id="-60" lat="30.294455" lon="-97.722963" changeset="false"><tag k="addr:street" v="East 37th Street"/><tag k="addr:housenumber" v="913 1/2"/><tag k="coa:place_id" v="551714"/></node><node id="-61" lat="30.294186" lon="-97.724382" changeset="false"><tag k="addr:street" v="Red River Street"/><tag k="addr:housenumber" v="3501"/><tag k="coa:place_id" v="551480"/></node><node id="-62" lat="30.293093" lon="-97.721135" changeset="false"><tag k="addr:street" v="North Interstate Highway 35 Service Road"/><tag k="addr:housenumber" v="3502"/><tag k="coa:place_id" v="590414"/></node><node id="-63" lat="30.286094" lon="-97.725722" changeset="false"><tag k="addr:street" v="North Interstate Highway 35 Service Road"/><tag k="addr:housenumber" v="2400"/><tag k="coa:place_id" v="3033311"/></node><node id="-64" lat="30.282963" lon="-97.729921" changeset="false"><tag k="addr:street" v="Clyde Littlefield Drive"/><tag k="addr:housenumber" v="707"/><tag k="coa:place_id" v="3126005"/></node><node id="-65" lat="30.287507" lon="-97.727058" changeset="false"><tag k="addr:street" v="East Dean Keeton Street"/><tag k="addr:housenumber" v="924 1/2"/><tag k="coa:place_id" v="3179787"/></node><node id="-66" lat="30.281396" lon="-97.729308" changeset="false"><tag k="addr:street" v="Red River Street"/><tag k="addr:housenumber" v="2051"/><tag k="coa:place_id" v="515282"/></node><node id="-67" lat="30.294458" lon="-97.724627" changeset="false"><tag k="addr:street" v="Red River Street"/><tag k="addr:housenumber" v="3508"/><tag k="coa:place_id" v="214269"/></node><node id="-68" lat="30.290044" lon="-97.730979" changeset="false"><tag k="addr:street" v="Leonard Street"/><tag k="addr:housenumber" v="801"/><tag k="coa:place_id" v="102671"/></node><node id="-69" lat="30.29169" lon="-97.725547" changeset="false"><tag k="addr:street" v="Keith Lane"/><tag k="addr:housenumber" v="908"/><tag k="coa:place_id" v="232576"/></node><node id="-70" lat="30.289004" lon="-97.732354" changeset="false"><tag k="addr:street" v="East Dean Keeton Street"/><tag k="addr:housenumber" v="709"/><tag k="coa:place_id" v="3125257"/></node><node id="-71" lat="30.285182" lon="-97.731138" changeset="false"><tag k="addr:street" v="East 23rd Street"/><tag k="addr:housenumber" v="904"/><tag k="coa:place_id" v="634114"/></node><node id="-72" lat="30.284411" lon="-97.726676" changeset="false"><tag k="addr:street" v="North Interstate Highway 35 Service Road"/><tag k="addr:housenumber" v="2324"/><tag k="coa:place_id" v="3033320"/></node><node id="-73" lat="30.27967" lon="-97.730548" changeset="false"><tag k="addr:street" v="Red River Street"/><tag k="addr:housenumber" v="1925"/><tag k="coa:place_id" v="499294"/></node><node id="-74" lat="30.280722" lon="-97.730338" changeset="false"><tag k="addr:street" v="Red River Street"/><tag k="addr:housenumber" v="2012"/><tag k="coa:place_id" v="389402"/></node><node id="-75" lat="30.294843" lon="-97.723931" changeset="false"><tag k="addr:street" v="East 37th Street"/><tag k="addr:housenumber" v="901"/><tag k="coa:place_id" v="551666"/></node><node id="-76" lat="30.2808" lon="-97.731657" changeset="false"><tag k="addr:street" v="East 20th Street"/><tag k="addr:housenumber" v="537"/><tag k="coa:place_id" v="3323493"/></node><node id="-77" lat="30.291959" lon="-97.722386" changeset="false"><tag k="addr:street" v="Harmon Avenue"/><tag k="addr:housenumber" v="3401"/><tag k="coa:place_id" v="5074183"/></node><node id="-78" lat="30.293664" lon="-97.721492" changeset="false"><tag k="addr:street" v="Harmon Avenue"/><tag k="addr:housenumber" v="3505"/><tag k="coa:place_id" v="590510"/></node><node id="-79" lat="30.289638" lon="-97.730939" changeset="false"><tag k="addr:street" v="East Dean Keeton Street"/><tag k="addr:housenumber" v="716"/><tag k="coa:place_id" v="516986"/></node><node id="-80" lat="30.288176" lon="-97.726202" changeset="false"><tag k="addr:street" v="Swisher Street"/><tag k="addr:housenumber" v="2800"/><tag k="coa:place_id" v="251165"/></node><node id="-81" lat="30.288166" lon="-97.72575" changeset="false"><tag k="addr:street" v="Swisher Street"/><tag k="addr:housenumber" v="2901"/><tag k="coa:place_id" v="516266"/></node><node id="-82" lat="30.290972" lon="-97.726637" changeset="false"><tag k="addr:street" v="East 32nd Street"/><tag k="addr:housenumber" v="916"/><tag k="coa:place_id" v="549980"/></node><node id="-83" lat="30.288436" lon="-97.729537" changeset="false"><tag k="addr:street" v="East Dean Keeton Street"/><tag k="addr:housenumber" v="821"/><tag k="coa:place_id" v="516944"/></node><node id="-84" lat="30.290111" lon="-97.724932" changeset="false"><tag k="addr:street" v="East 32nd Street"/><tag k="addr:housenumber" v="1000 1/2"/><tag k="coa:place_id" v="3093120"/></node><node id="-85" lat="30.293503" lon="-97.721106" changeset="false"><tag k="addr:street" v="North Interstate Highway 35 Service Road"/><tag k="addr:housenumber" v="3506"/><tag k="coa:place_id" v="3258843"/></node><node id="-86" lat="30.293424" lon="-97.721729" changeset="false"><tag k="addr:street" v="Concordia Avenue"/><tag k="addr:housenumber" v="1000"/><tag k="coa:place_id" v="159598"/></node><node id="-87" lat="30.291919" lon="-97.724187" changeset="false"><tag k="addr:street" v="Kim Lane"/><tag k="addr:housenumber" v="3400"/><tag k="coa:place_id" v="551204"/></node><node id="-88" lat="30.291644" lon="-97.727947" changeset="false"><tag k="addr:street" v="East 32nd Street"/><tag k="addr:housenumber" v="816"/><tag k="coa:place_id" v="549842"/></node><node id="-89" lat="30.291519" lon="-97.724074" changeset="false"><tag k="addr:street" v="Kim Lane"/><tag k="addr:housenumber" v="3307"/><tag k="coa:place_id" v="550394"/></node><node id="-90" lat="30.291176" lon="-97.724078" changeset="false"><tag k="addr:street" v="Kim Lane"/><tag k="addr:housenumber" v="3305"/><tag k="coa:place_id" v="3352154"/></node><node id="-91" lat="30.292636" lon="-97.721785" changeset="false"><tag k="addr:street" v="Concordia Avenue"/><tag k="addr:housenumber" v="1017"/><tag k="coa:place_id" v="3352150"/></node><node id="-92" lat="30.291887" lon="-97.723095" changeset="false"><tag k="addr:street" v="Harmon Avenue"/><tag k="addr:housenumber" v="3320"/><tag k="coa:place_id" v="5067508"/></node><node id="-93" lat="30.292113" lon="-97.723408" changeset="false"><tag k="addr:street" v="Luther Lane"/><tag k="addr:housenumber" v="921"/><tag k="coa:place_id" v="3352151"/></node><node id="-94" lat="30.285037" lon="-97.726413" changeset="false"><tag k="addr:street" v="North Interstate Highway 35 Service Road"/><tag k="addr:housenumber" v="2334"/><tag k="coa:place_id" v="5103011"/></node><node id="-95" lat="30.280149" lon="-97.734558" changeset="false"><tag k="addr:street" v="San Jacinto Boulevard"/><tag k="addr:housenumber" v="1957"/><tag k="coa:place_id" v="948392"/></node><node id="-96" lat="30.285283" lon="-97.72711" changeset="false"><tag k="addr:street" v="Red River Street"/><tag k="addr:housenumber" v="2405"/><tag k="coa:place_id" v="515330"/></node><node id="-97" lat="30.290374" lon="-97.725067" changeset="false"><tag k="addr:street" v="East 32nd Street"/><tag k="addr:housenumber" v="926"/><tag k="coa:place_id" v="549944"/></node><node id="-98" lat="30.279718" lon="-97.731324" changeset="false"><tag k="addr:street" v="Red River Street"/><tag k="addr:housenumber" v="1916"/><tag k="coa:place_id" v="5116009"/></node><node id="-99" lat="30.293282" lon="-97.721429" changeset="false"><tag k="addr:street" v="Concordia Avenue"/><tag k="addr:housenumber" v="1008"/><tag k="coa:place_id" v="3358167"/></node><node id="-100" lat="30.293672" lon="-97.720973" changeset="false"><tag k="addr:street" v="Concordia Avenue"/><tag k="addr:housenumber" v="1018"/><tag k="coa:place_id" v="3364303"/></node><node id="-101" lat="30.283399" lon="-97.727742" changeset="false"><tag k="addr:street" v="Red River Street"/><tag k="addr:housenumber" v="2201"/><tag k="coa:place_id" v="515312"/></node><node id="-102" lat="30.283346" lon="-97.727594" changeset="false"><tag k="addr:street" v="Clyde Littlefield Drive"/><tag k="addr:housenumber" v="904"/><tag k="coa:place_id" v="5093533"/></node><node id="-103" lat="30.284911" lon="-97.726448" changeset="false"><tag k="addr:street" v="North Interstate Highway 35 Service Road"/><tag k="addr:housenumber" v="2348"/><tag k="coa:place_id" v="3033312"/></node><node id="-104" lat="30.289554" lon="-97.724385" changeset="false"><tag k="addr:street" v="East 32nd Street"/><tag k="addr:housenumber" v="1011"/><tag k="coa:place_id" v="163934"/></node><node id="-105" lat="30.287658" lon="-97.727296" changeset="false"><tag k="addr:street" v="East Dean Keeton Street"/><tag k="addr:housenumber" v="920"/><tag k="coa:place_id" v="164012"/></node><node id="-106" lat="30.293945" lon="-97.720904" changeset="false"><tag k="addr:street" v="North Interstate Highway 35 Service Road"/><tag k="addr:housenumber" v="3700"/><tag k="coa:place_id" v="3033292"/></node><node id="-107" lat="30.288457" lon="-97.72772" changeset="false"><tag k="addr:street" v="Medical Arts Street"/><tag k="addr:housenumber" v="2911"/><tag k="coa:place_id" v="283174"/></node><node id="-108" lat="30.290441" lon="-97.729548" changeset="false"><tag k="addr:street" v="East 30th Street"/><tag k="addr:housenumber" v="812 1/2"/><tag k="coa:place_id" v="516638"/></node><node id="-109" lat="30.288972" lon="-97.730588" changeset="false"><tag k="addr:street" v="East Dean Keeton Street"/><tag k="addr:housenumber" v="715"/><tag k="coa:place_id" v="516992"/></node><node id="-110" lat="30.288566" lon="-97.728982" changeset="false"><tag k="addr:street" v="East Dean Keeton Street"/><tag k="addr:housenumber" v="824"/><tag k="coa:place_id" v="516698"/></node><node id="-111" lat="30.291502" lon="-97.726157" changeset="false"><tag k="addr:street" v="Keith Lane"/><tag k="addr:housenumber" v="911"/><tag k="coa:place_id" v="246697"/></node><node id="-112" lat="30.289954" lon="-97.724299" changeset="false"><tag k="addr:street" v="East 32nd Street"/><tag k="addr:housenumber" v="1010"/><tag k="coa:place_id" v="1110547"/></node><node id="-113" lat="30.290949" lon="-97.724443" changeset="false"><tag k="addr:street" v="Kim Lane"/><tag k="addr:housenumber" v="3301"/><tag k="coa:place_id" v="550382"/></node><node id="-114" lat="30.2847" lon="-97.72697" changeset="false"><tag k="addr:street" v="North Interstate Highway 35 Service Road"/><tag k="addr:housenumber" v="2330"/><tag k="coa:place_id" v="3033319"/></node><node id="-115" lat="30.288867" lon="-97.726591" changeset="false"><tag k="addr:street" v="Red River Street"/><tag k="addr:housenumber" v="2907"/><tag k="coa:place_id" v="1017608"/></node><node id="-116" lat="30.294586" lon="-97.725819" changeset="false"><tag k="addr:street" v="Hampton Road"/><tag k="addr:housenumber" v="3501"/><tag k="coa:place_id" v="128504"/></node><node id="-117" lat="30.281864" lon="-97.729324" changeset="false"><tag k="addr:street" v="Red River Street"/><tag k="addr:housenumber" v="2100"/><tag k="coa:place_id" v="645772"/></node><node id="-118" lat="30.28738" lon="-97.726856" changeset="false"><tag k="addr:street" v="Red River Street"/><tag k="addr:housenumber" v="2604"/><tag k="coa:place_id" v="516692"/></node><node id="-119" lat="30.293334" lon="-97.720955" changeset="false"><tag k="addr:street" v="North Interstate Highway 35 Service Road"/><tag k="addr:housenumber" v="3500"/><tag k="coa:place_id" v="3033296"/></node><node id="-120" lat="30.287262" lon="-97.73219" changeset="false"><tag k="addr:street" v="Trinity Street"/><tag k="addr:housenumber" v="2402"/><tag k="coa:place_id" v="3125517"/></node><node id="-121" lat="30.289243" lon="-97.723739" changeset="false"><tag k="addr:street" v="East 32nd Street"/><tag k="addr:housenumber" v="1025"/><tag k="coa:place_id" v="707644"/></node><node id="-122" lat="30.289515" lon="-97.724272" changeset="false"><tag k="addr:street" v="East 32nd Street"/><tag k="addr:housenumber" v="1015"/><tag k="coa:place_id" v="253359"/></node><node id="-123" lat="30.294577" lon="-97.724527" changeset="false"><tag k="addr:street" v="Red River Street"/><tag k="addr:housenumber" v="3510"/><tag k="coa:place_id" v="551486"/></node><node id="-124" lat="30.293185" lon="-97.721214" changeset="false"><tag k="addr:street" v="Concordia Avenue"/><tag k="addr:housenumber" v="1012"/><tag k="coa:place_id" v="590438"/></node><node id="-125" lat="30.288211" lon="-97.724992" changeset="false"><tag k="addr:street" v="Cole Street"/><tag k="addr:housenumber" v="2906"/><tag k="coa:place_id" v="516272"/></node><node id="-126" lat="30.292714" lon="-97.721483" changeset="false"><tag k="addr:street" v="North Interstate Highway 35 Service Road"/><tag k="addr:housenumber" v="3406"/><tag k="coa:place_id" v="163856"/></node><node id="-127" lat="30.290287" lon="-97.724591" changeset="false"><tag k="addr:street" v="East 32nd Street"/><tag k="addr:housenumber" v="1004"/><tag k="coa:place_id" v="694996"/></node><node id="-128" lat="30.293838" lon="-97.721376" changeset="false"><tag k="addr:street" v="Harmon Avenue"/><tag k="addr:housenumber" v="3603"/><tag k="coa:place_id" v="3358175"/></node><node id="-129" lat="30.293901" lon="-97.721334" changeset="false"><tag k="addr:street" v="Harmon Avenue"/><tag k="addr:housenumber" v="3605"/><tag k="coa:place_id" v="3358176"/></node><node id="-130" lat="30.293953" lon="-97.721299" changeset="false"><tag k="addr:street" v="Harmon Avenue"/><tag k="addr:housenumber" v="3607"/><tag k="coa:place_id" v="3358177"/></node><node id="-131" lat="30.293742" lon="-97.72143" changeset="false"><tag k="addr:street" v="Harmon Avenue"/><tag k="addr:housenumber" v="3507"/><tag k="coa:place_id" v="590516"/></node><node id="-132" lat="30.293791" lon="-97.721402" changeset="false"><tag k="addr:street" v="Harmon Avenue"/><tag k="addr:housenumber" v="3601"/><tag k="coa:place_id" v="3358174"/></node><node id="-133" lat="30.292645" lon="-97.724461" changeset="false"><tag k="addr:street" v="Duncan Lane"/><tag k="addr:housenumber" v="910"/><tag k="coa:place_id" v="244794"/></node><node id="-134" lat="30.292921" lon="-97.724249" changeset="false"><tag k="addr:street" v="Luther Lane"/><tag k="addr:housenumber" v="917"/><tag k="coa:place_id" v="80471"/></node><node id="-135" lat="30.294042" lon="-97.726349" changeset="false"><tag k="addr:street" v="Hampton Road"/><tag k="addr:housenumber" v="3401"/><tag k="coa:place_id" v="3116253"/></node><node id="-136" lat="30.29395" lon="-97.726457" changeset="false"><tag k="addr:street" v="Harris Avenue,1100"/><tag k="addr:housenumber" v="818"/><tag k="coa:place_id" v="551390"/></node><node id="-137" lat="30.294561" lon="-97.725217" changeset="false"><tag k="addr:street" v="Red River Street"/><tag k="addr:housenumber" v="3500"/><tag k="coa:place_id" v="3048856"/></node><node id="-138" lat="30.294462" lon="-97.725161" changeset="false"><tag k="addr:street" v="Red River Street"/><tag k="addr:housenumber" v="3502"/><tag k="coa:place_id" v="164542"/></node><node id="-139" lat="30.288374" lon="-97.725718" changeset="false"><tag k="addr:street" v="Swisher Street"/><tag k="addr:housenumber" v="2905"/><tag k="coa:place_id" v="638415"/></node><node id="-140" lat="30.288326" lon="-97.725419" changeset="false"><tag k="addr:street" v="East 30th Street"/><tag k="addr:housenumber" v="921"/><tag k="coa:place_id" v="354135"/></node><node id="-141" lat="30.291177" lon="-97.72661" changeset="false"><tag k="addr:street" v="Red River Street"/><tag k="addr:housenumber" v="3207"/><tag k="coa:place_id" v="249661"/></node><node id="-142" lat="30.290998" lon="-97.726691" changeset="false"><tag k="addr:street" v="East 32nd Street"/><tag k="addr:housenumber" v="914"/><tag k="coa:place_id" v="550022"/></node><node id="-143" lat="30.291129" lon="-97.726646" changeset="false"><tag k="addr:street" v="Red River Street"/><tag k="addr:housenumber" v="3205"/><tag k="coa:place_id" v="550202"/></node><node id="-144" lat="30.291579" lon="-97.726409" changeset="false"><tag k="addr:street" v="Red River Street"/><tag k="addr:housenumber" v="3221"/><tag k="coa:place_id" v="163892"/></node><node id="-145" lat="30.29107" lon="-97.726674" changeset="false"><tag k="addr:street" v="Red River Street"/><tag k="addr:housenumber" v="3203"/><tag k="coa:place_id" v="550196"/></node><node id="-146" lat="30.291234" lon="-97.726577" changeset="false"><tag k="addr:street" v="Red River Street"/><tag k="addr:housenumber" v="3209"/><tag k="coa:place_id" v="249663"/></node><node id="-147" lat="30.291023" lon="-97.726745" changeset="false"><tag k="addr:street" v="East 32nd Street"/><tag k="addr:housenumber" v="912"/><tag k="coa:place_id" v="550064"/></node><node id="-148" lat="30.291294" lon="-97.726544" changeset="false"><tag k="addr:street" v="Red River Street"/><tag k="addr:housenumber" v="3211"/><tag k="coa:place_id" v="163904"/></node><node id="-149" lat="30.291398" lon="-97.726481" changeset="false"><tag k="addr:street" v="Red River Street"/><tag k="addr:housenumber" v="3213"/><tag k="coa:place_id" v="163898"/></node><node id="-150" lat="30.288529" lon="-97.726048" changeset="false"><tag k="addr:street" v="Swisher Street"/><tag k="addr:housenumber" v="2900"/><tag k="coa:place_id" v="164006"/></node><node id="-151" lat="30.288671" lon="-97.726542" changeset="false"><tag k="addr:street" v="Red River Street"/><tag k="addr:housenumber" v="2903"/><tag k="coa:place_id" v="515480"/></node><node id="-152" lat="30.2886" lon="-97.725974" changeset="false"><tag k="addr:street" v="Swisher Street"/><tag k="addr:housenumber" v="2904"/><tag k="coa:place_id" v="1021676"/></node><node id="-153" lat="30.289507" lon="-97.724765" changeset="false"><tag k="addr:street" v="East 32nd Street"/><tag k="addr:housenumber" v="1005"/><tag k="coa:place_id" v="3276726"/></node><node id="-154" lat="30.289037" lon="-97.723899" changeset="false"><tag k="addr:street" v="North Interstate Highway 35 Service Road"/><tag k="addr:housenumber" v="3018"/><tag k="coa:place_id" v="549866"/></node><node id="-155" lat="30.287802" lon="-97.726924" changeset="false"><tag k="addr:street" v="East Dean Keeton Street"/><tag k="addr:housenumber" v="926"/><tag k="coa:place_id" v="515744"/></node><node id="-156" lat="30.287602" lon="-97.727113" changeset="false"><tag k="addr:street" v="East Dean Keeton Street"/><tag k="addr:housenumber" v="924"/><tag k="coa:place_id" v="381267"/></node><node id="-157" lat="30.290374" lon="-97.72899" changeset="false"><tag k="addr:street" v="East 30th Street"/><tag k="addr:housenumber" v="818"/><tag k="coa:place_id" v="253315"/></node><node id="-158" lat="30.290304" lon="-97.729056" changeset="false"><tag k="addr:street" v="East 30th Street"/><tag k="addr:housenumber" v="818 1/2"/><tag k="coa:place_id" v="516620"/></node><node id="-159" lat="30.285764" lon="-97.728666" changeset="false"><tag k="addr:street" v="Red River Street"/><tag k="addr:housenumber" v="2310"/><tag k="coa:place_id" v="3126017"/></node><node id="-160" lat="30.284285" lon="-97.729072" changeset="false"><tag k="addr:street" v="Red River Street"/><tag k="addr:housenumber" v="2300"/><tag k="coa:place_id" v="3126016"/></node></osm>