<?xml version="1.0" encoding="UTF-8"?><osm version="0.6" generator="github.com/aaronlidman/osm-and-geojson"><node id="-1" lat="30.293441" lon="-97.72737" changeset="false"><tag k="addr:street" v="Hampton Road"/><tag k="addr:housenumber" v="3308"/><tag k="addr:postcode" v="78705"/></node><node id="-2" lat="30.287384" lon="-97.726055" changeset="false"><tag k="addr:street" v="Swisher Street"/><tag k="addr:housenumber" v="2703"/><tag k="addr:postcode" v="78705"/></node><node id="-3" lat="30.2914" lon="-97.72617" changeset="false"><tag k="addr:street" v="Keith Lane"/><tag k="addr:housenumber" v="911"/><tag k="addr:postcode" v="78705"/></node><node id="-4" lat="30.286471" lon="-97.726356" changeset="false"><tag k="addr:street" v="Red River Street"/><tag k="addr:housenumber" v="2501"/><tag k="addr:postcode" v="78705"/></node><node id="-5" lat="30.285228" lon="-97.726303" changeset="false"><tag k="addr:street" v="North Interstate Highway 35 Service Road"/><tag k="addr:housenumber" v="2336"/><tag k="addr:postcode" v="78705"/></node><node id="-6" lat="30.28589" lon="-97.729284" changeset="false"><tag k="addr:street" v="Robert Dedman Drive"/><tag k="addr:housenumber" v="2305"/><tag k="addr:postcode" v="78712"/></node><node id="-7" lat="30.287081" lon="-97.729211" changeset="false"><tag k="addr:street" v="Robert Dedman Drive"/><tag k="addr:housenumber" v="2405"/><tag k="addr:postcode" v="78712"/></node><node id="-8" lat="30.287305" lon="-97.731324" changeset="false"><tag k="addr:street" v="Trinity Street"/><tag k="addr:housenumber" v="2405"/><tag k="addr:postcode" v="78705"/></node><node id="-9" lat="30.287731" lon="-97.732892" changeset="false"><tag k="addr:street" v="San Jacinto Boulevard"/><tag k="addr:housenumber" v="2401"/><tag k="addr:postcode" v="78705"/></node><node id="-10" lat="30.288503" lon="-97.730347" changeset="false"><tag k="addr:street" v="East Dean Keeton Street"/><tag k="addr:housenumber" v="727"/><tag k="addr:postcode" v="78705"/></node><node id="-11" lat="30.289423" lon="-97.732524" changeset="false"><tag k="addr:street" v="East Dean Keeton Street"/><tag k="addr:housenumber" v="702"/><tag k="addr:postcode" v="78705"/></node><node id="-12" lat="30.288503" lon="-97.733431" changeset="false"><tag k="addr:street" v="San Jacinto Boulevard"/><tag k="addr:housenumber" v="2501"/><tag k="addr:postcode" v="78705"/></node><node id="-13" lat="30.288591" lon="-97.731798" changeset="false"><tag k="addr:street" v="East Dean Keeton Street"/><tag k="addr:housenumber" v="721"/><tag k="addr:postcode" v="78705"/></node><node id="-14" lat="30.285833" lon="-97.731828" changeset="false"><tag k="addr:street" v="Trinity Street"/><tag k="addr:housenumber" v="2301"/><tag k="addr:postcode" v="78712"/></node><node id="-15" lat="30.286053" lon="-97.731259" changeset="false"><tag k="addr:street" v="East 23rd Street"/><tag k="addr:housenumber" v="510"/><tag k="addr:postcode" v="78712"/></node><node id="-16" lat="30.28598" lon="-97.733098" changeset="false"><tag k="addr:street" v="San Jacinto Boulevard"/><tag k="addr:housenumber" v="2301"/><tag k="addr:postcode" v="78705"/></node><node id="-17" lat="30.286967" lon="-97.73242" changeset="false"><tag k="addr:street" v="Trinity Street"/><tag k="addr:housenumber" v="2400"/><tag k="addr:postcode" v="78705"/></node><node id="-18" lat="30.282751" lon="-97.730985" changeset="false"><tag k="addr:street" v="Robert Dedman Drive"/><tag k="addr:housenumber" v="2017"/><tag k="addr:postcode" v="78712"/></node><node id="-19" lat="30.281974" lon="-97.731115" changeset="false"><tag k="addr:street" v="Robert Dedman Drive"/><tag k="addr:housenumber" v="2011"/><tag k="addr:postcode" v="78712"/></node><node id="-20" lat="30.282238" lon="-97.73265" changeset="false"><tag k="addr:street" v="San Jacinto Boulevard"/><tag k="addr:housenumber" v="2015"/><tag k="addr:postcode" v="78712"/></node><node id="-21" lat="30.279767" lon="-97.733418" changeset="false"><tag k="addr:street" v="Red River Street"/><tag k="addr:housenumber" v="1900"/><tag k="addr:postcode" v="78712"/></node><node id="-22" lat="30.281435" lon="-97.732233" changeset="false"><tag k="addr:street" v="San Jacinto Boulevard"/><tag k="addr:housenumber" v="2001"/><tag k="addr:postcode" v="78712"/></node><node id="-23" lat="30.283764" lon="-97.733709" changeset="false"><tag k="addr:street" v="San Jacinto Boulevard"/><tag k="addr:housenumber" v="2109"/><tag k="addr:postcode" v="78712"/></node><node id="-24" lat="30.28404" lon="-97.730411" changeset="false"><tag k="addr:street" v="Robert Dedman Drive"/><tag k="addr:housenumber" v="2201"/><tag k="addr:postcode" v="78712"/></node></osm>