<?xml version="1.0" encoding="UTF-8"?><osm version="0.6" generator="github.com/aaronlidman/osm-and-geojson"><node id="-1" lat="30.294582" lon="-97.740729" changeset="false"><tag k="addr:street" v="West 29th Street"/><tag k="addr:housenumber" v="306"/><tag k="addr:postcode" v="78705"/></node><node id="-2" lat="30.292995" lon="-97.740272" changeset="false"><tag k="addr:street" v="Whitis Avenue"/><tag k="addr:housenumber" v="2712 1/2"/><tag k="addr:postcode" v="78705"/></node><node id="-3" lat="30.294526" lon="-97.741122" changeset="false"><tag k="addr:street" v="West 29th Street"/><tag k="addr:housenumber" v="401"/><tag k="addr:postcode" v="78705"/></node><node id="-4" lat="30.293721" lon="-97.737338" changeset="false"><tag k="addr:street" v="East 30th Street"/><tag k="addr:housenumber" v="105"/><tag k="addr:postcode" v="78705"/></node><node id="-5" lat="30.292591" lon="-97.740784" changeset="false"><tag k="addr:street" v="Hemphill Park"/><tag k="addr:housenumber" v="2707"/><tag k="addr:postcode" v="78705"/></node><node id="-6" lat="30.295142" lon="-97.742581" changeset="false"><tag k="addr:street" v="Guadalupe Street"/><tag k="addr:housenumber" v="2827"/><tag k="addr:postcode" v="78705"/></node><node id="-7" lat="30.293168" lon="-97.736241" changeset="false"><tag k="addr:street" v="Speedway"/><tag k="addr:housenumber" v="2904"/><tag k="addr:postcode" v="78705"/></node><node id="-8" lat="30.294899" lon="-97.74234" changeset="false"><tag k="addr:street" v="Guadalupe Street"/><tag k="addr:housenumber" v="2819"/><tag k="addr:postcode" v="78705"/></node><node id="-9" lat="30.29401" lon="-97.737351" changeset="false"><tag k="addr:street" v="East 30th Street"/><tag k="addr:housenumber" v="101"/><tag k="addr:postcode" v="78705"/></node><node id="-10" lat="30.294755" lon="-97.738763" changeset="false"><tag k="addr:street" v="West 30th Street"/><tag k="addr:housenumber" v="205"/><tag k="addr:postcode" v="78705"/></node><node id="-11" lat="30.295009" lon="-97.740523" changeset="false"><tag k="addr:street" v="Hemphill Park"/><tag k="addr:housenumber" v="2915"/><tag k="addr:postcode" v="78705"/></node><node id="-12" lat="30.294698" lon="-97.73864" changeset="false"><tag k="addr:street" v="West 30th Street"/><tag k="addr:housenumber" v="201"/><tag k="addr:postcode" v="78705"/></node><node id="-13" lat="30.292145" lon="-97.740984" changeset="false"><tag k="addr:street" v="Guadalupe Street"/><tag k="addr:housenumber" v="2703"/><tag k="addr:postcode" v="78705"/></node><node id="-14" lat="30.293125" lon="-97.739456" changeset="false"><tag k="addr:street" v="West 27th Street"/><tag k="addr:housenumber" v="210"/><tag k="addr:postcode" v="78705"/></node><node id="-15" lat="30.295682" lon="-97.74066" changeset="false"><tag k="addr:street" v="West 30th Street"/><tag k="addr:housenumber" v="405"/><tag k="addr:postcode" v="78705"/></node><node id="-16" lat="30.293399" lon="-97.736627" changeset="false"><tag k="addr:street" v="East 30th Street"/><tag k="addr:housenumber" v="203"/><tag k="addr:postcode" v="78705"/></node><node id="-17" lat="30.293708" lon="-97.739474" changeset="false"><tag k="addr:street" v="Whitis Avenue"/><tag k="addr:housenumber" v="2700 1/2"/><tag k="addr:postcode" v="78705"/></node><node id="-18" lat="30.294456" lon="-97.738146" changeset="false"><tag k="addr:street" v="West 30th Street"/><tag k="addr:housenumber" v="107"/><tag k="addr:postcode" v="78705"/></node><node id="-19" lat="30.295543" lon="-97.741363" changeset="false"><tag k="addr:street" v="Fruth Street"/><tag k="addr:housenumber" v="2909"/><tag k="addr:postcode" v="78705"/></node><node id="-20" lat="30.294492" lon="-97.738325" changeset="false"><tag k="addr:street" v="West 30th Street"/><tag k="addr:housenumber" v="109"/><tag k="addr:postcode" v="78705"/></node><node id="-21" lat="30.292941" lon="-97.74123" changeset="false"><tag k="addr:street" v="Guadalupe Street"/><tag k="addr:housenumber" v="2711"/><tag k="addr:postcode" v="78705"/></node><node id="-22" lat="30.293815" lon="-97.737195" changeset="false"><tag k="addr:street" v="East 30th Street"/><tag k="addr:housenumber" v="103"/><tag k="addr:postcode" v="78705"/></node><node id="-23" lat="30.294773" lon="-97.741033" changeset="false"><tag k="addr:street" v="West 29th Street"/><tag k="addr:housenumber" v="400"/><tag k="addr:postcode" v="78705"/></node><node id="-24" lat="30.29505" lon="-97.740781" changeset="false"><tag k="addr:street" v="Hemphill Park"/><tag k="addr:housenumber" v="2910"/><tag k="addr:postcode" v="78705"/></node><node id="-25" lat="30.294597" lon="-97.738626" changeset="false"><tag k="addr:street" v="West 30th Street"/><tag k="addr:housenumber" v="111"/><tag k="addr:postcode" v="78705"/></node><node id="-26" lat="30.295148" lon="-97.742542" changeset="false"><tag k="addr:street" v="Guadalupe Street"/><tag k="addr:housenumber" v="2825"/><tag k="addr:postcode" v="78705"/></node><node id="-27" lat="30.293979" lon="-97.740357" changeset="false"><tag k="addr:street" v="West 29th Street"/><tag k="addr:housenumber" v="301"/><tag k="addr:postcode" v="78705"/></node><node id="-28" lat="30.294047" lon="-97.740295" changeset="false"><tag k="addr:street" v="West 29th Street"/><tag k="addr:housenumber" v="303"/><tag k="addr:postcode" v="78705"/></node><node id="-29" lat="30.294264" lon="-97.737872" changeset="false"><tag k="addr:street" v="West 30th Street"/><tag k="addr:housenumber" v="103"/><tag k="addr:postcode" v="78705"/></node><node id="-30" lat="30.294346" lon="-97.738005" changeset="false"><tag k="addr:street" v="West 30th Street"/><tag k="addr:housenumber" v="105"/><tag k="addr:postcode" v="78705"/></node><node id="-31" lat="30.29411" lon="-97.737839" changeset="false"><tag k="addr:street" v="University Avenue"/><tag k="addr:housenumber" v="2910"/><tag k="addr:postcode" v="78705"/></node><node id="-32" lat="30.294219" lon="-97.737735" changeset="false"><tag k="addr:street" v="West 30th Street"/><tag k="addr:housenumber" v="101"/><tag k="addr:postcode" v="78705"/></node><node id="-33" lat="30.293667" lon="-97.736969" changeset="false"><tag k="addr:street" v="East 30th Street"/><tag k="addr:housenumber" v="109"/><tag k="addr:postcode" v="78705"/></node><node id="-34" lat="30.293565" lon="-97.736832" changeset="false"><tag k="addr:street" v="East 30th Street"/><tag k="addr:housenumber" v="111"/><tag k="addr:postcode" v="78705"/></node><node id="-35" lat="30.293801" lon="-97.741209" changeset="false"><tag k="addr:street" v="Hemphill Park"/><tag k="addr:housenumber" v="2806"/><tag k="addr:postcode" v="78705"/></node><node id="-36" lat="30.293918" lon="-97.741265" changeset="false"><tag k="addr:street" v="Hemphill Park"/><tag k="addr:housenumber" v="2808"/><tag k="addr:postcode" v="78705"/></node><node id="-37" lat="30.294083" lon="-97.740711" changeset="false"><tag k="addr:street" v="Hemphill Park"/><tag k="addr:housenumber" v="2809"/><tag k="addr:postcode" v="78705"/></node><node id="-38" lat="30.294108" lon="-97.740779" changeset="false"><tag k="addr:street" v="Hemphill Park"/><tag k="addr:housenumber" v="2805"/><tag k="addr:postcode" v="78705"/></node><node id="-39" lat="30.295641" lon="-97.742398" changeset="false"><tag k="addr:street" v="Guadalupe Street"/><tag k="addr:housenumber" v="2909"/><tag k="addr:postcode" v="78705"/></node><node id="-40" lat="30.295408" lon="-97.742339" changeset="false"><tag k="addr:street" v="West 29th Street"/><tag k="addr:housenumber" v="512"/><tag k="addr:postcode" v="78705"/></node><node id="-41" lat="30.294306" lon="-97.741264" changeset="false"><tag k="addr:street" v="Hemphill Park"/><tag k="addr:housenumber" v="2814"/><tag k="addr:postcode" v="78705"/></node><node id="-42" lat="30.294427" lon="-97.741145" changeset="false"><tag k="addr:street" v="Hemphill Park"/><tag k="addr:housenumber" v="2816"/><tag k="addr:postcode" v="78705"/></node><node id="-43" lat="30.293521" lon="-97.741352" changeset="false"><tag k="addr:street" v="Guadalupe Street"/><tag k="addr:housenumber" v="2717"/><tag k="addr:postcode" v="78705"/></node><node id="-44" lat="30.294184" lon="-97.741256" changeset="false"><tag k="addr:street" v="Hemphill Park"/><tag k="addr:housenumber" v="2812"/><tag k="addr:postcode" v="78705"/></node><node id="-45" lat="30.293717" lon="-97.741235" changeset="false"><tag k="addr:street" v="Hemphill Park"/><tag k="addr:housenumber" v="2804"/><tag k="addr:postcode" v="78705"/></node><node id="-46" lat="30.294044" lon="-97.741243" changeset="false"><tag k="addr:street" v="Hemphill Park"/><tag k="addr:housenumber" v="2810"/><tag k="addr:postcode" v="78705"/></node></osm>