<?xml version="1.0" encoding="UTF-8"?><osm version="0.6" generator="github.com/aaronlidman/osm-and-geojson"><node id="-1" lat="30.470912" lon="-97.63881" changeset="false"><tag k="addr:street" v="Loch Linnhe Loop"/><tag k="addr:housenumber" v="17725"/></node><node id="-2" lat="30.462101" lon="-97.638104" changeset="false"><tag k="addr:street" v="Village Glen Road"/><tag k="addr:housenumber" v="17112"/></node><node id="-3" lat="30.470573" lon="-97.639313" changeset="false"><tag k="addr:street" v="Loch Linnhe Loop"/><tag k="addr:housenumber" v="17732"/></node><node id="-4" lat="30.465495" lon="-97.639052" changeset="false"><tag k="addr:street" v="Kirtomy Loop,1100"/><tag k="addr:housenumber" v="1008"/></node><node id="-5" lat="30.467699" lon="-97.638203" changeset="false"><tag k="addr:street" v="Manish Court"/><tag k="addr:housenumber" v="1009"/></node><node id="-6" lat="30.470158" lon="-97.639958" changeset="false"><tag k="addr:street" v="Kentra Drive"/><tag k="addr:housenumber" v="1142"/></node><node id="-7" lat="30.466721" lon="-97.637107" changeset="false"><tag k="addr:street" v="Tobermory Drive"/><tag k="addr:housenumber" v="17351"/></node><node id="-8" lat="30.467432" lon="-97.639145" changeset="false"><tag k="addr:street" v="Tobermory Drive"/><tag k="addr:housenumber" v="17315"/></node><node id="-9" lat="30.465645" lon="-97.637258" changeset="false"><tag k="addr:street" v="Kirtomy Loop,1100"/><tag k="addr:housenumber" v="931"/></node><node id="-10" lat="30.470293" lon="-97.63985" changeset="false"><tag k="addr:street" v="Kentra Drive"/><tag k="addr:housenumber" v="1146"/></node><node id="-11" lat="30.468394" lon="-97.63337" changeset="false"><tag k="addr:street" v="Tobermory Drive"/><tag k="addr:housenumber" v="17625"/></node><node id="-12" lat="30.466854" lon="-97.638706" changeset="false"><tag k="addr:street" v="Manish Drive"/><tag k="addr:housenumber" v="17340"/></node><node id="-13" lat="30.464306" lon="-97.637342" changeset="false"><tag k="addr:street" v="Village Glen Road"/><tag k="addr:housenumber" v="17221"/></node><node id="-14" lat="30.468268" lon="-97.641482" changeset="false"><tag k="addr:street" v="Sandwick Drive"/><tag k="addr:housenumber" v="17248"/></node><node id="-15" lat="30.469569" lon="-97.635977" changeset="false"><tag k="addr:street" v="Loch Linnhe Loop"/><tag k="addr:housenumber" v="17605"/></node><node id="-16" lat="30.466268" lon="-97.636973" changeset="false"><tag k="addr:street" v="Kirtomy Loop,1100"/><tag k="addr:housenumber" v="911"/></node><node id="-17" lat="30.467982" lon="-97.637319" changeset="false"><tag k="addr:street" v="Loch Linnhe Cove"/><tag k="addr:housenumber" v="1009"/></node><node id="-18" lat="30.462391" lon="-97.638181" changeset="false"><tag k="addr:street" v="Village Glen Road"/><tag k="addr:housenumber" v="17116"/></node><node id="-19" lat="30.468936" lon="-97.63478" changeset="false"><tag k="addr:street" v="West Pflugerville Parkway"/><tag k="addr:housenumber" v="911"/></node><node id="-20" lat="30.467544" lon="-97.633913" changeset="false"><tag k="addr:street" v="Tobermory Drive"/><tag k="addr:housenumber" v="17537"/></node><node id="-21" lat="30.463509" lon="-97.636471" changeset="false"><tag k="addr:street" v="Bushmills Road"/><tag k="addr:housenumber" v="17245"/></node><node id="-22" lat="30.466378" lon="-97.63695" changeset="false"><tag k="addr:street" v="Kirtomy Loop,1100"/><tag k="addr:housenumber" v="907"/></node><node id="-23" lat="30.467815" lon="-97.637244" changeset="false"><tag k="addr:street" v="Loch Linnhe Cove"/><tag k="addr:housenumber" v="1005"/></node><node id="-24" lat="30.466003" lon="-97.637057" changeset="false"><tag k="addr:street" v="Kirtomy Loop,1100"/><tag k="addr:housenumber" v="919"/></node><node id="-25" lat="30.466364" lon="-97.637647" changeset="false"><tag k="addr:street" v="Kirtomy Loop,1100"/><tag k="addr:housenumber" v="910"/></node><node id="-26" lat="30.466473" lon="-97.635267" changeset="false"><tag k="addr:street" v="Tobermory Drive"/><tag k="addr:housenumber" v="17421"/></node><node id="-27" lat="30.464101" lon="-97.639357" changeset="false"><tag k="addr:street" v="Valley Glen Road"/><tag k="addr:housenumber" v="17207"/></node><node id="-28" lat="30.469444" lon="-97.641685" changeset="false"><tag k="addr:street" v="Tobermory Drive"/><tag k="addr:housenumber" v="17109"/></node><node id="-29" lat="30.466904" lon="-97.634295" changeset="false"><tag k="addr:street" v="Tobermory Drive"/><tag k="addr:housenumber" v="17517"/></node><node id="-30" lat="30.470138" lon="-97.639295" changeset="false"><tag k="addr:street" v="Strontian Pass"/><tag k="addr:housenumber" v="17616"/></node><node id="-31" lat="30.469159" lon="-97.635735" changeset="false"><tag k="addr:street" v="Loch Linnhe Loop"/><tag k="addr:housenumber" v="17545"/></node><node id="-32" lat="30.469974" lon="-97.640548" changeset="false"><tag k="addr:street" v="Kentra Drive"/><tag k="addr:housenumber" v="1129"/></node><node id="-33" lat="30.46614" lon="-97.636997" changeset="false"><tag k="addr:street" v="Kirtomy Loop,1100"/><tag k="addr:housenumber" v="915"/></node><node id="-34" lat="30.4626" lon="-97.641446" changeset="false"><tag k="addr:street" v="Disraeli Circle"/><tag k="addr:housenumber" v="1010"/></node><node id="-35" lat="30.462522" lon="-97.641453" changeset="false"><tag k="addr:street" v="Disraeli Circle"/><tag k="addr:housenumber" v="1008"/></node><node id="-36" lat="30.46277" lon="-97.641433" changeset="false"><tag k="addr:street" v="Disraeli Circle"/><tag k="addr:housenumber" v="1014"/></node><node id="-37" lat="30.462696" lon="-97.641439" changeset="false"><tag k="addr:street" v="Disraeli Circle"/><tag k="addr:housenumber" v="1012"/></node><node id="-38" lat="30.462448" lon="-97.641459" changeset="false"><tag k="addr:street" v="Disraeli Circle"/><tag k="addr:housenumber" v="1006"/></node><node id="-39" lat="30.462361" lon="-97.641456" changeset="false"><tag k="addr:street" v="Disraeli Circle"/><tag k="addr:housenumber" v="1004"/></node><node id="-40" lat="30.46286" lon="-97.641419" changeset="false"><tag k="addr:street" v="Disraeli Circle"/><tag k="addr:housenumber" v="1016"/></node><node id="-41" lat="30.462954" lon="-97.641378" changeset="false"><tag k="addr:street" v="Disraeli Circle"/><tag k="addr:housenumber" v="1018"/></node><node id="-42" lat="30.463088" lon="-97.64138" changeset="false"><tag k="addr:street" v="Disraeli Circle"/><tag k="addr:housenumber" v="1020"/></node><node id="-43" lat="30.463147" lon="-97.641451" changeset="false"><tag k="addr:street" v="Disraeli Circle"/><tag k="addr:housenumber" v="1022"/></node><node id="-44" lat="30.463114" lon="-97.642478" changeset="false"><tag k="addr:street" v="Disraeli Circle"/><tag k="addr:housenumber" v="1100"/></node><node id="-45" lat="30.463124" lon="-97.642397" changeset="false"><tag k="addr:street" v="Disraeli Circle"/><tag k="addr:housenumber" v="1040"/></node></osm>