<?xml version="1.0" encoding="UTF-8"?><osm version="0.6" generator="github.com/aaronlidman/osm-and-geojson"><node id="-1" lat="30.297438" lon="-98.090185" changeset="false"><tag k="addr:street" v="Bell Springs Road"/><tag k="addr:housenumber" v="716"/><tag k="coa:place_id" v="1147421"/></node><node id="-2" lat="30.282285" lon="-98.067752" changeset="false"><tag k="addr:street" v="Horseshoe Drive"/><tag k="addr:housenumber" v="118"/><tag k="coa:place_id" v="3257986"/></node><node id="-3" lat="30.283192" lon="-98.069027" changeset="false"><tag k="addr:street" v="Saddlehorn Drive"/><tag k="addr:housenumber" v="108"/><tag k="coa:place_id" v="3257992"/></node><node id="-4" lat="30.280656" lon="-98.066662" changeset="false"><tag k="addr:street" v="Horseshoe Drive"/><tag k="addr:housenumber" v="113"/><tag k="coa:place_id" v="3257970"/></node><node id="-5" lat="30.285932" lon="-98.073258" changeset="false"><tag k="addr:street" v="Winchester Drive"/><tag k="addr:housenumber" v="403"/><tag k="coa:place_id" v="3258530"/></node><node id="-6" lat="30.289844" lon="-98.079785" changeset="false"><tag k="addr:street" v="Saddlehorn Drive"/><tag k="addr:housenumber" v="609"/><tag k="coa:place_id" v="3258347"/></node><node id="-7" lat="30.292663" lon="-98.084746" changeset="false"><tag k="addr:street" v="Hamilton Pool Road"/><tag k="addr:housenumber" v="20011"/><tag k="coa:place_id" v="3258294"/></node><node id="-8" lat="30.2903" lon="-98.080505" changeset="false"><tag k="addr:street" v="High Plains Drive"/><tag k="addr:housenumber" v="105"/><tag k="coa:place_id" v="3258305"/></node><node id="-9" lat="30.2834" lon="-98.070347" changeset="false"><tag k="addr:street" v="Saddlehorn Drive"/><tag k="addr:housenumber" v="107"/><tag k="coa:place_id" v="3382343"/></node><node id="-10" lat="30.294897" lon="-98.087076" changeset="false"><tag k="addr:street" v="Hamilton Pool Road"/><tag k="addr:housenumber" v="20215"/><tag k="coa:place_id" v="1147347"/></node><node id="-11" lat="30.289125" lon="-98.077741" changeset="false"><tag k="addr:street" v="Saddlehorn Drive"/><tag k="addr:housenumber" v="601"/><tag k="coa:place_id" v="3258337"/></node><node id="-12" lat="30.289286" lon="-98.078585" changeset="false"><tag k="addr:street" v="Saddlehorn Drive"/><tag k="addr:housenumber" v="603"/><tag k="coa:place_id" v="3258345"/></node><node id="-13" lat="30.282586" lon="-98.06913" changeset="false"><tag k="addr:street" v="Saddlehorn Drive"/><tag k="addr:housenumber" v="106"/><tag k="coa:place_id" v="3257991"/></node><node id="-14" lat="30.287917" lon="-98.078062" changeset="false"><tag k="addr:street" v="Winchester Drive"/><tag k="addr:housenumber" v="602"/><tag k="coa:place_id" v="3258517"/></node><node id="-15" lat="30.297303" lon="-98.089036" changeset="false"><tag k="addr:street" v="Bell Springs Road"/><tag k="addr:housenumber" v="717"/><tag k="coa:place_id" v="1147423"/></node><node id="-16" lat="30.281451" lon="-98.067803" changeset="false"><tag k="addr:street" v="Horseshoe Drive"/><tag k="addr:housenumber" v="112"/><tag k="coa:place_id" v="3257981"/></node><node id="-17" lat="30.317721" lon="-98.119137" changeset="false"><tag k="addr:street" v="Cripple Creek Stage Road"/><tag k="addr:housenumber" v="1915"/><tag k="coa:place_id" v="3381963"/></node><node id="-18" lat="30.293046" lon="-98.085422" changeset="false"><tag k="addr:street" v="Hamilton Pool Road"/><tag k="addr:housenumber" v="20101"/><tag k="coa:place_id" v="3258297"/></node><node id="-19" lat="30.287494" lon="-98.075882" changeset="false"><tag k="addr:street" v="Winchester Drive"/><tag k="addr:housenumber" v="504"/><tag k="coa:place_id" v="3258498"/></node><node id="-20" lat="30.289577" lon="-98.079292" changeset="false"><tag k="addr:street" v="Saddlehorn Drive"/><tag k="addr:housenumber" v="607"/><tag k="coa:place_id" v="3258346"/></node><node id="-21" lat="30.286188" lon="-98.07382" changeset="false"><tag k="addr:street" v="Winchester Drive"/><tag k="addr:housenumber" v="405"/><tag k="coa:place_id" v="3258531"/></node><node id="-22" lat="30.287426" lon="-98.075339" changeset="false"><tag k="addr:street" v="Winchester Drive"/><tag k="addr:housenumber" v="502"/><tag k="coa:place_id" v="3258497"/></node><node id="-23" lat="30.285319" lon="-98.072389" changeset="false"><tag k="addr:street" v="Winchester Drive"/><tag k="addr:housenumber" v="309"/><tag k="coa:place_id" v="3258525"/></node><node id="-24" lat="30.281099" lon="-98.066615" changeset="false"><tag k="addr:street" v="Horseshoe Drive"/><tag k="addr:housenumber" v="115"/><tag k="coa:place_id" v="3257973"/></node><node id="-25" lat="30.286305" lon="-98.074488" changeset="false"><tag k="addr:street" v="Winchester Drive"/><tag k="addr:housenumber" v="407"/><tag k="coa:place_id" v="3258532"/></node><node id="-26" lat="30.287786" lon="-98.077515" changeset="false"><tag k="addr:street" v="Winchester Drive"/><tag k="addr:housenumber" v="600"/><tag k="coa:place_id" v="3258516"/></node><node id="-27" lat="30.285621" lon="-98.0728" changeset="false"><tag k="addr:street" v="Winchester Drive"/><tag k="addr:housenumber" v="401"/><tag k="coa:place_id" v="3258529"/></node><node id="-28" lat="30.296062" lon="-98.088556" changeset="false"><tag k="addr:street" v="Hamilton Pool Road"/><tag k="addr:housenumber" v="20301"/><tag k="coa:place_id" v="1147346"/></node><node id="-29" lat="30.289028" lon="-98.07717" changeset="false"><tag k="addr:street" v="Saddlehorn Drive"/><tag k="addr:housenumber" v="509"/><tag k="coa:place_id" v="3258334"/></node></osm>