<?xml version="1.0" encoding="UTF-8"?><osm version="0.6" generator="github.com/aaronlidman/osm-and-geojson"><node id="-1" lat="30.278463" lon="-97.691011" changeset="false"><tag k="addr:street" v="Luna Street"/><tag k="addr:housenumber" v="1200"/><tag k="coa:place_id" v="176925"/></node><node id="-2" lat="30.282787" lon="-97.690053" changeset="false"><tag k="addr:street" v="J J Seabrook Drive"/><tag k="addr:housenumber" v="1703"/><tag k="coa:place_id" v="108533"/></node><node id="-3" lat="30.275881" lon="-97.695162" changeset="false"><tag k="addr:street" v="Pennsylvania Avenue"/><tag k="addr:housenumber" v="3504"/><tag k="coa:place_id" v="256796"/></node><node id="-4" lat="30.282117" lon="-97.692824" changeset="false"><tag k="addr:street" v="Perez Street"/><tag k="addr:housenumber" v="1604"/><tag k="coa:place_id" v="108553"/></node><node id="-5" lat="30.282331" lon="-97.685192" changeset="false"><tag k="addr:street" v="Springdale Road"/><tag k="addr:housenumber" v="1416"/><tag k="coa:place_id" v="510459"/></node><node id="-6" lat="30.284418" lon="-97.687199" changeset="false"><tag k="addr:street" v="Astor Place"/><tag k="addr:housenumber" v="1712"/><tag k="coa:place_id" v="3114238"/></node><node id="-7" lat="30.282615" lon="-97.690569" changeset="false"><tag k="addr:street" v="J J Seabrook Drive"/><tag k="addr:housenumber" v="1618"/><tag k="coa:place_id" v="108523"/></node><node id="-8" lat="30.276968" lon="-97.697479" changeset="false"><tag k="addr:street" v="Greenwood Avenue"/><tag k="addr:housenumber" v="1196"/><tag k="coa:place_id" v="256946"/></node><node id="-9" lat="30.280853" lon="-97.691079" changeset="false"><tag k="addr:street" v="Luna Street"/><tag k="addr:housenumber" v="1407"/><tag k="coa:place_id" v="240474"/></node><node id="-10" lat="30.275809" lon="-97.696349" changeset="false"><tag k="addr:street" v="Pennsylvania Avenue"/><tag k="addr:housenumber" v="3406"/><tag k="coa:place_id" v="256754"/></node><node id="-11" lat="30.28204" lon="-97.692127" changeset="false"><tag k="addr:street" v="J J Seabrook Drive"/><tag k="addr:housenumber" v="1605"/><tag k="coa:place_id" v="192487"/></node><node id="-12" lat="30.282324" lon="-97.692376" changeset="false"><tag k="addr:street" v="Perez Street"/><tag k="addr:housenumber" v="1601"/><tag k="coa:place_id" v="3309022"/></node><node id="-13" lat="30.281117" lon="-97.693656" changeset="false"><tag k="addr:street" v="Deloney Street"/><tag k="addr:housenumber" v="1600"/><tag k="coa:place_id" v="3292469"/></node><node id="-14" lat="30.274027" lon="-97.694506" changeset="false"><tag k="addr:street" v="Oak Springs Drive"/><tag k="addr:housenumber" v="3600"/><tag k="coa:place_id" v="257144"/></node><node id="-15" lat="30.273967" lon="-97.695009" changeset="false"><tag k="addr:street" v="Oak Springs Drive"/><tag k="addr:housenumber" v="3508"/><tag k="coa:place_id" v="847707"/></node><node id="-16" lat="30.281781" lon="-97.690278" changeset="false"><tag k="addr:street" v="E 16th Street"/><tag k="addr:housenumber" v="3910"/><tag k="coa:place_id" v="146844"/></node><node id="-17" lat="30.281156" lon="-97.692082" changeset="false"><tag k="addr:street" v="Perez Street"/><tag k="addr:housenumber" v="1413"/><tag k="coa:place_id" v="256046"/></node><node id="-18" lat="30.281067" lon="-97.686292" changeset="false"><tag k="addr:street" v="Springdale Road"/><tag k="addr:housenumber" v="1400"/><tag k="coa:place_id" v="1104348"/></node><node id="-19" lat="30.281997" lon="-97.69231" changeset="false"><tag k="addr:street" v="J J Seabrook Drive"/><tag k="addr:housenumber" v="1603"/><tag k="coa:place_id" v="192499"/></node><node id="-20" lat="30.277267" lon="-97.693624" changeset="false"><tag k="addr:street" v="Grant Street"/><tag k="addr:housenumber" v="3604"/><tag k="coa:place_id" v="69868"/></node><node id="-21" lat="30.278935" lon="-97.692666" changeset="false"><tag k="addr:street" v="Deloney Street"/><tag k="addr:housenumber" v="1211"/><tag k="coa:place_id" v="256340"/></node><node id="-22" lat="30.28033" lon="-97.690997" changeset="false"><tag k="addr:street" v="Luna Street"/><tag k="addr:housenumber" v="1313"/><tag k="coa:place_id" v="3051884"/></node><node id="-23" lat="30.277109" lon="-97.697982" changeset="false"><tag k="addr:street" v="East 12th Street"/><tag k="addr:housenumber" v="3333"/><tag k="coa:place_id" v="256976"/></node><node id="-24" lat="30.282808" lon="-97.690424" changeset="false"><tag k="addr:street" v="J J Seabrook Drive"/><tag k="addr:housenumber" v="1700"/><tag k="coa:place_id" v="108546"/></node><node id="-25" lat="30.279045" lon="-97.689199" changeset="false"><tag k="addr:street" v="Cometa Street"/><tag k="addr:housenumber" v="1205"/><tag k="coa:place_id" v="297338"/></node><node id="-26" lat="30.27728" lon="-97.69699" changeset="false"><tag k="addr:street" v="East 12th Street"/><tag k="addr:housenumber" v="3403"/><tag k="coa:place_id" v="256658"/></node><node id="-27" lat="30.275433" lon="-97.695064" changeset="false"><tag k="addr:street" v="Pennsylvania Avenue"/><tag k="addr:housenumber" v="3509"/><tag k="coa:place_id" v="3363412"/></node><node id="-28" lat="30.275649" lon="-97.694007" changeset="false"><tag k="addr:street" v="Pennsylvania Avenue"/><tag k="addr:housenumber" v="3613"/><tag k="coa:place_id" v="3655253"/></node><node id="-29" lat="30.284089" lon="-97.687508" changeset="false"><tag k="addr:street" v="Astor Place"/><tag k="addr:housenumber" v="1704"/><tag k="coa:place_id" v="3114234"/></node><node id="-30" lat="30.281349" lon="-97.693698" changeset="false"><tag k="addr:street" v="Deloney Street"/><tag k="addr:housenumber" v="1604"/><tag k="coa:place_id" v="3292470"/></node><node id="-31" lat="30.284497" lon="-97.687805" changeset="false"><tag k="addr:street" v="Temple Drive"/><tag k="addr:housenumber" v="1805"/><tag k="coa:place_id" v="364658"/></node><node id="-32" lat="30.280282" lon="-97.693482" changeset="false"><tag k="addr:street" v="Deloney Street"/><tag k="addr:housenumber" v="1404"/><tag k="coa:place_id" v="256418"/></node><node id="-33" lat="30.274932" lon="-97.696972" changeset="false"><tag k="addr:street" v="Pennsylvania Avenue"/><tag k="addr:housenumber" v="3313"/><tag k="coa:place_id" v="3187056"/></node><node id="-34" lat="30.275517" lon="-97.695457" changeset="false"><tag k="addr:street" v="Pennsylvania Avenue"/><tag k="addr:housenumber" v="3503"/><tag k="coa:place_id" v="256844"/></node><node id="-35" lat="30.28438" lon="-97.689558" changeset="false"><tag k="addr:street" v="Victoria Drive"/><tag k="addr:housenumber" v="1805"/><tag k="coa:place_id" v="364610"/></node><node id="-36" lat="30.275658" lon="-97.697295" changeset="false"><tag k="addr:street" v="Greenwood Avenue"/><tag k="addr:housenumber" v="1180"/><tag k="coa:place_id" v="3121375"/></node><node id="-37" lat="30.28517" lon="-97.683335" changeset="false"><tag k="addr:street" v="Springdale Road"/><tag k="addr:housenumber" v="1810"/><tag k="coa:place_id" v="3046611"/></node><node id="-38" lat="30.27527" lon="-97.697049" changeset="false"><tag k="addr:street" v="Pennsylvania Avenue"/><tag k="addr:housenumber" v="3311"/><tag k="coa:place_id" v="256898"/></node><node id="-39" lat="30.284483" lon="-97.689974" changeset="false"><tag k="addr:street" v="Victoria Drive"/><tag k="addr:housenumber" v="1806 1/2"/><tag k="coa:place_id" v="3216834"/></node><node id="-40" lat="30.283903" lon="-97.685105" changeset="false"><tag k="addr:street" v="Kitty Avenue"/><tag k="addr:housenumber" v="4502"/><tag k="coa:place_id" v="3388713"/></node><node id="-41" lat="30.275657" lon="-97.693879" changeset="false"><tag k="addr:street" v="Pennsylvania Avenue"/><tag k="addr:housenumber" v="3615"/><tag k="coa:place_id" v="3655254"/></node><node id="-42" lat="30.276765" lon="-97.699594" changeset="false"><tag k="addr:street" v="East 12th Street"/><tag k="addr:housenumber" v="3311"/><tag k="coa:place_id" v="3128675"/></node><node id="-43" lat="30.276097" lon="-97.695644" changeset="false"><tag k="addr:street" v="Pennsylvania Avenue"/><tag k="addr:housenumber" v="3416"/><tag k="coa:place_id" v="256778"/></node><node id="-44" lat="30.278232" lon="-97.692497" changeset="false"><tag k="addr:street" v="East 12th Street"/><tag k="addr:housenumber" v="3800"/><tag k="coa:place_id" v="297086"/></node><node id="-45" lat="30.282389" lon="-97.690341" changeset="false"><tag k="addr:street" v="J J Seabrook Drive"/><tag k="addr:housenumber" v="1621"/><tag k="coa:place_id" v="108527"/></node><node id="-46" lat="30.278999" lon="-97.688325" changeset="false"><tag k="addr:street" v="East 12th Street"/><tag k="addr:housenumber" v="4116"/><tag k="coa:place_id" v="297374"/></node><node id="-47" lat="30.281924" lon="-97.689094" changeset="false"><tag k="addr:street" v="Leslie Avenue"/><tag k="addr:housenumber" v="4103"/><tag k="coa:place_id" v="3121061"/></node><node id="-48" lat="30.282701" lon="-97.691782" changeset="false"><tag k="addr:street" v="Chase Circle"/><tag k="addr:housenumber" v="3903"/><tag k="coa:place_id" v="108515"/></node><node id="-49" lat="30.275176" lon="-97.694012" changeset="false"><tag k="addr:street" v="Pennsylvania Avenue"/><tag k="addr:housenumber" v="3611"/><tag k="coa:place_id" v="3052091"/></node><node id="-50" lat="30.276757" lon="-97.69981" changeset="false"><tag k="addr:street" v="East 12th Street"/><tag k="addr:housenumber" v="3301"/><tag k="coa:place_id" v="3128674"/></node><node id="-51" lat="30.279966" lon="-97.693323" changeset="false"><tag k="addr:street" v="Deloney Street"/><tag k="addr:housenumber" v="1310"/><tag k="coa:place_id" v="167069"/></node><node id="-52" lat="30.274633" lon="-97.698163" changeset="false"><tag k="addr:street" v="Airport Boulevard"/><tag k="addr:housenumber" v="1165"/><tag k="coa:place_id" v="962091"/></node><node id="-53" lat="30.28149" lon="-97.692028" changeset="false"><tag k="addr:street" v="E 16th Street"/><tag k="addr:housenumber" v="3816"/><tag k="coa:place_id" v="3043229"/></node><node id="-54" lat="30.279362" lon="-97.689989" changeset="false"><tag k="addr:street" v="Cometa Street"/><tag k="addr:housenumber" v="1210"/><tag k="coa:place_id" v="3222735"/></node><node id="-55" lat="30.279141" lon="-97.6873" changeset="false"><tag k="addr:street" v="East 12th Street"/><tag k="addr:housenumber" v="4130"/><tag k="coa:place_id" v="297398"/></node><node id="-56" lat="30.274416" lon="-97.697859" changeset="false"><tag k="addr:street" v="Airport Boulevard"/><tag k="addr:housenumber" v="1157"/><tag k="coa:place_id" v="3363872"/></node><node id="-57" lat="30.281835" lon="-97.695355" changeset="false"><tag k="addr:street" v="E M Franklin Avenue"/><tag k="addr:housenumber" v="1701"/><tag k="coa:place_id" v="296048"/></node><node id="-58" lat="30.285397" lon="-97.683718" changeset="false"><tag k="addr:street" v="East Martin Luther King Jr Boulevard"/><tag k="addr:housenumber" v="4507"/><tag k="coa:place_id" v="366620"/></node><node id="-59" lat="30.278403" lon="-97.692536" changeset="false"><tag k="addr:street" v="Deloney Street"/><tag k="addr:housenumber" v="1203"/><tag k="coa:place_id" v="3363579"/></node><node id="-60" lat="30.275636" lon="-97.694274" changeset="false"><tag k="addr:street" v="Pennsylvania Avenue"/><tag k="addr:housenumber" v="3609"/><tag k="coa:place_id" v="3655255"/></node><node id="-61" lat="30.27917" lon="-97.689372" changeset="false"><tag k="addr:street" v="Cometa Street"/><tag k="addr:housenumber" v="1207"/><tag k="coa:place_id" v="3354753"/></node><node id="-62" lat="30.276505" lon="-97.699714" changeset="false"><tag k="addr:street" v="Airport Boulevard"/><tag k="addr:housenumber" v="1199"/><tag k="coa:place_id" v="257060"/></node><node id="-63" lat="30.284066" lon="-97.693428" changeset="false"><tag k="addr:street" v="East Martin Luther King Jr Boulevard"/><tag k="addr:housenumber" v="3809"/><tag k="coa:place_id" v="255710"/></node><node id="-64" lat="30.282841" lon="-97.69151" changeset="false"><tag k="addr:street" v="Chase Circle"/><tag k="addr:housenumber" v="3905"/><tag k="coa:place_id" v="562510"/></node><node id="-65" lat="30.281044" lon="-97.695264" changeset="false"><tag k="addr:street" v="E M Franklin Avenue"/><tag k="addr:housenumber" v="1603"/><tag k="coa:place_id" v="296060"/></node><node id="-66" lat="30.279302" lon="-97.689489" changeset="false"><tag k="addr:street" v="Cometa Street"/><tag k="addr:housenumber" v="1209"/><tag k="coa:place_id" v="797709"/></node><node id="-67" lat="30.2805" lon="-97.692435" changeset="false"><tag k="addr:street" v="Perez Street"/><tag k="addr:housenumber" v="1404"/><tag k="coa:place_id" v="122183"/></node><node id="-68" lat="30.275971" lon="-97.694622" changeset="false"><tag k="addr:street" v="Pennsylvania Avenue"/><tag k="addr:housenumber" v="3600"/><tag k="coa:place_id" v="256814"/></node><node id="-69" lat="30.275917" lon="-97.694812" changeset="false"><tag k="addr:street" v="Pennsylvania Avenue"/><tag k="addr:housenumber" v="3508"/><tag k="coa:place_id" v="256808"/></node><node id="-70" lat="30.285368" lon="-97.684414" changeset="false"><tag k="addr:street" v="Overhill Drive"/><tag k="addr:housenumber" v="1805"/><tag k="coa:place_id" v="613978"/></node><node id="-71" lat="30.28454" lon="-97.683719" changeset="false"><tag k="addr:street" v="Springdale Road"/><tag k="addr:housenumber" v="1802"/><tag k="coa:place_id" v="3100575"/></node><node id="-72" lat="30.275587" lon="-97.689598" changeset="false"><tag k="addr:street" v="Springdale Road"/><tag k="addr:housenumber" v="1130 1/2"/><tag k="coa:place_id" v="3043027"/></node><node id="-73" lat="30.27959" lon="-97.691266" changeset="false"><tag k="addr:street" v="Luna Street"/><tag k="addr:housenumber" v="1302"/><tag k="coa:place_id" v="255980"/></node><node id="-74" lat="30.279526" lon="-97.692824" changeset="false"><tag k="addr:street" v="Deloney Street"/><tag k="addr:housenumber" v="1305"/><tag k="coa:place_id" v="256316"/></node><node id="-75" lat="30.279575" lon="-97.687976" changeset="false"><tag k="addr:street" v="East 12th Street"/><tag k="addr:housenumber" v="4120"/><tag k="coa:place_id" v="257754"/></node><node id="-76" lat="30.279417" lon="-97.687117" changeset="false"><tag k="addr:street" v="Springdale Road"/><tag k="addr:housenumber" v="1200"/><tag k="coa:place_id" v="363710"/></node><node id="-77" lat="30.281949" lon="-97.692782" changeset="false"><tag k="addr:street" v="Perez Street"/><tag k="addr:housenumber" v="1602"/><tag k="coa:place_id" v="108552"/></node><node id="-78" lat="30.283415" lon="-97.690163" changeset="false"><tag k="addr:street" v="J J Seabrook Drive"/><tag k="addr:housenumber" v="1711"/><tag k="coa:place_id" v="108540"/></node><node id="-79" lat="30.282628" lon="-97.690094" changeset="false"><tag k="addr:street" v="J J Seabrook Drive"/><tag k="addr:housenumber" v="1701"/><tag k="coa:place_id" v="108529"/></node><node id="-80" lat="30.27886" lon="-97.693296" changeset="false"><tag k="addr:street" v="Deloney Street"/><tag k="addr:housenumber" v="1210"/><tag k="coa:place_id" v="256364"/></node><node id="-81" lat="30.28422" lon="-97.690281" changeset="false"><tag k="addr:street" v="J J Seabrook Drive"/><tag k="addr:housenumber" v="1809"/><tag k="coa:place_id" v="108545"/></node><node id="-82" lat="30.27594" lon="-97.697949" changeset="false"><tag k="addr:street" v="Ridge Drive"/><tag k="addr:housenumber" v="1185"/><tag k="coa:place_id" v="3325108"/></node><node id="-83" lat="30.277277" lon="-97.695918" changeset="false"><tag k="addr:street" v="East 12th Street"/><tag k="addr:housenumber" v="3417"/><tag k="coa:place_id" v="3363411"/></node><node id="-84" lat="30.276074" lon="-97.694006" changeset="false"><tag k="addr:street" v="Pennsylvania Avenue"/><tag k="addr:housenumber" v="3608"/><tag k="coa:place_id" v="3363413"/></node><node id="-85" lat="30.278223" lon="-97.693255" changeset="false"><tag k="addr:street" v="East 12th Street"/><tag k="addr:housenumber" v="3702"/><tag k="coa:place_id" v="5078680"/></node><node id="-86" lat="30.285456" lon="-97.683217" changeset="false"><tag k="addr:street" v="East Martin Luther King Jr Boulevard"/><tag k="addr:housenumber" v="4509"/><tag k="coa:place_id" v="366602"/></node><node id="-87" lat="30.281525" lon="-97.691849" changeset="false"><tag k="addr:street" v="E 16th Street"/><tag k="addr:housenumber" v="3818"/><tag k="coa:place_id" v="3043230"/></node><node id="-88" lat="30.280701" lon="-97.689615" changeset="false"><tag k="addr:street" v="Cometa Street"/><tag k="addr:housenumber" v="1401"/><tag k="coa:place_id" v="297266"/></node><node id="-89" lat="30.281409" lon="-97.687282" changeset="false"><tag k="addr:street" v="Marcus Place"/><tag k="addr:housenumber" v="1406"/><tag k="coa:place_id" v="365078"/></node><node id="-90" lat="30.274107" lon="-97.69523" changeset="false"><tag k="addr:street" v="Oak Springs Drive"/><tag k="addr:housenumber" v="3504"/><tag k="coa:place_id" v="257132"/></node><node id="-91" lat="30.276634" lon="-97.698177" changeset="false"><tag k="addr:street" v="Ridge Drive"/><tag k="addr:housenumber" v="1197"/><tag k="coa:place_id" v="5081806"/></node><node id="-92" lat="30.278733" lon="-97.69216" changeset="false"><tag k="addr:street" v="Perez Street"/><tag k="addr:housenumber" v="1206"/><tag k="coa:place_id" v="5188362"/></node><node id="-93" lat="30.282057" lon="-97.691786" changeset="false"><tag k="addr:street" v="J J Seabrook Drive"/><tag k="addr:housenumber" v="1609"/><tag k="coa:place_id" v="3354755"/></node><node id="-94" lat="30.277238" lon="-97.696246" changeset="false"><tag k="addr:street" v="East 12th Street"/><tag k="addr:housenumber" v="3413"/><tag k="coa:place_id" v="3363410"/></node><node id="-95" lat="30.275555" lon="-97.695314" changeset="false"><tag k="addr:street" v="Pennsylvania Avenue"/><tag k="addr:housenumber" v="3505"/><tag k="coa:place_id" v="3302235"/></node><node id="-96" lat="30.28019" lon="-97.693474" changeset="false"><tag k="addr:street" v="Deloney Street"/><tag k="addr:housenumber" v="1402"/><tag k="coa:place_id" v="5093297"/></node><node id="-97" lat="30.27598" lon="-97.697696" changeset="false"><tag k="addr:street" v="Ridge Drive"/><tag k="addr:housenumber" v="1187"/><tag k="coa:place_id" v="3325109"/></node><node id="-98" lat="30.28251" lon="-97.691243" changeset="false"><tag k="addr:street" v="J J Seabrook Drive"/><tag k="addr:housenumber" v="1614"/><tag k="coa:place_id" v="3047465"/></node><node id="-99" lat="30.284076" lon="-97.691062" changeset="false"><tag k="addr:street" v="Adriane Drive"/><tag k="addr:housenumber" v="1805"/><tag k="coa:place_id" v="3354769"/></node><node id="-100" lat="30.284595" lon="-97.686998" changeset="false"><tag k="addr:street" v="Astor Place"/><tag k="addr:housenumber" v="1716"/><tag k="coa:place_id" v="5052936"/></node><node id="-101" lat="30.282508" lon="-97.693485" changeset="false"><tag k="addr:street" v="Deloney Street"/><tag k="addr:housenumber" v="1703"/><tag k="coa:place_id" v="255764"/></node><node id="-102" lat="30.279806" lon="-97.690889" changeset="false"><tag k="addr:street" v="Luna Street"/><tag k="addr:housenumber" v="1305"/><tag k="coa:place_id" v="255896"/></node><node id="-103" lat="30.273739" lon="-97.690849" changeset="false"><tag k="addr:street" v="Oak Springs Drive"/><tag k="addr:housenumber" v="3810"/><tag k="coa:place_id" v="90512"/></node><node id="-104" lat="30.283357" lon="-97.690541" changeset="false"><tag k="addr:street" v="J J Seabrook Drive"/><tag k="addr:housenumber" v="1706"/><tag k="coa:place_id" v="108551"/></node><node id="-105" lat="30.280622" lon="-97.692463" changeset="false"><tag k="addr:street" v="Perez Street"/><tag k="addr:housenumber" v="1406"/><tag k="coa:place_id" v="146683"/></node><node id="-106" lat="30.282821" lon="-97.689462" changeset="false"><tag k="addr:street" v="Victoria Drive"/><tag k="addr:housenumber" v="1700"/><tag k="coa:place_id" v="364556"/></node><node id="-107" lat="30.281695" lon="-97.69538" changeset="false"><tag k="addr:street" v="E M Franklin Avenue"/><tag k="addr:housenumber" v="1613"/><tag k="coa:place_id" v="296054"/></node><node id="-108" lat="30.281437" lon="-97.689135" changeset="false"><tag k="addr:street" v="Waldorf Avenue"/><tag k="addr:housenumber" v="1412"/><tag k="coa:place_id" v="3029249"/></node><node id="-109" lat="30.284398" lon="-97.683847" changeset="false"><tag k="addr:street" v="Springdale Road"/><tag k="addr:housenumber" v="1800"/><tag k="coa:place_id" v="3135973"/></node><node id="-110" lat="30.280471" lon="-97.686476" changeset="false"><tag k="addr:street" v="Springdale Road"/><tag k="addr:housenumber" v="1308"/><tag k="coa:place_id" v="1104354"/></node><node id="-111" lat="30.28404" lon="-97.690308" changeset="false"><tag k="addr:street" v="J J Seabrook Drive"/><tag k="addr:housenumber" v="1807"/><tag k="coa:place_id" v="108541"/></node><node id="-112" lat="30.273932" lon="-97.697636" changeset="false"><tag k="addr:street" v="Airport Boulevard"/><tag k="addr:housenumber" v="1151"/><tag k="coa:place_id" v="257078"/></node><node id="-113" lat="30.284475" lon="-97.687845" changeset="false"><tag k="addr:street" v="Temple Drive"/><tag k="addr:housenumber" v="1803"/><tag k="coa:place_id" v="364652"/></node><node id="-114" lat="30.275579" lon="-97.695189" changeset="false"><tag k="addr:street" v="Pennsylvania Avenue"/><tag k="addr:housenumber" v="3507"/><tag k="coa:place_id" v="256838"/></node><node id="-115" lat="30.280728" lon="-97.691051" changeset="false"><tag k="addr:street" v="Luna Street"/><tag k="addr:housenumber" v="1405"/><tag k="coa:place_id" v="3126589"/></node><node id="-116" lat="30.282773" lon="-97.692478" changeset="false"><tag k="addr:street" v="Perez Street"/><tag k="addr:housenumber" v="1705"/><tag k="coa:place_id" v="179487"/></node><node id="-117" lat="30.28084" lon="-97.692125" changeset="false"><tag k="addr:street" v="Perez Street"/><tag k="addr:housenumber" v="1409"/><tag k="coa:place_id" v="3298829"/></node><node id="-118" lat="30.282503" lon="-97.690208" changeset="false"><tag k="addr:street" v="J J Seabrook Drive"/><tag k="addr:housenumber" v="1623"/><tag k="coa:place_id" v="108528"/></node><node id="-119" lat="30.279579" lon="-97.687085" changeset="false"><tag k="addr:street" v="Springdale Road"/><tag k="addr:housenumber" v="1202"/><tag k="coa:place_id" v="363716"/></node><node id="-120" lat="30.276203" lon="-97.698349" changeset="false"><tag k="addr:street" v="Ridge Drive"/><tag k="addr:housenumber" v="1190 1/2"/><tag k="coa:place_id" v="257030"/></node><node id="-121" lat="30.281036" lon="-97.692546" changeset="false"><tag k="addr:street" v="Perez Street"/><tag k="addr:housenumber" v="1412"/><tag k="coa:place_id" v="256244"/></node><node id="-122" lat="30.277917" lon="-97.692791" changeset="false"><tag k="addr:street" v="East 12th Street"/><tag k="addr:housenumber" v="3709"/><tag k="coa:place_id" v="256526"/></node><node id="-123" lat="30.2815" lon="-97.688992" changeset="false"><tag k="addr:street" v="Waldorf Avenue"/><tag k="addr:housenumber" v="1414"/><tag k="coa:place_id" v="3029250"/></node><node id="-124" lat="30.284251" lon="-97.687317" changeset="false"><tag k="addr:street" v="Astor Place"/><tag k="addr:housenumber" v="1708"/><tag k="coa:place_id" v="3114236"/></node><node id="-125" lat="30.27821" lon="-97.690723" changeset="false"><tag k="addr:street" v="East 12th Street"/><tag k="addr:housenumber" v="4001"/><tag k="coa:place_id" v="1011230"/></node><node id="-126" lat="30.285244" lon="-97.685624" changeset="false"><tag k="addr:street" v="East Martin Luther King Jr Boulevard"/><tag k="addr:housenumber" v="4301"/><tag k="coa:place_id" v="694173"/></node><node id="-127" lat="30.275541" lon="-97.693564" changeset="false"><tag k="addr:street" v="Pennsylvania Avenue"/><tag k="addr:housenumber" v="3617"/><tag k="coa:place_id" v="3116774"/></node><node id="-128" lat="30.280165" lon="-97.691359" changeset="false"><tag k="addr:street" v="Luna Street"/><tag k="addr:housenumber" v="1310"/><tag k="coa:place_id" v="255998"/></node><node id="-129" lat="30.282655" lon="-97.688645" changeset="false"><tag k="addr:street" v="Astor Place"/><tag k="addr:housenumber" v="1602"/><tag k="coa:place_id" v="364700"/></node><node id="-130" lat="30.278831" lon="-97.689124" changeset="false"><tag k="addr:street" v="East 12th Street"/><tag k="addr:housenumber" v="4104"/><tag k="coa:place_id" v="421395"/></node><node id="-131" lat="30.282051" lon="-97.691583" changeset="false"><tag k="addr:street" v="J J Seabrook Drive"/><tag k="addr:housenumber" v="1611"/><tag k="coa:place_id" v="108517"/></node><node id="-132" lat="30.283588" lon="-97.688901" changeset="false"><tag k="addr:street" v="Monticello Circle"/><tag k="addr:housenumber" v="4103"/><tag k="coa:place_id" v="551296"/></node><node id="-133" lat="30.278237" lon="-97.693161" changeset="false"><tag k="addr:street" v="East 12th Street"/><tag k="addr:housenumber" v="3706"/><tag k="coa:place_id" v="297074"/></node><node id="-134" lat="30.282385" lon="-97.695541" changeset="false"><tag k="addr:street" v="E M Franklin Avenue"/><tag k="addr:housenumber" v="1709"/><tag k="coa:place_id" v="296042"/></node><node id="-135" lat="30.285122" lon="-97.685679" changeset="false"><tag k="addr:street" v="Elmira Road"/><tag k="addr:housenumber" v="1804"/><tag k="coa:place_id" v="3070742"/></node><node id="-136" lat="30.283593" lon="-97.69568" changeset="false"><tag k="addr:street" v="East Martin Luther King Jr Boulevard"/><tag k="addr:housenumber" v="3601"/><tag k="coa:place_id" v="296030"/></node><node id="-137" lat="30.275915" lon="-97.69443" changeset="false"><tag k="addr:street" v="Pennsylvania Avenue"/><tag k="addr:housenumber" v="3602"/><tag k="coa:place_id" v="256820"/></node><node id="-138" lat="30.279066" lon="-97.687937" changeset="false"><tag k="addr:street" v="East 12th Street"/><tag k="addr:housenumber" v="4122"/><tag k="coa:place_id" v="297392"/></node><node id="-139" lat="30.278631" lon="-97.693544" changeset="false"><tag k="addr:street" v="Deloney Street"/><tag k="addr:housenumber" v="1206"/><tag k="coa:place_id" v="1121847"/></node><node id="-140" lat="30.276751" lon="-97.697005" changeset="false"><tag k="addr:street" v="Greenwood Avenue"/><tag k="addr:housenumber" v="1197"/><tag k="coa:place_id" v="338350"/></node><node id="-141" lat="30.285231" lon="-97.684311" changeset="false"><tag k="addr:street" v="East Martin Luther King Jr Boulevard"/><tag k="addr:housenumber" v="4501"/><tag k="coa:place_id" v="90734"/></node><node id="-142" lat="30.2853" lon="-97.684047" changeset="false"><tag k="addr:street" v="East Martin Luther King Jr Boulevard"/><tag k="addr:housenumber" v="4505"/><tag k="coa:place_id" v="366596"/></node><node id="-143" lat="30.285241" lon="-97.684105" changeset="false"><tag k="addr:street" v="East Martin Luther King Jr Boulevard"/><tag k="addr:housenumber" v="4503"/><tag k="coa:place_id" v="366590"/></node><node id="-144" lat="30.279259" lon="-97.687709" changeset="false"><tag k="addr:street" v="East 12th Street"/><tag k="addr:housenumber" v="4134"/><tag k="coa:place_id" v="297410"/></node><node id="-145" lat="30.279296" lon="-97.687536" changeset="false"><tag k="addr:street" v="East 12th Street"/><tag k="addr:housenumber" v="4136"/><tag k="coa:place_id" v="90518"/></node></osm>