<?xml version="1.0" encoding="UTF-8"?><osm version="0.6" generator="github.com/aaronlidman/osm-and-geojson"><node id="-1" lat="30.237818" lon="-97.741462" changeset="false"><tag k="addr:street" v="Algarita Avenue"/><tag k="addr:housenumber" v="1222"/><tag k="coa:place_id" v="753434"/></node><node id="-2" lat="30.236934" lon="-97.742978" changeset="false"><tag k="addr:street" v="Glendale Place"/><tag k="addr:housenumber" v="2117"/><tag k="coa:place_id" v="3692063"/></node><node id="-3" lat="30.236694" lon="-97.740037" changeset="false"><tag k="addr:street" v="I 35 Frontage Road"/><tag k="addr:housenumber" v="2100"/><tag k="coa:place_id" v="753464"/></node><node id="-4" lat="30.238411" lon="-97.74349" changeset="false"><tag k="addr:street" v="Kenwood Avenue"/><tag k="addr:housenumber" v="2015"/><tag k="coa:place_id" v="246773"/></node><node id="-5" lat="30.23815" lon="-97.743398" changeset="false"><tag k="addr:street" v="Algarita Avenue"/><tag k="addr:housenumber" v="1105"/><tag k="coa:place_id" v="3038369"/></node><node id="-6" lat="30.238124" lon="-97.742863" changeset="false"><tag k="addr:street" v="Glendale Place"/><tag k="addr:housenumber" v="2100"/><tag k="coa:place_id" v="461426"/></node><node id="-7" lat="30.241745" lon="-97.740306" changeset="false"><tag k="addr:street" v="Fairmount Avenue"/><tag k="addr:housenumber" v="1114 1/2"/><tag k="coa:place_id" v="536618"/></node><node id="-8" lat="30.240606" lon="-97.740681" changeset="false"><tag k="addr:street" v="Gillespie Place"/><tag k="addr:housenumber" v="1127 1/2"/><tag k="coa:place_id" v="536360"/></node><node id="-9" lat="30.240454" lon="-97.738024" changeset="false"><tag k="addr:street" v="I 35 Frontage Road"/><tag k="addr:housenumber" v="1800"/><tag k="coa:place_id" v="3349922"/></node><node id="-10" lat="30.237559" lon="-97.739611" changeset="false"><tag k="addr:street" v="I 35 Frontage Road"/><tag k="addr:housenumber" v="2000"/><tag k="coa:place_id" v="461732"/></node><node id="-11" lat="30.237875" lon="-97.742295" changeset="false"><tag k="addr:street" v="Algarita Avenue"/><tag k="addr:housenumber" v="1117"/><tag k="coa:place_id" v="461552"/></node><node id="-12" lat="30.239996" lon="-97.742393" changeset="false"><tag k="addr:street" v="Kenwood Avenue"/><tag k="addr:housenumber" v="1909"/><tag k="coa:place_id" v="536246"/></node><node id="-13" lat="30.241615" lon="-97.740736" changeset="false"><tag k="addr:street" v="Fairmount Avenue"/><tag k="addr:housenumber" v="1109"/><tag k="coa:place_id" v="133207"/></node><node id="-14" lat="30.236258" lon="-97.740247" changeset="false"><tag k="addr:street" v="I 35 Frontage Road"/><tag k="addr:housenumber" v="2114 1/2"/><tag k="coa:place_id" v="1123768"/></node><node id="-15" lat="30.24218" lon="-97.739704" changeset="false"><tag k="addr:street" v="Woodland Avenue"/><tag k="addr:housenumber" v="1121"/><tag k="coa:place_id" v="536870"/></node><node id="-16" lat="30.242002" lon="-97.739327" changeset="false"><tag k="addr:street" v="Woodland Avenue"/><tag k="addr:housenumber" v="1201"/><tag k="coa:place_id" v="570626"/></node><node id="-17" lat="30.235715" lon="-97.740757" changeset="false"><tag k="addr:street" v="I 35 Frontage Road"/><tag k="addr:housenumber" v="2200"/><tag k="coa:place_id" v="753470"/></node><node id="-18" lat="30.241861" lon="-97.740243" changeset="false"><tag k="addr:street" v="Fairmount Avenue"/><tag k="addr:housenumber" v="1114"/><tag k="coa:place_id" v="536624"/></node><node id="-19" lat="30.23981" lon="-97.741074" changeset="false"><tag k="addr:street" v="Gillespie Place"/><tag k="addr:housenumber" v="1115"/><tag k="coa:place_id" v="3391140"/></node><node id="-20" lat="30.241963" lon="-97.740548" changeset="false"><tag k="addr:street" v="Fairmount Avenue"/><tag k="addr:housenumber" v="1110"/><tag k="coa:place_id" v="536636"/></node><node id="-21" lat="30.241305" lon="-97.741583" changeset="false"><tag k="addr:street" v="Kenwood Avenue"/><tag k="addr:housenumber" v="1811"/><tag k="coa:place_id" v="536540"/></node><node id="-22" lat="30.239884" lon="-97.738543" changeset="false"><tag k="addr:street" v="I 35 Frontage Road"/><tag k="addr:housenumber" v="1824"/><tag k="coa:place_id" v="753428"/></node><node id="-23" lat="30.236925" lon="-97.743843" changeset="false"><tag k="addr:street" v="East Live Oak Street"/><tag k="addr:housenumber" v="1106"/><tag k="coa:place_id" v="461480"/></node><node id="-24" lat="30.238358" lon="-97.742489" changeset="false"><tag k="addr:street" v="Algarita Avenue"/><tag k="addr:housenumber" v="1112"/><tag k="coa:place_id" v="216597"/></node><node id="-25" lat="30.240346" lon="-97.74159" changeset="false"><tag k="addr:street" v="Gillespie Place"/><tag k="addr:housenumber" v="1104"/><tag k="coa:place_id" v="536438"/></node><node id="-26" lat="30.240575" lon="-97.741772" changeset="false"><tag k="addr:street" v="Gillespie Place"/><tag k="addr:housenumber" v="1102"/><tag k="coa:place_id" v="536432"/></node><node id="-27" lat="30.236261" lon="-97.742492" changeset="false"><tag k="addr:street" v="Sage Creek Loop"/><tag k="addr:housenumber" v="2119 1/2"/><tag k="coa:place_id" v="3095546"/></node><node id="-28" lat="30.23817" lon="-97.739338" changeset="false"><tag k="addr:street" v="I 35 Frontage Road"/><tag k="addr:housenumber" v="1948"/><tag k="coa:place_id" v="753452"/></node><node id="-29" lat="30.237985" lon="-97.739417" changeset="false"><tag k="addr:street" v="I 35 Frontage Road"/><tag k="addr:housenumber" v="1950"/><tag k="coa:place_id" v="753458"/></node></osm>