<?xml version="1.0" encoding="UTF-8"?><osm version="0.6" generator="github.com/aaronlidman/osm-and-geojson"><node id="-1" lat="30.358758" lon="-97.699715" changeset="false"><tag k="addr:street" v="North Lamar Boulevard"/><tag k="addr:housenumber" v="8926"/></node><node id="-2" lat="30.362321" lon="-97.69828" changeset="false"><tag k="addr:street" v="North Lamar Boulevard"/><tag k="addr:housenumber" v="9300"/></node><node id="-3" lat="30.36536" lon="-97.702443" changeset="false"><tag k="addr:street" v="West Rundberg Lane"/><tag k="addr:housenumber" v="1107"/></node><node id="-4" lat="30.362549" lon="-97.698173" changeset="false"><tag k="addr:street" v="North Lamar Boulevard"/><tag k="addr:housenumber" v="9306"/></node><node id="-5" lat="30.363202" lon="-97.707723" changeset="false"><tag k="addr:street" v="Quail Valley Drive"/><tag k="addr:housenumber" v="9002"/></node><node id="-6" lat="30.362669" lon="-97.698098" changeset="false"><tag k="addr:street" v="North Lamar Boulevard"/><tag k="addr:housenumber" v="9310"/></node><node id="-7" lat="30.361686" lon="-97.707698" changeset="false"><tag k="addr:street" v="Viking Drive"/><tag k="addr:housenumber" v="8900"/></node><node id="-8" lat="30.361623" lon="-97.707874" changeset="false"><tag k="addr:street" v="Payton Gin Road"/><tag k="addr:housenumber" v="1200"/></node><node id="-9" lat="30.366325" lon="-97.704306" changeset="false"><tag k="addr:street" v="Quail Wood Drive"/><tag k="addr:housenumber" v="9305"/></node><node id="-10" lat="30.362531" lon="-97.697483" changeset="false"><tag k="addr:street" v="North Lamar Boulevard"/><tag k="addr:housenumber" v="9326"/></node><node id="-11" lat="30.362468" lon="-97.698202" changeset="false"><tag k="addr:street" v="North Lamar Boulevard"/><tag k="addr:housenumber" v="9304"/></node><node id="-12" lat="30.361683" lon="-97.708103" changeset="false"><tag k="addr:street" v="Payton Gin Road"/><tag k="addr:housenumber" v="1204"/></node><node id="-13" lat="30.361536" lon="-97.703728" changeset="false"><tag k="addr:street" v="Quail Creek Drive"/><tag k="addr:housenumber" v="9002"/></node><node id="-14" lat="30.363523" lon="-97.698292" changeset="false"><tag k="addr:street" v="West Rundberg Lane"/><tag k="addr:housenumber" v="831"/></node><node id="-15" lat="30.361211" lon="-97.707145" changeset="false"><tag k="addr:street" v="Payton Gin Road"/><tag k="addr:housenumber" v="1100"/></node><node id="-16" lat="30.364351" lon="-97.70514" changeset="false"><tag k="addr:street" v="Little Elm Park"/><tag k="addr:housenumber" v="1110"/></node><node id="-17" lat="30.359758" lon="-97.704059" changeset="false"><tag k="addr:street" v="Payton Gin Road"/><tag k="addr:housenumber" v="946"/></node><node id="-18" lat="30.359686" lon="-97.703909" changeset="false"><tag k="addr:street" v="Payton Gin Road"/><tag k="addr:housenumber" v="942"/></node><node id="-19" lat="30.362601" lon="-97.698143" changeset="false"><tag k="addr:street" v="North Lamar Boulevard"/><tag k="addr:housenumber" v="9308"/></node><node id="-20" lat="30.365361" lon="-97.705317" changeset="false"><tag k="addr:street" v="Quail Wood Drive"/><tag k="addr:housenumber" v="9200"/></node><node id="-21" lat="30.358662" lon="-97.701744" changeset="false"><tag k="addr:street" v="Payton Gin Road"/><tag k="addr:housenumber" v="846"/></node><node id="-22" lat="30.362761" lon="-97.707025" changeset="false"><tag k="addr:street" v="Viking Drive"/><tag k="addr:housenumber" v="8912"/></node><node id="-23" lat="30.363898" lon="-97.707869" changeset="false"><tag k="addr:street" v="Parkfield Drive"/><tag k="addr:housenumber" v="9007"/></node><node id="-24" lat="30.359648" lon="-97.703834" changeset="false"><tag k="addr:street" v="Payton Gin Road"/><tag k="addr:housenumber" v="940"/></node><node id="-25" lat="30.36199" lon="-97.697776" changeset="false"><tag k="addr:street" v="North Lamar Boulevard"/><tag k="addr:housenumber" v="9302"/></node><node id="-26" lat="30.362765" lon="-97.69796" changeset="false"><tag k="addr:street" v="North Lamar Boulevard"/><tag k="addr:housenumber" v="9316"/></node><node id="-27" lat="30.361018" lon="-97.705324" changeset="false"><tag k="addr:street" v="Collinfield Drive"/><tag k="addr:housenumber" v="8913"/></node><node id="-28" lat="30.360897" lon="-97.706437" changeset="false"><tag k="addr:street" v="Payton Gin Road"/><tag k="addr:housenumber" v="1032"/></node><node id="-29" lat="30.359723" lon="-97.703984" changeset="false"><tag k="addr:street" v="Payton Gin Road"/><tag k="addr:housenumber" v="944"/></node><node id="-30" lat="30.361558" lon="-97.706157" changeset="false"><tag k="addr:street" v="Laurel Grove Drive"/><tag k="addr:housenumber" v="8907"/></node><node id="-31" lat="30.361418" lon="-97.698249" changeset="false"><tag k="addr:street" v="North Lamar Boulevard"/><tag k="addr:housenumber" v="9200"/></node><node id="-32" lat="30.364372" lon="-97.701186" changeset="false"><tag k="addr:street" v="Indian Quail Circle"/><tag k="addr:housenumber" v="9205"/></node><node id="-33" lat="30.36232" lon="-97.697597" changeset="false"><tag k="addr:street" v="North Lamar Boulevard"/><tag k="addr:housenumber" v="9320"/></node><node id="-34" lat="30.363827" lon="-97.706171" changeset="false"><tag k="addr:street" v="Viking Drive"/><tag k="addr:housenumber" v="9010"/></node><node id="-35" lat="30.360306" lon="-97.698868" changeset="false"><tag k="addr:street" v="North Lamar Boulevard"/><tag k="addr:housenumber" v="9036"/></node><node id="-36" lat="30.359607" lon="-97.702347" changeset="false"><tag k="addr:street" v="Little Walnut Parkway"/><tag k="addr:housenumber" v="8906"/></node></osm>