<?xml version="1.0" encoding="UTF-8"?><osm version="0.6" generator="github.com/aaronlidman/osm-and-geojson"><node id="-1" lat="30.214858" lon="-97.8442" changeset="false"><tag k="addr:street" v="Dos Cabezas Drive"/><tag k="addr:housenumber" v="4320"/><tag k="coa:place_id" v="215017"/></node><node id="-2" lat="30.213843" lon="-97.844073" changeset="false"><tag k="addr:street" v="Pusch Ridge Loop"/><tag k="addr:housenumber" v="7430"/><tag k="coa:place_id" v="214951"/></node><node id="-3" lat="30.21367" lon="-97.844913" changeset="false"><tag k="addr:street" v="Pusch Ridge Loop"/><tag k="addr:housenumber" v="7443"/><tag k="coa:place_id" v="214937"/></node><node id="-4" lat="30.21552" lon="-97.836548" changeset="false"><tag k="addr:street" v="Greenock Street"/><tag k="addr:housenumber" v="7005"/><tag k="coa:place_id" v="875144"/></node><node id="-5" lat="30.213394" lon="-97.838492" changeset="false"><tag k="addr:street" v="Convict Hill Road"/><tag k="addr:housenumber" v="3906"/><tag k="coa:place_id" v="875750"/></node><node id="-6" lat="30.214256" lon="-97.832082" changeset="false"><tag k="addr:street" v="West William Cannon Drive"/><tag k="addr:housenumber" v="3601"/><tag k="coa:place_id" v="147072"/></node><node id="-7" lat="30.215665" lon="-97.837078" changeset="false"><tag k="addr:street" v="Greenock Street"/><tag k="addr:housenumber" v="7004"/><tag k="coa:place_id" v="875066"/></node><node id="-8" lat="30.214838" lon="-97.837085" changeset="false"><tag k="addr:street" v="Greenock Street"/><tag k="addr:housenumber" v="7101"/><tag k="coa:place_id" v="875126"/></node><node id="-9" lat="30.215226" lon="-97.842723" changeset="false"><tag k="addr:street" v="Convict Hill Road"/><tag k="addr:housenumber" v="4301"/><tag k="coa:place_id" v="3313676"/></node><node id="-10" lat="30.214448" lon="-97.844472" changeset="false"><tag k="addr:street" v="Dos Cabezas Drive"/><tag k="addr:housenumber" v="4321"/><tag k="coa:place_id" v="215010"/></node><node id="-11" lat="30.212614" lon="-97.842365" changeset="false"><tag k="addr:street" v="Pusch Ridge Loop"/><tag k="addr:housenumber" v="7335"/><tag k="coa:place_id" v="220343"/></node><node id="-12" lat="30.213589" lon="-97.844723" changeset="false"><tag k="addr:street" v="Pusch Ridge Loop"/><tag k="addr:housenumber" v="7439"/><tag k="coa:place_id" v="214935"/></node><node id="-13" lat="30.215209" lon="-97.83497" changeset="false"><tag k="addr:street" v="Reaburn Street"/><tag k="addr:housenumber" v="7000"/><tag k="coa:place_id" v="711112"/></node><node id="-14" lat="30.215558" lon="-97.843832" changeset="false"><tag k="addr:street" v="Triboro Trail"/><tag k="addr:housenumber" v="4320"/><tag k="coa:place_id" v="214979"/></node><node id="-15" lat="30.206305" lon="-97.83672" changeset="false"><tag k="addr:street" v="Croftwood Drive"/><tag k="addr:housenumber" v="7711"/><tag k="coa:place_id" v="244457"/></node><node id="-16" lat="30.213501" lon="-97.844546" changeset="false"><tag k="addr:street" v="Pusch Ridge Loop"/><tag k="addr:housenumber" v="7435"/><tag k="coa:place_id" v="214933"/></node><node id="-17" lat="30.211147" lon="-97.833514" changeset="false"><tag k="addr:street" v="Convict Hill Road"/><tag k="addr:housenumber" v="3521"/><tag k="coa:place_id" v="3392263"/></node><node id="-18" lat="30.207425" lon="-97.836338" changeset="false"><tag k="addr:street" v="Bender Drive"/><tag k="addr:housenumber" v="7603"/><tag k="coa:place_id" v="346455"/></node><node id="-19" lat="30.214293" lon="-97.844853" changeset="false"><tag k="addr:street" v="Pusch Ridge Loop"/><tag k="addr:housenumber" v="7448"/><tag k="coa:place_id" v="214945"/></node><node id="-20" lat="30.213216" lon="-97.831194" changeset="false"><tag k="addr:street" v="Brodie Lane"/><tag k="addr:housenumber" v="7004"/><tag k="coa:place_id" v="217536"/></node><node id="-21" lat="30.214174" lon="-97.836915" changeset="false"><tag k="addr:street" v="Loch Lommond Street"/><tag k="addr:housenumber" v="7104"/><tag k="coa:place_id" v="875198"/></node><node id="-22" lat="30.212685" lon="-97.842624" changeset="false"><tag k="addr:street" v="Pusch Ridge Loop"/><tag k="addr:housenumber" v="7339"/><tag k="coa:place_id" v="214920"/></node><node id="-23" lat="30.210589" lon="-97.834731" changeset="false"><tag k="addr:street" v="Convict Hill Road"/><tag k="addr:housenumber" v="3607"/><tag k="coa:place_id" v="876704"/></node><node id="-24" lat="30.213426" lon="-97.844368" changeset="false"><tag k="addr:street" v="Pusch Ridge Loop"/><tag k="addr:housenumber" v="7431"/><tag k="coa:place_id" v="214932"/></node><node id="-25" lat="30.214787" lon="-97.837605" changeset="false"><tag k="addr:street" v="Greenock Street"/><tag k="addr:housenumber" v="7102"/><tag k="coa:place_id" v="1002800"/></node><node id="-26" lat="30.208313" lon="-97.837305" changeset="false"><tag k="addr:street" v="Harpers Ferry Lane"/><tag k="addr:housenumber" v="3701"/><tag k="coa:place_id" v="371193"/></node><node id="-27" lat="30.218943" lon="-97.836307" changeset="false"><tag k="addr:street" v="West William Cannon Drive"/><tag k="addr:housenumber" v="4001"/><tag k="coa:place_id" v="123089"/></node><node id="-28" lat="30.210908" lon="-97.832588" changeset="false"><tag k="addr:street" v="Convict Hill Road"/><tag k="addr:housenumber" v="3513"/><tag k="coa:place_id" v="3392264"/></node><node id="-29" lat="30.20822" lon="-97.834539" changeset="false"><tag k="addr:street" v="Saint Amant Place"/><tag k="addr:housenumber" v="7507"/><tag k="coa:place_id" v="250885"/></node><node id="-30" lat="30.21775" lon="-97.83581" changeset="false"><tag k="addr:street" v="Edinburgh Cove"/><tag k="addr:housenumber" v="6804"/><tag k="coa:place_id" v="985689"/></node><node id="-31" lat="30.214124" lon="-97.84465" changeset="false"><tag k="addr:street" v="Pusch Ridge Loop"/><tag k="addr:housenumber" v="7442"/><tag k="coa:place_id" v="214948"/></node><node id="-32" lat="30.208537" lon="-97.836184" changeset="false"><tag k="addr:street" v="Bender Drive"/><tag k="addr:housenumber" v="7506"/><tag k="coa:place_id" v="370701"/></node><node id="-33" lat="30.217674" lon="-97.835772" changeset="false"><tag k="addr:street" v="Edinburgh Cove"/><tag k="addr:housenumber" v="6808"/><tag k="coa:place_id" v="600699"/></node><node id="-34" lat="30.215693" lon="-97.835935" changeset="false"><tag k="addr:street" v="Glasgow Drive"/><tag k="addr:housenumber" v="3901"/><tag k="coa:place_id" v="875156"/></node><node id="-35" lat="30.213919" lon="-97.83819" changeset="false"><tag k="addr:street" v="Greenock Street"/><tag k="addr:housenumber" v="7202"/><tag k="coa:place_id" v="875096"/></node><node id="-36" lat="30.212301" lon="-97.832239" changeset="false"><tag k="addr:street" v="Brodie Lane"/><tag k="addr:housenumber" v="7100"/><tag k="coa:place_id" v="875276"/></node><node id="-37" lat="30.217339" lon="-97.836007" changeset="false"><tag k="addr:street" v="Edinburgh Cove"/><tag k="addr:housenumber" v="6900"/><tag k="coa:place_id" v="820779"/></node><node id="-38" lat="30.217518" lon="-97.835901" changeset="false"><tag k="addr:street" v="Edinburgh Cove"/><tag k="addr:housenumber" v="6806"/><tag k="coa:place_id" v="635595"/></node><node id="-39" lat="30.217036" lon="-97.835289" changeset="false"><tag k="addr:street" v="Donegal Road"/><tag k="addr:housenumber" v="6904"/><tag k="coa:place_id" v="647187"/></node><node id="-40" lat="30.209039" lon="-97.834274" changeset="false"><tag k="addr:street" v="Brodie Lane"/><tag k="addr:housenumber" v="7406"/><tag k="coa:place_id" v="3111855"/></node><node id="-41" lat="30.215077" lon="-97.835165" changeset="false"><tag k="addr:street" v="Reaburn Street"/><tag k="addr:housenumber" v="7002"/><tag k="coa:place_id" v="217575"/></node><node id="-42" lat="30.216418" lon="-97.839945" changeset="false"><tag k="addr:street" v="South MoPac Expressway"/><tag k="addr:housenumber" v="7101"/><tag k="coa:place_id" v="3214583"/></node><node id="-43" lat="30.214908" lon="-97.833373" changeset="false"><tag k="addr:street" v="West William Cannon Drive"/><tag k="addr:housenumber" v="3631"/><tag k="coa:place_id" v="1143668"/></node><node id="-44" lat="30.214991" lon="-97.833423" changeset="false"><tag k="addr:street" v="West William Cannon Drive"/><tag k="addr:housenumber" v="3701"/><tag k="coa:place_id" v="199165"/></node><node id="-45" lat="30.215039" lon="-97.837513" changeset="false"><tag k="addr:street" v="Greenock Street"/><tag k="addr:housenumber" v="7100"/><tag k="coa:place_id" v="1141587"/></node><node id="-46" lat="30.21521" lon="-97.8374" changeset="false"><tag k="addr:street" v="Greenock Street"/><tag k="addr:housenumber" v="7008"/><tag k="coa:place_id" v="875078"/></node><node id="-47" lat="30.213258" lon="-97.839014" changeset="false"><tag k="addr:street" v="Saffron Street"/><tag k="addr:housenumber" v="7300"/><tag k="coa:place_id" v="497451"/></node><node id="-48" lat="30.213326" lon="-97.838991" changeset="false"><tag k="addr:street" v="Convict Hill Road"/><tag k="addr:housenumber" v="3919"/><tag k="coa:place_id" v="143180"/></node><node id="-49" lat="30.205205" lon="-97.840276" changeset="false"><tag k="addr:street" v="Croftwood Drive"/><tag k="addr:housenumber" v="7911"/><tag k="coa:place_id" v="124641"/></node><node id="-50" lat="30.205188" lon="-97.840254" changeset="false"><tag k="addr:street" v="Croftwood Drive"/><tag k="addr:housenumber" v="7909"/><tag k="coa:place_id" v="507855"/></node></osm>