<?xml version="1.0" encoding="UTF-8"?><osm version="0.6" generator="github.com/aaronlidman/osm-and-geojson"><node id="-1" lat="30.229603" lon="-97.738469" changeset="false"><tag k="addr:street" v="Parker Lane"/><tag k="addr:housenumber" v="2505"/></node><node id="-2" lat="30.230488" lon="-97.742067" changeset="false"><tag k="addr:street" v="I 35 Frontage Road"/><tag k="addr:housenumber" v="2525"/></node><node id="-3" lat="30.229081" lon="-97.743264" changeset="false"><tag k="addr:street" v="I 35 Frontage Road"/><tag k="addr:housenumber" v="2707"/></node><node id="-4" lat="30.229798" lon="-97.742747" changeset="false"><tag k="addr:street" v="I 35 Frontage Road"/><tag k="addr:housenumber" v="2607"/></node><node id="-5" lat="30.22791" lon="-97.736241" changeset="false"><tag k="addr:street" v="Iroquois Lane"/><tag k="addr:housenumber" v="2006"/></node><node id="-6" lat="30.227915" lon="-97.736106" changeset="false"><tag k="addr:street" v="Iroquois Lane"/><tag k="addr:housenumber" v="2008"/></node><node id="-7" lat="30.228317" lon="-97.737087" changeset="false"><tag k="addr:street" v="Metcalfe Road"/><tag k="addr:housenumber" v="2606"/></node><node id="-8" lat="30.228878" lon="-97.741005" changeset="false"><tag k="addr:street" v="Alleghany Drive"/><tag k="addr:housenumber" v="1709"/></node><node id="-9" lat="30.228841" lon="-97.738196" changeset="false"><tag k="addr:street" v="Glen Springs Way"/><tag k="addr:housenumber" v="2520"/></node><node id="-10" lat="30.228675" lon="-97.737062" changeset="false"><tag k="addr:street" v="Glen Springs Way"/><tag k="addr:housenumber" v="2529"/></node><node id="-11" lat="30.22786" lon="-97.737016" changeset="false"><tag k="addr:street" v="Iroquois Lane"/><tag k="addr:housenumber" v="2000"/></node><node id="-12" lat="30.23146" lon="-97.741395" changeset="false"><tag k="addr:street" v="I 35 Frontage Road"/><tag k="addr:housenumber" v="2501"/></node><node id="-13" lat="30.227876" lon="-97.737393" changeset="false"><tag k="addr:street" v="Metcalfe Road"/><tag k="addr:housenumber" v="2610"/></node><node id="-14" lat="30.229784" lon="-97.738311" changeset="false"><tag k="addr:street" v="Parker Lane"/><tag k="addr:housenumber" v="2503"/></node><node id="-15" lat="30.229619" lon="-97.742974" changeset="false"><tag k="addr:street" v="I 35 Frontage Road"/><tag k="addr:housenumber" v="2617"/></node><node id="-16" lat="30.228388" lon="-97.737063" changeset="false"><tag k="addr:street" v="Metcalfe Road"/><tag k="addr:housenumber" v="2600"/></node><node id="-17" lat="30.231975" lon="-97.741275" changeset="false"><tag k="addr:street" v="I 35 Frontage Road"/><tag k="addr:housenumber" v="2403"/></node><node id="-18" lat="30.227904" lon="-97.736377" changeset="false"><tag k="addr:street" v="Iroquois Lane"/><tag k="addr:housenumber" v="2004"/></node><node id="-19" lat="30.230155" lon="-97.738614" changeset="false"><tag k="addr:street" v="Parker Lane"/><tag k="addr:housenumber" v="2500"/></node><node id="-20" lat="30.230159" lon="-97.738512" changeset="false"><tag k="addr:street" v="Parker Lane"/><tag k="addr:housenumber" v="2500 1/2"/></node><node id="-21" lat="30.228859" lon="-97.737479" changeset="false"><tag k="addr:street" v="Glen Springs Way"/><tag k="addr:housenumber" v="2525"/></node><node id="-22" lat="30.228919" lon="-97.737537" changeset="false"><tag k="addr:street" v="Biggs Drive"/><tag k="addr:housenumber" v="2507"/></node><node id="-23" lat="30.228997" lon="-97.738531" changeset="false"><tag k="addr:street" v="Glen Springs Way"/><tag k="addr:housenumber" v="2518"/></node><node id="-24" lat="30.228902" lon="-97.738557" changeset="false"><tag k="addr:street" v="Circle Cove"/><tag k="addr:housenumber" v="2600"/></node><node id="-25" lat="30.229058" lon="-97.737929" changeset="false"><tag k="addr:street" v="Biggs Drive"/><tag k="addr:housenumber" v="2506"/></node><node id="-26" lat="30.229085" lon="-97.738026" changeset="false"><tag k="addr:street" v="Glen Springs Way"/><tag k="addr:housenumber" v="2519"/></node><node id="-27" lat="30.228977" lon="-97.742098" changeset="false"><tag k="addr:street" v="Audubon Place"/><tag k="addr:housenumber" v="2618"/></node><node id="-28" lat="30.228987" lon="-97.74204" changeset="false"><tag k="addr:street" v="Audubon Place"/><tag k="addr:housenumber" v="2616"/></node></osm>