<?xml version="1.0" encoding="UTF-8"?><osm version="0.6" generator="github.com/aaronlidman/osm-and-geojson"><node id="-1" lat="30.276574" lon="-97.647252" changeset="false"><tag k="addr:street" v="Nixon Lane"/><tag k="addr:housenumber" v="4807"/><tag k="addr:postcode" v="78725"/></node><node id="-2" lat="30.264128" lon="-97.661847" changeset="false"><tag k="addr:street" v="Delwau Lane"/><tag k="addr:housenumber" v="7600"/><tag k="addr:postcode" v="78725"/></node><node id="-3" lat="30.276694" lon="-97.666798" changeset="false"><tag k="addr:street" v="Ed Bluestein Boulevard"/><tag k="addr:housenumber" v="4101"/><tag k="addr:postcode" v="78725"/></node><node id="-4" lat="30.29064" lon="-97.658323" changeset="false"><tag k="addr:street" v="Garden View Drive"/><tag k="addr:housenumber" v="6300"/><tag k="addr:postcode" v="78724"/></node><node id="-5" lat="30.272089" lon="-97.652415" changeset="false"><tag k="addr:street" v="Nixon Lane"/><tag k="addr:housenumber" v="4300"/><tag k="addr:postcode" v="78725"/></node><node id="-6" lat="30.269761" lon="-97.65209" changeset="false"><tag k="addr:street" v="Nixon Lane"/><tag k="addr:housenumber" v="4100"/><tag k="addr:postcode" v="78725"/></node><node id="-7" lat="30.290281" lon="-97.654531" changeset="false"><tag k="addr:street" v="Johnny Morris Road"/><tag k="addr:housenumber" v="5712"/><tag k="addr:postcode" v="78724"/></node><node id="-8" lat="30.294213" lon="-97.652723" changeset="false"><tag k="addr:street" v="Johnny Morris Road"/><tag k="addr:housenumber" v="5910"/><tag k="addr:postcode" v="78724"/></node><node id="-9" lat="30.278284" lon="-97.645868" changeset="false"><tag k="addr:street" v="Nixon Lane"/><tag k="addr:housenumber" v="5007"/><tag k="addr:postcode" v="78725"/></node><node id="-10" lat="30.290867" lon="-97.658648" changeset="false"><tag k="addr:street" v="Garden View Drive"/><tag k="addr:housenumber" v="6204"/><tag k="addr:postcode" v="78724"/></node><node id="-11" lat="30.262804" lon="-97.667871" changeset="false"><tag k="addr:street" v="Delwau Lane"/><tag k="addr:housenumber" v="2907 1/2"/><tag k="addr:postcode" v="78725"/></node><node id="-12" lat="30.274768" lon="-97.648848" changeset="false"><tag k="addr:street" v="Nixon Lane"/><tag k="addr:housenumber" v="4600"/><tag k="addr:postcode" v="78725"/></node><node id="-13" lat="30.279914" lon="-97.660456" changeset="false"><tag k="addr:street" v="Craigwood Drive"/><tag k="addr:housenumber" v="4503"/><tag k="addr:postcode" v="78725"/></node><node id="-14" lat="30.27653" lon="-97.647278" changeset="false"><tag k="addr:street" v="Nixon Lane"/><tag k="addr:housenumber" v="4803"/><tag k="addr:postcode" v="78725"/></node><node id="-15" lat="30.2642" lon="-97.669117" changeset="false"><tag k="addr:street" v="Regiene Road"/><tag k="addr:housenumber" v="6705"/><tag k="addr:postcode" v="78725"/></node><node id="-16" lat="30.276716" lon="-97.647525" changeset="false"><tag k="addr:street" v="Nixon Lane"/><tag k="addr:housenumber" v="4810"/><tag k="addr:postcode" v="78725"/></node><node id="-17" lat="30.273146" lon="-97.649376" changeset="false"><tag k="addr:street" v="Nixon Lane"/><tag k="addr:housenumber" v="4415"/><tag k="addr:postcode" v="78725"/></node><node id="-18" lat="30.291301" lon="-97.66072" changeset="false"><tag k="addr:street" v="Garden View Drive"/><tag k="addr:housenumber" v="6003"/><tag k="addr:postcode" v="78724"/></node><node id="-19" lat="30.276218" lon="-97.667509" changeset="false"><tag k="addr:street" v="Ed Bluestein Boulevard"/><tag k="addr:housenumber" v="4007"/><tag k="addr:postcode" v="78725"/></node><node id="-20" lat="30.288022" lon="-97.654298" changeset="false"><tag k="addr:street" v="Johnny Morris Road"/><tag k="addr:housenumber" v="5516"/><tag k="addr:postcode" v="78724"/></node><node id="-21" lat="30.289477" lon="-97.660453" changeset="false"><tag k="addr:street" v="Duchess Drive"/><tag k="addr:housenumber" v="6119"/><tag k="addr:postcode" v="78724"/></node><node id="-22" lat="30.26753" lon="-97.669361" changeset="false"><tag k="addr:street" v="Hibbetts Road"/><tag k="addr:housenumber" v="3301"/><tag k="addr:postcode" v="78725"/></node><node id="-23" lat="30.290434" lon="-97.65831" changeset="false"><tag k="addr:street" v="Garden View Drive"/><tag k="addr:housenumber" v="6302"/><tag k="addr:postcode" v="78724"/></node><node id="-24" lat="30.291928" lon="-97.662591" changeset="false"><tag k="addr:street" v="Ed Bluestein Boulevard"/><tag k="addr:housenumber" v="5315"/><tag k="addr:postcode" v="78724"/></node><node id="-25" lat="30.263102" lon="-97.658653" changeset="false"><tag k="addr:street" v="Delwau Lane"/><tag k="addr:housenumber" v="8001"/><tag k="addr:postcode" v="78725"/></node><node id="-26" lat="30.299217" lon="-97.661438" changeset="false"><tag k="addr:street" v="Ed Bluestein Boulevard"/><tag k="addr:housenumber" v="6023"/><tag k="addr:postcode" v="78724"/></node><node id="-27" lat="30.289038" lon="-97.659697" changeset="false"><tag k="addr:street" v="Duchess Drive"/><tag k="addr:housenumber" v="6207"/><tag k="addr:postcode" v="78724"/></node><node id="-28" lat="30.279027" lon="-97.646319" changeset="false"><tag k="addr:street" v="Nixon Lane"/><tag k="addr:housenumber" v="5012"/><tag k="addr:postcode" v="78725"/></node><node id="-29" lat="30.284111" lon="-97.659511" changeset="false"><tag k="addr:street" v="Craigwood Drive"/><tag k="addr:housenumber" v="4925"/><tag k="addr:postcode" v="78725"/></node><node id="-30" lat="30.289077" lon="-97.658152" changeset="false"><tag k="addr:street" v="Garden View Drive"/><tag k="addr:housenumber" v="6406"/><tag k="addr:postcode" v="78724"/></node><node id="-31" lat="30.289875" lon="-97.658223" changeset="false"><tag k="addr:street" v="Garden View Drive"/><tag k="addr:housenumber" v="6308"/><tag k="addr:postcode" v="78724"/></node><node id="-32" lat="30.26475" lon="-97.669733" changeset="false"><tag k="addr:street" v="Regiene Road"/><tag k="addr:housenumber" v="6600"/><tag k="addr:postcode" v="78725"/></node><node id="-33" lat="30.290578" lon="-97.659671" changeset="false"><tag k="addr:street" v="Garden View Cove"/><tag k="addr:housenumber" v="5406"/><tag k="addr:postcode" v="78724"/></node><node id="-34" lat="30.302082" lon="-97.652932" changeset="false"><tag k="addr:street" v="Loyola Lane"/><tag k="addr:housenumber" v="6013"/><tag k="addr:postcode" v="78724"/></node><node id="-35" lat="30.301733" lon="-97.652175" changeset="false"><tag k="addr:street" v="Loyola Lane"/><tag k="addr:housenumber" v="6101"/><tag k="addr:postcode" v="78724"/></node><node id="-36" lat="30.264867" lon="-97.670087" changeset="false"><tag k="addr:street" v="Regiene Road"/><tag k="addr:housenumber" v="6605"/><tag k="addr:postcode" v="78725"/></node><node id="-37" lat="30.275703" lon="-97.667207" changeset="false"><tag k="addr:street" v="Ed Bluestein Boulevard"/><tag k="addr:housenumber" v="3501"/><tag k="addr:postcode" v="78725"/></node><node id="-38" lat="30.294009" lon="-97.662307" changeset="false"><tag k="addr:street" v="Ed Bluestein Boulevard"/><tag k="addr:housenumber" v="5501"/><tag k="addr:postcode" v="78724"/></node><node id="-39" lat="30.290654" lon="-97.655836" changeset="false"><tag k="addr:street" v="Loyola Lane"/><tag k="addr:housenumber" v="6017 1/2"/><tag k="addr:postcode" v="78724"/></node><node id="-40" lat="30.269842" lon="-97.668128" changeset="false"><tag k="addr:street" v="Ed Bluestein Boulevard"/><tag k="addr:housenumber" v="3443"/><tag k="addr:postcode" v="78725"/></node><node id="-41" lat="30.278384" lon="-97.646217" changeset="false"><tag k="addr:street" v="Nixon Lane"/><tag k="addr:housenumber" v="5009"/><tag k="addr:postcode" v="78725"/></node><node id="-42" lat="30.279395" lon="-97.660598" changeset="false"><tag k="addr:street" v="Craigwood Drive"/><tag k="addr:housenumber" v="4502"/><tag k="addr:postcode" v="78725"/></node><node id="-43" lat="30.276364" lon="-97.647056" changeset="false"><tag k="addr:street" v="Nixon Lane"/><tag k="addr:housenumber" v="4805"/><tag k="addr:postcode" v="78725"/></node><node id="-44" lat="30.263341" lon="-97.663519" changeset="false"><tag k="addr:street" v="Delwau Lane"/><tag k="addr:housenumber" v="7689"/><tag k="addr:postcode" v="78725"/></node><node id="-45" lat="30.263004" lon="-97.668374" changeset="false"><tag k="addr:street" v="Delwau Lane"/><tag k="addr:housenumber" v="2906 1/2"/><tag k="addr:postcode" v="78725"/></node><node id="-46" lat="30.263079" lon="-97.660939" changeset="false"><tag k="addr:street" v="Delwau Lane"/><tag k="addr:housenumber" v="7715"/><tag k="addr:postcode" v="78725"/></node><node id="-47" lat="30.273165" lon="-97.65032" changeset="false"><tag k="addr:street" v="Nixon Lane"/><tag k="addr:housenumber" v="4400"/><tag k="addr:postcode" v="78725"/></node><node id="-48" lat="30.276896" lon="-97.65979" changeset="false"><tag k="addr:street" v="Tracor Lane"/><tag k="addr:housenumber" v="6540"/><tag k="addr:postcode" v="78725"/></node><node id="-49" lat="30.273559" lon="-97.64973" changeset="false"><tag k="addr:street" v="Nixon Lane"/><tag k="addr:housenumber" v="4508"/><tag k="addr:postcode" v="78725"/></node><node id="-50" lat="30.264725" lon="-97.657041" changeset="false"><tag k="addr:street" v="Delwau Lane"/><tag k="addr:housenumber" v="8401"/><tag k="addr:postcode" v="78725"/></node><node id="-51" lat="30.282187" lon="-97.660099" changeset="false"><tag k="addr:street" v="Craigwood Drive"/><tag k="addr:housenumber" v="4707"/><tag k="addr:postcode" v="78725"/></node><node id="-52" lat="30.29585" lon="-97.65203" changeset="false"><tag k="addr:street" v="Johnny Morris Road"/><tag k="addr:housenumber" v="6106"/><tag k="addr:postcode" v="78724"/></node><node id="-53" lat="30.287674" lon="-97.663607" changeset="false"><tag k="addr:street" v="Ed Bluestein Boulevard"/><tag k="addr:housenumber" v="5201"/><tag k="addr:postcode" v="78724"/></node><node id="-54" lat="30.271246" lon="-97.65049" changeset="false"><tag k="addr:street" v="Nixon Lane"/><tag k="addr:housenumber" v="4107"/><tag k="addr:postcode" v="78725"/></node><node id="-55" lat="30.276273" lon="-97.64733" changeset="false"><tag k="addr:street" v="Nixon Lane"/><tag k="addr:housenumber" v="4801"/><tag k="addr:postcode" v="78725"/></node><node id="-56" lat="30.273239" lon="-97.649902" changeset="false"><tag k="addr:street" v="Nixon Lane"/><tag k="addr:housenumber" v="4412"/><tag k="addr:postcode" v="78725"/></node><node id="-57" lat="30.287011" lon="-97.663838" changeset="false"><tag k="addr:street" v="Ed Bluestein Boulevard"/><tag k="addr:housenumber" v="5005"/><tag k="addr:postcode" v="78724"/></node><node id="-58" lat="30.290751" lon="-97.658467" changeset="false"><tag k="addr:street" v="Garden View Drive"/><tag k="addr:housenumber" v="6206"/><tag k="addr:postcode" v="78724"/></node><node id="-59" lat="30.30228" lon="-97.652908" changeset="false"><tag k="addr:street" v="Loyola Lane"/><tag k="addr:housenumber" v="6001"/><tag k="addr:postcode" v="78724"/></node><node id="-60" lat="30.287865" lon="-97.654264" changeset="false"><tag k="addr:street" v="Johnny Morris Road"/><tag k="addr:housenumber" v="5502"/><tag k="addr:postcode" v="78724"/></node><node id="-61" lat="30.265681" lon="-97.656035" changeset="false"><tag k="addr:street" v="Delwau Lane"/><tag k="addr:housenumber" v="8400"/><tag k="addr:postcode" v="78725"/></node><node id="-62" lat="30.291644" lon="-97.654519" changeset="false"><tag k="addr:street" v="Johnny Morris Road"/><tag k="addr:housenumber" v="5600"/><tag k="addr:postcode" v="78724"/></node><node id="-63" lat="30.276168" lon="-97.648064" changeset="false"><tag k="addr:street" v="Nixon Lane"/><tag k="addr:housenumber" v="4708"/><tag k="addr:postcode" v="78725"/></node><node id="-64" lat="30.29024" lon="-97.658359" changeset="false"><tag k="addr:street" v="Garden View Drive"/><tag k="addr:housenumber" v="6304"/><tag k="addr:postcode" v="78724"/></node></osm>