<?xml version="1.0" encoding="UTF-8"?><osm version="0.6" generator="github.com/aaronlidman/osm-and-geojson"><node id="-1" lat="30.493072" lon="-97.785628" changeset="false"><tag k="addr:street" v="Ballycastle Trail"/><tag k="addr:housenumber" v="14117"/><tag k="coa:place_id" v="3072701"/></node><node id="-2" lat="30.480426" lon="-97.768475" changeset="false"><tag k="addr:street" v="Spectrum Drive"/><tag k="addr:housenumber" v="9601"/><tag k="coa:place_id" v="5068328"/></node><node id="-3" lat="30.49712" lon="-97.777735" changeset="false"><tag k="addr:street" v="Avery Ranch Boulevard"/><tag k="addr:housenumber" v="14815 1/2"/><tag k="coa:place_id" v="3348209"/></node><node id="-4" lat="30.497259" lon="-97.777177" changeset="false"><tag k="addr:street" v="Avery Ranch Boulevard"/><tag k="addr:housenumber" v="14901"/><tag k="coa:place_id" v="3314148"/></node><node id="-5" lat="30.494347" lon="-97.785601" changeset="false"><tag k="addr:street" v="Mowsbury Drive"/><tag k="addr:housenumber" v="14205"/><tag k="coa:place_id" v="3044058"/></node><node id="-6" lat="30.480183" lon="-97.77051" changeset="false"><tag k="addr:street" v="Spectrum Drive"/><tag k="addr:housenumber" v="9701"/><tag k="coa:place_id" v="5068327"/></node><node id="-7" lat="30.492488" lon="-97.7741" changeset="false"><tag k="addr:street" v="West Parmer Lane"/><tag k="addr:housenumber" v="10211"/><tag k="coa:place_id" v="3067933"/></node><node id="-8" lat="30.495232" lon="-97.782712" changeset="false"><tag k="addr:street" v="Lilley Brook Cove"/><tag k="addr:housenumber" v="14440"/><tag k="coa:place_id" v="3032745"/></node><node id="-9" lat="30.495159" lon="-97.783882" changeset="false"><tag k="addr:street" v="Mowsbury Drive"/><tag k="addr:housenumber" v="14329"/><tag k="coa:place_id" v="3032788"/></node><node id="-10" lat="30.497387" lon="-97.776597" changeset="false"><tag k="addr:street" v="Avery Ranch Boulevard"/><tag k="addr:housenumber" v="14951"/><tag k="coa:place_id" v="3047835"/></node><node id="-11" lat="30.489332" lon="-97.773494" changeset="false"><tag k="addr:street" v="West Parmer Lane"/><tag k="addr:housenumber" v="10101"/><tag k="coa:place_id" v="237899"/></node><node id="-12" lat="30.495" lon="-97.78074" changeset="false"><tag k="addr:street" v="Ballycastle Trail"/><tag k="addr:housenumber" v="14612"/><tag k="coa:place_id" v="3033397"/></node><node id="-13" lat="30.482643" lon="-97.765449" changeset="false"><tag k="addr:street" v="Spectrum Drive"/><tag k="addr:housenumber" v="9420"/><tag k="coa:place_id" v="3096356"/></node><node id="-14" lat="30.49513" lon="-97.782823" changeset="false"><tag k="addr:street" v="Lilley Brook Cove"/><tag k="addr:housenumber" v="14436"/><tag k="coa:place_id" v="3032744"/></node><node id="-15" lat="30.496974" lon="-97.775741" changeset="false"><tag k="addr:street" v="West Parmer Lane"/><tag k="addr:housenumber" v="10525"/><tag k="coa:place_id" v="3098692"/></node><node id="-16" lat="30.49638" lon="-97.775987" changeset="false"><tag k="addr:street" v="West Parmer Lane"/><tag k="addr:housenumber" v="10521"/><tag k="coa:place_id" v="3369404"/></node><node id="-17" lat="30.486132" lon="-97.781771" changeset="false"><tag k="addr:street" v="South Lakeline Boulevard"/><tag k="addr:housenumber" v="10239"/><tag k="coa:place_id" v="3385971"/></node><node id="-18" lat="30.495321" lon="-97.782423" changeset="false"><tag k="addr:street" v="Lilley Brook Cove"/><tag k="addr:housenumber" v="14448"/><tag k="coa:place_id" v="3032747"/></node><node id="-19" lat="30.488279" lon="-97.772143" changeset="false"><tag k="addr:street" v="West Parmer Lane"/><tag k="addr:housenumber" v="10001"/><tag k="coa:place_id" v="3268027"/></node><node id="-20" lat="30.496408" lon="-97.781652" changeset="false"><tag k="addr:street" v="South Canoa Hills Trail"/><tag k="addr:housenumber" v="10617"/><tag k="coa:place_id" v="3048658"/></node><node id="-21" lat="30.494898" lon="-97.780898" changeset="false"><tag k="addr:street" v="Ballycastle Trail"/><tag k="addr:housenumber" v="14608"/><tag k="coa:place_id" v="3033391"/></node><node id="-22" lat="30.495733" lon="-97.783995" changeset="false"><tag k="addr:street" v="Quarry Oaks Trail"/><tag k="addr:housenumber" v="10600 1/2"/><tag k="coa:place_id" v="3053001"/></node><node id="-23" lat="30.49485" lon="-97.782482" changeset="false"><tag k="addr:street" v="Lilley Brook Cove"/><tag k="addr:housenumber" v="14441"/><tag k="coa:place_id" v="3032734"/></node><node id="-24" lat="30.492506" lon="-97.773794" changeset="false"><tag k="addr:street" v="West Parmer Lane"/><tag k="addr:housenumber" v="10211 1/2"/><tag k="coa:place_id" v="3083314"/></node><node id="-25" lat="30.480581" lon="-97.767236" changeset="false"><tag k="addr:street" v="West Parmer Lane"/><tag k="addr:housenumber" v="9401"/><tag k="coa:place_id" v="5068329"/></node><node id="-26" lat="30.48279" lon="-97.786347" changeset="false"><tag k="addr:street" v="South Lakeline Boulevard"/><tag k="addr:housenumber" v="10301 1/2"/><tag k="coa:place_id" v="3214236"/></node><node id="-27" lat="30.482158" lon="-97.76562" changeset="false"><tag k="addr:street" v="Spectrum Drive"/><tag k="addr:housenumber" v="9421"/><tag k="coa:place_id" v="3311533"/></node><node id="-28" lat="30.495309" lon="-97.782567" changeset="false"><tag k="addr:street" v="Lilley Brook Cove"/><tag k="addr:housenumber" v="14444"/><tag k="coa:place_id" v="3032746"/></node><node id="-29" lat="30.493591" lon="-97.78537" changeset="false"><tag k="addr:street" v="Dunham Forest Road"/><tag k="addr:housenumber" v="10505"/><tag k="coa:place_id" v="3044077"/></node><node id="-30" lat="30.484532" lon="-97.768861" changeset="false"><tag k="addr:street" v="West Parmer Lane"/><tag k="addr:housenumber" v="9700 1/2"/><tag k="coa:place_id" v="143285"/></node><node id="-31" lat="30.495756" lon="-97.780991" changeset="false"><tag k="addr:street" v="Swinley Forest Cove"/><tag k="addr:housenumber" v="14608"/><tag k="coa:place_id" v="3033379"/></node><node id="-32" lat="30.485439" lon="-97.771702" changeset="false"><tag k="addr:street" v="West Parmer Lane"/><tag k="addr:housenumber" v="9801"/><tag k="coa:place_id" v="168413"/></node><node id="-33" lat="30.495429" lon="-97.783309" changeset="false"><tag k="addr:street" v="Mowsbury Drive"/><tag k="addr:housenumber" v="14413"/><tag k="coa:place_id" v="3032784"/></node><node id="-34" lat="30.494667" lon="-97.786059" changeset="false"><tag k="addr:street" v="Mowsbury Drive"/><tag k="addr:housenumber" v="14200 1/2"/><tag k="coa:place_id" v="3070608"/></node><node id="-35" lat="30.495508" lon="-97.78035" changeset="false"><tag k="addr:street" v="Swinley Forest Cove"/><tag k="addr:housenumber" v="14625"/><tag k="coa:place_id" v="3033388"/></node></osm>