<?xml version="1.0" encoding="UTF-8"?><osm version="0.6" generator="github.com/aaronlidman/osm-and-geojson"><node id="-1" lat="30.275763" lon="-97.728618" changeset="false"><tag k="addr:street" v="Navasota Street"/><tag k="addr:housenumber" v="1604"/><tag k="coa:place_id" v="488210"/></node><node id="-2" lat="30.27688" lon="-97.721802" changeset="false"><tag k="addr:street" v="Salina Street"/><tag k="addr:housenumber" v="1602"/><tag k="coa:place_id" v="489884"/></node><node id="-3" lat="30.273617" lon="-97.721485" changeset="false"><tag k="addr:street" v="East 12th Street"/><tag k="addr:housenumber" v="1704"/><tag k="coa:place_id" v="526058"/></node><node id="-4" lat="30.273466" lon="-97.725264" changeset="false"><tag k="addr:street" v="Angelina Street"/><tag k="addr:housenumber" v="1206"/><tag k="coa:place_id" v="526298"/></node><node id="-5" lat="30.272337" lon="-97.730346" changeset="false"><tag k="addr:street" v="East 12th Street"/><tag k="addr:housenumber" v="906"/><tag k="coa:place_id" v="1114394"/></node><node id="-6" lat="30.272936" lon="-97.72703" changeset="false"><tag k="addr:street" v="East 12th Street"/><tag k="addr:housenumber" v="1218"/><tag k="coa:place_id" v="526472"/></node><node id="-7" lat="30.272926" lon="-97.730874" changeset="false"><tag k="addr:street" v="East 13th Street"/><tag k="addr:housenumber" v="813 1/2"/><tag k="coa:place_id" v="447554"/></node><node id="-8" lat="30.276232" lon="-97.728377" changeset="false"><tag k="addr:street" v="Navasota Street"/><tag k="addr:housenumber" v="1615"/><tag k="coa:place_id" v="488162"/></node><node id="-9" lat="30.275922" lon="-97.728322" changeset="false"><tag k="addr:street" v="Navasota Street"/><tag k="addr:housenumber" v="1609"/><tag k="coa:place_id" v="488144"/></node><node id="-10" lat="30.279584" lon="-97.721751" changeset="false"><tag k="addr:street" v="East Martin Luther King Jr Boulevard"/><tag k="addr:housenumber" v="1807"/><tag k="coa:place_id" v="489602"/></node><node id="-11" lat="30.277755" lon="-97.721956" changeset="false"><tag k="addr:street" v="Salina Street"/><tag k="addr:housenumber" v="1702"/><tag k="coa:place_id" v="250410"/></node><node id="-12" lat="30.275966" lon="-97.72054" changeset="false"><tag k="addr:street" v="East 14th Street"/><tag k="addr:housenumber" v="1808"/><tag k="coa:place_id" v="253127"/></node><node id="-13" lat="30.276064" lon="-97.728868" changeset="false"><tag k="addr:street" v="East 16th Street"/><tag k="addr:housenumber" v="1009"/><tag k="coa:place_id" v="163504"/></node><node id="-14" lat="30.273547" lon="-97.723406" changeset="false"><tag k="addr:street" v="East 12th Street"/><tag k="addr:housenumber" v="1510"/><tag k="coa:place_id" v="526214"/></node><node id="-15" lat="30.273557" lon="-97.722523" changeset="false"><tag k="addr:street" v="East 12th Street"/><tag k="addr:housenumber" v="1604"/><tag k="coa:place_id" v="205612"/></node><node id="-16" lat="30.275283" lon="-97.720452" changeset="false"><tag k="addr:street" v="Chicon Street"/><tag k="addr:housenumber" v="1306"/><tag k="coa:place_id" v="243897"/></node><node id="-17" lat="30.276582" lon="-97.729715" changeset="false"><tag k="addr:street" v="North Interstate Highway 35 Service Road"/><tag k="addr:housenumber" v="1601"/><tag k="coa:place_id" v="3038289"/></node><node id="-18" lat="30.277321" lon="-97.721886" changeset="false"><tag k="addr:street" v="Salina Street"/><tag k="addr:housenumber" v="1608"/><tag k="coa:place_id" v="5102093"/></node><node id="-19" lat="30.274625" lon="-97.729909" changeset="false"><tag k="addr:street" v="East 14th Street"/><tag k="addr:housenumber" v="906"/><tag k="coa:place_id" v="487832"/></node><node id="-20" lat="30.274681" lon="-97.729136" changeset="false"><tag k="addr:street" v="East 14th Street"/><tag k="addr:housenumber" v="1004"/><tag k="coa:place_id" v="487796"/></node><node id="-21" lat="30.274638" lon="-97.727146" changeset="false"><tag k="addr:street" v="San Bernard Street"/><tag k="addr:housenumber" v="1308"/><tag k="coa:place_id" v="525626"/></node><node id="-22" lat="30.277634" lon="-97.729077" changeset="false"><tag k="addr:street" v="North Interstate Highway 35 Service Road"/><tag k="addr:housenumber" v="1617"/><tag k="coa:place_id" v="3033323"/></node><node id="-23" lat="30.273588" lon="-97.723156" changeset="false"><tag k="addr:street" v="East 12th Street"/><tag k="addr:housenumber" v="1514"/><tag k="coa:place_id" v="526208"/></node><node id="-24" lat="30.27309" lon="-97.725752" changeset="false"><tag k="addr:street" v="East 12th Street"/><tag k="addr:housenumber" v="1320"/><tag k="coa:place_id" v="526334"/></node><node id="-25" lat="30.276129" lon="-97.728359" changeset="false"><tag k="addr:street" v="Navasota Street"/><tag k="addr:housenumber" v="1613"/><tag k="coa:place_id" v="488156"/></node><node id="-26" lat="30.273943" lon="-97.723833" changeset="false"><tag k="addr:street" v="East 13th Street"/><tag k="addr:housenumber" v="1501"/><tag k="coa:place_id" v="525770"/></node><node id="-27" lat="30.276482" lon="-97.728698" changeset="false"><tag k="addr:street" v="East 16th Street"/><tag k="addr:housenumber" v="1002"/><tag k="coa:place_id" v="488066"/></node><node id="-28" lat="30.272523" lon="-97.729867" changeset="false"><tag k="addr:street" v="East 12th Street"/><tag k="addr:housenumber" v="1006"/><tag k="coa:place_id" v="1113856"/></node><node id="-29" lat="30.272872" lon="-97.727431" changeset="false"><tag k="addr:street" v="East 12th Street"/><tag k="addr:housenumber" v="1206"/><tag k="coa:place_id" v="253025"/></node><node id="-30" lat="30.273125" lon="-97.725276" changeset="false"><tag k="addr:street" v="East 12th Street"/><tag k="addr:housenumber" v="1334"/><tag k="coa:place_id" v="211150"/></node><node id="-31" lat="30.27663" lon="-97.727705" changeset="false"><tag k="addr:street" v="East 16th Street"/><tag k="addr:housenumber" v="1012"/><tag k="coa:place_id" v="488216"/></node><node id="-32" lat="30.272838" lon="-97.727645" changeset="false"><tag k="addr:street" v="East 12th Street"/><tag k="addr:housenumber" v="1200"/><tag k="coa:place_id" v="1135127"/></node><node id="-33" lat="30.272604" lon="-97.729169" changeset="false"><tag k="addr:street" v="East 12th Street"/><tag k="addr:housenumber" v="1022"/><tag k="coa:place_id" v="880112"/></node><node id="-34" lat="30.274816" lon="-97.722344" changeset="false"><tag k="addr:street" v="Leona Street"/><tag k="addr:housenumber" v="1304"/><tag k="coa:place_id" v="3380362"/></node><node id="-35" lat="30.272717" lon="-97.728436" changeset="false"><tag k="addr:street" v="East 12th Street"/><tag k="addr:housenumber" v="1110"/><tag k="coa:place_id" v="3504425"/></node><node id="-36" lat="30.272771" lon="-97.728004" changeset="false"><tag k="addr:street" v="East 12th Street"/><tag k="addr:housenumber" v="1120"/><tag k="coa:place_id" v="5070360"/></node><node id="-37" lat="30.276416" lon="-97.729151" changeset="false"><tag k="addr:street" v="East 16th Street"/><tag k="addr:housenumber" v="904"/><tag k="coa:place_id" v="488078"/></node><node id="-38" lat="30.276059" lon="-97.729036" changeset="false"><tag k="addr:street" v="East 16th Street"/><tag k="addr:housenumber" v="1007 1/2"/><tag k="coa:place_id" v="3139863"/></node><node id="-39" lat="30.275715" lon="-97.728285" changeset="false"><tag k="addr:street" v="Navasota Street"/><tag k="addr:housenumber" v="1605"/><tag k="coa:place_id" v="488132"/></node><node id="-40" lat="30.2733" lon="-97.72481" changeset="false"><tag k="addr:street" v="East 12th Street"/><tag k="addr:housenumber" v="1400"/><tag k="coa:place_id" v="526286"/></node><node id="-41" lat="30.275048" lon="-97.724487" changeset="false"><tag k="addr:street" v="Comal Street"/><tag k="addr:housenumber" v="1310"/><tag k="coa:place_id" v="525542"/></node><node id="-42" lat="30.278833" lon="-97.721162" changeset="false"><tag k="addr:street" v="Chicon Street"/><tag k="addr:housenumber" v="1800"/><tag k="coa:place_id" v="489626"/></node><node id="-43" lat="30.27258" lon="-97.730394" changeset="false"><tag k="addr:street" v="Olander Street"/><tag k="addr:housenumber" v="1204"/><tag k="coa:place_id" v="447524"/></node><node id="-44" lat="30.27253" lon="-97.730067" changeset="false"><tag k="addr:street" v="Olander Street"/><tag k="addr:housenumber" v="1203"/><tag k="coa:place_id" v="675994"/></node><node id="-45" lat="30.274601" lon="-97.730065" changeset="false"><tag k="addr:street" v="East 14th Street"/><tag k="addr:housenumber" v="904"/><tag k="coa:place_id" v="487838"/></node><node id="-46" lat="30.27382" lon="-97.726953" changeset="false"><tag k="addr:street" v="San Bernard Street"/><tag k="addr:housenumber" v="1300"/><tag k="coa:place_id" v="525644"/></node><node id="-47" lat="30.274367" lon="-97.725481" changeset="false"><tag k="addr:street" v="Angelina Street"/><tag k="addr:housenumber" v="1314"/><tag k="coa:place_id" v="3073824"/></node><node id="-48" lat="30.273599" lon="-97.725292" changeset="false"><tag k="addr:street" v="Angelina Street"/><tag k="addr:housenumber" v="1210"/><tag k="coa:place_id" v="3084658"/></node><node id="-49" lat="30.27351" lon="-97.723648" changeset="false"><tag k="addr:street" v="East 12th Street"/><tag k="addr:housenumber" v="1500"/><tag k="coa:place_id" v="253030"/></node><node id="-50" lat="30.273559" lon="-97.731097" changeset="false"><tag k="addr:street" v="North Interstate Highway 35 Service Road"/><tag k="addr:housenumber" v="1311"/><tag k="coa:place_id" v="255205"/></node><node id="-51" lat="30.277638" lon="-97.721934" changeset="false"><tag k="addr:street" v="Salina Street"/><tag k="addr:housenumber" v="1700"/><tag k="coa:place_id" v="250409"/></node><node id="-52" lat="30.279348" lon="-97.72229" changeset="false"><tag k="addr:street" v="Salina Street"/><tag k="addr:housenumber" v="1812"/><tag k="coa:place_id" v="489674"/></node><node id="-53" lat="30.273554" lon="-97.722709" changeset="false"><tag k="addr:street" v="East 12th Street"/><tag k="addr:housenumber" v="1600"/><tag k="coa:place_id" v="526184"/></node><node id="-54" lat="30.275583" lon="-97.72047" changeset="false"><tag k="addr:street" v="Chicon Street"/><tag k="addr:housenumber" v="1310"/><tag k="coa:place_id" v="490088"/></node><node id="-55" lat="30.278799" lon="-97.722144" changeset="false"><tag k="addr:street" v="Salina Street"/><tag k="addr:housenumber" v="1800"/><tag k="coa:place_id" v="5071920"/></node><node id="-56" lat="30.273366" lon="-97.72441" changeset="false"><tag k="addr:street" v="East 12th Street"/><tag k="addr:housenumber" v="1410"/><tag k="coa:place_id" v="526274"/></node><node id="-57" lat="30.274267" lon="-97.724023" changeset="false"><tag k="addr:street" v="East 13th Street"/><tag k="addr:housenumber" v="1500"/><tag k="coa:place_id" v="362391"/></node><node id="-58" lat="30.272972" lon="-97.726816" changeset="false"><tag k="addr:street" v="East 12th Street"/><tag k="addr:housenumber" v="1224"/><tag k="coa:place_id" v="880130"/></node><node id="-59" lat="30.276025" lon="-97.72834" changeset="false"><tag k="addr:street" v="Navasota Street"/><tag k="addr:housenumber" v="1611"/><tag k="coa:place_id" v="488150"/></node><node id="-60" lat="30.273838" lon="-97.730844" changeset="false"><tag k="addr:street" v="East 14th Street"/><tag k="addr:housenumber" v="807"/><tag k="coa:place_id" v="253123"/></node><node id="-61" lat="30.277792" lon="-97.721992" changeset="false"><tag k="addr:street" v="East 17th Street"/><tag k="addr:housenumber" v="1708"/><tag k="coa:place_id" v="209766"/></node><node id="-62" lat="30.272352" lon="-97.731066" changeset="false"><tag k="addr:street" v="East 12th Street"/><tag k="addr:housenumber" v="900"/><tag k="coa:place_id" v="1114388"/></node><node id="-63" lat="30.275287" lon="-97.722432" changeset="false"><tag k="addr:street" v="East 14th Street"/><tag k="addr:housenumber" v="1607"/><tag k="coa:place_id" v="525224"/></node><node id="-64" lat="30.273131" lon="-97.72584" changeset="false"><tag k="addr:street" v="East 12th Street"/><tag k="addr:housenumber" v="1310"/><tag k="coa:place_id" v="526412"/></node><node id="-65" lat="30.273101" lon="-97.725554" changeset="false"><tag k="addr:street" v="East 12th Street"/><tag k="addr:housenumber" v="1326"/><tag k="coa:place_id" v="211156"/></node><node id="-66" lat="30.275499" lon="-97.730019" changeset="false"><tag k="addr:street" v="East 15th Street"/><tag k="addr:housenumber" v="908"/><tag k="coa:place_id" v="253140"/></node><node id="-67" lat="30.274444" lon="-97.723033" changeset="false"><tag k="addr:street" v="East 13th Street"/><tag k="addr:housenumber" v="1600"/><tag k="coa:place_id" v="525182"/></node><node id="-68" lat="30.275371" lon="-97.721959" changeset="false"><tag k="addr:street" v="East 14th Street"/><tag k="addr:housenumber" v="1705"/><tag k="coa:place_id" v="490058"/></node><node id="-69" lat="30.272683" lon="-97.731287" changeset="false"><tag k="addr:street" v="North Interstate Highway 35 Service Road"/><tag k="addr:housenumber" v="1213"/><tag k="coa:place_id" v="880100"/></node><node id="-70" lat="30.273537" lon="-97.726316" changeset="false"><tag k="addr:street" v="San Bernard Street"/><tag k="addr:housenumber" v="1211"/><tag k="coa:place_id" v="526430"/></node><node id="-71" lat="30.274125" lon="-97.729809" changeset="false"><tag k="addr:street" v="East 14th Street"/><tag k="addr:housenumber" v="907"/><tag k="coa:place_id" v="201377"/></node><node id="-72" lat="30.272222" lon="-97.731419" changeset="false"><tag k="addr:street" v="North Interstate Highway 35 Service Road"/><tag k="addr:housenumber" v="1201"/><tag k="coa:place_id" v="880088"/></node><node id="-73" lat="30.278222" lon="-97.721045" changeset="false"><tag k="addr:street" v="Chicon Street"/><tag k="addr:housenumber" v="1706"/><tag k="coa:place_id" v="489764"/></node><node id="-74" lat="30.274576" lon="-97.730221" changeset="false"><tag k="addr:street" v="East 14th Street"/><tag k="addr:housenumber" v="902"/><tag k="coa:place_id" v="487844"/></node><node id="-75" lat="30.27634" lon="-97.730199" changeset="false"><tag k="addr:street" v="East 16th Street"/><tag k="addr:housenumber" v="810"/><tag k="coa:place_id" v="253147"/></node><node id="-76" lat="30.27719" lon="-97.721858" changeset="false"><tag k="addr:street" v="Salina Street"/><tag k="addr:housenumber" v="1606"/><tag k="coa:place_id" v="5102096"/></node><node id="-77" lat="30.27629" lon="-97.72848" changeset="false"><tag k="addr:street" v="Navasota Street"/><tag k="addr:housenumber" v="1601"/><tag k="coa:place_id" v="5080868"/></node><node id="-78" lat="30.274676" lon="-97.729598" changeset="false"><tag k="addr:street" v="East 14th Street"/><tag k="addr:housenumber" v="910"/><tag k="coa:place_id" v="487820"/></node><node id="-79" lat="30.275036" lon="-97.724016" changeset="false"><tag k="addr:street" v="Comal Street"/><tag k="addr:housenumber" v="1315"/><tag k="coa:place_id" v="525308"/></node><node id="-80" lat="30.272778" lon="-97.728228" changeset="false"><tag k="addr:street" v="East 12th Street"/><tag k="addr:housenumber" v="1112"/><tag k="coa:place_id" v="447308"/></node><node id="-81" lat="30.278412" lon="-97.722322" changeset="false"><tag k="addr:street" v="East 18th Street"/><tag k="addr:housenumber" v="1709"/><tag k="coa:place_id" v="489716"/></node><node id="-82" lat="30.273446" lon="-97.728273" changeset="false"><tag k="addr:street" v="East 13th Street"/><tag k="addr:housenumber" v="1007 1/2"/><tag k="coa:place_id" v="447638"/></node><node id="-83" lat="30.27494" lon="-97.724453" changeset="false"><tag k="addr:street" v="Comal Street"/><tag k="addr:housenumber" v="1308"/><tag k="coa:place_id" v="525548"/></node><node id="-84" lat="30.275884" lon="-97.729871" changeset="false"><tag k="addr:street" v="East 16th Street"/><tag k="addr:housenumber" v="811"/><tag k="coa:place_id" v="488018"/></node><node id="-85" lat="30.276261" lon="-97.730112" changeset="false"><tag k="addr:street" v="East 16th Street"/><tag k="addr:housenumber" v="812"/><tag k="coa:place_id" v="253149"/></node><node id="-86" lat="30.278225" lon="-97.729108" changeset="false"><tag k="addr:street" v="North Interstate Highway 35 Service Road"/><tag k="addr:housenumber" v="1801 1/2"/><tag k="coa:place_id" v="3095185"/></node><node id="-87" lat="30.276397" lon="-97.729273" changeset="false"><tag k="addr:street" v="East 16th Street"/><tag k="addr:housenumber" v="902"/><tag k="coa:place_id" v="488084"/></node><node id="-88" lat="30.273109" lon="-97.729182" changeset="false"><tag k="addr:street" v="East 13th Street"/><tag k="addr:housenumber" v="913"/><tag k="coa:place_id" v="889389"/></node><node id="-89" lat="30.279052" lon="-97.724352" changeset="false"><tag k="addr:street" v="East Martin Luther King Jr Boulevard"/><tag k="addr:housenumber" v="1509"/><tag k="coa:place_id" v="489548"/></node><node id="-90" lat="30.278348" lon="-97.721026" changeset="false"><tag k="addr:street" v="Chicon Street"/><tag k="addr:housenumber" v="1708"/><tag k="coa:place_id" v="489758"/></node><node id="-91" lat="30.273476" lon="-97.726309" changeset="false"><tag k="addr:street" v="San Bernard Street"/><tag k="addr:housenumber" v="1209"/><tag k="coa:place_id" v="3130625"/></node><node id="-92" lat="30.273507" lon="-97.724158" changeset="false"><tag k="addr:street" v="Comal Street"/><tag k="addr:housenumber" v="1204"/><tag k="coa:place_id" v="526256"/></node><node id="-93" lat="30.273696" lon="-97.729514" changeset="false"><tag k="addr:street" v="East 13th Street"/><tag k="addr:housenumber" v="908"/><tag k="coa:place_id" v="447722"/></node><node id="-94" lat="30.272956" lon="-97.730588" changeset="false"><tag k="addr:street" v="East 13th Street"/><tag k="addr:housenumber" v="817"/><tag k="coa:place_id" v="447560"/></node><node id="-95" lat="30.272584" lon="-97.729481" changeset="false"><tag k="addr:street" v="East 12th Street"/><tag k="addr:housenumber" v="1016"/><tag k="coa:place_id" v="447374"/></node><node id="-96" lat="30.272375" lon="-97.730039" changeset="false"><tag k="addr:street" v="East 12th Street"/><tag k="addr:housenumber" v="1000"/><tag k="coa:place_id" v="447398"/></node><node id="-97" lat="30.273632" lon="-97.729913" changeset="false"><tag k="addr:street" v="East 13th Street"/><tag k="addr:housenumber" v="904"/><tag k="coa:place_id" v="965978"/></node><node id="-98" lat="30.273103" lon="-97.725677" changeset="false"><tag k="addr:street" v="East 12th Street"/><tag k="addr:housenumber" v="1322"/><tag k="coa:place_id" v="211159"/></node><node id="-99" lat="30.278721" lon="-97.722389" changeset="false"><tag k="addr:street" v="East 18th Street"/><tag k="addr:housenumber" v="1708"/><tag k="coa:place_id" v="489686"/></node><node id="-100" lat="30.272747" lon="-97.728539" changeset="false"><tag k="addr:street" v="East 12th Street"/><tag k="addr:housenumber" v="1106"/><tag k="coa:place_id" v="447290"/></node><node id="-101" lat="30.275993" lon="-97.730201" changeset="false"><tag k="addr:street" v="East 16th Street"/><tag k="addr:housenumber" v="809"/><tag k="coa:place_id" v="488012"/></node><node id="-102" lat="30.27325" lon="-97.728301" changeset="false"><tag k="addr:street" v="East 13th Street"/><tag k="addr:housenumber" v="1007"/><tag k="coa:place_id" v="447632"/></node><node id="-103" lat="30.2796" lon="-97.721356" changeset="false"><tag k="addr:street" v="Chicon Street"/><tag k="addr:housenumber" v="1810"/><tag k="coa:place_id" v="489614"/></node><node id="-104" lat="30.272897" lon="-97.731385" changeset="false"><tag k="addr:street" v="East 13th Street"/><tag k="addr:housenumber" v="809"/><tag k="coa:place_id" v="1113607"/></node><node id="-105" lat="30.273099" lon="-97.725625" changeset="false"><tag k="addr:street" v="East 12th Street"/><tag k="addr:housenumber" v="1324"/><tag k="coa:place_id" v="211157"/></node><node id="-106" lat="30.27351" lon="-97.730679" changeset="false"><tag k="addr:street" v="East 13th Street"/><tag k="addr:housenumber" v="810"/><tag k="coa:place_id" v="447764"/></node><node id="-107" lat="30.27673" lon="-97.721877" changeset="false"><tag k="addr:street" v="East 16th Street"/><tag k="addr:housenumber" v="1710"/><tag k="coa:place_id" v="489896"/></node><node id="-108" lat="30.273101" lon="-97.725488" changeset="false"><tag k="addr:street" v="East 12th Street"/><tag k="addr:housenumber" v="1328"/><tag k="coa:place_id" v="211153"/></node><node id="-109" lat="30.273666" lon="-97.729703" changeset="false"><tag k="addr:street" v="East 13th Street"/><tag k="addr:housenumber" v="906"/><tag k="coa:place_id" v="447728"/></node><node id="-110" lat="30.272171" lon="-97.731385" changeset="false"><tag k="addr:street" v="East 12th Street"/><tag k="addr:housenumber" v="810"/><tag k="coa:place_id" v="1114843"/></node><node id="-111" lat="30.273819" lon="-97.727538" changeset="false"><tag k="addr:street" v="East 13th Street"/><tag k="addr:housenumber" v="1204"/><tag k="coa:place_id" v="525656"/></node><node id="-112" lat="30.275819" lon="-97.728304" changeset="false"><tag k="addr:street" v="Navasota Street"/><tag k="addr:housenumber" v="1607"/><tag k="coa:place_id" v="488138"/></node><node id="-113" lat="30.276321" lon="-97.720654" changeset="false"><tag k="addr:street" v="Chicon Street"/><tag k="addr:housenumber" v="1406"/><tag k="coa:place_id" v="243900"/></node><node id="-114" lat="30.273113" lon="-97.725345" changeset="false"><tag k="addr:street" v="East 12th Street"/><tag k="addr:housenumber" v="1332"/><tag k="coa:place_id" v="211151"/></node><node id="-115" lat="30.274649" lon="-97.729753" changeset="false"><tag k="addr:street" v="East 14th Street"/><tag k="addr:housenumber" v="908"/><tag k="coa:place_id" v="487826"/></node><node id="-116" lat="30.272979" lon="-97.726699" changeset="false"><tag k="addr:street" v="San Bernard Street"/><tag k="addr:housenumber" v="1202"/><tag k="coa:place_id" v="526460"/></node><node id="-117" lat="30.275894" lon="-97.730098" changeset="false"><tag k="addr:street" v="East 16th Street"/><tag k="addr:housenumber" v="807"/><tag k="coa:place_id" v="488000"/></node><node id="-118" lat="30.276235" lon="-97.724294" changeset="false"><tag k="addr:street" v="Comal Street"/><tag k="addr:housenumber" v="1601"/><tag k="coa:place_id" v="525314"/></node><node id="-119" lat="30.275212" lon="-97.721073" changeset="false"><tag k="addr:street" v="Salina Street"/><tag k="addr:housenumber" v="1305"/><tag k="coa:place_id" v="250407"/></node><node id="-120" lat="30.273676" lon="-97.721639" changeset="false"><tag k="addr:street" v="East 12th Street"/><tag k="addr:housenumber" v="1702"/><tag k="coa:place_id" v="526094"/></node><node id="-121" lat="30.272746" lon="-97.730545" changeset="false"><tag k="addr:street" v="Olander Street"/><tag k="addr:housenumber" v="1206"/><tag k="coa:place_id" v="447518"/></node><node id="-122" lat="30.276372" lon="-97.729407" changeset="false"><tag k="addr:street" v="East 16th Street"/><tag k="addr:housenumber" v="900"/><tag k="coa:place_id" v="488090"/></node><node id="-123" lat="30.27348" lon="-97.730291" changeset="false"><tag k="addr:street" v="East 13th Street"/><tag k="addr:housenumber" v="900"/><tag k="coa:place_id" v="246105"/></node><node id="-124" lat="30.272895" lon="-97.72718" changeset="false"><tag k="addr:street" v="East 12th Street"/><tag k="addr:housenumber" v="1214"/><tag k="coa:place_id" v="526484"/></node><node id="-125" lat="30.273547" lon="-97.722981" changeset="false"><tag k="addr:street" v="East 12th Street"/><tag k="addr:housenumber" v="1518"/><tag k="coa:place_id" v="253031"/></node><node id="-126" lat="30.279168" lon="-97.721244" changeset="false"><tag k="addr:street" v="Chicon Street"/><tag k="addr:housenumber" v="1806"/><tag k="coa:place_id" v="489620"/></node><node id="-127" lat="30.273118" lon="-97.725169" changeset="false"><tag k="addr:street" v="East 12th Street"/><tag k="addr:housenumber" v="1336"/><tag k="coa:place_id" v="211147"/></node><node id="-128" lat="30.277496" lon="-97.724647" changeset="false"><tag k="addr:street" v="Comal Street"/><tag k="addr:housenumber" v="1613"/><tag k="coa:place_id" v="993008"/></node><node id="-129" lat="30.277742" lon="-97.722247" changeset="false"><tag k="addr:street" v="East 17th Street"/><tag k="addr:housenumber" v="1706"/><tag k="coa:place_id" v="489800"/></node><node id="-130" lat="30.275202" lon="-97.728173" changeset="false"><tag k="addr:street" v="Navasota Street"/><tag k="addr:housenumber" v="1513"/><tag k="coa:place_id" v="993002"/></node><node id="-131" lat="30.276337" lon="-97.722119" changeset="false"><tag k="addr:street" v="East 16th Street"/><tag k="addr:housenumber" v="1703"/><tag k="coa:place_id" v="489920"/></node><node id="-132" lat="30.273372" lon="-97.725147" changeset="false"><tag k="addr:street" v="Angelina Street"/><tag k="addr:housenumber" v="1202"/><tag k="coa:place_id" v="526310"/></node><node id="-133" lat="30.273692" lon="-97.72864" changeset="false"><tag k="addr:street" v="East 13th Street"/><tag k="addr:housenumber" v="1004"/><tag k="coa:place_id" v="447686"/></node><node id="-134" lat="30.273098" lon="-97.725412" changeset="false"><tag k="addr:street" v="East 12th Street"/><tag k="addr:housenumber" v="1330"/><tag k="coa:place_id" v="211152"/></node><node id="-135" lat="30.273499" lon="-97.723522" changeset="false"><tag k="addr:street" v="East 12th Street"/><tag k="addr:housenumber" v="1506"/><tag k="coa:place_id" v="526220"/></node><node id="-136" lat="30.273525" lon="-97.724111" changeset="false"><tag k="addr:street" v="Comal Street"/><tag k="addr:housenumber" v="1206"/><tag k="coa:place_id" v="526250"/></node><node id="-137" lat="30.278949" lon="-97.721873" changeset="false"><tag k="addr:street" v="Salina Street"/><tag k="addr:housenumber" v="1805"/><tag k="coa:place_id" v="489656"/></node><node id="-138" lat="30.272982" lon="-97.730012" changeset="false"><tag k="addr:street" v="East 13th Street"/><tag k="addr:housenumber" v="903"/><tag k="coa:place_id" v="227340"/></node><node id="-139" lat="30.275764" lon="-97.729848" changeset="false"><tag k="addr:street" v="Waller Street"/><tag k="addr:housenumber" v="1506"/><tag k="coa:place_id" v="487970"/></node><node id="-140" lat="30.27456" lon="-97.723259" changeset="false"><tag k="addr:street" v="Concho Street"/><tag k="addr:housenumber" v="1304"/><tag k="coa:place_id" v="525248"/></node><node id="-141" lat="30.274098" lon="-97.730005" changeset="false"><tag k="addr:street" v="East 14th Street"/><tag k="addr:housenumber" v="905"/><tag k="coa:place_id" v="3040989"/></node><node id="-142" lat="30.272484" lon="-97.730375" changeset="false"><tag k="addr:street" v="Olander Street"/><tag k="addr:housenumber" v="1202"/><tag k="coa:place_id" v="447530"/></node><node id="-143" lat="30.273598" lon="-97.730125" changeset="false"><tag k="addr:street" v="East 13th Street"/><tag k="addr:housenumber" v="902"/><tag k="coa:place_id" v="447746"/></node><node id="-144" lat="30.272845" lon="-97.73084" changeset="false"><tag k="addr:street" v="East 13th Street"/><tag k="addr:housenumber" v="813"/><tag k="coa:place_id" v="447548"/></node><node id="-145" lat="30.272552" lon="-97.729694" changeset="false"><tag k="addr:street" v="East 12th Street"/><tag k="addr:housenumber" v="1010"/><tag k="coa:place_id" v="447386"/></node><node id="-146" lat="30.273329" lon="-97.724625" changeset="false"><tag k="addr:street" v="East 12th Street"/><tag k="addr:housenumber" v="1406"/><tag k="coa:place_id" v="107403"/></node><node id="-147" lat="30.275476" lon="-97.720757" changeset="false"><tag k="addr:street" v="East 14th Street"/><tag k="addr:housenumber" v="1805"/><tag k="coa:place_id" v="5108280"/></node><node id="-148" lat="30.275462" lon="-97.720891" changeset="false"><tag k="addr:street" v="East 14th Street"/><tag k="addr:housenumber" v="1803"/><tag k="coa:place_id" v="253126"/></node><node id="-149" lat="30.278185" lon="-97.722715" changeset="false"><tag k="addr:street" v="Leona Street"/><tag k="addr:housenumber" v="1709"/><tag k="coa:place_id" v="489830"/></node><node id="-150" lat="30.278069" lon="-97.722708" changeset="false"><tag k="addr:street" v="Leona Street"/><tag k="addr:housenumber" v="1707"/><tag k="coa:place_id" v="489836"/></node><node id="-151" lat="30.278364" lon="-97.72272" changeset="false"><tag k="addr:street" v="East 18th Street"/><tag k="addr:housenumber" v="1703"/><tag k="coa:place_id" v="489704"/></node><node id="-152" lat="30.27829" lon="-97.722738" changeset="false"><tag k="addr:street" v="Leona Street"/><tag k="addr:housenumber" v="1711"/><tag k="coa:place_id" v="489824"/></node><node id="-153" lat="30.278701" lon="-97.722818" changeset="false"><tag k="addr:street" v="Leona Street"/><tag k="addr:housenumber" v="1801"/><tag k="coa:place_id" v="3221202"/></node><node id="-154" lat="30.278876" lon="-97.722857" changeset="false"><tag k="addr:street" v="Leona Street"/><tag k="addr:housenumber" v="1803"/><tag k="coa:place_id" v="3221203"/></node><node id="-155" lat="30.275162" lon="-97.722821" changeset="false"><tag k="addr:street" v="East 14th Street"/><tag k="addr:housenumber" v="1603"/><tag k="coa:place_id" v="3393255"/></node><node id="-156" lat="30.275151" lon="-97.723033" changeset="false"><tag k="addr:street" v="Concho Street"/><tag k="addr:housenumber" v="1309"/><tag k="coa:place_id" v="1158132"/></node><node id="-157" lat="30.276017" lon="-97.729559" changeset="false"><tag k="addr:street" v="East 16th Street"/><tag k="addr:housenumber" v="901"/><tag k="coa:place_id" v="488024"/></node><node id="-158" lat="30.27596" lon="-97.729569" changeset="false"><tag k="addr:street" v="Waller Street"/><tag k="addr:housenumber" v="1505"/><tag k="coa:place_id" v="487964"/></node><node id="-159" lat="30.275983" lon="-97.728653" changeset="false"><tag k="addr:street" v="Navasota Street"/><tag k="addr:housenumber" v="1610"/><tag k="coa:place_id" v="488192"/></node><node id="-160" lat="30.27588" lon="-97.728635" changeset="false"><tag k="addr:street" v="Navasota Street"/><tag k="addr:housenumber" v="1608"/><tag k="coa:place_id" v="488198"/></node><node id="-161" lat="30.276039" lon="-97.728693" changeset="false"><tag k="addr:street" v="East 16th Street"/><tag k="addr:housenumber" v="1011"/><tag k="coa:place_id" v="880118"/></node><node id="-162" lat="30.276087" lon="-97.728672" changeset="false"><tag k="addr:street" v="Navasota Street"/><tag k="addr:housenumber" v="1612"/><tag k="coa:place_id" v="488186"/></node><node id="-163" lat="30.274928" lon="-97.730451" changeset="false"><tag k="addr:street" v="East 15th Street"/><tag k="addr:housenumber" v="901"/><tag k="coa:place_id" v="3078475"/></node><node id="-164" lat="30.274797" lon="-97.730446" changeset="false"><tag k="addr:street" v="Olander Street"/><tag k="addr:housenumber" v="1421"/><tag k="coa:place_id" v="206977"/></node><node id="-165" lat="30.273635" lon="-97.722272" changeset="false"><tag k="addr:street" v="East 12th Street"/><tag k="addr:housenumber" v="1606"/><tag k="coa:place_id" v="374920"/></node><node id="-166" lat="30.273574" lon="-97.722166" changeset="false"><tag k="addr:street" v="East 12th Street"/><tag k="addr:housenumber" v="1608"/><tag k="coa:place_id" v="526148"/></node><node id="-167" lat="30.273451" lon="-97.726945" changeset="false"><tag k="addr:street" v="East 13th Street"/><tag k="addr:housenumber" v="1211"/><tag k="coa:place_id" v="525146"/></node><node id="-168" lat="30.273402" lon="-97.726885" changeset="false"><tag k="addr:street" v="San Bernard Street"/><tag k="addr:housenumber" v="1212"/><tag k="coa:place_id" v="3041506"/></node><node id="-169" lat="30.273693" lon="-97.728839" changeset="false"><tag k="addr:street" v="East 13th Street"/><tag k="addr:housenumber" v="1002"/><tag k="coa:place_id" v="981302"/></node><node id="-170" lat="30.273674" lon="-97.728979" changeset="false"><tag k="addr:street" v="East 13th Street"/><tag k="addr:housenumber" v="1000"/><tag k="coa:place_id" v="447698"/></node></osm>