<?xml version="1.0" encoding="UTF-8"?><osm version="0.6" generator="github.com/aaronlidman/osm-and-geojson"><node id="-1" lat="30.226543" lon="-97.904441" changeset="false"><tag k="addr:street" v="Espanola Trail"/><tag k="addr:housenumber" v="8208"/><tag k="coa:place_id" v="873434"/></node><node id="-2" lat="30.227965" lon="-97.895763" changeset="false"><tag k="addr:street" v="La Tosca Drive"/><tag k="addr:housenumber" v="8402"/><tag k="coa:place_id" v="215070"/></node><node id="-3" lat="30.222954" lon="-97.90215" changeset="false"><tag k="addr:street" v="Espanola Trail"/><tag k="addr:housenumber" v="8005"/><tag k="coa:place_id" v="873518"/></node><node id="-4" lat="30.220632" lon="-97.896177" changeset="false"><tag k="addr:street" v="Gallant Fox Road"/><tag k="addr:housenumber" v="8804"/><tag k="coa:place_id" v="93529"/></node><node id="-5" lat="30.224481" lon="-97.903462" changeset="false"><tag k="addr:street" v="Espanola Trail"/><tag k="addr:housenumber" v="8107"/><tag k="coa:place_id" v="873476"/></node><node id="-6" lat="30.224707" lon="-97.902643" changeset="false"><tag k="addr:street" v="Espanola Trail"/><tag k="addr:housenumber" v="8104"/><tag k="coa:place_id" v="874358"/></node><node id="-7" lat="30.220709" lon="-97.895179" changeset="false"><tag k="addr:street" v="Gallant Fox Road"/><tag k="addr:housenumber" v="8800"/><tag k="coa:place_id" v="93528"/></node><node id="-8" lat="30.222391" lon="-97.904653" changeset="false"><tag k="addr:street" v="La Fauna View"/><tag k="addr:housenumber" v="9112"/><tag k="coa:place_id" v="349929"/></node><node id="-9" lat="30.221652" lon="-97.908328" changeset="false"><tag k="addr:street" v="La Fauna Path"/><tag k="addr:housenumber" v="9202"/><tag k="coa:place_id" v="998750"/></node><node id="-10" lat="30.227868" lon="-97.899771" changeset="false"><tag k="addr:street" v="Candelaria Drive"/><tag k="addr:housenumber" v="8602"/><tag k="coa:place_id" v="1138150"/></node><node id="-11" lat="30.220935" lon="-97.897326" changeset="false"><tag k="addr:street" v="Crazy Horse Drive"/><tag k="addr:housenumber" v="7803"/><tag k="coa:place_id" v="95185"/></node><node id="-12" lat="30.223055" lon="-97.89297" changeset="false"><tag k="addr:street" v="Cedar Springs Circle"/><tag k="addr:housenumber" v="8505"/><tag k="coa:place_id" v="95117"/></node><node id="-13" lat="30.218799" lon="-97.896549" changeset="false"><tag k="addr:street" v="Gallant Fox Road"/><tag k="addr:housenumber" v="8908"/><tag k="coa:place_id" v="93539"/></node><node id="-14" lat="30.223546" lon="-97.909712" changeset="false"><tag k="addr:street" v="Crest View Road"/><tag k="addr:housenumber" v="8503"/><tag k="coa:place_id" v="84072"/></node><node id="-15" lat="30.220227" lon="-97.904814" changeset="false"><tag k="addr:street" v="El Rey Boulevard"/><tag k="addr:housenumber" v="9102"/><tag k="coa:place_id" v="922478"/></node><node id="-16" lat="30.225465" lon="-97.901427" changeset="false"><tag k="addr:street" v="Candelaria Drive"/><tag k="addr:housenumber" v="8802"/><tag k="coa:place_id" v="873344"/></node><node id="-17" lat="30.225176" lon="-97.898231" changeset="false"><tag k="addr:street" v="El Rey Boulevard"/><tag k="addr:housenumber" v="8703"/><tag k="coa:place_id" v="873932"/></node><node id="-18" lat="30.225168" lon="-97.901593" changeset="false"><tag k="addr:street" v="Candelaria Drive"/><tag k="addr:housenumber" v="8804"/><tag k="coa:place_id" v="873350"/></node><node id="-19" lat="30.222776" lon="-97.903611" changeset="false"><tag k="addr:street" v="El Dorado Drive"/><tag k="addr:housenumber" v="8202"/><tag k="coa:place_id" v="162855"/></node><node id="-20" lat="30.225325" lon="-97.911508" changeset="false"><tag k="addr:street" v="Oak Valley Road"/><tag k="addr:housenumber" v="9014"/><tag k="coa:place_id" v="3217991"/></node><node id="-21" lat="30.229552" lon="-97.903768" changeset="false"><tag k="addr:street" v="Evelina Trail"/><tag k="addr:housenumber" v="8309"/><tag k="coa:place_id" v="5095048"/></node><node id="-22" lat="30.229952" lon="-97.904136" changeset="false"><tag k="addr:street" v="Evelina Trail"/><tag k="addr:housenumber" v="8308"/><tag k="coa:place_id" v="5095053"/></node><node id="-23" lat="30.229386" lon="-97.904676" changeset="false"><tag k="addr:street" v="Evelina Trail"/><tag k="addr:housenumber" v="8401"/><tag k="coa:place_id" v="5095060"/></node><node id="-24" lat="30.231826" lon="-97.90379" changeset="false"><tag k="addr:street" v="Lookout Cliff Pass"/><tag k="addr:housenumber" v="8400"/><tag k="coa:place_id" v="5095012"/></node><node id="-25" lat="30.231876" lon="-97.903993" changeset="false"><tag k="addr:street" v="Lookout Cliff Pass"/><tag k="addr:housenumber" v="8404"/><tag k="coa:place_id" v="5095013"/></node><node id="-26" lat="30.229778" lon="-97.905449" changeset="false"><tag k="addr:street" v="Evelina Trail"/><tag k="addr:housenumber" v="8417"/><tag k="coa:place_id" v="5095064"/></node><node id="-27" lat="30.22996" lon="-97.905559" changeset="false"><tag k="addr:street" v="Evelina Trail"/><tag k="addr:housenumber" v="8421"/><tag k="coa:place_id" v="5095065"/></node><node id="-28" lat="30.23031" lon="-97.905709" changeset="false"><tag k="addr:street" v="Evelina Trail"/><tag k="addr:housenumber" v="8429"/><tag k="coa:place_id" v="5095067"/></node><node id="-29" lat="30.23155" lon="-97.904942" changeset="false"><tag k="addr:street" v="Lookout Cliff Pass"/><tag k="addr:housenumber" v="8501"/><tag k="coa:place_id" v="5095003"/></node><node id="-30" lat="30.232961" lon="-97.909253" changeset="false"><tag k="addr:street" v="Vantage Point Drive"/><tag k="addr:housenumber" v="8729"/><tag k="coa:place_id" v="5060997"/></node><node id="-31" lat="30.221781" lon="-97.902769" changeset="false"><tag k="addr:street" v="El Dorado Drive"/><tag k="addr:housenumber" v="8100"/><tag k="coa:place_id" v="3427119"/></node><node id="-32" lat="30.221656" lon="-97.896533" changeset="false"><tag k="addr:street" v="Indian Ridge Drive"/><tag k="addr:housenumber" v="7801"/><tag k="coa:place_id" v="3427649"/></node><node id="-33" lat="30.222468" lon="-97.895986" changeset="false"><tag k="addr:street" v="Flat Rock Drive"/><tag k="addr:housenumber" v="7801"/><tag k="coa:place_id" v="95215"/></node><node id="-34" lat="30.231526" lon="-97.902662" changeset="false"><tag k="addr:street" v="Lookout Cliff Pass"/><tag k="addr:housenumber" v="8305"/><tag k="coa:place_id" v="5094991"/></node><node id="-35" lat="30.231498" lon="-97.902896" changeset="false"><tag k="addr:street" v="Lookout Cliff Pass"/><tag k="addr:housenumber" v="8309"/><tag k="coa:place_id" v="5094992"/></node><node id="-36" lat="30.231826" lon="-97.903585" changeset="false"><tag k="addr:street" v="Lookout Cliff Pass"/><tag k="addr:housenumber" v="8320"/><tag k="coa:place_id" v="5094997"/></node><node id="-37" lat="30.232432" lon="-97.906791" changeset="false"><tag k="addr:street" v="Vantage Point Drive"/><tag k="addr:housenumber" v="8601"/><tag k="coa:place_id" v="5062883"/></node><node id="-38" lat="30.232695" lon="-97.910736" changeset="false"><tag k="addr:street" v="High Summit Lane"/><tag k="addr:housenumber" v="8504"/><tag k="coa:place_id" v="3502562"/></node><node id="-39" lat="30.23339" lon="-97.909633" changeset="false"><tag k="addr:street" v="Vantage Point Drive"/><tag k="addr:housenumber" v="8800"/><tag k="coa:place_id" v="3502565"/></node><node id="-40" lat="30.232874" lon="-97.910113" changeset="false"><tag k="addr:street" v="High Summit Lane"/><tag k="addr:housenumber" v="8501"/><tag k="coa:place_id" v="3502570"/></node><node id="-41" lat="30.233417" lon="-97.908581" changeset="false"><tag k="addr:street" v="Vantage Point Drive"/><tag k="addr:housenumber" v="8716"/><tag k="coa:place_id" v="3502606"/></node><node id="-42" lat="30.232784" lon="-97.906582" changeset="false"><tag k="addr:street" v="Vantage Point Drive"/><tag k="addr:housenumber" v="8600"/><tag k="coa:place_id" v="3502611"/></node><node id="-43" lat="30.232956" lon="-97.90695" changeset="false"><tag k="addr:street" v="Vantage Point Drive"/><tag k="addr:housenumber" v="8608"/><tag k="coa:place_id" v="3502613"/></node><node id="-44" lat="30.230843" lon="-97.909191" changeset="false"><tag k="addr:street" v="Whispering Trail"/><tag k="addr:housenumber" v="8705"/><tag k="coa:place_id" v="3502625"/></node><node id="-45" lat="30.231176" lon="-97.909704" changeset="false"><tag k="addr:street" v="Whispering Trail"/><tag k="addr:housenumber" v="8717"/><tag k="coa:place_id" v="3502628"/></node><node id="-46" lat="30.22914" lon="-97.907995" changeset="false"><tag k="addr:street" v="Whispering Trail"/><tag k="addr:housenumber" v="8501"/><tag k="coa:place_id" v="3502666"/></node><node id="-47" lat="30.231362" lon="-97.906585" changeset="false"><tag k="addr:street" v="Evelina Trail"/><tag k="addr:housenumber" v="8609"/><tag k="coa:place_id" v="3502702"/></node><node id="-48" lat="30.231505" lon="-97.906695" changeset="false"><tag k="addr:street" v="Evelina Trail"/><tag k="addr:housenumber" v="8613"/><tag k="coa:place_id" v="3502703"/></node><node id="-49" lat="30.225541" lon="-97.905744" changeset="false"><tag k="addr:street" v="La Fauna Path"/><tag k="addr:housenumber" v="8804"/><tag k="coa:place_id" v="132045"/></node><node id="-50" lat="30.21917" lon="-97.896354" changeset="false"><tag k="addr:street" v="Gallant Fox Road"/><tag k="addr:housenumber" v="8904"/><tag k="coa:place_id" v="93535"/></node><node id="-51" lat="30.225092" lon="-97.903941" changeset="false"><tag k="addr:street" v="Espanola Trail"/><tag k="addr:housenumber" v="8201"/><tag k="coa:place_id" v="873458"/></node><node id="-52" lat="30.225066" lon="-97.902989" changeset="false"><tag k="addr:street" v="Espanola Trail"/><tag k="addr:housenumber" v="8106"/><tag k="coa:place_id" v="873380"/></node><node id="-53" lat="30.224993" lon="-97.900621" changeset="false"><tag k="addr:street" v="Candelaria Drive"/><tag k="addr:housenumber" v="8805"/><tag k="coa:place_id" v="873650"/></node><node id="-54" lat="30.226598" lon="-97.912828" changeset="false"><tag k="addr:street" v="Feather Hill Road"/><tag k="addr:housenumber" v="9001"/><tag k="coa:place_id" v="81575"/></node><node id="-55" lat="30.220129" lon="-97.90531" changeset="false"><tag k="addr:street" v="El Rey Boulevard"/><tag k="addr:housenumber" v="9200"/><tag k="coa:place_id" v="951632"/></node><node id="-56" lat="30.223922" lon="-97.904731" changeset="false"><tag k="addr:street" v="El Dorado Drive"/><tag k="addr:housenumber" v="8302"/><tag k="coa:place_id" v="145125"/></node><node id="-57" lat="30.223594" lon="-97.895325" changeset="false"><tag k="addr:street" v="Summervale Drive"/><tag k="addr:housenumber" v="7800"/><tag k="coa:place_id" v="95137"/></node><node id="-58" lat="30.223175" lon="-97.895545" changeset="false"><tag k="addr:street" v="Summervale Drive"/><tag k="addr:housenumber" v="7801"/><tag k="coa:place_id" v="138502"/></node><node id="-59" lat="30.224732" lon="-97.906261" changeset="false"><tag k="addr:street" v="La Fauna Path"/><tag k="addr:housenumber" v="8902"/><tag k="coa:place_id" v="1004882"/></node><node id="-60" lat="30.225392" lon="-97.898016" changeset="false"><tag k="addr:street" v="El Rey Boulevard"/><tag k="addr:housenumber" v="8701"/><tag k="coa:place_id" v="873938"/></node><node id="-61" lat="30.223033" lon="-97.892412" changeset="false"><tag k="addr:street" v="Ranch to Market Road 1826"/><tag k="addr:housenumber" v="8514"/><tag k="coa:place_id" v="95125"/></node><node id="-62" lat="30.222537" lon="-97.894235" changeset="false"><tag k="addr:street" v="Summervale Drive"/><tag k="addr:housenumber" v="7609"/><tag k="coa:place_id" v="95147"/></node><node id="-63" lat="30.220759" lon="-97.898228" changeset="false"><tag k="addr:street" v="Broken Lance Drive"/><tag k="addr:housenumber" v="7806"/><tag k="coa:place_id" v="95187"/></node><node id="-64" lat="30.219681" lon="-97.896326" changeset="false"><tag k="addr:street" v="Gallant Fox Road"/><tag k="addr:housenumber" v="8900"/><tag k="coa:place_id" v="93534"/></node><node id="-65" lat="30.223269" lon="-97.893402" changeset="false"><tag k="addr:street" v="Cedar Springs Circle"/><tag k="addr:housenumber" v="8504"/><tag k="coa:place_id" v="95118"/></node><node id="-66" lat="30.227" lon="-97.909117" changeset="false"><tag k="addr:street" v="Oak Valley Road"/><tag k="addr:housenumber" v="8803"/><tag k="coa:place_id" v="100908"/></node><node id="-67" lat="30.22283" lon="-97.906473" changeset="false"><tag k="addr:street" v="La Fauna View"/><tag k="addr:housenumber" v="9104"/><tag k="coa:place_id" v="145131"/></node><node id="-68" lat="30.222538" lon="-97.900354" changeset="false"><tag k="addr:street" v="El Rey Boulevard"/><tag k="addr:housenumber" v="8909"/><tag k="coa:place_id" v="873878"/></node><node id="-69" lat="30.222323" lon="-97.896713" changeset="false"><tag k="addr:street" v="Indian Ridge Drive"/><tag k="addr:housenumber" v="7804"/><tag k="coa:place_id" v="95172"/></node><node id="-70" lat="30.225864" lon="-97.896086" changeset="false"><tag k="addr:street" v="Granada Hills Drive"/><tag k="addr:housenumber" v="8508"/><tag k="coa:place_id" v="874010"/></node><node id="-71" lat="30.225995" lon="-97.912853" changeset="false"><tag k="addr:street" v="Feather Hill Road"/><tag k="addr:housenumber" v="9003"/><tag k="coa:place_id" v="215029"/></node><node id="-72" lat="30.229489" lon="-97.896395" changeset="false"><tag k="addr:street" v="El Rey Boulevard"/><tag k="addr:housenumber" v="8316"/><tag k="coa:place_id" v="873746"/></node><node id="-73" lat="30.224217" lon="-97.895955" changeset="false"><tag k="addr:street" v="Apache Springs Circle"/><tag k="addr:housenumber" v="8506"/><tag k="coa:place_id" v="95094"/></node><node id="-74" lat="30.223711" lon="-97.893088" changeset="false"><tag k="addr:street" v="Cedar Springs Circle"/><tag k="addr:housenumber" v="8500"/><tag k="coa:place_id" v="95107"/></node><node id="-75" lat="30.223285" lon="-97.902642" changeset="false"><tag k="addr:street" v="Espanola Trail"/><tag k="addr:housenumber" v="8009"/><tag k="coa:place_id" v="873500"/></node><node id="-76" lat="30.22351" lon="-97.900427" changeset="false"><tag k="addr:street" v="El Rey Boulevard"/><tag k="addr:housenumber" v="8902"/><tag k="coa:place_id" v="873866"/></node><node id="-77" lat="30.221473" lon="-97.893516" changeset="false"><tag k="addr:street" v="Gallant Fox Road"/><tag k="addr:housenumber" v="8700"/><tag k="coa:place_id" v="3428012"/></node><node id="-78" lat="30.231531" lon="-97.904714" changeset="false"><tag k="addr:street" v="Lookout Cliff Pass"/><tag k="addr:housenumber" v="8417"/><tag k="coa:place_id" v="5095002"/></node><node id="-79" lat="30.229678" lon="-97.90358" changeset="false"><tag k="addr:street" v="Evelina Trail"/><tag k="addr:housenumber" v="8305"/><tag k="coa:place_id" v="5095047"/></node><node id="-80" lat="30.229895" lon="-97.904624" changeset="false"><tag k="addr:street" v="Evelina Trail"/><tag k="addr:housenumber" v="8400"/><tag k="coa:place_id" v="5095055"/></node><node id="-81" lat="30.232079" lon="-97.905052" changeset="false"><tag k="addr:street" v="Lookout Cliff Pass"/><tag k="addr:housenumber" v="8500"/><tag k="coa:place_id" v="5095018"/></node><node id="-82" lat="30.231704" lon="-97.905882" changeset="false"><tag k="addr:street" v="Lookout Cliff Pass"/><tag k="addr:housenumber" v="8516"/><tag k="coa:place_id" v="5095022"/></node><node id="-83" lat="30.229636" lon="-97.905288" changeset="false"><tag k="addr:street" v="Evelina Trail"/><tag k="addr:housenumber" v="8413"/><tag k="coa:place_id" v="5095063"/></node><node id="-84" lat="30.230124" lon="-97.905658" changeset="false"><tag k="addr:street" v="Evelina Trail"/><tag k="addr:housenumber" v="8425"/><tag k="coa:place_id" v="5095066"/></node><node id="-85" lat="30.230675" lon="-97.905896" changeset="false"><tag k="addr:street" v="Evelina Trail"/><tag k="addr:housenumber" v="8507"/><tag k="coa:place_id" v="5095070"/></node><node id="-86" lat="30.232468" lon="-97.910311" changeset="false"><tag k="addr:street" v="High Summit Lane"/><tag k="addr:housenumber" v="8509"/><tag k="coa:place_id" v="3502572"/></node><node id="-87" lat="30.232295" lon="-97.910439" changeset="false"><tag k="addr:street" v="High Summit Lane"/><tag k="addr:housenumber" v="8513"/><tag k="coa:place_id" v="3502573"/></node><node id="-88" lat="30.231814" lon="-97.911149" changeset="false"><tag k="addr:street" v="Whispering Trail"/><tag k="addr:housenumber" v="8905"/><tag k="coa:place_id" v="3502578"/></node><node id="-89" lat="30.231629" lon="-97.910322" changeset="false"><tag k="addr:street" v="Whispering Trail"/><tag k="addr:housenumber" v="8801"/><tag k="coa:place_id" v="3502580"/></node><node id="-90" lat="30.231957" lon="-97.909107" changeset="false"><tag k="addr:street" v="Turning Trail"/><tag k="addr:housenumber" v="8309"/><tag k="coa:place_id" v="3502593"/></node><node id="-91" lat="30.232986" lon="-97.908606" changeset="false"><tag k="addr:street" v="Vantage Point Drive"/><tag k="addr:housenumber" v="8715"/><tag k="coa:place_id" v="3502599"/></node><node id="-92" lat="30.232483" lon="-97.907048" changeset="false"><tag k="addr:street" v="Vantage Point Drive"/><tag k="addr:housenumber" v="8607"/><tag k="coa:place_id" v="3502620"/></node><node id="-93" lat="30.230743" lon="-97.908973" changeset="false"><tag k="addr:street" v="Whispering Trail"/><tag k="addr:housenumber" v="8701"/><tag k="coa:place_id" v="3502624"/></node><node id="-94" lat="30.231046" lon="-97.909561" changeset="false"><tag k="addr:street" v="Whispering Trail"/><tag k="addr:housenumber" v="8713"/><tag k="coa:place_id" v="3502627"/></node><node id="-95" lat="30.230113" lon="-97.90801" changeset="false"><tag k="addr:street" v="Whispering Trail"/><tag k="addr:housenumber" v="8600"/><tag k="coa:place_id" v="3502645"/></node><node id="-96" lat="30.230653" lon="-97.90821" changeset="false"><tag k="addr:street" v="Whispering Trail"/><tag k="addr:housenumber" v="8612"/><tag k="coa:place_id" v="3502648"/></node><node id="-97" lat="30.230965" lon="-97.908505" changeset="false"><tag k="addr:street" v="Whispering Trail"/><tag k="addr:housenumber" v="8620"/><tag k="coa:place_id" v="3502650"/></node><node id="-98" lat="30.22916" lon="-97.907728" changeset="false"><tag k="addr:street" v="Whispering Trail"/><tag k="addr:housenumber" v="8500"/><tag k="coa:place_id" v="3502661"/></node><node id="-99" lat="30.23262" lon="-97.905944" changeset="false"><tag k="addr:street" v="Vantage Point Drive"/><tag k="addr:housenumber" v="8504"/><tag k="coa:place_id" v="3502683"/></node><node id="-100" lat="30.231709" lon="-97.906811" changeset="false"><tag k="addr:street" v="Evelina Trail"/><tag k="addr:housenumber" v="8701"/><tag k="coa:place_id" v="3502694"/></node><node id="-101" lat="30.233405" lon="-97.909406" changeset="false"><tag k="addr:street" v="Vantage Point Drive"/><tag k="addr:housenumber" v="8732"/><tag k="coa:place_id" v="3502610"/></node><node id="-102" lat="30.231237" lon="-97.906441" changeset="false"><tag k="addr:street" v="Evelina Trail"/><tag k="addr:housenumber" v="8605"/><tag k="coa:place_id" v="3502701"/></node><node id="-103" lat="30.219781" lon="-97.898689" changeset="false"><tag k="addr:street" v="Adobe Trail"/><tag k="addr:housenumber" v="7808"/><tag k="coa:place_id" v="405135"/></node><node id="-104" lat="30.232031" lon="-97.909571" changeset="false"><tag k="addr:street" v="Turning Trail"/><tag k="addr:housenumber" v="8317"/><tag k="coa:place_id" v="5062882"/></node><node id="-105" lat="30.23142" lon="-97.906049" changeset="false"><tag k="addr:street" v="Evelina Trail"/><tag k="addr:housenumber" v="8600"/><tag k="coa:place_id" v="5062884"/></node><node id="-106" lat="30.220996" lon="-97.906049" changeset="false"><tag k="addr:street" v="La Fauna View"/><tag k="addr:housenumber" v="9122"/><tag k="coa:place_id" v="140367"/></node><node id="-107" lat="30.223086" lon="-97.903904" changeset="false"><tag k="addr:street" v="El Dorado Drive"/><tag k="addr:housenumber" v="8204"/><tag k="coa:place_id" v="135753"/></node><node id="-108" lat="30.223764" lon="-97.904245" changeset="false"><tag k="addr:street" v="El Dorado Drive"/><tag k="addr:housenumber" v="8300"/><tag k="coa:place_id" v="133683"/></node><node id="-109" lat="30.223395" lon="-97.904088" changeset="false"><tag k="addr:street" v="El Dorado Drive"/><tag k="addr:housenumber" v="8206"/><tag k="coa:place_id" v="135759"/></node><node id="-110" lat="30.223098" lon="-97.898423" changeset="false"><tag k="addr:street" v="Granada Hills Drive"/><tag k="addr:housenumber" v="8804"/><tag k="coa:place_id" v="874058"/></node><node id="-111" lat="30.222663" lon="-97.895356" changeset="false"><tag k="addr:street" v="High Valley Road"/><tag k="addr:housenumber" v="8605"/><tag k="coa:place_id" v="95214"/></node><node id="-112" lat="30.226294" lon="-97.896547" changeset="false"><tag k="addr:street" v="La Tosca Drive"/><tag k="addr:housenumber" v="8506"/><tag k="coa:place_id" v="125499"/></node><node id="-113" lat="30.226404" lon="-97.91091" changeset="false"><tag k="addr:street" v="Oak Valley Road"/><tag k="addr:housenumber" v="8902"/><tag k="coa:place_id" v="100913"/></node><node id="-114" lat="30.225877" lon="-97.908193" changeset="false"><tag k="addr:street" v="Deer Haven Road"/><tag k="addr:housenumber" v="8900"/><tag k="coa:place_id" v="84080"/></node><node id="-115" lat="30.225678" lon="-97.899043" changeset="false"><tag k="addr:street" v="El Rey Boulevard"/><tag k="addr:housenumber" v="8606"/><tag k="coa:place_id" v="144083"/></node><node id="-116" lat="30.223257" lon="-97.892211" changeset="false"><tag k="addr:street" v="Ranch to Market Road 1826"/><tag k="addr:housenumber" v="8510"/><tag k="coa:place_id" v="95124"/></node><node id="-117" lat="30.221127" lon="-97.897627" changeset="false"><tag k="addr:street" v="Crazy Horse Drive"/><tag k="addr:housenumber" v="7805"/><tag k="coa:place_id" v="95183"/></node><node id="-118" lat="30.22112" lon="-97.903906" changeset="false"><tag k="addr:street" v="El Rey Boulevard"/><tag k="addr:housenumber" v="9014"/><tag k="coa:place_id" v="874466"/></node><node id="-119" lat="30.220695" lon="-97.898913" changeset="false"><tag k="addr:street" v="Granada Hills Drive"/><tag k="addr:housenumber" v="9005"/><tag k="coa:place_id" v="874076"/></node><node id="-120" lat="30.22608" lon="-97.903833" changeset="false"><tag k="addr:street" v="Espanola Trail"/><tag k="addr:housenumber" v="8204"/><tag k="coa:place_id" v="873422"/></node><node id="-121" lat="30.225838" lon="-97.904567" changeset="false"><tag k="addr:street" v="Espanola Trail"/><tag k="addr:housenumber" v="8207"/><tag k="coa:place_id" v="543717"/></node><node id="-122" lat="30.225715" lon="-97.904283" changeset="false"><tag k="addr:street" v="Espanola Trail"/><tag k="addr:housenumber" v="8205"/><tag k="coa:place_id" v="873452"/></node><node id="-123" lat="30.227278" lon="-97.896098" changeset="false"><tag k="addr:street" v="La Tosca Drive"/><tag k="addr:housenumber" v="8500"/><tag k="coa:place_id" v="543603"/></node><node id="-124" lat="30.221518" lon="-97.894631" changeset="false"><tag k="addr:street" v="Gallant Fox Road"/><tag k="addr:housenumber" v="8706"/><tag k="coa:place_id" v="93523"/></node><node id="-125" lat="30.221711" lon="-97.894254" changeset="false"><tag k="addr:street" v="Gallant Fox Road"/><tag k="addr:housenumber" v="8704"/><tag k="coa:place_id" v="93522"/></node><node id="-126" lat="30.221471" lon="-97.899378" changeset="false"><tag k="addr:street" v="Granada Hills Drive"/><tag k="addr:housenumber" v="9002"/><tag k="coa:place_id" v="874070"/></node><node id="-127" lat="30.225554" lon="-97.896833" changeset="false"><tag k="addr:street" v="Granada Hills Drive"/><tag k="addr:housenumber" v="8600"/><tag k="coa:place_id" v="123243"/></node><node id="-128" lat="30.219423" lon="-97.897961" changeset="false"><tag k="addr:street" v="Adobe Trail"/><tag k="addr:housenumber" v="7800"/><tag k="coa:place_id" v="320925"/></node><node id="-129" lat="30.22474" lon="-97.900894" changeset="false"><tag k="addr:street" v="Candelaria Drive"/><tag k="addr:housenumber" v="8807"/><tag k="coa:place_id" v="873668"/></node><node id="-130" lat="30.223889" lon="-97.908095" changeset="false"><tag k="addr:street" v="Deer Haven Road"/><tag k="addr:housenumber" v="9003"/><tag k="coa:place_id" v="84074"/></node><node id="-131" lat="30.227179" lon="-97.895423" changeset="false"><tag k="addr:street" v="La Tosca Drive"/><tag k="addr:housenumber" v="8501"/><tag k="coa:place_id" v="3427650"/></node><node id="-132" lat="30.232327" lon="-97.906354" changeset="false"><tag k="addr:street" v="Vantage Point Drive"/><tag k="addr:housenumber" v="8509"/><tag k="coa:place_id" v="5061334"/></node><node id="-133" lat="30.231463" lon="-97.904487" changeset="false"><tag k="addr:street" v="Lookout Cliff Pass"/><tag k="addr:housenumber" v="8413"/><tag k="coa:place_id" v="5095001"/></node><node id="-134" lat="30.22947" lon="-97.903988" changeset="false"><tag k="addr:street" v="Evelina Trail"/><tag k="addr:housenumber" v="8313"/><tag k="coa:place_id" v="5095049"/></node><node id="-135" lat="30.231526" lon="-97.905172" changeset="false"><tag k="addr:street" v="Lookout Cliff Pass"/><tag k="addr:housenumber" v="8507"/><tag k="coa:place_id" v="5095004"/></node><node id="-136" lat="30.231425" lon="-97.905374" changeset="false"><tag k="addr:street" v="Lookout Cliff Pass"/><tag k="addr:housenumber" v="8513"/><tag k="coa:place_id" v="5095005"/></node><node id="-137" lat="30.231951" lon="-97.905535" changeset="false"><tag k="addr:street" v="Lookout Cliff Pass"/><tag k="addr:housenumber" v="8508"/><tag k="coa:place_id" v="5095020"/></node><node id="-138" lat="30.232517" lon="-97.910836" changeset="false"><tag k="addr:street" v="High Summit Lane"/><tag k="addr:housenumber" v="8508"/><tag k="coa:place_id" v="3502563"/></node><node id="-139" lat="30.232273" lon="-97.909928" changeset="false"><tag k="addr:street" v="Rocky Bluff Drive"/><tag k="addr:housenumber" v="8500"/><tag k="coa:place_id" v="3502589"/></node><node id="-140" lat="30.231962" lon="-97.908888" changeset="false"><tag k="addr:street" v="Turning Trail"/><tag k="addr:housenumber" v="8305"/><tag k="coa:place_id" v="3502592"/></node><node id="-141" lat="30.23301" lon="-97.908842" changeset="false"><tag k="addr:street" v="Vantage Point Drive"/><tag k="addr:housenumber" v="8721"/><tag k="coa:place_id" v="3502600"/></node><node id="-142" lat="30.232499" lon="-97.907732" changeset="false"><tag k="addr:street" v="Turning Trail"/><tag k="addr:housenumber" v="8205"/><tag k="coa:place_id" v="3502617"/></node><node id="-143" lat="30.232724" lon="-97.906406" changeset="false"><tag k="addr:street" v="Vantage Point Drive"/><tag k="addr:housenumber" v="8512"/><tag k="coa:place_id" v="3502685"/></node><node id="-144" lat="30.231525" lon="-97.906224" changeset="false"><tag k="addr:street" v="Evelina Trail"/><tag k="addr:housenumber" v="8606"/><tag k="coa:place_id" v="3502698"/></node><node id="-145" lat="30.231918" lon="-97.910195" changeset="false"><tag k="addr:street" v="Rocky Bluff Drive"/><tag k="addr:housenumber" v="8508"/><tag k="coa:place_id" v="5053706"/></node><node id="-146" lat="30.222706" lon="-97.910546" changeset="false"><tag k="addr:street" v="San Diego Road"/><tag k="addr:housenumber" v="9101"/><tag k="coa:place_id" v="543819"/></node><node id="-147" lat="30.22429" lon="-97.894884" changeset="false"><tag k="addr:street" v="High Valley Road"/><tag k="addr:housenumber" v="8502"/><tag k="coa:place_id" v="95220"/></node><node id="-148" lat="30.222843" lon="-97.892538" changeset="false"><tag k="addr:street" v="Ranch to Market Road 1826"/><tag k="addr:housenumber" v="8518"/><tag k="coa:place_id" v="95129"/></node><node id="-149" lat="30.226133" lon="-97.895744" changeset="false"><tag k="addr:street" v="La Tosca Drive"/><tag k="addr:housenumber" v="8507"/><tag k="coa:place_id" v="198651"/></node><node id="-150" lat="30.222831" lon="-97.896842" changeset="false"><tag k="addr:street" v="Flat Rock Drive"/><tag k="addr:housenumber" v="7807"/><tag k="coa:place_id" v="95161"/></node><node id="-151" lat="30.222705" lon="-97.896599" changeset="false"><tag k="addr:street" v="Flat Rock Drive"/><tag k="addr:housenumber" v="7805"/><tag k="coa:place_id" v="95165"/></node><node id="-152" lat="30.223326" lon="-97.89581" changeset="false"><tag k="addr:street" v="Summervale Drive"/><tag k="addr:housenumber" v="7803"/><tag k="coa:place_id" v="95136"/></node><node id="-153" lat="30.224775" lon="-97.905227" changeset="false"><tag k="addr:street" v="La Fauna Path"/><tag k="addr:housenumber" v="8901"/><tag k="coa:place_id" v="167019"/></node><node id="-154" lat="30.224367" lon="-97.899948" changeset="false"><tag k="addr:street" v="El Rey Boulevard"/><tag k="addr:housenumber" v="8804"/><tag k="coa:place_id" v="873848"/></node><node id="-155" lat="30.224488" lon="-97.898505" changeset="false"><tag k="addr:street" v="El Rey Boulevard"/><tag k="addr:housenumber" v="8801"/><tag k="coa:place_id" v="822627"/></node><node id="-156" lat="30.227042" lon="-97.91234" changeset="false"><tag k="addr:street" v="Feather Hill Road"/><tag k="addr:housenumber" v="8903"/><tag k="coa:place_id" v="81574"/></node><node id="-157" lat="30.222885" lon="-97.895767" changeset="false"><tag k="addr:street" v="Flat Rock Drive"/><tag k="addr:housenumber" v="7800"/><tag k="coa:place_id" v="138693"/></node><node id="-158" lat="30.226981" lon="-97.910735" changeset="false"><tag k="addr:street" v="Oak Valley Road"/><tag k="addr:housenumber" v="8900"/><tag k="coa:place_id" v="100909"/></node><node id="-159" lat="30.226853" lon="-97.907155" changeset="false"><tag k="addr:street" v="Deer Haven Road"/><tag k="addr:housenumber" v="8802"/><tag k="coa:place_id" v="84081"/></node><node id="-160" lat="30.220252" lon="-97.907738" changeset="false"><tag k="addr:street" v="San Diego Road"/><tag k="addr:housenumber" v="9301"/><tag k="coa:place_id" v="90093"/></node><node id="-161" lat="30.22364" lon="-97.896283" changeset="false"><tag k="addr:street" v="Summervale Drive"/><tag k="addr:housenumber" v="7807"/><tag k="coa:place_id" v="95131"/></node><node id="-162" lat="30.221165" lon="-97.894947" changeset="false"><tag k="addr:street" v="Gallant Fox Road"/><tag k="addr:housenumber" v="8708"/><tag k="coa:place_id" v="93527"/></node><node id="-163" lat="30.222973" lon="-97.908643" changeset="false"><tag k="addr:street" v="Deer Haven Road"/><tag k="addr:housenumber" v="9005"/><tag k="coa:place_id" v="84073"/></node><node id="-164" lat="30.226415" lon="-97.899766" changeset="false"><tag k="addr:street" v="Candelaria Drive"/><tag k="addr:housenumber" v="8703"/><tag k="coa:place_id" v="3111472"/></node><node id="-165" lat="30.221313" lon="-97.905366" changeset="false"><tag k="addr:street" v="La Fauna View"/><tag k="addr:housenumber" v="9118"/><tag k="coa:place_id" v="195189"/></node><node id="-166" lat="30.226071" lon="-97.900772" changeset="false"><tag k="addr:street" v="Candelaria Drive"/><tag k="addr:housenumber" v="8706"/><tag k="coa:place_id" v="221577"/></node><node id="-167" lat="30.224866" lon="-97.899446" changeset="false"><tag k="addr:street" v="El Rey Boulevard"/><tag k="addr:housenumber" v="8800"/><tag k="coa:place_id" v="873836"/></node><node id="-168" lat="30.224436" lon="-97.901098" changeset="false"><tag k="addr:street" v="Candelaria Drive"/><tag k="addr:housenumber" v="8901"/><tag k="coa:place_id" v="873638"/></node><node id="-169" lat="30.224296" lon="-97.894305" changeset="false"><tag k="addr:street" v="High Valley Road"/><tag k="addr:housenumber" v="8501"/><tag k="coa:place_id" v="95225"/></node><node id="-170" lat="30.225013" lon="-97.89715" changeset="false"><tag k="addr:street" v="Granada Hills Drive"/><tag k="addr:housenumber" v="8604"/><tag k="coa:place_id" v="293535"/></node><node id="-171" lat="30.224843" lon="-97.898369" changeset="false"><tag k="addr:street" v="El Rey Boulevard"/><tag k="addr:housenumber" v="8705"/><tag k="coa:place_id" v="873926"/></node><node id="-172" lat="30.231744" lon="-97.910951" changeset="false"><tag k="addr:street" v="Whispering Trail"/><tag k="addr:housenumber" v="8901"/><tag k="coa:place_id" v="3502577"/></node><node id="-173" lat="30.232992" lon="-97.909021" changeset="false"><tag k="addr:street" v="Vantage Point Drive"/><tag k="addr:housenumber" v="8725"/><tag k="coa:place_id" v="3502601"/></node><node id="-174" lat="30.233387" lon="-97.908354" changeset="false"><tag k="addr:street" v="Vantage Point Drive"/><tag k="addr:housenumber" v="8712"/><tag k="coa:place_id" v="3502605"/></node><node id="-175" lat="30.230934" lon="-97.909382" changeset="false"><tag k="addr:street" v="Whispering Trail"/><tag k="addr:housenumber" v="8709"/><tag k="coa:place_id" v="3502626"/></node><node id="-176" lat="30.230829" lon="-97.90834" changeset="false"><tag k="addr:street" v="Whispering Trail"/><tag k="addr:housenumber" v="8616"/><tag k="coa:place_id" v="3502649"/></node><node id="-177" lat="30.229269" lon="-97.90816" changeset="false"><tag k="addr:street" v="Whispering Trail"/><tag k="addr:housenumber" v="8505"/><tag k="coa:place_id" v="3502667"/></node><node id="-178" lat="30.232076" lon="-97.906862" changeset="false"><tag k="addr:street" v="Evelina Trail"/><tag k="addr:housenumber" v="8709"/><tag k="coa:place_id" v="3502696"/></node><node id="-179" lat="30.231118" lon="-97.906288" changeset="false"><tag k="addr:street" v="Evelina Trail"/><tag k="addr:housenumber" v="8601"/><tag k="coa:place_id" v="3502700"/></node><node id="-180" lat="30.229969" lon="-97.904844" changeset="false"><tag k="addr:street" v="Evelina Trail"/><tag k="addr:housenumber" v="8408"/><tag k="coa:place_id" v="5095056"/></node><node id="-181" lat="30.230505" lon="-97.905204" changeset="false"><tag k="addr:street" v="Evelina Trail"/><tag k="addr:housenumber" v="8428"/><tag k="coa:place_id" v="5095059"/></node><node id="-182" lat="30.229432" lon="-97.904882" changeset="false"><tag k="addr:street" v="Evelina Trail"/><tag k="addr:housenumber" v="8405"/><tag k="coa:place_id" v="5095061"/></node><node id="-183" lat="30.231049" lon="-97.903781" changeset="false"><tag k="addr:street" v="Evelina Trail"/><tag k="addr:housenumber" v="8208"/><tag k="coa:place_id" v="5095030"/></node><node id="-184" lat="30.230649" lon="-97.903694" changeset="false"><tag k="addr:street" v="Evelina Trail"/><tag k="addr:housenumber" v="8220"/><tag k="coa:place_id" v="5095032"/></node><node id="-185" lat="30.231125" lon="-97.903214" changeset="false"><tag k="addr:street" v="Evelina Trail"/><tag k="addr:housenumber" v="8209"/><tag k="coa:place_id" v="5095036"/></node><node id="-186" lat="30.230957" lon="-97.903161" changeset="false"><tag k="addr:street" v="Evelina Trail"/><tag k="addr:housenumber" v="8213"/><tag k="coa:place_id" v="5095037"/></node><node id="-187" lat="30.230765" lon="-97.903108" changeset="false"><tag k="addr:street" v="Evelina Trail"/><tag k="addr:housenumber" v="8217"/><tag k="coa:place_id" v="5095038"/></node><node id="-188" lat="30.223741" lon="-97.89563" changeset="false"><tag k="addr:street" v="Apache Springs Circle"/><tag k="addr:housenumber" v="8509"/><tag k="coa:place_id" v="3391976"/></node><node id="-189" lat="30.231191" lon="-97.905773" changeset="false"><tag k="addr:street" v="Lookout Cliff Pass"/><tag k="addr:housenumber" v="8525"/><tag k="coa:place_id" v="5056680"/></node><node id="-190" lat="30.232385" lon="-97.909391" changeset="false"><tag k="addr:street" v="Turning Trail"/><tag k="addr:housenumber" v="8316"/><tag k="coa:place_id" v="5058098"/></node><node id="-191" lat="30.22283" lon="-97.899694" changeset="false"><tag k="addr:street" v="El Rey Boulevard"/><tag k="addr:housenumber" v="8905"/><tag k="coa:place_id" v="873890"/></node><node id="-192" lat="30.225954" lon="-97.898763" changeset="false"><tag k="addr:street" v="El Rey Boulevard"/><tag k="addr:housenumber" v="8604"/><tag k="coa:place_id" v="873818"/></node><node id="-193" lat="30.225477" lon="-97.900146" changeset="false"><tag k="addr:street" v="Candelaria Drive"/><tag k="addr:housenumber" v="8801"/><tag k="coa:place_id" v="873662"/></node><node id="-194" lat="30.220492" lon="-97.904453" changeset="false"><tag k="addr:street" v="El Rey Boulevard"/><tag k="addr:housenumber" v="9100"/><tag k="coa:place_id" v="998456"/></node><node id="-195" lat="30.219812" lon="-97.907759" changeset="false"><tag k="addr:street" v="San Diego Road"/><tag k="addr:housenumber" v="9303"/><tag k="coa:place_id" v="1023338"/></node><node id="-196" lat="30.223658" lon="-97.894169" changeset="false"><tag k="addr:street" v="Yaupon Springs Circle"/><tag k="addr:housenumber" v="8504"/><tag k="coa:place_id" v="95077"/></node><node id="-197" lat="30.221338" lon="-97.89785" changeset="false"><tag k="addr:street" v="Crazy Horse Drive"/><tag k="addr:housenumber" v="7807"/><tag k="coa:place_id" v="95179"/></node><node id="-198" lat="30.223008" lon="-97.893557" changeset="false"><tag k="addr:street" v="Cedar Springs Circle"/><tag k="addr:housenumber" v="8506"/><tag k="coa:place_id" v="95119"/></node><node id="-199" lat="30.224251" lon="-97.903367" changeset="false"><tag k="addr:street" v="Espanola Trail"/><tag k="addr:housenumber" v="8105"/><tag k="coa:place_id" v="873488"/></node><node id="-200" lat="30.221025" lon="-97.906444" changeset="false"><tag k="addr:street" v="La Fauna View"/><tag k="addr:housenumber" v="9124"/><tag k="coa:place_id" v="159057"/></node><node id="-201" lat="30.227515" lon="-97.910484" changeset="false"><tag k="addr:street" v="Oak Valley Road"/><tag k="addr:housenumber" v="8802"/><tag k="coa:place_id" v="100907"/></node><node id="-202" lat="30.22725" lon="-97.899385" changeset="false"><tag k="addr:street" v="Candelaria Drive"/><tag k="addr:housenumber" v="8605"/><tag k="coa:place_id" v="1138155"/></node><node id="-203" lat="30.222449" lon="-97.901599" changeset="false"><tag k="addr:street" v="Espanola Trail"/><tag k="addr:housenumber" v="8001"/><tag k="coa:place_id" v="111069"/></node><node id="-204" lat="30.221907" lon="-97.904674" changeset="false"><tag k="addr:street" v="La Fauna View"/><tag k="addr:housenumber" v="9114"/><tag k="coa:place_id" v="349941"/></node><node id="-205" lat="30.221558" lon="-97.897262" changeset="false"><tag k="addr:street" v="Crazy Horse Drive"/><tag k="addr:housenumber" v="7802"/><tag k="coa:place_id" v="95184"/></node><node id="-206" lat="30.224085" lon="-97.900154" changeset="false"><tag k="addr:street" v="El Rey Boulevard"/><tag k="addr:housenumber" v="8806"/><tag k="coa:place_id" v="873854"/></node><node id="-207" lat="30.223683" lon="-97.897951" changeset="false"><tag k="addr:street" v="Granada Hills Drive"/><tag k="addr:housenumber" v="8800"/><tag k="coa:place_id" v="874046"/></node><node id="-208" lat="30.225421" lon="-97.908654" changeset="false"><tag k="addr:street" v="Deer Haven Road"/><tag k="addr:housenumber" v="8902"/><tag k="coa:place_id" v="84079"/></node><node id="-209" lat="30.222581" lon="-97.901923" changeset="false"><tag k="addr:street" v="Espanola Trail"/><tag k="addr:housenumber" v="8003"/><tag k="coa:place_id" v="873524"/></node><node id="-210" lat="30.221974" lon="-97.893016" changeset="false"><tag k="addr:street" v="Summervale Drive"/><tag k="addr:housenumber" v="7601"/><tag k="coa:place_id" v="3080801"/></node><node id="-211" lat="30.220336" lon="-97.899113" changeset="false"><tag k="addr:street" v="Granada Hills Drive"/><tag k="addr:housenumber" v="9009"/><tag k="coa:place_id" v="398577"/></node><node id="-212" lat="30.228304" lon="-97.895401" changeset="false"><tag k="addr:street" v="La Tosca Drive"/><tag k="addr:housenumber" v="8400"/><tag k="coa:place_id" v="873998"/></node><node id="-213" lat="30.220164" lon="-97.896282" changeset="false"><tag k="addr:street" v="Gallant Fox Road"/><tag k="addr:housenumber" v="8808"/><tag k="coa:place_id" v="93533"/></node><node id="-214" lat="30.2196" lon="-97.898307" changeset="false"><tag k="addr:street" v="Adobe Trail"/><tag k="addr:housenumber" v="7804"/><tag k="coa:place_id" v="320919"/></node><node id="-215" lat="30.223963" lon="-97.895491" changeset="false"><tag k="addr:street" v="Apache Springs Circle"/><tag k="addr:housenumber" v="8507"/><tag k="coa:place_id" v="95093"/></node><node id="-216" lat="30.223112" lon="-97.899442" changeset="false"><tag k="addr:street" v="El Rey Boulevard"/><tag k="addr:housenumber" v="8903"/><tag k="coa:place_id" v="873896"/></node><node id="-217" lat="30.226088" lon="-97.910012" changeset="false"><tag k="addr:street" v="Oak Valley Road"/><tag k="addr:housenumber" v="8903"/><tag k="coa:place_id" v="100915"/></node><node id="-218" lat="30.225085" lon="-97.905903" changeset="false"><tag k="addr:street" v="La Fauna Path"/><tag k="addr:housenumber" v="8900"/><tag k="coa:place_id" v="132051"/></node><node id="-219" lat="30.224874" lon="-97.907514" changeset="false"><tag k="addr:street" v="Deer Haven Road"/><tag k="addr:housenumber" v="8903"/><tag k="coa:place_id" v="84076"/></node><node id="-220" lat="30.224425" lon="-97.895177" changeset="false"><tag k="addr:street" v="Apache Springs Circle"/><tag k="addr:housenumber" v="8503"/><tag k="coa:place_id" v="95087"/></node><node id="-221" lat="30.224418" lon="-97.895816" changeset="false"><tag k="addr:street" v="Apache Springs Circle"/><tag k="addr:housenumber" v="8504"/><tag k="coa:place_id" v="95088"/></node><node id="-222" lat="30.225235" lon="-97.896119" changeset="false"><tag k="addr:street" v="Granada Hills Drive"/><tag k="addr:housenumber" v="8601"/><tag k="coa:place_id" v="874148"/></node><node id="-223" lat="30.223274" lon="-97.892796" changeset="false"><tag k="addr:street" v="Cedar Springs Circle"/><tag k="addr:housenumber" v="8503"/><tag k="coa:place_id" v="95113"/></node><node id="-224" lat="30.230465" lon="-97.897532" changeset="false"><tag k="addr:street" v="Candelaria Drive"/><tag k="addr:housenumber" v="8308"/><tag k="coa:place_id" v="1138145"/></node><node id="-225" lat="30.224101" lon="-97.901265" changeset="false"><tag k="addr:street" v="Candelaria Drive"/><tag k="addr:housenumber" v="8903"/><tag k="coa:place_id" v="873632"/></node><node id="-226" lat="30.223955" lon="-97.903028" changeset="false"><tag k="addr:street" v="Espanola Trail"/><tag k="addr:housenumber" v="8103"/><tag k="coa:place_id" v="873410"/></node><node id="-227" lat="30.222215" lon="-97.902919" changeset="false"><tag k="addr:street" v="El Dorado Drive"/><tag k="addr:housenumber" v="8102"/><tag k="coa:place_id" v="182535"/></node><node id="-228" lat="30.232053" lon="-97.910616" changeset="false"><tag k="addr:street" v="High Summit Lane"/><tag k="addr:housenumber" v="8517"/><tag k="coa:place_id" v="5068840"/></node><node id="-229" lat="30.23134" lon="-97.903811" changeset="false"><tag k="addr:street" v="Lookout Cliff Pass"/><tag k="addr:housenumber" v="8401"/><tag k="coa:place_id" v="5094998"/></node><node id="-230" lat="30.229409" lon="-97.904212" changeset="false"><tag k="addr:street" v="Evelina Trail"/><tag k="addr:housenumber" v="8317"/><tag k="coa:place_id" v="5095050"/></node><node id="-231" lat="30.230101" lon="-97.903926" changeset="false"><tag k="addr:street" v="Evelina Trail"/><tag k="addr:housenumber" v="8300"/><tag k="coa:place_id" v="5095052"/></node><node id="-232" lat="30.229894" lon="-97.904393" changeset="false"><tag k="addr:street" v="Evelina Trail"/><tag k="addr:housenumber" v="8316"/><tag k="coa:place_id" v="5095054"/></node><node id="-233" lat="30.230116" lon="-97.905014" changeset="false"><tag k="addr:street" v="Evelina Trail"/><tag k="addr:housenumber" v="8416"/><tag k="coa:place_id" v="5095057"/></node><node id="-234" lat="30.231931" lon="-97.904194" changeset="false"><tag k="addr:street" v="Lookout Cliff Pass"/><tag k="addr:housenumber" v="8408"/><tag k="coa:place_id" v="5095014"/></node><node id="-235" lat="30.23205" lon="-97.904598" changeset="false"><tag k="addr:street" v="Lookout Cliff Pass"/><tag k="addr:housenumber" v="8416"/><tag k="coa:place_id" v="5095016"/></node><node id="-236" lat="30.2327" lon="-97.907703" changeset="false"><tag k="addr:street" v="Turning Trail"/><tag k="addr:housenumber" v="8201"/><tag k="coa:place_id" v="5062881"/></node><node id="-237" lat="30.220838" lon="-97.897053" changeset="false"><tag k="addr:street" v="Crazy Horse Drive"/><tag k="addr:housenumber" v="7801"/><tag k="coa:place_id" v="3427648"/></node><node id="-238" lat="30.233386" lon="-97.909827" changeset="false"><tag k="addr:street" v="Vantage Point Drive"/><tag k="addr:housenumber" v="8804"/><tag k="coa:place_id" v="3502566"/></node><node id="-239" lat="30.233381" lon="-97.910028" changeset="false"><tag k="addr:street" v="Vantage Point Drive"/><tag k="addr:housenumber" v="8808"/><tag k="coa:place_id" v="3502567"/></node><node id="-240" lat="30.2334" lon="-97.910211" changeset="false"><tag k="addr:street" v="Vantage Point Drive"/><tag k="addr:housenumber" v="8812"/><tag k="coa:place_id" v="3502568"/></node><node id="-241" lat="30.232679" lon="-97.909734" changeset="false"><tag k="addr:street" v="Rocky Bluff Drive"/><tag k="addr:housenumber" v="8404"/><tag k="coa:place_id" v="3502575"/></node><node id="-242" lat="30.232472" lon="-97.909813" changeset="false"><tag k="addr:street" v="Rocky Bluff Drive"/><tag k="addr:housenumber" v="8408"/><tag k="coa:place_id" v="3502576"/></node><node id="-243" lat="30.232584" lon="-97.908341" changeset="false"><tag k="addr:street" v="Turning Trail"/><tag k="addr:housenumber" v="8212"/><tag k="coa:place_id" v="3502596"/></node><node id="-244" lat="30.233217" lon="-97.907749" changeset="false"><tag k="addr:street" v="Vantage Point Drive"/><tag k="addr:housenumber" v="8700"/><tag k="coa:place_id" v="3502602"/></node><node id="-245" lat="30.233339" lon="-97.908119" changeset="false"><tag k="addr:street" v="Vantage Point Drive"/><tag k="addr:housenumber" v="8708"/><tag k="coa:place_id" v="3502604"/></node><node id="-246" lat="30.233408" lon="-97.909211" changeset="false"><tag k="addr:street" v="Vantage Point Drive"/><tag k="addr:housenumber" v="8728"/><tag k="coa:place_id" v="3502609"/></node><node id="-247" lat="30.233012" lon="-97.907153" changeset="false"><tag k="addr:street" v="Vantage Point Drive"/><tag k="addr:housenumber" v="8612"/><tag k="coa:place_id" v="3502614"/></node><node id="-248" lat="30.233068" lon="-97.907346" changeset="false"><tag k="addr:street" v="Vantage Point Drive"/><tag k="addr:housenumber" v="8616"/><tag k="coa:place_id" v="3502615"/></node><node id="-249" lat="30.231464" lon="-97.910004" changeset="false"><tag k="addr:street" v="Whispering Trail"/><tag k="addr:housenumber" v="8725"/><tag k="coa:place_id" v="3502630"/></node><node id="-250" lat="30.231197" lon="-97.909045" changeset="false"><tag k="addr:street" v="Whispering Trail"/><tag k="addr:housenumber" v="8706"/><tag k="coa:place_id" v="3502632"/></node><node id="-251" lat="30.229359" lon="-97.907597" changeset="false"><tag k="addr:street" v="Whispering Trail"/><tag k="addr:housenumber" v="8504"/><tag k="coa:place_id" v="3502662"/></node><node id="-252" lat="30.229608" lon="-97.907667" changeset="false"><tag k="addr:street" v="Whispering Trail"/><tag k="addr:housenumber" v="8508"/><tag k="coa:place_id" v="3502663"/></node><node id="-253" lat="30.229738" lon="-97.907919" changeset="false"><tag k="addr:street" v="Whispering Trail"/><tag k="addr:housenumber" v="8512"/><tag k="coa:place_id" v="3502664"/></node><node id="-254" lat="30.231882" lon="-97.906852" changeset="false"><tag k="addr:street" v="Evelina Trail"/><tag k="addr:housenumber" v="8705"/><tag k="coa:place_id" v="3502695"/></node><node id="-255" lat="30.231701" lon="-97.909768" changeset="false"><tag k="addr:street" v="Rocky Bluff Drive"/><tag k="addr:housenumber" v="8509"/><tag k="coa:place_id" v="5078818"/></node><node id="-256" lat="30.223955" lon="-97.89605" changeset="false"><tag k="addr:street" v="Apache Springs Circle"/><tag k="addr:housenumber" v="8508"/><tag k="coa:place_id" v="95095"/></node><node id="-257" lat="30.225588" lon="-97.903425" changeset="false"><tag k="addr:street" v="Espanola Trail"/><tag k="addr:housenumber" v="8200"/><tag k="coa:place_id" v="873416"/></node><node id="-258" lat="30.226393" lon="-97.900619" changeset="false"><tag k="addr:street" v="Candelaria Drive"/><tag k="addr:housenumber" v="8704"/><tag k="coa:place_id" v="223989"/></node><node id="-259" lat="30.219709" lon="-97.899435" changeset="false"><tag k="addr:street" v="Granada Hills Drive"/><tag k="addr:housenumber" v="9107"/><tag k="coa:place_id" v="379701"/></node><node id="-260" lat="30.221905" lon="-97.909193" changeset="false"><tag k="addr:street" v="San Diego Road"/><tag k="addr:housenumber" v="9201"/><tag k="coa:place_id" v="543795"/></node><node id="-261" lat="30.223795" lon="-97.900238" changeset="false"><tag k="addr:street" v="El Rey Boulevard"/><tag k="addr:housenumber" v="8900"/><tag k="coa:place_id" v="873860"/></node><node id="-262" lat="30.226802" lon="-97.897528" changeset="false"><tag k="addr:street" v="El Rey Boulevard"/><tag k="addr:housenumber" v="8507"/><tag k="coa:place_id" v="873962"/></node><node id="-263" lat="30.222312" lon="-97.897876" changeset="false"><tag k="addr:street" v="Granada Hills Drive"/><tag k="addr:housenumber" v="8901"/><tag k="coa:place_id" v="874100"/></node><node id="-264" lat="30.231449" lon="-97.903115" changeset="false"><tag k="addr:street" v="Lookout Cliff Pass"/><tag k="addr:housenumber" v="8313"/><tag k="coa:place_id" v="5094993"/></node><node id="-265" lat="30.23139" lon="-97.903343" changeset="false"><tag k="addr:street" v="Lookout Cliff Pass"/><tag k="addr:housenumber" v="8317"/><tag k="coa:place_id" v="5094994"/></node><node id="-266" lat="30.231929" lon="-97.903156" changeset="false"><tag k="addr:street" v="Lookout Cliff Pass"/><tag k="addr:housenumber" v="8312"/><tag k="coa:place_id" v="5094995"/></node><node id="-267" lat="30.231408" lon="-97.904291" changeset="false"><tag k="addr:street" v="Lookout Cliff Pass"/><tag k="addr:housenumber" v="8409"/><tag k="coa:place_id" v="5095000"/></node><node id="-268" lat="30.229381" lon="-97.904443" changeset="false"><tag k="addr:street" v="Evelina Trail"/><tag k="addr:housenumber" v="8321"/><tag k="coa:place_id" v="5095051"/></node><node id="-269" lat="30.231283" lon="-97.90555" changeset="false"><tag k="addr:street" v="Lookout Cliff Pass"/><tag k="addr:housenumber" v="8519"/><tag k="coa:place_id" v="5095006"/></node><node id="-270" lat="30.230565" lon="-97.903111" changeset="false"><tag k="addr:street" v="Evelina Trail"/><tag k="addr:housenumber" v="8221"/><tag k="coa:place_id" v="5095039"/></node><node id="-271" lat="30.232929" lon="-97.910526" changeset="false"><tag k="addr:street" v="High Summit Lane"/><tag k="addr:housenumber" v="8500"/><tag k="coa:place_id" v="3502561"/></node><node id="-272" lat="30.232358" lon="-97.910949" changeset="false"><tag k="addr:street" v="High Summit Lane"/><tag k="addr:housenumber" v="8512"/><tag k="coa:place_id" v="3502564"/></node><node id="-273" lat="30.232853" lon="-97.90972" changeset="false"><tag k="addr:street" v="Rocky Bluff Drive"/><tag k="addr:housenumber" v="8400"/><tag k="coa:place_id" v="3502574"/></node><node id="-274" lat="30.232097" lon="-97.910049" changeset="false"><tag k="addr:street" v="Rocky Bluff Drive"/><tag k="addr:housenumber" v="8504"/><tag k="coa:place_id" v="3502590"/></node><node id="-275" lat="30.232005" lon="-97.908679" changeset="false"><tag k="addr:street" v="Turning Trail"/><tag k="addr:housenumber" v="8301"/><tag k="coa:place_id" v="3502591"/></node><node id="-276" lat="30.232886" lon="-97.906773" changeset="false"><tag k="addr:street" v="Vantage Point Drive"/><tag k="addr:housenumber" v="8604"/><tag k="coa:place_id" v="3502612"/></node><node id="-277" lat="30.233126" lon="-97.907544" changeset="false"><tag k="addr:street" v="Vantage Point Drive"/><tag k="addr:housenumber" v="8620"/><tag k="coa:place_id" v="3502616"/></node><node id="-278" lat="30.232349" lon="-97.907864" changeset="false"><tag k="addr:street" v="Turning Trail"/><tag k="addr:housenumber" v="8209"/><tag k="coa:place_id" v="3502618"/></node><node id="-279" lat="30.230673" lon="-97.908805" changeset="false"><tag k="addr:street" v="Whispering Trail"/><tag k="addr:housenumber" v="8621"/><tag k="coa:place_id" v="3502653"/></node><node id="-280" lat="30.232442" lon="-97.905764" changeset="false"><tag k="addr:street" v="Vantage Point Drive"/><tag k="addr:housenumber" v="8500"/><tag k="coa:place_id" v="3502682"/></node><node id="-281" lat="30.23217" lon="-97.906114" changeset="false"><tag k="addr:street" v="Vantage Point Drive"/><tag k="addr:housenumber" v="8505"/><tag k="coa:place_id" v="3502687"/></node><node id="-282" lat="30.232117" lon="-97.911003" changeset="false"><tag k="addr:street" v="High Summit Lane"/><tag k="addr:housenumber" v="8516"/><tag k="coa:place_id" v="5062520"/></node><node id="-283" lat="30.23085" lon="-97.903738" changeset="false"><tag k="addr:street" v="Evelina Trail"/><tag k="addr:housenumber" v="8212"/><tag k="coa:place_id" v="5095031"/></node><node id="-284" lat="30.230269" lon="-97.903812" changeset="false"><tag k="addr:street" v="Evelina Trail"/><tag k="addr:housenumber" v="8230"/><tag k="coa:place_id" v="5095034"/></node><node id="-285" lat="30.230373" lon="-97.90314" changeset="false"><tag k="addr:street" v="Evelina Trail"/><tag k="addr:housenumber" v="8225"/><tag k="coa:place_id" v="5095040"/></node><node id="-286" lat="30.230173" lon="-97.903203" changeset="false"><tag k="addr:street" v="Evelina Trail"/><tag k="addr:housenumber" v="8229"/><tag k="coa:place_id" v="5095041"/></node><node id="-287" lat="30.229851" lon="-97.903439" changeset="false"><tag k="addr:street" v="Evelina Trail"/><tag k="addr:housenumber" v="8301"/><tag k="coa:place_id" v="5095046"/></node><node id="-288" lat="30.23168" lon="-97.91054" changeset="false"><tag k="addr:street" v="Whispering Trail"/><tag k="addr:housenumber" v="8805"/><tag k="coa:place_id" v="3502581"/></node><node id="-289" lat="30.231715" lon="-97.910744" changeset="false"><tag k="addr:street" v="Whispering Trail"/><tag k="addr:housenumber" v="8809"/><tag k="coa:place_id" v="3502582"/></node><node id="-290" lat="30.232352" lon="-97.909136" changeset="false"><tag k="addr:street" v="Turning Trail"/><tag k="addr:housenumber" v="8312"/><tag k="coa:place_id" v="3502595"/></node><node id="-291" lat="30.232469" lon="-97.908568" changeset="false"><tag k="addr:street" v="Turning Trail"/><tag k="addr:housenumber" v="8216"/><tag k="coa:place_id" v="3502597"/></node><node id="-292" lat="30.232929" lon="-97.908301" changeset="false"><tag k="addr:street" v="Vantage Point Drive"/><tag k="addr:housenumber" v="8709"/><tag k="coa:place_id" v="3502598"/></node><node id="-293" lat="30.233276" lon="-97.907935" changeset="false"><tag k="addr:street" v="Vantage Point Drive"/><tag k="addr:housenumber" v="8704"/><tag k="coa:place_id" v="3502603"/></node><node id="-294" lat="30.232573" lon="-97.907252" changeset="false"><tag k="addr:street" v="Vantage Point Drive"/><tag k="addr:housenumber" v="8611"/><tag k="coa:place_id" v="3502621"/></node><node id="-295" lat="30.231308" lon="-97.90985" changeset="false"><tag k="addr:street" v="Whispering Trail"/><tag k="addr:housenumber" v="8721"/><tag k="coa:place_id" v="3502629"/></node><node id="-296" lat="30.230486" lon="-97.908117" changeset="false"><tag k="addr:street" v="Whispering Trail"/><tag k="addr:housenumber" v="8608"/><tag k="coa:place_id" v="3502647"/></node><node id="-297" lat="30.231062" lon="-97.908677" changeset="false"><tag k="addr:street" v="Whispering Trail"/><tag k="addr:housenumber" v="8624"/><tag k="coa:place_id" v="3502651"/></node><node id="-298" lat="30.230537" lon="-97.908603" changeset="false"><tag k="addr:street" v="Whispering Trail"/><tag k="addr:housenumber" v="8613"/><tag k="coa:place_id" v="3502652"/></node><node id="-299" lat="30.229914" lon="-97.907986" changeset="false"><tag k="addr:street" v="Whispering Trail"/><tag k="addr:housenumber" v="8516"/><tag k="coa:place_id" v="3502665"/></node><node id="-300" lat="30.23267" lon="-97.906199" changeset="false"><tag k="addr:street" v="Vantage Point Drive"/><tag k="addr:housenumber" v="8508"/><tag k="coa:place_id" v="3502684"/></node><node id="-301" lat="30.231896" lon="-97.906461" changeset="false"><tag k="addr:street" v="Evelina Trail"/><tag k="addr:housenumber" v="8700"/><tag k="coa:place_id" v="3502697"/></node><node id="-302" lat="30.2311" lon="-97.908836" changeset="false"><tag k="addr:street" v="Whispering Trail"/><tag k="addr:housenumber" v="8700"/><tag k="coa:place_id" v="3502631"/></node><node id="-303" lat="30.230989" lon="-97.906121" changeset="false"><tag k="addr:street" v="Evelina Trail"/><tag k="addr:housenumber" v="8517"/><tag k="coa:place_id" v="3502705"/></node><node id="-304" lat="30.222771" lon="-97.905122" changeset="false"><tag k="addr:street" v="La Fauna View"/><tag k="addr:housenumber" v="9110"/><tag k="coa:place_id" v="349923"/></node><node id="-305" lat="30.224618" lon="-97.899715" changeset="false"><tag k="addr:street" v="El Rey Boulevard"/><tag k="addr:housenumber" v="8802"/><tag k="coa:place_id" v="873842"/></node><node id="-306" lat="30.224039" lon="-97.898906" changeset="false"><tag k="addr:street" v="El Rey Boulevard"/><tag k="addr:housenumber" v="8805"/><tag k="coa:place_id" v="873914"/></node><node id="-307" lat="30.226817" lon="-97.89979" changeset="false"><tag k="addr:street" v="Candelaria Drive"/><tag k="addr:housenumber" v="8701"/><tag k="coa:place_id" v="873686"/></node><node id="-308" lat="30.226816" lon="-97.900716" changeset="false"><tag k="addr:street" v="Candelaria Drive"/><tag k="addr:housenumber" v="8702"/><tag k="coa:place_id" v="873326"/></node><node id="-309" lat="30.222355" lon="-97.909858" changeset="false"><tag k="addr:street" v="San Diego Road"/><tag k="addr:housenumber" v="9105"/><tag k="coa:place_id" v="543807"/></node><node id="-310" lat="30.222184" lon="-97.909539" changeset="false"><tag k="addr:street" v="San Diego Road"/><tag k="addr:housenumber" v="9109"/><tag k="coa:place_id" v="543801"/></node><node id="-311" lat="30.231881" lon="-97.903375" changeset="false"><tag k="addr:street" v="Lookout Cliff Pass"/><tag k="addr:housenumber" v="8316"/><tag k="coa:place_id" v="5094996"/></node><node id="-312" lat="30.231362" lon="-97.904081" changeset="false"><tag k="addr:street" v="Lookout Cliff Pass"/><tag k="addr:housenumber" v="8405"/><tag k="coa:place_id" v="5094999"/></node><node id="-313" lat="30.230307" lon="-97.905104" changeset="false"><tag k="addr:street" v="Evelina Trail"/><tag k="addr:housenumber" v="8424"/><tag k="coa:place_id" v="5095058"/></node><node id="-314" lat="30.231989" lon="-97.90439" changeset="false"><tag k="addr:street" v="Lookout Cliff Pass"/><tag k="addr:housenumber" v="8412"/><tag k="coa:place_id" v="5095015"/></node><node id="-315" lat="30.232075" lon="-97.904832" changeset="false"><tag k="addr:street" v="Lookout Cliff Pass"/><tag k="addr:housenumber" v="8420"/><tag k="coa:place_id" v="5095017"/></node><node id="-316" lat="30.232017" lon="-97.905294" changeset="false"><tag k="addr:street" v="Lookout Cliff Pass"/><tag k="addr:housenumber" v="8504"/><tag k="coa:place_id" v="5095019"/></node><node id="-317" lat="30.23184" lon="-97.905723" changeset="false"><tag k="addr:street" v="Lookout Cliff Pass"/><tag k="addr:housenumber" v="8512"/><tag k="coa:place_id" v="5095021"/></node><node id="-318" lat="30.230445" lon="-97.903724" changeset="false"><tag k="addr:street" v="Evelina Trail"/><tag k="addr:housenumber" v="8226"/><tag k="coa:place_id" v="5095033"/></node><node id="-319" lat="30.229522" lon="-97.905102" changeset="false"><tag k="addr:street" v="Evelina Trail"/><tag k="addr:housenumber" v="8409"/><tag k="coa:place_id" v="5095062"/></node><node id="-320" lat="30.230497" lon="-97.905807" changeset="false"><tag k="addr:street" v="Evelina Trail"/><tag k="addr:housenumber" v="8501"/><tag k="coa:place_id" v="5095069"/></node><node id="-321" lat="30.224111" lon="-97.893865" changeset="false"><tag k="addr:street" v="Yaupon Springs Circle"/><tag k="addr:housenumber" v="8500"/><tag k="coa:place_id" v="95099"/></node><node id="-322" lat="30.223292" lon="-97.901127" changeset="false"><tag k="addr:street" v="Espanola Trail"/><tag k="addr:housenumber" v="8002"/><tag k="coa:place_id" v="873608"/></node><node id="-323" lat="30.233403" lon="-97.910452" changeset="false"><tag k="addr:street" v="Vantage Point Drive"/><tag k="addr:housenumber" v="8900"/><tag k="coa:place_id" v="3502559"/></node><node id="-324" lat="30.232662" lon="-97.910187" changeset="false"><tag k="addr:street" v="High Summit Lane"/><tag k="addr:housenumber" v="8505"/><tag k="coa:place_id" v="3502571"/></node><node id="-325" lat="30.2319" lon="-97.911337" changeset="false"><tag k="addr:street" v="Whispering Trail"/><tag k="addr:housenumber" v="8909"/><tag k="coa:place_id" v="3502579"/></node><node id="-326" lat="30.231982" lon="-97.909326" changeset="false"><tag k="addr:street" v="Turning Trail"/><tag k="addr:housenumber" v="8313"/><tag k="coa:place_id" v="3502594"/></node><node id="-327" lat="30.233428" lon="-97.908776" changeset="false"><tag k="addr:street" v="Vantage Point Drive"/><tag k="addr:housenumber" v="8720"/><tag k="coa:place_id" v="3502607"/></node><node id="-328" lat="30.233418" lon="-97.909005" changeset="false"><tag k="addr:street" v="Vantage Point Drive"/><tag k="addr:housenumber" v="8724"/><tag k="coa:place_id" v="3502608"/></node><node id="-329" lat="30.232225" lon="-97.908055" changeset="false"><tag k="addr:street" v="Turning Trail"/><tag k="addr:housenumber" v="8213"/><tag k="coa:place_id" v="3502619"/></node><node id="-330" lat="30.2313" lon="-97.909257" changeset="false"><tag k="addr:street" v="Whispering Trail"/><tag k="addr:housenumber" v="8712"/><tag k="coa:place_id" v="3502633"/></node><node id="-331" lat="30.230297" lon="-97.908053" changeset="false"><tag k="addr:street" v="Whispering Trail"/><tag k="addr:housenumber" v="8604"/><tag k="coa:place_id" v="3502646"/></node><node id="-332" lat="30.229463" lon="-97.908219" changeset="false"><tag k="addr:street" v="Whispering Trail"/><tag k="addr:housenumber" v="8509"/><tag k="coa:place_id" v="3502668"/></node><node id="-333" lat="30.232215" lon="-97.905881" changeset="false"><tag k="addr:street" v="Vantage Point Drive"/><tag k="addr:housenumber" v="8501"/><tag k="coa:place_id" v="3502686"/></node><node id="-334" lat="30.231695" lon="-97.90637" changeset="false"><tag k="addr:street" v="Evelina Trail"/><tag k="addr:housenumber" v="8612"/><tag k="coa:place_id" v="3502699"/></node><node id="-335" lat="30.225411" lon="-97.89916" changeset="false"><tag k="addr:street" v="El Rey Boulevard"/><tag k="addr:housenumber" v="8702"/><tag k="coa:place_id" v="873824"/></node><node id="-336" lat="30.225419" lon="-97.90726" changeset="false"><tag k="addr:street" v="Deer Haven Road"/><tag k="addr:housenumber" v="8901"/><tag k="coa:place_id" v="84077"/></node><node id="-337" lat="30.229846" lon="-97.896088" changeset="false"><tag k="addr:street" v="Candelaria Drive"/><tag k="addr:housenumber" v="8300"/><tag k="coa:place_id" v="873242"/></node><node id="-338" lat="30.230868" lon="-97.905965" changeset="false"><tag k="addr:street" v="Evelina Trail"/><tag k="addr:housenumber" v="8513"/><tag k="coa:place_id" v="3502704"/></node><node id="-339" lat="30.226386" lon="-97.89584" changeset="false"><tag k="addr:street" v="La Tosca Drive"/><tag k="addr:housenumber" v="8505"/><tag k="coa:place_id" v="198663"/></node><node id="-340" lat="30.223132" lon="-97.902401" changeset="false"><tag k="addr:street" v="Espanola Trail"/><tag k="addr:housenumber" v="8007"/><tag k="coa:place_id" v="873506"/></node><node id="-341" lat="30.224194" lon="-97.89535" changeset="false"><tag k="addr:street" v="Apache Springs Circle"/><tag k="addr:housenumber" v="8505"/><tag k="coa:place_id" v="95089"/></node><node id="-342" lat="30.222261" lon="-97.893616" changeset="false"><tag k="addr:street" v="Summervale Drive"/><tag k="addr:housenumber" v="7605"/><tag k="coa:place_id" v="95149"/></node><node id="-343" lat="30.223476" lon="-97.896055" changeset="false"><tag k="addr:street" v="Summervale Drive"/><tag k="addr:housenumber" v="7805"/><tag k="coa:place_id" v="95135"/></node><node id="-344" lat="30.224579" lon="-97.896474" changeset="false"><tag k="addr:street" v="Granada Hills Drive"/><tag k="addr:housenumber" v="8605"/><tag k="coa:place_id" v="942932"/></node><node id="-345" lat="30.227554" lon="-97.899212" changeset="false"><tag k="addr:street" v="Candelaria Drive"/><tag k="addr:housenumber" v="8603"/><tag k="coa:place_id" v="1138153"/></node><node id="-346" lat="30.226311" lon="-97.898625" changeset="false"><tag k="addr:street" v="El Rey Boulevard"/><tag k="addr:housenumber" v="8602"/><tag k="coa:place_id" v="873812"/></node><node id="-347" lat="30.226039" lon="-97.897723" changeset="false"><tag k="addr:street" v="El Rey Boulevard"/><tag k="addr:housenumber" v="8603"/><tag k="coa:place_id" v="873950"/></node><node id="-348" lat="30.226057" lon="-97.903184" changeset="false"><tag k="addr:street" v="Cima Circle"/><tag k="addr:housenumber" v="8902"/><tag k="coa:place_id" v="1017218"/></node><node id="-349" lat="30.222512" lon="-97.910186" changeset="false"><tag k="addr:street" v="San Diego Road"/><tag k="addr:housenumber" v="9103"/><tag k="coa:place_id" v="543813"/></node><node id="-350" lat="30.22843" lon="-97.898677" changeset="false"><tag k="addr:street" v="Candelaria Drive"/><tag k="addr:housenumber" v="8503"/><tag k="coa:place_id" v="873710"/></node><node id="-351" lat="30.228269" lon="-97.896434" changeset="false"><tag k="addr:street" v="El Rey Boulevard"/><tag k="addr:housenumber" v="8403"/><tag k="coa:place_id" v="1138148"/></node><node id="-352" lat="30.221617" lon="-97.897627" changeset="false"><tag k="addr:street" v="Crazy Horse Drive"/><tag k="addr:housenumber" v="7806"/><tag k="coa:place_id" v="95178"/></node><node id="-353" lat="30.227463" lon="-97.890238" changeset="false"><tag k="addr:street" v="Ranch to Market Road 1826"/><tag k="addr:housenumber" v="7900"/><tag k="coa:place_id" v="210660"/></node><node id="-354" lat="30.224829" lon="-97.90887" changeset="false"><tag k="addr:street" v="Deer Haven Road"/><tag k="addr:housenumber" v="9000"/><tag k="coa:place_id" v="84078"/></node><node id="-355" lat="30.220819" lon="-97.904275" changeset="false"><tag k="addr:street" v="El Rey Boulevard"/><tag k="addr:housenumber" v="9016"/><tag k="coa:place_id" v="874472"/></node><node id="-356" lat="30.22659" lon="-97.904745" changeset="false"><tag k="addr:street" v="Espanola Trail"/><tag k="addr:housenumber" v="8210"/><tag k="coa:place_id" v="873440"/></node><node id="-357" lat="30.220202" lon="-97.906256" changeset="false"><tag k="addr:street" v="El Rey Boulevard"/><tag k="addr:housenumber" v="9204"/><tag k="coa:place_id" v="1004864"/></node><node id="-358" lat="30.22012" lon="-97.905834" changeset="false"><tag k="addr:street" v="El Rey Boulevard"/><tag k="addr:housenumber" v="9202"/><tag k="coa:place_id" v="984728"/></node><node id="-359" lat="30.225588" lon="-97.895732" changeset="false"><tag k="addr:street" v="Granada Hills Drive"/><tag k="addr:housenumber" v="8509"/><tag k="coa:place_id" v="198657"/></node><node id="-360" lat="30.227956" lon="-97.911543" changeset="false"><tag k="addr:street" v="Feather Hill Road"/><tag k="addr:housenumber" v="8803"/><tag k="coa:place_id" v="81572"/></node><node id="-361" lat="30.226374" lon="-97.906566" changeset="false"><tag k="addr:street" v="Deer Haven Road"/><tag k="addr:housenumber" v="8721"/><tag k="coa:place_id" v="215100"/></node><node id="-362" lat="30.225577" lon="-97.910214" changeset="false"><tag k="addr:street" v="Oak Valley Road"/><tag k="addr:housenumber" v="9001"/><tag k="coa:place_id" v="100919"/></node><node id="-363" lat="30.222604" lon="-97.899954" changeset="false"><tag k="addr:street" v="El Rey Boulevard"/><tag k="addr:housenumber" v="8907"/><tag k="coa:place_id" v="873884"/></node><node id="-364" lat="30.222607" lon="-97.896279" changeset="false"><tag k="addr:street" v="Flat Rock Drive"/><tag k="addr:housenumber" v="7803"/><tag k="coa:place_id" v="95166"/></node><node id="-365" lat="30.222477" lon="-97.9034" changeset="false"><tag k="addr:street" v="El Dorado Drive"/><tag k="addr:housenumber" v="8200"/><tag k="coa:place_id" v="167013"/></node><node id="-366" lat="30.221964" lon="-97.90029" changeset="false"><tag k="addr:street" v="Espanola Trail"/><tag k="addr:housenumber" v="7900"/><tag k="coa:place_id" v="873596"/></node><node id="-367" lat="30.221792" lon="-97.899187" changeset="false"><tag k="addr:street" v="Granada Hills Drive"/><tag k="addr:housenumber" v="9000"/><tag k="coa:place_id" v="874064"/></node><node id="-368" lat="30.221682" lon="-97.903535" changeset="false"><tag k="addr:street" v="El Dorado Drive"/><tag k="addr:housenumber" v="8103"/><tag k="coa:place_id" v="123545"/></node><node id="-369" lat="30.224233" lon="-97.909249" changeset="false"><tag k="addr:street" v="Crest View Road"/><tag k="addr:housenumber" v="8502"/><tag k="coa:place_id" v="84071"/></node><node id="-370" lat="30.223923" lon="-97.90685" changeset="false"><tag k="addr:street" v="La Fauna Path"/><tag k="addr:housenumber" v="9002"/><tag k="coa:place_id" v="123231"/></node><node id="-371" lat="30.223471" lon="-97.901432" changeset="false"><tag k="addr:street" v="Espanola Trail"/><tag k="addr:housenumber" v="8004"/><tag k="coa:place_id" v="873614"/></node><node id="-372" lat="30.223404" lon="-97.899335" changeset="false"><tag k="addr:street" v="El Rey Boulevard"/><tag k="addr:housenumber" v="8901"/><tag k="coa:place_id" v="385575"/></node><node id="-373" lat="30.221766" lon="-97.895917" changeset="false"><tag k="addr:street" v="High Valley Road"/><tag k="addr:housenumber" v="8709"/><tag k="coa:place_id" v="95208"/></node><node id="-374" lat="30.223024" lon="-97.895999" changeset="false"><tag k="addr:street" v="Flat Rock Drive"/><tag k="addr:housenumber" v="7802"/><tag k="coa:place_id" v="95160"/></node><node id="-375" lat="30.228129" lon="-97.894738" changeset="false"><tag k="addr:street" v="La Tosca Drive"/><tag k="addr:housenumber" v="8401"/><tag k="coa:place_id" v="874202"/></node><node id="-376" lat="30.226414" lon="-97.904049" changeset="false"><tag k="addr:street" v="Espanola Trail"/><tag k="addr:housenumber" v="8206"/><tag k="coa:place_id" v="873428"/></node><node id="-377" lat="30.224411" lon="-97.897631" changeset="false"><tag k="addr:street" v="Granada Hills Drive"/><tag k="addr:housenumber" v="8702"/><tag k="coa:place_id" v="874034"/></node><node id="-378" lat="30.224203" lon="-97.896685" changeset="false"><tag k="addr:street" v="Granada Hills Drive"/><tag k="addr:housenumber" v="8701"/><tag k="coa:place_id" v="951668"/></node><node id="-379" lat="30.226587" lon="-97.89852" changeset="false"><tag k="addr:street" v="El Rey Boulevard"/><tag k="addr:housenumber" v="8600"/><tag k="coa:place_id" v="873806"/></node><node id="-380" lat="30.226357" lon="-97.905081" changeset="false"><tag k="addr:street" v="La Fauna Path"/><tag k="addr:housenumber" v="8800"/><tag k="coa:place_id" v="1014824"/></node><node id="-381" lat="30.222058" lon="-97.897408" changeset="false"><tag k="addr:street" v="Indian Ridge Drive"/><tag k="addr:housenumber" v="7807"/><tag k="coa:place_id" v="95171"/></node><node id="-382" lat="30.223676" lon="-97.902807" changeset="false"><tag k="addr:street" v="Espanola Trail"/><tag k="addr:housenumber" v="8101"/><tag k="coa:place_id" v="730336"/></node><node id="-383" lat="30.223579" lon="-97.907089" changeset="false"><tag k="addr:street" v="La Fauna Path"/><tag k="addr:housenumber" v="9004"/><tag k="coa:place_id" v="1004888"/></node><node id="-384" lat="30.223411" lon="-97.898259" changeset="false"><tag k="addr:street" v="Granada Hills Drive"/><tag k="addr:housenumber" v="8802"/><tag k="coa:place_id" v="874052"/></node><node id="-385" lat="30.222813" lon="-97.893124" changeset="false"><tag k="addr:street" v="Cedar Springs Circle"/><tag k="addr:housenumber" v="8507"/><tag k="coa:place_id" v="95123"/></node><node id="-386" lat="30.222839" lon="-97.894799" changeset="false"><tag k="addr:street" v="Summervale Drive"/><tag k="addr:housenumber" v="7701"/><tag k="coa:place_id" v="95142"/></node><node id="-387" lat="30.222593" lon="-97.892699" changeset="false"><tag k="addr:street" v="Summervale Drive"/><tag k="addr:housenumber" v="7602"/><tag k="coa:place_id" v="95130"/></node><node id="-388" lat="30.223559" lon="-97.892722" changeset="false"><tag k="addr:street" v="Cedar Springs Circle"/><tag k="addr:housenumber" v="8501"/><tag k="coa:place_id" v="95111"/></node><node id="-389" lat="30.224654" lon="-97.897405" changeset="false"><tag k="addr:street" v="Granada Hills Drive"/><tag k="addr:housenumber" v="8700"/><tag k="coa:place_id" v="874028"/></node><node id="-390" lat="30.223015" lon="-97.905668" changeset="false"><tag k="addr:street" v="La Fauna View"/><tag k="addr:housenumber" v="9108"/><tag k="coa:place_id" v="243459"/></node><node id="-391" lat="30.221063" lon="-97.905669" changeset="false"><tag k="addr:street" v="La Fauna View"/><tag k="addr:housenumber" v="9120"/><tag k="coa:place_id" v="145143"/></node><node id="-392" lat="30.227422" lon="-97.911815" changeset="false"><tag k="addr:street" v="Feather Hill Road"/><tag k="addr:housenumber" v="8901"/><tag k="coa:place_id" v="81573"/></node><node id="-393" lat="30.225209" lon="-97.90042" changeset="false"><tag k="addr:street" v="Candelaria Drive"/><tag k="addr:housenumber" v="8803"/><tag k="coa:place_id" v="873656"/></node><node id="-394" lat="30.225157" lon="-97.899376" changeset="false"><tag k="addr:street" v="El Rey Boulevard"/><tag k="addr:housenumber" v="8704"/><tag k="coa:place_id" v="873830"/></node><node id="-395" lat="30.229679" lon="-97.897386" changeset="false"><tag k="addr:street" v="Candelaria Drive"/><tag k="addr:housenumber" v="8401"/><tag k="coa:place_id" v="873740"/></node><node id="-396" lat="30.225928" lon="-97.911336" changeset="false"><tag k="addr:street" v="Oak Valley Road"/><tag k="addr:housenumber" v="9000"/><tag k="coa:place_id" v="65609"/></node><node id="-397" lat="30.225478" lon="-97.902265" changeset="false"><tag k="addr:street" v="Cima Circle"/><tag k="addr:housenumber" v="8903"/><tag k="coa:place_id" v="873392"/></node><node id="-398" lat="30.221518" lon="-97.896024" changeset="false"><tag k="addr:street" v="High Valley Road"/><tag k="addr:housenumber" v="8713"/><tag k="coa:place_id" v="95207"/></node><node id="-399" lat="30.225966" lon="-97.912931" changeset="false"><tag k="addr:street" v="Crest View Road"/><tag k="addr:housenumber" v="8800"/><tag k="coa:place_id" v="81577"/></node><node id="-400" lat="30.226131" lon="-97.905489" changeset="false"><tag k="addr:street" v="La Fauna Path"/><tag k="addr:housenumber" v="8802"/><tag k="coa:place_id" v="543741"/></node><node id="-401" lat="30.226581" lon="-97.909675" changeset="false"><tag k="addr:street" v="Oak Valley Road"/><tag k="addr:housenumber" v="8901"/><tag k="coa:place_id" v="100914"/></node><node id="-402" lat="30.225791" lon="-97.901187" changeset="false"><tag k="addr:street" v="Candelaria Drive"/><tag k="addr:housenumber" v="8800"/><tag k="coa:place_id" v="873338"/></node><node id="-403" lat="30.221232" lon="-97.906781" changeset="false"><tag k="addr:street" v="La Fauna View"/><tag k="addr:housenumber" v="9126"/><tag k="coa:place_id" v="135777"/></node><node id="-404" lat="30.230477" lon="-97.898165" changeset="false"><tag k="addr:street" v="Candelaria Drive"/><tag k="addr:housenumber" v="8310"/><tag k="coa:place_id" v="1138144"/></node><node id="-405" lat="30.222626" lon="-97.897776" changeset="false"><tag k="addr:street" v="Granada Hills Drive"/><tag k="addr:housenumber" v="8805"/><tag k="coa:place_id" v="874106"/></node><node id="-406" lat="30.219942" lon="-97.906925" changeset="false"><tag k="addr:street" v="El Rey Boulevard"/><tag k="addr:housenumber" v="9300"/><tag k="coa:place_id" v="1004876"/></node><node id="-407" lat="30.222114" lon="-97.905729" changeset="false"><tag k="addr:street" v="La Fauna View"/><tag k="addr:housenumber" v="9111"/><tag k="coa:place_id" v="451263"/></node><node id="-408" lat="30.22155" lon="-97.904982" changeset="false"><tag k="addr:street" v="La Fauna View"/><tag k="addr:housenumber" v="9116"/><tag k="coa:place_id" v="182457"/></node><node id="-409" lat="30.224732" lon="-97.903811" changeset="false"><tag k="addr:street" v="Espanola Trail"/><tag k="addr:housenumber" v="8109"/><tag k="coa:place_id" v="873470"/></node><node id="-410" lat="30.223529" lon="-97.893308" changeset="false"><tag k="addr:street" v="Cedar Springs Circle"/><tag k="addr:housenumber" v="8502"/><tag k="coa:place_id" v="95112"/></node><node id="-411" lat="30.224679" lon="-97.895675" changeset="false"><tag k="addr:street" v="Apache Springs Circle"/><tag k="addr:housenumber" v="8502"/><tag k="coa:place_id" v="95083"/></node><node id="-412" lat="30.222966" lon="-97.906091" changeset="false"><tag k="addr:street" v="La Fauna View"/><tag k="addr:housenumber" v="9106"/><tag k="coa:place_id" v="145137"/></node><node id="-413" lat="30.22732" lon="-97.900199" changeset="false"><tag k="addr:street" v="Candelaria Drive"/><tag k="addr:housenumber" v="8606"/><tag k="coa:place_id" v="873320"/></node><node id="-414" lat="30.227257" lon="-97.900184" changeset="false"><tag k="addr:street" v="Candelaria Drive"/><tag k="addr:housenumber" v="8600"/><tag k="coa:place_id" v="873296"/></node></osm>