<?xml version="1.0" encoding="UTF-8"?><osm version="0.6" generator="github.com/aaronlidman/osm-and-geojson"><node id="-1" lat="30.179059" lon="-97.755183" changeset="false"><tag k="addr:street" v="Glade Line Drive"/><tag k="addr:housenumber" v="4608"/></node><node id="-2" lat="30.178973" lon="-97.755026" changeset="false"><tag k="addr:street" v="Glade Line Drive"/><tag k="addr:housenumber" v="4610"/></node><node id="-3" lat="30.178649" lon="-97.755019" changeset="false"><tag k="addr:street" v="Glade Line Drive"/><tag k="addr:housenumber" v="4611"/></node><node id="-4" lat="30.178813" lon="-97.754717" changeset="false"><tag k="addr:street" v="Glade Line Drive"/><tag k="addr:housenumber" v="4614"/></node><node id="-5" lat="30.179649" lon="-97.756375" changeset="false"><tag k="addr:street" v="Glade Line Drive"/><tag k="addr:housenumber" v="4502"/></node><node id="-6" lat="30.182227" lon="-97.756924" changeset="false"><tag k="addr:street" v="Bitter Creek Drive"/><tag k="addr:housenumber" v="2416"/></node><node id="-7" lat="30.180925" lon="-97.759102" changeset="false"><tag k="addr:street" v="Branchwood Drive"/><tag k="addr:housenumber" v="6901"/></node><node id="-8" lat="30.180648" lon="-97.759256" changeset="false"><tag k="addr:street" v="Branchwood Drive"/><tag k="addr:housenumber" v="6905"/></node><node id="-9" lat="30.181158" lon="-97.758938" changeset="false"><tag k="addr:street" v="Branchwood Drive"/><tag k="addr:housenumber" v="6807"/></node><node id="-10" lat="30.180366" lon="-97.759465" changeset="false"><tag k="addr:street" v="Branchwood Drive"/><tag k="addr:housenumber" v="6909"/></node><node id="-11" lat="30.179492" lon="-97.756068" changeset="false"><tag k="addr:street" v="Glade Line Drive"/><tag k="addr:housenumber" v="4506"/></node><node id="-12" lat="30.179188" lon="-97.755462" changeset="false"><tag k="addr:street" v="Glade Line Drive"/><tag k="addr:housenumber" v="4604"/></node><node id="-13" lat="30.181699" lon="-97.758163" changeset="false"><tag k="addr:street" v="Bucks Run"/><tag k="addr:housenumber" v="4400"/></node><node id="-14" lat="30.180798" lon="-97.759179" changeset="false"><tag k="addr:street" v="Branchwood Drive"/><tag k="addr:housenumber" v="6903"/></node><node id="-15" lat="30.179423" lon="-97.755925" changeset="false"><tag k="addr:street" v="Glade Line Drive"/><tag k="addr:housenumber" v="4508"/></node><node id="-16" lat="30.179117" lon="-97.755316" changeset="false"><tag k="addr:street" v="Glade Line Drive"/><tag k="addr:housenumber" v="4606"/></node><node id="-17" lat="30.180499" lon="-97.759361" changeset="false"><tag k="addr:street" v="Branchwood Drive"/><tag k="addr:housenumber" v="6907"/></node><node id="-18" lat="30.181311" lon="-97.757463" changeset="false"><tag k="addr:street" v="Bucks Run"/><tag k="addr:housenumber" v="4408"/></node><node id="-19" lat="30.17957" lon="-97.756233" changeset="false"><tag k="addr:street" v="Glade Line Drive"/><tag k="addr:housenumber" v="4504"/></node><node id="-20" lat="30.178536" lon="-97.754877" changeset="false"><tag k="addr:street" v="Glade Line Drive"/><tag k="addr:housenumber" v="4613"/></node><node id="-21" lat="30.178291" lon="-97.755189" changeset="false"><tag k="addr:street" v="Blue Meadow Drive"/><tag k="addr:housenumber" v="4710"/></node><node id="-22" lat="30.178882" lon="-97.754868" changeset="false"><tag k="addr:street" v="Glade Line Drive"/><tag k="addr:housenumber" v="4612"/></node><node id="-23" lat="30.179277" lon="-97.75562" changeset="false"><tag k="addr:street" v="Glade Line Drive"/><tag k="addr:housenumber" v="4602"/></node></osm>