<?xml version="1.0" encoding="UTF-8"?><osm version="0.6" generator="github.com/aaronlidman/osm-and-geojson"><node id="-1" lat="30.242661" lon="-97.832936" changeset="false"><tag k="addr:street" v="Republic of Texas Boulevard"/><tag k="addr:housenumber" v="4801"/><tag k="coa:place_id" v="3051500"/></node><node id="-2" lat="30.24614" lon="-97.834451" changeset="false"><tag k="addr:street" v="Calhoun Canyon Loop"/><tag k="addr:housenumber" v="4917"/><tag k="coa:place_id" v="219517"/></node><node id="-3" lat="30.246596" lon="-97.839116" changeset="false"><tag k="addr:street" v="Bandera Creek Trail"/><tag k="addr:housenumber" v="5225"/><tag k="coa:place_id" v="152395"/></node><node id="-4" lat="30.25131" lon="-97.834167" changeset="false"><tag k="addr:street" v="Twisted Tree Drive"/><tag k="addr:housenumber" v="4400"/><tag k="coa:place_id" v="501477"/></node><node id="-5" lat="30.250891" lon="-97.834121" changeset="false"><tag k="addr:street" v="Twisted Tree Drive"/><tag k="addr:housenumber" v="4404"/><tag k="coa:place_id" v="477891"/></node><node id="-6" lat="30.245356" lon="-97.837075" changeset="false"><tag k="addr:street" v="Concho Creek Bend"/><tag k="addr:housenumber" v="5104"/><tag k="coa:place_id" v="152351"/></node><node id="-7" lat="30.243317" lon="-97.836946" changeset="false"><tag k="addr:street" v="Mission Oaks Boulevard"/><tag k="addr:housenumber" v="5000"/><tag k="coa:place_id" v="168870"/></node><node id="-8" lat="30.251541" lon="-97.834172" changeset="false"><tag k="addr:street" v="Twisted Tree Drive"/><tag k="addr:housenumber" v="4308"/><tag k="coa:place_id" v="501471"/></node><node id="-9" lat="30.245821" lon="-97.83619" changeset="false"><tag k="addr:street" v="Comanche Creek Drive"/><tag k="addr:housenumber" v="4808"/><tag k="coa:place_id" v="187968"/></node><node id="-10" lat="30.246443" lon="-97.839031" changeset="false"><tag k="addr:street" v="Bandera Creek Trail"/><tag k="addr:housenumber" v="5221"/><tag k="coa:place_id" v="152394"/></node><node id="-11" lat="30.250286" lon="-97.833716" changeset="false"><tag k="addr:street" v="Twisted Tree Drive"/><tag k="addr:housenumber" v="4410"/><tag k="coa:place_id" v="477915"/></node><node id="-12" lat="30.252272" lon="-97.83372" changeset="false"><tag k="addr:street" v="Travis Country Circle"/><tag k="addr:housenumber" v="4112"/><tag k="coa:place_id" v="552261"/></node><node id="-13" lat="30.25222" lon="-97.834123" changeset="false"><tag k="addr:street" v="Twisted Tree Drive"/><tag k="addr:housenumber" v="4300"/><tag k="coa:place_id" v="616617"/></node><node id="-14" lat="30.243954" lon="-97.835815" changeset="false"><tag k="addr:street" v="Mission Oaks Boulevard"/><tag k="addr:housenumber" v="4900"/><tag k="coa:place_id" v="199324"/></node><node id="-15" lat="30.244219" lon="-97.841363" changeset="false"><tag k="addr:street" v="Southwest Parkway"/><tag k="addr:housenumber" v="5408"/><tag k="coa:place_id" v="3132957"/></node><node id="-16" lat="30.249624" lon="-97.833322" changeset="false"><tag k="addr:street" v="Twisted Tree Drive"/><tag k="addr:housenumber" v="4416"/><tag k="coa:place_id" v="211177"/></node><node id="-17" lat="30.250498" lon="-97.833834" changeset="false"><tag k="addr:street" v="Twisted Tree Drive"/><tag k="addr:housenumber" v="4408"/><tag k="coa:place_id" v="516807"/></node><node id="-18" lat="30.245246" lon="-97.835855" changeset="false"><tag k="addr:street" v="Calhoun Canyon Loop"/><tag k="addr:housenumber" v="4816"/><tag k="coa:place_id" v="152118"/></node><node id="-19" lat="30.251874" lon="-97.83388" changeset="false"><tag k="addr:street" v="Twisted Tree Drive"/><tag k="addr:housenumber" v="4305"/><tag k="coa:place_id" v="476925"/></node><node id="-20" lat="30.251753" lon="-97.834161" changeset="false"><tag k="addr:street" v="Twisted Tree Drive"/><tag k="addr:housenumber" v="4306"/><tag k="coa:place_id" v="477873"/></node><node id="-21" lat="30.245956" lon="-97.835054" changeset="false"><tag k="addr:street" v="Fannin Falls Place"/><tag k="addr:housenumber" v="4704"/><tag k="coa:place_id" v="152341"/></node><node id="-22" lat="30.243841" lon="-97.840087" changeset="false"><tag k="addr:street" v="Southwest Parkway"/><tag k="addr:housenumber" v="5300"/><tag k="coa:place_id" v="221502"/></node><node id="-23" lat="30.244765" lon="-97.836383" changeset="false"><tag k="addr:street" v="Republic of Texas Boulevard"/><tag k="addr:housenumber" v="5016"/><tag k="coa:place_id" v="3040081"/></node><node id="-24" lat="30.251114" lon="-97.834111" changeset="false"><tag k="addr:street" v="Twisted Tree Drive"/><tag k="addr:housenumber" v="4402"/><tag k="coa:place_id" v="477885"/></node><node id="-25" lat="30.252317" lon="-97.835137" changeset="false"><tag k="addr:street" v="Travis Country Circle"/><tag k="addr:housenumber" v="4100"/><tag k="coa:place_id" v="147768"/></node><node id="-26" lat="30.245141" lon="-97.837206" changeset="false"><tag k="addr:street" v="Concho Creek Bend"/><tag k="addr:housenumber" v="5100"/><tag k="coa:place_id" v="152347"/></node><node id="-27" lat="30.246301" lon="-97.838094" changeset="false"><tag k="addr:street" v="Senora Creek Court"/><tag k="addr:housenumber" v="4808"/><tag k="coa:place_id" v="211699"/></node></osm>