<?xml version="1.0" encoding="UTF-8"?><osm version="0.6" generator="github.com/aaronlidman/osm-and-geojson"><node id="-1" lat="30.15042" lon="-97.848134" changeset="false"><tag k="addr:street" v="Frate Barker Road"/><tag k="addr:housenumber" v="2408"/><tag k="coa:place_id" v="3144810"/></node><node id="-2" lat="30.15087" lon="-97.837652" changeset="false"><tag k="addr:street" v="James B Connolly Lane"/><tag k="addr:housenumber" v="11617"/><tag k="coa:place_id" v="3084466"/></node><node id="-3" lat="30.154913" lon="-97.850715" changeset="false"><tag k="addr:street" v="Arroyo Blanco Cove"/><tag k="addr:housenumber" v="2704"/><tag k="coa:place_id" v="220549"/></node><node id="-4" lat="30.154801" lon="-97.842076" changeset="false"><tag k="addr:street" v="Wilma Rudolph Road"/><tag k="addr:housenumber" v="2405"/><tag k="coa:place_id" v="3084040"/></node><node id="-5" lat="30.157967" lon="-97.839175" changeset="false"><tag k="addr:street" v="Pickard Lane"/><tag k="addr:housenumber" v="11220"/><tag k="coa:place_id" v="221358"/></node><node id="-6" lat="30.159482" lon="-97.833808" changeset="false"><tag k="addr:street" v="Coats Circle"/><tag k="addr:housenumber" v="1916"/><tag k="coa:place_id" v="186408"/></node><node id="-7" lat="30.15725" lon="-97.835488" changeset="false"><tag k="addr:street" v="Ravenscroft Drive"/><tag k="addr:housenumber" v="2000"/><tag k="coa:place_id" v="215056"/></node><node id="-8" lat="30.158444" lon="-97.835992" changeset="false"><tag k="addr:street" v="Kaiser Drive"/><tag k="addr:housenumber" v="2105"/><tag k="coa:place_id" v="209429"/></node><node id="-9" lat="30.159047" lon="-97.840397" changeset="false"><tag k="addr:street" v="Lavendale Court"/><tag k="addr:housenumber" v="2327"/><tag k="coa:place_id" v="221284"/></node><node id="-10" lat="30.157738" lon="-97.845769" changeset="false"><tag k="addr:street" v="Crest Meadow Lane"/><tag k="addr:housenumber" v="11300"/><tag k="coa:place_id" v="3049731"/></node><node id="-11" lat="30.152111" lon="-97.844867" changeset="false"><tag k="addr:street" v="Theresa Blanchard Lane"/><tag k="addr:housenumber" v="2608"/><tag k="coa:place_id" v="3084274"/></node><node id="-12" lat="30.159492" lon="-97.846179" changeset="false"><tag k="addr:street" v="Alsatia Drive"/><tag k="addr:housenumber" v="2621"/><tag k="coa:place_id" v="3086351"/></node><node id="-13" lat="30.155843" lon="-97.850558" changeset="false"><tag k="addr:street" v="Yandall Drive"/><tag k="addr:housenumber" v="2700"/><tag k="coa:place_id" v="236153"/></node><node id="-14" lat="30.149755" lon="-97.840935" changeset="false"><tag k="addr:street" v="Frate Barker Road"/><tag k="addr:housenumber" v="2100 1/2"/><tag k="coa:place_id" v="3133949"/></node><node id="-15" lat="30.161271" lon="-97.83503" changeset="false"><tag k="addr:street" v="Boyds Way"/><tag k="addr:housenumber" v="2112"/><tag k="coa:place_id" v="3145806"/></node><node id="-16" lat="30.157495" lon="-97.849528" changeset="false"><tag k="addr:street" v="Anatole Court"/><tag k="addr:housenumber" v="11615"/><tag k="coa:place_id" v="220672"/></node><node id="-17" lat="30.153598" lon="-97.841969" changeset="false"><tag k="addr:street" v="Jim Thorpe Lane"/><tag k="addr:housenumber" v="11307"/><tag k="coa:place_id" v="3149439"/></node><node id="-18" lat="30.156373" lon="-97.834066" changeset="false"><tag k="addr:street" v="Manchaca Road"/><tag k="addr:housenumber" v="11310"/><tag k="coa:place_id" v="3320943"/></node><node id="-19" lat="30.158222" lon="-97.833773" changeset="false"><tag k="addr:street" v="Manchaca Road"/><tag k="addr:housenumber" v="11128"/><tag k="coa:place_id" v="3347251"/></node><node id="-20" lat="30.161151" lon="-97.846785" changeset="false"><tag k="addr:street" v="Onslow Drive"/><tag k="addr:housenumber" v="2800"/><tag k="coa:place_id" v="3501228"/></node><node id="-21" lat="30.150562" lon="-97.843055" changeset="false"><tag k="addr:street" v="Marcus Abrams Boulevard"/><tag k="addr:housenumber" v="2801"/><tag k="coa:place_id" v="3149442"/></node><node id="-22" lat="30.153646" lon="-97.833768" changeset="false"><tag k="addr:street" v="Manchaca Road"/><tag k="addr:housenumber" v="11444"/><tag k="coa:place_id" v="3116378"/></node><node id="-23" lat="30.157392" lon="-97.838694" changeset="false"><tag k="addr:street" v="Ravenscroft Drive"/><tag k="addr:housenumber" v="2140"/><tag k="coa:place_id" v="3092426"/></node><node id="-24" lat="30.156343" lon="-97.847442" changeset="false"><tag k="addr:street" v="Niemann Drive"/><tag k="addr:housenumber" v="2612"/><tag k="coa:place_id" v="220620"/></node><node id="-25" lat="30.156784" lon="-97.836607" changeset="false"><tag k="addr:street" v="Ravenscroft Drive"/><tag k="addr:housenumber" v="2025"/><tag k="coa:place_id" v="209162"/></node><node id="-26" lat="30.158124" lon="-97.851039" changeset="false"><tag k="addr:street" v="Arbor Downs Road"/><tag k="addr:housenumber" v="11539"/><tag k="coa:place_id" v="232944"/></node><node id="-27" lat="30.158296" lon="-97.847009" changeset="false"><tag k="addr:street" v="Arbor Downs Road"/><tag k="addr:housenumber" v="11401"/><tag k="coa:place_id" v="1141368"/></node><node id="-28" lat="30.159468" lon="-97.835484" changeset="false"><tag k="addr:street" v="Coats Cove"/><tag k="addr:housenumber" v="2100"/><tag k="coa:place_id" v="209489"/></node><node id="-29" lat="30.151569" lon="-97.839038" changeset="false"><tag k="addr:street" v="Billy Mills Lane"/><tag k="addr:housenumber" v="2217"/><tag k="coa:place_id" v="3117937"/></node><node id="-30" lat="30.155152" lon="-97.850247" changeset="false"><tag k="addr:street" v="Yandall Drive"/><tag k="addr:housenumber" v="2659"/><tag k="coa:place_id" v="220565"/></node><node id="-31" lat="30.161246" lon="-97.835587" changeset="false"><tag k="addr:street" v="Boyds Way"/><tag k="addr:housenumber" v="2128"/><tag k="coa:place_id" v="3145810"/></node><node id="-32" lat="30.158045" lon="-97.848973" changeset="false"><tag k="addr:street" v="Arroyo Blanco Drive"/><tag k="addr:housenumber" v="11606"/><tag k="coa:place_id" v="220637"/></node><node id="-33" lat="30.156958" lon="-97.838542" changeset="false"><tag k="addr:street" v="Ravenscroft Drive"/><tag k="addr:housenumber" v="2137"/><tag k="coa:place_id" v="233597"/></node><node id="-34" lat="30.157342" lon="-97.849152" changeset="false"><tag k="addr:street" v="Arroyo Blanco Drive"/><tag k="addr:housenumber" v="11620"/><tag k="coa:place_id" v="220632"/></node><node id="-35" lat="30.160947" lon="-97.848792" changeset="false"><tag k="addr:street" v="Alsatia Drive"/><tag k="addr:housenumber" v="2901"/><tag k="coa:place_id" v="3086369"/></node><node id="-36" lat="30.149982" lon="-97.843321" changeset="false"><tag k="addr:street" v="Marcus Abrams Boulevard"/><tag k="addr:housenumber" v="2811"/><tag k="coa:place_id" v="3084611"/></node><node id="-37" lat="30.157784" lon="-97.849431" changeset="false"><tag k="addr:street" v="Anatole Court"/><tag k="addr:housenumber" v="11609"/><tag k="coa:place_id" v="220673"/></node><node id="-38" lat="30.159529" lon="-97.845474" changeset="false"><tag k="addr:street" v="Alsatia Drive"/><tag k="addr:housenumber" v="2609"/><tag k="coa:place_id" v="3086348"/></node><node id="-39" lat="30.149787" lon="-97.846052" changeset="false"><tag k="addr:street" v="Frate Barker Road"/><tag k="addr:housenumber" v="2308"/><tag k="coa:place_id" v="228173"/></node><node id="-40" lat="30.150328" lon="-97.840396" changeset="false"><tag k="addr:street" v="Johnny Weismuller Lane"/><tag k="addr:housenumber" v="12108"/><tag k="coa:place_id" v="3084638"/></node><node id="-41" lat="30.158724" lon="-97.842422" changeset="false"><tag k="addr:street" v="Midbury Court"/><tag k="addr:housenumber" v="11201"/><tag k="coa:place_id" v="3040754"/></node><node id="-42" lat="30.157593" lon="-97.837893" changeset="false"><tag k="addr:street" v="Desco Drive"/><tag k="addr:housenumber" v="2205"/><tag k="coa:place_id" v="221412"/></node><node id="-43" lat="30.156493" lon="-97.847664" changeset="false"><tag k="addr:street" v="Niemann Drive"/><tag k="addr:housenumber" v="2616"/><tag k="coa:place_id" v="220621"/></node><node id="-44" lat="30.16015" lon="-97.834892" changeset="false"><tag k="addr:street" v="Coats Circle"/><tag k="addr:housenumber" v="2024"/><tag k="coa:place_id" v="186420"/></node><node id="-45" lat="30.156807" lon="-97.837082" changeset="false"><tag k="addr:street" v="Ravenscroft Drive"/><tag k="addr:housenumber" v="2101"/><tag k="coa:place_id" v="209159"/></node><node id="-46" lat="30.154875" lon="-97.833762" changeset="false"><tag k="addr:street" v="Marcus Abrams Boulevard"/><tag k="addr:housenumber" v="1702 1/2"/><tag k="coa:place_id" v="3079329"/></node><node id="-47" lat="30.150463" lon="-97.843177" changeset="false"><tag k="addr:street" v="Marcus Abrams Boulevard"/><tag k="addr:housenumber" v="2803"/><tag k="coa:place_id" v="3084608"/></node><node id="-48" lat="30.151139" lon="-97.843091" changeset="false"><tag k="addr:street" v="Johnny Weismuller Lane"/><tag k="addr:housenumber" v="11819"/><tag k="coa:place_id" v="3149440"/></node><node id="-49" lat="30.159473" lon="-97.835028" changeset="false"><tag k="addr:street" v="Kaiser Cove"/><tag k="addr:housenumber" v="11000"/><tag k="coa:place_id" v="209461"/></node><node id="-50" lat="30.155374" lon="-97.850624" changeset="false"><tag k="addr:street" v="Yandall Drive"/><tag k="addr:housenumber" v="2667"/><tag k="coa:place_id" v="220563"/></node><node id="-51" lat="30.158946" lon="-97.838754" changeset="false"><tag k="addr:street" v="Kaiser Drive"/><tag k="addr:housenumber" v="2232"/><tag k="coa:place_id" v="1141367"/></node><node id="-52" lat="30.15419" lon="-97.833745" changeset="false"><tag k="addr:street" v="Manchaca Road"/><tag k="addr:housenumber" v="11410"/><tag k="coa:place_id" v="1145087"/></node><node id="-53" lat="30.151929" lon="-97.8423" changeset="false"><tag k="addr:street" v="Marcus Abrams Boulevard"/><tag k="addr:housenumber" v="2606 1/2"/><tag k="coa:place_id" v="3182667"/></node><node id="-54" lat="30.156898" lon="-97.851245" changeset="false"><tag k="addr:street" v="Dupree Lane"/><tag k="addr:housenumber" v="2731"/><tag k="coa:place_id" v="232909"/></node><node id="-55" lat="30.160293" lon="-97.847826" changeset="false"><tag k="addr:street" v="Alsatia Drive"/><tag k="addr:housenumber" v="2801"/><tag k="coa:place_id" v="3086360"/></node><node id="-56" lat="30.160093" lon="-97.847651" changeset="false"><tag k="addr:street" v="Alsatia Drive"/><tag k="addr:housenumber" v="2725"/><tag k="coa:place_id" v="3086358"/></node><node id="-57" lat="30.16004" lon="-97.848806" changeset="false"><tag k="addr:street" v="Arroyo Blanco Drive"/><tag k="addr:housenumber" v="11417"/><tag k="coa:place_id" v="3086332"/></node><node id="-58" lat="30.157583" lon="-97.841062" changeset="false"><tag k="addr:street" v="Lavendale Court"/><tag k="addr:housenumber" v="2504"/><tag k="coa:place_id" v="1145674"/></node><node id="-59" lat="30.157566" lon="-97.851242" changeset="false"><tag k="addr:street" v="Dupree Lane"/><tag k="addr:housenumber" v="2732"/><tag k="coa:place_id" v="232932"/></node><node id="-60" lat="30.158501" lon="-97.83383" changeset="false"><tag k="addr:street" v="Kaiser Drive"/><tag k="addr:housenumber" v="1905"/><tag k="coa:place_id" v="218276"/></node><node id="-61" lat="30.156957" lon="-97.843329" changeset="false"><tag k="addr:street" v="Chatam Berry Lane"/><tag k="addr:housenumber" v="11321"/><tag k="coa:place_id" v="3049743"/></node><node id="-62" lat="30.152298" lon="-97.839984" changeset="false"><tag k="addr:street" v="Jim Thorpe Lane"/><tag k="addr:housenumber" v="11505"/><tag k="coa:place_id" v="3084424"/></node><node id="-63" lat="30.156326" lon="-97.839165" changeset="false"><tag k="addr:street" v="Pickard Lane"/><tag k="addr:housenumber" v="11400"/><tag k="coa:place_id" v="1145857"/></node><node id="-64" lat="30.15759" lon="-97.837726" changeset="false"><tag k="addr:street" v="Desco Drive"/><tag k="addr:housenumber" v="2201"/><tag k="coa:place_id" v="221413"/></node><node id="-65" lat="30.155657" lon="-97.836235" changeset="false"><tag k="addr:street" v="Hillhaven Drive"/><tag k="addr:housenumber" v="11337"/><tag k="coa:place_id" v="209181"/></node><node id="-66" lat="30.154099" lon="-97.83626" changeset="false"><tag k="addr:street" v="Eddie Egan Lane"/><tag k="addr:housenumber" v="11414"/><tag k="coa:place_id" v="3073973"/></node><node id="-67" lat="30.153444" lon="-97.83727" changeset="false"><tag k="addr:street" v="Marcus Abrams Boulevard"/><tag k="addr:housenumber" v="2105"/><tag k="coa:place_id" v="3104296"/></node><node id="-68" lat="30.150133" lon="-97.843341" changeset="false"><tag k="addr:street" v="Marcus Abrams Boulevard"/><tag k="addr:housenumber" v="2809"/><tag k="coa:place_id" v="3084610"/></node><node id="-69" lat="30.152869" lon="-97.839578" changeset="false"><tag k="addr:street" v="Billy Fiske Lane"/><tag k="addr:housenumber" v="2304"/><tag k="coa:place_id" v="3084396"/></node><node id="-70" lat="30.159275" lon="-97.844858" changeset="false"><tag k="addr:street" v="Currin Lane"/><tag k="addr:housenumber" v="11100 1/2"/><tag k="coa:place_id" v="3255838"/></node><node id="-71" lat="30.157587" lon="-97.834054" changeset="false"><tag k="addr:street" v="Manchaca Road"/><tag k="addr:housenumber" v="11200"/><tag k="coa:place_id" v="3320942"/></node><node id="-72" lat="30.159917" lon="-97.847532" changeset="false"><tag k="addr:street" v="Alsatia Drive"/><tag k="addr:housenumber" v="2721"/><tag k="coa:place_id" v="3086357"/></node><node id="-73" lat="30.153179" lon="-97.833825" changeset="false"><tag k="addr:street" v="Manchaca Road"/><tag k="addr:housenumber" v="11500"/><tag k="coa:place_id" v="1145088"/></node><node id="-74" lat="30.158062" lon="-97.843379" changeset="false"><tag k="addr:street" v="Chatam Berry Lane"/><tag k="addr:housenumber" v="11217"/><tag k="coa:place_id" v="3081125"/></node><node id="-75" lat="30.158203" lon="-97.847785" changeset="false"><tag k="addr:street" v="Arbor Downs Road"/><tag k="addr:housenumber" v="11415"/><tag k="coa:place_id" v="220664"/></node><node id="-76" lat="30.154569" lon="-97.849156" changeset="false"><tag k="addr:street" v="Yandall Drive"/><tag k="addr:housenumber" v="2639"/><tag k="coa:place_id" v="220571"/></node><node id="-77" lat="30.155746" lon="-97.842889" changeset="false"><tag k="addr:street" v="Midbury Court"/><tag k="addr:housenumber" v="11428"/><tag k="coa:place_id" v="3039950"/></node><node id="-78" lat="30.149859" lon="-97.843314" changeset="false"><tag k="addr:street" v="Marcus Abrams Boulevard"/><tag k="addr:housenumber" v="2813"/><tag k="coa:place_id" v="3084612"/></node><node id="-79" lat="30.159511" lon="-97.84572" changeset="false"><tag k="addr:street" v="Alsatia Drive"/><tag k="addr:housenumber" v="2613"/><tag k="coa:place_id" v="3086349"/></node><node id="-80" lat="30.160633" lon="-97.833711" changeset="false"><tag k="addr:street" v="Manchaca Road"/><tag k="addr:housenumber" v="11000"/><tag k="coa:place_id" v="509595"/></node><node id="-81" lat="30.15297" lon="-97.849622" changeset="false"><tag k="addr:street" v="Battle Bridge Drive"/><tag k="addr:housenumber" v="12001"/><tag k="coa:place_id" v="222318"/></node><node id="-82" lat="30.152579" lon="-97.839781" changeset="false"><tag k="addr:street" v="Billy Fiske Lane"/><tag k="addr:housenumber" v="2307"/><tag k="coa:place_id" v="3084399"/></node><node id="-83" lat="30.151863" lon="-97.837669" changeset="false"><tag k="addr:street" v="James B Connolly Lane"/><tag k="addr:housenumber" v="11523"/><tag k="coa:place_id" v="3084457"/></node><node id="-84" lat="30.156419" lon="-97.842855" changeset="false"><tag k="addr:street" v="Midbury Court"/><tag k="addr:housenumber" v="11412"/><tag k="coa:place_id" v="3052677"/></node><node id="-85" lat="30.153828" lon="-97.842359" changeset="false"><tag k="addr:street" v="Paul E Anderson Drive"/><tag k="addr:housenumber" v="11517"/><tag k="coa:place_id" v="3084155"/></node><node id="-86" lat="30.149709" lon="-97.837824" changeset="false"><tag k="addr:street" v="Frate Barker Road"/><tag k="addr:housenumber" v="1714"/><tag k="coa:place_id" v="178573"/></node><node id="-87" lat="30.153426" lon="-97.838362" changeset="false"><tag k="addr:street" v="Marcus Abrams Boulevard"/><tag k="addr:housenumber" v="2204 1/2"/><tag k="coa:place_id" v="3098810"/></node><node id="-88" lat="30.159608" lon="-97.840695" changeset="false"><tag k="addr:street" v="Lavendale Court"/><tag k="addr:housenumber" v="2328"/><tag k="coa:place_id" v="220951"/></node><node id="-89" lat="30.156029" lon="-97.845111" changeset="false"><tag k="addr:street" v="Lark Glen Lane"/><tag k="addr:housenumber" v="2509"/><tag k="coa:place_id" v="3134170"/></node><node id="-90" lat="30.156738" lon="-97.845365" changeset="false"><tag k="addr:street" v="Chatam Berry Lane"/><tag k="addr:housenumber" v="11517"/><tag k="coa:place_id" v="3049755"/></node><node id="-91" lat="30.157562" lon="-97.849052" changeset="false"><tag k="addr:street" v="Arroyo Blanco Drive"/><tag k="addr:housenumber" v="11616"/><tag k="coa:place_id" v="220633"/></node><node id="-92" lat="30.150871" lon="-97.839814" changeset="false"><tag k="addr:street" v="Raymond C Ewry Lane"/><tag k="addr:housenumber" v="11723"/><tag k="coa:place_id" v="3084515"/></node><node id="-93" lat="30.157158" lon="-97.850325" changeset="false"><tag k="addr:street" v="Dupree Lane"/><tag k="addr:housenumber" v="2716"/><tag k="coa:place_id" v="232925"/></node><node id="-94" lat="30.161274" lon="-97.835164" changeset="false"><tag k="addr:street" v="Boyds Way"/><tag k="addr:housenumber" v="2116"/><tag k="coa:place_id" v="3145807"/></node><node id="-95" lat="30.159079" lon="-97.840042" changeset="false"><tag k="addr:street" v="Lavendale Court"/><tag k="addr:housenumber" v="2319"/><tag k="coa:place_id" v="1122307"/></node><node id="-96" lat="30.153045" lon="-97.840837" changeset="false"><tag k="addr:street" v="Marcus Abrams Boulevard"/><tag k="addr:housenumber" v="2409"/><tag k="coa:place_id" v="3084368"/></node><node id="-97" lat="30.150634" lon="-97.838925" changeset="false"><tag k="addr:street" v="Jim Thorpe Lane"/><tag k="addr:housenumber" v="11615 1/2"/><tag k="coa:place_id" v="3121358"/></node><node id="-98" lat="30.159177" lon="-97.836607" changeset="false"><tag k="addr:street" v="Coats Cove"/><tag k="addr:housenumber" v="2127"/><tag k="coa:place_id" v="209487"/></node><node id="-99" lat="30.156627" lon="-97.850601" changeset="false"><tag k="addr:street" v="Dupree Lane"/><tag k="addr:housenumber" v="2713"/><tag k="coa:place_id" v="232914"/></node><node id="-100" lat="30.161637" lon="-97.835891" changeset="false"><tag k="addr:street" v="Gerald Allen Loop"/><tag k="addr:housenumber" v="10817"/><tag k="coa:place_id" v="3159683"/></node><node id="-101" lat="30.15986" lon="-97.848626" changeset="false"><tag k="addr:street" v="Arroyo Blanco Drive"/><tag k="addr:housenumber" v="11501"/><tag k="coa:place_id" v="3086333"/></node><node id="-102" lat="30.156166" lon="-97.833919" changeset="false"><tag k="addr:street" v="Manchaca Road"/><tag k="addr:housenumber" v="11316 1/2"/><tag k="coa:place_id" v="697732"/></node><node id="-103" lat="30.150686" lon="-97.842581" changeset="false"><tag k="addr:street" v="Johnny Weismuller Lane"/><tag k="addr:housenumber" v="11903"/><tag k="coa:place_id" v="3084614"/></node><node id="-104" lat="30.153088" lon="-97.838153" changeset="false"><tag k="addr:street" v="Marcus Abrams Boulevard"/><tag k="addr:housenumber" v="2201"/><tag k="coa:place_id" v="3093879"/></node><node id="-105" lat="30.159171" lon="-97.839145" changeset="false"><tag k="addr:street" v="Lavendale Court"/><tag k="addr:housenumber" v="2305"/><tag k="coa:place_id" v="221296"/></node><node id="-106" lat="30.159204" lon="-97.843331" changeset="false"><tag k="addr:street" v="Chatam Berry Lane"/><tag k="addr:housenumber" v="11101"/><tag k="coa:place_id" v="3087568"/></node><node id="-107" lat="30.159052" lon="-97.840218" changeset="false"><tag k="addr:street" v="Lavendale Court"/><tag k="addr:housenumber" v="2323"/><tag k="coa:place_id" v="221285"/></node><node id="-108" lat="30.155649" lon="-97.837658" changeset="false"><tag k="addr:street" v="Hillhaven Drive"/><tag k="addr:housenumber" v="11429"/><tag k="coa:place_id" v="209191"/></node><node id="-109" lat="30.161605" lon="-97.83316" changeset="false"><tag k="addr:street" v="Manchaca Road"/><tag k="addr:housenumber" v="10834 1/2"/><tag k="coa:place_id" v="561742"/></node><node id="-110" lat="30.158287" lon="-97.849519" changeset="false"><tag k="addr:street" v="Anatole Court"/><tag k="addr:housenumber" v="11601"/><tag k="coa:place_id" v="1132407"/></node><node id="-111" lat="30.156386" lon="-97.8437" changeset="false"><tag k="addr:street" v="Lark Glen Lane"/><tag k="addr:housenumber" v="2504"/><tag k="coa:place_id" v="3113468"/></node><node id="-112" lat="30.152423" lon="-97.837686" changeset="false"><tag k="addr:street" v="James B Connolly Lane"/><tag k="addr:housenumber" v="11513"/><tag k="coa:place_id" v="3084452"/></node><node id="-113" lat="30.151477" lon="-97.853073" changeset="false"><tag k="addr:street" v="Tumbling Creek Trail"/><tag k="addr:housenumber" v="12137"/><tag k="coa:place_id" v="1104538"/></node><node id="-114" lat="30.152738" lon="-97.838054" changeset="false"><tag k="addr:street" v="Billy Fiske Lane"/><tag k="addr:housenumber" v="2200"/><tag k="coa:place_id" v="3093880"/></node><node id="-115" lat="30.155646" lon="-97.837483" changeset="false"><tag k="addr:street" v="Hillhaven Drive"/><tag k="addr:housenumber" v="11425"/><tag k="coa:place_id" v="209190"/></node><node id="-116" lat="30.158808" lon="-97.841079" changeset="false"><tag k="addr:street" v="Lavendale Court"/><tag k="addr:housenumber" v="2414"/><tag k="coa:place_id" v="3051519"/></node><node id="-117" lat="30.158839" lon="-97.847807" changeset="false"><tag k="addr:street" v="Arbor Downs Road"/><tag k="addr:housenumber" v="11416"/><tag k="coa:place_id" v="220656"/></node><node id="-118" lat="30.149738" lon="-97.843289" changeset="false"><tag k="addr:street" v="Marcus Abrams Boulevard"/><tag k="addr:housenumber" v="2815"/><tag k="coa:place_id" v="3084613"/></node><node id="-119" lat="30.1577" lon="-97.842917" changeset="false"><tag k="addr:street" v="Midbury Court"/><tag k="addr:housenumber" v="11300"/><tag k="coa:place_id" v="3123636"/></node><node id="-120" lat="30.161255" lon="-97.834755" changeset="false"><tag k="addr:street" v="Boyds Way"/><tag k="addr:housenumber" v="2104"/><tag k="coa:place_id" v="3145804"/></node><node id="-121" lat="30.159421" lon="-97.848334" changeset="false"><tag k="addr:street" v="Arroyo Blanco Drive"/><tag k="addr:housenumber" v="11509"/><tag k="coa:place_id" v="3086335"/></node><node id="-122" lat="30.16151" lon="-97.835501" changeset="false"><tag k="addr:street" v="Gerald Allen Loop"/><tag k="addr:housenumber" v="10820"/><tag k="coa:place_id" v="3183759"/></node><node id="-123" lat="30.15037" lon="-97.838942" changeset="false"><tag k="addr:street" v="Jim Thorpe Lane"/><tag k="addr:housenumber" v="11701 1/2"/><tag k="coa:place_id" v="3194653"/></node><node id="-124" lat="30.15002" lon="-97.83539" changeset="false"><tag k="addr:street" v="Frate Barker Road"/><tag k="addr:housenumber" v="1600"/><tag k="coa:place_id" v="5216611"/></node><node id="-125" lat="30.159646" lon="-97.834726" changeset="false"><tag k="addr:street" v="Coats Circle"/><tag k="addr:housenumber" v="2015"/><tag k="coa:place_id" v="186653"/></node><node id="-126" lat="30.159043" lon="-97.840973" changeset="false"><tag k="addr:street" v="Regal Park Lane"/><tag k="addr:housenumber" v="2400"/><tag k="coa:place_id" v="3035787"/></node><node id="-127" lat="30.155027" lon="-97.837674" changeset="false"><tag k="addr:street" v="Jesse Owens Drive"/><tag k="addr:housenumber" v="1903"/><tag k="coa:place_id" v="3084095"/></node><node id="-128" lat="30.159797" lon="-97.847413" changeset="false"><tag k="addr:street" v="Alsatia Drive"/><tag k="addr:housenumber" v="2717"/><tag k="coa:place_id" v="3086356"/></node><node id="-129" lat="30.159411" lon="-97.83478" changeset="false"><tag k="addr:street" v="Kaiser Cove"/><tag k="addr:housenumber" v="11001"/><tag k="coa:place_id" v="209463"/></node><node id="-130" lat="30.159671" lon="-97.848437" changeset="false"><tag k="addr:street" v="Arroyo Blanco Drive"/><tag k="addr:housenumber" v="11505"/><tag k="coa:place_id" v="3086334"/></node><node id="-131" lat="30.155155" lon="-97.837637" changeset="false"><tag k="addr:street" v="Jesse Owens Drive"/><tag k="addr:housenumber" v="1901"/><tag k="coa:place_id" v="3084094"/></node><node id="-132" lat="30.150836" lon="-97.842707" changeset="false"><tag k="addr:street" v="Johnny Weismuller Lane"/><tag k="addr:housenumber" v="11901"/><tag k="coa:place_id" v="3204870"/></node><node id="-133" lat="30.151154" lon="-97.842379" changeset="false"><tag k="addr:street" v="Marcus Abrams Boulevard"/><tag k="addr:housenumber" v="2705"/><tag k="coa:place_id" v="3084581"/></node><node id="-134" lat="30.154041" lon="-97.848433" changeset="false"><tag k="addr:street" v="Kerri Strug Cove"/><tag k="addr:housenumber" v="2615"/><tag k="coa:place_id" v="3389957"/></node><node id="-135" lat="30.154752" lon="-97.836387" changeset="false"><tag k="addr:street" v="Marcus Abrams Boulevard"/><tag k="addr:housenumber" v="1911"/><tag k="coa:place_id" v="3073961"/></node><node id="-136" lat="30.154345" lon="-97.841184" changeset="false"><tag k="addr:street" v="Jesse Owens Drive"/><tag k="addr:housenumber" v="2212"/><tag k="coa:place_id" v="3219480"/></node><node id="-137" lat="30.149639" lon="-97.843959" changeset="false"><tag k="addr:street" v="Frate Barker Road"/><tag k="addr:housenumber" v="2300"/><tag k="coa:place_id" v="3090558"/></node><node id="-138" lat="30.153724" lon="-97.84536" changeset="false"><tag k="addr:street" v="Bruce Jenner Lane"/><tag k="addr:housenumber" v="11605"/><tag k="coa:place_id" v="3432249"/></node><node id="-139" lat="30.15743" lon="-97.83479" changeset="false"><tag k="addr:street" v="Ravenscroft Drive"/><tag k="addr:housenumber" v="1900"/><tag k="coa:place_id" v="3347268"/></node><node id="-140" lat="30.150747" lon="-97.851019" changeset="false"><tag k="addr:street" v="Gate Ridge Drive"/><tag k="addr:housenumber" v="2641"/><tag k="coa:place_id" v="179161"/></node><node id="-141" lat="30.152013" lon="-97.851073" changeset="false"><tag k="addr:street" v="Buckingham Gate Road"/><tag k="addr:housenumber" v="12101"/><tag k="coa:place_id" v="232792"/></node><node id="-142" lat="30.156858" lon="-97.851018" changeset="false"><tag k="addr:street" v="Dupree Lane"/><tag k="addr:housenumber" v="2725"/><tag k="coa:place_id" v="232912"/></node><node id="-143" lat="30.156182" lon="-97.839183" changeset="false"><tag k="addr:street" v="Pickard Lane"/><tag k="addr:housenumber" v="11404"/><tag k="coa:place_id" v="1145864"/></node><node id="-144" lat="30.156737" lon="-97.83607" changeset="false"><tag k="addr:street" v="Hillhaven Drive"/><tag k="addr:housenumber" v="11317"/><tag k="coa:place_id" v="209179"/></node><node id="-145" lat="30.159682" lon="-97.84728" changeset="false"><tag k="addr:street" v="Alsatia Drive"/><tag k="addr:housenumber" v="2713"/><tag k="coa:place_id" v="3086355"/></node><node id="-146" lat="30.158125" lon="-97.851267" changeset="false"><tag k="addr:street" v="Arbor Downs Road"/><tag k="addr:housenumber" v="11543"/><tag k="coa:place_id" v="232945"/></node><node id="-147" lat="30.159514" lon="-97.846747" changeset="false"><tag k="addr:street" v="Alsatia Drive"/><tag k="addr:housenumber" v="2705"/><tag k="coa:place_id" v="3086353"/></node><node id="-148" lat="30.158617" lon="-97.845196" changeset="false"><tag k="addr:street" v="Crest Meadow Lane"/><tag k="addr:housenumber" v="11209"/><tag k="coa:place_id" v="3049713"/></node><node id="-149" lat="30.152615" lon="-97.850482" changeset="false"><tag k="addr:street" v="Battle Bridge Drive"/><tag k="addr:housenumber" v="12023"/><tag k="coa:place_id" v="224857"/></node><node id="-150" lat="30.158034" lon="-97.849408" changeset="false"><tag k="addr:street" v="Anatole Court"/><tag k="addr:housenumber" v="11605"/><tag k="coa:place_id" v="220674"/></node><node id="-151" lat="30.156765" lon="-97.843351" changeset="false"><tag k="addr:street" v="Chatam Berry Lane"/><tag k="addr:housenumber" v="11325"/><tag k="coa:place_id" v="3049744"/></node><node id="-152" lat="30.151761" lon="-97.837661" changeset="false"><tag k="addr:street" v="James B Connolly Lane"/><tag k="addr:housenumber" v="11601"/><tag k="coa:place_id" v="3084458"/></node><node id="-153" lat="30.157271" lon="-97.84045" changeset="false"><tag k="addr:street" v="Lavendale Court"/><tag k="addr:housenumber" v="2513"/><tag k="coa:place_id" v="1145668"/></node><node id="-154" lat="30.156738" lon="-97.843584" changeset="false"><tag k="addr:street" v="Chatam Berry Lane"/><tag k="addr:housenumber" v="11401"/><tag k="coa:place_id" v="3049751"/></node><node id="-155" lat="30.16126" lon="-97.834187" changeset="false"><tag k="addr:street" v="Boyds Way"/><tag k="addr:housenumber" v="2024"/><tag k="coa:place_id" v="3145799"/></node><node id="-156" lat="30.158119" lon="-97.850817" changeset="false"><tag k="addr:street" v="Arbor Downs Road"/><tag k="addr:housenumber" v="11535"/><tag k="coa:place_id" v="232943"/></node><node id="-157" lat="30.159645" lon="-97.833539" changeset="false"><tag k="addr:street" v="Manchaca Road"/><tag k="addr:housenumber" v="11036"/><tag k="coa:place_id" v="993146"/></node><node id="-158" lat="30.157789" lon="-97.848985" changeset="false"><tag k="addr:street" v="Arroyo Blanco Drive"/><tag k="addr:housenumber" v="11612"/><tag k="coa:place_id" v="220636"/></node><node id="-159" lat="30.152547" lon="-97.853927" changeset="false"><tag k="addr:street" v="Rosita Court"/><tag k="addr:housenumber" v="12116"/><tag k="coa:place_id" v="1132408"/></node><node id="-160" lat="30.150984" lon="-97.838916" changeset="false"><tag k="addr:street" v="Jim Thorpe Lane"/><tag k="addr:housenumber" v="11607"/><tag k="coa:place_id" v="3116359"/></node><node id="-161" lat="30.155247" lon="-97.836645" changeset="false"><tag k="addr:street" v="Marcus Abrams Boulevard"/><tag k="addr:housenumber" v="1910"/><tag k="coa:place_id" v="3078322"/></node><node id="-162" lat="30.15743" lon="-97.850725" changeset="false"><tag k="addr:street" v="Dupree Lane"/><tag k="addr:housenumber" v="2724"/><tag k="coa:place_id" v="232927"/></node><node id="-163" lat="30.158945" lon="-97.83644" changeset="false"><tag k="addr:street" v="Kaiser Drive"/><tag k="addr:housenumber" v="2116"/><tag k="coa:place_id" v="209447"/></node><node id="-164" lat="30.158118" lon="-97.850597" changeset="false"><tag k="addr:street" v="Arbor Downs Road"/><tag k="addr:housenumber" v="11531"/><tag k="coa:place_id" v="232939"/></node><node id="-165" lat="30.155573" lon="-97.851828" changeset="false"><tag k="addr:street" v="Arroyo Blanco Cove"/><tag k="addr:housenumber" v="2724"/><tag k="coa:place_id" v="234575"/></node><node id="-166" lat="30.15324" lon="-97.837589" changeset="false"><tag k="addr:street" v="Marcus Abrams Boulevard"/><tag k="addr:housenumber" v="2109"/><tag k="coa:place_id" v="3093878"/></node><node id="-167" lat="30.155375" lon="-97.833648" changeset="false"><tag k="addr:street" v="Manchaca Road"/><tag k="addr:housenumber" v="11330"/><tag k="coa:place_id" v="3078250"/></node><node id="-168" lat="30.150847" lon="-97.838912" changeset="false"><tag k="addr:street" v="Jim Thorpe Lane"/><tag k="addr:housenumber" v="11609"/><tag k="coa:place_id" v="3116360"/></node><node id="-169" lat="30.152874" lon="-97.837711" changeset="false"><tag k="addr:street" v="James B Connolly Lane"/><tag k="addr:housenumber" v="11505"/><tag k="coa:place_id" v="3084448"/></node><node id="-170" lat="30.152702" lon="-97.845292" changeset="false"><tag k="addr:street" v="Bruce Jenner Lane"/><tag k="addr:housenumber" v="11619"/><tag k="coa:place_id" v="3084215"/></node><node id="-171" lat="30.156083" lon="-97.840086" changeset="false"><tag k="addr:street" v="Kingsgate Drive"/><tag k="addr:housenumber" v="11412"/><tag k="coa:place_id" v="1145876"/></node><node id="-172" lat="30.158616" lon="-97.841119" changeset="false"><tag k="addr:street" v="Lavendale Court"/><tag k="addr:housenumber" v="2418"/><tag k="coa:place_id" v="1145976"/></node><node id="-173" lat="30.156763" lon="-97.849824" changeset="false"><tag k="addr:street" v="Dupree Lane"/><tag k="addr:housenumber" v="2704"/><tag k="coa:place_id" v="232919"/></node><node id="-174" lat="30.156741" lon="-97.84555" changeset="false"><tag k="addr:street" v="Chatam Berry Lane"/><tag k="addr:housenumber" v="11521"/><tag k="coa:place_id" v="3049756"/></node><node id="-175" lat="30.151977" lon="-97.837666" changeset="false"><tag k="addr:street" v="James B Connolly Lane"/><tag k="addr:housenumber" v="11521"/><tag k="coa:place_id" v="3084456"/></node><node id="-176" lat="30.159042" lon="-97.841146" changeset="false"><tag k="addr:street" v="Regal Park Lane"/><tag k="addr:housenumber" v="2404"/><tag k="coa:place_id" v="221280"/></node><node id="-177" lat="30.155256" lon="-97.834964" changeset="false"><tag k="addr:street" v="Marcus Abrams Boulevard"/><tag k="addr:housenumber" v="1808"/><tag k="coa:place_id" v="3073879"/></node><node id="-178" lat="30.151224" lon="-97.843248" changeset="false"><tag k="addr:street" v="Johnny Weismuller Lane"/><tag k="addr:housenumber" v="11817"/><tag k="coa:place_id" v="3084606"/></node><node id="-179" lat="30.153432" lon="-97.838461" changeset="false"><tag k="addr:street" v="Marcus Abrams Boulevard"/><tag k="addr:housenumber" v="2206 1/2"/><tag k="coa:place_id" v="3098206"/></node><node id="-180" lat="30.155378" lon="-97.849458" changeset="false"><tag k="addr:street" v="Yandall Drive"/><tag k="addr:housenumber" v="2646"/><tag k="coa:place_id" v="220583"/></node><node id="-181" lat="30.154947" lon="-97.838066" changeset="false"><tag k="addr:street" v="Jesse Owens Drive"/><tag k="addr:housenumber" v="1900"/><tag k="coa:place_id" v="3091832"/></node><node id="-182" lat="30.15131" lon="-97.843346" changeset="false"><tag k="addr:street" v="Johnny Weismuller Lane"/><tag k="addr:housenumber" v="11815"/><tag k="coa:place_id" v="3084604"/></node><node id="-183" lat="30.15482" lon="-97.838968" changeset="false"><tag k="addr:street" v="Dub Drive"/><tag k="addr:housenumber" v="11501"/><tag k="coa:place_id" v="3084085"/></node><node id="-184" lat="30.160225" lon="-97.835198" changeset="false"><tag k="addr:street" v="Coats Circle"/><tag k="addr:housenumber" v="2032"/><tag k="coa:place_id" v="186423"/></node><node id="-185" lat="30.161272" lon="-97.835329" changeset="false"><tag k="addr:street" v="Boyds Way"/><tag k="addr:housenumber" v="2120"/><tag k="coa:place_id" v="3145808"/></node><node id="-186" lat="30.154542" lon="-97.833544" changeset="false"><tag k="addr:street" v="Manchaca Road"/><tag k="addr:housenumber" v="11400"/><tag k="coa:place_id" v="204083"/></node><node id="-187" lat="30.15726" lon="-97.848649" changeset="false"><tag k="addr:street" v="Arroyo Blanco Drive"/><tag k="addr:housenumber" v="11621 1/2"/><tag k="coa:place_id" v="1126431"/></node><node id="-188" lat="30.155946" lon="-97.837476" changeset="false"><tag k="addr:street" v="Hallshire Court"/><tag k="addr:housenumber" v="2000"/><tag k="coa:place_id" v="216509"/></node><node id="-189" lat="30.150649" lon="-97.851633" changeset="false"><tag k="addr:street" v="Battle Bridge Drive"/><tag k="addr:housenumber" v="12127"/><tag k="coa:place_id" v="178988"/></node><node id="-190" lat="30.153965" lon="-97.837393" changeset="false"><tag k="addr:street" v="Marcus Abrams Boulevard"/><tag k="addr:housenumber" v="2100"/><tag k="coa:place_id" v="3121573"/></node><node id="-191" lat="30.157493" lon="-97.851482" changeset="false"><tag k="addr:street" v="Dupree Lane"/><tag k="addr:housenumber" v="2736"/><tag k="coa:place_id" v="3031945"/></node><node id="-192" lat="30.159486" lon="-97.846457" changeset="false"><tag k="addr:street" v="Alsatia Drive"/><tag k="addr:housenumber" v="2701"/><tag k="coa:place_id" v="3086352"/></node><node id="-193" lat="30.156077" lon="-97.8363" changeset="false"><tag k="addr:street" v="Hillhaven Drive"/><tag k="addr:housenumber" v="11324 1/2"/><tag k="coa:place_id" v="215419"/></node><node id="-194" lat="30.157294" lon="-97.834854" changeset="false"><tag k="addr:street" v="Ravenscroft Drive"/><tag k="addr:housenumber" v="1920 1/2"/><tag k="coa:place_id" v="3073748"/></node><node id="-195" lat="30.159587" lon="-97.847017" changeset="false"><tag k="addr:street" v="Alsatia Drive"/><tag k="addr:housenumber" v="2709"/><tag k="coa:place_id" v="3086354"/></node><node id="-196" lat="30.156907" lon="-97.837654" changeset="false"><tag k="addr:street" v="Ravenscroft Drive"/><tag k="addr:housenumber" v="2113"/><tag k="coa:place_id" v="5137862"/></node><node id="-197" lat="30.155151" lon="-97.834696" changeset="false"><tag k="addr:street" v="Marcus Abrams Boulevard"/><tag k="addr:housenumber" v="1804"/><tag k="coa:place_id" v="3073877"/></node><node id="-198" lat="30.158764" lon="-97.847217" changeset="false"><tag k="addr:street" v="Arbor Downs Road"/><tag k="addr:housenumber" v="11400"/><tag k="coa:place_id" v="220661"/></node><node id="-199" lat="30.151402" lon="-97.843454" changeset="false"><tag k="addr:street" v="Johnny Weismuller Lane"/><tag k="addr:housenumber" v="11813"/><tag k="coa:place_id" v="3084602"/></node><node id="-200" lat="30.15264" lon="-97.837691" changeset="false"><tag k="addr:street" v="James B Connolly Lane"/><tag k="addr:housenumber" v="11509"/><tag k="coa:place_id" v="3084450"/></node><node id="-201" lat="30.153281" lon="-97.840191" changeset="false"><tag k="addr:street" v="Marcus Abrams Boulevard"/><tag k="addr:housenumber" v="2309"/><tag k="coa:place_id" v="3084363"/></node><node id="-202" lat="30.151857" lon="-97.839264" changeset="false"><tag k="addr:street" v="Jim Thorpe Lane"/><tag k="addr:housenumber" v="11519"/><tag k="coa:place_id" v="3115807"/></node><node id="-203" lat="30.14995" lon="-97.842904" changeset="false"><tag k="addr:street" v="Johnny Weismuller Lane"/><tag k="addr:housenumber" v="11904"/><tag k="coa:place_id" v="3084620"/></node><node id="-204" lat="30.155305" lon="-97.836518" changeset="false"><tag k="addr:street" v="Marcus Abrams Boulevard"/><tag k="addr:housenumber" v="1908"/><tag k="coa:place_id" v="3078321"/></node><node id="-205" lat="30.150315" lon="-97.843268" changeset="false"><tag k="addr:street" v="Marcus Abrams Boulevard"/><tag k="addr:housenumber" v="2805"/><tag k="coa:place_id" v="3084609"/></node><node id="-206" lat="30.160963" lon="-97.848425" changeset="false"><tag k="addr:street" v="Alsatia Drive"/><tag k="addr:housenumber" v="2813 1/2"/><tag k="coa:place_id" v="3261312"/></node><node id="-207" lat="30.160844" lon="-97.848426" changeset="false"><tag k="addr:street" v="Alsatia Drive"/><tag k="addr:housenumber" v="2813"/><tag k="coa:place_id" v="3086366"/></node><node id="-208" lat="30.156595" lon="-97.849685" changeset="false"><tag k="addr:street" v="Dupree Lane"/><tag k="addr:housenumber" v="2700"/><tag k="coa:place_id" v="1160251"/></node><node id="-209" lat="30.156523" lon="-97.849636" changeset="false"><tag k="addr:street" v="Arroyo Blanco Drive"/><tag k="addr:housenumber" v="11712 1/2"/><tag k="coa:place_id" v="1103167"/></node><node id="-210" lat="30.155269" lon="-97.844335" changeset="false"><tag k="addr:street" v="Georgia Coleman Bend"/><tag k="addr:housenumber" v="2613"/><tag k="coa:place_id" v="3210098"/></node><node id="-211" lat="30.155265" lon="-97.844321" changeset="false"><tag k="addr:street" v="Georgia Coleman Bend"/><tag k="addr:housenumber" v="2613 1/2"/><tag k="coa:place_id" v="3264417"/></node><node id="-212" lat="30.15459" lon="-97.844921" changeset="false"><tag k="addr:street" v="Johnny Weismuller Lane"/><tag k="addr:housenumber" v="11502 1/2"/><tag k="coa:place_id" v="3271652"/></node><node id="-213" lat="30.154596" lon="-97.844944" changeset="false"><tag k="addr:street" v="Johnny Weismuller Lane"/><tag k="addr:housenumber" v="11502"/><tag k="coa:place_id" v="3210126"/></node></osm>