<?xml version="1.0" encoding="UTF-8"?><osm version="0.6" generator="github.com/aaronlidman/osm-and-geojson"><node id="-1" lat="30.258965" lon="-97.571859" changeset="false"><tag k="addr:street" v="Jacqueline Lane"/><tag k="addr:housenumber" v="6107"/><tag k="coa:place_id" v="3099781"/></node><node id="-2" lat="30.253334" lon="-97.593499" changeset="false"><tag k="addr:street" v="Gilbert Road"/><tag k="addr:housenumber" v="4905"/><tag k="coa:place_id" v="111448"/></node><node id="-3" lat="30.252754" lon="-97.574377" changeset="false"><tag k="addr:street" v="Armstrong Avenue"/><tag k="addr:housenumber" v="15407"/><tag k="coa:place_id" v="3046834"/></node><node id="-4" lat="30.252715" lon="-97.576075" changeset="false"><tag k="addr:street" v="Cadillac Drive"/><tag k="addr:housenumber" v="5505"/><tag k="coa:place_id" v="174701"/></node><node id="-5" lat="30.252564" lon="-97.575791" changeset="false"><tag k="addr:street" v="Cadillac Drive"/><tag k="addr:housenumber" v="5509"/><tag k="coa:place_id" v="3098201"/></node><node id="-6" lat="30.255606" lon="-97.573973" changeset="false"><tag k="addr:street" v="Jacqueline Lane"/><tag k="addr:housenumber" v="5711"/><tag k="coa:place_id" v="3099813"/></node><node id="-7" lat="30.255627" lon="-97.575153" changeset="false"><tag k="addr:street" v="Caroline Lane"/><tag k="addr:housenumber" v="5705"/><tag k="coa:place_id" v="3099737"/></node><node id="-8" lat="30.258717" lon="-97.573778" changeset="false"><tag k="addr:street" v="Caroline Lane"/><tag k="addr:housenumber" v="6006"/><tag k="coa:place_id" v="593440"/></node><node id="-9" lat="30.252525" lon="-97.577947" changeset="false"><tag k="addr:street" v="Chamberlain Court"/><tag k="addr:housenumber" v="15203"/><tag k="coa:place_id" v="200085"/></node><node id="-10" lat="30.250494" lon="-97.581309" changeset="false"><tag k="addr:street" v="Delta Post Drive"/><tag k="addr:housenumber" v="5210 1/2"/><tag k="coa:place_id" v="3099391"/></node><node id="-11" lat="30.256223" lon="-97.580097" changeset="false"><tag k="addr:street" v="Mimebark Way"/><tag k="addr:housenumber" v="15007"/><tag k="coa:place_id" v="3144487"/></node><node id="-12" lat="30.246386" lon="-97.555959" changeset="false"><tag k="addr:street" v="Twin Creek Meadows Drive"/><tag k="addr:housenumber" v="16601"/><tag k="coa:place_id" v="130647"/></node><node id="-13" lat="30.245898" lon="-97.559168" changeset="false"><tag k="addr:street" v="Decker Creek Drive"/><tag k="addr:housenumber" v="16525"/><tag k="coa:place_id" v="499348"/></node><node id="-14" lat="30.244105" lon="-97.556032" changeset="false"><tag k="addr:street" v="Decker Creek Drive"/><tag k="addr:housenumber" v="16601"/><tag k="coa:place_id" v="314932"/></node><node id="-15" lat="30.252187" lon="-97.582266" changeset="false"><tag k="addr:street" v="Arizona Oak Lane"/><tag k="addr:housenumber" v="15000"/><tag k="coa:place_id" v="3096208"/></node><node id="-16" lat="30.25738" lon="-97.571115" changeset="false"><tag k="addr:street" v="Melody Lane"/><tag k="addr:housenumber" v="6008"/><tag k="coa:place_id" v="1122588"/></node><node id="-17" lat="30.257164" lon="-97.579487" changeset="false"><tag k="addr:street" v="Vasey Boulevard"/><tag k="addr:housenumber" v="5808"/><tag k="coa:place_id" v="3144486"/></node><node id="-18" lat="30.257789" lon="-97.570773" changeset="false"><tag k="addr:street" v="Melody Lane"/><tag k="addr:housenumber" v="6100"/><tag k="coa:place_id" v="3086623"/></node><node id="-19" lat="30.257639" lon="-97.570852" changeset="false"><tag k="addr:street" v="Melody Lane"/><tag k="addr:housenumber" v="6012"/><tag k="coa:place_id" v="609879"/></node><node id="-20" lat="30.253302" lon="-97.573069" changeset="false"><tag k="addr:street" v="Melody Lane"/><tag k="addr:housenumber" v="5609"/><tag k="coa:place_id" v="3098183"/></node><node id="-21" lat="30.254119" lon="-97.573222" changeset="false"><tag k="addr:street" v="Melody Lane"/><tag k="addr:housenumber" v="5702"/><tag k="coa:place_id" v="3099381"/></node><node id="-22" lat="30.258053" lon="-97.573589" changeset="false"><tag k="addr:street" v="Caroline Lane"/><tag k="addr:housenumber" v="6001"/><tag k="coa:place_id" v="883599"/></node><node id="-23" lat="30.249425" lon="-97.55726" changeset="false"><tag k="addr:street" v="Decker Creek Drive"/><tag k="addr:housenumber" v="16500"/><tag k="coa:place_id" v="443974"/></node><node id="-24" lat="30.256323" lon="-97.571106" changeset="false"><tag k="addr:street" v="Melody Lane"/><tag k="addr:housenumber" v="5911"/><tag k="coa:place_id" v="3099372"/></node><node id="-25" lat="30.251882" lon="-97.576587" changeset="false"><tag k="addr:street" v="Chamberlain Court"/><tag k="addr:housenumber" v="15303"/><tag k="coa:place_id" v="3099823"/></node><node id="-26" lat="30.251617" lon="-97.575914" changeset="false"><tag k="addr:street" v="Chamberlain Court"/><tag k="addr:housenumber" v="15311"/><tag k="coa:place_id" v="3098126"/></node><node id="-27" lat="30.260074" lon="-97.572347" changeset="false"><tag k="addr:street" v="Caroline Lane"/><tag k="addr:housenumber" v="6203"/><tag k="coa:place_id" v="3048544"/></node><node id="-28" lat="30.259001" lon="-97.573571" changeset="false"><tag k="addr:street" v="Caroline Lane"/><tag k="addr:housenumber" v="6010"/><tag k="coa:place_id" v="227693"/></node><node id="-29" lat="30.254875" lon="-97.575402" changeset="false"><tag k="addr:street" v="Trumpet Drive"/><tag k="addr:housenumber" v="15407"/><tag k="coa:place_id" v="224799"/></node><node id="-30" lat="30.258287" lon="-97.570464" changeset="false"><tag k="addr:street" v="Melody Lane"/><tag k="addr:housenumber" v="6106"/><tag k="coa:place_id" v="3086626"/></node><node id="-31" lat="30.217495" lon="-97.56736" changeset="false"><tag k="addr:street" v="Dunlap Road North,1100"/><tag k="addr:housenumber" v="1251"/><tag k="coa:place_id" v="144075"/></node><node id="-32" lat="30.249899" lon="-97.553807" changeset="false"><tag k="addr:street" v="Easy Meadow Cove"/><tag k="addr:housenumber" v="6100"/><tag k="coa:place_id" v="450496"/></node><node id="-33" lat="30.25876" lon="-97.570155" changeset="false"><tag k="addr:street" v="Melody Lane"/><tag k="addr:housenumber" v="6111"/><tag k="coa:place_id" v="145848"/></node><node id="-34" lat="30.265428" lon="-97.588393" changeset="false"><tag k="addr:street" v="Gilbert Road"/><tag k="addr:housenumber" v="6005"/><tag k="coa:place_id" v="3118736"/></node><node id="-35" lat="30.258653" lon="-97.573255" changeset="false"><tag k="addr:street" v="Caroline Lane"/><tag k="addr:housenumber" v="6009"/><tag k="coa:place_id" v="509716"/></node><node id="-36" lat="30.258476" lon="-97.574078" changeset="false"><tag k="addr:street" v="Caroline Lane"/><tag k="addr:housenumber" v="6002"/><tag k="coa:place_id" v="290962"/></node><node id="-37" lat="30.258288" lon="-97.569972" changeset="false"><tag k="addr:street" v="Melody Lane"/><tag k="addr:housenumber" v="6109"/><tag k="coa:place_id" v="81349"/></node><node id="-38" lat="30.27008" lon="-97.588416" changeset="false"><tag k="addr:street" v="Gilbert Road"/><tag k="addr:housenumber" v="6200"/><tag k="coa:place_id" v="580023"/></node><node id="-39" lat="30.24885" lon="-97.582412" changeset="false"><tag k="addr:street" v="Truman Oak Cove"/><tag k="addr:housenumber" v="14920"/><tag k="coa:place_id" v="3096132"/></node><node id="-40" lat="30.229799" lon="-97.5724" changeset="false"><tag k="addr:street" v="Dunlap Road North,1100"/><tag k="addr:housenumber" v="1029"/><tag k="coa:place_id" v="306716"/></node><node id="-41" lat="30.218343" lon="-97.494766" changeset="false"><tag k="addr:street" v="Post Oak Road"/><tag k="addr:housenumber" v="1901"/><tag k="coa:place_id" v="1129282"/></node><node id="-42" lat="30.218974" lon="-97.502766" changeset="false"><tag k="addr:street" v="Post Oak Road"/><tag k="addr:housenumber" v="2519"/><tag k="coa:place_id" v="1128579"/></node><node id="-43" lat="30.255416" lon="-97.573578" changeset="false"><tag k="addr:street" v="JFK Drive"/><tag k="addr:housenumber" v="5800"/><tag k="coa:place_id" v="81344"/></node><node id="-44" lat="30.250637" lon="-97.554597" changeset="false"><tag k="addr:street" v="Easybend Drive"/><tag k="addr:housenumber" v="16604"/><tag k="coa:place_id" v="481696"/></node><node id="-45" lat="30.251784" lon="-97.556388" changeset="false"><tag k="addr:street" v="Deep Meadow Cove"/><tag k="addr:housenumber" v="16602"/><tag k="coa:place_id" v="73685"/></node><node id="-46" lat="30.26039" lon="-97.572166" changeset="false"><tag k="addr:street" v="Caroline Lane"/><tag k="addr:housenumber" v="6207"/><tag k="coa:place_id" v="3051980"/></node><node id="-47" lat="30.25943" lon="-97.570887" changeset="false"><tag k="addr:street" v="Melody Lane"/><tag k="addr:housenumber" v="6201"/><tag k="coa:place_id" v="1008590"/></node><node id="-48" lat="30.257661" lon="-97.57201" changeset="false"><tag k="addr:street" v="JFK Drive"/><tag k="addr:housenumber" v="6006"/><tag k="coa:place_id" v="3051216"/></node><node id="-49" lat="30.257088" lon="-97.578803" changeset="false"><tag k="addr:street" v="Sabal Palm Road"/><tag k="addr:housenumber" v="15102"/><tag k="coa:place_id" v="3144501"/></node><node id="-50" lat="30.256738" lon="-97.57083" changeset="false"><tag k="addr:street" v="Melody Lane"/><tag k="addr:housenumber" v="6003"/><tag k="coa:place_id" v="239271"/></node><node id="-51" lat="30.261204" lon="-97.57222" changeset="false"><tag k="addr:street" v="Caroline Lane"/><tag k="addr:housenumber" v="6302"/><tag k="coa:place_id" v="3099788"/></node><node id="-52" lat="30.248328" lon="-97.552589" changeset="false"><tag k="addr:street" v="Easybend Drive"/><tag k="addr:housenumber" v="16801"/><tag k="coa:place_id" v="56340"/></node><node id="-53" lat="30.252293" lon="-97.57511" changeset="false"><tag k="addr:street" v="JFK Drive"/><tag k="addr:housenumber" v="5507"/><tag k="coa:place_id" v="757959"/></node><node id="-54" lat="30.247434" lon="-97.555573" changeset="false"><tag k="addr:street" v="Decker Creek Drive"/><tag k="addr:housenumber" v="16518"/><tag k="coa:place_id" v="94060"/></node><node id="-55" lat="30.249623" lon="-97.552591" changeset="false"><tag k="addr:street" v="Easy Meadow Cove"/><tag k="addr:housenumber" v="6105"/><tag k="coa:place_id" v="73689"/></node><node id="-56" lat="30.257638" lon="-97.57803" changeset="false"><tag k="addr:street" v="Bullace Street"/><tag k="addr:housenumber" v="15106"/><tag k="coa:place_id" v="3195254"/></node><node id="-57" lat="30.243783" lon="-97.563392" changeset="false"><tag k="addr:street" v="Dunlap Road North,1100"/><tag k="addr:housenumber" v="5311"/><tag k="coa:place_id" v="711615"/></node><node id="-58" lat="30.252677" lon="-97.574224" changeset="false"><tag k="addr:street" v="Armstrong Avenue"/><tag k="addr:housenumber" v="15409"/><tag k="coa:place_id" v="774663"/></node><node id="-59" lat="30.235542" lon="-97.568466" changeset="false"><tag k="addr:street" v="Dunlap Road North,1100"/><tag k="addr:housenumber" v="4507"/><tag k="coa:place_id" v="306626"/></node><node id="-60" lat="30.257325" lon="-97.576614" changeset="false"><tag k="addr:street" v="Wideleaf Cove"/><tag k="addr:housenumber" v="15209"/><tag k="coa:place_id" v="3195210"/></node><node id="-61" lat="30.255033" lon="-97.575682" changeset="false"><tag k="addr:street" v="Trumpet Drive"/><tag k="addr:housenumber" v="15401"/><tag k="coa:place_id" v="3692104"/></node><node id="-62" lat="30.258886" lon="-97.589964" changeset="false"><tag k="addr:street" v="Breve Cove"/><tag k="addr:housenumber" v="13100"/><tag k="coa:place_id" v="3427207"/></node><node id="-63" lat="30.255335" lon="-97.571817" changeset="false"><tag k="addr:street" v="Melody Lane"/><tag k="addr:housenumber" v="5809"/><tag k="coa:place_id" v="552514"/></node><node id="-64" lat="30.252635" lon="-97.575924" changeset="false"><tag k="addr:street" v="Cadillac Drive"/><tag k="addr:housenumber" v="5507"/><tag k="coa:place_id" v="3099830"/></node><node id="-65" lat="30.219323" lon="-97.489339" changeset="false"><tag k="addr:street" v="Webberwood Drive"/><tag k="addr:housenumber" v="1732"/><tag k="coa:place_id" v="5093323"/></node><node id="-66" lat="30.255232" lon="-97.572395" changeset="false"><tag k="addr:street" v="Melody Lane"/><tag k="addr:housenumber" v="5804"/><tag k="coa:place_id" v="241211"/></node><node id="-67" lat="30.258122" lon="-97.589237" changeset="false"><tag k="addr:street" v="Breve Cove"/><tag k="addr:housenumber" v="13212"/><tag k="coa:place_id" v="3427215"/></node><node id="-68" lat="30.256862" lon="-97.589029" changeset="false"><tag k="addr:street" v="Barteny Cove"/><tag k="addr:housenumber" v="13317"/><tag k="coa:place_id" v="3427173"/></node><node id="-69" lat="30.25762" lon="-97.588975" changeset="false"><tag k="addr:street" v="Breve Cove"/><tag k="addr:housenumber" v="13305"/><tag k="coa:place_id" v="3427203"/></node><node id="-70" lat="30.258376" lon="-97.590693" changeset="false"><tag k="addr:street" v="Barteny Cove"/><tag k="addr:housenumber" v="13100"/><tag k="coa:place_id" v="3427174"/></node><node id="-71" lat="30.252966" lon="-97.575338" changeset="false"><tag k="addr:street" v="JFK Drive"/><tag k="addr:housenumber" v="5510"/><tag k="coa:place_id" v="3305926"/></node><node id="-72" lat="30.259012" lon="-97.572453" changeset="false"><tag k="addr:street" v="Jacqueline Lane"/><tag k="addr:housenumber" v="6104"/><tag k="coa:place_id" v="3099769"/></node><node id="-73" lat="30.251962" lon="-97.575332" changeset="false"><tag k="addr:street" v="JFK Drive"/><tag k="addr:housenumber" v="5503"/><tag k="coa:place_id" v="115981"/></node><node id="-74" lat="30.253843" lon="-97.573896" changeset="false"><tag k="addr:street" v="JFK Drive"/><tag k="addr:housenumber" v="5611"/><tag k="coa:place_id" v="235161"/></node><node id="-75" lat="30.251537" lon="-97.57575" changeset="false"><tag k="addr:street" v="Chamberlain Court"/><tag k="addr:housenumber" v="15313"/><tag k="coa:place_id" v="3054139"/></node><node id="-76" lat="30.216872" lon="-97.494132" changeset="false"><tag k="addr:street" v="Park Lane"/><tag k="addr:housenumber" v="2204"/><tag k="coa:place_id" v="1128746"/></node><node id="-77" lat="30.260136" lon="-97.57283" changeset="false"><tag k="addr:street" v="Caroline Lane"/><tag k="addr:housenumber" v="6200"/><tag k="coa:place_id" v="3029040"/></node><node id="-78" lat="30.259503" lon="-97.572694" changeset="false"><tag k="addr:street" v="Caroline Lane"/><tag k="addr:housenumber" v="6109"/><tag k="coa:place_id" v="3099777"/></node><node id="-79" lat="30.257554" lon="-97.591354" changeset="false"><tag k="addr:street" v="Gilbert Road"/><tag k="addr:housenumber" v="5313"/><tag k="coa:place_id" v="111436"/></node><node id="-80" lat="30.25595" lon="-97.571998" changeset="false"><tag k="addr:street" v="Melody Lane"/><tag k="addr:housenumber" v="5902"/><tag k="coa:place_id" v="193843"/></node><node id="-81" lat="30.258308" lon="-97.574098" changeset="false"><tag k="addr:street" v="Caroline Lane"/><tag k="addr:housenumber" v="6000"/><tag k="coa:place_id" v="3099759"/></node><node id="-82" lat="30.252391" lon="-97.577543" changeset="false"><tag k="addr:street" v="Chamberlain Court"/><tag k="addr:housenumber" v="15207"/><tag k="coa:place_id" v="3099821"/></node><node id="-83" lat="30.257827" lon="-97.571918" changeset="false"><tag k="addr:street" v="JFK Drive"/><tag k="addr:housenumber" v="6008"/><tag k="coa:place_id" v="3049098"/></node><node id="-84" lat="30.257012" lon="-97.578657" changeset="false"><tag k="addr:street" v="Sabal Palm Road"/><tag k="addr:housenumber" v="15104"/><tag k="coa:place_id" v="3144502"/></node><node id="-85" lat="30.255262" lon="-97.574771" changeset="false"><tag k="addr:street" v="Jacqueline Lane"/><tag k="addr:housenumber" v="5702"/><tag k="coa:place_id" v="3045075"/></node><node id="-86" lat="30.251603" lon="-97.55703" changeset="false"><tag k="addr:street" v="Deep Meadow Cove"/><tag k="addr:housenumber" v="16600"/><tag k="coa:place_id" v="73686"/></node><node id="-87" lat="30.23437" lon="-97.569341" changeset="false"><tag k="addr:street" v="Dunlap Road North,1100"/><tag k="addr:housenumber" v="4501"/><tag k="coa:place_id" v="244831"/></node><node id="-88" lat="30.230254" lon="-97.572078" changeset="false"><tag k="addr:street" v="Dunlap Road North,1100"/><tag k="addr:housenumber" v="1021"/><tag k="coa:place_id" v="424149"/></node><node id="-89" lat="30.228287" lon="-97.573327" changeset="false"><tag k="addr:street" v="Dunlap Road North,1100"/><tag k="addr:housenumber" v="1119"/><tag k="coa:place_id" v="306746"/></node><node id="-90" lat="30.23314" lon="-97.570173" changeset="false"><tag k="addr:street" v="Dunlap Road North,1100"/><tag k="addr:housenumber" v="901"/><tag k="coa:place_id" v="306668"/></node><node id="-91" lat="30.218702" lon="-97.494547" changeset="false"><tag k="addr:street" v="Post Oak Road"/><tag k="addr:housenumber" v="1803"/><tag k="coa:place_id" v="1129284"/></node><node id="-92" lat="30.252481" lon="-97.575615" changeset="false"><tag k="addr:street" v="Cadillac Drive"/><tag k="addr:housenumber" v="5513"/><tag k="coa:place_id" v="247864"/></node><node id="-93" lat="30.248319" lon="-97.553903" changeset="false"><tag k="addr:street" v="Easy Meadow Cove"/><tag k="addr:housenumber" v="6003"/><tag k="coa:place_id" v="656656"/></node><node id="-94" lat="30.248221" lon="-97.555826" changeset="false"><tag k="addr:street" v="Decker Creek Drive"/><tag k="addr:housenumber" v="16514"/><tag k="coa:place_id" v="1045599"/></node><node id="-95" lat="30.248188" lon="-97.550788" changeset="false"><tag k="addr:street" v="Decker Creek Drive"/><tag k="addr:housenumber" v="16901"/><tag k="coa:place_id" v="207622"/></node><node id="-96" lat="30.259045" lon="-97.574627" changeset="false"><tag k="addr:street" v="Wideleaf Drive"/><tag k="addr:housenumber" v="6106"/><tag k="coa:place_id" v="3144646"/></node><node id="-97" lat="30.243649" lon="-97.55353" changeset="false"><tag k="addr:street" v="Decker Creek Drive"/><tag k="addr:housenumber" v="16705"/><tag k="coa:place_id" v="104998"/></node><node id="-98" lat="30.243414" lon="-97.555232" changeset="false"><tag k="addr:street" v="Decker Creek Drive"/><tag k="addr:housenumber" v="16605"/><tag k="coa:place_id" v="77775"/></node><node id="-99" lat="30.227979" lon="-97.516101" changeset="false"><tag k="addr:street" v="Water Street"/><tag k="addr:housenumber" v="1109"/><tag k="coa:place_id" v="3198758"/></node><node id="-100" lat="30.258341" lon="-97.572256" changeset="false"><tag k="addr:street" v="Jacqueline Lane"/><tag k="addr:housenumber" v="6013"/><tag k="coa:place_id" v="3099778"/></node><node id="-101" lat="30.257048" lon="-97.574948" changeset="false"><tag k="addr:street" v="Caroline Lane"/><tag k="addr:housenumber" v="5808"/><tag k="coa:place_id" v="3072756"/></node><node id="-102" lat="30.256967" lon="-97.572549" changeset="false"><tag k="addr:street" v="JFK Drive"/><tag k="addr:housenumber" v="5908"/><tag k="coa:place_id" v="127440"/></node><node id="-103" lat="30.256871" lon="-97.573839" changeset="false"><tag k="addr:street" v="Jacqueline Lane"/><tag k="addr:housenumber" v="5902"/><tag k="coa:place_id" v="3099758"/></node><node id="-104" lat="30.250685" lon="-97.558806" changeset="false"><tag k="addr:street" v="Decker Creek Drive"/><tag k="addr:housenumber" v="16400"/><tag k="coa:place_id" v="819705"/></node><node id="-105" lat="30.247364" lon="-97.557911" changeset="false"><tag k="addr:street" v="Decker Creek Drive"/><tag k="addr:housenumber" v="16513"/><tag k="coa:place_id" v="505132"/></node><node id="-106" lat="30.257325" lon="-97.574754" changeset="false"><tag k="addr:street" v="Caroline Lane"/><tag k="addr:housenumber" v="5900"/><tag k="coa:place_id" v="183096"/></node><node id="-107" lat="30.25714" lon="-97.571798" changeset="false"><tag k="addr:street" v="JFK Drive"/><tag k="addr:housenumber" v="6003"/><tag k="coa:place_id" v="378933"/></node><node id="-108" lat="30.260956" lon="-97.571255" changeset="false"><tag k="addr:street" v="Jacqueline Lane"/><tag k="addr:housenumber" v="6306"/><tag k="coa:place_id" v="3099801"/></node><node id="-109" lat="30.255127" lon="-97.573746" changeset="false"><tag k="addr:street" v="JFK Drive"/><tag k="addr:housenumber" v="5706"/><tag k="coa:place_id" v="3099403"/></node><node id="-110" lat="30.250184" lon="-97.554506" changeset="false"><tag k="addr:street" v="Easybend Drive"/><tag k="addr:housenumber" v="16700"/><tag k="coa:place_id" v="328684"/></node><node id="-111" lat="30.248846" lon="-97.554557" changeset="false"><tag k="addr:street" v="Easy Meadow Cove"/><tag k="addr:housenumber" v="6002"/><tag k="coa:place_id" v="87637"/></node><node id="-112" lat="30.25627" lon="-97.572993" changeset="false"><tag k="addr:street" v="JFK Drive"/><tag k="addr:housenumber" v="5900"/><tag k="coa:place_id" v="392787"/></node><node id="-113" lat="30.260032" lon="-97.571806" changeset="false"><tag k="addr:street" v="Jacqueline Lane"/><tag k="addr:housenumber" v="6204"/><tag k="coa:place_id" v="3099794"/></node><node id="-114" lat="30.265338" lon="-97.566798" changeset="false"><tag k="addr:street" v="Decker Lake Road"/><tag k="addr:housenumber" v="15915"/><tag k="coa:place_id" v="3188523"/></node><node id="-115" lat="30.2304" lon="-97.517251" changeset="false"><tag k="addr:street" v="Water Street"/><tag k="addr:housenumber" v="911"/><tag k="coa:place_id" v="3198738"/></node><node id="-116" lat="30.218789" lon="-97.49045" changeset="false"><tag k="addr:street" v="Webberwood Drive"/><tag k="addr:housenumber" v="1900"/><tag k="coa:place_id" v="1129777"/></node><node id="-117" lat="30.217186" lon="-97.490351" changeset="false"><tag k="addr:street" v="Webberwood Drive"/><tag k="addr:housenumber" v="2003"/><tag k="coa:place_id" v="1129881"/></node><node id="-118" lat="30.255454" lon="-97.574079" changeset="false"><tag k="addr:street" v="Jacqueline Lane"/><tag k="addr:housenumber" v="5709"/><tag k="coa:place_id" v="3099812"/></node><node id="-119" lat="30.257546" lon="-97.588563" changeset="false"><tag k="addr:street" v="Breve Cove"/><tag k="addr:housenumber" v="13317"/><tag k="coa:place_id" v="3427206"/></node><node id="-120" lat="30.229642" lon="-97.570953" changeset="false"><tag k="addr:street" v="Milo Road"/><tag k="addr:housenumber" v="15509"/><tag k="coa:place_id" v="3504119"/></node><node id="-121" lat="30.255016" lon="-97.573164" changeset="false"><tag k="addr:street" v="JFK Drive"/><tag k="addr:housenumber" v="5709"/><tag k="coa:place_id" v="3098198"/></node><node id="-122" lat="30.251727" lon="-97.57626" changeset="false"><tag k="addr:street" v="Chamberlain Court"/><tag k="addr:housenumber" v="15307"/><tag k="coa:place_id" v="3099825"/></node><node id="-123" lat="30.257268" lon="-97.589462" changeset="false"><tag k="addr:street" v="Barteny Cove"/><tag k="addr:housenumber" v="13300"/><tag k="coa:place_id" v="3427185"/></node><node id="-124" lat="30.256757" lon="-97.58927" changeset="false"><tag k="addr:street" v="Barteny Cove"/><tag k="addr:housenumber" v="13313"/><tag k="coa:place_id" v="3427172"/></node><node id="-125" lat="30.252731" lon="-97.573442" changeset="false"><tag k="addr:street" v="Melody Lane"/><tag k="addr:housenumber" v="5601"/><tag k="coa:place_id" v="1163078"/></node><node id="-126" lat="30.258169" lon="-97.589726" changeset="false"><tag k="addr:street" v="Breve Cove"/><tag k="addr:housenumber" v="13201"/><tag k="coa:place_id" v="3427197"/></node><node id="-127" lat="30.252839" lon="-97.574532" changeset="false"><tag k="addr:street" v="Armstrong Avenue"/><tag k="addr:housenumber" v="15405"/><tag k="coa:place_id" v="306428"/></node><node id="-128" lat="30.249168" lon="-97.583129" changeset="false"><tag k="addr:street" v="Truman Oak Cove"/><tag k="addr:housenumber" v="14904"/><tag k="coa:place_id" v="3096125"/></node><node id="-129" lat="30.257247" lon="-97.573463" changeset="false"><tag k="addr:street" v="Jacqueline Lane"/><tag k="addr:housenumber" v="5906"/><tag k="coa:place_id" v="114421"/></node><node id="-130" lat="30.256728" lon="-97.572055" changeset="false"><tag k="addr:street" v="JFK Drive"/><tag k="addr:housenumber" v="5909"/><tag k="coa:place_id" v="3099811"/></node><node id="-131" lat="30.258109" lon="-97.570585" changeset="false"><tag k="addr:street" v="Melody Lane"/><tag k="addr:housenumber" v="6104"/><tag k="coa:place_id" v="3086625"/></node><node id="-132" lat="30.258001" lon="-97.574267" changeset="false"><tag k="addr:street" v="Caroline Lane"/><tag k="addr:housenumber" v="5908"/><tag k="coa:place_id" v="210415"/></node><node id="-133" lat="30.255824" lon="-97.594052" changeset="false"><tag k="addr:street" v="Gilbert Road"/><tag k="addr:housenumber" v="5116"/><tag k="coa:place_id" v="3100073"/></node><node id="-134" lat="30.259167" lon="-97.573523" changeset="false"><tag k="addr:street" v="Caroline Lane"/><tag k="addr:housenumber" v="6100"/><tag k="coa:place_id" v="3099763"/></node><node id="-135" lat="30.257476" lon="-97.572794" changeset="false"><tag k="addr:street" v="Jacqueline Lane"/><tag k="addr:housenumber" v="6001"/><tag k="coa:place_id" v="3099808"/></node><node id="-136" lat="30.257426" lon="-97.571594" changeset="false"><tag k="addr:street" v="JFK Drive"/><tag k="addr:housenumber" v="6007"/><tag k="coa:place_id" v="307028"/></node><node id="-137" lat="30.260797" lon="-97.571829" changeset="false"><tag k="addr:street" v="Caroline Lane"/><tag k="addr:housenumber" v="6301"/><tag k="coa:place_id" v="3099795"/></node><node id="-138" lat="30.253302" lon="-97.574302" changeset="false"><tag k="addr:street" v="JFK Drive"/><tag k="addr:housenumber" v="5603"/><tag k="coa:place_id" v="1163430"/></node><node id="-139" lat="30.253038" lon="-97.577846" changeset="false"><tag k="addr:street" v="Chamberlain Court"/><tag k="addr:housenumber" v="15200"/><tag k="coa:place_id" v="175138"/></node><node id="-140" lat="30.219597" lon="-97.562193" changeset="false"><tag k="addr:street" v="Dunlap Road North,1100"/><tag k="addr:housenumber" v="1243"/><tag k="coa:place_id" v="306788"/></node><node id="-141" lat="30.256348" lon="-97.573484" changeset="false"><tag k="addr:street" v="Jacqueline Lane"/><tag k="addr:housenumber" v="5809"/><tag k="coa:place_id" v="153403"/></node><node id="-142" lat="30.256336" lon="-97.575409" changeset="false"><tag k="addr:street" v="Caroline Lane"/><tag k="addr:housenumber" v="5710"/><tag k="coa:place_id" v="3099751"/></node><node id="-143" lat="30.253451" lon="-97.575569" changeset="false"><tag k="addr:street" v="Cadillac Drive"/><tag k="addr:housenumber" v="5504"/><tag k="coa:place_id" v="673792"/></node><node id="-144" lat="30.253303" lon="-97.575131" changeset="false"><tag k="addr:street" v="JFK Drive"/><tag k="addr:housenumber" v="5520"/><tag k="coa:place_id" v="219277"/></node><node id="-145" lat="30.25815" lon="-97.574152" changeset="false"><tag k="addr:street" v="Caroline Lane"/><tag k="addr:housenumber" v="5910"/><tag k="coa:place_id" v="215305"/></node><node id="-146" lat="30.255825" lon="-97.573228" changeset="false"><tag k="addr:street" v="JFK Drive"/><tag k="addr:housenumber" v="5806"/><tag k="coa:place_id" v="150126"/></node><node id="-147" lat="30.243346" lon="-97.554268" changeset="false"><tag k="addr:street" v="Decker Creek Drive"/><tag k="addr:housenumber" v="16701"/><tag k="coa:place_id" v="898743"/></node><node id="-148" lat="30.259621" lon="-97.589667" changeset="false"><tag k="addr:street" v="Gilbert Road"/><tag k="addr:housenumber" v="5507 1/2"/><tag k="coa:place_id" v="3100134"/></node><node id="-149" lat="30.257857" lon="-97.574359" changeset="false"><tag k="addr:street" v="Caroline Lane"/><tag k="addr:housenumber" v="5906"/><tag k="coa:place_id" v="81360"/></node><node id="-150" lat="30.244498" lon="-97.557653" changeset="false"><tag k="addr:street" v="Decker Creek Drive"/><tag k="addr:housenumber" v="16533"/><tag k="coa:place_id" v="77771"/></node><node id="-151" lat="30.242775" lon="-97.557619" changeset="false"><tag k="addr:street" v="Decker Creek Cove"/><tag k="addr:housenumber" v="5600"/><tag k="coa:place_id" v="407878"/></node><node id="-152" lat="30.255913" lon="-97.574994" changeset="false"><tag k="addr:street" v="Caroline Lane"/><tag k="addr:housenumber" v="5709"/><tag k="coa:place_id" v="81352"/></node><node id="-153" lat="30.255978" lon="-97.579485" changeset="false"><tag k="addr:street" v="Mimebark Way"/><tag k="addr:housenumber" v="15103"/><tag k="coa:place_id" v="3144491"/></node><node id="-154" lat="30.259073" lon="-97.570526" changeset="false"><tag k="addr:street" v="Melody Lane"/><tag k="addr:housenumber" v="6117"/><tag k="coa:place_id" v="306404"/></node><node id="-155" lat="30.266637" lon="-97.587733" changeset="false"><tag k="addr:street" v="Gilbert Road"/><tag k="addr:housenumber" v="6101"/><tag k="coa:place_id" v="164892"/></node><node id="-156" lat="30.256367" lon="-97.576322" changeset="false"><tag k="addr:street" v="Wideleaf Drive"/><tag k="addr:housenumber" v="5818 1/2"/><tag k="coa:place_id" v="3156235"/></node><node id="-157" lat="30.255454" lon="-97.572898" changeset="false"><tag k="addr:street" v="JFK Drive"/><tag k="addr:housenumber" v="5805"/><tag k="coa:place_id" v="3099401"/></node><node id="-158" lat="30.261129" lon="-97.571615" changeset="false"><tag k="addr:street" v="Caroline Lane"/><tag k="addr:housenumber" v="6305"/><tag k="coa:place_id" v="3099797"/></node><node id="-159" lat="30.252851" lon="-97.577288" changeset="false"><tag k="addr:street" v="Chamberlain Court"/><tag k="addr:housenumber" v="15206"/><tag k="coa:place_id" v="1161259"/></node><node id="-160" lat="30.259786" lon="-97.572511" changeset="false"><tag k="addr:street" v="Caroline Lane"/><tag k="addr:housenumber" v="6113"/><tag k="coa:place_id" v="1160190"/></node><node id="-161" lat="30.256733" lon="-97.573915" changeset="false"><tag k="addr:street" v="Jacqueline Lane"/><tag k="addr:housenumber" v="5900"/><tag k="coa:place_id" v="3099757"/></node><node id="-162" lat="30.250182" lon="-97.559055" changeset="false"><tag k="addr:street" v="Decker Creek Drive"/><tag k="addr:housenumber" v="16401"/><tag k="coa:place_id" v="3189820"/></node><node id="-163" lat="30.24686" lon="-97.552917" changeset="false"><tag k="addr:street" v="Decker Creek Drive"/><tag k="addr:housenumber" v="16800"/><tag k="coa:place_id" v="414682"/></node><node id="-164" lat="30.246886" lon="-97.556358" changeset="false"><tag k="addr:street" v="Decker Creek Drive"/><tag k="addr:housenumber" v="16521"/><tag k="coa:place_id" v="88988"/></node><node id="-165" lat="30.258436" lon="-97.577887" changeset="false"><tag k="addr:street" v="Vasey Boulevard"/><tag k="addr:housenumber" v="6005"/><tag k="coa:place_id" v="3195272"/></node><node id="-166" lat="30.258555" lon="-97.572662" changeset="false"><tag k="addr:street" v="Jacqueline Lane"/><tag k="addr:housenumber" v="6012"/><tag k="coa:place_id" v="239001"/></node><node id="-167" lat="30.250634" lon="-97.57747" changeset="false"><tag k="addr:street" v="Cadillac Drive"/><tag k="addr:housenumber" v="5301"/><tag k="coa:place_id" v="3353333"/></node><node id="-168" lat="30.258582" lon="-97.578442" changeset="false"><tag k="addr:street" v="Vasey Boulevard"/><tag k="addr:housenumber" v="6002"/><tag k="coa:place_id" v="3195267"/></node><node id="-169" lat="30.252982" lon="-97.57396" changeset="false"><tag k="addr:street" v="Melody Lane"/><tag k="addr:housenumber" v="5600"/><tag k="coa:place_id" v="3365339"/></node><node id="-170" lat="30.257397" lon="-97.576741" changeset="false"><tag k="addr:street" v="Wideleaf Cove"/><tag k="addr:housenumber" v="15207"/><tag k="coa:place_id" v="3195209"/></node><node id="-171" lat="30.258672" lon="-97.589783" changeset="false"><tag k="addr:street" v="Breve Cove"/><tag k="addr:housenumber" v="13108"/><tag k="coa:place_id" v="3427209"/></node><node id="-172" lat="30.256966" lon="-97.588958" changeset="false"><tag k="addr:street" v="Barteny Cove"/><tag k="addr:housenumber" v="13316"/><tag k="coa:place_id" v="3427189"/></node><node id="-173" lat="30.258393" lon="-97.589917" changeset="false"><tag k="addr:street" v="Breve Cove"/><tag k="addr:housenumber" v="13113"/><tag k="coa:place_id" v="3427195"/></node><node id="-174" lat="30.257803" lon="-97.589217" changeset="false"><tag k="addr:street" v="Breve Cove"/><tag k="addr:housenumber" v="13217"/><tag k="coa:place_id" v="3427201"/></node><node id="-175" lat="30.257951" lon="-97.58874" changeset="false"><tag k="addr:street" v="Breve Cove"/><tag k="addr:housenumber" v="13308"/><tag k="coa:place_id" v="3427218"/></node><node id="-176" lat="30.257756" lon="-97.5885" changeset="false"><tag k="addr:street" v="Breve Cove"/><tag k="addr:housenumber" v="13316"/><tag k="coa:place_id" v="3427220"/></node><node id="-177" lat="30.257375" lon="-97.590167" changeset="false"><tag k="addr:street" v="Barteny Cove"/><tag k="addr:housenumber" v="13205"/><tag k="coa:place_id" v="3427165"/></node><node id="-178" lat="30.256999" lon="-97.589639" changeset="false"><tag k="addr:street" v="Barteny Cove"/><tag k="addr:housenumber" v="13301"/><tag k="coa:place_id" v="3427169"/></node><node id="-179" lat="30.25783" lon="-97.590658" changeset="false"><tag k="addr:street" v="Barteny Cove"/><tag k="addr:housenumber" v="13113"/><tag k="coa:place_id" v="3427161"/></node><node id="-180" lat="30.272687" lon="-97.595454" changeset="false"><tag k="addr:street" v="Decker Lake Road"/><tag k="addr:housenumber" v="12101"/><tag k="coa:place_id" v="5190382"/></node><node id="-181" lat="30.25796" lon="-97.590323" changeset="false"><tag k="addr:street" v="Barteny Cove"/><tag k="addr:housenumber" v="13116"/><tag k="coa:place_id" v="3427178"/></node><node id="-182" lat="30.257595" lon="-97.589972" changeset="false"><tag k="addr:street" v="Barteny Cove"/><tag k="addr:housenumber" v="13204"/><tag k="coa:place_id" v="3427181"/></node><node id="-183" lat="30.245088" lon="-97.557876" changeset="false"><tag k="addr:street" v="Decker Creek Drive"/><tag k="addr:housenumber" v="16529"/><tag k="coa:place_id" v="131992"/></node><node id="-184" lat="30.242175" lon="-97.556711" changeset="false"><tag k="addr:street" v="Decker Creek Cove"/><tag k="addr:housenumber" v="5601"/><tag k="coa:place_id" v="349846"/></node><node id="-185" lat="30.27006" lon="-97.575701" changeset="false"><tag k="addr:street" v="Decker Lake Road"/><tag k="addr:housenumber" v="15401"/><tag k="coa:place_id" v="128695"/></node><node id="-186" lat="30.265201" lon="-97.566341" changeset="false"><tag k="addr:street" v="Decker Lake Road"/><tag k="addr:housenumber" v="15919"/><tag k="coa:place_id" v="1161399"/></node><node id="-187" lat="30.260007" lon="-97.572961" changeset="false"><tag k="addr:street" v="Caroline Lane"/><tag k="addr:housenumber" v="6112"/><tag k="coa:place_id" v="257168"/></node><node id="-188" lat="30.260306" lon="-97.571638" changeset="false"><tag k="addr:street" v="Jacqueline Lane"/><tag k="addr:housenumber" v="6208"/><tag k="coa:place_id" v="3099793"/></node><node id="-189" lat="30.258869" lon="-97.573691" changeset="false"><tag k="addr:street" v="Caroline Lane"/><tag k="addr:housenumber" v="6008"/><tag k="coa:place_id" v="256420"/></node><node id="-190" lat="30.258601" lon="-97.57393" changeset="false"><tag k="addr:street" v="Caroline Lane"/><tag k="addr:housenumber" v="6004"/><tag k="coa:place_id" v="3099760"/></node><node id="-191" lat="30.260618" lon="-97.571455" changeset="false"><tag k="addr:street" v="Jacqueline Lane"/><tag k="addr:housenumber" v="6302"/><tag k="coa:place_id" v="3099799"/></node><node id="-192" lat="30.254034" lon="-97.57263" changeset="false"><tag k="addr:street" v="Melody Lane"/><tag k="addr:housenumber" v="5705"/><tag k="coa:place_id" v="81335"/></node><node id="-193" lat="30.250892" lon="-97.555094" changeset="false"><tag k="addr:street" v="Deep Meadow Cove"/><tag k="addr:housenumber" v="16610"/><tag k="coa:place_id" v="334672"/></node><node id="-194" lat="30.25596" lon="-97.573142" changeset="false"><tag k="addr:street" v="JFK Drive"/><tag k="addr:housenumber" v="5808"/><tag k="coa:place_id" v="140881"/></node><node id="-195" lat="30.25578" lon="-97.575087" changeset="false"><tag k="addr:street" v="Caroline Lane"/><tag k="addr:housenumber" v="5707"/><tag k="coa:place_id" v="3051970"/></node><node id="-196" lat="30.254734" lon="-97.573356" changeset="false"><tag k="addr:street" v="JFK Drive"/><tag k="addr:housenumber" v="5705"/><tag k="coa:place_id" v="3099405"/></node><node id="-197" lat="30.215468" lon="-97.500905" changeset="false"><tag k="addr:street" v="Sandra Lane"/><tag k="addr:housenumber" v="2301"/><tag k="coa:place_id" v="1129219"/></node><node id="-198" lat="30.217491" lon="-97.499481" changeset="false"><tag k="addr:street" v="Sandra Lane"/><tag k="addr:housenumber" v="2001"/><tag k="coa:place_id" v="1129228"/></node><node id="-199" lat="30.255507" lon="-97.572233" changeset="false"><tag k="addr:street" v="Melody Lane"/><tag k="addr:housenumber" v="5808"/><tag k="coa:place_id" v="182973"/></node><node id="-200" lat="30.256424" lon="-97.575254" changeset="false"><tag k="addr:street" v="Caroline Lane"/><tag k="addr:housenumber" v="5800"/><tag k="coa:place_id" v="3044649"/></node><node id="-201" lat="30.256222" lon="-97.573623" changeset="false"><tag k="addr:street" v="Jacqueline Lane"/><tag k="addr:housenumber" v="5807"/><tag k="coa:place_id" v="1111503"/></node><node id="-202" lat="30.216694" lon="-97.498171" changeset="false"><tag k="addr:street" v="Post Oak Road"/><tag k="addr:housenumber" v="2215"/><tag k="coa:place_id" v="1129279"/></node><node id="-203" lat="30.215845" lon="-97.494731" changeset="false"><tag k="addr:street" v="Park Lane"/><tag k="addr:housenumber" v="2305"/><tag k="coa:place_id" v="1128751"/></node><node id="-204" lat="30.257257" lon="-97.572373" changeset="false"><tag k="addr:street" v="JFK Drive"/><tag k="addr:housenumber" v="6000"/><tag k="coa:place_id" v="3099809"/></node><node id="-205" lat="30.256952" lon="-97.57139" changeset="false"><tag k="addr:street" v="Melody Lane"/><tag k="addr:housenumber" v="6002"/><tag k="coa:place_id" v="946046"/></node><node id="-206" lat="30.249409" lon="-97.556601" changeset="false"><tag k="addr:street" v="Decker Creek Drive"/><tag k="addr:housenumber" v="16506"/><tag k="coa:place_id" v="112542"/></node><node id="-207" lat="30.222251" lon="-97.492234" changeset="false"><tag k="addr:street" v="Post Oak Road"/><tag k="addr:housenumber" v="1409"/><tag k="coa:place_id" v="1129292"/></node><node id="-208" lat="30.258219" lon="-97.573538" changeset="false"><tag k="addr:street" v="Caroline Lane"/><tag k="addr:housenumber" v="6003"/><tag k="coa:place_id" v="522148"/></node><node id="-209" lat="30.258136" lon="-97.572998" changeset="false"><tag k="addr:street" v="Jacqueline Lane"/><tag k="addr:housenumber" v="6006"/><tag k="coa:place_id" v="256522"/></node><node id="-210" lat="30.257933" lon="-97.570686" changeset="false"><tag k="addr:street" v="Melody Lane"/><tag k="addr:housenumber" v="6102"/><tag k="coa:place_id" v="3086624"/></node><node id="-211" lat="30.248513" lon="-97.558263" changeset="false"><tag k="addr:street" v="Decker Creek Drive"/><tag k="addr:housenumber" v="16505"/><tag k="coa:place_id" v="127504"/></node><node id="-212" lat="30.27199" lon="-97.579021" changeset="false"><tag k="addr:street" v="Decker Lake Road"/><tag k="addr:housenumber" v="15117"/><tag k="coa:place_id" v="121446"/></node><node id="-213" lat="30.256511" lon="-97.574615" changeset="false"><tag k="addr:street" v="Caroline Lane"/><tag k="addr:housenumber" v="5805"/><tag k="coa:place_id" v="81356"/></node><node id="-214" lat="30.259473" lon="-97.571616" changeset="false"><tag k="addr:street" v="Jacqueline Lane"/><tag k="addr:housenumber" v="6201"/><tag k="coa:place_id" v="3184611"/></node><node id="-215" lat="30.255397" lon="-97.574716" changeset="false"><tag k="addr:street" v="Jacqueline Lane"/><tag k="addr:housenumber" v="5704"/><tag k="coa:place_id" v="1162577"/></node><node id="-216" lat="30.244258" lon="-97.556856" changeset="false"><tag k="addr:street" v="Decker Creek Drive"/><tag k="addr:housenumber" v="16537"/><tag k="coa:place_id" v="446248"/></node><node id="-217" lat="30.257585" lon="-97.571535" changeset="false"><tag k="addr:street" v="JFK Drive"/><tag k="addr:housenumber" v="6009"/><tag k="coa:place_id" v="715390"/></node><node id="-218" lat="30.257332" lon="-97.570495" changeset="false"><tag k="addr:street" v="Melody Lane"/><tag k="addr:housenumber" v="6011"/><tag k="coa:place_id" v="116371"/></node><node id="-219" lat="30.258013" lon="-97.571199" changeset="false"><tag k="addr:street" v="JFK Drive"/><tag k="addr:housenumber" v="6101"/><tag k="coa:place_id" v="3099818"/></node><node id="-220" lat="30.257699" lon="-97.57443" changeset="false"><tag k="addr:street" v="Belafonte Boulevard"/><tag k="addr:housenumber" v="15400"/><tag k="coa:place_id" v="1049516"/></node><node id="-221" lat="30.258646" lon="-97.572062" changeset="false"><tag k="addr:street" v="Jacqueline Lane"/><tag k="addr:housenumber" v="6101"/><tag k="coa:place_id" v="3099780"/></node><node id="-222" lat="30.258341" lon="-97.574606" changeset="false"><tag k="addr:street" v="Wideleaf Drive"/><tag k="addr:housenumber" v="6019"/><tag k="coa:place_id" v="3144639"/></node><node id="-223" lat="30.254826" lon="-97.573932" changeset="false"><tag k="addr:street" v="JFK Drive"/><tag k="addr:housenumber" v="5702"/><tag k="coa:place_id" v="81345"/></node><node id="-224" lat="30.252941" lon="-97.577463" changeset="false"><tag k="addr:street" v="Chamberlain Court"/><tag k="addr:housenumber" v="15204"/><tag k="coa:place_id" v="1120907"/></node><node id="-225" lat="30.255895" lon="-97.572618" changeset="false"><tag k="addr:street" v="JFK Drive"/><tag k="addr:housenumber" v="5811"/><tag k="coa:place_id" v="3099390"/></node><node id="-226" lat="30.252447" lon="-97.574994" changeset="false"><tag k="addr:street" v="JFK Drive"/><tag k="addr:housenumber" v="5509"/><tag k="coa:place_id" v="455440"/></node><node id="-227" lat="30.260474" lon="-97.57152" changeset="false"><tag k="addr:street" v="Jacqueline Lane"/><tag k="addr:housenumber" v="6300"/><tag k="coa:place_id" v="3099798"/></node><node id="-228" lat="30.26028" lon="-97.572749" changeset="false"><tag k="addr:street" v="Caroline Lane"/><tag k="addr:housenumber" v="6202"/><tag k="coa:place_id" v="3028987"/></node><node id="-229" lat="30.259558" lon="-97.573198" changeset="false"><tag k="addr:street" v="Caroline Lane"/><tag k="addr:housenumber" v="6106"/><tag k="coa:place_id" v="3109683"/></node><node id="-230" lat="30.255611" lon="-97.571575" changeset="false"><tag k="addr:street" v="Melody Lane"/><tag k="addr:housenumber" v="5901"/><tag k="coa:place_id" v="3099377"/></node><node id="-231" lat="30.255599" lon="-97.572795" changeset="false"><tag k="addr:street" v="JFK Drive"/><tag k="addr:housenumber" v="5807"/><tag k="coa:place_id" v="3099400"/></node><node id="-232" lat="30.25166" lon="-97.576106" changeset="false"><tag k="addr:street" v="Chamberlain Court"/><tag k="addr:housenumber" v="15309"/><tag k="coa:place_id" v="3099826"/></node><node id="-233" lat="30.251533" lon="-97.576865" changeset="false"><tag k="addr:street" v="Cadillac Drive"/><tag k="addr:housenumber" v="5401"/><tag k="coa:place_id" v="210558"/></node><node id="-234" lat="30.214377" lon="-97.571092" changeset="false"><tag k="addr:street" v="Dunlap Road North,1100"/><tag k="addr:housenumber" v="1257"/><tag k="coa:place_id" v="306776"/></node><node id="-235" lat="30.217608" lon="-97.494246" changeset="false"><tag k="addr:street" v="Post Oak Road"/><tag k="addr:housenumber" v="1903"/><tag k="coa:place_id" v="1129283"/></node><node id="-236" lat="30.225385" lon="-97.562228" changeset="false"><tag k="addr:street" v="Milo Road"/><tag k="addr:housenumber" v="15921"/><tag k="coa:place_id" v="91537"/></node><node id="-237" lat="30.254977" lon="-97.572683" changeset="false"><tag k="addr:street" v="Melody Lane"/><tag k="addr:housenumber" v="5800"/><tag k="coa:place_id" v="3099379"/></node><node id="-238" lat="30.25346" lon="-97.574243" changeset="false"><tag k="addr:street" v="JFK Drive"/><tag k="addr:housenumber" v="5605"/><tag k="coa:place_id" v="81347"/></node><node id="-239" lat="30.26094" lon="-97.571727" changeset="false"><tag k="addr:street" v="Caroline Lane"/><tag k="addr:housenumber" v="6303"/><tag k="coa:place_id" v="3099796"/></node><node id="-240" lat="30.258145" lon="-97.590501" changeset="false"><tag k="addr:street" v="Barteny Cove"/><tag k="addr:housenumber" v="13108"/><tag k="coa:place_id" v="3427176"/></node><node id="-241" lat="30.258441" lon="-97.589576" changeset="false"><tag k="addr:street" v="Breve Cove"/><tag k="addr:housenumber" v="13116"/><tag k="coa:place_id" v="3427211"/></node><node id="-242" lat="30.257182" lon="-97.589137" changeset="false"><tag k="addr:street" v="Barteny Cove"/><tag k="addr:housenumber" v="13308"/><tag k="coa:place_id" v="3427187"/></node><node id="-243" lat="30.257498" lon="-97.570953" changeset="false"><tag k="addr:street" v="Melody Lane"/><tag k="addr:housenumber" v="6010"/><tag k="coa:place_id" v="306410"/></node><node id="-244" lat="30.257051" lon="-97.573089" changeset="false"><tag k="addr:street" v="Jacqueline Lane"/><tag k="addr:housenumber" v="5907"/><tag k="coa:place_id" v="3365340"/></node><node id="-245" lat="30.228099" lon="-97.516773" changeset="false"><tag k="addr:street" v="Water Street"/><tag k="addr:housenumber" v="1100"/><tag k="coa:place_id" v="3282618"/></node><node id="-246" lat="30.257755" lon="-97.576492" changeset="false"><tag k="addr:street" v="Wideleaf Cove"/><tag k="addr:housenumber" v="15206"/><tag k="coa:place_id" v="3195195"/></node><node id="-247" lat="30.257541" lon="-97.577022" changeset="false"><tag k="addr:street" v="Wideleaf Cove"/><tag k="addr:housenumber" v="15203"/><tag k="coa:place_id" v="3195207"/></node><node id="-248" lat="30.257469" lon="-97.576879" changeset="false"><tag k="addr:street" v="Wideleaf Cove"/><tag k="addr:housenumber" v="15205"/><tag k="coa:place_id" v="3195208"/></node><node id="-249" lat="30.267007" lon="-97.566944" changeset="false"><tag k="addr:street" v="Decker Lake Road"/><tag k="addr:housenumber" v="15905"/><tag k="coa:place_id" v="3431172"/></node><node id="-250" lat="30.25706" lon="-97.589777" changeset="false"><tag k="addr:street" v="Barteny Cove"/><tag k="addr:housenumber" v="13217"/><tag k="coa:place_id" v="3427168"/></node><node id="-251" lat="30.258057" lon="-97.590418" changeset="false"><tag k="addr:street" v="Barteny Cove"/><tag k="addr:housenumber" v="13112"/><tag k="coa:place_id" v="3427177"/></node><node id="-252" lat="30.26737" lon="-97.567269" changeset="false"><tag k="addr:street" v="Decker Lake Road"/><tag k="addr:housenumber" v="15901"/><tag k="coa:place_id" v="3425800"/></node><node id="-253" lat="30.258614" lon="-97.590103" changeset="false"><tag k="addr:street" v="Breve Cove"/><tag k="addr:housenumber" v="13105"/><tag k="coa:place_id" v="3427193"/></node><node id="-254" lat="30.257415" lon="-97.589746" changeset="false"><tag k="addr:street" v="Barteny Cove"/><tag k="addr:housenumber" v="13212"/><tag k="coa:place_id" v="3427183"/></node><node id="-255" lat="30.258042" lon="-97.590838" changeset="false"><tag k="addr:street" v="Barteny Cove"/><tag k="addr:housenumber" v="13105"/><tag k="coa:place_id" v="3427159"/></node><node id="-256" lat="30.255178" lon="-97.571847" changeset="false"><tag k="addr:street" v="Melody Lane"/><tag k="addr:housenumber" v="5807"/><tag k="coa:place_id" v="81343"/></node><node id="-257" lat="30.24902" lon="-97.583272" changeset="false"><tag k="addr:street" v="Truman Oak Cove"/><tag k="addr:housenumber" v="14900"/><tag k="coa:place_id" v="3096123"/></node><node id="-258" lat="30.254623" lon="-97.572243" changeset="false"><tag k="addr:street" v="Melody Lane"/><tag k="addr:housenumber" v="5713"/><tag k="coa:place_id" v="81339"/></node><node id="-259" lat="30.252416" lon="-97.573539" changeset="false"><tag k="addr:street" v="Armstrong Avenue"/><tag k="addr:housenumber" v="15417"/><tag k="coa:place_id" v="1020129"/></node><node id="-260" lat="30.260733" lon="-97.572503" changeset="false"><tag k="addr:street" v="Caroline Lane"/><tag k="addr:housenumber" v="6208"/><tag k="coa:place_id" v="3099785"/></node><node id="-261" lat="30.249631" lon="-97.55515" changeset="false"><tag k="addr:street" v="Easybend Drive"/><tag k="addr:housenumber" v="16605"/><tag k="coa:place_id" v="326668"/></node><node id="-262" lat="30.25456" lon="-97.57461" changeset="false"><tag k="addr:street" v="Trumpet Drive"/><tag k="addr:housenumber" v="15419"/><tag k="coa:place_id" v="1162178"/></node><node id="-263" lat="30.256576" lon="-97.575183" changeset="false"><tag k="addr:street" v="Caroline Lane"/><tag k="addr:housenumber" v="5802"/><tag k="coa:place_id" v="81357"/></node><node id="-264" lat="30.259867" lon="-97.571911" changeset="false"><tag k="addr:street" v="Jacqueline Lane"/><tag k="addr:housenumber" v="6202"/><tag k="coa:place_id" v="122393"/></node><node id="-265" lat="30.259657" lon="-97.57261" changeset="false"><tag k="addr:street" v="Caroline Lane"/><tag k="addr:housenumber" v="6111"/><tag k="coa:place_id" v="216538"/></node><node id="-266" lat="30.259142" lon="-97.572351" changeset="false"><tag k="addr:street" v="Jacqueline Lane"/><tag k="addr:housenumber" v="6106"/><tag k="coa:place_id" v="3099770"/></node><node id="-267" lat="30.216496" lon="-97.500172" changeset="false"><tag k="addr:street" v="Sandra Lane"/><tag k="addr:housenumber" v="2203"/><tag k="coa:place_id" v="1129224"/></node><node id="-268" lat="30.216071" lon="-97.491895" changeset="false"><tag k="addr:street" v="Webberwood Drive"/><tag k="addr:housenumber" v="2202"/><tag k="coa:place_id" v="1129884"/></node><node id="-269" lat="30.219346" lon="-97.490246" changeset="false"><tag k="addr:street" v="Webberwood Drive"/><tag k="addr:housenumber" v="1800"/><tag k="coa:place_id" v="1129878"/></node><node id="-270" lat="30.256673" lon="-97.571559" changeset="false"><tag k="addr:street" v="Melody Lane"/><tag k="addr:housenumber" v="5910"/><tag k="coa:place_id" v="3099369"/></node><node id="-271" lat="30.255332" lon="-97.574198" changeset="false"><tag k="addr:street" v="Jacqueline Lane"/><tag k="addr:housenumber" v="5707"/><tag k="coa:place_id" v="400048"/></node><node id="-272" lat="30.265901" lon="-97.588088" changeset="false"><tag k="addr:street" v="Gilbert Road"/><tag k="addr:housenumber" v="6011"/><tag k="coa:place_id" v="204000"/></node><node id="-273" lat="30.247961" lon="-97.558065" changeset="false"><tag k="addr:street" v="Decker Creek Drive"/><tag k="addr:housenumber" v="16509"/><tag k="coa:place_id" v="206704"/></node><node id="-274" lat="30.257346" lon="-97.572876" changeset="false"><tag k="addr:street" v="Jacqueline Lane"/><tag k="addr:housenumber" v="5911"/><tag k="coa:place_id" v="3099807"/></node><node id="-275" lat="30.255284" lon="-97.573657" changeset="false"><tag k="addr:street" v="JFK Drive"/><tag k="addr:housenumber" v="5708"/><tag k="coa:place_id" v="3099402"/></node><node id="-276" lat="30.248596" lon="-97.582823" changeset="false"><tag k="addr:street" v="Truman Oak Cove"/><tag k="addr:housenumber" v="14913"/><tag k="coa:place_id" v="3096130"/></node><node id="-277" lat="30.245095" lon="-97.556497" changeset="false"><tag k="addr:street" v="Decker Creek Drive"/><tag k="addr:housenumber" v="16530"/><tag k="coa:place_id" v="56334"/></node><node id="-278" lat="30.257335" lon="-97.591518" changeset="false"><tag k="addr:street" v="Gilbert Road"/><tag k="addr:housenumber" v="5211"/><tag k="coa:place_id" v="111442"/></node><node id="-279" lat="30.256073" lon="-97.592202" changeset="false"><tag k="addr:street" v="Gilbert Road"/><tag k="addr:housenumber" v="5311"/><tag k="coa:place_id" v="112132"/></node><node id="-280" lat="30.258391" lon="-97.571561" changeset="false"><tag k="addr:street" v="JFK Drive"/><tag k="addr:housenumber" v="6102"/><tag k="coa:place_id" v="114137"/></node><node id="-281" lat="30.253791" lon="-97.574791" changeset="false"><tag k="addr:street" v="JFK Drive"/><tag k="addr:housenumber" v="5606"/><tag k="coa:place_id" v="3295635"/></node><node id="-282" lat="30.256719" lon="-97.575069" changeset="false"><tag k="addr:street" v="Caroline Lane"/><tag k="addr:housenumber" v="5804"/><tag k="coa:place_id" v="81358"/></node><node id="-283" lat="30.260787" lon="-97.571336" changeset="false"><tag k="addr:street" v="Jacqueline Lane"/><tag k="addr:housenumber" v="6304"/><tag k="coa:place_id" v="3099800"/></node><node id="-284" lat="30.255102" lon="-97.574877" changeset="false"><tag k="addr:street" v="Jacqueline Lane"/><tag k="addr:housenumber" v="5700"/><tag k="coa:place_id" v="210132"/></node><node id="-285" lat="30.252789" lon="-97.577117" changeset="false"><tag k="addr:street" v="Chamberlain Court"/><tag k="addr:housenumber" v="15208"/><tag k="coa:place_id" v="3045019"/></node><node id="-286" lat="30.251724" lon="-97.581363" changeset="false"><tag k="addr:street" v="Arizona Oak Lane"/><tag k="addr:housenumber" v="15100"/><tag k="coa:place_id" v="3096222"/></node><node id="-287" lat="30.260453" lon="-97.572682" changeset="false"><tag k="addr:street" v="Caroline Lane"/><tag k="addr:housenumber" v="6204"/><tag k="coa:place_id" v="3095595"/></node><node id="-288" lat="30.260224" lon="-97.572246" changeset="false"><tag k="addr:street" v="Caroline Lane"/><tag k="addr:housenumber" v="6205"/><tag k="coa:place_id" v="1114731"/></node><node id="-289" lat="30.259867" lon="-97.573044" changeset="false"><tag k="addr:street" v="Caroline Lane"/><tag k="addr:housenumber" v="6110"/><tag k="coa:place_id" v="146826"/></node><node id="-290" lat="30.257562" lon="-97.57336" changeset="false"><tag k="addr:street" v="Jacqueline Lane"/><tag k="addr:housenumber" v="5910"/><tag k="coa:place_id" v="3099774"/></node><node id="-291" lat="30.260158" lon="-97.562373" changeset="false"><tag k="addr:street" v="Decker Lake Road"/><tag k="addr:housenumber" v="16301"/><tag k="coa:place_id" v="810369"/></node><node id="-292" lat="30.249057" lon="-97.558611" changeset="false"><tag k="addr:street" v="Decker Creek Drive"/><tag k="addr:housenumber" v="16501"/><tag k="coa:place_id" v="77773"/></node><node id="-293" lat="30.260505" lon="-97.572027" changeset="false"><tag k="addr:street" v="Caroline Lane"/><tag k="addr:housenumber" v="6209"/><tag k="coa:place_id" v="3099790"/></node><node id="-294" lat="30.258498" lon="-97.573342" changeset="false"><tag k="addr:street" v="Caroline Lane"/><tag k="addr:housenumber" v="6007"/><tag k="coa:place_id" v="97534"/></node><node id="-295" lat="30.249234" lon="-97.552821" changeset="false"><tag k="addr:street" v="Easy Meadow Cove"/><tag k="addr:housenumber" v="6101"/><tag k="coa:place_id" v="339826"/></node><node id="-296" lat="30.217541" lon="-97.495279" changeset="false"><tag k="addr:street" v="Post Oak Road"/><tag k="addr:housenumber" v="2001"/><tag k="coa:place_id" v="1129280"/></node><node id="-297" lat="30.25124" lon="-97.576148" changeset="false"><tag k="addr:street" v="Cadillac Drive"/><tag k="addr:housenumber" v="5205"/><tag k="coa:place_id" v="566535"/></node><node id="-298" lat="30.252596" lon="-97.574043" changeset="false"><tag k="addr:street" v="Armstrong Avenue"/><tag k="addr:housenumber" v="15411"/><tag k="coa:place_id" v="133534"/></node><node id="-299" lat="30.254748" lon="-97.572151" changeset="false"><tag k="addr:street" v="Melody Lane"/><tag k="addr:housenumber" v="5801"/><tag k="coa:place_id" v="81340"/></node><node id="-300" lat="30.257333" lon="-97.578617" changeset="false"><tag k="addr:street" v="Bullace Street"/><tag k="addr:housenumber" v="15103"/><tag k="coa:place_id" v="3195244"/></node><node id="-301" lat="30.22724" lon="-97.516426" changeset="false"><tag k="addr:street" v="Water Street"/><tag k="addr:housenumber" v="1130"/><tag k="coa:place_id" v="3282621"/></node><node id="-302" lat="30.2261" lon="-97.515918" changeset="false"><tag k="addr:street" v="Water Street"/><tag k="addr:housenumber" v="1134"/><tag k="coa:place_id" v="3282622"/></node><node id="-303" lat="30.253478" lon="-97.581836" changeset="false"><tag k="addr:street" v="English Avenue"/><tag k="addr:housenumber" v="5420"/><tag k="coa:place_id" v="3096264"/></node><node id="-304" lat="30.253662" lon="-97.594818" changeset="false"><tag k="addr:street" v="Gilbert Road"/><tag k="addr:housenumber" v="4900"/><tag k="coa:place_id" v="506529"/></node><node id="-305" lat="30.253243" lon="-97.573754" changeset="false"><tag k="addr:street" v="Melody Lane"/><tag k="addr:housenumber" v="5604"/><tag k="coa:place_id" v="3099386"/></node><node id="-306" lat="30.257926" lon="-97.588538" changeset="false"><tag k="addr:street" v="Breve Cove"/><tag k="addr:housenumber" v="13312"/><tag k="coa:place_id" v="3427219"/></node><node id="-307" lat="30.256479" lon="-97.573408" changeset="false"><tag k="addr:street" v="Jacqueline Lane"/><tag k="addr:housenumber" v="5901"/><tag k="coa:place_id" v="3099810"/></node><node id="-308" lat="30.258561" lon="-97.589698" changeset="false"><tag k="addr:street" v="Breve Cove"/><tag k="addr:housenumber" v="13112"/><tag k="coa:place_id" v="3427210"/></node><node id="-309" lat="30.250848" lon="-97.577132" changeset="false"><tag k="addr:street" v="Cadillac Drive"/><tag k="addr:housenumber" v="5309"/><tag k="coa:place_id" v="3372458"/></node><node id="-310" lat="30.25681" lon="-97.572627" changeset="false"><tag k="addr:street" v="JFK Drive"/><tag k="addr:housenumber" v="5906"/><tag k="coa:place_id" v="3320621"/></node><node id="-311" lat="30.253443" lon="-97.572965" changeset="false"><tag k="addr:street" v="Melody Lane"/><tag k="addr:housenumber" v="5611"/><tag k="coa:place_id" v="81331"/></node><node id="-312" lat="30.255653" lon="-97.572154" changeset="false"><tag k="addr:street" v="Melody Lane"/><tag k="addr:housenumber" v="5810"/><tag k="coa:place_id" v="215178"/></node><node id="-313" lat="30.255542" lon="-97.573436" changeset="false"><tag k="addr:street" v="JFK Drive"/><tag k="addr:housenumber" v="5802"/><tag k="coa:place_id" v="240657"/></node><node id="-314" lat="30.254176" lon="-97.572522" changeset="false"><tag k="addr:street" v="Melody Lane"/><tag k="addr:housenumber" v="5707"/><tag k="coa:place_id" v="81336"/></node><node id="-315" lat="30.257747" lon="-97.589093" changeset="false"><tag k="addr:street" v="Breve Cove"/><tag k="addr:housenumber" v="13301"/><tag k="coa:place_id" v="3427202"/></node><node id="-316" lat="30.257498" lon="-97.588663" changeset="false"><tag k="addr:street" v="Breve Cove"/><tag k="addr:housenumber" v="13313"/><tag k="coa:place_id" v="3427205"/></node><node id="-317" lat="30.257246" lon="-97.590049" changeset="false"><tag k="addr:street" v="Barteny Cove"/><tag k="addr:housenumber" v="13209"/><tag k="coa:place_id" v="3427166"/></node><node id="-318" lat="30.25444" lon="-97.574272" changeset="false"><tag k="addr:street" v="Trumpet Drive"/><tag k="addr:housenumber" v="15423"/><tag k="coa:place_id" v="5064441"/></node><node id="-319" lat="30.258194" lon="-97.590943" changeset="false"><tag k="addr:street" v="Barteny Cove"/><tag k="addr:housenumber" v="13101"/><tag k="coa:place_id" v="3427158"/></node><node id="-320" lat="30.260162" lon="-97.571726" changeset="false"><tag k="addr:street" v="Jacqueline Lane"/><tag k="addr:housenumber" v="6206"/><tag k="coa:place_id" v="3099792"/></node><node id="-321" lat="30.251947" lon="-97.576779" changeset="false"><tag k="addr:street" v="Chamberlain Court"/><tag k="addr:housenumber" v="15301"/><tag k="coa:place_id" v="115529"/></node><node id="-322" lat="30.216474" lon="-97.490368" changeset="false"><tag k="addr:street" v="Webberwood Drive"/><tag k="addr:housenumber" v="2101"/><tag k="coa:place_id" v="1129722"/></node><node id="-323" lat="30.215929" lon="-97.501763" changeset="false"><tag k="addr:street" v="Sandra Lane"/><tag k="addr:housenumber" v="2300"/><tag k="coa:place_id" v="1129202"/></node><node id="-324" lat="30.252254" lon="-97.57597" changeset="false"><tag k="addr:street" v="Chamberlain Court"/><tag k="addr:housenumber" v="15306"/><tag k="coa:place_id" v="3098202"/></node><node id="-325" lat="30.255737" lon="-97.572693" changeset="false"><tag k="addr:street" v="JFK Drive"/><tag k="addr:housenumber" v="5809"/><tag k="coa:place_id" v="3099399"/></node><node id="-326" lat="30.22399" lon="-97.559387" changeset="false"><tag k="addr:street" v="Milo Road"/><tag k="addr:housenumber" v="16019"/><tag k="coa:place_id" v="306608"/></node><node id="-327" lat="30.227472" lon="-97.515833" changeset="false"><tag k="addr:street" v="Water Street"/><tag k="addr:housenumber" v="1123"/><tag k="coa:place_id" v="3282619"/></node><node id="-328" lat="30.257262" lon="-97.576491" changeset="false"><tag k="addr:street" v="Wideleaf Cove"/><tag k="addr:housenumber" v="15211"/><tag k="coa:place_id" v="3195211"/></node><node id="-329" lat="30.257507" lon="-97.589869" changeset="false"><tag k="addr:street" v="Barteny Cove"/><tag k="addr:housenumber" v="13208"/><tag k="coa:place_id" v="3427182"/></node><node id="-330" lat="30.260118" lon="-97.589355" changeset="false"><tag k="addr:street" v="Gilbert Road"/><tag k="addr:housenumber" v="5511"/><tag k="coa:place_id" v="257120"/></node><node id="-331" lat="30.258748" lon="-97.590214" changeset="false"><tag k="addr:street" v="Breve Cove"/><tag k="addr:housenumber" v="13101"/><tag k="coa:place_id" v="3427192"/></node><node id="-332" lat="30.258505" lon="-97.590007" changeset="false"><tag k="addr:street" v="Breve Cove"/><tag k="addr:housenumber" v="13109"/><tag k="coa:place_id" v="3427194"/></node><node id="-333" lat="30.25804" lon="-97.589587" changeset="false"><tag k="addr:street" v="Breve Cove"/><tag k="addr:housenumber" v="13205"/><tag k="coa:place_id" v="3427198"/></node><node id="-334" lat="30.246525" lon="-97.561273" changeset="false"><tag k="addr:street" v="Dunlap Road North,1100"/><tag k="addr:housenumber" v="5603"/><tag k="coa:place_id" v="3090386"/></node><node id="-335" lat="30.248125" lon="-97.560036" changeset="false"><tag k="addr:street" v="Dunlap Road North,1100"/><tag k="addr:housenumber" v="5707"/><tag k="coa:place_id" v="306572"/></node><node id="-336" lat="30.227985" lon="-97.567588" changeset="false"><tag k="addr:street" v="Milo Road"/><tag k="addr:housenumber" v="15817"/><tag k="coa:place_id" v="219471"/></node><node id="-337" lat="30.257728" lon="-97.590567" changeset="false"><tag k="addr:street" v="Barteny Cove"/><tag k="addr:housenumber" v="13117"/><tag k="coa:place_id" v="3427162"/></node><node id="-338" lat="30.256335" lon="-97.57166" changeset="false"><tag k="addr:street" v="Melody Lane"/><tag k="addr:housenumber" v="5906"/><tag k="coa:place_id" v="3315961"/></node><node id="-339" lat="30.256294" lon="-97.572281" changeset="false"><tag k="addr:street" v="JFK Drive"/><tag k="addr:housenumber" v="5905"/><tag k="coa:place_id" v="3365346"/></node><node id="-340" lat="30.256521" lon="-97.571664" changeset="false"><tag k="addr:street" v="Melody Lane"/><tag k="addr:housenumber" v="5908"/><tag k="coa:place_id" v="3099370"/></node><node id="-341" lat="30.258001" lon="-97.58885" changeset="false"><tag k="addr:street" v="Breve Cove"/><tag k="addr:housenumber" v="13300"/><tag k="coa:place_id" v="3427217"/></node><node id="-342" lat="30.216357" lon="-97.501026" changeset="false"><tag k="addr:street" v="Sandra Lane"/><tag k="addr:housenumber" v="2206"/><tag k="coa:place_id" v="5199108"/></node><node id="-343" lat="30.258201" lon="-97.589376" changeset="false"><tag k="addr:street" v="Breve Cove"/><tag k="addr:housenumber" v="13208"/><tag k="coa:place_id" v="3427214"/></node><node id="-344" lat="30.257126" lon="-97.58893" changeset="false"><tag k="addr:street" v="Barteny Cove"/><tag k="addr:housenumber" v="13312"/><tag k="coa:place_id" v="3427188"/></node><node id="-345" lat="30.230179" lon="-97.517788" changeset="false"><tag k="addr:street" v="Water Street"/><tag k="addr:housenumber" v="910"/><tag k="coa:place_id" v="3365653"/></node><node id="-346" lat="30.257652" lon="-97.577128" changeset="false"><tag k="addr:street" v="Wideleaf Cove"/><tag k="addr:housenumber" v="15201"/><tag k="coa:place_id" v="3195206"/></node><node id="-347" lat="30.257189" lon="-97.571185" changeset="false"><tag k="addr:street" v="Melody Lane"/><tag k="addr:housenumber" v="6006"/><tag k="coa:place_id" v="240900"/></node><node id="-348" lat="30.258763" lon="-97.591519" changeset="false"><tag k="addr:street" v="Gilbert Road"/><tag k="addr:housenumber" v="5412"/><tag k="coa:place_id" v="3389659"/></node><node id="-349" lat="30.270958" lon="-97.576853" changeset="false"><tag k="addr:street" v="Decker Lake Road"/><tag k="addr:housenumber" v="15311"/><tag k="coa:place_id" v="3324773"/></node><node id="-350" lat="30.258256" lon="-97.590587" changeset="false"><tag k="addr:street" v="Barteny Cove"/><tag k="addr:housenumber" v="13104"/><tag k="coa:place_id" v="3427175"/></node><node id="-351" lat="30.258274" lon="-97.589832" changeset="false"><tag k="addr:street" v="Breve Cove"/><tag k="addr:housenumber" v="13117"/><tag k="coa:place_id" v="3427196"/></node><node id="-352" lat="30.258781" lon="-97.589879" changeset="false"><tag k="addr:street" v="Breve Cove"/><tag k="addr:housenumber" v="13104"/><tag k="coa:place_id" v="3427208"/></node><node id="-353" lat="30.256919" lon="-97.589506" changeset="false"><tag k="addr:street" v="Barteny Cove"/><tag k="addr:housenumber" v="13305"/><tag k="coa:place_id" v="3427170"/></node><node id="-354" lat="30.25684" lon="-97.589369" changeset="false"><tag k="addr:street" v="Barteny Cove"/><tag k="addr:housenumber" v="13309"/><tag k="coa:place_id" v="3427171"/></node><node id="-355" lat="30.257614" lon="-97.590459" changeset="false"><tag k="addr:street" v="Barteny Cove"/><tag k="addr:housenumber" v="13121"/><tag k="coa:place_id" v="3427163"/></node><node id="-356" lat="30.251887" lon="-97.575524" changeset="false"><tag k="addr:street" v="JFK Drive"/><tag k="addr:housenumber" v="5501"/><tag k="coa:place_id" v="5080871"/></node><node id="-357" lat="30.259092" lon="-97.589775" changeset="false"><tag k="addr:street" v="Breve Cove"/><tag k="addr:housenumber" v="13100 1/2"/><tag k="coa:place_id" v="5121354"/></node><node id="-358" lat="30.255809" lon="-97.572074" changeset="false"><tag k="addr:street" v="Melody Lane"/><tag k="addr:housenumber" v="5900"/><tag k="coa:place_id" v="3098151"/></node><node id="-359" lat="30.253833" lon="-97.573406" changeset="false"><tag k="addr:street" v="Melody Lane"/><tag k="addr:housenumber" v="5612"/><tag k="coa:place_id" v="3099382"/></node><node id="-360" lat="30.256467" lon="-97.571021" changeset="false"><tag k="addr:street" v="Melody Lane"/><tag k="addr:housenumber" v="5913"/><tag k="coa:place_id" v="3099371"/></node><node id="-361" lat="30.228815" lon="-97.517124" changeset="false"><tag k="addr:street" v="Water Street"/><tag k="addr:housenumber" v="1004"/><tag k="coa:place_id" v="3282617"/></node><node id="-362" lat="30.254976" lon="-97.573842" changeset="false"><tag k="addr:street" v="JFK Drive"/><tag k="addr:housenumber" v="5704"/><tag k="coa:place_id" v="3099404"/></node><node id="-363" lat="30.257843" lon="-97.590227" changeset="false"><tag k="addr:street" v="Barteny Cove"/><tag k="addr:housenumber" v="13120"/><tag k="coa:place_id" v="3427179"/></node><node id="-364" lat="30.255118" lon="-97.575849" changeset="false"><tag k="addr:street" v="Trumpet Drive"/><tag k="addr:housenumber" v="15307"/><tag k="coa:place_id" v="5075594"/></node><node id="-365" lat="30.256584" lon="-97.572887" changeset="false"><tag k="addr:street" v="JFK Drive"/><tag k="addr:housenumber" v="5904"/><tag k="coa:place_id" v="3365344"/></node><node id="-366" lat="30.258739" lon="-97.570831" changeset="false"><tag k="addr:street" v="JFK Drive"/><tag k="addr:housenumber" v="6109"/><tag k="coa:place_id" v="3365348"/></node><node id="-367" lat="30.255685" lon="-97.574489" changeset="false"><tag k="addr:street" v="Jacqueline Lane"/><tag k="addr:housenumber" v="5708"/><tag k="coa:place_id" v="451768"/></node><node id="-368" lat="30.25556" lon="-97.575862" changeset="false"><tag k="addr:street" v="Caroline Lane"/><tag k="addr:housenumber" v="5700"/><tag k="coa:place_id" v="227345"/></node><node id="-369" lat="30.2566" lon="-97.574482" changeset="false"><tag k="addr:street" v="Caroline Lane"/><tag k="addr:housenumber" v="5807"/><tag k="coa:place_id" v="1111498"/></node><node id="-370" lat="30.257487" lon="-97.573982" changeset="false"><tag k="addr:street" v="Caroline Lane"/><tag k="addr:housenumber" v="5905"/><tag k="coa:place_id" v="3365341"/></node><node id="-371" lat="30.256152" lon="-97.571967" changeset="false"><tag k="addr:street" v="Melody Lane"/><tag k="addr:housenumber" v="5904"/><tag k="coa:place_id" v="3365347"/></node><node id="-372" lat="30.256041" lon="-97.573681" changeset="false"><tag k="addr:street" v="Jacqueline Lane"/><tag k="addr:housenumber" v="5805"/><tag k="coa:place_id" v="3099815"/></node><node id="-373" lat="30.258324" lon="-97.58948" changeset="false"><tag k="addr:street" v="Breve Cove"/><tag k="addr:housenumber" v="13200"/><tag k="coa:place_id" v="3427213"/></node><node id="-374" lat="30.258036" lon="-97.589102" changeset="false"><tag k="addr:street" v="Breve Cove"/><tag k="addr:housenumber" v="13216"/><tag k="coa:place_id" v="3427216"/></node><node id="-375" lat="30.257517" lon="-97.588856" changeset="false"><tag k="addr:street" v="Breve Cove"/><tag k="addr:housenumber" v="13309"/><tag k="coa:place_id" v="3427204"/></node><node id="-376" lat="30.257223" lon="-97.589331" changeset="false"><tag k="addr:street" v="Barteny Cove"/><tag k="addr:housenumber" v="13304"/><tag k="coa:place_id" v="3427186"/></node><node id="-377" lat="30.257954" lon="-97.589491" changeset="false"><tag k="addr:street" v="Breve Cove"/><tag k="addr:housenumber" v="13209"/><tag k="coa:place_id" v="3427199"/></node><node id="-378" lat="30.257872" lon="-97.589378" changeset="false"><tag k="addr:street" v="Breve Cove"/><tag k="addr:housenumber" v="13213"/><tag k="coa:place_id" v="3427200"/></node><node id="-379" lat="30.247242" lon="-97.561201" changeset="false"><tag k="addr:street" v="Dunlap Road North,1100"/><tag k="addr:housenumber" v="5617"/><tag k="coa:place_id" v="679347"/></node><node id="-380" lat="30.256999" lon="-97.573721" changeset="false"><tag k="addr:street" v="Jacqueline Lane"/><tag k="addr:housenumber" v="5904"/><tag k="coa:place_id" v="3365343"/></node><node id="-381" lat="30.254139" lon="-97.581117" changeset="false"><tag k="addr:street" v="Chamberlain Court"/><tag k="addr:housenumber" v="14901"/><tag k="coa:place_id" v="3122459"/></node><node id="-382" lat="30.254167" lon="-97.573742" changeset="false"><tag k="addr:street" v="JFK Drive"/><tag k="addr:housenumber" v="5615"/><tag k="coa:place_id" v="3099389"/></node><node id="-383" lat="30.253766" lon="-97.573997" changeset="false"><tag k="addr:street" v="JFK Drive"/><tag k="addr:housenumber" v="5609"/><tag k="coa:place_id" v="81346"/></node><node id="-384" lat="30.257643" lon="-97.558935" changeset="false"><tag k="addr:street" v="Decker Lake Road"/><tag k="addr:housenumber" v="16501"/><tag k="coa:place_id" v="3033457"/></node><node id="-385" lat="30.257148" lon="-97.589893" changeset="false"><tag k="addr:street" v="Barteny Cove"/><tag k="addr:housenumber" v="13213"/><tag k="coa:place_id" v="3427167"/></node><node id="-386" lat="30.257938" lon="-97.590748" changeset="false"><tag k="addr:street" v="Barteny Cove"/><tag k="addr:housenumber" v="13109"/><tag k="coa:place_id" v="3427160"/></node><node id="-387" lat="30.251109" lon="-97.576977" changeset="false"><tag k="addr:street" v="Cadillac Drive"/><tag k="addr:housenumber" v="5317"/><tag k="coa:place_id" v="3372459"/></node><node id="-388" lat="30.216131" lon="-97.493745" changeset="false"><tag k="addr:street" v="Park Lane"/><tag k="addr:housenumber" v="2209"/><tag k="coa:place_id" v="3360448"/></node><node id="-389" lat="30.257926" lon="-97.57256" changeset="false"><tag k="addr:street" v="Jacqueline Lane"/><tag k="addr:housenumber" v="6007"/><tag k="coa:place_id" v="785247"/></node><node id="-390" lat="30.25792" lon="-97.573712" changeset="false"><tag k="addr:street" v="Caroline Lane"/><tag k="addr:housenumber" v="5911"/><tag k="coa:place_id" v="175699"/></node><node id="-391" lat="30.249708" lon="-97.555648" changeset="false"><tag k="addr:street" v="Easybend Drive"/><tag k="addr:housenumber" v="16601"/><tag k="coa:place_id" v="316714"/></node><node id="-392" lat="30.227954" lon="-97.569611" changeset="false"><tag k="addr:street" v="Milo Road"/><tag k="addr:housenumber" v="15715"/><tag k="coa:place_id" v="963164"/></node><node id="-393" lat="30.253192" lon="-97.574483" changeset="false"><tag k="addr:street" v="JFK Drive"/><tag k="addr:housenumber" v="5601"/><tag k="coa:place_id" v="232840"/></node><node id="-394" lat="30.253892" lon="-97.572714" changeset="false"><tag k="addr:street" v="Melody Lane"/><tag k="addr:housenumber" v="5703"/><tag k="coa:place_id" v="81334"/></node><node id="-395" lat="30.254467" lon="-97.572361" changeset="false"><tag k="addr:street" v="Melody Lane"/><tag k="addr:housenumber" v="5711"/><tag k="coa:place_id" v="81338"/></node><node id="-396" lat="30.254674" lon="-97.573976" changeset="false"><tag k="addr:street" v="JFK Drive"/><tag k="addr:housenumber" v="5700"/><tag k="coa:place_id" v="966573"/></node><node id="-397" lat="30.219625" lon="-97.493643" changeset="false"><tag k="addr:street" v="Post Oak Road"/><tag k="addr:housenumber" v="1701"/><tag k="coa:place_id" v="1129289"/></node><node id="-398" lat="30.218123" lon="-97.493032" changeset="false"><tag k="addr:street" v="Park Lane"/><tag k="addr:housenumber" v="2106"/><tag k="coa:place_id" v="1128743"/></node><node id="-399" lat="30.257717" lon="-97.590109" changeset="false"><tag k="addr:street" v="Barteny Cove"/><tag k="addr:housenumber" v="13200"/><tag k="coa:place_id" v="3427180"/></node><node id="-400" lat="30.247306" lon="-97.554733" changeset="false"><tag k="addr:street" v="Twin Creek Meadows Drive"/><tag k="addr:housenumber" v="16604"/><tag k="coa:place_id" v="411046"/></node><node id="-401" lat="30.257941" lon="-97.573022" changeset="false"><tag k="addr:street" v="Jacqueline Lane"/><tag k="addr:housenumber" v="6004"/><tag k="coa:place_id" v="3093666"/></node><node id="-402" lat="30.263346" lon="-97.565919" changeset="false"><tag k="addr:street" v="Decker Lake Road"/><tag k="addr:housenumber" v="16007"/><tag k="coa:place_id" v="3103596"/></node><node id="-403" lat="30.256162" lon="-97.572389" changeset="false"><tag k="addr:street" v="JFK Drive"/><tag k="addr:housenumber" v="5903"/><tag k="coa:place_id" v="3099816"/></node><node id="-404" lat="30.253069" lon="-97.582028" changeset="false"><tag k="addr:street" v="English Avenue"/><tag k="addr:housenumber" v="5408"/><tag k="coa:place_id" v="3096261"/></node><node id="-405" lat="30.255891" lon="-97.571395" changeset="false"><tag k="addr:street" v="Melody Lane"/><tag k="addr:housenumber" v="5905"/><tag k="coa:place_id" v="3099375"/></node><node id="-406" lat="30.255758" lon="-97.571499" changeset="false"><tag k="addr:street" v="Melody Lane"/><tag k="addr:housenumber" v="5903"/><tag k="coa:place_id" v="3099376"/></node><node id="-407" lat="30.259732" lon="-97.572004" changeset="false"><tag k="addr:street" v="Jacqueline Lane"/><tag k="addr:housenumber" v="6200"/><tag k="coa:place_id" v="3099782"/></node><node id="-408" lat="30.216658" lon="-97.49219" changeset="false"><tag k="addr:street" v="Webberwood Drive"/><tag k="addr:housenumber" v="2200"/><tag k="coa:place_id" v="1129870"/></node><node id="-409" lat="30.261344" lon="-97.572125" changeset="false"><tag k="addr:street" v="Caroline Lane"/><tag k="addr:housenumber" v="6304"/><tag k="coa:place_id" v="3099789"/></node><node id="-410" lat="30.256626" lon="-97.570942" changeset="false"><tag k="addr:street" v="Melody Lane"/><tag k="addr:housenumber" v="6001"/><tag k="coa:place_id" v="3098152"/></node><node id="-411" lat="30.25616" lon="-97.575482" changeset="false"><tag k="addr:street" v="Caroline Lane"/><tag k="addr:housenumber" v="5708"/><tag k="coa:place_id" v="3099750"/></node><node id="-412" lat="30.255174" lon="-97.573082" changeset="false"><tag k="addr:street" v="JFK Drive"/><tag k="addr:housenumber" v="5711"/><tag k="coa:place_id" v="3098199"/></node><node id="-413" lat="30.255121" lon="-97.572566" changeset="false"><tag k="addr:street" v="Melody Lane"/><tag k="addr:housenumber" v="5802"/><tag k="coa:place_id" v="3099378"/></node><node id="-414" lat="30.252512" lon="-97.576809" changeset="false"><tag k="addr:street" v="Cadillac Drive"/><tag k="addr:housenumber" v="5410"/><tag k="coa:place_id" v="3109964"/></node><node id="-415" lat="30.247096" lon="-97.553939" changeset="false"><tag k="addr:street" v="Twin Creek Meadows Drive"/><tag k="addr:housenumber" v="16700"/><tag k="coa:place_id" v="204904"/></node><node id="-416" lat="30.245048" lon="-97.555752" changeset="false"><tag k="addr:street" v="Decker Creek Drive"/><tag k="addr:housenumber" v="16600"/><tag k="coa:place_id" v="355624"/></node><node id="-417" lat="30.256002" lon="-97.575574" changeset="false"><tag k="addr:street" v="Caroline Lane"/><tag k="addr:housenumber" v="5706"/><tag k="coa:place_id" v="3099749"/></node><node id="-418" lat="30.259139" lon="-97.571812" changeset="false"><tag k="addr:street" v="Jacqueline Lane"/><tag k="addr:housenumber" v="6109"/><tag k="coa:place_id" v="133968"/></node><node id="-419" lat="30.253675" lon="-97.573481" changeset="false"><tag k="addr:street" v="Melody Lane"/><tag k="addr:housenumber" v="5610"/><tag k="coa:place_id" v="3099383"/></node><node id="-420" lat="30.253447" lon="-97.575074" changeset="false"><tag k="addr:street" v="JFK Drive"/><tag k="addr:housenumber" v="5600"/><tag k="coa:place_id" v="219281"/></node><node id="-421" lat="30.25335" lon="-97.573618" changeset="false"><tag k="addr:street" v="Melody Lane"/><tag k="addr:housenumber" v="5606"/><tag k="coa:place_id" v="3086256"/></node><node id="-422" lat="30.257018" lon="-97.571909" changeset="false"><tag k="addr:street" v="JFK Drive"/><tag k="addr:housenumber" v="6001"/><tag k="coa:place_id" v="630531"/></node><node id="-423" lat="30.249161" lon="-97.582914" changeset="false"><tag k="addr:street" v="Truman Oak Cove"/><tag k="addr:housenumber" v="14908"/><tag k="coa:place_id" v="3096127"/></node><node id="-424" lat="30.244957" lon="-97.554966" changeset="false"><tag k="addr:street" v="Decker Creek Drive"/><tag k="addr:housenumber" v="16604"/><tag k="coa:place_id" v="158284"/></node><node id="-425" lat="30.267523" lon="-97.568473" changeset="false"><tag k="addr:street" v="Decker Lake Road"/><tag k="addr:housenumber" v="15847"/><tag k="coa:place_id" v="1161398"/></node><node id="-426" lat="30.256583" lon="-97.57402" changeset="false"><tag k="addr:street" v="Jacqueline Lane"/><tag k="addr:housenumber" v="5808"/><tag k="coa:place_id" v="3099755"/></node><node id="-427" lat="30.263625" lon="-97.590774" changeset="false"><tag k="addr:street" v="Gilbert Road"/><tag k="addr:housenumber" v="5808"/><tag k="coa:place_id" v="930471"/></node><node id="-428" lat="30.262708" lon="-97.591097" changeset="false"><tag k="addr:street" v="Gilbert Road"/><tag k="addr:housenumber" v="5710"/><tag k="coa:place_id" v="559725"/></node><node id="-429" lat="30.259704" lon="-97.573122" changeset="false"><tag k="addr:street" v="Caroline Lane"/><tag k="addr:housenumber" v="6108"/><tag k="coa:place_id" v="3048545"/></node><node id="-430" lat="30.251804" lon="-97.576424" changeset="false"><tag k="addr:street" v="Chamberlain Court"/><tag k="addr:housenumber" v="15305"/><tag k="coa:place_id" v="3099824"/></node><node id="-431" lat="30.252201" lon="-97.577218" changeset="false"><tag k="addr:street" v="Chamberlain Court"/><tag k="addr:housenumber" v="15211"/><tag k="coa:place_id" v="3099822"/></node><node id="-432" lat="30.252139" lon="-97.580371" changeset="false"><tag k="addr:street" v="Stave Oak Lane"/><tag k="addr:housenumber" v="15112"/><tag k="coa:place_id" v="3096252"/></node><node id="-433" lat="30.248674" lon="-97.583009" changeset="false"><tag k="addr:street" v="Truman Oak Cove"/><tag k="addr:housenumber" v="14909"/><tag k="coa:place_id" v="3096128"/></node><node id="-434" lat="30.248516" lon="-97.58276" changeset="false"><tag k="addr:street" v="Delta Post Drive"/><tag k="addr:housenumber" v="4916"/><tag k="coa:place_id" v="3147138"/></node><node id="-435" lat="30.257788" lon="-97.572653" changeset="false"><tag k="addr:street" v="Jacqueline Lane"/><tag k="addr:housenumber" v="6005"/><tag k="coa:place_id" v="306392"/></node><node id="-436" lat="30.257117" lon="-97.572432" changeset="false"><tag k="addr:street" v="JFK Drive"/><tag k="addr:housenumber" v="5910"/><tag k="coa:place_id" v="127601"/></node><node id="-437" lat="30.256794" lon="-97.574445" changeset="false"><tag k="addr:street" v="Caroline Lane"/><tag k="addr:housenumber" v="5809"/><tag k="coa:place_id" v="3099742"/></node><node id="-438" lat="30.25664" lon="-97.573321" changeset="false"><tag k="addr:street" v="Jacqueline Lane"/><tag k="addr:housenumber" v="5903"/><tag k="coa:place_id" v="146699"/></node><node id="-439" lat="30.25724" lon="-97.574169" changeset="false"><tag k="addr:street" v="Caroline Lane"/><tag k="addr:housenumber" v="5903"/><tag k="coa:place_id" v="307034"/></node><node id="-440" lat="30.250454" lon="-97.555927" changeset="false"><tag k="addr:street" v="Easybend Drive"/><tag k="addr:housenumber" v="16600"/><tag k="coa:place_id" v="235001"/></node><node id="-441" lat="30.260896" lon="-97.57243" changeset="false"><tag k="addr:street" v="Caroline Lane"/><tag k="addr:housenumber" v="6210"/><tag k="coa:place_id" v="3099786"/></node><node id="-442" lat="30.253105" lon="-97.573843" changeset="false"><tag k="addr:street" v="Melody Lane"/><tag k="addr:housenumber" v="5602"/><tag k="coa:place_id" v="3099387"/></node><node id="-443" lat="30.227824" lon="-97.567274" changeset="false"><tag k="addr:street" v="Milo Road"/><tag k="addr:housenumber" v="15821"/><tag k="coa:place_id" v="106683"/></node><node id="-444" lat="30.257405" lon="-97.590924" changeset="false"><tag k="addr:street" v="Gilbert Road"/><tag k="addr:housenumber" v="5313 1/2"/><tag k="coa:place_id" v="3100133"/></node><node id="-445" lat="30.258968" lon="-97.571255" changeset="false"><tag k="addr:street" v="JFK Drive"/><tag k="addr:housenumber" v="6110"/><tag k="coa:place_id" v="1117310"/></node><node id="-446" lat="30.228236" lon="-97.516314" changeset="false"><tag k="addr:street" v="Water Street"/><tag k="addr:housenumber" v="1101"/><tag k="coa:place_id" v="3198757"/></node><node id="-447" lat="30.253173" lon="-97.573198" changeset="false"><tag k="addr:street" v="Melody Lane"/><tag k="addr:housenumber" v="5607"/><tag k="coa:place_id" v="112774"/></node><node id="-448" lat="30.253007" lon="-97.576625" changeset="false"><tag k="addr:street" v="Cadillac Drive"/><tag k="addr:housenumber" v="5412"/><tag k="coa:place_id" v="584386"/></node><node id="-449" lat="30.250846" lon="-97.555309" changeset="false"><tag k="addr:street" v="Deep Meadow Cove"/><tag k="addr:housenumber" v="16609"/><tag k="coa:place_id" v="148847"/></node><node id="-450" lat="30.248535" lon="-97.579431" changeset="false"><tag k="addr:street" v="Cadillac Drive"/><tag k="addr:housenumber" v="5100"/><tag k="coa:place_id" v="306374"/></node><node id="-451" lat="30.24812" lon="-97.582741" changeset="false"><tag k="addr:street" v="Delta Post Drive"/><tag k="addr:housenumber" v="4911 1/2"/><tag k="coa:place_id" v="3098868"/></node><node id="-452" lat="30.254235" lon="-97.573127" changeset="false"><tag k="addr:street" v="Melody Lane"/><tag k="addr:housenumber" v="5704"/><tag k="coa:place_id" v="133572"/></node><node id="-453" lat="30.25418" lon="-97.574375" changeset="false"><tag k="addr:street" v="JFK Drive"/><tag k="addr:housenumber" v="5610"/><tag k="coa:place_id" v="125155"/></node><node id="-454" lat="30.253975" lon="-97.573318" changeset="false"><tag k="addr:street" v="Melody Lane"/><tag k="addr:housenumber" v="5700"/><tag k="coa:place_id" v="3113842"/></node><node id="-455" lat="30.258303" lon="-97.572923" changeset="false"><tag k="addr:street" v="Jacqueline Lane"/><tag k="addr:housenumber" v="6008"/><tag k="coa:place_id" v="251152"/></node><node id="-456" lat="30.257935" lon="-97.571841" changeset="false"><tag k="addr:street" v="JFK Drive"/><tag k="addr:housenumber" v="6010"/><tag k="coa:place_id" v="1120908"/></node><node id="-457" lat="30.257447" lon="-97.574641" changeset="false"><tag k="addr:street" v="Caroline Lane"/><tag k="addr:housenumber" v="5902"/><tag k="coa:place_id" v="3043180"/></node><node id="-458" lat="30.256145" lon="-97.574297" changeset="false"><tag k="addr:street" v="Jacqueline Lane"/><tag k="addr:housenumber" v="5802"/><tag k="coa:place_id" v="3099752"/></node><node id="-459" lat="30.256026" lon="-97.571315" changeset="false"><tag k="addr:street" v="Melody Lane"/><tag k="addr:housenumber" v="5907"/><tag k="coa:place_id" v="3099374"/></node><node id="-460" lat="30.256133" lon="-97.579841" changeset="false"><tag k="addr:street" v="Mimebark Way"/><tag k="addr:housenumber" v="15011"/><tag k="coa:place_id" v="3144489"/></node><node id="-461" lat="30.255872" lon="-97.57566" changeset="false"><tag k="addr:street" v="Caroline Lane"/><tag k="addr:housenumber" v="5704"/><tag k="coa:place_id" v="476577"/></node><node id="-462" lat="30.255733" lon="-97.575766" changeset="false"><tag k="addr:street" v="Caroline Lane"/><tag k="addr:housenumber" v="5702"/><tag k="coa:place_id" v="3099748"/></node><node id="-463" lat="30.252683" lon="-97.576962" changeset="false"><tag k="addr:street" v="Chamberlain Court"/><tag k="addr:housenumber" v="15212"/><tag k="coa:place_id" v="3049858"/></node><node id="-464" lat="30.254463" lon="-97.573554" changeset="false"><tag k="addr:street" v="JFK Drive"/><tag k="addr:housenumber" v="5701"/><tag k="coa:place_id" v="3099407"/></node><node id="-465" lat="30.26446" lon="-97.566019" changeset="false"><tag k="addr:street" v="Decker Lake Road"/><tag k="addr:housenumber" v="16001"/><tag k="coa:place_id" v="1162627"/></node><node id="-466" lat="30.257626" lon="-97.573889" changeset="false"><tag k="addr:street" v="Caroline Lane"/><tag k="addr:housenumber" v="5907"/><tag k="coa:place_id" v="3099773"/></node><node id="-467" lat="30.257064" lon="-97.571281" changeset="false"><tag k="addr:street" v="Melody Lane"/><tag k="addr:housenumber" v="6004"/><tag k="coa:place_id" v="1163472"/></node><node id="-468" lat="30.256763" lon="-97.573227" changeset="false"><tag k="addr:street" v="Jacqueline Lane"/><tag k="addr:housenumber" v="5905"/><tag k="coa:place_id" v="251080"/></node><node id="-469" lat="30.257391" lon="-97.573403" changeset="false"><tag k="addr:street" v="Jacqueline Lane"/><tag k="addr:housenumber" v="5908"/><tag k="coa:place_id" v="114425"/></node><node id="-470" lat="30.216803" lon="-97.491405" changeset="false"><tag k="addr:street" v="Webberwood Drive"/><tag k="addr:housenumber" v="2102"/><tag k="coa:place_id" v="1129692"/></node><node id="-471" lat="30.21662" lon="-97.493337" changeset="false"><tag k="addr:street" v="Park Lane"/><tag k="addr:housenumber" v="2205"/><tag k="coa:place_id" v="1128748"/></node><node id="-472" lat="30.25602" lon="-97.578406" changeset="false"><tag k="addr:street" v="Mimebark Way"/><tag k="addr:housenumber" v="15200"/><tag k="coa:place_id" v="3144595"/></node><node id="-473" lat="30.248824" lon="-97.583345" changeset="false"><tag k="addr:street" v="Truman Oak Cove"/><tag k="addr:housenumber" v="14901"/><tag k="coa:place_id" v="3096124"/></node><node id="-474" lat="30.250151" lon="-97.556669" changeset="false"><tag k="addr:street" v="Easybend Drive"/><tag k="addr:housenumber" v="16504"/><tag k="coa:place_id" v="88987"/></node><node id="-475" lat="30.248843" lon="-97.556217" changeset="false"><tag k="addr:street" v="Decker Creek Drive"/><tag k="addr:housenumber" v="16510"/><tag k="coa:place_id" v="160204"/></node><node id="-476" lat="30.227837" lon="-97.516018" changeset="false"><tag k="addr:street" v="Water Street"/><tag k="addr:housenumber" v="1113"/><tag k="coa:place_id" v="3198759"/></node><node id="-477" lat="30.247877" lon="-97.551845" changeset="false"><tag k="addr:street" v="Easybend Drive"/><tag k="addr:housenumber" v="16809"/><tag k="coa:place_id" v="56342"/></node><node id="-478" lat="30.219128" lon="-97.494294" changeset="false"><tag k="addr:street" v="Post Oak Road"/><tag k="addr:housenumber" v="1801"/><tag k="coa:place_id" v="1129287"/></node><node id="-479" lat="30.255422" lon="-97.572384" changeset="false"><tag k="addr:street" v="Melody Lane"/><tag k="addr:housenumber" v="5806"/><tag k="coa:place_id" v="1100509"/></node><node id="-480" lat="30.258912" lon="-97.574713" changeset="false"><tag k="addr:street" v="Wideleaf Drive"/><tag k="addr:housenumber" v="6104"/><tag k="coa:place_id" v="3144644"/></node><node id="-481" lat="30.258863" lon="-97.572571" changeset="false"><tag k="addr:street" v="Jacqueline Lane"/><tag k="addr:housenumber" v="6100"/><tag k="coa:place_id" v="3099768"/></node><node id="-482" lat="30.25854" lon="-97.571456" changeset="false"><tag k="addr:street" v="JFK Drive"/><tag k="addr:housenumber" v="6104"/><tag k="coa:place_id" v="649276"/></node><node id="-483" lat="30.25359" lon="-97.572871" changeset="false"><tag k="addr:street" v="Melody Lane"/><tag k="addr:housenumber" v="5613"/><tag k="coa:place_id" v="81332"/></node><node id="-484" lat="30.253592" lon="-97.574117" changeset="false"><tag k="addr:street" v="JFK Drive"/><tag k="addr:housenumber" v="5607"/><tag k="coa:place_id" v="901011"/></node><node id="-485" lat="30.245883" lon="-97.56152" changeset="false"><tag k="addr:street" v="Dunlap Road North,1100"/><tag k="addr:housenumber" v="5511"/><tag k="coa:place_id" v="815955"/></node><node id="-486" lat="30.25353" lon="-97.573556" changeset="false"><tag k="addr:street" v="Melody Lane"/><tag k="addr:housenumber" v="5608"/><tag k="coa:place_id" v="3099384"/></node><node id="-487" lat="30.252504" lon="-97.583131" changeset="false"><tag k="addr:street" v="Arizona Oak Lane"/><tag k="addr:housenumber" v="14905"/><tag k="coa:place_id" v="3096203"/></node><node id="-488" lat="30.258227" lon="-97.578058" changeset="false"><tag k="addr:street" v="Vasey Boulevard"/><tag k="addr:housenumber" v="6001"/><tag k="coa:place_id" v="3195270"/></node><node id="-489" lat="30.253071" lon="-97.575772" changeset="false"><tag k="addr:street" v="Cadillac Drive"/><tag k="addr:housenumber" v="5508"/><tag k="coa:place_id" v="3116027"/></node><node id="-490" lat="30.219457" lon="-97.494024" changeset="false"><tag k="addr:street" v="Post Oak Road"/><tag k="addr:housenumber" v="1703"/><tag k="coa:place_id" v="1129286"/></node><node id="-491" lat="30.230747" lon="-97.517464" changeset="false"><tag k="addr:street" v="Water Street"/><tag k="addr:housenumber" v="901"/><tag k="coa:place_id" v="3198737"/></node><node id="-492" lat="30.230067" lon="-97.517149" changeset="false"><tag k="addr:street" v="Water Street"/><tag k="addr:housenumber" v="913"/><tag k="coa:place_id" v="3198739"/></node><node id="-493" lat="30.217644" lon="-97.49015" changeset="false"><tag k="addr:street" v="Webberwood Drive"/><tag k="addr:housenumber" v="2001"/><tag k="coa:place_id" v="1129873"/></node><node id="-494" lat="30.254367" lon="-97.572963" changeset="false"><tag k="addr:street" v="Melody Lane"/><tag k="addr:housenumber" v="5706"/><tag k="coa:place_id" v="133571"/></node><node id="-495" lat="30.254312" lon="-97.573646" changeset="false"><tag k="addr:street" v="JFK Drive"/><tag k="addr:housenumber" v="5617"/><tag k="coa:place_id" v="3099388"/></node><node id="-496" lat="30.251292" lon="-97.576905" changeset="false"><tag k="addr:street" v="Cadillac Drive"/><tag k="addr:housenumber" v="5321"/><tag k="coa:place_id" v="3372460"/></node><node id="-497" lat="30.259602" lon="-97.572088" changeset="false"><tag k="addr:street" v="Jacqueline Lane"/><tag k="addr:housenumber" v="6112"/><tag k="coa:place_id" v="78340"/></node><node id="-498" lat="30.25943" lon="-97.573289" changeset="false"><tag k="addr:street" v="Caroline Lane"/><tag k="addr:housenumber" v="6104"/><tag k="coa:place_id" v="120119"/></node><node id="-499" lat="30.219665" lon="-97.488247" changeset="false"><tag k="addr:street" v="Webberwood Drive"/><tag k="addr:housenumber" v="1701"/><tag k="coa:place_id" v="1129879"/></node><node id="-500" lat="30.258776" lon="-97.57312" changeset="false"><tag k="addr:street" v="Caroline Lane"/><tag k="addr:housenumber" v="6011"/><tag k="coa:place_id" v="3099764"/></node><node id="-501" lat="30.258691" lon="-97.571428" changeset="false"><tag k="addr:street" v="JFK Drive"/><tag k="addr:housenumber" v="6106"/><tag k="coa:place_id" v="1117311"/></node><node id="-502" lat="30.252927" lon="-97.577672" changeset="false"><tag k="addr:street" v="Chamberlain Court"/><tag k="addr:housenumber" v="15202"/><tag k="coa:place_id" v="458416"/></node><node id="-503" lat="30.249545" lon="-97.554744" changeset="false"><tag k="addr:street" v="Easybend Drive"/><tag k="addr:housenumber" v="16701"/><tag k="coa:place_id" v="323860"/></node><node id="-504" lat="30.256871" lon="-97.574985" changeset="false"><tag k="addr:street" v="Caroline Lane"/><tag k="addr:housenumber" v="5806"/><tag k="coa:place_id" v="81359"/></node><node id="-505" lat="30.255156" lon="-97.576003" changeset="false"><tag k="addr:street" v="Trumpet Drive"/><tag k="addr:housenumber" v="15305"/><tag k="coa:place_id" v="3219362"/></node><node id="-506" lat="30.255672" lon="-97.573379" changeset="false"><tag k="addr:street" v="JFK Drive"/><tag k="addr:housenumber" v="5804"/><tag k="coa:place_id" v="150127"/></node><node id="-507" lat="30.256158" lon="-97.571195" changeset="false"><tag k="addr:street" v="Melody Lane"/><tag k="addr:housenumber" v="5909"/><tag k="coa:place_id" v="3099373"/></node><node id="-508" lat="30.256102" lon="-97.573042" changeset="false"><tag k="addr:street" v="JFK Drive"/><tag k="addr:housenumber" v="5810"/><tag k="coa:place_id" v="140880"/></node><node id="-509" lat="30.258019" lon="-97.570006" changeset="false"><tag k="addr:street" v="Melody Lane"/><tag k="addr:housenumber" v="6107"/><tag k="coa:place_id" v="642640"/></node><node id="-510" lat="30.256419" lon="-97.572947" changeset="false"><tag k="addr:street" v="JFK Drive"/><tag k="addr:housenumber" v="5902"/><tag k="coa:place_id" v="3099817"/></node><node id="-511" lat="30.24594" lon="-97.553402" changeset="false"><tag k="addr:street" v="Twin Creek Meadows Drive"/><tag k="addr:housenumber" v="16705"/><tag k="coa:place_id" v="324058"/></node><node id="-512" lat="30.257073" lon="-97.574254" changeset="false"><tag k="addr:street" v="Caroline Lane"/><tag k="addr:housenumber" v="5901"/><tag k="coa:place_id" v="553114"/></node><node id="-513" lat="30.25694" lon="-97.574348" changeset="false"><tag k="addr:street" v="Caroline Lane"/><tag k="addr:housenumber" v="5811"/><tag k="coa:place_id" v="637714"/></node></osm>