<?xml version="1.0" encoding="UTF-8"?><osm version="0.6" generator="github.com/aaronlidman/osm-and-geojson"><node id="-1" lat="30.279499" lon="-97.809801" changeset="false"><tag k="addr:street" v="Bee Caves Road"/><tag k="addr:housenumber" v="3823"/></node><node id="-2" lat="30.295203" lon="-97.825087" changeset="false"><tag k="addr:street" v="Bee Caves Road"/><tag k="addr:housenumber" v="5706"/></node><node id="-3" lat="30.281808" lon="-97.811042" changeset="false"><tag k="addr:street" v="Camp Craft Road"/><tag k="addr:housenumber" v="200"/></node><node id="-4" lat="30.287487" lon="-97.808188" changeset="false"><tag k="addr:street" v="Westhaven Drive"/><tag k="addr:housenumber" v="310"/></node><node id="-5" lat="30.287994" lon="-97.818884" changeset="false"><tag k="addr:street" v="Briarwood Trail,1100"/><tag k="addr:housenumber" v="107"/></node><node id="-6" lat="30.287788" lon="-97.818304" changeset="false"><tag k="addr:street" v="Briarwood Trail,1100"/><tag k="addr:housenumber" v="109"/></node><node id="-7" lat="30.279728" lon="-97.818952" changeset="false"><tag k="addr:street" v="Capital of Texas Highway"/><tag k="addr:housenumber" v="1301"/></node><node id="-8" lat="30.282225" lon="-97.807369" changeset="false"><tag k="addr:street" v="Westlake Drive"/><tag k="addr:housenumber" v="101"/></node><node id="-9" lat="30.274903" lon="-97.812409" changeset="false"><tag k="addr:street" v="Westbank Drive"/><tag k="addr:housenumber" v="3652"/></node><node id="-10" lat="30.294784" lon="-97.824763" changeset="false"><tag k="addr:street" v="Bee Caves Road"/><tag k="addr:housenumber" v="5628"/></node><node id="-11" lat="30.279002" lon="-97.814331" changeset="false"><tag k="addr:street" v="Konstanty Circle"/><tag k="addr:housenumber" v="500"/></node><node id="-12" lat="30.283156" lon="-97.816038" changeset="false"><tag k="addr:street" v="Eanes School Road"/><tag k="addr:housenumber" v="316"/></node><node id="-13" lat="30.283901" lon="-97.807367" changeset="false"><tag k="addr:street" v="Westlake Drive"/><tag k="addr:housenumber" v="210"/></node><node id="-14" lat="30.283932" lon="-97.820826" changeset="false"><tag k="addr:street" v="Eanes School Road"/><tag k="addr:housenumber" v="334"/></node><node id="-15" lat="30.281695" lon="-97.814265" changeset="false"><tag k="addr:street" v="Eanes School Road"/><tag k="addr:housenumber" v="303"/></node><node id="-16" lat="30.29061" lon="-97.799917" changeset="false"><tag k="addr:street" v="Westlake Drive"/><tag k="addr:housenumber" v="905"/></node><node id="-17" lat="30.286733" lon="-97.803141" changeset="false"><tag k="addr:street" v="Rocky River Road"/><tag k="addr:housenumber" v="510"/></node><node id="-18" lat="30.28246" lon="-97.817869" changeset="false"><tag k="addr:street" v="Eanes School Road"/><tag k="addr:housenumber" v="319"/></node><node id="-19" lat="30.290278" lon="-97.800196" changeset="false"><tag k="addr:street" v="Westlake Drive"/><tag k="addr:housenumber" v="907"/></node><node id="-20" lat="30.281613" lon="-97.81537" changeset="false"><tag k="addr:street" v="Eanes School Road"/><tag k="addr:housenumber" v="307"/></node><node id="-21" lat="30.287351" lon="-97.80451" changeset="false"><tag k="addr:street" v="Westlake Drive"/><tag k="addr:housenumber" v="503"/></node><node id="-22" lat="30.288308" lon="-97.821703" changeset="false"><tag k="addr:street" v="Sundown Parkway"/><tag k="addr:housenumber" v="7"/></node><node id="-23" lat="30.29508" lon="-97.826698" changeset="false"><tag k="addr:street" v="Bee Caves Road"/><tag k="addr:housenumber" v="5735"/></node><node id="-24" lat="30.292991" lon="-97.82303" changeset="false"><tag k="addr:street" v="Bee Caves Road"/><tag k="addr:housenumber" v="5501"/></node><node id="-25" lat="30.29655" lon="-97.822657" changeset="false"><tag k="addr:street" v="Flintridge Road"/><tag k="addr:housenumber" v="1409"/></node><node id="-26" lat="30.298288" lon="-97.82687" changeset="false"><tag k="addr:street" v="Flintridge Road"/><tag k="addr:housenumber" v="1703"/></node><node id="-27" lat="30.297492" lon="-97.824948" changeset="false"><tag k="addr:street" v="Flintridge Road"/><tag k="addr:housenumber" v="1509"/></node><node id="-28" lat="30.295829" lon="-97.826692" changeset="false"><tag k="addr:street" v="Bee Caves Road"/><tag k="addr:housenumber" v="5806"/></node><node id="-29" lat="30.285399" lon="-97.810537" changeset="false"><tag k="addr:street" v="Mc Connell Drive"/><tag k="addr:housenumber" v="201"/></node><node id="-30" lat="30.285807" lon="-97.804236" changeset="false"><tag k="addr:street" v="Rocky River Road"/><tag k="addr:housenumber" v="472"/></node><node id="-31" lat="30.276765" lon="-97.810059" changeset="false"><tag k="addr:street" v="Westbank Drive"/><tag k="addr:housenumber" v="1100"/></node><node id="-32" lat="30.296198" lon="-97.826868" changeset="false"><tag k="addr:street" v="Bee Caves Road"/><tag k="addr:housenumber" v="5904"/></node><node id="-33" lat="30.284169" lon="-97.817664" changeset="false"><tag k="addr:street" v="Graciosa Cove"/><tag k="addr:housenumber" v="405"/></node><node id="-34" lat="30.287883" lon="-97.823845" changeset="false"><tag k="addr:street" v="Sundown Parkway"/><tag k="addr:housenumber" v="16"/></node><node id="-35" lat="30.287953" lon="-97.799033" changeset="false"><tag k="addr:street" v="Rocky River Road"/><tag k="addr:housenumber" v="800"/></node><node id="-36" lat="30.28723" lon="-97.8027" changeset="false"><tag k="addr:street" v="Rocky River Road"/><tag k="addr:housenumber" v="604"/></node><node id="-37" lat="30.284642" lon="-97.82032" changeset="false"><tag k="addr:street" v="Sundown Parkway"/><tag k="addr:housenumber" v="42"/></node><node id="-38" lat="30.289595" lon="-97.819708" changeset="false"><tag k="addr:street" v="Sundown Parkway"/><tag k="addr:housenumber" v="101"/></node><node id="-39" lat="30.294577" lon="-97.824329" changeset="false"><tag k="addr:street" v="Bee Caves Road"/><tag k="addr:housenumber" v="5600"/></node><node id="-40" lat="30.284349" lon="-97.807098" changeset="false"><tag k="addr:street" v="Westlake Drive"/><tag k="addr:housenumber" v="302"/></node><node id="-41" lat="30.284537" lon="-97.814966" changeset="false"><tag k="addr:street" v="Hillside Court"/><tag k="addr:housenumber" v="6"/></node><node id="-42" lat="30.291908" lon="-97.798867" changeset="false"><tag k="addr:street" v="Westlake Drive"/><tag k="addr:housenumber" v="909"/></node><node id="-43" lat="30.28385" lon="-97.8173" changeset="false"><tag k="addr:street" v="Graciosa Cove"/><tag k="addr:housenumber" v="403"/></node><node id="-44" lat="30.286376" lon="-97.80525" changeset="false"><tag k="addr:street" v="Westlake Drive"/><tag k="addr:housenumber" v="403"/></node><node id="-45" lat="30.293927" lon="-97.823552" changeset="false"><tag k="addr:street" v="Bee Caves Road"/><tag k="addr:housenumber" v="5520"/></node><node id="-46" lat="30.286621" lon="-97.805123" changeset="false"><tag k="addr:street" v="Westlake Drive"/><tag k="addr:housenumber" v="405"/></node><node id="-47" lat="30.277261" lon="-97.809722" changeset="false"><tag k="addr:street" v="Westbank Drive"/><tag k="addr:housenumber" v="1000"/></node><node id="-48" lat="30.283359" lon="-97.816801" changeset="false"><tag k="addr:street" v="Hillside Court"/><tag k="addr:housenumber" v="1"/></node><node id="-49" lat="30.286753" lon="-97.824308" changeset="false"><tag k="addr:street" v="Sundown Parkway"/><tag k="addr:housenumber" v="22"/></node><node id="-50" lat="30.284063" lon="-97.815332" changeset="false"><tag k="addr:street" v="Hillside Court"/><tag k="addr:housenumber" v="5"/></node><node id="-51" lat="30.283575" lon="-97.807438" changeset="false"><tag k="addr:street" v="Westlake Drive"/><tag k="addr:housenumber" v="200"/></node><node id="-52" lat="30.290208" lon="-97.820126" changeset="false"><tag k="addr:street" v="Bee Caves Road"/><tag k="addr:housenumber" v="5121"/></node><node id="-53" lat="30.292147" lon="-97.827981" changeset="false"><tag k="addr:street" v="Capital of Texas Highway"/><tag k="addr:housenumber" v="701 1/2"/></node><node id="-54" lat="30.276395" lon="-97.810292" changeset="false"><tag k="addr:street" v="Westbank Drive"/><tag k="addr:housenumber" v="1110"/></node><node id="-55" lat="30.289067" lon="-97.826098" changeset="false"><tag k="addr:street" v="Capital of Texas Highway"/><tag k="addr:housenumber" v="903"/></node><node id="-56" lat="30.281441" lon="-97.810781" changeset="false"><tag k="addr:street" v="Camp Craft Road"/><tag k="addr:housenumber" v="201"/></node><node id="-57" lat="30.28372" lon="-97.820401" changeset="false"><tag k="addr:street" v="Eanes School Road"/><tag k="addr:housenumber" v="332"/></node><node id="-58" lat="30.281258" lon="-97.809007" changeset="false"><tag k="addr:street" v="Bee Caves Road"/><tag k="addr:housenumber" v="3901"/></node><node id="-59" lat="30.285262" lon="-97.80482" changeset="false"><tag k="addr:street" v="Reveille Road"/><tag k="addr:housenumber" v="314"/></node><node id="-60" lat="30.287757" lon="-97.803745" changeset="false"><tag k="addr:street" v="Westlake Drive"/><tag k="addr:housenumber" v="603"/></node><node id="-61" lat="30.286437" lon="-97.8243" changeset="false"><tag k="addr:street" v="Sundown Parkway"/><tag k="addr:housenumber" v="24"/></node><node id="-62" lat="30.288015" lon="-97.817538" changeset="false"><tag k="addr:street" v="Briarwood Trail,1100"/><tag k="addr:housenumber" v="106"/></node><node id="-63" lat="30.279742" lon="-97.809168" changeset="false"><tag k="addr:street" v="Bee Caves Road"/><tag k="addr:housenumber" v="3813"/></node><node id="-64" lat="30.285733" lon="-97.812967" changeset="false"><tag k="addr:street" v="Bee Caves Road"/><tag k="addr:housenumber" v="4405"/></node><node id="-65" lat="30.287487" lon="-97.804292" changeset="false"><tag k="addr:street" v="Westlake Drive"/><tag k="addr:housenumber" v="505"/></node><node id="-66" lat="30.282051" lon="-97.810052" changeset="false"><tag k="addr:street" v="Bee Caves Road"/><tag k="addr:housenumber" v="4015"/></node><node id="-67" lat="30.291179" lon="-97.799582" changeset="false"><tag k="addr:street" v="Westlake Drive"/><tag k="addr:housenumber" v="911"/></node><node id="-68" lat="30.283201" lon="-97.807655" changeset="false"><tag k="addr:street" v="Westlake Drive"/><tag k="addr:housenumber" v="202"/></node><node id="-69" lat="30.28482" lon="-97.816062" changeset="false"><tag k="addr:street" v="Hillside Court"/><tag k="addr:housenumber" v="12"/></node><node id="-70" lat="30.290706" lon="-97.800702" changeset="false"><tag k="addr:street" v="Westlake Drive"/><tag k="addr:housenumber" v="903"/></node><node id="-71" lat="30.278182" lon="-97.809151" changeset="false"><tag k="addr:street" v="Westbank Drive"/><tag k="addr:housenumber" v="950"/></node><node id="-72" lat="30.286621" lon="-97.808644" changeset="false"><tag k="addr:street" v="Westhaven Drive"/><tag k="addr:housenumber" v="304"/></node><node id="-73" lat="30.282659" lon="-97.815533" changeset="false"><tag k="addr:street" v="Eanes School Road"/><tag k="addr:housenumber" v="312"/></node><node id="-74" lat="30.296728" lon="-97.821955" changeset="false"><tag k="addr:street" v="Flintridge Road"/><tag k="addr:housenumber" v="1407"/></node><node id="-75" lat="30.286724" lon="-97.825512" changeset="false"><tag k="addr:street" v="Capital of Texas Highway"/><tag k="addr:housenumber" v="1001"/></node><node id="-76" lat="30.284983" lon="-97.815406" changeset="false"><tag k="addr:street" v="Hillside Court"/><tag k="addr:housenumber" v="9"/></node><node id="-77" lat="30.287718" lon="-97.816452" changeset="false"><tag k="addr:street" v="Bee Caves Road"/><tag k="addr:housenumber" v="4701"/></node><node id="-78" lat="30.281388" lon="-97.809669" changeset="false"><tag k="addr:street" v="Bee Caves Road"/><tag k="addr:housenumber" v="3939"/></node><node id="-79" lat="30.284437" lon="-97.810987" changeset="false"><tag k="addr:street" v="Mc Connell Drive"/><tag k="addr:housenumber" v="103"/></node><node id="-80" lat="30.284136" lon="-97.81132" changeset="false"><tag k="addr:street" v="Mc Connell Drive"/><tag k="addr:housenumber" v="101"/></node><node id="-81" lat="30.285256" lon="-97.809854" changeset="false"><tag k="addr:street" v="Westhaven Drive"/><tag k="addr:housenumber" v="204"/></node><node id="-82" lat="30.27558" lon="-97.812378" changeset="false"><tag k="addr:street" v="Westbank Drive"/><tag k="addr:housenumber" v="3800"/></node><node id="-83" lat="30.289741" lon="-97.820309" changeset="false"><tag k="addr:street" v="Sundown Parkway"/><tag k="addr:housenumber" v="105 1/2"/></node><node id="-84" lat="30.287081" lon="-97.824191" changeset="false"><tag k="addr:street" v="Sundown Parkway"/><tag k="addr:housenumber" v="20"/></node><node id="-85" lat="30.28348" lon="-97.819951" changeset="false"><tag k="addr:street" v="Eanes School Road"/><tag k="addr:housenumber" v="330"/></node><node id="-86" lat="30.284239" lon="-97.815883" changeset="false"><tag k="addr:street" v="Hillside Court"/><tag k="addr:housenumber" v="4"/></node><node id="-87" lat="30.281982" lon="-97.816216" changeset="false"><tag k="addr:street" v="Eanes School Road"/><tag k="addr:housenumber" v="311"/></node><node id="-88" lat="30.28481" lon="-97.818891" changeset="false"><tag k="addr:street" v="Sundown Parkway"/><tag k="addr:housenumber" v="51"/></node><node id="-89" lat="30.29549" lon="-97.825834" changeset="false"><tag k="addr:street" v="Bee Caves Road"/><tag k="addr:housenumber" v="5720"/></node><node id="-90" lat="30.292172" lon="-97.822107" changeset="false"><tag k="addr:street" v="Bee Caves Road"/><tag k="addr:housenumber" v="5401"/></node><node id="-91" lat="30.27879" lon="-97.814884" changeset="false"><tag k="addr:street" v="Konstanty Circle"/><tag k="addr:housenumber" v="503"/></node><node id="-92" lat="30.284621" lon="-97.809979" changeset="false"><tag k="addr:street" v="Westhaven Drive"/><tag k="addr:housenumber" v="108"/></node><node id="-93" lat="30.284611" lon="-97.817318" changeset="false"><tag k="addr:street" v="Graciosa Cove"/><tag k="addr:housenumber" v="406"/></node><node id="-94" lat="30.288148" lon="-97.823516" changeset="false"><tag k="addr:street" v="Sundown Parkway"/><tag k="addr:housenumber" v="14"/></node><node id="-95" lat="30.287695" lon="-97.826327" changeset="false"><tag k="addr:street" v="Capital of Texas Highway"/><tag k="addr:housenumber" v="925"/></node><node id="-96" lat="30.297381" lon="-97.824483" changeset="false"><tag k="addr:street" v="Flintridge Road"/><tag k="addr:housenumber" v="1507"/></node><node id="-97" lat="30.287166" lon="-97.815774" changeset="false"><tag k="addr:street" v="Bee Caves Road"/><tag k="addr:housenumber" v="4615"/></node><node id="-98" lat="30.286839" lon="-97.805058" changeset="false"><tag k="addr:street" v="Westlake Drive"/><tag k="addr:housenumber" v="407"/></node><node id="-99" lat="30.288302" lon="-97.798612" changeset="false"><tag k="addr:street" v="Rocky River Road"/><tag k="addr:housenumber" v="810"/></node><node id="-100" lat="30.286399" lon="-97.818742" changeset="false"><tag k="addr:street" v="Sundown Parkway"/><tag k="addr:housenumber" v="58"/></node><node id="-101" lat="30.288891" lon="-97.826887" changeset="false"><tag k="addr:street" v="Capital of Texas Highway"/><tag k="addr:housenumber" v="901"/></node><node id="-102" lat="30.296227" lon="-97.821287" changeset="false"><tag k="addr:street" v="Redbud Trail"/><tag k="addr:housenumber" v="1430"/></node><node id="-103" lat="30.294976" lon="-97.824434" changeset="false"><tag k="addr:street" v="Bee Caves Road"/><tag k="addr:housenumber" v="5656"/></node><node id="-104" lat="30.284415" lon="-97.81689" changeset="false"><tag k="addr:street" v="Graciosa Cove"/><tag k="addr:housenumber" v="404"/></node><node id="-105" lat="30.283707" lon="-97.815974" changeset="false"><tag k="addr:street" v="Hillside Court"/><tag k="addr:housenumber" v="3"/></node><node id="-106" lat="30.282342" lon="-97.817042" changeset="false"><tag k="addr:street" v="Eanes School Road"/><tag k="addr:housenumber" v="315"/></node><node id="-107" lat="30.28525" lon="-97.821848" changeset="false"><tag k="addr:street" v="Sundown Parkway"/><tag k="addr:housenumber" v="35"/></node><node id="-108" lat="30.284601" lon="-97.808141" changeset="false"><tag k="addr:street" v="Westlake Drive"/><tag k="addr:housenumber" v="300"/></node><node id="-109" lat="30.280617" lon="-97.81562" changeset="false"><tag k="addr:street" v="Konstanty Circle"/><tag k="addr:housenumber" v="506"/></node><node id="-110" lat="30.28721" lon="-97.804729" changeset="false"><tag k="addr:street" v="Westlake Drive"/><tag k="addr:housenumber" v="501"/></node><node id="-111" lat="30.288653" lon="-97.818268" changeset="false"><tag k="addr:street" v="Briarwood Trail,1100"/><tag k="addr:housenumber" v="102"/></node><node id="-112" lat="30.279989" lon="-97.816381" changeset="false"><tag k="addr:street" v="Konstanty Circle"/><tag k="addr:housenumber" v="510"/></node><node id="-113" lat="30.290014" lon="-97.801055" changeset="false"><tag k="addr:street" v="Westlake Drive"/><tag k="addr:housenumber" v="803"/></node><node id="-114" lat="30.288102" lon="-97.803265" changeset="false"><tag k="addr:street" v="Westlake Drive"/><tag k="addr:housenumber" v="607"/></node><node id="-115" lat="30.280842" lon="-97.811885" changeset="false"><tag k="addr:street" v="Eanes School Road"/><tag k="addr:housenumber" v="204"/></node><node id="-116" lat="30.288706" lon="-97.798295" changeset="false"><tag k="addr:street" v="Rocky River Road"/><tag k="addr:housenumber" v="812"/></node><node id="-117" lat="30.286147" lon="-97.805506" changeset="false"><tag k="addr:street" v="Rocky River Road"/><tag k="addr:housenumber" v="444"/></node><node id="-118" lat="30.279834" lon="-97.807801" changeset="false"><tag k="addr:street" v="Westbank Drive"/><tag k="addr:housenumber" v="906"/></node><node id="-119" lat="30.285988" lon="-97.813333" changeset="false"><tag k="addr:street" v="Bee Caves Road"/><tag k="addr:housenumber" v="4407"/></node><node id="-120" lat="30.292385" lon="-97.8223" changeset="false"><tag k="addr:street" v="Bee Caves Road"/><tag k="addr:housenumber" v="5403"/></node><node id="-121" lat="30.287003" lon="-97.80483" changeset="false"><tag k="addr:street" v="Westlake Drive"/><tag k="addr:housenumber" v="409"/></node><node id="-122" lat="30.283237" lon="-97.816407" changeset="false"><tag k="addr:street" v="Hillside Court"/><tag k="addr:housenumber" v="2"/></node><node id="-123" lat="30.291768" lon="-97.798637" changeset="false"><tag k="addr:street" v="Westlake Drive"/><tag k="addr:housenumber" v="1011"/></node><node id="-124" lat="30.289603" lon="-97.819078" changeset="false"><tag k="addr:street" v="Bee Caves Road"/><tag k="addr:housenumber" v="5017"/></node><node id="-125" lat="30.287653" lon="-97.804037" changeset="false"><tag k="addr:street" v="Westlake Drive"/><tag k="addr:housenumber" v="601"/></node><node id="-126" lat="30.285071" lon="-97.80895" changeset="false"><tag k="addr:street" v="Westhaven Drive"/><tag k="addr:housenumber" v="205"/></node><node id="-127" lat="30.285102" lon="-97.808866" changeset="false"><tag k="addr:street" v="Westhaven Drive"/><tag k="addr:housenumber" v="209"/></node><node id="-128" lat="30.282395" lon="-97.808506" changeset="false"><tag k="addr:street" v="Westlake Drive"/><tag k="addr:housenumber" v="102"/></node><node id="-129" lat="30.282566" lon="-97.808376" changeset="false"><tag k="addr:street" v="Westlake Drive"/><tag k="addr:housenumber" v="104"/></node><node id="-130" lat="30.282735" lon="-97.808175" changeset="false"><tag k="addr:street" v="Westlake Drive"/><tag k="addr:housenumber" v="106"/></node><node id="-131" lat="30.284914" lon="-97.809112" changeset="false"><tag k="addr:street" v="Westhaven Drive"/><tag k="addr:housenumber" v="203"/></node><node id="-132" lat="30.284871" lon="-97.809022" changeset="false"><tag k="addr:street" v="Westhaven Drive"/><tag k="addr:housenumber" v="207"/></node><node id="-133" lat="30.280774" lon="-97.809058" changeset="false"><tag k="addr:street" v="Bee Caves Road"/><tag k="addr:housenumber" v="3839"/></node><node id="-134" lat="30.280468" lon="-97.809167" changeset="false"><tag k="addr:street" v="Bee Caves Road"/><tag k="addr:housenumber" v="3825"/></node><node id="-135" lat="30.286882" lon="-97.810698" changeset="false"><tag k="addr:street" v="Buckeye Trail"/><tag k="addr:housenumber" v="605"/></node><node id="-136" lat="30.286905" lon="-97.810618" changeset="false"><tag k="addr:street" v="Buckeye Trail"/><tag k="addr:housenumber" v="777"/></node><node id="-137" lat="30.281687" lon="-97.811853" changeset="false"><tag k="addr:street" v="Eanes School Road"/><tag k="addr:housenumber" v="207"/></node><node id="-138" lat="30.281518" lon="-97.811874" changeset="false"><tag k="addr:street" v="Camp Craft Road"/><tag k="addr:housenumber" v="304"/></node><node id="-139" lat="30.283322" lon="-97.81162" changeset="false"><tag k="addr:street" v="Bee Caves Road"/><tag k="addr:housenumber" v="4101"/></node><node id="-140" lat="30.27686" lon="-97.815469" changeset="false"><tag k="addr:street" v="Camp Craft Road"/><tag k="addr:housenumber" v="601"/></node><node id="-141" lat="30.276118" lon="-97.815366" changeset="false"><tag k="addr:street" v="Westbank Drive"/><tag k="addr:housenumber" v="4100"/></node><node id="-142" lat="30.281583" lon="-97.820429" changeset="false"><tag k="addr:street" v="Capital of Texas Highway"/><tag k="addr:housenumber" v="1201"/></node><node id="-143" lat="30.281398" lon="-97.820241" changeset="false"><tag k="addr:street" v="Capital of Texas Highway"/><tag k="addr:housenumber" v="1203"/></node></osm>