<?xml version="1.0" encoding="UTF-8"?><osm version="0.6" generator="github.com/aaronlidman/osm-and-geojson"><node id="-1" lat="30.473237" lon="-97.848278" changeset="false"><tag k="addr:street" v="Chula Vista Drive"/><tag k="addr:housenumber" v="2007"/></node><node id="-2" lat="30.475815" lon="-97.846173" changeset="false"><tag k="addr:street" v="Simbrah Drive"/><tag k="addr:housenumber" v="2017"/></node><node id="-3" lat="30.474955" lon="-97.846267" changeset="false"><tag k="addr:street" v="Bent Bow Cove"/><tag k="addr:housenumber" v="2005"/></node><node id="-4" lat="30.475108" lon="-97.846336" changeset="false"><tag k="addr:street" v="Bent Bow Cove"/><tag k="addr:housenumber" v="2007"/></node><node id="-5" lat="30.475149" lon="-97.84676" changeset="false"><tag k="addr:street" v="Simbrah Drive"/><tag k="addr:housenumber" v="2109"/></node><node id="-6" lat="30.474772" lon="-97.847622" changeset="false"><tag k="addr:street" v="Simbrah Drive"/><tag k="addr:housenumber" v="2116"/></node><node id="-7" lat="30.474617" lon="-97.846816" changeset="false"><tag k="addr:street" v="El Sol Drive"/><tag k="addr:housenumber" v="2305"/></node><node id="-8" lat="30.474594" lon="-97.847131" changeset="false"><tag k="addr:street" v="Simbrah Drive"/><tag k="addr:housenumber" v="2117"/></node><node id="-9" lat="30.473722" lon="-97.848039" changeset="false"><tag k="addr:street" v="Simbrah Drive"/><tag k="addr:housenumber" v="2128"/></node></osm>