<?xml version="1.0" encoding="UTF-8"?><osm version="0.6" generator="github.com/aaronlidman/osm-and-geojson"><node id="-1" lat="30.284117" lon="-97.715617" changeset="false"><tag k="addr:street" v="East 22nd Street"/><tag k="addr:housenumber" v="2500"/><tag k="addr:postcode" v="78722"/></node><node id="-2" lat="30.284646" lon="-97.715691" changeset="false"><tag k="addr:street" v="Manor Road"/><tag k="addr:housenumber" v="2515"/><tag k="addr:postcode" v="78722"/></node><node id="-3" lat="30.284374" lon="-97.716629" changeset="false"><tag k="addr:street" v="Manor Road"/><tag k="addr:housenumber" v="2401"/><tag k="addr:postcode" v="78722"/></node><node id="-4" lat="30.283664" lon="-97.717088" changeset="false"><tag k="addr:street" v="Maple Avenue"/><tag k="addr:housenumber" v="2200"/><tag k="addr:postcode" v="78722"/></node><node id="-5" lat="30.282393" lon="-97.719949" changeset="false"><tag k="addr:street" v="Alamo Street"/><tag k="addr:housenumber" v="2100"/><tag k="addr:postcode" v="78722"/></node><node id="-6" lat="30.283519" lon="-97.722562" changeset="false"><tag k="addr:street" v="Manor Road"/><tag k="addr:housenumber" v="1809"/><tag k="addr:postcode" v="78722"/></node><node id="-7" lat="30.282997" lon="-97.725694" changeset="false"><tag k="addr:street" v="Comal Street"/><tag k="addr:housenumber" v="2209"/><tag k="addr:postcode" v="78722"/></node><node id="-8" lat="30.282745" lon="-97.72575" changeset="false"><tag k="addr:street" v="Comal Street"/><tag k="addr:housenumber" v="2207"/><tag k="addr:postcode" v="78722"/></node><node id="-9" lat="30.282206" lon="-97.726488" changeset="false"><tag k="addr:street" v="Comal Street"/><tag k="addr:housenumber" v="2200"/><tag k="addr:postcode" v="78722"/></node><node id="-10" lat="30.281316" lon="-97.721789" changeset="false"><tag k="addr:street" v="Chicon Street"/><tag k="addr:housenumber" v="2008"/><tag k="addr:postcode" v="78722"/></node><node id="-11" lat="30.281254" lon="-97.726896" changeset="false"><tag k="addr:street" v="Comal Street"/><tag k="addr:housenumber" v="2100"/><tag k="addr:postcode" v="78722"/></node><node id="-12" lat="30.279243" lon="-97.726663" changeset="false"><tag k="addr:street" v="East Martin Luther King Jr Boulevard"/><tag k="addr:housenumber" v="1300"/><tag k="addr:postcode" v="78722"/></node></osm>