<?xml version="1.0" encoding="UTF-8"?><osm version="0.6" generator="github.com/aaronlidman/osm-and-geojson"><node id="-1" lat="30.271539" lon="-97.789044" changeset="false"><tag k="addr:street" v="Bee Caves Road"/><tag k="addr:housenumber" v="2804"/><tag k="addr:postcode" v="78746"/></node><node id="-2" lat="30.271499" lon="-97.789117" changeset="false"><tag k="addr:street" v="Bee Caves Road"/><tag k="addr:housenumber" v="2802"/><tag k="addr:postcode" v="78746"/></node><node id="-3" lat="30.272608" lon="-97.785565" changeset="false"><tag k="addr:street" v="Timberline Drive"/><tag k="addr:housenumber" v="4800"/><tag k="addr:postcode" v="78746"/></node><node id="-4" lat="30.276572" lon="-97.786275" changeset="false"><tag k="addr:street" v="Pleasant Cove"/><tag k="addr:housenumber" v="6"/><tag k="addr:postcode" v="78746"/></node><node id="-5" lat="30.271468" lon="-97.782539" changeset="false"><tag k="addr:street" v="Riley Road"/><tag k="addr:housenumber" v="500"/><tag k="addr:postcode" v="78746"/></node><node id="-6" lat="30.270262" lon="-97.785571" changeset="false"><tag k="addr:street" v="Bee Caves Road"/><tag k="addr:housenumber" v="2708"/><tag k="addr:postcode" v="78746"/></node><node id="-7" lat="30.269456" lon="-97.785893" changeset="false"><tag k="addr:street" v="Bee Caves Road"/><tag k="addr:housenumber" v="2704"/><tag k="addr:postcode" v="78746"/></node><node id="-8" lat="30.276597" lon="-97.779919" changeset="false"><tag k="addr:street" v="Stratford Drive"/><tag k="addr:housenumber" v="2603"/><tag k="addr:postcode" v="78746"/></node><node id="-9" lat="30.277868" lon="-97.78633" changeset="false"><tag k="addr:street" v="Nixon Drive"/><tag k="addr:housenumber" v="306"/><tag k="addr:postcode" v="78746"/></node><node id="-10" lat="30.272365" lon="-97.786246" changeset="false"><tag k="addr:street" v="Inwood Circle"/><tag k="addr:housenumber" v="4"/><tag k="addr:postcode" v="78746"/></node><node id="-11" lat="30.277844" lon="-97.789746" changeset="false"><tag k="addr:street" v="Park Hills Drive"/><tag k="addr:housenumber" v="3215"/><tag k="addr:postcode" v="78746"/></node><node id="-12" lat="30.27881" lon="-97.783176" changeset="false"><tag k="addr:street" v="Rock Way Cove"/><tag k="addr:housenumber" v="6"/><tag k="addr:postcode" v="78746"/></node><node id="-13" lat="30.280593" lon="-97.786299" changeset="false"><tag k="addr:street" v="Laura Lane"/><tag k="addr:housenumber" v="110"/><tag k="addr:postcode" v="78746"/></node><node id="-14" lat="30.273667" lon="-97.791373" changeset="false"><tag k="addr:street" v="Rollingwood Drive"/><tag k="addr:housenumber" v="4912"/><tag k="addr:postcode" v="78746"/></node><node id="-15" lat="30.273672" lon="-97.784835" changeset="false"><tag k="addr:street" v="Rollingwood Drive"/><tag k="addr:housenumber" v="2804"/><tag k="addr:postcode" v="78746"/></node><node id="-16" lat="30.278278" lon="-97.785037" changeset="false"><tag k="addr:street" v="Ashworth Drive"/><tag k="addr:housenumber" v="102 1/2"/><tag k="addr:postcode" v="78746"/></node><node id="-17" lat="30.279453" lon="-97.784121" changeset="false"><tag k="addr:street" v="Kristy Drive"/><tag k="addr:housenumber" v="108"/><tag k="addr:postcode" v="78746"/></node><node id="-18" lat="30.271163" lon="-97.790752" changeset="false"><tag k="addr:street" v="Bee Caves Road"/><tag k="addr:housenumber" v="2824"/><tag k="addr:postcode" v="78746"/></node><node id="-19" lat="30.277843" lon="-97.784373" changeset="false"><tag k="addr:street" v="Hatley Drive"/><tag k="addr:housenumber" v="2905"/><tag k="addr:postcode" v="78746"/></node><node id="-20" lat="30.27167" lon="-97.781671" changeset="false"><tag k="addr:street" v="Riley Road"/><tag k="addr:housenumber" v="407"/><tag k="addr:postcode" v="78746"/></node><node id="-21" lat="30.273042" lon="-97.786901" changeset="false"><tag k="addr:street" v="Inwood Circle"/><tag k="addr:housenumber" v="5"/><tag k="addr:postcode" v="78746"/></node><node id="-22" lat="30.277969" lon="-97.782706" changeset="false"><tag k="addr:street" v="Wallis Drive"/><tag k="addr:housenumber" v="103"/><tag k="addr:postcode" v="78746"/></node><node id="-23" lat="30.282393" lon="-97.786759" changeset="false"><tag k="addr:street" v="Brett Cove"/><tag k="addr:housenumber" v="3"/><tag k="addr:postcode" v="78746"/></node><node id="-24" lat="30.27226" lon="-97.787271" changeset="false"><tag k="addr:street" v="Grove Court"/><tag k="addr:housenumber" v="8"/><tag k="addr:postcode" v="78746"/></node><node id="-25" lat="30.273415" lon="-97.791682" changeset="false"><tag k="addr:street" v="Rollingwood Drive"/><tag k="addr:housenumber" v="4914"/><tag k="addr:postcode" v="78746"/></node><node id="-26" lat="30.27675" lon="-97.784183" changeset="false"><tag k="addr:street" v="Wallis Drive"/><tag k="addr:housenumber" v="306"/><tag k="addr:postcode" v="78746"/></node><node id="-27" lat="30.276954" lon="-97.781395" changeset="false"><tag k="addr:street" v="Almarion Way"/><tag k="addr:housenumber" v="199"/><tag k="addr:postcode" v="78746"/></node><node id="-28" lat="30.271355" lon="-97.790247" changeset="false"><tag k="addr:street" v="Bee Caves Road"/><tag k="addr:housenumber" v="2814"/><tag k="addr:postcode" v="78746"/></node><node id="-29" lat="30.271319" lon="-97.79046" changeset="false"><tag k="addr:street" v="Bee Caves Road"/><tag k="addr:housenumber" v="2816"/><tag k="addr:postcode" v="78746"/></node><node id="-30" lat="30.277708" lon="-97.782844" changeset="false"><tag k="addr:street" v="Rock Way"/><tag k="addr:housenumber" v="2809"/><tag k="addr:postcode" v="78746"/></node><node id="-31" lat="30.269754" lon="-97.785549" changeset="false"><tag k="addr:street" v="Bee Caves Road"/><tag k="addr:housenumber" v="2706"/><tag k="addr:postcode" v="78746"/></node><node id="-32" lat="30.272738" lon="-97.77836" changeset="false"><tag k="addr:street" v="Vale Street"/><tag k="addr:housenumber" v="203 1/2"/><tag k="addr:postcode" v="78746"/></node><node id="-33" lat="30.26898" lon="-97.782287" changeset="false"><tag k="addr:street" v="Dellana Lane"/><tag k="addr:housenumber" v="2608"/><tag k="addr:postcode" v="78746"/></node><node id="-34" lat="30.27258" lon="-97.785882" changeset="false"><tag k="addr:street" v="Inwood Circle"/><tag k="addr:housenumber" v="2"/><tag k="addr:postcode" v="78746"/></node><node id="-35" lat="30.271213" lon="-97.78661" changeset="false"><tag k="addr:street" v="Bee Caves Road"/><tag k="addr:housenumber" v="2712 1/2"/><tag k="addr:postcode" v="78746"/></node><node id="-36" lat="30.272513" lon="-97.786127" changeset="false"><tag k="addr:street" v="Inwood Circle"/><tag k="addr:housenumber" v="3"/><tag k="addr:postcode" v="78746"/></node><node id="-37" lat="30.272112" lon="-97.796321" changeset="false"><tag k="addr:street" v="South Peak Road"/><tag k="addr:housenumber" v="10"/><tag k="addr:postcode" v="78746"/></node><node id="-38" lat="30.280325" lon="-97.787675" changeset="false"><tag k="addr:street" v="Park Hills Drive"/><tag k="addr:housenumber" v="3300"/><tag k="addr:postcode" v="78746"/></node><node id="-39" lat="30.280526" lon="-97.785732" changeset="false"><tag k="addr:street" v="Chris Cove"/><tag k="addr:housenumber" v="4"/><tag k="addr:postcode" v="78746"/></node><node id="-40" lat="30.271979" lon="-97.785829" changeset="false"><tag k="addr:street" v="Inwood Circle"/><tag k="addr:housenumber" v="1"/><tag k="addr:postcode" v="78746"/></node><node id="-41" lat="30.268711" lon="-97.784363" changeset="false"><tag k="addr:street" v="Bee Caves Road"/><tag k="addr:housenumber" v="2500"/><tag k="addr:postcode" v="78746"/></node><node id="-42" lat="30.272009" lon="-97.780843" changeset="false"><tag k="addr:street" v="Farley Trail"/><tag k="addr:housenumber" v="402"/><tag k="addr:postcode" v="78746"/></node><node id="-43" lat="30.274911" lon="-97.78854" changeset="false"><tag k="addr:street" v="Gentry Drive"/><tag k="addr:housenumber" v="3105"/><tag k="addr:postcode" v="78746"/></node><node id="-44" lat="30.275513" lon="-97.785498" changeset="false"><tag k="addr:street" v="Wallis Drive"/><tag k="addr:housenumber" v="408"/><tag k="addr:postcode" v="78746"/></node><node id="-45" lat="30.280221" lon="-97.788902" changeset="false"><tag k="addr:street" v="Ridgewood Road"/><tag k="addr:housenumber" v="403"/><tag k="addr:postcode" v="78746"/></node><node id="-46" lat="30.280466" lon="-97.786107" changeset="false"><tag k="addr:street" v="Michele Circle"/><tag k="addr:housenumber" v="4"/><tag k="addr:postcode" v="78746"/></node><node id="-47" lat="30.278278" lon="-97.784366" changeset="false"><tag k="addr:street" v="Ashworth Drive"/><tag k="addr:housenumber" v="201"/><tag k="addr:postcode" v="78746"/></node><node id="-48" lat="30.270754" lon="-97.781105" changeset="false"><tag k="addr:street" v="Pickwick Lane"/><tag k="addr:housenumber" v="2402"/><tag k="addr:postcode" v="78746"/></node><node id="-49" lat="30.272839" lon="-97.787558" changeset="false"><tag k="addr:street" v="Grove Court"/><tag k="addr:housenumber" v="9"/><tag k="addr:postcode" v="78746"/></node><node id="-50" lat="30.274836" lon="-97.778639" changeset="false"><tag k="addr:street" v="Vance Lane"/><tag k="addr:housenumber" v="2407"/><tag k="addr:postcode" v="78746"/></node><node id="-51" lat="30.274485" lon="-97.777616" changeset="false"><tag k="addr:street" v="Stratford Drive"/><tag k="addr:housenumber" v="2501"/><tag k="addr:postcode" v="78746"/></node><node id="-52" lat="30.271213" lon="-97.790773" changeset="false"><tag k="addr:street" v="Bee Caves Road"/><tag k="addr:housenumber" v="2826"/><tag k="addr:postcode" v="78746"/></node><node id="-53" lat="30.271556" lon="-97.789235" changeset="false"><tag k="addr:street" v="Bee Caves Road"/><tag k="addr:housenumber" v="2806"/><tag k="addr:postcode" v="78746"/></node><node id="-54" lat="30.267884" lon="-97.784519" changeset="false"><tag k="addr:street" v="Dellana Lane"/><tag k="addr:housenumber" v="2512"/><tag k="addr:postcode" v="78746"/></node><node id="-55" lat="30.271192" lon="-97.77949" changeset="false"><tag k="addr:street" v="Vale Street"/><tag k="addr:housenumber" v="403"/><tag k="addr:postcode" v="78746"/></node><node id="-56" lat="30.275694" lon="-97.780972" changeset="false"><tag k="addr:street" v="Inwood Circle"/><tag k="addr:housenumber" v="11"/><tag k="addr:postcode" v="78746"/></node><node id="-57" lat="30.27307" lon="-97.78211" changeset="false"><tag k="addr:street" v="Inwood Road"/><tag k="addr:housenumber" v="401"/><tag k="addr:postcode" v="78746"/></node><node id="-58" lat="30.26869" lon="-97.782989" changeset="false"><tag k="addr:street" v="Dellana Lane"/><tag k="addr:housenumber" v="2604"/><tag k="addr:postcode" v="78746"/></node><node id="-59" lat="30.272783" lon="-97.778194" changeset="false"><tag k="addr:street" v="Vale Street"/><tag k="addr:housenumber" v="201"/><tag k="addr:postcode" v="78746"/></node><node id="-60" lat="30.273463" lon="-97.781534" changeset="false"><tag k="addr:street" v="Bettis Boulevard"/><tag k="addr:housenumber" v="2603"/><tag k="addr:postcode" v="78746"/></node><node id="-61" lat="30.273537" lon="-97.78167" changeset="false"><tag k="addr:street" v="Inwood Road"/><tag k="addr:housenumber" v="307"/><tag k="addr:postcode" v="78746"/></node></osm>