<?xml version="1.0" encoding="UTF-8"?><osm version="0.6" generator="github.com/aaronlidman/osm-and-geojson"><node id="-1" lat="30.379132" lon="-97.755726" changeset="false"><tag k="addr:street" v="Emerald Hill Drive"/><tag k="addr:housenumber" v="8501"/><tag k="coa:place_id" v="503516"/></node><node id="-2" lat="30.378491" lon="-97.75614" changeset="false"><tag k="addr:street" v="Emerald Hill Drive"/><tag k="addr:housenumber" v="8401"/><tag k="coa:place_id" v="503498"/></node><node id="-3" lat="30.382851" lon="-97.759581" changeset="false"><tag k="addr:street" v="Appalachian Drive"/><tag k="addr:housenumber" v="8512"/><tag k="coa:place_id" v="1154721"/></node><node id="-4" lat="30.381856" lon="-97.75632" changeset="false"><tag k="addr:street" v="Walhill Lane"/><tag k="addr:housenumber" v="4400"/><tag k="coa:place_id" v="795507"/></node><node id="-5" lat="30.380994" lon="-97.752093" changeset="false"><tag k="addr:street" v="Hyridge Drive"/><tag k="addr:housenumber" v="4110"/><tag k="coa:place_id" v="120839"/></node><node id="-6" lat="30.378947" lon="-97.758223" changeset="false"><tag k="addr:street" v="Adirondack Trail"/><tag k="addr:housenumber" v="8403"/><tag k="coa:place_id" v="3285910"/></node><node id="-7" lat="30.385579" lon="-97.756726" changeset="false"><tag k="addr:street" v="North Path"/><tag k="addr:housenumber" v="8810"/><tag k="coa:place_id" v="934520"/></node><node id="-8" lat="30.382245" lon="-97.754077" changeset="false"><tag k="addr:street" v="Hyridge Drive"/><tag k="addr:housenumber" v="4206"/><tag k="coa:place_id" v="86592"/></node><node id="-9" lat="30.380425" lon="-97.756998" changeset="false"><tag k="addr:street" v="Mesa Doble Lane"/><tag k="addr:housenumber" v="8410"/><tag k="coa:place_id" v="86565"/></node><node id="-10" lat="30.381884" lon="-97.759529" changeset="false"><tag k="addr:street" v="Appalachian Drive"/><tag k="addr:housenumber" v="8507"/><tag k="coa:place_id" v="504542"/></node><node id="-11" lat="30.378292" lon="-97.753058" changeset="false"><tag k="addr:street" v="Rockford Lane"/><tag k="addr:housenumber" v="4101"/><tag k="coa:place_id" v="249978"/></node><node id="-12" lat="30.382495" lon="-97.754599" changeset="false"><tag k="addr:street" v="Hyridge Drive"/><tag k="addr:housenumber" v="4304"/><tag k="coa:place_id" v="86593"/></node><node id="-13" lat="30.379983" lon="-97.7562" changeset="false"><tag k="addr:street" v="Mesa Doble Lane"/><tag k="addr:housenumber" v="8403"/><tag k="coa:place_id" v="544486"/></node><node id="-14" lat="30.377557" lon="-97.75756" changeset="false"><tag k="addr:street" v="Steck Avenue"/><tag k="addr:housenumber" v="4208"/><tag k="coa:place_id" v="263649"/></node><node id="-15" lat="30.378781" lon="-97.757285" changeset="false"><tag k="addr:street" v="Alta Verde Drive"/><tag k="addr:housenumber" v="8406"/><tag k="coa:place_id" v="326439"/></node><node id="-16" lat="30.382043" lon="-97.755499" changeset="false"><tag k="addr:street" v="Walhill Cove"/><tag k="addr:housenumber" v="8507"/><tag k="coa:place_id" v="86574"/></node><node id="-17" lat="30.377456" lon="-97.757518" changeset="false"><tag k="addr:street" v="Steck Avenue"/><tag k="addr:housenumber" v="4206"/><tag k="coa:place_id" v="263643"/></node><node id="-18" lat="30.378428" lon="-97.757323" changeset="false"><tag k="addr:street" v="Alta Verde Drive"/><tag k="addr:housenumber" v="8401"/><tag k="coa:place_id" v="3276749"/></node><node id="-19" lat="30.381459" lon="-97.754396" changeset="false"><tag k="addr:street" v="Adirondack Trail"/><tag k="addr:housenumber" v="8302"/><tag k="coa:place_id" v="257895"/></node><node id="-20" lat="30.382375" lon="-97.755622" changeset="false"><tag k="addr:street" v="Walhill Cove"/><tag k="addr:housenumber" v="8506"/><tag k="coa:place_id" v="86573"/></node><node id="-21" lat="30.387332" lon="-97.753591" changeset="false"><tag k="addr:street" v="Mountain Ridge Drive"/><tag k="addr:housenumber" v="9100"/><tag k="coa:place_id" v="768495"/></node><node id="-22" lat="30.383972" lon="-97.756543" changeset="false"><tag k="addr:street" v="Hyridge Drive"/><tag k="addr:housenumber" v="4508"/><tag k="coa:place_id" v="914883"/></node><node id="-23" lat="30.379698" lon="-97.75431" changeset="false"><tag k="addr:street" v="Emerald Hill Drive"/><tag k="addr:housenumber" v="8511"/><tag k="coa:place_id" v="503546"/></node><node id="-24" lat="30.379715" lon="-97.75424" changeset="false"><tag k="addr:street" v="Walhill Lane"/><tag k="addr:housenumber" v="4304"/><tag k="coa:place_id" v="297135"/></node><node id="-25" lat="30.376055" lon="-97.754847" changeset="false"><tag k="addr:street" v="Mesa Drive"/><tag k="addr:housenumber" v="8400"/><tag k="coa:place_id" v="503918"/></node><node id="-26" lat="30.375999" lon="-97.755397" changeset="false"><tag k="addr:street" v="Mesa Drive"/><tag k="addr:housenumber" v="8332"/><tag k="coa:place_id" v="3031180"/></node><node id="-27" lat="30.378579" lon="-97.757768" changeset="false"><tag k="addr:street" v="Alta Verde Drive"/><tag k="addr:housenumber" v="8302"/><tag k="coa:place_id" v="359745"/></node><node id="-28" lat="30.378553" lon="-97.757843" changeset="false"><tag k="addr:street" v="Alta Verde Drive"/><tag k="addr:housenumber" v="8300"/><tag k="coa:place_id" v="362103"/></node><node id="-29" lat="30.378613" lon="-97.757688" changeset="false"><tag k="addr:street" v="Alta Verde Drive"/><tag k="addr:housenumber" v="8304"/><tag k="coa:place_id" v="346029"/></node><node id="-30" lat="30.378725" lon="-97.757362" changeset="false"><tag k="addr:street" v="Alta Verde Drive"/><tag k="addr:housenumber" v="8404"/><tag k="coa:place_id" v="335331"/></node><node id="-31" lat="30.378694" lon="-97.757458" changeset="false"><tag k="addr:street" v="Alta Verde Drive"/><tag k="addr:housenumber" v="8402"/><tag k="coa:place_id" v="335433"/></node><node id="-32" lat="30.378651" lon="-97.757526" changeset="false"><tag k="addr:street" v="Alta Verde Drive"/><tag k="addr:housenumber" v="8400"/><tag k="coa:place_id" v="346059"/></node></osm>