<?xml version="1.0" encoding="UTF-8"?><osm version="0.6" generator="github.com/aaronlidman/osm-and-geojson"><node id="-1" lat="30.319455" lon="-97.77244" changeset="false"><tag k="addr:street" v="Bonnell Drive"/><tag k="addr:housenumber" v="3704"/><tag k="addr:postcode" v="78731"/></node><node id="-2" lat="30.316444" lon="-97.774" changeset="false"><tag k="addr:street" v="Mount Bonnell Road"/><tag k="addr:housenumber" v="3407"/><tag k="addr:postcode" v="78731"/></node><node id="-3" lat="30.310307" lon="-97.762062" changeset="false"><tag k="addr:street" v="West 35th Street"/><tag k="addr:housenumber" v="2604"/><tag k="addr:postcode" v="78731"/></node><node id="-4" lat="30.315853" lon="-97.771127" changeset="false"><tag k="addr:street" v="Foothill Parkway"/><tag k="addr:housenumber" v="3413"/><tag k="addr:postcode" v="78731"/></node><node id="-5" lat="30.326405" lon="-97.760973" changeset="false"><tag k="addr:street" v="Fairview Drive"/><tag k="addr:housenumber" v="4600"/><tag k="addr:postcode" v="78731"/></node><node id="-6" lat="30.32365" lon="-97.76122" changeset="false"><tag k="addr:street" v="Fairview Drive"/><tag k="addr:housenumber" v="4504"/><tag k="addr:postcode" v="78731"/></node><node id="-7" lat="30.320562" lon="-97.770483" changeset="false"><tag k="addr:street" v="Balcones Drive"/><tag k="addr:housenumber" v="4002"/><tag k="addr:postcode" v="78731"/></node><node id="-8" lat="30.310506" lon="-97.762428" changeset="false"><tag k="addr:street" v="West 35th Street"/><tag k="addr:housenumber" v="2614"/><tag k="addr:postcode" v="78731"/></node><node id="-9" lat="30.323988" lon="-97.767335" changeset="false"><tag k="addr:street" v="Edgemont Drive"/><tag k="addr:housenumber" v="4300"/><tag k="addr:postcode" v="78731"/></node><node id="-10" lat="30.317034" lon="-97.773586" changeset="false"><tag k="addr:street" v="Fall Trail"/><tag k="addr:housenumber" v="3503"/><tag k="addr:postcode" v="78731"/></node><node id="-11" lat="30.32235" lon="-97.772715" changeset="false"><tag k="addr:street" v="Bonnell Drive"/><tag k="addr:housenumber" v="3906"/><tag k="addr:postcode" v="78731"/></node><node id="-12" lat="30.310279" lon="-97.761982" changeset="false"><tag k="addr:street" v="West 35th Street"/><tag k="addr:housenumber" v="2602"/><tag k="addr:postcode" v="78731"/></node><node id="-13" lat="30.328875" lon="-97.763952" changeset="false"><tag k="addr:street" v="Perry Lane"/><tag k="addr:housenumber" v="3325"/><tag k="addr:postcode" v="78731"/></node><node id="-14" lat="30.310109" lon="-97.761317" changeset="false"><tag k="addr:street" v="West 35th Street"/><tag k="addr:housenumber" v="2500"/><tag k="addr:postcode" v="78731"/></node><node id="-15" lat="30.310482" lon="-97.762375" changeset="false"><tag k="addr:street" v="West 35th Street"/><tag k="addr:housenumber" v="2612"/><tag k="addr:postcode" v="78731"/></node><node id="-16" lat="30.325157" lon="-97.765775" changeset="false"><tag k="addr:street" v="Edgemont Drive"/><tag k="addr:housenumber" v="4505"/><tag k="addr:postcode" v="78731"/></node><node id="-17" lat="30.328273" lon="-97.763688" changeset="false"><tag k="addr:street" v="Glen Rose Drive"/><tag k="addr:housenumber" v="3300"/><tag k="addr:postcode" v="78731"/></node><node id="-18" lat="30.31015" lon="-97.761474" changeset="false"><tag k="addr:street" v="West 35th Street"/><tag k="addr:housenumber" v="2506"/><tag k="addr:postcode" v="78731"/></node><node id="-19" lat="30.310273" lon="-97.761757" changeset="false"><tag k="addr:street" v="West 35th Street"/><tag k="addr:housenumber" v="2514"/><tag k="addr:postcode" v="78731"/></node><node id="-20" lat="30.31398" lon="-97.767169" changeset="false"><tag k="addr:street" v="Balcones Drive"/><tag k="addr:housenumber" v="3501"/><tag k="addr:postcode" v="78731"/></node><node id="-21" lat="30.315859" lon="-97.769071" changeset="false"><tag k="addr:street" v="Foothill Parkway"/><tag k="addr:housenumber" v="3400"/><tag k="addr:postcode" v="78731"/></node><node id="-22" lat="30.319045" lon="-97.765439" changeset="false"><tag k="addr:street" v="Balcones Drive"/><tag k="addr:housenumber" v="3909"/><tag k="addr:postcode" v="78731"/></node><node id="-23" lat="30.324293" lon="-97.757226" changeset="false"><tag k="addr:street" v="Horseshoe Bend"/><tag k="addr:housenumber" v="4600"/><tag k="addr:postcode" v="78731"/></node><node id="-24" lat="30.315974" lon="-97.77129" changeset="false"><tag k="addr:street" v="Foothill Parkway"/><tag k="addr:housenumber" v="3415"/><tag k="addr:postcode" v="78731"/></node><node id="-25" lat="30.322273" lon="-97.772218" changeset="false"><tag k="addr:street" v="Bonnell Drive"/><tag k="addr:housenumber" v="3908"/><tag k="addr:postcode" v="78731"/></node><node id="-26" lat="30.319338" lon="-97.772639" changeset="false"><tag k="addr:street" v="Mount Bonnell Road"/><tag k="addr:housenumber" v="3703"/><tag k="addr:postcode" v="78731"/></node><node id="-27" lat="30.315796" lon="-97.768547" changeset="false"><tag k="addr:street" v="Foothill Terrace"/><tag k="addr:housenumber" v="3402"/><tag k="addr:postcode" v="78731"/></node><node id="-28" lat="30.321619" lon="-97.772437" changeset="false"><tag k="addr:street" v="Bonnell Drive"/><tag k="addr:housenumber" v="3902"/><tag k="addr:postcode" v="78731"/></node><node id="-29" lat="30.310378" lon="-97.762147" changeset="false"><tag k="addr:street" v="West 35th Street"/><tag k="addr:housenumber" v="2606"/><tag k="addr:postcode" v="78731"/></node><node id="-30" lat="30.310675" lon="-97.758357" changeset="false"><tag k="addr:street" v="West 35th Street"/><tag k="addr:housenumber" v="2100"/><tag k="addr:postcode" v="78731"/></node><node id="-31" lat="30.317268" lon="-97.766829" changeset="false"><tag k="addr:street" v="Balcones Drive"/><tag k="addr:housenumber" v="3802"/><tag k="addr:postcode" v="78731"/></node><node id="-32" lat="30.317333" lon="-97.770857" changeset="false"><tag k="addr:street" v="Foothill Terrace"/><tag k="addr:housenumber" v="3418"/><tag k="addr:postcode" v="78731"/></node><node id="-33" lat="30.316447" lon="-97.771704" changeset="false"><tag k="addr:street" v="Foothill Parkway"/><tag k="addr:housenumber" v="3419"/><tag k="addr:postcode" v="78731"/></node><node id="-34" lat="30.320571" lon="-97.769549" changeset="false"><tag k="addr:street" v="Balcones Drive"/><tag k="addr:housenumber" v="4000"/><tag k="addr:postcode" v="78731"/></node><node id="-35" lat="30.322621" lon="-97.770128" changeset="false"><tag k="addr:street" v="Mount Bonnell Drive"/><tag k="addr:housenumber" v="3336"/><tag k="addr:postcode" v="78731"/></node><node id="-36" lat="30.321833" lon="-97.756441" changeset="false"><tag k="addr:street" v="West 45th Street"/><tag k="addr:housenumber" v="2920 1/2"/><tag k="addr:postcode" v="78731"/></node><node id="-37" lat="30.327726" lon="-97.764405" changeset="false"><tag k="addr:street" v="Edgemont Drive"/><tag k="addr:housenumber" v="4608"/><tag k="addr:postcode" v="78731"/></node><node id="-38" lat="30.309725" lon="-97.759295" changeset="false"><tag k="addr:street" v="West 35th Street"/><tag k="addr:housenumber" v="2200"/><tag k="addr:postcode" v="78731"/></node><node id="-39" lat="30.320675" lon="-97.771633" changeset="false"><tag k="addr:street" v="Winsome Court"/><tag k="addr:housenumber" v="3507"/><tag k="addr:postcode" v="78731"/></node><node id="-40" lat="30.317779" lon="-97.764973" changeset="false"><tag k="addr:street" v="Balcones Drive"/><tag k="addr:housenumber" v="3903"/><tag k="addr:postcode" v="78731"/></node><node id="-41" lat="30.316909" lon="-97.769881" changeset="false"><tag k="addr:street" v="Foothill Terrace"/><tag k="addr:housenumber" v="3412"/><tag k="addr:postcode" v="78731"/></node><node id="-42" lat="30.319674" lon="-97.772286" changeset="false"><tag k="addr:street" v="Bonnell Drive"/><tag k="addr:housenumber" v="3710"/><tag k="addr:postcode" v="78731"/></node><node id="-43" lat="30.318781" lon="-97.772192" changeset="false"><tag k="addr:street" v="Fall Trail"/><tag k="addr:housenumber" v="3607"/><tag k="addr:postcode" v="78731"/></node><node id="-44" lat="30.310232" lon="-97.761926" changeset="false"><tag k="addr:street" v="West 35th Street"/><tag k="addr:housenumber" v="2600"/><tag k="addr:postcode" v="78731"/></node><node id="-45" lat="30.314474" lon="-97.770539" changeset="false"><tag k="addr:street" v="West 35th Street"/><tag k="addr:housenumber" v="3500"/><tag k="addr:postcode" v="78731"/></node><node id="-46" lat="30.324765" lon="-97.757316" changeset="false"><tag k="addr:street" v="Horseshoe Bend"/><tag k="addr:housenumber" v="4604"/><tag k="addr:postcode" v="78731"/></node><node id="-47" lat="30.31615" lon="-97.771552" changeset="false"><tag k="addr:street" v="Foothill Parkway"/><tag k="addr:housenumber" v="3417"/><tag k="addr:postcode" v="78731"/></node><node id="-48" lat="30.326747" lon="-97.760496" changeset="false"><tag k="addr:street" v="Fairview Drive"/><tag k="addr:housenumber" v="4611"/><tag k="addr:postcode" v="78731"/></node><node id="-49" lat="30.32112" lon="-97.77225" changeset="false"><tag k="addr:street" v="Bonnell Drive"/><tag k="addr:housenumber" v="3810"/><tag k="addr:postcode" v="78731"/></node><node id="-50" lat="30.310428" lon="-97.762233" changeset="false"><tag k="addr:street" v="West 35th Street"/><tag k="addr:housenumber" v="2608"/><tag k="addr:postcode" v="78731"/></node><node id="-51" lat="30.310452" lon="-97.762306" changeset="false"><tag k="addr:street" v="West 35th Street"/><tag k="addr:housenumber" v="2610"/><tag k="addr:postcode" v="78731"/></node><node id="-52" lat="30.317636" lon="-97.766495" changeset="false"><tag k="addr:street" v="Balcones Drive"/><tag k="addr:housenumber" v="3808"/><tag k="addr:postcode" v="78731"/></node><node id="-53" lat="30.323963" lon="-97.761629" changeset="false"><tag k="addr:street" v="Fairview Drive"/><tag k="addr:housenumber" v="4510"/><tag k="addr:postcode" v="78731"/></node><node id="-54" lat="30.32406" lon="-97.767305" changeset="false"><tag k="addr:street" v="Cherry Tree Circle"/><tag k="addr:housenumber" v="3300"/><tag k="addr:postcode" v="78731"/></node><node id="-55" lat="30.31708" lon="-97.770201" changeset="false"><tag k="addr:street" v="Foothill Terrace"/><tag k="addr:housenumber" v="3414"/><tag k="addr:postcode" v="78731"/></node><node id="-56" lat="30.319197" lon="-97.772654" changeset="false"><tag k="addr:street" v="Fall Trail"/><tag k="addr:housenumber" v="3609"/><tag k="addr:postcode" v="78731"/></node><node id="-57" lat="30.324022" lon="-97.761046" changeset="false"><tag k="addr:street" v="Fairview Drive"/><tag k="addr:housenumber" v="4509"/><tag k="addr:postcode" v="78731"/></node><node id="-58" lat="30.323966" lon="-97.760714" changeset="false"><tag k="addr:street" v="Fairview Drive"/><tag k="addr:housenumber" v="4501"/><tag k="addr:postcode" v="78731"/></node><node id="-59" lat="30.31126" lon="-97.763131" changeset="false"><tag k="addr:street" v="West 35th Street"/><tag k="addr:housenumber" v="2710"/><tag k="addr:postcode" v="78731"/></node><node id="-60" lat="30.310943" lon="-97.762846" changeset="false"><tag k="addr:street" v="West 35th Street"/><tag k="addr:housenumber" v="2702"/><tag k="addr:postcode" v="78731"/></node><node id="-61" lat="30.311116" lon="-97.76313" changeset="false"><tag k="addr:street" v="West 35th Street"/><tag k="addr:housenumber" v="2708"/><tag k="addr:postcode" v="78731"/></node><node id="-62" lat="30.31098" lon="-97.762918" changeset="false"><tag k="addr:street" v="West 35th Street"/><tag k="addr:housenumber" v="2704"/><tag k="addr:postcode" v="78731"/></node><node id="-63" lat="30.310908" lon="-97.762763" changeset="false"><tag k="addr:street" v="West 35th Street"/><tag k="addr:housenumber" v="2700"/><tag k="addr:postcode" v="78731"/></node><node id="-64" lat="30.311034" lon="-97.763025" changeset="false"><tag k="addr:street" v="West 35th Street"/><tag k="addr:housenumber" v="2706"/><tag k="addr:postcode" v="78731"/></node><node id="-65" lat="30.320918" lon="-97.77145" changeset="false"><tag k="addr:street" v="Winsome Court"/><tag k="addr:housenumber" v="3504"/><tag k="addr:postcode" v="78731"/></node><node id="-66" lat="30.32101" lon="-97.771423" changeset="false"><tag k="addr:street" v="Bonnell Drive"/><tag k="addr:housenumber" v="3811"/><tag k="addr:postcode" v="78731"/></node></osm>