<?xml version="1.0" encoding="UTF-8"?><osm version="0.6" generator="github.com/aaronlidman/osm-and-geojson"><node id="-1" lat="30.285571" lon="-97.766146" changeset="false"><tag k="addr:street" v="Winsted Lane"/><tag k="addr:housenumber" v="1306"/><tag k="addr:postcode" v="78703"/></node><node id="-2" lat="30.281897" lon="-97.76881" changeset="false"><tag k="addr:street" v="Highgrove Terrace"/><tag k="addr:housenumber" v="2116"/><tag k="addr:postcode" v="78703"/></node><node id="-3" lat="30.283188" lon="-97.771532" changeset="false"><tag k="addr:street" v="West 9th Street"/><tag k="addr:housenumber" v="2310"/><tag k="addr:postcode" v="78703"/></node><node id="-4" lat="30.279188" lon="-97.772943" changeset="false"><tag k="addr:street" v="Hearn Street"/><tag k="addr:housenumber" v="510"/><tag k="addr:postcode" v="78703"/></node><node id="-5" lat="30.28039" lon="-97.770015" changeset="false"><tag k="addr:street" v="Upson Street"/><tag k="addr:housenumber" v="707"/><tag k="addr:postcode" v="78703"/></node><node id="-6" lat="30.283199" lon="-97.771297" changeset="false"><tag k="addr:street" v="West 9th Street"/><tag k="addr:housenumber" v="2316"/><tag k="addr:postcode" v="78703"/></node><node id="-7" lat="30.278957" lon="-97.770336" changeset="false"><tag k="addr:street" v="Upson Street"/><tag k="addr:housenumber" v="605"/><tag k="addr:postcode" v="78703"/></node><node id="-8" lat="30.279462" lon="-97.773979" changeset="false"><tag k="addr:street" v="Lake Austin Boulevard"/><tag k="addr:housenumber" v="2530"/><tag k="addr:postcode" v="78703"/></node><node id="-9" lat="30.280296" lon="-97.771788" changeset="false"><tag k="addr:street" v="Hearn Street"/><tag k="addr:housenumber" v="613"/><tag k="addr:postcode" v="78703"/></node><node id="-10" lat="30.279771" lon="-97.772158" changeset="false"><tag k="addr:street" v="Hearn Street"/><tag k="addr:housenumber" v="605"/><tag k="addr:postcode" v="78703"/></node><node id="-11" lat="30.284504" lon="-97.766354" changeset="false"><tag k="addr:street" v="Quarry Road"/><tag k="addr:housenumber" v="2103"/><tag k="addr:postcode" v="78703"/></node><node id="-12" lat="30.286163" lon="-97.770021" changeset="false"><tag k="addr:street" v="Quarry Road"/><tag k="addr:housenumber" v="2311"/><tag k="addr:postcode" v="78703"/></node><node id="-13" lat="30.284109" lon="-97.76892" changeset="false"><tag k="addr:street" v="West 11th Street"/><tag k="addr:housenumber" v="2205"/><tag k="addr:postcode" v="78703"/></node><node id="-14" lat="30.28069" lon="-97.770884" changeset="false"><tag k="addr:street" v="Meriden Lane"/><tag k="addr:housenumber" v="705"/><tag k="addr:postcode" v="78703"/></node><node id="-15" lat="30.284717" lon="-97.768459" changeset="false"><tag k="addr:street" v="West 12th Street"/><tag k="addr:housenumber" v="2201"/><tag k="addr:postcode" v="78703"/></node><node id="-16" lat="30.280283" lon="-97.770049" changeset="false"><tag k="addr:street" v="Upson Street"/><tag k="addr:housenumber" v="705"/><tag k="addr:postcode" v="78703"/></node><node id="-17" lat="30.283331" lon="-97.770534" changeset="false"><tag k="addr:street" v="West 10th Street"/><tag k="addr:housenumber" v="2211"/><tag k="addr:postcode" v="78703"/></node><node id="-18" lat="30.2829" lon="-97.768802" changeset="false"><tag k="addr:street" v="West 10th Street"/><tag k="addr:housenumber" v="2120"/><tag k="addr:postcode" v="78703"/></node><node id="-19" lat="30.287848" lon="-97.768024" changeset="false"><tag k="addr:street" v="Enfield Road"/><tag k="addr:housenumber" v="2307"/><tag k="addr:postcode" v="78703"/></node><node id="-20" lat="30.285595" lon="-97.769642" changeset="false"><tag k="addr:street" v="West 12th Street"/><tag k="addr:housenumber" v="2310"/><tag k="addr:postcode" v="78703"/></node><node id="-21" lat="30.286131" lon="-97.764628" changeset="false"><tag k="addr:street" v="Enfield Road"/><tag k="addr:housenumber" v="2005"/><tag k="addr:postcode" v="78703"/></node><node id="-22" lat="30.27994" lon="-97.770036" changeset="false"><tag k="addr:street" v="West 7th Street"/><tag k="addr:housenumber" v="2106"/><tag k="addr:postcode" v="78703"/></node><node id="-23" lat="30.2853" lon="-97.767317" changeset="false"><tag k="addr:street" v="Meriden Lane"/><tag k="addr:housenumber" v="1301"/><tag k="addr:postcode" v="78703"/></node><node id="-24" lat="30.2802" lon="-97.771246" changeset="false"><tag k="addr:street" v="Deep Eddy Avenue"/><tag k="addr:housenumber" v="616"/><tag k="addr:postcode" v="78703"/></node><node id="-25" lat="30.281185" lon="-97.770602" changeset="false"><tag k="addr:street" v="Meriden Lane"/><tag k="addr:housenumber" v="713"/><tag k="addr:postcode" v="78703"/></node><node id="-26" lat="30.281924" lon="-97.769899" changeset="false"><tag k="addr:street" v="Meriden Lane"/><tag k="addr:housenumber" v="901"/><tag k="addr:postcode" v="78703"/></node><node id="-27" lat="30.284928" lon="-97.767693" changeset="false"><tag k="addr:street" v="West 12th Street"/><tag k="addr:housenumber" v="2118"/><tag k="addr:postcode" v="78703"/></node><node id="-28" lat="30.279036" lon="-97.773512" changeset="false"><tag k="addr:street" v="Lake Austin Boulevard"/><tag k="addr:housenumber" v="2510"/><tag k="addr:postcode" v="78703"/></node><node id="-29" lat="30.284667" lon="-97.767683" changeset="false"><tag k="addr:street" v="West 12th Street"/><tag k="addr:housenumber" v="2116"/><tag k="addr:postcode" v="78703"/></node><node id="-30" lat="30.284454" lon="-97.766767" changeset="false"><tag k="addr:street" v="Dailey Street"/><tag k="addr:housenumber" v="1205"/><tag k="addr:postcode" v="78703"/></node><node id="-31" lat="30.283671" lon="-97.768128" changeset="false"><tag k="addr:street" v="West 11th Street"/><tag k="addr:housenumber" v="2117"/><tag k="addr:postcode" v="78703"/></node><node id="-32" lat="30.27823" lon="-97.770157" changeset="false"><tag k="addr:street" v="Atlanta Street"/><tag k="addr:housenumber" v="518"/><tag k="addr:postcode" v="78703"/></node><node id="-33" lat="30.279529" lon="-97.769883" changeset="false"><tag k="addr:street" v="Upson Street"/><tag k="addr:housenumber" v="615"/><tag k="addr:postcode" v="78703"/></node><node id="-34" lat="30.285722" lon="-97.76795" changeset="false"><tag k="addr:street" v="Quarry Road"/><tag k="addr:housenumber" v="2204"/><tag k="addr:postcode" v="78703"/></node><node id="-35" lat="30.283631" lon="-97.769352" changeset="false"><tag k="addr:street" v="Meriden Lane"/><tag k="addr:housenumber" v="1006"/><tag k="addr:postcode" v="78703"/></node><node id="-36" lat="30.286075" lon="-97.7645" changeset="false"><tag k="addr:street" v="Enfield Road"/><tag k="addr:housenumber" v="2001"/><tag k="addr:postcode" v="78703"/></node><node id="-37" lat="30.286488" lon="-97.765626" changeset="false"><tag k="addr:street" v="Enfield Road"/><tag k="addr:housenumber" v="2109"/><tag k="addr:postcode" v="78703"/></node><node id="-38" lat="30.286271" lon="-97.765789" changeset="false"><tag k="addr:street" v="Enfield Road"/><tag k="addr:housenumber" v="2107"/><tag k="addr:postcode" v="78703"/></node><node id="-39" lat="30.284624" lon="-97.766668" changeset="false"><tag k="addr:street" v="Dailey Street"/><tag k="addr:housenumber" v="1209"/><tag k="addr:postcode" v="78703"/></node><node id="-40" lat="30.283509" lon="-97.769423" changeset="false"><tag k="addr:street" v="Meriden Lane"/><tag k="addr:housenumber" v="1004"/><tag k="addr:postcode" v="78703"/></node><node id="-41" lat="30.281386" lon="-97.768126" changeset="false"><tag k="addr:street" v="Winsted Lane"/><tag k="addr:housenumber" v="802"/><tag k="addr:postcode" v="78703"/></node><node id="-42" lat="30.280164" lon="-97.771874" changeset="false"><tag k="addr:street" v="Hearn Street"/><tag k="addr:housenumber" v="611"/><tag k="addr:postcode" v="78703"/></node><node id="-43" lat="30.28625" lon="-97.765526" changeset="false"><tag k="addr:street" v="Enfield Road"/><tag k="addr:housenumber" v="2105"/><tag k="addr:postcode" v="78703"/></node><node id="-44" lat="30.2849" lon="-97.769188" changeset="false"><tag k="addr:street" v="West 12th Street"/><tag k="addr:housenumber" v="2207"/><tag k="addr:postcode" v="78703"/></node><node id="-45" lat="30.281453" lon="-97.773938" changeset="false"><tag k="addr:street" v="West 7th Street"/><tag k="addr:housenumber" v="2403"/><tag k="addr:postcode" v="78703"/></node><node id="-46" lat="30.281408" lon="-97.767985" changeset="false"><tag k="addr:street" v="Highgrove Terrace"/><tag k="addr:housenumber" v="2100"/><tag k="addr:postcode" v="78703"/></node><node id="-47" lat="30.27867" lon="-97.772877" changeset="false"><tag k="addr:street" v="Lake Austin Boulevard"/><tag k="addr:housenumber" v="2408"/><tag k="addr:postcode" v="78703"/></node><node id="-48" lat="30.280013" lon="-97.771253" changeset="false"><tag k="addr:street" v="Deep Eddy Avenue"/><tag k="addr:housenumber" v="614"/><tag k="addr:postcode" v="78703"/></node><node id="-49" lat="30.28354" lon="-97.766905" changeset="false"><tag k="addr:street" v="West 11th Street"/><tag k="addr:housenumber" v="2100"/><tag k="addr:postcode" v="78703"/></node><node id="-50" lat="30.283601" lon="-97.767083" changeset="false"><tag k="addr:street" v="West 11th Street"/><tag k="addr:housenumber" v="2102"/><tag k="addr:postcode" v="78703"/></node><node id="-51" lat="30.284277" lon="-97.766762" changeset="false"><tag k="addr:street" v="West 12th Street"/><tag k="addr:housenumber" v="2102"/><tag k="addr:postcode" v="78703"/></node><node id="-52" lat="30.284322" lon="-97.766828" changeset="false"><tag k="addr:street" v="Dailey Street"/><tag k="addr:housenumber" v="1201"/><tag k="addr:postcode" v="78703"/></node><node id="-53" lat="30.288697" lon="-97.769946" changeset="false"><tag k="addr:street" v="Possum Trot Street"/><tag k="addr:housenumber" v="1409"/><tag k="addr:postcode" v="78703"/></node><node id="-54" lat="30.288833" lon="-97.76981" changeset="false"><tag k="addr:street" v="Enfield Road"/><tag k="addr:housenumber" v="2413"/><tag k="addr:postcode" v="78703"/></node><node id="-55" lat="30.28505" lon="-97.769459" changeset="false"><tag k="addr:street" v="West 12th Street"/><tag k="addr:housenumber" v="2301"/><tag k="addr:postcode" v="78703"/></node><node id="-56" lat="30.285193" lon="-97.769547" changeset="false"><tag k="addr:street" v="West 12th Street"/><tag k="addr:housenumber" v="2303"/><tag k="addr:postcode" v="78703"/></node><node id="-57" lat="30.278435" lon="-97.772422" changeset="false"><tag k="addr:street" v="Lake Austin Boulevard"/><tag k="addr:housenumber" v="2402"/><tag k="addr:postcode" v="78703"/></node><node id="-58" lat="30.278415" lon="-97.772369" changeset="false"><tag k="addr:street" v="Lake Austin Boulevard"/><tag k="addr:housenumber" v="2400"/><tag k="addr:postcode" v="78703"/></node></osm>