<?xml version="1.0" encoding="UTF-8"?><osm version="0.6" generator="github.com/aaronlidman/osm-and-geojson"><node id="-1" lat="30.198371" lon="-97.860562" changeset="false"><tag k="addr:street" v="Walsall Loop"/><tag k="addr:housenumber" v="4624"/><tag k="coa:place_id" v="191096"/></node><node id="-2" lat="30.197795" lon="-97.860094" changeset="false"><tag k="addr:street" v="Walsall Loop"/><tag k="addr:housenumber" v="4609"/><tag k="coa:place_id" v="191127"/></node><node id="-3" lat="30.198469" lon="-97.857675" changeset="false"><tag k="addr:street" v="Whiteworth Loop"/><tag k="addr:housenumber" v="9025"/><tag k="coa:place_id" v="213121"/></node><node id="-4" lat="30.198504" lon="-97.861047" changeset="false"><tag k="addr:street" v="Walsall Loop"/><tag k="addr:housenumber" v="4636"/><tag k="coa:place_id" v="191100"/></node><node id="-5" lat="30.200667" lon="-97.860834" changeset="false"><tag k="addr:street" v="Ramies Run"/><tag k="addr:housenumber" v="4716"/><tag k="coa:place_id" v="223703"/></node><node id="-6" lat="30.195258" lon="-97.858189" changeset="false"><tag k="addr:street" v="Companeros Way"/><tag k="addr:housenumber" v="4321"/><tag k="coa:place_id" v="231103"/></node><node id="-7" lat="30.194722" lon="-97.856921" changeset="false"><tag k="addr:street" v="Bremner Drive"/><tag k="addr:housenumber" v="4348"/><tag k="coa:place_id" v="225263"/></node><node id="-8" lat="30.201592" lon="-97.859448" changeset="false"><tag k="addr:street" v="Lanna Bluff Loop"/><tag k="addr:housenumber" v="8916"/><tag k="coa:place_id" v="215274"/></node><node id="-9" lat="30.196383" lon="-97.859477" changeset="false"><tag k="addr:street" v="Bremner Drive"/><tag k="addr:housenumber" v="4505"/><tag k="coa:place_id" v="229535"/></node><node id="-10" lat="30.198465" lon="-97.8523" changeset="false"><tag k="addr:street" v="Ovalla Drive"/><tag k="addr:housenumber" v="8901 1/2"/><tag k="coa:place_id" v="3093320"/></node><node id="-11" lat="30.198211" lon="-97.856844" changeset="false"><tag k="addr:street" v="Contessa Court"/><tag k="addr:housenumber" v="9113"/><tag k="coa:place_id" v="213119"/></node><node id="-12" lat="30.198037" lon="-97.856254" changeset="false"><tag k="addr:street" v="Hoffman Cove"/><tag k="addr:housenumber" v="9112"/><tag k="coa:place_id" v="216868"/></node><node id="-13" lat="30.195994" lon="-97.858511" changeset="false"><tag k="addr:street" v="Bremner Drive"/><tag k="addr:housenumber" v="4451"/><tag k="coa:place_id" v="225186"/></node><node id="-14" lat="30.19965" lon="-97.857419" changeset="false"><tag k="addr:street" v="Whiteworth Loop"/><tag k="addr:housenumber" v="8938"/><tag k="coa:place_id" v="220849"/></node><node id="-15" lat="30.197949" lon="-97.855965" changeset="false"><tag k="addr:street" v="Hoffman Cove"/><tag k="addr:housenumber" v="9113"/><tag k="coa:place_id" v="216673"/></node><node id="-16" lat="30.194197" lon="-97.857215" changeset="false"><tag k="addr:street" v="Bremner Drive"/><tag k="addr:housenumber" v="4332"/><tag k="coa:place_id" v="225161"/></node><node id="-17" lat="30.190641" lon="-97.8458" changeset="false"><tag k="addr:street" v="Brodie Lane"/><tag k="addr:housenumber" v="9400"/><tag k="coa:place_id" v="3282768"/></node><node id="-18" lat="30.18794" lon="-97.84732" changeset="false"><tag k="addr:street" v="Brodie Lane"/><tag k="addr:housenumber" v="9608"/><tag k="coa:place_id" v="5112038"/></node><node id="-19" lat="30.199128" lon="-97.861006" changeset="false"><tag k="addr:street" v="Walsall Loop"/><tag k="addr:housenumber" v="4724"/><tag k="coa:place_id" v="191153"/></node><node id="-20" lat="30.195004" lon="-97.858838" changeset="false"><tag k="addr:street" v="Collazo Way"/><tag k="addr:housenumber" v="9404"/><tag k="coa:place_id" v="225217"/></node><node id="-21" lat="30.194449" lon="-97.858015" changeset="false"><tag k="addr:street" v="Collazo Way"/><tag k="addr:housenumber" v="9429"/><tag k="coa:place_id" v="225232"/></node><node id="-22" lat="30.20439" lon="-97.859719" changeset="false"><tag k="addr:street" v="Davis Lane,1100"/><tag k="addr:housenumber" v="4825"/><tag k="coa:place_id" v="257160"/></node><node id="-23" lat="30.198535" lon="-97.858687" changeset="false"><tag k="addr:street" v="Struie Lane"/><tag k="addr:housenumber" v="9200"/><tag k="coa:place_id" v="195727"/></node><node id="-24" lat="30.197303" lon="-97.858229" changeset="false"><tag k="addr:street" v="Walsall Loop"/><tag k="addr:housenumber" v="4413"/><tag k="coa:place_id" v="209987"/></node><node id="-25" lat="30.194722" lon="-97.844564" changeset="false"><tag k="addr:street" v="Deer Lane"/><tag k="addr:housenumber" v="3701 1/2"/><tag k="coa:place_id" v="3139532"/></node><node id="-26" lat="30.203001" lon="-97.858477" changeset="false"><tag k="addr:street" v="Davis Lane,1100"/><tag k="addr:housenumber" v="4715 1/2"/><tag k="coa:place_id" v="3041492"/></node><node id="-27" lat="30.198849" lon="-97.860682" changeset="false"><tag k="addr:street" v="Torran Cove"/><tag k="addr:housenumber" v="9108"/><tag k="coa:place_id" v="191076"/></node><node id="-28" lat="30.201494" lon="-97.857639" changeset="false"><tag k="addr:street" v="Copano Drive"/><tag k="addr:housenumber" v="8901"/><tag k="coa:place_id" v="215999"/></node><node id="-29" lat="30.197678" lon="-97.852731" changeset="false"><tag k="addr:street" v="Ovalla Drive"/><tag k="addr:housenumber" v="8917"/><tag k="coa:place_id" v="3066816"/></node><node id="-30" lat="30.197754" lon="-97.859936" changeset="false"><tag k="addr:street" v="Walsall Loop"/><tag k="addr:housenumber" v="4605"/><tag k="coa:place_id" v="191129"/></node><node id="-31" lat="30.196396" lon="-97.85714" changeset="false"><tag k="addr:street" v="Struie Lane"/><tag k="addr:housenumber" v="9311"/><tag k="coa:place_id" v="1140813"/></node><node id="-32" lat="30.199866" lon="-97.857949" changeset="false"><tag k="addr:street" v="Whiteworth Loop"/><tag k="addr:housenumber" v="8800"/><tag k="coa:place_id" v="224635"/></node><node id="-33" lat="30.200177" lon="-97.859122" changeset="false"><tag k="addr:street" v="Ramies Run"/><tag k="addr:housenumber" v="4600"/><tag k="coa:place_id" v="221947"/></node><node id="-34" lat="30.195326" lon="-97.857405" changeset="false"><tag k="addr:street" v="Companeros Way"/><tag k="addr:housenumber" v="4300"/><tag k="coa:place_id" v="237413"/></node><node id="-35" lat="30.193951" lon="-97.85844" changeset="false"><tag k="addr:street" v="Collazo Way"/><tag k="addr:housenumber" v="9432"/><tag k="coa:place_id" v="225229"/></node><node id="-36" lat="30.197678" lon="-97.855456" changeset="false"><tag k="addr:street" v="Corran Ferry Drive"/><tag k="addr:housenumber" v="9024"/><tag k="coa:place_id" v="220110"/></node><node id="-37" lat="30.201375" lon="-97.860447" changeset="false"><tag k="addr:street" v="Lanna Bluff Loop"/><tag k="addr:housenumber" v="9016"/><tag k="coa:place_id" v="227341"/></node><node id="-38" lat="30.201202" lon="-97.860617" changeset="false"><tag k="addr:street" v="Lanna Bluff Loop"/><tag k="addr:housenumber" v="9017"/><tag k="coa:place_id" v="227675"/></node><node id="-39" lat="30.198707" lon="-97.861444" changeset="false"><tag k="addr:street" v="Walsall Loop"/><tag k="addr:housenumber" v="4708"/><tag k="coa:place_id" v="200965"/></node><node id="-40" lat="30.198582" lon="-97.85797" changeset="false"><tag k="addr:street" v="Whiteworth Loop"/><tag k="addr:housenumber" v="9022"/><tag k="coa:place_id" v="211703"/></node><node id="-41" lat="30.195075" lon="-97.857394" changeset="false"><tag k="addr:street" v="Companeros Way"/><tag k="addr:housenumber" v="4301"/><tag k="coa:place_id" v="231105"/></node><node id="-42" lat="30.198793" lon="-97.860365" changeset="false"><tag k="addr:street" v="Torran Cove"/><tag k="addr:housenumber" v="9112"/><tag k="coa:place_id" v="191075"/></node><node id="-43" lat="30.186946" lon="-97.855018" changeset="false"><tag k="addr:street" v="West Slaughter Lane"/><tag k="addr:housenumber" v="3900 1/2"/><tag k="coa:place_id" v="3179122"/></node><node id="-44" lat="30.201914" lon="-97.860009" changeset="false"><tag k="addr:street" v="Sendera Mesa Drive"/><tag k="addr:housenumber" v="8913"/><tag k="coa:place_id" v="215287"/></node><node id="-45" lat="30.197629" lon="-97.85932" changeset="false"><tag k="addr:street" v="Walsall Loop"/><tag k="addr:housenumber" v="4509"/><tag k="coa:place_id" v="191136"/></node><node id="-46" lat="30.202011" lon="-97.858232" changeset="false"><tag k="addr:street" v="Lanna Bluff Loop"/><tag k="addr:housenumber" v="8819"/><tag k="coa:place_id" v="215242"/></node><node id="-47" lat="30.192189" lon="-97.845295" changeset="false"><tag k="addr:street" v="Brodie Lane"/><tag k="addr:housenumber" v="9220"/><tag k="coa:place_id" v="3187007"/></node><node id="-48" lat="30.199111" lon="-97.861698" changeset="false"><tag k="addr:street" v="Walsall Loop"/><tag k="addr:housenumber" v="4713"/><tag k="coa:place_id" v="191104"/></node><node id="-49" lat="30.197128" lon="-97.859416" changeset="false"><tag k="addr:street" v="Struie Lane"/><tag k="addr:housenumber" v="9310"/><tag k="coa:place_id" v="1140812"/></node><node id="-50" lat="30.199448" lon="-97.861306" changeset="false"><tag k="addr:street" v="Walsall Loop"/><tag k="addr:housenumber" v="4725"/><tag k="coa:place_id" v="1135628"/></node><node id="-51" lat="30.199275" lon="-97.860882" changeset="false"><tag k="addr:street" v="Walsall Loop"/><tag k="addr:housenumber" v="4728"/><tag k="coa:place_id" v="1162055"/></node><node id="-52" lat="30.195425" lon="-97.858816" changeset="false"><tag k="addr:street" v="Companeros Way"/><tag k="addr:housenumber" v="4409"/><tag k="coa:place_id" v="231083"/></node><node id="-53" lat="30.194136" lon="-97.857752" changeset="false"><tag k="addr:street" v="Bremner Drive"/><tag k="addr:housenumber" v="4325"/><tag k="coa:place_id" v="233187"/></node><node id="-54" lat="30.198943" lon="-97.862005" changeset="false"><tag k="addr:street" v="Walsall Loop"/><tag k="addr:housenumber" v="4705"/><tag k="coa:place_id" v="191106"/></node><node id="-55" lat="30.195359" lon="-97.858556" changeset="false"><tag k="addr:street" v="Companeros Way"/><tag k="addr:housenumber" v="4401"/><tag k="coa:place_id" v="231102"/></node><node id="-56" lat="30.202143" lon="-97.858777" changeset="false"><tag k="addr:street" v="Lanna Bluff Loop"/><tag k="addr:housenumber" v="8900"/><tag k="coa:place_id" v="229089"/></node><node id="-57" lat="30.199028" lon="-97.861824" changeset="false"><tag k="addr:street" v="Walsall Loop"/><tag k="addr:housenumber" v="4709"/><tag k="coa:place_id" v="191105"/></node><node id="-58" lat="30.191159" lon="-97.845323" changeset="false"><tag k="addr:street" v="Brodie Lane"/><tag k="addr:housenumber" v="9312"/><tag k="coa:place_id" v="3516098"/></node><node id="-59" lat="30.195677" lon="-97.858797" changeset="false"><tag k="addr:street" v="Companeros Way"/><tag k="addr:housenumber" v="4412"/><tag k="coa:place_id" v="225249"/></node><node id="-60" lat="30.198307" lon="-97.85712" changeset="false"><tag k="addr:street" v="Contessa Court"/><tag k="addr:housenumber" v="9108"/><tag k="coa:place_id" v="215581"/></node><node id="-61" lat="30.19938" lon="-97.854429" changeset="false"><tag k="addr:street" v="Campo Verde Drive"/><tag k="addr:housenumber" v="4300"/><tag k="coa:place_id" v="225115"/></node><node id="-62" lat="30.196387" lon="-97.854526" changeset="false"><tag k="addr:street" v="Hoffman Drive"/><tag k="addr:housenumber" v="4209"/><tag k="coa:place_id" v="3067165"/></node><node id="-63" lat="30.194853" lon="-97.856872" changeset="false"><tag k="addr:street" v="Bremner Drive"/><tag k="addr:housenumber" v="4352"/><tag k="coa:place_id" v="225264"/></node><node id="-64" lat="30.198059" lon="-97.857811" changeset="false"><tag k="addr:street" v="Hoffman Drive"/><tag k="addr:housenumber" v="4511"/><tag k="coa:place_id" v="210001"/></node><node id="-65" lat="30.197654" lon="-97.859497" changeset="false"><tag k="addr:street" v="Walsall Loop"/><tag k="addr:housenumber" v="4513"/><tag k="coa:place_id" v="191135"/></node><node id="-66" lat="30.198074" lon="-97.861162" changeset="false"><tag k="addr:street" v="Walsall Loop"/><tag k="addr:housenumber" v="4637"/><tag k="coa:place_id" v="191118"/></node><node id="-67" lat="30.199449" lon="-97.857581" changeset="false"><tag k="addr:street" v="Ramies Run"/><tag k="addr:housenumber" v="4501"/><tag k="coa:place_id" v="226528"/></node><node id="-68" lat="30.195835" lon="-97.857268" changeset="false"><tag k="addr:street" v="Bremner Drive"/><tag k="addr:housenumber" v="4423"/><tag k="coa:place_id" v="228451"/></node><node id="-69" lat="30.19156" lon="-97.845415" changeset="false"><tag k="addr:street" v="Brodie Lane"/><tag k="addr:housenumber" v="9300"/><tag k="coa:place_id" v="3180122"/></node><node id="-70" lat="30.202687" lon="-97.858767" changeset="false"><tag k="addr:street" v="Lanna Bluff Loop"/><tag k="addr:housenumber" v="8801"/><tag k="coa:place_id" v="215238"/></node><node id="-71" lat="30.19613" lon="-97.859013" changeset="false"><tag k="addr:street" v="Bremner Drive"/><tag k="addr:housenumber" v="4463"/><tag k="coa:place_id" v="225181"/></node><node id="-72" lat="30.200336" lon="-97.86384" changeset="false"><tag k="addr:street" v="West Slaughter Lane"/><tag k="addr:housenumber" v="5000"/><tag k="coa:place_id" v="3099734"/></node><node id="-73" lat="30.195354" lon="-97.846049" changeset="false"><tag k="addr:street" v="Deer Lane"/><tag k="addr:housenumber" v="3705 1/2"/><tag k="coa:place_id" v="3077846"/></node><node id="-74" lat="30.197517" lon="-97.855227" changeset="false"><tag k="addr:street" v="Corran Ferry Drive"/><tag k="addr:housenumber" v="9029"/><tag k="coa:place_id" v="216867"/></node><node id="-75" lat="30.19354" lon="-97.857621" changeset="false"><tag k="addr:street" v="Bremner Drive"/><tag k="addr:housenumber" v="4316"/><tag k="coa:place_id" v="225203"/></node><node id="-76" lat="30.189058" lon="-97.856041" changeset="false"><tag k="addr:street" v="West Slaughter Lane"/><tag k="addr:housenumber" v="4100"/><tag k="coa:place_id" v="3219617"/></node><node id="-77" lat="30.206498" lon="-97.860565" changeset="false"><tag k="addr:street" v="Davis Lane,1100"/><tag k="addr:housenumber" v="4929"/><tag k="coa:place_id" v="3292078"/></node><node id="-78" lat="30.195996" lon="-97.854658" changeset="false"><tag k="addr:street" v="Ovalla Drive"/><tag k="addr:housenumber" v="9108"/><tag k="coa:place_id" v="5217010"/></node><node id="-79" lat="30.196877" lon="-97.860331" changeset="false"><tag k="addr:street" v="West Slaughter Lane"/><tag k="addr:housenumber" v="4600"/><tag k="coa:place_id" v="3429852"/></node><node id="-80" lat="30.195822" lon="-97.853929" changeset="false"><tag k="addr:street" v="Ovalla Drive"/><tag k="addr:housenumber" v="9109"/><tag k="coa:place_id" v="3429857"/></node><node id="-81" lat="30.199207" lon="-97.861579" changeset="false"><tag k="addr:street" v="Walsall Loop"/><tag k="addr:housenumber" v="4717"/><tag k="coa:place_id" v="191103"/></node><node id="-82" lat="30.194891" lon="-97.844553" changeset="false"><tag k="addr:street" v="Deer Lane"/><tag k="addr:housenumber" v="3701"/><tag k="coa:place_id" v="3516099"/></node><node id="-83" lat="30.201692" lon="-97.8602" changeset="false"><tag k="addr:street" v="Sendera Mesa Drive"/><tag k="addr:housenumber" v="8917"/><tag k="coa:place_id" v="215291"/></node><node id="-84" lat="30.193104" lon="-97.858297" changeset="false"><tag k="addr:street" v="West Slaughter Lane"/><tag k="addr:housenumber" v="4314"/><tag k="coa:place_id" v="3032521"/></node><node id="-85" lat="30.196465" lon="-97.858856" changeset="false"><tag k="addr:street" v="Bremner Drive"/><tag k="addr:housenumber" v="4460"/><tag k="coa:place_id" v="234899"/></node><node id="-86" lat="30.197859" lon="-97.858401" changeset="false"><tag k="addr:street" v="Walsall Loop"/><tag k="addr:housenumber" v="4420"/><tag k="coa:place_id" v="200425"/></node><node id="-87" lat="30.194864" lon="-97.858129" changeset="false"><tag k="addr:street" v="Collazo Way"/><tag k="addr:housenumber" v="9405"/><tag k="coa:place_id" v="225235"/></node><node id="-88" lat="30.199446" lon="-97.857967" changeset="false"><tag k="addr:street" v="Ramies Run"/><tag k="addr:housenumber" v="4509"/><tag k="coa:place_id" v="210053"/></node><node id="-89" lat="30.198618" lon="-97.8526" changeset="false"><tag k="addr:street" v="Ovalla Drive"/><tag k="addr:housenumber" v="8900 1/2"/><tag k="coa:place_id" v="3093319"/></node><node id="-90" lat="30.185867" lon="-97.848737" changeset="false"><tag k="addr:street" v="Brodie Lane"/><tag k="addr:housenumber" v="9900"/><tag k="coa:place_id" v="5109734"/></node><node id="-91" lat="30.197494" lon="-97.857471" changeset="false"><tag k="addr:street" v="Walsall Loop"/><tag k="addr:housenumber" v="4400"/><tag k="coa:place_id" v="214296"/></node><node id="-92" lat="30.199084" lon="-97.85621" changeset="false"><tag k="addr:street" v="Campo Verde Drive"/><tag k="addr:housenumber" v="4451"/><tag k="coa:place_id" v="221467"/></node><node id="-93" lat="30.199026" lon="-97.858464" changeset="false"><tag k="addr:street" v="Hoffman Drive"/><tag k="addr:housenumber" v="4604"/><tag k="coa:place_id" v="191061"/></node><node id="-94" lat="30.193864" lon="-97.857919" changeset="false"><tag k="addr:street" v="Bremner Drive"/><tag k="addr:housenumber" v="4319"/><tag k="coa:place_id" v="231106"/></node><node id="-95" lat="30.196574" lon="-97.859234" changeset="false"><tag k="addr:street" v="Bremner Drive"/><tag k="addr:housenumber" v="4500"/><tag k="coa:place_id" v="229275"/></node><node id="-96" lat="30.197642" lon="-97.857878" changeset="false"><tag k="addr:street" v="Walsall Loop"/><tag k="addr:housenumber" v="4408"/><tag k="coa:place_id" v="209994"/></node><node id="-97" lat="30.192954" lon="-97.858059" changeset="false"><tag k="addr:street" v="Bremner Drive"/><tag k="addr:housenumber" v="4300"/><tag k="coa:place_id" v="239027"/></node><node id="-98" lat="30.195658" lon="-97.857538" changeset="false"><tag k="addr:street" v="Bremner Drive"/><tag k="addr:housenumber" v="4427"/><tag k="coa:place_id" v="225197"/></node><node id="-99" lat="30.201168" lon="-97.859713" changeset="false"><tag k="addr:street" v="Lanna Bluff Loop"/><tag k="addr:housenumber" v="9000"/><tag k="coa:place_id" v="229087"/></node><node id="-100" lat="30.187604" lon="-97.848283" changeset="false"><tag k="addr:street" v="Brodie Lane"/><tag k="addr:housenumber" v="9612"/><tag k="coa:place_id" v="200627"/></node><node id="-101" lat="30.202626" lon="-97.859157" changeset="false"><tag k="addr:street" v="Sendera Mesa Drive"/><tag k="addr:housenumber" v="8807"/><tag k="coa:place_id" v="226998"/></node><node id="-102" lat="30.203703" lon="-97.859118" changeset="false"><tag k="addr:street" v="Davis Lane,1100"/><tag k="addr:housenumber" v="4717"/><tag k="coa:place_id" v="1140847"/></node><node id="-103" lat="30.192584" lon="-97.84496" changeset="false"><tag k="addr:street" v="Brodie Lane"/><tag k="addr:housenumber" v="9200"/><tag k="coa:place_id" v="3139652"/></node><node id="-104" lat="30.198002" lon="-97.860852" changeset="false"><tag k="addr:street" v="Walsall Loop"/><tag k="addr:housenumber" v="4629"/><tag k="coa:place_id" v="191121"/></node><node id="-105" lat="30.197147" lon="-97.860542" changeset="false"><tag k="addr:street" v="West Slaughter Lane"/><tag k="addr:housenumber" v="4606"/><tag k="coa:place_id" v="3032519"/></node><node id="-106" lat="30.199166" lon="-97.857857" changeset="false"><tag k="addr:street" v="Whiteworth Loop"/><tag k="addr:housenumber" v="9010"/><tag k="coa:place_id" v="1140809"/></node><node id="-107" lat="30.195174" lon="-97.854836" changeset="false"><tag k="addr:street" v="Ovalla Drive"/><tag k="addr:housenumber" v="9204"/><tag k="coa:place_id" v="3067174"/></node><node id="-108" lat="30.197582" lon="-97.859182" changeset="false"><tag k="addr:street" v="Walsall Loop"/><tag k="addr:housenumber" v="4505"/><tag k="coa:place_id" v="191137"/></node><node id="-109" lat="30.200253" lon="-97.857046" changeset="false"><tag k="addr:street" v="Whiteworth Loop"/><tag k="addr:housenumber" v="8920"/><tag k="coa:place_id" v="216675"/></node><node id="-110" lat="30.200111" lon="-97.858792" changeset="false"><tag k="addr:street" v="Copano Drive"/><tag k="addr:housenumber" v="9023"/><tag k="coa:place_id" v="220111"/></node><node id="-111" lat="30.199938" lon="-97.858249" changeset="false"><tag k="addr:street" v="Whiteworth Loop"/><tag k="addr:housenumber" v="8801"/><tag k="coa:place_id" v="215584"/></node><node id="-112" lat="30.194517" lon="-97.855811" changeset="false"><tag k="addr:street" v="Ovalla Drive"/><tag k="addr:housenumber" v="9218 1/2"/><tag k="coa:place_id" v="3085126"/></node><node id="-113" lat="30.197014" lon="-97.853869" changeset="false"><tag k="addr:street" v="Ovalla Cove"/><tag k="addr:housenumber" v="4205"/><tag k="coa:place_id" v="3066792"/></node><node id="-114" lat="30.197964" lon="-97.860699" changeset="false"><tag k="addr:street" v="Walsall Loop"/><tag k="addr:housenumber" v="4625"/><tag k="coa:place_id" v="191123"/></node><node id="-115" lat="30.198006" lon="-97.857646" changeset="false"><tag k="addr:street" v="Hoffman Drive"/><tag k="addr:housenumber" v="4507"/><tag k="coa:place_id" v="210005"/></node><node id="-116" lat="30.193151" lon="-97.857873" changeset="false"><tag k="addr:street" v="Bremner Drive"/><tag k="addr:housenumber" v="4304"/><tag k="coa:place_id" v="225154"/></node></osm>