<?xml version="1.0" encoding="UTF-8"?><osm version="0.6" generator="github.com/aaronlidman/osm-and-geojson"><node id="-1" lat="30.283057" lon="-97.757486" changeset="false"><tag k="addr:street" v="Enfield Road"/><tag k="addr:housenumber" v="1520"/><tag k="coa:place_id" v="233998"/></node><node id="-2" lat="30.279655" lon="-97.75467" changeset="false"><tag k="addr:street" v="West 13th Street"/><tag k="addr:housenumber" v="1212"/><tag k="coa:place_id" v="392252"/></node><node id="-3" lat="30.277581" lon="-97.753161" changeset="false"><tag k="addr:street" v="Castle Hill Street"/><tag k="addr:housenumber" v="1201"/><tag k="coa:place_id" v="392678"/></node><node id="-4" lat="30.284612" lon="-97.756456" changeset="false"><tag k="addr:street" v="Windsor Road,1100"/><tag k="addr:housenumber" v="1710"/><tag k="coa:place_id" v="393392"/></node><node id="-5" lat="30.277275" lon="-97.750791" changeset="false"><tag k="addr:street" v="West 12th Street"/><tag k="addr:housenumber" v="908"/><tag k="coa:place_id" v="415653"/></node><node id="-6" lat="30.282672" lon="-97.756576" changeset="false"><tag k="addr:street" v="Enfield Road"/><tag k="addr:housenumber" v="1508"/><tag k="coa:place_id" v="353294"/></node><node id="-7" lat="30.282271" lon="-97.754781" changeset="false"><tag k="addr:street" v="Windsor Road,1100"/><tag k="addr:housenumber" v="1600"/><tag k="coa:place_id" v="353378"/></node><node id="-8" lat="30.281906" lon="-97.755267" changeset="false"><tag k="addr:street" v="Enfield Road"/><tag k="addr:housenumber" v="1406"/><tag k="coa:place_id" v="353354"/></node><node id="-9" lat="30.277772" lon="-97.752496" changeset="false"><tag k="addr:street" v="Baylor Street"/><tag k="addr:housenumber" v="1204"/><tag k="coa:place_id" v="392708"/></node><node id="-10" lat="30.279489" lon="-97.754325" changeset="false"><tag k="addr:street" v="West 13th Street"/><tag k="addr:housenumber" v="1210"/><tag k="coa:place_id" v="392240"/></node><node id="-11" lat="30.279246" lon="-97.755213" changeset="false"><tag k="addr:street" v="Shelley Avenue"/><tag k="addr:housenumber" v="1208"/><tag k="coa:place_id" v="392228"/></node><node id="-12" lat="30.277919" lon="-97.753669" changeset="false"><tag k="addr:street" v="Castle Hill Street"/><tag k="addr:housenumber" v="1200"/><tag k="coa:place_id" v="188595"/></node><node id="-13" lat="30.286949" lon="-97.75549" changeset="false"><tag k="addr:street" v="Windsor Road,1100"/><tag k="addr:housenumber" v="2209"/><tag k="coa:place_id" v="393764"/></node><node id="-14" lat="30.281269" lon="-97.753928" changeset="false"><tag k="addr:street" v="Windsor Road,1100"/><tag k="addr:housenumber" v="1508"/><tag k="coa:place_id" v="751624"/></node><node id="-15" lat="30.279101" lon="-97.755294" changeset="false"><tag k="addr:street" v="Shelley Avenue"/><tag k="addr:housenumber" v="1206"/><tag k="coa:place_id" v="392186"/></node><node id="-16" lat="30.28547" lon="-97.756203" changeset="false"><tag k="addr:street" v="Rainbow Bend"/><tag k="addr:housenumber" v="1511"/><tag k="coa:place_id" v="393632"/></node><node id="-17" lat="30.284181" lon="-97.756797" changeset="false"><tag k="addr:street" v="Murray Lane"/><tag k="addr:housenumber" v="1517"/><tag k="coa:place_id" v="393422"/></node><node id="-18" lat="30.284157" lon="-97.756137" changeset="false"><tag k="addr:street" v="Windsor Road,1100"/><tag k="addr:housenumber" v="1706"/><tag k="coa:place_id" v="393380"/></node><node id="-19" lat="30.280416" lon="-97.751206" changeset="false"><tag k="addr:street" v="Kingsbury Street"/><tag k="addr:housenumber" v="1005"/><tag k="coa:place_id" v="393092"/></node><node id="-20" lat="30.279548" lon="-97.755496" changeset="false"><tag k="addr:street" v="Lorrain Street"/><tag k="addr:housenumber" v="1211"/><tag k="coa:place_id" v="392096"/></node><node id="-21" lat="30.286424" lon="-97.756025" changeset="false"><tag k="addr:street" v="Windsor Road,1100"/><tag k="addr:housenumber" v="2201"/><tag k="coa:place_id" v="256749"/></node><node id="-22" lat="30.277782" lon="-97.753064" changeset="false"><tag k="addr:street" v="Castle Hill Street"/><tag k="addr:housenumber" v="1203"/><tag k="coa:place_id" v="392672"/></node><node id="-23" lat="30.283689" lon="-97.757191" changeset="false"><tag k="addr:street" v="West Lynn Street"/><tag k="addr:housenumber" v="1507"/><tag k="coa:place_id" v="252353"/></node><node id="-24" lat="30.279794" lon="-97.753343" changeset="false"><tag k="addr:street" v="Enfield Road"/><tag k="addr:housenumber" v="1117"/><tag k="coa:place_id" v="392582"/></node><node id="-25" lat="30.287381" lon="-97.75495" changeset="false"><tag k="addr:street" v="Windsor Road,1100"/><tag k="addr:housenumber" v="2213"/><tag k="coa:place_id" v="123617"/></node><node id="-26" lat="30.282121" lon="-97.754988" changeset="false"><tag k="addr:street" v="Lorrain Street"/><tag k="addr:housenumber" v="1504"/><tag k="coa:place_id" v="353372"/></node><node id="-27" lat="30.281176" lon="-97.751377" changeset="false"><tag k="addr:street" v="Kingsbury Street"/><tag k="addr:housenumber" v="1100"/><tag k="coa:place_id" v="393104"/></node><node id="-28" lat="30.283435" lon="-97.757024" changeset="false"><tag k="addr:street" v="Murray Lane"/><tag k="addr:housenumber" v="1504"/><tag k="coa:place_id" v="393512"/></node><node id="-29" lat="30.278382" lon="-97.753426" changeset="false"><tag k="addr:street" v="Castle Hill Street"/><tag k="addr:housenumber" v="1204"/><tag k="coa:place_id" v="392492"/></node><node id="-30" lat="30.284974" lon="-97.756006" changeset="false"><tag k="addr:street" v="Windsor Road,1100"/><tag k="addr:housenumber" v="1711"/><tag k="coa:place_id" v="393398"/></node><node id="-31" lat="30.277368" lon="-97.75159" changeset="false"><tag k="addr:street" v="North Lamar Boulevard"/><tag k="addr:housenumber" v="1204"/><tag k="coa:place_id" v="392930"/></node><node id="-32" lat="30.278844" lon="-97.755895" changeset="false"><tag k="addr:street" v="Lorrain Street"/><tag k="addr:housenumber" v="1201"/><tag k="coa:place_id" v="247500"/></node><node id="-33" lat="30.278833" lon="-97.753183" changeset="false"><tag k="addr:street" v="Castle Hill Street"/><tag k="addr:housenumber" v="1208"/><tag k="coa:place_id" v="392552"/></node><node id="-34" lat="30.286814" lon="-97.755068" changeset="false"><tag k="addr:street" v="A Lane,1100"/><tag k="addr:housenumber" v="2209"/><tag k="coa:place_id" v="393686"/></node><node id="-35" lat="30.278589" lon="-97.752088" changeset="false"><tag k="addr:street" v="Baylor Street"/><tag k="addr:housenumber" v="1218"/><tag k="coa:place_id" v="392744"/></node><node id="-36" lat="30.278415" lon="-97.754653" changeset="false"><tag k="addr:street" v="West 12th Street"/><tag k="addr:housenumber" v="1208"/><tag k="coa:place_id" v="392342"/></node><node id="-37" lat="30.282997" lon="-97.757242" changeset="false"><tag k="addr:street" v="Enfield Road"/><tag k="addr:housenumber" v="1518"/><tag k="coa:place_id" v="353276"/></node><node id="-38" lat="30.282943" lon="-97.757018" changeset="false"><tag k="addr:street" v="Murray Lane"/><tag k="addr:housenumber" v="1500"/><tag k="coa:place_id" v="502521"/></node><node id="-39" lat="30.284957" lon="-97.756678" changeset="false"><tag k="addr:street" v="Windsor Road,1100"/><tag k="addr:housenumber" v="1712"/><tag k="coa:place_id" v="393404"/></node><node id="-40" lat="30.287481" lon="-97.755553" changeset="false"><tag k="addr:street" v="Windsor Road,1100"/><tag k="addr:housenumber" v="2206"/><tag k="coa:place_id" v="393794"/></node><node id="-41" lat="30.280441" lon="-97.754327" changeset="false"><tag k="addr:street" v="Enfield Road"/><tag k="addr:housenumber" v="1205"/><tag k="coa:place_id" v="353444"/></node><node id="-42" lat="30.28518" lon="-97.756042" changeset="false"><tag k="addr:street" v="Rainbow Bend"/><tag k="addr:housenumber" v="1509"/><tag k="coa:place_id" v="1126048"/></node><node id="-43" lat="30.285221" lon="-97.755755" changeset="false"><tag k="addr:street" v="Rainbow Bend"/><tag k="addr:housenumber" v="1505"/><tag k="coa:place_id" v="393650"/></node><node id="-44" lat="30.278605" lon="-97.753302" changeset="false"><tag k="addr:street" v="Castle Hill Street"/><tag k="addr:housenumber" v="1206"/><tag k="coa:place_id" v="243599"/></node><node id="-45" lat="30.278738" lon="-97.75575" changeset="false"><tag k="addr:street" v="West 12th Street"/><tag k="addr:housenumber" v="1308"/><tag k="coa:place_id" v="392162"/></node><node id="-46" lat="30.28029" lon="-97.753914" changeset="false"><tag k="addr:street" v="Enfield Road"/><tag k="addr:housenumber" v="1209"/><tag k="coa:place_id" v="245021"/></node><node id="-47" lat="30.27753" lon="-97.752144" changeset="false"><tag k="addr:street" v="Baylor Street"/><tag k="addr:housenumber" v="1203 1/2"/><tag k="coa:place_id" v="392894"/></node><node id="-48" lat="30.279306" lon="-97.753094" changeset="false"><tag k="addr:street" v="Windsor Road,1100"/><tag k="addr:housenumber" v="1212 1/2"/><tag k="coa:place_id" v="3102561"/></node><node id="-49" lat="30.278371" lon="-97.754651" changeset="false"><tag k="addr:street" v="West 12th Street"/><tag k="addr:housenumber" v="1208 1/2"/><tag k="coa:place_id" v="96189"/></node><node id="-50" lat="30.285928" lon="-97.755309" changeset="false"><tag k="addr:street" v="A Lane,1100"/><tag k="addr:housenumber" v="2107"/><tag k="coa:place_id" v="393716"/></node><node id="-51" lat="30.285007" lon="-97.755308" changeset="false"><tag k="addr:street" v="Rainbow Bend"/><tag k="addr:housenumber" v="1501"/><tag k="coa:place_id" v="3160542"/></node><node id="-52" lat="30.278672" lon="-97.75554" changeset="false"><tag k="addr:street" v="Shelley Avenue"/><tag k="addr:housenumber" v="1200"/><tag k="coa:place_id" v="392168"/></node><node id="-53" lat="30.278957" lon="-97.755374" changeset="false"><tag k="addr:street" v="Shelley Avenue"/><tag k="addr:housenumber" v="1204"/><tag k="coa:place_id" v="392180"/></node><node id="-54" lat="30.283494" lon="-97.756385" changeset="false"><tag k="addr:street" v="Murray Lane"/><tag k="addr:housenumber" v="1509"/><tag k="coa:place_id" v="402621"/></node><node id="-55" lat="30.278504" lon="-97.754829" changeset="false"><tag k="addr:street" v="West 12th Street"/><tag k="addr:housenumber" v="1210"/><tag k="coa:place_id" v="392336"/></node><node id="-56" lat="30.278595" lon="-97.755021" changeset="false"><tag k="addr:street" v="West 12th Street"/><tag k="addr:housenumber" v="1212"/><tag k="coa:place_id" v="392330"/></node><node id="-57" lat="30.282095" lon="-97.755623" changeset="false"><tag k="addr:street" v="Marshall Lane"/><tag k="addr:housenumber" v="1503"/><tag k="coa:place_id" v="353342"/></node><node id="-58" lat="30.284338" lon="-97.756928" changeset="false"><tag k="addr:street" v="Murray Lane"/><tag k="addr:housenumber" v="1519"/><tag k="coa:place_id" v="393416"/></node><node id="-59" lat="30.28053" lon="-97.754272" changeset="false"><tag k="addr:street" v="Enfield Road"/><tag k="addr:housenumber" v="1239"/><tag k="coa:place_id" v="89360"/></node><node id="-60" lat="30.280385" lon="-97.754985" changeset="false"><tag k="addr:street" v="Lorrain Street"/><tag k="addr:housenumber" v="1401"/><tag k="coa:place_id" v="247509"/></node><node id="-61" lat="30.286047" lon="-97.755678" changeset="false"><tag k="addr:street" v="A Lane,1100"/><tag k="addr:housenumber" v="2108"/><tag k="coa:place_id" v="393740"/></node><node id="-62" lat="30.281482" lon="-97.753863" changeset="false"><tag k="addr:street" v="Windsor Road,1100"/><tag k="addr:housenumber" v="1510"/><tag k="coa:place_id" v="393338"/></node><node id="-63" lat="30.279717" lon="-97.752256" changeset="false"><tag k="addr:street" v="Enfield Road"/><tag k="addr:housenumber" v="1104"/><tag k="coa:place_id" v="393158"/></node><node id="-64" lat="30.283262" lon="-97.756348" changeset="false"><tag k="addr:street" v="Murray Lane"/><tag k="addr:housenumber" v="1507"/><tag k="coa:place_id" v="393458"/></node><node id="-65" lat="30.279716" lon="-97.753992" changeset="false"><tag k="addr:street" v="Windsor Road,1100"/><tag k="addr:housenumber" v="1404"/><tag k="coa:place_id" v="392426"/></node><node id="-66" lat="30.278153" lon="-97.753548" changeset="false"><tag k="addr:street" v="Castle Hill Street"/><tag k="addr:housenumber" v="1202"/><tag k="coa:place_id" v="392486"/></node><node id="-67" lat="30.282415" lon="-97.754997" changeset="false"><tag k="addr:street" v="Windsor Road,1100"/><tag k="addr:housenumber" v="1608"/><tag k="coa:place_id" v="393362"/></node><node id="-68" lat="30.282442" lon="-97.754973" changeset="false"><tag k="addr:street" v="Windsor Road,1100"/><tag k="addr:housenumber" v="1606"/><tag k="coa:place_id" v="393356"/></node><node id="-69" lat="30.27693" lon="-97.750432" changeset="false"><tag k="addr:street" v="West 12th Street"/><tag k="addr:housenumber" v="904"/><tag k="coa:place_id" v="253075"/></node><node id="-70" lat="30.276718" lon="-97.75041" changeset="false"><tag k="addr:street" v="West 12th Street"/><tag k="addr:housenumber" v="900"/><tag k="coa:place_id" v="168506"/></node><node id="-71" lat="30.276938" lon="-97.750927" changeset="false"><tag k="addr:street" v="West 12th Street"/><tag k="addr:housenumber" v="916"/><tag k="coa:place_id" v="168482"/></node><node id="-72" lat="30.277092" lon="-97.75111" changeset="false"><tag k="addr:street" v="West 12th Street"/><tag k="addr:housenumber" v="922"/><tag k="coa:place_id" v="168446"/></node><node id="-73" lat="30.277033" lon="-97.750909" changeset="false"><tag k="addr:street" v="West 12th Street"/><tag k="addr:housenumber" v="918"/><tag k="coa:place_id" v="389024"/></node><node id="-74" lat="30.277125" lon="-97.750984" changeset="false"><tag k="addr:street" v="North Lamar Boulevard"/><tag k="addr:housenumber" v="1205"/><tag k="coa:place_id" v="388928"/></node><node id="-75" lat="30.277639" lon="-97.752434" changeset="false"><tag k="addr:street" v="Baylor Street"/><tag k="addr:housenumber" v="1202"/><tag k="coa:place_id" v="242311"/></node><node id="-76" lat="30.277465" lon="-97.752538" changeset="false"><tag k="addr:street" v="Baylor Street"/><tag k="addr:housenumber" v="1200"/><tag k="coa:place_id" v="543922"/></node></osm>