<?xml version="1.0" encoding="UTF-8"?><osm version="0.6" generator="github.com/aaronlidman/osm-and-geojson"><node id="-1" lat="30.408111" lon="-97.649151" changeset="false"><tag k="addr:street" v="Weatherford Drive"/><tag k="addr:housenumber" v="1000"/><tag k="addr:postcode" v="78753"/></node><node id="-2" lat="30.405802" lon="-97.645423" changeset="false"><tag k="addr:street" v="Weatherford Drive"/><tag k="addr:housenumber" v="1308"/><tag k="addr:postcode" v="78753"/></node><node id="-3" lat="30.405262" lon="-97.650625" changeset="false"><tag k="addr:street" v="Bennington Lane"/><tag k="addr:housenumber" v="13115"/><tag k="addr:postcode" v="78753"/></node><node id="-4" lat="30.400705" lon="-97.642521" changeset="false"><tag k="addr:street" v="Dessau Ridge Lane"/><tag k="addr:housenumber" v="1509"/><tag k="addr:postcode" v="78754"/></node><node id="-5" lat="30.397045" lon="-97.645821" changeset="false"><tag k="addr:street" v="Collindale Drive"/><tag k="addr:housenumber" v="1516"/><tag k="addr:postcode" v="78753"/></node><node id="-6" lat="30.39069" lon="-97.647984" changeset="false"><tag k="addr:street" v="Dessau Road"/><tag k="addr:housenumber" v="12410"/><tag k="addr:postcode" v="78753"/></node><node id="-7" lat="30.422909" lon="-97.671138" changeset="false"><tag k="addr:street" v="North Interstate Highway 35 Svc Rd; I- 35 Service Road North"/><tag k="addr:housenumber" v="13611 1/2"/><tag k="addr:postcode" v="78753"/></node><node id="-8" lat="30.396784" lon="-97.649131" changeset="false"><tag k="addr:street" v="Bartholdi Street"/><tag k="addr:housenumber" v="12700"/><tag k="addr:postcode" v="78753"/></node><node id="-9" lat="30.388407" lon="-97.650034" changeset="false"><tag k="addr:street" v="East Parmer Lane"/><tag k="addr:housenumber" v="1606"/><tag k="addr:postcode" v="78753"/></node><node id="-10" lat="30.405485" lon="-97.647608" changeset="false"><tag k="addr:street" v="Haverford Drive"/><tag k="addr:housenumber" v="1206"/><tag k="addr:postcode" v="78753"/></node><node id="-11" lat="30.408124" lon="-97.667455" changeset="false"><tag k="addr:street" v="Center Lake Drive"/><tag k="addr:housenumber" v="13001"/><tag k="addr:postcode" v="78753"/></node><node id="-12" lat="30.392921" lon="-97.648179" changeset="false"><tag k="addr:street" v="Knowell Drive"/><tag k="addr:housenumber" v="12417"/><tag k="addr:postcode" v="78753"/></node><node id="-13" lat="30.393262" lon="-97.647972" changeset="false"><tag k="addr:street" v="Knowell Drive"/><tag k="addr:housenumber" v="12429"/><tag k="addr:postcode" v="78753"/></node><node id="-14" lat="30.407973" lon="-97.648862" changeset="false"><tag k="addr:street" v="Weatherford Drive"/><tag k="addr:housenumber" v="1004"/><tag k="addr:postcode" v="78753"/></node><node id="-15" lat="30.420615" lon="-97.671356" changeset="false"><tag k="addr:street" v="North Interstate Highway 35 Svc Rd; I- 35 Service Road North"/><tag k="addr:housenumber" v="13501"/><tag k="addr:postcode" v="78753"/></node><node id="-16" lat="30.400693" lon="-97.646255" changeset="false"><tag k="addr:street" v="Weatherford Drive"/><tag k="addr:housenumber" v="1620"/><tag k="addr:postcode" v="78754"/></node><node id="-17" lat="30.399337" lon="-97.654093" changeset="false"><tag k="addr:street" v="Harrisglenn Drive"/><tag k="addr:housenumber" v="12701"/><tag k="addr:postcode" v="78753"/></node><node id="-18" lat="30.414616" lon="-97.663865" changeset="false"><tag k="addr:street" v="Center Ridge Drive"/><tag k="addr:housenumber" v="400"/><tag k="addr:postcode" v="78753"/></node><node id="-19" lat="30.414895" lon="-97.655726" changeset="false"><tag k="addr:street" v="East Howard Lane"/><tag k="addr:housenumber" v="315"/><tag k="addr:postcode" v="78753"/></node><node id="-20" lat="30.412764" lon="-97.652241" changeset="false"><tag k="addr:street" v="East Howard Lane"/><tag k="addr:housenumber" v="709"/><tag k="addr:postcode" v="78753"/></node><node id="-21" lat="30.389081" lon="-97.647828" changeset="false"><tag k="addr:street" v="Dessau Road"/><tag k="addr:housenumber" v="12320"/><tag k="addr:postcode" v="78753"/></node><node id="-22" lat="30.39281" lon="-97.648257" changeset="false"><tag k="addr:street" v="Knowell Drive"/><tag k="addr:housenumber" v="12413"/><tag k="addr:postcode" v="78753"/></node><node id="-23" lat="30.414704" lon="-97.667497" changeset="false"><tag k="addr:street" v="Center Ridge Drive"/><tag k="addr:housenumber" v="701"/><tag k="addr:postcode" v="78753"/></node><node id="-24" lat="30.421527" lon="-97.665764" changeset="false"><tag k="addr:street" v="West Howard Lane"/><tag k="addr:housenumber" v="907"/><tag k="addr:postcode" v="78753"/></node><node id="-25" lat="30.408091" lon="-97.648968" changeset="false"><tag k="addr:street" v="Weatherford Drive"/><tag k="addr:housenumber" v="1002"/><tag k="addr:postcode" v="78753"/></node><node id="-26" lat="30.407645" lon="-97.649367" changeset="false"><tag k="addr:street" v="Weatherford Drive"/><tag k="addr:housenumber" v="1001"/><tag k="addr:postcode" v="78753"/></node><node id="-27" lat="30.394781" lon="-97.645921" changeset="false"><tag k="addr:street" v="Bradbury Lane"/><tag k="addr:housenumber" v="1529"/><tag k="addr:postcode" v="78753"/></node><node id="-28" lat="30.402385" lon="-97.647293" changeset="false"><tag k="addr:street" v="Kenswick Drive"/><tag k="addr:housenumber" v="13100"/><tag k="addr:postcode" v="78754"/></node><node id="-29" lat="30.413568" lon="-97.672287" changeset="false"><tag k="addr:street" v="North Interstate Highway 35 Svc Rd; I- 35 Service Road North"/><tag k="addr:housenumber" v="12901 1/2"/><tag k="addr:postcode" v="78753"/></node><node id="-30" lat="30.399105" lon="-97.647923" changeset="false"><tag k="addr:street" v="Dexford Drive"/><tag k="addr:housenumber" v="1417"/><tag k="addr:postcode" v="78753"/></node><node id="-31" lat="30.40201" lon="-97.647671" changeset="false"><tag k="addr:street" v="Harrisglenn Drive"/><tag k="addr:housenumber" v="13015"/><tag k="addr:postcode" v="78754"/></node><node id="-32" lat="30.409767" lon="-97.665467" changeset="false"><tag k="addr:street" v="Center Lake Drive"/><tag k="addr:housenumber" v="13300"/><tag k="addr:postcode" v="78753"/></node><node id="-33" lat="30.409501" lon="-97.672758" changeset="false"><tag k="addr:street" v="North Interstate Highway 35 Svc Rd; I- 35 Service Road North"/><tag k="addr:housenumber" v="12625"/><tag k="addr:postcode" v="78753"/></node><node id="-34" lat="30.406013" lon="-97.646825" changeset="false"><tag k="addr:street" v="Faircrest Drive"/><tag k="addr:housenumber" v="1208"/><tag k="addr:postcode" v="78753"/></node><node id="-35" lat="30.405571" lon="-97.653191" changeset="false"><tag k="addr:street" v="Harris Ridge Boulevard"/><tag k="addr:housenumber" v="13100"/><tag k="addr:postcode" v="78753"/></node><node id="-36" lat="30.39521" lon="-97.644199" changeset="false"><tag k="addr:street" v="Dessau Road"/><tag k="addr:housenumber" v="12710 1/2"/><tag k="addr:postcode" v="78753"/></node><node id="-37" lat="30.413422" lon="-97.654012" changeset="false"><tag k="addr:street" v="East Howard Lane"/><tag k="addr:housenumber" v="507"/><tag k="addr:postcode" v="78753"/></node><node id="-38" lat="30.394136" lon="-97.647371" changeset="false"><tag k="addr:street" v="Knowell Drive"/><tag k="addr:housenumber" v="12605"/><tag k="addr:postcode" v="78753"/></node><node id="-39" lat="30.399243" lon="-97.648569" changeset="false"><tag k="addr:street" v="Dexford Drive"/><tag k="addr:housenumber" v="1400"/><tag k="addr:postcode" v="78753"/></node><node id="-40" lat="30.392695" lon="-97.648334" changeset="false"><tag k="addr:street" v="Knowell Drive"/><tag k="addr:housenumber" v="12409"/><tag k="addr:postcode" v="78753"/></node><node id="-41" lat="30.405217" lon="-97.652244" changeset="false"><tag k="addr:street" v="Harris Ridge Boulevard"/><tag k="addr:housenumber" v="13117"/><tag k="addr:postcode" v="78753"/></node><node id="-42" lat="30.419931" lon="-97.671868" changeset="false"><tag k="addr:street" v="North Interstate Highway 35 Svc Rd; I- 35 Service Road North"/><tag k="addr:housenumber" v="13425"/><tag k="addr:postcode" v="78753"/></node><node id="-43" lat="30.4168" lon="-97.66847" changeset="false"><tag k="addr:street" v="Center Ridge Drive"/><tag k="addr:housenumber" v="900"/><tag k="addr:postcode" v="78753"/></node><node id="-44" lat="30.394835" lon="-97.645738" changeset="false"><tag k="addr:street" v="Bradbury Lane"/><tag k="addr:housenumber" v="1535"/><tag k="addr:postcode" v="78753"/></node><node id="-45" lat="30.411342" lon="-97.650518" changeset="false"><tag k="addr:street" v="East Howard Lane"/><tag k="addr:housenumber" v="915"/><tag k="addr:postcode" v="78753"/></node><node id="-46" lat="30.403035" lon="-97.649663" changeset="false"><tag k="addr:street" v="Josh Ridge Boulevard"/><tag k="addr:housenumber" v="1202"/><tag k="addr:postcode" v="78753"/></node><node id="-47" lat="30.423238" lon="-97.669321" changeset="false"><tag k="addr:street" v="West Howard Lane"/><tag k="addr:housenumber" v="1109"/><tag k="addr:postcode" v="78753"/></node><node id="-48" lat="30.405145" lon="-97.642201" changeset="false"><tag k="addr:street" v="East Howard Lane"/><tag k="addr:housenumber" v="1501"/><tag k="addr:postcode" v="78754"/></node><node id="-49" lat="30.389957" lon="-97.647264" changeset="false"><tag k="addr:street" v="Dessau Road"/><tag k="addr:housenumber" v="12408"/><tag k="addr:postcode" v="78753"/></node><node id="-50" lat="30.402938" lon="-97.656316" changeset="false"><tag k="addr:street" v="East Parmer Lane"/><tag k="addr:housenumber" v="800"/><tag k="addr:postcode" v="78753"/></node><node id="-51" lat="30.401422" lon="-97.640626" changeset="false"><tag k="addr:street" v="Dessau Road"/><tag k="addr:housenumber" v="13208"/><tag k="addr:postcode" v="78754"/></node><node id="-52" lat="30.397164" lon="-97.643241" changeset="false"><tag k="addr:street" v="Dessau Road"/><tag k="addr:housenumber" v="12816"/><tag k="addr:postcode" v="78754"/></node><node id="-53" lat="30.404178" lon="-97.646515" changeset="false"><tag k="addr:street" v="Rochester Lane"/><tag k="addr:housenumber" v="13211"/><tag k="addr:postcode" v="78753"/></node><node id="-54" lat="30.414432" lon="-97.666531" changeset="false"><tag k="addr:street" v="Center Ridge Drive"/><tag k="addr:housenumber" v="611"/><tag k="addr:postcode" v="78753"/></node><node id="-55" lat="30.409845" lon="-97.667185" changeset="false"><tag k="addr:street" v="Center Lake Drive"/><tag k="addr:housenumber" v="13100"/><tag k="addr:postcode" v="78753"/></node><node id="-56" lat="30.404747" lon="-97.644956" changeset="false"><tag k="addr:street" v="Harrisglenn Drive"/><tag k="addr:housenumber" v="13305 1/2"/><tag k="addr:postcode" v="78754"/></node><node id="-57" lat="30.388303" lon="-97.648273" changeset="false"><tag k="addr:street" v="Dessau Road"/><tag k="addr:housenumber" v="12308"/><tag k="addr:postcode" v="78753"/></node><node id="-58" lat="30.390472" lon="-97.651732" changeset="false"><tag k="addr:street" v="East Parmer Lane"/><tag k="addr:housenumber" v="1500"/><tag k="addr:postcode" v="78753"/></node><node id="-59" lat="30.388096" lon="-97.64936" changeset="false"><tag k="addr:street" v="East Parmer Lane"/><tag k="addr:housenumber" v="1608"/><tag k="addr:postcode" v="78753"/></node><node id="-60" lat="30.389382" lon="-97.651153" changeset="false"><tag k="addr:street" v="East Parmer Lane"/><tag k="addr:housenumber" v="1528"/><tag k="addr:postcode" v="78753"/></node><node id="-61" lat="30.394243" lon="-97.647306" changeset="false"><tag k="addr:street" v="Knowell Drive"/><tag k="addr:housenumber" v="12609"/><tag k="addr:postcode" v="78753"/></node><node id="-62" lat="30.392689" lon="-97.64888" changeset="false"><tag k="addr:street" v="Knowell Drive"/><tag k="addr:housenumber" v="12400"/><tag k="addr:postcode" v="78753"/></node><node id="-63" lat="30.392805" lon="-97.648816" changeset="false"><tag k="addr:street" v="Knowell Drive"/><tag k="addr:housenumber" v="12404"/><tag k="addr:postcode" v="78753"/></node><node id="-64" lat="30.392478" lon="-97.64847" changeset="false"><tag k="addr:street" v="Knowell Drive"/><tag k="addr:housenumber" v="12401"/><tag k="addr:postcode" v="78753"/></node><node id="-65" lat="30.39314" lon="-97.648038" changeset="false"><tag k="addr:street" v="Knowell Drive"/><tag k="addr:housenumber" v="12425"/><tag k="addr:postcode" v="78753"/></node><node id="-66" lat="30.395999" lon="-97.647482" changeset="false"><tag k="addr:street" v="Serafy Court"/><tag k="addr:housenumber" v="12702"/><tag k="addr:postcode" v="78753"/></node><node id="-67" lat="30.387786" lon="-97.648802" changeset="false"><tag k="addr:street" v="East Parmer Lane"/><tag k="addr:housenumber" v="1610"/><tag k="addr:postcode" v="78753"/></node><node id="-68" lat="30.399773" lon="-97.648007" changeset="false"><tag k="addr:street" v="Latchwood Lane"/><tag k="addr:housenumber" v="12900"/><tag k="addr:postcode" v="78753"/></node><node id="-69" lat="30.402549" lon="-97.648642" changeset="false"><tag k="addr:street" v="Josh Ridge Boulevard"/><tag k="addr:housenumber" v="1306"/><tag k="addr:postcode" v="78753"/></node><node id="-70" lat="30.407432" lon="-97.648786" changeset="false"><tag k="addr:street" v="Bennington Lane"/><tag k="addr:housenumber" v="13313"/><tag k="addr:postcode" v="78753"/></node><node id="-71" lat="30.407237" lon="-97.671359" changeset="false"><tag k="addr:street" v="East Parmer Lane"/><tag k="addr:housenumber" v="700"/><tag k="addr:postcode" v="78753"/></node><node id="-72" lat="30.423965" lon="-97.67102" changeset="false"><tag k="addr:street" v="North Interstate Highway 35 Svc Rd; I- 35 Service Road North"/><tag k="addr:housenumber" v="13641"/><tag k="addr:postcode" v="78753"/></node><node id="-73" lat="30.394961" lon="-97.652819" changeset="false"><tag k="addr:street" v="East Parmer Lane"/><tag k="addr:housenumber" v="1200"/><tag k="addr:postcode" v="78753"/></node><node id="-74" lat="30.408907" lon="-97.648085" changeset="false"><tag k="addr:street" v="East Howard Lane"/><tag k="addr:housenumber" v="1033"/><tag k="addr:postcode" v="78753"/></node><node id="-75" lat="30.403023" lon="-97.64963" changeset="false"><tag k="addr:street" v="Josh Ridge Boulevard"/><tag k="addr:housenumber" v="1204"/><tag k="addr:postcode" v="78753"/></node><node id="-76" lat="30.388865" lon="-97.650734" changeset="false"><tag k="addr:street" v="East Parmer Lane"/><tag k="addr:housenumber" v="1548"/><tag k="addr:postcode" v="78753"/></node><node id="-77" lat="30.414743" lon="-97.664492" changeset="false"><tag k="addr:street" v="Center Ridge Drive"/><tag k="addr:housenumber" v="500"/><tag k="addr:postcode" v="78753"/></node><node id="-78" lat="30.393031" lon="-97.648118" changeset="false"><tag k="addr:street" v="Knowell Drive"/><tag k="addr:housenumber" v="12421"/><tag k="addr:postcode" v="78753"/></node><node id="-79" lat="30.40132" lon="-97.642177" changeset="false"><tag k="addr:street" v="Dessau Ridge Lane"/><tag k="addr:housenumber" v="1508"/><tag k="addr:postcode" v="78754"/></node><node id="-80" lat="30.400573" lon="-97.652863" changeset="false"><tag k="addr:street" v="Harrisglenn Drive"/><tag k="addr:housenumber" v="12800"/><tag k="addr:postcode" v="78753"/></node><node id="-81" lat="30.392586" lon="-97.648395" changeset="false"><tag k="addr:street" v="Knowell Drive"/><tag k="addr:housenumber" v="12405"/><tag k="addr:postcode" v="78753"/></node><node id="-82" lat="30.394017" lon="-97.647436" changeset="false"><tag k="addr:street" v="Knowell Drive"/><tag k="addr:housenumber" v="12601"/><tag k="addr:postcode" v="78753"/></node><node id="-83" lat="30.40026" lon="-97.641809" changeset="false"><tag k="addr:street" v="Dessau Ridge Lane"/><tag k="addr:housenumber" v="1607"/><tag k="addr:postcode" v="78754"/></node><node id="-84" lat="30.404761" lon="-97.644866" changeset="false"><tag k="addr:street" v="Harrisglenn Drive"/><tag k="addr:housenumber" v="13307 1/2"/><tag k="addr:postcode" v="78754"/></node><node id="-85" lat="30.403341" lon="-97.64677" changeset="false"><tag k="addr:street" v="Mango Grove Lane"/><tag k="addr:housenumber" v="1301 1/2"/><tag k="addr:postcode" v="78753"/></node><node id="-86" lat="30.399153" lon="-97.647415" changeset="false"><tag k="addr:street" v="Dexford Drive"/><tag k="addr:housenumber" v="1427"/><tag k="addr:postcode" v="78753"/></node><node id="-87" lat="30.399668" lon="-97.649443" changeset="false"><tag k="addr:street" v="Porterfield Drive"/><tag k="addr:housenumber" v="1305"/><tag k="addr:postcode" v="78753"/></node><node id="-88" lat="30.418894" lon="-97.670547" changeset="false"><tag k="addr:street" v="North Interstate Highway 35 Svc Rd; I- 35 Service Road North"/><tag k="addr:housenumber" v="13401"/><tag k="addr:postcode" v="78753"/></node><node id="-89" lat="30.398158" lon="-97.653957" changeset="false"><tag k="addr:street" v="East Parmer Lane"/><tag k="addr:housenumber" v="1100"/><tag k="addr:postcode" v="78753"/></node><node id="-90" lat="30.402571" lon="-97.648211" changeset="false"><tag k="addr:street" v="Briargate Drive"/><tag k="addr:housenumber" v="1219"/><tag k="addr:postcode" v="78753"/></node><node id="-91" lat="30.422151" lon="-97.667302" changeset="false"><tag k="addr:street" v="West Howard Lane"/><tag k="addr:housenumber" v="1001"/><tag k="addr:postcode" v="78753"/></node><node id="-92" lat="30.397754" lon="-97.651188" changeset="false"><tag k="addr:street" v="Bradbury Lane"/><tag k="addr:housenumber" v="1220"/><tag k="addr:postcode" v="78753"/></node><node id="-93" lat="30.404211" lon="-97.653241" changeset="false"><tag k="addr:street" v="Cassat Cove"/><tag k="addr:housenumber" v="1000"/><tag k="addr:postcode" v="78753"/></node><node id="-94" lat="30.404112" lon="-97.652719" changeset="false"><tag k="addr:street" v="Cassat Cove"/><tag k="addr:housenumber" v="1008"/><tag k="addr:postcode" v="78753"/></node><node id="-95" lat="30.419043" lon="-97.660749" changeset="false"><tag k="addr:street" v="West Howard Lane"/><tag k="addr:housenumber" v="401"/><tag k="addr:postcode" v="78753"/></node><node id="-96" lat="30.419654" lon="-97.662542" changeset="false"><tag k="addr:street" v="West Howard Lane"/><tag k="addr:housenumber" v="605"/><tag k="addr:postcode" v="78753"/></node><node id="-97" lat="30.414188" lon="-97.664173" changeset="false"><tag k="addr:street" v="Center Ridge Drive"/><tag k="addr:housenumber" v="401"/><tag k="addr:postcode" v="78753"/></node><node id="-98" lat="30.404003" lon="-97.65251" changeset="false"><tag k="addr:street" v="Cassat Cove"/><tag k="addr:housenumber" v="1016"/><tag k="addr:postcode" v="78753"/></node><node id="-99" lat="30.422948" lon="-97.671131" changeset="false"><tag k="addr:street" v="North Interstate Highway 35 Svc Rd; I- 35 Service Road North"/><tag k="addr:housenumber" v="13611"/><tag k="addr:postcode" v="78753"/></node><node id="-100" lat="30.398459" lon="-97.648178" changeset="false"><tag k="addr:street" v="Bartholdi Street"/><tag k="addr:housenumber" v="12812"/><tag k="addr:postcode" v="78753"/></node><node id="-101" lat="30.415036" lon="-97.666003" changeset="false"><tag k="addr:street" v="Center Ridge Drive"/><tag k="addr:housenumber" v="600"/><tag k="addr:postcode" v="78753"/></node><node id="-102" lat="30.422599" lon="-97.670222" changeset="false"><tag k="addr:street" v="North Interstate Highway 35 Svc Rd; I- 35 Service Road North"/><tag k="addr:housenumber" v="13609"/><tag k="addr:postcode" v="78753"/></node><node id="-103" lat="30.409913" lon="-97.666292" changeset="false"><tag k="addr:street" v="Center Lake Drive"/><tag k="addr:housenumber" v="13200"/><tag k="addr:postcode" v="78753"/></node><node id="-104" lat="30.406731" lon="-97.670612" changeset="false"><tag k="addr:street" v="East Parmer Lane"/><tag k="addr:housenumber" v="500"/><tag k="addr:postcode" v="78753"/></node><node id="-105" lat="30.418528" lon="-97.671818" changeset="false"><tag k="addr:street" v="North Interstate Highway 35 Svc Rd; I- 35 Service Road North"/><tag k="addr:housenumber" v="13309"/><tag k="addr:postcode" v="78753"/></node><node id="-106" lat="30.402489" lon="-97.647188" changeset="false"><tag k="addr:street" v="Kenswick Drive"/><tag k="addr:housenumber" v="13102"/><tag k="addr:postcode" v="78754"/></node><node id="-107" lat="30.39796" lon="-97.652353" changeset="false"><tag k="addr:street" v="Bradbury Lane"/><tag k="addr:housenumber" v="1205"/><tag k="addr:postcode" v="78753"/></node><node id="-108" lat="30.414186" lon="-97.672353" changeset="false"><tag k="addr:street" v="North Interstate Highway 35 Svc Rd; I- 35 Service Road North"/><tag k="addr:housenumber" v="12907 1/2"/><tag k="addr:postcode" v="78753"/></node><node id="-109" lat="30.407835" lon="-97.648711" changeset="false"><tag k="addr:street" v="Weatherford Drive"/><tag k="addr:housenumber" v="1006"/><tag k="addr:postcode" v="78753"/></node><node id="-110" lat="30.418041" lon="-97.671233" changeset="false"><tag k="addr:street" v="Center Ridge Drive"/><tag k="addr:housenumber" v="1100"/><tag k="addr:postcode" v="78753"/></node><node id="-111" lat="30.397719" lon="-97.648556" changeset="false"><tag k="addr:street" v="Bartholdi Street"/><tag k="addr:housenumber" v="12726"/><tag k="addr:postcode" v="78753"/></node><node id="-112" lat="30.39918" lon="-97.6441" changeset="false"><tag k="addr:street" v="Dessau Road"/><tag k="addr:housenumber" v="12900"/><tag k="addr:postcode" v="78754"/></node><node id="-113" lat="30.407581" lon="-97.648021" changeset="false"><tag k="addr:street" v="Weatherford Drive"/><tag k="addr:housenumber" v="1102"/><tag k="addr:postcode" v="78753"/></node><node id="-114" lat="30.413671" lon="-97.672248" changeset="false"><tag k="addr:street" v="North Interstate Highway 35 Svc Rd; I- 35 Service Road North"/><tag k="addr:housenumber" v="12901"/><tag k="addr:postcode" v="78753"/></node><node id="-115" lat="30.403142" lon="-97.64961" changeset="false"><tag k="addr:street" v="Briargate Drive"/><tag k="addr:housenumber" v="1203"/><tag k="addr:postcode" v="78753"/></node><node id="-116" lat="30.401696" lon="-97.643283" changeset="false"><tag k="addr:street" v="Dessau Road"/><tag k="addr:housenumber" v="13200"/><tag k="addr:postcode" v="78754"/></node><node id="-117" lat="30.401583" lon="-97.643725" changeset="false"><tag k="addr:street" v="Dessau Ridge Lane"/><tag k="addr:housenumber" v="1501"/><tag k="addr:postcode" v="78754"/></node><node id="-118" lat="30.402776" lon="-97.649022" changeset="false"><tag k="addr:street" v="Josh Ridge Boulevard"/><tag k="addr:housenumber" v="1302"/><tag k="addr:postcode" v="78753"/></node><node id="-119" lat="30.402885" lon="-97.648996" changeset="false"><tag k="addr:street" v="Briargate Drive"/><tag k="addr:housenumber" v="1209"/><tag k="addr:postcode" v="78753"/></node></osm>