<?xml version="1.0" encoding="UTF-8"?><osm version="0.6" generator="github.com/aaronlidman/osm-and-geojson"><node id="-1" lat="30.268047" lon="-97.795608" changeset="false"><tag k="addr:street" v="Chatelaine Drive"/><tag k="addr:housenumber" v="3001"/><tag k="addr:postcode" v="78746"/></node><node id="-2" lat="30.270029" lon="-97.796695" changeset="false"><tag k="addr:street" v="Honey Tree Lane"/><tag k="addr:housenumber" v="3020"/><tag k="addr:postcode" v="78746"/></node><node id="-3" lat="30.269217" lon="-97.795068" changeset="false"><tag k="addr:street" v="Treemont Drive"/><tag k="addr:housenumber" v="6"/><tag k="addr:postcode" v="78746"/></node><node id="-4" lat="30.268532" lon="-97.793697" changeset="false"><tag k="addr:street" v="Chatelaine Cove"/><tag k="addr:housenumber" v="1105"/><tag k="addr:postcode" v="78746"/></node><node id="-5" lat="30.266296" lon="-97.795548" changeset="false"><tag k="addr:street" v="Thousand Oaks Drive"/><tag k="addr:housenumber" v="2914"/><tag k="addr:postcode" v="78746"/></node><node id="-6" lat="30.265807" lon="-97.792098" changeset="false"><tag k="addr:street" v="Regents Park"/><tag k="addr:housenumber" v="2717"/><tag k="addr:postcode" v="78746"/></node><node id="-7" lat="30.269135" lon="-97.795159" changeset="false"><tag k="addr:street" v="Treemont Drive"/><tag k="addr:housenumber" v="4"/><tag k="addr:postcode" v="78746"/></node><node id="-8" lat="30.265659" lon="-97.796836" changeset="false"><tag k="addr:street" v="Thousand Oaks Drive"/><tag k="addr:housenumber" v="2924"/><tag k="addr:postcode" v="78746"/></node><node id="-9" lat="30.269244" lon="-97.792711" changeset="false"><tag k="addr:street" v="Montebello Court"/><tag k="addr:housenumber" v="2910"/><tag k="addr:postcode" v="78746"/></node><node id="-10" lat="30.268948" lon="-97.798897" changeset="false"><tag k="addr:street" v="Wilderness Cove"/><tag k="addr:housenumber" v="1207"/><tag k="addr:postcode" v="78746"/></node><node id="-11" lat="30.267001" lon="-97.792522" changeset="false"><tag k="addr:street" v="Regents Park"/><tag k="addr:housenumber" v="2704"/><tag k="addr:postcode" v="78746"/></node><node id="-12" lat="30.271353" lon="-97.796458" changeset="false"><tag k="addr:street" v="Beecave Woods Drive"/><tag k="addr:housenumber" v="1007"/><tag k="addr:postcode" v="78746"/></node><node id="-13" lat="30.268772" lon="-97.795433" changeset="false"><tag k="addr:street" v="Chatelaine Drive"/><tag k="addr:housenumber" v="3004"/><tag k="addr:postcode" v="78746"/></node><node id="-14" lat="30.269319" lon="-97.794947" changeset="false"><tag k="addr:street" v="Treemont Drive"/><tag k="addr:housenumber" v="8"/><tag k="addr:postcode" v="78746"/></node><node id="-15" lat="30.264768" lon="-97.802394" changeset="false"><tag k="addr:street" v="Thousand Oaks Drive"/><tag k="addr:housenumber" v="3102"/><tag k="addr:postcode" v="78746"/></node><node id="-16" lat="30.264805" lon="-97.802612" changeset="false"><tag k="addr:street" v="Thousand Oaks Drive"/><tag k="addr:housenumber" v="3106"/><tag k="addr:postcode" v="78746"/></node><node id="-17" lat="30.269958" lon="-97.794286" changeset="false"><tag k="addr:street" v="Treemont Drive"/><tag k="addr:housenumber" v="20"/><tag k="addr:postcode" v="78746"/></node><node id="-18" lat="30.26803" lon="-97.793946" changeset="false"><tag k="addr:street" v="Havre Lafitte Drive"/><tag k="addr:housenumber" v="1100"/><tag k="addr:postcode" v="78746"/></node><node id="-19" lat="30.266652" lon="-97.797131" changeset="false"><tag k="addr:street" v="Tamranae Court"/><tag k="addr:housenumber" v="1217"/><tag k="addr:postcode" v="78746"/></node><node id="-20" lat="30.267079" lon="-97.801874" changeset="false"><tag k="addr:street" v="Brightwood Drive"/><tag k="addr:housenumber" v="3109"/><tag k="addr:postcode" v="78746"/></node><node id="-21" lat="30.269847" lon="-97.794414" changeset="false"><tag k="addr:street" v="Treemont Drive"/><tag k="addr:housenumber" v="18"/><tag k="addr:postcode" v="78746"/></node><node id="-22" lat="30.266312" lon="-97.795899" changeset="false"><tag k="addr:street" v="Thousand Oaks Drive"/><tag k="addr:housenumber" v="2916"/><tag k="addr:postcode" v="78746"/></node><node id="-23" lat="30.268983" lon="-97.800126" changeset="false"><tag k="addr:street" v="Honey Tree Lane"/><tag k="addr:housenumber" v="3135"/><tag k="addr:postcode" v="78746"/></node><node id="-24" lat="30.265577" lon="-97.793363" changeset="false"><tag k="addr:street" v="Thousand Oaks Drive"/><tag k="addr:housenumber" v="2900"/><tag k="addr:postcode" v="78746"/></node><node id="-25" lat="30.265829" lon="-97.792213" changeset="false"><tag k="addr:street" v="Chatelaine Drive"/><tag k="addr:housenumber" v="2808"/><tag k="addr:postcode" v="78746"/></node><node id="-26" lat="30.26655" lon="-97.802565" changeset="false"><tag k="addr:street" v="Eanes Circle"/><tag k="addr:housenumber" v="3134"/><tag k="addr:postcode" v="78746"/></node><node id="-27" lat="30.267851" lon="-97.795451" changeset="false"><tag k="addr:street" v="Chatelaine Drive"/><tag k="addr:housenumber" v="2931"/><tag k="addr:postcode" v="78746"/></node><node id="-28" lat="30.270416" lon="-97.791344" changeset="false"><tag k="addr:street" v="Bee Caves Road"/><tag k="addr:housenumber" v="2901"/><tag k="addr:postcode" v="78746"/></node><node id="-29" lat="30.268899" lon="-97.792793" changeset="false"><tag k="addr:street" v="Montebello Court"/><tag k="addr:housenumber" v="2912"/><tag k="addr:postcode" v="78746"/></node><node id="-30" lat="30.269301" lon="-97.793536" changeset="false"><tag k="addr:street" v="Chatelaine Cove"/><tag k="addr:housenumber" v="1100"/><tag k="addr:postcode" v="78746"/></node><node id="-31" lat="30.269189" lon="-97.795795" changeset="false"><tag k="addr:street" v="Chatelaine Drive"/><tag k="addr:housenumber" v="3008"/><tag k="addr:postcode" v="78746"/></node><node id="-32" lat="30.268896" lon="-97.79348" changeset="false"><tag k="addr:street" v="Chatelaine Cove"/><tag k="addr:housenumber" v="1101"/><tag k="addr:postcode" v="78746"/></node><node id="-33" lat="30.268375" lon="-97.804866" changeset="false"><tag k="addr:street" v="Walsh Tarlton Lane"/><tag k="addr:housenumber" v="1503"/><tag k="addr:postcode" v="78746"/></node><node id="-34" lat="30.265653" lon="-97.792795" changeset="false"><tag k="addr:street" v="Chatelaine Drive"/><tag k="addr:housenumber" v="2811"/><tag k="addr:postcode" v="78746"/></node><node id="-35" lat="30.266891" lon="-97.791983" changeset="false"><tag k="addr:street" v="Regents Park"/><tag k="addr:housenumber" v="2701"/><tag k="addr:postcode" v="78746"/></node><node id="-36" lat="30.267679" lon="-97.795241" changeset="false"><tag k="addr:street" v="Chatelaine Drive"/><tag k="addr:housenumber" v="2927"/><tag k="addr:postcode" v="78746"/></node><node id="-37" lat="30.268298" lon="-97.792203" changeset="false"><tag k="addr:street" v="Montebello Court"/><tag k="addr:housenumber" v="2900"/><tag k="addr:postcode" v="78746"/></node><node id="-38" lat="30.26935" lon="-97.797209" changeset="false"><tag k="addr:street" v="Honey Tree Lane"/><tag k="addr:housenumber" v="3005"/><tag k="addr:postcode" v="78746"/></node><node id="-39" lat="30.268228" lon="-97.795705" changeset="false"><tag k="addr:street" v="Chatelaine Drive"/><tag k="addr:housenumber" v="3005"/><tag k="addr:postcode" v="78746"/></node><node id="-40" lat="30.269087" lon="-97.795326" changeset="false"><tag k="addr:street" v="Treemont Drive"/><tag k="addr:housenumber" v="2"/><tag k="addr:postcode" v="78746"/></node><node id="-41" lat="30.267026" lon="-97.793548" changeset="false"><tag k="addr:street" v="Chatelaine Drive"/><tag k="addr:housenumber" v="2906"/><tag k="addr:postcode" v="78746"/></node><node id="-42" lat="30.270053" lon="-97.796623" changeset="false"><tag k="addr:street" v="Honey Tree Lane"/><tag k="addr:housenumber" v="3014"/><tag k="addr:postcode" v="78746"/></node><node id="-43" lat="30.26945" lon="-97.797281" changeset="false"><tag k="addr:street" v="Honey Tree Lane"/><tag k="addr:housenumber" v="3007"/><tag k="addr:postcode" v="78746"/></node><node id="-44" lat="30.269571" lon="-97.794703" changeset="false"><tag k="addr:street" v="Treemont Drive"/><tag k="addr:housenumber" v="12"/><tag k="addr:postcode" v="78746"/></node><node id="-45" lat="30.269656" lon="-97.794646" changeset="false"><tag k="addr:street" v="Treemont Drive"/><tag k="addr:housenumber" v="14"/><tag k="addr:postcode" v="78746"/></node><node id="-46" lat="30.269759" lon="-97.794516" changeset="false"><tag k="addr:street" v="Treemont Drive"/><tag k="addr:housenumber" v="16"/><tag k="addr:postcode" v="78746"/></node><node id="-47" lat="30.269464" lon="-97.79483" changeset="false"><tag k="addr:street" v="Treemont Drive"/><tag k="addr:housenumber" v="10"/><tag k="addr:postcode" v="78746"/></node><node id="-48" lat="30.26843" lon="-97.792191" changeset="false"><tag k="addr:street" v="Montebello Road"/><tag k="addr:housenumber" v="2835"/><tag k="addr:postcode" v="78746"/></node><node id="-49" lat="30.268435" lon="-97.792182" changeset="false"><tag k="addr:street" v="Montebello Court"/><tag k="addr:housenumber" v="2902"/><tag k="addr:postcode" v="78746"/></node><node id="-50" lat="30.268108" lon="-97.804805" changeset="false"><tag k="addr:street" v="Aquifer Cove"/><tag k="addr:housenumber" v="1500"/><tag k="addr:postcode" v="78746"/></node><node id="-51" lat="30.268143" lon="-97.804666" changeset="false"><tag k="addr:street" v="Terrapin Court"/><tag k="addr:housenumber" v="1402"/><tag k="addr:postcode" v="78746"/></node><node id="-52" lat="30.267857" lon="-97.792268" changeset="false"><tag k="addr:street" v="Montebello Court"/><tag k="addr:housenumber" v="2903"/><tag k="addr:postcode" v="78746"/></node><node id="-53" lat="30.267868" lon="-97.792261" changeset="false"><tag k="addr:street" v="Montebello Road"/><tag k="addr:housenumber" v="2833"/><tag k="addr:postcode" v="78746"/></node></osm>