<?xml version="1.0" encoding="UTF-8"?><osm version="0.6" generator="github.com/aaronlidman/osm-and-geojson"><node id="-1" lat="30.478662" lon="-97.631296" changeset="false"><tag k="addr:street" v="Pencil Cactus Drive"/><tag k="addr:housenumber" v="18604"/><tag k="coa:place_id" v="3255765"/></node><node id="-2" lat="30.470742" lon="-97.636844" changeset="false"><tag k="addr:street" v="Cormac Court"/><tag k="addr:housenumber" v="17701"/><tag k="coa:place_id" v="195887"/></node><node id="-3" lat="30.478634" lon="-97.642454" changeset="false"><tag k="addr:street" v="South A W Grimes Boulevard"/><tag k="addr:housenumber" v="2911"/><tag k="coa:place_id" v="3295640"/></node><node id="-4" lat="30.479446" lon="-97.630119" changeset="false"><tag k="addr:street" v="Star Gazer Way"/><tag k="addr:housenumber" v="18420"/><tag k="coa:place_id" v="3255698"/></node><node id="-5" lat="30.47808" lon="-97.630387" changeset="false"><tag k="addr:street" v="Pencil Cactus Drive"/><tag k="addr:housenumber" v="18624"/><tag k="coa:place_id" v="3255770"/></node><node id="-6" lat="30.477672" lon="-97.629933" changeset="false"><tag k="addr:street" v="Pencil Cactus Drive"/><tag k="addr:housenumber" v="18636"/><tag k="coa:place_id" v="3255773"/></node><node id="-7" lat="30.477201" lon="-97.629572" changeset="false"><tag k="addr:street" v="Pencil Cactus Drive"/><tag k="addr:housenumber" v="18704"/><tag k="coa:place_id" v="3255810"/></node><node id="-8" lat="30.476682" lon="-97.629236" changeset="false"><tag k="addr:street" v="Pencil Cactus Drive"/><tag k="addr:housenumber" v="18716"/><tag k="coa:place_id" v="3255813"/></node><node id="-9" lat="30.477444" lon="-97.628571" changeset="false"><tag k="addr:street" v="Springbrook Road"/><tag k="addr:housenumber" v="408"/><tag k="coa:place_id" v="3255799"/></node><node id="-10" lat="30.470219" lon="-97.635036" changeset="false"><tag k="addr:street" v="West Pflugerville Parkway"/><tag k="addr:housenumber" v="920"/><tag k="coa:place_id" v="5088071"/></node><node id="-11" lat="30.474929" lon="-97.634355" changeset="false"><tag k="addr:street" v="Springbrook Road"/><tag k="addr:housenumber" v="1014"/><tag k="coa:place_id" v="3362140"/></node><node id="-12" lat="30.480445" lon="-97.633127" changeset="false"><tag k="addr:street" v="Autumn Sage Way"/><tag k="addr:housenumber" v="1232"/><tag k="coa:place_id" v="5087128"/></node><node id="-13" lat="30.480644" lon="-97.634168" changeset="false"><tag k="addr:street" v="Autumn Sage Way"/><tag k="addr:housenumber" v="1313"/><tag k="coa:place_id" v="5087134"/></node><node id="-14" lat="30.481351" lon="-97.634424" changeset="false"><tag k="addr:street" v="Autumn Sage Way"/><tag k="addr:housenumber" v="1322"/><tag k="coa:place_id" v="5087138"/></node><node id="-15" lat="30.479046" lon="-97.632576" changeset="false"><tag k="addr:street" v="Autumn Sage Way"/><tag k="addr:housenumber" v="1205"/><tag k="coa:place_id" v="5087112"/></node><node id="-16" lat="30.479868" lon="-97.633145" changeset="false"><tag k="addr:street" v="Autumn Sage Way"/><tag k="addr:housenumber" v="1225"/><tag k="coa:place_id" v="5087117"/></node><node id="-17" lat="30.477502" lon="-97.630634" changeset="false"><tag k="addr:street" v="Autumn Sage Way"/><tag k="addr:housenumber" v="1004"/><tag k="coa:place_id" v="5087144"/></node><node id="-18" lat="30.478262" lon="-97.632353" changeset="false"><tag k="addr:street" v="Autumn Sage Way"/><tag k="addr:housenumber" v="1117"/><tag k="coa:place_id" v="5087152"/></node><node id="-19" lat="30.478054" lon="-97.631524" changeset="false"><tag k="addr:street" v="Autumn Sage Way"/><tag k="addr:housenumber" v="1100"/><tag k="coa:place_id" v="5087155"/></node><node id="-20" lat="30.479791" lon="-97.630351" changeset="false"><tag k="addr:street" v="Pencil Cactus Drive"/><tag k="addr:housenumber" v="18313"/><tag k="coa:place_id" v="5091447"/></node><node id="-21" lat="30.475877" lon="-97.628681" changeset="false"><tag k="addr:street" v="Autumn Sage Way"/><tag k="addr:housenumber" v="808"/><tag k="coa:place_id" v="5071755"/></node><node id="-22" lat="30.476083" lon="-97.629378" changeset="false"><tag k="addr:street" v="Autumn Sage Way"/><tag k="addr:housenumber" v="820"/><tag k="coa:place_id" v="5071758"/></node><node id="-23" lat="30.475579" lon="-97.629268" changeset="false"><tag k="addr:street" v="Autumn Sage Way"/><tag k="addr:housenumber" v="817"/><tag k="coa:place_id" v="5071761"/></node><node id="-24" lat="30.471437" lon="-97.635471" changeset="false"><tag k="addr:street" v="Liffey Drive"/><tag k="addr:housenumber" v="1004"/><tag k="coa:place_id" v="195853"/></node><node id="-25" lat="30.473842" lon="-97.631995" changeset="false"><tag k="addr:street" v="Springbrook Road"/><tag k="addr:housenumber" v="921"/><tag k="coa:place_id" v="3046405"/></node><node id="-26" lat="30.472987" lon="-97.637883" changeset="false"><tag k="addr:street" v="Bunratty Circle"/><tag k="addr:housenumber" v="1220"/><tag k="coa:place_id" v="195812"/></node><node id="-27" lat="30.478563" lon="-97.630367" changeset="false"><tag k="addr:street" v="Pencil Cactus Drive"/><tag k="addr:housenumber" v="18613"/><tag k="coa:place_id" v="3255779"/></node><node id="-28" lat="30.479394" lon="-97.630742" changeset="false"><tag k="addr:street" v="Star Gazer Way"/><tag k="addr:housenumber" v="18408"/><tag k="coa:place_id" v="3255695"/></node><node id="-29" lat="30.478405" lon="-97.630907" changeset="false"><tag k="addr:street" v="Pencil Cactus Drive"/><tag k="addr:housenumber" v="18612"/><tag k="coa:place_id" v="3255767"/></node><node id="-30" lat="30.479349" lon="-97.631197" changeset="false"><tag k="addr:street" v="Star Gazer Way"/><tag k="addr:housenumber" v="18400"/><tag k="coa:place_id" v="3255693"/></node><node id="-31" lat="30.47942" lon="-97.630534" changeset="false"><tag k="addr:street" v="Star Gazer Way"/><tag k="addr:housenumber" v="18412"/><tag k="coa:place_id" v="3255696"/></node><node id="-32" lat="30.477086" lon="-97.628339" changeset="false"><tag k="addr:street" v="Springbrook Road"/><tag k="addr:housenumber" v="416"/><tag k="coa:place_id" v="3255806"/></node><node id="-33" lat="30.477473" lon="-97.642694" changeset="false"><tag k="addr:street" v="South A W Grimes Boulevard"/><tag k="addr:housenumber" v="2919"/><tag k="coa:place_id" v="3291378"/></node><node id="-34" lat="30.479805" lon="-97.630116" changeset="false"><tag k="addr:street" v="Pencil Cactus Drive"/><tag k="addr:housenumber" v="18309"/><tag k="coa:place_id" v="5091446"/></node><node id="-35" lat="30.479745" lon="-97.631263" changeset="false"><tag k="addr:street" v="Pencil Cactus Drive"/><tag k="addr:housenumber" v="18409"/><tag k="coa:place_id" v="5091451"/></node><node id="-36" lat="30.475655" lon="-97.62948" changeset="false"><tag k="addr:street" v="Autumn Sage Way"/><tag k="addr:housenumber" v="821"/><tag k="coa:place_id" v="5071762"/></node><node id="-37" lat="30.475773" lon="-97.629697" changeset="false"><tag k="addr:street" v="Autumn Sage Way"/><tag k="addr:housenumber" v="825"/><tag k="coa:place_id" v="5071763"/></node><node id="-38" lat="30.477091" lon="-97.630198" changeset="false"><tag k="addr:street" v="Autumn Sage Way"/><tag k="addr:housenumber" v="920"/><tag k="coa:place_id" v="5071769"/></node><node id="-39" lat="30.476843" lon="-97.630618" changeset="false"><tag k="addr:street" v="Autumn Sage Way"/><tag k="addr:housenumber" v="925"/><tag k="coa:place_id" v="5071776"/></node><node id="-40" lat="30.477056" lon="-97.630798" changeset="false"><tag k="addr:street" v="Autumn Sage Way"/><tag k="addr:housenumber" v="1001"/><tag k="coa:place_id" v="5071778"/></node><node id="-41" lat="30.480305" lon="-97.632951" changeset="false"><tag k="addr:street" v="Autumn Sage Way"/><tag k="addr:housenumber" v="1228"/><tag k="coa:place_id" v="5087127"/></node><node id="-42" lat="30.479392" lon="-97.632776" changeset="false"><tag k="addr:street" v="Autumn Sage Way"/><tag k="addr:housenumber" v="1213"/><tag k="coa:place_id" v="5087114"/></node><node id="-43" lat="30.479465" lon="-97.632264" changeset="false"><tag k="addr:street" v="Autumn Sage Way"/><tag k="addr:housenumber" v="1208"/><tag k="coa:place_id" v="5087122"/></node><node id="-44" lat="30.477545" lon="-97.631533" changeset="false"><tag k="addr:street" v="Autumn Sage Way"/><tag k="addr:housenumber" v="1021"/><tag k="coa:place_id" v="5087143"/></node><node id="-45" lat="30.478157" lon="-97.631678" changeset="false"><tag k="addr:street" v="Autumn Sage Way"/><tag k="addr:housenumber" v="1108"/><tag k="coa:place_id" v="5087156"/></node><node id="-46" lat="30.477742" lon="-97.634027" changeset="false"><tag k="addr:street" v="Statler Bend Drive"/><tag k="addr:housenumber" v="1015"/><tag k="coa:place_id" v="3102504"/></node><node id="-47" lat="30.481392" lon="-97.639284" changeset="false"><tag k="addr:street" v="Howlin Wolf Trail"/><tag k="addr:housenumber" v="1432"/><tag k="coa:place_id" v="3139987"/></node><node id="-48" lat="30.475701" lon="-97.635778" changeset="false"><tag k="addr:street" v="Glendalough Drive"/><tag k="addr:housenumber" v="1108"/><tag k="coa:place_id" v="3110381"/></node><node id="-49" lat="30.472825" lon="-97.631566" changeset="false"><tag k="addr:street" v="Justeford Drive"/><tag k="addr:housenumber" v="908"/><tag k="coa:place_id" v="222179"/></node><node id="-50" lat="30.471715" lon="-97.633424" changeset="false"><tag k="addr:street" v="Palitine Lane"/><tag k="addr:housenumber" v="912"/><tag k="coa:place_id" v="201362"/></node><node id="-51" lat="30.478957" lon="-97.63088" changeset="false"><tag k="addr:street" v="Pencil Cactus Drive"/><tag k="addr:housenumber" v="18601"/><tag k="coa:place_id" v="3255776"/></node><node id="-52" lat="30.478869" lon="-97.631445" changeset="false"><tag k="addr:street" v="Pencil Cactus Drive"/><tag k="addr:housenumber" v="18600"/><tag k="coa:place_id" v="3255764"/></node><node id="-53" lat="30.478189" lon="-97.630579" changeset="false"><tag k="addr:street" v="Pencil Cactus Drive"/><tag k="addr:housenumber" v="18620"/><tag k="coa:place_id" v="3255769"/></node><node id="-54" lat="30.477957" lon="-97.630235" changeset="false"><tag k="addr:street" v="Pencil Cactus Drive"/><tag k="addr:housenumber" v="18628"/><tag k="coa:place_id" v="3255771"/></node><node id="-55" lat="30.479409" lon="-97.63154" changeset="false"><tag k="addr:street" v="Pencil Cactus Drive"/><tag k="addr:housenumber" v="18512"/><tag k="coa:place_id" v="3255774"/></node><node id="-56" lat="30.47642" lon="-97.628185" changeset="false"><tag k="addr:street" v="Springbrook Road"/><tag k="addr:housenumber" v="500"/><tag k="coa:place_id" v="3255826"/></node><node id="-57" lat="30.479466" lon="-97.6299" changeset="false"><tag k="addr:street" v="Star Gazer Way"/><tag k="addr:housenumber" v="18424"/><tag k="coa:place_id" v="3255699"/></node><node id="-58" lat="30.476425" lon="-97.628864" changeset="false"><tag k="addr:street" v="Pencil Cactus Drive"/><tag k="addr:housenumber" v="18724"/><tag k="coa:place_id" v="3255815"/></node><node id="-59" lat="30.476371" lon="-97.629742" changeset="false"><tag k="addr:street" v="Autumn Sage Way"/><tag k="addr:housenumber" v="904"/><tag k="coa:place_id" v="5071765"/></node><node id="-60" lat="30.476364" lon="-97.630259" changeset="false"><tag k="addr:street" v="Autumn Sage Way"/><tag k="addr:housenumber" v="913"/><tag k="coa:place_id" v="5071773"/></node><node id="-61" lat="30.479991" lon="-97.632643" changeset="false"><tag k="addr:street" v="Autumn Sage Way"/><tag k="addr:housenumber" v="1220"/><tag k="coa:place_id" v="5087125"/></node><node id="-62" lat="30.480279" lon="-97.633633" changeset="false"><tag k="addr:street" v="Autumn Sage Way"/><tag k="addr:housenumber" v="1301"/><tag k="coa:place_id" v="5087131"/></node><node id="-63" lat="30.480757" lon="-97.634347" changeset="false"><tag k="addr:street" v="Autumn Sage Way"/><tag k="addr:housenumber" v="1317"/><tag k="coa:place_id" v="5087135"/></node><node id="-64" lat="30.47925" lon="-97.632154" changeset="false"><tag k="addr:street" v="Autumn Sage Way"/><tag k="addr:housenumber" v="1204"/><tag k="coa:place_id" v="5087121"/></node><node id="-65" lat="30.477232" lon="-97.630946" changeset="false"><tag k="addr:street" v="Autumn Sage Way"/><tag k="addr:housenumber" v="1005"/><tag k="coa:place_id" v="5087139"/></node><node id="-66" lat="30.47766" lon="-97.631762" changeset="false"><tag k="addr:street" v="Autumn Sage Way"/><tag k="addr:housenumber" v="1101"/><tag k="coa:place_id" v="5087141"/></node><node id="-67" lat="30.477458" lon="-97.631321" changeset="false"><tag k="addr:street" v="Autumn Sage Way"/><tag k="addr:housenumber" v="1017"/><tag k="coa:place_id" v="5087142"/></node><node id="-68" lat="30.480273" lon="-97.630218" changeset="false"><tag k="addr:street" v="Pencil Cactus Drive"/><tag k="addr:housenumber" v="18312"/><tag k="coa:place_id" v="5091433"/></node><node id="-69" lat="30.480255" lon="-97.630439" changeset="false"><tag k="addr:street" v="Pencil Cactus Drive"/><tag k="addr:housenumber" v="18316"/><tag k="coa:place_id" v="5091434"/></node><node id="-70" lat="30.480207" lon="-97.631331" changeset="false"><tag k="addr:street" v="Pencil Cactus Drive"/><tag k="addr:housenumber" v="18408"/><tag k="coa:place_id" v="5091438"/></node><node id="-71" lat="30.480219" lon="-97.631582" changeset="false"><tag k="addr:street" v="Pencil Cactus Drive"/><tag k="addr:housenumber" v="18412"/><tag k="coa:place_id" v="5091439"/></node><node id="-72" lat="30.478062" lon="-97.636918" changeset="false"><tag k="addr:street" v="Berol Drive"/><tag k="addr:housenumber" v="18100"/><tag k="coa:place_id" v="3102465"/></node><node id="-73" lat="30.471375" lon="-97.635176" changeset="false"><tag k="addr:street" v="Liffey Drive"/><tag k="addr:housenumber" v="1000"/><tag k="coa:place_id" v="195852"/></node><node id="-74" lat="30.473202" lon="-97.632189" changeset="false"><tag k="addr:street" v="Justeford Drive"/><tag k="addr:housenumber" v="924"/><tag k="coa:place_id" v="222173"/></node><node id="-75" lat="30.477542" lon="-97.634513" changeset="false"><tag k="addr:street" v="Mason Bend Drive"/><tag k="addr:housenumber" v="1112"/><tag k="coa:place_id" v="3102483"/></node><node id="-76" lat="30.484477" lon="-97.628026" changeset="false"><tag k="addr:street" v="New Meister Lane,1100"/><tag k="addr:housenumber" v="1033"/><tag k="coa:place_id" v="3315136"/></node><node id="-77" lat="30.473845" lon="-97.635098" changeset="false"><tag k="addr:street" v="Howeth Cove"/><tag k="addr:housenumber" v="17902"/><tag k="coa:place_id" v="3067845"/></node><node id="-78" lat="30.470311" lon="-97.635717" changeset="false"><tag k="addr:street" v="Cahir Glen Cove"/><tag k="addr:housenumber" v="17705"/><tag k="coa:place_id" v="195899"/></node><node id="-79" lat="30.470804" lon="-97.636656" changeset="false"><tag k="addr:street" v="Cormac Court"/><tag k="addr:housenumber" v="17705"/><tag k="coa:place_id" v="195888"/></node><node id="-80" lat="30.479445" lon="-97.630338" changeset="false"><tag k="addr:street" v="Star Gazer Way"/><tag k="addr:housenumber" v="18416"/><tag k="coa:place_id" v="3255697"/></node><node id="-81" lat="30.478765" lon="-97.630758" changeset="false"><tag k="addr:street" v="Pencil Cactus Drive"/><tag k="addr:housenumber" v="18605"/><tag k="coa:place_id" v="3255777"/></node><node id="-82" lat="30.476235" lon="-97.62815" changeset="false"><tag k="addr:street" v="Springbrook Road"/><tag k="addr:housenumber" v="504"/><tag k="coa:place_id" v="3255827"/></node><node id="-83" lat="30.481076" lon="-97.637457" changeset="false"><tag k="addr:street" v="Howlin Wolf Trail"/><tag k="addr:housenumber" v="1400"/><tag k="coa:place_id" v="3362062"/></node><node id="-84" lat="30.477835" lon="-97.630095" changeset="false"><tag k="addr:street" v="Pencil Cactus Drive"/><tag k="addr:housenumber" v="18632"/><tag k="coa:place_id" v="3255772"/></node><node id="-85" lat="30.479812" lon="-97.636773" changeset="false"><tag k="addr:street" v="Faber Drive"/><tag k="addr:housenumber" v="1400"/><tag k="coa:place_id" v="3774298"/></node><node id="-86" lat="30.475775" lon="-97.628326" changeset="false"><tag k="addr:street" v="Springbrook Road"/><tag k="addr:housenumber" v="512"/><tag k="coa:place_id" v="3309433"/></node><node id="-87" lat="30.480287" lon="-97.629777" changeset="false"><tag k="addr:street" v="Pencil Cactus Drive"/><tag k="addr:housenumber" v="18304"/><tag k="coa:place_id" v="5091431"/></node><node id="-88" lat="30.479505" lon="-97.631744" changeset="false"><tag k="addr:street" v="Pencil Cactus Drive"/><tag k="addr:housenumber" v="18508"/><tag k="coa:place_id" v="5091443"/></node><node id="-89" lat="30.479812" lon="-97.629655" changeset="false"><tag k="addr:street" v="Pencil Cactus Drive"/><tag k="addr:housenumber" v="18301"/><tag k="coa:place_id" v="5091444"/></node><node id="-90" lat="30.479768" lon="-97.630801" changeset="false"><tag k="addr:street" v="Pencil Cactus Drive"/><tag k="addr:housenumber" v="18401"/><tag k="coa:place_id" v="5091449"/></node><node id="-91" lat="30.479749" lon="-97.631022" changeset="false"><tag k="addr:street" v="Pencil Cactus Drive"/><tag k="addr:housenumber" v="18405"/><tag k="coa:place_id" v="5091450"/></node><node id="-92" lat="30.470174" lon="-97.63587" changeset="false"><tag k="addr:street" v="West Pflugerville Parkway"/><tag k="addr:housenumber" v="1006"/><tag k="coa:place_id" v="218853"/></node><node id="-93" lat="30.479818" lon="-97.632505" changeset="false"><tag k="addr:street" v="Autumn Sage Way"/><tag k="addr:housenumber" v="1216"/><tag k="coa:place_id" v="5087124"/></node><node id="-94" lat="30.480594" lon="-97.633288" changeset="false"><tag k="addr:street" v="Autumn Sage Way"/><tag k="addr:housenumber" v="1300"/><tag k="coa:place_id" v="5087129"/></node><node id="-95" lat="30.480397" lon="-97.633811" changeset="false"><tag k="addr:street" v="Autumn Sage Way"/><tag k="addr:housenumber" v="1305"/><tag k="coa:place_id" v="5087132"/></node><node id="-96" lat="30.478853" lon="-97.632479" changeset="false"><tag k="addr:street" v="Autumn Sage Way"/><tag k="addr:housenumber" v="1201"/><tag k="coa:place_id" v="5087111"/></node><node id="-97" lat="30.471725" lon="-97.638013" changeset="false"><tag k="addr:street" v="Liffey Drive"/><tag k="addr:housenumber" v="1109"/><tag k="coa:place_id" v="195841"/></node><node id="-98" lat="30.477915" lon="-97.632091" changeset="false"><tag k="addr:street" v="Autumn Sage Way"/><tag k="addr:housenumber" v="1109"/><tag k="coa:place_id" v="5087150"/></node><node id="-99" lat="30.478259" lon="-97.6354" changeset="false"><tag k="addr:street" v="Faber Drive"/><tag k="addr:housenumber" v="1217"/><tag k="coa:place_id" v="3102446"/></node><node id="-100" lat="30.476218" lon="-97.629581" changeset="false"><tag k="addr:street" v="Autumn Sage Way"/><tag k="addr:housenumber" v="900"/><tag k="coa:place_id" v="5071764"/></node><node id="-101" lat="30.474103" lon="-97.634926" changeset="false"><tag k="addr:street" v="Howeth Cove"/><tag k="addr:housenumber" v="17906"/><tag k="coa:place_id" v="3067847"/></node><node id="-102" lat="30.478488" lon="-97.630128" changeset="false"><tag k="addr:street" v="Pencil Cactus Drive"/><tag k="addr:housenumber" v="18617"/><tag k="coa:place_id" v="3255780"/></node><node id="-103" lat="30.478264" lon="-97.62918" changeset="false"><tag k="addr:street" v="Springbrook Road"/><tag k="addr:housenumber" v="320"/><tag k="coa:place_id" v="3255789"/></node><node id="-104" lat="30.477945" lon="-97.62893" changeset="false"><tag k="addr:street" v="Springbrook Road"/><tag k="addr:housenumber" v="328"/><tag k="coa:place_id" v="3255791"/></node><node id="-105" lat="30.477768" lon="-97.628786" changeset="false"><tag k="addr:street" v="Springbrook Road"/><tag k="addr:housenumber" v="400"/><tag k="coa:place_id" v="3255797"/></node><node id="-106" lat="30.479169" lon="-97.636207" changeset="false"><tag k="addr:street" v="Berol Drive"/><tag k="addr:housenumber" v="18200"/><tag k="coa:place_id" v="3362063"/></node><node id="-107" lat="30.478529" lon="-97.631127" changeset="false"><tag k="addr:street" v="Pencil Cactus Drive"/><tag k="addr:housenumber" v="18608"/><tag k="coa:place_id" v="3255766"/></node><node id="-108" lat="30.477606" lon="-97.628693" changeset="false"><tag k="addr:street" v="Springbrook Road"/><tag k="addr:housenumber" v="404"/><tag k="coa:place_id" v="3255801"/></node><node id="-109" lat="30.474765" lon="-97.628665" changeset="false"><tag k="addr:street" v="Springbrook Road"/><tag k="addr:housenumber" v="620"/><tag k="coa:place_id" v="3309431"/></node><node id="-110" lat="30.475982" lon="-97.62914" changeset="false"><tag k="addr:street" v="Autumn Sage Way"/><tag k="addr:housenumber" v="816"/><tag k="coa:place_id" v="5071757"/></node><node id="-111" lat="30.47548" lon="-97.628803" changeset="false"><tag k="addr:street" v="Autumn Sage Way"/><tag k="addr:housenumber" v="809"/><tag k="coa:place_id" v="5071759"/></node><node id="-112" lat="30.476886" lon="-97.630093" changeset="false"><tag k="addr:street" v="Autumn Sage Way"/><tag k="addr:housenumber" v="916"/><tag k="coa:place_id" v="5071768"/></node><node id="-113" lat="30.476188" lon="-97.63014" changeset="false"><tag k="addr:street" v="Autumn Sage Way"/><tag k="addr:housenumber" v="909"/><tag k="coa:place_id" v="5071772"/></node><node id="-114" lat="30.472264" lon="-97.633847" changeset="false"><tag k="addr:street" v="West Pflugerville Parkway"/><tag k="addr:housenumber" v="914"/><tag k="coa:place_id" v="5107143"/></node><node id="-115" lat="30.484725" lon="-97.629248" changeset="false"><tag k="addr:street" v="New Meister Lane,1100"/><tag k="addr:housenumber" v="1121"/><tag k="coa:place_id" v="3315134"/></node><node id="-116" lat="30.480888" lon="-97.634545" changeset="false"><tag k="addr:street" v="Autumn Sage Way"/><tag k="addr:housenumber" v="1321"/><tag k="coa:place_id" v="5087136"/></node><node id="-117" lat="30.47922" lon="-97.632676" changeset="false"><tag k="addr:street" v="Autumn Sage Way"/><tag k="addr:housenumber" v="1209"/><tag k="coa:place_id" v="5087113"/></node><node id="-118" lat="30.480158" lon="-97.633454" changeset="false"><tag k="addr:street" v="Autumn Sage Way"/><tag k="addr:housenumber" v="1233"/><tag k="coa:place_id" v="5087119"/></node><node id="-119" lat="30.477936" lon="-97.631328" changeset="false"><tag k="addr:street" v="Autumn Sage Way"/><tag k="addr:housenumber" v="1020"/><tag k="coa:place_id" v="5087148"/></node><node id="-120" lat="30.477793" lon="-97.631918" changeset="false"><tag k="addr:street" v="Autumn Sage Way"/><tag k="addr:housenumber" v="1105"/><tag k="coa:place_id" v="5087149"/></node><node id="-121" lat="30.47808" lon="-97.632224" changeset="false"><tag k="addr:street" v="Autumn Sage Way"/><tag k="addr:housenumber" v="1113"/><tag k="coa:place_id" v="5087151"/></node><node id="-122" lat="30.478504" lon="-97.631928" changeset="false"><tag k="addr:street" v="Autumn Sage Way"/><tag k="addr:housenumber" v="1116"/><tag k="coa:place_id" v="5087158"/></node><node id="-123" lat="30.479812" lon="-97.629916" changeset="false"><tag k="addr:street" v="Pencil Cactus Drive"/><tag k="addr:housenumber" v="18305"/><tag k="coa:place_id" v="5091445"/></node><node id="-124" lat="30.476528" lon="-97.629056" changeset="false"><tag k="addr:street" v="Pencil Cactus Drive"/><tag k="addr:housenumber" v="18720"/><tag k="coa:place_id" v="3255814"/></node><node id="-125" lat="30.480535" lon="-97.633995" changeset="false"><tag k="addr:street" v="Autumn Sage Way"/><tag k="addr:housenumber" v="1309"/><tag k="coa:place_id" v="5087133"/></node><node id="-126" lat="30.47954" lon="-97.632896" changeset="false"><tag k="addr:street" v="Autumn Sage Way"/><tag k="addr:housenumber" v="1217"/><tag k="coa:place_id" v="5087115"/></node><node id="-127" lat="30.480002" lon="-97.633282" changeset="false"><tag k="addr:street" v="Autumn Sage Way"/><tag k="addr:housenumber" v="1229"/><tag k="coa:place_id" v="5087118"/></node><node id="-128" lat="30.479639" lon="-97.632391" changeset="false"><tag k="addr:street" v="Autumn Sage Way"/><tag k="addr:housenumber" v="1212"/><tag k="coa:place_id" v="5087123"/></node><node id="-129" lat="30.47773" lon="-97.630965" changeset="false"><tag k="addr:street" v="Autumn Sage Way"/><tag k="addr:housenumber" v="1012"/><tag k="coa:place_id" v="5087146"/></node><node id="-130" lat="30.478628" lon="-97.632523" changeset="false"><tag k="addr:street" v="Autumn Sage Way"/><tag k="addr:housenumber" v="1125"/><tag k="coa:place_id" v="5087154"/></node><node id="-131" lat="30.473907" lon="-97.632183" changeset="false"><tag k="addr:street" v="Springbrook Road"/><tag k="addr:housenumber" v="925"/><tag k="coa:place_id" v="3046394"/></node><node id="-132" lat="30.480278" lon="-97.630006" changeset="false"><tag k="addr:street" v="Pencil Cactus Drive"/><tag k="addr:housenumber" v="18308"/><tag k="coa:place_id" v="5091432"/></node><node id="-133" lat="30.479914" lon="-97.631939" changeset="false"><tag k="addr:street" v="Pencil Cactus Drive"/><tag k="addr:housenumber" v="18500"/><tag k="coa:place_id" v="5091441"/></node><node id="-134" lat="30.471203" lon="-97.633647" changeset="false"><tag k="addr:street" v="Palitine Lane"/><tag k="addr:housenumber" v="905"/><tag k="coa:place_id" v="201366"/></node><node id="-135" lat="30.482715" lon="-97.632109" changeset="false"><tag k="addr:street" v="New Meister Lane"/><tag k="addr:housenumber" v="1221"/><tag k="coa:place_id" v="5076158"/></node><node id="-136" lat="30.475912" lon="-97.628908" changeset="false"><tag k="addr:street" v="Autumn Sage Way"/><tag k="addr:housenumber" v="812"/><tag k="coa:place_id" v="5071756"/></node><node id="-137" lat="30.476048" lon="-97.63002" changeset="false"><tag k="addr:street" v="Autumn Sage Way"/><tag k="addr:housenumber" v="905"/><tag k="coa:place_id" v="5071771"/></node><node id="-138" lat="30.477317" lon="-97.630433" changeset="false"><tag k="addr:street" v="Autumn Sage Way"/><tag k="addr:housenumber" v="1000"/><tag k="coa:place_id" v="5071777"/></node><node id="-139" lat="30.477525" lon="-97.63812" changeset="false"><tag k="addr:street" v="Schultz Lane"/><tag k="addr:housenumber" v="18100"/><tag k="coa:place_id" v="3392243"/></node><node id="-140" lat="30.479229" lon="-97.631493" changeset="false"><tag k="addr:street" v="Pencil Cactus Drive"/><tag k="addr:housenumber" v="18516"/><tag k="coa:place_id" v="3255775"/></node><node id="-141" lat="30.473755" lon="-97.641062" changeset="false"><tag k="addr:street" v="Schultz Lane"/><tag k="addr:housenumber" v="17511"/><tag k="coa:place_id" v="3772830"/></node><node id="-142" lat="30.480152" lon="-97.63279" changeset="false"><tag k="addr:street" v="Autumn Sage Way"/><tag k="addr:housenumber" v="1224"/><tag k="coa:place_id" v="5087126"/></node><node id="-143" lat="30.48121" lon="-97.634213" changeset="false"><tag k="addr:street" v="Autumn Sage Way"/><tag k="addr:housenumber" v="1318"/><tag k="coa:place_id" v="5087137"/></node><node id="-144" lat="30.479033" lon="-97.632077" changeset="false"><tag k="addr:street" v="Autumn Sage Way"/><tag k="addr:housenumber" v="1200"/><tag k="coa:place_id" v="5087120"/></node><node id="-145" lat="30.477344" lon="-97.631132" changeset="false"><tag k="addr:street" v="Autumn Sage Way"/><tag k="addr:housenumber" v="1009"/><tag k="coa:place_id" v="5087140"/></node><node id="-146" lat="30.477607" lon="-97.630786" changeset="false"><tag k="addr:street" v="Autumn Sage Way"/><tag k="addr:housenumber" v="1008"/><tag k="coa:place_id" v="5087145"/></node><node id="-147" lat="30.478322" lon="-97.631818" changeset="false"><tag k="addr:street" v="Autumn Sage Way"/><tag k="addr:housenumber" v="1112"/><tag k="coa:place_id" v="5087157"/></node><node id="-148" lat="30.478702" lon="-97.632014" changeset="false"><tag k="addr:street" v="Autumn Sage Way"/><tag k="addr:housenumber" v="1124"/><tag k="coa:place_id" v="5087159"/></node><node id="-149" lat="30.480242" lon="-97.630664" changeset="false"><tag k="addr:street" v="Pencil Cactus Drive"/><tag k="addr:housenumber" v="18320"/><tag k="coa:place_id" v="5091435"/></node><node id="-150" lat="30.480235" lon="-97.630885" changeset="false"><tag k="addr:street" v="Pencil Cactus Drive"/><tag k="addr:housenumber" v="18400"/><tag k="coa:place_id" v="5091436"/></node><node id="-151" lat="30.480158" lon="-97.631858" changeset="false"><tag k="addr:street" v="Pencil Cactus Drive"/><tag k="addr:housenumber" v="18416"/><tag k="coa:place_id" v="5091440"/></node><node id="-152" lat="30.475515" lon="-97.62905" changeset="false"><tag k="addr:street" v="Autumn Sage Way"/><tag k="addr:housenumber" v="813"/><tag k="coa:place_id" v="5071760"/></node><node id="-153" lat="30.476535" lon="-97.629869" changeset="false"><tag k="addr:street" v="Autumn Sage Way"/><tag k="addr:housenumber" v="908"/><tag k="coa:place_id" v="5071766"/></node><node id="-154" lat="30.476674" lon="-97.629968" changeset="false"><tag k="addr:street" v="Autumn Sage Way"/><tag k="addr:housenumber" v="912"/><tag k="coa:place_id" v="5071767"/></node><node id="-155" lat="30.476521" lon="-97.630372" changeset="false"><tag k="addr:street" v="Autumn Sage Way"/><tag k="addr:housenumber" v="917"/><tag k="coa:place_id" v="5071774"/></node><node id="-156" lat="30.476673" lon="-97.630485" changeset="false"><tag k="addr:street" v="Autumn Sage Way"/><tag k="addr:housenumber" v="921"/><tag k="coa:place_id" v="5071775"/></node><node id="-157" lat="30.482199" lon="-97.630016" changeset="false"><tag k="addr:street" v="New Meister Lane"/><tag k="addr:housenumber" v="1024"/><tag k="coa:place_id" v="3315130"/></node><node id="-158" lat="30.475896" lon="-97.629852" changeset="false"><tag k="addr:street" v="Autumn Sage Way"/><tag k="addr:housenumber" v="901"/><tag k="coa:place_id" v="5071770"/></node><node id="-159" lat="30.477045" lon="-97.629473" changeset="false"><tag k="addr:street" v="Pencil Cactus Drive"/><tag k="addr:housenumber" v="18708"/><tag k="coa:place_id" v="3255811"/></node><node id="-160" lat="30.476868" lon="-97.62934" changeset="false"><tag k="addr:street" v="Pencil Cactus Drive"/><tag k="addr:housenumber" v="18712"/><tag k="coa:place_id" v="3255812"/></node><node id="-161" lat="30.477268" lon="-97.628472" changeset="false"><tag k="addr:street" v="Springbrook Road"/><tag k="addr:housenumber" v="412"/><tag k="coa:place_id" v="3255800"/></node><node id="-162" lat="30.480724" lon="-97.633458" changeset="false"><tag k="addr:street" v="Autumn Sage Way"/><tag k="addr:housenumber" v="1304"/><tag k="coa:place_id" v="5087130"/></node><node id="-163" lat="30.479717" lon="-97.633006" changeset="false"><tag k="addr:street" v="Autumn Sage Way"/><tag k="addr:housenumber" v="1221"/><tag k="coa:place_id" v="5087116"/></node><node id="-164" lat="30.477832" lon="-97.631136" changeset="false"><tag k="addr:street" v="Autumn Sage Way"/><tag k="addr:housenumber" v="1016"/><tag k="coa:place_id" v="5087147"/></node><node id="-165" lat="30.478431" lon="-97.632476" changeset="false"><tag k="addr:street" v="Autumn Sage Way"/><tag k="addr:housenumber" v="1121"/><tag k="coa:place_id" v="5087153"/></node><node id="-166" lat="30.478617" lon="-97.629417" changeset="false"><tag k="addr:street" v="Springbrook Road"/><tag k="addr:housenumber" v="312"/><tag k="coa:place_id" v="3255787"/></node><node id="-167" lat="30.48026" lon="-97.629533" changeset="false"><tag k="addr:street" v="Pencil Cactus Drive"/><tag k="addr:housenumber" v="18300"/><tag k="coa:place_id" v="5091430"/></node><node id="-168" lat="30.480219" lon="-97.631108" changeset="false"><tag k="addr:street" v="Pencil Cactus Drive"/><tag k="addr:housenumber" v="18404"/><tag k="coa:place_id" v="5091437"/></node><node id="-169" lat="30.479688" lon="-97.631818" changeset="false"><tag k="addr:street" v="Pencil Cactus Drive"/><tag k="addr:housenumber" v="18504"/><tag k="coa:place_id" v="5091442"/></node><node id="-170" lat="30.47978" lon="-97.630578" changeset="false"><tag k="addr:street" v="Pencil Cactus Drive"/><tag k="addr:housenumber" v="18321"/><tag k="coa:place_id" v="5091448"/></node><node id="-171" lat="30.479029" lon="-97.629623" changeset="false"><tag k="addr:street" v="Star Gazer Way"/><tag k="addr:housenumber" v="18429"/><tag k="coa:place_id" v="3255705"/></node><node id="-172" lat="30.479481" lon="-97.629653" changeset="false"><tag k="addr:street" v="Star Gazer Way"/><tag k="addr:housenumber" v="18428"/><tag k="coa:place_id" v="3255700"/></node><node id="-173" lat="30.477393" lon="-97.62967" changeset="false"><tag k="addr:street" v="Pencil Cactus Drive"/><tag k="addr:housenumber" v="18700"/><tag k="coa:place_id" v="3255807"/></node><node id="-174" lat="30.478455" lon="-97.629267" changeset="false"><tag k="addr:street" v="Springbrook Road"/><tag k="addr:housenumber" v="316"/><tag k="coa:place_id" v="3255788"/></node><node id="-175" lat="30.471452" lon="-97.634473" changeset="false"><tag k="addr:street" v="West Pflugerville Parkway"/><tag k="addr:housenumber" v="916"/><tag k="coa:place_id" v="5107144"/></node><node id="-176" lat="30.482838" lon="-97.630934" changeset="false"><tag k="addr:street" v="New Meister Lane"/><tag k="addr:housenumber" v="1124"/><tag k="coa:place_id" v="3315131"/></node><node id="-177" lat="30.472113" lon="-97.631806" changeset="false"><tag k="addr:street" v="Regis Drive"/><tag k="addr:housenumber" v="17916"/><tag k="coa:place_id" v="201337"/></node><node id="-178" lat="30.479937" lon="-97.635757" changeset="false"><tag k="addr:street" v="Berol Drive"/><tag k="addr:housenumber" v="18216"/><tag k="coa:place_id" v="3102452"/></node><node id="-179" lat="30.474869" lon="-97.634549" changeset="false"><tag k="addr:street" v="Springbrook Road"/><tag k="addr:housenumber" v="1016"/><tag k="coa:place_id" v="3067868"/></node><node id="-180" lat="30.478504" lon="-97.636654" changeset="false"><tag k="addr:street" v="Berol Drive"/><tag k="addr:housenumber" v="18108"/><tag k="coa:place_id" v="3102467"/></node><node id="-181" lat="30.475511" lon="-97.634849" changeset="false"><tag k="addr:street" v="Glendalough Drive"/><tag k="addr:housenumber" v="1101"/><tag k="coa:place_id" v="3110368"/></node><node id="-182" lat="30.47242" lon="-97.632267" changeset="false"><tag k="addr:street" v="Kessler Drive"/><tag k="addr:housenumber" v="17508"/><tag k="coa:place_id" v="222165"/></node><node id="-183" lat="30.471017" lon="-97.633839" changeset="false"><tag k="addr:street" v="Regis Drive"/><tag k="addr:housenumber" v="17804"/><tag k="coa:place_id" v="201311"/></node><node id="-184" lat="30.476932" lon="-97.635627" changeset="false"><tag k="addr:street" v="Connemara Lane"/><tag k="addr:housenumber" v="1104"/><tag k="coa:place_id" v="3046445"/></node><node id="-185" lat="30.473735" lon="-97.631816" changeset="false"><tag k="addr:street" v="Springbrook Road"/><tag k="addr:housenumber" v="917"/><tag k="coa:place_id" v="3046393"/></node><node id="-186" lat="30.478671" lon="-97.630566" changeset="false"><tag k="addr:street" v="Pencil Cactus Drive"/><tag k="addr:housenumber" v="18609"/><tag k="coa:place_id" v="3255778"/></node><node id="-187" lat="30.478092" lon="-97.629064" changeset="false"><tag k="addr:street" v="Springbrook Road"/><tag k="addr:housenumber" v="324"/><tag k="coa:place_id" v="3255790"/></node><node id="-188" lat="30.479364" lon="-97.630978" changeset="false"><tag k="addr:street" v="Star Gazer Way"/><tag k="addr:housenumber" v="18404"/><tag k="coa:place_id" v="3255694"/></node><node id="-189" lat="30.478312" lon="-97.630754" changeset="false"><tag k="addr:street" v="Pencil Cactus Drive"/><tag k="addr:housenumber" v="18616"/><tag k="coa:place_id" v="3255768"/></node><node id="-190" lat="30.476384" lon="-97.6286" changeset="false"><tag k="addr:street" v="Pencil Cactus Drive"/><tag k="addr:housenumber" v="18728"/><tag k="coa:place_id" v="3255816"/></node></osm>