<?xml version="1.0" encoding="UTF-8"?><osm version="0.6" generator="github.com/aaronlidman/osm-and-geojson"><node id="-1" lat="30.210898" lon="-97.86753" changeset="false"><tag k="addr:street" v="Ganttcrest Drive"/><tag k="addr:housenumber" v="8510"/><tag k="coa:place_id" v="60147"/></node><node id="-2" lat="30.221648" lon="-97.862341" changeset="false"><tag k="addr:street" v="Wagon Train Road"/><tag k="addr:housenumber" v="5642"/><tag k="coa:place_id" v="554535"/></node><node id="-3" lat="30.210577" lon="-97.870135" changeset="false"><tag k="addr:street" v="Fitchwood Lane"/><tag k="addr:housenumber" v="5713"/><tag k="coa:place_id" v="59558"/></node><node id="-4" lat="30.217289" lon="-97.87051" changeset="false"><tag k="addr:street" v="Abilene Trail"/><tag k="addr:housenumber" v="6051"/><tag k="coa:place_id" v="1033233"/></node><node id="-5" lat="30.220289" lon="-97.864931" changeset="false"><tag k="addr:street" v="Wagon Train Road"/><tag k="addr:housenumber" v="5809"/><tag k="coa:place_id" v="426472"/></node><node id="-6" lat="30.220235" lon="-97.867694" changeset="false"><tag k="addr:street" v="Abilene Trail"/><tag k="addr:housenumber" v="6009"/><tag k="coa:place_id" v="1140873"/></node><node id="-7" lat="30.217141" lon="-97.870653" changeset="false"><tag k="addr:street" v="Abilene Trail"/><tag k="addr:housenumber" v="6053"/><tag k="coa:place_id" v="72859"/></node><node id="-8" lat="30.220351" lon="-97.863677" changeset="false"><tag k="addr:street" v="Hawkeye Drive"/><tag k="addr:housenumber" v="7617"/><tag k="coa:place_id" v="416944"/></node><node id="-9" lat="30.218754" lon="-97.869583" changeset="false"><tag k="addr:street" v="Abilene Trail"/><tag k="addr:housenumber" v="6035"/><tag k="coa:place_id" v="1140874"/></node><node id="-10" lat="30.221879" lon="-97.86234" changeset="false"><tag k="addr:street" v="Wagon Train Road"/><tag k="addr:housenumber" v="5640"/><tag k="coa:place_id" v="554541"/></node><node id="-11" lat="30.215716" lon="-97.868079" changeset="false"><tag k="addr:street" v="Doe Meadow Drive"/><tag k="addr:housenumber" v="8106"/><tag k="coa:place_id" v="80607"/></node><node id="-12" lat="30.220982" lon="-97.861635" changeset="false"><tag k="addr:street" v="Wagon Train Road"/><tag k="addr:housenumber" v="5647"/><tag k="coa:place_id" v="734500"/></node><node id="-13" lat="30.220324" lon="-97.865572" changeset="false"><tag k="addr:street" v="Kayview Drive"/><tag k="addr:housenumber" v="5812"/><tag k="coa:place_id" v="72883"/></node><node id="-14" lat="30.218537" lon="-97.864211" changeset="false"><tag k="addr:street" v="Kincheon Court"/><tag k="addr:housenumber" v="7801"/><tag k="coa:place_id" v="508480"/></node><node id="-15" lat="30.221707" lon="-97.863864" changeset="false"><tag k="addr:street" v="Hawkeye Drive"/><tag k="addr:housenumber" v="7601"/><tag k="coa:place_id" v="555627"/></node><node id="-16" lat="30.21806" lon="-97.863536" changeset="false"><tag k="addr:street" v="Kincheon Court"/><tag k="addr:housenumber" v="7811"/><tag k="coa:place_id" v="431536"/></node><node id="-17" lat="30.210816" lon="-97.867699" changeset="false"><tag k="addr:street" v="Ganttcrest Drive"/><tag k="addr:housenumber" v="8512"/><tag k="coa:place_id" v="60146"/></node><node id="-18" lat="30.212994" lon="-97.867101" changeset="false"><tag k="addr:street" v="Tyhurst Drive"/><tag k="addr:housenumber" v="8402"/><tag k="coa:place_id" v="60297"/></node><node id="-19" lat="30.219778" lon="-97.868362" changeset="false"><tag k="addr:street" v="Abilene Trail"/><tag k="addr:housenumber" v="6017"/><tag k="coa:place_id" v="244408"/></node><node id="-20" lat="30.218871" lon="-97.864829" changeset="false"><tag k="addr:street" v="Kincheon Court"/><tag k="addr:housenumber" v="7702"/><tag k="coa:place_id" v="421282"/></node><node id="-21" lat="30.218711" lon="-97.863942" changeset="false"><tag k="addr:street" v="Kayview Drive"/><tag k="addr:housenumber" v="5703"/><tag k="coa:place_id" v="431566"/></node><node id="-22" lat="30.220711" lon="-97.864537" changeset="false"><tag k="addr:street" v="Wagon Train Road"/><tag k="addr:housenumber" v="5806"/><tag k="coa:place_id" v="373660"/></node><node id="-23" lat="30.219072" lon="-97.864844" changeset="false"><tag k="addr:street" v="Kincheon Court"/><tag k="addr:housenumber" v="7700"/><tag k="coa:place_id" v="479284"/></node><node id="-24" lat="30.218511" lon="-97.861826" changeset="false"><tag k="addr:street" v="Kayview Drive"/><tag k="addr:housenumber" v="5510"/><tag k="coa:place_id" v="174547"/></node><node id="-25" lat="30.221297" lon="-97.864285" changeset="false"><tag k="addr:street" v="Hawkeye Drive"/><tag k="addr:housenumber" v="7604"/><tag k="coa:place_id" v="86729"/></node><node id="-26" lat="30.215713" lon="-97.869934" changeset="false"><tag k="addr:street" v="Brown Rock Trail"/><tag k="addr:housenumber" v="5907"/><tag k="coa:place_id" v="80635"/></node><node id="-27" lat="30.216668" lon="-97.867949" changeset="false"><tag k="addr:street" v="Red Rock Cove"/><tag k="addr:housenumber" v="8001"/><tag k="coa:place_id" v="114895"/></node><node id="-28" lat="30.219622" lon="-97.865678" changeset="false"><tag k="addr:street" v="Kayview Drive"/><tag k="addr:housenumber" v="5805"/><tag k="coa:place_id" v="757036"/></node><node id="-29" lat="30.219306" lon="-97.864267" changeset="false"><tag k="addr:street" v="Kayview Drive"/><tag k="addr:housenumber" v="5706"/><tag k="coa:place_id" v="501664"/></node><node id="-30" lat="30.22089" lon="-97.862724" changeset="false"><tag k="addr:street" v="Ladle Lane"/><tag k="addr:housenumber" v="7507"/><tag k="coa:place_id" v="434920"/></node><node id="-31" lat="30.215013" lon="-97.869552" changeset="false"><tag k="addr:street" v="Blanco River Pass"/><tag k="addr:housenumber" v="5902"/><tag k="coa:place_id" v="60798"/></node><node id="-32" lat="30.219091" lon="-97.862687" changeset="false"><tag k="addr:street" v="Kayview Drive"/><tag k="addr:housenumber" v="5606"/><tag k="coa:place_id" v="119808"/></node><node id="-33" lat="30.219078" lon="-97.867703" changeset="false"><tag k="addr:street" v="Wheel Rim Circle"/><tag k="addr:housenumber" v="7812"/><tag k="coa:place_id" v="760174"/></node><node id="-34" lat="30.209908" lon="-97.870677" changeset="false"><tag k="addr:street" v="Marchmont Lane"/><tag k="addr:housenumber" v="5713"/><tag k="coa:place_id" v="59587"/></node><node id="-35" lat="30.208349" lon="-97.869693" changeset="false"><tag k="addr:street" v="Pecanwood Lane"/><tag k="addr:housenumber" v="5701"/><tag k="coa:place_id" v="59618"/></node><node id="-36" lat="30.21586" lon="-97.870252" changeset="false"><tag k="addr:street" v="Brown Rock Trail"/><tag k="addr:housenumber" v="5911"/><tag k="coa:place_id" v="80637"/></node><node id="-37" lat="30.220983" lon="-97.863671" changeset="false"><tag k="addr:street" v="Hawkeye Drive"/><tag k="addr:housenumber" v="7609"/><tag k="coa:place_id" v="57037"/></node><node id="-38" lat="30.220818" lon="-97.861684" changeset="false"><tag k="addr:street" v="Wagon Train Road"/><tag k="addr:housenumber" v="5649"/><tag k="coa:place_id" v="75344"/></node><node id="-39" lat="30.218738" lon="-97.86893" changeset="false"><tag k="addr:street" v="Wheel Rim Circle"/><tag k="addr:housenumber" v="7937"/><tag k="coa:place_id" v="562684"/></node><node id="-40" lat="30.218194" lon="-97.864493" changeset="false"><tag k="addr:street" v="Kincheon Court"/><tag k="addr:housenumber" v="7802"/><tag k="coa:place_id" v="421354"/></node><node id="-41" lat="30.209471" lon="-97.870291" changeset="false"><tag k="addr:street" v="Marchmont Lane"/><tag k="addr:housenumber" v="5707"/><tag k="coa:place_id" v="59584"/></node><node id="-42" lat="30.220311" lon="-97.864202" changeset="false"><tag k="addr:street" v="Wagon Train Road"/><tag k="addr:housenumber" v="5800"/><tag k="coa:place_id" v="59507"/></node><node id="-43" lat="30.219322" lon="-97.865395" changeset="false"><tag k="addr:street" v="Kayview Drive"/><tag k="addr:housenumber" v="5803"/><tag k="coa:place_id" v="72872"/></node><node id="-44" lat="30.214763" lon="-97.868842" changeset="false"><tag k="addr:street" v="Blanco River Pass"/><tag k="addr:housenumber" v="5802"/><tag k="coa:place_id" v="60802"/></node><node id="-45" lat="30.215301" lon="-97.871957" changeset="false"><tag k="addr:street" v="Doe Meadow Drive"/><tag k="addr:housenumber" v="8340"/><tag k="coa:place_id" v="476464"/></node><node id="-46" lat="30.221787" lon="-97.862885" changeset="false"><tag k="addr:street" v="Ladle Lane"/><tag k="addr:housenumber" v="7403"/><tag k="coa:place_id" v="981963"/></node><node id="-47" lat="30.218015" lon="-97.868808" changeset="false"><tag k="addr:street" v="Doe Meadow Drive"/><tag k="addr:housenumber" v="8011"/><tag k="coa:place_id" v="80589"/></node><node id="-48" lat="30.211798" lon="-97.866846" changeset="false"><tag k="addr:street" v="Forest Heights Lane"/><tag k="addr:housenumber" v="8409"/><tag k="coa:place_id" v="60136"/></node><node id="-49" lat="30.221221" lon="-97.862756" changeset="false"><tag k="addr:street" v="Ladle Lane"/><tag k="addr:housenumber" v="7503"/><tag k="coa:place_id" v="554619"/></node><node id="-50" lat="30.212189" lon="-97.866007" changeset="false"><tag k="addr:street" v="Ganttcrest Drive"/><tag k="addr:housenumber" v="8306"/><tag k="coa:place_id" v="60158"/></node><node id="-51" lat="30.219316" lon="-97.868948" changeset="false"><tag k="addr:street" v="Abilene Trail"/><tag k="addr:housenumber" v="6025"/><tag k="coa:place_id" v="510748"/></node><node id="-52" lat="30.221533" lon="-97.863788" changeset="false"><tag k="addr:street" v="Hawkeye Drive"/><tag k="addr:housenumber" v="7603"/><tag k="coa:place_id" v="362530"/></node><node id="-53" lat="30.221468" lon="-97.861037" changeset="false"><tag k="addr:street" v="Wagon Train Cove"/><tag k="addr:housenumber" v="5603"/><tag k="coa:place_id" v="554493"/></node><node id="-54" lat="30.213971" lon="-97.864883" changeset="false"><tag k="addr:street" v="Ganttcrest Drive"/><tag k="addr:housenumber" v="8110"/><tag k="coa:place_id" v="60233"/></node><node id="-55" lat="30.217875" lon="-97.864228" changeset="false"><tag k="addr:street" v="Kincheon Court"/><tag k="addr:housenumber" v="7808"/><tag k="coa:place_id" v="487366"/></node><node id="-56" lat="30.209609" lon="-97.870435" changeset="false"><tag k="addr:street" v="Marchmont Lane"/><tag k="addr:housenumber" v="5709"/><tag k="coa:place_id" v="59585"/></node><node id="-57" lat="30.219237" lon="-97.865248" changeset="false"><tag k="addr:street" v="Kayview Drive"/><tag k="addr:housenumber" v="5801"/><tag k="coa:place_id" v="489826"/></node><node id="-58" lat="30.217729" lon="-97.870203" changeset="false"><tag k="addr:street" v="Abilene Trail"/><tag k="addr:housenumber" v="6045"/><tag k="coa:place_id" v="432946"/></node><node id="-59" lat="30.219177" lon="-97.867853" changeset="false"><tag k="addr:street" v="Wheel Rim Circle"/><tag k="addr:housenumber" v="7810"/><tag k="coa:place_id" v="318664"/></node><node id="-60" lat="30.210646" lon="-97.869601" changeset="false"><tag k="addr:street" v="Fitchwood Lane"/><tag k="addr:housenumber" v="5708"/><tag k="coa:place_id" v="59549"/></node><node id="-61" lat="30.219937" lon="-97.864495" changeset="false"><tag k="addr:street" v="Wagon Train Road"/><tag k="addr:housenumber" v="5803"/><tag k="coa:place_id" v="426514"/></node><node id="-62" lat="30.21856" lon="-97.866678" changeset="false"><tag k="addr:street" v="Wheel Rim Circle"/><tag k="addr:housenumber" v="7824"/><tag k="coa:place_id" v="80532"/></node><node id="-63" lat="30.219562" lon="-97.864847" changeset="false"><tag k="addr:street" v="Kayview Drive"/><tag k="addr:housenumber" v="5714"/><tag k="coa:place_id" v="72890"/></node><node id="-64" lat="30.218707" lon="-97.861893" changeset="false"><tag k="addr:street" v="Kayview Drive"/><tag k="addr:housenumber" v="5514"/><tag k="coa:place_id" v="157038"/></node><node id="-65" lat="30.213703" lon="-97.865091" changeset="false"><tag k="addr:street" v="Ganttcrest Drive"/><tag k="addr:housenumber" v="8202"/><tag k="coa:place_id" v="60231"/></node><node id="-66" lat="30.218218" lon="-97.863889" changeset="false"><tag k="addr:street" v="Kincheon Court"/><tag k="addr:housenumber" v="7807"/><tag k="coa:place_id" v="431632"/></node><node id="-67" lat="30.215344" lon="-97.86918" changeset="false"><tag k="addr:street" v="Brown Rock Trail"/><tag k="addr:housenumber" v="5809"/><tag k="coa:place_id" v="80631"/></node><node id="-68" lat="30.218643" lon="-97.863572" changeset="false"><tag k="addr:street" v="Kayview Drive"/><tag k="addr:housenumber" v="5617"/><tag k="coa:place_id" v="72869"/></node><node id="-69" lat="30.211369" lon="-97.866739" changeset="false"><tag k="addr:street" v="Ganttcrest Drive"/><tag k="addr:housenumber" v="8500"/><tag k="coa:place_id" v="60152"/></node><node id="-70" lat="30.214336" lon="-97.869954" changeset="false"><tag k="addr:street" v="Doe Meadow Drive"/><tag k="addr:housenumber" v="8316"/><tag k="coa:place_id" v="60829"/></node><node id="-71" lat="30.222004" lon="-97.862304" changeset="false"><tag k="addr:street" v="Wagon Train Road"/><tag k="addr:housenumber" v="5638"/><tag k="coa:place_id" v="554547"/></node><node id="-72" lat="30.213065" lon="-97.872086" changeset="false"><tag k="addr:street" v="La Naranja Lane"/><tag k="addr:housenumber" v="6003"/><tag k="coa:place_id" v="698344"/></node><node id="-73" lat="30.221799" lon="-97.861781" changeset="false"><tag k="addr:street" v="Wagon Train Road"/><tag k="addr:housenumber" v="5635"/><tag k="coa:place_id" v="554445"/></node><node id="-74" lat="30.213448" lon="-97.866286" changeset="false"><tag k="addr:street" v="Forest Heights Lane"/><tag k="addr:housenumber" v="8210"/><tag k="coa:place_id" v="60185"/></node><node id="-75" lat="30.210445" lon="-97.87003" changeset="false"><tag k="addr:street" v="Fitchwood Lane"/><tag k="addr:housenumber" v="5711"/><tag k="coa:place_id" v="59557"/></node><node id="-76" lat="30.220689" lon="-97.863707" changeset="false"><tag k="addr:street" v="Hawkeye Drive"/><tag k="addr:housenumber" v="7613"/><tag k="coa:place_id" v="364882"/></node><node id="-77" lat="30.220657" lon="-97.863302" changeset="false"><tag k="addr:street" v="Ladle Lane"/><tag k="addr:housenumber" v="7508"/><tag k="coa:place_id" v="426466"/></node><node id="-78" lat="30.219613" lon="-97.868519" changeset="false"><tag k="addr:street" v="Abilene Trail"/><tag k="addr:housenumber" v="6019"/><tag k="coa:place_id" v="173884"/></node><node id="-79" lat="30.20843" lon="-97.869887" changeset="false"><tag k="addr:street" v="Pecanwood Lane"/><tag k="addr:housenumber" v="5703"/><tag k="coa:place_id" v="59619"/></node><node id="-80" lat="30.21895" lon="-97.86733" changeset="false"><tag k="addr:street" v="Wheel Rim Circle"/><tag k="addr:housenumber" v="7816"/><tag k="coa:place_id" v="711826"/></node><node id="-81" lat="30.217797" lon="-97.868322" changeset="false"><tag k="addr:street" v="Doe Meadow Drive"/><tag k="addr:housenumber" v="8017"/><tag k="coa:place_id" v="80592"/></node><node id="-82" lat="30.221103" lon="-97.864214" changeset="false"><tag k="addr:street" v="Hawkeye Drive"/><tag k="addr:housenumber" v="7606"/><tag k="coa:place_id" v="367588"/></node><node id="-83" lat="30.218407" lon="-97.86471" changeset="false"><tag k="addr:street" v="Kincheon Court"/><tag k="addr:housenumber" v="7708"/><tag k="coa:place_id" v="421330"/></node><node id="-84" lat="30.220444" lon="-97.863364" changeset="false"><tag k="addr:street" v="Ladle Lane"/><tag k="addr:housenumber" v="7510"/><tag k="coa:place_id" v="445540"/></node><node id="-85" lat="30.214335" lon="-97.864055" changeset="false"><tag k="addr:street" v="Ganttcrest Drive"/><tag k="addr:housenumber" v="8105"/><tag k="coa:place_id" v="60216"/></node><node id="-86" lat="30.220969" lon="-97.864216" changeset="false"><tag k="addr:street" v="Hawkeye Drive"/><tag k="addr:housenumber" v="7608"/><tag k="coa:place_id" v="373522"/></node><node id="-87" lat="30.219022" lon="-97.86925" changeset="false"><tag k="addr:street" v="Abilene Trail"/><tag k="addr:housenumber" v="6031"/><tag k="coa:place_id" v="472984"/></node><node id="-88" lat="30.208603" lon="-97.869451" changeset="false"><tag k="addr:street" v="Ganttcrest Drive"/><tag k="addr:housenumber" v="8707"/><tag k="coa:place_id" v="59686"/></node><node id="-89" lat="30.221379" lon="-97.863792" changeset="false"><tag k="addr:street" v="Hawkeye Drive"/><tag k="addr:housenumber" v="7605"/><tag k="coa:place_id" v="57039"/></node><node id="-90" lat="30.219595" lon="-97.863843" changeset="false"><tag k="addr:street" v="Wagon Train Road"/><tag k="addr:housenumber" v="5707"/><tag k="coa:place_id" v="440956"/></node><node id="-91" lat="30.219837" lon="-97.862139" changeset="false"><tag k="addr:street" v="Wagon Train Road"/><tag k="addr:housenumber" v="5661"/><tag k="coa:place_id" v="432916"/></node><node id="-92" lat="30.219408" lon="-97.868137" changeset="false"><tag k="addr:street" v="Wheel Rim Circle"/><tag k="addr:housenumber" v="7806"/><tag k="coa:place_id" v="318658"/></node><node id="-93" lat="30.219388" lon="-97.868819" changeset="false"><tag k="addr:street" v="Abilene Trail"/><tag k="addr:housenumber" v="6023"/><tag k="coa:place_id" v="184240"/></node><node id="-94" lat="30.220448" lon="-97.865036" changeset="false"><tag k="addr:street" v="Wagon Train Road"/><tag k="addr:housenumber" v="5811"/><tag k="coa:place_id" v="409348"/></node><node id="-95" lat="30.220491" lon="-97.863687" changeset="false"><tag k="addr:street" v="Hawkeye Drive"/><tag k="addr:housenumber" v="7615"/><tag k="coa:place_id" v="367558"/></node><node id="-96" lat="30.217416" lon="-97.86938" changeset="false"><tag k="addr:street" v="Bounty Trail"/><tag k="addr:housenumber" v="8005"/><tag k="coa:place_id" v="80653"/></node><node id="-97" lat="30.213224" lon="-97.872371" changeset="false"><tag k="addr:street" v="La Naranja Lane"/><tag k="addr:housenumber" v="6007"/><tag k="coa:place_id" v="698398"/></node><node id="-98" lat="30.22164" lon="-97.861826" changeset="false"><tag k="addr:street" v="Wagon Train Road"/><tag k="addr:housenumber" v="5637"/><tag k="coa:place_id" v="554451"/></node><node id="-99" lat="30.220641" lon="-97.864174" changeset="false"><tag k="addr:street" v="Hawkeye Drive"/><tag k="addr:housenumber" v="7612"/><tag k="coa:place_id" v="367564"/></node><node id="-100" lat="30.214118" lon="-97.869509" changeset="false"><tag k="addr:street" v="Doe Meadow Drive"/><tag k="addr:housenumber" v="8308"/><tag k="coa:place_id" v="515728"/></node><node id="-101" lat="30.216335" lon="-97.867658" changeset="false"><tag k="addr:street" v="Doe Meadow Drive"/><tag k="addr:housenumber" v="8022"/><tag k="coa:place_id" v="80611"/></node><node id="-102" lat="30.221392" lon="-97.864762" changeset="false"><tag k="addr:street" v="Abilene Trail"/><tag k="addr:housenumber" v="5811"/><tag k="coa:place_id" v="555603"/></node><node id="-103" lat="30.215095" lon="-97.868414" changeset="false"><tag k="addr:street" v="Brown Rock Trail"/><tag k="addr:housenumber" v="5801"/><tag k="coa:place_id" v="122425"/></node><node id="-104" lat="30.217684" lon="-97.868141" changeset="false"><tag k="addr:street" v="Doe Meadow Drive"/><tag k="addr:housenumber" v="8019"/><tag k="coa:place_id" v="80593"/></node><node id="-105" lat="30.214958" lon="-97.870443" changeset="false"><tag k="addr:street" v="Blanco River Pass"/><tag k="addr:housenumber" v="5911"/><tag k="coa:place_id" v="473878"/></node><node id="-106" lat="30.220253" lon="-97.863188" changeset="false"><tag k="addr:street" v="Ladle Lane"/><tag k="addr:housenumber" v="7512"/><tag k="coa:place_id" v="426274"/></node><node id="-107" lat="30.222388" lon="-97.862205" changeset="false"><tag k="addr:street" v="Wagon Train Road"/><tag k="addr:housenumber" v="5634"/><tag k="coa:place_id" v="554559"/></node><node id="-108" lat="30.221583" lon="-97.862816" changeset="false"><tag k="addr:street" v="Ladle Lane"/><tag k="addr:housenumber" v="7405"/><tag k="coa:place_id" v="554601"/></node><node id="-109" lat="30.219579" lon="-97.862326" changeset="false"><tag k="addr:street" v="Wagon Train Road"/><tag k="addr:housenumber" v="5665"/><tag k="coa:place_id" v="465130"/></node><node id="-110" lat="30.221414" lon="-97.862751" changeset="false"><tag k="addr:street" v="Ladle Lane"/><tag k="addr:housenumber" v="7501"/><tag k="coa:place_id" v="554607"/></node><node id="-111" lat="30.219868" lon="-97.864321" changeset="false"><tag k="addr:street" v="Wagon Train Road"/><tag k="addr:housenumber" v="5801"/><tag k="coa:place_id" v="482320"/></node><node id="-112" lat="30.221831" lon="-97.86116" changeset="false"><tag k="addr:street" v="Wagon Train Cove"/><tag k="addr:housenumber" v="5600"/><tag k="coa:place_id" v="554481"/></node><node id="-113" lat="30.22006" lon="-97.867859" changeset="false"><tag k="addr:street" v="Abilene Trail"/><tag k="addr:housenumber" v="6011"/><tag k="coa:place_id" v="87257"/></node><node id="-114" lat="30.219995" lon="-97.86364" changeset="false"><tag k="addr:street" v="Wagon Train Road"/><tag k="addr:housenumber" v="5704"/><tag k="coa:place_id" v="396010"/></node><node id="-115" lat="30.215235" lon="-97.871839" changeset="false"><tag k="addr:street" v="Doe Meadow Drive"/><tag k="addr:housenumber" v="8338"/><tag k="coa:place_id" v="60818"/></node><node id="-116" lat="30.210517" lon="-97.871619" changeset="false"><tag k="addr:street" v="Pecanwood Lane"/><tag k="addr:housenumber" v="5814"/><tag k="coa:place_id" v="59605"/></node><node id="-117" lat="30.218514" lon="-97.868698" changeset="false"><tag k="addr:street" v="Wheel Rim Circle"/><tag k="addr:housenumber" v="7933"/><tag k="coa:place_id" v="510850"/></node><node id="-118" lat="30.218151" lon="-97.863732" changeset="false"><tag k="addr:street" v="Kincheon Court"/><tag k="addr:housenumber" v="7809"/><tag k="coa:place_id" v="431638"/></node><node id="-119" lat="30.220495" lon="-97.864464" changeset="false"><tag k="addr:street" v="Wagon Train Road"/><tag k="addr:housenumber" v="5804"/><tag k="coa:place_id" v="373648"/></node><node id="-120" lat="30.219007" lon="-97.869177" changeset="false"><tag k="addr:street" v="Wheel Rim Circle"/><tag k="addr:housenumber" v="7957"/><tag k="coa:place_id" v="522178"/></node><node id="-121" lat="30.218598" lon="-97.868794" changeset="false"><tag k="addr:street" v="Wheel Rim Circle"/><tag k="addr:housenumber" v="7935"/><tag k="coa:place_id" v="510718"/></node><node id="-122" lat="30.219429" lon="-97.862542" changeset="false"><tag k="addr:street" v="Wagon Train Road"/><tag k="addr:housenumber" v="5667"/><tag k="coa:place_id" v="478846"/></node><node id="-123" lat="30.215759" lon="-97.868899" changeset="false"><tag k="addr:street" v="Brown Rock Trail"/><tag k="addr:housenumber" v="5808"/><tag k="coa:place_id" v="80624"/></node><node id="-124" lat="30.217617" lon="-97.867987" changeset="false"><tag k="addr:street" v="Doe Meadow Drive"/><tag k="addr:housenumber" v="8021"/><tag k="coa:place_id" v="751630"/></node><node id="-125" lat="30.212798" lon="-97.866678" changeset="false"><tag k="addr:street" v="Forest Heights Lane"/><tag k="addr:housenumber" v="8304"/><tag k="coa:place_id" v="139923"/></node><node id="-126" lat="30.222226" lon="-97.862662" changeset="false"><tag k="addr:street" v="Abilene Trail"/><tag k="addr:housenumber" v="5729"/><tag k="coa:place_id" v="554577"/></node><node id="-127" lat="30.218087" lon="-97.864406" changeset="false"><tag k="addr:street" v="Kincheon Court"/><tag k="addr:housenumber" v="7804"/><tag k="coa:place_id" v="421366"/></node><node id="-128" lat="30.220658" lon="-97.866917" changeset="false"><tag k="addr:street" v="Abilene Trail"/><tag k="addr:housenumber" v="6001"/><tag k="coa:place_id" v="199348"/></node><node id="-129" lat="30.221075" lon="-97.865892" changeset="false"><tag k="addr:street" v="Abilene Trail"/><tag k="addr:housenumber" v="5905"/><tag k="coa:place_id" v="335806"/></node><node id="-130" lat="30.217618" lon="-97.8699" changeset="false"><tag k="addr:street" v="Bounty Trail"/><tag k="addr:housenumber" v="8004"/><tag k="coa:place_id" v="80643"/></node><node id="-131" lat="30.217877" lon="-97.868487" changeset="false"><tag k="addr:street" v="Doe Meadow Drive"/><tag k="addr:housenumber" v="8015"/><tag k="coa:place_id" v="80591"/></node><node id="-132" lat="30.218375" lon="-97.869754" changeset="false"><tag k="addr:street" v="Abilene Trail"/><tag k="addr:housenumber" v="6039"/><tag k="coa:place_id" v="173416"/></node><node id="-133" lat="30.217953" lon="-97.866839" changeset="false"><tag k="addr:street" v="Wheel Rim Circle"/><tag k="addr:housenumber" v="7914"/><tag k="coa:place_id" v="80566"/></node><node id="-134" lat="30.222126" lon="-97.861616" changeset="false"><tag k="addr:street" v="Wagon Train Road"/><tag k="addr:housenumber" v="5631"/><tag k="coa:place_id" v="554427"/></node><node id="-135" lat="30.221007" lon="-97.865054" changeset="false"><tag k="addr:street" v="Wagon Train Road"/><tag k="addr:housenumber" v="5817"/><tag k="coa:place_id" v="409360"/></node><node id="-136" lat="30.212311" lon="-97.867661" changeset="false"><tag k="addr:street" v="Tyhurst Drive"/><tag k="addr:housenumber" v="8409"/><tag k="coa:place_id" v="60300"/></node><node id="-137" lat="30.218009" lon="-97.86432" changeset="false"><tag k="addr:street" v="Kincheon Court"/><tag k="addr:housenumber" v="7806"/><tag k="coa:place_id" v="421378"/></node><node id="-138" lat="30.218091" lon="-97.869039" changeset="false"><tag k="addr:street" v="Doe Meadow Drive"/><tag k="addr:housenumber" v="8009"/><tag k="coa:place_id" v="80588"/></node><node id="-139" lat="30.221454" lon="-97.864558" changeset="false"><tag k="addr:street" v="Abilene Trail"/><tag k="addr:housenumber" v="5809"/><tag k="coa:place_id" v="555597"/></node><node id="-140" lat="30.219115" lon="-97.869441" changeset="false"><tag k="addr:street" v="Abilene Trail"/><tag k="addr:housenumber" v="6029"/><tag k="coa:place_id" v="87259"/></node><node id="-141" lat="30.212913" lon="-97.871771" changeset="false"><tag k="addr:street" v="La Naranja Lane"/><tag k="addr:housenumber" v="6001"/><tag k="coa:place_id" v="51626"/></node><node id="-142" lat="30.214837" lon="-97.868979" changeset="false"><tag k="addr:street" v="Blanco River Pass"/><tag k="addr:housenumber" v="5804"/><tag k="coa:place_id" v="60801"/></node><node id="-143" lat="30.219428" lon="-97.867196" changeset="false"><tag k="addr:street" v="Wheel Rim Circle"/><tag k="addr:housenumber" v="7813"/><tag k="coa:place_id" v="80541"/></node><node id="-144" lat="30.219555" lon="-97.859635" changeset="false"><tag k="addr:street" v="Amanda Ellis Way"/><tag k="addr:housenumber" v="7500"/><tag k="coa:place_id" v="209829"/></node><node id="-145" lat="30.214191" lon="-97.86415" changeset="false"><tag k="addr:street" v="Ganttcrest Drive"/><tag k="addr:housenumber" v="8107"/><tag k="coa:place_id" v="60217"/></node><node id="-146" lat="30.214021" lon="-97.865901" changeset="false"><tag k="addr:street" v="Forest Heights Lane"/><tag k="addr:housenumber" v="8202"/><tag k="coa:place_id" v="60189"/></node><node id="-147" lat="30.221952" lon="-97.861742" changeset="false"><tag k="addr:street" v="Wagon Train Road"/><tag k="addr:housenumber" v="5633"/><tag k="coa:place_id" v="554439"/></node><node id="-148" lat="30.21309" lon="-97.866522" changeset="false"><tag k="addr:street" v="Forest Heights Lane"/><tag k="addr:housenumber" v="8300"/><tag k="coa:place_id" v="60126"/></node><node id="-149" lat="30.219301" lon="-97.867996" changeset="false"><tag k="addr:street" v="Wheel Rim Circle"/><tag k="addr:housenumber" v="7808"/><tag k="coa:place_id" v="340756"/></node><node id="-150" lat="30.218798" lon="-97.864332" changeset="false"><tag k="addr:street" v="Kincheon Court"/><tag k="addr:housenumber" v="7701"/><tag k="coa:place_id" v="485080"/></node><node id="-151" lat="30.215556" lon="-97.863197" changeset="false"><tag k="addr:street" v="Beckett Road"/><tag k="addr:housenumber" v="7910"/><tag k="coa:place_id" v="3050171"/></node><node id="-152" lat="30.22061" lon="-97.861717" changeset="false"><tag k="addr:street" v="Wagon Train Road"/><tag k="addr:housenumber" v="5651"/><tag k="coa:place_id" v="75345"/></node><node id="-153" lat="30.220435" lon="-97.861807" changeset="false"><tag k="addr:street" v="Wagon Train Road"/><tag k="addr:housenumber" v="5653"/><tag k="coa:place_id" v="75346"/></node><node id="-154" lat="30.21638" lon="-97.870127" changeset="false"><tag k="addr:street" v="Brown Rock Trail"/><tag k="addr:housenumber" v="5912"/><tag k="coa:place_id" v="80617"/></node><node id="-155" lat="30.216678" lon="-97.870931" changeset="false"><tag k="addr:street" v="Brown Rock Trail"/><tag k="addr:housenumber" v="6008"/><tag k="coa:place_id" v="748024"/></node><node id="-156" lat="30.216685" lon="-97.870855" changeset="false"><tag k="addr:street" v="Abilene Trail"/><tag k="addr:housenumber" v="6059"/><tag k="coa:place_id" v="112612"/></node></osm>