<?xml version="1.0" encoding="UTF-8"?><osm version="0.6" generator="github.com/aaronlidman/osm-and-geojson"><node id="-1" lat="30.499266" lon="-97.922812" changeset="false"><tag k="addr:street" v="Oak Street"/><tag k="addr:housenumber" v="11201"/><tag k="coa:place_id" v="3212827"/></node><node id="-2" lat="30.492185" lon="-97.923991" changeset="false"><tag k="addr:street" v="Jonestown Street"/><tag k="addr:housenumber" v="18503"/><tag k="coa:place_id" v="3221576"/></node><node id="-3" lat="30.491915" lon="-97.973419" changeset="false"><tag k="addr:street" v="Bluff Ridge Trail"/><tag k="addr:housenumber" v="8709"/><tag k="coa:place_id" v="3208941"/></node><node id="-4" lat="30.486976" lon="-97.969936" changeset="false"><tag k="addr:street" v="Talon Circle"/><tag k="addr:housenumber" v="8534"/><tag k="coa:place_id" v="3209535"/></node><node id="-5" lat="30.486964" lon="-97.969651" changeset="false"><tag k="addr:street" v="Talon Circle"/><tag k="addr:housenumber" v="8532"/><tag k="coa:place_id" v="3209534"/></node><node id="-6" lat="30.487402" lon="-97.970341" changeset="false"><tag k="addr:street" v="Bar K Ranch Road"/><tag k="addr:housenumber" v="8508"/><tag k="coa:place_id" v="3208687"/></node><node id="-7" lat="30.485496" lon="-97.971361" changeset="false"><tag k="addr:street" v="Bar K Ranch Road"/><tag k="addr:housenumber" v="8400"/><tag k="coa:place_id" v="3208706"/></node><node id="-8" lat="30.486771" lon="-97.970502" changeset="false"><tag k="addr:street" v="Bar K Ranch Road"/><tag k="addr:housenumber" v="8502"/><tag k="coa:place_id" v="3208700"/></node><node id="-9" lat="30.482775" lon="-97.971091" changeset="false"><tag k="addr:street" v="Timber Trail"/><tag k="addr:housenumber" v="8311"/><tag k="coa:place_id" v="3209059"/></node><node id="-10" lat="30.48276" lon="-97.970836" changeset="false"><tag k="addr:street" v="Timber Trail"/><tag k="addr:housenumber" v="8313"/><tag k="coa:place_id" v="3209060"/></node><node id="-11" lat="30.482858" lon="-97.971982" changeset="false"><tag k="addr:street" v="Adobe Trail"/><tag k="addr:housenumber" v="20708"/><tag k="coa:place_id" v="3209065"/></node><node id="-12" lat="30.483344" lon="-97.972037" changeset="false"><tag k="addr:street" v="Timber Trail"/><tag k="addr:housenumber" v="8303"/><tag k="coa:place_id" v="3209055"/></node><node id="-13" lat="30.483513" lon="-97.972527" changeset="false"><tag k="addr:street" v="Bar K Ranch Road"/><tag k="addr:housenumber" v="8229"/><tag k="coa:place_id" v="3209053"/></node><node id="-14" lat="30.484623" lon="-97.971977" changeset="false"><tag k="addr:street" v="Bar K Ranch Road"/><tag k="addr:housenumber" v="8310"/><tag k="coa:place_id" v="3208672"/></node><node id="-15" lat="30.483857" lon="-97.971872" changeset="false"><tag k="addr:street" v="Timber Trail"/><tag k="addr:housenumber" v="8300"/><tag k="coa:place_id" v="3209406"/></node><node id="-16" lat="30.484784" lon="-97.971376" changeset="false"><tag k="addr:street" v="Trapper Lane"/><tag k="addr:housenumber" v="20809"/><tag k="coa:place_id" v="3209446"/></node><node id="-17" lat="30.482156" lon="-97.971638" changeset="false"><tag k="addr:street" v="Adobe Trail"/><tag k="addr:housenumber" v="20709"/><tag k="coa:place_id" v="3209081"/></node><node id="-18" lat="30.481866" lon="-97.97114" changeset="false"><tag k="addr:street" v="Adobe Trail"/><tag k="addr:housenumber" v="20701"/><tag k="coa:place_id" v="3209077"/></node><node id="-19" lat="30.481549" lon="-97.970943" changeset="false"><tag k="addr:street" v="Adobe Trail"/><tag k="addr:housenumber" v="20627"/><tag k="coa:place_id" v="3209295"/></node><node id="-20" lat="30.482703" lon="-97.970625" changeset="false"><tag k="addr:street" v="Timber Trail"/><tag k="addr:housenumber" v="8315"/><tag k="coa:place_id" v="3209061"/></node><node id="-21" lat="30.482531" lon="-97.971423" changeset="false"><tag k="addr:street" v="Adobe Trail"/><tag k="addr:housenumber" v="20704"/><tag k="coa:place_id" v="3209064"/></node><node id="-22" lat="30.482486" lon="-97.970806" changeset="false"><tag k="addr:street" v="Arena Path"/><tag k="addr:housenumber" v="8302"/><tag k="coa:place_id" v="3209062"/></node><node id="-23" lat="30.486364" lon="-97.973622" changeset="false"><tag k="addr:street" v="Briar Wood Circle"/><tag k="addr:housenumber" v="8402"/><tag k="coa:place_id" v="3208596"/></node><node id="-24" lat="30.486218" lon="-97.973351" changeset="false"><tag k="addr:street" v="Briar Wood Circle"/><tag k="addr:housenumber" v="8412"/><tag k="coa:place_id" v="3208598"/></node><node id="-25" lat="30.488223" lon="-97.973855" changeset="false"><tag k="addr:street" v="Bluebonnet Circle"/><tag k="addr:housenumber" v="21103"/><tag k="coa:place_id" v="3208580"/></node><node id="-26" lat="30.488513" lon="-97.973357" changeset="false"><tag k="addr:street" v="Bluebonnet Circle"/><tag k="addr:housenumber" v="21114"/><tag k="coa:place_id" v="3208573"/></node><node id="-27" lat="30.486142" lon="-97.974544" changeset="false"><tag k="addr:street" v="Bronco Lane"/><tag k="addr:housenumber" v="8314"/><tag k="coa:place_id" v="3208557"/></node><node id="-28" lat="30.489882" lon="-97.974815" changeset="false"><tag k="addr:street" v="Blueberry Circle"/><tag k="addr:housenumber" v="8519"/><tag k="coa:place_id" v="3208865"/></node><node id="-29" lat="30.486678" lon="-97.973069" changeset="false"><tag k="addr:street" v="Briar Wood Circle"/><tag k="addr:housenumber" v="8416"/><tag k="coa:place_id" v="3208600"/></node><node id="-30" lat="30.488702" lon="-97.974638" changeset="false"><tag k="addr:street" v="Bronco Lane"/><tag k="addr:housenumber" v="8421"/><tag k="coa:place_id" v="3208571"/></node><node id="-31" lat="30.490663" lon="-97.974479" changeset="false"><tag k="addr:street" v="Blueberry Circle"/><tag k="addr:housenumber" v="8512"/><tag k="coa:place_id" v="3208851"/></node><node id="-32" lat="30.482579" lon="-97.975772" changeset="false"><tag k="addr:street" v="Bar K Ranch Road"/><tag k="addr:housenumber" v="8113"/><tag k="coa:place_id" v="3209044"/></node><node id="-33" lat="30.482708" lon="-97.975341" changeset="false"><tag k="addr:street" v="Bar K Ranch Road"/><tag k="addr:housenumber" v="8201"/><tag k="coa:place_id" v="3209030"/></node><node id="-34" lat="30.482875" lon="-97.972896" changeset="false"><tag k="addr:street" v="Adobe Trail"/><tag k="addr:housenumber" v="20809"/><tag k="coa:place_id" v="3209070"/></node><node id="-35" lat="30.483002" lon="-97.973622" changeset="false"><tag k="addr:street" v="Adobe Trail"/><tag k="addr:housenumber" v="20819"/><tag k="coa:place_id" v="3209074"/></node><node id="-36" lat="30.482989" lon="-97.976007" changeset="false"><tag k="addr:street" v="Bar K Ranch Road"/><tag k="addr:housenumber" v="8112"/><tag k="coa:place_id" v="3208654"/></node><node id="-37" lat="30.483177" lon="-97.973842" changeset="false"><tag k="addr:street" v="Adobe Trail"/><tag k="addr:housenumber" v="20812"/><tag k="coa:place_id" v="3209072"/></node><node id="-38" lat="30.484105" lon="-97.976814" changeset="false"><tag k="addr:street" v="Bronco Lane"/><tag k="addr:housenumber" v="8120"/><tag k="coa:place_id" v="3208547"/></node><node id="-39" lat="30.484686" lon="-97.976097" changeset="false"><tag k="addr:street" v="Bronco Lane"/><tag k="addr:housenumber" v="8206"/><tag k="coa:place_id" v="3208549"/></node><node id="-40" lat="30.484257" lon="-97.974668" changeset="false"><tag k="addr:street" v="Bramble Bush Circle"/><tag k="addr:housenumber" v="8309"/><tag k="coa:place_id" v="3208617"/></node><node id="-41" lat="30.484541" lon="-97.976246" changeset="false"><tag k="addr:street" v="Bronco Lane"/><tag k="addr:housenumber" v="8204"/><tag k="coa:place_id" v="3208548"/></node><node id="-42" lat="30.484188" lon="-97.975239" changeset="false"><tag k="addr:street" v="Bramble Bush Circle"/><tag k="addr:housenumber" v="8305"/><tag k="coa:place_id" v="3208629"/></node><node id="-43" lat="30.481932" lon="-97.977343" changeset="false"><tag k="addr:street" v="Bronco Lane"/><tag k="addr:housenumber" v="8100"/><tag k="coa:place_id" v="3208534"/></node><node id="-44" lat="30.479653" lon="-97.974362" changeset="false"><tag k="addr:street" v="Bronco Lane"/><tag k="addr:housenumber" v="8027"/><tag k="coa:place_id" v="3214544"/></node><node id="-45" lat="30.482131" lon="-97.975459" changeset="false"><tag k="addr:street" v="Arroyo Avenue"/><tag k="addr:housenumber" v="8222"/><tag k="coa:place_id" v="3209041"/></node><node id="-46" lat="30.482536" lon="-97.97668" changeset="false"><tag k="addr:street" v="Bar K Ranch Road"/><tag k="addr:housenumber" v="8106"/><tag k="coa:place_id" v="3208657"/></node><node id="-47" lat="30.474759" lon="-97.97306" changeset="false"><tag k="addr:street" v="Bronco Lane"/><tag k="addr:housenumber" v="7903"/><tag k="coa:place_id" v="3430686"/></node><node id="-48" lat="30.478122" lon="-97.974278" changeset="false"><tag k="addr:street" v="Bronco Lane"/><tag k="addr:housenumber" v="8015"/><tag k="coa:place_id" v="3214542"/></node><node id="-49" lat="30.480237" lon="-97.977481" changeset="false"><tag k="addr:street" v="Bar K Ranch Road"/><tag k="addr:housenumber" v="8039"/><tag k="coa:place_id" v="3201139"/></node></osm>