<?xml version="1.0" encoding="UTF-8"?><osm version="0.6" generator="github.com/aaronlidman/osm-and-geojson"><node id="-1" lat="30.387011" lon="-97.704551" changeset="false"><tag k="addr:street" v="Cricket Hollow Drive"/><tag k="addr:housenumber" v="1725"/><tag k="addr:postcode" v="78758"/></node><node id="-2" lat="30.39092" lon="-97.705536" changeset="false"><tag k="addr:street" v="West Braker Lane"/><tag k="addr:housenumber" v="1815"/><tag k="addr:postcode" v="78758"/></node><node id="-3" lat="30.390873" lon="-97.705444" changeset="false"><tag k="addr:street" v="West Braker Lane"/><tag k="addr:housenumber" v="1807"/><tag k="addr:postcode" v="78758"/></node><node id="-4" lat="30.382851" lon="-97.697867" changeset="false"><tag k="addr:street" v="Kramer Lane"/><tag k="addr:housenumber" v="1400"/><tag k="addr:postcode" v="78758"/></node><node id="-5" lat="30.386596" lon="-97.705464" changeset="false"><tag k="addr:street" v="Ptarmigan Drive"/><tag k="addr:housenumber" v="10901"/><tag k="addr:postcode" v="78758"/></node><node id="-6" lat="30.39157" lon="-97.707072" changeset="false"><tag k="addr:street" v="West Braker Lane"/><tag k="addr:housenumber" v="1909"/><tag k="addr:postcode" v="78758"/></node><node id="-7" lat="30.388022" lon="-97.705414" changeset="false"><tag k="addr:street" v="Prairie Dove Circle"/><tag k="addr:housenumber" v="11103"/><tag k="addr:postcode" v="78758"/></node><node id="-8" lat="30.390956" lon="-97.705603" changeset="false"><tag k="addr:street" v="West Braker Lane"/><tag k="addr:housenumber" v="1817"/><tag k="addr:postcode" v="78758"/></node><node id="-9" lat="30.38893" lon="-97.709507" changeset="false"><tag k="addr:street" v="Metric Boulevard"/><tag k="addr:housenumber" v="11009"/><tag k="addr:postcode" v="78758"/></node><node id="-10" lat="30.38596" lon="-97.696913" changeset="false"><tag k="addr:street" v="Blossom Bell Drive"/><tag k="addr:housenumber" v="11238"/><tag k="addr:postcode" v="78758"/></node><node id="-11" lat="30.389798" lon="-97.703032" changeset="false"><tag k="addr:street" v="West Braker Lane"/><tag k="addr:housenumber" v="1709"/><tag k="addr:postcode" v="78758"/></node><node id="-12" lat="30.389723" lon="-97.702957" changeset="false"><tag k="addr:street" v="West Braker Lane"/><tag k="addr:housenumber" v="1707"/><tag k="addr:postcode" v="78758"/></node><node id="-13" lat="30.39007" lon="-97.703598" changeset="false"><tag k="addr:street" v="Prairie Dove Circle"/><tag k="addr:housenumber" v="11228"/><tag k="addr:postcode" v="78758"/></node><node id="-14" lat="30.390072" lon="-97.703575" changeset="false"><tag k="addr:street" v="Ptarmigan Drive"/><tag k="addr:housenumber" v="11300"/><tag k="addr:postcode" v="78758"/></node></osm>