<?xml version="1.0" encoding="UTF-8"?><osm version="0.6" generator="github.com/aaronlidman/osm-and-geojson"><node id="-1" lat="30.174171" lon="-97.794685" changeset="false"><tag k="addr:street" v="Ralph Ablanedo Drive"/><tag k="addr:housenumber" v="527 1/2"/><tag k="addr:postcode" v="78748"/></node><node id="-2" lat="30.167437" lon="-97.789178" changeset="false"><tag k="addr:street" v="West Slaughter Lane"/><tag k="addr:housenumber" v="126"/><tag k="addr:postcode" v="78748"/></node><node id="-3" lat="30.170248" lon="-97.792247" changeset="false"><tag k="addr:street" v="Vigen Circle"/><tag k="addr:housenumber" v="9017"/><tag k="addr:postcode" v="78748"/></node><node id="-4" lat="30.170851" lon="-97.79199" changeset="false"><tag k="addr:street" v="Vigen Circle"/><tag k="addr:housenumber" v="8945"/><tag k="addr:postcode" v="78748"/></node><node id="-5" lat="30.16793" lon="-97.79155" changeset="false"><tag k="addr:street" v="Cullen Lane"/><tag k="addr:housenumber" v="8900"/><tag k="addr:postcode" v="78748"/></node><node id="-6" lat="30.172386" lon="-97.799068" changeset="false"><tag k="addr:street" v="West Slaughter Lane"/><tag k="addr:housenumber" v="520"/><tag k="addr:postcode" v="78748"/></node><node id="-7" lat="30.168427" lon="-97.789465" changeset="false"><tag k="addr:street" v="South Congress Avenue"/><tag k="addr:housenumber" v="9000"/><tag k="addr:postcode" v="78748"/></node><node id="-8" lat="30.169249" lon="-97.788825" changeset="false"><tag k="addr:street" v="South Congress Avenue"/><tag k="addr:housenumber" v="8900"/><tag k="addr:postcode" v="78748"/></node><node id="-9" lat="30.173446" lon="-97.798506" changeset="false"><tag k="addr:street" v="South 1st Street"/><tag k="addr:housenumber" v="8905"/><tag k="addr:postcode" v="78748"/></node><node id="-10" lat="30.172982" lon="-97.786042" changeset="false"><tag k="addr:street" v="Ralph Ablanedo Drive"/><tag k="addr:housenumber" v="109"/><tag k="addr:postcode" v="78748"/></node><node id="-11" lat="30.170485" lon="-97.796735" changeset="false"><tag k="addr:street" v="West Slaughter Lane"/><tag k="addr:housenumber" v="408"/><tag k="addr:postcode" v="78748"/></node><node id="-12" lat="30.167664" lon="-97.790718" changeset="false"><tag k="addr:street" v="Cullen Lane"/><tag k="addr:housenumber" v="9009"/><tag k="addr:postcode" v="78748"/></node><node id="-13" lat="30.171892" lon="-97.789677" changeset="false"><tag k="addr:street" v="Cullen Lane"/><tag k="addr:housenumber" v="8811"/><tag k="addr:postcode" v="78748"/></node><node id="-14" lat="30.167462" lon="-97.788908" changeset="false"><tag k="addr:street" v="West Slaughter Lane"/><tag k="addr:housenumber" v="120"/><tag k="addr:postcode" v="78748"/></node><node id="-15" lat="30.172308" lon="-97.796001" changeset="false"><tag k="addr:street" v="Swanson Cove"/><tag k="addr:housenumber" v="612"/><tag k="addr:postcode" v="78748"/></node><node id="-16" lat="30.173715" lon="-97.790247" changeset="false"><tag k="addr:street" v="Ralph Ablanedo Drive"/><tag k="addr:housenumber" v="221"/><tag k="addr:postcode" v="78748"/></node><node id="-17" lat="30.171786" lon="-97.794358" changeset="false"><tag k="addr:street" v="Anna Street"/><tag k="addr:housenumber" v="8927"/><tag k="addr:postcode" v="78748"/></node><node id="-18" lat="30.174131" lon="-97.793287" changeset="false"><tag k="addr:street" v="Ralph Ablanedo Drive"/><tag k="addr:housenumber" v="501"/><tag k="addr:postcode" v="78748"/></node><node id="-19" lat="30.172462" lon="-97.799151" changeset="false"><tag k="addr:street" v="West Slaughter Lane"/><tag k="addr:housenumber" v="520 1/2"/><tag k="addr:postcode" v="78748"/></node><node id="-20" lat="30.167608" lon="-97.792045" changeset="false"><tag k="addr:street" v="West Slaughter Lane"/><tag k="addr:housenumber" v="166"/><tag k="addr:postcode" v="78748"/></node><node id="-21" lat="30.171764" lon="-97.791429" changeset="false"><tag k="addr:street" v="Taline Circle"/><tag k="addr:housenumber" v="8825"/><tag k="addr:postcode" v="78748"/></node><node id="-22" lat="30.169413" lon="-97.790746" changeset="false"><tag k="addr:street" v="Cullen Lane"/><tag k="addr:housenumber" v="8902"/><tag k="addr:postcode" v="78748"/></node><node id="-23" lat="30.171129" lon="-97.794229" changeset="false"><tag k="addr:street" v="Francia Trail"/><tag k="addr:housenumber" v="8912"/><tag k="addr:postcode" v="78748"/></node><node id="-24" lat="30.170714" lon="-97.792036" changeset="false"><tag k="addr:street" v="Vigen Circle"/><tag k="addr:housenumber" v="9001"/><tag k="addr:postcode" v="78748"/></node><node id="-25" lat="30.172373" lon="-97.794149" changeset="false"><tag k="addr:street" v="Anna Street"/><tag k="addr:housenumber" v="8907"/><tag k="addr:postcode" v="78748"/></node><node id="-26" lat="30.167441" lon="-97.791462" changeset="false"><tag k="addr:street" v="West Slaughter Lane"/><tag k="addr:housenumber" v="160"/><tag k="addr:postcode" v="78748"/></node><node id="-27" lat="30.168559" lon="-97.790369" changeset="false"><tag k="addr:street" v="Cullen Lane"/><tag k="addr:housenumber" v="8901"/><tag k="addr:postcode" v="78748"/></node><node id="-28" lat="30.173896" lon="-97.798654" changeset="false"><tag k="addr:street" v="South 1st Street"/><tag k="addr:housenumber" v="8901"/><tag k="addr:postcode" v="78748"/></node><node id="-29" lat="30.16879" lon="-97.794462" changeset="false"><tag k="addr:street" v="Vigen Circle"/><tag k="addr:housenumber" v="9215"/><tag k="addr:postcode" v="78748"/></node><node id="-30" lat="30.1675" lon="-97.78999" changeset="false"><tag k="addr:street" v="West Slaughter Lane"/><tag k="addr:housenumber" v="136"/><tag k="addr:postcode" v="78748"/></node><node id="-31" lat="30.171915" lon="-97.794335" changeset="false"><tag k="addr:street" v="Anna Street"/><tag k="addr:housenumber" v="8923"/><tag k="addr:postcode" v="78748"/></node><node id="-32" lat="30.171016" lon="-97.794333" changeset="false"><tag k="addr:street" v="Francia Trail"/><tag k="addr:housenumber" v="9000"/><tag k="addr:postcode" v="78748"/></node><node id="-33" lat="30.172881" lon="-97.785821" changeset="false"><tag k="addr:street" v="Ralph Ablanedo Drive"/><tag k="addr:housenumber" v="105"/><tag k="addr:postcode" v="78748"/></node><node id="-34" lat="30.169214" lon="-97.790232" changeset="false"><tag k="addr:street" v="Cullen Lane"/><tag k="addr:housenumber" v="8915"/><tag k="addr:postcode" v="78748"/></node><node id="-35" lat="30.168395" lon="-97.79033" changeset="false"><tag k="addr:street" v="Cullen Lane"/><tag k="addr:housenumber" v="9005"/><tag k="addr:postcode" v="78748"/></node><node id="-36" lat="30.168362" lon="-97.791579" changeset="false"><tag k="addr:street" v="Cullen Lane"/><tag k="addr:housenumber" v="9006"/><tag k="addr:postcode" v="78748"/></node><node id="-37" lat="30.170593" lon="-97.792139" changeset="false"><tag k="addr:street" v="Vigen Circle"/><tag k="addr:housenumber" v="9005"/><tag k="addr:postcode" v="78748"/></node><node id="-38" lat="30.167464" lon="-97.790518" changeset="false"><tag k="addr:street" v="West Slaughter Lane"/><tag k="addr:housenumber" v="140"/><tag k="addr:postcode" v="78748"/></node><node id="-39" lat="30.168878" lon="-97.790297" changeset="false"><tag k="addr:street" v="Cullen Lane"/><tag k="addr:housenumber" v="8911"/><tag k="addr:postcode" v="78748"/></node><node id="-40" lat="30.168855" lon="-97.791257" changeset="false"><tag k="addr:street" v="Cullen Lane"/><tag k="addr:housenumber" v="8916"/><tag k="addr:postcode" v="78748"/></node><node id="-41" lat="30.169161" lon="-97.795231" changeset="false"><tag k="addr:street" v="West Slaughter Lane"/><tag k="addr:housenumber" v="324"/><tag k="addr:postcode" v="78748"/></node><node id="-42" lat="30.171572" lon="-97.786137" changeset="false"><tag k="addr:street" v="South Congress Avenue"/><tag k="addr:housenumber" v="8606"/><tag k="addr:postcode" v="78748"/></node><node id="-43" lat="30.170676" lon="-97.793415" changeset="false"><tag k="addr:street" v="Jacky Street"/><tag k="addr:housenumber" v="400"/><tag k="addr:postcode" v="78748"/></node><node id="-44" lat="30.169353" lon="-97.791089" changeset="false"><tag k="addr:street" v="Cullen Lane"/><tag k="addr:housenumber" v="8908"/><tag k="addr:postcode" v="78748"/></node><node id="-45" lat="30.172629" lon="-97.791902" changeset="false"><tag k="addr:street" v="Natali Street"/><tag k="addr:housenumber" v="209"/><tag k="addr:postcode" v="78748"/></node><node id="-46" lat="30.167857" lon="-97.789716" changeset="false"><tag k="addr:street" v="Cullen Lane"/><tag k="addr:housenumber" v="9007"/><tag k="addr:postcode" v="78748"/></node><node id="-47" lat="30.170543" lon="-97.790702" changeset="false"><tag k="addr:street" v="Cullen Lane"/><tag k="addr:housenumber" v="8818"/><tag k="addr:postcode" v="78748"/></node><node id="-48" lat="30.173423" lon="-97.793538" changeset="false"><tag k="addr:street" v="Shep Street"/><tag k="addr:housenumber" v="501"/><tag k="addr:postcode" v="78748"/></node><node id="-49" lat="30.172267" lon="-97.794215" changeset="false"><tag k="addr:street" v="Anna Street"/><tag k="addr:housenumber" v="8911"/><tag k="addr:postcode" v="78748"/></node><node id="-50" lat="30.171685" lon="-97.794395" changeset="false"><tag k="addr:street" v="Anna Street"/><tag k="addr:housenumber" v="8931"/><tag k="addr:postcode" v="78748"/></node><node id="-51" lat="30.172539" lon="-97.791666" changeset="false"><tag k="addr:street" v="Natali Street"/><tag k="addr:housenumber" v="201"/><tag k="addr:postcode" v="78748"/></node><node id="-52" lat="30.171723" lon="-97.791607" changeset="false"><tag k="addr:street" v="Taline Circle"/><tag k="addr:housenumber" v="8829"/><tag k="addr:postcode" v="78748"/></node><node id="-53" lat="30.168724" lon="-97.794443" changeset="false"><tag k="addr:street" v="Vigen Circle"/><tag k="addr:housenumber" v="9233"/><tag k="addr:postcode" v="78748"/></node><node id="-54" lat="30.169219" lon="-97.795129" changeset="false"><tag k="addr:street" v="Vigen Circle"/><tag k="addr:housenumber" v="9257"/><tag k="addr:postcode" v="78748"/></node><node id="-55" lat="30.171106" lon="-97.790719" changeset="false"><tag k="addr:street" v="Cullen Lane"/><tag k="addr:housenumber" v="8812"/><tag k="addr:postcode" v="78748"/></node><node id="-56" lat="30.170859" lon="-97.790647" changeset="false"><tag k="addr:street" v="Cullen Lane"/><tag k="addr:housenumber" v="8816"/><tag k="addr:postcode" v="78748"/></node></osm>