<?xml version="1.0" encoding="UTF-8"?><osm version="0.6" generator="github.com/aaronlidman/osm-and-geojson"><node id="-1" lat="30.223383" lon="-97.762593" changeset="false"><tag k="addr:street" v="South Congress Avenue"/><tag k="addr:housenumber" v="3909"/></node><node id="-2" lat="30.21837" lon="-97.751219" changeset="false"><tag k="addr:street" v="I 35 Frontage Road"/><tag k="addr:housenumber" v="4000"/></node><node id="-3" lat="30.222361" lon="-97.748883" changeset="false"><tag k="addr:street" v="I 35 Frontage Road"/><tag k="addr:housenumber" v="3600"/></node><node id="-4" lat="30.228925" lon="-97.759502" changeset="false"><tag k="addr:street" v="Woodward Street"/><tag k="addr:housenumber" v="121"/></node><node id="-5" lat="30.222484" lon="-97.7568" changeset="false"><tag k="addr:street" v="Warehouse Row"/><tag k="addr:housenumber" v="3907"/></node><node id="-6" lat="30.220385" lon="-97.757395" changeset="false"><tag k="addr:street" v="East Ben White Boulevard"/><tag k="addr:housenumber" v="500"/></node><node id="-7" lat="30.221422" lon="-97.757342" changeset="false"><tag k="addr:street" v="Warehouse Row"/><tag k="addr:housenumber" v="3911"/></node><node id="-8" lat="30.218818" lon="-97.750698" changeset="false"><tag k="addr:street" v="I 35 Frontage Road"/><tag k="addr:housenumber" v="3920"/></node><node id="-9" lat="30.222938" lon="-97.748122" changeset="false"><tag k="addr:street" v="I 35 Frontage Road"/><tag k="addr:housenumber" v="3510 1/2"/></node><node id="-10" lat="30.225318" lon="-97.758956" changeset="false"><tag k="addr:street" v="East Alpine Road"/><tag k="addr:housenumber" v="311"/></node><node id="-11" lat="30.219893" lon="-97.750136" changeset="false"><tag k="addr:street" v="I 35 Frontage Road"/><tag k="addr:housenumber" v="3650"/></node><node id="-12" lat="30.223284" lon="-97.762432" changeset="false"><tag k="addr:street" v="East Ben White Boulevard"/><tag k="addr:housenumber" v="130"/></node><node id="-13" lat="30.217873" lon="-97.751304" changeset="false"><tag k="addr:street" v="I 35 Frontage Road"/><tag k="addr:housenumber" v="4040"/></node><node id="-14" lat="30.225176" lon="-97.751059" changeset="false"><tag k="addr:street" v="Woodward Street"/><tag k="addr:housenumber" v="805"/></node><node id="-15" lat="30.226866" lon="-97.760803" changeset="false"><tag k="addr:street" v="East Alpine Road"/><tag k="addr:housenumber" v="110 1/2"/></node><node id="-16" lat="30.224659" lon="-97.758178" changeset="false"><tag k="addr:street" v="East Alpine Road"/><tag k="addr:housenumber" v="401"/></node><node id="-17" lat="30.226846" lon="-97.755191" changeset="false"><tag k="addr:street" v="Woodward Street"/><tag k="addr:housenumber" v="439"/></node><node id="-18" lat="30.224597" lon="-97.7577" changeset="false"><tag k="addr:street" v="East Alpine Road"/><tag k="addr:housenumber" v="411"/></node><node id="-19" lat="30.221098" lon="-97.759053" changeset="false"><tag k="addr:street" v="East Ben White Boulevard"/><tag k="addr:housenumber" v="410"/></node><node id="-20" lat="30.218541" lon="-97.754645" changeset="false"><tag k="addr:street" v="East Ben White Boulevard"/><tag k="addr:housenumber" v="716"/></node><node id="-21" lat="30.219826" lon="-97.756101" changeset="false"><tag k="addr:street" v="Payload Pass"/><tag k="addr:housenumber" v="4001"/></node><node id="-22" lat="30.223211" lon="-97.763189" changeset="false"><tag k="addr:street" v="East Ben White Boulevard"/><tag k="addr:housenumber" v="110"/></node><node id="-23" lat="30.217691" lon="-97.753181" changeset="false"><tag k="addr:street" v="East Ben White Boulevard"/><tag k="addr:housenumber" v="1100"/></node><node id="-24" lat="30.226068" lon="-97.754535" changeset="false"><tag k="addr:street" v="Willowrun Cove"/><tag k="addr:housenumber" v="3400"/></node><node id="-25" lat="30.217627" lon="-97.752715" changeset="false"><tag k="addr:street" v="East Ben White Boulevard"/><tag k="addr:housenumber" v="1206"/></node><node id="-26" lat="30.219021" lon="-97.754944" changeset="false"><tag k="addr:street" v="East Ben White Boulevard"/><tag k="addr:housenumber" v="710 1/2"/></node><node id="-27" lat="30.220844" lon="-97.758553" changeset="false"><tag k="addr:street" v="East Ben White Boulevard"/><tag k="addr:housenumber" v="412"/></node><node id="-28" lat="30.2207" lon="-97.757711" changeset="false"><tag k="addr:street" v="Warehouse Row"/><tag k="addr:housenumber" v="4005"/></node><node id="-29" lat="30.220004" lon="-97.754389" changeset="false"><tag k="addr:street" v="East Ben White Boulevard"/><tag k="addr:housenumber" v="710"/></node><node id="-30" lat="30.225335" lon="-97.754107" changeset="false"><tag k="addr:street" v="Willowrun Cove"/><tag k="addr:housenumber" v="3427"/></node><node id="-31" lat="30.224436" lon="-97.750929" changeset="false"><tag k="addr:street" v="Woodward Street"/><tag k="addr:housenumber" v="821"/></node><node id="-32" lat="30.218363" lon="-97.754247" changeset="false"><tag k="addr:street" v="East Ben White Boulevard"/><tag k="addr:housenumber" v="916"/></node><node id="-33" lat="30.219064" lon="-97.754463" changeset="false"><tag k="addr:street" v="East Ben White Boulevard"/><tag k="addr:housenumber" v="714"/></node><node id="-34" lat="30.220876" lon="-97.755613" changeset="false"><tag k="addr:street" v="Payload Pass"/><tag k="addr:housenumber" v="3909"/></node><node id="-35" lat="30.222903" lon="-97.762393" changeset="false"><tag k="addr:street" v="East Ben White Boulevard"/><tag k="addr:housenumber" v="150"/></node><node id="-36" lat="30.219081" lon="-97.750647" changeset="false"><tag k="addr:street" v="I 35 Frontage Road"/><tag k="addr:housenumber" v="3910 1/2"/></node><node id="-37" lat="30.22685" lon="-97.756648" changeset="false"><tag k="addr:street" v="Willow Springs Road"/><tag k="addr:housenumber" v="3407"/></node><node id="-38" lat="30.217622" lon="-97.752877" changeset="false"><tag k="addr:street" v="East Ben White Boulevard"/><tag k="addr:housenumber" v="1202"/></node><node id="-39" lat="30.217845" lon="-97.751874" changeset="false"><tag k="addr:street" v="I 35 Frontage Road"/><tag k="addr:housenumber" v="4020"/></node><node id="-40" lat="30.220677" lon="-97.758555" changeset="false"><tag k="addr:street" v="East Ben White Boulevard"/><tag k="addr:housenumber" v="406"/></node><node id="-41" lat="30.223537" lon="-97.762965" changeset="false"><tag k="addr:street" v="South Congress Avenue"/><tag k="addr:housenumber" v="3907"/></node><node id="-42" lat="30.219401" lon="-97.755605" changeset="false"><tag k="addr:street" v="East Ben White Boulevard"/><tag k="addr:housenumber" v="606"/></node><node id="-43" lat="30.226648" lon="-97.76149" changeset="false"><tag k="addr:street" v="South Congress Avenue"/><tag k="addr:housenumber" v="3701"/></node><node id="-44" lat="30.226028" lon="-97.761894" changeset="false"><tag k="addr:street" v="South Congress Avenue"/><tag k="addr:housenumber" v="3801"/></node><node id="-45" lat="30.225645" lon="-97.759832" changeset="false"><tag k="addr:street" v="East Alpine Road"/><tag k="addr:housenumber" v="213"/></node><node id="-46" lat="30.225941" lon="-97.760391" changeset="false"><tag k="addr:street" v="East Alpine Road"/><tag k="addr:housenumber" v="211"/></node><node id="-47" lat="30.22684" lon="-97.760251" changeset="false"><tag k="addr:street" v="South Congress Avenue"/><tag k="addr:housenumber" v="3601"/></node><node id="-48" lat="30.226042" lon="-97.75939" changeset="false"><tag k="addr:street" v="East Alpine Road"/><tag k="addr:housenumber" v="230"/></node><node id="-49" lat="30.226991" lon="-97.759796" changeset="false"><tag k="addr:street" v="East Alpine Road"/><tag k="addr:housenumber" v="118"/></node><node id="-50" lat="30.222636" lon="-97.756594" changeset="false"><tag k="addr:street" v="Warehouse Row"/><tag k="addr:housenumber" v="3905"/></node><node id="-51" lat="30.222845" lon="-97.756472" changeset="false"><tag k="addr:street" v="Warehouse Row"/><tag k="addr:housenumber" v="3903"/></node><node id="-52" lat="30.22518" lon="-97.759184" changeset="false"><tag k="addr:street" v="East Alpine Road"/><tag k="addr:housenumber" v="301"/></node><node id="-53" lat="30.225104" lon="-97.759299" changeset="false"><tag k="addr:street" v="Woodbury Drive"/><tag k="addr:housenumber" v="3701"/></node><node id="-54" lat="30.223006" lon="-97.761488" changeset="false"><tag k="addr:street" v="Woodbury Drive"/><tag k="addr:housenumber" v="3922"/></node><node id="-55" lat="30.222925" lon="-97.761534" changeset="false"><tag k="addr:street" v="Woodbury Drive"/><tag k="addr:housenumber" v="3924"/></node><node id="-56" lat="30.222217" lon="-97.760976" changeset="false"><tag k="addr:street" v="East Ben White Boulevard"/><tag k="addr:housenumber" v="304"/></node><node id="-57" lat="30.22231" lon="-97.761112" changeset="false"><tag k="addr:street" v="Woodbury Drive"/><tag k="addr:housenumber" v="4007"/></node></osm>