<?xml version="1.0" encoding="UTF-8"?><osm version="0.6" generator="github.com/aaronlidman/osm-and-geojson"><node id="-1" lat="30.372246" lon="-97.677057" changeset="false"><tag k="addr:street" v="Ruby Drive"/><tag k="addr:housenumber" v="821"/><tag k="addr:postcode" v="78753"/></node><node id="-2" lat="30.367322" lon="-97.669167" changeset="false"><tag k="addr:street" v="Dessau Road"/><tag k="addr:housenumber" v="10700"/><tag k="addr:postcode" v="78753"/></node><node id="-3" lat="30.375349" lon="-97.672691" changeset="false"><tag k="addr:street" v="East Braker Lane"/><tag k="addr:housenumber" v="923"/><tag k="addr:postcode" v="78753"/></node><node id="-4" lat="30.371793" lon="-97.676398" changeset="false"><tag k="addr:street" v="Joseph Clayton Drive"/><tag k="addr:housenumber" v="10803"/><tag k="addr:postcode" v="78753"/></node><node id="-5" lat="30.371033" lon="-97.669755" changeset="false"><tag k="addr:street" v="Wandering Way"/><tag k="addr:housenumber" v="11148"/><tag k="addr:postcode" v="78753"/></node><node id="-6" lat="30.370873" lon="-97.676946" changeset="false"><tag k="addr:street" v="Joseph Clayton Drive"/><tag k="addr:housenumber" v="10709"/><tag k="addr:postcode" v="78753"/></node><node id="-7" lat="30.373397" lon="-97.675174" changeset="false"><tag k="addr:street" v="Joseph Clayton Drive"/><tag k="addr:housenumber" v="11101"/><tag k="addr:postcode" v="78753"/></node><node id="-8" lat="30.373228" lon="-97.674037" changeset="false"><tag k="addr:street" v="Bluff Bend Drive"/><tag k="addr:housenumber" v="11102"/><tag k="addr:postcode" v="78753"/></node><node id="-9" lat="30.372537" lon="-97.674579" changeset="false"><tag k="addr:street" v="Bluff Bend Drive"/><tag k="addr:housenumber" v="11016"/><tag k="addr:postcode" v="78753"/></node><node id="-10" lat="30.365093" lon="-97.674181" changeset="false"><tag k="addr:street" v="Applegate Drive East"/><tag k="addr:housenumber" v="1200"/><tag k="addr:postcode" v="78753"/></node><node id="-11" lat="30.370722" lon="-97.668294" changeset="false"><tag k="addr:street" v="Wandering Way"/><tag k="addr:housenumber" v="11137"/><tag k="addr:postcode" v="78753"/></node><node id="-12" lat="30.371673" lon="-97.671144" changeset="false"><tag k="addr:street" v="Tom Adams Drive"/><tag k="addr:housenumber" v="11110"/><tag k="addr:postcode" v="78753"/></node><node id="-13" lat="30.37276" lon="-97.675795" changeset="false"><tag k="addr:street" v="Joseph Clayton Drive"/><tag k="addr:housenumber" v="11003"/><tag k="addr:postcode" v="78753"/></node><node id="-14" lat="30.366171" lon="-97.670568" changeset="false"><tag k="addr:street" v="Jonwood Way"/><tag k="addr:housenumber" v="10700"/><tag k="addr:postcode" v="78753"/></node><node id="-15" lat="30.375945" lon="-97.676046" changeset="false"><tag k="addr:street" v="North Interstate Highway 35 Service Road"/><tag k="addr:housenumber" v="11219 1/2"/><tag k="addr:postcode" v="78753"/></node><node id="-16" lat="30.372955" lon="-97.67436" changeset="false"><tag k="addr:street" v="Bluff Bend Drive"/><tag k="addr:housenumber" v="11100"/><tag k="addr:postcode" v="78753"/></node><node id="-17" lat="30.366055" lon="-97.670788" changeset="false"><tag k="addr:street" v="Claywood Drive"/><tag k="addr:housenumber" v="10612"/><tag k="addr:postcode" v="78753"/></node><node id="-18" lat="30.371958" lon="-97.676656" changeset="false"><tag k="addr:street" v="Joseph Clayton Drive"/><tag k="addr:housenumber" v="10806"/><tag k="addr:postcode" v="78753"/></node><node id="-19" lat="30.369109" lon="-97.670375" changeset="false"><tag k="addr:street" v="Collinwood West Drive"/><tag k="addr:housenumber" v="1205"/><tag k="addr:postcode" v="78753"/></node><node id="-20" lat="30.369444" lon="-97.670158" changeset="false"><tag k="addr:street" v="Collinwood West Drive"/><tag k="addr:housenumber" v="1204"/><tag k="addr:postcode" v="78753"/></node><node id="-21" lat="30.367435" lon="-97.669124" changeset="false"><tag k="addr:street" v="Dessau Road"/><tag k="addr:housenumber" v="10702"/><tag k="addr:postcode" v="78753"/></node><node id="-22" lat="30.3737" lon="-97.673272" changeset="false"><tag k="addr:street" v="Bluff Bend Drive"/><tag k="addr:housenumber" v="11111"/><tag k="addr:postcode" v="78753"/></node><node id="-23" lat="30.371676" lon="-97.67461" changeset="false"><tag k="addr:street" v="Bluff Bend Drive"/><tag k="addr:housenumber" v="11011"/><tag k="addr:postcode" v="78753"/></node><node id="-24" lat="30.368714" lon="-97.674243" changeset="false"><tag k="addr:street" v="Walnut Bend Drive"/><tag k="addr:housenumber" v="10609"/><tag k="addr:postcode" v="78753"/></node><node id="-25" lat="30.368551" lon="-97.676057" changeset="false"><tag k="addr:street" v="Bluff Bend Drive"/><tag k="addr:housenumber" v="10601"/><tag k="addr:postcode" v="78753"/></node><node id="-26" lat="30.371647" lon="-97.6789" changeset="false"><tag k="addr:street" v="North Interstate Highway 35 Service Road"/><tag k="addr:housenumber" v="10707"/><tag k="addr:postcode" v="78753"/></node><node id="-27" lat="30.363277" lon="-97.669336" changeset="false"><tag k="addr:street" v="Applegate Drive East"/><tag k="addr:housenumber" v="1400"/><tag k="addr:postcode" v="78753"/></node><node id="-28" lat="30.371666" lon="-97.675047" changeset="false"><tag k="addr:street" v="Bluff Bend Drive"/><tag k="addr:housenumber" v="11000"/><tag k="addr:postcode" v="78753"/></node><node id="-29" lat="30.376359" lon="-97.674977" changeset="false"><tag k="addr:street" v="East Braker Lane"/><tag k="addr:housenumber" v="821"/><tag k="addr:postcode" v="78753"/></node><node id="-30" lat="30.367576" lon="-97.669031" changeset="false"><tag k="addr:street" v="Dessau Road"/><tag k="addr:housenumber" v="10704"/><tag k="addr:postcode" v="78753"/></node><node id="-31" lat="30.365506" lon="-97.668915" changeset="false"><tag k="addr:street" v="Dessau Road"/><tag k="addr:housenumber" v="10620"/><tag k="addr:postcode" v="78753"/></node><node id="-32" lat="30.374512" lon="-97.671323" changeset="false"><tag k="addr:street" v="East Braker Lane"/><tag k="addr:housenumber" v="1019"/><tag k="addr:postcode" v="78753"/></node><node id="-33" lat="30.366896" lon="-97.670543" changeset="false"><tag k="addr:street" v="Amblewood Way"/><tag k="addr:housenumber" v="10804"/><tag k="addr:postcode" v="78753"/></node><node id="-34" lat="30.366105" lon="-97.670994" changeset="false"><tag k="addr:street" v="Claywood Drive"/><tag k="addr:housenumber" v="10614"/><tag k="addr:postcode" v="78753"/></node><node id="-35" lat="30.371743" lon="-97.678902" changeset="false"><tag k="addr:street" v="North Interstate Highway 35 Service Road"/><tag k="addr:housenumber" v="10707 1/2"/><tag k="addr:postcode" v="78753"/></node><node id="-36" lat="30.363278" lon="-97.668884" changeset="false"><tag k="addr:street" v="Dessau Road"/><tag k="addr:housenumber" v="10400"/><tag k="addr:postcode" v="78753"/></node><node id="-37" lat="30.369413" lon="-97.670567" changeset="false"><tag k="addr:street" v="Amblewood Way"/><tag k="addr:housenumber" v="11000"/><tag k="addr:postcode" v="78753"/></node><node id="-38" lat="30.370929" lon="-97.67002" changeset="false"><tag k="addr:street" v="Claywood Drive"/><tag k="addr:housenumber" v="11103"/><tag k="addr:postcode" v="78753"/></node><node id="-39" lat="30.37024" lon="-97.668231" changeset="false"><tag k="addr:street" v="Wandering Way"/><tag k="addr:housenumber" v="11130"/><tag k="addr:postcode" v="78753"/></node><node id="-40" lat="30.374731" lon="-97.676831" changeset="false"><tag k="addr:street" v="North Interstate Highway 35 Service Road"/><tag k="addr:housenumber" v="11105"/><tag k="addr:postcode" v="78753"/></node><node id="-41" lat="30.371272" lon="-97.676648" changeset="false"><tag k="addr:street" v="Joseph Clayton Drive"/><tag k="addr:housenumber" v="10711"/><tag k="addr:postcode" v="78753"/></node><node id="-42" lat="30.369963" lon="-97.679953" changeset="false"><tag k="addr:street" v="North Interstate Highway 35 Service Road"/><tag k="addr:housenumber" v="10601"/><tag k="addr:postcode" v="78753"/></node><node id="-43" lat="30.3731" lon="-97.677885" changeset="false"><tag k="addr:street" v="North Interstate Highway 35 Service Road"/><tag k="addr:housenumber" v="10901"/><tag k="addr:postcode" v="78753"/></node><node id="-44" lat="30.376069" lon="-97.674426" changeset="false"><tag k="addr:street" v="East Braker Lane"/><tag k="addr:housenumber" v="833"/><tag k="addr:postcode" v="78753"/></node><node id="-45" lat="30.367564" lon="-97.673665" changeset="false"><tag k="addr:street" v="Denell Circle"/><tag k="addr:housenumber" v="10606"/><tag k="addr:postcode" v="78753"/></node><node id="-46" lat="30.369498" lon="-97.668307" changeset="false"><tag k="addr:street" v="Dessau Road"/><tag k="addr:housenumber" v="11020"/><tag k="addr:postcode" v="78753"/></node><node id="-47" lat="30.370976" lon="-97.670106" changeset="false"><tag k="addr:street" v="Claywood Drive"/><tag k="addr:housenumber" v="11103 1/2"/><tag k="addr:postcode" v="78753"/></node><node id="-48" lat="30.370374" lon="-97.671006" changeset="false"><tag k="addr:street" v="Claywood Drive"/><tag k="addr:housenumber" v="11006"/><tag k="addr:postcode" v="78753"/></node><node id="-49" lat="30.366674" lon="-97.669044" changeset="false"><tag k="addr:street" v="Dessau Road"/><tag k="addr:housenumber" v="10652"/><tag k="addr:postcode" v="78753"/></node><node id="-50" lat="30.372731" lon="-97.675781" changeset="false"><tag k="addr:street" v="Joseph Clayton Drive"/><tag k="addr:housenumber" v="11003 1/2"/><tag k="addr:postcode" v="78753"/></node><node id="-51" lat="30.366263" lon="-97.673824" changeset="false"><tag k="addr:street" v="Hollybluff Street"/><tag k="addr:housenumber" v="1113"/><tag k="addr:postcode" v="78753"/></node><node id="-52" lat="30.375487" lon="-97.67294" changeset="false"><tag k="addr:street" v="East Braker Lane"/><tag k="addr:housenumber" v="909"/><tag k="addr:postcode" v="78753"/></node><node id="-53" lat="30.374328" lon="-97.675428" changeset="false"><tag k="addr:street" v="Joseph Clayton Drive"/><tag k="addr:housenumber" v="11114"/><tag k="addr:postcode" v="78753"/></node><node id="-54" lat="30.374487" lon="-97.673409" changeset="false"><tag k="addr:street" v="Bluff Bend Drive"/><tag k="addr:housenumber" v="11202"/><tag k="addr:postcode" v="78753"/></node><node id="-55" lat="30.365485" lon="-97.668913" changeset="false"><tag k="addr:street" v="Dessau Road"/><tag k="addr:housenumber" v="10618"/><tag k="addr:postcode" v="78753"/></node><node id="-56" lat="30.370921" lon="-97.667421" changeset="false"><tag k="addr:street" v="Dessau Road"/><tag k="addr:housenumber" v="11118"/><tag k="addr:postcode" v="78753"/></node><node id="-57" lat="30.370398" lon="-97.66937" changeset="false"><tag k="addr:street" v="Amblewood Way"/><tag k="addr:housenumber" v="11101"/><tag k="addr:postcode" v="78753"/></node><node id="-58" lat="30.371323" lon="-97.67442" changeset="false"><tag k="addr:street" v="Collinwood West Drive"/><tag k="addr:housenumber" v="1000"/><tag k="addr:postcode" v="78753"/></node><node id="-59" lat="30.365881" lon="-97.670774" changeset="false"><tag k="addr:street" v="Jonwood Way"/><tag k="addr:housenumber" v="10606 1/2"/><tag k="addr:postcode" v="78753"/></node><node id="-60" lat="30.368949" lon="-97.676201" changeset="false"><tag k="addr:street" v="Bluff Bend Drive"/><tag k="addr:housenumber" v="10620"/><tag k="addr:postcode" v="78753"/></node><node id="-61" lat="30.374679" lon="-97.671812" changeset="false"><tag k="addr:street" v="East Braker Lane"/><tag k="addr:housenumber" v="1015"/><tag k="addr:postcode" v="78753"/></node><node id="-62" lat="30.368614" lon="-97.670585" changeset="false"><tag k="addr:street" v="Amblewood Way"/><tag k="addr:housenumber" v="10901"/><tag k="addr:postcode" v="78753"/></node><node id="-63" lat="30.365973" lon="-97.670729" changeset="false"><tag k="addr:street" v="Jonwood Way"/><tag k="addr:housenumber" v="10606"/><tag k="addr:postcode" v="78753"/></node><node id="-64" lat="30.371359" lon="-97.677396" changeset="false"><tag k="addr:street" v="Joseph Clayton Drive"/><tag k="addr:housenumber" v="10710"/><tag k="addr:postcode" v="78753"/></node><node id="-65" lat="30.371112" lon="-97.674742" changeset="false"><tag k="addr:street" v="Collinwood West Drive"/><tag k="addr:housenumber" v="1001"/><tag k="addr:postcode" v="78753"/></node><node id="-66" lat="30.36862" lon="-97.680271" changeset="false"><tag k="addr:street" v="Middle Fiskville Road"/><tag k="addr:housenumber" v="10505"/><tag k="addr:postcode" v="78753"/></node><node id="-67" lat="30.375577" lon="-97.674699" changeset="false"><tag k="addr:street" v="Joseph Clayton Drive"/><tag k="addr:housenumber" v="11206"/><tag k="addr:postcode" v="78753"/></node><node id="-68" lat="30.370568" lon="-97.668136" changeset="false"><tag k="addr:street" v="Wandering Way"/><tag k="addr:housenumber" v="11133 1/2"/><tag k="addr:postcode" v="78753"/></node><node id="-69" lat="30.375106" lon="-97.674219" changeset="false"><tag k="addr:street" v="Joseph Clayton Drive"/><tag k="addr:housenumber" v="11205"/><tag k="addr:postcode" v="78753"/></node><node id="-70" lat="30.370402" lon="-97.679495" changeset="false"><tag k="addr:street" v="North Interstate Highway 35 Service Road"/><tag k="addr:housenumber" v="10615"/><tag k="addr:postcode" v="78753"/></node><node id="-71" lat="30.370155" lon="-97.670511" changeset="false"><tag k="addr:street" v="Claywood Drive"/><tag k="addr:housenumber" v="11005"/><tag k="addr:postcode" v="78753"/></node><node id="-72" lat="30.369382" lon="-97.669965" changeset="false"><tag k="addr:street" v="Collinwood West Drive"/><tag k="addr:housenumber" v="1206"/><tag k="addr:postcode" v="78753"/></node><node id="-73" lat="30.367833" lon="-97.669517" changeset="false"><tag k="addr:street" v="Collinwood West Drive"/><tag k="addr:housenumber" v="1311"/><tag k="addr:postcode" v="78753"/></node><node id="-74" lat="30.368477" lon="-97.669843" changeset="false"><tag k="addr:street" v="Collinwood West Drive"/><tag k="addr:housenumber" v="1305"/><tag k="addr:postcode" v="78753"/></node><node id="-75" lat="30.370009" lon="-97.670634" changeset="false"><tag k="addr:street" v="Claywood Drive"/><tag k="addr:housenumber" v="11003"/><tag k="addr:postcode" v="78753"/></node><node id="-76" lat="30.375134" lon="-97.672901" changeset="false"><tag k="addr:street" v="Bluff Bend Drive"/><tag k="addr:housenumber" v="11218"/><tag k="addr:postcode" v="78753"/></node><node id="-77" lat="30.375165" lon="-97.672881" changeset="false"><tag k="addr:street" v="Bluff Bend Drive"/><tag k="addr:housenumber" v="11220"/><tag k="addr:postcode" v="78753"/></node><node id="-78" lat="30.373965" lon="-97.673727" changeset="false"><tag k="addr:street" v="Bluff Bend Drive"/><tag k="addr:housenumber" v="11110"/><tag k="addr:postcode" v="78753"/></node><node id="-79" lat="30.37413" lon="-97.673604" changeset="false"><tag k="addr:street" v="Bluff Bend Drive"/><tag k="addr:housenumber" v="11112"/><tag k="addr:postcode" v="78753"/></node><node id="-80" lat="30.373794" lon="-97.673817" changeset="false"><tag k="addr:street" v="Bluff Bend Drive"/><tag k="addr:housenumber" v="11108"/><tag k="addr:postcode" v="78753"/></node><node id="-81" lat="30.374299" lon="-97.673503" changeset="false"><tag k="addr:street" v="Bluff Bend Drive"/><tag k="addr:housenumber" v="11200"/><tag k="addr:postcode" v="78753"/></node><node id="-82" lat="30.373636" lon="-97.673921" changeset="false"><tag k="addr:street" v="Bluff Bend Drive"/><tag k="addr:housenumber" v="11106"/><tag k="addr:postcode" v="78753"/></node><node id="-83" lat="30.368383" lon="-97.676853" changeset="false"><tag k="addr:street" v="Bluff Bend Drive"/><tag k="addr:housenumber" v="10600"/><tag k="addr:postcode" v="78753"/></node><node id="-84" lat="30.368552" lon="-97.676768" changeset="false"><tag k="addr:street" v="Bluff Bend Drive"/><tag k="addr:housenumber" v="10602"/><tag k="addr:postcode" v="78753"/></node><node id="-85" lat="30.367341" lon="-97.678707" changeset="false"><tag k="addr:street" v="Applegate Drive East"/><tag k="addr:housenumber" v="901"/><tag k="addr:postcode" v="78753"/></node><node id="-86" lat="30.367411" lon="-97.678761" changeset="false"><tag k="addr:street" v="Applegate Drive East"/><tag k="addr:housenumber" v="813"/><tag k="addr:postcode" v="78753"/></node></osm>