<?xml version="1.0" encoding="UTF-8"?><osm version="0.6" generator="github.com/aaronlidman/osm-and-geojson"><node id="-1" lat="30.320583" lon="-97.91612" changeset="false"><tag k="addr:street" v="Pleasant Panorama View"/><tag k="addr:housenumber" v="11805"/></node><node id="-2" lat="30.320122" lon="-97.918067" changeset="false"><tag k="addr:street" v="Preserve Vista Terrace"/><tag k="addr:housenumber" v="12000"/></node><node id="-3" lat="30.318897" lon="-97.919514" changeset="false"><tag k="addr:street" v="Sea Eagle View,1100"/><tag k="addr:housenumber" v="2104"/></node><node id="-4" lat="30.316529" lon="-97.918598" changeset="false"><tag k="addr:street" v="Windswept Drive"/><tag k="addr:housenumber" v="2300"/></node><node id="-5" lat="30.309544" lon="-97.894647" changeset="false"><tag k="addr:street" v="Indigo Broom Loop"/><tag k="addr:housenumber" v="10305"/></node><node id="-6" lat="30.320133" lon="-97.915324" changeset="false"><tag k="addr:street" v="Resaca Boulevard"/><tag k="addr:housenumber" v="1815"/></node><node id="-7" lat="30.325013" lon="-97.916604" changeset="false"><tag k="addr:street" v="Palisades Pointe Lane"/><tag k="addr:housenumber" v="1420"/></node><node id="-8" lat="30.31135" lon="-97.897238" changeset="false"><tag k="addr:street" v="Lemon Mint Court"/><tag k="addr:housenumber" v="1808"/></node><node id="-9" lat="30.311549" lon="-97.91269" changeset="false"><tag k="addr:street" v="Ashley Worth Boulevard"/><tag k="addr:housenumber" v="2509"/></node><node id="-10" lat="30.317203" lon="-97.899103" changeset="false"><tag k="addr:street" v="Straw Flower Drive"/><tag k="addr:housenumber" v="10824"/></node><node id="-11" lat="30.310112" lon="-97.89491" changeset="false"><tag k="addr:street" v="Indigo Broom Loop"/><tag k="addr:housenumber" v="10317"/></node><node id="-12" lat="30.31174" lon="-97.894584" changeset="false"><tag k="addr:street" v="Datura Court"/><tag k="addr:housenumber" v="1700"/></node><node id="-13" lat="30.315531" lon="-97.921245" changeset="false"><tag k="addr:street" v="Lake Stone Drive"/><tag k="addr:housenumber" v="12105"/></node><node id="-14" lat="30.313151" lon="-97.915354" changeset="false"><tag k="addr:street" v="Emerald Falls Drive"/><tag k="addr:housenumber" v="11600"/></node><node id="-15" lat="30.312897" lon="-97.915326" changeset="false"><tag k="addr:street" v="Emerald Falls Drive"/><tag k="addr:housenumber" v="11548"/></node><node id="-16" lat="30.309534" lon="-97.896152" changeset="false"><tag k="addr:street" v="Trillium Cove"/><tag k="addr:housenumber" v="1909"/></node><node id="-17" lat="30.315099" lon="-97.899358" changeset="false"><tag k="addr:street" v="Milagro Drive"/><tag k="addr:housenumber" v="1508"/></node><node id="-18" lat="30.315351" lon="-97.918854" changeset="false"><tag k="addr:street" v="Lake Stone Drive"/><tag k="addr:housenumber" v="11913"/></node><node id="-19" lat="30.314369" lon="-97.895148" changeset="false"><tag k="addr:street" v="Prickly Poppy Cove"/><tag k="addr:housenumber" v="10502"/></node><node id="-20" lat="30.313309" lon="-97.916153" changeset="false"><tag k="addr:street" v="Emerald Falls Drive"/><tag k="addr:housenumber" v="11620"/></node><node id="-21" lat="30.315341" lon="-97.89811" changeset="false"><tag k="addr:street" v="Straw Flower Drive"/><tag k="addr:housenumber" v="10721"/></node><node id="-22" lat="30.313564" lon="-97.898362" changeset="false"><tag k="addr:street" v="Straw Flower Drive"/><tag k="addr:housenumber" v="10617"/></node><node id="-23" lat="30.310923" lon="-97.897172" changeset="false"><tag k="addr:street" v="Indigo Broom Loop"/><tag k="addr:housenumber" v="10429"/></node><node id="-24" lat="30.320334" lon="-97.915243" changeset="false"><tag k="addr:street" v="Resaca Boulevard"/><tag k="addr:housenumber" v="1809"/></node><node id="-25" lat="30.310536" lon="-97.894339" changeset="false"><tag k="addr:street" v="Indigo Broom Loop"/><tag k="addr:housenumber" v="10318"/></node><node id="-26" lat="30.31696" lon="-97.91899" changeset="false"><tag k="addr:street" v="Nevada Drive"/><tag k="addr:housenumber" v="11912"/></node><node id="-27" lat="30.314083" lon="-97.896019" changeset="false"><tag k="addr:street" v="Prickly Poppy Cove"/><tag k="addr:housenumber" v="10512"/></node><node id="-28" lat="30.31158" lon="-97.894413" changeset="false"><tag k="addr:street" v="Datura Court"/><tag k="addr:housenumber" v="1701"/></node><node id="-29" lat="30.311757" lon="-97.916379" changeset="false"><tag k="addr:street" v="Sundown Drive"/><tag k="addr:housenumber" v="1602"/></node><node id="-30" lat="30.316547" lon="-97.920312" changeset="false"><tag k="addr:street" v="Nevada Drive"/><tag k="addr:housenumber" v="12009"/></node><node id="-31" lat="30.314374" lon="-97.916465" changeset="false"><tag k="addr:street" v="Watercrest Drive"/><tag k="addr:housenumber" v="2417"/></node><node id="-32" lat="30.311944" lon="-97.915095" changeset="false"><tag k="addr:street" v="Cascade Falls Drive"/><tag k="addr:housenumber" v="2813"/></node><node id="-33" lat="30.314362" lon="-97.898651" changeset="false"><tag k="addr:street" v="Milagro Drive"/><tag k="addr:housenumber" v="1605"/></node><node id="-34" lat="30.31338" lon="-97.916296" changeset="false"><tag k="addr:street" v="Emerald Falls Drive"/><tag k="addr:housenumber" v="11700"/></node><node id="-35" lat="30.312623" lon="-97.91477" changeset="false"><tag k="addr:street" v="Emerald Falls Drive"/><tag k="addr:housenumber" v="11532"/></node><node id="-36" lat="30.312768" lon="-97.91505" changeset="false"><tag k="addr:street" v="Emerald Falls Drive"/><tag k="addr:housenumber" v="11540"/></node><node id="-37" lat="30.314599" lon="-97.899262" changeset="false"><tag k="addr:street" v="Milagro Drive"/><tag k="addr:housenumber" v="1600"/></node><node id="-38" lat="30.315456" lon="-97.920781" changeset="false"><tag k="addr:street" v="Lake Stone Drive"/><tag k="addr:housenumber" v="12021"/></node><node id="-39" lat="30.311873" lon="-97.900739" changeset="false"><tag k="addr:street" v="Indigo Broom Loop"/><tag k="addr:housenumber" v="10643"/></node><node id="-40" lat="30.311437" lon="-97.901809" changeset="false"><tag k="addr:street" v="Vervain Court"/><tag k="addr:housenumber" v="2000"/></node><node id="-41" lat="30.320695" lon="-97.9174" changeset="false"><tag k="addr:street" v="Pleasant Panorama View"/><tag k="addr:housenumber" v="11913"/></node><node id="-42" lat="30.323644" lon="-97.914664" changeset="false"><tag k="addr:street" v="Resaca Boulevard"/><tag k="addr:housenumber" v="1605"/></node><node id="-43" lat="30.323332" lon="-97.914189" changeset="false"><tag k="addr:street" v="Resaca Boulevard"/><tag k="addr:housenumber" v="1615"/></node><node id="-44" lat="30.318464" lon="-97.918678" changeset="false"><tag k="addr:street" v="Sea Eagle View,1100"/><tag k="addr:housenumber" v="2013"/></node><node id="-45" lat="30.317523" lon="-97.920265" changeset="false"><tag k="addr:street" v="Nevada Drive"/><tag k="addr:housenumber" v="12006"/></node><node id="-46" lat="30.313037" lon="-97.9156" changeset="false"><tag k="addr:street" v="Emerald Falls Drive"/><tag k="addr:housenumber" v="11604"/></node><node id="-47" lat="30.314964" lon="-97.898247" changeset="false"><tag k="addr:street" v="Purslane Cove"/><tag k="addr:housenumber" v="10700"/></node><node id="-48" lat="30.319127" lon="-97.916507" changeset="false"><tag k="addr:street" v="Sea Eagle View,1100"/><tag k="addr:housenumber" v="1911"/></node><node id="-49" lat="30.313449" lon="-97.901677" changeset="false"><tag k="addr:street" v="Heliotrope Court"/><tag k="addr:housenumber" v="1904"/></node><node id="-50" lat="30.320182" lon="-97.917812" changeset="false"><tag k="addr:street" v="Preserve Vista Terrace"/><tag k="addr:housenumber" v="11916"/></node><node id="-51" lat="30.312291" lon="-97.912578" changeset="false"><tag k="addr:street" v="Ashley Worth Boulevard"/><tag k="addr:housenumber" v="2500"/></node><node id="-52" lat="30.311588" lon="-97.903092" changeset="false"><tag k="addr:street" v="Rivina Drive"/><tag k="addr:housenumber" v="2201"/></node><node id="-53" lat="30.318902" lon="-97.918389" changeset="false"><tag k="addr:street" v="Sea Eagle View,1100"/><tag k="addr:housenumber" v="2006"/></node><node id="-54" lat="30.3207" lon="-97.917654" changeset="false"><tag k="addr:street" v="Pleasant Panorama View"/><tag k="addr:housenumber" v="12003"/></node><node id="-55" lat="30.320388" lon="-97.918644" changeset="false"><tag k="addr:street" v="Pleasant Panorama View"/><tag k="addr:housenumber" v="12019"/></node><node id="-56" lat="30.320202" lon="-97.917541" changeset="false"><tag k="addr:street" v="Preserve Vista Terrace"/><tag k="addr:housenumber" v="11912"/></node><node id="-57" lat="30.319013" lon="-97.915736" changeset="false"><tag k="addr:street" v="Resaca Boulevard"/><tag k="addr:housenumber" v="1919"/></node><node id="-58" lat="30.318914" lon="-97.916614" changeset="false"><tag k="addr:street" v="Sea Eagle View,1100"/><tag k="addr:housenumber" v="1915"/></node><node id="-59" lat="30.313546" lon="-97.898992" changeset="false"><tag k="addr:street" v="Milagro Drive"/><tag k="addr:housenumber" v="1701"/></node><node id="-60" lat="30.313512" lon="-97.916575" changeset="false"><tag k="addr:street" v="Emerald Falls Drive"/><tag k="addr:housenumber" v="11708"/></node><node id="-61" lat="30.31247" lon="-97.89667" changeset="false"><tag k="addr:street" v="Lemon Mint Court"/><tag k="addr:housenumber" v="1720"/></node><node id="-62" lat="30.310025" lon="-97.901444" changeset="false"><tag k="addr:street" v="Rivina Drive"/><tag k="addr:housenumber" v="2108"/></node><node id="-63" lat="30.310036" lon="-97.902903" changeset="false"><tag k="addr:street" v="Rivina Drive"/><tag k="addr:housenumber" v="2133"/></node><node id="-64" lat="30.315299" lon="-97.918175" changeset="false"><tag k="addr:street" v="Resaca Boulevard"/><tag k="addr:housenumber" v="2400"/></node><node id="-65" lat="30.312554" lon="-97.914628" changeset="false"><tag k="addr:street" v="Emerald Falls Drive"/><tag k="addr:housenumber" v="11528"/></node><node id="-66" lat="30.324226" lon="-97.916349" changeset="false"><tag k="addr:street" v="Resaca Boulevard"/><tag k="addr:housenumber" v="1506"/></node><node id="-67" lat="30.311126" lon="-97.917956" changeset="false"><tag k="addr:street" v="Andrea Ridge Cove"/><tag k="addr:housenumber" v="2712"/></node><node id="-68" lat="30.320708" lon="-97.919387" changeset="false"><tag k="addr:street" v="Pleasant Panorama View"/><tag k="addr:housenumber" v="12030"/></node><node id="-69" lat="30.313669" lon="-97.918756" changeset="false"><tag k="addr:street" v="Sterling Panorama Court"/><tag k="addr:housenumber" v="2617"/></node><node id="-70" lat="30.31277" lon="-97.899286" changeset="false"><tag k="addr:street" v="Senna Hills Drive"/><tag k="addr:housenumber" v="10612"/></node><node id="-71" lat="30.311207" lon="-97.916563" changeset="false"><tag k="addr:street" v="Cascade Falls Drive"/><tag k="addr:housenumber" v="2646"/></node><node id="-72" lat="30.317624" lon="-97.918316" changeset="false"><tag k="addr:street" v="Windswept Drive"/><tag k="addr:housenumber" v="2204"/></node><node id="-73" lat="30.313269" lon="-97.916975" changeset="false"><tag k="addr:street" v="Emerald Falls Drive"/><tag k="addr:housenumber" v="11713"/></node><node id="-74" lat="30.317207" lon="-97.920464" changeset="false"><tag k="addr:street" v="Nevada Drive"/><tag k="addr:housenumber" v="12008"/></node><node id="-75" lat="30.315866" lon="-97.917983" changeset="false"><tag k="addr:street" v="Resaca Boulevard"/><tag k="addr:housenumber" v="2320 1/2"/></node><node id="-76" lat="30.314038" lon="-97.89872" changeset="false"><tag k="addr:street" v="Milagro Drive"/><tag k="addr:housenumber" v="1609"/></node><node id="-77" lat="30.313805" lon="-97.898847" changeset="false"><tag k="addr:street" v="Milagro Drive"/><tag k="addr:housenumber" v="1613"/></node><node id="-78" lat="30.320382" lon="-97.920047" changeset="false"><tag k="addr:street" v="Pleasant Panorama View"/><tag k="addr:housenumber" v="12104"/></node><node id="-79" lat="30.324279" lon="-97.915546" changeset="false"><tag k="addr:street" v="Resaca Boulevard"/><tag k="addr:housenumber" v="1515"/></node><node id="-80" lat="30.314673" lon="-97.898369" changeset="false"><tag k="addr:street" v="Purslane Cove"/><tag k="addr:housenumber" v="10701"/></node><node id="-81" lat="30.315515" lon="-97.897158" changeset="false"><tag k="addr:street" v="Prezia Drive"/><tag k="addr:housenumber" v="10609"/></node><node id="-82" lat="30.321313" lon="-97.915099" changeset="false"><tag k="addr:street" v="Palisades Pointe Lane"/><tag k="addr:housenumber" v="1716 1/2"/></node><node id="-83" lat="30.314131" lon="-97.898161" changeset="false"><tag k="addr:street" v="Straw Flower Drive"/><tag k="addr:housenumber" v="10701"/></node><node id="-84" lat="30.314304" lon="-97.902221" changeset="false"><tag k="addr:street" v="Heliotrope Court"/><tag k="addr:housenumber" v="1910"/></node><node id="-85" lat="30.312378" lon="-97.915226" changeset="false"><tag k="addr:street" v="Emerald Falls Drive"/><tag k="addr:housenumber" v="11539"/></node><node id="-86" lat="30.31662" lon="-97.899601" changeset="false"><tag k="addr:street" v="Milagro Drive"/><tag k="addr:housenumber" v="1413"/></node><node id="-87" lat="30.319209" lon="-97.915667" changeset="false"><tag k="addr:street" v="Resaca Boulevard"/><tag k="addr:housenumber" v="1915"/></node><node id="-88" lat="30.321244" lon="-97.918212" changeset="false"><tag k="addr:street" v="Pleasant Panorama View"/><tag k="addr:housenumber" v="12010"/></node><node id="-89" lat="30.320553" lon="-97.915839" changeset="false"><tag k="addr:street" v="Pleasant Panorama View"/><tag k="addr:housenumber" v="11801"/></node><node id="-90" lat="30.323203" lon="-97.913617" changeset="false"><tag k="addr:street" v="Resaca Boulevard"/><tag k="addr:housenumber" v="1629"/></node><node id="-91" lat="30.318625" lon="-97.917168" changeset="false"><tag k="addr:street" v="Sea Eagle View Cove"/><tag k="addr:housenumber" v="11904"/></node><node id="-92" lat="30.318637" lon="-97.920137" changeset="false"><tag k="addr:street" v="Sea Eagle View,1100"/><tag k="addr:housenumber" v="2113"/></node><node id="-93" lat="30.318487" lon="-97.919195" changeset="false"><tag k="addr:street" v="Sea Eagle View,1100"/><tag k="addr:housenumber" v="2101"/></node><node id="-94" lat="30.310883" lon="-97.915428" changeset="false"><tag k="addr:street" v="Cascade Falls Drive"/><tag k="addr:housenumber" v="2724"/></node><node id="-95" lat="30.319889" lon="-97.918549" changeset="false"><tag k="addr:street" v="Preserve Vista Terrace"/><tag k="addr:housenumber" v="12008"/></node><node id="-96" lat="30.319795" lon="-97.917508" changeset="false"><tag k="addr:street" v="Preserve Vista Terrace"/><tag k="addr:housenumber" v="11909"/></node><node id="-97" lat="30.319784" lon="-97.917234" changeset="false"><tag k="addr:street" v="Preserve Vista Terrace"/><tag k="addr:housenumber" v="11905"/></node><node id="-98" lat="30.319563" lon="-97.920669" changeset="false"><tag k="addr:street" v="Sea Eagle View,1100"/><tag k="addr:housenumber" v="2129"/></node><node id="-99" lat="30.314138" lon="-97.895757" changeset="false"><tag k="addr:street" v="Prickly Poppy Cove"/><tag k="addr:housenumber" v="10508"/></node><node id="-100" lat="30.311567" lon="-97.91846" changeset="false"><tag k="addr:street" v="Andrea Ridge Cove"/><tag k="addr:housenumber" v="2701"/></node><node id="-101" lat="30.312349" lon="-97.896851" changeset="false"><tag k="addr:street" v="Lemon Mint Court"/><tag k="addr:housenumber" v="1724"/></node><node id="-102" lat="30.316603" lon="-97.898181" changeset="false"><tag k="addr:street" v="Straw Flower Drive"/><tag k="addr:housenumber" v="10808"/></node><node id="-103" lat="30.314281" lon="-97.896297" changeset="false"><tag k="addr:street" v="Acacia Bud Drive"/><tag k="addr:housenumber" v="1517"/></node><node id="-104" lat="30.313709" lon="-97.901829" changeset="false"><tag k="addr:street" v="Heliotrope Court"/><tag k="addr:housenumber" v="1908"/></node><node id="-105" lat="30.319641" lon="-97.915499" changeset="false"><tag k="addr:street" v="Resaca Boulevard"/><tag k="addr:housenumber" v="1905"/></node><node id="-106" lat="30.318487" lon="-97.918915" changeset="false"><tag k="addr:street" v="Sea Eagle View,1100"/><tag k="addr:housenumber" v="2017"/></node><node id="-107" lat="30.31738" lon="-97.919085" changeset="false"><tag k="addr:street" v="Rimrock Drive"/><tag k="addr:housenumber" v="2209"/></node><node id="-108" lat="30.318885" lon="-97.920326" changeset="false"><tag k="addr:street" v="Sea Eagle View,1100"/><tag k="addr:housenumber" v="2117"/></node><node id="-109" lat="30.318561" lon="-97.919766" changeset="false"><tag k="addr:street" v="Sea Eagle View,1100"/><tag k="addr:housenumber" v="2109"/></node><node id="-110" lat="30.319112" lon="-97.917771" changeset="false"><tag k="addr:street" v="Sea Eagle View,1100"/><tag k="addr:housenumber" v="1918"/></node><node id="-111" lat="30.312961" lon="-97.918697" changeset="false"><tag k="addr:street" v="Sterling Panorama Court"/><tag k="addr:housenumber" v="2618"/></node><node id="-112" lat="30.312488" lon="-97.914497" changeset="false"><tag k="addr:street" v="Emerald Falls Drive"/><tag k="addr:housenumber" v="11524"/></node><node id="-113" lat="30.314231" lon="-97.895424" changeset="false"><tag k="addr:street" v="Prickly Poppy Cove"/><tag k="addr:housenumber" v="10504"/></node><node id="-114" lat="30.313132" lon="-97.916701" changeset="false"><tag k="addr:street" v="Emerald Falls Drive"/><tag k="addr:housenumber" v="11705"/></node><node id="-115" lat="30.312371" lon="-97.89783" changeset="false"><tag k="addr:street" v="Acacia Bud Drive"/><tag k="addr:housenumber" v="1717"/></node><node id="-116" lat="30.322514" lon="-97.914424" changeset="false"><tag k="addr:street" v="Resaca Boulevard"/><tag k="addr:housenumber" v="1632"/></node><node id="-117" lat="30.310133" lon="-97.89674" changeset="false"><tag k="addr:street" v="Trillium Cove"/><tag k="addr:housenumber" v="1900"/></node><node id="-118" lat="30.309662" lon="-97.894806" changeset="false"><tag k="addr:street" v="Indigo Broom Loop"/><tag k="addr:housenumber" v="10309"/></node><node id="-119" lat="30.31148" lon="-97.894968" changeset="false"><tag k="addr:street" v="Datura Court"/><tag k="addr:housenumber" v="1708"/></node><node id="-120" lat="30.310238" lon="-97.893726" changeset="false"><tag k="addr:street" v="Allium Drive"/><tag k="addr:housenumber" v="1708"/></node><node id="-121" lat="30.311233" lon="-97.899576" changeset="false"><tag k="addr:street" v="Pluchea Cove"/><tag k="addr:housenumber" v="10619"/></node><node id="-122" lat="30.313005" lon="-97.919284" changeset="false"><tag k="addr:street" v="Sterling Panorama Court"/><tag k="addr:housenumber" v="2604"/></node><node id="-123" lat="30.314876" lon="-97.916146" changeset="false"><tag k="addr:street" v="Watercrest Drive"/><tag k="addr:housenumber" v="2403"/></node><node id="-124" lat="30.312593" lon="-97.915817" changeset="false"><tag k="addr:street" v="Sundown Drive"/><tag k="addr:housenumber" v="1626"/></node><node id="-125" lat="30.312425" lon="-97.91436" changeset="false"><tag k="addr:street" v="Emerald Falls Drive"/><tag k="addr:housenumber" v="11520"/></node><node id="-126" lat="30.312357" lon="-97.914222" changeset="false"><tag k="addr:street" v="Emerald Falls Drive"/><tag k="addr:housenumber" v="11516"/></node><node id="-127" lat="30.31941" lon="-97.915569" changeset="false"><tag k="addr:street" v="Resaca Boulevard"/><tag k="addr:housenumber" v="1909"/></node><node id="-128" lat="30.319126" lon="-97.91627" changeset="false"><tag k="addr:street" v="Resaca Boulevard"/><tag k="addr:housenumber" v="2000"/></node><node id="-129" lat="30.313407" lon="-97.917257" changeset="false"><tag k="addr:street" v="Emerald Falls Drive"/><tag k="addr:housenumber" v="11721"/></node><node id="-130" lat="30.32374" lon="-97.9165" changeset="false"><tag k="addr:street" v="Palisades Pointe Lane"/><tag k="addr:housenumber" v="1601"/></node><node id="-131" lat="30.315314" lon="-97.918098" changeset="false"><tag k="addr:street" v="Lake Stone Drive"/><tag k="addr:housenumber" v="11901 1/2"/></node><node id="-132" lat="30.31435" lon="-97.898052" changeset="false"><tag k="addr:street" v="Straw Flower Drive"/><tag k="addr:housenumber" v="10705"/></node><node id="-133" lat="30.313914" lon="-97.902204" changeset="false"><tag k="addr:street" v="Heliotrope Court"/><tag k="addr:housenumber" v="1912"/></node><node id="-134" lat="30.309634" lon="-97.904775" changeset="false"><tag k="addr:street" v="Senna Hills Drive"/><tag k="addr:housenumber" v="10900"/></node><node id="-135" lat="30.312032" lon="-97.914521" changeset="false"><tag k="addr:street" v="Emerald Falls Drive"/><tag k="addr:housenumber" v="11517"/></node><node id="-136" lat="30.309216" lon="-97.899847" changeset="false"><tag k="addr:street" v="Indigo Broom Loop"/><tag k="addr:housenumber" v="10551"/></node><node id="-137" lat="30.318559" lon="-97.916069" changeset="false"><tag k="addr:street" v="Resaca Boulevard"/><tag k="addr:housenumber" v="2005"/></node><node id="-138" lat="30.3195" lon="-97.920085" changeset="false"><tag k="addr:street" v="Sea Eagle View,1100"/><tag k="addr:housenumber" v="2116"/></node><node id="-139" lat="30.316975" lon="-97.918806" changeset="false"><tag k="addr:street" v="Nevada Drive"/><tag k="addr:housenumber" v="11908"/></node><node id="-140" lat="30.312432" lon="-97.903522" changeset="false"><tag k="addr:street" v="Rivina Drive"/><tag k="addr:housenumber" v="2301"/></node><node id="-141" lat="30.312648" lon="-97.900763" changeset="false"><tag k="addr:street" v="Senna Hills Drive"/><tag k="addr:housenumber" v="10644"/></node><node id="-142" lat="30.320146" lon="-97.916746" changeset="false"><tag k="addr:street" v="Preserve Vista Terrace"/><tag k="addr:housenumber" v="11900"/></node><node id="-143" lat="30.312315" lon="-97.915085" changeset="false"><tag k="addr:street" v="Emerald Falls Drive"/><tag k="addr:housenumber" v="11533"/></node><node id="-144" lat="30.313887" lon="-97.898305" changeset="false"><tag k="addr:street" v="Straw Flower Drive"/><tag k="addr:housenumber" v="10621"/></node><node id="-145" lat="30.311351" lon="-97.914569" changeset="false"><tag k="addr:street" v="Cascade Falls Drive"/><tag k="addr:housenumber" v="2810"/></node><node id="-146" lat="30.318678" lon="-97.916775" changeset="false"><tag k="addr:street" v="Sea Eagle View,1100"/><tag k="addr:housenumber" v="1919"/></node><node id="-147" lat="30.311557" lon="-97.913506" changeset="false"><tag k="addr:street" v="Ashley Worth Boulevard"/><tag k="addr:housenumber" v="2510"/></node><node id="-148" lat="30.313339" lon="-97.899142" changeset="false"><tag k="addr:street" v="Milagro Drive"/><tag k="addr:housenumber" v="1705"/></node><node id="-149" lat="30.311287" lon="-97.916718" changeset="false"><tag k="addr:street" v="Cascade Falls Drive"/><tag k="addr:housenumber" v="2642"/></node><node id="-150" lat="30.313926" lon="-97.917244" changeset="false"><tag k="addr:street" v="Emerald Falls Drive"/><tag k="addr:housenumber" v="11800"/></node><node id="-151" lat="30.315957" lon="-97.899207" changeset="false"><tag k="addr:street" v="Spiderling Court"/><tag k="addr:housenumber" v="10704"/></node><node id="-152" lat="30.313446" lon="-97.916428" changeset="false"><tag k="addr:street" v="Emerald Falls Drive"/><tag k="addr:housenumber" v="11704"/></node><node id="-153" lat="30.316128" lon="-97.921149" changeset="false"><tag k="addr:street" v="Lake Stone Drive"/><tag k="addr:housenumber" v="12110"/></node><node id="-154" lat="30.320712" lon="-97.917127" changeset="false"><tag k="addr:street" v="Pleasant Panorama View"/><tag k="addr:housenumber" v="11909"/></node><node id="-155" lat="30.315392" lon="-97.921009" changeset="false"><tag k="addr:street" v="Lake Stone Drive"/><tag k="addr:housenumber" v="12101"/></node><node id="-156" lat="30.312992" lon="-97.918899" changeset="false"><tag k="addr:street" v="Sterling Panorama Court"/><tag k="addr:housenumber" v="2614"/></node><node id="-157" lat="30.316855" lon="-97.898411" changeset="false"><tag k="addr:street" v="Straw Flower Drive"/><tag k="addr:housenumber" v="10812"/></node><node id="-158" lat="30.312697" lon="-97.914918" changeset="false"><tag k="addr:street" v="Emerald Falls Drive"/><tag k="addr:housenumber" v="11536"/></node><node id="-159" lat="30.310361" lon="-97.894224" changeset="false"><tag k="addr:street" v="Indigo Broom Loop"/><tag k="addr:housenumber" v="10314"/></node><node id="-160" lat="30.319792" lon="-97.916169" changeset="false"><tag k="addr:street" v="Sea Eagle View,1100"/><tag k="addr:housenumber" v="1813"/></node><node id="-161" lat="30.318797" lon="-97.915806" changeset="false"><tag k="addr:street" v="Resaca Boulevard"/><tag k="addr:housenumber" v="2001"/></node><node id="-162" lat="30.318139" lon="-97.917235" changeset="false"><tag k="addr:street" v="Sea Eagle View Cove"/><tag k="addr:housenumber" v="11900"/></node><node id="-163" lat="30.316828" lon="-97.919158" changeset="false"><tag k="addr:street" v="Nevada Drive"/><tag k="addr:housenumber" v="11916"/></node><node id="-164" lat="30.31092" lon="-97.919591" changeset="false"><tag k="addr:street" v="Sonoma Drive"/><tag k="addr:housenumber" v="11700"/></node><node id="-165" lat="30.311839" lon="-97.897906" changeset="false"><tag k="addr:street" v="Senna Hills Drive"/><tag k="addr:housenumber" v="10526"/></node><node id="-166" lat="30.313169" lon="-97.915877" changeset="false"><tag k="addr:street" v="Emerald Falls Drive"/><tag k="addr:housenumber" v="11612"/></node><node id="-167" lat="30.323299" lon="-97.915186" changeset="false"><tag k="addr:street" v="Resaca Boulevard"/><tag k="addr:housenumber" v="1600"/></node><node id="-168" lat="30.311082" lon="-97.902953" changeset="false"><tag k="addr:street" v="Rivina Drive"/><tag k="addr:housenumber" v="2149"/></node><node id="-169" lat="30.320723" lon="-97.915085" changeset="false"><tag k="addr:street" v="Resaca Boulevard"/><tag k="addr:housenumber" v="1803 1/2"/></node><node id="-170" lat="30.309669" lon="-97.896781" changeset="false"><tag k="addr:street" v="Trillium Cove"/><tag k="addr:housenumber" v="1908"/></node><node id="-171" lat="30.320263" lon="-97.920752" changeset="false"><tag k="addr:street" v="Pleasant Panorama View"/><tag k="addr:housenumber" v="12112"/></node><node id="-172" lat="30.313429" lon="-97.897242" changeset="false"><tag k="addr:street" v="Straw Flower Drive"/><tag k="addr:housenumber" v="10601"/></node><node id="-173" lat="30.315818" lon="-97.919581" changeset="false"><tag k="addr:street" v="Rimrock Drive"/><tag k="addr:housenumber" v="2316"/></node><node id="-174" lat="30.313235" lon="-97.916017" changeset="false"><tag k="addr:street" v="Emerald Falls Drive"/><tag k="addr:housenumber" v="11616"/></node><node id="-175" lat="30.312744" lon="-97.89897" changeset="false"><tag k="addr:street" v="Senna Hills Drive"/><tag k="addr:housenumber" v="10608"/></node><node id="-176" lat="30.322947" lon="-97.913716" changeset="false"><tag k="addr:street" v="Resaca Boulevard"/><tag k="addr:housenumber" v="1625"/></node><node id="-177" lat="30.324026" lon="-97.916126" changeset="false"><tag k="addr:street" v="Resaca Boulevard"/><tag k="addr:housenumber" v="1510"/></node><node id="-178" lat="30.313001" lon="-97.919091" changeset="false"><tag k="addr:street" v="Sterling Panorama Court"/><tag k="addr:housenumber" v="2610"/></node><node id="-179" lat="30.314101" lon="-97.895088" changeset="false"><tag k="addr:street" v="Prickly Poppy Cove"/><tag k="addr:housenumber" v="10500"/></node><node id="-180" lat="30.312151" lon="-97.917329" changeset="false"><tag k="addr:street" v="Cascade Falls Drive"/><tag k="addr:housenumber" v="2613"/></node><node id="-181" lat="30.30996" lon="-97.893841" changeset="false"><tag k="addr:street" v="Allium Drive"/><tag k="addr:housenumber" v="1712"/></node><node id="-182" lat="30.310988" lon="-97.901909" changeset="false"><tag k="addr:street" v="Vervain Court"/><tag k="addr:housenumber" v="2010"/></node><node id="-183" lat="30.310629" lon="-97.895023" changeset="false"><tag k="addr:street" v="Indigo Broom Loop"/><tag k="addr:housenumber" v="10325"/></node><node id="-184" lat="30.309301" lon="-97.893762" changeset="false"><tag k="addr:street" v="Allium Drive"/><tag k="addr:housenumber" v="1721"/></node><node id="-185" lat="30.312189" lon="-97.914808" changeset="false"><tag k="addr:street" v="Emerald Falls Drive"/><tag k="addr:housenumber" v="11525"/></node><node id="-186" lat="30.311826" lon="-97.900148" changeset="false"><tag k="addr:street" v="Indigo Broom Loop"/><tag k="addr:housenumber" v="10640"/></node><node id="-187" lat="30.312015" lon="-97.916215" changeset="false"><tag k="addr:street" v="Sundown Drive"/><tag k="addr:housenumber" v="1606"/></node><node id="-188" lat="30.311738" lon="-97.913493" changeset="false"><tag k="addr:street" v="Ashley Worth Boulevard"/><tag k="addr:housenumber" v="2508"/></node><node id="-189" lat="30.321278" lon="-97.917112" changeset="false"><tag k="addr:street" v="Pleasant Panorama View"/><tag k="addr:housenumber" v="11910"/></node><node id="-190" lat="30.313352" lon="-97.896506" changeset="false"><tag k="addr:street" v="Acacia Bud Drive"/><tag k="addr:housenumber" v="1613"/></node><node id="-191" lat="30.319361" lon="-97.916365" changeset="false"><tag k="addr:street" v="Sea Eagle View,1100"/><tag k="addr:housenumber" v="1905"/></node><node id="-192" lat="30.320017" lon="-97.918332" changeset="false"><tag k="addr:street" v="Preserve Vista Terrace"/><tag k="addr:housenumber" v="12004"/></node><node id="-193" lat="30.320651" lon="-97.916849" changeset="false"><tag k="addr:street" v="Pleasant Panorama View"/><tag k="addr:housenumber" v="11905"/></node><node id="-194" lat="30.320545" lon="-97.915057" changeset="false"><tag k="addr:street" v="Resaca Boulevard"/><tag k="addr:housenumber" v="1805"/></node><node id="-195" lat="30.316953" lon="-97.898638" changeset="false"><tag k="addr:street" v="Straw Flower Drive"/><tag k="addr:housenumber" v="10816"/></node><node id="-196" lat="30.311079" lon="-97.916303" changeset="false"><tag k="addr:street" v="Cascade Falls Drive"/><tag k="addr:housenumber" v="2704"/></node><node id="-197" lat="30.314347" lon="-97.916925" changeset="false"><tag k="addr:street" v="Watercrest Court"/><tag k="addr:housenumber" v="11801"/></node><node id="-198" lat="30.314869" lon="-97.8979" changeset="false"><tag k="addr:street" v="Straw Flower Drive"/><tag k="addr:housenumber" v="10713"/></node><node id="-199" lat="30.315135" lon="-97.897997" changeset="false"><tag k="addr:street" v="Straw Flower Drive"/><tag k="addr:housenumber" v="10717"/></node><node id="-200" lat="30.315566" lon="-97.898242" changeset="false"><tag k="addr:street" v="Straw Flower Drive"/><tag k="addr:housenumber" v="10725"/></node><node id="-201" lat="30.312829" lon="-97.915185" changeset="false"><tag k="addr:street" v="Emerald Falls Drive"/><tag k="addr:housenumber" v="11544"/></node><node id="-202" lat="30.312288" lon="-97.91408" changeset="false"><tag k="addr:street" v="Emerald Falls Drive"/><tag k="addr:housenumber" v="11512"/></node><node id="-203" lat="30.319892" lon="-97.915411" changeset="false"><tag k="addr:street" v="Resaca Boulevard"/><tag k="addr:housenumber" v="1901"/></node><node id="-204" lat="30.313103" lon="-97.915744" changeset="false"><tag k="addr:street" v="Emerald Falls Drive"/><tag k="addr:housenumber" v="11608"/></node><node id="-205" lat="30.311037" lon="-97.894777" changeset="false"><tag k="addr:street" v="Datura Court"/><tag k="addr:housenumber" v="1713"/></node><node id="-206" lat="30.316747" lon="-97.920982" changeset="false"><tag k="addr:street" v="Lake Stone Drive"/><tag k="addr:housenumber" v="12208"/></node><node id="-207" lat="30.316354" lon="-97.919698" changeset="false"><tag k="addr:street" v="Rimrock Drive"/><tag k="addr:housenumber" v="2304"/></node><node id="-208" lat="30.310125" lon="-97.895285" changeset="false"><tag k="addr:street" v="Peonia Court"/><tag k="addr:housenumber" v="10400"/></node><node id="-209" lat="30.319727" lon="-97.918748" changeset="false"><tag k="addr:street" v="Preserve Vista Terrace"/><tag k="addr:housenumber" v="12012"/></node><node id="-210" lat="30.313221" lon="-97.901581" changeset="false"><tag k="addr:street" v="Heliotrope Court"/><tag k="addr:housenumber" v="1900"/></node><node id="-211" lat="30.31142" lon="-97.901203" changeset="false"><tag k="addr:street" v="Vervain Court"/><tag k="addr:housenumber" v="2005"/></node><node id="-212" lat="30.320318" lon="-97.920311" changeset="false"><tag k="addr:street" v="Pleasant Panorama View"/><tag k="addr:housenumber" v="12108"/></node><node id="-213" lat="30.319754" lon="-97.920749" changeset="false"><tag k="addr:street" v="Sea Eagle View,1100"/><tag k="addr:housenumber" v="2133"/></node><node id="-214" lat="30.321307" lon="-97.917655" changeset="false"><tag k="addr:street" v="Pleasant Panorama View"/><tag k="addr:housenumber" v="12002"/></node><node id="-215" lat="30.321283" lon="-97.917937" changeset="false"><tag k="addr:street" v="Pleasant Panorama View"/><tag k="addr:housenumber" v="12006"/></node><node id="-216" lat="30.315842" lon="-97.917635" changeset="false"><tag k="addr:street" v="Resaca Boulevard"/><tag k="addr:housenumber" v="2321"/></node><node id="-217" lat="30.315863" lon="-97.917557" changeset="false"><tag k="addr:street" v="Lake Stone Drive"/><tag k="addr:housenumber" v="11828"/></node></osm>