<?xml version="1.0" encoding="UTF-8"?><osm version="0.6" generator="github.com/aaronlidman/osm-and-geojson"><node id="-1" lat="30.253698" lon="-97.764057" changeset="false"><tag k="addr:street" v="Lamar Square Drive"/><tag k="addr:housenumber" v="1342"/><tag k="addr:postcode" v="78704"/></node><node id="-2" lat="30.253229" lon="-97.763081" changeset="false"><tag k="addr:street" v="South Lamar Boulevard"/><tag k="addr:housenumber" v="1307"/><tag k="addr:postcode" v="78704"/></node><node id="-3" lat="30.257093" lon="-97.761596" changeset="false"><tag k="addr:street" v="Josephine Street"/><tag k="addr:housenumber" v="905"/><tag k="addr:postcode" v="78704"/></node><node id="-4" lat="30.253841" lon="-97.765056" changeset="false"><tag k="addr:street" v="South Lamar Boulevard"/><tag k="addr:housenumber" v="1404"/><tag k="addr:postcode" v="78704"/></node><node id="-5" lat="30.261414" lon="-97.761582" changeset="false"><tag k="addr:street" v="Barton Springs Road"/><tag k="addr:housenumber" v="1529"/><tag k="addr:postcode" v="78704"/></node><node id="-6" lat="30.256057" lon="-97.763281" changeset="false"><tag k="addr:street" v="South Lamar Boulevard"/><tag k="addr:housenumber" v="1104"/><tag k="addr:postcode" v="78704"/></node><node id="-7" lat="30.255713" lon="-97.762536" changeset="false"><tag k="addr:street" v="South Lamar Boulevard"/><tag k="addr:housenumber" v="1100"/><tag k="addr:postcode" v="78704"/></node><node id="-8" lat="30.256188" lon="-97.761238" changeset="false"><tag k="addr:street" v="South Lamar Boulevard"/><tag k="addr:housenumber" v="909"/><tag k="addr:postcode" v="78704"/></node><node id="-9" lat="30.260583" lon="-97.75772" changeset="false"><tag k="addr:street" v="Barton Springs Road"/><tag k="addr:housenumber" v="1219"/><tag k="addr:postcode" v="78704"/></node><node id="-10" lat="30.250245" lon="-97.764877" changeset="false"><tag k="addr:street" v="Evergreen Avenue"/><tag k="addr:housenumber" v="1705"/><tag k="addr:postcode" v="78704"/></node><node id="-11" lat="30.257261" lon="-97.760173" changeset="false"><tag k="addr:street" v="South Lamar Boulevard"/><tag k="addr:housenumber" v="809"/><tag k="addr:postcode" v="78704"/></node><node id="-12" lat="30.26077" lon="-97.758392" changeset="false"><tag k="addr:street" v="South Lamar Boulevard"/><tag k="addr:housenumber" v="501"/><tag k="addr:postcode" v="78704"/></node><node id="-13" lat="30.25374" lon="-97.76513" changeset="false"><tag k="addr:street" v="South Lamar Boulevard"/><tag k="addr:housenumber" v="1416"/><tag k="addr:postcode" v="78704"/></node><node id="-14" lat="30.26083" lon="-97.761009" changeset="false"><tag k="addr:street" v="Hillmont Street"/><tag k="addr:housenumber" v="1506"/><tag k="addr:postcode" v="78704"/></node><node id="-15" lat="30.25727" lon="-97.764228" changeset="false"><tag k="addr:street" v="Treadwell Street"/><tag k="addr:housenumber" v="1515"/><tag k="addr:postcode" v="78704"/></node><node id="-16" lat="30.257842" lon="-97.763674" changeset="false"><tag k="addr:street" v="Ethel Street"/><tag k="addr:housenumber" v="904"/><tag k="addr:postcode" v="78704"/></node><node id="-17" lat="30.258349" lon="-97.759183" changeset="false"><tag k="addr:street" v="South Lamar Boulevard"/><tag k="addr:housenumber" v="701 1/2"/><tag k="addr:postcode" v="78704"/></node><node id="-18" lat="30.255353" lon="-97.7606" changeset="false"><tag k="addr:street" v="South 8th Street"/><tag k="addr:housenumber" v="1005"/><tag k="addr:postcode" v="78704"/></node><node id="-19" lat="30.255294" lon="-97.760646" changeset="false"><tag k="addr:street" v="South 8th Street"/><tag k="addr:housenumber" v="1007"/><tag k="addr:postcode" v="78704"/></node><node id="-20" lat="30.255389" lon="-97.762911" changeset="false"><tag k="addr:street" v="South Lamar Boulevard"/><tag k="addr:housenumber" v="1132"/><tag k="addr:postcode" v="78704"/></node><node id="-21" lat="30.256375" lon="-97.762333" changeset="false"><tag k="addr:street" v="Treadwell Street"/><tag k="addr:housenumber" v="1401"/><tag k="addr:postcode" v="78704"/></node><node id="-22" lat="30.254177" lon="-97.76512" changeset="false"><tag k="addr:street" v="Lamar Square Drive"/><tag k="addr:housenumber" v="1332"/><tag k="addr:postcode" v="78704"/></node><node id="-23" lat="30.254352" lon="-97.762146" changeset="false"><tag k="addr:street" v="South Lamar Boulevard"/><tag k="addr:housenumber" v="1215"/><tag k="addr:postcode" v="78704"/></node><node id="-24" lat="30.249678" lon="-97.765185" changeset="false"><tag k="addr:street" v="Evergreen Avenue"/><tag k="addr:housenumber" v="1803"/><tag k="addr:postcode" v="78704"/></node><node id="-25" lat="30.256418" lon="-97.765334" changeset="false"><tag k="addr:street" v="Kinney Avenue"/><tag k="addr:housenumber" v="1107"/><tag k="addr:postcode" v="78704"/></node><node id="-26" lat="30.255482" lon="-97.763113" changeset="false"><tag k="addr:street" v="South Lamar Boulevard"/><tag k="addr:housenumber" v="1124"/><tag k="addr:postcode" v="78704"/></node><node id="-27" lat="30.256253" lon="-97.763088" changeset="false"><tag k="addr:street" v="South Lamar Boulevard"/><tag k="addr:housenumber" v="1004"/><tag k="addr:postcode" v="78704"/></node><node id="-28" lat="30.25511" lon="-97.762402" changeset="false"><tag k="addr:street" v="South Lamar Boulevard"/><tag k="addr:housenumber" v="1150"/><tag k="addr:postcode" v="78704"/></node><node id="-29" lat="30.25524" lon="-97.760683" changeset="false"><tag k="addr:street" v="South 8th Street"/><tag k="addr:housenumber" v="1009"/><tag k="addr:postcode" v="78704"/></node><node id="-30" lat="30.252698" lon="-97.766541" changeset="false"><tag k="addr:street" v="Collier Street"/><tag k="addr:housenumber" v="1504"/><tag k="addr:postcode" v="78704"/></node><node id="-31" lat="30.254655" lon="-97.762747" changeset="false"><tag k="addr:street" v="South Lamar Boulevard"/><tag k="addr:housenumber" v="1212"/><tag k="addr:postcode" v="78704"/></node><node id="-32" lat="30.260712" lon="-97.758932" changeset="false"><tag k="addr:street" v="South Lamar Boulevard"/><tag k="addr:housenumber" v="500"/><tag k="addr:postcode" v="78704"/></node><node id="-33" lat="30.255578" lon="-97.760792" changeset="false"><tag k="addr:street" v="South 8th Street"/><tag k="addr:housenumber" v="1006"/><tag k="addr:postcode" v="78704"/></node><node id="-34" lat="30.255545" lon="-97.763278" changeset="false"><tag k="addr:street" v="South Lamar Boulevard"/><tag k="addr:housenumber" v="1122"/><tag k="addr:postcode" v="78704"/></node><node id="-35" lat="30.255322" lon="-97.76276" changeset="false"><tag k="addr:street" v="South Lamar Boulevard"/><tag k="addr:housenumber" v="1142"/><tag k="addr:postcode" v="78704"/></node><node id="-36" lat="30.256035" lon="-97.763214" changeset="false"><tag k="addr:street" v="South Lamar Boulevard"/><tag k="addr:housenumber" v="1102"/><tag k="addr:postcode" v="78704"/></node><node id="-37" lat="30.256145" lon="-97.763484" changeset="false"><tag k="addr:street" v="South Lamar Boulevard"/><tag k="addr:housenumber" v="1110"/><tag k="addr:postcode" v="78704"/></node><node id="-38" lat="30.254665" lon="-97.764898" changeset="false"><tag k="addr:street" v="Lamar Square Drive"/><tag k="addr:housenumber" v="1328"/><tag k="addr:postcode" v="78704"/></node><node id="-39" lat="30.25546" lon="-97.760519" changeset="false"><tag k="addr:street" v="South 8th Street"/><tag k="addr:housenumber" v="1001"/><tag k="addr:postcode" v="78704"/></node><node id="-40" lat="30.256121" lon="-97.763163" changeset="false"><tag k="addr:street" v="South Lamar Boulevard"/><tag k="addr:housenumber" v="1008"/><tag k="addr:postcode" v="78704"/></node><node id="-41" lat="30.256111" lon="-97.763418" changeset="false"><tag k="addr:street" v="South Lamar Boulevard"/><tag k="addr:housenumber" v="1108"/><tag k="addr:postcode" v="78704"/></node><node id="-42" lat="30.255464" lon="-97.762012" changeset="false"><tag k="addr:street" v="South Lamar Boulevard"/><tag k="addr:housenumber" v="1102 1/2"/><tag k="addr:postcode" v="78704"/></node><node id="-43" lat="30.254645" lon="-97.761359" changeset="false"><tag k="addr:street" v="South 8th Street"/><tag k="addr:housenumber" v="1112"/><tag k="addr:postcode" v="78704"/></node><node id="-44" lat="30.256488" lon="-97.765258" changeset="false"><tag k="addr:street" v="Kinney Avenue"/><tag k="addr:housenumber" v="1105"/><tag k="addr:postcode" v="78704"/></node><node id="-45" lat="30.256195" lon="-97.763599" changeset="false"><tag k="addr:street" v="South Lamar Boulevard"/><tag k="addr:housenumber" v="1116"/><tag k="addr:postcode" v="78704"/></node><node id="-46" lat="30.256089" lon="-97.76214" changeset="false"><tag k="addr:street" v="Treadwell Street"/><tag k="addr:housenumber" v="1307"/><tag k="addr:postcode" v="78704"/></node><node id="-47" lat="30.255982" lon="-97.761857" changeset="false"><tag k="addr:street" v="South Lamar Boulevard"/><tag k="addr:housenumber" v="1000"/><tag k="addr:postcode" v="78704"/></node><node id="-48" lat="30.256022" lon="-97.765498" changeset="false"><tag k="addr:street" v="Kinney Avenue"/><tag k="addr:housenumber" v="1201"/><tag k="addr:postcode" v="78704"/></node><node id="-49" lat="30.258107" lon="-97.763274" changeset="false"><tag k="addr:street" v="Ethel Street"/><tag k="addr:housenumber" v="801"/><tag k="addr:postcode" v="78704"/></node><node id="-50" lat="30.26007" lon="-97.76268" changeset="false"><tag k="addr:street" v="Kinney Avenue"/><tag k="addr:housenumber" v="701"/><tag k="addr:postcode" v="78704"/></node><node id="-51" lat="30.256202" lon="-97.763119" changeset="false"><tag k="addr:street" v="South Lamar Boulevard"/><tag k="addr:housenumber" v="1006"/><tag k="addr:postcode" v="78704"/></node><node id="-52" lat="30.259977" lon="-97.761239" changeset="false"><tag k="addr:street" v="Jessie Street"/><tag k="addr:housenumber" v="604"/><tag k="addr:postcode" v="78704"/></node><node id="-53" lat="30.256897" lon="-97.761282" changeset="false"><tag k="addr:street" v="South Lamar Boulevard"/><tag k="addr:housenumber" v="904"/><tag k="addr:postcode" v="78704"/></node><node id="-54" lat="30.254999" lon="-97.76248" changeset="false"><tag k="addr:street" v="South Lamar Boulevard"/><tag k="addr:housenumber" v="1154"/><tag k="addr:postcode" v="78704"/></node><node id="-55" lat="30.256079" lon="-97.763348" changeset="false"><tag k="addr:street" v="South Lamar Boulevard"/><tag k="addr:housenumber" v="1106"/><tag k="addr:postcode" v="78704"/></node><node id="-56" lat="30.25516" lon="-97.762498" changeset="false"><tag k="addr:street" v="South Lamar Boulevard"/><tag k="addr:housenumber" v="1146"/><tag k="addr:postcode" v="78704"/></node><node id="-57" lat="30.255029" lon="-97.762461" changeset="false"><tag k="addr:street" v="South Lamar Boulevard"/><tag k="addr:housenumber" v="1152"/><tag k="addr:postcode" v="78704"/></node><node id="-58" lat="30.256174" lon="-97.763552" changeset="false"><tag k="addr:street" v="South Lamar Boulevard"/><tag k="addr:housenumber" v="1112"/><tag k="addr:postcode" v="78704"/></node><node id="-59" lat="30.255441" lon="-97.763031" changeset="false"><tag k="addr:street" v="South Lamar Boulevard"/><tag k="addr:housenumber" v="1126"/><tag k="addr:postcode" v="78704"/></node><node id="-60" lat="30.256149" lon="-97.765604" changeset="false"><tag k="addr:street" v="Kinney Avenue"/><tag k="addr:housenumber" v="1115"/><tag k="addr:postcode" v="78704"/></node><node id="-61" lat="30.251126" lon="-97.764702" changeset="false"><tag k="addr:street" v="Evergreen Avenue"/><tag k="addr:housenumber" v="1607"/><tag k="addr:postcode" v="78704"/></node><node id="-62" lat="30.253798" lon="-97.765097" changeset="false"><tag k="addr:street" v="South Lamar Boulevard"/><tag k="addr:housenumber" v="1406"/><tag k="addr:postcode" v="78704"/></node><node id="-63" lat="30.25156" lon="-97.7653" changeset="false"><tag k="addr:street" v="South Lamar Boulevard"/><tag k="addr:housenumber" v="1602 1/2"/><tag k="addr:postcode" v="78704"/></node><node id="-64" lat="30.251521" lon="-97.765086" changeset="false"><tag k="addr:street" v="South Lamar Boulevard"/><tag k="addr:housenumber" v="1600"/><tag k="addr:postcode" v="78704"/></node><node id="-65" lat="30.260815" lon="-97.758595" changeset="false"><tag k="addr:street" v="Barton Springs Road"/><tag k="addr:housenumber" v="1301"/><tag k="addr:postcode" v="78704"/></node><node id="-66" lat="30.256902" lon="-97.763588" changeset="false"><tag k="addr:street" v="Treadwell Street"/><tag k="addr:housenumber" v="1505"/><tag k="addr:postcode" v="78704"/></node><node id="-67" lat="30.253881" lon="-97.765023" changeset="false"><tag k="addr:street" v="South Lamar Boulevard"/><tag k="addr:housenumber" v="1402"/><tag k="addr:postcode" v="78704"/></node><node id="-68" lat="30.250074" lon="-97.764854" changeset="false"><tag k="addr:street" v="Evergreen Avenue"/><tag k="addr:housenumber" v="1707"/><tag k="addr:postcode" v="78704"/></node><node id="-69" lat="30.255534" lon="-97.762294" changeset="false"><tag k="addr:street" v="South Lamar Boulevard"/><tag k="addr:housenumber" v="1010"/><tag k="addr:postcode" v="78704"/></node><node id="-70" lat="30.255953" lon="-97.760682" changeset="false"><tag k="addr:street" v="Treadwell Street"/><tag k="addr:housenumber" v="1200"/><tag k="addr:postcode" v="78704"/></node><node id="-71" lat="30.257727" lon="-97.759513" changeset="false"><tag k="addr:street" v="South Lamar Boulevard"/><tag k="addr:housenumber" v="719"/><tag k="addr:postcode" v="78704"/></node><node id="-72" lat="30.252925" lon="-97.763842" changeset="false"><tag k="addr:street" v="South Lamar Boulevard"/><tag k="addr:housenumber" v="1414"/><tag k="addr:postcode" v="78704"/></node><node id="-73" lat="30.254567" lon="-97.761664" changeset="false"><tag k="addr:street" v="West Gibson Street"/><tag k="addr:housenumber" v="1205"/><tag k="addr:postcode" v="78704"/></node><node id="-74" lat="30.256291" lon="-97.762557" changeset="false"><tag k="addr:street" v="South Lamar Boulevard"/><tag k="addr:housenumber" v="1050"/><tag k="addr:postcode" v="78704"/></node><node id="-75" lat="30.258525" lon="-97.762319" changeset="false"><tag k="addr:street" v="Juliet Street"/><tag k="addr:housenumber" v="1503"/><tag k="addr:postcode" v="78704"/></node><node id="-76" lat="30.255478" lon="-97.7615" changeset="false"><tag k="addr:street" v="South Lamar Boulevard"/><tag k="addr:housenumber" v="1007"/><tag k="addr:postcode" v="78704"/></node><node id="-77" lat="30.256356" lon="-97.763027" changeset="false"><tag k="addr:street" v="South Lamar Boulevard"/><tag k="addr:housenumber" v="1002"/><tag k="addr:postcode" v="78704"/></node><node id="-78" lat="30.258469" lon="-97.762287" changeset="false"><tag k="addr:street" v="Jessie Street"/><tag k="addr:housenumber" v="800"/><tag k="addr:postcode" v="78704"/></node><node id="-79" lat="30.258099" lon="-97.763197" changeset="false"><tag k="addr:street" v="Ethel Street"/><tag k="addr:housenumber" v="811"/><tag k="addr:postcode" v="78704"/></node><node id="-80" lat="30.254515" lon="-97.761548" changeset="false"><tag k="addr:street" v="West Gibson Street"/><tag k="addr:housenumber" v="1203"/><tag k="addr:postcode" v="78704"/></node><node id="-81" lat="30.256259" lon="-97.765372" changeset="false"><tag k="addr:street" v="Kinney Avenue"/><tag k="addr:housenumber" v="1111"/><tag k="addr:postcode" v="78704"/></node><node id="-82" lat="30.253936" lon="-97.764722" changeset="false"><tag k="addr:street" v="Lamar Square Drive"/><tag k="addr:housenumber" v="1334"/><tag k="addr:postcode" v="78704"/></node><node id="-83" lat="30.254456" lon="-97.765039" changeset="false"><tag k="addr:street" v="Lamar Square Drive"/><tag k="addr:housenumber" v="1330"/><tag k="addr:postcode" v="78704"/></node><node id="-84" lat="30.251537" lon="-97.765203" changeset="false"><tag k="addr:street" v="South Lamar Boulevard"/><tag k="addr:housenumber" v="1602"/><tag k="addr:postcode" v="78704"/></node><node id="-85" lat="30.258588" lon="-97.759593" changeset="false"><tag k="addr:street" v="South Lamar Boulevard"/><tag k="addr:housenumber" v="702"/><tag k="addr:postcode" v="78704"/></node><node id="-86" lat="30.258605" lon="-97.759528" changeset="false"><tag k="addr:street" v="South Lamar Boulevard"/><tag k="addr:housenumber" v="700"/><tag k="addr:postcode" v="78704"/></node><node id="-87" lat="30.259092" lon="-97.763044" changeset="false"><tag k="addr:street" v="Ethel Street"/><tag k="addr:housenumber" v="714"/><tag k="addr:postcode" v="78704"/></node><node id="-88" lat="30.259153" lon="-97.763072" changeset="false"><tag k="addr:street" v="Juliet Street"/><tag k="addr:housenumber" v="1510"/><tag k="addr:postcode" v="78704"/></node><node id="-89" lat="30.258377" lon="-97.763478" changeset="false"><tag k="addr:street" v="Ethel Street"/><tag k="addr:housenumber" v="808"/><tag k="addr:postcode" v="78704"/></node><node id="-90" lat="30.258541" lon="-97.763424" changeset="false"><tag k="addr:street" v="Ethel Street"/><tag k="addr:housenumber" v="806"/><tag k="addr:postcode" v="78704"/></node><node id="-91" lat="30.254204" lon="-97.76311" changeset="false"><tag k="addr:street" v="South Lamar Boulevard"/><tag k="addr:housenumber" v="1222"/><tag k="addr:postcode" v="78704"/></node><node id="-92" lat="30.254111" lon="-97.763157" changeset="false"><tag k="addr:street" v="South Lamar Boulevard"/><tag k="addr:housenumber" v="1224"/><tag k="addr:postcode" v="78704"/></node><node id="-93" lat="30.253378" lon="-97.763635" changeset="false"><tag k="addr:street" v="South Lamar Boulevard"/><tag k="addr:housenumber" v="1400"/><tag k="addr:postcode" v="78704"/></node><node id="-94" lat="30.253527" lon="-97.763544" changeset="false"><tag k="addr:street" v="South Lamar Boulevard"/><tag k="addr:housenumber" v="1320"/><tag k="addr:postcode" v="78704"/></node><node id="-95" lat="30.25384" lon="-97.763339" changeset="false"><tag k="addr:street" v="South Lamar Boulevard"/><tag k="addr:housenumber" v="1300"/><tag k="addr:postcode" v="78704"/></node><node id="-96" lat="30.254016" lon="-97.763234" changeset="false"><tag k="addr:street" v="South Lamar Boulevard"/><tag k="addr:housenumber" v="1232"/><tag k="addr:postcode" v="78704"/></node><node id="-97" lat="30.253956" lon="-97.763274" changeset="false"><tag k="addr:street" v="South Lamar Boulevard"/><tag k="addr:housenumber" v="1234"/><tag k="addr:postcode" v="78704"/></node><node id="-98" lat="30.253705" lon="-97.763409" changeset="false"><tag k="addr:street" v="South Lamar Boulevard"/><tag k="addr:housenumber" v="1310"/><tag k="addr:postcode" v="78704"/></node><node id="-99" lat="30.253627" lon="-97.763445" changeset="false"><tag k="addr:street" v="South Lamar Boulevard"/><tag k="addr:housenumber" v="1312"/><tag k="addr:postcode" v="78704"/></node><node id="-100" lat="30.254284" lon="-97.761272" changeset="false"><tag k="addr:street" v="West Gibson Street"/><tag k="addr:housenumber" v="1107"/><tag k="addr:postcode" v="78704"/></node><node id="-101" lat="30.254169" lon="-97.762278" changeset="false"><tag k="addr:street" v="South Lamar Boulevard"/><tag k="addr:housenumber" v="1217"/><tag k="addr:postcode" v="78704"/></node><node id="-102" lat="30.254037" lon="-97.763738" changeset="false"><tag k="addr:street" v="Lamar Square Drive"/><tag k="addr:housenumber" v="1347"/><tag k="addr:postcode" v="78704"/></node><node id="-103" lat="30.25419" lon="-97.763973" changeset="false"><tag k="addr:street" v="Lamar Square Drive"/><tag k="addr:housenumber" v="1345"/><tag k="addr:postcode" v="78704"/></node><node id="-104" lat="30.255075" lon="-97.764602" changeset="false"><tag k="addr:street" v="Lamar Square Drive"/><tag k="addr:housenumber" v="1324"/><tag k="addr:postcode" v="78704"/></node><node id="-105" lat="30.255306" lon="-97.764224" changeset="false"><tag k="addr:street" v="Lamar Square Drive"/><tag k="addr:housenumber" v="1322"/><tag k="addr:postcode" v="78704"/></node><node id="-106" lat="30.251359" lon="-97.764684" changeset="false"><tag k="addr:street" v="South Lamar Boulevard"/><tag k="addr:housenumber" v="1601"/><tag k="addr:postcode" v="78704"/></node><node id="-107" lat="30.251259" lon="-97.764771" changeset="false"><tag k="addr:street" v="South Lamar Boulevard"/><tag k="addr:housenumber" v="1605"/><tag k="addr:postcode" v="78704"/></node><node id="-108" lat="30.251324" lon="-97.764746" changeset="false"><tag k="addr:street" v="South Lamar Boulevard"/><tag k="addr:housenumber" v="1603"/><tag k="addr:postcode" v="78704"/></node><node id="-109" lat="30.251228" lon="-97.764836" changeset="false"><tag k="addr:street" v="South Lamar Boulevard"/><tag k="addr:housenumber" v="1607"/><tag k="addr:postcode" v="78704"/></node><node id="-110" lat="30.25305" lon="-97.767454" changeset="false"><tag k="addr:street" v="Kinney Avenue"/><tag k="addr:housenumber" v="1605"/><tag k="addr:postcode" v="78704"/></node><node id="-111" lat="30.252996" lon="-97.767385" changeset="false"><tag k="addr:street" v="Kinney Avenue"/><tag k="addr:housenumber" v="1611"/><tag k="addr:postcode" v="78704"/></node></osm>