<?xml version="1.0" encoding="UTF-8"?><osm version="0.6" generator="github.com/aaronlidman/osm-and-geojson"><node id="-1" lat="30.347562" lon="-97.686902" changeset="false"><tag k="addr:street" v="Hermitage Drive"/><tag k="addr:housenumber" v="1104"/></node><node id="-2" lat="30.349962" lon="-97.690484" changeset="false"><tag k="addr:street" v="Park Plaza"/><tag k="addr:housenumber" v="917"/></node><node id="-3" lat="30.34952" lon="-97.692689" changeset="false"><tag k="addr:street" v="North Interstate Highway 35 Service Road"/><tag k="addr:housenumber" v="8627"/></node><node id="-4" lat="30.351939" lon="-97.68695" changeset="false"><tag k="addr:street" v="North Plaza,1100"/><tag k="addr:housenumber" v="8909 1/2"/></node><node id="-5" lat="30.351818" lon="-97.686447" changeset="false"><tag k="addr:street" v="North Plaza,1100"/><tag k="addr:housenumber" v="8914"/></node><node id="-6" lat="30.351852" lon="-97.685709" changeset="false"><tag k="addr:street" v="North Plaza,1100"/><tag k="addr:housenumber" v="8930"/></node><node id="-7" lat="30.344411" lon="-97.686244" changeset="false"><tag k="addr:street" v="Sheldon Cove"/><tag k="addr:housenumber" v="1201"/></node><node id="-8" lat="30.351566" lon="-97.685128" changeset="false"><tag k="addr:street" v="North Plaza,1100"/><tag k="addr:housenumber" v="8942"/></node><node id="-9" lat="30.349034" lon="-97.69114" changeset="false"><tag k="addr:street" v="Hermitage Drive"/><tag k="addr:housenumber" v="910"/></node><node id="-10" lat="30.349" lon="-97.691757" changeset="false"><tag k="addr:street" v="Hermitage Drive"/><tag k="addr:housenumber" v="904"/></node><node id="-11" lat="30.341343" lon="-97.68908" changeset="false"><tag k="addr:street" v="Furness Drive"/><tag k="addr:housenumber" v="8201"/></node><node id="-12" lat="30.341468" lon="-97.68936" changeset="false"><tag k="addr:street" v="Furness Drive"/><tag k="addr:housenumber" v="8205"/></node><node id="-13" lat="30.344183" lon="-97.68747" changeset="false"><tag k="addr:street" v="Furness Drive"/><tag k="addr:housenumber" v="8409"/></node><node id="-14" lat="30.340734" lon="-97.689761" changeset="false"><tag k="addr:street" v="Furness Drive"/><tag k="addr:housenumber" v="8101"/></node><node id="-15" lat="30.357601" lon="-97.687294" changeset="false"><tag k="addr:street" v="East Rundberg Lane"/><tag k="addr:housenumber" v="809"/></node><node id="-16" lat="30.354603" lon="-97.685843" changeset="false"><tag k="addr:street" v="North Plaza,1100"/><tag k="addr:housenumber" v="9200"/></node><node id="-17" lat="30.352117" lon="-97.686676" changeset="false"><tag k="addr:street" v="North Plaza,1100"/><tag k="addr:housenumber" v="8925"/></node><node id="-18" lat="30.351897" lon="-97.686605" changeset="false"><tag k="addr:street" v="North Plaza,1100"/><tag k="addr:housenumber" v="8902"/></node><node id="-19" lat="30.341212" lon="-97.689458" changeset="false"><tag k="addr:street" v="Furness Drive"/><tag k="addr:housenumber" v="8121"/></node><node id="-20" lat="30.355793" lon="-97.688797" changeset="false"><tag k="addr:street" v="North Interstate Highway 35 Service Road"/><tag k="addr:housenumber" v="9121"/></node><node id="-21" lat="30.343866" lon="-97.687666" changeset="false"><tag k="addr:street" v="Furness Drive"/><tag k="addr:housenumber" v="8403"/></node><node id="-22" lat="30.34371" lon="-97.687497" changeset="false"><tag k="addr:street" v="Furness Drive"/><tag k="addr:housenumber" v="8405"/></node><node id="-23" lat="30.351731" lon="-97.686171" changeset="false"><tag k="addr:street" v="North Plaza,1100"/><tag k="addr:housenumber" v="8915"/></node><node id="-24" lat="30.3523" lon="-97.686551" changeset="false"><tag k="addr:street" v="North Plaza,1100"/><tag k="addr:housenumber" v="8922"/></node><node id="-25" lat="30.356329" lon="-97.685209" changeset="false"><tag k="addr:street" v="East Rundberg Lane"/><tag k="addr:housenumber" v="901"/></node><node id="-26" lat="30.342859" lon="-97.689312" changeset="false"><tag k="addr:street" v="Furness Drive"/><tag k="addr:housenumber" v="8301"/></node><node id="-27" lat="30.350792" lon="-97.692209" changeset="false"><tag k="addr:street" v="North Interstate Highway 35 Service Road"/><tag k="addr:housenumber" v="8709"/></node><node id="-28" lat="30.349084" lon="-97.693176" changeset="false"><tag k="addr:street" v="Hermitage Drive"/><tag k="addr:housenumber" v="800"/></node><node id="-29" lat="30.348691" lon="-97.693159" changeset="false"><tag k="addr:street" v="Hermitage Drive"/><tag k="addr:housenumber" v="801"/></node><node id="-30" lat="30.345303" lon="-97.686732" changeset="false"><tag k="addr:street" v="Furness Drive"/><tag k="addr:housenumber" v="8507"/></node><node id="-31" lat="30.343694" lon="-97.687753" changeset="false"><tag k="addr:street" v="Furness Drive"/><tag k="addr:housenumber" v="8401"/></node><node id="-32" lat="30.351642" lon="-97.68528" changeset="false"><tag k="addr:street" v="North Plaza,1100"/><tag k="addr:housenumber" v="8938"/></node><node id="-33" lat="30.351617" lon="-97.68473" changeset="false"><tag k="addr:street" v="Fiskville Cemetery Road"/><tag k="addr:housenumber" v="8927"/></node><node id="-34" lat="30.351821" lon="-97.685638" changeset="false"><tag k="addr:street" v="North Plaza,1100"/><tag k="addr:housenumber" v="8932"/></node><node id="-35" lat="30.347854" lon="-97.689867" changeset="false"><tag k="addr:street" v="Loralinda Drive"/><tag k="addr:housenumber" v="8604"/></node><node id="-36" lat="30.339777" lon="-97.687122" changeset="false"><tag k="addr:street" v="Connor Lane"/><tag k="addr:housenumber" v="8208"/></node><node id="-37" lat="30.351601" lon="-97.685202" changeset="false"><tag k="addr:street" v="North Plaza,1100"/><tag k="addr:housenumber" v="8940"/></node><node id="-38" lat="30.344503" lon="-97.685504" changeset="false"><tag k="addr:street" v="Sheldon Cove"/><tag k="addr:housenumber" v="1205"/></node><node id="-39" lat="30.347293" lon="-97.685546" changeset="false"><tag k="addr:street" v="Furness Drive"/><tag k="addr:housenumber" v="8801"/></node><node id="-40" lat="30.344815" lon="-97.687065" changeset="false"><tag k="addr:street" v="Furness Drive"/><tag k="addr:housenumber" v="8501"/></node><node id="-41" lat="30.345136" lon="-97.686851" changeset="false"><tag k="addr:street" v="Furness Drive"/><tag k="addr:housenumber" v="8505"/></node><node id="-42" lat="30.347695" lon="-97.685248" changeset="false"><tag k="addr:street" v="Furness Drive"/><tag k="addr:housenumber" v="8811"/></node><node id="-43" lat="30.352206" lon="-97.686624" changeset="false"><tag k="addr:street" v="North Plaza,1100"/><tag k="addr:housenumber" v="8927"/></node><node id="-44" lat="30.35174" lon="-97.685471" changeset="false"><tag k="addr:street" v="North Plaza,1100"/><tag k="addr:housenumber" v="8936"/></node><node id="-45" lat="30.345473" lon="-97.686631" changeset="false"><tag k="addr:street" v="Furness Drive"/><tag k="addr:housenumber" v="8601"/></node><node id="-46" lat="30.351856" lon="-97.686526" changeset="false"><tag k="addr:street" v="North Plaza,1100"/><tag k="addr:housenumber" v="8904"/></node><node id="-47" lat="30.351567" lon="-97.691254" changeset="false"><tag k="addr:street" v="North Interstate Highway 35 Service Road"/><tag k="addr:housenumber" v="8805"/></node><node id="-48" lat="30.351769" lon="-97.68554" changeset="false"><tag k="addr:street" v="North Plaza,1100"/><tag k="addr:housenumber" v="8934"/></node><node id="-49" lat="30.345671" lon="-97.686543" changeset="false"><tag k="addr:street" v="Furness Drive"/><tag k="addr:housenumber" v="8605"/></node><node id="-50" lat="30.344331" lon="-97.687366" changeset="false"><tag k="addr:street" v="Furness Drive"/><tag k="addr:housenumber" v="8411"/></node><node id="-51" lat="30.344495" lon="-97.687266" changeset="false"><tag k="addr:street" v="Furness Drive"/><tag k="addr:housenumber" v="8413"/></node><node id="-52" lat="30.340696" lon="-97.689485" changeset="false"><tag k="addr:street" v="Furness Drive"/><tag k="addr:housenumber" v="8109"/></node><node id="-53" lat="30.340803" lon="-97.689416" changeset="false"><tag k="addr:street" v="Furness Drive"/><tag k="addr:housenumber" v="8113"/></node><node id="-54" lat="30.341214" lon="-97.689133" changeset="false"><tag k="addr:street" v="Furness Drive"/><tag k="addr:housenumber" v="8125"/></node><node id="-55" lat="30.344655" lon="-97.687165" changeset="false"><tag k="addr:street" v="Furness Drive"/><tag k="addr:housenumber" v="8415"/></node><node id="-56" lat="30.344972" lon="-97.686965" changeset="false"><tag k="addr:street" v="Furness Drive"/><tag k="addr:housenumber" v="8503"/></node><node id="-57" lat="30.340991" lon="-97.689598" changeset="false"><tag k="addr:street" v="Furness Drive"/><tag k="addr:housenumber" v="8117"/></node><node id="-58" lat="30.346252" lon="-97.688705" changeset="false"><tag k="addr:street" v="Weeping Willow Drive"/><tag k="addr:housenumber" v="1018"/></node><node id="-59" lat="30.351946" lon="-97.686708" changeset="false"><tag k="addr:street" v="North Plaza,1100"/><tag k="addr:housenumber" v="8900"/></node><node id="-60" lat="30.347523" lon="-97.686118" changeset="false"><tag k="addr:street" v="Hermitage Drive"/><tag k="addr:housenumber" v="1112"/></node><node id="-61" lat="30.351983" lon="-97.686808" changeset="false"><tag k="addr:street" v="North Plaza,1100"/><tag k="addr:housenumber" v="8923"/></node><node id="-62" lat="30.357438" lon="-97.687414" changeset="false"><tag k="addr:street" v="East Rundberg Lane"/><tag k="addr:housenumber" v="805"/></node><node id="-63" lat="30.34999" lon="-97.690542" changeset="false"><tag k="addr:street" v="Park Plaza"/><tag k="addr:housenumber" v="913"/></node><node id="-64" lat="30.351605" lon="-97.686662" changeset="false"><tag k="addr:street" v="North Plaza,1100"/><tag k="addr:housenumber" v="8910"/></node><node id="-65" lat="30.352164" lon="-97.686238" changeset="false"><tag k="addr:street" v="North Plaza,1100"/><tag k="addr:housenumber" v="8924"/></node><node id="-66" lat="30.352081" lon="-97.686284" changeset="false"><tag k="addr:street" v="North Plaza,1100"/><tag k="addr:housenumber" v="8920"/></node><node id="-67" lat="30.352006" lon="-97.686332" changeset="false"><tag k="addr:street" v="North Plaza,1100"/><tag k="addr:housenumber" v="8918"/></node><node id="-68" lat="30.351041" lon="-97.686564" changeset="false"><tag k="addr:street" v="North Plaza,1100"/><tag k="addr:housenumber" v="8837"/></node><node id="-69" lat="30.351037" lon="-97.686674" changeset="false"><tag k="addr:street" v="North Plaza,1100"/><tag k="addr:housenumber" v="8835"/></node><node id="-70" lat="30.35145" lon="-97.686352" changeset="false"><tag k="addr:street" v="North Plaza,1100"/><tag k="addr:housenumber" v="8907"/></node><node id="-71" lat="30.351375" lon="-97.686397" changeset="false"><tag k="addr:street" v="North Plaza,1100"/><tag k="addr:housenumber" v="8905"/></node><node id="-72" lat="30.351654" lon="-97.686214" changeset="false"><tag k="addr:street" v="North Plaza,1100"/><tag k="addr:housenumber" v="8913"/></node><node id="-73" lat="30.351515" lon="-97.686313" changeset="false"><tag k="addr:street" v="North Plaza,1100"/><tag k="addr:housenumber" v="8909"/></node><node id="-74" lat="30.351238" lon="-97.686492" changeset="false"><tag k="addr:street" v="North Plaza,1100"/><tag k="addr:housenumber" v="8901"/></node><node id="-75" lat="30.351585" lon="-97.686258" changeset="false"><tag k="addr:street" v="North Plaza,1100"/><tag k="addr:housenumber" v="8911"/></node><node id="-76" lat="30.351305" lon="-97.686445" changeset="false"><tag k="addr:street" v="North Plaza,1100"/><tag k="addr:housenumber" v="8903"/></node><node id="-77" lat="30.351824" lon="-97.686092" changeset="false"><tag k="addr:street" v="North Plaza,1100"/><tag k="addr:housenumber" v="8917"/></node><node id="-78" lat="30.351966" lon="-97.686" changeset="false"><tag k="addr:street" v="North Plaza,1100"/><tag k="addr:housenumber" v="8921"/></node><node id="-79" lat="30.35204" lon="-97.685959" changeset="false"><tag k="addr:street" v="North Plaza,1100"/><tag k="addr:housenumber" v="8926"/></node><node id="-80" lat="30.351902" lon="-97.68605" changeset="false"><tag k="addr:street" v="North Plaza,1100"/><tag k="addr:housenumber" v="8919"/></node><node id="-81" lat="30.356705" lon="-97.686447" changeset="false"><tag k="addr:street" v="East Rundberg Lane"/><tag k="addr:housenumber" v="857"/></node><node id="-82" lat="30.356441" lon="-97.686845" changeset="false"><tag k="addr:street" v="East Rundberg Lane"/><tag k="addr:housenumber" v="825"/></node><node id="-83" lat="30.35643" lon="-97.687699" changeset="false"><tag k="addr:street" v="East Rundberg Lane"/><tag k="addr:housenumber" v="829"/></node><node id="-84" lat="30.356562" lon="-97.68665" changeset="false"><tag k="addr:street" v="East Rundberg Lane"/><tag k="addr:housenumber" v="835"/></node></osm>