<?xml version="1.0" encoding="UTF-8"?><osm version="0.6" generator="github.com/aaronlidman/osm-and-geojson"><node id="-1" lat="30.197418" lon="-97.862203" changeset="false"><tag k="addr:street" v="Chesney Ridge Drive"/><tag k="addr:housenumber" v="4708"/><tag k="coa:place_id" v="256165"/></node><node id="-2" lat="30.197466" lon="-97.865026" changeset="false"><tag k="addr:street" v="Norman Trail"/><tag k="addr:housenumber" v="4909"/><tag k="coa:place_id" v="1160123"/></node><node id="-3" lat="30.175224" lon="-97.858826" changeset="false"><tag k="addr:street" v="Wyldwood Road"/><tag k="addr:housenumber" v="3707"/><tag k="coa:place_id" v="133380"/></node><node id="-4" lat="30.1845" lon="-97.852819" changeset="false"><tag k="addr:street" v="West Slaughter Lane"/><tag k="addr:housenumber" v="3615"/><tag k="coa:place_id" v="220458"/></node><node id="-5" lat="30.182367" lon="-97.854282" changeset="false"><tag k="addr:street" v="Sawmill Drive"/><tag k="addr:housenumber" v="3621"/><tag k="coa:place_id" v="143508"/></node><node id="-6" lat="30.196868" lon="-97.864852" changeset="false"><tag k="addr:street" v="Norman Trail"/><tag k="addr:housenumber" v="4825"/><tag k="coa:place_id" v="1137393"/></node><node id="-7" lat="30.183742" lon="-97.8607" changeset="false"><tag k="addr:street" v="Salmon Drive"/><tag k="addr:housenumber" v="10309"/><tag k="coa:place_id" v="224784"/></node><node id="-8" lat="30.182433" lon="-97.853741" changeset="false"><tag k="addr:street" v="Sawmill Drive"/><tag k="addr:housenumber" v="3612"/><tag k="coa:place_id" v="143493"/></node><node id="-9" lat="30.181473" lon="-97.854268" changeset="false"><tag k="addr:street" v="Malone Court"/><tag k="addr:housenumber" v="10205"/><tag k="coa:place_id" v="146856"/></node><node id="-10" lat="30.184057" lon="-97.86048" changeset="false"><tag k="addr:street" v="Salmon Drive"/><tag k="addr:housenumber" v="10305"/><tag k="coa:place_id" v="224783"/></node><node id="-11" lat="30.181964" lon="-97.852793" changeset="false"><tag k="addr:street" v="Sawmill Drive"/><tag k="addr:housenumber" v="3510"/><tag k="coa:place_id" v="143501"/></node><node id="-12" lat="30.199945" lon="-97.864701" changeset="false"><tag k="addr:street" v="West Slaughter Lane"/><tag k="addr:housenumber" v="5011"/><tag k="coa:place_id" v="3100695"/></node><node id="-13" lat="30.195562" lon="-97.863176" changeset="false"><tag k="addr:street" v="Cockrell Court"/><tag k="addr:housenumber" v="4709"/><tag k="coa:place_id" v="1137426"/></node><node id="-14" lat="30.195121" lon="-97.861879" changeset="false"><tag k="addr:street" v="Steed Drive"/><tag k="addr:housenumber" v="4620"/><tag k="coa:place_id" v="1152992"/></node><node id="-15" lat="30.194862" lon="-97.863837" changeset="false"><tag k="addr:street" v="Norman Trail"/><tag k="addr:housenumber" v="4717"/><tag k="coa:place_id" v="1137487"/></node><node id="-16" lat="30.181178" lon="-97.857216" changeset="false"><tag k="addr:street" v="Leadville Drive"/><tag k="addr:housenumber" v="3715"/><tag k="coa:place_id" v="119074"/></node><node id="-17" lat="30.197885" lon="-97.864952" changeset="false"><tag k="addr:street" v="Norman Trail"/><tag k="addr:housenumber" v="4917"/><tag k="coa:place_id" v="1137396"/></node><node id="-18" lat="30.181267" lon="-97.852045" changeset="false"><tag k="addr:street" v="Malone Drive"/><tag k="addr:housenumber" v="3505"/><tag k="coa:place_id" v="162731"/></node><node id="-19" lat="30.181118" lon="-97.854278" changeset="false"><tag k="addr:street" v="Malone Drive"/><tag k="addr:housenumber" v="3609"/><tag k="coa:place_id" v="141317"/></node><node id="-20" lat="30.180834" lon="-97.8524" changeset="false"><tag k="addr:street" v="Malone Drive"/><tag k="addr:housenumber" v="3517"/><tag k="coa:place_id" v="141323"/></node><node id="-21" lat="30.196286" lon="-97.862954" changeset="false"><tag k="addr:street" v="Tello Path"/><tag k="addr:housenumber" v="4705"/><tag k="coa:place_id" v="256121"/></node><node id="-22" lat="30.19425" lon="-97.863595" changeset="false"><tag k="addr:street" v="Norman Trail"/><tag k="addr:housenumber" v="4701"/><tag k="coa:place_id" v="1137485"/></node><node id="-23" lat="30.183095" lon="-97.861081" changeset="false"><tag k="addr:street" v="Salmon Drive"/><tag k="addr:housenumber" v="10317"/><tag k="coa:place_id" v="224789"/></node><node id="-24" lat="30.186037" lon="-97.855074" changeset="false"><tag k="addr:street" v="West Slaughter Lane"/><tag k="addr:housenumber" v="3815"/><tag k="coa:place_id" v="220459"/></node><node id="-25" lat="30.193674" lon="-97.861342" changeset="false"><tag k="addr:street" v="Steed Drive"/><tag k="addr:housenumber" v="4508"/><tag k="coa:place_id" v="1137444"/></node><node id="-26" lat="30.180462" lon="-97.853757" changeset="false"><tag k="addr:street" v="Steamboat Drive"/><tag k="addr:housenumber" v="10225"/><tag k="coa:place_id" v="162725"/></node><node id="-27" lat="30.181999" lon="-97.853492" changeset="false"><tag k="addr:street" v="Sawmill Drive"/><tag k="addr:housenumber" v="3605"/><tag k="coa:place_id" v="143503"/></node><node id="-28" lat="30.180663" lon="-97.852506" changeset="false"><tag k="addr:street" v="Malone Drive"/><tag k="addr:housenumber" v="3521"/><tag k="coa:place_id" v="141319"/></node><node id="-29" lat="30.192982" lon="-97.8605" changeset="false"><tag k="addr:street" v="Norman Trail"/><tag k="addr:housenumber" v="4501 1/2"/><tag k="coa:place_id" v="1117247"/></node><node id="-30" lat="30.195763" lon="-97.863181" changeset="false"><tag k="addr:street" v="Cockrell Court"/><tag k="addr:housenumber" v="4713"/><tag k="coa:place_id" v="1137427"/></node><node id="-31" lat="30.184369" lon="-97.860276" changeset="false"><tag k="addr:street" v="Salmon Drive"/><tag k="addr:housenumber" v="10301"/><tag k="coa:place_id" v="224781"/></node><node id="-32" lat="30.200696" lon="-97.866456" changeset="false"><tag k="addr:street" v="West Slaughter Lane"/><tag k="addr:housenumber" v="5501"/><tag k="coa:place_id" v="209010"/></node><node id="-33" lat="30.181442" lon="-97.852391" changeset="false"><tag k="addr:street" v="Malone Drive"/><tag k="addr:housenumber" v="3500"/><tag k="coa:place_id" v="212365"/></node><node id="-34" lat="30.179823" lon="-97.859427" changeset="false"><tag k="addr:street" v="Idalia Drive"/><tag k="addr:housenumber" v="3807"/><tag k="coa:place_id" v="1140776"/></node><node id="-35" lat="30.196747" lon="-97.864718" changeset="false"><tag k="addr:street" v="Norman Trail"/><tag k="addr:housenumber" v="4821"/><tag k="coa:place_id" v="1137392"/></node><node id="-36" lat="30.18341" lon="-97.860887" changeset="false"><tag k="addr:street" v="Salmon Drive"/><tag k="addr:housenumber" v="10313"/><tag k="coa:place_id" v="224785"/></node><node id="-37" lat="30.184151" lon="-97.861942" changeset="false"><tag k="addr:street" v="Salmon Drive"/><tag k="addr:housenumber" v="10316"/><tag k="coa:place_id" v="1140787"/></node><node id="-38" lat="30.184627" lon="-97.858817" changeset="false"><tag k="addr:street" v="Sawmill Drive"/><tag k="addr:housenumber" v="4010"/><tag k="coa:place_id" v="876350"/></node><node id="-39" lat="30.181003" lon="-97.852294" changeset="false"><tag k="addr:street" v="Malone Drive"/><tag k="addr:housenumber" v="3513"/><tag k="coa:place_id" v="141330"/></node><node id="-40" lat="30.183328" lon="-97.852807" changeset="false"><tag k="addr:street" v="West Slaughter Lane"/><tag k="addr:housenumber" v="3601"/><tag k="coa:place_id" v="220457"/></node><node id="-41" lat="30.179294" lon="-97.854534" changeset="false"><tag k="addr:street" v="Steamboat Drive"/><tag k="addr:housenumber" v="10415"/><tag k="coa:place_id" v="119021"/></node><node id="-42" lat="30.170985" lon="-97.860181" changeset="false"><tag k="addr:street" v="Denbar Court"/><tag k="addr:housenumber" v="3607"/><tag k="coa:place_id" v="72327"/></node><node id="-43" lat="30.172875" lon="-97.861095" changeset="false"><tag k="addr:street" v="Indian Point Drive"/><tag k="addr:housenumber" v="3710"/><tag k="coa:place_id" v="69644"/></node><node id="-44" lat="30.181277" lon="-97.853949" changeset="false"><tag k="addr:street" v="Malone Drive"/><tag k="addr:housenumber" v="3604"/><tag k="coa:place_id" v="162726"/></node><node id="-45" lat="30.180777" lon="-97.852837" changeset="false"><tag k="addr:street" v="Malone Drive"/><tag k="addr:housenumber" v="3518"/><tag k="coa:place_id" v="216426"/></node><node id="-46" lat="30.193285" lon="-97.859682" changeset="false"><tag k="addr:street" v="Chickasaw Court"/><tag k="addr:housenumber" v="4401"/><tag k="coa:place_id" v="256521"/></node><node id="-47" lat="30.171508" lon="-97.861297" changeset="false"><tag k="addr:street" v="Apache Forest Drive"/><tag k="addr:housenumber" v="3706"/><tag k="coa:place_id" v="620344"/></node><node id="-48" lat="30.197572" lon="-97.864381" changeset="false"><tag k="addr:street" v="Chesney Ridge Drive"/><tag k="addr:housenumber" v="4825"/><tag k="coa:place_id" v="1137410"/></node><node id="-49" lat="30.170437" lon="-97.859568" changeset="false"><tag k="addr:street" v="Shady Valley Drive"/><tag k="addr:housenumber" v="3504"/><tag k="coa:place_id" v="110933"/></node><node id="-50" lat="30.184114" lon="-97.859729" changeset="false"><tag k="addr:street" v="Shavano Cove"/><tag k="addr:housenumber" v="10201"/><tag k="coa:place_id" v="116809"/></node><node id="-51" lat="30.191534" lon="-97.862446" changeset="false"><tag k="addr:street" v="West Slaughter Lane"/><tag k="addr:housenumber" v="4301"/><tag k="coa:place_id" v="876638"/></node><node id="-52" lat="30.17798" lon="-97.853587" changeset="false"><tag k="addr:street" v="Brodie Lane"/><tag k="addr:housenumber" v="10306"/><tag k="coa:place_id" v="243079"/></node><node id="-53" lat="30.196824" lon="-97.863609" changeset="false"><tag k="addr:street" v="Tello Path"/><tag k="addr:housenumber" v="4721"/><tag k="coa:place_id" v="256127"/></node><node id="-54" lat="30.197192" lon="-97.865022" changeset="false"><tag k="addr:street" v="Norman Trail"/><tag k="addr:housenumber" v="4901"/><tag k="coa:place_id" v="1137395"/></node><node id="-55" lat="30.181171" lon="-97.852188" changeset="false"><tag k="addr:street" v="Malone Drive"/><tag k="addr:housenumber" v="3509"/><tag k="coa:place_id" v="141331"/></node><node id="-56" lat="30.193985" lon="-97.863897" changeset="false"><tag k="addr:street" v="Norman Trail"/><tag k="addr:housenumber" v="4641"/><tag k="coa:place_id" v="1137479"/></node><node id="-57" lat="30.175316" lon="-97.856341" changeset="false"><tag k="addr:street" v="Wyldwood Road"/><tag k="addr:housenumber" v="3511"/><tag k="coa:place_id" v="876296"/></node><node id="-58" lat="30.18228" lon="-97.854087" changeset="false"><tag k="addr:street" v="Sawmill Drive"/><tag k="addr:housenumber" v="3617"/><tag k="coa:place_id" v="143509"/></node><node id="-59" lat="30.184443" lon="-97.853671" changeset="false"><tag k="addr:street" v="West Slaughter Lane"/><tag k="addr:housenumber" v="3621"/><tag k="coa:place_id" v="3371362"/></node><node id="-60" lat="30.181594" lon="-97.860117" changeset="false"><tag k="addr:street" v="Trout Drive"/><tag k="addr:housenumber" v="3921"/><tag k="coa:place_id" v="123768"/></node><node id="-61" lat="30.196994" lon="-97.862466" changeset="false"><tag k="addr:street" v="Chesney Ridge Drive"/><tag k="addr:housenumber" v="4705"/><tag k="coa:place_id" v="256157"/></node><node id="-62" lat="30.197017" lon="-97.864953" changeset="false"><tag k="addr:street" v="Norman Trail"/><tag k="addr:housenumber" v="4829"/><tag k="coa:place_id" v="1137394"/></node><node id="-63" lat="30.181423" lon="-97.853538" changeset="false"><tag k="addr:street" v="Steamboat Drive"/><tag k="addr:housenumber" v="10210"/><tag k="coa:place_id" v="141341"/></node><node id="-64" lat="30.180909" lon="-97.853875" changeset="false"><tag k="addr:street" v="Malone Drive"/><tag k="addr:housenumber" v="3601"/><tag k="coa:place_id" v="256387"/></node><node id="-65" lat="30.188915" lon="-97.857349" changeset="false"><tag k="addr:street" v="West Slaughter Lane"/><tag k="addr:housenumber" v="4103"/><tag k="coa:place_id" v="505606"/></node><node id="-66" lat="30.182049" lon="-97.852952" changeset="false"><tag k="addr:street" v="Sawmill Drive"/><tag k="addr:housenumber" v="3514"/><tag k="coa:place_id" v="143500"/></node><node id="-67" lat="30.197693" lon="-97.864978" changeset="false"><tag k="addr:street" v="Norman Trail"/><tag k="addr:housenumber" v="4913"/><tag k="coa:place_id" v="1137398"/></node><node id="-68" lat="30.183749" lon="-97.859204" changeset="false"><tag k="addr:street" v="Shavano Drive"/><tag k="addr:housenumber" v="4002"/><tag k="coa:place_id" v="116829"/></node><node id="-69" lat="30.182172" lon="-97.853156" changeset="false"><tag k="addr:street" v="Sawmill Drive"/><tag k="addr:housenumber" v="3600"/><tag k="coa:place_id" v="143497"/></node><node id="-70" lat="30.181034" lon="-97.854079" changeset="false"><tag k="addr:street" v="Malone Drive"/><tag k="addr:housenumber" v="3605"/><tag k="coa:place_id" v="141318"/></node><node id="-71" lat="30.182834" lon="-97.856663" changeset="false"><tag k="addr:street" v="Aspen Creek Parkway"/><tag k="addr:housenumber" v="3808"/><tag k="coa:place_id" v="118727"/></node><node id="-72" lat="30.181701" lon="-97.854117" changeset="false"><tag k="addr:street" v="Malone Court"/><tag k="addr:housenumber" v="10201"/><tag k="coa:place_id" v="141417"/></node><node id="-73" lat="30.171219" lon="-97.857954" changeset="false"><tag k="addr:street" v="Brodie Lane"/><tag k="addr:housenumber" v="11006"/><tag k="coa:place_id" v="110854"/></node><node id="-74" lat="30.175779" lon="-97.856494" changeset="false"><tag k="addr:street" v="Wyldwood Road"/><tag k="addr:housenumber" v="3600"/><tag k="coa:place_id" v="172951"/></node><node id="-75" lat="30.170936" lon="-97.858348" changeset="false"><tag k="addr:street" v="Denbar Court"/><tag k="addr:housenumber" v="3500"/><tag k="coa:place_id" v="642982"/></node><node id="-76" lat="30.197007" lon="-97.863582" changeset="false"><tag k="addr:street" v="Tello Path"/><tag k="addr:housenumber" v="4725"/><tag k="coa:place_id" v="256128"/></node><node id="-77" lat="30.19767" lon="-97.863327" changeset="false"><tag k="addr:street" v="Chesney Ridge Drive"/><tag k="addr:housenumber" v="4808"/><tag k="coa:place_id" v="1137405"/></node><node id="-78" lat="30.182619" lon="-97.85412" changeset="false"><tag k="addr:street" v="Sawmill Drive"/><tag k="addr:housenumber" v="3620"/><tag k="coa:place_id" v="143491"/></node><node id="-79" lat="30.195396" lon="-97.863096" changeset="false"><tag k="addr:street" v="Cockrell Court"/><tag k="addr:housenumber" v="4705"/><tag k="coa:place_id" v="1137432"/></node><node id="-80" lat="30.179949" lon="-97.8584" changeset="false"><tag k="addr:street" v="Whitt Loop"/><tag k="addr:housenumber" v="3729"/><tag k="coa:place_id" v="123721"/></node><node id="-81" lat="30.192885" lon="-97.859826" changeset="false"><tag k="addr:street" v="Norman Trail"/><tag k="addr:housenumber" v="4441"/><tag k="coa:place_id" v="1106107"/></node><node id="-82" lat="30.193226" lon="-97.859454" changeset="false"><tag k="addr:street" v="Chickasaw Court"/><tag k="addr:housenumber" v="4400"/><tag k="coa:place_id" v="256519"/></node><node id="-83" lat="30.194032" lon="-97.861945" changeset="false"><tag k="addr:street" v="Steed Drive"/><tag k="addr:housenumber" v="4601"/><tag k="coa:place_id" v="1137453"/></node><node id="-84" lat="30.194864" lon="-97.860394" changeset="false"><tag k="addr:street" v="Chesney Ridge Drive"/><tag k="addr:housenumber" v="4501"/><tag k="coa:place_id" v="231177"/></node><node id="-85" lat="30.18147" lon="-97.853119" changeset="false"><tag k="addr:street" v="Steamboat Drive"/><tag k="addr:housenumber" v="10207"/><tag k="coa:place_id" v="141336"/></node><node id="-86" lat="30.177711" lon="-97.853886" changeset="false"><tag k="addr:street" v="Brodie Lane"/><tag k="addr:housenumber" v="10310"/><tag k="coa:place_id" v="876608"/></node><node id="-87" lat="30.181902" lon="-97.853287" changeset="false"><tag k="addr:street" v="Sawmill Drive"/><tag k="addr:housenumber" v="3601"/><tag k="coa:place_id" v="163446"/></node><node id="-88" lat="30.196268" lon="-97.863444" changeset="false"><tag k="addr:street" v="Tello Path"/><tag k="addr:housenumber" v="4715"/><tag k="coa:place_id" v="256123"/></node><node id="-89" lat="30.1821" lon="-97.853714" changeset="false"><tag k="addr:street" v="Sawmill Drive"/><tag k="addr:housenumber" v="3609"/><tag k="coa:place_id" v="143507"/></node><node id="-90" lat="30.177426" lon="-97.854058" changeset="false"><tag k="addr:street" v="Brodie Lane"/><tag k="addr:housenumber" v="10402"/><tag k="coa:place_id" v="605121"/></node><node id="-91" lat="30.198056" lon="-97.864863" changeset="false"><tag k="addr:street" v="Norman Trail"/><tag k="addr:housenumber" v="4921"/><tag k="coa:place_id" v="1137397"/></node><node id="-92" lat="30.171979" lon="-97.861417" changeset="false"><tag k="addr:street" v="Indian Point Drive"/><tag k="addr:housenumber" v="3715"/><tag k="coa:place_id" v="582532"/></node><node id="-93" lat="30.19498" lon="-97.859882" changeset="false"><tag k="addr:street" v="West Slaughter Lane"/><tag k="addr:housenumber" v="4501"/><tag k="coa:place_id" v="3032520"/></node></osm>