<?xml version="1.0" encoding="UTF-8"?><osm version="0.6" generator="github.com/aaronlidman/osm-and-geojson"><node id="-1" lat="30.439481" lon="-97.602713" changeset="false"><tag k="addr:street" v="Dahlia Court"/><tag k="addr:housenumber" v="1515"/></node><node id="-2" lat="30.437849" lon="-97.605166" changeset="false"><tag k="addr:street" v="Hollyhock Court"/><tag k="addr:housenumber" v="1501"/></node><node id="-3" lat="30.440355" lon="-97.604498" changeset="false"><tag k="addr:street" v="Sunflower Drive"/><tag k="addr:housenumber" v="807"/></node><node id="-4" lat="30.43578" lon="-97.60578" changeset="false"><tag k="addr:street" v="Petunia Lane"/><tag k="addr:housenumber" v="1406"/></node><node id="-5" lat="30.442228" lon="-97.604731" changeset="false"><tag k="addr:street" v="Wild Petunia Way"/><tag k="addr:housenumber" v="912"/></node><node id="-6" lat="30.439071" lon="-97.605098" changeset="false"><tag k="addr:street" v="Sunflower Drive"/><tag k="addr:housenumber" v="701"/></node><node id="-7" lat="30.441707" lon="-97.602226" changeset="false"><tag k="addr:street" v="Sweet William Lane"/><tag k="addr:housenumber" v="1411"/></node><node id="-8" lat="30.433246" lon="-97.605814" changeset="false"><tag k="addr:street" v="Mexican Heather Court"/><tag k="addr:housenumber" v="1513"/></node><node id="-9" lat="30.434941" lon="-97.605951" changeset="false"><tag k="addr:street" v="Spring Peony Court"/><tag k="addr:housenumber" v="1506"/></node><node id="-10" lat="30.43763" lon="-97.604881" changeset="false"><tag k="addr:street" v="Hollyhock Court"/><tag k="addr:housenumber" v="1505"/></node><node id="-11" lat="30.434714" lon="-97.604822" changeset="false"><tag k="addr:street" v="Petunia Lane"/><tag k="addr:housenumber" v="1511"/></node><node id="-12" lat="30.439619" lon="-97.602905" changeset="false"><tag k="addr:street" v="Dahlia Court"/><tag k="addr:housenumber" v="1513"/></node><node id="-13" lat="30.441908" lon="-97.602937" changeset="false"><tag k="addr:street" v="Sweet William Lane"/><tag k="addr:housenumber" v="1409"/></node><node id="-14" lat="30.442415" lon="-97.605241" changeset="false"><tag k="addr:street" v="Wild Petunia Way"/><tag k="addr:housenumber" v="908"/></node><node id="-15" lat="30.44004" lon="-97.605323" changeset="false"><tag k="addr:street" v="Sunflower Drive"/><tag k="addr:housenumber" v="800"/></node><node id="-16" lat="30.433844" lon="-97.60574" changeset="false"><tag k="addr:street" v="Mexican Heather Court"/><tag k="addr:housenumber" v="1512"/></node><node id="-17" lat="30.443802" lon="-97.607577" changeset="false"><tag k="addr:street" v="Old Austin Hutto Road"/><tag k="addr:housenumber" v="1004"/></node><node id="-18" lat="30.441135" lon="-97.607688" changeset="false"><tag k="addr:street" v="Honeysuckle Lane"/><tag k="addr:housenumber" v="800"/></node><node id="-19" lat="30.440028" lon="-97.603923" changeset="false"><tag k="addr:street" v="Dahlia Court"/><tag k="addr:housenumber" v="1503"/></node><node id="-20" lat="30.444306" lon="-97.607324" changeset="false"><tag k="addr:street" v="Old Austin Hutto Road"/><tag k="addr:housenumber" v="1006"/></node><node id="-21" lat="30.433591" lon="-97.604809" changeset="false"><tag k="addr:street" v="Plumbago Drive"/><tag k="addr:housenumber" v="111"/></node><node id="-22" lat="30.43594" lon="-97.605418" changeset="false"><tag k="addr:street" v="Cosmos Way"/><tag k="addr:housenumber" v="1505"/></node><node id="-23" lat="30.450167" lon="-97.604124" changeset="false"><tag k="addr:street" v="Pfennig Lane"/><tag k="addr:housenumber" v="1825"/></node><node id="-24" lat="30.440407" lon="-97.603926" changeset="false"><tag k="addr:street" v="Dahlia Court"/><tag k="addr:housenumber" v="1502"/></node><node id="-25" lat="30.441121" lon="-97.60478" changeset="false"><tag k="addr:street" v="Sunflower Drive"/><tag k="addr:housenumber" v="812"/></node><node id="-26" lat="30.44128" lon="-97.606447" changeset="false"><tag k="addr:street" v="Mustang Grape Court"/><tag k="addr:housenumber" v="1201"/></node><node id="-27" lat="30.443393" lon="-97.60779" changeset="false"><tag k="addr:street" v="Old Austin Hutto Road"/><tag k="addr:housenumber" v="1000"/></node><node id="-28" lat="30.454046" lon="-97.599873" changeset="false"><tag k="addr:street" v="East Pflugerville Parkway"/><tag k="addr:housenumber" v="2005"/></node><node id="-29" lat="30.440193" lon="-97.604184" changeset="false"><tag k="addr:street" v="Dahlia Court"/><tag k="addr:housenumber" v="1501"/></node><node id="-30" lat="30.442895" lon="-97.607019" changeset="false"><tag k="addr:street" v="Old Austin Hutto Road"/><tag k="addr:housenumber" v="901"/></node><node id="-31" lat="30.432708" lon="-97.605267" changeset="false"><tag k="addr:street" v="Plumbago Drive"/><tag k="addr:housenumber" v="101"/></node><node id="-32" lat="30.440171" lon="-97.609168" changeset="false"><tag k="addr:street" v="Old Austin Hutto Road"/><tag k="addr:housenumber" v="504"/></node><node id="-33" lat="30.439411" lon="-97.60442" changeset="false"><tag k="addr:street" v="Santolina Court"/><tag k="addr:housenumber" v="1501"/></node><node id="-34" lat="30.442432" lon="-97.60276" changeset="false"><tag k="addr:street" v="Sweet William Lane"/><tag k="addr:housenumber" v="1408"/></node><node id="-35" lat="30.441812" lon="-97.60555" changeset="false"><tag k="addr:street" v="Wild Petunia Way"/><tag k="addr:housenumber" v="902"/></node><node id="-36" lat="30.441989" lon="-97.605487" changeset="false"><tag k="addr:street" v="Wild Petunia Way"/><tag k="addr:housenumber" v="904"/></node></osm>