<?xml version="1.0" encoding="UTF-8"?><osm version="0.6" generator="github.com/aaronlidman/osm-and-geojson"><node id="-1" lat="30.304264" lon="-97.741429" changeset="false"><tag k="addr:street" v="West 38th Street"/><tag k="addr:housenumber" v="727"/><tag k="addr:postcode" v="78705"/></node><node id="-2" lat="30.301205" lon="-97.741114" changeset="false"><tag k="addr:street" v="West 34th Street"/><tag k="addr:housenumber" v="642"/><tag k="addr:postcode" v="78705"/></node><node id="-3" lat="30.301171" lon="-97.741045" changeset="false"><tag k="addr:street" v="West 34th Street"/><tag k="addr:housenumber" v="640"/><tag k="addr:postcode" v="78705"/></node><node id="-4" lat="30.297061" lon="-97.743427" changeset="false"><tag k="addr:street" v="Rio Grande Street"/><tag k="addr:housenumber" v="2916"/><tag k="addr:postcode" v="78705"/></node><node id="-5" lat="30.298559" lon="-97.742956" changeset="false"><tag k="addr:street" v="Washington Square"/><tag k="addr:housenumber" v="3015"/><tag k="addr:postcode" v="78705"/></node><node id="-6" lat="30.297084" lon="-97.74598" changeset="false"><tag k="addr:street" v="West 29th Street"/><tag k="addr:housenumber" v="812"/><tag k="addr:postcode" v="78705"/></node><node id="-7" lat="30.300784" lon="-97.741726" changeset="false"><tag k="addr:street" v="King Street"/><tag k="addr:housenumber" v="3300"/><tag k="addr:postcode" v="78705"/></node><node id="-8" lat="30.300632" lon="-97.741163" changeset="false"><tag k="addr:street" v="West 33rd Street"/><tag k="addr:housenumber" v="614"/><tag k="addr:postcode" v="78705"/></node><node id="-9" lat="30.300685" lon="-97.741282" changeset="false"><tag k="addr:street" v="West 33rd Street"/><tag k="addr:housenumber" v="616"/><tag k="addr:postcode" v="78705"/></node><node id="-10" lat="30.303081" lon="-97.743941" changeset="false"><tag k="addr:street" v="Owen Avenue"/><tag k="addr:housenumber" v="3410"/><tag k="addr:postcode" v="78705"/></node><node id="-11" lat="30.301816" lon="-97.744232" changeset="false"><tag k="addr:street" v="Grandview Street"/><tag k="addr:housenumber" v="3208"/><tag k="addr:postcode" v="78705"/></node><node id="-12" lat="30.300073" lon="-97.73998" changeset="false"><tag k="addr:street" v="Guadalupe Street"/><tag k="addr:housenumber" v="3308"/><tag k="addr:postcode" v="78705"/></node><node id="-13" lat="30.297486" lon="-97.744397" changeset="false"><tag k="addr:street" v="West Avenue"/><tag k="addr:housenumber" v="2919"/><tag k="addr:postcode" v="78705"/></node><node id="-14" lat="30.30227" lon="-97.742108" changeset="false"><tag k="addr:street" v="West 35th Street"/><tag k="addr:housenumber" v="717"/><tag k="addr:postcode" v="78705"/></node><node id="-15" lat="30.29897" lon="-97.742518" changeset="false"><tag k="addr:street" v="King Street"/><tag k="addr:housenumber" v="3105"/><tag k="addr:postcode" v="78705"/></node><node id="-16" lat="30.303084" lon="-97.743904" changeset="false"><tag k="addr:street" v="Owen Avenue"/><tag k="addr:housenumber" v="3408"/><tag k="addr:postcode" v="78705"/></node><node id="-17" lat="30.302849" lon="-97.742338" changeset="false"><tag k="addr:street" v="West Avenue"/><tag k="addr:housenumber" v="3517"/><tag k="addr:postcode" v="78705"/></node><node id="-18" lat="30.297323" lon="-97.744878" changeset="false"><tag k="addr:street" v="West Avenue"/><tag k="addr:housenumber" v="2912"/><tag k="addr:postcode" v="78705"/></node><node id="-19" lat="30.303405" lon="-97.744007" changeset="false"><tag k="addr:street" v="North Lamar Boulevard"/><tag k="addr:housenumber" v="3423"/><tag k="addr:postcode" v="78705"/></node><node id="-20" lat="30.301062" lon="-97.74423" changeset="false"><tag k="addr:street" v="Grandview Street"/><tag k="addr:housenumber" v="3207"/><tag k="addr:postcode" v="78705"/></node><node id="-21" lat="30.301573" lon="-97.739061" changeset="false"><tag k="addr:street" v="Guadalupe Street"/><tag k="addr:housenumber" v="3508"/><tag k="addr:postcode" v="78705"/></node><node id="-22" lat="30.301043" lon="-97.744242" changeset="false"><tag k="addr:street" v="Grandview Street"/><tag k="addr:housenumber" v="3205"/><tag k="addr:postcode" v="78705"/></node><node id="-23" lat="30.297121" lon="-97.745012" changeset="false"><tag k="addr:street" v="West Avenue"/><tag k="addr:housenumber" v="2908"/><tag k="addr:postcode" v="78705"/></node><node id="-24" lat="30.299878" lon="-97.746015" changeset="false"><tag k="addr:street" v="North Lamar Boulevard"/><tag k="addr:housenumber" v="3027"/><tag k="addr:postcode" v="78705"/></node><node id="-25" lat="30.302356" lon="-97.742855" changeset="false"><tag k="addr:street" v="West Avenue"/><tag k="addr:housenumber" v="3406"/><tag k="addr:postcode" v="78705"/></node><node id="-26" lat="30.298067" lon="-97.747382" changeset="false"><tag k="addr:street" v="San Gabriel Street"/><tag k="addr:housenumber" v="2907"/><tag k="addr:postcode" v="78705"/></node><node id="-27" lat="30.298652" lon="-97.742718" changeset="false"><tag k="addr:street" v="King Street"/><tag k="addr:housenumber" v="3101"/><tag k="addr:postcode" v="78705"/></node><node id="-28" lat="30.29654" lon="-97.742288" changeset="false"><tag k="addr:street" v="Guadalupe Street"/><tag k="addr:housenumber" v="2932"/><tag k="addr:postcode" v="78705"/></node><node id="-29" lat="30.296447" lon="-97.743869" changeset="false"><tag k="addr:street" v="Rio Grande Street"/><tag k="addr:housenumber" v="2904"/><tag k="addr:postcode" v="78705"/></node><node id="-30" lat="30.300883" lon="-97.742244" changeset="false"><tag k="addr:street" v="Kings Lane"/><tag k="addr:housenumber" v="3301"/><tag k="addr:postcode" v="78705"/></node><node id="-31" lat="30.302345" lon="-97.742862" changeset="false"><tag k="addr:street" v="West Avenue"/><tag k="addr:housenumber" v="3404"/><tag k="addr:postcode" v="78705"/></node><node id="-32" lat="30.302318" lon="-97.743668" changeset="false"><tag k="addr:street" v="West 34th Street"/><tag k="addr:housenumber" v="806"/><tag k="addr:postcode" v="78705"/></node><node id="-33" lat="30.301572" lon="-97.742711" changeset="false"><tag k="addr:street" v="West 34th Street"/><tag k="addr:housenumber" v="725"/><tag k="addr:postcode" v="78705"/></node><node id="-34" lat="30.299543" lon="-97.740895" changeset="false"><tag k="addr:street" v="West 32nd Street"/><tag k="addr:housenumber" v="606"/><tag k="addr:postcode" v="78705"/></node><node id="-35" lat="30.298454" lon="-97.743051" changeset="false"><tag k="addr:street" v="Washington Square"/><tag k="addr:housenumber" v="3013"/><tag k="addr:postcode" v="78705"/></node><node id="-36" lat="30.299736" lon="-97.740484" changeset="false"><tag k="addr:street" v="Guadalupe Street"/><tag k="addr:housenumber" v="3204"/><tag k="addr:postcode" v="78705"/></node><node id="-37" lat="30.302241" lon="-97.744068" changeset="false"><tag k="addr:street" v="West 34th Street"/><tag k="addr:housenumber" v="905"/><tag k="addr:postcode" v="78705"/></node><node id="-38" lat="30.297137" lon="-97.742649" changeset="false"><tag k="addr:street" v="West 30th Street"/><tag k="addr:housenumber" v="610"/><tag k="addr:postcode" v="78705"/></node><node id="-39" lat="30.300689" lon="-97.743495" changeset="false"><tag k="addr:street" v="West Avenue"/><tag k="addr:housenumber" v="3206"/><tag k="addr:postcode" v="78705"/></node><node id="-40" lat="30.301083" lon="-97.741496" changeset="false"><tag k="addr:street" v="West 34th Street"/><tag k="addr:housenumber" v="701"/><tag k="addr:postcode" v="78705"/></node><node id="-41" lat="30.304438" lon="-97.743193" changeset="false"><tag k="addr:street" v="North Lamar Boulevard"/><tag k="addr:housenumber" v="3701"/><tag k="addr:postcode" v="78705"/></node><node id="-42" lat="30.300732" lon="-97.741417" changeset="false"><tag k="addr:street" v="West 33rd Street"/><tag k="addr:housenumber" v="618"/><tag k="addr:postcode" v="78705"/></node><node id="-43" lat="30.301939" lon="-97.742782" changeset="false"><tag k="addr:street" v="West Avenue"/><tag k="addr:housenumber" v="3405"/><tag k="addr:postcode" v="78705"/></node><node id="-44" lat="30.300234" lon="-97.740264" changeset="false"><tag k="addr:street" v="West 33rd Street"/><tag k="addr:housenumber" v="606"/><tag k="addr:postcode" v="78705"/></node><node id="-45" lat="30.297683" lon="-97.743946" changeset="false"><tag k="addr:street" v="Washington Square"/><tag k="addr:housenumber" v="3000"/><tag k="addr:postcode" v="78705"/></node><node id="-46" lat="30.295749" lon="-97.743151" changeset="false"><tag k="addr:street" v="West 29th Street"/><tag k="addr:housenumber" v="604"/><tag k="addr:postcode" v="78705"/></node><node id="-47" lat="30.301282" lon="-97.74193" changeset="false"><tag k="addr:street" v="Kings Lane"/><tag k="addr:housenumber" v="3313"/><tag k="addr:postcode" v="78705"/></node><node id="-48" lat="30.303014" lon="-97.739166" changeset="false"><tag k="addr:street" v="West 38th Street"/><tag k="addr:housenumber" v="625 1/2"/><tag k="addr:postcode" v="78705"/></node><node id="-49" lat="30.298556" lon="-97.742834" changeset="false"><tag k="addr:street" v="West 31st Street"/><tag k="addr:housenumber" v="635"/><tag k="addr:postcode" v="78705"/></node><node id="-50" lat="30.301136" lon="-97.739577" changeset="false"><tag k="addr:street" v="Guadalupe Street"/><tag k="addr:housenumber" v="3406"/><tag k="addr:postcode" v="78705"/></node><node id="-51" lat="30.299151" lon="-97.74057" changeset="false"><tag k="addr:street" v="Guadalupe Street"/><tag k="addr:housenumber" v="3128"/><tag k="addr:postcode" v="78705"/></node><node id="-52" lat="30.298673" lon="-97.741004" changeset="false"><tag k="addr:street" v="Guadalupe Street"/><tag k="addr:housenumber" v="3114"/><tag k="addr:postcode" v="78705"/></node><node id="-53" lat="30.299193" lon="-97.740542" changeset="false"><tag k="addr:street" v="Guadalupe Street"/><tag k="addr:housenumber" v="3200"/><tag k="addr:postcode" v="78705"/></node><node id="-54" lat="30.303999" lon="-97.743563" changeset="false"><tag k="addr:street" v="North Lamar Boulevard"/><tag k="addr:housenumber" v="3515"/><tag k="addr:postcode" v="78705"/></node><node id="-55" lat="30.300914" lon="-97.741054" changeset="false"><tag k="addr:street" v="West 34th Street"/><tag k="addr:housenumber" v="635"/><tag k="addr:postcode" v="78705"/></node><node id="-56" lat="30.302974" lon="-97.739639" changeset="false"><tag k="addr:street" v="Ronson Street"/><tag k="addr:housenumber" v="3708"/><tag k="addr:postcode" v="78705"/></node><node id="-57" lat="30.299292" lon="-97.741178" changeset="false"><tag k="addr:street" v="West 32nd Street"/><tag k="addr:housenumber" v="611"/><tag k="addr:postcode" v="78705"/></node><node id="-58" lat="30.300287" lon="-97.746025" changeset="false"><tag k="addr:street" v="North Lamar Boulevard"/><tag k="addr:housenumber" v="3103"/><tag k="addr:postcode" v="78705"/></node><node id="-59" lat="30.300593" lon="-97.741072" changeset="false"><tag k="addr:street" v="West 33rd Street"/><tag k="addr:housenumber" v="612"/><tag k="addr:postcode" v="78705"/></node><node id="-60" lat="30.301218" lon="-97.742799" changeset="false"><tag k="addr:street" v="West Avenue"/><tag k="addr:housenumber" v="3301"/><tag k="addr:postcode" v="78705"/></node><node id="-61" lat="30.302956" lon="-97.739166" changeset="false"><tag k="addr:street" v="West 38th Street"/><tag k="addr:housenumber" v="623 1/2"/><tag k="addr:postcode" v="78705"/></node><node id="-62" lat="30.302294" lon="-97.744171" changeset="false"><tag k="addr:street" v="West 34th Street"/><tag k="addr:housenumber" v="907"/><tag k="addr:postcode" v="78705"/></node><node id="-63" lat="30.296851" lon="-97.742826" changeset="false"><tag k="addr:street" v="West 30th Street"/><tag k="addr:housenumber" v="609"/><tag k="addr:postcode" v="78705"/></node><node id="-64" lat="30.302587" lon="-97.74214" changeset="false"><tag k="addr:street" v="West 35th Street"/><tag k="addr:housenumber" v="718"/><tag k="addr:postcode" v="78705"/></node><node id="-65" lat="30.303117" lon="-97.741912" changeset="false"><tag k="addr:street" v="West Avenue"/><tag k="addr:housenumber" v="3513"/><tag k="addr:postcode" v="78705"/></node><node id="-66" lat="30.30053" lon="-97.740928" changeset="false"><tag k="addr:street" v="West 33rd Street"/><tag k="addr:housenumber" v="610"/><tag k="addr:postcode" v="78705"/></node><node id="-67" lat="30.300571" lon="-97.745167" changeset="false"><tag k="addr:street" v="Owen Avenue"/><tag k="addr:housenumber" v="3111"/><tag k="addr:postcode" v="78705"/></node><node id="-68" lat="30.304025" lon="-97.741784" changeset="false"><tag k="addr:street" v="West Avenue"/><tag k="addr:housenumber" v="3706"/><tag k="addr:postcode" v="78705"/></node><node id="-69" lat="30.303011" lon="-97.74225" changeset="false"><tag k="addr:street" v="West Avenue"/><tag k="addr:housenumber" v="3521"/><tag k="addr:postcode" v="78705"/></node><node id="-70" lat="30.301124" lon="-97.740688" changeset="false"><tag k="addr:street" v="West 34th Street"/><tag k="addr:housenumber" v="626"/><tag k="addr:postcode" v="78705"/></node><node id="-71" lat="30.300854" lon="-97.740925" changeset="false"><tag k="addr:street" v="West 34th Street"/><tag k="addr:housenumber" v="627"/><tag k="addr:postcode" v="78705"/></node><node id="-72" lat="30.304608" lon="-97.743066" changeset="false"><tag k="addr:street" v="West 38th Street"/><tag k="addr:housenumber" v="911"/><tag k="addr:postcode" v="78705"/></node><node id="-73" lat="30.301993" lon="-97.74398" changeset="false"><tag k="addr:street" v="West 34th Street"/><tag k="addr:housenumber" v="901"/><tag k="addr:postcode" v="78705"/></node><node id="-74" lat="30.298263" lon="-97.743844" changeset="false"><tag k="addr:street" v="Washington Square"/><tag k="addr:housenumber" v="3006"/><tag k="addr:postcode" v="78705"/></node><node id="-75" lat="30.301835" lon="-97.74246" changeset="false"><tag k="addr:street" v="West 34th Street"/><tag k="addr:housenumber" v="720"/><tag k="addr:postcode" v="78705"/></node><node id="-76" lat="30.297621" lon="-97.746906" changeset="false"><tag k="addr:street" v="West 29th Street"/><tag k="addr:housenumber" v="908"/><tag k="addr:postcode" v="78705"/></node><node id="-77" lat="30.303222" lon="-97.74385" changeset="false"><tag k="addr:street" v="Owen Avenue"/><tag k="addr:housenumber" v="3412"/><tag k="addr:postcode" v="78705"/></node><node id="-78" lat="30.3011" lon="-97.741108" changeset="false"><tag k="addr:street" v="King Street"/><tag k="addr:housenumber" v="3401"/><tag k="addr:postcode" v="78705"/></node><node id="-79" lat="30.297222" lon="-97.744945" changeset="false"><tag k="addr:street" v="West Avenue"/><tag k="addr:housenumber" v="2910"/><tag k="addr:postcode" v="78705"/></node><node id="-80" lat="30.297043" lon="-97.745887" changeset="false"><tag k="addr:street" v="West 29th Street"/><tag k="addr:housenumber" v="810"/><tag k="addr:postcode" v="78705"/></node><node id="-81" lat="30.300662" lon="-97.744778" changeset="false"><tag k="addr:street" v="Grandview Street"/><tag k="addr:housenumber" v="3112"/><tag k="addr:postcode" v="78705"/></node><node id="-82" lat="30.300885" lon="-97.740992" changeset="false"><tag k="addr:street" v="West 34th Street"/><tag k="addr:housenumber" v="631"/><tag k="addr:postcode" v="78705"/></node><node id="-83" lat="30.303186" lon="-97.742352" changeset="false"><tag k="addr:street" v="West Avenue"/><tag k="addr:housenumber" v="3602"/><tag k="addr:postcode" v="78705"/></node><node id="-84" lat="30.301248" lon="-97.744557" changeset="false"><tag k="addr:street" v="Grandview Street"/><tag k="addr:housenumber" v="3200"/><tag k="addr:postcode" v="78705"/></node><node id="-85" lat="30.302292" lon="-97.743613" changeset="false"><tag k="addr:street" v="West 34th Street"/><tag k="addr:housenumber" v="804"/><tag k="addr:postcode" v="78705"/></node><node id="-86" lat="30.300301" lon="-97.741748" changeset="false"><tag k="addr:street" v="King Street"/><tag k="addr:housenumber" v="3209"/><tag k="addr:postcode" v="78705"/></node><node id="-87" lat="30.299967" lon="-97.740041" changeset="false"><tag k="addr:street" v="Guadalupe Street"/><tag k="addr:housenumber" v="3304"/><tag k="addr:postcode" v="78705"/></node><node id="-88" lat="30.301193" lon="-97.740865" changeset="false"><tag k="addr:street" v="West 34th Street"/><tag k="addr:housenumber" v="630"/><tag k="addr:postcode" v="78705"/></node><node id="-89" lat="30.299771" lon="-97.746071" changeset="false"><tag k="addr:street" v="North Lamar Boulevard"/><tag k="addr:housenumber" v="3011"/><tag k="addr:postcode" v="78705"/></node><node id="-90" lat="30.298554" lon="-97.741096" changeset="false"><tag k="addr:street" v="Guadalupe Street"/><tag k="addr:housenumber" v="3110"/><tag k="addr:postcode" v="78705"/></node><node id="-91" lat="30.297008" lon="-97.743492" changeset="false"><tag k="addr:street" v="Rio Grande Street"/><tag k="addr:housenumber" v="2914"/><tag k="addr:postcode" v="78705"/></node><node id="-92" lat="30.296987" lon="-97.744644" changeset="false"><tag k="addr:street" v="West Avenue"/><tag k="addr:housenumber" v="2907"/><tag k="addr:postcode" v="78705"/></node><node id="-93" lat="30.297264" lon="-97.745024" changeset="false"><tag k="addr:street" v="West Avenue"/><tag k="addr:housenumber" v="2906"/><tag k="addr:postcode" v="78705"/></node><node id="-94" lat="30.30288" lon="-97.739693" changeset="false"><tag k="addr:street" v="Ronson Street"/><tag k="addr:housenumber" v="3706"/><tag k="addr:postcode" v="78705"/></node><node id="-95" lat="30.302918" lon="-97.739811" changeset="false"><tag k="addr:street" v="West 38th Street"/><tag k="addr:housenumber" v="631"/><tag k="addr:postcode" v="78705"/></node><node id="-96" lat="30.302482" lon="-97.740273" changeset="false"><tag k="addr:street" v="West 37th Street"/><tag k="addr:housenumber" v="621"/><tag k="addr:postcode" v="78705"/></node><node id="-97" lat="30.302542" lon="-97.740262" changeset="false"><tag k="addr:street" v="West 37th Street"/><tag k="addr:housenumber" v="619"/><tag k="addr:postcode" v="78705"/></node><node id="-98" lat="30.30186" lon="-97.739051" changeset="false"><tag k="addr:street" v="Guadalupe Street"/><tag k="addr:housenumber" v="3510"/><tag k="addr:postcode" v="78705"/></node><node id="-99" lat="30.301884" lon="-97.739027" changeset="false"><tag k="addr:street" v="Guadalupe Street"/><tag k="addr:housenumber" v="3512"/><tag k="addr:postcode" v="78705"/></node><node id="-100" lat="30.303595" lon="-97.742564" changeset="false"><tag k="addr:street" v="West 37th Street"/><tag k="addr:housenumber" v="805 1/2"/><tag k="addr:postcode" v="78705"/></node><node id="-101" lat="30.303621" lon="-97.742596" changeset="false"><tag k="addr:street" v="West 37th Street"/><tag k="addr:housenumber" v="805"/><tag k="addr:postcode" v="78705"/></node><node id="-102" lat="30.30145" lon="-97.74449" changeset="false"><tag k="addr:street" v="Grandview Street"/><tag k="addr:housenumber" v="3204"/><tag k="addr:postcode" v="78705"/></node><node id="-103" lat="30.301604" lon="-97.744352" changeset="false"><tag k="addr:street" v="Grandview Street"/><tag k="addr:housenumber" v="3206"/><tag k="addr:postcode" v="78705"/></node><node id="-104" lat="30.302269" lon="-97.743322" changeset="false"><tag k="addr:street" v="West 34th Street"/><tag k="addr:housenumber" v="800"/><tag k="addr:postcode" v="78705"/></node><node id="-105" lat="30.301736" lon="-97.743527" changeset="false"><tag k="addr:street" v="West 34th Street"/><tag k="addr:housenumber" v="801"/><tag k="addr:postcode" v="78705"/></node><node id="-106" lat="30.303063" lon="-97.744198" changeset="false"><tag k="addr:street" v="North Lamar Boulevard"/><tag k="addr:housenumber" v="3411"/><tag k="addr:postcode" v="78705"/></node><node id="-107" lat="30.303168" lon="-97.744126" changeset="false"><tag k="addr:street" v="North Lamar Boulevard"/><tag k="addr:housenumber" v="3419"/><tag k="addr:postcode" v="78705"/></node><node id="-108" lat="30.301101" lon="-97.744313" changeset="false"><tag k="addr:street" v="West 32nd Street"/><tag k="addr:housenumber" v="816"/><tag k="addr:postcode" v="78705"/></node><node id="-109" lat="30.301126" lon="-97.744238" changeset="false"><tag k="addr:street" v="West 32nd Street"/><tag k="addr:housenumber" v="810"/><tag k="addr:postcode" v="78705"/></node><node id="-110" lat="30.296636" lon="-97.742196" changeset="false"><tag k="addr:street" v="Guadalupe Street"/><tag k="addr:housenumber" v="2938"/><tag k="addr:postcode" v="78705"/></node><node id="-111" lat="30.296676" lon="-97.742246" changeset="false"><tag k="addr:street" v="West 30th Street"/><tag k="addr:housenumber" v="601"/><tag k="addr:postcode" v="78705"/></node><node id="-112" lat="30.297951" lon="-97.741874" changeset="false"><tag k="addr:street" v="West 31st Street"/><tag k="addr:housenumber" v="609"/><tag k="addr:postcode" v="78705"/></node><node id="-113" lat="30.297117" lon="-97.742087" changeset="false"><tag k="addr:street" v="Guadalupe Street"/><tag k="addr:housenumber" v="3004"/><tag k="addr:postcode" v="78705"/></node><node id="-114" lat="30.29764" lon="-97.741714" changeset="false"><tag k="addr:street" v="Guadalupe Street"/><tag k="addr:housenumber" v="3010"/><tag k="addr:postcode" v="78705"/></node><node id="-115" lat="30.297043" lon="-97.741971" changeset="false"><tag k="addr:street" v="Guadalupe Street"/><tag k="addr:housenumber" v="3002"/><tag k="addr:postcode" v="78705"/></node><node id="-116" lat="30.297813" lon="-97.741575" changeset="false"><tag k="addr:street" v="Guadalupe Street"/><tag k="addr:housenumber" v="3016"/><tag k="addr:postcode" v="78705"/></node><node id="-117" lat="30.295637" lon="-97.742913" changeset="false"><tag k="addr:street" v="Guadalupe Street"/><tag k="addr:housenumber" v="2900"/><tag k="addr:postcode" v="78705"/></node><node id="-118" lat="30.295943" lon="-97.742684" changeset="false"><tag k="addr:street" v="Guadalupe Street"/><tag k="addr:housenumber" v="2910"/><tag k="addr:postcode" v="78705"/></node><node id="-119" lat="30.296004" lon="-97.742643" changeset="false"><tag k="addr:street" v="Guadalupe Street"/><tag k="addr:housenumber" v="2912"/><tag k="addr:postcode" v="78705"/></node><node id="-120" lat="30.295955" lon="-97.742808" changeset="false"><tag k="addr:street" v="Guadalupe Street"/><tag k="addr:housenumber" v="2908"/><tag k="addr:postcode" v="78705"/></node><node id="-121" lat="30.295889" lon="-97.742848" changeset="false"><tag k="addr:street" v="Guadalupe Street"/><tag k="addr:housenumber" v="2904"/><tag k="addr:postcode" v="78705"/></node><node id="-122" lat="30.296321" lon="-97.742546" changeset="false"><tag k="addr:street" v="Guadalupe Street"/><tag k="addr:housenumber" v="2924"/><tag k="addr:postcode" v="78705"/></node><node id="-123" lat="30.296355" lon="-97.742523" changeset="false"><tag k="addr:street" v="Guadalupe Street"/><tag k="addr:housenumber" v="2928"/><tag k="addr:postcode" v="78705"/></node><node id="-124" lat="30.296261" lon="-97.742587" changeset="false"><tag k="addr:street" v="Guadalupe Street"/><tag k="addr:housenumber" v="2922"/><tag k="addr:postcode" v="78705"/></node><node id="-125" lat="30.296223" lon="-97.742618" changeset="false"><tag k="addr:street" v="Guadalupe Street"/><tag k="addr:housenumber" v="2918"/><tag k="addr:postcode" v="78705"/></node><node id="-126" lat="30.296866" lon="-97.744094" changeset="false"><tag k="addr:street" v="Salado Street"/><tag k="addr:housenumber" v="2914"/><tag k="addr:postcode" v="78705"/></node><node id="-127" lat="30.296819" lon="-97.744126" changeset="false"><tag k="addr:street" v="Salado Street"/><tag k="addr:housenumber" v="2912"/><tag k="addr:postcode" v="78705"/></node><node id="-128" lat="30.29619" lon="-97.744021" changeset="false"><tag k="addr:street" v="Rio Grande Street"/><tag k="addr:housenumber" v="2900"/><tag k="addr:postcode" v="78705"/></node><node id="-129" lat="30.296191" lon="-97.744094" changeset="false"><tag k="addr:street" v="West 29th Street"/><tag k="addr:housenumber" v="704"/><tag k="addr:postcode" v="78705"/></node><node id="-130" lat="30.296592" lon="-97.744401" changeset="false"><tag k="addr:street" v="Salado Street"/><tag k="addr:housenumber" v="2904"/><tag k="addr:postcode" v="78705"/></node><node id="-131" lat="30.296723" lon="-97.744655" changeset="false"><tag k="addr:street" v="West 29th Street"/><tag k="addr:housenumber" v="718"/><tag k="addr:postcode" v="78705"/></node><node id="-132" lat="30.299507" lon="-97.74632" changeset="false"><tag k="addr:street" v="North Lamar Boulevard"/><tag k="addr:housenumber" v="3007"/><tag k="addr:postcode" v="78705"/></node><node id="-133" lat="30.299648" lon="-97.746223" changeset="false"><tag k="addr:street" v="North Lamar Boulevard"/><tag k="addr:housenumber" v="3009"/><tag k="addr:postcode" v="78705"/></node><node id="-134" lat="30.296994" lon="-97.745157" changeset="false"><tag k="addr:street" v="West Avenue"/><tag k="addr:housenumber" v="2904"/><tag k="addr:postcode" v="78705"/></node><node id="-135" lat="30.296902" lon="-97.745209" changeset="false"><tag k="addr:street" v="West Avenue"/><tag k="addr:housenumber" v="2902"/><tag k="addr:postcode" v="78705"/></node><node id="-136" lat="30.298277" lon="-97.747245" changeset="false"><tag k="addr:street" v="San Gabriel Street"/><tag k="addr:housenumber" v="2911"/><tag k="addr:postcode" v="78705"/></node><node id="-137" lat="30.297769" lon="-97.747189" changeset="false"><tag k="addr:street" v="West 29th Street"/><tag k="addr:housenumber" v="910"/><tag k="addr:postcode" v="78705"/></node><node id="-138" lat="30.298045" lon="-97.747188" changeset="false"><tag k="addr:street" v="San Gabriel Street"/><tag k="addr:housenumber" v="2905"/><tag k="addr:postcode" v="78705"/></node><node id="-139" lat="30.297564" lon="-97.745704" changeset="false"><tag k="addr:street" v="Pearl Street"/><tag k="addr:housenumber" v="2907"/><tag k="addr:postcode" v="78705"/></node><node id="-140" lat="30.297628" lon="-97.745854" changeset="false"><tag k="addr:street" v="Pearl Street"/><tag k="addr:housenumber" v="2911"/><tag k="addr:postcode" v="78705"/></node><node id="-141" lat="30.297189" lon="-97.746131" changeset="false"><tag k="addr:street" v="West 29th Street"/><tag k="addr:housenumber" v="814"/><tag k="addr:postcode" v="78705"/></node><node id="-142" lat="30.297296" lon="-97.745919" changeset="false"><tag k="addr:street" v="West 29th Street"/><tag k="addr:housenumber" v="808"/><tag k="addr:postcode" v="78705"/></node></osm>