<?xml version="1.0" encoding="UTF-8"?><osm version="0.6" generator="github.com/aaronlidman/osm-and-geojson"><node id="-1" lat="30.120482" lon="-97.817275" changeset="false"><tag k="addr:street" v="Turley Drive"/><tag k="addr:housenumber" v="304"/><tag k="addr:postcode" v="78652"/></node><node id="-2" lat="30.119464" lon="-97.818985" changeset="false"><tag k="addr:street" v="Algerita Terrace"/><tag k="addr:housenumber" v="13005"/><tag k="addr:postcode" v="78652"/></node><node id="-3" lat="30.122624" lon="-97.81219" changeset="false"><tag k="addr:street" v="Old San Antonio Road"/><tag k="addr:housenumber" v="12604"/><tag k="addr:postcode" v="78652"/></node><node id="-4" lat="30.118226" lon="-97.824543" changeset="false"><tag k="addr:street" v="Onion Creek Drive"/><tag k="addr:housenumber" v="13206"/><tag k="addr:postcode" v="78652"/></node><node id="-5" lat="30.118053" lon="-97.818907" changeset="false"><tag k="addr:street" v="Algerita Terrace"/><tag k="addr:housenumber" v="13105"/><tag k="addr:postcode" v="78652"/></node><node id="-6" lat="30.120536" lon="-97.823813" changeset="false"><tag k="addr:street" v="Onion Creek Drive"/><tag k="addr:housenumber" v="13102"/><tag k="addr:postcode" v="78652"/></node><node id="-7" lat="30.121161" lon="-97.823663" changeset="false"><tag k="addr:street" v="Onion Creek Drive"/><tag k="addr:housenumber" v="13010"/><tag k="addr:postcode" v="78652"/></node><node id="-8" lat="30.116757" lon="-97.818359" changeset="false"><tag k="addr:street" v="Shawnee Drive"/><tag k="addr:housenumber" v="13106"/><tag k="addr:postcode" v="78652"/></node><node id="-9" lat="30.124426" lon="-97.829366" changeset="false"><tag k="addr:street" v="Sendero Verde Street"/><tag k="addr:housenumber" v="530"/><tag k="addr:postcode" v="78652"/></node><node id="-10" lat="30.119587" lon="-97.812095" changeset="false"><tag k="addr:street" v="Old San Antonio Road"/><tag k="addr:housenumber" v="12800"/><tag k="addr:postcode" v="78652"/></node><node id="-11" lat="30.118862" lon="-97.817509" changeset="false"><tag k="addr:street" v="Shawnee Drive"/><tag k="addr:housenumber" v="13005"/><tag k="addr:postcode" v="78652"/></node><node id="-12" lat="30.116145" lon="-97.822139" changeset="false"><tag k="addr:street" v="Onion Creek Drive"/><tag k="addr:housenumber" v="13408"/><tag k="addr:postcode" v="78652"/></node><node id="-13" lat="30.126561" lon="-97.823813" changeset="false"><tag k="addr:street" v="Arroyo Doble Drive"/><tag k="addr:housenumber" v="12800"/><tag k="addr:postcode" v="78652"/></node><node id="-14" lat="30.118751" lon="-97.821807" changeset="false"><tag k="addr:street" v="Easley Drive"/><tag k="addr:housenumber" v="13107"/><tag k="addr:postcode" v="78652"/></node><node id="-15" lat="30.119707" lon="-97.804631" changeset="false"><tag k="addr:street" v="Interstate 35 Frontage Road"/><tag k="addr:housenumber" v="12500"/><tag k="addr:postcode" v="78652"/></node><node id="-16" lat="30.11619" lon="-97.821663" changeset="false"><tag k="addr:street" v="Onion Creek Drive"/><tag k="addr:housenumber" v="13410"/><tag k="addr:postcode" v="78652"/></node><node id="-17" lat="30.116103" lon="-97.819966" changeset="false"><tag k="addr:street" v="Onion Creek Drive"/><tag k="addr:housenumber" v="13418"/><tag k="addr:postcode" v="78652"/></node><node id="-18" lat="30.122334" lon="-97.823432" changeset="false"><tag k="addr:street" v="Onion Creek Drive"/><tag k="addr:housenumber" v="13002"/><tag k="addr:postcode" v="78652"/></node><node id="-19" lat="30.121976" lon="-97.815031" changeset="false"><tag k="addr:street" v="Field Drive"/><tag k="addr:housenumber" v="500"/><tag k="addr:postcode" v="78652"/></node><node id="-20" lat="30.116108" lon="-97.820741" changeset="false"><tag k="addr:street" v="Onion Creek Drive"/><tag k="addr:housenumber" v="13414"/><tag k="addr:postcode" v="78652"/></node><node id="-21" lat="30.117378" lon="-97.812007" changeset="false"><tag k="addr:street" v="Old San Antonio Road"/><tag k="addr:housenumber" v="12902"/><tag k="addr:postcode" v="78652"/></node><node id="-22" lat="30.108672" lon="-97.818533" changeset="false"><tag k="addr:street" v="Old San Antonio Road"/><tag k="addr:housenumber" v="13400"/><tag k="addr:postcode" v="78652"/></node><node id="-23" lat="30.119975" lon="-97.813015" changeset="false"><tag k="addr:street" v="Turley Drive"/><tag k="addr:housenumber" v="603"/><tag k="addr:postcode" v="78652"/></node><node id="-24" lat="30.117571" lon="-97.816784" changeset="false"><tag k="addr:street" v="Ben Milam Drive"/><tag k="addr:housenumber" v="13008"/><tag k="addr:postcode" v="78652"/></node><node id="-25" lat="30.117923" lon="-97.81462" changeset="false"><tag k="addr:street" v="Vinyard Drive"/><tag k="addr:housenumber" v="13003"/><tag k="addr:postcode" v="78652"/></node><node id="-26" lat="30.117517" lon="-97.81298" changeset="false"><tag k="addr:street" v="Greenmeadow Drive"/><tag k="addr:housenumber" v="603"/><tag k="addr:postcode" v="78652"/></node><node id="-27" lat="30.125634" lon="-97.82349" changeset="false"><tag k="addr:street" v="Arroyo Doble Drive"/><tag k="addr:housenumber" v="12805"/><tag k="addr:postcode" v="78652"/></node><node id="-28" lat="30.124098" lon="-97.825563" changeset="false"><tag k="addr:street" v="Arroyo Doble Drive"/><tag k="addr:housenumber" v="12908"/><tag k="addr:postcode" v="78652"/></node><node id="-29" lat="30.124717" lon="-97.829352" changeset="false"><tag k="addr:street" v="Sendero Verde Street"/><tag k="addr:housenumber" v="532"/><tag k="addr:postcode" v="78652"/></node><node id="-30" lat="30.124729" lon="-97.830774" changeset="false"><tag k="addr:street" v="Viento del Sur Street"/><tag k="addr:housenumber" v="13103"/><tag k="addr:postcode" v="78652"/></node><node id="-31" lat="30.11705" lon="-97.820319" changeset="false"><tag k="addr:street" v="Wild Turkey Drive"/><tag k="addr:housenumber" v="13205"/><tag k="addr:postcode" v="78652"/></node><node id="-32" lat="30.121949" lon="-97.814104" changeset="false"><tag k="addr:street" v="Mystic Drive"/><tag k="addr:housenumber" v="12704"/><tag k="addr:postcode" v="78652"/></node><node id="-33" lat="30.123741" lon="-97.808176" changeset="false"><tag k="addr:street" v="Altamira Street"/><tag k="addr:housenumber" v="12501"/><tag k="addr:postcode" v="78652"/></node><node id="-34" lat="30.124707" lon="-97.807794" changeset="false"><tag k="addr:street" v="Altamira Street"/><tag k="addr:housenumber" v="12403"/><tag k="addr:postcode" v="78652"/></node><node id="-35" lat="30.124371" lon="-97.808374" changeset="false"><tag k="addr:street" v="Altamira Street"/><tag k="addr:housenumber" v="12408"/><tag k="addr:postcode" v="78652"/></node><node id="-36" lat="30.124846" lon="-97.808306" changeset="false"><tag k="addr:street" v="Altamira Street"/><tag k="addr:housenumber" v="12402"/><tag k="addr:postcode" v="78652"/></node><node id="-37" lat="30.125057" lon="-97.808162" changeset="false"><tag k="addr:street" v="Cardenas Lane"/><tag k="addr:housenumber" v="707"/><tag k="addr:postcode" v="78652"/></node><node id="-38" lat="30.125439" lon="-97.808005" changeset="false"><tag k="addr:street" v="Altamira Street"/><tag k="addr:housenumber" v="12312"/><tag k="addr:postcode" v="78652"/></node><node id="-39" lat="30.126446" lon="-97.807791" changeset="false"><tag k="addr:street" v="Madero Drive"/><tag k="addr:housenumber" v="12301"/><tag k="addr:postcode" v="78652"/></node><node id="-40" lat="30.125578" lon="-97.807327" changeset="false"><tag k="addr:street" v="Altamira Street"/><tag k="addr:housenumber" v="12305"/><tag k="addr:postcode" v="78652"/></node><node id="-41" lat="30.125808" lon="-97.806016" changeset="false"><tag k="addr:street" v="Allende Bend"/><tag k="addr:housenumber" v="810"/><tag k="addr:postcode" v="78652"/></node><node id="-42" lat="30.125559" lon="-97.827193" changeset="false"><tag k="addr:street" v="Bear Canyon Drive"/><tag k="addr:housenumber" v="409"/><tag k="addr:postcode" v="78652"/></node><node id="-43" lat="30.116267" lon="-97.812598" changeset="false"><tag k="addr:street" v="Onion Creek Drive"/><tag k="addr:housenumber" v="13452"/><tag k="addr:postcode" v="78652"/></node><node id="-44" lat="30.122828" lon="-97.830749" changeset="false"><tag k="addr:street" v="Viento del Sur Street"/><tag k="addr:housenumber" v="13205"/><tag k="addr:postcode" v="78652"/></node><node id="-45" lat="30.119224" lon="-97.824207" changeset="false"><tag k="addr:street" v="Onion Creek Drive"/><tag k="addr:housenumber" v="13200"/><tag k="addr:postcode" v="78652"/></node><node id="-46" lat="30.123058" lon="-97.829989" changeset="false"><tag k="addr:street" v="Sendero Verde Street"/><tag k="addr:housenumber" v="523"/><tag k="addr:postcode" v="78652"/></node><node id="-47" lat="30.120392" lon="-97.820115" changeset="false"><tag k="addr:street" v="Turley Drive"/><tag k="addr:housenumber" v="202"/><tag k="addr:postcode" v="78652"/></node><node id="-48" lat="30.117759" lon="-97.81843" changeset="false"><tag k="addr:street" v="Shawnee Drive"/><tag k="addr:housenumber" v="13010"/><tag k="addr:postcode" v="78652"/></node><node id="-49" lat="30.116887" lon="-97.814581" changeset="false"><tag k="addr:street" v="Vinyard Drive"/><tag k="addr:housenumber" v="13009"/><tag k="addr:postcode" v="78652"/></node><node id="-50" lat="30.12206" lon="-97.823495" changeset="false"><tag k="addr:street" v="Onion Creek Drive"/><tag k="addr:housenumber" v="13004"/><tag k="addr:postcode" v="78652"/></node><node id="-51" lat="30.118209" lon="-97.814645" changeset="false"><tag k="addr:street" v="Vinyard Drive"/><tag k="addr:housenumber" v="13001"/><tag k="addr:postcode" v="78652"/></node><node id="-52" lat="30.117867" lon="-97.816099" changeset="false"><tag k="addr:street" v="Ben Milam Drive"/><tag k="addr:housenumber" v="13007"/><tag k="addr:postcode" v="78652"/></node><node id="-53" lat="30.121172" lon="-97.831168" changeset="false"><tag k="addr:street" v="Horsethief Trail"/><tag k="addr:housenumber" v="500"/><tag k="addr:postcode" v="78652"/></node><node id="-54" lat="30.116261" lon="-97.813904" changeset="false"><tag k="addr:street" v="Onion Creek Drive"/><tag k="addr:housenumber" v="13446"/><tag k="addr:postcode" v="78652"/></node><node id="-55" lat="30.121761" lon="-97.829929" changeset="false"><tag k="addr:street" v="Whitetail Drive"/><tag k="addr:housenumber" v="415"/><tag k="addr:postcode" v="78652"/></node><node id="-56" lat="30.107306" lon="-97.810049" changeset="false"><tag k="addr:street" v="Interstate 35 Frontage Road"/><tag k="addr:housenumber" v="13400"/><tag k="addr:postcode" v="78747"/></node><node id="-57" lat="30.120404" lon="-97.820919" changeset="false"><tag k="addr:street" v="Turley Drive"/><tag k="addr:housenumber" v="110"/><tag k="addr:postcode" v="78652"/></node><node id="-58" lat="30.118254" lon="-97.814063" changeset="false"><tag k="addr:street" v="Mystic Drive"/><tag k="addr:housenumber" v="12904"/><tag k="addr:postcode" v="78652"/></node><node id="-59" lat="30.117046" lon="-97.81886" changeset="false"><tag k="addr:street" v="Algerita Terrace"/><tag k="addr:housenumber" v="13201"/><tag k="addr:postcode" v="78652"/></node><node id="-60" lat="30.122727" lon="-97.815955" changeset="false"><tag k="addr:street" v="Encino Drive"/><tag k="addr:housenumber" v="12704"/><tag k="addr:postcode" v="78652"/></node><node id="-61" lat="30.124181" lon="-97.814134" changeset="false"><tag k="addr:street" v="Mystic Drive"/><tag k="addr:housenumber" v="12600"/><tag k="addr:postcode" v="78652"/></node><node id="-62" lat="30.119768" lon="-97.821854" changeset="false"><tag k="addr:street" v="Easley Drive"/><tag k="addr:housenumber" v="13101"/><tag k="addr:postcode" v="78652"/></node><node id="-63" lat="30.11672" lon="-97.820311" changeset="false"><tag k="addr:street" v="Wild Turkey Drive"/><tag k="addr:housenumber" v="13207"/><tag k="addr:postcode" v="78652"/></node><node id="-64" lat="30.123214" lon="-97.807379" changeset="false"><tag k="addr:street" v="Morelia Way"/><tag k="addr:housenumber" v="12503"/><tag k="addr:postcode" v="78652"/></node><node id="-65" lat="30.124527" lon="-97.807807" changeset="false"><tag k="addr:street" v="Altamira Street"/><tag k="addr:housenumber" v="12405"/><tag k="addr:postcode" v="78652"/></node><node id="-66" lat="30.125096" lon="-97.808471" changeset="false"><tag k="addr:street" v="Cardenas Lane"/><tag k="addr:housenumber" v="703"/><tag k="addr:postcode" v="78652"/></node><node id="-67" lat="30.125076" lon="-97.808316" changeset="false"><tag k="addr:street" v="Cardenas Lane"/><tag k="addr:housenumber" v="705"/><tag k="addr:postcode" v="78652"/></node><node id="-68" lat="30.12545" lon="-97.807032" changeset="false"><tag k="addr:street" v="Allende Bend"/><tag k="addr:housenumber" v="903"/><tag k="addr:postcode" v="78652"/></node><node id="-69" lat="30.126218" lon="-97.806575" changeset="false"><tag k="addr:street" v="Allende Bend"/><tag k="addr:housenumber" v="801"/><tag k="addr:postcode" v="78652"/></node><node id="-70" lat="30.123914" lon="-97.830775" changeset="false"><tag k="addr:street" v="Viento del Sur Street"/><tag k="addr:housenumber" v="13109"/><tag k="addr:postcode" v="78652"/></node><node id="-71" lat="30.120008" lon="-97.812681" changeset="false"><tag k="addr:street" v="Turley Drive"/><tag k="addr:housenumber" v="605"/><tag k="addr:postcode" v="78652"/></node><node id="-72" lat="30.118247" lon="-97.812628" changeset="false"><tag k="addr:street" v="Greenmeadow Drive"/><tag k="addr:housenumber" v="700"/><tag k="addr:postcode" v="78652"/></node><node id="-73" lat="30.117083" lon="-97.811968" changeset="false"><tag k="addr:street" v="Old San Antonio Road"/><tag k="addr:housenumber" v="12904"/><tag k="addr:postcode" v="78652"/></node><node id="-74" lat="30.116303" lon="-97.811837" changeset="false"><tag k="addr:street" v="Onion Creek Drive"/><tag k="addr:housenumber" v="13456"/><tag k="addr:postcode" v="78652"/></node><node id="-75" lat="30.123361" lon="-97.830751" changeset="false"><tag k="addr:street" v="Viento del Sur Street"/><tag k="addr:housenumber" v="13201"/><tag k="addr:postcode" v="78652"/></node><node id="-76" lat="30.118896" lon="-97.814701" changeset="false"><tag k="addr:street" v="Vinyard Drive"/><tag k="addr:housenumber" v="12907"/><tag k="addr:postcode" v="78652"/></node><node id="-77" lat="30.120369" lon="-97.821769" changeset="false"><tag k="addr:street" v="Turley Drive"/><tag k="addr:housenumber" v="106"/><tag k="addr:postcode" v="78652"/></node><node id="-78" lat="30.120079" lon="-97.815104" changeset="false"><tag k="addr:street" v="Vinyard Drive"/><tag k="addr:housenumber" v="12901"/><tag k="addr:postcode" v="78652"/></node><node id="-79" lat="30.121099" lon="-97.815394" changeset="false"><tag k="addr:street" v="Field Drive"/><tag k="addr:housenumber" v="405"/><tag k="addr:postcode" v="78652"/></node><node id="-80" lat="30.121197" lon="-97.830031" changeset="false"><tag k="addr:street" v="Horsethief Trail"/><tag k="addr:housenumber" v="404"/><tag k="addr:postcode" v="78652"/></node><node id="-81" lat="30.120539" lon="-97.816551" changeset="false"><tag k="addr:street" v="Turley Drive"/><tag k="addr:housenumber" v="400"/><tag k="addr:postcode" v="78652"/></node><node id="-82" lat="30.122775" lon="-97.831556" changeset="false"><tag k="addr:street" v="Viento del Sur Street"/><tag k="addr:housenumber" v="13204"/><tag k="addr:postcode" v="78652"/></node><node id="-83" lat="30.11807" lon="-97.81832" changeset="false"><tag k="addr:street" v="Shawnee Drive"/><tag k="addr:housenumber" v="13008"/><tag k="addr:postcode" v="78652"/></node><node id="-84" lat="30.11786" lon="-97.821162" changeset="false"><tag k="addr:street" v="Wild Turkey Drive"/><tag k="addr:housenumber" v="13200"/><tag k="addr:postcode" v="78652"/></node><node id="-85" lat="30.117821" lon="-97.808143" changeset="false"><tag k="addr:street" v="Interstate 35 Frontage Road"/><tag k="addr:housenumber" v="12814"/><tag k="addr:postcode" v="78652"/></node><node id="-86" lat="30.123374" lon="-97.826049" changeset="false"><tag k="addr:street" v="Arroyo Doble Drive"/><tag k="addr:housenumber" v="13002"/><tag k="addr:postcode" v="78652"/></node><node id="-87" lat="30.121463" lon="-97.823644" changeset="false"><tag k="addr:street" v="Onion Creek Drive"/><tag k="addr:housenumber" v="13008"/><tag k="addr:postcode" v="78652"/></node><node id="-88" lat="30.121715" lon="-97.827571" changeset="false"><tag k="addr:street" v="Whitetail Drive"/><tag k="addr:housenumber" v="307"/><tag k="addr:postcode" v="78652"/></node><node id="-89" lat="30.117726" lon="-97.818883" changeset="false"><tag k="addr:street" v="Algerita Terrace"/><tag k="addr:housenumber" v="13107"/><tag k="addr:postcode" v="78652"/></node><node id="-90" lat="30.117127" lon="-97.816046" changeset="false"><tag k="addr:street" v="Ben Milam Drive"/><tag k="addr:housenumber" v="13101"/><tag k="addr:postcode" v="78652"/></node><node id="-91" lat="30.116218" lon="-97.814303" changeset="false"><tag k="addr:street" v="Onion Creek Drive"/><tag k="addr:housenumber" v="13444"/><tag k="addr:postcode" v="78652"/></node><node id="-92" lat="30.116166" lon="-97.81678" changeset="false"><tag k="addr:street" v="Onion Creek Drive"/><tag k="addr:housenumber" v="13432"/><tag k="addr:postcode" v="78652"/></node><node id="-93" lat="30.121152" lon="-97.814795" changeset="false"><tag k="addr:street" v="Field Drive"/><tag k="addr:housenumber" v="501"/><tag k="addr:postcode" v="78652"/></node><node id="-94" lat="30.12122" lon="-97.828157" changeset="false"><tag k="addr:street" v="Horsethief Trail"/><tag k="addr:housenumber" v="310"/><tag k="addr:postcode" v="78652"/></node><node id="-95" lat="30.121207" lon="-97.828449" changeset="false"><tag k="addr:street" v="Horsethief Trail"/><tag k="addr:housenumber" v="312"/><tag k="addr:postcode" v="78652"/></node><node id="-96" lat="30.118904" lon="-97.814081" changeset="false"><tag k="addr:street" v="Mystic Drive"/><tag k="addr:housenumber" v="12900"/><tag k="addr:postcode" v="78652"/></node><node id="-97" lat="30.108725" lon="-97.813725" changeset="false"><tag k="addr:street" v="Old San Antonio Road"/><tag k="addr:housenumber" v="13338"/><tag k="addr:postcode" v="78652"/></node><node id="-98" lat="30.12466" lon="-97.811859" changeset="false"><tag k="addr:street" v="Old San Antonio Road"/><tag k="addr:housenumber" v="12502"/><tag k="addr:postcode" v="78652"/></node><node id="-99" lat="30.125246" lon="-97.8308" changeset="false"><tag k="addr:street" v="Viento del Sur Street"/><tag k="addr:housenumber" v="13003"/><tag k="addr:postcode" v="78652"/></node><node id="-100" lat="30.124676" lon="-97.831602" changeset="false"><tag k="addr:street" v="Viento del Sur Street"/><tag k="addr:housenumber" v="13102"/><tag k="addr:postcode" v="78652"/></node><node id="-101" lat="30.119224" lon="-97.814709" changeset="false"><tag k="addr:street" v="Vinyard Drive"/><tag k="addr:housenumber" v="12905"/><tag k="addr:postcode" v="78652"/></node><node id="-102" lat="30.12388" lon="-97.807016" changeset="false"><tag k="addr:street" v="Morelia Way"/><tag k="addr:housenumber" v="12405"/><tag k="addr:postcode" v="78652"/></node><node id="-103" lat="30.123737" lon="-97.807087" changeset="false"><tag k="addr:street" v="Morelia Way"/><tag k="addr:housenumber" v="12407"/><tag k="addr:postcode" v="78652"/></node><node id="-104" lat="30.124841" lon="-97.807536" changeset="false"><tag k="addr:street" v="Cardenas Lane"/><tag k="addr:housenumber" v="805"/><tag k="addr:postcode" v="78652"/></node><node id="-105" lat="30.125353" lon="-97.807491" changeset="false"><tag k="addr:street" v="Altamira Street"/><tag k="addr:housenumber" v="12309"/><tag k="addr:postcode" v="78652"/></node><node id="-106" lat="30.125215" lon="-97.807179" changeset="false"><tag k="addr:street" v="Allende Bend"/><tag k="addr:housenumber" v="907"/><tag k="addr:postcode" v="78652"/></node><node id="-107" lat="30.126078" lon="-97.807977" changeset="false"><tag k="addr:street" v="Madero Drive"/><tag k="addr:housenumber" v="12307"/><tag k="addr:postcode" v="78652"/></node><node id="-108" lat="30.126206" lon="-97.807928" changeset="false"><tag k="addr:street" v="Madero Drive"/><tag k="addr:housenumber" v="12305"/><tag k="addr:postcode" v="78652"/></node><node id="-109" lat="30.126186" lon="-97.807492" changeset="false"><tag k="addr:street" v="Altamira Street"/><tag k="addr:housenumber" v="12300"/><tag k="addr:postcode" v="78652"/></node><node id="-110" lat="30.125651" lon="-97.806524" changeset="false"><tag k="addr:street" v="Allende Bend"/><tag k="addr:housenumber" v="811"/><tag k="addr:postcode" v="78652"/></node><node id="-111" lat="30.125939" lon="-97.806021" changeset="false"><tag k="addr:street" v="Allende Bend"/><tag k="addr:housenumber" v="808"/><tag k="addr:postcode" v="78652"/></node><node id="-112" lat="30.117556" lon="-97.824729" changeset="false"><tag k="addr:street" v="Onion Creek Drive"/><tag k="addr:housenumber" v="13300"/><tag k="addr:postcode" v="78652"/></node><node id="-113" lat="30.1174" lon="-97.818843" changeset="false"><tag k="addr:street" v="Algerita Terrace"/><tag k="addr:housenumber" v="13109"/><tag k="addr:postcode" v="78652"/></node><node id="-114" lat="30.123116" lon="-97.826252" changeset="false"><tag k="addr:street" v="Arroyo Doble Drive"/><tag k="addr:housenumber" v="13004"/><tag k="addr:postcode" v="78652"/></node><node id="-115" lat="30.119106" lon="-97.820412" changeset="false"><tag k="addr:street" v="Wild Turkey Drive"/><tag k="addr:housenumber" v="13105"/><tag k="addr:postcode" v="78652"/></node><node id="-116" lat="30.11617" lon="-97.821183" changeset="false"><tag k="addr:street" v="Onion Creek Drive"/><tag k="addr:housenumber" v="13412"/><tag k="addr:postcode" v="78652"/></node><node id="-117" lat="30.121208" lon="-97.829651" changeset="false"><tag k="addr:street" v="Horsethief Trail"/><tag k="addr:housenumber" v="402"/><tag k="addr:postcode" v="78652"/></node><node id="-118" lat="30.122782" lon="-97.826384" changeset="false"><tag k="addr:street" v="Arroyo Doble Drive"/><tag k="addr:housenumber" v="13006"/><tag k="addr:postcode" v="78652"/></node><node id="-119" lat="30.122086" lon="-97.824621" changeset="false"><tag k="addr:street" v="Stagecoach Way"/><tag k="addr:housenumber" v="13011"/><tag k="addr:postcode" v="78652"/></node><node id="-120" lat="30.121758" lon="-97.829332" changeset="false"><tag k="addr:street" v="Whitetail Drive"/><tag k="addr:housenumber" v="411"/><tag k="addr:postcode" v="78652"/></node><node id="-121" lat="30.119873" lon="-97.812145" changeset="false"><tag k="addr:street" v="Old San Antonio Road"/><tag k="addr:housenumber" v="12706"/><tag k="addr:postcode" v="78652"/></node><node id="-122" lat="30.127827" lon="-97.801503" changeset="false"><tag k="addr:street" v="Interstate 35 Frontage Road"/><tag k="addr:housenumber" v="12000"/><tag k="addr:postcode" v="78652"/></node><node id="-123" lat="30.123015" lon="-97.81223" changeset="false"><tag k="addr:street" v="Old San Antonio Road"/><tag k="addr:housenumber" v="12602"/><tag k="addr:postcode" v="78652"/></node><node id="-124" lat="30.118187" lon="-97.813348" changeset="false"><tag k="addr:street" v="Greenmeadow Drive"/><tag k="addr:housenumber" v="600"/><tag k="addr:postcode" v="78652"/></node><node id="-125" lat="30.118205" lon="-97.817462" changeset="false"><tag k="addr:street" v="Shawnee Drive"/><tag k="addr:housenumber" v="13009"/><tag k="addr:postcode" v="78652"/></node><node id="-126" lat="30.117908" lon="-97.814048" changeset="false"><tag k="addr:street" v="Mystic Drive"/><tag k="addr:housenumber" v="12906"/><tag k="addr:postcode" v="78652"/></node><node id="-127" lat="30.120213" lon="-97.823866" changeset="false"><tag k="addr:street" v="Onion Creek Drive"/><tag k="addr:housenumber" v="13104"/><tag k="addr:postcode" v="78652"/></node><node id="-128" lat="30.123628" lon="-97.831576" changeset="false"><tag k="addr:street" v="Viento del Sur Street"/><tag k="addr:housenumber" v="13110"/><tag k="addr:postcode" v="78652"/></node><node id="-129" lat="30.121729" lon="-97.827888" changeset="false"><tag k="addr:street" v="Whitetail Drive"/><tag k="addr:housenumber" v="401"/><tag k="addr:postcode" v="78652"/></node><node id="-130" lat="30.117555" lon="-97.814081" changeset="false"><tag k="addr:street" v="Mystic Drive"/><tag k="addr:housenumber" v="12908"/><tag k="addr:postcode" v="78652"/></node><node id="-131" lat="30.117194" lon="-97.814589" changeset="false"><tag k="addr:street" v="Vinyard Drive"/><tag k="addr:housenumber" v="13007"/><tag k="addr:postcode" v="78652"/></node><node id="-132" lat="30.122464" lon="-97.828925" changeset="false"><tag k="addr:street" v="Whitetail Drive"/><tag k="addr:housenumber" v="406"/><tag k="addr:postcode" v="78652"/></node><node id="-133" lat="30.119493" lon="-97.812637" changeset="false"><tag k="addr:street" v="Blackwell Avenue"/><tag k="addr:housenumber" v="604"/><tag k="addr:postcode" v="78652"/></node><node id="-134" lat="30.123146" lon="-97.815808" changeset="false"><tag k="addr:street" v="Encino Drive"/><tag k="addr:housenumber" v="12702"/><tag k="addr:postcode" v="78652"/></node><node id="-135" lat="30.12547" lon="-97.831719" changeset="false"><tag k="addr:street" v="Viento del Sur Street"/><tag k="addr:housenumber" v="13004"/><tag k="addr:postcode" v="78652"/></node><node id="-136" lat="30.120386" lon="-97.820488" changeset="false"><tag k="addr:street" v="Turley Drive"/><tag k="addr:housenumber" v="200"/><tag k="addr:postcode" v="78652"/></node><node id="-137" lat="30.120396" lon="-97.822163" changeset="false"><tag k="addr:street" v="Turley Drive"/><tag k="addr:housenumber" v="104"/><tag k="addr:postcode" v="78652"/></node><node id="-138" lat="30.119513" lon="-97.813027" changeset="false"><tag k="addr:street" v="Blackwell Avenue"/><tag k="addr:housenumber" v="602"/><tag k="addr:postcode" v="78652"/></node><node id="-139" lat="30.119257" lon="-97.817532" changeset="false"><tag k="addr:street" v="Shawnee Drive"/><tag k="addr:housenumber" v="13003"/><tag k="addr:postcode" v="78652"/></node><node id="-140" lat="30.11679" lon="-97.821731" changeset="false"><tag k="addr:street" v="Onion Creek Drive"/><tag k="addr:housenumber" v="13411"/><tag k="addr:postcode" v="78652"/></node><node id="-141" lat="30.116728" lon="-97.819624" changeset="false"><tag k="addr:street" v="Algerita Terrace"/><tag k="addr:housenumber" v="13202"/><tag k="addr:postcode" v="78652"/></node><node id="-142" lat="30.116232" lon="-97.817609" changeset="false"><tag k="addr:street" v="Onion Creek Drive"/><tag k="addr:housenumber" v="13428"/><tag k="addr:postcode" v="78652"/></node><node id="-143" lat="30.123998" lon="-97.806809" changeset="false"><tag k="addr:street" v="Morelia Way"/><tag k="addr:housenumber" v="12403"/><tag k="addr:postcode" v="78652"/></node><node id="-144" lat="30.124063" lon="-97.807954" changeset="false"><tag k="addr:street" v="Altamira Street"/><tag k="addr:housenumber" v="12411"/><tag k="addr:postcode" v="78652"/></node><node id="-145" lat="30.12474" lon="-97.808699" changeset="false"><tag k="addr:street" v="Madero Drive"/><tag k="addr:housenumber" v="12405"/><tag k="addr:postcode" v="78652"/></node><node id="-146" lat="30.124581" lon="-97.808723" changeset="false"><tag k="addr:street" v="Madero Drive"/><tag k="addr:housenumber" v="12407"/><tag k="addr:postcode" v="78652"/></node><node id="-147" lat="30.125842" lon="-97.808152" changeset="false"><tag k="addr:street" v="Madero Drive"/><tag k="addr:housenumber" v="12311"/><tag k="addr:postcode" v="78652"/></node><node id="-148" lat="30.125678" lon="-97.807817" changeset="false"><tag k="addr:street" v="Altamira Street"/><tag k="addr:housenumber" v="12308"/><tag k="addr:postcode" v="78652"/></node><node id="-149" lat="30.126102" lon="-97.807625" changeset="false"><tag k="addr:street" v="Altamira Street"/><tag k="addr:housenumber" v="12302"/><tag k="addr:postcode" v="78652"/></node><node id="-150" lat="30.126026" lon="-97.806895" changeset="false"><tag k="addr:street" v="Altamira Street"/><tag k="addr:housenumber" v="12205"/><tag k="addr:postcode" v="78652"/></node><node id="-151" lat="30.125323" lon="-97.807105" changeset="false"><tag k="addr:street" v="Allende Bend"/><tag k="addr:housenumber" v="905"/><tag k="addr:postcode" v="78652"/></node><node id="-152" lat="30.125784" lon="-97.806521" changeset="false"><tag k="addr:street" v="Allende Bend"/><tag k="addr:housenumber" v="809"/><tag k="addr:postcode" v="78652"/></node><node id="-153" lat="30.12636" lon="-97.806116" changeset="false"><tag k="addr:street" v="Allende Bend"/><tag k="addr:housenumber" v="802"/><tag k="addr:postcode" v="78652"/></node><node id="-154" lat="30.131203" lon="-97.811632" changeset="false"><tag k="addr:street" v="Old San Antonio Road"/><tag k="addr:housenumber" v="12110"/><tag k="addr:postcode" v="78652"/></node><node id="-155" lat="30.120859" lon="-97.823775" changeset="false"><tag k="addr:street" v="Onion Creek Drive"/><tag k="addr:housenumber" v="13100"/><tag k="addr:postcode" v="78652"/></node><node id="-156" lat="30.124337" lon="-97.813225" changeset="false"><tag k="addr:street" v="Mystic Drive"/><tag k="addr:housenumber" v="12601"/><tag k="addr:postcode" v="78652"/></node><node id="-157" lat="30.125847" lon="-97.826211" changeset="false"><tag k="addr:street" v="Bear Canyon Drive"/><tag k="addr:housenumber" v="405"/><tag k="addr:postcode" v="78652"/></node><node id="-158" lat="30.125791" lon="-97.826604" changeset="false"><tag k="addr:street" v="Bear Canyon Drive"/><tag k="addr:housenumber" v="407"/><tag k="addr:postcode" v="78652"/></node><node id="-159" lat="30.122418" lon="-97.829629" changeset="false"><tag k="addr:street" v="Whitetail Drive"/><tag k="addr:housenumber" v="410"/><tag k="addr:postcode" v="78652"/></node><node id="-160" lat="30.124948" lon="-97.812495" changeset="false"><tag k="addr:street" v="Twin Creeks Road"/><tag k="addr:housenumber" v="501"/><tag k="addr:postcode" v="78652"/></node><node id="-161" lat="30.118024" lon="-97.823294" changeset="false"><tag k="addr:street" v="Bermuda Drive"/><tag k="addr:housenumber" v="102"/><tag k="addr:postcode" v="78652"/></node><node id="-162" lat="30.116132" lon="-97.818579" changeset="false"><tag k="addr:street" v="Onion Creek Drive"/><tag k="addr:housenumber" v="13424"/><tag k="addr:postcode" v="78652"/></node><node id="-163" lat="30.123632" lon="-97.826699" changeset="false"><tag k="addr:street" v="Running Deer Trail"/><tag k="addr:housenumber" v="13005"/><tag k="addr:postcode" v="78652"/></node><node id="-164" lat="30.123151" lon="-97.814543" changeset="false"><tag k="addr:street" v="Encino Drive"/><tag k="addr:housenumber" v="12603"/><tag k="addr:postcode" v="78652"/></node><node id="-165" lat="30.123317" lon="-97.826848" changeset="false"><tag k="addr:street" v="Running Deer Trail"/><tag k="addr:housenumber" v="13007"/><tag k="addr:postcode" v="78652"/></node><node id="-166" lat="30.121998" lon="-97.816313" changeset="false"><tag k="addr:street" v="Encino Drive"/><tag k="addr:housenumber" v="12708"/><tag k="addr:postcode" v="78652"/></node><node id="-167" lat="30.124177" lon="-97.815053" changeset="false"><tag k="addr:street" v="Encino Drive"/><tag k="addr:housenumber" v="12604"/><tag k="addr:postcode" v="78652"/></node><node id="-168" lat="30.117537" lon="-97.812582" changeset="false"><tag k="addr:street" v="Greenmeadow Drive"/><tag k="addr:housenumber" v="701"/><tag k="addr:postcode" v="78652"/></node><node id="-169" lat="30.119516" lon="-97.824115" changeset="false"><tag k="addr:street" v="Onion Creek Drive"/><tag k="addr:housenumber" v="13108"/><tag k="addr:postcode" v="78652"/></node><node id="-170" lat="30.11888" lon="-97.816106" changeset="false"><tag k="addr:street" v="Ben Milam Drive"/><tag k="addr:housenumber" v="13001"/><tag k="addr:postcode" v="78652"/></node><node id="-171" lat="30.118795" lon="-97.818432" changeset="false"><tag k="addr:street" v="Shawnee Drive"/><tag k="addr:housenumber" v="13004"/><tag k="addr:postcode" v="78652"/></node><node id="-172" lat="30.116587" lon="-97.82498" changeset="false"><tag k="addr:street" v="Onion Creek Drive"/><tag k="addr:housenumber" v="13306"/><tag k="addr:postcode" v="78652"/></node><node id="-173" lat="30.11853" lon="-97.824436" changeset="false"><tag k="addr:street" v="Onion Creek Drive"/><tag k="addr:housenumber" v="13204"/><tag k="addr:postcode" v="78652"/></node><node id="-174" lat="30.116111" lon="-97.820335" changeset="false"><tag k="addr:street" v="Onion Creek Drive"/><tag k="addr:housenumber" v="13416"/><tag k="addr:postcode" v="78652"/></node><node id="-175" lat="30.118336" lon="-97.812018" changeset="false"><tag k="addr:street" v="Old San Antonio Road"/><tag k="addr:housenumber" v="12808"/><tag k="addr:postcode" v="78652"/></node><node id="-176" lat="30.125526" lon="-97.819318" changeset="false"><tag k="addr:street" v="Twin Creeks Road"/><tag k="addr:housenumber" v="116"/><tag k="addr:postcode" v="78652"/></node><node id="-177" lat="30.118762" lon="-97.818938" changeset="false"><tag k="addr:street" v="Algerita Terrace"/><tag k="addr:housenumber" v="13101"/><tag k="addr:postcode" v="78652"/></node><node id="-178" lat="30.118459" lon="-97.82174" changeset="false"><tag k="addr:street" v="Easley Drive"/><tag k="addr:housenumber" v="13201"/><tag k="addr:postcode" v="78652"/></node><node id="-179" lat="30.120702" lon="-97.813066" changeset="false"><tag k="addr:street" v="Turley Drive"/><tag k="addr:housenumber" v="602"/><tag k="addr:postcode" v="78652"/></node><node id="-180" lat="30.117772" lon="-97.8203" changeset="false"><tag k="addr:street" v="Wild Turkey Drive"/><tag k="addr:housenumber" v="13201"/><tag k="addr:postcode" v="78652"/></node><node id="-181" lat="30.1227" lon="-97.824387" changeset="false"><tag k="addr:street" v="Stagecoach Way"/><tag k="addr:housenumber" v="13007"/><tag k="addr:postcode" v="78652"/></node><node id="-182" lat="30.118805" lon="-97.819882" changeset="false"><tag k="addr:street" v="Algerita Terrace"/><tag k="addr:housenumber" v="13100"/><tag k="addr:postcode" v="78652"/></node><node id="-183" lat="30.119404" lon="-97.821839" changeset="false"><tag k="addr:street" v="Easley Drive"/><tag k="addr:housenumber" v="13103"/><tag k="addr:postcode" v="78652"/></node><node id="-184" lat="30.121384" lon="-97.824977" changeset="false"><tag k="addr:street" v="Stagecoach Way"/><tag k="addr:housenumber" v="13017"/><tag k="addr:postcode" v="78652"/></node><node id="-185" lat="30.117306" lon="-97.82351" changeset="false"><tag k="addr:street" v="Bermuda Drive"/><tag k="addr:housenumber" v="103"/><tag k="addr:postcode" v="78652"/></node><node id="-186" lat="30.124099" lon="-97.830781" changeset="false"><tag k="addr:street" v="Viento del Sur Street"/><tag k="addr:housenumber" v="13107"/><tag k="addr:postcode" v="78652"/></node><node id="-187" lat="30.125006" lon="-97.82937" changeset="false"><tag k="addr:street" v="Sendero Verde Street"/><tag k="addr:housenumber" v="534"/><tag k="addr:postcode" v="78652"/></node><node id="-188" lat="30.126686" lon="-97.822797" changeset="false"><tag k="addr:street" v="Arroyo Doble Drive"/><tag k="addr:housenumber" v="12706"/><tag k="addr:postcode" v="78652"/></node><node id="-189" lat="30.120408" lon="-97.819653" changeset="false"><tag k="addr:street" v="Turley Drive"/><tag k="addr:housenumber" v="204"/><tag k="addr:postcode" v="78652"/></node><node id="-190" lat="30.116867" lon="-97.814017" changeset="false"><tag k="addr:street" v="Mystic Drive"/><tag k="addr:housenumber" v="13002"/><tag k="addr:postcode" v="78652"/></node><node id="-191" lat="30.123438" lon="-97.807828" changeset="false"><tag k="addr:street" v="Morelia Way"/><tag k="addr:housenumber" v="12502"/><tag k="addr:postcode" v="78652"/></node><node id="-192" lat="30.124434" lon="-97.807384" changeset="false"><tag k="addr:street" v="Morelia Way"/><tag k="addr:housenumber" v="12400"/><tag k="addr:postcode" v="78652"/></node><node id="-193" lat="30.124261" lon="-97.807471" changeset="false"><tag k="addr:street" v="Morelia Way"/><tag k="addr:housenumber" v="12402"/><tag k="addr:postcode" v="78652"/></node><node id="-194" lat="30.124976" lon="-97.807829" changeset="false"><tag k="addr:street" v="Cardenas Lane"/><tag k="addr:housenumber" v="801"/><tag k="addr:postcode" v="78652"/></node><node id="-195" lat="30.12556" lon="-97.807931" changeset="false"><tag k="addr:street" v="Altamira Street"/><tag k="addr:housenumber" v="12310"/><tag k="addr:postcode" v="78652"/></node><node id="-196" lat="30.125214" lon="-97.80753" changeset="false"><tag k="addr:street" v="Altamira Street"/><tag k="addr:housenumber" v="12311"/><tag k="addr:postcode" v="78652"/></node><node id="-197" lat="30.125793" lon="-97.807747" changeset="false"><tag k="addr:street" v="Altamira Street"/><tag k="addr:housenumber" v="12306"/><tag k="addr:postcode" v="78652"/></node><node id="-198" lat="30.125462" lon="-97.807402" changeset="false"><tag k="addr:street" v="Altamira Street"/><tag k="addr:housenumber" v="12307"/><tag k="addr:postcode" v="78652"/></node><node id="-199" lat="30.126227" lon="-97.806075" changeset="false"><tag k="addr:street" v="Allende Bend"/><tag k="addr:housenumber" v="804"/><tag k="addr:postcode" v="78652"/></node><node id="-200" lat="30.126648" lon="-97.821787" changeset="false"><tag k="addr:street" v="Arroyo Doble Drive"/><tag k="addr:housenumber" v="12701"/><tag k="addr:postcode" v="78652"/></node><node id="-201" lat="30.119959" lon="-97.813426" changeset="false"><tag k="addr:street" v="Turley Drive"/><tag k="addr:housenumber" v="601"/><tag k="addr:postcode" v="78652"/></node><node id="-202" lat="30.122387" lon="-97.816144" changeset="false"><tag k="addr:street" v="Encino Drive"/><tag k="addr:housenumber" v="12706"/><tag k="addr:postcode" v="78652"/></node><node id="-203" lat="30.122423" lon="-97.829328" changeset="false"><tag k="addr:street" v="Whitetail Drive"/><tag k="addr:housenumber" v="408"/><tag k="addr:postcode" v="78652"/></node><node id="-204" lat="30.124322" lon="-97.812262" changeset="false"><tag k="addr:street" v="Old San Antonio Road"/><tag k="addr:housenumber" v="12504"/><tag k="addr:postcode" v="78652"/></node><node id="-205" lat="30.121743" lon="-97.830962" changeset="false"><tag k="addr:street" v="Whitetail Drive"/><tag k="addr:housenumber" v="505"/><tag k="addr:postcode" v="78652"/></node><node id="-206" lat="30.12121" lon="-97.829019" changeset="false"><tag k="addr:street" v="Horsethief Trail"/><tag k="addr:housenumber" v="316"/><tag k="addr:postcode" v="78652"/></node><node id="-207" lat="30.118436" lon="-97.819827" changeset="false"><tag k="addr:street" v="Algerita Terrace"/><tag k="addr:housenumber" v="13102"/><tag k="addr:postcode" v="78652"/></node><node id="-208" lat="30.117853" lon="-97.817438" changeset="false"><tag k="addr:street" v="Shawnee Drive"/><tag k="addr:housenumber" v="13101"/><tag k="addr:postcode" v="78652"/></node><node id="-209" lat="30.123423" lon="-97.807111" changeset="false"><tag k="addr:street" v="Estancia Parkway"/><tag k="addr:housenumber" v="1201"/><tag k="addr:postcode" v="78652"/></node><node id="-210" lat="30.123364" lon="-97.8073" changeset="false"><tag k="addr:street" v="Morelia Way"/><tag k="addr:housenumber" v="12501"/><tag k="addr:postcode" v="78652"/></node><node id="-211" lat="30.124075" lon="-97.807476" changeset="false"><tag k="addr:street" v="Morelia Way"/><tag k="addr:housenumber" v="12404"/><tag k="addr:postcode" v="78652"/></node><node id="-212" lat="30.124214" lon="-97.807884" changeset="false"><tag k="addr:street" v="Altamira Street"/><tag k="addr:housenumber" v="12409"/><tag k="addr:postcode" v="78652"/></node><node id="-213" lat="30.12453" lon="-97.808358" changeset="false"><tag k="addr:street" v="Altamira Street"/><tag k="addr:housenumber" v="12406"/><tag k="addr:postcode" v="78652"/></node><node id="-214" lat="30.124688" lon="-97.808328" changeset="false"><tag k="addr:street" v="Altamira Street"/><tag k="addr:housenumber" v="12404"/><tag k="addr:postcode" v="78652"/></node><node id="-215" lat="30.124897" lon="-97.808672" changeset="false"><tag k="addr:street" v="Madero Drive"/><tag k="addr:housenumber" v="12403"/><tag k="addr:postcode" v="78652"/></node><node id="-216" lat="30.125093" lon="-97.807241" changeset="false"><tag k="addr:street" v="Allende Bend"/><tag k="addr:housenumber" v="909"/><tag k="addr:postcode" v="78652"/></node><node id="-217" lat="30.125961" lon="-97.808068" changeset="false"><tag k="addr:street" v="Madero Drive"/><tag k="addr:housenumber" v="12309"/><tag k="addr:postcode" v="78652"/></node><node id="-218" lat="30.125694" lon="-97.807248" changeset="false"><tag k="addr:street" v="Altamira Street"/><tag k="addr:housenumber" v="12303"/><tag k="addr:postcode" v="78652"/></node><node id="-219" lat="30.12595" lon="-97.807048" changeset="false"><tag k="addr:street" v="Altamira Street"/><tag k="addr:housenumber" v="12207"/><tag k="addr:postcode" v="78652"/></node><node id="-220" lat="30.126087" lon="-97.806044" changeset="false"><tag k="addr:street" v="Allende Bend"/><tag k="addr:housenumber" v="806"/><tag k="addr:postcode" v="78652"/></node><node id="-221" lat="30.117105" lon="-97.821726" changeset="false"><tag k="addr:street" v="Easley Drive"/><tag k="addr:housenumber" v="13301"/><tag k="addr:postcode" v="78652"/></node><node id="-222" lat="30.126619" lon="-97.823165" changeset="false"><tag k="addr:street" v="Arroyo Doble Drive"/><tag k="addr:housenumber" v="12708"/><tag k="addr:postcode" v="78652"/></node><node id="-223" lat="30.124939" lon="-97.815153" changeset="false"><tag k="addr:street" v="Twin Creeks Road"/><tag k="addr:housenumber" v="301"/><tag k="addr:postcode" v="78652"/></node><node id="-224" lat="30.12298" lon="-97.825475" changeset="false"><tag k="addr:street" v="Stagecoach Way"/><tag k="addr:housenumber" v="13000"/><tag k="addr:postcode" v="78652"/></node><node id="-225" lat="30.12394" lon="-97.815477" changeset="false"><tag k="addr:street" v="Encino Drive"/><tag k="addr:housenumber" v="12606"/><tag k="addr:postcode" v="78652"/></node><node id="-226" lat="30.123145" lon="-97.827753" changeset="false"><tag k="addr:street" v="Running Deer Trail"/><tag k="addr:housenumber" v="13100"/><tag k="addr:postcode" v="78652"/></node><node id="-227" lat="30.125307" lon="-97.806457" changeset="false"><tag k="addr:street" v="Allende Bend"/><tag k="addr:housenumber" v="818"/><tag k="addr:postcode" v="78652"/></node><node id="-228" lat="30.124977" lon="-97.813493" changeset="false"><tag k="addr:street" v="Twin Creeks Road"/><tag k="addr:housenumber" v="401"/><tag k="addr:postcode" v="78652"/></node><node id="-229" lat="30.119953" lon="-97.816948" changeset="false"><tag k="addr:street" v="Ben Milam Drive"/><tag k="addr:housenumber" v="12900"/><tag k="addr:postcode" v="78652"/></node><node id="-230" lat="30.123581" lon="-97.807741" changeset="false"><tag k="addr:street" v="Morelia Way"/><tag k="addr:housenumber" v="12500"/><tag k="addr:postcode" v="78652"/></node><node id="-231" lat="30.124149" lon="-97.80674" changeset="false"><tag k="addr:street" v="Morelia Way"/><tag k="addr:housenumber" v="12401"/><tag k="addr:postcode" v="78652"/></node><node id="-232" lat="30.124906" lon="-97.80767" changeset="false"><tag k="addr:street" v="Cardenas Lane"/><tag k="addr:housenumber" v="803"/><tag k="addr:postcode" v="78652"/></node><node id="-233" lat="30.124771" lon="-97.807405" changeset="false"><tag k="addr:street" v="Cardenas Lane"/><tag k="addr:housenumber" v="807"/><tag k="addr:postcode" v="78652"/></node><node id="-234" lat="30.125722" lon="-97.808227" changeset="false"><tag k="addr:street" v="Madero Drive"/><tag k="addr:housenumber" v="12313"/><tag k="addr:postcode" v="78652"/></node><node id="-235" lat="30.126326" lon="-97.807856" changeset="false"><tag k="addr:street" v="Madero Drive"/><tag k="addr:housenumber" v="12303"/><tag k="addr:postcode" v="78652"/></node><node id="-236" lat="30.125668" lon="-97.806024" changeset="false"><tag k="addr:street" v="Allende Bend"/><tag k="addr:housenumber" v="812"/><tag k="addr:postcode" v="78652"/></node><node id="-237" lat="30.126439" lon="-97.825473" changeset="false"><tag k="addr:street" v="Bear Canyon Drive"/><tag k="addr:housenumber" v="306"/><tag k="addr:postcode" v="78652"/></node><node id="-238" lat="30.123036" lon="-97.813159" changeset="false"><tag k="addr:street" v="Mystic Drive"/><tag k="addr:housenumber" v="12607"/><tag k="addr:postcode" v="78652"/></node><node id="-239" lat="30.125018" lon="-97.830792" changeset="false"><tag k="addr:street" v="Viento del Sur Street"/><tag k="addr:housenumber" v="13101"/><tag k="addr:postcode" v="78652"/></node><node id="-240" lat="30.124158" lon="-97.814579" changeset="false"><tag k="addr:street" v="Encino Drive"/><tag k="addr:housenumber" v="12602"/><tag k="addr:postcode" v="78652"/></node><node id="-241" lat="30.118166" lon="-97.816075" changeset="false"><tag k="addr:street" v="Ben Milam Drive"/><tag k="addr:housenumber" v="13005"/><tag k="addr:postcode" v="78652"/></node><node id="-242" lat="30.11742" lon="-97.81839" changeset="false"><tag k="addr:street" v="Shawnee Drive"/><tag k="addr:housenumber" v="13102"/><tag k="addr:postcode" v="78652"/></node><node id="-243" lat="30.126093" lon="-97.806934" changeset="false"><tag k="addr:street" v="Interstate 35 Frontage Road"/><tag k="addr:housenumber" v="12110"/><tag k="addr:postcode" v="78652"/></node><node id="-244" lat="30.123746" lon="-97.829425" changeset="false"><tag k="addr:street" v="Sendero Verde Street"/><tag k="addr:housenumber" v="520"/><tag k="addr:postcode" v="78652"/></node><node id="-245" lat="30.11983" lon="-97.820415" changeset="false"><tag k="addr:street" v="Wild Turkey Drive"/><tag k="addr:housenumber" v="13101"/><tag k="addr:postcode" v="78652"/></node><node id="-246" lat="30.130553" lon="-97.812323" changeset="false"><tag k="addr:street" v="Old San Antonio Road"/><tag k="addr:housenumber" v="12112"/><tag k="addr:postcode" v="78652"/></node><node id="-247" lat="30.123923" lon="-97.807539" changeset="false"><tag k="addr:street" v="Morelia Way"/><tag k="addr:housenumber" v="12406"/><tag k="addr:postcode" v="78652"/></node><node id="-248" lat="30.12436" lon="-97.807826" changeset="false"><tag k="addr:street" v="Altamira Street"/><tag k="addr:housenumber" v="12407"/><tag k="addr:postcode" v="78652"/></node><node id="-249" lat="30.125117" lon="-97.808635" changeset="false"><tag k="addr:street" v="Cardenas Lane"/><tag k="addr:housenumber" v="701"/><tag k="addr:postcode" v="78652"/></node><node id="-250" lat="30.124718" lon="-97.80725" changeset="false"><tag k="addr:street" v="Cardenas Lane"/><tag k="addr:housenumber" v="809"/><tag k="addr:postcode" v="78652"/></node><node id="-251" lat="30.125473" lon="-97.808345" changeset="false"><tag k="addr:street" v="Madero Drive"/><tag k="addr:housenumber" v="12317"/><tag k="addr:postcode" v="78652"/></node><node id="-252" lat="30.125598" lon="-97.808284" changeset="false"><tag k="addr:street" v="Madero Drive"/><tag k="addr:housenumber" v="12315"/><tag k="addr:postcode" v="78652"/></node><node id="-253" lat="30.125912" lon="-97.807696" changeset="false"><tag k="addr:street" v="Altamira Street"/><tag k="addr:housenumber" v="12304"/><tag k="addr:postcode" v="78652"/></node><node id="-254" lat="30.125809" lon="-97.807152" changeset="false"><tag k="addr:street" v="Altamira Street"/><tag k="addr:housenumber" v="12301"/><tag k="addr:postcode" v="78652"/></node><node id="-255" lat="30.125628" lon="-97.806875" changeset="false"><tag k="addr:street" v="Allende Bend"/><tag k="addr:housenumber" v="901"/><tag k="addr:postcode" v="78652"/></node><node id="-256" lat="30.125919" lon="-97.80652" changeset="false"><tag k="addr:street" v="Allende Bend"/><tag k="addr:housenumber" v="807"/><tag k="addr:postcode" v="78652"/></node><node id="-257" lat="30.126071" lon="-97.806538" changeset="false"><tag k="addr:street" v="Allende Bend"/><tag k="addr:housenumber" v="805"/><tag k="addr:postcode" v="78652"/></node><node id="-258" lat="30.126501" lon="-97.80616" changeset="false"><tag k="addr:street" v="Allende Bend"/><tag k="addr:housenumber" v="800"/><tag k="addr:postcode" v="78652"/></node><node id="-259" lat="30.122462" lon="-97.82863" changeset="false"><tag k="addr:street" v="Whitetail Drive"/><tag k="addr:housenumber" v="404"/><tag k="addr:postcode" v="78652"/></node><node id="-260" lat="30.116221" lon="-97.814735" changeset="false"><tag k="addr:street" v="Onion Creek Drive"/><tag k="addr:housenumber" v="13442"/><tag k="addr:postcode" v="78652"/></node><node id="-261" lat="30.118896" lon="-97.824356" changeset="false"><tag k="addr:street" v="Onion Creek Drive"/><tag k="addr:housenumber" v="13202"/><tag k="addr:postcode" v="78652"/></node><node id="-262" lat="30.118569" lon="-97.814078" changeset="false"><tag k="addr:street" v="Mystic Drive"/><tag k="addr:housenumber" v="12902"/><tag k="addr:postcode" v="78652"/></node><node id="-263" lat="30.118411" lon="-97.81836" changeset="false"><tag k="addr:street" v="Shawnee Drive"/><tag k="addr:housenumber" v="13006"/><tag k="addr:postcode" v="78652"/></node><node id="-264" lat="30.11817" lon="-97.815533" changeset="false"><tag k="addr:street" v="Vinyard Drive"/><tag k="addr:housenumber" v="13000"/><tag k="addr:postcode" v="78652"/></node><node id="-265" lat="30.116181" lon="-97.815944" changeset="false"><tag k="addr:street" v="Onion Creek Drive"/><tag k="addr:housenumber" v="13436"/><tag k="addr:postcode" v="78652"/></node><node id="-266" lat="30.124069" lon="-97.830117" changeset="false"><tag k="addr:street" v="Sendero Verde Street"/><tag k="addr:housenumber" v="529"/><tag k="addr:postcode" v="78652"/></node><node id="-267" lat="30.124098" lon="-97.831588" changeset="false"><tag k="addr:street" v="Viento del Sur Street"/><tag k="addr:housenumber" v="13106"/><tag k="addr:postcode" v="78652"/></node><node id="-268" lat="30.118614" lon="-97.812045" changeset="false"><tag k="addr:street" v="Old San Antonio Road"/><tag k="addr:housenumber" v="12806"/><tag k="addr:postcode" v="78652"/></node><node id="-269" lat="30.125869" lon="-97.824533" changeset="false"><tag k="addr:street" v="Bear Canyon Drive"/><tag k="addr:housenumber" v="305"/><tag k="addr:postcode" v="78652"/></node><node id="-270" lat="30.119869" lon="-97.818408" changeset="false"><tag k="addr:street" v="Shawnee Drive"/><tag k="addr:housenumber" v="12902"/><tag k="addr:postcode" v="78652"/></node><node id="-271" lat="30.121197" lon="-97.829352" changeset="false"><tag k="addr:street" v="Horsethief Trail"/><tag k="addr:housenumber" v="400"/><tag k="addr:postcode" v="78652"/></node><node id="-272" lat="30.122265" lon="-97.830443" changeset="false"><tag k="addr:street" v="Whitetail Drive"/><tag k="addr:housenumber" v="508"/><tag k="addr:postcode" v="78652"/></node><node id="-273" lat="30.121742" lon="-97.824813" changeset="false"><tag k="addr:street" v="Stagecoach Way"/><tag k="addr:housenumber" v="13015"/><tag k="addr:postcode" v="78652"/></node><node id="-274" lat="30.123462" lon="-97.812201" changeset="false"><tag k="addr:street" v="Old San Antonio Road"/><tag k="addr:housenumber" v="12600"/><tag k="addr:postcode" v="78652"/></node><node id="-275" lat="30.117403" lon="-97.820277" changeset="false"><tag k="addr:street" v="Wild Turkey Drive"/><tag k="addr:housenumber" v="13203"/><tag k="addr:postcode" v="78652"/></node><node id="-276" lat="30.117311" lon="-97.823157" changeset="false"><tag k="addr:street" v="Bermuda Drive"/><tag k="addr:housenumber" v="105"/><tag k="addr:postcode" v="78652"/></node><node id="-277" lat="30.120719" lon="-97.812306" changeset="false"><tag k="addr:street" v="Turley Drive"/><tag k="addr:housenumber" v="606"/><tag k="addr:postcode" v="78652"/></node><node id="-278" lat="30.125921" lon="-97.829586" changeset="false"><tag k="addr:street" v="Bear Canyon Drive"/><tag k="addr:housenumber" v="508"/><tag k="addr:postcode" v="78652"/></node><node id="-279" lat="30.119844" lon="-97.823979" changeset="false"><tag k="addr:street" v="Onion Creek Drive"/><tag k="addr:housenumber" v="13106"/><tag k="addr:postcode" v="78652"/></node><node id="-280" lat="30.121255" lon="-97.82682" changeset="false"><tag k="addr:street" v="Horsethief Trail"/><tag k="addr:housenumber" v="302"/><tag k="addr:postcode" v="78652"/></node><node id="-281" lat="30.121761" lon="-97.823524" changeset="false"><tag k="addr:street" v="Onion Creek Drive"/><tag k="addr:housenumber" v="13006"/><tag k="addr:postcode" v="78652"/></node><node id="-282" lat="30.121758" lon="-97.829616" changeset="false"><tag k="addr:street" v="Whitetail Drive"/><tag k="addr:housenumber" v="413"/><tag k="addr:postcode" v="78652"/></node><node id="-283" lat="30.116838" lon="-97.817449" changeset="false"><tag k="addr:street" v="Shawnee Drive"/><tag k="addr:housenumber" v="13107"/><tag k="addr:postcode" v="78652"/></node><node id="-284" lat="30.116812" lon="-97.823135" changeset="false"><tag k="addr:street" v="Onion Creek Drive"/><tag k="addr:housenumber" v="13405"/><tag k="addr:postcode" v="78652"/></node><node id="-285" lat="30.11615" lon="-97.819469" changeset="false"><tag k="addr:street" v="Onion Creek Drive"/><tag k="addr:housenumber" v="13420"/><tag k="addr:postcode" v="78652"/></node><node id="-286" lat="30.118869" lon="-97.815531" changeset="false"><tag k="addr:street" v="Vinyard Drive"/><tag k="addr:housenumber" v="12906"/><tag k="addr:postcode" v="78652"/></node><node id="-287" lat="30.118751" lon="-97.820373" changeset="false"><tag k="addr:street" v="Wild Turkey Drive"/><tag k="addr:housenumber" v="13107"/><tag k="addr:postcode" v="78652"/></node><node id="-288" lat="30.118543" lon="-97.817453" changeset="false"><tag k="addr:street" v="Shawnee Drive"/><tag k="addr:housenumber" v="13007"/><tag k="addr:postcode" v="78652"/></node><node id="-289" lat="30.128886" lon="-97.801538" changeset="false"><tag k="addr:street" v="Interstate 35 Frontage Road"/><tag k="addr:housenumber" v="11922"/><tag k="addr:postcode" v="78652"/></node><node id="-290" lat="30.118041" lon="-97.822899" changeset="false"><tag k="addr:street" v="Bermuda Drive"/><tag k="addr:housenumber" v="104"/><tag k="addr:postcode" v="78652"/></node><node id="-291" lat="30.124413" lon="-97.825406" changeset="false"><tag k="addr:street" v="Arroyo Doble Drive"/><tag k="addr:housenumber" v="12906"/><tag k="addr:postcode" v="78652"/></node><node id="-292" lat="30.123897" lon="-97.831583" changeset="false"><tag k="addr:street" v="Viento del Sur Street"/><tag k="addr:housenumber" v="13108"/><tag k="addr:postcode" v="78652"/></node><node id="-293" lat="30.123336" lon="-97.831558" changeset="false"><tag k="addr:street" v="Viento del Sur Street"/><tag k="addr:housenumber" v="13200"/><tag k="addr:postcode" v="78652"/></node><node id="-294" lat="30.125767" lon="-97.813274" changeset="false"><tag k="addr:street" v="Twin Creeks Road"/><tag k="addr:housenumber" v="406"/><tag k="addr:postcode" v="78652"/></node><node id="-295" lat="30.125598" lon="-97.830796" changeset="false"><tag k="addr:street" v="Bear Canyon Drive"/><tag k="addr:housenumber" v="601"/><tag k="addr:postcode" v="78652"/></node><node id="-296" lat="30.12122" lon="-97.827575" changeset="false"><tag k="addr:street" v="Horsethief Trail"/><tag k="addr:housenumber" v="306"/><tag k="addr:postcode" v="78652"/></node><node id="-297" lat="30.116259" lon="-97.8122" changeset="false"><tag k="addr:street" v="Onion Creek Drive"/><tag k="addr:housenumber" v="13454"/><tag k="addr:postcode" v="78652"/></node><node id="-298" lat="30.122488" lon="-97.828235" changeset="false"><tag k="addr:street" v="Whitetail Drive"/><tag k="addr:housenumber" v="402"/><tag k="addr:postcode" v="78652"/></node><node id="-299" lat="30.119593" lon="-97.814092" changeset="false"><tag k="addr:street" v="Mystic Drive"/><tag k="addr:housenumber" v="12802"/><tag k="addr:postcode" v="78652"/></node><node id="-300" lat="30.117194" lon="-97.814049" changeset="false"><tag k="addr:street" v="Mystic Drive"/><tag k="addr:housenumber" v="13000"/><tag k="addr:postcode" v="78652"/></node><node id="-301" lat="30.116793" lon="-97.822793" changeset="false"><tag k="addr:street" v="Onion Creek Drive"/><tag k="addr:housenumber" v="13407"/><tag k="addr:postcode" v="78652"/></node><node id="-302" lat="30.121773" lon="-97.812229" changeset="false"><tag k="addr:street" v="Old San Antonio Road"/><tag k="addr:housenumber" v="12608"/><tag k="addr:postcode" v="78652"/></node><node id="-303" lat="30.118439" lon="-97.820348" changeset="false"><tag k="addr:street" v="Wild Turkey Drive"/><tag k="addr:housenumber" v="13109"/><tag k="addr:postcode" v="78652"/></node><node id="-304" lat="30.119106" lon="-97.821831" changeset="false"><tag k="addr:street" v="Easley Drive"/><tag k="addr:housenumber" v="13105"/><tag k="addr:postcode" v="78652"/></node><node id="-305" lat="30.118509" lon="-97.816083" changeset="false"><tag k="addr:street" v="Ben Milam Drive"/><tag k="addr:housenumber" v="13003"/><tag k="addr:postcode" v="78652"/></node><node id="-306" lat="30.119138" lon="-97.818944" changeset="false"><tag k="addr:street" v="Algerita Terrace"/><tag k="addr:housenumber" v="13007"/><tag k="addr:postcode" v="78652"/></node><node id="-307" lat="30.120686" lon="-97.812674" changeset="false"><tag k="addr:street" v="Turley Drive"/><tag k="addr:housenumber" v="604"/><tag k="addr:postcode" v="78652"/></node><node id="-308" lat="30.113169" lon="-97.809644" changeset="false"><tag k="addr:street" v="Puryear Road"/><tag k="addr:housenumber" v="118"/><tag k="addr:postcode" v="78652"/></node><node id="-309" lat="30.1162" lon="-97.81554" changeset="false"><tag k="addr:street" v="Onion Creek Drive"/><tag k="addr:housenumber" v="13438"/><tag k="addr:postcode" v="78652"/></node><node id="-310" lat="30.116295" lon="-97.825086" changeset="false"><tag k="addr:street" v="Onion Creek Drive"/><tag k="addr:housenumber" v="13308"/><tag k="addr:postcode" v="78652"/></node><node id="-311" lat="30.126776" lon="-97.822428" changeset="false"><tag k="addr:street" v="Arroyo Doble Drive"/><tag k="addr:housenumber" v="12704"/><tag k="addr:postcode" v="78652"/></node><node id="-312" lat="30.126092" lon="-97.831433" changeset="false"><tag k="addr:street" v="Viento del Sur Street"/><tag k="addr:housenumber" v="13000"/><tag k="addr:postcode" v="78652"/></node><node id="-313" lat="30.121675" lon="-97.825645" changeset="false"><tag k="addr:street" v="Stagecoach Way"/><tag k="addr:housenumber" v="13018"/><tag k="addr:postcode" v="78652"/></node><node id="-314" lat="30.124284" lon="-97.827898" changeset="false"><tag k="addr:street" v="Sendero Verde Street"/><tag k="addr:housenumber" v="507"/><tag k="addr:postcode" v="78652"/></node><node id="-315" lat="30.123456" lon="-97.813215" changeset="false"><tag k="addr:street" v="Mystic Drive"/><tag k="addr:housenumber" v="12605"/><tag k="addr:postcode" v="78652"/></node><node id="-316" lat="30.118581" lon="-97.81466" changeset="false"><tag k="addr:street" v="Vinyard Drive"/><tag k="addr:housenumber" v="12909"/><tag k="addr:postcode" v="78652"/></node><node id="-317" lat="30.118251" lon="-97.812984" changeset="false"><tag k="addr:street" v="Greenmeadow Drive"/><tag k="addr:housenumber" v="602"/><tag k="addr:postcode" v="78652"/></node><node id="-318" lat="30.117897" lon="-97.824608" changeset="false"><tag k="addr:street" v="Onion Creek Drive"/><tag k="addr:housenumber" v="13208"/><tag k="addr:postcode" v="78652"/></node><node id="-319" lat="30.117537" lon="-97.814597" changeset="false"><tag k="addr:street" v="Vinyard Drive"/><tag k="addr:housenumber" v="13005"/><tag k="addr:postcode" v="78652"/></node><node id="-320" lat="30.120146" lon="-97.812115" changeset="false"><tag k="addr:street" v="Turley Drive"/><tag k="addr:housenumber" v="609"/><tag k="addr:postcode" v="78652"/></node></osm>