<?xml version="1.0" encoding="UTF-8"?><osm version="0.6" generator="github.com/aaronlidman/osm-and-geojson"><node id="-1" lat="30.216527" lon="-97.791007" changeset="false"><tag k="addr:street" v="Calais Court"/><tag k="addr:housenumber" v="5206"/><tag k="addr:postcode" v="78745"/></node><node id="-2" lat="30.216461" lon="-97.796564" changeset="false"><tag k="addr:street" v="Manchaca Road"/><tag k="addr:housenumber" v="5501"/><tag k="addr:postcode" v="78745"/></node><node id="-3" lat="30.214134" lon="-97.79441" changeset="false"><tag k="addr:street" v="Rose Hill Circle"/><tag k="addr:housenumber" v="5508"/><tag k="addr:postcode" v="78745"/></node><node id="-4" lat="30.218775" lon="-97.79451" changeset="false"><tag k="addr:street" v="Fair Oaks Drive"/><tag k="addr:housenumber" v="1905"/><tag k="addr:postcode" v="78745"/></node><node id="-5" lat="30.21395" lon="-97.793893" changeset="false"><tag k="addr:street" v="Rose Hill Circle"/><tag k="addr:housenumber" v="5509"/><tag k="addr:postcode" v="78745"/></node><node id="-6" lat="30.214517" lon="-97.795249" changeset="false"><tag k="addr:street" v="Kings Highway"/><tag k="addr:housenumber" v="5510"/><tag k="addr:postcode" v="78745"/></node><node id="-7" lat="30.21933" lon="-97.79462" changeset="false"><tag k="addr:street" v="Fair Oaks Drive"/><tag k="addr:housenumber" v="1908"/><tag k="addr:postcode" v="78745"/></node><node id="-8" lat="30.217395" lon="-97.790836" changeset="false"><tag k="addr:street" v="Calais Court"/><tag k="addr:housenumber" v="5202"/><tag k="addr:postcode" v="78745"/></node><node id="-9" lat="30.215685" lon="-97.792388" changeset="false"><tag k="addr:street" v="Saint Georges Green"/><tag k="addr:housenumber" v="5217"/><tag k="addr:postcode" v="78745"/></node></osm>