<?xml version="1.0" encoding="UTF-8"?><osm version="0.6" generator="github.com/aaronlidman/osm-and-geojson"><node id="-1" lat="30.060453" lon="-97.697356" changeset="false"><tag k="addr:street" v="Maha Court"/><tag k="addr:housenumber" v="8401"/><tag k="coa:place_id" v="1145431"/></node><node id="-2" lat="30.092351" lon="-97.757231" changeset="false"><tag k="addr:street" v="Wright Road"/><tag k="addr:housenumber" v="12800"/><tag k="coa:place_id" v="3184888"/></node><node id="-3" lat="30.040888" lon="-97.715066" changeset="false"><tag k="addr:street" v="Williamson Road"/><tag k="addr:housenumber" v="8009"/><tag k="coa:place_id" v="1145260"/></node><node id="-4" lat="30.040434" lon="-97.703507" changeset="false"><tag k="addr:street" v="Elm Grove Road"/><tag k="addr:housenumber" v="13301"/><tag k="coa:place_id" v="1145386"/></node><node id="-5" lat="30.041976" lon="-97.694666" changeset="false"><tag k="addr:street" v="Strategic Drive"/><tag k="addr:housenumber" v="13216"/><tag k="coa:place_id" v="1145374"/></node><node id="-6" lat="30.058581" lon="-97.696198" changeset="false"><tag k="addr:street" v="Maha Court"/><tag k="addr:housenumber" v="8501"/><tag k="coa:place_id" v="1145452"/></node><node id="-7" lat="30.078977" lon="-97.713773" changeset="false"><tag k="addr:street" v="Aquaplex Drive"/><tag k="addr:housenumber" v="12325"/><tag k="coa:place_id" v="87754"/></node><node id="-8" lat="30.072589" lon="-97.728699" changeset="false"><tag k="addr:street" v="South Turnersville Road,1100"/><tag k="addr:housenumber" v="5904"/><tag k="coa:place_id" v="1145278"/></node><node id="-9" lat="30.095556" lon="-97.760573" changeset="false"><tag k="addr:street" v="Palmer Road"/><tag k="addr:housenumber" v="12719"/><tag k="coa:place_id" v="3047312"/></node><node id="-10" lat="30.060061" lon="-97.735178" changeset="false"><tag k="addr:street" v="Williamson Road"/><tag k="addr:housenumber" v="6010"/><tag k="coa:place_id" v="1145196"/></node><node id="-11" lat="30.038627" lon="-97.729552" changeset="false"><tag k="addr:street" v="Goforth Road"/><tag k="addr:housenumber" v="15421"/><tag k="coa:place_id" v="1145188"/></node><node id="-12" lat="30.050533" lon="-97.693658" changeset="false"><tag k="addr:street" v="Laws Road"/><tag k="addr:housenumber" v="12739"/><tag k="coa:place_id" v="1145321"/></node><node id="-13" lat="30.075832" lon="-97.736023" changeset="false"><tag k="addr:street" v="Farm-to-Market Road 1625"/><tag k="addr:housenumber" v="13210"/><tag k="coa:place_id" v="3045981"/></node><node id="-14" lat="30.10086" lon="-97.758532" changeset="false"><tag k="addr:street" v="Farm-to-Market Road 1327"/><tag k="addr:housenumber" v="3201"/><tag k="coa:place_id" v="3047307"/></node><node id="-15" lat="30.058458" lon="-97.695556" changeset="false"><tag k="addr:street" v="Maha Court"/><tag k="addr:housenumber" v="8505"/><tag k="coa:place_id" v="1145455"/></node><node id="-16" lat="30.064777" lon="-97.702341" changeset="false"><tag k="addr:street" v="Mustang Drive"/><tag k="addr:housenumber" v="12001"/><tag k="coa:place_id" v="3198835"/></node><node id="-17" lat="30.06502" lon="-97.702804" changeset="false"><tag k="addr:street" v="Mustang Drive"/><tag k="addr:housenumber" v="12005"/><tag k="coa:place_id" v="3198837"/></node><node id="-18" lat="30.090185" lon="-97.756048" changeset="false"><tag k="addr:street" v="Wright Road"/><tag k="addr:housenumber" v="12912"/><tag k="coa:place_id" v="3038348"/></node><node id="-19" lat="30.087246" lon="-97.759486" changeset="false"><tag k="addr:street" v="Crane Road"/><tag k="addr:housenumber" v="13200"/><tag k="coa:place_id" v="137118"/></node><node id="-20" lat="30.077295" lon="-97.694092" changeset="false"><tag k="addr:street" v="Evelyn Road,1100"/><tag k="addr:housenumber" v="7800"/><tag k="coa:place_id" v="1145708"/></node><node id="-21" lat="30.063894" lon="-97.704917" changeset="false"><tag k="addr:street" v="Stallion Drive"/><tag k="addr:housenumber" v="12127"/><tag k="coa:place_id" v="3198866"/></node><node id="-22" lat="30.062821" lon="-97.706489" changeset="false"><tag k="addr:street" v="Pinto Circle"/><tag k="addr:housenumber" v="11805"/><tag k="coa:place_id" v="3198880"/></node><node id="-23" lat="30.062704" lon="-97.705762" changeset="false"><tag k="addr:street" v="Pinto Circle"/><tag k="addr:housenumber" v="11809"/><tag k="coa:place_id" v="3198884"/></node><node id="-24" lat="30.062402" lon="-97.707562" changeset="false"><tag k="addr:street" v="Mustang Drive"/><tag k="addr:housenumber" v="12216"/><tag k="coa:place_id" v="3198900"/></node><node id="-25" lat="30.065525" lon="-97.70193" changeset="false"><tag k="addr:street" v="Mustang Drive"/><tag k="addr:housenumber" v="12002"/><tag k="coa:place_id" v="3198905"/></node><node id="-26" lat="30.065952" lon="-97.700598" changeset="false"><tag k="addr:street" v="Stallion Drive"/><tag k="addr:housenumber" v="12001"/><tag k="coa:place_id" v="3198910"/></node><node id="-27" lat="30.092888" lon="-97.762499" changeset="false"><tag k="addr:street" v="Palmer Road"/><tag k="addr:housenumber" v="13001 1/2"/><tag k="coa:place_id" v="3298188"/></node><node id="-28" lat="30.066044" lon="-97.703695" changeset="false"><tag k="addr:street" v="Mustang Drive"/><tag k="addr:housenumber" v="12016"/><tag k="coa:place_id" v="3198840"/></node><node id="-29" lat="30.044127" lon="-97.69508" changeset="false"><tag k="addr:street" v="Strategic Drive"/><tag k="addr:housenumber" v="13112"/><tag k="coa:place_id" v="1145352"/></node><node id="-30" lat="30.065677" lon="-97.700344" changeset="false"><tag k="addr:street" v="Stallion Drive"/><tag k="addr:housenumber" v="12003"/><tag k="coa:place_id" v="3198911"/></node><node id="-31" lat="30.064032" lon="-97.741246" changeset="false"><tag k="addr:street" v="Williamson Road"/><tag k="addr:housenumber" v="5532"/><tag k="coa:place_id" v="1145218"/></node><node id="-32" lat="30.071738" lon="-97.752234" changeset="false"><tag k="addr:street" v="Graef Road"/><tag k="addr:housenumber" v="14000"/><tag k="coa:place_id" v="256381"/></node><node id="-33" lat="30.067287" lon="-97.755603" changeset="false"><tag k="addr:street" v="Graef Road"/><tag k="addr:housenumber" v="14308"/><tag k="coa:place_id" v="1145148"/></node><node id="-34" lat="30.064715" lon="-97.701422" changeset="false"><tag k="addr:street" v="Stallion Drive"/><tag k="addr:housenumber" v="12013"/><tag k="coa:place_id" v="3198916"/></node><node id="-35" lat="30.064309" lon="-97.701851" changeset="false"><tag k="addr:street" v="Stallion Drive"/><tag k="addr:housenumber" v="12103"/><tag k="coa:place_id" v="3198918"/></node><node id="-36" lat="30.061685" lon="-97.707328" changeset="false"><tag k="addr:street" v="Mustang Drive"/><tag k="addr:housenumber" v="12221"/><tag k="coa:place_id" v="3198930"/></node><node id="-37" lat="30.067042" lon="-97.702548" changeset="false"><tag k="addr:street" v="Filly Cove"/><tag k="addr:housenumber" v="11904"/><tag k="coa:place_id" v="3198824"/></node><node id="-38" lat="30.085028" lon="-97.753421" changeset="false"><tag k="addr:street" v="Sonesh Edge Cove"/><tag k="addr:housenumber" v="5035"/><tag k="coa:place_id" v="3281638"/></node><node id="-39" lat="30.057362" lon="-97.717098" changeset="false"><tag k="addr:street" v="Glass Road"/><tag k="addr:housenumber" v="12501"/><tag k="coa:place_id" v="3281705"/></node><node id="-40" lat="30.05588" lon="-97.715151" changeset="false"><tag k="addr:street" v="Glass Road"/><tag k="addr:housenumber" v="12545"/><tag k="coa:place_id" v="3281708"/></node><node id="-41" lat="30.06614" lon="-97.702779" changeset="false"><tag k="addr:street" v="Mustang Drive"/><tag k="addr:housenumber" v="12010"/><tag k="coa:place_id" v="3198834"/></node><node id="-42" lat="30.095195" lon="-97.756469" changeset="false"><tag k="addr:street" v="Wright Road"/><tag k="addr:housenumber" v="12616"/><tag k="coa:place_id" v="3197790"/></node><node id="-43" lat="30.071952" lon="-97.727653" changeset="false"><tag k="addr:street" v="South Turnersville Road,1100"/><tag k="addr:housenumber" v="5918"/><tag k="coa:place_id" v="1145279"/></node><node id="-44" lat="30.043613" lon="-97.700562" changeset="false"><tag k="addr:street" v="Elm Grove Road"/><tag k="addr:housenumber" v="13127"/><tag k="coa:place_id" v="3328741"/></node><node id="-45" lat="30.085825" lon="-97.75164" changeset="false"><tag k="addr:street" v="Wright Road"/><tag k="addr:housenumber" v="13100"/><tag k="coa:place_id" v="3281274"/></node><node id="-46" lat="30.091897" lon="-97.765084" changeset="false"><tag k="addr:street" v="Palmer Road"/><tag k="addr:housenumber" v="13104"/><tag k="coa:place_id" v="3281177"/></node><node id="-47" lat="30.0875" lon="-97.752583" changeset="false"><tag k="addr:street" v="Sonesh Ridge Court"/><tag k="addr:housenumber" v="4908"/><tag k="coa:place_id" v="3281295"/></node><node id="-48" lat="30.086863" lon="-97.753403" changeset="false"><tag k="addr:street" v="Sonesh Ridge Court"/><tag k="addr:housenumber" v="4909"/><tag k="coa:place_id" v="3281302"/></node><node id="-49" lat="30.038701" lon="-97.711056" changeset="false"><tag k="addr:street" v="Williamson Road"/><tag k="addr:housenumber" v="8404"/><tag k="coa:place_id" v="3317306"/></node><node id="-50" lat="30.077237" lon="-97.738894" changeset="false"><tag k="addr:street" v="South Turnersville Road,1100"/><tag k="addr:housenumber" v="5116"/><tag k="coa:place_id" v="3345894"/></node><node id="-51" lat="30.080436" lon="-97.75353" changeset="false"><tag k="addr:street" v="Wright Road"/><tag k="addr:housenumber" v="13419"/><tag k="coa:place_id" v="1145169"/></node><node id="-52" lat="30.042968" lon="-97.696077" changeset="false"><tag k="addr:street" v="Strategic Drive"/><tag k="addr:housenumber" v="13200"/><tag k="coa:place_id" v="1145365"/></node><node id="-53" lat="30.065323" lon="-97.695191" changeset="false"><tag k="addr:street" v="Margo Drive"/><tag k="addr:housenumber" v="12039"/><tag k="coa:place_id" v="1145635"/></node><node id="-54" lat="30.051581" lon="-97.694066" changeset="false"><tag k="addr:street" v="Laws Road"/><tag k="addr:housenumber" v="12730"/><tag k="coa:place_id" v="1145489"/></node><node id="-55" lat="30.039254" lon="-97.728848" changeset="false"><tag k="addr:street" v="Goforth Road"/><tag k="addr:housenumber" v="15401"/><tag k="coa:place_id" v="1145253"/></node><node id="-56" lat="30.045844" lon="-97.693118" changeset="false"><tag k="addr:street" v="Strategic Drive"/><tag k="addr:housenumber" v="13026"/><tag k="coa:place_id" v="1145336"/></node><node id="-57" lat="30.060906" lon="-97.696781" changeset="false"><tag k="addr:street" v="Maha Court"/><tag k="addr:housenumber" v="8400"/><tag k="coa:place_id" v="1145427"/></node><node id="-58" lat="30.078213" lon="-97.714662" changeset="false"><tag k="addr:street" v="Aquaplex Drive"/><tag k="addr:housenumber" v="12401"/><tag k="coa:place_id" v="87756"/></node><node id="-59" lat="30.105271" lon="-97.782281" changeset="false"><tag k="addr:street" v="South Turnersville Road,1100"/><tag k="addr:housenumber" v="12800"/><tag k="coa:place_id" v="834938"/></node><node id="-60" lat="30.037618" lon="-97.70507" changeset="false"><tag k="addr:street" v="Elm Grove Road"/><tag k="addr:housenumber" v="13411"/><tag k="coa:place_id" v="1145308"/></node><node id="-61" lat="30.062346" lon="-97.707277" changeset="false"><tag k="addr:street" v="Mustang Drive"/><tag k="addr:housenumber" v="12214"/><tag k="coa:place_id" v="3198899"/></node><node id="-62" lat="30.060947" lon="-97.695279" changeset="false"><tag k="addr:street" v="Maha Court"/><tag k="addr:housenumber" v="8412"/><tag k="coa:place_id" v="1145424"/></node><node id="-63" lat="30.051707" lon="-97.72796" changeset="false"><tag k="addr:street" v="Williamson Road"/><tag k="addr:housenumber" v="6711"/><tag k="coa:place_id" v="1145274"/></node><node id="-64" lat="30.089659" lon="-97.72927" changeset="false"><tag k="addr:street" v="Farm-to-Market Road 1327"/><tag k="addr:housenumber" v="5107"/><tag k="coa:place_id" v="3198821"/></node><node id="-65" lat="30.064071" lon="-97.705393" changeset="false"><tag k="addr:street" v="Stallion Drive"/><tag k="addr:housenumber" v="12131"/><tag k="coa:place_id" v="3198851"/></node><node id="-66" lat="30.046487" lon="-97.692577" changeset="false"><tag k="addr:street" v="Strategic Drive"/><tag k="addr:housenumber" v="13012"/><tag k="coa:place_id" v="1145333"/></node><node id="-67" lat="30.047585" lon="-97.719059" changeset="false"><tag k="addr:street" v="Williamson Road"/><tag k="addr:housenumber" v="7406"/><tag k="coa:place_id" v="1145256"/></node><node id="-68" lat="30.073183" lon="-97.718049" changeset="false"><tag k="addr:street" v="Aqualux Cove"/><tag k="addr:housenumber" v="10704"/><tag k="coa:place_id" v="87774"/></node><node id="-69" lat="30.064368" lon="-97.703153" changeset="false"><tag k="addr:street" v="Stallion Drive"/><tag k="addr:housenumber" v="12108"/><tag k="coa:place_id" v="3198868"/></node><node id="-70" lat="30.065854" lon="-97.738697" changeset="false"><tag k="addr:street" v="Williamson Road"/><tag k="addr:housenumber" v="5608"/><tag k="coa:place_id" v="3080761"/></node><node id="-71" lat="30.063185" lon="-97.704762" changeset="false"><tag k="addr:street" v="Bronco Circle"/><tag k="addr:housenumber" v="11902"/><tag k="coa:place_id" v="3198888"/></node><node id="-72" lat="30.06228" lon="-97.706699" changeset="false"><tag k="addr:street" v="Mustang Drive"/><tag k="addr:housenumber" v="12210"/><tag k="coa:place_id" v="3198897"/></node><node id="-73" lat="30.062327" lon="-97.707015" changeset="false"><tag k="addr:street" v="Mustang Drive"/><tag k="addr:housenumber" v="12212"/><tag k="coa:place_id" v="3198898"/></node><node id="-74" lat="30.065923" lon="-97.701574" changeset="false"><tag k="addr:street" v="Stallion Drive"/><tag k="addr:housenumber" v="12006"/><tag k="coa:place_id" v="3198909"/></node><node id="-75" lat="30.065429" lon="-97.700504" changeset="false"><tag k="addr:street" v="Stallion Drive"/><tag k="addr:housenumber" v="12005"/><tag k="coa:place_id" v="3198912"/></node><node id="-76" lat="30.063053" lon="-97.706981" changeset="false"><tag k="addr:street" v="Pinto Circle"/><tag k="addr:housenumber" v="11801"/><tag k="coa:place_id" v="3198876"/></node><node id="-77" lat="30.061268" lon="-97.706069" changeset="false"><tag k="addr:street" v="Mustang Drive"/><tag k="addr:housenumber" v="12211"/><tag k="coa:place_id" v="3198925"/></node><node id="-78" lat="30.061181" lon="-97.706589" changeset="false"><tag k="addr:street" v="Mustang Drive"/><tag k="addr:housenumber" v="12215"/><tag k="coa:place_id" v="3198927"/></node><node id="-79" lat="30.072922" lon="-97.717947" changeset="false"><tag k="addr:street" v="Aqualux Cove"/><tag k="addr:housenumber" v="10708"/><tag k="coa:place_id" v="87775"/></node><node id="-80" lat="30.059433" lon="-97.717443" changeset="false"><tag k="addr:street" v="Bronco Court"/><tag k="addr:housenumber" v="7012"/><tag k="coa:place_id" v="3281911"/></node><node id="-81" lat="30.087085" lon="-97.700478" changeset="false"><tag k="addr:street" v="Tom Sassman Road"/><tag k="addr:housenumber" v="11248"/><tag k="coa:place_id" v="3208066"/></node><node id="-82" lat="30.08785" lon="-97.751277" changeset="false"><tag k="addr:street" v="Wright Road"/><tag k="addr:housenumber" v="12976"/><tag k="coa:place_id" v="3281284"/></node><node id="-83" lat="30.087706" lon="-97.75302" changeset="false"><tag k="addr:street" v="Sonesh Ridge Court"/><tag k="addr:housenumber" v="4900"/><tag k="coa:place_id" v="3281294"/></node><node id="-84" lat="30.087522" lon="-97.704731" changeset="false"><tag k="addr:street" v="Evelyn Road,1100"/><tag k="addr:housenumber" v="6706"/><tag k="coa:place_id" v="1128475"/></node><node id="-85" lat="30.086894" lon="-97.734563" changeset="false"><tag k="addr:street" v="Farm-to-Market Road 1625"/><tag k="addr:housenumber" v="12509"/><tag k="coa:place_id" v="3198815"/></node><node id="-86" lat="30.085875" lon="-97.734742" changeset="false"><tag k="addr:street" v="Farm-to-Market Road 1625"/><tag k="addr:housenumber" v="12519"/><tag k="coa:place_id" v="3198818"/></node><node id="-87" lat="30.062455" lon="-97.712141" changeset="false"><tag k="addr:street" v="Glass Road"/><tag k="addr:housenumber" v="12129"/><tag k="coa:place_id" v="3281713"/></node><node id="-88" lat="30.065852" lon="-97.70235" changeset="false"><tag k="addr:street" v="Mustang Drive"/><tag k="addr:housenumber" v="12006"/><tag k="coa:place_id" v="3198832"/></node><node id="-89" lat="30.035227" lon="-97.706187" changeset="false"><tag k="addr:street" v="Williamson Road"/><tag k="addr:housenumber" v="8804"/><tag k="coa:place_id" v="3317320"/></node><node id="-90" lat="30.056465" lon="-97.748793" changeset="false"><tag k="addr:street" v="Williamson Road"/><tag k="addr:housenumber" v="5341"/><tag k="coa:place_id" v="1145204"/></node><node id="-91" lat="30.068246" lon="-97.698908" changeset="false"><tag k="addr:street" v="Overstreet Circle"/><tag k="addr:housenumber" v="7817"/><tag k="coa:place_id" v="3285627"/></node><node id="-92" lat="30.077615" lon="-97.739669" changeset="false"><tag k="addr:street" v="South Turnersville Road,1100"/><tag k="addr:housenumber" v="5108"/><tag k="coa:place_id" v="3345921"/></node><node id="-93" lat="30.07856" lon="-97.740537" changeset="false"><tag k="addr:street" v="South Turnersville Road,1100"/><tag k="addr:housenumber" v="5028"/><tag k="coa:place_id" v="3345957"/></node><node id="-94" lat="30.077463" lon="-97.735951" changeset="false"><tag k="addr:street" v="Farm-to-Market Road 1625"/><tag k="addr:housenumber" v="13104"/><tag k="coa:place_id" v="3323578"/></node><node id="-95" lat="30.063717" lon="-97.718853" changeset="false"><tag k="addr:street" v="Palm Harborway"/><tag k="addr:housenumber" v="12113"/><tag k="coa:place_id" v="3388545"/></node><node id="-96" lat="30.060023" lon="-97.718148" changeset="false"><tag k="addr:street" v="Bronco Court"/><tag k="addr:housenumber" v="7000"/><tag k="coa:place_id" v="3281909"/></node><node id="-97" lat="30.043096" lon="-97.701107" changeset="false"><tag k="addr:street" v="Elm Grove Road"/><tag k="addr:housenumber" v="13143"/><tag k="coa:place_id" v="3511738"/></node><node id="-98" lat="30.09113" lon="-97.757071" changeset="false"><tag k="addr:street" v="Wright Road"/><tag k="addr:housenumber" v="12818"/><tag k="coa:place_id" v="3430125"/></node><node id="-99" lat="30.059608" lon="-97.697171" changeset="false"><tag k="addr:street" v="Maha Court"/><tag k="addr:housenumber" v="8409"/><tag k="coa:place_id" v="1145444"/></node><node id="-100" lat="30.059117" lon="-97.693772" changeset="false"><tag k="addr:street" v="Maha Court"/><tag k="addr:housenumber" v="8600"/><tag k="coa:place_id" v="1145449"/></node><node id="-101" lat="30.046343" lon="-97.691444" changeset="false"><tag k="addr:street" v="Strategic Drive"/><tag k="addr:housenumber" v="13001"/><tag k="coa:place_id" v="1145334"/></node><node id="-102" lat="30.045209" lon="-97.692598" changeset="false"><tag k="addr:street" v="Strategic Drive"/><tag k="addr:housenumber" v="13029"/><tag k="coa:place_id" v="1145341"/></node><node id="-103" lat="30.088947" lon="-97.733143" changeset="false"><tag k="addr:street" v="Farm-to-Market Road 1625"/><tag k="addr:housenumber" v="12311"/><tag k="coa:place_id" v="1145251"/></node><node id="-104" lat="30.059696" lon="-97.694907" changeset="false"><tag k="addr:street" v="Maha Court"/><tag k="addr:housenumber" v="8500"/><tag k="coa:place_id" v="1145441"/></node><node id="-105" lat="30.051421" lon="-97.692671" changeset="false"><tag k="addr:street" v="Laws Road"/><tag k="addr:housenumber" v="12723"/><tag k="coa:place_id" v="1145493"/></node><node id="-106" lat="30.085164" lon="-97.757705" changeset="false"><tag k="addr:street" v="Crane Road"/><tag k="addr:housenumber" v="13319"/><tag k="coa:place_id" v="82466"/></node><node id="-107" lat="30.083895" lon="-97.704638" changeset="false"><tag k="addr:street" v="Evelyn Road,1100"/><tag k="addr:housenumber" v="6909"/><tag k="coa:place_id" v="1138033"/></node><node id="-108" lat="30.076058" lon="-97.716965" changeset="false"><tag k="addr:street" v="Aquaplex Drive"/><tag k="addr:housenumber" v="12601"/><tag k="coa:place_id" v="87764"/></node><node id="-109" lat="30.075547" lon="-97.717516" changeset="false"><tag k="addr:street" v="Aquaplex Drive"/><tag k="addr:housenumber" v="12609"/><tag k="coa:place_id" v="87766"/></node><node id="-110" lat="30.085426" lon="-97.735823" changeset="false"><tag k="addr:street" v="Farm-to-Market Road 1625"/><tag k="addr:housenumber" v="12526"/><tag k="coa:place_id" v="1145223"/></node><node id="-111" lat="30.065203" lon="-97.70481" changeset="false"><tag k="addr:street" v="Mustang Drive"/><tag k="addr:housenumber" v="12024"/><tag k="coa:place_id" v="3198844"/></node><node id="-112" lat="30.06392" lon="-97.702227" changeset="false"><tag k="addr:street" v="Stallion Drive"/><tag k="addr:housenumber" v="12107"/><tag k="coa:place_id" v="3198856"/></node><node id="-113" lat="30.063451" lon="-97.702646" changeset="false"><tag k="addr:street" v="Stallion Drive"/><tag k="addr:housenumber" v="12111"/><tag k="coa:place_id" v="3198858"/></node><node id="-114" lat="30.063146" lon="-97.702901" changeset="false"><tag k="addr:street" v="Stallion Drive"/><tag k="addr:housenumber" v="12113"/><tag k="coa:place_id" v="3198859"/></node><node id="-115" lat="30.101218" lon="-97.758726" changeset="false"><tag k="addr:street" v="Palmer Road"/><tag k="addr:housenumber" v="12403"/><tag k="coa:place_id" v="3047314"/></node><node id="-116" lat="30.064485" lon="-97.703024" changeset="false"><tag k="addr:street" v="Stallion Drive"/><tag k="addr:housenumber" v="12106"/><tag k="coa:place_id" v="3198867"/></node><node id="-117" lat="30.064031" lon="-97.703454" changeset="false"><tag k="addr:street" v="Stallion Drive"/><tag k="addr:housenumber" v="12118"/><tag k="coa:place_id" v="3198870"/></node><node id="-118" lat="30.062084" lon="-97.707953" changeset="false"><tag k="addr:street" v="Mustang Drive"/><tag k="addr:housenumber" v="12220"/><tag k="coa:place_id" v="3198902"/></node><node id="-119" lat="30.065343" lon="-97.701722" changeset="false"><tag k="addr:street" v="Mustang Drive"/><tag k="addr:housenumber" v="12000"/><tag k="coa:place_id" v="3198904"/></node><node id="-120" lat="30.06863" lon="-97.754559" changeset="false"><tag k="addr:street" v="Graef Road"/><tag k="addr:housenumber" v="14204"/><tag k="coa:place_id" v="1145145"/></node><node id="-121" lat="30.089921" lon="-97.734342" changeset="false"><tag k="addr:street" v="Farm-to-Market Road 1327"/><tag k="addr:housenumber" v="4903"/><tag k="coa:place_id" v="3040946"/></node><node id="-122" lat="30.064508" lon="-97.701661" changeset="false"><tag k="addr:street" v="Stallion Drive"/><tag k="addr:housenumber" v="12101"/><tag k="coa:place_id" v="3198917"/></node><node id="-123" lat="30.061948" lon="-97.705382" changeset="false"><tag k="addr:street" v="Mustang Drive"/><tag k="addr:housenumber" v="12205"/><tag k="coa:place_id" v="3198922"/></node><node id="-124" lat="30.044377" lon="-97.692123" changeset="false"><tag k="addr:street" v="Strategic Drive"/><tag k="addr:housenumber" v="13275"/><tag k="coa:place_id" v="1145351"/></node><node id="-125" lat="30.086868" lon="-97.768256" changeset="false"><tag k="addr:street" v="Palmer Road"/><tag k="addr:housenumber" v="13506"/><tag k="coa:place_id" v="1126587"/></node><node id="-126" lat="30.062982" lon="-97.699976" changeset="false"><tag k="addr:street" v="Margo Drive"/><tag k="addr:housenumber" v="12132"/><tag k="coa:place_id" v="1145650"/></node><node id="-127" lat="30.083932" lon="-97.752524" changeset="false"><tag k="addr:street" v="Wright Road"/><tag k="addr:housenumber" v="13204"/><tag k="coa:place_id" v="3257442"/></node><node id="-128" lat="30.067412" lon="-97.732757" changeset="false"><tag k="addr:street" v="South Turnersville Road,1100"/><tag k="addr:housenumber" v="6133"/><tag k="coa:place_id" v="3217695"/></node><node id="-129" lat="30.044574" lon="-97.694608" changeset="false"><tag k="addr:street" v="Strategic Drive"/><tag k="addr:housenumber" v="13100"/><tag k="coa:place_id" v="1145349"/></node><node id="-130" lat="30.041315" lon="-97.705446" changeset="false"><tag k="addr:street" v="Elm Grove Road"/><tag k="addr:housenumber" v="13312"/><tag k="coa:place_id" v="1145382"/></node><node id="-131" lat="30.065394" lon="-97.718907" changeset="false"><tag k="addr:street" v="Palm Harborway"/><tag k="addr:housenumber" v="12009"/><tag k="coa:place_id" v="3282042"/></node><node id="-132" lat="30.036188" lon="-97.709588" changeset="false"><tag k="addr:street" v="Williamson Road"/><tag k="addr:housenumber" v="8521"/><tag k="coa:place_id" v="3317314"/></node><node id="-133" lat="30.088786" lon="-97.733873" changeset="false"><tag k="addr:street" v="Miller Lane"/><tag k="addr:housenumber" v="5000"/><tag k="coa:place_id" v="3198806"/></node><node id="-134" lat="30.088947" lon="-97.734304" changeset="false"><tag k="addr:street" v="Farm-to-Market Road 1625"/><tag k="addr:housenumber" v="12401"/><tag k="coa:place_id" v="3198810"/></node><node id="-135" lat="30.088256" lon="-97.734008" changeset="false"><tag k="addr:street" v="Miller Lane"/><tag k="addr:housenumber" v="5001"/><tag k="coa:place_id" v="3198811"/></node><node id="-136" lat="30.088038" lon="-97.767401" changeset="false"><tag k="addr:street" v="Palmer Road"/><tag k="addr:housenumber" v="13414"/><tag k="coa:place_id" v="3281182"/></node><node id="-137" lat="30.090315" lon="-97.75645" changeset="false"><tag k="addr:street" v="Wright Road"/><tag k="addr:housenumber" v="12900"/><tag k="coa:place_id" v="3281193"/></node><node id="-138" lat="30.085262" lon="-97.754362" changeset="false"><tag k="addr:street" v="Sonesh Edge Cove"/><tag k="addr:housenumber" v="5019"/><tag k="coa:place_id" v="3281636"/></node><node id="-139" lat="30.086001" lon="-97.755495" changeset="false"><tag k="addr:street" v="Sonesh View Lane"/><tag k="addr:housenumber" v="13040"/><tag k="coa:place_id" v="3281678"/></node><node id="-140" lat="30.056602" lon="-97.716383" changeset="false"><tag k="addr:street" v="Glass Road"/><tag k="addr:housenumber" v="12523"/><tag k="coa:place_id" v="3281706"/></node><node id="-141" lat="30.066812" lon="-97.701813" changeset="false"><tag k="addr:street" v="Filly Cove"/><tag k="addr:housenumber" v="11901"/><tag k="coa:place_id" v="3198828"/></node><node id="-142" lat="30.066558" lon="-97.7019" changeset="false"><tag k="addr:street" v="Filly Cove"/><tag k="addr:housenumber" v="11903"/><tag k="coa:place_id" v="3198829"/></node><node id="-143" lat="30.062016" lon="-97.716113" changeset="false"><tag k="addr:street" v="Appaloosa Court"/><tag k="addr:housenumber" v="7101"/><tag k="coa:place_id" v="3348269"/></node><node id="-144" lat="30.083008" lon="-97.703628" changeset="false"><tag k="addr:street" v="Evelyn Road,1100"/><tag k="addr:housenumber" v="7001"/><tag k="coa:place_id" v="3389124"/></node><node id="-145" lat="30.065683" lon="-97.733776" changeset="false"><tag k="addr:street" v="South Turnersville Road,1100"/><tag k="addr:housenumber" v="6163"/><tag k="coa:place_id" v="3317338"/></node><node id="-146" lat="30.069199" lon="-97.729181" changeset="false"><tag k="addr:street" v="South Turnersville Road,1100"/><tag k="addr:housenumber" v="6034"/><tag k="coa:place_id" v="3317340"/></node><node id="-147" lat="30.068732" lon="-97.701652" changeset="false"><tag k="addr:street" v="Overstreet Circle"/><tag k="addr:housenumber" v="7700"/><tag k="coa:place_id" v="3285613"/></node><node id="-148" lat="30.068172" lon="-97.700748" changeset="false"><tag k="addr:street" v="Overstreet Circle"/><tag k="addr:housenumber" v="7701"/><tag k="coa:place_id" v="3285614"/></node><node id="-149" lat="30.087971" lon="-97.734025" changeset="false"><tag k="addr:street" v="Farm-to-Market Road 1625"/><tag k="addr:housenumber" v="12417"/><tag k="coa:place_id" v="3198812"/></node><node id="-150" lat="30.087149" lon="-97.73454" changeset="false"><tag k="addr:street" v="Farm-to-Market Road 1625"/><tag k="addr:housenumber" v="12501"/><tag k="coa:place_id" v="3198813"/></node><node id="-151" lat="30.058615" lon="-97.717718" changeset="false"><tag k="addr:street" v="Bronco Court"/><tag k="addr:housenumber" v="7019"/><tag k="coa:place_id" v="3348258"/></node><node id="-152" lat="30.087132" lon="-97.768958" changeset="false"><tag k="addr:street" v="South Turnersville Road,1100"/><tag k="addr:housenumber" v="3004"/><tag k="coa:place_id" v="3390248"/></node><node id="-153" lat="30.08623" lon="-97.75132" changeset="false"><tag k="addr:street" v="Wright Road"/><tag k="addr:housenumber" v="13024"/><tag k="coa:place_id" v="3281280"/></node><node id="-154" lat="30.088251" lon="-97.7521" changeset="false"><tag k="addr:street" v="Wright Road"/><tag k="addr:housenumber" v="12960"/><tag k="coa:place_id" v="3281282"/></node><node id="-155" lat="30.089191" lon="-97.753835" changeset="false"><tag k="addr:street" v="Sonesh View Lane"/><tag k="addr:housenumber" v="12900"/><tag k="coa:place_id" v="3281288"/></node><node id="-156" lat="30.088383" lon="-97.754176" changeset="false"><tag k="addr:street" v="Sonesh View Lane"/><tag k="addr:housenumber" v="12916"/><tag k="coa:place_id" v="3281290"/></node><node id="-157" lat="30.037216" lon="-97.708192" changeset="false"><tag k="addr:street" v="Elm Grove Road"/><tag k="addr:housenumber" v="13500"/><tag k="coa:place_id" v="3540628"/></node><node id="-158" lat="30.087294" lon="-97.752125" changeset="false"><tag k="addr:street" v="Sonesh Ridge Court"/><tag k="addr:housenumber" v="4916"/><tag k="coa:place_id" v="3281296"/></node><node id="-159" lat="30.086389" lon="-97.752108" changeset="false"><tag k="addr:street" v="Sonesh Ridge Court"/><tag k="addr:housenumber" v="4935"/><tag k="coa:place_id" v="3281381"/></node><node id="-160" lat="30.077828" lon="-97.740043" changeset="false"><tag k="addr:street" v="South Turnersville Road,1100"/><tag k="addr:housenumber" v="5102"/><tag k="coa:place_id" v="3345917"/></node><node id="-161" lat="30.062308" lon="-97.700941" changeset="false"><tag k="addr:street" v="Margo Drive"/><tag k="addr:housenumber" v="12214"/><tag k="coa:place_id" v="5094505"/></node><node id="-162" lat="30.068206" lon="-97.699878" changeset="false"><tag k="addr:street" v="Overstreet Circle"/><tag k="addr:housenumber" v="7805"/><tag k="coa:place_id" v="3285620"/></node><node id="-163" lat="30.076314" lon="-97.737231" changeset="false"><tag k="addr:street" v="South Turnersville Road,1100"/><tag k="addr:housenumber" v="5300"/><tag k="coa:place_id" v="5139062"/></node><node id="-164" lat="30.063109" lon="-97.741393" changeset="false"><tag k="addr:street" v="Williamson Road"/><tag k="addr:housenumber" v="5507"/><tag k="coa:place_id" v="5108860"/></node><node id="-165" lat="30.073781" lon="-97.718403" changeset="false"><tag k="addr:street" v="Aqualux Cove"/><tag k="addr:housenumber" v="10604"/><tag k="coa:place_id" v="87772"/></node><node id="-166" lat="30.071172" lon="-97.699117" changeset="false"><tag k="addr:street" v="Underwood Drive"/><tag k="addr:housenumber" v="11700"/><tag k="coa:place_id" v="1145604"/></node><node id="-167" lat="30.064272" lon="-97.735485" changeset="false"><tag k="addr:street" v="South Turnersville Road,1100"/><tag k="addr:housenumber" v="6219"/><tag k="coa:place_id" v="1145191"/></node><node id="-168" lat="30.064088" lon="-97.73458" changeset="false"><tag k="addr:street" v="South Turnersville Road,1100"/><tag k="addr:housenumber" v="6212"/><tag k="coa:place_id" v="1145215"/></node><node id="-169" lat="30.043974" lon="-97.694075" changeset="false"><tag k="addr:street" v="Strategic Drive"/><tag k="addr:housenumber" v="13101"/><tag k="coa:place_id" v="1145353"/></node><node id="-170" lat="30.043723" lon="-97.69269" changeset="false"><tag k="addr:street" v="Strategic Drive"/><tag k="addr:housenumber" v="13263"/><tag k="coa:place_id" v="1145354"/></node><node id="-171" lat="30.061435" lon="-97.696162" changeset="false"><tag k="addr:street" v="Maha Court"/><tag k="addr:housenumber" v="8404"/><tag k="coa:place_id" v="1145418"/></node><node id="-172" lat="30.0528" lon="-97.692432" changeset="false"><tag k="addr:street" v="Laws Road"/><tag k="addr:housenumber" v="12702"/><tag k="coa:place_id" v="1145473"/></node><node id="-173" lat="30.075753" lon="-97.717283" changeset="false"><tag k="addr:street" v="Aquaplex Drive"/><tag k="addr:housenumber" v="12605"/><tag k="coa:place_id" v="87765"/></node><node id="-174" lat="30.0894" lon="-97.726076" changeset="false"><tag k="addr:street" v="Farm-to-Market Road 1327"/><tag k="addr:housenumber" v="5401"/><tag k="coa:place_id" v="1145293"/></node><node id="-175" lat="30.074579" lon="-97.718563" changeset="false"><tag k="addr:street" v="Aquaplex Drive"/><tag k="addr:housenumber" v="12709"/><tag k="coa:place_id" v="87770"/></node><node id="-176" lat="30.039697" lon="-97.706459" changeset="false"><tag k="addr:street" v="Elm Grove Road"/><tag k="addr:housenumber" v="13332"/><tag k="coa:place_id" v="1145387"/></node><node id="-177" lat="30.066784" lon="-97.733485" changeset="false"><tag k="addr:street" v="South Turnersville Road,1100"/><tag k="addr:housenumber" v="6145"/><tag k="coa:place_id" v="3214269"/></node><node id="-178" lat="30.059561" lon="-97.694353" changeset="false"><tag k="addr:street" v="Maha Court"/><tag k="addr:housenumber" v="8508"/><tag k="coa:place_id" v="1145443"/></node><node id="-179" lat="30.089469" lon="-97.73386" changeset="false"><tag k="addr:street" v="Farm-to-Market Road 1625"/><tag k="addr:housenumber" v="12307"/><tag k="coa:place_id" v="215841"/></node><node id="-180" lat="30.065097" lon="-97.703636" changeset="false"><tag k="addr:street" v="Mustang Drive"/><tag k="addr:housenumber" v="12019"/><tag k="coa:place_id" v="3198847"/></node><node id="-181" lat="30.064743" lon="-97.705095" changeset="false"><tag k="addr:street" v="Stallion Drive"/><tag k="addr:housenumber" v="12130"/><tag k="coa:place_id" v="3198850"/></node><node id="-182" lat="30.084995" lon="-97.703026" changeset="false"><tag k="addr:street" v="Evelyn Road,1100"/><tag k="addr:housenumber" v="6906"/><tag k="coa:place_id" v="1138031"/></node><node id="-183" lat="30.077022" lon="-97.69366" changeset="false"><tag k="addr:street" v="Evelyn Road,1100"/><tag k="addr:housenumber" v="7900"/><tag k="coa:place_id" v="1145709"/></node><node id="-184" lat="30.075299" lon="-97.717782" changeset="false"><tag k="addr:street" v="Aquaplex Drive"/><tag k="addr:housenumber" v="12613"/><tag k="coa:place_id" v="87767"/></node><node id="-185" lat="30.094787" lon="-97.745812" changeset="false"><tag k="addr:street" v="Farm-to-Market Road 1327"/><tag k="addr:housenumber" v="4105"/><tag k="coa:place_id" v="1145236"/></node><node id="-186" lat="30.090499" lon="-97.705065" changeset="false"><tag k="addr:street" v="Farm-to-Market Road 1327"/><tag k="addr:housenumber" v="6607"/><tag k="coa:place_id" v="1128427"/></node><node id="-187" lat="30.082724" lon="-97.735895" changeset="false"><tag k="addr:street" v="Farm-to-Market Road 1625"/><tag k="addr:housenumber" v="12716"/><tag k="coa:place_id" v="1145226"/></node><node id="-188" lat="30.078521" lon="-97.75162" changeset="false"><tag k="addr:street" v="South Turnersville Road,1100"/><tag k="addr:housenumber" v="4404"/><tag k="coa:place_id" v="79384"/></node><node id="-189" lat="30.062419" lon="-97.737804" changeset="false"><tag k="addr:street" v="Williamson Road"/><tag k="addr:housenumber" v="5716"/><tag k="coa:place_id" v="1145192"/></node><node id="-190" lat="30.063355" lon="-97.703801" changeset="false"><tag k="addr:street" v="Stallion Drive"/><tag k="addr:housenumber" v="12119"/><tag k="coa:place_id" v="3198862"/></node><node id="-191" lat="30.063521" lon="-97.70581" changeset="false"><tag k="addr:street" v="Pinto Circle"/><tag k="addr:housenumber" v="11808"/><tag k="coa:place_id" v="3198883"/></node><node id="-192" lat="30.062447" lon="-97.705075" changeset="false"><tag k="addr:street" v="Bronco Circle"/><tag k="addr:housenumber" v="11903"/><tag k="coa:place_id" v="3198889"/></node><node id="-193" lat="30.066129" lon="-97.70142" changeset="false"><tag k="addr:street" v="Stallion Drive"/><tag k="addr:housenumber" v="12004"/><tag k="coa:place_id" v="3198908"/></node><node id="-194" lat="30.066668" lon="-97.698781" changeset="false"><tag k="addr:street" v="Underwood Drive"/><tag k="addr:housenumber" v="11928"/><tag k="coa:place_id" v="1145625"/></node><node id="-195" lat="30.068919" lon="-97.728363" changeset="false"><tag k="addr:street" v="South Turnersville Road,1100"/><tag k="addr:housenumber" v="6026"/><tag k="coa:place_id" v="1145281"/></node><node id="-196" lat="30.066116" lon="-97.694277" changeset="false"><tag k="addr:street" v="Margo Drive"/><tag k="addr:housenumber" v="12015"/><tag k="coa:place_id" v="3263455"/></node><node id="-197" lat="30.064163" lon="-97.705687" changeset="false"><tag k="addr:street" v="Stallion Drive"/><tag k="addr:housenumber" v="12133"/><tag k="coa:place_id" v="3198853"/></node><node id="-198" lat="30.063004" lon="-97.703196" changeset="false"><tag k="addr:street" v="Stallion Drive"/><tag k="addr:housenumber" v="12115"/><tag k="coa:place_id" v="3198860"/></node><node id="-199" lat="30.04579" lon="-97.692212" changeset="false"><tag k="addr:street" v="Strategic Drive"/><tag k="addr:housenumber" v="13013"/><tag k="coa:place_id" v="1145337"/></node><node id="-200" lat="30.042404" lon="-97.693429" changeset="false"><tag k="addr:street" v="Strategic Drive"/><tag k="addr:housenumber" v="13237"/><tag k="coa:place_id" v="1145370"/></node><node id="-201" lat="30.04209" lon="-97.704327" changeset="false"><tag k="addr:street" v="Elm Grove Road"/><tag k="addr:housenumber" v="13300"/><tag k="coa:place_id" v="1145375"/></node><node id="-202" lat="30.086407" lon="-97.755196" changeset="false"><tag k="addr:street" v="Sonesh View Lane"/><tag k="addr:housenumber" v="13032"/><tag k="coa:place_id" v="3281677"/></node><node id="-203" lat="30.0659" lon="-97.739272" changeset="false"><tag k="addr:street" v="Williamson Road"/><tag k="addr:housenumber" v="5604"/><tag k="coa:place_id" v="3326909"/></node><node id="-204" lat="30.062652" lon="-97.716692" changeset="false"><tag k="addr:street" v="Appaloosa Court"/><tag k="addr:housenumber" v="7007"/><tag k="coa:place_id" v="3388528"/></node><node id="-205" lat="30.03695" lon="-97.708864" changeset="false"><tag k="addr:street" v="Elm Grove Road"/><tag k="addr:housenumber" v="13514"/><tag k="coa:place_id" v="3317347"/></node><node id="-206" lat="30.067144" lon="-97.70229" changeset="false"><tag k="addr:street" v="Filly Cove"/><tag k="addr:housenumber" v="11902"/><tag k="coa:place_id" v="3198823"/></node><node id="-207" lat="30.088456" lon="-97.752506" changeset="false"><tag k="addr:street" v="Wright Road"/><tag k="addr:housenumber" v="12952"/><tag k="coa:place_id" v="3281281"/></node><node id="-208" lat="30.088054" lon="-97.751662" changeset="false"><tag k="addr:street" v="Wright Road"/><tag k="addr:housenumber" v="12968"/><tag k="coa:place_id" v="3281283"/></node><node id="-209" lat="30.087679" lon="-97.750818" changeset="false"><tag k="addr:street" v="Wright Road"/><tag k="addr:housenumber" v="12984"/><tag k="coa:place_id" v="3281285"/></node><node id="-210" lat="30.088063" lon="-97.754329" changeset="false"><tag k="addr:street" v="Sonesh View Lane"/><tag k="addr:housenumber" v="12924"/><tag k="coa:place_id" v="3281291"/></node><node id="-211" lat="30.083621" lon="-97.701705" changeset="false"><tag k="addr:street" v="Evelyn Road,1100"/><tag k="addr:housenumber" v="7100"/><tag k="coa:place_id" v="3207704"/></node><node id="-212" lat="30.057879" lon="-97.718691" changeset="false"><tag k="addr:street" v="Glass Road"/><tag k="addr:housenumber" v="12400"/><tag k="coa:place_id" v="3275676"/></node><node id="-213" lat="30.089579" lon="-97.75669" changeset="false"><tag k="addr:street" v="Crane Road"/><tag k="addr:housenumber" v="12915"/><tag k="coa:place_id" v="3281194"/></node><node id="-214" lat="30.063578" lon="-97.715695" changeset="false"><tag k="addr:street" v="Verde Court"/><tag k="addr:housenumber" v="7007"/><tag k="coa:place_id" v="3369668"/></node><node id="-215" lat="30.086723" lon="-97.751801" changeset="false"><tag k="addr:street" v="Sonesh Ridge Court"/><tag k="addr:housenumber" v="4932"/><tag k="coa:place_id" v="3281298"/></node><node id="-216" lat="30.086443" lon="-97.75257" changeset="false"><tag k="addr:street" v="Sonesh Ridge Court"/><tag k="addr:housenumber" v="4927"/><tag k="coa:place_id" v="3281380"/></node><node id="-217" lat="30.086058" lon="-97.753867" changeset="false"><tag k="addr:street" v="Sonesh Edge Cove"/><tag k="addr:housenumber" v="5008"/><tag k="coa:place_id" v="3281499"/></node><node id="-218" lat="30.085342" lon="-97.753001" changeset="false"><tag k="addr:street" v="Sonesh Edge Cove"/><tag k="addr:housenumber" v="5028"/><tag k="coa:place_id" v="3281621"/></node><node id="-219" lat="30.060551" lon="-97.715443" changeset="false"><tag k="addr:street" v="Glass Road"/><tag k="addr:housenumber" v="12310"/><tag k="coa:place_id" v="3281940"/></node><node id="-220" lat="30.085619" lon="-97.759028" changeset="false"><tag k="addr:street" v="Crane Road"/><tag k="addr:housenumber" v="13303"/><tag k="coa:place_id" v="3281238"/></node><node id="-221" lat="30.038185" lon="-97.70836" changeset="false"><tag k="addr:street" v="Elm Grove Road"/><tag k="addr:housenumber" v="13434"/><tag k="coa:place_id" v="1145307"/></node><node id="-222" lat="30.079557" lon="-97.740556" changeset="false"><tag k="addr:street" v="South Turnersville Road,1100"/><tag k="addr:housenumber" v="5036"/><tag k="coa:place_id" v="3310133"/></node><node id="-223" lat="30.089398" lon="-97.736343" changeset="false"><tag k="addr:street" v="Farm-to-Market Road 1327"/><tag k="addr:housenumber" v="4801"/><tag k="coa:place_id" v="1145249"/></node><node id="-224" lat="30.072085" lon="-97.730169" changeset="false"><tag k="addr:street" v="South Turnersville Road,1100"/><tag k="addr:housenumber" v="5815"/><tag k="coa:place_id" v="1145280"/></node><node id="-225" lat="30.062206" lon="-97.700487" changeset="false"><tag k="addr:street" v="Margo Drive"/><tag k="addr:housenumber" v="12212"/><tag k="coa:place_id" v="1145414"/></node><node id="-226" lat="30.042765" lon="-97.694095" changeset="false"><tag k="addr:street" v="Strategic Drive"/><tag k="addr:housenumber" v="13219"/><tag k="coa:place_id" v="1145367"/></node><node id="-227" lat="30.041558" lon="-97.704678" changeset="false"><tag k="addr:street" v="Elm Grove Road"/><tag k="addr:housenumber" v="13308"/><tag k="coa:place_id" v="1145379"/></node><node id="-228" lat="30.076555" lon="-97.71652" changeset="false"><tag k="addr:street" v="Aquaplex Drive"/><tag k="addr:housenumber" v="12509"/><tag k="coa:place_id" v="87762"/></node><node id="-229" lat="30.059154" lon="-97.692929" changeset="false"><tag k="addr:street" v="Maha Court"/><tag k="addr:housenumber" v="8700"/><tag k="coa:place_id" v="1145447"/></node><node id="-230" lat="30.084077" lon="-97.760154" changeset="false"><tag k="addr:street" v="Crane Road"/><tag k="addr:housenumber" v="13405"/><tag k="coa:place_id" v="82464"/></node><node id="-231" lat="30.067707" lon="-97.729081" changeset="false"><tag k="addr:street" v="South Turnersville Road,1100"/><tag k="addr:housenumber" v="6100"/><tag k="coa:place_id" v="1145283"/></node><node id="-232" lat="30.063953" lon="-97.739935" changeset="false"><tag k="addr:street" v="Williamson Road"/><tag k="addr:housenumber" v="5616"/><tag k="coa:place_id" v="1145217"/></node><node id="-233" lat="30.048962" lon="-97.694118" changeset="false"><tag k="addr:street" v="Elm Grove Road"/><tag k="addr:housenumber" v="12909"/><tag k="coa:place_id" v="1145328"/></node><node id="-234" lat="30.06491" lon="-97.702562" changeset="false"><tag k="addr:street" v="Mustang Drive"/><tag k="addr:housenumber" v="12003"/><tag k="coa:place_id" v="3198836"/></node><node id="-235" lat="30.078504" lon="-97.780621" changeset="false"><tag k="addr:street" v="South Turnersville Road"/><tag k="addr:housenumber" v="14325"/><tag k="coa:place_id" v="3146288"/></node><node id="-236" lat="30.05202" lon="-97.691875" changeset="false"><tag k="addr:street" v="Laws Road"/><tag k="addr:housenumber" v="12707"/><tag k="coa:place_id" v="1145484"/></node><node id="-237" lat="30.044571" lon="-97.693395" changeset="false"><tag k="addr:street" v="Strategic Drive"/><tag k="addr:housenumber" v="13031"/><tag k="coa:place_id" v="1145347"/></node><node id="-238" lat="30.053958" lon="-97.727643" changeset="false"><tag k="addr:street" v="Williamson Road"/><tag k="addr:housenumber" v="6614"/><tag k="coa:place_id" v="3224885"/></node><node id="-239" lat="30.06984" lon="-97.752489" changeset="false"><tag k="addr:street" v="Graef Road"/><tag k="addr:housenumber" v="14101"/><tag k="coa:place_id" v="1145143"/></node><node id="-240" lat="30.063671" lon="-97.702442" changeset="false"><tag k="addr:street" v="Stallion Drive"/><tag k="addr:housenumber" v="12109"/><tag k="coa:place_id" v="3198857"/></node><node id="-241" lat="30.064878" lon="-97.701197" changeset="false"><tag k="addr:street" v="Stallion Drive"/><tag k="addr:housenumber" v="12011"/><tag k="coa:place_id" v="3198915"/></node><node id="-242" lat="30.055917" lon="-97.73046" changeset="false"><tag k="addr:street" v="Williamson Road"/><tag k="addr:housenumber" v="6418"/><tag k="coa:place_id" v="1145205"/></node><node id="-243" lat="30.040979" lon="-97.693276" changeset="false"><tag k="addr:street" v="Strategic Drive"/><tag k="addr:housenumber" v="13232"/><tag k="coa:place_id" v="1145383"/></node><node id="-244" lat="30.063956" lon="-97.703082" changeset="false"><tag k="addr:street" v="Stallion Drive"/><tag k="addr:housenumber" v="12112"/><tag k="coa:place_id" v="3198869"/></node><node id="-245" lat="30.062962" lon="-97.704225" changeset="false"><tag k="addr:street" v="Bronco Circle"/><tag k="addr:housenumber" v="11906"/><tag k="coa:place_id" v="3198892"/></node><node id="-246" lat="30.062815" lon="-97.703992" changeset="false"><tag k="addr:street" v="Bronco Circle"/><tag k="addr:housenumber" v="12000"/><tag k="coa:place_id" v="3198893"/></node><node id="-247" lat="30.062787" lon="-97.706094" changeset="false"><tag k="addr:street" v="Pinto Circle"/><tag k="addr:housenumber" v="11807"/><tag k="coa:place_id" v="3198882"/></node><node id="-248" lat="30.062289" lon="-97.707754" changeset="false"><tag k="addr:street" v="Mustang Drive"/><tag k="addr:housenumber" v="12218"/><tag k="coa:place_id" v="3198901"/></node><node id="-249" lat="30.060647" lon="-97.702374" changeset="false"><tag k="addr:street" v="Margo Drive"/><tag k="addr:housenumber" v="12306"/><tag k="coa:place_id" v="1145430"/></node><node id="-250" lat="30.064892" lon="-97.705349" changeset="false"><tag k="addr:street" v="Stallion Drive"/><tag k="addr:housenumber" v="12132"/><tag k="coa:place_id" v="3198852"/></node><node id="-251" lat="30.06078" lon="-97.718008" changeset="false"><tag k="addr:street" v="Palm Harborway"/><tag k="addr:housenumber" v="12304"/><tag k="coa:place_id" v="3281912"/></node><node id="-252" lat="30.071908" lon="-97.754313" changeset="false"><tag k="addr:street" v="Graef Road"/><tag k="addr:housenumber" v="14024"/><tag k="coa:place_id" v="3363871"/></node><node id="-253" lat="30.085066" lon="-97.753945" changeset="false"><tag k="addr:street" v="Sonesh Edge Cove"/><tag k="addr:housenumber" v="5027"/><tag k="coa:place_id" v="3281637"/></node><node id="-254" lat="30.066358" lon="-97.702136" changeset="false"><tag k="addr:street" v="Filly Cove"/><tag k="addr:housenumber" v="11907"/><tag k="coa:place_id" v="3198830"/></node><node id="-255" lat="30.065709" lon="-97.702137" changeset="false"><tag k="addr:street" v="Mustang Drive"/><tag k="addr:housenumber" v="12004"/><tag k="coa:place_id" v="3198831"/></node><node id="-256" lat="30.055363" lon="-97.714963" changeset="false"><tag k="addr:street" v="Glass Road"/><tag k="addr:housenumber" v="12551"/><tag k="coa:place_id" v="3348298"/></node><node id="-257" lat="30.071366" lon="-97.746745" changeset="false"><tag k="addr:street" v="South Turnersville Road,1100"/><tag k="addr:housenumber" v="4801"/><tag k="coa:place_id" v="3266167"/></node><node id="-258" lat="30.066227" lon="-97.693934" changeset="false"><tag k="addr:street" v="Margo Drive"/><tag k="addr:housenumber" v="12009"/><tag k="coa:place_id" v="3263453"/></node><node id="-259" lat="30.086853" lon="-97.734082" changeset="false"><tag k="addr:street" v="Hartung Lane"/><tag k="addr:housenumber" v="5008"/><tag k="coa:place_id" v="3369974"/></node><node id="-260" lat="30.040291" lon="-97.712889" changeset="false"><tag k="addr:street" v="Williamson Road"/><tag k="addr:housenumber" v="8202"/><tag k="coa:place_id" v="3317302"/></node><node id="-261" lat="30.066878" lon="-97.732625" changeset="false"><tag k="addr:street" v="South Turnersville Road,1100"/><tag k="addr:housenumber" v="6141"/><tag k="coa:place_id" v="3317330"/></node><node id="-262" lat="30.084915" lon="-97.759171" changeset="false"><tag k="addr:street" v="Crane Road"/><tag k="addr:housenumber" v="13315"/><tag k="coa:place_id" v="3281239"/></node><node id="-263" lat="30.088792" lon="-97.754072" changeset="false"><tag k="addr:street" v="Sonesh View Lane"/><tag k="addr:housenumber" v="12908"/><tag k="coa:place_id" v="3281289"/></node><node id="-264" lat="30.063089" lon="-97.757445" changeset="false"><tag k="addr:street" v="Graef Road"/><tag k="addr:housenumber" v="14610"/><tag k="coa:place_id" v="1145155"/></node><node id="-265" lat="30.087032" lon="-97.75379" changeset="false"><tag k="addr:street" v="Sonesh Ridge Court"/><tag k="addr:housenumber" v="4901"/><tag k="coa:place_id" v="3281301"/></node><node id="-266" lat="30.085862" lon="-97.753461" changeset="false"><tag k="addr:street" v="Sonesh Edge Cove"/><tag k="addr:housenumber" v="5016"/><tag k="coa:place_id" v="3281500"/></node><node id="-267" lat="30.085682" lon="-97.753013" changeset="false"><tag k="addr:street" v="Sonesh Edge Cove"/><tag k="addr:housenumber" v="5024"/><tag k="coa:place_id" v="3281501"/></node><node id="-268" lat="30.085629" lon="-97.755227" changeset="false"><tag k="addr:street" v="Sonesh Edge Cove"/><tag k="addr:housenumber" v="5001"/><tag k="coa:place_id" v="3281623"/></node><node id="-269" lat="30.06942" lon="-97.700843" changeset="false"><tag k="addr:street" v="Overstreet Circle"/><tag k="addr:housenumber" v="7710"/><tag k="coa:place_id" v="3285617"/></node><node id="-270" lat="30.079012" lon="-97.752255" changeset="false"><tag k="addr:street" v="South Turnersville Road,1100"/><tag k="addr:housenumber" v="4200"/><tag k="coa:place_id" v="3504106"/></node><node id="-271" lat="30.088788" lon="-97.733557" changeset="false"><tag k="addr:street" v="Miller Lane"/><tag k="addr:housenumber" v="5006"/><tag k="coa:place_id" v="3198807"/></node><node id="-272" lat="30.088674" lon="-97.733147" changeset="false"><tag k="addr:street" v="Miller Lane"/><tag k="addr:housenumber" v="5010"/><tag k="coa:place_id" v="3198808"/></node><node id="-273" lat="30.08746" lon="-97.754602" changeset="false"><tag k="addr:street" v="Sonesh View Lane"/><tag k="addr:housenumber" v="13008"/><tag k="coa:place_id" v="3281674"/></node><node id="-274" lat="30.055144" lon="-97.714194" changeset="false"><tag k="addr:street" v="Glass Road"/><tag k="addr:housenumber" v="12553"/><tag k="coa:place_id" v="3281710"/></node><node id="-275" lat="30.054344" lon="-97.712448" changeset="false"><tag k="addr:street" v="Glass Road"/><tag k="addr:housenumber" v="12639"/><tag k="coa:place_id" v="3281711"/></node><node id="-276" lat="30.089296" lon="-97.711227" changeset="false"><tag k="addr:street" v="Farm-to-Market Road 1327"/><tag k="addr:housenumber" v="6309"/><tag k="coa:place_id" v="3524102"/></node><node id="-277" lat="30.03198" lon="-97.704416" changeset="false"><tag k="addr:street" v="Williamson Road"/><tag k="addr:housenumber" v="9011"/><tag k="coa:place_id" v="5093288"/></node><node id="-278" lat="30.081847" lon="-97.74277" changeset="false"><tag k="addr:street" v="Farm-to-Market Road 1625"/><tag k="addr:housenumber" v="12940"/><tag k="coa:place_id" v="5093604"/></node><node id="-279" lat="30.077227" lon="-97.715667" changeset="false"><tag k="addr:street" v="Aquaplex Drive"/><tag k="addr:housenumber" v="12415"/><tag k="coa:place_id" v="87759"/></node><node id="-280" lat="30.084841" lon="-97.695865" changeset="false"><tag k="addr:street" v="Tom Sassman Road"/><tag k="addr:housenumber" v="11505"/><tag k="coa:place_id" v="5001171"/></node><node id="-281" lat="30.065322" lon="-97.702848" changeset="false"><tag k="addr:street" v="Mustang Drive"/><tag k="addr:housenumber" v="12007"/><tag k="coa:place_id" v="3198838"/></node><node id="-282" lat="30.065739" lon="-97.704181" changeset="false"><tag k="addr:street" v="Mustang Drive"/><tag k="addr:housenumber" v="12020"/><tag k="coa:place_id" v="3198842"/></node><node id="-283" lat="30.065488" lon="-97.704517" changeset="false"><tag k="addr:street" v="Mustang Drive"/><tag k="addr:housenumber" v="12022"/><tag k="coa:place_id" v="3198843"/></node><node id="-284" lat="30.065316" lon="-97.703158" changeset="false"><tag k="addr:street" v="Mustang Drive"/><tag k="addr:housenumber" v="12015"/><tag k="coa:place_id" v="3198845"/></node><node id="-285" lat="30.063792" lon="-97.704629" changeset="false"><tag k="addr:street" v="Stallion Drive"/><tag k="addr:housenumber" v="12125"/><tag k="coa:place_id" v="3198865"/></node><node id="-286" lat="30.064347" lon="-97.703977" changeset="false"><tag k="addr:street" v="Stallion Drive"/><tag k="addr:housenumber" v="12122"/><tag k="coa:place_id" v="3198872"/></node><node id="-287" lat="30.063577" lon="-97.706046" changeset="false"><tag k="addr:street" v="Pinto Circle"/><tag k="addr:housenumber" v="11806"/><tag k="coa:place_id" v="3198881"/></node><node id="-288" lat="30.062626" lon="-97.703771" changeset="false"><tag k="addr:street" v="Bronco Circle"/><tag k="addr:housenumber" v="12002"/><tag k="coa:place_id" v="3198894"/></node><node id="-289" lat="30.064261" lon="-97.706008" changeset="false"><tag k="addr:street" v="Stallion Drive"/><tag k="addr:housenumber" v="12135"/><tag k="coa:place_id" v="3198854"/></node><node id="-290" lat="30.063196" lon="-97.703471" changeset="false"><tag k="addr:street" v="Stallion Drive"/><tag k="addr:housenumber" v="12117"/><tag k="coa:place_id" v="3198861"/></node><node id="-291" lat="30.087425" lon="-97.704394" changeset="false"><tag k="addr:street" v="Evelyn Road,1100"/><tag k="addr:housenumber" v="6712"/><tag k="coa:place_id" v="1138034"/></node><node id="-292" lat="30.050889" lon="-97.693283" changeset="false"><tag k="addr:street" v="Laws Road"/><tag k="addr:housenumber" v="12733"/><tag k="coa:place_id" v="1145318"/></node><node id="-293" lat="30.059204" lon="-97.734223" changeset="false"><tag k="addr:street" v="Williamson Road"/><tag k="addr:housenumber" v="6108"/><tag k="coa:place_id" v="1145199"/></node><node id="-294" lat="30.088901" lon="-97.757311" changeset="false"><tag k="addr:street" v="Crane Road"/><tag k="addr:housenumber" v="13009"/><tag k="coa:place_id" v="3041088"/></node><node id="-295" lat="30.087995" lon="-97.770864" changeset="false"><tag k="addr:street" v="South Turnersville Road,1100"/><tag k="addr:housenumber" v="2808"/><tag k="coa:place_id" v="73475"/></node><node id="-296" lat="30.067816" lon="-97.758392" changeset="false"><tag k="addr:street" v="Graef Road"/><tag k="addr:housenumber" v="14400"/><tag k="coa:place_id" v="1145147"/></node><node id="-297" lat="30.062658" lon="-97.699964" changeset="false"><tag k="addr:street" v="Margo Drive"/><tag k="addr:housenumber" v="12200"/><tag k="coa:place_id" v="1145409"/></node><node id="-298" lat="30.084749" lon="-97.75244" changeset="false"><tag k="addr:street" v="Wright Road"/><tag k="addr:housenumber" v="13124"/><tag k="coa:place_id" v="3281277"/></node><node id="-299" lat="30.077122" lon="-97.741129" changeset="false"><tag k="addr:street" v="South Turnersville Road,1100"/><tag k="addr:housenumber" v="5008"/><tag k="coa:place_id" v="3345952"/></node><node id="-300" lat="30.077051" lon="-97.736556" changeset="false"><tag k="addr:street" v="Farm-to-Market Road 1625"/><tag k="addr:housenumber" v="13116"/><tag k="coa:place_id" v="3323579"/></node><node id="-301" lat="30.033087" lon="-97.705645" changeset="false"><tag k="addr:street" v="Williamson Road"/><tag k="addr:housenumber" v="8917"/><tag k="coa:place_id" v="5279423"/></node><node id="-302" lat="30.058882" lon="-97.714474" changeset="false"><tag k="addr:street" v="Glass Road"/><tag k="addr:housenumber" v="12305"/><tag k="coa:place_id" v="3281903"/></node><node id="-303" lat="30.05798" lon="-97.716237" changeset="false"><tag k="addr:street" v="Glass Road"/><tag k="addr:housenumber" v="12409"/><tag k="coa:place_id" v="3281904"/></node><node id="-304" lat="30.08561" lon="-97.734631" changeset="false"><tag k="addr:street" v="Farm-to-Market Road 1625"/><tag k="addr:housenumber" v="12523"/><tag k="coa:place_id" v="3198819"/></node><node id="-305" lat="30.087528" lon="-97.767665" changeset="false"><tag k="addr:street" v="Palmer Road"/><tag k="addr:housenumber" v="13420"/><tag k="coa:place_id" v="3375572"/></node><node id="-306" lat="30.087132" lon="-97.754745" changeset="false"><tag k="addr:street" v="Sonesh View Lane"/><tag k="addr:housenumber" v="13016"/><tag k="coa:place_id" v="3281675"/></node><node id="-307" lat="30.075244" lon="-97.741084" changeset="false"><tag k="addr:street" v="South Turnersville Road,1100"/><tag k="addr:housenumber" v="4915"/><tag k="coa:place_id" v="3345999"/></node><node id="-308" lat="30.082415" lon="-97.699595" changeset="false"><tag k="addr:street" v="Evelyn Road,1100"/><tag k="addr:housenumber" v="7302"/><tag k="coa:place_id" v="3207679"/></node><node id="-309" lat="30.086742" lon="-97.750946" changeset="false"><tag k="addr:street" v="Wright Road"/><tag k="addr:housenumber" v="13012"/><tag k="coa:place_id" v="3281279"/></node><node id="-310" lat="30.066669" lon="-97.703003" changeset="false"><tag k="addr:street" v="Filly Cove"/><tag k="addr:housenumber" v="11908"/><tag k="coa:place_id" v="3198826"/></node><node id="-311" lat="30.037549" lon="-97.711459" changeset="false"><tag k="addr:street" v="Williamson Road"/><tag k="addr:housenumber" v="8411"/><tag k="coa:place_id" v="3317313"/></node><node id="-312" lat="30.065911" lon="-97.733465" changeset="false"><tag k="addr:street" v="South Turnersville Road,1100"/><tag k="addr:housenumber" v="6151"/><tag k="coa:place_id" v="3317337"/></node><node id="-313" lat="30.069476" lon="-97.698954" changeset="false"><tag k="addr:street" v="Overstreet Circle"/><tag k="addr:housenumber" v="7816"/><tag k="coa:place_id" v="3285626"/></node><node id="-314" lat="30.089214" lon="-97.756947" changeset="false"><tag k="addr:street" v="Crane Road"/><tag k="addr:housenumber" v="13001"/><tag k="coa:place_id" v="3281197"/></node><node id="-315" lat="30.087753" lon="-97.757878" changeset="false"><tag k="addr:street" v="Crane Road"/><tag k="addr:housenumber" v="13109"/><tag k="coa:place_id" v="3281201"/></node><node id="-316" lat="30.059689" lon="-97.716552" changeset="false"><tag k="addr:street" v="Palm Harborway"/><tag k="addr:housenumber" v="12320"/><tag k="coa:place_id" v="3368014"/></node><node id="-317" lat="30.093029" lon="-97.76288" changeset="false"><tag k="addr:street" v="Palmer Road"/><tag k="addr:housenumber" v="13001"/><tag k="coa:place_id" v="3280304"/></node><node id="-318" lat="30.06539" lon="-97.739997" changeset="false"><tag k="addr:street" v="Williamson Road"/><tag k="addr:housenumber" v="5600"/><tag k="coa:place_id" v="3326908"/></node><node id="-319" lat="30.064175" lon="-97.700391" changeset="false"><tag k="addr:street" v="Margo Cove"/><tag k="addr:housenumber" v="8001"/><tag k="coa:place_id" v="3390757"/></node><node id="-320" lat="30.083154" lon="-97.781223" changeset="false"><tag k="addr:street" v="South Turnersville Road"/><tag k="addr:housenumber" v="14107"/><tag k="coa:place_id" v="3322637"/></node><node id="-321" lat="30.060292" lon="-97.718524" changeset="false"><tag k="addr:street" v="Bronco Court"/><tag k="addr:housenumber" v="6904"/><tag k="coa:place_id" v="3281908"/></node><node id="-322" lat="30.059723" lon="-97.717856" changeset="false"><tag k="addr:street" v="Bronco Court"/><tag k="addr:housenumber" v="7006"/><tag k="coa:place_id" v="3281910"/></node><node id="-323" lat="30.087743" lon="-97.754409" changeset="false"><tag k="addr:street" v="Sonesh View Lane"/><tag k="addr:housenumber" v="13000"/><tag k="coa:place_id" v="3281673"/></node><node id="-324" lat="30.08676" lon="-97.754971" changeset="false"><tag k="addr:street" v="Sonesh View Lane"/><tag k="addr:housenumber" v="13024"/><tag k="coa:place_id" v="3281676"/></node><node id="-325" lat="30.039119" lon="-97.705297" changeset="false"><tag k="addr:street" v="Elm Grove Road"/><tag k="addr:housenumber" v="13401"/><tag k="coa:place_id" v="3393198"/></node><node id="-326" lat="30.06382" lon="-97.698999" changeset="false"><tag k="addr:street" v="Margo Cove"/><tag k="addr:housenumber" v="8008"/><tag k="coa:place_id" v="3390100"/></node><node id="-327" lat="30.040582" lon="-97.713285" changeset="false"><tag k="addr:street" v="Williamson Road"/><tag k="addr:housenumber" v="8106"/><tag k="coa:place_id" v="3317305"/></node><node id="-328" lat="30.037704" lon="-97.709826" changeset="false"><tag k="addr:street" v="Williamson Road"/><tag k="addr:housenumber" v="8504"/><tag k="coa:place_id" v="3317307"/></node><node id="-329" lat="30.067743" lon="-97.732185" changeset="false"><tag k="addr:street" v="South Turnersville Road,1100"/><tag k="addr:housenumber" v="6119"/><tag k="coa:place_id" v="3317334"/></node><node id="-330" lat="30.099352" lon="-97.812577" changeset="false"><tag k="addr:street" v="Interstate 35 Frontage Road"/><tag k="addr:housenumber" v="13925 1/2"/><tag k="coa:place_id" v="3326232"/></node><node id="-331" lat="30.090239" lon="-97.700847" changeset="false"><tag k="addr:street" v="Farm-to-Market Road 1327"/><tag k="addr:housenumber" v="6709"/><tag k="coa:place_id" v="5092617"/></node><node id="-332" lat="30.059371" lon="-97.702532" changeset="false"><tag k="addr:street" v="Margo Drive"/><tag k="addr:housenumber" v="12315"/><tag k="coa:place_id" v="3500302"/></node><node id="-333" lat="30.088257" lon="-97.753263" changeset="false"><tag k="addr:street" v="Sonesh View Lane"/><tag k="addr:housenumber" v="12909"/><tag k="coa:place_id" v="3281292"/></node><node id="-334" lat="30.043037" lon="-97.701175" changeset="false"><tag k="addr:street" v="Elm Grove Road"/><tag k="addr:housenumber" v="13147"/><tag k="coa:place_id" v="3511739"/></node><node id="-335" lat="30.085467" lon="-97.754768" changeset="false"><tag k="addr:street" v="Sonesh Edge Cove"/><tag k="addr:housenumber" v="5009"/><tag k="coa:place_id" v="3281624"/></node><node id="-336" lat="30.04013" lon="-97.711953" changeset="false"><tag k="addr:street" v="Williamson Road"/><tag k="addr:housenumber" v="8208"/><tag k="coa:place_id" v="3294154"/></node><node id="-337" lat="30.066" lon="-97.702571" changeset="false"><tag k="addr:street" v="Mustang Drive"/><tag k="addr:housenumber" v="12008"/><tag k="coa:place_id" v="3198833"/></node><node id="-338" lat="30.087107" lon="-97.751729" changeset="false"><tag k="addr:street" v="Sonesh Ridge Court"/><tag k="addr:housenumber" v="4924"/><tag k="coa:place_id" v="3281297"/></node><node id="-339" lat="30.086666" lon="-97.752945" changeset="false"><tag k="addr:street" v="Sonesh Ridge Court"/><tag k="addr:housenumber" v="4919"/><tag k="coa:place_id" v="3281379"/></node><node id="-340" lat="30.08875" lon="-97.732788" changeset="false"><tag k="addr:street" v="Miller Lane"/><tag k="addr:housenumber" v="5016"/><tag k="coa:place_id" v="3198809"/></node><node id="-341" lat="30.051749" lon="-97.692432" changeset="false"><tag k="addr:street" v="Laws Road"/><tag k="addr:housenumber" v="12715"/><tag k="coa:place_id" v="1145487"/></node><node id="-342" lat="30.062903" lon="-97.738581" changeset="false"><tag k="addr:street" v="Williamson Road"/><tag k="addr:housenumber" v="5706"/><tag k="coa:place_id" v="1145221"/></node><node id="-343" lat="30.068925" lon="-97.754046" changeset="false"><tag k="addr:street" v="Graef Road"/><tag k="addr:housenumber" v="14200"/><tag k="coa:place_id" v="220420"/></node><node id="-344" lat="30.062844" lon="-97.698527" changeset="false"><tag k="addr:street" v="Margo Drive"/><tag k="addr:housenumber" v="12123"/><tag k="coa:place_id" v="1145408"/></node><node id="-345" lat="30.06038" lon="-97.695034" changeset="false"><tag k="addr:street" v="Maha Court"/><tag k="addr:housenumber" v="8414"/><tag k="coa:place_id" v="1145432"/></node><node id="-346" lat="30.094275" lon="-97.804747" changeset="false"><tag k="addr:street" v="South Turnersville Road,1100"/><tag k="addr:housenumber" v="1529"/><tag k="coa:place_id" v="3219559"/></node><node id="-347" lat="30.06969" lon="-97.730025" changeset="false"><tag k="addr:street" v="South Turnersville Road,1100"/><tag k="addr:housenumber" v="6033"/><tag k="coa:place_id" v="3317335"/></node><node id="-348" lat="30.06524" lon="-97.700802" changeset="false"><tag k="addr:street" v="Stallion Drive"/><tag k="addr:housenumber" v="12007"/><tag k="coa:place_id" v="3198913"/></node><node id="-349" lat="30.06507" lon="-97.701019" changeset="false"><tag k="addr:street" v="Stallion Drive"/><tag k="addr:housenumber" v="12009"/><tag k="coa:place_id" v="3198914"/></node><node id="-350" lat="30.061531" lon="-97.707012" changeset="false"><tag k="addr:street" v="Mustang Drive"/><tag k="addr:housenumber" v="12219"/><tag k="coa:place_id" v="3198929"/></node><node id="-351" lat="30.072318" lon="-97.698951" changeset="false"><tag k="addr:street" v="Underwood Drive"/><tag k="addr:housenumber" v="11616"/><tag k="coa:place_id" v="1145597"/></node><node id="-352" lat="30.071165" lon="-97.698002" changeset="false"><tag k="addr:street" v="Underwood Drive"/><tag k="addr:housenumber" v="11707"/><tag k="coa:place_id" v="1145603"/></node><node id="-353" lat="30.069097" lon="-97.697881" changeset="false"><tag k="addr:street" v="Underwood Drive"/><tag k="addr:housenumber" v="11815"/><tag k="coa:place_id" v="1145613"/></node><node id="-354" lat="30.087376" lon="-97.750445" changeset="false"><tag k="addr:street" v="Wright Road"/><tag k="addr:housenumber" v="13000"/><tag k="coa:place_id" v="3281278"/></node><node id="-355" lat="30.087318" lon="-97.758191" changeset="false"><tag k="addr:street" v="Crane Road"/><tag k="addr:housenumber" v="13119"/><tag k="coa:place_id" v="3281227"/></node><node id="-356" lat="30.096367" lon="-97.754904" changeset="false"><tag k="addr:street" v="Wright Road"/><tag k="addr:housenumber" v="12425"/><tag k="coa:place_id" v="3047290"/></node><node id="-357" lat="30.085419" lon="-97.751918" changeset="false"><tag k="addr:street" v="Wright Road"/><tag k="addr:housenumber" v="13108"/><tag k="coa:place_id" v="3281275"/></node><node id="-358" lat="30.069444" lon="-97.699913" changeset="false"><tag k="addr:street" v="Overstreet Circle"/><tag k="addr:housenumber" v="7804"/><tag k="coa:place_id" v="3285619"/></node><node id="-359" lat="30.078783" lon="-97.712641" changeset="false"><tag k="addr:street" v="Aquaplex Drive"/><tag k="addr:housenumber" v="12301"/><tag k="coa:place_id" v="87752"/></node><node id="-360" lat="30.044403" lon="-97.699115" changeset="false"><tag k="addr:street" v="Elm Grove Road"/><tag k="addr:housenumber" v="13103"/><tag k="coa:place_id" v="1145348"/></node><node id="-361" lat="30.085057" lon="-97.752206" changeset="false"><tag k="addr:street" v="Wright Road"/><tag k="addr:housenumber" v="13116"/><tag k="coa:place_id" v="3281276"/></node><node id="-362" lat="30.064193" lon="-97.703696" changeset="false"><tag k="addr:street" v="Stallion Drive"/><tag k="addr:housenumber" v="12120"/><tag k="coa:place_id" v="3198871"/></node><node id="-363" lat="30.062868" lon="-97.706804" changeset="false"><tag k="addr:street" v="Pinto Circle"/><tag k="addr:housenumber" v="11803"/><tag k="coa:place_id" v="3198878"/></node><node id="-364" lat="30.06221" lon="-97.706406" changeset="false"><tag k="addr:street" v="Mustang Drive"/><tag k="addr:housenumber" v="12208"/><tag k="coa:place_id" v="3198896"/></node><node id="-365" lat="30.062264" lon="-97.706043" changeset="false"><tag k="addr:street" v="Mustang Drive"/><tag k="addr:housenumber" v="12204"/><tag k="coa:place_id" v="3198903"/></node><node id="-366" lat="30.041388" lon="-97.694146" changeset="false"><tag k="addr:street" v="Strategic Drive"/><tag k="addr:housenumber" v="13228"/><tag k="coa:place_id" v="1145378"/></node><node id="-367" lat="30.064589" lon="-97.704569" changeset="false"><tag k="addr:street" v="Stallion Drive"/><tag k="addr:housenumber" v="12126"/><tag k="coa:place_id" v="3198874"/></node><node id="-368" lat="30.077174" lon="-97.741025" changeset="false"><tag k="addr:street" v="South Turnersville Road,1100"/><tag k="addr:housenumber" v="5012"/><tag k="coa:place_id" v="3345953"/></node><node id="-369" lat="30.077667" lon="-97.740917" changeset="false"><tag k="addr:street" v="South Turnersville Road,1100"/><tag k="addr:housenumber" v="5020"/><tag k="coa:place_id" v="3345956"/></node><node id="-370" lat="30.076601" lon="-97.736576" changeset="false"><tag k="addr:street" v="Farm-to-Market Road 1625"/><tag k="addr:housenumber" v="13204"/><tag k="coa:place_id" v="3323580"/></node><node id="-371" lat="30.112211" lon="-97.805973" changeset="false"><tag k="addr:street" v="Interstate 35 Frontage Road"/><tag k="addr:housenumber" v="13111"/><tag k="coa:place_id" v="1145133"/></node><node id="-372" lat="30.088644" lon="-97.734125" changeset="false"><tag k="addr:street" v="Miller Lane"/><tag k="addr:housenumber" v="4904"/><tag k="coa:place_id" v="3198805"/></node><node id="-373" lat="30.077432" lon="-97.775882" changeset="false"><tag k="addr:street" v="South Turnersville Road"/><tag k="addr:housenumber" v="14401"/><tag k="coa:place_id" v="3499151"/></node><node id="-374" lat="30.058526" lon="-97.733269" changeset="false"><tag k="addr:street" v="Williamson Road"/><tag k="addr:housenumber" v="6118"/><tag k="coa:place_id" v="1145201"/></node><node id="-375" lat="30.087025" lon="-97.734553" changeset="false"><tag k="addr:street" v="Farm-to-Market Road 1625"/><tag k="addr:housenumber" v="12503"/><tag k="coa:place_id" v="3198814"/></node><node id="-376" lat="30.067034" lon="-97.702063" changeset="false"><tag k="addr:street" v="Filly Cove"/><tag k="addr:housenumber" v="11900"/><tag k="coa:place_id" v="3198822"/></node><node id="-377" lat="30.066254" lon="-97.703432" changeset="false"><tag k="addr:street" v="Mustang Drive"/><tag k="addr:housenumber" v="12014"/><tag k="coa:place_id" v="3198839"/></node><node id="-378" lat="30.065911" lon="-97.70394" changeset="false"><tag k="addr:street" v="Mustang Drive"/><tag k="addr:housenumber" v="12018"/><tag k="coa:place_id" v="3198841"/></node><node id="-379" lat="30.065207" lon="-97.703397" changeset="false"><tag k="addr:street" v="Mustang Drive"/><tag k="addr:housenumber" v="12017"/><tag k="coa:place_id" v="3198846"/></node><node id="-380" lat="30.065015" lon="-97.70383" changeset="false"><tag k="addr:street" v="Mustang Drive"/><tag k="addr:housenumber" v="12021"/><tag k="coa:place_id" v="3198848"/></node><node id="-381" lat="30.064974" lon="-97.704177" changeset="false"><tag k="addr:street" v="Mustang Drive"/><tag k="addr:housenumber" v="12023"/><tag k="coa:place_id" v="3198849"/></node><node id="-382" lat="30.063792" lon="-97.697473" changeset="false"><tag k="addr:street" v="Margo Drive"/><tag k="addr:housenumber" v="12101"/><tag k="coa:place_id" v="1145645"/></node><node id="-383" lat="30.086218" lon="-97.754285" changeset="false"><tag k="addr:street" v="Sonesh Edge Cove"/><tag k="addr:housenumber" v="5000"/><tag k="coa:place_id" v="3281498"/></node><node id="-384" lat="30.050535" lon="-97.725893" changeset="false"><tag k="addr:street" v="Williamson Road"/><tag k="addr:housenumber" v="6820"/><tag k="coa:place_id" v="5111518"/></node><node id="-385" lat="30.066047" lon="-97.756293" changeset="false"><tag k="addr:street" v="Graef Road"/><tag k="addr:housenumber" v="14412"/><tag k="coa:place_id" v="1145149"/></node><node id="-386" lat="30.090604" lon="-97.704408" changeset="false"><tag k="addr:street" v="Farm-to-Market Road 1327"/><tag k="addr:housenumber" v="6609"/><tag k="coa:place_id" v="1128428"/></node><node id="-387" lat="30.043483" lon="-97.69133" changeset="false"><tag k="addr:street" v="Strategic Drive"/><tag k="addr:housenumber" v="13265"/><tag k="coa:place_id" v="1145358"/></node><node id="-388" lat="30.082673" lon="-97.700571" changeset="false"><tag k="addr:street" v="Evelyn Road,1100"/><tag k="addr:housenumber" v="7204"/><tag k="coa:place_id" v="3207783"/></node><node id="-389" lat="30.078478" lon="-97.751531" changeset="false"><tag k="addr:street" v="South Turnersville Road,1100"/><tag k="addr:housenumber" v="4406"/><tag k="coa:place_id" v="79383"/></node><node id="-390" lat="30.04332" lon="-97.694757" changeset="false"><tag k="addr:street" v="Strategic Drive"/><tag k="addr:housenumber" v="13201"/><tag k="coa:place_id" v="1145362"/></node><node id="-391" lat="30.042447" lon="-97.694973" changeset="false"><tag k="addr:street" v="Strategic Drive"/><tag k="addr:housenumber" v="13204"/><tag k="coa:place_id" v="1145369"/></node><node id="-392" lat="30.08557" lon="-97.735592" changeset="false"><tag k="addr:street" v="Farm-to-Market Road 1625"/><tag k="addr:housenumber" v="12522"/><tag k="coa:place_id" v="1145222"/></node><node id="-393" lat="30.076995" lon="-97.715918" changeset="false"><tag k="addr:street" v="Aquaplex Drive"/><tag k="addr:housenumber" v="12501"/><tag k="coa:place_id" v="87760"/></node><node id="-394" lat="30.105932" lon="-97.809457" changeset="false"><tag k="addr:street" v="Interstate 35 Frontage Road"/><tag k="addr:housenumber" v="13401"/><tag k="coa:place_id" v="225835"/></node><node id="-395" lat="30.052315" lon="-97.692428" changeset="false"><tag k="addr:street" v="Laws Road"/><tag k="addr:housenumber" v="12706"/><tag k="coa:place_id" v="1145480"/></node><node id="-396" lat="30.088254" lon="-97.790281" changeset="false"><tag k="addr:street" v="South Turnersville Road,1100"/><tag k="addr:housenumber" v="1901"/><tag k="coa:place_id" v="3146102"/></node><node id="-397" lat="30.073457" lon="-97.718202" changeset="false"><tag k="addr:street" v="Aqualux Cove"/><tag k="addr:housenumber" v="10700"/><tag k="coa:place_id" v="87773"/></node><node id="-398" lat="30.101003" lon="-97.75975" changeset="false"><tag k="addr:street" v="Palmer Road"/><tag k="addr:housenumber" v="12409"/><tag k="coa:place_id" v="3047313"/></node><node id="-399" lat="30.100457" lon="-97.758023" changeset="false"><tag k="addr:street" v="Farm-to-Market Road 1327"/><tag k="addr:housenumber" v="3207"/><tag k="coa:place_id" v="3047304"/></node><node id="-400" lat="30.051246" lon="-97.692983" changeset="false"><tag k="addr:street" v="Laws Road"/><tag k="addr:housenumber" v="12727"/><tag k="coa:place_id" v="1145494"/></node><node id="-401" lat="30.055313" lon="-97.729427" changeset="false"><tag k="addr:street" v="Williamson Road"/><tag k="addr:housenumber" v="6506"/><tag k="coa:place_id" v="1145270"/></node><node id="-402" lat="30.055055" lon="-97.728906" changeset="false"><tag k="addr:street" v="Williamson Road"/><tag k="addr:housenumber" v="6514"/><tag k="coa:place_id" v="1145271"/></node><node id="-403" lat="30.059283" lon="-97.696898" changeset="false"><tag k="addr:street" v="Maha Court"/><tag k="addr:housenumber" v="8413"/><tag k="coa:place_id" v="1145446"/></node><node id="-404" lat="30.058363" lon="-97.694818" changeset="false"><tag k="addr:street" v="Maha Court"/><tag k="addr:housenumber" v="8515"/><tag k="coa:place_id" v="1145457"/></node><node id="-405" lat="30.041823" lon="-97.692691" changeset="false"><tag k="addr:street" v="Strategic Drive"/><tag k="addr:housenumber" v="13238"/><tag k="coa:place_id" v="1145376"/></node><node id="-406" lat="30.0768" lon="-97.716172" changeset="false"><tag k="addr:street" v="Aquaplex Drive"/><tag k="addr:housenumber" v="12505"/><tag k="coa:place_id" v="87761"/></node><node id="-407" lat="30.065021" lon="-97.734646" changeset="false"><tag k="addr:street" v="South Turnersville Road,1100"/><tag k="addr:housenumber" v="6207"/><tag k="coa:place_id" v="1145216"/></node><node id="-408" lat="30.105988" lon="-97.768756" changeset="false"><tag k="addr:street" v="Farm-to-Market Road 1327"/><tag k="addr:housenumber" v="2505"/><tag k="coa:place_id" v="3053176"/></node><node id="-409" lat="30.063741" lon="-97.757753" changeset="false"><tag k="addr:street" v="Graef Road"/><tag k="addr:housenumber" v="14602"/><tag k="coa:place_id" v="1145153"/></node><node id="-410" lat="30.043505" lon="-97.6988" changeset="false"><tag k="addr:street" v="Elm Grove Road"/><tag k="addr:housenumber" v="13111"/><tag k="coa:place_id" v="1145360"/></node><node id="-411" lat="30.063819" lon="-97.736061" changeset="false"><tag k="addr:street" v="South Turnersville Road,1100"/><tag k="addr:housenumber" v="6229"/><tag k="coa:place_id" v="1145193"/></node><node id="-412" lat="30.058403" lon="-97.693817" changeset="false"><tag k="addr:street" v="Maha Court"/><tag k="addr:housenumber" v="8601"/><tag k="coa:place_id" v="1145456"/></node><node id="-413" lat="30.078579" lon="-97.714194" changeset="false"><tag k="addr:street" v="Aquaplex Drive"/><tag k="addr:housenumber" v="12331"/><tag k="coa:place_id" v="87755"/></node><node id="-414" lat="30.047062" lon="-97.697502" changeset="false"><tag k="addr:street" v="Elm Grove Road"/><tag k="addr:housenumber" v="13006"/><tag k="coa:place_id" v="1145331"/></node><node id="-415" lat="30.088244" lon="-97.757804" changeset="false"><tag k="addr:street" v="Crane Road"/><tag k="addr:housenumber" v="13101"/><tag k="coa:place_id" v="3085176"/></node><node id="-416" lat="30.042501" lon="-97.692136" changeset="false"><tag k="addr:street" v="Strategic Drive"/><tag k="addr:housenumber" v="13250"/><tag k="coa:place_id" v="1145368"/></node><node id="-417" lat="30.058924" lon="-97.696564" changeset="false"><tag k="addr:street" v="Maha Court"/><tag k="addr:housenumber" v="8417"/><tag k="coa:place_id" v="1145451"/></node><node id="-418" lat="30.058438" lon="-97.692993" changeset="false"><tag k="addr:street" v="Maha Court"/><tag k="addr:housenumber" v="8701"/><tag k="coa:place_id" v="1145454"/></node><node id="-419" lat="30.077539" lon="-97.715354" changeset="false"><tag k="addr:street" v="Aquaplex Drive"/><tag k="addr:housenumber" v="12411"/><tag k="coa:place_id" v="87758"/></node><node id="-420" lat="30.074845" lon="-97.71831" changeset="false"><tag k="addr:street" v="Aquaplex Drive"/><tag k="addr:housenumber" v="12705"/><tag k="coa:place_id" v="87769"/></node><node id="-421" lat="30.040609" lon="-97.708823" changeset="false"><tag k="addr:street" v="Elm Grove Road"/><tag k="addr:housenumber" v="13414"/><tag k="coa:place_id" v="1145262"/></node><node id="-422" lat="30.085291" lon="-97.734584" changeset="false"><tag k="addr:street" v="Farm-to-Market Road 1625"/><tag k="addr:housenumber" v="12605"/><tag k="coa:place_id" v="1145224"/></node><node id="-423" lat="30.086808" lon="-97.778301" changeset="false"><tag k="addr:street" v="South Turnersville Road"/><tag k="addr:housenumber" v="14015"/><tag k="coa:place_id" v="3050930"/></node><node id="-424" lat="30.069331" lon="-97.753847" changeset="false"><tag k="addr:street" v="Graef Road"/><tag k="addr:housenumber" v="14114"/><tag k="coa:place_id" v="220421"/></node><node id="-425" lat="30.085009" lon="-97.734365" changeset="false"><tag k="addr:street" v="Farm-to-Market Road 1625"/><tag k="addr:housenumber" v="12613"/><tag k="coa:place_id" v="1145225"/></node><node id="-426" lat="30.078842" lon="-97.736277" changeset="false"><tag k="addr:street" v="Farm-to-Market Road 1625"/><tag k="addr:housenumber" v="13014"/><tag k="coa:place_id" v="1145229"/></node><node id="-427" lat="30.063269" lon="-97.697988" changeset="false"><tag k="addr:street" v="Margo Drive"/><tag k="addr:housenumber" v="12111"/><tag k="coa:place_id" v="1145648"/></node><node id="-428" lat="30.105403" lon="-97.767541" changeset="false"><tag k="addr:street" v="Farm-to-Market Road 1327"/><tag k="addr:housenumber" v="2525"/><tag k="coa:place_id" v="3053177"/></node><node id="-429" lat="30.100289" lon="-97.757485" changeset="false"><tag k="addr:street" v="Farm-to-Market Road 1327"/><tag k="addr:housenumber" v="3215"/><tag k="coa:place_id" v="3047305"/></node><node id="-430" lat="30.033053" lon="-97.704203" changeset="false"><tag k="addr:street" v="Williamson Road"/><tag k="addr:housenumber" v="9008"/><tag k="coa:place_id" v="1145312"/></node><node id="-431" lat="30.057957" lon="-97.730819" changeset="false"><tag k="addr:street" v="Williamson Road"/><tag k="addr:housenumber" v="6316"/><tag k="coa:place_id" v="1145202"/></node><node id="-432" lat="30.048056" lon="-97.696563" changeset="false"><tag k="addr:street" v="Elm Grove Road"/><tag k="addr:housenumber" v="12934"/><tag k="coa:place_id" v="3047321"/></node><node id="-433" lat="30.064413" lon="-97.740911" changeset="false"><tag k="addr:street" v="Williamson Road"/><tag k="addr:housenumber" v="5536"/><tag k="coa:place_id" v="1145214"/></node><node id="-434" lat="30.072326" lon="-97.75196" changeset="false"><tag k="addr:street" v="Graef Road"/><tag k="addr:housenumber" v="13918"/><tag k="coa:place_id" v="1145142"/></node><node id="-435" lat="30.079583" lon="-97.739102" changeset="false"><tag k="addr:street" v="South Turnersville Road,1100"/><tag k="addr:housenumber" v="5040"/><tag k="coa:place_id" v="3345966"/></node><node id="-436" lat="30.11219" lon="-97.784809" changeset="false"><tag k="addr:street" v="Farm-to-Market Road 1327"/><tag k="addr:housenumber" v="1407"/><tag k="coa:place_id" v="1145135"/></node><node id="-437" lat="30.076283" lon="-97.716749" changeset="false"><tag k="addr:street" v="Aquaplex Drive"/><tag k="addr:housenumber" v="12511"/><tag k="coa:place_id" v="87763"/></node><node id="-438" lat="30.075095" lon="-97.718063" changeset="false"><tag k="addr:street" v="Aquaplex Drive"/><tag k="addr:housenumber" v="12701"/><tag k="coa:place_id" v="87768"/></node><node id="-439" lat="30.064008" lon="-97.696509" changeset="false"><tag k="addr:street" v="Margo Drive"/><tag k="addr:housenumber" v="12059"/><tag k="coa:place_id" v="1145644"/></node><node id="-440" lat="30.045212" lon="-97.693825" changeset="false"><tag k="addr:street" v="Strategic Drive"/><tag k="addr:housenumber" v="13036"/><tag k="coa:place_id" v="1145342"/></node><node id="-441" lat="30.043548" lon="-97.695927" changeset="false"><tag k="addr:street" v="Strategic Drive"/><tag k="addr:housenumber" v="13126"/><tag k="coa:place_id" v="1145359"/></node><node id="-442" lat="30.063528" lon="-97.704055" changeset="false"><tag k="addr:street" v="Stallion Drive"/><tag k="addr:housenumber" v="12121"/><tag k="coa:place_id" v="3198863"/></node><node id="-443" lat="30.064482" lon="-97.704254" changeset="false"><tag k="addr:street" v="Stallion Drive"/><tag k="addr:housenumber" v="12124"/><tag k="coa:place_id" v="3198873"/></node><node id="-444" lat="30.063075" lon="-97.704478" changeset="false"><tag k="addr:street" v="Bronco Circle"/><tag k="addr:housenumber" v="11904"/><tag k="coa:place_id" v="3198890"/></node><node id="-445" lat="30.066114" lon="-97.700878" changeset="false"><tag k="addr:street" v="Stallion Drive"/><tag k="addr:housenumber" v="12000"/><tag k="coa:place_id" v="3198906"/></node><node id="-446" lat="30.066249" lon="-97.701128" changeset="false"><tag k="addr:street" v="Stallion Drive"/><tag k="addr:housenumber" v="12002"/><tag k="coa:place_id" v="3198907"/></node><node id="-447" lat="30.043326" lon="-97.693302" changeset="false"><tag k="addr:street" v="Strategic Drive"/><tag k="addr:housenumber" v="13249"/><tag k="coa:place_id" v="1145361"/></node><node id="-448" lat="30.091378" lon="-97.737835" changeset="false"><tag k="addr:street" v="Farm-to-Market Road 1327"/><tag k="addr:housenumber" v="4701"/><tag k="coa:place_id" v="1145241"/></node><node id="-449" lat="30.084504" lon="-97.766759" changeset="false"><tag k="addr:street" v="South Turnersville Road,1100"/><tag k="addr:housenumber" v="3201"/><tag k="coa:place_id" v="3363864"/></node><node id="-450" lat="30.06645" lon="-97.703242" changeset="false"><tag k="addr:street" v="Filly Cove"/><tag k="addr:housenumber" v="11910"/><tag k="coa:place_id" v="3198827"/></node><node id="-451" lat="30.060037" lon="-97.697326" changeset="false"><tag k="addr:street" v="Maha Court"/><tag k="addr:housenumber" v="8405"/><tag k="coa:place_id" v="1145437"/></node><node id="-452" lat="30.074148" lon="-97.718621" changeset="false"><tag k="addr:street" v="Aqualux Cove"/><tag k="addr:housenumber" v="10600"/><tag k="coa:place_id" v="87771"/></node><node id="-453" lat="30.086313" lon="-97.7353" changeset="false"><tag k="addr:street" v="Farm-to-Market Road 1625"/><tag k="addr:housenumber" v="12518"/><tag k="coa:place_id" v="3198816"/></node><node id="-454" lat="30.088017" lon="-97.732144" changeset="false"><tag k="addr:street" v="Miller Lane"/><tag k="addr:housenumber" v="5101"/><tag k="coa:place_id" v="3198820"/></node><node id="-455" lat="30.066885" lon="-97.702791" changeset="false"><tag k="addr:street" v="Filly Cove"/><tag k="addr:housenumber" v="11906"/><tag k="coa:place_id" v="3198825"/></node><node id="-456" lat="30.054859" lon="-97.727942" changeset="false"><tag k="addr:street" v="Williamson Road"/><tag k="addr:housenumber" v="6524"/><tag k="coa:place_id" v="1145272"/></node><node id="-457" lat="30.054408" lon="-97.728341" changeset="false"><tag k="addr:street" v="Williamson Road"/><tag k="addr:housenumber" v="6600"/><tag k="coa:place_id" v="1145273"/></node><node id="-458" lat="30.058846" lon="-97.74688" changeset="false"><tag k="addr:street" v="Williamson Road"/><tag k="addr:housenumber" v="5400"/><tag k="coa:place_id" v="1145200"/></node><node id="-459" lat="30.063643" lon="-97.704331" changeset="false"><tag k="addr:street" v="Stallion Drive"/><tag k="addr:housenumber" v="12123"/><tag k="coa:place_id" v="3198864"/></node><node id="-460" lat="30.063444" lon="-97.739217" changeset="false"><tag k="addr:street" v="Williamson Road"/><tag k="addr:housenumber" v="5620"/><tag k="coa:place_id" v="1145220"/></node><node id="-461" lat="30.068162" lon="-97.754827" changeset="false"><tag k="addr:street" v="Graef Road"/><tag k="addr:housenumber" v="14212"/><tag k="coa:place_id" v="1145146"/></node><node id="-462" lat="30.064102" lon="-97.702046" changeset="false"><tag k="addr:street" v="Stallion Drive"/><tag k="addr:housenumber" v="12105"/><tag k="coa:place_id" v="3198855"/></node><node id="-463" lat="30.061299" lon="-97.695718" changeset="false"><tag k="addr:street" v="Maha Court"/><tag k="addr:housenumber" v="8408"/><tag k="coa:place_id" v="1145419"/></node><node id="-464" lat="30.061543" lon="-97.705899" changeset="false"><tag k="addr:street" v="Mustang Drive"/><tag k="addr:housenumber" v="12209"/><tag k="coa:place_id" v="3198924"/></node><node id="-465" lat="30.06137" lon="-97.706786" changeset="false"><tag k="addr:street" v="Mustang Drive"/><tag k="addr:housenumber" v="12217"/><tag k="coa:place_id" v="3198928"/></node></osm>