<?xml version="1.0" encoding="UTF-8"?><osm version="0.6" generator="github.com/aaronlidman/osm-and-geojson"><node id="-1" lat="30.326257" lon="-97.775819" changeset="false"><tag k="addr:street" v="Spinnaker Cove"/><tag k="addr:housenumber" v="4203"/><tag k="coa:place_id" v="115975"/></node><node id="-2" lat="30.336517" lon="-97.762923" changeset="false"><tag k="addr:street" v="Lucas Lane"/><tag k="addr:housenumber" v="5205"/><tag k="coa:place_id" v="155244"/></node><node id="-3" lat="30.338859" lon="-97.766914" changeset="false"><tag k="addr:street" v="Oakwood Cove"/><tag k="addr:housenumber" v="5505"/><tag k="coa:place_id" v="248538"/></node><node id="-4" lat="30.326198" lon="-97.774302" changeset="false"><tag k="addr:street" v="Mount Bonnell Road"/><tag k="addr:housenumber" v="4301"/><tag k="coa:place_id" v="3082528"/></node><node id="-5" lat="30.329971" lon="-97.777779" changeset="false"><tag k="addr:street" v="Island Cove"/><tag k="addr:housenumber" v="4409"/><tag k="coa:place_id" v="52488"/></node><node id="-6" lat="30.329377" lon="-97.777235" changeset="false"><tag k="addr:street" v="Island Cove"/><tag k="addr:housenumber" v="4405"/><tag k="coa:place_id" v="52490"/></node><node id="-7" lat="30.341309" lon="-97.764069" changeset="false"><tag k="addr:street" v="Jorge Drive"/><tag k="addr:housenumber" v="3617"/><tag k="coa:place_id" v="246652"/></node><node id="-8" lat="30.337363" lon="-97.75724" changeset="false"><tag k="addr:street" v="Northland Drive"/><tag k="addr:housenumber" v="3407"/><tag k="coa:place_id" v="567874"/></node><node id="-9" lat="30.337323" lon="-97.757169" changeset="false"><tag k="addr:street" v="Northland Drive"/><tag k="addr:housenumber" v="3401"/><tag k="coa:place_id" v="117944"/></node><node id="-10" lat="30.325161" lon="-97.77575" changeset="false"><tag k="addr:street" v="Shimmering Cove"/><tag k="addr:housenumber" v="4103"/><tag k="coa:place_id" v="688287"/></node><node id="-11" lat="30.32452" lon="-97.774332" changeset="false"><tag k="addr:street" v="Mount Bonnell Road"/><tag k="addr:housenumber" v="4230"/><tag k="coa:place_id" v="248207"/></node><node id="-12" lat="30.333514" lon="-97.766659" changeset="false"><tag k="addr:street" v="Lakeview Drive"/><tag k="addr:housenumber" v="4620"/><tag k="coa:place_id" v="747032"/></node><node id="-13" lat="30.335609" lon="-97.758793" changeset="false"><tag k="addr:street" v="Balcones Drive"/><tag k="addr:housenumber" v="5334"/><tag k="coa:place_id" v="144141"/></node><node id="-14" lat="30.335633" lon="-97.758777" changeset="false"><tag k="addr:street" v="Balcones Drive"/><tag k="addr:housenumber" v="5336"/><tag k="coa:place_id" v="117764"/></node><node id="-15" lat="30.340579" lon="-97.76333" changeset="false"><tag k="addr:street" v="Las Colinas Drive"/><tag k="addr:housenumber" v="3611"/><tag k="coa:place_id" v="247229"/></node><node id="-16" lat="30.338601" lon="-97.766833" changeset="false"><tag k="addr:street" v="Oakwood Cove"/><tag k="addr:housenumber" v="5507"/><tag k="coa:place_id" v="248539"/></node><node id="-17" lat="30.339256" lon="-97.766209" changeset="false"><tag k="addr:street" v="Oakwood Cove"/><tag k="addr:housenumber" v="5601"/><tag k="coa:place_id" v="200676"/></node><node id="-18" lat="30.334609" lon="-97.774938" changeset="false"><tag k="addr:street" v="Waterford Place"/><tag k="addr:housenumber" v="4302"/><tag k="coa:place_id" v="73760"/></node><node id="-19" lat="30.331169" lon="-97.779222" changeset="false"><tag k="addr:street" v="Island Cove"/><tag k="addr:housenumber" v="4516"/><tag k="coa:place_id" v="52504"/></node><node id="-20" lat="30.330564" lon="-97.777993" changeset="false"><tag k="addr:street" v="Island Cove"/><tag k="addr:housenumber" v="4503"/><tag k="coa:place_id" v="52513"/></node><node id="-21" lat="30.329613" lon="-97.777358" changeset="false"><tag k="addr:street" v="Island Cove"/><tag k="addr:housenumber" v="4407"/><tag k="coa:place_id" v="52489"/></node><node id="-22" lat="30.330462" lon="-97.768909" changeset="false"><tag k="addr:street" v="Ridge Oak Drive"/><tag k="addr:housenumber" v="4601"/><tag k="coa:place_id" v="126000"/></node><node id="-23" lat="30.326945" lon="-97.776651" changeset="false"><tag k="addr:street" v="Watersedge Cove"/><tag k="addr:housenumber" v="4205"/><tag k="coa:place_id" v="72682"/></node><node id="-24" lat="30.326791" lon="-97.770591" changeset="false"><tag k="addr:street" v="Ledgestone Drive"/><tag k="addr:housenumber" v="3400"/><tag k="coa:place_id" v="110099"/></node><node id="-25" lat="30.328751" lon="-97.766534" changeset="false"><tag k="addr:street" v="Laurel Canyon Drive"/><tag k="addr:housenumber" v="4611"/><tag k="coa:place_id" v="788630"/></node><node id="-26" lat="30.328231" lon="-97.768186" changeset="false"><tag k="addr:street" v="Spanish Oak Trail"/><tag k="addr:housenumber" v="4512"/><tag k="coa:place_id" v="788798"/></node><node id="-27" lat="30.332307" lon="-97.77744" changeset="false"><tag k="addr:street" v="Island Cove"/><tag k="addr:housenumber" v="4704"/><tag k="coa:place_id" v="52510"/></node><node id="-28" lat="30.33249" lon="-97.767284" changeset="false"><tag k="addr:street" v="Lakeview Drive"/><tag k="addr:housenumber" v="4616"/><tag k="coa:place_id" v="747020"/></node><node id="-29" lat="30.319542" lon="-97.773629" changeset="false"><tag k="addr:street" v="Mount Bonnell Road"/><tag k="addr:housenumber" v="3606"/><tag k="coa:place_id" v="68360"/></node><node id="-30" lat="30.338323" lon="-97.762178" changeset="false"><tag k="addr:street" v="Arrowhead Drive"/><tag k="addr:housenumber" v="3505"/><tag k="coa:place_id" v="911186"/></node><node id="-31" lat="30.340611" lon="-97.764048" changeset="false"><tag k="addr:street" v="Las Colinas Drive"/><tag k="addr:housenumber" v="3613"/><tag k="coa:place_id" v="548072"/></node><node id="-32" lat="30.333947" lon="-97.776175" changeset="false"><tag k="addr:street" v="Mount Bonnell Road"/><tag k="addr:housenumber" v="4908"/><tag k="coa:place_id" v="755601"/></node><node id="-33" lat="30.320186" lon="-97.773189" changeset="false"><tag k="addr:street" v="Mount Bonnell Road"/><tag k="addr:housenumber" v="3702"/><tag k="coa:place_id" v="68362"/></node><node id="-34" lat="30.330638" lon="-97.769599" changeset="false"><tag k="addr:street" v="Ridge Oak Drive"/><tag k="addr:housenumber" v="4500"/><tag k="coa:place_id" v="746966"/></node><node id="-35" lat="30.328937" lon="-97.777265" changeset="false"><tag k="addr:street" v="Island Cove"/><tag k="addr:housenumber" v="4401"/><tag k="coa:place_id" v="52492"/></node><node id="-36" lat="30.337241" lon="-97.760758" changeset="false"><tag k="addr:street" v="Ridge Oak Drive"/><tag k="addr:housenumber" v="5402"/><tag k="coa:place_id" v="911240"/></node><node id="-37" lat="30.335871" lon="-97.758547" changeset="false"><tag k="addr:street" v="Balcones Drive"/><tag k="addr:housenumber" v="5404"/><tag k="coa:place_id" v="95071"/></node><node id="-38" lat="30.32017" lon="-97.773196" changeset="false"><tag k="addr:street" v="Mount Bonnell Road"/><tag k="addr:housenumber" v="3700"/><tag k="coa:place_id" v="68361"/></node><node id="-39" lat="30.332151" lon="-97.778422" changeset="false"><tag k="addr:street" v="Island Cove"/><tag k="addr:housenumber" v="4609"/><tag k="coa:place_id" v="52520"/></node><node id="-40" lat="30.338387" lon="-97.766645" changeset="false"><tag k="addr:street" v="Oakwood Cove"/><tag k="addr:housenumber" v="5509"/><tag k="coa:place_id" v="248541"/></node><node id="-41" lat="30.327454" lon="-97.776063" changeset="false"><tag k="addr:street" v="Watersedge Cove"/><tag k="addr:housenumber" v="4203"/><tag k="coa:place_id" v="72681"/></node><node id="-42" lat="30.327479" lon="-97.777109" changeset="false"><tag k="addr:street" v="Watersedge Cove"/><tag k="addr:housenumber" v="4209"/><tag k="coa:place_id" v="72684"/></node><node id="-43" lat="30.333864" lon="-97.774798" changeset="false"><tag k="addr:street" v="Waterford Place"/><tag k="addr:housenumber" v="4401"/><tag k="coa:place_id" v="73767"/></node><node id="-44" lat="30.337841" lon="-97.758196" changeset="false"><tag k="addr:street" v="Northland Drive"/><tag k="addr:housenumber" v="3415"/><tag k="coa:place_id" v="248433"/></node><node id="-45" lat="30.331423" lon="-97.778506" changeset="false"><tag k="addr:street" v="Island Cove"/><tag k="addr:housenumber" v="4601"/><tag k="coa:place_id" v="52518"/></node><node id="-46" lat="30.330017" lon="-97.778721" changeset="false"><tag k="addr:street" v="Island Cove"/><tag k="addr:housenumber" v="4500"/><tag k="coa:place_id" v="52499"/></node><node id="-47" lat="30.336816" lon="-97.764956" changeset="false"><tag k="addr:street" v="Lucas Drive"/><tag k="addr:housenumber" v="3600"/><tag k="coa:place_id" v="140515"/></node><node id="-48" lat="30.325317" lon="-97.77362" changeset="false"><tag k="addr:street" v="Monte Vista Drive"/><tag k="addr:housenumber" v="3423"/><tag k="coa:place_id" v="211805"/></node><node id="-49" lat="30.33829" lon="-97.76646" changeset="false"><tag k="addr:street" v="Oakwood Cove"/><tag k="addr:housenumber" v="5511"/><tag k="coa:place_id" v="248543"/></node><node id="-50" lat="30.339191" lon="-97.76697" changeset="false"><tag k="addr:street" v="Oakwood Cove"/><tag k="addr:housenumber" v="5503"/><tag k="coa:place_id" v="236798"/></node><node id="-51" lat="30.334429" lon="-97.774994" changeset="false"><tag k="addr:street" v="Waterford Place"/><tag k="addr:housenumber" v="4304"/><tag k="coa:place_id" v="73762"/></node><node id="-52" lat="30.334395" lon="-97.763149" changeset="false"><tag k="addr:street" v="Ridge Oak Drive"/><tag k="addr:housenumber" v="5000"/><tag k="coa:place_id" v="115607"/></node><node id="-53" lat="30.330564" lon="-97.777039" changeset="false"><tag k="addr:street" v="Island Avenue"/><tag k="addr:housenumber" v="4400"/><tag k="coa:place_id" v="52482"/></node><node id="-54" lat="30.334055" lon="-97.763181" changeset="false"><tag k="addr:street" v="Ridge Oak Drive"/><tag k="addr:housenumber" v="5002"/><tag k="coa:place_id" v="711922"/></node><node id="-55" lat="30.33709" lon="-97.758912" changeset="false"><tag k="addr:street" v="Parkcrest Drive"/><tag k="addr:housenumber" v="5512"/><tag k="coa:place_id" v="117800"/></node><node id="-56" lat="30.334005" lon="-97.775138" changeset="false"><tag k="addr:street" v="Waterford Place"/><tag k="addr:housenumber" v="4400"/><tag k="coa:place_id" v="73766"/></node><node id="-57" lat="30.335916" lon="-97.75969" changeset="false"><tag k="addr:street" v="Balcones Drive"/><tag k="addr:housenumber" v="5324"/><tag k="coa:place_id" v="242217"/></node><node id="-58" lat="30.330239" lon="-97.769147" changeset="false"><tag k="addr:street" v="Ridge Oak Drive"/><tag k="addr:housenumber" v="4507"/><tag k="coa:place_id" v="197717"/></node><node id="-59" lat="30.33325" lon="-97.775605" changeset="false"><tag k="addr:street" v="Waterford Place"/><tag k="addr:housenumber" v="4407"/><tag k="coa:place_id" v="73771"/></node><node id="-60" lat="30.332635" lon="-97.776205" changeset="false"><tag k="addr:street" v="Mount Bonnell Road"/><tag k="addr:housenumber" v="4807"/><tag k="coa:place_id" v="56317"/></node><node id="-61" lat="30.335616" lon="-97.776337" changeset="false"><tag k="addr:street" v="Mount Bonnell Road"/><tag k="addr:housenumber" v="5109"/><tag k="coa:place_id" v="548276"/></node><node id="-62" lat="30.337129" lon="-97.758916" changeset="false"><tag k="addr:street" v="Parkcrest Drive"/><tag k="addr:housenumber" v="5514"/><tag k="coa:place_id" v="117812"/></node><node id="-63" lat="30.339437" lon="-97.766978" changeset="false"><tag k="addr:street" v="Oakwood Cove"/><tag k="addr:housenumber" v="5501"/><tag k="coa:place_id" v="248537"/></node><node id="-64" lat="30.329667" lon="-97.778527" changeset="false"><tag k="addr:street" v="Island Cove"/><tag k="addr:housenumber" v="4410"/><tag k="coa:place_id" v="52497"/></node><node id="-65" lat="30.329254" lon="-97.778387" changeset="false"><tag k="addr:street" v="Island Cove"/><tag k="addr:housenumber" v="4406"/><tag k="coa:place_id" v="52496"/></node><node id="-66" lat="30.315376" lon="-97.77396" changeset="false"><tag k="addr:street" v="Mount Bonnell Road"/><tag k="addr:housenumber" v="3336"/><tag k="coa:place_id" v="114834"/></node><node id="-67" lat="30.335297" lon="-97.76384" changeset="false"><tag k="addr:street" v="Lucas Lane"/><tag k="addr:housenumber" v="5102"/><tag k="coa:place_id" v="343869"/></node><node id="-68" lat="30.333425" lon="-97.762494" changeset="false"><tag k="addr:street" v="Crestway Drive"/><tag k="addr:housenumber" v="4908"/><tag k="coa:place_id" v="3054135"/></node><node id="-69" lat="30.339705" lon="-97.765421" changeset="false"><tag k="addr:street" v="Las Colinas Drive"/><tag k="addr:housenumber" v="3617"/><tag k="coa:place_id" v="247231"/></node><node id="-70" lat="30.332704" lon="-97.778703" changeset="false"><tag k="addr:street" v="Island Cove"/><tag k="addr:housenumber" v="4610 1/2"/><tag k="coa:place_id" v="3270245"/></node><node id="-71" lat="30.32139" lon="-97.772947" changeset="false"><tag k="addr:street" v="Mount Bonnell Road"/><tag k="addr:housenumber" v="3800 1/2"/><tag k="coa:place_id" v="3428053"/></node><node id="-72" lat="30.335513" lon="-97.758856" changeset="false"><tag k="addr:street" v="Balcones Drive"/><tag k="addr:housenumber" v="5326"/><tag k="coa:place_id" v="117602"/></node><node id="-73" lat="30.33368" lon="-97.777055" changeset="false"><tag k="addr:street" v="Waterford Place"/><tag k="addr:housenumber" v="4504"/><tag k="coa:place_id" v="73774"/></node><node id="-74" lat="30.333446" lon="-97.775255" changeset="false"><tag k="addr:street" v="Waterford Place"/><tag k="addr:housenumber" v="4405"/><tag k="coa:place_id" v="73770"/></node><node id="-75" lat="30.336425" lon="-97.764105" changeset="false"><tag k="addr:street" v="Lucas Lane"/><tag k="addr:housenumber" v="5108"/><tag k="coa:place_id" v="143578"/></node><node id="-76" lat="30.329367" lon="-97.77646" changeset="false"><tag k="addr:street" v="Island Avenue"/><tag k="addr:housenumber" v="4301"/><tag k="coa:place_id" v="130759"/></node><node id="-77" lat="30.341176" lon="-97.760854" changeset="false"><tag k="addr:street" v="Las Colinas Drive"/><tag k="addr:housenumber" v="3601"/><tag k="coa:place_id" v="547820"/></node><node id="-78" lat="30.336583" lon="-97.762127" changeset="false"><tag k="addr:street" v="Western Hills Drive"/><tag k="addr:housenumber" v="5305"/><tag k="coa:place_id" v="910934"/></node><node id="-79" lat="30.333409" lon="-97.77624" changeset="false"><tag k="addr:street" v="Mount Bonnell Road"/><tag k="addr:housenumber" v="4900"/><tag k="coa:place_id" v="119226"/></node><node id="-80" lat="30.320104" lon="-97.773391" changeset="false"><tag k="addr:street" v="Mount Bonnell Road"/><tag k="addr:housenumber" v="3704"/><tag k="coa:place_id" v="3132961"/></node><node id="-81" lat="30.335585" lon="-97.758809" changeset="false"><tag k="addr:street" v="Balcones Drive"/><tag k="addr:housenumber" v="5332"/><tag k="coa:place_id" v="257625"/></node><node id="-82" lat="30.33424" lon="-97.775066" changeset="false"><tag k="addr:street" v="Waterford Place"/><tag k="addr:housenumber" v="4306"/><tag k="coa:place_id" v="73764"/></node><node id="-83" lat="30.337153" lon="-97.758919" changeset="false"><tag k="addr:street" v="Parkcrest Drive"/><tag k="addr:housenumber" v="5516"/><tag k="coa:place_id" v="117836"/></node><node id="-84" lat="30.328206" lon="-97.772609" changeset="false"><tag k="addr:street" v="Crestway Drive"/><tag k="addr:housenumber" v="4400"/><tag k="coa:place_id" v="789050"/></node><node id="-85" lat="30.327238" lon="-97.769573" changeset="false"><tag k="addr:street" v="Spanish Oak Drive"/><tag k="addr:housenumber" v="3409"/><tag k="coa:place_id" v="788894"/></node><node id="-86" lat="30.329411" lon="-97.76711" changeset="false"><tag k="addr:street" v="Laurel Canyon Drive"/><tag k="addr:housenumber" v="4606"/><tag k="coa:place_id" v="788678"/></node><node id="-87" lat="30.331487" lon="-97.77694" changeset="false"><tag k="addr:street" v="Island Cove"/><tag k="addr:housenumber" v="4711"/><tag k="coa:place_id" v="52493"/></node><node id="-88" lat="30.330154" lon="-97.769428" changeset="false"><tag k="addr:street" v="Ridge Oak Drive"/><tag k="addr:housenumber" v="4505"/><tag k="coa:place_id" v="206832"/></node><node id="-89" lat="30.334096" lon="-97.774723" changeset="false"><tag k="addr:street" v="Waterford Place"/><tag k="addr:housenumber" v="4307"/><tag k="coa:place_id" v="73765"/></node><node id="-90" lat="30.341439" lon="-97.760947" changeset="false"><tag k="addr:street" v="Las Colinas Drive"/><tag k="addr:housenumber" v="3600"/><tag k="coa:place_id" v="547844"/></node><node id="-91" lat="30.333036" lon="-97.775763" changeset="false"><tag k="addr:street" v="Waterford Place"/><tag k="addr:housenumber" v="4409"/><tag k="coa:place_id" v="73772"/></node><node id="-92" lat="30.338247" lon="-97.766027" changeset="false"><tag k="addr:street" v="Oakwood Cove"/><tag k="addr:housenumber" v="5517"/><tag k="coa:place_id" v="670095"/></node><node id="-93" lat="30.33815" lon="-97.759024" changeset="false"><tag k="addr:street" v="Parkcrest Drive"/><tag k="addr:housenumber" v="5600"/><tag k="coa:place_id" v="134662"/></node><node id="-94" lat="30.329819" lon="-97.776771" changeset="false"><tag k="addr:street" v="Island Avenue"/><tag k="addr:housenumber" v="4303"/><tag k="coa:place_id" v="52480"/></node><node id="-95" lat="30.331087" lon="-97.777215" changeset="false"><tag k="addr:street" v="Island Cove"/><tag k="addr:housenumber" v="4709"/><tag k="coa:place_id" v="52523"/></node><node id="-96" lat="30.331711" lon="-97.779118" changeset="false"><tag k="addr:street" v="Island Cove"/><tag k="addr:housenumber" v="4600"/><tag k="coa:place_id" v="135252"/></node><node id="-97" lat="30.335877" lon="-97.776475" changeset="false"><tag k="addr:street" v="Mount Bonnell Road"/><tag k="addr:housenumber" v="5111"/><tag k="coa:place_id" v="548270"/></node><node id="-98" lat="30.335537" lon="-97.75884" changeset="false"><tag k="addr:street" v="Balcones Drive"/><tag k="addr:housenumber" v="5328"/><tag k="coa:place_id" v="242219"/></node><node id="-99" lat="30.337176" lon="-97.758921" changeset="false"><tag k="addr:street" v="Parkcrest Drive"/><tag k="addr:housenumber" v="5518"/><tag k="coa:place_id" v="117806"/></node><node id="-100" lat="30.335815" lon="-97.763872" changeset="false"><tag k="addr:street" v="Lucas Lane"/><tag k="addr:housenumber" v="5106"/><tag k="coa:place_id" v="234417"/></node><node id="-101" lat="30.33489" lon="-97.763417" changeset="false"><tag k="addr:street" v="Lucas Lane"/><tag k="addr:housenumber" v="5101"/><tag k="coa:place_id" v="747536"/></node><node id="-102" lat="30.333214" lon="-97.761153" changeset="false"><tag k="addr:street" v="Hancock Drive"/><tag k="addr:housenumber" v="3405"/><tag k="coa:place_id" v="871976"/></node><node id="-103" lat="30.328661" lon="-97.775821" changeset="false"><tag k="addr:street" v="Mount Bonnell Road"/><tag k="addr:housenumber" v="4418"/><tag k="coa:place_id" v="835869"/></node><node id="-104" lat="30.328924" lon="-97.778112" changeset="false"><tag k="addr:street" v="Island Cove"/><tag k="addr:housenumber" v="4402"/><tag k="coa:place_id" v="317956"/></node><node id="-105" lat="30.331513" lon="-97.777746" changeset="false"><tag k="addr:street" v="Island Cove"/><tag k="addr:housenumber" v="4705"/><tag k="coa:place_id" v="52522"/></node><node id="-106" lat="30.32105" lon="-97.773534" changeset="false"><tag k="addr:street" v="Mount Bonnell Road"/><tag k="addr:housenumber" v="3800"/><tag k="coa:place_id" v="272566"/></node><node id="-107" lat="30.332857" lon="-97.76707" changeset="false"><tag k="addr:street" v="Lakeview Drive"/><tag k="addr:housenumber" v="4618"/><tag k="coa:place_id" v="747026"/></node><node id="-108" lat="30.340416" lon="-97.764934" changeset="false"><tag k="addr:street" v="Las Colinas Drive"/><tag k="addr:housenumber" v="3615"/><tag k="coa:place_id" v="247230"/></node><node id="-109" lat="30.332338" lon="-97.779093" changeset="false"><tag k="addr:street" v="Island Cove"/><tag k="addr:housenumber" v="4608"/><tag k="coa:place_id" v="135253"/></node><node id="-110" lat="30.338244" lon="-97.759929" changeset="false"><tag k="addr:street" v="Ridge Oak Drive"/><tag k="addr:housenumber" v="5505"/><tag k="coa:place_id" v="911558"/></node><node id="-111" lat="30.333795" lon="-97.760111" changeset="false"><tag k="addr:street" v="Crestway Drive"/><tag k="addr:housenumber" v="5111"/><tag k="coa:place_id" v="5102003"/></node><node id="-112" lat="30.332285" lon="-97.776986" changeset="false"><tag k="addr:street" v="Island Cove"/><tag k="addr:housenumber" v="4708"/><tag k="coa:place_id" v="52511"/></node><node id="-113" lat="30.330685" lon="-97.778986" changeset="false"><tag k="addr:street" v="Island Cove"/><tag k="addr:housenumber" v="4508"/><tag k="coa:place_id" v="52503"/></node><node id="-114" lat="30.334815" lon="-97.764121" changeset="false"><tag k="addr:street" v="Lucas Lane"/><tag k="addr:housenumber" v="5004"/><tag k="coa:place_id" v="5058913"/></node><node id="-115" lat="30.329797" lon="-97.768894" changeset="false"><tag k="addr:street" v="Crestway Drive"/><tag k="addr:housenumber" v="4604"/><tag k="coa:place_id" v="789092"/></node><node id="-116" lat="30.33585" lon="-97.758582" changeset="false"><tag k="addr:street" v="Balcones Drive"/><tag k="addr:housenumber" v="5400"/><tag k="coa:place_id" v="117770"/></node><node id="-117" lat="30.33226" lon="-97.77916" changeset="false"><tag k="addr:street" v="Island Cove"/><tag k="addr:housenumber" v="4604"/><tag k="coa:place_id" v="52507"/></node><node id="-118" lat="30.336656" lon="-97.777307" changeset="false"><tag k="addr:street" v="Mount Bonnell Road"/><tag k="addr:housenumber" v="5210"/><tag k="coa:place_id" v="755613"/></node><node id="-119" lat="30.340453" lon="-97.762377" changeset="false"><tag k="addr:street" v="Las Colinas Drive"/><tag k="addr:housenumber" v="3609"/><tag k="coa:place_id" v="247228"/></node><node id="-120" lat="30.338701" lon="-97.764606" changeset="false"><tag k="addr:street" v="Western Hills Drive"/><tag k="addr:housenumber" v="5326"/><tag k="coa:place_id" v="911048"/></node><node id="-121" lat="30.335897" lon="-97.758462" changeset="false"><tag k="addr:street" v="Parkcrest Drive"/><tag k="addr:housenumber" v="5407"/><tag k="coa:place_id" v="134278"/></node><node id="-122" lat="30.336166" lon="-97.758765" changeset="false"><tag k="addr:street" v="Parkcrest Drive"/><tag k="addr:housenumber" v="5416"/><tag k="coa:place_id" v="117842"/></node><node id="-123" lat="30.334386" lon="-97.76024" changeset="false"><tag k="addr:street" v="Crestway Drive"/><tag k="addr:housenumber" v="5110"/><tag k="coa:place_id" v="871862"/></node><node id="-124" lat="30.32778" lon="-97.777218" changeset="false"><tag k="addr:street" v="Watersedge Cove"/><tag k="addr:housenumber" v="4211"/><tag k="coa:place_id" v="72685"/></node><node id="-125" lat="30.332575" lon="-97.778168" changeset="false"><tag k="addr:street" v="Island Cove"/><tag k="addr:housenumber" v="4700"/><tag k="coa:place_id" v="52509"/></node><node id="-126" lat="30.334062" lon="-97.776173" changeset="false"><tag k="addr:street" v="Mount Bonnell Road"/><tag k="addr:housenumber" v="4912"/><tag k="coa:place_id" v="548294"/></node><node id="-127" lat="30.325804" lon="-97.771042" changeset="false"><tag k="addr:street" v="Shinoak Drive"/><tag k="addr:housenumber" v="3417"/><tag k="coa:place_id" v="670323"/></node><node id="-128" lat="30.334004" lon="-97.775819" changeset="false"><tag k="addr:street" v="Mount Bonnell Road"/><tag k="addr:housenumber" v="4915"/><tag k="coa:place_id" v="287452"/></node><node id="-129" lat="30.33445" lon="-97.774429" changeset="false"><tag k="addr:street" v="Waterford Place"/><tag k="addr:housenumber" v="4303"/><tag k="coa:place_id" v="73761"/></node><node id="-130" lat="30.330297" lon="-97.770124" changeset="false"><tag k="addr:street" v="Ridge Oak Drive"/><tag k="addr:housenumber" v="4416"/><tag k="coa:place_id" v="746960"/></node><node id="-131" lat="30.333693" lon="-97.77507" changeset="false"><tag k="addr:street" v="Waterford Place"/><tag k="addr:housenumber" v="4403"/><tag k="coa:place_id" v="73769"/></node><node id="-132" lat="30.330434" lon="-97.778927" changeset="false"><tag k="addr:street" v="Island Cove"/><tag k="addr:housenumber" v="4504"/><tag k="coa:place_id" v="52501"/></node><node id="-133" lat="30.323511" lon="-97.770937" changeset="false"><tag k="addr:street" v="Barranca Circle"/><tag k="addr:housenumber" v="3405"/><tag k="coa:place_id" v="789746"/></node><node id="-134" lat="30.335769" lon="-97.759647" changeset="false"><tag k="addr:street" v="Balcones Drive"/><tag k="addr:housenumber" v="5322"/><tag k="coa:place_id" v="242215"/></node><node id="-135" lat="30.332674" lon="-97.77662" changeset="false"><tag k="addr:street" v="Mount Bonnell Road"/><tag k="addr:housenumber" v="4812"/><tag k="coa:place_id" v="248208"/></node><node id="-136" lat="30.339363" lon="-97.763869" changeset="false"><tag k="addr:street" v="Arrowhead Drive"/><tag k="addr:housenumber" v="3609"/><tag k="coa:place_id" v="911132"/></node><node id="-137" lat="30.337223" lon="-97.758927" changeset="false"><tag k="addr:street" v="Parkcrest Drive"/><tag k="addr:housenumber" v="5522"/><tag k="coa:place_id" v="349028"/></node><node id="-138" lat="30.332349" lon="-97.766616" changeset="false"><tag k="addr:street" v="Lakeview Drive"/><tag k="addr:housenumber" v="4621"/><tag k="coa:place_id" v="747038"/></node><node id="-139" lat="30.338904" lon="-97.766485" changeset="false"><tag k="addr:street" v="Oakwood Cove"/><tag k="addr:housenumber" v="5512"/><tag k="coa:place_id" v="670479"/></node><node id="-140" lat="30.333476" lon="-97.764229" changeset="false"><tag k="addr:street" v="Westview Drive"/><tag k="addr:housenumber" v="4902"/><tag k="coa:place_id" v="146367"/></node><node id="-141" lat="30.333746" lon="-97.775833" changeset="false"><tag k="addr:street" v="Mount Bonnell Road"/><tag k="addr:housenumber" v="4907"/><tag k="coa:place_id" v="119227"/></node><node id="-142" lat="30.339696" lon="-97.766639" changeset="false"><tag k="addr:street" v="Oakwood Cove"/><tag k="addr:housenumber" v="5603"/><tag k="coa:place_id" v="246706"/></node><node id="-143" lat="30.333697" lon="-97.77542" changeset="false"><tag k="addr:street" v="Waterford Place"/><tag k="addr:housenumber" v="4402"/><tag k="coa:place_id" v="73768"/></node><node id="-144" lat="30.330799" lon="-97.778474" changeset="false"><tag k="addr:street" v="Island Cove"/><tag k="addr:housenumber" v="4509"/><tag k="coa:place_id" v="52515"/></node><node id="-145" lat="30.334283" lon="-97.774585" changeset="false"><tag k="addr:street" v="Waterford Place"/><tag k="addr:housenumber" v="4305"/><tag k="coa:place_id" v="73763"/></node><node id="-146" lat="30.333195" lon="-97.764592" changeset="false"><tag k="addr:street" v="Westview Drive"/><tag k="addr:housenumber" v="4904"/><tag k="coa:place_id" v="3092196"/></node><node id="-147" lat="30.33287" lon="-97.775988" changeset="false"><tag k="addr:street" v="Mount Bonnell Road"/><tag k="addr:housenumber" v="4811"/><tag k="coa:place_id" v="73757"/></node><node id="-148" lat="30.331877" lon="-97.77805" changeset="false"><tag k="addr:street" v="Island Cove"/><tag k="addr:housenumber" v="4701"/><tag k="coa:place_id" v="52521"/></node><node id="-149" lat="30.335561" lon="-97.758825" changeset="false"><tag k="addr:street" v="Balcones Drive"/><tag k="addr:housenumber" v="5330"/><tag k="coa:place_id" v="242220"/></node><node id="-150" lat="30.326608" lon="-97.77121" changeset="false"><tag k="addr:street" v="Ledgestone Drive"/><tag k="addr:housenumber" v="3407"/><tag k="coa:place_id" v="110101"/></node><node id="-151" lat="30.327338" lon="-97.769865" changeset="false"><tag k="addr:street" v="Spanish Oak Drive"/><tag k="addr:housenumber" v="3411"/><tag k="coa:place_id" v="788900"/></node><node id="-152" lat="30.32629" lon="-97.771044" changeset="false"><tag k="addr:street" v="Shinoak Drive"/><tag k="addr:housenumber" v="3420"/><tag k="coa:place_id" v="110106"/></node><node id="-153" lat="30.336636" lon="-97.758027" changeset="false"><tag k="addr:street" v="Balcones Drive"/><tag k="addr:housenumber" v="5406"/><tag k="coa:place_id" v="321142"/></node><node id="-154" lat="30.336826" lon="-97.757933" changeset="false"><tag k="addr:street" v="Balcones Drive"/><tag k="addr:housenumber" v="5408"/><tag k="coa:place_id" v="117776"/></node><node id="-155" lat="30.334551" lon="-97.759783" changeset="false"><tag k="addr:street" v="Balcones Drive"/><tag k="addr:housenumber" v="5202"/><tag k="coa:place_id" v="871850"/></node><node id="-156" lat="30.33451" lon="-97.759805" changeset="false"><tag k="addr:street" v="Balcones Drive"/><tag k="addr:housenumber" v="5206"/><tag k="coa:place_id" v="117440"/></node><node id="-157" lat="30.324646" lon="-97.772689" changeset="false"><tag k="addr:street" v="Monte Vista Drive"/><tag k="addr:housenumber" v="3417"/><tag k="coa:place_id" v="789014"/></node><node id="-158" lat="30.324506" lon="-97.772427" changeset="false"><tag k="addr:street" v="Monte Vista Drive"/><tag k="addr:housenumber" v="3415"/><tag k="coa:place_id" v="789008"/></node></osm>