<?xml version="1.0" encoding="UTF-8"?><osm version="0.6" generator="github.com/aaronlidman/osm-and-geojson"><node id="-1" lat="30.385379" lon="-97.649613" changeset="false"><tag k="addr:street" v="Dessau Road"/><tag k="addr:housenumber" v="12220"/><tag k="addr:postcode" v="78753"/></node><node id="-2" lat="30.385156" lon="-97.653344" changeset="false"><tag k="addr:street" v="Jourdan Crossing Boulevard"/><tag k="addr:housenumber" v="12200"/><tag k="addr:postcode" v="78753"/></node><node id="-3" lat="30.387698" lon="-97.650636" changeset="false"><tag k="addr:street" v="East Parmer Lane"/><tag k="addr:housenumber" v="1605"/><tag k="addr:postcode" v="78753"/></node><node id="-4" lat="30.380301" lon="-97.657825" changeset="false"><tag k="addr:street" v="Rotherham Drive"/><tag k="addr:housenumber" v="11920"/><tag k="addr:postcode" v="78753"/></node><node id="-5" lat="30.387436" lon="-97.650356" changeset="false"><tag k="addr:street" v="East Parmer Lane"/><tag k="addr:housenumber" v="1613"/><tag k="addr:postcode" v="78753"/></node><node id="-6" lat="30.386864" lon="-97.653206" changeset="false"><tag k="addr:street" v="Jourdan Crossing Boulevard"/><tag k="addr:housenumber" v="12224"/><tag k="addr:postcode" v="78753"/></node><node id="-7" lat="30.386745" lon="-97.649247" changeset="false"><tag k="addr:street" v="East Parmer Lane"/><tag k="addr:housenumber" v="1625"/><tag k="addr:postcode" v="78753"/></node><node id="-8" lat="30.377773" lon="-97.65887" changeset="false"><tag k="addr:street" v="Dessau Road"/><tag k="addr:housenumber" v="11800"/><tag k="addr:postcode" v="78753"/></node><node id="-9" lat="30.38369" lon="-97.656142" changeset="false"><tag k="addr:street" v="Blakeney Lane"/><tag k="addr:housenumber" v="1416 1/2"/><tag k="addr:postcode" v="78753"/></node><node id="-10" lat="30.385738" lon="-97.649505" changeset="false"><tag k="addr:street" v="Dessau Road"/><tag k="addr:housenumber" v="12224"/><tag k="addr:postcode" v="78753"/></node><node id="-11" lat="30.387199" lon="-97.655852" changeset="false"><tag k="addr:street" v="Branston Drive"/><tag k="addr:housenumber" v="12214"/><tag k="addr:postcode" v="78753"/></node><node id="-12" lat="30.380452" lon="-97.65429" changeset="false"><tag k="addr:street" v="Dessau Road"/><tag k="addr:housenumber" v="12000"/><tag k="addr:postcode" v="78753"/></node><node id="-13" lat="30.388121" lon="-97.654056" changeset="false"><tag k="addr:street" v="East Yager Lane"/><tag k="addr:housenumber" v="1425"/><tag k="addr:postcode" v="78753"/></node></osm>