<?xml version="1.0" encoding="UTF-8"?><osm version="0.6" generator="github.com/aaronlidman/osm-and-geojson"><node id="-1" lat="30.22377" lon="-97.854758" changeset="false"><tag k="addr:street" v="Wheeler Branch Trail"/><tag k="addr:housenumber" v="7004"/><tag k="coa:place_id" v="415126"/></node><node id="-2" lat="30.221014" lon="-97.855733" changeset="false"><tag k="addr:street" v="Dry Wells Road"/><tag k="addr:housenumber" v="5305"/><tag k="coa:place_id" v="758535"/></node><node id="-3" lat="30.223727" lon="-97.851533" changeset="false"><tag k="addr:street" v="Lassant Cove"/><tag k="addr:housenumber" v="5108"/><tag k="coa:place_id" v="189532"/></node><node id="-4" lat="30.220028" lon="-97.853806" changeset="false"><tag k="addr:street" v="Dusty Trail Cove"/><tag k="addr:housenumber" v="5100"/><tag k="coa:place_id" v="225867"/></node><node id="-5" lat="30.222814" lon="-97.84919" changeset="false"><tag k="addr:street" v="Fence Line Drive"/><tag k="addr:housenumber" v="6904"/><tag k="coa:place_id" v="656092"/></node><node id="-6" lat="30.223885" lon="-97.855021" changeset="false"><tag k="addr:street" v="Wheeler Branch Trail"/><tag k="addr:housenumber" v="7002"/><tag k="coa:place_id" v="155608"/></node><node id="-7" lat="30.220647" lon="-97.844688" changeset="false"><tag k="addr:street" v="One Oak Road"/><tag k="addr:housenumber" v="7001"/><tag k="coa:place_id" v="211137"/></node><node id="-8" lat="30.22153" lon="-97.838281" changeset="false"><tag k="addr:street" v="West William Cannon Drive"/><tag k="addr:housenumber" v="4221 1/2"/><tag k="coa:place_id" v="3320800"/></node><node id="-9" lat="30.221302" lon="-97.855649" changeset="false"><tag k="addr:street" v="Dry Wells Road"/><tag k="addr:housenumber" v="5302"/><tag k="coa:place_id" v="757611"/></node><node id="-10" lat="30.219665" lon="-97.855745" changeset="false"><tag k="addr:street" v="Convict Hill Road"/><tag k="addr:housenumber" v="5208"/><tag k="coa:place_id" v="63057"/></node><node id="-11" lat="30.224484" lon="-97.848404" changeset="false"><tag k="addr:street" v="West William Cannon Drive"/><tag k="addr:housenumber" v="5005"/><tag k="coa:place_id" v="639316"/></node><node id="-12" lat="30.223711" lon="-97.846337" changeset="false"><tag k="addr:street" v="Hitching Post Circle"/><tag k="addr:housenumber" v="6803"/><tag k="coa:place_id" v="307599"/></node><node id="-13" lat="30.224344" lon="-97.855008" changeset="false"><tag k="addr:street" v="Wheeler Branch Trail"/><tag k="addr:housenumber" v="7001"/><tag k="coa:place_id" v="649203"/></node><node id="-14" lat="30.222565" lon="-97.850639" changeset="false"><tag k="addr:street" v="Cornelia Drive"/><tag k="addr:housenumber" v="5102"/><tag k="coa:place_id" v="876836"/></node><node id="-15" lat="30.222354" lon="-97.853485" changeset="false"><tag k="addr:street" v="Wheeler Branch Trail"/><tag k="addr:housenumber" v="7201"/><tag k="coa:place_id" v="339712"/></node><node id="-16" lat="30.219548" lon="-97.855502" changeset="false"><tag k="addr:street" v="Convict Hill Road"/><tag k="addr:housenumber" v="5204"/><tag k="coa:place_id" v="63059"/></node><node id="-17" lat="30.220617" lon="-97.853854" changeset="false"><tag k="addr:street" v="Wagon Hitch Cove"/><tag k="addr:housenumber" v="5105"/><tag k="coa:place_id" v="303303"/></node><node id="-18" lat="30.218898" lon="-97.853958" changeset="false"><tag k="addr:street" v="Convict Hill Road"/><tag k="addr:housenumber" v="5100"/><tag k="coa:place_id" v="63046"/></node><node id="-19" lat="30.221564" lon="-97.850324" changeset="false"><tag k="addr:street" v="Western Oaks Boulevard"/><tag k="addr:housenumber" v="7004"/><tag k="coa:place_id" v="220872"/></node><node id="-20" lat="30.220977" lon="-97.855963" changeset="false"><tag k="addr:street" v="Dry Wells Road"/><tag k="addr:housenumber" v="5309"/><tag k="coa:place_id" v="757491"/></node><node id="-21" lat="30.223695" lon="-97.854547" changeset="false"><tag k="addr:street" v="Wheeler Branch Trail"/><tag k="addr:housenumber" v="7006"/><tag k="coa:place_id" v="750033"/></node><node id="-22" lat="30.217984" lon="-97.846969" changeset="false"><tag k="addr:street" v="Convict Hill Road"/><tag k="addr:housenumber" v="4614"/><tag k="coa:place_id" v="86682"/></node><node id="-23" lat="30.223383" lon="-97.850368" changeset="false"><tag k="addr:street" v="Western Oaks Boulevard"/><tag k="addr:housenumber" v="6904"/><tag k="coa:place_id" v="124091"/></node><node id="-24" lat="30.223054" lon="-97.855274" changeset="false"><tag k="addr:street" v="Wheeler Branch Circle"/><tag k="addr:housenumber" v="5305"/><tag k="coa:place_id" v="757317"/></node><node id="-25" lat="30.218175" lon="-97.852668" changeset="false"><tag k="addr:street" v="Convict Hill Road"/><tag k="addr:housenumber" v="5006"/><tag k="coa:place_id" v="63048"/></node><node id="-26" lat="30.221942" lon="-97.847255" changeset="false"><tag k="addr:street" v="Treaty Oak Circle"/><tag k="addr:housenumber" v="6905"/><tag k="coa:place_id" v="990500"/></node><node id="-27" lat="30.221424" lon="-97.847878" changeset="false"><tag k="addr:street" v="Woodcreek Road"/><tag k="addr:housenumber" v="4804 1/2"/><tag k="coa:place_id" v="3291628"/></node><node id="-28" lat="30.220885" lon="-97.855486" changeset="false"><tag k="addr:street" v="Dry Wells Road"/><tag k="addr:housenumber" v="5303"/><tag k="coa:place_id" v="757563"/></node><node id="-29" lat="30.21816" lon="-97.852637" changeset="false"><tag k="addr:street" v="Convict Hill Road"/><tag k="addr:housenumber" v="5004"/><tag k="coa:place_id" v="63049"/></node><node id="-30" lat="30.22153" lon="-97.8547" changeset="false"><tag k="addr:street" v="Dry Wells Road"/><tag k="addr:housenumber" v="5208"/><tag k="coa:place_id" v="757509"/></node><node id="-31" lat="30.221383" lon="-97.839646" changeset="false"><tag k="addr:street" v="West William Cannon Drive"/><tag k="addr:housenumber" v="4301"/><tag k="coa:place_id" v="212971"/></node><node id="-32" lat="30.222307" lon="-97.851163" changeset="false"><tag k="addr:street" v="Robert Dixon Drive"/><tag k="addr:housenumber" v="7000"/><tag k="coa:place_id" v="3051231"/></node><node id="-33" lat="30.221883" lon="-97.846641" changeset="false"><tag k="addr:street" v="Range Oak Circle"/><tag k="addr:housenumber" v="6904"/><tag k="coa:place_id" v="874928"/></node><node id="-34" lat="30.223542" lon="-97.843603" changeset="false"><tag k="addr:street" v="West William Cannon Drive"/><tag k="addr:housenumber" v="4701"/><tag k="coa:place_id" v="589054"/></node><node id="-35" lat="30.219782" lon="-97.855987" changeset="false"><tag k="addr:street" v="Convict Hill Road"/><tag k="addr:housenumber" v="5212"/><tag k="coa:place_id" v="63056"/></node><node id="-36" lat="30.221078" lon="-97.837912" changeset="false"><tag k="addr:street" v="West William Cannon Drive"/><tag k="addr:housenumber" v="4203"/><tag k="coa:place_id" v="146873"/></node><node id="-37" lat="30.224391" lon="-97.855175" changeset="false"><tag k="addr:street" v="Beckett Road"/><tag k="addr:housenumber" v="6909"/><tag k="coa:place_id" v="607017"/></node><node id="-38" lat="30.222258" lon="-97.850096" changeset="false"><tag k="addr:street" v="Western Oaks Boulevard"/><tag k="addr:housenumber" v="7000"/><tag k="coa:place_id" v="876920"/></node><node id="-39" lat="30.224298" lon="-97.855231" changeset="false"><tag k="addr:street" v="Beckett Road"/><tag k="addr:housenumber" v="6911"/><tag k="coa:place_id" v="607011"/></node><node id="-40" lat="30.223605" lon="-97.854332" changeset="false"><tag k="addr:street" v="Wheeler Branch Trail"/><tag k="addr:housenumber" v="7008"/><tag k="coa:place_id" v="750045"/></node><node id="-41" lat="30.224061" lon="-97.854275" changeset="false"><tag k="addr:street" v="Wheeler Branch Trail"/><tag k="addr:housenumber" v="7007"/><tag k="coa:place_id" v="750039"/></node><node id="-42" lat="30.223363" lon="-97.843588" changeset="false"><tag k="addr:street" v="West William Cannon Drive"/><tag k="addr:housenumber" v="4625"/><tag k="coa:place_id" v="82667"/></node><node id="-43" lat="30.220118" lon="-97.85476" changeset="false"><tag k="addr:street" v="Dusty Trail Cove"/><tag k="addr:housenumber" v="5107"/><tag k="coa:place_id" v="223977"/></node><node id="-44" lat="30.220422" lon="-97.854421" changeset="false"><tag k="addr:street" v="Dusty Trail Cove"/><tag k="addr:housenumber" v="5106"/><tag k="coa:place_id" v="224853"/></node><node id="-45" lat="30.224055" lon="-97.847739" changeset="false"><tag k="addr:street" v="Terra Oak Circle"/><tag k="addr:housenumber" v="6802"/><tag k="coa:place_id" v="195261"/></node><node id="-46" lat="30.21819" lon="-97.852699" changeset="false"><tag k="addr:street" v="Convict Hill Road"/><tag k="addr:housenumber" v="5008"/><tag k="coa:place_id" v="63047"/></node><node id="-47" lat="30.219892" lon="-97.846119" changeset="false"><tag k="addr:street" v="Bent Oak Circle"/><tag k="addr:housenumber" v="7012"/><tag k="coa:place_id" v="459411"/></node><node id="-48" lat="30.21949" lon="-97.855381" changeset="false"><tag k="addr:street" v="Convict Hill Road"/><tag k="addr:housenumber" v="5202"/><tag k="coa:place_id" v="63060"/></node><node id="-49" lat="30.223363" lon="-97.851535" changeset="false"><tag k="addr:street" v="Robert Dixon Drive"/><tag k="addr:housenumber" v="6915"/><tag k="coa:place_id" v="211524"/></node><node id="-50" lat="30.219607" lon="-97.855624" changeset="false"><tag k="addr:street" v="Convict Hill Road"/><tag k="addr:housenumber" v="5206"/><tag k="coa:place_id" v="63058"/></node><node id="-51" lat="30.224592" lon="-97.850213" changeset="false"><tag k="addr:street" v="Jacobs Creek Court"/><tag k="addr:housenumber" v="5100"/><tag k="coa:place_id" v="172986"/></node><node id="-52" lat="30.218047" lon="-97.847244" changeset="false"><tag k="addr:street" v="Convict Hill Road"/><tag k="addr:housenumber" v="4700"/><tag k="coa:place_id" v="86683"/></node><node id="-53" lat="30.223966" lon="-97.846272" changeset="false"><tag k="addr:street" v="Hitching Post Circle"/><tag k="addr:housenumber" v="6801"/><tag k="coa:place_id" v="268911"/></node><node id="-54" lat="30.218145" lon="-97.852606" changeset="false"><tag k="addr:street" v="Convict Hill Road"/><tag k="addr:housenumber" v="5002"/><tag k="coa:place_id" v="63050"/></node><node id="-55" lat="30.220745" lon="-97.83758" changeset="false"><tag k="addr:street" v="West William Cannon Drive"/><tag k="addr:housenumber" v="4201"/><tag k="coa:place_id" v="146874"/></node><node id="-56" lat="30.217986" lon="-97.852118" changeset="false"><tag k="addr:street" v="Convict Hill Road"/><tag k="addr:housenumber" v="4916"/><tag k="coa:place_id" v="63053"/></node><node id="-57" lat="30.217655" lon="-97.851456" changeset="false"><tag k="addr:street" v="Convict Hill Road"/><tag k="addr:housenumber" v="4904"/><tag k="coa:place_id" v="63055"/></node><node id="-58" lat="30.221097" lon="-97.849377" changeset="false"><tag k="addr:street" v="Woodcreek Road"/><tag k="addr:housenumber" v="4902"/><tag k="coa:place_id" v="1045484"/></node><node id="-59" lat="30.22028" lon="-97.838302" changeset="false"><tag k="addr:street" v="South MoPac Expressway"/><tag k="addr:housenumber" v="6722"/><tag k="coa:place_id" v="146875"/></node><node id="-60" lat="30.217642" lon="-97.846902" changeset="false"><tag k="addr:street" v="Convict Hill Road"/><tag k="addr:housenumber" v="4612"/><tag k="coa:place_id" v="235192"/></node><node id="-61" lat="30.220574" lon="-97.850767" changeset="false"><tag k="addr:street" v="Woodcreek Road"/><tag k="addr:housenumber" v="5001"/><tag k="coa:place_id" v="981842"/></node><node id="-62" lat="30.221246" lon="-97.851686" changeset="false"><tag k="addr:street" v="Rolling Meadow Road"/><tag k="addr:housenumber" v="7200"/><tag k="coa:place_id" v="84832"/></node><node id="-63" lat="30.223964" lon="-97.855232" changeset="false"><tag k="addr:street" v="Wheeler Branch Trail"/><tag k="addr:housenumber" v="7000"/><tag k="coa:place_id" v="648933"/></node><node id="-64" lat="30.223544" lon="-97.844257" changeset="false"><tag k="addr:street" v="West William Cannon Drive"/><tag k="addr:housenumber" v="4803"/><tag k="coa:place_id" v="1020176"/></node><node id="-65" lat="30.217789" lon="-97.851701" changeset="false"><tag k="addr:street" v="Convict Hill Road"/><tag k="addr:housenumber" v="4908"/><tag k="coa:place_id" v="63054"/></node><node id="-66" lat="30.223201" lon="-97.851928" changeset="false"><tag k="addr:street" v="Robert Dixon Drive"/><tag k="addr:housenumber" v="6916"/><tag k="coa:place_id" v="173015"/></node><node id="-67" lat="30.222883" lon="-97.854401" changeset="false"><tag k="addr:street" v="Wheeler Branch Circle"/><tag k="addr:housenumber" v="5204"/><tag k="coa:place_id" v="758529"/></node><node id="-68" lat="30.22288" lon="-97.854374" changeset="false"><tag k="addr:street" v="Wheeler Branch Circle"/><tag k="addr:housenumber" v="5206"/><tag k="coa:place_id" v="767235"/></node><node id="-69" lat="30.218052" lon="-97.852295" changeset="false"><tag k="addr:street" v="Convict Hill Road"/><tag k="addr:housenumber" v="4920"/><tag k="coa:place_id" v="63051"/></node><node id="-70" lat="30.218218" lon="-97.852212" changeset="false"><tag k="addr:street" v="Flaming Oak Cove"/><tag k="addr:housenumber" v="4917"/><tag k="coa:place_id" v="131800"/></node><node id="-71" lat="30.218001" lon="-97.851805" changeset="false"><tag k="addr:street" v="Flaming Oak Cove"/><tag k="addr:housenumber" v="4909"/><tag k="coa:place_id" v="131802"/></node><node id="-72" lat="30.217882" lon="-97.851866" changeset="false"><tag k="addr:street" v="Convict Hill Road"/><tag k="addr:housenumber" v="4912"/><tag k="coa:place_id" v="63052"/></node></osm>