<?xml version="1.0" encoding="UTF-8"?><osm version="0.6" generator="github.com/aaronlidman/osm-and-geojson"><node id="-1" lat="30.173125" lon="-97.761599" changeset="false"><tag k="addr:street" v="Chateau Village Way"/><tag k="addr:housenumber" v="4508"/><tag k="addr:postcode" v="78744"/></node><node id="-2" lat="30.173598" lon="-97.768653" changeset="false"><tag k="addr:street" v="Bluff Springs Road"/><tag k="addr:housenumber" v="7801"/><tag k="addr:postcode" v="78744"/></node><node id="-3" lat="30.172628" lon="-97.763102" changeset="false"><tag k="addr:street" v="Chateau Village Way"/><tag k="addr:housenumber" v="4406"/><tag k="addr:postcode" v="78744"/></node><node id="-4" lat="30.17152" lon="-97.759248" changeset="false"><tag k="addr:street" v="Chateau Village Way"/><tag k="addr:housenumber" v="4642"/><tag k="addr:postcode" v="78744"/></node><node id="-5" lat="30.170862" lon="-97.759982" changeset="false"><tag k="addr:street" v="Edge Creek Drive"/><tag k="addr:housenumber" v="4637"/><tag k="addr:postcode" v="78744"/></node><node id="-6" lat="30.170812" lon="-97.760336" changeset="false"><tag k="addr:street" v="Edge Creek Drive"/><tag k="addr:housenumber" v="4629"/><tag k="addr:postcode" v="78744"/></node><node id="-7" lat="30.171787" lon="-97.75759" changeset="false"><tag k="addr:street" v="Edge Creek Drive"/><tag k="addr:housenumber" v="4824"/><tag k="addr:postcode" v="78744"/></node><node id="-8" lat="30.172337" lon="-97.759002" changeset="false"><tag k="addr:street" v="Holly Oak Circle"/><tag k="addr:housenumber" v="7608"/><tag k="addr:postcode" v="78744"/></node><node id="-9" lat="30.170894" lon="-97.759455" changeset="false"><tag k="addr:street" v="Edge Creek Drive"/><tag k="addr:housenumber" v="4649"/><tag k="addr:postcode" v="78744"/></node><node id="-10" lat="30.174326" lon="-97.761075" changeset="false"><tag k="addr:street" v="Ashley Way"/><tag k="addr:housenumber" v="4503"/><tag k="addr:postcode" v="78744"/></node><node id="-11" lat="30.17333" lon="-97.765156" changeset="false"><tag k="addr:street" v="Summer Wind Circle"/><tag k="addr:housenumber" v="7712"/><tag k="addr:postcode" v="78744"/></node><node id="-12" lat="30.172717" lon="-97.768053" changeset="false"><tag k="addr:street" v="Edge Park Circle"/><tag k="addr:housenumber" v="7812"/><tag k="addr:postcode" v="78744"/></node><node id="-13" lat="30.171888" lon="-97.757921" changeset="false"><tag k="addr:street" v="Edge Creek Drive"/><tag k="addr:housenumber" v="4816"/><tag k="addr:postcode" v="78744"/></node><node id="-14" lat="30.171184" lon="-97.758201" changeset="false"><tag k="addr:street" v="Edge Creek Drive"/><tag k="addr:housenumber" v="4807"/><tag k="addr:postcode" v="78744"/></node><node id="-15" lat="30.170767" lon="-97.760504" changeset="false"><tag k="addr:street" v="Edge Creek Drive"/><tag k="addr:housenumber" v="4625"/><tag k="addr:postcode" v="78744"/></node><node id="-16" lat="30.174648" lon="-97.762033" changeset="false"><tag k="addr:street" v="Ashley Way"/><tag k="addr:housenumber" v="4405"/><tag k="addr:postcode" v="78744"/></node><node id="-17" lat="30.173816" lon="-97.767188" changeset="false"><tag k="addr:street" v="Bellehaven Court"/><tag k="addr:housenumber" v="7717"/><tag k="addr:postcode" v="78744"/></node><node id="-18" lat="30.171686" lon="-97.757259" changeset="false"><tag k="addr:street" v="Edge Creek Drive"/><tag k="addr:housenumber" v="4832"/><tag k="addr:postcode" v="78744"/></node><node id="-19" lat="30.171385" lon="-97.757663" changeset="false"><tag k="addr:street" v="Edge Creek Drive"/><tag k="addr:housenumber" v="4825"/><tag k="addr:postcode" v="78744"/></node><node id="-20" lat="30.173179" lon="-97.761771" changeset="false"><tag k="addr:street" v="Chateau Village Way"/><tag k="addr:housenumber" v="4504"/><tag k="addr:postcode" v="78744"/></node><node id="-21" lat="30.171707" lon="-97.75884" changeset="false"><tag k="addr:street" v="Holly Oak Circle"/><tag k="addr:housenumber" v="7609"/><tag k="addr:postcode" v="78744"/></node><node id="-22" lat="30.174155" lon="-97.76488" changeset="false"><tag k="addr:street" v="Sunny Hills Drive"/><tag k="addr:housenumber" v="2428"/><tag k="addr:postcode" v="78744"/></node><node id="-23" lat="30.171395" lon="-97.765003" changeset="false"><tag k="addr:street" v="Chateau Village Way"/><tag k="addr:housenumber" v="2509"/><tag k="addr:postcode" v="78744"/></node><node id="-24" lat="30.172243" lon="-97.75941" changeset="false"><tag k="addr:street" v="Chateau Village Way"/><tag k="addr:housenumber" v="4628"/><tag k="addr:postcode" v="78744"/></node><node id="-25" lat="30.170749" lon="-97.760672" changeset="false"><tag k="addr:street" v="Edge Creek Drive"/><tag k="addr:housenumber" v="4621"/><tag k="addr:postcode" v="78744"/></node><node id="-26" lat="30.174551" lon="-97.763678" changeset="false"><tag k="addr:street" v="Ashley Way"/><tag k="addr:housenumber" v="2505"/><tag k="addr:postcode" v="78744"/></node><node id="-27" lat="30.173863" lon="-97.767513" changeset="false"><tag k="addr:street" v="Arbor Ridge Court"/><tag k="addr:housenumber" v="7721"/><tag k="addr:postcode" v="78744"/></node><node id="-28" lat="30.172958" lon="-97.767187" changeset="false"><tag k="addr:street" v="Chateau Village Way"/><tag k="addr:housenumber" v="2343"/><tag k="addr:postcode" v="78744"/></node><node id="-29" lat="30.173302" lon="-97.76636" changeset="false"><tag k="addr:street" v="Muirlands Drive"/><tag k="addr:housenumber" v="2415"/><tag k="addr:postcode" v="78744"/></node><node id="-30" lat="30.171677" lon="-97.759012" changeset="false"><tag k="addr:street" v="Holly Oak Circle"/><tag k="addr:housenumber" v="7613"/><tag k="addr:postcode" v="78744"/></node><node id="-31" lat="30.172378" lon="-97.759514" changeset="false"><tag k="addr:street" v="Chateau Village Way"/><tag k="addr:housenumber" v="4624"/><tag k="addr:postcode" v="78744"/></node><node id="-32" lat="30.170463" lon="-97.75814" changeset="false"><tag k="addr:street" v="Hidden Brook Court"/><tag k="addr:housenumber" v="7708"/><tag k="addr:postcode" v="78744"/></node><node id="-33" lat="30.172036" lon="-97.760728" changeset="false"><tag k="addr:street" v="Knottingwood Court"/><tag k="addr:housenumber" v="4612"/><tag k="addr:postcode" v="78744"/></node><node id="-34" lat="30.172732" lon="-97.760313" changeset="false"><tag k="addr:street" v="Chateau Village Way"/><tag k="addr:housenumber" v="4604"/><tag k="addr:postcode" v="78744"/></node><node id="-35" lat="30.172403" lon="-97.768025" changeset="false"><tag k="addr:street" v="Edge Park Circle"/><tag k="addr:housenumber" v="7904"/><tag k="addr:postcode" v="78744"/></node><node id="-36" lat="30.172331" lon="-97.766569" changeset="false"><tag k="addr:street" v="Ardmore Circle"/><tag k="addr:housenumber" v="7807"/><tag k="addr:postcode" v="78744"/></node><node id="-37" lat="30.174029" lon="-97.764393" changeset="false"><tag k="addr:street" v="Sunny Hills Drive"/><tag k="addr:housenumber" v="2500"/><tag k="addr:postcode" v="78744"/></node><node id="-38" lat="30.170549" lon="-97.758484" changeset="false"><tag k="addr:street" v="Village Creek Circle"/><tag k="addr:housenumber" v="7714"/><tag k="addr:postcode" v="78744"/></node><node id="-39" lat="30.172424" lon="-97.763461" changeset="false"><tag k="addr:street" v="Sunny Hills Drive"/><tag k="addr:housenumber" v="2548"/><tag k="addr:postcode" v="78744"/></node><node id="-40" lat="30.171671" lon="-97.767766" changeset="false"><tag k="addr:street" v="Edge Park Circle"/><tag k="addr:housenumber" v="7922"/><tag k="addr:postcode" v="78744"/></node><node id="-41" lat="30.176482" lon="-97.769365" changeset="false"><tag k="addr:street" v="Bluff Springs Road"/><tag k="addr:housenumber" v="7501"/><tag k="addr:postcode" v="78744"/></node><node id="-42" lat="30.173664" lon="-97.762783" changeset="false"><tag k="addr:street" v="Barkdale Court"/><tag k="addr:housenumber" v="7600"/><tag k="addr:postcode" v="78744"/></node><node id="-43" lat="30.17298" lon="-97.761129" changeset="false"><tag k="addr:street" v="Chateau Village Way"/><tag k="addr:housenumber" v="4520"/><tag k="addr:postcode" v="78744"/></node><node id="-44" lat="30.172171" lon="-97.761118" changeset="false"><tag k="addr:street" v="Knottingwood Court"/><tag k="addr:housenumber" v="4604"/><tag k="addr:postcode" v="78744"/></node><node id="-45" lat="30.171888" lon="-97.767102" changeset="false"><tag k="addr:street" v="Ardmore Circle"/><tag k="addr:housenumber" v="7904"/><tag k="addr:postcode" v="78744"/></node><node id="-46" lat="30.172687" lon="-97.760141" changeset="false"><tag k="addr:street" v="Chateau Village Way"/><tag k="addr:housenumber" v="4608"/><tag k="addr:postcode" v="78744"/></node><node id="-47" lat="30.17139" lon="-97.759647" changeset="false"><tag k="addr:street" v="Chateau Village Way"/><tag k="addr:housenumber" v="4643"/><tag k="addr:postcode" v="78744"/></node><node id="-48" lat="30.172819" lon="-97.760639" changeset="false"><tag k="addr:street" v="Chateau Village Way"/><tag k="addr:housenumber" v="4532"/><tag k="addr:postcode" v="78744"/></node><node id="-49" lat="30.174885" lon="-97.768085" changeset="false"><tag k="addr:street" v="Sunny Hills Drive"/><tag k="addr:housenumber" v="2229"/><tag k="addr:postcode" v="78744"/></node><node id="-50" lat="30.172165" lon="-97.758502" changeset="false"><tag k="addr:street" v="Holly Oak Circle"/><tag k="addr:housenumber" v="7600"/><tag k="addr:postcode" v="78744"/></node><node id="-51" lat="30.171939" lon="-97.758105" changeset="false"><tag k="addr:street" v="Edge Creek Drive"/><tag k="addr:housenumber" v="4812"/><tag k="addr:postcode" v="78744"/></node><node id="-52" lat="30.172978" lon="-97.76216" changeset="false"><tag k="addr:street" v="Chateau Village Way"/><tag k="addr:housenumber" v="4428"/><tag k="addr:postcode" v="78744"/></node><node id="-53" lat="30.170844" lon="-97.760168" changeset="false"><tag k="addr:street" v="Edge Creek Drive"/><tag k="addr:housenumber" v="4633"/><tag k="addr:postcode" v="78744"/></node><node id="-54" lat="30.172953" lon="-97.762321" changeset="false"><tag k="addr:street" v="Chateau Village Way"/><tag k="addr:housenumber" v="4424"/><tag k="addr:postcode" v="78744"/></node><node id="-55" lat="30.172541" lon="-97.761218" changeset="false"><tag k="addr:street" v="Chateau Village Way"/><tag k="addr:housenumber" v="4521"/><tag k="addr:postcode" v="78744"/></node><node id="-56" lat="30.173131" lon="-97.767725" changeset="false"><tag k="addr:street" v="Chateau Village Way"/><tag k="addr:housenumber" v="2321"/><tag k="addr:postcode" v="78744"/></node><node id="-57" lat="30.172835" lon="-97.76805" changeset="false"><tag k="addr:street" v="Edge Park Circle"/><tag k="addr:housenumber" v="7808"/><tag k="addr:postcode" v="78744"/></node><node id="-58" lat="30.172803" lon="-97.767542" changeset="false"><tag k="addr:street" v="Edge Park Circle"/><tag k="addr:housenumber" v="7809"/><tag k="addr:postcode" v="78744"/></node><node id="-59" lat="30.173411" lon="-97.762197" changeset="false"><tag k="addr:street" v="Barkdale Court"/><tag k="addr:housenumber" v="7601"/><tag k="addr:postcode" v="78744"/></node><node id="-60" lat="30.172065" lon="-97.767032" changeset="false"><tag k="addr:street" v="Ardmore Circle"/><tag k="addr:housenumber" v="7900"/><tag k="addr:postcode" v="78744"/></node><node id="-61" lat="30.17303" lon="-97.761295" changeset="false"><tag k="addr:street" v="Chateau Village Way"/><tag k="addr:housenumber" v="4516"/><tag k="addr:postcode" v="78744"/></node><node id="-62" lat="30.174812" lon="-97.766654" changeset="false"><tag k="addr:street" v="Sunny Hills Drive"/><tag k="addr:housenumber" v="2320"/><tag k="addr:postcode" v="78744"/></node><node id="-63" lat="30.171343" lon="-97.75787" changeset="false"><tag k="addr:street" v="Edge Creek Drive"/><tag k="addr:housenumber" v="4817"/><tag k="addr:postcode" v="78744"/></node><node id="-64" lat="30.170929" lon="-97.759101" changeset="false"><tag k="addr:street" v="Edge Creek Drive"/><tag k="addr:housenumber" v="4705"/><tag k="addr:postcode" v="78744"/></node><node id="-65" lat="30.171304" lon="-97.761432" changeset="false"><tag k="addr:street" v="Edge Creek Drive"/><tag k="addr:housenumber" v="4544"/><tag k="addr:postcode" v="78744"/></node><node id="-66" lat="30.171976" lon="-97.760555" changeset="false"><tag k="addr:street" v="Knottingwood Court"/><tag k="addr:housenumber" v="4616"/><tag k="addr:postcode" v="78744"/></node><node id="-67" lat="30.171897" lon="-97.760404" changeset="false"><tag k="addr:street" v="Knottingwood Court"/><tag k="addr:housenumber" v="4620"/><tag k="addr:postcode" v="78744"/></node><node id="-68" lat="30.171837" lon="-97.757751" changeset="false"><tag k="addr:street" v="Edge Creek Drive"/><tag k="addr:housenumber" v="4820"/><tag k="addr:postcode" v="78744"/></node><node id="-69" lat="30.171881" lon="-97.762202" changeset="false"><tag k="addr:street" v="Edge Creek Drive"/><tag k="addr:housenumber" v="4519"/><tag k="addr:postcode" v="78744"/></node><node id="-70" lat="30.172457" lon="-97.759665" changeset="false"><tag k="addr:street" v="Chateau Village Way"/><tag k="addr:housenumber" v="4620"/><tag k="addr:postcode" v="78744"/></node><node id="-71" lat="30.170716" lon="-97.758906" changeset="false"><tag k="addr:street" v="Village Creek Circle"/><tag k="addr:housenumber" v="7706"/><tag k="addr:postcode" v="78744"/></node><node id="-72" lat="30.17217" lon="-97.766615" changeset="false"><tag k="addr:street" v="Ardmore Circle"/><tag k="addr:housenumber" v="7813"/><tag k="addr:postcode" v="78744"/></node><node id="-73" lat="30.173785" lon="-97.768777" changeset="false"><tag k="addr:street" v="Bluff Springs Road"/><tag k="addr:housenumber" v="7703"/><tag k="addr:postcode" v="78744"/></node><node id="-74" lat="30.174788" lon="-97.76407" changeset="false"><tag k="addr:street" v="Ashley Way"/><tag k="addr:housenumber" v="2502"/><tag k="addr:postcode" v="78744"/></node><node id="-75" lat="30.171293" lon="-97.758038" changeset="false"><tag k="addr:street" v="Edge Creek Drive"/><tag k="addr:housenumber" v="4813"/><tag k="addr:postcode" v="78744"/></node><node id="-76" lat="30.172536" lon="-97.75983" changeset="false"><tag k="addr:street" v="Chateau Village Way"/><tag k="addr:housenumber" v="4616"/><tag k="addr:postcode" v="78744"/></node><node id="-77" lat="30.170892" lon="-97.759628" changeset="false"><tag k="addr:street" v="Edge Creek Drive"/><tag k="addr:housenumber" v="4645"/><tag k="addr:postcode" v="78744"/></node><node id="-78" lat="30.170715" lon="-97.76084" changeset="false"><tag k="addr:street" v="Edge Creek Drive"/><tag k="addr:housenumber" v="4617"/><tag k="addr:postcode" v="78744"/></node><node id="-79" lat="30.174612" lon="-97.767259" changeset="false"><tag k="addr:street" v="Sunny Hills Drive"/><tag k="addr:housenumber" v="2309"/><tag k="addr:postcode" v="78744"/></node><node id="-80" lat="30.173238" lon="-97.761936" changeset="false"><tag k="addr:street" v="Chateau Village Way"/><tag k="addr:housenumber" v="4500"/><tag k="addr:postcode" v="78744"/></node><node id="-81" lat="30.172543" lon="-97.764026" changeset="false"><tag k="addr:street" v="Muirlands Drive"/><tag k="addr:housenumber" v="2525"/><tag k="addr:postcode" v="78744"/></node><node id="-82" lat="30.171804" lon="-97.768053" changeset="false"><tag k="addr:street" v="Edge Park Circle"/><tag k="addr:housenumber" v="7918"/><tag k="addr:postcode" v="78744"/></node><node id="-83" lat="30.17088" lon="-97.759808" changeset="false"><tag k="addr:street" v="Edge Creek Drive"/><tag k="addr:housenumber" v="4641"/><tag k="addr:postcode" v="78744"/></node></osm>