<?xml version="1.0" encoding="UTF-8"?><osm version="0.6" generator="github.com/aaronlidman/osm-and-geojson"><node id="-1" lat="30.398892" lon="-97.679697" changeset="false"><tag k="addr:street" v="North Lamar Boulevard"/><tag k="addr:housenumber" v="12140 1/2"/><tag k="coa:place_id" v="1125867"/></node><node id="-2" lat="30.403883" lon="-97.693974" changeset="false"><tag k="addr:street" v="Tanglewild Drive"/><tag k="addr:housenumber" v="12101"/><tag k="coa:place_id" v="89308"/></node><node id="-3" lat="30.40426" lon="-97.69474" changeset="false"><tag k="addr:street" v="Tanglewild Drive"/><tag k="addr:housenumber" v="12104"/><tag k="coa:place_id" v="89307"/></node><node id="-4" lat="30.402955" lon="-97.675345" changeset="false"><tag k="addr:street" v="North Interstate Highway 35 Service Road,1110"/><tag k="addr:housenumber" v="12400"/><tag k="coa:place_id" v="3173362"/></node><node id="-5" lat="30.393711" lon="-97.672075" changeset="false"><tag k="addr:street" v="North Interstate Highway 35 Service Road,1110"/><tag k="addr:housenumber" v="12138"/><tag k="coa:place_id" v="234111"/></node><node id="-6" lat="30.407617" lon="-97.692014" changeset="false"><tag k="addr:street" v="Cedar Bend Drive"/><tag k="addr:housenumber" v="1701"/><tag k="coa:place_id" v="100524"/></node><node id="-7" lat="30.401725" lon="-97.679577" changeset="false"><tag k="addr:street" v="North Lamar Boulevard"/><tag k="addr:housenumber" v="12248"/><tag k="coa:place_id" v="584331"/></node><node id="-8" lat="30.40109" lon="-97.67938" changeset="false"><tag k="addr:street" v="North Lamar Boulevard"/><tag k="addr:housenumber" v="12234"/><tag k="coa:place_id" v="374354"/></node><node id="-9" lat="30.396925" lon="-97.67773" changeset="false"><tag k="addr:street" v="Dillingham Lane"/><tag k="addr:housenumber" v="610"/><tag k="coa:place_id" v="374492"/></node><node id="-10" lat="30.405683" lon="-97.678407" changeset="false"><tag k="addr:street" v="North Lamar Boulevard"/><tag k="addr:housenumber" v="12373"/><tag k="coa:place_id" v="1003365"/></node><node id="-11" lat="30.407206" lon="-97.696753" changeset="false"><tag k="addr:street" v="Metric Boulevard"/><tag k="addr:housenumber" v="12195"/><tag k="coa:place_id" v="81365"/></node><node id="-12" lat="30.401204" lon="-97.674871" changeset="false"><tag k="addr:street" v="North Interstate Highway 35 Service Road,1110"/><tag k="addr:housenumber" v="12336 1/2"/><tag k="coa:place_id" v="3156049"/></node><node id="-13" lat="30.401109" lon="-97.675163" changeset="false"><tag k="addr:street" v="North Interstate Highway 35 Service Road,1110"/><tag k="addr:housenumber" v="12330"/><tag k="coa:place_id" v="3324824"/></node><node id="-14" lat="30.406184" lon="-97.692268" changeset="false"><tag k="addr:street" v="Tanglewild Drive"/><tag k="addr:housenumber" v="12221"/><tag k="coa:place_id" v="574905"/></node><node id="-15" lat="30.406049" lon="-97.693122" changeset="false"><tag k="addr:street" v="Tanglewild Drive"/><tag k="addr:housenumber" v="12214"/><tag k="coa:place_id" v="3114428"/></node><node id="-16" lat="30.40653" lon="-97.677473" changeset="false"><tag k="addr:street" v="North Lamar Boulevard"/><tag k="addr:housenumber" v="12401"/><tag k="coa:place_id" v="227976"/></node><node id="-17" lat="30.402227" lon="-97.678845" changeset="false"><tag k="addr:street" v="North Lamar Boulevard"/><tag k="addr:housenumber" v="12301"/><tag k="coa:place_id" v="175675"/></node><node id="-18" lat="30.40671" lon="-97.678077" changeset="false"><tag k="addr:street" v="North Lamar Boulevard"/><tag k="addr:housenumber" v="12419"/><tag k="coa:place_id" v="215907"/></node><node id="-19" lat="30.396901" lon="-97.677679" changeset="false"><tag k="addr:street" v="Dillingham Lane"/><tag k="addr:housenumber" v="604"/><tag k="coa:place_id" v="374504"/></node><node id="-20" lat="30.393663" lon="-97.672088" changeset="false"><tag k="addr:street" v="North Interstate Highway 35 Service Road,1110"/><tag k="addr:housenumber" v="12136 1/2"/><tag k="coa:place_id" v="3118891"/></node><node id="-21" lat="30.397674" lon="-97.679202" changeset="false"><tag k="addr:street" v="North Lamar Boulevard"/><tag k="addr:housenumber" v="12139"/><tag k="coa:place_id" v="374480"/></node><node id="-22" lat="30.405994" lon="-97.685856" changeset="false"><tag k="addr:street" v="Old Cedar Lane"/><tag k="addr:housenumber" v="1401"/><tag k="coa:place_id" v="147657"/></node><node id="-23" lat="30.404022" lon="-97.694626" changeset="false"><tag k="addr:street" v="Tanglewild Drive"/><tag k="addr:housenumber" v="12102"/><tag k="coa:place_id" v="89306"/></node><node id="-24" lat="30.403959" lon="-97.693684" changeset="false"><tag k="addr:street" v="Tanglewild Drive"/><tag k="addr:housenumber" v="12103"/><tag k="coa:place_id" v="89309"/></node><node id="-25" lat="30.393003" lon="-97.67207" changeset="false"><tag k="addr:street" v="North Interstate Highway 35 Service Road,1110"/><tag k="addr:housenumber" v="12124"/><tag k="coa:place_id" v="471212"/></node><node id="-26" lat="30.399685" lon="-97.678582" changeset="false"><tag k="addr:street" v="North Lamar Boulevard"/><tag k="addr:housenumber" v="12205"/><tag k="coa:place_id" v="554775"/></node><node id="-27" lat="30.40629" lon="-97.675653" changeset="false"><tag k="addr:street" v="North Interstate Highway 35 Service Road,1110"/><tag k="addr:housenumber" v="12520 1/2"/><tag k="coa:place_id" v="3047209"/></node><node id="-28" lat="30.40676" lon="-97.692719" changeset="false"><tag k="addr:street" v="Tanglewild Drive"/><tag k="addr:housenumber" v="12222"/><tag k="coa:place_id" v="326986"/></node><node id="-29" lat="30.407224" lon="-97.676449" changeset="false"><tag k="addr:street" v="North Interstate Highway 35 Service Road,1110"/><tag k="addr:housenumber" v="12536"/><tag k="coa:place_id" v="3316501"/></node><node id="-30" lat="30.396979" lon="-97.680122" changeset="false"><tag k="addr:street" v="North Lamar Boulevard"/><tag k="addr:housenumber" v="12104"/><tag k="coa:place_id" v="507621"/></node><node id="-31" lat="30.404556" lon="-97.678233" changeset="false"><tag k="addr:street" v="North Lamar Boulevard"/><tag k="addr:housenumber" v="12345"/><tag k="coa:place_id" v="208920"/></node><node id="-32" lat="30.405671" lon="-97.694421" changeset="false"><tag k="addr:street" v="Briarpatch Drive"/><tag k="addr:housenumber" v="1702"/><tag k="coa:place_id" v="417045"/></node><node id="-33" lat="30.406575" lon="-97.692828" changeset="false"><tag k="addr:street" v="Tanglewild Drive"/><tag k="addr:housenumber" v="12220"/><tag k="coa:place_id" v="3029291"/></node><node id="-34" lat="30.390988" lon="-97.675052" changeset="false"><tag k="addr:street" v="Park Thirty Five Circle"/><tag k="addr:housenumber" v="12048"/><tag k="coa:place_id" v="63605"/></node><node id="-35" lat="30.406294" lon="-97.676307" changeset="false"><tag k="addr:street" v="North Interstate Highway 35 Service Road,1110"/><tag k="addr:housenumber" v="12520"/><tag k="coa:place_id" v="3033086"/></node><node id="-36" lat="30.398496" lon="-97.679836" changeset="false"><tag k="addr:street" v="North Lamar Boulevard"/><tag k="addr:housenumber" v="12138"/><tag k="coa:place_id" v="144946"/></node><node id="-37" lat="30.39499" lon="-97.67243" changeset="false"><tag k="addr:street" v="North Interstate Highway 35 Service Road,1110"/><tag k="addr:housenumber" v="12200"/><tag k="coa:place_id" v="3033088"/></node><node id="-38" lat="30.405478" lon="-97.675685" changeset="false"><tag k="addr:street" v="North Interstate Highway 35 Service Road,1110"/><tag k="addr:housenumber" v="12500"/><tag k="coa:place_id" v="3312322"/></node><node id="-39" lat="30.389583" lon="-97.673826" changeset="false"><tag k="addr:street" v="Park Thirty Five Circle"/><tag k="addr:housenumber" v="12012"/><tag k="coa:place_id" v="146580"/></node><node id="-40" lat="30.40728" lon="-97.675579" changeset="false"><tag k="addr:street" v="North Interstate Highway 35 Service Road,1110"/><tag k="addr:housenumber" v="12534 1/2"/><tag k="coa:place_id" v="3118884"/></node><node id="-41" lat="30.395889" lon="-97.679695" changeset="false"><tag k="addr:street" v="North Lamar Boulevard"/><tag k="addr:housenumber" v="12101"/><tag k="coa:place_id" v="5076604"/></node><node id="-42" lat="30.39404" lon="-97.673326" changeset="false"><tag k="addr:street" v="Park Thirty Five Circle"/><tag k="addr:housenumber" v="12124"/><tag k="coa:place_id" v="948411"/></node><node id="-43" lat="30.403309" lon="-97.679573" changeset="false"><tag k="addr:street" v="Chimney Rock Drive"/><tag k="addr:housenumber" v="1003"/><tag k="coa:place_id" v="108750"/></node><node id="-44" lat="30.394066" lon="-97.675239" changeset="false"><tag k="addr:street" v="Park Thirty Five Circle"/><tag k="addr:housenumber" v="12100"/><tag k="coa:place_id" v="121661"/></node><node id="-45" lat="30.403149" lon="-97.677909" changeset="false"><tag k="addr:street" v="North Lamar Boulevard"/><tag k="addr:housenumber" v="12333"/><tag k="coa:place_id" v="3356787"/></node><node id="-46" lat="30.403999" lon="-97.680543" changeset="false"><tag k="addr:street" v="Chimney Rock Drive"/><tag k="addr:housenumber" v="1011"/><tag k="coa:place_id" v="100191"/></node><node id="-47" lat="30.39221" lon="-97.675561" changeset="false"><tag k="addr:street" v="Park Thirty Five Circle"/><tag k="addr:housenumber" v="12096"/><tag k="coa:place_id" v="1017957"/></node><node id="-48" lat="30.406406" lon="-97.692945" changeset="false"><tag k="addr:street" v="Tanglewild Drive"/><tag k="addr:housenumber" v="12218"/><tag k="coa:place_id" v="3029290"/></node><node id="-49" lat="30.390907" lon="-97.67317" changeset="false"><tag k="addr:street" v="Park Thirty Five Circle"/><tag k="addr:housenumber" v="12015"/><tag k="coa:place_id" v="189094"/></node><node id="-50" lat="30.392778" lon="-97.674131" changeset="false"><tag k="addr:street" v="Park Thirty Five Circle"/><tag k="addr:housenumber" v="12115"/><tag k="coa:place_id" v="1162620"/></node><node id="-51" lat="30.397421" lon="-97.680018" changeset="false"><tag k="addr:street" v="North Lamar Boulevard"/><tag k="addr:housenumber" v="12106"/><tag k="coa:place_id" v="374576"/></node><node id="-52" lat="30.394826" lon="-97.672225" changeset="false"><tag k="addr:street" v="North Interstate Highway 35 Service Road,1110"/><tag k="addr:housenumber" v="12196"/><tag k="coa:place_id" v="826311"/></node><node id="-53" lat="30.40443" lon="-97.67594" changeset="false"><tag k="addr:street" v="North Interstate Highway 35 Service Road,1110"/><tag k="addr:housenumber" v="12426"/><tag k="coa:place_id" v="206896"/></node><node id="-54" lat="30.405887" lon="-97.692824" changeset="false"><tag k="addr:street" v="Tanglewild Drive"/><tag k="addr:housenumber" v="12217"/><tag k="coa:place_id" v="73336"/></node><node id="-55" lat="30.404626" lon="-97.694726" changeset="false"><tag k="addr:street" v="Tanglewild Drive"/><tag k="addr:housenumber" v="12202"/><tag k="coa:place_id" v="70096"/></node><node id="-56" lat="30.392786" lon="-97.672674" changeset="false"><tag k="addr:street" v="North Interstate Highway 35 Service Road,1110"/><tag k="addr:housenumber" v="12120"/><tag k="coa:place_id" v="3033089"/></node><node id="-57" lat="30.392844" lon="-97.672943" changeset="false"><tag k="addr:street" v="Park Thirty Five Circle"/><tag k="addr:housenumber" v="12135"/><tag k="coa:place_id" v="254993"/></node></osm>