<?xml version="1.0" encoding="UTF-8"?><osm version="0.6" generator="github.com/aaronlidman/osm-and-geojson"><node id="-1" lat="30.355807" lon="-97.519978" changeset="false"><tag k="addr:street" v="Dwight Eisenhower Street"/><tag k="addr:housenumber" v="12805"/><tag k="addr:postcode" v="78653"/></node><node id="-2" lat="30.355753" lon="-97.518567" changeset="false"><tag k="addr:street" v="Dwight Eisenhower Street"/><tag k="addr:housenumber" v="12908"/><tag k="addr:postcode" v="78653"/></node><node id="-3" lat="30.355779" lon="-97.518675" changeset="false"><tag k="addr:street" v="Dwight Eisenhower Street"/><tag k="addr:housenumber" v="12904"/><tag k="addr:postcode" v="78653"/></node><node id="-4" lat="30.355819" lon="-97.518804" changeset="false"><tag k="addr:street" v="Dwight Eisenhower Street"/><tag k="addr:housenumber" v="12900"/><tag k="addr:postcode" v="78653"/></node><node id="-5" lat="30.355926" lon="-97.519159" changeset="false"><tag k="addr:street" v="Dwight Eisenhower Street"/><tag k="addr:housenumber" v="12824"/><tag k="addr:postcode" v="78653"/></node><node id="-6" lat="30.355886" lon="-97.519036" changeset="false"><tag k="addr:street" v="Dwight Eisenhower Street"/><tag k="addr:housenumber" v="12828"/><tag k="addr:postcode" v="78653"/></node><node id="-7" lat="30.35585" lon="-97.518917" changeset="false"><tag k="addr:street" v="Dwight Eisenhower Street"/><tag k="addr:housenumber" v="12832"/><tag k="addr:postcode" v="78653"/></node><node id="-8" lat="30.355962" lon="-97.519278" changeset="false"><tag k="addr:street" v="Dwight Eisenhower Street"/><tag k="addr:housenumber" v="12820"/><tag k="addr:postcode" v="78653"/></node><node id="-9" lat="30.355993" lon="-97.519397" changeset="false"><tag k="addr:street" v="Dwight Eisenhower Street"/><tag k="addr:housenumber" v="12816"/><tag k="addr:postcode" v="78653"/></node><node id="-10" lat="30.356069" lon="-97.519634" changeset="false"><tag k="addr:street" v="Dwight Eisenhower Street"/><tag k="addr:housenumber" v="12808"/><tag k="addr:postcode" v="78653"/></node><node id="-11" lat="30.356033" lon="-97.519531" changeset="false"><tag k="addr:street" v="Dwight Eisenhower Street"/><tag k="addr:housenumber" v="12812"/><tag k="addr:postcode" v="78653"/></node><node id="-12" lat="30.356109" lon="-97.519752" changeset="false"><tag k="addr:street" v="Dwight Eisenhower Street"/><tag k="addr:housenumber" v="12804"/><tag k="addr:postcode" v="78653"/></node><node id="-13" lat="30.356132" lon="-97.519931" changeset="false"><tag k="addr:street" v="Dwight Eisenhower Street"/><tag k="addr:housenumber" v="12800"/><tag k="addr:postcode" v="78653"/></node><node id="-14" lat="30.355362" lon="-97.519949" changeset="false"><tag k="addr:street" v="John Adams Street"/><tag k="addr:housenumber" v="12812"/><tag k="addr:postcode" v="78653"/></node><node id="-15" lat="30.355494" lon="-97.519025" changeset="false"><tag k="addr:street" v="Dwight Eisenhower Street"/><tag k="addr:housenumber" v="12901"/><tag k="addr:postcode" v="78653"/></node><node id="-16" lat="30.355433" lon="-97.518793" changeset="false"><tag k="addr:street" v="Dwight Eisenhower Street"/><tag k="addr:housenumber" v="12909"/><tag k="addr:postcode" v="78653"/></node><node id="-17" lat="30.355383" lon="-97.520068" changeset="false"><tag k="addr:street" v="John Adams Street"/><tag k="addr:housenumber" v="12808"/><tag k="addr:postcode" v="78653"/></node><node id="-18" lat="30.355463" lon="-97.518901" changeset="false"><tag k="addr:street" v="Dwight Eisenhower Street"/><tag k="addr:housenumber" v="12905"/><tag k="addr:postcode" v="78653"/></node><node id="-19" lat="30.35553" lon="-97.519138" changeset="false"><tag k="addr:street" v="Dwight Eisenhower Street"/><tag k="addr:housenumber" v="12833"/><tag k="addr:postcode" v="78653"/></node><node id="-20" lat="30.355575" lon="-97.519268" changeset="false"><tag k="addr:street" v="Dwight Eisenhower Street"/><tag k="addr:housenumber" v="12829"/><tag k="addr:postcode" v="78653"/></node><node id="-21" lat="30.355601" lon="-97.519392" changeset="false"><tag k="addr:street" v="Dwight Eisenhower Street"/><tag k="addr:housenumber" v="12825"/><tag k="addr:postcode" v="78653"/></node><node id="-22" lat="30.355646" lon="-97.519505" changeset="false"><tag k="addr:street" v="Dwight Eisenhower Street"/><tag k="addr:housenumber" v="12821"/><tag k="addr:postcode" v="78653"/></node><node id="-23" lat="30.355677" lon="-97.519629" changeset="false"><tag k="addr:street" v="Dwight Eisenhower Street"/><tag k="addr:housenumber" v="12817"/><tag k="addr:postcode" v="78653"/></node><node id="-24" lat="30.355397" lon="-97.518664" changeset="false"><tag k="addr:street" v="Dwight Eisenhower Street"/><tag k="addr:housenumber" v="12913"/><tag k="addr:postcode" v="78653"/></node><node id="-25" lat="30.355731" lon="-97.519736" changeset="false"><tag k="addr:street" v="Dwight Eisenhower Street"/><tag k="addr:housenumber" v="12813"/><tag k="addr:postcode" v="78653"/></node><node id="-26" lat="30.355762" lon="-97.51986" changeset="false"><tag k="addr:street" v="Dwight Eisenhower Street"/><tag k="addr:housenumber" v="12809"/><tag k="addr:postcode" v="78653"/></node><node id="-27" lat="30.354842" lon="-97.519469" changeset="false"><tag k="addr:street" v="John Adams Street"/><tag k="addr:housenumber" v="12909"/><tag k="addr:postcode" v="78653"/></node><node id="-28" lat="30.354973" lon="-97.519819" changeset="false"><tag k="addr:street" v="John Adams Street"/><tag k="addr:housenumber" v="12825"/><tag k="addr:postcode" v="78653"/></node><node id="-29" lat="30.354892" lon="-97.519728" changeset="false"><tag k="addr:street" v="John Adams Street"/><tag k="addr:housenumber" v="12901"/><tag k="addr:postcode" v="78653"/></node><node id="-30" lat="30.355004" lon="-97.519948" changeset="false"><tag k="addr:street" v="John Adams Street"/><tag k="addr:housenumber" v="12821"/><tag k="addr:postcode" v="78653"/></node><node id="-31" lat="30.355044" lon="-97.520061" changeset="false"><tag k="addr:street" v="John Adams Street"/><tag k="addr:housenumber" v="12817"/><tag k="addr:postcode" v="78653"/></node><node id="-32" lat="30.354998" lon="-97.51884" changeset="false"><tag k="addr:street" v="John Adams Street"/><tag k="addr:housenumber" v="12920"/><tag k="addr:postcode" v="78653"/></node><node id="-33" lat="30.355152" lon="-97.518901" changeset="false"><tag k="addr:street" v="John Adams Street"/><tag k="addr:housenumber" v="12916"/><tag k="addr:postcode" v="78653"/></node><node id="-34" lat="30.355203" lon="-97.51935" changeset="false"><tag k="addr:street" v="John Adams Street"/><tag k="addr:housenumber" v="12908"/><tag k="addr:postcode" v="78653"/></node><node id="-35" lat="30.355251" lon="-97.51919" changeset="false"><tag k="addr:street" v="John Adams Street"/><tag k="addr:housenumber" v="12912"/><tag k="addr:postcode" v="78653"/></node><node id="-36" lat="30.355272" lon="-97.519707" changeset="false"><tag k="addr:street" v="John Adams Street"/><tag k="addr:housenumber" v="12820"/><tag k="addr:postcode" v="78653"/></node><node id="-37" lat="30.35525" lon="-97.519593" changeset="false"><tag k="addr:street" v="John Adams Street"/><tag k="addr:housenumber" v="12900"/><tag k="addr:postcode" v="78653"/></node><node id="-38" lat="30.355224" lon="-97.519474" changeset="false"><tag k="addr:street" v="John Adams Street"/><tag k="addr:housenumber" v="12904"/><tag k="addr:postcode" v="78653"/></node><node id="-39" lat="30.355312" lon="-97.519814" changeset="false"><tag k="addr:street" v="John Adams Street"/><tag k="addr:housenumber" v="12816"/><tag k="addr:postcode" v="78653"/></node><node id="-40" lat="30.354374" lon="-97.519292" changeset="false"><tag k="addr:street" v="Thomas Jefferson Street"/><tag k="addr:housenumber" v="12916"/><tag k="addr:postcode" v="78653"/></node><node id="-41" lat="30.354175" lon="-97.519231" changeset="false"><tag k="addr:street" v="Thomas Jefferson Street"/><tag k="addr:housenumber" v="12920"/><tag k="addr:postcode" v="78653"/></node><node id="-42" lat="30.354506" lon="-97.519334" changeset="false"><tag k="addr:street" v="Thomas Jefferson Street"/><tag k="addr:housenumber" v="12912"/><tag k="addr:postcode" v="78653"/></node><node id="-43" lat="30.354521" lon="-97.519775" changeset="false"><tag k="addr:street" v="Thomas Jefferson Street"/><tag k="addr:housenumber" v="12904"/><tag k="addr:postcode" v="78653"/></node><node id="-44" lat="30.354683" lon="-97.519083" changeset="false"><tag k="addr:street" v="John Adams Street"/><tag k="addr:housenumber" v="12917"/><tag k="addr:postcode" v="78653"/></node><node id="-45" lat="30.354543" lon="-97.5199" changeset="false"><tag k="addr:street" v="Thomas Jefferson Street"/><tag k="addr:housenumber" v="12900"/><tag k="addr:postcode" v="78653"/></node><node id="-46" lat="30.354578" lon="-97.519631" changeset="false"><tag k="addr:street" v="Thomas Jefferson Street"/><tag k="addr:housenumber" v="12908"/><tag k="addr:postcode" v="78653"/></node><node id="-47" lat="30.354579" lon="-97.520018" changeset="false"><tag k="addr:street" v="Thomas Jefferson Street"/><tag k="addr:housenumber" v="12824"/><tag k="addr:postcode" v="78653"/></node><node id="-48" lat="30.354749" lon="-97.519314" changeset="false"><tag k="addr:street" v="John Adams Street"/><tag k="addr:housenumber" v="12913"/><tag k="addr:postcode" v="78653"/></node><node id="-49" lat="30.354901" lon="-97.519582" changeset="false"><tag k="addr:street" v="John Adams Street"/><tag k="addr:housenumber" v="12905"/><tag k="addr:postcode" v="78653"/></node><node id="-50" lat="30.355472" lon="-97.520808" changeset="false"><tag k="addr:street" v="Theodore Roosevelt Street"/><tag k="addr:housenumber" v="13620"/><tag k="addr:postcode" v="78653"/></node><node id="-51" lat="30.355467" lon="-97.520337" changeset="false"><tag k="addr:street" v="John Adams Street"/><tag k="addr:housenumber" v="12800"/><tag k="addr:postcode" v="78653"/></node><node id="-52" lat="30.355558" lon="-97.522161" changeset="false"><tag k="addr:street" v="James Garfield Street"/><tag k="addr:housenumber" v="13604"/><tag k="addr:postcode" v="78653"/></node><node id="-53" lat="30.355565" lon="-97.52073" changeset="false"><tag k="addr:street" v="Theodore Roosevelt Street"/><tag k="addr:housenumber" v="13624"/><tag k="addr:postcode" v="78653"/></node><node id="-54" lat="30.355976" lon="-97.520473" changeset="false"><tag k="addr:street" v="Theodore Roosevelt Street"/><tag k="addr:housenumber" v="13640"/><tag k="addr:postcode" v="78653"/></node><node id="-55" lat="30.356277" lon="-97.520282" changeset="false"><tag k="addr:street" v="Theodore Roosevelt Street"/><tag k="addr:housenumber" v="13700"/><tag k="addr:postcode" v="78653"/></node><node id="-56" lat="30.355761" lon="-97.520624" changeset="false"><tag k="addr:street" v="Theodore Roosevelt Street"/><tag k="addr:housenumber" v="13632"/><tag k="addr:postcode" v="78653"/></node><node id="-57" lat="30.355857" lon="-97.520551" changeset="false"><tag k="addr:street" v="Theodore Roosevelt Street"/><tag k="addr:housenumber" v="13636"/><tag k="addr:postcode" v="78653"/></node><node id="-58" lat="30.355659" lon="-97.520676" changeset="false"><tag k="addr:street" v="Theodore Roosevelt Street"/><tag k="addr:housenumber" v="13628"/><tag k="addr:postcode" v="78653"/></node><node id="-59" lat="30.355843" lon="-97.520121" changeset="false"><tag k="addr:street" v="Dwight Eisenhower Street"/><tag k="addr:housenumber" v="12801"/><tag k="addr:postcode" v="78653"/></node><node id="-60" lat="30.356408" lon="-97.520189" changeset="false"><tag k="addr:street" v="Theodore Roosevelt Street"/><tag k="addr:housenumber" v="13704"/><tag k="addr:postcode" v="78653"/></node><node id="-61" lat="30.355027" lon="-97.521196" changeset="false"><tag k="addr:street" v="Theodore Roosevelt Street"/><tag k="addr:housenumber" v="13600"/><tag k="addr:postcode" v="78653"/></node><node id="-62" lat="30.355101" lon="-97.52031" changeset="false"><tag k="addr:street" v="John Adams Street"/><tag k="addr:housenumber" v="12809"/><tag k="addr:postcode" v="78653"/></node><node id="-63" lat="30.355141" lon="-97.520412" changeset="false"><tag k="addr:street" v="John Adams Street"/><tag k="addr:housenumber" v="12805"/><tag k="addr:postcode" v="78653"/></node><node id="-64" lat="30.355183" lon="-97.520557" changeset="false"><tag k="addr:street" v="John Adams Street"/><tag k="addr:housenumber" v="12801"/><tag k="addr:postcode" v="78653"/></node><node id="-65" lat="30.355231" lon="-97.52108" changeset="false"><tag k="addr:street" v="Theodore Roosevelt Street"/><tag k="addr:housenumber" v="13608"/><tag k="addr:postcode" v="78653"/></node><node id="-66" lat="30.355277" lon="-97.520938" changeset="false"><tag k="addr:street" v="Theodore Roosevelt Street"/><tag k="addr:housenumber" v="13612"/><tag k="addr:postcode" v="78653"/></node><node id="-67" lat="30.355081" lon="-97.521045" changeset="false"><tag k="addr:street" v="Theodore Roosevelt Street"/><tag k="addr:housenumber" v="13604"/><tag k="addr:postcode" v="78653"/></node><node id="-68" lat="30.355309" lon="-97.521812" changeset="false"><tag k="addr:street" v="James Garfield Street"/><tag k="addr:housenumber" v="13601"/><tag k="addr:postcode" v="78653"/></node><node id="-69" lat="30.355309" lon="-97.522327" changeset="false"><tag k="addr:street" v="James Garfield Street"/><tag k="addr:housenumber" v="13528"/><tag k="addr:postcode" v="78653"/></node><node id="-70" lat="30.35541" lon="-97.521716" changeset="false"><tag k="addr:street" v="James Garfield Street"/><tag k="addr:housenumber" v="13605"/><tag k="addr:postcode" v="78653"/></node><node id="-71" lat="30.355376" lon="-97.520869" changeset="false"><tag k="addr:street" v="Theodore Roosevelt Street"/><tag k="addr:housenumber" v="13616"/><tag k="addr:postcode" v="78653"/></node><node id="-72" lat="30.355444" lon="-97.522217" changeset="false"><tag k="addr:street" v="James Garfield Street"/><tag k="addr:housenumber" v="13600"/><tag k="addr:postcode" v="78653"/></node><node id="-73" lat="30.355428" lon="-97.52018" changeset="false"><tag k="addr:street" v="John Adams Street"/><tag k="addr:housenumber" v="12804"/><tag k="addr:postcode" v="78653"/></node><node id="-74" lat="30.354595" lon="-97.521369" changeset="false"><tag k="addr:street" v="Theodore Roosevelt Street"/><tag k="addr:housenumber" v="13524"/><tag k="addr:postcode" v="78653"/></node><node id="-75" lat="30.354665" lon="-97.5222" changeset="false"><tag k="addr:street" v="James Garfield Street"/><tag k="addr:housenumber" v="13517"/><tag k="addr:postcode" v="78653"/></node><node id="-76" lat="30.3547" lon="-97.520129" changeset="false"><tag k="addr:street" v="Thomas Jefferson Street"/><tag k="addr:housenumber" v="12820"/><tag k="addr:postcode" v="78653"/></node><node id="-77" lat="30.354753" lon="-97.52037" changeset="false"><tag k="addr:street" v="Thomas Jefferson Street"/><tag k="addr:housenumber" v="12812"/><tag k="addr:postcode" v="78653"/></node><node id="-78" lat="30.354711" lon="-97.521381" changeset="false"><tag k="addr:street" v="Theodore Roosevelt Street"/><tag k="addr:housenumber" v="13528"/><tag k="addr:postcode" v="78653"/></node><node id="-79" lat="30.354827" lon="-97.520609" changeset="false"><tag k="addr:street" v="Thomas Jefferson Street"/><tag k="addr:housenumber" v="12804"/><tag k="addr:postcode" v="78653"/></node><node id="-80" lat="30.354778" lon="-97.522144" changeset="false"><tag k="addr:street" v="James Garfield Street"/><tag k="addr:housenumber" v="13521"/><tag k="addr:postcode" v="78653"/></node><node id="-81" lat="30.354818" lon="-97.520483" changeset="false"><tag k="addr:street" v="Thomas Jefferson Street"/><tag k="addr:housenumber" v="12808"/><tag k="addr:postcode" v="78653"/></node><node id="-82" lat="30.354805" lon="-97.520787" changeset="false"><tag k="addr:street" v="Thomas Jefferson Street"/><tag k="addr:housenumber" v="12800"/><tag k="addr:postcode" v="78653"/></node><node id="-83" lat="30.354891" lon="-97.522075" changeset="false"><tag k="addr:street" v="James Garfield Street"/><tag k="addr:housenumber" v="13525"/><tag k="addr:postcode" v="78653"/></node><node id="-84" lat="30.354655" lon="-97.520266" changeset="false"><tag k="addr:street" v="Thomas Jefferson Street"/><tag k="addr:housenumber" v="12816"/><tag k="addr:postcode" v="78653"/></node><node id="-85" lat="30.354989" lon="-97.52192" changeset="false"><tag k="addr:street" v="James Garfield Street"/><tag k="addr:housenumber" v="13529"/><tag k="addr:postcode" v="78653"/></node><node id="-86" lat="30.35507" lon="-97.520191" changeset="false"><tag k="addr:street" v="John Adams Street"/><tag k="addr:housenumber" v="12813"/><tag k="addr:postcode" v="78653"/></node><node id="-87" lat="30.354324" lon="-97.520375" changeset="false"><tag k="addr:street" v="Thomas Jefferson Street"/><tag k="addr:housenumber" v="12821"/><tag k="addr:postcode" v="78653"/></node><node id="-88" lat="30.354204" lon="-97.521163" changeset="false"><tag k="addr:street" v="James Madison Street"/><tag k="addr:housenumber" v="12800"/><tag k="addr:postcode" v="78653"/></node><node id="-89" lat="30.354364" lon="-97.520493" changeset="false"><tag k="addr:street" v="Thomas Jefferson Street"/><tag k="addr:housenumber" v="12817"/><tag k="addr:postcode" v="78653"/></node><node id="-90" lat="30.354317" lon="-97.52168" changeset="false"><tag k="addr:street" v="Theodore Roosevelt Street"/><tag k="addr:housenumber" v="13512"/><tag k="addr:postcode" v="78653"/></node><node id="-91" lat="30.354293" lon="-97.520234" changeset="false"><tag k="addr:street" v="Thomas Jefferson Street"/><tag k="addr:housenumber" v="12825"/><tag k="addr:postcode" v="78653"/></node><node id="-92" lat="30.354381" lon="-97.520623" changeset="false"><tag k="addr:street" v="Thomas Jefferson Street"/><tag k="addr:housenumber" v="12813"/><tag k="addr:postcode" v="78653"/></node><node id="-93" lat="30.354443" lon="-97.520894" changeset="false"><tag k="addr:street" v="Thomas Jefferson Street"/><tag k="addr:housenumber" v="12805"/><tag k="addr:postcode" v="78653"/></node><node id="-94" lat="30.354421" lon="-97.520731" changeset="false"><tag k="addr:street" v="Thomas Jefferson Street"/><tag k="addr:housenumber" v="12809"/><tag k="addr:postcode" v="78653"/></node><node id="-95" lat="30.35439" lon="-97.521506" changeset="false"><tag k="addr:street" v="Theodore Roosevelt Street"/><tag k="addr:housenumber" v="13516"/><tag k="addr:postcode" v="78653"/></node><node id="-96" lat="30.354515" lon="-97.520962" changeset="false"><tag k="addr:street" v="Thomas Jefferson Street"/><tag k="addr:housenumber" v="12801"/><tag k="addr:postcode" v="78653"/></node><node id="-97" lat="30.354552" lon="-97.52227" changeset="false"><tag k="addr:street" v="James Garfield Street"/><tag k="addr:housenumber" v="13513"/><tag k="addr:postcode" v="78653"/></node><node id="-98" lat="30.35449" lon="-97.521438" changeset="false"><tag k="addr:street" v="Theodore Roosevelt Street"/><tag k="addr:housenumber" v="13520"/><tag k="addr:postcode" v="78653"/></node><node id="-99" lat="30.35742" lon="-97.526139" changeset="false"><tag k="addr:street" v="John F Kennedy Street"/><tag k="addr:housenumber" v="13625"/><tag k="addr:postcode" v="78653"/></node><node id="-100" lat="30.356382" lon="-97.525929" changeset="false"><tag k="addr:street" v="Richard Nixon Street"/><tag k="addr:housenumber" v="13600"/><tag k="addr:postcode" v="78653"/></node><node id="-101" lat="30.356499" lon="-97.52583" changeset="false"><tag k="addr:street" v="Richard Nixon Street"/><tag k="addr:housenumber" v="13604"/><tag k="addr:postcode" v="78653"/></node><node id="-102" lat="30.356617" lon="-97.525767" changeset="false"><tag k="addr:street" v="Richard Nixon Street"/><tag k="addr:housenumber" v="13608"/><tag k="addr:postcode" v="78653"/></node><node id="-103" lat="30.35676" lon="-97.525673" changeset="false"><tag k="addr:street" v="Richard Nixon Street"/><tag k="addr:housenumber" v="13612"/><tag k="addr:postcode" v="78653"/></node><node id="-104" lat="30.35694" lon="-97.525596" changeset="false"><tag k="addr:street" v="Richard Nixon Street"/><tag k="addr:housenumber" v="13616"/><tag k="addr:postcode" v="78653"/></node><node id="-105" lat="30.355139" lon="-97.52513" changeset="false"><tag k="addr:street" v="Dwight Eisenhower Street"/><tag k="addr:housenumber" v="12301"/><tag k="addr:postcode" v="78653"/></node><node id="-106" lat="30.355208" lon="-97.522396" changeset="false"><tag k="addr:street" v="James Garfield Street"/><tag k="addr:housenumber" v="13524"/><tag k="addr:postcode" v="78653"/></node><node id="-107" lat="30.35526" lon="-97.525545" changeset="false"><tag k="addr:street" v="Dwight Eisenhower Street"/><tag k="addr:housenumber" v="12300"/><tag k="addr:postcode" v="78653"/></node><node id="-108" lat="30.355361" lon="-97.525907" changeset="false"><tag k="addr:street" v="Richard Nixon Street"/><tag k="addr:housenumber" v="13501"/><tag k="addr:postcode" v="78653"/></node><node id="-109" lat="30.356013" lon="-97.526137" changeset="false"><tag k="addr:street" v="Richard Nixon Street"/><tag k="addr:housenumber" v="13516"/><tag k="addr:postcode" v="78653"/></node><node id="-110" lat="30.356116" lon="-97.525988" changeset="false"><tag k="addr:street" v="Richard Nixon Street"/><tag k="addr:housenumber" v="13520"/><tag k="addr:postcode" v="78653"/></node><node id="-111" lat="30.356254" lon="-97.525987" changeset="false"><tag k="addr:street" v="Richard Nixon Street"/><tag k="addr:housenumber" v="13524"/><tag k="addr:postcode" v="78653"/></node><node id="-112" lat="30.354479" lon="-97.522862" changeset="false"><tag k="addr:street" v="James Garfield Street"/><tag k="addr:housenumber" v="13500"/><tag k="addr:postcode" v="78653"/></node><node id="-113" lat="30.354307" lon="-97.525286" changeset="false"><tag k="addr:street" v="Dwight Eisenhower Street"/><tag k="addr:housenumber" v="12213"/><tag k="addr:postcode" v="78653"/></node><node id="-114" lat="30.354404" lon="-97.52234" changeset="false"><tag k="addr:street" v="James Garfield Street"/><tag k="addr:housenumber" v="13509"/><tag k="addr:postcode" v="78653"/></node><node id="-115" lat="30.354595" lon="-97.523309" changeset="false"><tag k="addr:street" v="Gerald Ford Street"/><tag k="addr:housenumber" v="13501"/><tag k="addr:postcode" v="78653"/></node><node id="-116" lat="30.354269" lon="-97.522437" changeset="false"><tag k="addr:street" v="James Garfield Street"/><tag k="addr:housenumber" v="13505"/><tag k="addr:postcode" v="78653"/></node><node id="-117" lat="30.354609" lon="-97.522797" changeset="false"><tag k="addr:street" v="James Garfield Street"/><tag k="addr:housenumber" v="13504"/><tag k="addr:postcode" v="78653"/></node><node id="-118" lat="30.354731" lon="-97.523741" changeset="false"><tag k="addr:street" v="Gerald Ford Street"/><tag k="addr:housenumber" v="13500"/><tag k="addr:postcode" v="78653"/></node><node id="-119" lat="30.354722" lon="-97.522701" changeset="false"><tag k="addr:street" v="James Garfield Street"/><tag k="addr:housenumber" v="13508"/><tag k="addr:postcode" v="78653"/></node><node id="-120" lat="30.354855" lon="-97.524187" changeset="false"><tag k="addr:street" v="Ulysses S Grant Street"/><tag k="addr:housenumber" v="13501"/><tag k="addr:postcode" v="78653"/></node><node id="-121" lat="30.354846" lon="-97.522631" changeset="false"><tag k="addr:street" v="James Garfield Street"/><tag k="addr:housenumber" v="13512"/><tag k="addr:postcode" v="78653"/></node><node id="-122" lat="30.354959" lon="-97.522562" changeset="false"><tag k="addr:street" v="James Garfield Street"/><tag k="addr:housenumber" v="13516"/><tag k="addr:postcode" v="78653"/></node><node id="-123" lat="30.355003" lon="-97.524672" changeset="false"><tag k="addr:street" v="Ulysses S Grant Street"/><tag k="addr:housenumber" v="13500"/><tag k="addr:postcode" v="78653"/></node><node id="-124" lat="30.355072" lon="-97.522479" changeset="false"><tag k="addr:street" v="James Garfield Street"/><tag k="addr:housenumber" v="13520"/><tag k="addr:postcode" v="78653"/></node><node id="-125" lat="30.356967" lon="-97.526587" changeset="false"><tag k="addr:street" v="John F Kennedy Street"/><tag k="addr:housenumber" v="13612"/><tag k="addr:postcode" v="78653"/></node><node id="-126" lat="30.357337" lon="-97.527384" changeset="false"><tag k="addr:street" v="Lyndon B Johnson Street"/><tag k="addr:housenumber" v="13612"/><tag k="addr:postcode" v="78653"/></node><node id="-127" lat="30.357379" lon="-97.526332" changeset="false"><tag k="addr:street" v="John F Kennedy Street"/><tag k="addr:housenumber" v="13624"/><tag k="addr:postcode" v="78653"/></node><node id="-128" lat="30.357566" lon="-97.527227" changeset="false"><tag k="addr:street" v="Lyndon B Johnson Street"/><tag k="addr:housenumber" v="13620"/><tag k="addr:postcode" v="78653"/></node><node id="-129" lat="30.3577" lon="-97.527158" changeset="false"><tag k="addr:street" v="Lyndon B Johnson Street"/><tag k="addr:housenumber" v="13624"/><tag k="addr:postcode" v="78653"/></node><node id="-130" lat="30.35746" lon="-97.527332" changeset="false"><tag k="addr:street" v="Lyndon B Johnson Street"/><tag k="addr:housenumber" v="13616"/><tag k="addr:postcode" v="78653"/></node><node id="-131" lat="30.357141" lon="-97.526505" changeset="false"><tag k="addr:street" v="John F Kennedy Street"/><tag k="addr:housenumber" v="13616"/><tag k="addr:postcode" v="78653"/></node><node id="-132" lat="30.356251" lon="-97.527027" changeset="false"><tag k="addr:street" v="John F Kennedy Street"/><tag k="addr:housenumber" v="13516"/><tag k="addr:postcode" v="78653"/></node><node id="-133" lat="30.356389" lon="-97.526933" changeset="false"><tag k="addr:street" v="John F Kennedy Street"/><tag k="addr:housenumber" v="13520"/><tag k="addr:postcode" v="78653"/></node><node id="-134" lat="30.356486" lon="-97.526876" changeset="false"><tag k="addr:street" v="John F Kennedy Street"/><tag k="addr:housenumber" v="13524"/><tag k="addr:postcode" v="78653"/></node><node id="-135" lat="30.356736" lon="-97.526714" changeset="false"><tag k="addr:street" v="John F Kennedy Street"/><tag k="addr:housenumber" v="13604"/><tag k="addr:postcode" v="78653"/></node><node id="-136" lat="30.356609" lon="-97.526801" changeset="false"><tag k="addr:street" v="John F Kennedy Street"/><tag k="addr:housenumber" v="13600"/><tag k="addr:postcode" v="78653"/></node><node id="-137" lat="30.356851" lon="-97.526562" changeset="false"><tag k="addr:street" v="John F Kennedy Street"/><tag k="addr:housenumber" v="13608"/><tag k="addr:postcode" v="78653"/></node><node id="-138" lat="30.355496" lon="-97.526439" changeset="false"><tag k="addr:street" v="Richard Nixon Street"/><tag k="addr:housenumber" v="13500"/><tag k="addr:postcode" v="78653"/></node><node id="-139" lat="30.355637" lon="-97.526299" changeset="false"><tag k="addr:street" v="Richard Nixon Street"/><tag k="addr:housenumber" v="13504"/><tag k="addr:postcode" v="78653"/></node><node id="-140" lat="30.35576" lon="-97.527328" changeset="false"><tag k="addr:street" v="John F Kennedy Street"/><tag k="addr:housenumber" v="13500"/><tag k="addr:postcode" v="78653"/></node><node id="-141" lat="30.356015" lon="-97.527159" changeset="false"><tag k="addr:street" v="John F Kennedy Street"/><tag k="addr:housenumber" v="13508"/><tag k="addr:postcode" v="78653"/></node><node id="-142" lat="30.355892" lon="-97.527189" changeset="false"><tag k="addr:street" v="John F Kennedy Street"/><tag k="addr:housenumber" v="13504"/><tag k="addr:postcode" v="78653"/></node><node id="-143" lat="30.355768" lon="-97.526288" changeset="false"><tag k="addr:street" v="Richard Nixon Street"/><tag k="addr:housenumber" v="13508"/><tag k="addr:postcode" v="78653"/></node><node id="-144" lat="30.355901" lon="-97.526206" changeset="false"><tag k="addr:street" v="Richard Nixon Street"/><tag k="addr:housenumber" v="13512"/><tag k="addr:postcode" v="78653"/></node><node id="-145" lat="30.356149" lon="-97.527101" changeset="false"><tag k="addr:street" v="John F Kennedy Street"/><tag k="addr:housenumber" v="13512"/><tag k="addr:postcode" v="78653"/></node><node id="-146" lat="30.353787" lon="-97.519951" changeset="false"><tag k="addr:street" v="James Madison Street"/><tag k="addr:housenumber" v="12908"/><tag k="addr:postcode" v="78653"/></node><node id="-147" lat="30.353841" lon="-97.520078" changeset="false"><tag k="addr:street" v="James Madison Street"/><tag k="addr:housenumber" v="12904"/><tag k="addr:postcode" v="78653"/></node><node id="-148" lat="30.35387" lon="-97.520199" changeset="false"><tag k="addr:street" v="James Madison Street"/><tag k="addr:housenumber" v="12900"/><tag k="addr:postcode" v="78653"/></node><node id="-149" lat="30.354191" lon="-97.51989" changeset="false"><tag k="addr:street" v="Thomas Jefferson Street"/><tag k="addr:housenumber" v="12905"/><tag k="addr:postcode" v="78653"/></node><node id="-150" lat="30.354226" lon="-97.520008" changeset="false"><tag k="addr:street" v="Thomas Jefferson Street"/><tag k="addr:housenumber" v="12901"/><tag k="addr:postcode" v="78653"/></node><node id="-151" lat="30.354072" lon="-97.519399" changeset="false"><tag k="addr:street" v="Thomas Jefferson Street"/><tag k="addr:housenumber" v="12917"/><tag k="addr:postcode" v="78653"/></node><node id="-152" lat="30.353986" lon="-97.519559" changeset="false"><tag k="addr:street" v="Thomas Jefferson Street"/><tag k="addr:housenumber" v="12913"/><tag k="addr:postcode" v="78653"/></node><node id="-153" lat="30.354262" lon="-97.520132" changeset="false"><tag k="addr:street" v="Thomas Jefferson Street"/><tag k="addr:housenumber" v="12829"/><tag k="addr:postcode" v="78653"/></node><node id="-154" lat="30.354059" lon="-97.519806" changeset="false"><tag k="addr:street" v="Thomas Jefferson Street"/><tag k="addr:housenumber" v="12909"/><tag k="addr:postcode" v="78653"/></node><node id="-155" lat="30.353388" lon="-97.519934" changeset="false"><tag k="addr:street" v="James Madison Street"/><tag k="addr:housenumber" v="12913"/><tag k="addr:postcode" v="78653"/></node><node id="-156" lat="30.353717" lon="-97.519723" changeset="false"><tag k="addr:street" v="James Madison Street"/><tag k="addr:housenumber" v="12916"/><tag k="addr:postcode" v="78653"/></node><node id="-157" lat="30.353615" lon="-97.519373" changeset="false"><tag k="addr:street" v="James Madison Street"/><tag k="addr:housenumber" v="12928"/><tag k="addr:postcode" v="78653"/></node><node id="-158" lat="30.353634" lon="-97.519472" changeset="false"><tag k="addr:street" v="James Madison Street"/><tag k="addr:housenumber" v="12924"/><tag k="addr:postcode" v="78653"/></node><node id="-159" lat="30.353671" lon="-97.519593" changeset="false"><tag k="addr:street" v="James Madison Street"/><tag k="addr:housenumber" v="12920"/><tag k="addr:postcode" v="78653"/></node><node id="-160" lat="30.353753" lon="-97.519831" changeset="false"><tag k="addr:street" v="James Madison Street"/><tag k="addr:housenumber" v="12912"/><tag k="addr:postcode" v="78653"/></node><node id="-161" lat="30.353148" lon="-97.518928" changeset="false"><tag k="addr:street" v="James Madison Street"/><tag k="addr:housenumber" v="12941"/><tag k="addr:postcode" v="78653"/></node><node id="-162" lat="30.35337" lon="-97.519829" changeset="false"><tag k="addr:street" v="James Madison Street"/><tag k="addr:housenumber" v="12917"/><tag k="addr:postcode" v="78653"/></node><node id="-163" lat="30.353245" lon="-97.519465" changeset="false"><tag k="addr:street" v="James Madison Street"/><tag k="addr:housenumber" v="12929"/><tag k="addr:postcode" v="78653"/></node><node id="-164" lat="30.353325" lon="-97.519716" changeset="false"><tag k="addr:street" v="James Madison Street"/><tag k="addr:housenumber" v="12921"/><tag k="addr:postcode" v="78653"/></node><node id="-165" lat="30.35343" lon="-97.520055" changeset="false"><tag k="addr:street" v="James Madison Street"/><tag k="addr:housenumber" v="12909"/><tag k="addr:postcode" v="78653"/></node><node id="-166" lat="30.353282" lon="-97.519592" changeset="false"><tag k="addr:street" v="James Madison Street"/><tag k="addr:housenumber" v="12925"/><tag k="addr:postcode" v="78653"/></node><node id="-167" lat="30.35187" lon="-97.519782" changeset="false"><tag k="addr:street" v="White House street"/><tag k="addr:housenumber" v="12837"/><tag k="addr:postcode" v="78653"/></node><node id="-168" lat="30.352014" lon="-97.519566" changeset="false"><tag k="addr:street" v="White House street"/><tag k="addr:housenumber" v="12845"/><tag k="addr:postcode" v="78653"/></node><node id="-169" lat="30.352177" lon="-97.519522" changeset="false"><tag k="addr:street" v="White House street"/><tag k="addr:housenumber" v="12849"/><tag k="addr:postcode" v="78653"/></node><node id="-170" lat="30.35235" lon="-97.51928" changeset="false"><tag k="addr:street" v="White House street"/><tag k="addr:housenumber" v="12857"/><tag k="addr:postcode" v="78653"/></node><node id="-171" lat="30.352781" lon="-97.519976" changeset="false"><tag k="addr:street" v="White House street"/><tag k="addr:housenumber" v="12913"/><tag k="addr:postcode" v="78653"/></node><node id="-172" lat="30.353548" lon="-97.520414" changeset="false"><tag k="addr:street" v="James Madison Street"/><tag k="addr:housenumber" v="12829"/><tag k="addr:postcode" v="78653"/></node><node id="-173" lat="30.353576" lon="-97.520537" changeset="false"><tag k="addr:street" v="James Madison Street"/><tag k="addr:housenumber" v="12825"/><tag k="addr:postcode" v="78653"/></node><node id="-174" lat="30.353975" lon="-97.520571" changeset="false"><tag k="addr:street" v="James Madison Street"/><tag k="addr:housenumber" v="12820"/><tag k="addr:postcode" v="78653"/></node><node id="-175" lat="30.353819" lon="-97.521292" changeset="false"><tag k="addr:street" v="James Madison Street"/><tag k="addr:housenumber" v="12809"/><tag k="addr:postcode" v="78653"/></node><node id="-176" lat="30.354057" lon="-97.520796" changeset="false"><tag k="addr:street" v="James Madison Street"/><tag k="addr:housenumber" v="12812"/><tag k="addr:postcode" v="78653"/></node><node id="-177" lat="30.354012" lon="-97.520685" changeset="false"><tag k="addr:street" v="James Madison Street"/><tag k="addr:housenumber" v="12816"/><tag k="addr:postcode" v="78653"/></node><node id="-178" lat="30.353938" lon="-97.520444" changeset="false"><tag k="addr:street" v="James Madison Street"/><tag k="addr:housenumber" v="12824"/><tag k="addr:postcode" v="78653"/></node><node id="-179" lat="30.353793" lon="-97.521142" changeset="false"><tag k="addr:street" v="James Madison Street"/><tag k="addr:housenumber" v="12813"/><tag k="addr:postcode" v="78653"/></node><node id="-180" lat="30.353785" lon="-97.521447" changeset="false"><tag k="addr:street" v="James Madison Street"/><tag k="addr:housenumber" v="12805"/><tag k="addr:postcode" v="78653"/></node><node id="-181" lat="30.35413" lon="-97.521027" changeset="false"><tag k="addr:street" v="James Madison Street"/><tag k="addr:housenumber" v="12804"/><tag k="addr:postcode" v="78653"/></node><node id="-182" lat="30.353901" lon="-97.520317" changeset="false"><tag k="addr:street" v="James Madison Street"/><tag k="addr:housenumber" v="12828"/><tag k="addr:postcode" v="78653"/></node><node id="-183" lat="30.353669" lon="-97.520741" changeset="false"><tag k="addr:street" v="James Madison Street"/><tag k="addr:housenumber" v="12817"/><tag k="addr:postcode" v="78653"/></node><node id="-184" lat="30.354099" lon="-97.520906" changeset="false"><tag k="addr:street" v="James Madison Street"/><tag k="addr:housenumber" v="12808"/><tag k="addr:postcode" v="78653"/></node><node id="-185" lat="30.353618" lon="-97.520657" changeset="false"><tag k="addr:street" v="James Madison Street"/><tag k="addr:housenumber" v="12821"/><tag k="addr:postcode" v="78653"/></node><node id="-186" lat="30.352895" lon="-97.520356" changeset="false"><tag k="addr:street" v="White House street"/><tag k="addr:housenumber" v="12925"/><tag k="addr:postcode" v="78653"/></node><node id="-187" lat="30.352879" lon="-97.521455" changeset="false"><tag k="addr:street" v="James Monroe Street"/><tag k="addr:housenumber" v="13404"/><tag k="addr:postcode" v="78653"/></node><node id="-188" lat="30.353001" lon="-97.521468" changeset="false"><tag k="addr:street" v="James Monroe Street"/><tag k="addr:housenumber" v="13408"/><tag k="addr:postcode" v="78653"/></node><node id="-189" lat="30.353458" lon="-97.520173" changeset="false"><tag k="addr:street" v="James Madison Street"/><tag k="addr:housenumber" v="12905"/><tag k="addr:postcode" v="78653"/></node><node id="-190" lat="30.353515" lon="-97.520289" changeset="false"><tag k="addr:street" v="James Madison Street"/><tag k="addr:housenumber" v="12901"/><tag k="addr:postcode" v="78653"/></node><node id="-191" lat="30.353287" lon="-97.521358" changeset="false"><tag k="addr:street" v="James Monroe Street"/><tag k="addr:housenumber" v="13416"/><tag k="addr:postcode" v="78653"/></node><node id="-192" lat="30.353146" lon="-97.521397" changeset="false"><tag k="addr:street" v="James Monroe Street"/><tag k="addr:housenumber" v="13412"/><tag k="addr:postcode" v="78653"/></node><node id="-193" lat="30.352107" lon="-97.520874" changeset="false"><tag k="addr:street" v="White House street"/><tag k="addr:housenumber" v="12804"/><tag k="addr:postcode" v="78653"/></node><node id="-194" lat="30.352083" lon="-97.520747" changeset="false"><tag k="addr:street" v="White House street"/><tag k="addr:housenumber" v="12808"/><tag k="addr:postcode" v="78653"/></node><node id="-195" lat="30.352442" lon="-97.521016" changeset="false"><tag k="addr:street" v="White House street"/><tag k="addr:housenumber" v="12944"/><tag k="addr:postcode" v="78653"/></node><node id="-196" lat="30.352453" lon="-97.520758" changeset="false"><tag k="addr:street" v="White House street"/><tag k="addr:housenumber" v="12936"/><tag k="addr:postcode" v="78653"/></node><node id="-197" lat="30.352458" lon="-97.520632" changeset="false"><tag k="addr:street" v="White House street"/><tag k="addr:housenumber" v="12932"/><tag k="addr:postcode" v="78653"/></node><node id="-198" lat="30.352473" lon="-97.520483" changeset="false"><tag k="addr:street" v="White House street"/><tag k="addr:housenumber" v="12924"/><tag k="addr:postcode" v="78653"/></node><node id="-199" lat="30.352467" lon="-97.520883" changeset="false"><tag k="addr:street" v="White House street"/><tag k="addr:housenumber" v="12940"/><tag k="addr:postcode" v="78653"/></node><node id="-200" lat="30.351645" lon="-97.52086" changeset="false"><tag k="addr:street" v="White House street"/><tag k="addr:housenumber" v="12805"/><tag k="addr:postcode" v="78653"/></node><node id="-201" lat="30.351654" lon="-97.520481" changeset="false"><tag k="addr:street" v="White House street"/><tag k="addr:housenumber" v="12817"/><tag k="addr:postcode" v="78653"/></node><node id="-202" lat="30.351651" lon="-97.521011" changeset="false"><tag k="addr:street" v="White House street"/><tag k="addr:housenumber" v="12801"/><tag k="addr:postcode" v="78653"/></node><node id="-203" lat="30.351648" lon="-97.520734" changeset="false"><tag k="addr:street" v="White House street"/><tag k="addr:housenumber" v="12809"/><tag k="addr:postcode" v="78653"/></node><node id="-204" lat="30.351653" lon="-97.520208" changeset="false"><tag k="addr:street" v="White House street"/><tag k="addr:housenumber" v="12825"/><tag k="addr:postcode" v="78653"/></node><node id="-205" lat="30.351648" lon="-97.520366" changeset="false"><tag k="addr:street" v="White House street"/><tag k="addr:housenumber" v="12821"/><tag k="addr:postcode" v="78653"/></node><node id="-206" lat="30.351656" lon="-97.520612" changeset="false"><tag k="addr:street" v="White House street"/><tag k="addr:housenumber" v="12813"/><tag k="addr:postcode" v="78653"/></node><node id="-207" lat="30.353103" lon="-97.522286" changeset="false"><tag k="addr:street" v="John Tyler Street"/><tag k="addr:housenumber" v="13409"/><tag k="addr:postcode" v="78653"/></node><node id="-208" lat="30.353172" lon="-97.523008" changeset="false"><tag k="addr:street" v="John Tyler Street"/><tag k="addr:housenumber" v="13416"/><tag k="addr:postcode" v="78653"/></node><node id="-209" lat="30.353201" lon="-97.52242" changeset="false"><tag k="addr:street" v="John Tyler Street"/><tag k="addr:housenumber" v="13413"/><tag k="addr:postcode" v="78653"/></node><node id="-210" lat="30.353245" lon="-97.523183" changeset="false"><tag k="addr:street" v="John Tyler Street"/><tag k="addr:housenumber" v="13420"/><tag k="addr:postcode" v="78653"/></node><node id="-211" lat="30.35384" lon="-97.521691" changeset="false"><tag k="addr:street" v="Theodore Roosevelt Street"/><tag k="addr:housenumber" v="13500"/><tag k="addr:postcode" v="78653"/></node><node id="-212" lat="30.354086" lon="-97.522442" changeset="false"><tag k="addr:street" v="James Garfield Street"/><tag k="addr:housenumber" v="13501"/><tag k="addr:postcode" v="78653"/></node><node id="-213" lat="30.353974" lon="-97.52175" changeset="false"><tag k="addr:street" v="Theodore Roosevelt Street"/><tag k="addr:housenumber" v="13504"/><tag k="addr:postcode" v="78653"/></node><node id="-214" lat="30.353409" lon="-97.522667" changeset="false"><tag k="addr:street" v="John Tyler Street"/><tag k="addr:housenumber" v="13421"/><tag k="addr:postcode" v="78653"/></node><node id="-215" lat="30.353289" lon="-97.522558" changeset="false"><tag k="addr:street" v="John Tyler Street"/><tag k="addr:housenumber" v="13417"/><tag k="addr:postcode" v="78653"/></node><node id="-216" lat="30.354171" lon="-97.521786" changeset="false"><tag k="addr:street" v="Theodore Roosevelt Street"/><tag k="addr:housenumber" v="13508"/><tag k="addr:postcode" v="78653"/></node><node id="-217" lat="30.352573" lon="-97.522094" changeset="false"><tag k="addr:street" v="John Tyler Street"/><tag k="addr:housenumber" v="13317"/><tag k="addr:postcode" v="78653"/></node><node id="-218" lat="30.352818" lon="-97.522145" changeset="false"><tag k="addr:street" v="John Tyler Street"/><tag k="addr:housenumber" v="13401"/><tag k="addr:postcode" v="78653"/></node><node id="-219" lat="30.35273" lon="-97.522501" changeset="false"><tag k="addr:street" v="John Tyler Street"/><tag k="addr:housenumber" v="13400"/><tag k="addr:postcode" v="78653"/></node><node id="-220" lat="30.352709" lon="-97.522117" changeset="false"><tag k="addr:street" v="John Tyler Street"/><tag k="addr:housenumber" v="13321"/><tag k="addr:postcode" v="78653"/></node><node id="-221" lat="30.352872" lon="-97.522603" changeset="false"><tag k="addr:street" v="John Tyler Street"/><tag k="addr:housenumber" v="13404"/><tag k="addr:postcode" v="78653"/></node><node id="-222" lat="30.352956" lon="-97.522212" changeset="false"><tag k="addr:street" v="John Tyler Street"/><tag k="addr:housenumber" v="13405"/><tag k="addr:postcode" v="78653"/></node><node id="-223" lat="30.352963" lon="-97.52276" changeset="false"><tag k="addr:street" v="John Tyler Street"/><tag k="addr:housenumber" v="13408"/><tag k="addr:postcode" v="78653"/></node><node id="-224" lat="30.353061" lon="-97.52289" changeset="false"><tag k="addr:street" v="John Tyler Street"/><tag k="addr:housenumber" v="13412"/><tag k="addr:postcode" v="78653"/></node><node id="-225" lat="30.352001" lon="-97.523124" changeset="false"><tag k="addr:street" v="William Harrison Street"/><tag k="addr:housenumber" v="12716"/><tag k="addr:postcode" v="78653"/></node><node id="-226" lat="30.352142" lon="-97.522075" changeset="false"><tag k="addr:street" v="John Tyler Street"/><tag k="addr:housenumber" v="13305"/><tag k="addr:postcode" v="78653"/></node><node id="-227" lat="30.352288" lon="-97.522086" changeset="false"><tag k="addr:street" v="John Tyler Street"/><tag k="addr:housenumber" v="13309"/><tag k="addr:postcode" v="78653"/></node><node id="-228" lat="30.352011" lon="-97.522458" changeset="false"><tag k="addr:street" v="William Harrison Street"/><tag k="addr:housenumber" v="12732"/><tag k="addr:postcode" v="78653"/></node><node id="-229" lat="30.35201" lon="-97.52296" changeset="false"><tag k="addr:street" v="William Harrison Street"/><tag k="addr:housenumber" v="12720"/><tag k="addr:postcode" v="78653"/></node><node id="-230" lat="30.352414" lon="-97.522098" changeset="false"><tag k="addr:street" v="John Tyler Street"/><tag k="addr:housenumber" v="13313"/><tag k="addr:postcode" v="78653"/></node><node id="-231" lat="30.351482" lon="-97.52353" changeset="false"><tag k="addr:street" v="William Harrison Street"/><tag k="addr:housenumber" v="12705"/><tag k="addr:postcode" v="78653"/></node><node id="-232" lat="30.351493" lon="-97.522381" changeset="false"><tag k="addr:street" v="William Harrison Street"/><tag k="addr:housenumber" v="12733"/><tag k="addr:postcode" v="78653"/></node><node id="-233" lat="30.351493" lon="-97.523374" changeset="false"><tag k="addr:street" v="William Harrison Street"/><tag k="addr:housenumber" v="12709"/><tag k="addr:postcode" v="78653"/></node><node id="-234" lat="30.351519" lon="-97.522052" changeset="false"><tag k="addr:street" v="William Harrison Street"/><tag k="addr:housenumber" v="12737"/><tag k="addr:postcode" v="78653"/></node><node id="-235" lat="30.351544" lon="-97.52306" changeset="false"><tag k="addr:street" v="William Harrison Street"/><tag k="addr:housenumber" v="12717"/><tag k="addr:postcode" v="78653"/></node><node id="-236" lat="30.35151" lon="-97.522583" changeset="false"><tag k="addr:street" v="William Harrison Street"/><tag k="addr:housenumber" v="12729"/><tag k="addr:postcode" v="78653"/></node><node id="-237" lat="30.351518" lon="-97.522733" changeset="false"><tag k="addr:street" v="William Harrison Street"/><tag k="addr:housenumber" v="12725"/><tag k="addr:postcode" v="78653"/></node><node id="-238" lat="30.35149" lon="-97.523212" changeset="false"><tag k="addr:street" v="William Harrison Street"/><tag k="addr:housenumber" v="12713"/><tag k="addr:postcode" v="78653"/></node><node id="-239" lat="30.351787" lon="-97.521933" changeset="false"><tag k="addr:street" v="William Harrison Street"/><tag k="addr:housenumber" v="12741"/><tag k="addr:postcode" v="78653"/></node><node id="-240" lat="30.351517" lon="-97.522894" changeset="false"><tag k="addr:street" v="William Harrison Street"/><tag k="addr:housenumber" v="12721"/><tag k="addr:postcode" v="78653"/></node><node id="-241" lat="30.353268" lon="-97.52466" changeset="false"><tag k="addr:street" v="Dwight Eisenhower Street"/><tag k="addr:housenumber" v="12105"/><tag k="addr:postcode" v="78653"/></node><node id="-242" lat="30.353645" lon="-97.524586" changeset="false"><tag k="addr:street" v="Dwight Eisenhower Street"/><tag k="addr:housenumber" v="13405"/><tag k="addr:postcode" v="78653"/></node><node id="-243" lat="30.353585" lon="-97.524171" changeset="false"><tag k="addr:street" v="George Bush Court"/><tag k="addr:housenumber" v="12605"/><tag k="addr:postcode" v="78653"/></node><node id="-244" lat="30.353455" lon="-97.524857" changeset="false"><tag k="addr:street" v="Dwight Eisenhower Street"/><tag k="addr:housenumber" v="13400"/><tag k="addr:postcode" v="78653"/></node><node id="-245" lat="30.352197" lon="-97.525091" changeset="false"><tag k="addr:street" v="William Harrison Street"/><tag k="addr:housenumber" v="13308"/><tag k="addr:postcode" v="78653"/></node><node id="-246" lat="30.352302" lon="-97.5249" changeset="false"><tag k="addr:street" v="William Harrison Street"/><tag k="addr:housenumber" v="13312"/><tag k="addr:postcode" v="78653"/></node><node id="-247" lat="30.352759" lon="-97.523966" changeset="false"><tag k="addr:street" v="James Polk Street"/><tag k="addr:housenumber" v="12620"/><tag k="addr:postcode" v="78653"/></node><node id="-248" lat="30.352718" lon="-97.523721" changeset="false"><tag k="addr:street" v="James Polk Street"/><tag k="addr:housenumber" v="12624"/><tag k="addr:postcode" v="78653"/></node><node id="-249" lat="30.353159" lon="-97.524569" changeset="false"><tag k="addr:street" v="Dwight Eisenhower Street"/><tag k="addr:housenumber" v="12101"/><tag k="addr:postcode" v="78653"/></node><node id="-250" lat="30.352785" lon="-97.524184" changeset="false"><tag k="addr:street" v="James Polk Street"/><tag k="addr:housenumber" v="12608"/><tag k="addr:postcode" v="78653"/></node><node id="-251" lat="30.351465" lon="-97.523848" changeset="false"><tag k="addr:street" v="William Harrison Street"/><tag k="addr:housenumber" v="12645"/><tag k="addr:postcode" v="78653"/></node><node id="-252" lat="30.351495" lon="-97.523674" changeset="false"><tag k="addr:street" v="William Harrison Street"/><tag k="addr:housenumber" v="12701"/><tag k="addr:postcode" v="78653"/></node><node id="-253" lat="30.352184" lon="-97.524668" changeset="false"><tag k="addr:street" v="William Harrison Street"/><tag k="addr:housenumber" v="13309"/><tag k="addr:postcode" v="78653"/></node><node id="-254" lat="30.351518" lon="-97.525664" changeset="false"><tag k="addr:street" v="William Harrison Street"/><tag k="addr:housenumber" v="12601"/><tag k="addr:postcode" v="78653"/></node><node id="-255" lat="30.352021" lon="-97.525221" changeset="false"><tag k="addr:street" v="William Harrison Street"/><tag k="addr:housenumber" v="13304"/><tag k="addr:postcode" v="78653"/></node><node id="-256" lat="30.351904" lon="-97.524532" changeset="false"><tag k="addr:street" v="William Harrison Street"/><tag k="addr:housenumber" v="13301"/><tag k="addr:postcode" v="78653"/></node><node id="-257" lat="30.352022" lon="-97.524528" changeset="false"><tag k="addr:street" v="William Harrison Street"/><tag k="addr:housenumber" v="13305"/><tag k="addr:postcode" v="78653"/></node><node id="-258" lat="30.351431" lon="-97.524478" changeset="false"><tag k="addr:street" v="William Harrison Street"/><tag k="addr:housenumber" v="12629"/><tag k="addr:postcode" v="78653"/></node><node id="-259" lat="30.351416" lon="-97.525124" changeset="false"><tag k="addr:street" v="William Harrison Street"/><tag k="addr:housenumber" v="12613"/><tag k="addr:postcode" v="78653"/></node><node id="-260" lat="30.351419" lon="-97.525269" changeset="false"><tag k="addr:street" v="William Harrison Street"/><tag k="addr:housenumber" v="12609"/><tag k="addr:postcode" v="78653"/></node><node id="-261" lat="30.351437" lon="-97.524316" changeset="false"><tag k="addr:street" v="William Harrison Street"/><tag k="addr:housenumber" v="12633"/><tag k="addr:postcode" v="78653"/></node><node id="-262" lat="30.351496" lon="-97.524976" changeset="false"><tag k="addr:street" v="William Harrison Street"/><tag k="addr:housenumber" v="12617"/><tag k="addr:postcode" v="78653"/></node><node id="-263" lat="30.351506" lon="-97.524818" changeset="false"><tag k="addr:street" v="William Harrison Street"/><tag k="addr:housenumber" v="12621"/><tag k="addr:postcode" v="78653"/></node><node id="-264" lat="30.351448" lon="-97.524155" changeset="false"><tag k="addr:street" v="William Harrison Street"/><tag k="addr:housenumber" v="12637"/><tag k="addr:postcode" v="78653"/></node><node id="-265" lat="30.351511" lon="-97.524654" changeset="false"><tag k="addr:street" v="William Harrison Street"/><tag k="addr:housenumber" v="12625"/><tag k="addr:postcode" v="78653"/></node><node id="-266" lat="30.351528" lon="-97.524026" changeset="false"><tag k="addr:street" v="William Harrison Street"/><tag k="addr:housenumber" v="12641"/><tag k="addr:postcode" v="78653"/></node><node id="-267" lat="30.356308" lon="-97.528005" changeset="false"><tag k="addr:street" v="Lyndon B Johnson Street"/><tag k="addr:housenumber" v="13512"/><tag k="addr:postcode" v="78653"/></node><node id="-268" lat="30.356447" lon="-97.527889" changeset="false"><tag k="addr:street" v="Lyndon B Johnson Street"/><tag k="addr:housenumber" v="13516"/><tag k="addr:postcode" v="78653"/></node><node id="-269" lat="30.356841" lon="-97.527697" changeset="false"><tag k="addr:street" v="Lyndon B Johnson Street"/><tag k="addr:housenumber" v="13528"/><tag k="addr:postcode" v="78653"/></node><node id="-270" lat="30.356963" lon="-97.527598" changeset="false"><tag k="addr:street" v="Lyndon B Johnson Street"/><tag k="addr:housenumber" v="13600"/><tag k="addr:postcode" v="78653"/></node><node id="-271" lat="30.356559" lon="-97.527855" changeset="false"><tag k="addr:street" v="Lyndon B Johnson Street"/><tag k="addr:housenumber" v="13520"/><tag k="addr:postcode" v="78653"/></node><node id="-272" lat="30.356726" lon="-97.527701" changeset="false"><tag k="addr:street" v="Lyndon B Johnson Street"/><tag k="addr:housenumber" v="13524"/><tag k="addr:postcode" v="78653"/></node><node id="-273" lat="30.357204" lon="-97.527471" changeset="false"><tag k="addr:street" v="Lyndon B Johnson Street"/><tag k="addr:housenumber" v="13608"/><tag k="addr:postcode" v="78653"/></node><node id="-274" lat="30.357081" lon="-97.527529" changeset="false"><tag k="addr:street" v="Lyndon B Johnson Street"/><tag k="addr:housenumber" v="13604"/><tag k="addr:postcode" v="78653"/></node><node id="-275" lat="30.356053" lon="-97.528198" changeset="false"><tag k="addr:street" v="Lyndon B Johnson Street"/><tag k="addr:housenumber" v="13504"/><tag k="addr:postcode" v="78653"/></node><node id="-276" lat="30.356191" lon="-97.52808" changeset="false"><tag k="addr:street" v="Lyndon B Johnson Street"/><tag k="addr:housenumber" v="13508"/><tag k="addr:postcode" v="78653"/></node><node id="-277" lat="30.355915" lon="-97.528274" changeset="false"><tag k="addr:street" v="Lyndon B Johnson Street"/><tag k="addr:housenumber" v="13500"/><tag k="addr:postcode" v="78653"/></node><node id="-278" lat="30.354865" lon="-97.531147" changeset="false"><tag k="addr:street" v="Marie Ln"/><tag k="addr:housenumber" v="13516"/><tag k="addr:postcode" v="78653"/></node><node id="-279" lat="30.354774" lon="-97.531238" changeset="false"><tag k="addr:street" v="Marie Ln"/><tag k="addr:housenumber" v="13512"/><tag k="addr:postcode" v="78653"/></node></osm>