<?xml version="1.0" encoding="UTF-8"?><osm version="0.6" generator="github.com/aaronlidman/osm-and-geojson"><node id="-1" lat="30.356232" lon="-97.527613" changeset="false"><tag k="addr:street" v="Lyndon B Johnson Street"/><tag k="addr:housenumber" v="13509"/><tag k="addr:postcode" v="78653"/></node><node id="-2" lat="30.356494" lon="-97.52748" changeset="false"><tag k="addr:street" v="Lyndon B Johnson Street"/><tag k="addr:housenumber" v="13517"/><tag k="addr:postcode" v="78653"/></node><node id="-3" lat="30.352782" lon="-97.520491" changeset="false"><tag k="addr:street" v="White House street"/><tag k="addr:housenumber" v="12929"/><tag k="addr:postcode" v="78653"/></node><node id="-4" lat="30.351878" lon="-97.523862" changeset="false"><tag k="addr:street" v="William Harrison Street"/><tag k="addr:housenumber" v="12644"/><tag k="addr:postcode" v="78653"/></node><node id="-5" lat="30.352552" lon="-97.521316" changeset="false"><tag k="addr:street" v="James Monroe Street"/><tag k="addr:housenumber" v="13330"/><tag k="addr:postcode" v="78653"/></node><node id="-6" lat="30.352581" lon="-97.522475" changeset="false"><tag k="addr:street" v="John Tyler Street"/><tag k="addr:housenumber" v="13316"/><tag k="addr:postcode" v="78653"/></node><node id="-7" lat="30.352737" lon="-97.523525" changeset="false"><tag k="addr:street" v="James Polk Street"/><tag k="addr:housenumber" v="12628"/><tag k="addr:postcode" v="78653"/></node><node id="-8" lat="30.351872" lon="-97.52404" changeset="false"><tag k="addr:street" v="William Harrison Street"/><tag k="addr:housenumber" v="12640"/><tag k="addr:postcode" v="78653"/></node><node id="-9" lat="30.352952" lon="-97.529176" changeset="false"><tag k="addr:street" v="Topsail Street"/><tag k="addr:housenumber" v="18139"/><tag k="addr:postcode" v="78653"/></node><node id="-10" lat="30.352776" lon="-97.521327" changeset="false"><tag k="addr:street" v="James Monroe Street"/><tag k="addr:housenumber" v="13400"/><tag k="addr:postcode" v="78653"/></node><node id="-11" lat="30.352213" lon="-97.523588" changeset="false"><tag k="addr:street" v="James Polk Street"/><tag k="addr:housenumber" v="12629"/><tag k="addr:postcode" v="78653"/></node><node id="-12" lat="30.352115" lon="-97.521306" changeset="false"><tag k="addr:street" v="James Monroe Street"/><tag k="addr:housenumber" v="13314"/><tag k="addr:postcode" v="78653"/></node><node id="-13" lat="30.3519" lon="-97.523533" changeset="false"><tag k="addr:street" v="William Harrison Street"/><tag k="addr:housenumber" v="12704"/><tag k="addr:postcode" v="78653"/></node><node id="-14" lat="30.351902" lon="-97.519635" changeset="false"><tag k="addr:street" v="White House street"/><tag k="addr:housenumber" v="12841"/><tag k="addr:postcode" v="78653"/></node><node id="-15" lat="30.354037" lon="-97.524658" changeset="false"><tag k="addr:street" v="Dwight Eisenhower Street"/><tag k="addr:housenumber" v="13408"/><tag k="addr:postcode" v="78653"/></node><node id="-16" lat="30.355681" lon="-97.525878" changeset="false"><tag k="addr:street" v="Richard Nixon Street"/><tag k="addr:housenumber" v="13509"/><tag k="addr:postcode" v="78653"/></node><node id="-17" lat="30.356023" lon="-97.525647" changeset="false"><tag k="addr:street" v="Richard Nixon Street"/><tag k="addr:housenumber" v="13521"/><tag k="addr:postcode" v="78653"/></node><node id="-18" lat="30.356882" lon="-97.525101" changeset="false"><tag k="addr:street" v="Richard Nixon Street"/><tag k="addr:housenumber" v="13617"/><tag k="addr:postcode" v="78653"/></node><node id="-19" lat="30.355976" lon="-97.527764" changeset="false"><tag k="addr:street" v="Lyndon B Johnson Street"/><tag k="addr:housenumber" v="13501"/><tag k="addr:postcode" v="78653"/></node><node id="-20" lat="30.356954" lon="-97.527168" changeset="false"><tag k="addr:street" v="Lyndon B Johnson Street"/><tag k="addr:housenumber" v="13605"/><tag k="addr:postcode" v="78653"/></node><node id="-21" lat="30.354442" lon="-97.526272" changeset="false"><tag k="addr:street" v="Dwight Eisenhower Street"/><tag k="addr:housenumber" v="12220"/><tag k="addr:postcode" v="78653"/></node><node id="-22" lat="30.357011" lon="-97.528148" changeset="false"><tag k="addr:street" v="Ralph Ritchie Road"/><tag k="addr:housenumber" v="13525"/><tag k="addr:postcode" v="78653"/></node><node id="-23" lat="30.356704" lon="-97.522486" changeset="false"><tag k="addr:street" v="Dwight Eisenhower Street"/><tag k="addr:housenumber" v="12601"/><tag k="addr:postcode" v="78653"/></node><node id="-24" lat="30.35701" lon="-97.521909" changeset="false"><tag k="addr:street" v="Dwight Eisenhower Street"/><tag k="addr:housenumber" v="12608"/><tag k="addr:postcode" v="78653"/></node><node id="-25" lat="30.356905" lon="-97.521626" changeset="false"><tag k="addr:street" v="Dwight Eisenhower Street"/><tag k="addr:housenumber" v="12616"/><tag k="addr:postcode" v="78653"/></node><node id="-26" lat="30.356724" lon="-97.5214" changeset="false"><tag k="addr:street" v="James Garfield Street"/><tag k="addr:housenumber" v="13700"/><tag k="addr:postcode" v="78653"/></node><node id="-27" lat="30.357227" lon="-97.520649" changeset="false"><tag k="addr:street" v="James Garfield Street"/><tag k="addr:housenumber" v="13721"/><tag k="addr:postcode" v="78653"/></node><node id="-28" lat="30.358272" lon="-97.520903" changeset="false"><tag k="addr:street" v="James Garfield Street"/><tag k="addr:housenumber" v="13813"/><tag k="addr:postcode" v="78653"/></node><node id="-29" lat="30.358188" lon="-97.521513" changeset="false"><tag k="addr:street" v="James Garfield Street"/><tag k="addr:housenumber" v="13820"/><tag k="addr:postcode" v="78653"/></node><node id="-30" lat="30.358473" lon="-97.521879" changeset="false"><tag k="addr:street" v="James Garfield Street"/><tag k="addr:housenumber" v="13904"/><tag k="addr:postcode" v="78653"/></node><node id="-31" lat="30.359231" lon="-97.522337" changeset="false"><tag k="addr:street" v="James Garfield Street"/><tag k="addr:housenumber" v="13925"/><tag k="addr:postcode" v="78653"/></node><node id="-32" lat="30.351986" lon="-97.520984" changeset="false"><tag k="addr:street" v="White House street"/><tag k="addr:housenumber" v="12800"/><tag k="addr:postcode" v="78653"/></node><node id="-33" lat="30.355211" lon="-97.522922" changeset="false"><tag k="addr:street" v="Gerald Ford Street"/><tag k="addr:housenumber" v="13521"/><tag k="addr:postcode" v="78653"/></node><node id="-34" lat="30.356262" lon="-97.521696" changeset="false"><tag k="addr:street" v="James Garfield Street"/><tag k="addr:housenumber" v="13628"/><tag k="addr:postcode" v="78653"/></node><node id="-35" lat="30.356119" lon="-97.521221" changeset="false"><tag k="addr:street" v="James Garfield Street"/><tag k="addr:housenumber" v="13629"/><tag k="addr:postcode" v="78653"/></node><node id="-36" lat="30.355237" lon="-97.524487" changeset="false"><tag k="addr:street" v="Ulysses S Grant Street"/><tag k="addr:housenumber" v="13508"/><tag k="addr:postcode" v="78653"/></node><node id="-37" lat="30.355315" lon="-97.523814" changeset="false"><tag k="addr:street" v="Ulysses S Grant Street"/><tag k="addr:housenumber" v="13517"/><tag k="addr:postcode" v="78653"/></node><node id="-38" lat="30.355793" lon="-97.523538" changeset="false"><tag k="addr:street" v="Ulysses S Grant Street"/><tag k="addr:housenumber" v="13605"/><tag k="addr:postcode" v="78653"/></node><node id="-39" lat="30.356062" lon="-97.523364" changeset="false"><tag k="addr:street" v="Ulysses S Grant Street"/><tag k="addr:housenumber" v="13613"/><tag k="addr:postcode" v="78653"/></node><node id="-40" lat="30.355402" lon="-97.525488" changeset="false"><tag k="addr:street" v="Dwight Eisenhower Street"/><tag k="addr:housenumber" v="12304"/><tag k="addr:postcode" v="78653"/></node><node id="-41" lat="30.355876" lon="-97.525137" changeset="false"><tag k="addr:street" v="Dwight Eisenhower Street"/><tag k="addr:housenumber" v="12320"/><tag k="addr:postcode" v="78653"/></node><node id="-42" lat="30.356446" lon="-97.524702" changeset="false"><tag k="addr:street" v="Dwight Eisenhower Street"/><tag k="addr:housenumber" v="12412"/><tag k="addr:postcode" v="78653"/></node><node id="-43" lat="30.355968" lon="-97.524507" changeset="false"><tag k="addr:street" v="Dwight Eisenhower Street"/><tag k="addr:housenumber" v="12401"/><tag k="addr:postcode" v="78653"/></node><node id="-44" lat="30.35609" lon="-97.524439" changeset="false"><tag k="addr:street" v="Dwight Eisenhower Street"/><tag k="addr:housenumber" v="12405"/><tag k="addr:postcode" v="78653"/></node><node id="-45" lat="30.353326" lon="-97.524079" changeset="false"><tag k="addr:street" v="George Bush Court"/><tag k="addr:housenumber" v="12609"/><tag k="addr:postcode" v="78653"/></node><node id="-46" lat="30.353339" lon="-97.528937" changeset="false"><tag k="addr:street" v="Topsail Street"/><tag k="addr:housenumber" v="18138"/><tag k="addr:postcode" v="78653"/></node><node id="-47" lat="30.352697" lon="-97.520134" changeset="false"><tag k="addr:street" v="White House street"/><tag k="addr:housenumber" v="12917"/><tag k="addr:postcode" v="78653"/></node><node id="-48" lat="30.352276" lon="-97.522476" changeset="false"><tag k="addr:street" v="John Tyler Street"/><tag k="addr:housenumber" v="13308"/><tag k="addr:postcode" v="78653"/></node><node id="-49" lat="30.351891" lon="-97.523383" changeset="false"><tag k="addr:street" v="William Harrison Street"/><tag k="addr:housenumber" v="12708"/><tag k="addr:postcode" v="78653"/></node><node id="-50" lat="30.352782" lon="-97.520741" changeset="false"><tag k="addr:street" v="White House street"/><tag k="addr:housenumber" v="12937"/><tag k="addr:postcode" v="78653"/></node><node id="-51" lat="30.351627" lon="-97.519992" changeset="false"><tag k="addr:street" v="White House street"/><tag k="addr:housenumber" v="12829"/><tag k="addr:postcode" v="78653"/></node><node id="-52" lat="30.356836" lon="-97.527225" changeset="false"><tag k="addr:street" v="Lyndon B Johnson Street"/><tag k="addr:housenumber" v="13601"/><tag k="addr:postcode" v="78653"/></node><node id="-53" lat="30.357025" lon="-97.525217" changeset="false"><tag k="addr:street" v="Richard Nixon Street"/><tag k="addr:housenumber" v="13621"/><tag k="addr:postcode" v="78653"/></node><node id="-54" lat="30.355652" lon="-97.526913" changeset="false"><tag k="addr:street" v="John F Kennedy Street"/><tag k="addr:housenumber" v="13501"/><tag k="addr:postcode" v="78653"/></node><node id="-55" lat="30.356041" lon="-97.526668" changeset="false"><tag k="addr:street" v="John F Kennedy Street"/><tag k="addr:housenumber" v="13513"/><tag k="addr:postcode" v="78653"/></node><node id="-56" lat="30.355895" lon="-97.525722" changeset="false"><tag k="addr:street" v="Richard Nixon Street"/><tag k="addr:housenumber" v="13517"/><tag k="addr:postcode" v="78653"/></node><node id="-57" lat="30.356156" lon="-97.525565" changeset="false"><tag k="addr:street" v="Richard Nixon Street"/><tag k="addr:housenumber" v="13525"/><tag k="addr:postcode" v="78653"/></node><node id="-58" lat="30.355288" lon="-97.518452" changeset="false"><tag k="addr:street" v="Dwight Eisenhower Street"/><tag k="addr:housenumber" v="12917"/><tag k="addr:postcode" v="78653"/></node><node id="-59" lat="30.355193" lon="-97.518195" changeset="false"><tag k="addr:street" v="Dwight Eisenhower Street"/><tag k="addr:housenumber" v="12921"/><tag k="addr:postcode" v="78653"/></node><node id="-60" lat="30.356917" lon="-97.523083" changeset="false"><tag k="addr:street" v="Dwight Eisenhower Street"/><tag k="addr:housenumber" v="12517"/><tag k="addr:postcode" v="78653"/></node><node id="-61" lat="30.35653" lon="-97.522053" changeset="false"><tag k="addr:street" v="Dwight Eisenhower Street"/><tag k="addr:housenumber" v="12613"/><tag k="addr:postcode" v="78653"/></node><node id="-62" lat="30.357159" lon="-97.522233" changeset="false"><tag k="addr:street" v="Dwight Eisenhower Street"/><tag k="addr:housenumber" v="12600"/><tag k="addr:postcode" v="78653"/></node><node id="-63" lat="30.35652" lon="-97.520912" changeset="false"><tag k="addr:street" v="James Garfield Street"/><tag k="addr:housenumber" v="13701"/><tag k="addr:postcode" v="78653"/></node><node id="-64" lat="30.357531" lon="-97.520662" changeset="false"><tag k="addr:street" v="James Garfield Street"/><tag k="addr:housenumber" v="13729"/><tag k="addr:postcode" v="78653"/></node><node id="-65" lat="30.357685" lon="-97.5207" changeset="false"><tag k="addr:street" v="James Garfield Street"/><tag k="addr:housenumber" v="13733"/><tag k="addr:postcode" v="78653"/></node><node id="-66" lat="30.357836" lon="-97.520728" changeset="false"><tag k="addr:street" v="James Garfield Street"/><tag k="addr:housenumber" v="13801"/><tag k="addr:postcode" v="78653"/></node><node id="-67" lat="30.358402" lon="-97.520994" changeset="false"><tag k="addr:street" v="James Garfield Street"/><tag k="addr:housenumber" v="13817"/><tag k="addr:postcode" v="78653"/></node><node id="-68" lat="30.358401" lon="-97.521749" changeset="false"><tag k="addr:street" v="James Garfield Street"/><tag k="addr:housenumber" v="13900"/><tag k="addr:postcode" v="78653"/></node><node id="-69" lat="30.35521" lon="-97.523448" changeset="false"><tag k="addr:street" v="Gerald Ford Street"/><tag k="addr:housenumber" v="13516"/><tag k="addr:postcode" v="78653"/></node><node id="-70" lat="30.355557" lon="-97.522685" changeset="false"><tag k="addr:street" v="Gerald Ford Street"/><tag k="addr:housenumber" v="13605"/><tag k="addr:postcode" v="78653"/></node><node id="-71" lat="30.355903" lon="-97.521933" changeset="false"><tag k="addr:street" v="James Garfield Street"/><tag k="addr:housenumber" v="13616"/><tag k="addr:postcode" v="78653"/></node><node id="-72" lat="30.355211" lon="-97.523912" changeset="false"><tag k="addr:street" v="Ulysses S Grant Street"/><tag k="addr:housenumber" v="13513"/><tag k="addr:postcode" v="78653"/></node><node id="-73" lat="30.355551" lon="-97.523653" changeset="false"><tag k="addr:street" v="Ulysses S Grant Street"/><tag k="addr:housenumber" v="13525"/><tag k="addr:postcode" v="78653"/></node><node id="-74" lat="30.355835" lon="-97.524083" changeset="false"><tag k="addr:street" v="Ulysses S Grant Street"/><tag k="addr:housenumber" v="13600"/><tag k="addr:postcode" v="78653"/></node><node id="-75" lat="30.356506" lon="-97.523622" changeset="false"><tag k="addr:street" v="Ulysses S Grant Street"/><tag k="addr:housenumber" v="13620"/><tag k="addr:postcode" v="78653"/></node><node id="-76" lat="30.355514" lon="-97.524828" changeset="false"><tag k="addr:street" v="Dwight Eisenhower Street"/><tag k="addr:housenumber" v="12313"/><tag k="addr:postcode" v="78653"/></node><node id="-77" lat="30.356564" lon="-97.5241" changeset="false"><tag k="addr:street" v="Dwight Eisenhower Street"/><tag k="addr:housenumber" v="12421"/><tag k="addr:postcode" v="78653"/></node><node id="-78" lat="30.352788" lon="-97.523344" changeset="false"><tag k="addr:street" v="James Polk Street"/><tag k="addr:housenumber" v="12632"/><tag k="addr:postcode" v="78653"/></node><node id="-79" lat="30.351692" lon="-97.519849" changeset="false"><tag k="addr:street" v="White House street"/><tag k="addr:housenumber" v="12833"/><tag k="addr:postcode" v="78653"/></node><node id="-80" lat="30.351542" lon="-97.521178" changeset="false"><tag k="addr:street" v="James Monroe Street"/><tag k="addr:housenumber" v="13302"/><tag k="addr:postcode" v="78653"/></node><node id="-81" lat="30.351936" lon="-97.522569" changeset="false"><tag k="addr:street" v="William Harrison Street"/><tag k="addr:housenumber" v="12728"/><tag k="addr:postcode" v="78653"/></node><node id="-82" lat="30.353226" lon="-97.53118" changeset="false"><tag k="addr:street" v="Mizzen St"/><tag k="addr:housenumber" v="13322"/><tag k="addr:postcode" v="78653"/></node><node id="-83" lat="30.353635" lon="-97.528749" changeset="false"><tag k="addr:street" v="Canopy Lane"/><tag k="addr:housenumber" v="18139"/><tag k="addr:postcode" v="78653"/></node><node id="-84" lat="30.352237" lon="-97.521314" changeset="false"><tag k="addr:street" v="James Monroe Street"/><tag k="addr:housenumber" v="13318"/><tag k="addr:postcode" v="78653"/></node><node id="-85" lat="30.353143" lon="-97.519146" changeset="false"><tag k="addr:street" v="James Madison Street"/><tag k="addr:housenumber" v="12937"/><tag k="addr:postcode" v="78653"/></node><node id="-86" lat="30.362898" lon="-97.528308" changeset="false"><tag k="addr:street" v="Suncrest Road"/><tag k="addr:housenumber" v="13909"/><tag k="addr:postcode" v="78653"/></node><node id="-87" lat="30.35635" lon="-97.52752" changeset="false"><tag k="addr:street" v="Lyndon B Johnson Street"/><tag k="addr:housenumber" v="13513"/><tag k="addr:postcode" v="78653"/></node><node id="-88" lat="30.356718" lon="-97.527318" changeset="false"><tag k="addr:street" v="Lyndon B Johnson Street"/><tag k="addr:housenumber" v="13525"/><tag k="addr:postcode" v="78653"/></node><node id="-89" lat="30.357188" lon="-97.526999" changeset="false"><tag k="addr:street" v="Lyndon B Johnson Street"/><tag k="addr:housenumber" v="13613"/><tag k="addr:postcode" v="78653"/></node><node id="-90" lat="30.356276" lon="-97.526518" changeset="false"><tag k="addr:street" v="John F Kennedy Street"/><tag k="addr:housenumber" v="13521"/><tag k="addr:postcode" v="78653"/></node><node id="-91" lat="30.356391" lon="-97.525409" changeset="false"><tag k="addr:street" v="Richard Nixon Street"/><tag k="addr:housenumber" v="13605"/><tag k="addr:postcode" v="78653"/></node><node id="-92" lat="30.354825" lon="-97.518877" changeset="false"><tag k="addr:street" v="John Adams Street"/><tag k="addr:housenumber" v="12921"/><tag k="addr:postcode" v="78653"/></node><node id="-93" lat="30.355783" lon="-97.525785" changeset="false"><tag k="addr:street" v="Richard Nixon Street"/><tag k="addr:housenumber" v="13513"/><tag k="addr:postcode" v="78653"/></node><node id="-94" lat="30.35692" lon="-97.526105" changeset="false"><tag k="addr:street" v="John F Kennedy Street"/><tag k="addr:housenumber" v="13613"/><tag k="addr:postcode" v="78653"/></node><node id="-95" lat="30.355314" lon="-97.522845" changeset="false"><tag k="addr:street" v="Gerald Ford Street"/><tag k="addr:housenumber" v="13525"/><tag k="addr:postcode" v="78653"/></node><node id="-96" lat="30.356085" lon="-97.522933" changeset="false"><tag k="addr:street" v="Gerald Ford Street"/><tag k="addr:housenumber" v="13616"/><tag k="addr:postcode" v="78653"/></node><node id="-97" lat="30.356345" lon="-97.522577" changeset="false"><tag k="addr:street" v="Gerald Ford Street"/><tag k="addr:housenumber" v="13624"/><tag k="addr:postcode" v="78653"/></node><node id="-98" lat="30.355676" lon="-97.522611" changeset="false"><tag k="addr:street" v="Gerald Ford Street"/><tag k="addr:housenumber" v="13609"/><tag k="addr:postcode" v="78653"/></node><node id="-99" lat="30.355949" lon="-97.522319" changeset="false"><tag k="addr:street" v="Gerald Ford Street"/><tag k="addr:housenumber" v="13617"/><tag k="addr:postcode" v="78653"/></node><node id="-100" lat="30.356289" lon="-97.522384" changeset="false"><tag k="addr:street" v="Gerald Ford Street"/><tag k="addr:housenumber" v="13625"/><tag k="addr:postcode" v="78653"/></node><node id="-101" lat="30.356087" lon="-97.523925" changeset="false"><tag k="addr:street" v="Ulysses S Grant Street"/><tag k="addr:housenumber" v="13608"/><tag k="addr:postcode" v="78653"/></node><node id="-102" lat="30.355523" lon="-97.525351" changeset="false"><tag k="addr:street" v="Dwight Eisenhower Street"/><tag k="addr:housenumber" v="12308"/><tag k="addr:postcode" v="78653"/></node><node id="-103" lat="30.356962" lon="-97.524309" changeset="false"><tag k="addr:street" v="Dwight Eisenhower Street"/><tag k="addr:housenumber" v="12428"/><tag k="addr:postcode" v="78653"/></node><node id="-104" lat="30.352466" lon="-97.520277" changeset="false"><tag k="addr:street" v="White House street"/><tag k="addr:housenumber" v="12916"/><tag k="addr:postcode" v="78653"/></node><node id="-105" lat="30.355639" lon="-97.518071" changeset="false"><tag k="addr:street" v="Dwight Eisenhower Street"/><tag k="addr:housenumber" v="12916"/><tag k="addr:postcode" v="78653"/></node><node id="-106" lat="30.355439" lon="-97.517679" changeset="false"><tag k="addr:street" v="Dwight Eisenhower Street"/><tag k="addr:housenumber" v="12922"/><tag k="addr:postcode" v="78653"/></node><node id="-107" lat="30.355251" lon="-97.518332" changeset="false"><tag k="addr:street" v="Dwight Eisenhower Street"/><tag k="addr:housenumber" v="12919"/><tag k="addr:postcode" v="78653"/></node><node id="-108" lat="30.356923" lon="-97.523411" changeset="false"><tag k="addr:street" v="Dwight Eisenhower Street"/><tag k="addr:housenumber" v="12509"/><tag k="addr:postcode" v="78653"/></node><node id="-109" lat="30.356927" lon="-97.523248" changeset="false"><tag k="addr:street" v="Dwight Eisenhower Street"/><tag k="addr:housenumber" v="12513"/><tag k="addr:postcode" v="78653"/></node><node id="-110" lat="30.356755" lon="-97.522628" changeset="false"><tag k="addr:street" v="Dwight Eisenhower Street"/><tag k="addr:housenumber" v="12529"/><tag k="addr:postcode" v="78653"/></node><node id="-111" lat="30.357069" lon="-97.52205" changeset="false"><tag k="addr:street" v="Dwight Eisenhower Street"/><tag k="addr:housenumber" v="12604"/><tag k="addr:postcode" v="78653"/></node><node id="-112" lat="30.358889" lon="-97.521627" changeset="false"><tag k="addr:street" v="James Garfield Street"/><tag k="addr:housenumber" v="13905"/><tag k="addr:postcode" v="78653"/></node><node id="-113" lat="30.358957" lon="-97.521766" changeset="false"><tag k="addr:street" v="James Garfield Street"/><tag k="addr:housenumber" v="13909"/><tag k="addr:postcode" v="78653"/></node><node id="-114" lat="30.358543" lon="-97.522021" changeset="false"><tag k="addr:street" v="James Garfield Street"/><tag k="addr:housenumber" v="13908"/><tag k="addr:postcode" v="78653"/></node><node id="-115" lat="30.352227" lon="-97.523138" changeset="false"><tag k="addr:street" v="James Polk Street"/><tag k="addr:housenumber" v="12637"/><tag k="addr:postcode" v="78653"/></node><node id="-116" lat="30.353987" lon="-97.524932" changeset="false"><tag k="addr:street" v="Dwight Eisenhower Street"/><tag k="addr:housenumber" v="13404"/><tag k="addr:postcode" v="78653"/></node><node id="-117" lat="30.35551" lon="-97.53182" changeset="false"><tag k="addr:street" v="Canopy Lane"/><tag k="addr:housenumber" v="18000"/><tag k="addr:postcode" v="78653"/></node><node id="-118" lat="30.353586" lon="-97.523274" changeset="false"><tag k="addr:street" v="George Bush Court"/><tag k="addr:housenumber" v="12608"/><tag k="addr:postcode" v="78653"/></node><node id="-119" lat="30.351542" lon="-97.528512" changeset="false"><tag k="addr:street" v="Maxa Drive"/><tag k="addr:housenumber" v="18321"/><tag k="addr:postcode" v="78653"/></node><node id="-120" lat="30.352659" lon="-97.521319" changeset="false"><tag k="addr:street" v="James Monroe Street"/><tag k="addr:housenumber" v="13334"/><tag k="addr:postcode" v="78653"/></node><node id="-121" lat="30.351898" lon="-97.523694" changeset="false"><tag k="addr:street" v="William Harrison Street"/><tag k="addr:housenumber" v="12700"/><tag k="addr:postcode" v="78653"/></node><node id="-122" lat="30.352693" lon="-97.523058" changeset="false"><tag k="addr:street" v="James Polk Street"/><tag k="addr:housenumber" v="12636"/><tag k="addr:postcode" v="78653"/></node><node id="-123" lat="30.35386" lon="-97.524416" changeset="false"><tag k="addr:street" v="Dwight Eisenhower Street"/><tag k="addr:housenumber" v="13409"/><tag k="addr:postcode" v="78653"/></node><node id="-124" lat="30.35174" lon="-97.52606" changeset="false"><tag k="addr:street" v="George Bush Street"/><tag k="addr:housenumber" v="13252"/><tag k="addr:postcode" v="78653"/></node><node id="-125" lat="30.355801" lon="-97.526831" changeset="false"><tag k="addr:street" v="John F Kennedy Street"/><tag k="addr:housenumber" v="13505"/><tag k="addr:postcode" v="78653"/></node><node id="-126" lat="30.356263" lon="-97.525466" changeset="false"><tag k="addr:street" v="Richard Nixon Street"/><tag k="addr:housenumber" v="13601"/><tag k="addr:postcode" v="78653"/></node><node id="-127" lat="30.357071" lon="-97.527075" changeset="false"><tag k="addr:street" v="Lyndon B Johnson Street"/><tag k="addr:housenumber" v="13609"/><tag k="addr:postcode" v="78653"/></node><node id="-128" lat="30.351457" lon="-97.529687" changeset="false"><tag k="addr:street" v="Maxa Drive"/><tag k="addr:housenumber" v="18306"/><tag k="addr:postcode" v="78653"/></node><node id="-129" lat="30.352461" lon="-97.533841" changeset="false"><tag k="addr:street" v="Maxa Drive"/><tag k="addr:housenumber" v="17901"/><tag k="addr:postcode" v="78653"/></node><node id="-130" lat="30.356762" lon="-97.526235" changeset="false"><tag k="addr:street" v="John F Kennedy Street"/><tag k="addr:housenumber" v="13609"/><tag k="addr:postcode" v="78653"/></node><node id="-131" lat="30.355824" lon="-97.523071" changeset="false"><tag k="addr:street" v="Gerald Ford Street"/><tag k="addr:housenumber" v="13608"/><tag k="addr:postcode" v="78653"/></node><node id="-132" lat="30.355933" lon="-97.523004" changeset="false"><tag k="addr:street" v="Gerald Ford Street"/><tag k="addr:housenumber" v="13612"/><tag k="addr:postcode" v="78653"/></node><node id="-133" lat="30.355791" lon="-97.522004" changeset="false"><tag k="addr:street" v="James Garfield Street"/><tag k="addr:housenumber" v="13612"/><tag k="addr:postcode" v="78653"/></node><node id="-134" lat="30.355676" lon="-97.521547" changeset="false"><tag k="addr:street" v="James Garfield Street"/><tag k="addr:housenumber" v="13613"/><tag k="addr:postcode" v="78653"/></node><node id="-135" lat="30.355779" lon="-97.521465" changeset="false"><tag k="addr:street" v="James Garfield Street"/><tag k="addr:housenumber" v="13617"/><tag k="addr:postcode" v="78653"/></node><node id="-136" lat="30.355876" lon="-97.52137" changeset="false"><tag k="addr:street" v="James Garfield Street"/><tag k="addr:housenumber" v="13621"/><tag k="addr:postcode" v="78653"/></node><node id="-137" lat="30.355138" lon="-97.524575" changeset="false"><tag k="addr:street" v="Ulysses S Grant Street"/><tag k="addr:housenumber" v="13504"/><tag k="addr:postcode" v="78653"/></node><node id="-138" lat="30.35633" lon="-97.523766" changeset="false"><tag k="addr:street" v="Ulysses S Grant Street"/><tag k="addr:housenumber" v="13616"/><tag k="addr:postcode" v="78653"/></node><node id="-139" lat="30.355737" lon="-97.525211" changeset="false"><tag k="addr:street" v="Dwight Eisenhower Street"/><tag k="addr:housenumber" v="12316"/><tag k="addr:postcode" v="78653"/></node><node id="-140" lat="30.355998" lon="-97.525049" changeset="false"><tag k="addr:street" v="Dwight Eisenhower Street"/><tag k="addr:housenumber" v="12324"/><tag k="addr:postcode" v="78653"/></node><node id="-141" lat="30.355416" lon="-97.524941" changeset="false"><tag k="addr:street" v="Dwight Eisenhower Street"/><tag k="addr:housenumber" v="12309"/><tag k="addr:postcode" v="78653"/></node><node id="-142" lat="30.355607" lon="-97.524715" changeset="false"><tag k="addr:street" v="Dwight Eisenhower Street"/><tag k="addr:housenumber" v="12317"/><tag k="addr:postcode" v="78653"/></node><node id="-143" lat="30.356685" lon="-97.524559" changeset="false"><tag k="addr:street" v="Dwight Eisenhower Street"/><tag k="addr:housenumber" v="12420"/><tag k="addr:postcode" v="78653"/></node><node id="-144" lat="30.356212" lon="-97.524354" changeset="false"><tag k="addr:street" v="Dwight Eisenhower Street"/><tag k="addr:housenumber" v="12409"/><tag k="addr:postcode" v="78653"/></node><node id="-145" lat="30.356445" lon="-97.524188" changeset="false"><tag k="addr:street" v="Dwight Eisenhower Street"/><tag k="addr:housenumber" v="12417"/><tag k="addr:postcode" v="78653"/></node><node id="-146" lat="30.355681" lon="-97.518196" changeset="false"><tag k="addr:street" v="Dwight Eisenhower Street"/><tag k="addr:housenumber" v="12914"/><tag k="addr:postcode" v="78653"/></node><node id="-147" lat="30.355315" lon="-97.518573" changeset="false"><tag k="addr:street" v="Dwight Eisenhower Street"/><tag k="addr:housenumber" v="12915"/><tag k="addr:postcode" v="78653"/></node><node id="-148" lat="30.357001" lon="-97.516092" changeset="false"><tag k="addr:street" v="Theodore Roosevelt Street"/><tag k="addr:housenumber" v="19116"/><tag k="addr:postcode" v="78653"/></node><node id="-149" lat="30.35663" lon="-97.522347" changeset="false"><tag k="addr:street" v="Dwight Eisenhower Street"/><tag k="addr:housenumber" v="12605"/><tag k="addr:postcode" v="78653"/></node><node id="-150" lat="30.356471" lon="-97.521898" changeset="false"><tag k="addr:street" v="Dwight Eisenhower Street"/><tag k="addr:housenumber" v="12617"/><tag k="addr:postcode" v="78653"/></node><node id="-151" lat="30.35708" lon="-97.520669" changeset="false"><tag k="addr:street" v="James Garfield Street"/><tag k="addr:housenumber" v="13717"/><tag k="addr:postcode" v="78653"/></node><node id="-152" lat="30.358736" lon="-97.52135" changeset="false"><tag k="addr:street" v="James Garfield Street"/><tag k="addr:housenumber" v="13829"/><tag k="addr:postcode" v="78653"/></node><node id="-153" lat="30.357897" lon="-97.521319" changeset="false"><tag k="addr:street" v="James Garfield Street"/><tag k="addr:housenumber" v="13800"/><tag k="addr:postcode" v="78653"/></node><node id="-154" lat="30.358671" lon="-97.522292" changeset="false"><tag k="addr:street" v="James Garfield Street"/><tag k="addr:housenumber" v="13916"/><tag k="addr:postcode" v="78653"/></node><node id="-155" lat="30.352446" lon="-97.521319" changeset="false"><tag k="addr:street" v="James Monroe Street"/><tag k="addr:housenumber" v="13326"/><tag k="addr:postcode" v="78653"/></node><node id="-156" lat="30.351423" lon="-97.525453" changeset="false"><tag k="addr:street" v="William Harrison Street"/><tag k="addr:housenumber" v="12605"/><tag k="addr:postcode" v="78653"/></node><node id="-157" lat="30.352432" lon="-97.522479" changeset="false"><tag k="addr:street" v="John Tyler Street"/><tag k="addr:housenumber" v="13312"/><tag k="addr:postcode" v="78653"/></node><node id="-158" lat="30.352631" lon="-97.519885" changeset="false"><tag k="addr:street" v="White House street"/><tag k="addr:housenumber" v="12909"/><tag k="addr:postcode" v="78653"/></node><node id="-159" lat="30.351991" lon="-97.529267" changeset="false"><tag k="addr:street" v="Gallant St"/><tag k="addr:housenumber" v="18209"/><tag k="addr:postcode" v="78653"/></node><node id="-160" lat="30.351926" lon="-97.522741" changeset="false"><tag k="addr:street" v="William Harrison Street"/><tag k="addr:housenumber" v="12724"/><tag k="addr:postcode" v="78653"/></node><node id="-161" lat="30.351907" lon="-97.523226" changeset="false"><tag k="addr:street" v="William Harrison Street"/><tag k="addr:housenumber" v="12712"/><tag k="addr:postcode" v="78653"/></node><node id="-162" lat="30.353763" lon="-97.523464" changeset="false"><tag k="addr:street" v="George Bush Court"/><tag k="addr:housenumber" v="12604"/><tag k="addr:postcode" v="78653"/></node><node id="-163" lat="30.352535" lon="-97.51936" changeset="false"><tag k="addr:street" v="White House street"/><tag k="addr:housenumber" v="12861"/><tag k="addr:postcode" v="78653"/></node><node id="-164" lat="30.352004" lon="-97.52055" changeset="false"><tag k="addr:street" v="White House street"/><tag k="addr:housenumber" v="12812"/><tag k="addr:postcode" v="78653"/></node><node id="-165" lat="30.355537" lon="-97.525942" changeset="false"><tag k="addr:street" v="Richard Nixon Street"/><tag k="addr:housenumber" v="13505"/><tag k="addr:postcode" v="78653"/></node><node id="-166" lat="30.357439" lon="-97.526849" changeset="false"><tag k="addr:street" v="Lyndon B Johnson Street"/><tag k="addr:housenumber" v="13621"/><tag k="addr:postcode" v="78653"/></node><node id="-167" lat="30.356094" lon="-97.527689" changeset="false"><tag k="addr:street" v="Lyndon B Johnson Street"/><tag k="addr:housenumber" v="13505"/><tag k="addr:postcode" v="78653"/></node><node id="-168" lat="30.353144" lon="-97.521037" changeset="false"><tag k="addr:street" v="James Monroe Street"/><tag k="addr:housenumber" v="13413"/><tag k="addr:postcode" v="78653"/></node><node id="-169" lat="30.352373" lon="-97.519913" changeset="false"><tag k="addr:street" v="White House street"/><tag k="addr:housenumber" v="12852"/><tag k="addr:postcode" v="78653"/></node><node id="-170" lat="30.355739" lon="-97.518427" changeset="false"><tag k="addr:street" v="Dwight Eisenhower Street"/><tag k="addr:housenumber" v="12910"/><tag k="addr:postcode" v="78653"/></node><node id="-171" lat="30.355599" lon="-97.517947" changeset="false"><tag k="addr:street" v="Dwight Eisenhower Street"/><tag k="addr:housenumber" v="12918"/><tag k="addr:postcode" v="78653"/></node><node id="-172" lat="30.356838" lon="-97.523716" changeset="false"><tag k="addr:street" v="Dwight Eisenhower Street"/><tag k="addr:housenumber" v="12501"/><tag k="addr:postcode" v="78653"/></node><node id="-173" lat="30.356815" lon="-97.522776" changeset="false"><tag k="addr:street" v="Dwight Eisenhower Street"/><tag k="addr:housenumber" v="12525"/><tag k="addr:postcode" v="78653"/></node><node id="-174" lat="30.356957" lon="-97.521761" changeset="false"><tag k="addr:street" v="Dwight Eisenhower Street"/><tag k="addr:housenumber" v="12612"/><tag k="addr:postcode" v="78653"/></node><node id="-175" lat="30.357037" lon="-97.521236" changeset="false"><tag k="addr:street" v="James Garfield Street"/><tag k="addr:housenumber" v="13710"/><tag k="addr:postcode" v="78653"/></node><node id="-176" lat="30.356656" lon="-97.520825" changeset="false"><tag k="addr:street" v="James Garfield Street"/><tag k="addr:housenumber" v="13705"/><tag k="addr:postcode" v="78653"/></node><node id="-177" lat="30.356792" lon="-97.520761" changeset="false"><tag k="addr:street" v="James Garfield Street"/><tag k="addr:housenumber" v="13709"/><tag k="addr:postcode" v="78653"/></node><node id="-178" lat="30.35693" lon="-97.520702" changeset="false"><tag k="addr:street" v="James Garfield Street"/><tag k="addr:housenumber" v="13713"/><tag k="addr:postcode" v="78653"/></node><node id="-179" lat="30.357988" lon="-97.520766" changeset="false"><tag k="addr:street" v="James Garfield Street"/><tag k="addr:housenumber" v="13805"/><tag k="addr:postcode" v="78653"/></node><node id="-180" lat="30.359021" lon="-97.521905" changeset="false"><tag k="addr:street" v="James Garfield Street"/><tag k="addr:housenumber" v="13913"/><tag k="addr:postcode" v="78653"/></node><node id="-181" lat="30.354864" lon="-97.523671" changeset="false"><tag k="addr:street" v="Gerald Ford Street"/><tag k="addr:housenumber" v="13504"/><tag k="addr:postcode" v="78653"/></node><node id="-182" lat="30.354977" lon="-97.523618" changeset="false"><tag k="addr:street" v="Gerald Ford Street"/><tag k="addr:housenumber" v="13508"/><tag k="addr:postcode" v="78653"/></node><node id="-183" lat="30.355472" lon="-97.523305" changeset="false"><tag k="addr:street" v="Gerald Ford Street"/><tag k="addr:housenumber" v="13524"/><tag k="addr:postcode" v="78653"/></node><node id="-184" lat="30.354738" lon="-97.523227" changeset="false"><tag k="addr:street" v="Gerald Ford Street"/><tag k="addr:housenumber" v="13505"/><tag k="addr:postcode" v="78653"/></node><node id="-185" lat="30.355086" lon="-97.522997" changeset="false"><tag k="addr:street" v="Gerald Ford Street"/><tag k="addr:housenumber" v="13517"/><tag k="addr:postcode" v="78653"/></node><node id="-186" lat="30.356413" lon="-97.521596" changeset="false"><tag k="addr:street" v="James Garfield Street"/><tag k="addr:housenumber" v="13632"/><tag k="addr:postcode" v="78653"/></node><node id="-187" lat="30.35554" lon="-97.521625" changeset="false"><tag k="addr:street" v="James Garfield Street"/><tag k="addr:housenumber" v="13609"/><tag k="addr:postcode" v="78653"/></node><node id="-188" lat="30.355373" lon="-97.524399" changeset="false"><tag k="addr:street" v="Ulysses S Grant Street"/><tag k="addr:housenumber" v="13512"/><tag k="addr:postcode" v="78653"/></node><node id="-189" lat="30.356201" lon="-97.523849" changeset="false"><tag k="addr:street" v="Ulysses S Grant Street"/><tag k="addr:housenumber" v="13612"/><tag k="addr:postcode" v="78653"/></node><node id="-190" lat="30.356568" lon="-97.523338" changeset="false"><tag k="addr:street" v="Ulysses S Grant Street"/><tag k="addr:housenumber" v="13624"/><tag k="addr:postcode" v="78653"/></node><node id="-191" lat="30.355676" lon="-97.523632" changeset="false"><tag k="addr:street" v="Ulysses S Grant Street"/><tag k="addr:housenumber" v="13601"/><tag k="addr:postcode" v="78653"/></node><node id="-192" lat="30.355833" lon="-97.524546" changeset="false"><tag k="addr:street" v="Dwight Eisenhower Street"/><tag k="addr:housenumber" v="12325"/><tag k="addr:postcode" v="78653"/></node><node id="-193" lat="30.356206" lon="-97.524895" changeset="false"><tag k="addr:street" v="Dwight Eisenhower Street"/><tag k="addr:housenumber" v="12404"/><tag k="addr:postcode" v="78653"/></node><node id="-194" lat="30.35633" lon="-97.524813" changeset="false"><tag k="addr:street" v="Dwight Eisenhower Street"/><tag k="addr:housenumber" v="12408"/><tag k="addr:postcode" v="78653"/></node><node id="-195" lat="30.356399" lon="-97.526455" changeset="false"><tag k="addr:street" v="John F Kennedy Street"/><tag k="addr:housenumber" v="13525"/><tag k="addr:postcode" v="78653"/></node><node id="-196" lat="30.352329" lon="-97.521311" changeset="false"><tag k="addr:street" v="James Monroe Street"/><tag k="addr:housenumber" v="13322"/><tag k="addr:postcode" v="78653"/></node><node id="-197" lat="30.352787" lon="-97.520609" changeset="false"><tag k="addr:street" v="White House street"/><tag k="addr:housenumber" v="12933"/><tag k="addr:postcode" v="78653"/></node><node id="-198" lat="30.357059" lon="-97.516214" changeset="false"><tag k="addr:street" v="Theodore Roosevelt Street"/><tag k="addr:housenumber" v="19114"/><tag k="addr:postcode" v="78653"/></node><node id="-199" lat="30.355104" lon="-97.523529" changeset="false"><tag k="addr:street" v="Gerald Ford Street"/><tag k="addr:housenumber" v="13512"/><tag k="addr:postcode" v="78653"/></node><node id="-200" lat="30.354965" lon="-97.523089" changeset="false"><tag k="addr:street" v="Gerald Ford Street"/><tag k="addr:housenumber" v="13513"/><tag k="addr:postcode" v="78653"/></node><node id="-201" lat="30.355575" lon="-97.523235" changeset="false"><tag k="addr:street" v="Gerald Ford Street"/><tag k="addr:housenumber" v="13600"/><tag k="addr:postcode" v="78653"/></node><node id="-202" lat="30.355436" lon="-97.522774" changeset="false"><tag k="addr:street" v="Gerald Ford Street"/><tag k="addr:housenumber" v="13601"/><tag k="addr:postcode" v="78653"/></node><node id="-203" lat="30.356037" lon="-97.521841" changeset="false"><tag k="addr:street" v="James Garfield Street"/><tag k="addr:housenumber" v="13620"/><tag k="addr:postcode" v="78653"/></node><node id="-204" lat="30.356152" lon="-97.52177" changeset="false"><tag k="addr:street" v="James Garfield Street"/><tag k="addr:housenumber" v="13624"/><tag k="addr:postcode" v="78653"/></node><node id="-205" lat="30.35561" lon="-97.524258" changeset="false"><tag k="addr:street" v="Ulysses S Grant Street"/><tag k="addr:housenumber" v="13520"/><tag k="addr:postcode" v="78653"/></node><node id="-206" lat="30.355957" lon="-97.524013" changeset="false"><tag k="addr:street" v="Ulysses S Grant Street"/><tag k="addr:housenumber" v="13604"/><tag k="addr:postcode" v="78653"/></node><node id="-207" lat="30.355905" lon="-97.523468" changeset="false"><tag k="addr:street" v="Ulysses S Grant Street"/><tag k="addr:housenumber" v="13609"/><tag k="addr:postcode" v="78653"/></node><node id="-208" lat="30.356222" lon="-97.523194" changeset="false"><tag k="addr:street" v="Ulysses S Grant Street"/><tag k="addr:housenumber" v="13617"/><tag k="addr:postcode" v="78653"/></node><node id="-209" lat="30.356465" lon="-97.523123" changeset="false"><tag k="addr:street" v="Ulysses S Grant Street"/><tag k="addr:housenumber" v="13621"/><tag k="addr:postcode" v="78653"/></node><node id="-210" lat="30.355625" lon="-97.525305" changeset="false"><tag k="addr:street" v="Dwight Eisenhower Street"/><tag k="addr:housenumber" v="12312"/><tag k="addr:postcode" v="78653"/></node><node id="-211" lat="30.355294" lon="-97.525018" changeset="false"><tag k="addr:street" v="Dwight Eisenhower Street"/><tag k="addr:housenumber" v="12305"/><tag k="addr:postcode" v="78653"/></node><node id="-212" lat="30.356091" lon="-97.524951" changeset="false"><tag k="addr:street" v="Dwight Eisenhower Street"/><tag k="addr:housenumber" v="12400"/><tag k="addr:postcode" v="78653"/></node><node id="-213" lat="30.356329" lon="-97.524269" changeset="false"><tag k="addr:street" v="Dwight Eisenhower Street"/><tag k="addr:housenumber" v="12413"/><tag k="addr:postcode" v="78653"/></node><node id="-214" lat="30.35186" lon="-97.525107" changeset="false"><tag k="addr:street" v="William Harrison Street"/><tag k="addr:housenumber" v="13300"/><tag k="addr:postcode" v="78653"/></node><node id="-215" lat="30.356892" lon="-97.521313" changeset="false"><tag k="addr:street" v="James Garfield Street"/><tag k="addr:housenumber" v="13706"/><tag k="addr:postcode" v="78653"/></node><node id="-216" lat="30.358131" lon="-97.52083" changeset="false"><tag k="addr:street" v="James Garfield Street"/><tag k="addr:housenumber" v="13809"/><tag k="addr:postcode" v="78653"/></node><node id="-217" lat="30.358059" lon="-97.521403" changeset="false"><tag k="addr:street" v="James Garfield Street"/><tag k="addr:housenumber" v="13812"/><tag k="addr:postcode" v="78653"/></node><node id="-218" lat="30.358821" lon="-97.52149" changeset="false"><tag k="addr:street" v="James Garfield Street"/><tag k="addr:housenumber" v="13901"/><tag k="addr:postcode" v="78653"/></node><node id="-219" lat="30.359155" lon="-97.522183" changeset="false"><tag k="addr:street" v="James Garfield Street"/><tag k="addr:housenumber" v="13921"/><tag k="addr:postcode" v="78653"/></node><node id="-220" lat="30.357331" lon="-97.526409" changeset="false"><tag k="addr:street" v="John F Kennedy Street"/><tag k="addr:housenumber" v="13620"/><tag k="addr:postcode" v="78653"/></node><node id="-221" lat="30.352778" lon="-97.520998" changeset="false"><tag k="addr:street" v="White House street"/><tag k="addr:housenumber" v="12945"/><tag k="addr:postcode" v="78653"/></node><node id="-222" lat="30.356285" lon="-97.522778" changeset="false"><tag k="addr:street" v="Gerald Ford Street"/><tag k="addr:housenumber" v="13620"/><tag k="addr:postcode" v="78653"/></node><node id="-223" lat="30.355792" lon="-97.522465" changeset="false"><tag k="addr:street" v="Gerald Ford Street"/><tag k="addr:housenumber" v="13613"/><tag k="addr:postcode" v="78653"/></node><node id="-224" lat="30.355676" lon="-97.522082" changeset="false"><tag k="addr:street" v="James Garfield Street"/><tag k="addr:housenumber" v="13608"/><tag k="addr:postcode" v="78653"/></node><node id="-225" lat="30.356" lon="-97.521288" changeset="false"><tag k="addr:street" v="James Garfield Street"/><tag k="addr:housenumber" v="13625"/><tag k="addr:postcode" v="78653"/></node><node id="-226" lat="30.356237" lon="-97.521106" changeset="false"><tag k="addr:street" v="James Garfield Street"/><tag k="addr:housenumber" v="13633"/><tag k="addr:postcode" v="78653"/></node><node id="-227" lat="30.354966" lon="-97.52408" changeset="false"><tag k="addr:street" v="Ulysses S Grant Street"/><tag k="addr:housenumber" v="13505"/><tag k="addr:postcode" v="78653"/></node><node id="-228" lat="30.355092" lon="-97.524" changeset="false"><tag k="addr:street" v="Ulysses S Grant Street"/><tag k="addr:housenumber" v="13509"/><tag k="addr:postcode" v="78653"/></node><node id="-229" lat="30.355429" lon="-97.523737" changeset="false"><tag k="addr:street" v="Ulysses S Grant Street"/><tag k="addr:housenumber" v="13521"/><tag k="addr:postcode" v="78653"/></node><node id="-230" lat="30.355707" lon="-97.524645" changeset="false"><tag k="addr:street" v="Dwight Eisenhower Street"/><tag k="addr:housenumber" v="12321"/><tag k="addr:postcode" v="78653"/></node><node id="-231" lat="30.35667" lon="-97.523986" changeset="false"><tag k="addr:street" v="Dwight Eisenhower Street"/><tag k="addr:housenumber" v="12425"/><tag k="addr:postcode" v="78653"/></node><node id="-232" lat="30.356581" lon="-97.522199" changeset="false"><tag k="addr:street" v="Dwight Eisenhower Street"/><tag k="addr:housenumber" v="12609"/><tag k="addr:postcode" v="78653"/></node><node id="-233" lat="30.357383" lon="-97.52064" changeset="false"><tag k="addr:street" v="James Garfield Street"/><tag k="addr:housenumber" v="13725"/><tag k="addr:postcode" v="78653"/></node><node id="-234" lat="30.358638" lon="-97.521216" changeset="false"><tag k="addr:street" v="James Garfield Street"/><tag k="addr:housenumber" v="13825"/><tag k="addr:postcode" v="78653"/></node><node id="-235" lat="30.358609" lon="-97.522157" changeset="false"><tag k="addr:street" v="James Garfield Street"/><tag k="addr:housenumber" v="13912"/><tag k="addr:postcode" v="78653"/></node><node id="-236" lat="30.352623" lon="-97.52938" changeset="false"><tag k="addr:street" v="Gallant St"/><tag k="addr:housenumber" v="18138"/><tag k="addr:postcode" v="78653"/></node><node id="-237" lat="30.353787" lon="-97.525208" changeset="false"><tag k="addr:street" v="Dwight Eisenhower Street"/><tag k="addr:housenumber" v="13401"/><tag k="addr:postcode" v="78653"/></node><node id="-238" lat="30.356901" lon="-97.523568" changeset="false"><tag k="addr:street" v="Dwight Eisenhower Street"/><tag k="addr:housenumber" v="12505"/><tag k="addr:postcode" v="78653"/></node><node id="-239" lat="30.356878" lon="-97.522919" changeset="false"><tag k="addr:street" v="Dwight Eisenhower Street"/><tag k="addr:housenumber" v="12521"/><tag k="addr:postcode" v="78653"/></node><node id="-240" lat="30.358518" lon="-97.521094" changeset="false"><tag k="addr:street" v="James Garfield Street"/><tag k="addr:housenumber" v="13821"/><tag k="addr:postcode" v="78653"/></node><node id="-241" lat="30.358305" lon="-97.52162" changeset="false"><tag k="addr:street" v="James Garfield Street"/><tag k="addr:housenumber" v="13824"/><tag k="addr:postcode" v="78653"/></node><node id="-242" lat="30.359089" lon="-97.522046" changeset="false"><tag k="addr:street" v="James Garfield Street"/><tag k="addr:housenumber" v="13917"/><tag k="addr:postcode" v="78653"/></node><node id="-243" lat="30.356158" lon="-97.526599" changeset="false"><tag k="addr:street" v="John F Kennedy Street"/><tag k="addr:housenumber" v="13517"/><tag k="addr:postcode" v="78653"/></node><node id="-244" lat="30.356644" lon="-97.526304" changeset="false"><tag k="addr:street" v="John F Kennedy Street"/><tag k="addr:housenumber" v="13605"/><tag k="addr:postcode" v="78653"/></node><node id="-245" lat="30.357557" lon="-97.526791" changeset="false"><tag k="addr:street" v="Lyndon B Johnson Street"/><tag k="addr:housenumber" v="13625"/><tag k="addr:postcode" v="78653"/></node><node id="-246" lat="30.355341" lon="-97.523373" changeset="false"><tag k="addr:street" v="Gerald Ford Street"/><tag k="addr:housenumber" v="13520"/><tag k="addr:postcode" v="78653"/></node><node id="-247" lat="30.354844" lon="-97.523153" changeset="false"><tag k="addr:street" v="Gerald Ford Street"/><tag k="addr:housenumber" v="13509"/><tag k="addr:postcode" v="78653"/></node><node id="-248" lat="30.355676" lon="-97.523146" changeset="false"><tag k="addr:street" v="Gerald Ford Street"/><tag k="addr:housenumber" v="13604"/><tag k="addr:postcode" v="78653"/></node><node id="-249" lat="30.356099" lon="-97.522286" changeset="false"><tag k="addr:street" v="Gerald Ford Street"/><tag k="addr:housenumber" v="13621"/><tag k="addr:postcode" v="78653"/></node><node id="-250" lat="30.355495" lon="-97.524323" changeset="false"><tag k="addr:street" v="Ulysses S Grant Street"/><tag k="addr:housenumber" v="13516"/><tag k="addr:postcode" v="78653"/></node><node id="-251" lat="30.355729" lon="-97.524162" changeset="false"><tag k="addr:street" v="Ulysses S Grant Street"/><tag k="addr:housenumber" v="13524"/><tag k="addr:postcode" v="78653"/></node><node id="-252" lat="30.356569" lon="-97.524637" changeset="false"><tag k="addr:street" v="Dwight Eisenhower Street"/><tag k="addr:housenumber" v="12416"/><tag k="addr:postcode" v="78653"/></node><node id="-253" lat="30.356812" lon="-97.524462" changeset="false"><tag k="addr:street" v="Dwight Eisenhower Street"/><tag k="addr:housenumber" v="12424"/><tag k="addr:postcode" v="78653"/></node><node id="-254" lat="30.356766" lon="-97.523856" changeset="false"><tag k="addr:street" v="Dwight Eisenhower Street"/><tag k="addr:housenumber" v="12429"/><tag k="addr:postcode" v="78653"/></node><node id="-255" lat="30.35187" lon="-97.52418" changeset="false"><tag k="addr:street" v="William Harrison Street"/><tag k="addr:housenumber" v="12636"/><tag k="addr:postcode" v="78653"/></node><node id="-256" lat="30.353848" lon="-97.523782" changeset="false"><tag k="addr:street" v="George Bush Court"/><tag k="addr:housenumber" v="12600"/><tag k="addr:postcode" v="78653"/></node><node id="-257" lat="30.352606" lon="-97.51963" changeset="false"><tag k="addr:street" v="White House street"/><tag k="addr:housenumber" v="12901"/><tag k="addr:postcode" v="78653"/></node><node id="-258" lat="30.355712" lon="-97.518314" changeset="false"><tag k="addr:street" v="Dwight Eisenhower Street"/><tag k="addr:housenumber" v="12912"/><tag k="addr:postcode" v="78653"/></node><node id="-259" lat="30.35554" lon="-97.517815" changeset="false"><tag k="addr:street" v="Dwight Eisenhower Street"/><tag k="addr:housenumber" v="12920"/><tag k="addr:postcode" v="78653"/></node><node id="-260" lat="30.355132" lon="-97.518007" changeset="false"><tag k="addr:street" v="Dwight Eisenhower Street"/><tag k="addr:housenumber" v="12923"/><tag k="addr:postcode" v="78653"/></node><node id="-261" lat="30.352436" lon="-97.522921" changeset="false"><tag k="addr:street" v="James Polk Street"/><tag k="addr:housenumber" v="12641"/><tag k="addr:postcode" v="78653"/></node><node id="-262" lat="30.364938" lon="-97.526433" changeset="false"><tag k="addr:street" v="Tower Road"/><tag k="addr:housenumber" v="12207"/><tag k="addr:postcode" v="78653"/></node><node id="-263" lat="30.35201" lon="-97.520428" changeset="false"><tag k="addr:street" v="White House street"/><tag k="addr:housenumber" v="12816"/><tag k="addr:postcode" v="78653"/></node><node id="-264" lat="30.362139" lon="-97.530127" changeset="false"><tag k="addr:street" v="Ralph Ritchie Road"/><tag k="addr:housenumber" v="13801"/><tag k="addr:postcode" v="78653"/></node><node id="-265" lat="30.353725" lon="-97.52402" changeset="false"><tag k="addr:street" v="George Bush Court"/><tag k="addr:housenumber" v="12601"/><tag k="addr:postcode" v="78653"/></node><node id="-266" lat="30.351996" lon="-97.522083" changeset="false"><tag k="addr:street" v="John Tyler Street"/><tag k="addr:housenumber" v="13301"/><tag k="addr:postcode" v="78653"/></node><node id="-267" lat="30.352734" lon="-97.520248" changeset="false"><tag k="addr:street" v="White House street"/><tag k="addr:housenumber" v="12921"/><tag k="addr:postcode" v="78653"/></node><node id="-268" lat="30.352072" lon="-97.520137" changeset="false"><tag k="addr:street" v="White House street"/><tag k="addr:housenumber" v="12832"/><tag k="addr:postcode" v="78653"/></node><node id="-269" lat="30.351968" lon="-97.521333" changeset="false"><tag k="addr:street" v="James Monroe Street"/><tag k="addr:housenumber" v="13310"/><tag k="addr:postcode" v="78653"/></node><node id="-270" lat="30.352617" lon="-97.519761" changeset="false"><tag k="addr:street" v="White House street"/><tag k="addr:housenumber" v="12905"/><tag k="addr:postcode" v="78653"/></node><node id="-271" lat="30.352018" lon="-97.52028" changeset="false"><tag k="addr:street" v="White House street"/><tag k="addr:housenumber" v="12824"/><tag k="addr:postcode" v="78653"/></node><node id="-272" lat="30.352217" lon="-97.523744" changeset="false"><tag k="addr:street" v="James Polk Street"/><tag k="addr:housenumber" v="12625"/><tag k="addr:postcode" v="78653"/></node><node id="-273" lat="30.352192" lon="-97.520018" changeset="false"><tag k="addr:street" v="White House street"/><tag k="addr:housenumber" v="12844"/><tag k="addr:postcode" v="78653"/></node><node id="-274" lat="30.353218" lon="-97.519363" changeset="false"><tag k="addr:street" v="James Madison Street"/><tag k="addr:housenumber" v="12933"/><tag k="addr:postcode" v="78653"/></node><node id="-275" lat="30.351931" lon="-97.529125" changeset="false"><tag k="addr:street" v="Gallant St"/><tag k="addr:housenumber" v="18213"/><tag k="addr:postcode" v="78653"/></node><node id="-276" lat="30.352775" lon="-97.520886" changeset="false"><tag k="addr:street" v="White House street"/><tag k="addr:housenumber" v="12941"/><tag k="addr:postcode" v="78653"/></node><node id="-277" lat="30.356697" lon="-97.525167" changeset="false"><tag k="addr:street" v="Richard Nixon Street"/><tag k="addr:housenumber" v="13613"/><tag k="addr:postcode" v="78653"/></node><node id="-278" lat="30.355923" lon="-97.526761" changeset="false"><tag k="addr:street" v="John F Kennedy Street"/><tag k="addr:housenumber" v="13509"/><tag k="addr:postcode" v="78653"/></node><node id="-279" lat="30.35706" lon="-97.525419" changeset="false"><tag k="addr:street" v="Richard Nixon Street"/><tag k="addr:housenumber" v="13620"/><tag k="addr:postcode" v="78653"/></node><node id="-280" lat="30.357311" lon="-97.526924" changeset="false"><tag k="addr:street" v="Lyndon B Johnson Street"/><tag k="addr:housenumber" v="13617"/><tag k="addr:postcode" v="78653"/></node><node id="-281" lat="30.357062" lon="-97.525969" changeset="false"><tag k="addr:street" v="John F Kennedy Street"/><tag k="addr:housenumber" v="13617"/><tag k="addr:postcode" v="78653"/></node><node id="-282" lat="30.357212" lon="-97.525953" changeset="false"><tag k="addr:street" v="John F Kennedy Street"/><tag k="addr:housenumber" v="13621"/><tag k="addr:postcode" v="78653"/></node><node id="-283" lat="30.356601" lon="-97.527393" changeset="false"><tag k="addr:street" v="Lyndon B Johnson Street"/><tag k="addr:housenumber" v="13521"/><tag k="addr:postcode" v="78653"/></node><node id="-284" lat="30.356516" lon="-97.526379" changeset="false"><tag k="addr:street" v="John F Kennedy Street"/><tag k="addr:housenumber" v="13601"/><tag k="addr:postcode" v="78653"/></node><node id="-285" lat="30.356509" lon="-97.525322" changeset="false"><tag k="addr:street" v="Richard Nixon Street"/><tag k="addr:housenumber" v="13609"/><tag k="addr:postcode" v="78653"/></node><node id="-286" lat="30.35368" lon="-97.528832" changeset="false"><tag k="addr:street" v="Canopy Lane"/><tag k="addr:housenumber" v="18137"/><tag k="addr:postcode" v="78653"/></node><node id="-287" lat="30.35337" lon="-97.529005" changeset="false"><tag k="addr:street" v="Topsail Street"/><tag k="addr:housenumber" v="18136"/><tag k="addr:postcode" v="78653"/></node><node id="-288" lat="30.352909" lon="-97.529094" changeset="false"><tag k="addr:street" v="Topsail Street"/><tag k="addr:housenumber" v="18201"/><tag k="addr:postcode" v="78653"/></node><node id="-289" lat="30.352544" lon="-97.529308" changeset="false"><tag k="addr:street" v="Gallant St"/><tag k="addr:housenumber" v="18200"/><tag k="addr:postcode" v="78653"/></node></osm>