<?xml version="1.0" encoding="UTF-8"?><osm version="0.6" generator="github.com/aaronlidman/osm-and-geojson"><node id="-1" lat="30.157862" lon="-97.781285" changeset="false"><tag k="addr:street" v="Melissa Oaks Lane"/><tag k="addr:housenumber" v="2011"/></node><node id="-2" lat="30.158927" lon="-97.788421" changeset="false"><tag k="addr:street" v="Interstate 35 Frontage Road"/><tag k="addr:housenumber" v="9725"/></node><node id="-3" lat="30.156668" lon="-97.787711" changeset="false"><tag k="addr:street" v="Brandt Road"/><tag k="addr:housenumber" v="1844"/></node><node id="-4" lat="30.160254" lon="-97.788479" changeset="false"><tag k="addr:street" v="Interstate 35 Frontage Road"/><tag k="addr:housenumber" v="9701"/></node><node id="-5" lat="30.157468" lon="-97.783984" changeset="false"><tag k="addr:street" v="Melissa Oaks Lane"/><tag k="addr:housenumber" v="1813"/></node><node id="-6" lat="30.158542" lon="-97.782121" changeset="false"><tag k="addr:street" v="Outwood Mill Lane"/><tag k="addr:housenumber" v="1905"/></node><node id="-7" lat="30.158926" lon="-97.782368" changeset="false"><tag k="addr:street" v="Outwood Mill Lane"/><tag k="addr:housenumber" v="1902"/></node><node id="-8" lat="30.158253" lon="-97.784014" changeset="false"><tag k="addr:street" v="Stephanne Creek Cove"/><tag k="addr:housenumber" v="2001"/></node><node id="-9" lat="30.157825" lon="-97.789618" changeset="false"><tag k="addr:street" v="Interstate 35 Frontage Road"/><tag k="addr:housenumber" v="9801"/></node><node id="-10" lat="30.160737" lon="-97.780743" changeset="false"><tag k="addr:street" v="Brents Elm Drive"/><tag k="addr:housenumber" v="9206"/></node><node id="-11" lat="30.164119" lon="-97.786448" changeset="false"><tag k="addr:street" v="Interstate 35 Frontage Road"/><tag k="addr:housenumber" v="9201"/></node><node id="-12" lat="30.159821" lon="-97.783991" changeset="false"><tag k="addr:street" v="Melissa Oaks Lane"/><tag k="addr:housenumber" v="1609"/></node><node id="-13" lat="30.157681" lon="-97.782885" changeset="false"><tag k="addr:street" v="Brandt Road"/><tag k="addr:housenumber" v="2136"/></node><node id="-14" lat="30.165951" lon="-97.780802" changeset="false"><tag k="addr:street" v="East Slaughter Lane"/><tag k="addr:housenumber" v="333"/></node><node id="-15" lat="30.156355" lon="-97.785302" changeset="false"><tag k="addr:street" v="Brandt Road"/><tag k="addr:housenumber" v="2008"/></node><node id="-16" lat="30.158588" lon="-97.784509" changeset="false"><tag k="addr:street" v="Melissa Oaks Lane"/><tag k="addr:housenumber" v="1717"/></node><node id="-17" lat="30.16556" lon="-97.785457" changeset="false"><tag k="addr:street" v="Interstate 35 Frontage Road"/><tag k="addr:housenumber" v="9101"/></node><node id="-18" lat="30.156702" lon="-97.78779" changeset="false"><tag k="addr:street" v="Brandt Road"/><tag k="addr:housenumber" v="1840 1/2"/></node><node id="-19" lat="30.166628" lon="-97.785007" changeset="false"><tag k="addr:street" v="Interstate 35 Frontage Road"/><tag k="addr:housenumber" v="9011 1/2"/></node><node id="-20" lat="30.157827" lon="-97.789652" changeset="false"><tag k="addr:street" v="Interstate 35 Frontage Road"/><tag k="addr:housenumber" v="9801 1/2"/></node><node id="-21" lat="30.165527" lon="-97.785094" changeset="false"><tag k="addr:street" v="Oak Hill Lane"/><tag k="addr:housenumber" v="1701"/></node><node id="-22" lat="30.156571" lon="-97.787457" changeset="false"><tag k="addr:street" v="Brandt Road"/><tag k="addr:housenumber" v="1848 1/2"/></node><node id="-23" lat="30.166585" lon="-97.782176" changeset="false"><tag k="addr:street" v="East Slaughter Lane"/><tag k="addr:housenumber" v="127"/></node><node id="-24" lat="30.166016" lon="-97.784183" changeset="false"><tag k="addr:street" v="Interstate 35 Frontage Road"/><tag k="addr:housenumber" v="9031"/></node><node id="-25" lat="30.163968" lon="-97.779096" changeset="false"><tag k="addr:street" v="East Slaughter Lane"/><tag k="addr:housenumber" v="515"/></node><node id="-26" lat="30.164615" lon="-97.782949" changeset="false"><tag k="addr:street" v="Oak Hill Lane"/><tag k="addr:housenumber" v="1824"/></node><node id="-27" lat="30.158093" lon="-97.779923" changeset="false"><tag k="addr:street" v="Brandt Road"/><tag k="addr:housenumber" v="2300"/></node><node id="-28" lat="30.157686" lon="-97.789066" changeset="false"><tag k="addr:street" v="Interstate 35 Frontage Road"/><tag k="addr:housenumber" v="9811"/></node><node id="-29" lat="30.158057" lon="-97.779841" changeset="false"><tag k="addr:street" v="Brandt Road"/><tag k="addr:housenumber" v="2302"/></node><node id="-30" lat="30.15968" lon="-97.782873" changeset="false"><tag k="addr:street" v="Idlewilde Run Drive"/><tag k="addr:housenumber" v="2002"/></node><node id="-31" lat="30.158045" lon="-97.779908" changeset="false"><tag k="addr:street" v="Brents Elm Drive"/><tag k="addr:housenumber" v="9412 1/2"/></node><node id="-32" lat="30.1588" lon="-97.782444" changeset="false"><tag k="addr:street" v="Outwood Mill Lane"/><tag k="addr:housenumber" v="1900"/></node><node id="-33" lat="30.159285" lon="-97.782546" changeset="false"><tag k="addr:street" v="Idlewilde Run Drive"/><tag k="addr:housenumber" v="2005"/></node><node id="-34" lat="30.160059" lon="-97.783834" changeset="false"><tag k="addr:street" v="Melissa Oaks Lane"/><tag k="addr:housenumber" v="1605"/></node><node id="-35" lat="30.161743" lon="-97.781478" changeset="false"><tag k="addr:street" v="Charlotte Estates Drive"/><tag k="addr:housenumber" v="2115"/></node></osm>