<?xml version="1.0" encoding="UTF-8"?><osm version="0.6" generator="github.com/aaronlidman/osm-and-geojson"><node id="-1" lat="30.212144" lon="-97.730044" changeset="false"><tag k="addr:street" v="Burleson Road"/><tag k="addr:housenumber" v="4902"/><tag k="addr:postcode" v="78744"/></node><node id="-2" lat="30.20502" lon="-97.73406" changeset="false"><tag k="addr:street" v="Carter Lane"/><tag k="addr:housenumber" v="4806"/><tag k="addr:postcode" v="78744"/></node><node id="-3" lat="30.209599" lon="-97.724244" changeset="false"><tag k="addr:street" v="Burleson Road"/><tag k="addr:housenumber" v="5500"/><tag k="addr:postcode" v="78744"/></node><node id="-4" lat="30.214226" lon="-97.731901" changeset="false"><tag k="addr:street" v="East Ben White Boulevard"/><tag k="addr:housenumber" v="4603 1/2"/><tag k="addr:postcode" v="78744"/></node><node id="-5" lat="30.198715" lon="-97.72947" changeset="false"><tag k="addr:street" v="Peach Grove Road"/><tag k="addr:housenumber" v="4505"/><tag k="addr:postcode" v="78744"/></node><node id="-6" lat="30.207792" lon="-97.732364" changeset="false"><tag k="addr:street" v="Promontory Point Drive"/><tag k="addr:housenumber" v="4044"/><tag k="addr:postcode" v="78744"/></node><node id="-7" lat="30.200482" lon="-97.730852" changeset="false"><tag k="addr:street" v="Viewpoint Drive"/><tag k="addr:housenumber" v="5503"/><tag k="addr:postcode" v="78744"/></node><node id="-8" lat="30.207528" lon="-97.728967" changeset="false"><tag k="addr:street" v="Caven Road"/><tag k="addr:housenumber" v="4000"/><tag k="addr:postcode" v="78744"/></node><node id="-9" lat="30.19721" lon="-97.713135" changeset="false"><tag k="addr:street" v="Smith School Road"/><tag k="addr:housenumber" v="4207"/><tag k="addr:postcode" v="78744"/></node><node id="-10" lat="30.198917" lon="-97.72986" changeset="false"><tag k="addr:street" v="Lyra Circle"/><tag k="addr:housenumber" v="4500"/><tag k="addr:postcode" v="78744"/></node><node id="-11" lat="30.211051" lon="-97.715098" changeset="false"><tag k="addr:street" v="Daffodil Drive"/><tag k="addr:housenumber" v="6108"/><tag k="addr:postcode" v="78744"/></node><node id="-12" lat="30.210598" lon="-97.718609" changeset="false"><tag k="addr:street" v="Trade Center Drive"/><tag k="addr:housenumber" v="5812"/><tag k="addr:postcode" v="78744"/></node><node id="-13" lat="30.20669" lon="-97.732563" changeset="false"><tag k="addr:street" v="Winnebago Lane"/><tag k="addr:housenumber" v="4905"/><tag k="addr:postcode" v="78744"/></node><node id="-14" lat="30.195572" lon="-97.715514" changeset="false"><tag k="addr:street" v="Smith School Road"/><tag k="addr:housenumber" v="4208"/><tag k="addr:postcode" v="78744"/></node><node id="-15" lat="30.198507" lon="-97.727555" changeset="false"><tag k="addr:street" v="Apple Orchard Lane"/><tag k="addr:housenumber" v="5611"/><tag k="addr:postcode" v="78744"/></node><node id="-16" lat="30.202681" lon="-97.716936" changeset="false"><tag k="addr:street" v="East Stassney Lane"/><tag k="addr:housenumber" v="6315 1/2"/><tag k="addr:postcode" v="78744"/></node><node id="-17" lat="30.198996" lon="-97.7125" changeset="false"><tag k="addr:street" v="Smith School Road"/><tag k="addr:housenumber" v="4100"/><tag k="addr:postcode" v="78744"/></node><node id="-18" lat="30.201799" lon="-97.722105" changeset="false"><tag k="addr:street" v="East Stassney Lane"/><tag k="addr:housenumber" v="6216"/><tag k="addr:postcode" v="78744"/></node><node id="-19" lat="30.19245" lon="-97.700182" changeset="false"><tag k="addr:street" v="Southgate Lane"/><tag k="addr:housenumber" v="7506"/><tag k="addr:postcode" v="78744"/></node><node id="-20" lat="30.213129" lon="-97.726472" changeset="false"><tag k="addr:street" v="East Ben White Boulevard"/><tag k="addr:housenumber" v="5109"/><tag k="addr:postcode" v="78744"/></node><node id="-21" lat="30.211915" lon="-97.729603" changeset="false"><tag k="addr:street" v="Burleson Road"/><tag k="addr:housenumber" v="4914"/><tag k="addr:postcode" v="78744"/></node><node id="-22" lat="30.200942" lon="-97.73081" changeset="false"><tag k="addr:street" v="Viewpoint Drive"/><tag k="addr:housenumber" v="5502"/><tag k="addr:postcode" v="78744"/></node><node id="-23" lat="30.202707" lon="-97.716998" changeset="false"><tag k="addr:street" v="East Stassney Lane"/><tag k="addr:housenumber" v="6315"/><tag k="addr:postcode" v="78744"/></node><node id="-24" lat="30.211823" lon="-97.714213" changeset="false"><tag k="addr:street" v="East Ben White Boulevard"/><tag k="addr:housenumber" v="6125"/><tag k="addr:postcode" v="78744"/></node><node id="-25" lat="30.213502" lon="-97.727203" changeset="false"><tag k="addr:street" v="East Ben White Boulevard"/><tag k="addr:housenumber" v="5005"/><tag k="addr:postcode" v="78744"/></node><node id="-26" lat="30.194371" lon="-97.730268" changeset="false"><tag k="addr:street" v="Brook Creek Cove"/><tag k="addr:housenumber" v="4811"/><tag k="addr:postcode" v="78744"/></node><node id="-27" lat="30.197937" lon="-97.707815" changeset="false"><tag k="addr:street" v="Burleson Road"/><tag k="addr:housenumber" v="7019"/><tag k="addr:postcode" v="78744"/></node><node id="-28" lat="30.196519" lon="-97.704267" changeset="false"><tag k="addr:street" v="Burleson Road"/><tag k="addr:housenumber" v="7103"/><tag k="addr:postcode" v="78744"/></node><node id="-29" lat="30.19865" lon="-97.729897" changeset="false"><tag k="addr:street" v="Lyra Circle"/><tag k="addr:housenumber" v="4501"/><tag k="addr:postcode" v="78744"/></node><node id="-30" lat="30.20671" lon="-97.729396" changeset="false"><tag k="addr:street" v="Caven Road"/><tag k="addr:housenumber" v="4018"/><tag k="addr:postcode" v="78744"/></node><node id="-31" lat="30.212047" lon="-97.729826" changeset="false"><tag k="addr:street" v="Burleson Road"/><tag k="addr:housenumber" v="4908"/><tag k="addr:postcode" v="78744"/></node><node id="-32" lat="30.201184" lon="-97.709513" changeset="false"><tag k="addr:street" v="Burleson Road"/><tag k="addr:housenumber" v="6805"/><tag k="addr:postcode" v="78744"/></node><node id="-33" lat="30.213334" lon="-97.725023" changeset="false"><tag k="addr:street" v="East Ben White Boulevard"/><tag k="addr:housenumber" v="5311 1/2"/><tag k="addr:postcode" v="78744"/></node><node id="-34" lat="30.214002" lon="-97.730624" changeset="false"><tag k="addr:street" v="East Ben White Boulevard"/><tag k="addr:housenumber" v="4707"/><tag k="addr:postcode" v="78744"/></node><node id="-35" lat="30.214225" lon="-97.731998" changeset="false"><tag k="addr:street" v="East Ben White Boulevard"/><tag k="addr:housenumber" v="4601 1/2"/><tag k="addr:postcode" v="78744"/></node><node id="-36" lat="30.194781" lon="-97.730445" changeset="false"><tag k="addr:street" v="Brook Creek Cove"/><tag k="addr:housenumber" v="4808"/><tag k="addr:postcode" v="78744"/></node><node id="-37" lat="30.204929" lon="-97.715786" changeset="false"><tag k="addr:street" v="Burleson Road"/><tag k="addr:housenumber" v="6317"/><tag k="addr:postcode" v="78744"/></node><node id="-38" lat="30.213624" lon="-97.728058" changeset="false"><tag k="addr:street" v="Chapman Lane"/><tag k="addr:housenumber" v="3503"/><tag k="addr:postcode" v="78744"/></node><node id="-39" lat="30.2011" lon="-97.72123" changeset="false"><tag k="addr:street" v="East Stassney Lane"/><tag k="addr:housenumber" v="6231"/><tag k="addr:postcode" v="78744"/></node><node id="-40" lat="30.204455" lon="-97.73064" changeset="false"><tag k="addr:street" v="Winnebago Lane"/><tag k="addr:housenumber" v="5217"/><tag k="addr:postcode" v="78744"/></node><node id="-41" lat="30.195046" lon="-97.704119" changeset="false"><tag k="addr:street" v="Burleson Road"/><tag k="addr:housenumber" v="7201"/><tag k="addr:postcode" v="78744"/></node><node id="-42" lat="30.207444" lon="-97.715832" changeset="false"><tag k="addr:street" v="Montopolis Drive"/><tag k="addr:housenumber" v="3512"/><tag k="addr:postcode" v="78744"/></node><node id="-43" lat="30.210893" lon="-97.713532" changeset="false"><tag k="addr:street" v="Montopolis Drive"/><tag k="addr:housenumber" v="3120"/><tag k="addr:postcode" v="78744"/></node><node id="-44" lat="30.209292" lon="-97.72883" changeset="false"><tag k="addr:street" v="Promontory Point Drive"/><tag k="addr:housenumber" v="3827"/><tag k="addr:postcode" v="78744"/></node><node id="-45" lat="30.213956" lon="-97.729964" changeset="false"><tag k="addr:street" v="East Ben White Boulevard"/><tag k="addr:housenumber" v="4751"/><tag k="addr:postcode" v="78744"/></node><node id="-46" lat="30.214181" lon="-97.731679" changeset="false"><tag k="addr:street" v="East Ben White Boulevard"/><tag k="addr:housenumber" v="4611 1/2"/><tag k="addr:postcode" v="78744"/></node><node id="-47" lat="30.207576" lon="-97.731246" changeset="false"><tag k="addr:street" v="Promontory Point Drive"/><tag k="addr:housenumber" v="4023"/><tag k="addr:postcode" v="78744"/></node><node id="-48" lat="30.195064" lon="-97.728814" changeset="false"><tag k="addr:street" v="Brook Crest Road"/><tag k="addr:housenumber" v="4701"/><tag k="addr:postcode" v="78744"/></node><node id="-49" lat="30.213942" lon="-97.729546" changeset="false"><tag k="addr:street" v="East Ben White Boulevard"/><tag k="addr:housenumber" v="4801"/><tag k="addr:postcode" v="78744"/></node><node id="-50" lat="30.210445" lon="-97.720129" changeset="false"><tag k="addr:street" v="Trade Center Drive"/><tag k="addr:housenumber" v="5811"/><tag k="addr:postcode" v="78744"/></node><node id="-51" lat="30.213362" lon="-97.72888" changeset="false"><tag k="addr:street" v="Chapman Lane"/><tag k="addr:housenumber" v="3506"/><tag k="addr:postcode" v="78744"/></node><node id="-52" lat="30.197977" lon="-97.731337" changeset="false"><tag k="addr:street" v="Lyra Circle"/><tag k="addr:housenumber" v="4610"/><tag k="addr:postcode" v="78744"/></node><node id="-53" lat="30.214107" lon="-97.731224" changeset="false"><tag k="addr:street" v="East Ben White Boulevard"/><tag k="addr:housenumber" v="4705"/><tag k="addr:postcode" v="78744"/></node><node id="-54" lat="30.213056" lon="-97.716473" changeset="false"><tag k="addr:street" v="East Ben White Boulevard"/><tag k="addr:housenumber" v="5920 1/2"/><tag k="addr:postcode" v="78741"/></node><node id="-55" lat="30.205091" lon="-97.73417" changeset="false"><tag k="addr:street" v="Carter Lane"/><tag k="addr:housenumber" v="4800"/><tag k="addr:postcode" v="78744"/></node><node id="-56" lat="30.212947" lon="-97.720425" changeset="false"><tag k="addr:street" v="East Ben White Boulevard"/><tag k="addr:housenumber" v="5609 1/2"/><tag k="addr:postcode" v="78744"/></node><node id="-57" lat="30.20666" lon="-97.727413" changeset="false"><tag k="addr:street" v="Fleming court"/><tag k="addr:housenumber" v="5330"/><tag k="addr:postcode" v="78744"/></node><node id="-58" lat="30.208238" lon="-97.727879" changeset="false"><tag k="addr:street" v="Caven Road"/><tag k="addr:housenumber" v="3915"/><tag k="addr:postcode" v="78744"/></node><node id="-59" lat="30.209752" lon="-97.733556" changeset="false"><tag k="addr:street" v="Drossett Drive"/><tag k="addr:housenumber" v="4001"/><tag k="addr:postcode" v="78744"/></node><node id="-60" lat="30.200932" lon="-97.7313" changeset="false"><tag k="addr:street" v="Viewpoint Drive"/><tag k="addr:housenumber" v="5410"/><tag k="addr:postcode" v="78744"/></node><node id="-61" lat="30.211322" lon="-97.731129" changeset="false"><tag k="addr:street" v="Drossett Drive"/><tag k="addr:housenumber" v="3731"/><tag k="addr:postcode" v="78744"/></node><node id="-62" lat="30.199146" lon="-97.724296" changeset="false"><tag k="addr:street" v="East Stassney Lane"/><tag k="addr:housenumber" v="6110"/><tag k="addr:postcode" v="78744"/></node><node id="-63" lat="30.204175" lon="-97.718372" changeset="false"><tag k="addr:street" v="East Stassney Lane"/><tag k="addr:housenumber" v="6320"/><tag k="addr:postcode" v="78744"/></node><node id="-64" lat="30.205144" lon="-97.716333" changeset="false"><tag k="addr:street" v="Burleson Road"/><tag k="addr:housenumber" v="6305"/><tag k="addr:postcode" v="78744"/></node><node id="-65" lat="30.204305" lon="-97.713464" changeset="false"><tag k="addr:street" v="Burleson Road"/><tag k="addr:housenumber" v="6500"/><tag k="addr:postcode" v="78744"/></node><node id="-66" lat="30.211341" lon="-97.730844" changeset="false"><tag k="addr:street" v="Drossett Drive"/><tag k="addr:housenumber" v="3729"/><tag k="addr:postcode" v="78744"/></node><node id="-67" lat="30.209984" lon="-97.728091" changeset="false"><tag k="addr:street" v="Promontory Point Drive"/><tag k="addr:housenumber" v="3800"/><tag k="addr:postcode" v="78744"/></node><node id="-68" lat="30.207873" lon="-97.720681" changeset="false"><tag k="addr:street" v="Burleson Road"/><tag k="addr:housenumber" v="5810"/><tag k="addr:postcode" v="78744"/></node><node id="-69" lat="30.207531" lon="-97.719932" changeset="false"><tag k="addr:street" v="Burleson Road"/><tag k="addr:housenumber" v="5904"/><tag k="addr:postcode" v="78744"/></node><node id="-70" lat="30.194729" lon="-97.730785" changeset="false"><tag k="addr:street" v="Spring Meadow Road"/><tag k="addr:housenumber" v="5706"/><tag k="addr:postcode" v="78744"/></node><node id="-71" lat="30.200042" lon="-97.72942" changeset="false"><tag k="addr:street" v="Viewpoint Drive"/><tag k="addr:housenumber" v="5609"/><tag k="addr:postcode" v="78744"/></node><node id="-72" lat="30.200397" lon="-97.730354" changeset="false"><tag k="addr:street" v="Viewpoint Drive"/><tag k="addr:housenumber" v="5509"/><tag k="addr:postcode" v="78744"/></node><node id="-73" lat="30.20871" lon="-97.729918" changeset="false"><tag k="addr:street" v="Promontory Point Drive"/><tag k="addr:housenumber" v="3905"/><tag k="addr:postcode" v="78744"/></node><node id="-74" lat="30.205727" lon="-97.735539" changeset="false"><tag k="addr:street" v="Carter Lane"/><tag k="addr:housenumber" v="4700"/><tag k="addr:postcode" v="78744"/></node><node id="-75" lat="30.214222" lon="-97.735172" changeset="false"><tag k="addr:street" v="Burleson Road"/><tag k="addr:housenumber" v="4417"/><tag k="addr:postcode" v="78744"/></node><node id="-76" lat="30.19861" lon="-97.730633" changeset="false"><tag k="addr:street" v="Lyra Circle"/><tag k="addr:housenumber" v="4601"/><tag k="addr:postcode" v="78744"/></node><node id="-77" lat="30.204905" lon="-97.716286" changeset="false"><tag k="addr:street" v="Burleson Road"/><tag k="addr:housenumber" v="6311"/><tag k="addr:postcode" v="78744"/></node><node id="-78" lat="30.213714" lon="-97.728089" changeset="false"><tag k="addr:street" v="Chapman Lane"/><tag k="addr:housenumber" v="3503 1/2"/><tag k="addr:postcode" v="78744"/></node><node id="-79" lat="30.211419" lon="-97.730678" changeset="false"><tag k="addr:street" v="Drossett Drive"/><tag k="addr:housenumber" v="3727"/><tag k="addr:postcode" v="78744"/></node><node id="-80" lat="30.203522" lon="-97.713214" changeset="false"><tag k="addr:street" v="Burleson Road"/><tag k="addr:housenumber" v="6517"/><tag k="addr:postcode" v="78744"/></node><node id="-81" lat="30.212862" lon="-97.721067" changeset="false"><tag k="addr:street" v="East Ben White Boulevard"/><tag k="addr:housenumber" v="5601 1/2"/><tag k="addr:postcode" v="78744"/></node><node id="-82" lat="30.212156" lon="-97.716677" changeset="false"><tag k="addr:street" v="East Ben White Boulevard"/><tag k="addr:housenumber" v="5919"/><tag k="addr:postcode" v="78744"/></node><node id="-83" lat="30.198152" lon="-97.726946" changeset="false"><tag k="addr:street" v="Apple Orchard Lane"/><tag k="addr:housenumber" v="5704"/><tag k="addr:postcode" v="78744"/></node><node id="-84" lat="30.206115" lon="-97.721607" changeset="false"><tag k="addr:street" v="Burleson Road"/><tag k="addr:housenumber" v="5909"/><tag k="addr:postcode" v="78744"/></node><node id="-85" lat="30.200899" lon="-97.730546" changeset="false"><tag k="addr:street" v="Viewpoint Drive"/><tag k="addr:housenumber" v="5504"/><tag k="addr:postcode" v="78744"/></node><node id="-86" lat="30.212981" lon="-97.736324" changeset="false"><tag k="addr:street" v="Todd Lane"/><tag k="addr:housenumber" v="3901"/><tag k="addr:postcode" v="78744"/></node><node id="-87" lat="30.212994" lon="-97.721732" changeset="false"><tag k="addr:street" v="East Ben White Boulevard"/><tag k="addr:housenumber" v="5519"/><tag k="addr:postcode" v="78744"/></node><node id="-88" lat="30.196199" lon="-97.728418" changeset="false"><tag k="addr:street" v="Mellow Hollow Drive"/><tag k="addr:housenumber" v="4701"/><tag k="addr:postcode" v="78744"/></node><node id="-89" lat="30.210959" lon="-97.732548" changeset="false"><tag k="addr:street" v="Drossett Drive"/><tag k="addr:housenumber" v="3825"/><tag k="addr:postcode" v="78744"/></node><node id="-90" lat="30.204857" lon="-97.734529" changeset="false"><tag k="addr:street" v="Afton Lane"/><tag k="addr:housenumber" v="4202"/><tag k="addr:postcode" v="78744"/></node><node id="-91" lat="30.212103" lon="-97.72979" changeset="false"><tag k="addr:street" v="Chapman Lane"/><tag k="addr:housenumber" v="3628"/><tag k="addr:postcode" v="78744"/></node><node id="-92" lat="30.209438" lon="-97.730761" changeset="false"><tag k="addr:street" v="Promontory Point Drive"/><tag k="addr:housenumber" v="3928"/><tag k="addr:postcode" v="78744"/></node><node id="-93" lat="30.198129" lon="-97.734637" changeset="false"><tag k="addr:street" v="Fence Row"/><tag k="addr:housenumber" v="5300 1/2"/><tag k="addr:postcode" v="78744"/></node><node id="-94" lat="30.208543" lon="-97.730616" changeset="false"><tag k="addr:street" v="Promontory Point Drive"/><tag k="addr:housenumber" v="3933"/><tag k="addr:postcode" v="78744"/></node><node id="-95" lat="30.204144" lon="-97.734523" changeset="false"><tag k="addr:street" v="Afton Lane"/><tag k="addr:housenumber" v="4200"/><tag k="addr:postcode" v="78744"/></node><node id="-96" lat="30.209173" lon="-97.733703" changeset="false"><tag k="addr:street" v="Drossett Drive"/><tag k="addr:housenumber" v="4015"/><tag k="addr:postcode" v="78744"/></node><node id="-97" lat="30.210664" lon="-97.714766" changeset="false"><tag k="addr:street" v="Daffodil Drive"/><tag k="addr:housenumber" v="6204"/><tag k="addr:postcode" v="78744"/></node><node id="-98" lat="30.196587" lon="-97.725964" changeset="false"><tag k="addr:street" v="East Stassney Lane"/><tag k="addr:housenumber" v="6012"/><tag k="addr:postcode" v="78744"/></node><node id="-99" lat="30.199446" lon="-97.70761" changeset="false"><tag k="addr:street" v="Burleson Road"/><tag k="addr:housenumber" v="7001"/><tag k="addr:postcode" v="78744"/></node><node id="-100" lat="30.205207" lon="-97.716542" changeset="false"><tag k="addr:street" v="Burleson Road"/><tag k="addr:housenumber" v="6301"/><tag k="addr:postcode" v="78744"/></node><node id="-101" lat="30.211988" lon="-97.729716" changeset="false"><tag k="addr:street" v="Burleson Road"/><tag k="addr:housenumber" v="4910"/><tag k="addr:postcode" v="78744"/></node><node id="-102" lat="30.200117" lon="-97.729569" changeset="false"><tag k="addr:street" v="Viewpoint Drive"/><tag k="addr:housenumber" v="5607"/><tag k="addr:postcode" v="78744"/></node><node id="-103" lat="30.213089" lon="-97.724788" changeset="false"><tag k="addr:street" v="East Ben White Boulevard"/><tag k="addr:housenumber" v="5315"/><tag k="addr:postcode" v="78744"/></node><node id="-104" lat="30.206686" lon="-97.718299" changeset="false"><tag k="addr:street" v="Burleson Road"/><tag k="addr:housenumber" v="6002"/><tag k="addr:postcode" v="78744"/></node><node id="-105" lat="30.20096" lon="-97.730985" changeset="false"><tag k="addr:street" v="Viewpoint Drive"/><tag k="addr:housenumber" v="5500"/><tag k="addr:postcode" v="78744"/></node><node id="-106" lat="30.195411" lon="-97.706689" changeset="false"><tag k="addr:street" v="Felter Lane"/><tag k="addr:housenumber" v="4215"/><tag k="addr:postcode" v="78744"/></node><node id="-107" lat="30.211034" lon="-97.730956" changeset="false"><tag k="addr:street" v="Drossett Drive"/><tag k="addr:housenumber" v="3725"/><tag k="addr:postcode" v="78744"/></node><node id="-108" lat="30.207963" lon="-97.734701" changeset="false"><tag k="addr:street" v="Winnebago Lane"/><tag k="addr:housenumber" v="4711"/><tag k="addr:postcode" v="78744"/></node><node id="-109" lat="30.21202" lon="-97.715247" changeset="false"><tag k="addr:street" v="East Ben White Boulevard"/><tag k="addr:housenumber" v="6023"/><tag k="addr:postcode" v="78744"/></node><node id="-110" lat="30.211963" lon="-97.71491" changeset="false"><tag k="addr:street" v="East Ben White Boulevard"/><tag k="addr:housenumber" v="6109"/><tag k="addr:postcode" v="78744"/></node><node id="-111" lat="30.21042" lon="-97.714925" changeset="false"><tag k="addr:street" v="Daffodil Drive"/><tag k="addr:housenumber" v="6113"/><tag k="addr:postcode" v="78744"/></node><node id="-112" lat="30.213715" lon="-97.734065" changeset="false"><tag k="addr:street" v="Burleson Road"/><tag k="addr:housenumber" v="4513"/><tag k="addr:postcode" v="78744"/></node><node id="-113" lat="30.199302" lon="-97.73117" changeset="false"><tag k="addr:street" v="Bevin Cove"/><tag k="addr:housenumber" v="5501"/><tag k="addr:postcode" v="78744"/></node><node id="-114" lat="30.206231" lon="-97.715788" changeset="false"><tag k="addr:street" v="Old Burleson Road"/><tag k="addr:housenumber" v="6311"/><tag k="addr:postcode" v="78744"/></node><node id="-115" lat="30.212478" lon="-97.716541" changeset="false"><tag k="addr:street" v="East Ben White Boulevard"/><tag k="addr:housenumber" v="5921 1/2"/><tag k="addr:postcode" v="78744"/></node><node id="-116" lat="30.21201" lon="-97.715415" changeset="false"><tag k="addr:street" v="East Ben White Boulevard"/><tag k="addr:housenumber" v="6017"/><tag k="addr:postcode" v="78744"/></node><node id="-117" lat="30.200768" lon="-97.709134" changeset="false"><tag k="addr:street" v="Burleson Road"/><tag k="addr:housenumber" v="6807"/><tag k="addr:postcode" v="78744"/></node><node id="-118" lat="30.197828" lon="-97.731175" changeset="false"><tag k="addr:street" v="Lyra Circle"/><tag k="addr:housenumber" v="4612"/><tag k="addr:postcode" v="78744"/></node><node id="-119" lat="30.211877" lon="-97.731701" changeset="false"><tag k="addr:street" v="Drossett Drive"/><tag k="addr:housenumber" v="3800"/><tag k="addr:postcode" v="78744"/></node><node id="-120" lat="30.194927" lon="-97.728898" changeset="false"><tag k="addr:street" v="Brook Crest Road"/><tag k="addr:housenumber" v="4703"/><tag k="addr:postcode" v="78744"/></node><node id="-121" lat="30.213726" lon="-97.72857" changeset="false"><tag k="addr:street" v="Chapman Lane"/><tag k="addr:housenumber" v="3502 1/2"/><tag k="addr:postcode" v="78744"/></node><node id="-122" lat="30.205601" lon="-97.730139" changeset="false"><tag k="addr:street" v="Caven Road"/><tag k="addr:housenumber" v="4100"/><tag k="addr:postcode" v="78744"/></node><node id="-123" lat="30.211298" lon="-97.731422" changeset="false"><tag k="addr:street" v="Drossett Drive"/><tag k="addr:housenumber" v="3733"/><tag k="addr:postcode" v="78744"/></node><node id="-124" lat="30.200085" lon="-97.728838" changeset="false"><tag k="addr:street" v="Viewpoint Drive"/><tag k="addr:housenumber" v="5616 1/2"/><tag k="addr:postcode" v="78744"/></node><node id="-125" lat="30.204731" lon="-97.714066" changeset="false"><tag k="addr:street" v="Burleson Road"/><tag k="addr:housenumber" v="6410"/><tag k="addr:postcode" v="78744"/></node><node id="-126" lat="30.200956" lon="-97.731148" changeset="false"><tag k="addr:street" v="Viewpoint Drive"/><tag k="addr:housenumber" v="5412"/><tag k="addr:postcode" v="78744"/></node><node id="-127" lat="30.20011" lon="-97.709279" changeset="false"><tag k="addr:street" v="Smith School Road"/><tag k="addr:housenumber" v="4001"/><tag k="addr:postcode" v="78744"/></node><node id="-128" lat="30.198654" lon="-97.710921" changeset="false"><tag k="addr:street" v="Smith School Road"/><tag k="addr:housenumber" v="4101"/><tag k="addr:postcode" v="78744"/></node><node id="-129" lat="30.212249" lon="-97.720291" changeset="false"><tag k="addr:street" v="Comsouth Drive"/><tag k="addr:housenumber" v="3400"/><tag k="addr:postcode" v="78744"/></node><node id="-130" lat="30.212014" lon="-97.729129" changeset="false"><tag k="addr:street" v="Burleson Road"/><tag k="addr:housenumber" v="4918"/><tag k="addr:postcode" v="78744"/></node><node id="-131" lat="30.194369" lon="-97.701604" changeset="false"><tag k="addr:street" v="Burleson Road"/><tag k="addr:housenumber" v="7303"/><tag k="addr:postcode" v="78744"/></node><node id="-132" lat="30.204436" lon="-97.715176" changeset="false"><tag k="addr:street" v="Burleson Road"/><tag k="addr:housenumber" v="6411"/><tag k="addr:postcode" v="78744"/></node><node id="-133" lat="30.200456" lon="-97.730682" changeset="false"><tag k="addr:street" v="Viewpoint Drive"/><tag k="addr:housenumber" v="5505"/><tag k="addr:postcode" v="78744"/></node><node id="-134" lat="30.209815" lon="-97.72907" changeset="false"><tag k="addr:street" v="Promontory Point Drive"/><tag k="addr:housenumber" v="3834"/><tag k="addr:postcode" v="78744"/></node><node id="-135" lat="30.214232" lon="-97.735196" changeset="false"><tag k="addr:street" v="Burleson Road"/><tag k="addr:housenumber" v="4415"/><tag k="addr:postcode" v="78744"/></node><node id="-136" lat="30.211513" lon="-97.718317" changeset="false"><tag k="addr:street" v="Gladiola Boulevard"/><tag k="addr:housenumber" v="3313"/><tag k="addr:postcode" v="78744"/></node><node id="-137" lat="30.21136" lon="-97.724963" changeset="false"><tag k="addr:street" v="Judson Road"/><tag k="addr:housenumber" v="3610"/><tag k="addr:postcode" v="78744"/></node><node id="-138" lat="30.196101" lon="-97.715116" changeset="false"><tag k="addr:street" v="Smith School Road"/><tag k="addr:housenumber" v="4200"/><tag k="addr:postcode" v="78744"/></node><node id="-139" lat="30.198202" lon="-97.734572" changeset="false"><tag k="addr:street" v="Fence Row"/><tag k="addr:housenumber" v="5300"/><tag k="addr:postcode" v="78744"/></node><node id="-140" lat="30.209961" lon="-97.714077" changeset="false"><tag k="addr:street" v="Montopolis Drive"/><tag k="addr:housenumber" v="3300"/><tag k="addr:postcode" v="78744"/></node><node id="-141" lat="30.209913" lon="-97.714072" changeset="false"><tag k="addr:street" v="Montopolis Drive"/><tag k="addr:housenumber" v="3300 1/2"/><tag k="addr:postcode" v="78744"/></node><node id="-142" lat="30.210355" lon="-97.725577" changeset="false"><tag k="addr:street" v="Judson Road"/><tag k="addr:housenumber" v="3612"/><tag k="addr:postcode" v="78744"/></node><node id="-143" lat="30.210306" lon="-97.725763" changeset="false"><tag k="addr:street" v="Burleson Road"/><tag k="addr:housenumber" v="5308"/><tag k="addr:postcode" v="78744"/></node><node id="-144" lat="30.207409" lon="-97.728144" changeset="false"><tag k="addr:street" v="Caven Road"/><tag k="addr:housenumber" v="3921"/><tag k="addr:postcode" v="78744"/></node><node id="-145" lat="30.207029" lon="-97.72824" changeset="false"><tag k="addr:street" v="Caven Road"/><tag k="addr:housenumber" v="4001"/><tag k="addr:postcode" v="78744"/></node><node id="-146" lat="30.1963" lon="-97.706425" changeset="false"><tag k="addr:street" v="Felter Lane"/><tag k="addr:housenumber" v="4210"/><tag k="addr:postcode" v="78744"/></node><node id="-147" lat="30.196128" lon="-97.70663" changeset="false"><tag k="addr:street" v="Felter Lane"/><tag k="addr:housenumber" v="4214"/><tag k="addr:postcode" v="78744"/></node><node id="-148" lat="30.196682" lon="-97.705851" changeset="false"><tag k="addr:street" v="Felter Lane"/><tag k="addr:housenumber" v="4134"/><tag k="addr:postcode" v="78744"/></node><node id="-149" lat="30.196859" lon="-97.705905" changeset="false"><tag k="addr:street" v="Felter Lane"/><tag k="addr:housenumber" v="4130"/><tag k="addr:postcode" v="78744"/></node><node id="-150" lat="30.196918" lon="-97.705828" changeset="false"><tag k="addr:street" v="Felter Lane"/><tag k="addr:housenumber" v="4128"/><tag k="addr:postcode" v="78744"/></node><node id="-151" lat="30.196753" lon="-97.706045" changeset="false"><tag k="addr:street" v="Felter Lane"/><tag k="addr:housenumber" v="4136"/><tag k="addr:postcode" v="78744"/></node><node id="-152" lat="30.196544" lon="-97.705987" changeset="false"><tag k="addr:street" v="Felter Lane"/><tag k="addr:housenumber" v="4138"/><tag k="addr:postcode" v="78744"/></node><node id="-153" lat="30.195568" lon="-97.70734" changeset="false"><tag k="addr:street" v="Felter Lane"/><tag k="addr:housenumber" v="4220"/><tag k="addr:postcode" v="78744"/></node><node id="-154" lat="30.195593" lon="-97.70712" changeset="false"><tag k="addr:street" v="Felter Lane"/><tag k="addr:housenumber" v="4216"/><tag k="addr:postcode" v="78744"/></node><node id="-155" lat="30.19617" lon="-97.705725" changeset="false"><tag k="addr:street" v="Felter Lane"/><tag k="addr:housenumber" v="4139"/><tag k="addr:postcode" v="78744"/></node><node id="-156" lat="30.19614" lon="-97.705521" changeset="false"><tag k="addr:street" v="Felter Lane"/><tag k="addr:housenumber" v="4141"/><tag k="addr:postcode" v="78744"/></node><node id="-157" lat="30.212139" lon="-97.729751" changeset="false"><tag k="addr:street" v="Chapman Lane"/><tag k="addr:housenumber" v="3620"/><tag k="addr:postcode" v="78744"/></node><node id="-158" lat="30.21256" lon="-97.72949" changeset="false"><tag k="addr:street" v="Chapman Lane"/><tag k="addr:housenumber" v="3610"/><tag k="addr:postcode" v="78744"/></node><node id="-159" lat="30.212878" lon="-97.729266" changeset="false"><tag k="addr:street" v="Chapman Lane"/><tag k="addr:housenumber" v="3600"/><tag k="addr:postcode" v="78744"/></node><node id="-160" lat="30.212487" lon="-97.729535" changeset="false"><tag k="addr:street" v="Chapman Lane"/><tag k="addr:housenumber" v="3612"/><tag k="addr:postcode" v="78744"/></node><node id="-161" lat="30.212718" lon="-97.729367" changeset="false"><tag k="addr:street" v="Chapman Lane"/><tag k="addr:housenumber" v="3608"/><tag k="addr:postcode" v="78744"/></node><node id="-162" lat="30.212766" lon="-97.729296" changeset="false"><tag k="addr:street" v="Chapman Lane"/><tag k="addr:housenumber" v="3604"/><tag k="addr:postcode" v="78744"/></node><node id="-163" lat="30.212305" lon="-97.729646" changeset="false"><tag k="addr:street" v="Chapman Lane"/><tag k="addr:housenumber" v="3616"/><tag k="addr:postcode" v="78744"/></node><node id="-164" lat="30.212378" lon="-97.729595" changeset="false"><tag k="addr:street" v="Chapman Lane"/><tag k="addr:housenumber" v="3614"/><tag k="addr:postcode" v="78744"/></node><node id="-165" lat="30.212218" lon="-97.729699" changeset="false"><tag k="addr:street" v="Chapman Lane"/><tag k="addr:housenumber" v="3618"/><tag k="addr:postcode" v="78744"/></node><node id="-166" lat="30.209244" lon="-97.738434" changeset="false"><tag k="addr:street" v="Todd Lane"/><tag k="addr:housenumber" v="4125"/><tag k="addr:postcode" v="78744"/></node><node id="-167" lat="30.209195" lon="-97.738607" changeset="false"><tag k="addr:street" v="Todd Lane"/><tag k="addr:housenumber" v="4213"/><tag k="addr:postcode" v="78744"/></node></osm>