<?xml version="1.0" encoding="UTF-8"?><osm version="0.6" generator="github.com/aaronlidman/osm-and-geojson"><node id="-1" lat="30.148007" lon="-97.777087" changeset="false"><tag k="addr:street" v="Wild Dunes Drive"/><tag k="addr:housenumber" v="10105"/><tag k="coa:place_id" v="50273"/></node><node id="-2" lat="30.12679" lon="-97.757969" changeset="false"><tag k="addr:street" v="Rinard Road"/><tag k="addr:housenumber" v="10606"/><tag k="coa:place_id" v="3187470"/></node><node id="-3" lat="30.149047" lon="-97.777659" changeset="false"><tag k="addr:street" v="Wild Dunes Court"/><tag k="addr:housenumber" v="4514"/><tag k="coa:place_id" v="50151"/></node><node id="-4" lat="30.149326" lon="-97.778383" changeset="false"><tag k="addr:street" v="Wild Dunes Drive"/><tag k="addr:housenumber" v="10021"/><tag k="coa:place_id" v="50268"/></node><node id="-5" lat="30.142627" lon="-97.769795" changeset="false"><tag k="addr:street" v="Lone Pine Lane"/><tag k="addr:housenumber" v="10212"/><tag k="coa:place_id" v="3187155"/></node><node id="-6" lat="30.110836" lon="-97.75035" changeset="false"><tag k="addr:street" v="Carl Road"/><tag k="addr:housenumber" v="11508"/><tag k="coa:place_id" v="1129765"/></node><node id="-7" lat="30.149624" lon="-97.779948" changeset="false"><tag k="addr:street" v="Shinnecock Hills Drive"/><tag k="addr:housenumber" v="10003"/><tag k="coa:place_id" v="747940"/></node><node id="-8" lat="30.139911" lon="-97.77209" changeset="false"><tag k="addr:street" v="Premier Park Street"/><tag k="addr:housenumber" v="10400"/><tag k="coa:place_id" v="3217127"/></node><node id="-9" lat="30.139556" lon="-97.771381" changeset="false"><tag k="addr:street" v="Zachary Scott Street"/><tag k="addr:housenumber" v="5517"/><tag k="coa:place_id" v="3217138"/></node><node id="-10" lat="30.142543" lon="-97.770843" changeset="false"><tag k="addr:street" v="Bradshaw Road"/><tag k="addr:housenumber" v="10212 1/2"/><tag k="coa:place_id" v="3363086"/></node><node id="-11" lat="30.139549" lon="-97.766288" changeset="false"><tag k="addr:street" v="Kleberg Trail"/><tag k="addr:housenumber" v="5845"/><tag k="coa:place_id" v="5054838"/></node><node id="-12" lat="30.130253" lon="-97.773163" changeset="false"><tag k="addr:street" v="River Plantation Drive"/><tag k="addr:housenumber" v="11409"/><tag k="coa:place_id" v="5107492"/></node><node id="-13" lat="30.129873" lon="-97.773626" changeset="false"><tag k="addr:street" v="River Plantation Drive"/><tag k="addr:housenumber" v="11400"/><tag k="coa:place_id" v="5107493"/></node><node id="-14" lat="30.141397" lon="-97.767367" changeset="false"><tag k="addr:street" v="Deer Chase Trail"/><tag k="addr:housenumber" v="10204"/><tag k="coa:place_id" v="3540903"/></node><node id="-15" lat="30.141102" lon="-97.76757" changeset="false"><tag k="addr:street" v="Deer Chase Trail"/><tag k="addr:housenumber" v="10216"/><tag k="coa:place_id" v="3540906"/></node><node id="-16" lat="30.140041" lon="-97.767107" changeset="false"><tag k="addr:street" v="Kleberg Trail"/><tag k="addr:housenumber" v="5817"/><tag k="coa:place_id" v="3540955"/></node><node id="-17" lat="30.158932" lon="-97.769806" changeset="false"><tag k="addr:street" v="Bluff Springs Road"/><tag k="addr:housenumber" v="9100"/><tag k="coa:place_id" v="835976"/></node><node id="-18" lat="30.157699" lon="-97.769447" changeset="false"><tag k="addr:street" v="Bluff Springs Road"/><tag k="addr:housenumber" v="9112"/><tag k="coa:place_id" v="162249"/></node><node id="-19" lat="30.131652" lon="-97.776641" changeset="false"><tag k="addr:street" v="River Plantation Drive"/><tag k="addr:housenumber" v="11209"/><tag k="coa:place_id" v="5071868"/></node><node id="-20" lat="30.143031" lon="-97.764845" changeset="false"><tag k="addr:street" v="Deer Chase Trail"/><tag k="addr:housenumber" v="9916"/><tag k="coa:place_id" v="5117788"/></node><node id="-21" lat="30.143058" lon="-97.765313" changeset="false"><tag k="addr:street" v="Deer Chase Trail"/><tag k="addr:housenumber" v="10000"/><tag k="coa:place_id" v="5117791"/></node><node id="-22" lat="30.142681" lon="-97.76596" changeset="false"><tag k="addr:street" v="Deer Chase Trail"/><tag k="addr:housenumber" v="10020"/><tag k="coa:place_id" v="5117796"/></node><node id="-23" lat="30.142644" lon="-97.765207" changeset="false"><tag k="addr:street" v="Deer Chase Trail"/><tag k="addr:housenumber" v="10005"/><tag k="coa:place_id" v="5117801"/></node><node id="-24" lat="30.122528" lon="-97.760336" changeset="false"><tag k="addr:street" v="Rinard Road"/><tag k="addr:housenumber" v="11114"/><tag k="coa:place_id" v="1113787"/></node><node id="-25" lat="30.139981" lon="-97.770376" changeset="false"><tag k="addr:street" v="Abby Ann Lane"/><tag k="addr:housenumber" v="5601"/><tag k="coa:place_id" v="3187222"/></node><node id="-26" lat="30.138732" lon="-97.773537" changeset="false"><tag k="addr:street" v="Bradshaw Road"/><tag k="addr:housenumber" v="10600"/><tag k="coa:place_id" v="179334"/></node><node id="-27" lat="30.149661" lon="-97.778792" changeset="false"><tag k="addr:street" v="Wild Dunes Drive"/><tag k="addr:housenumber" v="10017"/><tag k="coa:place_id" v="50266"/></node><node id="-28" lat="30.152252" lon="-97.768683" changeset="false"><tag k="addr:street" v="East Slaughter Lane"/><tag k="addr:housenumber" v="1601"/><tag k="coa:place_id" v="235924"/></node><node id="-29" lat="30.138387" lon="-97.766721" changeset="false"><tag k="addr:street" v="Abby Ann Lane"/><tag k="addr:housenumber" v="5924"/><tag k="coa:place_id" v="3217017"/></node><node id="-30" lat="30.139164" lon="-97.771877" changeset="false"><tag k="addr:street" v="Premier Park Street"/><tag k="addr:housenumber" v="10417"/><tag k="coa:place_id" v="3217135"/></node><node id="-31" lat="30.139228" lon="-97.767462" changeset="false"><tag k="addr:street" v="Silver Screen Drive"/><tag k="addr:housenumber" v="5825"/><tag k="coa:place_id" v="3217118"/></node><node id="-32" lat="30.139204" lon="-97.7657" changeset="false"><tag k="addr:street" v="Kleberg Trail"/><tag k="addr:housenumber" v="5917"/><tag k="coa:place_id" v="5054843"/></node><node id="-33" lat="30.15312" lon="-97.767584" changeset="false"><tag k="addr:street" v="East Slaughter Lane"/><tag k="addr:housenumber" v="1800"/><tag k="coa:place_id" v="5055641"/></node><node id="-34" lat="30.14268" lon="-97.764553" changeset="false"><tag k="addr:street" v="Deer Chase Trail"/><tag k="addr:housenumber" v="9904"/><tag k="coa:place_id" v="5117785"/></node><node id="-35" lat="30.143143" lon="-97.765132" changeset="false"><tag k="addr:street" v="Deer Chase Trail"/><tag k="addr:housenumber" v="9924"/><tag k="coa:place_id" v="5117790"/></node><node id="-36" lat="30.142728" lon="-97.765831" changeset="false"><tag k="addr:street" v="Deer Chase Trail"/><tag k="addr:housenumber" v="10016"/><tag k="coa:place_id" v="5117795"/></node><node id="-37" lat="30.142605" lon="-97.766135" changeset="false"><tag k="addr:street" v="Deer Chase Trail"/><tag k="addr:housenumber" v="10024"/><tag k="coa:place_id" v="5117797"/></node><node id="-38" lat="30.142416" lon="-97.766426" changeset="false"><tag k="addr:street" v="Deer Chase Trail"/><tag k="addr:housenumber" v="10032"/><tag k="coa:place_id" v="5117799"/></node><node id="-39" lat="30.142495" lon="-97.765486" changeset="false"><tag k="addr:street" v="Deer Chase Trail"/><tag k="addr:housenumber" v="10013"/><tag k="coa:place_id" v="5117803"/></node><node id="-40" lat="30.130505" lon="-97.774299" changeset="false"><tag k="addr:street" v="River Plantation Drive"/><tag k="addr:housenumber" v="11321"/><tag k="coa:place_id" v="5107481"/></node><node id="-41" lat="30.130238" lon="-97.774715" changeset="false"><tag k="addr:street" v="River Plantation Drive"/><tag k="addr:housenumber" v="11316"/><tag k="coa:place_id" v="5107485"/></node><node id="-42" lat="30.131787" lon="-97.776989" changeset="false"><tag k="addr:street" v="River Plantation Drive"/><tag k="addr:housenumber" v="11201"/><tag k="coa:place_id" v="5071866"/></node><node id="-43" lat="30.14218" lon="-97.766736" changeset="false"><tag k="addr:street" v="Deer Chase Trail"/><tag k="addr:housenumber" v="10100"/><tag k="coa:place_id" v="3540895"/></node><node id="-44" lat="30.141201" lon="-97.767509" changeset="false"><tag k="addr:street" v="Deer Chase Trail"/><tag k="addr:housenumber" v="10212"/><tag k="coa:place_id" v="3540905"/></node><node id="-45" lat="30.140826" lon="-97.767298" changeset="false"><tag k="addr:street" v="Deer Chase Trail"/><tag k="addr:housenumber" v="10221"/><tag k="coa:place_id" v="3540919"/></node><node id="-46" lat="30.142494" lon="-97.791943" changeset="false"><tag k="addr:street" v="Baltusrol Drive"/><tag k="addr:housenumber" v="2101"/><tag k="coa:place_id" v="417903"/></node><node id="-47" lat="30.14861" lon="-97.792226" changeset="false"><tag k="addr:street" v="Interstate 35 Frontage Road"/><tag k="addr:housenumber" v="10411 1/2"/><tag k="coa:place_id" v="3074106"/></node><node id="-48" lat="30.146395" lon="-97.779818" changeset="false"><tag k="addr:street" v="Slickrock Cove"/><tag k="addr:housenumber" v="4515"/><tag k="coa:place_id" v="165053"/></node><node id="-49" lat="30.139659" lon="-97.794843" changeset="false"><tag k="addr:street" v="Boca Raton Drive"/><tag k="addr:housenumber" v="2110"/><tag k="coa:place_id" v="322150"/></node><node id="-50" lat="30.140259" lon="-97.771655" changeset="false"><tag k="addr:street" v="Zachary Scott Street"/><tag k="addr:housenumber" v="5510"/><tag k="coa:place_id" v="3323115"/></node><node id="-51" lat="30.131566" lon="-97.776463" changeset="false"><tag k="addr:street" v="River Plantation Drive"/><tag k="addr:housenumber" v="11213"/><tag k="coa:place_id" v="5071869"/></node><node id="-52" lat="30.141879" lon="-97.767002" changeset="false"><tag k="addr:street" v="Deer Chase Trail"/><tag k="addr:housenumber" v="10112"/><tag k="coa:place_id" v="3540898"/></node><node id="-53" lat="30.141787" lon="-97.767073" changeset="false"><tag k="addr:street" v="Deer Chase Trail"/><tag k="addr:housenumber" v="10116"/><tag k="coa:place_id" v="3540899"/></node><node id="-54" lat="30.141008" lon="-97.767651" changeset="false"><tag k="addr:street" v="Deer Chase Trail"/><tag k="addr:housenumber" v="10220"/><tag k="coa:place_id" v="3540907"/></node><node id="-55" lat="30.141705" lon="-97.766683" changeset="false"><tag k="addr:street" v="Deer Chase Trail"/><tag k="addr:housenumber" v="10113"/><tag k="coa:place_id" v="3540910"/></node><node id="-56" lat="30.14151" lon="-97.766823" changeset="false"><tag k="addr:street" v="Deer Chase Trail"/><tag k="addr:housenumber" v="10121"/><tag k="coa:place_id" v="3540912"/></node><node id="-57" lat="30.140179" lon="-97.767427" changeset="false"><tag k="addr:street" v="Kleberg Trail"/><tag k="addr:housenumber" v="5809"/><tag k="coa:place_id" v="3540953"/></node><node id="-58" lat="30.139985" lon="-97.766985" changeset="false"><tag k="addr:street" v="Kleberg Trail"/><tag k="addr:housenumber" v="5821"/><tag k="coa:place_id" v="3540956"/></node><node id="-59" lat="30.139926" lon="-97.76686" changeset="false"><tag k="addr:street" v="Kleberg Trail"/><tag k="addr:housenumber" v="5825"/><tag k="coa:place_id" v="3540957"/></node><node id="-60" lat="30.139479" lon="-97.766167" changeset="false"><tag k="addr:street" v="Kleberg Trail"/><tag k="addr:housenumber" v="5901"/><tag k="coa:place_id" v="5054839"/></node><node id="-61" lat="30.153125" lon="-97.768917" changeset="false"><tag k="addr:street" v="East Slaughter Lane"/><tag k="addr:housenumber" v="1700"/><tag k="coa:place_id" v="5124604"/></node><node id="-62" lat="30.107818" lon="-97.764826" changeset="false"><tag k="addr:street" v="Farm-to-Market Road 1327"/><tag k="addr:housenumber" v="2704"/><tag k="coa:place_id" v="3327054"/></node><node id="-63" lat="30.130325" lon="-97.773719" changeset="false"><tag k="addr:street" v="River Plantation Drive"/><tag k="addr:housenumber" v="11333"/><tag k="coa:place_id" v="5107484"/></node><node id="-64" lat="30.130087" lon="-97.774389" changeset="false"><tag k="addr:street" v="River Plantation Drive"/><tag k="addr:housenumber" v="11324"/><tag k="coa:place_id" v="5107487"/></node><node id="-65" lat="30.129811" lon="-97.773197" changeset="false"><tag k="addr:street" v="River Plantation Drive"/><tag k="addr:housenumber" v="11408"/><tag k="coa:place_id" v="5107495"/></node><node id="-66" lat="30.143061" lon="-97.769774" changeset="false"><tag k="addr:street" v="Bradshaw Road"/><tag k="addr:housenumber" v="10151"/><tag k="coa:place_id" v="5082135"/></node><node id="-67" lat="30.12717" lon="-97.757728" changeset="false"><tag k="addr:street" v="Rinard Road"/><tag k="addr:housenumber" v="10604"/><tag k="coa:place_id" v="3187469"/></node><node id="-68" lat="30.141769" lon="-97.770962" changeset="false"><tag k="addr:street" v="Bradshaw Road"/><tag k="addr:housenumber" v="10223"/><tag k="coa:place_id" v="835028"/></node><node id="-69" lat="30.140999" lon="-97.794743" changeset="false"><tag k="addr:street" v="Crown Colony Drive"/><tag k="addr:housenumber" v="10800"/><tag k="coa:place_id" v="1143969"/></node><node id="-70" lat="30.149813" lon="-97.778971" changeset="false"><tag k="addr:street" v="Wild Dunes Drive"/><tag k="addr:housenumber" v="10015"/><tag k="coa:place_id" v="50265"/></node><node id="-71" lat="30.147163" lon="-97.788258" changeset="false"><tag k="addr:street" v="Interstate 35 Frontage Road"/><tag k="addr:housenumber" v="10413"/><tag k="coa:place_id" v="3115172"/></node><node id="-72" lat="30.146936" lon="-97.78096" changeset="false"><tag k="addr:street" v="Shinnecock Hills Drive"/><tag k="addr:housenumber" v="10208"/><tag k="coa:place_id" v="3043421"/></node><node id="-73" lat="30.14532" lon="-97.783818" changeset="false"><tag k="addr:street" v="Braemar Cove"/><tag k="addr:housenumber" v="2507"/><tag k="coa:place_id" v="551367"/></node><node id="-74" lat="30.126434" lon="-97.758217" changeset="false"><tag k="addr:street" v="Rinard Road"/><tag k="addr:housenumber" v="10700"/><tag k="coa:place_id" v="3186297"/></node><node id="-75" lat="30.150216" lon="-97.780522" changeset="false"><tag k="addr:street" v="Wild Dunes Drive"/><tag k="addr:housenumber" v="10002"/><tag k="coa:place_id" v="50251"/></node><node id="-76" lat="30.119015" lon="-97.779094" changeset="false"><tag k="addr:street" v="Bradshaw Road"/><tag k="addr:housenumber" v="11911"/><tag k="coa:place_id" v="116747"/></node><node id="-77" lat="30.147147" lon="-97.77713" changeset="false"><tag k="addr:street" v="Wild Dunes Drive"/><tag k="addr:housenumber" v="10113"/><tag k="coa:place_id" v="50277"/></node><node id="-78" lat="30.147167" lon="-97.778517" changeset="false"><tag k="addr:street" v="Pinehurst Drive,1100"/><tag k="addr:housenumber" v="10107"/><tag k="coa:place_id" v="57214"/></node><node id="-79" lat="30.148505" lon="-97.781092" changeset="false"><tag k="addr:street" v="Shinnecock Hills Drive"/><tag k="addr:housenumber" v="10106"/><tag k="coa:place_id" v="50170"/></node><node id="-80" lat="30.146337" lon="-97.778285" changeset="false"><tag k="addr:street" v="Slickrock Cove"/><tag k="addr:housenumber" v="4613"/><tag k="coa:place_id" v="175285"/></node><node id="-81" lat="30.139656" lon="-97.768533" changeset="false"><tag k="addr:street" v="Deer Chase Trail"/><tag k="addr:housenumber" v="10406 1/2"/><tag k="coa:place_id" v="3256309"/></node><node id="-82" lat="30.1428" lon="-97.793929" changeset="false"><tag k="addr:street" v="Interstate 35 Frontage Road"/><tag k="addr:housenumber" v="10917"/><tag k="coa:place_id" v="1163182"/></node><node id="-83" lat="30.141248" lon="-97.767976" changeset="false"><tag k="addr:street" v="Dolce Vista Drive"/><tag k="addr:housenumber" v="10209"/><tag k="coa:place_id" v="3428384"/></node><node id="-84" lat="30.147658" lon="-97.780633" changeset="false"><tag k="addr:street" v="Shinnecock Hills Drive"/><tag k="addr:housenumber" v="10205"/><tag k="coa:place_id" v="5060846"/></node><node id="-85" lat="30.142558" lon="-97.769885" changeset="false"><tag k="addr:street" v="Lone Pine Lane"/><tag k="addr:housenumber" v="10216"/><tag k="coa:place_id" v="3389633"/></node><node id="-86" lat="30.139686" lon="-97.766526" changeset="false"><tag k="addr:street" v="Kleberg Trail"/><tag k="addr:housenumber" v="5837"/><tag k="coa:place_id" v="5054836"/></node><node id="-87" lat="30.138372" lon="-97.768247" changeset="false"><tag k="addr:street" v="Zachary Scott Street"/><tag k="addr:housenumber" v="5820"/><tag k="coa:place_id" v="3499582"/></node><node id="-88" lat="30.141497" lon="-97.76729" changeset="false"><tag k="addr:street" v="Deer Chase Trail"/><tag k="addr:housenumber" v="10200"/><tag k="coa:place_id" v="3540902"/></node><node id="-89" lat="30.141302" lon="-97.767432" changeset="false"><tag k="addr:street" v="Deer Chase Trail"/><tag k="addr:housenumber" v="10208"/><tag k="coa:place_id" v="3540904"/></node><node id="-90" lat="30.140926" lon="-97.767233" changeset="false"><tag k="addr:street" v="Deer Chase Trail"/><tag k="addr:housenumber" v="10217"/><tag k="coa:place_id" v="3540918"/></node><node id="-91" lat="30.142923" lon="-97.764761" changeset="false"><tag k="addr:street" v="Deer Chase Trail"/><tag k="addr:housenumber" v="9912"/><tag k="coa:place_id" v="5117787"/></node><node id="-92" lat="30.142567" lon="-97.765362" changeset="false"><tag k="addr:street" v="Deer Chase Trail"/><tag k="addr:housenumber" v="10009"/><tag k="coa:place_id" v="5117802"/></node><node id="-93" lat="30.147316" lon="-97.790981" changeset="false"><tag k="addr:street" v="Interstate 35 Frontage Road"/><tag k="addr:housenumber" v="10425"/><tag k="coa:place_id" v="3098583"/></node><node id="-94" lat="30.140191" lon="-97.769217" changeset="false"><tag k="addr:street" v="Silver Screen Drive"/><tag k="addr:housenumber" v="5621"/><tag k="coa:place_id" v="3187245"/></node><node id="-95" lat="30.145039" lon="-97.781803" changeset="false"><tag k="addr:street" v="River Plantation Drive"/><tag k="addr:housenumber" v="10301"/><tag k="coa:place_id" v="141739"/></node><node id="-96" lat="30.142075" lon="-97.76949" changeset="false"><tag k="addr:street" v="Kleberg Trail"/><tag k="addr:housenumber" v="5528"/><tag k="coa:place_id" v="3187157"/></node><node id="-97" lat="30.141484" lon="-97.793282" changeset="false"><tag k="addr:street" v="Pinehurst Drive,1100"/><tag k="addr:housenumber" v="10718"/><tag k="coa:place_id" v="1143968"/></node><node id="-98" lat="30.147894" lon="-97.783389" changeset="false"><tag k="addr:street" v="Pinehurst Drive,1100"/><tag k="addr:housenumber" v="10220"/><tag k="coa:place_id" v="551505"/></node><node id="-99" lat="30.142304" lon="-97.794341" changeset="false"><tag k="addr:street" v="Interstate 35 Frontage Road"/><tag k="addr:housenumber" v="10933"/><tag k="coa:place_id" v="3270364"/></node><node id="-100" lat="30.14001" lon="-97.772307" changeset="false"><tag k="addr:street" v="Bradshaw Road"/><tag k="addr:housenumber" v="10405 1/2"/><tag k="coa:place_id" v="3278629"/></node><node id="-101" lat="30.145583" lon="-97.782307" changeset="false"><tag k="addr:street" v="River Plantation Drive"/><tag k="addr:housenumber" v="10214"/><tag k="coa:place_id" v="552021"/></node><node id="-102" lat="30.139489" lon="-97.772321" changeset="false"><tag k="addr:street" v="Premier Park Street"/><tag k="addr:housenumber" v="10412"/><tag k="coa:place_id" v="3217130"/></node><node id="-103" lat="30.139309" lon="-97.772242" changeset="false"><tag k="addr:street" v="Premier Park Street"/><tag k="addr:housenumber" v="10416"/><tag k="coa:place_id" v="3217131"/></node><node id="-104" lat="30.139363" lon="-97.771512" changeset="false"><tag k="addr:street" v="Premier Park Street"/><tag k="addr:housenumber" v="10409"/><tag k="coa:place_id" v="3217133"/></node><node id="-105" lat="30.139725" lon="-97.771712" changeset="false"><tag k="addr:street" v="Zachary Scott Street"/><tag k="addr:housenumber" v="5509"/><tag k="coa:place_id" v="3217136"/></node><node id="-106" lat="30.139761" lon="-97.76665" changeset="false"><tag k="addr:street" v="Kleberg Trail"/><tag k="addr:housenumber" v="5833"/><tag k="coa:place_id" v="5054835"/></node><node id="-107" lat="30.142566" lon="-97.764393" changeset="false"><tag k="addr:street" v="Deer Chase Trail"/><tag k="addr:housenumber" v="9900"/><tag k="coa:place_id" v="5117784"/></node><node id="-108" lat="30.142899" lon="-97.765552" changeset="false"><tag k="addr:street" v="Deer Chase Trail"/><tag k="addr:housenumber" v="10008"/><tag k="coa:place_id" v="5117793"/></node><node id="-109" lat="30.142708" lon="-97.765093" changeset="false"><tag k="addr:street" v="Deer Chase Trail"/><tag k="addr:housenumber" v="10001"/><tag k="coa:place_id" v="5117800"/></node><node id="-110" lat="30.142196" lon="-97.76605" changeset="false"><tag k="addr:street" v="Deer Chase Trail"/><tag k="addr:housenumber" v="10029"/><tag k="coa:place_id" v="5117807"/></node><node id="-111" lat="30.130368" lon="-97.773934" changeset="false"><tag k="addr:street" v="River Plantation Drive"/><tag k="addr:housenumber" v="11329"/><tag k="coa:place_id" v="5107483"/></node><node id="-112" lat="30.130155" lon="-97.774572" changeset="false"><tag k="addr:street" v="River Plantation Drive"/><tag k="addr:housenumber" v="11320"/><tag k="coa:place_id" v="5107486"/></node><node id="-113" lat="30.130037" lon="-97.774206" changeset="false"><tag k="addr:street" v="River Plantation Drive"/><tag k="addr:housenumber" v="11328"/><tag k="coa:place_id" v="5107488"/></node><node id="-114" lat="30.138238" lon="-97.768002" changeset="false"><tag k="addr:street" v="Zachary Scott Street"/><tag k="addr:housenumber" v="5828"/><tag k="coa:place_id" v="3499584"/></node><node id="-115" lat="30.141807" lon="-97.766602" changeset="false"><tag k="addr:street" v="Deer Chase Trail"/><tag k="addr:housenumber" v="10109"/><tag k="coa:place_id" v="3540909"/></node><node id="-116" lat="30.141317" lon="-97.766963" changeset="false"><tag k="addr:street" v="Deer Chase Trail"/><tag k="addr:housenumber" v="10201"/><tag k="coa:place_id" v="3540914"/></node><node id="-117" lat="30.141219" lon="-97.767032" changeset="false"><tag k="addr:street" v="Deer Chase Trail"/><tag k="addr:housenumber" v="10205"/><tag k="coa:place_id" v="3540915"/></node><node id="-118" lat="30.141121" lon="-97.767099" changeset="false"><tag k="addr:street" v="Deer Chase Trail"/><tag k="addr:housenumber" v="10209"/><tag k="coa:place_id" v="3540916"/></node><node id="-119" lat="30.139852" lon="-97.766727" changeset="false"><tag k="addr:street" v="Kleberg Trail"/><tag k="addr:housenumber" v="5829"/><tag k="coa:place_id" v="3540958"/></node><node id="-120" lat="30.149073" lon="-97.780177" changeset="false"><tag k="addr:street" v="Shinnecock Hills Drive"/><tag k="addr:housenumber" v="10101"/><tag k="coa:place_id" v="736216"/></node><node id="-121" lat="30.150484" lon="-97.78062" changeset="false"><tag k="addr:street" v="Wild Dunes Drive"/><tag k="addr:housenumber" v="10000"/><tag k="coa:place_id" v="50220"/></node><node id="-122" lat="30.141285" lon="-97.794956" changeset="false"><tag k="addr:street" v="Interstate 35 Frontage Road"/><tag k="addr:housenumber" v="11031"/><tag k="coa:place_id" v="118991"/></node><node id="-123" lat="30.139411" lon="-97.766051" changeset="false"><tag k="addr:street" v="Kleberg Trail"/><tag k="addr:housenumber" v="5905"/><tag k="coa:place_id" v="5054840"/></node><node id="-124" lat="30.14197" lon="-97.766918" changeset="false"><tag k="addr:street" v="Deer Chase Trail"/><tag k="addr:housenumber" v="10108"/><tag k="coa:place_id" v="3540897"/></node><node id="-125" lat="30.141896" lon="-97.766511" changeset="false"><tag k="addr:street" v="Deer Chase Trail"/><tag k="addr:housenumber" v="10105"/><tag k="coa:place_id" v="3540908"/></node><node id="-126" lat="30.141023" lon="-97.767166" changeset="false"><tag k="addr:street" v="Deer Chase Trail"/><tag k="addr:housenumber" v="10213"/><tag k="coa:place_id" v="3540917"/></node><node id="-127" lat="30.142822" lon="-97.765702" changeset="false"><tag k="addr:street" v="Deer Chase Trail"/><tag k="addr:housenumber" v="10012"/><tag k="coa:place_id" v="5117794"/></node><node id="-128" lat="30.142358" lon="-97.76576" changeset="false"><tag k="addr:street" v="Deer Chase Trail"/><tag k="addr:housenumber" v="10021"/><tag k="coa:place_id" v="5117805"/></node><node id="-129" lat="30.121115" lon="-97.762819" changeset="false"><tag k="addr:street" v="Rinard Road"/><tag k="addr:housenumber" v="11120"/><tag k="coa:place_id" v="3327060"/></node><node id="-130" lat="30.1306" lon="-97.774477" changeset="false"><tag k="addr:street" v="River Plantation Drive"/><tag k="addr:housenumber" v="11317"/><tag k="coa:place_id" v="5107480"/></node><node id="-131" lat="30.138083" lon="-97.773809" changeset="false"><tag k="addr:street" v="Bradshaw Road"/><tag k="addr:housenumber" v="10620"/><tag k="coa:place_id" v="3278741"/></node><node id="-132" lat="30.131722" lon="-97.776813" changeset="false"><tag k="addr:street" v="River Plantation Drive"/><tag k="addr:housenumber" v="11205"/><tag k="coa:place_id" v="5071867"/></node><node id="-133" lat="30.139774" lon="-97.772155" changeset="false"><tag k="addr:street" v="Premier Park Street"/><tag k="addr:housenumber" v="10404"/><tag k="coa:place_id" v="3217128"/></node><node id="-134" lat="30.130436" lon="-97.774099" changeset="false"><tag k="addr:street" v="River Plantation Drive"/><tag k="addr:housenumber" v="11325"/><tag k="coa:place_id" v="5107482"/></node><node id="-135" lat="30.129826" lon="-97.773407" changeset="false"><tag k="addr:street" v="River Plantation Drive"/><tag k="addr:housenumber" v="11404"/><tag k="coa:place_id" v="5107494"/></node><node id="-136" lat="30.138318" lon="-97.768119" changeset="false"><tag k="addr:street" v="Zachary Scott Street"/><tag k="addr:housenumber" v="5824"/><tag k="coa:place_id" v="3499583"/></node><node id="-137" lat="30.137734" lon="-97.767174" changeset="false"><tag k="addr:street" v="Zachary Scott Street"/><tag k="addr:housenumber" v="5920"/><tag k="coa:place_id" v="3499591"/></node><node id="-138" lat="30.139145" lon="-97.765581" changeset="false"><tag k="addr:street" v="Kleberg Trail"/><tag k="addr:housenumber" v="5921"/><tag k="coa:place_id" v="5054844"/></node><node id="-139" lat="30.141682" lon="-97.76715" changeset="false"><tag k="addr:street" v="Deer Chase Trail"/><tag k="addr:housenumber" v="10120"/><tag k="coa:place_id" v="3540900"/></node><node id="-140" lat="30.141614" lon="-97.766754" changeset="false"><tag k="addr:street" v="Deer Chase Trail"/><tag k="addr:housenumber" v="10117"/><tag k="coa:place_id" v="3540911"/></node><node id="-141" lat="30.14141" lon="-97.766896" changeset="false"><tag k="addr:street" v="Deer Chase Trail"/><tag k="addr:housenumber" v="10125"/><tag k="coa:place_id" v="3540913"/></node><node id="-142" lat="30.140109" lon="-97.767271" changeset="false"><tag k="addr:street" v="Kleberg Trail"/><tag k="addr:housenumber" v="5813"/><tag k="coa:place_id" v="3540954"/></node><node id="-143" lat="30.142801" lon="-97.764632" changeset="false"><tag k="addr:street" v="Deer Chase Trail"/><tag k="addr:housenumber" v="9908"/><tag k="coa:place_id" v="5117786"/></node><node id="-144" lat="30.143184" lon="-97.764958" changeset="false"><tag k="addr:street" v="Deer Chase Trail"/><tag k="addr:housenumber" v="9920"/><tag k="coa:place_id" v="5117789"/></node><node id="-145" lat="30.11158" lon="-97.772857" changeset="false"><tag k="addr:street" v="Farm-to-Market Road 1327"/><tag k="addr:housenumber" v="2010"/><tag k="coa:place_id" v="3327057"/></node><node id="-146" lat="30.126635" lon="-97.756945" changeset="false"><tag k="addr:street" v="Rinard Road"/><tag k="addr:housenumber" v="10701"/><tag k="coa:place_id" v="3327059"/></node><node id="-147" lat="30.156947" lon="-97.77189" changeset="false"><tag k="addr:street" v="Bluff Springs Road"/><tag k="addr:housenumber" v="9108"/><tag k="coa:place_id" v="3515965"/></node><node id="-148" lat="30.147811" lon="-97.777058" changeset="false"><tag k="addr:street" v="Wild Dunes Drive"/><tag k="addr:housenumber" v="10107"/><tag k="coa:place_id" v="50274"/></node><node id="-149" lat="30.139229" lon="-97.771679" changeset="false"><tag k="addr:street" v="Premier Park Street"/><tag k="addr:housenumber" v="10413"/><tag k="coa:place_id" v="3217134"/></node><node id="-150" lat="30.13964" lon="-97.771556" changeset="false"><tag k="addr:street" v="Zachary Scott Street"/><tag k="addr:housenumber" v="5513"/><tag k="coa:place_id" v="3217137"/></node><node id="-151" lat="30.139463" lon="-97.771201" changeset="false"><tag k="addr:street" v="Zachary Scott Street"/><tag k="addr:housenumber" v="5521"/><tag k="coa:place_id" v="3217139"/></node><node id="-152" lat="30.143336" lon="-97.793859" changeset="false"><tag k="addr:street" v="Interstate 35 Frontage Road"/><tag k="addr:housenumber" v="10835"/><tag k="coa:place_id" v="224370"/></node><node id="-153" lat="30.141087" lon="-97.769247" changeset="false"><tag k="addr:street" v="Kleberg Trail"/><tag k="addr:housenumber" v="5605"/><tag k="coa:place_id" v="3187251"/></node><node id="-154" lat="30.142976" lon="-97.765402" changeset="false"><tag k="addr:street" v="Deer Chase Trail"/><tag k="addr:housenumber" v="10004"/><tag k="coa:place_id" v="5117792"/></node><node id="-155" lat="30.142529" lon="-97.766296" changeset="false"><tag k="addr:street" v="Deer Chase Trail"/><tag k="addr:housenumber" v="10028"/><tag k="coa:place_id" v="5117798"/></node><node id="-156" lat="30.142431" lon="-97.765646" changeset="false"><tag k="addr:street" v="Deer Chase Trail"/><tag k="addr:housenumber" v="10017"/><tag k="coa:place_id" v="5117804"/></node><node id="-157" lat="30.142295" lon="-97.765904" changeset="false"><tag k="addr:street" v="Deer Chase Trail"/><tag k="addr:housenumber" v="10025"/><tag k="coa:place_id" v="5117806"/></node><node id="-158" lat="30.138112" lon="-97.767765" changeset="false"><tag k="addr:street" v="Zachary Scott Street"/><tag k="addr:housenumber" v="5900"/><tag k="coa:place_id" v="3499586"/></node><node id="-159" lat="30.139612" lon="-97.766413" changeset="false"><tag k="addr:street" v="Kleberg Trail"/><tag k="addr:housenumber" v="5841"/><tag k="coa:place_id" v="5054837"/></node><node id="-160" lat="30.139348" lon="-97.76594" changeset="false"><tag k="addr:street" v="Kleberg Trail"/><tag k="addr:housenumber" v="5909"/><tag k="coa:place_id" v="5054841"/></node><node id="-161" lat="30.139278" lon="-97.765824" changeset="false"><tag k="addr:street" v="Kleberg Trail"/><tag k="addr:housenumber" v="5913"/><tag k="coa:place_id" v="5054842"/></node><node id="-162" lat="30.139043" lon="-97.765455" changeset="false"><tag k="addr:street" v="Kleberg Trail"/><tag k="addr:housenumber" v="5925"/><tag k="coa:place_id" v="5054845"/></node><node id="-163" lat="30.142066" lon="-97.766835" changeset="false"><tag k="addr:street" v="Deer Chase Trail"/><tag k="addr:housenumber" v="10104"/><tag k="coa:place_id" v="3540896"/></node><node id="-164" lat="30.14159" lon="-97.767217" changeset="false"><tag k="addr:street" v="Deer Chase Trail"/><tag k="addr:housenumber" v="10124"/><tag k="coa:place_id" v="3540901"/></node><node id="-165" lat="30.156611" lon="-97.771329" changeset="false"><tag k="addr:street" v="Bluff Springs Road"/><tag k="addr:housenumber" v="9110"/><tag k="coa:place_id" v="835964"/></node><node id="-166" lat="30.129869" lon="-97.778246" changeset="false"><tag k="addr:street" v="Bradshaw Road"/><tag k="addr:housenumber" v="11125"/><tag k="coa:place_id" v="5056584"/></node><node id="-167" lat="30.1407" lon="-97.770318" changeset="false"><tag k="addr:street" v="Cameo Lane"/><tag k="addr:housenumber" v="10408"/><tag k="coa:place_id" v="3187236"/></node><node id="-168" lat="30.129964" lon="-97.773997" changeset="false"><tag k="addr:street" v="River Plantation Drive"/><tag k="addr:housenumber" v="11332"/><tag k="coa:place_id" v="5107489"/></node><node id="-169" lat="30.130306" lon="-97.773531" changeset="false"><tag k="addr:street" v="River Plantation Drive"/><tag k="addr:housenumber" v="11401"/><tag k="coa:place_id" v="5107490"/></node><node id="-170" lat="30.130284" lon="-97.77336" changeset="false"><tag k="addr:street" v="River Plantation Drive"/><tag k="addr:housenumber" v="11405"/><tag k="coa:place_id" v="5107491"/></node><node id="-171" lat="30.148571" lon="-97.777094" changeset="false"><tag k="addr:street" v="Wild Dunes Court"/><tag k="addr:housenumber" v="4515"/><tag k="coa:place_id" v="50161"/></node><node id="-172" lat="30.141186" lon="-97.793354" changeset="false"><tag k="addr:street" v="Pinehurst Drive,1100"/><tag k="addr:housenumber" v="10800"/><tag k="coa:place_id" v="248965"/></node><node id="-173" lat="30.146764" lon="-97.778052" changeset="false"><tag k="addr:street" v="Slickrock Cove"/><tag k="addr:housenumber" v="4612"/><tag k="coa:place_id" v="175284"/></node><node id="-174" lat="30.145072" lon="-97.76601" changeset="false"><tag k="addr:street" v="Bradshaw Road"/><tag k="addr:housenumber" v="10001 1/2"/><tag k="coa:place_id" v="220332"/></node><node id="-175" lat="30.14877" lon="-97.777014" changeset="false"><tag k="addr:street" v="Wild Dunes Court"/><tag k="addr:housenumber" v="4517"/><tag k="coa:place_id" v="50162"/></node><node id="-176" lat="30.140494" lon="-97.768675" changeset="false"><tag k="addr:street" v="Silver Screen Drive"/><tag k="addr:housenumber" v="5704"/><tag k="coa:place_id" v="3187207"/></node><node id="-177" lat="30.135273" lon="-97.774629" changeset="false"><tag k="addr:street" v="Bradshaw Road"/><tag k="addr:housenumber" v="10803"/><tag k="coa:place_id" v="834986"/></node><node id="-178" lat="30.147167" lon="-97.779073" changeset="false"><tag k="addr:street" v="Pinehurst Drive,1100"/><tag k="addr:housenumber" v="10111"/><tag k="coa:place_id" v="57212"/></node><node id="-179" lat="30.149132" lon="-97.778195" changeset="false"><tag k="addr:street" v="Wild Dunes Drive"/><tag k="addr:housenumber" v="10023"/><tag k="coa:place_id" v="50269"/></node><node id="-180" lat="30.149044" lon="-97.777082" changeset="false"><tag k="addr:street" v="Wild Dunes Court"/><tag k="addr:housenumber" v="4518"/><tag k="coa:place_id" v="50153"/></node><node id="-181" lat="30.139667" lon="-97.795466" changeset="false"><tag k="addr:street" v="Boca Raton Drive"/><tag k="addr:housenumber" v="2106"/><tag k="coa:place_id" v="3036729"/></node><node id="-182" lat="30.11656" lon="-97.780448" changeset="false"><tag k="addr:street" v="Bradshaw Road"/><tag k="addr:housenumber" v="12101"/><tag k="coa:place_id" v="83189"/></node><node id="-183" lat="30.140982" lon="-97.772433" changeset="false"><tag k="addr:street" v="Bradshaw Road"/><tag k="addr:housenumber" v="10400"/><tag k="coa:place_id" v="242821"/></node><node id="-184" lat="30.147347" lon="-97.777096" changeset="false"><tag k="addr:street" v="Wild Dunes Drive"/><tag k="addr:housenumber" v="10111"/><tag k="coa:place_id" v="50276"/></node><node id="-185" lat="30.149492" lon="-97.778587" changeset="false"><tag k="addr:street" v="Wild Dunes Drive"/><tag k="addr:housenumber" v="10019"/><tag k="coa:place_id" v="50267"/></node><node id="-186" lat="30.139801" lon="-97.770984" changeset="false"><tag k="addr:street" v="Zachary Scott Street"/><tag k="addr:housenumber" v="5522"/><tag k="coa:place_id" v="3241190"/></node><node id="-187" lat="30.144641" lon="-97.793004" changeset="false"><tag k="addr:street" v="Interstate 35 Frontage Road"/><tag k="addr:housenumber" v="10713"/><tag k="coa:place_id" v="3271908"/></node><node id="-188" lat="30.155825" lon="-97.77502" changeset="false"><tag k="addr:street" v="East Slaughter Lane"/><tag k="addr:housenumber" v="1101"/><tag k="coa:place_id" v="835970"/></node><node id="-189" lat="30.139641" lon="-97.772219" changeset="false"><tag k="addr:street" v="Premier Park Street"/><tag k="addr:housenumber" v="10408"/><tag k="coa:place_id" v="3217129"/></node><node id="-190" lat="30.1392" lon="-97.772072" changeset="false"><tag k="addr:street" v="Premier Park Street"/><tag k="addr:housenumber" v="10420"/><tag k="coa:place_id" v="3217132"/></node><node id="-191" lat="30.147914" lon="-97.781487" changeset="false"><tag k="addr:street" v="Pinehurst Drive,1100"/><tag k="addr:housenumber" v="10208"/><tag k="coa:place_id" v="661815"/></node><node id="-192" lat="30.138927" lon="-97.76769" changeset="false"><tag k="addr:street" v="Abby Ann Lane"/><tag k="addr:housenumber" v="5824"/><tag k="coa:place_id" v="3216994"/></node><node id="-193" lat="30.14169" lon="-97.792997" changeset="false"><tag k="addr:street" v="Pinehurst Drive,1100"/><tag k="addr:housenumber" v="10716"/><tag k="coa:place_id" v="418347"/></node><node id="-194" lat="30.141796" lon="-97.793066" changeset="false"><tag k="addr:street" v="Hazeltine Lane"/><tag k="addr:housenumber" v="2103"/><tag k="coa:place_id" v="1143967"/></node></osm>