<?xml version="1.0" encoding="UTF-8"?><osm version="0.6" generator="github.com/aaronlidman/osm-and-geojson"><node id="-1" lat="30.2384" lon="-97.726301" changeset="false"><tag k="addr:street" v="East Riverside Drive"/><tag k="addr:housenumber" v="2227"/><tag k="coa:place_id" v="227903"/></node><node id="-2" lat="30.238427" lon="-97.732621" changeset="false"><tag k="addr:street" v="Parker Lane"/><tag k="addr:housenumber" v="1701"/><tag k="coa:place_id" v="172397"/></node><node id="-3" lat="30.241809" lon="-97.729203" changeset="false"><tag k="addr:street" v="East Riverside Drive"/><tag k="addr:housenumber" v="1915"/><tag k="coa:place_id" v="647834"/></node><node id="-4" lat="30.242071" lon="-97.729344" changeset="false"><tag k="addr:street" v="East Riverside Drive"/><tag k="addr:housenumber" v="1907"/><tag k="coa:place_id" v="837656"/></node><node id="-5" lat="30.236005" lon="-97.727496" changeset="false"><tag k="addr:street" v="Willow Creek Drive"/><tag k="addr:housenumber" v="1718"/><tag k="coa:place_id" v="757731"/></node><node id="-6" lat="30.236241" lon="-97.727323" changeset="false"><tag k="addr:street" v="Willow Creek Drive"/><tag k="addr:housenumber" v="1714"/><tag k="coa:place_id" v="757767"/></node><node id="-7" lat="30.2399" lon="-97.72953" changeset="false"><tag k="addr:street" v="Royal Crest Drive"/><tag k="addr:housenumber" v="1515"/><tag k="coa:place_id" v="250110"/></node><node id="-8" lat="30.23821" lon="-97.726238" changeset="false"><tag k="addr:street" v="East Riverside Drive"/><tag k="addr:housenumber" v="2237"/><tag k="coa:place_id" v="332217"/></node><node id="-9" lat="30.241831" lon="-97.729219" changeset="false"><tag k="addr:street" v="East Riverside Drive"/><tag k="addr:housenumber" v="1913"/><tag k="coa:place_id" v="647828"/></node><node id="-10" lat="30.236762" lon="-97.727693" changeset="false"><tag k="addr:street" v="Burton Drive"/><tag k="addr:housenumber" v="1709"/><tag k="coa:place_id" v="504117"/></node><node id="-11" lat="30.238835" lon="-97.729794" changeset="false"><tag k="addr:street" v="Royal Crest Drive"/><tag k="addr:housenumber" v="1601"/><tag k="coa:place_id" v="250111"/></node><node id="-12" lat="30.24175" lon="-97.72916" changeset="false"><tag k="addr:street" v="East Riverside Drive"/><tag k="addr:housenumber" v="1917"/><tag k="coa:place_id" v="574875"/></node><node id="-13" lat="30.236127" lon="-97.727416" changeset="false"><tag k="addr:street" v="Willow Creek Drive"/><tag k="addr:housenumber" v="1716"/><tag k="coa:place_id" v="757737"/></node><node id="-14" lat="30.236724" lon="-97.727002" changeset="false"><tag k="addr:street" v="Willow Creek Drive"/><tag k="addr:housenumber" v="1706"/><tag k="coa:place_id" v="757797"/></node><node id="-15" lat="30.236471" lon="-97.727167" changeset="false"><tag k="addr:street" v="Willow Creek Drive"/><tag k="addr:housenumber" v="1710"/><tag k="coa:place_id" v="757785"/></node><node id="-16" lat="30.242048" lon="-97.729327" changeset="false"><tag k="addr:street" v="East Riverside Drive"/><tag k="addr:housenumber" v="1909"/><tag k="coa:place_id" v="249888"/></node><node id="-17" lat="30.238862" lon="-97.728543" changeset="false"><tag k="addr:street" v="Burton Drive"/><tag k="addr:housenumber" v="1516"/><tag k="coa:place_id" v="243357"/></node><node id="-18" lat="30.240891" lon="-97.730255" changeset="false"><tag k="addr:street" v="Royal Crest Drive"/><tag k="addr:housenumber" v="1500"/><tag k="coa:place_id" v="837680"/></node><node id="-19" lat="30.236359" lon="-97.72725" changeset="false"><tag k="addr:street" v="Willow Creek Drive"/><tag k="addr:housenumber" v="1712"/><tag k="coa:place_id" v="757779"/></node><node id="-20" lat="30.2361" lon="-97.728086" changeset="false"><tag k="addr:street" v="Woodland Avenue"/><tag k="addr:housenumber" v="2204"/><tag k="coa:place_id" v="970454"/></node><node id="-21" lat="30.242478" lon="-97.729259" changeset="false"><tag k="addr:street" v="East Riverside Drive"/><tag k="addr:housenumber" v="1903 1/2"/><tag k="coa:place_id" v="3502855"/></node><node id="-22" lat="30.238146" lon="-97.732432" changeset="false"><tag k="addr:street" v="Woodland Avenue"/><tag k="addr:housenumber" v="1802"/><tag k="coa:place_id" v="569528"/></node><node id="-23" lat="30.235824" lon="-97.727603" changeset="false"><tag k="addr:street" v="Willow Creek Drive"/><tag k="addr:housenumber" v="1720"/><tag k="coa:place_id" v="757725"/></node><node id="-24" lat="30.237082" lon="-97.72676" changeset="false"><tag k="addr:street" v="Willow Creek Drive"/><tag k="addr:housenumber" v="1700"/><tag k="coa:place_id" v="634767"/></node><node id="-25" lat="30.241588" lon="-97.729039" changeset="false"><tag k="addr:street" v="East Riverside Drive"/><tag k="addr:housenumber" v="1919"/><tag k="coa:place_id" v="837674"/></node><node id="-26" lat="30.242116" lon="-97.729377" changeset="false"><tag k="addr:street" v="East Riverside Drive"/><tag k="addr:housenumber" v="1903"/><tag k="coa:place_id" v="210963"/></node><node id="-27" lat="30.242281" lon="-97.729088" changeset="false"><tag k="addr:street" v="East Riverside Drive"/><tag k="addr:housenumber" v="1905"/><tag k="coa:place_id" v="3169942"/></node><node id="-28" lat="30.236831" lon="-97.726932" changeset="false"><tag k="addr:street" v="Willow Creek Drive"/><tag k="addr:housenumber" v="1704"/><tag k="coa:place_id" v="757761"/></node><node id="-29" lat="30.237703" lon="-97.727938" changeset="false"><tag k="addr:street" v="Burton Drive"/><tag k="addr:housenumber" v="1700"/><tag k="coa:place_id" v="837800"/></node><node id="-30" lat="30.241889" lon="-97.729268" changeset="false"><tag k="addr:street" v="East Riverside Drive"/><tag k="addr:housenumber" v="1911"/><tag k="coa:place_id" v="646250"/></node><node id="-31" lat="30.239145" lon="-97.727161" changeset="false"><tag k="addr:street" v="East Riverside Drive"/><tag k="addr:housenumber" v="2205"/><tag k="coa:place_id" v="332247"/></node><node id="-32" lat="30.242139" lon="-97.729393" changeset="false"><tag k="addr:street" v="East Riverside Drive"/><tag k="addr:housenumber" v="1901"/><tag k="coa:place_id" v="646244"/></node><node id="-33" lat="30.236598" lon="-97.727078" changeset="false"><tag k="addr:street" v="Willow Creek Drive"/><tag k="addr:housenumber" v="1708"/><tag k="coa:place_id" v="757791"/></node><node id="-34" lat="30.239817" lon="-97.728283" changeset="false"><tag k="addr:street" v="East Riverside Drive"/><tag k="addr:housenumber" v="2013"/><tag k="coa:place_id" v="646262"/></node><node id="-35" lat="30.239929" lon="-97.728069" changeset="false"><tag k="addr:street" v="East Riverside Drive"/><tag k="addr:housenumber" v="2009"/><tag k="coa:place_id" v="646328"/></node><node id="-36" lat="30.240213" lon="-97.727633" changeset="false"><tag k="addr:street" v="East Riverside Drive"/><tag k="addr:housenumber" v="2019"/><tag k="coa:place_id" v="646286"/></node><node id="-37" lat="30.240002" lon="-97.727639" changeset="false"><tag k="addr:street" v="East Riverside Drive"/><tag k="addr:housenumber" v="2021"/><tag k="coa:place_id" v="367887"/></node><node id="-38" lat="30.240157" lon="-97.727706" changeset="false"><tag k="addr:street" v="East Riverside Drive"/><tag k="addr:housenumber" v="2017"/><tag k="coa:place_id" v="330831"/></node><node id="-39" lat="30.239887" lon="-97.72754" changeset="false"><tag k="addr:street" v="East Riverside Drive"/><tag k="addr:housenumber" v="2023"/><tag k="coa:place_id" v="376665"/></node></osm>