<?xml version="1.0" encoding="UTF-8"?><osm version="0.6" generator="github.com/aaronlidman/osm-and-geojson"><node id="-1" lat="30.354279" lon="-97.765561" changeset="false"><tag k="addr:street" v="Knollwood Drive"/><tag k="addr:housenumber" v="3928"/><tag k="coa:place_id" v="108749"/></node><node id="-2" lat="30.353742" lon="-97.760561" changeset="false"><tag k="addr:street" v="Mia Tia Circle"/><tag k="addr:housenumber" v="3792"/><tag k="coa:place_id" v="1127007"/></node><node id="-3" lat="30.350412" lon="-97.759779" changeset="false"><tag k="addr:street" v="Shadow Valley Drive"/><tag k="addr:housenumber" v="6211"/><tag k="coa:place_id" v="148629"/></node><node id="-4" lat="30.357214" lon="-97.761906" changeset="false"><tag k="addr:street" v="Northledge Drive"/><tag k="addr:housenumber" v="7013"/><tag k="coa:place_id" v="3292311"/></node><node id="-5" lat="30.350733" lon="-97.763068" changeset="false"><tag k="addr:street" v="Highland Hills Drive"/><tag k="addr:housenumber" v="6309"/><tag k="coa:place_id" v="154502"/></node><node id="-6" lat="30.355064" lon="-97.762773" changeset="false"><tag k="addr:street" v="North Hills Drive"/><tag k="addr:housenumber" v="3905"/><tag k="coa:place_id" v="192710"/></node><node id="-7" lat="30.351995" lon="-97.763452" changeset="false"><tag k="addr:street" v="Sumac Drive"/><tag k="addr:housenumber" v="6504"/><tag k="coa:place_id" v="154460"/></node><node id="-8" lat="30.356133" lon="-97.76334" changeset="false"><tag k="addr:street" v="Northledge Drive"/><tag k="addr:housenumber" v="7005"/><tag k="coa:place_id" v="349274"/></node><node id="-9" lat="30.35338" lon="-97.760797" changeset="false"><tag k="addr:street" v="Mia Tia Circle"/><tag k="addr:housenumber" v="3801"/><tag k="coa:place_id" v="148745"/></node><node id="-10" lat="30.352197" lon="-97.763619" changeset="false"><tag k="addr:street" v="Sumac Drive"/><tag k="addr:housenumber" v="6600"/><tag k="coa:place_id" v="154448"/></node><node id="-11" lat="30.353193" lon="-97.762031" changeset="false"><tag k="addr:street" v="Knollwood Drive"/><tag k="addr:housenumber" v="3904"/><tag k="coa:place_id" v="3092517"/></node><node id="-12" lat="30.354634" lon="-97.757309" changeset="false"><tag k="addr:street" v="Hart Lane"/><tag k="addr:housenumber" v="7022"/><tag k="coa:place_id" v="3431236"/></node><node id="-13" lat="30.355081" lon="-97.765764" changeset="false"><tag k="addr:street" v="Rockledge Drive"/><tag k="addr:housenumber" v="4001"/><tag k="coa:place_id" v="192422"/></node><node id="-14" lat="30.354257" lon="-97.760073" changeset="false"><tag k="addr:street" v="North Hills Drive"/><tag k="addr:housenumber" v="3724"/><tag k="coa:place_id" v="1006887"/></node><node id="-15" lat="30.353729" lon="-97.760074" changeset="false"><tag k="addr:street" v="Thorncliffe Drive"/><tag k="addr:housenumber" v="6919"/><tag k="coa:place_id" v="192794"/></node><node id="-16" lat="30.353786" lon="-97.760041" changeset="false"><tag k="addr:street" v="Thorncliffe Drive"/><tag k="addr:housenumber" v="6921"/><tag k="coa:place_id" v="192800"/></node><node id="-17" lat="30.353607" lon="-97.760152" changeset="false"><tag k="addr:street" v="Thorncliffe Drive"/><tag k="addr:housenumber" v="6915"/><tag k="coa:place_id" v="192782"/></node><node id="-18" lat="30.353675" lon="-97.760107" changeset="false"><tag k="addr:street" v="Thorncliffe Drive"/><tag k="addr:housenumber" v="6917"/><tag k="coa:place_id" v="192788"/></node><node id="-19" lat="30.352804" lon="-97.760726" changeset="false"><tag k="addr:street" v="Thorncliffe Drive"/><tag k="addr:housenumber" v="6900"/><tag k="coa:place_id" v="520761"/></node><node id="-20" lat="30.352859" lon="-97.760729" changeset="false"><tag k="addr:street" v="Thorncliffe Drive"/><tag k="addr:housenumber" v="6902"/><tag k="coa:place_id" v="518319"/></node></osm>