<?xml version="1.0" encoding="UTF-8"?><osm version="0.6" generator="github.com/aaronlidman/osm-and-geojson"><node id="-1" lat="30.355915" lon="-97.976835" changeset="false"><tag k="addr:street" v="Rolling Green Drive"/><tag k="addr:housenumber" v="718"/><tag k="coa:place_id" v="133937"/></node><node id="-2" lat="30.362723" lon="-97.953586" changeset="false"><tag k="addr:street" v="Bella Montagna Circle"/><tag k="addr:housenumber" v="425"/><tag k="coa:place_id" v="3094476"/></node><node id="-3" lat="30.380191" lon="-97.959656" changeset="false"><tag k="addr:street" v="Stewart Road"/><tag k="addr:housenumber" v="16409"/><tag k="coa:place_id" v="585567"/></node><node id="-4" lat="30.361753" lon="-97.966337" changeset="false"><tag k="addr:street" v="Clubhouse Drive"/><tag k="addr:housenumber" v="120"/><tag k="coa:place_id" v="122634"/></node><node id="-5" lat="30.359974" lon="-97.972047" changeset="false"><tag k="addr:street" v="Fenway Court"/><tag k="addr:housenumber" v="103"/><tag k="coa:place_id" v="134514"/></node><node id="-6" lat="30.365378" lon="-97.964002" changeset="false"><tag k="addr:street" v="Golf Crest Lane"/><tag k="addr:housenumber" v="723"/><tag k="coa:place_id" v="3034126"/></node><node id="-7" lat="30.353866" lon="-97.967573" changeset="false"><tag k="addr:street" v="Cold Water Lane"/><tag k="addr:housenumber" v="125"/><tag k="coa:place_id" v="376161"/></node><node id="-8" lat="30.360663" lon="-97.958131" changeset="false"><tag k="addr:street" v="Bella Montagna Circle"/><tag k="addr:housenumber" v="110"/><tag k="coa:place_id" v="3094446"/></node><node id="-9" lat="30.341917" lon="-97.968303" changeset="false"><tag k="addr:street" v="Ranch Road 620,1100"/><tag k="addr:housenumber" v="2302"/><tag k="coa:place_id" v="3123039"/></node><node id="-10" lat="30.351204" lon="-97.963692" changeset="false"><tag k="addr:street" v="Ranch Road 620,1100"/><tag k="addr:housenumber" v="1208"/><tag k="coa:place_id" v="878354"/></node><node id="-11" lat="30.356572" lon="-97.962773" changeset="false"><tag k="addr:street" v="Paragon Court"/><tag k="addr:housenumber" v="115"/><tag k="coa:place_id" v="1046973"/></node><node id="-12" lat="30.356712" lon="-97.977694" changeset="false"><tag k="addr:street" v="Duck Lake Drive"/><tag k="addr:housenumber" v="93"/><tag k="coa:place_id" v="136601"/></node><node id="-13" lat="30.356476" lon="-97.969043" changeset="false"><tag k="addr:street" v="Cold Water Lane"/><tag k="addr:housenumber" v="102"/><tag k="coa:place_id" v="110345"/></node><node id="-14" lat="30.35785" lon="-97.961399" changeset="false"><tag k="addr:street" v="Golf Crest Lane"/><tag k="addr:housenumber" v="218"/><tag k="coa:place_id" v="126010"/></node><node id="-15" lat="30.366351" lon="-97.963401" changeset="false"><tag k="addr:street" v="Spellbrook Lane"/><tag k="addr:housenumber" v="210"/><tag k="coa:place_id" v="3032465"/></node><node id="-16" lat="30.353551" lon="-97.966283" changeset="false"><tag k="addr:street" v="Otter Creek Court"/><tag k="addr:housenumber" v="211"/><tag k="coa:place_id" v="651742"/></node><node id="-17" lat="30.353556" lon="-97.974926" changeset="false"><tag k="addr:street" v="Show Low Court"/><tag k="addr:housenumber" v="707"/><tag k="coa:place_id" v="127765"/></node><node id="-18" lat="30.354783" lon="-97.971085" changeset="false"><tag k="addr:street" v="Top O the Lake Drive"/><tag k="addr:housenumber" v="120"/><tag k="coa:place_id" v="364054"/></node><node id="-19" lat="30.370794" lon="-97.962382" changeset="false"><tag k="addr:street" v="Carefree Circle"/><tag k="addr:housenumber" v="117"/><tag k="coa:place_id" v="3084961"/></node><node id="-20" lat="30.370522" lon="-97.962242" changeset="false"><tag k="addr:street" v="Carefree Circle"/><tag k="addr:housenumber" v="115"/><tag k="coa:place_id" v="504688"/></node><node id="-21" lat="30.364765" lon="-97.955692" changeset="false"><tag k="addr:street" v="Bella Montagna Circle"/><tag k="addr:housenumber" v="411"/><tag k="coa:place_id" v="3094483"/></node><node id="-22" lat="30.360892" lon="-97.954791" changeset="false"><tag k="addr:street" v="Bella Montagna Circle"/><tag k="addr:housenumber" v="506"/><tag k="coa:place_id" v="3094448"/></node><node id="-23" lat="30.364525" lon="-97.955305" changeset="false"><tag k="addr:street" v="Bella Montagna Circle"/><tag k="addr:housenumber" v="413"/><tag k="coa:place_id" v="3094485"/></node><node id="-24" lat="30.355731" lon="-97.965829" changeset="false"><tag k="addr:street" v="Sun Valley Court"/><tag k="addr:housenumber" v="1627"/><tag k="coa:place_id" v="171754"/></node><node id="-25" lat="30.360839" lon="-97.955844" changeset="false"><tag k="addr:street" v="Piazza Vetta Drive"/><tag k="addr:housenumber" v="109 1/2"/><tag k="coa:place_id" v="3096365"/></node><node id="-26" lat="30.356402" lon="-97.973099" changeset="false"><tag k="addr:street" v="Lakeway Boulevard"/><tag k="addr:housenumber" v="2003"/><tag k="coa:place_id" v="545986"/></node><node id="-27" lat="30.357476" lon="-97.967972" changeset="false"><tag k="addr:street" v="Lakeway Boulevard"/><tag k="addr:housenumber" v="1808"/><tag k="coa:place_id" v="828057"/></node><node id="-28" lat="30.357238" lon="-97.977725" changeset="false"><tag k="addr:street" v="Duck Lake Drive"/><tag k="addr:housenumber" v="97"/><tag k="coa:place_id" v="3091410"/></node><node id="-29" lat="30.359787" lon="-97.957453" changeset="false"><tag k="addr:street" v="Bella Montagna Circle"/><tag k="addr:housenumber" v="106"/><tag k="coa:place_id" v="3094444"/></node><node id="-30" lat="30.363967" lon="-97.959717" changeset="false"><tag k="addr:street" v="Bella Montagna Circle"/><tag k="addr:housenumber" v="307"/><tag k="coa:place_id" v="3094435"/></node><node id="-31" lat="30.356619" lon="-97.965033" changeset="false"><tag k="addr:street" v="Lakeway Boulevard"/><tag k="addr:housenumber" v="1702"/><tag k="coa:place_id" v="132168"/></node><node id="-32" lat="30.356953" lon="-97.972636" changeset="false"><tag k="addr:street" v="Lakeway Boulevard"/><tag k="addr:housenumber" v="1916 1/2"/><tag k="coa:place_id" v="3047098"/></node><node id="-33" lat="30.364339" lon="-97.956479" changeset="false"><tag k="addr:street" v="Bella Montagna Circle"/><tag k="addr:housenumber" v="406"/><tag k="coa:place_id" v="3094478"/></node><node id="-34" lat="30.364219" lon="-97.954632" changeset="false"><tag k="addr:street" v="Bella Montagna Circle"/><tag k="addr:housenumber" v="415"/><tag k="coa:place_id" v="3094487"/></node><node id="-35" lat="30.358203" lon="-97.975181" changeset="false"><tag k="addr:street" v="South el Dorado"/><tag k="addr:housenumber" v="3374"/><tag k="coa:place_id" v="314949"/></node><node id="-36" lat="30.35791" lon="-97.972586" changeset="false"><tag k="addr:street" v="Royal Oak Lane"/><tag k="addr:housenumber" v="108"/><tag k="coa:place_id" v="127342"/></node><node id="-37" lat="30.359417" lon="-97.956332" changeset="false"><tag k="addr:street" v="Bella Montagna Circle"/><tag k="addr:housenumber" v="514"/><tag k="coa:place_id" v="3094452"/></node><node id="-38" lat="30.356095" lon="-97.962349" changeset="false"><tag k="addr:street" v="Golf Crest Cove"/><tag k="addr:housenumber" v="101"/><tag k="coa:place_id" v="126681"/></node><node id="-39" lat="30.360532" lon="-97.955978" changeset="false"><tag k="addr:street" v="Piazza Vetta Drive"/><tag k="addr:housenumber" v="111"/><tag k="coa:place_id" v="3094460"/></node><node id="-40" lat="30.360394" lon="-97.954832" changeset="false"><tag k="addr:street" v="Bella Montagna Circle"/><tag k="addr:housenumber" v="508"/><tag k="coa:place_id" v="3094449"/></node><node id="-41" lat="30.375089" lon="-97.963427" changeset="false"><tag k="addr:street" v="Cedar Hurst Lane"/><tag k="addr:housenumber" v="308"/><tag k="coa:place_id" v="587828"/></node><node id="-42" lat="30.367292" lon="-97.958428" changeset="false"><tag k="addr:street" v="Bella Strada Cove,1100"/><tag k="addr:housenumber" v="104"/><tag k="coa:place_id" v="3094497"/></node><node id="-43" lat="30.348263" lon="-97.964492" changeset="false"><tag k="addr:street" v="Ranch Road 620,1100"/><tag k="addr:housenumber" v="1504"/><tag k="coa:place_id" v="878336"/></node><node id="-44" lat="30.355749" lon="-97.964112" changeset="false"><tag k="addr:street" v="Lakeway Boulevard"/><tag k="addr:housenumber" v="1606"/><tag k="coa:place_id" v="3084569"/></node><node id="-45" lat="30.354684" lon="-97.963933" changeset="false"><tag k="addr:street" v="Crest View Drive"/><tag k="addr:housenumber" v="102"/><tag k="coa:place_id" v="160840"/></node><node id="-46" lat="30.36538" lon="-97.957076" changeset="false"><tag k="addr:street" v="Bella Montagna Circle"/><tag k="addr:housenumber" v="405"/><tag k="coa:place_id" v="3094495"/></node><node id="-47" lat="30.351764" lon="-97.968281" changeset="false"><tag k="addr:street" v="Rolling Green Drive"/><tag k="addr:housenumber" v="404"/><tag k="coa:place_id" v="502150"/></node><node id="-48" lat="30.358567" lon="-97.969136" changeset="false"><tag k="addr:street" v="Duck Lake Court"/><tag k="addr:housenumber" v="708"/><tag k="coa:place_id" v="990303"/></node><node id="-49" lat="30.370534" lon="-97.951805" changeset="false"><tag k="addr:street" v="San Remo Boulevard"/><tag k="addr:housenumber" v="801"/><tag k="coa:place_id" v="3321781"/></node><node id="-50" lat="30.365829" lon="-97.962501" changeset="false"><tag k="addr:street" v="Spellbrook Lane"/><tag k="addr:housenumber" v="113"/><tag k="coa:place_id" v="3393354"/></node><node id="-51" lat="30.369797" lon="-97.95819" changeset="false"><tag k="addr:street" v="Lake Como Drive"/><tag k="addr:housenumber" v="102"/><tag k="coa:place_id" v="3301833"/></node><node id="-52" lat="30.37037" lon="-97.952254" changeset="false"><tag k="addr:street" v="San Remo Boulevard"/><tag k="addr:housenumber" v="804"/><tag k="coa:place_id" v="3321784"/></node><node id="-53" lat="30.370662" lon="-97.95191" changeset="false"><tag k="addr:street" v="San Remo Boulevard"/><tag k="addr:housenumber" v="805"/><tag k="coa:place_id" v="3321785"/></node><node id="-54" lat="30.370901" lon="-97.952748" changeset="false"><tag k="addr:street" v="San Remo Boulevard"/><tag k="addr:housenumber" v="818"/><tag k="coa:place_id" v="3321790"/></node><node id="-55" lat="30.371151" lon="-97.953061" changeset="false"><tag k="addr:street" v="San Remo Boulevard"/><tag k="addr:housenumber" v="826"/><tag k="coa:place_id" v="3321793"/></node><node id="-56" lat="30.373433" lon="-97.959495" changeset="false"><tag k="addr:street" v="Lake Como Drive"/><tag k="addr:housenumber" v="231"/><tag k="coa:place_id" v="3301619"/></node><node id="-57" lat="30.364156" lon="-97.963554" changeset="false"><tag k="addr:street" v="Golf Crest Lane"/><tag k="addr:housenumber" v="714"/><tag k="coa:place_id" v="3393284"/></node><node id="-58" lat="30.368704" lon="-97.955816" changeset="false"><tag k="addr:street" v="Bellagio Drive"/><tag k="addr:housenumber" v="212"/><tag k="coa:place_id" v="3301912"/></node><node id="-59" lat="30.343291" lon="-97.967435" changeset="false"><tag k="addr:street" v="Ranch Road 620,1100"/><tag k="addr:housenumber" v="2102"/><tag k="coa:place_id" v="3306521"/></node><node id="-60" lat="30.369445" lon="-97.955616" changeset="false"><tag k="addr:street" v="Bellagio Drive"/><tag k="addr:housenumber" v="220"/><tag k="coa:place_id" v="3301920"/></node><node id="-61" lat="30.368835" lon="-97.953522" changeset="false"><tag k="addr:street" v="Antonio Way"/><tag k="addr:housenumber" v="127"/><tag k="coa:place_id" v="3321716"/></node><node id="-62" lat="30.370734" lon="-97.95259" changeset="false"><tag k="addr:street" v="San Remo Boulevard"/><tag k="addr:housenumber" v="814"/><tag k="coa:place_id" v="5053012"/></node><node id="-63" lat="30.366951" lon="-97.955133" changeset="false"><tag k="addr:street" v="Bellagio Drive"/><tag k="addr:housenumber" v="106"/><tag k="coa:place_id" v="3301891"/></node><node id="-64" lat="30.367938" lon="-97.955811" changeset="false"><tag k="addr:street" v="Bellagio Drive"/><tag k="addr:housenumber" v="204"/><tag k="coa:place_id" v="3301904"/></node><node id="-65" lat="30.349036" lon="-97.965202" changeset="false"><tag k="addr:street" v="Ranch Road 620,1100"/><tag k="addr:housenumber" v="1502"/><tag k="coa:place_id" v="5121227"/></node><node id="-66" lat="30.373255" lon="-97.961959" changeset="false"><tag k="addr:street" v="Cedar Hurst Lane"/><tag k="addr:housenumber" v="218"/><tag k="coa:place_id" v="3310301"/></node><node id="-67" lat="30.373592" lon="-97.962304" changeset="false"><tag k="addr:street" v="Cedar Hurst Lane"/><tag k="addr:housenumber" v="220"/><tag k="coa:place_id" v="3310302"/></node><node id="-68" lat="30.370841" lon="-97.954271" changeset="false"><tag k="addr:street" v="Bellagio Drive"/><tag k="addr:housenumber" v="319"/><tag k="coa:place_id" v="3301952"/></node><node id="-69" lat="30.369959" lon="-97.955133" changeset="false"><tag k="addr:street" v="Bellagio Drive"/><tag k="addr:housenumber" v="304"/><tag k="coa:place_id" v="3301937"/></node><node id="-70" lat="30.354937" lon="-97.969867" changeset="false"><tag k="addr:street" v="Burning Tree Cove"/><tag k="addr:housenumber" v="119"/><tag k="coa:place_id" v="976785"/></node><node id="-71" lat="30.35902" lon="-97.974575" changeset="false"><tag k="addr:street" v="South el Dorado"/><tag k="addr:housenumber" v="3381"/><tag k="coa:place_id" v="352737"/></node><node id="-72" lat="30.358675" lon="-97.961986" changeset="false"><tag k="addr:street" v="Golf Crest Lane"/><tag k="addr:housenumber" v="310"/><tag k="coa:place_id" v="418408"/></node><node id="-73" lat="30.363986" lon="-97.958068" changeset="false"><tag k="addr:street" v="Bel Lago Cove"/><tag k="addr:housenumber" v="105"/><tag k="coa:place_id" v="3094491"/></node><node id="-74" lat="30.377731" lon="-97.954944" changeset="false"><tag k="addr:street" v="Stewart Road"/><tag k="addr:housenumber" v="16101"/><tag k="coa:place_id" v="503998"/></node><node id="-75" lat="30.364063" lon="-97.955949" changeset="false"><tag k="addr:street" v="Bella Montagna Circle"/><tag k="addr:housenumber" v="408"/><tag k="coa:place_id" v="3094480"/></node><node id="-76" lat="30.351656" lon="-97.968069" changeset="false"><tag k="addr:street" v="Rolling Green Drive"/><tag k="addr:housenumber" v="402"/><tag k="coa:place_id" v="138533"/></node><node id="-77" lat="30.355207" lon="-97.969923" changeset="false"><tag k="addr:street" v="Burning Tree Cove"/><tag k="addr:housenumber" v="117"/><tag k="coa:place_id" v="192538"/></node><node id="-78" lat="30.365107" lon="-97.960789" changeset="false"><tag k="addr:street" v="Long Wood Avenue"/><tag k="addr:housenumber" v="129"/><tag k="coa:place_id" v="3029874"/></node><node id="-79" lat="30.370118" lon="-97.961813" changeset="false"><tag k="addr:street" v="Carefree Circle"/><tag k="addr:housenumber" v="111"/><tag k="coa:place_id" v="516898"/></node><node id="-80" lat="30.361438" lon="-97.972901" changeset="false"><tag k="addr:street" v="El Rio Drive"/><tag k="addr:housenumber" v="205"/><tag k="coa:place_id" v="3083573"/></node><node id="-81" lat="30.359586" lon="-97.974111" changeset="false"><tag k="addr:street" v="South el Dorado"/><tag k="addr:housenumber" v="3386"/><tag k="coa:place_id" v="405435"/></node><node id="-82" lat="30.362307" lon="-97.955781" changeset="false"><tag k="addr:street" v="Palazza Alto Drive"/><tag k="addr:housenumber" v="206"/><tag k="coa:place_id" v="3094471"/></node><node id="-83" lat="30.359911" lon="-97.963721" changeset="false"><tag k="addr:street" v="Hazeltine Drive"/><tag k="addr:housenumber" v="203"/><tag k="coa:place_id" v="3086833"/></node><node id="-84" lat="30.376394" lon="-97.952266" changeset="false"><tag k="addr:street" v="Stewart Road"/><tag k="addr:housenumber" v="15909"/><tag k="coa:place_id" v="3034304"/></node><node id="-85" lat="30.374332" lon="-97.963482" changeset="false"><tag k="addr:street" v="Cedar Hurst Lane"/><tag k="addr:housenumber" v="238"/><tag k="coa:place_id" v="463090"/></node><node id="-86" lat="30.373562" lon="-97.962902" changeset="false"><tag k="addr:street" v="Bunny Hop Trail"/><tag k="addr:housenumber" v="205"/><tag k="coa:place_id" v="1112283"/></node><node id="-87" lat="30.358434" lon="-97.975012" changeset="false"><tag k="addr:street" v="South el Dorado"/><tag k="addr:housenumber" v="3376"/><tag k="coa:place_id" v="314967"/></node><node id="-88" lat="30.371533" lon="-97.961138" changeset="false"><tag k="addr:street" v="Carefree Circle"/><tag k="addr:housenumber" v="128"/><tag k="coa:place_id" v="155902"/></node><node id="-89" lat="30.371366" lon="-97.961947" changeset="false"><tag k="addr:street" v="Carefree Circle"/><tag k="addr:housenumber" v="120"/><tag k="coa:place_id" v="554716"/></node><node id="-90" lat="30.36992" lon="-97.961676" changeset="false"><tag k="addr:street" v="Carefree Circle"/><tag k="addr:housenumber" v="109"/><tag k="coa:place_id" v="123036"/></node><node id="-91" lat="30.364158" lon="-97.957499" changeset="false"><tag k="addr:street" v="Bel Lago Cove"/><tag k="addr:housenumber" v="103"/><tag k="coa:place_id" v="3094490"/></node><node id="-92" lat="30.363961" lon="-97.954025" changeset="false"><tag k="addr:street" v="Bella Montagna Circle"/><tag k="addr:housenumber" v="417"/><tag k="coa:place_id" v="3094488"/></node><node id="-93" lat="30.342229" lon="-97.967878" changeset="false"><tag k="addr:street" v="Ranch Road 620,1100"/><tag k="addr:housenumber" v="2204"/><tag k="coa:place_id" v="878180"/></node><node id="-94" lat="30.350148" lon="-97.966245" changeset="false"><tag k="addr:street" v="Rolling Green Drive"/><tag k="addr:housenumber" v="201"/><tag k="coa:place_id" v="3083329"/></node><node id="-95" lat="30.355288" lon="-97.965486" changeset="false"><tag k="addr:street" v="Sun Valley Court"/><tag k="addr:housenumber" v="1619"/><tag k="coa:place_id" v="1029435"/></node><node id="-96" lat="30.348828" lon="-97.976864" changeset="false"><tag k="addr:street" v="Lohmans Crossing Road"/><tag k="addr:housenumber" v="1829"/><tag k="coa:place_id" v="163184"/></node><node id="-97" lat="30.351161" lon="-97.965707" changeset="false"><tag k="addr:street" v="Crest View Drive"/><tag k="addr:housenumber" v="129"/><tag k="coa:place_id" v="462046"/></node><node id="-98" lat="30.36109" lon="-97.958715" changeset="false"><tag k="addr:street" v="Bella Montagna Circle"/><tag k="addr:housenumber" v="202"/><tag k="coa:place_id" v="3094425"/></node><node id="-99" lat="30.358036" lon="-97.961501" changeset="false"><tag k="addr:street" v="Golf Crest Lane"/><tag k="addr:housenumber" v="220"/><tag k="coa:place_id" v="1100370"/></node><node id="-100" lat="30.358527" lon="-97.973381" changeset="false"><tag k="addr:street" v="Royal Oak Cove"/><tag k="addr:housenumber" v="111"/><tag k="coa:place_id" v="173628"/></node><node id="-101" lat="30.354597" lon="-97.969807" changeset="false"><tag k="addr:street" v="Top O the Lake Drive"/><tag k="addr:housenumber" v="121"/><tag k="coa:place_id" v="377686"/></node><node id="-102" lat="30.35464" lon="-97.973937" changeset="false"><tag k="addr:street" v="Rolling Green Drive"/><tag k="addr:housenumber" v="618"/><tag k="coa:place_id" v="843165"/></node><node id="-103" lat="30.353927" lon="-97.966692" changeset="false"><tag k="addr:street" v="Otter Creek Court"/><tag k="addr:housenumber" v="209"/><tag k="coa:place_id" v="174821"/></node><node id="-104" lat="30.35346" lon="-97.972865" changeset="false"><tag k="addr:street" v="Rolling Green Drive"/><tag k="addr:housenumber" v="605"/><tag k="coa:place_id" v="557998"/></node><node id="-105" lat="30.34222" lon="-97.967881" changeset="false"><tag k="addr:street" v="Ranch Road 620,1100"/><tag k="addr:housenumber" v="2222"/><tag k="coa:place_id" v="3123041"/></node><node id="-106" lat="30.361875" lon="-97.968492" changeset="false"><tag k="addr:street" v="Squires Drive"/><tag k="addr:housenumber" v="114"/><tag k="coa:place_id" v="144563"/></node><node id="-107" lat="30.362509" lon="-97.957605" changeset="false"><tag k="addr:street" v="Palazza Alto Drive"/><tag k="addr:housenumber" v="108"/><tag k="coa:place_id" v="3212412"/></node><node id="-108" lat="30.354867" lon="-97.97042" changeset="false"><tag k="addr:street" v="Top O the Lake Drive"/><tag k="addr:housenumber" v="111"/><tag k="coa:place_id" v="329398"/></node><node id="-109" lat="30.361733" lon="-97.954793" changeset="false"><tag k="addr:street" v="Palazza Alto Drive"/><tag k="addr:housenumber" v="210"/><tag k="coa:place_id" v="3393358"/></node><node id="-110" lat="30.350667" lon="-97.965978" changeset="false"><tag k="addr:street" v="Crest View Drive"/><tag k="addr:housenumber" v="133"/><tag k="coa:place_id" v="3424698"/></node><node id="-111" lat="30.36885" lon="-97.956375" changeset="false"><tag k="addr:street" v="Bellagio Drive"/><tag k="addr:housenumber" v="215"/><tag k="coa:place_id" v="3301915"/></node><node id="-112" lat="30.36484" lon="-97.957706" changeset="false"><tag k="addr:street" v="Bella Montagna Circle"/><tag k="addr:housenumber" v="402"/><tag k="coa:place_id" v="3393352"/></node><node id="-113" lat="30.369145" lon="-97.953046" changeset="false"><tag k="addr:street" v="Roberto Drive"/><tag k="addr:housenumber" v="181"/><tag k="coa:place_id" v="3321755"/></node><node id="-114" lat="30.367816" lon="-97.953842" changeset="false"><tag k="addr:street" v="Antonio Way"/><tag k="addr:housenumber" v="101"/><tag k="coa:place_id" v="3321706"/></node><node id="-115" lat="30.368782" lon="-97.953347" changeset="false"><tag k="addr:street" v="Antonio Way"/><tag k="addr:housenumber" v="131"/><tag k="coa:place_id" v="3321717"/></node><node id="-116" lat="30.344707" lon="-97.968187" changeset="false"><tag k="addr:street" v="Ranch Road 620,1100"/><tag k="addr:housenumber" v="2000"/><tag k="coa:place_id" v="5118676"/></node><node id="-117" lat="30.344844" lon="-97.966244" changeset="false"><tag k="addr:street" v="Ranch Road 620,1100"/><tag k="addr:housenumber" v="1900"/><tag k="coa:place_id" v="5119440"/></node><node id="-118" lat="30.342808" lon="-97.970336" changeset="false"><tag k="addr:street" v="Lohmans Crossing Road"/><tag k="addr:housenumber" v="2125"/><tag k="coa:place_id" v="3343622"/></node><node id="-119" lat="30.36589" lon="-97.951586" changeset="false"><tag k="addr:street" v="Ranch Road 620,1100"/><tag k="addr:housenumber" v="108"/><tag k="coa:place_id" v="5075868"/></node><node id="-120" lat="30.35561" lon="-97.972944" changeset="false"><tag k="addr:street" v="Rogues Roost Drive"/><tag k="addr:housenumber" v="111"/><tag k="coa:place_id" v="1032057"/></node><node id="-121" lat="30.360832" lon="-97.977125" changeset="false"><tag k="addr:street" v="Duck Lake Drive"/><tag k="addr:housenumber" v="204"/><tag k="coa:place_id" v="181617"/></node><node id="-122" lat="30.374834" lon="-97.962392" changeset="false"><tag k="addr:street" v="Bunny Hop Trail"/><tag k="addr:housenumber" v="310"/><tag k="coa:place_id" v="441088"/></node><node id="-123" lat="30.373854" lon="-97.96171" changeset="false"><tag k="addr:street" v="Stone Ridge Drive"/><tag k="addr:housenumber" v="300"/><tag k="coa:place_id" v="587852"/></node><node id="-124" lat="30.361373" lon="-97.975422" changeset="false"><tag k="addr:street" v="White Sands Drive"/><tag k="addr:housenumber" v="113"/><tag k="coa:place_id" v="121565"/></node><node id="-125" lat="30.354358" lon="-97.970551" changeset="false"><tag k="addr:street" v="Top O the Lake Drive"/><tag k="addr:housenumber" v="124"/><tag k="coa:place_id" v="593313"/></node><node id="-126" lat="30.354193" lon="-97.974744" changeset="false"><tag k="addr:street" v="Show Low Court"/><tag k="addr:housenumber" v="703"/><tag k="coa:place_id" v="724731"/></node><node id="-127" lat="30.362579" lon="-97.958841" changeset="false"><tag k="addr:street" v="Bella Montagna Circle"/><tag k="addr:housenumber" v="302"/><tag k="coa:place_id" v="3094430"/></node><node id="-128" lat="30.356949" lon="-97.978351" changeset="false"><tag k="addr:street" v="Lakeway Boulevard"/><tag k="addr:housenumber" v="2101"/><tag k="coa:place_id" v="360339"/></node><node id="-129" lat="30.359814" lon="-97.964447" changeset="false"><tag k="addr:street" v="Hazeltine Drive"/><tag k="addr:housenumber" v="212"/><tag k="coa:place_id" v="3086834"/></node><node id="-130" lat="30.360835" lon="-97.957082" changeset="false"><tag k="addr:street" v="Piazza Vetta Drive"/><tag k="addr:housenumber" v="108"/><tag k="coa:place_id" v="3094458"/></node><node id="-131" lat="30.377138" lon="-97.953854" changeset="false"><tag k="addr:street" v="Stewart Road"/><tag k="addr:housenumber" v="15911"/><tag k="coa:place_id" v="311662"/></node><node id="-132" lat="30.35198" lon="-97.968818" changeset="false"><tag k="addr:street" v="Rolling Green Drive"/><tag k="addr:housenumber" v="408"/><tag k="coa:place_id" v="525651"/></node><node id="-133" lat="30.351866" lon="-97.968583" changeset="false"><tag k="addr:street" v="Rolling Green Drive"/><tag k="addr:housenumber" v="406"/><tag k="coa:place_id" v="3083333"/></node><node id="-134" lat="30.358148" lon="-97.976529" changeset="false"><tag k="addr:street" v="Lakeway Boulevard"/><tag k="addr:housenumber" v="2104"/><tag k="coa:place_id" v="684046"/></node><node id="-135" lat="30.374898" lon="-97.963031" changeset="false"><tag k="addr:street" v="Cedar Hurst Lane"/><tag k="addr:housenumber" v="309"/><tag k="coa:place_id" v="780147"/></node><node id="-136" lat="30.354006" lon="-97.974112" changeset="false"><tag k="addr:street" v="Rolling Green Drive"/><tag k="addr:housenumber" v="611"/><tag k="coa:place_id" v="413704"/></node><node id="-137" lat="30.351295" lon="-97.968644" changeset="false"><tag k="addr:street" v="Rolling Green Drive"/><tag k="addr:housenumber" v="409"/><tag k="coa:place_id" v="289222"/></node><node id="-138" lat="30.357094" lon="-97.973031" changeset="false"><tag k="addr:street" v="Lakeway Boulevard"/><tag k="addr:housenumber" v="1918"/><tag k="coa:place_id" v="686050"/></node><node id="-139" lat="30.36338" lon="-97.95632" changeset="false"><tag k="addr:street" v="Palazza Alto Drive"/><tag k="addr:housenumber" v="203"/><tag k="coa:place_id" v="3094468"/></node><node id="-140" lat="30.363112" lon="-97.955733" changeset="false"><tag k="addr:street" v="Palazza Alto Drive"/><tag k="addr:housenumber" v="205"/><tag k="coa:place_id" v="3094470"/></node><node id="-141" lat="30.369271" lon="-97.961057" changeset="false"><tag k="addr:street" v="Carefree Circle"/><tag k="addr:housenumber" v="103"/><tag k="coa:place_id" v="140116"/></node><node id="-142" lat="30.356631" lon="-97.963005" changeset="false"><tag k="addr:street" v="Paragon Court"/><tag k="addr:housenumber" v="117"/><tag k="coa:place_id" v="471178"/></node><node id="-143" lat="30.352273" lon="-97.969307" changeset="false"><tag k="addr:street" v="Rolling Green Drive"/><tag k="addr:housenumber" v="502"/><tag k="coa:place_id" v="3083334"/></node><node id="-144" lat="30.366715" lon="-97.962714" changeset="false"><tag k="addr:street" v="Spellbrook Lane"/><tag k="addr:housenumber" v="204"/><tag k="coa:place_id" v="3032464"/></node><node id="-145" lat="30.359215" lon="-97.972498" changeset="false"><tag k="addr:street" v="Fenway Court"/><tag k="addr:housenumber" v="109"/><tag k="coa:place_id" v="145903"/></node><node id="-146" lat="30.359134" lon="-97.974494" changeset="false"><tag k="addr:street" v="South el Dorado"/><tag k="addr:housenumber" v="3382"/><tag k="coa:place_id" v="364713"/></node><node id="-147" lat="30.358976" lon="-97.973078" changeset="false"><tag k="addr:street" v="Royal Oak Cove"/><tag k="addr:housenumber" v="115"/><tag k="coa:place_id" v="735874"/></node><node id="-148" lat="30.359994" lon="-97.965215" changeset="false"><tag k="addr:street" v="Hazeltine Drive"/><tag k="addr:housenumber" v="302"/><tag k="coa:place_id" v="3086870"/></node><node id="-149" lat="30.375386" lon="-97.963387" changeset="false"><tag k="addr:street" v="Cedar Hurst Lane"/><tag k="addr:housenumber" v="310"/><tag k="coa:place_id" v="587834"/></node><node id="-150" lat="30.358388" lon="-97.966873" changeset="false"><tag k="addr:street" v="Duck Lake Drive"/><tag k="addr:housenumber" v="805"/><tag k="coa:place_id" v="163186"/></node><node id="-151" lat="30.361116" lon="-97.960579" changeset="false"><tag k="addr:street" v="Long Wood Avenue"/><tag k="addr:housenumber" v="102"/><tag k="coa:place_id" v="501748"/></node><node id="-152" lat="30.361071" lon="-97.959511" changeset="false"><tag k="addr:street" v="Bella Montagna Circle"/><tag k="addr:housenumber" v="203"/><tag k="coa:place_id" v="3094426"/></node><node id="-153" lat="30.355634" lon="-97.972194" changeset="false"><tag k="addr:street" v="Rogues Roost Drive"/><tag k="addr:housenumber" v="107"/><tag k="coa:place_id" v="1158144"/></node><node id="-154" lat="30.354487" lon="-97.970839" changeset="false"><tag k="addr:street" v="Top O the Lake Drive"/><tag k="addr:housenumber" v="122"/><tag k="coa:place_id" v="569842"/></node><node id="-155" lat="30.352136" lon="-97.967444" changeset="false"><tag k="addr:street" v="Top O the Lake Drive"/><tag k="addr:housenumber" v="206"/><tag k="coa:place_id" v="927579"/></node><node id="-156" lat="30.352057" lon="-97.970123" changeset="false"><tag k="addr:street" v="Rolling Green Drive"/><tag k="addr:housenumber" v="505"/><tag k="coa:place_id" v="410344"/></node><node id="-157" lat="30.350917" lon="-97.967861" changeset="false"><tag k="addr:street" v="Rolling Green Drive"/><tag k="addr:housenumber" v="403"/><tag k="coa:place_id" v="3083331"/></node><node id="-158" lat="30.347264" lon="-97.964674" changeset="false"><tag k="addr:street" v="Ranch Road 620,1100"/><tag k="addr:housenumber" v="1514"/><tag k="coa:place_id" v="573256"/></node><node id="-159" lat="30.346767" lon="-97.976397" changeset="false"><tag k="addr:street" v="Lohmans Crossing Road"/><tag k="addr:housenumber" v="1921"/><tag k="coa:place_id" v="206807"/></node><node id="-160" lat="30.34279" lon="-97.971297" changeset="false"><tag k="addr:street" v="Lohmans Crossing Road"/><tag k="addr:housenumber" v="2111"/><tag k="coa:place_id" v="878192"/></node><node id="-161" lat="30.353669" lon="-97.97211" changeset="false"><tag k="addr:street" v="Rolling Green Drive"/><tag k="addr:housenumber" v="604"/><tag k="coa:place_id" v="215518"/></node><node id="-162" lat="30.362958" lon="-97.967094" changeset="false"><tag k="addr:street" v="Tamarac Court"/><tag k="addr:housenumber" v="103"/><tag k="coa:place_id" v="157291"/></node><node id="-163" lat="30.354212" lon="-97.963675" changeset="false"><tag k="addr:street" v="Crest View Drive"/><tag k="addr:housenumber" v="103"/><tag k="coa:place_id" v="644440"/></node><node id="-164" lat="30.361328" lon="-97.966838" changeset="false"><tag k="addr:street" v="Clubhouse Drive"/><tag k="addr:housenumber" v="116"/><tag k="coa:place_id" v="3198710"/></node><node id="-165" lat="30.374627" lon="-97.963805" changeset="false"><tag k="addr:street" v="Cedar Hurst Lane"/><tag k="addr:housenumber" v="300"/><tag k="coa:place_id" v="3260831"/></node><node id="-166" lat="30.362765" lon="-97.968147" changeset="false"><tag k="addr:street" v="Squires Drive"/><tag k="addr:housenumber" v="120"/><tag k="coa:place_id" v="197725"/></node><node id="-167" lat="30.357483" lon="-97.973711" changeset="false"><tag k="addr:street" v="Royal Oak Lane"/><tag k="addr:housenumber" v="103"/><tag k="coa:place_id" v="136518"/></node><node id="-168" lat="30.36709" lon="-97.955295" changeset="false"><tag k="addr:street" v="Bellagio Drive"/><tag k="addr:housenumber" v="108"/><tag k="coa:place_id" v="3301893"/></node><node id="-169" lat="30.366885" lon="-97.955828" changeset="false"><tag k="addr:street" v="Bellagio Drive"/><tag k="addr:housenumber" v="109"/><tag k="coa:place_id" v="3301894"/></node><node id="-170" lat="30.367999" lon="-97.963856" changeset="false"><tag k="addr:street" v="Clubhouse Drive"/><tag k="addr:housenumber" v="205"/><tag k="coa:place_id" v="3393349"/></node><node id="-171" lat="30.364533" lon="-97.956925" changeset="false"><tag k="addr:street" v="Bella Montagna Circle"/><tag k="addr:housenumber" v="404"/><tag k="coa:place_id" v="3393353"/></node><node id="-172" lat="30.364875" lon="-97.958339" changeset="false"><tag k="addr:street" v="Bella Montagna Circle"/><tag k="addr:housenumber" v="312"/><tag k="coa:place_id" v="3393351"/></node><node id="-173" lat="30.370218" lon="-97.952858" changeset="false"><tag k="addr:street" v="Bellagio Drive"/><tag k="addr:housenumber" v="411"/><tag k="coa:place_id" v="3321779"/></node><node id="-174" lat="30.370427" lon="-97.952319" changeset="false"><tag k="addr:street" v="San Remo Boulevard"/><tag k="addr:housenumber" v="806"/><tag k="coa:place_id" v="3321786"/></node><node id="-175" lat="30.370838" lon="-97.952701" changeset="false"><tag k="addr:street" v="San Remo Boulevard"/><tag k="addr:housenumber" v="816"/><tag k="coa:place_id" v="3321789"/></node><node id="-176" lat="30.371105" lon="-97.952983" changeset="false"><tag k="addr:street" v="San Remo Boulevard"/><tag k="addr:housenumber" v="824"/><tag k="coa:place_id" v="3321792"/></node><node id="-177" lat="30.369119" lon="-97.95297" changeset="false"><tag k="addr:street" v="Roberto Drive"/><tag k="addr:housenumber" v="183"/><tag k="coa:place_id" v="3321756"/></node><node id="-178" lat="30.36817" lon="-97.956367" changeset="false"><tag k="addr:street" v="Bellagio Drive"/><tag k="addr:housenumber" v="207"/><tag k="coa:place_id" v="3301907"/></node><node id="-179" lat="30.368521" lon="-97.956399" changeset="false"><tag k="addr:street" v="Bellagio Drive"/><tag k="addr:housenumber" v="211"/><tag k="coa:place_id" v="3301911"/></node><node id="-180" lat="30.367862" lon="-97.953921" changeset="false"><tag k="addr:street" v="Antonio Way"/><tag k="addr:housenumber" v="103"/><tag k="coa:place_id" v="3321707"/></node><node id="-181" lat="30.368234" lon="-97.954113" changeset="false"><tag k="addr:street" v="Antonio Way"/><tag k="addr:housenumber" v="111"/><tag k="coa:place_id" v="3321710"/></node><node id="-182" lat="30.368588" lon="-97.954002" changeset="false"><tag k="addr:street" v="Antonio Way"/><tag k="addr:housenumber" v="117"/><tag k="coa:place_id" v="3321712"/></node><node id="-183" lat="30.36881" lon="-97.953706" changeset="false"><tag k="addr:street" v="Antonio Way"/><tag k="addr:housenumber" v="123"/><tag k="coa:place_id" v="3321714"/></node><node id="-184" lat="30.341981" lon="-97.969759" changeset="false"><tag k="addr:street" v="Lohmans Crossing Road"/><tag k="addr:housenumber" v="2133"/><tag k="coa:place_id" v="3343625"/></node><node id="-185" lat="30.341138" lon="-97.969071" changeset="false"><tag k="addr:street" v="Lohmans Crossing Road"/><tag k="addr:housenumber" v="2321 1/2"/><tag k="coa:place_id" v="3328674"/></node><node id="-186" lat="30.361409" lon="-97.95405" changeset="false"><tag k="addr:street" v="Bella Montagna Circle"/><tag k="addr:housenumber" v="501"/><tag k="coa:place_id" v="3393256"/></node><node id="-187" lat="30.362767" lon="-97.966504" changeset="false"><tag k="addr:street" v="Clubhouse Drive"/><tag k="addr:housenumber" v="127"/><tag k="coa:place_id" v="3393275"/></node><node id="-188" lat="30.370609" lon="-97.951841" changeset="false"><tag k="addr:street" v="San Remo Boulevard"/><tag k="addr:housenumber" v="803"/><tag k="coa:place_id" v="3321783"/></node><node id="-189" lat="30.362189" lon="-97.96406" changeset="false"><tag k="addr:street" v="Hazeltine Drive"/><tag k="addr:housenumber" v="419"/><tag k="coa:place_id" v="3393285"/></node><node id="-190" lat="30.347477" lon="-97.966241" changeset="false"><tag k="addr:street" v="Ranch Road 620,1100"/><tag k="addr:housenumber" v="1516"/><tag k="coa:place_id" v="5121229"/></node><node id="-191" lat="30.344165" lon="-97.967842" changeset="false"><tag k="addr:street" v="Ranch Road 620,1100"/><tag k="addr:housenumber" v="2006"/><tag k="coa:place_id" v="177953"/></node><node id="-192" lat="30.356156" lon="-97.974804" changeset="false"><tag k="addr:street" v="Lakeway Boulevard"/><tag k="addr:housenumber" v="2015"/><tag k="coa:place_id" v="3047094"/></node><node id="-193" lat="30.374378" lon="-97.962722" changeset="false"><tag k="addr:street" v="Bunny Hop Trail"/><tag k="addr:housenumber" v="302"/><tag k="coa:place_id" v="1112279"/></node><node id="-194" lat="30.374341" lon="-97.962027" changeset="false"><tag k="addr:street" v="Bunny Hop Trail"/><tag k="addr:housenumber" v="307"/><tag k="coa:place_id" v="1112280"/></node><node id="-195" lat="30.356943" lon="-97.977698" changeset="false"><tag k="addr:street" v="Duck Lake Drive"/><tag k="addr:housenumber" v="95"/><tag k="coa:place_id" v="548001"/></node><node id="-196" lat="30.36602" lon="-97.963709" changeset="false"><tag k="addr:street" v="Golf Crest Lane"/><tag k="addr:housenumber" v="729"/><tag k="coa:place_id" v="210801"/></node><node id="-197" lat="30.360157" lon="-97.965285" changeset="false"><tag k="addr:street" v="Hazeltine Drive"/><tag k="addr:housenumber" v="304"/><tag k="coa:place_id" v="3086869"/></node><node id="-198" lat="30.350404" lon="-97.963494" changeset="false"><tag k="addr:street" v="Ranch Road 620,1100"/><tag k="addr:housenumber" v="1306 1/2"/><tag k="coa:place_id" v="3047100"/></node><node id="-199" lat="30.371121" lon="-97.961935" changeset="false"><tag k="addr:street" v="Carefree Circle"/><tag k="addr:housenumber" v="118"/><tag k="coa:place_id" v="3084959"/></node><node id="-200" lat="30.3792" lon="-97.95858" changeset="false"><tag k="addr:street" v="Sunset Park Cove"/><tag k="addr:housenumber" v="6"/><tag k="coa:place_id" v="214659"/></node><node id="-201" lat="30.35715" lon="-97.96192" changeset="false"><tag k="addr:street" v="Golf Crest Lane"/><tag k="addr:housenumber" v="211"/><tag k="coa:place_id" v="3086791"/></node><node id="-202" lat="30.353184" lon="-97.962544" changeset="false"><tag k="addr:street" v="Ranch Road 620,1100"/><tag k="addr:housenumber" v="1010"/><tag k="coa:place_id" v="3123556"/></node><node id="-203" lat="30.352672" lon="-97.970078" changeset="false"><tag k="addr:street" v="Rolling Green Drive"/><tag k="addr:housenumber" v="508"/><tag k="coa:place_id" v="390021"/></node><node id="-204" lat="30.361345" lon="-97.96405" changeset="false"><tag k="addr:street" v="Cheerful Court"/><tag k="addr:housenumber" v="104"/><tag k="coa:place_id" v="3072291"/></node><node id="-205" lat="30.368278" lon="-97.963431" changeset="false"><tag k="addr:street" v="Clubhouse Drive"/><tag k="addr:housenumber" v="209"/><tag k="coa:place_id" v="206340"/></node><node id="-206" lat="30.358939" lon="-97.970062" changeset="false"><tag k="addr:street" v="Blue Lake Cove"/><tag k="addr:housenumber" v="103"/><tag k="coa:place_id" v="194128"/></node><node id="-207" lat="30.36293" lon="-97.963784" changeset="false"><tag k="addr:street" v="Golf Crest Lane"/><tag k="addr:housenumber" v="706"/><tag k="coa:place_id" v="1048281"/></node><node id="-208" lat="30.352168" lon="-97.970347" changeset="false"><tag k="addr:street" v="Rolling Green Drive"/><tag k="addr:housenumber" v="507"/><tag k="coa:place_id" v="1019271"/></node><node id="-209" lat="30.354805" lon="-97.96837" changeset="false"><tag k="addr:street" v="Cold Water Lane"/><tag k="addr:housenumber" v="114"/><tag k="coa:place_id" v="195928"/></node><node id="-210" lat="30.354986" lon="-97.974802" changeset="false"><tag k="addr:street" v="Rolling Green Drive"/><tag k="addr:housenumber" v="704"/><tag k="coa:place_id" v="554098"/></node><node id="-211" lat="30.353223" lon="-97.966411" changeset="false"><tag k="addr:street" v="Otter Creek Court"/><tag k="addr:housenumber" v="213"/><tag k="coa:place_id" v="122562"/></node><node id="-212" lat="30.353249" lon="-97.968543" changeset="false"><tag k="addr:street" v="Top O the Lake Drive"/><tag k="addr:housenumber" v="140"/><tag k="coa:place_id" v="964904"/></node><node id="-213" lat="30.353528" lon="-97.971896" changeset="false"><tag k="addr:street" v="Rolling Green Drive"/><tag k="addr:housenumber" v="602"/><tag k="coa:place_id" v="269158"/></node><node id="-214" lat="30.372206" lon="-97.961853" changeset="false"><tag k="addr:street" v="Carefree Circle"/><tag k="addr:housenumber" v="127 1/2"/><tag k="coa:place_id" v="3084963"/></node><node id="-215" lat="30.358075" lon="-97.975261" changeset="false"><tag k="addr:street" v="South el Dorado"/><tag k="addr:housenumber" v="3373"/><tag k="coa:place_id" v="362403"/></node><node id="-216" lat="30.357684" lon="-97.961335" changeset="false"><tag k="addr:street" v="Golf Crest Lane"/><tag k="addr:housenumber" v="216"/><tag k="coa:place_id" v="135774"/></node><node id="-217" lat="30.360065" lon="-97.974165" changeset="false"><tag k="addr:street" v="South el Dorado"/><tag k="addr:housenumber" v="3389"/><tag k="coa:place_id" v="413697"/></node><node id="-218" lat="30.356891" lon="-97.962509" changeset="false"><tag k="addr:street" v="Paragon Court"/><tag k="addr:housenumber" v="111"/><tag k="coa:place_id" v="138406"/></node><node id="-219" lat="30.361159" lon="-97.956202" changeset="false"><tag k="addr:street" v="Piazza Vetta Drive"/><tag k="addr:housenumber" v="107"/><tag k="coa:place_id" v="3094457"/></node><node id="-220" lat="30.369174" lon="-97.960071" changeset="false"><tag k="addr:street" v="Clubhouse Drive"/><tag k="addr:housenumber" v="399"/><tag k="coa:place_id" v="671770"/></node><node id="-221" lat="30.360383" lon="-97.962663" changeset="false"><tag k="addr:street" v="Hazeltine Drive"/><tag k="addr:housenumber" v="113"/><tag k="coa:place_id" v="91708"/></node><node id="-222" lat="30.360371" lon="-97.959863" changeset="false"><tag k="addr:street" v="Montagna Cove"/><tag k="addr:housenumber" v="104"/><tag k="coa:place_id" v="3094423"/></node><node id="-223" lat="30.355702" lon="-97.96862" changeset="false"><tag k="addr:street" v="Cold Water Lane"/><tag k="addr:housenumber" v="108"/><tag k="coa:place_id" v="3085086"/></node><node id="-224" lat="30.354071" lon="-97.970028" changeset="false"><tag k="addr:street" v="Top O the Lake Drive"/><tag k="addr:housenumber" v="128"/><tag k="coa:place_id" v="143591"/></node><node id="-225" lat="30.356631" lon="-97.966167" changeset="false"><tag k="addr:street" v="Idle Hour Cove"/><tag k="addr:housenumber" v="1717"/><tag k="coa:place_id" v="109672"/></node><node id="-226" lat="30.361214" lon="-97.957341" changeset="false"><tag k="addr:street" v="Piazza Vetta Drive"/><tag k="addr:housenumber" v="106"/><tag k="coa:place_id" v="3094456"/></node><node id="-227" lat="30.362025" lon="-97.955357" changeset="false"><tag k="addr:street" v="Palazza Alto Drive"/><tag k="addr:housenumber" v="208"/><tag k="coa:place_id" v="3094473"/></node><node id="-228" lat="30.373933" lon="-97.960794" changeset="false"><tag k="addr:street" v="Stone Ridge Drive"/><tag k="addr:housenumber" v="401"/><tag k="coa:place_id" v="295893"/></node><node id="-229" lat="30.355345" lon="-97.964993" changeset="false"><tag k="addr:street" v="Lakeway Boulevard"/><tag k="addr:housenumber" v="1615"/><tag k="coa:place_id" v="130657"/></node><node id="-230" lat="30.355395" lon="-97.971003" changeset="false"><tag k="addr:street" v="Top O the Lake Drive"/><tag k="addr:housenumber" v="107"/><tag k="coa:place_id" v="497008"/></node><node id="-231" lat="30.352125" lon="-97.969089" changeset="false"><tag k="addr:street" v="Rolling Green Drive"/><tag k="addr:housenumber" v="410"/><tag k="coa:place_id" v="683176"/></node><node id="-232" lat="30.351212" lon="-97.966368" changeset="false"><tag k="addr:street" v="Crest View Drive"/><tag k="addr:housenumber" v="132"/><tag k="coa:place_id" v="3085107"/></node><node id="-233" lat="30.363525" lon="-97.966114" changeset="false"><tag k="addr:street" v="Clubhouse Drive"/><tag k="addr:housenumber" v="130"/><tag k="coa:place_id" v="133573"/></node><node id="-234" lat="30.34089" lon="-97.969009" changeset="false"><tag k="addr:street" v="Ranch Road 620,1100"/><tag k="addr:housenumber" v="2400"/><tag k="coa:place_id" v="3106371"/></node><node id="-235" lat="30.362016" lon="-97.967495" changeset="false"><tag k="addr:street" v="Tantallon Court"/><tag k="addr:housenumber" v="105"/><tag k="coa:place_id" v="749583"/></node><node id="-236" lat="30.354267" lon="-97.961586" changeset="false"><tag k="addr:street" v="Ranch Road 620,1100"/><tag k="addr:housenumber" v="916"/><tag k="coa:place_id" v="974228"/></node><node id="-237" lat="30.353829" lon="-97.967038" changeset="false"><tag k="addr:street" v="Otter Creek Court"/><tag k="addr:housenumber" v="207"/><tag k="coa:place_id" v="748767"/></node><node id="-238" lat="30.354249" lon="-97.968079" changeset="false"><tag k="addr:street" v="Cold Water Lane"/><tag k="addr:housenumber" v="118"/><tag k="coa:place_id" v="413710"/></node><node id="-239" lat="30.354297" lon="-97.973338" changeset="false"><tag k="addr:street" v="Rolling Green Drive"/><tag k="addr:housenumber" v="614"/><tag k="coa:place_id" v="151938"/></node><node id="-240" lat="30.358807" lon="-97.972839" changeset="false"><tag k="addr:street" v="Royal Oak Cove"/><tag k="addr:housenumber" v="117"/><tag k="coa:place_id" v="3188498"/></node><node id="-241" lat="30.355358" lon="-97.976341" changeset="false"><tag k="addr:street" v="Rolling Green Drive"/><tag k="addr:housenumber" v="714"/><tag k="coa:place_id" v="553720"/></node><node id="-242" lat="30.374098" lon="-97.961532" changeset="false"><tag k="addr:street" v="Stone Ridge Drive"/><tag k="addr:housenumber" v="302"/><tag k="coa:place_id" v="1112282"/></node><node id="-243" lat="30.354454" lon="-97.963539" changeset="false"><tag k="addr:street" v="Crest View Drive"/><tag k="addr:housenumber" v="101"/><tag k="coa:place_id" v="160834"/></node><node id="-244" lat="30.351389" lon="-97.976247" changeset="false"><tag k="addr:street" v="Lohmans Crossing Road"/><tag k="addr:housenumber" v="1801"/><tag k="coa:place_id" v="3221077"/></node><node id="-245" lat="30.37196" lon="-97.95886" changeset="false"><tag k="addr:street" v="Lake Como Drive"/><tag k="addr:housenumber" v="213"/><tag k="coa:place_id" v="3301604"/></node><node id="-246" lat="30.370344" lon="-97.955437" changeset="false"><tag k="addr:street" v="Bellagio Drive"/><tag k="addr:housenumber" v="305"/><tag k="coa:place_id" v="3301938"/></node><node id="-247" lat="30.369089" lon="-97.955741" changeset="false"><tag k="addr:street" v="Bellagio Drive"/><tag k="addr:housenumber" v="216"/><tag k="coa:place_id" v="3301916"/></node><node id="-248" lat="30.368523" lon="-97.954057" changeset="false"><tag k="addr:street" v="Antonio Way"/><tag k="addr:housenumber" v="115"/><tag k="coa:place_id" v="3321711"/></node><node id="-249" lat="30.368659" lon="-97.953965" changeset="false"><tag k="addr:street" v="Antonio Way"/><tag k="addr:housenumber" v="119"/><tag k="coa:place_id" v="3321713"/></node><node id="-250" lat="30.368822" lon="-97.953618" changeset="false"><tag k="addr:street" v="Antonio Way"/><tag k="addr:housenumber" v="125"/><tag k="coa:place_id" v="3321715"/></node><node id="-251" lat="30.368756" lon="-97.953265" changeset="false"><tag k="addr:street" v="Antonio Way"/><tag k="addr:housenumber" v="133"/><tag k="coa:place_id" v="3321718"/></node><node id="-252" lat="30.367221" lon="-97.955382" changeset="false"><tag k="addr:street" v="Bellagio Drive"/><tag k="addr:housenumber" v="110"/><tag k="coa:place_id" v="3301895"/></node><node id="-253" lat="30.367416" lon="-97.955477" changeset="false"><tag k="addr:street" v="Bellagio Drive"/><tag k="addr:housenumber" v="112"/><tag k="coa:place_id" v="3301897"/></node><node id="-254" lat="30.370286" lon="-97.952245" changeset="false"><tag k="addr:street" v="San Remo Boulevard"/><tag k="addr:housenumber" v="802"/><tag k="coa:place_id" v="3321782"/></node><node id="-255" lat="30.352401" lon="-97.969578" changeset="false"><tag k="addr:street" v="Rolling Green Drive"/><tag k="addr:housenumber" v="504"/><tag k="coa:place_id" v="716553"/></node><node id="-256" lat="30.369989" lon="-97.958062" changeset="false"><tag k="addr:street" v="Lake Como Drive"/><tag k="addr:housenumber" v="104"/><tag k="coa:place_id" v="3301835"/></node><node id="-257" lat="30.370622" lon="-97.952491" changeset="false"><tag k="addr:street" v="San Remo Boulevard"/><tag k="addr:housenumber" v="810"/><tag k="coa:place_id" v="3321787"/></node><node id="-258" lat="30.368325" lon="-97.955851" changeset="false"><tag k="addr:street" v="Bellagio Drive"/><tag k="addr:housenumber" v="208"/><tag k="coa:place_id" v="3301908"/></node><node id="-259" lat="30.354895" lon="-97.974349" changeset="false"><tag k="addr:street" v="Rolling Green Drive"/><tag k="addr:housenumber" v="702"/><tag k="coa:place_id" v="3393332"/></node><node id="-260" lat="30.354341" lon="-97.967405" changeset="false"><tag k="addr:street" v="Cold Water Lane"/><tag k="addr:housenumber" v="121"/><tag k="coa:place_id" v="180672"/></node><node id="-261" lat="30.363076" lon="-97.966486" changeset="false"><tag k="addr:street" v="Clubhouse Drive"/><tag k="addr:housenumber" v="129"/><tag k="coa:place_id" v="3393276"/></node><node id="-262" lat="30.364584" lon="-97.966687" changeset="false"><tag k="addr:street" v="Clubhouse Drive"/><tag k="addr:housenumber" v="139"/><tag k="coa:place_id" v="3393278"/></node><node id="-263" lat="30.379324" lon="-97.958507" changeset="false"><tag k="addr:street" v="Sunset Park Cove"/><tag k="addr:housenumber" v="4"/><tag k="coa:place_id" v="214657"/></node><node id="-264" lat="30.362499" lon="-97.955633" changeset="false"><tag k="addr:street" v="Palazza Alto Drive"/><tag k="addr:housenumber" v="206 1/2"/><tag k="coa:place_id" v="3129506"/></node><node id="-265" lat="30.378591" lon="-97.958961" changeset="false"><tag k="addr:street" v="Sunset Park Cove"/><tag k="addr:housenumber" v="16"/><tag k="coa:place_id" v="214666"/></node><node id="-266" lat="30.378305" lon="-97.958998" changeset="false"><tag k="addr:street" v="Sunset Park Cove"/><tag k="addr:housenumber" v="20"/><tag k="coa:place_id" v="214668"/></node><node id="-267" lat="30.359485" lon="-97.965231" changeset="false"><tag k="addr:street" v="Hazeltine Drive"/><tag k="addr:housenumber" v="221"/><tag k="coa:place_id" v="3086836"/></node><node id="-268" lat="30.363778" lon="-97.955381" changeset="false"><tag k="addr:street" v="Bella Montagna Circle"/><tag k="addr:housenumber" v="410"/><tag k="coa:place_id" v="3094482"/></node><node id="-269" lat="30.363369" lon="-97.95749" changeset="false"><tag k="addr:street" v="Palazza Alto Drive"/><tag k="addr:housenumber" v="105"/><tag k="coa:place_id" v="3094464"/></node><node id="-270" lat="30.363268" lon="-97.954266" changeset="false"><tag k="addr:street" v="Bella Montagna Circle"/><tag k="addr:housenumber" v="414"/><tag k="coa:place_id" v="3094486"/></node><node id="-271" lat="30.374565" lon="-97.961218" changeset="false"><tag k="addr:street" v="Stone Ridge Drive"/><tag k="addr:housenumber" v="400"/><tag k="coa:place_id" v="587846"/></node><node id="-272" lat="30.374329" lon="-97.961375" changeset="false"><tag k="addr:street" v="Stone Ridge Drive"/><tag k="addr:housenumber" v="304"/><tag k="coa:place_id" v="1112281"/></node><node id="-273" lat="30.353907" lon="-97.968467" changeset="false"><tag k="addr:street" v="Top O the Lake Drive"/><tag k="addr:housenumber" v="129"/><tag k="coa:place_id" v="1135187"/></node><node id="-274" lat="30.353896" lon="-97.973829" changeset="false"><tag k="addr:street" v="Rolling Green Drive"/><tag k="addr:housenumber" v="609"/><tag k="coa:place_id" v="143439"/></node><node id="-275" lat="30.353855" lon="-97.972629" changeset="false"><tag k="addr:street" v="Rolling Green Drive"/><tag k="addr:housenumber" v="610"/><tag k="coa:place_id" v="780087"/></node><node id="-276" lat="30.358895" lon="-97.970673" changeset="false"><tag k="addr:street" v="Blue Lake Cove"/><tag k="addr:housenumber" v="108"/><tag k="coa:place_id" v="122627"/></node><node id="-277" lat="30.35858" lon="-97.975651" changeset="false"><tag k="addr:street" v="Saltillo Court"/><tag k="addr:housenumber" v="3412"/><tag k="coa:place_id" v="321699"/></node><node id="-278" lat="30.356443" lon="-97.967141" changeset="false"><tag k="addr:street" v="Cando Court"/><tag k="addr:housenumber" v="1807"/><tag k="coa:place_id" v="119802"/></node><node id="-279" lat="30.353523" lon="-97.962333" changeset="false"><tag k="addr:street" v="Ranch Road 620,1100"/><tag k="addr:housenumber" v="1008"/><tag k="coa:place_id" v="3124539"/></node><node id="-280" lat="30.339094" lon="-97.969968" changeset="false"><tag k="addr:street" v="Ranch Road 620,1100"/><tag k="addr:housenumber" v="2418"/><tag k="coa:place_id" v="3136032"/></node><node id="-281" lat="30.340712" lon="-97.969951" changeset="false"><tag k="addr:street" v="Ranch Road 620,1100"/><tag k="addr:housenumber" v="2422 1/2"/><tag k="coa:place_id" v="3141604"/></node><node id="-282" lat="30.35268" lon="-97.964722" changeset="false"><tag k="addr:street" v="Crest View Drive"/><tag k="addr:housenumber" v="115"/><tag k="coa:place_id" v="472089"/></node><node id="-283" lat="30.364117" lon="-97.952422" changeset="false"><tag k="addr:street" v="Ranch Road 620,1100"/><tag k="addr:housenumber" v="220 1/2"/><tag k="coa:place_id" v="3051208"/></node><node id="-284" lat="30.349009" lon="-97.963878" changeset="false"><tag k="addr:street" v="Ranch Road 620,1100"/><tag k="addr:housenumber" v="1408"/><tag k="coa:place_id" v="981848"/></node><node id="-285" lat="30.359821" lon="-97.959302" changeset="false"><tag k="addr:street" v="Montagna Cove"/><tag k="addr:housenumber" v="103"/><tag k="coa:place_id" v="3094422"/></node><node id="-286" lat="30.359566" lon="-97.965437" changeset="false"><tag k="addr:street" v="Hazeltine Drive"/><tag k="addr:housenumber" v="301"/><tag k="coa:place_id" v="3086871"/></node><node id="-287" lat="30.3616" lon="-97.957552" changeset="false"><tag k="addr:street" v="Piazza Vetta Drive"/><tag k="addr:housenumber" v="104"/><tag k="coa:place_id" v="3094454"/></node><node id="-288" lat="30.367088" lon="-97.961879" changeset="false"><tag k="addr:street" v="Spellbrook Lane"/><tag k="addr:housenumber" v="124"/><tag k="coa:place_id" v="1125550"/></node><node id="-289" lat="30.360797" lon="-97.971906" changeset="false"><tag k="addr:street" v="El Rio Drive"/><tag k="addr:housenumber" v="213"/><tag k="coa:place_id" v="133377"/></node><node id="-290" lat="30.364523" lon="-97.959684" changeset="false"><tag k="addr:street" v="Bella Montagna Circle"/><tag k="addr:housenumber" v="309"/><tag k="coa:place_id" v="3094437"/></node><node id="-291" lat="30.356341" lon="-97.965623" changeset="false"><tag k="addr:street" v="Idle Hour Cove"/><tag k="addr:housenumber" v="1701"/><tag k="coa:place_id" v="211696"/></node><node id="-292" lat="30.361973" lon="-97.958396" changeset="false"><tag k="addr:street" v="Palazza Alto Drive"/><tag k="addr:housenumber" v="104"/><tag k="coa:place_id" v="3094463"/></node><node id="-293" lat="30.37468" lon="-97.963208" changeset="false"><tag k="addr:street" v="Cedar Hurst Lane"/><tag k="addr:housenumber" v="301"/><tag k="coa:place_id" v="3073930"/></node><node id="-294" lat="30.354256" lon="-97.975456" changeset="false"><tag k="addr:street" v="Show Low Court"/><tag k="addr:housenumber" v="711"/><tag k="coa:place_id" v="331804"/></node><node id="-295" lat="30.360489" lon="-97.956803" changeset="false"><tag k="addr:street" v="Piazza Vetta Drive"/><tag k="addr:housenumber" v="110"/><tag k="coa:place_id" v="3094459"/></node><node id="-296" lat="30.3595" lon="-97.968682" changeset="false"><tag k="addr:street" v="Squires Drive"/><tag k="addr:housenumber" v="102"/><tag k="coa:place_id" v="646911"/></node><node id="-297" lat="30.359381" lon="-97.964661" changeset="false"><tag k="addr:street" v="Hazeltine Drive"/><tag k="addr:housenumber" v="215"/><tag k="coa:place_id" v="3086840"/></node><node id="-298" lat="30.368169" lon="-97.961716" changeset="false"><tag k="addr:street" v="Clubhouse Drive"/><tag k="addr:housenumber" v="220"/><tag k="coa:place_id" v="1156272"/></node><node id="-299" lat="30.361671" lon="-97.96234" changeset="false"><tag k="addr:street" v="Rare Eagle Court"/><tag k="addr:housenumber" v="105"/><tag k="coa:place_id" v="1127507"/></node><node id="-300" lat="30.358489" lon="-97.963118" changeset="false"><tag k="addr:street" v="Confidence Cove"/><tag k="addr:housenumber" v="104"/><tag k="coa:place_id" v="332578"/></node><node id="-301" lat="30.351835" lon="-97.969615" changeset="false"><tag k="addr:street" v="Rolling Green Drive"/><tag k="addr:housenumber" v="501"/><tag k="coa:place_id" v="130656"/></node><node id="-302" lat="30.351252" lon="-97.968413" changeset="false"><tag k="addr:street" v="Rolling Green Drive"/><tag k="addr:housenumber" v="407"/><tag k="coa:place_id" v="3083332"/></node><node id="-303" lat="30.351058" lon="-97.968167" changeset="false"><tag k="addr:street" v="Rolling Green Drive"/><tag k="addr:housenumber" v="405"/><tag k="coa:place_id" v="102682"/></node><node id="-304" lat="30.356241" lon="-97.973935" changeset="false"><tag k="addr:street" v="Lakeway Boulevard"/><tag k="addr:housenumber" v="2009"/><tag k="coa:place_id" v="599175"/></node><node id="-305" lat="30.356171" lon="-97.974514" changeset="false"><tag k="addr:street" v="Lakeway Boulevard"/><tag k="addr:housenumber" v="2013"/><tag k="coa:place_id" v="3047093"/></node><node id="-306" lat="30.356093" lon="-97.977556" changeset="false"><tag k="addr:street" v="Rolling Green Drive"/><tag k="addr:housenumber" v="722"/><tag k="coa:place_id" v="200543"/></node><node id="-307" lat="30.363327" lon="-97.961646" changeset="false"><tag k="addr:street" v="Long Wood Avenue"/><tag k="addr:housenumber" v="115"/><tag k="coa:place_id" v="426124"/></node><node id="-308" lat="30.354247" lon="-97.976343" changeset="false"><tag k="addr:street" v="Twin Hills Court"/><tag k="addr:housenumber" v="719"/><tag k="coa:place_id" v="349454"/></node><node id="-309" lat="30.353937" lon="-97.962114" changeset="false"><tag k="addr:street" v="Ranch Road 620,1100"/><tag k="addr:housenumber" v="926"/><tag k="coa:place_id" v="3123638"/></node><node id="-310" lat="30.360427" lon="-97.971721" changeset="false"><tag k="addr:street" v="Duck Lake Drive"/><tag k="addr:housenumber" v="502"/><tag k="coa:place_id" v="3052110"/></node><node id="-311" lat="30.36498" lon="-97.956108" changeset="false"><tag k="addr:street" v="Bella Montagna Circle"/><tag k="addr:housenumber" v="409"/><tag k="coa:place_id" v="3094481"/></node><node id="-312" lat="30.356183" lon="-97.968266" changeset="false"><tag k="addr:street" v="Cold Water Lane"/><tag k="addr:housenumber" v="105"/><tag k="coa:place_id" v="391930"/></node><node id="-313" lat="30.361381" lon="-97.976445" changeset="false"><tag k="addr:street" v="Duck Lake Drive"/><tag k="addr:housenumber" v="302"/><tag k="coa:place_id" v="968522"/></node><node id="-314" lat="30.364532" lon="-97.952234" changeset="false"><tag k="addr:street" v="Ranch Road 620,1100"/><tag k="addr:housenumber" v="212 1/2"/><tag k="coa:place_id" v="3047090"/></node><node id="-315" lat="30.373513" lon="-97.959396" changeset="false"><tag k="addr:street" v="Lake Como Drive"/><tag k="addr:housenumber" v="233"/><tag k="coa:place_id" v="3301620"/></node><node id="-316" lat="30.362318" lon="-97.953721" changeset="false"><tag k="addr:street" v="Bella Montagna Circle"/><tag k="addr:housenumber" v="427"/><tag k="coa:place_id" v="3094477"/></node><node id="-317" lat="30.371255" lon="-97.958704" changeset="false"><tag k="addr:street" v="Lake Como Drive"/><tag k="addr:housenumber" v="205"/><tag k="coa:place_id" v="3301596"/></node><node id="-318" lat="30.372905" lon="-97.959422" changeset="false"><tag k="addr:street" v="Lake Como Drive"/><tag k="addr:housenumber" v="223"/><tag k="coa:place_id" v="3301614"/></node><node id="-319" lat="30.360568" lon="-97.961136" changeset="false"><tag k="addr:street" v="Long Wood Cove"/><tag k="addr:housenumber" v="102"/><tag k="coa:place_id" v="3393286"/></node><node id="-320" lat="30.358913" lon="-97.968466" changeset="false"><tag k="addr:street" v="Duck Lake Court"/><tag k="addr:housenumber" v="714"/><tag k="coa:place_id" v="3393327"/></node><node id="-321" lat="30.353358" lon="-97.97166" changeset="false"><tag k="addr:street" v="Rolling Green Drive"/><tag k="addr:housenumber" v="520"/><tag k="coa:place_id" v="212002"/></node><node id="-322" lat="30.370344" lon="-97.953301" changeset="false"><tag k="addr:street" v="Bellagio Drive"/><tag k="addr:housenumber" v="401"/><tag k="coa:place_id" v="3321775"/></node><node id="-323" lat="30.354553" lon="-97.968161" changeset="false"><tag k="addr:street" v="Cold Water Lane"/><tag k="addr:housenumber" v="116"/><tag k="coa:place_id" v="716698"/></node><node id="-324" lat="30.370679" lon="-97.952553" changeset="false"><tag k="addr:street" v="San Remo Boulevard"/><tag k="addr:housenumber" v="812"/><tag k="coa:place_id" v="3321788"/></node><node id="-325" lat="30.371031" lon="-97.952944" changeset="false"><tag k="addr:street" v="San Remo Boulevard"/><tag k="addr:housenumber" v="822"/><tag k="coa:place_id" v="3321791"/></node><node id="-326" lat="30.368089" lon="-97.954049" changeset="false"><tag k="addr:street" v="Antonio Way"/><tag k="addr:housenumber" v="107"/><tag k="coa:place_id" v="3321708"/></node><node id="-327" lat="30.368713" lon="-97.953198" changeset="false"><tag k="addr:street" v="Antonio Way"/><tag k="addr:housenumber" v="135"/><tag k="coa:place_id" v="3321720"/></node><node id="-328" lat="30.370296" lon="-97.953217" changeset="false"><tag k="addr:street" v="Bellagio Drive"/><tag k="addr:housenumber" v="403"/><tag k="coa:place_id" v="3321776"/></node><node id="-329" lat="30.366579" lon="-97.955572" changeset="false"><tag k="addr:street" v="Bellagio Drive"/><tag k="addr:housenumber" v="105"/><tag k="coa:place_id" v="3301890"/></node><node id="-330" lat="30.356914" lon="-97.96702" changeset="false"><tag k="addr:street" v="Cando Court"/><tag k="addr:housenumber" v="1803"/><tag k="coa:place_id" v="5102102"/></node><node id="-331" lat="30.370959" lon="-97.952796" changeset="false"><tag k="addr:street" v="San Remo Boulevard"/><tag k="addr:housenumber" v="820"/><tag k="coa:place_id" v="3512187"/></node><node id="-332" lat="30.345601" lon="-97.965935" changeset="false"><tag k="addr:street" v="Ranch Road 620,1100"/><tag k="addr:housenumber" v="1800"/><tag k="coa:place_id" v="5226005"/></node><node id="-333" lat="30.367549" lon="-97.950738" changeset="false"><tag k="addr:street" v="Ranch Road 620,1100"/><tag k="addr:housenumber" v="202"/><tag k="coa:place_id" v="5071411"/></node><node id="-334" lat="30.366826" lon="-97.954954" changeset="false"><tag k="addr:street" v="Bellagio Drive"/><tag k="addr:housenumber" v="104"/><tag k="coa:place_id" v="3301889"/></node><node id="-335" lat="30.358573" lon="-97.974957" changeset="false"><tag k="addr:street" v="South el Dorado"/><tag k="addr:housenumber" v="3377"/><tag k="coa:place_id" v="314973"/></node><node id="-336" lat="30.36625" lon="-97.958271" changeset="false"><tag k="addr:street" v="Bella Strada Cove,1100"/><tag k="addr:housenumber" v="102"/><tag k="coa:place_id" v="3094496"/></node><node id="-337" lat="30.354889" lon="-97.976375" changeset="false"><tag k="addr:street" v="Rolling Green Drive"/><tag k="addr:housenumber" v="723"/><tag k="coa:place_id" v="118275"/></node><node id="-338" lat="30.365556" lon="-97.95757" changeset="false"><tag k="addr:street" v="Bella Montagna Circle"/><tag k="addr:housenumber" v="403"/><tag k="coa:place_id" v="3094494"/></node><node id="-339" lat="30.359391" lon="-97.964863" changeset="false"><tag k="addr:street" v="Hazeltine Drive"/><tag k="addr:housenumber" v="217"/><tag k="coa:place_id" v="3086838"/></node><node id="-340" lat="30.359377" lon="-97.964284" changeset="false"><tag k="addr:street" v="Hazeltine Drive"/><tag k="addr:housenumber" v="211"/><tag k="coa:place_id" v="3086839"/></node><node id="-341" lat="30.340774" lon="-97.971178" changeset="false"><tag k="addr:street" v="Lohmans Crossing Road"/><tag k="addr:housenumber" v="2051"/><tag k="coa:place_id" v="878174"/></node><node id="-342" lat="30.351399" lon="-97.966244" changeset="false"><tag k="addr:street" v="Crest View Drive"/><tag k="addr:housenumber" v="130"/><tag k="coa:place_id" v="694846"/></node><node id="-343" lat="30.35552" lon="-97.976615" changeset="false"><tag k="addr:street" v="Rolling Green Drive"/><tag k="addr:housenumber" v="716"/><tag k="coa:place_id" v="127674"/></node><node id="-344" lat="30.339804" lon="-97.969601" changeset="false"><tag k="addr:street" v="Ranch Road 620,1100"/><tag k="addr:housenumber" v="2410"/><tag k="coa:place_id" v="921759"/></node><node id="-345" lat="30.355854" lon="-97.977126" changeset="false"><tag k="addr:street" v="Rolling Green Drive"/><tag k="addr:housenumber" v="720"/><tag k="coa:place_id" v="747802"/></node><node id="-346" lat="30.355714" lon="-97.97171" changeset="false"><tag k="addr:street" v="Top O the Lake Drive"/><tag k="addr:housenumber" v="108"/><tag k="coa:place_id" v="3162102"/></node><node id="-347" lat="30.374799" lon="-97.961687" changeset="false"><tag k="addr:street" v="North Round Mountain Drive"/><tag k="addr:housenumber" v="426"/><tag k="coa:place_id" v="213093"/></node><node id="-348" lat="30.373125" lon="-97.9601" changeset="false"><tag k="addr:street" v="North Round Mountain Drive"/><tag k="addr:housenumber" v="310"/><tag k="coa:place_id" v="286288"/></node><node id="-349" lat="30.362758" lon="-97.956795" changeset="false"><tag k="addr:street" v="Palazza Alto Drive"/><tag k="addr:housenumber" v="202"/><tag k="coa:place_id" v="3094467"/></node><node id="-350" lat="30.36292" lon="-97.959724" changeset="false"><tag k="addr:street" v="Bella Montagna Circle"/><tag k="addr:housenumber" v="303"/><tag k="coa:place_id" v="3094431"/></node><node id="-351" lat="30.361955" lon="-97.973109" changeset="false"><tag k="addr:street" v="El Rio Drive"/><tag k="addr:housenumber" v="105"/><tag k="coa:place_id" v="3393303"/></node><node id="-352" lat="30.355467" lon="-97.967892" changeset="false"><tag k="addr:street" v="Cold Water Lane"/><tag k="addr:housenumber" v="111"/><tag k="coa:place_id" v="152727"/></node><node id="-353" lat="30.342104" lon="-97.972611" changeset="false"><tag k="addr:street" v="Lohmans Crossing Road"/><tag k="addr:housenumber" v="2032"/><tag k="coa:place_id" v="878246"/></node><node id="-354" lat="30.369022" lon="-97.956346" changeset="false"><tag k="addr:street" v="Bellagio Drive"/><tag k="addr:housenumber" v="217"/><tag k="coa:place_id" v="3301917"/></node><node id="-355" lat="30.367104" lon="-97.963824" changeset="false"><tag k="addr:street" v="Clubhouse Drive"/><tag k="addr:housenumber" v="204"/><tag k="coa:place_id" v="3393355"/></node><node id="-356" lat="30.364637" lon="-97.952447" changeset="false"><tag k="addr:street" v="Ranch Road 620,1100"/><tag k="addr:housenumber" v="200"/><tag k="coa:place_id" v="3289769"/></node><node id="-357" lat="30.367665" lon="-97.956197" changeset="false"><tag k="addr:street" v="Bellagio Drive"/><tag k="addr:housenumber" v="201"/><tag k="coa:place_id" v="3301901"/></node><node id="-358" lat="30.344213" lon="-97.966546" changeset="false"><tag k="addr:street" v="Ranch Road 620,1100"/><tag k="addr:housenumber" v="1912"/><tag k="coa:place_id" v="5121063"/></node><node id="-359" lat="30.360147" lon="-97.964393" changeset="false"><tag k="addr:street" v="Hazeltine Court"/><tag k="addr:housenumber" v="101 1/2"/><tag k="coa:place_id" v="3528642"/></node><node id="-360" lat="30.370078" lon="-97.95499" changeset="false"><tag k="addr:street" v="Bellagio Drive"/><tag k="addr:housenumber" v="306"/><tag k="coa:place_id" v="3301939"/></node><node id="-361" lat="30.372524" lon="-97.959179" changeset="false"><tag k="addr:street" v="Lake Como Drive"/><tag k="addr:housenumber" v="219"/><tag k="coa:place_id" v="3301610"/></node><node id="-362" lat="30.373251" lon="-97.958821" changeset="false"><tag k="addr:street" v="Lake Como Drive"/><tag k="addr:housenumber" v="226"/><tag k="coa:place_id" v="3301617"/></node><node id="-363" lat="30.370292" lon="-97.953126" changeset="false"><tag k="addr:street" v="Bellagio Drive"/><tag k="addr:housenumber" v="405"/><tag k="coa:place_id" v="3321777"/></node><node id="-364" lat="30.36644" lon="-97.955401" changeset="false"><tag k="addr:street" v="Bellagio Drive"/><tag k="addr:housenumber" v="103"/><tag k="coa:place_id" v="3301888"/></node><node id="-365" lat="30.355606" lon="-97.970466" changeset="false"><tag k="addr:street" v="Burning Tree Cove"/><tag k="addr:housenumber" v="113"/><tag k="coa:place_id" v="3431405"/></node><node id="-366" lat="30.364437" lon="-97.952519" changeset="false"><tag k="addr:street" v="Ranch Road 620,1100"/><tag k="addr:housenumber" v="218"/><tag k="coa:place_id" v="5093429"/></node><node id="-367" lat="30.361669" lon="-97.968085" changeset="false"><tag k="addr:street" v="Tantallon Court"/><tag k="addr:housenumber" v="104"/><tag k="coa:place_id" v="5112464"/></node><node id="-368" lat="30.358732" lon="-97.970909" changeset="false"><tag k="addr:street" v="Blue Lake Cove"/><tag k="addr:housenumber" v="110"/><tag k="coa:place_id" v="3424696"/></node><node id="-369" lat="30.347888" lon="-97.976414" changeset="false"><tag k="addr:street" v="Lohmans Crossing Road"/><tag k="addr:housenumber" v="1901"/><tag k="coa:place_id" v="612544"/></node><node id="-370" lat="30.35256" lon="-97.962906" changeset="false"><tag k="addr:street" v="Ranch Road 620,1100"/><tag k="addr:housenumber" v="1020"/><tag k="coa:place_id" v="3502352"/></node><node id="-371" lat="30.361529" lon="-97.958792" changeset="false"><tag k="addr:street" v="Palazza Alto Drive"/><tag k="addr:housenumber" v="102"/><tag k="coa:place_id" v="3393350"/></node><node id="-372" lat="30.355637" lon="-97.978002" changeset="false"><tag k="addr:street" v="Lohmans Crossing Road"/><tag k="addr:housenumber" v="1501"/><tag k="coa:place_id" v="3393371"/></node><node id="-373" lat="30.369239" lon="-97.955704" changeset="false"><tag k="addr:street" v="Bellagio Drive"/><tag k="addr:housenumber" v="218"/><tag k="coa:place_id" v="3301918"/></node><node id="-374" lat="30.368166" lon="-97.954077" changeset="false"><tag k="addr:street" v="Antonio Way"/><tag k="addr:housenumber" v="109"/><tag k="coa:place_id" v="3321709"/></node><node id="-375" lat="30.367473" lon="-97.954198" changeset="false"><tag k="addr:street" v="Roberto Drive"/><tag k="addr:housenumber" v="101"/><tag k="coa:place_id" v="3321719"/></node><node id="-376" lat="30.367961" lon="-97.95398" changeset="false"><tag k="addr:street" v="Antonio Way"/><tag k="addr:housenumber" v="105"/><tag k="coa:place_id" v="3321721"/></node><node id="-377" lat="30.348145" lon="-97.965802" changeset="false"><tag k="addr:street" v="Ranch Road 620,1100"/><tag k="addr:housenumber" v="1510"/><tag k="coa:place_id" v="5121228"/></node><node id="-378" lat="30.371054" lon="-97.958651" changeset="false"><tag k="addr:street" v="Lake Como Drive"/><tag k="addr:housenumber" v="203"/><tag k="coa:place_id" v="3301594"/></node><node id="-379" lat="30.370238" lon="-97.952755" changeset="false"><tag k="addr:street" v="Bellagio Drive"/><tag k="addr:housenumber" v="413"/><tag k="coa:place_id" v="3321780"/></node><node id="-380" lat="30.362476" lon="-97.96658" changeset="false"><tag k="addr:street" v="Clubhouse Drive"/><tag k="addr:housenumber" v="125"/><tag k="coa:place_id" v="3393274"/></node><node id="-381" lat="30.359252" lon="-97.956974" changeset="false"><tag k="addr:street" v="Bella Montagna Circle"/><tag k="addr:housenumber" v="516"/><tag k="coa:place_id" v="3393366"/></node><node id="-382" lat="30.3733" lon="-97.959433" changeset="false"><tag k="addr:street" v="Lake Como Drive"/><tag k="addr:housenumber" v="229"/><tag k="coa:place_id" v="3301621"/></node><node id="-383" lat="30.365679" lon="-97.963768" changeset="false"><tag k="addr:street" v="Golf Crest Lane"/><tag k="addr:housenumber" v="725"/><tag k="coa:place_id" v="3393304"/></node><node id="-384" lat="30.362803" lon="-97.964283" changeset="false"><tag k="addr:street" v="Golf Crest Lane"/><tag k="addr:housenumber" v="705"/><tag k="coa:place_id" v="3393283"/></node><node id="-385" lat="30.35823" lon="-97.971205" changeset="false"><tag k="addr:street" v="Blue Lake Cove"/><tag k="addr:housenumber" v="114"/><tag k="coa:place_id" v="3393326"/></node><node id="-386" lat="30.35757" lon="-97.962839" changeset="false"><tag k="addr:street" v="Golf Crest Cove"/><tag k="addr:housenumber" v="131"/><tag k="coa:place_id" v="3320939"/></node><node id="-387" lat="30.370261" lon="-97.952942" changeset="false"><tag k="addr:street" v="Bellagio Drive"/><tag k="addr:housenumber" v="409"/><tag k="coa:place_id" v="3321778"/></node><node id="-388" lat="30.35369" lon="-97.969229" changeset="false"><tag k="addr:street" v="Top O the Lake Drive"/><tag k="addr:housenumber" v="134"/><tag k="coa:place_id" v="3393333"/></node><node id="-389" lat="30.353494" lon="-97.967225" changeset="false"><tag k="addr:street" v="Otter Creek Court"/><tag k="addr:housenumber" v="205"/><tag k="coa:place_id" v="3393336"/></node><node id="-390" lat="30.364258" lon="-97.966745" changeset="false"><tag k="addr:street" v="Clubhouse Drive"/><tag k="addr:housenumber" v="137"/><tag k="coa:place_id" v="3393277"/></node><node id="-391" lat="30.373576" lon="-97.961873" changeset="false"><tag k="addr:street" v="Stone Ridge Drive"/><tag k="addr:housenumber" v="200"/><tag k="coa:place_id" v="1112284"/></node><node id="-392" lat="30.356954" lon="-97.973797" changeset="false"><tag k="addr:street" v="Lakeway Boulevard"/><tag k="addr:housenumber" v="2004"/><tag k="coa:place_id" v="570226"/></node><node id="-393" lat="30.356847" lon="-97.967778" changeset="false"><tag k="addr:street" v="Cando Court"/><tag k="addr:housenumber" v="1813"/><tag k="coa:place_id" v="5053621"/></node><node id="-394" lat="30.341022" lon="-97.969377" changeset="false"><tag k="addr:street" v="Lohmans Crossing Road"/><tag k="addr:housenumber" v="2300"/><tag k="coa:place_id" v="1150800"/></node><node id="-395" lat="30.359279" lon="-97.962838" changeset="false"><tag k="addr:street" v="Golf Crest Lane"/><tag k="addr:housenumber" v="408"/><tag k="coa:place_id" v="3086794"/></node><node id="-396" lat="30.355972" lon="-97.971736" changeset="false"><tag k="addr:street" v="Top O the Lake Drive"/><tag k="addr:housenumber" v="106"/><tag k="coa:place_id" v="120379"/></node><node id="-397" lat="30.353525" lon="-97.969058" changeset="false"><tag k="addr:street" v="Top O the Lake Drive"/><tag k="addr:housenumber" v="136"/><tag k="coa:place_id" v="125737"/></node><node id="-398" lat="30.352618" lon="-97.967633" changeset="false"><tag k="addr:street" v="Top O the Lake Drive"/><tag k="addr:housenumber" v="202"/><tag k="coa:place_id" v="169641"/></node><node id="-399" lat="30.367232" lon="-97.954199" changeset="false"><tag k="addr:street" v="San Remo Boulevard"/><tag k="addr:housenumber" v="200"/><tag k="coa:place_id" v="3335360"/></node><node id="-400" lat="30.367196" lon="-97.955994" changeset="false"><tag k="addr:street" v="Bellagio Drive"/><tag k="addr:housenumber" v="113"/><tag k="coa:place_id" v="3301898"/></node><node id="-401" lat="30.368131" lon="-97.955814" changeset="false"><tag k="addr:street" v="Bellagio Drive"/><tag k="addr:housenumber" v="206"/><tag k="coa:place_id" v="3301906"/></node><node id="-402" lat="30.358133" lon="-97.962615" changeset="false"><tag k="addr:street" v="Confidence Cove"/><tag k="addr:housenumber" v="103"/><tag k="coa:place_id" v="140113"/></node><node id="-403" lat="30.359693" lon="-97.967114" changeset="false"><tag k="addr:street" v="Clubhouse Drive"/><tag k="addr:housenumber" v="104"/><tag k="coa:place_id" v="535954"/></node><node id="-404" lat="30.359685" lon="-97.973987" changeset="false"><tag k="addr:street" v="South el Dorado"/><tag k="addr:housenumber" v="3387"/><tag k="coa:place_id" v="405441"/></node><node id="-405" lat="30.352061" lon="-97.963229" changeset="false"><tag k="addr:street" v="Ranch Road 620,1100"/><tag k="addr:housenumber" v="1110"/><tag k="coa:place_id" v="808941"/></node><node id="-406" lat="30.357741" lon="-97.973673" changeset="false"><tag k="addr:street" v="Royal Oak Lane"/><tag k="addr:housenumber" v="105"/><tag k="coa:place_id" v="707614"/></node><node id="-407" lat="30.360538" lon="-97.964161" changeset="false"><tag k="addr:street" v="Hazeltine Court"/><tag k="addr:housenumber" v="104"/><tag k="coa:place_id" v="3086830"/></node><node id="-408" lat="30.360598" lon="-97.968617" changeset="false"><tag k="addr:street" v="Squires Drive"/><tag k="addr:housenumber" v="108"/><tag k="coa:place_id" v="173121"/></node><node id="-409" lat="30.3545" lon="-97.975748" changeset="false"><tag k="addr:street" v="Rolling Green Drive"/><tag k="addr:housenumber" v="715"/><tag k="coa:place_id" v="116094"/></node><node id="-410" lat="30.359242" lon="-97.974404" changeset="false"><tag k="addr:street" v="South el Dorado"/><tag k="addr:housenumber" v="3383"/><tag k="coa:place_id" v="364719"/></node><node id="-411" lat="30.358925" lon="-97.974686" changeset="false"><tag k="addr:street" v="South el Dorado"/><tag k="addr:housenumber" v="3380"/><tag k="coa:place_id" v="352731"/></node><node id="-412" lat="30.360102" lon="-97.958777" changeset="false"><tag k="addr:street" v="Montagna Cove"/><tag k="addr:housenumber" v="101"/><tag k="coa:place_id" v="3094420"/></node><node id="-413" lat="30.343634" lon="-97.970362" changeset="false"><tag k="addr:street" v="Ranch Road 620,1100"/><tag k="addr:housenumber" v="2200"/><tag k="coa:place_id" v="878270"/></node><node id="-414" lat="30.375104" lon="-97.96286" changeset="false"><tag k="addr:street" v="Cedar Hurst Lane"/><tag k="addr:housenumber" v="311"/><tag k="coa:place_id" v="743595"/></node><node id="-415" lat="30.356199" lon="-97.975115" changeset="false"><tag k="addr:street" v="Lakeway Boulevard"/><tag k="addr:housenumber" v="2017"/><tag k="coa:place_id" v="117465"/></node><node id="-416" lat="30.35581" lon="-97.965202" changeset="false"><tag k="addr:street" v="Sun Valley Court"/><tag k="addr:housenumber" v="1601"/><tag k="coa:place_id" v="200337"/></node><node id="-417" lat="30.361447" lon="-97.959616" changeset="false"><tag k="addr:street" v="Bella Montagna Circle"/><tag k="addr:housenumber" v="205"/><tag k="coa:place_id" v="3094427"/></node><node id="-418" lat="30.361551" lon="-97.96652" changeset="false"><tag k="addr:street" v="Clubhouse Drive"/><tag k="addr:housenumber" v="118"/><tag k="coa:place_id" v="3073486"/></node><node id="-419" lat="30.354524" lon="-97.965215" changeset="false"><tag k="addr:street" v="Flint Court"/><tag k="addr:housenumber" v="1609"/><tag k="coa:place_id" v="548403"/></node><node id="-420" lat="30.346721" lon="-97.965195" changeset="false"><tag k="addr:street" v="Ranch Road 620,1100"/><tag k="addr:housenumber" v="1600"/><tag k="coa:place_id" v="5216326"/></node><node id="-421" lat="30.363215" lon="-97.962003" changeset="false"><tag k="addr:street" v="Mineola Court"/><tag k="addr:housenumber" v="104"/><tag k="coa:place_id" v="177661"/></node><node id="-422" lat="30.350351" lon="-97.966681" changeset="false"><tag k="addr:street" v="Rolling Green Drive"/><tag k="addr:housenumber" v="301"/><tag k="coa:place_id" v="148348"/></node><node id="-423" lat="30.353358" lon="-97.964216" changeset="false"><tag k="addr:street" v="Crest View Drive"/><tag k="addr:housenumber" v="109"/><tag k="coa:place_id" v="3085106"/></node><node id="-424" lat="30.362024" lon="-97.961158" changeset="false"><tag k="addr:street" v="Long Wood Avenue"/><tag k="addr:housenumber" v="107"/><tag k="coa:place_id" v="116879"/></node><node id="-425" lat="30.340976" lon="-97.970738" changeset="false"><tag k="addr:street" v="Lohmans Crossing Road"/><tag k="addr:housenumber" v="2063"/><tag k="coa:place_id" v="409738"/></node><node id="-426" lat="30.352712" lon="-97.970304" changeset="false"><tag k="addr:street" v="Rolling Green Drive"/><tag k="addr:housenumber" v="510"/><tag k="coa:place_id" v="802725"/></node><node id="-427" lat="30.355045" lon="-97.963208" changeset="false"><tag k="addr:street" v="Lakeway Boulevard"/><tag k="addr:housenumber" v="1502"/><tag k="coa:place_id" v="205777"/></node><node id="-428" lat="30.35533" lon="-97.963769" changeset="false"><tag k="addr:street" v="Lakeway Boulevard"/><tag k="addr:housenumber" v="1602"/><tag k="coa:place_id" v="1163768"/></node><node id="-429" lat="30.362229" lon="-97.97337" changeset="false"><tag k="addr:street" v="El Rio Drive"/><tag k="addr:housenumber" v="103"/><tag k="coa:place_id" v="172366"/></node><node id="-430" lat="30.36189" lon="-97.95974" changeset="false"><tag k="addr:street" v="Bella Montagna Circle"/><tag k="addr:housenumber" v="207"/><tag k="coa:place_id" v="3094428"/></node><node id="-431" lat="30.359353" lon="-97.974303" changeset="false"><tag k="addr:street" v="South el Dorado"/><tag k="addr:housenumber" v="3384"/><tag k="coa:place_id" v="381483"/></node><node id="-432" lat="30.359263" lon="-97.969895" changeset="false"><tag k="addr:street" v="Blue Lake Cove"/><tag k="addr:housenumber" v="101"/><tag k="coa:place_id" v="354298"/></node><node id="-433" lat="30.358864" lon="-97.975221" changeset="false"><tag k="addr:street" v="Saltillo Court"/><tag k="addr:housenumber" v="3399"/><tag k="coa:place_id" v="420285"/></node><node id="-434" lat="30.358781" lon="-97.97476" changeset="false"><tag k="addr:street" v="South el Dorado"/><tag k="addr:housenumber" v="3379"/><tag k="coa:place_id" v="314997"/></node><node id="-435" lat="30.358686" lon="-97.974848" changeset="false"><tag k="addr:street" v="South el Dorado"/><tag k="addr:housenumber" v="3378"/><tag k="coa:place_id" v="314991"/></node><node id="-436" lat="30.354024" lon="-97.972869" changeset="false"><tag k="addr:street" v="Rolling Green Drive"/><tag k="addr:housenumber" v="612"/><tag k="coa:place_id" v="3083338"/></node><node id="-437" lat="30.35392" lon="-97.975578" changeset="false"><tag k="addr:street" v="Show Low Court"/><tag k="addr:housenumber" v="709"/><tag k="coa:place_id" v="390609"/></node><node id="-438" lat="30.353745" lon="-97.972347" changeset="false"><tag k="addr:street" v="Rolling Green Drive"/><tag k="addr:housenumber" v="608"/><tag k="coa:place_id" v="518301"/></node><node id="-439" lat="30.37411" lon="-97.962195" changeset="false"><tag k="addr:street" v="Bunny Hop Trail"/><tag k="addr:housenumber" v="303"/><tag k="coa:place_id" v="218175"/></node><node id="-440" lat="30.374003" lon="-97.962968" changeset="false"><tag k="addr:street" v="Cedar Hurst Lane"/><tag k="addr:housenumber" v="234"/><tag k="coa:place_id" v="145564"/></node><node id="-441" lat="30.372197" lon="-97.961519" changeset="false"><tag k="addr:street" v="Carefree Circle"/><tag k="addr:housenumber" v="124"/><tag k="coa:place_id" v="398464"/></node><node id="-442" lat="30.361346" lon="-97.963827" changeset="false"><tag k="addr:street" v="Cheerful Court"/><tag k="addr:housenumber" v="102"/><tag k="coa:place_id" v="1103127"/></node><node id="-443" lat="30.361042" lon="-97.965384" changeset="false"><tag k="addr:street" v="Hazeltine Drive"/><tag k="addr:housenumber" v="321"/><tag k="coa:place_id" v="3051623"/></node><node id="-444" lat="30.356678" lon="-97.96691" changeset="false"><tag k="addr:street" v="Cando Court"/><tag k="addr:housenumber" v="1805"/><tag k="coa:place_id" v="485452"/></node><node id="-445" lat="30.356847" lon="-97.962039" changeset="false"><tag k="addr:street" v="Golf Crest Lane"/><tag k="addr:housenumber" v="207"/><tag k="coa:place_id" v="163669"/></node><node id="-446" lat="30.352368" lon="-97.96749" changeset="false"><tag k="addr:street" v="Top O the Lake Drive"/><tag k="addr:housenumber" v="204"/><tag k="coa:place_id" v="123948"/></node><node id="-447" lat="30.363555" lon="-97.953201" changeset="false"><tag k="addr:street" v="Bella Montagna Circle"/><tag k="addr:housenumber" v="421"/><tag k="coa:place_id" v="3094474"/></node><node id="-448" lat="30.372079" lon="-97.96212" changeset="false"><tag k="addr:street" v="Carefree Circle"/><tag k="addr:housenumber" v="127"/><tag k="coa:place_id" v="821925"/></node><node id="-449" lat="30.370742" lon="-97.96089" changeset="false"><tag k="addr:street" v="Carefree Circle"/><tag k="addr:housenumber" v="134"/><tag k="coa:place_id" v="3084962"/></node><node id="-450" lat="30.370224" lon="-97.960721" changeset="false"><tag k="addr:street" v="Carefree Circle"/><tag k="addr:housenumber" v="110"/><tag k="coa:place_id" v="3084965"/></node><node id="-451" lat="30.355019" lon="-97.968492" changeset="false"><tag k="addr:street" v="Cold Water Lane"/><tag k="addr:housenumber" v="112"/><tag k="coa:place_id" v="3085088"/></node><node id="-452" lat="30.354994" lon="-97.977585" changeset="false"><tag k="addr:street" v="Cedar Rock Court"/><tag k="addr:housenumber" v="731"/><tag k="coa:place_id" v="125218"/></node><node id="-453" lat="30.350407" lon="-97.963821" changeset="false"><tag k="addr:street" v="Ranch Road 620,1100"/><tag k="addr:housenumber" v="1308"/><tag k="coa:place_id" v="365421"/></node><node id="-454" lat="30.363811" lon="-97.95353" changeset="false"><tag k="addr:street" v="Bella Montagna Circle"/><tag k="addr:housenumber" v="419"/><tag k="coa:place_id" v="3094489"/></node><node id="-455" lat="30.360801" lon="-97.963824" changeset="false"><tag k="addr:street" v="Cheerful Court"/><tag k="addr:housenumber" v="103"/><tag k="coa:place_id" v="3072293"/></node><node id="-456" lat="30.358317" lon="-97.975088" changeset="false"><tag k="addr:street" v="South el Dorado"/><tag k="addr:housenumber" v="3375"/><tag k="coa:place_id" v="314955"/></node><node id="-457" lat="30.374187" lon="-97.963216" changeset="false"><tag k="addr:street" v="Cedar Hurst Lane"/><tag k="addr:housenumber" v="236"/><tag k="coa:place_id" v="587810"/></node><node id="-458" lat="30.373829" lon="-97.962542" changeset="false"><tag k="addr:street" v="Cedar Hurst Lane"/><tag k="addr:housenumber" v="222"/><tag k="coa:place_id" v="587816"/></node><node id="-459" lat="30.355414" lon="-97.97404" changeset="false"><tag k="addr:street" v="Rogues Roost Drive"/><tag k="addr:housenumber" v="104"/><tag k="coa:place_id" v="582165"/></node><node id="-460" lat="30.379135" lon="-97.958288" changeset="false"><tag k="addr:street" v="Sunset Park Cove"/><tag k="addr:housenumber" v="9"/><tag k="coa:place_id" v="214674"/></node><node id="-461" lat="30.353694" lon="-97.964673" changeset="false"><tag k="addr:street" v="Crest View Drive"/><tag k="addr:housenumber" v="110"/><tag k="coa:place_id" v="3079645"/></node><node id="-462" lat="30.359911" lon="-97.955227" changeset="false"><tag k="addr:street" v="Bella Montagna Circle"/><tag k="addr:housenumber" v="510"/><tag k="coa:place_id" v="3094450"/></node><node id="-463" lat="30.356755" lon="-97.965857" changeset="false"><tag k="addr:street" v="Idle Hour Cove"/><tag k="addr:housenumber" v="1719"/><tag k="coa:place_id" v="785655"/></node><node id="-464" lat="30.356072" lon="-97.96685" changeset="false"><tag k="addr:street" v="Idle Hour Cove"/><tag k="addr:housenumber" v="1711"/><tag k="coa:place_id" v="600430"/></node><node id="-465" lat="30.355946" lon="-97.968769" changeset="false"><tag k="addr:street" v="Cold Water Lane"/><tag k="addr:housenumber" v="106"/><tag k="coa:place_id" v="3085090"/></node><node id="-466" lat="30.356201" lon="-97.968956" changeset="false"><tag k="addr:street" v="Cold Water Lane"/><tag k="addr:housenumber" v="104"/><tag k="coa:place_id" v="457144"/></node><node id="-467" lat="30.355262" lon="-97.968702" changeset="false"><tag k="addr:street" v="Cold Water Lane"/><tag k="addr:housenumber" v="110"/><tag k="coa:place_id" v="3085087"/></node><node id="-468" lat="30.351545" lon="-97.969509" changeset="false"><tag k="addr:street" v="Guyan Drive"/><tag k="addr:housenumber" v="415"/><tag k="coa:place_id" v="131753"/></node><node id="-469" lat="30.352735" lon="-97.971595" changeset="false"><tag k="addr:street" v="Rolling Green Drive"/><tag k="addr:housenumber" v="517"/><tag k="coa:place_id" v="311277"/></node><node id="-470" lat="30.352469" lon="-97.969808" changeset="false"><tag k="addr:street" v="Rolling Green Drive"/><tag k="addr:housenumber" v="506"/><tag k="coa:place_id" v="3083337"/></node><node id="-471" lat="30.357136" lon="-97.969233" changeset="false"><tag k="addr:street" v="Lakeway Boulevard"/><tag k="addr:housenumber" v="1818"/><tag k="coa:place_id" v="225127"/></node><node id="-472" lat="30.351145" lon="-97.963242" changeset="false"><tag k="addr:street" v="Ranch Road 620,1100"/><tag k="addr:housenumber" v="1204"/><tag k="coa:place_id" v="878360"/></node><node id="-473" lat="30.363215" lon="-97.96597" changeset="false"><tag k="addr:street" v="Clubhouse Drive"/><tag k="addr:housenumber" v="128"/><tag k="coa:place_id" v="139104"/></node><node id="-474" lat="30.360626" lon="-97.959244" changeset="false"><tag k="addr:street" v="Montagna Cove"/><tag k="addr:housenumber" v="102"/><tag k="coa:place_id" v="3094421"/></node><node id="-475" lat="30.360689" lon="-97.972324" changeset="false"><tag k="addr:street" v="El Rio Drive"/><tag k="addr:housenumber" v="211"/><tag k="coa:place_id" v="555867"/></node><node id="-476" lat="30.362486" lon="-97.973127" changeset="false"><tag k="addr:street" v="Duck Lake Drive"/><tag k="addr:housenumber" v="404"/><tag k="coa:place_id" v="119925"/></node><node id="-477" lat="30.360257" lon="-97.956368" changeset="false"><tag k="addr:street" v="Piazza Vetta Drive"/><tag k="addr:housenumber" v="112"/><tag k="coa:place_id" v="3094461"/></node><node id="-478" lat="30.365181" lon="-97.956621" changeset="false"><tag k="addr:street" v="Bella Montagna Circle"/><tag k="addr:housenumber" v="407"/><tag k="coa:place_id" v="3094479"/></node><node id="-479" lat="30.361582" lon="-97.967653" changeset="false"><tag k="addr:street" v="Tantallon Court"/><tag k="addr:housenumber" v="106"/><tag k="coa:place_id" v="143447"/></node><node id="-480" lat="30.358621" lon="-97.97146" changeset="false"><tag k="addr:street" v="Royal Oak Lane"/><tag k="addr:housenumber" v="118"/><tag k="coa:place_id" v="752692"/></node><node id="-481" lat="30.361498" lon="-97.956529" changeset="false"><tag k="addr:street" v="Piazza Vetta Drive"/><tag k="addr:housenumber" v="105"/><tag k="coa:place_id" v="3094455"/></node><node id="-482" lat="30.36084" lon="-97.955904" changeset="false"><tag k="addr:street" v="Piazza Vetta Drive"/><tag k="addr:housenumber" v="109"/><tag k="coa:place_id" v="3093913"/></node><node id="-483" lat="30.359678" lon="-97.977319" changeset="false"><tag k="addr:street" v="Duck Lake Drive"/><tag k="addr:housenumber" v="108"/><tag k="coa:place_id" v="218120"/></node><node id="-484" lat="30.38138" lon="-97.960296" changeset="false"><tag k="addr:street" v="Stewart Road"/><tag k="addr:housenumber" v="16501"/><tag k="coa:place_id" v="143208"/></node><node id="-485" lat="30.354121" lon="-97.968879" changeset="false"><tag k="addr:street" v="Top O the Lake Drive"/><tag k="addr:housenumber" v="127"/><tag k="coa:place_id" v="166517"/></node><node id="-486" lat="30.357111" lon="-97.966531" changeset="false"><tag k="addr:street" v="Lakeway Boulevard"/><tag k="addr:housenumber" v="1723"/><tag k="coa:place_id" v="437007"/></node><node id="-487" lat="30.356989" lon="-97.961993" changeset="false"><tag k="addr:street" v="Golf Crest Lane"/><tag k="addr:housenumber" v="209"/><tag k="coa:place_id" v="3086792"/></node><node id="-488" lat="30.359522" lon="-97.955754" changeset="false"><tag k="addr:street" v="Bella Montagna Circle"/><tag k="addr:housenumber" v="512"/><tag k="coa:place_id" v="3094451"/></node><node id="-489" lat="30.356808" lon="-97.97605" changeset="false"><tag k="addr:street" v="Lakeway Boulevard"/><tag k="addr:housenumber" v="2025"/><tag k="coa:place_id" v="616683"/></node><node id="-490" lat="30.35287" lon="-97.964597" changeset="false"><tag k="addr:street" v="Crest View Drive"/><tag k="addr:housenumber" v="113"/><tag k="coa:place_id" v="1047357"/></node><node id="-491" lat="30.370842" lon="-97.961832" changeset="false"><tag k="addr:street" v="Carefree Circle"/><tag k="addr:housenumber" v="116"/><tag k="coa:place_id" v="3084960"/></node><node id="-492" lat="30.368799" lon="-97.961297" changeset="false"><tag k="addr:street" v="Clubhouse Drive"/><tag k="addr:housenumber" v="223"/><tag k="coa:place_id" v="1156274"/></node><node id="-493" lat="30.35579" lon="-97.964509" changeset="false"><tag k="addr:street" v="Lakeway Boulevard"/><tag k="addr:housenumber" v="1608"/><tag k="coa:place_id" v="128942"/></node><node id="-494" lat="30.355053" lon="-97.970646" changeset="false"><tag k="addr:street" v="Top O the Lake Drive"/><tag k="addr:housenumber" v="109"/><tag k="coa:place_id" v="554343"/></node><node id="-495" lat="30.358889" lon="-97.956188" changeset="false"><tag k="addr:street" v="Ranch Road 620,1100"/><tag k="addr:housenumber" v="600"/><tag k="coa:place_id" v="3070242"/></node><node id="-496" lat="30.362799" lon="-97.953795" changeset="false"><tag k="addr:street" v="Bella Montagna Circle"/><tag k="addr:housenumber" v="425 1/2"/><tag k="coa:place_id" v="3129508"/></node><node id="-497" lat="30.35287" lon="-97.970523" changeset="false"><tag k="addr:street" v="Rolling Green Drive"/><tag k="addr:housenumber" v="512"/><tag k="coa:place_id" v="229188"/></node><node id="-498" lat="30.359641" lon="-97.9599" changeset="false"><tag k="addr:street" v="Montagna Cove"/><tag k="addr:housenumber" v="105"/><tag k="coa:place_id" v="3094424"/></node><node id="-499" lat="30.355255" lon="-97.974113" changeset="false"><tag k="addr:street" v="Rogues Roost Drive"/><tag k="addr:housenumber" v="106"/><tag k="coa:place_id" v="150108"/></node><node id="-500" lat="30.362638" lon="-97.96179" changeset="false"><tag k="addr:street" v="Mineola Court"/><tag k="addr:housenumber" v="103"/><tag k="coa:place_id" v="182728"/></node><node id="-501" lat="30.3592" lon="-97.968042" changeset="false"><tag k="addr:street" v="Duck Lake Drive"/><tag k="addr:housenumber" v="705"/><tag k="coa:place_id" v="1125547"/></node><node id="-502" lat="30.358963" lon="-97.969009" changeset="false"><tag k="addr:street" v="Duck Lake Court"/><tag k="addr:housenumber" v="706"/><tag k="coa:place_id" v="1164622"/></node><node id="-503" lat="30.36143" lon="-97.974207" changeset="false"><tag k="addr:street" v="White Sands Drive"/><tag k="addr:housenumber" v="122"/><tag k="coa:place_id" v="246238"/></node><node id="-504" lat="30.358405" lon="-97.958162" changeset="false"><tag k="addr:street" v="Ranch Road 620,1100"/><tag k="addr:housenumber" v="700"/><tag k="coa:place_id" v="3117069"/></node><node id="-505" lat="30.352898" lon="-97.966963" changeset="false"><tag k="addr:street" v="Otter Creek Court"/><tag k="addr:housenumber" v="217"/><tag k="coa:place_id" v="718036"/></node><node id="-506" lat="30.353282" lon="-97.972601" changeset="false"><tag k="addr:street" v="Rolling Green Drive"/><tag k="addr:housenumber" v="603"/><tag k="coa:place_id" v="135411"/></node><node id="-507" lat="30.353181" lon="-97.967292" changeset="false"><tag k="addr:street" v="Otter Creek Court"/><tag k="addr:housenumber" v="203"/><tag k="coa:place_id" v="158218"/></node><node id="-508" lat="30.353145" lon="-97.971142" changeset="false"><tag k="addr:street" v="Rolling Green Drive"/><tag k="addr:housenumber" v="516"/><tag k="coa:place_id" v="606303"/></node><node id="-509" lat="30.361283" lon="-97.9548" changeset="false"><tag k="addr:street" v="Bella Montagna Circle"/><tag k="addr:housenumber" v="504"/><tag k="coa:place_id" v="3094447"/></node><node id="-510" lat="30.368221" lon="-97.961403" changeset="false"><tag k="addr:street" v="Clubhouse Drive"/><tag k="addr:housenumber" v="222"/><tag k="coa:place_id" v="1156273"/></node><node id="-511" lat="30.368125" lon="-97.962039" changeset="false"><tag k="addr:street" v="Clubhouse Drive"/><tag k="addr:housenumber" v="218"/><tag k="coa:place_id" v="562132"/></node><node id="-512" lat="30.362413" lon="-97.959727" changeset="false"><tag k="addr:street" v="Bella Montagna Circle"/><tag k="addr:housenumber" v="301"/><tag k="coa:place_id" v="3094429"/></node><node id="-513" lat="30.360796" lon="-97.964026" changeset="false"><tag k="addr:street" v="Cheerful Court"/><tag k="addr:housenumber" v="105"/><tag k="coa:place_id" v="3072294"/></node><node id="-514" lat="30.36454" lon="-97.958821" changeset="false"><tag k="addr:street" v="Bella Montagna Circle"/><tag k="addr:housenumber" v="310"/><tag k="coa:place_id" v="3094438"/></node><node id="-515" lat="30.362819" lon="-97.955184" changeset="false"><tag k="addr:street" v="Palazza Alto Drive"/><tag k="addr:housenumber" v="207"/><tag k="coa:place_id" v="3094472"/></node><node id="-516" lat="30.358668" lon="-97.968573" changeset="false"><tag k="addr:street" v="Duck Lake Court"/><tag k="addr:housenumber" v="712"/><tag k="coa:place_id" v="3121917"/></node><node id="-517" lat="30.359948" lon="-97.971339" changeset="false"><tag k="addr:street" v="Duck Lake Drive"/><tag k="addr:housenumber" v="506"/><tag k="coa:place_id" v="212914"/></node><node id="-518" lat="30.353863" lon="-97.974729" changeset="false"><tag k="addr:street" v="Show Low Court"/><tag k="addr:housenumber" v="705"/><tag k="coa:place_id" v="331816"/></node><node id="-519" lat="30.363511" lon="-97.95486" changeset="false"><tag k="addr:street" v="Bella Montagna Circle"/><tag k="addr:housenumber" v="412"/><tag k="coa:place_id" v="3094484"/></node><node id="-520" lat="30.363441" lon="-97.956894" changeset="false"><tag k="addr:street" v="Palazza Alto Drive"/><tag k="addr:housenumber" v="201"/><tag k="coa:place_id" v="3094466"/></node><node id="-521" lat="30.347087" lon="-97.965851" changeset="false"><tag k="addr:street" v="Ranch Road 620,1100"/><tag k="addr:housenumber" v="1518"/><tag k="coa:place_id" v="271582"/></node><node id="-522" lat="30.346038" lon="-97.965554" changeset="false"><tag k="addr:street" v="Ranch Road 620,1100"/><tag k="addr:housenumber" v="1700"/><tag k="coa:place_id" v="211477"/></node><node id="-523" lat="30.359905" lon="-97.973978" changeset="false"><tag k="addr:street" v="South el Dorado"/><tag k="addr:housenumber" v="3388"/><tag k="coa:place_id" v="409575"/></node><node id="-524" lat="30.358718" lon="-97.97036" changeset="false"><tag k="addr:street" v="Blue Lake Cove"/><tag k="addr:housenumber" v="111"/><tag k="coa:place_id" v="1018821"/></node><node id="-525" lat="30.354754" lon="-97.964593" changeset="false"><tag k="addr:street" v="Flint Court"/><tag k="addr:housenumber" v="1605"/><tag k="coa:place_id" v="148354"/></node><node id="-526" lat="30.35713" lon="-97.97245" changeset="false"><tag k="addr:street" v="Lakeway Boulevard"/><tag k="addr:housenumber" v="1914"/><tag k="coa:place_id" v="115896"/></node><node id="-527" lat="30.370345" lon="-97.954012" changeset="false"><tag k="addr:street" v="Bellagio Drive"/><tag k="addr:housenumber" v="314"/><tag k="coa:place_id" v="3301947"/></node><node id="-528" lat="30.353014" lon="-97.966714" changeset="false"><tag k="addr:street" v="Otter Creek Court"/><tag k="addr:housenumber" v="215"/><tag k="coa:place_id" v="716980"/></node><node id="-529" lat="30.354992" lon="-97.976759" changeset="false"><tag k="addr:street" v="Cedar Rock Court"/><tag k="addr:housenumber" v="725"/><tag k="coa:place_id" v="143566"/></node><node id="-530" lat="30.354404" lon="-97.961475" changeset="false"><tag k="addr:street" v="Ranch Road 620,1100"/><tag k="addr:housenumber" v="912"/><tag k="coa:place_id" v="172515"/></node><node id="-531" lat="30.354491" lon="-97.973583" changeset="false"><tag k="addr:street" v="Rolling Green Drive"/><tag k="addr:housenumber" v="616"/><tag k="coa:place_id" v="705771"/></node><node id="-532" lat="30.371462" lon="-97.958684" changeset="false"><tag k="addr:street" v="Lake Como Drive"/><tag k="addr:housenumber" v="207"/><tag k="coa:place_id" v="3301598"/></node><node id="-533" lat="30.371568" lon="-97.958682" changeset="false"><tag k="addr:street" v="Lake Como Drive"/><tag k="addr:housenumber" v="209"/><tag k="coa:place_id" v="3301600"/></node><node id="-534" lat="30.373095" lon="-97.959541" changeset="false"><tag k="addr:street" v="Lake Como Drive"/><tag k="addr:housenumber" v="225"/><tag k="coa:place_id" v="3301616"/></node><node id="-535" lat="30.362573" lon="-97.956244" changeset="false"><tag k="addr:street" v="Palazza Alto Drive"/><tag k="addr:housenumber" v="204"/><tag k="coa:place_id" v="3094469"/></node><node id="-536" lat="30.353671" lon="-97.964022" changeset="false"><tag k="addr:street" v="Crest View Drive"/><tag k="addr:housenumber" v="107"/><tag k="coa:place_id" v="3085104"/></node><node id="-537" lat="30.362567" lon="-97.962089" changeset="false"><tag k="addr:street" v="Mineola Court"/><tag k="addr:housenumber" v="105"/><tag k="coa:place_id" v="751330"/></node><node id="-538" lat="30.371323" lon="-97.953252" changeset="false"><tag k="addr:street" v="San Remo Boulevard"/><tag k="addr:housenumber" v="830"/><tag k="coa:place_id" v="3321794"/></node><node id="-539" lat="30.371404" lon="-97.953271" changeset="false"><tag k="addr:street" v="San Remo Boulevard"/><tag k="addr:housenumber" v="832"/><tag k="coa:place_id" v="3321795"/></node><node id="-540" lat="30.371452" lon="-97.953351" changeset="false"><tag k="addr:street" v="San Remo Boulevard"/><tag k="addr:housenumber" v="834"/><tag k="coa:place_id" v="3321796"/></node><node id="-541" lat="30.369148" lon="-97.95443" changeset="false"><tag k="addr:street" v="Roberto Drive"/><tag k="addr:housenumber" v="143"/><tag k="coa:place_id" v="3321740"/></node><node id="-542" lat="30.369088" lon="-97.954497" changeset="false"><tag k="addr:street" v="Roberto Drive"/><tag k="addr:housenumber" v="141"/><tag k="coa:place_id" v="3321739"/></node><node id="-543" lat="30.369208" lon="-97.954368" changeset="false"><tag k="addr:street" v="Roberto Drive"/><tag k="addr:housenumber" v="145"/><tag k="coa:place_id" v="3321741"/></node><node id="-544" lat="30.36912" lon="-97.954121" changeset="false"><tag k="addr:street" v="Roberto Drive"/><tag k="addr:housenumber" v="149"/><tag k="coa:place_id" v="3321742"/></node><node id="-545" lat="30.369191" lon="-97.953957" changeset="false"><tag k="addr:street" v="Roberto Drive"/><tag k="addr:housenumber" v="153"/><tag k="coa:place_id" v="3321744"/></node><node id="-546" lat="30.369156" lon="-97.954035" changeset="false"><tag k="addr:street" v="Roberto Drive"/><tag k="addr:housenumber" v="151"/><tag k="coa:place_id" v="3321743"/></node><node id="-547" lat="30.369258" lon="-97.953583" changeset="false"><tag k="addr:street" v="Roberto Drive"/><tag k="addr:housenumber" v="165"/><tag k="coa:place_id" v="3321749"/></node><node id="-548" lat="30.369262" lon="-97.953396" changeset="false"><tag k="addr:street" v="Roberto Drive"/><tag k="addr:housenumber" v="169"/><tag k="coa:place_id" v="3321751"/></node><node id="-549" lat="30.369252" lon="-97.953487" changeset="false"><tag k="addr:street" v="Roberto Drive"/><tag k="addr:housenumber" v="167"/><tag k="coa:place_id" v="3321750"/></node><node id="-550" lat="30.369473" lon="-97.953737" changeset="false"><tag k="addr:street" v="Roberto Drive"/><tag k="addr:housenumber" v="161"/><tag k="coa:place_id" v="3321747"/></node><node id="-551" lat="30.369452" lon="-97.953925" changeset="false"><tag k="addr:street" v="Roberto Drive"/><tag k="addr:housenumber" v="157"/><tag k="coa:place_id" v="3321745"/></node><node id="-552" lat="30.36945" lon="-97.953823" changeset="false"><tag k="addr:street" v="Roberto Drive"/><tag k="addr:housenumber" v="159"/><tag k="coa:place_id" v="3321746"/></node><node id="-553" lat="30.369446" lon="-97.953235" changeset="false"><tag k="addr:street" v="Roberto Drive"/><tag k="addr:housenumber" v="173"/><tag k="coa:place_id" v="3321752"/></node><node id="-554" lat="30.369391" lon="-97.953057" changeset="false"><tag k="addr:street" v="Roberto Drive"/><tag k="addr:housenumber" v="177"/><tag k="coa:place_id" v="3321754"/></node><node id="-555" lat="30.369396" lon="-97.953157" changeset="false"><tag k="addr:street" v="Roberto Drive"/><tag k="addr:housenumber" v="175"/><tag k="coa:place_id" v="3321753"/></node><node id="-556" lat="30.368287" lon="-97.953565" changeset="false"><tag k="addr:street" v="San Remo Boulevard"/><tag k="addr:housenumber" v="404"/><tag k="coa:place_id" v="3321704"/></node><node id="-557" lat="30.368213" lon="-97.953607" changeset="false"><tag k="addr:street" v="San Remo Boulevard"/><tag k="addr:housenumber" v="402"/><tag k="coa:place_id" v="3321703"/></node><node id="-558" lat="30.368358" lon="-97.953526" changeset="false"><tag k="addr:street" v="San Remo Boulevard"/><tag k="addr:housenumber" v="406"/><tag k="coa:place_id" v="3321705"/></node><node id="-559" lat="30.368288" lon="-97.954614" changeset="false"><tag k="addr:street" v="Roberto Drive"/><tag k="addr:housenumber" v="119"/><tag k="coa:place_id" v="3321726"/></node><node id="-560" lat="30.368369" lon="-97.954635" changeset="false"><tag k="addr:street" v="Roberto Drive"/><tag k="addr:housenumber" v="121"/><tag k="coa:place_id" v="3321727"/></node><node id="-561" lat="30.368207" lon="-97.954616" changeset="false"><tag k="addr:street" v="Roberto Drive"/><tag k="addr:housenumber" v="117"/><tag k="coa:place_id" v="3321725"/></node><node id="-562" lat="30.368527" lon="-97.954822" changeset="false"><tag k="addr:street" v="Roberto Drive"/><tag k="addr:housenumber" v="125"/><tag k="coa:place_id" v="3321733"/></node><node id="-563" lat="30.368598" lon="-97.954805" changeset="false"><tag k="addr:street" v="Roberto Drive"/><tag k="addr:housenumber" v="127"/><tag k="coa:place_id" v="3321734"/></node><node id="-564" lat="30.368685" lon="-97.95479" changeset="false"><tag k="addr:street" v="Roberto Drive"/><tag k="addr:housenumber" v="129"/><tag k="coa:place_id" v="3321735"/></node><node id="-565" lat="30.368717" lon="-97.954506" changeset="false"><tag k="addr:street" v="Roberto Drive"/><tag k="addr:housenumber" v="133"/><tag k="coa:place_id" v="3321736"/></node><node id="-566" lat="30.368861" lon="-97.954432" changeset="false"><tag k="addr:street" v="Roberto Drive"/><tag k="addr:housenumber" v="137"/><tag k="coa:place_id" v="3321738"/></node><node id="-567" lat="30.368785" lon="-97.954464" changeset="false"><tag k="addr:street" v="Roberto Drive"/><tag k="addr:housenumber" v="135"/><tag k="coa:place_id" v="3321737"/></node><node id="-568" lat="30.367807" lon="-97.954483" changeset="false"><tag k="addr:street" v="Roberto Drive"/><tag k="addr:housenumber" v="109"/><tag k="coa:place_id" v="3321722"/></node><node id="-569" lat="30.367888" lon="-97.954511" changeset="false"><tag k="addr:street" v="Roberto Drive"/><tag k="addr:housenumber" v="111"/><tag k="coa:place_id" v="3321723"/></node><node id="-570" lat="30.367954" lon="-97.954545" changeset="false"><tag k="addr:street" v="Roberto Drive"/><tag k="addr:housenumber" v="113"/><tag k="coa:place_id" v="3321724"/></node><node id="-571" lat="30.368397" lon="-97.960811" changeset="false"><tag k="addr:street" v="Clubhouse Drive"/><tag k="addr:housenumber" v="226"/><tag k="coa:place_id" v="577786"/></node><node id="-572" lat="30.368432" lon="-97.960765" changeset="false"><tag k="addr:street" v="Long Wood Avenue"/><tag k="addr:housenumber" v="149"/><tag k="coa:place_id" v="132412"/></node><node id="-573" lat="30.358404" lon="-97.961779" changeset="false"><tag k="addr:street" v="Golf Crest Lane"/><tag k="addr:housenumber" v="306"/><tag k="coa:place_id" v="115338"/></node><node id="-574" lat="30.358282" lon="-97.961696" changeset="false"><tag k="addr:street" v="Golf Crest Lane"/><tag k="addr:housenumber" v="304"/><tag k="coa:place_id" v="1100369"/></node><node id="-575" lat="30.350181" lon="-97.965326" changeset="false"><tag k="addr:street" v="Ranch Road 620,1100"/><tag k="addr:housenumber" v="1310 1/2"/><tag k="coa:place_id" v="5081923"/></node><node id="-576" lat="30.349731" lon="-97.964954" changeset="false"><tag k="addr:street" v="Ranch Road 620,1100"/><tag k="addr:housenumber" v="1310"/><tag k="coa:place_id" v="278830"/></node><node id="-577" lat="30.342764" lon="-97.969791" changeset="false"><tag k="addr:street" v="Lohmans Crossing Road"/><tag k="addr:housenumber" v="2127"/><tag k="coa:place_id" v="3343623"/></node><node id="-578" lat="30.342565" lon="-97.969362" changeset="false"><tag k="addr:street" v="Lohmans Crossing Road"/><tag k="addr:housenumber" v="2129"/><tag k="coa:place_id" v="3343624"/></node></osm>