<?xml version="1.0" encoding="UTF-8"?><osm version="0.6" generator="github.com/aaronlidman/osm-and-geojson"><node id="-1" lat="30.371615" lon="-97.958138" changeset="false"><tag k="addr:street" v="Lake Como Drive"/><tag k="addr:housenumber" v="210"/><tag k="coa:place_id" v="3301601"/></node><node id="-2" lat="30.371835" lon="-97.958176" changeset="false"><tag k="addr:street" v="Lake Como Drive"/><tag k="addr:housenumber" v="212"/><tag k="coa:place_id" v="3301603"/></node><node id="-3" lat="30.371739" lon="-97.958742" changeset="false"><tag k="addr:street" v="Lake Como Drive"/><tag k="addr:housenumber" v="211"/><tag k="coa:place_id" v="3301602"/></node><node id="-4" lat="30.372006" lon="-97.958287" changeset="false"><tag k="addr:street" v="Lake Como Drive"/><tag k="addr:housenumber" v="214"/><tag k="coa:place_id" v="3301605"/></node><node id="-5" lat="30.372607" lon="-97.958547" changeset="false"><tag k="addr:street" v="Lake Como Drive"/><tag k="addr:housenumber" v="220"/><tag k="coa:place_id" v="3301611"/></node><node id="-6" lat="30.372993" lon="-97.958755" changeset="false"><tag k="addr:street" v="Lake Como Drive"/><tag k="addr:housenumber" v="224"/><tag k="coa:place_id" v="3301615"/></node><node id="-7" lat="30.372792" lon="-97.958709" changeset="false"><tag k="addr:street" v="Lake Como Drive"/><tag k="addr:housenumber" v="222"/><tag k="coa:place_id" v="3301613"/></node><node id="-8" lat="30.372416" lon="-97.958415" changeset="false"><tag k="addr:street" v="Lake Como Drive"/><tag k="addr:housenumber" v="218"/><tag k="coa:place_id" v="3301609"/></node><node id="-9" lat="30.372202" lon="-97.958362" changeset="false"><tag k="addr:street" v="Lake Como Drive"/><tag k="addr:housenumber" v="216"/><tag k="coa:place_id" v="3301607"/></node><node id="-10" lat="30.370753" lon="-97.958665" changeset="false"><tag k="addr:street" v="Lake Como Drive"/><tag k="addr:housenumber" v="201"/><tag k="coa:place_id" v="3301592"/></node><node id="-11" lat="30.369683" lon="-97.958468" changeset="false"><tag k="addr:street" v="Lake Como Drive"/><tag k="addr:housenumber" v="101"/><tag k="coa:place_id" v="3301832"/></node><node id="-12" lat="30.369997" lon="-97.958814" changeset="false"><tag k="addr:street" v="Lake Como Drive"/><tag k="addr:housenumber" v="105"/><tag k="coa:place_id" v="3301836"/></node><node id="-13" lat="30.370184" lon="-97.958086" changeset="false"><tag k="addr:street" v="Lake Como Drive"/><tag k="addr:housenumber" v="106"/><tag k="coa:place_id" v="3301837"/></node><node id="-14" lat="30.369744" lon="-97.958719" changeset="false"><tag k="addr:street" v="Lake Como Drive"/><tag k="addr:housenumber" v="103"/><tag k="coa:place_id" v="3301834"/></node><node id="-15" lat="30.37076" lon="-97.958029" changeset="false"><tag k="addr:street" v="Lake Como Drive"/><tag k="addr:housenumber" v="202"/><tag k="coa:place_id" v="3301593"/></node><node id="-16" lat="30.370985" lon="-97.958009" changeset="false"><tag k="addr:street" v="Lake Como Drive"/><tag k="addr:housenumber" v="204"/><tag k="coa:place_id" v="3301595"/></node><node id="-17" lat="30.371401" lon="-97.958085" changeset="false"><tag k="addr:street" v="Lake Como Drive"/><tag k="addr:housenumber" v="208"/><tag k="coa:place_id" v="3301599"/></node><node id="-18" lat="30.371179" lon="-97.957997" changeset="false"><tag k="addr:street" v="Lake Como Drive"/><tag k="addr:housenumber" v="206"/><tag k="coa:place_id" v="3301597"/></node><node id="-19" lat="30.372721" lon="-97.959275" changeset="false"><tag k="addr:street" v="Lake Como Drive"/><tag k="addr:housenumber" v="221"/><tag k="coa:place_id" v="3301612"/></node><node id="-20" lat="30.372138" lon="-97.958942" changeset="false"><tag k="addr:street" v="Lake Como Drive"/><tag k="addr:housenumber" v="215"/><tag k="coa:place_id" v="3301606"/></node><node id="-21" lat="30.36405" lon="-97.958843" changeset="false"><tag k="addr:street" v="Bella Montagna Circle"/><tag k="addr:housenumber" v="308"/><tag k="coa:place_id" v="3094436"/></node><node id="-22" lat="30.362181" lon="-97.957969" changeset="false"><tag k="addr:street" v="Palazza Alto Drive"/><tag k="addr:housenumber" v="106"/><tag k="coa:place_id" v="3094465"/></node><node id="-23" lat="30.361928" lon="-97.956893" changeset="false"><tag k="addr:street" v="Piazza Vetta Drive"/><tag k="addr:housenumber" v="103"/><tag k="coa:place_id" v="3094453"/></node><node id="-24" lat="30.36313" lon="-97.958061" changeset="false"><tag k="addr:street" v="Palazza Alto Drive"/><tag k="addr:housenumber" v="103"/><tag k="coa:place_id" v="3094462"/></node><node id="-25" lat="30.363061" lon="-97.958839" changeset="false"><tag k="addr:street" v="Bella Montagna Circle"/><tag k="addr:housenumber" v="304"/><tag k="coa:place_id" v="3094432"/></node><node id="-26" lat="30.363527" lon="-97.958856" changeset="false"><tag k="addr:street" v="Bella Montagna Circle"/><tag k="addr:housenumber" v="306"/><tag k="coa:place_id" v="3094434"/></node><node id="-27" lat="30.363451" lon="-97.959711" changeset="false"><tag k="addr:street" v="Bella Montagna Circle"/><tag k="addr:housenumber" v="305"/><tag k="coa:place_id" v="3094433"/></node><node id="-28" lat="30.355519" lon="-97.961548" changeset="false"><tag k="addr:street" v="Ranch Road 620,1100"/><tag k="addr:housenumber" v="900"/><tag k="coa:place_id" v="210131"/></node><node id="-29" lat="30.356696" lon="-97.962213" changeset="false"><tag k="addr:street" v="Golf Crest Lane"/><tag k="addr:housenumber" v="205"/><tag k="coa:place_id" v="166512"/></node><node id="-30" lat="30.359824" lon="-97.965704" changeset="false"><tag k="addr:street" v="Hazeltine Drive"/><tag k="addr:housenumber" v="305"/><tag k="coa:place_id" v="302926"/></node><node id="-31" lat="30.343131" lon="-97.96847" changeset="false"><tag k="addr:street" v="Ranch Road 620,1100"/><tag k="addr:housenumber" v="2110"/><tag k="coa:place_id" v="201724"/></node><node id="-32" lat="30.340677" lon="-97.970479" changeset="false"><tag k="addr:street" v="Ranch Road 620,1100"/><tag k="addr:housenumber" v="2422"/><tag k="coa:place_id" v="3132959"/></node><node id="-33" lat="30.340401" lon="-97.969632" changeset="false"><tag k="addr:street" v="Ranch Road 620,1100"/><tag k="addr:housenumber" v="2404"/><tag k="coa:place_id" v="3106373"/></node><node id="-34" lat="30.339634" lon="-97.970269" changeset="false"><tag k="addr:street" v="Ranch Road 620,1100"/><tag k="addr:housenumber" v="2414"/><tag k="coa:place_id" v="3102120"/></node><node id="-35" lat="30.340847" lon="-97.969403" changeset="false"><tag k="addr:street" v="Ranch Road 620,1100"/><tag k="addr:housenumber" v="2402"/><tag k="coa:place_id" v="3106372"/></node><node id="-36" lat="30.341578" lon="-97.96899" changeset="false"><tag k="addr:street" v="Ranch Road 620,1100"/><tag k="addr:housenumber" v="2306"/><tag k="coa:place_id" v="3254161"/></node><node id="-37" lat="30.342394" lon="-97.970679" changeset="false"><tag k="addr:street" v="Lohmans Crossing Road"/><tag k="addr:housenumber" v="2121"/><tag k="coa:place_id" v="3343621"/></node><node id="-38" lat="30.345827" lon="-97.976264" changeset="false"><tag k="addr:street" v="Lohmans Crossing Road"/><tag k="addr:housenumber" v="1927"/><tag k="coa:place_id" v="3040367"/></node><node id="-39" lat="30.34766" lon="-97.976356" changeset="false"><tag k="addr:street" v="Lohmans Crossing Road"/><tag k="addr:housenumber" v="1915"/><tag k="coa:place_id" v="206805"/></node><node id="-40" lat="30.347601" lon="-97.975425" changeset="false"><tag k="addr:street" v="Lohmans Crossing Road"/><tag k="addr:housenumber" v="1917"/><tag k="coa:place_id" v="206803"/></node></osm>