<?xml version="1.0" encoding="UTF-8"?><osm version="0.6" generator="github.com/aaronlidman/osm-and-geojson"><node id="-1" lat="30.429038" lon="-97.675081" changeset="false"><tag k="addr:street" v="Thermal Drive"/><tag k="addr:housenumber" v="13805"/><tag k="addr:postcode" v="78728"/></node><node id="-2" lat="30.438906" lon="-97.67149" changeset="false"><tag k="addr:street" v="Wells Branch Parkway"/><tag k="addr:housenumber" v="1707"/><tag k="addr:postcode" v="78728"/></node><node id="-3" lat="30.435151" lon="-97.670074" changeset="false"><tag k="addr:street" v="North Interstate Highway 35 Service Road"/><tag k="addr:housenumber" v="14406 1/2"/><tag k="addr:postcode" v="78728"/></node><node id="-4" lat="30.439765" lon="-97.669872" changeset="false"><tag k="addr:street" v="Wells Branch Parkway"/><tag k="addr:housenumber" v="1601"/><tag k="addr:postcode" v="78728"/></node><node id="-5" lat="30.438413" lon="-97.672099" changeset="false"><tag k="addr:street" v="Wells Branch Parkway"/><tag k="addr:housenumber" v="1721"/><tag k="addr:postcode" v="78728"/></node><node id="-6" lat="30.427409" lon="-97.675789" changeset="false"><tag k="addr:street" v="Thermal Drive"/><tag k="addr:housenumber" v="13705"/><tag k="addr:postcode" v="78728"/></node><node id="-7" lat="30.426904" lon="-97.674415" changeset="false"><tag k="addr:street" v="Ann Place"/><tag k="addr:housenumber" v="13801"/><tag k="addr:postcode" v="78728"/></node><node id="-8" lat="30.424874" lon="-97.672011" changeset="false"><tag k="addr:street" v="North Interstate Highway 35 Service Road"/><tag k="addr:housenumber" v="13704 1/2"/><tag k="addr:postcode" v="78728"/></node><node id="-9" lat="30.428493" lon="-97.671322" changeset="false"><tag k="addr:street" v="North Interstate Highway 35 Service Road"/><tag k="addr:housenumber" v="13924 1/2"/><tag k="addr:postcode" v="78728"/></node><node id="-10" lat="30.439386" lon="-97.670007" changeset="false"><tag k="addr:street" v="North Interstate Highway 35 Service Road"/><tag k="addr:housenumber" v="14730"/><tag k="addr:postcode" v="78728"/></node><node id="-11" lat="30.438898" lon="-97.670097" changeset="false"><tag k="addr:street" v="North Interstate Highway 35 Service Road"/><tag k="addr:housenumber" v="14718"/><tag k="addr:postcode" v="78728"/></node><node id="-12" lat="30.427298" lon="-97.674252" changeset="false"><tag k="addr:street" v="Ann Place"/><tag k="addr:housenumber" v="13803"/><tag k="addr:postcode" v="78728"/></node><node id="-13" lat="30.425778" lon="-97.673509" changeset="false"><tag k="addr:street" v="West Howard Lane"/><tag k="addr:housenumber" v="1414"/><tag k="addr:postcode" v="78728"/></node><node id="-14" lat="30.427913" lon="-97.67424" changeset="false"><tag k="addr:street" v="Ann Place"/><tag k="addr:housenumber" v="13809"/><tag k="addr:postcode" v="78728"/></node><node id="-15" lat="30.43623" lon="-97.673937" changeset="false"><tag k="addr:street" v="Merchant Cove"/><tag k="addr:housenumber" v="1710 1/2"/><tag k="addr:postcode" v="78728"/></node><node id="-16" lat="30.432586" lon="-97.675204" changeset="false"><tag k="addr:street" v="Thermal Drive"/><tag k="addr:housenumber" v="14017"/><tag k="addr:postcode" v="78728"/></node><node id="-17" lat="30.427894" lon="-97.675542" changeset="false"><tag k="addr:street" v="Thermal Drive"/><tag k="addr:housenumber" v="13709"/><tag k="addr:postcode" v="78728"/></node><node id="-18" lat="30.426304" lon="-97.674199" changeset="false"><tag k="addr:street" v="West Howard Lane"/><tag k="addr:housenumber" v="1430"/><tag k="addr:postcode" v="78728"/></node><node id="-19" lat="30.428035" lon="-97.675447" changeset="false"><tag k="addr:street" v="Thermal Drive"/><tag k="addr:housenumber" v="13711"/><tag k="addr:postcode" v="78728"/></node><node id="-20" lat="30.437722" lon="-97.672559" changeset="false"><tag k="addr:street" v="Wells Branch Parkway"/><tag k="addr:housenumber" v="1741"/><tag k="addr:postcode" v="78728"/></node><node id="-21" lat="30.436203" lon="-97.674086" changeset="false"><tag k="addr:street" v="Wells Branch Parkway"/><tag k="addr:housenumber" v="1773"/><tag k="addr:postcode" v="78728"/></node><node id="-22" lat="30.427863" lon="-97.67338" changeset="false"><tag k="addr:street" v="Maye Place"/><tag k="addr:housenumber" v="13814"/><tag k="addr:postcode" v="78728"/></node><node id="-23" lat="30.434077" lon="-97.676491" changeset="false"><tag k="addr:street" v="Thermal Drive"/><tag k="addr:housenumber" v="14135"/><tag k="addr:postcode" v="78728"/></node><node id="-24" lat="30.438009" lon="-97.672474" changeset="false"><tag k="addr:street" v="Wells Branch Parkway"/><tag k="addr:housenumber" v="1731"/><tag k="addr:postcode" v="78728"/></node><node id="-25" lat="30.434505" lon="-97.676642" changeset="false"><tag k="addr:street" v="Thermal Drive"/><tag k="addr:housenumber" v="14115"/><tag k="addr:postcode" v="78728"/></node><node id="-26" lat="30.43421" lon="-97.676532" changeset="false"><tag k="addr:street" v="Thermal Drive"/><tag k="addr:housenumber" v="14101"/><tag k="addr:postcode" v="78728"/></node><node id="-27" lat="30.426396" lon="-97.674929" changeset="false"><tag k="addr:street" v="West Howard Lane"/><tag k="addr:housenumber" v="1506"/><tag k="addr:postcode" v="78728"/></node><node id="-28" lat="30.426341" lon="-97.674911" changeset="false"><tag k="addr:street" v="West Howard Lane"/><tag k="addr:housenumber" v="1506 1/2"/><tag k="addr:postcode" v="78728"/></node></osm>