<?xml version="1.0" encoding="UTF-8"?><osm version="0.6" generator="github.com/aaronlidman/osm-and-geojson"><node id="-1" lat="30.419018" lon="-97.732165" changeset="false"><tag k="addr:street" v="Craig Drive"/><tag k="addr:housenumber" v="4802"/><tag k="coa:place_id" v="774579"/></node><node id="-2" lat="30.412725" lon="-97.729586" changeset="false"><tag k="addr:street" v="Acropolis Court"/><tag k="addr:housenumber" v="4302"/><tag k="coa:place_id" v="621969"/></node><node id="-3" lat="30.413956" lon="-97.730074" changeset="false"><tag k="addr:street" v="Alpheus Avenue"/><tag k="addr:housenumber" v="11904"/><tag k="coa:place_id" v="494049"/></node><node id="-4" lat="30.415529" lon="-97.732511" changeset="false"><tag k="addr:street" v="Chadbury Cove"/><tag k="addr:housenumber" v="4809"/><tag k="coa:place_id" v="1107242"/></node><node id="-5" lat="30.417518" lon="-97.73415" changeset="false"><tag k="addr:street" v="Gypsy Cove"/><tag k="addr:housenumber" v="4809"/><tag k="coa:place_id" v="775299"/></node><node id="-6" lat="30.414502" lon="-97.73013" changeset="false"><tag k="addr:street" v="Alpheus Avenue"/><tag k="addr:housenumber" v="11909"/><tag k="coa:place_id" v="604929"/></node><node id="-7" lat="30.413202" lon="-97.732448" changeset="false"><tag k="addr:street" v="Duval Road"/><tag k="addr:housenumber" v="4410"/><tag k="coa:place_id" v="272824"/></node><node id="-8" lat="30.420303" lon="-97.744071" changeset="false"><tag k="addr:street" v="West Cow Path"/><tag k="addr:housenumber" v="11821"/><tag k="coa:place_id" v="3036612"/></node><node id="-9" lat="30.417773" lon="-97.734257" changeset="false"><tag k="addr:street" v="Charm Circle"/><tag k="addr:housenumber" v="12001"/><tag k="coa:place_id" v="775215"/></node><node id="-10" lat="30.417948" lon="-97.732701" changeset="false"><tag k="addr:street" v="Whispering Valley Drive"/><tag k="addr:housenumber" v="4708"/><tag k="coa:place_id" v="489939"/></node><node id="-11" lat="30.413329" lon="-97.730054" changeset="false"><tag k="addr:street" v="Alpheus Avenue"/><tag k="addr:housenumber" v="11804"/><tag k="coa:place_id" v="241749"/></node><node id="-12" lat="30.414898" lon="-97.729753" changeset="false"><tag k="addr:street" v="Whispering Valley Drive"/><tag k="addr:housenumber" v="4431"/><tag k="coa:place_id" v="658779"/></node><node id="-13" lat="30.41372" lon="-97.729798" changeset="false"><tag k="addr:street" v="Alpheus Avenue"/><tag k="addr:housenumber" v="11901 1/2"/><tag k="coa:place_id" v="637449"/></node><node id="-14" lat="30.41879" lon="-97.734641" changeset="false"><tag k="addr:street" v="Whispering Valley Drive"/><tag k="addr:housenumber" v="4910"/><tag k="coa:place_id" v="3031907"/></node><node id="-15" lat="30.419553" lon="-97.740547" changeset="false"><tag k="addr:street" v="Bull Run,1100"/><tag k="addr:housenumber" v="5225"/><tag k="coa:place_id" v="686385"/></node><node id="-16" lat="30.416682" lon="-97.730782" changeset="false"><tag k="addr:street" v="Whispering Valley Drive"/><tag k="addr:housenumber" v="4550"/><tag k="coa:place_id" v="3031908"/></node><node id="-17" lat="30.41736" lon="-97.732188" changeset="false"><tag k="addr:street" v="Black Angus Drive"/><tag k="addr:housenumber" v="12001"/><tag k="coa:place_id" v="133441"/></node><node id="-18" lat="30.4161" lon="-97.7326" changeset="false"><tag k="addr:street" v="Amesley Cove"/><tag k="addr:housenumber" v="4820"/><tag k="coa:place_id" v="1107238"/></node><node id="-19" lat="30.414685" lon="-97.729915" changeset="false"><tag k="addr:street" v="Whispering Valley Drive"/><tag k="addr:housenumber" v="4429"/><tag k="coa:place_id" v="606705"/></node><node id="-20" lat="30.417659" lon="-97.741796" changeset="false"><tag k="addr:street" v="Duval Road"/><tag k="addr:housenumber" v="5214"/><tag k="coa:place_id" v="118177"/></node><node id="-21" lat="30.418116" lon="-97.742742" changeset="false"><tag k="addr:street" v="Duval Road"/><tag k="addr:housenumber" v="5228"/><tag k="coa:place_id" v="274617"/></node><node id="-22" lat="30.417789" lon="-97.733834" changeset="false"><tag k="addr:street" v="Gypsy Cove"/><tag k="addr:housenumber" v="4806"/><tag k="coa:place_id" v="775263"/></node><node id="-23" lat="30.417463" lon="-97.741352" changeset="false"><tag k="addr:street" v="Duval Road"/><tag k="addr:housenumber" v="5208"/><tag k="coa:place_id" v="3032347"/></node><node id="-24" lat="30.417593" lon="-97.741649" changeset="false"><tag k="addr:street" v="Duval Road"/><tag k="addr:housenumber" v="5212"/><tag k="coa:place_id" v="3032345"/></node><node id="-25" lat="30.413837" lon="-97.733958" changeset="false"><tag k="addr:street" v="Duval Road"/><tag k="addr:housenumber" v="4508"/><tag k="coa:place_id" v="235003"/></node><node id="-26" lat="30.413899" lon="-97.730389" changeset="false"><tag k="addr:street" v="Whispering Valley Drive"/><tag k="addr:housenumber" v="4415"/><tag k="coa:place_id" v="3195391"/></node><node id="-27" lat="30.417529" lon="-97.741489" changeset="false"><tag k="addr:street" v="Duval Road"/><tag k="addr:housenumber" v="5210"/><tag k="coa:place_id" v="3032346"/></node><node id="-28" lat="30.415801" lon="-97.73235" changeset="false"><tag k="addr:street" v="Chadbury Cove"/><tag k="addr:housenumber" v="4817"/><tag k="coa:place_id" v="1107245"/></node><node id="-29" lat="30.415407" lon="-97.732579" changeset="false"><tag k="addr:street" v="Chadbury Cove"/><tag k="addr:housenumber" v="4805"/><tag k="coa:place_id" v="1107241"/></node><node id="-30" lat="30.418219" lon="-97.734264" changeset="false"><tag k="addr:street" v="Whispering Valley Drive"/><tag k="addr:housenumber" v="4905"/><tag k="coa:place_id" v="121678"/></node><node id="-31" lat="30.420864" lon="-97.741192" changeset="false"><tag k="addr:street" v="Bull Run,1100"/><tag k="addr:housenumber" v="5315"/><tag k="coa:place_id" v="3346306"/></node><node id="-32" lat="30.415711" lon="-97.73173" changeset="false"><tag k="addr:street" v="Chadbury Cove"/><tag k="addr:housenumber" v="4820"/><tag k="coa:place_id" v="1107251"/></node><node id="-33" lat="30.413557" lon="-97.730076" changeset="false"><tag k="addr:street" v="Alpheus Avenue"/><tag k="addr:housenumber" v="11900"/><tag k="coa:place_id" v="241753"/></node><node id="-34" lat="30.419713" lon="-97.739064" changeset="false"><tag k="addr:street" v="Bull Run,1100"/><tag k="addr:housenumber" v="5201"/><tag k="coa:place_id" v="135249"/></node><node id="-35" lat="30.420747" lon="-97.74097" changeset="false"><tag k="addr:street" v="Bull Run,1100"/><tag k="addr:housenumber" v="5311"/><tag k="coa:place_id" v="3067524"/></node><node id="-36" lat="30.417166" lon="-97.733067" changeset="false"><tag k="addr:street" v="Misty Brook Drive"/><tag k="addr:housenumber" v="12005"/><tag k="coa:place_id" v="453201"/></node><node id="-37" lat="30.416299" lon="-97.734011" changeset="false"><tag k="addr:street" v="Misty Brook Cove"/><tag k="addr:housenumber" v="4801"/><tag k="coa:place_id" v="775095"/></node><node id="-38" lat="30.419716" lon="-97.733363" changeset="false"><tag k="addr:street" v="Craig Drive"/><tag k="addr:housenumber" v="4904"/><tag k="coa:place_id" v="775029"/></node><node id="-39" lat="30.420946" lon="-97.741361" changeset="false"><tag k="addr:street" v="Bull Run,1100"/><tag k="addr:housenumber" v="5319"/><tag k="coa:place_id" v="3074038"/></node><node id="-40" lat="30.416091" lon="-97.731715" changeset="false"><tag k="addr:street" v="Chadbury Cove"/><tag k="addr:housenumber" v="4828"/><tag k="coa:place_id" v="1107253"/></node><node id="-41" lat="30.420645" lon="-97.74228" changeset="false"><tag k="addr:street" v="West Cow Path"/><tag k="addr:housenumber" v="11925"/><tag k="coa:place_id" v="1112607"/></node><node id="-42" lat="30.413753" lon="-97.730094" changeset="false"><tag k="addr:street" v="Alpheus Avenue"/><tag k="addr:housenumber" v="11902"/><tag k="coa:place_id" v="241758"/></node><node id="-43" lat="30.414129" lon="-97.734529" changeset="false"><tag k="addr:street" v="Duval Road"/><tag k="addr:housenumber" v="4604"/><tag k="coa:place_id" v="472910"/></node><node id="-44" lat="30.418206" lon="-97.734698" changeset="false"><tag k="addr:street" v="Charm Circle"/><tag k="addr:housenumber" v="12002"/><tag k="coa:place_id" v="121320"/></node><node id="-45" lat="30.415861" lon="-97.731652" changeset="false"><tag k="addr:street" v="Chadbury Cove"/><tag k="addr:housenumber" v="4824"/><tag k="coa:place_id" v="1107252"/></node><node id="-46" lat="30.41876" lon="-97.733981" changeset="false"><tag k="addr:street" v="Whispering Valley Drive"/><tag k="addr:housenumber" v="4904"/><tag k="coa:place_id" v="775587"/></node><node id="-47" lat="30.41363" lon="-97.733227" changeset="false"><tag k="addr:street" v="Duval Road"/><tag k="addr:housenumber" v="4420"/><tag k="coa:place_id" v="393537"/></node><node id="-48" lat="30.41542" lon="-97.737173" changeset="false"><tag k="addr:street" v="Duval Road"/><tag k="addr:housenumber" v="4808"/><tag k="coa:place_id" v="472946"/></node><node id="-49" lat="30.41557" lon="-97.730702" changeset="false"><tag k="addr:street" v="Whispering Valley Drive"/><tag k="addr:housenumber" v="4501"/><tag k="coa:place_id" v="216882"/></node><node id="-50" lat="30.418579" lon="-97.734394" changeset="false"><tag k="addr:street" v="Whispering Valley Drive"/><tag k="addr:housenumber" v="4908"/><tag k="coa:place_id" v="119772"/></node></osm>