<?xml version="1.0" encoding="UTF-8"?><osm version="0.6" generator="github.com/aaronlidman/osm-and-geojson"><node id="-1" lat="30.338642" lon="-97.739032" changeset="false"><tag k="addr:street" v="Burnet Road"/><tag k="addr:housenumber" v="6315"/><tag k="coa:place_id" v="271532"/></node><node id="-2" lat="30.339018" lon="-97.737328" changeset="false"><tag k="addr:street" v="Payne Avenue"/><tag k="addr:housenumber" v="2019"/><tag k="coa:place_id" v="481982"/></node><node id="-3" lat="30.333103" lon="-97.734762" changeset="false"><tag k="addr:street" v="Palo Duro Road"/><tag k="addr:housenumber" v="1703"/><tag k="coa:place_id" v="3079435"/></node><node id="-4" lat="30.332827" lon="-97.734997" changeset="false"><tag k="addr:street" v="West Koenig Lane"/><tag k="addr:housenumber" v="1702"/><tag k="coa:place_id" v="396104"/></node><node id="-5" lat="30.337459" lon="-97.734408" changeset="false"><tag k="addr:street" v="Hall Street"/><tag k="addr:housenumber" v="6408"/><tag k="coa:place_id" v="5076167"/></node><node id="-6" lat="30.334485" lon="-97.735681" changeset="false"><tag k="addr:street" v="Alguno Road"/><tag k="addr:housenumber" v="1807"/><tag k="coa:place_id" v="434918"/></node><node id="-7" lat="30.335432" lon="-97.73761" changeset="false"><tag k="addr:street" v="Alguno Road"/><tag k="addr:housenumber" v="2005"/><tag k="coa:place_id" v="434858"/></node><node id="-8" lat="30.334087" lon="-97.736662" changeset="false"><tag k="addr:street" v="Palo Duro Road"/><tag k="addr:housenumber" v="1901"/><tag k="coa:place_id" v="396542"/></node><node id="-9" lat="30.334943" lon="-97.73249" changeset="false"><tag k="addr:street" v="Alegria Road"/><tag k="addr:housenumber" v="1509"/><tag k="coa:place_id" v="395378"/></node><node id="-10" lat="30.333194" lon="-97.733734" changeset="false"><tag k="addr:street" v="Palo Duro Road"/><tag k="addr:housenumber" v="1512"/><tag k="coa:place_id" v="395900"/></node><node id="-11" lat="30.331437" lon="-97.732437" changeset="false"><tag k="addr:street" v="West Koenig Lane"/><tag k="addr:housenumber" v="1410"/><tag k="coa:place_id" v="396032"/></node><node id="-12" lat="30.334597" lon="-97.736977" changeset="false"><tag k="addr:street" v="Palo Duro Road"/><tag k="addr:housenumber" v="1906"/><tag k="coa:place_id" v="434786"/></node><node id="-13" lat="30.33855" lon="-97.738797" changeset="false"><tag k="addr:street" v="Burnet Road"/><tag k="addr:housenumber" v="6317"/><tag k="coa:place_id" v="482726"/></node><node id="-14" lat="30.334648" lon="-97.73928" changeset="false"><tag k="addr:street" v="West Koenig Lane"/><tag k="addr:housenumber" v="2016"/><tag k="coa:place_id" v="396236"/></node><node id="-15" lat="30.33559" lon="-97.72975" changeset="false"><tag k="addr:street" v="Woodrow Avenue"/><tag k="addr:housenumber" v="6404 1/2"/><tag k="coa:place_id" v="3096059"/></node><node id="-16" lat="30.33544" lon="-97.731099" changeset="false"><tag k="addr:street" v="Arcadia Avenue"/><tag k="addr:housenumber" v="1411"/><tag k="coa:place_id" v="356246"/></node><node id="-17" lat="30.337703" lon="-97.737723" changeset="false"><tag k="addr:street" v="Alegria Road"/><tag k="addr:housenumber" v="2012"/><tag k="coa:place_id" v="481718"/></node><node id="-18" lat="30.337103" lon="-97.739159" changeset="false"><tag k="addr:street" v="Burnet Road"/><tag k="addr:housenumber" v="6205"/><tag k="coa:place_id" v="271514"/></node><node id="-19" lat="30.336629" lon="-97.738439" changeset="false"><tag k="addr:street" v="Laird Drive"/><tag k="addr:housenumber" v="6108"/><tag k="coa:place_id" v="396404"/></node><node id="-20" lat="30.33224" lon="-97.733737" changeset="false"><tag k="addr:street" v="West Koenig Lane"/><tag k="addr:housenumber" v="1514"/><tag k="coa:place_id" v="396080"/></node><node id="-21" lat="30.336091" lon="-97.733365" changeset="false"><tag k="addr:street" v="Alcove Court"/><tag k="addr:housenumber" v="1705"/><tag k="coa:place_id" v="435698"/></node><node id="-22" lat="30.337263" lon="-97.735523" changeset="false"><tag k="addr:street" v="Pequeno Street"/><tag k="addr:housenumber" v="1905"/><tag k="coa:place_id" v="481808"/></node><node id="-23" lat="30.338143" lon="-97.738929" changeset="false"><tag k="addr:street" v="Burnet Road"/><tag k="addr:housenumber" v="6313"/><tag k="coa:place_id" v="271526"/></node><node id="-24" lat="30.332215" lon="-97.732759" changeset="false"><tag k="addr:street" v="Palo Duro Road"/><tag k="addr:housenumber" v="1501"/><tag k="coa:place_id" v="395948"/></node><node id="-25" lat="30.331655" lon="-97.732294" changeset="false"><tag k="addr:street" v="West Koenig Lane"/><tag k="addr:housenumber" v="1408"/><tag k="coa:place_id" v="198268"/></node><node id="-26" lat="30.331539" lon="-97.732001" changeset="false"><tag k="addr:street" v="West Koenig Lane"/><tag k="addr:housenumber" v="1406"/><tag k="coa:place_id" v="396020"/></node><node id="-27" lat="30.339561" lon="-97.738438" changeset="false"><tag k="addr:street" v="Burnet Lane"/><tag k="addr:housenumber" v="6431"/><tag k="coa:place_id" v="221523"/></node><node id="-28" lat="30.339454" lon="-97.738496" changeset="false"><tag k="addr:street" v="Burnet Lane"/><tag k="addr:housenumber" v="6423"/><tag k="coa:place_id" v="482750"/></node><node id="-29" lat="30.338969" lon="-97.738683" changeset="false"><tag k="addr:street" v="Burnet Lane"/><tag k="addr:housenumber" v="6409"/><tag k="coa:place_id" v="5080449"/></node><node id="-30" lat="30.339108" lon="-97.738623" changeset="false"><tag k="addr:street" v="Burnet Lane"/><tag k="addr:housenumber" v="6415"/><tag k="coa:place_id" v="128393"/></node><node id="-31" lat="30.338711" lon="-97.738776" changeset="false"><tag k="addr:street" v="Burnet Lane"/><tag k="addr:housenumber" v="6401"/><tag k="coa:place_id" v="5080445"/></node><node id="-32" lat="30.338814" lon="-97.738739" changeset="false"><tag k="addr:street" v="Burnet Lane"/><tag k="addr:housenumber" v="6403"/><tag k="coa:place_id" v="5080446"/></node><node id="-33" lat="30.335963" lon="-97.73909" changeset="false"><tag k="addr:street" v="Burnet Road"/><tag k="addr:housenumber" v="6009"/><tag k="coa:place_id" v="396338"/></node><node id="-34" lat="30.335857" lon="-97.739101" changeset="false"><tag k="addr:street" v="Burnet Road"/><tag k="addr:housenumber" v="6005"/><tag k="coa:place_id" v="396320"/></node><node id="-35" lat="30.336634" lon="-97.738972" changeset="false"><tag k="addr:street" v="Burnet Road"/><tag k="addr:housenumber" v="6113"/><tag k="coa:place_id" v="271508"/></node><node id="-36" lat="30.335571" lon="-97.739163" changeset="false"><tag k="addr:street" v="Burnet Road"/><tag k="addr:housenumber" v="5929"/><tag k="coa:place_id" v="396296"/></node><node id="-37" lat="30.335547" lon="-97.739222" changeset="false"><tag k="addr:street" v="Burnet Road"/><tag k="addr:housenumber" v="5927"/><tag k="coa:place_id" v="396290"/></node><node id="-38" lat="30.33656" lon="-97.738982" changeset="false"><tag k="addr:street" v="Burnet Road"/><tag k="addr:housenumber" v="6111"/><tag k="coa:place_id" v="727018"/></node><node id="-39" lat="30.334927" lon="-97.739299" changeset="false"><tag k="addr:street" v="Burnet Road"/><tag k="addr:housenumber" v="5901"/><tag k="coa:place_id" v="233986"/></node><node id="-40" lat="30.335763" lon="-97.739127" changeset="false"><tag k="addr:street" v="Burnet Road"/><tag k="addr:housenumber" v="6001"/><tag k="coa:place_id" v="5002083"/></node><node id="-41" lat="30.335336" lon="-97.739244" changeset="false"><tag k="addr:street" v="Burnet Road"/><tag k="addr:housenumber" v="5917"/><tag k="coa:place_id" v="396272"/></node><node id="-42" lat="30.335004" lon="-97.739278" changeset="false"><tag k="addr:street" v="Burnet Road"/><tag k="addr:housenumber" v="5903"/><tag k="coa:place_id" v="396248"/></node><node id="-43" lat="30.335512" lon="-97.739221" changeset="false"><tag k="addr:street" v="Burnet Road"/><tag k="addr:housenumber" v="5923"/><tag k="coa:place_id" v="396278"/></node><node id="-44" lat="30.335645" lon="-97.739147" changeset="false"><tag k="addr:street" v="Burnet Road"/><tag k="addr:housenumber" v="5931"/><tag k="coa:place_id" v="396302"/></node><node id="-45" lat="30.335479" lon="-97.739239" changeset="false"><tag k="addr:street" v="Burnet Road"/><tag k="addr:housenumber" v="5925"/><tag k="coa:place_id" v="396284"/></node><node id="-46" lat="30.336269" lon="-97.739026" changeset="false"><tag k="addr:street" v="Burnet Road"/><tag k="addr:housenumber" v="6101"/><tag k="coa:place_id" v="396374"/></node><node id="-47" lat="30.336472" lon="-97.739002" changeset="false"><tag k="addr:street" v="Burnet Road"/><tag k="addr:housenumber" v="6109"/><tag k="coa:place_id" v="396392"/></node><node id="-48" lat="30.336327" lon="-97.739003" changeset="false"><tag k="addr:street" v="Burnet Road"/><tag k="addr:housenumber" v="6103"/><tag k="coa:place_id" v="396380"/></node><node id="-49" lat="30.335265" lon="-97.739255" changeset="false"><tag k="addr:street" v="Burnet Road"/><tag k="addr:housenumber" v="5915"/><tag k="coa:place_id" v="396260"/></node><node id="-50" lat="30.335185" lon="-97.73927" changeset="false"><tag k="addr:street" v="Burnet Road"/><tag k="addr:housenumber" v="5909"/><tag k="coa:place_id" v="396254"/></node><node id="-51" lat="30.336174" lon="-97.739059" changeset="false"><tag k="addr:street" v="Burnet Road"/><tag k="addr:housenumber" v="6015"/><tag k="coa:place_id" v="396368"/></node><node id="-52" lat="30.336111" lon="-97.739069" changeset="false"><tag k="addr:street" v="Burnet Road"/><tag k="addr:housenumber" v="6013"/><tag k="coa:place_id" v="396356"/></node><node id="-53" lat="30.336042" lon="-97.739073" changeset="false"><tag k="addr:street" v="Burnet Road"/><tag k="addr:housenumber" v="6011"/><tag k="coa:place_id" v="396350"/></node><node id="-54" lat="30.336401" lon="-97.739012" changeset="false"><tag k="addr:street" v="Burnet Road"/><tag k="addr:housenumber" v="6105"/><tag k="coa:place_id" v="396386"/></node><node id="-55" lat="30.335413" lon="-97.739238" changeset="false"><tag k="addr:street" v="Burnet Road"/><tag k="addr:housenumber" v="5921"/><tag k="coa:place_id" v="396266"/></node><node id="-56" lat="30.335718" lon="-97.739123" changeset="false"><tag k="addr:street" v="Burnet Road"/><tag k="addr:housenumber" v="5933"/><tag k="coa:place_id" v="396308"/></node><node id="-57" lat="30.335816" lon="-97.739131" changeset="false"><tag k="addr:street" v="Burnet Road"/><tag k="addr:housenumber" v="6003"/><tag k="coa:place_id" v="396314"/></node><node id="-58" lat="30.335111" lon="-97.739292" changeset="false"><tag k="addr:street" v="Burnet Road"/><tag k="addr:housenumber" v="5907"/><tag k="coa:place_id" v="271496"/></node><node id="-59" lat="30.335894" lon="-97.739088" changeset="false"><tag k="addr:street" v="Burnet Road"/><tag k="addr:housenumber" v="6007"/><tag k="coa:place_id" v="260883"/></node></osm>