<?xml version="1.0" encoding="UTF-8"?><osm version="0.6" generator="github.com/aaronlidman/osm-and-geojson"><node id="-1" lat="30.374236" lon="-97.692204" changeset="false"><tag k="addr:street" v="Sagebrush Drive"/><tag k="addr:housenumber" v="830"/></node><node id="-2" lat="30.374731" lon="-97.690897" changeset="false"><tag k="addr:street" v="North Lamar Boulevard"/><tag k="addr:housenumber" v="10508"/></node><node id="-3" lat="30.375724" lon="-97.691371" changeset="false"><tag k="addr:street" v="Mc Phaul Street"/><tag k="addr:housenumber" v="815"/></node><node id="-4" lat="30.378837" lon="-97.688534" changeset="false"><tag k="addr:street" v="North Lamar Boulevard"/><tag k="addr:housenumber" v="10900"/></node><node id="-5" lat="30.378604" lon="-97.688841" changeset="false"><tag k="addr:street" v="Prairie Trail"/><tag k="addr:housenumber" v="809"/></node><node id="-6" lat="30.378714" lon="-97.689035" changeset="false"><tag k="addr:street" v="Prairie Trail"/><tag k="addr:housenumber" v="811"/></node><node id="-7" lat="30.379681" lon="-97.690104" changeset="false"><tag k="addr:street" v="Prairie Trail"/><tag k="addr:housenumber" v="900"/></node><node id="-8" lat="30.374457" lon="-97.691011" changeset="false"><tag k="addr:street" v="Meadows Drive North,1100"/><tag k="addr:housenumber" v="818"/></node><node id="-9" lat="30.379532" lon="-97.688096" changeset="false"><tag k="addr:street" v="North Lamar Boulevard"/><tag k="addr:housenumber" v="11008"/></node><node id="-10" lat="30.379583" lon="-97.692458" changeset="false"><tag k="addr:street" v="Newmont Road"/><tag k="addr:housenumber" v="10810"/></node><node id="-11" lat="30.378834" lon="-97.693064" changeset="false"><tag k="addr:street" v="Newmont Road"/><tag k="addr:housenumber" v="10800"/></node><node id="-12" lat="30.378653" lon="-97.690951" changeset="false"><tag k="addr:street" v="Wagon Trail"/><tag k="addr:housenumber" v="828"/></node><node id="-13" lat="30.380606" lon="-97.692797" changeset="false"><tag k="addr:street" v="Prairie Trail"/><tag k="addr:housenumber" v="1009"/></node><node id="-14" lat="30.3782" lon="-97.691535" changeset="false"><tag k="addr:street" v="Wagon Trail"/><tag k="addr:housenumber" v="903"/></node><node id="-15" lat="30.375638" lon="-97.691604" changeset="false"><tag k="addr:street" v="Mc Phaul Street"/><tag k="addr:housenumber" v="817"/></node><node id="-16" lat="30.378132" lon="-97.689843" changeset="false"><tag k="addr:street" v="Wagon Trail"/><tag k="addr:housenumber" v="820"/></node><node id="-17" lat="30.375463" lon="-97.690835" changeset="false"><tag k="addr:street" v="Mc Phaul Street"/><tag k="addr:housenumber" v="807"/></node><node id="-18" lat="30.378492" lon="-97.69421" changeset="false"><tag k="addr:street" v="Windy Trail,1100"/><tag k="addr:housenumber" v="1006"/></node><node id="-19" lat="30.379762" lon="-97.69152" changeset="false"><tag k="addr:street" v="Prairie Trail"/><tag k="addr:housenumber" v="913"/></node><node id="-20" lat="30.379568" lon="-97.689864" changeset="false"><tag k="addr:street" v="Prairie Trail"/><tag k="addr:housenumber" v="830"/></node><node id="-21" lat="30.375666" lon="-97.691227" changeset="false"><tag k="addr:street" v="Mc Phaul Street"/><tag k="addr:housenumber" v="813"/></node><node id="-22" lat="30.377675" lon="-97.68914" changeset="false"><tag k="addr:street" v="North Lamar Boulevard"/><tag k="addr:housenumber" v="10814"/></node><node id="-23" lat="30.379776" lon="-97.689354" changeset="false"><tag k="addr:street" v="Kramer Lane"/><tag k="addr:housenumber" v="825"/></node><node id="-24" lat="30.379686" lon="-97.688904" changeset="false"><tag k="addr:street" v="Kramer Lane"/><tag k="addr:housenumber" v="821"/></node><node id="-25" lat="30.378615" lon="-97.692571" changeset="false"><tag k="addr:street" v="Newmont Road"/><tag k="addr:housenumber" v="10801"/></node><node id="-26" lat="30.378832" lon="-97.692452" changeset="false"><tag k="addr:street" v="Newmont Road"/><tag k="addr:housenumber" v="10803"/></node><node id="-27" lat="30.380549" lon="-97.692825" changeset="false"><tag k="addr:street" v="Prairie Trail"/><tag k="addr:housenumber" v="1009 1/2"/></node><node id="-28" lat="30.379078" lon="-97.692756" changeset="false"><tag k="addr:street" v="Wagon Trail"/><tag k="addr:housenumber" v="907"/></node><node id="-29" lat="30.376119" lon="-97.691035" changeset="false"><tag k="addr:street" v="Mc Phaul Street"/><tag k="addr:housenumber" v="806"/></node><node id="-30" lat="30.377393" lon="-97.693613" changeset="false"><tag k="addr:street" v="Fauntleroy Trail"/><tag k="addr:housenumber" v="1000"/></node><node id="-31" lat="30.380236" lon="-97.689956" changeset="false"><tag k="addr:street" v="Kramer Lane"/><tag k="addr:housenumber" v="901"/></node><node id="-32" lat="30.380088" lon="-97.689095" changeset="false"><tag k="addr:street" v="Kramer Lane"/><tag k="addr:housenumber" v="825 1/2"/></node><node id="-33" lat="30.379108" lon="-97.688852" changeset="false"><tag k="addr:street" v="Prairie Trail"/><tag k="addr:housenumber" v="820"/></node><node id="-34" lat="30.375858" lon="-97.694279" changeset="false"><tag k="addr:street" v="Newmont Road"/><tag k="addr:housenumber" v="10502"/></node><node id="-35" lat="30.378203" lon="-97.690055" changeset="false"><tag k="addr:street" v="Wagon Trail"/><tag k="addr:housenumber" v="822"/></node><node id="-36" lat="30.379415" lon="-97.695485" changeset="false"><tag k="addr:street" v="Plains Trail"/><tag k="addr:housenumber" v="10701"/></node><node id="-37" lat="30.379398" lon="-97.689281" changeset="false"><tag k="addr:street" v="Prairie Trail"/><tag k="addr:housenumber" v="826"/></node><node id="-38" lat="30.378092" lon="-97.693385" changeset="false"><tag k="addr:street" v="Windy Trail,1100"/><tag k="addr:housenumber" v="900"/></node><node id="-39" lat="30.37626" lon="-97.691335" changeset="false"><tag k="addr:street" v="Mc Phaul Street"/><tag k="addr:housenumber" v="808"/></node><node id="-40" lat="30.376782" lon="-97.692396" changeset="false"><tag k="addr:street" v="Mc Phaul Street"/><tag k="addr:housenumber" v="906"/></node><node id="-41" lat="30.378703" lon="-97.689624" changeset="false"><tag k="addr:street" v="Prairie Trail"/><tag k="addr:housenumber" v="823"/></node><node id="-42" lat="30.379177" lon="-97.690076" changeset="false"><tag k="addr:street" v="Prairie Trail"/><tag k="addr:housenumber" v="829"/></node><node id="-43" lat="30.379771" lon="-97.691792" changeset="false"><tag k="addr:street" v="Newmont Road"/><tag k="addr:housenumber" v="10811"/></node><node id="-44" lat="30.379773" lon="-97.691786" changeset="false"><tag k="addr:street" v="Newmont Road"/><tag k="addr:housenumber" v="10813"/></node><node id="-45" lat="30.375528" lon="-97.694546" changeset="false"><tag k="addr:street" v="Newmont Road"/><tag k="addr:housenumber" v="10500"/></node><node id="-46" lat="30.375615" lon="-97.694734" changeset="false"><tag k="addr:street" v="South Meadows Drive"/><tag k="addr:housenumber" v="1002"/></node></osm>