<?xml version="1.0" encoding="UTF-8"?><osm version="0.6" generator="github.com/aaronlidman/osm-and-geojson"><node id="-1" lat="30.17679" lon="-97.85117" changeset="false"><tag k="addr:street" v="Antelope Run"/><tag k="addr:housenumber" v="10421"/><tag k="coa:place_id" v="3132149"/></node><node id="-2" lat="30.176567" lon="-97.84212" changeset="false"><tag k="addr:street" v="Ivanhoe Trail"/><tag k="addr:housenumber" v="10109"/><tag k="coa:place_id" v="1048263"/></node><node id="-3" lat="30.172923" lon="-97.853877" changeset="false"><tag k="addr:street" v="Squirrel Hollow"/><tag k="addr:housenumber" v="3401"/><tag k="coa:place_id" v="475642"/></node><node id="-4" lat="30.170743" lon="-97.853787" changeset="false"><tag k="addr:street" v="Culberson Drive"/><tag k="addr:housenumber" v="10808"/><tag k="coa:place_id" v="756532"/></node><node id="-5" lat="30.17854" lon="-97.843903" changeset="false"><tag k="addr:street" v="Jubilee Trail"/><tag k="addr:housenumber" v="3114"/><tag k="coa:place_id" v="584518"/></node><node id="-6" lat="30.172192" lon="-97.852528" changeset="false"><tag k="addr:street" v="Shackelford Drive"/><tag k="addr:housenumber" v="10706"/><tag k="coa:place_id" v="507076"/></node><node id="-7" lat="30.177427" lon="-97.841657" changeset="false"><tag k="addr:street" v="Jubilee Trail"/><tag k="addr:housenumber" v="3005"/><tag k="coa:place_id" v="909177"/></node><node id="-8" lat="30.175678" lon="-97.842537" changeset="false"><tag k="addr:street" v="Jubilee Trail"/><tag k="addr:housenumber" v="2911"/><tag k="coa:place_id" v="71317"/></node><node id="-9" lat="30.178943" lon="-97.841008" changeset="false"><tag k="addr:street" v="West Slaughter Lane"/><tag k="addr:housenumber" v="3013"/><tag k="coa:place_id" v="85545"/></node><node id="-10" lat="30.17474" lon="-97.842917" changeset="false"><tag k="addr:street" v="Wadsworth Way"/><tag k="addr:housenumber" v="2910"/><tag k="coa:place_id" v="351304"/></node><node id="-11" lat="30.177733" lon="-97.839303" changeset="false"><tag k="addr:street" v="Jadewood Court"/><tag k="addr:housenumber" v="2900"/><tag k="coa:place_id" v="256546"/></node><node id="-12" lat="30.17661" lon="-97.840825" changeset="false"><tag k="addr:street" v="Jubilee Trail"/><tag k="addr:housenumber" v="2932"/><tag k="coa:place_id" v="944469"/></node><node id="-13" lat="30.179518" lon="-97.842983" changeset="false"><tag k="addr:street" v="Foxton Cove"/><tag k="addr:housenumber" v="3106"/><tag k="coa:place_id" v="510970"/></node><node id="-14" lat="30.175294" lon="-97.843685" changeset="false"><tag k="addr:street" v="Wadsworth Way"/><tag k="addr:housenumber" v="3003"/><tag k="coa:place_id" v="155620"/></node><node id="-15" lat="30.176197" lon="-97.843912" changeset="false"><tag k="addr:street" v="Ivanhoe Trail"/><tag k="addr:housenumber" v="10212"/><tag k="coa:place_id" v="465568"/></node><node id="-16" lat="30.171904" lon="-97.855809" changeset="false"><tag k="addr:street" v="Coyote Court"/><tag k="addr:housenumber" v="10901"/><tag k="coa:place_id" v="921752"/></node><node id="-17" lat="30.174716" lon="-97.84353" changeset="false"><tag k="addr:street" v="Wadsworth Way"/><tag k="addr:housenumber" v="2917"/><tag k="coa:place_id" v="78325"/></node><node id="-18" lat="30.179405" lon="-97.84282" changeset="false"><tag k="addr:street" v="Foxton Cove"/><tag k="addr:housenumber" v="3104"/><tag k="coa:place_id" v="510964"/></node><node id="-19" lat="30.177668" lon="-97.844004" changeset="false"><tag k="addr:street" v="Jubilee Trail"/><tag k="addr:housenumber" v="3115"/><tag k="coa:place_id" v="512074"/></node><node id="-20" lat="30.17559" lon="-97.841831" changeset="false"><tag k="addr:street" v="Jubilee Trail"/><tag k="addr:housenumber" v="2918"/><tag k="coa:place_id" v="452020"/></node><node id="-21" lat="30.174285" lon="-97.851938" changeset="false"><tag k="addr:street" v="Azalea Blossom Drive"/><tag k="addr:housenumber" v="3321"/><tag k="coa:place_id" v="3132216"/></node><node id="-22" lat="30.181198" lon="-97.850876" changeset="false"><tag k="addr:street" v="Dobbin Drive"/><tag k="addr:housenumber" v="10101"/><tag k="coa:place_id" v="874964"/></node><node id="-23" lat="30.175263" lon="-97.848567" changeset="false"><tag k="addr:street" v="Raspberry Road"/><tag k="addr:housenumber" v="3204"/><tag k="coa:place_id" v="3132194"/></node><node id="-24" lat="30.174662" lon="-97.842761" changeset="false"><tag k="addr:street" v="Wadsworth Way"/><tag k="addr:housenumber" v="2908"/><tag k="coa:place_id" v="351298"/></node><node id="-25" lat="30.167721" lon="-97.84317" changeset="false"><tag k="addr:street" v="Strand Street"/><tag k="addr:housenumber" v="10813"/><tag k="coa:place_id" v="3190366"/></node><node id="-26" lat="30.17124" lon="-97.846237" changeset="false"><tag k="addr:street" v="Lynnbrook Drive"/><tag k="addr:housenumber" v="3504"/><tag k="coa:place_id" v="3069907"/></node><node id="-27" lat="30.177211" lon="-97.843267" changeset="false"><tag k="addr:street" v="Rochelle Drive"/><tag k="addr:housenumber" v="3007"/><tag k="coa:place_id" v="944475"/></node><node id="-28" lat="30.174899" lon="-97.843634" changeset="false"><tag k="addr:street" v="Wadsworth Way"/><tag k="addr:housenumber" v="2919"/><tag k="coa:place_id" v="392326"/></node><node id="-29" lat="30.168708" lon="-97.843421" changeset="false"><tag k="addr:street" v="Chippenhook Court"/><tag k="addr:housenumber" v="10721"/><tag k="coa:place_id" v="3069796"/></node><node id="-30" lat="30.17303" lon="-97.852083" changeset="false"><tag k="addr:street" v="Shackelford Drive"/><tag k="addr:housenumber" v="10703"/><tag k="coa:place_id" v="66514"/></node><node id="-31" lat="30.174335" lon="-97.841466" changeset="false"><tag k="addr:street" v="Lindshire Lane"/><tag k="addr:housenumber" v="10214"/><tag k="coa:place_id" v="995919"/></node><node id="-32" lat="30.175387" lon="-97.853829" changeset="false"><tag k="addr:street" v="Azalea Blossom Drive"/><tag k="addr:housenumber" v="3406"/><tag k="coa:place_id" v="3294876"/></node><node id="-33" lat="30.174457" lon="-97.84222" changeset="false"><tag k="addr:street" v="Wadsworth Way"/><tag k="addr:housenumber" v="2902"/><tag k="coa:place_id" v="351262"/></node><node id="-34" lat="30.179228" lon="-97.841606" changeset="false"><tag k="addr:street" v="West Slaughter Lane"/><tag k="addr:housenumber" v="3021"/><tag k="coa:place_id" v="85549"/></node><node id="-35" lat="30.173737" lon="-97.85207" changeset="false"><tag k="addr:street" v="Azalea Blossom Drive"/><tag k="addr:housenumber" v="3315"/><tag k="coa:place_id" v="3389146"/></node><node id="-36" lat="30.176433" lon="-97.840906" changeset="false"><tag k="addr:street" v="Jubilee Trail"/><tag k="addr:housenumber" v="2930"/><tag k="coa:place_id" v="909171"/></node><node id="-37" lat="30.175359" lon="-97.842235" changeset="false"><tag k="addr:street" v="Jubilee Trail"/><tag k="addr:housenumber" v="2912"/><tag k="coa:place_id" v="452038"/></node><node id="-38" lat="30.165031" lon="-97.843035" changeset="false"><tag k="addr:street" v="Wardour Lane"/><tag k="addr:housenumber" v="11008"/><tag k="coa:place_id" v="3070832"/></node><node id="-39" lat="30.176793" lon="-97.840035" changeset="false"><tag k="addr:street" v="Lindshire Lane"/><tag k="addr:housenumber" v="10008"/><tag k="coa:place_id" v="584512"/></node><node id="-40" lat="30.171082" lon="-97.852373" changeset="false"><tag k="addr:street" v="Shackelford Drive"/><tag k="addr:housenumber" v="10802"/><tag k="coa:place_id" v="66510"/></node><node id="-41" lat="30.176867" lon="-97.851852" changeset="false"><tag k="addr:street" v="Antelope Run"/><tag k="addr:housenumber" v="10413"/><tag k="coa:place_id" v="3132147"/></node><node id="-42" lat="30.1761" lon="-97.840752" changeset="false"><tag k="addr:street" v="Lindshire Lane"/><tag k="addr:housenumber" v="10108"/><tag k="coa:place_id" v="155104"/></node><node id="-43" lat="30.165601" lon="-97.842941" changeset="false"><tag k="addr:street" v="Belgrave Falls Lane"/><tag k="addr:housenumber" v="2931 1/2"/><tag k="coa:place_id" v="3082868"/></node><node id="-44" lat="30.174247" lon="-97.842187" changeset="false"><tag k="addr:street" v="Wadsworth Way"/><tag k="addr:housenumber" v="2900"/><tag k="coa:place_id" v="351280"/></node><node id="-45" lat="30.176014" lon="-97.851017" changeset="false"><tag k="addr:street" v="Antelope Run"/><tag k="addr:housenumber" v="10432"/><tag k="coa:place_id" v="3132156"/></node><node id="-46" lat="30.173417" lon="-97.850291" changeset="false"><tag k="addr:street" v="Squirrel Hollow"/><tag k="addr:housenumber" v="3214 1/2"/><tag k="coa:place_id" v="3187458"/></node><node id="-47" lat="30.174132" lon="-97.849393" changeset="false"><tag k="addr:street" v="Raspberry Road"/><tag k="addr:housenumber" v="3009"/><tag k="coa:place_id" v="3132200"/></node><node id="-48" lat="30.171254" lon="-97.839265" changeset="false"><tag k="addr:street" v="Lindshire Lane"/><tag k="addr:housenumber" v="10516"/><tag k="coa:place_id" v="3085768"/></node><node id="-49" lat="30.174926" lon="-97.848138" changeset="false"><tag k="addr:street" v="Raspberry Road"/><tag k="addr:housenumber" v="3116"/><tag k="coa:place_id" v="3132192"/></node><node id="-50" lat="30.177363" lon="-97.84331" changeset="false"><tag k="addr:street" v="Rochelle Drive"/><tag k="addr:housenumber" v="3009"/><tag k="coa:place_id" v="962925"/></node><node id="-51" lat="30.177083" lon="-97.853665" changeset="false"><tag k="addr:street" v="Brodie Lane"/><tag k="addr:housenumber" v="10501"/><tag k="coa:place_id" v="3041615"/></node><node id="-52" lat="30.180301" lon="-97.844041" changeset="false"><tag k="addr:street" v="West Slaughter Lane"/><tag k="addr:housenumber" v="3207"/><tag k="coa:place_id" v="876266"/></node><node id="-53" lat="30.170804" lon="-97.851959" changeset="false"><tag k="addr:street" v="Shackelford Drive"/><tag k="addr:housenumber" v="10803"/><tag k="coa:place_id" v="66522"/></node><node id="-54" lat="30.175733" lon="-97.842383" changeset="false"><tag k="addr:street" v="Jubilee Trail"/><tag k="addr:housenumber" v="2913"/><tag k="coa:place_id" v="452056"/></node><node id="-55" lat="30.170998" lon="-97.856452" changeset="false"><tag k="addr:street" v="Buck Race"/><tag k="addr:housenumber" v="3413"/><tag k="coa:place_id" v="877274"/></node><node id="-56" lat="30.166681" lon="-97.841319" changeset="false"><tag k="addr:street" v="Fleet Drive"/><tag k="addr:housenumber" v="2921"/><tag k="coa:place_id" v="3069662"/></node><node id="-57" lat="30.166405" lon="-97.840139" changeset="false"><tag k="addr:street" v="Lynnbrook Drive"/><tag k="addr:housenumber" v="2801 1/2"/><tag k="coa:place_id" v="3223350"/></node><node id="-58" lat="30.169734" lon="-97.853543" changeset="false"><tag k="addr:street" v="Doe Run"/><tag k="addr:housenumber" v="3303"/><tag k="coa:place_id" v="537538"/></node><node id="-59" lat="30.173069" lon="-97.8524" changeset="false"><tag k="addr:street" v="Shackelford Drive"/><tag k="addr:housenumber" v="10700"/><tag k="coa:place_id" v="66502"/></node><node id="-60" lat="30.179573" lon="-97.849205" changeset="false"><tag k="addr:street" v="Dobbin Drive"/><tag k="addr:housenumber" v="10115"/><tag k="coa:place_id" v="3258382"/></node><node id="-61" lat="30.179437" lon="-97.843347" changeset="false"><tag k="addr:street" v="Foxton Cove"/><tag k="addr:housenumber" v="3110"/><tag k="coa:place_id" v="510988"/></node><node id="-62" lat="30.177799" lon="-97.843684" changeset="false"><tag k="addr:street" v="Jubilee Trail"/><tag k="addr:housenumber" v="3113"/><tag k="coa:place_id" v="490096"/></node><node id="-63" lat="30.175439" lon="-97.842968" changeset="false"><tag k="addr:street" v="Jubilee Trail"/><tag k="addr:housenumber" v="2905"/><tag k="coa:place_id" v="71314"/></node><node id="-64" lat="30.175257" lon="-97.842392" changeset="false"><tag k="addr:street" v="Jubilee Trail"/><tag k="addr:housenumber" v="2910"/><tag k="coa:place_id" v="452044"/></node><node id="-65" lat="30.17785" lon="-97.844332" changeset="false"><tag k="addr:street" v="Jubilee Trail"/><tag k="addr:housenumber" v="3124"/><tag k="coa:place_id" v="509710"/></node><node id="-66" lat="30.178991" lon="-97.841153" changeset="false"><tag k="addr:street" v="West Slaughter Lane"/><tag k="addr:housenumber" v="3015"/><tag k="coa:place_id" v="85546"/></node><node id="-67" lat="30.174053" lon="-97.842518" changeset="false"><tag k="addr:street" v="Wadsworth Way"/><tag k="addr:housenumber" v="2903"/><tag k="coa:place_id" v="351322"/></node><node id="-68" lat="30.181246" lon="-97.84781" changeset="false"><tag k="addr:street" v="Graybuck Road"/><tag k="addr:housenumber" v="3312"/><tag k="coa:place_id" v="1141508"/></node><node id="-69" lat="30.180485" lon="-97.846603" changeset="false"><tag k="addr:street" v="Rocking Horse Road"/><tag k="addr:housenumber" v="10010"/><tag k="coa:place_id" v="1141509"/></node><node id="-70" lat="30.181966" lon="-97.848912" changeset="false"><tag k="addr:street" v="Graybuck Road"/><tag k="addr:housenumber" v="3404"/><tag k="coa:place_id" v="990104"/></node><node id="-71" lat="30.170167" lon="-97.85269" changeset="false"><tag k="addr:street" v="Doe Run"/><tag k="addr:housenumber" v="3237"/><tag k="coa:place_id" v="68335"/></node><node id="-72" lat="30.176848" lon="-97.8515" changeset="false"><tag k="addr:street" v="Antelope Run"/><tag k="addr:housenumber" v="10417"/><tag k="coa:place_id" v="3132148"/></node><node id="-73" lat="30.17963" lon="-97.842378" changeset="false"><tag k="addr:street" v="West Slaughter Lane"/><tag k="addr:housenumber" v="3103"/><tag k="coa:place_id" v="425428"/></node><node id="-74" lat="30.165453" lon="-97.840649" changeset="false"><tag k="addr:street" v="Lynnbrook Drive"/><tag k="addr:housenumber" v="2901"/><tag k="coa:place_id" v="3140172"/></node><node id="-75" lat="30.179073" lon="-97.852425" changeset="false"><tag k="addr:street" v="Brodie Lane"/><tag k="addr:housenumber" v="10203"/><tag k="coa:place_id" v="876596"/></node><node id="-76" lat="30.176215" lon="-97.842429" changeset="false"><tag k="addr:street" v="Ivanhoe Trail"/><tag k="addr:housenumber" v="10201"/><tag k="coa:place_id" v="1034073"/></node><node id="-77" lat="30.175867" lon="-97.842906" changeset="false"><tag k="addr:street" v="Ivanhoe Trail"/><tag k="addr:housenumber" v="10207"/><tag k="coa:place_id" v="675712"/></node><node id="-78" lat="30.175761" lon="-97.843921" changeset="false"><tag k="addr:street" v="Wadsworth Way"/><tag k="addr:housenumber" v="3009"/><tag k="coa:place_id" v="217930"/></node><node id="-79" lat="30.167867" lon="-97.844008" changeset="false"><tag k="addr:street" v="Lynnbrook Drive"/><tag k="addr:housenumber" v="3105"/><tag k="coa:place_id" v="3069743"/></node><node id="-80" lat="30.167221" lon="-97.839589" changeset="false"><tag k="addr:street" v="Lynnbrook Drive"/><tag k="addr:housenumber" v="2715 1/2"/><tag k="coa:place_id" v="3157214"/></node><node id="-81" lat="30.170338" lon="-97.850802" changeset="false"><tag k="addr:street" v="Doe Run"/><tag k="addr:housenumber" v="3225"/><tag k="coa:place_id" v="630040"/></node><node id="-82" lat="30.174412" lon="-97.849857" changeset="false"><tag k="addr:street" v="Antelope Run"/><tag k="addr:housenumber" v="10517"/><tag k="coa:place_id" v="3132167"/></node><node id="-83" lat="30.174176" lon="-97.841526" changeset="false"><tag k="addr:street" v="Lindshire Lane"/><tag k="addr:housenumber" v="10216"/><tag k="coa:place_id" v="984651"/></node><node id="-84" lat="30.178625" lon="-97.842289" changeset="false"><tag k="addr:street" v="Foxton Cove"/><tag k="addr:housenumber" v="3019"/><tag k="coa:place_id" v="120417"/></node><node id="-85" lat="30.173849" lon="-97.852222" changeset="false"><tag k="addr:street" v="Azalea Blossom Drive"/><tag k="addr:housenumber" v="3317"/><tag k="coa:place_id" v="3132215"/></node><node id="-86" lat="30.174487" lon="-97.841397" changeset="false"><tag k="addr:street" v="Lindshire Lane"/><tag k="addr:housenumber" v="10212"/><tag k="coa:place_id" v="995913"/></node><node id="-87" lat="30.173662" lon="-97.855569" changeset="false"><tag k="addr:street" v="Caladium Circle"/><tag k="addr:housenumber" v="3425"/><tag k="coa:place_id" v="3132254"/></node><node id="-88" lat="30.177572" lon="-97.843334" changeset="false"><tag k="addr:street" v="Rochelle Drive"/><tag k="addr:housenumber" v="3011"/><tag k="coa:place_id" v="966849"/></node><node id="-89" lat="30.176813" lon="-97.841912" changeset="false"><tag k="addr:street" v="Ivanhoe Trail"/><tag k="addr:housenumber" v="10105"/><tag k="coa:place_id" v="966831"/></node><node id="-90" lat="30.178204" lon="-97.843132" changeset="false"><tag k="addr:street" v="Rochelle Drive"/><tag k="addr:housenumber" v="3019"/><tag k="coa:place_id" v="952329"/></node><node id="-91" lat="30.178184" lon="-97.842244" changeset="false"><tag k="addr:street" v="Jubilee Trail"/><tag k="addr:housenumber" v="3018"/><tag k="coa:place_id" v="867333"/></node><node id="-92" lat="30.175491" lon="-97.84281" changeset="false"><tag k="addr:street" v="Jubilee Trail"/><tag k="addr:housenumber" v="2907"/><tag k="coa:place_id" v="71315"/></node><node id="-93" lat="30.173535" lon="-97.841635" changeset="false"><tag k="addr:street" v="Lindshire Lane"/><tag k="addr:housenumber" v="10304"/><tag k="coa:place_id" v="930207"/></node><node id="-94" lat="30.178868" lon="-97.840818" changeset="false"><tag k="addr:street" v="West Slaughter Lane"/><tag k="addr:housenumber" v="3011"/><tag k="coa:place_id" v="85544"/></node><node id="-95" lat="30.173382" lon="-97.851913" changeset="false"><tag k="addr:street" v="Squirrel Hollow"/><tag k="addr:housenumber" v="3306 1/2"/><tag k="coa:place_id" v="3219599"/></node><node id="-96" lat="30.169112" lon="-97.844425" changeset="false"><tag k="addr:street" v="Lynnbrook Drive"/><tag k="addr:housenumber" v="3212"/><tag k="coa:place_id" v="3209458"/></node><node id="-97" lat="30.178813" lon="-97.84068" changeset="false"><tag k="addr:street" v="West Slaughter Lane"/><tag k="addr:housenumber" v="3009"/><tag k="coa:place_id" v="255042"/></node><node id="-98" lat="30.178084" lon="-97.844339" changeset="false"><tag k="addr:street" v="Jubilee Trail"/><tag k="addr:housenumber" v="3122"/><tag k="coa:place_id" v="552244"/></node><node id="-99" lat="30.177177" lon="-97.841404" changeset="false"><tag k="addr:street" v="Jubilee Trail"/><tag k="addr:housenumber" v="3001"/><tag k="coa:place_id" v="938343"/></node><node id="-100" lat="30.174535" lon="-97.854407" changeset="false"><tag k="addr:street" v="Azalea Blossom Drive"/><tag k="addr:housenumber" v="3409"/><tag k="coa:place_id" v="3132237"/></node><node id="-101" lat="30.174946" lon="-97.848985" changeset="false"><tag k="addr:street" v="Raspberry Road"/><tag k="addr:housenumber" v="3207"/><tag k="coa:place_id" v="3388719"/></node><node id="-102" lat="30.175071" lon="-97.842821" changeset="false"><tag k="addr:street" v="Jubilee Trail"/><tag k="addr:housenumber" v="2904"/><tag k="coa:place_id" v="390220"/></node><node id="-103" lat="30.18055" lon="-97.850789" changeset="false"><tag k="addr:street" v="Dobbin Drive"/><tag k="addr:housenumber" v="10102"/><tag k="coa:place_id" v="875000"/></node><node id="-104" lat="30.179307" lon="-97.841843" changeset="false"><tag k="addr:street" v="West Slaughter Lane"/><tag k="addr:housenumber" v="3023"/><tag k="coa:place_id" v="3501265"/></node><node id="-105" lat="30.175196" lon="-97.842482" changeset="false"><tag k="addr:street" v="Jubilee Trail"/><tag k="addr:housenumber" v="2908"/><tag k="coa:place_id" v="390232"/></node><node id="-106" lat="30.173835" lon="-97.841646" changeset="false"><tag k="addr:street" v="Lindshire Lane"/><tag k="addr:housenumber" v="10302"/><tag k="coa:place_id" v="121768"/></node><node id="-107" lat="30.176003" lon="-97.841977" changeset="false"><tag k="addr:street" v="Jubilee Trail"/><tag k="addr:housenumber" v="2919"/><tag k="coa:place_id" v="1018893"/></node><node id="-108" lat="30.176032" lon="-97.841242" changeset="false"><tag k="addr:street" v="Jubilee Trail"/><tag k="addr:housenumber" v="2924"/><tag k="coa:place_id" v="930165"/></node><node id="-109" lat="30.179555" lon="-97.846013" changeset="false"><tag k="addr:street" v="Rocking Horse Road"/><tag k="addr:housenumber" v="10101"/><tag k="coa:place_id" v="5097925"/></node><node id="-110" lat="30.179945" lon="-97.849217" changeset="false"><tag k="addr:street" v="Dobbin Drive"/><tag k="addr:housenumber" v="10113"/><tag k="coa:place_id" v="3070697"/></node><node id="-111" lat="30.170316" lon="-97.847198" changeset="false"><tag k="addr:street" v="Harley Avenue"/><tag k="addr:housenumber" v="10800 1/2"/><tag k="coa:place_id" v="3291525"/></node><node id="-112" lat="30.173515" lon="-97.851331" changeset="false"><tag k="addr:street" v="Azalea Blossom Drive"/><tag k="addr:housenumber" v="3301"/><tag k="coa:place_id" v="3270939"/></node><node id="-113" lat="30.170319" lon="-97.852411" changeset="false"><tag k="addr:street" v="Doe Run"/><tag k="addr:housenumber" v="3235"/><tag k="coa:place_id" v="68336"/></node><node id="-114" lat="30.177955" lon="-97.842673" changeset="false"><tag k="addr:street" v="Rochelle Drive"/><tag k="addr:housenumber" v="3014"/><tag k="coa:place_id" v="938349"/></node><node id="-115" lat="30.177842" lon="-97.840684" changeset="false"><tag k="addr:street" v="Jadewood Court"/><tag k="addr:housenumber" v="3003"/><tag k="coa:place_id" v="291154"/></node><node id="-116" lat="30.176988" lon="-97.841833" changeset="false"><tag k="addr:street" v="Ivanhoe Trail"/><tag k="addr:housenumber" v="10103"/><tag k="coa:place_id" v="1018881"/></node><node id="-117" lat="30.177757" lon="-97.843341" changeset="false"><tag k="addr:street" v="Rochelle Drive"/><tag k="addr:housenumber" v="3013"/><tag k="coa:place_id" v="952695"/></node><node id="-118" lat="30.176507" lon="-97.843839" changeset="false"><tag k="addr:street" v="Larson Cove"/><tag k="addr:housenumber" v="3009"/><tag k="coa:place_id" v="78319"/></node><node id="-119" lat="30.176778" lon="-97.843066" changeset="false"><tag k="addr:street" v="Larson Cove"/><tag k="addr:housenumber" v="3001"/><tag k="coa:place_id" v="962889"/></node><node id="-120" lat="30.175437" lon="-97.843823" changeset="false"><tag k="addr:street" v="Wadsworth Way"/><tag k="addr:housenumber" v="3005"/><tag k="coa:place_id" v="148829"/></node><node id="-121" lat="30.179149" lon="-97.841501" changeset="false"><tag k="addr:street" v="West Slaughter Lane"/><tag k="addr:housenumber" v="3019"/><tag k="coa:place_id" v="85548"/></node><node id="-122" lat="30.176812" lon="-97.847354" changeset="false"><tag k="addr:street" v="Amber Oak Cove"/><tag k="addr:housenumber" v="10204"/><tag k="coa:place_id" v="219485"/></node><node id="-123" lat="30.174814" lon="-97.85069" changeset="false"><tag k="addr:street" v="Antelope Run"/><tag k="addr:housenumber" v="10508"/><tag k="coa:place_id" v="3132162"/></node><node id="-124" lat="30.17457" lon="-97.850596" changeset="false"><tag k="addr:street" v="Antelope Run"/><tag k="addr:housenumber" v="10512"/><tag k="coa:place_id" v="3132164"/></node><node id="-125" lat="30.164752" lon="-97.841266" changeset="false"><tag k="addr:street" v="Belgrave Falls Lane"/><tag k="addr:housenumber" v="2903 1/2"/><tag k="coa:place_id" v="3176102"/></node><node id="-126" lat="30.182821" lon="-97.8492" changeset="false"><tag k="addr:street" v="West Slaughter Lane"/><tag k="addr:housenumber" v="3415"/><tag k="coa:place_id" v="117751"/></node><node id="-127" lat="30.175086" lon="-97.848333" changeset="false"><tag k="addr:street" v="Raspberry Road"/><tag k="addr:housenumber" v="3200"/><tag k="coa:place_id" v="3132193"/></node><node id="-128" lat="30.17494" lon="-97.841082" changeset="false"><tag k="addr:street" v="Lindshire Lane"/><tag k="addr:housenumber" v="10206"/><tag k="coa:place_id" v="167952"/></node><node id="-129" lat="30.171326" lon="-97.851963" changeset="false"><tag k="addr:street" v="Shackelford Drive"/><tag k="addr:housenumber" v="10715"/><tag k="coa:place_id" v="523738"/></node><node id="-130" lat="30.171552" lon="-97.851962" changeset="false"><tag k="addr:street" v="Shackelford Drive"/><tag k="addr:housenumber" v="10713"/><tag k="coa:place_id" v="488500"/></node><node id="-131" lat="30.174087" lon="-97.850343" changeset="false"><tag k="addr:street" v="Antelope Run"/><tag k="addr:housenumber" v="10520"/><tag k="coa:place_id" v="3132168"/></node><node id="-132" lat="30.178996" lon="-97.843009" changeset="false"><tag k="addr:street" v="Foxton Cove"/><tag k="addr:housenumber" v="3105"/><tag k="coa:place_id" v="75848"/></node><node id="-133" lat="30.178843" lon="-97.842644" changeset="false"><tag k="addr:street" v="Foxton Cove"/><tag k="addr:housenumber" v="3101"/><tag k="coa:place_id" v="510952"/></node><node id="-134" lat="30.177409" lon="-97.845125" changeset="false"><tag k="addr:street" v="Rocking Horse Road"/><tag k="addr:housenumber" v="10215"/><tag k="coa:place_id" v="221650"/></node><node id="-135" lat="30.174023" lon="-97.841585" changeset="false"><tag k="addr:street" v="Lindshire Lane"/><tag k="addr:housenumber" v="10300"/><tag k="coa:place_id" v="121738"/></node><node id="-136" lat="30.177595" lon="-97.84279" changeset="false"><tag k="addr:street" v="Rochelle Drive"/><tag k="addr:housenumber" v="3010"/><tag k="coa:place_id" v="947745"/></node><node id="-137" lat="30.177495" lon="-97.841774" changeset="false"><tag k="addr:street" v="Jubilee Trail"/><tag k="addr:housenumber" v="3007"/><tag k="coa:place_id" v="914211"/></node><node id="-138" lat="30.17305" lon="-97.850655" changeset="false"><tag k="addr:street" v="Doe Run"/><tag k="addr:housenumber" v="3201"/><tag k="coa:place_id" v="117313"/></node><node id="-139" lat="30.174503" lon="-97.841219" changeset="false"><tag k="addr:street" v="Lindshire Lane"/><tag k="addr:housenumber" v="10218"/><tag k="coa:place_id" v="978399"/></node><node id="-140" lat="30.176909" lon="-97.840891" changeset="false"><tag k="addr:street" v="Garvey Cove"/><tag k="addr:housenumber" v="2907"/><tag k="coa:place_id" v="944463"/></node><node id="-141" lat="30.177039" lon="-97.85257" changeset="false"><tag k="addr:street" v="Brodie Springs Trail"/><tag k="addr:housenumber" v="10411"/><tag k="coa:place_id" v="155443"/></node><node id="-142" lat="30.178915" lon="-97.842816" changeset="false"><tag k="addr:street" v="Foxton Cove"/><tag k="addr:housenumber" v="3103"/><tag k="coa:place_id" v="495430"/></node><node id="-143" lat="30.174177" lon="-97.848463" changeset="false"><tag k="addr:street" v="Raspberry Road"/><tag k="addr:housenumber" v="3101"/><tag k="coa:place_id" v="3132203"/></node><node id="-144" lat="30.178065" lon="-97.840668" changeset="false"><tag k="addr:street" v="Jadewood Court"/><tag k="addr:housenumber" v="3004"/><tag k="coa:place_id" v="291184"/></node><node id="-145" lat="30.175508" lon="-97.842006" changeset="false"><tag k="addr:street" v="Jubilee Trail"/><tag k="addr:housenumber" v="2916"/><tag k="coa:place_id" v="284692"/></node><node id="-146" lat="30.175434" lon="-97.842132" changeset="false"><tag k="addr:street" v="Jubilee Trail"/><tag k="addr:housenumber" v="2914"/><tag k="coa:place_id" v="452026"/></node><node id="-147" lat="30.170608" lon="-97.845838" changeset="false"><tag k="addr:street" v="Lynnbrook Drive"/><tag k="addr:housenumber" v="3412"/><tag k="coa:place_id" v="3069853"/></node><node id="-148" lat="30.169985" lon="-97.853869" changeset="false"><tag k="addr:street" v="Doe Run"/><tag k="addr:housenumber" v="3305"/><tag k="coa:place_id" v="445438"/></node><node id="-149" lat="30.180229" lon="-97.849419" changeset="false"><tag k="addr:street" v="Dobbin Drive"/><tag k="addr:housenumber" v="10111"/><tag k="coa:place_id" v="1141510"/></node><node id="-150" lat="30.179556" lon="-97.843216" changeset="false"><tag k="addr:street" v="Foxton Cove"/><tag k="addr:housenumber" v="3108"/><tag k="coa:place_id" v="510976"/></node><node id="-151" lat="30.179965" lon="-97.843091" changeset="false"><tag k="addr:street" v="West Slaughter Lane"/><tag k="addr:housenumber" v="3111"/><tag k="coa:place_id" v="821019"/></node><node id="-152" lat="30.176197" lon="-97.841109" changeset="false"><tag k="addr:street" v="Jubilee Trail"/><tag k="addr:housenumber" v="2926"/><tag k="coa:place_id" v="934245"/></node><node id="-153" lat="30.174988" lon="-97.843677" changeset="false"><tag k="addr:street" v="Wadsworth Way"/><tag k="addr:housenumber" v="2921"/><tag k="coa:place_id" v="78327"/></node><node id="-154" lat="30.169828" lon="-97.847298" changeset="false"><tag k="addr:street" v="Harley Avenue"/><tag k="addr:housenumber" v="10809"/><tag k="coa:place_id" v="3069878"/></node><node id="-155" lat="30.168708" lon="-97.842175" changeset="false"><tag k="addr:street" v="Strand Street"/><tag k="addr:housenumber" v="10705 1/2"/><tag k="coa:place_id" v="3223347"/></node><node id="-156" lat="30.176523" lon="-97.842963" changeset="false"><tag k="addr:street" v="Rochelle Drive"/><tag k="addr:housenumber" v="3003"/><tag k="coa:place_id" v="947733"/></node><node id="-157" lat="30.180378" lon="-97.851438" changeset="false"><tag k="addr:street" v="Brodie Lane"/><tag k="addr:housenumber" v="10107"/><tag k="coa:place_id" v="876590"/></node><node id="-158" lat="30.171585" lon="-97.852553" changeset="false"><tag k="addr:street" v="Shackelford Drive"/><tag k="addr:housenumber" v="10710"/><tag k="coa:place_id" v="578380"/></node><node id="-159" lat="30.171303" lon="-97.850647" changeset="false"><tag k="addr:street" v="Doe Run"/><tag k="addr:housenumber" v="3215"/><tag k="coa:place_id" v="555328"/></node><node id="-160" lat="30.169971" lon="-97.856251" changeset="false"><tag k="addr:street" v="Doe Run"/><tag k="addr:housenumber" v="3403"/><tag k="coa:place_id" v="877178"/></node><node id="-161" lat="30.168568" lon="-97.843553" changeset="false"><tag k="addr:street" v="Chippenhook Court"/><tag k="addr:housenumber" v="10725"/><tag k="coa:place_id" v="3069797"/></node><node id="-162" lat="30.170459" lon="-97.853784" changeset="false"><tag k="addr:street" v="Culberson Drive"/><tag k="addr:housenumber" v="10812"/><tag k="coa:place_id" v="279322"/></node><node id="-163" lat="30.170056" lon="-97.852967" changeset="false"><tag k="addr:street" v="Doe Run"/><tag k="addr:housenumber" v="3239"/><tag k="coa:place_id" v="491788"/></node><node id="-164" lat="30.177177" lon="-97.841939" changeset="false"><tag k="addr:street" v="Ivanhoe Trail"/><tag k="addr:housenumber" v="10101"/><tag k="coa:place_id" v="1003281"/></node><node id="-165" lat="30.17702" lon="-97.840391" changeset="false"><tag k="addr:street" v="Garvey Cove"/><tag k="addr:housenumber" v="2901"/><tag k="coa:place_id" v="886545"/></node><node id="-166" lat="30.1741" lon="-97.842705" changeset="false"><tag k="addr:street" v="Wadsworth Way"/><tag k="addr:housenumber" v="2905"/><tag k="coa:place_id" v="209908"/></node><node id="-167" lat="30.177217" lon="-97.843601" changeset="false"><tag k="addr:street" v="Larson Cove"/><tag k="addr:housenumber" v="3002"/><tag k="coa:place_id" v="605014"/></node><node id="-168" lat="30.168628" lon="-97.854498" changeset="false"><tag k="addr:street" v="Shady Hollow Drive"/><tag k="addr:housenumber" v="11115"/><tag k="coa:place_id" v="1044476"/></node><node id="-169" lat="30.167767" lon="-97.843514" changeset="false"><tag k="addr:street" v="Strand Street"/><tag k="addr:housenumber" v="10820 1/2"/><tag k="coa:place_id" v="3082869"/></node><node id="-170" lat="30.179627" lon="-97.847441" changeset="false"><tag k="addr:street" v="Graybuck Road"/><tag k="addr:housenumber" v="3304"/><tag k="coa:place_id" v="876488"/></node><node id="-171" lat="30.179118" lon="-97.841346" changeset="false"><tag k="addr:street" v="West Slaughter Lane"/><tag k="addr:housenumber" v="3017"/><tag k="coa:place_id" v="85547"/></node><node id="-172" lat="30.173988" lon="-97.850948" changeset="false"><tag k="addr:street" v="Azalea Blossom Drive"/><tag k="addr:housenumber" v="3304 1/2"/><tag k="coa:place_id" v="3282844"/></node><node id="-173" lat="30.174005" lon="-97.85089" changeset="false"><tag k="addr:street" v="Azalea Blossom Drive"/><tag k="addr:housenumber" v="3304"/><tag k="coa:place_id" v="3132220"/></node></osm>