<?xml version="1.0" encoding="UTF-8"?><osm version="0.6" generator="github.com/aaronlidman/osm-and-geojson"><node id="-1" lat="30.377662" lon="-97.741992" changeset="false"><tag k="addr:street" v="Tallwood Drive"/><tag k="addr:housenumber" v="8835"/><tag k="coa:place_id" v="501146"/></node><node id="-2" lat="30.377842" lon="-97.744645" changeset="false"><tag k="addr:street" v="Oakmountain Circle"/><tag k="addr:housenumber" v="8705"/><tag k="coa:place_id" v="501386"/></node><node id="-3" lat="30.380165" lon="-97.742349" changeset="false"><tag k="addr:street" v="Tallwood Drive"/><tag k="addr:housenumber" v="8812"/><tag k="coa:place_id" v="126583"/></node><node id="-4" lat="30.378719" lon="-97.743932" changeset="false"><tag k="addr:street" v="Tallwood Drive"/><tag k="addr:housenumber" v="8803"/><tag k="coa:place_id" v="501638"/></node><node id="-5" lat="30.379491" lon="-97.74461" changeset="false"><tag k="addr:street" v="Tallwood Drive"/><tag k="addr:housenumber" v="8724"/><tag k="coa:place_id" v="501698"/></node><node id="-6" lat="30.379539" lon="-97.749314" changeset="false"><tag k="addr:street" v="Hyridge Drive"/><tag k="addr:housenumber" v="4004"/><tag k="coa:place_id" v="502442"/></node><node id="-7" lat="30.372116" lon="-97.740232" changeset="false"><tag k="addr:street" v="North MoPac Expressway"/><tag k="addr:housenumber" v="8501"/><tag k="coa:place_id" v="400989"/></node><node id="-8" lat="30.376856" lon="-97.742813" changeset="false"><tag k="addr:street" v="Willowick Drive"/><tag k="addr:housenumber" v="8703"/><tag k="coa:place_id" v="501194"/></node><node id="-9" lat="30.378846" lon="-97.746438" changeset="false"><tag k="addr:street" v="Tallwood Drive"/><tag k="addr:housenumber" v="8713"/><tag k="coa:place_id" v="501584"/></node><node id="-10" lat="30.37878" lon="-97.746712" changeset="false"><tag k="addr:street" v="Tallwood Drive"/><tag k="addr:housenumber" v="8711"/><tag k="coa:place_id" v="501578"/></node><node id="-11" lat="30.378323" lon="-97.744642" changeset="false"><tag k="addr:street" v="Oakmountain Circle"/><tag k="addr:housenumber" v="8709"/><tag k="coa:place_id" v="501398"/></node><node id="-12" lat="30.377617" lon="-97.744673" changeset="false"><tag k="addr:street" v="Oakmountain Circle"/><tag k="addr:housenumber" v="8703"/><tag k="coa:place_id" v="501380"/></node><node id="-13" lat="30.378663" lon="-97.748134" changeset="false"><tag k="addr:street" v="Tallwood Drive"/><tag k="addr:housenumber" v="8700"/><tag k="coa:place_id" v="501746"/></node><node id="-14" lat="30.377767" lon="-97.746824" changeset="false"><tag k="addr:street" v="Mountainwood Circle"/><tag k="addr:housenumber" v="8703"/><tag k="coa:place_id" v="501482"/></node><node id="-15" lat="30.379642" lon="-97.742936" changeset="false"><tag k="addr:street" v="Tallwood Drive"/><tag k="addr:housenumber" v="8808"/><tag k="coa:place_id" v="126581"/></node><node id="-16" lat="30.379243" lon="-97.74401" changeset="false"><tag k="addr:street" v="Tallwood Drive"/><tag k="addr:housenumber" v="8800"/><tag k="coa:place_id" v="501668"/></node><node id="-17" lat="30.379392" lon="-97.744207" changeset="false"><tag k="addr:street" v="Tallwood Drive"/><tag k="addr:housenumber" v="8726"/><tag k="coa:place_id" v="501692"/></node><node id="-18" lat="30.379377" lon="-97.742483" changeset="false"><tag k="addr:street" v="Tallwood Drive"/><tag k="addr:housenumber" v="8806"/><tag k="coa:place_id" v="126577"/></node><node id="-19" lat="30.377275" lon="-97.744238" changeset="false"><tag k="addr:street" v="Honeysuckle Trail"/><tag k="addr:housenumber" v="8700"/><tag k="coa:place_id" v="501368"/></node><node id="-20" lat="30.38202" lon="-97.744262" changeset="false"><tag k="addr:street" v="Jollyville Road"/><tag k="addr:housenumber" v="9090"/><tag k="coa:place_id" v="1018983"/></node><node id="-21" lat="30.378907" lon="-97.745523" changeset="false"><tag k="addr:street" v="Tallwood Drive"/><tag k="addr:housenumber" v="8719"/><tag k="coa:place_id" v="501602"/></node><node id="-22" lat="30.379278" lon="-97.747266" changeset="false"><tag k="addr:street" v="Greenmountain Lane"/><tag k="addr:housenumber" v="3902"/><tag k="coa:place_id" v="502556"/></node><node id="-23" lat="30.375956" lon="-97.738143" changeset="false"><tag k="addr:street" v="North MoPac Expressway"/><tag k="addr:housenumber" v="8803"/><tag k="coa:place_id" v="308228"/></node><node id="-24" lat="30.382487" lon="-97.745456" changeset="false"><tag k="addr:street" v="Forest Mesa Drive,1100"/><tag k="addr:housenumber" v="8903"/><tag k="coa:place_id" v="248005"/></node><node id="-25" lat="30.376769" lon="-97.738498" changeset="false"><tag k="addr:street" v="North MoPac Expressway"/><tag k="addr:housenumber" v="8901"/><tag k="coa:place_id" v="204151"/></node><node id="-26" lat="30.381645" lon="-97.743939" changeset="false"><tag k="addr:street" v="Jollyville Road"/><tag k="addr:housenumber" v="9086"/><tag k="coa:place_id" v="388286"/></node><node id="-27" lat="30.378796" lon="-97.744237" changeset="false"><tag k="addr:street" v="Tallwood Drive"/><tag k="addr:housenumber" v="8801"/><tag k="coa:place_id" v="501656"/></node><node id="-28" lat="30.378334" lon="-97.74355" changeset="false"><tag k="addr:street" v="Honeysuckle Trail"/><tag k="addr:housenumber" v="8801"/><tag k="coa:place_id" v="501302"/></node><node id="-29" lat="30.378549" lon="-97.746874" changeset="false"><tag k="addr:street" v="Tallwood Drive"/><tag k="addr:housenumber" v="8709"/><tag k="coa:place_id" v="501572"/></node><node id="-30" lat="30.378383" lon="-97.746536" changeset="false"><tag k="addr:street" v="Mountainwood Circle"/><tag k="addr:housenumber" v="8708"/><tag k="coa:place_id" v="501518"/></node><node id="-31" lat="30.376927" lon="-97.740842" changeset="false"><tag k="addr:street" v="Camelia Lane"/><tag k="addr:housenumber" v="8801"/><tag k="coa:place_id" v="458943"/></node><node id="-32" lat="30.37739" lon="-97.737708" changeset="false"><tag k="addr:street" v="North MoPac Expressway"/><tag k="addr:housenumber" v="8905"/><tag k="coa:place_id" v="5066162"/></node><node id="-33" lat="30.382879" lon="-97.74473" changeset="false"><tag k="addr:street" v="Jollyville Road"/><tag k="addr:housenumber" v="9130"/><tag k="coa:place_id" v="283678"/></node><node id="-34" lat="30.37942" lon="-97.747478" changeset="false"><tag k="addr:street" v="Greenmountain Lane"/><tag k="addr:housenumber" v="3904"/><tag k="coa:place_id" v="502562"/></node><node id="-35" lat="30.379152" lon="-97.743864" changeset="false"><tag k="addr:street" v="Honeysuckle Trail"/><tag k="addr:housenumber" v="8802"/><tag k="coa:place_id" v="501680"/></node><node id="-36" lat="30.378616" lon="-97.747176" changeset="false"><tag k="addr:street" v="Tallwood Drive"/><tag k="addr:housenumber" v="8707"/><tag k="coa:place_id" v="501566"/></node><node id="-37" lat="30.37851" lon="-97.742853" changeset="false"><tag k="addr:street" v="Tallwood Drive"/><tag k="addr:housenumber" v="8802"/><tag k="coa:place_id" v="126587"/></node><node id="-38" lat="30.377315" lon="-97.744739" changeset="false"><tag k="addr:street" v="Oakmountain Circle"/><tag k="addr:housenumber" v="8701"/><tag k="coa:place_id" v="501374"/></node><node id="-39" lat="30.381351" lon="-97.744928" changeset="false"><tag k="addr:street" v="Silverarrow Circle"/><tag k="addr:housenumber" v="8819"/><tag k="coa:place_id" v="502964"/></node><node id="-40" lat="30.381533" lon="-97.746445" changeset="false"><tag k="addr:street" v="Silverspring Drive"/><tag k="addr:housenumber" v="4000"/><tag k="coa:place_id" v="503060"/></node><node id="-41" lat="30.379824" lon="-97.742395" changeset="false"><tag k="addr:street" v="Tallwood Drive"/><tag k="addr:housenumber" v="8810"/><tag k="coa:place_id" v="126582"/></node><node id="-42" lat="30.381049" lon="-97.746281" changeset="false"><tag k="addr:street" v="Silverarrow Court"/><tag k="addr:housenumber" v="8801"/><tag k="coa:place_id" v="69410"/></node><node id="-43" lat="30.377178" lon="-97.743235" changeset="false"><tag k="addr:street" v="Willowick Drive"/><tag k="addr:housenumber" v="8702"/><tag k="coa:place_id" v="501260"/></node><node id="-44" lat="30.37758" lon="-97.742018" changeset="false"><tag k="addr:street" v="Azalea Trail"/><tag k="addr:housenumber" v="8800"/><tag k="coa:place_id" v="1040852"/></node><node id="-45" lat="30.376669" lon="-97.737522" changeset="false"><tag k="addr:street" v="North MoPac Expressway"/><tag k="addr:housenumber" v="8811"/><tag k="coa:place_id" v="3142957"/></node><node id="-46" lat="30.378938" lon="-97.74275" changeset="false"><tag k="addr:street" v="Tallwood Drive"/><tag k="addr:housenumber" v="8804"/><tag k="coa:place_id" v="126576"/></node><node id="-47" lat="30.376904" lon="-97.741803" changeset="false"><tag k="addr:street" v="Azalea Trail"/><tag k="addr:housenumber" v="8709"/><tag k="coa:place_id" v="501128"/></node><node id="-48" lat="30.372496" lon="-97.741079" changeset="false"><tag k="addr:street" v="North MoPac Expressway"/><tag k="addr:housenumber" v="8512"/><tag k="coa:place_id" v="454095"/></node><node id="-49" lat="30.377847" lon="-97.742571" changeset="false"><tag k="addr:street" v="Tallwood Drive"/><tag k="addr:housenumber" v="8815"/><tag k="coa:place_id" v="501224"/></node><node id="-50" lat="30.37894" lon="-97.74717" changeset="false"><tag k="addr:street" v="Greenmountain Lane"/><tag k="addr:housenumber" v="3900"/><tag k="coa:place_id" v="502550"/></node><node id="-51" lat="30.372746" lon="-97.739998" changeset="false"><tag k="addr:street" v="North MoPac Expressway"/><tag k="addr:housenumber" v="8601"/><tag k="coa:place_id" v="3085196"/></node><node id="-52" lat="30.380928" lon="-97.743159" changeset="false"><tag k="addr:street" v="Honeysuckle Trail"/><tag k="addr:housenumber" v="8850"/><tag k="coa:place_id" v="470835"/></node><node id="-53" lat="30.380934" lon="-97.743313" changeset="false"><tag k="addr:street" v="Honeysuckle Trail"/><tag k="addr:housenumber" v="8846"/><tag k="coa:place_id" v="502208"/></node><node id="-54" lat="30.380932" lon="-97.743246" changeset="false"><tag k="addr:street" v="Honeysuckle Trail"/><tag k="addr:housenumber" v="8848"/><tag k="coa:place_id" v="470829"/></node><node id="-55" lat="30.380393" lon="-97.743086" changeset="false"><tag k="addr:street" v="Honeysuckle Trail"/><tag k="addr:housenumber" v="8837"/><tag k="coa:place_id" v="470871"/></node><node id="-56" lat="30.380467" lon="-97.743065" changeset="false"><tag k="addr:street" v="Honeysuckle Trail"/><tag k="addr:housenumber" v="8839"/><tag k="coa:place_id" v="470865"/></node><node id="-57" lat="30.380537" lon="-97.743021" changeset="false"><tag k="addr:street" v="Honeysuckle Trail"/><tag k="addr:housenumber" v="8841"/><tag k="coa:place_id" v="470859"/></node><node id="-58" lat="30.380603" lon="-97.743009" changeset="false"><tag k="addr:street" v="Honeysuckle Trail"/><tag k="addr:housenumber" v="8843"/><tag k="coa:place_id" v="470853"/></node><node id="-59" lat="30.380318" lon="-97.743595" changeset="false"><tag k="addr:street" v="Honeysuckle Trail"/><tag k="addr:housenumber" v="8830"/><tag k="coa:place_id" v="501320"/></node><node id="-60" lat="30.380384" lon="-97.743586" changeset="false"><tag k="addr:street" v="Honeysuckle Trail"/><tag k="addr:housenumber" v="8832"/><tag k="coa:place_id" v="501326"/></node><node id="-61" lat="30.380255" lon="-97.743618" changeset="false"><tag k="addr:street" v="Honeysuckle Trail"/><tag k="addr:housenumber" v="8828"/><tag k="coa:place_id" v="501314"/></node><node id="-62" lat="30.380181" lon="-97.74363" changeset="false"><tag k="addr:street" v="Honeysuckle Trail"/><tag k="addr:housenumber" v="8826"/><tag k="coa:place_id" v="501308"/></node><node id="-63" lat="30.380449" lon="-97.743558" changeset="false"><tag k="addr:street" v="Honeysuckle Trail"/><tag k="addr:housenumber" v="8834"/><tag k="coa:place_id" v="501332"/></node><node id="-64" lat="30.380509" lon="-97.743531" changeset="false"><tag k="addr:street" v="Honeysuckle Trail"/><tag k="addr:housenumber" v="8836"/><tag k="coa:place_id" v="501338"/></node><node id="-65" lat="30.380627" lon="-97.743504" changeset="false"><tag k="addr:street" v="Honeysuckle Trail"/><tag k="addr:housenumber" v="8838"/><tag k="coa:place_id" v="470745"/></node><node id="-66" lat="30.380849" lon="-97.743457" changeset="false"><tag k="addr:street" v="Honeysuckle Trail"/><tag k="addr:housenumber" v="8844"/><tag k="coa:place_id" v="470817"/></node><node id="-67" lat="30.38078" lon="-97.743469" changeset="false"><tag k="addr:street" v="Honeysuckle Trail"/><tag k="addr:housenumber" v="8842"/><tag k="coa:place_id" v="470811"/></node><node id="-68" lat="30.380715" lon="-97.743494" changeset="false"><tag k="addr:street" v="Honeysuckle Trail"/><tag k="addr:housenumber" v="8840"/><tag k="coa:place_id" v="470751"/></node><node id="-69" lat="30.380748" lon="-97.74297" changeset="false"><tag k="addr:street" v="Honeysuckle Trail"/><tag k="addr:housenumber" v="8845"/><tag k="coa:place_id" v="470847"/></node><node id="-70" lat="30.380817" lon="-97.742966" changeset="false"><tag k="addr:street" v="Honeysuckle Trail"/><tag k="addr:housenumber" v="8847"/><tag k="coa:place_id" v="470841"/></node><node id="-71" lat="30.379966" lon="-97.743196" changeset="false"><tag k="addr:street" v="Honeysuckle Trail"/><tag k="addr:housenumber" v="8825"/><tag k="coa:place_id" v="470901"/></node><node id="-72" lat="30.3799" lon="-97.743211" changeset="false"><tag k="addr:street" v="Honeysuckle Trail"/><tag k="addr:housenumber" v="8823"/><tag k="coa:place_id" v="470907"/></node><node id="-73" lat="30.380169" lon="-97.743149" changeset="false"><tag k="addr:street" v="Honeysuckle Trail"/><tag k="addr:housenumber" v="8831"/><tag k="coa:place_id" v="470883"/></node><node id="-74" lat="30.380034" lon="-97.743175" changeset="false"><tag k="addr:street" v="Honeysuckle Trail"/><tag k="addr:housenumber" v="8827"/><tag k="coa:place_id" v="470895"/></node><node id="-75" lat="30.380305" lon="-97.743112" changeset="false"><tag k="addr:street" v="Honeysuckle Trail"/><tag k="addr:housenumber" v="8835"/><tag k="coa:place_id" v="527865"/></node><node id="-76" lat="30.379829" lon="-97.743236" changeset="false"><tag k="addr:street" v="Honeysuckle Trail"/><tag k="addr:housenumber" v="8821"/><tag k="coa:place_id" v="470919"/></node><node id="-77" lat="30.380105" lon="-97.743161" changeset="false"><tag k="addr:street" v="Honeysuckle Trail"/><tag k="addr:housenumber" v="8829"/><tag k="coa:place_id" v="470889"/></node><node id="-78" lat="30.380237" lon="-97.743126" changeset="false"><tag k="addr:street" v="Honeysuckle Trail"/><tag k="addr:housenumber" v="8833"/><tag k="coa:place_id" v="470877"/></node><node id="-79" lat="30.379883" lon="-97.743702" changeset="false"><tag k="addr:street" v="Honeysuckle Trail"/><tag k="addr:housenumber" v="8818"/><tag k="coa:place_id" v="502232"/></node><node id="-80" lat="30.380071" lon="-97.743645" changeset="false"><tag k="addr:street" v="Honeysuckle Trail"/><tag k="addr:housenumber" v="8824"/><tag k="coa:place_id" v="502214"/></node><node id="-81" lat="30.380003" lon="-97.743673" changeset="false"><tag k="addr:street" v="Honeysuckle Trail"/><tag k="addr:housenumber" v="8822"/><tag k="coa:place_id" v="502220"/></node><node id="-82" lat="30.379943" lon="-97.743697" changeset="false"><tag k="addr:street" v="Honeysuckle Trail"/><tag k="addr:housenumber" v="8820"/><tag k="coa:place_id" v="502226"/></node><node id="-83" lat="30.379809" lon="-97.74373" changeset="false"><tag k="addr:street" v="Honeysuckle Trail"/><tag k="addr:housenumber" v="8816"/><tag k="coa:place_id" v="502238"/></node><node id="-84" lat="30.379738" lon="-97.743747" changeset="false"><tag k="addr:street" v="Honeysuckle Trail"/><tag k="addr:housenumber" v="8814"/><tag k="coa:place_id" v="502244"/></node><node id="-85" lat="30.379512" lon="-97.743313" changeset="false"><tag k="addr:street" v="Honeysuckle Trail"/><tag k="addr:housenumber" v="8813"/><tag k="coa:place_id" v="445827"/></node><node id="-86" lat="30.379711" lon="-97.743261" changeset="false"><tag k="addr:street" v="Honeysuckle Trail"/><tag k="addr:housenumber" v="8819"/><tag k="coa:place_id" v="445845"/></node><node id="-87" lat="30.379446" lon="-97.743328" changeset="false"><tag k="addr:street" v="Honeysuckle Trail"/><tag k="addr:housenumber" v="8811"/><tag k="coa:place_id" v="445821"/></node><node id="-88" lat="30.379312" lon="-97.743373" changeset="false"><tag k="addr:street" v="Honeysuckle Trail"/><tag k="addr:housenumber" v="8807"/><tag k="coa:place_id" v="445809"/></node><node id="-89" lat="30.37964" lon="-97.743281" changeset="false"><tag k="addr:street" v="Honeysuckle Trail"/><tag k="addr:housenumber" v="8817"/><tag k="coa:place_id" v="445839"/></node><node id="-90" lat="30.379575" lon="-97.743292" changeset="false"><tag k="addr:street" v="Honeysuckle Trail"/><tag k="addr:housenumber" v="8815"/><tag k="coa:place_id" v="445833"/></node><node id="-91" lat="30.37938" lon="-97.743348" changeset="false"><tag k="addr:street" v="Honeysuckle Trail"/><tag k="addr:housenumber" v="8809"/><tag k="coa:place_id" v="445815"/></node><node id="-92" lat="30.380044" lon="-97.745001" changeset="false"><tag k="addr:street" v="Silverspring Drive"/><tag k="addr:housenumber" v="3904"/><tag k="coa:place_id" v="503006"/></node><node id="-93" lat="30.380119" lon="-97.745074" changeset="false"><tag k="addr:street" v="Silverarrow Circle"/><tag k="addr:housenumber" v="8801"/><tag k="coa:place_id" v="502796"/></node><node id="-94" lat="30.379549" lon="-97.7438" changeset="false"><tag k="addr:street" v="Honeysuckle Trail"/><tag k="addr:housenumber" v="8810"/><tag k="coa:place_id" v="470733"/></node><node id="-95" lat="30.37962" lon="-97.743777" changeset="false"><tag k="addr:street" v="Honeysuckle Trail"/><tag k="addr:housenumber" v="8812"/><tag k="coa:place_id" v="470739"/></node><node id="-96" lat="30.379418" lon="-97.743839" changeset="false"><tag k="addr:street" v="Honeysuckle Trail"/><tag k="addr:housenumber" v="8806"/><tag k="coa:place_id" v="470721"/></node><node id="-97" lat="30.379486" lon="-97.743814" changeset="false"><tag k="addr:street" v="Honeysuckle Trail"/><tag k="addr:housenumber" v="8808"/><tag k="coa:place_id" v="470727"/></node><node id="-98" lat="30.378128" lon="-97.743139" changeset="false"><tag k="addr:street" v="Willowick Drive"/><tag k="addr:housenumber" v="8800"/><tag k="coa:place_id" v="501230"/></node><node id="-99" lat="30.378071" lon="-97.743087" changeset="false"><tag k="addr:street" v="Tallwood Drive"/><tag k="addr:housenumber" v="8811"/><tag k="coa:place_id" v="235359"/></node></osm>