<?xml version="1.0" encoding="UTF-8"?><osm version="0.6" generator="github.com/aaronlidman/osm-and-geojson"><node id="-1" lat="30.228856" lon="-97.864892" changeset="false"><tag k="addr:street" v="West William Cannon Drive"/><tag k="addr:housenumber" v="6109"/><tag k="coa:place_id" v="624088"/></node><node id="-2" lat="30.222602" lon="-97.856766" changeset="false"><tag k="addr:street" v="Beckett Road"/><tag k="addr:housenumber" v="7104"/><tag k="coa:place_id" v="150657"/></node><node id="-3" lat="30.223046" lon="-97.859429" changeset="false"><tag k="addr:street" v="Chuck Wagon Trail"/><tag k="addr:housenumber" v="7213"/><tag k="coa:place_id" v="275961"/></node><node id="-4" lat="30.22545" lon="-97.862149" changeset="false"><tag k="addr:street" v="John Blocker Drive"/><tag k="addr:housenumber" v="7203"/><tag k="coa:place_id" v="620800"/></node><node id="-5" lat="30.221173" lon="-97.858137" changeset="false"><tag k="addr:street" v="Trace Chain Drive"/><tag k="addr:housenumber" v="7303"/><tag k="coa:place_id" v="111039"/></node><node id="-6" lat="30.226336" lon="-97.865842" changeset="false"><tag k="addr:street" v="Jumano Lane"/><tag k="addr:housenumber" v="6113"/><tag k="coa:place_id" v="163458"/></node><node id="-7" lat="30.226012" lon="-97.858398" changeset="false"><tag k="addr:street" v="West William Cannon Drive"/><tag k="addr:housenumber" v="5501"/><tag k="coa:place_id" v="3131197"/></node><node id="-8" lat="30.222963" lon="-97.856536" changeset="false"><tag k="addr:street" v="Beckett Road"/><tag k="addr:housenumber" v="7100"/><tag k="coa:place_id" v="140091"/></node><node id="-9" lat="30.222905" lon="-97.862212" changeset="false"><tag k="addr:street" v="Abilene Trail"/><tag k="addr:housenumber" v="5721"/><tag k="coa:place_id" v="523749"/></node><node id="-10" lat="30.227597" lon="-97.86449" changeset="false"><tag k="addr:street" v="Bel Fay Lane"/><tag k="addr:housenumber" v="6039"/><tag k="coa:place_id" v="141474"/></node><node id="-11" lat="30.223551" lon="-97.861637" changeset="false"><tag k="addr:street" v="Abilene Trail"/><tag k="addr:housenumber" v="5713"/><tag k="coa:place_id" v="523719"/></node><node id="-12" lat="30.225302" lon="-97.862876" changeset="false"><tag k="addr:street" v="John Blocker Drive"/><tag k="addr:housenumber" v="7206"/><tag k="coa:place_id" v="601558"/></node><node id="-13" lat="30.22529" lon="-97.862229" changeset="false"><tag k="addr:street" v="John Blocker Drive"/><tag k="addr:housenumber" v="7205"/><tag k="coa:place_id" v="620794"/></node><node id="-14" lat="30.224478" lon="-97.855656" changeset="false"><tag k="addr:street" v="Beckett Road"/><tag k="addr:housenumber" v="6910"/><tag k="coa:place_id" v="92651"/></node><node id="-15" lat="30.223653" lon="-97.856526" changeset="false"><tag k="addr:street" v="Chuck Wagon Trail"/><tag k="addr:housenumber" v="7003"/><tag k="coa:place_id" v="112389"/></node><node id="-16" lat="30.228266" lon="-97.862976" changeset="false"><tag k="addr:street" v="West William Cannon Drive"/><tag k="addr:housenumber" v="6001"/><tag k="coa:place_id" v="132377"/></node><node id="-17" lat="30.224238" lon="-97.862231" changeset="false"><tag k="addr:street" v="Convict Hill Road"/><tag k="addr:housenumber" v="5718"/><tag k="coa:place_id" v="3052885"/></node><node id="-18" lat="30.22674" lon="-97.866702" changeset="false"><tag k="addr:street" v="Quimper Lane"/><tag k="addr:housenumber" v="7200"/><tag k="coa:place_id" v="157283"/></node><node id="-19" lat="30.226573" lon="-97.866307" changeset="false"><tag k="addr:street" v="Quimper Lane"/><tag k="addr:housenumber" v="7201"/><tag k="coa:place_id" v="153731"/></node><node id="-20" lat="30.227298" lon="-97.865386" changeset="false"><tag k="addr:street" v="Jumano Lane"/><tag k="addr:housenumber" v="6133"/><tag k="coa:place_id" v="141565"/></node><node id="-21" lat="30.227289" lon="-97.860576" changeset="false"><tag k="addr:street" v="West William Cannon Drive"/><tag k="addr:housenumber" v="5801"/><tag k="coa:place_id" v="3429244"/></node><node id="-22" lat="30.223493" lon="-97.856663" changeset="false"><tag k="addr:street" v="Chuck Wagon Trail"/><tag k="addr:housenumber" v="7005"/><tag k="coa:place_id" v="112407"/></node><node id="-23" lat="30.224123" lon="-97.855803" changeset="false"><tag k="addr:street" v="Abilene Trail"/><tag k="addr:housenumber" v="5400"/><tag k="coa:place_id" v="259383"/></node><node id="-24" lat="30.225061" lon="-97.866201" changeset="false"><tag k="addr:street" v="Shanghai Pierce Road"/><tag k="addr:housenumber" v="6003"/><tag k="coa:place_id" v="735040"/></node><node id="-25" lat="30.221532" lon="-97.857916" changeset="false"><tag k="addr:street" v="Trace Chain Drive"/><tag k="addr:housenumber" v="7213"/><tag k="coa:place_id" v="111027"/></node><node id="-26" lat="30.223575" lon="-97.859747" changeset="false"><tag k="addr:street" v="Chuck Wagon Trail"/><tag k="addr:housenumber" v="7217"/><tag k="coa:place_id" v="264219"/></node><node id="-27" lat="30.222877" lon="-97.859902" changeset="false"><tag k="addr:street" v="Camp Fire Trail"/><tag k="addr:housenumber" v="5602"/><tag k="coa:place_id" v="261999"/></node><node id="-28" lat="30.221698" lon="-97.859384" changeset="false"><tag k="addr:street" v="Fire Cove"/><tag k="addr:housenumber" v="7304"/><tag k="coa:place_id" v="109443"/></node><node id="-29" lat="30.22486" lon="-97.863318" changeset="false"><tag k="addr:street" v="Shanghai Pierce Road"/><tag k="addr:housenumber" v="5903"/><tag k="coa:place_id" v="595678"/></node><node id="-30" lat="30.224749" lon="-97.863419" changeset="false"><tag k="addr:street" v="Shanghai Pierce Road"/><tag k="addr:housenumber" v="5905"/><tag k="coa:place_id" v="614104"/></node><node id="-31" lat="30.22517" lon="-97.864158" changeset="false"><tag k="addr:street" v="Charles Schreiner Trail"/><tag k="addr:housenumber" v="5905"/><tag k="coa:place_id" v="684478"/></node><node id="-32" lat="30.226256" lon="-97.864481" changeset="false"><tag k="addr:street" v="Ridge Oak Road"/><tag k="addr:housenumber" v="7129"/><tag k="coa:place_id" v="155800"/></node><node id="-33" lat="30.227887" lon="-97.864127" changeset="false"><tag k="addr:street" v="Bel Fay Lane"/><tag k="addr:housenumber" v="6040"/><tag k="coa:place_id" v="141479"/></node><node id="-34" lat="30.226808" lon="-97.860083" changeset="false"><tag k="addr:street" v="West William Cannon Drive"/><tag k="addr:housenumber" v="5701"/><tag k="coa:place_id" v="3134955"/></node><node id="-35" lat="30.222414" lon="-97.856855" changeset="false"><tag k="addr:street" v="Beckett Road"/><tag k="addr:housenumber" v="7106"/><tag k="coa:place_id" v="145929"/></node><node id="-36" lat="30.223274" lon="-97.861973" changeset="false"><tag k="addr:street" v="Abilene Trail"/><tag k="addr:housenumber" v="5717"/><tag k="coa:place_id" v="523731"/></node><node id="-37" lat="30.224427" lon="-97.856419" changeset="false"><tag k="addr:street" v="Abilene Trail"/><tag k="addr:housenumber" v="5406"/><tag k="coa:place_id" v="133659"/></node><node id="-38" lat="30.22446" lon="-97.865111" changeset="false"><tag k="addr:street" v="Shanghai Pierce Road"/><tag k="addr:housenumber" v="5925"/><tag k="coa:place_id" v="696850"/></node><node id="-39" lat="30.225002" lon="-97.862998" changeset="false"><tag k="addr:street" v="John Blocker Drive"/><tag k="addr:housenumber" v="7210"/><tag k="coa:place_id" v="606088"/></node><node id="-40" lat="30.224784" lon="-97.857287" changeset="false"><tag k="addr:street" v="Abilene Trail"/><tag k="addr:housenumber" v="5506"/><tag k="coa:place_id" v="419379"/></node><node id="-41" lat="30.224727" lon="-97.857035" changeset="false"><tag k="addr:street" v="Abilene Trail"/><tag k="addr:housenumber" v="5504"/><tag k="coa:place_id" v="419367"/></node><node id="-42" lat="30.223479" lon="-97.856197" changeset="false"><tag k="addr:street" v="Beckett Road"/><tag k="addr:housenumber" v="7006"/><tag k="coa:place_id" v="134157"/></node><node id="-43" lat="30.221832" lon="-97.859651" changeset="false"><tag k="addr:street" v="Canteen Circle"/><tag k="addr:housenumber" v="7305"/><tag k="coa:place_id" v="243639"/></node><node id="-44" lat="30.222119" lon="-97.860269" changeset="false"><tag k="addr:street" v="Canteen Circle"/><tag k="addr:housenumber" v="7304"/><tag k="coa:place_id" v="245055"/></node><node id="-45" lat="30.223566" lon="-97.858141" changeset="false"><tag k="addr:street" v="Wagon Train Road"/><tag k="addr:housenumber" v="5507"/><tag k="coa:place_id" v="321345"/></node><node id="-46" lat="30.224342" lon="-97.862559" changeset="false"><tag k="addr:street" v="John Blocker Drive"/><tag k="addr:housenumber" v="7219"/><tag k="coa:place_id" v="647182"/></node><node id="-47" lat="30.223123" lon="-97.862699" changeset="false"><tag k="addr:street" v="Abilene Trail"/><tag k="addr:housenumber" v="5724"/><tag k="coa:place_id" v="523617"/></node><node id="-48" lat="30.225204" lon="-97.86235" changeset="false"><tag k="addr:street" v="John Blocker Drive"/><tag k="addr:housenumber" v="7207"/><tag k="coa:place_id" v="634156"/></node><node id="-49" lat="30.22424" lon="-97.855636" changeset="false"><tag k="addr:street" v="Beckett Road"/><tag k="addr:housenumber" v="7000 1/2"/><tag k="coa:place_id" v="3290648"/></node><node id="-50" lat="30.226042" lon="-97.866012" changeset="false"><tag k="addr:street" v="Jumano Lane"/><tag k="addr:housenumber" v="6105"/><tag k="coa:place_id" v="141555"/></node><node id="-51" lat="30.22189" lon="-97.857657" changeset="false"><tag k="addr:street" v="Trace Chain Drive"/><tag k="addr:housenumber" v="7209"/><tag k="coa:place_id" v="120939"/></node><node id="-52" lat="30.221888" lon="-97.859287" changeset="false"><tag k="addr:street" v="Fire Cove"/><tag k="addr:housenumber" v="7302"/><tag k="coa:place_id" v="107919"/></node><node id="-53" lat="30.222655" lon="-97.861253" changeset="false"><tag k="addr:street" v="Wagon Train Road"/><tag k="addr:housenumber" v="5625"/><tag k="coa:place_id" v="311013"/></node><node id="-54" lat="30.223374" lon="-97.861747" changeset="false"><tag k="addr:street" v="Abilene Trail"/><tag k="addr:housenumber" v="5715"/><tag k="coa:place_id" v="523725"/></node><node id="-55" lat="30.221489" lon="-97.857378" changeset="false"><tag k="addr:street" v="Beckett Road"/><tag k="addr:housenumber" v="7208"/><tag k="coa:place_id" v="174549"/></node><node id="-56" lat="30.221328" lon="-97.858012" changeset="false"><tag k="addr:street" v="Trace Chain Drive"/><tag k="addr:housenumber" v="7301"/><tag k="coa:place_id" v="111033"/></node><node id="-57" lat="30.221889" lon="-97.857203" changeset="false"><tag k="addr:street" v="Beckett Road"/><tag k="addr:housenumber" v="7204"/><tag k="coa:place_id" v="149193"/></node><node id="-58" lat="30.221931" lon="-97.86019" changeset="false"><tag k="addr:street" v="Canteen Circle"/><tag k="addr:housenumber" v="7306"/><tag k="coa:place_id" v="295701"/></node><node id="-59" lat="30.225505" lon="-97.867408" changeset="false"><tag k="addr:street" v="Convict Hill Road"/><tag k="addr:housenumber" v="6110"/><tag k="coa:place_id" v="128935"/></node><node id="-60" lat="30.222507" lon="-97.861404" changeset="false"><tag k="addr:street" v="Wagon Train Road"/><tag k="addr:housenumber" v="5627"/><tag k="coa:place_id" v="310383"/></node><node id="-61" lat="30.228066" lon="-97.866136" changeset="false"><tag k="addr:street" v="Jumano Lane"/><tag k="addr:housenumber" v="6207"/><tag k="coa:place_id" v="141522"/></node><node id="-62" lat="30.222126" lon="-97.859597" changeset="false"><tag k="addr:street" v="Canteen Circle"/><tag k="addr:housenumber" v="7301"/><tag k="coa:place_id" v="243627"/></node><node id="-63" lat="30.227263" lon="-97.861328" changeset="false"><tag k="addr:street" v="West William Cannon Drive"/><tag k="addr:housenumber" v="5815"/><tag k="coa:place_id" v="147772"/></node><node id="-64" lat="30.223676" lon="-97.864156" changeset="false"><tag k="addr:street" v="John Blocker Drive"/><tag k="addr:housenumber" v="7314"/><tag k="coa:place_id" v="100050"/></node><node id="-65" lat="30.22641" lon="-97.858919" changeset="false"><tag k="addr:street" v="West William Cannon Drive"/><tag k="addr:housenumber" v="5601"/><tag k="coa:place_id" v="3134954"/></node><node id="-66" lat="30.223057" lon="-97.859956" changeset="false"><tag k="addr:street" v="Camp Fire Trail"/><tag k="addr:housenumber" v="5604"/><tag k="coa:place_id" v="263637"/></node><node id="-67" lat="30.22494" lon="-97.862375" changeset="false"><tag k="addr:street" v="John Blocker Drive"/><tag k="addr:housenumber" v="7211"/><tag k="coa:place_id" v="629152"/></node><node id="-68" lat="30.224859" lon="-97.862995" changeset="false"><tag k="addr:street" v="John Blocker Drive"/><tag k="addr:housenumber" v="7212"/><tag k="coa:place_id" v="607090"/></node><node id="-69" lat="30.224787" lon="-97.865977" changeset="false"><tag k="addr:street" v="Charles Schreiner Trail"/><tag k="addr:housenumber" v="5926"/><tag k="coa:place_id" v="733270"/></node><node id="-70" lat="30.223921" lon="-97.86428" changeset="false"><tag k="addr:street" v="John Blocker Drive"/><tag k="addr:housenumber" v="7310"/><tag k="coa:place_id" v="1140871"/></node><node id="-71" lat="30.223266" lon="-97.859565" changeset="false"><tag k="addr:street" v="Chuck Wagon Trail"/><tag k="addr:housenumber" v="7215"/><tag k="coa:place_id" v="275121"/></node><node id="-72" lat="30.222454" lon="-97.857366" changeset="false"><tag k="addr:street" v="Trace Chain Drive"/><tag k="addr:housenumber" v="7203"/><tag k="coa:place_id" v="123447"/></node><node id="-73" lat="30.222084" lon="-97.85874" changeset="false"><tag k="addr:street" v="Fire Cove"/><tag k="addr:housenumber" v="7301"/><tag k="coa:place_id" v="107913"/></node><node id="-74" lat="30.223853" lon="-97.862872" changeset="false"><tag k="addr:street" v="John Blocker Court"/><tag k="addr:housenumber" v="5802"/><tag k="coa:place_id" v="672556"/></node><node id="-75" lat="30.224512" lon="-97.865268" changeset="false"><tag k="addr:street" v="Shanghai Pierce Road"/><tag k="addr:housenumber" v="5927"/><tag k="coa:place_id" v="714028"/></node><node id="-76" lat="30.220791" lon="-97.85784" changeset="false"><tag k="addr:street" v="Beckett Road"/><tag k="addr:housenumber" v="7304"/><tag k="coa:place_id" v="162189"/></node><node id="-77" lat="30.224849" lon="-97.859495" changeset="false"><tag k="addr:street" v="Abilene Trail"/><tag k="addr:housenumber" v="5612"/><tag k="coa:place_id" v="523503"/></node><node id="-78" lat="30.223608" lon="-97.863873" changeset="false"><tag k="addr:street" v="John Blocker Drive"/><tag k="addr:housenumber" v="7307"/><tag k="coa:place_id" v="111480"/></node><node id="-79" lat="30.221719" lon="-97.857776" changeset="false"><tag k="addr:street" v="Trace Chain Drive"/><tag k="addr:housenumber" v="7211"/><tag k="coa:place_id" v="111021"/></node><node id="-80" lat="30.225039" lon="-97.86237" changeset="false"><tag k="addr:street" v="John Blocker Drive"/><tag k="addr:housenumber" v="7209"/><tag k="coa:place_id" v="634162"/></node><node id="-81" lat="30.2255" lon="-97.863279" changeset="false"><tag k="addr:street" v="Charles Schreiner Trail"/><tag k="addr:housenumber" v="5808"/><tag k="coa:place_id" v="601966"/></node><node id="-82" lat="30.220969" lon="-97.858236" changeset="false"><tag k="addr:street" v="Trace Chain Drive"/><tag k="addr:housenumber" v="7305"/><tag k="coa:place_id" v="259377"/></node><node id="-83" lat="30.222846" lon="-97.858179" changeset="false"><tag k="addr:street" v="Chuck Wagon Trail"/><tag k="addr:housenumber" v="7201"/><tag k="coa:place_id" v="278751"/></node><node id="-84" lat="30.222056" lon="-97.85844" changeset="false"><tag k="addr:street" v="Camp Fire Trail"/><tag k="addr:housenumber" v="5503"/><tag k="coa:place_id" v="109419"/></node><node id="-85" lat="30.223886" lon="-97.861052" changeset="false"><tag k="addr:street" v="Abilene Trail"/><tag k="addr:housenumber" v="5707"/><tag k="coa:place_id" v="817233"/></node><node id="-86" lat="30.224291" lon="-97.857794" changeset="false"><tag k="addr:street" v="Abilene Trail"/><tag k="addr:housenumber" v="5509"/><tag k="coa:place_id" v="346329"/></node><node id="-87" lat="30.22738" lon="-97.864237" changeset="false"><tag k="addr:street" v="Bel Fay Lane"/><tag k="addr:housenumber" v="6031"/><tag k="coa:place_id" v="141472"/></node><node id="-88" lat="30.224349" lon="-97.86536" changeset="false"><tag k="addr:street" v="Convict Hill Road"/><tag k="addr:housenumber" v="5918"/><tag k="coa:place_id" v="1140868"/></node><node id="-89" lat="30.221741" lon="-97.858356" changeset="false"><tag k="addr:street" v="Trace Chain Drive"/><tag k="addr:housenumber" v="7210"/><tag k="coa:place_id" v="109425"/></node><node id="-90" lat="30.225633" lon="-97.862215" changeset="false"><tag k="addr:street" v="John Blocker Drive"/><tag k="addr:housenumber" v="7201"/><tag k="coa:place_id" v="1140867"/></node><node id="-91" lat="30.226734" lon="-97.86197" changeset="false"><tag k="addr:street" v="Kabaye Cove"/><tag k="addr:housenumber" v="5908"/><tag k="coa:place_id" v="171137"/></node><node id="-92" lat="30.227522" lon="-97.865324" changeset="false"><tag k="addr:street" v="Jumano Lane"/><tag k="addr:housenumber" v="6141"/><tag k="coa:place_id" v="141564"/></node></osm>