<?xml version="1.0" encoding="UTF-8"?><osm version="0.6" generator="github.com/aaronlidman/osm-and-geojson"><node id="-1" lat="30.338767" lon="-97.717006" changeset="false"><tag k="addr:street" v="West Saint John's Avenue"/><tag k="addr:housenumber" v="701"/><tag k="addr:postcode" v="78752"/></node><node id="-2" lat="30.336615" lon="-97.716247" changeset="false"><tag k="addr:street" v="Kawnee Drive"/><tag k="addr:housenumber" v="611"/><tag k="addr:postcode" v="78752"/></node><node id="-3" lat="30.338945" lon="-97.717928" changeset="false"><tag k="addr:street" v="North Lamar Boulevard"/><tag k="addr:housenumber" v="7107"/><tag k="addr:postcode" v="78752"/></node><node id="-4" lat="30.335563" lon="-97.717141" changeset="false"><tag k="addr:street" v="Kenniston Drive"/><tag k="addr:housenumber" v="610"/><tag k="addr:postcode" v="78752"/></node><node id="-5" lat="30.333925" lon="-97.71516" changeset="false"><tag k="addr:street" v="Kenniston Drive"/><tag k="addr:housenumber" v="407"/><tag k="addr:postcode" v="78752"/></node><node id="-6" lat="30.336593" lon="-97.718084" changeset="false"><tag k="addr:street" v="Airport Boulevard"/><tag k="addr:housenumber" v="6927"/><tag k="addr:postcode" v="78752"/></node><node id="-7" lat="30.339118" lon="-97.717541" changeset="false"><tag k="addr:street" v="West Saint John's Avenue"/><tag k="addr:housenumber" v="705"/><tag k="addr:postcode" v="78752"/></node><node id="-8" lat="30.337965" lon="-97.715329" changeset="false"><tag k="addr:street" v="West Saint John's Avenue"/><tag k="addr:housenumber" v="607"/><tag k="addr:postcode" v="78752"/></node><node id="-9" lat="30.335364" lon="-97.714805" changeset="false"><tag k="addr:street" v="Swanee Drive"/><tag k="addr:housenumber" v="502"/><tag k="addr:postcode" v="78752"/></node><node id="-10" lat="30.334057" lon="-97.716681" changeset="false"><tag k="addr:street" v="Guadalupe Street"/><tag k="addr:housenumber" v="6803"/><tag k="addr:postcode" v="78752"/></node><node id="-11" lat="30.338093" lon="-97.715611" changeset="false"><tag k="addr:street" v="West Saint John's Avenue"/><tag k="addr:housenumber" v="611"/><tag k="addr:postcode" v="78752"/></node><node id="-12" lat="30.334522" lon="-97.716879" changeset="false"><tag k="addr:street" v="Airport Boulevard"/><tag k="addr:housenumber" v="6805"/><tag k="addr:postcode" v="78752"/></node><node id="-13" lat="30.334169" lon="-97.716101" changeset="false"><tag k="addr:street" v="Guadalupe Street"/><tag k="addr:housenumber" v="6805"/><tag k="addr:postcode" v="78752"/></node><node id="-14" lat="30.336006" lon="-97.71634" changeset="false"><tag k="addr:street" v="Swanee Drive"/><tag k="addr:housenumber" v="610"/><tag k="addr:postcode" v="78752"/></node><node id="-15" lat="30.336299" lon="-97.712614" changeset="false"><tag k="addr:street" v="West Saint John's Avenue"/><tag k="addr:housenumber" v="401"/><tag k="addr:postcode" v="78752"/></node><node id="-16" lat="30.333311" lon="-97.715455" changeset="false"><tag k="addr:street" v="Pampa Drive"/><tag k="addr:housenumber" v="412"/><tag k="addr:postcode" v="78752"/></node><node id="-17" lat="30.337598" lon="-97.718752" changeset="false"><tag k="addr:street" v="North Lamar Boulevard"/><tag k="addr:housenumber" v="6929"/><tag k="addr:postcode" v="78752"/></node><node id="-18" lat="30.339036" lon="-97.717872" changeset="false"><tag k="addr:street" v="North Lamar Boulevard"/><tag k="addr:housenumber" v="7115"/><tag k="addr:postcode" v="78752"/></node><node id="-19" lat="30.33659" lon="-97.716278" changeset="false"><tag k="addr:street" v="Kawnee Drive"/><tag k="addr:housenumber" v="613"/><tag k="addr:postcode" v="78752"/></node><node id="-20" lat="30.334645" lon="-97.71434" changeset="false"><tag k="addr:street" v="Swanee Drive"/><tag k="addr:housenumber" v="407"/><tag k="addr:postcode" v="78752"/></node><node id="-21" lat="30.336848" lon="-97.715629" changeset="false"><tag k="addr:street" v="Kawnee Drive"/><tag k="addr:housenumber" v="600"/><tag k="addr:postcode" v="78752"/></node><node id="-22" lat="30.336097" lon="-97.716328" changeset="false"><tag k="addr:street" v="Swanee Drive"/><tag k="addr:housenumber" v="606"/><tag k="addr:postcode" v="78752"/></node><node id="-23" lat="30.334696" lon="-97.714807" changeset="false"><tag k="addr:street" v="Swanee Drive"/><tag k="addr:housenumber" v="409"/><tag k="addr:postcode" v="78752"/></node><node id="-24" lat="30.334922" lon="-97.715087" changeset="false"><tag k="addr:street" v="Swanee Drive"/><tag k="addr:housenumber" v="503"/><tag k="addr:postcode" v="78752"/></node><node id="-25" lat="30.330902" lon="-97.715136" changeset="false"><tag k="addr:street" v="Airport Boulevard"/><tag k="addr:housenumber" v="6611"/><tag k="addr:postcode" v="78752"/></node><node id="-26" lat="30.3311" lon="-97.715138" changeset="false"><tag k="addr:street" v="Airport Boulevard"/><tag k="addr:housenumber" v="6617"/><tag k="addr:postcode" v="78752"/></node><node id="-27" lat="30.330756" lon="-97.715131" changeset="false"><tag k="addr:street" v="Airport Boulevard"/><tag k="addr:housenumber" v="6607"/><tag k="addr:postcode" v="78752"/></node><node id="-28" lat="30.330965" lon="-97.715141" changeset="false"><tag k="addr:street" v="Airport Boulevard"/><tag k="addr:housenumber" v="6613"/><tag k="addr:postcode" v="78752"/></node><node id="-29" lat="30.331037" lon="-97.71514" changeset="false"><tag k="addr:street" v="Airport Boulevard"/><tag k="addr:housenumber" v="6615"/><tag k="addr:postcode" v="78752"/></node><node id="-30" lat="30.330665" lon="-97.71513" changeset="false"><tag k="addr:street" v="Airport Boulevard"/><tag k="addr:housenumber" v="6605"/><tag k="addr:postcode" v="78752"/></node><node id="-31" lat="30.330662" lon="-97.715224" changeset="false"><tag k="addr:street" v="Airport Boulevard"/><tag k="addr:housenumber" v="6603"/><tag k="addr:postcode" v="78752"/></node><node id="-32" lat="30.330836" lon="-97.715135" changeset="false"><tag k="addr:street" v="Airport Boulevard"/><tag k="addr:housenumber" v="6609"/><tag k="addr:postcode" v="78752"/></node><node id="-33" lat="30.330851" lon="-97.715061" changeset="false"><tag k="addr:street" v="East Huntland Drive"/><tag k="addr:housenumber" v="300"/><tag k="addr:postcode" v="78752"/></node><node id="-34" lat="30.330663" lon="-97.715312" changeset="false"><tag k="addr:street" v="Airport Boulevard"/><tag k="addr:housenumber" v="6601"/><tag k="addr:postcode" v="78752"/></node><node id="-35" lat="30.331163" lon="-97.715144" changeset="false"><tag k="addr:street" v="Airport Boulevard"/><tag k="addr:housenumber" v="6619"/><tag k="addr:postcode" v="78752"/></node><node id="-36" lat="30.338397" lon="-97.716882" changeset="false"><tag k="addr:street" v="West Saint John's Avenue"/><tag k="addr:housenumber" v="629"/><tag k="addr:postcode" v="78752"/></node><node id="-37" lat="30.338332" lon="-97.716715" changeset="false"><tag k="addr:street" v="West Saint John's Avenue"/><tag k="addr:housenumber" v="621"/><tag k="addr:postcode" v="78752"/></node><node id="-38" lat="30.338992" lon="-97.717491" changeset="false"><tag k="addr:street" v="West Saint John's Avenue"/><tag k="addr:housenumber" v="713"/><tag k="addr:postcode" v="78752"/></node><node id="-39" lat="30.338947" lon="-97.717326" changeset="false"><tag k="addr:street" v="West Saint John's Avenue"/><tag k="addr:housenumber" v="711"/><tag k="addr:postcode" v="78752"/></node><node id="-40" lat="30.338786" lon="-97.717228" changeset="false"><tag k="addr:street" v="West Saint John's Avenue"/><tag k="addr:housenumber" v="709"/><tag k="addr:postcode" v="78752"/></node><node id="-41" lat="30.337079" lon="-97.715942" changeset="false"><tag k="addr:street" v="Kawnee Drive"/><tag k="addr:housenumber" v="608"/><tag k="addr:postcode" v="78752"/></node><node id="-42" lat="30.337018" lon="-97.715974" changeset="false"><tag k="addr:street" v="Kawnee Drive"/><tag k="addr:housenumber" v="612"/><tag k="addr:postcode" v="78752"/></node><node id="-43" lat="30.335474" lon="-97.716952" changeset="false"><tag k="addr:street" v="Kenniston Drive"/><tag k="addr:housenumber" v="608"/><tag k="addr:postcode" v="78752"/></node><node id="-44" lat="30.33533" lon="-97.716849" changeset="false"><tag k="addr:street" v="Kenniston Drive"/><tag k="addr:housenumber" v="606"/><tag k="addr:postcode" v="78752"/></node><node id="-45" lat="30.334917" lon="-97.71709" changeset="false"><tag k="addr:street" v="Airport Boulevard"/><tag k="addr:housenumber" v="6821"/><tag k="addr:postcode" v="78752"/></node><node id="-46" lat="30.334722" lon="-97.716757" changeset="false"><tag k="addr:street" v="Guadalupe Street"/><tag k="addr:housenumber" v="6820"/><tag k="addr:postcode" v="78752"/></node></osm>