<?xml version="1.0" encoding="UTF-8"?><osm version="0.6" generator="github.com/aaronlidman/osm-and-geojson"><node id="-1" lat="30.401134" lon="-97.851505" changeset="false"><tag k="addr:street" v="Ranch to Market Road 2222"/><tag k="addr:housenumber" v="11302"/><tag k="addr:postcode" v="78726"/></node><node id="-2" lat="30.433849" lon="-97.831857" changeset="false"><tag k="addr:street" v="Boulder Lane"/><tag k="addr:housenumber" v="10841 1/2"/><tag k="addr:postcode" v="78726"/></node><node id="-3" lat="30.437675" lon="-97.83064" changeset="false"><tag k="addr:street" v="Barbrook Cove"/><tag k="addr:housenumber" v="11412"/><tag k="addr:postcode" v="78726"/></node><node id="-4" lat="30.408876" lon="-97.845097" changeset="false"><tag k="addr:street" v="Zimmerman Lane"/><tag k="addr:housenumber" v="11250"/><tag k="addr:postcode" v="78726"/></node><node id="-5" lat="30.40815" lon="-97.843438" changeset="false"><tag k="addr:street" v="Zimmerman Lane"/><tag k="addr:housenumber" v="11109"/><tag k="addr:postcode" v="78726"/></node><node id="-6" lat="30.396423" lon="-97.847122" changeset="false"><tag k="addr:street" v="Ranch to Market Road 2222"/><tag k="addr:housenumber" v="10821"/><tag k="addr:postcode" v="78726"/></node><node id="-7" lat="30.434941" lon="-97.840058" changeset="false"><tag k="addr:street" v="Ranch Road 620"/><tag k="addr:housenumber" v="9501"/><tag k="addr:postcode" v="78726"/></node><node id="-8" lat="30.437901" lon="-97.820076" changeset="false"><tag k="addr:street" v="Broken Brook Cove"/><tag k="addr:housenumber" v="10824"/><tag k="addr:postcode" v="78726"/></node><node id="-9" lat="30.445568" lon="-97.830378" changeset="false"><tag k="addr:street" v="Foundation Road"/><tag k="addr:housenumber" v="10700"/><tag k="addr:postcode" v="78726"/></node><node id="-10" lat="30.447938" lon="-97.827584" changeset="false"><tag k="addr:street" v="Turtle Lane"/><tag k="addr:housenumber" v="11602"/><tag k="addr:postcode" v="78726"/></node><node id="-11" lat="30.432308" lon="-97.83172" changeset="false"><tag k="addr:street" v="Boulder Lane"/><tag k="addr:housenumber" v="10813"/><tag k="addr:postcode" v="78726"/></node><node id="-12" lat="30.437514" lon="-97.822933" changeset="false"><tag k="addr:street" v="Boulder Lane"/><tag k="addr:housenumber" v="10970"/><tag k="addr:postcode" v="78726"/></node><node id="-13" lat="30.427464" lon="-97.842633" changeset="false"><tag k="addr:street" v="Ranch Road 620"/><tag k="addr:housenumber" v="8801"/><tag k="addr:postcode" v="78726"/></node><node id="-14" lat="30.446141" lon="-97.83114" changeset="false"><tag k="addr:street" v="Ranch Road 620"/><tag k="addr:housenumber" v="10705"/><tag k="addr:postcode" v="78726"/></node><node id="-15" lat="30.409267" lon="-97.850534" changeset="false"><tag k="addr:street" v="Ranch Road 620"/><tag k="addr:housenumber" v="7655"/><tag k="addr:postcode" v="78726"/></node><node id="-16" lat="30.436969" lon="-97.816005" changeset="false"><tag k="addr:street" v="Bramblecrest Drive"/><tag k="addr:housenumber" v="10700"/><tag k="addr:postcode" v="78726"/></node><node id="-17" lat="30.437736" lon="-97.819067" changeset="false"><tag k="addr:street" v="Broken Brook Cove"/><tag k="addr:housenumber" v="10805"/><tag k="addr:postcode" v="78726"/></node><node id="-18" lat="30.395777" lon="-97.846574" changeset="false"><tag k="addr:street" v="Ranch to Market Road 2222"/><tag k="addr:housenumber" v="10806"/><tag k="addr:postcode" v="78726"/></node><node id="-19" lat="30.400184" lon="-97.844356" changeset="false"><tag k="addr:street" v="River Place Boulevard"/><tag k="addr:housenumber" v="7100"/><tag k="addr:postcode" v="78726"/></node><node id="-20" lat="30.402055" lon="-97.845927" changeset="false"><tag k="addr:street" v="Four Points Drive"/><tag k="addr:housenumber" v="11040"/><tag k="addr:postcode" v="78726"/></node><node id="-21" lat="30.408915" lon="-97.844553" changeset="false"><tag k="addr:street" v="Zimmerman Lane"/><tag k="addr:housenumber" v="11141"/><tag k="addr:postcode" v="78726"/></node><node id="-22" lat="30.400007" lon="-97.850557" changeset="false"><tag k="addr:street" v="Ranch to Market Road 2222"/><tag k="addr:housenumber" v="11210"/><tag k="addr:postcode" v="78726"/></node><node id="-23" lat="30.451602" lon="-97.826123" changeset="false"><tag k="addr:street" v="Ranch Road 620"/><tag k="addr:housenumber" v="11411"/><tag k="addr:postcode" v="78726"/></node><node id="-24" lat="30.415229" lon="-97.847366" changeset="false"><tag k="addr:street" v="Ranch Road 620"/><tag k="addr:housenumber" v="8021"/><tag k="addr:postcode" v="78726"/></node><node id="-25" lat="30.446694" lon="-97.830935" changeset="false"><tag k="addr:street" v="Ranch Road 620"/><tag k="addr:housenumber" v="10713"/><tag k="addr:postcode" v="78726"/></node><node id="-26" lat="30.444176" lon="-97.82921" changeset="false"><tag k="addr:street" v="Hare Trail"/><tag k="addr:housenumber" v="11603"/><tag k="addr:postcode" v="78726"/></node><node id="-27" lat="30.395578" lon="-97.846258" changeset="false"><tag k="addr:street" v="Ranch to Market Road 2222"/><tag k="addr:housenumber" v="10800"/><tag k="addr:postcode" v="78726"/></node><node id="-28" lat="30.402796" lon="-97.8385" changeset="false"><tag k="addr:street" v="River Place Boulevard"/><tag k="addr:housenumber" v="7605"/><tag k="addr:postcode" v="78726"/></node><node id="-29" lat="30.4355" lon="-97.836966" changeset="false"><tag k="addr:street" v="Ranch Road 620"/><tag k="addr:housenumber" v="9601 1/2"/><tag k="addr:postcode" v="78726"/></node><node id="-30" lat="30.444522" lon="-97.829855" changeset="false"><tag k="addr:street" v="Hare Trail"/><tag k="addr:housenumber" v="11607"/><tag k="addr:postcode" v="78726"/></node><node id="-31" lat="30.448153" lon="-97.826067" changeset="false"><tag k="addr:street" v="Turtle Lane"/><tag k="addr:housenumber" v="11534"/><tag k="addr:postcode" v="78726"/></node><node id="-32" lat="30.434089" lon="-97.824227" changeset="false"><tag k="addr:street" v="Dark Star Terrace"/><tag k="addr:housenumber" v="10034"/><tag k="addr:postcode" v="78726"/></node><node id="-33" lat="30.409536" lon="-97.844041" changeset="false"><tag k="addr:street" v="Zimmerman Lane"/><tag k="addr:housenumber" v="11200"/><tag k="addr:postcode" v="78726"/></node><node id="-34" lat="30.39525" lon="-97.845771" changeset="false"><tag k="addr:street" v="Ranch to Market Road 2222"/><tag k="addr:housenumber" v="10716"/><tag k="addr:postcode" v="78726"/></node><node id="-35" lat="30.445441" lon="-97.829134" changeset="false"><tag k="addr:street" v="Hare Trail"/><tag k="addr:housenumber" v="11604"/><tag k="addr:postcode" v="78726"/></node><node id="-36" lat="30.444759" lon="-97.827162" changeset="false"><tag k="addr:street" v="Hare Trail"/><tag k="addr:housenumber" v="11502"/><tag k="addr:postcode" v="78726"/></node><node id="-37" lat="30.446418" lon="-97.829742" changeset="false"><tag k="addr:street" v="Foundation Road"/><tag k="addr:housenumber" v="10706"/><tag k="addr:postcode" v="78726"/></node><node id="-38" lat="30.432306" lon="-97.833709" changeset="false"><tag k="addr:street" v="Savannah Ridge Drive"/><tag k="addr:housenumber" v="9550"/><tag k="addr:postcode" v="78726"/></node><node id="-39" lat="30.451013" lon="-97.824757" changeset="false"><tag k="addr:street" v="Ranch Road 620"/><tag k="addr:housenumber" v="11409"/><tag k="addr:postcode" v="78726"/></node><node id="-40" lat="30.409012" lon="-97.844744" changeset="false"><tag k="addr:street" v="Zimmerman Lane"/><tag k="addr:housenumber" v="11205"/><tag k="addr:postcode" v="78726"/></node><node id="-41" lat="30.43743" lon="-97.820595" changeset="false"><tag k="addr:street" v="Broken Brook Cove"/><tag k="addr:housenumber" v="10825"/><tag k="addr:postcode" v="78726"/></node><node id="-42" lat="30.43439" lon="-97.815505" changeset="false"><tag k="addr:street" v="Bramblecrest Drive"/><tag k="addr:housenumber" v="10756"/><tag k="addr:postcode" v="78726"/></node><node id="-43" lat="30.447802" lon="-97.825545" changeset="false"><tag k="addr:street" v="Turtle Lane"/><tag k="addr:housenumber" v="11532"/><tag k="addr:postcode" v="78726"/></node><node id="-44" lat="30.452552" lon="-97.82325" changeset="false"><tag k="addr:street" v="Anderson Mill Road"/><tag k="addr:housenumber" v="11513"/><tag k="addr:postcode" v="78726"/></node><node id="-45" lat="30.408538" lon="-97.850812" changeset="false"><tag k="addr:street" v="Ranch Road 620"/><tag k="addr:housenumber" v="7601"/><tag k="addr:postcode" v="78726"/></node><node id="-46" lat="30.407924" lon="-97.844178" changeset="false"><tag k="addr:street" v="Zimmerman Lane"/><tag k="addr:housenumber" v="11115"/><tag k="addr:postcode" v="78726"/></node><node id="-47" lat="30.398416" lon="-97.845454" changeset="false"><tag k="addr:street" v="River Place Boulevard"/><tag k="addr:housenumber" v="7002 1/2"/><tag k="addr:postcode" v="78726"/></node><node id="-48" lat="30.43742" lon="-97.837413" changeset="false"><tag k="addr:street" v="Ranch Road 620"/><tag k="addr:housenumber" v="9807"/><tag k="addr:postcode" v="78726"/></node><node id="-49" lat="30.452183" lon="-97.822642" changeset="false"><tag k="addr:street" v="Anderson Mill Road"/><tag k="addr:housenumber" v="11505"/><tag k="addr:postcode" v="78726"/></node><node id="-50" lat="30.415229" lon="-97.843975" changeset="false"><tag k="addr:street" v="Rock Harbour Drive"/><tag k="addr:housenumber" v="11400"/><tag k="addr:postcode" v="78726"/></node><node id="-51" lat="30.432398" lon="-97.818493" changeset="false"><tag k="addr:street" v="Kilmarnock Drive"/><tag k="addr:housenumber" v="10328"/><tag k="addr:postcode" v="78726"/></node><node id="-52" lat="30.448506" lon="-97.829959" changeset="false"><tag k="addr:street" v="Ranch Road 620"/><tag k="addr:housenumber" v="10907"/><tag k="addr:postcode" v="78726"/></node><node id="-53" lat="30.396082" lon="-97.844463" changeset="false"><tag k="addr:street" v="River Place Boulevard"/><tag k="addr:housenumber" v="6801"/><tag k="addr:postcode" v="78726"/></node><node id="-54" lat="30.403297" lon="-97.853035" changeset="false"><tag k="addr:street" v="Ranch to Market Road 2222"/><tag k="addr:housenumber" v="11416 1/2"/><tag k="addr:postcode" v="78726"/></node><node id="-55" lat="30.400178" lon="-97.843835" changeset="false"><tag k="addr:street" v="River Place Boulevard"/><tag k="addr:housenumber" v="7101"/><tag k="addr:postcode" v="78726"/></node><node id="-56" lat="30.451129" lon="-97.828626" changeset="false"><tag k="addr:street" v="Ranch Road 620"/><tag k="addr:housenumber" v="11205"/><tag k="addr:postcode" v="78726"/></node><node id="-57" lat="30.451543" lon="-97.828235" changeset="false"><tag k="addr:street" v="Ranch Road 620"/><tag k="addr:housenumber" v="11213"/><tag k="addr:postcode" v="78726"/></node><node id="-58" lat="30.449902" lon="-97.829307" changeset="false"><tag k="addr:street" v="Ranch Road 620"/><tag k="addr:housenumber" v="11101"/><tag k="addr:postcode" v="78726"/></node><node id="-59" lat="30.411055" lon="-97.847143" changeset="false"><tag k="addr:street" v="Zimmerman Lane"/><tag k="addr:housenumber" v="11400"/><tag k="addr:postcode" v="78726"/></node><node id="-60" lat="30.436789" lon="-97.815932" changeset="false"><tag k="addr:street" v="Bramblecrest Drive"/><tag k="addr:housenumber" v="10704"/><tag k="addr:postcode" v="78726"/></node><node id="-61" lat="30.433455" lon="-97.81816" changeset="false"><tag k="addr:street" v="Chestnut Ridge Road"/><tag k="addr:housenumber" v="10405"/><tag k="addr:postcode" v="78726"/></node><node id="-62" lat="30.450922" lon="-97.822542" changeset="false"><tag k="addr:street" v="Antler Lane"/><tag k="addr:housenumber" v="11408"/><tag k="addr:postcode" v="78726"/></node><node id="-63" lat="30.433227" lon="-97.830938" changeset="false"><tag k="addr:street" v="Boulder Lane"/><tag k="addr:housenumber" v="10841"/><tag k="addr:postcode" v="78726"/></node><node id="-64" lat="30.429661" lon="-97.8417" changeset="false"><tag k="addr:street" v="Ranch Road 620"/><tag k="addr:housenumber" v="9001"/><tag k="addr:postcode" v="78726"/></node><node id="-65" lat="30.433674" lon="-97.816094" changeset="false"><tag k="addr:street" v="Bramblecrest Drive"/><tag k="addr:housenumber" v="10764"/><tag k="addr:postcode" v="78726"/></node><node id="-66" lat="30.40702" lon="-97.851821" changeset="false"><tag k="addr:street" v="Ranch Road 620"/><tag k="addr:housenumber" v="7409"/><tag k="addr:postcode" v="78726"/></node><node id="-67" lat="30.406606" lon="-97.850688" changeset="false"><tag k="addr:street" v="Four Points Drive"/><tag k="addr:housenumber" v="11410 1/2"/><tag k="addr:postcode" v="78726"/></node><node id="-68" lat="30.445751" lon="-97.831326" changeset="false"><tag k="addr:street" v="Ranch Road 620"/><tag k="addr:housenumber" v="10625"/><tag k="addr:postcode" v="78726"/></node><node id="-69" lat="30.414307" lon="-97.847902" changeset="false"><tag k="addr:street" v="Ranch Road 620"/><tag k="addr:housenumber" v="8001"/><tag k="addr:postcode" v="78726"/></node><node id="-70" lat="30.447429" lon="-97.825008" changeset="false"><tag k="addr:street" v="Turtle Lane"/><tag k="addr:housenumber" v="11526"/><tag k="addr:postcode" v="78726"/></node><node id="-71" lat="30.437915" lon="-97.815439" changeset="false"><tag k="addr:street" v="Bramblecrest Drive"/><tag k="addr:housenumber" v="10670"/><tag k="addr:postcode" v="78726"/></node><node id="-72" lat="30.438116" lon="-97.822343" changeset="false"><tag k="addr:street" v="Boulder Lane"/><tag k="addr:housenumber" v="10992"/><tag k="addr:postcode" v="78726"/></node><node id="-73" lat="30.407594" lon="-97.851498" changeset="false"><tag k="addr:street" v="Ranch Road 620"/><tag k="addr:housenumber" v="7501"/><tag k="addr:postcode" v="78726"/></node><node id="-74" lat="30.405535" lon="-97.850372" changeset="false"><tag k="addr:street" v="Four Points Drive"/><tag k="addr:housenumber" v="11325 1/2"/><tag k="addr:postcode" v="78726"/></node><node id="-75" lat="30.405651" lon="-97.850658" changeset="false"><tag k="addr:street" v="Four Points Drive"/><tag k="addr:housenumber" v="11335 1/2"/><tag k="addr:postcode" v="78726"/></node><node id="-76" lat="30.420069" lon="-97.836429" changeset="false"><tag k="addr:street" v="Concordia University Drive"/><tag k="addr:housenumber" v="11101"/><tag k="addr:postcode" v="78726"/></node><node id="-77" lat="30.453037" lon="-97.82361" changeset="false"><tag k="addr:street" v="Anderson Mill Road"/><tag k="addr:housenumber" v="11601"/><tag k="addr:postcode" v="78726"/></node><node id="-78" lat="30.410783" lon="-97.849517" changeset="false"><tag k="addr:street" v="Ranch Road 620"/><tag k="addr:housenumber" v="7709"/><tag k="addr:postcode" v="78726"/></node><node id="-79" lat="30.408864" lon="-97.844445" changeset="false"><tag k="addr:street" v="Zimmerman Lane"/><tag k="addr:housenumber" v="11137"/><tag k="addr:postcode" v="78726"/></node><node id="-80" lat="30.42267" lon="-97.833094" changeset="false"><tag k="addr:street" v="Concordia University Drive"/><tag k="addr:housenumber" v="11420"/><tag k="addr:postcode" v="78726"/></node><node id="-81" lat="30.408963" lon="-97.844647" changeset="false"><tag k="addr:street" v="Zimmerman Lane"/><tag k="addr:housenumber" v="11201"/><tag k="addr:postcode" v="78726"/></node><node id="-82" lat="30.409897" lon="-97.850239" changeset="false"><tag k="addr:street" v="Ranch Road 620"/><tag k="addr:housenumber" v="7701"/><tag k="addr:postcode" v="78726"/></node><node id="-83" lat="30.4426" lon="-97.829479" changeset="false"><tag k="addr:street" v="Boulder Lane"/><tag k="addr:housenumber" v="11506"/><tag k="addr:postcode" v="78726"/></node><node id="-84" lat="30.432103" lon="-97.818543" changeset="false"><tag k="addr:street" v="Kilmarnock Drive"/><tag k="addr:housenumber" v="10325"/><tag k="addr:postcode" v="78726"/></node><node id="-85" lat="30.44392" lon="-97.828486" changeset="false"><tag k="addr:street" v="Hare Trail"/><tag k="addr:housenumber" v="11507"/><tag k="addr:postcode" v="78726"/></node><node id="-86" lat="30.428997" lon="-97.838948" changeset="false"><tag k="addr:street" v="Boulder Lane"/><tag k="addr:housenumber" v="10321"/><tag k="addr:postcode" v="78726"/></node><node id="-87" lat="30.431608" lon="-97.831926" changeset="false"><tag k="addr:street" v="Boulder Lane"/><tag k="addr:housenumber" v="10806"/><tag k="addr:postcode" v="78726"/></node><node id="-88" lat="30.444969" lon="-97.831723" changeset="false"><tag k="addr:street" v="Ranch Road 620"/><tag k="addr:housenumber" v="10613"/><tag k="addr:postcode" v="78726"/></node><node id="-89" lat="30.420048" lon="-97.844164" changeset="false"><tag k="addr:street" v="Ranch Road 620"/><tag k="addr:housenumber" v="8225"/><tag k="addr:postcode" v="78726"/></node><node id="-90" lat="30.430587" lon="-97.830007" changeset="false"><tag k="addr:street" v="Boulder Lane"/><tag k="addr:housenumber" v="10840 1/2"/><tag k="addr:postcode" v="78726"/></node><node id="-91" lat="30.439224" lon="-97.835444" changeset="false"><tag k="addr:street" v="Ranch Road 620"/><tag k="addr:housenumber" v="10013"/><tag k="addr:postcode" v="78726"/></node><node id="-92" lat="30.437597" lon="-97.819988" changeset="false"><tag k="addr:street" v="Broken Brook Cove"/><tag k="addr:housenumber" v="10821"/><tag k="addr:postcode" v="78726"/></node><node id="-93" lat="30.43229" lon="-97.840652" changeset="false"><tag k="addr:street" v="Ranch Road 620"/><tag k="addr:housenumber" v="9009"/><tag k="addr:postcode" v="78726"/></node><node id="-94" lat="30.410025" lon="-97.847724" changeset="false"><tag k="addr:street" v="Zimmerman Lane"/><tag k="addr:housenumber" v="11407"/><tag k="addr:postcode" v="78726"/></node><node id="-95" lat="30.437247" lon="-97.830337" changeset="false"><tag k="addr:street" v="Barbrook Cove"/><tag k="addr:housenumber" v="11405"/><tag k="addr:postcode" v="78726"/></node><node id="-96" lat="30.45141" lon="-97.822244" changeset="false"><tag k="addr:street" v="Antler Lane"/><tag k="addr:housenumber" v="11500"/><tag k="addr:postcode" v="78726"/></node><node id="-97" lat="30.433532" lon="-97.826521" changeset="false"><tag k="addr:street" v="Sebrite Drive"/><tag k="addr:housenumber" v="11015"/><tag k="addr:postcode" v="78726"/></node><node id="-98" lat="30.442923" lon="-97.832962" changeset="false"><tag k="addr:street" v="Ranch Road 620"/><tag k="addr:housenumber" v="10415"/><tag k="addr:postcode" v="78726"/></node><node id="-99" lat="30.399445" lon="-97.850595" changeset="false"><tag k="addr:street" v="Ranch to Market Road 2222"/><tag k="addr:housenumber" v="11212"/><tag k="addr:postcode" v="78726"/></node><node id="-100" lat="30.410235" lon="-97.845561" changeset="false"><tag k="addr:street" v="Zimmerman Lane"/><tag k="addr:housenumber" v="11300"/><tag k="addr:postcode" v="78726"/></node><node id="-101" lat="30.420206" lon="-97.840276" changeset="false"><tag k="addr:street" v="Concordia University Drive"/><tag k="addr:housenumber" v="11400"/><tag k="addr:postcode" v="78726"/></node><node id="-102" lat="30.405103" lon="-97.848185" changeset="false"><tag k="addr:street" v="Four Points Drive"/><tag k="addr:housenumber" v="11120"/><tag k="addr:postcode" v="78726"/></node><node id="-103" lat="30.450711" lon="-97.829058" changeset="false"><tag k="addr:street" v="Ranch Road 620"/><tag k="addr:housenumber" v="11201"/><tag k="addr:postcode" v="78726"/></node><node id="-104" lat="30.408752" lon="-97.844202" changeset="false"><tag k="addr:street" v="Zimmerman Lane"/><tag k="addr:housenumber" v="11129"/><tag k="addr:postcode" v="78726"/></node><node id="-105" lat="30.408809" lon="-97.844318" changeset="false"><tag k="addr:street" v="Zimmerman Lane"/><tag k="addr:housenumber" v="11133"/><tag k="addr:postcode" v="78726"/></node><node id="-106" lat="30.436795" lon="-97.838204" changeset="false"><tag k="addr:street" v="Ranch Road 620"/><tag k="addr:housenumber" v="9715"/><tag k="addr:postcode" v="78726"/></node><node id="-107" lat="30.407316" lon="-97.842739" changeset="false"><tag k="addr:street" v="Zimmerman Lane"/><tag k="addr:housenumber" v="11105"/><tag k="addr:postcode" v="78726"/></node><node id="-108" lat="30.408588" lon="-97.843801" changeset="false"><tag k="addr:street" v="Zimmerman Lane"/><tag k="addr:housenumber" v="11121"/><tag k="addr:postcode" v="78726"/></node><node id="-109" lat="30.417575" lon="-97.84585" changeset="false"><tag k="addr:street" v="Ranch Road 620"/><tag k="addr:housenumber" v="8201 1/2"/><tag k="addr:postcode" v="78726"/></node><node id="-110" lat="30.446414" lon="-97.825915" changeset="false"><tag k="addr:street" v="Turtle Lane"/><tag k="addr:housenumber" v="11514"/><tag k="addr:postcode" v="78726"/></node><node id="-111" lat="30.445466" lon="-97.826505" changeset="false"><tag k="addr:street" v="Turtle Lane"/><tag k="addr:housenumber" v="11507"/><tag k="addr:postcode" v="78726"/></node><node id="-112" lat="30.450523" lon="-97.829347" changeset="false"><tag k="addr:street" v="Ranch Road 620"/><tag k="addr:housenumber" v="11129"/><tag k="addr:postcode" v="78726"/></node><node id="-113" lat="30.428315" lon="-97.842176" changeset="false"><tag k="addr:street" v="Boulder Lane"/><tag k="addr:housenumber" v="10200"/><tag k="addr:postcode" v="78726"/></node><node id="-114" lat="30.444983" lon="-97.827833" changeset="false"><tag k="addr:street" v="Hare Trail"/><tag k="addr:housenumber" v="11506"/><tag k="addr:postcode" v="78726"/></node><node id="-115" lat="30.40879" lon="-97.842156" changeset="false"><tag k="addr:street" v="Zimmerman Lane"/><tag k="addr:housenumber" v="11104"/><tag k="addr:postcode" v="78726"/></node><node id="-116" lat="30.408692" lon="-97.844059" changeset="false"><tag k="addr:street" v="Zimmerman Lane"/><tag k="addr:housenumber" v="11125"/><tag k="addr:postcode" v="78726"/></node><node id="-117" lat="30.454656" lon="-97.825888" changeset="false"><tag k="addr:street" v="Ranch Road 620"/><tag k="addr:housenumber" v="11521"/><tag k="addr:postcode" v="78726"/></node><node id="-118" lat="30.414421" lon="-97.84288" changeset="false"><tag k="addr:street" v="Rock Harbour Drive"/><tag k="addr:housenumber" v="11300 1/2"/><tag k="addr:postcode" v="78726"/></node><node id="-119" lat="30.438855" lon="-97.817251" changeset="false"><tag k="addr:street" v="Bramblecrest Drive"/><tag k="addr:housenumber" v="10636"/><tag k="addr:postcode" v="78726"/></node><node id="-120" lat="30.447995" lon="-97.83019" changeset="false"><tag k="addr:street" v="Ranch Road 620"/><tag k="addr:housenumber" v="10815"/><tag k="addr:postcode" v="78726"/></node><node id="-121" lat="30.447588" lon="-97.83044" changeset="false"><tag k="addr:street" v="Ranch Road 620"/><tag k="addr:housenumber" v="10807"/><tag k="addr:postcode" v="78726"/></node><node id="-122" lat="30.437704" lon="-97.819283" changeset="false"><tag k="addr:street" v="Broken Brook Cove"/><tag k="addr:housenumber" v="10809"/><tag k="addr:postcode" v="78726"/></node><node id="-123" lat="30.429839" lon="-97.841174" changeset="false"><tag k="addr:street" v="Ranch Road 620"/><tag k="addr:housenumber" v="9001 1/2"/><tag k="addr:postcode" v="78726"/></node><node id="-124" lat="30.441078" lon="-97.829799" changeset="false"><tag k="addr:street" v="Sweet Basil Court"/><tag k="addr:housenumber" v="11513"/><tag k="addr:postcode" v="78726"/></node><node id="-125" lat="30.40633" lon="-97.851007" changeset="false"><tag k="addr:street" v="Four Points Drive"/><tag k="addr:housenumber" v="11410"/><tag k="addr:postcode" v="78726"/></node><node id="-126" lat="30.406093" lon="-97.850267" changeset="false"><tag k="addr:street" v="Four Points Drive"/><tag k="addr:housenumber" v="11350"/><tag k="addr:postcode" v="78726"/></node><node id="-127" lat="30.403014" lon="-97.852617" changeset="false"><tag k="addr:street" v="Ranch to Market Road 2222"/><tag k="addr:housenumber" v="11412"/><tag k="addr:postcode" v="78726"/></node><node id="-128" lat="30.41079" lon="-97.84853" changeset="false"><tag k="addr:street" v="Zimmerman Lane"/><tag k="addr:housenumber" v="11415"/><tag k="addr:postcode" v="78726"/></node><node id="-129" lat="30.403779" lon="-97.853496" changeset="false"><tag k="addr:street" v="Ranch to Market Road 2222"/><tag k="addr:housenumber" v="11500"/><tag k="addr:postcode" v="78726"/></node><node id="-130" lat="30.413117" lon="-97.848526" changeset="false"><tag k="addr:street" v="Ranch Road 620"/><tag k="addr:housenumber" v="7911"/><tag k="addr:postcode" v="78726"/></node><node id="-131" lat="30.409181" lon="-97.843166" changeset="false"><tag k="addr:street" v="Zimmerman Lane"/><tag k="addr:housenumber" v="11108"/><tag k="addr:postcode" v="78726"/></node><node id="-132" lat="30.407959" lon="-97.851207" changeset="false"><tag k="addr:street" v="Ranch Road 620"/><tag k="addr:housenumber" v="7515"/><tag k="addr:postcode" v="78726"/></node><node id="-133" lat="30.447276" lon="-97.829157" changeset="false"><tag k="addr:street" v="Foundation Road"/><tag k="addr:housenumber" v="10804"/><tag k="addr:postcode" v="78726"/></node><node id="-134" lat="30.447144" lon="-97.826338" changeset="false"><tag k="addr:street" v="Turtle Lane"/><tag k="addr:housenumber" v="11528"/><tag k="addr:postcode" v="78726"/></node><node id="-135" lat="30.402413" lon="-97.852203" changeset="false"><tag k="addr:street" v="Ranch to Market Road 2222"/><tag k="addr:housenumber" v="11402"/><tag k="addr:postcode" v="78726"/></node><node id="-136" lat="30.448217" lon="-97.828773" changeset="false"><tag k="addr:street" v="Foundation Road"/><tag k="addr:housenumber" v="11002"/><tag k="addr:postcode" v="78726"/></node><node id="-137" lat="30.400744" lon="-97.851366" changeset="false"><tag k="addr:street" v="Ranch to Market Road 2222"/><tag k="addr:housenumber" v="11310"/><tag k="addr:postcode" v="78726"/></node><node id="-138" lat="30.400551" lon="-97.850508" changeset="false"><tag k="addr:street" v="Ranch to Market Road 2222"/><tag k="addr:housenumber" v="11220"/><tag k="addr:postcode" v="78726"/></node><node id="-139" lat="30.411203" lon="-97.845727" changeset="false"><tag k="addr:street" v="Zimmerman Lane"/><tag k="addr:housenumber" v="11310"/><tag k="addr:postcode" v="78726"/></node><node id="-140" lat="30.429859" lon="-97.827926" changeset="false"><tag k="addr:street" v="Indigo Brush Drive"/><tag k="addr:housenumber" v="9544"/><tag k="addr:postcode" v="78726"/></node><node id="-141" lat="30.438099" lon="-97.815394" changeset="false"><tag k="addr:street" v="Bramblecrest Drive"/><tag k="addr:housenumber" v="10668"/><tag k="addr:postcode" v="78726"/></node><node id="-142" lat="30.442492" lon="-97.831467" changeset="false"><tag k="addr:street" v="Sweet Basil Court"/><tag k="addr:housenumber" v="11628"/><tag k="addr:postcode" v="78726"/></node><node id="-143" lat="30.436612" lon="-97.815887" changeset="false"><tag k="addr:street" v="Bramblecrest Drive"/><tag k="addr:housenumber" v="10708"/><tag k="addr:postcode" v="78726"/></node><node id="-144" lat="30.447144" lon="-97.830727" changeset="false"><tag k="addr:street" v="Ranch Road 620"/><tag k="addr:housenumber" v="10801"/><tag k="addr:postcode" v="78726"/></node><node id="-145" lat="30.398291" lon="-97.849785" changeset="false"><tag k="addr:street" v="Ranch to Market Road 2222"/><tag k="addr:housenumber" v="11110 1/2"/><tag k="addr:postcode" v="78726"/></node><node id="-146" lat="30.448705" lon="-97.827687" changeset="false"><tag k="addr:street" v="Foundation Road"/><tag k="addr:housenumber" v="11005"/><tag k="addr:postcode" v="78726"/></node><node id="-147" lat="30.444215" lon="-97.832138" changeset="false"><tag k="addr:street" v="Ranch Road 620"/><tag k="addr:housenumber" v="10601"/><tag k="addr:postcode" v="78726"/></node><node id="-148" lat="30.442781" lon="-97.830097" changeset="false"><tag k="addr:street" v="Boulder Lane"/><tag k="addr:housenumber" v="11600"/><tag k="addr:postcode" v="78726"/></node><node id="-149" lat="30.446214" lon="-97.827279" changeset="false"><tag k="addr:street" v="Turtle Lane"/><tag k="addr:housenumber" v="11521"/><tag k="addr:postcode" v="78726"/></node><node id="-150" lat="30.431291" lon="-97.828151" changeset="false"><tag k="addr:street" v="Montesa Drive"/><tag k="addr:housenumber" v="11007"/><tag k="addr:postcode" v="78726"/></node><node id="-151" lat="30.417491" lon="-97.845721" changeset="false"><tag k="addr:street" v="Ranch Road 620"/><tag k="addr:housenumber" v="8201"/><tag k="addr:postcode" v="78726"/></node><node id="-152" lat="30.398943" lon="-97.849941" changeset="false"><tag k="addr:street" v="Ranch to Market Road 2222"/><tag k="addr:housenumber" v="11112"/><tag k="addr:postcode" v="78726"/></node><node id="-153" lat="30.397248" lon="-97.848702" changeset="false"><tag k="addr:street" v="Ranch to Market Road 2222"/><tag k="addr:housenumber" v="11004"/><tag k="addr:postcode" v="78726"/></node><node id="-154" lat="30.401642" lon="-97.851757" changeset="false"><tag k="addr:street" v="Ranch to Market Road 2222"/><tag k="addr:housenumber" v="11308"/><tag k="addr:postcode" v="78726"/></node><node id="-155" lat="30.432671" lon="-97.830824" changeset="false"><tag k="addr:street" v="Boulder Lane"/><tag k="addr:housenumber" v="10840"/><tag k="addr:postcode" v="78726"/></node><node id="-156" lat="30.408341" lon="-97.842609" changeset="false"><tag k="addr:street" v="Zimmerman Lane"/><tag k="addr:housenumber" v="11100"/><tag k="addr:postcode" v="78726"/></node><node id="-157" lat="30.408104" lon="-97.84268" changeset="false"><tag k="addr:street" v="Zimmerman Lane"/><tag k="addr:housenumber" v="11101"/><tag k="addr:postcode" v="78726"/></node><node id="-158" lat="30.449103" lon="-97.828263" changeset="false"><tag k="addr:street" v="Foundation Road"/><tag k="addr:housenumber" v="11009"/><tag k="addr:postcode" v="78726"/></node><node id="-159" lat="30.437681" lon="-97.819488" changeset="false"><tag k="addr:street" v="Broken Brook Cove"/><tag k="addr:housenumber" v="10813"/><tag k="addr:postcode" v="78726"/></node><node id="-160" lat="30.43109" lon="-97.817673" changeset="false"><tag k="addr:street" v="Brimfield Drive"/><tag k="addr:housenumber" v="10201"/><tag k="addr:postcode" v="78726"/></node><node id="-161" lat="30.431098" lon="-97.817707" changeset="false"><tag k="addr:street" v="Brimfield Drive"/><tag k="addr:housenumber" v="10201 1/2"/><tag k="addr:postcode" v="78726"/></node><node id="-162" lat="30.419468" lon="-97.836369" changeset="false"><tag k="addr:street" v="Concordia University Drive"/><tag k="addr:housenumber" v="11109"/><tag k="addr:postcode" v="78726"/></node><node id="-163" lat="30.418245" lon="-97.836798" changeset="false"><tag k="addr:street" v="Studtmann Court"/><tag k="addr:housenumber" v="11100"/><tag k="addr:postcode" v="78726"/></node><node id="-164" lat="30.420183" lon="-97.835858" changeset="false"><tag k="addr:street" v="Concordia University Drive"/><tag k="addr:housenumber" v="11021"/><tag k="addr:postcode" v="78726"/></node><node id="-165" lat="30.419061" lon="-97.837548" changeset="false"><tag k="addr:street" v="Beto Place"/><tag k="addr:housenumber" v="11100"/><tag k="addr:postcode" v="78726"/></node></osm>