<?xml version="1.0" encoding="UTF-8"?><osm version="0.6" generator="github.com/aaronlidman/osm-and-geojson"><node id="-1" lat="30.357801" lon="-97.981361" changeset="false"><tag k="addr:street" v="Chandon Lane"/><tag k="addr:housenumber" v="14"/><tag k="addr:postcode" v="78734"/></node><node id="-2" lat="30.371904" lon="-97.988594" changeset="false"><tag k="addr:street" v="Star Street"/><tag k="addr:housenumber" v="121"/><tag k="addr:postcode" v="78734"/></node><node id="-3" lat="30.366225" lon="-97.993162" changeset="false"><tag k="addr:street" v="Lakeway Drive"/><tag k="addr:housenumber" v="502"/><tag k="addr:postcode" v="78734"/></node><node id="-4" lat="30.367318" lon="-97.990238" changeset="false"><tag k="addr:street" v="Sunfish"/><tag k="addr:housenumber" v="317"/><tag k="addr:postcode" v="78734"/></node><node id="-5" lat="30.366109" lon="-97.989568" changeset="false"><tag k="addr:street" v="Sunfish"/><tag k="addr:housenumber" v="409"/><tag k="addr:postcode" v="78734"/></node><node id="-6" lat="30.364466" lon="-97.996011" changeset="false"><tag k="addr:street" v="Double Eagle Drive"/><tag k="addr:housenumber" v="410"/><tag k="addr:postcode" v="78734"/></node><node id="-7" lat="30.360315" lon="-97.991176" changeset="false"><tag k="addr:street" v="Vanguard"/><tag k="addr:housenumber" v="706"/><tag k="addr:postcode" v="78734"/></node><node id="-8" lat="30.37212" lon="-97.993488" changeset="false"><tag k="addr:street" v="Corinthian Street"/><tag k="addr:housenumber" v="209"/><tag k="addr:postcode" v="78734"/></node><node id="-9" lat="30.365244" lon="-97.995545" changeset="false"><tag k="addr:street" v="Flamingo Boulevard"/><tag k="addr:housenumber" v="505"/><tag k="addr:postcode" v="78734"/></node><node id="-10" lat="30.365168" lon="-97.990502" changeset="false"><tag k="addr:street" v="Seawind"/><tag k="addr:housenumber" v="418"/><tag k="addr:postcode" v="78734"/></node><node id="-11" lat="30.365337" lon="-97.988828" changeset="false"><tag k="addr:street" v="Sunfish"/><tag k="addr:housenumber" v="420"/><tag k="addr:postcode" v="78734"/></node><node id="-12" lat="30.372793" lon="-97.988299" changeset="false"><tag k="addr:street" v="Lakeway Drive"/><tag k="addr:housenumber" v="116"/><tag k="addr:postcode" v="78734"/></node><node id="-13" lat="30.366183" lon="-97.999329" changeset="false"><tag k="addr:street" v="Dragon"/><tag k="addr:housenumber" v="608"/><tag k="addr:postcode" v="78734"/></node><node id="-14" lat="30.366429" lon="-97.998258" changeset="false"><tag k="addr:street" v="Dragon"/><tag k="addr:housenumber" v="601"/><tag k="addr:postcode" v="78734"/></node><node id="-15" lat="30.370632" lon="-98.003919" changeset="false"><tag k="addr:street" v="Malabar"/><tag k="addr:housenumber" v="825"/><tag k="addr:postcode" v="78734"/></node><node id="-16" lat="30.37023" lon="-98.001299" changeset="false"><tag k="addr:street" v="Cutlass Street"/><tag k="addr:housenumber" v="722"/><tag k="addr:postcode" v="78734"/></node><node id="-17" lat="30.359766" lon="-97.996941" changeset="false"><tag k="addr:street" v="Scamper Cove"/><tag k="addr:housenumber" v="108"/><tag k="addr:postcode" v="78734"/></node><node id="-18" lat="30.369124" lon="-97.995929" changeset="false"><tag k="addr:street" v="Corinthian Street"/><tag k="addr:housenumber" v="403"/><tag k="addr:postcode" v="78734"/></node><node id="-19" lat="30.361465" lon="-97.981993" changeset="false"><tag k="addr:street" v="Fairlake Circle"/><tag k="addr:housenumber" v="210"/><tag k="addr:postcode" v="78734"/></node><node id="-20" lat="30.36117" lon="-97.981727" changeset="false"><tag k="addr:street" v="Fairlake Circle"/><tag k="addr:housenumber" v="216"/><tag k="addr:postcode" v="78734"/></node><node id="-21" lat="30.356824" lon="-97.985591" changeset="false"><tag k="addr:street" v="Prestonwood Circle"/><tag k="addr:housenumber" v="6"/><tag k="addr:postcode" v="78734"/></node><node id="-22" lat="30.356638" lon="-97.986044" changeset="false"><tag k="addr:street" v="Prestonwood Circle"/><tag k="addr:housenumber" v="9"/><tag k="addr:postcode" v="78734"/></node><node id="-23" lat="30.356142" lon="-97.985359" changeset="false"><tag k="addr:street" v="Prestonwood Circle"/><tag k="addr:housenumber" v="28"/><tag k="addr:postcode" v="78734"/></node><node id="-24" lat="30.355961" lon="-97.985324" changeset="false"><tag k="addr:street" v="Prestonwood Circle"/><tag k="addr:housenumber" v="29"/><tag k="addr:postcode" v="78734"/></node><node id="-25" lat="30.358413" lon="-97.980472" changeset="false"><tag k="addr:street" v="Lakeway Drive"/><tag k="addr:housenumber" v="1504"/><tag k="addr:postcode" v="78734"/></node><node id="-26" lat="30.352536" lon="-97.992078" changeset="false"><tag k="addr:street" v="Lakeway Boulevard"/><tag k="addr:housenumber" v="2908"/><tag k="addr:postcode" v="78734"/></node><node id="-27" lat="30.365982" lon="-97.998055" changeset="false"><tag k="addr:street" v="Dragon"/><tag k="addr:housenumber" v="600"/><tag k="addr:postcode" v="78734"/></node><node id="-28" lat="30.36842" lon="-97.98681" changeset="false"><tag k="addr:street" v="Sunfish"/><tag k="addr:housenumber" v="623"/><tag k="addr:postcode" v="78734"/></node><node id="-29" lat="30.366772" lon="-97.998165" changeset="false"><tag k="addr:street" v="Highlander"/><tag k="addr:housenumber" v="513"/><tag k="addr:postcode" v="78734"/></node><node id="-30" lat="30.352862" lon="-97.994795" changeset="false"><tag k="addr:street" v="Scorpion Drive"/><tag k="addr:housenumber" v="105"/><tag k="addr:postcode" v="78734"/></node><node id="-31" lat="30.352343" lon="-97.995233" changeset="false"><tag k="addr:street" v="Lakeway Boulevard"/><tag k="addr:housenumber" v="3204"/><tag k="addr:postcode" v="78734"/></node><node id="-32" lat="30.365039" lon="-97.988689" changeset="false"><tag k="addr:street" v="Sunfish"/><tag k="addr:housenumber" v="422"/><tag k="addr:postcode" v="78734"/></node><node id="-33" lat="30.355937" lon="-97.995374" changeset="false"><tag k="addr:street" v="Vixen Court"/><tag k="addr:housenumber" v="104"/><tag k="addr:postcode" v="78734"/></node><node id="-34" lat="30.355948" lon="-97.995234" changeset="false"><tag k="addr:street" v="Vixen Court"/><tag k="addr:housenumber" v="106"/><tag k="addr:postcode" v="78734"/></node><node id="-35" lat="30.3649" lon="-97.991833" changeset="false"><tag k="addr:street" v="Seawind"/><tag k="addr:housenumber" v="429"/><tag k="addr:postcode" v="78734"/></node><node id="-36" lat="30.365477" lon="-97.996276" changeset="false"><tag k="addr:street" v="Double Eagle Drive"/><tag k="addr:housenumber" v="402"/><tag k="addr:postcode" v="78734"/></node><node id="-37" lat="30.363852" lon="-97.998346" changeset="false"><tag k="addr:street" v="Double Eagle Drive"/><tag k="addr:housenumber" v="422"/><tag k="addr:postcode" v="78734"/></node><node id="-38" lat="30.365483" lon="-97.998373" changeset="false"><tag k="addr:street" v="Double Eagle Drive"/><tag k="addr:housenumber" v="601"/><tag k="addr:postcode" v="78734"/></node><node id="-39" lat="30.366286" lon="-97.997509" changeset="false"><tag k="addr:street" v="Dragon"/><tag k="addr:housenumber" v="525"/><tag k="addr:postcode" v="78734"/></node><node id="-40" lat="30.355753" lon="-97.987341" changeset="false"><tag k="addr:street" v="Champions Lane"/><tag k="addr:housenumber" v="21"/><tag k="addr:postcode" v="78734"/></node><node id="-41" lat="30.369399" lon="-97.999247" changeset="false"><tag k="addr:street" v="Mariner"/><tag k="addr:housenumber" v="706"/><tag k="addr:postcode" v="78734"/></node><node id="-42" lat="30.356328" lon="-97.986547" changeset="false"><tag k="addr:street" v="Prestonwood Circle"/><tag k="addr:housenumber" v="12"/><tag k="addr:postcode" v="78734"/></node><node id="-43" lat="30.367074" lon="-97.98474" changeset="false"><tag k="addr:street" v="Porpoise"/><tag k="addr:housenumber" v="900"/><tag k="addr:postcode" v="78734"/></node><node id="-44" lat="30.356131" lon="-97.986107" changeset="false"><tag k="addr:street" v="Prestonwood Circle"/><tag k="addr:housenumber" v="25"/><tag k="addr:postcode" v="78734"/></node><node id="-45" lat="30.364497" lon="-97.995463" changeset="false"><tag k="addr:street" v="Flamingo Boulevard"/><tag k="addr:housenumber" v="511"/><tag k="addr:postcode" v="78734"/></node><node id="-46" lat="30.361894" lon="-97.981967" changeset="false"><tag k="addr:street" v="Fairlake Circle"/><tag k="addr:housenumber" v="204"/><tag k="addr:postcode" v="78734"/></node><node id="-47" lat="30.361619" lon="-97.98207" changeset="false"><tag k="addr:street" v="Fairlake Circle"/><tag k="addr:housenumber" v="208"/><tag k="addr:postcode" v="78734"/></node><node id="-48" lat="30.3615" lon="-97.981668" changeset="false"><tag k="addr:street" v="Fairlake Circle"/><tag k="addr:housenumber" v="205"/><tag k="addr:postcode" v="78734"/></node><node id="-49" lat="30.373307" lon="-97.990414" changeset="false"><tag k="addr:street" v="Sailfish Street"/><tag k="addr:housenumber" v="123"/><tag k="addr:postcode" v="78734"/></node><node id="-50" lat="30.361762" lon="-97.981554" changeset="false"><tag k="addr:street" v="Lakeway Drive"/><tag k="addr:housenumber" v="1301"/><tag k="addr:postcode" v="78734"/></node><node id="-51" lat="30.358225" lon="-97.987226" changeset="false"><tag k="addr:street" v="Kite Street"/><tag k="addr:housenumber" v="106"/><tag k="addr:postcode" v="78734"/></node><node id="-52" lat="30.370753" lon="-97.990588" changeset="false"><tag k="addr:street" v="Lakeway Drive"/><tag k="addr:housenumber" v="137"/><tag k="addr:postcode" v="78734"/></node><node id="-53" lat="30.365107" lon="-97.991436" changeset="false"><tag k="addr:street" v="Seawind"/><tag k="addr:housenumber" v="299"/><tag k="addr:postcode" v="78734"/></node><node id="-54" lat="30.364659" lon="-97.995877" changeset="false"><tag k="addr:street" v="Double Eagle Drive"/><tag k="addr:housenumber" v="408"/><tag k="addr:postcode" v="78734"/></node><node id="-55" lat="30.365264" lon="-98.001276" changeset="false"><tag k="addr:street" v="Double Eagle Drive"/><tag k="addr:housenumber" v="621"/><tag k="addr:postcode" v="78734"/></node><node id="-56" lat="30.367481" lon="-98.000066" changeset="false"><tag k="addr:street" v="Malabar"/><tag k="addr:housenumber" v="211"/><tag k="addr:postcode" v="78734"/></node><node id="-57" lat="30.367324" lon="-97.998045" changeset="false"><tag k="addr:street" v="Highlander"/><tag k="addr:housenumber" v="509"/><tag k="addr:postcode" v="78734"/></node><node id="-58" lat="30.357906" lon="-97.981281" changeset="false"><tag k="addr:street" v="Chandon Lane"/><tag k="addr:housenumber" v="12"/><tag k="addr:postcode" v="78734"/></node><node id="-59" lat="30.355712" lon="-97.987633" changeset="false"><tag k="addr:street" v="Champions Lane"/><tag k="addr:housenumber" v="23"/><tag k="addr:postcode" v="78734"/></node><node id="-60" lat="30.362469" lon="-97.985251" changeset="false"><tag k="addr:street" v="Biscayne Cove"/><tag k="addr:housenumber" v="931"/><tag k="addr:postcode" v="78734"/></node><node id="-61" lat="30.360726" lon="-97.996066" changeset="false"><tag k="addr:street" v="Dasher Drive"/><tag k="addr:housenumber" v="401"/><tag k="addr:postcode" v="78734"/></node><node id="-62" lat="30.364832" lon="-97.990933" changeset="false"><tag k="addr:street" v="Seawind"/><tag k="addr:housenumber" v="419"/><tag k="addr:postcode" v="78734"/></node><node id="-63" lat="30.364926" lon="-97.990472" changeset="false"><tag k="addr:street" v="Seawind"/><tag k="addr:housenumber" v="422"/><tag k="addr:postcode" v="78734"/></node><node id="-64" lat="30.364992" lon="-97.990925" changeset="false"><tag k="addr:street" v="Seawind"/><tag k="addr:housenumber" v="417"/><tag k="addr:postcode" v="78734"/></node><node id="-65" lat="30.366192" lon="-97.997781" changeset="false"><tag k="addr:street" v="Dragon"/><tag k="addr:housenumber" v="527"/><tag k="addr:postcode" v="78734"/></node><node id="-66" lat="30.357345" lon="-97.985242" changeset="false"><tag k="addr:street" v="Prestonwood Circle"/><tag k="addr:housenumber" v="2"/><tag k="addr:postcode" v="78734"/></node><node id="-67" lat="30.371048" lon="-98.004053" changeset="false"><tag k="addr:street" v="Mariner"/><tag k="addr:housenumber" v="821"/><tag k="addr:postcode" v="78734"/></node><node id="-68" lat="30.352885" lon="-97.99441" changeset="false"><tag k="addr:street" v="Scorpion Drive"/><tag k="addr:housenumber" v="108"/><tag k="addr:postcode" v="78734"/></node><node id="-69" lat="30.353537" lon="-97.994563" changeset="false"><tag k="addr:street" v="Scorpion Drive"/><tag k="addr:housenumber" v="114"/><tag k="addr:postcode" v="78734"/></node><node id="-70" lat="30.36005" lon="-97.997713" changeset="false"><tag k="addr:street" v="Scamper Cove"/><tag k="addr:housenumber" v="105"/><tag k="addr:postcode" v="78734"/></node><node id="-71" lat="30.359859" lon="-97.996532" changeset="false"><tag k="addr:street" v="Dasher Drive"/><tag k="addr:housenumber" v="408"/><tag k="addr:postcode" v="78734"/></node><node id="-72" lat="30.358448" lon="-97.984479" changeset="false"><tag k="addr:street" v="Stoney Creek Cove"/><tag k="addr:housenumber" v="101"/><tag k="addr:postcode" v="78734"/></node><node id="-73" lat="30.368288" lon="-97.993662" changeset="false"><tag k="addr:street" v="Highlander"/><tag k="addr:housenumber" v="123"/><tag k="addr:postcode" v="78734"/></node><node id="-74" lat="30.367099" lon="-97.993877" changeset="false"><tag k="addr:street" v="Teal Street"/><tag k="addr:housenumber" v="414"/><tag k="addr:postcode" v="78734"/></node><node id="-75" lat="30.361994" lon="-97.997622" changeset="false"><tag k="addr:street" v="Tallstar Drive"/><tag k="addr:housenumber" v="119"/><tag k="addr:postcode" v="78734"/></node><node id="-76" lat="30.362015" lon="-97.997355" changeset="false"><tag k="addr:street" v="Tallstar Drive"/><tag k="addr:housenumber" v="121"/><tag k="addr:postcode" v="78734"/></node><node id="-77" lat="30.356757" lon="-97.985713" changeset="false"><tag k="addr:street" v="Prestonwood Circle"/><tag k="addr:housenumber" v="7"/><tag k="addr:postcode" v="78734"/></node><node id="-78" lat="30.37305" lon="-97.987403" changeset="false"><tag k="addr:street" v="Star Street"/><tag k="addr:housenumber" v="111"/><tag k="addr:postcode" v="78734"/></node><node id="-79" lat="30.35769" lon="-97.980315" changeset="false"><tag k="addr:street" v="Lakeway Boulevard"/><tag k="addr:housenumber" v="2220"/><tag k="addr:postcode" v="78734"/></node><node id="-80" lat="30.361379" lon="-97.981587" changeset="false"><tag k="addr:street" v="Fairlake Circle"/><tag k="addr:housenumber" v="207"/><tag k="addr:postcode" v="78734"/></node><node id="-81" lat="30.361289" lon="-97.981446" changeset="false"><tag k="addr:street" v="Fairlake Circle"/><tag k="addr:housenumber" v="209"/><tag k="addr:postcode" v="78734"/></node><node id="-82" lat="30.35854" lon="-97.987611" changeset="false"><tag k="addr:street" v="Kite Street"/><tag k="addr:housenumber" v="104"/><tag k="addr:postcode" v="78734"/></node><node id="-83" lat="30.365668" lon="-97.992184" changeset="false"><tag k="addr:street" v="Seawind"/><tag k="addr:housenumber" v="300"/><tag k="addr:postcode" v="78734"/></node><node id="-84" lat="30.366298" lon="-97.991119" changeset="false"><tag k="addr:street" v="Seawind"/><tag k="addr:housenumber" v="308"/><tag k="addr:postcode" v="78734"/></node><node id="-85" lat="30.36588" lon="-97.99722" changeset="false"><tag k="addr:street" v="Dragon"/><tag k="addr:housenumber" v="526"/><tag k="addr:postcode" v="78734"/></node><node id="-86" lat="30.358177" lon="-97.98114" changeset="false"><tag k="addr:street" v="Chandon Lane"/><tag k="addr:housenumber" v="8"/><tag k="addr:postcode" v="78734"/></node><node id="-87" lat="30.361637" lon="-97.985348" changeset="false"><tag k="addr:street" v="Vanguard"/><tag k="addr:housenumber" v="927"/><tag k="addr:postcode" v="78734"/></node><node id="-88" lat="30.368306" lon="-97.991226" changeset="false"><tag k="addr:street" v="Sunfish"/><tag k="addr:housenumber" v="301"/><tag k="addr:postcode" v="78734"/></node><node id="-89" lat="30.364354" lon="-97.999742" changeset="false"><tag k="addr:street" v="Double Eagle Drive"/><tag k="addr:housenumber" v="428"/><tag k="addr:postcode" v="78734"/></node><node id="-90" lat="30.360487" lon="-97.996063" changeset="false"><tag k="addr:street" v="Dasher Drive"/><tag k="addr:housenumber" v="403"/><tag k="addr:postcode" v="78734"/></node><node id="-91" lat="30.357166" lon="-97.985302" changeset="false"><tag k="addr:street" v="Prestonwood Circle"/><tag k="addr:housenumber" v="3"/><tag k="addr:postcode" v="78734"/></node><node id="-92" lat="30.356962" lon="-97.984868" changeset="false"><tag k="addr:street" v="Prestonwood Circle"/><tag k="addr:housenumber" v="33"/><tag k="addr:postcode" v="78734"/></node><node id="-93" lat="30.356827" lon="-97.984736" changeset="false"><tag k="addr:street" v="Prestonwood Circle"/><tag k="addr:housenumber" v="34"/><tag k="addr:postcode" v="78734"/></node><node id="-94" lat="30.355738" lon="-97.986562" changeset="false"><tag k="addr:street" v="Prestonwood Circle"/><tag k="addr:housenumber" v="16"/><tag k="addr:postcode" v="78734"/></node><node id="-95" lat="30.354344" lon="-97.994847" changeset="false"><tag k="addr:street" v="Scorpion Drive"/><tag k="addr:housenumber" v="120"/><tag k="addr:postcode" v="78734"/></node><node id="-96" lat="30.366614" lon="-97.986612" changeset="false"><tag k="addr:street" v="Sunfish"/><tag k="addr:housenumber" v="609"/><tag k="addr:postcode" v="78734"/></node><node id="-97" lat="30.357523" lon="-97.982505" changeset="false"><tag k="addr:street" v="Chandon Lane"/><tag k="addr:housenumber" v="31"/><tag k="addr:postcode" v="78734"/></node><node id="-98" lat="30.356175" lon="-97.99512" changeset="false"><tag k="addr:street" v="Vixen Court"/><tag k="addr:housenumber" v="108"/><tag k="addr:postcode" v="78734"/></node><node id="-99" lat="30.355301" lon="-97.99535" changeset="false"><tag k="addr:street" v="Triton Court"/><tag k="addr:housenumber" v="103"/><tag k="addr:postcode" v="78734"/></node><node id="-100" lat="30.354966" lon="-97.99515" changeset="false"><tag k="addr:street" v="Triton Court"/><tag k="addr:housenumber" v="106"/><tag k="addr:postcode" v="78734"/></node><node id="-101" lat="30.352352" lon="-97.994443" changeset="false"><tag k="addr:street" v="Scorpion Drive"/><tag k="addr:housenumber" v="104"/><tag k="addr:postcode" v="78734"/></node><node id="-102" lat="30.367137" lon="-97.994502" changeset="false"><tag k="addr:street" v="Teal Street"/><tag k="addr:housenumber" v="413"/><tag k="addr:postcode" v="78734"/></node><node id="-103" lat="30.356877" lon="-97.98543" changeset="false"><tag k="addr:street" v="Prestonwood Circle"/><tag k="addr:housenumber" v="5"/><tag k="addr:postcode" v="78734"/></node><node id="-104" lat="30.356471" lon="-97.986368" changeset="false"><tag k="addr:street" v="Prestonwood Circle"/><tag k="addr:housenumber" v="11"/><tag k="addr:postcode" v="78734"/></node><node id="-105" lat="30.356163" lon="-97.986462" changeset="false"><tag k="addr:street" v="Prestonwood Circle"/><tag k="addr:housenumber" v="13"/><tag k="addr:postcode" v="78734"/></node><node id="-106" lat="30.364744" lon="-97.995351" changeset="false"><tag k="addr:street" v="Flamingo Boulevard"/><tag k="addr:housenumber" v="509"/><tag k="addr:postcode" v="78734"/></node><node id="-107" lat="30.369928" lon="-97.995201" changeset="false"><tag k="addr:street" v="Corinthian Street"/><tag k="addr:housenumber" v="224"/><tag k="addr:postcode" v="78734"/></node><node id="-108" lat="30.3709" lon="-97.998893" changeset="false"><tag k="addr:street" v="Cutlass Street"/><tag k="addr:housenumber" v="705"/><tag k="addr:postcode" v="78734"/></node><node id="-109" lat="30.360837" lon="-97.985033" changeset="false"><tag k="addr:street" v="Vanguard"/><tag k="addr:housenumber" v="924"/><tag k="addr:postcode" v="78734"/></node><node id="-110" lat="30.358334" lon="-97.981136" changeset="false"><tag k="addr:street" v="Chandon Lane"/><tag k="addr:housenumber" v="6"/><tag k="addr:postcode" v="78734"/></node><node id="-111" lat="30.361228" lon="-97.981765" changeset="false"><tag k="addr:street" v="Fairlake Circle"/><tag k="addr:housenumber" v="214"/><tag k="addr:postcode" v="78734"/></node><node id="-112" lat="30.364229" lon="-97.98558" changeset="false"><tag k="addr:street" v="Biscayne Cove"/><tag k="addr:housenumber" v="1010"/><tag k="addr:postcode" v="78734"/></node><node id="-113" lat="30.368223" lon="-97.98675" changeset="false"><tag k="addr:street" v="Sunfish"/><tag k="addr:housenumber" v="621"/><tag k="addr:postcode" v="78734"/></node><node id="-114" lat="30.368714" lon="-97.986819" changeset="false"><tag k="addr:street" v="Sunfish"/><tag k="addr:housenumber" v="625"/><tag k="addr:postcode" v="78734"/></node><node id="-115" lat="30.360163" lon="-97.997387" changeset="false"><tag k="addr:street" v="Scamper Cove"/><tag k="addr:housenumber" v="107"/><tag k="addr:postcode" v="78734"/></node><node id="-116" lat="30.357545" lon="-97.985173" changeset="false"><tag k="addr:street" v="Prestonwood Circle"/><tag k="addr:housenumber" v="1"/><tag k="addr:postcode" v="78734"/></node><node id="-117" lat="30.358266" lon="-97.99324" changeset="false"><tag k="addr:street" v="Flying Scot Street"/><tag k="addr:housenumber" v="112"/><tag k="addr:postcode" v="78734"/></node><node id="-118" lat="30.357606" lon="-97.994507" changeset="false"><tag k="addr:street" v="Flying Scot Street"/><tag k="addr:housenumber" v="115"/><tag k="addr:postcode" v="78734"/></node><node id="-119" lat="30.364055" lon="-97.995856" changeset="false"><tag k="addr:street" v="Flamingo Boulevard"/><tag k="addr:housenumber" v="515"/><tag k="addr:postcode" v="78734"/></node><node id="-120" lat="30.372532" lon="-97.988547" changeset="false"><tag k="addr:street" v="Lakeway Drive"/><tag k="addr:housenumber" v="118"/><tag k="addr:postcode" v="78734"/></node><node id="-121" lat="30.368757" lon="-97.997286" changeset="false"><tag k="addr:street" v="Corinthian Street"/><tag k="addr:housenumber" v="501"/><tag k="addr:postcode" v="78734"/></node><node id="-122" lat="30.367712" lon="-97.998745" changeset="false"><tag k="addr:street" v="Capri"/><tag k="addr:housenumber" v="215"/><tag k="addr:postcode" v="78734"/></node><node id="-123" lat="30.35699" lon="-97.992874" changeset="false"><tag k="addr:street" v="Champion Drive"/><tag k="addr:housenumber" v="101"/><tag k="addr:postcode" v="78734"/></node><node id="-124" lat="30.357757" lon="-97.981512" changeset="false"><tag k="addr:street" v="Chandon Lane"/><tag k="addr:housenumber" v="16"/><tag k="addr:postcode" v="78734"/></node><node id="-125" lat="30.356604" lon="-97.984548" changeset="false"><tag k="addr:street" v="Prestonwood Circle"/><tag k="addr:housenumber" v="36"/><tag k="addr:postcode" v="78734"/></node><node id="-126" lat="30.356462" lon="-97.984407" changeset="false"><tag k="addr:street" v="Prestonwood Circle"/><tag k="addr:housenumber" v="37"/><tag k="addr:postcode" v="78734"/></node><node id="-127" lat="30.356307" lon="-97.995121" changeset="false"><tag k="addr:street" v="Vixen Court"/><tag k="addr:housenumber" v="105"/><tag k="addr:postcode" v="78734"/></node><node id="-128" lat="30.369234" lon="-97.995015" changeset="false"><tag k="addr:street" v="Atlantic"/><tag k="addr:housenumber" v="102"/><tag k="addr:postcode" v="78734"/></node><node id="-129" lat="30.370352" lon="-97.993895" changeset="false"><tag k="addr:street" v="Comet"/><tag k="addr:housenumber" v="304"/><tag k="addr:postcode" v="78734"/></node><node id="-130" lat="30.360986" lon="-97.98967" changeset="false"><tag k="addr:street" v="Lakeway Drive"/><tag k="addr:housenumber" v="900"/><tag k="addr:postcode" v="78734"/></node><node id="-131" lat="30.361813" lon="-97.988181" changeset="false"><tag k="addr:street" v="Lakeway Drive"/><tag k="addr:housenumber" v="909"/><tag k="addr:postcode" v="78734"/></node><node id="-132" lat="30.367972" lon="-97.99329" changeset="false"><tag k="addr:street" v="Teal Street"/><tag k="addr:housenumber" v="408"/><tag k="addr:postcode" v="78734"/></node><node id="-133" lat="30.361812" lon="-97.98175" changeset="false"><tag k="addr:street" v="Fairlake Circle"/><tag k="addr:housenumber" v="202"/><tag k="addr:postcode" v="78734"/></node><node id="-134" lat="30.36176" lon="-97.981988" changeset="false"><tag k="addr:street" v="Fairlake Circle"/><tag k="addr:housenumber" v="206"/><tag k="addr:postcode" v="78734"/></node><node id="-135" lat="30.36156" lon="-97.98171" changeset="false"><tag k="addr:street" v="Fairlake Circle"/><tag k="addr:housenumber" v="203"/><tag k="addr:postcode" v="78734"/></node><node id="-136" lat="30.356711" lon="-97.985858" changeset="false"><tag k="addr:street" v="Prestonwood Circle"/><tag k="addr:housenumber" v="8"/><tag k="addr:postcode" v="78734"/></node><node id="-137" lat="30.355911" lon="-97.995691" changeset="false"><tag k="addr:street" v="Vixen Court"/><tag k="addr:housenumber" v="102"/><tag k="addr:postcode" v="78734"/></node><node id="-138" lat="30.3556" lon="-97.986573" changeset="false"><tag k="addr:street" v="Prestonwood Circle"/><tag k="addr:housenumber" v="17"/><tag k="addr:postcode" v="78734"/></node><node id="-139" lat="30.355826" lon="-97.985774" changeset="false"><tag k="addr:street" v="Prestonwood Circle"/><tag k="addr:housenumber" v="21"/><tag k="addr:postcode" v="78734"/></node><node id="-140" lat="30.355893" lon="-97.985644" changeset="false"><tag k="addr:street" v="Prestonwood Circle"/><tag k="addr:housenumber" v="22"/><tag k="addr:postcode" v="78734"/></node><node id="-141" lat="30.356264" lon="-97.985814" changeset="false"><tag k="addr:street" v="Prestonwood Circle"/><tag k="addr:housenumber" v="23"/><tag k="addr:postcode" v="78734"/></node><node id="-142" lat="30.36476" lon="-97.984578" changeset="false"><tag k="addr:street" v="Porpoise"/><tag k="addr:housenumber" v="1012"/><tag k="addr:postcode" v="78734"/></node><node id="-143" lat="30.364812" lon="-97.988695" changeset="false"><tag k="addr:street" v="Sunfish"/><tag k="addr:housenumber" v="424"/><tag k="addr:postcode" v="78734"/></node><node id="-144" lat="30.372731" lon="-97.989477" changeset="false"><tag k="addr:street" v="Lakeway Drive"/><tag k="addr:housenumber" v="121"/><tag k="addr:postcode" v="78734"/></node><node id="-145" lat="30.35845" lon="-97.98106" changeset="false"><tag k="addr:street" v="Chandon Lane"/><tag k="addr:housenumber" v="4"/><tag k="addr:postcode" v="78734"/></node><node id="-146" lat="30.35602" lon="-97.986424" changeset="false"><tag k="addr:street" v="Prestonwood Circle"/><tag k="addr:housenumber" v="14"/><tag k="addr:postcode" v="78734"/></node><node id="-147" lat="30.355882" lon="-97.986428" changeset="false"><tag k="addr:street" v="Prestonwood Circle"/><tag k="addr:housenumber" v="15"/><tag k="addr:postcode" v="78734"/></node><node id="-148" lat="30.364532" lon="-97.991157" changeset="false"><tag k="addr:street" v="Seawind"/><tag k="addr:housenumber" v="421"/><tag k="addr:postcode" v="78734"/></node><node id="-149" lat="30.367328" lon="-97.990306" changeset="false"><tag k="addr:street" v="Sunfish"/><tag k="addr:housenumber" v="315"/><tag k="addr:postcode" v="78734"/></node><node id="-150" lat="30.354963" lon="-97.995264" changeset="false"><tag k="addr:street" v="Triton Court"/><tag k="addr:housenumber" v="104"/><tag k="addr:postcode" v="78734"/></node><node id="-151" lat="30.358864" lon="-97.981443" changeset="false"><tag k="addr:street" v="Chandon Lane"/><tag k="addr:housenumber" v="7"/><tag k="addr:postcode" v="78734"/></node><node id="-152" lat="30.366155" lon="-97.99607" changeset="false"><tag k="addr:street" v="Dragon"/><tag k="addr:housenumber" v="518"/><tag k="addr:postcode" v="78734"/></node><node id="-153" lat="30.372783" lon="-97.987629" changeset="false"><tag k="addr:street" v="Star Street"/><tag k="addr:housenumber" v="113"/><tag k="addr:postcode" v="78734"/></node><node id="-154" lat="30.367877" lon="-97.992775" changeset="false"><tag k="addr:street" v="Lakeway Drive"/><tag k="addr:housenumber" v="405"/><tag k="addr:postcode" v="78734"/></node><node id="-155" lat="30.369803" lon="-98.003633" changeset="false"><tag k="addr:street" v="Malabar"/><tag k="addr:housenumber" v="817"/><tag k="addr:postcode" v="78734"/></node><node id="-156" lat="30.369972" lon="-97.993469" changeset="false"><tag k="addr:street" v="Comet"/><tag k="addr:housenumber" v="104"/><tag k="addr:postcode" v="78734"/></node><node id="-157" lat="30.366301" lon="-97.981737" changeset="false"><tag k="addr:street" v="Galaxy"/><tag k="addr:housenumber" v="101"/><tag k="addr:postcode" v="78734"/></node><node id="-158" lat="30.359913" lon="-97.99822" changeset="false"><tag k="addr:street" v="Scamper Cove"/><tag k="addr:housenumber" v="101"/><tag k="addr:postcode" v="78734"/></node><node id="-159" lat="30.356313" lon="-97.995433" changeset="false"><tag k="addr:street" v="Vixen Court"/><tag k="addr:housenumber" v="103"/><tag k="addr:postcode" v="78734"/></node><node id="-160" lat="30.355746" lon="-97.98596" changeset="false"><tag k="addr:street" v="Prestonwood Circle"/><tag k="addr:housenumber" v="20"/><tag k="addr:postcode" v="78734"/></node><node id="-161" lat="30.369012" lon="-97.996739" changeset="false"><tag k="addr:street" v="Corinthian Street"/><tag k="addr:housenumber" v="411"/><tag k="addr:postcode" v="78734"/></node><node id="-162" lat="30.35633" lon="-97.985395" changeset="false"><tag k="addr:street" v="Prestonwood Circle"/><tag k="addr:housenumber" v="27"/><tag k="addr:postcode" v="78734"/></node><node id="-163" lat="30.372634" lon="-97.991026" changeset="false"><tag k="addr:street" v="Sailfish Street"/><tag k="addr:housenumber" v="129"/><tag k="addr:postcode" v="78734"/></node><node id="-164" lat="30.374095" lon="-97.98724" changeset="false"><tag k="addr:street" v="Lakeway Drive"/><tag k="addr:housenumber" v="103"/><tag k="addr:postcode" v="78734"/></node><node id="-165" lat="30.371038" lon="-97.997189" changeset="false"><tag k="addr:street" v="Cutlass Street"/><tag k="addr:housenumber" v="611"/><tag k="addr:postcode" v="78734"/></node><node id="-166" lat="30.362921" lon="-97.996526" changeset="false"><tag k="addr:street" v="Flamingo Boulevard"/><tag k="addr:housenumber" v="522"/><tag k="addr:postcode" v="78734"/></node><node id="-167" lat="30.361379" lon="-97.98191" changeset="false"><tag k="addr:street" v="Fairlake Circle"/><tag k="addr:housenumber" v="212"/><tag k="addr:postcode" v="78734"/></node><node id="-168" lat="30.372371" lon="-97.988135" changeset="false"><tag k="addr:street" v="Star Street"/><tag k="addr:housenumber" v="117"/><tag k="addr:postcode" v="78734"/></node><node id="-169" lat="30.372552" lon="-97.98789" changeset="false"><tag k="addr:street" v="Star Street"/><tag k="addr:housenumber" v="115"/><tag k="addr:postcode" v="78734"/></node><node id="-170" lat="30.373283" lon="-97.9877" changeset="false"><tag k="addr:street" v="Lakeway Drive"/><tag k="addr:housenumber" v="112"/><tag k="addr:postcode" v="78734"/></node><node id="-171" lat="30.37353" lon="-97.988877" changeset="false"><tag k="addr:street" v="Sailfish Street"/><tag k="addr:housenumber" v="116"/><tag k="addr:postcode" v="78734"/></node><node id="-172" lat="30.361394" lon="-97.985514" changeset="false"><tag k="addr:street" v="Vanguard"/><tag k="addr:housenumber" v="925"/><tag k="addr:postcode" v="78734"/></node><node id="-173" lat="30.366555" lon="-97.997765" changeset="false"><tag k="addr:street" v="Highlander"/><tag k="addr:housenumber" v="510"/><tag k="addr:postcode" v="78734"/></node><node id="-174" lat="30.366886" lon="-97.982399" changeset="false"><tag k="addr:street" v="Sunfish"/><tag k="addr:housenumber" v="835"/><tag k="addr:postcode" v="78734"/></node><node id="-175" lat="30.36646" lon="-98.001341" changeset="false"><tag k="addr:street" v="Malabar"/><tag k="addr:housenumber" v="301"/><tag k="addr:postcode" v="78734"/></node><node id="-176" lat="30.364712" lon="-97.980944" changeset="false"><tag k="addr:street" v="Lohmans Crossing Road"/><tag k="addr:housenumber" v="1102"/><tag k="addr:postcode" v="78734"/></node><node id="-177" lat="30.361454" lon="-97.99215" changeset="false"><tag k="addr:street" v="Vanguard"/><tag k="addr:housenumber" v="716"/><tag k="addr:postcode" v="78734"/></node><node id="-178" lat="30.356738" lon="-97.984665" changeset="false"><tag k="addr:street" v="Prestonwood Circle"/><tag k="addr:housenumber" v="35"/><tag k="addr:postcode" v="78734"/></node><node id="-179" lat="30.356358" lon="-97.985011" changeset="false"><tag k="addr:street" v="Prestonwood Circle"/><tag k="addr:housenumber" v="31"/><tag k="addr:postcode" v="78734"/></node><node id="-180" lat="30.361072" lon="-97.981567" changeset="false"><tag k="addr:street" v="Fairlake Circle"/><tag k="addr:housenumber" v="218"/><tag k="addr:postcode" v="78734"/></node><node id="-181" lat="30.366302" lon="-97.993685" changeset="false"><tag k="addr:street" v="Dragon"/><tag k="addr:housenumber" v="502"/><tag k="addr:postcode" v="78734"/></node><node id="-182" lat="30.353194" lon="-97.995638" changeset="false"><tag k="addr:street" v="Lakeway Boulevard"/><tag k="addr:housenumber" v="3210"/><tag k="addr:postcode" v="78734"/></node><node id="-183" lat="30.36893" lon="-97.996084" changeset="false"><tag k="addr:street" v="Corinthian Street"/><tag k="addr:housenumber" v="405"/><tag k="addr:postcode" v="78734"/></node><node id="-184" lat="30.354266" lon="-97.995348" changeset="false"><tag k="addr:street" v="Scorpion Drive"/><tag k="addr:housenumber" v="124"/><tag k="addr:postcode" v="78734"/></node><node id="-185" lat="30.364249" lon="-97.988816" changeset="false"><tag k="addr:street" v="Sunfish"/><tag k="addr:housenumber" v="428"/><tag k="addr:postcode" v="78734"/></node><node id="-186" lat="30.372957" lon="-97.988101" changeset="false"><tag k="addr:street" v="Lakeway Drive"/><tag k="addr:housenumber" v="114"/><tag k="addr:postcode" v="78734"/></node><node id="-187" lat="30.360341" lon="-97.984428" changeset="false"><tag k="addr:street" v="New Lido Drive"/><tag k="addr:housenumber" v="403"/><tag k="addr:postcode" v="78734"/></node><node id="-188" lat="30.355258" lon="-97.995667" changeset="false"><tag k="addr:street" v="Triton Court"/><tag k="addr:housenumber" v="101"/><tag k="addr:postcode" v="78734"/></node><node id="-189" lat="30.355318" lon="-97.995137" changeset="false"><tag k="addr:street" v="Triton Court"/><tag k="addr:housenumber" v="105"/><tag k="addr:postcode" v="78734"/></node><node id="-190" lat="30.367188" lon="-97.999014" changeset="false"><tag k="addr:street" v="Capri"/><tag k="addr:housenumber" v="219"/><tag k="addr:postcode" v="78734"/></node><node id="-191" lat="30.366595" lon="-97.99538" changeset="false"><tag k="addr:street" v="Dragon"/><tag k="addr:housenumber" v="511"/><tag k="addr:postcode" v="78734"/></node><node id="-192" lat="30.366271" lon="-97.991489" changeset="false"><tag k="addr:street" v="Seawind"/><tag k="addr:housenumber" v="306"/><tag k="addr:postcode" v="78734"/></node><node id="-193" lat="30.357704" lon="-97.981748" changeset="false"><tag k="addr:street" v="Chandon Lane"/><tag k="addr:housenumber" v="18"/><tag k="addr:postcode" v="78734"/></node><node id="-194" lat="30.36133" lon="-97.988417" changeset="false"><tag k="addr:street" v="Biscayne Cove"/><tag k="addr:housenumber" v="906"/><tag k="addr:postcode" v="78734"/></node><node id="-195" lat="30.35658" lon="-97.985225" changeset="false"><tag k="addr:street" v="Prestonwood Circle"/><tag k="addr:housenumber" v="39"/><tag k="addr:postcode" v="78734"/></node><node id="-196" lat="30.357035" lon="-97.985338" changeset="false"><tag k="addr:street" v="Prestonwood Circle"/><tag k="addr:housenumber" v="4"/><tag k="addr:postcode" v="78734"/></node><node id="-197" lat="30.356162" lon="-97.984896" changeset="false"><tag k="addr:street" v="Prestonwood Circle"/><tag k="addr:housenumber" v="30"/><tag k="addr:postcode" v="78734"/></node><node id="-198" lat="30.360952" lon="-97.996174" changeset="false"><tag k="addr:street" v="Dasher Drive"/><tag k="addr:housenumber" v="307"/><tag k="addr:postcode" v="78734"/></node><node id="-199" lat="30.370043" lon="-97.990943" changeset="false"><tag k="addr:street" v="Lakeway Drive"/><tag k="addr:housenumber" v="203"/><tag k="addr:postcode" v="78734"/></node><node id="-200" lat="30.364958" lon="-97.990543" changeset="false"><tag k="addr:street" v="Seawind"/><tag k="addr:housenumber" v="420"/><tag k="addr:postcode" v="78734"/></node><node id="-201" lat="30.37121" lon="-98.002997" changeset="false"><tag k="addr:street" v="Mariner"/><tag k="addr:housenumber" v="819"/><tag k="addr:postcode" v="78734"/></node><node id="-202" lat="30.364505" lon="-97.988547" changeset="false"><tag k="addr:street" v="Sunfish"/><tag k="addr:housenumber" v="502"/><tag k="addr:postcode" v="78734"/></node><node id="-203" lat="30.358656" lon="-97.981043" changeset="false"><tag k="addr:street" v="Chandon Lane"/><tag k="addr:housenumber" v="2"/><tag k="addr:postcode" v="78734"/></node><node id="-204" lat="30.365236" lon="-97.996072" changeset="false"><tag k="addr:street" v="Double Eagle Drive"/><tag k="addr:housenumber" v="404"/><tag k="addr:postcode" v="78734"/></node><node id="-205" lat="30.367865" lon="-97.990624" changeset="false"><tag k="addr:street" v="Sunfish"/><tag k="addr:housenumber" v="306"/><tag k="addr:postcode" v="78734"/></node><node id="-206" lat="30.358912" lon="-97.981204" changeset="false"><tag k="addr:street" v="Chandon Lane"/><tag k="addr:housenumber" v="5"/><tag k="addr:postcode" v="78734"/></node><node id="-207" lat="30.365857" lon="-97.991228" changeset="false"><tag k="addr:street" v="Seawind"/><tag k="addr:housenumber" v="403"/><tag k="addr:postcode" v="78734"/></node><node id="-208" lat="30.36388" lon="-97.999908" changeset="false"><tag k="addr:street" v="Malabar"/><tag k="addr:housenumber" v="413"/><tag k="addr:postcode" v="78734"/></node><node id="-209" lat="30.370665" lon="-98.003402" changeset="false"><tag k="addr:street" v="Malabar"/><tag k="addr:housenumber" v="823"/><tag k="addr:postcode" v="78734"/></node><node id="-210" lat="30.365859" lon="-97.982005" changeset="false"><tag k="addr:street" v="Galaxy"/><tag k="addr:housenumber" v="102"/><tag k="addr:postcode" v="78734"/></node><node id="-211" lat="30.365915" lon="-97.981263" changeset="false"><tag k="addr:street" v="Galaxy"/><tag k="addr:housenumber" v="105"/><tag k="addr:postcode" v="78734"/></node><node id="-212" lat="30.362748" lon="-97.986215" changeset="false"><tag k="addr:street" v="Biscayne Cove"/><tag k="addr:housenumber" v="924"/><tag k="addr:postcode" v="78734"/></node><node id="-213" lat="30.358018" lon="-97.981174" changeset="false"><tag k="addr:street" v="Chandon Lane"/><tag k="addr:housenumber" v="10"/><tag k="addr:postcode" v="78734"/></node><node id="-214" lat="30.359428" lon="-97.979759" changeset="false"><tag k="addr:street" v="Lakeway Drive"/><tag k="addr:housenumber" v="1420"/><tag k="addr:postcode" v="78734"/></node><node id="-215" lat="30.355849" lon="-97.988036" changeset="false"><tag k="addr:street" v="Champions Lane"/><tag k="addr:housenumber" v="24"/><tag k="addr:postcode" v="78734"/></node><node id="-216" lat="30.356663" lon="-97.983965" changeset="false"><tag k="addr:street" v="Stoney Creek Cove"/><tag k="addr:housenumber" v="28"/><tag k="addr:postcode" v="78734"/></node><node id="-217" lat="30.35676" lon="-97.984038" changeset="false"><tag k="addr:street" v="Stoney Creek Cove"/><tag k="addr:housenumber" v="27"/><tag k="addr:postcode" v="78734"/></node><node id="-218" lat="30.357135" lon="-97.98435" changeset="false"><tag k="addr:street" v="Stoney Creek Cove"/><tag k="addr:housenumber" v="23"/><tag k="addr:postcode" v="78734"/></node><node id="-219" lat="30.357052" lon="-97.984266" changeset="false"><tag k="addr:street" v="Stoney Creek Cove"/><tag k="addr:housenumber" v="24"/><tag k="addr:postcode" v="78734"/></node><node id="-220" lat="30.356965" lon="-97.983505" changeset="false"><tag k="addr:street" v="Stoney Creek Cove"/><tag k="addr:housenumber" v="1"/><tag k="addr:postcode" v="78734"/></node><node id="-221" lat="30.357021" lon="-97.983601" changeset="false"><tag k="addr:street" v="Stoney Creek Cove"/><tag k="addr:housenumber" v="2"/><tag k="addr:postcode" v="78734"/></node><node id="-222" lat="30.357099" lon="-97.983766" changeset="false"><tag k="addr:street" v="Stoney Creek Cove"/><tag k="addr:housenumber" v="3"/><tag k="addr:postcode" v="78734"/></node><node id="-223" lat="30.357161" lon="-97.983851" changeset="false"><tag k="addr:street" v="Stoney Creek Cove"/><tag k="addr:housenumber" v="4"/><tag k="addr:postcode" v="78734"/></node><node id="-224" lat="30.356938" lon="-97.984193" changeset="false"><tag k="addr:street" v="Stoney Creek Cove"/><tag k="addr:housenumber" v="25"/><tag k="addr:postcode" v="78734"/></node><node id="-225" lat="30.356841" lon="-97.984123" changeset="false"><tag k="addr:street" v="Stoney Creek Cove"/><tag k="addr:housenumber" v="26"/><tag k="addr:postcode" v="78734"/></node><node id="-226" lat="30.357304" lon="-97.984375" changeset="false"><tag k="addr:street" v="Stoney Creek Cove"/><tag k="addr:housenumber" v="22"/><tag k="addr:postcode" v="78734"/></node><node id="-227" lat="30.357396" lon="-97.984435" changeset="false"><tag k="addr:street" v="Stoney Creek Cove"/><tag k="addr:housenumber" v="21"/><tag k="addr:postcode" v="78734"/></node><node id="-228" lat="30.35753" lon="-97.983966" changeset="false"><tag k="addr:street" v="Stoney Creek Cove"/><tag k="addr:housenumber" v="7"/><tag k="addr:postcode" v="78734"/></node><node id="-229" lat="30.35761" lon="-97.98401" changeset="false"><tag k="addr:street" v="Stoney Creek Cove"/><tag k="addr:housenumber" v="8"/><tag k="addr:postcode" v="78734"/></node><node id="-230" lat="30.357385" lon="-97.983988" changeset="false"><tag k="addr:street" v="Stoney Creek Cove"/><tag k="addr:housenumber" v="6"/><tag k="addr:postcode" v="78734"/></node><node id="-231" lat="30.357296" lon="-97.983944" changeset="false"><tag k="addr:street" v="Stoney Creek Cove"/><tag k="addr:housenumber" v="5"/><tag k="addr:postcode" v="78734"/></node><node id="-232" lat="30.357783" lon="-97.984256" changeset="false"><tag k="addr:street" v="Stoney Creek Cove"/><tag k="addr:housenumber" v="10"/><tag k="addr:postcode" v="78734"/></node><node id="-233" lat="30.357716" lon="-97.98416" changeset="false"><tag k="addr:street" v="Stoney Creek Cove"/><tag k="addr:housenumber" v="9"/><tag k="addr:postcode" v="78734"/></node><node id="-234" lat="30.357786" lon="-97.984918" changeset="false"><tag k="addr:street" v="Stoney Creek Cove"/><tag k="addr:housenumber" v="15"/><tag k="addr:postcode" v="78734"/></node><node id="-235" lat="30.357919" lon="-97.984961" changeset="false"><tag k="addr:street" v="Stoney Creek Cove"/><tag k="addr:housenumber" v="16"/><tag k="addr:postcode" v="78734"/></node><node id="-236" lat="30.35795" lon="-97.984844" changeset="false"><tag k="addr:street" v="Stoney Creek Cove"/><tag k="addr:housenumber" v="13"/><tag k="addr:postcode" v="78734"/></node><node id="-237" lat="30.357818" lon="-97.984796" changeset="false"><tag k="addr:street" v="Stoney Creek Cove"/><tag k="addr:housenumber" v="14"/><tag k="addr:postcode" v="78734"/></node><node id="-238" lat="30.357617" lon="-97.984672" changeset="false"><tag k="addr:street" v="Stoney Creek Cove"/><tag k="addr:housenumber" v="20"/><tag k="addr:postcode" v="78734"/></node><node id="-239" lat="30.35764" lon="-97.984521" changeset="false"><tag k="addr:street" v="Stoney Creek Cove"/><tag k="addr:housenumber" v="17"/><tag k="addr:postcode" v="78734"/></node><node id="-240" lat="30.357502" lon="-97.984642" changeset="false"><tag k="addr:street" v="Stoney Creek Cove"/><tag k="addr:housenumber" v="19"/><tag k="addr:postcode" v="78734"/></node><node id="-241" lat="30.357537" lon="-97.984488" changeset="false"><tag k="addr:street" v="Stoney Creek Cove"/><tag k="addr:housenumber" v="18"/><tag k="addr:postcode" v="78734"/></node><node id="-242" lat="30.358142" lon="-97.984867" changeset="false"><tag k="addr:street" v="Stoney Creek Cove"/><tag k="addr:housenumber" v="12"/><tag k="addr:postcode" v="78734"/></node><node id="-243" lat="30.358216" lon="-97.9848" changeset="false"><tag k="addr:street" v="Stoney Creek Cove"/><tag k="addr:housenumber" v="11"/><tag k="addr:postcode" v="78734"/></node><node id="-244" lat="30.358612" lon="-97.985662" changeset="false"><tag k="addr:street" v="Lido"/><tag k="addr:housenumber" v="230"/><tag k="addr:postcode" v="78734"/></node><node id="-245" lat="30.35853" lon="-97.985678" changeset="false"><tag k="addr:street" v="Lido"/><tag k="addr:housenumber" v="228"/><tag k="addr:postcode" v="78734"/></node><node id="-246" lat="30.358656" lon="-97.986565" changeset="false"><tag k="addr:street" v="Lido"/><tag k="addr:housenumber" v="213"/><tag k="addr:postcode" v="78734"/></node><node id="-247" lat="30.358586" lon="-97.986592" changeset="false"><tag k="addr:street" v="Lido"/><tag k="addr:housenumber" v="211"/><tag k="addr:postcode" v="78734"/></node><node id="-248" lat="30.358917" lon="-97.986138" changeset="false"><tag k="addr:street" v="Lido"/><tag k="addr:housenumber" v="221"/><tag k="addr:postcode" v="78734"/></node><node id="-249" lat="30.358759" lon="-97.986362" changeset="false"><tag k="addr:street" v="Lido"/><tag k="addr:housenumber" v="215"/><tag k="addr:postcode" v="78734"/></node><node id="-250" lat="30.35881" lon="-97.986298" changeset="false"><tag k="addr:street" v="Lido"/><tag k="addr:housenumber" v="217"/><tag k="addr:postcode" v="78734"/></node><node id="-251" lat="30.358869" lon="-97.986215" changeset="false"><tag k="addr:street" v="Lido"/><tag k="addr:housenumber" v="219"/><tag k="addr:postcode" v="78734"/></node><node id="-252" lat="30.357959" lon="-97.985801" changeset="false"><tag k="addr:street" v="Lido"/><tag k="addr:housenumber" v="216"/><tag k="addr:postcode" v="78734"/></node><node id="-253" lat="30.35804" lon="-97.98577" changeset="false"><tag k="addr:street" v="Lido"/><tag k="addr:housenumber" v="218"/><tag k="addr:postcode" v="78734"/></node><node id="-254" lat="30.358166" lon="-97.985745" changeset="false"><tag k="addr:street" v="Lido"/><tag k="addr:housenumber" v="220"/><tag k="addr:postcode" v="78734"/></node><node id="-255" lat="30.358248" lon="-97.985736" changeset="false"><tag k="addr:street" v="Lido"/><tag k="addr:housenumber" v="222"/><tag k="addr:postcode" v="78734"/></node><node id="-256" lat="30.358379" lon="-97.985696" changeset="false"><tag k="addr:street" v="Lido"/><tag k="addr:housenumber" v="226"/><tag k="addr:postcode" v="78734"/></node><node id="-257" lat="30.358304" lon="-97.985713" changeset="false"><tag k="addr:street" v="Lido"/><tag k="addr:housenumber" v="224"/><tag k="addr:postcode" v="78734"/></node><node id="-258" lat="30.357706" lon="-97.986083" changeset="false"><tag k="addr:street" v="Lido"/><tag k="addr:housenumber" v="210"/><tag k="addr:postcode" v="78734"/></node><node id="-259" lat="30.357736" lon="-97.985995" changeset="false"><tag k="addr:street" v="Lido"/><tag k="addr:housenumber" v="212"/><tag k="addr:postcode" v="78734"/></node><node id="-260" lat="30.357676" lon="-97.986157" changeset="false"><tag k="addr:street" v="Lido"/><tag k="addr:housenumber" v="208"/><tag k="addr:postcode" v="78734"/></node><node id="-261" lat="30.357772" lon="-97.9859" changeset="false"><tag k="addr:street" v="Lido"/><tag k="addr:housenumber" v="214"/><tag k="addr:postcode" v="78734"/></node><node id="-262" lat="30.358286" lon="-97.986367" changeset="false"><tag k="addr:street" v="Lido"/><tag k="addr:housenumber" v="205"/><tag k="addr:postcode" v="78734"/></node><node id="-263" lat="30.358242" lon="-97.9863" changeset="false"><tag k="addr:street" v="Lido"/><tag k="addr:housenumber" v="203"/><tag k="addr:postcode" v="78734"/></node><node id="-264" lat="30.358347" lon="-97.986443" changeset="false"><tag k="addr:street" v="Lido"/><tag k="addr:housenumber" v="207"/><tag k="addr:postcode" v="78734"/></node><node id="-265" lat="30.358403" lon="-97.986508" changeset="false"><tag k="addr:street" v="Lido"/><tag k="addr:housenumber" v="209"/><tag k="addr:postcode" v="78734"/></node><node id="-266" lat="30.368574" lon="-97.999044" changeset="false"><tag k="addr:street" v="Capri"/><tag k="addr:housenumber" v="210"/><tag k="addr:postcode" v="78734"/></node><node id="-267" lat="30.368285" lon="-97.999072" changeset="false"><tag k="addr:street" v="Capri"/><tag k="addr:housenumber" v="212"/><tag k="addr:postcode" v="78734"/></node><node id="-268" lat="30.370868" lon="-98.00268" changeset="false"><tag k="addr:street" v="Mariner"/><tag k="addr:housenumber" v="822"/><tag k="addr:postcode" v="78734"/></node><node id="-269" lat="30.370913" lon="-98.002781" changeset="false"><tag k="addr:street" v="Mariner"/><tag k="addr:housenumber" v="820"/><tag k="addr:postcode" v="78734"/></node><node id="-270" lat="30.366208" lon="-97.990751" changeset="false"><tag k="addr:street" v="Seawind"/><tag k="addr:housenumber" v="406"/><tag k="addr:postcode" v="78734"/></node><node id="-271" lat="30.366378" lon="-97.990873" changeset="false"><tag k="addr:street" v="Seawind"/><tag k="addr:housenumber" v="402"/><tag k="addr:postcode" v="78734"/></node><node id="-272" lat="30.366233" lon="-97.990845" changeset="false"><tag k="addr:street" v="Seawind"/><tag k="addr:housenumber" v="404"/><tag k="addr:postcode" v="78734"/></node><node id="-273" lat="30.364664" lon="-97.990505" changeset="false"><tag k="addr:street" v="Seawind"/><tag k="addr:housenumber" v="426"/><tag k="addr:postcode" v="78734"/></node><node id="-274" lat="30.364563" lon="-97.990498" changeset="false"><tag k="addr:street" v="Seawind"/><tag k="addr:housenumber" v="428"/><tag k="addr:postcode" v="78734"/></node><node id="-275" lat="30.364754" lon="-97.990489" changeset="false"><tag k="addr:street" v="Seawind"/><tag k="addr:housenumber" v="424"/><tag k="addr:postcode" v="78734"/></node><node id="-276" lat="30.364734" lon="-97.991535" changeset="false"><tag k="addr:street" v="Seawind"/><tag k="addr:housenumber" v="425"/><tag k="addr:postcode" v="78734"/></node><node id="-277" lat="30.364787" lon="-97.991637" changeset="false"><tag k="addr:street" v="Seawind"/><tag k="addr:housenumber" v="427"/><tag k="addr:postcode" v="78734"/></node><node id="-278" lat="30.364678" lon="-97.991442" changeset="false"><tag k="addr:street" v="Seawind"/><tag k="addr:housenumber" v="423"/><tag k="addr:postcode" v="78734"/></node><node id="-279" lat="30.365352" lon="-97.990934" changeset="false"><tag k="addr:street" v="Seawind"/><tag k="addr:housenumber" v="411"/><tag k="addr:postcode" v="78734"/></node><node id="-280" lat="30.365251" lon="-97.990955" changeset="false"><tag k="addr:street" v="Seawind"/><tag k="addr:housenumber" v="413"/><tag k="addr:postcode" v="78734"/></node><node id="-281" lat="30.365125" lon="-97.990922" changeset="false"><tag k="addr:street" v="Seawind"/><tag k="addr:housenumber" v="415"/><tag k="addr:postcode" v="78734"/></node><node id="-282" lat="30.365999" lon="-97.990644" changeset="false"><tag k="addr:street" v="Seawind"/><tag k="addr:housenumber" v="408"/><tag k="addr:postcode" v="78734"/></node><node id="-283" lat="30.365832" lon="-97.990486" changeset="false"><tag k="addr:street" v="Seawind"/><tag k="addr:housenumber" v="410"/><tag k="addr:postcode" v="78734"/></node><node id="-284" lat="30.365602" lon="-97.9905" changeset="false"><tag k="addr:street" v="Seawind"/><tag k="addr:housenumber" v="412"/><tag k="addr:postcode" v="78734"/></node><node id="-285" lat="30.365484" lon="-97.990481" changeset="false"><tag k="addr:street" v="Seawind"/><tag k="addr:housenumber" v="414"/><tag k="addr:postcode" v="78734"/></node><node id="-286" lat="30.365363" lon="-97.990452" changeset="false"><tag k="addr:street" v="Seawind"/><tag k="addr:housenumber" v="416"/><tag k="addr:postcode" v="78734"/></node><node id="-287" lat="30.365758" lon="-97.991109" changeset="false"><tag k="addr:street" v="Seawind"/><tag k="addr:housenumber" v="405"/><tag k="addr:postcode" v="78734"/></node><node id="-288" lat="30.365682" lon="-97.991057" changeset="false"><tag k="addr:street" v="Seawind"/><tag k="addr:housenumber" v="407"/><tag k="addr:postcode" v="78734"/></node><node id="-289" lat="30.365537" lon="-97.991029" changeset="false"><tag k="addr:street" v="Seawind"/><tag k="addr:housenumber" v="409"/><tag k="addr:postcode" v="78734"/></node><node id="-290" lat="30.36403" lon="-97.991295" changeset="false"><tag k="addr:street" v="Seawind"/><tag k="addr:housenumber" v="438"/><tag k="addr:postcode" v="78734"/></node><node id="-291" lat="30.364052" lon="-97.991407" changeset="false"><tag k="addr:street" v="Seawind"/><tag k="addr:housenumber" v="440"/><tag k="addr:postcode" v="78734"/></node><node id="-292" lat="30.364081" lon="-97.991528" changeset="false"><tag k="addr:street" v="Seawind"/><tag k="addr:housenumber" v="442"/><tag k="addr:postcode" v="78734"/></node><node id="-293" lat="30.364119" lon="-97.990784" changeset="false"><tag k="addr:street" v="Seawind"/><tag k="addr:housenumber" v="430"/><tag k="addr:postcode" v="78734"/></node><node id="-294" lat="30.363878" lon="-97.991069" changeset="false"><tag k="addr:street" v="Seawind"/><tag k="addr:housenumber" v="436"/><tag k="addr:postcode" v="78734"/></node><node id="-295" lat="30.363954" lon="-97.99095" changeset="false"><tag k="addr:street" v="Seawind"/><tag k="addr:housenumber" v="434"/><tag k="addr:postcode" v="78734"/></node><node id="-296" lat="30.364007" lon="-97.990854" changeset="false"><tag k="addr:street" v="Seawind"/><tag k="addr:housenumber" v="432"/><tag k="addr:postcode" v="78734"/></node></osm>