<?xml version="1.0" encoding="UTF-8"?><osm version="0.6" generator="github.com/aaronlidman/osm-and-geojson"><node id="-1" lat="30.456021" lon="-97.824807" changeset="false"><tag k="addr:street" v="Ranch Road 620"/><tag k="addr:housenumber" v="11613"/></node><node id="-2" lat="30.456355" lon="-97.824324" changeset="false"><tag k="addr:street" v="Ranch Road 620"/><tag k="addr:housenumber" v="11625"/></node><node id="-3" lat="30.452548" lon="-97.818166" changeset="false"><tag k="addr:street" v="Sweetwater Trail"/><tag k="addr:housenumber" v="11605"/></node><node id="-4" lat="30.453977" lon="-97.816637" changeset="false"><tag k="addr:street" v="El Salido Parkway"/><tag k="addr:housenumber" v="11213"/></node><node id="-5" lat="30.448631" lon="-97.813115" changeset="false"><tag k="addr:street" v="Sandy Loam Trail"/><tag k="addr:housenumber" v="11518"/></node><node id="-6" lat="30.455461" lon="-97.81957" changeset="false"><tag k="addr:street" v="Morning Glory Trail"/><tag k="addr:housenumber" v="11449"/></node><node id="-7" lat="30.45092" lon="-97.817556" changeset="false"><tag k="addr:street" v="Star View Trail"/><tag k="addr:housenumber" v="11507"/></node><node id="-8" lat="30.455279" lon="-97.822774" changeset="false"><tag k="addr:street" v="Tanglebriar Trail"/><tag k="addr:housenumber" v="11610"/></node><node id="-9" lat="30.450804" lon="-97.816619" changeset="false"><tag k="addr:street" v="Brandon Parke Trail"/><tag k="addr:housenumber" v="11517"/></node><node id="-10" lat="30.451988" lon="-97.815701" changeset="false"><tag k="addr:street" v="Alison Parke Trail"/><tag k="addr:housenumber" v="11120"/></node><node id="-11" lat="30.453394" lon="-97.81578" changeset="false"><tag k="addr:street" v="Hardwood Trail"/><tag k="addr:housenumber" v="11704"/></node><node id="-12" lat="30.447312" lon="-97.813024" changeset="false"><tag k="addr:street" v="Sandy Loam Trail"/><tag k="addr:housenumber" v="11509"/></node><node id="-13" lat="30.452334" lon="-97.82035" changeset="false"><tag k="addr:street" v="Morning Glory Trail"/><tag k="addr:housenumber" v="11414"/></node><node id="-14" lat="30.447213" lon="-97.812353" changeset="false"><tag k="addr:street" v="Sandy Loam Trail"/><tag k="addr:housenumber" v="11503"/></node><node id="-15" lat="30.454254" lon="-97.820613" changeset="false"><tag k="addr:street" v="Fence Post Trail"/><tag k="addr:housenumber" v="11615"/></node><node id="-16" lat="30.451093" lon="-97.816463" changeset="false"><tag k="addr:street" v="Brandon Parke Trail"/><tag k="addr:housenumber" v="11521"/></node><node id="-17" lat="30.454649" lon="-97.825426" changeset="false"><tag k="addr:street" v="Anderson Mill Road"/><tag k="addr:housenumber" v="11719 1/2"/></node><node id="-18" lat="30.455069" lon="-97.824292" changeset="false"><tag k="addr:street" v="Anderson Mill Road"/><tag k="addr:housenumber" v="11700"/></node><node id="-19" lat="30.45446" lon="-97.812191" changeset="false"><tag k="addr:street" v="El Salido Parkway"/><tag k="addr:housenumber" v="11009"/></node><node id="-20" lat="30.451267" lon="-97.818013" changeset="false"><tag k="addr:street" v="Star View Trail"/><tag k="addr:housenumber" v="11508"/></node><node id="-21" lat="30.450177" lon="-97.816916" changeset="false"><tag k="addr:street" v="Brandon Parke Trail"/><tag k="addr:housenumber" v="11501"/></node><node id="-22" lat="30.454494" lon="-97.821476" changeset="false"><tag k="addr:street" v="Birchbark Trail"/><tag k="addr:housenumber" v="11615"/></node><node id="-23" lat="30.452246" lon="-97.81783" changeset="false"><tag k="addr:street" v="Star View Trail"/><tag k="addr:housenumber" v="11608"/></node><node id="-24" lat="30.448312" lon="-97.81367" changeset="false"><tag k="addr:street" v="Sandy Loam Trail"/><tag k="addr:housenumber" v="11523"/></node><node id="-25" lat="30.447418" lon="-97.813206" changeset="false"><tag k="addr:street" v="Sandy Loam Trail"/><tag k="addr:housenumber" v="11511"/></node><node id="-26" lat="30.447557" lon="-97.813357" changeset="false"><tag k="addr:street" v="Sandy Loam Trail"/><tag k="addr:housenumber" v="11513"/></node><node id="-27" lat="30.452833" lon="-97.813659" changeset="false"><tag k="addr:street" v="Hard Rock Road"/><tag k="addr:housenumber" v="11020"/></node><node id="-28" lat="30.449154" lon="-97.811787" changeset="false"><tag k="addr:street" v="Sandy Loam Trail"/><tag k="addr:housenumber" v="11551"/></node><node id="-29" lat="30.44937" lon="-97.813385" changeset="false"><tag k="addr:street" v="Sandy Loam Trail"/><tag k="addr:housenumber" v="11535"/></node><node id="-30" lat="30.449659" lon="-97.812877" changeset="false"><tag k="addr:street" v="Thicket Trail"/><tag k="addr:housenumber" v="10905"/></node><node id="-31" lat="30.447958" lon="-97.813017" changeset="false"><tag k="addr:street" v="Sandy Loam Trail"/><tag k="addr:housenumber" v="11510"/></node><node id="-32" lat="30.452665" lon="-97.812812" changeset="false"><tag k="addr:street" v="Opal Trail"/><tag k="addr:housenumber" v="11002"/></node><node id="-33" lat="30.452891" lon="-97.813151" changeset="false"><tag k="addr:street" v="Hard Rock Road"/><tag k="addr:housenumber" v="11021"/></node><node id="-34" lat="30.452935" lon="-97.818642" changeset="false"><tag k="addr:street" v="Sweetwater Trail"/><tag k="addr:housenumber" v="11608"/></node><node id="-35" lat="30.453652" lon="-97.822897" changeset="false"><tag k="addr:street" v="Tanglebriar Trail"/><tag k="addr:housenumber" v="11514"/></node><node id="-36" lat="30.453253" lon="-97.817141" changeset="false"><tag k="addr:street" v="Star View Trail"/><tag k="addr:housenumber" v="11701"/></node><node id="-37" lat="30.452515" lon="-97.819718" changeset="false"><tag k="addr:street" v="Bristle Oak Trail"/><tag k="addr:housenumber" v="11470"/></node><node id="-38" lat="30.453626" lon="-97.812391" changeset="false"><tag k="addr:street" v="Marble Road"/><tag k="addr:housenumber" v="11000"/></node><node id="-39" lat="30.454442" lon="-97.812323" changeset="false"><tag k="addr:street" v="El Salido Parkway"/><tag k="addr:housenumber" v="11011"/></node><node id="-40" lat="30.451741" lon="-97.817402" changeset="false"><tag k="addr:street" v="Star View Trail"/><tag k="addr:housenumber" v="11605"/></node><node id="-41" lat="30.452852" lon="-97.817209" changeset="false"><tag k="addr:street" v="Star View Trail"/><tag k="addr:housenumber" v="11615"/></node><node id="-42" lat="30.45403" lon="-97.814314" changeset="false"><tag k="addr:street" v="Buggy Whip Trail"/><tag k="addr:housenumber" v="11813"/></node><node id="-43" lat="30.452215" lon="-97.819967" changeset="false"><tag k="addr:street" v="Bristle Oak Trail"/><tag k="addr:housenumber" v="11474"/></node><node id="-44" lat="30.453484" lon="-97.81423" changeset="false"><tag k="addr:street" v="Buggy Whip Trail"/><tag k="addr:housenumber" v="11807"/></node><node id="-45" lat="30.457315" lon="-97.823336" changeset="false"><tag k="addr:street" v="Ranch Road 620"/><tag k="addr:housenumber" v="11725"/></node><node id="-46" lat="30.453846" lon="-97.814278" changeset="false"><tag k="addr:street" v="Buggy Whip Trail"/><tag k="addr:housenumber" v="11811"/></node><node id="-47" lat="30.451839" lon="-97.819065" changeset="false"><tag k="addr:street" v="Sweetwater Cove"/><tag k="addr:housenumber" v="11302"/></node><node id="-48" lat="30.453238" lon="-97.822493" changeset="false"><tag k="addr:street" v="Tanglebriar Trail"/><tag k="addr:housenumber" v="11508"/></node><node id="-49" lat="30.450683" lon="-97.816015" changeset="false"><tag k="addr:street" v="Terrace Parke Trail"/><tag k="addr:housenumber" v="11600 1/2"/></node><node id="-50" lat="30.454835" lon="-97.821394" changeset="false"><tag k="addr:street" v="Birchbark Trail"/><tag k="addr:housenumber" v="11619"/></node><node id="-51" lat="30.454477" lon="-97.812059" changeset="false"><tag k="addr:street" v="El Salido Parkway"/><tag k="addr:housenumber" v="11007"/></node><node id="-52" lat="30.450566" lon="-97.817257" changeset="false"><tag k="addr:street" v="Brandon Parke Trail"/><tag k="addr:housenumber" v="11508"/></node><node id="-53" lat="30.456696" lon="-97.824024" changeset="false"><tag k="addr:street" v="Ranch Road 620"/><tag k="addr:housenumber" v="11701"/></node><node id="-54" lat="30.450066" lon="-97.816722" changeset="false"><tag k="addr:street" v="Brandon Parke Trail"/><tag k="addr:housenumber" v="11503"/></node></osm>