<?xml version="1.0" encoding="UTF-8"?><osm version="0.6" generator="github.com/aaronlidman/osm-and-geojson"><node id="-1" lat="30.44108" lon="-97.682975" changeset="false"><tag k="addr:street" v="Merrilltown Drive"/><tag k="addr:housenumber" v="14417"/><tag k="addr:postcode" v="78728"/></node><node id="-2" lat="30.434947" lon="-97.679391" changeset="false"><tag k="addr:street" v="Wells Branch Parkway"/><tag k="addr:housenumber" v="1900 1/2"/><tag k="addr:postcode" v="78728"/></node><node id="-3" lat="30.437355" lon="-97.684129" changeset="false"><tag k="addr:street" v="Wells Branch Parkway"/><tag k="addr:housenumber" v="2124"/><tag k="addr:postcode" v="78728"/></node><node id="-4" lat="30.437736" lon="-97.677344" changeset="false"><tag k="addr:street" v="Gaylord Drive"/><tag k="addr:housenumber" v="1809"/><tag k="addr:postcode" v="78728"/></node><node id="-5" lat="30.440928" lon="-97.680054" changeset="false"><tag k="addr:street" v="Surrender Avenue"/><tag k="addr:housenumber" v="2011"/><tag k="addr:postcode" v="78728"/></node><node id="-6" lat="30.43913" lon="-97.680848" changeset="false"><tag k="addr:street" v="Weldon Lane"/><tag k="addr:housenumber" v="14402"/><tag k="addr:postcode" v="78728"/></node><node id="-7" lat="30.439179" lon="-97.684142" changeset="false"><tag k="addr:street" v="Anita Marie Lane"/><tag k="addr:housenumber" v="14310"/><tag k="addr:postcode" v="78728"/></node><node id="-8" lat="30.436947" lon="-97.683713" changeset="false"><tag k="addr:street" v="Wells Branch Parkway"/><tag k="addr:housenumber" v="2116"/><tag k="addr:postcode" v="78728"/></node><node id="-9" lat="30.439034" lon="-97.684894" changeset="false"><tag k="addr:street" v="Merrilltown Drive"/><tag k="addr:housenumber" v="14305"/><tag k="addr:postcode" v="78728"/></node><node id="-10" lat="30.438651" lon="-97.685054" changeset="false"><tag k="addr:street" v="Wells Branch Parkway"/><tag k="addr:housenumber" v="2210"/><tag k="addr:postcode" v="78728"/></node><node id="-11" lat="30.439117" lon="-97.6847" changeset="false"><tag k="addr:street" v="Merrilltown Drive"/><tag k="addr:housenumber" v="14307"/><tag k="addr:postcode" v="78728"/></node><node id="-12" lat="30.438822" lon="-97.685155" changeset="false"><tag k="addr:street" v="Wells Branch Parkway"/><tag k="addr:housenumber" v="2220"/><tag k="addr:postcode" v="78728"/></node><node id="-13" lat="30.438685" lon="-97.685074" changeset="false"><tag k="addr:street" v="Wells Branch Parkway"/><tag k="addr:housenumber" v="2212"/><tag k="addr:postcode" v="78728"/></node><node id="-14" lat="30.43895" lon="-97.685087" changeset="false"><tag k="addr:street" v="Merrilltown Drive"/><tag k="addr:housenumber" v="14303"/><tag k="addr:postcode" v="78728"/></node><node id="-15" lat="30.437252" lon="-97.684026" changeset="false"><tag k="addr:street" v="Wells Branch Parkway"/><tag k="addr:housenumber" v="2122"/><tag k="addr:postcode" v="78728"/></node><node id="-16" lat="30.441698" lon="-97.679197" changeset="false"><tag k="addr:street" v="Surrender Avenue"/><tag k="addr:housenumber" v="2000"/><tag k="addr:postcode" v="78728"/></node><node id="-17" lat="30.438071" lon="-97.680689" changeset="false"><tag k="addr:street" v="Weldon Lane"/><tag k="addr:housenumber" v="14303"/><tag k="addr:postcode" v="78728"/></node><node id="-18" lat="30.438513" lon="-97.684973" changeset="false"><tag k="addr:street" v="Wells Branch Parkway"/><tag k="addr:housenumber" v="2202"/><tag k="addr:postcode" v="78728"/></node><node id="-19" lat="30.438676" lon="-97.68007" changeset="false"><tag k="addr:street" v="Gaylord Drive"/><tag k="addr:housenumber" v="2014"/><tag k="addr:postcode" v="78728"/></node><node id="-20" lat="30.436771" lon="-97.683516" changeset="false"><tag k="addr:street" v="Wells Branch Parkway"/><tag k="addr:housenumber" v="2112"/><tag k="addr:postcode" v="78728"/></node><node id="-21" lat="30.438719" lon="-97.685094" changeset="false"><tag k="addr:street" v="Wells Branch Parkway"/><tag k="addr:housenumber" v="2214"/><tag k="addr:postcode" v="78728"/></node><node id="-22" lat="30.437153" lon="-97.68392" changeset="false"><tag k="addr:street" v="Wells Branch Parkway"/><tag k="addr:housenumber" v="2120"/><tag k="addr:postcode" v="78728"/></node><node id="-23" lat="30.440807" lon="-97.680171" changeset="false"><tag k="addr:street" v="Surrender Avenue"/><tag k="addr:housenumber" v="2013"/><tag k="addr:postcode" v="78728"/></node><node id="-24" lat="30.43668" lon="-97.683399" changeset="false"><tag k="addr:street" v="Wells Branch Parkway"/><tag k="addr:housenumber" v="2110"/><tag k="addr:postcode" v="78728"/></node><node id="-25" lat="30.438788" lon="-97.685134" changeset="false"><tag k="addr:street" v="Wells Branch Parkway"/><tag k="addr:housenumber" v="2218"/><tag k="addr:postcode" v="78728"/></node><node id="-26" lat="30.439201" lon="-97.684507" changeset="false"><tag k="addr:street" v="Merrilltown Drive"/><tag k="addr:housenumber" v="14309"/><tag k="addr:postcode" v="78728"/></node><node id="-27" lat="30.438479" lon="-97.684952" changeset="false"><tag k="addr:street" v="Wells Branch Parkway"/><tag k="addr:housenumber" v="2200"/><tag k="addr:postcode" v="78728"/></node><node id="-28" lat="30.436861" lon="-97.683632" changeset="false"><tag k="addr:street" v="Wells Branch Parkway"/><tag k="addr:housenumber" v="2114"/><tag k="addr:postcode" v="78728"/></node><node id="-29" lat="30.438073" lon="-97.680048" changeset="false"><tag k="addr:street" v="Gaylord Drive"/><tag k="addr:housenumber" v="2013"/><tag k="addr:postcode" v="78728"/></node><node id="-30" lat="30.438754" lon="-97.685114" changeset="false"><tag k="addr:street" v="Wells Branch Parkway"/><tag k="addr:housenumber" v="2216"/><tag k="addr:postcode" v="78728"/></node><node id="-31" lat="30.436328" lon="-97.683074" changeset="false"><tag k="addr:street" v="Wells Branch Parkway"/><tag k="addr:housenumber" v="2104"/><tag k="addr:postcode" v="78728"/></node><node id="-32" lat="30.43659" lon="-97.683283" changeset="false"><tag k="addr:street" v="Wells Branch Parkway"/><tag k="addr:housenumber" v="2108"/><tag k="addr:postcode" v="78728"/></node><node id="-33" lat="30.439144" lon="-97.68438" changeset="false"><tag k="addr:street" v="Margalene Way"/><tag k="addr:housenumber" v="2229"/><tag k="addr:postcode" v="78728"/></node><node id="-34" lat="30.439204" lon="-97.684202" changeset="false"><tag k="addr:street" v="Margalene Way"/><tag k="addr:housenumber" v="2231"/><tag k="addr:postcode" v="78728"/></node><node id="-35" lat="30.437433" lon="-97.684073" changeset="false"><tag k="addr:street" v="Margalene Way"/><tag k="addr:housenumber" v="2125"/><tag k="addr:postcode" v="78728"/></node><node id="-36" lat="30.436955" lon="-97.683589" changeset="false"><tag k="addr:street" v="Margalene Way"/><tag k="addr:housenumber" v="2115"/><tag k="addr:postcode" v="78728"/></node><node id="-37" lat="30.437037" lon="-97.683695" changeset="false"><tag k="addr:street" v="Margalene Way"/><tag k="addr:housenumber" v="2117"/><tag k="addr:postcode" v="78728"/></node><node id="-38" lat="30.437119" lon="-97.683797" changeset="false"><tag k="addr:street" v="Margalene Way"/><tag k="addr:housenumber" v="2119"/><tag k="addr:postcode" v="78728"/></node><node id="-39" lat="30.437048" lon="-97.683817" changeset="false"><tag k="addr:street" v="Wells Branch Parkway"/><tag k="addr:housenumber" v="2118"/><tag k="addr:postcode" v="78728"/></node></osm>