<?xml version="1.0" encoding="UTF-8"?><osm version="0.6" generator="github.com/aaronlidman/osm-and-geojson"><node id="-1" lat="30.225378" lon="-97.671746" changeset="false"><tag k="addr:street" v="Hyman Lane"/><tag k="addr:housenumber" v="1301"/><tag k="addr:postcode" v="78742"/></node><node id="-2" lat="30.245727" lon="-97.653406" changeset="false"><tag k="addr:street" v="Ramirez Lane"/><tag k="addr:housenumber" v="8800"/><tag k="addr:postcode" v="78742"/></node><node id="-3" lat="30.229876" lon="-97.670557" changeset="false"><tag k="addr:street" v="Dalton Lane"/><tag k="addr:housenumber" v="929"/><tag k="addr:postcode" v="78742"/></node><node id="-4" lat="30.232994" lon="-97.68102" changeset="false"><tag k="addr:street" v="Patton Avenue"/><tag k="addr:housenumber" v="800"/><tag k="addr:postcode" v="78742"/></node><node id="-5" lat="30.22542" lon="-97.672455" changeset="false"><tag k="addr:street" v="Hyman Lane"/><tag k="addr:housenumber" v="1304"/><tag k="addr:postcode" v="78742"/></node><node id="-6" lat="30.23255" lon="-97.681514" changeset="false"><tag k="addr:street" v="Patton Avenue"/><tag k="addr:housenumber" v="808"/><tag k="addr:postcode" v="78742"/></node><node id="-7" lat="30.240235" lon="-97.68382" changeset="false"><tag k="addr:street" v="Thompson Lane"/><tag k="addr:housenumber" v="422"/><tag k="addr:postcode" v="78742"/></node><node id="-8" lat="30.244542" lon="-97.651596" changeset="false"><tag k="addr:street" v="Ramirez Lane"/><tag k="addr:housenumber" v="8908"/><tag k="addr:postcode" v="78742"/></node><node id="-9" lat="30.225991" lon="-97.6729" changeset="false"><tag k="addr:street" v="Harrison Lane"/><tag k="addr:housenumber" v="1213"/><tag k="addr:postcode" v="78742"/></node><node id="-10" lat="30.225542" lon="-97.672331" changeset="false"><tag k="addr:street" v="Hyman Lane"/><tag k="addr:housenumber" v="1302"/><tag k="addr:postcode" v="78742"/></node><node id="-11" lat="30.224554" lon="-97.66963" changeset="false"><tag k="addr:street" v="Carson Creek Boulevard"/><tag k="addr:housenumber" v="9405"/><tag k="addr:postcode" v="78617"/></node><node id="-12" lat="30.232368" lon="-97.680307" changeset="false"><tag k="addr:street" v="Jet Lane"/><tag k="addr:housenumber" v="801"/><tag k="addr:postcode" v="78742"/></node><node id="-13" lat="30.244874" lon="-97.686291" changeset="false"><tag k="addr:street" v="Hergotz Lane"/><tag k="addr:housenumber" v="6411"/><tag k="addr:postcode" v="78742"/></node><node id="-14" lat="30.245729" lon="-97.676549" changeset="false"><tag k="addr:street" v="Hergotz Lane"/><tag k="addr:housenumber" v="6901"/><tag k="addr:postcode" v="78742"/></node><node id="-15" lat="30.242833" lon="-97.689343" changeset="false"><tag k="addr:street" v="Hergotz Lane"/><tag k="addr:housenumber" v="200"/><tag k="addr:postcode" v="78742"/></node><node id="-16" lat="30.231558" lon="-97.682486" changeset="false"><tag k="addr:street" v="Patton Avenue"/><tag k="addr:housenumber" v="826"/><tag k="addr:postcode" v="78742"/></node><node id="-17" lat="30.237991" lon="-97.662188" changeset="false"><tag k="addr:street" v="Hergotz Lane"/><tag k="addr:housenumber" v="8700"/><tag k="addr:postcode" v="78742"/></node><node id="-18" lat="30.235848" lon="-97.660137" changeset="false"><tag k="addr:street" v="Hergotz Lane"/><tag k="addr:housenumber" v="8811"/><tag k="addr:postcode" v="78742"/></node><node id="-19" lat="30.226141" lon="-97.673366" changeset="false"><tag k="addr:street" v="Harrison Lane"/><tag k="addr:housenumber" v="1214"/><tag k="addr:postcode" v="78742"/></node><node id="-20" lat="30.226017" lon="-97.673521" changeset="false"><tag k="addr:street" v="Harrison Lane"/><tag k="addr:housenumber" v="1216"/><tag k="addr:postcode" v="78742"/></node><node id="-21" lat="30.224742" lon="-97.667804" changeset="false"><tag k="addr:street" v="Carson Creek Boulevard"/><tag k="addr:housenumber" v="9504"/><tag k="addr:postcode" v="78617"/></node><node id="-22" lat="30.244653" lon="-97.686876" changeset="false"><tag k="addr:street" v="Hergotz Lane"/><tag k="addr:housenumber" v="6407"/><tag k="addr:postcode" v="78742"/></node><node id="-23" lat="30.244876" lon="-97.6494" changeset="false"><tag k="addr:street" v="Ramirez Lane"/><tag k="addr:housenumber" v="8920"/><tag k="addr:postcode" v="78742"/></node><node id="-24" lat="30.236265" lon="-97.661405" changeset="false"><tag k="addr:street" v="Hergotz Lane"/><tag k="addr:housenumber" v="8807"/><tag k="addr:postcode" v="78742"/></node><node id="-25" lat="30.2233" lon="-97.664541" changeset="false"><tag k="addr:street" v="Thornberry Road"/><tag k="addr:housenumber" v="1308"/><tag k="addr:postcode" v="78617"/></node><node id="-26" lat="30.230354" lon="-97.682386" changeset="false"><tag k="addr:street" v="Bastrop Highway"/><tag k="addr:housenumber" v="915"/><tag k="addr:postcode" v="78742"/></node><node id="-27" lat="30.229612" lon="-97.673495" changeset="false"><tag k="addr:street" v="Dalton Lane"/><tag k="addr:housenumber" v="1100"/><tag k="addr:postcode" v="78742"/></node><node id="-28" lat="30.231009" lon="-97.669289" changeset="false"><tag k="addr:street" v="Dalton Lane"/><tag k="addr:housenumber" v="915"/><tag k="addr:postcode" v="78742"/></node><node id="-29" lat="30.226276" lon="-97.673238" changeset="false"><tag k="addr:street" v="Harrison Lane"/><tag k="addr:housenumber" v="1212"/><tag k="addr:postcode" v="78742"/></node><node id="-30" lat="30.224115" lon="-97.677676" changeset="false"><tag k="addr:street" v="Dalton Lane"/><tag k="addr:housenumber" v="1312"/><tag k="addr:postcode" v="78742"/></node><node id="-31" lat="30.223914" lon="-97.670513" changeset="false"><tag k="addr:street" v="Darold Drive"/><tag k="addr:housenumber" v="1501"/><tag k="addr:postcode" v="78617"/></node><node id="-32" lat="30.232275" lon="-97.680515" changeset="false"><tag k="addr:street" v="Jet Lane"/><tag k="addr:housenumber" v="811"/><tag k="addr:postcode" v="78742"/></node><node id="-33" lat="30.224165" lon="-97.669079" changeset="false"><tag k="addr:street" v="Estrellas Drive"/><tag k="addr:housenumber" v="1509"/><tag k="addr:postcode" v="78617"/></node><node id="-34" lat="30.244511" lon="-97.685574" changeset="false"><tag k="addr:street" v="Kimble Lane"/><tag k="addr:housenumber" v="109"/><tag k="addr:postcode" v="78742"/></node><node id="-35" lat="30.243284" lon="-97.680435" changeset="false"><tag k="addr:street" v="Thompson Lane"/><tag k="addr:housenumber" v="200"/><tag k="addr:postcode" v="78742"/></node><node id="-36" lat="30.245354" lon="-97.685121" changeset="false"><tag k="addr:street" v="Hergotz Lane"/><tag k="addr:housenumber" v="6510"/><tag k="addr:postcode" v="78742"/></node><node id="-37" lat="30.233603" lon="-97.682887" changeset="false"><tag k="addr:street" v="Bastrop Highway"/><tag k="addr:housenumber" v="813"/><tag k="addr:postcode" v="78742"/></node><node id="-38" lat="30.233137" lon="-97.681125" changeset="false"><tag k="addr:street" v="Patton Avenue"/><tag k="addr:housenumber" v="800 1/2"/><tag k="addr:postcode" v="78742"/></node><node id="-39" lat="30.232707" lon="-97.680693" changeset="false"><tag k="addr:street" v="Patton Avenue"/><tag k="addr:housenumber" v="801"/><tag k="addr:postcode" v="78742"/></node><node id="-40" lat="30.243146" lon="-97.648854" changeset="false"><tag k="addr:street" v="Ramirez Lane"/><tag k="addr:housenumber" v="9100"/><tag k="addr:postcode" v="78742"/></node><node id="-41" lat="30.239915" lon="-97.682909" changeset="false"><tag k="addr:street" v="Thompson Lane"/><tag k="addr:housenumber" v="418"/><tag k="addr:postcode" v="78742"/></node><node id="-42" lat="30.227388" lon="-97.668263" changeset="false"><tag k="addr:street" v="Sherman Road"/><tag k="addr:housenumber" v="9313"/><tag k="addr:postcode" v="78742"/></node><node id="-43" lat="30.232883" lon="-97.668232" changeset="false"><tag k="addr:street" v="Dalton Lane"/><tag k="addr:housenumber" v="800"/><tag k="addr:postcode" v="78742"/></node><node id="-44" lat="30.231956" lon="-97.682188" changeset="false"><tag k="addr:street" v="Patton Avenue"/><tag k="addr:housenumber" v="818"/><tag k="addr:postcode" v="78742"/></node><node id="-45" lat="30.23178" lon="-97.68175" changeset="false"><tag k="addr:street" v="Patton Avenue"/><tag k="addr:housenumber" v="817"/><tag k="addr:postcode" v="78742"/></node><node id="-46" lat="30.219755" lon="-97.668129" changeset="false"><tag k="addr:street" v="Thornberry Road"/><tag k="addr:housenumber" v="1700"/><tag k="addr:postcode" v="78617"/></node><node id="-47" lat="30.223263" lon="-97.677449" changeset="false"><tag k="addr:street" v="Bastrop Highway"/><tag k="addr:housenumber" v="1429"/><tag k="addr:postcode" v="78742"/></node><node id="-48" lat="30.225257" lon="-97.670261" changeset="false"><tag k="addr:street" v="Carson Creek Boulevard"/><tag k="addr:housenumber" v="9318"/><tag k="addr:postcode" v="78617"/></node><node id="-49" lat="30.236877" lon="-97.683957" changeset="false"><tag k="addr:street" v="Thompson Lane"/><tag k="addr:housenumber" v="517"/><tag k="addr:postcode" v="78742"/></node><node id="-50" lat="30.232137" lon="-97.681341" changeset="false"><tag k="addr:street" v="Patton Avenue"/><tag k="addr:housenumber" v="811"/><tag k="addr:postcode" v="78742"/></node><node id="-51" lat="30.247221" lon="-97.657355" changeset="false"><tag k="addr:street" v="Ramirez Lane"/><tag k="addr:housenumber" v="8501"/><tag k="addr:postcode" v="78742"/></node><node id="-52" lat="30.228244" lon="-97.66289" changeset="false"><tag k="addr:street" v="Sherman Road"/><tag k="addr:housenumber" v="9505"/><tag k="addr:postcode" v="78742"/></node><node id="-53" lat="30.239385" lon="-97.683438" changeset="false"><tag k="addr:street" v="Thompson Lane"/><tag k="addr:housenumber" v="426"/><tag k="addr:postcode" v="78742"/></node><node id="-54" lat="30.238549" lon="-97.68367" changeset="false"><tag k="addr:street" v="Thompson Lane"/><tag k="addr:housenumber" v="501"/><tag k="addr:postcode" v="78742"/></node><node id="-55" lat="30.22108" lon="-97.666547" changeset="false"><tag k="addr:street" v="Thornberry Road"/><tag k="addr:housenumber" v="1508"/><tag k="addr:postcode" v="78617"/></node><node id="-56" lat="30.232496" lon="-97.683717" changeset="false"><tag k="addr:street" v="Bastrop Highway"/><tag k="addr:housenumber" v="811"/><tag k="addr:postcode" v="78742"/></node><node id="-57" lat="30.232122" lon="-97.682902" changeset="false"><tag k="addr:street" v="Bastrop Highway"/><tag k="addr:housenumber" v="831"/><tag k="addr:postcode" v="78742"/></node><node id="-58" lat="30.224407" lon="-97.676309" changeset="false"><tag k="addr:street" v="Dalton Lane"/><tag k="addr:housenumber" v="1301"/><tag k="addr:postcode" v="78742"/></node><node id="-59" lat="30.226605" lon="-97.67416" changeset="false"><tag k="addr:street" v="Dalton Lane"/><tag k="addr:housenumber" v="1139"/><tag k="addr:postcode" v="78742"/></node><node id="-60" lat="30.242808" lon="-97.6795" changeset="false"><tag k="addr:street" v="Thompson Lane"/><tag k="addr:housenumber" v="211"/><tag k="addr:postcode" v="78742"/></node><node id="-61" lat="30.245189" lon="-97.687354" changeset="false"><tag k="addr:street" v="Hergotz Lane"/><tag k="addr:housenumber" v="6404"/><tag k="addr:postcode" v="78742"/></node><node id="-62" lat="30.23128" lon="-97.682235" changeset="false"><tag k="addr:street" v="Patton Avenue"/><tag k="addr:housenumber" v="825"/><tag k="addr:postcode" v="78742"/></node><node id="-63" lat="30.237715" lon="-97.654947" changeset="false"><tag k="addr:street" v="Hergotz Lane"/><tag k="addr:housenumber" v="9501"/><tag k="addr:postcode" v="78742"/></node><node id="-64" lat="30.238227" lon="-97.684563" changeset="false"><tag k="addr:street" v="Thompson Lane"/><tag k="addr:housenumber" v="508"/><tag k="addr:postcode" v="78742"/></node><node id="-65" lat="30.233529" lon="-97.683216" changeset="false"><tag k="addr:street" v="Bastrop Highway"/><tag k="addr:housenumber" v="755"/><tag k="addr:postcode" v="78742"/></node><node id="-66" lat="30.233219" lon="-97.680743" changeset="false"><tag k="addr:street" v="Patton Avenue"/><tag k="addr:housenumber" v="734"/><tag k="addr:postcode" v="78742"/></node><node id="-67" lat="30.243278" lon="-97.689272" changeset="false"><tag k="addr:street" v="Hergotz Lane"/><tag k="addr:housenumber" v="124"/><tag k="addr:postcode" v="78742"/></node><node id="-68" lat="30.223165" lon="-97.676762" changeset="false"><tag k="addr:street" v="Bastrop Highway"/><tag k="addr:housenumber" v="1505"/><tag k="addr:postcode" v="78742"/></node><node id="-69" lat="30.231828" lon="-97.682339" changeset="false"><tag k="addr:street" v="Patton Avenue"/><tag k="addr:housenumber" v="820"/><tag k="addr:postcode" v="78742"/></node><node id="-70" lat="30.23909" lon="-97.687367" changeset="false"><tag k="addr:street" v="Bastrop Highway"/><tag k="addr:housenumber" v="415"/><tag k="addr:postcode" v="78742"/></node><node id="-71" lat="30.239819" lon="-97.687837" changeset="false"><tag k="addr:street" v="Bastrop Highway"/><tag k="addr:housenumber" v="403"/><tag k="addr:postcode" v="78742"/></node><node id="-72" lat="30.219906" lon="-97.658848" changeset="false"><tag k="addr:street" v="Crozier Lane"/><tag k="addr:housenumber" v="1705"/><tag k="addr:postcode" v="78617"/></node><node id="-73" lat="30.225166" lon="-97.673038" changeset="false"><tag k="addr:street" v="Hyman Lane"/><tag k="addr:housenumber" v="1308 1/2"/><tag k="addr:postcode" v="78742"/></node><node id="-74" lat="30.224378" lon="-97.668739" changeset="false"><tag k="addr:street" v="Carson Creek Boulevard"/><tag k="addr:housenumber" v="9415"/><tag k="addr:postcode" v="78617"/></node><node id="-75" lat="30.225738" lon="-97.673168" changeset="false"><tag k="addr:street" v="Harrison Lane"/><tag k="addr:housenumber" v="1217"/><tag k="addr:postcode" v="78742"/></node><node id="-76" lat="30.224261" lon="-97.682677" changeset="false"><tag k="addr:street" v="Bastrop Highway"/><tag k="addr:housenumber" v="1423"/><tag k="addr:postcode" v="78742"/></node><node id="-77" lat="30.244941" lon="-97.685741" changeset="false"><tag k="addr:street" v="Kimble Lane"/><tag k="addr:housenumber" v="101"/><tag k="addr:postcode" v="78742"/></node><node id="-78" lat="30.22445" lon="-97.668793" changeset="false"><tag k="addr:street" v="Carson Creek Boulevard"/><tag k="addr:housenumber" v="9413"/><tag k="addr:postcode" v="78617"/></node><node id="-79" lat="30.238173" lon="-97.658436" changeset="false"><tag k="addr:street" v="Hergotz Lane"/><tag k="addr:housenumber" v="8914"/><tag k="addr:postcode" v="78742"/></node><node id="-80" lat="30.245194" lon="-97.686861" changeset="false"><tag k="addr:street" v="Hergotz Lane"/><tag k="addr:housenumber" v="6408"/><tag k="addr:postcode" v="78742"/></node><node id="-81" lat="30.22464" lon="-97.671088" changeset="false"><tag k="addr:street" v="Carson Creek Boulevard"/><tag k="addr:housenumber" v="9315"/><tag k="addr:postcode" v="78617"/></node><node id="-82" lat="30.223628" lon="-97.676611" changeset="false"><tag k="addr:street" v="Dalton Lane"/><tag k="addr:housenumber" v="1311"/><tag k="addr:postcode" v="78742"/></node><node id="-83" lat="30.22471" lon="-97.668446" changeset="false"><tag k="addr:street" v="Carson Creek Boulevard"/><tag k="addr:housenumber" v="9420"/><tag k="addr:postcode" v="78617"/></node><node id="-84" lat="30.242113" lon="-97.665099" changeset="false"><tag k="addr:street" v="Edwin Lane"/><tag k="addr:housenumber" v="405"/><tag k="addr:postcode" v="78742"/></node><node id="-85" lat="30.243361" lon="-97.685426" changeset="false"><tag k="addr:street" v="Kimble Lane"/><tag k="addr:housenumber" v="200"/><tag k="addr:postcode" v="78742"/></node><node id="-86" lat="30.240627" lon="-97.681415" changeset="false"><tag k="addr:street" v="Thompson Lane"/><tag k="addr:housenumber" v="411"/><tag k="addr:postcode" v="78742"/></node><node id="-87" lat="30.239302" lon="-97.683474" changeset="false"><tag k="addr:street" v="Thompson Lane"/><tag k="addr:housenumber" v="428"/><tag k="addr:postcode" v="78742"/></node><node id="-88" lat="30.224527" lon="-97.671015" changeset="false"><tag k="addr:street" v="Carson Creek Boulevard"/><tag k="addr:housenumber" v="9309"/><tag k="addr:postcode" v="78617"/></node><node id="-89" lat="30.223843" lon="-97.677431" changeset="false"><tag k="addr:street" v="Dalton Lane"/><tag k="addr:housenumber" v="1325"/><tag k="addr:postcode" v="78742"/></node><node id="-90" lat="30.232381" lon="-97.682895" changeset="false"><tag k="addr:street" v="Bastrop Highway"/><tag k="addr:housenumber" v="829"/><tag k="addr:postcode" v="78742"/></node><node id="-91" lat="30.22569" lon="-97.672205" changeset="false"><tag k="addr:street" v="Hyman Lane"/><tag k="addr:housenumber" v="1300"/><tag k="addr:postcode" v="78742"/></node><node id="-92" lat="30.224041" lon="-97.670401" changeset="false"><tag k="addr:street" v="Darold Drive"/><tag k="addr:housenumber" v="1503"/><tag k="addr:postcode" v="78617"/></node><node id="-93" lat="30.237108" lon="-97.664106" changeset="false"><tag k="addr:street" v="Dalton Lane"/><tag k="addr:housenumber" v="512"/><tag k="addr:postcode" v="78742"/></node><node id="-94" lat="30.232478" lon="-97.680954" changeset="false"><tag k="addr:street" v="Patton Avenue"/><tag k="addr:housenumber" v="805"/><tag k="addr:postcode" v="78742"/></node><node id="-95" lat="30.23216" lon="-97.681943" changeset="false"><tag k="addr:street" v="Patton Avenue"/><tag k="addr:housenumber" v="814"/><tag k="addr:postcode" v="78742"/></node><node id="-96" lat="30.236959" lon="-97.659121" changeset="false"><tag k="addr:street" v="Hergotz Lane"/><tag k="addr:housenumber" v="8925"/><tag k="addr:postcode" v="78742"/></node><node id="-97" lat="30.232605" lon="-97.680822" changeset="false"><tag k="addr:street" v="Patton Avenue"/><tag k="addr:housenumber" v="803"/><tag k="addr:postcode" v="78742"/></node><node id="-98" lat="30.232413" lon="-97.681665" changeset="false"><tag k="addr:street" v="Patton Avenue"/><tag k="addr:housenumber" v="810"/><tag k="addr:postcode" v="78742"/></node><node id="-99" lat="30.231892" lon="-97.6816" changeset="false"><tag k="addr:street" v="Patton Avenue"/><tag k="addr:housenumber" v="815"/><tag k="addr:postcode" v="78742"/></node><node id="-100" lat="30.230824" lon="-97.671881" changeset="false"><tag k="addr:street" v="Dalton Lane"/><tag k="addr:housenumber" v="1000"/><tag k="addr:postcode" v="78742"/></node><node id="-101" lat="30.229134" lon="-97.670876" changeset="false"><tag k="addr:street" v="Dalton Lane"/><tag k="addr:housenumber" v="1019"/><tag k="addr:postcode" v="78742"/></node><node id="-102" lat="30.231985" lon="-97.668357" changeset="false"><tag k="addr:street" v="Dalton Lane"/><tag k="addr:housenumber" v="901"/><tag k="addr:postcode" v="78742"/></node><node id="-103" lat="30.24042" lon="-97.688268" changeset="false"><tag k="addr:street" v="Bastrop Highway"/><tag k="addr:housenumber" v="301"/><tag k="addr:postcode" v="78742"/></node><node id="-104" lat="30.232001" lon="-97.668199" changeset="false"><tag k="addr:street" v="Dalton Lane"/><tag k="addr:housenumber" v="817"/><tag k="addr:postcode" v="78742"/></node><node id="-105" lat="30.226418" lon="-97.673068" changeset="false"><tag k="addr:street" v="Harrison Lane"/><tag k="addr:housenumber" v="1210"/><tag k="addr:postcode" v="78742"/></node><node id="-106" lat="30.224123" lon="-97.668115" changeset="false"><tag k="addr:street" v="Tall Shadows Drive"/><tag k="addr:housenumber" v="1507"/><tag k="addr:postcode" v="78617"/></node><node id="-107" lat="30.229154" lon="-97.660382" changeset="false"><tag k="addr:street" v="Sherman Road"/><tag k="addr:housenumber" v="9507"/><tag k="addr:postcode" v="78742"/></node><node id="-108" lat="30.244304" lon="-97.684393" changeset="false"><tag k="addr:street" v="Hergotz Lane"/><tag k="addr:housenumber" v="6601"/><tag k="addr:postcode" v="78742"/></node><node id="-109" lat="30.24377" lon="-97.685643" changeset="false"><tag k="addr:street" v="Kimble Lane"/><tag k="addr:housenumber" v="120"/><tag k="addr:postcode" v="78742"/></node><node id="-110" lat="30.231315" lon="-97.681689" changeset="false"><tag k="addr:street" v="Jet Lane"/><tag k="addr:housenumber" v="917"/><tag k="addr:postcode" v="78742"/></node><node id="-111" lat="30.220741" lon="-97.669304" changeset="false"><tag k="addr:street" v="Thornberry Road"/><tag k="addr:housenumber" v="1816"/><tag k="addr:postcode" v="78617"/></node><node id="-112" lat="30.225735" lon="-97.673719" changeset="false"><tag k="addr:street" v="Harrison Lane"/><tag k="addr:housenumber" v="1300 1/2"/><tag k="addr:postcode" v="78742"/></node><node id="-113" lat="30.224287" lon="-97.668958" changeset="false"><tag k="addr:street" v="Estrellas Drive"/><tag k="addr:housenumber" v="1511"/><tag k="addr:postcode" v="78617"/></node><node id="-114" lat="30.243233" lon="-97.684655" changeset="false"><tag k="addr:street" v="Kimble Lane"/><tag k="addr:housenumber" v="215"/><tag k="addr:postcode" v="78742"/></node><node id="-115" lat="30.246439" lon="-97.672454" changeset="false"><tag k="addr:street" v="Hergotz Lane"/><tag k="addr:housenumber" v="8300"/><tag k="addr:postcode" v="78742"/></node><node id="-116" lat="30.246243" lon="-97.678017" changeset="false"><tag k="addr:street" v="Hergotz Lane"/><tag k="addr:housenumber" v="6912"/><tag k="addr:postcode" v="78742"/></node><node id="-117" lat="30.22813" lon="-97.664055" changeset="false"><tag k="addr:street" v="Sherman Road"/><tag k="addr:housenumber" v="9449"/><tag k="addr:postcode" v="78742"/></node><node id="-118" lat="30.225881" lon="-97.673024" changeset="false"><tag k="addr:street" v="Harrison Lane"/><tag k="addr:housenumber" v="1215"/><tag k="addr:postcode" v="78742"/></node><node id="-119" lat="30.22443" lon="-97.667526" changeset="false"><tag k="addr:street" v="Carson Creek Boulevard"/><tag k="addr:housenumber" v="9505"/><tag k="addr:postcode" v="78617"/></node><node id="-120" lat="30.230732" lon="-97.671798" changeset="false"><tag k="addr:street" v="Dalton Lane"/><tag k="addr:housenumber" v="1000 1/2"/><tag k="addr:postcode" v="78742"/></node><node id="-121" lat="30.23732" lon="-97.659162" changeset="false"><tag k="addr:street" v="Hergotz Lane"/><tag k="addr:housenumber" v="8940"/><tag k="addr:postcode" v="78742"/></node><node id="-122" lat="30.224837" lon="-97.667081" changeset="false"><tag k="addr:street" v="Carson Creek Boulevard"/><tag k="addr:housenumber" v="9508"/><tag k="addr:postcode" v="78617"/></node><node id="-123" lat="30.224436" lon="-97.671127" changeset="false"><tag k="addr:street" v="Carson Creek Boulevard"/><tag k="addr:housenumber" v="9307"/><tag k="addr:postcode" v="78617"/></node><node id="-124" lat="30.237794" lon="-97.660154" changeset="false"><tag k="addr:street" v="Hergotz Lane"/><tag k="addr:housenumber" v="8800"/><tag k="addr:postcode" v="78742"/></node><node id="-125" lat="30.231629" lon="-97.682423" changeset="false"><tag k="addr:street" v="Patton Avenue"/><tag k="addr:housenumber" v="822"/><tag k="addr:postcode" v="78742"/></node><node id="-126" lat="30.231525" lon="-97.682727" changeset="false"><tag k="addr:street" v="Patton Avenue"/><tag k="addr:housenumber" v="830"/><tag k="addr:postcode" v="78742"/></node><node id="-127" lat="30.244635" lon="-97.685621" changeset="false"><tag k="addr:street" v="Kimble Lane"/><tag k="addr:housenumber" v="107"/><tag k="addr:postcode" v="78742"/></node><node id="-128" lat="30.244298" lon="-97.685406" changeset="false"><tag k="addr:street" v="Kimble Lane"/><tag k="addr:housenumber" v="113"/><tag k="addr:postcode" v="78742"/></node><node id="-129" lat="30.23225" lon="-97.681211" changeset="false"><tag k="addr:street" v="Patton Avenue"/><tag k="addr:housenumber" v="809"/><tag k="addr:postcode" v="78742"/></node><node id="-130" lat="30.234696" lon="-97.66345" changeset="false"><tag k="addr:street" v="Dalton Lane"/><tag k="addr:housenumber" v="701"/><tag k="addr:postcode" v="78742"/></node><node id="-131" lat="30.237767" lon="-97.6851" changeset="false"><tag k="addr:street" v="Thompson Lane"/><tag k="addr:housenumber" v="524 1/2"/><tag k="addr:postcode" v="78742"/></node><node id="-132" lat="30.23015" lon="-97.670142" changeset="false"><tag k="addr:street" v="Dalton Lane"/><tag k="addr:housenumber" v="925"/><tag k="addr:postcode" v="78742"/></node><node id="-133" lat="30.244697" lon="-97.654053" changeset="false"><tag k="addr:street" v="Ramirez Lane"/><tag k="addr:housenumber" v="8901"/><tag k="addr:postcode" v="78742"/></node><node id="-134" lat="30.235289" lon="-97.683964" changeset="false"><tag k="addr:street" v="Bastrop Highway"/><tag k="addr:housenumber" v="701"/><tag k="addr:postcode" v="78742"/></node><node id="-135" lat="30.232024" lon="-97.681456" changeset="false"><tag k="addr:street" v="Patton Avenue"/><tag k="addr:housenumber" v="813"/><tag k="addr:postcode" v="78742"/></node><node id="-136" lat="30.243847" lon="-97.688992" changeset="false"><tag k="addr:street" v="Hergotz Lane"/><tag k="addr:housenumber" v="113"/><tag k="addr:postcode" v="78742"/></node><node id="-137" lat="30.238306" lon="-97.654756" changeset="false"><tag k="addr:street" v="Hergotz Lane"/><tag k="addr:housenumber" v="9502"/><tag k="addr:postcode" v="78742"/></node><node id="-138" lat="30.235248" lon="-97.663559" changeset="false"><tag k="addr:street" v="Dalton Lane"/><tag k="addr:housenumber" v="629"/><tag k="addr:postcode" v="78742"/></node><node id="-139" lat="30.238135" lon="-97.683099" changeset="false"><tag k="addr:street" v="Thompson Lane"/><tag k="addr:housenumber" v="503"/><tag k="addr:postcode" v="78742"/></node><node id="-140" lat="30.23798" lon="-97.684175" changeset="false"><tag k="addr:street" v="Thompson Lane"/><tag k="addr:housenumber" v="511"/><tag k="addr:postcode" v="78742"/></node><node id="-141" lat="30.244926" lon="-97.684674" changeset="false"><tag k="addr:street" v="Hergotz Lane"/><tag k="addr:housenumber" v="6513"/><tag k="addr:postcode" v="78742"/></node><node id="-142" lat="30.23167" lon="-97.681884" changeset="false"><tag k="addr:street" v="Patton Avenue"/><tag k="addr:housenumber" v="819"/><tag k="addr:postcode" v="78742"/></node><node id="-143" lat="30.221009" lon="-97.660539" changeset="false"><tag k="addr:street" v="Crozier Lane"/><tag k="addr:housenumber" v="1615"/><tag k="addr:postcode" v="78617"/></node><node id="-144" lat="30.220875" lon="-97.666587" changeset="false"><tag k="addr:street" v="Thornberry Road"/><tag k="addr:housenumber" v="1512 1/2"/><tag k="addr:postcode" v="78617"/></node><node id="-145" lat="30.219827" lon="-97.659267" changeset="false"><tag k="addr:street" v="Crozier Lane"/><tag k="addr:housenumber" v="1701"/><tag k="addr:postcode" v="78617"/></node><node id="-146" lat="30.224553" lon="-97.669866" changeset="false"><tag k="addr:street" v="Carson Creek Boulevard"/><tag k="addr:housenumber" v="9401"/><tag k="addr:postcode" v="78617"/></node><node id="-147" lat="30.239379" lon="-97.682825" changeset="false"><tag k="addr:street" v="Thompson Lane"/><tag k="addr:housenumber" v="421"/><tag k="addr:postcode" v="78742"/></node><node id="-148" lat="30.227079" lon="-97.668012" changeset="false"><tag k="addr:street" v="Sherman Road"/><tag k="addr:housenumber" v="9315"/><tag k="addr:postcode" v="78742"/></node><node id="-149" lat="30.231996" lon="-97.680864" changeset="false"><tag k="addr:street" v="Jet Lane"/><tag k="addr:housenumber" v="827"/><tag k="addr:postcode" v="78742"/></node><node id="-150" lat="30.236506" lon="-97.685393" changeset="false"><tag k="addr:street" v="Bastrop Highway"/><tag k="addr:housenumber" v="609"/><tag k="addr:postcode" v="78742"/></node><node id="-151" lat="30.235277" lon="-97.677214" changeset="false"><tag k="addr:street" v="Jet Lane"/><tag k="addr:housenumber" v="601"/><tag k="addr:postcode" v="78742"/></node><node id="-152" lat="30.232311" lon="-97.681782" changeset="false"><tag k="addr:street" v="Patton Avenue"/><tag k="addr:housenumber" v="812"/><tag k="addr:postcode" v="78742"/></node><node id="-153" lat="30.228216" lon="-97.668172" changeset="false"><tag k="addr:street" v="Sherman Road"/><tag k="addr:housenumber" v="9300"/><tag k="addr:postcode" v="78742"/></node><node id="-154" lat="30.225301" lon="-97.660996" changeset="false"><tag k="addr:street" v="Crozier Lane"/><tag k="addr:housenumber" v="1501"/><tag k="addr:postcode" v="78617"/></node><node id="-155" lat="30.232412" lon="-97.669015" changeset="false"><tag k="addr:street" v="Dalton Lane"/><tag k="addr:housenumber" v="900"/><tag k="addr:postcode" v="78742"/></node><node id="-156" lat="30.231492" lon="-97.668677" changeset="false"><tag k="addr:street" v="Dalton Lane"/><tag k="addr:housenumber" v="909"/><tag k="addr:postcode" v="78742"/></node><node id="-157" lat="30.230186" lon="-97.682207" changeset="false"><tag k="addr:street" v="Bastrop Highway"/><tag k="addr:housenumber" v="917"/><tag k="addr:postcode" v="78742"/></node><node id="-158" lat="30.231003" lon="-97.682437" changeset="false"><tag k="addr:street" v="Patton Avenue"/><tag k="addr:housenumber" v="829"/><tag k="addr:postcode" v="78742"/></node><node id="-159" lat="30.231153" lon="-97.682356" changeset="false"><tag k="addr:street" v="Patton Avenue"/><tag k="addr:housenumber" v="827"/><tag k="addr:postcode" v="78742"/></node><node id="-160" lat="30.243563" lon="-97.653729" changeset="false"><tag k="addr:street" v="Ramirez Lane"/><tag k="addr:housenumber" v="9101"/><tag k="addr:postcode" v="78742"/></node><node id="-161" lat="30.24311" lon="-97.654497" changeset="false"><tag k="addr:street" v="Ramirez Lane"/><tag k="addr:housenumber" v="9131"/><tag k="addr:postcode" v="78742"/></node><node id="-162" lat="30.243292" lon="-97.685064" changeset="false"><tag k="addr:street" v="Kimble Lane"/><tag k="addr:housenumber" v="211"/><tag k="addr:postcode" v="78742"/></node><node id="-163" lat="30.232859" lon="-97.681157" changeset="false"><tag k="addr:street" v="Patton Avenue"/><tag k="addr:housenumber" v="802"/><tag k="addr:postcode" v="78742"/></node><node id="-164" lat="30.232666" lon="-97.681381" changeset="false"><tag k="addr:street" v="Patton Avenue"/><tag k="addr:housenumber" v="806"/><tag k="addr:postcode" v="78742"/></node><node id="-165" lat="30.231573" lon="-97.681988" changeset="false"><tag k="addr:street" v="Patton Avenue"/><tag k="addr:housenumber" v="821"/><tag k="addr:postcode" v="78742"/></node><node id="-166" lat="30.23214" lon="-97.683398" changeset="false"><tag k="addr:street" v="Bastrop Highway"/><tag k="addr:housenumber" v="827"/><tag k="addr:postcode" v="78742"/></node><node id="-167" lat="30.223154" lon="-97.669663" changeset="false"><tag k="addr:street" v="Tall Shadows Drive"/><tag k="addr:housenumber" v="1406"/><tag k="addr:postcode" v="78617"/></node><node id="-168" lat="30.226138" lon="-97.672717" changeset="false"><tag k="addr:street" v="Harrison Lane"/><tag k="addr:housenumber" v="1211"/><tag k="addr:postcode" v="78742"/></node><node id="-169" lat="30.223739" lon="-97.668288" changeset="false"><tag k="addr:street" v="Tall Shadows Drive"/><tag k="addr:housenumber" v="1501"/><tag k="addr:postcode" v="78617"/></node><node id="-170" lat="30.241187" lon="-97.655912" changeset="false"><tag k="addr:street" v="Ramirez Lane"/><tag k="addr:housenumber" v="9169"/><tag k="addr:postcode" v="78742"/></node><node id="-171" lat="30.238878" lon="-97.683309" changeset="false"><tag k="addr:street" v="Thompson Lane"/><tag k="addr:housenumber" v="495 1/2"/><tag k="addr:postcode" v="78742"/></node><node id="-172" lat="30.23642" lon="-97.652556" changeset="false"><tag k="addr:street" v="Hergotz Lane"/><tag k="addr:housenumber" v="9521"/><tag k="addr:postcode" v="78742"/></node><node id="-173" lat="30.232379" lon="-97.681061" changeset="false"><tag k="addr:street" v="Patton Avenue"/><tag k="addr:housenumber" v="807"/><tag k="addr:postcode" v="78742"/></node><node id="-174" lat="30.249781" lon="-97.658206" changeset="false"><tag k="addr:street" v="Edwin Lane"/><tag k="addr:housenumber" v="300"/><tag k="addr:postcode" v="78742"/></node><node id="-175" lat="30.238758" lon="-97.686318" changeset="false"><tag k="addr:street" v="Bastrop Highway"/><tag k="addr:housenumber" v="443"/><tag k="addr:postcode" v="78742"/></node><node id="-176" lat="30.239183" lon="-97.687427" changeset="false"><tag k="addr:street" v="Bastrop Highway"/><tag k="addr:housenumber" v="411"/><tag k="addr:postcode" v="78742"/></node><node id="-177" lat="30.239741" lon="-97.68235" changeset="false"><tag k="addr:street" v="Thompson Lane"/><tag k="addr:housenumber" v="417"/><tag k="addr:postcode" v="78742"/></node><node id="-178" lat="30.232773" lon="-97.68126" changeset="false"><tag k="addr:street" v="Patton Avenue"/><tag k="addr:housenumber" v="804"/><tag k="addr:postcode" v="78742"/></node><node id="-179" lat="30.223815" lon="-97.671315" changeset="false"><tag k="addr:street" v="Darold Drive"/><tag k="addr:housenumber" v="1400"/><tag k="addr:postcode" v="78617"/></node><node id="-180" lat="30.239678" lon="-97.655917" changeset="false"><tag k="addr:street" v="Ramirez Lane"/><tag k="addr:housenumber" v="9200"/><tag k="addr:postcode" v="78742"/></node><node id="-181" lat="30.246136" lon="-97.660576" changeset="false"><tag k="addr:street" v="Edwin Lane"/><tag k="addr:housenumber" v="203"/><tag k="addr:postcode" v="78742"/></node><node id="-182" lat="30.23356" lon="-97.68272" changeset="false"><tag k="addr:street" v="Bastrop Highway"/><tag k="addr:housenumber" v="751"/><tag k="addr:postcode" v="78742"/></node><node id="-183" lat="30.225748" lon="-97.6738" changeset="false"><tag k="addr:street" v="Harrison Lane"/><tag k="addr:housenumber" v="1300"/><tag k="addr:postcode" v="78742"/></node><node id="-184" lat="30.222612" lon="-97.665543" changeset="false"><tag k="addr:street" v="Carson Creek Boulevard"/><tag k="addr:housenumber" v="9705 1/2"/><tag k="addr:postcode" v="78617"/></node><node id="-185" lat="30.222609" lon="-97.665565" changeset="false"><tag k="addr:street" v="Carson Creek Boulevard"/><tag k="addr:housenumber" v="9705"/><tag k="addr:postcode" v="78617"/></node><node id="-186" lat="30.224138" lon="-97.673453" changeset="false"><tag k="addr:street" v="Pringle Circle"/><tag k="addr:housenumber" v="1335"/><tag k="addr:postcode" v="78742"/></node><node id="-187" lat="30.224098" lon="-97.673414" changeset="false"><tag k="addr:street" v="Pringle Circle"/><tag k="addr:housenumber" v="1335 1/2"/><tag k="addr:postcode" v="78742"/></node></osm>