<?xml version="1.0" encoding="UTF-8"?><osm version="0.6" generator="github.com/aaronlidman/osm-and-geojson"><node id="-1" lat="30.345681" lon="-97.677302" changeset="false"><tag k="addr:street" v="Cameron Road"/><tag k="addr:housenumber" v="8909"/><tag k="coa:place_id" v="810669"/></node><node id="-2" lat="30.326761" lon="-97.672814" changeset="false"><tag k="addr:street" v="US Highway 290"/><tag k="addr:housenumber" v="7636 1/2"/><tag k="coa:place_id" v="3084830"/></node><node id="-3" lat="30.337422" lon="-97.682713" changeset="false"><tag k="addr:street" v="Cameron Road"/><tag k="addr:housenumber" v="8113"/><tag k="coa:place_id" v="613053"/></node><node id="-4" lat="30.336529" lon="-97.675026" changeset="false"><tag k="addr:street" v="Cross Park Drive"/><tag k="addr:housenumber" v="8341"/><tag k="coa:place_id" v="688876"/></node><node id="-5" lat="30.337854" lon="-97.662742" changeset="false"><tag k="addr:street" v="Exchange Drive"/><tag k="addr:housenumber" v="8005"/><tag k="coa:place_id" v="86888"/></node><node id="-6" lat="30.327567" lon="-97.669175" changeset="false"><tag k="addr:street" v="US Highway 290"/><tag k="addr:housenumber" v="7814 1/2"/><tag k="coa:place_id" v="3140737"/></node><node id="-7" lat="30.334978" lon="-97.68022" changeset="false"><tag k="addr:street" v="Rutherford Lane"/><tag k="addr:housenumber" v="1624"/><tag k="coa:place_id" v="912633"/></node><node id="-8" lat="30.334188" lon="-97.670884" changeset="false"><tag k="addr:street" v="Forbes Drive"/><tag k="addr:housenumber" v="2308"/><tag k="coa:place_id" v="86887"/></node><node id="-9" lat="30.334926" lon="-97.652989" changeset="false"><tag k="addr:street" v="Quiette Drive"/><tag k="addr:housenumber" v="3504"/><tag k="coa:place_id" v="226490"/></node><node id="-10" lat="30.331243" lon="-97.666082" changeset="false"><tag k="addr:street" v="Exchange Drive"/><tag k="addr:housenumber" v="8059"/><tag k="coa:place_id" v="64657"/></node><node id="-11" lat="30.332279" lon="-97.684561" changeset="false"><tag k="addr:street" v="East Anderson Lane"/><tag k="addr:housenumber" v="1538 1/2"/><tag k="coa:place_id" v="214907"/></node><node id="-12" lat="30.335916" lon="-97.654909" changeset="false"><tag k="addr:street" v="Sansom Road"/><tag k="addr:housenumber" v="9100"/><tag k="coa:place_id" v="121317"/></node><node id="-13" lat="30.339788" lon="-97.671732" changeset="false"><tag k="addr:street" v="Wall Street"/><tag k="addr:housenumber" v="8619"/><tag k="coa:place_id" v="177635"/></node><node id="-14" lat="30.342049" lon="-97.678372" changeset="false"><tag k="addr:street" v="Cross Park Drive"/><tag k="addr:housenumber" v="8608"/><tag k="coa:place_id" v="53240"/></node><node id="-15" lat="30.341322" lon="-97.680277" changeset="false"><tag k="addr:street" v="Cameron Road"/><tag k="addr:housenumber" v="8501"/><tag k="coa:place_id" v="342080"/></node><node id="-16" lat="30.333453" lon="-97.671945" changeset="false"><tag k="addr:street" v="Forbes Drive"/><tag k="addr:housenumber" v="2305"/><tag k="coa:place_id" v="1144007"/></node><node id="-17" lat="30.341473" lon="-97.675198" changeset="false"><tag k="addr:street" v="Pleasant Lane"/><tag k="addr:housenumber" v="8615"/><tag k="coa:place_id" v="342476"/></node><node id="-18" lat="30.331093" lon="-97.680529" changeset="false"><tag k="addr:street" v="Rutherford Lane"/><tag k="addr:housenumber" v="1821"/><tag k="coa:place_id" v="345969"/></node><node id="-19" lat="30.336346" lon="-97.673123" changeset="false"><tag k="addr:street" v="Cross Park Drive"/><tag k="addr:housenumber" v="8329"/><tag k="coa:place_id" v="292870"/></node><node id="-20" lat="30.336316" lon="-97.675916" changeset="false"><tag k="addr:street" v="Centre Creek Drive"/><tag k="addr:housenumber" v="1815"/><tag k="coa:place_id" v="366604"/></node><node id="-21" lat="30.333828" lon="-97.664459" changeset="false"><tag k="addr:street" v="Exchange Drive"/><tag k="addr:housenumber" v="8037"/><tag k="coa:place_id" v="3054219"/></node><node id="-22" lat="30.33578" lon="-97.680288" changeset="false"><tag k="addr:street" v="Centre Creek Drive"/><tag k="addr:housenumber" v="1604"/><tag k="coa:place_id" v="609430"/></node><node id="-23" lat="30.327716" lon="-97.671822" changeset="false"><tag k="addr:street" v="Ridgepoint Drive"/><tag k="addr:housenumber" v="2535"/><tag k="coa:place_id" v="168043"/></node><node id="-24" lat="30.344867" lon="-97.677565" changeset="false"><tag k="addr:street" v="Cameron Road"/><tag k="addr:housenumber" v="8903"/><tag k="coa:place_id" v="626590"/></node><node id="-25" lat="30.335404" lon="-97.654588" changeset="false"><tag k="addr:street" v="Sansom Road"/><tag k="addr:housenumber" v="9009"/><tag k="coa:place_id" v="3371712"/></node><node id="-26" lat="30.331713" lon="-97.665787" changeset="false"><tag k="addr:street" v="Exchange Drive"/><tag k="addr:housenumber" v="8055"/><tag k="coa:place_id" v="64658"/></node><node id="-27" lat="30.343411" lon="-97.67804" changeset="false"><tag k="addr:street" v="Cross Park Drive"/><tag k="addr:housenumber" v="8704"/><tag k="coa:place_id" v="3506705"/></node><node id="-28" lat="30.339229" lon="-97.681487" changeset="false"><tag k="addr:street" v="Cameron Road"/><tag k="addr:housenumber" v="8309"/><tag k="coa:place_id" v="838749"/></node><node id="-29" lat="30.337966" lon="-97.674449" changeset="false"><tag k="addr:street" v="Wall Street"/><tag k="addr:housenumber" v="8415"/><tag k="coa:place_id" v="89110"/></node><node id="-30" lat="30.337673" lon="-97.674883" changeset="false"><tag k="addr:street" v="Wall Street"/><tag k="addr:housenumber" v="8409"/><tag k="coa:place_id" v="89109"/></node><node id="-31" lat="30.33436" lon="-97.658012" changeset="false"><tag k="addr:street" v="Tuscany Way"/><tag k="addr:housenumber" v="8900"/><tag k="coa:place_id" v="64691"/></node><node id="-32" lat="30.343869" lon="-97.67338" changeset="false"><tag k="addr:street" v="Leisure Drive"/><tag k="addr:housenumber" v="8810"/><tag k="coa:place_id" v="668841"/></node><node id="-33" lat="30.343794" lon="-97.672313" changeset="false"><tag k="addr:street" v="Ferguson Lane"/><tag k="addr:housenumber" v="1807"/><tag k="coa:place_id" v="342794"/></node><node id="-34" lat="30.331829" lon="-97.659921" changeset="false"><tag k="addr:street" v="Tuscany Way"/><tag k="addr:housenumber" v="8520"/><tag k="coa:place_id" v="76578"/></node><node id="-35" lat="30.338324" lon="-97.662223" changeset="false"><tag k="addr:street" v="Tuscany Way"/><tag k="addr:housenumber" v="9101"/><tag k="coa:place_id" v="3036219"/></node><node id="-36" lat="30.336252" lon="-97.662124" changeset="false"><tag k="addr:street" v="Exchange Drive"/><tag k="addr:housenumber" v="8016"/><tag k="coa:place_id" v="64673"/></node><node id="-37" lat="30.333758" lon="-97.655429" changeset="false"><tag k="addr:street" v="Sansom Road"/><tag k="addr:housenumber" v="8901"/><tag k="coa:place_id" v="226850"/></node><node id="-38" lat="30.329335" lon="-97.657791" changeset="false"><tag k="addr:street" v="US Highway 290"/><tag k="addr:housenumber" v="8800"/><tag k="coa:place_id" v="3109971"/></node><node id="-39" lat="30.344118" lon="-97.675512" changeset="false"><tag k="addr:street" v="Future Drive"/><tag k="addr:housenumber" v="1608"/><tag k="coa:place_id" v="342422"/></node><node id="-40" lat="30.345061" lon="-97.677499" changeset="false"><tag k="addr:street" v="Cameron Road"/><tag k="addr:housenumber" v="8905"/><tag k="coa:place_id" v="164272"/></node><node id="-41" lat="30.328985" lon="-97.659855" changeset="false"><tag k="addr:street" v="US Highway 290"/><tag k="addr:housenumber" v="8600"/><tag k="coa:place_id" v="157051"/></node><node id="-42" lat="30.332791" lon="-97.685623" changeset="false"><tag k="addr:street" v="East Anderson Lane"/><tag k="addr:housenumber" v="1506 1/2"/><tag k="coa:place_id" v="3140733"/></node><node id="-43" lat="30.332302" lon="-97.679184" changeset="false"><tag k="addr:street" v="Centre Park Drive"/><tag k="addr:housenumber" v="7901"/><tag k="coa:place_id" v="3146443"/></node><node id="-44" lat="30.330751" lon="-97.681136" changeset="false"><tag k="addr:street" v="East Anderson Lane"/><tag k="addr:housenumber" v="1816"/><tag k="coa:place_id" v="511293"/></node><node id="-45" lat="30.345535" lon="-97.675916" changeset="false"><tag k="addr:street" v="Ferguson Lane"/><tag k="addr:housenumber" v="1505"/><tag k="coa:place_id" v="3190495"/></node><node id="-46" lat="30.329674" lon="-97.660167" changeset="false"><tag k="addr:street" v="Tuscany Way"/><tag k="addr:housenumber" v="8316"/><tag k="coa:place_id" v="3254553"/></node><node id="-47" lat="30.330452" lon="-97.680279" changeset="false"><tag k="addr:street" v="Rutherford Lane"/><tag k="addr:housenumber" v="1830 1/2"/><tag k="coa:place_id" v="3218536"/></node><node id="-48" lat="30.335773" lon="-97.663474" changeset="false"><tag k="addr:street" v="Exchange Drive"/><tag k="addr:housenumber" v="8023 1/2"/><tag k="coa:place_id" v="3273422"/></node><node id="-49" lat="30.331286" lon="-97.679817" changeset="false"><tag k="addr:street" v="Rutherford Lane"/><tag k="addr:housenumber" v="1810"/><tag k="coa:place_id" v="3358805"/></node><node id="-50" lat="30.327972" lon="-97.666861" changeset="false"><tag k="addr:street" v="US Highway 290"/><tag k="addr:housenumber" v="7960"/><tag k="coa:place_id" v="137533"/></node><node id="-51" lat="30.33495" lon="-97.653956" changeset="false"><tag k="addr:street" v="Quiette Drive"/><tag k="addr:housenumber" v="3501"/><tag k="coa:place_id" v="188871"/></node><node id="-52" lat="30.333785" lon="-97.680544" changeset="false"><tag k="addr:street" v="Rutherford Lane"/><tag k="addr:housenumber" v="1709"/><tag k="coa:place_id" v="962097"/></node><node id="-53" lat="30.334238" lon="-97.657655" changeset="false"><tag k="addr:street" v="Tuscany Way"/><tag k="addr:housenumber" v="8901"/><tag k="coa:place_id" v="64680"/></node><node id="-54" lat="30.327687" lon="-97.668024" changeset="false"><tag k="addr:street" v="US Highway 290"/><tag k="addr:housenumber" v="7900"/><tag k="coa:place_id" v="128060"/></node><node id="-55" lat="30.331795" lon="-97.682734" changeset="false"><tag k="addr:street" v="East Anderson Lane"/><tag k="addr:housenumber" v="1636"/><tag k="coa:place_id" v="54745"/></node><node id="-56" lat="30.339843" lon="-97.672641" changeset="false"><tag k="addr:street" v="Wall Street"/><tag k="addr:housenumber" v="8606"/><tag k="coa:place_id" v="522706"/></node><node id="-57" lat="30.33301" lon="-97.6554" changeset="false"><tag k="addr:street" v="Sansom Road"/><tag k="addr:housenumber" v="8801"/><tag k="coa:place_id" v="90639"/></node><node id="-58" lat="30.328981" lon="-97.660471" changeset="false"><tag k="addr:street" v="US Highway 290"/><tag k="addr:housenumber" v="8500"/><tag k="coa:place_id" v="3050199"/></node><node id="-59" lat="30.339366" lon="-97.658854" changeset="false"><tag k="addr:street" v="Ferguson Lane"/><tag k="addr:housenumber" v="2913"/><tag k="coa:place_id" v="64719"/></node><node id="-60" lat="30.33884" lon="-97.657727" changeset="false"><tag k="addr:street" v="Ferguson Lane"/><tag k="addr:housenumber" v="3007"/><tag k="coa:place_id" v="64720"/></node><node id="-61" lat="30.32914" lon="-97.668337" changeset="false"><tag k="addr:street" v="Exchange Drive"/><tag k="addr:housenumber" v="8104"/><tag k="coa:place_id" v="86877"/></node><node id="-62" lat="30.335262" lon="-97.67975" changeset="false"><tag k="addr:street" v="Centre Creek Drive"/><tag k="addr:housenumber" v="1609"/><tag k="coa:place_id" v="757941"/></node><node id="-63" lat="30.334322" lon="-97.673638" changeset="false"><tag k="addr:street" v="Forbes Drive"/><tag k="addr:housenumber" v="2213"/><tag k="coa:place_id" v="256571"/></node><node id="-64" lat="30.331433" lon="-97.673879" changeset="false"><tag k="addr:street" v="Exchange Drive"/><tag k="addr:housenumber" v="8140"/><tag k="coa:place_id" v="78443"/></node><node id="-65" lat="30.34383" lon="-97.669523" changeset="false"><tag k="addr:street" v="Wall Street"/><tag k="addr:housenumber" v="9200"/><tag k="coa:place_id" v="228022"/></node><node id="-66" lat="30.339639" lon="-97.677536" changeset="false"><tag k="addr:street" v="Cross Park Drive"/><tag k="addr:housenumber" v="8500"/><tag k="coa:place_id" v="89112"/></node><node id="-67" lat="30.339362" lon="-97.675851" changeset="false"><tag k="addr:street" v="Cross Park Drive"/><tag k="addr:housenumber" v="8405"/><tag k="coa:place_id" v="89115"/></node><node id="-68" lat="30.341508" lon="-97.67797" changeset="false"><tag k="addr:street" v="Cross Park Drive"/><tag k="addr:housenumber" v="8604"/><tag k="coa:place_id" v="53239"/></node><node id="-69" lat="30.333267" lon="-97.655481" changeset="false"><tag k="addr:street" v="Sansom Road"/><tag k="addr:housenumber" v="8803"/><tag k="coa:place_id" v="92303"/></node><node id="-70" lat="30.332897" lon="-97.653428" changeset="false"><tag k="addr:street" v="Springdale Road"/><tag k="addr:housenumber" v="8900"/><tag k="coa:place_id" v="917277"/></node><node id="-71" lat="30.332858" lon="-97.685769" changeset="false"><tag k="addr:street" v="East Anderson Lane"/><tag k="addr:housenumber" v="1500"/><tag k="coa:place_id" v="342314"/></node><node id="-72" lat="30.340377" lon="-97.660253" changeset="false"><tag k="addr:street" v="Ferguson Lane"/><tag k="addr:housenumber" v="2805"/><tag k="coa:place_id" v="64717"/></node><node id="-73" lat="30.344598" lon="-97.677659" changeset="false"><tag k="addr:street" v="Cameron Road"/><tag k="addr:housenumber" v="8807"/><tag k="coa:place_id" v="1159138"/></node><node id="-74" lat="30.330034" lon="-97.671567" changeset="false"><tag k="addr:street" v="Exchange Drive"/><tag k="addr:housenumber" v="8124"/><tag k="coa:place_id" v="3254285"/></node><node id="-75" lat="30.329475" lon="-97.660835" changeset="false"><tag k="addr:street" v="Tuscany Way"/><tag k="addr:housenumber" v="8314"/><tag k="coa:place_id" v="3358914"/></node><node id="-76" lat="30.334499" lon="-97.674538" changeset="false"><tag k="addr:street" v="Forbes Drive"/><tag k="addr:housenumber" v="2209"/><tag k="coa:place_id" v="3365507"/></node><node id="-77" lat="30.333964" lon="-97.657997" changeset="false"><tag k="addr:street" v="Tuscany Way"/><tag k="addr:housenumber" v="8702"/><tag k="coa:place_id" v="86892"/></node><node id="-78" lat="30.334361" lon="-97.671419" changeset="false"><tag k="addr:street" v="Forbes Drive"/><tag k="addr:housenumber" v="2304"/><tag k="coa:place_id" v="86886"/></node><node id="-79" lat="30.330673" lon="-97.667094" changeset="false"><tag k="addr:street" v="Cross Park Drive"/><tag k="addr:housenumber" v="8201"/><tag k="coa:place_id" v="3121163"/></node><node id="-80" lat="30.332922" lon="-97.66409" changeset="false"><tag k="addr:street" v="Exchange Drive"/><tag k="addr:housenumber" v="8038"/><tag k="coa:place_id" v="64665"/></node><node id="-81" lat="30.339473" lon="-97.659736" changeset="false"><tag k="addr:street" v="Ferguson Lane"/><tag k="addr:housenumber" v="2903"/><tag k="coa:place_id" v="64718"/></node><node id="-82" lat="30.343948" lon="-97.678074" changeset="false"><tag k="addr:street" v="Cameron Road"/><tag k="addr:housenumber" v="8701"/><tag k="coa:place_id" v="194559"/></node><node id="-83" lat="30.330588" lon="-97.676145" changeset="false"><tag k="addr:street" v="Ridgepoint Drive"/><tag k="addr:housenumber" v="2250"/><tag k="coa:place_id" v="825789"/></node><node id="-84" lat="30.335903" lon="-97.674148" changeset="false"><tag k="addr:street" v="Cross Park Drive"/><tag k="addr:housenumber" v="8330"/><tag k="coa:place_id" v="733678"/></node><node id="-85" lat="30.342193" lon="-97.674701" changeset="false"><tag k="addr:street" v="Leisure Drive"/><tag k="addr:housenumber" v="8712"/><tag k="coa:place_id" v="171517"/></node><node id="-86" lat="30.344286" lon="-97.668365" changeset="false"><tag k="addr:street" v="Ferguson Lane"/><tag k="addr:housenumber" v="2201"/><tag k="coa:place_id" v="209017"/></node><node id="-87" lat="30.332651" lon="-97.684976" changeset="false"><tag k="addr:street" v="East Anderson Lane"/><tag k="addr:housenumber" v="1524"/><tag k="coa:place_id" v="128156"/></node><node id="-88" lat="30.333013" lon="-97.675641" changeset="false"><tag k="addr:street" v="Centre Plaza"/><tag k="addr:housenumber" v="2108"/><tag k="coa:place_id" v="584974"/></node><node id="-89" lat="30.342585" lon="-97.669426" changeset="false"><tag k="addr:street" v="Wall Street"/><tag k="addr:housenumber" v="9013"/><tag k="coa:place_id" v="320614"/></node><node id="-90" lat="30.32997" lon="-97.667464" changeset="false"><tag k="addr:street" v="Exchange Drive"/><tag k="addr:housenumber" v="8101 1/2"/><tag k="coa:place_id" v="3095192"/></node><node id="-91" lat="30.329923" lon="-97.668844" changeset="false"><tag k="addr:street" v="Exchange Drive"/><tag k="addr:housenumber" v="8105"/><tag k="coa:place_id" v="86878"/></node><node id="-92" lat="30.333683" lon="-97.658499" changeset="false"><tag k="addr:street" v="Tuscany Way"/><tag k="addr:housenumber" v="8600"/><tag k="coa:place_id" v="76580"/></node><node id="-93" lat="30.327945" lon="-97.667055" changeset="false"><tag k="addr:street" v="US Highway 290"/><tag k="addr:housenumber" v="7948 1/2"/><tag k="coa:place_id" v="3355252"/></node><node id="-94" lat="30.336918" lon="-97.674188" changeset="false"><tag k="addr:street" v="Cross Park Drive"/><tag k="addr:housenumber" v="8337"/><tag k="coa:place_id" v="3365501"/></node><node id="-95" lat="30.330604" lon="-97.67411" changeset="false"><tag k="addr:street" v="Exchange Drive"/><tag k="addr:housenumber" v="8136"/><tag k="coa:place_id" v="3365508"/></node><node id="-96" lat="30.328389" lon="-97.669425" changeset="false"><tag k="addr:street" v="Exchange Drive"/><tag k="addr:housenumber" v="8108"/><tag k="coa:place_id" v="3365509"/></node><node id="-97" lat="30.334309" lon="-97.683764" changeset="false"><tag k="addr:street" v="Headway Circle"/><tag k="addr:housenumber" v="1600"/><tag k="coa:place_id" v="3369345"/></node><node id="-98" lat="30.332008" lon="-97.68319" changeset="false"><tag k="addr:street" v="East Anderson Lane"/><tag k="addr:housenumber" v="1624"/><tag k="coa:place_id" v="128144"/></node><node id="-99" lat="30.328871" lon="-97.676883" changeset="false"><tag k="addr:street" v="East Anderson Lane"/><tag k="addr:housenumber" v="2310 1/2"/><tag k="coa:place_id" v="3150723"/></node><node id="-100" lat="30.335782" lon="-97.675446" changeset="false"><tag k="addr:street" v="Cross Park Drive"/><tag k="addr:housenumber" v="8334"/><tag k="coa:place_id" v="86882"/></node><node id="-101" lat="30.331701" lon="-97.67314" changeset="false"><tag k="addr:street" v="Exchange Drive"/><tag k="addr:housenumber" v="8135"/><tag k="coa:place_id" v="86875"/></node><node id="-102" lat="30.331336" lon="-97.659517" changeset="false"><tag k="addr:street" v="Tuscany Way"/><tag k="addr:housenumber" v="8413"/><tag k="coa:place_id" v="1124088"/></node><node id="-103" lat="30.335978" lon="-97.681513" changeset="false"><tag k="addr:street" v="Rutherford Lane"/><tag k="addr:housenumber" v="1601"/><tag k="coa:place_id" v="115156"/></node><node id="-104" lat="30.329397" lon="-97.670272" changeset="false"><tag k="addr:street" v="Exchange Drive"/><tag k="addr:housenumber" v="8120"/><tag k="coa:place_id" v="531346"/></node><node id="-105" lat="30.329129" lon="-97.658973" changeset="false"><tag k="addr:street" v="US Highway 290"/><tag k="addr:housenumber" v="8700"/><tag k="coa:place_id" v="3076082"/></node><node id="-106" lat="30.337183" lon="-97.654026" changeset="false"><tag k="addr:street" v="Sansom Road"/><tag k="addr:housenumber" v="9206"/><tag k="coa:place_id" v="226886"/></node><node id="-107" lat="30.333426" lon="-97.680473" changeset="false"><tag k="addr:street" v="Rutherford Lane"/><tag k="addr:housenumber" v="1711"/><tag k="coa:place_id" v="912645"/></node><node id="-108" lat="30.327983" lon="-97.67394" changeset="false"><tag k="addr:street" v="Ridgepoint Drive"/><tag k="addr:housenumber" v="2433"/><tag k="coa:place_id" v="218806"/></node><node id="-109" lat="30.345352" lon="-97.677434" changeset="false"><tag k="addr:street" v="Cameron Road"/><tag k="addr:housenumber" v="8907"/><tag k="coa:place_id" v="343196"/></node><node id="-110" lat="30.334111" lon="-97.657836" changeset="false"><tag k="addr:street" v="Tuscany Way"/><tag k="addr:housenumber" v="8800"/><tag k="coa:place_id" v="590668"/></node><node id="-111" lat="30.330857" lon="-97.659774" changeset="false"><tag k="addr:street" v="Tuscany Way"/><tag k="addr:housenumber" v="8404"/><tag k="coa:place_id" v="76583"/></node><node id="-112" lat="30.327779" lon="-97.669955" changeset="false"><tag k="addr:street" v="Ridgepoint Drive"/><tag k="addr:housenumber" v="2621"/><tag k="coa:place_id" v="820761"/></node><node id="-113" lat="30.328944" lon="-97.677272" changeset="false"><tag k="addr:street" v="Ridgepoint Drive"/><tag k="addr:housenumber" v="2200"/><tag k="coa:place_id" v="675261"/></node><node id="-114" lat="30.334031" lon="-97.65556" changeset="false"><tag k="addr:street" v="Sansom Road"/><tag k="addr:housenumber" v="8903"/><tag k="coa:place_id" v="226856"/></node><node id="-115" lat="30.333631" lon="-97.663751" changeset="false"><tag k="addr:street" v="Exchange Drive"/><tag k="addr:housenumber" v="8034"/><tag k="coa:place_id" v="3350021"/></node><node id="-116" lat="30.332522" lon="-97.664918" changeset="false"><tag k="addr:street" v="Exchange Drive"/><tag k="addr:housenumber" v="8046"/><tag k="coa:place_id" v="64667"/></node><node id="-117" lat="30.333988" lon="-97.681042" changeset="false"><tag k="addr:street" v="Headway Circle"/><tag k="addr:housenumber" v="1631"/><tag k="coa:place_id" v="753657"/></node><node id="-118" lat="30.338246" lon="-97.673877" changeset="false"><tag k="addr:street" v="Wall Street"/><tag k="addr:housenumber" v="8501"/><tag k="coa:place_id" v="89111"/></node><node id="-119" lat="30.33418" lon="-97.657505" changeset="false"><tag k="addr:street" v="Tuscany Way"/><tag k="addr:housenumber" v="8801"/><tag k="coa:place_id" v="64681"/></node><node id="-120" lat="30.328085" lon="-97.674903" changeset="false"><tag k="addr:street" v="Ridgepoint Drive"/><tag k="addr:housenumber" v="2401"/><tag k="coa:place_id" v="204403"/></node><node id="-121" lat="30.343847" lon="-97.674345" changeset="false"><tag k="addr:street" v="Future Drive"/><tag k="addr:housenumber" v="1704"/><tag k="coa:place_id" v="342446"/></node><node id="-122" lat="30.329575" lon="-97.657143" changeset="false"><tag k="addr:street" v="US Highway 290"/><tag k="addr:housenumber" v="8900"/><tag k="coa:place_id" v="1163071"/></node><node id="-123" lat="30.332798" lon="-97.679417" changeset="false"><tag k="addr:street" v="Centre Park Drive"/><tag k="addr:housenumber" v="7900"/><tag k="coa:place_id" v="1159189"/></node><node id="-124" lat="30.332404" lon="-97.670492" changeset="false"><tag k="addr:street" v="Forbes Drive"/><tag k="addr:housenumber" v="2401"/><tag k="coa:place_id" v="3365491"/></node><node id="-125" lat="30.335524" lon="-97.674899" changeset="false"><tag k="addr:street" v="Cross Park Drive"/><tag k="addr:housenumber" v="8332"/><tag k="coa:place_id" v="3365500"/></node><node id="-126" lat="30.33368" lon="-97.672464" changeset="false"><tag k="addr:street" v="Forbes Drive"/><tag k="addr:housenumber" v="2301"/><tag k="coa:place_id" v="3365488"/></node><node id="-127" lat="30.333821" lon="-97.663639" changeset="false"><tag k="addr:street" v="Exchange Drive"/><tag k="addr:housenumber" v="8030"/><tag k="coa:place_id" v="3350020"/></node><node id="-128" lat="30.329525" lon="-97.661334" changeset="false"><tag k="addr:street" v="US Highway 290"/><tag k="addr:housenumber" v="8410"/><tag k="coa:place_id" v="3374255"/></node><node id="-129" lat="30.332401" lon="-97.684738" changeset="false"><tag k="addr:street" v="East Anderson Lane"/><tag k="addr:housenumber" v="1536 1/2"/><tag k="coa:place_id" v="3101914"/></node><node id="-130" lat="30.332585" lon="-97.671869" changeset="false"><tag k="addr:street" v="Exchange Drive"/><tag k="addr:housenumber" v="8139"/><tag k="coa:place_id" v="3365492"/></node><node id="-131" lat="30.33301" lon="-97.670981" changeset="false"><tag k="addr:street" v="Forbes Drive"/><tag k="addr:housenumber" v="2313"/><tag k="coa:place_id" v="3365490"/></node><node id="-132" lat="30.328983" lon="-97.661765" changeset="false"><tag k="addr:street" v="US Highway 290"/><tag k="addr:housenumber" v="8400"/><tag k="coa:place_id" v="3379000"/></node><node id="-133" lat="30.342923" lon="-97.669157" changeset="false"><tag k="addr:street" v="Wall Street"/><tag k="addr:housenumber" v="9101"/><tag k="coa:place_id" v="354364"/></node><node id="-134" lat="30.340927" lon="-97.678162" changeset="false"><tag k="addr:street" v="Cross Park Drive"/><tag k="addr:housenumber" v="8600"/><tag k="coa:place_id" v="3369340"/></node><node id="-135" lat="30.338815" lon="-97.67307" changeset="false"><tag k="addr:street" v="Wall Street"/><tag k="addr:housenumber" v="8601"/><tag k="coa:place_id" v="137963"/></node><node id="-136" lat="30.332833" lon="-97.656173" changeset="false"><tag k="addr:street" v="Bosque Lane"/><tag k="addr:housenumber" v="3318"/><tag k="coa:place_id" v="323187"/></node><node id="-137" lat="30.332318" lon="-97.656218" changeset="false"><tag k="addr:street" v="Bosque Lane"/><tag k="addr:housenumber" v="3317"/><tag k="coa:place_id" v="226904"/></node><node id="-138" lat="30.343917" lon="-97.674543" changeset="false"><tag k="addr:street" v="Future Drive"/><tag k="addr:housenumber" v="1702"/><tag k="coa:place_id" v="342440"/></node><node id="-139" lat="30.334731" lon="-97.680649" changeset="false"><tag k="addr:street" v="Rutherford Lane"/><tag k="addr:housenumber" v="1625"/><tag k="coa:place_id" v="581613"/></node><node id="-140" lat="30.333939" lon="-97.652989" changeset="false"><tag k="addr:street" v="Carla Drive"/><tag k="addr:housenumber" v="3506"/><tag k="coa:place_id" v="226712"/></node><node id="-141" lat="30.329723" lon="-97.674254" changeset="false"><tag k="addr:street" v="Ridgepoint Drive"/><tag k="addr:housenumber" v="2324"/><tag k="coa:place_id" v="785169"/></node><node id="-142" lat="30.332909" lon="-97.678297" changeset="false"><tag k="addr:street" v="Centre Park Drive"/><tag k="addr:housenumber" v="8001"/><tag k="coa:place_id" v="3054182"/></node><node id="-143" lat="30.331058" lon="-97.66847" changeset="false"><tag k="addr:street" v="Cross Park Drive"/><tag k="addr:housenumber" v="8206"/><tag k="coa:place_id" v="3069024"/></node><node id="-144" lat="30.328956" lon="-97.662478" changeset="false"><tag k="addr:street" v="US Highway 290"/><tag k="addr:housenumber" v="8304"/><tag k="coa:place_id" v="184986"/></node><node id="-145" lat="30.332992" lon="-97.664623" changeset="false"><tag k="addr:street" v="Exchange Drive"/><tag k="addr:housenumber" v="8042"/><tag k="coa:place_id" v="64666"/></node><node id="-146" lat="30.329209" lon="-97.674723" changeset="false"><tag k="addr:street" v="Ridgepoint Drive"/><tag k="addr:housenumber" v="2323"/><tag k="coa:place_id" v="71982"/></node><node id="-147" lat="30.332181" lon="-97.679784" changeset="false"><tag k="addr:street" v="Rutherford Lane"/><tag k="addr:housenumber" v="1804"/><tag k="coa:place_id" v="50141"/></node><node id="-148" lat="30.3333" lon="-97.653343" changeset="false"><tag k="addr:street" v="Carla Drive"/><tag k="addr:housenumber" v="3509"/><tag k="coa:place_id" v="226802"/></node><node id="-149" lat="30.337882" lon="-97.65546" changeset="false"><tag k="addr:street" v="Ferguson Lane"/><tag k="addr:housenumber" v="3207"/><tag k="coa:place_id" v="89228"/></node><node id="-150" lat="30.336163" lon="-97.657088" changeset="false"><tag k="addr:street" v="Tuscany Way"/><tag k="addr:housenumber" v="9005"/><tag k="coa:place_id" v="64678"/></node><node id="-151" lat="30.340086" lon="-97.681027" changeset="false"><tag k="addr:street" v="Cameron Road"/><tag k="addr:housenumber" v="8401"/><tag k="coa:place_id" v="206898"/></node><node id="-152" lat="30.333802" lon="-97.682425" changeset="false"><tag k="addr:street" v="Headway Circle"/><tag k="addr:housenumber" v="1611"/><tag k="coa:place_id" v="417652"/></node><node id="-153" lat="30.333035" lon="-97.668616" changeset="false"><tag k="addr:street" v="Forbes Drive"/><tag k="addr:housenumber" v="2431"/><tag k="coa:place_id" v="117067"/></node><node id="-154" lat="30.330064" lon="-97.669657" changeset="false"><tag k="addr:street" v="Exchange Drive"/><tag k="addr:housenumber" v="8109"/><tag k="coa:place_id" v="86879"/></node><node id="-155" lat="30.330474" lon="-97.670319" changeset="false"><tag k="addr:street" v="Exchange Drive"/><tag k="addr:housenumber" v="8115"/><tag k="coa:place_id" v="86880"/></node><node id="-156" lat="30.337301" lon="-97.661365" changeset="false"><tag k="addr:street" v="Tuscany Way"/><tag k="addr:housenumber" v="9020"/><tag k="coa:place_id" v="603334"/></node><node id="-157" lat="30.335116" lon="-97.662875" changeset="false"><tag k="addr:street" v="Exchange Drive"/><tag k="addr:housenumber" v="8024"/><tag k="coa:place_id" v="86889"/></node><node id="-158" lat="30.344308" lon="-97.677799" changeset="false"><tag k="addr:street" v="Cameron Road"/><tag k="addr:housenumber" v="8801"/><tag k="coa:place_id" v="515061"/></node><node id="-159" lat="30.33098" lon="-97.659786" changeset="false"><tag k="addr:street" v="Tuscany Way"/><tag k="addr:housenumber" v="8412"/><tag k="coa:place_id" v="76584"/></node><node id="-160" lat="30.338419" lon="-97.65661" changeset="false"><tag k="addr:street" v="Ferguson Lane"/><tag k="addr:housenumber" v="3111"/><tag k="coa:place_id" v="89227"/></node><node id="-161" lat="30.342671" lon="-97.678296" changeset="false"><tag k="addr:street" v="Cross Park Drive"/><tag k="addr:housenumber" v="8700"/><tag k="coa:place_id" v="3046511"/></node><node id="-162" lat="30.329492" lon="-97.677363" changeset="false"><tag k="addr:street" v="Ridgepoint Drive"/><tag k="addr:housenumber" v="2210"/><tag k="coa:place_id" v="820767"/></node><node id="-163" lat="30.332648" lon="-97.658875" changeset="false"><tag k="addr:street" v="Tuscany Way"/><tag k="addr:housenumber" v="8601"/><tag k="coa:place_id" v="541612"/></node><node id="-164" lat="30.32927" lon="-97.658224" changeset="false"><tag k="addr:street" v="US Highway 290"/><tag k="addr:housenumber" v="8706"/><tag k="coa:place_id" v="229103"/></node><node id="-165" lat="30.333172" lon="-97.656192" changeset="false"><tag k="addr:street" v="Sansom Road"/><tag k="addr:housenumber" v="8802"/><tag k="coa:place_id" v="226892"/></node><node id="-166" lat="30.335008" lon="-97.669988" changeset="false"><tag k="addr:street" v="Cross Park Drive"/><tag k="addr:housenumber" v="8306"/><tag k="coa:place_id" v="89107"/></node><node id="-167" lat="30.333937" lon="-97.658013" changeset="false"><tag k="addr:street" v="Tuscany Way"/><tag k="addr:housenumber" v="8700"/><tag k="coa:place_id" v="64685"/></node><node id="-168" lat="30.333788" lon="-97.658369" changeset="false"><tag k="addr:street" v="Tuscany Way"/><tag k="addr:housenumber" v="8610"/><tag k="coa:place_id" v="76581"/></node><node id="-169" lat="30.337541" lon="-97.662585" changeset="false"><tag k="addr:street" v="Exchange Drive"/><tag k="addr:housenumber" v="8009"/><tag k="coa:place_id" v="64671"/></node><node id="-170" lat="30.332052" lon="-97.665213" changeset="false"><tag k="addr:street" v="Exchange Drive"/><tag k="addr:housenumber" v="8050"/><tag k="coa:place_id" v="64668"/></node><node id="-171" lat="30.332283" lon="-97.68441" changeset="false"><tag k="addr:street" v="East Anderson Lane"/><tag k="addr:housenumber" v="1538"/><tag k="coa:place_id" v="128150"/></node><node id="-172" lat="30.336379" lon="-97.654541" changeset="false"><tag k="addr:street" v="Sansom Road"/><tag k="addr:housenumber" v="9106"/><tag k="coa:place_id" v="89226"/></node><node id="-173" lat="30.341144" lon="-97.676219" changeset="false"><tag k="addr:street" v="Cross Park Drive"/><tag k="addr:housenumber" v="8601"/><tag k="coa:place_id" v="156652"/></node><node id="-174" lat="30.340794" lon="-97.676176" changeset="false"><tag k="addr:street" v="Cross Park Drive"/><tag k="addr:housenumber" v="8509"/><tag k="coa:place_id" v="89114"/></node><node id="-175" lat="30.3403" lon="-97.675964" changeset="false"><tag k="addr:street" v="Cross Park Drive"/><tag k="addr:housenumber" v="8505"/><tag k="coa:place_id" v="158752"/></node><node id="-176" lat="30.339944" lon="-97.675931" changeset="false"><tag k="addr:street" v="Cross Park Drive"/><tag k="addr:housenumber" v="8501"/><tag k="coa:place_id" v="89113"/></node><node id="-177" lat="30.334278" lon="-97.669024" changeset="false"><tag k="addr:street" v="Cross Park Drive"/><tag k="addr:housenumber" v="8224"/><tag k="coa:place_id" v="171984"/></node><node id="-178" lat="30.334721" lon="-97.669439" changeset="false"><tag k="addr:street" v="Cross Park Drive"/><tag k="addr:housenumber" v="8302"/><tag k="coa:place_id" v="89106"/></node><node id="-179" lat="30.333849" lon="-97.668912" changeset="false"><tag k="addr:street" v="Cross Park Drive"/><tag k="addr:housenumber" v="8220"/><tag k="coa:place_id" v="1163750"/></node><node id="-180" lat="30.327711" lon="-97.672116" changeset="false"><tag k="addr:street" v="Ridgepoint Drive"/><tag k="addr:housenumber" v="2525"/><tag k="coa:place_id" v="675321"/></node><node id="-181" lat="30.327769" lon="-97.671972" changeset="false"><tag k="addr:street" v="Ridgepoint Drive"/><tag k="addr:housenumber" v="2525 1/2"/><tag k="coa:place_id" v="3046880"/></node><node id="-182" lat="30.329089" lon="-97.673191" changeset="false"><tag k="addr:street" v="Ridgepoint Drive"/><tag k="addr:housenumber" v="2420"/><tag k="coa:place_id" v="859341"/></node><node id="-183" lat="30.328703" lon="-97.67258" changeset="false"><tag k="addr:street" v="Ridgepoint Drive"/><tag k="addr:housenumber" v="2500"/><tag k="coa:place_id" v="675327"/></node><node id="-184" lat="30.337864" lon="-97.680975" changeset="false"><tag k="addr:street" v="Rutherford Lane"/><tag k="addr:housenumber" v="1520"/><tag k="coa:place_id" v="380854"/></node><node id="-185" lat="30.336923" lon="-97.681264" changeset="false"><tag k="addr:street" v="Rutherford Lane"/><tag k="addr:housenumber" v="1522"/><tag k="coa:place_id" v="91458"/></node></osm>