<?xml version="1.0" encoding="UTF-8"?><osm version="0.6" generator="github.com/aaronlidman/osm-and-geojson"><node id="-1" lat="30.132253" lon="-97.783026" changeset="false"><tag k="addr:street" v="Pinehurst Drive,1100"/><tag k="addr:housenumber" v="11230"/><tag k="coa:place_id" v="371835"/></node><node id="-2" lat="30.136307" lon="-97.790707" changeset="false"><tag k="addr:street" v="Onion Creek Parkway"/><tag k="addr:housenumber" v="2500"/><tag k="coa:place_id" v="834452"/></node><node id="-3" lat="30.135772" lon="-97.779046" changeset="false"><tag k="addr:street" v="Olympia Fields Loop"/><tag k="addr:housenumber" v="10900"/><tag k="coa:place_id" v="163215"/></node><node id="-4" lat="30.135554" lon="-97.775445" changeset="false"><tag k="addr:street" v="Bradshaw Road"/><tag k="addr:housenumber" v="10816"/><tag k="coa:place_id" v="251308"/></node><node id="-5" lat="30.132205" lon="-97.779776" changeset="false"><tag k="addr:street" v="County Down Drive"/><tag k="addr:housenumber" v="11104"/><tag k="coa:place_id" v="163303"/></node><node id="-6" lat="30.141162" lon="-97.791711" changeset="false"><tag k="addr:street" v="Hazeltine Lane"/><tag k="addr:housenumber" v="2207"/><tag k="coa:place_id" v="753747"/></node><node id="-7" lat="30.134424" lon="-97.780114" changeset="false"><tag k="addr:street" v="River Plantation Drive"/><tag k="addr:housenumber" v="11008"/><tag k="coa:place_id" v="163035"/></node><node id="-8" lat="30.141518" lon="-97.788072" changeset="false"><tag k="addr:street" v="Legends Lane"/><tag k="addr:housenumber" v="10621"/><tag k="coa:place_id" v="516711"/></node><node id="-9" lat="30.135946" lon="-97.790396" changeset="false"><tag k="addr:street" v="Onion Creek Court"/><tag k="addr:housenumber" v="11001"/><tag k="coa:place_id" v="833858"/></node><node id="-10" lat="30.139088" lon="-97.779529" changeset="false"><tag k="addr:street" v="Prairie Dunes Drive"/><tag k="addr:housenumber" v="4901"/><tag k="coa:place_id" v="163260"/></node><node id="-11" lat="30.135174" lon="-97.778587" changeset="false"><tag k="addr:street" v="Ballybunion Place"/><tag k="addr:housenumber" v="10901"/><tag k="coa:place_id" v="166303"/></node><node id="-12" lat="30.136435" lon="-97.790214" changeset="false"><tag k="addr:street" v="Onion Creek Parkway"/><tag k="addr:housenumber" v="2508"/><tag k="coa:place_id" v="833870"/></node><node id="-13" lat="30.138311" lon="-97.778435" changeset="false"><tag k="addr:street" v="Prairie Dunes Drive"/><tag k="addr:housenumber" v="5013"/><tag k="coa:place_id" v="163271"/></node><node id="-14" lat="30.138031" lon="-97.787386" changeset="false"><tag k="addr:street" v="Legends Lane"/><tag k="addr:housenumber" v="11007"/><tag k="coa:place_id" v="513321"/></node><node id="-15" lat="30.134205" lon="-97.789048" changeset="false"><tag k="addr:street" v="Pinehurst Drive,1100"/><tag k="addr:housenumber" v="11135"/><tag k="coa:place_id" v="248989"/></node><node id="-16" lat="30.131038" lon="-97.782755" changeset="false"><tag k="addr:street" v="Champions Lane"/><tag k="addr:housenumber" v="11107"/><tag k="coa:place_id" v="91911"/></node><node id="-17" lat="30.139241" lon="-97.795041" changeset="false"><tag k="addr:street" v="Boca Raton Drive"/><tag k="addr:housenumber" v="2107"/><tag k="coa:place_id" v="166851"/></node><node id="-18" lat="30.135538" lon="-97.779299" changeset="false"><tag k="addr:street" v="Portmarnock Court"/><tag k="addr:housenumber" v="5105"/><tag k="coa:place_id" v="163225"/></node><node id="-19" lat="30.145192" lon="-97.782356" changeset="false"><tag k="addr:street" v="La Costa Drive"/><tag k="addr:housenumber" v="10203"/><tag k="coa:place_id" v="180894"/></node><node id="-20" lat="30.142166" lon="-97.789265" changeset="false"><tag k="addr:street" v="Legends Lane"/><tag k="addr:housenumber" v="10613"/><tag k="coa:place_id" v="516687"/></node><node id="-21" lat="30.135608" lon="-97.778428" changeset="false"><tag k="addr:street" v="Olympia Fields Loop"/><tag k="addr:housenumber" v="10905"/><tag k="coa:place_id" v="163205"/></node><node id="-22" lat="30.137255" lon="-97.792767" changeset="false"><tag k="addr:street" v="Inverrary Circle"/><tag k="addr:housenumber" v="2301"/><tag k="coa:place_id" v="834362"/></node><node id="-23" lat="30.144237" lon="-97.784579" changeset="false"><tag k="addr:street" v="La Costa Drive"/><tag k="addr:housenumber" v="10305"/><tag k="coa:place_id" v="1151776"/></node><node id="-24" lat="30.127446" lon="-97.800011" changeset="false"><tag k="addr:street" v="Interstate 35 Frontage Road"/><tag k="addr:housenumber" v="12001"/><tag k="coa:place_id" v="225831"/></node><node id="-25" lat="30.135762" lon="-97.780385" changeset="false"><tag k="addr:street" v="River Plantation Drive"/><tag k="addr:housenumber" v="10924"/><tag k="coa:place_id" v="163041"/></node><node id="-26" lat="30.131586" lon="-97.782346" changeset="false"><tag k="addr:street" v="Champions Lane"/><tag k="addr:housenumber" v="11103"/><tag k="coa:place_id" v="98433"/></node><node id="-27" lat="30.136921" lon="-97.795623" changeset="false"><tag k="addr:street" v="Onion Creek Parkway"/><tag k="addr:housenumber" v="2204"/><tag k="coa:place_id" v="238707"/></node><node id="-28" lat="30.137857" lon="-97.777288" changeset="false"><tag k="addr:street" v="Prairie Dunes Drive"/><tag k="addr:housenumber" v="5110"/><tag k="coa:place_id" v="163288"/></node><node id="-29" lat="30.133093" lon="-97.783587" changeset="false"><tag k="addr:street" v="Pinehurst Drive,1100"/><tag k="addr:housenumber" v="4709"/><tag k="coa:place_id" v="981560"/></node><node id="-30" lat="30.138564" lon="-97.795876" changeset="false"><tag k="addr:street" v="Interstate 35 Frontage Road"/><tag k="addr:housenumber" v="11209"/><tag k="coa:place_id" v="5063167"/></node><node id="-31" lat="30.130867" lon="-97.783121" changeset="false"><tag k="addr:street" v="Champions Lane"/><tag k="addr:housenumber" v="11109"/><tag k="coa:place_id" v="111057"/></node><node id="-32" lat="30.13053" lon="-97.779621" changeset="false"><tag k="addr:street" v="County Down Drive"/><tag k="addr:housenumber" v="11213"/><tag k="coa:place_id" v="163330"/></node><node id="-33" lat="30.136371" lon="-97.79046" changeset="false"><tag k="addr:street" v="Onion Creek Parkway"/><tag k="addr:housenumber" v="2504"/><tag k="coa:place_id" v="834440"/></node><node id="-34" lat="30.133155" lon="-97.786152" changeset="false"><tag k="addr:street" v="Indian Wells Drive"/><tag k="addr:housenumber" v="4608"/><tag k="coa:place_id" v="832910"/></node><node id="-35" lat="30.137755" lon="-97.780578" changeset="false"><tag k="addr:street" v="Olympia Fields Loop"/><tag k="addr:housenumber" v="10801"/><tag k="coa:place_id" v="163716"/></node><node id="-36" lat="30.138495" lon="-97.782051" changeset="false"><tag k="addr:street" v="River Plantation Drive"/><tag k="addr:housenumber" v="10808"/><tag k="coa:place_id" v="163061"/></node><node id="-37" lat="30.131568" lon="-97.779931" changeset="false"><tag k="addr:street" v="County Down Drive"/><tag k="addr:housenumber" v="11116"/><tag k="coa:place_id" v="163308"/></node><node id="-38" lat="30.113093" lon="-97.797773" changeset="false"><tag k="addr:street" v="Farm-to-Market Road 1327"/><tag k="addr:housenumber" v="508"/><tag k="coa:place_id" v="3154061"/></node><node id="-39" lat="30.140034" lon="-97.781696" changeset="false"><tag k="addr:street" v="River Plantation Drive"/><tag k="addr:housenumber" v="10701"/><tag k="coa:place_id" v="165919"/></node><node id="-40" lat="30.138462" lon="-97.778622" changeset="false"><tag k="addr:street" v="Prairie Dunes Drive"/><tag k="addr:housenumber" v="5009"/><tag k="coa:place_id" v="163270"/></node><node id="-41" lat="30.13452" lon="-97.790344" changeset="false"><tag k="addr:street" v="Pinehurst Drive,1100"/><tag k="addr:housenumber" v="11123"/><tag k="coa:place_id" v="345297"/></node><node id="-42" lat="30.136389" lon="-97.796652" changeset="false"><tag k="addr:street" v="Interstate 35 Frontage Road"/><tag k="addr:housenumber" v="11401"/><tag k="coa:place_id" v="3091176"/></node><node id="-43" lat="30.131093" lon="-97.784388" changeset="false"><tag k="addr:street" v="Pinehurst Drive,1100"/><tag k="addr:housenumber" v="11218"/><tag k="coa:place_id" v="118587"/></node><node id="-44" lat="30.141683" lon="-97.7798" changeset="false"><tag k="addr:street" v="Interlachen Lane"/><tag k="addr:housenumber" v="4716"/><tag k="coa:place_id" v="163123"/></node><node id="-45" lat="30.112757" lon="-97.80239" changeset="false"><tag k="addr:street" v="Farm-to-Market Road 1327"/><tag k="addr:housenumber" v="316 1/2"/><tag k="coa:place_id" v="3326255"/></node><node id="-46" lat="30.139906" lon="-97.781057" changeset="false"><tag k="addr:street" v="Prairie Dunes Drive"/><tag k="addr:housenumber" v="4711"/><tag k="coa:place_id" v="163132"/></node><node id="-47" lat="30.136964" lon="-97.780277" changeset="false"><tag k="addr:street" v="River Plantation Drive"/><tag k="addr:housenumber" v="10905"/><tag k="coa:place_id" v="163085"/></node><node id="-48" lat="30.131847" lon="-97.798556" changeset="false"><tag k="addr:street" v="Interstate 35 Frontage Road"/><tag k="addr:housenumber" v="11715 1/2"/><tag k="coa:place_id" v="3166203"/></node><node id="-49" lat="30.135565" lon="-97.77902" changeset="false"><tag k="addr:street" v="Olympia Fields Loop"/><tag k="addr:housenumber" v="10906"/><tag k="coa:place_id" v="163217"/></node><node id="-50" lat="30.135606" lon="-97.785752" changeset="false"><tag k="addr:street" v="Pinehurst Drive,1100"/><tag k="addr:housenumber" v="4613"/><tag k="coa:place_id" v="1034636"/></node><node id="-51" lat="30.130972" lon="-97.779525" changeset="false"><tag k="addr:street" v="County Down Drive"/><tag k="addr:housenumber" v="11205"/><tag k="coa:place_id" v="163326"/></node><node id="-52" lat="30.130706" lon="-97.780048" changeset="false"><tag k="addr:street" v="County Down Drive"/><tag k="addr:housenumber" v="11208"/><tag k="coa:place_id" v="163315"/></node><node id="-53" lat="30.130622" lon="-97.789708" changeset="false"><tag k="addr:street" v="Interstate 35 Frontage Road"/><tag k="addr:housenumber" v="11601"/><tag k="coa:place_id" v="3084910"/></node><node id="-54" lat="30.128732" lon="-97.779487" changeset="false"><tag k="addr:street" v="County Down Drive"/><tag k="addr:housenumber" v="11317"/><tag k="coa:place_id" v="163338"/></node><node id="-55" lat="30.143119" lon="-97.781357" changeset="false"><tag k="addr:street" v="River Plantation Drive"/><tag k="addr:housenumber" v="10514"/><tag k="coa:place_id" v="3067927"/></node><node id="-56" lat="30.142536" lon="-97.789225" changeset="false"><tag k="addr:street" v="Pinehurst Drive,1100"/><tag k="addr:housenumber" v="10605"/><tag k="coa:place_id" v="355893"/></node><node id="-57" lat="30.137039" lon="-97.777473" changeset="false"><tag k="addr:street" v="Prairie Dunes Drive"/><tag k="addr:housenumber" v="5122"/><tag k="coa:place_id" v="163283"/></node><node id="-58" lat="30.136893" lon="-97.775557" changeset="false"><tag k="addr:street" v="Bradshaw Road"/><tag k="addr:housenumber" v="10708"/><tag k="coa:place_id" v="834998"/></node><node id="-59" lat="30.13672" lon="-97.777772" changeset="false"><tag k="addr:street" v="Prairie Dunes Drive"/><tag k="addr:housenumber" v="5125"/><tag k="coa:place_id" v="163282"/></node><node id="-60" lat="30.134378" lon="-97.778385" changeset="false"><tag k="addr:street" v="Ballybunion Place"/><tag k="addr:housenumber" v="10921"/><tag k="coa:place_id" v="163242"/></node><node id="-61" lat="30.136398" lon="-97.793634" changeset="false"><tag k="addr:street" v="Pinehurst Drive,1100"/><tag k="addr:housenumber" v="11006"/><tag k="coa:place_id" v="109149"/></node><node id="-62" lat="30.136467" lon="-97.790091" changeset="false"><tag k="addr:street" v="Onion Creek Parkway"/><tag k="addr:housenumber" v="2510"/><tag k="coa:place_id" v="611379"/></node><node id="-63" lat="30.139145" lon="-97.778544" changeset="false"><tag k="addr:street" v="Prairie Dunes Drive"/><tag k="addr:housenumber" v="5000"/><tag k="coa:place_id" v="163292"/></node><node id="-64" lat="30.143436" lon="-97.781646" changeset="false"><tag k="addr:street" v="River Plantation Drive"/><tag k="addr:housenumber" v="10508"/><tag k="coa:place_id" v="3055237"/></node><node id="-65" lat="30.142299" lon="-97.789506" changeset="false"><tag k="addr:street" v="Pinehurst Drive,1100"/><tag k="addr:housenumber" v="10607"/><tag k="coa:place_id" v="317529"/></node><node id="-66" lat="30.141651" lon="-97.780255" changeset="false"><tag k="addr:street" v="Interlachen Lane"/><tag k="addr:housenumber" v="4708"/><tag k="coa:place_id" v="163121"/></node><node id="-67" lat="30.131356" lon="-97.780008" changeset="false"><tag k="addr:street" v="County Down Drive"/><tag k="addr:housenumber" v="11120"/><tag k="coa:place_id" v="163309"/></node><node id="-68" lat="30.138273" lon="-97.790682" changeset="false"><tag k="addr:street" v="Apple Valley Circle"/><tag k="addr:housenumber" v="2403"/><tag k="coa:place_id" v="834062"/></node><node id="-69" lat="30.142195" lon="-97.789601" changeset="false"><tag k="addr:street" v="Legends Lane"/><tag k="addr:housenumber" v="10600"/><tag k="coa:place_id" v="247285"/></node><node id="-70" lat="30.131523" lon="-97.783068" changeset="false"><tag k="addr:street" v="Champions Lane"/><tag k="addr:housenumber" v="11102"/><tag k="coa:place_id" v="228297"/></node><node id="-71" lat="30.142245" lon="-97.781102" changeset="false"><tag k="addr:street" v="River Plantation Drive"/><tag k="addr:housenumber" v="10524"/><tag k="coa:place_id" v="157464"/></node><node id="-72" lat="30.132572" lon="-97.778593" changeset="false"><tag k="addr:street" v="River Plantation Drive"/><tag k="addr:housenumber" v="11109"/><tag k="coa:place_id" v="147773"/></node><node id="-73" lat="30.136469" lon="-97.77879" changeset="false"><tag k="addr:street" v="Olympia Fields Loop"/><tag k="addr:housenumber" v="10837"/><tag k="coa:place_id" v="163199"/></node><node id="-74" lat="30.136172" lon="-97.779212" changeset="false"><tag k="addr:street" v="Olympia Fields Loop"/><tag k="addr:housenumber" v="10832"/><tag k="coa:place_id" v="163212"/></node><node id="-75" lat="30.136382" lon="-97.791093" changeset="false"><tag k="addr:street" v="Onion Creek Parkway"/><tag k="addr:housenumber" v="2406"/><tag k="coa:place_id" v="834470"/></node><node id="-76" lat="30.139102" lon="-97.79546" changeset="false"><tag k="addr:street" v="Boca Raton Drive"/><tag k="addr:housenumber" v="2105"/><tag k="coa:place_id" v="312465"/></node><node id="-77" lat="30.140224" lon="-97.780803" changeset="false"><tag k="addr:street" v="Prairie Dunes Drive"/><tag k="addr:housenumber" v="4714"/><tag k="coa:place_id" v="163125"/></node><node id="-78" lat="30.136521" lon="-97.794279" changeset="false"><tag k="addr:street" v="Onion Creek Parkway"/><tag k="addr:housenumber" v="2217"/><tag k="coa:place_id" v="129249"/></node><node id="-79" lat="30.139155" lon="-97.795063" changeset="false"><tag k="addr:street" v="Boca Raton Drive"/><tag k="addr:housenumber" v="2107 1/2"/><tag k="coa:place_id" v="3214061"/></node><node id="-80" lat="30.136339" lon="-97.790583" changeset="false"><tag k="addr:street" v="Onion Creek Parkway"/><tag k="addr:housenumber" v="2502"/><tag k="coa:place_id" v="834446"/></node><node id="-81" lat="30.136326" lon="-97.790854" changeset="false"><tag k="addr:street" v="Onion Creek Parkway"/><tag k="addr:housenumber" v="2410"/><tag k="coa:place_id" v="833864"/></node><node id="-82" lat="30.138854" lon="-97.781747" changeset="false"><tag k="addr:street" v="River Plantation Drive"/><tag k="addr:housenumber" v="10805"/><tag k="coa:place_id" v="163093"/></node><node id="-83" lat="30.134722" lon="-97.791742" changeset="false"><tag k="addr:street" v="Pinehurst Drive,1100"/><tag k="addr:housenumber" v="11109"/><tag k="coa:place_id" v="109161"/></node><node id="-84" lat="30.114524" lon="-97.805036" changeset="false"><tag k="addr:street" v="Interstate 35 Frontage Road"/><tag k="addr:housenumber" v="12925 1/2"/><tag k="coa:place_id" v="3326025"/></node><node id="-85" lat="30.137649" lon="-97.7775" changeset="false"><tag k="addr:street" v="Prairie Dunes Drive"/><tag k="addr:housenumber" v="5114"/><tag k="coa:place_id" v="163285"/></node><node id="-86" lat="30.118898" lon="-97.803818" changeset="false"><tag k="addr:street" v="Interstate 35 Frontage Road"/><tag k="addr:housenumber" v="12621 1/2"/><tag k="coa:place_id" v="3326048"/></node><node id="-87" lat="30.129331" lon="-97.795774" changeset="false"><tag k="addr:street" v="Interstate 35 Frontage Road"/><tag k="addr:housenumber" v="11811"/><tag k="coa:place_id" v="5052883"/></node><node id="-88" lat="30.143891" lon="-97.785425" changeset="false"><tag k="addr:street" v="La Costa Drive"/><tag k="addr:housenumber" v="10401"/><tag k="coa:place_id" v="171615"/></node><node id="-89" lat="30.131805" lon="-97.778023" changeset="false"><tag k="addr:street" v="River Plantation Drive"/><tag k="addr:housenumber" v="11118"/><tag k="coa:place_id" v="5134706"/></node><node id="-90" lat="30.139068" lon="-97.782371" changeset="false"><tag k="addr:street" v="River Plantation Drive"/><tag k="addr:housenumber" v="10726"/><tag k="coa:place_id" v="163065"/></node><node id="-91" lat="30.130917" lon="-97.780025" changeset="false"><tag k="addr:street" v="County Down Drive"/><tag k="addr:housenumber" v="11204"/><tag k="coa:place_id" v="163314"/></node><node id="-92" lat="30.140928" lon="-97.778574" changeset="false"><tag k="addr:street" v="Interlachen Lane"/><tag k="addr:housenumber" v="4901"/><tag k="coa:place_id" v="163176"/></node><node id="-93" lat="30.13767" lon="-97.795307" changeset="false"><tag k="addr:street" v="Onion Creek Parkway"/><tag k="addr:housenumber" v="2210"/><tag k="coa:place_id" v="195682"/></node><node id="-94" lat="30.13384" lon="-97.779271" changeset="false"><tag k="addr:street" v="Ballybunion Place"/><tag k="addr:housenumber" v="11008"/><tag k="coa:place_id" v="163227"/></node><node id="-95" lat="30.120215" lon="-97.80331" changeset="false"><tag k="addr:street" v="Interstate 35 Frontage Road"/><tag k="addr:housenumber" v="12501"/><tag k="coa:place_id" v="225833"/></node><node id="-96" lat="30.142123" lon="-97.780462" changeset="false"><tag k="addr:street" v="River Plantation Drive"/><tag k="addr:housenumber" v="10527"/><tag k="coa:place_id" v="163104"/></node><node id="-97" lat="30.128416" lon="-97.779719" changeset="false"><tag k="addr:street" v="County Down Drive"/><tag k="addr:housenumber" v="11321"/><tag k="coa:place_id" v="163339"/></node><node id="-98" lat="30.128121" lon="-97.77987" changeset="false"><tag k="addr:street" v="County Down Drive"/><tag k="addr:housenumber" v="11401"/><tag k="coa:place_id" v="163343"/></node><node id="-99" lat="30.141775" lon="-97.780447" changeset="false"><tag k="addr:street" v="Interlachen Lane"/><tag k="addr:housenumber" v="4704"/><tag k="coa:place_id" v="163119"/></node><node id="-100" lat="30.136256" lon="-97.77961" changeset="false"><tag k="addr:street" v="Portmarnock Court"/><tag k="addr:housenumber" v="5104"/><tag k="coa:place_id" v="163223"/></node><node id="-101" lat="30.136438" lon="-97.791332" changeset="false"><tag k="addr:street" v="Onion Creek Parkway"/><tag k="addr:housenumber" v="2402"/><tag k="coa:place_id" v="834476"/></node><node id="-102" lat="30.133518" lon="-97.780112" changeset="false"><tag k="addr:street" v="River Plantation Drive"/><tag k="addr:housenumber" v="11024"/><tag k="coa:place_id" v="163030"/></node><node id="-103" lat="30.129158" lon="-97.779472" changeset="false"><tag k="addr:street" v="County Down Drive"/><tag k="addr:housenumber" v="11313"/><tag k="coa:place_id" v="163337"/></node><node id="-104" lat="30.136403" lon="-97.790337" changeset="false"><tag k="addr:street" v="Onion Creek Parkway"/><tag k="addr:housenumber" v="2506"/><tag k="coa:place_id" v="834434"/></node><node id="-105" lat="30.13641" lon="-97.791212" changeset="false"><tag k="addr:street" v="Onion Creek Parkway"/><tag k="addr:housenumber" v="2404"/><tag k="coa:place_id" v="834458"/></node><node id="-106" lat="30.131286" lon="-97.782496" changeset="false"><tag k="addr:street" v="Champions Lane"/><tag k="addr:housenumber" v="11105"/><tag k="coa:place_id" v="1017752"/></node><node id="-107" lat="30.136926" lon="-97.796342" changeset="false"><tag k="addr:street" v="Onion Creek Parkway"/><tag k="addr:housenumber" v="2200"/><tag k="coa:place_id" v="833744"/></node><node id="-108" lat="30.136439" lon="-97.796527" changeset="false"><tag k="addr:street" v="Onion Creek Parkway"/><tag k="addr:housenumber" v="2201"/><tag k="coa:place_id" v="833738"/></node><node id="-109" lat="30.142328" lon="-97.780477" changeset="false"><tag k="addr:street" v="River Plantation Drive"/><tag k="addr:housenumber" v="10523"/><tag k="coa:place_id" v="163105"/></node><node id="-110" lat="30.133446" lon="-97.779604" changeset="false"><tag k="addr:street" v="River Plantation Drive"/><tag k="addr:housenumber" v="11025"/><tag k="coa:place_id" v="163073"/></node><node id="-111" lat="30.14301" lon="-97.788663" changeset="false"><tag k="addr:street" v="Pinehurst Drive,1100"/><tag k="addr:housenumber" v="10601"/><tag k="coa:place_id" v="262587"/></node><node id="-112" lat="30.136466" lon="-97.791451" changeset="false"><tag k="addr:street" v="Onion Creek Parkway"/><tag k="addr:housenumber" v="2400"/><tag k="coa:place_id" v="834482"/></node><node id="-113" lat="30.136354" lon="-97.790974" changeset="false"><tag k="addr:street" v="Onion Creek Parkway"/><tag k="addr:housenumber" v="2408"/><tag k="coa:place_id" v="834464"/></node><node id="-114" lat="30.131923" lon="-97.782305" changeset="false"><tag k="addr:street" v="Champions Lane"/><tag k="addr:housenumber" v="11101"/><tag k="coa:place_id" v="219291"/></node><node id="-115" lat="30.136384" lon="-97.779961" changeset="false"><tag k="addr:street" v="River Plantation Drive"/><tag k="addr:housenumber" v="10917"/><tag k="coa:place_id" v="163082"/></node><node id="-116" lat="30.14026" lon="-97.776987" changeset="false"><tag k="addr:street" v="Interlachen Lane"/><tag k="addr:housenumber" v="5012"/><tag k="coa:place_id" v="163165"/></node><node id="-117" lat="30.140102" lon="-97.780582" changeset="false"><tag k="addr:street" v="Prairie Dunes Drive"/><tag k="addr:housenumber" v="4718"/><tag k="coa:place_id" v="163126"/></node><node id="-118" lat="30.139908" lon="-97.787875" changeset="false"><tag k="addr:street" v="Legends Lane"/><tag k="addr:housenumber" v="10805"/><tag k="coa:place_id" v="520581"/></node><node id="-119" lat="30.136498" lon="-97.779593" changeset="false"><tag k="addr:street" v="Olympia Fields Loop"/><tag k="addr:housenumber" v="10824"/><tag k="coa:place_id" v="163210"/></node><node id="-120" lat="30.132272" lon="-97.779214" changeset="false"><tag k="addr:street" v="County Down Drive"/><tag k="addr:housenumber" v="11101"/><tag k="coa:place_id" v="3029281"/></node><node id="-121" lat="30.13423" lon="-97.778415" changeset="false"><tag k="addr:street" v="Ballybunion Place"/><tag k="addr:housenumber" v="10925"/><tag k="coa:place_id" v="163243"/></node><node id="-122" lat="30.131421" lon="-97.783733" changeset="false"><tag k="addr:street" v="Champions Lane"/><tag k="addr:housenumber" v="11108"/><tag k="coa:place_id" v="95940"/></node><node id="-123" lat="30.131523" lon="-97.783736" changeset="false"><tag k="addr:street" v="Pinehurst Drive,1100"/><tag k="addr:housenumber" v="11222"/><tag k="coa:place_id" v="111141"/></node><node id="-124" lat="30.131404" lon="-97.783716" changeset="false"><tag k="addr:street" v="Champions Lane"/><tag k="addr:housenumber" v="11106"/><tag k="coa:place_id" v="95941"/></node><node id="-125" lat="30.134146" lon="-97.784778" changeset="false"><tag k="addr:street" v="Pinehurst Drive,1100"/><tag k="addr:housenumber" v="4627"/><tag k="coa:place_id" v="909147"/></node><node id="-126" lat="30.134111" lon="-97.784834" changeset="false"><tag k="addr:street" v="Merion Cricket Drive"/><tag k="addr:housenumber" v="4601"/><tag k="coa:place_id" v="189447"/></node><node id="-127" lat="30.134259" lon="-97.784822" changeset="false"><tag k="addr:street" v="Pinehurst Drive,1100"/><tag k="addr:housenumber" v="4625"/><tag k="coa:place_id" v="248964"/></node><node id="-128" lat="30.141184" lon="-97.787958" changeset="false"><tag k="addr:street" v="Legends Lane"/><tag k="addr:housenumber" v="10627"/><tag k="coa:place_id" v="317523"/></node><node id="-129" lat="30.141242" lon="-97.787849" changeset="false"><tag k="addr:street" v="Legends Lane"/><tag k="addr:housenumber" v="10625"/><tag k="coa:place_id" v="354711"/></node><node id="-130" lat="30.139774" lon="-97.793816" changeset="false"><tag k="addr:street" v="Crown Colony Drive"/><tag k="addr:housenumber" v="10901"/><tag k="coa:place_id" v="534099"/></node><node id="-131" lat="30.139699" lon="-97.793779" changeset="false"><tag k="addr:street" v="Crown Colony Drive"/><tag k="addr:housenumber" v="10903"/><tag k="coa:place_id" v="534081"/></node><node id="-132" lat="30.139077" lon="-97.793631" changeset="false"><tag k="addr:street" v="Crown Colony Drive"/><tag k="addr:housenumber" v="10911"/><tag k="coa:place_id" v="494433"/></node><node id="-133" lat="30.139168" lon="-97.793649" changeset="false"><tag k="addr:street" v="Crown Colony Drive"/><tag k="addr:housenumber" v="10909"/><tag k="coa:place_id" v="534045"/></node><node id="-134" lat="30.139188" lon="-97.794247" changeset="false"><tag k="addr:street" v="Crown Colony Drive"/><tag k="addr:housenumber" v="10902"/><tag k="coa:place_id" v="551445"/></node><node id="-135" lat="30.139277" lon="-97.794303" changeset="false"><tag k="addr:street" v="Crown Colony Drive"/><tag k="addr:housenumber" v="10900"/><tag k="coa:place_id" v="244473"/></node><node id="-136" lat="30.139474" lon="-97.793714" changeset="false"><tag k="addr:street" v="Crown Colony Drive"/><tag k="addr:housenumber" v="10905"/><tag k="coa:place_id" v="534069"/></node><node id="-137" lat="30.139389" lon="-97.793701" changeset="false"><tag k="addr:street" v="Crown Colony Drive"/><tag k="addr:housenumber" v="10907"/><tag k="coa:place_id" v="534063"/></node><node id="-138" lat="30.138551" lon="-97.793626" changeset="false"><tag k="addr:street" v="Crown Colony Drive"/><tag k="addr:housenumber" v="10917"/><tag k="coa:place_id" v="490839"/></node><node id="-139" lat="30.138479" lon="-97.793618" changeset="false"><tag k="addr:street" v="Crown Colony Drive"/><tag k="addr:housenumber" v="10919"/><tag k="coa:place_id" v="455829"/></node><node id="-140" lat="30.138188" lon="-97.793672" changeset="false"><tag k="addr:street" v="Crown Colony Drive"/><tag k="addr:housenumber" v="10923"/><tag k="coa:place_id" v="490851"/></node><node id="-141" lat="30.138255" lon="-97.793662" changeset="false"><tag k="addr:street" v="Crown Colony Drive"/><tag k="addr:housenumber" v="10921"/><tag k="coa:place_id" v="490845"/></node><node id="-142" lat="30.138862" lon="-97.79361" changeset="false"><tag k="addr:street" v="Crown Colony Drive"/><tag k="addr:housenumber" v="10913"/><tag k="coa:place_id" v="604311"/></node><node id="-143" lat="30.138782" lon="-97.793588" changeset="false"><tag k="addr:street" v="Crown Colony Drive"/><tag k="addr:housenumber" v="10915"/><tag k="coa:place_id" v="490833"/></node><node id="-144" lat="30.137425" lon="-97.793818" changeset="false"><tag k="addr:street" v="Crown Colony Drive"/><tag k="addr:housenumber" v="10933"/><tag k="coa:place_id" v="423039"/></node><node id="-145" lat="30.137336" lon="-97.793839" changeset="false"><tag k="addr:street" v="Crown Colony Drive"/><tag k="addr:housenumber" v="10935"/><tag k="coa:place_id" v="423045"/></node><node id="-146" lat="30.137892" lon="-97.793716" changeset="false"><tag k="addr:street" v="Crown Colony Drive"/><tag k="addr:housenumber" v="10927"/><tag k="coa:place_id" v="423063"/></node><node id="-147" lat="30.137978" lon="-97.79371" changeset="false"><tag k="addr:street" v="Crown Colony Drive"/><tag k="addr:housenumber" v="10925"/><tag k="coa:place_id" v="423069"/></node><node id="-148" lat="30.137629" lon="-97.793862" changeset="false"><tag k="addr:street" v="Crown Colony Drive"/><tag k="addr:housenumber" v="10931"/><tag k="coa:place_id" v="498627"/></node><node id="-149" lat="30.137711" lon="-97.793856" changeset="false"><tag k="addr:street" v="Crown Colony Drive"/><tag k="addr:housenumber" v="10929"/><tag k="coa:place_id" v="493989"/></node><node id="-150" lat="30.136627" lon="-97.793127" changeset="false"><tag k="addr:street" v="Pinehurst Drive,1100"/><tag k="addr:housenumber" v="11001"/><tag k="coa:place_id" v="969566"/></node><node id="-151" lat="30.136465" lon="-97.793163" changeset="false"><tag k="addr:street" v="Pinehurst Drive,1100"/><tag k="addr:housenumber" v="11005"/><tag k="coa:place_id" v="921770"/></node><node id="-152" lat="30.13625" lon="-97.793242" changeset="false"><tag k="addr:street" v="Pinehurst Drive,1100"/><tag k="addr:housenumber" v="11009"/><tag k="coa:place_id" v="833750"/></node><node id="-153" lat="30.136316" lon="-97.793102" changeset="false"><tag k="addr:street" v="Pinehurst Drive,1100"/><tag k="addr:housenumber" v="11007"/><tag k="coa:place_id" v="833786"/></node><node id="-154" lat="30.136116" lon="-97.793155" changeset="false"><tag k="addr:street" v="Pinehurst Drive,1100"/><tag k="addr:housenumber" v="11011"/><tag k="coa:place_id" v="833792"/></node><node id="-155" lat="30.136526" lon="-97.793027" changeset="false"><tag k="addr:street" v="Pinehurst Drive,1100"/><tag k="addr:housenumber" v="11003"/><tag k="coa:place_id" v="1022054"/></node><node id="-156" lat="30.136048" lon="-97.793324" changeset="false"><tag k="addr:street" v="Pinehurst Drive,1100"/><tag k="addr:housenumber" v="11013"/><tag k="coa:place_id" v="833756"/></node></osm>