<?xml version="1.0" encoding="UTF-8"?><osm version="0.6" generator="github.com/aaronlidman/osm-and-geojson"><node id="-1" lat="30.329813" lon="-97.706525" changeset="false"><tag k="addr:street" v="East Huntland Drive"/><tag k="addr:housenumber" v="713"/><tag k="coa:place_id" v="101959"/></node><node id="-2" lat="30.330716" lon="-97.70634" changeset="false"><tag k="addr:street" v="East Huntland Drive"/><tag k="addr:housenumber" v="712"/><tag k="coa:place_id" v="3261945"/></node><node id="-3" lat="30.332483" lon="-97.705238" changeset="false"><tag k="addr:street" v="North Interstate Highway  35 Service Road"/><tag k="addr:housenumber" v="7100"/><tag k="coa:place_id" v="236876"/></node><node id="-4" lat="30.33331" lon="-97.706904" changeset="false"><tag k="addr:street" v="East Saint John's Avenue"/><tag k="addr:housenumber" v="601"/><tag k="coa:place_id" v="236870"/></node><node id="-5" lat="30.322867" lon="-97.708374" changeset="false"><tag k="addr:street" v="North Interstate Highway  35 Service Road"/><tag k="addr:housenumber" v="6010"/><tag k="coa:place_id" v="3033209"/></node><node id="-6" lat="30.324796" lon="-97.707735" changeset="false"><tag k="addr:street" v="North Interstate Highway  35 Service Road"/><tag k="addr:housenumber" v="6406"/><tag k="coa:place_id" v="110902"/></node><node id="-7" lat="30.331393" lon="-97.709283" changeset="false"><tag k="addr:street" v="Twin Crest Drive"/><tag k="addr:housenumber" v="6801"/><tag k="coa:place_id" v="3125199"/></node><node id="-8" lat="30.32258" lon="-97.709371" changeset="false"><tag k="addr:street" v="Middle Fiskville Road"/><tag k="addr:housenumber" v="6001"/><tag k="coa:place_id" v="355077"/></node><node id="-9" lat="30.323365" lon="-97.709065" changeset="false"><tag k="addr:street" v="Tirado Street"/><tag k="addr:housenumber" v="815"/><tag k="coa:place_id" v="776942"/></node><node id="-10" lat="30.324695" lon="-97.710244" changeset="false"><tag k="addr:street" v="Middle Fiskville Road"/><tag k="addr:housenumber" v="6200"/><tag k="coa:place_id" v="922196"/></node><node id="-11" lat="30.327357" lon="-97.710465" changeset="false"><tag k="addr:street" v="East Highland Mall Boulevard"/><tag k="addr:housenumber" v="523"/><tag k="coa:place_id" v="236408"/></node><node id="-12" lat="30.321899" lon="-97.71053" changeset="false"><tag k="addr:street" v="East Koenig Lane,1110"/><tag k="addr:housenumber" v="916"/><tag k="coa:place_id" v="232336"/></node><node id="-13" lat="30.33028" lon="-97.710468" changeset="false"><tag k="addr:street" v="East Huntland Drive"/><tag k="addr:housenumber" v="305"/><tag k="coa:place_id" v="187269"/></node><node id="-14" lat="30.331231" lon="-97.710103" changeset="false"><tag k="addr:street" v="East Huntland Drive"/><tag k="addr:housenumber" v="300"/><tag k="coa:place_id" v="236462"/></node><node id="-15" lat="30.331597" lon="-97.711997" changeset="false"><tag k="addr:street" v="Esther Drive"/><tag k="addr:housenumber" v="6807"/><tag k="coa:place_id" v="854126"/></node><node id="-16" lat="30.331804" lon="-97.711642" changeset="false"><tag k="addr:street" v="Esther Drive"/><tag k="addr:housenumber" v="6811"/><tag k="coa:place_id" v="854138"/></node><node id="-17" lat="30.331692" lon="-97.711804" changeset="false"><tag k="addr:street" v="Esther Drive"/><tag k="addr:housenumber" v="6809"/><tag k="coa:place_id" v="854132"/></node><node id="-18" lat="30.331013" lon="-97.711289" changeset="false"><tag k="addr:street" v="East Huntland Drive"/><tag k="addr:housenumber" v="200"/><tag k="coa:place_id" v="959865"/></node><node id="-19" lat="30.330919" lon="-97.712232" changeset="false"><tag k="addr:street" v="East Huntland Drive"/><tag k="addr:housenumber" v="116"/><tag k="coa:place_id" v="853298"/></node><node id="-20" lat="30.331512" lon="-97.712177" changeset="false"><tag k="addr:street" v="Esther Drive"/><tag k="addr:housenumber" v="6805"/><tag k="coa:place_id" v="854120"/></node><node id="-21" lat="30.331401" lon="-97.712807" changeset="false"><tag k="addr:street" v="Esther Drive"/><tag k="addr:housenumber" v="6717"/><tag k="coa:place_id" v="854102"/></node><node id="-22" lat="30.331419" lon="-97.71259" changeset="false"><tag k="addr:street" v="Esther Drive"/><tag k="addr:housenumber" v="6801"/><tag k="coa:place_id" v="854108"/></node><node id="-23" lat="30.331483" lon="-97.712369" changeset="false"><tag k="addr:street" v="Esther Drive"/><tag k="addr:housenumber" v="6803"/><tag k="coa:place_id" v="854114"/></node><node id="-24" lat="30.322652" lon="-97.712182" changeset="false"><tag k="addr:street" v="Middle Fiskville Road"/><tag k="addr:housenumber" v="5930"/><tag k="coa:place_id" v="510171"/></node><node id="-25" lat="30.32898" lon="-97.712349" changeset="false"><tag k="addr:street" v="East Highland Mall Boulevard"/><tag k="addr:housenumber" v="200"/><tag k="coa:place_id" v="776936"/></node><node id="-26" lat="30.330865" lon="-97.713046" changeset="false"><tag k="addr:street" v="East Huntland Drive"/><tag k="addr:housenumber" v="104"/><tag k="coa:place_id" v="853286"/></node><node id="-27" lat="30.330885" lon="-97.712584" changeset="false"><tag k="addr:street" v="East Huntland Drive"/><tag k="addr:housenumber" v="114"/><tag k="coa:place_id" v="236444"/></node><node id="-28" lat="30.331377" lon="-97.713217" changeset="false"><tag k="addr:street" v="Esther Drive"/><tag k="addr:housenumber" v="6713"/><tag k="coa:place_id" v="854090"/></node><node id="-29" lat="30.331389" lon="-97.713009" changeset="false"><tag k="addr:street" v="Esther Drive"/><tag k="addr:housenumber" v="6715"/><tag k="coa:place_id" v="854096"/></node><node id="-30" lat="30.331585" lon="-97.714263" changeset="false"><tag k="addr:street" v="Esther Drive"/><tag k="addr:housenumber" v="6703"/><tag k="coa:place_id" v="854060"/></node><node id="-31" lat="30.331704" lon="-97.71456" changeset="false"><tag k="addr:street" v="Isabelle Drive"/><tag k="addr:housenumber" v="6629"/><tag k="coa:place_id" v="853328"/></node><node id="-32" lat="30.331404" lon="-97.713625" changeset="false"><tag k="addr:street" v="Esther Drive"/><tag k="addr:housenumber" v="6709"/><tag k="coa:place_id" v="854078"/></node><node id="-33" lat="30.331379" lon="-97.71344" changeset="false"><tag k="addr:street" v="Esther Drive"/><tag k="addr:housenumber" v="6711"/><tag k="coa:place_id" v="854084"/></node><node id="-34" lat="30.331507" lon="-97.714615" changeset="false"><tag k="addr:street" v="Isabelle Drive"/><tag k="addr:housenumber" v="6627"/><tag k="coa:place_id" v="853322"/></node><node id="-35" lat="30.33145" lon="-97.713845" changeset="false"><tag k="addr:street" v="Esther Drive"/><tag k="addr:housenumber" v="6707"/><tag k="coa:place_id" v="854072"/></node><node id="-36" lat="30.331523" lon="-97.714044" changeset="false"><tag k="addr:street" v="Esther Drive"/><tag k="addr:housenumber" v="6705"/><tag k="coa:place_id" v="556750"/></node><node id="-37" lat="30.323424" lon="-97.715046" changeset="false"><tag k="addr:street" v="Airport Boulevard"/><tag k="addr:housenumber" v="5821"/><tag k="coa:place_id" v="273694"/></node><node id="-38" lat="30.329358" lon="-97.71358" changeset="false"><tag k="addr:street" v="Airport Boulevard"/><tag k="addr:housenumber" v="6505"/><tag k="coa:place_id" v="544983"/></node><node id="-39" lat="30.322307" lon="-97.713791" changeset="false"><tag k="addr:street" v="Airport Boulevard"/><tag k="addr:housenumber" v="5775"/><tag k="coa:place_id" v="173674"/></node><node id="-40" lat="30.330139" lon="-97.715085" changeset="false"><tag k="addr:street" v="Airport Boulevard"/><tag k="addr:housenumber" v="6515"/><tag k="coa:place_id" v="3147520"/></node></osm>