<?xml version="1.0" encoding="UTF-8"?><osm version="0.6" generator="github.com/aaronlidman/osm-and-geojson"><node id="-1" lat="30.285872" lon="-97.751277" changeset="false"><tag k="addr:street" v="Longview Street"/><tag k="addr:housenumber" v="2200"/><tag k="coa:place_id" v="390050"/></node><node id="-2" lat="30.288221" lon="-97.751165" changeset="false"><tag k="addr:street" v="Shoal Creek Boulevard"/><tag k="addr:housenumber" v="2317"/><tag k="coa:place_id" v="589574"/></node><node id="-3" lat="30.287372" lon="-97.751324" changeset="false"><tag k="addr:street" v="Shoal Creek Boulevard"/><tag k="addr:housenumber" v="2311"/><tag k="coa:place_id" v="390218"/></node><node id="-4" lat="30.284477" lon="-97.749724" changeset="false"><tag k="addr:street" v="Robbins Place"/><tag k="addr:housenumber" v="1906"/><tag k="coa:place_id" v="273596"/></node><node id="-5" lat="30.285119" lon="-97.750904" changeset="false"><tag k="addr:street" v="David Street"/><tag k="addr:housenumber" v="1910"/><tag k="coa:place_id" v="273404"/></node><node id="-6" lat="30.285232" lon="-97.748489" changeset="false"><tag k="addr:street" v="San Gabriel Street"/><tag k="addr:housenumber" v="2108"/><tag k="coa:place_id" v="273902"/></node><node id="-7" lat="30.285885" lon="-97.749752" changeset="false"><tag k="addr:street" v="Leon Street"/><tag k="addr:housenumber" v="2200"/><tag k="coa:place_id" v="247296"/></node><node id="-8" lat="30.287151" lon="-97.752002" changeset="false"><tag k="addr:street" v="Shoal Creek Boulevard"/><tag k="addr:housenumber" v="2305"/><tag k="coa:place_id" v="505006"/></node><node id="-9" lat="30.284921" lon="-97.750921" changeset="false"><tag k="addr:street" v="David Street"/><tag k="addr:housenumber" v="1906"/><tag k="coa:place_id" v="273398"/></node><node id="-10" lat="30.286219" lon="-97.74829" changeset="false"><tag k="addr:street" v="San Gabriel Street"/><tag k="addr:housenumber" v="2208"/><tag k="coa:place_id" v="350084"/></node><node id="-11" lat="30.287532" lon="-97.750817" changeset="false"><tag k="addr:street" v="Longview Street"/><tag k="addr:housenumber" v="2308"/><tag k="coa:place_id" v="390194"/></node><node id="-12" lat="30.285128" lon="-97.75204" changeset="false"><tag k="addr:street" v="Cliff Street"/><tag k="addr:housenumber" v="1908"/><tag k="coa:place_id" v="273302"/></node><node id="-13" lat="30.285344" lon="-97.748177" changeset="false"><tag k="addr:street" v="West 22nd Street"/><tag k="addr:housenumber" v="1001"/><tag k="coa:place_id" v="150510"/></node><node id="-14" lat="30.284082" lon="-97.749662" changeset="false"><tag k="addr:street" v="Robbins Place"/><tag k="addr:housenumber" v="1900"/><tag k="coa:place_id" v="273548"/></node><node id="-15" lat="30.285413" lon="-97.750878" changeset="false"><tag k="addr:street" v="David Street"/><tag k="addr:housenumber" v="1914"/><tag k="coa:place_id" v="273416"/></node><node id="-16" lat="30.285998" lon="-97.750979" changeset="false"><tag k="addr:street" v="West 22nd Street"/><tag k="addr:housenumber" v="1114"/><tag k="coa:place_id" v="389600"/></node><node id="-17" lat="30.283168" lon="-97.751907" changeset="false"><tag k="addr:street" v="North Lamar Boulevard"/><tag k="addr:housenumber" v="1806"/><tag k="coa:place_id" v="89270"/></node><node id="-18" lat="30.288017" lon="-97.750386" changeset="false"><tag k="addr:street" v="Longview Street"/><tag k="addr:housenumber" v="2317"/><tag k="coa:place_id" v="589532"/></node><node id="-19" lat="30.284883" lon="-97.748505" changeset="false"><tag k="addr:street" v="San Gabriel Street"/><tag k="addr:housenumber" v="2102"/><tag k="coa:place_id" v="273890"/></node><node id="-20" lat="30.286629" lon="-97.752702" changeset="false"><tag k="addr:street" v="Shoal Creek Boulevard"/><tag k="addr:housenumber" v="2209"/><tag k="coa:place_id" v="390260"/></node><node id="-21" lat="30.28609" lon="-97.751325" changeset="false"><tag k="addr:street" v="Longview Street"/><tag k="addr:housenumber" v="2202"/><tag k="coa:place_id" v="390056"/></node><node id="-22" lat="30.285275" lon="-97.75089" changeset="false"><tag k="addr:street" v="David Street"/><tag k="addr:housenumber" v="1912"/><tag k="coa:place_id" v="273410"/></node><node id="-23" lat="30.285191" lon="-97.749728" changeset="false"><tag k="addr:street" v="Robbins Place"/><tag k="addr:housenumber" v="1916"/><tag k="coa:place_id" v="249913"/></node><node id="-24" lat="30.287211" lon="-97.751546" changeset="false"><tag k="addr:street" v="Shoal Creek Boulevard"/><tag k="addr:housenumber" v="2309"/><tag k="coa:place_id" v="390224"/></node><node id="-25" lat="30.28605" lon="-97.751655" changeset="false"><tag k="addr:street" v="West 22nd Street"/><tag k="addr:housenumber" v="1204"/><tag k="coa:place_id" v="253235"/></node><node id="-26" lat="30.284453" lon="-97.7491" changeset="false"><tag k="addr:street" v="Robbins Place"/><tag k="addr:housenumber" v="1907"/><tag k="coa:place_id" v="474824"/></node><node id="-27" lat="30.286369" lon="-97.752777" changeset="false"><tag k="addr:street" v="North Lamar Boulevard"/><tag k="addr:housenumber" v="2205"/><tag k="coa:place_id" v="390266"/></node><node id="-28" lat="30.287188" lon="-97.751789" changeset="false"><tag k="addr:street" v="Shoal Creek Boulevard"/><tag k="addr:housenumber" v="2307"/><tag k="coa:place_id" v="390230"/></node><node id="-29" lat="30.287119" lon="-97.750394" changeset="false"><tag k="addr:street" v="Longview Street"/><tag k="addr:housenumber" v="2305"/><tag k="coa:place_id" v="247488"/></node><node id="-30" lat="30.285395" lon="-97.751484" changeset="false"><tag k="addr:street" v="Cliff Street"/><tag k="addr:housenumber" v="1913"/><tag k="coa:place_id" v="274112"/></node><node id="-31" lat="30.286038" lon="-97.751496" changeset="false"><tag k="addr:street" v="West 22nd Street"/><tag k="addr:housenumber" v="1202"/><tag k="coa:place_id" v="390038"/></node><node id="-32" lat="30.285979" lon="-97.750722" changeset="false"><tag k="addr:street" v="West 22nd Street"/><tag k="addr:housenumber" v="1110"/><tag k="coa:place_id" v="378861"/></node><node id="-33" lat="30.283975" lon="-97.749019" changeset="false"><tag k="addr:street" v="West Martin Luther King Jr Boulevard"/><tag k="addr:housenumber" v="1014"/><tag k="coa:place_id" v="60586"/></node><node id="-34" lat="30.285943" lon="-97.74938" changeset="false"><tag k="addr:street" v="Leon Street"/><tag k="addr:housenumber" v="2203"/><tag k="coa:place_id" v="389474"/></node><node id="-35" lat="30.285032" lon="-97.751515" changeset="false"><tag k="addr:street" v="Cliff Street"/><tag k="addr:housenumber" v="1907"/><tag k="coa:place_id" v="273362"/></node><node id="-36" lat="30.286068" lon="-97.751882" changeset="false"><tag k="addr:street" v="West 22nd Street"/><tag k="addr:housenumber" v="1208"/><tag k="coa:place_id" v="390020"/></node><node id="-37" lat="30.285033" lon="-97.749656" changeset="false"><tag k="addr:street" v="Robbins Place"/><tag k="addr:housenumber" v="1914"/><tag k="coa:place_id" v="249912"/></node><node id="-38" lat="30.285294" lon="-97.752785" changeset="false"><tag k="addr:street" v="North Lamar Boulevard"/><tag k="addr:housenumber" v="2003"/><tag k="coa:place_id" v="388970"/></node><node id="-39" lat="30.284059" lon="-97.750028" changeset="false"><tag k="addr:street" v="West Martin Luther King Jr Boulevard"/><tag k="addr:housenumber" v="1120"/><tag k="coa:place_id" v="273542"/></node><node id="-40" lat="30.283819" lon="-97.748618" changeset="false"><tag k="addr:street" v="San Gabriel Street"/><tag k="addr:housenumber" v="1900"/><tag k="coa:place_id" v="202708"/></node><node id="-41" lat="30.284003" lon="-97.748601" changeset="false"><tag k="addr:street" v="San Gabriel Street"/><tag k="addr:housenumber" v="1902"/><tag k="coa:place_id" v="273782"/></node><node id="-42" lat="30.283792" lon="-97.748508" changeset="false"><tag k="addr:street" v="San Gabriel Street"/><tag k="addr:housenumber" v="1910"/><tag k="coa:place_id" v="474818"/></node><node id="-43" lat="30.287455" lon="-97.749217" changeset="false"><tag k="addr:street" v="Leon Street"/><tag k="addr:housenumber" v="2301 1/2"/><tag k="coa:place_id" v="3179822"/></node><node id="-44" lat="30.287436" lon="-97.74906" changeset="false"><tag k="addr:street" v="West 23rd Street"/><tag k="addr:housenumber" v="1010"/><tag k="coa:place_id" v="350420"/></node><node id="-45" lat="30.285322" lon="-97.749512" changeset="false"><tag k="addr:street" v="Robbins Place"/><tag k="addr:housenumber" v="1918"/><tag k="coa:place_id" v="249915"/></node><node id="-46" lat="30.285399" lon="-97.749533" changeset="false"><tag k="addr:street" v="West 22nd Street"/><tag k="addr:housenumber" v="1101"/><tag k="coa:place_id" v="389546"/></node><node id="-47" lat="30.284315" lon="-97.749113" changeset="false"><tag k="addr:street" v="Robbins Place"/><tag k="addr:housenumber" v="1905"/><tag k="coa:place_id" v="249906"/></node><node id="-48" lat="30.284178" lon="-97.749124" changeset="false"><tag k="addr:street" v="Robbins Place"/><tag k="addr:housenumber" v="1903"/><tag k="coa:place_id" v="273758"/></node><node id="-49" lat="30.284917" lon="-97.749669" changeset="false"><tag k="addr:street" v="Robbins Place"/><tag k="addr:housenumber" v="1912"/><tag k="coa:place_id" v="273662"/></node><node id="-50" lat="30.284769" lon="-97.749613" changeset="false"><tag k="addr:street" v="Robbins Place"/><tag k="addr:housenumber" v="1910"/><tag k="coa:place_id" v="91102"/></node><node id="-51" lat="30.284612" lon="-97.749717" changeset="false"><tag k="addr:street" v="Robbins Place"/><tag k="addr:housenumber" v="1908"/><tag k="coa:place_id" v="249907"/></node><node id="-52" lat="30.285539" lon="-97.751328" changeset="false"><tag k="addr:street" v="West 22nd Street"/><tag k="addr:housenumber" v="1209"/><tag k="coa:place_id" v="253237"/></node><node id="-53" lat="30.285544" lon="-97.751249" changeset="false"><tag k="addr:street" v="West 22nd Street"/><tag k="addr:housenumber" v="1207"/><tag k="coa:place_id" v="253236"/></node></osm>