<?xml version="1.0" encoding="UTF-8"?><osm version="0.6" generator="github.com/aaronlidman/osm-and-geojson"><node id="-1" lat="30.371308" lon="-97.692761" changeset="false"><tag k="addr:street" v="North Lamar Boulevard"/><tag k="addr:housenumber" v="10200"/><tag k="addr:postcode" v="78758"/></node><node id="-2" lat="30.373257" lon="-97.691726" changeset="false"><tag k="addr:street" v="North Lamar Boulevard"/><tag k="addr:housenumber" v="10412"/><tag k="addr:postcode" v="78758"/></node><node id="-3" lat="30.371155" lon="-97.694214" changeset="false"><tag k="addr:street" v="Ken Street"/><tag k="addr:housenumber" v="810"/><tag k="addr:postcode" v="78758"/></node><node id="-4" lat="30.374272" lon="-97.693104" changeset="false"><tag k="addr:street" v="Sagebrush Drive"/><tag k="addr:housenumber" v="849"/><tag k="addr:postcode" v="78758"/></node><node id="-5" lat="30.373454" lon="-97.691525" changeset="false"><tag k="addr:street" v="Sagebrush Drive"/><tag k="addr:housenumber" v="805"/><tag k="addr:postcode" v="78758"/></node><node id="-6" lat="30.372371" lon="-97.692136" changeset="false"><tag k="addr:street" v="North Lamar Boulevard"/><tag k="addr:housenumber" v="10302"/><tag k="addr:postcode" v="78758"/></node><node id="-7" lat="30.37497" lon="-97.694692" changeset="false"><tag k="addr:street" v="Sagebrush Drive"/><tag k="addr:housenumber" v="915"/><tag k="addr:postcode" v="78758"/></node><node id="-8" lat="30.37316" lon="-97.691861" changeset="false"><tag k="addr:street" v="North Lamar Boulevard"/><tag k="addr:housenumber" v="10400"/><tag k="addr:postcode" v="78758"/></node><node id="-9" lat="30.375804" lon="-97.698994" changeset="false"><tag k="addr:street" v="Aspen Street"/><tag k="addr:housenumber" v="10305"/><tag k="addr:postcode" v="78758"/></node><node id="-10" lat="30.382424" lon="-97.694481" changeset="false"><tag k="addr:street" v="Kramer Lane"/><tag k="addr:housenumber" v="1201"/><tag k="addr:postcode" v="78758"/></node><node id="-11" lat="30.371904" lon="-97.692466" changeset="false"><tag k="addr:street" v="North Lamar Boulevard"/><tag k="addr:housenumber" v="10210"/><tag k="addr:postcode" v="78758"/></node><node id="-12" lat="30.382304" lon="-97.694675" changeset="false"><tag k="addr:street" v="Kramer Lane"/><tag k="addr:housenumber" v="1203"/><tag k="addr:postcode" v="78758"/></node><node id="-13" lat="30.370726" lon="-97.69362" changeset="false"><tag k="addr:street" v="Ken Street"/><tag k="addr:housenumber" v="806"/><tag k="addr:postcode" v="78758"/></node><node id="-14" lat="30.373141" lon="-97.69378" changeset="false"><tag k="addr:street" v="Ray Avenue"/><tag k="addr:housenumber" v="10311"/><tag k="addr:postcode" v="78758"/></node><node id="-15" lat="30.37381" lon="-97.692244" changeset="false"><tag k="addr:street" v="Sagebrush Drive"/><tag k="addr:housenumber" v="833"/><tag k="addr:postcode" v="78758"/></node><node id="-16" lat="30.382416" lon="-97.694165" changeset="false"><tag k="addr:street" v="Plains Trail"/><tag k="addr:housenumber" v="11002"/><tag k="addr:postcode" v="78758"/></node><node id="-17" lat="30.3744" lon="-97.693579" changeset="false"><tag k="addr:street" v="Sagebrush Drive"/><tag k="addr:housenumber" v="903"/><tag k="addr:postcode" v="78758"/></node><node id="-18" lat="30.381558" lon="-97.696862" changeset="false"><tag k="addr:street" v="Meadgreen Drive"/><tag k="addr:housenumber" v="1303"/><tag k="addr:postcode" v="78758"/></node><node id="-19" lat="30.374884" lon="-97.694511" changeset="false"><tag k="addr:street" v="Sagebrush Drive"/><tag k="addr:housenumber" v="913"/><tag k="addr:postcode" v="78758"/></node></osm>