<?xml version="1.0" encoding="UTF-8"?><osm version="0.6" generator="github.com/aaronlidman/osm-and-geojson"><node id="-1" lat="30.444279" lon="-97.822566" changeset="false"><tag k="addr:street" v="Conchos Trail"/><tag k="addr:housenumber" v="11211"/><tag k="addr:postcode" v="78726"/></node><node id="-2" lat="30.448168" lon="-97.823545" changeset="false"><tag k="addr:street" v="Antler Lane"/><tag k="addr:housenumber" v="11203"/><tag k="addr:postcode" v="78726"/></node><node id="-3" lat="30.445433" lon="-97.825181" changeset="false"><tag k="addr:street" v="Turtle Lane"/><tag k="addr:housenumber" v="11500"/><tag k="addr:postcode" v="78726"/></node><node id="-4" lat="30.450839" lon="-97.821566" changeset="false"><tag k="addr:street" v="Antler Lane"/><tag k="addr:housenumber" v="11501"/><tag k="addr:postcode" v="78726"/></node><node id="-5" lat="30.450565" lon="-97.821002" changeset="false"><tag k="addr:street" v="Monet Drive"/><tag k="addr:housenumber" v="11412"/><tag k="addr:postcode" v="78726"/></node><node id="-6" lat="30.446741" lon="-97.817464" changeset="false"><tag k="addr:street" v="Randy Road"/><tag k="addr:housenumber" v="11301"/><tag k="addr:postcode" v="78726"/></node><node id="-7" lat="30.439577" lon="-97.821323" changeset="false"><tag k="addr:street" v="Crossland Drive"/><tag k="addr:housenumber" v="11006"/><tag k="addr:postcode" v="78726"/></node><node id="-8" lat="30.440636" lon="-97.817822" changeset="false"><tag k="addr:street" v="Conchos Trail"/><tag k="addr:housenumber" v="10804"/><tag k="addr:postcode" v="78726"/></node><node id="-9" lat="30.443722" lon="-97.824338" changeset="false"><tag k="addr:street" v="Laurel Creek Drive"/><tag k="addr:housenumber" v="10814"/><tag k="addr:postcode" v="78726"/></node><node id="-10" lat="30.448814" lon="-97.822144" changeset="false"><tag k="addr:street" v="Monet Drive"/><tag k="addr:housenumber" v="11312"/><tag k="addr:postcode" v="78726"/></node><node id="-11" lat="30.444956" lon="-97.819958" changeset="false"><tag k="addr:street" v="Centennial Trail"/><tag k="addr:housenumber" v="10913"/><tag k="addr:postcode" v="78726"/></node><node id="-12" lat="30.441045" lon="-97.826735" changeset="false"><tag k="addr:street" v="Marbury Court"/><tag k="addr:housenumber" v="10601"/><tag k="addr:postcode" v="78726"/></node><node id="-13" lat="30.448327" lon="-97.817632" changeset="false"><tag k="addr:street" v="Randy Road"/><tag k="addr:housenumber" v="11402"/><tag k="addr:postcode" v="78726"/></node><node id="-14" lat="30.44338" lon="-97.822908" changeset="false"><tag k="addr:street" v="Conchos Cove"/><tag k="addr:housenumber" v="11120"/><tag k="addr:postcode" v="78726"/></node><node id="-15" lat="30.443145" lon="-97.821255" changeset="false"><tag k="addr:street" v="Conchos Trail"/><tag k="addr:housenumber" v="11009"/><tag k="addr:postcode" v="78726"/></node><node id="-16" lat="30.442928" lon="-97.826681" changeset="false"><tag k="addr:street" v="Hare Trail"/><tag k="addr:housenumber" v="11403"/><tag k="addr:postcode" v="78726"/></node><node id="-17" lat="30.441138" lon="-97.819632" changeset="false"><tag k="addr:street" v="Conchos Trail"/><tag k="addr:housenumber" v="10905"/><tag k="addr:postcode" v="78726"/></node><node id="-18" lat="30.44921" lon="-97.815917" changeset="false"><tag k="addr:street" v="Anderson Mill Road"/><tag k="addr:housenumber" v="11005"/><tag k="addr:postcode" v="78726"/></node><node id="-19" lat="30.448398" lon="-97.81525" changeset="false"><tag k="addr:street" v="Sawatch Circle"/><tag k="addr:housenumber" v="11502"/><tag k="addr:postcode" v="78726"/></node><node id="-20" lat="30.44249" lon="-97.819967" changeset="false"><tag k="addr:street" v="Conchos Trail"/><tag k="addr:housenumber" v="10916"/><tag k="addr:postcode" v="78726"/></node><node id="-21" lat="30.445919" lon="-97.821495" changeset="false"><tag k="addr:street" v="Laurel Creek Drive"/><tag k="addr:housenumber" v="11121"/><tag k="addr:postcode" v="78726"/></node><node id="-22" lat="30.44664" lon="-97.820141" changeset="false"><tag k="addr:street" v="Centennial Trail"/><tag k="addr:housenumber" v="10810"/><tag k="addr:postcode" v="78726"/></node><node id="-23" lat="30.443842" lon="-97.821774" changeset="false"><tag k="addr:street" v="Conchos Trail"/><tag k="addr:housenumber" v="11109"/><tag k="addr:postcode" v="78726"/></node><node id="-24" lat="30.443202" lon="-97.827285" changeset="false"><tag k="addr:street" v="Hare Trail"/><tag k="addr:housenumber" v="11407"/><tag k="addr:postcode" v="78726"/></node><node id="-25" lat="30.448536" lon="-97.823087" changeset="false"><tag k="addr:street" v="Antler Lane"/><tag k="addr:housenumber" v="11207"/><tag k="addr:postcode" v="78726"/></node><node id="-26" lat="30.442472" lon="-97.828651" changeset="false"><tag k="addr:street" v="Boulder Lane"/><tag k="addr:housenumber" v="11502"/><tag k="addr:postcode" v="78726"/></node><node id="-27" lat="30.442284" lon="-97.819133" changeset="false"><tag k="addr:street" v="Conchos Trail"/><tag k="addr:housenumber" v="10910"/><tag k="addr:postcode" v="78726"/></node><node id="-28" lat="30.450055" lon="-97.818384" changeset="false"><tag k="addr:street" v="Anderson Mill Road"/><tag k="addr:housenumber" v="11203"/><tag k="addr:postcode" v="78726"/></node><node id="-29" lat="30.444424" lon="-97.822957" changeset="false"><tag k="addr:street" v="Conchos Trail"/><tag k="addr:housenumber" v="11217"/><tag k="addr:postcode" v="78726"/></node><node id="-30" lat="30.440191" lon="-97.817143" changeset="false"><tag k="addr:street" v="Conchos Trail"/><tag k="addr:housenumber" v="10800"/><tag k="addr:postcode" v="78726"/></node><node id="-31" lat="30.441787" lon="-97.818788" changeset="false"><tag k="addr:street" v="Conchos Trail"/><tag k="addr:housenumber" v="10906"/><tag k="addr:postcode" v="78726"/></node><node id="-32" lat="30.444133" lon="-97.822138" changeset="false"><tag k="addr:street" v="Conchos Trail"/><tag k="addr:housenumber" v="11201"/><tag k="addr:postcode" v="78726"/></node><node id="-33" lat="30.441431" lon="-97.818545" changeset="false"><tag k="addr:street" v="Conchos Trail"/><tag k="addr:housenumber" v="10904"/><tag k="addr:postcode" v="78726"/></node><node id="-34" lat="30.440992" lon="-97.818275" changeset="false"><tag k="addr:street" v="Conchos Trail"/><tag k="addr:housenumber" v="10900"/><tag k="addr:postcode" v="78726"/></node><node id="-35" lat="30.445901" lon="-97.825242" changeset="false"><tag k="addr:street" v="Turtle Lane"/><tag k="addr:housenumber" v="11504"/><tag k="addr:postcode" v="78726"/></node><node id="-36" lat="30.439655" lon="-97.821141" changeset="false"><tag k="addr:street" v="Crossland Drive"/><tag k="addr:housenumber" v="11008"/><tag k="addr:postcode" v="78726"/></node><node id="-37" lat="30.439868" lon="-97.825863" changeset="false"><tag k="addr:street" v="Appletree Lane"/><tag k="addr:housenumber" v="11211"/><tag k="addr:postcode" v="78726"/></node><node id="-38" lat="30.447994" lon="-97.820597" changeset="false"><tag k="addr:street" v="Matisse Trail"/><tag k="addr:housenumber" v="11205"/><tag k="addr:postcode" v="78726"/></node><node id="-39" lat="30.444178" lon="-97.820803" changeset="false"><tag k="addr:street" v="Conchos Trail"/><tag k="addr:housenumber" v="11108"/><tag k="addr:postcode" v="78726"/></node><node id="-40" lat="30.445401" lon="-97.823285" changeset="false"><tag k="addr:street" v="Laurel Creek Drive"/><tag k="addr:housenumber" v="11001"/><tag k="addr:postcode" v="78726"/></node><node id="-41" lat="30.439895" lon="-97.817408" changeset="false"><tag k="addr:street" v="Conchos Trail"/><tag k="addr:housenumber" v="10801"/><tag k="addr:postcode" v="78726"/></node><node id="-42" lat="30.446958" lon="-97.819226" changeset="false"><tag k="addr:street" v="Rockwell Court"/><tag k="addr:housenumber" v="11301"/><tag k="addr:postcode" v="78726"/></node><node id="-43" lat="30.447004" lon="-97.819665" changeset="false"><tag k="addr:street" v="Rockwell Court"/><tag k="addr:housenumber" v="11300"/><tag k="addr:postcode" v="78726"/></node><node id="-44" lat="30.442923" lon="-97.820737" changeset="false"><tag k="addr:street" v="Conchos Trail"/><tag k="addr:housenumber" v="11001"/><tag k="addr:postcode" v="78726"/></node><node id="-45" lat="30.445522" lon="-97.818719" changeset="false"><tag k="addr:street" v="Randy Road"/><tag k="addr:housenumber" v="11201"/><tag k="addr:postcode" v="78726"/></node><node id="-46" lat="30.447191" lon="-97.819036" changeset="false"><tag k="addr:street" v="Rockwell Court"/><tag k="addr:housenumber" v="11305"/><tag k="addr:postcode" v="78726"/></node><node id="-47" lat="30.447118" lon="-97.818314" changeset="false"><tag k="addr:street" v="Randy Road"/><tag k="addr:housenumber" v="11300"/><tag k="addr:postcode" v="78726"/></node><node id="-48" lat="30.445602" lon="-97.824146" changeset="false"><tag k="addr:street" v="Laurel Creek Drive"/><tag k="addr:housenumber" v="11000"/><tag k="addr:postcode" v="78726"/></node><node id="-49" lat="30.442081" lon="-97.820322" changeset="false"><tag k="addr:street" v="Conchos Trail"/><tag k="addr:housenumber" v="10919"/><tag k="addr:postcode" v="78726"/></node><node id="-50" lat="30.440967" lon="-97.828216" changeset="false"><tag k="addr:street" v="Sweet Basil Court"/><tag k="addr:housenumber" v="11400"/><tag k="addr:postcode" v="78726"/></node><node id="-51" lat="30.440844" lon="-97.820482" changeset="false"><tag k="addr:street" v="Enchanted Rock Cove"/><tag k="addr:housenumber" v="10914"/><tag k="addr:postcode" v="78726"/></node><node id="-52" lat="30.448943" lon="-97.817172" changeset="false"><tag k="addr:street" v="Randy Road"/><tag k="addr:housenumber" v="11500"/><tag k="addr:postcode" v="78726"/></node><node id="-53" lat="30.440733" lon="-97.827735" changeset="false"><tag k="addr:street" v="Boulder Lane"/><tag k="addr:housenumber" v="11401"/><tag k="addr:postcode" v="78726"/></node><node id="-54" lat="30.445624" lon="-97.818229" changeset="false"><tag k="addr:street" v="Randy Road"/><tag k="addr:housenumber" v="11203"/><tag k="addr:postcode" v="78726"/></node><node id="-55" lat="30.442899" lon="-97.821648" changeset="false"><tag k="addr:street" v="Conchos Cove"/><tag k="addr:housenumber" v="11100"/><tag k="addr:postcode" v="78726"/></node><node id="-56" lat="30.447963" lon="-97.816763" changeset="false"><tag k="addr:street" v="Randy Road"/><tag k="addr:housenumber" v="11403"/><tag k="addr:postcode" v="78726"/></node><node id="-57" lat="30.449985" lon="-97.819449" changeset="false"><tag k="addr:street" v="Centennial Trail"/><tag k="addr:housenumber" v="10707"/><tag k="addr:postcode" v="78726"/></node><node id="-58" lat="30.445142" lon="-97.824385" changeset="false"><tag k="addr:street" v="Laurel Creek Drive"/><tag k="addr:housenumber" v="10910"/><tag k="addr:postcode" v="78726"/></node><node id="-59" lat="30.441688" lon="-97.819931" changeset="false"><tag k="addr:street" v="Conchos Trail"/><tag k="addr:housenumber" v="10909"/><tag k="addr:postcode" v="78726"/></node><node id="-60" lat="30.444368" lon="-97.819529" changeset="false"><tag k="addr:street" v="Centennial Trail"/><tag k="addr:housenumber" v="10917"/><tag k="addr:postcode" v="78726"/></node><node id="-61" lat="30.444374" lon="-97.824769" changeset="false"><tag k="addr:street" v="Laurel Creek Drive"/><tag k="addr:housenumber" v="10826"/><tag k="addr:postcode" v="78726"/></node><node id="-62" lat="30.440211" lon="-97.818224" changeset="false"><tag k="addr:street" v="Conchos Trail"/><tag k="addr:housenumber" v="10805"/><tag k="addr:postcode" v="78726"/></node><node id="-63" lat="30.440351" lon="-97.826711" changeset="false"><tag k="addr:street" v="Boulder Lane"/><tag k="addr:housenumber" v="11321"/><tag k="addr:postcode" v="78726"/></node><node id="-64" lat="30.44605" lon="-97.823816" changeset="false"><tag k="addr:street" v="Laurel Creek Drive"/><tag k="addr:housenumber" v="11010"/><tag k="addr:postcode" v="78726"/></node><node id="-65" lat="30.439209" lon="-97.822472" changeset="false"><tag k="addr:street" v="Boulder Lane"/><tag k="addr:housenumber" v="11025"/><tag k="addr:postcode" v="78726"/></node><node id="-66" lat="30.444993" lon="-97.825617" changeset="false"><tag k="addr:street" v="Turtle Lane"/><tag k="addr:housenumber" v="11501"/><tag k="addr:postcode" v="78726"/></node><node id="-67" lat="30.452397" lon="-97.821087" changeset="false"><tag k="addr:street" v="Morning Glory Trail"/><tag k="addr:housenumber" v="11411"/><tag k="addr:postcode" v="78750"/></node><node id="-68" lat="30.444092" lon="-97.825878" changeset="false"><tag k="addr:street" v="Hare Trail"/><tag k="addr:housenumber" v="11402"/><tag k="addr:postcode" v="78726"/></node><node id="-69" lat="30.44439" lon="-97.826621" changeset="false"><tag k="addr:street" v="Hare Trail"/><tag k="addr:housenumber" v="11406"/><tag k="addr:postcode" v="78726"/></node><node id="-70" lat="30.43908" lon="-97.822387" changeset="false"><tag k="addr:street" v="Boulder Lane"/><tag k="addr:housenumber" v="11021"/><tag k="addr:postcode" v="78726"/></node><node id="-71" lat="30.443634" lon="-97.827769" changeset="false"><tag k="addr:street" v="Hare Trail"/><tag k="addr:housenumber" v="11503"/><tag k="addr:postcode" v="78726"/></node><node id="-72" lat="30.443483" lon="-97.821526" changeset="false"><tag k="addr:street" v="Conchos Trail"/><tag k="addr:housenumber" v="11105"/><tag k="addr:postcode" v="78726"/></node><node id="-73" lat="30.448667" lon="-97.819097" changeset="false"><tag k="addr:street" v="Cezanne Street"/><tag k="addr:housenumber" v="11106"/><tag k="addr:postcode" v="78726"/></node><node id="-74" lat="30.437593" lon="-97.826524" changeset="false"><tag k="addr:street" v="Ember Glen Drive"/><tag k="addr:housenumber" v="10245"/><tag k="addr:postcode" v="78726"/></node><node id="-75" lat="30.447081" lon="-97.812956" changeset="false"><tag k="addr:street" v="Anderson Mill Road"/><tag k="addr:housenumber" v="10724 1/2"/><tag k="addr:postcode" v="78750"/></node><node id="-76" lat="30.441726" lon="-97.821412" changeset="false"><tag k="addr:street" v="Crossland Drive"/><tag k="addr:housenumber" v="11034"/><tag k="addr:postcode" v="78726"/></node><node id="-77" lat="30.441637" lon="-97.821254" changeset="false"><tag k="addr:street" v="Crossland Drive"/><tag k="addr:housenumber" v="11032"/><tag k="addr:postcode" v="78726"/></node><node id="-78" lat="30.439888" lon="-97.823356" changeset="false"><tag k="addr:street" v="Bradel Cove"/><tag k="addr:housenumber" v="10601"/><tag k="addr:postcode" v="78726"/></node><node id="-79" lat="30.440101" lon="-97.823369" changeset="false"><tag k="addr:street" v="Bradel Cove"/><tag k="addr:housenumber" v="10605"/><tag k="addr:postcode" v="78726"/></node></osm>