<?xml version="1.0" encoding="UTF-8"?><osm version="0.6" generator="github.com/aaronlidman/osm-and-geojson"><node id="-1" lat="30.403772" lon="-97.539928" changeset="false"><tag k="addr:street" v="Cameron Road"/><tag k="addr:housenumber" v="16741"/></node><node id="-2" lat="30.360217" lon="-97.549096" changeset="false"><tag k="addr:street" v="Glen Knoll Drive"/><tag k="addr:housenumber" v="11525"/></node><node id="-3" lat="30.377125" lon="-97.560389" changeset="false"><tag k="addr:street" v="Fuchs Grove Road"/><tag k="addr:housenumber" v="14200"/></node><node id="-4" lat="30.352553" lon="-97.546703" changeset="false"><tag k="addr:street" v="Calera Cove"/><tag k="addr:housenumber" v="13808"/></node><node id="-5" lat="30.352175" lon="-97.546167" changeset="false"><tag k="addr:street" v="Pillion Place"/><tag k="addr:housenumber" v="11513"/></node><node id="-6" lat="30.356383" lon="-97.541521" changeset="false"><tag k="addr:street" v="Sun Glass Drive"/><tag k="addr:housenumber" v="11601"/></node><node id="-7" lat="30.351862" lon="-97.590398" changeset="false"><tag k="addr:street" v="East Parmer Lane"/><tag k="addr:housenumber" v="8402"/></node><node id="-8" lat="30.35714" lon="-97.545212" changeset="false"><tag k="addr:street" v="Glen Creek Court"/><tag k="addr:housenumber" v="13613"/></node><node id="-9" lat="30.372013" lon="-97.531904" changeset="false"><tag k="addr:street" v="Farm-to-Market Road 973,1100"/><tag k="addr:housenumber" v="14418"/></node><node id="-10" lat="30.383259" lon="-97.556533" changeset="false"><tag k="addr:street" v="Fuchs Grove Road"/><tag k="addr:housenumber" v="14700"/></node><node id="-11" lat="30.360531" lon="-97.547841" changeset="false"><tag k="addr:street" v="Sunny Creek Lane"/><tag k="addr:housenumber" v="11621"/></node><node id="-12" lat="30.355637" lon="-97.542006" changeset="false"><tag k="addr:street" v="Sun Glass Drive"/><tag k="addr:housenumber" v="11501"/></node><node id="-13" lat="30.355437" lon="-97.542858" changeset="false"><tag k="addr:street" v="Field Spar Drive"/><tag k="addr:housenumber" v="13816"/></node><node id="-14" lat="30.356586" lon="-97.534733" changeset="false"><tag k="addr:street" v="Farm-to-Market Road 973,1100"/><tag k="addr:housenumber" v="13500"/></node><node id="-15" lat="30.361871" lon="-97.541607" changeset="false"><tag k="addr:street" v="Voelker Reinhardt Way"/><tag k="addr:housenumber" v="11801"/></node><node id="-16" lat="30.356976" lon="-97.545969" changeset="false"><tag k="addr:street" v="Glen Creek Court"/><tag k="addr:housenumber" v="13600"/></node><node id="-17" lat="30.371631" lon="-97.556549" changeset="false"><tag k="addr:street" v="Rector Loop"/><tag k="addr:housenumber" v="13901"/></node><node id="-18" lat="30.360919" lon="-97.543033" changeset="false"><tag k="addr:street" v="Voelker Reinhardt Way"/><tag k="addr:housenumber" v="11701"/></node><node id="-19" lat="30.358872" lon="-97.543522" changeset="false"><tag k="addr:street" v="Glen Mark Drive"/><tag k="addr:housenumber" v="13621"/></node><node id="-20" lat="30.356174" lon="-97.549482" changeset="false"><tag k="addr:street" v="John Michael Drive"/><tag k="addr:housenumber" v="17000"/></node><node id="-21" lat="30.416188" lon="-97.574902" changeset="false"><tag k="addr:street" v="Cameron Road"/><tag k="addr:housenumber" v="16223 1/2"/></node><node id="-22" lat="30.364819" lon="-97.538392" changeset="false"><tag k="addr:street" v="Fallsprings Way"/><tag k="addr:housenumber" v="13812"/></node><node id="-23" lat="30.358576" lon="-97.54241" changeset="false"><tag k="addr:street" v="Glen Mark Drive"/><tag k="addr:housenumber" v="13717"/></node><node id="-24" lat="30.362507" lon="-97.535752" changeset="false"><tag k="addr:street" v="Oaklynn Court"/><tag k="addr:housenumber" v="12004"/></node><node id="-25" lat="30.364963" lon="-97.5388" changeset="false"><tag k="addr:street" v="Fallsprings Way"/><tag k="addr:housenumber" v="13800"/></node><node id="-26" lat="30.364239" lon="-97.538036" changeset="false"><tag k="addr:street" v="Fallsprings Way"/><tag k="addr:housenumber" v="13829"/></node><node id="-27" lat="30.361565" lon="-97.542216" changeset="false"><tag k="addr:street" v="Voelker Reinhardt Way"/><tag k="addr:housenumber" v="11725"/></node><node id="-28" lat="30.364939" lon="-97.539316" changeset="false"><tag k="addr:street" v="Fallsprings Way"/><tag k="addr:housenumber" v="13757"/></node><node id="-29" lat="30.363254" lon="-97.534568" changeset="false"><tag k="addr:street" v="Pecangate Way"/><tag k="addr:housenumber" v="12033"/></node><node id="-30" lat="30.363911" lon="-97.534845" changeset="false"><tag k="addr:street" v="Pecangate Way"/><tag k="addr:housenumber" v="12016"/></node><node id="-31" lat="30.361955" lon="-97.541429" changeset="false"><tag k="addr:street" v="Voelker Reinhardt Way"/><tag k="addr:housenumber" v="11805"/></node><node id="-32" lat="30.361689" lon="-97.534776" changeset="false"><tag k="addr:street" v="Pecangate Way"/><tag k="addr:housenumber" v="12224"/></node><node id="-33" lat="30.358915" lon="-97.542461" changeset="false"><tag k="addr:street" v="Field Stream Lane"/><tag k="addr:housenumber" v="13712"/></node><node id="-34" lat="30.357775" lon="-97.549733" changeset="false"><tag k="addr:street" v="Craven Lane"/><tag k="addr:housenumber" v="13304"/></node><node id="-35" lat="30.357802" lon="-97.549489" changeset="false"><tag k="addr:street" v="Craven Lane"/><tag k="addr:housenumber" v="13308"/></node><node id="-36" lat="30.359375" lon="-97.542291" changeset="false"><tag k="addr:street" v="Field Stream Lane"/><tag k="addr:housenumber" v="13713"/></node><node id="-37" lat="30.35889" lon="-97.54068" changeset="false"><tag k="addr:street" v="Field Stream Lane"/><tag k="addr:housenumber" v="13825"/></node><node id="-38" lat="30.358601" lon="-97.540039" changeset="false"><tag k="addr:street" v="Sun Glass Drive"/><tag k="addr:housenumber" v="11725"/></node><node id="-39" lat="30.356913" lon="-97.550672" changeset="false"><tag k="addr:street" v="Jonse Court"/><tag k="addr:housenumber" v="16900"/></node><node id="-40" lat="30.357205" lon="-97.551378" changeset="false"><tag k="addr:street" v="Craven Lane"/><tag k="addr:housenumber" v="13208"/></node><node id="-41" lat="30.357142" lon="-97.550168" changeset="false"><tag k="addr:street" v="Jonse Court"/><tag k="addr:housenumber" v="16901"/></node><node id="-42" lat="30.356246" lon="-97.550611" changeset="false"><tag k="addr:street" v="John Michael Drive"/><tag k="addr:housenumber" v="16905"/></node><node id="-43" lat="30.357185" lon="-97.548273" changeset="false"><tag k="addr:street" v="John Michael Drive"/><tag k="addr:housenumber" v="17028"/></node><node id="-44" lat="30.3905" lon="-97.522231" changeset="false"><tag k="addr:street" v="Farm-to-Market Road 973,1100"/><tag k="addr:housenumber" v="15425"/></node><node id="-45" lat="30.355886" lon="-97.550918" changeset="false"><tag k="addr:street" v="John Michael Drive"/><tag k="addr:housenumber" v="16904"/></node><node id="-46" lat="30.35585" lon="-97.550124" changeset="false"><tag k="addr:street" v="John Michael Drive"/><tag k="addr:housenumber" v="16916"/></node><node id="-47" lat="30.374487" lon="-97.578787" changeset="false"><tag k="addr:street" v="Gregg Manor Road"/><tag k="addr:housenumber" v="13512"/></node><node id="-48" lat="30.37312" lon="-97.559104" changeset="false"><tag k="addr:street" v="Rector Loop"/><tag k="addr:housenumber" v="13933"/></node><node id="-49" lat="30.373827" lon="-97.56077" changeset="false"><tag k="addr:street" v="Rector Loop"/><tag k="addr:housenumber" v="13957"/></node><node id="-50" lat="30.363726" lon="-97.534476" changeset="false"><tag k="addr:street" v="Pecangate Way"/><tag k="addr:housenumber" v="12028"/></node><node id="-51" lat="30.394037" lon="-97.565612" changeset="false"><tag k="addr:street" v="Fuchs Grove Road"/><tag k="addr:housenumber" v="15012"/></node><node id="-52" lat="30.365231" lon="-97.558767" changeset="false"><tag k="addr:street" v="Rector Loop"/><tag k="addr:housenumber" v="13417"/></node><node id="-53" lat="30.353683" lon="-97.543593" changeset="false"><tag k="addr:street" v="Shadowglade Place"/><tag k="addr:housenumber" v="13721"/></node><node id="-54" lat="30.353303" lon="-97.543943" changeset="false"><tag k="addr:street" v="Shadowglade Place"/><tag k="addr:housenumber" v="13724"/></node><node id="-55" lat="30.395612" lon="-97.527589" changeset="false"><tag k="addr:street" v="Anderson Road"/><tag k="addr:housenumber" v="15914"/></node><node id="-56" lat="30.356426" lon="-97.547056" changeset="false"><tag k="addr:street" v="Terrace Meadow Way"/><tag k="addr:housenumber" v="11204"/></node><node id="-57" lat="30.410125" lon="-97.578709" changeset="false"><tag k="addr:street" v="Cameron Road"/><tag k="addr:housenumber" v="15615"/></node><node id="-58" lat="30.35198" lon="-97.590886" changeset="false"><tag k="addr:street" v="East Parmer Lane"/><tag k="addr:housenumber" v="8400"/></node><node id="-59" lat="30.35675" lon="-97.544825" changeset="false"><tag k="addr:street" v="Glen Creek Court"/><tag k="addr:housenumber" v="13625"/></node><node id="-60" lat="30.357307" lon="-97.543723" changeset="false"><tag k="addr:street" v="Tercel Trace"/><tag k="addr:housenumber" v="13701"/></node><node id="-61" lat="30.360632" lon="-97.548848" changeset="false"><tag k="addr:street" v="Glen Knoll Drive"/><tag k="addr:housenumber" v="11609"/></node><node id="-62" lat="30.361217" lon="-97.548589" changeset="false"><tag k="addr:street" v="Glen Knoll Drive"/><tag k="addr:housenumber" v="11625"/></node><node id="-63" lat="30.356081" lon="-97.54172" changeset="false"><tag k="addr:street" v="Sun Glass Drive"/><tag k="addr:housenumber" v="11513"/></node><node id="-64" lat="30.359957" lon="-97.544123" changeset="false"><tag k="addr:street" v="Field Stream Lane"/><tag k="addr:housenumber" v="13601"/></node><node id="-65" lat="30.359835" lon="-97.543768" changeset="false"><tag k="addr:street" v="Field Stream Lane"/><tag k="addr:housenumber" v="13609"/></node><node id="-66" lat="30.352638" lon="-97.545517" changeset="false"><tag k="addr:street" v="Pillion Place"/><tag k="addr:housenumber" v="11529"/></node><node id="-67" lat="30.354221" lon="-97.543083" changeset="false"><tag k="addr:street" v="Pillion Place"/><tag k="addr:housenumber" v="11717"/></node><node id="-68" lat="30.352397" lon="-97.545841" changeset="false"><tag k="addr:street" v="Pillion Place"/><tag k="addr:housenumber" v="11521"/></node><node id="-69" lat="30.356616" lon="-97.544936" changeset="false"><tag k="addr:street" v="Glen Creek Court"/><tag k="addr:housenumber" v="13624"/></node><node id="-70" lat="30.350758" lon="-97.590058" changeset="false"><tag k="addr:street" v="East Parmer Lane"/><tag k="addr:housenumber" v="8509"/></node><node id="-71" lat="30.359304" lon="-97.548743" changeset="false"><tag k="addr:street" v="Sunny Creek Lane"/><tag k="addr:housenumber" v="11529"/></node><node id="-72" lat="30.359266" lon="-97.547551" changeset="false"><tag k="addr:street" v="Shady Meadow Way"/><tag k="addr:housenumber" v="11525"/></node><node id="-73" lat="30.357566" lon="-97.545171" changeset="false"><tag k="addr:street" v="Tercel Trace"/><tag k="addr:housenumber" v="13608"/></node><node id="-74" lat="30.368829" lon="-97.53811" changeset="false"><tag k="addr:street" v="Old Manor Taylor Road"/><tag k="addr:housenumber" v="14218"/></node><node id="-75" lat="30.371398" lon="-97.563542" changeset="false"><tag k="addr:street" v="Fuchs Grove Road"/><tag k="addr:housenumber" v="13709"/></node><node id="-76" lat="30.371334" lon="-97.563584" changeset="false"><tag k="addr:street" v="Fuchs Grove Road"/><tag k="addr:housenumber" v="13703"/></node><node id="-77" lat="30.355288" lon="-97.542226" changeset="false"><tag k="addr:street" v="Field Spar Drive"/><tag k="addr:housenumber" v="13828"/></node><node id="-78" lat="30.362822" lon="-97.542429" changeset="false"><tag k="addr:street" v="Green Lodge Court"/><tag k="addr:housenumber" v="13512"/></node><node id="-79" lat="30.357898" lon="-97.541785" changeset="false"><tag k="addr:street" v="Glen Mark Drive"/><tag k="addr:housenumber" v="13812"/></node><node id="-80" lat="30.357651" lon="-97.541258" changeset="false"><tag k="addr:street" v="Glen Mark Drive"/><tag k="addr:housenumber" v="13824"/></node><node id="-81" lat="30.348568" lon="-97.561805" changeset="false"><tag k="addr:street" v="US Highway 290"/><tag k="addr:housenumber" v="10800"/></node><node id="-82" lat="30.362124" lon="-97.534465" changeset="false"><tag k="addr:street" v="Pecangate Way"/><tag k="addr:housenumber" v="12208"/></node><node id="-83" lat="30.363665" lon="-97.534348" changeset="false"><tag k="addr:street" v="Pecangate Way"/><tag k="addr:housenumber" v="12032"/></node><node id="-84" lat="30.363547" lon="-97.534101" changeset="false"><tag k="addr:street" v="Pecangate Way"/><tag k="addr:housenumber" v="12040"/></node><node id="-85" lat="30.363538" lon="-97.533938" changeset="false"><tag k="addr:street" v="Pecangate Way"/><tag k="addr:housenumber" v="12044"/></node><node id="-86" lat="30.362852" lon="-97.533943" changeset="false"><tag k="addr:street" v="Pecangate Way"/><tag k="addr:housenumber" v="12112"/></node><node id="-87" lat="30.364286" lon="-97.535597" changeset="false"><tag k="addr:street" v="Pecangate Way"/><tag k="addr:housenumber" v="11920"/></node><node id="-88" lat="30.360957" lon="-97.584445" changeset="false"><tag k="addr:street" v="Hill Lane"/><tag k="addr:housenumber" v="8401"/></node><node id="-89" lat="30.363816" lon="-97.537339" changeset="false"><tag k="addr:street" v="Fallsprings Way"/><tag k="addr:housenumber" v="13853"/></node><node id="-90" lat="30.361359" lon="-97.534973" changeset="false"><tag k="addr:street" v="Pecangate Way"/><tag k="addr:housenumber" v="12308"/></node><node id="-91" lat="30.36248" lon="-97.535571" changeset="false"><tag k="addr:street" v="Oaklynn Court"/><tag k="addr:housenumber" v="12008"/></node><node id="-92" lat="30.362755" lon="-97.535504" changeset="false"><tag k="addr:street" v="Crownstone Lane"/><tag k="addr:housenumber" v="12017"/></node><node id="-93" lat="30.361935" lon="-97.542738" changeset="false"><tag k="addr:street" v="Windstone Court"/><tag k="addr:housenumber" v="13520"/></node><node id="-94" lat="30.358656" lon="-97.544438" changeset="false"><tag k="addr:street" v="Glen Mark Drive"/><tag k="addr:housenumber" v="13608"/></node><node id="-95" lat="30.356977" lon="-97.575043" changeset="false"><tag k="addr:street" v="Hill Lane"/><tag k="addr:housenumber" v="9309"/></node><node id="-96" lat="30.356976" lon="-97.549248" changeset="false"><tag k="addr:street" v="John Michael Drive"/><tag k="addr:housenumber" v="17013"/></node><node id="-97" lat="30.355832" lon="-97.550595" changeset="false"><tag k="addr:street" v="John Michael Drive"/><tag k="addr:housenumber" v="16908"/></node><node id="-98" lat="30.363713" lon="-97.537191" changeset="false"><tag k="addr:street" v="Fallsprings Way"/><tag k="addr:housenumber" v="13857"/></node><node id="-99" lat="30.357738" lon="-97.541446" changeset="false"><tag k="addr:street" v="Glen Mark Drive"/><tag k="addr:housenumber" v="13820"/></node><node id="-100" lat="30.358011" lon="-97.541075" changeset="false"><tag k="addr:street" v="Sun Glass Drive"/><tag k="addr:housenumber" v="11700"/></node><node id="-101" lat="30.363429" lon="-97.534949" changeset="false"><tag k="addr:street" v="Pecangate Way"/><tag k="addr:housenumber" v="12021"/></node><node id="-102" lat="30.358669" lon="-97.541472" changeset="false"><tag k="addr:street" v="Field Stream Lane"/><tag k="addr:housenumber" v="13808"/></node><node id="-103" lat="30.357584" lon="-97.548494" changeset="false"><tag k="addr:street" v="Craven Lane"/><tag k="addr:housenumber" v="13324"/></node><node id="-104" lat="30.362396" lon="-97.534764" changeset="false"><tag k="addr:street" v="Crownstone Lane"/><tag k="addr:housenumber" v="12041"/></node><node id="-105" lat="30.357285" lon="-97.550938" changeset="false"><tag k="addr:street" v="Craven Lane"/><tag k="addr:housenumber" v="13216"/></node><node id="-106" lat="30.35677" lon="-97.551445" changeset="false"><tag k="addr:street" v="Craven Lane"/><tag k="addr:housenumber" v="13205"/></node><node id="-107" lat="30.365003" lon="-97.540218" changeset="false"><tag k="addr:street" v="Shadowglen Trace"/><tag k="addr:housenumber" v="12000"/></node><node id="-108" lat="30.353058" lon="-97.549138" changeset="false"><tag k="addr:street" v="Runnel Ridge Road"/><tag k="addr:housenumber" v="11308"/></node><node id="-109" lat="30.356727" lon="-97.542063" changeset="false"><tag k="addr:street" v="Tercel Trace"/><tag k="addr:housenumber" v="13821"/></node><node id="-110" lat="30.353237" lon="-97.546043" changeset="false"><tag k="addr:street" v="Shadowlawn Trace"/><tag k="addr:housenumber" v="13804"/></node><node id="-111" lat="30.357212" lon="-97.545356" changeset="false"><tag k="addr:street" v="Glen Creek Court"/><tag k="addr:housenumber" v="13609"/></node><node id="-112" lat="30.353946" lon="-97.546789" changeset="false"><tag k="addr:street" v="Sun Dapple Court"/><tag k="addr:housenumber" v="13617"/></node><node id="-113" lat="30.369307" lon="-97.564354" changeset="false"><tag k="addr:street" v="Fuchs Grove Road"/><tag k="addr:housenumber" v="13515"/></node><node id="-114" lat="30.358401" lon="-97.549766" changeset="false"><tag k="addr:street" v="Sunny Creek Lane"/><tag k="addr:housenumber" v="11501"/></node><node id="-115" lat="30.353065" lon="-97.546376" changeset="false"><tag k="addr:street" v="Calera Cove"/><tag k="addr:housenumber" v="13801"/></node><node id="-116" lat="30.352295" lon="-97.545998" changeset="false"><tag k="addr:street" v="Pillion Place"/><tag k="addr:housenumber" v="11517"/></node><node id="-117" lat="30.351943" lon="-97.546529" changeset="false"><tag k="addr:street" v="Pillion Place"/><tag k="addr:housenumber" v="11505"/></node><node id="-118" lat="30.350771" lon="-97.589179" changeset="false"><tag k="addr:street" v="East Parmer Lane"/><tag k="addr:housenumber" v="8513 1/2"/></node><node id="-119" lat="30.356372" lon="-97.546493" changeset="false"><tag k="addr:street" v="Terrace Meadow Way"/><tag k="addr:housenumber" v="11205"/></node><node id="-120" lat="30.354729" lon="-97.544788" changeset="false"><tag k="addr:street" v="Shadowlawn Trace"/><tag k="addr:housenumber" v="13705"/></node><node id="-121" lat="30.354059" lon="-97.54324" changeset="false"><tag k="addr:street" v="Pillion Place"/><tag k="addr:housenumber" v="11713"/></node><node id="-122" lat="30.360449" lon="-97.545552" changeset="false"><tag k="addr:street" v="Sun Glide Lane"/><tag k="addr:housenumber" v="11625"/></node><node id="-123" lat="30.358138" lon="-97.543585" changeset="false"><tag k="addr:street" v="Long Shadow Drive"/><tag k="addr:housenumber" v="13705"/></node><node id="-124" lat="30.36053" lon="-97.550107" changeset="false"><tag k="addr:street" v="Shadow Creek Drive"/><tag k="addr:housenumber" v="11513"/></node><node id="-125" lat="30.361456" lon="-97.535563" changeset="false"><tag k="addr:street" v="Pecangate Way"/><tag k="addr:housenumber" v="12313"/></node><node id="-126" lat="30.362384" lon="-97.53544" changeset="false"><tag k="addr:street" v="Oaklynn Court"/><tag k="addr:housenumber" v="12012"/></node><node id="-127" lat="30.36223" lon="-97.535198" changeset="false"><tag k="addr:street" v="Oaklynn Court"/><tag k="addr:housenumber" v="12020"/></node><node id="-128" lat="30.364481" lon="-97.538896" changeset="false"><tag k="addr:street" v="Fallsprings Way"/><tag k="addr:housenumber" v="13809"/></node><node id="-129" lat="30.36184" lon="-97.541772" changeset="false"><tag k="addr:street" v="Voelker Reinhardt Way"/><tag k="addr:housenumber" v="11737"/></node><node id="-130" lat="30.362344" lon="-97.541916" changeset="false"><tag k="addr:street" v="Green Lodge Court"/><tag k="addr:housenumber" v="13528"/></node><node id="-131" lat="30.363965" lon="-97.537562" changeset="false"><tag k="addr:street" v="Fallsprings Way"/><tag k="addr:housenumber" v="13845"/></node><node id="-132" lat="30.358085" lon="-97.542344" changeset="false"><tag k="addr:street" v="Glen Mark Drive"/><tag k="addr:housenumber" v="13800"/></node><node id="-133" lat="30.358453" lon="-97.542047" changeset="false"><tag k="addr:street" v="Glen Mark Drive"/><tag k="addr:housenumber" v="13801"/></node><node id="-134" lat="30.362855" lon="-97.535796" changeset="false"><tag k="addr:street" v="Crownstone Lane"/><tag k="addr:housenumber" v="12009"/></node><node id="-135" lat="30.358358" lon="-97.546157" changeset="false"><tag k="addr:street" v="Shadowglen Trace"/><tag k="addr:housenumber" v="11525"/></node><node id="-136" lat="30.348974" lon="-97.558412" changeset="false"><tag k="addr:street" v="US Highway 290"/><tag k="addr:housenumber" v="11016"/></node><node id="-137" lat="30.390641" lon="-97.523852" changeset="false"><tag k="addr:street" v="Farm-to-Market Road 973,1100"/><tag k="addr:housenumber" v="15420"/></node><node id="-138" lat="30.358482" lon="-97.547626" changeset="false"><tag k="addr:street" v="Knapple Cove"/><tag k="addr:housenumber" v="11500"/></node><node id="-139" lat="30.359873" lon="-97.545559" changeset="false"><tag k="addr:street" v="Sun Glide Lane"/><tag k="addr:housenumber" v="11609"/></node><node id="-140" lat="30.359442" lon="-97.544809" changeset="false"><tag k="addr:street" v="Prince Phillip Way"/><tag k="addr:housenumber" v="11700"/></node><node id="-141" lat="30.357334" lon="-97.545716" changeset="false"><tag k="addr:street" v="Glen Creek Court"/><tag k="addr:housenumber" v="13601"/></node><node id="-142" lat="30.357025" lon="-97.548478" changeset="false"><tag k="addr:street" v="John Michael Drive"/><tag k="addr:housenumber" v="17024"/></node><node id="-143" lat="30.356495" lon="-97.549776" changeset="false"><tag k="addr:street" v="John Michael Drive"/><tag k="addr:housenumber" v="17001"/></node><node id="-144" lat="30.357393" lon="-97.549295" changeset="false"><tag k="addr:street" v="Craven Lane"/><tag k="addr:housenumber" v="13313"/></node><node id="-145" lat="30.373354" lon="-97.559968" changeset="false"><tag k="addr:street" v="Rector Loop"/><tag k="addr:housenumber" v="13941"/></node><node id="-146" lat="30.35749" lon="-97.543198" changeset="false"><tag k="addr:street" v="Long Shadow Drive"/><tag k="addr:housenumber" v="13716"/></node><node id="-147" lat="30.355822" lon="-97.550347" changeset="false"><tag k="addr:street" v="John Michael Drive"/><tag k="addr:housenumber" v="16912"/></node><node id="-148" lat="30.374803" lon="-97.575328" changeset="false"><tag k="addr:street" v="Gregg Manor Road"/><tag k="addr:housenumber" v="13481"/></node><node id="-149" lat="30.357078" lon="-97.543016" changeset="false"><tag k="addr:street" v="Tercel Trace"/><tag k="addr:housenumber" v="13801"/></node><node id="-150" lat="30.378798" lon="-97.574982" changeset="false"><tag k="addr:street" v="Gregg Manor Road"/><tag k="addr:housenumber" v="13503"/></node><node id="-151" lat="30.358618" lon="-97.541302" changeset="false"><tag k="addr:street" v="Field Stream Lane"/><tag k="addr:housenumber" v="13812"/></node><node id="-152" lat="30.408768" lon="-97.568955" changeset="false"><tag k="addr:street" v="Cameron Road"/><tag k="addr:housenumber" v="16342"/></node><node id="-153" lat="30.356341" lon="-97.55004" changeset="false"><tag k="addr:street" v="John Michael Drive"/><tag k="addr:housenumber" v="16921"/></node><node id="-154" lat="30.363179" lon="-97.53444" changeset="false"><tag k="addr:street" v="Pecangate Way"/><tag k="addr:housenumber" v="12037"/></node><node id="-155" lat="30.357684" lon="-97.573264" changeset="false"><tag k="addr:street" v="Hill Lane"/><tag k="addr:housenumber" v="9400"/></node><node id="-156" lat="30.380455" lon="-97.558085" changeset="false"><tag k="addr:street" v="Fuchs Grove Road"/><tag k="addr:housenumber" v="14500"/></node><node id="-157" lat="30.358801" lon="-97.542071" changeset="false"><tag k="addr:street" v="Field Stream Lane"/><tag k="addr:housenumber" v="13720"/></node><node id="-158" lat="30.353123" lon="-97.549449" changeset="false"><tag k="addr:street" v="Runnel Ridge Road"/><tag k="addr:housenumber" v="11306"/></node><node id="-159" lat="30.356927" lon="-97.550028" changeset="false"><tag k="addr:street" v="Jonse Court"/><tag k="addr:housenumber" v="16905"/></node><node id="-160" lat="30.356293" lon="-97.550858" changeset="false"><tag k="addr:street" v="John Michael Drive"/><tag k="addr:housenumber" v="16901"/></node><node id="-161" lat="30.356253" lon="-97.550291" changeset="false"><tag k="addr:street" v="John Michael Drive"/><tag k="addr:housenumber" v="16913"/></node><node id="-162" lat="30.361745" lon="-97.543293" changeset="false"><tag k="addr:street" v="Windstone Court"/><tag k="addr:housenumber" v="13513"/></node><node id="-163" lat="30.356467" lon="-97.552173" changeset="false"><tag k="addr:street" v="Craven Lane"/><tag k="addr:housenumber" v="13113"/></node><node id="-164" lat="30.357114" lon="-97.551938" changeset="false"><tag k="addr:street" v="Craven Lane"/><tag k="addr:housenumber" v="13200"/></node><node id="-165" lat="30.356538" lon="-97.553042" changeset="false"><tag k="addr:street" v="Craven Lane"/><tag k="addr:housenumber" v="13108"/></node><node id="-166" lat="30.356173" lon="-97.552652" changeset="false"><tag k="addr:street" v="Craven Lane"/><tag k="addr:housenumber" v="13105"/></node><node id="-167" lat="30.356894" lon="-97.552394" changeset="false"><tag k="addr:street" v="Craven Lane"/><tag k="addr:housenumber" v="13116"/></node><node id="-168" lat="30.349726" lon="-97.556499" changeset="false"><tag k="addr:street" v="Lexington Street,1100"/><tag k="addr:housenumber" v="12608"/></node><node id="-169" lat="30.396871" lon="-97.525963" changeset="false"><tag k="addr:street" v="Anderson Road"/><tag k="addr:housenumber" v="16011"/></node><node id="-170" lat="30.359003" lon="-97.546704" changeset="false"><tag k="addr:street" v="Knapple Cove"/><tag k="addr:housenumber" v="11521"/></node><node id="-171" lat="30.358215" lon="-97.544073" changeset="false"><tag k="addr:street" v="Mill Ridge Trace"/><tag k="addr:housenumber" v="11613"/></node><node id="-172" lat="30.359727" lon="-97.543417" changeset="false"><tag k="addr:street" v="Field Stream Lane"/><tag k="addr:housenumber" v="13617"/></node><node id="-173" lat="30.359075" lon="-97.576832" changeset="false"><tag k="addr:street" v="Hill Lane"/><tag k="addr:housenumber" v="9200"/></node><node id="-174" lat="30.355111" lon="-97.542835" changeset="false"><tag k="addr:street" v="Pillion Place"/><tag k="addr:housenumber" v="11737"/></node><node id="-175" lat="30.352442" lon="-97.54743" changeset="false"><tag k="addr:street" v="Runnel Ridge Road"/><tag k="addr:housenumber" v="11417"/></node><node id="-176" lat="30.356261" lon="-97.543291" changeset="false"><tag k="addr:street" v="Field Spar Drive"/><tag k="addr:housenumber" v="13801"/></node><node id="-177" lat="30.353852" lon="-97.548545" changeset="false"><tag k="addr:street" v="Terrace Meadow Way"/><tag k="addr:housenumber" v="11332"/></node><node id="-178" lat="30.357497" lon="-97.54179" changeset="false"><tag k="addr:street" v="Long Shadow Drive"/><tag k="addr:housenumber" v="13821"/></node><node id="-179" lat="30.362702" lon="-97.535388" changeset="false"><tag k="addr:street" v="Crownstone Lane"/><tag k="addr:housenumber" v="12021"/></node><node id="-180" lat="30.361959" lon="-97.542278" changeset="false"><tag k="addr:street" v="Green Lodge Court"/><tag k="addr:housenumber" v="13529"/></node><node id="-181" lat="30.363373" lon="-97.535647" changeset="false"><tag k="addr:street" v="Crownstone Lane"/><tag k="addr:housenumber" v="12004"/></node><node id="-182" lat="30.363124" lon="-97.535119" changeset="false"><tag k="addr:street" v="Crownstone Lane"/><tag k="addr:housenumber" v="12020"/></node><node id="-183" lat="30.361011" lon="-97.535208" changeset="false"><tag k="addr:street" v="Pecangate Way"/><tag k="addr:housenumber" v="12320"/></node><node id="-184" lat="30.401942" lon="-97.532486" changeset="false"><tag k="addr:street" v="Schmidt Lane"/><tag k="addr:housenumber" v="10301"/></node><node id="-185" lat="30.363355" lon="-97.533621" changeset="false"><tag k="addr:street" v="Pecangate Way"/><tag k="addr:housenumber" v="12052"/></node><node id="-186" lat="30.362959" lon="-97.533893" changeset="false"><tag k="addr:street" v="Pecangate Way"/><tag k="addr:housenumber" v="12108"/></node><node id="-187" lat="30.358378" lon="-97.540153" changeset="false"><tag k="addr:street" v="Sun Glass Drive"/><tag k="addr:housenumber" v="11721"/></node><node id="-188" lat="30.380875" lon="-97.547633" changeset="false"><tag k="addr:street" v="Gregg Lane"/><tag k="addr:housenumber" v="10201"/></node><node id="-189" lat="30.364736" lon="-97.53811" changeset="false"><tag k="addr:street" v="Fallsprings Way"/><tag k="addr:housenumber" v="13820"/></node><node id="-190" lat="30.364638" lon="-97.537818" changeset="false"><tag k="addr:street" v="Fallsprings Way"/><tag k="addr:housenumber" v="13828"/></node><node id="-191" lat="30.364439" lon="-97.537448" changeset="false"><tag k="addr:street" v="Fallsprings Way"/><tag k="addr:housenumber" v="13840"/></node><node id="-192" lat="30.358322" lon="-97.541677" changeset="false"><tag k="addr:street" v="Glen Mark Drive"/><tag k="addr:housenumber" v="13809"/></node><node id="-193" lat="30.372194" lon="-97.557077" changeset="false"><tag k="addr:street" v="Rector Loop"/><tag k="addr:housenumber" v="13909"/></node><node id="-194" lat="30.372981" lon="-97.558803" changeset="false"><tag k="addr:street" v="Rector Loop"/><tag k="addr:housenumber" v="13929"/></node><node id="-195" lat="30.364351" lon="-97.535707" changeset="false"><tag k="addr:street" v="Pecangate Way"/><tag k="addr:housenumber" v="11916"/></node><node id="-196" lat="30.364216" lon="-97.535488" changeset="false"><tag k="addr:street" v="Pecangate Way"/><tag k="addr:housenumber" v="11924"/></node><node id="-197" lat="30.364518" lon="-97.539067" changeset="false"><tag k="addr:street" v="Fallsprings Way"/><tag k="addr:housenumber" v="13805"/></node><node id="-198" lat="30.396902" lon="-97.527274" changeset="false"><tag k="addr:street" v="Anderson Road"/><tag k="addr:housenumber" v="16000"/></node><node id="-199" lat="30.36417" lon="-97.535342" changeset="false"><tag k="addr:street" v="Pecangate Way"/><tag k="addr:housenumber" v="12000"/></node><node id="-200" lat="30.363991" lon="-97.534967" changeset="false"><tag k="addr:street" v="Pecangate Way"/><tag k="addr:housenumber" v="12012"/></node><node id="-201" lat="30.363859" lon="-97.534716" changeset="false"><tag k="addr:street" v="Pecangate Way"/><tag k="addr:housenumber" v="12020"/></node><node id="-202" lat="30.380873" lon="-97.579529" changeset="false"><tag k="addr:street" v="Gregg Manor Road"/><tag k="addr:housenumber" v="13551"/></node><node id="-203" lat="30.3601" lon="-97.545959" changeset="false"><tag k="addr:street" v="Breezy Meadow Lane"/><tag k="addr:housenumber" v="13444"/></node><node id="-204" lat="30.353536" lon="-97.549487" changeset="false"><tag k="addr:street" v="Runnel Ridge Road"/><tag k="addr:housenumber" v="11300"/></node><node id="-205" lat="30.35722" lon="-97.534189" changeset="false"><tag k="addr:street" v="Farm-to-Market Road 973,1100"/><tag k="addr:housenumber" v="13508"/></node><node id="-206" lat="30.356875" lon="-97.548677" changeset="false"><tag k="addr:street" v="John Michael Drive"/><tag k="addr:housenumber" v="17020"/></node><node id="-207" lat="30.350455" lon="-97.589218" changeset="false"><tag k="addr:street" v="East Parmer Lane"/><tag k="addr:housenumber" v="8521"/></node><node id="-208" lat="30.361918" lon="-97.534594" changeset="false"><tag k="addr:street" v="Pecangate Way"/><tag k="addr:housenumber" v="12216"/></node><node id="-209" lat="30.361794" lon="-97.534692" changeset="false"><tag k="addr:street" v="Pecangate Way"/><tag k="addr:housenumber" v="12220"/></node><node id="-210" lat="30.357625" lon="-97.545389" changeset="false"><tag k="addr:street" v="Tercel Trace"/><tag k="addr:housenumber" v="13604"/></node><node id="-211" lat="30.353278" lon="-97.544558" changeset="false"><tag k="addr:street" v="Pillion Place"/><tag k="addr:housenumber" v="11617"/></node><node id="-212" lat="30.351846" lon="-97.546715" changeset="false"><tag k="addr:street" v="Pillion Place"/><tag k="addr:housenumber" v="11501"/></node><node id="-213" lat="30.360488" lon="-97.548913" changeset="false"><tag k="addr:street" v="Glen Knoll Drive"/><tag k="addr:housenumber" v="11605"/></node><node id="-214" lat="30.356605" lon="-97.545359" changeset="false"><tag k="addr:street" v="Glen Creek Court"/><tag k="addr:housenumber" v="13616"/></node><node id="-215" lat="30.355893" lon="-97.543825" changeset="false"><tag k="addr:street" v="Field Spar Drive"/><tag k="addr:housenumber" v="13728"/></node><node id="-216" lat="30.375587" lon="-97.549625" changeset="false"><tag k="addr:street" v="Fuchs Grove Road"/><tag k="addr:housenumber" v="14515"/></node><node id="-217" lat="30.341044" lon="-97.591515" changeset="false"><tag k="addr:street" v="US Highway 290"/><tag k="addr:housenumber" v="10036"/></node><node id="-218" lat="30.357499" lon="-97.544992" changeset="false"><tag k="addr:street" v="Tercel Trace"/><tag k="addr:housenumber" v="13612"/></node><node id="-219" lat="30.370306" lon="-97.558442" changeset="false"><tag k="addr:street" v="Rector Loop"/><tag k="addr:housenumber" v="13800"/></node><node id="-220" lat="30.355419" lon="-97.544734" changeset="false"><tag k="addr:street" v="Shady Ridge Lane"/><tag k="addr:housenumber" v="13713"/></node><node id="-221" lat="30.36449" lon="-97.537585" changeset="false"><tag k="addr:street" v="Fallsprings Way"/><tag k="addr:housenumber" v="13836"/></node><node id="-222" lat="30.364576" lon="-97.53926" changeset="false"><tag k="addr:street" v="Fallsprings Way"/><tag k="addr:housenumber" v="13801"/></node><node id="-223" lat="30.363309" lon="-97.535483" changeset="false"><tag k="addr:street" v="Crownstone Lane"/><tag k="addr:housenumber" v="12008"/></node><node id="-224" lat="30.363251" lon="-97.535367" changeset="false"><tag k="addr:street" v="Crownstone Lane"/><tag k="addr:housenumber" v="12012"/></node><node id="-225" lat="30.362828" lon="-97.535636" changeset="false"><tag k="addr:street" v="Crownstone Lane"/><tag k="addr:housenumber" v="12013"/></node><node id="-226" lat="30.360059" lon="-97.550381" changeset="false"><tag k="addr:street" v="Shadow Creek Drive"/><tag k="addr:housenumber" v="11501"/></node><node id="-227" lat="30.364572" lon="-97.537703" changeset="false"><tag k="addr:street" v="Fallsprings Way"/><tag k="addr:housenumber" v="13832"/></node><node id="-228" lat="30.364557" lon="-97.535971" changeset="false"><tag k="addr:street" v="Pecangate Way"/><tag k="addr:housenumber" v="11912"/></node><node id="-229" lat="30.362596" lon="-97.536233" changeset="false"><tag k="addr:street" v="Pine Arbor Trail"/><tag k="addr:housenumber" v="13605"/></node><node id="-230" lat="30.36183" lon="-97.535472" changeset="false"><tag k="addr:street" v="Oaklynn Court"/><tag k="addr:housenumber" v="12017"/></node><node id="-231" lat="30.358028" lon="-97.542147" changeset="false"><tag k="addr:street" v="Glen Mark Drive"/><tag k="addr:housenumber" v="13804"/></node><node id="-232" lat="30.360536" lon="-97.543265" changeset="false"><tag k="addr:street" v="Arbor Hill Cove"/><tag k="addr:housenumber" v="13605"/></node><node id="-233" lat="30.363881" lon="-97.537446" changeset="false"><tag k="addr:street" v="Fallsprings Way"/><tag k="addr:housenumber" v="13849"/></node><node id="-234" lat="30.361655" lon="-97.542061" changeset="false"><tag k="addr:street" v="Voelker Reinhardt Way"/><tag k="addr:housenumber" v="11729"/></node><node id="-235" lat="30.364047" lon="-97.535091" changeset="false"><tag k="addr:street" v="Pecangate Way"/><tag k="addr:housenumber" v="12008"/></node><node id="-236" lat="30.363108" lon="-97.534312" changeset="false"><tag k="addr:street" v="Pecangate Way"/><tag k="addr:housenumber" v="12041"/></node><node id="-237" lat="30.361924" lon="-97.543605" changeset="false"><tag k="addr:street" v="Windstone Court"/><tag k="addr:housenumber" v="13505"/></node><node id="-238" lat="30.362643" lon="-97.535266" changeset="false"><tag k="addr:street" v="Crownstone Lane"/><tag k="addr:housenumber" v="12025"/></node><node id="-239" lat="30.36157" lon="-97.534833" changeset="false"><tag k="addr:street" v="Pecangate Way"/><tag k="addr:housenumber" v="12300"/></node><node id="-240" lat="30.395113" lon="-97.526116" changeset="false"><tag k="addr:street" v="Anderson Road"/><tag k="addr:housenumber" v="15915"/></node><node id="-241" lat="30.39995" lon="-97.527562" changeset="false"><tag k="addr:street" v="Schmidt Lane"/><tag k="addr:housenumber" v="10809"/></node><node id="-242" lat="30.356756" lon="-97.548854" changeset="false"><tag k="addr:street" v="John Michael Drive"/><tag k="addr:housenumber" v="17016"/></node><node id="-243" lat="30.34966" lon="-97.557271" changeset="false"><tag k="addr:street" v="US Highway 290"/><tag k="addr:housenumber" v="11032"/></node><node id="-244" lat="30.349787" lon="-97.554663" changeset="false"><tag k="addr:street" v="US Highway 290"/><tag k="addr:housenumber" v="11300"/></node><node id="-245" lat="30.356739" lon="-97.552604" changeset="false"><tag k="addr:street" v="Craven Lane"/><tag k="addr:housenumber" v="13112"/></node><node id="-246" lat="30.356198" lon="-97.551878" changeset="false"><tag k="addr:street" v="John Michael Drive"/><tag k="addr:housenumber" v="16808"/></node><node id="-247" lat="30.356032" lon="-97.551353" changeset="false"><tag k="addr:street" v="John Michael Drive"/><tag k="addr:housenumber" v="16816"/></node><node id="-248" lat="30.356383" lon="-97.551094" changeset="false"><tag k="addr:street" v="John Michael Drive"/><tag k="addr:housenumber" v="16817"/></node><node id="-249" lat="30.3636" lon="-97.535319" changeset="false"><tag k="addr:street" v="Pecangate Way"/><tag k="addr:housenumber" v="12009"/></node><node id="-250" lat="30.363801" lon="-97.534604" changeset="false"><tag k="addr:street" v="Pecangate Way"/><tag k="addr:housenumber" v="12024"/></node><node id="-251" lat="30.394163" lon="-97.520391" changeset="false"><tag k="addr:street" v="Farm-to-Market Road 973,1100"/><tag k="addr:housenumber" v="15601"/></node><node id="-252" lat="30.363472" lon="-97.536244" changeset="false"><tag k="addr:street" v="Pine Arbor Trail"/><tag k="addr:housenumber" v="13616"/></node><node id="-253" lat="30.370631" lon="-97.563636" changeset="false"><tag k="addr:street" v="Fuchs Grove Road"/><tag k="addr:housenumber" v="13617"/></node><node id="-254" lat="30.358681" lon="-97.544899" changeset="false"><tag k="addr:street" v="Prince Phillip Way"/><tag k="addr:housenumber" v="11617"/></node><node id="-255" lat="30.353337" lon="-97.546247" changeset="false"><tag k="addr:street" v="Shadowlawn Trace"/><tag k="addr:housenumber" v="13800"/></node><node id="-256" lat="30.353166" lon="-97.544721" changeset="false"><tag k="addr:street" v="Pillion Place"/><tag k="addr:housenumber" v="11613"/></node><node id="-257" lat="30.356055" lon="-97.545229" changeset="false"><tag k="addr:street" v="Field Spar Drive"/><tag k="addr:housenumber" v="13705"/></node><node id="-258" lat="30.371377" lon="-97.563556" changeset="false"><tag k="addr:street" v="Fuchs Grove Road"/><tag k="addr:housenumber" v="13707"/></node><node id="-259" lat="30.357294" lon="-97.575669" changeset="false"><tag k="addr:street" v="Hill Lane"/><tag k="addr:housenumber" v="9301"/></node><node id="-260" lat="30.356311" lon="-97.549321" changeset="false"><tag k="addr:street" v="John Michael Drive"/><tag k="addr:housenumber" v="17004"/></node><node id="-261" lat="30.364109" lon="-97.535209" changeset="false"><tag k="addr:street" v="Pecangate Way"/><tag k="addr:housenumber" v="12004"/></node><node id="-262" lat="30.358729" lon="-97.541677" changeset="false"><tag k="addr:street" v="Field Stream Lane"/><tag k="addr:housenumber" v="13804"/></node><node id="-263" lat="30.363613" lon="-97.534234" changeset="false"><tag k="addr:street" v="Pecangate Way"/><tag k="addr:housenumber" v="12036"/></node><node id="-264" lat="30.362754" lon="-97.534029" changeset="false"><tag k="addr:street" v="Pecangate Way"/><tag k="addr:housenumber" v="12116"/></node><node id="-265" lat="30.363377" lon="-97.534815" changeset="false"><tag k="addr:street" v="Pecangate Way"/><tag k="addr:housenumber" v="12025"/></node><node id="-266" lat="30.348878" lon="-97.560322" changeset="false"><tag k="addr:street" v="US Highway 290"/><tag k="addr:housenumber" v="10910"/></node><node id="-267" lat="30.359201" lon="-97.541762" changeset="false"><tag k="addr:street" v="Field Stream Lane"/><tag k="addr:housenumber" v="13801"/></node><node id="-268" lat="30.353306" lon="-97.54953" changeset="false"><tag k="addr:street" v="Runnel Ridge Road"/><tag k="addr:housenumber" v="11304"/></node><node id="-269" lat="30.362365" lon="-97.542657" changeset="false"><tag k="addr:street" v="Green Lodge Court"/><tag k="addr:housenumber" v="13517"/></node><node id="-270" lat="30.364432" lon="-97.53696" changeset="false"><tag k="addr:street" v="Fallsprings Way"/><tag k="addr:housenumber" v="13852"/></node><node id="-271" lat="30.356482" lon="-97.549165" changeset="false"><tag k="addr:street" v="John Michael Drive"/><tag k="addr:housenumber" v="17008"/></node><node id="-272" lat="30.357245" lon="-97.549811" changeset="false"><tag k="addr:street" v="Craven Lane"/><tag k="addr:housenumber" v="13301"/></node><node id="-273" lat="30.375618" lon="-97.560761" changeset="false"><tag k="addr:street" v="Fuchs Grove Road"/><tag k="addr:housenumber" v="14023"/></node><node id="-274" lat="30.355906" lon="-97.549895" changeset="false"><tag k="addr:street" v="John Michael Drive"/><tag k="addr:housenumber" v="16920"/></node><node id="-275" lat="30.356018" lon="-97.549659" changeset="false"><tag k="addr:street" v="John Michael Drive"/><tag k="addr:housenumber" v="16924"/></node><node id="-276" lat="30.397895" lon="-97.526564" changeset="false"><tag k="addr:street" v="Anderson Road"/><tag k="addr:housenumber" v="16018"/></node><node id="-277" lat="30.372062" lon="-97.556682" changeset="false"><tag k="addr:street" v="Rector Loop"/><tag k="addr:housenumber" v="13905"/></node><node id="-278" lat="30.357141" lon="-97.551672" changeset="false"><tag k="addr:street" v="Craven Lane"/><tag k="addr:housenumber" v="13204"/></node><node id="-279" lat="30.357243" lon="-97.551155" changeset="false"><tag k="addr:street" v="Craven Lane"/><tag k="addr:housenumber" v="13212"/></node><node id="-280" lat="30.357386" lon="-97.550626" changeset="false"><tag k="addr:street" v="Craven Lane"/><tag k="addr:housenumber" v="13220"/></node><node id="-281" lat="30.356725" lon="-97.551733" changeset="false"><tag k="addr:street" v="Craven Lane"/><tag k="addr:housenumber" v="13201"/></node><node id="-282" lat="30.357517" lon="-97.550406" changeset="false"><tag k="addr:street" v="Craven Lane"/><tag k="addr:housenumber" v="13224"/></node><node id="-283" lat="30.357334" lon="-97.541437" changeset="false"><tag k="addr:street" v="Long Shadow Drive"/><tag k="addr:housenumber" v="13829"/></node><node id="-284" lat="30.362014" lon="-97.534527" changeset="false"><tag k="addr:street" v="Pecangate Way"/><tag k="addr:housenumber" v="12212"/></node><node id="-285" lat="30.353108" lon="-97.556414" changeset="false"><tag k="addr:street" v="Lexington Street,1100"/><tag k="addr:housenumber" v="12801"/></node><node id="-286" lat="30.364423" lon="-97.538459" changeset="false"><tag k="addr:street" v="Fallsprings Way"/><tag k="addr:housenumber" v="13817"/></node><node id="-287" lat="30.36416" lon="-97.537927" changeset="false"><tag k="addr:street" v="Fallsprings Way"/><tag k="addr:housenumber" v="13833"/></node><node id="-288" lat="30.396027" lon="-97.519183" changeset="false"><tag k="addr:street" v="Schmidt Lane"/><tag k="addr:housenumber" v="11411"/></node><node id="-289" lat="30.363192" lon="-97.53524" changeset="false"><tag k="addr:street" v="Crownstone Lane"/><tag k="addr:housenumber" v="12016"/></node><node id="-290" lat="30.363012" lon="-97.534881" changeset="false"><tag k="addr:street" v="Crownstone Lane"/><tag k="addr:housenumber" v="12028"/></node><node id="-291" lat="30.356085" lon="-97.551632" changeset="false"><tag k="addr:street" v="John Michael Drive"/><tag k="addr:housenumber" v="16812"/></node><node id="-292" lat="30.363358" lon="-97.536336" changeset="false"><tag k="addr:street" v="Pine Arbor Trail"/><tag k="addr:housenumber" v="13612"/></node><node id="-293" lat="30.361915" lon="-97.535769" changeset="false"><tag k="addr:street" v="Oaklynn Court"/><tag k="addr:housenumber" v="12009"/></node><node id="-294" lat="30.361771" lon="-97.535345" changeset="false"><tag k="addr:street" v="Oaklynn Court"/><tag k="addr:housenumber" v="12021"/></node><node id="-295" lat="30.415533" lon="-97.574555" changeset="false"><tag k="addr:street" v="Cameron Road"/><tag k="addr:housenumber" v="16233"/></node><node id="-296" lat="30.358206" lon="-97.542715" changeset="false"><tag k="addr:street" v="Glen Mark Drive"/><tag k="addr:housenumber" v="13712"/></node><node id="-297" lat="30.36479" lon="-97.539305" changeset="false"><tag k="addr:street" v="Fallsprings Way"/><tag k="addr:housenumber" v="13761"/></node><node id="-298" lat="30.357687" lon="-97.54999" changeset="false"><tag k="addr:street" v="Craven Lane"/><tag k="addr:housenumber" v="13300"/></node><node id="-299" lat="30.357786" lon="-97.548959" changeset="false"><tag k="addr:street" v="Craven Lane"/><tag k="addr:housenumber" v="13316"/></node><node id="-300" lat="30.363662" lon="-97.535457" changeset="false"><tag k="addr:street" v="Pecangate Way"/><tag k="addr:housenumber" v="12005"/></node><node id="-301" lat="30.356658" lon="-97.550155" changeset="false"><tag k="addr:street" v="Jonse Court"/><tag k="addr:housenumber" v="16908"/></node><node id="-302" lat="30.356468" lon="-97.551335" changeset="false"><tag k="addr:street" v="John Michael Drive"/><tag k="addr:housenumber" v="16813"/></node><node id="-303" lat="30.358986" lon="-97.542669" changeset="false"><tag k="addr:street" v="Field Stream Lane"/><tag k="addr:housenumber" v="13708"/></node><node id="-304" lat="30.396736" lon="-97.526189" changeset="false"><tag k="addr:street" v="Anderson Road"/><tag k="addr:housenumber" v="16007"/></node><node id="-305" lat="30.356252" lon="-97.553489" changeset="false"><tag k="addr:street" v="Craven Lane"/><tag k="addr:housenumber" v="13100"/></node><node id="-306" lat="30.356401" lon="-97.553236" changeset="false"><tag k="addr:street" v="Craven Lane"/><tag k="addr:housenumber" v="13104"/></node><node id="-307" lat="30.361478" lon="-97.53491" changeset="false"><tag k="addr:street" v="Pecangate Way"/><tag k="addr:housenumber" v="12304"/></node><node id="-308" lat="30.356299" lon="-97.552432" changeset="false"><tag k="addr:street" v="Craven Lane"/><tag k="addr:housenumber" v="13109"/></node><node id="-309" lat="30.401313" lon="-97.531248" changeset="false"><tag k="addr:street" v="Schmidt Lane"/><tag k="addr:housenumber" v="10403"/></node><node id="-310" lat="30.373767" lon="-97.558894" changeset="false"><tag k="addr:street" v="Rector Loop"/><tag k="addr:housenumber" v="13935"/></node><node id="-311" lat="30.35284" lon="-97.557364" changeset="false"><tag k="addr:street" v="Lexington Street,1100"/><tag k="addr:housenumber" v="12800"/></node><node id="-312" lat="30.364921" lon="-97.538651" changeset="false"><tag k="addr:street" v="Fallsprings Way"/><tag k="addr:housenumber" v="13804"/></node><node id="-313" lat="30.364104" lon="-97.537811" changeset="false"><tag k="addr:street" v="Fallsprings Way"/><tag k="addr:housenumber" v="13837"/></node><node id="-314" lat="30.361556" lon="-97.535464" changeset="false"><tag k="addr:street" v="Pecangate Way"/><tag k="addr:housenumber" v="12309"/></node><node id="-315" lat="30.362161" lon="-97.535083" changeset="false"><tag k="addr:street" v="Oaklynn Court"/><tag k="addr:housenumber" v="12024"/></node><node id="-316" lat="30.362517" lon="-97.535013" changeset="false"><tag k="addr:street" v="Crownstone Lane"/><tag k="addr:housenumber" v="12033"/></node><node id="-317" lat="30.362459" lon="-97.534907" changeset="false"><tag k="addr:street" v="Crownstone Lane"/><tag k="addr:housenumber" v="12037"/></node><node id="-318" lat="30.362827" lon="-97.53449" changeset="false"><tag k="addr:street" v="Crownstone Lane"/><tag k="addr:housenumber" v="12040"/></node><node id="-319" lat="30.361711" lon="-97.541923" changeset="false"><tag k="addr:street" v="Voelker Reinhardt Way"/><tag k="addr:housenumber" v="11733"/></node><node id="-320" lat="30.359479" lon="-97.549839" changeset="false"><tag k="addr:street" v="Glen Knoll Drive"/><tag k="addr:housenumber" v="11501"/></node><node id="-321" lat="30.355515" lon="-97.570004" changeset="false"><tag k="addr:street" v="Hill Lane"/><tag k="addr:housenumber" v="9910"/></node><node id="-322" lat="30.361722" lon="-97.535212" changeset="false"><tag k="addr:street" v="Oaklynn Court"/><tag k="addr:housenumber" v="12025"/></node><node id="-323" lat="30.356006" lon="-97.552955" changeset="false"><tag k="addr:street" v="Craven Lane"/><tag k="addr:housenumber" v="13101"/></node><node id="-324" lat="30.356988" lon="-97.552191" changeset="false"><tag k="addr:street" v="Craven Lane"/><tag k="addr:housenumber" v="13120"/></node><node id="-325" lat="30.358292" lon="-97.54088" changeset="false"><tag k="addr:street" v="Sun Glass Drive"/><tag k="addr:housenumber" v="11708"/></node><node id="-326" lat="30.349752" lon="-97.560693" changeset="false"><tag k="addr:street" v="Gregg Manor Road"/><tag k="addr:housenumber" v="12524"/></node><node id="-327" lat="30.347737" lon="-97.566263" changeset="false"><tag k="addr:street" v="US Highway 290"/><tag k="addr:housenumber" v="10500"/></node><node id="-328" lat="30.348732" lon="-97.561077" changeset="false"><tag k="addr:street" v="US Highway 290"/><tag k="addr:housenumber" v="10814"/></node><node id="-329" lat="30.358852" lon="-97.579648" changeset="false"><tag k="addr:street" v="Hill Lane"/><tag k="addr:housenumber" v="8901"/></node><node id="-330" lat="30.361035" lon="-97.542911" changeset="false"><tag k="addr:street" v="Voelker Reinhardt Way"/><tag k="addr:housenumber" v="11705"/></node><node id="-331" lat="30.347587" lon="-97.567502" changeset="false"><tag k="addr:street" v="US Highway 290"/><tag k="addr:housenumber" v="10400"/></node><node id="-332" lat="30.357695" lon="-97.540684" changeset="false"><tag k="addr:street" v="Sun Glass Drive"/><tag k="addr:housenumber" v="11701"/></node><node id="-333" lat="30.363486" lon="-97.535072" changeset="false"><tag k="addr:street" v="Pecangate Way"/><tag k="addr:housenumber" v="12017"/></node><node id="-334" lat="30.354991" lon="-97.560506" changeset="false"><tag k="addr:street" v="Gregg Manor Road"/><tag k="addr:housenumber" v="12719"/></node><node id="-335" lat="30.357826" lon="-97.549261" changeset="false"><tag k="addr:street" v="Craven Lane"/><tag k="addr:housenumber" v="13312"/></node><node id="-336" lat="30.356642" lon="-97.550513" changeset="false"><tag k="addr:street" v="Jonse Court"/><tag k="addr:housenumber" v="16904"/></node><node id="-337" lat="30.362302" lon="-97.535324" changeset="false"><tag k="addr:street" v="Oaklynn Court"/><tag k="addr:housenumber" v="12016"/></node><node id="-338" lat="30.357964" lon="-97.541962" changeset="false"><tag k="addr:street" v="Glen Mark Drive"/><tag k="addr:housenumber" v="13808"/></node><node id="-339" lat="30.356642" lon="-97.548987" changeset="false"><tag k="addr:street" v="John Michael Drive"/><tag k="addr:housenumber" v="17012"/></node><node id="-340" lat="30.355961" lon="-97.551122" changeset="false"><tag k="addr:street" v="John Michael Drive"/><tag k="addr:housenumber" v="16900"/></node><node id="-341" lat="30.415227" lon="-97.5736" changeset="false"><tag k="addr:street" v="Cameron Road"/><tag k="addr:housenumber" v="16245"/></node><node id="-342" lat="30.360072" lon="-97.544312" changeset="false"><tag k="addr:street" v="Prince Phillip Way"/><tag k="addr:housenumber" v="11720"/></node><node id="-343" lat="30.359965" lon="-97.544648" changeset="false"><tag k="addr:street" v="Prince Phillip Way"/><tag k="addr:housenumber" v="11712"/></node><node id="-344" lat="30.414333" lon="-97.577281" changeset="false"><tag k="addr:street" v="Cameron Road"/><tag k="addr:housenumber" v="15915"/></node><node id="-345" lat="30.369617" lon="-97.532883" changeset="false"><tag k="addr:street" v="Old Manor Taylor Road"/><tag k="addr:housenumber" v="14300"/></node><node id="-346" lat="30.356576" lon="-97.545152" changeset="false"><tag k="addr:street" v="Glen Creek Court"/><tag k="addr:housenumber" v="13620"/></node><node id="-347" lat="30.358362" lon="-97.543319" changeset="false"><tag k="addr:street" v="Glen Mark Drive"/><tag k="addr:housenumber" v="13700"/></node><node id="-348" lat="30.413969" lon="-97.577491" changeset="false"><tag k="addr:street" v="Cameron Road"/><tag k="addr:housenumber" v="15907"/></node><node id="-349" lat="30.354399" lon="-97.543003" changeset="false"><tag k="addr:street" v="Pillion Place"/><tag k="addr:housenumber" v="11721"/></node><node id="-350" lat="30.359671" lon="-97.543213" changeset="false"><tag k="addr:street" v="Field Stream Lane"/><tag k="addr:housenumber" v="13621"/></node><node id="-351" lat="30.358546" lon="-97.545035" changeset="false"><tag k="addr:street" v="Prince Phillip Way"/><tag k="addr:housenumber" v="11613"/></node><node id="-352" lat="30.354725" lon="-97.544179" changeset="false"><tag k="addr:street" v="Gold Run Cove"/><tag k="addr:housenumber" v="11700"/></node><node id="-353" lat="30.377845" lon="-97.560032" changeset="false"><tag k="addr:street" v="Fuchs Grove Road"/><tag k="addr:housenumber" v="14212"/></node><node id="-354" lat="30.368584" lon="-97.559511" changeset="false"><tag k="addr:street" v="Rector Loop"/><tag k="addr:housenumber" v="13612"/></node><node id="-355" lat="30.369213" lon="-97.564964" changeset="false"><tag k="addr:street" v="Fuchs Grove Road"/><tag k="addr:housenumber" v="13505"/></node><node id="-356" lat="30.34372" lon="-97.584963" changeset="false"><tag k="addr:street" v="US Highway 290"/><tag k="addr:housenumber" v="10104"/></node><node id="-357" lat="30.352995" lon="-97.546591" changeset="false"><tag k="addr:street" v="Calera Cove"/><tag k="addr:housenumber" v="13800"/></node><node id="-358" lat="30.356221" lon="-97.541621" changeset="false"><tag k="addr:street" v="Sun Glass Drive"/><tag k="addr:housenumber" v="11517"/></node><node id="-359" lat="30.35697" lon="-97.544836" changeset="false"><tag k="addr:street" v="Glen Creek Court"/><tag k="addr:housenumber" v="13621"/></node><node id="-360" lat="30.353405" lon="-97.545502" changeset="false"><tag k="addr:street" v="Shadowlawn Trace"/><tag k="addr:housenumber" v="13809"/></node><node id="-361" lat="30.35454" lon="-97.546847" changeset="false"><tag k="addr:street" v="Amber Dawn Court"/><tag k="addr:housenumber" v="13608"/></node><node id="-362" lat="30.354753" lon="-97.546185" changeset="false"><tag k="addr:street" v="Amber Dawn Court"/><tag k="addr:housenumber" v="13617"/></node><node id="-363" lat="30.357982" lon="-97.543213" changeset="false"><tag k="addr:street" v="Long Shadow Drive"/><tag k="addr:housenumber" v="13713"/></node><node id="-364" lat="30.367951" lon="-97.52974" changeset="false"><tag k="addr:street" v="Suncrest Road"/><tag k="addr:housenumber" v="14208"/></node><node id="-365" lat="30.352515" lon="-97.545691" changeset="false"><tag k="addr:street" v="Pillion Place"/><tag k="addr:housenumber" v="11525"/></node><node id="-366" lat="30.355856" lon="-97.543657" changeset="false"><tag k="addr:street" v="Field Spar Drive"/><tag k="addr:housenumber" v="13732"/></node><node id="-367" lat="30.352062" lon="-97.546344" changeset="false"><tag k="addr:street" v="Pillion Place"/><tag k="addr:housenumber" v="11509"/></node><node id="-368" lat="30.392993" lon="-97.527945" changeset="false"><tag k="addr:street" v="Anderson Road"/><tag k="addr:housenumber" v="15821"/></node><node id="-369" lat="30.401662" lon="-97.543343" changeset="false"><tag k="addr:street" v="Cameron Road"/><tag k="addr:housenumber" v="16691"/></node><node id="-370" lat="30.358033" lon="-97.544201" changeset="false"><tag k="addr:street" v="Mill Ridge Trace"/><tag k="addr:housenumber" v="11609"/></node><node id="-371" lat="30.353811" lon="-97.545207" changeset="false"><tag k="addr:street" v="Shadowlawn Trace"/><tag k="addr:housenumber" v="13717"/></node><node id="-372" lat="30.354539" lon="-97.542895" changeset="false"><tag k="addr:street" v="Pillion Place"/><tag k="addr:housenumber" v="11725"/></node><node id="-373" lat="30.353879" lon="-97.543428" changeset="false"><tag k="addr:street" v="Pillion Place"/><tag k="addr:housenumber" v="11709"/></node><node id="-374" lat="30.380317" lon="-97.558212" changeset="false"><tag k="addr:street" v="Fuchs Grove Road"/><tag k="addr:housenumber" v="14414"/></node><node id="-375" lat="30.360362" lon="-97.549011" changeset="false"><tag k="addr:street" v="Glen Knoll Drive"/><tag k="addr:housenumber" v="11601"/></node><node id="-376" lat="30.359427" lon="-97.548619" changeset="false"><tag k="addr:street" v="Sunny Creek Lane"/><tag k="addr:housenumber" v="11533"/></node><node id="-377" lat="30.355933" lon="-97.545302" changeset="false"><tag k="addr:street" v="Field Spar Drive"/><tag k="addr:housenumber" v="13701"/></node><node id="-378" lat="30.353781" lon="-97.547368" changeset="false"><tag k="addr:street" v="Sun Dapple Court"/><tag k="addr:housenumber" v="13608"/></node><node id="-379" lat="30.35641" lon="-97.542505" changeset="false"><tag k="addr:street" v="Tercel Trace"/><tag k="addr:housenumber" v="13816"/></node><node id="-380" lat="30.353444" lon="-97.547571" changeset="false"><tag k="addr:street" v="Terrace Meadow Way"/><tag k="addr:housenumber" v="11409"/></node><node id="-381" lat="30.363507" lon="-97.533772" changeset="false"><tag k="addr:street" v="Pecangate Way"/><tag k="addr:housenumber" v="12048"/></node><node id="-382" lat="30.362656" lon="-97.534159" changeset="false"><tag k="addr:street" v="Pecangate Way"/><tag k="addr:housenumber" v="12120"/></node><node id="-383" lat="30.349224" lon="-97.560262" changeset="false"><tag k="addr:street" v="Gregg Manor Road"/><tag k="addr:housenumber" v="12512"/></node><node id="-384" lat="30.358058" lon="-97.545276" changeset="false"><tag k="addr:street" v="Prince Phillip Way"/><tag k="addr:housenumber" v="11601"/></node><node id="-385" lat="30.372426" lon="-97.557832" changeset="false"><tag k="addr:street" v="Rector Loop"/><tag k="addr:housenumber" v="13917"/></node><node id="-386" lat="30.364297" lon="-97.537123" changeset="false"><tag k="addr:street" v="Fallsprings Way"/><tag k="addr:housenumber" v="13848"/></node><node id="-387" lat="30.364378" lon="-97.53731" changeset="false"><tag k="addr:street" v="Fallsprings Way"/><tag k="addr:housenumber" v="13844"/></node><node id="-388" lat="30.380271" lon="-97.528118" changeset="false"><tag k="addr:street" v="Farm-to-Market Road 973,1100"/><tag k="addr:housenumber" v="14832"/></node><node id="-389" lat="30.355373" lon="-97.543408" changeset="false"><tag k="addr:street" v="Shady Ridge Lane"/><tag k="addr:housenumber" v="13737"/></node><node id="-390" lat="30.364347" lon="-97.538322" changeset="false"><tag k="addr:street" v="Fallsprings Way"/><tag k="addr:housenumber" v="13821"/></node><node id="-391" lat="30.364286" lon="-97.538173" changeset="false"><tag k="addr:street" v="Fallsprings Way"/><tag k="addr:housenumber" v="13825"/></node><node id="-392" lat="30.356925" lon="-97.541701" changeset="false"><tag k="addr:street" v="Long Shadow Drive"/><tag k="addr:housenumber" v="13824"/></node><node id="-393" lat="30.362112" lon="-97.534951" changeset="false"><tag k="addr:street" v="Oaklynn Court"/><tag k="addr:housenumber" v="12028"/></node><node id="-394" lat="30.355881" lon="-97.544439" changeset="false"><tag k="addr:street" v="Field Spar Drive"/><tag k="addr:housenumber" v="13716"/></node><node id="-395" lat="30.369451" lon="-97.532466" changeset="false"><tag k="addr:street" v="Old Manor Taylor Road"/><tag k="addr:housenumber" v="14301"/></node></osm>