<?xml version="1.0" encoding="UTF-8"?><osm version="0.6" generator="github.com/aaronlidman/osm-and-geojson"><node id="-1" lat="30.257431" lon="-97.746964" changeset="false"><tag k="addr:street" v="West Riverside Drive"/><tag k="addr:housenumber" v="118"/><tag k="addr:postcode" v="78704"/></node><node id="-2" lat="30.260628" lon="-97.753827" changeset="false"><tag k="addr:street" v="Bouldin Avenue"/><tag k="addr:housenumber" v="406"/><tag k="addr:postcode" v="78704"/></node><node id="-3" lat="30.262018" lon="-97.755088" changeset="false"><tag k="addr:street" v="Dawson Road"/><tag k="addr:housenumber" v="201"/><tag k="addr:postcode" v="78704"/></node><node id="-4" lat="30.258911" lon="-97.752543" changeset="false"><tag k="addr:street" v="Barton Springs Road"/><tag k="addr:housenumber" v="801"/><tag k="addr:postcode" v="78704"/></node><node id="-5" lat="30.253214" lon="-97.753523" changeset="false"><tag k="addr:street" v="South 1st Street"/><tag k="addr:housenumber" v="1104"/><tag k="addr:postcode" v="78704"/></node><node id="-6" lat="30.250305" lon="-97.754565" changeset="false"><tag k="addr:street" v="South 1st Street"/><tag k="addr:housenumber" v="1415"/><tag k="addr:postcode" v="78704"/></node><node id="-7" lat="30.262104" lon="-97.752803" changeset="false"><tag k="addr:street" v="Bouldin Avenue"/><tag k="addr:housenumber" v="100"/><tag k="addr:postcode" v="78704"/></node><node id="-8" lat="30.257866" lon="-97.749804" changeset="false"><tag k="addr:street" v="Barton Springs Road"/><tag k="addr:housenumber" v="507"/><tag k="addr:postcode" v="78704"/></node><node id="-9" lat="30.258295" lon="-97.753235" changeset="false"><tag k="addr:street" v="South 3rd Street"/><tag k="addr:housenumber" v="500"/><tag k="addr:postcode" v="78704"/></node><node id="-10" lat="30.255064" lon="-97.753462" changeset="false"><tag k="addr:street" v="South 2nd Street"/><tag k="addr:housenumber" v="900"/><tag k="addr:postcode" v="78704"/></node><node id="-11" lat="30.254492" lon="-97.754647" changeset="false"><tag k="addr:street" v="South 3rd Street"/><tag k="addr:housenumber" v="1001"/><tag k="addr:postcode" v="78704"/></node><node id="-12" lat="30.254774" lon="-97.753198" changeset="false"><tag k="addr:street" v="South 2nd Street"/><tag k="addr:housenumber" v="903"/><tag k="addr:postcode" v="78704"/></node><node id="-13" lat="30.263869" lon="-97.754556" changeset="false"><tag k="addr:street" v="West Riverside Drive"/><tag k="addr:housenumber" v="1100 1/2"/><tag k="addr:postcode" v="78704"/></node><node id="-14" lat="30.254164" lon="-97.748329" changeset="false"><tag k="addr:street" v="South Congress Avenue"/><tag k="addr:housenumber" v="1102"/><tag k="addr:postcode" v="78704"/></node><node id="-15" lat="30.253331" lon="-97.755628" changeset="false"><tag k="addr:street" v="South 3rd Street"/><tag k="addr:housenumber" v="1122"/><tag k="addr:postcode" v="78704"/></node><node id="-16" lat="30.253292" lon="-97.755288" changeset="false"><tag k="addr:street" v="West James Street"/><tag k="addr:housenumber" v="708"/><tag k="addr:postcode" v="78704"/></node><node id="-17" lat="30.25324" lon="-97.755176" changeset="false"><tag k="addr:street" v="West James Street"/><tag k="addr:housenumber" v="706"/><tag k="addr:postcode" v="78704"/></node><node id="-18" lat="30.260277" lon="-97.748534" changeset="false"><tag k="addr:street" v="South 1st Street"/><tag k="addr:housenumber" v="201"/><tag k="addr:postcode" v="78704"/></node><node id="-19" lat="30.254381" lon="-97.75281" changeset="false"><tag k="addr:street" v="South 1st Street"/><tag k="addr:housenumber" v="906"/><tag k="addr:postcode" v="78704"/></node><node id="-20" lat="30.260133" lon="-97.749299" changeset="false"><tag k="addr:street" v="West Riverside Drive"/><tag k="addr:housenumber" v="618 1/2"/><tag k="addr:postcode" v="78704"/></node><node id="-21" lat="30.26314" lon="-97.754674" changeset="false"><tag k="addr:street" v="Dawson Road"/><tag k="addr:housenumber" v="101"/><tag k="addr:postcode" v="78704"/></node><node id="-22" lat="30.261979" lon="-97.752146" changeset="false"><tag k="addr:street" v="West Riverside Drive"/><tag k="addr:housenumber" v="809"/><tag k="addr:postcode" v="78704"/></node><node id="-23" lat="30.255125" lon="-97.751777" changeset="false"><tag k="addr:street" v="South 1st Street"/><tag k="addr:housenumber" v="801"/><tag k="addr:postcode" v="78704"/></node><node id="-24" lat="30.258889" lon="-97.748995" changeset="false"><tag k="addr:street" v="Barton Springs Road"/><tag k="addr:housenumber" v="400"/><tag k="addr:postcode" v="78704"/></node><node id="-25" lat="30.253068" lon="-97.753543" changeset="false"><tag k="addr:street" v="South 1st Street"/><tag k="addr:housenumber" v="1106"/><tag k="addr:postcode" v="78704"/></node><node id="-26" lat="30.26164" lon="-97.748245" changeset="false"><tag k="addr:street" v="South 1st Street"/><tag k="addr:housenumber" v="101"/><tag k="addr:postcode" v="78704"/></node><node id="-27" lat="30.251352" lon="-97.753975" changeset="false"><tag k="addr:street" v="South 1st Street"/><tag k="addr:housenumber" v="1301"/><tag k="addr:postcode" v="78704"/></node><node id="-28" lat="30.263034" lon="-97.753935" changeset="false"><tag k="addr:street" v="West Riverside Drive"/><tag k="addr:housenumber" v="903 1/2"/><tag k="addr:postcode" v="78704"/></node><node id="-29" lat="30.262397" lon="-97.752901" changeset="false"><tag k="addr:street" v="West Riverside Drive"/><tag k="addr:housenumber" v="901"/><tag k="addr:postcode" v="78704"/></node><node id="-30" lat="30.254332" lon="-97.754696" changeset="false"><tag k="addr:street" v="South 3rd Street"/><tag k="addr:housenumber" v="1003"/><tag k="addr:postcode" v="78704"/></node><node id="-31" lat="30.260623" lon="-97.750387" changeset="false"><tag k="addr:street" v="West Riverside Drive"/><tag k="addr:housenumber" v="701"/><tag k="addr:postcode" v="78704"/></node><node id="-32" lat="30.259027" lon="-97.749313" changeset="false"><tag k="addr:street" v="West Riverside Drive"/><tag k="addr:housenumber" v="425"/><tag k="addr:postcode" v="78704"/></node><node id="-33" lat="30.254692" lon="-97.753152" changeset="false"><tag k="addr:street" v="South 2nd Street"/><tag k="addr:housenumber" v="905"/><tag k="addr:postcode" v="78704"/></node><node id="-34" lat="30.252835" lon="-97.753807" changeset="false"><tag k="addr:street" v="South 1st Street"/><tag k="addr:housenumber" v="1108"/><tag k="addr:postcode" v="78704"/></node><node id="-35" lat="30.256862" lon="-97.748072" changeset="false"><tag k="addr:street" v="South Congress Avenue"/><tag k="addr:housenumber" v="500"/><tag k="addr:postcode" v="78704"/></node><node id="-36" lat="30.259956" lon="-97.74614" changeset="false"><tag k="addr:street" v="South Congress Avenue"/><tag k="addr:housenumber" v="210"/><tag k="addr:postcode" v="78704"/></node><node id="-37" lat="30.251618" lon="-97.753877" changeset="false"><tag k="addr:street" v="South 1st Street"/><tag k="addr:housenumber" v="1209"/><tag k="addr:postcode" v="78704"/></node><node id="-38" lat="30.261152" lon="-97.749816" changeset="false"><tag k="addr:street" v="West Riverside Drive"/><tag k="addr:housenumber" v="700"/><tag k="addr:postcode" v="78704"/></node><node id="-39" lat="30.258306" lon="-97.746608" changeset="false"><tag k="addr:street" v="South Congress Avenue"/><tag k="addr:housenumber" v="322"/><tag k="addr:postcode" v="78704"/></node><node id="-40" lat="30.251811" lon="-97.754351" changeset="false"><tag k="addr:street" v="South 1st Street"/><tag k="addr:housenumber" v="1214"/><tag k="addr:postcode" v="78704"/></node><node id="-41" lat="30.253699" lon="-97.754308" changeset="false"><tag k="addr:street" v="South 2nd Street"/><tag k="addr:housenumber" v="1100"/><tag k="addr:postcode" v="78704"/></node><node id="-42" lat="30.254489" lon="-97.752739" changeset="false"><tag k="addr:street" v="South 1st Street"/><tag k="addr:housenumber" v="904"/><tag k="addr:postcode" v="78704"/></node><node id="-43" lat="30.252209" lon="-97.754574" changeset="false"><tag k="addr:street" v="West Gibson Street"/><tag k="addr:housenumber" v="604"/><tag k="addr:postcode" v="78704"/></node><node id="-44" lat="30.259002" lon="-97.749788" changeset="false"><tag k="addr:street" v="South 1st Street"/><tag k="addr:housenumber" v="454 1/2"/><tag k="addr:postcode" v="78704"/></node><node id="-45" lat="30.258745" lon="-97.749474" changeset="false"><tag k="addr:street" v="Barton Springs Road"/><tag k="addr:housenumber" v="510"/><tag k="addr:postcode" v="78704"/></node><node id="-46" lat="30.258238" lon="-97.746634" changeset="false"><tag k="addr:street" v="South Congress Avenue"/><tag k="addr:housenumber" v="324"/><tag k="addr:postcode" v="78704"/></node><node id="-47" lat="30.25874" lon="-97.747319" changeset="false"><tag k="addr:street" v="Barton Springs Road"/><tag k="addr:housenumber" v="201"/><tag k="addr:postcode" v="78704"/></node><node id="-48" lat="30.258716" lon="-97.749299" changeset="false"><tag k="addr:street" v="Barton Springs Road"/><tag k="addr:housenumber" v="418"/><tag k="addr:postcode" v="78704"/></node><node id="-49" lat="30.253113" lon="-97.755023" changeset="false"><tag k="addr:street" v="West James Street"/><tag k="addr:housenumber" v="704"/><tag k="addr:postcode" v="78704"/></node><node id="-50" lat="30.259084" lon="-97.751725" changeset="false"><tag k="addr:street" v="Barton Springs Road"/><tag k="addr:housenumber" v="720"/><tag k="addr:postcode" v="78704"/></node><node id="-51" lat="30.260516" lon="-97.755373" changeset="false"><tag k="addr:street" v="Dawson Road"/><tag k="addr:housenumber" v="423"/><tag k="addr:postcode" v="78704"/></node><node id="-52" lat="30.259796" lon="-97.749173" changeset="false"><tag k="addr:street" v="West Riverside Drive"/><tag k="addr:housenumber" v="510"/><tag k="addr:postcode" v="78704"/></node><node id="-53" lat="30.262684" lon="-97.755241" changeset="false"><tag k="addr:street" v="Dawson Road"/><tag k="addr:housenumber" v="254 1/2"/><tag k="addr:postcode" v="78704"/></node><node id="-54" lat="30.261369" lon="-97.751266" changeset="false"><tag k="addr:street" v="West Riverside Drive"/><tag k="addr:housenumber" v="721"/><tag k="addr:postcode" v="78704"/></node><node id="-55" lat="30.258975" lon="-97.748084" changeset="false"><tag k="addr:street" v="Barton Springs Road"/><tag k="addr:housenumber" v="306"/><tag k="addr:postcode" v="78704"/></node><node id="-56" lat="30.259142" lon="-97.746214" changeset="false"><tag k="addr:street" v="Barton Springs Road"/><tag k="addr:housenumber" v="100 1/2"/><tag k="addr:postcode" v="78704"/></node><node id="-57" lat="30.260156" lon="-97.746077" changeset="false"><tag k="addr:street" v="South Congress Avenue"/><tag k="addr:housenumber" v="208"/><tag k="addr:postcode" v="78704"/></node><node id="-58" lat="30.261857" lon="-97.748696" changeset="false"><tag k="addr:street" v="South 1st Street"/><tag k="addr:housenumber" v="106"/><tag k="addr:postcode" v="78704"/></node><node id="-59" lat="30.258374" lon="-97.746583" changeset="false"><tag k="addr:street" v="South Congress Avenue"/><tag k="addr:housenumber" v="320"/><tag k="addr:postcode" v="78704"/></node><node id="-60" lat="30.251989" lon="-97.754753" changeset="false"><tag k="addr:street" v="West Gibson Street"/><tag k="addr:housenumber" v="606"/><tag k="addr:postcode" v="78704"/></node><node id="-61" lat="30.252052" lon="-97.754834" changeset="false"><tag k="addr:street" v="West Gibson Street"/><tag k="addr:housenumber" v="608"/><tag k="addr:postcode" v="78704"/></node><node id="-62" lat="30.253365" lon="-97.754379" changeset="false"><tag k="addr:street" v="South 2nd Street"/><tag k="addr:housenumber" v="1106"/><tag k="addr:postcode" v="78704"/></node><node id="-63" lat="30.257247" lon="-97.753955" changeset="false"><tag k="addr:street" v="Post Oak Street"/><tag k="addr:housenumber" v="801"/><tag k="addr:postcode" v="78704"/></node><node id="-64" lat="30.263023" lon="-97.752147" changeset="false"><tag k="addr:street" v="West Riverside Drive"/><tag k="addr:housenumber" v="920"/><tag k="addr:postcode" v="78704"/></node><node id="-65" lat="30.260753" lon="-97.755413" changeset="false"><tag k="addr:street" v="Dawson Road"/><tag k="addr:housenumber" v="421"/><tag k="addr:postcode" v="78704"/></node><node id="-66" lat="30.255906" lon="-97.754501" changeset="false"><tag k="addr:street" v="Bouldin Avenue"/><tag k="addr:housenumber" v="901 1/2"/><tag k="addr:postcode" v="78704"/></node><node id="-67" lat="30.2605" lon="-97.755084" changeset="false"><tag k="addr:street" v="Barton Springs Road"/><tag k="addr:housenumber" v="1000"/><tag k="addr:postcode" v="78704"/></node><node id="-68" lat="30.254424" lon="-97.752468" changeset="false"><tag k="addr:street" v="South 1st Street"/><tag k="addr:housenumber" v="907 1/2"/><tag k="addr:postcode" v="78704"/></node><node id="-69" lat="30.258778" lon="-97.749111" changeset="false"><tag k="addr:street" v="Barton Springs Road"/><tag k="addr:housenumber" v="414"/><tag k="addr:postcode" v="78704"/></node><node id="-70" lat="30.257411" lon="-97.754627" changeset="false"><tag k="addr:street" v="Bouldin Avenue"/><tag k="addr:housenumber" v="703"/><tag k="addr:postcode" v="78704"/></node><node id="-71" lat="30.257983" lon="-97.746796" changeset="false"><tag k="addr:street" v="South Congress Avenue"/><tag k="addr:housenumber" v="336"/><tag k="addr:postcode" v="78704"/></node><node id="-72" lat="30.253557" lon="-97.753957" changeset="false"><tag k="addr:street" v="Copeland Street"/><tag k="addr:housenumber" v="607"/><tag k="addr:postcode" v="78704"/></node><node id="-73" lat="30.253557" lon="-97.754115" changeset="false"><tag k="addr:street" v="Copeland Street"/><tag k="addr:housenumber" v="701"/><tag k="addr:postcode" v="78704"/></node><node id="-74" lat="30.258731" lon="-97.746517" changeset="false"><tag k="addr:street" v="South Congress Avenue"/><tag k="addr:housenumber" v="310"/><tag k="addr:postcode" v="78704"/></node><node id="-75" lat="30.254732" lon="-97.755029" changeset="false"><tag k="addr:street" v="South 3rd Street"/><tag k="addr:housenumber" v="1002"/><tag k="addr:postcode" v="78704"/></node><node id="-76" lat="30.254777" lon="-97.754916" changeset="false"><tag k="addr:street" v="Christopher Street"/><tag k="addr:housenumber" v="705"/><tag k="addr:postcode" v="78704"/></node><node id="-77" lat="30.254112" lon="-97.753533" changeset="false"><tag k="addr:street" v="South 2nd Street"/><tag k="addr:housenumber" v="1001"/><tag k="addr:postcode" v="78704"/></node><node id="-78" lat="30.253008" lon="-97.753579" changeset="false"><tag k="addr:street" v="South 1st Street"/><tag k="addr:housenumber" v="1112"/><tag k="addr:postcode" v="78704"/></node><node id="-79" lat="30.251804" lon="-97.753896" changeset="false"><tag k="addr:street" v="South 1st Street"/><tag k="addr:housenumber" v="1207"/><tag k="addr:postcode" v="78704"/></node><node id="-80" lat="30.252268" lon="-97.754081" changeset="false"><tag k="addr:street" v="South 1st Street"/><tag k="addr:housenumber" v="1200"/><tag k="addr:postcode" v="78704"/></node><node id="-81" lat="30.257633" lon="-97.746867" changeset="false"><tag k="addr:street" v="South Congress Avenue"/><tag k="addr:housenumber" v="344"/><tag k="addr:postcode" v="78704"/></node><node id="-82" lat="30.255073" lon="-97.74793" changeset="false"><tag k="addr:street" v="South Congress Avenue"/><tag k="addr:housenumber" v="722 1/2"/><tag k="addr:postcode" v="78704"/></node><node id="-83" lat="30.253428" lon="-97.753786" changeset="false"><tag k="addr:street" v="Copeland Street"/><tag k="addr:housenumber" v="605"/><tag k="addr:postcode" v="78704"/></node><node id="-84" lat="30.253259" lon="-97.755665" changeset="false"><tag k="addr:street" v="South 3rd Street"/><tag k="addr:housenumber" v="1124"/><tag k="addr:postcode" v="78704"/></node><node id="-85" lat="30.260224" lon="-97.754764" changeset="false"><tag k="addr:street" v="Barton Springs Road"/><tag k="addr:housenumber" v="1006"/><tag k="addr:postcode" v="78704"/></node><node id="-86" lat="30.260653" lon="-97.745935" changeset="false"><tag k="addr:street" v="South Congress Avenue"/><tag k="addr:housenumber" v="200"/><tag k="addr:postcode" v="78704"/></node><node id="-87" lat="30.25463" lon="-97.75329" changeset="false"><tag k="addr:street" v="South 2nd Street"/><tag k="addr:housenumber" v="907"/><tag k="addr:postcode" v="78704"/></node><node id="-88" lat="30.259669" lon="-97.749652" changeset="false"><tag k="addr:street" v="West Riverside Drive"/><tag k="addr:housenumber" v="601"/><tag k="addr:postcode" v="78704"/></node><node id="-89" lat="30.259529" lon="-97.748692" changeset="false"><tag k="addr:street" v="West Riverside Drive"/><tag k="addr:housenumber" v="422"/><tag k="addr:postcode" v="78704"/></node><node id="-90" lat="30.259966" lon="-97.749018" changeset="false"><tag k="addr:street" v="South 1st Street"/><tag k="addr:housenumber" v="219"/><tag k="addr:postcode" v="78704"/></node><node id="-91" lat="30.256077" lon="-97.75483" changeset="false"><tag k="addr:street" v="Bouldin Avenue"/><tag k="addr:housenumber" v="901"/><tag k="addr:postcode" v="78704"/></node><node id="-92" lat="30.260945" lon="-97.747974" changeset="false"><tag k="addr:street" v="South 1st Street"/><tag k="addr:housenumber" v="151"/><tag k="addr:postcode" v="78704"/></node><node id="-93" lat="30.253493" lon="-97.755698" changeset="false"><tag k="addr:street" v="West James Street"/><tag k="addr:housenumber" v="802"/><tag k="addr:postcode" v="78704"/></node><node id="-94" lat="30.254035" lon="-97.753064" changeset="false"><tag k="addr:street" v="South 1st Street"/><tag k="addr:housenumber" v="1000"/><tag k="addr:postcode" v="78704"/></node><node id="-95" lat="30.25923" lon="-97.748715" changeset="false"><tag k="addr:street" v="West Riverside Drive"/><tag k="addr:housenumber" v="414"/><tag k="addr:postcode" v="78704"/></node><node id="-96" lat="30.258191" lon="-97.749006" changeset="false"><tag k="addr:street" v="Barton Springs Road"/><tag k="addr:housenumber" v="415"/><tag k="addr:postcode" v="78704"/></node><node id="-97" lat="30.262952" lon="-97.754789" changeset="false"><tag k="addr:street" v="Dawson Road"/><tag k="addr:housenumber" v="103"/><tag k="addr:postcode" v="78704"/></node><node id="-98" lat="30.259284" lon="-97.746244" changeset="false"><tag k="addr:street" v="South Congress Avenue"/><tag k="addr:housenumber" v="228"/><tag k="addr:postcode" v="78704"/></node><node id="-99" lat="30.260432" lon="-97.7482" changeset="false"><tag k="addr:street" v="South 1st Street"/><tag k="addr:housenumber" v="155"/><tag k="addr:postcode" v="78704"/></node><node id="-100" lat="30.257828" lon="-97.748852" changeset="false"><tag k="addr:street" v="Barton Springs Road"/><tag k="addr:housenumber" v="503"/><tag k="addr:postcode" v="78704"/></node><node id="-101" lat="30.261968" lon="-97.75093" changeset="false"><tag k="addr:street" v="West Riverside Drive"/><tag k="addr:housenumber" v="800"/><tag k="addr:postcode" v="78704"/></node><node id="-102" lat="30.25465" lon="-97.752541" changeset="false"><tag k="addr:street" v="South 1st Street"/><tag k="addr:housenumber" v="900"/><tag k="addr:postcode" v="78704"/></node><node id="-103" lat="30.260241" lon="-97.753823" changeset="false"><tag k="addr:street" v="Barton Springs Road"/><tag k="addr:housenumber" v="900"/><tag k="addr:postcode" v="78704"/></node><node id="-104" lat="30.258693" lon="-97.749258" changeset="false"><tag k="addr:street" v="Barton Springs Road"/><tag k="addr:housenumber" v="418 1/2"/><tag k="addr:postcode" v="78704"/></node><node id="-105" lat="30.259724" lon="-97.749813" changeset="false"><tag k="addr:street" v="South 1st Street"/><tag k="addr:housenumber" v="400 1/2"/><tag k="addr:postcode" v="78704"/></node><node id="-106" lat="30.263823" lon="-97.754477" changeset="false"><tag k="addr:street" v="West Riverside Drive"/><tag k="addr:housenumber" v="1100"/><tag k="addr:postcode" v="78704"/></node><node id="-107" lat="30.25821" lon="-97.750633" changeset="false"><tag k="addr:street" v="Barton Springs Road"/><tag k="addr:housenumber" v="601"/><tag k="addr:postcode" v="78704"/></node><node id="-108" lat="30.26164" lon="-97.751542" changeset="false"><tag k="addr:street" v="West Riverside Drive"/><tag k="addr:housenumber" v="801"/><tag k="addr:postcode" v="78704"/></node><node id="-109" lat="30.259737" lon="-97.749041" changeset="false"><tag k="addr:street" v="West Riverside Drive"/><tag k="addr:housenumber" v="430"/><tag k="addr:postcode" v="78704"/></node><node id="-110" lat="30.258547" lon="-97.746768" changeset="false"><tag k="addr:street" v="South Congress Avenue"/><tag k="addr:housenumber" v="300"/><tag k="addr:postcode" v="78704"/></node><node id="-111" lat="30.258523" lon="-97.747908" changeset="false"><tag k="addr:street" v="Barton Springs Road"/><tag k="addr:housenumber" v="301"/><tag k="addr:postcode" v="78704"/></node><node id="-112" lat="30.258139" lon="-97.747715" changeset="false"><tag k="addr:street" v="West Riverside Drive"/><tag k="addr:housenumber" v="206"/><tag k="addr:postcode" v="78704"/></node><node id="-113" lat="30.258221" lon="-97.747801" changeset="false"><tag k="addr:street" v="West Riverside Drive"/><tag k="addr:housenumber" v="210"/><tag k="addr:postcode" v="78704"/></node><node id="-114" lat="30.255198" lon="-97.755957" changeset="false"><tag k="addr:street" v="Christopher Street"/><tag k="addr:housenumber" v="815"/><tag k="addr:postcode" v="78704"/></node><node id="-115" lat="30.255068" lon="-97.756027" changeset="false"><tag k="addr:street" v="Bouldin Avenue"/><tag k="addr:housenumber" v="1001"/><tag k="addr:postcode" v="78704"/></node></osm>