<?xml version="1.0" encoding="UTF-8"?><osm version="0.6" generator="github.com/aaronlidman/osm-and-geojson"><node id="-1" lat="30.260681" lon="-97.746829" changeset="false"><tag k="addr:street" v="Barton Springs Road"/><tag k="addr:housenumber" v="208"/><tag k="coa:place_id" v="415581"/></node><node id="-2" lat="30.259587" lon="-97.747804" changeset="false"><tag k="addr:street" v="Barton Springs Road"/><tag k="addr:housenumber" v="214"/><tag k="coa:place_id" v="3259576"/></node><node id="-3" lat="30.259514" lon="-97.746257" changeset="false"><tag k="addr:street" v="South Congress Avenue"/><tag k="addr:housenumber" v="220"/><tag k="coa:place_id" v="3146733"/></node><node id="-4" lat="30.260153" lon="-97.747923" changeset="false"><tag k="addr:street" v="Barton Springs Road"/><tag k="addr:housenumber" v="210"/><tag k="coa:place_id" v="664760"/></node><node id="-5" lat="30.258912" lon="-97.748361" changeset="false"><tag k="addr:street" v="Barton Springs Road"/><tag k="addr:housenumber" v="312"/><tag k="coa:place_id" v="331196"/></node><node id="-6" lat="30.259172" lon="-97.747757" changeset="false"><tag k="addr:street" v="Barton Springs Road"/><tag k="addr:housenumber" v="300"/><tag k="coa:place_id" v="373503"/></node><node id="-7" lat="30.258547" lon="-97.746768" changeset="false"><tag k="addr:street" v="South Congress Avenue"/><tag k="addr:housenumber" v="300"/><tag k="coa:place_id" v="267094"/></node><node id="-8" lat="30.257009" lon="-97.747262" changeset="false"><tag k="addr:street" v="South Congress Avenue"/><tag k="addr:housenumber" v="400"/><tag k="coa:place_id" v="752726"/></node><node id="-9" lat="30.258713" lon="-97.751992" changeset="false"><tag k="addr:street" v="Barton Springs Road"/><tag k="addr:housenumber" v="721"/><tag k="coa:place_id" v="367600"/></node><node id="-10" lat="30.258407" lon="-97.750991" changeset="false"><tag k="addr:street" v="Barton Springs Road"/><tag k="addr:housenumber" v="603"/><tag k="coa:place_id" v="218510"/></node><node id="-11" lat="30.257507" lon="-97.74919" changeset="false"><tag k="addr:street" v="Barton Springs Road"/><tag k="addr:housenumber" v="505"/><tag k="coa:place_id" v="802689"/></node><node id="-12" lat="30.257147" lon="-97.750184" changeset="false"><tag k="addr:street" v="South 1st Street"/><tag k="addr:housenumber" v="507"/><tag k="coa:place_id" v="192511"/></node><node id="-13" lat="30.258944" lon="-97.752832" changeset="false"><tag k="addr:street" v="Barton Springs Road"/><tag k="addr:housenumber" v="811"/><tag k="coa:place_id" v="128668"/></node><node id="-14" lat="30.260686" lon="-97.753314" changeset="false"><tag k="addr:street" v="Bouldin Avenue"/><tag k="addr:housenumber" v="300"/><tag k="coa:place_id" v="117870"/></node></osm>