<?xml version="1.0" encoding="UTF-8"?><osm version="0.6" generator="github.com/aaronlidman/osm-and-geojson"><node id="-1" lat="30.191147" lon="-97.788738" changeset="false"><tag k="addr:street" v="Strawberry Cove"/><tag k="addr:housenumber" v="501"/></node><node id="-2" lat="30.186489" lon="-97.781502" changeset="false"><tag k="addr:street" v="South Congress Avenue"/><tag k="addr:housenumber" v="7308"/></node><node id="-3" lat="30.185463" lon="-97.782335" changeset="false"><tag k="addr:street" v="South Congress Avenue"/><tag k="addr:housenumber" v="7400"/></node><node id="-4" lat="30.192768" lon="-97.779529" changeset="false"><tag k="addr:street" v="West William Cannon Drive"/><tag k="addr:housenumber" v="111"/></node><node id="-5" lat="30.191576" lon="-97.779641" changeset="false"><tag k="addr:street" v="South Congress Avenue"/><tag k="addr:housenumber" v="6804"/></node><node id="-6" lat="30.195283" lon="-97.785924" changeset="false"><tag k="addr:street" v="Bill Hughes Road"/><tag k="addr:housenumber" v="6800"/></node><node id="-7" lat="30.190788" lon="-97.785227" changeset="false"><tag k="addr:street" v="Lunar Drive"/><tag k="addr:housenumber" v="7006"/></node><node id="-8" lat="30.194527" lon="-97.789161" changeset="false"><tag k="addr:street" v="Thelma Drive"/><tag k="addr:housenumber" v="610"/></node><node id="-9" lat="30.189985" lon="-97.783713" changeset="false"><tag k="addr:street" v="Wishing Well Drive"/><tag k="addr:housenumber" v="7113"/></node><node id="-10" lat="30.187681" lon="-97.780801" changeset="false"><tag k="addr:street" v="South Congress Avenue"/><tag k="addr:housenumber" v="7104"/></node><node id="-11" lat="30.187481" lon="-97.781178" changeset="false"><tag k="addr:street" v="South Congress Avenue"/><tag k="addr:housenumber" v="7200"/></node><node id="-12" lat="30.1903" lon="-97.787773" changeset="false"><tag k="addr:street" v="Shadywood Drive"/><tag k="addr:housenumber" v="7202"/></node><node id="-13" lat="30.185807" lon="-97.781965" changeset="false"><tag k="addr:street" v="South Congress Avenue"/><tag k="addr:housenumber" v="7310"/></node><node id="-14" lat="30.184349" lon="-97.781969" changeset="false"><tag k="addr:street" v="South Congress Avenue"/><tag k="addr:housenumber" v="7440"/></node><node id="-15" lat="30.195461" lon="-97.788156" changeset="false"><tag k="addr:street" v="South 1st Street"/><tag k="addr:housenumber" v="6701"/></node><node id="-16" lat="30.194506" lon="-97.785463" changeset="false"><tag k="addr:street" v="Bill Hughes Road"/><tag k="addr:housenumber" v="6801"/></node><node id="-17" lat="30.19207" lon="-97.786198" changeset="false"><tag k="addr:street" v="Cloudview Drive"/><tag k="addr:housenumber" v="402"/></node><node id="-18" lat="30.192097" lon="-97.786139" changeset="false"><tag k="addr:street" v="Shadywood Drive"/><tag k="addr:housenumber" v="7005"/></node></osm>