<?xml version="1.0" encoding="UTF-8"?><osm version="0.6" generator="github.com/aaronlidman/osm-and-geojson"><node id="-1" lat="30.290096" lon="-97.72208" changeset="false"><tag k="addr:street" v="North Interstate Highway 35 Service Road"/><tag k="addr:housenumber" v="3209"/><tag k="coa:place_id" v="3033300"/></node><node id="-2" lat="30.289808" lon="-97.720497" changeset="false"><tag k="addr:street" v="Hollywood Avenue"/><tag k="addr:housenumber" v="3211"/><tag k="coa:place_id" v="770462"/></node><node id="-3" lat="30.290979" lon="-97.716106" changeset="false"><tag k="addr:street" v="East 37th Street"/><tag k="addr:housenumber" v="1503"/><tag k="coa:place_id" v="771104"/></node><node id="-4" lat="30.289427" lon="-97.722741" changeset="false"><tag k="addr:street" v="East 32nd Street"/><tag k="addr:housenumber" v="1101"/><tag k="coa:place_id" v="770180"/></node><node id="-5" lat="30.287458" lon="-97.722797" changeset="false"><tag k="addr:street" v="East 30th Street"/><tag k="addr:housenumber" v="1123"/><tag k="coa:place_id" v="164180"/></node><node id="-6" lat="30.287591" lon="-97.721633" changeset="false"><tag k="addr:street" v="East 31st Street"/><tag k="addr:housenumber" v="1209"/><tag k="coa:place_id" v="770054"/></node><node id="-7" lat="30.288435" lon="-97.7217" changeset="false"><tag k="addr:street" v="Robinson Avenue"/><tag k="addr:housenumber" v="3107"/><tag k="coa:place_id" v="180912"/></node><node id="-8" lat="30.29271" lon="-97.716344" changeset="false"><tag k="addr:street" v="Lafayette Avenue"/><tag k="addr:housenumber" v="3705"/><tag k="coa:place_id" v="771170"/></node><node id="-9" lat="30.29271" lon="-97.720068" changeset="false"><tag k="addr:street" v="Concordia Avenue"/><tag k="addr:housenumber" v="1110"/><tag k="coa:place_id" v="5098860"/></node><node id="-10" lat="30.284221" lon="-97.722096" changeset="false"><tag k="addr:street" v="Lafayette Avenue"/><tag k="addr:housenumber" v="2306"/><tag k="coa:place_id" v="178419"/></node><node id="-11" lat="30.292214" lon="-97.720735" changeset="false"><tag k="addr:street" v="North Interstate Highway 35 Service Road"/><tag k="addr:housenumber" v="3407"/><tag k="coa:place_id" v="772496"/></node><node id="-12" lat="30.28368" lon="-97.725322" changeset="false"><tag k="addr:street" v="Manor Road"/><tag k="addr:housenumber" v="1524"/><tag k="coa:place_id" v="247643"/></node><node id="-13" lat="30.289935" lon="-97.715446" changeset="false"><tag k="addr:street" v="East 34th Street"/><tag k="addr:housenumber" v="1600"/><tag k="coa:place_id" v="3074239"/></node><node id="-14" lat="30.283608" lon="-97.725796" changeset="false"><tag k="addr:street" v="Manor Road"/><tag k="addr:housenumber" v="1504"/><tag k="coa:place_id" v="769784"/></node><node id="-15" lat="30.288517" lon="-97.723199" changeset="false"><tag k="addr:street" v="North Interstate Highway 35 Service Road"/><tag k="addr:housenumber" v="3101"/><tag k="coa:place_id" v="770156"/></node><node id="-16" lat="30.288065" lon="-97.718789" changeset="false"><tag k="addr:street" v="French Place"/><tag k="addr:housenumber" v="3202"/><tag k="coa:place_id" v="134110"/></node><node id="-17" lat="30.284538" lon="-97.718494" changeset="false"><tag k="addr:street" v="Manor Road"/><tag k="addr:housenumber" v="2226"/><tag k="coa:place_id" v="247651"/></node><node id="-18" lat="30.28831" lon="-97.71858" changeset="false"><tag k="addr:street" v="French Place"/><tag k="addr:housenumber" v="3206"/><tag k="coa:place_id" v="3219585"/></node><node id="-19" lat="30.292943" lon="-97.717898" changeset="false"><tag k="addr:street" v="Werner Avenue"/><tag k="addr:housenumber" v="3704"/><tag k="coa:place_id" v="966104"/></node><node id="-20" lat="30.29023" lon="-97.714919" changeset="false"><tag k="addr:street" v="Clarkson Avenue"/><tag k="addr:housenumber" v="3500"/><tag k="coa:place_id" v="770972"/></node><node id="-21" lat="30.29256" lon="-97.718141" changeset="false"><tag k="addr:street" v="Werner Avenue"/><tag k="addr:housenumber" v="3510"/><tag k="coa:place_id" v="771572"/></node><node id="-22" lat="30.287961" lon="-97.71748" changeset="false"><tag k="addr:street" v="Breeze Terrace"/><tag k="addr:housenumber" v="3208"/><tag k="coa:place_id" v="725222"/></node><node id="-23" lat="30.291938" lon="-97.719898" changeset="false"><tag k="addr:street" v="Robinson Avenue"/><tag k="addr:housenumber" v="3411"/><tag k="coa:place_id" v="141444"/></node><node id="-24" lat="30.289725" lon="-97.718428" changeset="false"><tag k="addr:street" v="Lafayette Avenue"/><tag k="addr:housenumber" v="3305"/><tag k="coa:place_id" v="3691724"/></node><node id="-25" lat="30.286279" lon="-97.722057" changeset="false"><tag k="addr:street" v="East 29th Street"/><tag k="addr:housenumber" v="1301"/><tag k="coa:place_id" v="354220"/></node><node id="-26" lat="30.2872" lon="-97.722334" changeset="false"><tag k="addr:street" v="East 30th Street"/><tag k="addr:housenumber" v="1203"/><tag k="coa:place_id" v="769934"/></node><node id="-27" lat="30.283933" lon="-97.72227" changeset="false"><tag k="addr:street" v="Manor Road"/><tag k="addr:housenumber" v="1820"/><tag k="coa:place_id" v="768764"/></node><node id="-28" lat="30.289967" lon="-97.722187" changeset="false"><tag k="addr:street" v="North Interstate Highway 35 Service Road"/><tag k="addr:housenumber" v="3207"/><tag k="coa:place_id" v="770384"/></node><node id="-29" lat="30.283598" lon="-97.726282" changeset="false"><tag k="addr:street" v="Manor Road"/><tag k="addr:housenumber" v="1120"/><tag k="coa:place_id" v="531321"/></node><node id="-30" lat="30.28471" lon="-97.719874" changeset="false"><tag k="addr:street" v="Breeze Terrace"/><tag k="addr:housenumber" v="2804"/><tag k="coa:place_id" v="171515"/></node><node id="-31" lat="30.286036" lon="-97.72327" changeset="false"><tag k="addr:street" v="East 28th Street"/><tag k="addr:housenumber" v="1201"/><tag k="coa:place_id" v="138329"/></node><node id="-32" lat="30.289209" lon="-97.722281" changeset="false"><tag k="addr:street" v="East 32nd Street"/><tag k="addr:housenumber" v="1105"/><tag k="coa:place_id" v="770186"/></node><node id="-33" lat="30.289407" lon="-97.718645" changeset="false"><tag k="addr:street" v="Lafayette Avenue"/><tag k="addr:housenumber" v="3301"/><tag k="coa:place_id" v="770762"/></node><node id="-34" lat="30.294396" lon="-97.719309" changeset="false"><tag k="addr:street" v="North Interstate Highway 35 Service Road"/><tag k="addr:housenumber" v="3735"/><tag k="coa:place_id" v="3033287"/></node><node id="-35" lat="30.283211" lon="-97.726583" changeset="false"><tag k="addr:street" v="Manor Road"/><tag k="addr:housenumber" v="1114"/><tag k="coa:place_id" v="709264"/></node><node id="-36" lat="30.288593" lon="-97.723154" changeset="false"><tag k="addr:street" v="North Interstate Highway 35 Service Road"/><tag k="addr:housenumber" v="3103"/><tag k="coa:place_id" v="770162"/></node><node id="-37" lat="30.284044" lon="-97.722217" changeset="false"><tag k="addr:street" v="Lafayette Avenue"/><tag k="addr:housenumber" v="2304"/><tag k="coa:place_id" v="726398"/></node><node id="-38" lat="30.283627" lon="-97.725661" changeset="false"><tag k="addr:street" v="Manor Road"/><tag k="addr:housenumber" v="1512"/><tag k="coa:place_id" v="769778"/></node><node id="-39" lat="30.284932" lon="-97.722845" changeset="false"><tag k="addr:street" v="East Dean Keeton Street"/><tag k="addr:housenumber" v="1301"/><tag k="coa:place_id" v="3212035"/></node><node id="-40" lat="30.293075" lon="-97.720209" changeset="false"><tag k="addr:street" v="North Interstate Highway 35 Service Road"/><tag k="addr:housenumber" v="3505"/><tag k="coa:place_id" v="772538"/></node><node id="-41" lat="30.29032" lon="-97.721899" changeset="false"><tag k="addr:street" v="North Interstate Highway 35 Service Road"/><tag k="addr:housenumber" v="3213"/><tag k="coa:place_id" v="3272299"/></node><node id="-42" lat="30.29266" lon="-97.71996" changeset="false"><tag k="addr:street" v="Robinson Avenue"/><tag k="addr:housenumber" v="3500"/><tag k="coa:place_id" v="395782"/></node><node id="-43" lat="30.283605" lon="-97.725852" changeset="false"><tag k="addr:street" v="Manor Road"/><tag k="addr:housenumber" v="1502"/><tag k="coa:place_id" v="769796"/></node><node id="-44" lat="30.294155" lon="-97.719467" changeset="false"><tag k="addr:street" v="North Interstate Highway 35 Service Road"/><tag k="addr:housenumber" v="3711"/><tag k="coa:place_id" v="3033288"/></node><node id="-45" lat="30.285734" lon="-97.723" changeset="false"><tag k="addr:street" v="East Dean Keeton Street"/><tag k="addr:housenumber" v="1208"/><tag k="coa:place_id" v="164013"/></node><node id="-46" lat="30.291018" lon="-97.719541" changeset="false"><tag k="addr:street" v="Hollywood Avenue"/><tag k="addr:housenumber" v="3401"/><tag k="coa:place_id" v="193879"/></node><node id="-47" lat="30.28359" lon="-97.726429" changeset="false"><tag k="addr:street" v="North Interstate Highway 35 Service Road"/><tag k="addr:housenumber" v="2329"/><tag k="coa:place_id" v="769832"/></node><node id="-48" lat="30.288004" lon="-97.723267" changeset="false"><tag k="addr:street" v="East 30th Street"/><tag k="addr:housenumber" v="1104"/><tag k="coa:place_id" v="769994"/></node><node id="-49" lat="30.288526" lon="-97.716846" changeset="false"><tag k="addr:street" v="Edgewood Avenue"/><tag k="addr:housenumber" v="1510"/><tag k="coa:place_id" v="202515"/></node><node id="-50" lat="30.291344" lon="-97.721396" changeset="false"><tag k="addr:street" v="North Interstate Highway 35 Service Road"/><tag k="addr:housenumber" v="3311"/><tag k="coa:place_id" v="636081"/></node><node id="-51" lat="30.293572" lon="-97.719914" changeset="false"><tag k="addr:street" v="North Interstate Highway 35 Service Road"/><tag k="addr:housenumber" v="3701"/><tag k="coa:place_id" v="388563"/></node><node id="-52" lat="30.284336" lon="-97.719557" changeset="false"><tag k="addr:street" v="Breeze Terrace"/><tag k="addr:housenumber" v="2801"/><tag k="coa:place_id" v="724940"/></node><node id="-53" lat="30.283641" lon="-97.725516" changeset="false"><tag k="addr:street" v="Manor Road"/><tag k="addr:housenumber" v="1516"/><tag k="coa:place_id" v="769766"/></node><node id="-54" lat="30.292854" lon="-97.720334" changeset="false"><tag k="addr:street" v="North Interstate Highway 35 Service Road"/><tag k="addr:housenumber" v="3501"/><tag k="coa:place_id" v="772526"/></node><node id="-55" lat="30.287799" lon="-97.723597" changeset="false"><tag k="addr:street" v="North Interstate Highway 35 Service Road"/><tag k="addr:housenumber" v="2909"/><tag k="coa:place_id" v="198081"/></node><node id="-56" lat="30.290196" lon="-97.722" changeset="false"><tag k="addr:street" v="North Interstate Highway 35 Service Road"/><tag k="addr:housenumber" v="3211"/><tag k="coa:place_id" v="770396"/></node><node id="-57" lat="30.283658" lon="-97.725446" changeset="false"><tag k="addr:street" v="Manor Road"/><tag k="addr:housenumber" v="1518"/><tag k="coa:place_id" v="769760"/></node><node id="-58" lat="30.290428" lon="-97.721805" changeset="false"><tag k="addr:street" v="North Interstate Highway 35 Service Road"/><tag k="addr:housenumber" v="3215"/><tag k="coa:place_id" v="770402"/></node><node id="-59" lat="30.290709" lon="-97.717872" changeset="false"><tag k="addr:street" v="East 34th Street"/><tag k="addr:housenumber" v="1400"/><tag k="coa:place_id" v="770642"/></node><node id="-60" lat="30.29082" lon="-97.7178" changeset="false"><tag k="addr:street" v="Lafayette Avenue"/><tag k="addr:housenumber" v="3403"/><tag k="coa:place_id" v="770798"/></node><node id="-61" lat="30.293633" lon="-97.719787" changeset="false"><tag k="addr:street" v="North Interstate Highway 35 Service Road"/><tag k="addr:housenumber" v="3703"/><tag k="coa:place_id" v="3033294"/></node><node id="-62" lat="30.293811" lon="-97.71974" changeset="false"><tag k="addr:street" v="North Interstate Highway 35 Service Road"/><tag k="addr:housenumber" v="3705"/><tag k="coa:place_id" v="3033293"/></node><node id="-63" lat="30.292278" lon="-97.720696" changeset="false"><tag k="addr:street" v="North Interstate Highway 35 Service Road"/><tag k="addr:housenumber" v="3411"/><tag k="coa:place_id" v="772508"/></node><node id="-64" lat="30.292021" lon="-97.720824" changeset="false"><tag k="addr:street" v="North Interstate Highway 35 Service Road"/><tag k="addr:housenumber" v="3405"/><tag k="coa:place_id" v="772490"/></node><node id="-65" lat="30.290131" lon="-97.720834" changeset="false"><tag k="addr:street" v="Edgewood Avenue"/><tag k="addr:housenumber" v="1203"/><tag k="coa:place_id" v="770414"/></node><node id="-66" lat="30.290113" lon="-97.720777" changeset="false"><tag k="addr:street" v="Hollywood Avenue"/><tag k="addr:housenumber" v="3206"/><tag k="coa:place_id" v="246258"/></node><node id="-67" lat="30.289245" lon="-97.722567" changeset="false"><tag k="addr:street" v="North Interstate Highway 35 Service Road"/><tag k="addr:housenumber" v="3109"/><tag k="coa:place_id" v="3033302"/></node><node id="-68" lat="30.289291" lon="-97.722489" changeset="false"><tag k="addr:street" v="East 32nd Street"/><tag k="addr:housenumber" v="1103"/><tag k="coa:place_id" v="5096115"/></node><node id="-69" lat="30.288292" lon="-97.723176" changeset="false"><tag k="addr:street" v="North Interstate Highway 35 Service Road"/><tag k="addr:housenumber" v="3011"/><tag k="coa:place_id" v="3033305"/></node><node id="-70" lat="30.28829" lon="-97.723124" changeset="false"><tag k="addr:street" v="East 31st Street"/><tag k="addr:housenumber" v="1105"/><tag k="coa:place_id" v="164186"/></node><node id="-71" lat="30.288486" lon="-97.722807" changeset="false"><tag k="addr:street" v="East 31st Street"/><tag k="addr:housenumber" v="1104"/><tag k="coa:place_id" v="770150"/></node><node id="-72" lat="30.288762" lon="-97.722771" changeset="false"><tag k="addr:street" v="North Interstate Highway 35 Service Road"/><tag k="addr:housenumber" v="3105"/><tag k="coa:place_id" v="3033303"/></node><node id="-73" lat="30.288287" lon="-97.722438" changeset="false"><tag k="addr:street" v="East 31st Street"/><tag k="addr:housenumber" v="1110"/><tag k="coa:place_id" v="770138"/></node><node id="-74" lat="30.28837" lon="-97.722563" changeset="false"><tag k="addr:street" v="East 31st Street"/><tag k="addr:housenumber" v="1108"/><tag k="coa:place_id" v="770144"/></node><node id="-75" lat="30.283947" lon="-97.723317" changeset="false"><tag k="addr:street" v="Manor Road"/><tag k="addr:housenumber" v="1700"/><tag k="coa:place_id" v="769622"/></node><node id="-76" lat="30.284042" lon="-97.723102" changeset="false"><tag k="addr:street" v="Manor Road"/><tag k="addr:housenumber" v="1704"/><tag k="coa:place_id" v="247645"/></node><node id="-77" lat="30.284126" lon="-97.722685" changeset="false"><tag k="addr:street" v="Manor Road"/><tag k="addr:housenumber" v="1718"/><tag k="coa:place_id" v="769304"/></node><node id="-78" lat="30.284061" lon="-97.723006" changeset="false"><tag k="addr:street" v="Manor Road"/><tag k="addr:housenumber" v="1708"/><tag k="coa:place_id" v="247649"/></node><node id="-79" lat="30.283767" lon="-97.724388" changeset="false"><tag k="addr:street" v="Manor Road"/><tag k="addr:housenumber" v="1620"/><tag k="coa:place_id" v="769628"/></node><node id="-80" lat="30.283753" lon="-97.724462" changeset="false"><tag k="addr:street" v="Manor Road"/><tag k="addr:housenumber" v="1610"/><tag k="coa:place_id" v="966140"/></node><node id="-81" lat="30.283763" lon="-97.724415" changeset="false"><tag k="addr:street" v="Manor Road"/><tag k="addr:housenumber" v="1618"/><tag k="coa:place_id" v="769670"/></node><node id="-82" lat="30.283635" lon="-97.724577" changeset="false"><tag k="addr:street" v="Manor Road"/><tag k="addr:housenumber" v="1600"/><tag k="coa:place_id" v="769742"/></node><node id="-83" lat="30.283743" lon="-97.724514" changeset="false"><tag k="addr:street" v="Manor Road"/><tag k="addr:housenumber" v="1602"/><tag k="coa:place_id" v="247644"/></node></osm>