<?xml version="1.0" encoding="UTF-8"?><osm version="0.6" generator="github.com/aaronlidman/osm-and-geojson"><node id="-1" lat="30.218728" lon="-97.734073" changeset="false"><tag k="addr:street" v="Burleson Road"/><tag k="addr:housenumber" v="3306"/><tag k="coa:place_id" v="659108"/></node><node id="-2" lat="30.221863" lon="-97.734828" changeset="false"><tag k="addr:street" v="Burleson Road"/><tag k="addr:housenumber" v="3002"/><tag k="coa:place_id" v="243292"/></node><node id="-3" lat="30.219999" lon="-97.733991" changeset="false"><tag k="addr:street" v="Burleson Road"/><tag k="addr:housenumber" v="3200"/><tag k="coa:place_id" v="149008"/></node><node id="-4" lat="30.217502" lon="-97.735692" changeset="false"><tag k="addr:street" v="Ventura Drive"/><tag k="addr:housenumber" v="2406"/><tag k="coa:place_id" v="251939"/></node><node id="-5" lat="30.217102" lon="-97.735909" changeset="false"><tag k="addr:street" v="Ventura Drive"/><tag k="addr:housenumber" v="2407"/><tag k="coa:place_id" v="251940"/></node><node id="-6" lat="30.216811" lon="-97.736069" changeset="false"><tag k="addr:street" v="Mission Hill Drive"/><tag k="addr:housenumber" v="2404"/><tag k="coa:place_id" v="578864"/></node><node id="-7" lat="30.222316" lon="-97.736384" changeset="false"><tag k="addr:street" v="Catalina Drive"/><tag k="addr:housenumber" v="3005"/><tag k="coa:place_id" v="228981"/></node><node id="-8" lat="30.219523" lon="-97.734011" changeset="false"><tag k="addr:street" v="Burleson Road"/><tag k="addr:housenumber" v="3300"/><tag k="coa:place_id" v="659114"/></node><node id="-9" lat="30.219621" lon="-97.736278" changeset="false"><tag k="addr:street" v="Laguna Drive"/><tag k="addr:housenumber" v="3204"/><tag k="coa:place_id" v="743264"/></node><node id="-10" lat="30.220666" lon="-97.73437" changeset="false"><tag k="addr:street" v="Santa Monica Drive"/><tag k="addr:housenumber" v="3100"/><tag k="coa:place_id" v="250473"/></node><node id="-11" lat="30.216108" lon="-97.737052" changeset="false"><tag k="addr:street" v="East Ben White Boulevard"/><tag k="addr:housenumber" v="2400"/><tag k="coa:place_id" v="214261"/></node><node id="-12" lat="30.220917" lon="-97.735526" changeset="false"><tag k="addr:street" v="Matador Drive"/><tag k="addr:housenumber" v="3102"/><tag k="coa:place_id" v="3427699"/></node><node id="-13" lat="30.221354" lon="-97.73628" changeset="false"><tag k="addr:street" v="Bahia Circle"/><tag k="addr:housenumber" v="2206"/><tag k="coa:place_id" v="1101347"/></node><node id="-14" lat="30.217004" lon="-97.735241" changeset="false"><tag k="addr:street" v="Ventura Drive"/><tag k="addr:housenumber" v="2414"/><tag k="coa:place_id" v="579428"/></node><node id="-15" lat="30.22261" lon="-97.735776" changeset="false"><tag k="addr:street" v="Matador Drive"/><tag k="addr:housenumber" v="3000"/><tag k="coa:place_id" v="3077131"/></node><node id="-16" lat="30.215945" lon="-97.735139" changeset="false"><tag k="addr:street" v="East Ben White Boulevard"/><tag k="addr:housenumber" v="2514"/><tag k="coa:place_id" v="659312"/></node><node id="-17" lat="30.219074" lon="-97.735114" changeset="false"><tag k="addr:street" v="Santa Monica Drive"/><tag k="addr:housenumber" v="3301"/><tag k="coa:place_id" v="3427700"/></node><node id="-18" lat="30.219882" lon="-97.733998" changeset="false"><tag k="addr:street" v="Burleson Road"/><tag k="addr:housenumber" v="3210"/><tag k="coa:place_id" v="743498"/></node><node id="-19" lat="30.220851" lon="-97.734524" changeset="false"><tag k="addr:street" v="Burleson Road"/><tag k="addr:housenumber" v="3100"/><tag k="coa:place_id" v="243299"/></node><node id="-20" lat="30.215753" lon="-97.735067" changeset="false"><tag k="addr:street" v="East Ben White Boulevard"/><tag k="addr:housenumber" v="2526 1/2"/><tag k="coa:place_id" v="3096981"/></node><node id="-21" lat="30.220713" lon="-97.734389" changeset="false"><tag k="addr:street" v="Santa Monica Drive"/><tag k="addr:housenumber" v="3102"/><tag k="coa:place_id" v="250475"/></node><node id="-22" lat="30.220357" lon="-97.734149" changeset="false"><tag k="addr:street" v="Santa Monica Drive"/><tag k="addr:housenumber" v="3101"/><tag k="coa:place_id" v="69025"/></node><node id="-23" lat="30.220278" lon="-97.734236" changeset="false"><tag k="addr:street" v="Burleson Road"/><tag k="addr:housenumber" v="3104"/><tag k="coa:place_id" v="743018"/></node><node id="-24" lat="30.223848" lon="-97.735029" changeset="false"><tag k="addr:street" v="Catalina Drive"/><tag k="addr:housenumber" v="2701"/><tag k="coa:place_id" v="742844"/></node><node id="-25" lat="30.223823" lon="-97.735045" changeset="false"><tag k="addr:street" v="Burleson Road"/><tag k="addr:housenumber" v="2708"/><tag k="coa:place_id" v="742862"/></node><node id="-26" lat="30.222759" lon="-97.736157" changeset="false"><tag k="addr:street" v="Catalina Drive"/><tag k="addr:housenumber" v="3001"/><tag k="coa:place_id" v="243646"/></node><node id="-27" lat="30.222774" lon="-97.736055" changeset="false"><tag k="addr:street" v="Metcalfe Road"/><tag k="addr:housenumber" v="2211"/><tag k="coa:place_id" v="248010"/></node><node id="-28" lat="30.221638" lon="-97.736324" changeset="false"><tag k="addr:street" v="Bahia Circle"/><tag k="addr:housenumber" v="2204"/><tag k="coa:place_id" v="580136"/></node><node id="-29" lat="30.221601" lon="-97.736289" changeset="false"><tag k="addr:street" v="Bahia Circle"/><tag k="addr:housenumber" v="2204 1/2"/><tag k="coa:place_id" v="3260112"/></node><node id="-30" lat="30.216415" lon="-97.734831" changeset="false"><tag k="addr:street" v="Burleson Road"/><tag k="addr:housenumber" v="3504"/><tag k="coa:place_id" v="490233"/></node><node id="-31" lat="30.216319" lon="-97.734851" changeset="false"><tag k="addr:street" v="Burleson Road"/><tag k="addr:housenumber" v="3508"/><tag k="coa:place_id" v="796028"/></node><node id="-32" lat="30.216451" lon="-97.734829" changeset="false"><tag k="addr:street" v="Burleson Road"/><tag k="addr:housenumber" v="3502"/><tag k="coa:place_id" v="796022"/></node><node id="-33" lat="30.216369" lon="-97.734849" changeset="false"><tag k="addr:street" v="Burleson Road"/><tag k="addr:housenumber" v="3506"/><tag k="coa:place_id" v="578828"/></node></osm>