<?xml version="1.0" encoding="UTF-8"?><osm version="0.6" generator="github.com/aaronlidman/osm-and-geojson"><node id="-1" lat="30.175672" lon="-97.615568" changeset="false"><tag k="addr:street" v="Feller Cove"/><tag k="addr:housenumber" v="5209"/><tag k="coa:place_id" v="3052144"/></node><node id="-2" lat="30.177728" lon="-97.586433" changeset="false"><tag k="addr:street" v="Navarro Creek Road"/><tag k="addr:housenumber" v="5016"/><tag k="coa:place_id" v="3260037"/></node><node id="-3" lat="30.180973" lon="-97.639491" changeset="false"><tag k="addr:street" v="Preakness Drive"/><tag k="addr:housenumber" v="4606"/><tag k="coa:place_id" v="107730"/></node><node id="-4" lat="30.180707" lon="-97.64126" changeset="false"><tag k="addr:street" v="Timber Creek Drive"/><tag k="addr:housenumber" v="4709"/><tag k="coa:place_id" v="769449"/></node><node id="-5" lat="30.179771" lon="-97.640567" changeset="false"><tag k="addr:street" v="Whirlaway Drive"/><tag k="addr:housenumber" v="4710"/><tag k="coa:place_id" v="621986"/></node><node id="-6" lat="30.172888" lon="-97.614611" changeset="false"><tag k="addr:street" v="Tabitha Cove"/><tag k="addr:housenumber" v="5400"/><tag k="coa:place_id" v="3080249"/></node><node id="-7" lat="30.175456" lon="-97.618398" changeset="false"><tag k="addr:street" v="Ranft Cove"/><tag k="addr:housenumber" v="12809"/><tag k="coa:place_id" v="3066665"/></node><node id="-8" lat="30.175331" lon="-97.587101" changeset="false"><tag k="addr:street" v="Navarro Creek Road"/><tag k="addr:housenumber" v="5213"/><tag k="coa:place_id" v="222239"/></node><node id="-9" lat="30.180213" lon="-97.642614" changeset="false"><tag k="addr:street" v="Benson Way"/><tag k="addr:housenumber" v="4709"/><tag k="coa:place_id" v="622592"/></node><node id="-10" lat="30.181398" lon="-97.64129" changeset="false"><tag k="addr:street" v="Benson Way"/><tag k="addr:housenumber" v="4611"/><tag k="coa:place_id" v="621944"/></node><node id="-11" lat="30.181292" lon="-97.637794" changeset="false"><tag k="addr:street" v="Hialeah Drive"/><tag k="addr:housenumber" v="11204"/><tag k="coa:place_id" v="621728"/></node><node id="-12" lat="30.164986" lon="-97.549186" changeset="false"><tag k="addr:street" v="Wolf Lane"/><tag k="addr:housenumber" v="6311"/><tag k="coa:place_id" v="1129774"/></node><node id="-13" lat="30.181273" lon="-97.54117" changeset="false"><tag k="addr:street" v="Wolf Lane"/><tag k="addr:housenumber" v="4805"/><tag k="coa:place_id" v="3296738"/></node><node id="-14" lat="30.182198" lon="-97.643885" changeset="false"><tag k="addr:street" v="Timber Creek Cove"/><tag k="addr:housenumber" v="4606"/><tag k="coa:place_id" v="622748"/></node><node id="-15" lat="30.172233" lon="-97.613573" changeset="false"><tag k="addr:street" v="Thome Valley Drive"/><tag k="addr:housenumber" v="13209"/><tag k="coa:place_id" v="3049004"/></node><node id="-16" lat="30.175152" lon="-97.618623" changeset="false"><tag k="addr:street" v="Sexson Ridge Cove"/><tag k="addr:housenumber" v="12812"/><tag k="coa:place_id" v="3066674"/></node><node id="-17" lat="30.178778" lon="-97.642222" changeset="false"><tag k="addr:street" v="Foxhead Drive"/><tag k="addr:housenumber" v="4810"/><tag k="coa:place_id" v="800439"/></node><node id="-18" lat="30.181101" lon="-97.643762" changeset="false"><tag k="addr:street" v="Ascot Way"/><tag k="addr:housenumber" v="4710"/><tag k="coa:place_id" v="622712"/></node><node id="-19" lat="30.181011" lon="-97.641334" changeset="false"><tag k="addr:street" v="Timber Creek Drive"/><tag k="addr:housenumber" v="4707"/><tag k="coa:place_id" v="622436"/></node><node id="-20" lat="30.180904" lon="-97.640664" changeset="false"><tag k="addr:street" v="Whirlaway Drive"/><tag k="addr:housenumber" v="4700"/><tag k="coa:place_id" v="621968"/></node><node id="-21" lat="30.174034" lon="-97.61574" changeset="false"><tag k="addr:street" v="Lofton Cliff Drive"/><tag k="addr:housenumber" v="13009"/><tag k="coa:place_id" v="3048757"/></node><node id="-22" lat="30.166229" lon="-97.551084" changeset="false"><tag k="addr:street" v="Wolf Lane"/><tag k="addr:housenumber" v="6305"/><tag k="coa:place_id" v="1129691"/></node><node id="-23" lat="30.183675" lon="-97.644018" changeset="false"><tag k="addr:street" v="Timber Creek Drive"/><tag k="addr:housenumber" v="4609"/><tag k="coa:place_id" v="262695"/></node><node id="-24" lat="30.183164" lon="-97.643766" changeset="false"><tag k="addr:street" v="Timber Creek Drive"/><tag k="addr:housenumber" v="4610"/><tag k="coa:place_id" v="622760"/></node><node id="-25" lat="30.167069" lon="-97.5506" changeset="false"><tag k="addr:street" v="Wolf Lane"/><tag k="addr:housenumber" v="6201"/><tag k="coa:place_id" v="3351417"/></node><node id="-26" lat="30.179518" lon="-97.543016" changeset="false"><tag k="addr:street" v="Wolf Lane"/><tag k="addr:housenumber" v="4923"/><tag k="coa:place_id" v="3370147"/></node><node id="-27" lat="30.180775" lon="-97.638961" changeset="false"><tag k="addr:street" v="Preakness Drive"/><tag k="addr:housenumber" v="4605"/><tag k="coa:place_id" v="622022"/></node><node id="-28" lat="30.180478" lon="-97.643713" changeset="false"><tag k="addr:street" v="Ascot Way"/><tag k="addr:housenumber" v="4801"/><tag k="coa:place_id" v="270819"/></node><node id="-29" lat="30.180687" lon="-97.645536" changeset="false"><tag k="addr:street" v="Hedgerow Place"/><tag k="addr:housenumber" v="4804"/><tag k="coa:place_id" v="685767"/></node><node id="-30" lat="30.184283" lon="-97.643907" changeset="false"><tag k="addr:street" v="Hedgerow Place"/><tag k="addr:housenumber" v="4603"/><tag k="coa:place_id" v="622340"/></node><node id="-31" lat="30.183691" lon="-97.644753" changeset="false"><tag k="addr:street" v="Timber Creek Drive"/><tag k="addr:housenumber" v="4607"/><tag k="coa:place_id" v="622310"/></node><node id="-32" lat="30.167204" lon="-97.617417" changeset="false"><tag k="addr:street" v="Perconte Drive"/><tag k="addr:housenumber" v="13217"/><tag k="coa:place_id" v="3088114"/></node><node id="-33" lat="30.181376" lon="-97.642968" changeset="false"><tag k="addr:street" v="Ascot Way"/><tag k="addr:housenumber" v="4705"/><tag k="coa:place_id" v="103342"/></node><node id="-34" lat="30.182889" lon="-97.553646" changeset="false"><tag k="addr:street" v="Granny Drive"/><tag k="addr:housenumber" v="4616"/><tag k="coa:place_id" v="215499"/></node><node id="-35" lat="30.169439" lon="-97.6179" changeset="false"><tag k="addr:street" v="Nijmegen Drive"/><tag k="addr:housenumber" v="5705"/><tag k="coa:place_id" v="3126704"/></node><node id="-36" lat="30.170302" lon="-97.611776" changeset="false"><tag k="addr:street" v="Coomes Drive"/><tag k="addr:housenumber" v="13501"/><tag k="coa:place_id" v="3048895"/></node><node id="-37" lat="30.1805" lon="-97.639096" changeset="false"><tag k="addr:street" v="Preakness Drive"/><tag k="addr:housenumber" v="4701"/><tag k="coa:place_id" v="226161"/></node><node id="-38" lat="30.182876" lon="-97.642282" changeset="false"><tag k="addr:street" v="Timber Creek Drive"/><tag k="addr:housenumber" v="4621"/><tag k="coa:place_id" v="622382"/></node><node id="-39" lat="30.180683" lon="-97.646247" changeset="false"><tag k="addr:street" v="Pearce Lane"/><tag k="addr:housenumber" v="10900"/><tag k="coa:place_id" v="377211"/></node><node id="-40" lat="30.173577" lon="-97.619514" changeset="false"><tag k="addr:street" v="Tessa Cove"/><tag k="addr:housenumber" v="5501"/><tag k="coa:place_id" v="3046019"/></node><node id="-41" lat="30.171052" lon="-97.611809" changeset="false"><tag k="addr:street" v="Alysheba Drive"/><tag k="addr:housenumber" v="13421"/><tag k="coa:place_id" v="3048930"/></node><node id="-42" lat="30.165409" lon="-97.593388" changeset="false"><tag k="addr:street" v="Navarro Creek Road"/><tag k="addr:housenumber" v="6309"/><tag k="coa:place_id" v="213150"/></node><node id="-43" lat="30.180846" lon="-97.641856" changeset="false"><tag k="addr:street" v="Timber Creek Drive"/><tag k="addr:housenumber" v="4708"/><tag k="coa:place_id" v="622574"/></node><node id="-44" lat="30.180492" lon="-97.645674" changeset="false"><tag k="addr:street" v="Hedgerow Place"/><tag k="addr:housenumber" v="4806"/><tag k="coa:place_id" v="622238"/></node><node id="-45" lat="30.180375" lon="-97.641293" changeset="false"><tag k="addr:street" v="Timber Creek Drive"/><tag k="addr:housenumber" v="4711"/><tag k="coa:place_id" v="622442"/></node><node id="-46" lat="30.180072" lon="-97.643482" changeset="false"><tag k="addr:street" v="Benson Way"/><tag k="addr:housenumber" v="4802"/><tag k="coa:place_id" v="622616"/></node><node id="-47" lat="30.174898" lon="-97.619121" changeset="false"><tag k="addr:street" v="Sexson Ridge Cove"/><tag k="addr:housenumber" v="12805"/><tag k="coa:place_id" v="3066682"/></node><node id="-48" lat="30.181404" lon="-97.640919" changeset="false"><tag k="addr:street" v="Benson Way"/><tag k="addr:housenumber" v="4609"/><tag k="coa:place_id" v="621950"/></node><node id="-49" lat="30.181831" lon="-97.638577" changeset="false"><tag k="addr:street" v="Hialeah Drive"/><tag k="addr:housenumber" v="11110"/><tag k="coa:place_id" v="622040"/></node><node id="-50" lat="30.179391" lon="-97.642824" changeset="false"><tag k="addr:street" v="Timber Creek Drive"/><tag k="addr:housenumber" v="4804"/><tag k="coa:place_id" v="589276"/></node><node id="-51" lat="30.182202" lon="-97.644832" changeset="false"><tag k="addr:street" v="Hedgerow Place"/><tag k="addr:housenumber" v="4702"/><tag k="coa:place_id" v="622274"/></node><node id="-52" lat="30.182107" lon="-97.644125" changeset="false"><tag k="addr:street" v="Hedgerow Place"/><tag k="addr:housenumber" v="4703"/><tag k="coa:place_id" v="622790"/></node><node id="-53" lat="30.182443" lon="-97.6423" changeset="false"><tag k="addr:street" v="Timber Creek Drive"/><tag k="addr:housenumber" v="4623"/><tag k="coa:place_id" v="622388"/></node><node id="-54" lat="30.171618" lon="-97.609033" changeset="false"><tag k="addr:street" v="War Admiral Drive"/><tag k="addr:housenumber" v="5613"/><tag k="coa:place_id" v="3049048"/></node><node id="-55" lat="30.178506" lon="-97.641734" changeset="false"><tag k="addr:street" v="Foxhead Drive"/><tag k="addr:housenumber" v="4811"/><tag k="coa:place_id" v="622484"/></node><node id="-56" lat="30.178751" lon="-97.641617" changeset="false"><tag k="addr:street" v="Foxhead Drive"/><tag k="addr:housenumber" v="4809"/><tag k="coa:place_id" v="622478"/></node><node id="-57" lat="30.170639" lon="-97.610971" changeset="false"><tag k="addr:street" v="Alysheba Drive"/><tag k="addr:housenumber" v="13521"/><tag k="coa:place_id" v="3048936"/></node><node id="-58" lat="30.180685" lon="-97.643469" changeset="false"><tag k="addr:street" v="Ascot Way"/><tag k="addr:housenumber" v="4711"/><tag k="coa:place_id" v="67360"/></node><node id="-59" lat="30.176488" lon="-97.618202" changeset="false"><tag k="addr:street" v="Gilwell Drive"/><tag k="addr:housenumber" v="12800 1/2"/><tag k="coa:place_id" v="3086129"/></node><node id="-60" lat="30.17625" lon="-97.615695" changeset="false"><tag k="addr:street" v="Feller Cove"/><tag k="addr:housenumber" v="5204"/><tag k="coa:place_id" v="3052119"/></node><node id="-61" lat="30.176107" lon="-97.617673" changeset="false"><tag k="addr:street" v="Diwa Cove"/><tag k="addr:housenumber" v="5213"/><tag k="coa:place_id" v="3066632"/></node><node id="-62" lat="30.170813" lon="-97.611296" changeset="false"><tag k="addr:street" v="Alysheba Drive"/><tag k="addr:housenumber" v="13509"/><tag k="coa:place_id" v="3048933"/></node><node id="-63" lat="30.179645" lon="-97.614455" changeset="false"><tag k="addr:street" v="Ross Road"/><tag k="addr:housenumber" v="5120"/><tag k="coa:place_id" v="3337511"/></node><node id="-64" lat="30.182319" lon="-97.554074" changeset="false"><tag k="addr:street" v="Granny Drive"/><tag k="addr:housenumber" v="4620"/><tag k="coa:place_id" v="3424589"/></node><node id="-65" lat="30.171571" lon="-97.591134" changeset="false"><tag k="addr:street" v="Navarro Creek Road"/><tag k="addr:housenumber" v="5516"/><tag k="coa:place_id" v="222281"/></node><node id="-66" lat="30.15556" lon="-97.59334" changeset="false"><tag k="addr:street" v="Pearce Lane"/><tag k="addr:housenumber" v="15100 1/2"/><tag k="coa:place_id" v="5134903"/></node><node id="-67" lat="30.167972" lon="-97.550043" changeset="false"><tag k="addr:street" v="Wolf Lane"/><tag k="addr:housenumber" v="6001"/><tag k="coa:place_id" v="5068850"/></node><node id="-68" lat="30.176663" lon="-97.544783" changeset="false"><tag k="addr:street" v="Wolf Lane"/><tag k="addr:housenumber" v="5201"/><tag k="coa:place_id" v="3327282"/></node><node id="-69" lat="30.182095" lon="-97.641577" changeset="false"><tag k="addr:street" v="Timber Creek Circle"/><tag k="addr:housenumber" v="4603"/><tag k="coa:place_id" v="622412"/></node><node id="-70" lat="30.181784" lon="-97.640396" changeset="false"><tag k="addr:street" v="Whirlaway Drive"/><tag k="addr:housenumber" v="4606"/><tag k="coa:place_id" v="622178"/></node><node id="-71" lat="30.175819" lon="-97.616753" changeset="false"><tag k="addr:street" v="Mathra Drive"/><tag k="addr:housenumber" v="5241"/><tag k="coa:place_id" v="3066642"/></node><node id="-72" lat="30.183469" lon="-97.643374" changeset="false"><tag k="addr:street" v="Timber Creek Drive"/><tag k="addr:housenumber" v="4613"/><tag k="coa:place_id" v="622358"/></node><node id="-73" lat="30.183323" lon="-97.643091" changeset="false"><tag k="addr:street" v="Timber Creek Drive"/><tag k="addr:housenumber" v="4615"/><tag k="coa:place_id" v="622364"/></node><node id="-74" lat="30.182606" lon="-97.642994" changeset="false"><tag k="addr:street" v="Timber Creek Drive"/><tag k="addr:housenumber" v="4620"/><tag k="coa:place_id" v="622736"/></node><node id="-75" lat="30.182465" lon="-97.639718" changeset="false"><tag k="addr:street" v="Hialeah Drive"/><tag k="addr:housenumber" v="11100"/><tag k="coa:place_id" v="622070"/></node><node id="-76" lat="30.182226" lon="-97.640215" changeset="false"><tag k="addr:street" v="Whirlaway Drive"/><tag k="addr:housenumber" v="4602"/><tag k="coa:place_id" v="622172"/></node><node id="-77" lat="30.182142" lon="-97.638986" changeset="false"><tag k="addr:street" v="Hialeah Drive"/><tag k="addr:housenumber" v="11106"/><tag k="coa:place_id" v="622052"/></node><node id="-78" lat="30.181024" lon="-97.64545" changeset="false"><tag k="addr:street" v="Hedgerow Place"/><tag k="addr:housenumber" v="4802"/><tag k="coa:place_id" v="622244"/></node><node id="-79" lat="30.171195" lon="-97.612138" changeset="false"><tag k="addr:street" v="Alysheba Drive"/><tag k="addr:housenumber" v="13409"/><tag k="coa:place_id" v="3048927"/></node><node id="-80" lat="30.173682" lon="-97.6318" changeset="false"><tag k="addr:street" v="Pearce Lane"/><tag k="addr:housenumber" v="12000"/><tag k="coa:place_id" v="623282"/></node><node id="-81" lat="30.180271" lon="-97.642107" changeset="false"><tag k="addr:street" v="Timber Creek Drive"/><tag k="addr:housenumber" v="4712"/><tag k="coa:place_id" v="622562"/></node><node id="-82" lat="30.180178" lon="-97.640273" changeset="false"><tag k="addr:street" v="Whirlaway Drive"/><tag k="addr:housenumber" v="4705"/><tag k="coa:place_id" v="622118"/></node><node id="-83" lat="30.180247" lon="-97.644473" changeset="false"><tag k="addr:street" v="Ascot Way"/><tag k="addr:housenumber" v="4804"/><tag k="coa:place_id" v="67224"/></node><node id="-84" lat="30.179934" lon="-97.639538" changeset="false"><tag k="addr:street" v="Preakness Drive"/><tag k="addr:housenumber" v="4707"/><tag k="coa:place_id" v="622010"/></node><node id="-85" lat="30.179934" lon="-97.640723" changeset="false"><tag k="addr:street" v="Whirlaway Drive"/><tag k="addr:housenumber" v="4708"/><tag k="coa:place_id" v="239283"/></node><node id="-86" lat="30.165905" lon="-97.593125" changeset="false"><tag k="addr:street" v="Navarro Creek Road"/><tag k="addr:housenumber" v="6307"/><tag k="coa:place_id" v="219013"/></node><node id="-87" lat="30.179003" lon="-97.641447" changeset="false"><tag k="addr:street" v="Foxhead Drive"/><tag k="addr:housenumber" v="4807"/><tag k="coa:place_id" v="622472"/></node><node id="-88" lat="30.178674" lon="-97.638996" changeset="false"><tag k="addr:street" v="Pimlico Drive"/><tag k="addr:housenumber" v="4801"/><tag k="coa:place_id" v="621854"/></node><node id="-89" lat="30.174875" lon="-97.612088" changeset="false"><tag k="addr:street" v="Dearbonne Drive"/><tag k="addr:housenumber" v="13312"/><tag k="coa:place_id" v="3078341"/></node><node id="-90" lat="30.17435" lon="-97.619125" changeset="false"><tag k="addr:street" v="Quirin Drive"/><tag k="addr:housenumber" v="12704"/><tag k="coa:place_id" v="3047852"/></node><node id="-91" lat="30.179605" lon="-97.643768" changeset="false"><tag k="addr:street" v="Benson Way"/><tag k="addr:housenumber" v="4806"/><tag k="coa:place_id" v="258855"/></node><node id="-92" lat="30.179173" lon="-97.641921" changeset="false"><tag k="addr:street" v="Foxhead Drive"/><tag k="addr:housenumber" v="4804"/><tag k="coa:place_id" v="622502"/></node><node id="-93" lat="30.18322" lon="-97.645161" changeset="false"><tag k="addr:street" v="Timber Creek Drive"/><tag k="addr:housenumber" v="4604"/><tag k="coa:place_id" v="229623"/></node><node id="-94" lat="30.168375" lon="-97.61733" changeset="false"><tag k="addr:street" v="Welsh Way"/><tag k="addr:housenumber" v="5801"/><tag k="coa:place_id" v="3126555"/></node><node id="-95" lat="30.179936" lon="-97.642502" changeset="false"><tag k="addr:street" v="Timber Creek Drive"/><tag k="addr:housenumber" v="4800"/><tag k="coa:place_id" v="622550"/></node><node id="-96" lat="30.163621" lon="-97.552328" changeset="false"><tag k="addr:street" v="Wolf Lane"/><tag k="addr:housenumber" v="6411"/><tag k="coa:place_id" v="3083706"/></node><node id="-97" lat="30.181588" lon="-97.63892" changeset="false"><tag k="addr:street" v="Hialeah Drive"/><tag k="addr:housenumber" v="11107"/><tag k="coa:place_id" v="622088"/></node><node id="-98" lat="30.181314" lon="-97.641601" changeset="false"><tag k="addr:street" v="Timber Creek Drive"/><tag k="addr:housenumber" v="4705"/><tag k="coa:place_id" v="622430"/></node><node id="-99" lat="30.181141" lon="-97.640574" changeset="false"><tag k="addr:street" v="Whirlaway Drive"/><tag k="addr:housenumber" v="4610"/><tag k="coa:place_id" v="621962"/></node><node id="-100" lat="30.180929" lon="-97.644592" changeset="false"><tag k="addr:street" v="Hedgerow Place"/><tag k="addr:housenumber" v="4801"/><tag k="coa:place_id" v="622814"/></node><node id="-101" lat="30.174519" lon="-97.58719" changeset="false"><tag k="addr:street" v="Navarro Creek Road"/><tag k="addr:housenumber" v="5307"/><tag k="coa:place_id" v="222240"/></node><node id="-102" lat="30.173238" lon="-97.614714" changeset="false"><tag k="addr:street" v="Vizquel Loop"/><tag k="addr:housenumber" v="13116"/><tag k="coa:place_id" v="3047925"/></node><node id="-103" lat="30.149265" lon="-97.580413" changeset="false"><tag k="addr:street" v="Pearce Lane"/><tag k="addr:housenumber" v="16070"/><tag k="coa:place_id" v="205697"/></node><node id="-104" lat="30.170371" lon="-97.618774" changeset="false"><tag k="addr:street" v="Alomar Cove"/><tag k="addr:housenumber" v="5632"/><tag k="coa:place_id" v="3214152"/></node><node id="-105" lat="30.182034" lon="-97.643013" changeset="false"><tag k="addr:street" v="Ascot Way"/><tag k="addr:housenumber" v="4702"/><tag k="coa:place_id" v="622724"/></node><node id="-106" lat="30.176954" lon="-97.587191" changeset="false"><tag k="addr:street" v="Navarro Creek Road"/><tag k="addr:housenumber" v="5100"/><tag k="coa:place_id" v="1130433"/></node><node id="-107" lat="30.176497" lon="-97.616815" changeset="false"><tag k="addr:street" v="Mathra Drive"/><tag k="addr:housenumber" v="5216"/><tag k="coa:place_id" v="3066648"/></node><node id="-108" lat="30.175896" lon="-97.531769" changeset="false"><tag k="addr:street" v="Old Bastrop Road"/><tag k="addr:housenumber" v="233"/><tag k="coa:place_id" v="3325000"/></node><node id="-109" lat="30.169237" lon="-97.59162" changeset="false"><tag k="addr:street" v="Navarro Creek Road"/><tag k="addr:housenumber" v="6000"/><tag k="coa:place_id" v="3392912"/></node><node id="-110" lat="30.18171" lon="-97.644975" changeset="false"><tag k="addr:street" v="Hedgerow Place"/><tag k="addr:housenumber" v="4706"/><tag k="coa:place_id" v="622262"/></node><node id="-111" lat="30.181574" lon="-97.643484" changeset="false"><tag k="addr:street" v="Ascot Way"/><tag k="addr:housenumber" v="4706"/><tag k="coa:place_id" v="622718"/></node><node id="-112" lat="30.177013" lon="-97.54441" changeset="false"><tag k="addr:street" v="Wolf Lane"/><tag k="addr:housenumber" v="5111"/><tag k="coa:place_id" v="3327281"/></node><node id="-113" lat="30.173348" lon="-97.616383" changeset="false"><tag k="addr:street" v="Bahan Drive"/><tag k="addr:housenumber" v="5405"/><tag k="coa:place_id" v="3047939"/></node><node id="-114" lat="30.180868" lon="-97.643933" changeset="false"><tag k="addr:street" v="Ascot Way"/><tag k="addr:housenumber" v="4712"/><tag k="coa:place_id" v="622706"/></node><node id="-115" lat="30.180448" lon="-97.642539" changeset="false"><tag k="addr:street" v="Benson Way"/><tag k="addr:housenumber" v="4707"/><tag k="coa:place_id" v="67363"/></node><node id="-116" lat="30.18193" lon="-97.644877" changeset="false"><tag k="addr:street" v="Hedgerow Place"/><tag k="addr:housenumber" v="4704"/><tag k="coa:place_id" v="622268"/></node><node id="-117" lat="30.176254" lon="-97.585542" changeset="false"><tag k="addr:street" v="Navarro Creek Road"/><tag k="addr:housenumber" v="5101"/><tag k="coa:place_id" v="222213"/></node><node id="-118" lat="30.171659" lon="-97.619263" changeset="false"><tag k="addr:street" v="Lipton Loop"/><tag k="addr:housenumber" v="12900"/><tag k="coa:place_id" v="3088808"/></node><node id="-119" lat="30.167007" lon="-97.617224" changeset="false"><tag k="addr:street" v="Pearce Lane"/><tag k="addr:housenumber" v="13320"/><tag k="coa:place_id" v="3046002"/></node><node id="-120" lat="30.182126" lon="-97.611315" changeset="false"><tag k="addr:street" v="Ross Road"/><tag k="addr:housenumber" v="4715"/><tag k="coa:place_id" v="236645"/></node><node id="-121" lat="30.173671" lon="-97.615747" changeset="false"><tag k="addr:street" v="Vizquel Loop"/><tag k="addr:housenumber" v="13012"/><tag k="coa:place_id" v="3047931"/></node><node id="-122" lat="30.176233" lon="-97.616521" changeset="false"><tag k="addr:street" v="Mathra Drive"/><tag k="addr:housenumber" v="5229"/><tag k="coa:place_id" v="3066640"/></node><node id="-123" lat="30.182512" lon="-97.643762" changeset="false"><tag k="addr:street" v="Timber Creek Cove"/><tag k="addr:housenumber" v="4604"/><tag k="coa:place_id" v="622298"/></node><node id="-124" lat="30.182431" lon="-97.644762" changeset="false"><tag k="addr:street" v="Hedgerow Place"/><tag k="addr:housenumber" v="4700"/><tag k="coa:place_id" v="311763"/></node><node id="-125" lat="30.182328" lon="-97.641421" changeset="false"><tag k="addr:street" v="Timber Creek Circle"/><tag k="addr:housenumber" v="4601"/><tag k="coa:place_id" v="622406"/></node><node id="-126" lat="30.183352" lon="-97.644798" changeset="false"><tag k="addr:street" v="Timber Creek Drive"/><tag k="addr:housenumber" v="4606"/><tag k="coa:place_id" v="622292"/></node><node id="-127" lat="30.165792" lon="-97.551068" changeset="false"><tag k="addr:street" v="Wolf Lane"/><tag k="addr:housenumber" v="6307"/><tag k="coa:place_id" v="3132055"/></node><node id="-128" lat="30.184691" lon="-97.551962" changeset="false"><tag k="addr:street" v="Granny Drive"/><tag k="addr:housenumber" v="4511"/><tag k="coa:place_id" v="3182218"/></node><node id="-129" lat="30.161173" lon="-97.600754" changeset="false"><tag k="addr:street" v="Pearce Lane"/><tag k="addr:housenumber" v="14600"/><tag k="coa:place_id" v="3100735"/></node><node id="-130" lat="30.183317" lon="-97.643982" changeset="false"><tag k="addr:street" v="Timber Creek Drive"/><tag k="addr:housenumber" v="4608"/><tag k="coa:place_id" v="622766"/></node><node id="-131" lat="30.180557" lon="-97.64195" changeset="false"><tag k="addr:street" v="Timber Creek Drive"/><tag k="addr:housenumber" v="4710"/><tag k="coa:place_id" v="622568"/></node><node id="-132" lat="30.181282" lon="-97.642541" changeset="false"><tag k="addr:street" v="Benson Way"/><tag k="addr:housenumber" v="4702"/><tag k="coa:place_id" v="622640"/></node><node id="-133" lat="30.182254" lon="-97.63923" changeset="false"><tag k="addr:street" v="Hialeah Drive"/><tag k="addr:housenumber" v="11104"/><tag k="coa:place_id" v="152943"/></node><node id="-134" lat="30.178993" lon="-97.63943" changeset="false"><tag k="addr:street" v="Pimlico Drive"/><tag k="addr:housenumber" v="4800"/><tag k="coa:place_id" v="621794"/></node><node id="-135" lat="30.186074" lon="-97.568885" changeset="false"><tag k="addr:street" v="Richards Drive"/><tag k="addr:housenumber" v="15805"/><tag k="coa:place_id" v="1138036"/></node><node id="-136" lat="30.184523" lon="-97.644166" changeset="false"><tag k="addr:street" v="Hedgerow Place"/><tag k="addr:housenumber" v="4601"/><tag k="coa:place_id" v="264826"/></node><node id="-137" lat="30.174792" lon="-97.618997" changeset="false"><tag k="addr:street" v="Sexson Ridge Cove"/><tag k="addr:housenumber" v="12809"/><tag k="coa:place_id" v="3066683"/></node><node id="-138" lat="30.172904" lon="-97.62048" changeset="false"><tag k="addr:street" v="Ross Road"/><tag k="addr:housenumber" v="5501 1/2"/><tag k="coa:place_id" v="3070447"/></node><node id="-139" lat="30.164969" lon="-97.593801" changeset="false"><tag k="addr:street" v="Navarro Creek Road"/><tag k="addr:housenumber" v="6503"/><tag k="coa:place_id" v="3071061"/></node><node id="-140" lat="30.180207" lon="-97.641515" changeset="false"><tag k="addr:street" v="Timber Creek Drive"/><tag k="addr:housenumber" v="4713"/><tag k="coa:place_id" v="622448"/></node><node id="-141" lat="30.180225" lon="-97.645115" changeset="false"><tag k="addr:street" v="Hedgerow Place"/><tag k="addr:housenumber" v="4807"/><tag k="coa:place_id" v="289845"/></node><node id="-142" lat="30.171186" lon="-97.619434" changeset="false"><tag k="addr:street" v="Malarkey Road"/><tag k="addr:housenumber" v="5608"/><tag k="coa:place_id" v="3088817"/></node><node id="-143" lat="30.179933" lon="-97.641724" changeset="false"><tag k="addr:street" v="Foxhead Drive"/><tag k="addr:housenumber" v="4801"/><tag k="coa:place_id" v="622454"/></node><node id="-144" lat="30.169585" lon="-97.617846" changeset="false"><tag k="addr:street" v="Nijmegen Drive"/><tag k="addr:housenumber" v="5701"/><tag k="coa:place_id" v="3218532"/></node><node id="-145" lat="30.183466" lon="-97.553279" changeset="false"><tag k="addr:street" v="Granny Drive"/><tag k="addr:housenumber" v="4612"/><tag k="coa:place_id" v="3298761"/></node><node id="-146" lat="30.167946" lon="-97.618908" changeset="false"><tag k="addr:street" v="Perconte Drive"/><tag k="addr:housenumber" v="13101"/><tag k="coa:place_id" v="3088119"/></node><node id="-147" lat="30.175086" lon="-97.545621" changeset="false"><tag k="addr:street" v="Wolf Lane"/><tag k="addr:housenumber" v="5311"/><tag k="coa:place_id" v="3370143"/></node><node id="-148" lat="30.177641" lon="-97.616516" changeset="false"><tag k="addr:street" v="Ross Road"/><tag k="addr:housenumber" v="5300"/><tag k="coa:place_id" v="932978"/></node><node id="-149" lat="30.176537" lon="-97.532816" changeset="false"><tag k="addr:street" v="Old Bastrop Road"/><tag k="addr:housenumber" v="251"/><tag k="coa:place_id" v="3389153"/></node><node id="-150" lat="30.188329" lon="-97.576137" changeset="false"><tag k="addr:street" v="Richards Drive"/><tag k="addr:housenumber" v="15309"/><tag k="coa:place_id" v="3223486"/></node><node id="-151" lat="30.181864" lon="-97.613117" changeset="false"><tag k="addr:street" v="Ross Road"/><tag k="addr:housenumber" v="4820"/><tag k="coa:place_id" v="3337505"/></node><node id="-152" lat="30.181517" lon="-97.613329" changeset="false"><tag k="addr:street" v="Ross Road"/><tag k="addr:housenumber" v="4900"/><tag k="coa:place_id" v="3337506"/></node><node id="-153" lat="30.180371" lon="-97.614017" changeset="false"><tag k="addr:street" v="Ross Road"/><tag k="addr:housenumber" v="5020"/><tag k="coa:place_id" v="3337509"/></node><node id="-154" lat="30.157904" lon="-97.558562" changeset="false"><tag k="addr:street" v="Wolf Lane"/><tag k="addr:housenumber" v="7020"/><tag k="coa:place_id" v="5061873"/></node><node id="-155" lat="30.180096" lon="-97.542229" changeset="false"><tag k="addr:street" v="Wolf Lane"/><tag k="addr:housenumber" v="4825"/><tag k="coa:place_id" v="3327279"/></node><node id="-156" lat="30.175979" lon="-97.616677" changeset="false"><tag k="addr:street" v="Mathra Drive"/><tag k="addr:housenumber" v="5237"/><tag k="coa:place_id" v="3066641"/></node><node id="-157" lat="30.179621" lon="-97.640253" changeset="false"><tag k="addr:street" v="Whirlaway Drive"/><tag k="addr:housenumber" v="4712"/><tag k="coa:place_id" v="621992"/></node><node id="-158" lat="30.170871" lon="-97.611398" changeset="false"><tag k="addr:street" v="Alysheba Drive"/><tag k="addr:housenumber" v="13505"/><tag k="coa:place_id" v="3048932"/></node><node id="-159" lat="30.181107" lon="-97.643128" changeset="false"><tag k="addr:street" v="Ascot Way"/><tag k="addr:housenumber" v="4707"/><tag k="coa:place_id" v="622664"/></node><node id="-160" lat="30.184573" lon="-97.644472" changeset="false"><tag k="addr:street" v="Hedgerow Place"/><tag k="addr:housenumber" v="4600"/><tag k="coa:place_id" v="991419"/></node><node id="-161" lat="30.17621" lon="-97.615159" changeset="false"><tag k="addr:street" v="Dearbonne Drive"/><tag k="addr:housenumber" v="13008"/><tag k="coa:place_id" v="3052125"/></node><node id="-162" lat="30.182866" lon="-97.641876" changeset="false"><tag k="addr:street" v="Timber Creek Circle"/><tag k="addr:housenumber" v="4602"/><tag k="coa:place_id" v="622394"/></node><node id="-163" lat="30.182169" lon="-97.641817" changeset="false"><tag k="addr:street" v="Timber Creek Circle"/><tag k="addr:housenumber" v="4605"/><tag k="coa:place_id" v="622418"/></node><node id="-164" lat="30.174388" lon="-97.588109" changeset="false"><tag k="addr:street" v="Navarro Creek Road"/><tag k="addr:housenumber" v="5401"/><tag k="coa:place_id" v="222254"/></node><node id="-165" lat="30.181445" lon="-97.639303" changeset="false"><tag k="addr:street" v="Preakness Drive"/><tag k="addr:housenumber" v="4602"/><tag k="coa:place_id" v="622094"/></node><node id="-166" lat="30.181478" lon="-97.644308" changeset="false"><tag k="addr:street" v="Hedgerow Place"/><tag k="addr:housenumber" v="4707"/><tag k="coa:place_id" v="622802"/></node><node id="-167" lat="30.18194" lon="-97.641032" changeset="false"><tag k="addr:street" v="Benson Way"/><tag k="addr:housenumber" v="4606"/><tag k="coa:place_id" v="319378"/></node><node id="-168" lat="30.181802" lon="-97.643216" changeset="false"><tag k="addr:street" v="Ascot Way"/><tag k="addr:housenumber" v="4704"/><tag k="coa:place_id" v="67362"/></node><node id="-169" lat="30.181728" lon="-97.641654" changeset="false"><tag k="addr:street" v="Benson Way"/><tag k="addr:housenumber" v="4610"/><tag k="coa:place_id" v="622196"/></node><node id="-170" lat="30.180024" lon="-97.642366" changeset="false"><tag k="addr:street" v="Timber Creek Drive"/><tag k="addr:housenumber" v="4714"/><tag k="coa:place_id" v="622556"/></node><node id="-171" lat="30.178671" lon="-97.639477" changeset="false"><tag k="addr:street" v="Pimlico Drive"/><tag k="addr:housenumber" v="4802"/><tag k="coa:place_id" v="621806"/></node><node id="-172" lat="30.180448" lon="-97.64017" changeset="false"><tag k="addr:street" v="Whirlaway Drive"/><tag k="addr:housenumber" v="4703"/><tag k="coa:place_id" v="622130"/></node><node id="-173" lat="30.143269" lon="-97.566457" changeset="false"><tag k="addr:street" v="Wolf Lane"/><tag k="addr:housenumber" v="7910"/><tag k="coa:place_id" v="1146547"/></node><node id="-174" lat="30.172398" lon="-97.615747" changeset="false"><tag k="addr:street" v="Thome Valley Drive"/><tag k="addr:housenumber" v="13101"/><tag k="coa:place_id" v="3047897"/></node><node id="-175" lat="30.179242" lon="-97.639995" changeset="false"><tag k="addr:street" v="Whirlaway Drive"/><tag k="addr:housenumber" v="4800"/><tag k="coa:place_id" v="232317"/></node><node id="-176" lat="30.179139" lon="-97.64242" changeset="false"><tag k="addr:street" v="Timber Creek Drive"/><tag k="addr:housenumber" v="4805"/><tag k="coa:place_id" v="622520"/></node><node id="-177" lat="30.178406" lon="-97.639455" changeset="false"><tag k="addr:street" v="Pimlico Drive"/><tag k="addr:housenumber" v="4804"/><tag k="coa:place_id" v="621812"/></node><node id="-178" lat="30.17484" lon="-97.613305" changeset="false"><tag k="addr:street" v="Dearbonne Drive"/><tag k="addr:housenumber" v="13217"/><tag k="coa:place_id" v="3052157"/></node><node id="-179" lat="30.174809" lon="-97.615694" changeset="false"><tag k="addr:street" v="Vizquel Loop"/><tag k="addr:housenumber" v="13424"/><tag k="coa:place_id" v="3048730"/></node><node id="-180" lat="30.181587" lon="-97.641901" changeset="false"><tag k="addr:street" v="Timber Creek Drive"/><tag k="addr:housenumber" v="4703"/><tag k="coa:place_id" v="733617"/></node><node id="-181" lat="30.179435" lon="-97.638654" changeset="false"><tag k="addr:street" v="Pimlico Drive"/><tag k="addr:housenumber" v="4705"/><tag k="coa:place_id" v="621788"/></node><node id="-182" lat="30.182007" lon="-97.642102" changeset="false"><tag k="addr:street" v="Timber Creek Circle"/><tag k="addr:housenumber" v="4607"/><tag k="coa:place_id" v="622424"/></node><node id="-183" lat="30.182688" lon="-97.641517" changeset="false"><tag k="addr:street" v="Timber Creek Circle"/><tag k="addr:housenumber" v="4600"/><tag k="coa:place_id" v="622400"/></node><node id="-184" lat="30.182956" lon="-97.642653" changeset="false"><tag k="addr:street" v="Timber Creek Drive"/><tag k="addr:housenumber" v="4619"/><tag k="coa:place_id" v="622376"/></node><node id="-185" lat="30.16655" lon="-97.592821" changeset="false"><tag k="addr:street" v="Navarro Creek Road"/><tag k="addr:housenumber" v="6301"/><tag k="coa:place_id" v="206331"/></node><node id="-186" lat="30.180882" lon="-97.642776" changeset="false"><tag k="addr:street" v="Benson Way"/><tag k="addr:housenumber" v="4706"/><tag k="coa:place_id" v="370749"/></node><node id="-187" lat="30.180257" lon="-97.643249" changeset="false"><tag k="addr:street" v="Benson Way"/><tag k="addr:housenumber" v="4800"/><tag k="coa:place_id" v="622622"/></node><node id="-188" lat="30.176692" lon="-97.587206" changeset="false"><tag k="addr:street" v="Navarro Creek Road"/><tag k="addr:housenumber" v="5202"/><tag k="coa:place_id" v="222217"/></node><node id="-189" lat="30.180651" lon="-97.642896" changeset="false"><tag k="addr:street" v="Benson Way"/><tag k="addr:housenumber" v="4708"/><tag k="coa:place_id" v="921116"/></node><node id="-190" lat="30.1676" lon="-97.61733" changeset="false"><tag k="addr:street" v="Lipton Loop"/><tag k="addr:housenumber" v="13525"/><tag k="coa:place_id" v="3088109"/></node><node id="-191" lat="30.178075" lon="-97.586647" changeset="false"><tag k="addr:street" v="Navarro Creek Road"/><tag k="addr:housenumber" v="5004"/><tag k="coa:place_id" v="3260036"/></node><node id="-192" lat="30.175863" lon="-97.615908" changeset="false"><tag k="addr:street" v="Feller Cove"/><tag k="addr:housenumber" v="5216"/><tag k="coa:place_id" v="3052121"/></node><node id="-193" lat="30.179002" lon="-97.614926" changeset="false"><tag k="addr:street" v="Ross Road"/><tag k="addr:housenumber" v="5220"/><tag k="coa:place_id" v="3337513"/></node><node id="-194" lat="30.169811" lon="-97.589779" changeset="false"><tag k="addr:street" v="Navarro Creek Road"/><tag k="addr:housenumber" v="5817"/><tag k="coa:place_id" v="3320268"/></node><node id="-195" lat="30.175583" lon="-97.635246" changeset="false"><tag k="addr:street" v="Pearce Lane"/><tag k="addr:housenumber" v="11708"/><tag k="coa:place_id" v="5095817"/></node><node id="-196" lat="30.182151" lon="-97.55359" changeset="false"><tag k="addr:street" v="Granny Drive"/><tag k="addr:housenumber" v="4621"/><tag k="coa:place_id" v="5070312"/></node><node id="-197" lat="30.170393" lon="-97.612092" changeset="false"><tag k="addr:street" v="Coomes Drive"/><tag k="addr:housenumber" v="13425"/><tag k="coa:place_id" v="5071668"/></node><node id="-198" lat="30.167053" lon="-97.592397" changeset="false"><tag k="addr:street" v="Navarro Creek Road"/><tag k="addr:housenumber" v="6201"/><tag k="coa:place_id" v="3320741"/></node><node id="-199" lat="30.182761" lon="-97.643579" changeset="false"><tag k="addr:street" v="Timber Creek Cove"/><tag k="addr:housenumber" v="4602"/><tag k="coa:place_id" v="622754"/></node><node id="-200" lat="30.18253" lon="-97.640056" changeset="false"><tag k="addr:street" v="Whirlaway Drive"/><tag k="addr:housenumber" v="4600"/><tag k="coa:place_id" v="622166"/></node><node id="-201" lat="30.182355" lon="-97.639446" changeset="false"><tag k="addr:street" v="Hialeah Drive"/><tag k="addr:housenumber" v="11102"/><tag k="coa:place_id" v="622064"/></node><node id="-202" lat="30.171277" lon="-97.612254" changeset="false"><tag k="addr:street" v="Alysheba Drive"/><tag k="addr:housenumber" v="13405"/><tag k="coa:place_id" v="3048926"/></node><node id="-203" lat="30.172613" lon="-97.618303" changeset="false"><tag k="addr:street" v="Alomar Cove"/><tag k="addr:housenumber" v="5508"/><tag k="coa:place_id" v="3047880"/></node><node id="-204" lat="30.172553" lon="-97.616074" changeset="false"><tag k="addr:street" v="Thome Valley Drive"/><tag k="addr:housenumber" v="13009"/><tag k="coa:place_id" v="3047895"/></node><node id="-205" lat="30.170398" lon="-97.610421" changeset="false"><tag k="addr:street" v="Alysheba Drive"/><tag k="addr:housenumber" v="13613"/><tag k="coa:place_id" v="3048940"/></node><node id="-206" lat="30.170134" lon="-97.610416" changeset="false"><tag k="addr:street" v="Coomes Drive"/><tag k="addr:housenumber" v="13612"/><tag k="coa:place_id" v="3070690"/></node><node id="-207" lat="30.165099" lon="-97.59374" changeset="false"><tag k="addr:street" v="Navarro Creek Road"/><tag k="addr:housenumber" v="6405"/><tag k="coa:place_id" v="1130454"/></node><node id="-208" lat="30.180484" lon="-97.643199" changeset="false"><tag k="addr:street" v="Benson Way"/><tag k="addr:housenumber" v="4710"/><tag k="coa:place_id" v="622628"/></node><node id="-209" lat="30.180154" lon="-97.638896" changeset="false"><tag k="addr:street" v="Pimlico Drive"/><tag k="addr:housenumber" v="4700"/><tag k="coa:place_id" v="621764"/></node><node id="-210" lat="30.178954" lon="-97.642561" changeset="false"><tag k="addr:street" v="Timber Creek Drive"/><tag k="addr:housenumber" v="4807"/><tag k="coa:place_id" v="622526"/></node><node id="-211" lat="30.170832" lon="-97.621894" changeset="false"><tag k="addr:street" v="Ross Road"/><tag k="addr:housenumber" v="5525"/><tag k="coa:place_id" v="5087160"/></node><node id="-212" lat="30.16547" lon="-97.545355" changeset="false"><tag k="addr:street" v="Wolf Lane"/><tag k="addr:housenumber" v="6101"/><tag k="coa:place_id" v="3327280"/></node><node id="-213" lat="30.154688" lon="-97.557469" changeset="false"><tag k="addr:street" v="Wolf Lane"/><tag k="addr:housenumber" v="7101"/><tag k="coa:place_id" v="5065380"/></node><node id="-214" lat="30.165166" lon="-97.551661" changeset="false"><tag k="addr:street" v="Wolf Lane"/><tag k="addr:housenumber" v="6319"/><tag k="coa:place_id" v="5115138"/></node><node id="-215" lat="30.180075" lon="-97.614228" changeset="false"><tag k="addr:street" v="Ross Road"/><tag k="addr:housenumber" v="5100"/><tag k="coa:place_id" v="3337510"/></node><node id="-216" lat="30.17528" lon="-97.618941" changeset="false"><tag k="addr:street" v="Sexson Ridge Cove"/><tag k="addr:housenumber" v="12804"/><tag k="coa:place_id" v="3066672"/></node><node id="-217" lat="30.169252" lon="-97.622183" changeset="false"><tag k="addr:street" v="Pearce Lane"/><tag k="addr:housenumber" v="12800"/><tag k="coa:place_id" v="3189595"/></node><node id="-218" lat="30.179554" lon="-97.642126" changeset="false"><tag k="addr:street" v="Timber Creek Drive"/><tag k="addr:housenumber" v="4801"/><tag k="coa:place_id" v="622508"/></node><node id="-219" lat="30.178001" lon="-97.640071" changeset="false"><tag k="addr:street" v="Pearce Lane"/><tag k="addr:housenumber" v="11206"/><tag k="coa:place_id" v="248843"/></node><node id="-220" lat="30.188061" lon="-97.574027" changeset="false"><tag k="addr:street" v="Richards Drive"/><tag k="addr:housenumber" v="15409"/><tag k="coa:place_id" v="3223485"/></node><node id="-221" lat="30.187692" lon="-97.56954" changeset="false"><tag k="addr:street" v="Richards Drive"/><tag k="addr:housenumber" v="15709"/><tag k="coa:place_id" v="3327397"/></node><node id="-222" lat="30.180549" lon="-97.6462" changeset="false"><tag k="addr:street" v="Pearce Lane"/><tag k="addr:housenumber" v="10900 1/2"/><tag k="coa:place_id" v="5103986"/></node><node id="-223" lat="30.151835" lon="-97.584344" changeset="false"><tag k="addr:street" v="Pearce Lane"/><tag k="addr:housenumber" v="15810"/><tag k="coa:place_id" v="3691929"/></node><node id="-224" lat="30.162883" lon="-97.553188" changeset="false"><tag k="addr:street" v="Wolf Lane"/><tag k="addr:housenumber" v="6515"/><tag k="coa:place_id" v="3503578"/></node><node id="-225" lat="30.181128" lon="-97.613579" changeset="false"><tag k="addr:street" v="Ross Road"/><tag k="addr:housenumber" v="4920"/><tag k="coa:place_id" v="3337507"/></node><node id="-226" lat="30.176512" lon="-97.617873" changeset="false"><tag k="addr:street" v="Diwa Cove"/><tag k="addr:housenumber" v="5208"/><tag k="coa:place_id" v="3066627"/></node><node id="-227" lat="30.18217" lon="-97.61287" changeset="false"><tag k="addr:street" v="Ross Road"/><tag k="addr:housenumber" v="4800"/><tag k="coa:place_id" v="3337504"/></node><node id="-228" lat="30.176124" lon="-97.53202" changeset="false"><tag k="addr:street" v="Old Bastrop Road"/><tag k="addr:housenumber" v="235"/><tag k="coa:place_id" v="3318907"/></node><node id="-229" lat="30.176316" lon="-97.587581" changeset="false"><tag k="addr:street" v="Navarro Creek Road"/><tag k="addr:housenumber" v="5218"/><tag k="coa:place_id" v="3275760"/></node><node id="-230" lat="30.183877" lon="-97.552974" changeset="false"><tag k="addr:street" v="Granny Drive"/><tag k="addr:housenumber" v="4606"/><tag k="coa:place_id" v="3298760"/></node><node id="-231" lat="30.179148" lon="-97.642948" changeset="false"><tag k="addr:street" v="Timber Creek Drive"/><tag k="addr:housenumber" v="4806"/><tag k="coa:place_id" v="622532"/></node><node id="-232" lat="30.179432" lon="-97.614676" changeset="false"><tag k="addr:street" v="Ross Road"/><tag k="addr:housenumber" v="5200"/><tag k="coa:place_id" v="3337512"/></node><node id="-233" lat="30.151335" lon="-97.583852" changeset="false"><tag k="addr:street" v="Pearce Lane"/><tag k="addr:housenumber" v="15812"/><tag k="coa:place_id" v="3174242"/></node><node id="-234" lat="30.175822" lon="-97.543508" changeset="false"><tag k="addr:street" v="Wolf Lane"/><tag k="addr:housenumber" v="5203"/><tag k="coa:place_id" v="3425776"/></node><node id="-235" lat="30.149722" lon="-97.580591" changeset="false"><tag k="addr:street" v="Pearce Lane"/><tag k="addr:housenumber" v="16050 1/2"/><tag k="coa:place_id" v="3430623"/></node><node id="-236" lat="30.18077" lon="-97.613779" changeset="false"><tag k="addr:street" v="Ross Road"/><tag k="addr:housenumber" v="5000"/><tag k="coa:place_id" v="3337508"/></node><node id="-237" lat="30.178032" lon="-97.639604" changeset="false"><tag k="addr:street" v="Pimlico Drive"/><tag k="addr:housenumber" v="4806"/><tag k="coa:place_id" v="722067"/></node><node id="-238" lat="30.172745" lon="-97.614026" changeset="false"><tag k="addr:street" v="Tabitha Cove"/><tag k="addr:housenumber" v="5409"/><tag k="coa:place_id" v="3047918"/></node><node id="-239" lat="30.167263" lon="-97.61808" changeset="false"><tag k="addr:street" v="Welsh Way"/><tag k="addr:housenumber" v="5909 1/2"/><tag k="coa:place_id" v="3107596"/></node><node id="-240" lat="30.180463" lon="-97.644937" changeset="false"><tag k="addr:street" v="Hedgerow Place"/><tag k="addr:housenumber" v="4805"/><tag k="coa:place_id" v="147750"/></node><node id="-241" lat="30.179926" lon="-97.643085" changeset="false"><tag k="addr:street" v="Benson Way"/><tag k="addr:housenumber" v="4803"/><tag k="coa:place_id" v="622604"/></node><node id="-242" lat="30.179914" lon="-97.644214" changeset="false"><tag k="addr:street" v="Ascot Way"/><tag k="addr:housenumber" v="4807"/><tag k="coa:place_id" v="622682"/></node><node id="-243" lat="30.174912" lon="-97.612289" changeset="false"><tag k="addr:street" v="Dearbonne Drive"/><tag k="addr:housenumber" v="13308"/><tag k="coa:place_id" v="3052153"/></node><node id="-244" lat="30.180473" lon="-97.639777" changeset="false"><tag k="addr:street" v="Preakness Drive"/><tag k="addr:housenumber" v="4702"/><tag k="coa:place_id" v="949017"/></node><node id="-245" lat="30.180357" lon="-97.638095" changeset="false"><tag k="addr:street" v="Pimlico Drive"/><tag k="addr:housenumber" v="4605"/><tag k="coa:place_id" v="621830"/></node><node id="-246" lat="30.18287" lon="-97.644025" changeset="false"><tag k="addr:street" v="Hedgerow Place"/><tag k="addr:housenumber" v="4611"/><tag k="coa:place_id" v="622772"/></node><node id="-247" lat="30.182632" lon="-97.644117" changeset="false"><tag k="addr:street" v="Hedgerow Place"/><tag k="addr:housenumber" v="4613"/><tag k="coa:place_id" v="622778"/></node><node id="-248" lat="30.181769" lon="-97.644269" changeset="false"><tag k="addr:street" v="Hedgerow Place"/><tag k="addr:housenumber" v="4705"/><tag k="coa:place_id" v="622796"/></node><node id="-249" lat="30.181402" lon="-97.640543" changeset="false"><tag k="addr:street" v="Whirlaway Drive"/><tag k="addr:housenumber" v="4608"/><tag k="coa:place_id" v="621956"/></node><node id="-250" lat="30.182039" lon="-97.64035" changeset="false"><tag k="addr:street" v="Whirlaway Drive"/><tag k="addr:housenumber" v="4604"/><tag k="coa:place_id" v="107737"/></node><node id="-251" lat="30.181994" lon="-97.641385" changeset="false"><tag k="addr:street" v="Benson Way"/><tag k="addr:housenumber" v="4608"/><tag k="coa:place_id" v="456016"/></node><node id="-252" lat="30.184943" lon="-97.551837" changeset="false"><tag k="addr:street" v="Granny Drive"/><tag k="addr:housenumber" v="4507"/><tag k="coa:place_id" v="3176202"/></node><node id="-253" lat="30.18295" lon="-97.643386" changeset="false"><tag k="addr:street" v="Timber Creek Drive"/><tag k="addr:housenumber" v="4612"/><tag k="coa:place_id" v="740061"/></node><node id="-254" lat="30.169744" lon="-97.619222" changeset="false"><tag k="addr:street" v="Alomar Cove"/><tag k="addr:housenumber" v="5712"/><tag k="coa:place_id" v="3126679"/></node><node id="-255" lat="30.166966" lon="-97.593609" changeset="false"><tag k="addr:street" v="Navarro Creek Road"/><tag k="addr:housenumber" v="6200"/><tag k="coa:place_id" v="1104573"/></node><node id="-256" lat="30.179039" lon="-97.639734" changeset="false"><tag k="addr:street" v="Whirlaway Drive"/><tag k="addr:housenumber" v="4802"/><tag k="coa:place_id" v="621998"/></node><node id="-257" lat="30.171635" lon="-97.617377" changeset="false"><tag k="addr:street" v="Lipton Loop"/><tag k="addr:housenumber" v="13016"/><tag k="coa:place_id" v="3104729"/></node><node id="-258" lat="30.170686" lon="-97.611086" changeset="false"><tag k="addr:street" v="Alysheba Drive"/><tag k="addr:housenumber" v="13517"/><tag k="coa:place_id" v="3048935"/></node><node id="-259" lat="30.181425" lon="-97.643616" changeset="false"><tag k="addr:street" v="Ascot Way"/><tag k="addr:housenumber" v="4708"/><tag k="coa:place_id" v="1002518"/></node><node id="-260" lat="30.182028" lon="-97.638778" changeset="false"><tag k="addr:street" v="Hialeah Drive"/><tag k="addr:housenumber" v="11108"/><tag k="coa:place_id" v="622046"/></node><node id="-261" lat="30.171168" lon="-97.610202" changeset="false"><tag k="addr:street" v="Sea Biscuit Drive"/><tag k="addr:housenumber" v="13609"/><tag k="coa:place_id" v="3049034"/></node><node id="-262" lat="30.178615" lon="-97.640899" changeset="false"><tag k="addr:street" v="Pearce Lane"/><tag k="addr:housenumber" v="11200"/><tag k="coa:place_id" v="622826"/></node><node id="-263" lat="30.17828" lon="-97.64038" changeset="false"><tag k="addr:street" v="Pearce Lane"/><tag k="addr:housenumber" v="11204"/><tag k="coa:place_id" v="736558"/></node><node id="-264" lat="30.181382" lon="-97.645098" changeset="false"><tag k="addr:street" v="Hedgerow Place"/><tag k="addr:housenumber" v="4708"/><tag k="coa:place_id" v="622256"/></node><node id="-265" lat="30.181076" lon="-97.642692" changeset="false"><tag k="addr:street" v="Benson Way"/><tag k="addr:housenumber" v="4704"/><tag k="coa:place_id" v="622634"/></node><node id="-266" lat="30.1824" lon="-97.643123" changeset="false"><tag k="addr:street" v="Timber Creek Cove"/><tag k="addr:housenumber" v="4603"/><tag k="coa:place_id" v="709419"/></node><node id="-267" lat="30.176609" lon="-97.587163" changeset="false"><tag k="addr:street" v="Navarro Creek Road"/><tag k="addr:housenumber" v="5210"/><tag k="coa:place_id" v="222238"/></node><node id="-268" lat="30.181131" lon="-97.642044" changeset="false"><tag k="addr:street" v="Timber Creek Drive"/><tag k="addr:housenumber" v="4704"/><tag k="coa:place_id" v="622646"/></node><node id="-269" lat="30.180695" lon="-97.644184" changeset="false"><tag k="addr:street" v="Ascot Way"/><tag k="addr:housenumber" v="4800"/><tag k="coa:place_id" v="622700"/></node><node id="-270" lat="30.182304" lon="-97.644205" changeset="false"><tag k="addr:street" v="Hedgerow Place"/><tag k="addr:housenumber" v="4701"/><tag k="coa:place_id" v="622784"/></node><node id="-271" lat="30.178983" lon="-97.642044" changeset="false"><tag k="addr:street" v="Foxhead Drive"/><tag k="addr:housenumber" v="4808"/><tag k="coa:place_id" v="639405"/></node><node id="-272" lat="30.178462" lon="-97.640563" changeset="false"><tag k="addr:street" v="Pearce Lane"/><tag k="addr:housenumber" v="11202"/><tag k="coa:place_id" v="622832"/></node><node id="-273" lat="30.174256" lon="-97.617665" changeset="false"><tag k="addr:street" v="Sexson Ridge Cove"/><tag k="addr:housenumber" v="12917"/><tag k="coa:place_id" v="3066692"/></node><node id="-274" lat="30.174137" lon="-97.62036" changeset="false"><tag k="addr:street" v="Ross Road"/><tag k="addr:housenumber" v="5412 1/2"/><tag k="coa:place_id" v="3086659"/></node><node id="-275" lat="30.184022" lon="-97.644006" changeset="false"><tag k="addr:street" v="Hedgerow Place"/><tag k="addr:housenumber" v="4605"/><tag k="coa:place_id" v="110551"/></node><node id="-276" lat="30.181725" lon="-97.639172" changeset="false"><tag k="addr:street" v="Hialeah Drive"/><tag k="addr:housenumber" v="11105"/><tag k="coa:place_id" v="297903"/></node><node id="-277" lat="30.180441" lon="-97.6443" changeset="false"><tag k="addr:street" v="Ascot Way"/><tag k="addr:housenumber" v="4802"/><tag k="coa:place_id" v="622694"/></node><node id="-278" lat="30.171492" lon="-97.612673" changeset="false"><tag k="addr:street" v="Alysheba Drive"/><tag k="addr:housenumber" v="13317"/><tag k="coa:place_id" v="3048955"/></node><node id="-279" lat="30.165394" lon="-97.59401" changeset="false"><tag k="addr:street" v="Navarro Creek Road"/><tag k="addr:housenumber" v="6316"/><tag k="coa:place_id" v="1130451"/></node><node id="-280" lat="30.183584" lon="-97.643726" changeset="false"><tag k="addr:street" v="Timber Creek Drive"/><tag k="addr:housenumber" v="4611"/><tag k="coa:place_id" v="622352"/></node><node id="-281" lat="30.18271" lon="-97.642041" changeset="false"><tag k="addr:street" v="Timber Creek Circle"/><tag k="addr:housenumber" v="4604"/><tag k="coa:place_id" v="107345"/></node><node id="-282" lat="30.175732" lon="-97.615936" changeset="false"><tag k="addr:street" v="Feller Cove"/><tag k="addr:housenumber" v="5220"/><tag k="coa:place_id" v="3052122"/></node><node id="-283" lat="30.174482" lon="-97.619321" changeset="false"><tag k="addr:street" v="Quirin Drive"/><tag k="addr:housenumber" v="12700"/><tag k="coa:place_id" v="3047851"/></node><node id="-284" lat="30.181653" lon="-97.64283" changeset="false"><tag k="addr:street" v="Ascot Way"/><tag k="addr:housenumber" v="4703"/><tag k="coa:place_id" v="622658"/></node><node id="-285" lat="30.181221" lon="-97.644482" changeset="false"><tag k="addr:street" v="Hedgerow Place"/><tag k="addr:housenumber" v="4709"/><tag k="coa:place_id" v="622808"/></node><node id="-286" lat="30.179522" lon="-97.641526" changeset="false"><tag k="addr:street" v="Foxhead Drive"/><tag k="addr:housenumber" v="4803"/><tag k="coa:place_id" v="622460"/></node><node id="-287" lat="30.17932" lon="-97.64227" changeset="false"><tag k="addr:street" v="Timber Creek Drive"/><tag k="addr:housenumber" v="4803"/><tag k="coa:place_id" v="622514"/></node><node id="-288" lat="30.17876" lon="-97.641139" changeset="false"><tag k="addr:street" v="Pearce Lane"/><tag k="addr:housenumber" v="11110"/><tag k="coa:place_id" v="622820"/></node><node id="-289" lat="30.168227" lon="-97.620134" changeset="false"><tag k="addr:street" v="Alomar Cove"/><tag k="addr:housenumber" v="5908 1/2"/><tag k="coa:place_id" v="3107597"/></node><node id="-290" lat="30.18002" lon="-97.644028" changeset="false"><tag k="addr:street" v="Ascot Way"/><tag k="addr:housenumber" v="4805"/><tag k="coa:place_id" v="333123"/></node><node id="-291" lat="30.182231" lon="-97.642697" changeset="false"><tag k="addr:street" v="Timber Creek Drive"/><tag k="addr:housenumber" v="4622"/><tag k="coa:place_id" v="537508"/></node><node id="-292" lat="30.184045" lon="-97.644607" changeset="false"><tag k="addr:street" v="Hedgerow Place"/><tag k="addr:housenumber" v="4604"/><tag k="coa:place_id" v="622316"/></node><node id="-293" lat="30.179928" lon="-97.6437" changeset="false"><tag k="addr:street" v="Benson Way"/><tag k="addr:housenumber" v="4804"/><tag k="coa:place_id" v="284715"/></node><node id="-294" lat="30.171502" lon="-97.609591" changeset="false"><tag k="addr:street" v="War Admiral Drive"/><tag k="addr:housenumber" v="5624"/><tag k="coa:place_id" v="3049065"/></node><node id="-295" lat="30.187538" lon="-97.565542" changeset="false"><tag k="addr:street" v="Richards Drive"/><tag k="addr:housenumber" v="16001"/><tag k="coa:place_id" v="223217"/></node><node id="-296" lat="30.178812" lon="-97.612618" changeset="false"><tag k="addr:street" v="Ross Road"/><tag k="addr:housenumber" v="5201"/><tag k="coa:place_id" v="215754"/></node><node id="-297" lat="30.170439" lon="-97.610518" changeset="false"><tag k="addr:street" v="Alysheba Drive"/><tag k="addr:housenumber" v="13609"/><tag k="coa:place_id" v="3048939"/></node><node id="-298" lat="30.183154" lon="-97.642887" changeset="false"><tag k="addr:street" v="Timber Creek Drive"/><tag k="addr:housenumber" v="4617"/><tag k="coa:place_id" v="622370"/></node><node id="-299" lat="30.181021" lon="-97.638802" changeset="false"><tag k="addr:street" v="Preakness Drive"/><tag k="addr:housenumber" v="4603"/><tag k="coa:place_id" v="622028"/></node><node id="-300" lat="30.171384" lon="-97.612475" changeset="false"><tag k="addr:street" v="Alysheba Drive"/><tag k="addr:housenumber" v="13325"/><tag k="coa:place_id" v="3048925"/></node><node id="-301" lat="30.180688" lon="-97.644805" changeset="false"><tag k="addr:street" v="Hedgerow Place"/><tag k="addr:housenumber" v="4803"/><tag k="coa:place_id" v="718305"/></node><node id="-302" lat="30.180097" lon="-97.639325" changeset="false"><tag k="addr:street" v="Preakness Drive"/><tag k="addr:housenumber" v="4705"/><tag k="coa:place_id" v="622016"/></node><node id="-303" lat="30.182155" lon="-97.643261" changeset="false"><tag k="addr:street" v="Timber Creek Cove"/><tag k="addr:housenumber" v="4605"/><tag k="coa:place_id" v="622304"/></node><node id="-304" lat="30.18201" lon="-97.643548" changeset="false"><tag k="addr:street" v="Timber Creek Cove"/><tag k="addr:housenumber" v="4607"/><tag k="coa:place_id" v="622742"/></node><node id="-305" lat="30.18122" lon="-97.645249" changeset="false"><tag k="addr:street" v="Hedgerow Place"/><tag k="addr:housenumber" v="4800"/><tag k="coa:place_id" v="622250"/></node><node id="-306" lat="30.16993" lon="-97.612351" changeset="false"><tag k="addr:street" v="Pasquarella Drive"/><tag k="addr:housenumber" v="5920 1/2"/><tag k="coa:place_id" v="3101442"/></node><node id="-307" lat="30.17713" lon="-97.587034" changeset="false"><tag k="addr:street" v="Navarro Creek Road"/><tag k="addr:housenumber" v="5200"/><tag k="coa:place_id" v="222215"/></node><node id="-308" lat="30.176074" lon="-97.615692" changeset="false"><tag k="addr:street" v="Feller Cove"/><tag k="addr:housenumber" v="5208"/><tag k="coa:place_id" v="3052129"/></node><node id="-309" lat="30.17599" lon="-97.615831" changeset="false"><tag k="addr:street" v="Feller Cove"/><tag k="addr:housenumber" v="5212"/><tag k="coa:place_id" v="3052120"/></node><node id="-310" lat="30.171142" lon="-97.612032" changeset="false"><tag k="addr:street" v="Alysheba Drive"/><tag k="addr:housenumber" v="13413"/><tag k="coa:place_id" v="3048928"/></node><node id="-311" lat="30.170358" lon="-97.610281" changeset="false"><tag k="addr:street" v="Alysheba Drive"/><tag k="addr:housenumber" v="13617"/><tag k="coa:place_id" v="3074271"/></node><node id="-312" lat="30.161577" lon="-97.606213" changeset="false"><tag k="addr:street" v="Pearce Lane"/><tag k="addr:housenumber" v="14010"/><tag k="coa:place_id" v="116700"/></node><node id="-313" lat="30.174906" lon="-97.613433" changeset="false"><tag k="addr:street" v="Dearbonne Drive"/><tag k="addr:housenumber" v="13213"/><tag k="coa:place_id" v="3052156"/></node><node id="-314" lat="30.180958" lon="-97.643349" changeset="false"><tag k="addr:street" v="Ascot Way"/><tag k="addr:housenumber" v="4709"/><tag k="coa:place_id" v="622670"/></node><node id="-315" lat="30.179953" lon="-97.638326" changeset="false"><tag k="addr:street" v="Pimlico Drive"/><tag k="addr:housenumber" v="4701"/><tag k="coa:place_id" v="621818"/></node><node id="-316" lat="30.180037" lon="-97.644696" changeset="false"><tag k="addr:street" v="Ascot Way"/><tag k="addr:housenumber" v="4806"/><tag k="coa:place_id" v="622688"/></node><node id="-317" lat="30.174128" lon="-97.617525" changeset="false"><tag k="addr:street" v="Sexson Ridge Cove"/><tag k="addr:housenumber" v="12921"/><tag k="coa:place_id" v="3066693"/></node><node id="-318" lat="30.180243" lon="-97.643884" changeset="false"><tag k="addr:street" v="Ascot Way"/><tag k="addr:housenumber" v="4803"/><tag k="coa:place_id" v="622676"/></node><node id="-319" lat="30.180153" lon="-97.640813" changeset="false"><tag k="addr:street" v="Whirlaway Drive"/><tag k="addr:housenumber" v="4706"/><tag k="coa:place_id" v="107736"/></node><node id="-320" lat="30.184267" lon="-97.644692" changeset="false"><tag k="addr:street" v="Hedgerow Place"/><tag k="addr:housenumber" v="4602"/><tag k="coa:place_id" v="622322"/></node><node id="-321" lat="30.182921" lon="-97.644655" changeset="false"><tag k="addr:street" v="Hedgerow Place"/><tag k="addr:housenumber" v="4610"/><tag k="coa:place_id" v="622286"/></node><node id="-322" lat="30.180587" lon="-97.638549" changeset="false"><tag k="addr:street" v="Pimlico Drive"/><tag k="addr:housenumber" v="4604"/><tag k="coa:place_id" v="621752"/></node><node id="-323" lat="30.181838" lon="-97.639422" changeset="false"><tag k="addr:street" v="Hialeah Drive"/><tag k="addr:housenumber" v="11103"/><tag k="coa:place_id" v="622082"/></node></osm>