<?xml version="1.0" encoding="UTF-8"?><osm version="0.6" generator="github.com/aaronlidman/osm-and-geojson"><node id="-1" lat="30.368011" lon="-97.762386" changeset="false"><tag k="addr:street" v="Paint Rock Drive"/><tag k="addr:housenumber" v="4114"/><tag k="addr:postcode" v="78731"/></node><node id="-2" lat="30.367975" lon="-97.761546" changeset="false"><tag k="addr:street" v="Burney Drive"/><tag k="addr:housenumber" v="4111"/><tag k="addr:postcode" v="78731"/></node><node id="-3" lat="30.3681" lon="-97.761762" changeset="false"><tag k="addr:street" v="Burney Drive"/><tag k="addr:housenumber" v="4113"/><tag k="addr:postcode" v="78731"/></node><node id="-4" lat="30.368131" lon="-97.762623" changeset="false"><tag k="addr:street" v="Paint Rock Drive"/><tag k="addr:housenumber" v="4116"/><tag k="addr:postcode" v="78731"/></node><node id="-5" lat="30.368523" lon="-97.762777" changeset="false"><tag k="addr:street" v="Rustling Road"/><tag k="addr:housenumber" v="7707"/><tag k="addr:postcode" v="78731"/></node><node id="-6" lat="30.368215" lon="-97.761996" changeset="false"><tag k="addr:street" v="Burney Drive"/><tag k="addr:housenumber" v="4115"/><tag k="addr:postcode" v="78731"/></node><node id="-7" lat="30.368432" lon="-97.762409" changeset="false"><tag k="addr:street" v="Burney Drive"/><tag k="addr:housenumber" v="4119"/><tag k="addr:postcode" v="78731"/></node><node id="-8" lat="30.368343" lon="-97.762205" changeset="false"><tag k="addr:street" v="Burney Drive"/><tag k="addr:housenumber" v="4117"/><tag k="addr:postcode" v="78731"/></node><node id="-9" lat="30.367355" lon="-97.761192" changeset="false"><tag k="addr:street" v="Paint Rock Drive"/><tag k="addr:housenumber" v="4104"/><tag k="addr:postcode" v="78731"/></node><node id="-10" lat="30.367425" lon="-97.762211" changeset="false"><tag k="addr:street" v="Paint Rock Drive"/><tag k="addr:housenumber" v="4111"/><tag k="addr:postcode" v="78731"/></node><node id="-11" lat="30.367645" lon="-97.760873" changeset="false"><tag k="addr:street" v="Burney Drive"/><tag k="addr:housenumber" v="4105"/><tag k="addr:postcode" v="78731"/></node><node id="-12" lat="30.367487" lon="-97.76245" changeset="false"><tag k="addr:street" v="Paint Rock Drive"/><tag k="addr:housenumber" v="4113"/><tag k="addr:postcode" v="78731"/></node><node id="-13" lat="30.367547" lon="-97.761456" changeset="false"><tag k="addr:street" v="Paint Rock Drive"/><tag k="addr:housenumber" v="4106"/><tag k="addr:postcode" v="78731"/></node><node id="-14" lat="30.367913" lon="-97.761338" changeset="false"><tag k="addr:street" v="Burney Drive"/><tag k="addr:housenumber" v="4109"/><tag k="addr:postcode" v="78731"/></node><node id="-15" lat="30.367763" lon="-97.761111" changeset="false"><tag k="addr:street" v="Burney Drive"/><tag k="addr:housenumber" v="4107"/><tag k="addr:postcode" v="78731"/></node><node id="-16" lat="30.36788" lon="-97.762173" changeset="false"><tag k="addr:street" v="Paint Rock Drive"/><tag k="addr:housenumber" v="4112"/><tag k="addr:postcode" v="78731"/></node><node id="-17" lat="30.367538" lon="-97.760597" changeset="false"><tag k="addr:street" v="Burney Drive"/><tag k="addr:housenumber" v="4103"/><tag k="addr:postcode" v="78731"/></node><node id="-18" lat="30.367604" lon="-97.762669" changeset="false"><tag k="addr:street" v="Paint Rock Drive"/><tag k="addr:housenumber" v="4115"/><tag k="addr:postcode" v="78731"/></node><node id="-19" lat="30.367637" lon="-97.761701" changeset="false"><tag k="addr:street" v="Paint Rock Drive"/><tag k="addr:housenumber" v="4108"/><tag k="addr:postcode" v="78731"/></node><node id="-20" lat="30.367777" lon="-97.761945" changeset="false"><tag k="addr:street" v="Paint Rock Drive"/><tag k="addr:housenumber" v="4110"/><tag k="addr:postcode" v="78731"/></node><node id="-21" lat="30.36689" lon="-97.76191" changeset="false"><tag k="addr:street" v="Tablerock Drive"/><tag k="addr:housenumber" v="4104"/><tag k="addr:postcode" v="78731"/></node><node id="-22" lat="30.36692" lon="-97.76132" changeset="false"><tag k="addr:street" v="Paint Rock Drive"/><tag k="addr:housenumber" v="4103"/><tag k="addr:postcode" v="78731"/></node><node id="-23" lat="30.367005" lon="-97.760744" changeset="false"><tag k="addr:street" v="Paint Rock Drive"/><tag k="addr:housenumber" v="4100"/><tag k="addr:postcode" v="78731"/></node><node id="-24" lat="30.367" lon="-97.762184" changeset="false"><tag k="addr:street" v="Tablerock Drive"/><tag k="addr:housenumber" v="4106"/><tag k="addr:postcode" v="78731"/></node><node id="-25" lat="30.3671" lon="-97.761526" changeset="false"><tag k="addr:street" v="Paint Rock Drive"/><tag k="addr:housenumber" v="4105"/><tag k="addr:postcode" v="78731"/></node><node id="-26" lat="30.367102" lon="-97.762442" changeset="false"><tag k="addr:street" v="Tablerock Drive"/><tag k="addr:housenumber" v="4108"/><tag k="addr:postcode" v="78731"/></node><node id="-27" lat="30.367218" lon="-97.760964" changeset="false"><tag k="addr:street" v="Paint Rock Drive"/><tag k="addr:housenumber" v="4102"/><tag k="addr:postcode" v="78731"/></node><node id="-28" lat="30.36721" lon="-97.761778" changeset="false"><tag k="addr:street" v="Paint Rock Drive"/><tag k="addr:housenumber" v="4107"/><tag k="addr:postcode" v="78731"/></node><node id="-29" lat="30.367162" lon="-97.760515" changeset="false"><tag k="addr:street" v="Mesa Drive"/><tag k="addr:housenumber" v="7710"/><tag k="addr:postcode" v="78731"/></node><node id="-30" lat="30.367213" lon="-97.762633" changeset="false"><tag k="addr:street" v="Tablerock Drive"/><tag k="addr:housenumber" v="4110"/><tag k="addr:postcode" v="78731"/></node><node id="-31" lat="30.367315" lon="-97.761997" changeset="false"><tag k="addr:street" v="Paint Rock Drive"/><tag k="addr:housenumber" v="4109"/><tag k="addr:postcode" v="78731"/></node><node id="-32" lat="30.367372" lon="-97.760297" changeset="false"><tag k="addr:street" v="Mesa Drive"/><tag k="addr:housenumber" v="7712"/><tag k="addr:postcode" v="78731"/></node><node id="-33" lat="30.365786" lon="-97.762394" changeset="false"><tag k="addr:street" v="Mesa Drive"/><tag k="addr:housenumber" v="7602"/><tag k="addr:postcode" v="78731"/></node><node id="-34" lat="30.366037" lon="-97.762839" changeset="false"><tag k="addr:street" v="Rustling Cove"/><tag k="addr:housenumber" v="7603"/><tag k="addr:postcode" v="78731"/></node><node id="-35" lat="30.365963" lon="-97.762162" changeset="false"><tag k="addr:street" v="Mesa Drive"/><tag k="addr:housenumber" v="7604"/><tag k="addr:postcode" v="78731"/></node><node id="-36" lat="30.365617" lon="-97.762725" changeset="false"><tag k="addr:street" v="Rustling Road"/><tag k="addr:housenumber" v="7601"/><tag k="addr:postcode" v="78731"/></node><node id="-37" lat="30.366174" lon="-97.761843" changeset="false"><tag k="addr:street" v="Mesa Drive"/><tag k="addr:housenumber" v="7606"/><tag k="addr:postcode" v="78731"/></node><node id="-38" lat="30.366535" lon="-97.762285" changeset="false"><tag k="addr:street" v="Tablerock Drive"/><tag k="addr:housenumber" v="4105"/><tag k="addr:postcode" v="78731"/></node><node id="-39" lat="30.36648" lon="-97.761443" changeset="false"><tag k="addr:street" v="Tablerock Drive"/><tag k="addr:housenumber" v="4100"/><tag k="addr:postcode" v="78731"/></node><node id="-40" lat="30.366662" lon="-97.761073" changeset="false"><tag k="addr:street" v="Paint Rock Drive"/><tag k="addr:housenumber" v="4101"/><tag k="addr:postcode" v="78731"/></node><node id="-41" lat="30.366373" lon="-97.762044" changeset="false"><tag k="addr:street" v="Tablerock Drive"/><tag k="addr:housenumber" v="4103"/><tag k="addr:postcode" v="78731"/></node><node id="-42" lat="30.366283" lon="-97.762755" changeset="false"><tag k="addr:street" v="Rustling Cove"/><tag k="addr:housenumber" v="7605"/><tag k="addr:postcode" v="78731"/></node><node id="-43" lat="30.366656" lon="-97.761619" changeset="false"><tag k="addr:street" v="Tablerock Drive"/><tag k="addr:housenumber" v="4102"/><tag k="addr:postcode" v="78731"/></node><node id="-44" lat="30.366815" lon="-97.762819" changeset="false"><tag k="addr:street" v="Tablerock Drive"/><tag k="addr:housenumber" v="4109"/><tag k="addr:postcode" v="78731"/></node><node id="-45" lat="30.366706" lon="-97.762576" changeset="false"><tag k="addr:street" v="Tablerock Drive"/><tag k="addr:housenumber" v="4107"/><tag k="addr:postcode" v="78731"/></node><node id="-46" lat="30.368478" lon="-97.764432" changeset="false"><tag k="addr:street" v="Endcliffe Drive"/><tag k="addr:housenumber" v="4209"/><tag k="addr:postcode" v="78731"/></node><node id="-47" lat="30.36849" lon="-97.763378" changeset="false"><tag k="addr:street" v="Rustling Road"/><tag k="addr:housenumber" v="7706"/><tag k="addr:postcode" v="78731"/></node><node id="-48" lat="30.368671" lon="-97.763757" changeset="false"><tag k="addr:street" v="Endcliffe Drive"/><tag k="addr:housenumber" v="4203"/><tag k="addr:postcode" v="78731"/></node><node id="-49" lat="30.368922" lon="-97.763525" changeset="false"><tag k="addr:street" v="Endcliffe Drive"/><tag k="addr:housenumber" v="4201"/><tag k="addr:postcode" v="78731"/></node><node id="-50" lat="30.368817" lon="-97.763195" changeset="false"><tag k="addr:street" v="Burney Drive"/><tag k="addr:housenumber" v="4201"/><tag k="addr:postcode" v="78731"/></node><node id="-51" lat="30.368985" lon="-97.764469" changeset="false"><tag k="addr:street" v="Endcliffe Drive"/><tag k="addr:housenumber" v="4210"/><tag k="addr:postcode" v="78731"/></node><node id="-52" lat="30.36885" lon="-97.764193" changeset="false"><tag k="addr:street" v="Endcliffe Drive"/><tag k="addr:housenumber" v="4208"/><tag k="addr:postcode" v="78731"/></node><node id="-53" lat="30.369084" lon="-97.764664" changeset="false"><tag k="addr:street" v="Endcliffe Drive"/><tag k="addr:housenumber" v="4214"/><tag k="addr:postcode" v="78731"/></node><node id="-54" lat="30.369204" lon="-97.764003" changeset="false"><tag k="addr:street" v="Burney Drive"/><tag k="addr:housenumber" v="4207"/><tag k="addr:postcode" v="78731"/></node><node id="-55" lat="30.369286" lon="-97.764236" changeset="false"><tag k="addr:street" v="Burney Drive"/><tag k="addr:housenumber" v="4209"/><tag k="addr:postcode" v="78731"/></node><node id="-56" lat="30.369418" lon="-97.764508" changeset="false"><tag k="addr:street" v="Burney Drive"/><tag k="addr:housenumber" v="4211"/><tag k="addr:postcode" v="78731"/></node><node id="-57" lat="30.367553" lon="-97.763425" changeset="false"><tag k="addr:street" v="Rustling Road"/><tag k="addr:housenumber" v="7701"/><tag k="addr:postcode" v="78731"/></node><node id="-58" lat="30.367585" lon="-97.763881" changeset="false"><tag k="addr:street" v="Rustling Road"/><tag k="addr:housenumber" v="7618"/><tag k="addr:postcode" v="78731"/></node><node id="-59" lat="30.367549" lon="-97.764431" changeset="false"><tag k="addr:street" v="Tallowood Drive"/><tag k="addr:housenumber" v="4202"/><tag k="addr:postcode" v="78731"/></node><node id="-60" lat="30.367821" lon="-97.764303" changeset="false"><tag k="addr:street" v="Tallowood Drive"/><tag k="addr:housenumber" v="4204"/><tag k="addr:postcode" v="78731"/></node><node id="-61" lat="30.367842" lon="-97.763781" changeset="false"><tag k="addr:street" v="Rustling Road"/><tag k="addr:housenumber" v="7700"/><tag k="addr:postcode" v="78731"/></node><node id="-62" lat="30.367994" lon="-97.76441" changeset="false"><tag k="addr:street" v="Tallowood Drive"/><tag k="addr:housenumber" v="4206"/><tag k="addr:postcode" v="78731"/></node><node id="-63" lat="30.367724" lon="-97.762872" changeset="false"><tag k="addr:street" v="Paint Rock Drive"/><tag k="addr:housenumber" v="4117"/><tag k="addr:postcode" v="78731"/></node><node id="-64" lat="30.367864" lon="-97.763116" changeset="false"><tag k="addr:street" v="Rustling Road"/><tag k="addr:housenumber" v="7703"/><tag k="addr:postcode" v="78731"/></node><node id="-65" lat="30.368039" lon="-97.763684" changeset="false"><tag k="addr:street" v="Rustling Road"/><tag k="addr:housenumber" v="7702"/><tag k="addr:postcode" v="78731"/></node><node id="-66" lat="30.368196" lon="-97.764616" changeset="false"><tag k="addr:street" v="Tallowood Drive"/><tag k="addr:housenumber" v="4208"/><tag k="addr:postcode" v="78731"/></node><node id="-67" lat="30.368242" lon="-97.762912" changeset="false"><tag k="addr:street" v="Rustling Road"/><tag k="addr:housenumber" v="7705"/><tag k="addr:postcode" v="78731"/></node><node id="-68" lat="30.368309" lon="-97.763477" changeset="false"><tag k="addr:street" v="Rustling Road"/><tag k="addr:housenumber" v="7704"/><tag k="addr:postcode" v="78731"/></node><node id="-69" lat="30.368375" lon="-97.76418" changeset="false"><tag k="addr:street" v="Endcliffe Drive"/><tag k="addr:housenumber" v="4207"/><tag k="addr:postcode" v="78731"/></node><node id="-70" lat="30.368438" lon="-97.763909" changeset="false"><tag k="addr:street" v="Endcliffe Drive"/><tag k="addr:housenumber" v="4205"/><tag k="addr:postcode" v="78731"/></node><node id="-71" lat="30.366676" lon="-97.763952" changeset="false"><tag k="addr:street" v="Rustling Road"/><tag k="addr:housenumber" v="7611"/><tag k="addr:postcode" v="78731"/></node><node id="-72" lat="30.366725" lon="-97.764507" changeset="false"><tag k="addr:street" v="Rustling Road"/><tag k="addr:housenumber" v="7612"/><tag k="addr:postcode" v="78731"/></node><node id="-73" lat="30.366902" lon="-97.763832" changeset="false"><tag k="addr:street" v="Rustling Road"/><tag k="addr:housenumber" v="7613"/><tag k="addr:postcode" v="78731"/></node><node id="-74" lat="30.367146" lon="-97.764248" changeset="false"><tag k="addr:street" v="Rustling Road"/><tag k="addr:housenumber" v="7614"/><tag k="addr:postcode" v="78731"/></node><node id="-75" lat="30.366933" lon="-97.763086" changeset="false"><tag k="addr:street" v="Tablerock Drive"/><tag k="addr:housenumber" v="4111"/><tag k="addr:postcode" v="78731"/></node><node id="-76" lat="30.367032" lon="-97.763328" changeset="false"><tag k="addr:street" v="Tablerock Drive"/><tag k="addr:housenumber" v="4113"/><tag k="addr:postcode" v="78731"/></node><node id="-77" lat="30.367199" lon="-97.763582" changeset="false"><tag k="addr:street" v="Tablerock Drive"/><tag k="addr:housenumber" v="4115"/><tag k="addr:postcode" v="78731"/></node><node id="-78" lat="30.367338" lon="-97.762819" changeset="false"><tag k="addr:street" v="Tablerock Drive"/><tag k="addr:housenumber" v="4112"/><tag k="addr:postcode" v="78731"/></node><node id="-79" lat="30.367396" lon="-97.764064" changeset="false"><tag k="addr:street" v="Rustling Road"/><tag k="addr:housenumber" v="7616"/><tag k="addr:postcode" v="78731"/></node><node id="-80" lat="30.367373" lon="-97.763054" changeset="false"><tag k="addr:street" v="Tablerock Drive"/><tag k="addr:housenumber" v="4114"/><tag k="addr:postcode" v="78731"/></node><node id="-81" lat="30.367313" lon="-97.76459" changeset="false"><tag k="addr:street" v="Bamford Drive"/><tag k="addr:housenumber" v="4202"/><tag k="addr:postcode" v="78731"/></node><node id="-82" lat="30.365473" lon="-97.764467" changeset="false"><tag k="addr:street" v="Greystone Drive"/><tag k="addr:housenumber" v="4108"/><tag k="addr:postcode" v="78731"/></node><node id="-83" lat="30.365735" lon="-97.763935" changeset="false"><tag k="addr:street" v="Rustling Road"/><tag k="addr:housenumber" v="7606"/><tag k="addr:postcode" v="78731"/></node><node id="-84" lat="30.365602" lon="-97.763746" changeset="false"><tag k="addr:street" v="Rustling Road"/><tag k="addr:housenumber" v="7604"/><tag k="addr:postcode" v="78731"/></node><node id="-85" lat="30.365732" lon="-97.764216" changeset="false"><tag k="addr:street" v="Rustling Road"/><tag k="addr:housenumber" v="7608"/><tag k="addr:postcode" v="78731"/></node><node id="-86" lat="30.365853" lon="-97.762997" changeset="false"><tag k="addr:street" v="Rustling Road"/><tag k="addr:housenumber" v="7603"/><tag k="addr:postcode" v="78731"/></node><node id="-87" lat="30.366612" lon="-97.763361" changeset="false"><tag k="addr:street" v="Rustling Cove"/><tag k="addr:housenumber" v="7604"/><tag k="addr:postcode" v="78731"/></node><node id="-88" lat="30.365881" lon="-97.764506" changeset="false"><tag k="addr:street" v="Rustling Circle"/><tag k="addr:housenumber" v="7603"/><tag k="addr:postcode" v="78731"/></node><node id="-89" lat="30.366528" lon="-97.763018" changeset="false"><tag k="addr:street" v="Rustling Cove"/><tag k="addr:housenumber" v="7606"/><tag k="addr:postcode" v="78731"/></node><node id="-90" lat="30.366423" lon="-97.764087" changeset="false"><tag k="addr:street" v="Rustling Road"/><tag k="addr:housenumber" v="7609"/><tag k="addr:postcode" v="78731"/></node><node id="-91" lat="30.366247" lon="-97.763824" changeset="false"><tag k="addr:street" v="Rustling Road"/><tag k="addr:housenumber" v="7607"/><tag k="addr:postcode" v="78731"/></node><node id="-92" lat="30.366047" lon="-97.763599" changeset="false"><tag k="addr:street" v="Rustling Cove"/><tag k="addr:housenumber" v="7600"/><tag k="addr:postcode" v="78731"/></node><node id="-93" lat="30.366533" lon="-97.764635" changeset="false"><tag k="addr:street" v="Rustling Road"/><tag k="addr:housenumber" v="7610"/><tag k="addr:postcode" v="78731"/></node><node id="-94" lat="30.36639" lon="-97.763548" changeset="false"><tag k="addr:street" v="Rustling Cove"/><tag k="addr:housenumber" v="7602"/><tag k="addr:postcode" v="78731"/></node><node id="-95" lat="30.368946" lon="-97.765394" changeset="false"><tag k="addr:street" v="Endcliffe Drive"/><tag k="addr:housenumber" v="4217"/><tag k="addr:postcode" v="78731"/></node><node id="-96" lat="30.369075" lon="-97.765642" changeset="false"><tag k="addr:street" v="Endcliffe Drive"/><tag k="addr:housenumber" v="4301"/><tag k="addr:postcode" v="78731"/></node><node id="-97" lat="30.369194" lon="-97.765853" changeset="false"><tag k="addr:street" v="Endcliffe Drive"/><tag k="addr:housenumber" v="4303"/><tag k="addr:postcode" v="78731"/></node><node id="-98" lat="30.369237" lon="-97.764946" changeset="false"><tag k="addr:street" v="Endcliffe Drive"/><tag k="addr:housenumber" v="4212"/><tag k="addr:postcode" v="78731"/></node><node id="-99" lat="30.369335" lon="-97.76613" changeset="false"><tag k="addr:street" v="Endcliffe Drive"/><tag k="addr:housenumber" v="4305"/><tag k="addr:postcode" v="78731"/></node><node id="-100" lat="30.369362" lon="-97.76515" changeset="false"><tag k="addr:street" v="Endcliffe Drive"/><tag k="addr:housenumber" v="4216"/><tag k="addr:postcode" v="78731"/></node><node id="-101" lat="30.369465" lon="-97.765359" changeset="false"><tag k="addr:street" v="Endcliffe Drive"/><tag k="addr:housenumber" v="4300"/><tag k="addr:postcode" v="78731"/></node><node id="-102" lat="30.36956" lon="-97.765577" changeset="false"><tag k="addr:street" v="Endcliffe Drive"/><tag k="addr:housenumber" v="4302"/><tag k="addr:postcode" v="78731"/></node><node id="-103" lat="30.369524" lon="-97.764718" changeset="false"><tag k="addr:street" v="Burney Drive"/><tag k="addr:housenumber" v="4213"/><tag k="addr:postcode" v="78731"/></node><node id="-104" lat="30.369701" lon="-97.765883" changeset="false"><tag k="addr:street" v="Endcliffe Drive"/><tag k="addr:housenumber" v="4304"/><tag k="addr:postcode" v="78731"/></node><node id="-105" lat="30.369655" lon="-97.764956" changeset="false"><tag k="addr:street" v="Burney Drive"/><tag k="addr:housenumber" v="4215"/><tag k="addr:postcode" v="78731"/></node><node id="-106" lat="30.369742" lon="-97.765169" changeset="false"><tag k="addr:street" v="Burney Drive"/><tag k="addr:housenumber" v="4301"/><tag k="addr:postcode" v="78731"/></node><node id="-107" lat="30.369879" lon="-97.765403" changeset="false"><tag k="addr:street" v="Burney Drive"/><tag k="addr:housenumber" v="4303"/><tag k="addr:postcode" v="78731"/></node><node id="-108" lat="30.369972" lon="-97.765657" changeset="false"><tag k="addr:street" v="Burney Drive"/><tag k="addr:housenumber" v="4305"/><tag k="addr:postcode" v="78731"/></node><node id="-109" lat="30.367934" lon="-97.765143" changeset="false"><tag k="addr:street" v="Tallowood Drive"/><tag k="addr:housenumber" v="4209"/><tag k="addr:postcode" v="78731"/></node><node id="-110" lat="30.367972" lon="-97.766039" changeset="false"><tag k="addr:street" v="Bamford Drive"/><tag k="addr:housenumber" v="4214"/><tag k="addr:postcode" v="78731"/></node><node id="-111" lat="30.368052" lon="-97.765388" changeset="false"><tag k="addr:street" v="Tallowood Drive"/><tag k="addr:housenumber" v="4211"/><tag k="addr:postcode" v="78731"/></node><node id="-112" lat="30.368178" lon="-97.765615" changeset="false"><tag k="addr:street" v="Tallowood Drive"/><tag k="addr:housenumber" v="4213"/><tag k="addr:postcode" v="78731"/></node><node id="-113" lat="30.368262" lon="-97.765863" changeset="false"><tag k="addr:street" v="Tallowood Drive"/><tag k="addr:housenumber" v="4215"/><tag k="addr:postcode" v="78731"/></node><node id="-114" lat="30.36839" lon="-97.765114" changeset="false"><tag k="addr:street" v="Tallowood Drive"/><tag k="addr:housenumber" v="4212"/><tag k="addr:postcode" v="78731"/></node><node id="-115" lat="30.368659" lon="-97.765638" changeset="false"><tag k="addr:street" v="Tallowood Drive"/><tag k="addr:housenumber" v="4216"/><tag k="addr:postcode" v="78731"/></node><node id="-116" lat="30.368508" lon="-97.76536" changeset="false"><tag k="addr:street" v="Tallowood Drive"/><tag k="addr:housenumber" v="4214"/><tag k="addr:postcode" v="78731"/></node><node id="-117" lat="30.368267" lon="-97.764843" changeset="false"><tag k="addr:street" v="Tallowood Drive"/><tag k="addr:housenumber" v="4210"/><tag k="addr:postcode" v="78731"/></node><node id="-118" lat="30.368624" lon="-97.764681" changeset="false"><tag k="addr:street" v="Endcliffe Drive"/><tag k="addr:housenumber" v="4211"/><tag k="addr:postcode" v="78731"/></node><node id="-119" lat="30.3687" lon="-97.76492" changeset="false"><tag k="addr:street" v="Endcliffe Drive"/><tag k="addr:housenumber" v="4213"/><tag k="addr:postcode" v="78731"/></node><node id="-120" lat="30.36881" lon="-97.765878" changeset="false"><tag k="addr:street" v="Tallowood Drive"/><tag k="addr:housenumber" v="4300"/><tag k="addr:postcode" v="78731"/></node><node id="-121" lat="30.368848" lon="-97.765166" changeset="false"><tag k="addr:street" v="Endcliffe Drive"/><tag k="addr:housenumber" v="4215"/><tag k="addr:postcode" v="78731"/></node><node id="-122" lat="30.366861" lon="-97.765667" changeset="false"><tag k="addr:street" v="Lostridge Drive"/><tag k="addr:housenumber" v="4212"/><tag k="addr:postcode" v="78731"/></node><node id="-123" lat="30.366991" lon="-97.765026" changeset="false"><tag k="addr:street" v="Bamford Drive"/><tag k="addr:housenumber" v="4205"/><tag k="addr:postcode" v="78731"/></node><node id="-124" lat="30.366942" lon="-97.765859" changeset="false"><tag k="addr:street" v="Lostridge Drive"/><tag k="addr:housenumber" v="4214"/><tag k="addr:postcode" v="78731"/></node><node id="-125" lat="30.367065" lon="-97.766081" changeset="false"><tag k="addr:street" v="Lostridge Drive"/><tag k="addr:housenumber" v="4216"/><tag k="addr:postcode" v="78731"/></node><node id="-126" lat="30.366901" lon="-97.764765" changeset="false"><tag k="addr:street" v="Bamford Drive"/><tag k="addr:housenumber" v="4203"/><tag k="addr:postcode" v="78731"/></node><node id="-127" lat="30.367123" lon="-97.765226" changeset="false"><tag k="addr:street" v="Bamford Drive"/><tag k="addr:housenumber" v="4207"/><tag k="addr:postcode" v="78731"/></node><node id="-128" lat="30.367644" lon="-97.765329" changeset="false"><tag k="addr:street" v="Bamford Drive"/><tag k="addr:housenumber" v="4208"/><tag k="addr:postcode" v="78731"/></node><node id="-129" lat="30.3672" lon="-97.765442" changeset="false"><tag k="addr:street" v="Bamford Drive"/><tag k="addr:housenumber" v="4209"/><tag k="addr:postcode" v="78731"/></node><node id="-130" lat="30.367521" lon="-97.765079" changeset="false"><tag k="addr:street" v="Bamford Drive"/><tag k="addr:housenumber" v="4206"/><tag k="addr:postcode" v="78731"/></node><node id="-131" lat="30.367252" lon="-97.765732" changeset="false"><tag k="addr:street" v="Bamford Drive"/><tag k="addr:housenumber" v="4211"/><tag k="addr:postcode" v="78731"/></node><node id="-132" lat="30.367761" lon="-97.76555" changeset="false"><tag k="addr:street" v="Bamford Drive"/><tag k="addr:housenumber" v="4210"/><tag k="addr:postcode" v="78731"/></node><node id="-133" lat="30.367811" lon="-97.764882" changeset="false"><tag k="addr:street" v="Tallowood Drive"/><tag k="addr:housenumber" v="4207"/><tag k="addr:postcode" v="78731"/></node><node id="-134" lat="30.367876" lon="-97.765814" changeset="false"><tag k="addr:street" v="Bamford Drive"/><tag k="addr:housenumber" v="4212"/><tag k="addr:postcode" v="78731"/></node><node id="-135" lat="30.365611" lon="-97.765996" changeset="false"><tag k="addr:street" v="Greystone Drive"/><tag k="addr:housenumber" v="4205"/><tag k="addr:postcode" v="78731"/></node><node id="-136" lat="30.365558" lon="-97.764731" changeset="false"><tag k="addr:street" v="Greystone Drive"/><tag k="addr:housenumber" v="4110"/><tag k="addr:postcode" v="78731"/></node><node id="-137" lat="30.365911" lon="-97.76548" changeset="false"><tag k="addr:street" v="Greystone Drive"/><tag k="addr:housenumber" v="4202"/><tag k="addr:postcode" v="78731"/></node><node id="-138" lat="30.366099" lon="-97.765898" changeset="false"><tag k="addr:street" v="Greystone Drive"/><tag k="addr:housenumber" v="4206"/><tag k="addr:postcode" v="78731"/></node><node id="-139" lat="30.365748" lon="-97.765153" changeset="false"><tag k="addr:street" v="Greystone Drive"/><tag k="addr:housenumber" v="4200"/><tag k="addr:postcode" v="78731"/></node><node id="-140" lat="30.365523" lon="-97.765742" changeset="false"><tag k="addr:street" v="Greystone Drive"/><tag k="addr:housenumber" v="4203"/><tag k="addr:postcode" v="78731"/></node><node id="-141" lat="30.36628" lon="-97.76482" changeset="false"><tag k="addr:street" v="Rustling Circle"/><tag k="addr:housenumber" v="7600"/><tag k="addr:postcode" v="78731"/></node><node id="-142" lat="30.36568" lon="-97.764927" changeset="false"><tag k="addr:street" v="Greystone Drive"/><tag k="addr:housenumber" v="4112"/><tag k="addr:postcode" v="78731"/></node><node id="-143" lat="30.366161" lon="-97.765302" changeset="false"><tag k="addr:street" v="Lostridge Drive"/><tag k="addr:housenumber" v="4204"/><tag k="addr:postcode" v="78731"/></node><node id="-144" lat="30.366234" lon="-97.766204" changeset="false"><tag k="addr:street" v="Greystone Drive"/><tag k="addr:housenumber" v="4208"/><tag k="addr:postcode" v="78731"/></node><node id="-145" lat="30.366581" lon="-97.765973" changeset="false"><tag k="addr:street" v="Lostridge Drive"/><tag k="addr:housenumber" v="4213"/><tag k="addr:postcode" v="78731"/></node><node id="-146" lat="30.366356" lon="-97.765157" changeset="false"><tag k="addr:street" v="Lostridge Drive"/><tag k="addr:housenumber" v="4206"/><tag k="addr:postcode" v="78731"/></node><node id="-147" lat="30.366618" lon="-97.765182" changeset="false"><tag k="addr:street" v="Lostridge Drive"/><tag k="addr:housenumber" v="4208"/><tag k="addr:postcode" v="78731"/></node><node id="-148" lat="30.366808" lon="-97.765344" changeset="false"><tag k="addr:street" v="Lostridge Drive"/><tag k="addr:housenumber" v="4210"/><tag k="addr:postcode" v="78731"/></node><node id="-149" lat="30.367507" lon="-97.76703" changeset="false"><tag k="addr:street" v="Lostridge Drive"/><tag k="addr:housenumber" v="4300"/><tag k="addr:postcode" v="78731"/></node><node id="-150" lat="30.36766" lon="-97.767236" changeset="false"><tag k="addr:street" v="Lostridge Drive"/><tag k="addr:housenumber" v="4302"/><tag k="addr:postcode" v="78731"/></node><node id="-151" lat="30.367662" lon="-97.766399" changeset="false"><tag k="addr:street" v="Bamford Drive"/><tag k="addr:housenumber" v="4301"/><tag k="addr:postcode" v="78731"/></node><node id="-152" lat="30.367543" lon="-97.766179" changeset="false"><tag k="addr:street" v="Bamford Drive"/><tag k="addr:housenumber" v="4215"/><tag k="addr:postcode" v="78731"/></node><node id="-153" lat="30.367758" lon="-97.766652" changeset="false"><tag k="addr:street" v="Bamford Drive"/><tag k="addr:housenumber" v="4303"/><tag k="addr:postcode" v="78731"/></node><node id="-154" lat="30.368374" lon="-97.766786" changeset="false"><tag k="addr:street" v="Bamford Drive"/><tag k="addr:housenumber" v="4304"/><tag k="addr:postcode" v="78731"/></node><node id="-155" lat="30.367824" lon="-97.767439" changeset="false"><tag k="addr:street" v="Lostridge Drive"/><tag k="addr:housenumber" v="4304"/><tag k="addr:postcode" v="78731"/></node><node id="-156" lat="30.367876" lon="-97.76689" changeset="false"><tag k="addr:street" v="Bamford Drive"/><tag k="addr:housenumber" v="4305"/><tag k="addr:postcode" v="78731"/></node><node id="-157" lat="30.368207" lon="-97.766543" changeset="false"><tag k="addr:street" v="Bamford Drive"/><tag k="addr:housenumber" v="4302"/><tag k="addr:postcode" v="78731"/></node><node id="-158" lat="30.368076" lon="-97.766299" changeset="false"><tag k="addr:street" v="Bamford Drive"/><tag k="addr:housenumber" v="4300"/><tag k="addr:postcode" v="78731"/></node><node id="-159" lat="30.368511" lon="-97.766347" changeset="false"><tag k="addr:street" v="Tallowood Drive"/><tag k="addr:housenumber" v="4303"/><tag k="addr:postcode" v="78731"/></node><node id="-160" lat="30.368072" lon="-97.767185" changeset="false"><tag k="addr:street" v="Bamford Drive"/><tag k="addr:housenumber" v="4307"/><tag k="addr:postcode" v="78731"/></node><node id="-161" lat="30.368643" lon="-97.766609" changeset="false"><tag k="addr:street" v="Tallowood Drive"/><tag k="addr:housenumber" v="4305"/><tag k="addr:postcode" v="78731"/></node><node id="-162" lat="30.368372" lon="-97.766102" changeset="false"><tag k="addr:street" v="Tallowood Drive"/><tag k="addr:housenumber" v="4301"/><tag k="addr:postcode" v="78731"/></node><node id="-163" lat="30.36903" lon="-97.76631" changeset="false"><tag k="addr:street" v="Tallowood Drive"/><tag k="addr:housenumber" v="4304"/><tag k="addr:postcode" v="78731"/></node><node id="-164" lat="30.366713" lon="-97.767179" changeset="false"><tag k="addr:street" v="Greystone Drive"/><tag k="addr:housenumber" v="4216"/><tag k="addr:postcode" v="78731"/></node><node id="-165" lat="30.366803" lon="-97.766478" changeset="false"><tag k="addr:street" v="Lostridge Drive"/><tag k="addr:housenumber" v="4217"/><tag k="addr:postcode" v="78731"/></node><node id="-166" lat="30.36688" lon="-97.767421" changeset="false"><tag k="addr:street" v="Greystone Drive"/><tag k="addr:housenumber" v="4300"/><tag k="addr:postcode" v="78731"/></node><node id="-167" lat="30.366806" lon="-97.76838" changeset="false"><tag k="addr:street" v="West Rim Drive"/><tag k="addr:housenumber" v="7405"/><tag k="addr:postcode" v="78731"/></node><node id="-168" lat="30.367011" lon="-97.767637" changeset="false"><tag k="addr:street" v="Greystone Drive"/><tag k="addr:housenumber" v="4302"/><tag k="addr:postcode" v="78731"/></node><node id="-169" lat="30.367146" lon="-97.767272" changeset="false"><tag k="addr:street" v="Lostridge Drive"/><tag k="addr:housenumber" v="4301"/><tag k="addr:postcode" v="78731"/></node><node id="-170" lat="30.366938" lon="-97.766748" changeset="false"><tag k="addr:street" v="Lostridge Drive"/><tag k="addr:housenumber" v="4219"/><tag k="addr:postcode" v="78731"/></node><node id="-171" lat="30.367325" lon="-97.767564" changeset="false"><tag k="addr:street" v="Lostridge Drive"/><tag k="addr:housenumber" v="4303"/><tag k="addr:postcode" v="78731"/></node><node id="-172" lat="30.367319" lon="-97.766538" changeset="false"><tag k="addr:street" v="Lostridge Drive"/><tag k="addr:housenumber" v="4220"/><tag k="addr:postcode" v="78731"/></node><node id="-173" lat="30.367101" lon="-97.767888" changeset="false"><tag k="addr:street" v="Greystone Drive"/><tag k="addr:housenumber" v="4304"/><tag k="addr:postcode" v="78731"/></node><node id="-174" lat="30.367193" lon="-97.766288" changeset="false"><tag k="addr:street" v="Lostridge Drive"/><tag k="addr:housenumber" v="4218"/><tag k="addr:postcode" v="78731"/></node><node id="-175" lat="30.367305" lon="-97.768055" changeset="false"><tag k="addr:street" v="West Rim Drive"/><tag k="addr:housenumber" v="7501"/><tag k="addr:postcode" v="78731"/></node><node id="-176" lat="30.367001" lon="-97.767016" changeset="false"><tag k="addr:street" v="Lostridge Drive"/><tag k="addr:housenumber" v="4221"/><tag k="addr:postcode" v="78731"/></node><node id="-177" lat="30.367372" lon="-97.766739" changeset="false"><tag k="addr:street" v="Lostridge Drive"/><tag k="addr:housenumber" v="4222"/><tag k="addr:postcode" v="78731"/></node><node id="-178" lat="30.367529" lon="-97.767838" changeset="false"><tag k="addr:street" v="Lostridge Drive"/><tag k="addr:housenumber" v="4305"/><tag k="addr:postcode" v="78731"/></node><node id="-179" lat="30.366037" lon="-97.767902" changeset="false"><tag k="addr:street" v="Deepwoods Drive"/><tag k="addr:housenumber" v="4300"/><tag k="addr:postcode" v="78731"/></node><node id="-180" lat="30.366058" lon="-97.766892" changeset="false"><tag k="addr:street" v="Greystone Drive"/><tag k="addr:housenumber" v="4213"/><tag k="addr:postcode" v="78731"/></node><node id="-181" lat="30.366067" lon="-97.768162" changeset="false"><tag k="addr:street" v="Deepwoods Drive"/><tag k="addr:housenumber" v="4302"/><tag k="addr:postcode" v="78731"/></node><node id="-182" lat="30.366163" lon="-97.768432" changeset="false"><tag k="addr:street" v="Deepwoods Drive"/><tag k="addr:housenumber" v="4304"/><tag k="addr:postcode" v="78731"/></node><node id="-183" lat="30.366137" lon="-97.767132" changeset="false"><tag k="addr:street" v="Greystone Drive"/><tag k="addr:housenumber" v="4215"/><tag k="addr:postcode" v="78731"/></node><node id="-184" lat="30.366253" lon="-97.768659" changeset="false"><tag k="addr:street" v="Deepwoods Drive"/><tag k="addr:housenumber" v="4306"/><tag k="addr:postcode" v="78731"/></node><node id="-185" lat="30.366457" lon="-97.766645" changeset="false"><tag k="addr:street" v="Greystone Drive"/><tag k="addr:housenumber" v="4212"/><tag k="addr:postcode" v="78731"/></node><node id="-186" lat="30.366441" lon="-97.767624" changeset="false"><tag k="addr:street" v="Greystone Drive"/><tag k="addr:housenumber" v="4301"/><tag k="addr:postcode" v="78731"/></node><node id="-187" lat="30.366573" lon="-97.767874" changeset="false"><tag k="addr:street" v="Greystone Drive"/><tag k="addr:housenumber" v="4303"/><tag k="addr:postcode" v="78731"/></node><node id="-188" lat="30.366384" lon="-97.766419" changeset="false"><tag k="addr:street" v="Greystone Drive"/><tag k="addr:housenumber" v="4210"/><tag k="addr:postcode" v="78731"/></node><node id="-189" lat="30.366321" lon="-97.767379" changeset="false"><tag k="addr:street" v="Greystone Drive"/><tag k="addr:housenumber" v="4217"/><tag k="addr:postcode" v="78731"/></node><node id="-190" lat="30.366534" lon="-97.76854" changeset="false"><tag k="addr:street" v="West Rim Drive"/><tag k="addr:housenumber" v="7403"/><tag k="addr:postcode" v="78731"/></node><node id="-191" lat="30.366594" lon="-97.766896" changeset="false"><tag k="addr:street" v="Greystone Drive"/><tag k="addr:housenumber" v="4214"/><tag k="addr:postcode" v="78731"/></node><node id="-192" lat="30.366689" lon="-97.766249" changeset="false"><tag k="addr:street" v="Lostridge Drive"/><tag k="addr:housenumber" v="4215"/><tag k="addr:postcode" v="78731"/></node><node id="-193" lat="30.36546" lon="-97.766541" changeset="false"><tag k="addr:street" v="Deepwoods Drive"/><tag k="addr:housenumber" v="4206"/><tag k="addr:postcode" v="78731"/></node><node id="-194" lat="30.365458" lon="-97.767861" changeset="false"><tag k="addr:street" v="Deepwoods Drive"/><tag k="addr:housenumber" v="4213"/><tag k="addr:postcode" v="78731"/></node><node id="-195" lat="30.365705" lon="-97.766978" changeset="false"><tag k="addr:street" v="Deepwoods Drive"/><tag k="addr:housenumber" v="4210"/><tag k="addr:postcode" v="78731"/></node><node id="-196" lat="30.365622" lon="-97.766805" changeset="false"><tag k="addr:street" v="Deepwoods Drive"/><tag k="addr:housenumber" v="4208"/><tag k="addr:postcode" v="78731"/></node><node id="-197" lat="30.365583" lon="-97.76804" changeset="false"><tag k="addr:street" v="Deepwoods Drive"/><tag k="addr:housenumber" v="4301"/><tag k="addr:postcode" v="78731"/></node><node id="-198" lat="30.365654" lon="-97.768303" changeset="false"><tag k="addr:street" v="Deepwoods Drive"/><tag k="addr:housenumber" v="4303"/><tag k="addr:postcode" v="78731"/></node><node id="-199" lat="30.365776" lon="-97.76887" changeset="false"><tag k="addr:street" v="West Rim Drive"/><tag k="addr:housenumber" v="7309"/><tag k="addr:postcode" v="78731"/></node><node id="-200" lat="30.365828" lon="-97.767202" changeset="false"><tag k="addr:street" v="Deepwoods Drive"/><tag k="addr:housenumber" v="4212"/><tag k="addr:postcode" v="78731"/></node><node id="-201" lat="30.365858" lon="-97.766387" changeset="false"><tag k="addr:street" v="Greystone Drive"/><tag k="addr:housenumber" v="4209"/><tag k="addr:postcode" v="78731"/></node><node id="-202" lat="30.365876" lon="-97.767444" changeset="false"><tag k="addr:street" v="Deepwoods Drive"/><tag k="addr:housenumber" v="4214"/><tag k="addr:postcode" v="78731"/></node><node id="-203" lat="30.365693" lon="-97.768567" changeset="false"><tag k="addr:street" v="Deepwoods Drive"/><tag k="addr:housenumber" v="4305"/><tag k="addr:postcode" v="78731"/></node><node id="-204" lat="30.365989" lon="-97.76663" changeset="false"><tag k="addr:street" v="Greystone Drive"/><tag k="addr:housenumber" v="4211"/><tag k="addr:postcode" v="78731"/></node><node id="-205" lat="30.365923" lon="-97.767708" changeset="false"><tag k="addr:street" v="Deepwoods Drive"/><tag k="addr:housenumber" v="4216"/><tag k="addr:postcode" v="78731"/></node><node id="-206" lat="30.364927" lon="-97.764247" changeset="false"><tag k="addr:street" v="Greystone Drive"/><tag k="addr:housenumber" v="4105"/><tag k="addr:postcode" v="78731"/></node><node id="-207" lat="30.365022" lon="-97.764489" changeset="false"><tag k="addr:street" v="Greystone Drive"/><tag k="addr:housenumber" v="4107"/><tag k="addr:postcode" v="78731"/></node><node id="-208" lat="30.365281" lon="-97.763936" changeset="false"><tag k="addr:street" v="Greystone Drive"/><tag k="addr:housenumber" v="4104"/><tag k="addr:postcode" v="78731"/></node><node id="-209" lat="30.365199" lon="-97.763691" changeset="false"><tag k="addr:street" v="Greystone Drive"/><tag k="addr:housenumber" v="4102"/><tag k="addr:postcode" v="78731"/></node><node id="-210" lat="30.365364" lon="-97.765454" changeset="false"><tag k="addr:street" v="Greystone Drive"/><tag k="addr:housenumber" v="4201"/><tag k="addr:postcode" v="78731"/></node><node id="-211" lat="30.365101" lon="-97.764699" changeset="false"><tag k="addr:street" v="Greystone Drive"/><tag k="addr:housenumber" v="4109"/><tag k="addr:postcode" v="78731"/></node><node id="-212" lat="30.365193" lon="-97.765053" changeset="false"><tag k="addr:street" v="Greystone Drive"/><tag k="addr:housenumber" v="4111"/><tag k="addr:postcode" v="78731"/></node><node id="-213" lat="30.365106" lon="-97.765764" changeset="false"><tag k="addr:street" v="Waterline Road"/><tag k="addr:housenumber" v="7400"/><tag k="addr:postcode" v="78731"/></node><node id="-214" lat="30.36509" lon="-97.763453" changeset="false"><tag k="addr:street" v="Greystone Drive"/><tag k="addr:housenumber" v="4100"/><tag k="addr:postcode" v="78731"/></node><node id="-215" lat="30.365408" lon="-97.764236" changeset="false"><tag k="addr:street" v="Greystone Drive"/><tag k="addr:housenumber" v="4106"/><tag k="addr:postcode" v="78731"/></node><node id="-216" lat="30.365476" lon="-97.763376" changeset="false"><tag k="addr:street" v="Rustling Road"/><tag k="addr:housenumber" v="7602"/><tag k="addr:postcode" v="78731"/></node><node id="-217" lat="30.365298" lon="-97.763164" changeset="false"><tag k="addr:street" v="Mesa Drive"/><tag k="addr:housenumber" v="7502"/><tag k="addr:postcode" v="78731"/></node><node id="-218" lat="30.364293" lon="-97.764988" changeset="false"><tag k="addr:street" v="Deepwoods Drive"/><tag k="addr:housenumber" v="4107"/><tag k="addr:postcode" v="78731"/></node><node id="-219" lat="30.364222" lon="-97.764779" changeset="false"><tag k="addr:street" v="Deepwoods Drive"/><tag k="addr:housenumber" v="4105"/><tag k="addr:postcode" v="78731"/></node><node id="-220" lat="30.36435" lon="-97.765229" changeset="false"><tag k="addr:street" v="Deepwoods Drive"/><tag k="addr:housenumber" v="4109"/><tag k="addr:postcode" v="78731"/></node><node id="-221" lat="30.364354" lon="-97.765446" changeset="false"><tag k="addr:street" v="Deepwoods Drive"/><tag k="addr:housenumber" v="4111"/><tag k="addr:postcode" v="78731"/></node><node id="-222" lat="30.364404" lon="-97.764039" changeset="false"><tag k="addr:street" v="Mesa Drive"/><tag k="addr:housenumber" v="7400"/><tag k="addr:postcode" v="78731"/></node><node id="-223" lat="30.364551" lon="-97.764306" changeset="false"><tag k="addr:street" v="Deepwoods Drive"/><tag k="addr:housenumber" v="4102"/><tag k="addr:postcode" v="78731"/></node><node id="-224" lat="30.364484" lon="-97.765752" changeset="false"><tag k="addr:street" v="Waterline Road"/><tag k="addr:housenumber" v="7311"/><tag k="addr:postcode" v="78731"/></node><node id="-225" lat="30.364736" lon="-97.763776" changeset="false"><tag k="addr:street" v="Greystone Drive"/><tag k="addr:housenumber" v="4101"/><tag k="addr:postcode" v="78731"/></node><node id="-226" lat="30.364729" lon="-97.76481" changeset="false"><tag k="addr:street" v="Deepwoods Drive"/><tag k="addr:housenumber" v="4106"/><tag k="addr:postcode" v="78731"/></node><node id="-227" lat="30.364865" lon="-97.764058" changeset="false"><tag k="addr:street" v="Greystone Drive"/><tag k="addr:housenumber" v="4103"/><tag k="addr:postcode" v="78731"/></node><node id="-228" lat="30.364767" lon="-97.765074" changeset="false"><tag k="addr:street" v="Deepwoods Drive"/><tag k="addr:housenumber" v="4108"/><tag k="addr:postcode" v="78731"/></node><node id="-229" lat="30.364661" lon="-97.764575" changeset="false"><tag k="addr:street" v="Deepwoods Drive"/><tag k="addr:housenumber" v="4104"/><tag k="addr:postcode" v="78731"/></node><node id="-230" lat="30.364852" lon="-97.765312" changeset="false"><tag k="addr:street" v="Waterline Road"/><tag k="addr:housenumber" v="7401"/><tag k="addr:postcode" v="78731"/></node><node id="-231" lat="30.363256" lon="-97.765697" changeset="false"><tag k="addr:street" v="Honeycomb Rock Circle"/><tag k="addr:housenumber" v="4106"/><tag k="addr:postcode" v="78731"/></node><node id="-232" lat="30.363524" lon="-97.765217" changeset="false"><tag k="addr:street" v="Honeycomb Rock Circle"/><tag k="addr:housenumber" v="4114"/><tag k="addr:postcode" v="78731"/></node><node id="-233" lat="30.363457" lon="-97.765012" changeset="false"><tag k="addr:street" v="Honeycomb Rock Circle"/><tag k="addr:housenumber" v="4116"/><tag k="addr:postcode" v="78731"/></node><node id="-234" lat="30.363564" lon="-97.765549" changeset="false"><tag k="addr:street" v="Honeycomb Rock Circle"/><tag k="addr:housenumber" v="4110"/><tag k="addr:postcode" v="78731"/></node><node id="-235" lat="30.363708" lon="-97.764487" changeset="false"><tag k="addr:street" v="Honeycomb Rock Circle"/><tag k="addr:housenumber" v="4127"/><tag k="addr:postcode" v="78731"/></node><node id="-236" lat="30.363801" lon="-97.764745" changeset="false"><tag k="addr:street" v="Honeycomb Rock Circle"/><tag k="addr:housenumber" v="4125"/><tag k="addr:postcode" v="78731"/></node><node id="-237" lat="30.363883" lon="-97.764993" changeset="false"><tag k="addr:street" v="Honeycomb Rock Circle"/><tag k="addr:housenumber" v="4123"/><tag k="addr:postcode" v="78731"/></node><node id="-238" lat="30.363971" lon="-97.765266" changeset="false"><tag k="addr:street" v="Honeycomb Rock Circle"/><tag k="addr:housenumber" v="4121"/><tag k="addr:postcode" v="78731"/></node><node id="-239" lat="30.363938" lon="-97.765839" changeset="false"><tag k="addr:street" v="Honeycomb Rock Circle"/><tag k="addr:housenumber" v="4117"/><tag k="addr:postcode" v="78731"/></node><node id="-240" lat="30.363962" lon="-97.764292" changeset="false"><tag k="addr:street" v="Mesa Drive"/><tag k="addr:housenumber" v="7310"/><tag k="addr:postcode" v="78731"/></node><node id="-241" lat="30.364008" lon="-97.76559" changeset="false"><tag k="addr:street" v="Honeycomb Rock Circle"/><tag k="addr:housenumber" v="4119"/><tag k="addr:postcode" v="78731"/></node><node id="-242" lat="30.364106" lon="-97.764604" changeset="false"><tag k="addr:street" v="Deepwoods Drive"/><tag k="addr:housenumber" v="4103"/><tag k="addr:postcode" v="78731"/></node><node id="-243" lat="30.362528" lon="-97.765179" changeset="false"><tag k="addr:street" v="Honeycomb Rock Circle"/><tag k="addr:housenumber" v="4101"/><tag k="addr:postcode" v="78731"/></node><node id="-244" lat="30.362688" lon="-97.765457" changeset="false"><tag k="addr:street" v="Honeycomb Rock Circle"/><tag k="addr:housenumber" v="4103"/><tag k="addr:postcode" v="78731"/></node><node id="-245" lat="30.362276" lon="-97.765376" changeset="false"><tag k="addr:street" v="Cat Hollow Drive"/><tag k="addr:housenumber" v="4100"/><tag k="addr:postcode" v="78731"/></node><node id="-246" lat="30.362924" lon="-97.765882" changeset="false"><tag k="addr:street" v="Honeycomb Rock Circle"/><tag k="addr:housenumber" v="4107"/><tag k="addr:postcode" v="78731"/></node><node id="-247" lat="30.361543" lon="-97.765827" changeset="false"><tag k="addr:street" v="Mesa Drive"/><tag k="addr:housenumber" v="7200"/><tag k="addr:postcode" v="78731"/></node><node id="-248" lat="30.362484" lon="-97.765889" changeset="false"><tag k="addr:street" v="Cat Hollow Drive"/><tag k="addr:housenumber" v="4104"/><tag k="addr:postcode" v="78731"/></node><node id="-249" lat="30.36294" lon="-97.76503" changeset="false"><tag k="addr:street" v="Honeycomb Rock Circle"/><tag k="addr:housenumber" v="4100"/><tag k="addr:postcode" v="78731"/></node><node id="-250" lat="30.362827" lon="-97.765702" changeset="false"><tag k="addr:street" v="Honeycomb Rock Circle"/><tag k="addr:housenumber" v="4105"/><tag k="addr:postcode" v="78731"/></node><node id="-251" lat="30.362379" lon="-97.7657" changeset="false"><tag k="addr:street" v="Cat Hollow Drive"/><tag k="addr:housenumber" v="4102"/><tag k="addr:postcode" v="78731"/></node><node id="-252" lat="30.361814" lon="-97.765631" changeset="false"><tag k="addr:street" v="Mesa Drive"/><tag k="addr:housenumber" v="7204"/><tag k="addr:postcode" v="78731"/></node><node id="-253" lat="30.363054" lon="-97.76523" changeset="false"><tag k="addr:street" v="Honeycomb Rock Circle"/><tag k="addr:housenumber" v="4102"/><tag k="addr:postcode" v="78731"/></node><node id="-254" lat="30.363138" lon="-97.765422" changeset="false"><tag k="addr:street" v="Honeycomb Rock Circle"/><tag k="addr:housenumber" v="4104"/><tag k="addr:postcode" v="78731"/></node><node id="-255" lat="30.363314" lon="-97.764729" changeset="false"><tag k="addr:street" v="Honeycomb Rock Circle"/><tag k="addr:housenumber" v="4118"/><tag k="addr:postcode" v="78731"/></node><node id="-256" lat="30.364079" lon="-97.766151" changeset="false"><tag k="addr:street" v="Waterline Road"/><tag k="addr:housenumber" v="7307"/><tag k="addr:postcode" v="78731"/></node><node id="-257" lat="30.364209" lon="-97.76674" changeset="false"><tag k="addr:street" v="Waterline Road"/><tag k="addr:housenumber" v="7304"/><tag k="addr:postcode" v="78731"/></node><node id="-258" lat="30.364316" lon="-97.767141" changeset="false"><tag k="addr:street" v="Woodway Drive"/><tag k="addr:housenumber" v="4207"/><tag k="addr:postcode" v="78731"/></node><node id="-259" lat="30.364304" lon="-97.765992" changeset="false"><tag k="addr:street" v="Waterline Road"/><tag k="addr:housenumber" v="7309"/><tag k="addr:postcode" v="78731"/></node><node id="-260" lat="30.364532" lon="-97.766347" changeset="false"><tag k="addr:street" v="Waterline Road"/><tag k="addr:housenumber" v="7308"/><tag k="addr:postcode" v="78731"/></node><node id="-261" lat="30.364457" lon="-97.766902" changeset="false"><tag k="addr:street" v="Woodway Drive"/><tag k="addr:housenumber" v="4205"/><tag k="addr:postcode" v="78731"/></node><node id="-262" lat="30.364351" lon="-97.766549" changeset="false"><tag k="addr:street" v="Waterline Road"/><tag k="addr:housenumber" v="7306"/><tag k="addr:postcode" v="78731"/></node><node id="-263" lat="30.365283" lon="-97.7661" changeset="false"><tag k="addr:street" v="Deepwoods Drive"/><tag k="addr:housenumber" v="4202"/><tag k="addr:postcode" v="78731"/></node><node id="-264" lat="30.364726" lon="-97.766152" changeset="false"><tag k="addr:street" v="Deepwoods Drive"/><tag k="addr:housenumber" v="4201"/><tag k="addr:postcode" v="78731"/></node><node id="-265" lat="30.36491" lon="-97.766582" changeset="false"><tag k="addr:street" v="Deepwoods Drive"/><tag k="addr:housenumber" v="4205"/><tag k="addr:postcode" v="78731"/></node><node id="-266" lat="30.365183" lon="-97.767008" changeset="false"><tag k="addr:street" v="Woodway Drive"/><tag k="addr:housenumber" v="4200"/><tag k="addr:postcode" v="78731"/></node><node id="-267" lat="30.364716" lon="-97.766772" changeset="false"><tag k="addr:street" v="Woodway Drive"/><tag k="addr:housenumber" v="4203"/><tag k="addr:postcode" v="78731"/></node><node id="-268" lat="30.365346" lon="-97.766353" changeset="false"><tag k="addr:street" v="Deepwoods Drive"/><tag k="addr:housenumber" v="4204"/><tag k="addr:postcode" v="78731"/></node><node id="-269" lat="30.363722" lon="-97.766001" changeset="false"><tag k="addr:street" v="Honeycomb Rock Circle"/><tag k="addr:housenumber" v="4115"/><tag k="addr:postcode" v="78731"/></node><node id="-270" lat="30.362851" lon="-97.766492" changeset="false"><tag k="addr:street" v="Cat Hollow Drive"/><tag k="addr:housenumber" v="4110"/><tag k="addr:postcode" v="78731"/></node><node id="-271" lat="30.363542" lon="-97.766531" changeset="false"><tag k="addr:street" v="Waterline Road"/><tag k="addr:housenumber" v="7301"/><tag k="addr:postcode" v="78731"/></node><node id="-272" lat="30.36314" lon="-97.766766" changeset="false"><tag k="addr:street" v="Waterline Road"/><tag k="addr:housenumber" v="7211"/><tag k="addr:postcode" v="78731"/></node><node id="-273" lat="30.363543" lon="-97.766164" changeset="false"><tag k="addr:street" v="Honeycomb Rock Circle"/><tag k="addr:housenumber" v="4113"/><tag k="addr:postcode" v="78731"/></node><node id="-274" lat="30.363317" lon="-97.76668" changeset="false"><tag k="addr:street" v="Waterline Road"/><tag k="addr:housenumber" v="7213"/><tag k="addr:postcode" v="78731"/></node><node id="-275" lat="30.363306" lon="-97.767203" changeset="false"><tag k="addr:street" v="Waterline Road"/><tag k="addr:housenumber" v="7210"/><tag k="addr:postcode" v="78731"/></node><node id="-276" lat="30.36293" lon="-97.766857" changeset="false"><tag k="addr:street" v="Waterline Road"/><tag k="addr:housenumber" v="7207"/><tag k="addr:postcode" v="78731"/></node><node id="-277" lat="30.363725" lon="-97.766984" changeset="false"><tag k="addr:street" v="Waterline Road"/><tag k="addr:housenumber" v="7300"/><tag k="addr:postcode" v="78731"/></node><node id="-278" lat="30.363072" lon="-97.766123" changeset="false"><tag k="addr:street" v="Honeycomb Rock Circle"/><tag k="addr:housenumber" v="4109"/><tag k="addr:postcode" v="78731"/></node><node id="-279" lat="30.36271" lon="-97.766311" changeset="false"><tag k="addr:street" v="Cat Hollow Drive"/><tag k="addr:housenumber" v="4108"/><tag k="addr:postcode" v="78731"/></node><node id="-280" lat="30.363302" lon="-97.766222" changeset="false"><tag k="addr:street" v="Honeycomb Rock Circle"/><tag k="addr:housenumber" v="4111"/><tag k="addr:postcode" v="78731"/></node><node id="-281" lat="30.36373" lon="-97.766442" changeset="false"><tag k="addr:street" v="Waterline Road"/><tag k="addr:housenumber" v="7303"/><tag k="addr:postcode" v="78731"/></node><node id="-282" lat="30.363985" lon="-97.76681" changeset="false"><tag k="addr:street" v="Waterline Road"/><tag k="addr:housenumber" v="7302"/><tag k="addr:postcode" v="78731"/></node><node id="-283" lat="30.363945" lon="-97.7663" changeset="false"><tag k="addr:street" v="Waterline Road"/><tag k="addr:housenumber" v="7305"/><tag k="addr:postcode" v="78731"/></node><node id="-284" lat="30.361597" lon="-97.766912" changeset="false"><tag k="addr:street" v="Circletree Loop"/><tag k="addr:housenumber" v="4113"/><tag k="addr:postcode" v="78731"/></node><node id="-285" lat="30.361615" lon="-97.766161" changeset="false"><tag k="addr:street" v="Circletree Loop"/><tag k="addr:housenumber" v="4119"/><tag k="addr:postcode" v="78731"/></node><node id="-286" lat="30.361736" lon="-97.766399" changeset="false"><tag k="addr:street" v="Circletree Loop"/><tag k="addr:housenumber" v="4117"/><tag k="addr:postcode" v="78731"/></node><node id="-287" lat="30.361706" lon="-97.767263" changeset="false"><tag k="addr:street" v="Waterline Road"/><tag k="addr:housenumber" v="7111"/><tag k="addr:postcode" v="78731"/></node><node id="-288" lat="30.361951" lon="-97.765918" changeset="false"><tag k="addr:street" v="Cat Hollow Drive"/><tag k="addr:housenumber" v="4103"/><tag k="addr:postcode" v="78731"/></node><node id="-289" lat="30.362226" lon="-97.766435" changeset="false"><tag k="addr:street" v="Cat Hollow Drive"/><tag k="addr:housenumber" v="4107"/><tag k="addr:postcode" v="78731"/></node><node id="-290" lat="30.362134" lon="-97.767063" changeset="false"><tag k="addr:street" v="Waterline Road"/><tag k="addr:housenumber" v="7203"/><tag k="addr:postcode" v="78731"/></node><node id="-291" lat="30.361962" lon="-97.767158" changeset="false"><tag k="addr:street" v="Waterline Road"/><tag k="addr:housenumber" v="7201"/><tag k="addr:postcode" v="78731"/></node><node id="-292" lat="30.362072" lon="-97.766169" changeset="false"><tag k="addr:street" v="Cat Hollow Drive"/><tag k="addr:housenumber" v="4105"/><tag k="addr:postcode" v="78731"/></node><node id="-293" lat="30.361866" lon="-97.766715" changeset="false"><tag k="addr:street" v="Circletree Loop"/><tag k="addr:housenumber" v="4115"/><tag k="addr:postcode" v="78731"/></node><node id="-294" lat="30.362305" lon="-97.767008" changeset="false"><tag k="addr:street" v="Waterline Road"/><tag k="addr:housenumber" v="7205"/><tag k="addr:postcode" v="78731"/></node><node id="-295" lat="30.362356" lon="-97.766706" changeset="false"><tag k="addr:street" v="Cat Hollow Drive"/><tag k="addr:housenumber" v="4109"/><tag k="addr:postcode" v="78731"/></node><node id="-296" lat="30.362555" lon="-97.76614" changeset="false"><tag k="addr:street" v="Cat Hollow Drive"/><tag k="addr:housenumber" v="4106"/><tag k="addr:postcode" v="78731"/></node><node id="-297" lat="30.360114" lon="-97.766722" changeset="false"><tag k="addr:street" v="Mesa Drive"/><tag k="addr:housenumber" v="7100"/><tag k="addr:postcode" v="78731"/></node><node id="-298" lat="30.360214" lon="-97.76708" changeset="false"><tag k="addr:street" v="Far West Boulevard"/><tag k="addr:housenumber" v="4102"/><tag k="addr:postcode" v="78731"/></node><node id="-299" lat="30.360437" lon="-97.766521" changeset="false"><tag k="addr:street" v="Mesa Drive"/><tag k="addr:housenumber" v="7104"/><tag k="addr:postcode" v="78731"/></node><node id="-300" lat="30.360615" lon="-97.766768" changeset="false"><tag k="addr:street" v="Circletree Loop"/><tag k="addr:housenumber" v="4103"/><tag k="addr:postcode" v="78731"/></node><node id="-301" lat="30.360852" lon="-97.766239" changeset="false"><tag k="addr:street" v="Mesa Drive"/><tag k="addr:housenumber" v="7106"/><tag k="addr:postcode" v="78731"/></node><node id="-302" lat="30.360937" lon="-97.767054" changeset="false"><tag k="addr:street" v="Circletree Loop"/><tag k="addr:housenumber" v="4107"/><tag k="addr:postcode" v="78731"/></node><node id="-303" lat="30.36102" lon="-97.766529" changeset="false"><tag k="addr:street" v="Circletree Loop"/><tag k="addr:housenumber" v="4104"/><tag k="addr:postcode" v="78731"/></node><node id="-304" lat="30.360744" lon="-97.767016" changeset="false"><tag k="addr:street" v="Circletree Loop"/><tag k="addr:housenumber" v="4105"/><tag k="addr:postcode" v="78731"/></node><node id="-305" lat="30.361138" lon="-97.766097" changeset="false"><tag k="addr:street" v="Mesa Drive"/><tag k="addr:housenumber" v="7108"/><tag k="addr:postcode" v="78731"/></node><node id="-306" lat="30.361274" lon="-97.766404" changeset="false"><tag k="addr:street" v="Circletree Loop"/><tag k="addr:housenumber" v="4108"/><tag k="addr:postcode" v="78731"/></node><node id="-307" lat="30.361201" lon="-97.767026" changeset="false"><tag k="addr:street" v="Circletree Loop"/><tag k="addr:housenumber" v="4109"/><tag k="addr:postcode" v="78731"/></node><node id="-308" lat="30.361379" lon="-97.76699" changeset="false"><tag k="addr:street" v="Circletree Loop"/><tag k="addr:housenumber" v="4111"/><tag k="addr:postcode" v="78731"/></node><node id="-309" lat="30.364454" lon="-97.768393" changeset="false"><tag k="addr:street" v="Gnarl Drive"/><tag k="addr:housenumber" v="4212"/><tag k="addr:postcode" v="78731"/></node><node id="-310" lat="30.364435" lon="-97.767417" changeset="false"><tag k="addr:street" v="Woodway Drive"/><tag k="addr:housenumber" v="4209"/><tag k="addr:postcode" v="78731"/></node><node id="-311" lat="30.364837" lon="-97.768394" changeset="false"><tag k="addr:street" v="Woodway Drive"/><tag k="addr:housenumber" v="4301"/><tag k="addr:postcode" v="78731"/></node><node id="-312" lat="30.364645" lon="-97.767895" changeset="false"><tag k="addr:street" v="Woodway Drive"/><tag k="addr:housenumber" v="4213"/><tag k="addr:postcode" v="78731"/></node><node id="-313" lat="30.364769" lon="-97.768175" changeset="false"><tag k="addr:street" v="Woodway Drive"/><tag k="addr:housenumber" v="4215"/><tag k="addr:postcode" v="78731"/></node><node id="-314" lat="30.364478" lon="-97.767632" changeset="false"><tag k="addr:street" v="Woodway Drive"/><tag k="addr:housenumber" v="4211"/><tag k="addr:postcode" v="78731"/></node><node id="-315" lat="30.364915" lon="-97.767246" changeset="false"><tag k="addr:street" v="Woodway Drive"/><tag k="addr:housenumber" v="4208"/><tag k="addr:postcode" v="78731"/></node><node id="-316" lat="30.365001" lon="-97.767537" changeset="false"><tag k="addr:street" v="Woodway Drive"/><tag k="addr:housenumber" v="4210"/><tag k="addr:postcode" v="78731"/></node><node id="-317" lat="30.365222" lon="-97.768277" changeset="false"><tag k="addr:street" v="Woodway Drive"/><tag k="addr:housenumber" v="4300"/><tag k="addr:postcode" v="78731"/></node><node id="-318" lat="30.365083" lon="-97.767794" changeset="false"><tag k="addr:street" v="Woodway Drive"/><tag k="addr:housenumber" v="4212"/><tag k="addr:postcode" v="78731"/></node><node id="-319" lat="30.365163" lon="-97.768056" changeset="false"><tag k="addr:street" v="Woodway Drive"/><tag k="addr:housenumber" v="4214"/><tag k="addr:postcode" v="78731"/></node><node id="-320" lat="30.365324" lon="-97.768546" changeset="false"><tag k="addr:street" v="Woodway Drive"/><tag k="addr:housenumber" v="4302"/><tag k="addr:postcode" v="78731"/></node><node id="-321" lat="30.365431" lon="-97.767571" changeset="false"><tag k="addr:street" v="Deepwoods Drive"/><tag k="addr:housenumber" v="4211"/><tag k="addr:postcode" v="78731"/></node><node id="-322" lat="30.365363" lon="-97.767327" changeset="false"><tag k="addr:street" v="Deepwoods Drive"/><tag k="addr:housenumber" v="4209"/><tag k="addr:postcode" v="78731"/></node><node id="-323" lat="30.363378" lon="-97.767957" changeset="false"><tag k="addr:street" v="Cat Hollow Drive"/><tag k="addr:housenumber" v="4206"/><tag k="addr:postcode" v="78731"/></node><node id="-324" lat="30.363947" lon="-97.768333" changeset="false"><tag k="addr:street" v="Gnarl Drive"/><tag k="addr:housenumber" v="4211"/><tag k="addr:postcode" v="78731"/></node><node id="-325" lat="30.363505" lon="-97.768216" changeset="false"><tag k="addr:street" v="Cat Hollow Drive"/><tag k="addr:housenumber" v="4208"/><tag k="addr:postcode" v="78731"/></node><node id="-326" lat="30.363629" lon="-97.767688" changeset="false"><tag k="addr:street" v="Gnarl Drive"/><tag k="addr:housenumber" v="4205"/><tag k="addr:postcode" v="78731"/></node><node id="-327" lat="30.363493" lon="-97.767476" changeset="false"><tag k="addr:street" v="Gnarl Drive"/><tag k="addr:housenumber" v="4203"/><tag k="addr:postcode" v="78731"/></node><node id="-328" lat="30.363603" lon="-97.768448" changeset="false"><tag k="addr:street" v="Cat Hollow Drive"/><tag k="addr:housenumber" v="4210"/><tag k="addr:postcode" v="78731"/></node><node id="-329" lat="30.363765" lon="-97.76788" changeset="false"><tag k="addr:street" v="Gnarl Drive"/><tag k="addr:housenumber" v="4207"/><tag k="addr:postcode" v="78731"/></node><node id="-330" lat="30.364007" lon="-97.767504" changeset="false"><tag k="addr:street" v="Gnarl Drive"/><tag k="addr:housenumber" v="4204"/><tag k="addr:postcode" v="78731"/></node><node id="-331" lat="30.363873" lon="-97.768095" changeset="false"><tag k="addr:street" v="Gnarl Drive"/><tag k="addr:housenumber" v="4209"/><tag k="addr:postcode" v="78731"/></node><node id="-332" lat="30.36391" lon="-97.767325" changeset="false"><tag k="addr:street" v="Gnarl Drive"/><tag k="addr:housenumber" v="4202"/><tag k="addr:postcode" v="78731"/></node><node id="-333" lat="30.364116" lon="-97.767723" changeset="false"><tag k="addr:street" v="Gnarl Drive"/><tag k="addr:housenumber" v="4206"/><tag k="addr:postcode" v="78731"/></node><node id="-334" lat="30.364235" lon="-97.767891" changeset="false"><tag k="addr:street" v="Gnarl Drive"/><tag k="addr:housenumber" v="4208"/><tag k="addr:postcode" v="78731"/></node><node id="-335" lat="30.36432" lon="-97.768131" changeset="false"><tag k="addr:street" v="Gnarl Drive"/><tag k="addr:housenumber" v="4210"/><tag k="addr:postcode" v="78731"/></node><node id="-336" lat="30.36186" lon="-97.767688" changeset="false"><tag k="addr:street" v="Waterline Road"/><tag k="addr:housenumber" v="7108"/><tag k="addr:postcode" v="78731"/></node><node id="-337" lat="30.362052" lon="-97.767668" changeset="false"><tag k="addr:street" v="Waterline Road"/><tag k="addr:housenumber" v="7200"/><tag k="addr:postcode" v="78731"/></node><node id="-338" lat="30.362179" lon="-97.768072" changeset="false"><tag k="addr:street" v="Prickly Pear Drive"/><tag k="addr:housenumber" v="4205"/><tag k="addr:postcode" v="78731"/></node><node id="-339" lat="30.362458" lon="-97.768016" changeset="false"><tag k="addr:street" v="Prickly Pear Drive"/><tag k="addr:housenumber" v="4203"/><tag k="addr:postcode" v="78731"/></node><node id="-340" lat="30.362167" lon="-97.768301" changeset="false"><tag k="addr:street" v="Prickly Pear Drive"/><tag k="addr:housenumber" v="4207"/><tag k="addr:postcode" v="78731"/></node><node id="-341" lat="30.362308" lon="-97.767646" changeset="false"><tag k="addr:street" v="Waterline Road"/><tag k="addr:housenumber" v="7202"/><tag k="addr:postcode" v="78731"/></node><node id="-342" lat="30.362509" lon="-97.767516" changeset="false"><tag k="addr:street" v="Waterline Road"/><tag k="addr:housenumber" v="7204"/><tag k="addr:postcode" v="78731"/></node><node id="-343" lat="30.362678" lon="-97.767847" changeset="false"><tag k="addr:street" v="Prickly Pear Drive"/><tag k="addr:housenumber" v="4201"/><tag k="addr:postcode" v="78731"/></node><node id="-344" lat="30.363153" lon="-97.76755" changeset="false"><tag k="addr:street" v="Cat Hollow Drive"/><tag k="addr:housenumber" v="4202"/><tag k="addr:postcode" v="78731"/></node><node id="-345" lat="30.362956" lon="-97.768267" changeset="false"><tag k="addr:street" v="Cat Hollow Drive"/><tag k="addr:housenumber" v="4205"/><tag k="addr:postcode" v="78731"/></node><node id="-346" lat="30.363" lon="-97.767312" changeset="false"><tag k="addr:street" v="Waterline Road"/><tag k="addr:housenumber" v="7206"/><tag k="addr:postcode" v="78731"/></node><node id="-347" lat="30.362643" lon="-97.768449" changeset="false"><tag k="addr:street" v="Prickly Pear Drive"/><tag k="addr:housenumber" v="4208"/><tag k="addr:postcode" v="78731"/></node><node id="-348" lat="30.363082" lon="-97.768521" changeset="false"><tag k="addr:street" v="Cat Hollow Drive"/><tag k="addr:housenumber" v="4207"/><tag k="addr:postcode" v="78731"/></node><node id="-349" lat="30.363238" lon="-97.767821" changeset="false"><tag k="addr:street" v="Cat Hollow Drive"/><tag k="addr:housenumber" v="4204"/><tag k="addr:postcode" v="78731"/></node><node id="-350" lat="30.361057" lon="-97.76742" changeset="false"><tag k="addr:street" v="Waterline Road"/><tag k="addr:housenumber" v="7105"/><tag k="addr:postcode" v="78731"/></node><node id="-351" lat="30.361155" lon="-97.767913" changeset="false"><tag k="addr:street" v="Waterline Road"/><tag k="addr:housenumber" v="7104"/><tag k="addr:postcode" v="78731"/></node><node id="-352" lat="30.361446" lon="-97.768431" changeset="false"><tag k="addr:street" v="Venado Drive"/><tag k="addr:housenumber" v="4205"/><tag k="addr:postcode" v="78731"/></node><node id="-353" lat="30.360658" lon="-97.767643" changeset="false"><tag k="addr:street" v="Waterline Road"/><tag k="addr:housenumber" v="7101"/><tag k="addr:postcode" v="78731"/></node><node id="-354" lat="30.360852" lon="-97.768013" changeset="false"><tag k="addr:street" v="Waterline Road"/><tag k="addr:housenumber" v="7100"/><tag k="addr:postcode" v="78731"/></node><node id="-355" lat="30.360386" lon="-97.767288" changeset="false"><tag k="addr:street" v="Far West Boulevard"/><tag k="addr:housenumber" v="4104"/><tag k="addr:postcode" v="78731"/></node><node id="-356" lat="30.360859" lon="-97.76754" changeset="false"><tag k="addr:street" v="Waterline Road"/><tag k="addr:housenumber" v="7103"/><tag k="addr:postcode" v="78731"/></node><node id="-357" lat="30.361282" lon="-97.767385" changeset="false"><tag k="addr:street" v="Waterline Road"/><tag k="addr:housenumber" v="7107"/><tag k="addr:postcode" v="78731"/></node><node id="-358" lat="30.361233" lon="-97.768235" changeset="false"><tag k="addr:street" v="Venado Drive"/><tag k="addr:housenumber" v="4203"/><tag k="addr:postcode" v="78731"/></node><node id="-359" lat="30.361512" lon="-97.767323" changeset="false"><tag k="addr:street" v="Waterline Road"/><tag k="addr:housenumber" v="7109"/><tag k="addr:postcode" v="78731"/></node><node id="-360" lat="30.36162" lon="-97.767765" changeset="false"><tag k="addr:street" v="Waterline Road"/><tag k="addr:housenumber" v="7106"/><tag k="addr:postcode" v="78731"/></node><node id="-361" lat="30.36177" lon="-97.768109" changeset="false"><tag k="addr:street" v="Venado Drive"/><tag k="addr:housenumber" v="4202"/><tag k="addr:postcode" v="78731"/></node><node id="-362" lat="30.361824" lon="-97.76834" changeset="false"><tag k="addr:street" v="Venado Drive"/><tag k="addr:housenumber" v="4204"/><tag k="addr:postcode" v="78731"/></node><node id="-363" lat="30.363723" lon="-97.768949" changeset="false"><tag k="addr:street" v="Cat Hollow Drive"/><tag k="addr:housenumber" v="4214"/><tag k="addr:postcode" v="78731"/></node><node id="-364" lat="30.363788" lon="-97.769207" changeset="false"><tag k="addr:street" v="Cat Hollow Drive"/><tag k="addr:housenumber" v="4300"/><tag k="addr:postcode" v="78731"/></node><node id="-365" lat="30.363898" lon="-97.769444" changeset="false"><tag k="addr:street" v="Cat Hollow Drive"/><tag k="addr:housenumber" v="4302"/><tag k="addr:postcode" v="78731"/></node><node id="-366" lat="30.363941" lon="-97.768607" changeset="false"><tag k="addr:street" v="Gnarl Drive"/><tag k="addr:housenumber" v="4213"/><tag k="addr:postcode" v="78731"/></node><node id="-367" lat="30.364198" lon="-97.769053" changeset="false"><tag k="addr:street" v="Gnarl Drive"/><tag k="addr:housenumber" v="4303"/><tag k="addr:postcode" v="78731"/></node><node id="-368" lat="30.364011" lon="-97.769743" changeset="false"><tag k="addr:street" v="Cat Hollow Drive"/><tag k="addr:housenumber" v="4304"/><tag k="addr:postcode" v="78731"/></node><node id="-369" lat="30.36407" lon="-97.768856" changeset="false"><tag k="addr:street" v="Gnarl Drive"/><tag k="addr:housenumber" v="4301"/><tag k="addr:postcode" v="78731"/></node><node id="-370" lat="30.364293" lon="-97.769405" changeset="false"><tag k="addr:street" v="West Rim Drive"/><tag k="addr:housenumber" v="7219"/><tag k="addr:postcode" v="78731"/></node><node id="-371" lat="30.365015" lon="-97.768948" changeset="false"><tag k="addr:street" v="Woodway Drive"/><tag k="addr:housenumber" v="4305"/><tag k="addr:postcode" v="78731"/></node><node id="-372" lat="30.364691" lon="-97.769089" changeset="false"><tag k="addr:street" v="West Rim Drive"/><tag k="addr:housenumber" v="7301"/><tag k="addr:postcode" v="78731"/></node><node id="-373" lat="30.364894" lon="-97.76866" changeset="false"><tag k="addr:street" v="Woodway Drive"/><tag k="addr:housenumber" v="4303"/><tag k="addr:postcode" v="78731"/></node><node id="-374" lat="30.365481" lon="-97.768869" changeset="false"><tag k="addr:street" v="West Rim Drive"/><tag k="addr:housenumber" v="7305"/><tag k="addr:postcode" v="78731"/></node><node id="-375" lat="30.364525" lon="-97.768758" changeset="false"><tag k="addr:street" v="Gnarl Drive"/><tag k="addr:housenumber" v="4300"/><tag k="addr:postcode" v="78731"/></node><node id="-376" lat="30.362916" lon="-97.769155" changeset="false"><tag k="addr:street" v="Prickly Pear Drive"/><tag k="addr:housenumber" v="4214"/><tag k="addr:postcode" v="78731"/></node><node id="-377" lat="30.363003" lon="-97.769415" changeset="false"><tag k="addr:street" v="Prickly Pear Drive"/><tag k="addr:housenumber" v="4216"/><tag k="addr:postcode" v="78731"/></node><node id="-378" lat="30.363115" lon="-97.770331" changeset="false"><tag k="addr:street" v="West Rim Drive"/><tag k="addr:housenumber" v="7205"/><tag k="addr:postcode" v="78731"/></node><node id="-379" lat="30.363069" lon="-97.769665" changeset="false"><tag k="addr:street" v="Prickly Pear Drive"/><tag k="addr:housenumber" v="4300"/><tag k="addr:postcode" v="78731"/></node><node id="-380" lat="30.363101" lon="-97.769998" changeset="false"><tag k="addr:street" v="Prickly Pear Drive"/><tag k="addr:housenumber" v="4302"/><tag k="addr:postcode" v="78731"/></node><node id="-381" lat="30.363281" lon="-97.769007" changeset="false"><tag k="addr:street" v="Cat Hollow Drive"/><tag k="addr:housenumber" v="4211"/><tag k="addr:postcode" v="78731"/></node><node id="-382" lat="30.363181" lon="-97.768794" changeset="false"><tag k="addr:street" v="Cat Hollow Drive"/><tag k="addr:housenumber" v="4209"/><tag k="addr:postcode" v="78731"/></node><node id="-383" lat="30.363406" lon="-97.769339" changeset="false"><tag k="addr:street" v="Cat Hollow Drive"/><tag k="addr:housenumber" v="4301"/><tag k="addr:postcode" v="78731"/></node><node id="-384" lat="30.363366" lon="-97.770347" changeset="false"><tag k="addr:street" v="West Rim Drive"/><tag k="addr:housenumber" v="7207"/><tag k="addr:postcode" v="78731"/></node><node id="-385" lat="30.363478" lon="-97.769584" changeset="false"><tag k="addr:street" v="Cat Hollow Drive"/><tag k="addr:housenumber" v="4303"/><tag k="addr:postcode" v="78731"/></node><node id="-386" lat="30.363666" lon="-97.770095" changeset="false"><tag k="addr:street" v="Cat Hollow Drive"/><tag k="addr:housenumber" v="4307"/><tag k="addr:postcode" v="78731"/></node><node id="-387" lat="30.363654" lon="-97.768695" changeset="false"><tag k="addr:street" v="Cat Hollow Drive"/><tag k="addr:housenumber" v="4212"/><tag k="addr:postcode" v="78731"/></node><node id="-388" lat="30.361977" lon="-97.768832" changeset="false"><tag k="addr:street" v="Venado Drive"/><tag k="addr:housenumber" v="4208"/><tag k="addr:postcode" v="78731"/></node><node id="-389" lat="30.362097" lon="-97.769061" changeset="false"><tag k="addr:street" v="Venado Drive"/><tag k="addr:housenumber" v="4210"/><tag k="addr:postcode" v="78731"/></node><node id="-390" lat="30.362163" lon="-97.76936" changeset="false"><tag k="addr:street" v="Venado Drive"/><tag k="addr:housenumber" v="4212"/><tag k="addr:postcode" v="78731"/></node><node id="-391" lat="30.362174" lon="-97.769609" changeset="false"><tag k="addr:street" v="Venado Drive"/><tag k="addr:housenumber" v="4214"/><tag k="addr:postcode" v="78731"/></node><node id="-392" lat="30.362201" lon="-97.770285" changeset="false"><tag k="addr:street" v="West Rim Drive"/><tag k="addr:housenumber" v="7105"/><tag k="addr:postcode" v="78731"/></node><node id="-393" lat="30.362199" lon="-97.769899" changeset="false"><tag k="addr:street" v="Venado Drive"/><tag k="addr:housenumber" v="4216"/><tag k="addr:postcode" v="78731"/></node><node id="-394" lat="30.362537" lon="-97.769615" changeset="false"><tag k="addr:street" v="Prickly Pear Drive"/><tag k="addr:housenumber" v="4217"/><tag k="addr:postcode" v="78731"/></node><node id="-395" lat="30.362226" lon="-97.768658" changeset="false"><tag k="addr:street" v="Prickly Pear Drive"/><tag k="addr:housenumber" v="4209"/><tag k="addr:postcode" v="78731"/></node><node id="-396" lat="30.362643" lon="-97.76983" changeset="false"><tag k="addr:street" v="Prickly Pear Drive"/><tag k="addr:housenumber" v="4301"/><tag k="addr:postcode" v="78731"/></node><node id="-397" lat="30.362379" lon="-97.76885" changeset="false"><tag k="addr:street" v="Prickly Pear Drive"/><tag k="addr:housenumber" v="4211"/><tag k="addr:postcode" v="78731"/></node><node id="-398" lat="30.362632" lon="-97.770261" changeset="false"><tag k="addr:street" v="West Rim Drive"/><tag k="addr:housenumber" v="7201"/><tag k="addr:postcode" v="78731"/></node><node id="-399" lat="30.362455" lon="-97.76908" changeset="false"><tag k="addr:street" v="Prickly Pear Drive"/><tag k="addr:housenumber" v="4213"/><tag k="addr:postcode" v="78731"/></node><node id="-400" lat="30.362578" lon="-97.769316" changeset="false"><tag k="addr:street" v="Prickly Pear Drive"/><tag k="addr:housenumber" v="4215"/><tag k="addr:postcode" v="78731"/></node><node id="-401" lat="30.362746" lon="-97.768655" changeset="false"><tag k="addr:street" v="Prickly Pear Drive"/><tag k="addr:housenumber" v="4210"/><tag k="addr:postcode" v="78731"/></node><node id="-402" lat="30.362848" lon="-97.76892" changeset="false"><tag k="addr:street" v="Prickly Pear Drive"/><tag k="addr:housenumber" v="4212"/><tag k="addr:postcode" v="78731"/></node><node id="-403" lat="30.361078" lon="-97.768603" changeset="false"><tag k="addr:street" v="Far West Boulevard"/><tag k="addr:housenumber" v="4204"/><tag k="addr:postcode" v="78731"/></node><node id="-404" lat="30.361249" lon="-97.769185" changeset="false"><tag k="addr:street" v="Far West Boulevard"/><tag k="addr:housenumber" v="4208"/><tag k="addr:postcode" v="78731"/></node><node id="-405" lat="30.361293" lon="-97.769415" changeset="false"><tag k="addr:street" v="Far West Boulevard"/><tag k="addr:housenumber" v="4210"/><tag k="addr:postcode" v="78731"/></node><node id="-406" lat="30.361175" lon="-97.768924" changeset="false"><tag k="addr:street" v="Far West Boulevard"/><tag k="addr:housenumber" v="4206"/><tag k="addr:postcode" v="78731"/></node><node id="-407" lat="30.361342" lon="-97.769692" changeset="false"><tag k="addr:street" v="Far West Boulevard"/><tag k="addr:housenumber" v="4212"/><tag k="addr:postcode" v="78731"/></node><node id="-408" lat="30.361476" lon="-97.7687" changeset="false"><tag k="addr:street" v="Venado Drive"/><tag k="addr:housenumber" v="4207"/><tag k="addr:postcode" v="78731"/></node><node id="-409" lat="30.361378" lon="-97.769991" changeset="false"><tag k="addr:street" v="Far West Boulevard"/><tag k="addr:housenumber" v="4214"/><tag k="addr:postcode" v="78731"/></node><node id="-410" lat="30.361413" lon="-97.770361" changeset="false"><tag k="addr:street" v="Far West Boulevard"/><tag k="addr:housenumber" v="4300"/><tag k="addr:postcode" v="78731"/></node><node id="-411" lat="30.361775" lon="-97.769895" changeset="false"><tag k="addr:street" v="Venado Drive"/><tag k="addr:housenumber" v="4217"/><tag k="addr:postcode" v="78731"/></node><node id="-412" lat="30.36171" lon="-97.769406" changeset="false"><tag k="addr:street" v="Venado Drive"/><tag k="addr:housenumber" v="4213"/><tag k="addr:postcode" v="78731"/></node><node id="-413" lat="30.36164" lon="-97.769187" changeset="false"><tag k="addr:street" v="Venado Drive"/><tag k="addr:housenumber" v="4211"/><tag k="addr:postcode" v="78731"/></node><node id="-414" lat="30.361717" lon="-97.769729" changeset="false"><tag k="addr:street" v="Venado Drive"/><tag k="addr:housenumber" v="4215"/><tag k="addr:postcode" v="78731"/></node><node id="-415" lat="30.361566" lon="-97.768948" changeset="false"><tag k="addr:street" v="Venado Drive"/><tag k="addr:housenumber" v="4209"/><tag k="addr:postcode" v="78731"/></node><node id="-416" lat="30.361895" lon="-97.768598" changeset="false"><tag k="addr:street" v="Venado Drive"/><tag k="addr:housenumber" v="4206"/><tag k="addr:postcode" v="78731"/></node></osm>