<?xml version="1.0" encoding="UTF-8"?><osm version="0.6" generator="github.com/aaronlidman/osm-and-geojson"><node id="-1" lat="30.209898" lon="-97.974171" changeset="false"><tag k="addr:street" v="Oak Branch Drive"/><tag k="addr:housenumber" v="11009"/><tag k="addr:postcode" v="78737"/></node><node id="-2" lat="30.213521" lon="-97.976033" changeset="false"><tag k="addr:street" v="Oak Branch Drive"/><tag k="addr:housenumber" v="11305"/><tag k="addr:postcode" v="78737"/></node><node id="-3" lat="30.216204" lon="-97.979956" changeset="false"><tag k="addr:street" v="Oak Branch Drive"/><tag k="addr:housenumber" v="11605"/><tag k="addr:postcode" v="78737"/></node><node id="-4" lat="30.216992" lon="-97.980795" changeset="false"><tag k="addr:street" v="Oak Branch Drive"/><tag k="addr:housenumber" v="11701"/><tag k="addr:postcode" v="78737"/></node><node id="-5" lat="30.215909" lon="-97.979476" changeset="false"><tag k="addr:street" v="Oak Branch Drive"/><tag k="addr:housenumber" v="11601"/><tag k="addr:postcode" v="78737"/></node><node id="-6" lat="30.220276" lon="-97.983643" changeset="false"><tag k="addr:street" v="Oak Branch Drive"/><tag k="addr:housenumber" v="11911"/><tag k="addr:postcode" v="78737"/></node><node id="-7" lat="30.214351" lon="-97.974497" changeset="false"><tag k="addr:street" v="Oak Branch Drive"/><tag k="addr:housenumber" v="11300"/><tag k="addr:postcode" v="78737"/></node><node id="-8" lat="30.212651" lon="-97.974756" changeset="false"><tag k="addr:street" v="Oak Branch Drive"/><tag k="addr:housenumber" v="11205"/><tag k="addr:postcode" v="78737"/></node><node id="-9" lat="30.240836" lon="-98.015933" changeset="false"><tag k="addr:street" v="Fitzhugh Road"/><tag k="addr:housenumber" v="14414"/><tag k="addr:postcode" v="78736"/></node><node id="-10" lat="30.236794" lon="-98.004402" changeset="false"><tag k="addr:street" v="Bonham Lane"/><tag k="addr:housenumber" v="11502"/><tag k="addr:postcode" v="78736"/></node><node id="-11" lat="30.241595" lon="-98.014214" changeset="false"><tag k="addr:street" v="Fitzhugh Road"/><tag k="addr:housenumber" v="14300"/><tag k="addr:postcode" v="78736"/></node><node id="-12" lat="30.214027" lon="-97.97389" changeset="false"><tag k="addr:street" v="Oak Branch Drive"/><tag k="addr:housenumber" v="11204"/><tag k="addr:postcode" v="78737"/></node><node id="-13" lat="30.218286" lon="-97.982402" changeset="false"><tag k="addr:street" v="Oak Branch Drive"/><tag k="addr:housenumber" v="11805"/><tag k="addr:postcode" v="78737"/></node><node id="-14" lat="30.216583" lon="-97.980419" changeset="false"><tag k="addr:street" v="Oak Branch Drive"/><tag k="addr:housenumber" v="11609"/><tag k="addr:postcode" v="78737"/></node><node id="-15" lat="30.210859" lon="-97.974103" changeset="false"><tag k="addr:street" v="Oak Branch Drive"/><tag k="addr:housenumber" v="11105"/><tag k="addr:postcode" v="78737"/></node><node id="-16" lat="30.209112" lon="-97.973139" changeset="false"><tag k="addr:street" v="East Highway 290"/><tag k="addr:housenumber" v="12212"/><tag k="addr:postcode" v="78737"/></node><node id="-17" lat="30.214886" lon="-97.975331" changeset="false"><tag k="addr:street" v="Oak Branch Drive"/><tag k="addr:housenumber" v="11308"/><tag k="addr:postcode" v="78737"/></node><node id="-18" lat="30.214103" lon="-97.976875" changeset="false"><tag k="addr:street" v="Oak Branch Drive"/><tag k="addr:housenumber" v="11401"/><tag k="addr:postcode" v="78737"/></node><node id="-19" lat="30.21034" lon="-97.973136" changeset="false"><tag k="addr:street" v="Oak Branch Drive"/><tag k="addr:housenumber" v="11108"/><tag k="addr:postcode" v="78737"/></node><node id="-20" lat="30.209376" lon="-97.974213" changeset="false"><tag k="addr:street" v="Oak Branch Drive"/><tag k="addr:housenumber" v="11005"/><tag k="addr:postcode" v="78737"/></node><node id="-21" lat="30.218172" lon="-97.981846" changeset="false"><tag k="addr:street" v="Oak Branch Drive"/><tag k="addr:housenumber" v="11801"/><tag k="addr:postcode" v="78737"/></node><node id="-22" lat="30.215883" lon="-97.977054" changeset="false"><tag k="addr:street" v="Oak Branch Drive"/><tag k="addr:housenumber" v="11412"/><tag k="addr:postcode" v="78737"/></node><node id="-23" lat="30.215607" lon="-97.979056" changeset="false"><tag k="addr:street" v="Oak Branch Drive"/><tag k="addr:housenumber" v="11509"/><tag k="addr:postcode" v="78737"/></node><node id="-24" lat="30.215122" lon="-97.975731" changeset="false"><tag k="addr:street" v="Oak Branch Drive"/><tag k="addr:housenumber" v="11400"/><tag k="addr:postcode" v="78737"/></node><node id="-25" lat="30.218985" lon="-97.983143" changeset="false"><tag k="addr:street" v="Oak Branch Drive"/><tag k="addr:housenumber" v="11901"/><tag k="addr:postcode" v="78737"/></node><node id="-26" lat="30.214977" lon="-97.978145" changeset="false"><tag k="addr:street" v="Oak Branch Drive"/><tag k="addr:housenumber" v="11501"/><tag k="addr:postcode" v="78737"/></node><node id="-27" lat="30.21738" lon="-97.979484" changeset="false"><tag k="addr:street" v="Oak Branch Drive"/><tag k="addr:housenumber" v="11608"/><tag k="addr:postcode" v="78737"/></node><node id="-28" lat="30.216456" lon="-97.977989" changeset="false"><tag k="addr:street" v="Oak Branch Drive"/><tag k="addr:housenumber" v="11504"/><tag k="addr:postcode" v="78737"/></node><node id="-29" lat="30.241615" lon="-98.010504" changeset="false"><tag k="addr:street" v="Fitzhugh Road"/><tag k="addr:housenumber" v="14105"/><tag k="addr:postcode" v="78737"/></node><node id="-30" lat="30.214631" lon="-97.974918" changeset="false"><tag k="addr:street" v="Oak Branch Drive"/><tag k="addr:housenumber" v="11304"/><tag k="addr:postcode" v="78737"/></node><node id="-31" lat="30.212349" lon="-97.974366" changeset="false"><tag k="addr:street" v="Oak Branch Drive"/><tag k="addr:housenumber" v="11201"/><tag k="addr:postcode" v="78737"/></node><node id="-32" lat="30.213241" lon="-97.975595" changeset="false"><tag k="addr:street" v="Oak Branch Drive"/><tag k="addr:housenumber" v="11301"/><tag k="addr:postcode" v="78737"/></node><node id="-33" lat="30.211845" lon="-97.974153" changeset="false"><tag k="addr:street" v="Oak Branch Drive"/><tag k="addr:housenumber" v="11113"/><tag k="addr:postcode" v="78737"/></node><node id="-34" lat="30.21741" lon="-97.981119" changeset="false"><tag k="addr:street" v="Oak Branch Drive"/><tag k="addr:housenumber" v="11705"/><tag k="addr:postcode" v="78737"/></node><node id="-35" lat="30.211316" lon="-97.974099" changeset="false"><tag k="addr:street" v="Oak Branch Drive"/><tag k="addr:housenumber" v="11109"/><tag k="addr:postcode" v="78737"/></node><node id="-36" lat="30.22063" lon="-97.983008" changeset="false"><tag k="addr:street" v="Oak Branch Drive"/><tag k="addr:housenumber" v="11906"/><tag k="addr:postcode" v="78737"/></node><node id="-37" lat="30.215375" lon="-97.976167" changeset="false"><tag k="addr:street" v="Oak Branch Drive"/><tag k="addr:housenumber" v="11404"/><tag k="addr:postcode" v="78737"/></node><node id="-38" lat="30.21036" lon="-97.974137" changeset="false"><tag k="addr:street" v="Oak Branch Drive"/><tag k="addr:housenumber" v="11101"/><tag k="addr:postcode" v="78737"/></node><node id="-39" lat="30.210648" lon="-97.970481" changeset="false"><tag k="addr:street" v="East Highway 290"/><tag k="addr:housenumber" v="12010"/><tag k="addr:postcode" v="78737"/></node><node id="-40" lat="30.209971" lon="-97.971256" changeset="false"><tag k="addr:street" v="East Highway 290"/><tag k="addr:housenumber" v="12014"/><tag k="addr:postcode" v="78737"/></node><node id="-41" lat="30.219754" lon="-97.983536" changeset="false"><tag k="addr:street" v="Oak Branch Drive"/><tag k="addr:housenumber" v="11909"/><tag k="addr:postcode" v="78737"/></node><node id="-42" lat="30.21937" lon="-97.983321" changeset="false"><tag k="addr:street" v="Oak Branch Drive"/><tag k="addr:housenumber" v="11905"/><tag k="addr:postcode" v="78737"/></node><node id="-43" lat="30.214677" lon="-97.977707" changeset="false"><tag k="addr:street" v="Oak Branch Drive"/><tag k="addr:housenumber" v="11413"/><tag k="addr:postcode" v="78737"/></node><node id="-44" lat="30.213826" lon="-97.976467" changeset="false"><tag k="addr:street" v="Oak Branch Drive"/><tag k="addr:housenumber" v="11309"/><tag k="addr:postcode" v="78737"/></node><node id="-45" lat="30.216978" lon="-97.978842" changeset="false"><tag k="addr:street" v="Oak Branch Drive"/><tag k="addr:housenumber" v="11604"/><tag k="addr:postcode" v="78737"/></node></osm>