<?xml version="1.0" encoding="UTF-8"?><osm version="0.6" generator="github.com/aaronlidman/osm-and-geojson"><node id="-1" lat="30.297857" lon="-97.783412" changeset="false"><tag k="addr:street" v="Scenic Drive"/><tag k="addr:housenumber" v="1604"/><tag k="addr:postcode" v="78703"/></node><node id="-2" lat="30.310702" lon="-97.767999" changeset="false"><tag k="addr:street" v="Pecos Street"/><tag k="addr:housenumber" v="3312"/><tag k="addr:postcode" v="78703"/></node><node id="-3" lat="30.295862" lon="-97.779339" changeset="false"><tag k="addr:street" v="Bridle Path"/><tag k="addr:housenumber" v="3503"/><tag k="addr:postcode" v="78703"/></node><node id="-4" lat="30.299676" lon="-97.780541" changeset="false"><tag k="addr:street" v="Meredith Street"/><tag k="addr:housenumber" v="3715"/><tag k="addr:postcode" v="78703"/></node><node id="-5" lat="30.30235" lon="-97.779602" changeset="false"><tag k="addr:street" v="Windsor Road"/><tag k="addr:housenumber" v="3719"/><tag k="addr:postcode" v="78703"/></node><node id="-6" lat="30.296342" lon="-97.78256" changeset="false"><tag k="addr:street" v="Bonnie Road"/><tag k="addr:housenumber" v="3709"/><tag k="addr:postcode" v="78703"/></node><node id="-7" lat="30.307188" lon="-97.775924" changeset="false"><tag k="addr:street" v="Scenic Drive"/><tag k="addr:housenumber" v="2604"/><tag k="addr:postcode" v="78703"/></node><node id="-8" lat="30.296947" lon="-97.780628" changeset="false"><tag k="addr:street" v="Bridle Path"/><tag k="addr:housenumber" v="3604"/><tag k="addr:postcode" v="78703"/></node><node id="-9" lat="30.2978" lon="-97.781058" changeset="false"><tag k="addr:street" v="Rockmoor Avenue"/><tag k="addr:housenumber" v="1708"/><tag k="addr:postcode" v="78703"/></node><node id="-10" lat="30.302151" lon="-97.779441" changeset="false"><tag k="addr:street" v="Windsor Road"/><tag k="addr:housenumber" v="3717"/><tag k="addr:postcode" v="78703"/></node><node id="-11" lat="30.313736" lon="-97.767652" changeset="false"><tag k="addr:street" v="West 35th Street"/><tag k="addr:housenumber" v="3111"/><tag k="addr:postcode" v="78703"/></node><node id="-12" lat="30.304655" lon="-97.778484" changeset="false"><tag k="addr:street" v="Scenic Drive"/><tag k="addr:housenumber" v="2510"/><tag k="addr:postcode" v="78703"/></node><node id="-13" lat="30.301281" lon="-97.778703" changeset="false"><tag k="addr:street" v="Gilbert Street"/><tag k="addr:housenumber" v="3702"/><tag k="addr:postcode" v="78703"/></node><node id="-14" lat="30.311448" lon="-97.768313" changeset="false"><tag k="addr:street" v="Warren Street"/><tag k="addr:housenumber" v="3205"/><tag k="addr:postcode" v="78703"/></node><node id="-15" lat="30.298154" lon="-97.781617" changeset="false"><tag k="addr:street" v="Rockmoor Avenue"/><tag k="addr:housenumber" v="1710"/><tag k="addr:postcode" v="78703"/></node><node id="-16" lat="30.295998" lon="-97.782923" changeset="false"><tag k="addr:street" v="Enfield Road"/><tag k="addr:housenumber" v="3708"/><tag k="addr:postcode" v="78703"/></node><node id="-17" lat="30.297223" lon="-97.782057" changeset="false"><tag k="addr:street" v="Bridle Path"/><tag k="addr:housenumber" v="3707"/><tag k="addr:postcode" v="78703"/></node><node id="-18" lat="30.299373" lon="-97.776658" changeset="false"><tag k="addr:street" v="Robinhood Trail"/><tag k="addr:housenumber" v="2103"/><tag k="addr:postcode" v="78703"/></node><node id="-19" lat="30.301218" lon="-97.778572" changeset="false"><tag k="addr:street" v="Gilbert Street"/><tag k="addr:housenumber" v="3700"/><tag k="addr:postcode" v="78703"/></node><node id="-20" lat="30.310389" lon="-97.770499" changeset="false"><tag k="addr:street" v="Scenic Drive"/><tag k="addr:housenumber" v="3000"/><tag k="addr:postcode" v="78703"/></node><node id="-21" lat="30.30038" lon="-97.78124" changeset="false"><tag k="addr:street" v="Matthews Drive"/><tag k="addr:housenumber" v="1906"/><tag k="addr:postcode" v="78703"/></node><node id="-22" lat="30.296863" lon="-97.781694" changeset="false"><tag k="addr:street" v="Rockmoor Avenue"/><tag k="addr:housenumber" v="1606"/><tag k="addr:postcode" v="78703"/></node><node id="-23" lat="30.301926" lon="-97.779024" changeset="false"><tag k="addr:street" v="Windsor Road"/><tag k="addr:housenumber" v="3711"/><tag k="addr:postcode" v="78703"/></node><node id="-24" lat="30.295467" lon="-97.781795" changeset="false"><tag k="addr:street" v="Enfield Road"/><tag k="addr:housenumber" v="3612"/><tag k="addr:postcode" v="78703"/></node><node id="-25" lat="30.299926" lon="-97.781334" changeset="false"><tag k="addr:street" v="Kennelwood Road"/><tag k="addr:housenumber" v="3800"/><tag k="addr:postcode" v="78703"/></node><node id="-26" lat="30.300378" lon="-97.78219" changeset="false"><tag k="addr:street" v="Scenic Drive"/><tag k="addr:housenumber" v="1904"/><tag k="addr:postcode" v="78703"/></node><node id="-27" lat="30.299037" lon="-97.780609" changeset="false"><tag k="addr:street" v="Kennelwood Road"/><tag k="addr:housenumber" v="3705"/><tag k="addr:postcode" v="78703"/></node><node id="-28" lat="30.298187" lon="-97.78212" changeset="false"><tag k="addr:street" v="Scenic Drive"/><tag k="addr:housenumber" v="1711"/><tag k="addr:postcode" v="78703"/></node><node id="-29" lat="30.299897" lon="-97.782339" changeset="false"><tag k="addr:street" v="Kennelwood Road"/><tag k="addr:housenumber" v="3811"/><tag k="addr:postcode" v="78703"/></node><node id="-30" lat="30.299359" lon="-97.781293" changeset="false"><tag k="addr:street" v="Kennelwood Road"/><tag k="addr:housenumber" v="3751 1/2"/><tag k="addr:postcode" v="78703"/></node><node id="-31" lat="30.299805" lon="-97.779564" changeset="false"><tag k="addr:street" v="Rockmoor Avenue"/><tag k="addr:housenumber" v="2000"/><tag k="addr:postcode" v="78703"/></node><node id="-32" lat="30.299679" lon="-97.780393" changeset="false"><tag k="addr:street" v="Meredith Street"/><tag k="addr:housenumber" v="3711"/><tag k="addr:postcode" v="78703"/></node><node id="-33" lat="30.305665" lon="-97.776628" changeset="false"><tag k="addr:street" v="Scenic Drive"/><tag k="addr:housenumber" v="2542"/><tag k="addr:postcode" v="78703"/></node><node id="-34" lat="30.299544" lon="-97.781694" changeset="false"><tag k="addr:street" v="Kennelwood Road"/><tag k="addr:housenumber" v="3805"/><tag k="addr:postcode" v="78703"/></node><node id="-35" lat="30.314018" lon="-97.76911" changeset="false"><tag k="addr:street" v="West 35th Street"/><tag k="addr:housenumber" v="3217 1/2"/><tag k="addr:postcode" v="78703"/></node><node id="-36" lat="30.297533" lon="-97.784104" changeset="false"><tag k="addr:street" v="Scenic Drive"/><tag k="addr:housenumber" v="1622"/><tag k="addr:postcode" v="78703"/></node><node id="-37" lat="30.311451" lon="-97.767662" changeset="false"><tag k="addr:street" v="Pecos Street"/><tag k="addr:housenumber" v="3318"/><tag k="addr:postcode" v="78703"/></node><node id="-38" lat="30.296431" lon="-97.782766" changeset="false"><tag k="addr:street" v="Bonnie Road"/><tag k="addr:housenumber" v="3711"/><tag k="addr:postcode" v="78703"/></node><node id="-39" lat="30.296585" lon="-97.776744" changeset="false"><tag k="addr:street" v="Schulle Avenue"/><tag k="addr:housenumber" v="1809"/><tag k="addr:postcode" v="78703"/></node><node id="-40" lat="30.296718" lon="-97.78135" changeset="false"><tag k="addr:street" v="Rockmoor Avenue"/><tag k="addr:housenumber" v="1605"/><tag k="addr:postcode" v="78703"/></node><node id="-41" lat="30.296574" lon="-97.782953" changeset="false"><tag k="addr:street" v="Bonnie Road"/><tag k="addr:housenumber" v="3715"/><tag k="addr:postcode" v="78703"/></node><node id="-42" lat="30.295494" lon="-97.781928" changeset="false"><tag k="addr:street" v="Enfield Road"/><tag k="addr:housenumber" v="3614"/><tag k="addr:postcode" v="78703"/></node><node id="-43" lat="30.304821" lon="-97.778278" changeset="false"><tag k="addr:street" v="Scenic Drive"/><tag k="addr:housenumber" v="2512 1/2"/><tag k="addr:postcode" v="78703"/></node><node id="-44" lat="30.296281" lon="-97.783511" changeset="false"><tag k="addr:street" v="Enfield Road"/><tag k="addr:housenumber" v="3716"/><tag k="addr:postcode" v="78703"/></node><node id="-45" lat="30.304089" lon="-97.779222" changeset="false"><tag k="addr:street" v="Scenic Drive"/><tag k="addr:housenumber" v="2418"/><tag k="addr:postcode" v="78703"/></node><node id="-46" lat="30.307385" lon="-97.775862" changeset="false"><tag k="addr:street" v="Scenic Drive"/><tag k="addr:housenumber" v="2608"/><tag k="addr:postcode" v="78703"/></node><node id="-47" lat="30.295354" lon="-97.780478" changeset="false"><tag k="addr:street" v="Bonnie Road"/><tag k="addr:housenumber" v="3515"/><tag k="addr:postcode" v="78703"/></node><node id="-48" lat="30.297506" lon="-97.783865" changeset="false"><tag k="addr:street" v="Scenic Drive"/><tag k="addr:housenumber" v="1600"/><tag k="addr:postcode" v="78703"/></node><node id="-49" lat="30.296605" lon="-97.783518" changeset="false"><tag k="addr:street" v="Scenic Drive"/><tag k="addr:housenumber" v="1501"/><tag k="addr:postcode" v="78703"/></node><node id="-50" lat="30.300838" lon="-97.78183" changeset="false"><tag k="addr:street" v="Scenic Drive"/><tag k="addr:housenumber" v="2000"/><tag k="addr:postcode" v="78703"/></node><node id="-51" lat="30.300687" lon="-97.78133" changeset="false"><tag k="addr:street" v="Scenic Drive"/><tag k="addr:housenumber" v="2005"/><tag k="addr:postcode" v="78703"/></node><node id="-52" lat="30.294462" lon="-97.779733" changeset="false"><tag k="addr:street" v="Enfield Road"/><tag k="addr:housenumber" v="3418"/><tag k="addr:postcode" v="78703"/></node><node id="-53" lat="30.300142" lon="-97.782408" changeset="false"><tag k="addr:street" v="Scenic Drive"/><tag k="addr:housenumber" v="1900"/><tag k="addr:postcode" v="78703"/></node><node id="-54" lat="30.312735" lon="-97.771394" changeset="false"><tag k="addr:street" v="West 35th Street"/><tag k="addr:housenumber" v="3801"/><tag k="addr:postcode" v="78703"/></node><node id="-55" lat="30.305106" lon="-97.778063" changeset="false"><tag k="addr:street" v="Scenic Drive"/><tag k="addr:housenumber" v="2512"/><tag k="addr:postcode" v="78703"/></node><node id="-56" lat="30.296606" lon="-97.780647" changeset="false"><tag k="addr:street" v="Bridle Path"/><tag k="addr:housenumber" v="3605"/><tag k="addr:postcode" v="78703"/></node><node id="-57" lat="30.298217" lon="-97.78237" changeset="false"><tag k="addr:street" v="Scenic Drive"/><tag k="addr:housenumber" v="1701"/><tag k="addr:postcode" v="78703"/></node><node id="-58" lat="30.312984" lon="-97.771576" changeset="false"><tag k="addr:street" v="West 35th Street"/><tag k="addr:housenumber" v="3805"/><tag k="addr:postcode" v="78703"/></node><node id="-59" lat="30.300345" lon="-97.775759" changeset="false"><tag k="addr:street" v="Windsor Road"/><tag k="addr:housenumber" v="3601"/><tag k="addr:postcode" v="78703"/></node><node id="-60" lat="30.310384" lon="-97.769383" changeset="false"><tag k="addr:street" v="Scenic Drive"/><tag k="addr:housenumber" v="3006"/><tag k="addr:postcode" v="78703"/></node><node id="-61" lat="30.310369" lon="-97.768675" changeset="false"><tag k="addr:street" v="Scenic Drive"/><tag k="addr:housenumber" v="3100"/><tag k="addr:postcode" v="78703"/></node><node id="-62" lat="30.30609" lon="-97.776144" changeset="false"><tag k="addr:street" v="Scenic Drive"/><tag k="addr:housenumber" v="2548"/><tag k="addr:postcode" v="78703"/></node><node id="-63" lat="30.294704" lon="-97.778243" changeset="false"><tag k="addr:street" v="Schulle Avenue"/><tag k="addr:housenumber" v="1600"/><tag k="addr:postcode" v="78703"/></node><node id="-64" lat="30.311431" lon="-97.768237" changeset="false"><tag k="addr:street" v="Warren Street"/><tag k="addr:housenumber" v="3203"/><tag k="addr:postcode" v="78703"/></node><node id="-65" lat="30.299721" lon="-97.779614" changeset="false"><tag k="addr:street" v="Meredith Street"/><tag k="addr:housenumber" v="3702"/><tag k="addr:postcode" v="78703"/></node><node id="-66" lat="30.298243" lon="-97.782039" changeset="false"><tag k="addr:street" v="Scenic Drive"/><tag k="addr:housenumber" v="1713"/><tag k="addr:postcode" v="78703"/></node><node id="-67" lat="30.299698" lon="-97.780698" changeset="false"><tag k="addr:street" v="Meredith Street"/><tag k="addr:housenumber" v="3713"/><tag k="addr:postcode" v="78703"/></node><node id="-68" lat="30.299045" lon="-97.776356" changeset="false"><tag k="addr:street" v="Stevenson Avenue"/><tag k="addr:housenumber" v="3402"/><tag k="addr:postcode" v="78703"/></node><node id="-69" lat="30.299167" lon="-97.776242" changeset="false"><tag k="addr:street" v="Schulle Avenue"/><tag k="addr:housenumber" v="2102"/><tag k="addr:postcode" v="78703"/></node><node id="-70" lat="30.294998" lon="-97.776392" changeset="false"><tag k="addr:street" v="Bridle Path"/><tag k="addr:housenumber" v="3300"/><tag k="addr:postcode" v="78703"/></node><node id="-71" lat="30.295122" lon="-97.776299" changeset="false"><tag k="addr:street" v="Pecos Street"/><tag k="addr:housenumber" v="1702"/><tag k="addr:postcode" v="78703"/></node><node id="-72" lat="30.299125" lon="-97.778544" changeset="false"><tag k="addr:street" v="Meredith Street"/><tag k="addr:housenumber" v="3600"/><tag k="addr:postcode" v="78703"/></node><node id="-73" lat="30.299189" lon="-97.778467" changeset="false"><tag k="addr:street" v="Raleigh Avenue"/><tag k="addr:housenumber" v="2000"/><tag k="addr:postcode" v="78703"/></node><node id="-74" lat="30.299357" lon="-97.780429" changeset="false"><tag k="addr:street" v="Kennelwood Road"/><tag k="addr:housenumber" v="3708"/><tag k="addr:postcode" v="78703"/></node><node id="-75" lat="30.299444" lon="-97.780515" changeset="false"><tag k="addr:street" v="Kennelwood Road"/><tag k="addr:housenumber" v="3710"/><tag k="addr:postcode" v="78703"/></node><node id="-76" lat="30.297696" lon="-97.782407" changeset="false"><tag k="addr:street" v="Bridle Path"/><tag k="addr:housenumber" v="3712"/><tag k="addr:postcode" v="78703"/></node><node id="-77" lat="30.297853" lon="-97.782617" changeset="false"><tag k="addr:street" v="Bridle Path"/><tag k="addr:housenumber" v="3718"/><tag k="addr:postcode" v="78703"/></node><node id="-78" lat="30.297802" lon="-97.782543" changeset="false"><tag k="addr:street" v="Bridle Path"/><tag k="addr:housenumber" v="3716"/><tag k="addr:postcode" v="78703"/></node><node id="-79" lat="30.297661" lon="-97.782304" changeset="false"><tag k="addr:street" v="Bridle Path"/><tag k="addr:housenumber" v="3710"/><tag k="addr:postcode" v="78703"/></node><node id="-80" lat="30.297853" lon="-97.782737" changeset="false"><tag k="addr:street" v="Bridle Path"/><tag k="addr:housenumber" v="3720"/><tag k="addr:postcode" v="78703"/></node><node id="-81" lat="30.297742" lon="-97.782477" changeset="false"><tag k="addr:street" v="Bridle Path"/><tag k="addr:housenumber" v="3714"/><tag k="addr:postcode" v="78703"/></node><node id="-82" lat="30.295335" lon="-97.777192" changeset="false"><tag k="addr:street" v="Bridle Path"/><tag k="addr:housenumber" v="3310"/><tag k="addr:postcode" v="78703"/></node><node id="-83" lat="30.29528" lon="-97.777034" changeset="false"><tag k="addr:street" v="Bridle Path"/><tag k="addr:housenumber" v="3308"/><tag k="addr:postcode" v="78703"/></node><node id="-84" lat="30.297521" lon="-97.778242" changeset="false"><tag k="addr:street" v="Clearview Drive"/><tag k="addr:housenumber" v="3503"/><tag k="addr:postcode" v="78703"/></node><node id="-85" lat="30.297439" lon="-97.778271" changeset="false"><tag k="addr:street" v="Robinhood Trail"/><tag k="addr:housenumber" v="1804"/><tag k="addr:postcode" v="78703"/></node><node id="-86" lat="30.294096" lon="-97.778901" changeset="false"><tag k="addr:street" v="Enfield Road"/><tag k="addr:housenumber" v="3402"/><tag k="addr:postcode" v="78703"/></node><node id="-87" lat="30.294063" lon="-97.778779" changeset="false"><tag k="addr:street" v="Enfield Road"/><tag k="addr:housenumber" v="3400"/><tag k="addr:postcode" v="78703"/></node><node id="-88" lat="30.294439" lon="-97.779684" changeset="false"><tag k="addr:street" v="Enfield Road"/><tag k="addr:housenumber" v="3416"/><tag k="addr:postcode" v="78703"/></node><node id="-89" lat="30.294195" lon="-97.779168" changeset="false"><tag k="addr:street" v="Enfield Road"/><tag k="addr:housenumber" v="3408"/><tag k="addr:postcode" v="78703"/></node><node id="-90" lat="30.294131" lon="-97.778999" changeset="false"><tag k="addr:street" v="Enfield Road"/><tag k="addr:housenumber" v="3404"/><tag k="addr:postcode" v="78703"/></node><node id="-91" lat="30.294163" lon="-97.779081" changeset="false"><tag k="addr:street" v="Enfield Road"/><tag k="addr:housenumber" v="3406"/><tag k="addr:postcode" v="78703"/></node><node id="-92" lat="30.294332" lon="-97.779428" changeset="false"><tag k="addr:street" v="Enfield Road"/><tag k="addr:housenumber" v="3412"/><tag k="addr:postcode" v="78703"/></node><node id="-93" lat="30.294384" lon="-97.779563" changeset="false"><tag k="addr:street" v="Enfield Road"/><tag k="addr:housenumber" v="3414"/><tag k="addr:postcode" v="78703"/></node><node id="-94" lat="30.294263" lon="-97.77928" changeset="false"><tag k="addr:street" v="Enfield Road"/><tag k="addr:housenumber" v="3410"/><tag k="addr:postcode" v="78703"/></node><node id="-95" lat="30.29684" lon="-97.781271" changeset="false"><tag k="addr:street" v="Rockmoor Avenue"/><tag k="addr:housenumber" v="1607"/><tag k="addr:postcode" v="78703"/></node><node id="-96" lat="30.296784" lon="-97.781286" changeset="false"><tag k="addr:street" v="Bridle Path"/><tag k="addr:housenumber" v="3615"/><tag k="addr:postcode" v="78703"/></node><node id="-97" lat="30.294949" lon="-97.780733" changeset="false"><tag k="addr:street" v="Enfield Road"/><tag k="addr:housenumber" v="3512"/><tag k="addr:postcode" v="78703"/></node><node id="-98" lat="30.295004" lon="-97.780871" changeset="false"><tag k="addr:street" v="Enfield Road"/><tag k="addr:housenumber" v="3514"/><tag k="addr:postcode" v="78703"/></node></osm>