<?xml version="1.0" encoding="UTF-8"?><osm version="0.6" generator="github.com/aaronlidman/osm-and-geojson"><node id="-1" lat="30.430127" lon="-97.734886" changeset="false"><tag k="addr:street" v="Riata Vista Circle"/><tag k="addr:housenumber" v="12532"/><tag k="addr:postcode" v="78727"/></node><node id="-2" lat="30.4193" lon="-97.746584" changeset="false"><tag k="addr:street" v="Research Boulevard"/><tag k="addr:housenumber" v="11707"/><tag k="addr:postcode" v="78727"/></node><node id="-3" lat="30.432203" lon="-97.73823" changeset="false"><tag k="addr:street" v="Riata Vista Circle"/><tag k="addr:housenumber" v="12565"/><tag k="addr:postcode" v="78727"/></node><node id="-4" lat="30.426738" lon="-97.748374" changeset="false"><tag k="addr:street" v="Tweed Court"/><tag k="addr:housenumber" v="12107"/><tag k="addr:postcode" v="78727"/></node><node id="-5" lat="30.425235" lon="-97.734826" changeset="false"><tag k="addr:street" v="Mustang Chase"/><tag k="addr:housenumber" v="12300"/><tag k="addr:postcode" v="78727"/></node><node id="-6" lat="30.423925" lon="-97.740905" changeset="false"><tag k="addr:street" v="Pony Chase"/><tag k="addr:housenumber" v="5403"/><tag k="addr:postcode" v="78727"/></node><node id="-7" lat="30.427863" lon="-97.745123" changeset="false"><tag k="addr:street" v="Riata Trace Parkway"/><tag k="addr:housenumber" v="12331"/><tag k="addr:postcode" v="78727"/></node><node id="-8" lat="30.428949" lon="-97.736599" changeset="false"><tag k="addr:street" v="Audane Drive"/><tag k="addr:housenumber" v="12410"/><tag k="addr:postcode" v="78727"/></node><node id="-9" lat="30.428814" lon="-97.741211" changeset="false"><tag k="addr:street" v="Riata Trace Parkway"/><tag k="addr:housenumber" v="12401"/><tag k="addr:postcode" v="78727"/></node><node id="-10" lat="30.42055" lon="-97.73968" changeset="false"><tag k="addr:street" v="Bull Run"/><tag k="addr:housenumber" v="5206"/><tag k="addr:postcode" v="78727"/></node><node id="-11" lat="30.42332" lon="-97.741795" changeset="false"><tag k="addr:street" v="Rambling Range"/><tag k="addr:housenumber" v="5400"/><tag k="addr:postcode" v="78727"/></node><node id="-12" lat="30.420761" lon="-97.74406" changeset="false"><tag k="addr:street" v="West Cow Path"/><tag k="addr:housenumber" v="11900"/><tag k="addr:postcode" v="78727"/></node><node id="-13" lat="30.428772" lon="-97.750678" changeset="false"><tag k="addr:street" v="Riata Trace Parkway"/><tag k="addr:housenumber" v="12221"/><tag k="addr:postcode" v="78727"/></node><node id="-14" lat="30.428662" lon="-97.75061" changeset="false"><tag k="addr:street" v="Riata Trace Parkway"/><tag k="addr:housenumber" v="12221 1/2"/><tag k="addr:postcode" v="78727"/></node><node id="-15" lat="30.41785" lon="-97.7314" changeset="false"><tag k="addr:street" v="Black Angus Drive"/><tag k="addr:housenumber" v="12009"/><tag k="addr:postcode" v="78727"/></node><node id="-16" lat="30.419347" lon="-97.74626" changeset="false"><tag k="addr:street" v="Duval Road"/><tag k="addr:housenumber" v="5501"/><tag k="addr:postcode" v="78727"/></node><node id="-17" lat="30.423591" lon="-97.735363" changeset="false"><tag k="addr:street" v="Branding Chase Street"/><tag k="addr:housenumber" v="5104"/><tag k="addr:postcode" v="78727"/></node><node id="-18" lat="30.423117" lon="-97.734407" changeset="false"><tag k="addr:street" v="Shetland Chase"/><tag k="addr:housenumber" v="12117"/><tag k="addr:postcode" v="78727"/></node><node id="-19" lat="30.432105" lon="-97.733409" changeset="false"><tag k="addr:street" v="Riata Vista Circle"/><tag k="addr:housenumber" v="12525"/><tag k="addr:postcode" v="78727"/></node><node id="-20" lat="30.425105" lon="-97.741867" changeset="false"><tag k="addr:street" v="Pony Chase"/><tag k="addr:housenumber" v="5410"/><tag k="addr:postcode" v="78727"/></node><node id="-21" lat="30.425142" lon="-97.749567" changeset="false"><tag k="addr:street" v="Tweed Court"/><tag k="addr:housenumber" v="12005"/><tag k="addr:postcode" v="78727"/></node><node id="-22" lat="30.433162" lon="-97.736616" changeset="false"><tag k="addr:street" v="Tercello Lane"/><tag k="addr:housenumber" v="5507"/><tag k="addr:postcode" v="78727"/></node><node id="-23" lat="30.423465" lon="-97.741132" changeset="false"><tag k="addr:street" v="West Cow Path"/><tag k="addr:housenumber" v="12014"/><tag k="addr:postcode" v="78727"/></node><node id="-24" lat="30.418295" lon="-97.730157" changeset="false"><tag k="addr:street" v="Hispania Court"/><tag k="addr:housenumber" v="12005"/><tag k="addr:postcode" v="78727"/></node><node id="-25" lat="30.429216" lon="-97.735901" changeset="false"><tag k="addr:street" v="West Cow Path"/><tag k="addr:housenumber" v="12506"/><tag k="addr:postcode" v="78727"/></node><node id="-26" lat="30.433094" lon="-97.735883" changeset="false"><tag k="addr:street" v="Tercello Lane"/><tag k="addr:housenumber" v="5501"/><tag k="addr:postcode" v="78727"/></node><node id="-27" lat="30.424526" lon="-97.74871" changeset="false"><tag k="addr:street" v="Research Boulevard"/><tag k="addr:housenumber" v="11875"/><tag k="addr:postcode" v="78727"/></node><node id="-28" lat="30.424276" lon="-97.735807" changeset="false"><tag k="addr:street" v="Mustang Chase"/><tag k="addr:housenumber" v="12202"/><tag k="addr:postcode" v="78727"/></node><node id="-29" lat="30.431114" lon="-97.733788" changeset="false"><tag k="addr:street" v="Riata Vista Circle"/><tag k="addr:housenumber" v="12538"/><tag k="addr:postcode" v="78727"/></node><node id="-30" lat="30.425616" lon="-97.730981" changeset="false"><tag k="addr:street" v="Black Angus Drive"/><tag k="addr:housenumber" v="12322"/><tag k="addr:postcode" v="78727"/></node><node id="-31" lat="30.418427" lon="-97.730984" changeset="false"><tag k="addr:street" v="Black Angus Drive"/><tag k="addr:housenumber" v="12017"/><tag k="addr:postcode" v="78727"/></node><node id="-32" lat="30.428069" lon="-97.747819" changeset="false"><tag k="addr:street" v="Riata Trace Parkway"/><tag k="addr:housenumber" v="12301"/><tag k="addr:postcode" v="78727"/></node><node id="-33" lat="30.432908" lon="-97.734543" changeset="false"><tag k="addr:street" v="Tercello Lane"/><tag k="addr:housenumber" v="5415"/><tag k="addr:postcode" v="78727"/></node><node id="-34" lat="30.431446" lon="-97.730997" changeset="false"><tag k="addr:street" v="Riata Park Court"/><tag k="addr:housenumber" v="5200"/><tag k="addr:postcode" v="78727"/></node><node id="-35" lat="30.429694" lon="-97.736581" changeset="false"><tag k="addr:street" v="Riata Vista Circle"/><tag k="addr:housenumber" v="12544"/><tag k="addr:postcode" v="78727"/></node><node id="-36" lat="30.42578" lon="-97.751008" changeset="false"><tag k="addr:street" v="Research Boulevard"/><tag k="addr:housenumber" v="12007"/><tag k="addr:postcode" v="78727"/></node><node id="-37" lat="30.425237" lon="-97.734825" changeset="false"><tag k="addr:street" v="Mustang Chase"/><tag k="addr:housenumber" v="12302"/><tag k="addr:postcode" v="78727"/></node><node id="-38" lat="30.431275" lon="-97.731256" changeset="false"><tag k="addr:street" v="Riata Park Court"/><tag k="addr:housenumber" v="5205"/><tag k="addr:postcode" v="78727"/></node><node id="-39" lat="30.42242" lon="-97.73665" changeset="false"><tag k="addr:street" v="Mustang Chase"/><tag k="addr:housenumber" v="12106"/><tag k="addr:postcode" v="78727"/></node><node id="-40" lat="30.428974" lon="-97.740932" changeset="false"><tag k="addr:street" v="Riata Trace Parkway"/><tag k="addr:housenumber" v="12403"/><tag k="addr:postcode" v="78727"/></node><node id="-41" lat="30.418101" lon="-97.7301" changeset="false"><tag k="addr:street" v="Hispania Court"/><tag k="addr:housenumber" v="12003"/><tag k="addr:postcode" v="78727"/></node><node id="-42" lat="30.431488" lon="-97.731056" changeset="false"><tag k="addr:street" v="Riata Park Court"/><tag k="addr:housenumber" v="5204"/><tag k="addr:postcode" v="78727"/></node><node id="-43" lat="30.434584" lon="-97.733346" changeset="false"><tag k="addr:street" v="West Parmer Lane"/><tag k="addr:housenumber" v="5501"/><tag k="addr:postcode" v="78727"/></node><node id="-44" lat="30.427748" lon="-97.745959" changeset="false"><tag k="addr:street" v="Riata Trace Parkway"/><tag k="addr:housenumber" v="12309"/><tag k="addr:postcode" v="78727"/></node><node id="-45" lat="30.421845" lon="-97.738324" changeset="false"><tag k="addr:street" v="Rambling Range"/><tag k="addr:housenumber" v="5204"/><tag k="addr:postcode" v="78727"/></node><node id="-46" lat="30.424112" lon="-97.741281" changeset="false"><tag k="addr:street" v="Pony Chase"/><tag k="addr:housenumber" v="5405"/><tag k="addr:postcode" v="78727"/></node><node id="-47" lat="30.435986" lon="-97.735452" changeset="false"><tag k="addr:street" v="West Parmer Lane"/><tag k="addr:housenumber" v="5505"/><tag k="addr:postcode" v="78727"/></node><node id="-48" lat="30.427837" lon="-97.743106" changeset="false"><tag k="addr:street" v="Riata Trace Parkway"/><tag k="addr:housenumber" v="12357"/><tag k="addr:postcode" v="78727"/></node><node id="-49" lat="30.430885" lon="-97.739632" changeset="false"><tag k="addr:street" v="Riata Trace Parkway"/><tag k="addr:housenumber" v="12529 1/2"/><tag k="addr:postcode" v="78727"/></node><node id="-50" lat="30.419517" lon="-97.746328" changeset="false"><tag k="addr:street" v="Research Boulevard"/><tag k="addr:housenumber" v="11705"/><tag k="addr:postcode" v="78727"/></node><node id="-51" lat="30.425861" lon="-97.751354" changeset="false"><tag k="addr:street" v="Research Boulevard"/><tag k="addr:housenumber" v="12013"/><tag k="addr:postcode" v="78727"/></node><node id="-52" lat="30.420656" lon="-97.746542" changeset="false"><tag k="addr:street" v="Research Boulevard"/><tag k="addr:housenumber" v="11755"/><tag k="addr:postcode" v="78727"/></node><node id="-53" lat="30.426989" lon="-97.747737" changeset="false"><tag k="addr:street" v="Tweed Court"/><tag k="addr:housenumber" v="12109"/><tag k="addr:postcode" v="78727"/></node><node id="-54" lat="30.428372" lon="-97.741937" changeset="false"><tag k="addr:street" v="Riata Trace Parkway"/><tag k="addr:housenumber" v="12365"/><tag k="addr:postcode" v="78727"/></node><node id="-55" lat="30.427993" lon="-97.735599" changeset="false"><tag k="addr:street" v="Deer Track"/><tag k="addr:housenumber" v="12404"/><tag k="addr:postcode" v="78727"/></node><node id="-56" lat="30.424579" lon="-97.74876" changeset="false"><tag k="addr:street" v="Research Boulevard"/><tag k="addr:housenumber" v="11879"/><tag k="addr:postcode" v="78727"/></node><node id="-57" lat="30.431819" lon="-97.732341" changeset="false"><tag k="addr:street" v="Riata Park Court"/><tag k="addr:housenumber" v="5301"/><tag k="addr:postcode" v="78727"/></node><node id="-58" lat="30.430612" lon="-97.737336" changeset="false"><tag k="addr:street" v="Riata Vista Circle"/><tag k="addr:housenumber" v="12548"/><tag k="addr:postcode" v="78727"/></node><node id="-59" lat="30.419308" lon="-97.730349" changeset="false"><tag k="addr:street" v="Black Angus Drive"/><tag k="addr:housenumber" v="12105"/><tag k="addr:postcode" v="78727"/></node><node id="-60" lat="30.427242" lon="-97.737742" changeset="false"><tag k="addr:street" v="West Cow Path"/><tag k="addr:housenumber" v="12307"/><tag k="addr:postcode" v="78727"/></node><node id="-61" lat="30.424652" lon="-97.747862" changeset="false"><tag k="addr:street" v="Conrad Road"/><tag k="addr:housenumber" v="12101 1/2"/><tag k="addr:postcode" v="78727"/></node><node id="-62" lat="30.419461" lon="-97.730292" changeset="false"><tag k="addr:street" v="Black Angus Drive"/><tag k="addr:housenumber" v="12107"/><tag k="addr:postcode" v="78727"/></node><node id="-63" lat="30.423394" lon="-97.738419" changeset="false"><tag k="addr:street" v="Pony Chase"/><tag k="addr:housenumber" v="5300"/><tag k="addr:postcode" v="78727"/></node><node id="-64" lat="30.425299" lon="-97.750209" changeset="false"><tag k="addr:street" v="Research Boulevard"/><tag k="addr:housenumber" v="12001"/><tag k="addr:postcode" v="78727"/></node><node id="-65" lat="30.424545" lon="-97.748181" changeset="false"><tag k="addr:street" v="Conrad Road"/><tag k="addr:housenumber" v="12101"/><tag k="addr:postcode" v="78727"/></node><node id="-66" lat="30.424844" lon="-97.749275" changeset="false"><tag k="addr:street" v="Research Boulevard"/><tag k="addr:housenumber" v="11919"/><tag k="addr:postcode" v="78727"/></node><node id="-67" lat="30.428612" lon="-97.735998" changeset="false"><tag k="addr:street" v="West Cow Path"/><tag k="addr:housenumber" v="12501"/><tag k="addr:postcode" v="78727"/></node><node id="-68" lat="30.426846" lon="-97.753032" changeset="false"><tag k="addr:street" v="Riata Trace Parkway"/><tag k="addr:housenumber" v="12101"/><tag k="addr:postcode" v="78727"/></node><node id="-69" lat="30.429024" lon="-97.736515" changeset="false"><tag k="addr:street" v="Audane Drive"/><tag k="addr:housenumber" v="12420"/><tag k="addr:postcode" v="78727"/></node><node id="-70" lat="30.432163" lon="-97.734955" changeset="false"><tag k="addr:street" v="Riata Vista Circle"/><tag k="addr:housenumber" v="12535"/><tag k="addr:postcode" v="78727"/></node><node id="-71" lat="30.432484" lon="-97.735908" changeset="false"><tag k="addr:street" v="Riata Vista Circle"/><tag k="addr:housenumber" v="12545"/><tag k="addr:postcode" v="78727"/></node><node id="-72" lat="30.431879" lon="-97.736698" changeset="false"><tag k="addr:street" v="Riata Vista Circle"/><tag k="addr:housenumber" v="12555"/><tag k="addr:postcode" v="78727"/></node><node id="-73" lat="30.423249" lon="-97.735612" changeset="false"><tag k="addr:street" v="Mustang Chase"/><tag k="addr:housenumber" v="12113"/><tag k="addr:postcode" v="78727"/></node><node id="-74" lat="30.423185" lon="-97.735717" changeset="false"><tag k="addr:street" v="Mustang Chase"/><tag k="addr:housenumber" v="12111"/><tag k="addr:postcode" v="78727"/></node></osm>