<?xml version="1.0" encoding="UTF-8"?><osm version="0.6" generator="github.com/aaronlidman/osm-and-geojson"><node id="-1" lat="30.430661" lon="-97.73089" changeset="false"><tag k="addr:street" v="Riata Park Court"/><tag k="addr:housenumber" v="5201"/><tag k="addr:postcode" v="78727"/></node><node id="-2" lat="30.433099" lon="-97.732048" changeset="false"><tag k="addr:street" v="Riata Park Court"/><tag k="addr:housenumber" v="5300"/><tag k="addr:postcode" v="78727"/></node><node id="-3" lat="30.425835" lon="-97.733599" changeset="false"><tag k="addr:street" v="Ponderosa Parkway"/><tag k="addr:housenumber" v="5106"/><tag k="addr:postcode" v="78727"/></node><node id="-4" lat="30.431001" lon="-97.738545" changeset="false"><tag k="addr:street" v="Riata Vista Circle"/><tag k="addr:housenumber" v="12554"/><tag k="addr:postcode" v="78727"/></node><node id="-5" lat="30.423913" lon="-97.747941" changeset="false"><tag k="addr:street" v="Research Boulevard"/><tag k="addr:housenumber" v="11855"/><tag k="addr:postcode" v="78727"/></node><node id="-6" lat="30.424267" lon="-97.748299" changeset="false"><tag k="addr:street" v="Research Boulevard"/><tag k="addr:housenumber" v="11857"/><tag k="addr:postcode" v="78727"/></node></osm>