<?xml version="1.0" encoding="UTF-8"?><osm version="0.6" generator="github.com/aaronlidman/osm-and-geojson"><node id="-1" lat="30.472607" lon="-97.80193" changeset="false"><tag k="addr:street" v="Pecan Park Boulevard"/><tag k="addr:housenumber" v="11100"/></node><node id="-2" lat="30.46736" lon="-97.803825" changeset="false"><tag k="addr:street" v="Pecan Park Boulevard"/><tag k="addr:housenumber" v="11012"/></node><node id="-3" lat="30.468361" lon="-97.802107" changeset="false"><tag k="addr:street" v="Pecan Park Boulevard"/><tag k="addr:housenumber" v="11050"/></node><node id="-4" lat="30.470559" lon="-97.806541" changeset="false"><tag k="addr:street" v="Lakeline Mall Drive"/><tag k="addr:housenumber" v="11200"/></node><node id="-5" lat="30.463281" lon="-97.81353" changeset="false"><tag k="addr:street" v="Ranch Road 620"/><tag k="addr:housenumber" v="12308"/></node><node id="-6" lat="30.46309" lon="-97.814456" changeset="false"><tag k="addr:street" v="Ranch Road 620"/><tag k="addr:housenumber" v="12304"/></node><node id="-7" lat="30.462631" lon="-97.815775" changeset="false"><tag k="addr:street" v="Ranch Road 620"/><tag k="addr:housenumber" v="12226"/></node></osm>