<?xml version="1.0" encoding="UTF-8"?><osm version="0.6" generator="github.com/aaronlidman/osm-and-geojson"><node id="-1" lat="30.273137" lon="-97.702212" changeset="false"><tag k="addr:street" v="Oak Springs Drive"/><tag k="addr:housenumber" v="2810 1/2"/><tag k="addr:postcode" v="78702"/></node><node id="-2" lat="30.276447" lon="-97.70221" changeset="false"><tag k="addr:street" v="East 12th Street"/><tag k="addr:housenumber" v="3101"/><tag k="addr:postcode" v="78702"/></node><node id="-3" lat="30.275024" lon="-97.70445" changeset="false"><tag k="addr:street" v="Sol Wilson Avenue"/><tag k="addr:housenumber" v="2613"/><tag k="addr:postcode" v="78702"/></node><node id="-4" lat="30.27489" lon="-97.702419" changeset="false"><tag k="addr:street" v="Harvey Street"/><tag k="addr:housenumber" v="1184"/><tag k="addr:postcode" v="78702"/></node><node id="-5" lat="30.276386" lon="-97.70129" changeset="false"><tag k="addr:street" v="East 12th Street"/><tag k="addr:housenumber" v="3125 1/2"/><tag k="addr:postcode" v="78702"/></node><node id="-6" lat="30.274525" lon="-97.708157" changeset="false"><tag k="addr:street" v="Hargrave Street"/><tag k="addr:housenumber" v="1185 3/4"/><tag k="addr:postcode" v="78702"/></node><node id="-7" lat="30.274246" lon="-97.706819" changeset="false"><tag k="addr:street" v="Sol Wilson Avenue"/><tag k="addr:housenumber" v="2521"/><tag k="addr:postcode" v="78702"/></node><node id="-8" lat="30.274538" lon="-97.706629" changeset="false"><tag k="addr:street" v="Sol Wilson Avenue"/><tag k="addr:housenumber" v="2529"/><tag k="addr:postcode" v="78702"/></node><node id="-9" lat="30.274979" lon="-97.707869" changeset="false"><tag k="addr:street" v="Hargrave Street"/><tag k="addr:housenumber" v="1191"/><tag k="addr:postcode" v="78702"/></node><node id="-10" lat="30.272742" lon="-97.704385" changeset="false"><tag k="addr:street" v="Oak Springs Drive"/><tag k="addr:housenumber" v="2708"/><tag k="addr:postcode" v="78702"/></node><node id="-11" lat="30.276421" lon="-97.70237" changeset="false"><tag k="addr:street" v="East 12th Street"/><tag k="addr:housenumber" v="3021"/><tag k="addr:postcode" v="78702"/></node><node id="-12" lat="30.276136" lon="-97.700225" changeset="false"><tag k="addr:street" v="Airport Boulevard"/><tag k="addr:housenumber" v="1192"/><tag k="addr:postcode" v="78702"/></node><node id="-13" lat="30.275687" lon="-97.7034" changeset="false"><tag k="addr:street" v="Oak Grove Avenue"/><tag k="addr:housenumber" v="1195"/><tag k="addr:postcode" v="78702"/></node><node id="-14" lat="30.273602" lon="-97.702437" changeset="false"><tag k="addr:street" v="Crest Avenue"/><tag k="addr:housenumber" v="2811"/><tag k="addr:postcode" v="78702"/></node><node id="-15" lat="30.275144" lon="-97.702648" changeset="false"><tag k="addr:street" v="Harvey Street"/><tag k="addr:housenumber" v="1188"/><tag k="addr:postcode" v="78702"/></node><node id="-16" lat="30.276459" lon="-97.702057" changeset="false"><tag k="addr:street" v="East 12th Street"/><tag k="addr:housenumber" v="3107"/><tag k="addr:postcode" v="78702"/></node><node id="-17" lat="30.274752" lon="-97.707833" changeset="false"><tag k="addr:street" v="Hargrave Street"/><tag k="addr:housenumber" v="1189"/><tag k="addr:postcode" v="78702"/></node><node id="-18" lat="30.27339" lon="-97.703715" changeset="false"><tag k="addr:street" v="Crest Avenue"/><tag k="addr:housenumber" v="2707"/><tag k="addr:postcode" v="78702"/></node><node id="-19" lat="30.273187" lon="-97.704759" changeset="false"><tag k="addr:street" v="Ridgeway Drive"/><tag k="addr:housenumber" v="1164"/><tag k="addr:postcode" v="78702"/></node><node id="-20" lat="30.272656" lon="-97.707279" changeset="false"><tag k="addr:street" v="Rosewood Avenue"/><tag k="addr:housenumber" v="2510"/><tag k="addr:postcode" v="78702"/></node><node id="-21" lat="30.273864" lon="-97.703159" changeset="false"><tag k="addr:street" v="Crest Avenue"/><tag k="addr:housenumber" v="2802"/><tag k="addr:postcode" v="78702"/></node><node id="-22" lat="30.275041" lon="-97.70251" changeset="false"><tag k="addr:street" v="Harvey Street"/><tag k="addr:housenumber" v="1186"/><tag k="addr:postcode" v="78702"/></node><node id="-23" lat="30.275774" lon="-97.706287" changeset="false"><tag k="addr:street" v="East 12th Street"/><tag k="addr:housenumber" v="2917"/><tag k="addr:postcode" v="78702"/></node><node id="-24" lat="30.276436" lon="-97.702448" changeset="false"><tag k="addr:street" v="East 12th Street"/><tag k="addr:housenumber" v="3019"/><tag k="addr:postcode" v="78702"/></node><node id="-25" lat="30.273387" lon="-97.704043" changeset="false"><tag k="addr:street" v="Crest Avenue"/><tag k="addr:housenumber" v="2703"/><tag k="addr:postcode" v="78702"/></node><node id="-26" lat="30.273529" lon="-97.708723" changeset="false"><tag k="addr:street" v="Hargrave Street"/><tag k="addr:housenumber" v="1177"/><tag k="addr:postcode" v="78702"/></node><node id="-27" lat="30.275804" lon="-97.705747" changeset="false"><tag k="addr:street" v="East 12th Street"/><tag k="addr:housenumber" v="2923"/><tag k="addr:postcode" v="78702"/></node><node id="-28" lat="30.276271" lon="-97.703044" changeset="false"><tag k="addr:street" v="East 12th Street"/><tag k="addr:housenumber" v="3005"/><tag k="addr:postcode" v="78702"/></node><node id="-29" lat="30.273177" lon="-97.702234" changeset="false"><tag k="addr:street" v="Oak Springs Drive"/><tag k="addr:housenumber" v="2810"/><tag k="addr:postcode" v="78702"/></node><node id="-30" lat="30.274565" lon="-97.698682" changeset="false"><tag k="addr:street" v="Airport Boulevard"/><tag k="addr:housenumber" v="1170"/><tag k="addr:postcode" v="78702"/></node><node id="-31" lat="30.271679" lon="-97.709887" changeset="false"><tag k="addr:street" v="Rosewood Avenue"/><tag k="addr:housenumber" v="2400"/><tag k="addr:postcode" v="78702"/></node><node id="-32" lat="30.273138" lon="-97.708698" changeset="false"><tag k="addr:street" v="Sol Wilson Avenue"/><tag k="addr:housenumber" v="2412"/><tag k="addr:postcode" v="78702"/></node><node id="-33" lat="30.275344" lon="-97.707578" changeset="false"><tag k="addr:street" v="Hargrave Street"/><tag k="addr:housenumber" v="1195"/><tag k="addr:postcode" v="78702"/></node><node id="-34" lat="30.276481" lon="-97.701324" changeset="false"><tag k="addr:street" v="East 12th Street"/><tag k="addr:housenumber" v="3125"/><tag k="addr:postcode" v="78702"/></node><node id="-35" lat="30.272758" lon="-97.706876" changeset="false"><tag k="addr:street" v="Rosewood Avenue"/><tag k="addr:housenumber" v="2518"/><tag k="addr:postcode" v="78702"/></node><node id="-36" lat="30.274597" lon="-97.708" changeset="false"><tag k="addr:street" v="Hargrave Street"/><tag k="addr:housenumber" v="1187"/><tag k="addr:postcode" v="78702"/></node><node id="-37" lat="30.274764" lon="-97.702889" changeset="false"><tag k="addr:street" v="Oak Grove Avenue"/><tag k="addr:housenumber" v="1183"/><tag k="addr:postcode" v="78702"/></node><node id="-38" lat="30.272663" lon="-97.706689" changeset="false"><tag k="addr:street" v="Rosewood Avenue"/><tag k="addr:housenumber" v="2522"/><tag k="addr:postcode" v="78702"/></node><node id="-39" lat="30.272655" lon="-97.706529" changeset="false"><tag k="addr:street" v="Rosewood Avenue"/><tag k="addr:housenumber" v="2526"/><tag k="addr:postcode" v="78702"/></node><node id="-40" lat="30.275105" lon="-97.706362" changeset="false"><tag k="addr:street" v="Sol Wilson Avenue"/><tag k="addr:housenumber" v="2538"/><tag k="addr:postcode" v="78702"/></node><node id="-41" lat="30.27652" lon="-97.701681" changeset="false"><tag k="addr:street" v="East 12th Street"/><tag k="addr:housenumber" v="3117"/><tag k="addr:postcode" v="78702"/></node><node id="-42" lat="30.273916" lon="-97.707963" changeset="false"><tag k="addr:street" v="Bedford Street"/><tag k="addr:housenumber" v="1182"/><tag k="addr:postcode" v="78702"/></node><node id="-43" lat="30.274416" lon="-97.706719" changeset="false"><tag k="addr:street" v="Sol Wilson Avenue"/><tag k="addr:housenumber" v="2525"/><tag k="addr:postcode" v="78702"/></node><node id="-44" lat="30.273643" lon="-97.702634" changeset="false"><tag k="addr:street" v="Crest Avenue"/><tag k="addr:housenumber" v="2809"/><tag k="addr:postcode" v="78702"/></node><node id="-45" lat="30.276496" lon="-97.701873" changeset="false"><tag k="addr:street" v="East 12th Street"/><tag k="addr:housenumber" v="3111"/><tag k="addr:postcode" v="78702"/></node><node id="-46" lat="30.273244" lon="-97.701744" changeset="false"><tag k="addr:street" v="Oak Springs Drive"/><tag k="addr:housenumber" v="2816"/><tag k="addr:postcode" v="78702"/></node><node id="-47" lat="30.276426" lon="-97.702639" changeset="false"><tag k="addr:street" v="East 12th Street"/><tag k="addr:housenumber" v="3009"/><tag k="addr:postcode" v="78702"/></node><node id="-48" lat="30.274322" lon="-97.705406" changeset="false"><tag k="addr:street" v="Pandora Street"/><tag k="addr:housenumber" v="1183"/><tag k="addr:postcode" v="78702"/></node><node id="-49" lat="30.275793" lon="-97.700004" changeset="false"><tag k="addr:street" v="Airport Boulevard"/><tag k="addr:housenumber" v="1188"/><tag k="addr:postcode" v="78702"/></node><node id="-50" lat="30.2763" lon="-97.70284" changeset="false"><tag k="addr:street" v="East 12th Street"/><tag k="addr:housenumber" v="3007"/><tag k="addr:postcode" v="78702"/></node><node id="-51" lat="30.272631" lon="-97.707399" changeset="false"><tag k="addr:street" v="Rosewood Avenue"/><tag k="addr:housenumber" v="2508"/><tag k="addr:postcode" v="78702"/></node><node id="-52" lat="30.273509" lon="-97.703406" changeset="false"><tag k="addr:street" v="Crest Avenue"/><tag k="addr:housenumber" v="2711"/><tag k="addr:postcode" v="78702"/></node><node id="-53" lat="30.272582" lon="-97.705354" changeset="false"><tag k="addr:street" v="Rosewood Avenue"/><tag k="addr:housenumber" v="2606"/><tag k="addr:postcode" v="78702"/></node><node id="-54" lat="30.273751" lon="-97.702317" changeset="false"><tag k="addr:street" v="Crest Avenue"/><tag k="addr:housenumber" v="2813"/><tag k="addr:postcode" v="78702"/></node><node id="-55" lat="30.276216" lon="-97.703325" changeset="false"><tag k="addr:street" v="East 12th Street"/><tag k="addr:housenumber" v="3001"/><tag k="addr:postcode" v="78702"/></node><node id="-56" lat="30.276063" lon="-97.704174" changeset="false"><tag k="addr:street" v="East 12th Street"/><tag k="addr:housenumber" v="2943"/><tag k="addr:postcode" v="78702"/></node><node id="-57" lat="30.275698" lon="-97.703698" changeset="false"><tag k="addr:street" v="Sol Wilson Avenue"/><tag k="addr:housenumber" v="2706"/><tag k="addr:postcode" v="78702"/></node><node id="-58" lat="30.273806" lon="-97.703648" changeset="false"><tag k="addr:street" v="Crest Avenue"/><tag k="addr:housenumber" v="2704"/><tag k="addr:postcode" v="78702"/></node><node id="-59" lat="30.273678" lon="-97.698023" changeset="false"><tag k="addr:street" v="Oak Springs Drive"/><tag k="addr:housenumber" v="3200"/><tag k="addr:postcode" v="78702"/></node><node id="-60" lat="30.272707" lon="-97.704548" changeset="false"><tag k="addr:street" v="Ridgeway Drive"/><tag k="addr:housenumber" v="1161"/><tag k="addr:postcode" v="78702"/></node><node id="-61" lat="30.272863" lon="-97.707194" changeset="false"><tag k="addr:street" v="Sol Wilson Avenue"/><tag k="addr:housenumber" v="2513"/><tag k="addr:postcode" v="78702"/></node><node id="-62" lat="30.272797" lon="-97.704888" changeset="false"><tag k="addr:street" v="Ridgeway Drive"/><tag k="addr:housenumber" v="1158"/><tag k="addr:postcode" v="78702"/></node><node id="-63" lat="30.272901" lon="-97.707305" changeset="false"><tag k="addr:street" v="Sol Wilson Avenue"/><tag k="addr:housenumber" v="2511"/><tag k="addr:postcode" v="78702"/></node><node id="-64" lat="30.275959" lon="-97.704993" changeset="false"><tag k="addr:street" v="East 12th Street"/><tag k="addr:housenumber" v="2931"/><tag k="addr:postcode" v="78702"/></node><node id="-65" lat="30.275973" lon="-97.704881" changeset="false"><tag k="addr:street" v="East 12th Street"/><tag k="addr:housenumber" v="2933"/><tag k="addr:postcode" v="78702"/></node><node id="-66" lat="30.273767" lon="-97.698405" changeset="false"><tag k="addr:street" v="Airport Boulevard"/><tag k="addr:housenumber" v="1150"/><tag k="addr:postcode" v="78702"/></node><node id="-67" lat="30.273747" lon="-97.698421" changeset="false"><tag k="addr:street" v="Airport Boulevard"/><tag k="addr:housenumber" v="1156"/><tag k="addr:postcode" v="78702"/></node><node id="-68" lat="30.272902" lon="-97.709074" changeset="false"><tag k="addr:street" v="Hargrave Street"/><tag k="addr:housenumber" v="1169"/><tag k="addr:postcode" v="78702"/></node><node id="-69" lat="30.272141" lon="-97.709125" changeset="false"><tag k="addr:street" v="Rosewood Avenue"/><tag k="addr:housenumber" v="2406"/><tag k="addr:postcode" v="78702"/></node></osm>