<?xml version="1.0" encoding="UTF-8"?><osm version="0.6" generator="github.com/aaronlidman/osm-and-geojson"><node id="-1" lat="30.429421" lon="-97.703549" changeset="false"><tag k="addr:street" v="Del Robles Drive"/><tag k="addr:housenumber" v="3400"/><tag k="addr:postcode" v="78727"/></node><node id="-2" lat="30.427598" lon="-97.706348" changeset="false"><tag k="addr:street" v="Oak Creek Drive"/><tag k="addr:housenumber" v="3509"/><tag k="addr:postcode" v="78727"/></node><node id="-3" lat="30.421123" lon="-97.704628" changeset="false"><tag k="addr:street" v="North MoPac Expressway"/><tag k="addr:housenumber" v="12502"/><tag k="addr:postcode" v="78727"/></node><node id="-4" lat="30.433214" lon="-97.713295" changeset="false"><tag k="addr:street" v="Secluded Hollow"/><tag k="addr:housenumber" v="4417"/><tag k="addr:postcode" v="78727"/></node><node id="-5" lat="30.432334" lon="-97.707095" changeset="false"><tag k="addr:street" v="Hidden Estates"/><tag k="addr:housenumber" v="3801"/><tag k="addr:postcode" v="78727"/></node><node id="-6" lat="30.427289" lon="-97.703463" changeset="false"><tag k="addr:street" v="Oak Creek Drive"/><tag k="addr:housenumber" v="3110"/><tag k="addr:postcode" v="78727"/></node><node id="-7" lat="30.428589" lon="-97.710375" changeset="false"><tag k="addr:street" v="Oak Creek Drive"/><tag k="addr:housenumber" v="3807"/><tag k="addr:postcode" v="78727"/></node><node id="-8" lat="30.426351" lon="-97.709114" changeset="false"><tag k="addr:street" v="Lovage Drive"/><tag k="addr:housenumber" v="3616"/><tag k="addr:postcode" v="78727"/></node><node id="-9" lat="30.435308" lon="-97.709544" changeset="false"><tag k="addr:street" v="Mark Rae Street"/><tag k="addr:housenumber" v="4109"/><tag k="addr:postcode" v="78727"/></node><node id="-10" lat="30.43259" lon="-97.70516" changeset="false"><tag k="addr:street" v="El Camino Road"/><tag k="addr:housenumber" v="13205"/><tag k="addr:postcode" v="78727"/></node><node id="-11" lat="30.429257" lon="-97.709666" changeset="false"><tag k="addr:street" v="Woodchester Lane"/><tag k="addr:housenumber" v="3811"/><tag k="addr:postcode" v="78727"/></node><node id="-12" lat="30.440017" lon="-97.699512" changeset="false"><tag k="addr:street" v="West Howard Lane"/><tag k="addr:housenumber" v="3705"/><tag k="addr:postcode" v="78727"/></node><node id="-13" lat="30.427555" lon="-97.706465" changeset="false"><tag k="addr:street" v="Oak Creek Drive"/><tag k="addr:housenumber" v="3511 1/2"/><tag k="addr:postcode" v="78727"/></node><node id="-14" lat="30.434668" lon="-97.705586" changeset="false"><tag k="addr:street" v="Mc Neil Drive"/><tag k="addr:housenumber" v="3804"/><tag k="addr:postcode" v="78727"/></node><node id="-15" lat="30.426622" lon="-97.703717" changeset="false"><tag k="addr:street" v="Oak Creek Drive"/><tag k="addr:housenumber" v="3204"/><tag k="addr:postcode" v="78727"/></node><node id="-16" lat="30.432907" lon="-97.706205" changeset="false"><tag k="addr:street" v="Hidden Estates"/><tag k="addr:housenumber" v="3706"/><tag k="addr:postcode" v="78727"/></node><node id="-17" lat="30.426473" lon="-97.703287" changeset="false"><tag k="addr:street" v="Oak Creek Drive"/><tag k="addr:housenumber" v="3108"/><tag k="addr:postcode" v="78727"/></node><node id="-18" lat="30.435331" lon="-97.707893" changeset="false"><tag k="addr:street" v="Mc Neil Drive"/><tag k="addr:housenumber" v="4000 1/2"/><tag k="addr:postcode" v="78727"/></node><node id="-19" lat="30.441112" lon="-97.707445" changeset="false"><tag k="addr:street" v="Mc Neil Drive"/><tag k="addr:housenumber" v="4300"/><tag k="addr:postcode" v="78727"/></node><node id="-20" lat="30.429541" lon="-97.705322" changeset="false"><tag k="addr:street" v="Del Robles Drive"/><tag k="addr:housenumber" v="3603"/><tag k="addr:postcode" v="78727"/></node><node id="-21" lat="30.426183" lon="-97.703691" changeset="false"><tag k="addr:street" v="Oak Creek Drive"/><tag k="addr:housenumber" v="3107"/><tag k="addr:postcode" v="78727"/></node><node id="-22" lat="30.432954" lon="-97.703251" changeset="false"><tag k="addr:street" v="Mc Neil Drive"/><tag k="addr:housenumber" v="3601"/><tag k="addr:postcode" v="78727"/></node><node id="-23" lat="30.426323" lon="-97.704998" changeset="false"><tag k="addr:street" v="Oak Creek Drive"/><tag k="addr:housenumber" v="3401"/><tag k="addr:postcode" v="78727"/></node><node id="-24" lat="30.429617" lon="-97.711516" changeset="false"><tag k="addr:street" v="Oak Creek Drive"/><tag k="addr:housenumber" v="4000"/><tag k="addr:postcode" v="78727"/></node><node id="-25" lat="30.426567" lon="-97.704499" changeset="false"><tag k="addr:street" v="Oak Creek Drive"/><tag k="addr:housenumber" v="3303"/><tag k="addr:postcode" v="78727"/></node><node id="-26" lat="30.426517" lon="-97.70437" changeset="false"><tag k="addr:street" v="Oak Creek Drive"/><tag k="addr:housenumber" v="3301"/><tag k="addr:postcode" v="78727"/></node><node id="-27" lat="30.434157" lon="-97.704571" changeset="false"><tag k="addr:street" v="Mc Neil Drive"/><tag k="addr:housenumber" v="3800"/><tag k="addr:postcode" v="78727"/></node><node id="-28" lat="30.434322" lon="-97.710182" changeset="false"><tag k="addr:street" v="Gene Allan Road"/><tag k="addr:housenumber" v="13213"/><tag k="addr:postcode" v="78727"/></node><node id="-29" lat="30.437925" lon="-97.70789" changeset="false"><tag k="addr:street" v="Mc Neil Drive"/><tag k="addr:housenumber" v="4156 1/2"/><tag k="addr:postcode" v="78727"/></node><node id="-30" lat="30.428877" lon="-97.71072" changeset="false"><tag k="addr:street" v="Oak Creek Drive"/><tag k="addr:housenumber" v="3903"/><tag k="addr:postcode" v="78727"/></node><node id="-31" lat="30.427254" lon="-97.707265" changeset="false"><tag k="addr:street" v="Oak Creek Drive"/><tag k="addr:housenumber" v="3603"/><tag k="addr:postcode" v="78727"/></node><node id="-32" lat="30.431042" lon="-97.704759" changeset="false"><tag k="addr:street" v="El Camino Road"/><tag k="addr:housenumber" v="13005"/><tag k="addr:postcode" v="78727"/></node><node id="-33" lat="30.426005" lon="-97.702919" changeset="false"><tag k="addr:street" v="Oak Creek Drive"/><tag k="addr:housenumber" v="3001"/><tag k="addr:postcode" v="78727"/></node><node id="-34" lat="30.433854" lon="-97.703833" changeset="false"><tag k="addr:street" v="Mc Neil Drive"/><tag k="addr:housenumber" v="3606"/><tag k="addr:postcode" v="78727"/></node><node id="-35" lat="30.432701" lon="-97.704529" changeset="false"><tag k="addr:street" v="El Camino Road"/><tag k="addr:housenumber" v="13213"/><tag k="addr:postcode" v="78727"/></node><node id="-36" lat="30.433638" lon="-97.709824" changeset="false"><tag k="addr:street" v="Gene Allan Road"/><tag k="addr:housenumber" v="13303"/><tag k="addr:postcode" v="78727"/></node><node id="-37" lat="30.426315" lon="-97.709011" changeset="false"><tag k="addr:street" v="Timberside Drive"/><tag k="addr:housenumber" v="12801"/><tag k="addr:postcode" v="78727"/></node><node id="-38" lat="30.426387" lon="-97.708593" changeset="false"><tag k="addr:street" v="Timberside Drive"/><tag k="addr:housenumber" v="12721"/><tag k="addr:postcode" v="78727"/></node><node id="-39" lat="30.42753" lon="-97.70504" changeset="false"><tag k="addr:street" v="Oak Creek Drive"/><tag k="addr:housenumber" v="3400"/><tag k="addr:postcode" v="78727"/></node><node id="-40" lat="30.432085" lon="-97.705811" changeset="false"><tag k="addr:street" v="Hidden Estates"/><tag k="addr:housenumber" v="3701"/><tag k="addr:postcode" v="78727"/></node><node id="-41" lat="30.441084" lon="-97.707591" changeset="false"><tag k="addr:street" v="Mc Neil Drive"/><tag k="addr:housenumber" v="4300 1/2"/><tag k="addr:postcode" v="78727"/></node><node id="-42" lat="30.430298" lon="-97.707107" changeset="false"><tag k="addr:street" v="Del Robles Drive"/><tag k="addr:housenumber" v="3701"/><tag k="addr:postcode" v="78727"/></node><node id="-43" lat="30.432995" lon="-97.710814" changeset="false"><tag k="addr:street" v="Del Robles Drive"/><tag k="addr:housenumber" v="4100"/><tag k="addr:postcode" v="78727"/></node><node id="-44" lat="30.429159" lon="-97.707824" changeset="false"><tag k="addr:street" v="Trailwood Road"/><tag k="addr:housenumber" v="12906"/><tag k="addr:postcode" v="78727"/></node><node id="-45" lat="30.44726" lon="-97.7157" changeset="false"><tag k="addr:street" v="West Howard Lane"/><tag k="addr:housenumber" v="5001 1/2"/><tag k="addr:postcode" v="78727"/></node><node id="-46" lat="30.435699" lon="-97.708789" changeset="false"><tag k="addr:street" v="Mark Rae Street"/><tag k="addr:housenumber" v="4110"/><tag k="addr:postcode" v="78727"/></node><node id="-47" lat="30.429515" lon="-97.706301" changeset="false"><tag k="addr:street" v="Del Robles Drive"/><tag k="addr:housenumber" v="3607"/><tag k="addr:postcode" v="78727"/></node><node id="-48" lat="30.428796" lon="-97.708106" changeset="false"><tag k="addr:street" v="Woodchester Lane"/><tag k="addr:housenumber" v="3700"/><tag k="addr:postcode" v="78727"/></node><node id="-49" lat="30.44495" lon="-97.712413" changeset="false"><tag k="addr:street" v="West Howard Lane"/><tag k="addr:housenumber" v="4811 1/2"/><tag k="addr:postcode" v="78727"/></node><node id="-50" lat="30.432241" lon="-97.705287" changeset="false"><tag k="addr:street" v="El Camino Road"/><tag k="addr:housenumber" v="13201"/><tag k="addr:postcode" v="78727"/></node><node id="-51" lat="30.43049" lon="-97.711224" changeset="false"><tag k="addr:street" v="Oak Bend Drive"/><tag k="addr:housenumber" v="12908"/><tag k="addr:postcode" v="78727"/></node><node id="-52" lat="30.428894" lon="-97.708076" changeset="false"><tag k="addr:street" v="Trailwood Road"/><tag k="addr:housenumber" v="12910"/><tag k="addr:postcode" v="78727"/></node><node id="-53" lat="30.429174" lon="-97.709671" changeset="false"><tag k="addr:street" v="Woodchester Lane"/><tag k="addr:housenumber" v="3803"/><tag k="addr:postcode" v="78727"/></node></osm>