<?xml version="1.0" encoding="UTF-8"?><osm version="0.6" generator="github.com/aaronlidman/osm-and-geojson"><node id="-1" lat="30.440726" lon="-97.665125" changeset="false"><tag k="addr:street" v="Wells Branch Parkway"/><tag k="addr:housenumber" v="1433"/><tag k="coa:place_id" v="1118273"/></node><node id="-2" lat="30.416236" lon="-97.655332" changeset="false"><tag k="addr:street" v="Lampting Drive"/><tag k="addr:housenumber" v="13708"/><tag k="coa:place_id" v="145818"/></node><node id="-3" lat="30.418117" lon="-97.65468" changeset="false"><tag k="addr:street" v="Randalstone Drive"/><tag k="addr:housenumber" v="13804"/><tag k="coa:place_id" v="161422"/></node><node id="-4" lat="30.422998" lon="-97.657675" changeset="false"><tag k="addr:street" v="Golden Flax Trail"/><tag k="addr:housenumber" v="14041"/><tag k="coa:place_id" v="212490"/></node><node id="-5" lat="30.422661" lon="-97.658377" changeset="false"><tag k="addr:street" v="Golden Flax Trail"/><tag k="addr:housenumber" v="14026"/><tag k="coa:place_id" v="212479"/></node><node id="-6" lat="30.438121" lon="-97.660371" changeset="false"><tag k="addr:street" v="Wells Branch Parkway"/><tag k="addr:housenumber" v="1205"/><tag k="coa:place_id" v="86940"/></node><node id="-7" lat="30.418988" lon="-97.65621" changeset="false"><tag k="addr:street" v="Wild Senna Drive,1100"/><tag k="addr:housenumber" v="315"/><tag k="coa:place_id" v="199237"/></node><node id="-8" lat="30.419765" lon="-97.660866" changeset="false"><tag k="addr:street" v="West Howard Lane"/><tag k="addr:housenumber" v="500"/><tag k="coa:place_id" v="1100707"/></node><node id="-9" lat="30.41883" lon="-97.656811" changeset="false"><tag k="addr:street" v="Segovia Way"/><tag k="addr:housenumber" v="152"/><tag k="coa:place_id" v="199233"/></node><node id="-10" lat="30.418005" lon="-97.656146" changeset="false"><tag k="addr:street" v="Segovia Way"/><tag k="addr:housenumber" v="217"/><tag k="coa:place_id" v="199225"/></node><node id="-11" lat="30.421742" lon="-97.658255" changeset="false"><tag k="addr:street" v="Golden Flax Trail"/><tag k="addr:housenumber" v="14001"/><tag k="coa:place_id" v="214307"/></node><node id="-12" lat="30.421029" lon="-97.656357" changeset="false"><tag k="addr:street" v="Wild Senna Drive,1100"/><tag k="addr:housenumber" v="104"/><tag k="coa:place_id" v="195233"/></node><node id="-13" lat="30.420495" lon="-97.659763" changeset="false"><tag k="addr:street" v="Golden Flax Trail"/><tag k="addr:housenumber" v="13800"/><tag k="coa:place_id" v="1102083"/></node><node id="-14" lat="30.422447" lon="-97.658541" changeset="false"><tag k="addr:street" v="Golden Flax Trail"/><tag k="addr:housenumber" v="14018"/><tag k="coa:place_id" v="212477"/></node><node id="-15" lat="30.430092" lon="-97.662931" changeset="false"><tag k="addr:street" v="Lake Victor Drive"/><tag k="addr:housenumber" v="14408"/><tag k="coa:place_id" v="3415123"/></node><node id="-16" lat="30.430619" lon="-97.659589" changeset="false"><tag k="addr:street" v="Oatmeal Drive"/><tag k="addr:housenumber" v="832"/><tag k="coa:place_id" v="3432144"/></node><node id="-17" lat="30.430259" lon="-97.660653" changeset="false"><tag k="addr:street" v="Bethel Way"/><tag k="addr:housenumber" v="900"/><tag k="coa:place_id" v="3413759"/></node><node id="-18" lat="30.430332" lon="-97.65964" changeset="false"><tag k="addr:street" v="Oatmeal Drive"/><tag k="addr:housenumber" v="829"/><tag k="coa:place_id" v="3432135"/></node><node id="-19" lat="30.430468" lon="-97.65992" changeset="false"><tag k="addr:street" v="Oatmeal Drive"/><tag k="addr:housenumber" v="837"/><tag k="coa:place_id" v="3432137"/></node><node id="-20" lat="30.429461" lon="-97.661564" changeset="false"><tag k="addr:street" v="Watson Way"/><tag k="addr:housenumber" v="913"/><tag k="coa:place_id" v="3325406"/></node><node id="-21" lat="30.421318" lon="-97.66021" changeset="false"><tag k="addr:street" v="South Heatherwilde Boulevard"/><tag k="addr:housenumber" v="2700"/><tag k="coa:place_id" v="3388588"/></node><node id="-22" lat="30.429297" lon="-97.646778" changeset="false"><tag k="addr:street" v="Wells Branch Parkway"/><tag k="addr:housenumber" v="400"/><tag k="coa:place_id" v="3388600"/></node><node id="-23" lat="30.429153" lon="-97.658919" changeset="false"><tag k="addr:street" v="Naruna Way"/><tag k="addr:housenumber" v="14517"/><tag k="coa:place_id" v="3325351"/></node><node id="-24" lat="30.428049" lon="-97.662407" changeset="false"><tag k="addr:street" v="Lake Victor Drive"/><tag k="addr:housenumber" v="14212"/><tag k="coa:place_id" v="3296518"/></node><node id="-25" lat="30.429332" lon="-97.661266" changeset="false"><tag k="addr:street" v="Watson Way"/><tag k="addr:housenumber" v="905"/><tag k="coa:place_id" v="3325404"/></node><node id="-26" lat="30.431973" lon="-97.668996" changeset="false"><tag k="addr:street" v="North Interstate Highway 35 Service Road"/><tag k="addr:housenumber" v="14201"/><tag k="coa:place_id" v="5217219"/></node><node id="-27" lat="30.428581" lon="-97.662545" changeset="false"><tag k="addr:street" v="Lake Victor Drive"/><tag k="addr:housenumber" v="14228"/><tag k="coa:place_id" v="3296522"/></node><node id="-28" lat="30.428735" lon="-97.660117" changeset="false"><tag k="addr:street" v="Watson Way"/><tag k="addr:housenumber" v="813"/><tag k="coa:place_id" v="3325378"/></node><node id="-29" lat="30.429939" lon="-97.66291" changeset="false"><tag k="addr:street" v="Lake Victor Drive"/><tag k="addr:housenumber" v="14404"/><tag k="coa:place_id" v="3325391"/></node><node id="-30" lat="30.432699" lon="-97.663183" changeset="false"><tag k="addr:street" v="Lake Victor Drive"/><tag k="addr:housenumber" v="14705"/><tag k="coa:place_id" v="3528406"/></node><node id="-31" lat="30.431165" lon="-97.659695" changeset="false"><tag k="addr:street" v="Fairland Drive"/><tag k="addr:housenumber" v="14713"/><tag k="coa:place_id" v="3528438"/></node><node id="-32" lat="30.431253" lon="-97.660914" changeset="false"><tag k="addr:street" v="Oatmeal Drive"/><tag k="addr:housenumber" v="920"/><tag k="coa:place_id" v="3432175"/></node><node id="-33" lat="30.431456" lon="-97.661329" changeset="false"><tag k="addr:street" v="Oatmeal Drive"/><tag k="addr:housenumber" v="932"/><tag k="coa:place_id" v="3432178"/></node><node id="-34" lat="30.418524" lon="-97.654782" changeset="false"><tag k="addr:street" v="Lampting Drive"/><tag k="addr:housenumber" v="13809"/><tag k="coa:place_id" v="161395"/></node><node id="-35" lat="30.420007" lon="-97.660104" changeset="false"><tag k="addr:street" v="Golden Flax Trail"/><tag k="addr:housenumber" v="13712"/><tag k="coa:place_id" v="1102079"/></node><node id="-36" lat="30.41802" lon="-97.65476" changeset="false"><tag k="addr:street" v="Randalstone Drive"/><tag k="addr:housenumber" v="13802"/><tag k="coa:place_id" v="161419"/></node><node id="-37" lat="30.412687" lon="-97.650049" changeset="false"><tag k="addr:street" v="Merseyside Drive"/><tag k="addr:housenumber" v="13616"/><tag k="coa:place_id" v="3098510"/></node><node id="-38" lat="30.421039" lon="-97.657763" changeset="false"><tag k="addr:street" v="Wild Senna Drive,1100"/><tag k="addr:housenumber" v="115"/><tag k="coa:place_id" v="212455"/></node><node id="-39" lat="30.416401" lon="-97.656016" changeset="false"><tag k="addr:street" v="East Howard Lane"/><tag k="addr:housenumber" v="306"/><tag k="coa:place_id" v="470408"/></node><node id="-40" lat="30.419614" lon="-97.660369" changeset="false"><tag k="addr:street" v="Golden Flax Trail"/><tag k="addr:housenumber" v="13700"/><tag k="coa:place_id" v="1102076"/></node><node id="-41" lat="30.420757" lon="-97.657281" changeset="false"><tag k="addr:street" v="Spring Heath Road"/><tag k="addr:housenumber" v="13828"/><tag k="coa:place_id" v="212451"/></node><node id="-42" lat="30.429547" lon="-97.66283" changeset="false"><tag k="addr:street" v="Lake Victor Drive"/><tag k="addr:housenumber" v="14316"/><tag k="coa:place_id" v="3296511"/></node><node id="-43" lat="30.417156" lon="-97.649213" changeset="false"><tag k="addr:street" v="Merseyside Drive"/><tag k="addr:housenumber" v="13918"/><tag k="coa:place_id" v="579382"/></node><node id="-44" lat="30.421343" lon="-97.658508" changeset="false"><tag k="addr:street" v="Golden Flax Trail"/><tag k="addr:housenumber" v="13913"/><tag k="coa:place_id" v="212475"/></node><node id="-45" lat="30.420759" lon="-97.659609" changeset="false"><tag k="addr:street" v="Golden Flax Trail"/><tag k="addr:housenumber" v="13808"/><tag k="coa:place_id" v="1102085"/></node><node id="-46" lat="30.420702" lon="-97.657933" changeset="false"><tag k="addr:street" v="Star Flower Way"/><tag k="addr:housenumber" v="110"/><tag k="coa:place_id" v="216649"/></node><node id="-47" lat="30.420581" lon="-97.655456" changeset="false"><tag k="addr:street" v="Wild Senna Drive,1100"/><tag k="addr:housenumber" v="132"/><tag k="coa:place_id" v="195246"/></node><node id="-48" lat="30.420006" lon="-97.656642" changeset="false"><tag k="addr:street" v="Segovia Way"/><tag k="addr:housenumber" v="117"/><tag k="coa:place_id" v="195282"/></node><node id="-49" lat="30.419757" lon="-97.655104" changeset="false"><tag k="addr:street" v="Wild Senna Drive,1100"/><tag k="addr:housenumber" v="212"/><tag k="coa:place_id" v="195264"/></node><node id="-50" lat="30.419635" lon="-97.655176" changeset="false"><tag k="addr:street" v="Wild Senna Drive,1100"/><tag k="addr:housenumber" v="216"/><tag k="coa:place_id" v="195265"/></node><node id="-51" lat="30.419617" lon="-97.656327" changeset="false"><tag k="addr:street" v="Segovia Way"/><tag k="addr:housenumber" v="124"/><tag k="coa:place_id" v="195287"/></node><node id="-52" lat="30.419231" lon="-97.656122" changeset="false"><tag k="addr:street" v="Wild Senna Drive,1100"/><tag k="addr:housenumber" v="305"/><tag k="coa:place_id" v="199235"/></node><node id="-53" lat="30.419198" lon="-97.655457" changeset="false"><tag k="addr:street" v="Wild Senna Drive,1100"/><tag k="addr:housenumber" v="232"/><tag k="coa:place_id" v="195271"/></node><node id="-54" lat="30.415238" lon="-97.654442" changeset="false"><tag k="addr:street" v="East Howard Lane"/><tag k="addr:housenumber" v="500"/><tag k="coa:place_id" v="3048654"/></node><node id="-55" lat="30.412058" lon="-97.650519" changeset="false"><tag k="addr:street" v="Cambourne Drive"/><tag k="addr:housenumber" v="13600"/><tag k="coa:place_id" v="552478"/></node><node id="-56" lat="30.424938" lon="-97.670931" changeset="false"><tag k="addr:street" v="North Interstate Highway 35 Service Road"/><tag k="addr:housenumber" v="13707 1/2"/><tag k="coa:place_id" v="3221484"/></node><node id="-57" lat="30.431965" lon="-97.663654" changeset="false"><tag k="addr:street" v="Lake Victor Drive"/><tag k="addr:housenumber" v="14604"/><tag k="coa:place_id" v="3432122"/></node><node id="-58" lat="30.432103" lon="-97.663684" changeset="false"><tag k="addr:street" v="Lake Victor Drive"/><tag k="addr:housenumber" v="14608"/><tag k="coa:place_id" v="3432123"/></node><node id="-59" lat="30.431449" lon="-97.663413" changeset="false"><tag k="addr:street" v="Lake Victor Drive"/><tag k="addr:housenumber" v="14516"/><tag k="coa:place_id" v="3432118"/></node><node id="-60" lat="30.431127" lon="-97.662744" changeset="false"><tag k="addr:street" v="Lake Victor Drive"/><tag k="addr:housenumber" v="14501"/><tag k="coa:place_id" v="3432126"/></node><node id="-61" lat="30.429538" lon="-97.661711" changeset="false"><tag k="addr:street" v="Watson Way"/><tag k="addr:housenumber" v="917"/><tag k="coa:place_id" v="3325407"/></node><node id="-62" lat="30.429635" lon="-97.661898" changeset="false"><tag k="addr:street" v="Watson Way"/><tag k="addr:housenumber" v="921"/><tag k="coa:place_id" v="3325408"/></node><node id="-63" lat="30.429877" lon="-97.659925" changeset="false"><tag k="addr:street" v="Bethel Way"/><tag k="addr:housenumber" v="824"/><tag k="coa:place_id" v="3413737"/></node><node id="-64" lat="30.421993" lon="-97.659685" changeset="false"><tag k="addr:street" v="South Heatherwilde Boulevard"/><tag k="addr:housenumber" v="2620"/><tag k="coa:place_id" v="3388591"/></node><node id="-65" lat="30.429374" lon="-97.647876" changeset="false"><tag k="addr:street" v="Wells Branch Parkway"/><tag k="addr:housenumber" v="300"/><tag k="coa:place_id" v="3388597"/></node><node id="-66" lat="30.424822" lon="-97.665336" changeset="false"><tag k="addr:street" v="The Lakes Boulevard"/><tag k="addr:housenumber" v="14000"/><tag k="coa:place_id" v="3500500"/></node><node id="-67" lat="30.432974" lon="-97.663561" changeset="false"><tag k="addr:street" v="Lake Victor Drive"/><tag k="addr:housenumber" v="14708"/><tag k="coa:place_id" v="3528415"/></node><node id="-68" lat="30.43336" lon="-97.663393" changeset="false"><tag k="addr:street" v="Lake Victor Drive"/><tag k="addr:housenumber" v="14716"/><tag k="coa:place_id" v="3528417"/></node><node id="-69" lat="30.431223" lon="-97.661497" changeset="false"><tag k="addr:street" v="Oatmeal Drive"/><tag k="addr:housenumber" v="933"/><tag k="coa:place_id" v="3432188"/></node><node id="-70" lat="30.430823" lon="-97.660674" changeset="false"><tag k="addr:street" v="Oatmeal Drive"/><tag k="addr:housenumber" v="909"/><tag k="coa:place_id" v="3432182"/></node><node id="-71" lat="30.431323" lon="-97.663337" changeset="false"><tag k="addr:street" v="Lake Victor Drive"/><tag k="addr:housenumber" v="14512"/><tag k="coa:place_id" v="3432117"/></node><node id="-72" lat="30.424139" lon="-97.668745" changeset="false"><tag k="addr:street" v="West Howard Lane"/><tag k="addr:housenumber" v="1120 1/2"/><tag k="coa:place_id" v="3097331"/></node><node id="-73" lat="30.437792" lon="-97.658962" changeset="false"><tag k="addr:street" v="Wells Branch Parkway"/><tag k="addr:housenumber" v="1101"/><tag k="coa:place_id" v="86933"/></node><node id="-74" lat="30.438601" lon="-97.668207" changeset="false"><tag k="addr:street" v="North Interstate Highway 35 Service Road"/><tag k="addr:housenumber" v="14619"/><tag k="coa:place_id" v="199358"/></node><node id="-75" lat="30.419503" lon="-97.658205" changeset="false"><tag k="addr:street" v="Spring Heath Road"/><tag k="addr:housenumber" v="13730"/><tag k="coa:place_id" v="1102240"/></node><node id="-76" lat="30.421599" lon="-97.657714" changeset="false"><tag k="addr:street" v="Wild Senna Drive,1100"/><tag k="addr:housenumber" v="204"/><tag k="coa:place_id" v="212467"/></node><node id="-77" lat="30.4338" lon="-97.668664" changeset="false"><tag k="addr:street" v="North Interstate Highway 35 Service Road"/><tag k="addr:housenumber" v="14301"/><tag k="coa:place_id" v="5217224"/></node><node id="-78" lat="30.419305" lon="-97.658879" changeset="false"><tag k="addr:street" v="Blue Flax Lane"/><tag k="addr:housenumber" v="110"/><tag k="coa:place_id" v="1102096"/></node><node id="-79" lat="30.417176" lon="-97.654649" changeset="false"><tag k="addr:street" v="Segovia Way"/><tag k="addr:housenumber" v="311"/><tag k="coa:place_id" v="161466"/></node><node id="-80" lat="30.420011" lon="-97.658434" changeset="false"><tag k="addr:street" v="Mist Flower Drive"/><tag k="addr:housenumber" v="110"/><tag k="coa:place_id" v="1102109"/></node><node id="-81" lat="30.41896" lon="-97.656728" changeset="false"><tag k="addr:street" v="Segovia Way"/><tag k="addr:housenumber" v="148"/><tag k="coa:place_id" v="199232"/></node><node id="-82" lat="30.421212" lon="-97.658158" changeset="false"><tag k="addr:street" v="Wild Senna Drive,1100"/><tag k="addr:housenumber" v="209"/><tag k="coa:place_id" v="212460"/></node><node id="-83" lat="30.421182" lon="-97.659345" changeset="false"><tag k="addr:street" v="Golden Flax Trail"/><tag k="addr:housenumber" v="13900"/><tag k="coa:place_id" v="216659"/></node><node id="-84" lat="30.419563" lon="-97.659379" changeset="false"><tag k="addr:street" v="Blue Flax Lane"/><tag k="addr:housenumber" v="126"/><tag k="coa:place_id" v="1102100"/></node><node id="-85" lat="30.41455" lon="-97.653094" changeset="false"><tag k="addr:street" v="East Howard Lane"/><tag k="addr:housenumber" v="508"/><tag k="coa:place_id" v="449068"/></node><node id="-86" lat="30.433715" lon="-97.654066" changeset="false"><tag k="addr:street" v="Wells Branch Parkway"/><tag k="addr:housenumber" v="801"/><tag k="coa:place_id" v="3040976"/></node><node id="-87" lat="30.420921" lon="-97.657507" changeset="false"><tag k="addr:street" v="Wild Senna Drive,1100"/><tag k="addr:housenumber" v="107"/><tag k="coa:place_id" v="212453"/></node><node id="-88" lat="30.429276" lon="-97.662759" changeset="false"><tag k="addr:street" v="Lake Victor Drive"/><tag k="addr:housenumber" v="14308"/><tag k="coa:place_id" v="3296509"/></node><node id="-89" lat="30.429314" lon="-97.647318" changeset="false"><tag k="addr:street" v="Wells Branch Parkway"/><tag k="addr:housenumber" v="330"/><tag k="coa:place_id" v="3388598"/></node><node id="-90" lat="30.429648" lon="-97.658601" changeset="false"><tag k="addr:street" v="Naruna Way"/><tag k="addr:housenumber" v="14613"/><tag k="coa:place_id" v="3325346"/></node><node id="-91" lat="30.420249" lon="-97.66153" changeset="false"><tag k="addr:street" v="West Howard Lane"/><tag k="addr:housenumber" v="600"/><tag k="coa:place_id" v="470426"/></node><node id="-92" lat="30.428606" lon="-97.659856" changeset="false"><tag k="addr:street" v="Watson Way"/><tag k="addr:housenumber" v="805"/><tag k="coa:place_id" v="3325376"/></node><node id="-93" lat="30.431699" lon="-97.66355" changeset="false"><tag k="addr:street" v="Lake Victor Drive"/><tag k="addr:housenumber" v="14524"/><tag k="coa:place_id" v="3432120"/></node><node id="-94" lat="30.431261" lon="-97.662826" changeset="false"><tag k="addr:street" v="Lake Victor Drive"/><tag k="addr:housenumber" v="14505"/><tag k="coa:place_id" v="3432127"/></node><node id="-95" lat="30.430753" lon="-97.660529" changeset="false"><tag k="addr:street" v="Oatmeal Drive"/><tag k="addr:housenumber" v="905"/><tag k="coa:place_id" v="3432181"/></node><node id="-96" lat="30.431653" lon="-97.66176" changeset="false"><tag k="addr:street" v="Oatmeal Drive"/><tag k="addr:housenumber" v="1008"/><tag k="coa:place_id" v="3432198"/></node><node id="-97" lat="30.431999" lon="-97.662816" changeset="false"><tag k="addr:street" v="Oatmeal Drive"/><tag k="addr:housenumber" v="1036"/><tag k="coa:place_id" v="3432205"/></node><node id="-98" lat="30.432874" lon="-97.663095" changeset="false"><tag k="addr:street" v="Lake Victor Drive"/><tag k="addr:housenumber" v="14709"/><tag k="coa:place_id" v="3528407"/></node><node id="-99" lat="30.432692" lon="-97.663679" changeset="false"><tag k="addr:street" v="Lake Victor Drive"/><tag k="addr:housenumber" v="14700"/><tag k="coa:place_id" v="3528413"/></node><node id="-100" lat="30.433322" lon="-97.662948" changeset="false"><tag k="addr:street" v="Lake Victor Drive"/><tag k="addr:housenumber" v="14724"/><tag k="coa:place_id" v="3528419"/></node><node id="-101" lat="30.43129" lon="-97.661637" changeset="false"><tag k="addr:street" v="Oatmeal Drive"/><tag k="addr:housenumber" v="1001"/><tag k="coa:place_id" v="3432189"/></node><node id="-102" lat="30.423455" lon="-97.658826" changeset="false"><tag k="addr:street" v="South Heatherwilde Boulevard"/><tag k="addr:housenumber" v="2500"/><tag k="coa:place_id" v="3388592"/></node><node id="-103" lat="30.4305" lon="-97.66301" changeset="false"><tag k="addr:street" v="Lake Victor Drive"/><tag k="addr:housenumber" v="14420"/><tag k="coa:place_id" v="3415126"/></node><node id="-104" lat="30.428357" lon="-97.665155" changeset="false"><tag k="addr:street" v="The Lakes Boulevard"/><tag k="addr:housenumber" v="14200"/><tag k="coa:place_id" v="3690973"/></node><node id="-105" lat="30.422316" lon="-97.658606" changeset="false"><tag k="addr:street" v="Golden Flax Trail"/><tag k="addr:housenumber" v="14014"/><tag k="coa:place_id" v="212476"/></node><node id="-106" lat="30.422167" lon="-97.658816" changeset="false"><tag k="addr:street" v="Wild Senna Drive,1100"/><tag k="addr:housenumber" v="306"/><tag k="coa:place_id" v="214597"/></node><node id="-107" lat="30.419931" lon="-97.658315" changeset="false"><tag k="addr:street" v="Mist Flower Drive"/><tag k="addr:housenumber" v="106"/><tag k="coa:place_id" v="1102108"/></node><node id="-108" lat="30.419848" lon="-97.659215" changeset="false"><tag k="addr:street" v="Mist Flower Drive"/><tag k="addr:housenumber" v="127"/><tag k="coa:place_id" v="1102107"/></node><node id="-109" lat="30.429683" lon="-97.662849" changeset="false"><tag k="addr:street" v="Lake Victor Drive"/><tag k="addr:housenumber" v="14320"/><tag k="coa:place_id" v="3296512"/></node><node id="-110" lat="30.419392" lon="-97.657107" changeset="false"><tag k="addr:street" v="Segovia Way"/><tag k="addr:housenumber" v="141"/><tag k="coa:place_id" v="199201"/></node><node id="-111" lat="30.419039" lon="-97.658519" changeset="false"><tag k="addr:street" v="Spring Heath Road"/><tag k="addr:housenumber" v="13714"/><tag k="coa:place_id" v="1102115"/></node><node id="-112" lat="30.418625" lon="-97.657525" changeset="false"><tag k="addr:street" v="Segovia Way"/><tag k="addr:housenumber" v="165"/><tag k="coa:place_id" v="199212"/></node><node id="-113" lat="30.42047" lon="-97.658304" changeset="false"><tag k="addr:street" v="Star Flower Way"/><tag k="addr:housenumber" v="115"/><tag k="coa:place_id" v="216635"/></node><node id="-114" lat="30.420258" lon="-97.65896" changeset="false"><tag k="addr:street" v="Mist Flower Drive"/><tag k="addr:housenumber" v="126"/><tag k="coa:place_id" v="1102112"/></node><node id="-115" lat="30.421147" lon="-97.658711" changeset="false"><tag k="addr:street" v="Golden Flax Trail"/><tag k="addr:housenumber" v="13905"/><tag k="coa:place_id" v="216661"/></node><node id="-116" lat="30.421046" lon="-97.65651" changeset="false"><tag k="addr:street" v="Wild Senna Drive,1100"/><tag k="addr:housenumber" v="100"/><tag k="coa:place_id" v="195229"/></node><node id="-117" lat="30.420646" lon="-97.657363" changeset="false"><tag k="addr:street" v="Spring Heath Road"/><tag k="addr:housenumber" v="13824"/><tag k="coa:place_id" v="212449"/></node><node id="-118" lat="30.419177" lon="-97.657241" changeset="false"><tag k="addr:street" v="Segovia Way"/><tag k="addr:housenumber" v="149"/><tag k="coa:place_id" v="199205"/></node><node id="-119" lat="30.418411" lon="-97.657056" changeset="false"><tag k="addr:street" v="Segovia Way"/><tag k="addr:housenumber" v="177"/><tag k="coa:place_id" v="199217"/></node><node id="-120" lat="30.418205" lon="-97.656527" changeset="false"><tag k="addr:street" v="Segovia Way"/><tag k="addr:housenumber" v="205"/><tag k="coa:place_id" v="199222"/></node><node id="-121" lat="30.419465" lon="-97.652449" changeset="false"><tag k="addr:street" v="Greinert Drive"/><tag k="addr:housenumber" v="13922"/><tag k="coa:place_id" v="173070"/></node><node id="-122" lat="30.418974" lon="-97.657402" changeset="false"><tag k="addr:street" v="Segovia Way"/><tag k="addr:housenumber" v="157"/><tag k="coa:place_id" v="199207"/></node><node id="-123" lat="30.420155" lon="-97.657718" changeset="false"><tag k="addr:street" v="Spring Heath Road"/><tag k="addr:housenumber" v="13812"/><tag k="coa:place_id" v="219084"/></node><node id="-124" lat="30.42018" lon="-97.653037" changeset="false"><tag k="addr:street" v="Lampting Drive"/><tag k="addr:housenumber" v="14014"/><tag k="coa:place_id" v="215423"/></node><node id="-125" lat="30.419938" lon="-97.65612" changeset="false"><tag k="addr:street" v="Segovia Way"/><tag k="addr:housenumber" v="112"/><tag k="coa:place_id" v="195290"/></node><node id="-126" lat="30.41979" lon="-97.660252" changeset="false"><tag k="addr:street" v="Golden Flax Trail"/><tag k="addr:housenumber" v="13704"/><tag k="coa:place_id" v="1102077"/></node><node id="-127" lat="30.419259" lon="-97.658392" changeset="false"><tag k="addr:street" v="Spring Heath Road"/><tag k="addr:housenumber" v="13722"/><tag k="coa:place_id" v="1102102"/></node><node id="-128" lat="30.429396" lon="-97.661406" changeset="false"><tag k="addr:street" v="Watson Way"/><tag k="addr:housenumber" v="909"/><tag k="coa:place_id" v="3325405"/></node><node id="-129" lat="30.42818" lon="-97.662449" changeset="false"><tag k="addr:street" v="Lake Victor Drive"/><tag k="addr:housenumber" v="14216"/><tag k="coa:place_id" v="3296519"/></node><node id="-130" lat="30.431573" lon="-97.663474" changeset="false"><tag k="addr:street" v="Lake Victor Drive"/><tag k="addr:housenumber" v="14520"/><tag k="coa:place_id" v="3432119"/></node><node id="-131" lat="30.431657" lon="-97.663053" changeset="false"><tag k="addr:street" v="Lake Victor Drive"/><tag k="addr:housenumber" v="14517"/><tag k="coa:place_id" v="3432130"/></node><node id="-132" lat="30.43013" lon="-97.659222" changeset="false"><tag k="addr:street" v="Oatmeal Drive"/><tag k="addr:housenumber" v="817"/><tag k="coa:place_id" v="3432132"/></node><node id="-133" lat="30.430891" lon="-97.660808" changeset="false"><tag k="addr:street" v="Oatmeal Drive"/><tag k="addr:housenumber" v="913"/><tag k="coa:place_id" v="3432183"/></node><node id="-134" lat="30.431093" lon="-97.661215" changeset="false"><tag k="addr:street" v="Oatmeal Drive"/><tag k="addr:housenumber" v="925"/><tag k="coa:place_id" v="3432186"/></node><node id="-135" lat="30.430483" lon="-97.659314" changeset="false"><tag k="addr:street" v="Oatmeal Drive"/><tag k="addr:housenumber" v="824"/><tag k="coa:place_id" v="3432142"/></node><node id="-136" lat="30.431587" lon="-97.661615" changeset="false"><tag k="addr:street" v="Oatmeal Drive"/><tag k="addr:housenumber" v="1004"/><tag k="coa:place_id" v="3432197"/></node><node id="-137" lat="30.430863" lon="-97.661932" changeset="false"><tag k="addr:street" v="Bethel Way"/><tag k="addr:housenumber" v="1004"/><tag k="coa:place_id" v="3413768"/></node><node id="-138" lat="30.429261" lon="-97.665241" changeset="false"><tag k="addr:street" v="The Lakes Boulevard"/><tag k="addr:housenumber" v="14233"/><tag k="coa:place_id" v="5053181"/></node><node id="-139" lat="30.419542" lon="-97.655882" changeset="false"><tag k="addr:street" v="Wild Senna Drive,1100"/><tag k="addr:housenumber" v="227"/><tag k="coa:place_id" v="195259"/></node><node id="-140" lat="30.431393" lon="-97.661209" changeset="false"><tag k="addr:street" v="Oatmeal Drive"/><tag k="addr:housenumber" v="928"/><tag k="coa:place_id" v="3432177"/></node><node id="-141" lat="30.421415" lon="-97.663007" changeset="false"><tag k="addr:street" v="West Howard Lane"/><tag k="addr:housenumber" v="800"/><tag k="coa:place_id" v="237595"/></node><node id="-142" lat="30.41977" lon="-97.655735" changeset="false"><tag k="addr:street" v="Wild Senna Drive,1100"/><tag k="addr:housenumber" v="219"/><tag k="coa:place_id" v="195257"/></node><node id="-143" lat="30.420107" lon="-97.660013" changeset="false"><tag k="addr:street" v="Golden Flax Trail"/><tag k="addr:housenumber" v="13716"/><tag k="coa:place_id" v="1102080"/></node><node id="-144" lat="30.424179" lon="-97.668803" changeset="false"><tag k="addr:street" v="West Howard Lane"/><tag k="addr:housenumber" v="1120"/><tag k="coa:place_id" v="130441"/></node><node id="-145" lat="30.41868" lon="-97.656478" changeset="false"><tag k="addr:street" v="Wild Senna Drive,1100"/><tag k="addr:housenumber" v="325"/><tag k="coa:place_id" v="199241"/></node><node id="-146" lat="30.422871" lon="-97.658315" changeset="false"><tag k="addr:street" v="Golden Flax Trail"/><tag k="addr:housenumber" v="14034"/><tag k="coa:place_id" v="212481"/></node><node id="-147" lat="30.417981" lon="-97.655827" changeset="false"><tag k="addr:street" v="Lampting Drive"/><tag k="addr:housenumber" v="13740"/><tag k="coa:place_id" v="159025"/></node><node id="-148" lat="30.418796" lon="-97.654125" changeset="false"><tag k="addr:street" v="Randalstone Drive"/><tag k="addr:housenumber" v="13902"/><tag k="coa:place_id" v="161430"/></node><node id="-149" lat="30.418563" lon="-97.655872" changeset="false"><tag k="addr:street" v="Wild Senna Drive,1100"/><tag k="addr:housenumber" v="320"/><tag k="coa:place_id" v="199249"/></node><node id="-150" lat="30.420963" lon="-97.656233" changeset="false"><tag k="addr:street" v="Wild Senna Drive,1100"/><tag k="addr:housenumber" v="108"/><tag k="coa:place_id" v="195234"/></node><node id="-151" lat="30.420708" lon="-97.655752" changeset="false"><tag k="addr:street" v="Wild Senna Drive,1100"/><tag k="addr:housenumber" v="124"/><tag k="coa:place_id" v="195241"/></node><node id="-152" lat="30.420542" lon="-97.653696" changeset="false"><tag k="addr:street" v="Lampting Drive"/><tag k="addr:housenumber" v="14000"/><tag k="coa:place_id" v="161381"/></node><node id="-153" lat="30.43956" lon="-97.663698" changeset="false"><tag k="addr:street" v="Wells Branch Parkway"/><tag k="addr:housenumber" v="1421"/><tag k="coa:place_id" v="227171"/></node><node id="-154" lat="30.419011" lon="-97.656253" changeset="false"><tag k="addr:street" v="Wild Senna Drive,1100"/><tag k="addr:housenumber" v="313"/><tag k="coa:place_id" v="3032625"/></node><node id="-155" lat="30.419225" lon="-97.658744" changeset="false"><tag k="addr:street" v="Blue Flax Lane"/><tag k="addr:housenumber" v="106"/><tag k="coa:place_id" v="1102094"/></node><node id="-156" lat="30.421288" lon="-97.659283" changeset="false"><tag k="addr:street" v="Golden Flax Trail"/><tag k="addr:housenumber" v="13904"/><tag k="coa:place_id" v="216660"/></node><node id="-157" lat="30.42198" lon="-97.658176" changeset="false"><tag k="addr:street" v="Golden Flax Trail"/><tag k="addr:housenumber" v="14009"/><tag k="coa:place_id" v="212496"/></node><node id="-158" lat="30.423953" lon="-97.669284" changeset="false"><tag k="addr:street" v="West Howard Lane"/><tag k="addr:housenumber" v="1124"/><tag k="coa:place_id" v="3136935"/></node><node id="-159" lat="30.419613" lon="-97.659678" changeset="false"><tag k="addr:street" v="Golden Flax Trail"/><tag k="addr:housenumber" v="13709"/><tag k="coa:place_id" v="1102874"/></node><node id="-160" lat="30.438806" lon="-97.667627" changeset="false"><tag k="addr:street" v="North Interstate Highway 35 Service Road"/><tag k="addr:housenumber" v="14501 1/2"/><tag k="coa:place_id" v="1115358"/></node><node id="-161" lat="30.420553" lon="-97.659103" changeset="false"><tag k="addr:street" v="Golden Flax Trail"/><tag k="addr:housenumber" v="13809"/><tag k="coa:place_id" v="1102091"/></node><node id="-162" lat="30.438054" lon="-97.659513" changeset="false"><tag k="addr:street" v="Wells Branch Parkway"/><tag k="addr:housenumber" v="1113"/><tag k="coa:place_id" v="86934"/></node><node id="-163" lat="30.420126" lon="-97.65869" changeset="false"><tag k="addr:street" v="Mist Flower Drive"/><tag k="addr:housenumber" v="118"/><tag k="coa:place_id" v="1112707"/></node><node id="-164" lat="30.419984" lon="-97.657931" changeset="false"><tag k="addr:street" v="Spring Heath Road"/><tag k="addr:housenumber" v="13806"/><tag k="coa:place_id" v="216629"/></node><node id="-165" lat="30.419439" lon="-97.659124" changeset="false"><tag k="addr:street" v="Blue Flax Lane"/><tag k="addr:housenumber" v="118"/><tag k="coa:place_id" v="1102098"/></node><node id="-166" lat="30.428992" lon="-97.662695" changeset="false"><tag k="addr:street" v="Lake Victor Drive"/><tag k="addr:housenumber" v="14300"/><tag k="coa:place_id" v="3296507"/></node><node id="-167" lat="30.437975" lon="-97.645994" changeset="false"><tag k="addr:street" v="South Heatherwilde Boulevard"/><tag k="addr:housenumber" v="1007"/><tag k="coa:place_id" v="3035330"/></node><node id="-168" lat="30.431209" lon="-97.663276" changeset="false"><tag k="addr:street" v="Lake Victor Drive"/><tag k="addr:housenumber" v="14508"/><tag k="coa:place_id" v="3432116"/></node><node id="-169" lat="30.431976" lon="-97.663173" changeset="false"><tag k="addr:street" v="Lake Victor Drive"/><tag k="addr:housenumber" v="14601"/><tag k="coa:place_id" v="3432124"/></node><node id="-170" lat="30.430465" lon="-97.661072" changeset="false"><tag k="addr:street" v="Bethel Way"/><tag k="addr:housenumber" v="912"/><tag k="coa:place_id" v="3413762"/></node><node id="-171" lat="30.43027" lon="-97.659511" changeset="false"><tag k="addr:street" v="Oatmeal Drive"/><tag k="addr:housenumber" v="825"/><tag k="coa:place_id" v="3432134"/></node><node id="-172" lat="30.430283" lon="-97.658896" changeset="false"><tag k="addr:street" v="Oatmeal Drive"/><tag k="addr:housenumber" v="812"/><tag k="coa:place_id" v="3432139"/></node><node id="-173" lat="30.429258" lon="-97.661116" changeset="false"><tag k="addr:street" v="Watson Way"/><tag k="addr:housenumber" v="901"/><tag k="coa:place_id" v="3325403"/></node><node id="-174" lat="30.420786" lon="-97.660512" changeset="false"><tag k="addr:street" v="South Heatherwilde Boulevard"/><tag k="addr:housenumber" v="2720"/><tag k="coa:place_id" v="3388589"/></node><node id="-175" lat="30.429806" lon="-97.659792" changeset="false"><tag k="addr:street" v="Bethel Way"/><tag k="addr:housenumber" v="820"/><tag k="coa:place_id" v="3413736"/></node><node id="-176" lat="30.429692" lon="-97.661274" changeset="false"><tag k="addr:street" v="Watson Way"/><tag k="addr:housenumber" v="912"/><tag k="coa:place_id" v="3325397"/></node><node id="-177" lat="30.428628" lon="-97.659208" changeset="false"><tag k="addr:street" v="Watson Way"/><tag k="addr:housenumber" v="712"/><tag k="coa:place_id" v="3325358"/></node><node id="-178" lat="30.432259" lon="-97.663713" changeset="false"><tag k="addr:street" v="Lake Victor Drive"/><tag k="addr:housenumber" v="14612"/><tag k="coa:place_id" v="3528410"/></node><node id="-179" lat="30.431046" lon="-97.65976" changeset="false"><tag k="addr:street" v="Fairland Drive"/><tag k="addr:housenumber" v="14709"/><tag k="coa:place_id" v="3528437"/></node><node id="-180" lat="30.431639" lon="-97.662356" changeset="false"><tag k="addr:street" v="Oatmeal Drive"/><tag k="addr:housenumber" v="1021"/><tag k="coa:place_id" v="3432194"/></node><node id="-181" lat="30.430987" lon="-97.660375" changeset="false"><tag k="addr:street" v="Oatmeal Drive"/><tag k="addr:housenumber" v="904"/><tag k="coa:place_id" v="3432171"/></node><node id="-182" lat="30.430408" lon="-97.667617" changeset="false"><tag k="addr:street" v="The Lakes Boulevard"/><tag k="addr:housenumber" v="14401"/><tag k="coa:place_id" v="5107622"/></node><node id="-183" lat="30.431649" lon="-97.654421" changeset="false"><tag k="addr:street" v="South Heatherwilde Boulevard"/><tag k="addr:housenumber" v="1701"/><tag k="coa:place_id" v="5215002"/></node><node id="-184" lat="30.430781" lon="-97.663072" changeset="false"><tag k="addr:street" v="Lake Victor Drive"/><tag k="addr:housenumber" v="14428"/><tag k="coa:place_id" v="3415128"/></node><node id="-185" lat="30.429074" lon="-97.660813" changeset="false"><tag k="addr:street" v="Watson Way"/><tag k="addr:housenumber" v="833"/><tag k="coa:place_id" v="3325383"/></node><node id="-186" lat="30.429893" lon="-97.662476" changeset="false"><tag k="addr:street" v="Lake Victor Drive"/><tag k="addr:housenumber" v="14401"/><tag k="coa:place_id" v="3325392"/></node><node id="-187" lat="30.419289" lon="-97.656521" changeset="false"><tag k="addr:street" v="Segovia Way"/><tag k="addr:housenumber" v="136"/><tag k="coa:place_id" v="199229"/></node><node id="-188" lat="30.41878" lon="-97.655734" changeset="false"><tag k="addr:street" v="Wild Senna Drive,1100"/><tag k="addr:housenumber" v="312"/><tag k="coa:place_id" v="199247"/></node><node id="-189" lat="30.418359" lon="-97.656926" changeset="false"><tag k="addr:street" v="Segovia Way"/><tag k="addr:housenumber" v="181"/><tag k="coa:place_id" v="199218"/></node><node id="-190" lat="30.419608" lon="-97.653503" changeset="false"><tag k="addr:street" v="Randalstone Drive"/><tag k="addr:housenumber" v="13916"/><tag k="coa:place_id" v="161440"/></node><node id="-191" lat="30.429302" lon="-97.668006" changeset="false"><tag k="addr:street" v="The Lakes Boulevard"/><tag k="addr:housenumber" v="14400"/><tag k="coa:place_id" v="5000367"/></node><node id="-192" lat="30.419337" lon="-97.656052" changeset="false"><tag k="addr:street" v="Wild Senna Drive,1100"/><tag k="addr:housenumber" v="301"/><tag k="coa:place_id" v="199234"/></node><node id="-193" lat="30.419356" lon="-97.658321" changeset="false"><tag k="addr:street" v="Spring Heath Road"/><tag k="addr:housenumber" v="13726"/><tag k="coa:place_id" v="1102103"/></node><node id="-194" lat="30.418167" lon="-97.653917" changeset="false"><tag k="addr:street" v="Randalstone Drive"/><tag k="addr:housenumber" v="13811"/><tag k="coa:place_id" v="161449"/></node><node id="-195" lat="30.417936" lon="-97.657352" changeset="false"><tag k="addr:street" v="East Howard Lane"/><tag k="addr:housenumber" v="108"/><tag k="coa:place_id" v="211289"/></node><node id="-196" lat="30.423024" lon="-97.658237" changeset="false"><tag k="addr:street" v="Golden Flax Trail"/><tag k="addr:housenumber" v="14038"/><tag k="coa:place_id" v="212482"/></node><node id="-197" lat="30.429369" lon="-97.666074" changeset="false"><tag k="addr:street" v="The Lakes Boulevard"/><tag k="addr:housenumber" v="14240 1/2"/><tag k="coa:place_id" v="5062248"/></node><node id="-198" lat="30.432516" lon="-97.663232" changeset="false"><tag k="addr:street" v="Lake Victor Drive"/><tag k="addr:housenumber" v="14621"/><tag k="coa:place_id" v="3528405"/></node><node id="-199" lat="30.432818" lon="-97.663631" changeset="false"><tag k="addr:street" v="Lake Victor Drive"/><tag k="addr:housenumber" v="14704"/><tag k="coa:place_id" v="3528414"/></node><node id="-200" lat="30.433171" lon="-97.663492" changeset="false"><tag k="addr:street" v="Lake Victor Drive"/><tag k="addr:housenumber" v="14712"/><tag k="coa:place_id" v="3528416"/></node><node id="-201" lat="30.428805" lon="-97.660259" changeset="false"><tag k="addr:street" v="Watson Way"/><tag k="addr:housenumber" v="817"/><tag k="coa:place_id" v="3325379"/></node><node id="-202" lat="30.437831" lon="-97.668327" changeset="false"><tag k="addr:street" v="North Interstate Highway 35 Service Road"/><tag k="addr:housenumber" v="14607 1/2"/><tag k="coa:place_id" v="3122695"/></node><node id="-203" lat="30.420648" lon="-97.65562" changeset="false"><tag k="addr:street" v="Wild Senna Drive,1100"/><tag k="addr:housenumber" v="128"/><tag k="coa:place_id" v="195245"/></node><node id="-204" lat="30.428314" lon="-97.662481" changeset="false"><tag k="addr:street" v="Lake Victor Drive"/><tag k="addr:housenumber" v="14220"/><tag k="coa:place_id" v="3296520"/></node><node id="-205" lat="30.431358" lon="-97.661775" changeset="false"><tag k="addr:street" v="Oatmeal Drive"/><tag k="addr:housenumber" v="1005"/><tag k="coa:place_id" v="3432190"/></node><node id="-206" lat="30.430951" lon="-97.663135" changeset="false"><tag k="addr:street" v="Lake Victor Drive"/><tag k="addr:housenumber" v="14500"/><tag k="coa:place_id" v="3432114"/></node><node id="-207" lat="30.430295" lon="-97.662577" changeset="false"><tag k="addr:street" v="Lake Victor Drive"/><tag k="addr:housenumber" v="14413"/><tag k="coa:place_id" v="3415120"/></node><node id="-208" lat="30.430623" lon="-97.663028" changeset="false"><tag k="addr:street" v="Lake Victor Drive"/><tag k="addr:housenumber" v="14424"/><tag k="coa:place_id" v="3415127"/></node><node id="-209" lat="30.429686" lon="-97.659501" changeset="false"><tag k="addr:street" v="Bethel Way"/><tag k="addr:housenumber" v="812"/><tag k="coa:place_id" v="3413734"/></node><node id="-210" lat="30.431325" lon="-97.661071" changeset="false"><tag k="addr:street" v="Oatmeal Drive"/><tag k="addr:housenumber" v="924"/><tag k="coa:place_id" v="3432176"/></node><node id="-211" lat="30.430195" lon="-97.659362" changeset="false"><tag k="addr:street" v="Oatmeal Drive"/><tag k="addr:housenumber" v="821"/><tag k="coa:place_id" v="3432133"/></node><node id="-212" lat="30.430351" lon="-97.659036" changeset="false"><tag k="addr:street" v="Oatmeal Drive"/><tag k="addr:housenumber" v="816"/><tag k="coa:place_id" v="3432140"/></node><node id="-213" lat="30.430418" lon="-97.659179" changeset="false"><tag k="addr:street" v="Oatmeal Drive"/><tag k="addr:housenumber" v="820"/><tag k="coa:place_id" v="3432141"/></node><node id="-214" lat="30.431829" lon="-97.663608" changeset="false"><tag k="addr:street" v="Lake Victor Drive"/><tag k="addr:housenumber" v="14600"/><tag k="coa:place_id" v="3432121"/></node><node id="-215" lat="30.430061" lon="-97.659089" changeset="false"><tag k="addr:street" v="Oatmeal Drive"/><tag k="addr:housenumber" v="813"/><tag k="coa:place_id" v="3432131"/></node><node id="-216" lat="30.429958" lon="-97.66005" changeset="false"><tag k="addr:street" v="Bethel Way"/><tag k="addr:housenumber" v="828"/><tag k="coa:place_id" v="3413738"/></node><node id="-217" lat="30.428137" lon="-97.659128" changeset="false"><tag k="addr:street" v="Watson Way"/><tag k="addr:housenumber" v="705"/><tag k="coa:place_id" v="3325360"/></node><node id="-218" lat="30.429019" lon="-97.660688" changeset="false"><tag k="addr:street" v="Watson Way"/><tag k="addr:housenumber" v="829"/><tag k="coa:place_id" v="3325382"/></node><node id="-219" lat="30.428444" lon="-97.66251" changeset="false"><tag k="addr:street" v="Lake Victor Drive"/><tag k="addr:housenumber" v="14224"/><tag k="coa:place_id" v="3296521"/></node><node id="-220" lat="30.432345" lon="-97.663261" changeset="false"><tag k="addr:street" v="Lake Victor Drive"/><tag k="addr:housenumber" v="14613"/><tag k="coa:place_id" v="3528404"/></node><node id="-221" lat="30.432404" lon="-97.663709" changeset="false"><tag k="addr:street" v="Lake Victor Drive"/><tag k="addr:housenumber" v="14616"/><tag k="coa:place_id" v="3528411"/></node><node id="-222" lat="30.43255" lon="-97.663705" changeset="false"><tag k="addr:street" v="Lake Victor Drive"/><tag k="addr:housenumber" v="14620"/><tag k="coa:place_id" v="3528412"/></node><node id="-223" lat="30.431163" lon="-97.66136" changeset="false"><tag k="addr:street" v="Oatmeal Drive"/><tag k="addr:housenumber" v="929"/><tag k="coa:place_id" v="3432187"/></node><node id="-224" lat="30.431424" lon="-97.661916" changeset="false"><tag k="addr:street" v="Oatmeal Drive"/><tag k="addr:housenumber" v="1009"/><tag k="coa:place_id" v="3432191"/></node><node id="-225" lat="30.430797" lon="-97.659915" changeset="false"><tag k="addr:street" v="Fairland Drive"/><tag k="addr:housenumber" v="14701"/><tag k="coa:place_id" v="3432164"/></node><node id="-226" lat="30.430925" lon="-97.660237" changeset="false"><tag k="addr:street" v="Oatmeal Drive"/><tag k="addr:housenumber" v="900"/><tag k="coa:place_id" v="3432170"/></node><node id="-227" lat="30.431188" lon="-97.660783" changeset="false"><tag k="addr:street" v="Oatmeal Drive"/><tag k="addr:housenumber" v="916"/><tag k="coa:place_id" v="3432174"/></node><node id="-228" lat="30.431126" lon="-97.660647" changeset="false"><tag k="addr:street" v="Oatmeal Drive"/><tag k="addr:housenumber" v="912"/><tag k="coa:place_id" v="3432173"/></node><node id="-229" lat="30.431786" lon="-97.662037" changeset="false"><tag k="addr:street" v="Oatmeal Drive"/><tag k="addr:housenumber" v="1016"/><tag k="coa:place_id" v="3432200"/></node><node id="-230" lat="30.431856" lon="-97.662177" changeset="false"><tag k="addr:street" v="Oatmeal Drive"/><tag k="addr:housenumber" v="1020"/><tag k="coa:place_id" v="3432201"/></node><node id="-231" lat="30.431968" lon="-97.662482" changeset="false"><tag k="addr:street" v="Oatmeal Drive"/><tag k="addr:housenumber" v="1028"/><tag k="coa:place_id" v="3432203"/></node><node id="-232" lat="30.430609" lon="-97.650171" changeset="false"><tag k="addr:street" v="Wells Branch Parkway"/><tag k="addr:housenumber" v="216"/><tag k="coa:place_id" v="3555374"/></node><node id="-233" lat="30.430202" lon="-97.658605" changeset="false"><tag k="addr:street" v="Oatmeal Drive"/><tag k="addr:housenumber" v="804"/><tag k="coa:place_id" v="3325335"/></node><node id="-234" lat="30.430535" lon="-97.660057" changeset="false"><tag k="addr:street" v="Oatmeal Drive"/><tag k="addr:housenumber" v="841"/><tag k="coa:place_id" v="3432138"/></node><node id="-235" lat="30.430549" lon="-97.659454" changeset="false"><tag k="addr:street" v="Oatmeal Drive"/><tag k="addr:housenumber" v="828"/><tag k="coa:place_id" v="3432143"/></node><node id="-236" lat="30.42931" lon="-97.646124" changeset="false"><tag k="addr:street" v="Wells Branch Parkway"/><tag k="addr:housenumber" v="430"/><tag k="coa:place_id" v="3388601"/></node><node id="-237" lat="30.430603" lon="-97.66889" changeset="false"><tag k="addr:street" v="North Interstate Highway 35 Service Road"/><tag k="addr:housenumber" v="14101"/><tag k="coa:place_id" v="3502720"/></node><node id="-238" lat="30.428935" lon="-97.660542" changeset="false"><tag k="addr:street" v="Watson Way"/><tag k="addr:housenumber" v="825"/><tag k="coa:place_id" v="3325381"/></node><node id="-239" lat="30.429807" lon="-97.662891" changeset="false"><tag k="addr:street" v="Lake Victor Drive"/><tag k="addr:housenumber" v="14400"/><tag k="coa:place_id" v="3325390"/></node><node id="-240" lat="30.433391" lon="-97.663194" changeset="false"><tag k="addr:street" v="Lake Victor Drive"/><tag k="addr:housenumber" v="14720"/><tag k="coa:place_id" v="3528418"/></node><node id="-241" lat="30.431265" lon="-97.659569" changeset="false"><tag k="addr:street" v="Fairland Drive"/><tag k="addr:housenumber" v="14717"/><tag k="coa:place_id" v="3528439"/></node><node id="-242" lat="30.430958" lon="-97.660941" changeset="false"><tag k="addr:street" v="Oatmeal Drive"/><tag k="addr:housenumber" v="917"/><tag k="coa:place_id" v="3432184"/></node><node id="-243" lat="30.431028" lon="-97.661084" changeset="false"><tag k="addr:street" v="Oatmeal Drive"/><tag k="addr:housenumber" v="921"/><tag k="coa:place_id" v="3432185"/></node><node id="-244" lat="30.431524" lon="-97.66147" changeset="false"><tag k="addr:street" v="Oatmeal Drive"/><tag k="addr:housenumber" v="1000"/><tag k="coa:place_id" v="3432196"/></node><node id="-245" lat="30.430913" lon="-97.659841" changeset="false"><tag k="addr:street" v="Fairland Drive"/><tag k="addr:housenumber" v="14705"/><tag k="coa:place_id" v="3432165"/></node><node id="-246" lat="30.43069" lon="-97.66039" changeset="false"><tag k="addr:street" v="Oatmeal Drive"/><tag k="addr:housenumber" v="901"/><tag k="coa:place_id" v="3432180"/></node><node id="-247" lat="30.43172" lon="-97.661882" changeset="false"><tag k="addr:street" v="Oatmeal Drive"/><tag k="addr:housenumber" v="1012"/><tag k="coa:place_id" v="3432199"/></node><node id="-248" lat="30.43192" lon="-97.66232" changeset="false"><tag k="addr:street" v="Oatmeal Drive"/><tag k="addr:housenumber" v="1024"/><tag k="coa:place_id" v="3432202"/></node><node id="-249" lat="30.42867" lon="-97.659992" changeset="false"><tag k="addr:street" v="Watson Way"/><tag k="addr:housenumber" v="809"/><tag k="coa:place_id" v="3325377"/></node><node id="-250" lat="30.431995" lon="-97.66264" changeset="false"><tag k="addr:street" v="Oatmeal Drive"/><tag k="addr:housenumber" v="1032"/><tag k="coa:place_id" v="3432204"/></node><node id="-251" lat="30.427165" lon="-97.660686" changeset="false"><tag k="addr:street" v="Naruna Way"/><tag k="addr:housenumber" v="14217"/><tag k="coa:place_id" v="3296694"/></node><node id="-252" lat="30.430403" lon="-97.659785" changeset="false"><tag k="addr:street" v="Oatmeal Drive"/><tag k="addr:housenumber" v="833"/><tag k="coa:place_id" v="3432136"/></node><node id="-253" lat="30.422622" lon="-97.65936" changeset="false"><tag k="addr:street" v="South Heatherwilde Boulevard"/><tag k="addr:housenumber" v="2600"/><tag k="coa:place_id" v="3388593"/></node><node id="-254" lat="30.420161" lon="-97.660886" changeset="false"><tag k="addr:street" v="South Heatherwilde Boulevard"/><tag k="addr:housenumber" v="2800"/><tag k="coa:place_id" v="3388590"/></node><node id="-255" lat="30.432135" lon="-97.663224" changeset="false"><tag k="addr:street" v="Lake Victor Drive"/><tag k="addr:housenumber" v="14605"/><tag k="coa:place_id" v="3432125"/></node><node id="-256" lat="30.431056" lon="-97.660516" changeset="false"><tag k="addr:street" v="Oatmeal Drive"/><tag k="addr:housenumber" v="908"/><tag k="coa:place_id" v="3432172"/></node><node id="-257" lat="30.428376" lon="-97.659399" changeset="false"><tag k="addr:street" v="Watson Way"/><tag k="addr:housenumber" v="713"/><tag k="coa:place_id" v="3325362"/></node><node id="-258" lat="30.440807" lon="-97.665501" changeset="false"><tag k="addr:street" v="Wells Branch Parkway"/><tag k="addr:housenumber" v="1501"/><tag k="coa:place_id" v="5096116"/></node><node id="-259" lat="30.420965" lon="-97.65949" changeset="false"><tag k="addr:street" v="Golden Flax Trail"/><tag k="addr:housenumber" v="13816"/><tag k="coa:place_id" v="216654"/></node><node id="-260" lat="30.420837" lon="-97.65599" changeset="false"><tag k="addr:street" v="Wild Senna Drive,1100"/><tag k="addr:housenumber" v="116"/><tag k="coa:place_id" v="195239"/></node><node id="-261" lat="30.420777" lon="-97.655877" changeset="false"><tag k="addr:street" v="Wild Senna Drive,1100"/><tag k="addr:housenumber" v="120"/><tag k="coa:place_id" v="195240"/></node><node id="-262" lat="30.419486" lon="-97.65925" changeset="false"><tag k="addr:street" v="Blue Flax Lane"/><tag k="addr:housenumber" v="122"/><tag k="coa:place_id" v="1102099"/></node><node id="-263" lat="30.419031" lon="-97.65395" changeset="false"><tag k="addr:street" v="Randalstone Drive"/><tag k="addr:housenumber" v="13906"/><tag k="coa:place_id" v="161433"/></node><node id="-264" lat="30.413289" lon="-97.651296" changeset="false"><tag k="addr:street" v="Merseyside Drive"/><tag k="addr:housenumber" v="13638"/><tag k="coa:place_id" v="3098514"/></node><node id="-265" lat="30.428516" lon="-97.648937" changeset="false"><tag k="addr:street" v="Wells Branch Parkway"/><tag k="addr:housenumber" v="301"/><tag k="coa:place_id" v="5113494"/></node><node id="-266" lat="30.42212" lon="-97.658665" changeset="false"><tag k="addr:street" v="Wild Senna Drive,1100"/><tag k="addr:housenumber" v="302"/><tag k="coa:place_id" v="214859"/></node><node id="-267" lat="30.418997" lon="-97.655597" changeset="false"><tag k="addr:street" v="Wild Senna Drive,1100"/><tag k="addr:housenumber" v="304"/><tag k="coa:place_id" v="199243"/></node><node id="-268" lat="30.420439" lon="-97.659179" changeset="false"><tag k="addr:street" v="Golden Flax Trail"/><tag k="addr:housenumber" v="13805"/><tag k="coa:place_id" v="1102090"/></node><node id="-269" lat="30.423145" lon="-97.657834" changeset="false"><tag k="addr:street" v="Golden Flax Trail"/><tag k="addr:housenumber" v="14046"/><tag k="coa:place_id" v="212489"/></node><node id="-270" lat="30.420089" lon="-97.657859" changeset="false"><tag k="addr:street" v="Spring Heath Road"/><tag k="addr:housenumber" v="13810"/><tag k="coa:place_id" v="216630"/></node><node id="-271" lat="30.419841" lon="-97.657954" changeset="false"><tag k="addr:street" v="Spring Heath Road"/><tag k="addr:housenumber" v="13804"/><tag k="coa:place_id" v="216628"/></node><node id="-272" lat="30.419407" lon="-97.655317" changeset="false"><tag k="addr:street" v="Wild Senna Drive,1100"/><tag k="addr:housenumber" v="224"/><tag k="coa:place_id" v="195269"/></node><node id="-273" lat="30.42034" lon="-97.659865" changeset="false"><tag k="addr:street" v="Golden Flax Trail"/><tag k="addr:housenumber" v="13724"/><tag k="coa:place_id" v="1102082"/></node><node id="-274" lat="30.4384" lon="-97.667443" changeset="false"><tag k="addr:street" v="North Interstate Highway 35 Service Road"/><tag k="addr:housenumber" v="14501"/><tag k="coa:place_id" v="3035292"/></node><node id="-275" lat="30.440649" lon="-97.665112" changeset="false"><tag k="addr:street" v="Wells Branch Parkway"/><tag k="addr:housenumber" v="1433 1/2"/><tag k="coa:place_id" v="3094543"/></node><node id="-276" lat="30.437071" lon="-97.658392" changeset="false"><tag k="addr:street" v="Wells Branch Parkway"/><tag k="addr:housenumber" v="1015"/><tag k="coa:place_id" v="86932"/></node><node id="-277" lat="30.422205" lon="-97.658035" changeset="false"><tag k="addr:street" v="Golden Flax Trail"/><tag k="addr:housenumber" v="14017"/><tag k="coa:place_id" v="212493"/></node><node id="-278" lat="30.421463" lon="-97.658437" changeset="false"><tag k="addr:street" v="Golden Flax Trail"/><tag k="addr:housenumber" v="13917"/><tag k="coa:place_id" v="214815"/></node><node id="-279" lat="30.420591" lon="-97.658545" changeset="false"><tag k="addr:street" v="Star Flower Way"/><tag k="addr:housenumber" v="123"/><tag k="coa:place_id" v="216637"/></node><node id="-280" lat="30.420346" lon="-97.656448" changeset="false"><tag k="addr:street" v="Segovia Way"/><tag k="addr:housenumber" v="105"/><tag k="coa:place_id" v="195276"/></node><node id="-281" lat="30.417595" lon="-97.648935" changeset="false"><tag k="addr:street" v="Merseyside Drive"/><tag k="addr:housenumber" v="14004"/><tag k="coa:place_id" v="579376"/></node><node id="-282" lat="30.427384" lon="-97.66202" changeset="false"><tag k="addr:street" v="Naruna Way"/><tag k="addr:housenumber" v="14109"/><tag k="coa:place_id" v="3296686"/></node><node id="-283" lat="30.436773" lon="-97.657331" changeset="false"><tag k="addr:street" v="Wells Branch Parkway"/><tag k="addr:housenumber" v="1005"/><tag k="coa:place_id" v="86930"/></node><node id="-284" lat="30.42419" lon="-97.669738" changeset="false"><tag k="addr:street" v="West Howard Lane"/><tag k="addr:housenumber" v="1200"/><tag k="coa:place_id" v="3079053"/></node><node id="-285" lat="30.418084" lon="-97.656282" changeset="false"><tag k="addr:street" v="Segovia Way"/><tag k="addr:housenumber" v="213"/><tag k="coa:place_id" v="199224"/></node><node id="-286" lat="30.421522" lon="-97.657575" changeset="false"><tag k="addr:street" v="Wild Senna Drive,1100"/><tag k="addr:housenumber" v="200"/><tag k="coa:place_id" v="212468"/></node><node id="-287" lat="30.418453" lon="-97.657189" changeset="false"><tag k="addr:street" v="Segovia Way"/><tag k="addr:housenumber" v="173"/><tag k="coa:place_id" v="199215"/></node><node id="-288" lat="30.419495" lon="-97.653605" changeset="false"><tag k="addr:street" v="Randalstone Drive"/><tag k="addr:housenumber" v="13914"/><tag k="coa:place_id" v="161437"/></node><node id="-289" lat="30.429145" lon="-97.662724" changeset="false"><tag k="addr:street" v="Lake Victor Drive"/><tag k="addr:housenumber" v="14304"/><tag k="coa:place_id" v="3296508"/></node><node id="-290" lat="30.419523" lon="-97.655242" changeset="false"><tag k="addr:street" v="Wild Senna Drive,1100"/><tag k="addr:housenumber" v="220"/><tag k="coa:place_id" v="195268"/></node><node id="-291" lat="30.419919" lon="-97.653226" changeset="false"><tag k="addr:street" v="Randalstone Drive"/><tag k="addr:housenumber" v="13922"/><tag k="coa:place_id" v="197695"/></node><node id="-292" lat="30.427707" lon="-97.659853" changeset="false"><tag k="addr:street" v="Naruna Way"/><tag k="addr:housenumber" v="14317"/><tag k="coa:place_id" v="3296678"/></node><node id="-293" lat="30.419664" lon="-97.655796" changeset="false"><tag k="addr:street" v="Wild Senna Drive,1100"/><tag k="addr:housenumber" v="223"/><tag k="coa:place_id" v="195258"/></node><node id="-294" lat="30.4195" lon="-97.65704" changeset="false"><tag k="addr:street" v="Segovia Way"/><tag k="addr:housenumber" v="137"/><tag k="coa:place_id" v="199200"/></node><node id="-295" lat="30.419175" lon="-97.656588" changeset="false"><tag k="addr:street" v="Segovia Way"/><tag k="addr:housenumber" v="140"/><tag k="coa:place_id" v="199230"/></node><node id="-296" lat="30.419122" lon="-97.656192" changeset="false"><tag k="addr:street" v="Wild Senna Drive,1100"/><tag k="addr:housenumber" v="309"/><tag k="coa:place_id" v="199236"/></node><node id="-297" lat="30.427044" lon="-97.660553" changeset="false"><tag k="addr:street" v="Naruna Way"/><tag k="addr:housenumber" v="14221"/><tag k="coa:place_id" v="3296695"/></node><node id="-298" lat="30.424323" lon="-97.670083" changeset="false"><tag k="addr:street" v="West Howard Lane"/><tag k="addr:housenumber" v="1208"/><tag k="coa:place_id" v="3136936"/></node><node id="-299" lat="30.428284" lon="-97.669796" changeset="false"><tag k="addr:street" v="North Interstate Highway 35 Service Road"/><tag k="addr:housenumber" v="14021"/><tag k="coa:place_id" v="470552"/></node><node id="-300" lat="30.418446" lon="-97.655941" changeset="false"><tag k="addr:street" v="Wild Senna Drive,1100"/><tag k="addr:housenumber" v="324"/><tag k="coa:place_id" v="199251"/></node><node id="-301" lat="30.415705" lon="-97.654954" changeset="false"><tag k="addr:street" v="Greinert Drive"/><tag k="addr:housenumber" v="13701"/><tag k="coa:place_id" v="151781"/></node><node id="-302" lat="30.421074" lon="-97.659419" changeset="false"><tag k="addr:street" v="Golden Flax Trail"/><tag k="addr:housenumber" v="13820"/><tag k="coa:place_id" v="216655"/></node><node id="-303" lat="30.420642" lon="-97.659671" changeset="false"><tag k="addr:street" v="Golden Flax Trail"/><tag k="addr:housenumber" v="13804"/><tag k="coa:place_id" v="1102084"/></node><node id="-304" lat="30.423152" lon="-97.65807" changeset="false"><tag k="addr:street" v="Golden Flax Trail"/><tag k="addr:housenumber" v="14042"/><tag k="coa:place_id" v="212488"/></node><node id="-305" lat="30.421608" lon="-97.658925" changeset="false"><tag k="addr:street" v="Wild Senna Drive,1100"/><tag k="addr:housenumber" v="303"/><tag k="coa:place_id" v="214596"/></node><node id="-306" lat="30.420765" lon="-97.658068" changeset="false"><tag k="addr:street" v="Star Flower Way"/><tag k="addr:housenumber" v="114"/><tag k="coa:place_id" v="216648"/></node><node id="-307" lat="30.4173" lon="-97.656" changeset="false"><tag k="addr:street" v="Lampting Drive"/><tag k="addr:housenumber" v="13730"/><tag k="coa:place_id" v="145806"/></node><node id="-308" lat="30.422105" lon="-97.658088" changeset="false"><tag k="addr:street" v="Golden Flax Trail"/><tag k="addr:housenumber" v="14013"/><tag k="coa:place_id" v="212495"/></node><node id="-309" lat="30.421485" lon="-97.65638" changeset="false"><tag k="addr:street" v="Spring Heath Road"/><tag k="addr:housenumber" v="13907"/><tag k="coa:place_id" v="213432"/></node><node id="-310" lat="30.421278" lon="-97.65828" changeset="false"><tag k="addr:street" v="Wild Senna Drive,1100"/><tag k="addr:housenumber" v="213"/><tag k="coa:place_id" v="212461"/></node><node id="-311" lat="30.419812" lon="-97.656818" changeset="false"><tag k="addr:street" v="Segovia Way"/><tag k="addr:housenumber" v="125"/><tag k="coa:place_id" v="199194"/></node><node id="-312" lat="30.420463" lon="-97.653163" changeset="false"><tag k="addr:street" v="Lampting Drive"/><tag k="addr:housenumber" v="14008"/><tag k="coa:place_id" v="177917"/></node><node id="-313" lat="30.420437" lon="-97.657521" changeset="false"><tag k="addr:street" v="Spring Heath Road"/><tag k="addr:housenumber" v="13816"/><tag k="coa:place_id" v="214817"/></node><node id="-314" lat="30.419528" lon="-97.651629" changeset="false"><tag k="addr:street" v="Lampting Drive"/><tag k="addr:housenumber" v="14034"/><tag k="coa:place_id" v="161519"/></node><node id="-315" lat="30.41929" lon="-97.655393" changeset="false"><tag k="addr:street" v="Wild Senna Drive,1100"/><tag k="addr:housenumber" v="228"/><tag k="coa:place_id" v="195270"/></node><node id="-316" lat="30.418257" lon="-97.656663" changeset="false"><tag k="addr:street" v="Segovia Way"/><tag k="addr:housenumber" v="201"/><tag k="coa:place_id" v="199221"/></node><node id="-317" lat="30.422553" lon="-97.65847" changeset="false"><tag k="addr:street" v="Golden Flax Trail"/><tag k="addr:housenumber" v="14022"/><tag k="coa:place_id" v="212478"/></node><node id="-318" lat="30.419069" lon="-97.657311" changeset="false"><tag k="addr:street" v="Segovia Way"/><tag k="addr:housenumber" v="153"/><tag k="coa:place_id" v="199206"/></node><node id="-319" lat="30.42941" lon="-97.662785" changeset="false"><tag k="addr:street" v="Lake Victor Drive"/><tag k="addr:housenumber" v="14312"/><tag k="coa:place_id" v="3296510"/></node><node id="-320" lat="30.416713" lon="-97.649486" changeset="false"><tag k="addr:street" v="Merseyside Drive"/><tag k="addr:housenumber" v="13910"/><tag k="coa:place_id" v="556306"/></node><node id="-321" lat="30.416819" lon="-97.64943" changeset="false"><tag k="addr:street" v="Merseyside Drive"/><tag k="addr:housenumber" v="13912"/><tag k="coa:place_id" v="85099"/></node><node id="-322" lat="30.424031" lon="-97.66179" changeset="false"><tag k="addr:street" v="West Howard Lane"/><tag k="addr:housenumber" v="810"/><tag k="coa:place_id" v="1163405"/></node><node id="-323" lat="30.423875" lon="-97.661812" changeset="false"><tag k="addr:street" v="West Howard Lane"/><tag k="addr:housenumber" v="810 1/2"/><tag k="coa:place_id" v="3210285"/></node><node id="-324" lat="30.42246" lon="-97.663751" changeset="false"><tag k="addr:street" v="West Howard Lane"/><tag k="addr:housenumber" v="822"/><tag k="coa:place_id" v="1163404"/></node><node id="-325" lat="30.422397" lon="-97.663934" changeset="false"><tag k="addr:street" v="West Howard Lane"/><tag k="addr:housenumber" v="820"/><tag k="coa:place_id" v="1162175"/></node><node id="-326" lat="30.421692" lon="-97.65913" changeset="false"><tag k="addr:street" v="Wild Senna Drive,1100"/><tag k="addr:housenumber" v="307"/><tag k="coa:place_id" v="214595"/></node><node id="-327" lat="30.421677" lon="-97.659097" changeset="false"><tag k="addr:street" v="Wild Senna Drive,1100"/><tag k="addr:housenumber" v="305"/><tag k="coa:place_id" v="1104050"/></node></osm>