<?xml version="1.0" encoding="UTF-8"?><osm version="0.6" generator="github.com/aaronlidman/osm-and-geojson"><node id="-1" lat="30.313435" lon="-97.707815" changeset="false"><tag k="addr:street" v="North Interstate Highway  35 Service Road,1110"/><tag k="addr:housenumber" v="5363"/><tag k="coa:place_id" v="178443"/></node><node id="-2" lat="30.319911" lon="-97.704304" changeset="false"><tag k="addr:street" v="Clayton Lane"/><tag k="addr:housenumber" v="1026"/><tag k="coa:place_id" v="227376"/></node><node id="-3" lat="30.319849" lon="-97.697018" changeset="false"><tag k="addr:street" v="Cameron Road"/><tag k="addr:housenumber" v="6206"/><tag k="coa:place_id" v="127502"/></node><node id="-4" lat="30.319148" lon="-97.706483" changeset="false"><tag k="addr:street" v="North Interstate Highway  35 Service Road,1110"/><tag k="addr:housenumber" v="5821"/><tag k="coa:place_id" v="3033216"/></node><node id="-5" lat="30.318042" lon="-97.702281" changeset="false"><tag k="addr:street" v="Clayton Lane"/><tag k="addr:housenumber" v="1101"/><tag k="coa:place_id" v="775736"/></node><node id="-6" lat="30.311273" lon="-97.708587" changeset="false"><tag k="addr:street" v="North Interstate Highway  35 Service Road,1110"/><tag k="addr:housenumber" v="5301"/><tag k="coa:place_id" v="1114055"/></node><node id="-7" lat="30.313364" lon="-97.707886" changeset="false"><tag k="addr:street" v="North Interstate Highway  35 Service Road,1110"/><tag k="addr:housenumber" v="5357"/><tag k="coa:place_id" v="127214"/></node><node id="-8" lat="30.316436" lon="-97.702287" changeset="false"><tag k="addr:street" v="Reinli Street"/><tag k="addr:housenumber" v="1112"/><tag k="coa:place_id" v="776042"/></node><node id="-9" lat="30.313392" lon="-97.707832" changeset="false"><tag k="addr:street" v="North Interstate Highway  35 Service Road,1110"/><tag k="addr:housenumber" v="5361"/><tag k="coa:place_id" v="127232"/></node><node id="-10" lat="30.31472" lon="-97.707445" changeset="false"><tag k="addr:street" v="North Interstate Highway  35 Service Road,1110"/><tag k="addr:housenumber" v="5447"/><tag k="coa:place_id" v="127322"/></node><node id="-11" lat="30.315664" lon="-97.701923" changeset="false"><tag k="addr:street" v="Cameron Road"/><tag k="addr:housenumber" v="5710"/><tag k="coa:place_id" v="89666"/></node><node id="-12" lat="30.318171" lon="-97.706836" changeset="false"><tag k="addr:street" v="North Interstate Highway  35 Service Road,1110"/><tag k="addr:housenumber" v="5741 1/2"/><tag k="coa:place_id" v="3042595"/></node><node id="-13" lat="30.319906" lon="-97.705535" changeset="false"><tag k="addr:street" v="Clayton Lane"/><tag k="addr:housenumber" v="941"/><tag k="coa:place_id" v="671457"/></node><node id="-14" lat="30.312111" lon="-97.708374" changeset="false"><tag k="addr:street" v="North Interstate Highway  35 Service Road,1110"/><tag k="addr:housenumber" v="5329"/><tag k="coa:place_id" v="3430079"/></node><node id="-15" lat="30.311624" lon="-97.707719" changeset="false"><tag k="addr:street" v="Cameron Road"/><tag k="addr:housenumber" v="5316"/><tag k="coa:place_id" v="243389"/></node><node id="-16" lat="30.321327" lon="-97.706304" changeset="false"><tag k="addr:street" v="North Interstate Highway  35 Service Road,1110"/><tag k="addr:housenumber" v="6023"/><tag k="coa:place_id" v="319227"/></node><node id="-17" lat="30.321278" lon="-97.699268" changeset="false"><tag k="addr:street" v="East US 290 Frontage Road"/><tag k="addr:housenumber" v="6309 1/2"/><tag k="coa:place_id" v="1118027"/></node><node id="-18" lat="30.31456" lon="-97.707494" changeset="false"><tag k="addr:street" v="North Interstate Highway  35 Service Road,1110"/><tag k="addr:housenumber" v="5433"/><tag k="coa:place_id" v="127286"/></node><node id="-19" lat="30.321358" lon="-97.701156" changeset="false"><tag k="addr:street" v="Sheridan Avenue"/><tag k="addr:housenumber" v="6200"/><tag k="coa:place_id" v="311181"/></node><node id="-20" lat="30.321354" lon="-97.706297" changeset="false"><tag k="addr:street" v="North Interstate Highway  35 Service Road,1110"/><tag k="addr:housenumber" v="6029"/><tag k="coa:place_id" v="287205"/></node><node id="-21" lat="30.316847" lon="-97.706901" changeset="false"><tag k="addr:street" v="North Interstate Highway  35 Service Road,1110"/><tag k="addr:housenumber" v="5621 1/2"/><tag k="coa:place_id" v="3086074"/></node><node id="-22" lat="30.320334" lon="-97.697238" changeset="false"><tag k="addr:street" v="Cameron Road"/><tag k="addr:housenumber" v="6208"/><tag k="coa:place_id" v="1024298"/></node><node id="-23" lat="30.32057" lon="-97.701914" changeset="false"><tag k="addr:street" v="Broadview Street"/><tag k="addr:housenumber" v="1038"/><tag k="coa:place_id" v="775388"/></node><node id="-24" lat="30.321372" lon="-97.706293" changeset="false"><tag k="addr:street" v="North Interstate Highway  35 Service Road,1110"/><tag k="addr:housenumber" v="6033"/><tag k="coa:place_id" v="5088524"/></node><node id="-25" lat="30.321302" lon="-97.705592" changeset="false"><tag k="addr:street" v="North Interstate Highway  35 Service Road,1110"/><tag k="addr:housenumber" v="6017"/><tag k="coa:place_id" v="218439"/></node><node id="-26" lat="30.319208" lon="-97.698515" changeset="false"><tag k="addr:street" v="Cameron Road"/><tag k="addr:housenumber" v="6106"/><tag k="coa:place_id" v="127514"/></node><node id="-27" lat="30.31939" lon="-97.697509" changeset="false"><tag k="addr:street" v="Cameron Road"/><tag k="addr:housenumber" v="6116"/><tag k="coa:place_id" v="128743"/></node><node id="-28" lat="30.321362" lon="-97.706295" changeset="false"><tag k="addr:street" v="North Interstate Highway  35 Service Road,1110"/><tag k="addr:housenumber" v="6031"/><tag k="coa:place_id" v="322155"/></node><node id="-29" lat="30.314676" lon="-97.7074" changeset="false"><tag k="addr:street" v="North Interstate Highway  35 Service Road,1110"/><tag k="addr:housenumber" v="5431"/><tag k="coa:place_id" v="3033238"/></node><node id="-30" lat="30.316107" lon="-97.701547" changeset="false"><tag k="addr:street" v="Cameron Road"/><tag k="addr:housenumber" v="5720"/><tag k="coa:place_id" v="3085146"/></node><node id="-31" lat="30.319168" lon="-97.697791" changeset="false"><tag k="addr:street" v="Cameron Road"/><tag k="addr:housenumber" v="6110"/><tag k="coa:place_id" v="215838"/></node><node id="-32" lat="30.313859" lon="-97.707732" changeset="false"><tag k="addr:street" v="North Interstate Highway  35 Service Road,1110"/><tag k="addr:housenumber" v="5413"/><tag k="coa:place_id" v="776792"/></node><node id="-33" lat="30.313865" lon="-97.704459" changeset="false"><tag k="addr:street" v="Cameron Road"/><tag k="addr:housenumber" v="5600"/><tag k="coa:place_id" v="127352"/></node><node id="-34" lat="30.320168" lon="-97.706094" changeset="false"><tag k="addr:street" v="Clayton Lane"/><tag k="addr:housenumber" v="917"/><tag k="coa:place_id" v="775514"/></node><node id="-35" lat="30.312159" lon="-97.708344" changeset="false"><tag k="addr:street" v="Cameron Road"/><tag k="addr:housenumber" v="5329"/><tag k="coa:place_id" v="3430078"/></node><node id="-36" lat="30.321345" lon="-97.706299" changeset="false"><tag k="addr:street" v="North Interstate Highway  35 Service Road,1110"/><tag k="addr:housenumber" v="6027"/><tag k="coa:place_id" v="287349"/></node><node id="-37" lat="30.316079" lon="-97.702498" changeset="false"><tag k="addr:street" v="Reinli Street"/><tag k="addr:housenumber" v="1113 1/2"/><tag k="coa:place_id" v="3095628"/></node><node id="-38" lat="30.320762" lon="-97.697051" changeset="false"><tag k="addr:street" v="East US 290 Frontage Road"/><tag k="addr:housenumber" v="6415"/><tag k="coa:place_id" v="195703"/></node><node id="-39" lat="30.320147" lon="-97.706048" changeset="false"><tag k="addr:street" v="Clayton Lane"/><tag k="addr:housenumber" v="919"/><tag k="coa:place_id" v="775508"/></node><node id="-40" lat="30.317743" lon="-97.70575" changeset="false"><tag k="addr:street" v="Reinli Street"/><tag k="addr:housenumber" v="1023"/><tag k="coa:place_id" v="543957"/></node><node id="-41" lat="30.315542" lon="-97.702291" changeset="false"><tag k="addr:street" v="Cameron Road"/><tag k="addr:housenumber" v="5700"/><tag k="coa:place_id" v="127358"/></node><node id="-42" lat="30.315063" lon="-97.707065" changeset="false"><tag k="addr:street" v="North Interstate Highway  35 Service Road,1110"/><tag k="addr:housenumber" v="5449"/><tag k="coa:place_id" v="127328"/></node><node id="-43" lat="30.310983" lon="-97.707993" changeset="false"><tag k="addr:street" v="Cameron Road"/><tag k="addr:housenumber" v="5300"/><tag k="coa:place_id" v="1114068"/></node><node id="-44" lat="30.313903" lon="-97.707718" changeset="false"><tag k="addr:street" v="North Interstate Highway  35 Service Road,1110"/><tag k="addr:housenumber" v="5415"/><tag k="coa:place_id" v="776810"/></node><node id="-45" lat="30.311543" lon="-97.707545" changeset="false"><tag k="addr:street" v="Cameron Road"/><tag k="addr:housenumber" v="5322"/><tag k="coa:place_id" v="127076"/></node><node id="-46" lat="30.321336" lon="-97.706302" changeset="false"><tag k="addr:street" v="North Interstate Highway  35 Service Road,1110"/><tag k="addr:housenumber" v="6025"/><tag k="coa:place_id" v="724492"/></node><node id="-47" lat="30.318122" lon="-97.699427" changeset="false"><tag k="addr:street" v="Cameron Road"/><tag k="addr:housenumber" v="6008"/><tag k="coa:place_id" v="3373514"/></node><node id="-48" lat="30.314583" lon="-97.707477" changeset="false"><tag k="addr:street" v="North Interstate Highway  35 Service Road,1110"/><tag k="addr:housenumber" v="5435"/><tag k="coa:place_id" v="127292"/></node><node id="-49" lat="30.316939" lon="-97.70699" changeset="false"><tag k="addr:street" v="North Interstate Highway  35 Service Road,1110"/><tag k="addr:housenumber" v="5701"/><tag k="coa:place_id" v="3033222"/></node><node id="-50" lat="30.319515" lon="-97.703988" changeset="false"><tag k="addr:street" v="Clayton Lane"/><tag k="addr:housenumber" v="1030 1/2"/><tag k="coa:place_id" v="3094005"/></node><node id="-51" lat="30.314697" lon="-97.707454" changeset="false"><tag k="addr:street" v="North Interstate Highway  35 Service Road,1110"/><tag k="addr:housenumber" v="5445"/><tag k="coa:place_id" v="127316"/></node><node id="-52" lat="30.321407" lon="-97.700323" changeset="false"><tag k="addr:street" v="East US 290 Frontage Road"/><tag k="addr:housenumber" v="6301 1/2"/><tag k="coa:place_id" v="1116787"/></node><node id="-53" lat="30.318302" lon="-97.706228" changeset="false"><tag k="addr:street" v="Reinli Street"/><tag k="addr:housenumber" v="1008"/><tag k="coa:place_id" v="137097"/></node><node id="-54" lat="30.318044" lon="-97.700762" changeset="false"><tag k="addr:street" v="Clayton Lane"/><tag k="addr:housenumber" v="1120"/><tag k="coa:place_id" v="775292"/></node><node id="-55" lat="30.314628" lon="-97.70747" changeset="false"><tag k="addr:street" v="North Interstate Highway  35 Service Road,1110"/><tag k="addr:housenumber" v="5439"/><tag k="coa:place_id" v="127298"/></node><node id="-56" lat="30.317505" lon="-97.706815" changeset="false"><tag k="addr:street" v="North Interstate Highway  35 Service Road,1110"/><tag k="addr:housenumber" v="5723"/><tag k="coa:place_id" v="3033221"/></node><node id="-57" lat="30.317803" lon="-97.706723" changeset="false"><tag k="addr:street" v="North Interstate Highway  35 Service Road,1110"/><tag k="addr:housenumber" v="5725"/><tag k="coa:place_id" v="3033220"/></node><node id="-58" lat="30.320504" lon="-97.696809" changeset="false"><tag k="addr:street" v="Cameron Road"/><tag k="addr:housenumber" v="6214"/><tag k="coa:place_id" v="217071"/></node><node id="-59" lat="30.320781" lon="-97.697312" changeset="false"><tag k="addr:street" v="East US 290 Frontage Road"/><tag k="addr:housenumber" v="6375"/><tag k="coa:place_id" v="452818"/></node><node id="-60" lat="30.318026" lon="-97.706781" changeset="false"><tag k="addr:street" v="North Interstate Highway  35 Service Road,1110"/><tag k="addr:housenumber" v="5735"/><tag k="coa:place_id" v="996374"/></node><node id="-61" lat="30.313478" lon="-97.707797" changeset="false"><tag k="addr:street" v="North Interstate Highway  35 Service Road,1110"/><tag k="addr:housenumber" v="5365"/><tag k="coa:place_id" v="127244"/></node><node id="-62" lat="30.314605" lon="-97.707472" changeset="false"><tag k="addr:street" v="North Interstate Highway  35 Service Road,1110"/><tag k="addr:housenumber" v="5437"/><tag k="coa:place_id" v="675520"/></node><node id="-63" lat="30.319509" lon="-97.705935" changeset="false"><tag k="addr:street" v="North Interstate Highway  35 Service Road,1110"/><tag k="addr:housenumber" v="5901"/><tag k="coa:place_id" v="3033214"/></node><node id="-64" lat="30.311633" lon="-97.707213" changeset="false"><tag k="addr:street" v="Cameron Road"/><tag k="addr:housenumber" v="5326"/><tag k="coa:place_id" v="776750"/></node><node id="-65" lat="30.320125" lon="-97.706001" changeset="false"><tag k="addr:street" v="Clayton Lane"/><tag k="addr:housenumber" v="921"/><tag k="coa:place_id" v="310521"/></node><node id="-66" lat="30.313949" lon="-97.707625" changeset="false"><tag k="addr:street" v="North Interstate Highway  35 Service Road,1110"/><tag k="addr:housenumber" v="5419"/><tag k="coa:place_id" v="3033243"/></node><node id="-67" lat="30.31174" lon="-97.707455" changeset="false"><tag k="addr:street" v="Cameron Road"/><tag k="addr:housenumber" v="5320"/><tag k="coa:place_id" v="776744"/></node><node id="-68" lat="30.311861" lon="-97.707728" changeset="false"><tag k="addr:street" v="Cameron Road"/><tag k="addr:housenumber" v="5314"/><tag k="coa:place_id" v="243388"/></node><node id="-69" lat="30.312027" lon="-97.707911" changeset="false"><tag k="addr:street" v="Cameron Road"/><tag k="addr:housenumber" v="5310"/><tag k="coa:place_id" v="776702"/></node><node id="-70" lat="30.312103" lon="-97.708148" changeset="false"><tag k="addr:street" v="Cameron Road"/><tag k="addr:housenumber" v="5312"/><tag k="coa:place_id" v="776720"/></node><node id="-71" lat="30.311474" lon="-97.707372" changeset="false"><tag k="addr:street" v="Cameron Road"/><tag k="addr:housenumber" v="5324"/><tag k="coa:place_id" v="127088"/></node><node id="-72" lat="30.312327" lon="-97.707783" changeset="false"><tag k="addr:street" v="North Interstate Highway  35 Service Road,1110"/><tag k="addr:housenumber" v="5339"/><tag k="coa:place_id" v="3033249"/></node><node id="-73" lat="30.313921" lon="-97.705356" changeset="false"><tag k="addr:street" v="North Interstate Highway  35 Service Road,1110"/><tag k="addr:housenumber" v="5443"/><tag k="coa:place_id" v="305446"/></node><node id="-74" lat="30.315642" lon="-97.705315" changeset="false"><tag k="addr:street" v="North Interstate Highway  35 Service Road,1110"/><tag k="addr:housenumber" v="5465"/><tag k="coa:place_id" v="127406"/></node><node id="-75" lat="30.315429" lon="-97.70494" changeset="false"><tag k="addr:street" v="North Interstate Highway  35 Service Road,1110"/><tag k="addr:housenumber" v="5455"/><tag k="coa:place_id" v="776822"/></node><node id="-76" lat="30.313436" lon="-97.705646" changeset="false"><tag k="addr:street" v="North Interstate Highway  35 Service Road,1110"/><tag k="addr:housenumber" v="5423"/><tag k="coa:place_id" v="3135513"/></node><node id="-77" lat="30.314284" lon="-97.705097" changeset="false"><tag k="addr:street" v="North Interstate Highway  35 Service Road,1110"/><tag k="addr:housenumber" v="5441"/><tag k="coa:place_id" v="127304"/></node><node id="-78" lat="30.315485" lon="-97.705068" changeset="false"><tag k="addr:street" v="North Interstate Highway  35 Service Road,1110"/><tag k="addr:housenumber" v="5459"/><tag k="coa:place_id" v="776828"/></node><node id="-79" lat="30.313149" lon="-97.705866" changeset="false"><tag k="addr:street" v="North Interstate Highway  35 Service Road,1110"/><tag k="addr:housenumber" v="5409"/><tag k="coa:place_id" v="776786"/></node><node id="-80" lat="30.316394" lon="-97.706142" changeset="false"><tag k="addr:street" v="North Interstate Highway  35 Service Road,1110"/><tag k="addr:housenumber" v="5621"/><tag k="coa:place_id" v="127418"/></node><node id="-81" lat="30.313501" lon="-97.705757" changeset="false"><tag k="addr:street" v="North Interstate Highway  35 Service Road,1110"/><tag k="addr:housenumber" v="5421"/><tag k="coa:place_id" v="127256"/></node><node id="-82" lat="30.312673" lon="-97.70652" changeset="false"><tag k="addr:street" v="Cameron Road"/><tag k="addr:housenumber" v="5402"/><tag k="coa:place_id" v="200801"/></node><node id="-83" lat="30.315802" lon="-97.705699" changeset="false"><tag k="addr:street" v="North Interstate Highway  35 Service Road,1110"/><tag k="addr:housenumber" v="5501"/><tag k="coa:place_id" v="462832"/></node><node id="-84" lat="30.315457" lon="-97.705004" changeset="false"><tag k="addr:street" v="North Interstate Highway  35 Service Road,1110"/><tag k="addr:housenumber" v="5457"/><tag k="coa:place_id" v="127394"/></node><node id="-85" lat="30.313654" lon="-97.705537" changeset="false"><tag k="addr:street" v="North Interstate Highway  35 Service Road,1110"/><tag k="addr:housenumber" v="5429"/><tag k="coa:place_id" v="127274"/></node><node id="-86" lat="30.315719" lon="-97.705503" changeset="false"><tag k="addr:street" v="North Interstate Highway  35 Service Road,1110"/><tag k="addr:housenumber" v="5467"/><tag k="coa:place_id" v="127412"/></node><node id="-87" lat="30.313368" lon="-97.705527" changeset="false"><tag k="addr:street" v="North Interstate Highway  35 Service Road,1110"/><tag k="addr:housenumber" v="5425"/><tag k="coa:place_id" v="3303074"/></node><node id="-88" lat="30.313213" lon="-97.705945" changeset="false"><tag k="addr:street" v="North Interstate Highway  35 Service Road,1110"/><tag k="addr:housenumber" v="5405"/><tag k="coa:place_id" v="776780"/></node><node id="-89" lat="30.314873" lon="-97.704654" changeset="false"><tag k="addr:street" v="North Interstate Highway  35 Service Road,1110"/><tag k="addr:housenumber" v="5451"/><tag k="coa:place_id" v="3033234"/></node><node id="-90" lat="30.313719" lon="-97.705647" changeset="false"><tag k="addr:street" v="North Interstate Highway  35 Service Road,1110"/><tag k="addr:housenumber" v="5427"/><tag k="coa:place_id" v="127268"/></node><node id="-91" lat="30.312975" lon="-97.706004" changeset="false"><tag k="addr:street" v="Cameron Road"/><tag k="addr:housenumber" v="5420"/><tag k="coa:place_id" v="127250"/></node><node id="-92" lat="30.315387" lon="-97.704858" changeset="false"><tag k="addr:street" v="North Interstate Highway  35 Service Road,1110"/><tag k="addr:housenumber" v="5453"/><tag k="coa:place_id" v="127388"/></node><node id="-93" lat="30.31558" lon="-97.705124" changeset="false"><tag k="addr:street" v="North Interstate Highway  35 Service Road,1110"/><tag k="addr:housenumber" v="5463"/><tag k="coa:place_id" v="127400"/></node></osm>