<?xml version="1.0" encoding="UTF-8"?><osm version="0.6" generator="github.com/aaronlidman/osm-and-geojson"><node id="-1" lat="30.410847" lon="-97.649772" changeset="false"><tag k="addr:street" v="East Howard Lane"/><tag k="addr:housenumber" v="929"/><tag k="addr:postcode" v="78660"/></node><node id="-2" lat="30.417031" lon="-97.644064" changeset="false"><tag k="addr:street" v="Maricella Lane"/><tag k="addr:housenumber" v="14041"/><tag k="addr:postcode" v="78660"/></node><node id="-3" lat="30.415084" lon="-97.645902" changeset="false"><tag k="addr:street" v="Maricella Lane"/><tag k="addr:housenumber" v="13908"/><tag k="addr:postcode" v="78660"/></node><node id="-4" lat="30.416033" lon="-97.649208" changeset="false"><tag k="addr:street" v="Merseyside Drive"/><tag k="addr:housenumber" v="13903"/><tag k="addr:postcode" v="78660"/></node><node id="-5" lat="30.417118" lon="-97.64414" changeset="false"><tag k="addr:street" v="Maricella Lane"/><tag k="addr:housenumber" v="14045"/><tag k="addr:postcode" v="78660"/></node><node id="-6" lat="30.408951" lon="-97.64042" changeset="false"><tag k="addr:street" v="Harrisglenn Drive"/><tag k="addr:housenumber" v="13709"/><tag k="addr:postcode" v="78660"/></node><node id="-7" lat="30.409821" lon="-97.640576" changeset="false"><tag k="addr:street" v="Harrisglenn Drive"/><tag k="addr:housenumber" v="13732"/><tag k="addr:postcode" v="78660"/></node><node id="-8" lat="30.41674" lon="-97.643925" changeset="false"><tag k="addr:street" v="Maricella Lane"/><tag k="addr:housenumber" v="14033"/><tag k="addr:postcode" v="78660"/></node><node id="-9" lat="30.414396" lon="-97.645773" changeset="false"><tag k="addr:street" v="Harris Ridge Boulevard"/><tag k="addr:housenumber" v="13815"/><tag k="addr:postcode" v="78660"/></node><node id="-10" lat="30.413234" lon="-97.647797" changeset="false"><tag k="addr:street" v="Letti Lane"/><tag k="addr:housenumber" v="13715"/><tag k="addr:postcode" v="78660"/></node><node id="-11" lat="30.416449" lon="-97.646136" changeset="false"><tag k="addr:street" v="Harris Ridge Boulevard"/><tag k="addr:housenumber" v="14005"/><tag k="addr:postcode" v="78660"/></node><node id="-12" lat="30.409106" lon="-97.640829" changeset="false"><tag k="addr:street" v="Harrisglenn Drive"/><tag k="addr:housenumber" v="13712"/><tag k="addr:postcode" v="78660"/></node><node id="-13" lat="30.411552" lon="-97.648907" changeset="false"><tag k="addr:street" v="Letti Lane"/><tag k="addr:housenumber" v="13607"/><tag k="addr:postcode" v="78660"/></node><node id="-14" lat="30.411423" lon="-97.647748" changeset="false"><tag k="addr:street" v="Harris Ridge Boulevard"/><tag k="addr:housenumber" v="13608"/><tag k="addr:postcode" v="78660"/></node><node id="-15" lat="30.404987" lon="-97.639213" changeset="false"><tag k="addr:street" v="Fish Lane"/><tag k="addr:housenumber" v="1621 1/2"/><tag k="addr:postcode" v="78660"/></node><node id="-16" lat="30.417851" lon="-97.644416" changeset="false"><tag k="addr:street" v="Maricella Lane"/><tag k="addr:housenumber" v="14109"/><tag k="addr:postcode" v="78660"/></node><node id="-17" lat="30.416985" lon="-97.644977" changeset="false"><tag k="addr:street" v="Maricella Lane"/><tag k="addr:housenumber" v="14034"/><tag k="addr:postcode" v="78660"/></node><node id="-18" lat="30.415709" lon="-97.649189" changeset="false"><tag k="addr:street" v="Cambourne Drive"/><tag k="addr:housenumber" v="13816"/><tag k="addr:postcode" v="78660"/></node><node id="-19" lat="30.41547" lon="-97.646579" changeset="false"><tag k="addr:street" v="Harris Ridge Boulevard"/><tag k="addr:housenumber" v="13916"/><tag k="addr:postcode" v="78660"/></node><node id="-20" lat="30.408661" lon="-97.640357" changeset="false"><tag k="addr:street" v="Harrisglenn Drive"/><tag k="addr:housenumber" v="13701"/><tag k="addr:postcode" v="78660"/></node><node id="-21" lat="30.40961" lon="-97.640212" changeset="false"><tag k="addr:street" v="Harrisglenn Drive"/><tag k="addr:housenumber" v="13729"/><tag k="addr:postcode" v="78660"/></node><node id="-22" lat="30.409037" lon="-97.635846" changeset="false"><tag k="addr:street" v="Dessau Road"/><tag k="addr:housenumber" v="13840"/><tag k="addr:postcode" v="78660"/></node><node id="-23" lat="30.41" lon="-97.648154" changeset="false"><tag k="addr:street" v="Harris Ridge Boulevard"/><tag k="addr:housenumber" v="13505 1/2"/><tag k="addr:postcode" v="78660"/></node><node id="-24" lat="30.416378" lon="-97.646714" changeset="false"><tag k="addr:street" v="Harris Ridge Boulevard"/><tag k="addr:housenumber" v="14004"/><tag k="addr:postcode" v="78660"/></node><node id="-25" lat="30.403832" lon="-97.637845" changeset="false"><tag k="addr:street" v="Dessau Road"/><tag k="addr:housenumber" v="13501"/><tag k="addr:postcode" v="78660"/></node><node id="-26" lat="30.411387" lon="-97.649032" changeset="false"><tag k="addr:street" v="Letti Lane"/><tag k="addr:housenumber" v="13605"/><tag k="addr:postcode" v="78660"/></node><node id="-27" lat="30.404492" lon="-97.638456" changeset="false"><tag k="addr:street" v="Dessau Road"/><tag k="addr:housenumber" v="13500"/><tag k="addr:postcode" v="78660"/></node><node id="-28" lat="30.404154" lon="-97.63864" changeset="false"><tag k="addr:street" v="East Howard Lane"/><tag k="addr:housenumber" v="1624"/><tag k="addr:postcode" v="78660"/></node><node id="-29" lat="30.409949" lon="-97.640488" changeset="false"><tag k="addr:street" v="Harrisglenn Drive"/><tag k="addr:housenumber" v="13736"/><tag k="addr:postcode" v="78660"/></node><node id="-30" lat="30.412273" lon="-97.649722" changeset="false"><tag k="addr:street" v="Cambourne Drive"/><tag k="addr:housenumber" v="13601"/><tag k="addr:postcode" v="78660"/></node><node id="-31" lat="30.415694" lon="-97.64523" changeset="false"><tag k="addr:street" v="Maricella Lane"/><tag k="addr:housenumber" v="13932"/><tag k="addr:postcode" v="78660"/></node><node id="-32" lat="30.411826" lon="-97.649458" changeset="false"><tag k="addr:street" v="Letti Lane"/><tag k="addr:housenumber" v="13600"/><tag k="addr:postcode" v="78660"/></node><node id="-33" lat="30.410539" lon="-97.64847" changeset="false"><tag k="addr:street" v="East Howard Lane"/><tag k="addr:housenumber" v="1010"/><tag k="addr:postcode" v="78660"/></node><node id="-34" lat="30.411965" lon="-97.647361" changeset="false"><tag k="addr:street" v="Harris Ridge Boulevard"/><tag k="addr:housenumber" v="13620"/><tag k="addr:postcode" v="78660"/></node><node id="-35" lat="30.411575" lon="-97.649329" changeset="false"><tag k="addr:street" v="Letti Lane"/><tag k="addr:housenumber" v="13601"/><tag k="addr:postcode" v="78660"/></node><node id="-36" lat="30.414108" lon="-97.64747" changeset="false"><tag k="addr:street" v="Castleton Drive"/><tag k="addr:housenumber" v="907"/><tag k="addr:postcode" v="78660"/></node><node id="-37" lat="30.408809" lon="-97.64037" changeset="false"><tag k="addr:street" v="Harrisglenn Drive"/><tag k="addr:housenumber" v="13705"/><tag k="addr:postcode" v="78660"/></node><node id="-38" lat="30.408643" lon="-97.640777" changeset="false"><tag k="addr:street" v="Harrisglenn Drive"/><tag k="addr:housenumber" v="13700"/><tag k="addr:postcode" v="78660"/></node><node id="-39" lat="30.409891" lon="-97.640051" changeset="false"><tag k="addr:street" v="Harrisglenn Drive"/><tag k="addr:housenumber" v="13737"/><tag k="addr:postcode" v="78660"/></node><node id="-40" lat="30.40916" lon="-97.640377" changeset="false"><tag k="addr:street" v="Harrisglenn Drive"/><tag k="addr:housenumber" v="13713"/><tag k="addr:postcode" v="78660"/></node><node id="-41" lat="30.408961" lon="-97.640823" changeset="false"><tag k="addr:street" v="Harrisglenn Drive"/><tag k="addr:housenumber" v="13708"/><tag k="addr:postcode" v="78660"/></node><node id="-42" lat="30.409406" lon="-97.640797" changeset="false"><tag k="addr:street" v="Harrisglenn Drive"/><tag k="addr:housenumber" v="13720"/><tag k="addr:postcode" v="78660"/></node><node id="-43" lat="30.410061" lon="-97.640396" changeset="false"><tag k="addr:street" v="Harrisglenn Drive"/><tag k="addr:housenumber" v="13740"/><tag k="addr:postcode" v="78660"/></node><node id="-44" lat="30.409467" lon="-97.640283" changeset="false"><tag k="addr:street" v="Harrisglenn Drive"/><tag k="addr:housenumber" v="13725"/><tag k="addr:postcode" v="78660"/></node><node id="-45" lat="30.409757" lon="-97.640133" changeset="false"><tag k="addr:street" v="Harrisglenn Drive"/><tag k="addr:housenumber" v="13733"/><tag k="addr:postcode" v="78660"/></node><node id="-46" lat="30.416181" lon="-97.646819" changeset="false"><tag k="addr:street" v="Cambourne Drive"/><tag k="addr:housenumber" v="13924"/><tag k="addr:postcode" v="78660"/></node><node id="-47" lat="30.411668" lon="-97.650129" changeset="false"><tag k="addr:street" v="East Howard Lane"/><tag k="addr:housenumber" v="910"/><tag k="addr:postcode" v="78660"/></node><node id="-48" lat="30.40954" lon="-97.640731" changeset="false"><tag k="addr:street" v="Harrisglenn Drive"/><tag k="addr:housenumber" v="13724"/><tag k="addr:postcode" v="78660"/></node><node id="-49" lat="30.404974" lon="-97.637083" changeset="false"><tag k="addr:street" v="Dessau Road"/><tag k="addr:housenumber" v="13601"/><tag k="addr:postcode" v="78660"/></node><node id="-50" lat="30.408799" lon="-97.64081" changeset="false"><tag k="addr:street" v="Harrisglenn Drive"/><tag k="addr:housenumber" v="13704"/><tag k="addr:postcode" v="78660"/></node><node id="-51" lat="30.409253" lon="-97.640821" changeset="false"><tag k="addr:street" v="Harrisglenn Drive"/><tag k="addr:housenumber" v="13716"/><tag k="addr:postcode" v="78660"/></node><node id="-52" lat="30.409697" lon="-97.640649" changeset="false"><tag k="addr:street" v="Harrisglenn Drive"/><tag k="addr:housenumber" v="13728"/><tag k="addr:postcode" v="78660"/></node><node id="-53" lat="30.409679" lon="-97.646642" changeset="false"><tag k="addr:street" v="East Howard Lane"/><tag k="addr:housenumber" v="1100"/><tag k="addr:postcode" v="78660"/></node><node id="-54" lat="30.406151" lon="-97.641381" changeset="false"><tag k="addr:street" v="Fish Lane"/><tag k="addr:housenumber" v="1601"/><tag k="addr:postcode" v="78660"/></node><node id="-55" lat="30.410205" lon="-97.64309" changeset="false"><tag k="addr:street" v="East Howard Lane"/><tag k="addr:housenumber" v="1208"/><tag k="addr:postcode" v="78660"/></node><node id="-56" lat="30.411272" lon="-97.649176" changeset="false"><tag k="addr:street" v="Letti Lane"/><tag k="addr:housenumber" v="13603"/><tag k="addr:postcode" v="78660"/></node><node id="-57" lat="30.416887" lon="-97.643984" changeset="false"><tag k="addr:street" v="Maricella Lane"/><tag k="addr:housenumber" v="14037"/><tag k="addr:postcode" v="78660"/></node><node id="-58" lat="30.416578" lon="-97.643971" changeset="false"><tag k="addr:street" v="Maricella Lane"/><tag k="addr:housenumber" v="14029"/><tag k="addr:postcode" v="78660"/></node><node id="-59" lat="30.407218" lon="-97.636266" changeset="false"><tag k="addr:street" v="Dessau Road"/><tag k="addr:housenumber" v="13700 1/2"/><tag k="addr:postcode" v="78660"/></node><node id="-60" lat="30.414107" lon="-97.647587" changeset="false"><tag k="addr:street" v="Castleton Drive"/><tag k="addr:housenumber" v="905"/><tag k="addr:postcode" v="78660"/></node><node id="-61" lat="30.405502" lon="-97.639993" changeset="false"><tag k="addr:street" v="Fish Lane"/><tag k="addr:housenumber" v="1601 1/2"/><tag k="addr:postcode" v="78660"/></node><node id="-62" lat="30.417262" lon="-97.644186" changeset="false"><tag k="addr:street" v="Maricella Lane"/><tag k="addr:housenumber" v="14101"/><tag k="addr:postcode" v="78660"/></node><node id="-63" lat="30.415309" lon="-97.645943" changeset="false"><tag k="addr:street" v="Harris Ridge Boulevard"/><tag k="addr:housenumber" v="13913 1/2"/><tag k="addr:postcode" v="78660"/></node><node id="-64" lat="30.415348" lon="-97.645865" changeset="false"><tag k="addr:street" v="Harris Ridge Boulevard"/><tag k="addr:housenumber" v="13913"/><tag k="addr:postcode" v="78660"/></node><node id="-65" lat="30.413487" lon="-97.649893" changeset="false"><tag k="addr:street" v="Cambourne Drive"/><tag k="addr:housenumber" v="13708"/><tag k="addr:postcode" v="78660"/></node><node id="-66" lat="30.413502" lon="-97.649929" changeset="false"><tag k="addr:street" v="Cambourne Drive"/><tag k="addr:housenumber" v="13706"/><tag k="addr:postcode" v="78660"/></node></osm>