<?xml version="1.0" encoding="UTF-8"?><osm version="0.6" generator="github.com/aaronlidman/osm-and-geojson"><node id="-1" lat="30.186167" lon="-97.76799" changeset="false"><tag k="addr:street" v="Bluff Springs Road"/><tag k="addr:housenumber" v="6717"/><tag k="coa:place_id" v="836798"/></node><node id="-2" lat="30.185296" lon="-97.765121" changeset="false"><tag k="addr:street" v="Bitter Creek Drive"/><tag k="addr:housenumber" v="1916"/><tag k="coa:place_id" v="819824"/></node><node id="-3" lat="30.185252" lon="-97.76585" changeset="false"><tag k="addr:street" v="Bitter Creek Drive"/><tag k="addr:housenumber" v="1911"/><tag k="coa:place_id" v="818636"/></node><node id="-4" lat="30.178045" lon="-97.766163" changeset="false"><tag k="addr:street" v="Patsy Parkway"/><tag k="addr:housenumber" v="2209"/><tag k="coa:place_id" v="73863"/></node><node id="-5" lat="30.184489" lon="-97.766031" changeset="false"><tag k="addr:street" v="Deer Run Drive"/><tag k="addr:housenumber" v="1912"/><tag k="coa:place_id" v="836684"/></node><node id="-6" lat="30.186685" lon="-97.764451" changeset="false"><tag k="addr:street" v="Westwood Circle"/><tag k="addr:housenumber" v="6608"/><tag k="coa:place_id" v="1147205"/></node><node id="-7" lat="30.183061" lon="-97.766723" changeset="false"><tag k="addr:street" v="Blue Meadow Drive"/><tag k="addr:housenumber" v="1914"/><tag k="coa:place_id" v="836258"/></node><node id="-8" lat="30.182984" lon="-97.767643" changeset="false"><tag k="addr:street" v="Blue Meadow Drive"/><tag k="addr:housenumber" v="1905"/><tag k="coa:place_id" v="836096"/></node><node id="-9" lat="30.177838" lon="-97.765439" changeset="false"><tag k="addr:street" v="Patsy Parkway"/><tag k="addr:housenumber" v="2301"/><tag k="coa:place_id" v="73868"/></node><node id="-10" lat="30.177801" lon="-97.765265" changeset="false"><tag k="addr:street" v="Patsy Parkway"/><tag k="addr:housenumber" v="2303"/><tag k="coa:place_id" v="73869"/></node><node id="-11" lat="30.187613" lon="-97.765455" changeset="false"><tag k="addr:street" v="East William Cannon Drive"/><tag k="addr:housenumber" v="1905"/><tag k="coa:place_id" v="1109827"/></node><node id="-12" lat="30.178814" lon="-97.766102" changeset="false"><tag k="addr:street" v="Eds Cove"/><tag k="addr:housenumber" v="7300"/><tag k="coa:place_id" v="579970"/></node><node id="-13" lat="30.181854" lon="-97.765081" changeset="false"><tag k="addr:street" v="Blue Meadow Drive"/><tag k="addr:housenumber" v="2107"/><tag k="coa:place_id" v="836186"/></node><node id="-14" lat="30.177647" lon="-97.764707" changeset="false"><tag k="addr:street" v="Patsy Parkway"/><tag k="addr:housenumber" v="2309"/><tag k="coa:place_id" v="73872"/></node><node id="-15" lat="30.178554" lon="-97.766186" changeset="false"><tag k="addr:street" v="Eds Cove"/><tag k="addr:housenumber" v="7304"/><tag k="coa:place_id" v="73833"/></node><node id="-16" lat="30.17543" lon="-97.769911" changeset="false"><tag k="addr:street" v="Bluff Springs Road"/><tag k="addr:housenumber" v="7600"/><tag k="coa:place_id" v="794660"/></node><node id="-17" lat="30.181299" lon="-97.763984" changeset="false"><tag k="addr:street" v="Blue Meadow Drive"/><tag k="addr:housenumber" v="2207"/><tag k="coa:place_id" v="3084785"/></node><node id="-18" lat="30.186726" lon="-97.764592" changeset="false"><tag k="addr:street" v="Westwood Circle"/><tag k="addr:housenumber" v="6610"/><tag k="coa:place_id" v="1147206"/></node><node id="-19" lat="30.184207" lon="-97.767354" changeset="false"><tag k="addr:street" v="Spruce Gum Lane"/><tag k="addr:housenumber" v="6808"/><tag k="coa:place_id" v="836750"/></node><node id="-20" lat="30.184081" lon="-97.767365" changeset="false"><tag k="addr:street" v="Spruce Gum Lane"/><tag k="addr:housenumber" v="6810"/><tag k="coa:place_id" v="836756"/></node><node id="-21" lat="30.188118" lon="-97.767621" changeset="false"><tag k="addr:street" v="Bluff Springs Road"/><tag k="addr:housenumber" v="6625"/><tag k="coa:place_id" v="3087985"/></node><node id="-22" lat="30.186163" lon="-97.765155" changeset="false"><tag k="addr:street" v="Westwood Circle"/><tag k="addr:housenumber" v="6729"/><tag k="coa:place_id" v="1147232"/></node><node id="-23" lat="30.185735" lon="-97.767007" changeset="false"><tag k="addr:street" v="Bitter Creek Drive"/><tag k="addr:housenumber" v="1825"/><tag k="coa:place_id" v="818588"/></node><node id="-24" lat="30.185655" lon="-97.766879" changeset="false"><tag k="addr:street" v="Bitter Creek Drive"/><tag k="addr:housenumber" v="1827"/><tag k="coa:place_id" v="818594"/></node><node id="-25" lat="30.18629" lon="-97.764508" changeset="false"><tag k="addr:street" v="Westwood Circle"/><tag k="addr:housenumber" v="6607"/><tag k="coa:place_id" v="1147190"/></node><node id="-26" lat="30.18142" lon="-97.764284" changeset="false"><tag k="addr:street" v="Blue Meadow Drive"/><tag k="addr:housenumber" v="2203"/><tag k="coa:place_id" v="3084783"/></node><node id="-27" lat="30.184515" lon="-97.767347" changeset="false"><tag k="addr:street" v="Spruce Gum Lane"/><tag k="addr:housenumber" v="6804"/><tag k="coa:place_id" v="836738"/></node><node id="-28" lat="30.182668" lon="-97.766716" changeset="false"><tag k="addr:street" v="Blue Meadow Drive"/><tag k="addr:housenumber" v="2001"/><tag k="coa:place_id" v="836126"/></node><node id="-29" lat="30.187005" lon="-97.765484" changeset="false"><tag k="addr:street" v="Westwood Circle"/><tag k="addr:housenumber" v="6624"/><tag k="coa:place_id" v="1147213"/></node><node id="-30" lat="30.187317" lon="-97.767843" changeset="false"><tag k="addr:street" v="Bitter Creek Drive"/><tag k="addr:housenumber" v="1701"/><tag k="coa:place_id" v="818498"/></node><node id="-31" lat="30.177443" lon="-97.763995" changeset="false"><tag k="addr:street" v="Patsy Parkway"/><tag k="addr:housenumber" v="2403"/><tag k="coa:place_id" v="73876"/></node><node id="-32" lat="30.177748" lon="-97.765074" changeset="false"><tag k="addr:street" v="Patsy Parkway"/><tag k="addr:housenumber" v="2305"/><tag k="coa:place_id" v="73870"/></node><node id="-33" lat="30.18541" lon="-97.773156" changeset="false"><tag k="addr:street" v="I 35 Frontage Road"/><tag k="addr:housenumber" v="7009"/><tag k="coa:place_id" v="795458"/></node><node id="-34" lat="30.178989" lon="-97.770197" changeset="false"><tag k="addr:street" v="Bluff Springs Road"/><tag k="addr:housenumber" v="7334 1/2"/><tag k="coa:place_id" v="5205562"/></node><node id="-35" lat="30.183421" lon="-97.766402" changeset="false"><tag k="addr:street" v="Oak Motte Lane"/><tag k="addr:housenumber" v="1909"/><tag k="coa:place_id" v="836300"/></node><node id="-36" lat="30.188025" lon="-97.765702" changeset="false"><tag k="addr:street" v="East William Cannon Drive"/><tag k="addr:housenumber" v="1901"/><tag k="coa:place_id" v="175733"/></node><node id="-37" lat="30.184812" lon="-97.766769" changeset="false"><tag k="addr:street" v="Deer Run Drive"/><tag k="addr:housenumber" v="1902"/><tag k="coa:place_id" v="836714"/></node><node id="-38" lat="30.186709" lon="-97.766892" changeset="false"><tag k="addr:street" v="Bitter Creek Drive"/><tag k="addr:housenumber" v="1814"/><tag k="coa:place_id" v="819914"/></node><node id="-39" lat="30.183663" lon="-97.767386" changeset="false"><tag k="addr:street" v="Spruce Gum Lane"/><tag k="addr:housenumber" v="6816"/><tag k="coa:place_id" v="836774"/></node><node id="-40" lat="30.183956" lon="-97.765679" changeset="false"><tag k="addr:street" v="Deer Run Drive"/><tag k="addr:housenumber" v="2003"/><tag k="coa:place_id" v="836540"/></node><node id="-41" lat="30.181102" lon="-97.765545" changeset="false"><tag k="addr:street" v="Nogales Trail"/><tag k="addr:housenumber" v="2117"/><tag k="coa:place_id" v="3089902"/></node><node id="-42" lat="30.181026" lon="-97.763442" changeset="false"><tag k="addr:street" v="Blue Meadow Drive"/><tag k="addr:housenumber" v="2303"/><tag k="coa:place_id" v="174555"/></node><node id="-43" lat="30.178449" lon="-97.770242" changeset="false"><tag k="addr:street" v="Bluff Springs Road"/><tag k="addr:housenumber" v="7430"/><tag k="coa:place_id" v="836006"/></node><node id="-44" lat="30.18228" lon="-97.765905" changeset="false"><tag k="addr:street" v="Blue Meadow Drive"/><tag k="addr:housenumber" v="2009"/><tag k="coa:place_id" v="836144"/></node><node id="-45" lat="30.177997" lon="-97.765976" changeset="false"><tag k="addr:street" v="Patsy Parkway"/><tag k="addr:housenumber" v="2211"/><tag k="coa:place_id" v="73865"/></node><node id="-46" lat="30.18557" lon="-97.766754" changeset="false"><tag k="addr:street" v="Bitter Creek Drive"/><tag k="addr:housenumber" v="1829"/><tag k="coa:place_id" v="818600"/></node><node id="-47" lat="30.186261" lon="-97.765396" changeset="false"><tag k="addr:street" v="Westwood Circle"/><tag k="addr:housenumber" v="6725"/><tag k="coa:place_id" v="1147230"/></node><node id="-48" lat="30.186864" lon="-97.767894" changeset="false"><tag k="addr:street" v="Bluff Springs Road"/><tag k="addr:housenumber" v="6707"/><tag k="coa:place_id" v="836828"/></node><node id="-49" lat="30.182141" lon="-97.765651" changeset="false"><tag k="addr:street" v="Blue Meadow Drive"/><tag k="addr:housenumber" v="2013"/><tag k="coa:place_id" v="836156"/></node><node id="-50" lat="30.180416" lon="-97.769069" changeset="false"><tag k="addr:street" v="Tranquilo Trail"/><tag k="addr:housenumber" v="1907"/><tag k="coa:place_id" v="3089964"/></node><node id="-51" lat="30.185073" lon="-97.765276" changeset="false"><tag k="addr:street" v="Bitter Creek Drive"/><tag k="addr:housenumber" v="1919"/><tag k="coa:place_id" v="818660"/></node><node id="-52" lat="30.181373" lon="-97.764123" changeset="false"><tag k="addr:street" v="Blue Meadow Drive"/><tag k="addr:housenumber" v="2205"/><tag k="coa:place_id" v="3084784"/></node><node id="-53" lat="30.182356" lon="-97.766085" changeset="false"><tag k="addr:street" v="Blue Meadow Drive"/><tag k="addr:housenumber" v="2007"/><tag k="coa:place_id" v="836138"/></node><node id="-54" lat="30.184432" lon="-97.766606" changeset="false"><tag k="addr:street" v="Deer Run Drive"/><tag k="addr:housenumber" v="1905"/><tag k="coa:place_id" v="836498"/></node><node id="-55" lat="30.178142" lon="-97.766514" changeset="false"><tag k="addr:street" v="Patsy Parkway"/><tag k="addr:housenumber" v="2205"/><tag k="coa:place_id" v="73861"/></node><node id="-56" lat="30.178341" lon="-97.763235" changeset="false"><tag k="addr:street" v="Stonleigh Place"/><tag k="addr:housenumber" v="7208"/><tag k="coa:place_id" v="73838"/></node><node id="-57" lat="30.186041" lon="-97.766073" changeset="false"><tag k="addr:street" v="Westwood Circle"/><tag k="addr:housenumber" v="6716"/><tag k="coa:place_id" v="1147239"/></node><node id="-58" lat="30.185644" lon="-97.76482" changeset="false"><tag k="addr:street" v="Westwood Circle"/><tag k="addr:housenumber" v="6736"/><tag k="coa:place_id" v="1147249"/></node><node id="-59" lat="30.182249" lon="-97.775457" changeset="false"><tag k="addr:street" v="I 35 Frontage Road"/><tag k="addr:housenumber" v="7309 1/2"/><tag k="coa:place_id" v="3224493"/></node><node id="-60" lat="30.180061" lon="-97.769551" changeset="false"><tag k="addr:street" v="Bluff Springs Road"/><tag k="addr:housenumber" v="7313"/><tag k="coa:place_id" v="5088526"/></node><node id="-61" lat="30.184563" lon="-97.768308" changeset="false"><tag k="addr:street" v="Bluff Springs Road"/><tag k="addr:housenumber" v="7001"/><tag k="coa:place_id" v="3373182"/></node><node id="-62" lat="30.186616" lon="-97.768912" changeset="false"><tag k="addr:street" v="Bluff Springs Road"/><tag k="addr:housenumber" v="6718"/><tag k="coa:place_id" v="3043202"/></node><node id="-63" lat="30.18551" lon="-97.766626" changeset="false"><tag k="addr:street" v="Bitter Creek Drive"/><tag k="addr:housenumber" v="1901"/><tag k="coa:place_id" v="712065"/></node><node id="-64" lat="30.180929" lon="-97.765173" changeset="false"><tag k="addr:street" v="Nogales Trail"/><tag k="addr:housenumber" v="2123"/><tag k="coa:place_id" v="3089908"/></node><node id="-65" lat="30.185195" lon="-97.76573" changeset="false"><tag k="addr:street" v="Bitter Creek Drive"/><tag k="addr:housenumber" v="1913"/><tag k="coa:place_id" v="818642"/></node><node id="-66" lat="30.178243" lon="-97.766883" changeset="false"><tag k="addr:street" v="Patsy Parkway"/><tag k="addr:housenumber" v="2201"/><tag k="coa:place_id" v="73859"/></node><node id="-67" lat="30.184857" lon="-97.766955" changeset="false"><tag k="addr:street" v="Deer Run Drive"/><tag k="addr:housenumber" v="1900"/><tag k="coa:place_id" v="836720"/></node><node id="-68" lat="30.178684" lon="-97.765691" changeset="false"><tag k="addr:street" v="Eds Cove"/><tag k="addr:housenumber" v="7301"/><tag k="coa:place_id" v="596698"/></node><node id="-69" lat="30.183125" lon="-97.766891" changeset="false"><tag k="addr:street" v="Blue Meadow Drive"/><tag k="addr:housenumber" v="1912"/><tag k="coa:place_id" v="836264"/></node><node id="-70" lat="30.184993" lon="-97.76498" changeset="false"><tag k="addr:street" v="Bitter Creek Drive"/><tag k="addr:housenumber" v="2003"/><tag k="coa:place_id" v="819134"/></node><node id="-71" lat="30.183887" lon="-97.76663" changeset="false"><tag k="addr:street" v="Oak Motte Lane"/><tag k="addr:housenumber" v="1904"/><tag k="coa:place_id" v="836468"/></node><node id="-72" lat="30.181505" lon="-97.764401" changeset="false"><tag k="addr:street" v="Blue Meadow Drive"/><tag k="addr:housenumber" v="2201"/><tag k="coa:place_id" v="242669"/></node><node id="-73" lat="30.186073" lon="-97.766839" changeset="false"><tag k="addr:street" v="Bitter Creek Drive"/><tag k="addr:housenumber" v="1822"/><tag k="coa:place_id" v="819890"/></node><node id="-74" lat="30.187628" lon="-97.767876" changeset="false"><tag k="addr:street" v="Bitter Creek Drive"/><tag k="addr:housenumber" v="1700"/><tag k="coa:place_id" v="819968"/></node><node id="-75" lat="30.184338" lon="-97.765795" changeset="false"><tag k="addr:street" v="Deer Run Drive"/><tag k="addr:housenumber" v="1916"/><tag k="coa:place_id" v="836672"/></node><node id="-76" lat="30.178333" lon="-97.767255" changeset="false"><tag k="addr:street" v="Patsy Parkway"/><tag k="addr:housenumber" v="2105"/><tag k="coa:place_id" v="644464"/></node><node id="-77" lat="30.178753" lon="-97.770136" changeset="false"><tag k="addr:street" v="Bluff Springs Road"/><tag k="addr:housenumber" v="7337 1/2"/><tag k="coa:place_id" v="3275302"/></node><node id="-78" lat="30.170839" lon="-97.769066" changeset="false"><tag k="addr:street" v="Bluff Springs Road"/><tag k="addr:housenumber" v="8100 1/2"/><tag k="coa:place_id" v="1112561"/></node><node id="-79" lat="30.181769" lon="-97.76497" changeset="false"><tag k="addr:street" v="Blue Meadow Drive"/><tag k="addr:housenumber" v="2109"/><tag k="coa:place_id" v="836192"/></node><node id="-80" lat="30.183254" lon="-97.773876" changeset="false"><tag k="addr:street" v="I 35 Frontage Road"/><tag k="addr:housenumber" v="7309"/><tag k="coa:place_id" v="5085002"/></node><node id="-81" lat="30.182076" lon="-97.767331" changeset="false"><tag k="addr:street" v="Encanto Trail"/><tag k="addr:housenumber" v="7000"/><tag k="coa:place_id" v="3155606"/></node><node id="-82" lat="30.184676" lon="-97.766466" changeset="false"><tag k="addr:street" v="Deer Run Drive"/><tag k="addr:housenumber" v="1906"/><tag k="coa:place_id" v="836702"/></node><node id="-83" lat="30.182906" lon="-97.766402" changeset="false"><tag k="addr:street" v="Blue Meadow Drive"/><tag k="addr:housenumber" v="2002"/><tag k="coa:place_id" v="836246"/></node><node id="-84" lat="30.183582" lon="-97.765924" changeset="false"><tag k="addr:street" v="Oak Motte Lane"/><tag k="addr:housenumber" v="2002"/><tag k="coa:place_id" v="836438"/></node><node id="-85" lat="30.175609" lon="-97.770151" changeset="false"><tag k="addr:street" v="Bluff Springs Road"/><tag k="addr:housenumber" v="7516"/><tag k="coa:place_id" v="794666"/></node><node id="-86" lat="30.177949" lon="-97.765791" changeset="false"><tag k="addr:street" v="Patsy Parkway"/><tag k="addr:housenumber" v="2213"/><tag k="coa:place_id" v="73866"/></node><node id="-87" lat="30.185325" lon="-97.766153" changeset="false"><tag k="addr:street" v="Bitter Creek Drive"/><tag k="addr:housenumber" v="1907"/><tag k="coa:place_id" v="818624"/></node><node id="-88" lat="30.177395" lon="-97.763827" changeset="false"><tag k="addr:street" v="Patsy Parkway"/><tag k="addr:housenumber" v="2405"/><tag k="coa:place_id" v="73877"/></node><node id="-89" lat="30.186328" lon="-97.772583" changeset="false"><tag k="addr:street" v="I 35 Frontage Road"/><tag k="addr:housenumber" v="6905"/><tag k="coa:place_id" v="3070799"/></node><node id="-90" lat="30.180831" lon="-97.763025" changeset="false"><tag k="addr:street" v="Blue Meadow Drive"/><tag k="addr:housenumber" v="2309"/><tag k="coa:place_id" v="780231"/></node><node id="-91" lat="30.187398" lon="-97.7671" changeset="false"><tag k="addr:street" v="Bitter Creek Drive"/><tag k="addr:housenumber" v="1804"/><tag k="coa:place_id" v="819944"/></node><node id="-92" lat="30.182334" lon="-97.768272" changeset="false"><tag k="addr:street" v="Alegre Pass"/><tag k="addr:housenumber" v="7101"/><tag k="coa:place_id" v="3090343"/></node><node id="-93" lat="30.187074" lon="-97.765738" changeset="false"><tag k="addr:street" v="Westwood Circle"/><tag k="addr:housenumber" v="6628"/><tag k="coa:place_id" v="1147215"/></node><node id="-94" lat="30.187423" lon="-97.767257" changeset="false"><tag k="addr:street" v="Bitter Creek Drive"/><tag k="addr:housenumber" v="1802"/><tag k="coa:place_id" v="819950"/></node><node id="-95" lat="30.178653" lon="-97.766744" changeset="false"><tag k="addr:street" v="Patsy Parkway"/><tag k="addr:housenumber" v="2202"/><tag k="coa:place_id" v="125574"/></node><node id="-96" lat="30.185337" lon="-97.765267" changeset="false"><tag k="addr:street" v="Bitter Creek Drive"/><tag k="addr:housenumber" v="1914"/><tag k="coa:place_id" v="819830"/></node><node id="-97" lat="30.181453" lon="-97.769399" changeset="false"><tag k="addr:street" v="Espino Cove"/><tag k="addr:housenumber" v="1901"/><tag k="coa:place_id" v="3089982"/></node><node id="-98" lat="30.186555" lon="-97.765397" changeset="false"><tag k="addr:street" v="Westwood Circle"/><tag k="addr:housenumber" v="6621"/><tag k="coa:place_id" v="1147197"/></node><node id="-99" lat="30.182077" lon="-97.765492" changeset="false"><tag k="addr:street" v="Blue Meadow Drive"/><tag k="addr:housenumber" v="2101"/><tag k="coa:place_id" v="836162"/></node><node id="-100" lat="30.1709" lon="-97.769331" changeset="false"><tag k="addr:street" v="Bluff Springs Road"/><tag k="addr:housenumber" v="8100"/><tag k="coa:place_id" v="794594"/></node><node id="-101" lat="30.18517" lon="-97.765562" changeset="false"><tag k="addr:street" v="Bitter Creek Drive"/><tag k="addr:housenumber" v="1915"/><tag k="coa:place_id" v="818648"/></node><node id="-102" lat="30.179525" lon="-97.770261" changeset="false"><tag k="addr:street" v="Bluff Springs Road"/><tag k="addr:housenumber" v="7330"/><tag k="coa:place_id" v="5084898"/></node><node id="-103" lat="30.186248" lon="-97.767203" changeset="false"><tag k="addr:street" v="Bitter Creek Drive"/><tag k="addr:housenumber" v="1817"/><tag k="coa:place_id" v="818558"/></node><node id="-104" lat="30.186646" lon="-97.767171" changeset="false"><tag k="addr:street" v="Bitter Creek Drive"/><tag k="addr:housenumber" v="1811"/><tag k="coa:place_id" v="287866"/></node><node id="-105" lat="30.177555" lon="-97.764373" changeset="false"><tag k="addr:street" v="Patsy Parkway"/><tag k="addr:housenumber" v="2313"/><tag k="coa:place_id" v="73874"/></node><node id="-106" lat="30.185839" lon="-97.765474" changeset="false"><tag k="addr:street" v="Westwood Circle"/><tag k="addr:housenumber" v="6726"/><tag k="coa:place_id" v="1147244"/></node><node id="-107" lat="30.180754" lon="-97.762907" changeset="false"><tag k="addr:street" v="Blue Meadow Drive"/><tag k="addr:housenumber" v="2311"/><tag k="coa:place_id" v="174558"/></node><node id="-108" lat="30.185447" lon="-97.765552" changeset="false"><tag k="addr:street" v="Bitter Creek Drive"/><tag k="addr:housenumber" v="1910"/><tag k="coa:place_id" v="819842"/></node><node id="-109" lat="30.187241" lon="-97.76679" changeset="false"><tag k="addr:street" v="Bitter Creek Drive"/><tag k="addr:housenumber" v="1808"/><tag k="coa:place_id" v="819932"/></node><node id="-110" lat="30.185396" lon="-97.766291" changeset="false"><tag k="addr:street" v="Bitter Creek Drive"/><tag k="addr:housenumber" v="1905"/><tag k="coa:place_id" v="818618"/></node><node id="-111" lat="30.187" lon="-97.766868" changeset="false"><tag k="addr:street" v="Bitter Creek Drive"/><tag k="addr:housenumber" v="1810"/><tag k="coa:place_id" v="819926"/></node><node id="-112" lat="30.186246" lon="-97.764381" changeset="false"><tag k="addr:street" v="Westwood Circle"/><tag k="addr:housenumber" v="6605"/><tag k="coa:place_id" v="1147189"/></node><node id="-113" lat="30.181995" lon="-97.765362" changeset="false"><tag k="addr:street" v="Blue Meadow Drive"/><tag k="addr:housenumber" v="2103"/><tag k="coa:place_id" v="836174"/></node><node id="-114" lat="30.186854" lon="-97.766873" changeset="false"><tag k="addr:street" v="Bitter Creek Drive"/><tag k="addr:housenumber" v="1812"/><tag k="coa:place_id" v="819920"/></node><node id="-115" lat="30.187353" lon="-97.768309" changeset="false"><tag k="addr:street" v="Bluff Springs Road"/><tag k="addr:housenumber" v="6714"/><tag k="coa:place_id" v="836792"/></node><node id="-116" lat="30.176515" lon="-97.770111" changeset="false"><tag k="addr:street" v="Bluff Springs Road"/><tag k="addr:housenumber" v="7506"/><tag k="coa:place_id" v="242699"/></node><node id="-117" lat="30.18282" lon="-97.767008" changeset="false"><tag k="addr:street" v="Blue Meadow Drive"/><tag k="addr:housenumber" v="1911"/><tag k="coa:place_id" v="836114"/></node><node id="-118" lat="30.178196" lon="-97.766698" changeset="false"><tag k="addr:street" v="Patsy Parkway"/><tag k="addr:housenumber" v="2203"/><tag k="coa:place_id" v="73860"/></node><node id="-119" lat="30.176642" lon="-97.764524" changeset="false"><tag k="addr:street" v="Quicksilver Boulevard"/><tag k="addr:housenumber" v="2400"/><tag k="coa:place_id" v="66684"/></node><node id="-120" lat="30.183717" lon="-97.766212" changeset="false"><tag k="addr:street" v="Oak Motte Lane"/><tag k="addr:housenumber" v="1910"/><tag k="coa:place_id" v="836450"/></node><node id="-121" lat="30.177498" lon="-97.764163" changeset="false"><tag k="addr:street" v="Patsy Parkway"/><tag k="addr:housenumber" v="2401"/><tag k="coa:place_id" v="73875"/></node><node id="-122" lat="30.178493" lon="-97.763203" changeset="false"><tag k="addr:street" v="Stonleigh Place"/><tag k="addr:housenumber" v="7206"/><tag k="coa:place_id" v="73837"/></node><node id="-123" lat="30.17938" lon="-97.775788" changeset="false"><tag k="addr:street" v="I 35 Frontage Road"/><tag k="addr:housenumber" v="7707"/><tag k="coa:place_id" v="1163394"/></node><node id="-124" lat="30.184748" lon="-97.766614" changeset="false"><tag k="addr:street" v="Deer Run Drive"/><tag k="addr:housenumber" v="1904"/><tag k="coa:place_id" v="836708"/></node><node id="-125" lat="30.184654" lon="-97.767294" changeset="false"><tag k="addr:street" v="Spruce Gum Lane"/><tag k="addr:housenumber" v="6802"/><tag k="coa:place_id" v="304024"/></node><node id="-126" lat="30.183122" lon="-97.768891" changeset="false"><tag k="addr:street" v="Bluff Springs Road"/><tag k="addr:housenumber" v="7101"/><tag k="coa:place_id" v="5068443"/></node><node id="-127" lat="30.178574" lon="-97.769357" changeset="false"><tag k="addr:street" v="Bluff Springs Road"/><tag k="addr:housenumber" v="7415"/><tag k="coa:place_id" v="836024"/></node><node id="-128" lat="30.186926" lon="-97.76716" changeset="false"><tag k="addr:street" v="Bitter Creek Drive"/><tag k="addr:housenumber" v="1807"/><tag k="coa:place_id" v="818516"/></node><node id="-129" lat="30.181238" lon="-97.763858" changeset="false"><tag k="addr:street" v="Blue Meadow Drive"/><tag k="addr:housenumber" v="2209"/><tag k="coa:place_id" v="3084786"/></node><node id="-130" lat="30.186638" lon="-97.764327" changeset="false"><tag k="addr:street" v="Westwood Circle"/><tag k="addr:housenumber" v="6606"/><tag k="coa:place_id" v="1147204"/></node><node id="-131" lat="30.187027" lon="-97.771608" changeset="false"><tag k="addr:street" v="I 35 Frontage Road"/><tag k="addr:housenumber" v="6809"/><tag k="coa:place_id" v="1161949"/></node><node id="-132" lat="30.183338" lon="-97.766255" changeset="false"><tag k="addr:street" v="Oak Motte Lane"/><tag k="addr:housenumber" v="2001"/><tag k="coa:place_id" v="836306"/></node><node id="-133" lat="30.17836" lon="-97.767506" changeset="false"><tag k="addr:street" v="Patsy Parkway"/><tag k="addr:housenumber" v="2103"/><tag k="coa:place_id" v="644380"/></node><node id="-134" lat="30.182031" lon="-97.769888" changeset="false"><tag k="addr:street" v="Bluff Springs Road"/><tag k="addr:housenumber" v="7200"/><tag k="coa:place_id" v="3499826"/></node><node id="-135" lat="30.185272" lon="-97.766005" changeset="false"><tag k="addr:street" v="Bitter Creek Drive"/><tag k="addr:housenumber" v="1909"/><tag k="coa:place_id" v="818630"/></node><node id="-136" lat="30.180095" lon="-97.768188" changeset="false"><tag k="addr:street" v="Tranquilo Trail"/><tag k="addr:housenumber" v="2009"/><tag k="coa:place_id" v="3089953"/></node><node id="-137" lat="30.184613" lon="-97.766335" changeset="false"><tag k="addr:street" v="Deer Run Drive"/><tag k="addr:housenumber" v="1908"/><tag k="coa:place_id" v="836696"/></node><node id="-138" lat="30.18428" lon="-97.765637" changeset="false"><tag k="addr:street" v="Deer Run Drive"/><tag k="addr:housenumber" v="2000"/><tag k="coa:place_id" v="836666"/></node><node id="-139" lat="30.186135" lon="-97.765029" changeset="false"><tag k="addr:street" v="Westwood Circle"/><tag k="addr:housenumber" v="6731"/><tag k="coa:place_id" v="1147233"/></node><node id="-140" lat="30.184602" lon="-97.773402" changeset="false"><tag k="addr:street" v="I 35 Frontage Road"/><tag k="addr:housenumber" v="7111"/><tag k="coa:place_id" v="795452"/></node><node id="-141" lat="30.185875" lon="-97.768464" changeset="false"><tag k="addr:street" v="Bluff Springs Road"/><tag k="addr:housenumber" v="6814"/><tag k="coa:place_id" v="182761"/></node><node id="-142" lat="30.179387" lon="-97.775957" changeset="false"><tag k="addr:street" v="I 35 Frontage Road"/><tag k="addr:housenumber" v="7707 1/2"/><tag k="coa:place_id" v="3222563"/></node><node id="-143" lat="30.186458" lon="-97.767936" changeset="false"><tag k="addr:street" v="Bluff Springs Road"/><tag k="addr:housenumber" v="6713"/><tag k="coa:place_id" v="836804"/></node><node id="-144" lat="30.187152" lon="-97.767853" changeset="false"><tag k="addr:street" v="Bluff Springs Road"/><tag k="addr:housenumber" v="6703"/><tag k="coa:place_id" v="506241"/></node><node id="-145" lat="30.185541" lon="-97.765849" changeset="false"><tag k="addr:street" v="Bitter Creek Drive"/><tag k="addr:housenumber" v="1906"/><tag k="coa:place_id" v="819854"/></node><node id="-146" lat="30.181036" lon="-97.768792" changeset="false"><tag k="addr:street" v="Alegre Pass"/><tag k="addr:housenumber" v="7210"/><tag k="coa:place_id" v="3089980"/></node><node id="-147" lat="30.180708" lon="-97.76877" changeset="false"><tag k="addr:street" v="Tranquilo Trail"/><tag k="addr:housenumber" v="1910"/><tag k="coa:place_id" v="3089967"/></node><node id="-148" lat="30.186885" lon="-97.765112" changeset="false"><tag k="addr:street" v="Westwood Circle"/><tag k="addr:housenumber" v="6618"/><tag k="coa:place_id" v="1147210"/></node><node id="-149" lat="30.179844" lon="-97.769775" changeset="false"><tag k="addr:street" v="Bluff Springs Road"/><tag k="addr:housenumber" v="7329 1/2"/><tag k="coa:place_id" v="180335"/></node><node id="-150" lat="30.177055" lon="-97.770129" changeset="false"><tag k="addr:street" v="Bluff Springs Road"/><tag k="addr:housenumber" v="7500"/><tag k="coa:place_id" v="836000"/></node><node id="-151" lat="30.181736" lon="-97.764804" changeset="false"><tag k="addr:street" v="Blue Meadow Drive"/><tag k="addr:housenumber" v="2111"/><tag k="coa:place_id" v="3084781"/></node><node id="-152" lat="30.180802" lon="-97.766747" changeset="false"><tag k="addr:street" v="Sombra Cove"/><tag k="addr:housenumber" v="2105"/><tag k="coa:place_id" v="3089928"/></node><node id="-153" lat="30.174103" lon="-97.769594" changeset="false"><tag k="addr:street" v="Bluff Springs Road"/><tag k="addr:housenumber" v="7614"/><tag k="coa:place_id" v="386889"/></node><node id="-154" lat="30.187776" lon="-97.768378" changeset="false"><tag k="addr:street" v="Bluff Springs Road"/><tag k="addr:housenumber" v="6706"/><tag k="coa:place_id" v="223269"/></node><node id="-155" lat="30.186727" lon="-97.767904" changeset="false"><tag k="addr:street" v="Bluff Springs Road"/><tag k="addr:housenumber" v="6709"/><tag k="coa:place_id" v="836822"/></node><node id="-156" lat="30.186967" lon="-97.76536" changeset="false"><tag k="addr:street" v="Westwood Circle"/><tag k="addr:housenumber" v="6622"/><tag k="coa:place_id" v="1147212"/></node><node id="-157" lat="30.183827" lon="-97.766501" changeset="false"><tag k="addr:street" v="Oak Motte Lane"/><tag k="addr:housenumber" v="1906"/><tag k="coa:place_id" v="836462"/></node><node id="-158" lat="30.1865" lon="-97.767181" changeset="false"><tag k="addr:street" v="Bitter Creek Drive"/><tag k="addr:housenumber" v="1813"/><tag k="coa:place_id" v="818540"/></node><node id="-159" lat="30.18832" lon="-97.766305" changeset="false"><tag k="addr:street" v="East William Cannon Drive"/><tag k="addr:housenumber" v="1821"/><tag k="coa:place_id" v="207895"/></node><node id="-160" lat="30.185438" lon="-97.766461" changeset="false"><tag k="addr:street" v="Bitter Creek Drive"/><tag k="addr:housenumber" v="1903"/><tag k="coa:place_id" v="818612"/></node><node id="-161" lat="30.187323" lon="-97.766919" changeset="false"><tag k="addr:street" v="Bitter Creek Drive"/><tag k="addr:housenumber" v="1806"/><tag k="coa:place_id" v="819938"/></node><node id="-162" lat="30.186242" lon="-97.766906" changeset="false"><tag k="addr:street" v="Bitter Creek Drive"/><tag k="addr:housenumber" v="1820"/><tag k="coa:place_id" v="819896"/></node><node id="-163" lat="30.185037" lon="-97.765131" changeset="false"><tag k="addr:street" v="Bitter Creek Drive"/><tag k="addr:housenumber" v="2001"/><tag k="coa:place_id" v="818666"/></node><node id="-164" lat="30.184415" lon="-97.765901" changeset="false"><tag k="addr:street" v="Deer Run Drive"/><tag k="addr:housenumber" v="1914"/><tag k="coa:place_id" v="836678"/></node><node id="-165" lat="30.186563" lon="-97.766905" changeset="false"><tag k="addr:street" v="Bitter Creek Drive"/><tag k="addr:housenumber" v="1816"/><tag k="coa:place_id" v="819908"/></node><node id="-166" lat="30.185486" lon="-97.765708" changeset="false"><tag k="addr:street" v="Bitter Creek Drive"/><tag k="addr:housenumber" v="1908"/><tag k="coa:place_id" v="819848"/></node><node id="-167" lat="30.184031" lon="-97.76691" changeset="false"><tag k="addr:street" v="Oak Motte Lane"/><tag k="addr:housenumber" v="1900"/><tag k="coa:place_id" v="836480"/></node><node id="-168" lat="30.187481" lon="-97.767393" changeset="false"><tag k="addr:street" v="Bitter Creek Drive"/><tag k="addr:housenumber" v="1800"/><tag k="coa:place_id" v="819956"/></node><node id="-169" lat="30.187009" lon="-97.767865" changeset="false"><tag k="addr:street" v="Bluff Springs Road"/><tag k="addr:housenumber" v="6705"/><tag k="coa:place_id" v="836840"/></node><node id="-170" lat="30.187148" lon="-97.765993" changeset="false"><tag k="addr:street" v="Westwood Circle"/><tag k="addr:housenumber" v="6632"/><tag k="coa:place_id" v="1147217"/></node><node id="-171" lat="30.178626" lon="-97.767165" changeset="false"><tag k="addr:street" v="Patsy Parkway"/><tag k="addr:housenumber" v="2104"/><tag k="coa:place_id" v="630436"/></node><node id="-172" lat="30.186383" lon="-97.767211" changeset="false"><tag k="addr:street" v="Bitter Creek Drive"/><tag k="addr:housenumber" v="1815"/><tag k="coa:place_id" v="818546"/></node><node id="-173" lat="30.183803" lon="-97.767375" changeset="false"><tag k="addr:street" v="Spruce Gum Lane"/><tag k="addr:housenumber" v="6814"/><tag k="coa:place_id" v="836768"/></node><node id="-174" lat="30.183973" lon="-97.766764" changeset="false"><tag k="addr:street" v="Oak Motte Lane"/><tag k="addr:housenumber" v="1902"/><tag k="coa:place_id" v="836474"/></node><node id="-175" lat="30.183976" lon="-97.771035" changeset="false"><tag k="addr:street" v="Bluff Springs Road"/><tag k="addr:housenumber" v="7100"/><tag k="coa:place_id" v="531765"/></node><node id="-176" lat="30.187594" lon="-97.763992" changeset="false"><tag k="addr:street" v="East William Cannon Drive"/><tag k="addr:housenumber" v="1941"/><tag k="coa:place_id" v="198944"/></node><node id="-177" lat="30.181934" lon="-97.765216" changeset="false"><tag k="addr:street" v="Blue Meadow Drive"/><tag k="addr:housenumber" v="2105"/><tag k="coa:place_id" v="836180"/></node><node id="-178" lat="30.184344" lon="-97.766502" changeset="false"><tag k="addr:street" v="Deer Run Drive"/><tag k="addr:housenumber" v="1907"/><tag k="coa:place_id" v="836504"/></node><node id="-179" lat="30.184211" lon="-97.765479" changeset="false"><tag k="addr:street" v="Deer Run Drive"/><tag k="addr:housenumber" v="2002"/><tag k="coa:place_id" v="836660"/></node><node id="-180" lat="30.188584" lon="-97.766842" changeset="false"><tag k="addr:street" v="East William Cannon Drive"/><tag k="addr:housenumber" v="1805"/><tag k="coa:place_id" v="191617"/></node><node id="-181" lat="30.17847" lon="-97.767643" changeset="false"><tag k="addr:street" v="Patsy Parkway"/><tag k="addr:housenumber" v="2101"/><tag k="coa:place_id" v="634582"/></node><node id="-182" lat="30.178095" lon="-97.76632" changeset="false"><tag k="addr:street" v="Patsy Parkway"/><tag k="addr:housenumber" v="2207"/><tag k="coa:place_id" v="73862"/></node><node id="-183" lat="30.185988" lon="-97.767146" changeset="false"><tag k="addr:street" v="Bitter Creek Drive"/><tag k="addr:housenumber" v="1821"/><tag k="coa:place_id" v="818576"/></node><node id="-184" lat="30.186321" lon="-97.767961" changeset="false"><tag k="addr:street" v="Bluff Springs Road"/><tag k="addr:housenumber" v="6715"/><tag k="coa:place_id" v="836810"/></node><node id="-185" lat="30.178732" lon="-97.76741" changeset="false"><tag k="addr:street" v="Patsy Parkway"/><tag k="addr:housenumber" v="2102"/><tag k="coa:place_id" v="611656"/></node><node id="-186" lat="30.181114" lon="-97.766645" changeset="false"><tag k="addr:street" v="Sombra Cove"/><tag k="addr:housenumber" v="2106"/><tag k="coa:place_id" v="3089929"/></node><node id="-187" lat="30.1866" lon="-97.767915" changeset="false"><tag k="addr:street" v="Bluff Springs Road"/><tag k="addr:housenumber" v="6711"/><tag k="coa:place_id" v="836816"/></node><node id="-188" lat="30.185117" lon="-97.76542" changeset="false"><tag k="addr:street" v="Bitter Creek Drive"/><tag k="addr:housenumber" v="1917"/><tag k="coa:place_id" v="818654"/></node><node id="-189" lat="30.184935" lon="-97.764856" changeset="false"><tag k="addr:street" v="Bitter Creek Drive"/><tag k="addr:housenumber" v="2005"/><tag k="coa:place_id" v="819140"/></node><node id="-190" lat="30.179965" lon="-97.767589" changeset="false"><tag k="addr:street" v="Tranquilo Trail"/><tag k="addr:housenumber" v="2017"/><tag k="coa:place_id" v="3089954"/></node><node id="-191" lat="30.180808" lon="-97.767042" changeset="false"><tag k="addr:street" v="Sombra Cove"/><tag k="addr:housenumber" v="2101"/><tag k="coa:place_id" v="3089924"/></node><node id="-192" lat="30.177695" lon="-97.764897" changeset="false"><tag k="addr:street" v="Patsy Parkway"/><tag k="addr:housenumber" v="2307"/><tag k="coa:place_id" v="73871"/></node><node id="-193" lat="30.181645" lon="-97.764659" changeset="false"><tag k="addr:street" v="Blue Meadow Drive"/><tag k="addr:housenumber" v="2113"/><tag k="coa:place_id" v="3084782"/></node><node id="-194" lat="30.181579" lon="-97.764547" changeset="false"><tag k="addr:street" v="Blue Meadow Drive"/><tag k="addr:housenumber" v="2115"/><tag k="coa:place_id" v="54862"/></node><node id="-195" lat="30.183512" lon="-97.7674" changeset="false"><tag k="addr:street" v="Spruce Gum Lane"/><tag k="addr:housenumber" v="6818"/><tag k="coa:place_id" v="836780"/></node><node id="-196" lat="30.175275" lon="-97.769873" changeset="false"><tag k="addr:street" v="Bluff Springs Road"/><tag k="addr:housenumber" v="7602"/><tag k="coa:place_id" v="794648"/></node><node id="-197" lat="30.17847" lon="-97.765837" changeset="false"><tag k="addr:street" v="Eds Cove"/><tag k="addr:housenumber" v="7305"/><tag k="coa:place_id" v="73836"/></node><node id="-198" lat="30.187668" lon="-97.770083" changeset="false"><tag k="addr:street" v="I 35 Frontage Road"/><tag k="addr:housenumber" v="6719"/><tag k="coa:place_id" v="3272121"/></node><node id="-199" lat="30.187881" lon="-97.769791" changeset="false"><tag k="addr:street" v="I 35 Frontage Road"/><tag k="addr:housenumber" v="6715"/><tag k="coa:place_id" v="500055"/></node></osm>