<?xml version="1.0" encoding="UTF-8"?><osm version="0.6" generator="github.com/aaronlidman/osm-and-geojson"><node id="-1" lat="30.197338" lon="-97.743611" changeset="false"><tag k="addr:street" v="South Pleasant Valley Road"/><tag k="addr:housenumber" v="5011"/><tag k="addr:postcode" v="78744"/></node><node id="-2" lat="30.195445" lon="-97.744376" changeset="false"><tag k="addr:street" v="South Pleasant Valley Road"/><tag k="addr:housenumber" v="5209"/><tag k="addr:postcode" v="78744"/></node><node id="-3" lat="30.196806" lon="-97.743191" changeset="false"><tag k="addr:street" v="Teri Road"/><tag k="addr:housenumber" v="4604"/><tag k="addr:postcode" v="78744"/></node><node id="-4" lat="30.195858" lon="-97.744527" changeset="false"><tag k="addr:street" v="South Pleasant Valley Road"/><tag k="addr:housenumber" v="5205"/><tag k="addr:postcode" v="78744"/></node><node id="-5" lat="30.197048" lon="-97.742338" changeset="false"><tag k="addr:street" v="Table Top Trail"/><tag k="addr:housenumber" v="5000"/><tag k="addr:postcode" v="78744"/></node><node id="-6" lat="30.197121" lon="-97.742399" changeset="false"><tag k="addr:street" v="Rocking Chair Road"/><tag k="addr:housenumber" v="4609"/><tag k="addr:postcode" v="78744"/></node><node id="-7" lat="30.194884" lon="-97.743057" changeset="false"><tag k="addr:street" v="Two Iron Street"/><tag k="addr:housenumber" v="5206"/><tag k="addr:postcode" v="78744"/></node><node id="-8" lat="30.194837" lon="-97.743094" changeset="false"><tag k="addr:street" v="Two Iron Street"/><tag k="addr:housenumber" v="5208"/><tag k="addr:postcode" v="78744"/></node></osm>