<?xml version="1.0" encoding="UTF-8"?><osm version="0.6" generator="github.com/aaronlidman/osm-and-geojson"><node id="-1" lat="30.420854" lon="-97.726676" changeset="false"><tag k="addr:street" v="Abelia Drive"/><tag k="addr:housenumber" v="4502"/><tag k="coa:place_id" v="720298"/></node><node id="-2" lat="30.413359" lon="-97.726287" changeset="false"><tag k="addr:street" v="Dorsett Road"/><tag k="addr:housenumber" v="11950"/><tag k="coa:place_id" v="166632"/></node><node id="-3" lat="30.413905" lon="-97.727404" changeset="false"><tag k="addr:street" v="Dorsett Road"/><tag k="addr:housenumber" v="11966"/><tag k="coa:place_id" v="166644"/></node><node id="-4" lat="30.41759" lon="-97.72788" changeset="false"><tag k="addr:street" v="Pamona Drive"/><tag k="addr:housenumber" v="4403 1/2"/><tag k="coa:place_id" v="3210552"/></node><node id="-5" lat="30.420979" lon="-97.727004" changeset="false"><tag k="addr:street" v="Abelia Drive"/><tag k="addr:housenumber" v="4506"/><tag k="coa:place_id" v="736564"/></node><node id="-6" lat="30.413626" lon="-97.726834" changeset="false"><tag k="addr:street" v="Dorsett Road"/><tag k="addr:housenumber" v="11958"/><tag k="coa:place_id" v="166638"/></node><node id="-7" lat="30.423023" lon="-97.729367" changeset="false"><tag k="addr:street" v="Pelham Drive"/><tag k="addr:housenumber" v="4811"/><tag k="coa:place_id" v="560043"/></node><node id="-8" lat="30.412927" lon="-97.725299" changeset="false"><tag k="addr:street" v="Dorsett Road"/><tag k="addr:housenumber" v="11936"/><tag k="coa:place_id" v="166624"/></node><node id="-9" lat="30.412522" lon="-97.7232" changeset="false"><tag k="addr:street" v="Aspendale Drive"/><tag k="addr:housenumber" v="12001 1/2"/><tag k="coa:place_id" v="3296192"/></node><node id="-10" lat="30.413569" lon="-97.726708" changeset="false"><tag k="addr:street" v="Dorsett Road"/><tag k="addr:housenumber" v="11956"/><tag k="coa:place_id" v="166637"/></node><node id="-11" lat="30.412528" lon="-97.724488" changeset="false"><tag k="addr:street" v="Dorsett Road"/><tag k="addr:housenumber" v="11924"/><tag k="coa:place_id" v="166614"/></node><node id="-12" lat="30.412464" lon="-97.724326" changeset="false"><tag k="addr:street" v="Dorsett Road"/><tag k="addr:housenumber" v="11922"/><tag k="coa:place_id" v="166613"/></node><node id="-13" lat="30.412263" lon="-97.72389" changeset="false"><tag k="addr:street" v="Dorsett Road"/><tag k="addr:housenumber" v="11916"/><tag k="coa:place_id" v="166607"/></node><node id="-14" lat="30.413418" lon="-97.72645" changeset="false"><tag k="addr:street" v="Dorsett Road"/><tag k="addr:housenumber" v="11952"/><tag k="coa:place_id" v="166633"/></node><node id="-15" lat="30.413222" lon="-97.726009" changeset="false"><tag k="addr:street" v="Dorsett Road"/><tag k="addr:housenumber" v="11946"/><tag k="coa:place_id" v="166630"/></node><node id="-16" lat="30.416432" lon="-97.728322" changeset="false"><tag k="addr:street" v="Wycliff Lane"/><tag k="addr:housenumber" v="12014"/><tag k="coa:place_id" v="413943"/></node><node id="-17" lat="30.412287" lon="-97.728587" changeset="false"><tag k="addr:street" v="Duval Road"/><tag k="addr:housenumber" v="4100"/><tag k="coa:place_id" v="226517"/></node><node id="-18" lat="30.412077" lon="-97.72437" changeset="false"><tag k="addr:street" v="Duval Road"/><tag k="addr:housenumber" v="3812"/><tag k="coa:place_id" v="166656"/></node><node id="-19" lat="30.412654" lon="-97.724748" changeset="false"><tag k="addr:street" v="Dorsett Road"/><tag k="addr:housenumber" v="11928"/><tag k="coa:place_id" v="166618"/></node><node id="-20" lat="30.414344" lon="-97.724252" changeset="false"><tag k="addr:street" v="Trianon Lane"/><tag k="addr:housenumber" v="12014"/><tag k="coa:place_id" v="250857"/></node><node id="-21" lat="30.420494" lon="-97.727118" changeset="false"><tag k="addr:street" v="Abelia Drive"/><tag k="addr:housenumber" v="4505"/><tag k="coa:place_id" v="704518"/></node><node id="-22" lat="30.420323" lon="-97.728289" changeset="false"><tag k="addr:street" v="Everest Lane"/><tag k="addr:housenumber" v="4602"/><tag k="coa:place_id" v="709666"/></node><node id="-23" lat="30.421035" lon="-97.726412" changeset="false"><tag k="addr:street" v="Arrowwood Drive"/><tag k="addr:housenumber" v="12208"/><tag k="coa:place_id" v="560211"/></node><node id="-24" lat="30.414503" lon="-97.72831" changeset="false"><tag k="addr:street" v="Dorsett Road"/><tag k="addr:housenumber" v="11980"/><tag k="coa:place_id" v="166655"/></node><node id="-25" lat="30.412979" lon="-97.725443" changeset="false"><tag k="addr:street" v="Dorsett Road"/><tag k="addr:housenumber" v="11938"/><tag k="coa:place_id" v="166625"/></node><node id="-26" lat="30.412731" lon="-97.724868" changeset="false"><tag k="addr:street" v="Dorsett Road"/><tag k="addr:housenumber" v="11930"/><tag k="coa:place_id" v="166619"/></node><node id="-27" lat="30.421123" lon="-97.727317" changeset="false"><tag k="addr:street" v="Abelia Drive"/><tag k="addr:housenumber" v="4510"/><tag k="coa:place_id" v="108113"/></node><node id="-28" lat="30.42027" lon="-97.727982" changeset="false"><tag k="addr:street" v="Everest Lane"/><tag k="addr:housenumber" v="4512"/><tag k="coa:place_id" v="709786"/></node><node id="-29" lat="30.422037" lon="-97.729501" changeset="false"><tag k="addr:street" v="Dorsett Road"/><tag k="addr:housenumber" v="12211"/><tag k="coa:place_id" v="472820"/></node><node id="-30" lat="30.420465" lon="-97.729073" changeset="false"><tag k="addr:street" v="Everest Lane"/><tag k="addr:housenumber" v="4612"/><tag k="coa:place_id" v="108102"/></node><node id="-31" lat="30.412844" lon="-97.725165" changeset="false"><tag k="addr:street" v="Dorsett Road"/><tag k="addr:housenumber" v="11934"/><tag k="coa:place_id" v="166621"/></node><node id="-32" lat="30.420575" lon="-97.727455" changeset="false"><tag k="addr:street" v="Abelia Drive"/><tag k="addr:housenumber" v="4509"/><tag k="coa:place_id" v="700156"/></node><node id="-33" lat="30.419434" lon="-97.726155" changeset="false"><tag k="addr:street" v="Everest Lane"/><tag k="addr:housenumber" v="4401"/><tag k="coa:place_id" v="110119"/></node><node id="-34" lat="30.413841" lon="-97.727246" changeset="false"><tag k="addr:street" v="Dorsett Road"/><tag k="addr:housenumber" v="11964"/><tag k="coa:place_id" v="166643"/></node></osm>