<?xml version="1.0" encoding="UTF-8"?><osm version="0.6" generator="github.com/aaronlidman/osm-and-geojson"><node id="-1" lat="30.18654" lon="-97.884779" changeset="false"><tag k="addr:street" v="Beachmont Court"/><tag k="addr:housenumber" v="5608"/><tag k="coa:place_id" v="207139"/></node><node id="-2" lat="30.188315" lon="-97.881848" changeset="false"><tag k="addr:street" v="Galsworthy Court"/><tag k="addr:housenumber" v="5704"/><tag k="coa:place_id" v="207336"/></node><node id="-3" lat="30.189693" lon="-97.886019" changeset="false"><tag k="addr:street" v="Redmond Road"/><tag k="addr:housenumber" v="10624"/><tag k="coa:place_id" v="126888"/></node><node id="-4" lat="30.191962" lon="-97.888313" changeset="false"><tag k="addr:street" v="Londonshire Lane"/><tag k="addr:housenumber" v="10600"/><tag k="coa:place_id" v="113099"/></node><node id="-5" lat="30.185074" lon="-97.89067" changeset="false"><tag k="addr:street" v="Savin Hill Lane"/><tag k="addr:housenumber" v="11117"/><tag k="coa:place_id" v="140839"/></node><node id="-6" lat="30.188227" lon="-97.887435" changeset="false"><tag k="addr:street" v="Redmond Cove"/><tag k="addr:housenumber" v="10804"/><tag k="coa:place_id" v="111479"/></node><node id="-7" lat="30.186927" lon="-97.892522" changeset="false"><tag k="addr:street" v="Skahan Lane"/><tag k="addr:housenumber" v="6203"/><tag k="coa:place_id" v="111503"/></node><node id="-8" lat="30.188844" lon="-97.890639" changeset="false"><tag k="addr:street" v="Redmond Road"/><tag k="addr:housenumber" v="10841"/><tag k="coa:place_id" v="111433"/></node><node id="-9" lat="30.187333" lon="-97.888433" changeset="false"><tag k="addr:street" v="Medfield Court"/><tag k="addr:housenumber" v="10901"/><tag k="coa:place_id" v="113532"/></node><node id="-10" lat="30.191854" lon="-97.888418" changeset="false"><tag k="addr:street" v="Londonshire Lane"/><tag k="addr:housenumber" v="10602"/><tag k="coa:place_id" v="111659"/></node><node id="-11" lat="30.186318" lon="-97.887702" changeset="false"><tag k="addr:street" v="Rickerhill Lane"/><tag k="addr:housenumber" v="5924"/><tag k="coa:place_id" v="111251"/></node><node id="-12" lat="30.188922" lon="-97.888516" changeset="false"><tag k="addr:street" v="Redmond Road"/><tag k="addr:housenumber" v="10816"/><tag k="coa:place_id" v="111403"/></node><node id="-13" lat="30.188813" lon="-97.883278" changeset="false"><tag k="addr:street" v="Galsworthy Lane"/><tag k="addr:housenumber" v="10615"/><tag k="coa:place_id" v="207323"/></node><node id="-14" lat="30.189787" lon="-97.885862" changeset="false"><tag k="addr:street" v="Redmond Road"/><tag k="addr:housenumber" v="10620"/><tag k="coa:place_id" v="127389"/></node><node id="-15" lat="30.184773" lon="-97.886885" changeset="false"><tag k="addr:street" v="Savannah Court"/><tag k="addr:housenumber" v="11016"/><tag k="coa:place_id" v="207156"/></node><node id="-16" lat="30.183627" lon="-97.887632" changeset="false"><tag k="addr:street" v="Bexley Lane"/><tag k="addr:housenumber" v="11104"/><tag k="coa:place_id" v="231411"/></node><node id="-17" lat="30.186881" lon="-97.891539" changeset="false"><tag k="addr:street" v="Skahan Lane"/><tag k="addr:housenumber" v="6110"/><tag k="coa:place_id" v="111511"/></node><node id="-18" lat="30.19186" lon="-97.880589" changeset="false"><tag k="addr:street" v="La Crosse Avenue"/><tag k="addr:housenumber" v="5901"/><tag k="coa:place_id" v="127677"/></node><node id="-19" lat="30.187079" lon="-97.889676" changeset="false"><tag k="addr:street" v="Rickerhill Court"/><tag k="addr:housenumber" v="10907"/><tag k="coa:place_id" v="111324"/></node><node id="-20" lat="30.187937" lon="-97.882603" changeset="false"><tag k="addr:street" v="Galsworthy Court"/><tag k="addr:housenumber" v="5705"/><tag k="coa:place_id" v="207341"/></node><node id="-21" lat="30.188717" lon="-97.881424" changeset="false"><tag k="addr:street" v="Galsworthy Lane"/><tag k="addr:housenumber" v="10501 1/2"/><tag k="coa:place_id" v="3029850"/></node><node id="-22" lat="30.187397" lon="-97.883984" changeset="false"><tag k="addr:street" v="Lovridge Court"/><tag k="addr:housenumber" v="10705"/><tag k="coa:place_id" v="207137"/></node><node id="-23" lat="30.187836" lon="-97.885516" changeset="false"><tag k="addr:street" v="Galsworthy Lane"/><tag k="addr:housenumber" v="10800"/><tag k="coa:place_id" v="207306"/></node><node id="-24" lat="30.186593" lon="-97.883801" changeset="false"><tag k="addr:street" v="Gorham Glen Lane"/><tag k="addr:housenumber" v="5611"/><tag k="coa:place_id" v="214877"/></node><node id="-25" lat="30.187738" lon="-97.88817" changeset="false"><tag k="addr:street" v="Rickerhill Lane"/><tag k="addr:housenumber" v="6000"/><tag k="coa:place_id" v="111258"/></node><node id="-26" lat="30.185324" lon="-97.888213" changeset="false"><tag k="addr:street" v="Gorham Glen Lane"/><tag k="addr:housenumber" v="5812"/><tag k="coa:place_id" v="207259"/></node><node id="-27" lat="30.185269" lon="-97.886943" changeset="false"><tag k="addr:street" v="Savannah Court"/><tag k="addr:housenumber" v="11009"/><tag k="coa:place_id" v="207154"/></node><node id="-28" lat="30.187648" lon="-97.885607" changeset="false"><tag k="addr:street" v="Galsworthy Lane"/><tag k="addr:housenumber" v="10804"/><tag k="coa:place_id" v="207307"/></node><node id="-29" lat="30.187473" lon="-97.885675" changeset="false"><tag k="addr:street" v="Galsworthy Lane"/><tag k="addr:housenumber" v="10808"/><tag k="coa:place_id" v="207311"/></node><node id="-30" lat="30.188958" lon="-97.891888" changeset="false"><tag k="addr:street" v="Grassmere Court"/><tag k="addr:housenumber" v="10910"/><tag k="coa:place_id" v="111546"/></node><node id="-31" lat="30.189035" lon="-97.89073" changeset="false"><tag k="addr:street" v="Redmond Road"/><tag k="addr:housenumber" v="10843"/><tag k="coa:place_id" v="111437"/></node><node id="-32" lat="30.185517" lon="-97.886637" changeset="false"><tag k="addr:street" v="Bexley Lane"/><tag k="addr:housenumber" v="10908"/><tag k="coa:place_id" v="207162"/></node><node id="-33" lat="30.188175" lon="-97.884412" changeset="false"><tag k="addr:street" v="Galsworthy Lane"/><tag k="addr:housenumber" v="10711"/><tag k="coa:place_id" v="207318"/></node><node id="-34" lat="30.188845" lon="-97.886517" changeset="false"><tag k="addr:street" v="Redmond Road"/><tag k="addr:housenumber" v="10717"/><tag k="coa:place_id" v="126781"/></node><node id="-35" lat="30.185376" lon="-97.886468" changeset="false"><tag k="addr:street" v="Bexley Lane"/><tag k="addr:housenumber" v="10912"/><tag k="coa:place_id" v="207163"/></node><node id="-36" lat="30.187023" lon="-97.882699" changeset="false"><tag k="addr:street" v="Trelawney Lane"/><tag k="addr:housenumber" v="5601"/><tag k="coa:place_id" v="207389"/></node><node id="-37" lat="30.193163" lon="-97.88537" changeset="false"><tag k="addr:street" v="La Crosse Avenue"/><tag k="addr:housenumber" v="5919"/><tag k="coa:place_id" v="100986"/></node><node id="-38" lat="30.192555" lon="-97.884055" changeset="false"><tag k="addr:street" v="La Crosse Avenue"/><tag k="addr:housenumber" v="5917"/><tag k="coa:place_id" v="209005"/></node><node id="-39" lat="30.192192" lon="-97.886523" changeset="false"><tag k="addr:street" v="Redmond Road"/><tag k="addr:housenumber" v="10509"/><tag k="coa:place_id" v="105869"/></node><node id="-40" lat="30.192081" lon="-97.886335" changeset="false"><tag k="addr:street" v="Redmond Road"/><tag k="addr:housenumber" v="10511"/><tag k="coa:place_id" v="105870"/></node><node id="-41" lat="30.191992" lon="-97.887004" changeset="false"><tag k="addr:street" v="Redmond Road"/><tag k="addr:housenumber" v="10508"/><tag k="coa:place_id" v="105888"/></node><node id="-42" lat="30.187727" lon="-97.890769" changeset="false"><tag k="addr:street" v="Rickerhill Lane"/><tag k="addr:housenumber" v="6113"/><tag k="coa:place_id" v="120011"/></node><node id="-43" lat="30.186717" lon="-97.892191" changeset="false"><tag k="addr:street" v="Skahan Lane"/><tag k="addr:housenumber" v="6113"/><tag k="coa:place_id" v="111498"/></node><node id="-44" lat="30.186733" lon="-97.891416" changeset="false"><tag k="addr:street" v="Skahan Lane"/><tag k="addr:housenumber" v="6108"/><tag k="coa:place_id" v="111510"/></node><node id="-45" lat="30.185643" lon="-97.886774" changeset="false"><tag k="addr:street" v="Bexley Lane"/><tag k="addr:housenumber" v="10904"/><tag k="coa:place_id" v="207161"/></node><node id="-46" lat="30.188345" lon="-97.88785" changeset="false"><tag k="addr:street" v="Redmond Road"/><tag k="addr:housenumber" v="10813"/><tag k="coa:place_id" v="111443"/></node><node id="-47" lat="30.18369" lon="-97.888039" changeset="false"><tag k="addr:street" v="Bexley Lane"/><tag k="addr:housenumber" v="11112"/><tag k="coa:place_id" v="231408"/></node><node id="-48" lat="30.185662" lon="-97.885165" changeset="false"><tag k="addr:street" v="Beachmont Lane"/><tag k="addr:housenumber" v="10916"/><tag k="coa:place_id" v="207205"/></node><node id="-49" lat="30.18419" lon="-97.887288" changeset="false"><tag k="addr:street" v="Anselm Court"/><tag k="addr:housenumber" v="5800"/><tag k="coa:place_id" v="231402"/></node><node id="-50" lat="30.192203" lon="-97.887303" changeset="false"><tag k="addr:street" v="Redmond Road"/><tag k="addr:housenumber" v="10504"/><tag k="coa:place_id" v="105883"/></node><node id="-51" lat="30.187976" lon="-97.882059" changeset="false"><tag k="addr:street" v="Galsworthy Court"/><tag k="addr:housenumber" v="5700"/><tag k="coa:place_id" v="207337"/></node><node id="-52" lat="30.18275" lon="-97.893112" changeset="false"><tag k="addr:street" v="Pompey Court"/><tag k="addr:housenumber" v="11315"/><tag k="coa:place_id" v="149255"/></node><node id="-53" lat="30.191428" lon="-97.88654" changeset="false"><tag k="addr:street" v="Redmond Road"/><tag k="addr:housenumber" v="10516"/><tag k="coa:place_id" v="105895"/></node><node id="-54" lat="30.189528" lon="-97.882971" changeset="false"><tag k="addr:street" v="Galsworthy Lane"/><tag k="addr:housenumber" v="10604"/><tag k="coa:place_id" v="207276"/></node><node id="-55" lat="30.193159" lon="-97.885267" changeset="false"><tag k="addr:street" v="La Crosse Avenue"/><tag k="addr:housenumber" v="5919 1/2"/><tag k="coa:place_id" v="3096175"/></node><node id="-56" lat="30.182343" lon="-97.893696" changeset="false"><tag k="addr:street" v="Pompey Court"/><tag k="addr:housenumber" v="11331"/><tag k="coa:place_id" v="208813"/></node><node id="-57" lat="30.1853" lon="-97.889115" changeset="false"><tag k="addr:street" v="Rickerhill Lane"/><tag k="addr:housenumber" v="5906"/><tag k="coa:place_id" v="111233"/></node><node id="-58" lat="30.184675" lon="-97.887207" changeset="false"><tag k="addr:street" v="Savannah Court"/><tag k="addr:housenumber" v="11012"/><tag k="coa:place_id" v="207157"/></node><node id="-59" lat="30.187657" lon="-97.884966" changeset="false"><tag k="addr:street" v="Galsworthy Lane"/><tag k="addr:housenumber" v="10801"/><tag k="coa:place_id" v="207313"/></node><node id="-60" lat="30.1837" lon="-97.8909" changeset="false"><tag k="addr:street" v="Savin Hill Lane"/><tag k="addr:housenumber" v="11319"/><tag k="coa:place_id" v="208818"/></node><node id="-61" lat="30.183754" lon="-97.890991" changeset="false"><tag k="addr:street" v="Savin Hill Lane"/><tag k="addr:housenumber" v="11208"/><tag k="coa:place_id" v="140807"/></node></osm>