<?xml version="1.0" encoding="UTF-8"?><osm version="0.6" generator="github.com/aaronlidman/osm-and-geojson"><node id="-1" lat="30.476855" lon="-97.655666" changeset="false"><tag k="addr:street" v="Huxley Lane"/><tag k="addr:housenumber" v="2103"/><tag k="addr:postcode" v="78664"/></node><node id="-2" lat="30.476603" lon="-97.64792" changeset="false"><tag k="addr:street" v="Limpia Creek Drive"/><tag k="addr:housenumber" v="17712"/><tag k="addr:postcode" v="78664"/></node><node id="-3" lat="30.476869" lon="-97.645468" changeset="false"><tag k="addr:street" v="Candelaria Mesa Drive"/><tag k="addr:housenumber" v="1612"/><tag k="addr:postcode" v="78664"/></node><node id="-4" lat="30.478564" lon="-97.642985" changeset="false"><tag k="addr:street" v="South A W Grimes Boulevard"/><tag k="addr:housenumber" v="2905"/><tag k="addr:postcode" v="78660"/></node><node id="-5" lat="30.485479" lon="-97.63185" changeset="false"><tag k="addr:street" v="Schultz Lane"/><tag k="addr:housenumber" v="18725"/><tag k="addr:postcode" v="78664"/></node><node id="-6" lat="30.486078" lon="-97.630879" changeset="false"><tag k="addr:street" v="New Meister Lane"/><tag k="addr:housenumber" v="1221"/><tag k="addr:postcode" v="78660"/></node><node id="-7" lat="30.478532" lon="-97.643871" changeset="false"><tag k="addr:street" v="South A W Grimes Boulevard"/><tag k="addr:housenumber" v="2870"/><tag k="addr:postcode" v="78664"/></node><node id="-8" lat="30.476929" lon="-97.646531" changeset="false"><tag k="addr:street" v="Candelaria Mesa Drive"/><tag k="addr:housenumber" v="1706"/><tag k="addr:postcode" v="78664"/></node><node id="-9" lat="30.476154" lon="-97.647414" changeset="false"><tag k="addr:street" v="Lobo Mountain Lane"/><tag k="addr:housenumber" v="1701"/><tag k="addr:postcode" v="78664"/></node><node id="-10" lat="30.476294" lon="-97.654494" changeset="false"><tag k="addr:street" v="Huxley Lane"/><tag k="addr:housenumber" v="2009"/><tag k="addr:postcode" v="78664"/></node><node id="-11" lat="30.477054" lon="-97.644969" changeset="false"><tag k="addr:street" v="Candelaria Mesa Drive"/><tag k="addr:housenumber" v="1606"/><tag k="addr:postcode" v="78664"/></node><node id="-12" lat="30.476911" lon="-97.645312" changeset="false"><tag k="addr:street" v="Candelaria Mesa Drive"/><tag k="addr:housenumber" v="1610"/><tag k="addr:postcode" v="78664"/></node><node id="-13" lat="30.477806" lon="-97.644373" changeset="false"><tag k="addr:street" v="Quitman Mountain Way"/><tag k="addr:housenumber" v="17906"/><tag k="addr:postcode" v="78664"/></node><node id="-14" lat="30.476479" lon="-97.648" changeset="false"><tag k="addr:street" v="Limpia Creek Drive"/><tag k="addr:housenumber" v="17710"/><tag k="addr:postcode" v="78664"/></node><node id="-15" lat="30.476264" lon="-97.648145" changeset="false"><tag k="addr:street" v="Limpia Creek Drive"/><tag k="addr:housenumber" v="17706"/><tag k="addr:postcode" v="78664"/></node><node id="-16" lat="30.477239" lon="-97.647135" changeset="false"><tag k="addr:street" v="Candelaria Mesa Drive"/><tag k="addr:housenumber" v="1714"/><tag k="addr:postcode" v="78664"/></node><node id="-17" lat="30.477141" lon="-97.647594" changeset="false"><tag k="addr:street" v="Limpia Creek Drive"/><tag k="addr:housenumber" v="17720"/><tag k="addr:postcode" v="78664"/></node><node id="-18" lat="30.476872" lon="-97.64775" changeset="false"><tag k="addr:street" v="Limpia Creek Drive"/><tag k="addr:housenumber" v="17716"/><tag k="addr:postcode" v="78664"/></node><node id="-19" lat="30.476812" lon="-97.645632" changeset="false"><tag k="addr:street" v="Candelaria Mesa Drive"/><tag k="addr:housenumber" v="1614"/><tag k="addr:postcode" v="78664"/></node><node id="-20" lat="30.4774" lon="-97.647421" changeset="false"><tag k="addr:street" v="Candelaria Mesa Drive"/><tag k="addr:housenumber" v="1718"/><tag k="addr:postcode" v="78664"/></node><node id="-21" lat="30.477644" lon="-97.644292" changeset="false"><tag k="addr:street" v="Quitman Mountain Way"/><tag k="addr:housenumber" v="17904"/><tag k="addr:postcode" v="78664"/></node><node id="-22" lat="30.476793" lon="-97.646224" changeset="false"><tag k="addr:street" v="Candelaria Mesa Drive"/><tag k="addr:housenumber" v="1702"/><tag k="addr:postcode" v="78664"/></node><node id="-23" lat="30.484708" lon="-97.63222" changeset="false"><tag k="addr:street" v="Schultz Lane"/><tag k="addr:housenumber" v="18625"/><tag k="addr:postcode" v="78664"/></node><node id="-24" lat="30.477302" lon="-97.647548" changeset="false"><tag k="addr:street" v="Limpia Creek Drive"/><tag k="addr:housenumber" v="17722"/><tag k="addr:postcode" v="78664"/></node><node id="-25" lat="30.477371" lon="-97.644116" changeset="false"><tag k="addr:street" v="Quitman Mountain Way"/><tag k="addr:housenumber" v="17900"/><tag k="addr:postcode" v="78664"/></node><node id="-26" lat="30.477089" lon="-97.644692" changeset="false"><tag k="addr:street" v="Candelaria Mesa Drive"/><tag k="addr:housenumber" v="1602"/><tag k="addr:postcode" v="78664"/></node><node id="-27" lat="30.476375" lon="-97.654647" changeset="false"><tag k="addr:street" v="Huxley Lane"/><tag k="addr:housenumber" v="2011"/><tag k="addr:postcode" v="78664"/></node><node id="-28" lat="30.477512" lon="-97.644183" changeset="false"><tag k="addr:street" v="Quitman Mountain Way"/><tag k="addr:housenumber" v="17902"/><tag k="addr:postcode" v="78664"/></node><node id="-29" lat="30.476565" lon="-97.646301" changeset="false"><tag k="addr:street" v="Candelaria Mesa Drive"/><tag k="addr:housenumber" v="1703"/><tag k="addr:postcode" v="78664"/></node><node id="-30" lat="30.476139" lon="-97.648207" changeset="false"><tag k="addr:street" v="Limpia Creek Drive"/><tag k="addr:housenumber" v="17704"/><tag k="addr:postcode" v="78664"/></node></osm>