<?xml version="1.0" encoding="UTF-8"?><osm version="0.6" generator="github.com/aaronlidman/osm-and-geojson"><node id="-1" lat="30.453593" lon="-97.985271" changeset="false"><tag k="addr:street" v="Dawn Drive"/><tag k="addr:housenumber" v="20412"/><tag k="addr:postcode" v="78645"/></node><node id="-2" lat="30.475981" lon="-97.989427" changeset="false"><tag k="addr:street" v="Horseshoe Loop"/><tag k="addr:housenumber" v="21505"/><tag k="addr:postcode" v="78645"/></node><node id="-3" lat="30.470243" lon="-97.986242" changeset="false"><tag k="addr:street" v="Deepwood Drive"/><tag k="addr:housenumber" v="7105"/><tag k="addr:postcode" v="78645"/></node><node id="-4" lat="30.461522" lon="-97.992034" changeset="false"><tag k="addr:street" v="Camille Court"/><tag k="addr:housenumber" v="6402"/><tag k="addr:postcode" v="78645"/></node><node id="-5" lat="30.461699" lon="-97.991804" changeset="false"><tag k="addr:street" v="Camille Court"/><tag k="addr:housenumber" v="6404"/><tag k="addr:postcode" v="78645"/></node><node id="-6" lat="30.458109" lon="-97.994282" changeset="false"><tag k="addr:street" v="Lynn Lane"/><tag k="addr:housenumber" v="6004"/><tag k="addr:postcode" v="78645"/></node><node id="-7" lat="30.452775" lon="-97.999147" changeset="false"><tag k="addr:street" v="Canyon Oaks Drive"/><tag k="addr:housenumber" v="5312"/><tag k="addr:postcode" v="78645"/></node><node id="-8" lat="30.472074" lon="-97.984855" changeset="false"><tag k="addr:street" v="Ridgeview Road"/><tag k="addr:housenumber" v="21110"/><tag k="addr:postcode" v="78645"/></node><node id="-9" lat="30.472458" lon="-97.985467" changeset="false"><tag k="addr:street" v="Ridgeview Road"/><tag k="addr:housenumber" v="21113"/><tag k="addr:postcode" v="78645"/></node><node id="-10" lat="30.472545" lon="-97.984462" changeset="false"><tag k="addr:street" v="Northland Drive"/><tag k="addr:housenumber" v="21114"/><tag k="addr:postcode" v="78645"/></node><node id="-11" lat="30.464001" lon="-97.984365" changeset="false"><tag k="addr:street" v="Fawn Ridge Drive"/><tag k="addr:housenumber" v="20807"/><tag k="addr:postcode" v="78645"/></node><node id="-12" lat="30.464037" lon="-97.98479" changeset="false"><tag k="addr:street" v="Fawn Ridge Drive"/><tag k="addr:housenumber" v="20811"/><tag k="addr:postcode" v="78645"/></node><node id="-13" lat="30.471299" lon="-97.980995" changeset="false"><tag k="addr:street" v="Little Lane"/><tag k="addr:housenumber" v="20902"/><tag k="addr:postcode" v="78645"/></node><node id="-14" lat="30.469401" lon="-97.979582" changeset="false"><tag k="addr:street" v="Ridgeview Road"/><tag k="addr:housenumber" v="20706"/><tag k="addr:postcode" v="78645"/></node><node id="-15" lat="30.471533" lon="-97.977779" changeset="false"><tag k="addr:street" v="Northland Drive"/><tag k="addr:housenumber" v="20700"/><tag k="addr:postcode" v="78645"/></node><node id="-16" lat="30.471172" lon="-97.979322" changeset="false"><tag k="addr:street" v="Oak Hill Lane"/><tag k="addr:housenumber" v="20803"/><tag k="addr:postcode" v="78645"/></node><node id="-17" lat="30.473361" lon="-97.986987" changeset="false"><tag k="addr:street" v="Ridgeview Road"/><tag k="addr:housenumber" v="21301"/><tag k="addr:postcode" v="78645"/></node><node id="-18" lat="30.47377" lon="-97.987842" changeset="false"><tag k="addr:street" v="Ridgeview Road"/><tag k="addr:housenumber" v="21307"/><tag k="addr:postcode" v="78645"/></node><node id="-19" lat="30.469613" lon="-97.986996" changeset="false"><tag k="addr:street" v="Deepwood Drive"/><tag k="addr:housenumber" v="7100"/><tag k="addr:postcode" v="78645"/></node><node id="-20" lat="30.453685" lon="-97.983734" changeset="false"><tag k="addr:street" v="Dawn Drive"/><tag k="addr:housenumber" v="20400"/><tag k="addr:postcode" v="78645"/></node><node id="-21" lat="30.474423" lon="-97.985003" changeset="false"><tag k="addr:street" v="Packsaddle Trail"/><tag k="addr:housenumber" v="21107"/><tag k="addr:postcode" v="78645"/></node><node id="-22" lat="30.474238" lon="-97.985401" changeset="false"><tag k="addr:street" v="Packsaddle Trail"/><tag k="addr:housenumber" v="21109"/><tag k="addr:postcode" v="78645"/></node><node id="-23" lat="30.473971" lon="-97.985855" changeset="false"><tag k="addr:street" v="Packsaddle Trail"/><tag k="addr:housenumber" v="21201"/><tag k="addr:postcode" v="78645"/></node><node id="-24" lat="30.475064" lon="-97.980062" changeset="false"><tag k="addr:street" v="Northland Drive"/><tag k="addr:housenumber" v="20906"/><tag k="addr:postcode" v="78645"/></node><node id="-25" lat="30.47437" lon="-97.981384" changeset="false"><tag k="addr:street" v="Northland Drive"/><tag k="addr:housenumber" v="21003"/><tag k="addr:postcode" v="78645"/></node><node id="-26" lat="30.46996" lon="-97.9806" changeset="false"><tag k="addr:street" v="Spanish Oak Drive"/><tag k="addr:housenumber" v="7427"/><tag k="addr:postcode" v="78645"/></node><node id="-27" lat="30.476133" lon="-97.977226" changeset="false"><tag k="addr:street" v="Dodge Trail"/><tag k="addr:housenumber" v="20805"/><tag k="addr:postcode" v="78645"/></node><node id="-28" lat="30.475883" lon="-97.978186" changeset="false"><tag k="addr:street" v="Dodge Trail"/><tag k="addr:housenumber" v="20813"/><tag k="addr:postcode" v="78645"/></node><node id="-29" lat="30.475161" lon="-97.987508" changeset="false"><tag k="addr:street" v="Bar K Ranch Road"/><tag k="addr:housenumber" v="7505"/><tag k="addr:postcode" v="78645"/></node><node id="-30" lat="30.468651" lon="-97.979325" changeset="false"><tag k="addr:street" v="Ridgeview Road"/><tag k="addr:housenumber" v="20703"/><tag k="addr:postcode" v="78645"/></node><node id="-31" lat="30.467012" lon="-97.979089" changeset="false"><tag k="addr:street" v="White Oak Drive"/><tag k="addr:housenumber" v="7203"/><tag k="addr:postcode" v="78645"/></node><node id="-32" lat="30.474528" lon="-97.98634" changeset="false"><tag k="addr:street" v="Packsaddle Trail"/><tag k="addr:housenumber" v="21200"/><tag k="addr:postcode" v="78645"/></node><node id="-33" lat="30.473103" lon="-97.986426" changeset="false"><tag k="addr:street" v="Ridgeview Road"/><tag k="addr:housenumber" v="21205"/><tag k="addr:postcode" v="78645"/></node><node id="-34" lat="30.480071" lon="-97.994398" changeset="false"><tag k="addr:street" v="Surrey Lane"/><tag k="addr:housenumber" v="21819"/><tag k="addr:postcode" v="78645"/></node><node id="-35" lat="30.46652" lon="-97.981702" changeset="false"><tag k="addr:street" v="Live Oak Drive"/><tag k="addr:housenumber" v="6906"/><tag k="addr:postcode" v="78645"/></node><node id="-36" lat="30.465451" lon="-97.981782" changeset="false"><tag k="addr:street" v="Live Oak Drive"/><tag k="addr:housenumber" v="6810"/><tag k="addr:postcode" v="78645"/></node><node id="-37" lat="30.450168" lon="-97.999181" changeset="false"><tag k="addr:street" v="Country Club Drive"/><tag k="addr:housenumber" v="5106"/><tag k="addr:postcode" v="78645"/></node><node id="-38" lat="30.468383" lon="-97.985098" changeset="false"><tag k="addr:street" v="Post Oak Drive"/><tag k="addr:housenumber" v="21005"/><tag k="addr:postcode" v="78645"/></node><node id="-39" lat="30.468695" lon="-97.983018" changeset="false"><tag k="addr:street" v="Post Oak Drive"/><tag k="addr:housenumber" v="20901"/><tag k="addr:postcode" v="78645"/></node><node id="-40" lat="30.467222" lon="-97.981615" changeset="false"><tag k="addr:street" v="Live Oak Drive"/><tag k="addr:housenumber" v="7001"/><tag k="addr:postcode" v="78645"/></node><node id="-41" lat="30.462081" lon="-97.982948" changeset="false"><tag k="addr:street" v="Avenida Ann Drive"/><tag k="addr:housenumber" v="6612"/><tag k="addr:postcode" v="78645"/></node><node id="-42" lat="30.47588" lon="-97.989668" changeset="false"><tag k="addr:street" v="Horseshoe Loop"/><tag k="addr:housenumber" v="21513"/><tag k="addr:postcode" v="78645"/></node><node id="-43" lat="30.471372" lon="-97.983537" changeset="false"><tag k="addr:street" v="White Oak Drive"/><tag k="addr:housenumber" v="7623"/><tag k="addr:postcode" v="78645"/></node><node id="-44" lat="30.471571" lon="-97.982119" changeset="false"><tag k="addr:street" v="Little Lane"/><tag k="addr:housenumber" v="20908"/><tag k="addr:postcode" v="78645"/></node><node id="-45" lat="30.475595" lon="-97.990471" changeset="false"><tag k="addr:street" v="Horseshoe Loop"/><tag k="addr:housenumber" v="21516"/><tag k="addr:postcode" v="78645"/></node><node id="-46" lat="30.45846" lon="-97.984354" changeset="false"><tag k="addr:street" v="Park Drive"/><tag k="addr:housenumber" v="20603"/><tag k="addr:postcode" v="78645"/></node><node id="-47" lat="30.44994" lon="-98.001715" changeset="false"><tag k="addr:street" v="Green Shore Circle"/><tag k="addr:housenumber" v="5007"/><tag k="addr:postcode" v="78645"/></node><node id="-48" lat="30.469502" lon="-97.984203" changeset="false"><tag k="addr:street" v="Ridgeview Loop"/><tag k="addr:housenumber" v="21001"/><tag k="addr:postcode" v="78645"/></node><node id="-49" lat="30.461037" lon="-97.994628" changeset="false"><tag k="addr:street" v="Lakeshore Drive"/><tag k="addr:housenumber" v="6200"/><tag k="addr:postcode" v="78645"/></node><node id="-50" lat="30.460626" lon="-97.983543" changeset="false"><tag k="addr:street" v="Palo Duro Drive"/><tag k="addr:housenumber" v="20606"/><tag k="addr:postcode" v="78645"/></node><node id="-51" lat="30.46038" lon="-97.990032" changeset="false"><tag k="addr:street" v="Dawn Drive"/><tag k="addr:housenumber" v="21020"/><tag k="addr:postcode" v="78645"/></node><node id="-52" lat="30.47184" lon="-97.990404" changeset="false"><tag k="addr:street" v="Coyote Trail"/><tag k="addr:housenumber" v="21402"/><tag k="addr:postcode" v="78645"/></node><node id="-53" lat="30.470952" lon="-97.990022" changeset="false"><tag k="addr:street" v="Coyote Trail"/><tag k="addr:housenumber" v="21417"/><tag k="addr:postcode" v="78645"/></node><node id="-54" lat="30.467805" lon="-97.988651" changeset="false"><tag k="addr:street" v="Palomino Cove"/><tag k="addr:housenumber" v="21209"/><tag k="addr:postcode" v="78645"/></node><node id="-55" lat="30.478383" lon="-97.991743" changeset="false"><tag k="addr:street" v="Surrey Lane"/><tag k="addr:housenumber" v="21705"/><tag k="addr:postcode" v="78645"/></node><node id="-56" lat="30.478021" lon="-97.991099" changeset="false"><tag k="addr:street" v="Surrey Lane"/><tag k="addr:housenumber" v="21611"/><tag k="addr:postcode" v="78645"/></node><node id="-57" lat="30.473755" lon="-97.991554" changeset="false"><tag k="addr:street" v="Cowpoke Trail"/><tag k="addr:housenumber" v="7301"/><tag k="addr:postcode" v="78645"/></node><node id="-58" lat="30.472832" lon="-97.991167" changeset="false"><tag k="addr:street" v="Bar K Ranch Road"/><tag k="addr:housenumber" v="7205"/><tag k="addr:postcode" v="78645"/></node><node id="-59" lat="30.473491" lon="-97.990394" changeset="false"><tag k="addr:street" v="Bar K Ranch Road"/><tag k="addr:housenumber" v="7307"/><tag k="addr:postcode" v="78645"/></node><node id="-60" lat="30.470271" lon="-97.982437" changeset="false"><tag k="addr:street" v="Northland Drive"/><tag k="addr:housenumber" v="21138"/><tag k="addr:postcode" v="78645"/></node><node id="-61" lat="30.465939" lon="-97.986618" changeset="false"><tag k="addr:street" v="Fawn Ridge Drive"/><tag k="addr:housenumber" v="21008"/><tag k="addr:postcode" v="78645"/></node><node id="-62" lat="30.473296" lon="-97.991553" changeset="false"><tag k="addr:street" v="Bar K Ranch Road"/><tag k="addr:housenumber" v="7202"/><tag k="addr:postcode" v="78645"/></node><node id="-63" lat="30.473432" lon="-97.989807" changeset="false"><tag k="addr:street" v="Crossbow Trail"/><tag k="addr:housenumber" v="7312"/><tag k="addr:postcode" v="78645"/></node><node id="-64" lat="30.479257" lon="-97.993165" changeset="false"><tag k="addr:street" v="Surrey Lane"/><tag k="addr:housenumber" v="21807"/><tag k="addr:postcode" v="78645"/></node><node id="-65" lat="30.472804" lon="-97.988601" changeset="false"><tag k="addr:street" v="Cowboy Cove"/><tag k="addr:housenumber" v="7307"/><tag k="addr:postcode" v="78645"/></node><node id="-66" lat="30.46417" lon="-97.986373" changeset="false"><tag k="addr:street" v="Deede Drive"/><tag k="addr:housenumber" v="20904"/><tag k="addr:postcode" v="78645"/></node><node id="-67" lat="30.465422" lon="-97.990599" changeset="false"><tag k="addr:street" v="Lakeshore Drive"/><tag k="addr:housenumber" v="6605"/><tag k="addr:postcode" v="78645"/></node><node id="-68" lat="30.460293" lon="-97.995301" changeset="false"><tag k="addr:street" v="Lakeshore Drive"/><tag k="addr:housenumber" v="6100"/><tag k="addr:postcode" v="78645"/></node><node id="-69" lat="30.45472" lon="-97.984417" changeset="false"><tag k="addr:street" v="Pokealong Path"/><tag k="addr:housenumber" v="6101"/><tag k="addr:postcode" v="78645"/></node><node id="-70" lat="30.475576" lon="-97.988229" changeset="false"><tag k="addr:street" v="Bar K Ranch Road"/><tag k="addr:housenumber" v="7500"/><tag k="addr:postcode" v="78645"/></node><node id="-71" lat="30.452908" lon="-97.998892" changeset="false"><tag k="addr:street" v="Canyon Oaks Drive"/><tag k="addr:housenumber" v="5400"/><tag k="addr:postcode" v="78645"/></node><node id="-72" lat="30.459148" lon="-97.983635" changeset="false"><tag k="addr:street" v="Deer Run"/><tag k="addr:housenumber" v="6508"/><tag k="addr:postcode" v="78645"/></node><node id="-73" lat="30.459187" lon="-97.984163" changeset="false"><tag k="addr:street" v="Park Drive"/><tag k="addr:housenumber" v="20502"/><tag k="addr:postcode" v="78645"/></node><node id="-74" lat="30.459667" lon="-97.984788" changeset="false"><tag k="addr:street" v="Park Drive"/><tag k="addr:housenumber" v="20506"/><tag k="addr:postcode" v="78645"/></node><node id="-75" lat="30.472099" lon="-97.987643" changeset="false"><tag k="addr:street" v="Choctaw Cove"/><tag k="addr:housenumber" v="21305"/><tag k="addr:postcode" v="78645"/></node><node id="-76" lat="30.460165" lon="-97.983833" changeset="false"><tag k="addr:street" v="Palo Duro Drive"/><tag k="addr:housenumber" v="20609"/><tag k="addr:postcode" v="78645"/></node><node id="-77" lat="30.45875" lon="-97.982619" changeset="false"><tag k="addr:street" v="Deer Run"/><tag k="addr:housenumber" v="6503"/><tag k="addr:postcode" v="78645"/></node><node id="-78" lat="30.458953" lon="-97.982755" changeset="false"><tag k="addr:street" v="Deer Run"/><tag k="addr:housenumber" v="6505"/><tag k="addr:postcode" v="78645"/></node><node id="-79" lat="30.463194" lon="-97.982165" changeset="false"><tag k="addr:street" v="Avenida Ann Drive"/><tag k="addr:housenumber" v="6707"/><tag k="addr:postcode" v="78645"/></node><node id="-80" lat="30.474521" lon="-97.992329" changeset="false"><tag k="addr:street" v="Cheyenne Cove"/><tag k="addr:housenumber" v="21610"/><tag k="addr:postcode" v="78645"/></node><node id="-81" lat="30.480483" lon="-97.994206" changeset="false"><tag k="addr:street" v="Surrey Lane"/><tag k="addr:housenumber" v="21823"/><tag k="addr:postcode" v="78645"/></node><node id="-82" lat="30.480359" lon="-97.993671" changeset="false"><tag k="addr:street" v="Surrey Lane"/><tag k="addr:housenumber" v="21827"/><tag k="addr:postcode" v="78645"/></node><node id="-83" lat="30.478989" lon="-97.992758" changeset="false"><tag k="addr:street" v="Surrey Lane"/><tag k="addr:housenumber" v="21803"/><tag k="addr:postcode" v="78645"/></node><node id="-84" lat="30.46695" lon="-97.98828" changeset="false"><tag k="addr:street" v="Brewer Lane"/><tag k="addr:housenumber" v="21102"/><tag k="addr:postcode" v="78645"/></node><node id="-85" lat="30.46651" lon="-97.988756" changeset="false"><tag k="addr:street" v="Brewer Lane"/><tag k="addr:housenumber" v="21108"/><tag k="addr:postcode" v="78645"/></node><node id="-86" lat="30.468287" lon="-97.986158" changeset="false"><tag k="addr:street" v="Deepwood Drive"/><tag k="addr:housenumber" v="6905"/><tag k="addr:postcode" v="78645"/></node><node id="-87" lat="30.467459" lon="-97.982204" changeset="false"><tag k="addr:street" v="Live Oak Drive"/><tag k="addr:housenumber" v="7005"/><tag k="addr:postcode" v="78645"/></node><node id="-88" lat="30.469174" lon="-97.982989" changeset="false"><tag k="addr:street" v="Post Oak Drive"/><tag k="addr:housenumber" v="20902"/><tag k="addr:postcode" v="78645"/></node><node id="-89" lat="30.471216" lon="-97.988765" changeset="false"><tag k="addr:street" v="Comstock Cove"/><tag k="addr:housenumber" v="7104"/><tag k="addr:postcode" v="78645"/></node><node id="-90" lat="30.471046" lon="-97.992177" changeset="false"><tag k="addr:street" v="Bar K Ranch Road"/><tag k="addr:housenumber" v="7003"/><tag k="addr:postcode" v="78645"/></node><node id="-91" lat="30.468598" lon="-97.994435" changeset="false"><tag k="addr:street" v="Bar K Ranch Road"/><tag k="addr:housenumber" v="6704"/><tag k="addr:postcode" v="78645"/></node><node id="-92" lat="30.476477" lon="-97.989719" changeset="false"><tag k="addr:street" v="Horseshoe Loop"/><tag k="addr:housenumber" v="21508"/><tag k="addr:postcode" v="78645"/></node><node id="-93" lat="30.455019" lon="-97.980492" changeset="false"><tag k="addr:street" v="Dawn Drive"/><tag k="addr:housenumber" v="20202"/><tag k="addr:postcode" v="78645"/></node><node id="-94" lat="30.466137" lon="-97.977655" changeset="false"><tag k="addr:street" v="Post Oak Drive"/><tag k="addr:housenumber" v="20501"/><tag k="addr:postcode" v="78645"/></node><node id="-95" lat="30.466153" lon="-97.979476" changeset="false"><tag k="addr:street" v="Post Oak Drive"/><tag k="addr:housenumber" v="20605"/><tag k="addr:postcode" v="78645"/></node><node id="-96" lat="30.472797" lon="-97.993442" changeset="false"><tag k="addr:street" v="Cowpoke Trail"/><tag k="addr:housenumber" v="7100"/><tag k="addr:postcode" v="78645"/></node><node id="-97" lat="30.468968" lon="-97.989183" changeset="false"><tag k="addr:street" v="Pinto Cove"/><tag k="addr:housenumber" v="6900"/><tag k="addr:postcode" v="78645"/></node><node id="-98" lat="30.468417" lon="-97.989106" changeset="false"><tag k="addr:street" v="Pinto Cove"/><tag k="addr:housenumber" v="6803"/><tag k="addr:postcode" v="78645"/></node><node id="-99" lat="30.459884" lon="-97.993634" changeset="false"><tag k="addr:street" v="Camille Court"/><tag k="addr:housenumber" v="6105"/><tag k="addr:postcode" v="78645"/></node><node id="-100" lat="30.460414" lon="-97.993006" changeset="false"><tag k="addr:street" v="Camille Court"/><tag k="addr:housenumber" v="6203"/><tag k="addr:postcode" v="78645"/></node><node id="-101" lat="30.459225" lon="-97.993303" changeset="false"><tag k="addr:street" v="Lynn Lane"/><tag k="addr:housenumber" v="6102"/><tag k="addr:postcode" v="78645"/></node><node id="-102" lat="30.471327" lon="-97.987968" changeset="false"><tag k="addr:street" v="Coyote Trail"/><tag k="addr:housenumber" v="21456"/><tag k="addr:postcode" v="78645"/></node><node id="-103" lat="30.455777" lon="-97.990093" changeset="false"><tag k="addr:street" v="Dawn Drive"/><tag k="addr:housenumber" v="20804"/><tag k="addr:postcode" v="78645"/></node><node id="-104" lat="30.455963" lon="-97.990519" changeset="false"><tag k="addr:street" v="Dawn Drive"/><tag k="addr:housenumber" v="20806"/><tag k="addr:postcode" v="78645"/></node><node id="-105" lat="30.477522" lon="-97.990271" changeset="false"><tag k="addr:street" v="Surrey Lane"/><tag k="addr:housenumber" v="21603"/><tag k="addr:postcode" v="78645"/></node><node id="-106" lat="30.464647" lon="-97.984826" changeset="false"><tag k="addr:street" v="Fawn Ridge Drive"/><tag k="addr:housenumber" v="20810"/><tag k="addr:postcode" v="78645"/></node><node id="-107" lat="30.465333" lon="-97.982256" changeset="false"><tag k="addr:street" v="Cedar Ridge Drive"/><tag k="addr:housenumber" v="6805"/><tag k="addr:postcode" v="78645"/></node><node id="-108" lat="30.460416" lon="-97.989031" changeset="false"><tag k="addr:street" v="Park Drive"/><tag k="addr:housenumber" v="20901"/><tag k="addr:postcode" v="78645"/></node><node id="-109" lat="30.469916" lon="-97.995228" changeset="false"><tag k="addr:street" v="Bar K Clubhouse Court"/><tag k="addr:housenumber" v="6712"/><tag k="addr:postcode" v="78645"/></node><node id="-110" lat="30.465249" lon="-97.980586" changeset="false"><tag k="addr:street" v="Agarita Drive"/><tag k="addr:housenumber" v="20610"/><tag k="addr:postcode" v="78645"/></node><node id="-111" lat="30.469983" lon="-97.986975" changeset="false"><tag k="addr:street" v="Deepwood Drive"/><tag k="addr:housenumber" v="7104"/><tag k="addr:postcode" v="78645"/></node><node id="-112" lat="30.473529" lon="-97.977963" changeset="false"><tag k="addr:street" v="Northland Circle"/><tag k="addr:housenumber" v="20803"/><tag k="addr:postcode" v="78645"/></node><node id="-113" lat="30.475937" lon="-97.97873" changeset="false"><tag k="addr:street" v="Dodge Trail"/><tag k="addr:housenumber" v="20903"/><tag k="addr:postcode" v="78645"/></node><node id="-114" lat="30.467587" lon="-97.977988" changeset="false"><tag k="addr:street" v="Spanish Oak Drive"/><tag k="addr:housenumber" v="7305"/><tag k="addr:postcode" v="78645"/></node><node id="-115" lat="30.471692" lon="-97.983858" changeset="false"><tag k="addr:street" v="Northland Drive"/><tag k="addr:housenumber" v="21115"/><tag k="addr:postcode" v="78645"/></node><node id="-116" lat="30.473778" lon="-97.980864" changeset="false"><tag k="addr:street" v="White Oak Drive"/><tag k="addr:housenumber" v="7605"/><tag k="addr:postcode" v="78645"/></node><node id="-117" lat="30.473803" lon="-97.981371" changeset="false"><tag k="addr:street" v="White Oak Drive"/><tag k="addr:housenumber" v="7607"/><tag k="addr:postcode" v="78645"/></node><node id="-118" lat="30.472953" lon="-97.982943" changeset="false"><tag k="addr:street" v="White Oak Drive"/><tag k="addr:housenumber" v="7615"/><tag k="addr:postcode" v="78645"/></node><node id="-119" lat="30.474077" lon="-97.97986" changeset="false"><tag k="addr:street" v="Northland Drive"/><tag k="addr:housenumber" v="20903"/><tag k="addr:postcode" v="78645"/></node><node id="-120" lat="30.46906" lon="-97.980145" changeset="false"><tag k="addr:street" v="Ridgeview Road"/><tag k="addr:housenumber" v="20709"/><tag k="addr:postcode" v="78645"/></node><node id="-121" lat="30.459549" lon="-97.995974" changeset="false"><tag k="addr:street" v="Lakeshore Drive"/><tag k="addr:housenumber" v="6002"/><tag k="addr:postcode" v="78645"/></node><node id="-122" lat="30.470046" lon="-97.982808" changeset="false"><tag k="addr:street" v="Ridgeview Road"/><tag k="addr:housenumber" v="20906"/><tag k="addr:postcode" v="78645"/></node><node id="-123" lat="30.467865" lon="-97.989454" changeset="false"><tag k="addr:street" v="Palomino Cove"/><tag k="addr:housenumber" v="21215"/><tag k="addr:postcode" v="78645"/></node><node id="-124" lat="30.467038" lon="-97.989096" changeset="false"><tag k="addr:street" v="La Paloma Drive"/><tag k="addr:housenumber" v="21203"/><tag k="addr:postcode" v="78645"/></node><node id="-125" lat="30.466915" lon="-97.989268" changeset="false"><tag k="addr:street" v="La Paloma Drive"/><tag k="addr:housenumber" v="21205"/><tag k="addr:postcode" v="78645"/></node><node id="-126" lat="30.474725" lon="-97.988996" changeset="false"><tag k="addr:street" v="Ridgeview Circle"/><tag k="addr:housenumber" v="21402"/><tag k="addr:postcode" v="78645"/></node><node id="-127" lat="30.463854" lon="-97.991051" changeset="false"><tag k="addr:street" v="Park Drive"/><tag k="addr:housenumber" v="21104"/><tag k="addr:postcode" v="78645"/></node><node id="-128" lat="30.463674" lon="-97.991762" changeset="false"><tag k="addr:street" v="Park Drive"/><tag k="addr:housenumber" v="21200"/><tag k="addr:postcode" v="78645"/></node><node id="-129" lat="30.455019" lon="-97.983949" changeset="false"><tag k="addr:street" v="Pokealong Path"/><tag k="addr:housenumber" v="6102"/><tag k="addr:postcode" v="78645"/></node><node id="-130" lat="30.46346" lon="-97.982607" changeset="false"><tag k="addr:street" v="Avenida Ann Drive"/><tag k="addr:housenumber" v="6706"/><tag k="addr:postcode" v="78645"/></node><node id="-131" lat="30.459533" lon="-97.981528" changeset="false"><tag k="addr:street" v="Avenida Ann Drive"/><tag k="addr:housenumber" v="6513"/><tag k="addr:postcode" v="78645"/></node><node id="-132" lat="30.449018" lon="-98.001872" changeset="false"><tag k="addr:street" v="Green Shore Circle"/><tag k="addr:housenumber" v="4907"/><tag k="addr:postcode" v="78645"/></node><node id="-133" lat="30.449898" lon="-98.001329" changeset="false"><tag k="addr:street" v="Green Shore Cove"/><tag k="addr:housenumber" v="21200"/><tag k="addr:postcode" v="78645"/></node><node id="-134" lat="30.47005" lon="-97.983159" changeset="false"><tag k="addr:street" v="Ridgeview Road"/><tag k="addr:housenumber" v="20908"/><tag k="addr:postcode" v="78645"/></node><node id="-135" lat="30.470085" lon="-97.983833" changeset="false"><tag k="addr:street" v="Ridgeview Road"/><tag k="addr:housenumber" v="21002"/><tag k="addr:postcode" v="78645"/></node><node id="-136" lat="30.469263" lon="-97.985025" changeset="false"><tag k="addr:street" v="Ridgeview Loop"/><tag k="addr:housenumber" v="21007"/><tag k="addr:postcode" v="78645"/></node><node id="-137" lat="30.448257" lon="-98.002981" changeset="false"><tag k="addr:street" v="Green Shore Circle"/><tag k="addr:housenumber" v="4807"/><tag k="addr:postcode" v="78645"/></node><node id="-138" lat="30.447032" lon="-98.005627" changeset="false"><tag k="addr:street" v="Lakefront Drive"/><tag k="addr:housenumber" v="21411"/><tag k="addr:postcode" v="78645"/></node><node id="-139" lat="30.476152" lon="-97.976972" changeset="false"><tag k="addr:street" v="Dodge Trail"/><tag k="addr:housenumber" v="20803"/><tag k="addr:postcode" v="78645"/></node><node id="-140" lat="30.474862" lon="-97.977886" changeset="false"><tag k="addr:street" v="Peacemaker Trail"/><tag k="addr:housenumber" v="20809"/><tag k="addr:postcode" v="78645"/></node><node id="-141" lat="30.464316" lon="-97.986911" changeset="false"><tag k="addr:street" v="Deede Drive"/><tag k="addr:housenumber" v="20910"/><tag k="addr:postcode" v="78645"/></node><node id="-142" lat="30.460109" lon="-97.981935" changeset="false"><tag k="addr:street" v="Avenida Ann Drive"/><tag k="addr:housenumber" v="6519"/><tag k="addr:postcode" v="78645"/></node><node id="-143" lat="30.472797" lon="-97.992164" changeset="false"><tag k="addr:street" v="Bar K Ranch Road"/><tag k="addr:housenumber" v="7100"/><tag k="addr:postcode" v="78645"/></node><node id="-144" lat="30.472961" lon="-97.991974" changeset="false"><tag k="addr:street" v="Bar K Ranch Road"/><tag k="addr:housenumber" v="7102"/><tag k="addr:postcode" v="78645"/></node><node id="-145" lat="30.472937" lon="-97.991045" changeset="false"><tag k="addr:street" v="Bar K Ranch Road"/><tag k="addr:housenumber" v="7207"/><tag k="addr:postcode" v="78645"/></node><node id="-146" lat="30.470559" lon="-97.981396" changeset="false"><tag k="addr:street" v="Northland Drive"/><tag k="addr:housenumber" v="21133"/><tag k="addr:postcode" v="78645"/></node><node id="-147" lat="30.470882" lon="-97.980234" changeset="false"><tag k="addr:street" v="White Oak Drive"/><tag k="addr:housenumber" v="7407"/><tag k="addr:postcode" v="78645"/></node><node id="-148" lat="30.447556" lon="-98.005561" changeset="false"><tag k="addr:street" v="Lakefront Drive"/><tag k="addr:housenumber" v="21407"/><tag k="addr:postcode" v="78645"/></node><node id="-149" lat="30.454064" lon="-97.986728" changeset="false"><tag k="addr:street" v="Dawn Drive"/><tag k="addr:housenumber" v="20600"/><tag k="addr:postcode" v="78645"/></node><node id="-150" lat="30.471268" lon="-97.989645" changeset="false"><tag k="addr:street" v="Coyote Trail"/><tag k="addr:housenumber" v="21414"/><tag k="addr:postcode" v="78645"/></node><node id="-151" lat="30.471033" lon="-97.989323" changeset="false"><tag k="addr:street" v="Coyote Trail"/><tag k="addr:housenumber" v="21420"/><tag k="addr:postcode" v="78645"/></node><node id="-152" lat="30.465526" lon="-97.986376" changeset="false"><tag k="addr:street" v="Fawn Ridge Drive"/><tag k="addr:housenumber" v="20916"/><tag k="addr:postcode" v="78645"/></node><node id="-153" lat="30.467602" lon="-97.983851" changeset="false"><tag k="addr:street" v="Live Oak Drive"/><tag k="addr:housenumber" v="7012"/><tag k="addr:postcode" v="78645"/></node><node id="-154" lat="30.471145" lon="-97.985283" changeset="false"><tag k="addr:street" v="Ridgeview Road"/><tag k="addr:housenumber" v="21105"/><tag k="addr:postcode" v="78645"/></node><node id="-155" lat="30.464012" lon="-97.984572" changeset="false"><tag k="addr:street" v="Fawn Ridge Drive"/><tag k="addr:housenumber" v="20809"/><tag k="addr:postcode" v="78645"/></node><node id="-156" lat="30.464141" lon="-97.985172" changeset="false"><tag k="addr:street" v="Fawn Ridge Drive"/><tag k="addr:housenumber" v="20815"/><tag k="addr:postcode" v="78645"/></node><node id="-157" lat="30.464528" lon="-97.986149" changeset="false"><tag k="addr:street" v="Fawn Ridge Drive"/><tag k="addr:housenumber" v="20907"/><tag k="addr:postcode" v="78645"/></node><node id="-158" lat="30.472581" lon="-97.990338" changeset="false"><tag k="addr:street" v="Crossbow Trail"/><tag k="addr:housenumber" v="7204"/><tag k="addr:postcode" v="78645"/></node><node id="-159" lat="30.472924" lon="-97.990094" changeset="false"><tag k="addr:street" v="Crossbow Trail"/><tag k="addr:housenumber" v="7302"/><tag k="addr:postcode" v="78645"/></node><node id="-160" lat="30.473731" lon="-97.989513" changeset="false"><tag k="addr:street" v="Crossbow Trail"/><tag k="addr:housenumber" v="7318"/><tag k="addr:postcode" v="78645"/></node><node id="-161" lat="30.465503" lon="-97.978623" changeset="false"><tag k="addr:street" v="Agarita Drive"/><tag k="addr:housenumber" v="20506"/><tag k="addr:postcode" v="78645"/></node><node id="-162" lat="30.464335" lon="-97.979904" changeset="false"><tag k="addr:street" v="Redwood Drive"/><tag k="addr:housenumber" v="6900"/><tag k="addr:postcode" v="78645"/></node><node id="-163" lat="30.479774" lon="-97.993979" changeset="false"><tag k="addr:street" v="Surrey Lane"/><tag k="addr:housenumber" v="21815"/><tag k="addr:postcode" v="78645"/></node><node id="-164" lat="30.450675" lon="-97.997941" changeset="false"><tag k="addr:street" v="Country Club Drive"/><tag k="addr:housenumber" v="5206"/><tag k="addr:postcode" v="78645"/></node><node id="-165" lat="30.47578" lon="-97.984873" changeset="false"><tag k="addr:street" v="Dodge Trail"/><tag k="addr:housenumber" v="21205"/><tag k="addr:postcode" v="78645"/></node><node id="-166" lat="30.475599" lon="-97.982816" changeset="false"><tag k="addr:street" v="Dodge Trail"/><tag k="addr:housenumber" v="21103"/><tag k="addr:postcode" v="78645"/></node><node id="-167" lat="30.469372" lon="-97.97862" changeset="false"><tag k="addr:street" v="Spanish Oak Drive"/><tag k="addr:housenumber" v="7406"/><tag k="addr:postcode" v="78645"/></node><node id="-168" lat="30.469608" lon="-97.980182" changeset="false"><tag k="addr:street" v="Ridgeview Road"/><tag k="addr:housenumber" v="20800"/><tag k="addr:postcode" v="78645"/></node><node id="-169" lat="30.474204" lon="-97.978119" changeset="false"><tag k="addr:street" v="Northland Circle"/><tag k="addr:housenumber" v="20800"/><tag k="addr:postcode" v="78645"/></node><node id="-170" lat="30.471947" lon="-97.978849" changeset="false"><tag k="addr:street" v="Northland Drive"/><tag k="addr:housenumber" v="20707"/><tag k="addr:postcode" v="78645"/></node><node id="-171" lat="30.474119" lon="-97.98829" changeset="false"><tag k="addr:street" v="Ridgeview Road"/><tag k="addr:housenumber" v="21403"/><tag k="addr:postcode" v="78645"/></node><node id="-172" lat="30.470788" lon="-97.989768" changeset="false"><tag k="addr:street" v="Coyote Trail"/><tag k="addr:housenumber" v="21421"/><tag k="addr:postcode" v="78645"/></node><node id="-173" lat="30.4693" lon="-97.981586" changeset="false"><tag k="addr:street" v="Ridgeview Road"/><tag k="addr:housenumber" v="20807"/><tag k="addr:postcode" v="78645"/></node><node id="-174" lat="30.469922" lon="-97.982373" changeset="false"><tag k="addr:street" v="Ridgeview Road"/><tag k="addr:housenumber" v="20902"/><tag k="addr:postcode" v="78645"/></node><node id="-175" lat="30.453694" lon="-97.984194" changeset="false"><tag k="addr:street" v="Dawn Drive"/><tag k="addr:housenumber" v="20404"/><tag k="addr:postcode" v="78645"/></node><node id="-176" lat="30.454296" lon="-97.983797" changeset="false"><tag k="addr:street" v="Pokealong Path"/><tag k="addr:housenumber" v="6107"/><tag k="addr:postcode" v="78645"/></node><node id="-177" lat="30.454623" lon="-97.981736" changeset="false"><tag k="addr:street" v="Pokealong Path"/><tag k="addr:housenumber" v="6207"/><tag k="addr:postcode" v="78645"/></node><node id="-178" lat="30.464823" lon="-97.978564" changeset="false"><tag k="addr:street" v="Redwood Drive"/><tag k="addr:housenumber" v="7005"/><tag k="addr:postcode" v="78645"/></node><node id="-179" lat="30.468682" lon="-97.980076" changeset="false"><tag k="addr:street" v="White Oak Drive"/><tag k="addr:housenumber" v="7311"/><tag k="addr:postcode" v="78645"/></node><node id="-180" lat="30.451565" lon="-98.000946" changeset="false"><tag k="addr:street" v="Canyon Oaks Drive"/><tag k="addr:housenumber" v="5200"/><tag k="addr:postcode" v="78645"/></node><node id="-181" lat="30.473029" lon="-97.981166" changeset="false"><tag k="addr:street" v="White Oak Drive"/><tag k="addr:housenumber" v="7602"/><tag k="addr:postcode" v="78645"/></node><node id="-182" lat="30.475168" lon="-97.984501" changeset="false"><tag k="addr:street" v="Packsaddle Trail"/><tag k="addr:housenumber" v="21106"/><tag k="addr:postcode" v="78645"/></node><node id="-183" lat="30.455109" lon="-97.984173" changeset="false"><tag k="addr:street" v="Pokealong Path"/><tag k="addr:housenumber" v="6100"/><tag k="addr:postcode" v="78645"/></node><node id="-184" lat="30.473023" lon="-97.990046" changeset="false"><tag k="addr:street" v="Crossbow Trail"/><tag k="addr:housenumber" v="7304"/><tag k="addr:postcode" v="78645"/></node><node id="-185" lat="30.471769" lon="-97.988668" changeset="false"><tag k="addr:street" v="Comstock Cove"/><tag k="addr:housenumber" v="7213"/><tag k="addr:postcode" v="78645"/></node><node id="-186" lat="30.469551" lon="-97.992524" changeset="false"><tag k="addr:street" v="Bar K Ranch Road"/><tag k="addr:housenumber" v="6803"/><tag k="addr:postcode" v="78645"/></node><node id="-187" lat="30.478724" lon="-97.992367" changeset="false"><tag k="addr:street" v="Surrey Lane"/><tag k="addr:housenumber" v="21711"/><tag k="addr:postcode" v="78645"/></node><node id="-188" lat="30.459949" lon="-97.982966" changeset="false"><tag k="addr:street" v="Palo Duro Drive"/><tag k="addr:housenumber" v="20603"/><tag k="addr:postcode" v="78645"/></node><node id="-189" lat="30.460047" lon="-97.983253" changeset="false"><tag k="addr:street" v="Palo Duro Drive"/><tag k="addr:housenumber" v="20605"/><tag k="addr:postcode" v="78645"/></node><node id="-190" lat="30.460071" lon="-97.983554" changeset="false"><tag k="addr:street" v="Palo Duro Drive"/><tag k="addr:housenumber" v="20607"/><tag k="addr:postcode" v="78645"/></node><node id="-191" lat="30.458548" lon="-97.981553" changeset="false"><tag k="addr:street" v="Avenida Ann Drive"/><tag k="addr:housenumber" v="6506"/><tag k="addr:postcode" v="78645"/></node><node id="-192" lat="30.469498" lon="-97.991741" changeset="false"><tag k="addr:street" v="Buckboard Cove"/><tag k="addr:housenumber" v="6800"/><tag k="addr:postcode" v="78645"/></node><node id="-193" lat="30.468504" lon="-97.984495" changeset="false"><tag k="addr:street" v="Post Oak Drive"/><tag k="addr:housenumber" v="21001"/><tag k="addr:postcode" v="78645"/></node><node id="-194" lat="30.472022" lon="-97.987738" changeset="false"><tag k="addr:street" v="Choctaw Cove"/><tag k="addr:housenumber" v="21307"/><tag k="addr:postcode" v="78645"/></node><node id="-195" lat="30.473392" lon="-97.99284" changeset="false"><tag k="addr:street" v="Cowpoke Trail"/><tag k="addr:housenumber" v="7200"/><tag k="addr:postcode" v="78645"/></node><node id="-196" lat="30.471445" lon="-97.987965" changeset="false"><tag k="addr:street" v="Coyote Trail"/><tag k="addr:housenumber" v="21458"/><tag k="addr:postcode" v="78645"/></node><node id="-197" lat="30.461249" lon="-97.982311" changeset="false"><tag k="addr:street" v="Avenida Ann Drive"/><tag k="addr:housenumber" v="6607"/><tag k="addr:postcode" v="78645"/></node><node id="-198" lat="30.461861" lon="-97.982276" changeset="false"><tag k="addr:street" v="Avenida Ann Drive"/><tag k="addr:housenumber" v="6613"/><tag k="addr:postcode" v="78645"/></node><node id="-199" lat="30.45553" lon="-97.989525" changeset="false"><tag k="addr:street" v="Dawn Drive"/><tag k="addr:housenumber" v="20802"/><tag k="addr:postcode" v="78645"/></node><node id="-200" lat="30.455337" lon="-97.988984" changeset="false"><tag k="addr:street" v="Dawn Drive"/><tag k="addr:housenumber" v="20704"/><tag k="addr:postcode" v="78645"/></node><node id="-201" lat="30.462363" lon="-97.988028" changeset="false"><tag k="addr:street" v="South Shady Lane"/><tag k="addr:housenumber" v="6511"/><tag k="addr:postcode" v="78645"/></node><node id="-202" lat="30.462636" lon="-97.988059" changeset="false"><tag k="addr:street" v="South Shady Lane"/><tag k="addr:housenumber" v="6513"/><tag k="addr:postcode" v="78645"/></node><node id="-203" lat="30.462266" lon="-97.988957" changeset="false"><tag k="addr:street" v="Park Drive"/><tag k="addr:housenumber" v="21002"/><tag k="addr:postcode" v="78645"/></node><node id="-204" lat="30.474753" lon="-97.977668" changeset="false"><tag k="addr:street" v="Peacemaker Trail"/><tag k="addr:housenumber" v="20807"/><tag k="addr:postcode" v="78645"/></node><node id="-205" lat="30.46674" lon="-97.984566" changeset="false"><tag k="addr:street" v="Cedar Ridge Drive"/><tag k="addr:housenumber" v="6917"/><tag k="addr:postcode" v="78645"/></node><node id="-206" lat="30.465729" lon="-97.984982" changeset="false"><tag k="addr:street" v="Cedar Ridge Drive"/><tag k="addr:housenumber" v="6918"/><tag k="addr:postcode" v="78645"/></node><node id="-207" lat="30.478849" lon="-97.992567" changeset="false"><tag k="addr:street" v="Surrey Lane"/><tag k="addr:housenumber" v="21801"/><tag k="addr:postcode" v="78645"/></node><node id="-208" lat="30.481135" lon="-97.993732" changeset="false"><tag k="addr:street" v="Stetson Cove"/><tag k="addr:housenumber" v="21905"/><tag k="addr:postcode" v="78645"/></node><node id="-209" lat="30.46903" lon="-97.984511" changeset="false"><tag k="addr:street" v="Post Oak Drive"/><tag k="addr:housenumber" v="21000"/><tag k="addr:postcode" v="78645"/></node><node id="-210" lat="30.468916" lon="-97.98513" changeset="false"><tag k="addr:street" v="Post Oak Drive"/><tag k="addr:housenumber" v="21004"/><tag k="addr:postcode" v="78645"/></node><node id="-211" lat="30.468931" lon="-97.985737" changeset="false"><tag k="addr:street" v="Post Oak Drive"/><tag k="addr:housenumber" v="21008"/><tag k="addr:postcode" v="78645"/></node><node id="-212" lat="30.469097" lon="-97.982665" changeset="false"><tag k="addr:street" v="Post Oak Drive"/><tag k="addr:housenumber" v="20900"/><tag k="addr:postcode" v="78645"/></node><node id="-213" lat="30.466491" lon="-97.990157" changeset="false"><tag k="addr:street" v="La Paloma Drive"/><tag k="addr:housenumber" v="21213"/><tag k="addr:postcode" v="78645"/></node><node id="-214" lat="30.464474" lon="-97.980249" changeset="false"><tag k="addr:street" v="Agarita Drive"/><tag k="addr:housenumber" v="20617"/><tag k="addr:postcode" v="78645"/></node><node id="-215" lat="30.461944" lon="-97.984674" changeset="false"><tag k="addr:street" v="Fawn Circle"/><tag k="addr:housenumber" v="20706"/><tag k="addr:postcode" v="78645"/></node><node id="-216" lat="30.461005" lon="-97.983433" changeset="false"><tag k="addr:street" v="Fawn Circle"/><tag k="addr:housenumber" v="20605"/><tag k="addr:postcode" v="78645"/></node><node id="-217" lat="30.461121" lon="-97.983732" changeset="false"><tag k="addr:street" v="Fawn Circle"/><tag k="addr:housenumber" v="20607"/><tag k="addr:postcode" v="78645"/></node><node id="-218" lat="30.46586" lon="-97.984065" changeset="false"><tag k="addr:street" v="Cedar Ridge Circle"/><tag k="addr:housenumber" v="6804"/><tag k="addr:postcode" v="78645"/></node><node id="-219" lat="30.466067" lon="-97.983825" changeset="false"><tag k="addr:street" v="Cedar Ridge Circle"/><tag k="addr:housenumber" v="6806"/><tag k="addr:postcode" v="78645"/></node><node id="-220" lat="30.465552" lon="-97.982775" changeset="false"><tag k="addr:street" v="Cedar Ridge Drive"/><tag k="addr:housenumber" v="6900"/><tag k="addr:postcode" v="78645"/></node><node id="-221" lat="30.469118" lon="-97.988985" changeset="false"><tag k="addr:street" v="Pinto Cove"/><tag k="addr:housenumber" v="6902"/><tag k="addr:postcode" v="78645"/></node><node id="-222" lat="30.469161" lon="-97.988709" changeset="false"><tag k="addr:street" v="Pinto Cove"/><tag k="addr:housenumber" v="6904"/><tag k="addr:postcode" v="78645"/></node><node id="-223" lat="30.463946" lon="-97.987385" changeset="false"><tag k="addr:street" v="Deede Drive"/><tag k="addr:housenumber" v="20907"/><tag k="addr:postcode" v="78645"/></node><node id="-224" lat="30.481771" lon="-97.993166" changeset="false"><tag k="addr:street" v="Sombrero Cove"/><tag k="addr:housenumber" v="21903"/><tag k="addr:postcode" v="78645"/></node><node id="-225" lat="30.476337" lon="-97.990008" changeset="false"><tag k="addr:street" v="Horseshoe Loop"/><tag k="addr:housenumber" v="21510"/><tag k="addr:postcode" v="78645"/></node><node id="-226" lat="30.475856" lon="-97.990324" changeset="false"><tag k="addr:street" v="Horseshoe Loop"/><tag k="addr:housenumber" v="21514"/><tag k="addr:postcode" v="78645"/></node><node id="-227" lat="30.459076" lon="-97.985182" changeset="false"><tag k="addr:street" v="Park Drive"/><tag k="addr:housenumber" v="20611"/><tag k="addr:postcode" v="78645"/></node><node id="-228" lat="30.456587" lon="-97.982451" changeset="false"><tag k="addr:street" v="Deer Run"/><tag k="addr:housenumber" v="6308"/><tag k="addr:postcode" v="78645"/></node><node id="-229" lat="30.464778" lon="-97.987861" changeset="false"><tag k="addr:street" v="Deede Drive"/><tag k="addr:housenumber" v="21006"/><tag k="addr:postcode" v="78645"/></node><node id="-230" lat="30.473596" lon="-97.988362" changeset="false"><tag k="addr:street" v="Coyote Trail"/><tag k="addr:housenumber" v="21505"/><tag k="addr:postcode" v="78645"/></node><node id="-231" lat="30.461661" lon="-97.98972" changeset="false"><tag k="addr:street" v="Dawn Drive"/><tag k="addr:housenumber" v="21028"/><tag k="addr:postcode" v="78645"/></node><node id="-232" lat="30.465522" lon="-97.981168" changeset="false"><tag k="addr:street" v="Live Oak Drive"/><tag k="addr:housenumber" v="6901"/><tag k="addr:postcode" v="78645"/></node><node id="-233" lat="30.469412" lon="-97.995226" changeset="false"><tag k="addr:street" v="Bar K Clubhouse Court"/><tag k="addr:housenumber" v="6708"/><tag k="addr:postcode" v="78645"/></node><node id="-234" lat="30.470421" lon="-97.994923" changeset="false"><tag k="addr:street" v="Bar K Clubhouse Court"/><tag k="addr:housenumber" v="6714"/><tag k="addr:postcode" v="78645"/></node><node id="-235" lat="30.469404" lon="-97.994753" changeset="false"><tag k="addr:street" v="Bar K Clubhouse Court"/><tag k="addr:housenumber" v="6709"/><tag k="addr:postcode" v="78645"/></node><node id="-236" lat="30.470064" lon="-97.99472" changeset="false"><tag k="addr:street" v="Bar K Clubhouse Court"/><tag k="addr:housenumber" v="6715"/><tag k="addr:postcode" v="78645"/></node><node id="-237" lat="30.469323" lon="-97.988121" changeset="false"><tag k="addr:street" v="Coyote Trail"/><tag k="addr:housenumber" v="21453"/><tag k="addr:postcode" v="78645"/></node><node id="-238" lat="30.464716" lon="-97.980715" changeset="false"><tag k="addr:street" v="Agarita Drive"/><tag k="addr:housenumber" v="20614"/><tag k="addr:postcode" v="78645"/></node><node id="-239" lat="30.46392" lon="-97.980726" changeset="false"><tag k="addr:street" v="Agarita Drive"/><tag k="addr:housenumber" v="20620"/><tag k="addr:postcode" v="78645"/></node><node id="-240" lat="30.47207" lon="-97.98857" changeset="false"><tag k="addr:street" v="Choctaw Cove"/><tag k="addr:housenumber" v="21319"/><tag k="addr:postcode" v="78645"/></node><node id="-241" lat="30.466509" lon="-97.985909" changeset="false"><tag k="addr:street" v="Deepwood Drive"/><tag k="addr:housenumber" v="6804"/><tag k="addr:postcode" v="78645"/></node><node id="-242" lat="30.46363" lon="-97.982075" changeset="false"><tag k="addr:street" v="Avenida Ann Drive"/><tag k="addr:housenumber" v="6711"/><tag k="addr:postcode" v="78645"/></node><node id="-243" lat="30.459575" lon="-97.985798" changeset="false"><tag k="addr:street" v="Park Drive"/><tag k="addr:housenumber" v="20705"/><tag k="addr:postcode" v="78645"/></node><node id="-244" lat="30.469815" lon="-97.990344" changeset="false"><tag k="addr:street" v="Pioneer Cove"/><tag k="addr:housenumber" v="21303"/><tag k="addr:postcode" v="78645"/></node><node id="-245" lat="30.468658" lon="-97.992005" changeset="false"><tag k="addr:street" v="Broken Bow Cove"/><tag k="addr:housenumber" v="21405"/><tag k="addr:postcode" v="78645"/></node><node id="-246" lat="30.474735" lon="-97.989757" changeset="false"><tag k="addr:street" v="Horseshoe Loop"/><tag k="addr:housenumber" v="21526"/><tag k="addr:postcode" v="78645"/></node><node id="-247" lat="30.474366" lon="-97.991903" changeset="false"><tag k="addr:street" v="Cheyenne Cove"/><tag k="addr:housenumber" v="21604"/><tag k="addr:postcode" v="78645"/></node><node id="-248" lat="30.473614" lon="-97.987536" changeset="false"><tag k="addr:street" v="Ridgeview Road"/><tag k="addr:housenumber" v="21305"/><tag k="addr:postcode" v="78645"/></node><node id="-249" lat="30.475921" lon="-97.988764" changeset="false"><tag k="addr:street" v="Horseshoe Loop"/><tag k="addr:housenumber" v="21501"/><tag k="addr:postcode" v="78645"/></node><node id="-250" lat="30.453719" lon="-97.984483" changeset="false"><tag k="addr:street" v="Dawn Drive"/><tag k="addr:housenumber" v="20406"/><tag k="addr:postcode" v="78645"/></node><node id="-251" lat="30.474415" lon="-97.980544" changeset="false"><tag k="addr:street" v="Northland Drive"/><tag k="addr:housenumber" v="20907"/><tag k="addr:postcode" v="78645"/></node><node id="-252" lat="30.473528" lon="-97.982189" changeset="false"><tag k="addr:street" v="White Oak Drive"/><tag k="addr:housenumber" v="7611"/><tag k="addr:postcode" v="78645"/></node><node id="-253" lat="30.472198" lon="-97.983499" changeset="false"><tag k="addr:street" v="White Oak Drive"/><tag k="addr:housenumber" v="7619"/><tag k="addr:postcode" v="78645"/></node><node id="-254" lat="30.470884" lon="-97.984283" changeset="false"><tag k="addr:street" v="Northland Drive"/><tag k="addr:housenumber" v="21126"/><tag k="addr:postcode" v="78645"/></node><node id="-255" lat="30.471197" lon="-97.989528" changeset="false"><tag k="addr:street" v="Coyote Trail"/><tag k="addr:housenumber" v="21416"/><tag k="addr:postcode" v="78645"/></node><node id="-256" lat="30.475276" lon="-97.987257" changeset="false"><tag k="addr:street" v="Bar K Ranch Road"/><tag k="addr:housenumber" v="7507"/><tag k="addr:postcode" v="78645"/></node><node id="-257" lat="30.453536" lon="-97.998256" changeset="false"><tag k="addr:street" v="Canyon Oaks Drive"/><tag k="addr:housenumber" v="5412"/><tag k="addr:postcode" v="78645"/></node><node id="-258" lat="30.46677" lon="-97.98187" changeset="false"><tag k="addr:street" v="Live Oak Drive"/><tag k="addr:housenumber" v="6908"/><tag k="addr:postcode" v="78645"/></node><node id="-259" lat="30.450295" lon="-97.998897" changeset="false"><tag k="addr:street" v="Country Club Drive"/><tag k="addr:housenumber" v="5200"/><tag k="addr:postcode" v="78645"/></node><node id="-260" lat="30.474425" lon="-97.989184" changeset="false"><tag k="addr:street" v="Ridgeview Circle"/><tag k="addr:housenumber" v="21405"/><tag k="addr:postcode" v="78645"/></node><node id="-261" lat="30.472257" lon="-97.984457" changeset="false"><tag k="addr:street" v="Northland Drive"/><tag k="addr:housenumber" v="21116"/><tag k="addr:postcode" v="78645"/></node><node id="-262" lat="30.470375" lon="-97.986871" changeset="false"><tag k="addr:street" v="Deepwood Drive"/><tag k="addr:housenumber" v="7106"/><tag k="addr:postcode" v="78645"/></node><node id="-263" lat="30.469138" lon="-97.987049" changeset="false"><tag k="addr:street" v="Deepwood Drive"/><tag k="addr:housenumber" v="7006"/><tag k="addr:postcode" v="78645"/></node><node id="-264" lat="30.450547" lon="-98.001975" changeset="false"><tag k="addr:street" v="Canyon Oaks Drive"/><tag k="addr:housenumber" v="5100 1/2"/><tag k="addr:postcode" v="78645"/></node><node id="-265" lat="30.462781" lon="-97.980058" changeset="false"><tag k="addr:street" v="Redwood Drive"/><tag k="addr:housenumber" v="6703"/><tag k="addr:postcode" v="78645"/></node><node id="-266" lat="30.463697" lon="-97.980573" changeset="false"><tag k="addr:street" v="Redwood Drive"/><tag k="addr:housenumber" v="6802"/><tag k="addr:postcode" v="78645"/></node><node id="-267" lat="30.464636" lon="-97.978742" changeset="false"><tag k="addr:street" v="Redwood Drive"/><tag k="addr:housenumber" v="7003"/><tag k="addr:postcode" v="78645"/></node><node id="-268" lat="30.468011" lon="-97.979987" changeset="false"><tag k="addr:street" v="White Oak Drive"/><tag k="addr:housenumber" v="7304"/><tag k="addr:postcode" v="78645"/></node><node id="-269" lat="30.468313" lon="-97.980724" changeset="false"><tag k="addr:street" v="White Oak Drive"/><tag k="addr:housenumber" v="7310"/><tag k="addr:postcode" v="78645"/></node><node id="-270" lat="30.461926" lon="-97.987006" changeset="false"><tag k="addr:street" v="Roundup Trail"/><tag k="addr:housenumber" v="20902"/><tag k="addr:postcode" v="78645"/></node><node id="-271" lat="30.469319" lon="-97.984681" changeset="false"><tag k="addr:street" v="Ridgeview Loop"/><tag k="addr:housenumber" v="21005"/><tag k="addr:postcode" v="78645"/></node><node id="-272" lat="30.470976" lon="-97.984708" changeset="false"><tag k="addr:street" v="Ridgeview Road"/><tag k="addr:housenumber" v="21102"/><tag k="addr:postcode" v="78645"/></node><node id="-273" lat="30.474886" lon="-97.988018" changeset="false"><tag k="addr:street" v="Ridgeview Road"/><tag k="addr:housenumber" v="21402"/><tag k="addr:postcode" v="78645"/></node><node id="-274" lat="30.463877" lon="-97.981329" changeset="false"><tag k="addr:street" v="Live Oak Drive"/><tag k="addr:housenumber" v="6803"/><tag k="addr:postcode" v="78645"/></node><node id="-275" lat="30.464396" lon="-97.981337" changeset="false"><tag k="addr:street" v="Live Oak Drive"/><tag k="addr:housenumber" v="6807"/><tag k="addr:postcode" v="78645"/></node><node id="-276" lat="30.461342" lon="-97.986234" changeset="false"><tag k="addr:street" v="Roundup Trail"/><tag k="addr:housenumber" v="20822"/><tag k="addr:postcode" v="78645"/></node><node id="-277" lat="30.460097" lon="-97.990241" changeset="false"><tag k="addr:street" v="Dawn Drive"/><tag k="addr:housenumber" v="21018"/><tag k="addr:postcode" v="78645"/></node><node id="-278" lat="30.464092" lon="-97.986193" changeset="false"><tag k="addr:street" v="Deede Drive"/><tag k="addr:housenumber" v="20902"/><tag k="addr:postcode" v="78645"/></node><node id="-279" lat="30.464635" lon="-97.989035" changeset="false"><tag k="addr:street" v="Verde Vista Drive"/><tag k="addr:housenumber" v="6605"/><tag k="addr:postcode" v="78645"/></node><node id="-280" lat="30.464259" lon="-97.988048" changeset="false"><tag k="addr:street" v="Deede Drive"/><tag k="addr:housenumber" v="21005"/><tag k="addr:postcode" v="78645"/></node><node id="-281" lat="30.459155" lon="-97.98126" changeset="false"><tag k="addr:street" v="Avenida Ann Drive"/><tag k="addr:housenumber" v="6509"/><tag k="addr:postcode" v="78645"/></node><node id="-282" lat="30.459729" lon="-97.981672" changeset="false"><tag k="addr:street" v="Avenida Ann Drive"/><tag k="addr:housenumber" v="6515"/><tag k="addr:postcode" v="78645"/></node><node id="-283" lat="30.474658" lon="-97.977472" changeset="false"><tag k="addr:street" v="Peacemaker Trail"/><tag k="addr:housenumber" v="20805"/><tag k="addr:postcode" v="78645"/></node><node id="-284" lat="30.472979" lon="-97.988906" changeset="false"><tag k="addr:street" v="Cowboy Cove"/><tag k="addr:housenumber" v="7311"/><tag k="addr:postcode" v="78645"/></node><node id="-285" lat="30.47153" lon="-97.989095" changeset="false"><tag k="addr:street" v="Comstock Cove"/><tag k="addr:housenumber" v="7208"/><tag k="addr:postcode" v="78645"/></node><node id="-286" lat="30.470844" lon="-97.992217" changeset="false"><tag k="addr:street" v="Bar K Ranch Road"/><tag k="addr:housenumber" v="7001"/><tag k="addr:postcode" v="78645"/></node><node id="-287" lat="30.470821" lon="-97.991308" changeset="false"><tag k="addr:street" v="Buckboard Cove"/><tag k="addr:housenumber" v="6908"/><tag k="addr:postcode" v="78645"/></node><node id="-288" lat="30.471017" lon="-97.987989" changeset="false"><tag k="addr:street" v="Coyote Trail"/><tag k="addr:housenumber" v="21452"/><tag k="addr:postcode" v="78645"/></node><node id="-289" lat="30.465891" lon="-97.991137" changeset="false"><tag k="addr:street" v="Lakeshore Drive"/><tag k="addr:housenumber" v="6613"/><tag k="addr:postcode" v="78645"/></node><node id="-290" lat="30.466461" lon="-97.980003" changeset="false"><tag k="addr:street" v="Post Oak Drive"/><tag k="addr:housenumber" v="20609"/><tag k="addr:postcode" v="78645"/></node><node id="-291" lat="30.461351" lon="-97.982995" changeset="false"><tag k="addr:street" v="Fawn Circle"/><tag k="addr:housenumber" v="20602"/><tag k="addr:postcode" v="78645"/></node><node id="-292" lat="30.466062" lon="-97.983564" changeset="false"><tag k="addr:street" v="Cedar Ridge Circle"/><tag k="addr:housenumber" v="6808"/><tag k="addr:postcode" v="78645"/></node><node id="-293" lat="30.465646" lon="-97.983339" changeset="false"><tag k="addr:street" v="Cedar Ridge Circle"/><tag k="addr:housenumber" v="6805"/><tag k="addr:postcode" v="78645"/></node><node id="-294" lat="30.464495" lon="-97.987463" changeset="false"><tag k="addr:street" v="Deede Drive"/><tag k="addr:housenumber" v="21002"/><tag k="addr:postcode" v="78645"/></node><node id="-295" lat="30.480312" lon="-97.994417" changeset="false"><tag k="addr:street" v="Surrey Lane"/><tag k="addr:housenumber" v="21821"/><tag k="addr:postcode" v="78645"/></node><node id="-296" lat="30.466566" lon="-97.982325" changeset="false"><tag k="addr:street" v="Cedar Ridge Cove"/><tag k="addr:housenumber" v="20800"/><tag k="addr:postcode" v="78645"/></node><node id="-297" lat="30.465292" lon="-97.987964" changeset="false"><tag k="addr:street" v="Deede Drive"/><tag k="addr:housenumber" v="21012"/><tag k="addr:postcode" v="78645"/></node><node id="-298" lat="30.466551" lon="-97.982694" changeset="false"><tag k="addr:street" v="Cedar Ridge Cove"/><tag k="addr:housenumber" v="20802"/><tag k="addr:postcode" v="78645"/></node><node id="-299" lat="30.459509" lon="-97.986701" changeset="false"><tag k="addr:street" v="Park Drive"/><tag k="addr:housenumber" v="20711"/><tag k="addr:postcode" v="78645"/></node><node id="-300" lat="30.457872" lon="-97.98348" changeset="false"><tag k="addr:street" v="Park Drive"/><tag k="addr:housenumber" v="20507"/><tag k="addr:postcode" v="78645"/></node><node id="-301" lat="30.456842" lon="-97.982612" changeset="false"><tag k="addr:street" v="Park Drive"/><tag k="addr:housenumber" v="20405"/><tag k="addr:postcode" v="78645"/></node><node id="-302" lat="30.479111" lon="-97.99297" changeset="false"><tag k="addr:street" v="Surrey Lane"/><tag k="addr:housenumber" v="21805"/><tag k="addr:postcode" v="78645"/></node><node id="-303" lat="30.466902" lon="-97.984272" changeset="false"><tag k="addr:street" v="Cedar Ridge Drive"/><tag k="addr:housenumber" v="6915"/><tag k="addr:postcode" v="78645"/></node><node id="-304" lat="30.468968" lon="-97.984835" changeset="false"><tag k="addr:street" v="Post Oak Drive"/><tag k="addr:housenumber" v="21002"/><tag k="addr:postcode" v="78645"/></node><node id="-305" lat="30.469169" lon="-97.983295" changeset="false"><tag k="addr:street" v="Post Oak Drive"/><tag k="addr:housenumber" v="20904"/><tag k="addr:postcode" v="78645"/></node><node id="-306" lat="30.46914" lon="-97.983887" changeset="false"><tag k="addr:street" v="Post Oak Drive"/><tag k="addr:housenumber" v="20908"/><tag k="addr:postcode" v="78645"/></node><node id="-307" lat="30.460884" lon="-97.984161" changeset="false"><tag k="addr:street" v="Palo Duro Drive"/><tag k="addr:housenumber" v="20700"/><tag k="addr:postcode" v="78645"/></node><node id="-308" lat="30.469018" lon="-97.990029" changeset="false"><tag k="addr:street" v="Paddock Cove"/><tag k="addr:housenumber" v="21309"/><tag k="addr:postcode" v="78645"/></node><node id="-309" lat="30.469144" lon="-97.991684" changeset="false"><tag k="addr:street" v="Broken Bow Cove"/><tag k="addr:housenumber" v="21400"/><tag k="addr:postcode" v="78645"/></node><node id="-310" lat="30.472906" lon="-97.98685" changeset="false"><tag k="addr:street" v="Coyote Trail"/><tag k="addr:housenumber" v="21479"/><tag k="addr:postcode" v="78645"/></node><node id="-311" lat="30.477642" lon="-97.990476" changeset="false"><tag k="addr:street" v="Surrey Lane"/><tag k="addr:housenumber" v="21605"/><tag k="addr:postcode" v="78645"/></node><node id="-312" lat="30.465112" lon="-97.979677" changeset="false"><tag k="addr:street" v="Agarita Drive"/><tag k="addr:housenumber" v="20603"/><tag k="addr:postcode" v="78645"/></node><node id="-313" lat="30.46746" lon="-97.981106" changeset="false"><tag k="addr:street" v="Post Oak Drive"/><tag k="addr:housenumber" v="20707"/><tag k="addr:postcode" v="78645"/></node><node id="-314" lat="30.468374" lon="-97.9854" changeset="false"><tag k="addr:street" v="Post Oak Drive"/><tag k="addr:housenumber" v="21007"/><tag k="addr:postcode" v="78645"/></node><node id="-315" lat="30.468325" lon="-97.982547" changeset="false"><tag k="addr:street" v="Post Oak Drive"/><tag k="addr:housenumber" v="20807"/><tag k="addr:postcode" v="78645"/></node><node id="-316" lat="30.467209" lon="-97.985404" changeset="false"><tag k="addr:street" v="Live Oak Circle"/><tag k="addr:housenumber" v="6900"/><tag k="addr:postcode" v="78645"/></node><node id="-317" lat="30.468139" lon="-97.983755" changeset="false"><tag k="addr:street" v="Live Oak Drive"/><tag k="addr:housenumber" v="7017"/><tag k="addr:postcode" v="78645"/></node><node id="-318" lat="30.466375" lon="-97.985669" changeset="false"><tag k="addr:street" v="Deepwood Drive"/><tag k="addr:housenumber" v="6802"/><tag k="addr:postcode" v="78645"/></node><node id="-319" lat="30.463412" lon="-97.98213" changeset="false"><tag k="addr:street" v="Avenida Ann Drive"/><tag k="addr:housenumber" v="6709"/><tag k="addr:postcode" v="78645"/></node><node id="-320" lat="30.468714" lon="-97.990175" changeset="false"><tag k="addr:street" v="Palomino Cove"/><tag k="addr:housenumber" v="21302"/><tag k="addr:postcode" v="78645"/></node><node id="-321" lat="30.46681" lon="-97.979404" changeset="false"><tag k="addr:street" v="Post Oak Drive"/><tag k="addr:housenumber" v="20606"/><tag k="addr:postcode" v="78645"/></node><node id="-322" lat="30.46685" lon="-97.977902" changeset="false"><tag k="addr:street" v="Spanish Oak Drive"/><tag k="addr:housenumber" v="7203"/><tag k="addr:postcode" v="78645"/></node><node id="-323" lat="30.466695" lon="-97.987844" changeset="false"><tag k="addr:street" v="Brewer Lane"/><tag k="addr:housenumber" v="21103"/><tag k="addr:postcode" v="78645"/></node><node id="-324" lat="30.466295" lon="-97.988263" changeset="false"><tag k="addr:street" v="Brewer Lane"/><tag k="addr:housenumber" v="21107"/><tag k="addr:postcode" v="78645"/></node><node id="-325" lat="30.460769" lon="-97.987761" changeset="false"><tag k="addr:street" v="South Shady Lane"/><tag k="addr:housenumber" v="6407"/><tag k="addr:postcode" v="78645"/></node><node id="-326" lat="30.46868" lon="-97.991232" changeset="false"><tag k="addr:street" v="Broken Bow Cove"/><tag k="addr:housenumber" v="21303"/><tag k="addr:postcode" v="78645"/></node><node id="-327" lat="30.475646" lon="-97.987929" changeset="false"><tag k="addr:street" v="Bar K Ranch Road"/><tag k="addr:housenumber" v="7502"/><tag k="addr:postcode" v="78645"/></node><node id="-328" lat="30.474026" lon="-97.989271" changeset="false"><tag k="addr:street" v="Coyote Trail"/><tag k="addr:housenumber" v="21509"/><tag k="addr:postcode" v="78645"/></node><node id="-329" lat="30.465713" lon="-97.979949" changeset="false"><tag k="addr:street" v="Agarita Drive"/><tag k="addr:housenumber" v="20604"/><tag k="addr:postcode" v="78645"/></node><node id="-330" lat="30.465866" lon="-97.980269" changeset="false"><tag k="addr:street" v="Agarita Drive"/><tag k="addr:housenumber" v="20606"/><tag k="addr:postcode" v="78645"/></node><node id="-331" lat="30.464162" lon="-97.980767" changeset="false"><tag k="addr:street" v="Agarita Drive"/><tag k="addr:housenumber" v="20618"/><tag k="addr:postcode" v="78645"/></node><node id="-332" lat="30.458453" lon="-97.983189" changeset="false"><tag k="addr:street" v="Deer Run"/><tag k="addr:housenumber" v="6502"/><tag k="addr:postcode" v="78645"/></node><node id="-333" lat="30.466022" lon="-97.981065" changeset="false"><tag k="addr:street" v="Live Oak Drive"/><tag k="addr:housenumber" v="6905"/><tag k="addr:postcode" v="78645"/></node><node id="-334" lat="30.46085" lon="-97.987139" changeset="false"><tag k="addr:street" v="Roundup Trail"/><tag k="addr:housenumber" v="20825"/><tag k="addr:postcode" v="78645"/></node><node id="-335" lat="30.470195" lon="-97.992348" changeset="false"><tag k="addr:street" v="Bar K Ranch Road"/><tag k="addr:housenumber" v="6901"/><tag k="addr:postcode" v="78645"/></node><node id="-336" lat="30.46887" lon="-97.993749" changeset="false"><tag k="addr:street" v="Bar K Ranch Road"/><tag k="addr:housenumber" v="6710"/><tag k="addr:postcode" v="78645"/></node><node id="-337" lat="30.468938" lon="-97.995217" changeset="false"><tag k="addr:street" v="Bar K Clubhouse Court"/><tag k="addr:housenumber" v="6704"/><tag k="addr:postcode" v="78645"/></node><node id="-338" lat="30.470281" lon="-97.994714" changeset="false"><tag k="addr:street" v="Bar K Clubhouse Court"/><tag k="addr:housenumber" v="6717"/><tag k="addr:postcode" v="78645"/></node><node id="-339" lat="30.468176" lon="-97.994117" changeset="false"><tag k="addr:street" v="Bar K Ranch Road"/><tag k="addr:housenumber" v="6707"/><tag k="addr:postcode" v="78645"/></node><node id="-340" lat="30.46029" lon="-97.982605" changeset="false"><tag k="addr:street" v="Palo Duro Drive"/><tag k="addr:housenumber" v="20600"/><tag k="addr:postcode" v="78645"/></node><node id="-341" lat="30.460856" lon="-97.986445" changeset="false"><tag k="addr:street" v="Roundup Trail"/><tag k="addr:housenumber" v="20821"/><tag k="addr:postcode" v="78645"/></node><node id="-342" lat="30.47232" lon="-97.987508" changeset="false"><tag k="addr:street" v="Choctaw Cove"/><tag k="addr:housenumber" v="21301"/><tag k="addr:postcode" v="78645"/></node><node id="-343" lat="30.47431" lon="-97.991776" changeset="false"><tag k="addr:street" v="Cheyenne Cove"/><tag k="addr:housenumber" v="21602"/><tag k="addr:postcode" v="78645"/></node><node id="-344" lat="30.466343" lon="-97.982099" changeset="false"><tag k="addr:street" v="Cedar Ridge Cove"/><tag k="addr:housenumber" v="20801"/><tag k="addr:postcode" v="78645"/></node><node id="-345" lat="30.464084" lon="-97.984991" changeset="false"><tag k="addr:street" v="Fawn Ridge Drive"/><tag k="addr:housenumber" v="20813"/><tag k="addr:postcode" v="78645"/></node><node id="-346" lat="30.469397" lon="-97.988234" changeset="false"><tag k="addr:street" v="Coyote Trail"/><tag k="addr:housenumber" v="21451"/><tag k="addr:postcode" v="78645"/></node><node id="-347" lat="30.468529" lon="-97.98203" changeset="false"><tag k="addr:street" v="Post Oak Drive"/><tag k="addr:housenumber" v="20806"/><tag k="addr:postcode" v="78645"/></node><node id="-348" lat="30.467181" lon="-97.979871" changeset="false"><tag k="addr:street" v="Post Oak Drive"/><tag k="addr:housenumber" v="20608"/><tag k="addr:postcode" v="78645"/></node><node id="-349" lat="30.455299" lon="-97.981302" changeset="false"><tag k="addr:street" v="Pokealong Path"/><tag k="addr:housenumber" v="6208"/><tag k="addr:postcode" v="78645"/></node><node id="-350" lat="30.471799" lon="-97.988782" changeset="false"><tag k="addr:street" v="Comstock Cove"/><tag k="addr:housenumber" v="7214"/><tag k="addr:postcode" v="78645"/></node><node id="-351" lat="30.472192" lon="-97.98942" changeset="false"><tag k="addr:street" v="Choctaw Cove"/><tag k="addr:housenumber" v="21401"/><tag k="addr:postcode" v="78645"/></node><node id="-352" lat="30.465581" lon="-97.979689" changeset="false"><tag k="addr:street" v="Agarita Drive"/><tag k="addr:housenumber" v="20602"/><tag k="addr:postcode" v="78645"/></node><node id="-353" lat="30.462194" lon="-97.986991" changeset="false"><tag k="addr:street" v="Roundup Trail"/><tag k="addr:housenumber" v="20904"/><tag k="addr:postcode" v="78645"/></node><node id="-354" lat="30.474291" lon="-97.981857" changeset="false"><tag k="addr:street" v="Northland Drive"/><tag k="addr:housenumber" v="21005"/><tag k="addr:postcode" v="78645"/></node><node id="-355" lat="30.472619" lon="-97.983369" changeset="false"><tag k="addr:street" v="White Oak Drive"/><tag k="addr:housenumber" v="7617"/><tag k="addr:postcode" v="78645"/></node><node id="-356" lat="30.471716" lon="-97.983481" changeset="false"><tag k="addr:street" v="White Oak Drive"/><tag k="addr:housenumber" v="7621"/><tag k="addr:postcode" v="78645"/></node><node id="-357" lat="30.471007" lon="-97.985801" changeset="false"><tag k="addr:street" v="Deepwood Drive"/><tag k="addr:housenumber" v="7301"/><tag k="addr:postcode" v="78645"/></node><node id="-358" lat="30.471614" lon="-97.980424" changeset="false"><tag k="addr:street" v="White Oak Drive"/><tag k="addr:housenumber" v="7406"/><tag k="addr:postcode" v="78645"/></node><node id="-359" lat="30.472817" lon="-97.990159" changeset="false"><tag k="addr:street" v="Crossbow Trail"/><tag k="addr:housenumber" v="7300"/><tag k="addr:postcode" v="78645"/></node><node id="-360" lat="30.471972" lon="-97.98447" changeset="false"><tag k="addr:street" v="Northland Drive"/><tag k="addr:housenumber" v="21118"/><tag k="addr:postcode" v="78645"/></node><node id="-361" lat="30.469471" lon="-97.982793" changeset="false"><tag k="addr:street" v="Ridgeview Road"/><tag k="addr:housenumber" v="20907"/><tag k="addr:postcode" v="78645"/></node><node id="-362" lat="30.451734" lon="-98.000674" changeset="false"><tag k="addr:street" v="Canyon Oaks Drive"/><tag k="addr:housenumber" v="5204"/><tag k="addr:postcode" v="78645"/></node><node id="-363" lat="30.451875" lon="-98.00041" changeset="false"><tag k="addr:street" v="Canyon Oaks Drive"/><tag k="addr:housenumber" v="5208"/><tag k="addr:postcode" v="78645"/></node><node id="-364" lat="30.45197" lon="-98.000064" changeset="false"><tag k="addr:street" v="Canyon Oaks Drive"/><tag k="addr:housenumber" v="5212"/><tag k="addr:postcode" v="78645"/></node><node id="-365" lat="30.458484" lon="-97.994154" changeset="false"><tag k="addr:street" v="Lynn Lane"/><tag k="addr:housenumber" v="6006"/><tag k="addr:postcode" v="78645"/></node><node id="-366" lat="30.452087" lon="-97.9997" changeset="false"><tag k="addr:street" v="Canyon Oaks Drive"/><tag k="addr:housenumber" v="5300"/><tag k="addr:postcode" v="78645"/></node><node id="-367" lat="30.452546" lon="-97.999337" changeset="false"><tag k="addr:street" v="Canyon Oaks Drive"/><tag k="addr:housenumber" v="5308"/><tag k="addr:postcode" v="78645"/></node><node id="-368" lat="30.453116" lon="-97.998694" changeset="false"><tag k="addr:street" v="Canyon Oaks Drive"/><tag k="addr:housenumber" v="5404"/><tag k="addr:postcode" v="78645"/></node><node id="-369" lat="30.453935" lon="-97.99781" changeset="false"><tag k="addr:street" v="Canyon Oaks Drive"/><tag k="addr:housenumber" v="5504"/><tag k="addr:postcode" v="78645"/></node><node id="-370" lat="30.459416" lon="-97.991056" changeset="false"><tag k="addr:street" v="Dawn Drive"/><tag k="addr:housenumber" v="21014"/><tag k="addr:postcode" v="78645"/></node><node id="-371" lat="30.470473" lon="-97.985479" changeset="false"><tag k="addr:street" v="Ridgeview Loop"/><tag k="addr:housenumber" v="21021"/><tag k="addr:postcode" v="78645"/></node><node id="-372" lat="30.462477" lon="-97.980074" changeset="false"><tag k="addr:street" v="Redwood Drive"/><tag k="addr:housenumber" v="6701"/><tag k="addr:postcode" v="78645"/></node><node id="-373" lat="30.463132" lon="-97.980083" changeset="false"><tag k="addr:street" v="Redwood Drive"/><tag k="addr:housenumber" v="6705"/><tag k="addr:postcode" v="78645"/></node><node id="-374" lat="30.464325" lon="-97.979159" changeset="false"><tag k="addr:street" v="Redwood Drive"/><tag k="addr:housenumber" v="6905"/><tag k="addr:postcode" v="78645"/></node><node id="-375" lat="30.468532" lon="-97.98157" changeset="false"><tag k="addr:street" v="White Oak Drive"/><tag k="addr:housenumber" v="7316"/><tag k="addr:postcode" v="78645"/></node><node id="-376" lat="30.472865" lon="-97.980728" changeset="false"><tag k="addr:street" v="White Oak Drive"/><tag k="addr:housenumber" v="7600"/><tag k="addr:postcode" v="78645"/></node><node id="-377" lat="30.472977" lon="-97.981746" changeset="false"><tag k="addr:street" v="White Oak Drive"/><tag k="addr:housenumber" v="7604"/><tag k="addr:postcode" v="78645"/></node><node id="-378" lat="30.472773" lon="-97.982181" changeset="false"><tag k="addr:street" v="White Oak Drive"/><tag k="addr:housenumber" v="7606"/><tag k="addr:postcode" v="78645"/></node><node id="-379" lat="30.472003" lon="-97.982176" changeset="false"><tag k="addr:street" v="Little Oak Circle"/><tag k="addr:housenumber" v="7402"/><tag k="addr:postcode" v="78645"/></node><node id="-380" lat="30.472396" lon="-97.981909" changeset="false"><tag k="addr:street" v="Little Oak Circle"/><tag k="addr:housenumber" v="7404"/><tag k="addr:postcode" v="78645"/></node><node id="-381" lat="30.475053" lon="-97.981612" changeset="false"><tag k="addr:street" v="Northland Drive"/><tag k="addr:housenumber" v="21002"/><tag k="addr:postcode" v="78645"/></node><node id="-382" lat="30.474751" lon="-97.982586" changeset="false"><tag k="addr:street" v="Northland Drive"/><tag k="addr:housenumber" v="21100"/><tag k="addr:postcode" v="78645"/></node><node id="-383" lat="30.474869" lon="-97.98338" changeset="false"><tag k="addr:street" v="Packsaddle Trail"/><tag k="addr:housenumber" v="21102"/><tag k="addr:postcode" v="78645"/></node><node id="-384" lat="30.474864" lon="-97.985672" changeset="false"><tag k="addr:street" v="Packsaddle Trail"/><tag k="addr:housenumber" v="21110"/><tag k="addr:postcode" v="78645"/></node><node id="-385" lat="30.474511" lon="-97.983031" changeset="false"><tag k="addr:street" v="Packsaddle Trail"/><tag k="addr:housenumber" v="21100"/><tag k="addr:postcode" v="78645"/></node><node id="-386" lat="30.448711" lon="-98.002338" changeset="false"><tag k="addr:street" v="Green Shore Circle"/><tag k="addr:housenumber" v="4903"/><tag k="addr:postcode" v="78645"/></node><node id="-387" lat="30.462509" lon="-97.983102" changeset="false"><tag k="addr:street" v="Deede Drive"/><tag k="addr:housenumber" v="20703"/><tag k="addr:postcode" v="78645"/></node><node id="-388" lat="30.448094" lon="-98.005761" changeset="false"><tag k="addr:street" v="Lakefront Drive"/><tag k="addr:housenumber" v="21403"/><tag k="addr:postcode" v="78645"/></node><node id="-389" lat="30.473295" lon="-97.984142" changeset="false"><tag k="addr:street" v="Little Loop"/><tag k="addr:housenumber" v="21101"/><tag k="addr:postcode" v="78645"/></node><node id="-390" lat="30.472814" lon="-97.984422" changeset="false"><tag k="addr:street" v="Northland Drive"/><tag k="addr:housenumber" v="21112"/><tag k="addr:postcode" v="78645"/></node><node id="-391" lat="30.46424" lon="-97.985496" changeset="false"><tag k="addr:street" v="Fawn Ridge Drive"/><tag k="addr:housenumber" v="20817"/><tag k="addr:postcode" v="78645"/></node><node id="-392" lat="30.464368" lon="-97.98581" changeset="false"><tag k="addr:street" v="Fawn Ridge Drive"/><tag k="addr:housenumber" v="20903"/><tag k="addr:postcode" v="78645"/></node><node id="-393" lat="30.461485" lon="-97.986818" changeset="false"><tag k="addr:street" v="Roundup Trail"/><tag k="addr:housenumber" v="20828"/><tag k="addr:postcode" v="78645"/></node><node id="-394" lat="30.472657" lon="-97.992986" changeset="false"><tag k="addr:street" v="Cowpoke Trail"/><tag k="addr:housenumber" v="7101"/><tag k="addr:postcode" v="78645"/></node><node id="-395" lat="30.46668" lon="-97.979147" changeset="false"><tag k="addr:street" v="Post Oak Drive"/><tag k="addr:housenumber" v="20604"/><tag k="addr:postcode" v="78645"/></node><node id="-396" lat="30.472756" lon="-97.991301" changeset="false"><tag k="addr:street" v="Bar K Ranch Road"/><tag k="addr:housenumber" v="7203"/><tag k="addr:postcode" v="78645"/></node><node id="-397" lat="30.473358" lon="-97.990542" changeset="false"><tag k="addr:street" v="Bar K Ranch Road"/><tag k="addr:housenumber" v="7305"/><tag k="addr:postcode" v="78645"/></node><node id="-398" lat="30.473874" lon="-97.990001" changeset="false"><tag k="addr:street" v="Bar K Ranch Road"/><tag k="addr:housenumber" v="7311"/><tag k="addr:postcode" v="78645"/></node><node id="-399" lat="30.472289" lon="-97.990668" changeset="false"><tag k="addr:street" v="Crossbow Trail"/><tag k="addr:housenumber" v="7200"/><tag k="addr:postcode" v="78645"/></node><node id="-400" lat="30.465833" lon="-97.987476" changeset="false"><tag k="addr:street" v="Fawn Ridge Drive"/><tag k="addr:housenumber" v="21009"/><tag k="addr:postcode" v="78645"/></node><node id="-401" lat="30.470478" lon="-97.989497" changeset="false"><tag k="addr:street" v="Coyote Trail"/><tag k="addr:housenumber" v="21427"/><tag k="addr:postcode" v="78645"/></node><node id="-402" lat="30.463964" lon="-97.983562" changeset="false"><tag k="addr:street" v="Deede Drive"/><tag k="addr:housenumber" v="20714"/><tag k="addr:postcode" v="78645"/></node><node id="-403" lat="30.464064" lon="-97.983709" changeset="false"><tag k="addr:street" v="Deede Drive"/><tag k="addr:housenumber" v="20716"/><tag k="addr:postcode" v="78645"/></node><node id="-404" lat="30.46883" lon="-97.977636" changeset="false"><tag k="addr:street" v="Spanish Oak Drive"/><tag k="addr:housenumber" v="7403"/><tag k="addr:postcode" v="78645"/></node><node id="-405" lat="30.474002" lon="-97.978673" changeset="false"><tag k="addr:street" v="Northland Circle"/><tag k="addr:housenumber" v="20802"/><tag k="addr:postcode" v="78645"/></node><node id="-406" lat="30.474386" lon="-97.978867" changeset="false"><tag k="addr:street" v="Northland Drive"/><tag k="addr:housenumber" v="20900"/><tag k="addr:postcode" v="78645"/></node><node id="-407" lat="30.474672" lon="-97.979248" changeset="false"><tag k="addr:street" v="Northland Drive"/><tag k="addr:housenumber" v="20902"/><tag k="addr:postcode" v="78645"/></node><node id="-408" lat="30.468015" lon="-97.978665" changeset="false"><tag k="addr:street" v="Ridgeview Road"/><tag k="addr:housenumber" v="20603"/><tag k="addr:postcode" v="78645"/></node><node id="-409" lat="30.464661" lon="-97.981335" changeset="false"><tag k="addr:street" v="Live Oak Drive"/><tag k="addr:housenumber" v="6809"/><tag k="addr:postcode" v="78645"/></node><node id="-410" lat="30.474568" lon="-97.977242" changeset="false"><tag k="addr:street" v="Peacemaker Trail"/><tag k="addr:housenumber" v="20803"/><tag k="addr:postcode" v="78645"/></node><node id="-411" lat="30.474903" lon="-97.990018" changeset="false"><tag k="addr:street" v="Horseshoe Loop"/><tag k="addr:housenumber" v="21524"/><tag k="addr:postcode" v="78645"/></node><node id="-412" lat="30.467198" lon="-97.98272" changeset="false"><tag k="addr:street" v="Live Oak Drive"/><tag k="addr:housenumber" v="7004"/><tag k="addr:postcode" v="78645"/></node><node id="-413" lat="30.467305" lon="-97.984429" changeset="false"><tag k="addr:street" v="Live Oak Drive"/><tag k="addr:housenumber" v="7016"/><tag k="addr:postcode" v="78645"/></node><node id="-414" lat="30.464307" lon="-97.98186" changeset="false"><tag k="addr:street" v="Live Oak Drive"/><tag k="addr:housenumber" v="6802"/><tag k="addr:postcode" v="78645"/></node><node id="-415" lat="30.46459" lon="-97.981882" changeset="false"><tag k="addr:street" v="Live Oak Drive"/><tag k="addr:housenumber" v="6804"/><tag k="addr:postcode" v="78645"/></node><node id="-416" lat="30.464884" lon="-97.981874" changeset="false"><tag k="addr:street" v="Live Oak Drive"/><tag k="addr:housenumber" v="6806"/><tag k="addr:postcode" v="78645"/></node><node id="-417" lat="30.466319" lon="-97.979745" changeset="false"><tag k="addr:street" v="Post Oak Drive"/><tag k="addr:housenumber" v="20607"/><tag k="addr:postcode" v="78645"/></node><node id="-418" lat="30.462049" lon="-97.985312" changeset="false"><tag k="addr:street" v="Fawn Circle"/><tag k="addr:housenumber" v="20710"/><tag k="addr:postcode" v="78645"/></node><node id="-419" lat="30.462048" lon="-97.985862" changeset="false"><tag k="addr:street" v="Roundup Trail"/><tag k="addr:housenumber" v="20807"/><tag k="addr:postcode" v="78645"/></node><node id="-420" lat="30.461259" lon="-97.984025" changeset="false"><tag k="addr:street" v="Fawn Circle"/><tag k="addr:housenumber" v="20701"/><tag k="addr:postcode" v="78645"/></node><node id="-421" lat="30.476425" lon="-97.989098" changeset="false"><tag k="addr:street" v="Horseshoe Loop"/><tag k="addr:housenumber" v="21504"/><tag k="addr:postcode" v="78645"/></node><node id="-422" lat="30.464227" lon="-97.986541" changeset="false"><tag k="addr:street" v="Deede Drive"/><tag k="addr:housenumber" v="20906"/><tag k="addr:postcode" v="78645"/></node><node id="-423" lat="30.465236" lon="-97.990004" changeset="false"><tag k="addr:street" v="Lakeshore Drive"/><tag k="addr:housenumber" v="6601"/><tag k="addr:postcode" v="78645"/></node><node id="-424" lat="30.466958" lon="-97.98399" changeset="false"><tag k="addr:street" v="Cedar Ridge Court"/><tag k="addr:housenumber" v="7000"/><tag k="addr:postcode" v="78645"/></node><node id="-425" lat="30.468891" lon="-97.992766" changeset="false"><tag k="addr:street" v="Bar K Ranch Road"/><tag k="addr:housenumber" v="6719"/><tag k="addr:postcode" v="78645"/></node><node id="-426" lat="30.466391" lon="-97.9889" changeset="false"><tag k="addr:street" v="Brewer Lane"/><tag k="addr:housenumber" v="21110"/><tag k="addr:postcode" v="78645"/></node><node id="-427" lat="30.467494" lon="-97.986065" changeset="false"><tag k="addr:street" v="Deepwood Drive"/><tag k="addr:housenumber" v="6901"/><tag k="addr:postcode" v="78645"/></node><node id="-428" lat="30.465177" lon="-97.979946" changeset="false"><tag k="addr:street" v="Agarita Drive"/><tag k="addr:housenumber" v="20605"/><tag k="addr:postcode" v="78645"/></node><node id="-429" lat="30.472208" lon="-97.990071" changeset="false"><tag k="addr:street" v="Crossbow Trail"/><tag k="addr:housenumber" v="7205"/><tag k="addr:postcode" v="78645"/></node><node id="-430" lat="30.468341" lon="-97.988589" changeset="false"><tag k="addr:street" v="Palomino Cove"/><tag k="addr:housenumber" v="21204"/><tag k="addr:postcode" v="78645"/></node><node id="-431" lat="30.467971" lon="-97.989657" changeset="false"><tag k="addr:street" v="Palomino Cove"/><tag k="addr:housenumber" v="21217"/><tag k="addr:postcode" v="78645"/></node><node id="-432" lat="30.466809" lon="-97.989496" changeset="false"><tag k="addr:street" v="La Paloma Drive"/><tag k="addr:housenumber" v="21207"/><tag k="addr:postcode" v="78645"/></node><node id="-433" lat="30.469156" lon="-97.983585" changeset="false"><tag k="addr:street" v="Post Oak Drive"/><tag k="addr:housenumber" v="20906"/><tag k="addr:postcode" v="78645"/></node><node id="-434" lat="30.456093" lon="-97.982264" changeset="false"><tag k="addr:street" v="Deer Run"/><tag k="addr:housenumber" v="6304"/><tag k="addr:postcode" v="78645"/></node><node id="-435" lat="30.463552" lon="-97.983725" changeset="false"><tag k="addr:street" v="Deede Drive"/><tag k="addr:housenumber" v="20711"/><tag k="addr:postcode" v="78645"/></node><node id="-436" lat="30.460281" lon="-97.984111" changeset="false"><tag k="addr:street" v="Palo Duro Drive"/><tag k="addr:housenumber" v="20611"/><tag k="addr:postcode" v="78645"/></node><node id="-437" lat="30.458936" lon="-97.981821" changeset="false"><tag k="addr:street" v="Avenida Ann Drive"/><tag k="addr:housenumber" v="6510"/><tag k="addr:postcode" v="78645"/></node><node id="-438" lat="30.459336" lon="-97.982167" changeset="false"><tag k="addr:street" v="Avenida Ann Drive"/><tag k="addr:housenumber" v="6514"/><tag k="addr:postcode" v="78645"/></node><node id="-439" lat="30.45876" lon="-97.984751" changeset="false"><tag k="addr:street" v="Park Drive"/><tag k="addr:housenumber" v="20607"/><tag k="addr:postcode" v="78645"/></node><node id="-440" lat="30.45801" lon="-97.983705" changeset="false"><tag k="addr:street" v="Park Drive"/><tag k="addr:housenumber" v="20509"/><tag k="addr:postcode" v="78645"/></node><node id="-441" lat="30.455639" lon="-97.981867" changeset="false"><tag k="addr:street" v="Deer Run"/><tag k="addr:housenumber" v="6300"/><tag k="addr:postcode" v="78645"/></node><node id="-442" lat="30.466659" lon="-97.980271" changeset="false"><tag k="addr:street" v="Post Oak Drive"/><tag k="addr:housenumber" v="20611"/><tag k="addr:postcode" v="78645"/></node><node id="-443" lat="30.468079" lon="-97.983198" changeset="false"><tag k="addr:street" v="Live Oak Drive"/><tag k="addr:housenumber" v="7013"/><tag k="addr:postcode" v="78645"/></node><node id="-444" lat="30.460254" lon="-97.988668" changeset="false"><tag k="addr:street" v="Park Drive"/><tag k="addr:housenumber" v="20809"/><tag k="addr:postcode" v="78645"/></node><node id="-445" lat="30.470296" lon="-97.989299" changeset="false"><tag k="addr:street" v="Coyote Trail"/><tag k="addr:housenumber" v="21431"/><tag k="addr:postcode" v="78645"/></node><node id="-446" lat="30.470164" lon="-97.989142" changeset="false"><tag k="addr:street" v="Coyote Trail"/><tag k="addr:housenumber" v="21435"/><tag k="addr:postcode" v="78645"/></node><node id="-447" lat="30.447316" lon="-98.005567" changeset="false"><tag k="addr:street" v="Lakefront Drive"/><tag k="addr:housenumber" v="21409"/><tag k="addr:postcode" v="78645"/></node><node id="-448" lat="30.471682" lon="-97.987405" changeset="false"><tag k="addr:street" v="Coyote Trail"/><tag k="addr:housenumber" v="21468"/><tag k="addr:postcode" v="78645"/></node><node id="-449" lat="30.460176" lon="-97.986399" changeset="false"><tag k="addr:street" v="Park Drive"/><tag k="addr:housenumber" v="20706"/><tag k="addr:postcode" v="78645"/></node><node id="-450" lat="30.460068" lon="-97.986729" changeset="false"><tag k="addr:street" v="Park Drive"/><tag k="addr:housenumber" v="20708"/><tag k="addr:postcode" v="78645"/></node><node id="-451" lat="30.460037" lon="-97.986998" changeset="false"><tag k="addr:street" v="Park Drive"/><tag k="addr:housenumber" v="20800"/><tag k="addr:postcode" v="78645"/></node><node id="-452" lat="30.459392" lon="-97.987162" changeset="false"><tag k="addr:street" v="Park Drive"/><tag k="addr:housenumber" v="20803"/><tag k="addr:postcode" v="78645"/></node><node id="-453" lat="30.459261" lon="-97.985314" changeset="false"><tag k="addr:street" v="Park Drive"/><tag k="addr:housenumber" v="20701"/><tag k="addr:postcode" v="78645"/></node><node id="-454" lat="30.460985" lon="-97.989802" changeset="false"><tag k="addr:street" v="Dawn Drive"/><tag k="addr:housenumber" v="21024"/><tag k="addr:postcode" v="78645"/></node><node id="-455" lat="30.470288" lon="-97.980924" changeset="false"><tag k="addr:street" v="White Oak Drive"/><tag k="addr:housenumber" v="7401"/><tag k="addr:postcode" v="78645"/></node><node id="-456" lat="30.47168" lon="-97.986006" changeset="false"><tag k="addr:street" v="Deepwood Drive"/><tag k="addr:housenumber" v="7304"/><tag k="addr:postcode" v="78645"/></node><node id="-457" lat="30.47176" lon="-97.990323" changeset="false"><tag k="addr:street" v="Coyote Trail"/><tag k="addr:housenumber" v="21404"/><tag k="addr:postcode" v="78645"/></node><node id="-458" lat="30.478609" lon="-97.992172" changeset="false"><tag k="addr:street" v="Surrey Lane"/><tag k="addr:housenumber" v="21709"/><tag k="addr:postcode" v="78645"/></node><node id="-459" lat="30.477411" lon="-97.990058" changeset="false"><tag k="addr:street" v="Surrey Lane"/><tag k="addr:housenumber" v="21601"/><tag k="addr:postcode" v="78645"/></node><node id="-460" lat="30.477171" lon="-97.989323" changeset="false"><tag k="addr:street" v="Surrey Lane"/><tag k="addr:housenumber" v="21513"/><tag k="addr:postcode" v="78645"/></node><node id="-461" lat="30.468582" lon="-97.988907" changeset="false"><tag k="addr:street" v="Pinto Cove"/><tag k="addr:housenumber" v="6805"/><tag k="addr:postcode" v="78645"/></node><node id="-462" lat="30.467951" lon="-97.981564" changeset="false"><tag k="addr:street" v="Post Oak Drive"/><tag k="addr:housenumber" v="20800"/><tag k="addr:postcode" v="78645"/></node><node id="-463" lat="30.460369" lon="-97.988052" changeset="false"><tag k="addr:street" v="South Shady Lane"/><tag k="addr:housenumber" v="6403"/><tag k="addr:postcode" v="78645"/></node><node id="-464" lat="30.461536" lon="-97.987441" changeset="false"><tag k="addr:street" v="Roundup Trail"/><tag k="addr:housenumber" v="20901"/><tag k="addr:postcode" v="78645"/></node><node id="-465" lat="30.471686" lon="-97.989053" changeset="false"><tag k="addr:street" v="Comstock Cove"/><tag k="addr:housenumber" v="7210"/><tag k="addr:postcode" v="78645"/></node><node id="-466" lat="30.462612" lon="-97.984951" changeset="false"><tag k="addr:street" v="Roundup Trail"/><tag k="addr:housenumber" v="20802"/><tag k="addr:postcode" v="78645"/></node><node id="-467" lat="30.470121" lon="-97.991831" changeset="false"><tag k="addr:street" v="Buckboard Cove"/><tag k="addr:housenumber" v="6900"/><tag k="addr:postcode" v="78645"/></node><node id="-468" lat="30.470744" lon="-97.991586" changeset="false"><tag k="addr:street" v="Buckboard Cove"/><tag k="addr:housenumber" v="6906"/><tag k="addr:postcode" v="78645"/></node><node id="-469" lat="30.470412" lon="-97.992311" changeset="false"><tag k="addr:street" v="Bar K Ranch Road"/><tag k="addr:housenumber" v="6903"/><tag k="addr:postcode" v="78645"/></node><node id="-470" lat="30.471566" lon="-97.990759" changeset="false"><tag k="addr:street" v="Coyote Trail"/><tag k="addr:housenumber" v="21403"/><tag k="addr:postcode" v="78645"/></node><node id="-471" lat="30.470211" lon="-97.99056" changeset="false"><tag k="addr:street" v="Pioneer Cove"/><tag k="addr:housenumber" v="21304"/><tag k="addr:postcode" v="78645"/></node><node id="-472" lat="30.46498" lon="-97.979039" changeset="false"><tag k="addr:street" v="Agarita Drive"/><tag k="addr:housenumber" v="20507"/><tag k="addr:postcode" v="78645"/></node><node id="-473" lat="30.472052" lon="-97.98841" changeset="false"><tag k="addr:street" v="Choctaw Cove"/><tag k="addr:housenumber" v="21317"/><tag k="addr:postcode" v="78645"/></node><node id="-474" lat="30.472854" lon="-97.988042" changeset="false"><tag k="addr:street" v="Coyote Trail"/><tag k="addr:housenumber" v="21500"/><tag k="addr:postcode" v="78645"/></node><node id="-475" lat="30.472569" lon="-97.987119" changeset="false"><tag k="addr:street" v="Coyote Trail"/><tag k="addr:housenumber" v="21486"/><tag k="addr:postcode" v="78645"/></node><node id="-476" lat="30.472485" lon="-97.988166" changeset="false"><tag k="addr:street" v="Choctaw Cove"/><tag k="addr:housenumber" v="21308"/><tag k="addr:postcode" v="78645"/></node><node id="-477" lat="30.465043" lon="-97.985887" changeset="false"><tag k="addr:street" v="Fawn Ridge Drive"/><tag k="addr:housenumber" v="20908"/><tag k="addr:postcode" v="78645"/></node><node id="-478" lat="30.464456" lon="-97.984165" changeset="false"><tag k="addr:street" v="Fawn Ridge Drive"/><tag k="addr:housenumber" v="20802"/><tag k="addr:postcode" v="78645"/></node><node id="-479" lat="30.460768" lon="-97.986749" changeset="false"><tag k="addr:street" v="Roundup Trail"/><tag k="addr:housenumber" v="20823"/><tag k="addr:postcode" v="78645"/></node><node id="-480" lat="30.466473" lon="-97.984997" changeset="false"><tag k="addr:street" v="Deepwood Drive"/><tag k="addr:housenumber" v="6801"/><tag k="addr:postcode" v="78645"/></node><node id="-481" lat="30.474804" lon="-97.991035" changeset="false"><tag k="addr:street" v="Coyote Trail"/><tag k="addr:housenumber" v="21525"/><tag k="addr:postcode" v="78645"/></node><node id="-482" lat="30.466101" lon="-97.982159" changeset="false"><tag k="addr:street" v="Cedar Ridge Cove"/><tag k="addr:housenumber" v="20803"/><tag k="addr:postcode" v="78645"/></node><node id="-483" lat="30.46697" lon="-97.987192" changeset="false"><tag k="addr:street" v="Brewer Lane"/><tag k="addr:housenumber" v="21005"/><tag k="addr:postcode" v="78645"/></node><node id="-484" lat="30.469116" lon="-97.992677" changeset="false"><tag k="addr:street" v="Bar K Ranch Road"/><tag k="addr:housenumber" v="6721"/><tag k="addr:postcode" v="78645"/></node><node id="-485" lat="30.468803" lon="-97.989397" changeset="false"><tag k="addr:street" v="Pinto Cove"/><tag k="addr:housenumber" v="6804"/><tag k="addr:postcode" v="78645"/></node><node id="-486" lat="30.467902" lon="-97.980916" changeset="false"><tag k="addr:street" v="Post Oak Drive"/><tag k="addr:housenumber" v="20708"/><tag k="addr:postcode" v="78645"/></node><node id="-487" lat="30.466588" lon="-97.97886" changeset="false"><tag k="addr:street" v="Post Oak Drive"/><tag k="addr:housenumber" v="20602"/><tag k="addr:postcode" v="78645"/></node><node id="-488" lat="30.47085" lon="-97.988892" changeset="false"><tag k="addr:street" v="Comstock Cove"/><tag k="addr:housenumber" v="7102"/><tag k="addr:postcode" v="78645"/></node><node id="-489" lat="30.469256" lon="-97.985661" changeset="false"><tag k="addr:street" v="Ridgeview Loop"/><tag k="addr:housenumber" v="21011"/><tag k="addr:postcode" v="78645"/></node><node id="-490" lat="30.466024" lon="-97.979115" changeset="false"><tag k="addr:street" v="Post Oak Drive"/><tag k="addr:housenumber" v="20603"/><tag k="addr:postcode" v="78645"/></node><node id="-491" lat="30.465783" lon="-97.98112" changeset="false"><tag k="addr:street" v="Live Oak Drive"/><tag k="addr:housenumber" v="6903"/><tag k="addr:postcode" v="78645"/></node><node id="-492" lat="30.466541" lon="-97.981081" changeset="false"><tag k="addr:street" v="Live Oak Drive"/><tag k="addr:housenumber" v="6909"/><tag k="addr:postcode" v="78645"/></node><node id="-493" lat="30.46679" lon="-97.981203" changeset="false"><tag k="addr:street" v="Live Oak Drive"/><tag k="addr:housenumber" v="6911"/><tag k="addr:postcode" v="78645"/></node><node id="-494" lat="30.466948" lon="-97.984901" changeset="false"><tag k="addr:street" v="Live Oak Drive"/><tag k="addr:housenumber" v="7020"/><tag k="addr:postcode" v="78645"/></node><node id="-495" lat="30.469657" lon="-97.995245" changeset="false"><tag k="addr:street" v="Bar K Clubhouse Court"/><tag k="addr:housenumber" v="6710"/><tag k="addr:postcode" v="78645"/></node><node id="-496" lat="30.465003" lon="-97.980661" changeset="false"><tag k="addr:street" v="Agarita Drive"/><tag k="addr:housenumber" v="20612"/><tag k="addr:postcode" v="78645"/></node><node id="-497" lat="30.47188" lon="-97.979457" changeset="false"><tag k="addr:street" v="White Oak Drive"/><tag k="addr:housenumber" v="7501"/><tag k="addr:postcode" v="78645"/></node><node id="-498" lat="30.46923" lon="-97.986456" changeset="false"><tag k="addr:street" v="Deepwood Drive"/><tag k="addr:housenumber" v="7005"/><tag k="addr:postcode" v="78645"/></node><node id="-499" lat="30.474897" lon="-97.986803" changeset="false"><tag k="addr:street" v="Stable Lane"/><tag k="addr:housenumber" v="7502"/><tag k="addr:postcode" v="78645"/></node><node id="-500" lat="30.464135" lon="-97.981327" changeset="false"><tag k="addr:street" v="Live Oak Drive"/><tag k="addr:housenumber" v="6805"/><tag k="addr:postcode" v="78645"/></node><node id="-501" lat="30.448346" lon="-98.005914" changeset="false"><tag k="addr:street" v="Lakefront Drive"/><tag k="addr:housenumber" v="21401"/><tag k="addr:postcode" v="78645"/></node><node id="-502" lat="30.473043" lon="-97.98509" changeset="false"><tag k="addr:street" v="Little Loop"/><tag k="addr:housenumber" v="21203"/><tag k="addr:postcode" v="78645"/></node><node id="-503" lat="30.464464" lon="-97.985973" changeset="false"><tag k="addr:street" v="Fawn Ridge Drive"/><tag k="addr:housenumber" v="20905"/><tag k="addr:postcode" v="78645"/></node><node id="-504" lat="30.455184" lon="-97.988649" changeset="false"><tag k="addr:street" v="Dawn Drive"/><tag k="addr:housenumber" v="20702"/><tag k="addr:postcode" v="78645"/></node><node id="-505" lat="30.463875" lon="-97.983408" changeset="false"><tag k="addr:street" v="Deede Drive"/><tag k="addr:housenumber" v="20712"/><tag k="addr:postcode" v="78645"/></node><node id="-506" lat="30.468534" lon="-97.977751" changeset="false"><tag k="addr:street" v="Spanish Oak Drive"/><tag k="addr:housenumber" v="7401"/><tag k="addr:postcode" v="78645"/></node><node id="-507" lat="30.469536" lon="-97.979888" changeset="false"><tag k="addr:street" v="Ridgeview Road"/><tag k="addr:housenumber" v="20708"/><tag k="addr:postcode" v="78645"/></node><node id="-508" lat="30.471901" lon="-97.97808" changeset="false"><tag k="addr:street" v="Northland Drive"/><tag k="addr:housenumber" v="20702"/><tag k="addr:postcode" v="78645"/></node><node id="-509" lat="30.470722" lon="-97.978186" changeset="false"><tag k="addr:street" v="Northland Drive"/><tag k="addr:housenumber" v="20701"/><tag k="addr:postcode" v="78645"/></node><node id="-510" lat="30.470952" lon="-97.978617" changeset="false"><tag k="addr:street" v="Northland Drive"/><tag k="addr:housenumber" v="20703"/><tag k="addr:postcode" v="78645"/></node><node id="-511" lat="30.474274" lon="-97.980195" changeset="false"><tag k="addr:street" v="Northland Drive"/><tag k="addr:housenumber" v="20905"/><tag k="addr:postcode" v="78645"/></node><node id="-512" lat="30.467043" lon="-97.978008" changeset="false"><tag k="addr:street" v="Spanish Oak Drive"/><tag k="addr:housenumber" v="7301"/><tag k="addr:postcode" v="78645"/></node><node id="-513" lat="30.474434" lon="-97.980922" changeset="false"><tag k="addr:street" v="Northland Drive"/><tag k="addr:housenumber" v="21001"/><tag k="addr:postcode" v="78645"/></node><node id="-514" lat="30.467865" lon="-97.979756" changeset="false"><tag k="addr:street" v="White Oak Drive"/><tag k="addr:housenumber" v="7302"/><tag k="addr:postcode" v="78645"/></node><node id="-515" lat="30.467835" lon="-97.977919" changeset="false"><tag k="addr:street" v="Spanish Oak Drive"/><tag k="addr:housenumber" v="7307"/><tag k="addr:postcode" v="78645"/></node><node id="-516" lat="30.473299" lon="-97.983424" changeset="false"><tag k="addr:street" v="Northland Drive"/><tag k="addr:housenumber" v="21107"/><tag k="addr:postcode" v="78645"/></node><node id="-517" lat="30.472543" lon="-97.983932" changeset="false"><tag k="addr:street" v="Northland Drive"/><tag k="addr:housenumber" v="21111"/><tag k="addr:postcode" v="78645"/></node><node id="-518" lat="30.454296" lon="-97.982935" changeset="false"><tag k="addr:street" v="Pokealong Path"/><tag k="addr:housenumber" v="6113"/><tag k="addr:postcode" v="78645"/></node><node id="-519" lat="30.454508" lon="-97.98204" changeset="false"><tag k="addr:street" v="Pokealong Path"/><tag k="addr:housenumber" v="6205"/><tag k="addr:postcode" v="78645"/></node><node id="-520" lat="30.461062" lon="-97.984479" changeset="false"><tag k="addr:street" v="Palo Duro Drive"/><tag k="addr:housenumber" v="20702"/><tag k="addr:postcode" v="78645"/></node><node id="-521" lat="30.468904" lon="-97.992076" changeset="false"><tag k="addr:street" v="Broken Bow Cove"/><tag k="addr:housenumber" v="21404"/><tag k="addr:postcode" v="78645"/></node><node id="-522" lat="30.47188" lon="-97.987327" changeset="false"><tag k="addr:street" v="Coyote Trail"/><tag k="addr:housenumber" v="21470"/><tag k="addr:postcode" v="78645"/></node><node id="-523" lat="30.463885" lon="-97.979831" changeset="false"><tag k="addr:street" v="Redwood Drive"/><tag k="addr:housenumber" v="6805"/><tag k="addr:postcode" v="78645"/></node><node id="-524" lat="30.464029" lon="-97.979609" changeset="false"><tag k="addr:street" v="Redwood Drive"/><tag k="addr:housenumber" v="6901"/><tag k="addr:postcode" v="78645"/></node><node id="-525" lat="30.464175" lon="-97.979382" changeset="false"><tag k="addr:street" v="Redwood Drive"/><tag k="addr:housenumber" v="6903"/><tag k="addr:postcode" v="78645"/></node><node id="-526" lat="30.467549" lon="-97.978978" changeset="false"><tag k="addr:street" v="White Oak Drive"/><tag k="addr:housenumber" v="7301"/><tag k="addr:postcode" v="78645"/></node><node id="-527" lat="30.46835" lon="-97.979546" changeset="false"><tag k="addr:street" v="White Oak Drive"/><tag k="addr:housenumber" v="7307"/><tag k="addr:postcode" v="78645"/></node><node id="-528" lat="30.468099" lon="-97.980213" changeset="false"><tag k="addr:street" v="White Oak Drive"/><tag k="addr:housenumber" v="7306"/><tag k="addr:postcode" v="78645"/></node><node id="-529" lat="30.468316" lon="-97.981026" changeset="false"><tag k="addr:street" v="White Oak Drive"/><tag k="addr:housenumber" v="7312"/><tag k="addr:postcode" v="78645"/></node><node id="-530" lat="30.468351" lon="-97.981346" changeset="false"><tag k="addr:street" v="White Oak Drive"/><tag k="addr:housenumber" v="7314"/><tag k="addr:postcode" v="78645"/></node><node id="-531" lat="30.472179" lon="-97.981103" changeset="false"><tag k="addr:street" v="Little Oak Circle"/><tag k="addr:housenumber" v="7405"/><tag k="addr:postcode" v="78645"/></node><node id="-532" lat="30.463999" lon="-97.981867" changeset="false"><tag k="addr:street" v="Live Oak Drive"/><tag k="addr:housenumber" v="6800"/><tag k="addr:postcode" v="78645"/></node><node id="-533" lat="30.466875" lon="-97.980488" changeset="false"><tag k="addr:street" v="Post Oak Drive"/><tag k="addr:housenumber" v="20701"/><tag k="addr:postcode" v="78645"/></node><node id="-534" lat="30.453706" lon="-97.983989" changeset="false"><tag k="addr:street" v="Dawn Drive"/><tag k="addr:housenumber" v="20402"/><tag k="addr:postcode" v="78645"/></node><node id="-535" lat="30.466317" lon="-97.98314" changeset="false"><tag k="addr:street" v="Cedar Ridge Drive"/><tag k="addr:housenumber" v="6906"/><tag k="addr:postcode" v="78645"/></node><node id="-536" lat="30.466517" lon="-97.983677" changeset="false"><tag k="addr:street" v="Cedar Ridge Drive"/><tag k="addr:housenumber" v="6910"/><tag k="addr:postcode" v="78645"/></node><node id="-537" lat="30.465313" lon="-97.982847" changeset="false"><tag k="addr:street" v="Cedar Ridge Drive"/><tag k="addr:housenumber" v="6802"/><tag k="addr:postcode" v="78645"/></node><node id="-538" lat="30.464475" lon="-97.978961" changeset="false"><tag k="addr:street" v="Redwood Drive"/><tag k="addr:housenumber" v="7001"/><tag k="addr:postcode" v="78645"/></node><node id="-539" lat="30.481175" lon="-97.993032" changeset="false"><tag k="addr:street" v="Stetson Cove"/><tag k="addr:housenumber" v="21900"/><tag k="addr:postcode" v="78645"/></node><node id="-540" lat="30.459581" lon="-97.986141" changeset="false"><tag k="addr:street" v="Park Drive"/><tag k="addr:housenumber" v="20707"/><tag k="addr:postcode" v="78645"/></node><node id="-541" lat="30.45954" lon="-97.986444" changeset="false"><tag k="addr:street" v="Park Drive"/><tag k="addr:housenumber" v="20709"/><tag k="addr:postcode" v="78645"/></node><node id="-542" lat="30.458606" lon="-97.98454" changeset="false"><tag k="addr:street" v="Park Drive"/><tag k="addr:housenumber" v="20605"/><tag k="addr:postcode" v="78645"/></node><node id="-543" lat="30.457324" lon="-97.983128" changeset="false"><tag k="addr:street" v="Park Drive"/><tag k="addr:housenumber" v="20407"/><tag k="addr:postcode" v="78645"/></node><node id="-544" lat="30.471115" lon="-97.982331" changeset="false"><tag k="addr:street" v="Little Lane"/><tag k="addr:housenumber" v="21001"/><tag k="addr:postcode" v="78645"/></node><node id="-545" lat="30.475655" lon="-97.977387" changeset="false"><tag k="addr:street" v="Piasino Trail"/><tag k="addr:housenumber" v="7804"/><tag k="addr:postcode" v="78645"/></node><node id="-546" lat="30.475816" lon="-97.977102" changeset="false"><tag k="addr:street" v="Piasino Trail"/><tag k="addr:housenumber" v="7806"/><tag k="addr:postcode" v="78645"/></node><node id="-547" lat="30.475567" lon="-97.976782" changeset="false"><tag k="addr:street" v="Piasino Trail"/><tag k="addr:housenumber" v="7807"/><tag k="addr:postcode" v="78645"/></node><node id="-548" lat="30.461613" lon="-97.982236" changeset="false"><tag k="addr:street" v="Avenida Ann Drive"/><tag k="addr:housenumber" v="6611"/><tag k="addr:postcode" v="78645"/></node><node id="-549" lat="30.451174" lon="-98.001845" changeset="false"><tag k="addr:street" v="Canyon Oaks Drive"/><tag k="addr:housenumber" v="5108"/><tag k="addr:postcode" v="78645"/></node><node id="-550" lat="30.451439" lon="-98.001243" changeset="false"><tag k="addr:street" v="Canyon Oaks Drive"/><tag k="addr:housenumber" v="5116"/><tag k="addr:postcode" v="78645"/></node><node id="-551" lat="30.474484" lon="-97.98438" changeset="false"><tag k="addr:street" v="Packsaddle Trail"/><tag k="addr:housenumber" v="21105"/><tag k="addr:postcode" v="78645"/></node><node id="-552" lat="30.47179" lon="-97.981273" changeset="false"><tag k="addr:street" v="Little Oak Circle"/><tag k="addr:housenumber" v="7403"/><tag k="addr:postcode" v="78645"/></node><node id="-553" lat="30.47609" lon="-97.977465" changeset="false"><tag k="addr:street" v="Dodge Trail"/><tag k="addr:housenumber" v="20807"/><tag k="addr:postcode" v="78645"/></node><node id="-554" lat="30.469399" lon="-97.984461" changeset="false"><tag k="addr:street" v="Ridgeview Loop"/><tag k="addr:housenumber" v="21003"/><tag k="addr:postcode" v="78645"/></node><node id="-555" lat="30.467708" lon="-97.988925" changeset="false"><tag k="addr:street" v="Palomino Cove"/><tag k="addr:housenumber" v="21211"/><tag k="addr:postcode" v="78645"/></node><node id="-556" lat="30.467743" lon="-97.990519" changeset="false"><tag k="addr:street" v="Paseo de Vaca Circle"/><tag k="addr:housenumber" v="21202"/><tag k="addr:postcode" v="78645"/></node><node id="-557" lat="30.475262" lon="-97.989133" changeset="false"><tag k="addr:street" v="Bar K Ranch Road"/><tag k="addr:housenumber" v="7406"/><tag k="addr:postcode" v="78645"/></node><node id="-558" lat="30.475601" lon="-97.988865" changeset="false"><tag k="addr:street" v="Bar K Ranch Road"/><tag k="addr:housenumber" v="7410"/><tag k="addr:postcode" v="78645"/></node><node id="-559" lat="30.474891" lon="-97.988642" changeset="false"><tag k="addr:street" v="Ridgeview Circle"/><tag k="addr:housenumber" v="21400"/><tag k="addr:postcode" v="78645"/></node><node id="-560" lat="30.470508" lon="-97.986084" changeset="false"><tag k="addr:street" v="Deepwood Drive"/><tag k="addr:housenumber" v="7201"/><tag k="addr:postcode" v="78645"/></node><node id="-561" lat="30.470407" lon="-97.983029" changeset="false"><tag k="addr:street" v="Northland Drive"/><tag k="addr:housenumber" v="21134"/><tag k="addr:postcode" v="78645"/></node><node id="-562" lat="30.470391" lon="-97.982736" changeset="false"><tag k="addr:street" v="Northland Drive"/><tag k="addr:housenumber" v="21136"/><tag k="addr:postcode" v="78645"/></node><node id="-563" lat="30.470559" lon="-97.980782" changeset="false"><tag k="addr:street" v="White Oak Drive"/><tag k="addr:housenumber" v="7403"/><tag k="addr:postcode" v="78645"/></node><node id="-564" lat="30.470731" lon="-97.980562" changeset="false"><tag k="addr:street" v="White Oak Drive"/><tag k="addr:housenumber" v="7405"/><tag k="addr:postcode" v="78645"/></node><node id="-565" lat="30.469216" lon="-97.980761" changeset="false"><tag k="addr:street" v="Ridgeview Road"/><tag k="addr:housenumber" v="20803"/><tag k="addr:postcode" v="78645"/></node><node id="-566" lat="30.472359" lon="-97.991728" changeset="false"><tag k="addr:street" v="Bar K Ranch Road"/><tag k="addr:housenumber" v="7101"/><tag k="addr:postcode" v="78645"/></node><node id="-567" lat="30.472647" lon="-97.991403" changeset="false"><tag k="addr:street" v="Bar K Ranch Road"/><tag k="addr:housenumber" v="7201"/><tag k="addr:postcode" v="78645"/></node><node id="-568" lat="30.473682" lon="-97.990229" changeset="false"><tag k="addr:street" v="Bar K Ranch Road"/><tag k="addr:housenumber" v="7309"/><tag k="addr:postcode" v="78645"/></node><node id="-569" lat="30.465602" lon="-97.977765" changeset="false"><tag k="addr:street" v="Agarita Drive"/><tag k="addr:housenumber" v="20500"/><tag k="addr:postcode" v="78645"/></node><node id="-570" lat="30.479386" lon="-97.993368" changeset="false"><tag k="addr:street" v="Surrey Lane"/><tag k="addr:housenumber" v="21809"/><tag k="addr:postcode" v="78645"/></node><node id="-571" lat="30.479512" lon="-97.99356" changeset="false"><tag k="addr:street" v="Surrey Lane"/><tag k="addr:housenumber" v="21811"/><tag k="addr:postcode" v="78645"/></node><node id="-572" lat="30.471705" lon="-97.984425" changeset="false"><tag k="addr:street" v="Northland Drive"/><tag k="addr:housenumber" v="21120"/><tag k="addr:postcode" v="78645"/></node><node id="-573" lat="30.461494" lon="-97.987872" changeset="false"><tag k="addr:street" v="South Shady Lane"/><tag k="addr:housenumber" v="6503"/><tag k="addr:postcode" v="78645"/></node><node id="-574" lat="30.462971" lon="-97.987542" changeset="false"><tag k="addr:street" v="South Shady Lane"/><tag k="addr:housenumber" v="6606"/><tag k="addr:postcode" v="78645"/></node><node id="-575" lat="30.456676" lon="-97.980655" changeset="false"><tag k="addr:street" v="Pokealong Path"/><tag k="addr:housenumber" v="6401"/><tag k="addr:postcode" v="78645"/></node><node id="-576" lat="30.458589" lon="-97.980848" changeset="false"><tag k="addr:street" v="Avenida Ann Drive"/><tag k="addr:housenumber" v="6503"/><tag k="addr:postcode" v="78645"/></node><node id="-577" lat="30.469092" lon="-97.98419" changeset="false"><tag k="addr:street" v="Post Oak Drive"/><tag k="addr:housenumber" v="20910"/><tag k="addr:postcode" v="78645"/></node><node id="-578" lat="30.468993" lon="-97.982349" changeset="false"><tag k="addr:street" v="Post Oak Drive"/><tag k="addr:housenumber" v="20810"/><tag k="addr:postcode" v="78645"/></node><node id="-579" lat="30.454758" lon="-97.980975" changeset="false"><tag k="addr:street" v="Dawn Drive"/><tag k="addr:housenumber" v="20206"/><tag k="addr:postcode" v="78645"/></node><node id="-580" lat="30.458656" lon="-97.983374" changeset="false"><tag k="addr:street" v="Deer Run"/><tag k="addr:housenumber" v="6504"/><tag k="addr:postcode" v="78645"/></node><node id="-581" lat="30.469581" lon="-97.989914" changeset="false"><tag k="addr:street" v="Paddock Cove"/><tag k="addr:housenumber" v="21302"/><tag k="addr:postcode" v="78645"/></node><node id="-582" lat="30.469542" lon="-97.991197" changeset="false"><tag k="addr:street" v="Buckboard Cove"/><tag k="addr:housenumber" v="6803"/><tag k="addr:postcode" v="78645"/></node><node id="-583" lat="30.460749" lon="-97.983838" changeset="false"><tag k="addr:street" v="Palo Duro Drive"/><tag k="addr:housenumber" v="20608"/><tag k="addr:postcode" v="78645"/></node><node id="-584" lat="30.469827" lon="-97.99127" changeset="false"><tag k="addr:street" v="Buckboard Cove"/><tag k="addr:housenumber" v="6805"/><tag k="addr:postcode" v="78645"/></node><node id="-585" lat="30.469682" lon="-97.991893" changeset="false"><tag k="addr:street" v="Buckboard Cove"/><tag k="addr:housenumber" v="6802"/><tag k="addr:postcode" v="78645"/></node><node id="-586" lat="30.471546" lon="-97.986911" changeset="false"><tag k="addr:street" v="Coyote Trail"/><tag k="addr:housenumber" v="21469"/><tag k="addr:postcode" v="78645"/></node><node id="-587" lat="30.469351" lon="-97.987671" changeset="false"><tag k="addr:street" v="Coyote Trail"/><tag k="addr:housenumber" v="21457"/><tag k="addr:postcode" v="78645"/></node><node id="-588" lat="30.46706" lon="-97.982434" changeset="false"><tag k="addr:street" v="Live Oak Drive"/><tag k="addr:housenumber" v="7002"/><tag k="addr:postcode" v="78645"/></node><node id="-589" lat="30.473486" lon="-97.992937" changeset="false"><tag k="addr:street" v="Cowpoke Trail"/><tag k="addr:housenumber" v="7202"/><tag k="addr:postcode" v="78645"/></node><node id="-590" lat="30.464994" lon="-97.987918" changeset="false"><tag k="addr:street" v="Deede Drive"/><tag k="addr:housenumber" v="21008"/><tag k="addr:postcode" v="78645"/></node><node id="-591" lat="30.474968" lon="-97.990322" changeset="false"><tag k="addr:street" v="Horseshoe Loop"/><tag k="addr:housenumber" v="21522"/><tag k="addr:postcode" v="78645"/></node><node id="-592" lat="30.465948" lon="-97.982431" changeset="false"><tag k="addr:street" v="Cedar Ridge Cove"/><tag k="addr:housenumber" v="20805"/><tag k="addr:postcode" v="78645"/></node><node id="-593" lat="30.476597" lon="-97.987454" changeset="false"><tag k="addr:street" v="Bar K Ranch Road"/><tag k="addr:housenumber" v="7602"/><tag k="addr:postcode" v="78645"/></node><node id="-594" lat="30.467991" lon="-97.986049" changeset="false"><tag k="addr:street" v="Deepwood Drive"/><tag k="addr:housenumber" v="6903"/><tag k="addr:postcode" v="78645"/></node><node id="-595" lat="30.470015" lon="-97.988184" changeset="false"><tag k="addr:street" v="Coyote Trail"/><tag k="addr:housenumber" v="21436"/><tag k="addr:postcode" v="78645"/></node><node id="-596" lat="30.471236" lon="-97.988886" changeset="false"><tag k="addr:street" v="Comstock Cove"/><tag k="addr:housenumber" v="7200"/><tag k="addr:postcode" v="78645"/></node><node id="-597" lat="30.462735" lon="-97.986411" changeset="false"><tag k="addr:street" v="Roundup Trail"/><tag k="addr:housenumber" v="20910"/><tag k="addr:postcode" v="78645"/></node><node id="-598" lat="30.469895" lon="-97.991857" changeset="false"><tag k="addr:street" v="Buckboard Cove"/><tag k="addr:housenumber" v="6804"/><tag k="addr:postcode" v="78645"/></node><node id="-599" lat="30.470563" lon="-97.991726" changeset="false"><tag k="addr:street" v="Buckboard Cove"/><tag k="addr:housenumber" v="6904"/><tag k="addr:postcode" v="78645"/></node><node id="-600" lat="30.475864" lon="-97.979793" changeset="false"><tag k="addr:street" v="Dodge Trail"/><tag k="addr:housenumber" v="21001"/><tag k="addr:postcode" v="78645"/></node><node id="-601" lat="30.475839" lon="-97.980057" changeset="false"><tag k="addr:street" v="Dodge Trail"/><tag k="addr:housenumber" v="21003"/><tag k="addr:postcode" v="78645"/></node><node id="-602" lat="30.475404" lon="-97.978963" changeset="false"><tag k="addr:street" v="Peacemaker Trail"/><tag k="addr:housenumber" v="20905"/><tag k="addr:postcode" v="78645"/></node><node id="-603" lat="30.46725" lon="-97.98352" changeset="false"><tag k="addr:street" v="Cedar Ridge Court"/><tag k="addr:housenumber" v="7003"/><tag k="addr:postcode" v="78645"/></node><node id="-604" lat="30.461368" lon="-97.98432" changeset="false"><tag k="addr:street" v="Fawn Circle"/><tag k="addr:housenumber" v="20703"/><tag k="addr:postcode" v="78645"/></node><node id="-605" lat="30.460846" lon="-97.983011" changeset="false"><tag k="addr:street" v="Fawn Circle"/><tag k="addr:housenumber" v="20603"/><tag k="addr:postcode" v="78645"/></node><node id="-606" lat="30.461276" lon="-97.98279" changeset="false"><tag k="addr:street" v="Fawn Circle"/><tag k="addr:housenumber" v="20600"/><tag k="addr:postcode" v="78645"/></node><node id="-607" lat="30.465173" lon="-97.983731" changeset="false"><tag k="addr:street" v="Cedar Ridge Circle"/><tag k="addr:housenumber" v="6801"/><tag k="addr:postcode" v="78645"/></node><node id="-608" lat="30.466068" lon="-97.983006" changeset="false"><tag k="addr:street" v="Cedar Ridge Drive"/><tag k="addr:housenumber" v="6904"/><tag k="addr:postcode" v="78645"/></node><node id="-609" lat="30.463556" lon="-97.993225" changeset="false"><tag k="addr:street" v="Park Drive"/><tag k="addr:housenumber" v="21207"/><tag k="addr:postcode" v="78645"/></node><node id="-610" lat="30.473024" lon="-97.988268" changeset="false"><tag k="addr:street" v="Coyote Trail"/><tag k="addr:housenumber" v="21504"/><tag k="addr:postcode" v="78645"/></node><node id="-611" lat="30.466989" lon="-97.986877" changeset="false"><tag k="addr:street" v="Brewer Lane"/><tag k="addr:housenumber" v="21003"/><tag k="addr:postcode" v="78645"/></node><node id="-612" lat="30.468439" lon="-97.98966" changeset="false"><tag k="addr:street" v="Pinto Cove"/><tag k="addr:housenumber" v="6800"/><tag k="addr:postcode" v="78645"/></node><node id="-613" lat="30.458197" lon="-97.995556" changeset="false"><tag k="addr:street" v="Camille Court"/><tag k="addr:housenumber" v="5900"/><tag k="addr:postcode" v="78645"/></node><node id="-614" lat="30.46671" lon="-97.985231" changeset="false"><tag k="addr:street" v="Deepwood Drive"/><tag k="addr:housenumber" v="6803"/><tag k="addr:postcode" v="78645"/></node><node id="-615" lat="30.468137" lon="-97.983453" changeset="false"><tag k="addr:street" v="Live Oak Drive"/><tag k="addr:housenumber" v="7015"/><tag k="addr:postcode" v="78645"/></node><node id="-616" lat="30.468777" lon="-97.99396" changeset="false"><tag k="addr:street" v="Bar K Ranch Road"/><tag k="addr:housenumber" v="6708"/><tag k="addr:postcode" v="78645"/></node><node id="-617" lat="30.46848" lon="-97.994744" changeset="false"><tag k="addr:street" v="Bar K Ranch Road"/><tag k="addr:housenumber" v="6700"/><tag k="addr:postcode" v="78645"/></node><node id="-618" lat="30.46985" lon="-97.99476" changeset="false"><tag k="addr:street" v="Bar K Clubhouse Court"/><tag k="addr:housenumber" v="6713"/><tag k="addr:postcode" v="78645"/></node><node id="-619" lat="30.476373" lon="-97.988472" changeset="false"><tag k="addr:street" v="Horseshoe Loop"/><tag k="addr:housenumber" v="21500"/><tag k="addr:postcode" v="78645"/></node><node id="-620" lat="30.467296" lon="-97.978044" changeset="false"><tag k="addr:street" v="Spanish Oak Drive"/><tag k="addr:housenumber" v="7303"/><tag k="addr:postcode" v="78645"/></node><node id="-621" lat="30.453544" lon="-97.985591" changeset="false"><tag k="addr:street" v="Dawn Drive"/><tag k="addr:housenumber" v="20500"/><tag k="addr:postcode" v="78645"/></node><node id="-622" lat="30.453799" lon="-97.986024" changeset="false"><tag k="addr:street" v="Dawn Drive"/><tag k="addr:housenumber" v="20504"/><tag k="addr:postcode" v="78645"/></node><node id="-623" lat="30.474886" lon="-97.979661" changeset="false"><tag k="addr:street" v="Northland Drive"/><tag k="addr:housenumber" v="20904"/><tag k="addr:postcode" v="78645"/></node><node id="-624" lat="30.469219" lon="-97.981073" changeset="false"><tag k="addr:street" v="Ridgeview Road"/><tag k="addr:housenumber" v="20805"/><tag k="addr:postcode" v="78645"/></node><node id="-625" lat="30.467278" lon="-97.97902" changeset="false"><tag k="addr:street" v="White Oak Drive"/><tag k="addr:housenumber" v="7205"/><tag k="addr:postcode" v="78645"/></node><node id="-626" lat="30.474095" lon="-97.982301" changeset="false"><tag k="addr:street" v="Northland Drive"/><tag k="addr:housenumber" v="21101"/><tag k="addr:postcode" v="78645"/></node><node id="-627" lat="30.472938" lon="-97.983767" changeset="false"><tag k="addr:street" v="Northland Drive"/><tag k="addr:housenumber" v="21109"/><tag k="addr:postcode" v="78645"/></node><node id="-628" lat="30.473335" lon="-97.980093" changeset="false"><tag k="addr:street" v="White Oak Drive"/><tag k="addr:housenumber" v="7601"/><tag k="addr:postcode" v="78645"/></node><node id="-629" lat="30.473711" lon="-97.981749" changeset="false"><tag k="addr:street" v="White Oak Drive"/><tag k="addr:housenumber" v="7609"/><tag k="addr:postcode" v="78645"/></node><node id="-630" lat="30.471253" lon="-97.986337" changeset="false"><tag k="addr:street" v="Deepwood Drive"/><tag k="addr:housenumber" v="7300"/><tag k="addr:postcode" v="78645"/></node><node id="-631" lat="30.471861" lon="-97.985801" changeset="false"><tag k="addr:street" v="Deepwood Drive"/><tag k="addr:housenumber" v="7306"/><tag k="addr:postcode" v="78645"/></node><node id="-632" lat="30.466553" lon="-97.983317" changeset="false"><tag k="addr:street" v="Cedar Ridge Drive"/><tag k="addr:housenumber" v="6908"/><tag k="addr:postcode" v="78645"/></node><node id="-633" lat="30.47713" lon="-97.989077" changeset="false"><tag k="addr:street" v="Surrey Lane"/><tag k="addr:housenumber" v="21511"/><tag k="addr:postcode" v="78645"/></node><node id="-634" lat="30.463454" lon="-97.980579" changeset="false"><tag k="addr:street" v="Redwood Drive"/><tag k="addr:housenumber" v="6800"/><tag k="addr:postcode" v="78645"/></node><node id="-635" lat="30.472552" lon="-97.981404" changeset="false"><tag k="addr:street" v="Little Oak Circle"/><tag k="addr:housenumber" v="7406"/><tag k="addr:postcode" v="78645"/></node><node id="-636" lat="30.473009" lon="-97.979835" changeset="false"><tag k="addr:street" v="White Oak Drive"/><tag k="addr:housenumber" v="7507"/><tag k="addr:postcode" v="78645"/></node><node id="-637" lat="30.465993" lon="-97.981682" changeset="false"><tag k="addr:street" v="Live Oak Drive"/><tag k="addr:housenumber" v="6902"/><tag k="addr:postcode" v="78645"/></node><node id="-638" lat="30.466271" lon="-97.981626" changeset="false"><tag k="addr:street" v="Live Oak Drive"/><tag k="addr:housenumber" v="6904"/><tag k="addr:postcode" v="78645"/></node><node id="-639" lat="30.460441" lon="-97.984405" changeset="false"><tag k="addr:street" v="Palo Duro Drive"/><tag k="addr:housenumber" v="20701"/><tag k="addr:postcode" v="78645"/></node><node id="-640" lat="30.459829" lon="-97.982651" changeset="false"><tag k="addr:street" v="Palo Duro Drive"/><tag k="addr:housenumber" v="20601"/><tag k="addr:postcode" v="78645"/></node><node id="-641" lat="30.458345" lon="-97.981418" changeset="false"><tag k="addr:street" v="Avenida Ann Drive"/><tag k="addr:housenumber" v="6504"/><tag k="addr:postcode" v="78645"/></node><node id="-642" lat="30.466919" lon="-97.98216" changeset="false"><tag k="addr:street" v="Live Oak Drive"/><tag k="addr:housenumber" v="7000"/><tag k="addr:postcode" v="78645"/></node><node id="-643" lat="30.47198" lon="-97.988095" changeset="false"><tag k="addr:street" v="Choctaw Cove"/><tag k="addr:housenumber" v="21313"/><tag k="addr:postcode" v="78645"/></node><node id="-644" lat="30.473594" lon="-97.992968" changeset="false"><tag k="addr:street" v="Cowpoke Trail"/><tag k="addr:housenumber" v="7204"/><tag k="addr:postcode" v="78645"/></node><node id="-645" lat="30.473698" lon="-97.992928" changeset="false"><tag k="addr:street" v="Cowpoke Trail"/><tag k="addr:housenumber" v="7206"/><tag k="addr:postcode" v="78645"/></node><node id="-646" lat="30.464617" lon="-97.987654" changeset="false"><tag k="addr:street" v="Deede Drive"/><tag k="addr:housenumber" v="21004"/><tag k="addr:postcode" v="78645"/></node><node id="-647" lat="30.474281" lon="-97.987266" changeset="false"><tag k="addr:street" v="Ridgeview Road"/><tag k="addr:housenumber" v="21302"/><tag k="addr:postcode" v="78645"/></node><node id="-648" lat="30.474548" lon="-97.987632" changeset="false"><tag k="addr:street" v="Ridgeview Road"/><tag k="addr:housenumber" v="21400"/><tag k="addr:postcode" v="78645"/></node><node id="-649" lat="30.475075" lon="-97.988186" changeset="false"><tag k="addr:street" v="Ridgeview Road"/><tag k="addr:housenumber" v="21404"/><tag k="addr:postcode" v="78645"/></node><node id="-650" lat="30.472973" lon="-97.986142" changeset="false"><tag k="addr:street" v="Ridgeview Road"/><tag k="addr:housenumber" v="21203"/><tag k="addr:postcode" v="78645"/></node><node id="-651" lat="30.467114" lon="-97.980631" changeset="false"><tag k="addr:street" v="Post Oak Drive"/><tag k="addr:housenumber" v="20703"/><tag k="addr:postcode" v="78645"/></node><node id="-652" lat="30.468728" lon="-97.983431" changeset="false"><tag k="addr:street" v="Post Oak Drive"/><tag k="addr:housenumber" v="20903"/><tag k="addr:postcode" v="78645"/></node><node id="-653" lat="30.468653" lon="-97.984036" changeset="false"><tag k="addr:street" v="Post Oak Drive"/><tag k="addr:housenumber" v="20907"/><tag k="addr:postcode" v="78645"/></node><node id="-654" lat="30.467738" lon="-97.985139" changeset="false"><tag k="addr:street" v="Live Oak Circle"/><tag k="addr:housenumber" v="6903"/><tag k="addr:postcode" v="78645"/></node><node id="-655" lat="30.467332" lon="-97.981922" changeset="false"><tag k="addr:street" v="Live Oak Drive"/><tag k="addr:housenumber" v="7003"/><tag k="addr:postcode" v="78645"/></node><node id="-656" lat="30.467618" lon="-97.982469" changeset="false"><tag k="addr:street" v="Live Oak Drive"/><tag k="addr:housenumber" v="7007"/><tag k="addr:postcode" v="78645"/></node><node id="-657" lat="30.467811" lon="-97.982688" changeset="false"><tag k="addr:street" v="Live Oak Drive"/><tag k="addr:housenumber" v="7009"/><tag k="addr:postcode" v="78645"/></node><node id="-658" lat="30.46616" lon="-97.985422" changeset="false"><tag k="addr:street" v="Deepwood Drive"/><tag k="addr:housenumber" v="6800"/><tag k="addr:postcode" v="78645"/></node><node id="-659" lat="30.466886" lon="-97.986305" changeset="false"><tag k="addr:street" v="Deepwood Drive"/><tag k="addr:housenumber" v="6808"/><tag k="addr:postcode" v="78645"/></node><node id="-660" lat="30.467985" lon="-97.994575" changeset="false"><tag k="addr:street" v="Bar K Ranch Road"/><tag k="addr:housenumber" v="6703"/><tag k="addr:postcode" v="78645"/></node><node id="-661" lat="30.467836" lon="-97.980636" changeset="false"><tag k="addr:street" v="Post Oak Drive"/><tag k="addr:housenumber" v="20706"/><tag k="addr:postcode" v="78645"/></node><node id="-662" lat="30.466608" lon="-97.977755" changeset="false"><tag k="addr:street" v="Spanish Oak Drive"/><tag k="addr:housenumber" v="7201"/><tag k="addr:postcode" v="78645"/></node><node id="-663" lat="30.459433" lon="-97.985508" changeset="false"><tag k="addr:street" v="Park Drive"/><tag k="addr:housenumber" v="20703"/><tag k="addr:postcode" v="78645"/></node><node id="-664" lat="30.450291" lon="-98.003239" changeset="false"><tag k="addr:street" v="Green Shore Circle"/><tag k="addr:housenumber" v="5018"/><tag k="addr:postcode" v="78645"/></node><node id="-665" lat="30.46385" lon="-97.99063" changeset="false"><tag k="addr:street" v="Park Drive"/><tag k="addr:housenumber" v="21102"/><tag k="addr:postcode" v="78645"/></node><node id="-666" lat="30.463779" lon="-97.991417" changeset="false"><tag k="addr:street" v="Park Drive"/><tag k="addr:housenumber" v="21106"/><tag k="addr:postcode" v="78645"/></node><node id="-667" lat="30.460112" lon="-97.987318" changeset="false"><tag k="addr:street" v="Park Drive"/><tag k="addr:housenumber" v="20802"/><tag k="addr:postcode" v="78645"/></node><node id="-668" lat="30.461101" lon="-97.987745" changeset="false"><tag k="addr:street" v="South Shady Lane"/><tag k="addr:housenumber" v="6501"/><tag k="addr:postcode" v="78645"/></node><node id="-669" lat="30.462134" lon="-97.988005" changeset="false"><tag k="addr:street" v="South Shady Lane"/><tag k="addr:housenumber" v="6509"/><tag k="addr:postcode" v="78645"/></node><node id="-670" lat="30.462972" lon="-97.988782" changeset="false"><tag k="addr:street" v="South Shady Lane"/><tag k="addr:housenumber" v="6510"/><tag k="addr:postcode" v="78645"/></node><node id="-671" lat="30.467854" lon="-97.984411" changeset="false"><tag k="addr:street" v="Live Oak Drive"/><tag k="addr:housenumber" v="7021"/><tag k="addr:postcode" v="78645"/></node><node id="-672" lat="30.46265" lon="-97.985491" changeset="false"><tag k="addr:street" v="Roundup Trail"/><tag k="addr:housenumber" v="20806"/><tag k="addr:postcode" v="78645"/></node><node id="-673" lat="30.469156" lon="-97.994724" changeset="false"><tag k="addr:street" v="Bar K Clubhouse Court"/><tag k="addr:housenumber" v="6707"/><tag k="addr:postcode" v="78645"/></node><node id="-674" lat="30.47553" lon="-97.977621" changeset="false"><tag k="addr:street" v="Piasino Trail"/><tag k="addr:housenumber" v="7802"/><tag k="addr:postcode" v="78645"/></node><node id="-675" lat="30.475442" lon="-97.977001" changeset="false"><tag k="addr:street" v="Piasino Trail"/><tag k="addr:housenumber" v="7805"/><tag k="addr:postcode" v="78645"/></node><node id="-676" lat="30.475605" lon="-97.978579" changeset="false"><tag k="addr:street" v="Peacemaker Trail"/><tag k="addr:housenumber" v="20900"/><tag k="addr:postcode" v="78645"/></node><node id="-677" lat="30.46537" lon="-97.990273" changeset="false"><tag k="addr:street" v="Lakeshore Drive"/><tag k="addr:housenumber" v="6603"/><tag k="addr:postcode" v="78645"/></node><node id="-678" lat="30.466499" lon="-97.988075" changeset="false"><tag k="addr:street" v="Brewer Lane"/><tag k="addr:housenumber" v="21105"/><tag k="addr:postcode" v="78645"/></node><node id="-679" lat="30.467213" lon="-97.983843" changeset="false"><tag k="addr:street" v="Cedar Ridge Court"/><tag k="addr:housenumber" v="7002"/><tag k="addr:postcode" v="78645"/></node><node id="-680" lat="30.466299" lon="-97.984408" changeset="false"><tag k="addr:street" v="Cedar Ridge Drive"/><tag k="addr:housenumber" v="6914"/><tag k="addr:postcode" v="78645"/></node><node id="-681" lat="30.46837" lon="-97.993656" changeset="false"><tag k="addr:street" v="Bar K Ranch Road"/><tag k="addr:housenumber" v="6711"/><tag k="addr:postcode" v="78645"/></node><node id="-682" lat="30.469064" lon="-97.986474" changeset="false"><tag k="addr:street" v="Deepwood Drive"/><tag k="addr:housenumber" v="7003"/><tag k="addr:postcode" v="78645"/></node><node id="-683" lat="30.476868" lon="-97.987584" changeset="false"><tag k="addr:street" v="Surrey Lane"/><tag k="addr:housenumber" v="21409"/><tag k="addr:postcode" v="78645"/></node><node id="-684" lat="30.476294" lon="-97.986769" changeset="false"><tag k="addr:street" v="Bar K Ranch Road"/><tag k="addr:housenumber" v="7600"/><tag k="addr:postcode" v="78645"/></node><node id="-685" lat="30.475809" lon="-97.987293" changeset="false"><tag k="addr:street" v="Bar K Ranch Road"/><tag k="addr:housenumber" v="7506"/><tag k="addr:postcode" v="78645"/></node><node id="-686" lat="30.476343" lon="-97.988155" changeset="false"><tag k="addr:street" v="Horseshoe Loop"/><tag k="addr:housenumber" v="21408"/><tag k="addr:postcode" v="78645"/></node><node id="-687" lat="30.47087" lon="-97.981182" changeset="false"><tag k="addr:street" v="Little Lane"/><tag k="addr:housenumber" v="20901"/><tag k="addr:postcode" v="78645"/></node><node id="-688" lat="30.4753" lon="-97.97875" changeset="false"><tag k="addr:street" v="Peacemaker Trail"/><tag k="addr:housenumber" v="20903"/><tag k="addr:postcode" v="78645"/></node><node id="-689" lat="30.466386" lon="-97.990414" changeset="false"><tag k="addr:street" v="La Paloma Drive"/><tag k="addr:housenumber" v="21215"/><tag k="addr:postcode" v="78645"/></node><node id="-690" lat="30.463574" lon="-97.984171" changeset="false"><tag k="addr:street" v="Deede Drive"/><tag k="addr:housenumber" v="20801"/><tag k="addr:postcode" v="78645"/></node><node id="-691" lat="30.470133" lon="-97.988175" changeset="false"><tag k="addr:street" v="Coyote Trail"/><tag k="addr:housenumber" v="21438"/><tag k="addr:postcode" v="78645"/></node><node id="-692" lat="30.470259" lon="-97.988158" changeset="false"><tag k="addr:street" v="Coyote Trail"/><tag k="addr:housenumber" v="21440"/><tag k="addr:postcode" v="78645"/></node><node id="-693" lat="30.469278" lon="-97.987969" changeset="false"><tag k="addr:street" v="Coyote Trail"/><tag k="addr:housenumber" v="21455"/><tag k="addr:postcode" v="78645"/></node><node id="-694" lat="30.470525" lon="-97.988496" changeset="false"><tag k="addr:street" v="Comstock Cove"/><tag k="addr:housenumber" v="7105"/><tag k="addr:postcode" v="78645"/></node><node id="-695" lat="30.46115" lon="-97.987277" changeset="false"><tag k="addr:street" v="Roundup Trail"/><tag k="addr:housenumber" v="20827"/><tag k="addr:postcode" v="78645"/></node><node id="-696" lat="30.461345" lon="-97.987367" changeset="false"><tag k="addr:street" v="Roundup Trail"/><tag k="addr:housenumber" v="20829"/><tag k="addr:postcode" v="78645"/></node><node id="-697" lat="30.469344" lon="-97.992574" changeset="false"><tag k="addr:street" v="Bar K Ranch Road"/><tag k="addr:housenumber" v="6801"/><tag k="addr:postcode" v="78645"/></node><node id="-698" lat="30.469765" lon="-97.992463" changeset="false"><tag k="addr:street" v="Bar K Ranch Road"/><tag k="addr:housenumber" v="6805"/><tag k="addr:postcode" v="78645"/></node><node id="-699" lat="30.469975" lon="-97.992402" changeset="false"><tag k="addr:street" v="Bar K Ranch Road"/><tag k="addr:housenumber" v="6807"/><tag k="addr:postcode" v="78645"/></node><node id="-700" lat="30.473735" lon="-97.988697" changeset="false"><tag k="addr:street" v="Coyote Trail"/><tag k="addr:housenumber" v="21507"/><tag k="addr:postcode" v="78645"/></node><node id="-701" lat="30.460019" lon="-97.985204" changeset="false"><tag k="addr:street" v="Park Drive"/><tag k="addr:housenumber" v="20700"/><tag k="addr:postcode" v="78645"/></node><node id="-702" lat="30.471316" lon="-97.990441" changeset="false"><tag k="addr:street" v="Coyote Trail"/><tag k="addr:housenumber" v="21409"/><tag k="addr:postcode" v="78645"/></node><node id="-703" lat="30.470297" lon="-97.990322" changeset="false"><tag k="addr:street" v="Pioneer Cove"/><tag k="addr:housenumber" v="21302"/><tag k="addr:postcode" v="78645"/></node><node id="-704" lat="30.46991" lon="-97.990091" changeset="false"><tag k="addr:street" v="Pioneer Cove"/><tag k="addr:housenumber" v="21301"/><tag k="addr:postcode" v="78645"/></node><node id="-705" lat="30.455101" lon="-97.98209" changeset="false"><tag k="addr:street" v="Pokealong Path"/><tag k="addr:housenumber" v="6204"/><tag k="addr:postcode" v="78645"/></node><node id="-706" lat="30.454854" lon="-97.98347" changeset="false"><tag k="addr:street" v="Pokealong Path"/><tag k="addr:housenumber" v="6106"/><tag k="addr:postcode" v="78645"/></node><node id="-707" lat="30.450257" lon="-98.002197" changeset="false"><tag k="addr:street" v="Green Shore Circle"/><tag k="addr:housenumber" v="5011"/><tag k="addr:postcode" v="78645"/></node><node id="-708" lat="30.449657" lon="-98.001224" changeset="false"><tag k="addr:street" v="Green Shore Cove"/><tag k="addr:housenumber" v="21201"/><tag k="addr:postcode" v="78645"/></node><node id="-709" lat="30.469482" lon="-97.983923" changeset="false"><tag k="addr:street" v="Ridgeview Road"/><tag k="addr:housenumber" v="21005"/><tag k="addr:postcode" v="78645"/></node><node id="-710" lat="30.467761" lon="-97.989209" changeset="false"><tag k="addr:street" v="Palomino Cove"/><tag k="addr:housenumber" v="21213"/><tag k="addr:postcode" v="78645"/></node><node id="-711" lat="30.467176" lon="-97.988838" changeset="false"><tag k="addr:street" v="La Paloma Drive"/><tag k="addr:housenumber" v="21201"/><tag k="addr:postcode" v="78645"/></node><node id="-712" lat="30.47566" lon="-97.979366" changeset="false"><tag k="addr:street" v="Peacemaker Trail"/><tag k="addr:housenumber" v="20909"/><tag k="addr:postcode" v="78645"/></node><node id="-713" lat="30.47588" lon="-97.979408" changeset="false"><tag k="addr:street" v="Peacemaker Trail"/><tag k="addr:housenumber" v="20911"/><tag k="addr:postcode" v="78645"/></node><node id="-714" lat="30.476003" lon="-97.977693" changeset="false"><tag k="addr:street" v="Dodge Trail"/><tag k="addr:housenumber" v="20809"/><tag k="addr:postcode" v="78645"/></node><node id="-715" lat="30.465978" lon="-97.978753" changeset="false"><tag k="addr:street" v="Post Oak Drive"/><tag k="addr:housenumber" v="20601"/><tag k="addr:postcode" v="78645"/></node><node id="-716" lat="30.467025" lon="-97.983339" changeset="false"><tag k="addr:street" v="Cedar Ridge Court"/><tag k="addr:housenumber" v="7001"/><tag k="addr:postcode" v="78645"/></node><node id="-717" lat="30.461819" lon="-97.985888" changeset="false"><tag k="addr:street" v="Roundup Trail"/><tag k="addr:housenumber" v="20811"/><tag k="addr:postcode" v="78645"/></node><node id="-718" lat="30.468713" lon="-97.995254" changeset="false"><tag k="addr:street" v="Bar K Clubhouse Court"/><tag k="addr:housenumber" v="6702"/><tag k="addr:postcode" v="78645"/></node><node id="-719" lat="30.467881" lon="-97.994825" changeset="false"><tag k="addr:street" v="Bar K Ranch Road"/><tag k="addr:housenumber" v="6701"/><tag k="addr:postcode" v="78645"/></node><node id="-720" lat="30.454172" lon="-97.997628" changeset="false"><tag k="addr:street" v="Canyon Oaks Drive"/><tag k="addr:housenumber" v="5508"/><tag k="addr:postcode" v="78645"/></node><node id="-721" lat="30.475025" lon="-97.978218" changeset="false"><tag k="addr:street" v="Peacemaker Trail"/><tag k="addr:housenumber" v="20813"/><tag k="addr:postcode" v="78645"/></node><node id="-722" lat="30.450709" lon="-98.002276" changeset="false"><tag k="addr:street" v="Canyon Oaks Drive"/><tag k="addr:housenumber" v="5100"/><tag k="addr:postcode" v="78645"/></node><node id="-723" lat="30.450916" lon="-98.002044" changeset="false"><tag k="addr:street" v="Canyon Oaks Drive"/><tag k="addr:housenumber" v="5104"/><tag k="addr:postcode" v="78645"/></node><node id="-724" lat="30.475522" lon="-97.989152" changeset="false"><tag k="addr:street" v="Bar K Ranch Road"/><tag k="addr:housenumber" v="7408"/><tag k="addr:postcode" v="78645"/></node><node id="-725" lat="30.475476" lon="-97.988527" changeset="false"><tag k="addr:street" v="Bar K Ranch Road"/><tag k="addr:housenumber" v="7412"/><tag k="addr:postcode" v="78645"/></node><node id="-726" lat="30.470771" lon="-97.988062" changeset="false"><tag k="addr:street" v="Coyote Trail"/><tag k="addr:housenumber" v="21448"/><tag k="addr:postcode" v="78645"/></node><node id="-727" lat="30.47165" lon="-97.98781" changeset="false"><tag k="addr:street" v="Coyote Trail"/><tag k="addr:housenumber" v="21462"/><tag k="addr:postcode" v="78645"/></node><node id="-728" lat="30.460414" lon="-97.982941" changeset="false"><tag k="addr:street" v="Palo Duro Drive"/><tag k="addr:housenumber" v="20602"/><tag k="addr:postcode" v="78645"/></node><node id="-729" lat="30.47529" lon="-97.977798" changeset="false"><tag k="addr:street" v="Peacemaker Trail"/><tag k="addr:housenumber" v="20808"/><tag k="addr:postcode" v="78645"/></node><node id="-730" lat="30.458298" lon="-97.984118" changeset="false"><tag k="addr:street" v="Park Drive"/><tag k="addr:housenumber" v="20601"/><tag k="addr:postcode" v="78645"/></node><node id="-731" lat="30.45589" lon="-97.982002" changeset="false"><tag k="addr:street" v="Deer Run"/><tag k="addr:housenumber" v="6302"/><tag k="addr:postcode" v="78645"/></node><node id="-732" lat="30.473207" lon="-97.984824" changeset="false"><tag k="addr:street" v="Little Loop"/><tag k="addr:housenumber" v="21201"/><tag k="addr:postcode" v="78645"/></node><node id="-733" lat="30.465593" lon="-97.97827" changeset="false"><tag k="addr:street" v="Agarita Drive"/><tag k="addr:housenumber" v="20504"/><tag k="addr:postcode" v="78645"/></node><node id="-734" lat="30.464147" lon="-97.980174" changeset="false"><tag k="addr:street" v="Redwood Drive"/><tag k="addr:housenumber" v="6804"/><tag k="addr:postcode" v="78645"/></node><node id="-735" lat="30.464699" lon="-97.979445" changeset="false"><tag k="addr:street" v="Redwood Drive"/><tag k="addr:housenumber" v="6904"/><tag k="addr:postcode" v="78645"/></node><node id="-736" lat="30.479651" lon="-97.993759" changeset="false"><tag k="addr:street" v="Surrey Lane"/><tag k="addr:housenumber" v="21813"/><tag k="addr:postcode" v="78645"/></node><node id="-737" lat="30.471454" lon="-97.984391" changeset="false"><tag k="addr:street" v="Northland Drive"/><tag k="addr:housenumber" v="21122"/><tag k="addr:postcode" v="78645"/></node><node id="-738" lat="30.457019" lon="-97.992843" changeset="false"><tag k="addr:street" v="Dawn Drive"/><tag k="addr:housenumber" v="21002"/><tag k="addr:postcode" v="78645"/></node><node id="-739" lat="30.458774" lon="-97.980984" changeset="false"><tag k="addr:street" v="Avenida Ann Drive"/><tag k="addr:housenumber" v="6505"/><tag k="addr:postcode" v="78645"/></node><node id="-740" lat="30.468788" lon="-97.98211" changeset="false"><tag k="addr:street" v="Post Oak Drive"/><tag k="addr:housenumber" v="20808"/><tag k="addr:postcode" v="78645"/></node><node id="-741" lat="30.454876" lon="-97.980728" changeset="false"><tag k="addr:street" v="Dawn Drive"/><tag k="addr:housenumber" v="20204"/><tag k="addr:postcode" v="78645"/></node><node id="-742" lat="30.480882" lon="-97.993633" changeset="false"><tag k="addr:street" v="Stetson Cove"/><tag k="addr:housenumber" v="21903"/><tag k="addr:postcode" v="78645"/></node><node id="-743" lat="30.468712" lon="-97.978209" changeset="false"><tag k="addr:street" v="Spanish Oak Drive"/><tag k="addr:housenumber" v="7400"/><tag k="addr:postcode" v="78645"/></node><node id="-744" lat="30.468974" lon="-97.978223" changeset="false"><tag k="addr:street" v="Spanish Oak Drive"/><tag k="addr:housenumber" v="7402"/><tag k="addr:postcode" v="78645"/></node><node id="-745" lat="30.470564" lon="-97.977713" changeset="false"><tag k="addr:street" v="Northland Drive"/><tag k="addr:housenumber" v="20603"/><tag k="addr:postcode" v="78645"/></node><node id="-746" lat="30.473919" lon="-97.988086" changeset="false"><tag k="addr:street" v="Ridgeview Road"/><tag k="addr:housenumber" v="21401"/><tag k="addr:postcode" v="78645"/></node><node id="-747" lat="30.458572" lon="-97.99189" changeset="false"><tag k="addr:street" v="Dawn Drive"/><tag k="addr:housenumber" v="21010"/><tag k="addr:postcode" v="78645"/></node><node id="-748" lat="30.459796" lon="-97.99065" changeset="false"><tag k="addr:street" v="Dawn Drive"/><tag k="addr:housenumber" v="21016"/><tag k="addr:postcode" v="78645"/></node><node id="-749" lat="30.472793" lon="-97.986598" changeset="false"><tag k="addr:street" v="Coyote Trail"/><tag k="addr:housenumber" v="21477"/><tag k="addr:postcode" v="78645"/></node><node id="-750" lat="30.473026" lon="-97.987104" changeset="false"><tag k="addr:street" v="Coyote Trail"/><tag k="addr:housenumber" v="21481"/><tag k="addr:postcode" v="78645"/></node><node id="-751" lat="30.460678" lon="-97.989888" changeset="false"><tag k="addr:street" v="Dawn Drive"/><tag k="addr:housenumber" v="21022"/><tag k="addr:postcode" v="78645"/></node><node id="-752" lat="30.461962" lon="-97.989911" changeset="false"><tag k="addr:street" v="Dawn Drive"/><tag k="addr:housenumber" v="21030"/><tag k="addr:postcode" v="78645"/></node><node id="-753" lat="30.463656" lon="-97.99001" changeset="false"><tag k="addr:street" v="Park Drive"/><tag k="addr:housenumber" v="21100"/><tag k="addr:postcode" v="78645"/></node><node id="-754" lat="30.459788" lon="-97.987822" changeset="false"><tag k="addr:street" v="Park Drive"/><tag k="addr:housenumber" v="20805"/><tag k="addr:postcode" v="78645"/></node><node id="-755" lat="30.470099" lon="-97.991372" changeset="false"><tag k="addr:street" v="Buckboard Cove"/><tag k="addr:housenumber" v="6901"/><tag k="addr:postcode" v="78645"/></node><node id="-756" lat="30.47275" lon="-97.989253" changeset="false"><tag k="addr:street" v="Cowboy Cove"/><tag k="addr:housenumber" v="7304"/><tag k="addr:postcode" v="78645"/></node><node id="-757" lat="30.472129" lon="-97.989133" changeset="false"><tag k="addr:street" v="Choctaw Cove"/><tag k="addr:housenumber" v="21327"/><tag k="addr:postcode" v="78645"/></node><node id="-758" lat="30.46842" lon="-97.984803" changeset="false"><tag k="addr:street" v="Post Oak Drive"/><tag k="addr:housenumber" v="21003"/><tag k="addr:postcode" v="78645"/></node><node id="-759" lat="30.468033" lon="-97.984055" changeset="false"><tag k="addr:street" v="Live Oak Drive"/><tag k="addr:housenumber" v="7019"/><tag k="addr:postcode" v="78645"/></node><node id="-760" lat="30.462756" lon="-97.982283" changeset="false"><tag k="addr:street" v="Avenida Ann Drive"/><tag k="addr:housenumber" v="6703"/><tag k="addr:postcode" v="78645"/></node><node id="-761" lat="30.46025" lon="-97.987604" changeset="false"><tag k="addr:street" v="Park Drive"/><tag k="addr:housenumber" v="20804"/><tag k="addr:postcode" v="78645"/></node><node id="-762" lat="30.462608" lon="-97.989039" changeset="false"><tag k="addr:street" v="Park Drive"/><tag k="addr:housenumber" v="21004"/><tag k="addr:postcode" v="78645"/></node><node id="-763" lat="30.466505" lon="-97.978419" changeset="false"><tag k="addr:street" v="Post Oak Drive"/><tag k="addr:housenumber" v="20502"/><tag k="addr:postcode" v="78645"/></node><node id="-764" lat="30.466066" lon="-97.988479" changeset="false"><tag k="addr:street" v="Brewer Lane"/><tag k="addr:housenumber" v="21109"/><tag k="addr:postcode" v="78645"/></node><node id="-765" lat="30.45791" lon="-97.995025" changeset="false"><tag k="addr:street" v="Camille Court"/><tag k="addr:housenumber" v="5901"/><tag k="addr:postcode" v="78645"/></node><node id="-766" lat="30.465979" lon="-97.984742" changeset="false"><tag k="addr:street" v="Cedar Ridge Drive"/><tag k="addr:housenumber" v="6916"/><tag k="addr:postcode" v="78645"/></node><node id="-767" lat="30.466819" lon="-97.988452" changeset="false"><tag k="addr:street" v="Brewer Lane"/><tag k="addr:housenumber" v="21104"/><tag k="addr:postcode" v="78645"/></node><node id="-768" lat="30.466293" lon="-97.981029" changeset="false"><tag k="addr:street" v="Live Oak Drive"/><tag k="addr:housenumber" v="6907"/><tag k="addr:postcode" v="78645"/></node><node id="-769" lat="30.468901" lon="-97.986039" changeset="false"><tag k="addr:street" v="Post Oak Drive"/><tag k="addr:housenumber" v="21010"/><tag k="addr:postcode" v="78645"/></node><node id="-770" lat="30.471151" lon="-97.98839" changeset="false"><tag k="addr:street" v="Comstock Cove"/><tag k="addr:housenumber" v="7115"/><tag k="addr:postcode" v="78645"/></node><node id="-771" lat="30.471488" lon="-97.988323" changeset="false"><tag k="addr:street" v="Comstock Cove"/><tag k="addr:housenumber" v="7205"/><tag k="addr:postcode" v="78645"/></node><node id="-772" lat="30.471385" lon="-97.989123" changeset="false"><tag k="addr:street" v="Comstock Cove"/><tag k="addr:housenumber" v="7206"/><tag k="addr:postcode" v="78645"/></node><node id="-773" lat="30.462607" lon="-97.986633" changeset="false"><tag k="addr:street" v="Roundup Trail"/><tag k="addr:housenumber" v="20908"/><tag k="addr:postcode" v="78645"/></node><node id="-774" lat="30.47034" lon="-97.991773" changeset="false"><tag k="addr:street" v="Buckboard Cove"/><tag k="addr:housenumber" v="6902"/><tag k="addr:postcode" v="78645"/></node><node id="-775" lat="30.470628" lon="-97.992264" changeset="false"><tag k="addr:street" v="Bar K Ranch Road"/><tag k="addr:housenumber" v="6905"/><tag k="addr:postcode" v="78645"/></node><node id="-776" lat="30.468959" lon="-97.993534" changeset="false"><tag k="addr:street" v="Bar K Ranch Road"/><tag k="addr:housenumber" v="6712"/><tag k="addr:postcode" v="78645"/></node><node id="-777" lat="30.469161" lon="-97.995201" changeset="false"><tag k="addr:street" v="Bar K Clubhouse Court"/><tag k="addr:housenumber" v="6706"/><tag k="addr:postcode" v="78645"/></node><node id="-778" lat="30.469639" lon="-97.994751" changeset="false"><tag k="addr:street" v="Bar K Clubhouse Court"/><tag k="addr:housenumber" v="6711"/><tag k="addr:postcode" v="78645"/></node><node id="-779" lat="30.476711" lon="-97.986562" changeset="false"><tag k="addr:street" v="Surrey Lane"/><tag k="addr:housenumber" v="21401"/><tag k="addr:postcode" v="78645"/></node><node id="-780" lat="30.476917" lon="-97.987826" changeset="false"><tag k="addr:street" v="Surrey Lane"/><tag k="addr:housenumber" v="21501"/><tag k="addr:postcode" v="78645"/></node><node id="-781" lat="30.476253" lon="-97.987207" changeset="false"><tag k="addr:street" v="Horseshoe Loop"/><tag k="addr:housenumber" v="21402"/><tag k="addr:postcode" v="78645"/></node><node id="-782" lat="30.464706" lon="-97.980166" changeset="false"><tag k="addr:street" v="Agarita Drive"/><tag k="addr:housenumber" v="20615"/><tag k="addr:postcode" v="78645"/></node><node id="-783" lat="30.473301" lon="-97.992768" changeset="false"><tag k="addr:street" v="Cowpoke Trail"/><tag k="addr:housenumber" v="7106"/><tag k="addr:postcode" v="78645"/></node><node id="-784" lat="30.469426" lon="-97.991457" changeset="false"><tag k="addr:street" v="Buckboard Cove"/><tag k="addr:housenumber" v="6801"/><tag k="addr:postcode" v="78645"/></node><node id="-785" lat="30.46557" lon="-97.980532" changeset="false"><tag k="addr:street" v="Agarita Drive"/><tag k="addr:housenumber" v="20608"/><tag k="addr:postcode" v="78645"/></node><node id="-786" lat="30.471188" lon="-97.987156" changeset="false"><tag k="addr:street" v="Coyote Trail"/><tag k="addr:housenumber" v="21467"/><tag k="addr:postcode" v="78645"/></node><node id="-787" lat="30.462485" lon="-97.985884" changeset="false"><tag k="addr:street" v="Roundup Trail"/><tag k="addr:housenumber" v="20810"/><tag k="addr:postcode" v="78645"/></node><node id="-788" lat="30.461474" lon="-97.98464" changeset="false"><tag k="addr:street" v="Fawn Circle"/><tag k="addr:housenumber" v="20705"/><tag k="addr:postcode" v="78645"/></node><node id="-789" lat="30.465526" lon="-97.984197" changeset="false"><tag k="addr:street" v="Cedar Ridge Circle"/><tag k="addr:housenumber" v="6802"/><tag k="addr:postcode" v="78645"/></node><node id="-790" lat="30.465762" lon="-97.986758" changeset="false"><tag k="addr:street" v="Fawn Ridge Drive"/><tag k="addr:housenumber" v="21006"/><tag k="addr:postcode" v="78645"/></node><node id="-791" lat="30.465818" lon="-97.982871" changeset="false"><tag k="addr:street" v="Cedar Ridge Drive"/><tag k="addr:housenumber" v="6902"/><tag k="addr:postcode" v="78645"/></node><node id="-792" lat="30.460145" lon="-97.99332" changeset="false"><tag k="addr:street" v="Camille Court"/><tag k="addr:housenumber" v="6201"/><tag k="addr:postcode" v="78645"/></node><node id="-793" lat="30.464686" lon="-97.985011" changeset="false"><tag k="addr:street" v="Fawn Ridge Drive"/><tag k="addr:housenumber" v="20812"/><tag k="addr:postcode" v="78645"/></node><node id="-794" lat="30.464511" lon="-97.984428" changeset="false"><tag k="addr:street" v="Fawn Ridge Drive"/><tag k="addr:housenumber" v="20806"/><tag k="addr:postcode" v="78645"/></node><node id="-795" lat="30.470196" lon="-97.990059" changeset="false"><tag k="addr:street" v="Pioneer Cove"/><tag k="addr:housenumber" v="21300"/><tag k="addr:postcode" v="78645"/></node><node id="-796" lat="30.465637" lon="-97.982224" changeset="false"><tag k="addr:street" v="Cedar Ridge Drive"/><tag k="addr:housenumber" v="6901"/><tag k="addr:postcode" v="78645"/></node><node id="-797" lat="30.473151" lon="-97.987345" changeset="false"><tag k="addr:street" v="Coyote Trail"/><tag k="addr:housenumber" v="21483"/><tag k="addr:postcode" v="78645"/></node><node id="-798" lat="30.461321" lon="-97.989707" changeset="false"><tag k="addr:street" v="Dawn Drive"/><tag k="addr:housenumber" v="21026"/><tag k="addr:postcode" v="78645"/></node><node id="-799" lat="30.458372" lon="-97.980725" changeset="false"><tag k="addr:street" v="Avenida Ann Drive"/><tag k="addr:housenumber" v="6501"/><tag k="addr:postcode" v="78645"/></node><node id="-800" lat="30.470407" lon="-97.987517" changeset="false"><tag k="addr:street" v="Coyote Trail"/><tag k="addr:housenumber" v="21463"/><tag k="addr:postcode" v="78645"/></node><node id="-801" lat="30.467495" lon="-97.980177" changeset="false"><tag k="addr:street" v="Post Oak Drive"/><tag k="addr:housenumber" v="20702"/><tag k="addr:postcode" v="78645"/></node><node id="-802" lat="30.478501" lon="-97.991963" changeset="false"><tag k="addr:street" v="Surrey Lane"/><tag k="addr:housenumber" v="21707"/><tag k="addr:postcode" v="78645"/></node><node id="-803" lat="30.468699" lon="-97.988675" changeset="false"><tag k="addr:street" v="Pinto Cove"/><tag k="addr:housenumber" v="6901"/><tag k="addr:postcode" v="78645"/></node><node id="-804" lat="30.472097" lon="-97.988855" changeset="false"><tag k="addr:street" v="Choctaw Cove"/><tag k="addr:housenumber" v="21323"/><tag k="addr:postcode" v="78645"/></node><node id="-805" lat="30.473152" lon="-97.988498" changeset="false"><tag k="addr:street" v="Coyote Trail"/><tag k="addr:housenumber" v="21508"/><tag k="addr:postcode" v="78645"/></node><node id="-806" lat="30.472616" lon="-97.987243" changeset="false"><tag k="addr:street" v="Coyote Trail"/><tag k="addr:housenumber" v="21488"/><tag k="addr:postcode" v="78645"/></node><node id="-807" lat="30.458572" lon="-97.98245" changeset="false"><tag k="addr:street" v="Deer Run"/><tag k="addr:housenumber" v="6501"/><tag k="addr:postcode" v="78645"/></node><node id="-808" lat="30.473693" lon="-97.992312" changeset="false"><tag k="addr:street" v="Cowpoke Trail"/><tag k="addr:housenumber" v="7212"/><tag k="addr:postcode" v="78645"/></node><node id="-809" lat="30.472045" lon="-97.98395" changeset="false"><tag k="addr:street" v="Northland Drive"/><tag k="addr:housenumber" v="21113"/><tag k="addr:postcode" v="78645"/></node><node id="-810" lat="30.473579" lon="-97.980451" changeset="false"><tag k="addr:street" v="White Oak Drive"/><tag k="addr:housenumber" v="7603"/><tag k="addr:postcode" v="78645"/></node><node id="-811" lat="30.448638" lon="-98.006269" changeset="false"><tag k="addr:street" v="Lakefront Drive"/><tag k="addr:housenumber" v="21563"/><tag k="addr:postcode" v="78645"/></node><node id="-812" lat="30.47178" lon="-97.984807" changeset="false"><tag k="addr:street" v="Ridgeview Road"/><tag k="addr:housenumber" v="21108"/><tag k="addr:postcode" v="78645"/></node><node id="-813" lat="30.472837" lon="-97.984852" changeset="false"><tag k="addr:street" v="Ridgeview Road"/><tag k="addr:housenumber" v="21116"/><tag k="addr:postcode" v="78645"/></node><node id="-814" lat="30.481362" lon="-97.993587" changeset="false"><tag k="addr:street" v="Stetson Cove"/><tag k="addr:housenumber" v="21904"/><tag k="addr:postcode" v="78645"/></node><node id="-815" lat="30.458151" lon="-97.98391" changeset="false"><tag k="addr:street" v="Park Drive"/><tag k="addr:housenumber" v="20511"/><tag k="addr:postcode" v="78645"/></node><node id="-816" lat="30.465485" lon="-97.983525" changeset="false"><tag k="addr:street" v="Cedar Ridge Circle"/><tag k="addr:housenumber" v="6803"/><tag k="addr:postcode" v="78645"/></node><node id="-817" lat="30.468895" lon="-97.988489" changeset="false"><tag k="addr:street" v="Pinto Cove"/><tag k="addr:housenumber" v="6903"/><tag k="addr:postcode" v="78645"/></node><node id="-818" lat="30.460519" lon="-97.982177" changeset="false"><tag k="addr:street" v="Avenida Ann Drive"/><tag k="addr:housenumber" v="6603"/><tag k="addr:postcode" v="78645"/></node><node id="-819" lat="30.454865" lon="-97.988388" changeset="false"><tag k="addr:street" v="Dawn Drive"/><tag k="addr:housenumber" v="20700"/><tag k="addr:postcode" v="78645"/></node><node id="-820" lat="30.464108" lon="-97.98392" changeset="false"><tag k="addr:street" v="Fawn Ridge Drive"/><tag k="addr:housenumber" v="20803"/><tag k="addr:postcode" v="78645"/></node><node id="-821" lat="30.464881" lon="-97.98688" changeset="false"><tag k="addr:street" v="Fawn Ridge Drive"/><tag k="addr:housenumber" v="20915"/><tag k="addr:postcode" v="78645"/></node><node id="-822" lat="30.45468" lon="-97.981235" changeset="false"><tag k="addr:street" v="Dawn Drive"/><tag k="addr:housenumber" v="20208"/><tag k="addr:postcode" v="78645"/></node><node id="-823" lat="30.462499" lon="-97.98743" changeset="false"><tag k="addr:street" v="Roundup Trail"/><tag k="addr:housenumber" v="20909"/><tag k="addr:postcode" v="78645"/></node><node id="-824" lat="30.460964" lon="-97.98612" changeset="false"><tag k="addr:street" v="Roundup Trail"/><tag k="addr:housenumber" v="20819"/><tag k="addr:postcode" v="78645"/></node><node id="-825" lat="30.474538" lon="-97.990466" changeset="false"><tag k="addr:street" v="Coyote Trail"/><tag k="addr:housenumber" v="21517"/><tag k="addr:postcode" v="78645"/></node><node id="-826" lat="30.463786" lon="-97.983232" changeset="false"><tag k="addr:street" v="Deede Drive"/><tag k="addr:housenumber" v="20710"/><tag k="addr:postcode" v="78645"/></node><node id="-827" lat="30.475693" lon="-97.983491" changeset="false"><tag k="addr:street" v="Dodge Trail"/><tag k="addr:housenumber" v="21201"/><tag k="addr:postcode" v="78645"/></node><node id="-828" lat="30.475815" lon="-97.984172" changeset="false"><tag k="addr:street" v="Dodge Trail"/><tag k="addr:housenumber" v="21203"/><tag k="addr:postcode" v="78645"/></node><node id="-829" lat="30.469181" lon="-97.978357" changeset="false"><tag k="addr:street" v="Spanish Oak Drive"/><tag k="addr:housenumber" v="7404"/><tag k="addr:postcode" v="78645"/></node><node id="-830" lat="30.469514" lon="-97.978824" changeset="false"><tag k="addr:street" v="Spanish Oak Drive"/><tag k="addr:housenumber" v="7408"/><tag k="addr:postcode" v="78645"/></node><node id="-831" lat="30.469279" lon="-97.979318" changeset="false"><tag k="addr:street" v="Ridgeview Road"/><tag k="addr:housenumber" v="20704"/><tag k="addr:postcode" v="78645"/></node><node id="-832" lat="30.472841" lon="-97.97823" changeset="false"><tag k="addr:street" v="Northland Drive"/><tag k="addr:housenumber" v="20802"/><tag k="addr:postcode" v="78645"/></node><node id="-833" lat="30.457553" lon="-97.99283" changeset="false"><tag k="addr:street" v="Dawn Drive"/><tag k="addr:housenumber" v="21004"/><tag k="addr:postcode" v="78645"/></node><node id="-834" lat="30.475058" lon="-97.9916" changeset="false"><tag k="addr:street" v="Coyote Trail"/><tag k="addr:housenumber" v="21611"/><tag k="addr:postcode" v="78645"/></node><node id="-835" lat="30.471048" lon="-97.98649" changeset="false"><tag k="addr:street" v="Deepwood Drive"/><tag k="addr:housenumber" v="7204"/><tag k="addr:postcode" v="78645"/></node><node id="-836" lat="30.471367" lon="-97.978672" changeset="false"><tag k="addr:street" v="Northland Drive"/><tag k="addr:housenumber" v="20705"/><tag k="addr:postcode" v="78645"/></node><node id="-837" lat="30.471222" lon="-97.97978" changeset="false"><tag k="addr:street" v="Oak Hill Lane"/><tag k="addr:housenumber" v="20805"/><tag k="addr:postcode" v="78645"/></node><node id="-838" lat="30.474259" lon="-97.988854" changeset="false"><tag k="addr:street" v="Ridgeview Circle"/><tag k="addr:housenumber" v="21403"/><tag k="addr:postcode" v="78645"/></node><node id="-839" lat="30.454555" lon="-97.984245" changeset="false"><tag k="addr:street" v="Pokealong Path"/><tag k="addr:housenumber" v="6103"/><tag k="addr:postcode" v="78645"/></node><node id="-840" lat="30.454337" lon="-97.982652" changeset="false"><tag k="addr:street" v="Pokealong Path"/><tag k="addr:housenumber" v="6201"/><tag k="addr:postcode" v="78645"/></node><node id="-841" lat="30.44894" lon="-98.008176" changeset="false"><tag k="addr:street" v="Lookout Point"/><tag k="addr:housenumber" v="21600"/><tag k="addr:postcode" v="78645"/></node><node id="-842" lat="30.473277" lon="-97.982595" changeset="false"><tag k="addr:street" v="White Oak Drive"/><tag k="addr:housenumber" v="7613"/><tag k="addr:postcode" v="78645"/></node><node id="-843" lat="30.460527" lon="-97.983252" changeset="false"><tag k="addr:street" v="Palo Duro Drive"/><tag k="addr:housenumber" v="20604"/><tag k="addr:postcode" v="78645"/></node><node id="-844" lat="30.468962" lon="-97.990591" changeset="false"><tag k="addr:street" v="Broken Bow Cove"/><tag k="addr:housenumber" v="21300"/><tag k="addr:postcode" v="78645"/></node><node id="-845" lat="30.469134" lon="-97.991262" changeset="false"><tag k="addr:street" v="Broken Bow Cove"/><tag k="addr:housenumber" v="21306"/><tag k="addr:postcode" v="78645"/></node><node id="-846" lat="30.469131" lon="-97.991963" changeset="false"><tag k="addr:street" v="Broken Bow Cove"/><tag k="addr:housenumber" v="21402"/><tag k="addr:postcode" v="78645"/></node><node id="-847" lat="30.472" lon="-97.987272" changeset="false"><tag k="addr:street" v="Coyote Trail"/><tag k="addr:housenumber" v="21472"/><tag k="addr:postcode" v="78645"/></node><node id="-848" lat="30.459445" lon="-97.986938" changeset="false"><tag k="addr:street" v="Park Drive"/><tag k="addr:housenumber" v="20801"/><tag k="addr:postcode" v="78645"/></node><node id="-849" lat="30.468007" lon="-97.981869" changeset="false"><tag k="addr:street" v="Post Oak Drive"/><tag k="addr:housenumber" v="20802"/><tag k="addr:postcode" v="78645"/></node><node id="-850" lat="30.468287" lon="-97.981949" changeset="false"><tag k="addr:street" v="Post Oak Drive"/><tag k="addr:housenumber" v="20804"/><tag k="addr:postcode" v="78645"/></node><node id="-851" lat="30.463438" lon="-97.980099" changeset="false"><tag k="addr:street" v="Redwood Drive"/><tag k="addr:housenumber" v="6801"/><tag k="addr:postcode" v="78645"/></node><node id="-852" lat="30.46371" lon="-97.980047" changeset="false"><tag k="addr:street" v="Redwood Drive"/><tag k="addr:housenumber" v="6803"/><tag k="addr:postcode" v="78645"/></node><node id="-853" lat="30.464528" lon="-97.979685" changeset="false"><tag k="addr:street" v="Redwood Drive"/><tag k="addr:housenumber" v="6902"/><tag k="addr:postcode" v="78645"/></node><node id="-854" lat="30.471463" lon="-97.986168" changeset="false"><tag k="addr:street" v="Deepwood Drive"/><tag k="addr:housenumber" v="7302"/><tag k="addr:postcode" v="78645"/></node><node id="-855" lat="30.478257" lon="-97.991527" changeset="false"><tag k="addr:street" v="Surrey Lane"/><tag k="addr:housenumber" v="21703"/><tag k="addr:postcode" v="78645"/></node><node id="-856" lat="30.479906" lon="-97.99417" changeset="false"><tag k="addr:street" v="Surrey Lane"/><tag k="addr:housenumber" v="21817"/><tag k="addr:postcode" v="78645"/></node><node id="-857" lat="30.477772" lon="-97.990702" changeset="false"><tag k="addr:street" v="Surrey Lane"/><tag k="addr:housenumber" v="21607"/><tag k="addr:postcode" v="78645"/></node><node id="-858" lat="30.477894" lon="-97.990894" changeset="false"><tag k="addr:street" v="Surrey Lane"/><tag k="addr:housenumber" v="21609"/><tag k="addr:postcode" v="78645"/></node><node id="-859" lat="30.477246" lon="-97.989717" changeset="false"><tag k="addr:street" v="Surrey Lane"/><tag k="addr:housenumber" v="21515"/><tag k="addr:postcode" v="78645"/></node><node id="-860" lat="30.459801" lon="-97.99512" changeset="false"><tag k="addr:street" v="Lakeshore Drive"/><tag k="addr:housenumber" v="6005"/><tag k="addr:postcode" v="78645"/></node><node id="-861" lat="30.472645" lon="-97.989301" changeset="false"><tag k="addr:street" v="Cowboy Cove"/><tag k="addr:housenumber" v="7302"/><tag k="addr:postcode" v="78645"/></node><node id="-862" lat="30.472955" lon="-97.989113" changeset="false"><tag k="addr:street" v="Cowboy Cove"/><tag k="addr:housenumber" v="7308"/><tag k="addr:postcode" v="78645"/></node><node id="-863" lat="30.473412" lon="-97.989084" changeset="false"><tag k="addr:street" v="Coyote Trail"/><tag k="addr:housenumber" v="21518"/><tag k="addr:postcode" v="78645"/></node><node id="-864" lat="30.473099" lon="-97.988378" changeset="false"><tag k="addr:street" v="Coyote Trail"/><tag k="addr:housenumber" v="21506"/><tag k="addr:postcode" v="78645"/></node><node id="-865" lat="30.473271" lon="-97.988725" changeset="false"><tag k="addr:street" v="Coyote Trail"/><tag k="addr:housenumber" v="21512"/><tag k="addr:postcode" v="78645"/></node><node id="-866" lat="30.468259" lon="-97.980448" changeset="false"><tag k="addr:street" v="White Oak Drive"/><tag k="addr:housenumber" v="7308"/><tag k="addr:postcode" v="78645"/></node><node id="-867" lat="30.472442" lon="-97.98047" changeset="false"><tag k="addr:street" v="White Oak Drive"/><tag k="addr:housenumber" v="7502"/><tag k="addr:postcode" v="78645"/></node><node id="-868" lat="30.453905" lon="-97.982704" changeset="false"><tag k="addr:street" v="Dawn Drive"/><tag k="addr:housenumber" v="20306"/><tag k="addr:postcode" v="78645"/></node><node id="-869" lat="30.47287" lon="-97.98584" changeset="false"><tag k="addr:street" v="Ridgeview Road"/><tag k="addr:housenumber" v="21201"/><tag k="addr:postcode" v="78645"/></node><node id="-870" lat="30.473241" lon="-97.986643" changeset="false"><tag k="addr:street" v="Ridgeview Road"/><tag k="addr:housenumber" v="21207"/><tag k="addr:postcode" v="78645"/></node><node id="-871" lat="30.467569" lon="-97.983203" changeset="false"><tag k="addr:street" v="Live Oak Drive"/><tag k="addr:housenumber" v="7008"/><tag k="addr:postcode" v="78645"/></node><node id="-872" lat="30.467472" lon="-97.98416" changeset="false"><tag k="addr:street" v="Live Oak Drive"/><tag k="addr:housenumber" v="7014"/><tag k="addr:postcode" v="78645"/></node><node id="-873" lat="30.467126" lon="-97.984661" changeset="false"><tag k="addr:street" v="Live Oak Drive"/><tag k="addr:housenumber" v="7018"/><tag k="addr:postcode" v="78645"/></node><node id="-874" lat="30.467614" lon="-97.983524" changeset="false"><tag k="addr:street" v="Live Oak Drive"/><tag k="addr:housenumber" v="7010"/><tag k="addr:postcode" v="78645"/></node><node id="-875" lat="30.465027" lon="-97.982367" changeset="false"><tag k="addr:street" v="Cedar Ridge Drive"/><tag k="addr:housenumber" v="6803"/><tag k="addr:postcode" v="78645"/></node><node id="-876" lat="30.466024" lon="-97.978119" changeset="false"><tag k="addr:street" v="Post Oak Drive"/><tag k="addr:housenumber" v="20505"/><tag k="addr:postcode" v="78645"/></node><node id="-877" lat="30.467322" lon="-97.980824" changeset="false"><tag k="addr:street" v="Post Oak Drive"/><tag k="addr:housenumber" v="20705"/><tag k="addr:postcode" v="78645"/></node><node id="-878" lat="30.468423" lon="-97.985766" changeset="false"><tag k="addr:street" v="Post Oak Drive"/><tag k="addr:housenumber" v="21009"/><tag k="addr:postcode" v="78645"/></node><node id="-879" lat="30.468568" lon="-97.982707" changeset="false"><tag k="addr:street" v="Post Oak Drive"/><tag k="addr:housenumber" v="20809"/><tag k="addr:postcode" v="78645"/></node><node id="-880" lat="30.467544" lon="-97.985495" changeset="false"><tag k="addr:street" v="Live Oak Circle"/><tag k="addr:housenumber" v="6902"/><tag k="addr:postcode" v="78645"/></node><node id="-881" lat="30.467553" lon="-97.984817" changeset="false"><tag k="addr:street" v="Live Oak Circle"/><tag k="addr:housenumber" v="6901"/><tag k="addr:postcode" v="78645"/></node><node id="-882" lat="30.46798" lon="-97.982927" changeset="false"><tag k="addr:street" v="Live Oak Drive"/><tag k="addr:housenumber" v="7011"/><tag k="addr:postcode" v="78645"/></node><node id="-883" lat="30.461215" lon="-97.98479" changeset="false"><tag k="addr:street" v="Palo Duro Drive"/><tag k="addr:housenumber" v="20704"/><tag k="addr:postcode" v="78645"/></node><node id="-884" lat="30.461328" lon="-97.985696" changeset="false"><tag k="addr:street" v="Palo Duro Drive"/><tag k="addr:housenumber" v="20801"/><tag k="addr:postcode" v="78645"/></node><node id="-885" lat="30.458346" lon="-97.982269" changeset="false"><tag k="addr:street" v="Deer Run"/><tag k="addr:housenumber" v="6409"/><tag k="addr:postcode" v="78645"/></node><node id="-886" lat="30.473949" lon="-97.991987" changeset="false"><tag k="addr:street" v="Cowpoke Trail"/><tag k="addr:housenumber" v="7302"/><tag k="addr:postcode" v="78645"/></node><node id="-887" lat="30.453675" lon="-97.985832" changeset="false"><tag k="addr:street" v="Dawn Drive"/><tag k="addr:housenumber" v="20502"/><tag k="addr:postcode" v="78645"/></node><node id="-888" lat="30.453862" lon="-97.986271" changeset="false"><tag k="addr:street" v="Dawn Drive"/><tag k="addr:housenumber" v="20506"/><tag k="addr:postcode" v="78645"/></node><node id="-889" lat="30.449068" lon="-97.999377" changeset="false"><tag k="addr:street" v="Country Club Drive"/><tag k="addr:housenumber" v="5002"/><tag k="addr:postcode" v="78645"/></node><node id="-890" lat="30.463456" lon="-97.992202" changeset="false"><tag k="addr:street" v="Park Drive"/><tag k="addr:housenumber" v="21202"/><tag k="addr:postcode" v="78645"/></node><node id="-891" lat="30.461676" lon="-97.982731" changeset="false"><tag k="addr:street" v="Avenida Ann Drive"/><tag k="addr:housenumber" v="6608"/><tag k="addr:postcode" v="78645"/></node><node id="-892" lat="30.471648" lon="-97.982419" changeset="false"><tag k="addr:street" v="Little Lane"/><tag k="addr:housenumber" v="21000"/><tag k="addr:postcode" v="78645"/></node><node id="-893" lat="30.47091" lon="-97.981501" changeset="false"><tag k="addr:street" v="Little Lane"/><tag k="addr:housenumber" v="20903"/><tag k="addr:postcode" v="78645"/></node><node id="-894" lat="30.475918" lon="-97.978472" changeset="false"><tag k="addr:street" v="Dodge Trail"/><tag k="addr:housenumber" v="20901"/><tag k="addr:postcode" v="78645"/></node><node id="-895" lat="30.464036" lon="-97.987644" changeset="false"><tag k="addr:street" v="Deede Drive"/><tag k="addr:housenumber" v="21001"/><tag k="addr:postcode" v="78645"/></node><node id="-896" lat="30.45897" lon="-97.981132" changeset="false"><tag k="addr:street" v="Avenida Ann Drive"/><tag k="addr:housenumber" v="6507"/><tag k="addr:postcode" v="78645"/></node><node id="-897" lat="30.459337" lon="-97.981388" changeset="false"><tag k="addr:street" v="Avenida Ann Drive"/><tag k="addr:housenumber" v="6511"/><tag k="addr:postcode" v="78645"/></node><node id="-898" lat="30.466689" lon="-97.986103" changeset="false"><tag k="addr:street" v="Deepwood Drive"/><tag k="addr:housenumber" v="6806"/><tag k="addr:postcode" v="78645"/></node><node id="-899" lat="30.466994" lon="-97.986575" changeset="false"><tag k="addr:street" v="Brewer Lane"/><tag k="addr:housenumber" v="21001"/><tag k="addr:postcode" v="78645"/></node><node id="-900" lat="30.467681" lon="-97.980375" changeset="false"><tag k="addr:street" v="Post Oak Drive"/><tag k="addr:housenumber" v="20704"/><tag k="addr:postcode" v="78645"/></node><node id="-901" lat="30.46794" lon="-97.981225" changeset="false"><tag k="addr:street" v="Post Oak Drive"/><tag k="addr:housenumber" v="20710"/><tag k="addr:postcode" v="78645"/></node><node id="-902" lat="30.470104" lon="-97.978794" changeset="false"><tag k="addr:street" v="Spanish Oak Drive"/><tag k="addr:housenumber" v="7413"/><tag k="addr:postcode" v="78645"/></node><node id="-903" lat="30.475279" lon="-97.980517" changeset="false"><tag k="addr:street" v="Northland Drive"/><tag k="addr:housenumber" v="20908"/><tag k="addr:postcode" v="78645"/></node><node id="-904" lat="30.4752" lon="-97.978526" changeset="false"><tag k="addr:street" v="Peacemaker Trail"/><tag k="addr:housenumber" v="20901"/><tag k="addr:postcode" v="78645"/></node><node id="-905" lat="30.468468" lon="-97.993424" changeset="false"><tag k="addr:street" v="Bar K Ranch Road"/><tag k="addr:housenumber" v="6713"/><tag k="addr:postcode" v="78645"/></node><node id="-906" lat="30.466666" lon="-97.988592" changeset="false"><tag k="addr:street" v="Brewer Lane"/><tag k="addr:housenumber" v="21106"/><tag k="addr:postcode" v="78645"/></node><node id="-907" lat="30.468911" lon="-97.985436" changeset="false"><tag k="addr:street" v="Post Oak Drive"/><tag k="addr:housenumber" v="21006"/><tag k="addr:postcode" v="78645"/></node><node id="-908" lat="30.460553" lon="-97.987928" changeset="false"><tag k="addr:street" v="South Shady Lane"/><tag k="addr:housenumber" v="6405"/><tag k="addr:postcode" v="78645"/></node><node id="-909" lat="30.462831" lon="-97.987174" changeset="false"><tag k="addr:street" v="South Shady Lane"/><tag k="addr:housenumber" v="6608"/><tag k="addr:postcode" v="78645"/></node><node id="-910" lat="30.468645" lon="-97.990943" changeset="false"><tag k="addr:street" v="Broken Bow Cove"/><tag k="addr:housenumber" v="21301"/><tag k="addr:postcode" v="78645"/></node><node id="-911" lat="30.465991" lon="-97.978442" changeset="false"><tag k="addr:street" v="Post Oak Drive"/><tag k="addr:housenumber" v="20507"/><tag k="addr:postcode" v="78645"/></node><node id="-912" lat="30.467044" lon="-97.981358" changeset="false"><tag k="addr:street" v="Live Oak Drive"/><tag k="addr:housenumber" v="6913"/><tag k="addr:postcode" v="78645"/></node><node id="-913" lat="30.463054" lon="-97.98332" changeset="false"><tag k="addr:street" v="Deede Drive"/><tag k="addr:housenumber" v="20707"/><tag k="addr:postcode" v="78645"/></node><node id="-914" lat="30.463335" lon="-97.983437" changeset="false"><tag k="addr:street" v="Deede Drive"/><tag k="addr:housenumber" v="20709"/><tag k="addr:postcode" v="78645"/></node><node id="-915" lat="30.464938" lon="-97.980052" changeset="false"><tag k="addr:street" v="Agarita Drive"/><tag k="addr:housenumber" v="20613"/><tag k="addr:postcode" v="78645"/></node><node id="-916" lat="30.47081" lon="-97.987427" changeset="false"><tag k="addr:street" v="Coyote Trail"/><tag k="addr:housenumber" v="21465"/><tag k="addr:postcode" v="78645"/></node><node id="-917" lat="30.47138" lon="-97.98835" changeset="false"><tag k="addr:street" v="Comstock Cove"/><tag k="addr:housenumber" v="7203"/><tag k="addr:postcode" v="78645"/></node><node id="-918" lat="30.471764" lon="-97.988532" changeset="false"><tag k="addr:street" v="Comstock Cove"/><tag k="addr:housenumber" v="7211"/><tag k="addr:postcode" v="78645"/></node><node id="-919" lat="30.462564" lon="-97.984687" changeset="false"><tag k="addr:street" v="Roundup Trail"/><tag k="addr:housenumber" v="20800"/><tag k="addr:postcode" v="78645"/></node><node id="-920" lat="30.476839" lon="-97.987313" changeset="false"><tag k="addr:street" v="Surrey Lane"/><tag k="addr:housenumber" v="21407"/><tag k="addr:postcode" v="78645"/></node><node id="-921" lat="30.475914" lon="-97.988423" changeset="false"><tag k="addr:street" v="Horseshoe Loop"/><tag k="addr:housenumber" v="21407"/><tag k="addr:postcode" v="78645"/></node><node id="-922" lat="30.474979" lon="-97.982097" changeset="false"><tag k="addr:street" v="Northland Drive"/><tag k="addr:housenumber" v="21004"/><tag k="addr:postcode" v="78645"/></node><node id="-923" lat="30.455088" lon="-97.981868" changeset="false"><tag k="addr:street" v="Pokealong Path"/><tag k="addr:housenumber" v="6206"/><tag k="addr:postcode" v="78645"/></node><node id="-924" lat="30.473834" lon="-97.984892" changeset="false"><tag k="addr:street" v="Little Loop"/><tag k="addr:housenumber" v="21104"/><tag k="addr:postcode" v="78645"/></node><node id="-925" lat="30.461682" lon="-97.986966" changeset="false"><tag k="addr:street" v="Roundup Trail"/><tag k="addr:housenumber" v="20900"/><tag k="addr:postcode" v="78645"/></node><node id="-926" lat="30.465455" lon="-97.97902" changeset="false"><tag k="addr:street" v="Agarita Drive"/><tag k="addr:housenumber" v="20508"/><tag k="addr:postcode" v="78645"/></node><node id="-927" lat="30.465468" lon="-97.979352" changeset="false"><tag k="addr:street" v="Agarita Drive"/><tag k="addr:housenumber" v="20600"/><tag k="addr:postcode" v="78645"/></node><node id="-928" lat="30.476143" lon="-97.976708" changeset="false"><tag k="addr:street" v="Dodge Trail"/><tag k="addr:housenumber" v="20801"/><tag k="addr:postcode" v="78645"/></node><node id="-929" lat="30.469783" lon="-97.984978" changeset="false"><tag k="addr:street" v="Ridgeview Loop"/><tag k="addr:housenumber" v="21002"/><tag k="addr:postcode" v="78645"/></node><node id="-930" lat="30.47127" lon="-97.98474" changeset="false"><tag k="addr:street" v="Ridgeview Road"/><tag k="addr:housenumber" v="21104"/><tag k="addr:postcode" v="78645"/></node><node id="-931" lat="30.469252" lon="-97.985306" changeset="false"><tag k="addr:street" v="Ridgeview Loop"/><tag k="addr:housenumber" v="21009"/><tag k="addr:postcode" v="78645"/></node><node id="-932" lat="30.459175" lon="-97.982927" changeset="false"><tag k="addr:street" v="Deer Run"/><tag k="addr:housenumber" v="6507"/><tag k="addr:postcode" v="78645"/></node><node id="-933" lat="30.458861" lon="-97.9836" changeset="false"><tag k="addr:street" v="Deer Run"/><tag k="addr:housenumber" v="6506"/><tag k="addr:postcode" v="78645"/></node><node id="-934" lat="30.459382" lon="-97.984447" changeset="false"><tag k="addr:street" v="Park Drive"/><tag k="addr:housenumber" v="20504"/><tag k="addr:postcode" v="78645"/></node><node id="-935" lat="30.460234" lon="-97.985633" changeset="false"><tag k="addr:street" v="Park Drive"/><tag k="addr:housenumber" v="20702"/><tag k="addr:postcode" v="78645"/></node><node id="-936" lat="30.469659" lon="-97.989449" changeset="false"><tag k="addr:street" v="Paddock Cove"/><tag k="addr:housenumber" v="21303"/><tag k="addr:postcode" v="78645"/></node><node id="-937" lat="30.464463" lon="-97.980767" changeset="false"><tag k="addr:street" v="Agarita Drive"/><tag k="addr:housenumber" v="20616"/><tag k="addr:postcode" v="78645"/></node><node id="-938" lat="30.47539" lon="-97.978044" changeset="false"><tag k="addr:street" v="Peacemaker Trail"/><tag k="addr:housenumber" v="20810"/><tag k="addr:postcode" v="78645"/></node><node id="-939" lat="30.464894" lon="-97.988904" changeset="false"><tag k="addr:street" v="Verde Vista Drive"/><tag k="addr:housenumber" v="6609"/><tag k="addr:postcode" v="78645"/></node><node id="-940" lat="30.475101" lon="-97.987752" changeset="false"><tag k="addr:street" v="Bar K Ranch Road"/><tag k="addr:housenumber" v="7503"/><tag k="addr:postcode" v="78645"/></node><node id="-941" lat="30.475522" lon="-97.97917" changeset="false"><tag k="addr:street" v="Peacemaker Trail"/><tag k="addr:housenumber" v="20907"/><tag k="addr:postcode" v="78645"/></node><node id="-942" lat="30.473465" lon="-97.991363" changeset="false"><tag k="addr:street" v="Bar K Ranch Road"/><tag k="addr:housenumber" v="7204"/><tag k="addr:postcode" v="78645"/></node><node id="-943" lat="30.47257" lon="-97.991521" changeset="false"><tag k="addr:street" v="Bar K Ranch Road"/><tag k="addr:housenumber" v="7105"/><tag k="addr:postcode" v="78645"/></node><node id="-944" lat="30.4549" lon="-97.982673" changeset="false"><tag k="addr:street" v="Pokealong Path"/><tag k="addr:housenumber" v="6200"/><tag k="addr:postcode" v="78645"/></node><node id="-945" lat="30.473267" lon="-97.987611" changeset="false"><tag k="addr:street" v="Coyote Trail"/><tag k="addr:housenumber" v="21485"/><tag k="addr:postcode" v="78645"/></node><node id="-946" lat="30.466934" lon="-97.983085" changeset="false"><tag k="addr:street" v="Cedar Ridge Drive"/><tag k="addr:housenumber" v="6909"/><tag k="addr:postcode" v="78645"/></node><node id="-947" lat="30.462225" lon="-97.986324" changeset="false"><tag k="addr:street" v="Roundup Trail"/><tag k="addr:housenumber" v="20814"/><tag k="addr:postcode" v="78645"/></node><node id="-948" lat="30.462413" lon="-97.98427" changeset="false"><tag k="addr:street" v="Roundup Trail"/><tag k="addr:housenumber" v="20710"/><tag k="addr:postcode" v="78645"/></node><node id="-949" lat="30.461821" lon="-97.9844" changeset="false"><tag k="addr:street" v="Fawn Circle"/><tag k="addr:housenumber" v="20704"/><tag k="addr:postcode" v="78645"/></node><node id="-950" lat="30.462092" lon="-97.984959" changeset="false"><tag k="addr:street" v="Fawn Circle"/><tag k="addr:housenumber" v="20708"/><tag k="addr:postcode" v="78645"/></node><node id="-951" lat="30.462624" lon="-97.985219" changeset="false"><tag k="addr:street" v="Roundup Trail"/><tag k="addr:housenumber" v="20804"/><tag k="addr:postcode" v="78645"/></node><node id="-952" lat="30.458604" lon="-97.996677" changeset="false"><tag k="addr:street" v="Lakeshore Drive"/><tag k="addr:housenumber" v="5900"/><tag k="addr:postcode" v="78645"/></node><node id="-953" lat="30.448532" lon="-98.003481" changeset="false"><tag k="addr:street" v="Green Shore Circle"/><tag k="addr:housenumber" v="4722 1/2"/><tag k="addr:postcode" v="78645"/></node><node id="-954" lat="30.467145" lon="-97.990095" changeset="false"><tag k="addr:street" v="Paseo de Vaca Circle"/><tag k="addr:housenumber" v="21205"/><tag k="addr:postcode" v="78645"/></node><node id="-955" lat="30.469985" lon="-97.986331" changeset="false"><tag k="addr:street" v="Deepwood Drive"/><tag k="addr:housenumber" v="7103"/><tag k="addr:postcode" v="78645"/></node><node id="-956" lat="30.470757" lon="-97.985947" changeset="false"><tag k="addr:street" v="Deepwood Drive"/><tag k="addr:housenumber" v="7203"/><tag k="addr:postcode" v="78645"/></node><node id="-957" lat="30.462409" lon="-97.98682" changeset="false"><tag k="addr:street" v="Roundup Trail"/><tag k="addr:housenumber" v="20906"/><tag k="addr:postcode" v="78645"/></node><node id="-958" lat="30.458944" lon="-97.996563" changeset="false"><tag k="addr:street" v="Lakeshore Drive"/><tag k="addr:housenumber" v="5902"/><tag k="addr:postcode" v="78645"/></node><node id="-959" lat="30.464947" lon="-97.981316" changeset="false"><tag k="addr:street" v="Live Oak Drive"/><tag k="addr:housenumber" v="6811"/><tag k="addr:postcode" v="78645"/></node><node id="-960" lat="30.478121" lon="-97.991328" changeset="false"><tag k="addr:street" v="Surrey Lane"/><tag k="addr:housenumber" v="21701"/><tag k="addr:postcode" v="78645"/></node><node id="-961" lat="30.467357" lon="-97.982985" changeset="false"><tag k="addr:street" v="Live Oak Drive"/><tag k="addr:housenumber" v="7006"/><tag k="addr:postcode" v="78645"/></node><node id="-962" lat="30.465184" lon="-97.981834" changeset="false"><tag k="addr:street" v="Live Oak Drive"/><tag k="addr:housenumber" v="6808"/><tag k="addr:postcode" v="78645"/></node><node id="-963" lat="30.470838" lon="-97.986642" changeset="false"><tag k="addr:street" v="Deepwood Drive"/><tag k="addr:housenumber" v="7202"/><tag k="addr:postcode" v="78645"/></node><node id="-964" lat="30.450526" lon="-97.998189" changeset="false"><tag k="addr:street" v="Country Club Drive"/><tag k="addr:housenumber" v="5204"/><tag k="addr:postcode" v="78645"/></node><node id="-965" lat="30.450436" lon="-97.998575" changeset="false"><tag k="addr:street" v="Country Club Drive"/><tag k="addr:housenumber" v="5202"/><tag k="addr:postcode" v="78645"/></node><node id="-966" lat="30.464277" lon="-97.986721" changeset="false"><tag k="addr:street" v="Deede Drive"/><tag k="addr:housenumber" v="20908"/><tag k="addr:postcode" v="78645"/></node><node id="-967" lat="30.463656" lon="-97.982557" changeset="false"><tag k="addr:street" v="Avenida Ann Drive"/><tag k="addr:housenumber" v="6708"/><tag k="addr:postcode" v="78645"/></node><node id="-968" lat="30.464126" lon="-97.987856" changeset="false"><tag k="addr:street" v="Deede Drive"/><tag k="addr:housenumber" v="21003"/><tag k="addr:postcode" v="78645"/></node><node id="-969" lat="30.459928" lon="-97.981803" changeset="false"><tag k="addr:street" v="Avenida Ann Drive"/><tag k="addr:housenumber" v="6517"/><tag k="addr:postcode" v="78645"/></node><node id="-970" lat="30.467581" lon="-97.989852" changeset="false"><tag k="addr:street" v="Paseo de Vaca Circle"/><tag k="addr:housenumber" v="21201"/><tag k="addr:postcode" v="78645"/></node><node id="-971" lat="30.467322" lon="-97.989793" changeset="false"><tag k="addr:street" v="Paseo de Vaca Circle"/><tag k="addr:housenumber" v="21203"/><tag k="addr:postcode" v="78645"/></node><node id="-972" lat="30.471409" lon="-97.981654" changeset="false"><tag k="addr:street" v="Little Lane"/><tag k="addr:housenumber" v="20906"/><tag k="addr:postcode" v="78645"/></node><node id="-973" lat="30.475947" lon="-97.979011" changeset="false"><tag k="addr:street" v="Dodge Trail"/><tag k="addr:housenumber" v="20905"/><tag k="addr:postcode" v="78645"/></node><node id="-974" lat="30.453697" lon="-97.98472" changeset="false"><tag k="addr:street" v="Dawn Drive"/><tag k="addr:housenumber" v="20408"/><tag k="addr:postcode" v="78645"/></node><node id="-975" lat="30.480765" lon="-97.993356" changeset="false"><tag k="addr:street" v="Stetson Cove"/><tag k="addr:housenumber" v="21901"/><tag k="addr:postcode" v="78645"/></node><node id="-976" lat="30.458915" lon="-97.984979" changeset="false"><tag k="addr:street" v="Park Drive"/><tag k="addr:housenumber" v="20609"/><tag k="addr:postcode" v="78645"/></node><node id="-977" lat="30.471253" lon="-97.985664" changeset="false"><tag k="addr:street" v="Deepwood Drive"/><tag k="addr:housenumber" v="7303"/><tag k="addr:postcode" v="78645"/></node><node id="-978" lat="30.469957" lon="-97.978489" changeset="false"><tag k="addr:street" v="Spanish Oak Drive"/><tag k="addr:housenumber" v="7411"/><tag k="addr:postcode" v="78645"/></node><node id="-979" lat="30.470302" lon="-97.979074" changeset="false"><tag k="addr:street" v="Spanish Oak Drive"/><tag k="addr:housenumber" v="7415"/><tag k="addr:postcode" v="78645"/></node><node id="-980" lat="30.474427" lon="-97.983839" changeset="false"><tag k="addr:street" v="Packsaddle Trail"/><tag k="addr:housenumber" v="21103"/><tag k="addr:postcode" v="78645"/></node><node id="-981" lat="30.473933" lon="-97.98437" changeset="false"><tag k="addr:street" v="Little Loop"/><tag k="addr:housenumber" v="21102"/><tag k="addr:postcode" v="78645"/></node><node id="-982" lat="30.473672" lon="-97.986191" changeset="false"><tag k="addr:street" v="Packsaddle Trail"/><tag k="addr:housenumber" v="21203"/><tag k="addr:postcode" v="78645"/></node><node id="-983" lat="30.450142" lon="-98.001931" changeset="false"><tag k="addr:street" v="Green Shore Circle"/><tag k="addr:housenumber" v="5009"/><tag k="addr:postcode" v="78645"/></node><node id="-984" lat="30.469733" lon="-97.985926" changeset="false"><tag k="addr:street" v="Ridgeview Loop"/><tag k="addr:housenumber" v="21015"/><tag k="addr:postcode" v="78645"/></node><node id="-985" lat="30.470464" lon="-97.984498" changeset="false"><tag k="addr:street" v="Ridgeview Road"/><tag k="addr:housenumber" v="21006"/><tag k="addr:postcode" v="78645"/></node><node id="-986" lat="30.466706" lon="-97.989654" changeset="false"><tag k="addr:street" v="La Paloma Drive"/><tag k="addr:housenumber" v="21209"/><tag k="addr:postcode" v="78645"/></node><node id="-987" lat="30.466588" lon="-97.989887" changeset="false"><tag k="addr:street" v="La Paloma Drive"/><tag k="addr:housenumber" v="21211"/><tag k="addr:postcode" v="78645"/></node><node id="-988" lat="30.469325" lon="-97.982237" changeset="false"><tag k="addr:street" v="Ridgeview Road"/><tag k="addr:housenumber" v="20903"/><tag k="addr:postcode" v="78645"/></node><node id="-989" lat="30.475926" lon="-97.977915" changeset="false"><tag k="addr:street" v="Dodge Trail"/><tag k="addr:housenumber" v="20811"/><tag k="addr:postcode" v="78645"/></node><node id="-990" lat="30.460294" lon="-97.982063" changeset="false"><tag k="addr:street" v="Avenida Ann Drive"/><tag k="addr:housenumber" v="6601"/><tag k="addr:postcode" v="78645"/></node><node id="-991" lat="30.467267" lon="-97.978624" changeset="false"><tag k="addr:street" v="Spanish Oak Drive"/><tag k="addr:housenumber" v="7302"/><tag k="addr:postcode" v="78645"/></node><node id="-992" lat="30.461885" lon="-97.991566" changeset="false"><tag k="addr:street" v="Camille Court"/><tag k="addr:housenumber" v="6406"/><tag k="addr:postcode" v="78645"/></node><node id="-993" lat="30.458729" lon="-97.99388" changeset="false"><tag k="addr:street" v="Lynn Lane"/><tag k="addr:housenumber" v="6008"/><tag k="addr:postcode" v="78645"/></node><node id="-994" lat="30.475494" lon="-97.978273" changeset="false"><tag k="addr:street" v="Peacemaker Trail"/><tag k="addr:housenumber" v="20812"/><tag k="addr:postcode" v="78645"/></node><node id="-995" lat="30.454227" lon="-97.981994" changeset="false"><tag k="addr:street" v="Dawn Drive"/><tag k="addr:housenumber" v="20302"/><tag k="addr:postcode" v="78645"/></node><node id="-996" lat="30.452309" lon="-97.999519" changeset="false"><tag k="addr:street" v="Canyon Oaks Drive"/><tag k="addr:housenumber" v="5304"/><tag k="addr:postcode" v="78645"/></node><node id="-997" lat="30.453314" lon="-97.998429" changeset="false"><tag k="addr:street" v="Canyon Oaks Drive"/><tag k="addr:housenumber" v="5408"/><tag k="addr:postcode" v="78645"/></node><node id="-998" lat="30.453729" lon="-97.998041" changeset="false"><tag k="addr:street" v="Canyon Oaks Drive"/><tag k="addr:housenumber" v="5500"/><tag k="addr:postcode" v="78645"/></node><node id="-999" lat="30.454408" lon="-97.997421" changeset="false"><tag k="addr:street" v="Canyon Oaks Drive"/><tag k="addr:housenumber" v="5512"/><tag k="addr:postcode" v="78645"/></node><node id="-1000" lat="30.475353" lon="-97.990027" changeset="false"><tag k="addr:street" v="Horseshoe Loop"/><tag k="addr:housenumber" v="21523"/><tag k="addr:postcode" v="78645"/></node><node id="-1001" lat="30.472475" lon="-97.991631" changeset="false"><tag k="addr:street" v="Bar K Ranch Road"/><tag k="addr:housenumber" v="7103"/><tag k="addr:postcode" v="78645"/></node><node id="-1002" lat="30.457371" lon="-97.993589" changeset="false"><tag k="addr:street" v="Dawn Drive"/><tag k="addr:housenumber" v="21003"/><tag k="addr:postcode" v="78645"/></node><node id="-1003" lat="30.465251" lon="-97.981263" changeset="false"><tag k="addr:street" v="Live Oak Drive"/><tag k="addr:housenumber" v="6813"/><tag k="addr:postcode" v="78645"/></node><node id="-1004" lat="30.47117" lon="-97.98434" changeset="false"><tag k="addr:street" v="Northland Drive"/><tag k="addr:housenumber" v="21124"/><tag k="addr:postcode" v="78645"/></node><node id="-1005" lat="30.449137" lon="-98.007363" changeset="false"><tag k="addr:street" v="Lakefront Drive"/><tag k="addr:housenumber" v="21557"/><tag k="addr:postcode" v="78645"/></node><node id="-1006" lat="30.447823" lon="-98.005576" changeset="false"><tag k="addr:street" v="Lakefront Drive"/><tag k="addr:housenumber" v="21405"/><tag k="addr:postcode" v="78645"/></node><node id="-1007" lat="30.472335" lon="-97.984827" changeset="false"><tag k="addr:street" v="Ridgeview Road"/><tag k="addr:housenumber" v="21112"/><tag k="addr:postcode" v="78645"/></node><node id="-1008" lat="30.470907" lon="-97.985283" changeset="false"><tag k="addr:street" v="Ridgeview Road"/><tag k="addr:housenumber" v="21103"/><tag k="addr:postcode" v="78645"/></node><node id="-1009" lat="30.464592" lon="-97.986333" changeset="false"><tag k="addr:street" v="Fawn Ridge Drive"/><tag k="addr:housenumber" v="20909"/><tag k="addr:postcode" v="78645"/></node><node id="-1010" lat="30.464047" lon="-97.984149" changeset="false"><tag k="addr:street" v="Fawn Ridge Drive"/><tag k="addr:housenumber" v="20805"/><tag k="addr:postcode" v="78645"/></node><node id="-1011" lat="30.475798" lon="-97.985881" changeset="false"><tag k="addr:street" v="Bar K Ranch Road"/><tag k="addr:housenumber" v="7601"/><tag k="addr:postcode" v="78645"/></node><node id="-1012" lat="30.46996" lon="-97.979827" changeset="false"><tag k="addr:street" v="Spanish Oak Drive"/><tag k="addr:housenumber" v="7416"/><tag k="addr:postcode" v="78645"/></node><node id="-1013" lat="30.468945" lon="-97.97883" changeset="false"><tag k="addr:street" v="Ridgeview Road"/><tag k="addr:housenumber" v="20700"/><tag k="addr:postcode" v="78645"/></node><node id="-1014" lat="30.468419" lon="-97.978367" changeset="false"><tag k="addr:street" v="Ridgeview Road"/><tag k="addr:housenumber" v="20602"/><tag k="addr:postcode" v="78645"/></node><node id="-1015" lat="30.473496" lon="-97.979253" changeset="false"><tag k="addr:street" v="Northland Drive"/><tag k="addr:housenumber" v="20807"/><tag k="addr:postcode" v="78645"/></node><node id="-1016" lat="30.473485" lon="-97.987258" changeset="false"><tag k="addr:street" v="Ridgeview Road"/><tag k="addr:housenumber" v="21303"/><tag k="addr:postcode" v="78645"/></node><node id="-1017" lat="30.474429" lon="-97.988534" changeset="false"><tag k="addr:street" v="Ridgeview Circle"/><tag k="addr:housenumber" v="21401"/><tag k="addr:postcode" v="78645"/></node><node id="-1018" lat="30.454187" lon="-97.983529" changeset="false"><tag k="addr:street" v="Pokealong Path"/><tag k="addr:housenumber" v="6109"/><tag k="addr:postcode" v="78645"/></node><node id="-1019" lat="30.459021" lon="-97.991512" changeset="false"><tag k="addr:street" v="Dawn Drive"/><tag k="addr:housenumber" v="21012"/><tag k="addr:postcode" v="78645"/></node><node id="-1020" lat="30.462814" lon="-97.980516" changeset="false"><tag k="addr:street" v="Redwood Drive"/><tag k="addr:housenumber" v="6700"/><tag k="addr:postcode" v="78645"/></node><node id="-1021" lat="30.463169" lon="-97.980541" changeset="false"><tag k="addr:street" v="Redwood Drive"/><tag k="addr:housenumber" v="6702"/><tag k="addr:postcode" v="78645"/></node><node id="-1022" lat="30.465076" lon="-97.978517" changeset="false"><tag k="addr:street" v="Redwood Drive"/><tag k="addr:housenumber" v="7007"/><tag k="addr:postcode" v="78645"/></node><node id="-1023" lat="30.470003" lon="-97.981009" changeset="false"><tag k="addr:street" v="White Oak Drive"/><tag k="addr:housenumber" v="7323"/><tag k="addr:postcode" v="78645"/></node><node id="-1024" lat="30.46751" lon="-97.978597" changeset="false"><tag k="addr:street" v="Spanish Oak Drive"/><tag k="addr:housenumber" v="7304"/><tag k="addr:postcode" v="78645"/></node><node id="-1025" lat="30.467558" lon="-97.979573" changeset="false"><tag k="addr:street" v="White Oak Drive"/><tag k="addr:housenumber" v="7300"/><tag k="addr:postcode" v="78645"/></node><node id="-1026" lat="30.467746" lon="-97.978501" changeset="false"><tag k="addr:street" v="Spanish Oak Drive"/><tag k="addr:housenumber" v="7306"/><tag k="addr:postcode" v="78645"/></node></osm>