<?xml version="1.0" encoding="UTF-8"?><osm version="0.6" generator="github.com/aaronlidman/osm-and-geojson"><node id="-1" lat="30.238711" lon="-97.766419" changeset="false"><tag k="addr:street" v="South 5th Street"/><tag k="addr:housenumber" v="2711"/><tag k="addr:postcode" v="78704"/></node><node id="-2" lat="30.235194" lon="-97.767467" changeset="false"><tag k="addr:street" v="South 4th Street"/><tag k="addr:housenumber" v="3033"/><tag k="addr:postcode" v="78704"/></node><node id="-3" lat="30.233459" lon="-97.768534" changeset="false"><tag k="addr:street" v="South 2nd Street"/><tag k="addr:housenumber" v="3310"/><tag k="addr:postcode" v="78704"/></node><node id="-4" lat="30.237023" lon="-97.770807" changeset="false"><tag k="addr:street" v="Birdwood Circle"/><tag k="addr:housenumber" v="3100"/><tag k="addr:postcode" v="78704"/></node><node id="-5" lat="30.238549" lon="-97.770676" changeset="false"><tag k="addr:street" v="Weathers Lane"/><tag k="addr:housenumber" v="1105"/><tag k="addr:postcode" v="78704"/></node><node id="-6" lat="30.23319" lon="-97.767895" changeset="false"><tag k="addr:street" v="Cardinal Lane"/><tag k="addr:housenumber" v="720"/><tag k="addr:postcode" v="78704"/></node><node id="-7" lat="30.238105" lon="-97.767276" changeset="false"><tag k="addr:street" v="South 5th Street"/><tag k="addr:housenumber" v="2904"/><tag k="addr:postcode" v="78704"/></node><node id="-8" lat="30.237859" lon="-97.767423" changeset="false"><tag k="addr:street" v="South 5th Street"/><tag k="addr:housenumber" v="2908"/><tag k="addr:postcode" v="78704"/></node><node id="-9" lat="30.238915" lon="-97.767663" changeset="false"><tag k="addr:street" v="Dulce Lane"/><tag k="addr:housenumber" v="2729"/><tag k="addr:postcode" v="78704"/></node><node id="-10" lat="30.23524" lon="-97.767461" changeset="false"><tag k="addr:street" v="Limon Drive"/><tag k="addr:housenumber" v="804"/><tag k="addr:postcode" v="78704"/></node><node id="-11" lat="30.236486" lon="-97.763476" changeset="false"><tag k="addr:street" v="South 1st Street"/><tag k="addr:housenumber" v="2902"/><tag k="addr:postcode" v="78704"/></node><node id="-12" lat="30.238671" lon="-97.767084" changeset="false"><tag k="addr:street" v="South 5th Street"/><tag k="addr:housenumber" v="2800"/><tag k="addr:postcode" v="78704"/></node><node id="-13" lat="30.238978" lon="-97.76684" changeset="false"><tag k="addr:street" v="South 5th Street"/><tag k="addr:housenumber" v="2712"/><tag k="addr:postcode" v="78704"/></node><node id="-14" lat="30.238116" lon="-97.767747" changeset="false"><tag k="addr:street" v="Treble Lane"/><tag k="addr:housenumber" v="2804"/><tag k="addr:postcode" v="78704"/></node><node id="-15" lat="30.233079" lon="-97.767649" changeset="false"><tag k="addr:street" v="Cardinal Lane"/><tag k="addr:housenumber" v="712"/><tag k="addr:postcode" v="78704"/></node><node id="-16" lat="30.235183" lon="-97.768546" changeset="false"><tag k="addr:street" v="South 5th Street"/><tag k="addr:housenumber" v="3205"/><tag k="addr:postcode" v="78704"/></node><node id="-17" lat="30.232625" lon="-97.766024" changeset="false"><tag k="addr:street" v="South 1st Street"/><tag k="addr:housenumber" v="3304"/><tag k="addr:postcode" v="78704"/></node><node id="-18" lat="30.23376" lon="-97.768355" changeset="false"><tag k="addr:street" v="South 2nd Street"/><tag k="addr:housenumber" v="3306"/><tag k="addr:postcode" v="78704"/></node><node id="-19" lat="30.234771" lon="-97.765793" changeset="false"><tag k="addr:street" v="Peacock Lane"/><tag k="addr:housenumber" v="609"/><tag k="addr:postcode" v="78704"/></node><node id="-20" lat="30.23853" lon="-97.767125" changeset="false"><tag k="addr:street" v="South 5th Street"/><tag k="addr:housenumber" v="2804"/><tag k="addr:postcode" v="78704"/></node><node id="-21" lat="30.239208" lon="-97.76753" changeset="false"><tag k="addr:street" v="Dulce Lane"/><tag k="addr:housenumber" v="2725"/><tag k="addr:postcode" v="78704"/></node><node id="-22" lat="30.239066" lon="-97.767228" changeset="false"><tag k="addr:street" v="Treble Lane"/><tag k="addr:housenumber" v="2728"/><tag k="addr:postcode" v="78704"/></node><node id="-23" lat="30.233725" lon="-97.768901" changeset="false"><tag k="addr:street" v="Cardinal Lane"/><tag k="addr:housenumber" v="900"/><tag k="addr:postcode" v="78704"/></node><node id="-24" lat="30.234609" lon="-97.765374" changeset="false"><tag k="addr:street" v="Peacock Lane"/><tag k="addr:housenumber" v="605"/><tag k="addr:postcode" v="78704"/></node><node id="-25" lat="30.23657" lon="-97.763617" changeset="false"><tag k="addr:street" v="South 1st Street"/><tag k="addr:housenumber" v="2900"/><tag k="addr:postcode" v="78704"/></node><node id="-26" lat="30.238236" lon="-97.766331" changeset="false"><tag k="addr:street" v="South 4th Street"/><tag k="addr:housenumber" v="2804"/><tag k="addr:postcode" v="78704"/></node><node id="-27" lat="30.238949" lon="-97.765962" changeset="false"><tag k="addr:street" v="South 4th Street"/><tag k="addr:housenumber" v="2706"/><tag k="addr:postcode" v="78704"/></node><node id="-28" lat="30.239312" lon="-97.765274" changeset="false"><tag k="addr:street" v="South 4th Street"/><tag k="addr:housenumber" v="2701"/><tag k="addr:postcode" v="78704"/></node><node id="-29" lat="30.235417" lon="-97.766733" changeset="false"><tag k="addr:street" v="Oak Crest Avenue"/><tag k="addr:housenumber" v="3010"/><tag k="addr:postcode" v="78704"/></node><node id="-30" lat="30.237367" lon="-97.767175" changeset="false"><tag k="addr:street" v="South 5th Street"/><tag k="addr:housenumber" v="2907"/><tag k="addr:postcode" v="78704"/></node><node id="-31" lat="30.234683" lon="-97.765609" changeset="false"><tag k="addr:street" v="Peacock Lane"/><tag k="addr:housenumber" v="607"/><tag k="addr:postcode" v="78704"/></node><node id="-32" lat="30.234508" lon="-97.76667" changeset="false"><tag k="addr:street" v="Limon Drive"/><tag k="addr:housenumber" v="701"/><tag k="addr:postcode" v="78704"/></node><node id="-33" lat="30.233006" lon="-97.767512" changeset="false"><tag k="addr:street" v="Cardinal Lane"/><tag k="addr:housenumber" v="708"/><tag k="addr:postcode" v="78704"/></node><node id="-34" lat="30.238792" lon="-97.766987" changeset="false"><tag k="addr:street" v="South 5th Street"/><tag k="addr:housenumber" v="2716"/><tag k="addr:postcode" v="78704"/></node><node id="-35" lat="30.238666" lon="-97.767842" changeset="false"><tag k="addr:street" v="Dulce Lane"/><tag k="addr:housenumber" v="2733"/><tag k="addr:postcode" v="78704"/></node><node id="-36" lat="30.238655" lon="-97.76747" changeset="false"><tag k="addr:street" v="Treble Lane"/><tag k="addr:housenumber" v="2732"/><tag k="addr:postcode" v="78704"/></node><node id="-37" lat="30.239217" lon="-97.766659" changeset="false"><tag k="addr:street" v="South 5th Street"/><tag k="addr:housenumber" v="2708"/><tag k="addr:postcode" v="78704"/></node><node id="-38" lat="30.238362" lon="-97.767599" changeset="false"><tag k="addr:street" v="Treble Lane"/><tag k="addr:housenumber" v="2800"/><tag k="addr:postcode" v="78704"/></node><node id="-39" lat="30.233593" lon="-97.767984" changeset="false"><tag k="addr:street" v="South 2nd Street"/><tag k="addr:housenumber" v="3303"/><tag k="addr:postcode" v="78704"/></node><node id="-40" lat="30.239494" lon="-97.767385" changeset="false"><tag k="addr:street" v="Dulce Lane"/><tag k="addr:housenumber" v="2721"/><tag k="addr:postcode" v="78704"/></node><node id="-41" lat="30.238498" lon="-97.767933" changeset="false"><tag k="addr:street" v="Dulce Lane"/><tag k="addr:housenumber" v="2801"/><tag k="addr:postcode" v="78704"/></node><node id="-42" lat="30.239369" lon="-97.767079" changeset="false"><tag k="addr:street" v="Treble Lane"/><tag k="addr:housenumber" v="2724"/><tag k="addr:postcode" v="78704"/></node><node id="-43" lat="30.236764" lon="-97.765822" changeset="false"><tag k="addr:street" v="Terrell Hill Drive"/><tag k="addr:housenumber" v="800"/><tag k="addr:postcode" v="78704"/></node><node id="-44" lat="30.236371" lon="-97.765199" changeset="false"><tag k="addr:street" v="Terrell Hill Drive"/><tag k="addr:housenumber" v="614"/><tag k="addr:postcode" v="78704"/></node><node id="-45" lat="30.238302" lon="-97.768021" changeset="false"><tag k="addr:street" v="Dulce Lane"/><tag k="addr:housenumber" v="2805"/><tag k="addr:postcode" v="78704"/></node><node id="-46" lat="30.235092" lon="-97.766842" changeset="false"><tag k="addr:street" v="Limon Drive"/><tag k="addr:housenumber" v="712"/><tag k="addr:postcode" v="78704"/></node><node id="-47" lat="30.233184" lon="-97.765469" changeset="false"><tag k="addr:street" v="South 1st Street"/><tag k="addr:housenumber" v="3200"/><tag k="addr:postcode" v="78704"/></node><node id="-48" lat="30.238489" lon="-97.765664" changeset="false"><tag k="addr:street" v="South 4th Street"/><tag k="addr:housenumber" v="2801"/><tag k="addr:postcode" v="78704"/></node><node id="-49" lat="30.233971" lon="-97.764938" changeset="false"><tag k="addr:street" v="South 1st Street"/><tag k="addr:housenumber" v="3036"/><tag k="addr:postcode" v="78704"/></node><node id="-50" lat="30.233944" lon="-97.768636" changeset="false"><tag k="addr:street" v="Cardinal Lane"/><tag k="addr:housenumber" v="818"/><tag k="addr:postcode" v="78704"/></node><node id="-51" lat="30.235124" lon="-97.766954" changeset="false"><tag k="addr:street" v="Limon Drive"/><tag k="addr:housenumber" v="800"/><tag k="addr:postcode" v="78704"/></node><node id="-52" lat="30.236268" lon="-97.766399" changeset="false"><tag k="addr:street" v="Oak Crest Avenue"/><tag k="addr:housenumber" v="3002"/><tag k="addr:postcode" v="78704"/></node><node id="-53" lat="30.2336" lon="-97.768431" changeset="false"><tag k="addr:street" v="South 2nd Street"/><tag k="addr:housenumber" v="3308"/><tag k="addr:postcode" v="78704"/></node><node id="-54" lat="30.234396" lon="-97.766988" changeset="false"><tag k="addr:street" v="Limon Drive"/><tag k="addr:housenumber" v="707"/><tag k="addr:postcode" v="78704"/></node><node id="-55" lat="30.235995" lon="-97.764104" changeset="false"><tag k="addr:street" v="South 1st Street"/><tag k="addr:housenumber" v="2908"/><tag k="addr:postcode" v="78704"/></node><node id="-56" lat="30.239191" lon="-97.765288" changeset="false"><tag k="addr:street" v="South 4th Street"/><tag k="addr:housenumber" v="2703"/><tag k="addr:postcode" v="78704"/></node><node id="-57" lat="30.236058" lon="-97.763764" changeset="false"><tag k="addr:street" v="South 1st Street"/><tag k="addr:housenumber" v="2906"/><tag k="addr:postcode" v="78704"/></node><node id="-58" lat="30.235798" lon="-97.76395" changeset="false"><tag k="addr:street" v="South 1st Street"/><tag k="addr:housenumber" v="2910"/><tag k="addr:postcode" v="78704"/></node><node id="-59" lat="30.235396" lon="-97.767357" changeset="false"><tag k="addr:street" v="South 4th Street"/><tag k="addr:housenumber" v="3029"/><tag k="addr:postcode" v="78704"/></node><node id="-60" lat="30.235324" lon="-97.767331" changeset="false"><tag k="addr:street" v="South 4th Street"/><tag k="addr:housenumber" v="3015"/><tag k="addr:postcode" v="78704"/></node></osm>