<?xml version="1.0" encoding="UTF-8"?><osm version="0.6" generator="github.com/aaronlidman/osm-and-geojson"><node id="-1" lat="30.489993" lon="-97.767543" changeset="false"><tag k="addr:street" v="Nepal Cove"/><tag k="addr:housenumber" v="9800"/><tag k="addr:postcode" v="78717"/></node><node id="-2" lat="30.493023" lon="-97.772873" changeset="false"><tag k="addr:street" v="Galena Drive"/><tag k="addr:housenumber" v="14918"/><tag k="addr:postcode" v="78717"/></node><node id="-3" lat="30.491869" lon="-97.771385" changeset="false"><tag k="addr:street" v="Lachlan Drive"/><tag k="addr:housenumber" v="10037"/><tag k="addr:postcode" v="78717"/></node><node id="-4" lat="30.492431" lon="-97.771287" changeset="false"><tag k="addr:street" v="Lachlan Drive"/><tag k="addr:housenumber" v="10036"/><tag k="addr:postcode" v="78717"/></node><node id="-5" lat="30.493997" lon="-97.772583" changeset="false"><tag k="addr:street" v="Andora Drive"/><tag k="addr:housenumber" v="10232"/><tag k="addr:postcode" v="78717"/></node><node id="-6" lat="30.494968" lon="-97.773553" changeset="false"><tag k="addr:street" v="Savannah Heights Drive"/><tag k="addr:housenumber" v="15019"/><tag k="addr:postcode" v="78717"/></node><node id="-7" lat="30.491274" lon="-97.769427" changeset="false"><tag k="addr:street" v="Calaveras Drive"/><tag k="addr:housenumber" v="14901"/><tag k="addr:postcode" v="78717"/></node><node id="-8" lat="30.490707" lon="-97.767893" changeset="false"><tag k="addr:street" v="Fallon Cove"/><tag k="addr:housenumber" v="9805"/><tag k="addr:postcode" v="78717"/></node><node id="-9" lat="30.49227" lon="-97.772616" changeset="false"><tag k="addr:street" v="Galena Drive"/><tag k="addr:housenumber" v="14904"/><tag k="addr:postcode" v="78717"/></node><node id="-10" lat="30.493331" lon="-97.773008" changeset="false"><tag k="addr:street" v="Galena Drive"/><tag k="addr:housenumber" v="14926"/><tag k="addr:postcode" v="78717"/></node><node id="-11" lat="30.491782" lon="-97.771727" changeset="false"><tag k="addr:street" v="Lachlan Drive"/><tag k="addr:housenumber" v="10045"/><tag k="addr:postcode" v="78717"/></node><node id="-12" lat="30.491907" lon="-97.771214" changeset="false"><tag k="addr:street" v="Lachlan Drive"/><tag k="addr:housenumber" v="10033"/><tag k="addr:postcode" v="78717"/></node><node id="-13" lat="30.491116" lon="-97.771453" changeset="false"><tag k="addr:street" v="Valona Drive"/><tag k="addr:housenumber" v="10025"/><tag k="addr:postcode" v="78717"/></node><node id="-14" lat="30.493187" lon="-97.772928" changeset="false"><tag k="addr:street" v="Galena Drive"/><tag k="addr:housenumber" v="14922"/><tag k="addr:postcode" v="78717"/></node><node id="-15" lat="30.493598" lon="-97.773135" changeset="false"><tag k="addr:street" v="Galena Drive"/><tag k="addr:housenumber" v="15000"/><tag k="addr:postcode" v="78717"/></node><node id="-16" lat="30.490674" lon="-97.771309" changeset="false"><tag k="addr:street" v="Majorca Drive"/><tag k="addr:housenumber" v="10020 1/2"/><tag k="addr:postcode" v="78717"/></node><node id="-17" lat="30.49074" lon="-97.771229" changeset="false"><tag k="addr:street" v="Majorca Drive"/><tag k="addr:housenumber" v="10020"/><tag k="addr:postcode" v="78717"/></node><node id="-18" lat="30.49483" lon="-97.769978" changeset="false"><tag k="addr:street" v="Calaveras Drive"/><tag k="addr:housenumber" v="15100"/><tag k="addr:postcode" v="78717"/></node><node id="-19" lat="30.494825" lon="-97.769977" changeset="false"><tag k="addr:street" v="Calaveras Drive"/><tag k="addr:housenumber" v="15046"/><tag k="addr:postcode" v="78717"/></node></osm>