<?xml version="1.0" encoding="UTF-8"?><osm version="0.6" generator="github.com/aaronlidman/osm-and-geojson"><node id="-1" lat="30.285912" lon="-97.742079" changeset="false"><tag k="addr:street" v="Guadalupe Street"/><tag k="addr:housenumber" v="2244"/><tag k="coa:place_id" v="475160"/></node><node id="-2" lat="30.286772" lon="-97.741917" changeset="false"><tag k="addr:street" v="Guadalupe Street"/><tag k="addr:housenumber" v="2310"/><tag k="coa:place_id" v="350810"/></node><node id="-3" lat="30.28614" lon="-97.742107" changeset="false"><tag k="addr:street" v="Guadalupe Street"/><tag k="addr:housenumber" v="2246"/><tag k="coa:place_id" v="475166"/></node><node id="-4" lat="30.28404" lon="-97.742276" changeset="false"><tag k="addr:street" v="Guadalupe Street"/><tag k="addr:housenumber" v="2100"/><tag k="coa:place_id" v="245921"/></node><node id="-5" lat="30.284236" lon="-97.742177" changeset="false"><tag k="addr:street" v="Guadalupe Street"/><tag k="addr:housenumber" v="2112"/><tag k="coa:place_id" v="475112"/></node><node id="-6" lat="30.2853" lon="-97.742155" changeset="false"><tag k="addr:street" v="Guadalupe Street"/><tag k="addr:housenumber" v="2200"/><tag k="coa:place_id" v="475130"/></node><node id="-7" lat="30.284759" lon="-97.742206" changeset="false"><tag k="addr:street" v="Guadalupe Street"/><tag k="addr:housenumber" v="2130"/><tag k="coa:place_id" v="309944"/></node><node id="-8" lat="30.285587" lon="-97.742096" changeset="false"><tag k="addr:street" v="Guadalupe Street"/><tag k="addr:housenumber" v="2222"/><tag k="coa:place_id" v="475142"/></node><node id="-9" lat="30.28566" lon="-97.742036" changeset="false"><tag k="addr:street" v="Guadalupe Street"/><tag k="addr:housenumber" v="2230"/><tag k="coa:place_id" v="475148"/></node><node id="-10" lat="30.286857" lon="-97.742981" changeset="false"><tag k="addr:street" v="San Antonio Street"/><tag k="addr:housenumber" v="2300"/><tag k="coa:place_id" v="475358"/></node><node id="-11" lat="30.287572" lon="-97.743389" changeset="false"><tag k="addr:street" v="Nueces Street"/><tag k="addr:housenumber" v="2315"/><tag k="coa:place_id" v="475346"/></node><node id="-12" lat="30.287332" lon="-97.743374" changeset="false"><tag k="addr:street" v="Nueces Street"/><tag k="addr:housenumber" v="2311"/><tag k="coa:place_id" v="427803"/></node><node id="-13" lat="30.283018" lon="-97.743836" changeset="false"><tag k="addr:street" v="Nueces Street"/><tag k="addr:housenumber" v="1905"/><tag k="coa:place_id" v="474974"/></node><node id="-14" lat="30.286792" lon="-97.743904" changeset="false"><tag k="addr:street" v="Nueces Street"/><tag k="addr:housenumber" v="2300"/><tag k="coa:place_id" v="475424"/></node><node id="-15" lat="30.287685" lon="-97.744481" changeset="false"><tag k="addr:street" v="Rio Grande Street"/><tag k="addr:housenumber" v="2313"/><tag k="coa:place_id" v="475454"/></node></osm>