<?xml version="1.0" encoding="UTF-8"?><osm version="0.6" generator="github.com/aaronlidman/osm-and-geojson"><node id="-1" lat="30.294229" lon="-97.782683" changeset="false"><tag k="addr:street" v="Lake Austin Boulevard"/><tag k="addr:housenumber" v="3700"/><tag k="coa:place_id" v="463844"/></node><node id="-2" lat="30.294826" lon="-97.781273" changeset="false"><tag k="addr:street" v="Enfield Road"/><tag k="addr:housenumber" v="3601"/><tag k="coa:place_id" v="988262"/></node><node id="-3" lat="30.290702" lon="-97.772645" changeset="false"><tag k="addr:street" v="Enfield Road"/><tag k="addr:housenumber" v="2705 1/2"/><tag k="coa:place_id" v="3072822"/></node><node id="-4" lat="30.289736" lon="-97.770766" changeset="false"><tag k="addr:street" v="Enfield Road"/><tag k="addr:housenumber" v="2511"/><tag k="coa:place_id" v="191492"/></node><node id="-5" lat="30.283738" lon="-97.775099" changeset="false"><tag k="addr:street" v="West 8th Street"/><tag k="addr:housenumber" v="2607"/><tag k="coa:place_id" v="3361076"/></node><node id="-6" lat="30.288082" lon="-97.772326" changeset="false"><tag k="addr:street" v="Quarry Road"/><tag k="addr:housenumber" v="2520"/><tag k="coa:place_id" v="695037"/></node><node id="-7" lat="30.283382" lon="-97.772923" changeset="false"><tag k="addr:street" v="West 9th Street"/><tag k="addr:housenumber" v="2411"/><tag k="coa:place_id" v="152732"/></node><node id="-8" lat="30.282477" lon="-97.770838" changeset="false"><tag k="addr:street" v="West 9th Street"/><tag k="addr:housenumber" v="2307"/><tag k="coa:place_id" v="152822"/></node><node id="-9" lat="30.288325" lon="-97.771106" changeset="false"><tag k="addr:street" v="Inwood Place"/><tag k="addr:housenumber" v="2507"/><tag k="coa:place_id" v="191582"/></node><node id="-10" lat="30.282565" lon="-97.773169" changeset="false"><tag k="addr:street" v="West 8th Street"/><tag k="addr:housenumber" v="2407"/><tag k="coa:place_id" v="152522"/></node><node id="-11" lat="30.287844" lon="-97.773588" changeset="false"><tag k="addr:street" v="Exposition Boulevard"/><tag k="addr:housenumber" v="1201"/><tag k="coa:place_id" v="3293695"/></node><node id="-12" lat="30.283134" lon="-97.775117" changeset="false"><tag k="addr:street" v="Norwalk Lane"/><tag k="addr:housenumber" v="714"/><tag k="coa:place_id" v="3365358"/></node><node id="-13" lat="30.294254" lon="-97.780102" changeset="false"><tag k="addr:street" v="Enfield Road"/><tag k="addr:housenumber" v="3501"/><tag k="coa:place_id" v="124611"/></node><node id="-14" lat="30.290935" lon="-97.773021" changeset="false"><tag k="addr:street" v="Enfield Road"/><tag k="addr:housenumber" v="2709"/><tag k="coa:place_id" v="245057"/></node><node id="-15" lat="30.292081" lon="-97.783436" changeset="false"><tag k="addr:street" v="Lake Austin Boulevard"/><tag k="addr:housenumber" v="3617"/><tag k="coa:place_id" v="463850"/></node><node id="-16" lat="30.288665" lon="-97.771387" changeset="false"><tag k="addr:street" v="Inwood Place"/><tag k="addr:housenumber" v="2508"/><tag k="coa:place_id" v="191576"/></node><node id="-17" lat="30.285299" lon="-97.775119" changeset="false"><tag k="addr:street" v="Newman Drive"/><tag k="addr:housenumber" v="904"/><tag k="coa:place_id" v="153188"/></node><node id="-18" lat="30.284328" lon="-97.773595" changeset="false"><tag k="addr:street" v="Norwalk Lane"/><tag k="addr:housenumber" v="903"/><tag k="coa:place_id" v="153056"/></node><node id="-19" lat="30.281109" lon="-97.771094" changeset="false"><tag k="addr:street" v="Meriden Lane"/><tag k="addr:housenumber" v="708"/><tag k="coa:place_id" v="3164422"/></node><node id="-20" lat="30.281739" lon="-97.771331" changeset="false"><tag k="addr:street" v="West 8th Street"/><tag k="addr:housenumber" v="2307"/><tag k="coa:place_id" v="152582"/></node><node id="-21" lat="30.296296" lon="-97.784021" changeset="false"><tag k="addr:street" v="Scenic Drive"/><tag k="addr:housenumber" v="1400"/><tag k="coa:place_id" v="108604"/></node><node id="-22" lat="30.28785" lon="-97.773268" changeset="false"><tag k="addr:street" v="Norwalk Lane"/><tag k="addr:housenumber" v="1206"/><tag k="coa:place_id" v="3293694"/></node><node id="-23" lat="30.290082" lon="-97.771415" changeset="false"><tag k="addr:street" v="Norwalk Lane"/><tag k="addr:housenumber" v="1411 1/2"/><tag k="coa:place_id" v="3095863"/></node><node id="-24" lat="30.283422" lon="-97.774104" changeset="false"><tag k="addr:street" v="Norwalk Lane"/><tag k="addr:housenumber" v="801"/><tag k="coa:place_id" v="152696"/></node><node id="-25" lat="30.288863" lon="-97.772952" changeset="false"><tag k="addr:street" v="Exposition Boulevard"/><tag k="addr:housenumber" v="1307"/><tag k="coa:place_id" v="237649"/></node><node id="-26" lat="30.281265" lon="-97.771215" changeset="false"><tag k="addr:street" v="Hearn Street"/><tag k="addr:housenumber" v="711"/><tag k="coa:place_id" v="117404"/></node><node id="-27" lat="30.28272" lon="-97.771451" changeset="false"><tag k="addr:street" v="West 9th Street"/><tag k="addr:housenumber" v="2317"/><tag k="coa:place_id" v="152798"/></node><node id="-28" lat="30.283251" lon="-97.775055" changeset="false"><tag k="addr:street" v="Norwalk Lane"/><tag k="addr:housenumber" v="716"/><tag k="coa:place_id" v="3365359"/></node><node id="-29" lat="30.289845" lon="-97.771094" changeset="false"><tag k="addr:street" v="Enfield Road"/><tag k="addr:housenumber" v="2521"/><tag k="coa:place_id" v="191474"/></node><node id="-30" lat="30.294049" lon="-97.783539" changeset="false"><tag k="addr:street" v="Lake Austin Boulevard"/><tag k="addr:housenumber" v="3708"/><tag k="coa:place_id" v="161763"/></node><node id="-31" lat="30.287745" lon="-97.77338" changeset="false"><tag k="addr:street" v="West 12th Street"/><tag k="addr:housenumber" v="2612"/><tag k="coa:place_id" v="3511528"/></node><node id="-32" lat="30.29176" lon="-97.783399" changeset="false"><tag k="addr:street" v="Lake Austin Boulevard"/><tag k="addr:housenumber" v="3601"/><tag k="coa:place_id" v="463832"/></node><node id="-33" lat="30.283319" lon="-97.774864" changeset="false"><tag k="addr:street" v="Norwalk Lane"/><tag k="addr:housenumber" v="718"/><tag k="coa:place_id" v="3382326"/></node><node id="-34" lat="30.281459" lon="-97.771133" changeset="false"><tag k="addr:street" v="Hearn Street"/><tag k="addr:housenumber" v="715"/><tag k="coa:place_id" v="117398"/></node><node id="-35" lat="30.289374" lon="-97.772143" changeset="false"><tag k="addr:street" v="Norwalk Lane"/><tag k="addr:housenumber" v="1402"/><tag k="coa:place_id" v="190574"/></node><node id="-36" lat="30.295903" lon="-97.783634" changeset="false"><tag k="addr:street" v="Lake Austin Boulevard"/><tag k="addr:housenumber" v="3824"/><tag k="coa:place_id" v="463868"/></node><node id="-37" lat="30.288317" lon="-97.774183" changeset="false"><tag k="addr:street" v="Exposition Boulevard"/><tag k="addr:housenumber" v="1200"/><tag k="coa:place_id" v="468837"/></node><node id="-38" lat="30.281847" lon="-97.773154" changeset="false"><tag k="addr:street" v="Pruett Street"/><tag k="addr:housenumber" v="2403"/><tag k="coa:place_id" v="152270"/></node><node id="-39" lat="30.282239" lon="-97.77243" changeset="false"><tag k="addr:street" v="West 8th Street"/><tag k="addr:housenumber" v="2319"/><tag k="coa:place_id" v="152546"/></node><node id="-40" lat="30.286553" lon="-97.771631" changeset="false"><tag k="addr:street" v="West 12th Street"/><tag k="addr:housenumber" v="2502"/><tag k="coa:place_id" v="705550"/></node><node id="-41" lat="30.289994" lon="-97.771353" changeset="false"><tag k="addr:street" v="Norwalk Lane"/><tag k="addr:housenumber" v="1409"/><tag k="coa:place_id" v="191468"/></node><node id="-42" lat="30.285433" lon="-97.771892" changeset="false"><tag k="addr:street" v="Wayside Drive"/><tag k="addr:housenumber" v="1011"/><tag k="coa:place_id" v="189476"/></node><node id="-43" lat="30.294425" lon="-97.780453" changeset="false"><tag k="addr:street" v="Enfield Road"/><tag k="addr:housenumber" v="3507"/><tag k="coa:place_id" v="464042"/></node><node id="-44" lat="30.294007" lon="-97.784908" changeset="false"><tag k="addr:street" v="Lake Austin Boulevard"/><tag k="addr:housenumber" v="3629"/><tag k="coa:place_id" v="463826"/></node><node id="-45" lat="30.289165" lon="-97.771612" changeset="false"><tag k="addr:street" v="Norwalk Lane"/><tag k="addr:housenumber" v="1403"/><tag k="coa:place_id" v="191462"/></node><node id="-46" lat="30.294246" lon="-97.78353" changeset="false"><tag k="addr:street" v="Lake Austin Boulevard"/><tag k="addr:housenumber" v="3710"/><tag k="coa:place_id" v="1015256"/></node><node id="-47" lat="30.295606" lon="-97.783618" changeset="false"><tag k="addr:street" v="Lake Austin Boulevard"/><tag k="addr:housenumber" v="3808"/><tag k="coa:place_id" v="463796"/></node><node id="-48" lat="30.290088" lon="-97.77183" changeset="false"><tag k="addr:street" v="Enfield Road"/><tag k="addr:housenumber" v="2601"/><tag k="coa:place_id" v="815151"/></node><node id="-49" lat="30.280729" lon="-97.771712" changeset="false"><tag k="addr:street" v="West 7th Street"/><tag k="addr:housenumber" v="2304"/><tag k="coa:place_id" v="117428"/></node><node id="-50" lat="30.287553" lon="-97.772274" changeset="false"><tag k="addr:street" v="Quarry Road"/><tag k="addr:housenumber" v="2515"/><tag k="coa:place_id" v="190724"/></node><node id="-51" lat="30.282744" lon="-97.775805" changeset="false"><tag k="addr:street" v="Newman Drive"/><tag k="addr:housenumber" v="701"/><tag k="coa:place_id" v="3076755"/></node><node id="-52" lat="30.280941" lon="-97.771194" changeset="false"><tag k="addr:street" v="Meriden Lane"/><tag k="addr:housenumber" v="706"/><tag k="coa:place_id" v="117410"/></node><node id="-53" lat="30.282902" lon="-97.775717" changeset="false"><tag k="addr:street" v="Newman Drive"/><tag k="addr:housenumber" v="703"/><tag k="coa:place_id" v="388784"/></node><node id="-54" lat="30.289823" lon="-97.771773" changeset="false"><tag k="addr:street" v="Norwalk Lane"/><tag k="addr:housenumber" v="1408"/><tag k="coa:place_id" v="248447"/></node><node id="-55" lat="30.290131" lon="-97.772067" changeset="false"><tag k="addr:street" v="Enfield Road"/><tag k="addr:housenumber" v="2605"/><tag k="coa:place_id" v="228821"/></node><node id="-56" lat="30.289975" lon="-97.772195" changeset="false"><tag k="addr:street" v="Enfield Road"/><tag k="addr:housenumber" v="2607"/><tag k="coa:place_id" v="190490"/></node><node id="-57" lat="30.285573" lon="-97.772165" changeset="false"><tag k="addr:street" v="Wayside Drive"/><tag k="addr:housenumber" v="1012"/><tag k="coa:place_id" v="252191"/></node><node id="-58" lat="30.285599" lon="-97.772343" changeset="false"><tag k="addr:street" v="Wayside Drive"/><tag k="addr:housenumber" v="1012 1/2"/><tag k="coa:place_id" v="252192"/></node><node id="-59" lat="30.296716" lon="-97.783965" changeset="false"><tag k="addr:street" v="Scenic Drive"/><tag k="addr:housenumber" v="1502"/><tag k="coa:place_id" v="463886"/></node><node id="-60" lat="30.296635" lon="-97.784042" changeset="false"><tag k="addr:street" v="Scenic Drive"/><tag k="addr:housenumber" v="1500"/><tag k="coa:place_id" v="388724"/></node><node id="-61" lat="30.282871" lon="-97.775681" changeset="false"><tag k="addr:street" v="West 7th Street"/><tag k="addr:housenumber" v="2610"/><tag k="coa:place_id" v="388790"/></node><node id="-62" lat="30.282586" lon="-97.775205" changeset="false"><tag k="addr:street" v="West 7th Street"/><tag k="addr:housenumber" v="2602"/><tag k="coa:place_id" v="153284"/></node><node id="-63" lat="30.282745" lon="-97.775439" changeset="false"><tag k="addr:street" v="West 7th Street"/><tag k="addr:housenumber" v="2606"/><tag k="coa:place_id" v="153296"/></node><node id="-64" lat="30.282819" lon="-97.775571" changeset="false"><tag k="addr:street" v="West 7th Street"/><tag k="addr:housenumber" v="2608"/><tag k="coa:place_id" v="153302"/></node><node id="-65" lat="30.282644" lon="-97.775313" changeset="false"><tag k="addr:street" v="West 7th Street"/><tag k="addr:housenumber" v="2604"/><tag k="coa:place_id" v="153290"/></node></osm>