<?xml version="1.0" encoding="UTF-8"?><osm version="0.6" generator="github.com/aaronlidman/osm-and-geojson"><node id="-1" lat="30.193704" lon="-97.87474" changeset="false"><tag k="addr:street" v="Estancia Lane"/><tag k="addr:housenumber" v="10018"/><tag k="addr:postcode" v="78739"/></node><node id="-2" lat="30.195365" lon="-97.876145" changeset="false"><tag k="addr:street" v="Austral Loop"/><tag k="addr:housenumber" v="5404"/><tag k="addr:postcode" v="78739"/></node><node id="-3" lat="30.191585" lon="-97.870666" changeset="false"><tag k="addr:street" v="Scottish Thistle Drive"/><tag k="addr:housenumber" v="5101"/><tag k="addr:postcode" v="78739"/></node><node id="-4" lat="30.194284" lon="-97.874005" changeset="false"><tag k="addr:street" v="Viamonte Lane"/><tag k="addr:housenumber" v="5308"/><tag k="addr:postcode" v="78739"/></node><node id="-5" lat="30.192419" lon="-97.874136" changeset="false"><tag k="addr:street" v="Austral Loop"/><tag k="addr:housenumber" v="5226"/><tag k="addr:postcode" v="78739"/></node><node id="-6" lat="30.193957" lon="-97.878859" changeset="false"><tag k="addr:street" v="Van Winkle Lane"/><tag k="addr:housenumber" v="5609"/><tag k="addr:postcode" v="78739"/></node><node id="-7" lat="30.192056" lon="-97.87597" changeset="false"><tag k="addr:street" v="Stellar Cove"/><tag k="addr:housenumber" v="10213"/><tag k="addr:postcode" v="78739"/></node><node id="-8" lat="30.184197" lon="-97.896529" changeset="false"><tag k="addr:street" v="Escarpment Boulevard"/><tag k="addr:housenumber" v="11325 1/2"/><tag k="addr:postcode" v="78739"/></node><node id="-9" lat="30.191344" lon="-97.877168" changeset="false"><tag k="addr:street" v="La Crosse Avenue"/><tag k="addr:housenumber" v="5401"/><tag k="addr:postcode" v="78739"/></node><node id="-10" lat="30.193578" lon="-97.88409" changeset="false"><tag k="addr:street" v="Van Winkle Lane"/><tag k="addr:housenumber" v="5848"/><tag k="addr:postcode" v="78739"/></node><node id="-11" lat="30.193325" lon="-97.879025" changeset="false"><tag k="addr:street" v="Banks Court"/><tag k="addr:housenumber" v="10208"/><tag k="addr:postcode" v="78739"/></node><node id="-12" lat="30.192335" lon="-97.874898" changeset="false"><tag k="addr:street" v="Malvinas Cove"/><tag k="addr:housenumber" v="10200"/><tag k="addr:postcode" v="78739"/></node><node id="-13" lat="30.187798" lon="-97.866908" changeset="false"><tag k="addr:street" v="Cama Valley Cove"/><tag k="addr:housenumber" v="10224"/><tag k="addr:postcode" v="78739"/></node><node id="-14" lat="30.192147" lon="-97.874968" changeset="false"><tag k="addr:street" v="Malvinas Cove"/><tag k="addr:housenumber" v="10204"/><tag k="addr:postcode" v="78739"/></node><node id="-15" lat="30.194379" lon="-97.882375" changeset="false"><tag k="addr:street" v="Van Winkle Lane"/><tag k="addr:housenumber" v="5820"/><tag k="addr:postcode" v="78739"/></node><node id="-16" lat="30.192231" lon="-97.868849" changeset="false"><tag k="addr:street" v="Hibiscus Valley Drive"/><tag k="addr:housenumber" v="5112"/><tag k="addr:postcode" v="78739"/></node><node id="-17" lat="30.186123" lon="-97.871728" changeset="false"><tag k="addr:street" v="La Crosse Avenue"/><tag k="addr:housenumber" v="4805 1/2"/><tag k="addr:postcode" v="78739"/></node><node id="-18" lat="30.185667" lon="-97.873404" changeset="false"><tag k="addr:street" v="La Crosse Avenue"/><tag k="addr:housenumber" v="4801"/><tag k="addr:postcode" v="78739"/></node><node id="-19" lat="30.19051" lon="-97.87067" changeset="false"><tag k="addr:street" v="Scottish Thistle Drive"/><tag k="addr:housenumber" v="5009"/><tag k="addr:postcode" v="78739"/></node><node id="-20" lat="30.181496" lon="-97.88895" changeset="false"><tag k="addr:street" v="South Bay Lane"/><tag k="addr:housenumber" v="11426"/><tag k="addr:postcode" v="78739"/></node><node id="-21" lat="30.189261" lon="-97.869931" changeset="false"><tag k="addr:street" v="Scottish Thistle Drive"/><tag k="addr:housenumber" v="4905"/><tag k="addr:postcode" v="78739"/></node><node id="-22" lat="30.18905" lon="-97.871239" changeset="false"><tag k="addr:street" v="Bluestar Cove"/><tag k="addr:housenumber" v="10311"/><tag k="addr:postcode" v="78739"/></node><node id="-23" lat="30.190385" lon="-97.870602" changeset="false"><tag k="addr:street" v="Scottish Thistle Drive"/><tag k="addr:housenumber" v="5005"/><tag k="addr:postcode" v="78739"/></node><node id="-24" lat="30.193248" lon="-97.87962" changeset="false"><tag k="addr:street" v="Dahlgreen Avenue"/><tag k="addr:housenumber" v="10213"/><tag k="addr:postcode" v="78739"/></node><node id="-25" lat="30.189394" lon="-97.869993" changeset="false"><tag k="addr:street" v="Scottish Thistle Drive"/><tag k="addr:housenumber" v="4909"/><tag k="addr:postcode" v="78739"/></node><node id="-26" lat="30.193567" lon="-97.8756" changeset="false"><tag k="addr:street" v="Austral Cove"/><tag k="addr:housenumber" v="10024"/><tag k="addr:postcode" v="78739"/></node><node id="-27" lat="30.192348" lon="-97.87942" changeset="false"><tag k="addr:street" v="Ballenton Lane"/><tag k="addr:housenumber" v="5609"/><tag k="addr:postcode" v="78739"/></node><node id="-28" lat="30.189708" lon="-97.871707" changeset="false"><tag k="addr:street" v="La Crosse Avenue"/><tag k="addr:housenumber" v="5010"/><tag k="addr:postcode" v="78739"/></node><node id="-29" lat="30.189637" lon="-97.870159" changeset="false"><tag k="addr:street" v="Scottish Thistle Drive"/><tag k="addr:housenumber" v="4917"/><tag k="addr:postcode" v="78739"/></node><node id="-30" lat="30.189287" lon="-97.871263" changeset="false"><tag k="addr:street" v="Bluestar Cove"/><tag k="addr:housenumber" v="10308"/><tag k="addr:postcode" v="78739"/></node><node id="-31" lat="30.187914" lon="-97.867585" changeset="false"><tag k="addr:street" v="Snapdragon Drive"/><tag k="addr:housenumber" v="10229"/><tag k="addr:postcode" v="78739"/></node><node id="-32" lat="30.191088" lon="-97.870391" changeset="false"><tag k="addr:street" v="Tiger Lily Way"/><tag k="addr:housenumber" v="5028"/><tag k="addr:postcode" v="78739"/></node><node id="-33" lat="30.189134" lon="-97.869912" changeset="false"><tag k="addr:street" v="Scottish Thistle Drive"/><tag k="addr:housenumber" v="4901"/><tag k="addr:postcode" v="78739"/></node><node id="-34" lat="30.193369" lon="-97.87505" changeset="false"><tag k="addr:street" v="Estancia Lane"/><tag k="addr:housenumber" v="10026"/><tag k="addr:postcode" v="78739"/></node><node id="-35" lat="30.189759" lon="-97.870227" changeset="false"><tag k="addr:street" v="Scottish Thistle Drive"/><tag k="addr:housenumber" v="4921"/><tag k="addr:postcode" v="78739"/></node><node id="-36" lat="30.193773" lon="-97.868744" changeset="false"><tag k="addr:street" v="Scottish Thistle Drive"/><tag k="addr:housenumber" v="5224"/><tag k="addr:postcode" v="78739"/></node><node id="-37" lat="30.19138" lon="-97.870278" changeset="false"><tag k="addr:street" v="Scottish Thistle Drive"/><tag k="addr:housenumber" v="5100"/><tag k="addr:postcode" v="78739"/></node><node id="-38" lat="30.188825" lon="-97.869404" changeset="false"><tag k="addr:street" v="Broomflower Drive"/><tag k="addr:housenumber" v="10321"/><tag k="addr:postcode" v="78739"/></node><node id="-39" lat="30.19266" lon="-97.869369" changeset="false"><tag k="addr:street" v="Hibiscus Valley Drive"/><tag k="addr:housenumber" v="5128"/><tag k="addr:postcode" v="78739"/></node><node id="-40" lat="30.192545" lon="-97.873953" changeset="false"><tag k="addr:street" v="Austral Loop"/><tag k="addr:housenumber" v="5230"/><tag k="addr:postcode" v="78739"/></node><node id="-41" lat="30.189646" lon="-97.871012" changeset="false"><tag k="addr:street" v="Sundrop Valley Drive"/><tag k="addr:housenumber" v="10301 1/2"/><tag k="addr:postcode" v="78739"/></node><node id="-42" lat="30.19256" lon="-97.876573" changeset="false"><tag k="addr:street" v="Eclipse Lane"/><tag k="addr:housenumber" v="10207"/><tag k="addr:postcode" v="78739"/></node><node id="-43" lat="30.19055" lon="-97.879939" changeset="false"><tag k="addr:street" v="Dahlgreen Avenue"/><tag k="addr:housenumber" v="10415"/><tag k="addr:postcode" v="78739"/></node><node id="-44" lat="30.188081" lon="-97.871386" changeset="false"><tag k="addr:street" v="La Crosse Avenue"/><tag k="addr:housenumber" v="4900"/><tag k="addr:postcode" v="78739"/></node><node id="-45" lat="30.193182" lon="-97.882332" changeset="false"><tag k="addr:street" v="Van Winkle Court"/><tag k="addr:housenumber" v="10309"/><tag k="addr:postcode" v="78739"/></node><node id="-46" lat="30.190783" lon="-97.870819" changeset="false"><tag k="addr:street" v="Scottish Thistle Drive"/><tag k="addr:housenumber" v="5017"/><tag k="addr:postcode" v="78739"/></node><node id="-47" lat="30.179346" lon="-97.873709" changeset="false"><tag k="addr:street" v="Wyldwood Road"/><tag k="addr:housenumber" v="4318"/><tag k="addr:postcode" v="78739"/></node><node id="-48" lat="30.194271" lon="-97.874464" changeset="false"><tag k="addr:street" v="Viamonte Lane"/><tag k="addr:housenumber" v="5315"/><tag k="addr:postcode" v="78739"/></node><node id="-49" lat="30.194001" lon="-97.881611" changeset="false"><tag k="addr:street" v="Van Winkle Lane"/><tag k="addr:housenumber" v="5811"/><tag k="addr:postcode" v="78739"/></node><node id="-50" lat="30.194097" lon="-97.874137" changeset="false"><tag k="addr:street" v="Viamonte Lane"/><tag k="addr:housenumber" v="5309"/><tag k="addr:postcode" v="78739"/></node><node id="-51" lat="30.194463" lon="-97.874294" changeset="false"><tag k="addr:street" v="Viamonte Lane"/><tag k="addr:housenumber" v="5314"/><tag k="addr:postcode" v="78739"/></node><node id="-52" lat="30.190279" lon="-97.871951" changeset="false"><tag k="addr:street" v="Thistle Moss Cove"/><tag k="addr:housenumber" v="10308"/><tag k="addr:postcode" v="78739"/></node><node id="-53" lat="30.188756" lon="-97.869887" changeset="false"><tag k="addr:street" v="Scottish Thistle Drive"/><tag k="addr:housenumber" v="4805"/><tag k="addr:postcode" v="78739"/></node><node id="-54" lat="30.192107" lon="-97.87448" changeset="false"><tag k="addr:street" v="Malvinas Cove"/><tag k="addr:housenumber" v="10205"/><tag k="addr:postcode" v="78739"/></node><node id="-55" lat="30.188798" lon="-97.870861" changeset="false"><tag k="addr:street" v="Snapdragon Drive"/><tag k="addr:housenumber" v="10426"/><tag k="addr:postcode" v="78739"/></node><node id="-56" lat="30.193715" lon="-97.87431" changeset="false"><tag k="addr:street" v="Estancia Lane"/><tag k="addr:housenumber" v="10015"/><tag k="addr:postcode" v="78739"/></node><node id="-57" lat="30.192316" lon="-97.874617" changeset="false"><tag k="addr:street" v="Malvinas Cove"/><tag k="addr:housenumber" v="10201"/><tag k="addr:postcode" v="78739"/></node><node id="-58" lat="30.189021" lon="-97.869892" changeset="false"><tag k="addr:street" v="Scottish Thistle Drive"/><tag k="addr:housenumber" v="4813"/><tag k="addr:postcode" v="78739"/></node><node id="-59" lat="30.190248" lon="-97.870503" changeset="false"><tag k="addr:street" v="Scottish Thistle Drive"/><tag k="addr:housenumber" v="5001"/><tag k="addr:postcode" v="78739"/></node><node id="-60" lat="30.19418" lon="-97.875299" changeset="false"><tag k="addr:street" v="Austral Cove"/><tag k="addr:housenumber" v="10019"/><tag k="addr:postcode" v="78739"/></node><node id="-61" lat="30.18924" lon="-97.869421" changeset="false"><tag k="addr:street" v="Broomflower Drive"/><tag k="addr:housenumber" v="10322"/><tag k="addr:postcode" v="78739"/></node><node id="-62" lat="30.191954" lon="-97.874936" changeset="false"><tag k="addr:street" v="Malvinas Cove"/><tag k="addr:housenumber" v="10208"/><tag k="addr:postcode" v="78739"/></node><node id="-63" lat="30.188687" lon="-97.86739" changeset="false"><tag k="addr:street" v="Snapdragon Drive"/><tag k="addr:housenumber" v="10208"/><tag k="addr:postcode" v="78739"/></node><node id="-64" lat="30.194551" lon="-97.874729" changeset="false"><tag k="addr:street" v="Viamonte Lane"/><tag k="addr:housenumber" v="5322"/><tag k="addr:postcode" v="78739"/></node><node id="-65" lat="30.188856" lon="-97.869879" changeset="false"><tag k="addr:street" v="Scottish Thistle Drive"/><tag k="addr:housenumber" v="4809"/><tag k="addr:postcode" v="78739"/></node><node id="-66" lat="30.188724" lon="-97.871295" changeset="false"><tag k="addr:street" v="Snapdragon Drive"/><tag k="addr:housenumber" v="10434"/><tag k="addr:postcode" v="78739"/></node><node id="-67" lat="30.187584" lon="-97.866519" changeset="false"><tag k="addr:street" v="Cama Valley Cove"/><tag k="addr:housenumber" v="10221"/><tag k="addr:postcode" v="78739"/></node><node id="-68" lat="30.182329" lon="-97.886495" changeset="false"><tag k="addr:street" v="Bexley Court"/><tag k="addr:housenumber" v="5700 1/2"/><tag k="addr:postcode" v="78739"/></node><node id="-69" lat="30.185972" lon="-97.883701" changeset="false"><tag k="addr:street" v="Beachmont Lane"/><tag k="addr:housenumber" v="10815"/><tag k="addr:postcode" v="78739"/></node><node id="-70" lat="30.185999" lon="-97.883656" changeset="false"><tag k="addr:street" v="Beachmont Lane"/><tag k="addr:housenumber" v="10815 1/2"/><tag k="addr:postcode" v="78739"/></node></osm>