<?xml version="1.0" encoding="UTF-8"?><osm version="0.6" generator="github.com/aaronlidman/osm-and-geojson"><node id="-1" lat="30.30152" lon="-97.824346" changeset="false"><tag k="addr:street" v="Yaupon Valley Road"/><tag k="addr:housenumber" v="1803"/><tag k="addr:postcode" v="78746"/></node><node id="-2" lat="30.300171" lon="-97.805357" changeset="false"><tag k="addr:street" v="Windsong Trail"/><tag k="addr:housenumber" v="709"/><tag k="addr:postcode" v="78746"/></node><node id="-3" lat="30.303184" lon="-97.799019" changeset="false"><tag k="addr:street" v="Terrace Mountain Drive"/><tag k="addr:housenumber" v="600"/><tag k="addr:postcode" v="78746"/></node><node id="-4" lat="30.302938" lon="-97.80747" changeset="false"><tag k="addr:street" v="Terrace Mountain Drive"/><tag k="addr:housenumber" v="920"/><tag k="addr:postcode" v="78746"/></node><node id="-5" lat="30.301249" lon="-97.802014" changeset="false"><tag k="addr:street" v="Windsong Trail"/><tag k="addr:housenumber" v="695"/><tag k="addr:postcode" v="78746"/></node><node id="-6" lat="30.296533" lon="-97.80041" changeset="false"><tag k="addr:street" v="Skyline Drive"/><tag k="addr:housenumber" v="403"/><tag k="addr:postcode" v="78746"/></node><node id="-7" lat="30.298674" lon="-97.825213" changeset="false"><tag k="addr:street" v="Flintridge Road"/><tag k="addr:housenumber" v="1512"/><tag k="addr:postcode" v="78746"/></node><node id="-8" lat="30.300498" lon="-97.821456" changeset="false"><tag k="addr:street" v="Old Wagon Road"/><tag k="addr:housenumber" v="1409"/><tag k="addr:postcode" v="78746"/></node><node id="-9" lat="30.298951" lon="-97.799018" changeset="false"><tag k="addr:street" v="Wild Cat Hollow"/><tag k="addr:housenumber" v="1519"/><tag k="addr:postcode" v="78746"/></node><node id="-10" lat="30.301224" lon="-97.80274" changeset="false"><tag k="addr:street" v="Windsong Trail"/><tag k="addr:housenumber" v="697"/><tag k="addr:postcode" v="78746"/></node><node id="-11" lat="30.303947" lon="-97.806939" changeset="false"><tag k="addr:street" v="Terrace Mountain Drive"/><tag k="addr:housenumber" v="914"/><tag k="addr:postcode" v="78746"/></node><node id="-12" lat="30.30536" lon="-97.799079" changeset="false"><tag k="addr:street" v="Terrace Mountain Drive"/><tag k="addr:housenumber" v="706"/><tag k="addr:postcode" v="78746"/></node><node id="-13" lat="30.304163" lon="-97.805789" changeset="false"><tag k="addr:street" v="Terrace Mountain Drive"/><tag k="addr:housenumber" v="915"/><tag k="addr:postcode" v="78746"/></node><node id="-14" lat="30.299252" lon="-97.821441" changeset="false"><tag k="addr:street" v="Redbud Trail"/><tag k="addr:housenumber" v="1414"/><tag k="addr:postcode" v="78746"/></node><node id="-15" lat="30.29847" lon="-97.79437" changeset="false"><tag k="addr:street" v="Harbor View Drive"/><tag k="addr:housenumber" v="1515"/><tag k="addr:postcode" v="78746"/></node><node id="-16" lat="30.298096" lon="-97.792111" changeset="false"><tag k="addr:street" v="Hull Circle"/><tag k="addr:housenumber" v="15"/><tag k="addr:postcode" v="78746"/></node><node id="-17" lat="30.299793" lon="-97.810219" changeset="false"><tag k="addr:street" v="Redbud Trail"/><tag k="addr:housenumber" v="906"/><tag k="addr:postcode" v="78746"/></node><node id="-18" lat="30.30311" lon="-97.817602" changeset="false"><tag k="addr:street" v="Circle Ridge Drive"/><tag k="addr:housenumber" v="1411"/><tag k="addr:postcode" v="78746"/></node><node id="-19" lat="30.300324" lon="-97.804343" changeset="false"><tag k="addr:street" v="Windsong Trail"/><tag k="addr:housenumber" v="705"/><tag k="addr:postcode" v="78746"/></node><node id="-20" lat="30.30479" lon="-97.800287" changeset="false"><tag k="addr:street" v="Loma Linda"/><tag k="addr:housenumber" v="706"/><tag k="addr:postcode" v="78746"/></node><node id="-21" lat="30.305742" lon="-97.799621" changeset="false"><tag k="addr:street" v="Basin Ledge"/><tag k="addr:housenumber" v="1816"/><tag k="addr:postcode" v="78746"/></node><node id="-22" lat="30.302179" lon="-97.803176" changeset="false"><tag k="addr:street" v="Windsong Trail"/><tag k="addr:housenumber" v="698"/><tag k="addr:postcode" v="78746"/></node><node id="-23" lat="30.300704" lon="-97.809978" changeset="false"><tag k="addr:street" v="Redbud Trail"/><tag k="addr:housenumber" v="998"/><tag k="addr:postcode" v="78746"/></node><node id="-24" lat="30.30011" lon="-97.81039" changeset="false"><tag k="addr:street" v="Redbud Trail"/><tag k="addr:housenumber" v="908"/><tag k="addr:postcode" v="78746"/></node><node id="-25" lat="30.303413" lon="-97.821584" changeset="false"><tag k="addr:street" v="Yaupon Valley Road"/><tag k="addr:housenumber" v="2007"/><tag k="addr:postcode" v="78746"/></node><node id="-26" lat="30.300042" lon="-97.809299" changeset="false"><tag k="addr:street" v="Redbud Trail"/><tag k="addr:housenumber" v="900"/><tag k="addr:postcode" v="78746"/></node><node id="-27" lat="30.298483" lon="-97.808363" changeset="false"><tag k="addr:street" v="Redbud Trail"/><tag k="addr:housenumber" v="810"/><tag k="addr:postcode" v="78746"/></node><node id="-28" lat="30.303132" lon="-97.799876" changeset="false"><tag k="addr:street" v="Spurlock Valley"/><tag k="addr:housenumber" v="600"/><tag k="addr:postcode" v="78746"/></node><node id="-29" lat="30.304142" lon="-97.810816" changeset="false"><tag k="addr:street" v="Kennan Road"/><tag k="addr:housenumber" v="1110"/><tag k="addr:postcode" v="78746"/></node><node id="-30" lat="30.297561" lon="-97.793975" changeset="false"><tag k="addr:street" v="Westlake Drive"/><tag k="addr:housenumber" v="1509"/><tag k="addr:postcode" v="78746"/></node><node id="-31" lat="30.297915" lon="-97.822824" changeset="false"><tag k="addr:street" v="Redbud Trail"/><tag k="addr:housenumber" v="1426"/><tag k="addr:postcode" v="78746"/></node><node id="-32" lat="30.304276" lon="-97.799747" changeset="false"><tag k="addr:street" v="Loma Linda"/><tag k="addr:housenumber" v="101"/><tag k="addr:postcode" v="78746"/></node><node id="-33" lat="30.302643" lon="-97.823389" changeset="false"><tag k="addr:street" v="Yaupon Valley Road"/><tag k="addr:housenumber" v="1905"/><tag k="addr:postcode" v="78746"/></node><node id="-34" lat="30.294706" lon="-97.795488" changeset="false"><tag k="addr:street" v="Westlake Drive"/><tag k="addr:housenumber" v="1200"/><tag k="addr:postcode" v="78746"/></node><node id="-35" lat="30.30188" lon="-97.802231" changeset="false"><tag k="addr:street" v="Windsong Trail"/><tag k="addr:housenumber" v="694"/><tag k="addr:postcode" v="78746"/></node><node id="-36" lat="30.30021" lon="-97.804867" changeset="false"><tag k="addr:street" v="Windsong Trail"/><tag k="addr:housenumber" v="707"/><tag k="addr:postcode" v="78746"/></node><node id="-37" lat="30.294924" lon="-97.796209" changeset="false"><tag k="addr:street" v="Skyline Drive"/><tag k="addr:housenumber" v="106"/><tag k="addr:postcode" v="78746"/></node><node id="-38" lat="30.29478" lon="-97.799352" changeset="false"><tag k="addr:street" v="Skyline Drive"/><tag k="addr:housenumber" v="204"/><tag k="addr:postcode" v="78746"/></node><node id="-39" lat="30.304311" lon="-97.796906" changeset="false"><tag k="addr:street" v="Basin Ledge East"/><tag k="addr:housenumber" v="6"/><tag k="addr:postcode" v="78746"/></node><node id="-40" lat="30.29443" lon="-97.79461" changeset="false"><tag k="addr:street" v="Westlake Drive"/><tag k="addr:housenumber" v="1301"/><tag k="addr:postcode" v="78746"/></node><node id="-41" lat="30.297555" lon="-97.798327" changeset="false"><tag k="addr:street" v="Nob Hill Circle"/><tag k="addr:housenumber" v="18"/><tag k="addr:postcode" v="78746"/></node><node id="-42" lat="30.301524" lon="-97.796052" changeset="false"><tag k="addr:street" v="Westlake Drive"/><tag k="addr:housenumber" v="1710"/><tag k="addr:postcode" v="78746"/></node><node id="-43" lat="30.30098" lon="-97.794841" changeset="false"><tag k="addr:street" v="Westlake Drive"/><tag k="addr:housenumber" v="1631"/><tag k="addr:postcode" v="78746"/></node><node id="-44" lat="30.303553" lon="-97.81762" changeset="false"><tag k="addr:street" v="Circle Ridge Drive"/><tag k="addr:housenumber" v="1415"/><tag k="addr:postcode" v="78746"/></node><node id="-45" lat="30.302898" lon="-97.821537" changeset="false"><tag k="addr:street" v="Yaupon Valley Road"/><tag k="addr:housenumber" v="2006"/><tag k="addr:postcode" v="78746"/></node><node id="-46" lat="30.300989" lon="-97.825611" changeset="false"><tag k="addr:street" v="Yaupon Valley Road"/><tag k="addr:housenumber" v="1705"/><tag k="addr:postcode" v="78746"/></node><node id="-47" lat="30.303078" lon="-97.821808" changeset="false"><tag k="addr:street" v="Yaupon Valley Road"/><tag k="addr:housenumber" v="2001"/><tag k="addr:postcode" v="78746"/></node><node id="-48" lat="30.302608" lon="-97.823378" changeset="false"><tag k="addr:street" v="Yaupon Valley Road"/><tag k="addr:housenumber" v="1903"/><tag k="addr:postcode" v="78746"/></node><node id="-49" lat="30.306318" lon="-97.803017" changeset="false"><tag k="addr:street" v="Lost Canyon Drive"/><tag k="addr:housenumber" v="711"/><tag k="addr:postcode" v="78746"/></node><node id="-50" lat="30.295047" lon="-97.797691" changeset="false"><tag k="addr:street" v="Skyline Drive"/><tag k="addr:housenumber" v="112"/><tag k="addr:postcode" v="78746"/></node><node id="-51" lat="30.294111" lon="-97.795233" changeset="false"><tag k="addr:street" v="Westlake Drive"/><tag k="addr:housenumber" v="1203"/><tag k="addr:postcode" v="78746"/></node><node id="-52" lat="30.301846" lon="-97.81587" changeset="false"><tag k="addr:street" v="Circle Ridge Drive"/><tag k="addr:housenumber" v="1408"/><tag k="addr:postcode" v="78746"/></node><node id="-53" lat="30.293455" lon="-97.795762" changeset="false"><tag k="addr:street" v="Westlake Drive"/><tag k="addr:housenumber" v="1115"/><tag k="addr:postcode" v="78746"/></node><node id="-54" lat="30.305516" lon="-97.796246" changeset="false"><tag k="addr:street" v="Basin Ledge East"/><tag k="addr:housenumber" v="2"/><tag k="addr:postcode" v="78746"/></node><node id="-55" lat="30.29652" lon="-97.796014" changeset="false"><tag k="addr:street" v="Wild Cat Hollow"/><tag k="addr:housenumber" v="1403"/><tag k="addr:postcode" v="78746"/></node><node id="-56" lat="30.296306" lon="-97.793391" changeset="false"><tag k="addr:street" v="Westlake Drive"/><tag k="addr:housenumber" v="1501"/><tag k="addr:postcode" v="78746"/></node><node id="-57" lat="30.302753" lon="-97.823095" changeset="false"><tag k="addr:street" v="Yaupon Valley Road"/><tag k="addr:housenumber" v="1906"/><tag k="addr:postcode" v="78746"/></node><node id="-58" lat="30.302717" lon="-97.823084" changeset="false"><tag k="addr:street" v="Yaupon Valley Road"/><tag k="addr:housenumber" v="1904"/><tag k="addr:postcode" v="78746"/></node><node id="-59" lat="30.300645" lon="-97.803455" changeset="false"><tag k="addr:street" v="Windsong Trail"/><tag k="addr:housenumber" v="701"/><tag k="addr:postcode" v="78746"/></node><node id="-60" lat="30.299872" lon="-97.806544" changeset="false"><tag k="addr:street" v="Windsong Trail"/><tag k="addr:housenumber" v="715"/><tag k="addr:postcode" v="78746"/></node><node id="-61" lat="30.298392" lon="-97.79207" changeset="false"><tag k="addr:street" v="Hull Circle"/><tag k="addr:housenumber" v="19"/><tag k="addr:postcode" v="78746"/></node><node id="-62" lat="30.297392" lon="-97.795003" changeset="false"><tag k="addr:street" v="Westlake Drive"/><tag k="addr:housenumber" v="1508"/><tag k="addr:postcode" v="78746"/></node><node id="-63" lat="30.306914" lon="-97.800198" changeset="false"><tag k="addr:street" v="Canyon Creek"/><tag k="addr:housenumber" v="806"/><tag k="addr:postcode" v="78746"/></node><node id="-64" lat="30.295396" lon="-97.793582" changeset="false"><tag k="addr:street" v="Westlake Drive"/><tag k="addr:housenumber" v="1401"/><tag k="addr:postcode" v="78746"/></node><node id="-65" lat="30.306591" lon="-97.80394" changeset="false"><tag k="addr:street" v="Lost Canyon Drive"/><tag k="addr:housenumber" v="713"/><tag k="addr:postcode" v="78746"/></node><node id="-66" lat="30.301809" lon="-97.804065" changeset="false"><tag k="addr:street" v="Windsong Trail"/><tag k="addr:housenumber" v="702"/><tag k="addr:postcode" v="78746"/></node><node id="-67" lat="30.30469" lon="-97.807306" changeset="false"><tag k="addr:street" v="Roadrunner Road"/><tag k="addr:housenumber" v="941"/><tag k="addr:postcode" v="78746"/></node><node id="-68" lat="30.293738" lon="-97.799788" changeset="false"><tag k="addr:street" v="Redbud Trail"/><tag k="addr:housenumber" v="118"/><tag k="addr:postcode" v="78746"/></node><node id="-69" lat="30.30468" lon="-97.796239" changeset="false"><tag k="addr:street" v="Basin Ledge East"/><tag k="addr:housenumber" v="4"/><tag k="addr:postcode" v="78746"/></node><node id="-70" lat="30.305264" lon="-97.804974" changeset="false"><tag k="addr:street" v="Roadrunner Road"/><tag k="addr:housenumber" v="930"/><tag k="addr:postcode" v="78746"/></node><node id="-71" lat="30.305637" lon="-97.801478" changeset="false"><tag k="addr:street" v="Terrace Mountain Drive"/><tag k="addr:housenumber" v="810"/><tag k="addr:postcode" v="78746"/></node><node id="-72" lat="30.295434" lon="-97.798702" changeset="false"><tag k="addr:street" v="Skyline Drive"/><tag k="addr:housenumber" v="300"/><tag k="addr:postcode" v="78746"/></node><node id="-73" lat="30.306023" lon="-97.805756" changeset="false"><tag k="addr:street" v="Roadrunner Road"/><tag k="addr:housenumber" v="970"/><tag k="addr:postcode" v="78746"/></node><node id="-74" lat="30.301891" lon="-97.797707" changeset="false"><tag k="addr:street" v="Terrace Mountain Drive"/><tag k="addr:housenumber" v="501"/><tag k="addr:postcode" v="78746"/></node><node id="-75" lat="30.293001" lon="-97.796217" changeset="false"><tag k="addr:street" v="Westlake Drive"/><tag k="addr:housenumber" v="1113"/><tag k="addr:postcode" v="78746"/></node><node id="-76" lat="30.302071" lon="-97.798114" changeset="false"><tag k="addr:street" v="Terrace Mountain Drive"/><tag k="addr:housenumber" v="505"/><tag k="addr:postcode" v="78746"/></node><node id="-77" lat="30.300746" lon="-97.796871" changeset="false"><tag k="addr:street" v="Westlake Drive"/><tag k="addr:housenumber" v="1628"/><tag k="addr:postcode" v="78746"/></node><node id="-78" lat="30.300461" lon="-97.803905" changeset="false"><tag k="addr:street" v="Windsong Trail"/><tag k="addr:housenumber" v="703"/><tag k="addr:postcode" v="78746"/></node><node id="-79" lat="30.300138" lon="-97.805781" changeset="false"><tag k="addr:street" v="Windsong Trail"/><tag k="addr:housenumber" v="711"/><tag k="addr:postcode" v="78746"/></node><node id="-80" lat="30.298139" lon="-97.792739" changeset="false"><tag k="addr:street" v="Hull Circle"/><tag k="addr:housenumber" v="14"/><tag k="addr:postcode" v="78746"/></node><node id="-81" lat="30.298771" lon="-97.798211" changeset="false"><tag k="addr:street" v="Wild Cat Hollow"/><tag k="addr:housenumber" v="1516"/><tag k="addr:postcode" v="78746"/></node><node id="-82" lat="30.29936" lon="-97.792201" changeset="false"><tag k="addr:street" v="Hull Circle"/><tag k="addr:housenumber" v="23"/><tag k="addr:postcode" v="78746"/></node><node id="-83" lat="30.295079" lon="-97.796801" changeset="false"><tag k="addr:street" v="Skyline Drive"/><tag k="addr:housenumber" v="110"/><tag k="addr:postcode" v="78746"/></node><node id="-84" lat="30.296366" lon="-97.801128" changeset="false"><tag k="addr:street" v="Redbud Trail"/><tag k="addr:housenumber" v="302"/><tag k="addr:postcode" v="78746"/></node><node id="-85" lat="30.293997" lon="-97.797322" changeset="false"><tag k="addr:street" v="Redbud Trail"/><tag k="addr:housenumber" v="102"/><tag k="addr:postcode" v="78746"/></node><node id="-86" lat="30.30018" lon="-97.814133" changeset="false"><tag k="addr:street" v="Redbud Trail"/><tag k="addr:housenumber" v="1112"/><tag k="addr:postcode" v="78746"/></node><node id="-87" lat="30.298753" lon="-97.821983" changeset="false"><tag k="addr:street" v="Redbud Trail"/><tag k="addr:housenumber" v="1420"/><tag k="addr:postcode" v="78746"/></node><node id="-88" lat="30.299837" lon="-97.814795" changeset="false"><tag k="addr:street" v="Redbud Trail"/><tag k="addr:housenumber" v="1116"/><tag k="addr:postcode" v="78746"/></node><node id="-89" lat="30.301116" lon="-97.804767" changeset="false"><tag k="addr:street" v="Windsong Trail"/><tag k="addr:housenumber" v="706"/><tag k="addr:postcode" v="78746"/></node><node id="-90" lat="30.295323" lon="-97.798192" changeset="false"><tag k="addr:street" v="Skyline Drive"/><tag k="addr:housenumber" v="200"/><tag k="addr:postcode" v="78746"/></node><node id="-91" lat="30.302534" lon="-97.807757" changeset="false"><tag k="addr:street" v="Terrace Mountain Drive"/><tag k="addr:housenumber" v="922"/><tag k="addr:postcode" v="78746"/></node><node id="-92" lat="30.302284" lon="-97.798583" changeset="false"><tag k="addr:street" v="Terrace Mountain Drive"/><tag k="addr:housenumber" v="507"/><tag k="addr:postcode" v="78746"/></node><node id="-93" lat="30.300753" lon="-97.812827" changeset="false"><tag k="addr:street" v="Wren Valley Cove"/><tag k="addr:housenumber" v="2"/><tag k="addr:postcode" v="78746"/></node><node id="-94" lat="30.300508" lon="-97.808818" changeset="false"><tag k="addr:street" v="Caravan Circle"/><tag k="addr:housenumber" v="808"/><tag k="addr:postcode" v="78746"/></node><node id="-95" lat="30.303579" lon="-97.822132" changeset="false"><tag k="addr:street" v="Yaupon Valley Road"/><tag k="addr:housenumber" v="2005"/><tag k="addr:postcode" v="78746"/></node><node id="-96" lat="30.302508" lon="-97.797264" changeset="false"><tag k="addr:street" v="Terrace Mountain Drive"/><tag k="addr:housenumber" v="500"/><tag k="addr:postcode" v="78746"/></node><node id="-97" lat="30.30373" lon="-97.806343" changeset="false"><tag k="addr:street" v="Calithea Road"/><tag k="addr:housenumber" v="912"/><tag k="addr:postcode" v="78746"/></node><node id="-98" lat="30.297875" lon="-97.793828" changeset="false"><tag k="addr:street" v="Westlake Drive"/><tag k="addr:housenumber" v="1511"/><tag k="addr:postcode" v="78746"/></node><node id="-99" lat="30.293877" lon="-97.795278" changeset="false"><tag k="addr:street" v="Westlake Drive"/><tag k="addr:housenumber" v="1201"/><tag k="addr:postcode" v="78746"/></node><node id="-100" lat="30.294849" lon="-97.798498" changeset="false"><tag k="addr:street" v="Skyline Drive"/><tag k="addr:housenumber" v="116"/><tag k="addr:postcode" v="78746"/></node><node id="-101" lat="30.296635" lon="-97.7979" changeset="false"><tag k="addr:street" v="Nob Hill Circle"/><tag k="addr:housenumber" v="12"/><tag k="addr:postcode" v="78746"/></node><node id="-102" lat="30.292257" lon="-97.797949" changeset="false"><tag k="addr:street" v="Redbud Trail"/><tag k="addr:housenumber" v="100"/><tag k="addr:postcode" v="78746"/></node><node id="-103" lat="30.302879" lon="-97.821573" changeset="false"><tag k="addr:street" v="Yaupon Valley Road"/><tag k="addr:housenumber" v="2004"/><tag k="addr:postcode" v="78746"/></node><node id="-104" lat="30.30286" lon="-97.82161" changeset="false"><tag k="addr:street" v="Yaupon Valley Road"/><tag k="addr:housenumber" v="2002"/><tag k="addr:postcode" v="78746"/></node><node id="-105" lat="30.300668" lon="-97.806933" changeset="false"><tag k="addr:street" v="Windsong Trail"/><tag k="addr:housenumber" v="714"/><tag k="addr:postcode" v="78746"/></node><node id="-106" lat="30.298914" lon="-97.792044" changeset="false"><tag k="addr:street" v="Hull Circle"/><tag k="addr:housenumber" v="21"/><tag k="addr:postcode" v="78746"/></node><node id="-107" lat="30.306853" lon="-97.80347" changeset="false"><tag k="addr:street" v="Lost Canyon Drive"/><tag k="addr:housenumber" v="715"/><tag k="addr:postcode" v="78746"/></node><node id="-108" lat="30.301289" lon="-97.795667" changeset="false"><tag k="addr:street" v="Westlake Drive"/><tag k="addr:housenumber" v="1635"/><tag k="addr:postcode" v="78746"/></node><node id="-109" lat="30.304347" lon="-97.806611" changeset="false"><tag k="addr:street" v="Terrace Mountain Drive"/><tag k="addr:housenumber" v="910"/><tag k="addr:postcode" v="78746"/></node><node id="-110" lat="30.297742" lon="-97.796425" changeset="false"><tag k="addr:street" v="Wild Cat Hollow"/><tag k="addr:housenumber" v="1407"/><tag k="addr:postcode" v="78746"/></node><node id="-111" lat="30.296602" lon="-97.794829" changeset="false"><tag k="addr:street" v="Westlake Drive"/><tag k="addr:housenumber" v="1506"/><tag k="addr:postcode" v="78746"/></node></osm>