<?xml version="1.0" encoding="UTF-8"?><osm version="0.6" generator="github.com/aaronlidman/osm-and-geojson"><node id="-1" lat="30.316991" lon="-97.843536" changeset="false"><tag k="addr:street" v="Weston Lane North,1100"/><tag k="addr:housenumber" v="502"/><tag k="coa:place_id" v="740200"/></node><node id="-2" lat="30.336119" lon="-97.817618" changeset="false"><tag k="addr:street" v="Rivercrest Drive"/><tag k="addr:housenumber" v="3302"/><tag k="coa:place_id" v="195056"/></node><node id="-3" lat="30.348677" lon="-97.807536" changeset="false"><tag k="addr:street" v="Bunny Run"/><tag k="addr:housenumber" v="4720"/><tag k="coa:place_id" v="194840"/></node><node id="-4" lat="30.347096" lon="-97.800336" changeset="false"><tag k="addr:street" v="Capital of Texas Highway"/><tag k="addr:housenumber" v="4800"/><tag k="coa:place_id" v="318340"/></node><node id="-5" lat="30.333814" lon="-97.818586" changeset="false"><tag k="addr:street" v="Rivercrest Drive"/><tag k="addr:housenumber" v="3103"/><tag k="coa:place_id" v="500535"/></node><node id="-6" lat="30.337408" lon="-97.814912" changeset="false"><tag k="addr:street" v="Rivercrest Drive"/><tag k="addr:housenumber" v="3505"/><tag k="coa:place_id" v="671397"/></node><node id="-7" lat="30.338284" lon="-97.806551" changeset="false"><tag k="addr:street" v="Capital of Texas Highway"/><tag k="addr:housenumber" v="3900"/><tag k="coa:place_id" v="237656"/></node><node id="-8" lat="30.344078" lon="-97.809217" changeset="false"><tag k="addr:street" v="Aqua Verde Drive"/><tag k="addr:housenumber" v="4301"/><tag k="coa:place_id" v="269344"/></node><node id="-9" lat="30.324618" lon="-97.827781" changeset="false"><tag k="addr:street" v="Pascal Lane"/><tag k="addr:housenumber" v="82"/><tag k="coa:place_id" v="631846"/></node><node id="-10" lat="30.321916" lon="-97.846751" changeset="false"><tag k="addr:street" v="Elder Circle"/><tag k="addr:housenumber" v="801"/><tag k="coa:place_id" v="79735"/></node><node id="-11" lat="30.321671" lon="-97.847355" changeset="false"><tag k="addr:street" v="Elder Circle"/><tag k="addr:housenumber" v="709"/><tag k="coa:place_id" v="603094"/></node><node id="-12" lat="30.321254" lon="-97.84017" changeset="false"><tag k="addr:street" v="Weston Lane North,1100"/><tag k="addr:housenumber" v="909"/><tag k="coa:place_id" v="561604"/></node><node id="-13" lat="30.324617" lon="-97.824256" changeset="false"><tag k="addr:street" v="Pascal Court"/><tag k="addr:housenumber" v="6900"/><tag k="coa:place_id" v="1143911"/></node><node id="-14" lat="30.317878" lon="-97.831897" changeset="false"><tag k="addr:street" v="Pascal Lane"/><tag k="addr:housenumber" v="47"/><tag k="coa:place_id" v="145854"/></node><node id="-15" lat="30.308511" lon="-97.831216" changeset="false"><tag k="addr:street" v="Cousteau Lane"/><tag k="addr:housenumber" v="5"/><tag k="coa:place_id" v="682528"/></node><node id="-16" lat="30.320344" lon="-97.845689" changeset="false"><tag k="addr:street" v="Brightman Lane"/><tag k="addr:housenumber" v="7921"/><tag k="coa:place_id" v="79689"/></node><node id="-17" lat="30.325922" lon="-97.846023" changeset="false"><tag k="addr:street" v="Exton Cove"/><tag k="addr:housenumber" v="1105"/><tag k="coa:place_id" v="693634"/></node><node id="-18" lat="30.319569" lon="-97.851814" changeset="false"><tag k="addr:street" v="Barrett Lane"/><tag k="addr:housenumber" v="401"/><tag k="coa:place_id" v="606766"/></node><node id="-19" lat="30.324374" lon="-97.843936" changeset="false"><tag k="addr:street" v="Weston Lane North,1100"/><tag k="addr:housenumber" v="1105"/><tag k="coa:place_id" v="79639"/></node><node id="-20" lat="30.33476" lon="-97.817897" changeset="false"><tag k="addr:street" v="Rivercrest Drive"/><tag k="addr:housenumber" v="3203"/><tag k="coa:place_id" v="94073"/></node><node id="-21" lat="30.347649" lon="-97.809156" changeset="false"><tag k="addr:street" v="Rivercrest Drive"/><tag k="addr:housenumber" v="4516"/><tag k="coa:place_id" v="709930"/></node><node id="-22" lat="30.347432" lon="-97.809298" changeset="false"><tag k="addr:street" v="Rivercrest Drive"/><tag k="addr:housenumber" v="4510"/><tag k="coa:place_id" v="100979"/></node><node id="-23" lat="30.336095" lon="-97.81186" changeset="false"><tag k="addr:street" v="Bunny Run"/><tag k="addr:housenumber" v="3517"/><tag k="coa:place_id" v="3137107"/></node><node id="-24" lat="30.343746" lon="-97.807325" changeset="false"><tag k="addr:street" v="Bunny Run"/><tag k="addr:housenumber" v="4307"/><tag k="coa:place_id" v="143631"/></node><node id="-25" lat="30.346318" lon="-97.805381" changeset="false"><tag k="addr:street" v="Bunny Run"/><tag k="addr:housenumber" v="4601"/><tag k="coa:place_id" v="77346"/></node><node id="-26" lat="30.347203" lon="-97.809415" changeset="false"><tag k="addr:street" v="Rivercrest Drive"/><tag k="addr:housenumber" v="4504"/><tag k="coa:place_id" v="504250"/></node><node id="-27" lat="30.347125" lon="-97.80947" changeset="false"><tag k="addr:street" v="Rivercrest Drive"/><tag k="addr:housenumber" v="4502"/><tag k="coa:place_id" v="100969"/></node><node id="-28" lat="30.334661" lon="-97.848924" changeset="false"><tag k="addr:street" v="River Hills Road"/><tag k="addr:housenumber" v="1809"/><tag k="coa:place_id" v="195746"/></node><node id="-29" lat="30.337885" lon="-97.814558" changeset="false"><tag k="addr:street" v="Rivercrest Drive"/><tag k="addr:housenumber" v="3509"/><tag k="coa:place_id" v="95338"/></node><node id="-30" lat="30.337803" lon="-97.815827" changeset="false"><tag k="addr:street" v="Elfland Drive"/><tag k="addr:housenumber" v="6705"/><tag k="coa:place_id" v="748624"/></node><node id="-31" lat="30.318194" lon="-97.84572" changeset="false"><tag k="addr:street" v="Brightman Lane"/><tag k="addr:housenumber" v="7905"/><tag k="coa:place_id" v="79683"/></node><node id="-32" lat="30.317344" lon="-97.849542" changeset="false"><tag k="addr:street" v="Lowell Lane North,1100"/><tag k="addr:housenumber" v="300"/><tag k="coa:place_id" v="714604"/></node><node id="-33" lat="30.317173" lon="-97.842452" changeset="false"><tag k="addr:street" v="Weston Lane North,1100"/><tag k="addr:housenumber" v="601"/><tag k="coa:place_id" v="624208"/></node><node id="-34" lat="30.321663" lon="-97.840419" changeset="false"><tag k="addr:street" v="Weston Lane North,1100"/><tag k="addr:housenumber" v="1001"/><tag k="coa:place_id" v="569104"/></node><node id="-35" lat="30.321794" lon="-97.849273" changeset="false"><tag k="addr:street" v="Barrett Lane"/><tag k="addr:housenumber" v="601"/><tag k="coa:place_id" v="213091"/></node><node id="-36" lat="30.323576" lon="-97.841907" changeset="false"><tag k="addr:street" v="Weston Lane North,1100"/><tag k="addr:housenumber" v="1101"/><tag k="coa:place_id" v="118602"/></node><node id="-37" lat="30.328081" lon="-97.848974" changeset="false"><tag k="addr:street" v="River Hills Road"/><tag k="addr:housenumber" v="1201"/><tag k="coa:place_id" v="3183996"/></node><node id="-38" lat="30.320831" lon="-97.825932" changeset="false"><tag k="addr:street" v="Saint Stephen's School Road,1100"/><tag k="addr:housenumber" v="75"/><tag k="coa:place_id" v="129642"/></node><node id="-39" lat="30.31141" lon="-97.831499" changeset="false"><tag k="addr:street" v="Hedge Lane"/><tag k="addr:housenumber" v="8"/><tag k="coa:place_id" v="372508"/></node><node id="-40" lat="30.309166" lon="-97.830703" changeset="false"><tag k="addr:street" v="Hedge Lane"/><tag k="addr:housenumber" v="1"/><tag k="coa:place_id" v="129282"/></node><node id="-41" lat="30.335743" lon="-97.816468" changeset="false"><tag k="addr:street" v="Rivercrest Drive"/><tag k="addr:housenumber" v="3307"/><tag k="coa:place_id" v="241246"/></node><node id="-42" lat="30.307206" lon="-97.831733" changeset="false"><tag k="addr:street" v="Saint Stephen's School Road,1100"/><tag k="addr:housenumber" v="18"/><tag k="coa:place_id" v="65971"/></node><node id="-43" lat="30.326017" lon="-97.823789" changeset="false"><tag k="addr:street" v="Pascal Lane"/><tag k="addr:housenumber" v="101"/><tag k="coa:place_id" v="122251"/></node><node id="-44" lat="30.31908" lon="-97.844622" changeset="false"><tag k="addr:street" v="Brightman Lane"/><tag k="addr:housenumber" v="7908"/><tag k="coa:place_id" v="79677"/></node><node id="-45" lat="30.314857" lon="-97.829459" changeset="false"><tag k="addr:street" v="Pascal Lane"/><tag k="addr:housenumber" v="13"/><tag k="coa:place_id" v="136642"/></node><node id="-46" lat="30.304767" lon="-97.838683" changeset="false"><tag k="addr:street" v="Saint Stephen's School Road,1100"/><tag k="addr:housenumber" v="412"/><tag k="coa:place_id" v="1142235"/></node><node id="-47" lat="30.343116" lon="-97.814046" changeset="false"><tag k="addr:street" v="Greenshores Drive"/><tag k="addr:housenumber" v="6907"/><tag k="coa:place_id" v="546746"/></node><node id="-48" lat="30.301869" lon="-97.836439" changeset="false"><tag k="addr:street" v="Canon Wren Drive"/><tag k="addr:housenumber" v="6801"/><tag k="coa:place_id" v="1142310"/></node><node id="-49" lat="30.336098" lon="-97.810072" changeset="false"><tag k="addr:street" v="Royal Approach Drive"/><tag k="addr:housenumber" v="6600"/><tag k="coa:place_id" v="3311486"/></node><node id="-50" lat="30.345438" lon="-97.810486" changeset="false"><tag k="addr:street" v="Rivercrest Drive"/><tag k="addr:housenumber" v="4310"/><tag k="coa:place_id" v="194912"/></node><node id="-51" lat="30.33261" lon="-97.847551" changeset="false"><tag k="addr:street" v="River Hills Road"/><tag k="addr:housenumber" v="1707"/><tag k="coa:place_id" v="249864"/></node><node id="-52" lat="30.335671" lon="-97.815766" changeset="false"><tag k="addr:street" v="Hillbilly Lane"/><tag k="addr:housenumber" v="3208"/><tag k="coa:place_id" v="3390640"/></node><node id="-53" lat="30.318305" lon="-97.827276" changeset="false"><tag k="addr:street" v="Saint Stephen's School Road,1100"/><tag k="addr:housenumber" v="67"/><tag k="coa:place_id" v="211417"/></node><node id="-54" lat="30.334103" lon="-97.810615" changeset="false"><tag k="addr:street" v="Westlake Drive"/><tag k="addr:housenumber" v="4501"/><tag k="coa:place_id" v="3501381"/></node><node id="-55" lat="30.326622" lon="-97.8256" changeset="false"><tag k="addr:street" v="Pascal Lane"/><tag k="addr:housenumber" v="96"/><tag k="coa:place_id" v="122245"/></node><node id="-56" lat="30.342945" lon="-97.814222" changeset="false"><tag k="addr:street" v="Greenshores Drive"/><tag k="addr:housenumber" v="6906"/><tag k="coa:place_id" v="546752"/></node><node id="-57" lat="30.3475" lon="-97.809248" changeset="false"><tag k="addr:street" v="Rivercrest Drive"/><tag k="addr:housenumber" v="4512"/><tag k="coa:place_id" v="412846"/></node><node id="-58" lat="30.339615" lon="-97.813561" changeset="false"><tag k="addr:street" v="Rivercrest Drive"/><tag k="addr:housenumber" v="3703"/><tag k="coa:place_id" v="139908"/></node><node id="-59" lat="30.33954" lon="-97.814219" changeset="false"><tag k="addr:street" v="Rivercrest Drive"/><tag k="addr:housenumber" v="3700"/><tag k="coa:place_id" v="95329"/></node><node id="-60" lat="30.345416" lon="-97.809412" changeset="false"><tag k="addr:street" v="Aqua Verde Drive"/><tag k="addr:housenumber" v="4400"/><tag k="coa:place_id" v="128825"/></node><node id="-61" lat="30.343291" lon="-97.813869" changeset="false"><tag k="addr:street" v="Greenshores Drive"/><tag k="addr:housenumber" v="6921"/><tag k="coa:place_id" v="546806"/></node><node id="-62" lat="30.345589" lon="-97.810384" changeset="false"><tag k="addr:street" v="Rivercrest Drive"/><tag k="addr:housenumber" v="4314"/><tag k="coa:place_id" v="100950"/></node><node id="-63" lat="30.331007" lon="-97.821586" changeset="false"><tag k="addr:street" v="Rivercrest Drive"/><tag k="addr:housenumber" v="2801"/><tag k="coa:place_id" v="94044"/></node><node id="-64" lat="30.309696" lon="-97.841345" changeset="false"><tag k="addr:street" v="Addie Roy Road"/><tag k="addr:housenumber" v="257"/><tag k="coa:place_id" v="1142335"/></node><node id="-65" lat="30.340305" lon="-97.813838" changeset="false"><tag k="addr:street" v="Rivercrest Drive"/><tag k="addr:housenumber" v="3800"/><tag k="coa:place_id" v="3085729"/></node><node id="-66" lat="30.336763" lon="-97.816073" changeset="false"><tag k="addr:street" v="Rivercrest Drive"/><tag k="addr:housenumber" v="3404"/><tag k="coa:place_id" v="788661"/></node><node id="-67" lat="30.339273" lon="-97.846575" changeset="false"><tag k="addr:street" v="Island Wood Road"/><tag k="addr:housenumber" v="2309"/><tag k="coa:place_id" v="81195"/></node><node id="-68" lat="30.333414" lon="-97.819056" changeset="false"><tag k="addr:street" v="Rivercrest Drive"/><tag k="addr:housenumber" v="3007"/><tag k="coa:place_id" v="758572"/></node><node id="-69" lat="30.333173" lon="-97.820373" changeset="false"><tag k="addr:street" v="Rivercrest Drive"/><tag k="addr:housenumber" v="3000"/><tag k="coa:place_id" v="94050"/></node><node id="-70" lat="30.340175" lon="-97.813731" changeset="false"><tag k="addr:street" v="Rivercrest Drive"/><tag k="addr:housenumber" v="3716"/><tag k="coa:place_id" v="194930"/></node><node id="-71" lat="30.30351" lon="-97.838376" changeset="false"><tag k="addr:street" v="Saint Stephen's School Road,1100"/><tag k="addr:housenumber" v="421"/><tag k="coa:place_id" v="3043403"/></node><node id="-72" lat="30.316141" lon="-97.826788" changeset="false"><tag k="addr:street" v="Pascal Lane"/><tag k="addr:housenumber" v="1 1/2"/><tag k="coa:place_id" v="3184151"/></node><node id="-73" lat="30.320464" lon="-97.849041" changeset="false"><tag k="addr:street" v="Tyndale Cove"/><tag k="addr:housenumber" v="8202"/><tag k="coa:place_id" v="79719"/></node><node id="-74" lat="30.320177" lon="-97.842208" changeset="false"><tag k="addr:street" v="Weston Lane North,1100"/><tag k="addr:housenumber" v="906"/><tag k="coa:place_id" v="79660"/></node><node id="-75" lat="30.322232" lon="-97.825984" changeset="false"><tag k="addr:street" v="Saint Stephen's School Road,1100"/><tag k="addr:housenumber" v="80"/><tag k="coa:place_id" v="550173"/></node><node id="-76" lat="30.320804" lon="-97.832743" changeset="false"><tag k="addr:street" v="Humboldt Lane"/><tag k="addr:housenumber" v="1"/><tag k="coa:place_id" v="145855"/></node><node id="-77" lat="30.318904" lon="-97.82935" changeset="false"><tag k="addr:street" v="Chapin Lane"/><tag k="addr:housenumber" v="1"/><tag k="coa:place_id" v="533913"/></node><node id="-78" lat="30.304207" lon="-97.830943" changeset="false"><tag k="addr:street" v="Wild Basin Road,1100"/><tag k="addr:housenumber" v="215"/><tag k="coa:place_id" v="1143865"/></node><node id="-79" lat="30.314654" lon="-97.832031" changeset="false"><tag k="addr:street" v="Pascal Lane"/><tag k="addr:housenumber" v="31"/><tag k="coa:place_id" v="600850"/></node><node id="-80" lat="30.341328" lon="-97.811327" changeset="false"><tag k="addr:street" v="Bridge Hill Cove"/><tag k="addr:housenumber" v="6707"/><tag k="coa:place_id" v="653470"/></node><node id="-81" lat="30.334148" lon="-97.819545" changeset="false"><tag k="addr:street" v="Rivercrest Drive"/><tag k="addr:housenumber" v="3100"/><tag k="coa:place_id" v="94055"/></node><node id="-82" lat="30.334505" lon="-97.848472" changeset="false"><tag k="addr:street" v="River Hills Road"/><tag k="addr:housenumber" v="1807"/><tag k="coa:place_id" v="195740"/></node><node id="-83" lat="30.335085" lon="-97.818579" changeset="false"><tag k="addr:street" v="Rivercrest Drive"/><tag k="addr:housenumber" v="3200"/><tag k="coa:place_id" v="94061"/></node><node id="-84" lat="30.339565" lon="-97.810033" changeset="false"><tag k="addr:street" v="Meandering Creek Cove"/><tag k="addr:housenumber" v="3814"/><tag k="coa:place_id" v="169079"/></node><node id="-85" lat="30.325651" lon="-97.848066" changeset="false"><tag k="addr:street" v="Elder Circle"/><tag k="addr:housenumber" v="1113"/><tag k="coa:place_id" v="79744"/></node><node id="-86" lat="30.32305" lon="-97.84538" changeset="false"><tag k="addr:street" v="Elder Circle"/><tag k="addr:housenumber" v="901"/><tag k="coa:place_id" v="79737"/></node><node id="-87" lat="30.301877" lon="-97.83841" changeset="false"><tag k="addr:street" v="Canon Wren Drive"/><tag k="addr:housenumber" v="6900"/><tag k="coa:place_id" v="1100428"/></node><node id="-88" lat="30.301845" lon="-97.829353" changeset="false"><tag k="addr:street" v="Capital of Texas Highway"/><tag k="addr:housenumber" v="320"/><tag k="coa:place_id" v="3041491"/></node><node id="-89" lat="30.314156" lon="-97.833293" changeset="false"><tag k="addr:street" v="Hedge Lane"/><tag k="addr:housenumber" v="20"/><tag k="coa:place_id" v="713302"/></node><node id="-90" lat="30.313869" lon="-97.844386" changeset="false"><tag k="addr:street" v="Billings Lane"/><tag k="addr:housenumber" v="105"/><tag k="coa:place_id" v="612730"/></node><node id="-91" lat="30.31212" lon="-97.840719" changeset="false"><tag k="addr:street" v="Weston Lane North,1100"/><tag k="addr:housenumber" v="105"/><tag k="coa:place_id" v="79641"/></node><node id="-92" lat="30.345657" lon="-97.810327" changeset="false"><tag k="addr:street" v="Rivercrest Drive"/><tag k="addr:housenumber" v="4316"/><tag k="coa:place_id" v="100951"/></node><node id="-93" lat="30.34512" lon="-97.810368" changeset="false"><tag k="addr:street" v="Rivercrest Drive"/><tag k="addr:housenumber" v="4304"/><tag k="coa:place_id" v="100945"/></node><node id="-94" lat="30.347793" lon="-97.809025" changeset="false"><tag k="addr:street" v="Rivercrest Drive"/><tag k="addr:housenumber" v="4520"/><tag k="coa:place_id" v="100981"/></node><node id="-95" lat="30.346072" lon="-97.809345" changeset="false"><tag k="addr:street" v="Aqua Verde Drive"/><tag k="addr:housenumber" v="4404"/><tag k="coa:place_id" v="811419"/></node><node id="-96" lat="30.345961" lon="-97.810161" changeset="false"><tag k="addr:street" v="Rivercrest Drive"/><tag k="addr:housenumber" v="4404"/><tag k="coa:place_id" v="100956"/></node><node id="-97" lat="30.32038" lon="-97.826213" changeset="false"><tag k="addr:street" v="Saint Stephen's School Road,1100"/><tag k="addr:housenumber" v="73"/><tag k="coa:place_id" v="129641"/></node><node id="-98" lat="30.319023" lon="-97.852883" changeset="false"><tag k="addr:street" v="Sumner Court"/><tag k="addr:housenumber" v="8311"/><tag k="coa:place_id" v="123551"/></node><node id="-99" lat="30.318274" lon="-97.844468" changeset="false"><tag k="addr:street" v="Brightman Lane"/><tag k="addr:housenumber" v="7900"/><tag k="coa:place_id" v="596176"/></node><node id="-100" lat="30.31775" lon="-97.845408" changeset="false"><tag k="addr:street" v="Brightman Lane"/><tag k="addr:housenumber" v="7901"/><tag k="coa:place_id" v="737704"/></node><node id="-101" lat="30.321013" lon="-97.849449" changeset="false"><tag k="addr:street" v="Tyndale Cove"/><tag k="addr:housenumber" v="8206"/><tag k="coa:place_id" v="79720"/></node><node id="-102" lat="30.320735" lon="-97.839796" changeset="false"><tag k="addr:street" v="Weston Lane North,1100"/><tag k="addr:housenumber" v="905"/><tag k="coa:place_id" v="79655"/></node><node id="-103" lat="30.320596" lon="-97.842373" changeset="false"><tag k="addr:street" v="Weston Lane North,1100"/><tag k="addr:housenumber" v="1000"/><tag k="coa:place_id" v="79661"/></node><node id="-104" lat="30.343607" lon="-97.811215" changeset="false"><tag k="addr:street" v="Rivercrest Drive"/><tag k="addr:housenumber" v="4120"/><tag k="coa:place_id" v="194894"/></node><node id="-105" lat="30.320955" lon="-97.842485" changeset="false"><tag k="addr:street" v="Weston Lane North,1100"/><tag k="addr:housenumber" v="1004"/><tag k="coa:place_id" v="79636"/></node><node id="-106" lat="30.300464" lon="-97.834099" changeset="false"><tag k="addr:street" v="Canon Wren Drive"/><tag k="addr:housenumber" v="6507"/><tag k="coa:place_id" v="683733"/></node><node id="-107" lat="30.315642" lon="-97.841362" changeset="false"><tag k="addr:street" v="Weston Lane North,1100"/><tag k="addr:housenumber" v="309"/><tag k="coa:place_id" v="740182"/></node><node id="-108" lat="30.301493" lon="-97.833377" changeset="false"><tag k="addr:street" v="Canon Wren Drive"/><tag k="addr:housenumber" v="6504"/><tag k="coa:place_id" v="3294552"/></node><node id="-109" lat="30.347124" lon="-97.808708" changeset="false"><tag k="addr:street" v="Aqua Verde Drive"/><tag k="addr:housenumber" v="4502"/><tag k="coa:place_id" v="589677"/></node><node id="-110" lat="30.30012" lon="-97.828824" changeset="false"><tag k="addr:street" v="Capital of Texas Highway"/><tag k="addr:housenumber" v="412"/><tag k="coa:place_id" v="3373823"/></node><node id="-111" lat="30.313891" lon="-97.834066" changeset="false"><tag k="addr:street" v="Hedge Lane"/><tag k="addr:housenumber" v="23"/><tag k="coa:place_id" v="3371687"/></node><node id="-112" lat="30.335382" lon="-97.848237" changeset="false"><tag k="addr:street" v="River Hills Road"/><tag k="addr:housenumber" v="2001"/><tag k="coa:place_id" v="195788"/></node><node id="-113" lat="30.341751" lon="-97.809462" changeset="false"><tag k="addr:street" v="Bridge Hill Cove"/><tag k="addr:housenumber" v="6700"/><tag k="coa:place_id" v="118164"/></node><node id="-114" lat="30.338685" lon="-97.810716" changeset="false"><tag k="addr:street" v="Dogwood Creek Drive"/><tag k="addr:housenumber" v="6708 1/2"/><tag k="coa:place_id" v="3099834"/></node><node id="-115" lat="30.336786" lon="-97.812527" changeset="false"><tag k="addr:street" v="Bunny Run"/><tag k="addr:housenumber" v="3516"/><tag k="coa:place_id" v="3137108"/></node><node id="-116" lat="30.32154" lon="-97.825224" changeset="false"><tag k="addr:street" v="Saint Stephen's School Road,1100"/><tag k="addr:housenumber" v="79"/><tag k="coa:place_id" v="129647"/></node><node id="-117" lat="30.307116" lon="-97.840932" changeset="false"><tag k="addr:street" v="Addie Roy Road"/><tag k="addr:housenumber" v="319"/><tag k="coa:place_id" v="199503"/></node><node id="-118" lat="30.319681" lon="-97.832415" changeset="false"><tag k="addr:street" v="Pascal Lane"/><tag k="addr:housenumber" v="54"/><tag k="coa:place_id" v="127487"/></node><node id="-119" lat="30.323352" lon="-97.825902" changeset="false"><tag k="addr:street" v="Stegner Lane"/><tag k="addr:housenumber" v="5"/><tag k="coa:place_id" v="747873"/></node><node id="-120" lat="30.303311" lon="-97.833529" changeset="false"><tag k="addr:street" v="Ehrlich Road"/><tag k="addr:housenumber" v="9"/><tag k="coa:place_id" v="522045"/></node><node id="-121" lat="30.313395" lon="-97.829221" changeset="false"><tag k="addr:street" v="Pascal Lane"/><tag k="addr:housenumber" v="18"/><tag k="coa:place_id" v="145882"/></node><node id="-122" lat="30.315288" lon="-97.829105" changeset="false"><tag k="addr:street" v="Pascal Lane"/><tag k="addr:housenumber" v="11"/><tag k="coa:place_id" v="131774"/></node><node id="-123" lat="30.313492" lon="-97.845501" changeset="false"><tag k="addr:street" v="Billings Lane"/><tag k="addr:housenumber" v="108"/><tag k="coa:place_id" v="79631"/></node><node id="-124" lat="30.319923" lon="-97.840581" changeset="false"><tag k="addr:street" v="Weston Lane North,1100"/><tag k="addr:housenumber" v="901"/><tag k="coa:place_id" v="671968"/></node><node id="-125" lat="30.317092" lon="-97.841113" changeset="false"><tag k="addr:street" v="Weston Lane North,1100"/><tag k="addr:housenumber" v="403"/><tag k="coa:place_id" v="79646"/></node><node id="-126" lat="30.330572" lon="-97.846683" changeset="false"><tag k="addr:street" v="River Hills Road"/><tag k="addr:housenumber" v="1703"/><tag k="coa:place_id" v="125333"/></node><node id="-127" lat="30.344417" lon="-97.811001" changeset="false"><tag k="addr:street" v="Rivercrest Drive"/><tag k="addr:housenumber" v="4206"/><tag k="coa:place_id" v="364551"/></node><node id="-128" lat="30.316337" lon="-97.84373" changeset="false"><tag k="addr:street" v="Weston Lane North,1100"/><tag k="addr:housenumber" v="402"/><tag k="coa:place_id" v="584008"/></node><node id="-129" lat="30.324332" lon="-97.849121" changeset="false"><tag k="addr:street" v="Elder Circle"/><tag k="addr:housenumber" v="1129"/><tag k="coa:place_id" v="79723"/></node><node id="-130" lat="30.323747" lon="-97.848304" changeset="false"><tag k="addr:street" v="Elder Circle"/><tag k="addr:housenumber" v="1128"/><tag k="coa:place_id" v="79726"/></node><node id="-131" lat="30.316532" lon="-97.827344" changeset="false"><tag k="addr:street" v="Pascal Lane"/><tag k="addr:housenumber" v="3"/><tag k="coa:place_id" v="145884"/></node><node id="-132" lat="30.31616" lon="-97.828426" changeset="false"><tag k="addr:street" v="Pascal Lane"/><tag k="addr:housenumber" v="7"/><tag k="coa:place_id" v="145888"/></node><node id="-133" lat="30.314921" lon="-97.842044" changeset="false"><tag k="addr:street" v="Weston Lane North,1100"/><tag k="addr:housenumber" v="301"/><tag k="coa:place_id" v="79643"/></node><node id="-134" lat="30.3128" lon="-97.844904" changeset="false"><tag k="addr:street" v="Weston Lane North,1100"/><tag k="addr:housenumber" v="100"/><tag k="coa:place_id" v="3107574"/></node><node id="-135" lat="30.336046" lon="-97.817375" changeset="false"><tag k="addr:street" v="Rivercrest Drive"/><tag k="addr:housenumber" v="3304"/><tag k="coa:place_id" v="628678"/></node><node id="-136" lat="30.314837" lon="-97.850134" changeset="false"><tag k="addr:street" v="Lowell Lane North,1100"/><tag k="addr:housenumber" v="100"/><tag k="coa:place_id" v="1142327"/></node><node id="-137" lat="30.34182" lon="-97.810195" changeset="false"><tag k="addr:street" v="Bridge Hill Cove"/><tag k="addr:housenumber" v="6704"/><tag k="coa:place_id" v="111586"/></node><node id="-138" lat="30.315622" lon="-97.843566" changeset="false"><tag k="addr:street" v="Weston Lane North,1100"/><tag k="addr:housenumber" v="400"/><tag k="coa:place_id" v="184703"/></node><node id="-139" lat="30.312917" lon="-97.830076" changeset="false"><tag k="addr:street" v="Pascal Lane"/><tag k="addr:housenumber" v="22"/><tag k="coa:place_id" v="126037"/></node><node id="-140" lat="30.317802" lon="-97.847482" changeset="false"><tag k="addr:street" v="Lowell Lane North,1100"/><tag k="addr:housenumber" v="401"/><tag k="coa:place_id" v="79695"/></node><node id="-141" lat="30.317349" lon="-97.841754" changeset="false"><tag k="addr:street" v="Weston Lane North,1100"/><tag k="addr:housenumber" v="605"/><tag k="coa:place_id" v="79649"/></node><node id="-142" lat="30.344691" lon="-97.810564" changeset="false"><tag k="addr:street" v="Rivercrest Drive"/><tag k="addr:housenumber" v="4300"/><tag k="coa:place_id" v="100891"/></node><node id="-143" lat="30.336234" lon="-97.81579" changeset="false"><tag k="addr:street" v="Rivercrest Drive"/><tag k="addr:housenumber" v="3403"/><tag k="coa:place_id" v="173623"/></node><node id="-144" lat="30.309883" lon="-97.842079" changeset="false"><tag k="addr:street" v="Addie Roy Road"/><tag k="addr:housenumber" v="251"/><tag k="coa:place_id" v="205260"/></node><node id="-145" lat="30.347903" lon="-97.808947" changeset="false"><tag k="addr:street" v="Rivercrest Drive"/><tag k="addr:housenumber" v="4522"/><tag k="coa:place_id" v="127723"/></node><node id="-146" lat="30.34687" lon="-97.807422" changeset="false"><tag k="addr:street" v="Aqua Verde Drive"/><tag k="addr:housenumber" v="4507"/><tag k="coa:place_id" v="122051"/></node><node id="-147" lat="30.307845" lon="-97.834037" changeset="false"><tag k="addr:street" v="Rob Roy Road"/><tag k="addr:housenumber" v="9"/><tag k="coa:place_id" v="564538"/></node><node id="-148" lat="30.309559" lon="-97.839108" changeset="false"><tag k="addr:street" v="Cousteau Lane"/><tag k="addr:housenumber" v="36"/><tag k="coa:place_id" v="674199"/></node><node id="-149" lat="30.308875" lon="-97.841015" changeset="false"><tag k="addr:street" v="Addie Roy Road"/><tag k="addr:housenumber" v="301"/><tag k="coa:place_id" v="195212"/></node><node id="-150" lat="30.343196" lon="-97.813917" changeset="false"><tag k="addr:street" v="Greenshores Drive"/><tag k="addr:housenumber" v="6915"/><tag k="coa:place_id" v="546782"/></node><node id="-151" lat="30.340599" lon="-97.811414" changeset="false"><tag k="addr:street" v="Hunterwood Point"/><tag k="addr:housenumber" v="3830"/><tag k="coa:place_id" v="159151"/></node><node id="-152" lat="30.340002" lon="-97.812153" changeset="false"><tag k="addr:street" v="Hunterwood Point"/><tag k="addr:housenumber" v="3816"/><tag k="coa:place_id" v="150537"/></node><node id="-153" lat="30.339908" lon="-97.809724" changeset="false"><tag k="addr:street" v="Meandering Creek Cove"/><tag k="addr:housenumber" v="3817"/><tag k="coa:place_id" v="169080"/></node><node id="-154" lat="30.339344" lon="-97.812522" changeset="false"><tag k="addr:street" v="Hunterwood Point"/><tag k="addr:housenumber" v="3800"/><tag k="coa:place_id" v="151776"/></node><node id="-155" lat="30.339057" lon="-97.809963" changeset="false"><tag k="addr:street" v="Meandering Creek Cove"/><tag k="addr:housenumber" v="3806"/><tag k="coa:place_id" v="169074"/></node><node id="-156" lat="30.318296" lon="-97.82498" changeset="false"><tag k="addr:street" v="Saint Stephen's School Cove"/><tag k="addr:housenumber" v="6800"/><tag k="coa:place_id" v="143245"/></node><node id="-157" lat="30.316268" lon="-97.826632" changeset="false"><tag k="addr:street" v="Pascal Lane"/><tag k="addr:housenumber" v="1"/><tag k="coa:place_id" v="182907"/></node><node id="-158" lat="30.325335" lon="-97.848332" changeset="false"><tag k="addr:street" v="Elder Circle"/><tag k="addr:housenumber" v="1117"/><tag k="coa:place_id" v="586060"/></node><node id="-159" lat="30.313277" lon="-97.844349" changeset="false"><tag k="addr:street" v="Billings Lane"/><tag k="addr:housenumber" v="101"/><tag k="coa:place_id" v="130572"/></node><node id="-160" lat="30.31279" lon="-97.850432" changeset="false"><tag k="addr:street" v="Lowell Lane North,1100"/><tag k="addr:housenumber" v="202"/><tag k="coa:place_id" v="586792"/></node><node id="-161" lat="30.310747" lon="-97.843292" changeset="false"><tag k="addr:street" v="Addie Roy Road"/><tag k="addr:housenumber" v="225"/><tag k="coa:place_id" v="191627"/></node><node id="-162" lat="30.305713" lon="-97.837373" changeset="false"><tag k="addr:street" v="Saint Stephen's School Road,1100"/><tag k="addr:housenumber" v="324"/><tag k="coa:place_id" v="1113447"/></node><node id="-163" lat="30.323994" lon="-97.849266" changeset="false"><tag k="addr:street" v="Elder Circle"/><tag k="addr:housenumber" v="1133"/><tag k="coa:place_id" v="79722"/></node><node id="-164" lat="30.323447" lon="-97.845175" changeset="false"><tag k="addr:street" v="Elder Circle"/><tag k="addr:housenumber" v="905"/><tag k="coa:place_id" v="737938"/></node><node id="-165" lat="30.324842" lon="-97.827409" changeset="false"><tag k="addr:street" v="Pascal Lane"/><tag k="addr:housenumber" v="84"/><tag k="coa:place_id" v="535017"/></node><node id="-166" lat="30.322322" lon="-97.846439" changeset="false"><tag k="addr:street" v="Elder Circle"/><tag k="addr:housenumber" v="805"/><tag k="coa:place_id" v="79736"/></node><node id="-167" lat="30.343363" lon="-97.811899" changeset="false"><tag k="addr:street" v="Rivercrest Drive"/><tag k="addr:housenumber" v="4104 1/2"/><tag k="coa:place_id" v="100926"/></node><node id="-168" lat="30.338335" lon="-97.811844" changeset="false"><tag k="addr:street" v="Hunterwood Point"/><tag k="addr:housenumber" v="3725"/><tag k="coa:place_id" v="159145"/></node><node id="-169" lat="30.336248" lon="-97.812332" changeset="false"><tag k="addr:street" v="Bunny Run"/><tag k="addr:housenumber" v="3513"/><tag k="coa:place_id" v="3137106"/></node><node id="-170" lat="30.334434" lon="-97.819198" changeset="false"><tag k="addr:street" v="Rivercrest Drive"/><tag k="addr:housenumber" v="3104"/><tag k="coa:place_id" v="195098"/></node><node id="-171" lat="30.343079" lon="-97.813861" changeset="false"><tag k="addr:street" v="Greenshores Drive"/><tag k="addr:housenumber" v="7103"/><tag k="coa:place_id" v="546818"/></node><node id="-172" lat="30.344844" lon="-97.807998" changeset="false"><tag k="addr:street" v="Charles Avenue"/><tag k="addr:housenumber" v="4311"/><tag k="coa:place_id" v="3372765"/></node><node id="-173" lat="30.334444" lon="-97.809734" changeset="false"><tag k="addr:street" v="Westlake Drive"/><tag k="addr:housenumber" v="4424"/><tag k="coa:place_id" v="3299667"/></node><node id="-174" lat="30.324986" lon="-97.824199" changeset="false"><tag k="addr:street" v="Pascal Court"/><tag k="addr:housenumber" v="6902"/><tag k="coa:place_id" v="118627"/></node><node id="-175" lat="30.324636" lon="-97.824727" changeset="false"><tag k="addr:street" v="Pascal Court"/><tag k="addr:housenumber" v="6903"/><tag k="coa:place_id" v="118630"/></node><node id="-176" lat="30.333615" lon="-97.818812" changeset="false"><tag k="addr:street" v="Rivercrest Drive"/><tag k="addr:housenumber" v="3101"/><tag k="coa:place_id" v="94067"/></node><node id="-177" lat="30.343083" lon="-97.811696" changeset="false"><tag k="addr:street" v="Rivercrest Drive"/><tag k="addr:housenumber" v="4102"/><tag k="coa:place_id" v="100925"/></node><node id="-178" lat="30.347685" lon="-97.806047" changeset="false"><tag k="addr:street" v="Charles Avenue"/><tag k="addr:housenumber" v="4607"/><tag k="coa:place_id" v="127500"/></node><node id="-179" lat="30.33718" lon="-97.815077" changeset="false"><tag k="addr:street" v="Rivercrest Drive"/><tag k="addr:housenumber" v="3503"/><tag k="coa:place_id" v="95334"/></node><node id="-180" lat="30.3356" lon="-97.846681" changeset="false"><tag k="addr:street" v="River Hills Road"/><tag k="addr:housenumber" v="2005"/><tag k="coa:place_id" v="195800"/></node><node id="-181" lat="30.34343" lon="-97.801778" changeset="false"><tag k="addr:street" v="Capital of Texas Highway"/><tag k="addr:housenumber" v="4500 1/2"/><tag k="coa:place_id" v="3133764"/></node><node id="-182" lat="30.340455" lon="-97.811809" changeset="false"><tag k="addr:street" v="Hunterwood Point"/><tag k="addr:housenumber" v="3824"/><tag k="coa:place_id" v="159027"/></node><node id="-183" lat="30.335856" lon="-97.812241" changeset="false"><tag k="addr:street" v="Bunny Run"/><tag k="addr:housenumber" v="3509"/><tag k="coa:place_id" v="3137105"/></node><node id="-184" lat="30.346702" lon="-97.809782" changeset="false"><tag k="addr:street" v="Rivercrest Drive"/><tag k="addr:housenumber" v="4424"/><tag k="coa:place_id" v="165598"/></node><node id="-185" lat="30.34641" lon="-97.80989" changeset="false"><tag k="addr:street" v="Rivercrest Drive"/><tag k="addr:housenumber" v="4416"/><tag k="coa:place_id" v="616018"/></node><node id="-186" lat="30.345854" lon="-97.807361" changeset="false"><tag k="addr:street" v="Liveoak Drive"/><tag k="addr:housenumber" v="6604"/><tag k="coa:place_id" v="612639"/></node><node id="-187" lat="30.345226" lon="-97.800914" changeset="false"><tag k="addr:street" v="Capital of Texas Highway"/><tag k="addr:housenumber" v="4700"/><tag k="coa:place_id" v="3077847"/></node><node id="-188" lat="30.34286" lon="-97.814311" changeset="false"><tag k="addr:street" v="Greenshores Drive"/><tag k="addr:housenumber" v="6902"/><tag k="coa:place_id" v="546758"/></node><node id="-189" lat="30.338207" lon="-97.814958" changeset="false"><tag k="addr:street" v="Rivercrest Drive"/><tag k="addr:housenumber" v="3510"/><tag k="coa:place_id" v="97390"/></node><node id="-190" lat="30.330191" lon="-97.822461" changeset="false"><tag k="addr:street" v="Rivercrest Drive"/><tag k="addr:housenumber" v="2703"/><tag k="coa:place_id" v="1143909"/></node><node id="-191" lat="30.32503" lon="-97.846964" changeset="false"><tag k="addr:street" v="Elder Circle"/><tag k="addr:housenumber" v="1104"/><tag k="coa:place_id" v="728608"/></node><node id="-192" lat="30.322968" lon="-97.850394" changeset="false"><tag k="addr:street" v="Barrett Lane"/><tag k="addr:housenumber" v="704"/><tag k="coa:place_id" v="79716"/></node><node id="-193" lat="30.322513" lon="-97.841239" changeset="false"><tag k="addr:street" v="Weston Lane North,1100"/><tag k="addr:housenumber" v="1009"/><tag k="coa:place_id" v="79672"/></node><node id="-194" lat="30.339292" lon="-97.809333" changeset="false"><tag k="addr:street" v="Meandering Creek Cove"/><tag k="addr:housenumber" v="3809"/><tag k="coa:place_id" v="169085"/></node><node id="-195" lat="30.318862" lon="-97.852385" changeset="false"><tag k="addr:street" v="Sumner Court"/><tag k="addr:housenumber" v="8307"/><tag k="coa:place_id" v="79706"/></node><node id="-196" lat="30.318514" lon="-97.847782" changeset="false"><tag k="addr:street" v="Lowell Lane North,1100"/><tag k="addr:housenumber" v="402"/><tag k="coa:place_id" v="79702"/></node><node id="-197" lat="30.318504" lon="-97.851231" changeset="false"><tag k="addr:street" v="Sumner Court"/><tag k="addr:housenumber" v="8301"/><tag k="coa:place_id" v="79708"/></node><node id="-198" lat="30.3318" lon="-97.846432" changeset="false"><tag k="addr:street" v="River Hills Road"/><tag k="addr:housenumber" v="1705 1/2"/><tag k="coa:place_id" v="3040286"/></node><node id="-199" lat="30.340138" lon="-97.81376" changeset="false"><tag k="addr:street" v="Rivercrest Drive"/><tag k="addr:housenumber" v="3714"/><tag k="coa:place_id" v="194936"/></node><node id="-200" lat="30.315296" lon="-97.838991" changeset="false"><tag k="addr:street" v="Cicero Lane"/><tag k="addr:housenumber" v="21"/><tag k="coa:place_id" v="550077"/></node><node id="-201" lat="30.338022" lon="-97.812708" changeset="false"><tag k="addr:street" v="Hunterwood Point"/><tag k="addr:housenumber" v="3718"/><tag k="coa:place_id" v="159157"/></node><node id="-202" lat="30.313854" lon="-97.828354" changeset="false"><tag k="addr:street" v="Pascal Lane"/><tag k="addr:housenumber" v="14"/><tag k="coa:place_id" v="145878"/></node><node id="-203" lat="30.312033" lon="-97.827873" changeset="false"><tag k="addr:street" v="Capital of Texas Highway"/><tag k="addr:housenumber" v="800"/><tag k="coa:place_id" v="1163397"/></node><node id="-204" lat="30.346027" lon="-97.805592" changeset="false"><tag k="addr:street" v="Bunny Run"/><tag k="addr:housenumber" v="4509"/><tag k="coa:place_id" v="243244"/></node><node id="-205" lat="30.337577" lon="-97.810066" changeset="false"><tag k="addr:street" v="Dogwood Creek Drive"/><tag k="addr:housenumber" v="6619"/><tag k="coa:place_id" v="169043"/></node><node id="-206" lat="30.335055" lon="-97.813885" changeset="false"><tag k="addr:street" v="Bunny Run"/><tag k="addr:housenumber" v="3405"/><tag k="coa:place_id" v="3137098"/></node><node id="-207" lat="30.343918" lon="-97.80677" changeset="false"><tag k="addr:street" v="Bunny Run"/><tag k="addr:housenumber" v="4309"/><tag k="coa:place_id" v="143632"/></node><node id="-208" lat="30.336364" lon="-97.813299" changeset="false"><tag k="addr:street" v="Bunny Run"/><tag k="addr:housenumber" v="3500"/><tag k="coa:place_id" v="3137094"/></node><node id="-209" lat="30.34507" lon="-97.808603" changeset="false"><tag k="addr:street" v="Aqua Verde Drive"/><tag k="addr:housenumber" v="4401"/><tag k="coa:place_id" v="122585"/></node><node id="-210" lat="30.340091" lon="-97.813797" changeset="false"><tag k="addr:street" v="Rivercrest Drive"/><tag k="addr:housenumber" v="3706"/><tag k="coa:place_id" v="373143"/></node><node id="-211" lat="30.301673" lon="-97.836976" changeset="false"><tag k="addr:street" v="Canon Wren Drive"/><tag k="addr:housenumber" v="6811"/><tag k="coa:place_id" v="1142309"/></node><node id="-212" lat="30.317874" lon="-97.828598" changeset="false"><tag k="addr:street" v="Saint Stephen's School Road,1100"/><tag k="addr:housenumber" v="65"/><tag k="coa:place_id" v="129629"/></node><node id="-213" lat="30.315455" lon="-97.829913" changeset="false"><tag k="addr:street" v="Saint Stephen's School Road,1100"/><tag k="addr:housenumber" v="51"/><tag k="coa:place_id" v="129309"/></node><node id="-214" lat="30.313207" lon="-97.84072" changeset="false"><tag k="addr:street" v="Weston Lane North,1100"/><tag k="addr:housenumber" v="107"/><tag k="coa:place_id" v="79640"/></node><node id="-215" lat="30.315467" lon="-97.848789" changeset="false"><tag k="addr:street" v="Lowell Lane North,1100"/><tag k="addr:housenumber" v="105"/><tag k="coa:place_id" v="79696"/></node><node id="-216" lat="30.314685" lon="-97.835729" changeset="false"><tag k="addr:street" v="Cicero Lane"/><tag k="addr:housenumber" v="16"/><tag k="coa:place_id" v="748012"/></node><node id="-217" lat="30.314743" lon="-97.845069" changeset="false"><tag k="addr:street" v="Billings Lane"/><tag k="addr:housenumber" v="205"/><tag k="coa:place_id" v="79629"/></node><node id="-218" lat="30.324563" lon="-97.846397" changeset="false"><tag k="addr:street" v="Elder Circle"/><tag k="addr:housenumber" v="1004"/><tag k="coa:place_id" v="79750"/></node><node id="-219" lat="30.323184" lon="-97.84764" changeset="false"><tag k="addr:street" v="Elder Circle"/><tag k="addr:housenumber" v="804"/><tag k="coa:place_id" v="79727"/></node><node id="-220" lat="30.311624" lon="-97.833323" changeset="false"><tag k="addr:street" v="Hedge Lane"/><tag k="addr:housenumber" v="11"/><tag k="coa:place_id" v="145308"/></node><node id="-221" lat="30.320204" lon="-97.850415" changeset="false"><tag k="addr:street" v="Tyndale Cove"/><tag k="addr:housenumber" v="8301"/><tag k="coa:place_id" v="728602"/></node><node id="-222" lat="30.337864" lon="-97.811947" changeset="false"><tag k="addr:street" v="Hunterwood Point"/><tag k="addr:housenumber" v="3701"/><tag k="coa:place_id" v="208444"/></node><node id="-223" lat="30.326057" lon="-97.826265" changeset="false"><tag k="addr:street" v="Pascal Lane"/><tag k="addr:housenumber" v="92"/><tag k="coa:place_id" v="122243"/></node><node id="-224" lat="30.316258" lon="-97.850023" changeset="false"><tag k="addr:street" v="Lowell Lane North,1100"/><tag k="addr:housenumber" v="106"/><tag k="coa:place_id" v="79690"/></node><node id="-225" lat="30.316008" lon="-97.842663" changeset="false"><tag k="addr:street" v="Weston Lane North,1100"/><tag k="addr:housenumber" v="405"/><tag k="coa:place_id" v="562402"/></node><node id="-226" lat="30.316085" lon="-97.848037" changeset="false"><tag k="addr:street" v="Lowell Lane North,1100"/><tag k="addr:housenumber" v="201"/><tag k="coa:place_id" v="79692"/></node><node id="-227" lat="30.336833" lon="-97.84809" changeset="false"><tag k="addr:street" v="River Hills Road"/><tag k="addr:housenumber" v="2101"/><tag k="coa:place_id" v="195824"/></node><node id="-228" lat="30.317231" lon="-97.847858" changeset="false"><tag k="addr:street" v="Lowell Lane North,1100"/><tag k="addr:housenumber" v="305"/><tag k="coa:place_id" v="667348"/></node><node id="-229" lat="30.339806" lon="-97.804674" changeset="false"><tag k="addr:street" v="Cedar Street"/><tag k="addr:housenumber" v="6401"/><tag k="coa:place_id" v="156372"/></node><node id="-230" lat="30.338092" lon="-97.812189" changeset="false"><tag k="addr:street" v="Hunterwood Point"/><tag k="addr:housenumber" v="3717"/><tag k="coa:place_id" v="150539"/></node><node id="-231" lat="30.335325" lon="-97.81346" changeset="false"><tag k="addr:street" v="Bunny Run"/><tag k="addr:housenumber" v="3413"/><tag k="coa:place_id" v="3137100"/></node><node id="-232" lat="30.318688" lon="-97.845949" changeset="false"><tag k="addr:street" v="Brightman Lane"/><tag k="addr:housenumber" v="7909"/><tag k="coa:place_id" v="566566"/></node><node id="-233" lat="30.327155" lon="-97.824867" changeset="false"><tag k="addr:street" v="Pascal Lane"/><tag k="addr:housenumber" v="100"/><tag k="coa:place_id" v="119231"/></node><node id="-234" lat="30.331527" lon="-97.82102" changeset="false"><tag k="addr:street" v="Rivercrest Drive"/><tag k="addr:housenumber" v="2805"/><tag k="coa:place_id" v="94045"/></node><node id="-235" lat="30.31469" lon="-97.838521" changeset="false"><tag k="addr:street" v="Cicero Lane"/><tag k="addr:housenumber" v="19"/><tag k="coa:place_id" v="551031"/></node><node id="-236" lat="30.313151" lon="-97.845246" changeset="false"><tag k="addr:street" v="Billings Lane"/><tag k="addr:housenumber" v="104"/><tag k="coa:place_id" v="79632"/></node><node id="-237" lat="30.339735" lon="-97.809321" changeset="false"><tag k="addr:street" v="Meandering Creek Cove"/><tag k="addr:housenumber" v="3813"/><tag k="coa:place_id" v="169081"/></node><node id="-238" lat="30.334334" lon="-97.818302" changeset="false"><tag k="addr:street" v="Rivercrest Drive"/><tag k="addr:housenumber" v="3107"/><tag k="coa:place_id" v="94069"/></node><node id="-239" lat="30.347052" lon="-97.809512" changeset="false"><tag k="addr:street" v="Rivercrest Drive"/><tag k="addr:housenumber" v="4500"/><tag k="coa:place_id" v="273039"/></node><node id="-240" lat="30.311903" lon="-97.844549" changeset="false"><tag k="addr:street" v="Weston Lane North,1100"/><tag k="addr:housenumber" v="103"/><tag k="coa:place_id" v="79633"/></node><node id="-241" lat="30.311762" lon="-97.834353" changeset="false"><tag k="addr:street" v="Cousteau Lane"/><tag k="addr:housenumber" v="16"/><tag k="coa:place_id" v="1142332"/></node><node id="-242" lat="30.305846" lon="-97.836586" changeset="false"><tag k="addr:street" v="Rob Roy Road"/><tag k="addr:housenumber" v="2"/><tag k="coa:place_id" v="522465"/></node><node id="-243" lat="30.312093" lon="-97.830592" changeset="false"><tag k="addr:street" v="Saint Stephen's School Road,1100"/><tag k="addr:housenumber" v="31"/><tag k="coa:place_id" v="686158"/></node><node id="-244" lat="30.311012" lon="-97.831128" changeset="false"><tag k="addr:street" v="Hedge Lane"/><tag k="addr:housenumber" v="6"/><tag k="coa:place_id" v="163768"/></node><node id="-245" lat="30.310858" lon="-97.832377" changeset="false"><tag k="addr:street" v="Hedge Lane"/><tag k="addr:housenumber" v="7"/><tag k="coa:place_id" v="994233"/></node><node id="-246" lat="30.31043" lon="-97.831869" changeset="false"><tag k="addr:street" v="Hedge Lane"/><tag k="addr:housenumber" v="5"/><tag k="coa:place_id" v="956019"/></node><node id="-247" lat="30.320336" lon="-97.844598" changeset="false"><tag k="addr:street" v="Brightman Lane"/><tag k="addr:housenumber" v="7920"/><tag k="coa:place_id" v="79687"/></node><node id="-248" lat="30.319383" lon="-97.851333" changeset="false"><tag k="addr:street" v="Sumner Court"/><tag k="addr:housenumber" v="8302"/><tag k="coa:place_id" v="657496"/></node><node id="-249" lat="30.327008" lon="-97.846011" changeset="false"><tag k="addr:street" v="Exton Cove"/><tag k="addr:housenumber" v="1110"/><tag k="coa:place_id" v="568960"/></node><node id="-250" lat="30.347325" lon="-97.809267" changeset="false"><tag k="addr:street" v="Rivercrest Drive"/><tag k="addr:housenumber" v="4508"/><tag k="coa:place_id" v="100975"/></node><node id="-251" lat="30.320465" lon="-97.852018" changeset="false"><tag k="addr:street" v="Barrett Lane"/><tag k="addr:housenumber" v="404"/><tag k="coa:place_id" v="79711"/></node><node id="-252" lat="30.337302" lon="-97.810914" changeset="false"><tag k="addr:street" v="Dogwood Creek Drive"/><tag k="addr:housenumber" v="6605"/><tag k="coa:place_id" v="169037"/></node><node id="-253" lat="30.337175" lon="-97.812285" changeset="false"><tag k="addr:street" v="Hunterwood Point"/><tag k="addr:housenumber" v="3700"/><tag k="coa:place_id" v="169176"/></node><node id="-254" lat="30.345873" lon="-97.810222" changeset="false"><tag k="addr:street" v="Rivercrest Drive"/><tag k="addr:housenumber" v="4402"/><tag k="coa:place_id" v="359169"/></node><node id="-255" lat="30.344956" lon="-97.80743" changeset="false"><tag k="addr:street" v="Bunny Run"/><tag k="addr:housenumber" v="4400"/><tag k="coa:place_id" v="336987"/></node><node id="-256" lat="30.338753" lon="-97.811417" changeset="false"><tag k="addr:street" v="Bunny Run"/><tag k="addr:housenumber" v="3800"/><tag k="coa:place_id" v="180181"/></node><node id="-257" lat="30.343159" lon="-97.813971" changeset="false"><tag k="addr:street" v="Greenshores Drive"/><tag k="addr:housenumber" v="6913"/><tag k="coa:place_id" v="546788"/></node><node id="-258" lat="30.342597" lon="-97.812142" changeset="false"><tag k="addr:street" v="Rivercrest Drive"/><tag k="addr:housenumber" v="4018"/><tag k="coa:place_id" v="194900"/></node><node id="-259" lat="30.344935" lon="-97.805098" changeset="false"><tag k="addr:street" v="Liveoak Drive"/><tag k="addr:housenumber" v="6400"/><tag k="coa:place_id" v="951657"/></node><node id="-260" lat="30.332675" lon="-97.82055" changeset="false"><tag k="addr:street" v="Rivercrest Drive"/><tag k="addr:housenumber" v="2908"/><tag k="coa:place_id" v="195134"/></node><node id="-261" lat="30.346268" lon="-97.809981" changeset="false"><tag k="addr:street" v="Rivercrest Drive"/><tag k="addr:housenumber" v="4412"/><tag k="coa:place_id" v="194906"/></node><node id="-262" lat="30.330184" lon="-97.823172" changeset="false"><tag k="addr:street" v="Rivercrest Drive"/><tag k="addr:housenumber" v="2700"/><tag k="coa:place_id" v="195188"/></node><node id="-263" lat="30.314758" lon="-97.827745" changeset="false"><tag k="addr:street" v="Pascal Lane"/><tag k="addr:housenumber" v="10"/><tag k="coa:place_id" v="145876"/></node><node id="-264" lat="30.332042" lon="-97.821356" changeset="false"><tag k="addr:street" v="Rivercrest Drive"/><tag k="addr:housenumber" v="2808"/><tag k="coa:place_id" v="94049"/></node><node id="-265" lat="30.318009" lon="-97.854217" changeset="false"><tag k="addr:street" v="River Hills Road"/><tag k="addr:housenumber" v="155"/><tag k="coa:place_id" v="3113422"/></node><node id="-266" lat="30.306425" lon="-97.836257" changeset="false"><tag k="addr:street" v="Muir Lane"/><tag k="addr:housenumber" v="1"/><tag k="coa:place_id" v="521913"/></node><node id="-267" lat="30.318921" lon="-97.822731" changeset="false"><tag k="addr:street" v="Capital of Texas Highway"/><tag k="addr:housenumber" v="1500"/><tag k="coa:place_id" v="3052679"/></node><node id="-268" lat="30.324389" lon="-97.828176" changeset="false"><tag k="addr:street" v="Pascal Lane"/><tag k="addr:housenumber" v="80"/><tag k="coa:place_id" v="762304"/></node><node id="-269" lat="30.323055" lon="-97.824358" changeset="false"><tag k="addr:street" v="Saint Stephen's School Road,1100"/><tag k="addr:housenumber" v="84"/><tag k="coa:place_id" v="1143912"/></node><node id="-270" lat="30.331603" lon="-97.84687" changeset="false"><tag k="addr:street" v="River Hills Road"/><tag k="addr:housenumber" v="1705"/><tag k="coa:place_id" v="3040291"/></node><node id="-271" lat="30.310337" lon="-97.83095" changeset="false"><tag k="addr:street" v="Hedge Lane"/><tag k="addr:housenumber" v="4"/><tag k="coa:place_id" v="705165"/></node><node id="-272" lat="30.346191" lon="-97.810029" changeset="false"><tag k="addr:street" v="Rivercrest Drive"/><tag k="addr:housenumber" v="4410"/><tag k="coa:place_id" v="100962"/></node><node id="-273" lat="30.330379" lon="-97.82299" changeset="false"><tag k="addr:street" v="Rivercrest Drive"/><tag k="addr:housenumber" v="2702"/><tag k="coa:place_id" v="3375943"/></node><node id="-274" lat="30.342924" lon="-97.814307" changeset="false"><tag k="addr:street" v="Greenshores Drive"/><tag k="addr:housenumber" v="6903"/><tag k="coa:place_id" v="546794"/></node><node id="-275" lat="30.307592" lon="-97.842253" changeset="false"><tag k="addr:street" v="Addie Roy Road"/><tag k="addr:housenumber" v="318"/><tag k="coa:place_id" v="3105847"/></node><node id="-276" lat="30.335095" lon="-97.817772" changeset="false"><tag k="addr:street" v="Rivercrest Drive"/><tag k="addr:housenumber" v="3205"/><tag k="coa:place_id" v="1143951"/></node><node id="-277" lat="30.347929" lon="-97.806658" changeset="false"><tag k="addr:street" v="Charles Avenue"/><tag k="addr:housenumber" v="4606"/><tag k="coa:place_id" v="3067585"/></node><node id="-278" lat="30.341917" lon="-97.811171" changeset="false"><tag k="addr:street" v="Bridge Hill Cove"/><tag k="addr:housenumber" v="6708"/><tag k="coa:place_id" v="611440"/></node><node id="-279" lat="30.338319" lon="-97.812724" changeset="false"><tag k="addr:street" v="Hunterwood Point"/><tag k="addr:housenumber" v="3726"/><tag k="coa:place_id" v="159156"/></node><node id="-280" lat="30.3458" lon="-97.810285" changeset="false"><tag k="addr:street" v="Rivercrest Drive"/><tag k="addr:housenumber" v="4400"/><tag k="coa:place_id" v="487695"/></node><node id="-281" lat="30.34015" lon="-97.847319" changeset="false"><tag k="addr:street" v="Island Wood Road"/><tag k="addr:housenumber" v="2317"/><tag k="coa:place_id" v="81197"/></node><node id="-282" lat="30.327166" lon="-97.824311" changeset="false"><tag k="addr:street" v="Pascal Lane"/><tag k="addr:housenumber" v="102"/><tag k="coa:place_id" v="119229"/></node><node id="-283" lat="30.346036" lon="-97.810108" changeset="false"><tag k="addr:street" v="Rivercrest Drive"/><tag k="addr:housenumber" v="4406"/><tag k="coa:place_id" v="100957"/></node><node id="-284" lat="30.323976" lon="-97.845064" changeset="false"><tag k="addr:street" v="Elder Circle"/><tag k="addr:housenumber" v="1001"/><tag k="coa:place_id" v="79739"/></node><node id="-285" lat="30.304505" lon="-97.827614" changeset="false"><tag k="addr:street" v="Wild Basin Road,1100"/><tag k="addr:housenumber" v="115"/><tag k="coa:place_id" v="214537"/></node><node id="-286" lat="30.314299" lon="-97.850123" changeset="false"><tag k="addr:street" v="Lowell Lane North,1100"/><tag k="addr:housenumber" v="100"/><tag k="coa:place_id" v="124991"/></node><node id="-287" lat="30.337254" lon="-97.80589" changeset="false"><tag k="addr:street" v="Capital of Texas Highway"/><tag k="addr:housenumber" v="3800"/><tag k="coa:place_id" v="3312407"/></node><node id="-288" lat="30.322791" lon="-97.847804" changeset="false"><tag k="addr:street" v="Elder Circle"/><tag k="addr:housenumber" v="800"/><tag k="coa:place_id" v="761980"/></node><node id="-289" lat="30.33625" lon="-97.808509" changeset="false"><tag k="addr:street" v="Westlake Drive"/><tag k="addr:housenumber" v="4341 1/2"/><tag k="coa:place_id" v="3037120"/></node><node id="-290" lat="30.347343" lon="-97.807076" changeset="false"><tag k="addr:street" v="Charles Avenue"/><tag k="addr:housenumber" v="4600"/><tag k="coa:place_id" v="3303518"/></node><node id="-291" lat="30.317532" lon="-97.828433" changeset="false"><tag k="addr:street" v="Saint Stephen's School Road,1100"/><tag k="addr:housenumber" v="63"/><tag k="coa:place_id" v="3071354"/></node><node id="-292" lat="30.317939" lon="-97.849193" changeset="false"><tag k="addr:street" v="Lowell Lane North,1100"/><tag k="addr:housenumber" v="304"/><tag k="coa:place_id" v="79700"/></node><node id="-293" lat="30.316685" lon="-97.847886" changeset="false"><tag k="addr:street" v="Lowell Lane North,1100"/><tag k="addr:housenumber" v="301"/><tag k="coa:place_id" v="79693"/></node><node id="-294" lat="30.331848" lon="-97.812567" changeset="false"><tag k="addr:street" v="Westlake Drive"/><tag k="addr:housenumber" v="4607"/><tag k="coa:place_id" v="3337472"/></node><node id="-295" lat="30.303115" lon="-97.831607" changeset="false"><tag k="addr:street" v="Wild Basin Road,1100"/><tag k="addr:housenumber" v="209"/><tag k="coa:place_id" v="5093396"/></node><node id="-296" lat="30.321162" lon="-97.851414" changeset="false"><tag k="addr:street" v="Barrett Lane"/><tag k="addr:housenumber" v="500"/><tag k="coa:place_id" v="79712"/></node><node id="-297" lat="30.302207" lon="-97.8343" changeset="false"><tag k="addr:street" v="Vireo Cove"/><tag k="addr:housenumber" v="6701"/><tag k="coa:place_id" v="126067"/></node><node id="-298" lat="30.324513" lon="-97.844979" changeset="false"><tag k="addr:street" v="Elder Circle"/><tag k="addr:housenumber" v="1005"/><tag k="coa:place_id" v="79740"/></node><node id="-299" lat="30.30476" lon="-97.837085" changeset="false"><tag k="addr:street" v="Saint Stephen's School Road,1100"/><tag k="addr:housenumber" v="336 1/2"/><tag k="coa:place_id" v="1142231"/></node><node id="-300" lat="30.343514" lon="-97.811267" changeset="false"><tag k="addr:street" v="Rivercrest Drive"/><tag k="addr:housenumber" v="4108"/><tag k="coa:place_id" v="100931"/></node><node id="-301" lat="30.315426" lon="-97.827467" changeset="false"><tag k="addr:street" v="Pascal Lane"/><tag k="addr:housenumber" v="8"/><tag k="coa:place_id" v="1117910"/></node><node id="-302" lat="30.336464" lon="-97.815592" changeset="false"><tag k="addr:street" v="Rivercrest Drive"/><tag k="addr:housenumber" v="3405"/><tag k="coa:place_id" v="69331"/></node><node id="-303" lat="30.346625" lon="-97.809783" changeset="false"><tag k="addr:street" v="Rivercrest Drive"/><tag k="addr:housenumber" v="4422"/><tag k="coa:place_id" v="323331"/></node><node id="-304" lat="30.34648" lon="-97.807688" changeset="false"><tag k="addr:street" v="Aqua Verde Drive"/><tag k="addr:housenumber" v="4503"/><tag k="coa:place_id" v="723909"/></node><node id="-305" lat="30.330562" lon="-97.847938" changeset="false"><tag k="addr:street" v="River Hills Road"/><tag k="addr:housenumber" v="1703 1/2"/><tag k="coa:place_id" v="125340"/></node><node id="-306" lat="30.32865" lon="-97.846594" changeset="false"><tag k="addr:street" v="Weston Lane North,1100"/><tag k="addr:housenumber" v="1416"/><tag k="coa:place_id" v="1164237"/></node><node id="-307" lat="30.327831" lon="-97.845161" changeset="false"><tag k="addr:street" v="Weston Lane North,1100"/><tag k="addr:housenumber" v="1313"/><tag k="coa:place_id" v="79666"/></node><node id="-308" lat="30.338924" lon="-97.814811" changeset="false"><tag k="addr:street" v="Pixie Cove"/><tag k="addr:housenumber" v="6702"/><tag k="coa:place_id" v="95317"/></node><node id="-309" lat="30.337477" lon="-97.816055" changeset="false"><tag k="addr:street" v="Leprechaun Drive"/><tag k="addr:housenumber" v="6704"/><tag k="coa:place_id" v="95326"/></node><node id="-310" lat="30.305228" lon="-97.837173" changeset="false"><tag k="addr:street" v="Saint Stephen's School Road,1100"/><tag k="addr:housenumber" v="330"/><tag k="coa:place_id" v="144595"/></node><node id="-311" lat="30.331827" lon="-97.820741" changeset="false"><tag k="addr:street" v="Rivercrest Drive"/><tag k="addr:housenumber" v="2901"/><tag k="coa:place_id" v="526251"/></node><node id="-312" lat="30.347814" lon="-97.806935" changeset="false"><tag k="addr:street" v="Charles Avenue"/><tag k="addr:housenumber" v="4604"/><tag k="coa:place_id" v="3075192"/></node><node id="-313" lat="30.335773" lon="-97.812619" changeset="false"><tag k="addr:street" v="Bunny Run"/><tag k="addr:housenumber" v="3505"/><tag k="coa:place_id" v="3137104"/></node><node id="-314" lat="30.338669" lon="-97.81274" changeset="false"><tag k="addr:street" v="Hunterwood Point"/><tag k="addr:housenumber" v="3730"/><tag k="coa:place_id" v="1148163"/></node><node id="-315" lat="30.346651" lon="-97.805245" changeset="false"><tag k="addr:street" v="Bunny Run"/><tag k="addr:housenumber" v="4605"/><tag k="coa:place_id" v="77347"/></node><node id="-316" lat="30.34728" lon="-97.809377" changeset="false"><tag k="addr:street" v="Rivercrest Drive"/><tag k="addr:housenumber" v="4506"/><tag k="coa:place_id" v="68789"/></node><node id="-317" lat="30.345526" lon="-97.810395" changeset="false"><tag k="addr:street" v="Rivercrest Drive"/><tag k="addr:housenumber" v="4312"/><tag k="coa:place_id" v="100949"/></node><node id="-318" lat="30.314238" lon="-97.842003" changeset="false"><tag k="addr:street" v="Weston Lane North,1100"/><tag k="addr:housenumber" v="205"/><tag k="coa:place_id" v="79642"/></node><node id="-319" lat="30.304805" lon="-97.837233" changeset="false"><tag k="addr:street" v="Saint Stephen's School Road,1100"/><tag k="addr:housenumber" v="334"/><tag k="coa:place_id" v="144594"/></node><node id="-320" lat="30.30541" lon="-97.829592" changeset="false"><tag k="addr:street" v="Wild Basin Road,1100"/><tag k="addr:housenumber" v="206"/><tag k="coa:place_id" v="153436"/></node><node id="-321" lat="30.30532" lon="-97.826407" changeset="false"><tag k="addr:street" v="Wild Basin Road,1100"/><tag k="addr:housenumber" v="107"/><tag k="coa:place_id" v="194738"/></node><node id="-322" lat="30.319497" lon="-97.844553" changeset="false"><tag k="addr:street" v="Brightman Lane"/><tag k="addr:housenumber" v="7912"/><tag k="coa:place_id" v="588142"/></node><node id="-323" lat="30.326494" lon="-97.823553" changeset="false"><tag k="addr:street" v="Pascal Lane"/><tag k="addr:housenumber" v="103"/><tag k="coa:place_id" v="122250"/></node><node id="-324" lat="30.340224" lon="-97.809794" changeset="false"><tag k="addr:street" v="Bunny Run"/><tag k="addr:housenumber" v="3907 1/2"/><tag k="coa:place_id" v="173670"/></node><node id="-325" lat="30.342886" lon="-97.814245" changeset="false"><tag k="addr:street" v="Greenshores Drive"/><tag k="addr:housenumber" v="6906 1/2"/><tag k="coa:place_id" v="3141722"/></node><node id="-326" lat="30.321378" lon="-97.850081" changeset="false"><tag k="addr:street" v="Barrett Lane"/><tag k="addr:housenumber" v="505"/><tag k="coa:place_id" v="79717"/></node><node id="-327" lat="30.318151" lon="-97.843083" changeset="false"><tag k="addr:street" v="Weston Lane North,1100"/><tag k="addr:housenumber" v="604"/><tag k="coa:place_id" v="79635"/></node><node id="-328" lat="30.31801" lon="-97.841794" changeset="false"><tag k="addr:street" v="Weston Lane North,1100"/><tag k="addr:housenumber" v="701"/><tag k="coa:place_id" v="79650"/></node><node id="-329" lat="30.321833" lon="-97.843055" changeset="false"><tag k="addr:street" v="Weston Lane North,1100"/><tag k="addr:housenumber" v="1012"/><tag k="coa:place_id" v="721132"/></node><node id="-330" lat="30.320591" lon="-97.847497" changeset="false"><tag k="addr:street" v="Tyndale Cove"/><tag k="addr:housenumber" v="8200"/><tag k="coa:place_id" v="601546"/></node><node id="-331" lat="30.344464" lon="-97.804206" changeset="false"><tag k="addr:street" v="Liveoak Drive"/><tag k="addr:housenumber" v="6320"/><tag k="coa:place_id" v="172941"/></node><node id="-332" lat="30.346333" lon="-97.809951" changeset="false"><tag k="addr:street" v="Rivercrest Drive"/><tag k="addr:housenumber" v="4414"/><tag k="coa:place_id" v="100967"/></node><node id="-333" lat="30.321783" lon="-97.830479" changeset="false"><tag k="addr:street" v="Pascal Lane"/><tag k="addr:housenumber" v="63"/><tag k="coa:place_id" v="120811"/></node><node id="-334" lat="30.314569" lon="-97.829913" changeset="false"><tag k="addr:street" v="Pascal Lane"/><tag k="addr:housenumber" v="15"/><tag k="coa:place_id" v="131896"/></node><node id="-335" lat="30.337948" lon="-97.815192" changeset="false"><tag k="addr:street" v="Elfland Drive"/><tag k="addr:housenumber" v="6700"/><tag k="coa:place_id" v="3101213"/></node><node id="-336" lat="30.338798" lon="-97.812703" changeset="false"><tag k="addr:street" v="Hunterwood Point"/><tag k="addr:housenumber" v="3734"/><tag k="coa:place_id" v="159155"/></node><node id="-337" lat="30.311455" lon="-97.844869" changeset="false"><tag k="addr:street" v="Weston Lane North,1100"/><tag k="addr:housenumber" v="201"/><tag k="coa:place_id" v="125341"/></node><node id="-338" lat="30.336096" lon="-97.806978" changeset="false"><tag k="addr:street" v="Capital of Texas Highway"/><tag k="addr:housenumber" v="3700"/><tag k="coa:place_id" v="1148165"/></node><node id="-339" lat="30.312638" lon="-97.844158" changeset="false"><tag k="addr:street" v="Weston Lane North,1100"/><tag k="addr:housenumber" v="101"/><tag k="coa:place_id" v="1142333"/></node><node id="-340" lat="30.345319" lon="-97.810533" changeset="false"><tag k="addr:street" v="Rivercrest Drive"/><tag k="addr:housenumber" v="4308"/><tag k="coa:place_id" v="194918"/></node><node id="-341" lat="30.3097" lon="-97.831555" changeset="false"><tag k="addr:street" v="Hedge Lane"/><tag k="addr:housenumber" v="3"/><tag k="coa:place_id" v="889647"/></node><node id="-342" lat="30.329887" lon="-97.845795" changeset="false"><tag k="addr:street" v="Weston Lane North,1100"/><tag k="addr:housenumber" v="1411"/><tag k="coa:place_id" v="79671"/></node><node id="-343" lat="30.322857" lon="-97.829282" changeset="false"><tag k="addr:street" v="Pascal Lane"/><tag k="addr:housenumber" v="73"/><tag k="coa:place_id" v="693142"/></node><node id="-344" lat="30.311131" lon="-97.832886" changeset="false"><tag k="addr:street" v="Hedge Lane"/><tag k="addr:housenumber" v="9"/><tag k="coa:place_id" v="430930"/></node><node id="-345" lat="30.303241" lon="-97.839292" changeset="false"><tag k="addr:street" v="Saint Stephen's School Road,1100"/><tag k="addr:housenumber" v="425 1/2"/><tag k="coa:place_id" v="3184152"/></node><node id="-346" lat="30.313177" lon="-97.829631" changeset="false"><tag k="addr:street" v="Pascal Lane"/><tag k="addr:housenumber" v="20"/><tag k="coa:place_id" v="480717"/></node><node id="-347" lat="30.312145" lon="-97.832256" changeset="false"><tag k="addr:street" v="Hedge Lane"/><tag k="addr:housenumber" v="12"/><tag k="coa:place_id" v="781905"/></node><node id="-348" lat="30.307283" lon="-97.830434" changeset="false"><tag k="addr:street" v="Saint Stephen's School Road,1100"/><tag k="addr:housenumber" v="20"/><tag k="coa:place_id" v="143555"/></node><node id="-349" lat="30.301825" lon="-97.834893" changeset="false"><tag k="addr:street" v="Vireo Cove"/><tag k="addr:housenumber" v="6707"/><tag k="coa:place_id" v="126071"/></node><node id="-350" lat="30.301682" lon="-97.835334" changeset="false"><tag k="addr:street" v="Canon Wren Drive"/><tag k="addr:housenumber" v="6700"/><tag k="coa:place_id" v="1142308"/></node><node id="-351" lat="30.312762" lon="-97.832326" changeset="false"><tag k="addr:street" v="Hedge Lane"/><tag k="addr:housenumber" v="14"/><tag k="coa:place_id" v="473643"/></node><node id="-352" lat="30.320359" lon="-97.851151" changeset="false"><tag k="addr:street" v="Barrett Lane"/><tag k="addr:housenumber" v="405"/><tag k="coa:place_id" v="155263"/></node><node id="-353" lat="30.316776" lon="-97.849761" changeset="false"><tag k="addr:street" v="Lowell Lane North,1100"/><tag k="addr:housenumber" v="200"/><tag k="coa:place_id" v="79698"/></node><node id="-354" lat="30.316356" lon="-97.838473" changeset="false"><tag k="addr:street" v="Cicero Lane"/><tag k="addr:housenumber" v="24"/><tag k="coa:place_id" v="121834"/></node><node id="-355" lat="30.320509" lon="-97.829593" changeset="false"><tag k="addr:street" v="Coleridge Lane"/><tag k="addr:housenumber" v="3"/><tag k="coa:place_id" v="576652"/></node><node id="-356" lat="30.320083" lon="-97.832583" changeset="false"><tag k="addr:street" v="Pascal Lane"/><tag k="addr:housenumber" v="56"/><tag k="coa:place_id" v="127488"/></node><node id="-357" lat="30.323361" lon="-97.848521" changeset="false"><tag k="addr:street" v="Elder Circle"/><tag k="addr:housenumber" v="1132"/><tag k="coa:place_id" v="79725"/></node><node id="-358" lat="30.321229" lon="-97.845081" changeset="false"><tag k="addr:street" v="Brightman Lane"/><tag k="addr:housenumber" v="7922"/><tag k="coa:place_id" v="79688"/></node><node id="-359" lat="30.320953" lon="-97.834287" changeset="false"><tag k="addr:street" v="Humboldt Lane"/><tag k="addr:housenumber" v="3"/><tag k="coa:place_id" v="741220"/></node><node id="-360" lat="30.343838" lon="-97.811354" changeset="false"><tag k="addr:street" v="Rivercrest Drive"/><tag k="addr:housenumber" v="4200"/><tag k="coa:place_id" v="194888"/></node><node id="-361" lat="30.321572" lon="-97.834598" changeset="false"><tag k="addr:street" v="Humboldt Lane"/><tag k="addr:housenumber" v="5"/><tag k="coa:place_id" v="724192"/></node><node id="-362" lat="30.305083" lon="-97.835233" changeset="false"><tag k="addr:street" v="Saint Stephen's School Road,1100"/><tag k="addr:housenumber" v="9"/><tag k="coa:place_id" v="1142234"/></node><node id="-363" lat="30.346481" lon="-97.809871" changeset="false"><tag k="addr:street" v="Rivercrest Drive"/><tag k="addr:housenumber" v="4418"/><tag k="coa:place_id" v="194876"/></node><node id="-364" lat="30.343219" lon="-97.81384" changeset="false"><tag k="addr:street" v="Greenshores Drive"/><tag k="addr:housenumber" v="6917"/><tag k="coa:place_id" v="546776"/></node><node id="-365" lat="30.317525" lon="-97.844851" changeset="false"><tag k="addr:street" v="Brightman Lane"/><tag k="addr:housenumber" v="7809"/><tag k="coa:place_id" v="640702"/></node><node id="-366" lat="30.315675" lon="-97.850279" changeset="false"><tag k="addr:street" v="Lowell Lane North,1100"/><tag k="addr:housenumber" v="102"/><tag k="coa:place_id" v="79691"/></node><node id="-367" lat="30.309626" lon="-97.8306" changeset="false"><tag k="addr:street" v="Hedge Lane"/><tag k="addr:housenumber" v="2"/><tag k="coa:place_id" v="564075"/></node><node id="-368" lat="30.344656" lon="-97.808086" changeset="false"><tag k="addr:street" v="Charles Avenue"/><tag k="addr:housenumber" v="4307"/><tag k="coa:place_id" v="534448"/></node><node id="-369" lat="30.330436" lon="-97.822194" changeset="false"><tag k="addr:street" v="Rivercrest Drive"/><tag k="addr:housenumber" v="2705"/><tag k="coa:place_id" v="1143908"/></node><node id="-370" lat="30.317545" lon="-97.825707" changeset="false"><tag k="addr:street" v="Saint Stephen's School Cove"/><tag k="addr:housenumber" v="6801"/><tag k="coa:place_id" v="143244"/></node><node id="-371" lat="30.315793" lon="-97.828907" changeset="false"><tag k="addr:street" v="Pascal Lane"/><tag k="addr:housenumber" v="9"/><tag k="coa:place_id" v="132373"/></node><node id="-372" lat="30.314322" lon="-97.827985" changeset="false"><tag k="addr:street" v="Pascal Lane"/><tag k="addr:housenumber" v="12"/><tag k="coa:place_id" v="145877"/></node><node id="-373" lat="30.325493" lon="-97.845288" changeset="false"><tag k="addr:street" v="Elder Circle"/><tag k="addr:housenumber" v="1101"/><tag k="coa:place_id" v="79742"/></node><node id="-374" lat="30.311125" lon="-97.834974" changeset="false"><tag k="addr:street" v="Cousteau Lane"/><tag k="addr:housenumber" v="18"/><tag k="coa:place_id" v="699466"/></node><node id="-375" lat="30.343196" lon="-97.808982" changeset="false"><tag k="addr:street" v="Bunny Run"/><tag k="addr:housenumber" v="4110"/><tag k="coa:place_id" v="149143"/></node><node id="-376" lat="30.337641" lon="-97.814739" changeset="false"><tag k="addr:street" v="Rivercrest Drive"/><tag k="addr:housenumber" v="3507"/><tag k="coa:place_id" v="95335"/></node><node id="-377" lat="30.333234" lon="-97.819282" changeset="false"><tag k="addr:street" v="Rivercrest Drive"/><tag k="addr:housenumber" v="3005"/><tag k="coa:place_id" v="94062"/></node><node id="-378" lat="30.314675" lon="-97.843684" changeset="false"><tag k="addr:street" v="Weston Lane North,1100"/><tag k="addr:housenumber" v="300"/><tag k="coa:place_id" v="235524"/></node><node id="-379" lat="30.314489" lon="-97.845569" changeset="false"><tag k="addr:street" v="Billings Lane"/><tag k="addr:housenumber" v="202"/><tag k="coa:place_id" v="79630"/></node><node id="-380" lat="30.314311" lon="-97.849" changeset="false"><tag k="addr:street" v="Lowell Lane North,1100"/><tag k="addr:housenumber" v="101"/><tag k="coa:place_id" v="3120787"/></node><node id="-381" lat="30.324657" lon="-97.848711" changeset="false"><tag k="addr:street" v="Elder Circle"/><tag k="addr:housenumber" v="1125"/><tag k="coa:place_id" v="79745"/></node><node id="-382" lat="30.322741" lon="-97.843809" changeset="false"><tag k="addr:street" v="Weston Lane North,1100"/><tag k="addr:housenumber" v="1100"/><tag k="coa:place_id" v="711148"/></node><node id="-383" lat="30.345008" lon="-97.810701" changeset="false"><tag k="addr:street" v="Rivercrest Drive"/><tag k="addr:housenumber" v="4302"/><tag k="coa:place_id" v="194924"/></node><node id="-384" lat="30.33518" lon="-97.813668" changeset="false"><tag k="addr:street" v="Bunny Run"/><tag k="addr:housenumber" v="3409"/><tag k="coa:place_id" v="3137099"/></node><node id="-385" lat="30.339817" lon="-97.846996" changeset="false"><tag k="addr:street" v="Island Wood Road"/><tag k="addr:housenumber" v="2313"/><tag k="coa:place_id" v="81196"/></node><node id="-386" lat="30.339367" lon="-97.847501" changeset="false"><tag k="addr:street" v="Island Wood Road"/><tag k="addr:housenumber" v="2312"/><tag k="coa:place_id" v="81198"/></node><node id="-387" lat="30.34771" lon="-97.809072" changeset="false"><tag k="addr:street" v="Rivercrest Drive"/><tag k="addr:housenumber" v="4518"/><tag k="coa:place_id" v="715786"/></node><node id="-388" lat="30.348361" lon="-97.807396" changeset="false"><tag k="addr:street" v="Bunny Run"/><tag k="addr:housenumber" v="4714"/><tag k="coa:place_id" v="149609"/></node><node id="-389" lat="30.347581" lon="-97.809199" changeset="false"><tag k="addr:street" v="Rivercrest Drive"/><tag k="addr:housenumber" v="4514"/><tag k="coa:place_id" v="100980"/></node><node id="-390" lat="30.318624" lon="-97.851885" changeset="false"><tag k="addr:street" v="Sumner Court"/><tag k="addr:housenumber" v="8303"/><tag k="coa:place_id" v="79707"/></node><node id="-391" lat="30.325826" lon="-97.826647" changeset="false"><tag k="addr:street" v="Pascal Lane"/><tag k="addr:housenumber" v="90"/><tag k="coa:place_id" v="122242"/></node><node id="-392" lat="30.325954" lon="-97.824364" changeset="false"><tag k="addr:street" v="Pascal Lane"/><tag k="addr:housenumber" v="99"/><tag k="coa:place_id" v="122255"/></node><node id="-393" lat="30.334132" lon="-97.81852" changeset="false"><tag k="addr:street" v="Rivercrest Drive"/><tag k="addr:housenumber" v="3105"/><tag k="coa:place_id" v="94068"/></node><node id="-394" lat="30.315124" lon="-97.842709" changeset="false"><tag k="addr:street" v="Weston Lane North,1100"/><tag k="addr:housenumber" v="305"/><tag k="coa:place_id" v="79644"/></node><node id="-395" lat="30.315193" lon="-97.847974" changeset="false"><tag k="addr:street" v="Lowell Lane North,1100"/><tag k="addr:housenumber" v="103"/><tag k="coa:place_id" v="79697"/></node><node id="-396" lat="30.314416" lon="-97.844513" changeset="false"><tag k="addr:street" v="Billings Lane"/><tag k="addr:housenumber" v="201"/><tag k="coa:place_id" v="79628"/></node><node id="-397" lat="30.325056" lon="-97.845044" changeset="false"><tag k="addr:street" v="Elder Circle"/><tag k="addr:housenumber" v="1009"/><tag k="coa:place_id" v="79741"/></node><node id="-398" lat="30.321999" lon="-97.850389" changeset="false"><tag k="addr:street" v="Barrett Lane"/><tag k="addr:housenumber" v="600"/><tag k="coa:place_id" v="79714"/></node><node id="-399" lat="30.319253" lon="-97.8268" changeset="false"><tag k="addr:street" v="Saint Stephen's School Cove"/><tag k="addr:housenumber" v="6808"/><tag k="coa:place_id" v="173500"/></node><node id="-400" lat="30.346817" lon="-97.80959" changeset="false"><tag k="addr:street" v="Rivercrest Drive"/><tag k="addr:housenumber" v="4434"/><tag k="coa:place_id" v="233663"/></node><node id="-401" lat="30.337491" lon="-97.812666" changeset="false"><tag k="addr:street" v="Hunterwood Point"/><tag k="addr:housenumber" v="3710"/><tag k="coa:place_id" v="159161"/></node><node id="-402" lat="30.322017" lon="-97.840916" changeset="false"><tag k="addr:street" v="Weston Lane North,1100"/><tag k="addr:housenumber" v="1005"/><tag k="coa:place_id" v="79889"/></node><node id="-403" lat="30.316714" lon="-97.829311" changeset="false"><tag k="addr:street" v="Saint Stephen's School Road,1100"/><tag k="addr:housenumber" v="59"/><tag k="coa:place_id" v="143249"/></node><node id="-404" lat="30.30654" lon="-97.839262" changeset="false"><tag k="addr:street" v="Saint Stephen's School Road,1100"/><tag k="addr:housenumber" v="338"/><tag k="coa:place_id" v="144593"/></node><node id="-405" lat="30.304475" lon="-97.839198" changeset="false"><tag k="addr:street" v="Saint Stephen's School Road,1100"/><tag k="addr:housenumber" v="414"/><tag k="coa:place_id" v="123318"/></node><node id="-406" lat="30.31494" lon="-97.832409" changeset="false"><tag k="addr:street" v="Cicero Lane"/><tag k="addr:housenumber" v="9"/><tag k="coa:place_id" v="584830"/></node><node id="-407" lat="30.326888" lon="-97.825267" changeset="false"><tag k="addr:street" v="Pascal Lane"/><tag k="addr:housenumber" v="98"/><tag k="coa:place_id" v="122247"/></node><node id="-408" lat="30.326309" lon="-97.825929" changeset="false"><tag k="addr:street" v="Pascal Lane"/><tag k="addr:housenumber" v="94"/><tag k="coa:place_id" v="122244"/></node><node id="-409" lat="30.311009" lon="-97.845116" changeset="false"><tag k="addr:street" v="Weston Lane North,1100"/><tag k="addr:housenumber" v="205"/><tag k="coa:place_id" v="208572"/></node><node id="-410" lat="30.300991" lon="-97.832192" changeset="false"><tag k="addr:street" v="Canon Wren Drive"/><tag k="addr:housenumber" v="6406"/><tag k="coa:place_id" v="1143867"/></node><node id="-411" lat="30.348085" lon="-97.807481" changeset="false"><tag k="addr:street" v="Aqua Verde Drive"/><tag k="addr:housenumber" v="4512"/><tag k="coa:place_id" v="263733"/></node><node id="-412" lat="30.342475" lon="-97.807955" changeset="false"><tag k="addr:street" v="Bunny Run"/><tag k="addr:housenumber" v="4201"/><tag k="coa:place_id" v="169245"/></node><node id="-413" lat="30.338436" lon="-97.810892" changeset="false"><tag k="addr:street" v="Bunny Run"/><tag k="addr:housenumber" v="3725 1/2"/><tag k="coa:place_id" v="3072451"/></node><node id="-414" lat="30.339228" lon="-97.810245" changeset="false"><tag k="addr:street" v="Meandering Creek Cove"/><tag k="addr:housenumber" v="3810"/><tag k="coa:place_id" v="169075"/></node><node id="-415" lat="30.318715" lon="-97.842246" changeset="false"><tag k="addr:street" v="Weston Lane North,1100"/><tag k="addr:housenumber" v="704"/><tag k="coa:place_id" v="79673"/></node><node id="-416" lat="30.319811" lon="-97.841924" changeset="false"><tag k="addr:street" v="Weston Lane North,1100"/><tag k="addr:housenumber" v="900"/><tag k="coa:place_id" v="79659"/></node><node id="-417" lat="30.318364" lon="-97.841164" changeset="false"><tag k="addr:street" v="Weston Lane North,1100"/><tag k="addr:housenumber" v="801"/><tag k="coa:place_id" v="606496"/></node><node id="-418" lat="30.318386" lon="-97.8487" changeset="false"><tag k="addr:street" v="Lowell Lane North,1100"/><tag k="addr:housenumber" v="400"/><tag k="coa:place_id" v="79701"/></node><node id="-419" lat="30.343016" lon="-97.814148" changeset="false"><tag k="addr:street" v="Greenshores Drive"/><tag k="addr:housenumber" v="6908"/><tag k="coa:place_id" v="546740"/></node><node id="-420" lat="30.322335" lon="-97.831445" changeset="false"><tag k="addr:street" v="Pascal Lane"/><tag k="addr:housenumber" v="62"/><tag k="coa:place_id" v="550113"/></node><node id="-421" lat="30.349608" lon="-97.80748" changeset="false"><tag k="addr:street" v="Bunny Run"/><tag k="addr:housenumber" v="4732"/><tag k="coa:place_id" v="1008471"/></node><node id="-422" lat="30.3192" lon="-97.846012" changeset="false"><tag k="addr:street" v="Brightman Lane"/><tag k="addr:housenumber" v="7913"/><tag k="coa:place_id" v="704020"/></node><node id="-423" lat="30.322383" lon="-97.850416" changeset="false"><tag k="addr:street" v="Barrett Lane"/><tag k="addr:housenumber" v="604"/><tag k="coa:place_id" v="79715"/></node><node id="-424" lat="30.31646" lon="-97.842551" changeset="false"><tag k="addr:street" v="Weston Lane North,1100"/><tag k="addr:housenumber" v="501"/><tag k="coa:place_id" v="572854"/></node><node id="-425" lat="30.335846" lon="-97.816323" changeset="false"><tag k="addr:street" v="Rivercrest Drive"/><tag k="addr:housenumber" v="3309"/><tag k="coa:place_id" v="998853"/></node><node id="-426" lat="30.330697" lon="-97.821904" changeset="false"><tag k="addr:street" v="Rivercrest Drive"/><tag k="addr:housenumber" v="2707"/><tag k="coa:place_id" v="117178"/></node><node id="-427" lat="30.31652" lon="-97.827971" changeset="false"><tag k="addr:street" v="Pascal Lane"/><tag k="addr:housenumber" v="5"/><tag k="coa:place_id" v="145885"/></node><node id="-428" lat="30.325277" lon="-97.843992" changeset="false"><tag k="addr:street" v="Weston Lane North,1100"/><tag k="addr:housenumber" v="1201"/><tag k="coa:place_id" v="79662"/></node><node id="-429" lat="30.313625" lon="-97.84159" changeset="false"><tag k="addr:street" v="Weston Lane North,1100"/><tag k="addr:housenumber" v="201"/><tag k="coa:place_id" v="127477"/></node><node id="-430" lat="30.310644" lon="-97.836961" changeset="false"><tag k="addr:street" v="Cousteau Lane"/><tag k="addr:housenumber" v="26"/><tag k="coa:place_id" v="195712"/></node><node id="-431" lat="30.310351" lon="-97.842585" changeset="false"><tag k="addr:street" v="Addie Roy Road"/><tag k="addr:housenumber" v="249"/><tag k="coa:place_id" v="205259"/></node><node id="-432" lat="30.346553" lon="-97.809863" changeset="false"><tag k="addr:street" v="Rivercrest Drive"/><tag k="addr:housenumber" v="4420"/><tag k="coa:place_id" v="69950"/></node><node id="-433" lat="30.346107" lon="-97.810078" changeset="false"><tag k="addr:street" v="Rivercrest Drive"/><tag k="addr:housenumber" v="4408"/><tag k="coa:place_id" v="100961"/></node><node id="-434" lat="30.313623" lon="-97.828812" changeset="false"><tag k="addr:street" v="Pascal Lane"/><tag k="addr:housenumber" v="16"/><tag k="coa:place_id" v="145879"/></node><node id="-435" lat="30.319943" lon="-97.844429" changeset="false"><tag k="addr:street" v="Brightman Lane"/><tag k="addr:housenumber" v="7916"/><tag k="coa:place_id" v="79679"/></node><node id="-436" lat="30.319405" lon="-97.841817" changeset="false"><tag k="addr:street" v="Weston Lane North,1100"/><tag k="addr:housenumber" v="804"/><tag k="coa:place_id" v="79658"/></node><node id="-437" lat="30.31969" lon="-97.845847" changeset="false"><tag k="addr:street" v="Brightman Lane"/><tag k="addr:housenumber" v="7917"/><tag k="coa:place_id" v="583312"/></node><node id="-438" lat="30.344354" lon="-97.807696" changeset="false"><tag k="addr:street" v="Bunny Run"/><tag k="addr:housenumber" v="4310"/><tag k="coa:place_id" v="638757"/></node><node id="-439" lat="30.344313" lon="-97.807714" changeset="false"><tag k="addr:street" v="Bunny Run"/><tag k="addr:housenumber" v="4312"/><tag k="coa:place_id" v="1148333"/></node><node id="-440" lat="30.33804" lon="-97.815833" changeset="false"><tag k="addr:street" v="Elfland Drive"/><tag k="addr:housenumber" v="6706"/><tag k="coa:place_id" v="194990"/></node><node id="-441" lat="30.338211" lon="-97.815621" changeset="false"><tag k="addr:street" v="Elfland Drive"/><tag k="addr:housenumber" v="6704"/><tag k="coa:place_id" v="194984"/></node><node id="-442" lat="30.337174" lon="-97.816719" changeset="false"><tag k="addr:street" v="Leprechaun Drive"/><tag k="addr:housenumber" v="6707"/><tag k="coa:place_id" v="195002"/></node><node id="-443" lat="30.337011" lon="-97.816559" changeset="false"><tag k="addr:street" v="Leprechaun Drive"/><tag k="addr:housenumber" v="6705"/><tag k="coa:place_id" v="95327"/></node><node id="-444" lat="30.337408" lon="-97.846309" changeset="false"><tag k="addr:street" v="Island Wood Road"/><tag k="addr:housenumber" v="2107"/><tag k="coa:place_id" v="81194"/></node><node id="-445" lat="30.337096" lon="-97.846422" changeset="false"><tag k="addr:street" v="Island Wood Road"/><tag k="addr:housenumber" v="2105"/><tag k="coa:place_id" v="502486"/></node></osm>