<?xml version="1.0" encoding="UTF-8"?><osm version="0.6" generator="github.com/aaronlidman/osm-and-geojson"><node id="-1" lat="30.223436" lon="-97.889815" changeset="false"><tag k="addr:street" v="Dusk Terrace Cove"/><tag k="addr:housenumber" v="8401"/><tag k="coa:place_id" v="3072342"/></node><node id="-2" lat="30.22748" lon="-97.876038" changeset="false"><tag k="addr:street" v="Poncha Pass"/><tag k="addr:housenumber" v="6726"/><tag k="coa:place_id" v="84542"/></node><node id="-3" lat="30.225596" lon="-97.889058" changeset="false"><tag k="addr:street" v="Dark Ridge Cove"/><tag k="addr:housenumber" v="8201"/><tag k="coa:place_id" v="1162799"/></node><node id="-4" lat="30.225272" lon="-97.878483" changeset="false"><tag k="addr:street" v="Telluride Trail"/><tag k="addr:housenumber" v="6817"/><tag k="coa:place_id" v="184401"/></node><node id="-5" lat="30.212332" lon="-97.887668" changeset="false"><tag k="addr:street" v="Gabion Drive"/><tag k="addr:housenumber" v="6817"/><tag k="coa:place_id" v="175771"/></node><node id="-6" lat="30.224864" lon="-97.887126" changeset="false"><tag k="addr:street" v="Twilight Mesa Drive"/><tag k="addr:housenumber" v="7216"/><tag k="coa:place_id" v="1162794"/></node><node id="-7" lat="30.223064" lon="-97.891688" changeset="false"><tag k="addr:street" v="Ranch to Market Road 1826"/><tag k="addr:housenumber" v="8511"/><tag k="coa:place_id" v="3050841"/></node><node id="-8" lat="30.220912" lon="-97.880721" changeset="false"><tag k="addr:street" v="Hot Springs Drive"/><tag k="addr:housenumber" v="6726"/><tag k="coa:place_id" v="198235"/></node><node id="-9" lat="30.215507" lon="-97.875805" changeset="false"><tag k="addr:street" v="Clairmont Drive"/><tag k="addr:housenumber" v="6308"/><tag k="coa:place_id" v="62945"/></node><node id="-10" lat="30.221154" lon="-97.880561" changeset="false"><tag k="addr:street" v="Hot Springs Drive"/><tag k="addr:housenumber" v="6732"/><tag k="coa:place_id" v="198236"/></node><node id="-11" lat="30.214508" lon="-97.889556" changeset="false"><tag k="addr:street" v="Colberg Drive"/><tag k="addr:housenumber" v="9004"/><tag k="coa:place_id" v="176224"/></node><node id="-12" lat="30.219081" lon="-97.874578" changeset="false"><tag k="addr:street" v="Cheno Cortina Trail"/><tag k="addr:housenumber" v="8114"/><tag k="coa:place_id" v="129421"/></node><node id="-13" lat="30.21726" lon="-97.878859" changeset="false"><tag k="addr:street" v="Clairmont Drive"/><tag k="addr:housenumber" v="6502"/><tag k="coa:place_id" v="62911"/></node><node id="-14" lat="30.228197" lon="-97.888247" changeset="false"><tag k="addr:street" v="Ranch to Market Road 1826"/><tag k="addr:housenumber" v="7909"/><tag k="coa:place_id" v="220985"/></node><node id="-15" lat="30.220539" lon="-97.880184" changeset="false"><tag k="addr:street" v="Hot Springs Drive"/><tag k="addr:housenumber" v="6704"/><tag k="coa:place_id" v="198218"/></node><node id="-16" lat="30.21239" lon="-97.883967" changeset="false"><tag k="addr:street" v="Edwardson Cove"/><tag k="addr:housenumber" v="6705"/><tag k="coa:place_id" v="141247"/></node><node id="-17" lat="30.212337" lon="-97.887074" changeset="false"><tag k="addr:street" v="Auckland Court"/><tag k="addr:housenumber" v="6808"/><tag k="coa:place_id" v="148609"/></node><node id="-18" lat="30.217227" lon="-97.879162" changeset="false"><tag k="addr:street" v="Clairmont Drive"/><tag k="addr:housenumber" v="6506"/><tag k="coa:place_id" v="62910"/></node><node id="-19" lat="30.220258" lon="-97.883939" changeset="false"><tag k="addr:street" v="Twilight Terrace Drive"/><tag k="addr:housenumber" v="8316 1/2"/><tag k="coa:place_id" v="3181995"/></node><node id="-20" lat="30.223496" lon="-97.884536" changeset="false"><tag k="addr:street" v="Twilight Mesa Drive"/><tag k="addr:housenumber" v="7105"/><tag k="coa:place_id" v="1162735"/></node><node id="-21" lat="30.225721" lon="-97.880499" changeset="false"><tag k="addr:street" v="Poncha Pass"/><tag k="addr:housenumber" v="6903"/><tag k="coa:place_id" v="84587"/></node><node id="-22" lat="30.212236" lon="-97.890989" changeset="false"><tag k="addr:street" v="Auckland Drive"/><tag k="addr:housenumber" v="7033"/><tag k="coa:place_id" v="176176"/></node><node id="-23" lat="30.218034" lon="-97.876941" changeset="false"><tag k="addr:street" v="Clay Allison Pass"/><tag k="addr:housenumber" v="6441"/><tag k="coa:place_id" v="129379"/></node><node id="-24" lat="30.224757" lon="-97.881825" changeset="false"><tag k="addr:street" v="Twilight Mesa Drive"/><tag k="addr:housenumber" v="6916"/><tag k="coa:place_id" v="1162699"/></node><node id="-25" lat="30.224336" lon="-97.885945" changeset="false"><tag k="addr:street" v="Twilight Mesa Drive"/><tag k="addr:housenumber" v="7204"/><tag k="coa:place_id" v="1162791"/></node><node id="-26" lat="30.211857" lon="-97.88383" changeset="false"><tag k="addr:street" v="Ruxton Lane"/><tag k="addr:housenumber" v="6656"/><tag k="coa:place_id" v="130775"/></node><node id="-27" lat="30.226107" lon="-97.881009" changeset="false"><tag k="addr:street" v="Poncha Pass"/><tag k="addr:housenumber" v="6911"/><tag k="coa:place_id" v="84609"/></node><node id="-28" lat="30.224938" lon="-97.887662" changeset="false"><tag k="addr:street" v="Twilight Mesa Drive"/><tag k="addr:housenumber" v="7300"/><tag k="coa:place_id" v="1162797"/></node><node id="-29" lat="30.22292" lon="-97.887477" changeset="false"><tag k="addr:street" v="Twilight Terrace Drive"/><tag k="addr:housenumber" v="8209"/><tag k="coa:place_id" v="1162818"/></node><node id="-30" lat="30.221712" lon="-97.885782" changeset="false"><tag k="addr:street" v="Twilight Terrace Drive"/><tag k="addr:housenumber" v="8315"/><tag k="coa:place_id" v="1162807"/></node><node id="-31" lat="30.222187" lon="-97.879976" changeset="false"><tag k="addr:street" v="Rotan Drive"/><tag k="addr:housenumber" v="6714"/><tag k="coa:place_id" v="227299"/></node><node id="-32" lat="30.219797" lon="-97.879784" changeset="false"><tag k="addr:street" v="Hot Springs Drive"/><tag k="addr:housenumber" v="6633"/><tag k="coa:place_id" v="198214"/></node><node id="-33" lat="30.221165" lon="-97.884937" changeset="false"><tag k="addr:street" v="Twilight Terrace Drive"/><tag k="addr:housenumber" v="8320"/><tag k="coa:place_id" v="1162808"/></node><node id="-34" lat="30.212022" lon="-97.888" changeset="false"><tag k="addr:street" v="Gaur Drive"/><tag k="addr:housenumber" v="6904"/><tag k="coa:place_id" v="148620"/></node><node id="-35" lat="30.228328" lon="-97.878477" changeset="false"><tag k="addr:street" v="Convict Hill Road"/><tag k="addr:housenumber" v="6907"/><tag k="coa:place_id" v="914108"/></node><node id="-36" lat="30.225865" lon="-97.879016" changeset="false"><tag k="addr:street" v="Telluride Trail"/><tag k="addr:housenumber" v="6903"/><tag k="coa:place_id" v="84782"/></node><node id="-37" lat="30.223333" lon="-97.88259" changeset="false"><tag k="addr:street" v="Dark Valley Cove"/><tag k="addr:housenumber" v="8005"/><tag k="coa:place_id" v="1162726"/></node><node id="-38" lat="30.221937" lon="-97.877238" changeset="false"><tag k="addr:street" v="Rotan Drive"/><tag k="addr:housenumber" v="6520"/><tag k="coa:place_id" v="1127467"/></node><node id="-39" lat="30.224618" lon="-97.881153" changeset="false"><tag k="addr:street" v="Twilight Mesa Drive"/><tag k="addr:housenumber" v="6912"/><tag k="coa:place_id" v="1162698"/></node><node id="-40" lat="30.224605" lon="-97.88311" changeset="false"><tag k="addr:street" v="Twilight Mesa Drive"/><tag k="addr:housenumber" v="7004"/><tag k="coa:place_id" v="1162730"/></node><node id="-41" lat="30.224447" lon="-97.886816" changeset="false"><tag k="addr:street" v="Twilight Mesa Drive"/><tag k="addr:housenumber" v="7212"/><tag k="coa:place_id" v="1162793"/></node><node id="-42" lat="30.223441" lon="-97.88857" changeset="false"><tag k="addr:street" v="Twilight Terrace Drive"/><tag k="addr:housenumber" v="8204"/><tag k="coa:place_id" v="1162815"/></node><node id="-43" lat="30.211117" lon="-97.887977" changeset="false"><tag k="addr:street" v="Gaur Court"/><tag k="addr:housenumber" v="9209"/><tag k="coa:place_id" v="148637"/></node><node id="-44" lat="30.210933" lon="-97.883098" changeset="false"><tag k="addr:street" v="Taylorcrest Drive"/><tag k="addr:housenumber" v="6432"/><tag k="coa:place_id" v="212273"/></node><node id="-45" lat="30.223224" lon="-97.886856" changeset="false"><tag k="addr:street" v="Twilight Mesa Drive"/><tag k="addr:housenumber" v="7213 1/2"/><tag k="coa:place_id" v="3181998"/></node><node id="-46" lat="30.219954" lon="-97.884798" changeset="false"><tag k="addr:street" v="Twilight Terrace Drive"/><tag k="addr:housenumber" v="8316"/><tag k="coa:place_id" v="3192276"/></node><node id="-47" lat="30.226315" lon="-97.881232" changeset="false"><tag k="addr:street" v="Poncha Pass"/><tag k="addr:housenumber" v="6915"/><tag k="coa:place_id" v="84611"/></node><node id="-48" lat="30.224085" lon="-97.87204" changeset="false"><tag k="addr:street" v="Zadock Woods Drive"/><tag k="addr:housenumber" v="6401"/><tag k="coa:place_id" v="195708"/></node><node id="-49" lat="30.2251" lon="-97.878245" changeset="false"><tag k="addr:street" v="Telluride Trail"/><tag k="addr:housenumber" v="6813"/><tag k="coa:place_id" v="184398"/></node><node id="-50" lat="30.211456" lon="-97.889589" changeset="false"><tag k="addr:street" v="Axtellon Court"/><tag k="addr:housenumber" v="9313"/><tag k="coa:place_id" v="176208"/></node><node id="-51" lat="30.214367" lon="-97.886066" changeset="false"><tag k="addr:street" v="Beatty Court"/><tag k="addr:housenumber" v="8901"/><tag k="coa:place_id" v="196042"/></node><node id="-52" lat="30.210539" lon="-97.88176" changeset="false"><tag k="addr:street" v="Taylorcrest Drive"/><tag k="addr:housenumber" v="6404"/><tag k="coa:place_id" v="212261"/></node><node id="-53" lat="30.224452" lon="-97.880535" changeset="false"><tag k="addr:street" v="Twilight Mesa Drive"/><tag k="addr:housenumber" v="6908"/><tag k="coa:place_id" v="1162697"/></node><node id="-54" lat="30.224376" lon="-97.886417" changeset="false"><tag k="addr:street" v="Twilight Mesa Drive"/><tag k="addr:housenumber" v="7208"/><tag k="coa:place_id" v="1162792"/></node><node id="-55" lat="30.22055" lon="-97.876525" changeset="false"><tag k="addr:street" v="Rotan Drive"/><tag k="addr:housenumber" v="6500"/><tag k="coa:place_id" v="126791"/></node><node id="-56" lat="30.213019" lon="-97.887493" changeset="false"><tag k="addr:street" v="Gabion Drive"/><tag k="addr:housenumber" v="6804"/><tag k="coa:place_id" v="175807"/></node><node id="-57" lat="30.211136" lon="-97.890423" changeset="false"><tag k="addr:street" v="Auckland Drive"/><tag k="addr:housenumber" v="6930"/><tag k="coa:place_id" v="176185"/></node><node id="-58" lat="30.217316" lon="-97.878051" changeset="false"><tag k="addr:street" v="Clairmont Drive"/><tag k="addr:housenumber" v="6418"/><tag k="coa:place_id" v="62918"/></node><node id="-59" lat="30.225101" lon="-97.888939" changeset="false"><tag k="addr:street" v="Dark Ridge Cove"/><tag k="addr:housenumber" v="8205"/><tag k="coa:place_id" v="1162804"/></node><node id="-60" lat="30.227085" lon="-97.876331" changeset="false"><tag k="addr:street" v="Poncha Pass"/><tag k="addr:housenumber" v="6732"/><tag k="coa:place_id" v="84545"/></node><node id="-61" lat="30.210466" lon="-97.883416" changeset="false"><tag k="addr:street" v="Taylorcrest Drive"/><tag k="addr:housenumber" v="6504"/><tag k="coa:place_id" v="212275"/></node><node id="-62" lat="30.220651" lon="-97.881053" changeset="false"><tag k="addr:street" v="Hot Springs Drive"/><tag k="addr:housenumber" v="6720"/><tag k="coa:place_id" v="233050"/></node><node id="-63" lat="30.21197" lon="-97.890034" changeset="false"><tag k="addr:street" v="Axtellon Court"/><tag k="addr:housenumber" v="9301"/><tag k="coa:place_id" v="176203"/></node><node id="-64" lat="30.225384" lon="-97.878571" changeset="false"><tag k="addr:street" v="Telluride Trail"/><tag k="addr:housenumber" v="6819"/><tag k="coa:place_id" v="184402"/></node><node id="-65" lat="30.209445" lon="-97.884107" changeset="false"><tag k="addr:street" v="Taylorcrest Drive"/><tag k="addr:housenumber" v="6532"/><tag k="coa:place_id" v="212287"/></node><node id="-66" lat="30.225931" lon="-97.880728" changeset="false"><tag k="addr:street" v="Poncha Pass"/><tag k="addr:housenumber" v="6907"/><tag k="coa:place_id" v="84589"/></node><node id="-67" lat="30.212227" lon="-97.884506" changeset="false"><tag k="addr:street" v="Ruxton Lane"/><tag k="addr:housenumber" v="6672"/><tag k="coa:place_id" v="131514"/></node><node id="-68" lat="30.226471" lon="-97.881182" changeset="false"><tag k="addr:street" v="Poncha Pass"/><tag k="addr:housenumber" v="6917"/><tag k="coa:place_id" v="84612"/></node><node id="-69" lat="30.219137" lon="-97.877672" changeset="false"><tag k="addr:street" v="Siringo Pass"/><tag k="addr:housenumber" v="8208"/><tag k="coa:place_id" v="129330"/></node><node id="-70" lat="30.21074" lon="-97.887983" changeset="false"><tag k="addr:street" v="Auckland Drive"/><tag k="addr:housenumber" v="6856"/><tag k="coa:place_id" v="148599"/></node><node id="-71" lat="30.221185" lon="-97.887637" changeset="false"><tag k="addr:street" v="Twilight Terrace Drive"/><tag k="addr:housenumber" v="8304"/><tag k="coa:place_id" v="1162810"/></node><node id="-72" lat="30.220863" lon="-97.881602" changeset="false"><tag k="addr:street" v="Hot Springs Drive"/><tag k="addr:housenumber" v="6725"/><tag k="coa:place_id" v="198228"/></node><node id="-73" lat="30.223358" lon="-97.883885" changeset="false"><tag k="addr:street" v="Twilight Mesa Drive"/><tag k="addr:housenumber" v="7101"/><tag k="coa:place_id" v="1162734"/></node><node id="-74" lat="30.222836" lon="-97.873321" changeset="false"><tag k="addr:street" v="Escarpment Boulevard"/><tag k="addr:housenumber" v="7724"/><tag k="coa:place_id" v="3132955"/></node><node id="-75" lat="30.226036" lon="-97.873891" changeset="false"><tag k="addr:street" v="Shadowridge Run"/><tag k="addr:housenumber" v="7501"/><tag k="coa:place_id" v="218137"/></node><node id="-76" lat="30.22551" lon="-97.872407" changeset="false"><tag k="addr:street" v="Robert Kleburg Lane"/><tag k="addr:housenumber" v="7512"/><tag k="coa:place_id" v="140741"/></node><node id="-77" lat="30.223476" lon="-97.886446" changeset="false"><tag k="addr:street" v="Twilight Mesa Drive"/><tag k="addr:housenumber" v="7209"/><tag k="coa:place_id" v="3388480"/></node><node id="-78" lat="30.212489" lon="-97.889967" changeset="false"><tag k="addr:street" v="Auckland Drive"/><tag k="addr:housenumber" v="7052"/><tag k="coa:place_id" v="208643"/></node><node id="-79" lat="30.217645" lon="-97.878599" changeset="false"><tag k="addr:street" v="Clairmont Drive"/><tag k="addr:housenumber" v="6504"/><tag k="coa:place_id" v="1140351"/></node><node id="-80" lat="30.214358" lon="-97.889652" changeset="false"><tag k="addr:street" v="Colberg Drive"/><tag k="addr:housenumber" v="9008"/><tag k="coa:place_id" v="176223"/></node><node id="-81" lat="30.223441" lon="-97.880643" changeset="false"><tag k="addr:street" v="Twilight Mesa Drive"/><tag k="addr:housenumber" v="6905"/><tag k="coa:place_id" v="1162721"/></node><node id="-82" lat="30.211619" lon="-97.887367" changeset="false"><tag k="addr:street" v="Gaur Drive"/><tag k="addr:housenumber" v="6806"/><tag k="coa:place_id" v="148613"/></node><node id="-83" lat="30.220533" lon="-97.877431" changeset="false"><tag k="addr:street" v="Hot Springs Drive"/><tag k="addr:housenumber" v="6601"/><tag k="coa:place_id" v="215743"/></node><node id="-84" lat="30.220281" lon="-97.879208" changeset="false"><tag k="addr:street" v="Hot Springs Drive"/><tag k="addr:housenumber" v="6628"/><tag k="coa:place_id" v="198211"/></node><node id="-85" lat="30.220282" lon="-97.891246" changeset="false"><tag k="addr:street" v="Twilight Shadow Drive"/><tag k="addr:housenumber" v="7408"/><tag k="coa:place_id" v="1160456"/></node><node id="-86" lat="30.219956" lon="-97.877931" changeset="false"><tag k="addr:street" v="Hot Springs Drive"/><tag k="addr:housenumber" v="6609"/><tag k="coa:place_id" v="198204"/></node><node id="-87" lat="30.21311" lon="-97.89039" changeset="false"><tag k="addr:street" v="Colberg Drive"/><tag k="addr:housenumber" v="9124"/><tag k="coa:place_id" v="175843"/></node><node id="-88" lat="30.212862" lon="-97.886051" changeset="false"><tag k="addr:street" v="Beatty Drive"/><tag k="addr:housenumber" v="6845"/><tag k="coa:place_id" v="196066"/></node><node id="-89" lat="30.211363" lon="-97.891359" changeset="false"><tag k="addr:street" v="Auckland Drive"/><tag k="addr:housenumber" v="7013"/><tag k="coa:place_id" v="176170"/></node><node id="-90" lat="30.222014" lon="-97.880836" changeset="false"><tag k="addr:street" v="Rotan Drive"/><tag k="addr:housenumber" v="6726"/><tag k="coa:place_id" v="227301"/></node><node id="-91" lat="30.221996" lon="-97.8796" changeset="false"><tag k="addr:street" v="Rotan Drive"/><tag k="addr:housenumber" v="6708"/><tag k="coa:place_id" v="198198"/></node><node id="-92" lat="30.219447" lon="-97.89277" changeset="false"><tag k="addr:street" v="Twilight Shadow Drive"/><tag k="addr:housenumber" v="7505"/><tag k="coa:place_id" v="1160444"/></node><node id="-93" lat="30.210654" lon="-97.890381" changeset="false"><tag k="addr:street" v="Auckland Drive"/><tag k="addr:housenumber" v="6925"/><tag k="coa:place_id" v="176159"/></node><node id="-94" lat="30.220358" lon="-97.875264" changeset="false"><tag k="addr:street" v="Oasis Drive"/><tag k="addr:housenumber" v="6602"/><tag k="coa:place_id" v="110959"/></node><node id="-95" lat="30.212818" lon="-97.890501" changeset="false"><tag k="addr:street" v="Auckland Drive"/><tag k="addr:housenumber" v="7049"/><tag k="coa:place_id" v="176183"/></node><node id="-96" lat="30.224631" lon="-97.882534" changeset="false"><tag k="addr:street" v="Twilight Mesa Drive"/><tag k="addr:housenumber" v="6918"/><tag k="coa:place_id" v="1162700"/></node><node id="-97" lat="30.211456" lon="-97.88718" changeset="false"><tag k="addr:street" v="Auckland Drive"/><tag k="addr:housenumber" v="6832"/><tag k="coa:place_id" v="150065"/></node><node id="-98" lat="30.226029" lon="-97.874208" changeset="false"><tag k="addr:street" v="Shadowridge Run"/><tag k="addr:housenumber" v="7500"/><tag k="coa:place_id" v="218138"/></node><node id="-99" lat="30.22096" lon="-97.88709" changeset="false"><tag k="addr:street" v="Twilight Terrace Drive"/><tag k="addr:housenumber" v="8308"/><tag k="coa:place_id" v="1162811"/></node><node id="-100" lat="30.22696" lon="-97.87644" changeset="false"><tag k="addr:street" v="Poncha Pass"/><tag k="addr:housenumber" v="6734"/><tag k="coa:place_id" v="84546"/></node><node id="-101" lat="30.213132" lon="-97.889835" changeset="false"><tag k="addr:street" v="Colberg Drive"/><tag k="addr:housenumber" v="9121"/><tag k="coa:place_id" v="175818"/></node><node id="-102" lat="30.226759" lon="-97.876505" changeset="false"><tag k="addr:street" v="Poncha Pass"/><tag k="addr:housenumber" v="6736 1/2"/><tag k="coa:place_id" v="227190"/></node><node id="-103" lat="30.22391" lon="-97.878999" changeset="false"><tag k="addr:street" v="Twilight Mesa Drive"/><tag k="addr:housenumber" v="6900"/><tag k="coa:place_id" v="1162695"/></node><node id="-104" lat="30.223276" lon="-97.883246" changeset="false"><tag k="addr:street" v="Twilight Mesa Drive"/><tag k="addr:housenumber" v="7005"/><tag k="coa:place_id" v="1162733"/></node><node id="-105" lat="30.224385" lon="-97.884033" changeset="false"><tag k="addr:street" v="Twilight Mesa Drive"/><tag k="addr:housenumber" v="7100"/><tag k="coa:place_id" v="1162732"/></node><node id="-106" lat="30.217965" lon="-97.876777" changeset="false"><tag k="addr:street" v="Clay Allison Pass"/><tag k="addr:housenumber" v="6437"/><tag k="coa:place_id" v="129383"/></node><node id="-107" lat="30.21126" lon="-97.890609" changeset="false"><tag k="addr:street" v="Auckland Drive"/><tag k="addr:housenumber" v="7000"/><tag k="coa:place_id" v="176187"/></node><node id="-108" lat="30.217436" lon="-97.892327" changeset="false"><tag k="addr:street" v="West Slaughter Lane"/><tag k="addr:housenumber" v="7500"/><tag k="coa:place_id" v="5108922"/></node><node id="-109" lat="30.210901" lon="-97.881887" changeset="false"><tag k="addr:street" v="La Siesta Bend"/><tag k="addr:housenumber" v="8936"/><tag k="coa:place_id" v="158479"/></node><node id="-110" lat="30.212071" lon="-97.888677" changeset="false"><tag k="addr:street" v="Gaur Drive"/><tag k="addr:housenumber" v="6916"/><tag k="coa:place_id" v="148626"/></node><node id="-111" lat="30.2229" lon="-97.882455" changeset="false"><tag k="addr:street" v="Dark Valley Cove"/><tag k="addr:housenumber" v="8009"/><tag k="coa:place_id" v="1162727"/></node><node id="-112" lat="30.225812" lon="-97.871057" changeset="false"><tag k="addr:street" v="Ira Ingram Drive"/><tag k="addr:housenumber" v="6419"/><tag k="coa:place_id" v="140724"/></node><node id="-113" lat="30.220323" lon="-97.892713" changeset="false"><tag k="addr:street" v="Dark Shadow Cove"/><tag k="addr:housenumber" v="8608"/><tag k="coa:place_id" v="3109364"/></node><node id="-114" lat="30.21503" lon="-97.88925" changeset="false"><tag k="addr:street" v="Colberg Drive"/><tag k="addr:housenumber" v="8928"/><tag k="coa:place_id" v="196097"/></node><node id="-115" lat="30.226737" lon="-97.880939" changeset="false"><tag k="addr:street" v="Snowbird Pass"/><tag k="addr:housenumber" v="7800"/><tag k="coa:place_id" v="227565"/></node><node id="-116" lat="30.226136" lon="-97.878189" changeset="false"><tag k="addr:street" v="Clara Marie Cove"/><tag k="addr:housenumber" v="7608"/><tag k="coa:place_id" v="3076170"/></node><node id="-117" lat="30.222068" lon="-97.886552" changeset="false"><tag k="addr:street" v="Twilight Terrace Drive"/><tag k="addr:housenumber" v="8309"/><tag k="coa:place_id" v="1162813"/></node><node id="-118" lat="30.221519" lon="-97.878689" changeset="false"><tag k="addr:street" v="Rotan Drive"/><tag k="addr:housenumber" v="6610"/><tag k="coa:place_id" v="198187"/></node><node id="-119" lat="30.214136" lon="-97.886661" changeset="false"><tag k="addr:street" v="Beatty Court"/><tag k="addr:housenumber" v="8912"/><tag k="coa:place_id" v="208633"/></node><node id="-120" lat="30.227121" lon="-97.872241" changeset="false"><tag k="addr:street" v="Convict Hill Road"/><tag k="addr:housenumber" v="6511"/><tag k="coa:place_id" v="3049603"/></node><node id="-121" lat="30.213461" lon="-97.890204" changeset="false"><tag k="addr:street" v="Colberg Drive"/><tag k="addr:housenumber" v="9116"/><tag k="coa:place_id" v="175847"/></node><node id="-122" lat="30.215177" lon="-97.889158" changeset="false"><tag k="addr:street" v="Colberg Drive"/><tag k="addr:housenumber" v="8924"/><tag k="coa:place_id" v="196098"/></node><node id="-123" lat="30.223194" lon="-97.886412" changeset="false"><tag k="addr:street" v="Twilight Mesa Drive"/><tag k="addr:housenumber" v="7209 1/2"/><tag k="coa:place_id" v="3181997"/></node><node id="-124" lat="30.225652" lon="-97.889639" changeset="false"><tag k="addr:street" v="Dark Ridge Cove"/><tag k="addr:housenumber" v="8200"/><tag k="coa:place_id" v="1162800"/></node><node id="-125" lat="30.224546" lon="-97.874594" changeset="false"><tag k="addr:street" v="Shadowridge Run"/><tag k="addr:housenumber" v="7617"/><tag k="coa:place_id" v="84525"/></node><node id="-126" lat="30.212821" lon="-97.88967" changeset="false"><tag k="addr:street" v="Colberg Drive"/><tag k="addr:housenumber" v="9201"/><tag k="coa:place_id" v="175823"/></node><node id="-127" lat="30.219017" lon="-97.875146" changeset="false"><tag k="addr:street" v="Oasis Drive"/><tag k="addr:housenumber" v="6633"/><tag k="coa:place_id" v="129440"/></node><node id="-128" lat="30.223436" lon="-97.885509" changeset="false"><tag k="addr:street" v="Twilight Mesa Drive"/><tag k="addr:housenumber" v="7201"/><tag k="coa:place_id" v="3388478"/></node><node id="-129" lat="30.212984" lon="-97.885813" changeset="false"><tag k="addr:street" v="Beatty Drive"/><tag k="addr:housenumber" v="6841"/><tag k="coa:place_id" v="196067"/></node><node id="-130" lat="30.215584" lon="-97.880236" changeset="false"><tag k="addr:street" v="Clairmont Drive"/><tag k="addr:housenumber" v="6528"/><tag k="coa:place_id" v="62899"/></node><node id="-131" lat="30.224454" lon="-97.879553" changeset="false"><tag k="addr:street" v="Twilight Mesa Drive"/><tag k="addr:housenumber" v="6904"/><tag k="coa:place_id" v="1162696"/></node><node id="-132" lat="30.224424" lon="-97.888797" changeset="false"><tag k="addr:street" v="Dark Ridge Cove"/><tag k="addr:housenumber" v="8215"/><tag k="coa:place_id" v="3084804"/></node><node id="-133" lat="30.22697" lon="-97.877045" changeset="false"><tag k="addr:street" v="Corrie Cove"/><tag k="addr:housenumber" v="7513"/><tag k="coa:place_id" v="239035"/></node><node id="-134" lat="30.223252" lon="-97.884808" changeset="false"><tag k="addr:street" v="Twilight Mesa Drive"/><tag k="addr:housenumber" v="7109"/><tag k="coa:place_id" v="3388477"/></node><node id="-135" lat="30.222154" lon="-97.882849" changeset="false"><tag k="addr:street" v="Dark Valley Cove"/><tag k="addr:housenumber" v="8015"/><tag k="coa:place_id" v="3300945"/></node><node id="-136" lat="30.21729" lon="-97.878451" changeset="false"><tag k="addr:street" v="Clairmont Drive"/><tag k="addr:housenumber" v="6422"/><tag k="coa:place_id" v="62916"/></node><node id="-137" lat="30.223453" lon="-97.885915" changeset="false"><tag k="addr:street" v="Twilight Mesa Drive"/><tag k="addr:housenumber" v="7205"/><tag k="coa:place_id" v="3388479"/></node><node id="-138" lat="30.222595" lon="-97.888315" changeset="false"><tag k="addr:street" v="Twilight Terrace Drive"/><tag k="addr:housenumber" v="8212"/><tag k="coa:place_id" v="1162817"/></node><node id="-139" lat="30.223384" lon="-97.887511" changeset="false"><tag k="addr:street" v="Twilight Terrace Drive"/><tag k="addr:housenumber" v="8205"/><tag k="coa:place_id" v="3082596"/></node><node id="-140" lat="30.222591" lon="-97.892012" changeset="false"><tag k="addr:street" v="Ranch to Market Road 1826"/><tag k="addr:housenumber" v="8517"/><tag k="coa:place_id" v="3378069"/></node><node id="-141" lat="30.223468" lon="-97.886859" changeset="false"><tag k="addr:street" v="Twilight Mesa Drive"/><tag k="addr:housenumber" v="7213"/><tag k="coa:place_id" v="3388481"/></node><node id="-142" lat="30.212312" lon="-97.887919" changeset="false"><tag k="addr:street" v="Gabion Drive"/><tag k="addr:housenumber" v="6821"/><tag k="coa:place_id" v="175775"/></node><node id="-143" lat="30.216903" lon="-97.876901" changeset="false"><tag k="addr:street" v="Clairmont Drive"/><tag k="addr:housenumber" v="6406"/><tag k="coa:place_id" v="62925"/></node><node id="-144" lat="30.22322" lon="-97.88134" changeset="false"><tag k="addr:street" v="Dark Valley Cove"/><tag k="addr:housenumber" v="8008"/><tag k="coa:place_id" v="1162724"/></node><node id="-145" lat="30.214714" lon="-97.889395" changeset="false"><tag k="addr:street" v="Allerton Avenue"/><tag k="addr:housenumber" v="7101 1/2"/><tag k="coa:place_id" v="3141263"/></node><node id="-146" lat="30.210871" lon="-97.881584" changeset="false"><tag k="addr:street" v="La Siesta Bend"/><tag k="addr:housenumber" v="9000"/><tag k="coa:place_id" v="158478"/></node><node id="-147" lat="30.223015" lon="-97.880595" changeset="false"><tag k="addr:street" v="Dark Valley Cove"/><tag k="addr:housenumber" v="8012 1/2"/><tag k="coa:place_id" v="3182001"/></node><node id="-148" lat="30.223661" lon="-97.891129" changeset="false"><tag k="addr:street" v="Ranch to Market Road 1826"/><tag k="addr:housenumber" v="8411"/><tag k="coa:place_id" v="914078"/></node><node id="-149" lat="30.222693" lon="-97.890118" changeset="false"><tag k="addr:street" v="Dusk Terrace Cove"/><tag k="addr:housenumber" v="8409"/><tag k="coa:place_id" v="1162805"/></node><node id="-150" lat="30.215904" lon="-97.875879" changeset="false"><tag k="addr:street" v="Clairmont Drive"/><tag k="addr:housenumber" v="6312"/><tag k="coa:place_id" v="62943"/></node><node id="-151" lat="30.224967" lon="-97.888237" changeset="false"><tag k="addr:street" v="Twilight Mesa Drive"/><tag k="addr:housenumber" v="7304"/><tag k="coa:place_id" v="1162796"/></node><node id="-152" lat="30.22503" lon="-97.870581" changeset="false"><tag k="addr:street" v="Zadock Woods Drive"/><tag k="addr:housenumber" v="6314"/><tag k="coa:place_id" v="146676"/></node><node id="-153" lat="30.223023" lon="-97.888559" changeset="false"><tag k="addr:street" v="Twilight Terrace Drive"/><tag k="addr:housenumber" v="8208"/><tag k="coa:place_id" v="1162816"/></node><node id="-154" lat="30.212805" lon="-97.887812" changeset="false"><tag k="addr:street" v="Gabion Drive"/><tag k="addr:housenumber" v="6814"/><tag k="coa:place_id" v="175805"/></node><node id="-155" lat="30.219022" lon="-97.889482" changeset="false"><tag k="addr:street" v="Twilight Shadow Drive"/><tag k="addr:housenumber" v="7317"/><tag k="coa:place_id" v="1160448"/></node><node id="-156" lat="30.224777" lon="-97.8902" changeset="false"><tag k="addr:street" v="Dark Ridge Cove"/><tag k="addr:housenumber" v="8208"/><tag k="coa:place_id" v="1162802"/></node><node id="-157" lat="30.224401" lon="-97.88455" changeset="false"><tag k="addr:street" v="Twilight Mesa Drive"/><tag k="addr:housenumber" v="7106"/><tag k="coa:place_id" v="1162736"/></node><node id="-158" lat="30.225075" lon="-97.872246" changeset="false"><tag k="addr:street" v="Robert Kleburg Lane"/><tag k="addr:housenumber" v="7517"/><tag k="coa:place_id" v="140742"/></node><node id="-159" lat="30.220748" lon="-97.891683" changeset="false"><tag k="addr:street" v="Dark Shadow Cove"/><tag k="addr:housenumber" v="8605"/><tag k="coa:place_id" v="1160442"/></node><node id="-160" lat="30.21982" lon="-97.878017" changeset="false"><tag k="addr:street" v="Hot Springs Drive"/><tag k="addr:housenumber" v="6613"/><tag k="coa:place_id" v="198205"/></node><node id="-161" lat="30.223798" lon="-97.88875" changeset="false"><tag k="addr:street" v="Twilight Mesa Drive"/><tag k="addr:housenumber" v="7305"/><tag k="coa:place_id" v="1162814"/></node><node id="-162" lat="30.22491" lon="-97.873918" changeset="false"><tag k="addr:street" v="Orrick Drive"/><tag k="addr:housenumber" v="7604"/><tag k="coa:place_id" v="131820"/></node><node id="-163" lat="30.225496" lon="-97.878663" changeset="false"><tag k="addr:street" v="Telluride Trail"/><tag k="addr:housenumber" v="6821"/><tag k="coa:place_id" v="184403"/></node><node id="-164" lat="30.215329" lon="-97.889066" changeset="false"><tag k="addr:street" v="Colberg Drive"/><tag k="addr:housenumber" v="8920"/><tag k="coa:place_id" v="196099"/></node><node id="-165" lat="30.224098" lon="-97.871633" changeset="false"><tag k="addr:street" v="Zadock Woods Drive"/><tag k="addr:housenumber" v="6329"/><tag k="coa:place_id" v="130547"/></node><node id="-166" lat="30.209617" lon="-97.884468" changeset="false"><tag k="addr:street" v="Ruxton Lane"/><tag k="addr:housenumber" v="6604"/><tag k="coa:place_id" v="218305"/></node><node id="-167" lat="30.224251" lon="-97.885474" changeset="false"><tag k="addr:street" v="Twilight Mesa Drive"/><tag k="addr:housenumber" v="7200"/><tag k="coa:place_id" v="1162795"/></node><node id="-168" lat="30.221867" lon="-97.888275" changeset="false"><tag k="addr:street" v="Twilight Terrace Drive"/><tag k="addr:housenumber" v="8216"/><tag k="coa:place_id" v="1162819"/></node><node id="-169" lat="30.221984" lon="-97.87412" changeset="false"><tag k="addr:street" v="Cheno Cortina Trail"/><tag k="addr:housenumber" v="7817"/><tag k="coa:place_id" v="110993"/></node><node id="-170" lat="30.218148" lon="-97.875008" changeset="false"><tag k="addr:street" v="Oasis Drive"/><tag k="addr:housenumber" v="6711"/><tag k="coa:place_id" v="129451"/></node><node id="-171" lat="30.220765" lon="-97.878495" changeset="false"><tag k="addr:street" v="Rotan Drive"/><tag k="addr:housenumber" v="6605"/><tag k="coa:place_id" v="198182"/></node><node id="-172" lat="30.220518" lon="-97.881568" changeset="false"><tag k="addr:street" v="Hot Springs Drive"/><tag k="addr:housenumber" v="6721"/><tag k="coa:place_id" v="218119"/></node><node id="-173" lat="30.220342" lon="-97.886217" changeset="false"><tag k="addr:street" v="Twilight Terrace Drive"/><tag k="addr:housenumber" v="8312"/><tag k="coa:place_id" v="1162812"/></node><node id="-174" lat="30.226714" lon="-97.876658" changeset="false"><tag k="addr:street" v="Poncha Pass"/><tag k="addr:housenumber" v="6738"/><tag k="coa:place_id" v="84548"/></node><node id="-175" lat="30.22447" lon="-97.883565" changeset="false"><tag k="addr:street" v="Twilight Mesa Drive"/><tag k="addr:housenumber" v="7008"/><tag k="coa:place_id" v="1162729"/></node><node id="-176" lat="30.224333" lon="-97.884967" changeset="false"><tag k="addr:street" v="Twilight Mesa Drive"/><tag k="addr:housenumber" v="7108"/><tag k="coa:place_id" v="1162731"/></node><node id="-177" lat="30.222188" lon="-97.880432" changeset="false"><tag k="addr:street" v="Rotan Drive"/><tag k="addr:housenumber" v="6720"/><tag k="coa:place_id" v="227300"/></node><node id="-178" lat="30.212281" lon="-97.888886" changeset="false"><tag k="addr:street" v="Colberg Drive"/><tag k="addr:housenumber" v="9217"/><tag k="coa:place_id" v="175831"/></node><node id="-179" lat="30.210411" lon="-97.888623" changeset="false"><tag k="addr:street" v="Auckland Drive"/><tag k="addr:housenumber" v="6877"/><tag k="coa:place_id" v="148571"/></node><node id="-180" lat="30.22003" lon="-97.881368" changeset="false"><tag k="addr:street" v="Hot Springs Court"/><tag k="addr:housenumber" v="8301"/><tag k="coa:place_id" v="206809"/></node><node id="-181" lat="30.219194" lon="-97.89139" changeset="false"><tag k="addr:street" v="Twilight Shadow Drive"/><tag k="addr:housenumber" v="7409"/><tag k="coa:place_id" v="1160451"/></node><node id="-182" lat="30.222055" lon="-97.883056" changeset="false"><tag k="addr:street" v="Dark Valley Cove"/><tag k="addr:housenumber" v="8015 1/2"/><tag k="coa:place_id" v="3182000"/></node><node id="-183" lat="30.21196" lon="-97.887363" changeset="false"><tag k="addr:street" v="Auckland Court"/><tag k="addr:housenumber" v="6809"/><tag k="coa:place_id" v="148607"/></node><node id="-184" lat="30.218303" lon="-97.878062" changeset="false"><tag k="addr:street" v="Siringo Pass"/><tag k="addr:housenumber" v="8309"/><tag k="coa:place_id" v="129354"/></node><node id="-185" lat="30.21233" lon="-97.886824" changeset="false"><tag k="addr:street" v="Auckland Court"/><tag k="addr:housenumber" v="6804"/><tag k="coa:place_id" v="148612"/></node><node id="-186" lat="30.227617" lon="-97.876949" changeset="false"><tag k="addr:street" v="Corrie Cove"/><tag k="addr:housenumber" v="7504"/><tag k="coa:place_id" v="84534"/></node><node id="-187" lat="30.225224" lon="-97.890101" changeset="false"><tag k="addr:street" v="Dark Ridge Cove"/><tag k="addr:housenumber" v="8204"/><tag k="coa:place_id" v="1162801"/></node><node id="-188" lat="30.222779" lon="-97.889344" changeset="false"><tag k="addr:street" v="Dusk Terrace Cove"/><tag k="addr:housenumber" v="8405"/><tag k="coa:place_id" v="1162806"/></node><node id="-189" lat="30.220509" lon="-97.879808" changeset="false"><tag k="addr:street" v="Hot Springs Drive"/><tag k="addr:housenumber" v="6700"/><tag k="coa:place_id" v="198217"/></node><node id="-190" lat="30.220399" lon="-97.879495" changeset="false"><tag k="addr:street" v="Hot Springs Drive"/><tag k="addr:housenumber" v="6632"/><tag k="coa:place_id" v="198215"/></node><node id="-191" lat="30.221693" lon="-97.87683" changeset="false"><tag k="addr:street" v="Rotan Drive"/><tag k="addr:housenumber" v="6516"/><tag k="coa:place_id" v="1127468"/></node><node id="-192" lat="30.212918" lon="-97.886243" changeset="false"><tag k="addr:street" v="Beatty Drive"/><tag k="addr:housenumber" v="6901"/><tag k="coa:place_id" v="196065"/></node><node id="-193" lat="30.211066" lon="-97.890225" changeset="false"><tag k="addr:street" v="Auckland Drive"/><tag k="addr:housenumber" v="6924"/><tag k="coa:place_id" v="176184"/></node><node id="-194" lat="30.212697" lon="-97.890652" changeset="false"><tag k="addr:street" v="Auckland Drive"/><tag k="addr:housenumber" v="7045"/><tag k="coa:place_id" v="176179"/></node><node id="-195" lat="30.225796" lon="-97.87984" changeset="false"><tag k="addr:street" v="Poncha Pass"/><tag k="addr:housenumber" v="6818"/><tag k="coa:place_id" v="84615"/></node><node id="-196" lat="30.212255" lon="-97.886647" changeset="false"><tag k="addr:street" v="Auckland Court"/><tag k="addr:housenumber" v="6802"/><tag k="coa:place_id" v="148806"/></node><node id="-197" lat="30.219001" lon="-97.890433" changeset="false"><tag k="addr:street" v="Twilight Shadow Drive"/><tag k="addr:housenumber" v="7401"/><tag k="coa:place_id" v="1160457"/></node></osm>