<?xml version="1.0" encoding="UTF-8"?><osm version="0.6" generator="github.com/aaronlidman/osm-and-geojson"><node id="-1" lat="30.37181" lon="-97.77135" changeset="false"><tag k="addr:street" v="Parkview Circle"/><tag k="addr:housenumber" v="7619"/><tag k="coa:place_id" v="307060"/></node><node id="-2" lat="30.37089" lon="-97.771825" changeset="false"><tag k="addr:street" v="Downridge Drive"/><tag k="addr:housenumber" v="7518"/><tag k="coa:place_id" v="1003682"/></node><node id="-3" lat="30.36893" lon="-97.780693" changeset="false"><tag k="addr:street" v="Valburn Drive"/><tag k="addr:housenumber" v="7008"/><tag k="coa:place_id" v="3029063"/></node><node id="-4" lat="30.366178" lon="-97.787471" changeset="false"><tag k="addr:street" v="Lakewood Drive"/><tag k="addr:housenumber" v="6708"/><tag k="coa:place_id" v="548972"/></node><node id="-5" lat="30.367747" lon="-97.780577" changeset="false"><tag k="addr:street" v="Valburn Drive"/><tag k="addr:housenumber" v="7110"/><tag k="coa:place_id" v="116165"/></node><node id="-6" lat="30.370937" lon="-97.781637" changeset="false"><tag k="addr:street" v="Valburn Drive"/><tag k="addr:housenumber" v="6804"/><tag k="coa:place_id" v="3032949"/></node><node id="-7" lat="30.371482" lon="-97.780026" changeset="false"><tag k="addr:street" v="Vista Mountain Drive"/><tag k="addr:housenumber" v="7332"/><tag k="coa:place_id" v="3039401"/></node><node id="-8" lat="30.371358" lon="-97.782594" changeset="false"><tag k="addr:street" v="Valburn Drive"/><tag k="addr:housenumber" v="6713"/><tag k="coa:place_id" v="3032930"/></node><node id="-9" lat="30.362853" lon="-97.785887" changeset="false"><tag k="addr:street" v="Driftwood Drive"/><tag k="addr:housenumber" v="5505"/><tag k="coa:place_id" v="134424"/></node><node id="-10" lat="30.370375" lon="-97.77371" changeset="false"><tag k="addr:street" v="Parkview Circle"/><tag k="addr:housenumber" v="7639"/><tag k="coa:place_id" v="133992"/></node><node id="-11" lat="30.367011" lon="-97.77856" changeset="false"><tag k="addr:street" v="Valburn Drive"/><tag k="addr:housenumber" v="7140"/><tag k="coa:place_id" v="66407"/></node><node id="-12" lat="30.361575" lon="-97.785809" changeset="false"><tag k="addr:street" v="Blueridge Court"/><tag k="addr:housenumber" v="5601"/><tag k="coa:place_id" v="677745"/></node><node id="-13" lat="30.367518" lon="-97.777212" changeset="false"><tag k="addr:street" v="Valburn Drive"/><tag k="addr:housenumber" v="7200"/><tag k="coa:place_id" v="3029065"/></node><node id="-14" lat="30.371668" lon="-97.782698" changeset="false"><tag k="addr:street" v="Valburn Drive"/><tag k="addr:housenumber" v="6701"/><tag k="coa:place_id" v="3032944"/></node><node id="-15" lat="30.371726" lon="-97.782206" changeset="false"><tag k="addr:street" v="Valburn Drive"/><tag k="addr:housenumber" v="6708"/><tag k="coa:place_id" v="3032942"/></node><node id="-16" lat="30.361204" lon="-97.786229" changeset="false"><tag k="addr:street" v="Lemonwood Drive"/><tag k="addr:housenumber" v="5602"/><tag k="coa:place_id" v="548756"/></node><node id="-17" lat="30.368779" lon="-97.771353" changeset="false"><tag k="addr:street" v="Parkview Circle"/><tag k="addr:housenumber" v="7501"/><tag k="coa:place_id" v="222314"/></node><node id="-18" lat="30.371891" lon="-97.771665" changeset="false"><tag k="addr:street" v="Parkview Circle"/><tag k="addr:housenumber" v="7621"/><tag k="coa:place_id" v="222626"/></node><node id="-19" lat="30.374999" lon="-97.773889" changeset="false"><tag k="addr:street" v="Rico Cove"/><tag k="addr:housenumber" v="5205"/><tag k="coa:place_id" v="67643"/></node><node id="-20" lat="30.377259" lon="-97.768892" changeset="false"><tag k="addr:street" v="Valburn Court"/><tag k="addr:housenumber" v="5008"/><tag k="coa:place_id" v="174730"/></node><node id="-21" lat="30.361662" lon="-97.785309" changeset="false"><tag k="addr:street" v="Blueridge Court"/><tag k="addr:housenumber" v="5503"/><tag k="coa:place_id" v="127701"/></node><node id="-22" lat="30.36729" lon="-97.777641" changeset="false"><tag k="addr:street" v="Valburn Drive"/><tag k="addr:housenumber" v="7150"/><tag k="coa:place_id" v="66410"/></node><node id="-23" lat="30.365917" lon="-97.787245" changeset="false"><tag k="addr:street" v="Lakewood Drive"/><tag k="addr:housenumber" v="6701"/><tag k="coa:place_id" v="90285"/></node><node id="-24" lat="30.359534" lon="-97.7908" changeset="false"><tag k="addr:street" v="Capital of Texas Highway"/><tag k="addr:housenumber" v="6129"/><tag k="coa:place_id" v="716848"/></node><node id="-25" lat="30.365537" lon="-97.788075" changeset="false"><tag k="addr:street" v="Lakewood Drive"/><tag k="addr:housenumber" v="6620"/><tag k="coa:place_id" v="3378370"/></node><node id="-26" lat="30.370151" lon="-97.780887" changeset="false"><tag k="addr:street" v="Vista Mountain Drive"/><tag k="addr:housenumber" v="7305"/><tag k="coa:place_id" v="3363232"/></node><node id="-27" lat="30.366014" lon="-97.787211" changeset="false"><tag k="addr:street" v="Lakewood Drive"/><tag k="addr:housenumber" v="6621 1/2"/><tag k="coa:place_id" v="3098241"/></node><node id="-28" lat="30.376885" lon="-97.778425" changeset="false"><tag k="addr:street" v="Capital of Texas Highway"/><tag k="addr:housenumber" v="7801"/><tag k="coa:place_id" v="224862"/></node><node id="-29" lat="30.368483" lon="-97.770112" changeset="false"><tag k="addr:street" v="Crossdraw Drive"/><tag k="addr:housenumber" v="7505"/><tag k="coa:place_id" v="222482"/></node><node id="-30" lat="30.368472" lon="-97.78145" changeset="false"><tag k="addr:street" v="Valburn Drive"/><tag k="addr:housenumber" v="7005"/><tag k="coa:place_id" v="116148"/></node><node id="-31" lat="30.37513" lon="-97.774247" changeset="false"><tag k="addr:street" v="Rico Cove"/><tag k="addr:housenumber" v="5207"/><tag k="coa:place_id" v="67642"/></node><node id="-32" lat="30.371516" lon="-97.771377" changeset="false"><tag k="addr:street" v="Parkview Circle"/><tag k="addr:housenumber" v="7618"/><tag k="coa:place_id" v="179441"/></node><node id="-33" lat="30.367424" lon="-97.780094" changeset="false"><tag k="addr:street" v="Valburn Drive"/><tag k="addr:housenumber" v="7118"/><tag k="coa:place_id" v="66402"/></node><node id="-34" lat="30.37714" lon="-97.768576" changeset="false"><tag k="addr:street" v="Valburn Court"/><tag k="addr:housenumber" v="5000"/><tag k="coa:place_id" v="174728"/></node><node id="-35" lat="30.361534" lon="-97.786647" changeset="false"><tag k="addr:street" v="Blueridge Court"/><tag k="addr:housenumber" v="5605"/><tag k="coa:place_id" v="125988"/></node><node id="-36" lat="30.369082" lon="-97.770931" changeset="false"><tag k="addr:street" v="Parkview Circle"/><tag k="addr:housenumber" v="7503"/><tag k="coa:place_id" v="222320"/></node><node id="-37" lat="30.368886" lon="-97.771512" changeset="false"><tag k="addr:street" v="Crossdraw Drive"/><tag k="addr:housenumber" v="7515"/><tag k="coa:place_id" v="179433"/></node><node id="-38" lat="30.366157" lon="-97.787492" changeset="false"><tag k="addr:street" v="Lakewood Drive"/><tag k="addr:housenumber" v="6706"/><tag k="coa:place_id" v="548966"/></node><node id="-39" lat="30.367575" lon="-97.780361" changeset="false"><tag k="addr:street" v="Valburn Drive"/><tag k="addr:housenumber" v="7114"/><tag k="coa:place_id" v="66401"/></node><node id="-40" lat="30.368306" lon="-97.781437" changeset="false"><tag k="addr:street" v="Valburn Drive"/><tag k="addr:housenumber" v="7007"/><tag k="coa:place_id" v="116147"/></node><node id="-41" lat="30.359125" lon="-97.787907" changeset="false"><tag k="addr:street" v="Ranch to Market Road 2222"/><tag k="addr:housenumber" v="5604"/><tag k="coa:place_id" v="187182"/></node><node id="-42" lat="30.3705" lon="-97.771568" changeset="false"><tag k="addr:street" v="Downridge Drive"/><tag k="addr:housenumber" v="7601"/><tag k="coa:place_id" v="222518"/></node><node id="-43" lat="30.370482" lon="-97.77547" changeset="false"><tag k="addr:street" v="Valburn Drive"/><tag k="addr:housenumber" v="7406"/><tag k="coa:place_id" v="107748"/></node><node id="-44" lat="30.370643" lon="-97.780384" changeset="false"><tag k="addr:street" v="Vista Mountain Drive"/><tag k="addr:housenumber" v="7317"/><tag k="coa:place_id" v="3039388"/></node><node id="-45" lat="30.377195" lon="-97.768734" changeset="false"><tag k="addr:street" v="Valburn Court"/><tag k="addr:housenumber" v="5004"/><tag k="coa:place_id" v="174729"/></node><node id="-46" lat="30.371397" lon="-97.771609" changeset="false"><tag k="addr:street" v="Parkview Circle"/><tag k="addr:housenumber" v="7620"/><tag k="coa:place_id" v="375952"/></node><node id="-47" lat="30.370723" lon="-97.785427" changeset="false"><tag k="addr:street" v="Capital of Texas Highway"/><tag k="addr:housenumber" v="7201"/><tag k="coa:place_id" v="3029062"/></node><node id="-48" lat="30.36964" lon="-97.787122" changeset="false"><tag k="addr:street" v="Capital of Texas Highway"/><tag k="addr:housenumber" v="6907"/><tag k="coa:place_id" v="758673"/></node><node id="-49" lat="30.367504" lon="-97.781073" changeset="false"><tag k="addr:street" v="Valburn Drive"/><tag k="addr:housenumber" v="7111"/><tag k="coa:place_id" v="116142"/></node><node id="-50" lat="30.371684" lon="-97.782923" changeset="false"><tag k="addr:street" v="Valburn Drive"/><tag k="addr:housenumber" v="6705"/><tag k="coa:place_id" v="3032933"/></node><node id="-51" lat="30.364117" lon="-97.786365" changeset="false"><tag k="addr:street" v="Marblewood Drive"/><tag k="addr:housenumber" v="6506"/><tag k="coa:place_id" v="144173"/></node><node id="-52" lat="30.367087" lon="-97.77957" changeset="false"><tag k="addr:street" v="Valburn Drive"/><tag k="addr:housenumber" v="7126"/><tag k="coa:place_id" v="675490"/></node><node id="-53" lat="30.370386" lon="-97.77127" changeset="false"><tag k="addr:street" v="Downridge Drive"/><tag k="addr:housenumber" v="7603"/><tag k="coa:place_id" v="222524"/></node><node id="-54" lat="30.370135" lon="-97.770812" changeset="false"><tag k="addr:street" v="Parkview Circle"/><tag k="addr:housenumber" v="7600"/><tag k="coa:place_id" v="86397"/></node><node id="-55" lat="30.362562" lon="-97.784003" changeset="false"><tag k="addr:street" v="Backtrail Drive"/><tag k="addr:housenumber" v="5311"/><tag k="coa:place_id" v="666039"/></node><node id="-56" lat="30.375423" lon="-97.772796" changeset="false"><tag k="addr:street" v="Valburn Drive"/><tag k="addr:housenumber" v="7806"/><tag k="coa:place_id" v="87464"/></node><node id="-57" lat="30.369995" lon="-97.769647" changeset="false"><tag k="addr:street" v="Step Down Cove"/><tag k="addr:housenumber" v="7515"/><tag k="coa:place_id" v="86398"/></node><node id="-58" lat="30.363123" lon="-97.783282" changeset="false"><tag k="addr:street" v="Backtrail Drive"/><tag k="addr:housenumber" v="5317"/><tag k="coa:place_id" v="666057"/></node><node id="-59" lat="30.368207" lon="-97.769718" changeset="false"><tag k="addr:street" v="Crossdraw Drive"/><tag k="addr:housenumber" v="7503"/><tag k="coa:place_id" v="222236"/></node><node id="-60" lat="30.368443" lon="-97.769676" changeset="false"><tag k="addr:street" v="Step Down Cove"/><tag k="addr:housenumber" v="7503"/><tag k="coa:place_id" v="222242"/></node><node id="-61" lat="30.369803" lon="-97.781358" changeset="false"><tag k="addr:street" v="Valburn Drive"/><tag k="addr:housenumber" v="6905"/><tag k="coa:place_id" v="3032951"/></node><node id="-62" lat="30.36409" lon="-97.787947" changeset="false"><tag k="addr:street" v="Brownwood Court"/><tag k="addr:housenumber" v="6506"/><tag k="coa:place_id" v="973400"/></node><node id="-63" lat="30.371486" lon="-97.782918" changeset="false"><tag k="addr:street" v="Valburn Drive"/><tag k="addr:housenumber" v="6709"/><tag k="coa:place_id" v="3032943"/></node><node id="-64" lat="30.371394" lon="-97.78027" changeset="false"><tag k="addr:street" v="Vista Mountain Drive"/><tag k="addr:housenumber" v="7328"/><tag k="coa:place_id" v="3039400"/></node><node id="-65" lat="30.37061" lon="-97.780841" changeset="false"><tag k="addr:street" v="Vista Mountain Drive"/><tag k="addr:housenumber" v="7308"/><tag k="coa:place_id" v="3039395"/></node><node id="-66" lat="30.368734" lon="-97.771076" changeset="false"><tag k="addr:street" v="Crossdraw Drive"/><tag k="addr:housenumber" v="7511"/><tag k="coa:place_id" v="179431"/></node><node id="-67" lat="30.36909" lon="-97.780825" changeset="false"><tag k="addr:street" v="Valburn Drive"/><tag k="addr:housenumber" v="7000"/><tag k="coa:place_id" v="257138"/></node><node id="-68" lat="30.371147" lon="-97.779945" changeset="false"><tag k="addr:street" v="Vista Mountain Drive"/><tag k="addr:housenumber" v="7329"/><tag k="coa:place_id" v="3039391"/></node><node id="-69" lat="30.370881" lon="-97.780628" changeset="false"><tag k="addr:street" v="Vista Mountain Drive"/><tag k="addr:housenumber" v="7316"/><tag k="coa:place_id" v="3039397"/></node><node id="-70" lat="30.370478" lon="-97.780473" changeset="false"><tag k="addr:street" v="Vista Mountain Drive"/><tag k="addr:housenumber" v="7313"/><tag k="coa:place_id" v="3039402"/></node><node id="-71" lat="30.370273" lon="-97.781788" changeset="false"><tag k="addr:street" v="Valburn Drive"/><tag k="addr:housenumber" v="6813"/><tag k="coa:place_id" v="3032936"/></node><node id="-72" lat="30.369938" lon="-97.781518" changeset="false"><tag k="addr:street" v="Valburn Drive"/><tag k="addr:housenumber" v="6901"/><tag k="coa:place_id" v="3032939"/></node><node id="-73" lat="30.367304" lon="-97.777327" changeset="false"><tag k="addr:street" v="Valburn Drive"/><tag k="addr:housenumber" v="7152"/><tag k="coa:place_id" v="66411"/></node><node id="-74" lat="30.369037" lon="-97.780754" changeset="false"><tag k="addr:street" v="Valburn Drive"/><tag k="addr:housenumber" v="7006"/><tag k="coa:place_id" v="3029064"/></node><node id="-75" lat="30.370607" lon="-97.782081" changeset="false"><tag k="addr:street" v="Valburn Drive"/><tag k="addr:housenumber" v="6805"/><tag k="coa:place_id" v="3032934"/></node><node id="-76" lat="30.369465" lon="-97.771411" changeset="false"><tag k="addr:street" v="Parkview Circle"/><tag k="addr:housenumber" v="7504"/><tag k="coa:place_id" v="222410"/></node><node id="-77" lat="30.360566" lon="-97.789637" changeset="false"><tag k="addr:street" v="Capital of Texas Highway"/><tag k="addr:housenumber" v="6203"/><tag k="coa:place_id" v="194805"/></node><node id="-78" lat="30.374954" lon="-97.779932" changeset="false"><tag k="addr:street" v="Capital of Texas Highway"/><tag k="addr:housenumber" v="7501"/><tag k="coa:place_id" v="239099"/></node><node id="-79" lat="30.370513" lon="-97.781045" changeset="false"><tag k="addr:street" v="Vista Mountain Drive"/><tag k="addr:housenumber" v="7304"/><tag k="coa:place_id" v="3039394"/></node><node id="-80" lat="30.377315" lon="-97.769077" changeset="false"><tag k="addr:street" v="Valburn Court"/><tag k="addr:housenumber" v="5012"/><tag k="coa:place_id" v="174731"/></node><node id="-81" lat="30.369544" lon="-97.781307" changeset="false"><tag k="addr:street" v="Valburn Drive"/><tag k="addr:housenumber" v="6909"/><tag k="coa:place_id" v="3040193"/></node><node id="-82" lat="30.369749" lon="-97.769697" changeset="false"><tag k="addr:street" v="Step Down Cove"/><tag k="addr:housenumber" v="7513"/><tag k="coa:place_id" v="86393"/></node><node id="-83" lat="30.371588" lon="-97.78197" changeset="false"><tag k="addr:street" v="Valburn Drive"/><tag k="addr:housenumber" v="6712"/><tag k="coa:place_id" v="3032947"/></node><node id="-84" lat="30.363554" lon="-97.787194" changeset="false"><tag k="addr:street" v="Brownwood Court"/><tag k="addr:housenumber" v="6503"/><tag k="coa:place_id" v="3188451"/></node><node id="-85" lat="30.368179" lon="-97.788321" changeset="false"><tag k="addr:street" v="Capital of Texas Highway"/><tag k="addr:housenumber" v="6801"/><tag k="coa:place_id" v="136452"/></node><node id="-86" lat="30.375143" lon="-97.773143" changeset="false"><tag k="addr:street" v="Rico Cove"/><tag k="addr:housenumber" v="5200"/><tag k="coa:place_id" v="125663"/></node><node id="-87" lat="30.375073" lon="-97.773035" changeset="false"><tag k="addr:street" v="Valburn Drive"/><tag k="addr:housenumber" v="7800"/><tag k="coa:place_id" v="3029047"/></node><node id="-88" lat="30.368121" lon="-97.781402" changeset="false"><tag k="addr:street" v="Valburn Drive"/><tag k="addr:housenumber" v="7101"/><tag k="coa:place_id" v="74932"/></node><node id="-89" lat="30.367967" lon="-97.781397" changeset="false"><tag k="addr:street" v="Valburn Drive"/><tag k="addr:housenumber" v="7103"/><tag k="coa:place_id" v="682738"/></node></osm>