<?xml version="1.0" encoding="UTF-8"?><osm version="0.6" generator="github.com/aaronlidman/osm-and-geojson"><node id="-1" lat="30.253888" lon="-97.709705" changeset="false"><tag k="addr:street" v="East 3rd Street"/><tag k="addr:housenumber" v="3003"/><tag k="addr:postcode" v="78702"/></node><node id="-2" lat="30.25618" lon="-97.705333" changeset="false"><tag k="addr:street" v="Allen Street"/><tag k="addr:housenumber" v="604"/><tag k="addr:postcode" v="78702"/></node><node id="-3" lat="30.253631" lon="-97.709317" changeset="false"><tag k="addr:street" v="East 3rd Street"/><tag k="addr:housenumber" v="3009"/><tag k="addr:postcode" v="78702"/></node><node id="-4" lat="30.254412" lon="-97.705331" changeset="false"><tag k="addr:street" v="East 5th Street"/><tag k="addr:housenumber" v="3403"/><tag k="addr:postcode" v="78702"/></node><node id="-5" lat="30.260858" lon="-97.716177" changeset="false"><tag k="addr:street" v="Northwestern Avenue"/><tag k="addr:housenumber" v="624"/><tag k="addr:postcode" v="78702"/></node><node id="-6" lat="30.260521" lon="-97.71134" changeset="false"><tag k="addr:street" v="East 7th Street"/><tag k="addr:housenumber" v="2703 1/2"/><tag k="addr:postcode" v="78702"/></node><node id="-7" lat="30.259755" lon="-97.710717" changeset="false"><tag k="addr:street" v="East 7th Street"/><tag k="addr:housenumber" v="2719"/><tag k="addr:postcode" v="78702"/></node><node id="-8" lat="30.253016" lon="-97.709416" changeset="false"><tag k="addr:street" v="East 2nd Street"/><tag k="addr:housenumber" v="3010"/><tag k="addr:postcode" v="78702"/></node><node id="-9" lat="30.258596" lon="-97.710047" changeset="false"><tag k="addr:street" v="North Pleasant Valley Road"/><tag k="addr:housenumber" v="611"/><tag k="addr:postcode" v="78702"/></node><node id="-10" lat="30.252905" lon="-97.708702" changeset="false"><tag k="addr:street" v="Tillery Square"/><tag k="addr:housenumber" v="201"/><tag k="addr:postcode" v="78702"/></node><node id="-11" lat="30.256243" lon="-97.710533" changeset="false"><tag k="addr:street" v="East 5th Street"/><tag k="addr:housenumber" v="2813"/><tag k="addr:postcode" v="78702"/></node><node id="-12" lat="30.254871" lon="-97.707079" changeset="false"><tag k="addr:street" v="Tillery Street"/><tag k="addr:housenumber" v="417"/><tag k="addr:postcode" v="78702"/></node><node id="-13" lat="30.260442" lon="-97.714145" changeset="false"><tag k="addr:street" v="Pedernales Street"/><tag k="addr:housenumber" v="624"/><tag k="addr:postcode" v="78702"/></node><node id="-14" lat="30.254747" lon="-97.704775" changeset="false"><tag k="addr:street" v="East 5th Street"/><tag k="addr:housenumber" v="3408"/><tag k="addr:postcode" v="78702"/></node><node id="-15" lat="30.257269" lon="-97.705373" changeset="false"><tag k="addr:street" v="Holton Street"/><tag k="addr:housenumber" v="3207"/><tag k="addr:postcode" v="78702"/></node><node id="-16" lat="30.254139" lon="-97.702974" changeset="false"><tag k="addr:street" v="Springdale Road"/><tag k="addr:housenumber" v="502"/><tag k="addr:postcode" v="78702"/></node><node id="-17" lat="30.258406" lon="-97.712744" changeset="false"><tag k="addr:street" v="East 6th Street"/><tag k="addr:housenumber" v="2610"/><tag k="addr:postcode" v="78702"/></node><node id="-18" lat="30.254686" lon="-97.70717" changeset="false"><tag k="addr:street" v="Tillery Street"/><tag k="addr:housenumber" v="419"/><tag k="addr:postcode" v="78702"/></node><node id="-19" lat="30.261041" lon="-97.716539" changeset="false"><tag k="addr:street" v="East 7th Street"/><tag k="addr:housenumber" v="2307"/><tag k="addr:postcode" v="78702"/></node><node id="-20" lat="30.253094" lon="-97.708958" changeset="false"><tag k="addr:street" v="Tillery Square"/><tag k="addr:housenumber" v="204"/><tag k="addr:postcode" v="78702"/></node><node id="-21" lat="30.253677" lon="-97.709395" changeset="false"><tag k="addr:street" v="East 3rd Street"/><tag k="addr:housenumber" v="3007"/><tag k="addr:postcode" v="78702"/></node><node id="-22" lat="30.255518" lon="-97.710583" changeset="false"><tag k="addr:street" v="East 4th Street"/><tag k="addr:housenumber" v="2812"/><tag k="addr:postcode" v="78702"/></node><node id="-23" lat="30.25317" lon="-97.709858" changeset="false"><tag k="addr:street" v="East 2nd Street"/><tag k="addr:housenumber" v="3004"/><tag k="addr:postcode" v="78702"/></node><node id="-24" lat="30.251814" lon="-97.708486" changeset="false"><tag k="addr:street" v="East Cesar Chavez Street"/><tag k="addr:housenumber" v="3200"/><tag k="addr:postcode" v="78702"/></node><node id="-25" lat="30.260504" lon="-97.71222" changeset="false"><tag k="addr:street" v="East 7th Street"/><tag k="addr:housenumber" v="2613"/><tag k="addr:postcode" v="78702"/></node><node id="-26" lat="30.262289" lon="-97.722044" changeset="false"><tag k="addr:street" v="East 7th Street"/><tag k="addr:housenumber" v="1901"/><tag k="addr:postcode" v="78702"/></node><node id="-27" lat="30.262154" lon="-97.721543" changeset="false"><tag k="addr:street" v="East 7th Street"/><tag k="addr:housenumber" v="1917"/><tag k="addr:postcode" v="78702"/></node><node id="-28" lat="30.260072" lon="-97.714607" changeset="false"><tag k="addr:street" v="Pedernales Street"/><tag k="addr:housenumber" v="622"/><tag k="addr:postcode" v="78702"/></node><node id="-29" lat="30.253137" lon="-97.709705" changeset="false"><tag k="addr:street" v="East 2nd Street"/><tag k="addr:housenumber" v="3006"/><tag k="addr:postcode" v="78702"/></node><node id="-30" lat="30.259557" lon="-97.711371" changeset="false"><tag k="addr:street" v="East 7th Street"/><tag k="addr:housenumber" v="2701"/><tag k="addr:postcode" v="78702"/></node><node id="-31" lat="30.261498" lon="-97.718976" changeset="false"><tag k="addr:street" v="East 7th Street"/><tag k="addr:housenumber" v="2119"/><tag k="addr:postcode" v="78702"/></node><node id="-32" lat="30.260524" lon="-97.713739" changeset="false"><tag k="addr:street" v="East 7th Street"/><tag k="addr:housenumber" v="2501"/><tag k="addr:postcode" v="78702"/></node><node id="-33" lat="30.259827" lon="-97.718045" changeset="false"><tag k="addr:street" v="East 6th Street"/><tag k="addr:housenumber" v="2215"/><tag k="addr:postcode" v="78702"/></node><node id="-34" lat="30.255905" lon="-97.704954" changeset="false"><tag k="addr:street" v="Allen Street"/><tag k="addr:housenumber" v="605"/><tag k="addr:postcode" v="78702"/></node><node id="-35" lat="30.253573" lon="-97.705908" changeset="false"><tag k="addr:street" v="East 4th Street"/><tag k="addr:housenumber" v="3301"/><tag k="addr:postcode" v="78702"/></node><node id="-36" lat="30.261913" lon="-97.720603" changeset="false"><tag k="addr:street" v="East 7th Street"/><tag k="addr:housenumber" v="2007"/><tag k="addr:postcode" v="78702"/></node><node id="-37" lat="30.256907" lon="-97.706732" changeset="false"><tag k="addr:street" v="Tillery Street"/><tag k="addr:housenumber" v="618"/><tag k="addr:postcode" v="78702"/></node><node id="-38" lat="30.261179" lon="-97.717277" changeset="false"><tag k="addr:street" v="East 7th Street"/><tag k="addr:housenumber" v="2217"/><tag k="addr:postcode" v="78702"/></node><node id="-39" lat="30.254387" lon="-97.711225" changeset="false"><tag k="addr:street" v="East 3rd Street"/><tag k="addr:housenumber" v="2811"/><tag k="addr:postcode" v="78702"/></node><node id="-40" lat="30.259739" lon="-97.710649" changeset="false"><tag k="addr:street" v="East 7th Street"/><tag k="addr:housenumber" v="2727"/><tag k="addr:postcode" v="78702"/></node><node id="-41" lat="30.257632" lon="-97.704366" changeset="false"><tag k="addr:street" v="East 7th Street"/><tag k="addr:housenumber" v="3307"/><tag k="addr:postcode" v="78702"/></node><node id="-42" lat="30.255916" lon="-97.709505" changeset="false"><tag k="addr:street" v="East 5th Street"/><tag k="addr:housenumber" v="2911"/><tag k="addr:postcode" v="78702"/></node><node id="-43" lat="30.261367" lon="-97.72038" changeset="false"><tag k="addr:street" v="East 6th Street"/><tag k="addr:housenumber" v="2010"/><tag k="addr:postcode" v="78702"/></node><node id="-44" lat="30.256303" lon="-97.704775" changeset="false"><tag k="addr:street" v="Allen Street"/><tag k="addr:housenumber" v="611"/><tag k="addr:postcode" v="78702"/></node><node id="-45" lat="30.254763" lon="-97.705135" changeset="false"><tag k="addr:street" v="East 5th Street"/><tag k="addr:housenumber" v="3306"/><tag k="addr:postcode" v="78702"/></node><node id="-46" lat="30.261567" lon="-97.719472" changeset="false"><tag k="addr:street" v="East 7th Street"/><tag k="addr:housenumber" v="2025"/><tag k="addr:postcode" v="78702"/></node><node id="-47" lat="30.252999" lon="-97.703814" changeset="false"><tag k="addr:street" v="Springdale Road"/><tag k="addr:housenumber" v="308"/><tag k="addr:postcode" v="78702"/></node><node id="-48" lat="30.254514" lon="-97.707229" changeset="false"><tag k="addr:street" v="Tillery Street"/><tag k="addr:housenumber" v="421"/><tag k="addr:postcode" v="78702"/></node><node id="-49" lat="30.254296" lon="-97.70735" changeset="false"><tag k="addr:street" v="Tillery Street"/><tag k="addr:housenumber" v="423"/><tag k="addr:postcode" v="78702"/></node><node id="-50" lat="30.254853" lon="-97.705536" changeset="false"><tag k="addr:street" v="East 5th Street"/><tag k="addr:housenumber" v="3300"/><tag k="addr:postcode" v="78702"/></node><node id="-51" lat="30.258247" lon="-97.710201" changeset="false"><tag k="addr:street" v="North Pleasant Valley Road"/><tag k="addr:housenumber" v="601"/><tag k="addr:postcode" v="78702"/></node><node id="-52" lat="30.25809" lon="-97.715215" changeset="false"><tag k="addr:street" v="Pedernales Street"/><tag k="addr:housenumber" v="500"/><tag k="addr:postcode" v="78702"/></node><node id="-53" lat="30.259987" lon="-97.71209" changeset="false"><tag k="addr:street" v="Calles Street"/><tag k="addr:housenumber" v="642"/><tag k="addr:postcode" v="78702"/></node><node id="-54" lat="30.254333" lon="-97.710961" changeset="false"><tag k="addr:street" v="East 3rd Street"/><tag k="addr:housenumber" v="2901"/><tag k="addr:postcode" v="78702"/></node><node id="-55" lat="30.260421" lon="-97.711342" changeset="false"><tag k="addr:street" v="East 7th Street"/><tag k="addr:housenumber" v="2715"/><tag k="addr:postcode" v="78702"/></node><node id="-56" lat="30.25996" lon="-97.712079" changeset="false"><tag k="addr:street" v="Diaz Street"/><tag k="addr:housenumber" v="2612"/><tag k="addr:postcode" v="78702"/></node><node id="-57" lat="30.254286" lon="-97.703898" changeset="false"><tag k="addr:street" v="Vermont Road"/><tag k="addr:housenumber" v="504"/><tag k="addr:postcode" v="78702"/></node><node id="-58" lat="30.260451" lon="-97.711499" changeset="false"><tag k="addr:street" v="East 7th Street"/><tag k="addr:housenumber" v="2707"/><tag k="addr:postcode" v="78702"/></node><node id="-59" lat="30.259474" lon="-97.711998" changeset="false"><tag k="addr:street" v="Calles Street"/><tag k="addr:housenumber" v="621"/><tag k="addr:postcode" v="78702"/></node><node id="-60" lat="30.260751" lon="-97.71468" changeset="false"><tag k="addr:street" v="East 7th Street"/><tag k="addr:housenumber" v="2411"/><tag k="addr:postcode" v="78702"/></node><node id="-61" lat="30.252894" lon="-97.708855" changeset="false"><tag k="addr:street" v="Tillery Square"/><tag k="addr:housenumber" v="200"/><tag k="addr:postcode" v="78702"/></node><node id="-62" lat="30.258869" lon="-97.712277" changeset="false"><tag k="addr:street" v="Calles Street"/><tag k="addr:housenumber" v="615"/><tag k="addr:postcode" v="78702"/></node><node id="-63" lat="30.252164" lon="-97.706372" changeset="false"><tag k="addr:street" v="East Cesar Chavez Street"/><tag k="addr:housenumber" v="3306"/><tag k="addr:postcode" v="78702"/></node><node id="-64" lat="30.252198" lon="-97.709911" changeset="false"><tag k="addr:street" v="East Cesar Chavez Street"/><tag k="addr:housenumber" v="3020"/><tag k="addr:postcode" v="78702"/></node><node id="-65" lat="30.260283" lon="-97.713888" changeset="false"><tag k="addr:street" v="Diaz Street"/><tag k="addr:housenumber" v="2501"/><tag k="addr:postcode" v="78702"/></node><node id="-66" lat="30.259917" lon="-97.716737" changeset="false"><tag k="addr:street" v="East 6th Street"/><tag k="addr:housenumber" v="2308"/><tag k="addr:postcode" v="78702"/></node><node id="-67" lat="30.259242" lon="-97.714352" changeset="false"><tag k="addr:street" v="Pedernales Street"/><tag k="addr:housenumber" v="603"/><tag k="addr:postcode" v="78702"/></node><node id="-68" lat="30.258713" lon="-97.709993" changeset="false"><tag k="addr:street" v="North Pleasant Valley Road"/><tag k="addr:housenumber" v="617"/><tag k="addr:postcode" v="78702"/></node><node id="-69" lat="30.256835" lon="-97.703167" changeset="false"><tag k="addr:street" v="East 7th Street"/><tag k="addr:housenumber" v="3501"/><tag k="addr:postcode" v="78702"/></node><node id="-70" lat="30.261449" lon="-97.718749" changeset="false"><tag k="addr:street" v="East 7th Street"/><tag k="addr:housenumber" v="2125"/><tag k="addr:postcode" v="78702"/></node><node id="-71" lat="30.260459" lon="-97.711538" changeset="false"><tag k="addr:street" v="East 7th Street"/><tag k="addr:housenumber" v="2705"/><tag k="addr:postcode" v="78702"/></node><node id="-72" lat="30.253499" lon="-97.705892" changeset="false"><tag k="addr:street" v="East 4th Street"/><tag k="addr:housenumber" v="3303"/><tag k="addr:postcode" v="78702"/></node><node id="-73" lat="30.258526" lon="-97.713988" changeset="false"><tag k="addr:street" v="East 6th Street"/><tag k="addr:housenumber" v="2507"/><tag k="addr:postcode" v="78702"/></node><node id="-74" lat="30.256432" lon="-97.704724" changeset="false"><tag k="addr:street" v="Allen Street"/><tag k="addr:housenumber" v="613"/><tag k="addr:postcode" v="78702"/></node><node id="-75" lat="30.253396" lon="-97.712411" changeset="false"><tag k="addr:street" v="North Pleasant Valley Road"/><tag k="addr:housenumber" v="109"/><tag k="addr:postcode" v="78702"/></node><node id="-76" lat="30.255548" lon="-97.706732" changeset="false"><tag k="addr:street" v="Tillery Street"/><tag k="addr:housenumber" v="505"/><tag k="addr:postcode" v="78702"/></node><node id="-77" lat="30.259293" lon="-97.712386" changeset="false"><tag k="addr:street" v="Hidalgo Street"/><tag k="addr:housenumber" v="2612"/><tag k="addr:postcode" v="78702"/></node><node id="-78" lat="30.262208" lon="-97.72156" changeset="false"><tag k="addr:street" v="East 7th Street"/><tag k="addr:housenumber" v="1917 1/2"/><tag k="addr:postcode" v="78702"/></node><node id="-79" lat="30.254572" lon="-97.704446" changeset="false"><tag k="addr:street" v="East 5th Street"/><tag k="addr:housenumber" v="3406"/><tag k="addr:postcode" v="78702"/></node><node id="-80" lat="30.253049" lon="-97.710744" changeset="false"><tag k="addr:street" v="Linden Street"/><tag k="addr:housenumber" v="114"/><tag k="addr:postcode" v="78702"/></node><node id="-81" lat="30.261453" lon="-97.722251" changeset="false"><tag k="addr:street" v="East 6th Street"/><tag k="addr:housenumber" v="1909"/><tag k="addr:postcode" v="78702"/></node><node id="-82" lat="30.259347" lon="-97.717073" changeset="false"><tag k="addr:street" v="East 6th Street"/><tag k="addr:housenumber" v="2237 1/2"/><tag k="addr:postcode" v="78702"/></node><node id="-83" lat="30.260685" lon="-97.713194" changeset="false"><tag k="addr:street" v="East 7th Street"/><tag k="addr:housenumber" v="2511"/><tag k="addr:postcode" v="78702"/></node><node id="-84" lat="30.260528" lon="-97.712702" changeset="false"><tag k="addr:street" v="East 7th Street"/><tag k="addr:housenumber" v="2601"/><tag k="addr:postcode" v="78702"/></node><node id="-85" lat="30.257399" lon="-97.71235" changeset="false"><tag k="addr:street" v="East 5th Street"/><tag k="addr:housenumber" v="2700"/><tag k="addr:postcode" v="78702"/></node><node id="-86" lat="30.262034" lon="-97.721017" changeset="false"><tag k="addr:street" v="East 7th Street"/><tag k="addr:housenumber" v="1923"/><tag k="addr:postcode" v="78702"/></node><node id="-87" lat="30.253603" lon="-97.70628" changeset="false"><tag k="addr:street" v="Allen Street"/><tag k="addr:housenumber" v="316"/><tag k="addr:postcode" v="78702"/></node><node id="-88" lat="30.259096" lon="-97.714388" changeset="false"><tag k="addr:street" v="Pedernales Street"/><tag k="addr:housenumber" v="605"/><tag k="addr:postcode" v="78702"/></node><node id="-89" lat="30.254369" lon="-97.712055" changeset="false"><tag k="addr:street" v="North Pleasant Valley Road"/><tag k="addr:housenumber" v="207 1/2"/><tag k="addr:postcode" v="78702"/></node><node id="-90" lat="30.252984" lon="-97.708942" changeset="false"><tag k="addr:street" v="Tillery Square"/><tag k="addr:housenumber" v="202"/><tag k="addr:postcode" v="78702"/></node><node id="-91" lat="30.260444" lon="-97.71146" changeset="false"><tag k="addr:street" v="East 7th Street"/><tag k="addr:housenumber" v="2709"/><tag k="addr:postcode" v="78702"/></node><node id="-92" lat="30.260305" lon="-97.710755" changeset="false"><tag k="addr:street" v="East 7th Street"/><tag k="addr:housenumber" v="2745"/><tag k="addr:postcode" v="78702"/></node><node id="-93" lat="30.260502" lon="-97.715305" changeset="false"><tag k="addr:street" v="Hidalgo Street"/><tag k="addr:housenumber" v="2408"/><tag k="addr:postcode" v="78702"/></node><node id="-94" lat="30.253287" lon="-97.711019" changeset="false"><tag k="addr:street" v="East 2nd Street"/><tag k="addr:housenumber" v="2905"/><tag k="addr:postcode" v="78702"/></node><node id="-95" lat="30.259698" lon="-97.715706" changeset="false"><tag k="addr:street" v="East 6th Street"/><tag k="addr:housenumber" v="2400"/><tag k="addr:postcode" v="78702"/></node><node id="-96" lat="30.255037" lon="-97.703146" changeset="false"><tag k="addr:street" v="Vermont Road"/><tag k="addr:housenumber" v="513"/><tag k="addr:postcode" v="78702"/></node><node id="-97" lat="30.260129" lon="-97.713653" changeset="false"><tag k="addr:street" v="Diaz Street"/><tag k="addr:housenumber" v="2505"/><tag k="addr:postcode" v="78702"/></node><node id="-98" lat="30.253499" lon="-97.708963" changeset="false"><tag k="addr:street" v="East 3rd Street"/><tag k="addr:housenumber" v="3013"/><tag k="addr:postcode" v="78702"/></node><node id="-99" lat="30.253757" lon="-97.707237" changeset="false"><tag k="addr:street" v="Tillery Street"/><tag k="addr:housenumber" v="301"/><tag k="addr:postcode" v="78702"/></node><node id="-100" lat="30.260674" lon="-97.71313" changeset="false"><tag k="addr:street" v="East 7th Street"/><tag k="addr:housenumber" v="2513"/><tag k="addr:postcode" v="78702"/></node><node id="-101" lat="30.253954" lon="-97.708924" changeset="false"><tag k="addr:street" v="East 3rd Street"/><tag k="addr:housenumber" v="3010"/><tag k="addr:postcode" v="78702"/></node><node id="-102" lat="30.261004" lon="-97.722545" changeset="false"><tag k="addr:street" v="Chicon Street"/><tag k="addr:housenumber" v="501"/><tag k="addr:postcode" v="78702"/></node><node id="-103" lat="30.260805" lon="-97.714827" changeset="false"><tag k="addr:street" v="East 7th Street"/><tag k="addr:housenumber" v="2409"/><tag k="addr:postcode" v="78702"/></node><node id="-104" lat="30.260824" lon="-97.716673" changeset="false"><tag k="addr:street" v="Hidalgo Street"/><tag k="addr:housenumber" v="2306"/><tag k="addr:postcode" v="78702"/></node><node id="-105" lat="30.254855" lon="-97.711583" changeset="false"><tag k="addr:street" v="East 3rd Street"/><tag k="addr:housenumber" v="2802"/><tag k="addr:postcode" v="78702"/></node><node id="-106" lat="30.260859" lon="-97.719484" changeset="false"><tag k="addr:street" v="East 6th Street"/><tag k="addr:housenumber" v="2100"/><tag k="addr:postcode" v="78702"/></node><node id="-107" lat="30.260739" lon="-97.714544" changeset="false"><tag k="addr:street" v="East 7th Street"/><tag k="addr:housenumber" v="2413"/><tag k="addr:postcode" v="78702"/></node><node id="-108" lat="30.260473" lon="-97.712434" changeset="false"><tag k="addr:street" v="East 7th Street"/><tag k="addr:housenumber" v="2611"/><tag k="addr:postcode" v="78702"/></node><node id="-109" lat="30.261116" lon="-97.716837" changeset="false"><tag k="addr:street" v="East 7th Street"/><tag k="addr:housenumber" v="2301"/><tag k="addr:postcode" v="78702"/></node><node id="-110" lat="30.258091" lon="-97.705585" changeset="false"><tag k="addr:street" v="Tillery Street"/><tag k="addr:housenumber" v="651"/><tag k="addr:postcode" v="78702"/></node><node id="-111" lat="30.260233" lon="-97.712685" changeset="false"><tag k="addr:street" v="Diaz Street"/><tag k="addr:housenumber" v="2602"/><tag k="addr:postcode" v="78702"/></node><node id="-112" lat="30.260383" lon="-97.712181" changeset="false"><tag k="addr:street" v="East 7th Street"/><tag k="addr:housenumber" v="2617"/><tag k="addr:postcode" v="78702"/></node><node id="-113" lat="30.255123" lon="-97.711603" changeset="false"><tag k="addr:street" v="North Pleasant Valley Road"/><tag k="addr:housenumber" v="305"/><tag k="addr:postcode" v="78702"/></node><node id="-114" lat="30.256799" lon="-97.706153" changeset="false"><tag k="addr:street" v="Tillery Street"/><tag k="addr:housenumber" v="611"/><tag k="addr:postcode" v="78702"/></node><node id="-115" lat="30.255002" lon="-97.707014" changeset="false"><tag k="addr:street" v="Tillery Street"/><tag k="addr:housenumber" v="415"/><tag k="addr:postcode" v="78702"/></node><node id="-116" lat="30.253089" lon="-97.709556" changeset="false"><tag k="addr:street" v="East 2nd Street"/><tag k="addr:housenumber" v="3008"/><tag k="addr:postcode" v="78702"/></node><node id="-117" lat="30.253347" lon="-97.711199" changeset="false"><tag k="addr:street" v="East 2nd Street"/><tag k="addr:housenumber" v="2903"/><tag k="addr:postcode" v="78702"/></node><node id="-118" lat="30.259862" lon="-97.714044" changeset="false"><tag k="addr:street" v="Hidalgo Street"/><tag k="addr:housenumber" v="2500"/><tag k="addr:postcode" v="78702"/></node><node id="-119" lat="30.25618" lon="-97.70692" changeset="false"><tag k="addr:street" v="Tillery Street"/><tag k="addr:housenumber" v="506"/><tag k="addr:postcode" v="78702"/></node><node id="-120" lat="30.254376" lon="-97.703867" changeset="false"><tag k="addr:street" v="East 5th Street"/><tag k="addr:housenumber" v="3414"/><tag k="addr:postcode" v="78702"/></node><node id="-121" lat="30.254806" lon="-97.705397" changeset="false"><tag k="addr:street" v="East 5th Street"/><tag k="addr:housenumber" v="3304"/><tag k="addr:postcode" v="78702"/></node><node id="-122" lat="30.254342" lon="-97.705576" changeset="false"><tag k="addr:street" v="East 5th Street"/><tag k="addr:housenumber" v="3301"/><tag k="addr:postcode" v="78702"/></node><node id="-123" lat="30.260435" lon="-97.712302" changeset="false"><tag k="addr:street" v="East 7th Street"/><tag k="addr:housenumber" v="2609"/><tag k="addr:postcode" v="78702"/></node><node id="-124" lat="30.260093" lon="-97.712137" changeset="false"><tag k="addr:street" v="Diaz Street"/><tag k="addr:housenumber" v="2610"/><tag k="addr:postcode" v="78702"/></node><node id="-125" lat="30.255763" lon="-97.709559" changeset="false"><tag k="addr:street" v="East 5th Street"/><tag k="addr:housenumber" v="2909"/><tag k="addr:postcode" v="78702"/></node><node id="-126" lat="30.252254" lon="-97.705552" changeset="false"><tag k="addr:street" v="East Cesar Chavez Street"/><tag k="addr:housenumber" v="3404"/><tag k="addr:postcode" v="78702"/></node><node id="-127" lat="30.252282" lon="-97.705296" changeset="false"><tag k="addr:street" v="East Cesar Chavez Street"/><tag k="addr:housenumber" v="3410"/><tag k="addr:postcode" v="78702"/></node><node id="-128" lat="30.258975" lon="-97.710443" changeset="false"><tag k="addr:street" v="North Pleasant Valley Road"/><tag k="addr:housenumber" v="622"/><tag k="addr:postcode" v="78702"/></node><node id="-129" lat="30.259054" lon="-97.710419" changeset="false"><tag k="addr:street" v="North Pleasant Valley Road"/><tag k="addr:housenumber" v="624"/><tag k="addr:postcode" v="78702"/></node><node id="-130" lat="30.25965" lon="-97.710368" changeset="false"><tag k="addr:street" v="East 7th Street"/><tag k="addr:housenumber" v="2765"/><tag k="addr:postcode" v="78702"/></node><node id="-131" lat="30.259704" lon="-97.710535" changeset="false"><tag k="addr:street" v="East 7th Street"/><tag k="addr:housenumber" v="2735"/><tag k="addr:postcode" v="78702"/></node><node id="-132" lat="30.25959" lon="-97.710067" changeset="false"><tag k="addr:street" v="East 7th Street"/><tag k="addr:housenumber" v="2793"/><tag k="addr:postcode" v="78702"/></node><node id="-133" lat="30.259568" lon="-97.709921" changeset="false"><tag k="addr:street" v="East 7th Street"/><tag k="addr:housenumber" v="2795"/><tag k="addr:postcode" v="78702"/></node><node id="-134" lat="30.259629" lon="-97.710231" changeset="false"><tag k="addr:street" v="East 7th Street"/><tag k="addr:housenumber" v="2785"/><tag k="addr:postcode" v="78702"/></node><node id="-135" lat="30.26055" lon="-97.712841" changeset="false"><tag k="addr:street" v="East 7th Street"/><tag k="addr:housenumber" v="2523"/><tag k="addr:postcode" v="78702"/></node><node id="-136" lat="30.260564" lon="-97.712983" changeset="false"><tag k="addr:street" v="East 7th Street"/><tag k="addr:housenumber" v="2519"/><tag k="addr:postcode" v="78702"/></node><node id="-137" lat="30.260633" lon="-97.713374" changeset="false"><tag k="addr:street" v="East 7th Street"/><tag k="addr:housenumber" v="2503"/><tag k="addr:postcode" v="78702"/></node><node id="-138" lat="30.26063" lon="-97.713256" changeset="false"><tag k="addr:street" v="East 7th Street"/><tag k="addr:housenumber" v="2505"/><tag k="addr:postcode" v="78702"/></node><node id="-139" lat="30.258168" lon="-97.713117" changeset="false"><tag k="addr:street" v="East 6th Street"/><tag k="addr:housenumber" v="2617"/><tag k="addr:postcode" v="78702"/></node><node id="-140" lat="30.258174" lon="-97.712906" changeset="false"><tag k="addr:street" v="East 6th Street"/><tag k="addr:housenumber" v="2615"/><tag k="addr:postcode" v="78702"/></node><node id="-141" lat="30.260946" lon="-97.716054" changeset="false"><tag k="addr:street" v="East 7th Street"/><tag k="addr:housenumber" v="2321"/><tag k="addr:postcode" v="78702"/></node><node id="-142" lat="30.260885" lon="-97.715981" changeset="false"><tag k="addr:street" v="Northwestern Avenue"/><tag k="addr:housenumber" v="614"/><tag k="addr:postcode" v="78702"/></node><node id="-143" lat="30.260718" lon="-97.714208" changeset="false"><tag k="addr:street" v="East 7th Street"/><tag k="addr:housenumber" v="2425"/><tag k="addr:postcode" v="78702"/></node><node id="-144" lat="30.260758" lon="-97.714309" changeset="false"><tag k="addr:street" v="East 7th Street"/><tag k="addr:housenumber" v="2421"/><tag k="addr:postcode" v="78702"/></node><node id="-145" lat="30.25861" lon="-97.714223" changeset="false"><tag k="addr:street" v="East 6th Street"/><tag k="addr:housenumber" v="2505"/><tag k="addr:postcode" v="78702"/></node><node id="-146" lat="30.258684" lon="-97.714409" changeset="false"><tag k="addr:street" v="East 6th Street"/><tag k="addr:housenumber" v="2503"/><tag k="addr:postcode" v="78702"/></node><node id="-147" lat="30.261613" lon="-97.719628" changeset="false"><tag k="addr:street" v="East 7th Street"/><tag k="addr:housenumber" v="2015"/><tag k="addr:postcode" v="78702"/></node><node id="-148" lat="30.261624" lon="-97.71976" changeset="false"><tag k="addr:street" v="East 7th Street"/><tag k="addr:housenumber" v="2009"/><tag k="addr:postcode" v="78702"/></node><node id="-149" lat="30.260483" lon="-97.716821" changeset="false"><tag k="addr:street" v="Hidalgo Street"/><tag k="addr:housenumber" v="2301"/><tag k="addr:postcode" v="78702"/></node><node id="-150" lat="30.260508" lon="-97.717104" changeset="false"><tag k="addr:street" v="Hidalgo Street"/><tag k="addr:housenumber" v="2221"/><tag k="addr:postcode" v="78702"/></node><node id="-151" lat="30.260572" lon="-97.718813" changeset="false"><tag k="addr:street" v="East 6th Street"/><tag k="addr:housenumber" v="2124 1/2"/><tag k="addr:postcode" v="78702"/></node><node id="-152" lat="30.260732" lon="-97.718827" changeset="false"><tag k="addr:street" v="East 6th Street"/><tag k="addr:housenumber" v="2124"/><tag k="addr:postcode" v="78702"/></node><node id="-153" lat="30.260686" lon="-97.720467" changeset="false"><tag k="addr:street" v="East 6th Street"/><tag k="addr:housenumber" v="2011 1/2"/><tag k="addr:postcode" v="78702"/></node><node id="-154" lat="30.260682" lon="-97.72055" changeset="false"><tag k="addr:street" v="East 6th Street"/><tag k="addr:housenumber" v="2011"/><tag k="addr:postcode" v="78702"/></node><node id="-155" lat="30.259609" lon="-97.717628" changeset="false"><tag k="addr:street" v="East 6th Street"/><tag k="addr:housenumber" v="2235"/><tag k="addr:postcode" v="78702"/></node><node id="-156" lat="30.259527" lon="-97.717521" changeset="false"><tag k="addr:street" v="East 6th Street"/><tag k="addr:housenumber" v="2235 1/2"/><tag k="addr:postcode" v="78702"/></node><node id="-157" lat="30.254554" lon="-97.707057" changeset="false"><tag k="addr:street" v="Tillery Street"/><tag k="addr:housenumber" v="409"/><tag k="addr:postcode" v="78702"/></node><node id="-158" lat="30.254385" lon="-97.707123" changeset="false"><tag k="addr:street" v="Tillery Street"/><tag k="addr:housenumber" v="407"/><tag k="addr:postcode" v="78702"/></node><node id="-159" lat="30.254855" lon="-97.706969" changeset="false"><tag k="addr:street" v="Tillery Street"/><tag k="addr:housenumber" v="425"/><tag k="addr:postcode" v="78702"/></node><node id="-160" lat="30.254639" lon="-97.707024" changeset="false"><tag k="addr:street" v="Tillery Street"/><tag k="addr:housenumber" v="411"/><tag k="addr:postcode" v="78702"/></node><node id="-161" lat="30.254784" lon="-97.706977" changeset="false"><tag k="addr:street" v="Tillery Street"/><tag k="addr:housenumber" v="413"/><tag k="addr:postcode" v="78702"/></node><node id="-162" lat="30.252167" lon="-97.707758" changeset="false"><tag k="addr:street" v="East Cesar Chavez Street"/><tag k="addr:housenumber" v="3224"/><tag k="addr:postcode" v="78702"/></node><node id="-163" lat="30.251987" lon="-97.70794" changeset="false"><tag k="addr:street" v="East Cesar Chavez Street"/><tag k="addr:housenumber" v="3212"/><tag k="addr:postcode" v="78702"/></node><node id="-164" lat="30.253616" lon="-97.710388" changeset="false"><tag k="addr:street" v="Linden Street"/><tag k="addr:housenumber" v="202"/><tag k="addr:postcode" v="78702"/></node><node id="-165" lat="30.253564" lon="-97.710397" changeset="false"><tag k="addr:street" v="East 2nd Street"/><tag k="addr:housenumber" v="2910"/><tag k="addr:postcode" v="78702"/></node><node id="-166" lat="30.256251" lon="-97.710792" changeset="false"><tag k="addr:street" v="East 5th Street"/><tag k="addr:housenumber" v="2803"/><tag k="addr:postcode" v="78702"/></node><node id="-167" lat="30.256215" lon="-97.710654" changeset="false"><tag k="addr:street" v="East 5th Street"/><tag k="addr:housenumber" v="2811"/><tag k="addr:postcode" v="78702"/></node></osm>