<?xml version="1.0" encoding="UTF-8"?><osm version="0.6" generator="github.com/aaronlidman/osm-and-geojson"><node id="-1" lat="30.256386" lon="-97.702773" changeset="false"><tag k="addr:street" v="East 7th Street"/><tag k="addr:housenumber" v="3511"/><tag k="addr:postcode" v="78702"/></node><node id="-2" lat="30.256525" lon="-97.703102" changeset="false"><tag k="addr:street" v="Gunter Street"/><tag k="addr:housenumber" v="631"/><tag k="addr:postcode" v="78702"/></node><node id="-3" lat="30.255641" lon="-97.702706" changeset="false"><tag k="addr:street" v="Vermont Road"/><tag k="addr:housenumber" v="609"/><tag k="addr:postcode" v="78702"/></node><node id="-4" lat="30.255862" lon="-97.702147" changeset="false"><tag k="addr:street" v="East 7th Street"/><tag k="addr:housenumber" v="3535"/><tag k="addr:postcode" v="78702"/></node><node id="-5" lat="30.25558" lon="-97.702245" changeset="false"><tag k="addr:street" v="Springdale Road"/><tag k="addr:housenumber" v="610"/><tag k="addr:postcode" v="78702"/></node><node id="-6" lat="30.255793" lon="-97.702829" changeset="false"><tag k="addr:street" v="Vermont Road"/><tag k="addr:housenumber" v="611"/><tag k="addr:postcode" v="78702"/></node><node id="-7" lat="30.256093" lon="-97.702419" changeset="false"><tag k="addr:street" v="East 7th Street"/><tag k="addr:housenumber" v="3525"/><tag k="addr:postcode" v="78702"/></node><node id="-8" lat="30.256228" lon="-97.703243" changeset="false"><tag k="addr:street" v="Gunter Street"/><tag k="addr:housenumber" v="621"/><tag k="addr:postcode" v="78702"/></node><node id="-9" lat="30.254858" lon="-97.702688" changeset="false"><tag k="addr:street" v="Springdale Road"/><tag k="addr:housenumber" v="512"/><tag k="addr:postcode" v="78702"/></node><node id="-10" lat="30.254988" lon="-97.7026" changeset="false"><tag k="addr:street" v="Springdale Road"/><tag k="addr:housenumber" v="600"/><tag k="addr:postcode" v="78702"/></node><node id="-11" lat="30.255427" lon="-97.702987" changeset="false"><tag k="addr:street" v="Vermont Road"/><tag k="addr:housenumber" v="605"/><tag k="addr:postcode" v="78702"/></node><node id="-12" lat="30.255243" lon="-97.70245" changeset="false"><tag k="addr:street" v="Springdale Road"/><tag k="addr:housenumber" v="604"/><tag k="addr:postcode" v="78702"/></node><node id="-13" lat="30.255286" lon="-97.703024" changeset="false"><tag k="addr:street" v="Vermont Road"/><tag k="addr:housenumber" v="603"/><tag k="addr:postcode" v="78702"/></node><node id="-14" lat="30.255372" lon="-97.702392" changeset="false"><tag k="addr:street" v="Springdale Road"/><tag k="addr:housenumber" v="606"/><tag k="addr:postcode" v="78702"/></node><node id="-15" lat="30.255113" lon="-97.702514" changeset="false"><tag k="addr:street" v="Springdale Road"/><tag k="addr:housenumber" v="602"/><tag k="addr:postcode" v="78702"/></node><node id="-16" lat="30.255485" lon="-97.702308" changeset="false"><tag k="addr:street" v="Springdale Road"/><tag k="addr:housenumber" v="608"/><tag k="addr:postcode" v="78702"/></node><node id="-17" lat="30.255528" lon="-97.702935" changeset="false"><tag k="addr:street" v="Vermont Road"/><tag k="addr:housenumber" v="607"/><tag k="addr:postcode" v="78702"/></node><node id="-18" lat="30.254314" lon="-97.702986" changeset="false"><tag k="addr:street" v="Springdale Road"/><tag k="addr:housenumber" v="504"/><tag k="addr:postcode" v="78702"/></node><node id="-19" lat="30.254491" lon="-97.702899" changeset="false"><tag k="addr:street" v="Springdale Road"/><tag k="addr:housenumber" v="506"/><tag k="addr:postcode" v="78702"/></node><node id="-20" lat="30.254629" lon="-97.702811" changeset="false"><tag k="addr:street" v="Springdale Road"/><tag k="addr:housenumber" v="508"/><tag k="addr:postcode" v="78702"/></node><node id="-21" lat="30.254645" lon="-97.703311" changeset="false"><tag k="addr:street" v="Vermont Road"/><tag k="addr:housenumber" v="507"/><tag k="addr:postcode" v="78702"/></node><node id="-22" lat="30.254757" lon="-97.702732" changeset="false"><tag k="addr:street" v="Springdale Road"/><tag k="addr:housenumber" v="510"/><tag k="addr:postcode" v="78702"/></node><node id="-23" lat="30.254757" lon="-97.703263" changeset="false"><tag k="addr:street" v="Vermont Road"/><tag k="addr:housenumber" v="509"/><tag k="addr:postcode" v="78702"/></node><node id="-24" lat="30.254857" lon="-97.703038" changeset="false"><tag k="addr:street" v="Vermont Road"/><tag k="addr:housenumber" v="511"/><tag k="addr:postcode" v="78702"/></node><node id="-25" lat="30.256393" lon="-97.703615" changeset="false"><tag k="addr:street" v="Gunter Street"/><tag k="addr:housenumber" v="610"/><tag k="addr:postcode" v="78702"/></node><node id="-26" lat="30.256493" lon="-97.703591" changeset="false"><tag k="addr:street" v="Gunter Street"/><tag k="addr:housenumber" v="620"/><tag k="addr:postcode" v="78702"/></node><node id="-27" lat="30.256676" lon="-97.703471" changeset="false"><tag k="addr:street" v="Gunter Street"/><tag k="addr:housenumber" v="622"/><tag k="addr:postcode" v="78702"/></node><node id="-28" lat="30.256733" lon="-97.704666" changeset="false"><tag k="addr:street" v="Allen Street"/><tag k="addr:housenumber" v="621"/><tag k="addr:postcode" v="78702"/></node><node id="-29" lat="30.257325" lon="-97.704435" changeset="false"><tag k="addr:street" v="Allen Street"/><tag k="addr:housenumber" v="641"/><tag k="addr:postcode" v="78702"/></node><node id="-30" lat="30.257034" lon="-97.703653" changeset="false"><tag k="addr:street" v="East 7th Street"/><tag k="addr:housenumber" v="3407"/><tag k="addr:postcode" v="78702"/></node><node id="-31" lat="30.256853" lon="-97.703438" changeset="false"><tag k="addr:street" v="East 7th Street"/><tag k="addr:housenumber" v="3415"/><tag k="addr:postcode" v="78702"/></node><node id="-32" lat="30.257145" lon="-97.703829" changeset="false"><tag k="addr:street" v="East 7th Street"/><tag k="addr:housenumber" v="3401"/><tag k="addr:postcode" v="78702"/></node><node id="-33" lat="30.257387" lon="-97.704232" changeset="false"><tag k="addr:street" v="East 7th Street"/><tag k="addr:housenumber" v="3301"/><tag k="addr:postcode" v="78702"/></node><node id="-34" lat="30.257025" lon="-97.704556" changeset="false"><tag k="addr:street" v="Allen Street"/><tag k="addr:housenumber" v="627"/><tag k="addr:postcode" v="78702"/></node><node id="-35" lat="30.256139" lon="-97.703999" changeset="false"><tag k="addr:street" v="Hidalgo Street"/><tag k="addr:housenumber" v="3411"/><tag k="addr:postcode" v="78702"/></node><node id="-36" lat="30.255794" lon="-97.703433" changeset="false"><tag k="addr:street" v="Vermont Road"/><tag k="addr:housenumber" v="610"/><tag k="addr:postcode" v="78702"/></node><node id="-37" lat="30.255402" lon="-97.703462" changeset="false"><tag k="addr:street" v="Vermont Road"/><tag k="addr:housenumber" v="604"/><tag k="addr:postcode" v="78702"/></node><node id="-38" lat="30.25632" lon="-97.704416" changeset="false"><tag k="addr:street" v="Hidalgo Street"/><tag k="addr:housenumber" v="3305"/><tag k="addr:postcode" v="78702"/></node><node id="-39" lat="30.254484" lon="-97.703382" changeset="false"><tag k="addr:street" v="Vermont Road"/><tag k="addr:housenumber" v="505"/><tag k="addr:postcode" v="78702"/></node><node id="-40" lat="30.254807" lon="-97.703819" changeset="false"><tag k="addr:street" v="Vermont Road"/><tag k="addr:housenumber" v="506"/><tag k="addr:postcode" v="78702"/></node><node id="-41" lat="30.254919" lon="-97.703655" changeset="false"><tag k="addr:street" v="Vermont Road"/><tag k="addr:housenumber" v="508"/><tag k="addr:postcode" v="78702"/></node><node id="-42" lat="30.25527" lon="-97.703494" changeset="false"><tag k="addr:street" v="Vermont Road"/><tag k="addr:housenumber" v="602"/><tag k="addr:postcode" v="78702"/></node><node id="-43" lat="30.255099" lon="-97.703574" changeset="false"><tag k="addr:street" v="Vermont Road"/><tag k="addr:housenumber" v="600"/><tag k="addr:postcode" v="78702"/></node><node id="-44" lat="30.25353" lon="-97.704319" changeset="false"><tag k="addr:street" v="East 4th Street"/><tag k="addr:housenumber" v="3504"/><tag k="addr:postcode" v="78702"/></node><node id="-45" lat="30.252708" lon="-97.704226" changeset="false"><tag k="addr:street" v="Springdale Road"/><tag k="addr:housenumber" v="102"/><tag k="addr:postcode" v="78702"/></node><node id="-46" lat="30.252265" lon="-97.70433" changeset="false"><tag k="addr:street" v="East Cesar Chavez Street"/><tag k="addr:housenumber" v="3520"/><tag k="addr:postcode" v="78702"/></node><node id="-47" lat="30.253734" lon="-97.703729" changeset="false"><tag k="addr:street" v="East 5th Street"/><tag k="addr:housenumber" v="3519"/><tag k="addr:postcode" v="78702"/></node><node id="-48" lat="30.253828" lon="-97.70413" changeset="false"><tag k="addr:street" v="East 5th Street"/><tag k="addr:housenumber" v="3505"/><tag k="addr:postcode" v="78702"/></node><node id="-49" lat="30.254046" lon="-97.704534" changeset="false"><tag k="addr:street" v="East 5th Street"/><tag k="addr:housenumber" v="3415"/><tag k="addr:postcode" v="78702"/></node><node id="-50" lat="30.254105" lon="-97.704734" changeset="false"><tag k="addr:street" v="East 5th Street"/><tag k="addr:housenumber" v="3411"/><tag k="addr:postcode" v="78702"/></node><node id="-51" lat="30.254271" lon="-97.703586" changeset="false"><tag k="addr:street" v="East 5th Street"/><tag k="addr:housenumber" v="3500"/><tag k="addr:postcode" v="78702"/></node><node id="-52" lat="30.254428" lon="-97.704013" changeset="false"><tag k="addr:street" v="East 5th Street"/><tag k="addr:housenumber" v="3412"/><tag k="addr:postcode" v="78702"/></node><node id="-53" lat="30.254484" lon="-97.704196" changeset="false"><tag k="addr:street" v="East 5th Street"/><tag k="addr:housenumber" v="3410"/><tag k="addr:postcode" v="78702"/></node><node id="-54" lat="30.257187" lon="-97.705217" changeset="false"><tag k="addr:street" v="Holton Street"/><tag k="addr:housenumber" v="3211"/><tag k="addr:postcode" v="78702"/></node><node id="-55" lat="30.257706" lon="-97.704927" changeset="false"><tag k="addr:street" v="East 7th Street"/><tag k="addr:housenumber" v="3223"/><tag k="addr:postcode" v="78702"/></node><node id="-56" lat="30.257727" lon="-97.705416" changeset="false"><tag k="addr:street" v="Holton Street"/><tag k="addr:housenumber" v="3210"/><tag k="addr:postcode" v="78702"/></node><node id="-57" lat="30.257927" lon="-97.705501" changeset="false"><tag k="addr:street" v="Tillery Street"/><tag k="addr:housenumber" v="645"/><tag k="addr:postcode" v="78702"/></node><node id="-58" lat="30.257109" lon="-97.704923" changeset="false"><tag k="addr:street" v="Allen Street"/><tag k="addr:housenumber" v="626"/><tag k="addr:postcode" v="78702"/></node><node id="-59" lat="30.25741" lon="-97.704804" changeset="false"><tag k="addr:street" v="Allen Street"/><tag k="addr:housenumber" v="640"/><tag k="addr:postcode" v="78702"/></node><node id="-60" lat="30.256534" lon="-97.705145" changeset="false"><tag k="addr:street" v="Allen Street"/><tag k="addr:housenumber" v="608"/><tag k="addr:postcode" v="78702"/></node><node id="-61" lat="30.25596" lon="-97.705411" changeset="false"><tag k="addr:street" v="Allen Street"/><tag k="addr:housenumber" v="602"/><tag k="addr:postcode" v="78702"/></node><node id="-62" lat="30.256172" lon="-97.704823" changeset="false"><tag k="addr:street" v="Allen Street"/><tag k="addr:housenumber" v="609"/><tag k="addr:postcode" v="78702"/></node><node id="-63" lat="30.256356" lon="-97.705206" changeset="false"><tag k="addr:street" v="Allen Street"/><tag k="addr:housenumber" v="606"/><tag k="addr:postcode" v="78702"/></node><node id="-64" lat="30.256755" lon="-97.705078" changeset="false"><tag k="addr:street" v="Allen Street"/><tag k="addr:housenumber" v="610"/><tag k="addr:postcode" v="78702"/></node><node id="-65" lat="30.257008" lon="-97.704918" changeset="false"><tag k="addr:street" v="Allen Street"/><tag k="addr:housenumber" v="628"/><tag k="addr:postcode" v="78702"/></node><node id="-66" lat="30.255236" lon="-97.705301" changeset="false"><tag k="addr:street" v="Allen Street"/><tag k="addr:housenumber" v="507"/><tag k="addr:postcode" v="78702"/></node><node id="-67" lat="30.255405" lon="-97.705217" changeset="false"><tag k="addr:street" v="Allen Street"/><tag k="addr:housenumber" v="509"/><tag k="addr:postcode" v="78702"/></node><node id="-68" lat="30.2555" lon="-97.705578" changeset="false"><tag k="addr:street" v="Allen Street"/><tag k="addr:housenumber" v="508"/><tag k="addr:postcode" v="78702"/></node><node id="-69" lat="30.255547" lon="-97.705173" changeset="false"><tag k="addr:street" v="Allen Street"/><tag k="addr:housenumber" v="511"/><tag k="addr:postcode" v="78702"/></node><node id="-70" lat="30.255647" lon="-97.705116" changeset="false"><tag k="addr:street" v="Allen Street"/><tag k="addr:housenumber" v="601"/><tag k="addr:postcode" v="78702"/></node><node id="-71" lat="30.255681" lon="-97.705547" changeset="false"><tag k="addr:street" v="Allen Street"/><tag k="addr:housenumber" v="510"/><tag k="addr:postcode" v="78702"/></node><node id="-72" lat="30.255792" lon="-97.705052" changeset="false"><tag k="addr:street" v="Allen Street"/><tag k="addr:housenumber" v="603"/><tag k="addr:postcode" v="78702"/></node><node id="-73" lat="30.255839" lon="-97.705472" changeset="false"><tag k="addr:street" v="Allen Street"/><tag k="addr:housenumber" v="600"/><tag k="addr:postcode" v="78702"/></node><node id="-74" lat="30.253433" lon="-97.705487" changeset="false"><tag k="addr:street" v="East 4th Street"/><tag k="addr:housenumber" v="3401"/><tag k="addr:postcode" v="78702"/></node><node id="-75" lat="30.253068" lon="-97.704809" changeset="false"><tag k="addr:street" v="East 4th Street"/><tag k="addr:housenumber" v="3411"/><tag k="addr:postcode" v="78702"/></node><node id="-76" lat="30.253636" lon="-97.704645" changeset="false"><tag k="addr:street" v="East 4th Street"/><tag k="addr:housenumber" v="3412"/><tag k="addr:postcode" v="78702"/></node><node id="-77" lat="30.252376" lon="-97.704769" changeset="false"><tag k="addr:street" v="East Cesar Chavez Street"/><tag k="addr:housenumber" v="3508"/><tag k="addr:postcode" v="78702"/></node><node id="-78" lat="30.254239" lon="-97.705087" changeset="false"><tag k="addr:street" v="East 5th Street"/><tag k="addr:housenumber" v="3407"/><tag k="addr:postcode" v="78702"/></node><node id="-79" lat="30.254168" lon="-97.704874" changeset="false"><tag k="addr:street" v="East 5th Street"/><tag k="addr:housenumber" v="3409"/><tag k="addr:postcode" v="78702"/></node><node id="-80" lat="30.25507" lon="-97.705411" changeset="false"><tag k="addr:street" v="Allen Street"/><tag k="addr:housenumber" v="503"/><tag k="addr:postcode" v="78702"/></node><node id="-81" lat="30.256893" lon="-97.706023" changeset="false"><tag k="addr:street" v="Tillery Street"/><tag k="addr:housenumber" v="613"/><tag k="addr:postcode" v="78702"/></node><node id="-82" lat="30.257875" lon="-97.706118" changeset="false"><tag k="addr:street" v="Tillery Street"/><tag k="addr:housenumber" v="640"/><tag k="addr:postcode" v="78702"/></node><node id="-83" lat="30.25745" lon="-97.706391" changeset="false"><tag k="addr:street" v="Tillery Street"/><tag k="addr:housenumber" v="638"/><tag k="addr:postcode" v="78702"/></node><node id="-84" lat="30.257421" lon="-97.705908" changeset="false"><tag k="addr:street" v="Holton Street"/><tag k="addr:housenumber" v="3201"/><tag k="addr:postcode" v="78702"/></node><node id="-85" lat="30.257979" lon="-97.706422" changeset="false"><tag k="addr:street" v="Holton Street"/><tag k="addr:housenumber" v="3108"/><tag k="addr:postcode" v="78702"/></node><node id="-86" lat="30.25803" lon="-97.706081" changeset="false"><tag k="addr:street" v="Tillery Street"/><tag k="addr:housenumber" v="642"/><tag k="addr:postcode" v="78702"/></node><node id="-87" lat="30.256085" lon="-97.706479" changeset="false"><tag k="addr:street" v="Tillery Street"/><tag k="addr:housenumber" v="601"/><tag k="addr:postcode" v="78702"/></node><node id="-88" lat="30.256205" lon="-97.70642" changeset="false"><tag k="addr:street" v="Tillery Street"/><tag k="addr:housenumber" v="603"/><tag k="addr:postcode" v="78702"/></node><node id="-89" lat="30.256347" lon="-97.70635" changeset="false"><tag k="addr:street" v="Tillery Street"/><tag k="addr:housenumber" v="605"/><tag k="addr:postcode" v="78702"/></node><node id="-90" lat="30.256491" lon="-97.706304" changeset="false"><tag k="addr:street" v="Tillery Street"/><tag k="addr:housenumber" v="607"/><tag k="addr:postcode" v="78702"/></node><node id="-91" lat="30.256644" lon="-97.706244" changeset="false"><tag k="addr:street" v="Tillery Street"/><tag k="addr:housenumber" v="609"/><tag k="addr:postcode" v="78702"/></node><node id="-92" lat="30.255191" lon="-97.70619" changeset="false"><tag k="addr:street" v="East 5th Street"/><tag k="addr:housenumber" v="3222"/><tag k="addr:postcode" v="78702"/></node><node id="-93" lat="30.255345" lon="-97.70564" changeset="false"><tag k="addr:street" v="Allen Street"/><tag k="addr:housenumber" v="506"/><tag k="addr:postcode" v="78702"/></node><node id="-94" lat="30.255407" lon="-97.706492" changeset="false"><tag k="addr:street" v="East 5th Street"/><tag k="addr:housenumber" v="3206"/><tag k="addr:postcode" v="78702"/></node><node id="-95" lat="30.255936" lon="-97.70657" changeset="false"><tag k="addr:street" v="Tillery Street"/><tag k="addr:housenumber" v="517"/><tag k="addr:postcode" v="78702"/></node><node id="-96" lat="30.255816" lon="-97.706618" changeset="false"><tag k="addr:street" v="Tillery Street"/><tag k="addr:housenumber" v="507"/><tag k="addr:postcode" v="78702"/></node><node id="-97" lat="30.252202" lon="-97.705915" changeset="false"><tag k="addr:street" v="East Cesar Chavez Street"/><tag k="addr:housenumber" v="3400"/><tag k="addr:postcode" v="78702"/></node><node id="-98" lat="30.253521" lon="-97.706317" changeset="false"><tag k="addr:street" v="Allen Street"/><tag k="addr:housenumber" v="312"/><tag k="addr:postcode" v="78702"/></node><node id="-99" lat="30.253361" lon="-97.70641" changeset="false"><tag k="addr:street" v="Allen Street"/><tag k="addr:housenumber" v="308"/><tag k="addr:postcode" v="78702"/></node><node id="-100" lat="30.2551" lon="-97.705801" changeset="false"><tag k="addr:street" v="East 5th Street"/><tag k="addr:housenumber" v="3228"/><tag k="addr:postcode" v="78702"/></node><node id="-101" lat="30.260371" lon="-97.712018" changeset="false"><tag k="addr:street" v="East 7th Street"/><tag k="addr:housenumber" v="2621"/><tag k="addr:postcode" v="78702"/></node><node id="-102" lat="30.259081" lon="-97.708898" changeset="false"><tag k="addr:street" v="North Pleasant Valley Road"/><tag k="addr:housenumber" v="651"/><tag k="addr:postcode" v="78702"/></node><node id="-103" lat="30.259688" lon="-97.712361" changeset="false"><tag k="addr:street" v="Diaz Street"/><tag k="addr:housenumber" v="2611"/><tag k="addr:postcode" v="78702"/></node><node id="-104" lat="30.259638" lon="-97.712213" changeset="false"><tag k="addr:street" v="Diaz Street"/><tag k="addr:housenumber" v="2613"/><tag k="addr:postcode" v="78702"/></node><node id="-105" lat="30.259737" lon="-97.712469" changeset="false"><tag k="addr:street" v="Diaz Street"/><tag k="addr:housenumber" v="2609"/><tag k="addr:postcode" v="78702"/></node><node id="-106" lat="30.260099" lon="-97.712453" changeset="false"><tag k="addr:street" v="Diaz Street"/><tag k="addr:housenumber" v="2606"/><tag k="addr:postcode" v="78702"/></node><node id="-107" lat="30.260061" lon="-97.712334" changeset="false"><tag k="addr:street" v="Diaz Street"/><tag k="addr:housenumber" v="2608"/><tag k="addr:postcode" v="78702"/></node><node id="-108" lat="30.257845" lon="-97.706993" changeset="false"><tag k="addr:street" v="Holton Street"/><tag k="addr:housenumber" v="3103"/><tag k="addr:postcode" v="78702"/></node><node id="-109" lat="30.258184" lon="-97.712351" changeset="false"><tag k="addr:street" v="Calles Street"/><tag k="addr:housenumber" v="507"/><tag k="addr:postcode" v="78702"/></node><node id="-110" lat="30.258449" lon="-97.709932" changeset="false"><tag k="addr:street" v="North Pleasant Valley Road"/><tag k="addr:housenumber" v="621"/><tag k="addr:postcode" v="78702"/></node><node id="-111" lat="30.259036" lon="-97.709414" changeset="false"><tag k="addr:street" v="North Pleasant Valley Road"/><tag k="addr:housenumber" v="635"/><tag k="addr:postcode" v="78702"/></node><node id="-112" lat="30.257448" lon="-97.710056" changeset="false"><tag k="addr:street" v="North Pleasant Valley Road"/><tag k="addr:housenumber" v="505"/><tag k="addr:postcode" v="78702"/></node><node id="-113" lat="30.257256" lon="-97.711784" changeset="false"><tag k="addr:street" v="East 5th Street"/><tag k="addr:housenumber" v="2716"/><tag k="addr:postcode" v="78702"/></node><node id="-114" lat="30.260143" lon="-97.712588" changeset="false"><tag k="addr:street" v="Diaz Street"/><tag k="addr:housenumber" v="2604"/><tag k="addr:postcode" v="78702"/></node><node id="-115" lat="30.260231" lon="-97.712836" changeset="false"><tag k="addr:street" v="Diaz Street"/><tag k="addr:housenumber" v="2600"/><tag k="addr:postcode" v="78702"/></node><node id="-116" lat="30.260275" lon="-97.712982" changeset="false"><tag k="addr:street" v="Diaz Street"/><tag k="addr:housenumber" v="2512"/><tag k="addr:postcode" v="78702"/></node><node id="-117" lat="30.260437" lon="-97.71348" changeset="false"><tag k="addr:street" v="Diaz Street"/><tag k="addr:housenumber" v="2504"/><tag k="addr:postcode" v="78702"/></node><node id="-118" lat="30.260313" lon="-97.713104" changeset="false"><tag k="addr:street" v="Diaz Street"/><tag k="addr:housenumber" v="2510"/><tag k="addr:postcode" v="78702"/></node><node id="-119" lat="30.26036" lon="-97.713236" changeset="false"><tag k="addr:street" v="Diaz Street"/><tag k="addr:housenumber" v="2508"/><tag k="addr:postcode" v="78702"/></node><node id="-120" lat="30.260395" lon="-97.713351" changeset="false"><tag k="addr:street" v="Diaz Street"/><tag k="addr:housenumber" v="2506"/><tag k="addr:postcode" v="78702"/></node><node id="-121" lat="30.260511" lon="-97.712565" changeset="false"><tag k="addr:street" v="East 7th Street"/><tag k="addr:housenumber" v="2605"/><tag k="addr:postcode" v="78702"/></node><node id="-122" lat="30.260598" lon="-97.713153" changeset="false"><tag k="addr:street" v="East 7th Street"/><tag k="addr:housenumber" v="2517"/><tag k="addr:postcode" v="78702"/></node><node id="-123" lat="30.259684" lon="-97.713543" changeset="false"><tag k="addr:street" v="Hidalgo Street"/><tag k="addr:housenumber" v="2508"/><tag k="addr:postcode" v="78702"/></node><node id="-124" lat="30.259918" lon="-97.71299" changeset="false"><tag k="addr:street" v="Diaz Street"/><tag k="addr:housenumber" v="2515"/><tag k="addr:postcode" v="78702"/></node><node id="-125" lat="30.259877" lon="-97.712867" changeset="false"><tag k="addr:street" v="Diaz Street"/><tag k="addr:housenumber" v="2603"/><tag k="addr:postcode" v="78702"/></node><node id="-126" lat="30.259833" lon="-97.712738" changeset="false"><tag k="addr:street" v="Diaz Street"/><tag k="addr:housenumber" v="2605"/><tag k="addr:postcode" v="78702"/></node><node id="-127" lat="30.260006" lon="-97.713264" changeset="false"><tag k="addr:street" v="Diaz Street"/><tag k="addr:housenumber" v="2511"/><tag k="addr:postcode" v="78702"/></node><node id="-128" lat="30.259783" lon="-97.712607" changeset="false"><tag k="addr:street" v="Diaz Street"/><tag k="addr:housenumber" v="2607"/><tag k="addr:postcode" v="78702"/></node><node id="-129" lat="30.259957" lon="-97.713136" changeset="false"><tag k="addr:street" v="Diaz Street"/><tag k="addr:housenumber" v="2513"/><tag k="addr:postcode" v="78702"/></node><node id="-130" lat="30.26005" lon="-97.713386" changeset="false"><tag k="addr:street" v="Diaz Street"/><tag k="addr:housenumber" v="2509"/><tag k="addr:postcode" v="78702"/></node><node id="-131" lat="30.260085" lon="-97.713492" changeset="false"><tag k="addr:street" v="Diaz Street"/><tag k="addr:housenumber" v="2507"/><tag k="addr:postcode" v="78702"/></node><node id="-132" lat="30.259136" lon="-97.712971" changeset="false"><tag k="addr:street" v="Hidalgo Street"/><tag k="addr:housenumber" v="2605"/><tag k="addr:postcode" v="78702"/></node><node id="-133" lat="30.259186" lon="-97.713115" changeset="false"><tag k="addr:street" v="Hidalgo Street"/><tag k="addr:housenumber" v="2603"/><tag k="addr:postcode" v="78702"/></node><node id="-134" lat="30.259233" lon="-97.713266" changeset="false"><tag k="addr:street" v="Hidalgo Street"/><tag k="addr:housenumber" v="2601"/><tag k="addr:postcode" v="78702"/></node><node id="-135" lat="30.259286" lon="-97.71344" changeset="false"><tag k="addr:street" v="Hidalgo Street"/><tag k="addr:housenumber" v="2511"/><tag k="addr:postcode" v="78702"/></node><node id="-136" lat="30.259336" lon="-97.712524" changeset="false"><tag k="addr:street" v="Hidalgo Street"/><tag k="addr:housenumber" v="2610"/><tag k="addr:postcode" v="78702"/></node><node id="-137" lat="30.25952" lon="-97.713019" changeset="false"><tag k="addr:street" v="Hidalgo Street"/><tag k="addr:housenumber" v="2602"/><tag k="addr:postcode" v="78702"/></node><node id="-138" lat="30.259429" lon="-97.712751" changeset="false"><tag k="addr:street" v="Hidalgo Street"/><tag k="addr:housenumber" v="2606"/><tag k="addr:postcode" v="78702"/></node><node id="-139" lat="30.259322" lon="-97.71358" changeset="false"><tag k="addr:street" v="Hidalgo Street"/><tag k="addr:housenumber" v="2509"/><tag k="addr:postcode" v="78702"/></node><node id="-140" lat="30.259476" lon="-97.712901" changeset="false"><tag k="addr:street" v="Hidalgo Street"/><tag k="addr:housenumber" v="2604"/><tag k="addr:postcode" v="78702"/></node><node id="-141" lat="30.259388" lon="-97.712642" changeset="false"><tag k="addr:street" v="Hidalgo Street"/><tag k="addr:housenumber" v="2608"/><tag k="addr:postcode" v="78702"/></node><node id="-142" lat="30.259561" lon="-97.713147" changeset="false"><tag k="addr:street" v="Hidalgo Street"/><tag k="addr:housenumber" v="2600"/><tag k="addr:postcode" v="78702"/></node><node id="-143" lat="30.259596" lon="-97.713267" changeset="false"><tag k="addr:street" v="Hidalgo Street"/><tag k="addr:housenumber" v="2512"/><tag k="addr:postcode" v="78702"/></node><node id="-144" lat="30.259646" lon="-97.713408" changeset="false"><tag k="addr:street" v="Hidalgo Street"/><tag k="addr:housenumber" v="2510"/><tag k="addr:postcode" v="78702"/></node><node id="-145" lat="30.258668" lon="-97.713357" changeset="false"><tag k="addr:street" v="East 6th Street"/><tag k="addr:housenumber" v="2602"/><tag k="addr:postcode" v="78702"/></node><node id="-146" lat="30.258616" lon="-97.713222" changeset="false"><tag k="addr:street" v="East 6th Street"/><tag k="addr:housenumber" v="2604"/><tag k="addr:postcode" v="78702"/></node><node id="-147" lat="30.259031" lon="-97.71268" changeset="false"><tag k="addr:street" v="Hidalgo Street"/><tag k="addr:housenumber" v="2609"/><tag k="addr:postcode" v="78702"/></node><node id="-148" lat="30.258727" lon="-97.71352" changeset="false"><tag k="addr:street" v="East 6th Street"/><tag k="addr:housenumber" v="2512"/><tag k="addr:postcode" v="78702"/></node><node id="-149" lat="30.258504" lon="-97.712955" changeset="false"><tag k="addr:street" v="East 6th Street"/><tag k="addr:housenumber" v="2608"/><tag k="addr:postcode" v="78702"/></node><node id="-150" lat="30.258987" lon="-97.712533" changeset="false"><tag k="addr:street" v="Hidalgo Street"/><tag k="addr:housenumber" v="2611"/><tag k="addr:postcode" v="78702"/></node><node id="-151" lat="30.259093" lon="-97.712849" changeset="false"><tag k="addr:street" v="Hidalgo Street"/><tag k="addr:housenumber" v="2607"/><tag k="addr:postcode" v="78702"/></node><node id="-152" lat="30.260351" lon="-97.715213" changeset="false"><tag k="addr:street" v="Hidalgo Street"/><tag k="addr:housenumber" v="2410"/><tag k="addr:postcode" v="78702"/></node><node id="-153" lat="30.260511" lon="-97.715496" changeset="false"><tag k="addr:street" v="Hidalgo Street"/><tag k="addr:housenumber" v="2406"/><tag k="addr:postcode" v="78702"/></node><node id="-154" lat="30.260997" lon="-97.717056" changeset="false"><tag k="addr:street" v="East 7th Street"/><tag k="addr:housenumber" v="2223"/><tag k="addr:postcode" v="78702"/></node><node id="-155" lat="30.261074" lon="-97.71668" changeset="false"><tag k="addr:street" v="East 7th Street"/><tag k="addr:housenumber" v="2305"/><tag k="addr:postcode" v="78702"/></node><node id="-156" lat="30.260833" lon="-97.716837" changeset="false"><tag k="addr:street" v="Hidalgo Street"/><tag k="addr:housenumber" v="2304"/><tag k="addr:postcode" v="78702"/></node><node id="-157" lat="30.260768" lon="-97.716381" changeset="false"><tag k="addr:street" v="Hidalgo Street"/><tag k="addr:housenumber" v="2310"/><tag k="addr:postcode" v="78702"/></node><node id="-158" lat="30.259775" lon="-97.713791" changeset="false"><tag k="addr:street" v="Hidalgo Street"/><tag k="addr:housenumber" v="2504"/><tag k="addr:postcode" v="78702"/></node><node id="-159" lat="30.259816" lon="-97.713911" changeset="false"><tag k="addr:street" v="Hidalgo Street"/><tag k="addr:housenumber" v="2502"/><tag k="addr:postcode" v="78702"/></node><node id="-160" lat="30.260075" lon="-97.713934" changeset="false"><tag k="addr:street" v="Pedernales Street"/><tag k="addr:housenumber" v="623"/><tag k="addr:postcode" v="78702"/></node><node id="-161" lat="30.260125" lon="-97.713783" changeset="false"><tag k="addr:street" v="Diaz Street"/><tag k="addr:housenumber" v="2503"/><tag k="addr:postcode" v="78702"/></node><node id="-162" lat="30.260187" lon="-97.717151" changeset="false"><tag k="addr:street" v="East 6th Street"/><tag k="addr:housenumber" v="2204"/><tag k="addr:postcode" v="78702"/></node><node id="-163" lat="30.26029" lon="-97.71506" changeset="false"><tag k="addr:street" v="Hidalgo Street"/><tag k="addr:housenumber" v="2412"/><tag k="addr:postcode" v="78702"/></node><node id="-164" lat="30.259179" lon="-97.714843" changeset="false"><tag k="addr:street" v="East 6th Street"/><tag k="addr:housenumber" v="2416"/><tag k="addr:postcode" v="78702"/></node><node id="-165" lat="30.259186" lon="-97.716179" changeset="false"><tag k="addr:street" v="East 6th Street"/><tag k="addr:housenumber" v="2401"/><tag k="addr:postcode" v="78702"/></node><node id="-166" lat="30.258981" lon="-97.71424" changeset="false"><tag k="addr:street" v="East 6th Street"/><tag k="addr:housenumber" v="2502"/><tag k="addr:postcode" v="78702"/></node><node id="-167" lat="30.259018" lon="-97.71445" changeset="false"><tag k="addr:street" v="East 6th Street"/><tag k="addr:housenumber" v="2500"/><tag k="addr:postcode" v="78702"/></node><node id="-168" lat="30.25892" lon="-97.714101" changeset="false"><tag k="addr:street" v="East 6th Street"/><tag k="addr:housenumber" v="2504"/><tag k="addr:postcode" v="78702"/></node><node id="-169" lat="30.259398" lon="-97.7138" changeset="false"><tag k="addr:street" v="Hidalgo Street"/><tag k="addr:housenumber" v="2505"/><tag k="addr:postcode" v="78702"/></node><node id="-170" lat="30.259471" lon="-97.714002" changeset="false"><tag k="addr:street" v="Hidalgo Street"/><tag k="addr:housenumber" v="2503"/><tag k="addr:postcode" v="78702"/></node><node id="-171" lat="30.259731" lon="-97.713667" changeset="false"><tag k="addr:street" v="Hidalgo Street"/><tag k="addr:housenumber" v="2506"/><tag k="addr:postcode" v="78702"/></node><node id="-172" lat="30.258112" lon="-97.71479" changeset="false"><tag k="addr:street" v="Pedernales Street"/><tag k="addr:housenumber" v="501"/><tag k="addr:postcode" v="78702"/></node><node id="-173" lat="30.258818" lon="-97.713821" changeset="false"><tag k="addr:street" v="East 6th Street"/><tag k="addr:housenumber" v="2508"/><tag k="addr:postcode" v="78702"/></node><node id="-174" lat="30.258774" lon="-97.713678" changeset="false"><tag k="addr:street" v="East 6th Street"/><tag k="addr:housenumber" v="2510"/><tag k="addr:postcode" v="78702"/></node><node id="-175" lat="30.258407" lon="-97.713779" changeset="false"><tag k="addr:street" v="East 6th Street"/><tag k="addr:housenumber" v="2511"/><tag k="addr:postcode" v="78702"/></node><node id="-176" lat="30.258655" lon="-97.715332" changeset="false"><tag k="addr:street" v="East 5th Street"/><tag k="addr:housenumber" v="2432"/><tag k="addr:postcode" v="78702"/></node><node id="-177" lat="30.258504" lon="-97.714671" changeset="false"><tag k="addr:street" v="Pedernales Street"/><tag k="addr:housenumber" v="515"/><tag k="addr:postcode" v="78702"/></node><node id="-178" lat="30.258887" lon="-97.713962" changeset="false"><tag k="addr:street" v="East 6th Street"/><tag k="addr:housenumber" v="2506"/><tag k="addr:postcode" v="78702"/></node><node id="-179" lat="30.261148" lon="-97.717524" changeset="false"><tag k="addr:street" v="Hidalgo Street"/><tag k="addr:housenumber" v="2206"/><tag k="addr:postcode" v="78702"/></node><node id="-180" lat="30.261267" lon="-97.718904" changeset="false"><tag k="addr:street" v="East 7th Street"/><tag k="addr:housenumber" v="2121"/><tag k="addr:postcode" v="78702"/></node><node id="-181" lat="30.261181" lon="-97.717729" changeset="false"><tag k="addr:street" v="East 7th Street"/><tag k="addr:housenumber" v="2205"/><tag k="addr:postcode" v="78702"/></node><node id="-182" lat="30.261525" lon="-97.720984" changeset="false"><tag k="addr:street" v="East 6th Street"/><tag k="addr:housenumber" v="2000"/><tag k="addr:postcode" v="78702"/></node><node id="-183" lat="30.261768" lon="-97.722224" changeset="false"><tag k="addr:street" v="East 6th Street"/><tag k="addr:housenumber" v="1900"/><tag k="addr:postcode" v="78702"/></node><node id="-184" lat="30.261695" lon="-97.722042" changeset="false"><tag k="addr:street" v="East 6th Street"/><tag k="addr:housenumber" v="1902"/><tag k="addr:postcode" v="78702"/></node><node id="-185" lat="30.261674" lon="-97.721541" changeset="false"><tag k="addr:street" v="East 6th Street"/><tag k="addr:housenumber" v="1914"/><tag k="addr:postcode" v="78702"/></node><node id="-186" lat="30.261394" lon="-97.718452" changeset="false"><tag k="addr:street" v="East 7th Street"/><tag k="addr:housenumber" v="2129"/><tag k="addr:postcode" v="78702"/></node><node id="-187" lat="30.261003" lon="-97.722101" changeset="false"><tag k="addr:street" v="East 6th Street"/><tag k="addr:housenumber" v="1905"/><tag k="addr:postcode" v="78702"/></node><node id="-188" lat="30.26059" lon="-97.718257" changeset="false"><tag k="addr:street" v="East 6th Street"/><tag k="addr:housenumber" v="2200"/><tag k="addr:postcode" v="78702"/></node><node id="-189" lat="30.259535" lon="-97.718641" changeset="false"><tag k="addr:street" v="East 5th Street"/><tag k="addr:housenumber" v="2200"/><tag k="addr:postcode" v="78702"/></node><node id="-190" lat="30.260198" lon="-97.719078" changeset="false"><tag k="addr:street" v="East 6th Street"/><tag k="addr:housenumber" v="2121"/><tag k="addr:postcode" v="78702"/></node><node id="-191" lat="30.255539" lon="-97.70735" changeset="false"><tag k="addr:street" v="East 5th Street"/><tag k="addr:housenumber" v="3108"/><tag k="addr:postcode" v="78702"/></node><node id="-192" lat="30.255529" lon="-97.707228" changeset="false"><tag k="addr:street" v="East 5th Street"/><tag k="addr:housenumber" v="3110"/><tag k="addr:postcode" v="78702"/></node><node id="-193" lat="30.255725" lon="-97.707148" changeset="false"><tag k="addr:street" v="Tillery Street"/><tag k="addr:housenumber" v="500"/><tag k="addr:postcode" v="78702"/></node><node id="-194" lat="30.25603" lon="-97.707" changeset="false"><tag k="addr:street" v="Tillery Street"/><tag k="addr:housenumber" v="504"/><tag k="addr:postcode" v="78702"/></node><node id="-195" lat="30.255885" lon="-97.707064" changeset="false"><tag k="addr:street" v="Tillery Street"/><tag k="addr:housenumber" v="502"/><tag k="addr:postcode" v="78702"/></node><node id="-196" lat="30.253031" lon="-97.708414" changeset="false"><tag k="addr:street" v="Tillery Square"/><tag k="addr:housenumber" v="205"/><tag k="addr:postcode" v="78702"/></node><node id="-197" lat="30.25308" lon="-97.706507" changeset="false"><tag k="addr:street" v="Allen Street"/><tag k="addr:housenumber" v="300"/><tag k="addr:postcode" v="78702"/></node><node id="-198" lat="30.253333" lon="-97.708408" changeset="false"><tag k="addr:street" v="Tillery Square"/><tag k="addr:housenumber" v="209"/><tag k="addr:postcode" v="78702"/></node><node id="-199" lat="30.253457" lon="-97.708328" changeset="false"><tag k="addr:street" v="Tillery Square"/><tag k="addr:housenumber" v="211"/><tag k="addr:postcode" v="78702"/></node><node id="-200" lat="30.253569" lon="-97.708237" changeset="false"><tag k="addr:street" v="Tillery Square"/><tag k="addr:housenumber" v="301"/><tag k="addr:postcode" v="78702"/></node><node id="-201" lat="30.25452" lon="-97.706335" changeset="false"><tag k="addr:street" v="East 5th Street"/><tag k="addr:housenumber" v="3227"/><tag k="addr:postcode" v="78702"/></node><node id="-202" lat="30.253196" lon="-97.708467" changeset="false"><tag k="addr:street" v="Tillery Square"/><tag k="addr:housenumber" v="207"/><tag k="addr:postcode" v="78702"/></node><node id="-203" lat="30.253697" lon="-97.708064" changeset="false"><tag k="addr:street" v="Tillery Square"/><tag k="addr:housenumber" v="303"/><tag k="addr:postcode" v="78702"/></node><node id="-204" lat="30.253895" lon="-97.708152" changeset="false"><tag k="addr:street" v="Tillery Square"/><tag k="addr:housenumber" v="305"/><tag k="addr:postcode" v="78702"/></node><node id="-205" lat="30.254021" lon="-97.708307" changeset="false"><tag k="addr:street" v="Tillery Square"/><tag k="addr:housenumber" v="306"/><tag k="addr:postcode" v="78702"/></node><node id="-206" lat="30.254032" lon="-97.708565" changeset="false"><tag k="addr:street" v="Tillery Square"/><tag k="addr:housenumber" v="304"/><tag k="addr:postcode" v="78702"/></node><node id="-207" lat="30.254618" lon="-97.708048" changeset="false"><tag k="addr:street" v="East 4th Street"/><tag k="addr:housenumber" v="3100"/><tag k="addr:postcode" v="78702"/></node><node id="-208" lat="30.252169" lon="-97.708259" changeset="false"><tag k="addr:street" v="Tillery Street"/><tag k="addr:housenumber" v="105"/><tag k="addr:postcode" v="78702"/></node><node id="-209" lat="30.252253" lon="-97.708052" changeset="false"><tag k="addr:street" v="Tillery Street"/><tag k="addr:housenumber" v="107"/><tag k="addr:postcode" v="78702"/></node><node id="-210" lat="30.252344" lon="-97.70813" changeset="false"><tag k="addr:street" v="Tillery Street"/><tag k="addr:housenumber" v="109"/><tag k="addr:postcode" v="78702"/></node><node id="-211" lat="30.252523" lon="-97.707909" changeset="false"><tag k="addr:street" v="Tillery Street"/><tag k="addr:housenumber" v="111"/><tag k="addr:postcode" v="78702"/></node><node id="-212" lat="30.252102" lon="-97.70726" changeset="false"><tag k="addr:street" v="East Cesar Chavez Street"/><tag k="addr:housenumber" v="3232"/><tag k="addr:postcode" v="78702"/></node><node id="-213" lat="30.252864" lon="-97.708464" changeset="false"><tag k="addr:street" v="Tillery Square"/><tag k="addr:housenumber" v="203"/><tag k="addr:postcode" v="78702"/></node><node id="-214" lat="30.255277" lon="-97.709602" changeset="false"><tag k="addr:street" v="East 4th Street"/><tag k="addr:housenumber" v="2910"/><tag k="addr:postcode" v="78702"/></node><node id="-215" lat="30.255283" lon="-97.709754" changeset="false"><tag k="addr:street" v="East 4th Street"/><tag k="addr:housenumber" v="2908"/><tag k="addr:postcode" v="78702"/></node><node id="-216" lat="30.25587" lon="-97.70966" changeset="false"><tag k="addr:street" v="East 5th Street"/><tag k="addr:housenumber" v="2907"/><tag k="addr:postcode" v="78702"/></node><node id="-217" lat="30.255753" lon="-97.709867" changeset="false"><tag k="addr:street" v="East 5th Street"/><tag k="addr:housenumber" v="2905"/><tag k="addr:postcode" v="78702"/></node><node id="-218" lat="30.254913" lon="-97.709783" changeset="false"><tag k="addr:street" v="East 4th Street"/><tag k="addr:housenumber" v="2911"/><tag k="addr:postcode" v="78702"/></node><node id="-219" lat="30.255333" lon="-97.709888" changeset="false"><tag k="addr:street" v="East 4th Street"/><tag k="addr:housenumber" v="2906"/><tag k="addr:postcode" v="78702"/></node><node id="-220" lat="30.254116" lon="-97.709417" changeset="false"><tag k="addr:street" v="East 3rd Street"/><tag k="addr:housenumber" v="3004"/><tag k="addr:postcode" v="78702"/></node><node id="-221" lat="30.254428" lon="-97.709223" changeset="false"><tag k="addr:street" v="East 4th Street"/><tag k="addr:housenumber" v="3005"/><tag k="addr:postcode" v="78702"/></node><node id="-222" lat="30.254327" lon="-97.709051" changeset="false"><tag k="addr:street" v="East 4th Street"/><tag k="addr:housenumber" v="3007"/><tag k="addr:postcode" v="78702"/></node><node id="-223" lat="30.254453" lon="-97.709539" changeset="false"><tag k="addr:street" v="Linden Street"/><tag k="addr:housenumber" v="303"/><tag k="addr:postcode" v="78702"/></node><node id="-224" lat="30.254153" lon="-97.709554" changeset="false"><tag k="addr:street" v="East 3rd Street"/><tag k="addr:housenumber" v="3002"/><tag k="addr:postcode" v="78702"/></node><node id="-225" lat="30.254202" lon="-97.70979" changeset="false"><tag k="addr:street" v="East 3rd Street"/><tag k="addr:housenumber" v="3000"/><tag k="addr:postcode" v="78702"/></node><node id="-226" lat="30.254238" lon="-97.708843" changeset="false"><tag k="addr:street" v="East 4th Street"/><tag k="addr:housenumber" v="3009"/><tag k="addr:postcode" v="78702"/></node><node id="-227" lat="30.254597" lon="-97.709485" changeset="false"><tag k="addr:street" v="Linden Street"/><tag k="addr:housenumber" v="305"/><tag k="addr:postcode" v="78702"/></node><node id="-228" lat="30.253966" lon="-97.70929" changeset="false"><tag k="addr:street" v="East 3rd Street"/><tag k="addr:housenumber" v="3006"/><tag k="addr:postcode" v="78702"/></node><node id="-229" lat="30.254719" lon="-97.709432" changeset="false"><tag k="addr:street" v="Linden Street"/><tag k="addr:housenumber" v="307"/><tag k="addr:postcode" v="78702"/></node><node id="-230" lat="30.253746" lon="-97.708691" changeset="false"><tag k="addr:street" v="Tillery Square"/><tag k="addr:housenumber" v="300"/><tag k="addr:postcode" v="78702"/></node><node id="-231" lat="30.253886" lon="-97.708675" changeset="false"><tag k="addr:street" v="Tillery Square"/><tag k="addr:housenumber" v="302"/><tag k="addr:postcode" v="78702"/></node><node id="-232" lat="30.2537" lon="-97.709617" changeset="false"><tag k="addr:street" v="East 3rd Street"/><tag k="addr:housenumber" v="3005"/><tag k="addr:postcode" v="78702"/></node><node id="-233" lat="30.253897" lon="-97.70917" changeset="false"><tag k="addr:street" v="East 3rd Street"/><tag k="addr:housenumber" v="3008"/><tag k="addr:postcode" v="78702"/></node><node id="-234" lat="30.253483" lon="-97.709199" changeset="false"><tag k="addr:street" v="East 3rd Street"/><tag k="addr:housenumber" v="3011"/><tag k="addr:postcode" v="78702"/></node><node id="-235" lat="30.252067" lon="-97.709062" changeset="false"><tag k="addr:street" v="East Cesar Chavez Street"/><tag k="addr:housenumber" v="3112"/><tag k="addr:postcode" v="78702"/></node><node id="-236" lat="30.253358" lon="-97.708849" changeset="false"><tag k="addr:street" v="East 3rd Street"/><tag k="addr:housenumber" v="3015"/><tag k="addr:postcode" v="78702"/></node><node id="-237" lat="30.256083" lon="-97.710415" changeset="false"><tag k="addr:street" v="East 5th Street"/><tag k="addr:housenumber" v="2817"/><tag k="addr:postcode" v="78702"/></node><node id="-238" lat="30.255432" lon="-97.710152" changeset="false"><tag k="addr:street" v="East 4th Street"/><tag k="addr:housenumber" v="2902"/><tag k="addr:postcode" v="78702"/></node><node id="-239" lat="30.255799" lon="-97.710087" changeset="false"><tag k="addr:street" v="East 5th Street"/><tag k="addr:housenumber" v="2901"/><tag k="addr:postcode" v="78702"/></node><node id="-240" lat="30.255475" lon="-97.710277" changeset="false"><tag k="addr:street" v="East 4th Street"/><tag k="addr:housenumber" v="2900"/><tag k="addr:postcode" v="78702"/></node><node id="-241" lat="30.255382" lon="-97.710014" changeset="false"><tag k="addr:street" v="East 4th Street"/><tag k="addr:housenumber" v="2904"/><tag k="addr:postcode" v="78702"/></node><node id="-242" lat="30.255053" lon="-97.710337" changeset="false"><tag k="addr:street" v="East 4th Street"/><tag k="addr:housenumber" v="2903"/><tag k="addr:postcode" v="78702"/></node><node id="-243" lat="30.255097" lon="-97.710482" changeset="false"><tag k="addr:street" v="East 4th Street"/><tag k="addr:housenumber" v="2901"/><tag k="addr:postcode" v="78702"/></node><node id="-244" lat="30.255627" lon="-97.71078" changeset="false"><tag k="addr:street" v="East 4th Street"/><tag k="addr:housenumber" v="2806"/><tag k="addr:postcode" v="78702"/></node><node id="-245" lat="30.255232" lon="-97.710767" changeset="false"><tag k="addr:street" v="East 4th Street"/><tag k="addr:housenumber" v="2811"/><tag k="addr:postcode" v="78702"/></node><node id="-246" lat="30.254948" lon="-97.709919" changeset="false"><tag k="addr:street" v="East 4th Street"/><tag k="addr:housenumber" v="2909"/><tag k="addr:postcode" v="78702"/></node><node id="-247" lat="30.255018" lon="-97.710211" changeset="false"><tag k="addr:street" v="East 4th Street"/><tag k="addr:housenumber" v="2905"/><tag k="addr:postcode" v="78702"/></node><node id="-248" lat="30.25499" lon="-97.710062" changeset="false"><tag k="addr:street" v="East 4th Street"/><tag k="addr:housenumber" v="2907"/><tag k="addr:postcode" v="78702"/></node><node id="-249" lat="30.253978" lon="-97.710221" changeset="false"><tag k="addr:street" v="East 3rd Street"/><tag k="addr:housenumber" v="2911"/><tag k="addr:postcode" v="78702"/></node><node id="-250" lat="30.254135" lon="-97.710637" changeset="false"><tag k="addr:street" v="East 3rd Street"/><tag k="addr:housenumber" v="2905"/><tag k="addr:postcode" v="78702"/></node><node id="-251" lat="30.25436" lon="-97.710057" changeset="false"><tag k="addr:street" v="East 3rd Street"/><tag k="addr:housenumber" v="2910"/><tag k="addr:postcode" v="78702"/></node><node id="-252" lat="30.25408" lon="-97.71049" changeset="false"><tag k="addr:street" v="East 3rd Street"/><tag k="addr:housenumber" v="2907"/><tag k="addr:postcode" v="78702"/></node><node id="-253" lat="30.254434" lon="-97.710306" changeset="false"><tag k="addr:street" v="East 3rd Street"/><tag k="addr:housenumber" v="2906"/><tag k="addr:postcode" v="78702"/></node><node id="-254" lat="30.254407" lon="-97.7102" changeset="false"><tag k="addr:street" v="East 3rd Street"/><tag k="addr:housenumber" v="2908"/><tag k="addr:postcode" v="78702"/></node><node id="-255" lat="30.254478" lon="-97.710449" changeset="false"><tag k="addr:street" v="East 3rd Street"/><tag k="addr:housenumber" v="2904"/><tag k="addr:postcode" v="78702"/></node><node id="-256" lat="30.254033" lon="-97.710349" changeset="false"><tag k="addr:street" v="East 3rd Street"/><tag k="addr:housenumber" v="2909"/><tag k="addr:postcode" v="78702"/></node><node id="-257" lat="30.254555" lon="-97.710736" changeset="false"><tag k="addr:street" v="East 3rd Street"/><tag k="addr:housenumber" v="2900"/><tag k="addr:postcode" v="78702"/></node><node id="-258" lat="30.254528" lon="-97.710614" changeset="false"><tag k="addr:street" v="East 3rd Street"/><tag k="addr:housenumber" v="2902"/><tag k="addr:postcode" v="78702"/></node><node id="-259" lat="30.253611" lon="-97.71002" changeset="false"><tag k="addr:street" v="Linden Street"/><tag k="addr:housenumber" v="205"/><tag k="addr:postcode" v="78702"/></node><node id="-260" lat="30.253538" lon="-97.71074" changeset="false"><tag k="addr:street" v="East 2nd Street"/><tag k="addr:housenumber" v="2906"/><tag k="addr:postcode" v="78702"/></node><node id="-261" lat="30.252838" lon="-97.710767" changeset="false"><tag k="addr:street" v="East Cesar Chavez Street"/><tag k="addr:housenumber" v="2922"/><tag k="addr:postcode" v="78702"/></node><node id="-262" lat="30.25345" lon="-97.710098" changeset="false"><tag k="addr:street" v="Linden Street"/><tag k="addr:housenumber" v="203"/><tag k="addr:postcode" v="78702"/></node><node id="-263" lat="30.253613" lon="-97.710545" changeset="false"><tag k="addr:street" v="East 2nd Street"/><tag k="addr:housenumber" v="2908"/><tag k="addr:postcode" v="78702"/></node><node id="-264" lat="30.253314" lon="-97.710161" changeset="false"><tag k="addr:street" v="Linden Street"/><tag k="addr:housenumber" v="201"/><tag k="addr:postcode" v="78702"/></node><node id="-265" lat="30.253864" lon="-97.70988" changeset="false"><tag k="addr:street" v="East 3rd Street"/><tag k="addr:housenumber" v="3001"/><tag k="addr:postcode" v="78702"/></node><node id="-266" lat="30.255686" lon="-97.710904" changeset="false"><tag k="addr:street" v="East 4th Street"/><tag k="addr:housenumber" v="2804"/><tag k="addr:postcode" v="78702"/></node><node id="-267" lat="30.256535" lon="-97.709753" changeset="false"><tag k="addr:street" v="East 5th Street"/><tag k="addr:housenumber" v="2910"/><tag k="addr:postcode" v="78702"/></node><node id="-268" lat="30.255787" lon="-97.711261" changeset="false"><tag k="addr:street" v="North Pleasant Valley Road"/><tag k="addr:housenumber" v="401"/><tag k="addr:postcode" v="78702"/></node><node id="-269" lat="30.256383" lon="-97.710966" changeset="false"><tag k="addr:street" v="East 5th Street"/><tag k="addr:housenumber" v="2801"/><tag k="addr:postcode" v="78702"/></node><node id="-270" lat="30.256267" lon="-97.711037" changeset="false"><tag k="addr:street" v="North Pleasant Valley Road"/><tag k="addr:housenumber" v="409"/><tag k="addr:postcode" v="78702"/></node><node id="-271" lat="30.256155" lon="-97.711098" changeset="false"><tag k="addr:street" v="North Pleasant Valley Road"/><tag k="addr:housenumber" v="407"/><tag k="addr:postcode" v="78702"/></node><node id="-272" lat="30.255896" lon="-97.711204" changeset="false"><tag k="addr:street" v="North Pleasant Valley Road"/><tag k="addr:housenumber" v="403"/><tag k="addr:postcode" v="78702"/></node><node id="-273" lat="30.256019" lon="-97.711147" changeset="false"><tag k="addr:street" v="North Pleasant Valley Road"/><tag k="addr:housenumber" v="405"/><tag k="addr:postcode" v="78702"/></node><node id="-274" lat="30.25471" lon="-97.711162" changeset="false"><tag k="addr:street" v="East 3rd Street"/><tag k="addr:housenumber" v="2810"/><tag k="addr:postcode" v="78702"/></node><node id="-275" lat="30.254764" lon="-97.711297" changeset="false"><tag k="addr:street" v="East 3rd Street"/><tag k="addr:housenumber" v="2806"/><tag k="addr:postcode" v="78702"/></node><node id="-276" lat="30.2548" lon="-97.711416" changeset="false"><tag k="addr:street" v="East 3rd Street"/><tag k="addr:housenumber" v="2804"/><tag k="addr:postcode" v="78702"/></node><node id="-277" lat="30.254535" lon="-97.711765" changeset="false"><tag k="addr:street" v="North Pleasant Valley Road"/><tag k="addr:housenumber" v="209"/><tag k="addr:postcode" v="78702"/></node><node id="-278" lat="30.254927" lon="-97.711703" changeset="false"><tag k="addr:street" v="North Pleasant Valley Road"/><tag k="addr:housenumber" v="301"/><tag k="addr:postcode" v="78702"/></node><node id="-279" lat="30.255363" lon="-97.711495" changeset="false"><tag k="addr:street" v="North Pleasant Valley Road"/><tag k="addr:housenumber" v="307"/><tag k="addr:postcode" v="78702"/></node><node id="-280" lat="30.255203" lon="-97.710954" changeset="false"><tag k="addr:street" v="East 4th Street"/><tag k="addr:housenumber" v="2809"/><tag k="addr:postcode" v="78702"/></node><node id="-281" lat="30.255313" lon="-97.711056" changeset="false"><tag k="addr:street" v="East 4th Street"/><tag k="addr:housenumber" v="2807"/><tag k="addr:postcode" v="78702"/></node><node id="-282" lat="30.255504" lon="-97.711426" changeset="false"><tag k="addr:street" v="North Pleasant Valley Road"/><tag k="addr:housenumber" v="311"/><tag k="addr:postcode" v="78702"/></node><node id="-283" lat="30.253858" lon="-97.711589" changeset="false"><tag k="addr:street" v="East 2nd Street"/><tag k="addr:housenumber" v="2810"/><tag k="addr:postcode" v="78702"/></node><node id="-284" lat="30.254009" lon="-97.711995" changeset="false"><tag k="addr:street" v="East 2nd Street"/><tag k="addr:housenumber" v="2800"/><tag k="addr:postcode" v="78702"/></node><node id="-285" lat="30.253953" lon="-97.711877" changeset="false"><tag k="addr:street" v="East 2nd Street"/><tag k="addr:housenumber" v="2804"/><tag k="addr:postcode" v="78702"/></node><node id="-286" lat="30.254212" lon="-97.710883" changeset="false"><tag k="addr:street" v="East 3rd Street"/><tag k="addr:housenumber" v="2903"/><tag k="addr:postcode" v="78702"/></node><node id="-287" lat="30.254373" lon="-97.711912" changeset="false"><tag k="addr:street" v="North Pleasant Valley Road"/><tag k="addr:housenumber" v="207"/><tag k="addr:postcode" v="78702"/></node><node id="-288" lat="30.254416" lon="-97.711442" changeset="false"><tag k="addr:street" v="East 3rd Street"/><tag k="addr:housenumber" v="2809"/><tag k="addr:postcode" v="78702"/></node><node id="-289" lat="30.25271" lon="-97.711041" changeset="false"><tag k="addr:street" v="East Cesar Chavez Street"/><tag k="addr:housenumber" v="2916"/><tag k="addr:postcode" v="78702"/></node><node id="-290" lat="30.25277" lon="-97.711414" changeset="false"><tag k="addr:street" v="East Cesar Chavez Street"/><tag k="addr:housenumber" v="2902"/><tag k="addr:postcode" v="78702"/></node><node id="-291" lat="30.25282" lon="-97.711564" changeset="false"><tag k="addr:street" v="East Cesar Chavez Street"/><tag k="addr:housenumber" v="2900"/><tag k="addr:postcode" v="78702"/></node><node id="-292" lat="30.253407" lon="-97.711633" changeset="false"><tag k="addr:street" v="East 2nd Street"/><tag k="addr:housenumber" v="2811"/><tag k="addr:postcode" v="78702"/></node><node id="-293" lat="30.252889" lon="-97.711839" changeset="false"><tag k="addr:street" v="East Cesar Chavez Street"/><tag k="addr:housenumber" v="2810"/><tag k="addr:postcode" v="78702"/></node><node id="-294" lat="30.253" lon="-97.712155" changeset="false"><tag k="addr:street" v="East Cesar Chavez Street"/><tag k="addr:housenumber" v="2806"/><tag k="addr:postcode" v="78702"/></node><node id="-295" lat="30.253132" lon="-97.712535" changeset="false"><tag k="addr:street" v="East Cesar Chavez Street"/><tag k="addr:housenumber" v="2800"/><tag k="addr:postcode" v="78702"/></node><node id="-296" lat="30.253582" lon="-97.710888" changeset="false"><tag k="addr:street" v="East 2nd Street"/><tag k="addr:housenumber" v="2904"/><tag k="addr:postcode" v="78702"/></node><node id="-297" lat="30.253341" lon="-97.711321" changeset="false"><tag k="addr:street" v="East 2nd Street"/><tag k="addr:housenumber" v="2901"/><tag k="addr:postcode" v="78702"/></node></osm>