<?xml version="1.0" encoding="UTF-8"?><osm version="0.6" generator="github.com/aaronlidman/osm-and-geojson"><node id="-1" lat="30.483406" lon="-97.734591" changeset="false"><tag k="addr:street" v="Ranch-to-Market Road 620"/><tag k="addr:housenumber" v="15515"/></node><node id="-2" lat="30.477749" lon="-97.758467" changeset="false"><tag k="addr:street" v="Ranch-to-Market Road 620"/><tag k="addr:housenumber" v="14315 1/2"/></node><node id="-3" lat="30.480082" lon="-97.751381" changeset="false"><tag k="addr:street" v="Ranch-to-Market Road 620"/><tag k="addr:housenumber" v="14615 1/2"/></node><node id="-4" lat="30.483448" lon="-97.737337" changeset="false"><tag k="addr:street" v="Ranch-to-Market Road 620"/><tag k="addr:housenumber" v="15415"/></node><node id="-5" lat="30.492783" lon="-97.725371" changeset="false"><tag k="addr:street" v="Ranch-to-Market Road 620"/><tag k="addr:housenumber" v="16251"/></node><node id="-6" lat="30.477244" lon="-97.75935" changeset="false"><tag k="addr:street" v="Ranch-to-Market Road 620"/><tag k="addr:housenumber" v="14301"/></node><node id="-7" lat="30.483871" lon="-97.734264" changeset="false"><tag k="addr:street" v="Ranch-to-Market Road 620"/><tag k="addr:housenumber" v="15527"/></node><node id="-8" lat="30.482602" lon="-97.74198" changeset="false"><tag k="addr:street" v="Ranch-to-Market Road 620"/><tag k="addr:housenumber" v="15215"/></node><node id="-9" lat="30.482688" lon="-97.741699" changeset="false"><tag k="addr:street" v="Ranch-to-Market Road 620"/><tag k="addr:housenumber" v="15233"/></node></osm>