<?xml version="1.0" encoding="UTF-8"?><osm version="0.6" generator="github.com/aaronlidman/osm-and-geojson"><node id="-1" lat="30.354859" lon="-97.699476" changeset="false"><tag k="addr:street" v="Deen Avenue"/><tag k="addr:housenumber" v="206"/><tag k="addr:postcode" v="78753"/></node><node id="-2" lat="30.350736" lon="-97.693335" changeset="false"><tag k="addr:street" v="North Interstate Highway 35 Service Road"/><tag k="addr:housenumber" v="8630"/><tag k="addr:postcode" v="78753"/></node><node id="-3" lat="30.353184" lon="-97.695856" changeset="false"><tag k="addr:street" v="Laverty Place"/><tag k="addr:housenumber" v="8815"/><tag k="addr:postcode" v="78753"/></node><node id="-4" lat="30.353779" lon="-97.696929" changeset="false"><tag k="addr:street" v="Florence Drive"/><tag k="addr:housenumber" v="203"/><tag k="addr:postcode" v="78753"/></node><node id="-5" lat="30.355545" lon="-97.698626" changeset="false"><tag k="addr:street" v="Schirra Place"/><tag k="addr:housenumber" v="202"/><tag k="addr:postcode" v="78753"/></node><node id="-6" lat="30.35524" lon="-97.69226" changeset="false"><tag k="addr:street" v="Capitol Drive"/><tag k="addr:housenumber" v="8913"/><tag k="addr:postcode" v="78753"/></node><node id="-7" lat="30.356573" lon="-97.701026" changeset="false"><tag k="addr:street" v="North Lamar Boulevard"/><tag k="addr:housenumber" v="8803"/><tag k="addr:postcode" v="78753"/></node><node id="-8" lat="30.355145" lon="-97.696615" changeset="false"><tag k="addr:street" v="Georgian Drive"/><tag k="addr:housenumber" v="8837"/><tag k="addr:postcode" v="78753"/></node><node id="-9" lat="30.35445" lon="-97.699121" changeset="false"><tag k="addr:street" v="Deen Avenue"/><tag k="addr:housenumber" v="200"/><tag k="addr:postcode" v="78753"/></node><node id="-10" lat="30.355274" lon="-97.699737" changeset="false"><tag k="addr:street" v="Deen Avenue"/><tag k="addr:housenumber" v="500"/><tag k="addr:postcode" v="78753"/></node><node id="-11" lat="30.354944" lon="-97.696752" changeset="false"><tag k="addr:street" v="Georgian Drive"/><tag k="addr:housenumber" v="8833"/><tag k="addr:postcode" v="78753"/></node><node id="-12" lat="30.353069" lon="-97.696446" changeset="false"><tag k="addr:street" v="Laverty Place"/><tag k="addr:housenumber" v="8812"/><tag k="addr:postcode" v="78753"/></node><node id="-13" lat="30.352143" lon="-97.692393" changeset="false"><tag k="addr:street" v="North Interstate Highway 35 Service Road"/><tag k="addr:housenumber" v="8820 1/2"/><tag k="addr:postcode" v="78753"/></node><node id="-14" lat="30.354831" lon="-97.694941" changeset="false"><tag k="addr:street" v="East Drive"/><tag k="addr:housenumber" v="8841"/><tag k="addr:postcode" v="78753"/></node><node id="-15" lat="30.355041" lon="-97.696691" changeset="false"><tag k="addr:street" v="Georgian Drive"/><tag k="addr:housenumber" v="8835"/><tag k="addr:postcode" v="78753"/></node><node id="-16" lat="30.353828" lon="-97.691489" changeset="false"><tag k="addr:street" v="North Interstate Highway 35 Service Road"/><tag k="addr:housenumber" v="8912"/><tag k="addr:postcode" v="78753"/></node><node id="-17" lat="30.350596" lon="-97.693424" changeset="false"><tag k="addr:street" v="North Interstate Highway 35 Service Road"/><tag k="addr:housenumber" v="8618"/><tag k="addr:postcode" v="78753"/></node><node id="-18" lat="30.355127" lon="-97.699694" changeset="false"><tag k="addr:street" v="Deen Avenue"/><tag k="addr:housenumber" v="210"/><tag k="addr:postcode" v="78753"/></node><node id="-19" lat="30.354614" lon="-97.693011" changeset="false"><tag k="addr:street" v="Capitol Drive"/><tag k="addr:housenumber" v="8901"/><tag k="addr:postcode" v="78753"/></node><node id="-20" lat="30.354546" lon="-97.695127" changeset="false"><tag k="addr:street" v="East Drive"/><tag k="addr:housenumber" v="8837"/><tag k="addr:postcode" v="78753"/></node><node id="-21" lat="30.354891" lon="-97.694456" changeset="false"><tag k="addr:street" v="Capitol Drive"/><tag k="addr:housenumber" v="407"/><tag k="addr:postcode" v="78753"/></node><node id="-22" lat="30.355756" lon="-97.691422" changeset="false"><tag k="addr:street" v="Capitol Drive"/><tag k="addr:housenumber" v="9005"/><tag k="addr:postcode" v="78753"/></node><node id="-23" lat="30.355566" lon="-97.6919" changeset="false"><tag k="addr:street" v="Capitol Drive"/><tag k="addr:housenumber" v="9003"/><tag k="addr:postcode" v="78753"/></node><node id="-24" lat="30.353986" lon="-97.698792" changeset="false"><tag k="addr:street" v="Deen Avenue"/><tag k="addr:housenumber" v="100"/><tag k="addr:postcode" v="78753"/></node><node id="-25" lat="30.355219" lon="-97.690564" changeset="false"><tag k="addr:street" v="North Interstate Highway 35 Service Road"/><tag k="addr:housenumber" v="9014"/><tag k="addr:postcode" v="78753"/></node><node id="-26" lat="30.354655" lon="-97.69506" changeset="false"><tag k="addr:street" v="East Drive"/><tag k="addr:housenumber" v="8839"/><tag k="addr:postcode" v="78753"/></node><node id="-27" lat="30.35456" lon="-97.696707" changeset="false"><tag k="addr:street" v="Georgian Drive"/><tag k="addr:housenumber" v="8829"/><tag k="addr:postcode" v="78753"/></node><node id="-28" lat="30.353148" lon="-97.695743" changeset="false"><tag k="addr:street" v="Laverty Place"/><tag k="addr:housenumber" v="8819"/><tag k="addr:postcode" v="78753"/></node><node id="-29" lat="30.357101" lon="-97.699202" changeset="false"><tag k="addr:street" v="North Lamar Boulevard"/><tag k="addr:housenumber" v="8827"/><tag k="addr:postcode" v="78753"/></node><node id="-30" lat="30.357218" lon="-97.699405" changeset="false"><tag k="addr:street" v="North Lamar Boulevard"/><tag k="addr:housenumber" v="8831"/><tag k="addr:postcode" v="78753"/></node><node id="-31" lat="30.35715" lon="-97.699304" changeset="false"><tag k="addr:street" v="North Lamar Boulevard"/><tag k="addr:housenumber" v="8829"/><tag k="addr:postcode" v="78753"/></node><node id="-32" lat="30.357249" lon="-97.699464" changeset="false"><tag k="addr:street" v="North Lamar Boulevard"/><tag k="addr:housenumber" v="8833"/><tag k="addr:postcode" v="78753"/></node><node id="-33" lat="30.357661" lon="-97.699613" changeset="false"><tag k="addr:street" v="North Lamar Boulevard"/><tag k="addr:housenumber" v="8905"/><tag k="addr:postcode" v="78753"/></node><node id="-34" lat="30.357548" lon="-97.6997" changeset="false"><tag k="addr:street" v="North Lamar Boulevard"/><tag k="addr:housenumber" v="8901"/><tag k="addr:postcode" v="78753"/></node><node id="-35" lat="30.356728" lon="-97.699581" changeset="false"><tag k="addr:street" v="North Lamar Boulevard"/><tag k="addr:housenumber" v="8823"/><tag k="addr:postcode" v="78753"/></node><node id="-36" lat="30.356646" lon="-97.69953" changeset="false"><tag k="addr:street" v="North Lamar Boulevard"/><tag k="addr:housenumber" v="8825"/><tag k="addr:postcode" v="78753"/></node><node id="-37" lat="30.356489" lon="-97.700633" changeset="false"><tag k="addr:street" v="North Lamar Boulevard"/><tag k="addr:housenumber" v="8807"/><tag k="addr:postcode" v="78753"/></node><node id="-38" lat="30.356636" lon="-97.700538" changeset="false"><tag k="addr:street" v="North Lamar Boulevard"/><tag k="addr:housenumber" v="8817"/><tag k="addr:postcode" v="78753"/></node></osm>