<?xml version="1.0" encoding="UTF-8"?><osm version="0.6" generator="github.com/aaronlidman/osm-and-geojson"><node id="-1" lat="30.300112" lon="-97.773878" changeset="false"><tag k="addr:street" v="Windsor Road"/><tag k="addr:housenumber" v="3500"/><tag k="addr:postcode" v="78703"/></node><node id="-2" lat="30.297788" lon="-97.767737" changeset="false"><tag k="addr:street" v="Exposition Boulevard"/><tag k="addr:housenumber" v="2412"/><tag k="addr:postcode" v="78703"/></node><node id="-3" lat="30.303338" lon="-97.764509" changeset="false"><tag k="addr:street" v="Exposition Boulevard"/><tag k="addr:housenumber" v="2710"/><tag k="addr:postcode" v="78703"/></node><node id="-4" lat="30.300279" lon="-97.774656" changeset="false"><tag k="addr:street" v="Windsor Road"/><tag k="addr:housenumber" v="3506"/><tag k="addr:postcode" v="78703"/></node><node id="-5" lat="30.297926" lon="-97.767778" changeset="false"><tag k="addr:street" v="Bowman Avenue"/><tag k="addr:housenumber" v="2709"/><tag k="addr:postcode" v="78703"/></node><node id="-6" lat="30.300441" lon="-97.775013" changeset="false"><tag k="addr:street" v="Windsor Road"/><tag k="addr:housenumber" v="3508"/><tag k="addr:postcode" v="78703"/></node><node id="-7" lat="30.30139" lon="-97.776524" changeset="false"><tag k="addr:street" v="Kenmore Court"/><tag k="addr:housenumber" v="2407"/><tag k="addr:postcode" v="78703"/></node><node id="-8" lat="30.303557" lon="-97.779053" changeset="false"><tag k="addr:street" v="Matthews Drive"/><tag k="addr:housenumber" v="2410"/><tag k="addr:postcode" v="78703"/></node><node id="-9" lat="30.302404" lon="-97.768964" changeset="false"><tag k="addr:street" v="Richard Lane"/><tag k="addr:housenumber" v="2905"/><tag k="addr:postcode" v="78703"/></node><node id="-10" lat="30.301457" lon="-97.766457" changeset="false"><tag k="addr:street" v="Mc Cullough Street"/><tag k="addr:housenumber" v="2707"/><tag k="addr:postcode" v="78703"/></node><node id="-11" lat="30.300174" lon="-97.772962" changeset="false"><tag k="addr:street" v="Bowman Avenue"/><tag k="addr:housenumber" v="3205"/><tag k="addr:postcode" v="78703"/></node><node id="-12" lat="30.304099" lon="-97.778486" changeset="false"><tag k="addr:street" v="Matthews Drive"/><tag k="addr:housenumber" v="2500"/><tag k="addr:postcode" v="78703"/></node><node id="-13" lat="30.304991" lon="-97.769325" changeset="false"><tag k="addr:street" v="Maria Anna Road"/><tag k="addr:housenumber" v="2622"/><tag k="addr:postcode" v="78703"/></node><node id="-14" lat="30.300496" lon="-97.769541" changeset="false"><tag k="addr:street" v="Greenlee Drive"/><tag k="addr:housenumber" v="2905"/><tag k="addr:postcode" v="78703"/></node><node id="-15" lat="30.302196" lon="-97.768308" changeset="false"><tag k="addr:street" v="Richard Lane"/><tag k="addr:housenumber" v="2900"/><tag k="addr:postcode" v="78703"/></node><node id="-16" lat="30.303839" lon="-97.773884" changeset="false"><tag k="addr:street" v="Velasquez Drive"/><tag k="addr:housenumber" v="2503"/><tag k="addr:postcode" v="78703"/></node><node id="-17" lat="30.301259" lon="-97.780517" changeset="false"><tag k="addr:street" v="Matthews Drive"/><tag k="addr:housenumber" v="2104"/><tag k="addr:postcode" v="78703"/></node><node id="-18" lat="30.302022" lon="-97.772048" changeset="false"><tag k="addr:street" v="Pecos Street"/><tag k="addr:housenumber" v="2521"/><tag k="addr:postcode" v="78703"/></node><node id="-19" lat="30.30266" lon="-97.766454" changeset="false"><tag k="addr:street" v="Hillview Green Lane"/><tag k="addr:housenumber" v="2721"/><tag k="addr:postcode" v="78703"/></node><node id="-20" lat="30.305202" lon="-97.775888" changeset="false"><tag k="addr:street" v="El Greco Cove"/><tag k="addr:housenumber" v="2519"/><tag k="addr:postcode" v="78703"/></node><node id="-21" lat="30.302905" lon="-97.773525" changeset="false"><tag k="addr:street" v="Tanglewood Trail"/><tag k="addr:housenumber" v="2522"/><tag k="addr:postcode" v="78703"/></node><node id="-22" lat="30.300608" lon="-97.772322" changeset="false"><tag k="addr:street" v="Tarryhill Place"/><tag k="addr:housenumber" v="2500"/><tag k="addr:postcode" v="78703"/></node><node id="-23" lat="30.301831" lon="-97.780189" changeset="false"><tag k="addr:street" v="Matthews Drive"/><tag k="addr:housenumber" v="2110"/><tag k="addr:postcode" v="78703"/></node><node id="-24" lat="30.29991" lon="-97.773218" changeset="false"><tag k="addr:street" v="Windsor Road"/><tag k="addr:housenumber" v="3408"/><tag k="addr:postcode" v="78703"/></node><node id="-25" lat="30.301306" lon="-97.774614" changeset="false"><tag k="addr:street" v="Schulle Avenue"/><tag k="addr:housenumber" v="2501"/><tag k="addr:postcode" v="78703"/></node><node id="-26" lat="30.302732" lon="-97.779085" changeset="false"><tag k="addr:street" v="Sweetbrush Drive"/><tag k="addr:housenumber" v="2402"/><tag k="addr:postcode" v="78703"/></node><node id="-27" lat="30.303778" lon="-97.774654" changeset="false"><tag k="addr:street" v="Dali Lane"/><tag k="addr:housenumber" v="3610"/><tag k="addr:postcode" v="78703"/></node><node id="-28" lat="30.297403" lon="-97.768895" changeset="false"><tag k="addr:street" v="Windsor Road"/><tag k="addr:housenumber" v="3210"/><tag k="addr:postcode" v="78703"/></node><node id="-29" lat="30.302832" lon="-97.765441" changeset="false"><tag k="addr:street" v="Hillview Green Lane"/><tag k="addr:housenumber" v="2700"/><tag k="addr:postcode" v="78703"/></node><node id="-30" lat="30.305374" lon="-97.776215" changeset="false"><tag k="addr:street" v="El Greco Cove"/><tag k="addr:housenumber" v="2521"/><tag k="addr:postcode" v="78703"/></node><node id="-31" lat="30.305095" lon="-97.77774" changeset="false"><tag k="addr:street" v="Scenic Drive"/><tag k="addr:housenumber" v="2523"/><tag k="addr:postcode" v="78703"/></node><node id="-32" lat="30.301719" lon="-97.781135" changeset="false"><tag k="addr:street" v="Scenic Drive"/><tag k="addr:housenumber" v="2105"/><tag k="addr:postcode" v="78703"/></node><node id="-33" lat="30.301058" lon="-97.780651" changeset="false"><tag k="addr:street" v="Matthews Drive"/><tag k="addr:housenumber" v="2100"/><tag k="addr:postcode" v="78703"/></node><node id="-34" lat="30.302114" lon="-97.780725" changeset="false"><tag k="addr:street" v="Scenic Drive"/><tag k="addr:housenumber" v="2201"/><tag k="addr:postcode" v="78703"/></node><node id="-35" lat="30.303876" lon="-97.778738" changeset="false"><tag k="addr:street" v="Matthews Drive"/><tag k="addr:housenumber" v="2414"/><tag k="addr:postcode" v="78703"/></node><node id="-36" lat="30.297291" lon="-97.768757" changeset="false"><tag k="addr:street" v="Windsor Road"/><tag k="addr:housenumber" v="3208"/><tag k="addr:postcode" v="78703"/></node><node id="-37" lat="30.301313" lon="-97.775098" changeset="false"><tag k="addr:street" v="Schulle Avenue"/><tag k="addr:housenumber" v="2408"/><tag k="addr:postcode" v="78703"/></node><node id="-38" lat="30.303714" lon="-97.770103" changeset="false"><tag k="addr:street" v="Tarryhollow Drive"/><tag k="addr:housenumber" v="3235"/><tag k="addr:postcode" v="78703"/></node><node id="-39" lat="30.29929" lon="-97.767714" changeset="false"><tag k="addr:street" v="Townes Lane"/><tag k="addr:housenumber" v="2708"/><tag k="addr:postcode" v="78703"/></node><node id="-40" lat="30.305032" lon="-97.773474" changeset="false"><tag k="addr:street" v="Velasquez Drive"/><tag k="addr:housenumber" v="2604"/><tag k="addr:postcode" v="78703"/></node><node id="-41" lat="30.300395" lon="-97.771831" changeset="false"><tag k="addr:street" v="Tarryhill Place"/><tag k="addr:housenumber" v="2501"/><tag k="addr:postcode" v="78703"/></node><node id="-42" lat="30.304421" lon="-97.767472" changeset="false"><tag k="addr:street" v="Maria Anna Road"/><tag k="addr:housenumber" v="2611"/><tag k="addr:postcode" v="78703"/></node><node id="-43" lat="30.299193" lon="-97.767547" changeset="false"><tag k="addr:street" v="Townes Lane"/><tag k="addr:housenumber" v="2706"/><tag k="addr:postcode" v="78703"/></node><node id="-44" lat="30.305084" lon="-97.774227" changeset="false"><tag k="addr:street" v="Murillo Circle"/><tag k="addr:housenumber" v="3609"/><tag k="addr:postcode" v="78703"/></node><node id="-45" lat="30.305091" lon="-97.776126" changeset="false"><tag k="addr:street" v="El Greco Cove"/><tag k="addr:housenumber" v="2520"/><tag k="addr:postcode" v="78703"/></node><node id="-46" lat="30.297624" lon="-97.767833" changeset="false"><tag k="addr:street" v="Exposition Boulevard"/><tag k="addr:housenumber" v="2406"/><tag k="addr:postcode" v="78703"/></node><node id="-47" lat="30.304719" lon="-97.777125" changeset="false"><tag k="addr:street" v="Matthews Drive"/><tag k="addr:housenumber" v="2509"/><tag k="addr:postcode" v="78703"/></node><node id="-48" lat="30.303292" lon="-97.768241" changeset="false"><tag k="addr:street" v="Tarryhollow Drive"/><tag k="addr:housenumber" v="3212"/><tag k="addr:postcode" v="78703"/></node><node id="-49" lat="30.303162" lon="-97.770945" changeset="false"><tag k="addr:street" v="Pecos Street"/><tag k="addr:housenumber" v="2600"/><tag k="addr:postcode" v="78703"/></node><node id="-50" lat="30.299618" lon="-97.770718" changeset="false"><tag k="addr:street" v="Bowman Avenue"/><tag k="addr:housenumber" v="3006"/><tag k="addr:postcode" v="78703"/></node><node id="-51" lat="30.305209" lon="-97.777332" changeset="false"><tag k="addr:street" v="Scenic Drive"/><tag k="addr:housenumber" v="2525"/><tag k="addr:postcode" v="78703"/></node><node id="-52" lat="30.300504" lon="-97.774461" changeset="false"><tag k="addr:street" v="Windsor Road"/><tag k="addr:housenumber" v="3504"/><tag k="addr:postcode" v="78703"/></node><node id="-53" lat="30.304046" lon="-97.77036" changeset="false"><tag k="addr:street" v="Pecos Street"/><tag k="addr:housenumber" v="2608"/><tag k="addr:postcode" v="78703"/></node><node id="-54" lat="30.305411" lon="-97.773008" changeset="false"><tag k="addr:street" v="Velasquez Drive"/><tag k="addr:housenumber" v="2606"/><tag k="addr:postcode" v="78703"/></node><node id="-55" lat="30.304637" lon="-97.769315" changeset="false"><tag k="addr:street" v="Maria Anna Road"/><tag k="addr:housenumber" v="2618"/><tag k="addr:postcode" v="78703"/></node><node id="-56" lat="30.304927" lon="-97.770404" changeset="false"><tag k="addr:street" v="Pecos Street"/><tag k="addr:housenumber" v="2614"/><tag k="addr:postcode" v="78703"/></node><node id="-57" lat="30.305354" lon="-97.777546" changeset="false"><tag k="addr:street" v="Scenic Drive"/><tag k="addr:housenumber" v="2515"/><tag k="addr:postcode" v="78703"/></node><node id="-58" lat="30.300819" lon="-97.766297" changeset="false"><tag k="addr:street" v="Greenlee Drive"/><tag k="addr:housenumber" v="2704"/><tag k="addr:postcode" v="78703"/></node><node id="-59" lat="30.299593" lon="-97.772916" changeset="false"><tag k="addr:street" v="Windsor Road"/><tag k="addr:housenumber" v="3406"/><tag k="addr:postcode" v="78703"/></node><node id="-60" lat="30.303697" lon="-97.774726" changeset="false"><tag k="addr:street" v="Dali Lane"/><tag k="addr:housenumber" v="3613"/><tag k="addr:postcode" v="78703"/></node><node id="-61" lat="30.303376" lon="-97.779184" changeset="false"><tag k="addr:street" v="Matthews Drive"/><tag k="addr:housenumber" v="2402"/><tag k="addr:postcode" v="78703"/></node><node id="-62" lat="30.304801" lon="-97.777633" changeset="false"><tag k="addr:street" v="Matthews Drive"/><tag k="addr:housenumber" v="2518"/><tag k="addr:postcode" v="78703"/></node><node id="-63" lat="30.29745" lon="-97.767953" changeset="false"><tag k="addr:street" v="Exposition Boulevard"/><tag k="addr:housenumber" v="2404"/><tag k="addr:postcode" v="78703"/></node><node id="-64" lat="30.304588" lon="-97.77368" changeset="false"><tag k="addr:street" v="Velasquez Drive"/><tag k="addr:housenumber" v="2600"/><tag k="addr:postcode" v="78703"/></node><node id="-65" lat="30.303106" lon="-97.76886" changeset="false"><tag k="addr:street" v="Tarryhollow Drive"/><tag k="addr:housenumber" v="3217"/><tag k="addr:postcode" v="78703"/></node><node id="-66" lat="30.305063" lon="-97.775258" changeset="false"><tag k="addr:street" v="El Greco Cove"/><tag k="addr:housenumber" v="2513"/><tag k="addr:postcode" v="78703"/></node><node id="-67" lat="30.30521" lon="-97.774901" changeset="false"><tag k="addr:street" v="El Greco Cove"/><tag k="addr:housenumber" v="2511"/><tag k="addr:postcode" v="78703"/></node><node id="-68" lat="30.305167" lon="-97.77332" changeset="false"><tag k="addr:street" v="Velasquez Drive"/><tag k="addr:housenumber" v="2602"/><tag k="addr:postcode" v="78703"/></node><node id="-69" lat="30.303001" lon="-97.766091" changeset="false"><tag k="addr:street" v="Hillview Green Lane"/><tag k="addr:housenumber" v="2712"/><tag k="addr:postcode" v="78703"/></node><node id="-70" lat="30.303002" lon="-97.76598" changeset="false"><tag k="addr:street" v="Hillview Green Lane"/><tag k="addr:housenumber" v="2710"/><tag k="addr:postcode" v="78703"/></node><node id="-71" lat="30.302529" lon="-97.765712" changeset="false"><tag k="addr:street" v="Hillview Green Lane"/><tag k="addr:housenumber" v="2707"/><tag k="addr:postcode" v="78703"/></node><node id="-72" lat="30.302511" lon="-97.765898" changeset="false"><tag k="addr:street" v="Hillview Green Lane"/><tag k="addr:housenumber" v="2709"/><tag k="addr:postcode" v="78703"/></node><node id="-73" lat="30.302588" lon="-97.7648" changeset="false"><tag k="addr:street" v="Exposition Boulevard"/><tag k="addr:housenumber" v="2636"/><tag k="addr:postcode" v="78703"/></node><node id="-74" lat="30.302936" lon="-97.764611" changeset="false"><tag k="addr:street" v="Exposition Boulevard"/><tag k="addr:housenumber" v="2630"/><tag k="addr:postcode" v="78703"/></node><node id="-75" lat="30.302573" lon="-97.765432" changeset="false"><tag k="addr:street" v="Hillview Green Lane"/><tag k="addr:housenumber" v="2703"/><tag k="addr:postcode" v="78703"/></node><node id="-76" lat="30.302546" lon="-97.765599" changeset="false"><tag k="addr:street" v="Hillview Green Lane"/><tag k="addr:housenumber" v="2705"/><tag k="addr:postcode" v="78703"/></node><node id="-77" lat="30.302747" lon="-97.76604" changeset="false"><tag k="addr:street" v="Hillview Green Lane"/><tag k="addr:housenumber" v="2715"/><tag k="addr:postcode" v="78703"/></node><node id="-78" lat="30.302577" lon="-97.76606" changeset="false"><tag k="addr:street" v="Hillview Green Lane"/><tag k="addr:housenumber" v="2711"/><tag k="addr:postcode" v="78703"/></node><node id="-79" lat="30.30296" lon="-97.76623" changeset="false"><tag k="addr:street" v="Hillview Green Lane"/><tag k="addr:housenumber" v="2714"/><tag k="addr:postcode" v="78703"/></node><node id="-80" lat="30.302905" lon="-97.76637" changeset="false"><tag k="addr:street" v="Hillview Green Lane"/><tag k="addr:housenumber" v="2716"/><tag k="addr:postcode" v="78703"/></node><node id="-81" lat="30.298649" lon="-97.767259" changeset="false"><tag k="addr:street" v="Exposition Boulevard"/><tag k="addr:housenumber" v="2508"/><tag k="addr:postcode" v="78703"/></node><node id="-82" lat="30.298715" lon="-97.767405" changeset="false"><tag k="addr:street" v="Townes Lane"/><tag k="addr:housenumber" v="2701"/><tag k="addr:postcode" v="78703"/></node><node id="-83" lat="30.302887" lon="-97.768057" changeset="false"><tag k="addr:street" v="Tarryhollow Drive"/><tag k="addr:housenumber" v="3209"/><tag k="addr:postcode" v="78703"/></node><node id="-84" lat="30.302835" lon="-97.767949" changeset="false"><tag k="addr:street" v="Tarryhollow Drive"/><tag k="addr:housenumber" v="3207"/><tag k="addr:postcode" v="78703"/></node><node id="-85" lat="30.302933" lon="-97.768164" changeset="false"><tag k="addr:street" v="Tarryhollow Drive"/><tag k="addr:housenumber" v="3211"/><tag k="addr:postcode" v="78703"/></node><node id="-86" lat="30.302764" lon="-97.767851" changeset="false"><tag k="addr:street" v="Tarryhollow Drive"/><tag k="addr:housenumber" v="3205"/><tag k="addr:postcode" v="78703"/></node><node id="-87" lat="30.303058" lon="-97.768484" changeset="false"><tag k="addr:street" v="Tarryhollow Drive"/><tag k="addr:housenumber" v="3215"/><tag k="addr:postcode" v="78703"/></node><node id="-88" lat="30.302978" lon="-97.768335" changeset="false"><tag k="addr:street" v="Tarryhollow Drive"/><tag k="addr:housenumber" v="3213"/><tag k="addr:postcode" v="78703"/></node><node id="-89" lat="30.303935" lon="-97.769739" changeset="false"><tag k="addr:street" v="Tarryhollow Drive"/><tag k="addr:housenumber" v="3232"/><tag k="addr:postcode" v="78703"/></node><node id="-90" lat="30.303998" lon="-97.769861" changeset="false"><tag k="addr:street" v="Tarryhollow Drive"/><tag k="addr:housenumber" v="3234"/><tag k="addr:postcode" v="78703"/></node><node id="-91" lat="30.303872" lon="-97.769615" changeset="false"><tag k="addr:street" v="Tarryhollow Drive"/><tag k="addr:housenumber" v="3230"/><tag k="addr:postcode" v="78703"/></node><node id="-92" lat="30.303428" lon="-97.768695" changeset="false"><tag k="addr:street" v="Tarryhollow Drive"/><tag k="addr:housenumber" v="3216"/><tag k="addr:postcode" v="78703"/></node><node id="-93" lat="30.303359" lon="-97.768551" changeset="false"><tag k="addr:street" v="Tarryhollow Drive"/><tag k="addr:housenumber" v="3214"/><tag k="addr:postcode" v="78703"/></node><node id="-94" lat="30.303474" lon="-97.768838" changeset="false"><tag k="addr:street" v="Tarryhollow Drive"/><tag k="addr:housenumber" v="3218"/><tag k="addr:postcode" v="78703"/></node><node id="-95" lat="30.303519" lon="-97.769834" changeset="false"><tag k="addr:street" v="Tarryhollow Drive"/><tag k="addr:housenumber" v="3231"/><tag k="addr:postcode" v="78703"/></node><node id="-96" lat="30.303642" lon="-97.769784" changeset="false"><tag k="addr:street" v="Tarryhollow Drive"/><tag k="addr:housenumber" v="3233"/><tag k="addr:postcode" v="78703"/></node><node id="-97" lat="30.303578" lon="-97.769051" changeset="false"><tag k="addr:street" v="Tarryhollow Drive"/><tag k="addr:housenumber" v="3222"/><tag k="addr:postcode" v="78703"/></node><node id="-98" lat="30.303632" lon="-97.769177" changeset="false"><tag k="addr:street" v="Tarryhollow Drive"/><tag k="addr:housenumber" v="3224"/><tag k="addr:postcode" v="78703"/></node><node id="-99" lat="30.303715" lon="-97.769328" changeset="false"><tag k="addr:street" v="Tarryhollow Drive"/><tag k="addr:housenumber" v="3226"/><tag k="addr:postcode" v="78703"/></node><node id="-100" lat="30.303781" lon="-97.769457" changeset="false"><tag k="addr:street" v="Tarryhollow Drive"/><tag k="addr:housenumber" v="3228"/><tag k="addr:postcode" v="78703"/></node><node id="-101" lat="30.303339" lon="-97.769235" changeset="false"><tag k="addr:street" v="Tarryhollow Drive"/><tag k="addr:housenumber" v="3225"/><tag k="addr:postcode" v="78703"/></node><node id="-102" lat="30.303267" lon="-97.769328" changeset="false"><tag k="addr:street" v="Tarryhollow Drive"/><tag k="addr:housenumber" v="3227"/><tag k="addr:postcode" v="78703"/></node><node id="-103" lat="30.304858" lon="-97.774014" changeset="false"><tag k="addr:street" v="Murillo Circle"/><tag k="addr:housenumber" v="3612"/><tag k="addr:postcode" v="78703"/></node><node id="-104" lat="30.304862" lon="-97.773874" changeset="false"><tag k="addr:street" v="Murillo Circle"/><tag k="addr:housenumber" v="3602"/><tag k="addr:postcode" v="78703"/></node></osm>