<?xml version="1.0" encoding="UTF-8"?><osm version="0.6" generator="github.com/aaronlidman/osm-and-geojson"><node id="-1" lat="30.271636" lon="-98.053098" changeset="false"><tag k="addr:street" v="Panorama Drive"/><tag k="addr:housenumber" v="17607"/><tag k="coa:place_id" v="3113361"/></node><node id="-2" lat="30.272911" lon="-98.055645" changeset="false"><tag k="addr:street" v="Mason Dixon Circle"/><tag k="addr:housenumber" v="17811"/><tag k="coa:place_id" v="1148236"/></node><node id="-3" lat="30.271195" lon="-98.053755" changeset="false"><tag k="addr:street" v="Panorama Drive"/><tag k="addr:housenumber" v="17525"/><tag k="coa:place_id" v="3113347"/></node><node id="-4" lat="30.267608" lon="-98.048678" changeset="false"><tag k="addr:street" v="Panorama Drive"/><tag k="addr:housenumber" v="17207"/><tag k="coa:place_id" v="3113267"/></node><node id="-5" lat="30.26402" lon="-98.042685" changeset="false"><tag k="addr:street" v="Bonham Ranch Road"/><tag k="addr:housenumber" v="11041"/><tag k="coa:place_id" v="1148246"/></node><node id="-6" lat="30.271062" lon="-98.053507" changeset="false"><tag k="addr:street" v="Panorama Drive"/><tag k="addr:housenumber" v="17523"/><tag k="coa:place_id" v="3113346"/></node><node id="-7" lat="30.261466" lon="-98.039132" changeset="false"><tag k="addr:street" v="Bonham Ranch Road"/><tag k="addr:housenumber" v="11162"/><tag k="coa:place_id" v="3381990"/></node><node id="-8" lat="30.276037" lon="-98.064396" changeset="false"><tag k="addr:street" v="West Cave Crossing"/><tag k="addr:housenumber" v="10807"/><tag k="coa:place_id" v="3200292"/></node><node id="-9" lat="30.276798" lon="-98.062085" changeset="false"><tag k="addr:street" v="West Cave Loop"/><tag k="addr:housenumber" v="10708"/><tag k="coa:place_id" v="3200296"/></node><node id="-10" lat="30.259844" lon="-98.03722" changeset="false"><tag k="addr:street" v="Bonham Ranch Road"/><tag k="addr:housenumber" v="11201"/><tag k="coa:place_id" v="1149189"/></node><node id="-11" lat="30.262556" lon="-98.041735" changeset="false"><tag k="addr:street" v="Bonham Ranch Road"/><tag k="addr:housenumber" v="11114"/><tag k="coa:place_id" v="3381987"/></node><node id="-12" lat="30.266698" lon="-98.047595" changeset="false"><tag k="addr:street" v="Panorama Drive"/><tag k="addr:housenumber" v="17200"/><tag k="coa:place_id" v="3113254"/></node><node id="-13" lat="30.271412" lon="-98.053757" changeset="false"><tag k="addr:street" v="Panorama Drive"/><tag k="addr:housenumber" v="17601"/><tag k="coa:place_id" v="3113358"/></node><node id="-14" lat="30.268564" lon="-98.050057" changeset="false"><tag k="addr:street" v="Panorama Drive"/><tag k="addr:housenumber" v="17311"/><tag k="coa:place_id" v="3113275"/></node><node id="-15" lat="30.275357" lon="-98.058714" changeset="false"><tag k="addr:street" v="West Cave Boulevard"/><tag k="addr:housenumber" v="10950"/><tag k="coa:place_id" v="1148260"/></node><node id="-16" lat="30.27413" lon="-98.05828" changeset="false"><tag k="addr:street" v="West Cave Boulevard"/><tag k="addr:housenumber" v="10960"/><tag k="coa:place_id" v="1148270"/></node><node id="-17" lat="30.269818" lon="-98.051798" changeset="false"><tag k="addr:street" v="Panorama Drive"/><tag k="addr:housenumber" v="17503"/><tag k="coa:place_id" v="3113336"/></node><node id="-18" lat="30.2675" lon="-98.048513" changeset="false"><tag k="addr:street" v="Panorama Drive"/><tag k="addr:housenumber" v="17205"/><tag k="coa:place_id" v="3113266"/></node><node id="-19" lat="30.268335" lon="-98.049718" changeset="false"><tag k="addr:street" v="Panorama Drive"/><tag k="addr:housenumber" v="17307"/><tag k="coa:place_id" v="3113273"/></node><node id="-20" lat="30.269261" lon="-98.050944" changeset="false"><tag k="addr:street" v="Panorama Drive"/><tag k="addr:housenumber" v="17407"/><tag k="coa:place_id" v="3113323"/></node><node id="-21" lat="30.267257" lon="-98.048128" changeset="false"><tag k="addr:street" v="Panorama Drive"/><tag k="addr:housenumber" v="17201"/><tag k="coa:place_id" v="3257890"/></node><node id="-22" lat="30.270095" lon="-98.0521" changeset="false"><tag k="addr:street" v="Panorama Drive"/><tag k="addr:housenumber" v="17507"/><tag k="coa:place_id" v="3113338"/></node><node id="-23" lat="30.268933" lon="-98.050541" changeset="false"><tag k="addr:street" v="Panorama Drive"/><tag k="addr:housenumber" v="17403"/><tag k="coa:place_id" v="3113321"/></node><node id="-24" lat="30.26845" lon="-98.049916" changeset="false"><tag k="addr:street" v="Panorama Drive"/><tag k="addr:housenumber" v="17309"/><tag k="coa:place_id" v="3113274"/></node><node id="-25" lat="30.267985" lon="-98.04919" changeset="false"><tag k="addr:street" v="Panorama Drive"/><tag k="addr:housenumber" v="17301"/><tag k="coa:place_id" v="3113270"/></node><node id="-26" lat="30.276174" lon="-98.059886" changeset="false"><tag k="addr:street" v="West Cave Boulevard"/><tag k="addr:housenumber" v="10943"/><tag k="coa:place_id" v="1148254"/></node><node id="-27" lat="30.264712" lon="-98.044655" changeset="false"><tag k="addr:street" v="Bonham Ranch Road"/><tag k="addr:housenumber" v="11022"/><tag k="coa:place_id" v="1148245"/></node><node id="-28" lat="30.259187" lon="-98.037901" changeset="false"><tag k="addr:street" v="Bonham Ranch Road"/><tag k="addr:housenumber" v="11211"/><tag k="coa:place_id" v="1149193"/></node><node id="-29" lat="30.271542" lon="-98.053714" changeset="false"><tag k="addr:street" v="Panorama Drive"/><tag k="addr:housenumber" v="17603"/><tag k="coa:place_id" v="3113359"/></node><node id="-30" lat="30.277008" lon="-98.060444" changeset="false"><tag k="addr:street" v="West Cave Loop"/><tag k="addr:housenumber" v="10612"/><tag k="coa:place_id" v="3200285"/></node><node id="-31" lat="30.261974" lon="-98.040166" changeset="false"><tag k="addr:street" v="Bonham Ranch Road"/><tag k="addr:housenumber" v="11134"/><tag k="coa:place_id" v="3381989"/></node><node id="-32" lat="30.270446" lon="-98.052594" changeset="false"><tag k="addr:street" v="Panorama Drive"/><tag k="addr:housenumber" v="17513"/><tag k="coa:place_id" v="3113341"/></node><node id="-33" lat="30.270225" lon="-98.052243" changeset="false"><tag k="addr:street" v="Panorama Drive"/><tag k="addr:housenumber" v="17509"/><tag k="coa:place_id" v="3113339"/></node><node id="-34" lat="30.269953" lon="-98.051947" changeset="false"><tag k="addr:street" v="Panorama Drive"/><tag k="addr:housenumber" v="17505"/><tag k="coa:place_id" v="3113337"/></node><node id="-35" lat="30.275994" lon="-98.060437" changeset="false"><tag k="addr:street" v="West Cave Boulevard"/><tag k="addr:housenumber" v="10939"/><tag k="coa:place_id" v="1148257"/></node><node id="-36" lat="30.270884" lon="-98.053135" changeset="false"><tag k="addr:street" v="Panorama Drive"/><tag k="addr:housenumber" v="17519"/><tag k="coa:place_id" v="3113344"/></node><node id="-37" lat="30.26783" lon="-98.049073" changeset="false"><tag k="addr:street" v="Panorama Drive"/><tag k="addr:housenumber" v="17211"/><tag k="coa:place_id" v="3113269"/></node><node id="-38" lat="30.269437" lon="-98.051286" changeset="false"><tag k="addr:street" v="Panorama Drive"/><tag k="addr:housenumber" v="17411"/><tag k="coa:place_id" v="3113332"/></node><node id="-39" lat="30.275238" lon="-98.059415" changeset="false"><tag k="addr:street" v="West Cave Boulevard"/><tag k="addr:housenumber" v="10946"/><tag k="coa:place_id" v="1148262"/></node><node id="-40" lat="30.270609" lon="-98.052765" changeset="false"><tag k="addr:street" v="Panorama Drive"/><tag k="addr:housenumber" v="17515"/><tag k="coa:place_id" v="3113342"/></node><node id="-41" lat="30.269113" lon="-98.050763" changeset="false"><tag k="addr:street" v="Panorama Drive"/><tag k="addr:housenumber" v="17405"/><tag k="coa:place_id" v="3113322"/></node><node id="-42" lat="30.252291" lon="-98.026727" changeset="false"><tag k="addr:street" v="Crumley Ranch Road"/><tag k="addr:housenumber" v="11400"/><tag k="coa:place_id" v="5096046"/></node><node id="-43" lat="30.268086" lon="-98.049388" changeset="false"><tag k="addr:street" v="Panorama Drive"/><tag k="addr:housenumber" v="17303"/><tag k="coa:place_id" v="3113271"/></node><node id="-44" lat="30.278843" lon="-98.063875" changeset="false"><tag k="addr:street" v="West Cave Loop"/><tag k="addr:housenumber" v="10821"/><tag k="coa:place_id" v="3200419"/></node><node id="-45" lat="30.269351" lon="-98.051067" changeset="false"><tag k="addr:street" v="Panorama Drive"/><tag k="addr:housenumber" v="17409"/><tag k="coa:place_id" v="3113331"/></node><node id="-46" lat="30.272547" lon="-98.056255" changeset="false"><tag k="addr:street" v="Mason Dixon Circle"/><tag k="addr:housenumber" v="17815"/><tag k="coa:place_id" v="3200275"/></node><node id="-47" lat="30.260475" lon="-98.038856" changeset="false"><tag k="addr:street" v="Bonham Ranch Road"/><tag k="addr:housenumber" v="11190"/><tag k="coa:place_id" v="3381991"/></node><node id="-48" lat="30.27572" lon="-98.064844" changeset="false"><tag k="addr:street" v="West Cave Crossing"/><tag k="addr:housenumber" v="10901"/><tag k="coa:place_id" v="3200293"/></node><node id="-49" lat="30.269663" lon="-98.051621" changeset="false"><tag k="addr:street" v="Panorama Drive"/><tag k="addr:housenumber" v="17501"/><tag k="coa:place_id" v="3113335"/></node><node id="-50" lat="30.263463" lon="-98.043333" changeset="false"><tag k="addr:street" v="Bonham Ranch Road"/><tag k="addr:housenumber" v="11050"/><tag k="coa:place_id" v="3381992"/></node><node id="-51" lat="30.27034" lon="-98.052435" changeset="false"><tag k="addr:street" v="Panorama Drive"/><tag k="addr:housenumber" v="17511"/><tag k="coa:place_id" v="3113340"/></node><node id="-52" lat="30.262129" lon="-98.040419" changeset="false"><tag k="addr:street" v="Bonham Ranch Road"/><tag k="addr:housenumber" v="11124"/><tag k="coa:place_id" v="3381988"/></node><node id="-53" lat="30.278918" lon="-98.06484" changeset="false"><tag k="addr:street" v="West Cave Loop"/><tag k="addr:housenumber" v="10820"/><tag k="coa:place_id" v="3200413"/></node><node id="-54" lat="30.276827" lon="-98.061017" changeset="false"><tag k="addr:street" v="West Cave Loop"/><tag k="addr:housenumber" v="10616"/><tag k="coa:place_id" v="3200286"/></node><node id="-55" lat="30.274729" lon="-98.058231" changeset="false"><tag k="addr:street" v="Montecito Boulevard"/><tag k="addr:housenumber" v="18000"/><tag k="coa:place_id" v="1148265"/></node><node id="-56" lat="30.262861" lon="-98.042308" changeset="false"><tag k="addr:street" v="Bonham Ranch Road"/><tag k="addr:housenumber" v="11110"/><tag k="coa:place_id" v="3381994"/></node><node id="-57" lat="30.268858" lon="-98.050382" changeset="false"><tag k="addr:street" v="Panorama Drive"/><tag k="addr:housenumber" v="17401"/><tag k="coa:place_id" v="3113320"/></node><node id="-58" lat="30.273396" lon="-98.056737" changeset="false"><tag k="addr:street" v="Mason Dixon Circle"/><tag k="addr:housenumber" v="17814"/><tag k="coa:place_id" v="1148232"/></node><node id="-59" lat="30.268705" lon="-98.050214" changeset="false"><tag k="addr:street" v="Panorama Drive"/><tag k="addr:housenumber" v="17313"/><tag k="coa:place_id" v="3113276"/></node><node id="-60" lat="30.27441" lon="-98.05818" changeset="false"><tag k="addr:street" v="Montecito Boulevard"/><tag k="addr:housenumber" v="18001"/><tag k="coa:place_id" v="1148268"/></node><node id="-61" lat="30.274224" lon="-98.057575" changeset="false"><tag k="addr:street" v="Turkey Trot Trail"/><tag k="addr:housenumber" v="17900"/><tag k="coa:place_id" v="1148271"/></node><node id="-62" lat="30.258663" lon="-98.041031" changeset="false"><tag k="addr:street" v="Bonham Ranch Road"/><tag k="addr:housenumber" v="11300"/><tag k="coa:place_id" v="1149195"/></node><node id="-63" lat="30.266912" lon="-98.047462" changeset="false"><tag k="addr:street" v="Panorama Drive"/><tag k="addr:housenumber" v="17202"/><tag k="coa:place_id" v="3113252"/></node><node id="-64" lat="30.273507" lon="-98.055928" changeset="false"><tag k="addr:street" v="Mason Dixon Circle"/><tag k="addr:housenumber" v="17810"/><tag k="coa:place_id" v="1148234"/></node><node id="-65" lat="30.269534" lon="-98.051474" changeset="false"><tag k="addr:street" v="Panorama Drive"/><tag k="addr:housenumber" v="17413"/><tag k="coa:place_id" v="3113333"/></node><node id="-66" lat="30.275704" lon="-98.06095" changeset="false"><tag k="addr:street" v="West Cave Boulevard"/><tag k="addr:housenumber" v="10935"/><tag k="coa:place_id" v="3257948"/></node><node id="-67" lat="30.267427" lon="-98.048314" changeset="false"><tag k="addr:street" v="Panorama Drive"/><tag k="addr:housenumber" v="17203"/><tag k="coa:place_id" v="3113264"/></node><node id="-68" lat="30.270809" lon="-98.05292" changeset="false"><tag k="addr:street" v="Panorama Drive"/><tag k="addr:housenumber" v="17517"/><tag k="coa:place_id" v="3113343"/></node></osm>