<?xml version="1.0" encoding="UTF-8"?><osm version="0.6" generator="github.com/aaronlidman/osm-and-geojson"><node id="-1" lat="30.307593" lon="-97.945913" changeset="false"><tag k="addr:street" v="Shops Parkway"/><tag k="addr:housenumber" v="13015"/><tag k="coa:place_id" v="3152777"/></node><node id="-2" lat="30.306999" lon="-97.945733" changeset="false"><tag k="addr:street" v="Shops Parkway"/><tag k="addr:housenumber" v="13011"/><tag k="coa:place_id" v="3152776"/></node><node id="-3" lat="30.305751" lon="-97.939908" changeset="false"><tag k="addr:street" v="Shops Parkway"/><tag k="addr:housenumber" v="12700"/><tag k="coa:place_id" v="3152755"/></node><node id="-4" lat="30.305259" lon="-97.942448" changeset="false"><tag k="addr:street" v="Shops Parkway"/><tag k="addr:housenumber" v="12815"/><tag k="coa:place_id" v="3152764"/></node><node id="-5" lat="30.306199" lon="-97.94183" changeset="false"><tag k="addr:street" v="Shops Parkway"/><tag k="addr:housenumber" v="12812"/><tag k="coa:place_id" v="3152763"/></node><node id="-6" lat="30.307445" lon="-98.03132" changeset="false"><tag k="addr:street" v="Hamilton Pool Road"/><tag k="addr:housenumber" v="17024"/><tag k="coa:place_id" v="3210353"/></node><node id="-7" lat="30.287705" lon="-97.942681" changeset="false"><tag k="addr:street" v="Spanish Oaks Club Boulevard"/><tag k="addr:housenumber" v="5408"/><tag k="coa:place_id" v="3215235"/></node><node id="-8" lat="30.289018" lon="-98.030152" changeset="false"><tag k="addr:street" v="Rush Pea Circle"/><tag k="addr:housenumber" v="17116"/><tag k="coa:place_id" v="3429768"/></node><node id="-9" lat="30.288217" lon="-98.028915" changeset="false"><tag k="addr:street" v="Rush Pea Circle"/><tag k="addr:housenumber" v="17305"/><tag k="coa:place_id" v="3429780"/></node><node id="-10" lat="30.288814" lon="-98.029762" changeset="false"><tag k="addr:street" v="Rush Pea Circle"/><tag k="addr:housenumber" v="17204"/><tag k="coa:place_id" v="3429770"/></node><node id="-11" lat="30.288932" lon="-98.029963" changeset="false"><tag k="addr:street" v="Rush Pea Circle"/><tag k="addr:housenumber" v="17200"/><tag k="coa:place_id" v="3429769"/></node><node id="-12" lat="30.289179" lon="-98.030459" changeset="false"><tag k="addr:street" v="Rush Pea Circle"/><tag k="addr:housenumber" v="17112"/><tag k="coa:place_id" v="3429767"/></node><node id="-13" lat="30.289277" lon="-98.034154" changeset="false"><tag k="addr:street" v="Wildrye Drive"/><tag k="addr:housenumber" v="17309"/><tag k="coa:place_id" v="3429653"/></node><node id="-14" lat="30.289154" lon="-98.034827" changeset="false"><tag k="addr:street" v="Wildrye Drive"/><tag k="addr:housenumber" v="17316"/><tag k="coa:place_id" v="3429658"/></node><node id="-15" lat="30.289907" lon="-98.035707" changeset="false"><tag k="addr:street" v="Geranium Cove"/><tag k="addr:housenumber" v="8908"/><tag k="coa:place_id" v="3429700"/></node><node id="-16" lat="30.288924" lon="-98.035874" changeset="false"><tag k="addr:street" v="Geranium Cove"/><tag k="addr:housenumber" v="8917"/><tag k="coa:place_id" v="3429706"/></node><node id="-17" lat="30.288804" lon="-98.036714" changeset="false"><tag k="addr:street" v="Wildrye Drive"/><tag k="addr:housenumber" v="17609"/><tag k="coa:place_id" v="3429686"/></node></osm>