<?xml version="1.0" encoding="UTF-8"?><osm version="0.6" generator="github.com/aaronlidman/osm-and-geojson"><node id="-1" lat="30.291574" lon="-97.676505" changeset="false"><tag k="addr:street" v="Single Shot Circle"/><tag k="addr:housenumber" v="4904"/><tag k="coa:place_id" v="58670"/></node><node id="-2" lat="30.28867" lon="-97.677701" changeset="false"><tag k="addr:street" v="Bundyhill Drive"/><tag k="addr:housenumber" v="4704"/><tag k="coa:place_id" v="3084826"/></node><node id="-3" lat="30.291838" lon="-97.677288" changeset="false"><tag k="addr:street" v="Single Shot Circle"/><tag k="addr:housenumber" v="5109"/><tag k="coa:place_id" v="58660"/></node><node id="-4" lat="30.305252" lon="-97.669993" changeset="false"><tag k="addr:street" v="Springdale Road"/><tag k="addr:housenumber" v="6211 1/2"/><tag k="coa:place_id" v="3135700"/></node><node id="-5" lat="30.292447" lon="-97.676936" changeset="false"><tag k="addr:street" v="Single Shot Circle"/><tag k="addr:housenumber" v="5101"/><tag k="coa:place_id" v="58656"/></node><node id="-6" lat="30.287843" lon="-97.669928" changeset="false"><tag k="addr:street" v="Eastdale Drive"/><tag k="addr:housenumber" v="4900"/><tag k="coa:place_id" v="234728"/></node><node id="-7" lat="30.29228" lon="-97.677004" changeset="false"><tag k="addr:street" v="Single Shot Circle"/><tag k="addr:housenumber" v="5103"/><tag k="coa:place_id" v="58657"/></node><node id="-8" lat="30.291979" lon="-97.677197" changeset="false"><tag k="addr:street" v="Single Shot Circle"/><tag k="addr:housenumber" v="5107"/><tag k="coa:place_id" v="58659"/></node><node id="-9" lat="30.290098" lon="-97.677628" changeset="false"><tag k="addr:street" v="Single Shot Circle"/><tag k="addr:housenumber" v="4800"/><tag k="coa:place_id" v="443998"/></node><node id="-10" lat="30.29326" lon="-97.672957" changeset="false"><tag k="addr:street" v="East 51st Street"/><tag k="addr:housenumber" v="5101 1/2"/><tag k="coa:place_id" v="3213962"/></node><node id="-11" lat="30.30403" lon="-97.668055" changeset="false"><tag k="addr:street" v="Springdale Road"/><tag k="addr:housenumber" v="6201 1/2"/><tag k="coa:place_id" v="3691961"/></node><node id="-12" lat="30.29463" lon="-97.675335" changeset="false"><tag k="addr:street" v="East 51st Street"/><tag k="addr:housenumber" v="4800"/><tag k="coa:place_id" v="5118579"/></node><node id="-13" lat="30.292149" lon="-97.678083" changeset="false"><tag k="addr:street" v="Springdale Road"/><tag k="addr:housenumber" v="4907"/><tag k="coa:place_id" v="1157827"/></node><node id="-14" lat="30.288038" lon="-97.669898" changeset="false"><tag k="addr:street" v="Eastdale Drive"/><tag k="addr:housenumber" v="4902"/><tag k="coa:place_id" v="234722"/></node><node id="-15" lat="30.292131" lon="-97.677096" changeset="false"><tag k="addr:street" v="Single Shot Circle"/><tag k="addr:housenumber" v="5105"/><tag k="coa:place_id" v="58658"/></node><node id="-16" lat="30.289546" lon="-97.680072" changeset="false"><tag k="addr:street" v="Springdale Road"/><tag k="addr:housenumber" v="4615"/><tag k="coa:place_id" v="455210"/></node><node id="-17" lat="30.298279" lon="-97.674395" changeset="false"><tag k="addr:street" v="Springdale Road"/><tag k="addr:housenumber" v="5521"/><tag k="coa:place_id" v="3040835"/></node><node id="-18" lat="30.287502" lon="-97.681448" changeset="false"><tag k="addr:street" v="Springdale Road"/><tag k="addr:housenumber" v="4501"/><tag k="coa:place_id" v="175233"/></node><node id="-19" lat="30.306429" lon="-97.66943" changeset="false"><tag k="addr:street" v="Springdale Road"/><tag k="addr:housenumber" v="6407"/><tag k="coa:place_id" v="1002063"/></node><node id="-20" lat="30.292482" lon="-97.666054" changeset="false"><tag k="addr:street" v="East 51st Street"/><tag k="addr:housenumber" v="5525"/><tag k="coa:place_id" v="3368052"/></node><node id="-21" lat="30.286376" lon="-97.667325" changeset="false"><tag k="addr:street" v="East Martin Luther King Jr Boulevard"/><tag k="addr:housenumber" v="5800"/><tag k="coa:place_id" v="135018"/></node><node id="-22" lat="30.291013" lon="-97.669896" changeset="false"><tag k="addr:street" v="Tower Trail"/><tag k="addr:housenumber" v="5228"/><tag k="coa:place_id" v="3200691"/></node><node id="-23" lat="30.299306" lon="-97.673688" changeset="false"><tag k="addr:street" v="Springdale Road"/><tag k="addr:housenumber" v="5605"/><tag k="coa:place_id" v="5089927"/></node><node id="-24" lat="30.293354" lon="-97.665641" changeset="false"><tag k="addr:street" v="East 51st Street"/><tag k="addr:housenumber" v="5520"/><tag k="coa:place_id" v="3073577"/></node><node id="-25" lat="30.289438" lon="-97.68002" changeset="false"><tag k="addr:street" v="Springdale Road"/><tag k="addr:housenumber" v="4613"/><tag k="coa:place_id" v="802461"/></node><node id="-26" lat="30.290175" lon="-97.677421" changeset="false"><tag k="addr:street" v="Walden Circle"/><tag k="addr:housenumber" v="4805"/><tag k="coa:place_id" v="216323"/></node><node id="-27" lat="30.290798" lon="-97.670026" changeset="false"><tag k="addr:street" v="Tower Trail"/><tag k="addr:housenumber" v="5220"/><tag k="coa:place_id" v="3200689"/></node><node id="-28" lat="30.308956" lon="-97.668418" changeset="false"><tag k="addr:street" v="Manor Road"/><tag k="addr:housenumber" v="6601"/><tag k="coa:place_id" v="1004061"/></node><node id="-29" lat="30.288164" lon="-97.669777" changeset="false"><tag k="addr:street" v="Eastdale Drive"/><tag k="addr:housenumber" v="4904"/><tag k="coa:place_id" v="234716"/></node><node id="-30" lat="30.298981" lon="-97.67389" changeset="false"><tag k="addr:street" v="Springdale Road"/><tag k="addr:housenumber" v="5601"/><tag k="coa:place_id" v="293650"/></node><node id="-31" lat="30.291179" lon="-97.679023" changeset="false"><tag k="addr:street" v="Springdale Road"/><tag k="addr:housenumber" v="4801"/><tag k="coa:place_id" v="204125"/></node><node id="-32" lat="30.288065" lon="-97.681025" changeset="false"><tag k="addr:street" v="Springdale Road"/><tag k="addr:housenumber" v="4511"/><tag k="coa:place_id" v="210559"/></node><node id="-33" lat="30.289766" lon="-97.677784" changeset="false"><tag k="addr:street" v="Walden Circle"/><tag k="addr:housenumber" v="4800"/><tag k="coa:place_id" v="58683"/></node><node id="-34" lat="30.286512" lon="-97.667784" changeset="false"><tag k="addr:street" v="East Martin Luther King Jr Boulevard"/><tag k="addr:housenumber" v="5718"/><tag k="coa:place_id" v="3545530"/></node><node id="-35" lat="30.287078" lon="-97.673366" changeset="false"><tag k="addr:street" v="York Hill Drive"/><tag k="addr:housenumber" v="4703"/><tag k="coa:place_id" v="213764"/></node><node id="-36" lat="30.304483" lon="-97.670265" changeset="false"><tag k="addr:street" v="Springdale Road"/><tag k="addr:housenumber" v="6201"/><tag k="coa:place_id" v="3278868"/></node><node id="-37" lat="30.289178" lon="-97.670932" changeset="false"><tag k="addr:street" v="York Hill Drive"/><tag k="addr:housenumber" v="4909"/><tag k="coa:place_id" v="5217007"/></node><node id="-38" lat="30.294335" lon="-97.672461" changeset="false"><tag k="addr:street" v="East 51st Street"/><tag k="addr:housenumber" v="5100"/><tag k="coa:place_id" v="3292649"/></node><node id="-39" lat="30.307142" lon="-97.669395" changeset="false"><tag k="addr:street" v="Springdale Road"/><tag k="addr:housenumber" v="6409"/><tag k="coa:place_id" v="127682"/></node><node id="-40" lat="30.288224" lon="-97.677707" changeset="false"><tag k="addr:street" v="Bundyhill Drive"/><tag k="addr:housenumber" v="4700"/><tag k="coa:place_id" v="3084823"/></node><node id="-41" lat="30.2864" lon="-97.681924" changeset="false"><tag k="addr:street" v="Springdale Road"/><tag k="addr:housenumber" v="4311"/><tag k="coa:place_id" v="696904"/></node><node id="-42" lat="30.291689" lon="-97.677379" changeset="false"><tag k="addr:street" v="Single Shot Circle"/><tag k="addr:housenumber" v="5111"/><tag k="coa:place_id" v="58661"/></node><node id="-43" lat="30.293215" lon="-97.672927" changeset="false"><tag k="addr:street" v="East 51st Street"/><tag k="addr:housenumber" v="5101"/><tag k="coa:place_id" v="189469"/></node><node id="-44" lat="30.286633" lon="-97.680164" changeset="false"><tag k="addr:street" v="East Martin Luther King Jr Boulevard"/><tag k="addr:housenumber" v="4708"/><tag k="coa:place_id" v="190537"/></node><node id="-45" lat="30.292057" lon="-97.675656" changeset="false"><tag k="addr:street" v="Single Shot Circle"/><tag k="addr:housenumber" v="4913"/><tag k="coa:place_id" v="58648"/></node><node id="-46" lat="30.286467" lon="-97.678773" changeset="false"><tag k="addr:street" v="East Martin Luther King Jr Boulevard"/><tag k="addr:housenumber" v="4810"/><tag k="coa:place_id" v="3150623"/></node><node id="-47" lat="30.288965" lon="-97.680262" changeset="false"><tag k="addr:street" v="Springdale Road"/><tag k="addr:housenumber" v="4601"/><tag k="coa:place_id" v="3071281"/></node><node id="-48" lat="30.291348" lon="-97.668976" changeset="false"><tag k="addr:street" v="Tower Trail"/><tag k="addr:housenumber" v="5313"/><tag k="coa:place_id" v="3200718"/></node><node id="-49" lat="30.292925" lon="-97.664423" changeset="false"><tag k="addr:street" v="East 51st Street"/><tag k="addr:housenumber" v="5606 1/2"/><tag k="coa:place_id" v="3272919"/></node><node id="-50" lat="30.292968" lon="-97.664532" changeset="false"><tag k="addr:street" v="East 51st Street"/><tag k="addr:housenumber" v="5606"/><tag k="coa:place_id" v="3073582"/></node><node id="-51" lat="30.291195" lon="-97.677415" changeset="false"><tag k="addr:street" v="Walden Circle"/><tag k="addr:housenumber" v="4817"/><tag k="coa:place_id" v="255655"/></node><node id="-52" lat="30.291207" lon="-97.677479" changeset="false"><tag k="addr:street" v="Single Shot Circle"/><tag k="addr:housenumber" v="5114"/><tag k="coa:place_id" v="1123887"/></node><node id="-53" lat="30.286415" lon="-97.680999" changeset="false"><tag k="addr:street" v="East Martin Luther King Jr Boulevard"/><tag k="addr:housenumber" v="4700"/><tag k="coa:place_id" v="989805"/></node><node id="-54" lat="30.286867" lon="-97.681321" changeset="false"><tag k="addr:street" v="Springdale Road"/><tag k="addr:housenumber" v="4405"/><tag k="coa:place_id" v="176233"/></node></osm>