<?xml version="1.0" encoding="UTF-8"?><osm version="0.6" generator="github.com/aaronlidman/osm-and-geojson"><node id="-1" lat="30.458526" lon="-97.693854" changeset="false"><tag k="addr:street" v="Burnet Road"/><tag k="addr:housenumber" v="15201"/><tag k="coa:place_id" v="168061"/></node><node id="-2" lat="30.454321" lon="-97.687836" changeset="false"><tag k="addr:street" v="Ribbon Reef Lane"/><tag k="addr:housenumber" v="3520"/><tag k="coa:place_id" v="223104"/></node><node id="-3" lat="30.454338" lon="-97.688028" changeset="false"><tag k="addr:street" v="Ribbon Reef Lane"/><tag k="addr:housenumber" v="3524"/><tag k="coa:place_id" v="223103"/></node><node id="-4" lat="30.449448" lon="-97.68794" changeset="false"><tag k="addr:street" v="Single Trace,1100"/><tag k="addr:housenumber" v="14824"/><tag k="coa:place_id" v="1110921"/></node><node id="-5" lat="30.454533" lon="-97.684531" changeset="false"><tag k="addr:street" v="Shoreline Drive"/><tag k="addr:housenumber" v="3101"/><tag k="coa:place_id" v="75349"/></node><node id="-6" lat="30.451153" lon="-97.69414" changeset="false"><tag k="addr:street" v="Burnet Road"/><tag k="addr:housenumber" v="14623"/><tag k="coa:place_id" v="203380"/></node><node id="-7" lat="30.448844" lon="-97.68754" changeset="false"><tag k="addr:street" v="Single Trace,1100"/><tag k="addr:housenumber" v="14805"/><tag k="coa:place_id" v="3359062"/></node><node id="-8" lat="30.460463" lon="-97.694325" changeset="false"><tag k="addr:street" v="Shoreline Drive"/><tag k="addr:housenumber" v="4309 1/2"/><tag k="coa:place_id" v="3171442"/></node><node id="-9" lat="30.447386" lon="-97.687318" changeset="false"><tag k="addr:street" v="Single Trace,1100"/><tag k="addr:housenumber" v="14719"/><tag k="coa:place_id" v="3359045"/></node><node id="-10" lat="30.447638" lon="-97.68973" changeset="false"><tag k="addr:street" v="Montoro Drive"/><tag k="addr:housenumber" v="14633"/><tag k="coa:place_id" v="134339"/></node><node id="-11" lat="30.45995" lon="-97.694636" changeset="false"><tag k="addr:street" v="Burnet Road"/><tag k="addr:housenumber" v="15215"/><tag k="coa:place_id" v="236631"/></node><node id="-12" lat="30.450286" lon="-97.693179" changeset="false"><tag k="addr:street" v="Merrilltown Drive"/><tag k="addr:housenumber" v="14751"/><tag k="coa:place_id" v="1110909"/></node><node id="-13" lat="30.452191" lon="-97.687673" changeset="false"><tag k="addr:street" v="Jacks Pond Road"/><tag k="addr:housenumber" v="15034"/><tag k="coa:place_id" v="223069"/></node><node id="-14" lat="30.451985" lon="-97.687017" changeset="false"><tag k="addr:street" v="Jacks Pond Road"/><tag k="addr:housenumber" v="15016"/><tag k="coa:place_id" v="223075"/></node><node id="-15" lat="30.450715" lon="-97.690264" changeset="false"><tag k="addr:street" v="Montoro Drive"/><tag k="addr:housenumber" v="14824"/><tag k="coa:place_id" v="134268"/></node><node id="-16" lat="30.450027" lon="-97.690502" changeset="false"><tag k="addr:street" v="Yora Drive"/><tag k="addr:housenumber" v="14740"/><tag k="coa:place_id" v="134292"/></node><node id="-17" lat="30.448699" lon="-97.689842" changeset="false"><tag k="addr:street" v="Montoro Drive"/><tag k="addr:housenumber" v="14722"/><tag k="coa:place_id" v="1137167"/></node><node id="-18" lat="30.44844" lon="-97.687821" changeset="false"><tag k="addr:street" v="Single Trace,1100"/><tag k="addr:housenumber" v="14746"/><tag k="coa:place_id" v="3359054"/></node><node id="-19" lat="30.446503" lon="-97.687104" changeset="false"><tag k="addr:street" v="Single Trace Court"/><tag k="addr:housenumber" v="2817"/><tag k="coa:place_id" v="3359027"/></node><node id="-20" lat="30.446765" lon="-97.686589" changeset="false"><tag k="addr:street" v="Single Trace Court"/><tag k="addr:housenumber" v="2806"/><tag k="coa:place_id" v="3359030"/></node><node id="-21" lat="30.446613" lon="-97.687439" changeset="false"><tag k="addr:street" v="Single Trace Court"/><tag k="addr:housenumber" v="2901"/><tag k="coa:place_id" v="3359034"/></node><node id="-22" lat="30.450682" lon="-97.683325" changeset="false"><tag k="addr:street" v="Bratton Lane"/><tag k="addr:housenumber" v="15026 1/2"/><tag k="coa:place_id" v="3148201"/></node><node id="-23" lat="30.449997" lon="-97.695198" changeset="false"><tag k="addr:street" v="Burnet Road"/><tag k="addr:housenumber" v="14609 1/2"/><tag k="coa:place_id" v="3115256"/></node><node id="-24" lat="30.450947" lon="-97.689768" changeset="false"><tag k="addr:street" v="Montoro Drive"/><tag k="addr:housenumber" v="14825"/><tag k="coa:place_id" v="134254"/></node><node id="-25" lat="30.453062" lon="-97.685198" changeset="false"><tag k="addr:street" v="Babbling Brook Drive"/><tag k="addr:housenumber" v="15065"/><tag k="coa:place_id" v="223170"/></node><node id="-26" lat="30.449048" lon="-97.68791" changeset="false"><tag k="addr:street" v="Single Trace,1100"/><tag k="addr:housenumber" v="14812"/><tag k="coa:place_id" v="3359058"/></node><node id="-27" lat="30.44828" lon="-97.686731" changeset="false"><tag k="addr:street" v="Bernardino Cove"/><tag k="addr:housenumber" v="2913"/><tag k="coa:place_id" v="3372530"/></node><node id="-28" lat="30.45362" lon="-97.68734" changeset="false"><tag k="addr:street" v="Ribbon Reef Lane"/><tag k="addr:housenumber" v="3433"/><tag k="coa:place_id" v="230543"/></node><node id="-29" lat="30.450477" lon="-97.695091" changeset="false"><tag k="addr:street" v="Burnet Road"/><tag k="addr:housenumber" v="14611"/><tag k="coa:place_id" v="78555"/></node><node id="-30" lat="30.452483" lon="-97.685141" changeset="false"><tag k="addr:street" v="Babbling Brook Drive"/><tag k="addr:housenumber" v="15054"/><tag k="coa:place_id" v="223175"/></node><node id="-31" lat="30.451168" lon="-97.694867" changeset="false"><tag k="addr:street" v="Burnet Road"/><tag k="addr:housenumber" v="14701"/><tag k="coa:place_id" v="128495"/></node><node id="-32" lat="30.448897" lon="-97.687894" changeset="false"><tag k="addr:street" v="Single Trace,1100"/><tag k="addr:housenumber" v="14808"/><tag k="coa:place_id" v="3359057"/></node><node id="-33" lat="30.456861" lon="-97.686935" changeset="false"><tag k="addr:street" v="Cameron Julia Drive"/><tag k="addr:housenumber" v="15315 1/2"/><tag k="coa:place_id" v="3117843"/></node><node id="-34" lat="30.452968" lon="-97.687991" changeset="false"><tag k="addr:street" v="Ribbon Reef Lane"/><tag k="addr:housenumber" v="3404"/><tag k="coa:place_id" v="223127"/></node><node id="-35" lat="30.447507" lon="-97.689374" changeset="false"><tag k="addr:street" v="Montoro Drive"/><tag k="addr:housenumber" v="14641"/><tag k="coa:place_id" v="134334"/></node><node id="-36" lat="30.448571" lon="-97.689681" changeset="false"><tag k="addr:street" v="Montoro Drive"/><tag k="addr:housenumber" v="14716"/><tag k="coa:place_id" v="134357"/></node><node id="-37" lat="30.448639" lon="-97.689694" changeset="false"><tag k="addr:street" v="Montoro Drive"/><tag k="addr:housenumber" v="14720"/><tag k="coa:place_id" v="134354"/></node><node id="-38" lat="30.446545" lon="-97.68728" changeset="false"><tag k="addr:street" v="Single Trace Court"/><tag k="addr:housenumber" v="2821"/><tag k="coa:place_id" v="3359028"/></node><node id="-39" lat="30.448993" lon="-97.687559" changeset="false"><tag k="addr:street" v="Single Trace,1100"/><tag k="addr:housenumber" v="14803"/><tag k="coa:place_id" v="3359063"/></node><node id="-40" lat="30.44886" lon="-97.686974" changeset="false"><tag k="addr:street" v="Bernardino Cove"/><tag k="addr:housenumber" v="2924"/><tag k="coa:place_id" v="3372543"/></node><node id="-41" lat="30.454513" lon="-97.694764" changeset="false"><tag k="addr:street" v="Burnet Road"/><tag k="addr:housenumber" v="14901"/><tag k="coa:place_id" v="3039404"/></node><node id="-42" lat="30.454141" lon="-97.68844" changeset="false"><tag k="addr:street" v="Ribbon Reef Lane"/><tag k="addr:housenumber" v="3532"/><tag k="coa:place_id" v="223099"/></node><node id="-43" lat="30.446824" lon="-97.686762" changeset="false"><tag k="addr:street" v="Single Trace Court"/><tag k="addr:housenumber" v="2812"/><tag k="coa:place_id" v="3359031"/></node><node id="-44" lat="30.446707" lon="-97.687601" changeset="false"><tag k="addr:street" v="Single Trace Court"/><tag k="addr:housenumber" v="2905"/><tag k="coa:place_id" v="3359035"/></node><node id="-45" lat="30.447245" lon="-97.687329" changeset="false"><tag k="addr:street" v="Single Trace,1100"/><tag k="addr:housenumber" v="14715"/><tag k="coa:place_id" v="3359044"/></node><node id="-46" lat="30.449195" lon="-97.687938" changeset="false"><tag k="addr:street" v="Single Trace,1100"/><tag k="addr:housenumber" v="14816"/><tag k="coa:place_id" v="3359059"/></node><node id="-47" lat="30.44935" lon="-97.687955" changeset="false"><tag k="addr:street" v="Single Trace,1100"/><tag k="addr:housenumber" v="14820"/><tag k="coa:place_id" v="3359060"/></node><node id="-48" lat="30.449466" lon="-97.686107" changeset="false"><tag k="addr:street" v="Feathercrest Drive"/><tag k="addr:housenumber" v="2912"/><tag k="coa:place_id" v="3082053"/></node><node id="-49" lat="30.446833" lon="-97.686925" changeset="false"><tag k="addr:street" v="Single Trace Court"/><tag k="addr:housenumber" v="2816"/><tag k="coa:place_id" v="3359032"/></node><node id="-50" lat="30.446399" lon="-97.686972" changeset="false"><tag k="addr:street" v="Single Trace Court"/><tag k="addr:housenumber" v="2813"/><tag k="coa:place_id" v="3359026"/></node><node id="-51" lat="30.447546" lon="-97.687324" changeset="false"><tag k="addr:street" v="Single Trace,1100"/><tag k="addr:housenumber" v="14723"/><tag k="coa:place_id" v="3359046"/></node><node id="-52" lat="30.446352" lon="-97.686824" changeset="false"><tag k="addr:street" v="Single Trace Court"/><tag k="addr:housenumber" v="2809"/><tag k="coa:place_id" v="3359025"/></node><node id="-53" lat="30.448" lon="-97.687754" changeset="false"><tag k="addr:street" v="Single Trace,1100"/><tag k="addr:housenumber" v="14734"/><tag k="coa:place_id" v="3359051"/></node><node id="-54" lat="30.451635" lon="-97.688451" changeset="false"><tag k="addr:street" v="Wavecrest Boulevard"/><tag k="addr:housenumber" v="3201"/><tag k="coa:place_id" v="223032"/></node><node id="-55" lat="30.451792" lon="-97.685644" changeset="false"><tag k="addr:street" v="Jacks Pond Road"/><tag k="addr:housenumber" v="14925"/><tag k="coa:place_id" v="223098"/></node><node id="-56" lat="30.457533" lon="-97.68789" changeset="false"><tag k="addr:street" v="Shoreline Drive"/><tag k="addr:housenumber" v="3711"/><tag k="coa:place_id" v="138990"/></node><node id="-57" lat="30.452174" lon="-97.687492" changeset="false"><tag k="addr:street" v="Jacks Pond Road"/><tag k="addr:housenumber" v="15028"/><tag k="coa:place_id" v="223072"/></node><node id="-58" lat="30.455851" lon="-97.686322" changeset="false"><tag k="addr:street" v="Shoreline Drive"/><tag k="addr:housenumber" v="3501"/><tag k="coa:place_id" v="153007"/></node><node id="-59" lat="30.449208" lon="-97.693219" changeset="false"><tag k="addr:street" v="Merrilltown Drive"/><tag k="addr:housenumber" v="14745"/><tag k="coa:place_id" v="193805"/></node><node id="-60" lat="30.452601" lon="-97.694671" changeset="false"><tag k="addr:street" v="Burnet Road"/><tag k="addr:housenumber" v="14801"/><tag k="coa:place_id" v="3028938"/></node><node id="-61" lat="30.452383" lon="-97.688557" changeset="false"><tag k="addr:street" v="Wavecrest Boulevard"/><tag k="addr:housenumber" v="3221"/><tag k="coa:place_id" v="223049"/></node><node id="-62" lat="30.453402" lon="-97.687426" changeset="false"><tag k="addr:street" v="Ribbon Reef Lane"/><tag k="addr:housenumber" v="3427"/><tag k="coa:place_id" v="239687"/></node><node id="-63" lat="30.451425" lon="-97.69495" changeset="false"><tag k="addr:street" v="Burnet Road"/><tag k="addr:housenumber" v="14711"/><tag k="coa:place_id" v="1164309"/></node><node id="-64" lat="30.450283" lon="-97.686218" changeset="false"><tag k="addr:street" v="Wavecrest Boulevard"/><tag k="addr:housenumber" v="2928"/><tag k="coa:place_id" v="215729"/></node><node id="-65" lat="30.450318" lon="-97.686202" changeset="false"><tag k="addr:street" v="Wavecrest Boulevard"/><tag k="addr:housenumber" v="2924"/><tag k="coa:place_id" v="189238"/></node><node id="-66" lat="30.449796" lon="-97.687685" changeset="false"><tag k="addr:street" v="Single Trace,1100"/><tag k="addr:housenumber" v="14833"/><tag k="coa:place_id" v="1110908"/></node><node id="-67" lat="30.449784" lon="-97.687634" changeset="false"><tag k="addr:street" v="Single Trace,1100"/><tag k="addr:housenumber" v="14827"/><tag k="coa:place_id" v="3087369"/></node></osm>