<?xml version="1.0" encoding="UTF-8"?><osm version="0.6" generator="github.com/aaronlidman/osm-and-geojson"><node id="-1" lat="30.325745" lon="-97.685132" changeset="false"><tag k="addr:street" v="Coronado Hills Drive"/><tag k="addr:housenumber" v="1701"/><tag k="coa:place_id" v="565832"/></node><node id="-2" lat="30.324043" lon="-97.68837" changeset="false"><tag k="addr:street" v="Berkman Drive"/><tag k="addr:housenumber" v="7105"/><tag k="coa:place_id" v="153247"/></node><node id="-3" lat="30.325736" lon="-97.689087" changeset="false"><tag k="addr:street" v="Reagan Hill Drive"/><tag k="addr:housenumber" v="1521"/><tag k="coa:place_id" v="128126"/></node><node id="-4" lat="30.326595" lon="-97.68728" changeset="false"><tag k="addr:street" v="Coronado Hills Drive"/><tag k="addr:housenumber" v="1519"/><tag k="coa:place_id" v="544702"/></node><node id="-5" lat="30.330852" lon="-97.687136" changeset="false"><tag k="addr:street" v="Cameron Road"/><tag k="addr:housenumber" v="7603"/><tag k="coa:place_id" v="180525"/></node><node id="-6" lat="30.330582" lon="-97.687407" changeset="false"><tag k="addr:street" v="Cameron Road"/><tag k="addr:housenumber" v="7601"/><tag k="coa:place_id" v="3052092"/></node><node id="-7" lat="30.328236" lon="-97.690645" changeset="false"><tag k="addr:street" v="Cameron Road"/><tag k="addr:housenumber" v="7311"/><tag k="coa:place_id" v="89547"/></node><node id="-8" lat="30.326547" lon="-97.689513" changeset="false"><tag k="addr:street" v="Reagan Hill Drive"/><tag k="addr:housenumber" v="1510"/><tag k="coa:place_id" v="249633"/></node><node id="-9" lat="30.322982" lon="-97.68805" changeset="false"><tag k="addr:street" v="Berkman Drive"/><tag k="addr:housenumber" v="7001 1/2"/><tag k="coa:place_id" v="3080790"/></node><node id="-10" lat="30.327014" lon="-97.690254" changeset="false"><tag k="addr:street" v="Reagan Hill Drive"/><tag k="addr:housenumber" v="1428"/><tag k="coa:place_id" v="249624"/></node><node id="-11" lat="30.322177" lon="-97.686583" changeset="false"><tag k="addr:street" v="East US 290 Frontage Road"/><tag k="addr:housenumber" v="6920"/><tag k="coa:place_id" v="3110791"/></node><node id="-12" lat="30.331871" lon="-97.686162" changeset="false"><tag k="addr:street" v="East Anderson Lane"/><tag k="addr:housenumber" v="1505 1/2"/><tag k="coa:place_id" v="3140735"/></node><node id="-13" lat="30.325145" lon="-97.686461" changeset="false"><tag k="addr:street" v="Coronado Circle"/><tag k="addr:housenumber" v="7202"/><tag k="coa:place_id" v="134073"/></node><node id="-14" lat="30.326439" lon="-97.691766" changeset="false"><tag k="addr:street" v="Cameron Road"/><tag k="addr:housenumber" v="7209"/><tag k="coa:place_id" v="235349"/></node><node id="-15" lat="30.32651" lon="-97.689415" changeset="false"><tag k="addr:street" v="Reagan Hill Drive"/><tag k="addr:housenumber" v="1512"/><tag k="coa:place_id" v="249635"/></node><node id="-16" lat="30.324979" lon="-97.686147" changeset="false"><tag k="addr:street" v="Coronado Circle"/><tag k="addr:housenumber" v="7214"/><tag k="coa:place_id" v="120135"/></node><node id="-17" lat="30.327243" lon="-97.686828" changeset="false"><tag k="addr:street" v="Sevilla Drive"/><tag k="addr:housenumber" v="7304"/><tag k="coa:place_id" v="566918"/></node><node id="-18" lat="30.322948" lon="-97.684869" changeset="false"><tag k="addr:street" v="Creekside Drive"/><tag k="addr:housenumber" v="7102"/><tag k="coa:place_id" v="565586"/></node><node id="-19" lat="30.328274" lon="-97.685877" changeset="false"><tag k="addr:street" v="Barcelona Drive"/><tag k="addr:housenumber" v="7500"/><tag k="coa:place_id" v="566636"/></node><node id="-20" lat="30.331949" lon="-97.686424" changeset="false"><tag k="addr:street" v="Cameron Road"/><tag k="addr:housenumber" v="7709 1/2"/><tag k="coa:place_id" v="3099967"/></node><node id="-21" lat="30.323399" lon="-97.68898" changeset="false"><tag k="addr:street" v="Berkman Drive"/><tag k="addr:housenumber" v="7003 1/2"/><tag k="coa:place_id" v="3137433"/></node><node id="-22" lat="30.325421" lon="-97.685558" changeset="false"><tag k="addr:street" v="Coronado Circle"/><tag k="addr:housenumber" v="7251"/><tag k="coa:place_id" v="949712"/></node><node id="-23" lat="30.329381" lon="-97.68597" changeset="false"><tag k="addr:street" v="Glenhill Road"/><tag k="addr:housenumber" v="7516"/><tag k="coa:place_id" v="566810"/></node><node id="-24" lat="30.329992" lon="-97.685816" changeset="false"><tag k="addr:street" v="Barcelona Cove"/><tag k="addr:housenumber" v="7600"/><tag k="coa:place_id" v="566834"/></node><node id="-25" lat="30.328569" lon="-97.689218" changeset="false"><tag k="addr:street" v="Coronado Hills Drive"/><tag k="addr:housenumber" v="1434"/><tag k="coa:place_id" v="621363"/></node><node id="-26" lat="30.32619" lon="-97.685277" changeset="false"><tag k="addr:street" v="Barcelona Drive"/><tag k="addr:housenumber" v="7301"/><tag k="coa:place_id" v="566468"/></node><node id="-27" lat="30.331185" lon="-97.686874" changeset="false"><tag k="addr:street" v="Cameron Road"/><tag k="addr:housenumber" v="7609"/><tag k="coa:place_id" v="450626"/></node><node id="-28" lat="30.325065" lon="-97.689392" changeset="false"><tag k="addr:street" v="Berkman Drive"/><tag k="addr:housenumber" v="7200"/><tag k="coa:place_id" v="228473"/></node><node id="-29" lat="30.329431" lon="-97.68623" changeset="false"><tag k="addr:street" v="Sevilla Drive"/><tag k="addr:housenumber" v="7511"/><tag k="coa:place_id" v="566774"/></node><node id="-30" lat="30.331973" lon="-97.68629" changeset="false"><tag k="addr:street" v="East Anderson Lane"/><tag k="addr:housenumber" v="1501 1/2"/><tag k="coa:place_id" v="3217584"/></node><node id="-31" lat="30.324241" lon="-97.684786" changeset="false"><tag k="addr:street" v="Creekside Drive"/><tag k="addr:housenumber" v="7202"/><tag k="coa:place_id" v="565646"/></node><node id="-32" lat="30.330383" lon="-97.685434" changeset="false"><tag k="addr:street" v="Barcelona Cove"/><tag k="addr:housenumber" v="7607"/><tag k="coa:place_id" v="566798"/></node><node id="-33" lat="30.325949" lon="-97.690779" changeset="false"><tag k="addr:street" v="Cameron Road"/><tag k="addr:housenumber" v="7205"/><tag k="coa:place_id" v="449180"/></node><node id="-34" lat="30.325351" lon="-97.685514" changeset="false"><tag k="addr:street" v="Coronado Circle"/><tag k="addr:housenumber" v="7249"/><tag k="coa:place_id" v="949700"/></node><node id="-35" lat="30.322506" lon="-97.68589" changeset="false"><tag k="addr:street" v="Kyle Drive"/><tag k="addr:housenumber" v="7015"/><tag k="coa:place_id" v="175366"/></node><node id="-36" lat="30.3279" lon="-97.68681" changeset="false"><tag k="addr:street" v="Sevilla Drive"/><tag k="addr:housenumber" v="7404"/><tag k="coa:place_id" v="566900"/></node><node id="-37" lat="30.327845" lon="-97.685908" changeset="false"><tag k="addr:street" v="Barcelona Drive"/><tag k="addr:housenumber" v="7406"/><tag k="coa:place_id" v="566648"/></node><node id="-38" lat="30.325667" lon="-97.686164" changeset="false"><tag k="addr:street" v="Coronado Circle"/><tag k="addr:housenumber" v="7265"/><tag k="coa:place_id" v="565904"/></node><node id="-39" lat="30.328478" lon="-97.686316" changeset="false"><tag k="addr:street" v="Sevilla Drive"/><tag k="addr:housenumber" v="7503"/><tag k="coa:place_id" v="566744"/></node><node id="-40" lat="30.331864" lon="-97.686493" changeset="false"><tag k="addr:street" v="Cameron Road"/><tag k="addr:housenumber" v="7701"/><tag k="coa:place_id" v="128132"/></node><node id="-41" lat="30.32856" lon="-97.687596" changeset="false"><tag k="addr:street" v="Berkman Drive"/><tag k="addr:housenumber" v="7408"/><tag k="coa:place_id" v="567038"/></node><node id="-42" lat="30.32511" lon="-97.685291" changeset="false"><tag k="addr:street" v="Coronado Circle"/><tag k="addr:housenumber" v="7243"/><tag k="coa:place_id" v="974948"/></node><node id="-43" lat="30.324959" lon="-97.685297" changeset="false"><tag k="addr:street" v="Coronado Circle"/><tag k="addr:housenumber" v="7239"/><tag k="coa:place_id" v="974912"/></node><node id="-44" lat="30.324901" lon="-97.685307" changeset="false"><tag k="addr:street" v="Coronado Circle"/><tag k="addr:housenumber" v="7237"/><tag k="coa:place_id" v="974900"/></node><node id="-45" lat="30.325036" lon="-97.685297" changeset="false"><tag k="addr:street" v="Coronado Circle"/><tag k="addr:housenumber" v="7241"/><tag k="coa:place_id" v="974924"/></node><node id="-46" lat="30.325244" lon="-97.685386" changeset="false"><tag k="addr:street" v="Coronado Circle"/><tag k="addr:housenumber" v="7245"/><tag k="coa:place_id" v="952418"/></node><node id="-47" lat="30.325308" lon="-97.685439" changeset="false"><tag k="addr:street" v="Coronado Circle"/><tag k="addr:housenumber" v="7247"/><tag k="coa:place_id" v="951860"/></node><node id="-48" lat="30.325546" lon="-97.685909" changeset="false"><tag k="addr:street" v="Coronado Circle"/><tag k="addr:housenumber" v="7259"/><tag k="coa:place_id" v="949760"/></node><node id="-49" lat="30.325519" lon="-97.685813" changeset="false"><tag k="addr:street" v="Coronado Circle"/><tag k="addr:housenumber" v="7257"/><tag k="coa:place_id" v="949730"/></node><node id="-50" lat="30.325457" lon="-97.685696" changeset="false"><tag k="addr:street" v="Coronado Circle"/><tag k="addr:housenumber" v="7253"/><tag k="coa:place_id" v="989516"/></node><node id="-51" lat="30.325486" lon="-97.685768" changeset="false"><tag k="addr:street" v="Coronado Circle"/><tag k="addr:housenumber" v="7255"/><tag k="coa:place_id" v="989522"/></node><node id="-52" lat="30.32565" lon="-97.685365" changeset="false"><tag k="addr:street" v="Coronado Hills Drive"/><tag k="addr:housenumber" v="1623"/><tag k="coa:place_id" v="110207"/></node><node id="-53" lat="30.325685" lon="-97.685455" changeset="false"><tag k="addr:street" v="Coronado Hills Drive"/><tag k="addr:housenumber" v="1621"/><tag k="coa:place_id" v="110203"/></node><node id="-54" lat="30.325638" lon="-97.685293" changeset="false"><tag k="addr:street" v="Coronado Hills Drive"/><tag k="addr:housenumber" v="1625"/><tag k="coa:place_id" v="110208"/></node><node id="-55" lat="30.325797" lon="-97.685798" changeset="false"><tag k="addr:street" v="Coronado Hills Drive"/><tag k="addr:housenumber" v="1613"/><tag k="coa:place_id" v="110196"/></node><node id="-56" lat="30.325774" lon="-97.68573" changeset="false"><tag k="addr:street" v="Coronado Hills Drive"/><tag k="addr:housenumber" v="1615"/><tag k="coa:place_id" v="110197"/></node><node id="-57" lat="30.325724" lon="-97.685591" changeset="false"><tag k="addr:street" v="Coronado Hills Drive"/><tag k="addr:housenumber" v="1619"/><tag k="coa:place_id" v="110202"/></node><node id="-58" lat="30.325745" lon="-97.685663" changeset="false"><tag k="addr:street" v="Coronado Hills Drive"/><tag k="addr:housenumber" v="1617"/><tag k="coa:place_id" v="110201"/></node><node id="-59" lat="30.32477" lon="-97.685327" changeset="false"><tag k="addr:street" v="Coronado Circle"/><tag k="addr:housenumber" v="7235"/><tag k="coa:place_id" v="974894"/></node><node id="-60" lat="30.32471" lon="-97.685354" changeset="false"><tag k="addr:street" v="Coronado Circle"/><tag k="addr:housenumber" v="7233"/><tag k="coa:place_id" v="974888"/></node><node id="-61" lat="30.324641" lon="-97.685351" changeset="false"><tag k="addr:street" v="Coronado Circle"/><tag k="addr:housenumber" v="7231"/><tag k="coa:place_id" v="974882"/></node><node id="-62" lat="30.325003" lon="-97.685725" changeset="false"><tag k="addr:street" v="Coronado Circle"/><tag k="addr:housenumber" v="7238"/><tag k="coa:place_id" v="155475"/></node><node id="-63" lat="30.324943" lon="-97.685735" changeset="false"><tag k="addr:street" v="Coronado Circle"/><tag k="addr:housenumber" v="7236"/><tag k="coa:place_id" v="155481"/></node><node id="-64" lat="30.324866" lon="-97.685743" changeset="false"><tag k="addr:street" v="Coronado Circle"/><tag k="addr:housenumber" v="7234"/><tag k="coa:place_id" v="155469"/></node><node id="-65" lat="30.324912" lon="-97.686767" changeset="false"><tag k="addr:street" v="Coronado Circle"/><tag k="addr:housenumber" v="7201"/><tag k="coa:place_id" v="134067"/></node><node id="-66" lat="30.324813" lon="-97.686648" changeset="false"><tag k="addr:street" v="Coronado Circle"/><tag k="addr:housenumber" v="7205"/><tag k="coa:place_id" v="134091"/></node><node id="-67" lat="30.324779" lon="-97.686595" changeset="false"><tag k="addr:street" v="Coronado Circle"/><tag k="addr:housenumber" v="7207"/><tag k="coa:place_id" v="134109"/></node><node id="-68" lat="30.324862" lon="-97.686716" changeset="false"><tag k="addr:street" v="Coronado Circle"/><tag k="addr:housenumber" v="7203"/><tag k="coa:place_id" v="134079"/></node><node id="-69" lat="30.325016" lon="-97.68621" changeset="false"><tag k="addr:street" v="Coronado Circle"/><tag k="addr:housenumber" v="7208"/><tag k="coa:place_id" v="120087"/></node><node id="-70" lat="30.32491" lon="-97.685988" changeset="false"><tag k="addr:street" v="Coronado Circle"/><tag k="addr:housenumber" v="7212"/><tag k="coa:place_id" v="120099"/></node><node id="-71" lat="30.324953" lon="-97.68607" changeset="false"><tag k="addr:street" v="Coronado Circle"/><tag k="addr:housenumber" v="7210"/><tag k="coa:place_id" v="120093"/></node><node id="-72" lat="30.325082" lon="-97.686328" changeset="false"><tag k="addr:street" v="Coronado Circle"/><tag k="addr:housenumber" v="7206"/><tag k="coa:place_id" v="134103"/></node><node id="-73" lat="30.325124" lon="-97.686368" changeset="false"><tag k="addr:street" v="Coronado Circle"/><tag k="addr:housenumber" v="7204"/><tag k="coa:place_id" v="134085"/></node><node id="-74" lat="30.325182" lon="-97.686513" changeset="false"><tag k="addr:street" v="Coronado Circle"/><tag k="addr:housenumber" v="7200"/><tag k="coa:place_id" v="165777"/></node><node id="-75" lat="30.325389" lon="-97.686422" changeset="false"><tag k="addr:street" v="Coronado Circle"/><tag k="addr:housenumber" v="7266"/><tag k="coa:place_id" v="155463"/></node><node id="-76" lat="30.325324" lon="-97.686196" changeset="false"><tag k="addr:street" v="Coronado Circle"/><tag k="addr:housenumber" v="7260"/><tag k="coa:place_id" v="155445"/></node><node id="-77" lat="30.325347" lon="-97.686271" changeset="false"><tag k="addr:street" v="Coronado Circle"/><tag k="addr:housenumber" v="7262"/><tag k="coa:place_id" v="155451"/></node><node id="-78" lat="30.32536" lon="-97.686352" changeset="false"><tag k="addr:street" v="Coronado Circle"/><tag k="addr:housenumber" v="7264"/><tag k="coa:place_id" v="155457"/></node><node id="-79" lat="30.325219" lon="-97.686024" changeset="false"><tag k="addr:street" v="Coronado Circle"/><tag k="addr:housenumber" v="7256"/><tag k="coa:place_id" v="120159"/></node><node id="-80" lat="30.325258" lon="-97.68609" changeset="false"><tag k="addr:street" v="Coronado Circle"/><tag k="addr:housenumber" v="7258"/><tag k="coa:place_id" v="120171"/></node><node id="-81" lat="30.325187" lon="-97.685949" changeset="false"><tag k="addr:street" v="Coronado Circle"/><tag k="addr:housenumber" v="7254"/><tag k="coa:place_id" v="120147"/></node><node id="-82" lat="30.325155" lon="-97.68588" changeset="false"><tag k="addr:street" v="Coronado Circle"/><tag k="addr:housenumber" v="7252"/><tag k="coa:place_id" v="120141"/></node><node id="-83" lat="30.325852" lon="-97.685925" changeset="false"><tag k="addr:street" v="Coronado Hills Drive"/><tag k="addr:housenumber" v="1611"/><tag k="coa:place_id" v="110195"/></node><node id="-84" lat="30.325888" lon="-97.686077" changeset="false"><tag k="addr:street" v="Coronado Hills Drive"/><tag k="addr:housenumber" v="1607"/><tag k="coa:place_id" v="244372"/></node><node id="-85" lat="30.325873" lon="-97.685997" changeset="false"><tag k="addr:street" v="Coronado Hills Drive"/><tag k="addr:housenumber" v="1609"/><tag k="coa:place_id" v="110191"/></node><node id="-86" lat="30.325922" lon="-97.686148" changeset="false"><tag k="addr:street" v="Coronado Hills Drive"/><tag k="addr:housenumber" v="1605"/><tag k="coa:place_id" v="731176"/></node><node id="-87" lat="30.325609" lon="-97.685998" changeset="false"><tag k="addr:street" v="Coronado Circle"/><tag k="addr:housenumber" v="7261"/><tag k="coa:place_id" v="565892"/></node><node id="-88" lat="30.325668" lon="-97.686235" changeset="false"><tag k="addr:street" v="Coronado Circle"/><tag k="addr:housenumber" v="7269"/><tag k="coa:place_id" v="977384"/></node><node id="-89" lat="30.325632" lon="-97.686068" changeset="false"><tag k="addr:street" v="Coronado Circle"/><tag k="addr:housenumber" v="7263"/><tag k="coa:place_id" v="565898"/></node><node id="-90" lat="30.325699" lon="-97.686236" changeset="false"><tag k="addr:street" v="Coronado Circle"/><tag k="addr:housenumber" v="7267"/><tag k="coa:place_id" v="565910"/></node><node id="-91" lat="30.322191" lon="-97.686847" changeset="false"><tag k="addr:street" v="East US 290 Frontage Road"/><tag k="addr:housenumber" v="6912"/><tag k="coa:place_id" v="128084"/></node><node id="-92" lat="30.322188" lon="-97.686879" changeset="false"><tag k="addr:street" v="East US 290 Frontage Road"/><tag k="addr:housenumber" v="6910"/><tag k="coa:place_id" v="326595"/></node><node id="-93" lat="30.324512" lon="-97.685926" changeset="false"><tag k="addr:street" v="Coronado Circle"/><tag k="addr:housenumber" v="7221"/><tag k="coa:place_id" v="1044098"/></node><node id="-94" lat="30.324494" lon="-97.685853" changeset="false"><tag k="addr:street" v="Coronado Circle"/><tag k="addr:housenumber" v="7223"/><tag k="coa:place_id" v="1044092"/></node><node id="-95" lat="30.324479" lon="-97.685766" changeset="false"><tag k="addr:street" v="Coronado Circle"/><tag k="addr:housenumber" v="7225"/><tag k="coa:place_id" v="1044086"/></node><node id="-96" lat="30.324562" lon="-97.686053" changeset="false"><tag k="addr:street" v="Coronado Circle"/><tag k="addr:housenumber" v="7219"/><tag k="coa:place_id" v="1011272"/></node><node id="-97" lat="30.324593" lon="-97.686122" changeset="false"><tag k="addr:street" v="Coronado Circle"/><tag k="addr:housenumber" v="7217"/><tag k="coa:place_id" v="1011266"/></node><node id="-98" lat="30.324653" lon="-97.686335" changeset="false"><tag k="addr:street" v="Coronado Circle"/><tag k="addr:housenumber" v="7213"/><tag k="coa:place_id" v="96405"/></node><node id="-99" lat="30.324682" lon="-97.686401" changeset="false"><tag k="addr:street" v="Coronado Circle"/><tag k="addr:housenumber" v="7211"/><tag k="coa:place_id" v="96399"/></node><node id="-100" lat="30.324624" lon="-97.686258" changeset="false"><tag k="addr:street" v="Coronado Circle"/><tag k="addr:housenumber" v="7215"/><tag k="coa:place_id" v="96411"/></node><node id="-101" lat="30.324714" lon="-97.686485" changeset="false"><tag k="addr:street" v="Coronado Circle"/><tag k="addr:housenumber" v="7209"/><tag k="coa:place_id" v="96393"/></node><node id="-102" lat="30.326405" lon="-97.689156" changeset="false"><tag k="addr:street" v="Reagan Hill Drive"/><tag k="addr:housenumber" v="1516"/><tag k="coa:place_id" v="450050"/></node><node id="-103" lat="30.326282" lon="-97.688914" changeset="false"><tag k="addr:street" v="Reagan Hill Drive"/><tag k="addr:housenumber" v="1520"/><tag k="coa:place_id" v="249639"/></node><node id="-104" lat="30.326351" lon="-97.689034" changeset="false"><tag k="addr:street" v="Reagan Hill Drive"/><tag k="addr:housenumber" v="1518"/><tag k="coa:place_id" v="249637"/></node><node id="-105" lat="30.326742" lon="-97.689855" changeset="false"><tag k="addr:street" v="Reagan Hill Drive"/><tag k="addr:housenumber" v="1504"/><tag k="coa:place_id" v="249629"/></node><node id="-106" lat="30.326799" lon="-97.689966" changeset="false"><tag k="addr:street" v="Reagan Hill Drive"/><tag k="addr:housenumber" v="1502"/><tag k="coa:place_id" v="249627"/></node><node id="-107" lat="30.326605" lon="-97.689647" changeset="false"><tag k="addr:street" v="Reagan Hill Drive"/><tag k="addr:housenumber" v="1508"/><tag k="coa:place_id" v="249631"/></node><node id="-108" lat="30.326679" lon="-97.689758" changeset="false"><tag k="addr:street" v="Reagan Hill Drive"/><tag k="addr:housenumber" v="1506"/><tag k="coa:place_id" v="249630"/></node><node id="-109" lat="30.326861" lon="-97.690054" changeset="false"><tag k="addr:street" v="Reagan Hill Drive"/><tag k="addr:housenumber" v="1500"/><tag k="coa:place_id" v="450416"/></node></osm>