<?xml version="1.0" encoding="UTF-8"?><osm version="0.6" generator="github.com/aaronlidman/osm-and-geojson"><node id="-1" lat="30.183399" lon="-97.74933" changeset="false"><tag k="addr:street" v="Creek Bend Drive"/><tag k="addr:housenumber" v="4805"/><tag k="coa:place_id" v="779366"/></node><node id="-2" lat="30.183711" lon="-97.750059" changeset="false"><tag k="addr:street" v="Creek Bend Drive"/><tag k="addr:housenumber" v="4713"/><tag k="coa:place_id" v="779348"/></node><node id="-3" lat="30.182433" lon="-97.74618" changeset="false"><tag k="addr:street" v="Creek Bend Drive"/><tag k="addr:housenumber" v="5105 1/2"/><tag k="coa:place_id" v="3126274"/></node><node id="-4" lat="30.18465" lon="-97.751886" changeset="false"><tag k="addr:street" v="Creek Bend Drive"/><tag k="addr:housenumber" v="4607"/><tag k="coa:place_id" v="244447"/></node><node id="-5" lat="30.183993" lon="-97.745632" changeset="false"><tag k="addr:street" v="Aviary Cove"/><tag k="addr:housenumber" v="6206"/><tag k="coa:place_id" v="3084180"/></node><node id="-6" lat="30.184122" lon="-97.745772" changeset="false"><tag k="addr:street" v="Aviary Cove"/><tag k="addr:housenumber" v="6204"/><tag k="coa:place_id" v="3084179"/></node><node id="-7" lat="30.183944" lon="-97.745404" changeset="false"><tag k="addr:street" v="Aviary Cove"/><tag k="addr:housenumber" v="6208"/><tag k="coa:place_id" v="3084181"/></node><node id="-8" lat="30.183569" lon="-97.749692" changeset="false"><tag k="addr:street" v="Creek Bend Drive"/><tag k="addr:housenumber" v="4801"/><tag k="coa:place_id" v="779354"/></node><node id="-9" lat="30.184944" lon="-97.752032" changeset="false"><tag k="addr:street" v="Creek Bend Drive"/><tag k="addr:housenumber" v="4603"/><tag k="coa:place_id" v="244446"/></node><node id="-10" lat="30.185107" lon="-97.75204" changeset="false"><tag k="addr:street" v="Creek Bend Drive"/><tag k="addr:housenumber" v="4601"/><tag k="coa:place_id" v="780111"/></node><node id="-11" lat="30.185128" lon="-97.746404" changeset="false"><tag k="addr:street" v="Dove Springs Drive"/><tag k="addr:housenumber" v="4903"/><tag k="coa:place_id" v="94183"/></node><node id="-12" lat="30.183494" lon="-97.749526" changeset="false"><tag k="addr:street" v="Creek Bend Drive"/><tag k="addr:housenumber" v="4803"/><tag k="coa:place_id" v="779360"/></node><node id="-13" lat="30.1848" lon="-97.751963" changeset="false"><tag k="addr:street" v="Creek Bend Drive"/><tag k="addr:housenumber" v="4605"/><tag k="coa:place_id" v="437967"/></node><node id="-14" lat="30.184513" lon="-97.751804" changeset="false"><tag k="addr:street" v="Creek Bend Drive"/><tag k="addr:housenumber" v="4609"/><tag k="coa:place_id" v="244448"/></node></osm>