<?xml version="1.0" encoding="UTF-8"?><osm version="0.6" generator="github.com/aaronlidman/osm-and-geojson"><node id="-1" lat="30.271765" lon="-97.727342" changeset="false"><tag k="addr:street" v="Navasota Street"/><tag k="addr:housenumber" v="1191"/><tag k="coa:place_id" v="447140"/></node><node id="-2" lat="30.271698" lon="-97.721897" changeset="false"><tag k="addr:street" v="Pennsylvania Avenue"/><tag k="addr:housenumber" v="1612"/><tag k="coa:place_id" v="527456"/></node><node id="-3" lat="30.271597" lon="-97.723288" changeset="false"><tag k="addr:street" v="Pennsylvania Avenue"/><tag k="addr:housenumber" v="1502"/><tag k="coa:place_id" v="527498"/></node><node id="-4" lat="30.268506" lon="-97.720117" changeset="false"><tag k="addr:street" v="Salina Street"/><tag k="addr:housenumber" v="1135"/><tag k="coa:place_id" v="605816"/></node><node id="-5" lat="30.269252" lon="-97.726723" changeset="false"><tag k="addr:street" v="Navasota Street"/><tag k="addr:housenumber" v="1157"/><tag k="coa:place_id" v="444830"/></node><node id="-6" lat="30.271663" lon="-97.730836" changeset="false"><tag k="addr:street" v="Branch Street"/><tag k="addr:housenumber" v="1197"/><tag k="coa:place_id" v="239257"/></node><node id="-7" lat="30.272105" lon="-97.726048" changeset="false"><tag k="addr:street" v="San Bernard Street"/><tag k="addr:housenumber" v="1195"/><tag k="coa:place_id" v="526988"/></node><node id="-8" lat="30.272044" lon="-97.727866" changeset="false"><tag k="addr:street" v="Navasota Street"/><tag k="addr:housenumber" v="1192"/><tag k="coa:place_id" v="611116"/></node><node id="-9" lat="30.26815" lon="-97.725561" changeset="false"><tag k="addr:street" v="East 11th Street"/><tag k="addr:housenumber" v="1408"/><tag k="coa:place_id" v="526778"/></node><node id="-10" lat="30.268005" lon="-97.725031" changeset="false"><tag k="addr:street" v="Angelina Street"/><tag k="addr:housenumber" v="1100"/><tag k="coa:place_id" v="527972"/></node><node id="-11" lat="30.269129" lon="-97.721751" changeset="false"><tag k="addr:street" v="Lawson Lane"/><tag k="addr:housenumber" v="1135"/><tag k="coa:place_id" v="997131"/></node><node id="-12" lat="30.269212" lon="-97.720614" changeset="false"><tag k="addr:street" v="Rosewood Avenue"/><tag k="addr:housenumber" v="1705"/><tag k="coa:place_id" v="89866"/></node><node id="-13" lat="30.268636" lon="-97.727589" changeset="false"><tag k="addr:street" v="East 11th Street"/><tag k="addr:housenumber" v="1204"/><tag k="coa:place_id" v="444242"/></node><node id="-14" lat="30.269011" lon="-97.724207" changeset="false"><tag k="addr:street" v="Rosewood Avenue"/><tag k="addr:housenumber" v="1422"/><tag k="coa:place_id" v="605390"/></node><node id="-15" lat="30.270816" lon="-97.731884" changeset="false"><tag k="addr:street" v="North Interstate Highway 35 Service Road"/><tag k="addr:housenumber" v="1105"/><tag k="coa:place_id" v="880076"/></node><node id="-16" lat="30.269958" lon="-97.729635" changeset="false"><tag k="addr:street" v="Juniper Street"/><tag k="addr:housenumber" v="1005"/><tag k="coa:place_id" v="1114841"/></node><node id="-17" lat="30.273293" lon="-97.721342" changeset="false"><tag k="addr:street" v="East 12th Street"/><tag k="addr:housenumber" v="1709"/><tag k="coa:place_id" v="880148"/></node><node id="-18" lat="30.268486" lon="-97.725096" changeset="false"><tag k="addr:street" v="Rosewood Avenue"/><tag k="addr:housenumber" v="1311"/><tag k="coa:place_id" v="527924"/></node><node id="-19" lat="30.268352" lon="-97.72285" changeset="false"><tag k="addr:street" v="Gregory Street"/><tag k="addr:housenumber" v="1510"/><tag k="coa:place_id" v="241390"/></node><node id="-20" lat="30.272115" lon="-97.729027" changeset="false"><tag k="addr:street" v="East 12th Street"/><tag k="addr:housenumber" v="1011"/><tag k="coa:place_id" v="3139922"/></node><node id="-21" lat="30.269869" lon="-97.730265" changeset="false"><tag k="addr:street" v="Juniper Street"/><tag k="addr:housenumber" v="915"/><tag k="coa:place_id" v="246664"/></node><node id="-22" lat="30.269957" lon="-97.730701" changeset="false"><tag k="addr:street" v="East 11th Street"/><tag k="addr:housenumber" v="916"/><tag k="coa:place_id" v="444494"/></node><node id="-23" lat="30.268475" lon="-97.722371" changeset="false"><tag k="addr:street" v="Lawson Lane"/><tag k="addr:housenumber" v="1130"/><tag k="coa:place_id" v="605414"/></node><node id="-24" lat="30.268467" lon="-97.725182" changeset="false"><tag k="addr:street" v="Rosewood Avenue"/><tag k="addr:housenumber" v="1309"/><tag k="coa:place_id" v="534436"/></node><node id="-25" lat="30.271424" lon="-97.72878" changeset="false"><tag k="addr:street" v="Catalpa Street"/><tag k="addr:housenumber" v="1007"/><tag k="coa:place_id" v="154815"/></node><node id="-26" lat="30.266742" lon="-97.720872" changeset="false"><tag k="addr:street" v="East 11th Street"/><tag k="addr:housenumber" v="1800"/><tag k="coa:place_id" v="463612"/></node><node id="-27" lat="30.270193" lon="-97.727479" changeset="false"><tag k="addr:street" v="Navasota Street"/><tag k="addr:housenumber" v="1170"/><tag k="coa:place_id" v="697606"/></node><node id="-28" lat="30.269489" lon="-97.728524" changeset="false"><tag k="addr:street" v="Waller Street"/><tag k="addr:housenumber" v="1159"/><tag k="coa:place_id" v="444872"/></node><node id="-29" lat="30.268902" lon="-97.723421" changeset="false"><tag k="addr:street" v="Rosewood Avenue"/><tag k="addr:housenumber" v="1419"/><tag k="coa:place_id" v="250085"/></node><node id="-30" lat="30.273244" lon="-97.721655" changeset="false"><tag k="addr:street" v="East 12th Street"/><tag k="addr:housenumber" v="1701"/><tag k="coa:place_id" v="526646"/></node><node id="-31" lat="30.27193" lon="-97.719681" changeset="false"><tag k="addr:street" v="Pennsylvania Avenue"/><tag k="addr:housenumber" v="1806"/><tag k="coa:place_id" v="147471"/></node><node id="-32" lat="30.268818" lon="-97.723575" changeset="false"><tag k="addr:street" v="Rosewood Avenue"/><tag k="addr:housenumber" v="1417"/><tag k="coa:place_id" v="605360"/></node><node id="-33" lat="30.269992" lon="-97.730231" changeset="false"><tag k="addr:street" v="Juniper Street"/><tag k="addr:housenumber" v="913"/><tag k="coa:place_id" v="444692"/></node><node id="-34" lat="30.272312" lon="-97.725445" changeset="false"><tag k="addr:street" v="Angelina Street"/><tag k="addr:housenumber" v="1198"/><tag k="coa:place_id" v="526898"/></node><node id="-35" lat="30.269775" lon="-97.730443" changeset="false"><tag k="addr:street" v="East 11th Street"/><tag k="addr:housenumber" v="924"/><tag k="coa:place_id" v="444464"/></node><node id="-36" lat="30.26976" lon="-97.729072" changeset="false"><tag k="addr:street" v="Juniper Street"/><tag k="addr:housenumber" v="1021"/><tag k="coa:place_id" v="3309076"/></node><node id="-37" lat="30.2721" lon="-97.729228" changeset="false"><tag k="addr:street" v="East 12th Street"/><tag k="addr:housenumber" v="1007"/><tag k="coa:place_id" v="216828"/></node><node id="-38" lat="30.271742" lon="-97.725672" changeset="false"><tag k="addr:street" v="Cotton Street"/><tag k="addr:housenumber" v="1302"/><tag k="coa:place_id" v="526952"/></node><node id="-39" lat="30.269829" lon="-97.729254" changeset="false"><tag k="addr:street" v="Juniper Street"/><tag k="addr:housenumber" v="1015"/><tag k="coa:place_id" v="444746"/></node><node id="-40" lat="30.270076" lon="-97.731111" changeset="false"><tag k="addr:street" v="East 11th Street"/><tag k="addr:housenumber" v="904"/><tag k="coa:place_id" v="252997"/></node><node id="-41" lat="30.269476" lon="-97.728927" changeset="false"><tag k="addr:street" v="Waller Street"/><tag k="addr:housenumber" v="1150"/><tag k="coa:place_id" v="3076731"/></node><node id="-42" lat="30.268918" lon="-97.720472" changeset="false"><tag k="addr:street" v="Salina Street"/><tag k="addr:housenumber" v="1140"/><tag k="coa:place_id" v="605690"/></node><node id="-43" lat="30.267612" lon="-97.721344" changeset="false"><tag k="addr:street" v="Leona Street"/><tag k="addr:housenumber" v="1113"/><tag k="coa:place_id" v="605582"/></node><node id="-44" lat="30.270428" lon="-97.724616" changeset="false"><tag k="addr:street" v="Comal Street"/><tag k="addr:housenumber" v="1106"/><tag k="coa:place_id" v="606644"/></node><node id="-45" lat="30.270301" lon="-97.730684" changeset="false"><tag k="addr:street" v="Juniper Street"/><tag k="addr:housenumber" v="905"/><tag k="coa:place_id" v="444674"/></node><node id="-46" lat="30.268846" lon="-97.723274" changeset="false"><tag k="addr:street" v="Concho Street"/><tag k="addr:housenumber" v="1134"/><tag k="coa:place_id" v="327412"/></node><node id="-47" lat="30.269224" lon="-97.726011" changeset="false"><tag k="addr:street" v="San Bernard Street"/><tag k="addr:housenumber" v="1154"/><tag k="coa:place_id" v="527846"/></node><node id="-48" lat="30.271724" lon="-97.721686" changeset="false"><tag k="addr:street" v="Pennsylvania Avenue"/><tag k="addr:housenumber" v="1618"/><tag k="coa:place_id" v="527450"/></node><node id="-49" lat="30.270886" lon="-97.727747" changeset="false"><tag k="addr:street" v="Olive Street"/><tag k="addr:housenumber" v="1106"/><tag k="coa:place_id" v="446630"/></node><node id="-50" lat="30.270795" lon="-97.725102" changeset="false"><tag k="addr:street" v="Angelina Street"/><tag k="addr:housenumber" v="1172"/><tag k="coa:place_id" v="241799"/></node><node id="-51" lat="30.270671" lon="-97.728482" changeset="false"><tag k="addr:street" v="Olive Street"/><tag k="addr:housenumber" v="1013"/><tag k="coa:place_id" v="217993"/></node><node id="-52" lat="30.272995" lon="-97.720241" changeset="false"><tag k="addr:street" v="New York Avenue"/><tag k="addr:housenumber" v="1808"/><tag k="coa:place_id" v="526700"/></node><node id="-53" lat="30.268426" lon="-97.724224" changeset="false"><tag k="addr:street" v="Angelina Street"/><tag k="addr:housenumber" v="1113"/><tag k="coa:place_id" v="3084657"/></node><node id="-54" lat="30.27089" lon="-97.728808" changeset="false"><tag k="addr:street" v="Olive Street"/><tag k="addr:housenumber" v="1012"/><tag k="coa:place_id" v="446672"/></node><node id="-55" lat="30.269579" lon="-97.728877" changeset="false"><tag k="addr:street" v="Waller Street"/><tag k="addr:housenumber" v="1154"/><tag k="coa:place_id" v="3098408"/></node><node id="-56" lat="30.270851" lon="-97.730951" changeset="false"><tag k="addr:street" v="Olive Street"/><tag k="addr:housenumber" v="901"/><tag k="coa:place_id" v="446486"/></node><node id="-57" lat="30.268083" lon="-97.72537" changeset="false"><tag k="addr:street" v="East 11th Street"/><tag k="addr:housenumber" v="1410"/><tag k="coa:place_id" v="527936"/></node><node id="-58" lat="30.272135" lon="-97.728933" changeset="false"><tag k="addr:street" v="East 12th Street"/><tag k="addr:housenumber" v="1013"/><tag k="coa:place_id" v="447254"/></node><node id="-59" lat="30.271955" lon="-97.724396" changeset="false"><tag k="addr:street" v="Cotton Street"/><tag k="addr:housenumber" v="1404"/><tag k="coa:place_id" v="526874"/></node><node id="-60" lat="30.270042" lon="-97.729784" changeset="false"><tag k="addr:street" v="Curve Street"/><tag k="addr:housenumber" v="1159"/><tag k="coa:place_id" v="444446"/></node><node id="-61" lat="30.272236" lon="-97.728366" changeset="false"><tag k="addr:street" v="East 12th Street"/><tag k="addr:housenumber" v="1109"/><tag k="coa:place_id" v="216839"/></node><node id="-62" lat="30.272015" lon="-97.72004" changeset="false"><tag k="addr:street" v="Pennsylvania Avenue"/><tag k="addr:housenumber" v="1800"/><tag k="coa:place_id" v="527534"/></node><node id="-63" lat="30.272059" lon="-97.722623" changeset="false"><tag k="addr:street" v="New York Avenue"/><tag k="addr:housenumber" v="1509"/><tag k="coa:place_id" v="527318"/></node><node id="-64" lat="30.272097" lon="-97.726774" changeset="false"><tag k="addr:street" v="San Bernard Street"/><tag k="addr:housenumber" v="1194"/><tag k="coa:place_id" v="527018"/></node><node id="-65" lat="30.269082" lon="-97.728256" changeset="false"><tag k="addr:street" v="East 11th Street"/><tag k="addr:housenumber" v="1112"/><tag k="coa:place_id" v="444308"/></node><node id="-66" lat="30.272606" lon="-97.722745" changeset="false"><tag k="addr:street" v="New York Avenue"/><tag k="addr:housenumber" v="1604"/><tag k="coa:place_id" v="526772"/></node><node id="-67" lat="30.270044" lon="-97.727106" changeset="false"><tag k="addr:street" v="Hackberry Street,1100"/><tag k="addr:housenumber" v="1200"/><tag k="coa:place_id" v="444908"/></node><node id="-68" lat="30.268671" lon="-97.724731" changeset="false"><tag k="addr:street" v="Rosewood Avenue"/><tag k="addr:housenumber" v="1313"/><tag k="coa:place_id" v="527930"/></node><node id="-69" lat="30.270033" lon="-97.729733" changeset="false"><tag k="addr:street" v="Juniper Street"/><tag k="addr:housenumber" v="1001"/><tag k="coa:place_id" v="3267662"/></node><node id="-70" lat="30.272513" lon="-97.724091" changeset="false"><tag k="addr:street" v="Comal Street"/><tag k="addr:housenumber" v="1194"/><tag k="coa:place_id" v="178060"/></node><node id="-71" lat="30.273573" lon="-97.720269" changeset="false"><tag k="addr:street" v="East 12th Street"/><tag k="addr:housenumber" v="1813"/><tag k="coa:place_id" v="930609"/></node><node id="-72" lat="30.268842" lon="-97.72128" changeset="false"><tag k="addr:street" v="Leona Street"/><tag k="addr:housenumber" v="1134 1/2"/><tag k="coa:place_id" v="3348043"/></node><node id="-73" lat="30.271177" lon="-97.73181" changeset="false"><tag k="addr:street" v="North Interstate Highway 35 Service Road"/><tag k="addr:housenumber" v="1109"/><tag k="coa:place_id" v="880082"/></node><node id="-74" lat="30.271137" lon="-97.729824" changeset="false"><tag k="addr:street" v="Curve Street"/><tag k="addr:housenumber" v="1180"/><tag k="coa:place_id" v="135568"/></node><node id="-75" lat="30.269078" lon="-97.721762" changeset="false"><tag k="addr:street" v="Lawson Lane"/><tag k="addr:housenumber" v="1129"/><tag k="coa:place_id" v="223342"/></node><node id="-76" lat="30.27096" lon="-97.729058" changeset="false"><tag k="addr:street" v="Olive Street"/><tag k="addr:housenumber" v="1008"/><tag k="coa:place_id" v="154819"/></node><node id="-77" lat="30.271184" lon="-97.730415" changeset="false"><tag k="addr:street" v="Olive Street"/><tag k="addr:housenumber" v="906"/><tag k="coa:place_id" v="1117487"/></node><node id="-78" lat="30.271253" lon="-97.729242" changeset="false"><tag k="addr:street" v="Olive Street"/><tag k="addr:housenumber" v="1002"/><tag k="coa:place_id" v="446684"/></node><node id="-79" lat="30.273351" lon="-97.720953" changeset="false"><tag k="addr:street" v="East 12th Street"/><tag k="addr:housenumber" v="1721"/><tag k="coa:place_id" v="526676"/></node><node id="-80" lat="30.26719" lon="-97.720314" changeset="false"><tag k="addr:street" v="Chicon Street"/><tag k="addr:housenumber" v="1122"/><tag k="coa:place_id" v="606476"/></node><node id="-81" lat="30.270169" lon="-97.726498" changeset="false"><tag k="addr:street" v="Hackberry Street,1100"/><tag k="addr:housenumber" v="1208"/><tag k="coa:place_id" v="444896"/></node><node id="-82" lat="30.267931" lon="-97.72185" changeset="false"><tag k="addr:street" v="Leona Street"/><tag k="addr:housenumber" v="1122"/><tag k="coa:place_id" v="326236"/></node><node id="-83" lat="30.272153" lon="-97.728832" changeset="false"><tag k="addr:street" v="East 12th Street"/><tag k="addr:housenumber" v="1015"/><tag k="coa:place_id" v="216834"/></node><node id="-84" lat="30.26891" lon="-97.72721" changeset="false"><tag k="addr:street" v="Navasota Street"/><tag k="addr:housenumber" v="1104"/><tag k="coa:place_id" v="444800"/></node><node id="-85" lat="30.27131" lon="-97.724468" changeset="false"><tag k="addr:street" v="Angelina Street"/><tag k="addr:housenumber" v="1187"/><tag k="coa:place_id" v="527036"/></node><node id="-86" lat="30.27225" lon="-97.72795" changeset="false"><tag k="addr:street" v="Navasota Street"/><tag k="addr:housenumber" v="1196"/><tag k="coa:place_id" v="3139920"/></node><node id="-87" lat="30.271943" lon="-97.730136" changeset="false"><tag k="addr:street" v="East 12th Street"/><tag k="addr:housenumber" v="909"/><tag k="coa:place_id" v="447242"/></node><node id="-88" lat="30.271568" lon="-97.72295" changeset="false"><tag k="addr:street" v="Pennsylvania Avenue"/><tag k="addr:housenumber" v="1506"/><tag k="coa:place_id" v="527486"/></node><node id="-89" lat="30.271617" lon="-97.726561" changeset="false"><tag k="addr:street" v="San Bernard Street"/><tag k="addr:housenumber" v="1190"/><tag k="coa:place_id" v="527030"/></node><node id="-90" lat="30.272183" lon="-97.728722" changeset="false"><tag k="addr:street" v="East 12th Street"/><tag k="addr:housenumber" v="1101"/><tag k="coa:place_id" v="216836"/></node><node id="-91" lat="30.272267" lon="-97.729061" changeset="false"><tag k="addr:street" v="East 12th Street"/><tag k="addr:housenumber" v="1011 1/2"/><tag k="coa:place_id" v="216833"/></node><node id="-92" lat="30.270746" lon="-97.729815" changeset="false"><tag k="addr:street" v="Curve Street"/><tag k="addr:housenumber" v="1166 1/2"/><tag k="coa:place_id" v="3139754"/></node><node id="-93" lat="30.272019" lon="-97.728193" changeset="false"><tag k="addr:street" v="Waller Street"/><tag k="addr:housenumber" v="1196"/><tag k="coa:place_id" v="446654"/></node><node id="-94" lat="30.271635" lon="-97.722297" changeset="false"><tag k="addr:street" v="Pennsylvania Avenue"/><tag k="addr:housenumber" v="1608"/><tag k="coa:place_id" v="527468"/></node><node id="-95" lat="30.269422" lon="-97.728322" changeset="false"><tag k="addr:street" v="Juniper Street"/><tag k="addr:housenumber" v="1103"/><tag k="coa:place_id" v="3039431"/></node><node id="-96" lat="30.268274" lon="-97.723244" changeset="false"><tag k="addr:street" v="Gregory Street"/><tag k="addr:housenumber" v="1504"/><tag k="coa:place_id" v="605348"/></node><node id="-97" lat="30.269112" lon="-97.728341" changeset="false"><tag k="addr:street" v="East 11th Street"/><tag k="addr:housenumber" v="1110"/><tag k="coa:place_id" v="444314"/></node><node id="-98" lat="30.268202" lon="-97.722098" changeset="false"><tag k="addr:street" v="Lawson Lane"/><tag k="addr:housenumber" v="1111"/><tag k="coa:place_id" v="303400"/></node><node id="-99" lat="30.268094" lon="-97.721241" changeset="false"><tag k="addr:street" v="Leona Street"/><tag k="addr:housenumber" v="1125"/><tag k="coa:place_id" v="605594"/></node><node id="-100" lat="30.268235" lon="-97.721705" changeset="false"><tag k="addr:street" v="Leona Street"/><tag k="addr:housenumber" v="1126"/><tag k="coa:place_id" v="704398"/></node><node id="-101" lat="30.273451" lon="-97.720329" changeset="false"><tag k="addr:street" v="East 12th Street"/><tag k="addr:housenumber" v="1809"/><tag k="coa:place_id" v="526682"/></node><node id="-102" lat="30.267888" lon="-97.720984" changeset="false"><tag k="addr:street" v="Salina Street"/><tag k="addr:housenumber" v="1122"/><tag k="coa:place_id" v="605738"/></node><node id="-103" lat="30.267756" lon="-97.720048" changeset="false"><tag k="addr:street" v="Chicon Street"/><tag k="addr:housenumber" v="1128"/><tag k="coa:place_id" v="606428"/></node><node id="-104" lat="30.272109" lon="-97.72913" changeset="false"><tag k="addr:street" v="East 12th Street"/><tag k="addr:housenumber" v="1009"/><tag k="coa:place_id" v="216829"/></node><node id="-105" lat="30.272091" lon="-97.729311" changeset="false"><tag k="addr:street" v="East 12th Street"/><tag k="addr:housenumber" v="1003"/><tag k="coa:place_id" v="216827"/></node><node id="-106" lat="30.271902" lon="-97.720714" changeset="false"><tag k="addr:street" v="Pennsylvania Avenue"/><tag k="addr:housenumber" v="1706"/><tag k="coa:place_id" v="527414"/></node><node id="-107" lat="30.271873" lon="-97.720896" changeset="false"><tag k="addr:street" v="Pennsylvania Avenue"/><tag k="addr:housenumber" v="1704"/><tag k="coa:place_id" v="527444"/></node><node id="-108" lat="30.27189" lon="-97.72673" changeset="false"><tag k="addr:street" v="San Bernard Street"/><tag k="addr:housenumber" v="1192"/><tag k="coa:place_id" v="527024"/></node><node id="-109" lat="30.26728" lon="-97.720715" changeset="false"><tag k="addr:street" v="Salina Street"/><tag k="addr:housenumber" v="1117"/><tag k="coa:place_id" v="250404"/></node><node id="-110" lat="30.269639" lon="-97.728861" changeset="false"><tag k="addr:street" v="Waller Street"/><tag k="addr:housenumber" v="1156"/><tag k="coa:place_id" v="3098409"/></node><node id="-111" lat="30.269899" lon="-97.729454" changeset="false"><tag k="addr:street" v="Juniper Street"/><tag k="addr:housenumber" v="1009"/><tag k="coa:place_id" v="444716"/></node><node id="-112" lat="30.26985" lon="-97.729328" changeset="false"><tag k="addr:street" v="Juniper Street"/><tag k="addr:housenumber" v="1013"/><tag k="coa:place_id" v="444740"/></node><node id="-113" lat="30.269078" lon="-97.720405" changeset="false"><tag k="addr:street" v="Salina Street"/><tag k="addr:housenumber" v="1142"/><tag k="coa:place_id" v="605684"/></node><node id="-114" lat="30.269356" lon="-97.719124" changeset="false"><tag k="addr:street" v="Chicon Street"/><tag k="addr:housenumber" v="1146"/><tag k="coa:place_id" v="5279769"/></node><node id="-115" lat="30.270248" lon="-97.730541" changeset="false"><tag k="addr:street" v="Juniper Street"/><tag k="addr:housenumber" v="907"/><tag k="coa:place_id" v="1114393"/></node><node id="-116" lat="30.269744" lon="-97.72994" changeset="false"><tag k="addr:street" v="Curve Street"/><tag k="addr:housenumber" v="1103"/><tag k="coa:place_id" v="444428"/></node><node id="-117" lat="30.272519" lon="-97.723306" changeset="false"><tag k="addr:street" v="New York Avenue"/><tag k="addr:housenumber" v="1502"/><tag k="coa:place_id" v="526796"/></node><node id="-118" lat="30.271168" lon="-97.730705" changeset="false"><tag k="addr:street" v="Olive Street"/><tag k="addr:housenumber" v="902"/><tag k="coa:place_id" v="446708"/></node><node id="-119" lat="30.272432" lon="-97.726502" changeset="false"><tag k="addr:street" v="San Bernard Street"/><tag k="addr:housenumber" v="1196 1/2"/><tag k="coa:place_id" v="527006"/></node><node id="-120" lat="30.268172" lon="-97.724346" changeset="false"><tag k="addr:street" v="Angelina Street"/><tag k="addr:housenumber" v="1109"/><tag k="coa:place_id" v="528026"/></node><node id="-121" lat="30.26981" lon="-97.728314" changeset="false"><tag k="addr:street" v="Juniper Street"/><tag k="addr:housenumber" v="1100"/><tag k="coa:place_id" v="444866"/></node><node id="-122" lat="30.268361" lon="-97.721972" changeset="false"><tag k="addr:street" v="Lawson Lane"/><tag k="addr:housenumber" v="1113"/><tag k="coa:place_id" v="1006821"/></node><node id="-123" lat="30.270014" lon="-97.729707" changeset="false"><tag k="addr:street" v="Juniper Street"/><tag k="addr:housenumber" v="1003"/><tag k="coa:place_id" v="444710"/></node><node id="-124" lat="30.269923" lon="-97.729525" changeset="false"><tag k="addr:street" v="Juniper Street"/><tag k="addr:housenumber" v="1007"/><tag k="coa:place_id" v="1115207"/></node><node id="-125" lat="30.272388" lon="-97.726908" changeset="false"><tag k="addr:street" v="East 12th Street"/><tag k="addr:housenumber" v="1219"/><tag k="coa:place_id" v="526556"/></node><node id="-126" lat="30.268441" lon="-97.72071" changeset="false"><tag k="addr:street" v="Salina Street"/><tag k="addr:housenumber" v="1132"/><tag k="coa:place_id" v="605708"/></node><node id="-127" lat="30.270585" lon="-97.726432" changeset="false"><tag k="addr:street" v="San Bernard Street"/><tag k="addr:housenumber" v="1172 1/2"/><tag k="coa:place_id" v="527180"/></node><node id="-128" lat="30.269412" lon="-97.720078" changeset="false"><tag k="addr:street" v="Rosewood Avenue"/><tag k="addr:housenumber" v="1719"/><tag k="coa:place_id" v="605672"/></node><node id="-129" lat="30.270332" lon="-97.726355" changeset="false"><tag k="addr:street" v="San Bernard Street"/><tag k="addr:housenumber" v="1170 1/2"/><tag k="coa:place_id" v="527186"/></node><node id="-130" lat="30.27338" lon="-97.721779" changeset="false"><tag k="addr:street" v="East 12th Street"/><tag k="addr:housenumber" v="1703"/><tag k="coa:place_id" v="526652"/></node><node id="-131" lat="30.268645" lon="-97.727615" changeset="false"><tag k="addr:street" v="East 11th Street"/><tag k="addr:housenumber" v="1202"/><tag k="coa:place_id" v="444254"/></node><node id="-132" lat="30.268686" lon="-97.724193" changeset="false"><tag k="addr:street" v="Rosewood Avenue"/><tag k="addr:housenumber" v="1401"/><tag k="coa:place_id" v="250081"/></node><node id="-133" lat="30.271669" lon="-97.722072" changeset="false"><tag k="addr:street" v="Pennsylvania Avenue"/><tag k="addr:housenumber" v="1610"/><tag k="coa:place_id" v="267165"/></node><node id="-134" lat="30.271931" lon="-97.720525" changeset="false"><tag k="addr:street" v="Pennsylvania Avenue"/><tag k="addr:housenumber" v="1708"/><tag k="coa:place_id" v="527420"/></node><node id="-135" lat="30.272019" lon="-97.72537" changeset="false"><tag k="addr:street" v="Angelina Street"/><tag k="addr:housenumber" v="1192"/><tag k="coa:place_id" v="526910"/></node><node id="-136" lat="30.2698" lon="-97.729189" changeset="false"><tag k="addr:street" v="Juniper Street"/><tag k="addr:housenumber" v="1017"/><tag k="coa:place_id" v="3098406"/></node><node id="-137" lat="30.269602" lon="-97.724846" changeset="false"><tag k="addr:street" v="Angelina Street"/><tag k="addr:housenumber" v="1158"/><tag k="coa:place_id" v="527588"/></node><node id="-138" lat="30.271442" lon="-97.727408" changeset="false"><tag k="addr:street" v="Cotton Street"/><tag k="addr:housenumber" v="1200"/><tag k="coa:place_id" v="527072"/></node><node id="-139" lat="30.272665" lon="-97.722371" changeset="false"><tag k="addr:street" v="New York Avenue"/><tag k="addr:housenumber" v="1608"/><tag k="coa:place_id" v="526760"/></node><node id="-140" lat="30.2702" lon="-97.728441" changeset="false"><tag k="addr:street" v="Waller Street"/><tag k="addr:housenumber" v="1164 1/2"/><tag k="coa:place_id" v="3052949"/></node><node id="-141" lat="30.272844" lon="-97.724025" changeset="false"><tag k="addr:street" v="East 12th Street"/><tag k="addr:housenumber" v="1425"/><tag k="coa:place_id" v="526592"/></node><node id="-142" lat="30.272548" lon="-97.723119" changeset="false"><tag k="addr:street" v="New York Avenue"/><tag k="addr:housenumber" v="1504"/><tag k="coa:place_id" v="526790"/></node><node id="-143" lat="30.271701" lon="-97.72705" changeset="false"><tag k="addr:street" v="Cotton Street"/><tag k="addr:housenumber" v="1206"/><tag k="coa:place_id" v="527048"/></node><node id="-144" lat="30.271455" lon="-97.719815" changeset="false"><tag k="addr:street" v="Pennsylvania Avenue"/><tag k="addr:housenumber" v="1805"/><tag k="coa:place_id" v="527522"/></node><node id="-145" lat="30.271906" lon="-97.730378" changeset="false"><tag k="addr:street" v="East 12th Street"/><tag k="addr:housenumber" v="905"/><tag k="coa:place_id" v="447236"/></node><node id="-146" lat="30.27216" lon="-97.725408" changeset="false"><tag k="addr:street" v="Angelina Street"/><tag k="addr:housenumber" v="1196"/><tag k="coa:place_id" v="526904"/></node><node id="-147" lat="30.272143" lon="-97.724575" changeset="false"><tag k="addr:street" v="Angelina Street"/><tag k="addr:housenumber" v="1193"/><tag k="coa:place_id" v="526886"/></node><node id="-148" lat="30.271605" lon="-97.730439" changeset="false"><tag k="addr:street" v="Catalpa Street"/><tag k="addr:housenumber" v="904"/><tag k="coa:place_id" v="1113848"/></node><node id="-149" lat="30.270284" lon="-97.725553" changeset="false"><tag k="addr:street" v="San Bernard Street"/><tag k="addr:housenumber" v="1171"/><tag k="coa:place_id" v="527198"/></node><node id="-150" lat="30.271359" lon="-97.724146" changeset="false"><tag k="addr:street" v="Cotton Street"/><tag k="addr:housenumber" v="1419"/><tag k="coa:place_id" v="527282"/></node><node id="-151" lat="30.272452" lon="-97.725985" changeset="false"><tag k="addr:street" v="East 12th Street"/><tag k="addr:housenumber" v="1309"/><tag k="coa:place_id" v="253027"/></node><node id="-152" lat="30.26934" lon="-97.726176" changeset="false"><tag k="addr:street" v="San Bernard Street"/><tag k="addr:housenumber" v="1158"/><tag k="coa:place_id" v="250435"/></node><node id="-153" lat="30.270971" lon="-97.729326" changeset="false"><tag k="addr:street" v="Olive Street"/><tag k="addr:housenumber" v="1004"/><tag k="coa:place_id" v="154817"/></node><node id="-154" lat="30.268231" lon="-97.72024" changeset="false"><tag k="addr:street" v="Salina Street"/><tag k="addr:housenumber" v="1131"/><tag k="coa:place_id" v="605804"/></node><node id="-155" lat="30.268177" lon="-97.719846" changeset="false"><tag k="addr:street" v="Chicon Street"/><tag k="addr:housenumber" v="1134"/><tag k="coa:place_id" v="606392"/></node><node id="-156" lat="30.27046" lon="-97.727139" changeset="false"><tag k="addr:street" v="Navasota Street"/><tag k="addr:housenumber" v="1173"/><tag k="coa:place_id" v="444944"/></node><node id="-157" lat="30.271255" lon="-97.728251" changeset="false"><tag k="addr:street" v="Waller Street"/><tag k="addr:housenumber" v="1182"/><tag k="coa:place_id" v="154821"/></node><node id="-158" lat="30.270635" lon="-97.729962" changeset="false"><tag k="addr:street" v="Curve Street"/><tag k="addr:housenumber" v="1164"/><tag k="coa:place_id" v="239263"/></node><node id="-159" lat="30.270637" lon="-97.730201" changeset="false"><tag k="addr:street" v="Olive Street"/><tag k="addr:housenumber" v="913"/><tag k="coa:place_id" v="446534"/></node><node id="-160" lat="30.271051" lon="-97.727626" changeset="false"><tag k="addr:street" v="Navasota Street"/><tag k="addr:housenumber" v="1180"/><tag k="coa:place_id" v="446618"/></node><node id="-161" lat="30.270992" lon="-97.72571" changeset="false"><tag k="addr:street" v="San Bernard Street"/><tag k="addr:housenumber" v="1177"/><tag k="coa:place_id" v="129885"/></node><node id="-162" lat="30.271048" lon="-97.728606" changeset="false"><tag k="addr:street" v="Olive Street"/><tag k="addr:housenumber" v="1010"/><tag k="coa:place_id" v="446678"/></node><node id="-163" lat="30.269992" lon="-97.729821" changeset="false"><tag k="addr:street" v="Curve Street"/><tag k="addr:housenumber" v="1157"/><tag k="coa:place_id" v="559528"/></node><node id="-164" lat="30.269078" lon="-97.727221" changeset="false"><tag k="addr:street" v="Navasota Street"/><tag k="addr:housenumber" v="1106"/><tag k="coa:place_id" v="444794"/></node><node id="-165" lat="30.269649" lon="-97.725419" changeset="false"><tag k="addr:street" v="San Bernard Street"/><tag k="addr:housenumber" v="1161"/><tag k="coa:place_id" v="527804"/></node><node id="-166" lat="30.269388" lon="-97.719418" changeset="false"><tag k="addr:street" v="Rosewood Avenue"/><tag k="addr:housenumber" v="1809"/><tag k="coa:place_id" v="250086"/></node><node id="-167" lat="30.271926" lon="-97.727847" changeset="false"><tag k="addr:street" v="Navasota Street"/><tag k="addr:housenumber" v="1190"/><tag k="coa:place_id" v="447164"/></node><node id="-168" lat="30.267133" lon="-97.720787" changeset="false"><tag k="addr:street" v="Salina Street"/><tag k="addr:housenumber" v="1113"/><tag k="coa:place_id" v="605768"/></node><node id="-169" lat="30.271378" lon="-97.728191" changeset="false"><tag k="addr:street" v="Waller Street"/><tag k="addr:housenumber" v="1184"/><tag k="coa:place_id" v="193578"/></node><node id="-170" lat="30.270444" lon="-97.725592" changeset="false"><tag k="addr:street" v="San Bernard Street"/><tag k="addr:housenumber" v="1171 1/2"/><tag k="coa:place_id" v="527204"/></node><node id="-171" lat="30.271421" lon="-97.729361" changeset="false"><tag k="addr:street" v="Catalpa Street"/><tag k="addr:housenumber" v="1001"/><tag k="coa:place_id" v="446738"/></node><node id="-172" lat="30.267197" lon="-97.723149" changeset="false"><tag k="addr:street" v="Concho Street"/><tag k="addr:housenumber" v="1103"/><tag k="coa:place_id" v="302349"/></node><node id="-173" lat="30.271178" lon="-97.730556" changeset="false"><tag k="addr:street" v="Olive Street"/><tag k="addr:housenumber" v="904"/><tag k="coa:place_id" v="1117488"/></node><node id="-174" lat="30.27116" lon="-97.730863" changeset="false"><tag k="addr:street" v="Olive Street"/><tag k="addr:housenumber" v="900"/><tag k="coa:place_id" v="446714"/></node><node id="-175" lat="30.272356" lon="-97.727912" changeset="false"><tag k="addr:street" v="Navasota Street"/><tag k="addr:housenumber" v="1198"/><tag k="coa:place_id" v="3139921"/></node><node id="-176" lat="30.269486" lon="-97.725384" changeset="false"><tag k="addr:street" v="San Bernard Street"/><tag k="addr:housenumber" v="1159"/><tag k="coa:place_id" v="527798"/></node><node id="-177" lat="30.272198" lon="-97.72852" changeset="false"><tag k="addr:street" v="East 12th Street"/><tag k="addr:housenumber" v="1105"/><tag k="coa:place_id" v="253021"/></node><node id="-178" lat="30.268791" lon="-97.726752" changeset="false"><tag k="addr:street" v="Navasota Street"/><tag k="addr:housenumber" v="1101"/><tag k="coa:place_id" v="289936"/></node><node id="-179" lat="30.269329" lon="-97.728074" changeset="false"><tag k="addr:street" v="Juniper Street"/><tag k="addr:housenumber" v="1107"/><tag k="coa:place_id" v="444764"/></node><node id="-180" lat="30.270547" lon="-97.728443" changeset="false"><tag k="addr:street" v="Waller Street"/><tag k="addr:housenumber" v="1172"/><tag k="coa:place_id" v="239262"/></node><node id="-181" lat="30.271689" lon="-97.725585" changeset="false"><tag k="addr:street" v="Cotton Street"/><tag k="addr:housenumber" v="1304"/><tag k="coa:place_id" v="526958"/></node><node id="-182" lat="30.268562" lon="-97.725354" changeset="false"><tag k="addr:street" v="Rosewood Avenue"/><tag k="addr:housenumber" v="1305"/><tag k="coa:place_id" v="527912"/></node><node id="-183" lat="30.270584" lon="-97.724881" changeset="false"><tag k="addr:street" v="Angelina Street"/><tag k="addr:housenumber" v="1168"/><tag k="coa:place_id" v="527552"/></node><node id="-184" lat="30.268904" lon="-97.72748" changeset="false"><tag k="addr:street" v="Lydia Street"/><tag k="addr:housenumber" v="1155"/><tag k="coa:place_id" v="444260"/></node><node id="-185" lat="30.268895" lon="-97.727885" changeset="false"><tag k="addr:street" v="East 11th Street"/><tag k="addr:housenumber" v="1124"/><tag k="coa:place_id" v="444284"/></node><node id="-186" lat="30.272932" lon="-97.720663" changeset="false"><tag k="addr:street" v="New York Avenue"/><tag k="addr:housenumber" v="1800"/><tag k="coa:place_id" v="526712"/></node><node id="-187" lat="30.272828" lon="-97.721325" changeset="false"><tag k="addr:street" v="New York Avenue"/><tag k="addr:housenumber" v="1704"/><tag k="coa:place_id" v="526736"/></node><node id="-188" lat="30.27212" lon="-97.722251" changeset="false"><tag k="addr:street" v="New York Avenue"/><tag k="addr:housenumber" v="1605"/><tag k="coa:place_id" v="527330"/></node><node id="-189" lat="30.26994" lon="-97.729839" changeset="false"><tag k="addr:street" v="Curve Street"/><tag k="addr:housenumber" v="1155"/><tag k="coa:place_id" v="3309079"/></node><node id="-190" lat="30.270066" lon="-97.726975" changeset="false"><tag k="addr:street" v="Hackberry Street,1100"/><tag k="addr:housenumber" v="1202"/><tag k="coa:place_id" v="444902"/></node><node id="-191" lat="30.270787" lon="-97.725664" changeset="false"><tag k="addr:street" v="San Bernard Street"/><tag k="addr:housenumber" v="1175"/><tag k="coa:place_id" v="527222"/></node><node id="-192" lat="30.273551" lon="-97.720112" changeset="false"><tag k="addr:street" v="East 12th Street"/><tag k="addr:housenumber" v="1817"/><tag k="coa:place_id" v="880166"/></node><node id="-193" lat="30.269234" lon="-97.724626" changeset="false"><tag k="addr:street" v="Angelina Street"/><tag k="addr:housenumber" v="1154"/><tag k="coa:place_id" v="745162"/></node><node id="-194" lat="30.271561" lon="-97.722632" changeset="false"><tag k="addr:street" v="Pennsylvania Avenue"/><tag k="addr:housenumber" v="1512"/><tag k="coa:place_id" v="3140332"/></node><node id="-195" lat="30.271483" lon="-97.72715" changeset="false"><tag k="addr:street" v="Cotton Street"/><tag k="addr:housenumber" v="1204"/><tag k="coa:place_id" v="527060"/></node><node id="-196" lat="30.271473" lon="-97.729214" changeset="false"><tag k="addr:street" v="Catalpa Street"/><tag k="addr:housenumber" v="1003"/><tag k="coa:place_id" v="446744"/></node><node id="-197" lat="30.268451" lon="-97.721095" changeset="false"><tag k="addr:street" v="Leona Street"/><tag k="addr:housenumber" v="1131"/><tag k="coa:place_id" v="605612"/></node><node id="-198" lat="30.270417" lon="-97.73097" changeset="false"><tag k="addr:street" v="Juniper Street"/><tag k="addr:housenumber" v="901"/><tag k="coa:place_id" v="444548"/></node><node id="-199" lat="30.267928" lon="-97.72133" changeset="false"><tag k="addr:street" v="Leona Street"/><tag k="addr:housenumber" v="1121"/><tag k="coa:place_id" v="605588"/></node><node id="-200" lat="30.272704" lon="-97.72483" changeset="false"><tag k="addr:street" v="East 12th Street"/><tag k="addr:housenumber" v="1401"/><tag k="coa:place_id" v="880142"/></node><node id="-201" lat="30.272635" lon="-97.722558" changeset="false"><tag k="addr:street" v="New York Avenue"/><tag k="addr:housenumber" v="1606"/><tag k="coa:place_id" v="526766"/></node><node id="-202" lat="30.267857" lon="-97.725108" changeset="false"><tag k="addr:street" v="East 11th Street"/><tag k="addr:housenumber" v="1502"/><tag k="coa:place_id" v="3311912"/></node><node id="-203" lat="30.26973" lon="-97.728978" changeset="false"><tag k="addr:street" v="Juniper Street"/><tag k="addr:housenumber" v="1023"/><tag k="coa:place_id" v="3309078"/></node><node id="-204" lat="30.268292" lon="-97.719769" changeset="false"><tag k="addr:street" v="Chicon Street"/><tag k="addr:housenumber" v="1136"/><tag k="coa:place_id" v="5121350"/></node><node id="-205" lat="30.269307" lon="-97.725345" changeset="false"><tag k="addr:street" v="San Bernard Street"/><tag k="addr:housenumber" v="1157"/><tag k="coa:place_id" v="527786"/></node><node id="-206" lat="30.268537" lon="-97.726891" changeset="false"><tag k="addr:street" v="Rosewood Avenue"/><tag k="addr:housenumber" v="1200"/><tag k="coa:place_id" v="285400"/></node><node id="-207" lat="30.272691" lon="-97.722184" changeset="false"><tag k="addr:street" v="New York Avenue"/><tag k="addr:housenumber" v="1610"/><tag k="coa:place_id" v="526754"/></node><node id="-208" lat="30.270186" lon="-97.724396" changeset="false"><tag k="addr:street" v="Angelina Street"/><tag k="addr:housenumber" v="1165"/><tag k="coa:place_id" v="527564"/></node><node id="-209" lat="30.272364" lon="-97.727037" changeset="false"><tag k="addr:street" v="East 12th Street"/><tag k="addr:housenumber" v="1215"/><tag k="coa:place_id" v="526550"/></node><node id="-210" lat="30.2686" lon="-97.725476" changeset="false"><tag k="addr:street" v="Rosewood Avenue"/><tag k="addr:housenumber" v="1231"/><tag k="coa:place_id" v="89605"/></node><node id="-211" lat="30.269285" lon="-97.72796" changeset="false"><tag k="addr:street" v="Juniper Street"/><tag k="addr:housenumber" v="1109"/><tag k="coa:place_id" v="444770"/></node><node id="-212" lat="30.268895" lon="-97.719394" changeset="false"><tag k="addr:street" v="Chicon Street"/><tag k="addr:housenumber" v="1142"/><tag k="coa:place_id" v="549284"/></node><node id="-213" lat="30.272145" lon="-97.727885" changeset="false"><tag k="addr:street" v="Navasota Street"/><tag k="addr:housenumber" v="1194"/><tag k="coa:place_id" v="3139919"/></node><node id="-214" lat="30.268676" lon="-97.72395" changeset="false"><tag k="addr:street" v="Rosewood Avenue"/><tag k="addr:housenumber" v="1405"/><tag k="coa:place_id" v="605330"/></node><node id="-215" lat="30.272969" lon="-97.720429" changeset="false"><tag k="addr:street" v="New York Avenue"/><tag k="addr:housenumber" v="1802"/><tag k="coa:place_id" v="526706"/></node><node id="-216" lat="30.272377" lon="-97.724061" changeset="false"><tag k="addr:street" v="Comal Street"/><tag k="addr:housenumber" v="1192"/><tag k="coa:place_id" v="526832"/></node><node id="-217" lat="30.269798" lon="-97.724888" changeset="false"><tag k="addr:street" v="Angelina Street"/><tag k="addr:housenumber" v="1160"/><tag k="coa:place_id" v="527582"/></node><node id="-218" lat="30.268671" lon="-97.72182" changeset="false"><tag k="addr:street" v="Lawson Lane"/><tag k="addr:housenumber" v="1117"/><tag k="coa:place_id" v="632590"/></node><node id="-219" lat="30.270177" lon="-97.729114" changeset="false"><tag k="addr:street" v="Juniper Street"/><tag k="addr:housenumber" v="1008"/><tag k="coa:place_id" v="445100"/></node><node id="-220" lat="30.271195" lon="-97.73018" changeset="false"><tag k="addr:street" v="Olive Street"/><tag k="addr:housenumber" v="910"/><tag k="coa:place_id" v="1117030"/></node><node id="-221" lat="30.271192" lon="-97.730289" changeset="false"><tag k="addr:street" v="Olive Street"/><tag k="addr:housenumber" v="908"/><tag k="coa:place_id" v="577570"/></node><node id="-222" lat="30.269344" lon="-97.722258" changeset="false"><tag k="addr:street" v="Rosewood Avenue"/><tag k="addr:housenumber" v="1600"/><tag k="coa:place_id" v="527558"/></node><node id="-223" lat="30.269831" lon="-97.730576" changeset="false"><tag k="addr:street" v="East 11th Street"/><tag k="addr:housenumber" v="920"/><tag k="coa:place_id" v="252999"/></node><node id="-224" lat="30.272221" lon="-97.728436" changeset="false"><tag k="addr:street" v="East 12th Street"/><tag k="addr:housenumber" v="1107"/><tag k="coa:place_id" v="216838"/></node><node id="-225" lat="30.26867" lon="-97.720607" changeset="false"><tag k="addr:street" v="Salina Street"/><tag k="addr:housenumber" v="1136"/><tag k="coa:place_id" v="605702"/></node><node id="-226" lat="30.271772" lon="-97.725518" changeset="false"><tag k="addr:street" v="Cotton Street"/><tag k="addr:housenumber" v="1306"/><tag k="coa:place_id" v="526928"/></node><node id="-227" lat="30.269801" lon="-97.730305" changeset="false"><tag k="addr:street" v="East 11th Street"/><tag k="addr:housenumber" v="926"/><tag k="coa:place_id" v="444458"/></node><node id="-228" lat="30.270569" lon="-97.729245" changeset="false"><tag k="addr:street" v="Olive Street"/><tag k="addr:housenumber" v="1005"/><tag k="coa:place_id" v="446552"/></node><node id="-229" lat="30.2709" lon="-97.727909" changeset="false"><tag k="addr:street" v="Olive Street"/><tag k="addr:housenumber" v="1102"/><tag k="coa:place_id" v="446636"/></node><node id="-230" lat="30.266893" lon="-97.720444" changeset="false"><tag k="addr:street" v="Chicon Street"/><tag k="addr:housenumber" v="1108"/><tag k="coa:place_id" v="606488"/></node><node id="-231" lat="30.267027" lon="-97.720817" changeset="false"><tag k="addr:street" v="Salina Street"/><tag k="addr:housenumber" v="1111"/><tag k="coa:place_id" v="605756"/></node><node id="-232" lat="30.272289" lon="-97.724607" changeset="false"><tag k="addr:street" v="Angelina Street"/><tag k="addr:housenumber" v="1195"/><tag k="coa:place_id" v="526892"/></node><node id="-233" lat="30.272052" lon="-97.729455" changeset="false"><tag k="addr:street" v="East 12th Street"/><tag k="addr:housenumber" v="1001"/><tag k="coa:place_id" v="216826"/></node><node id="-234" lat="30.272006" lon="-97.729739" changeset="false"><tag k="addr:street" v="East 12th Street"/><tag k="addr:housenumber" v="913"/><tag k="coa:place_id" v="1113272"/></node><node id="-235" lat="30.270176" lon="-97.730357" changeset="false"><tag k="addr:street" v="Juniper Street"/><tag k="addr:housenumber" v="911"/><tag k="coa:place_id" v="444686"/></node><node id="-236" lat="30.269207" lon="-97.7249" changeset="false"><tag k="addr:street" v="Rosewood Avenue"/><tag k="addr:housenumber" v="1314"/><tag k="coa:place_id" v="527744"/></node><node id="-237" lat="30.270879" lon="-97.728681" changeset="false"><tag k="addr:street" v="Olive Street"/><tag k="addr:housenumber" v="1014"/><tag k="coa:place_id" v="446666"/></node><node id="-238" lat="30.269894" lon="-97.727742" changeset="false"><tag k="addr:street" v="Myrtle Street"/><tag k="addr:housenumber" v="1111"/><tag k="coa:place_id" v="445022"/></node><node id="-239" lat="30.272874" lon="-97.721033" changeset="false"><tag k="addr:street" v="New York Avenue"/><tag k="addr:housenumber" v="1708"/><tag k="coa:place_id" v="526724"/></node><node id="-240" lat="30.26968" lon="-97.726531" changeset="false"><tag k="addr:street" v="San Bernard Street"/><tag k="addr:housenumber" v="1164"/><tag k="coa:place_id" v="527822"/></node><node id="-241" lat="30.269244" lon="-97.721133" changeset="false"><tag k="addr:street" v="Rosewood Avenue"/><tag k="addr:housenumber" v="1621"/><tag k="coa:place_id" v="605528"/></node><node id="-242" lat="30.267807" lon="-97.722493" changeset="false"><tag k="addr:street" v="Gregory Street"/><tag k="addr:housenumber" v="1603"/><tag k="coa:place_id" v="605432"/></node><node id="-243" lat="30.271202" lon="-97.730083" changeset="false"><tag k="addr:street" v="Olive Street"/><tag k="addr:housenumber" v="912"/><tag k="coa:place_id" v="1117029"/></node><node id="-244" lat="30.269792" lon="-97.727359" changeset="false"><tag k="addr:street" v="Navasota Street"/><tag k="addr:housenumber" v="1168"/><tag k="coa:place_id" v="3166263"/></node><node id="-245" lat="30.271082" lon="-97.725166" changeset="false"><tag k="addr:street" v="Angelina Street"/><tag k="addr:housenumber" v="1184"/><tag k="coa:place_id" v="527240"/></node><node id="-246" lat="30.269854" lon="-97.729891" changeset="false"><tag k="addr:street" v="Curve Street"/><tag k="addr:housenumber" v="1125"/><tag k="coa:place_id" v="3082541"/></node><node id="-247" lat="30.268764" lon="-97.720922" changeset="false"><tag k="addr:street" v="Leona Street"/><tag k="addr:housenumber" v="1135"/><tag k="coa:place_id" v="247303"/></node><node id="-248" lat="30.269149" lon="-97.728437" changeset="false"><tag k="addr:street" v="East 11th Street"/><tag k="addr:housenumber" v="1106"/><tag k="coa:place_id" v="444320"/></node><node id="-249" lat="30.269087" lon="-97.725378" changeset="false"><tag k="addr:street" v="San Bernard Street"/><tag k="addr:housenumber" v="1153"/><tag k="coa:place_id" v="527780"/></node><node id="-250" lat="30.269028" lon="-97.724093" changeset="false"><tag k="addr:street" v="Rosewood Avenue"/><tag k="addr:housenumber" v="1400"/><tag k="coa:place_id" v="528038"/></node><node id="-251" lat="30.26897" lon="-97.726367" changeset="false"><tag k="addr:street" v="Rosewood Avenue"/><tag k="addr:housenumber" v="1210"/><tag k="coa:place_id" v="527858"/></node><node id="-252" lat="30.268379" lon="-97.724911" changeset="false"><tag k="addr:street" v="Angelina Street"/><tag k="addr:housenumber" v="1108"/><tag k="coa:place_id" v="527954"/></node><node id="-253" lat="30.269576" lon="-97.727316" changeset="false"><tag k="addr:street" v="Navasota Street"/><tag k="addr:housenumber" v="1164"/><tag k="coa:place_id" v="248247"/></node><node id="-254" lat="30.268375" lon="-97.720176" changeset="false"><tag k="addr:street" v="Salina Street"/><tag k="addr:housenumber" v="1133"/><tag k="coa:place_id" v="605810"/></node><node id="-255" lat="30.269101" lon="-97.72226" changeset="false"><tag k="addr:street" v="Lawson Lane"/><tag k="addr:housenumber" v="1140"/><tag k="coa:place_id" v="153988"/></node><node id="-256" lat="30.271273" lon="-97.728987" changeset="false"><tag k="addr:street" v="Catalpa Street"/><tag k="addr:housenumber" v="1005"/><tag k="coa:place_id" v="446750"/></node><node id="-257" lat="30.271114" lon="-97.727878" changeset="false"><tag k="addr:street" v="Amber Street"/><tag k="addr:housenumber" v="1101"/><tag k="coa:place_id" v="446648"/></node><node id="-258" lat="30.269461" lon="-97.723627" changeset="false"><tag k="addr:street" v="Rosewood Avenue"/><tag k="addr:housenumber" v="1500"/><tag k="coa:place_id" v="430762"/></node><node id="-259" lat="30.271961" lon="-97.727579" changeset="false"><tag k="addr:street" v="Navasota Street"/><tag k="addr:housenumber" v="1195 1/2"/><tag k="coa:place_id" v="447152"/></node><node id="-260" lat="30.272896" lon="-97.72087" changeset="false"><tag k="addr:street" v="New York Avenue"/><tag k="addr:housenumber" v="1710"/><tag k="coa:place_id" v="526718"/></node><node id="-261" lat="30.273618" lon="-97.720134" changeset="false"><tag k="addr:street" v="East 12th Street"/><tag k="addr:housenumber" v="1815"/><tag k="coa:place_id" v="526688"/></node><node id="-262" lat="30.269776" lon="-97.729131" changeset="false"><tag k="addr:street" v="Juniper Street"/><tag k="addr:housenumber" v="1019"/><tag k="coa:place_id" v="3098407"/></node><node id="-263" lat="30.269832" lon="-97.727943" changeset="false"><tag k="addr:street" v="Myrtle Street"/><tag k="addr:housenumber" v="1109"/><tag k="coa:place_id" v="248227"/></node><node id="-264" lat="30.269878" lon="-97.729398" changeset="false"><tag k="addr:street" v="Juniper Street"/><tag k="addr:housenumber" v="1011"/><tag k="coa:place_id" v="781149"/></node><node id="-265" lat="30.271491" lon="-97.728355" changeset="false"><tag k="addr:street" v="Catalpa Street"/><tag k="addr:housenumber" v="1015"/><tag k="coa:place_id" v="446762"/></node><node id="-266" lat="30.271464" lon="-97.727279" changeset="false"><tag k="addr:street" v="Cotton Street"/><tag k="addr:housenumber" v="1202"/><tag k="coa:place_id" v="527066"/></node><node id="-267" lat="30.270124" lon="-97.73162" changeset="false"><tag k="addr:street" v="East 11th Street"/><tag k="addr:housenumber" v="814 1/2"/><tag k="coa:place_id" v="3098129"/></node><node id="-268" lat="30.271911" lon="-97.724663" changeset="false"><tag k="addr:street" v="Cotton Street"/><tag k="addr:housenumber" v="1400"/><tag k="coa:place_id" v="526880"/></node><node id="-269" lat="30.267895" lon="-97.720398" changeset="false"><tag k="addr:street" v="Salina Street"/><tag k="addr:housenumber" v="1125"/><tag k="coa:place_id" v="605792"/></node><node id="-270" lat="30.269554" lon="-97.719072" changeset="false"><tag k="addr:street" v="Rosewood Avenue"/><tag k="addr:housenumber" v="1819"/><tag k="coa:place_id" v="605900"/></node><node id="-271" lat="30.269398" lon="-97.726754" changeset="false"><tag k="addr:street" v="Navasota Street"/><tag k="addr:housenumber" v="1159"/><tag k="coa:place_id" v="444836"/></node><node id="-272" lat="30.268435" lon="-97.722505" changeset="false"><tag k="addr:street" v="Lawson Lane"/><tag k="addr:housenumber" v="1128"/><tag k="coa:place_id" v="605420"/></node><node id="-273" lat="30.267427" lon="-97.72398" changeset="false"><tag k="addr:street" v="East 11th Street"/><tag k="addr:housenumber" v="1604"/><tag k="coa:place_id" v="606632"/></node><node id="-274" lat="30.269296" lon="-97.721162" changeset="false"><tag k="addr:street" v="Leona Street"/><tag k="addr:housenumber" v="1176"/><tag k="coa:place_id" v="879986"/></node><node id="-275" lat="30.268299" lon="-97.722501" changeset="false"><tag k="addr:street" v="Gregory Street"/><tag k="addr:housenumber" v="1602"/><tag k="coa:place_id" v="605426"/></node><node id="-276" lat="30.272201" lon="-97.728625" changeset="false"><tag k="addr:street" v="East 12th Street"/><tag k="addr:housenumber" v="1103"/><tag k="coa:place_id" v="216837"/></node><node id="-277" lat="30.271717" lon="-97.729792" changeset="false"><tag k="addr:street" v="Catalpa Street"/><tag k="addr:housenumber" v="912"/><tag k="coa:place_id" v="147112"/></node><node id="-278" lat="30.269364" lon="-97.728174" changeset="false"><tag k="addr:street" v="Juniper Street"/><tag k="addr:housenumber" v="1105"/><tag k="coa:place_id" v="444758"/></node><node id="-279" lat="30.269246" lon="-97.7287" changeset="false"><tag k="addr:street" v="East 11th Street"/><tag k="addr:housenumber" v="1100"/><tag k="coa:place_id" v="444338"/></node><node id="-280" lat="30.269021" lon="-97.728093" changeset="false"><tag k="addr:street" v="East 11th Street"/><tag k="addr:housenumber" v="1114"/><tag k="coa:place_id" v="444302"/></node><node id="-281" lat="30.273407" lon="-97.720634" changeset="false"><tag k="addr:street" v="East 12th Street"/><tag k="addr:housenumber" v="1803"/><tag k="coa:place_id" v="3122652"/></node><node id="-282" lat="30.269689" lon="-97.728834" changeset="false"><tag k="addr:street" v="Waller Street"/><tag k="addr:housenumber" v="1158"/><tag k="coa:place_id" v="3098410"/></node><node id="-283" lat="30.270129" lon="-97.728865" changeset="false"><tag k="addr:street" v="Juniper Street"/><tag k="addr:housenumber" v="1012"/><tag k="coa:place_id" v="445088"/></node><node id="-284" lat="30.269716" lon="-97.730251" changeset="false"><tag k="addr:street" v="East 11th Street"/><tag k="addr:housenumber" v="928"/><tag k="coa:place_id" v="444452"/></node><node id="-285" lat="30.270469" lon="-97.726395" changeset="false"><tag k="addr:street" v="San Bernard Street"/><tag k="addr:housenumber" v="1172"/><tag k="coa:place_id" v="695746"/></node><node id="-286" lat="30.270804" lon="-97.726495" changeset="false"><tag k="addr:street" v="San Bernard Street"/><tag k="addr:housenumber" v="1174"/><tag k="coa:place_id" v="527174"/></node><node id="-287" lat="30.270654" lon="-97.725072" changeset="false"><tag k="addr:street" v="Angelina Street"/><tag k="addr:housenumber" v="1170"/><tag k="coa:place_id" v="527270"/></node><node id="-288" lat="30.27065" lon="-97.727026" changeset="false"><tag k="addr:street" v="Navasota Street"/><tag k="addr:housenumber" v="1175"/><tag k="coa:place_id" v="444950"/></node><node id="-289" lat="30.270619" lon="-97.725627" changeset="false"><tag k="addr:street" v="San Bernard Street"/><tag k="addr:housenumber" v="1173"/><tag k="coa:place_id" v="250437"/></node><node id="-290" lat="30.270626" lon="-97.727561" changeset="false"><tag k="addr:street" v="Navasota Street"/><tag k="addr:housenumber" v="1178"/><tag k="coa:place_id" v="3134312"/></node><node id="-291" lat="30.268315" lon="-97.724923" changeset="false"><tag k="addr:street" v="Angelina Street"/><tag k="addr:housenumber" v="1106"/><tag k="coa:place_id" v="527960"/></node><node id="-292" lat="30.269554" lon="-97.719156" changeset="false"><tag k="addr:street" v="Rosewood Avenue"/><tag k="addr:housenumber" v="1815"/><tag k="coa:place_id" v="573874"/></node><node id="-293" lat="30.269555" lon="-97.719249" changeset="false"><tag k="addr:street" v="Rosewood Avenue"/><tag k="addr:housenumber" v="1811"/><tag k="coa:place_id" v="605840"/></node><node id="-294" lat="30.27124" lon="-97.725765" changeset="false"><tag k="addr:street" v="San Bernard Street"/><tag k="addr:housenumber" v="1179"/><tag k="coa:place_id" v="225397"/></node><node id="-295" lat="30.271285" lon="-97.72555" changeset="false"><tag k="addr:street" v="Cotton Street"/><tag k="addr:housenumber" v="1303"/><tag k="coa:place_id" v="527126"/></node><node id="-296" lat="30.272262" lon="-97.728219" changeset="false"><tag k="addr:street" v="East 12th Street"/><tag k="addr:housenumber" v="1115"/><tag k="coa:place_id" v="447266"/></node><node id="-297" lat="30.272253" lon="-97.728295" changeset="false"><tag k="addr:street" v="East 12th Street"/><tag k="addr:housenumber" v="1113"/><tag k="coa:place_id" v="216840"/></node><node id="-298" lat="30.270802" lon="-97.730569" changeset="false"><tag k="addr:street" v="Olive Street"/><tag k="addr:housenumber" v="907"/><tag k="coa:place_id" v="248619"/></node><node id="-299" lat="30.270828" lon="-97.730669" changeset="false"><tag k="addr:street" v="Olive Street"/><tag k="addr:housenumber" v="905"/><tag k="coa:place_id" v="248617"/></node><node id="-300" lat="30.271491" lon="-97.731456" changeset="false"><tag k="addr:street" v="Branch Street"/><tag k="addr:housenumber" v="1190"/><tag k="coa:place_id" v="1115849"/></node><node id="-301" lat="30.270653" lon="-97.73145" changeset="false"><tag k="addr:street" v="North Interstate Highway 35 Service Road"/><tag k="addr:housenumber" v="1103"/><tag k="coa:place_id" v="880070"/></node><node id="-302" lat="30.271136" lon="-97.721533" changeset="false"><tag k="addr:street" v="Pennsylvania Avenue"/><tag k="addr:housenumber" v="1605"/><tag k="coa:place_id" v="817563"/></node><node id="-303" lat="30.271041" lon="-97.721917" changeset="false"><tag k="addr:street" v="Pennsylvania Avenue"/><tag k="addr:housenumber" v="1607"/><tag k="coa:place_id" v="185962"/></node><node id="-304" lat="30.267311" lon="-97.723451" changeset="false"><tag k="addr:street" v="East 11th Street"/><tag k="addr:housenumber" v="1610"/><tag k="coa:place_id" v="606596"/></node><node id="-305" lat="30.267454" lon="-97.723652" changeset="false"><tag k="addr:street" v="East 11th Street"/><tag k="addr:housenumber" v="1608"/><tag k="coa:place_id" v="315939"/></node><node id="-306" lat="30.267334" lon="-97.722156" changeset="false"><tag k="addr:street" v="East 11th Street"/><tag k="addr:housenumber" v="1712"/><tag k="coa:place_id" v="547810"/></node><node id="-307" lat="30.266831" lon="-97.721429" changeset="false"><tag k="addr:street" v="Salina Street"/><tag k="addr:housenumber" v="1116"/><tag k="coa:place_id" v="605750"/></node><node id="-308" lat="30.268515" lon="-97.725598" changeset="false"><tag k="addr:street" v="Rosewood Avenue"/><tag k="addr:housenumber" v="1223"/><tag k="coa:place_id" v="382180"/></node><node id="-309" lat="30.268452" lon="-97.725791" changeset="false"><tag k="addr:street" v="Rosewood Avenue"/><tag k="addr:housenumber" v="1219"/><tag k="coa:place_id" v="879992"/></node><node id="-310" lat="30.26878" lon="-97.727588" changeset="false"><tag k="addr:street" v="East 11th Street"/><tag k="addr:housenumber" v="1200"/><tag k="coa:place_id" v="444248"/></node><node id="-311" lat="30.268719" lon="-97.727428" changeset="false"><tag k="addr:street" v="East 11th Street"/><tag k="addr:housenumber" v="1206"/><tag k="coa:place_id" v="272739"/></node><node id="-312" lat="30.26915" lon="-97.727407" changeset="false"><tag k="addr:street" v="Lydia Street"/><tag k="addr:housenumber" v="1159"/><tag k="coa:place_id" v="444272"/></node><node id="-313" lat="30.269022" lon="-97.727446" changeset="false"><tag k="addr:street" v="Lydia Street"/><tag k="addr:housenumber" v="1157"/><tag k="coa:place_id" v="444266"/></node><node id="-314" lat="30.270002" lon="-97.731022" changeset="false"><tag k="addr:street" v="East 11th Street"/><tag k="addr:housenumber" v="908"/><tag k="coa:place_id" v="444506"/></node><node id="-315" lat="30.269966" lon="-97.730876" changeset="false"><tag k="addr:street" v="East 11th Street"/><tag k="addr:housenumber" v="912"/><tag k="coa:place_id" v="444500"/></node><node id="-316" lat="30.269417" lon="-97.729424" changeset="false"><tag k="addr:street" v="East 11th Street"/><tag k="addr:housenumber" v="1010"/><tag k="coa:place_id" v="444386"/></node><node id="-317" lat="30.269394" lon="-97.729409" changeset="false"><tag k="addr:street" v="East 11th Street"/><tag k="addr:housenumber" v="1010 1/2"/><tag k="coa:place_id" v="3102191"/></node><node id="-318" lat="30.269424" lon="-97.729483" changeset="false"><tag k="addr:street" v="East 11th Street"/><tag k="addr:housenumber" v="1016"/><tag k="coa:place_id" v="444350"/></node><node id="-319" lat="30.269381" lon="-97.729381" changeset="false"><tag k="addr:street" v="East 11th Street"/><tag k="addr:housenumber" v="1010 3/4"/><tag k="coa:place_id" v="444374"/></node><node id="-320" lat="30.269205" lon="-97.728586" changeset="false"><tag k="addr:street" v="East 11th Street"/><tag k="addr:housenumber" v="1104"/><tag k="coa:place_id" v="686878"/></node><node id="-321" lat="30.269134" lon="-97.728644" changeset="false"><tag k="addr:street" v="East 11th Street"/><tag k="addr:housenumber" v="1102"/><tag k="coa:place_id" v="444332"/></node><node id="-322" lat="30.269281" lon="-97.728993" changeset="false"><tag k="addr:street" v="East 11th Street"/><tag k="addr:housenumber" v="1050"/><tag k="coa:place_id" v="444356"/></node><node id="-323" lat="30.269357" lon="-97.729203" changeset="false"><tag k="addr:street" v="East 11th Street"/><tag k="addr:housenumber" v="1014"/><tag k="coa:place_id" v="3135272"/></node><node id="-324" lat="30.269377" lon="-97.729285" changeset="false"><tag k="addr:street" v="East 11th Street"/><tag k="addr:housenumber" v="1012"/><tag k="coa:place_id" v="444368"/></node><node id="-325" lat="30.269333" lon="-97.729176" changeset="false"><tag k="addr:street" v="East 11th Street"/><tag k="addr:housenumber" v="1020 1/2"/><tag k="coa:place_id" v="3093650"/></node><node id="-326" lat="30.269575" lon="-97.729597" changeset="false"><tag k="addr:street" v="East 11th Street"/><tag k="addr:housenumber" v="1008"/><tag k="coa:place_id" v="444392"/></node><node id="-327" lat="30.269607" lon="-97.729887" changeset="false"><tag k="addr:street" v="East 11th Street"/><tag k="addr:housenumber" v="1002"/><tag k="coa:place_id" v="444410"/></node><node id="-328" lat="30.26961" lon="-97.729709" changeset="false"><tag k="addr:street" v="East 11th Street"/><tag k="addr:housenumber" v="1006"/><tag k="coa:place_id" v="444398"/></node><node id="-329" lat="30.269624" lon="-97.729924" changeset="false"><tag k="addr:street" v="East 11th Street"/><tag k="addr:housenumber" v="1000"/><tag k="coa:place_id" v="3076734"/></node></osm>