<?xml version="1.0" encoding="UTF-8"?><osm version="0.6" generator="github.com/aaronlidman/osm-and-geojson"><node id="-1" lat="30.199633" lon="-97.853874" changeset="false"><tag k="addr:street" v="Davis Lane,1100"/><tag k="addr:housenumber" v="4304"/><tag k="coa:place_id" v="1141558"/></node><node id="-2" lat="30.200564" lon="-97.855352" changeset="false"><tag k="addr:street" v="West Hove Loop"/><tag k="addr:housenumber" v="8940"/><tag k="coa:place_id" v="225535"/></node><node id="-3" lat="30.211991" lon="-97.853186" changeset="false"><tag k="addr:street" v="Nairn Drive"/><tag k="addr:housenumber" v="7907"/><tag k="coa:place_id" v="58048"/></node><node id="-4" lat="30.201033" lon="-97.849887" changeset="false"><tag k="addr:street" v="Ampezo Trail"/><tag k="addr:housenumber" v="8701"/><tag k="coa:place_id" v="876650"/></node><node id="-5" lat="30.201991" lon="-97.84524" changeset="false"><tag k="addr:street" v="Coastal Drive"/><tag k="addr:housenumber" v="8501"/><tag k="coa:place_id" v="364186"/></node><node id="-6" lat="30.214851" lon="-97.850233" changeset="false"><tag k="addr:street" v="Latta Drive"/><tag k="addr:housenumber" v="7600"/><tag k="coa:place_id" v="876770"/></node><node id="-7" lat="30.204981" lon="-97.858062" changeset="false"><tag k="addr:street" v="Axis Drive"/><tag k="addr:housenumber" v="8610"/><tag k="coa:place_id" v="150195"/></node><node id="-8" lat="30.200935" lon="-97.854612" changeset="false"><tag k="addr:street" v="West Hove Loop"/><tag k="addr:housenumber" v="8951"/><tag k="coa:place_id" v="225558"/></node><node id="-9" lat="30.211112" lon="-97.853951" changeset="false"><tag k="addr:street" v="Crafty Cove"/><tag k="addr:housenumber" v="4802"/><tag k="coa:place_id" v="58051"/></node><node id="-10" lat="30.196562" lon="-97.841743" changeset="false"><tag k="addr:street" v="Brodie Lane"/><tag k="addr:housenumber" v="8710"/><tag k="coa:place_id" v="876674"/></node><node id="-11" lat="30.19925" lon="-97.850444" changeset="false"><tag k="addr:street" v="Ravello Pass"/><tag k="addr:housenumber" v="8902"/><tag k="coa:place_id" v="563164"/></node><node id="-12" lat="30.202025" lon="-97.845609" changeset="false"><tag k="addr:street" v="Alexandria Drive"/><tag k="addr:housenumber" v="3913"/><tag k="coa:place_id" v="537495"/></node><node id="-13" lat="30.19915" lon="-97.84995" changeset="false"><tag k="addr:street" v="Ravello Pass"/><tag k="addr:housenumber" v="8901"/><tag k="coa:place_id" v="563152"/></node><node id="-14" lat="30.199924" lon="-97.852543" changeset="false"><tag k="addr:street" v="Iriona Bend"/><tag k="addr:housenumber" v="4228"/><tag k="coa:place_id" v="692674"/></node><node id="-15" lat="30.201518" lon="-97.847563" changeset="false"><tag k="addr:street" v="Verona Trail"/><tag k="addr:housenumber" v="8512"/><tag k="coa:place_id" v="69939"/></node><node id="-16" lat="30.198134" lon="-97.850036" changeset="false"><tag k="addr:street" v="Iriona Bend"/><tag k="addr:housenumber" v="4015"/><tag k="coa:place_id" v="739210"/></node><node id="-17" lat="30.203104" lon="-97.857436" changeset="false"><tag k="addr:street" v="Puckett Court"/><tag k="addr:housenumber" v="8716"/><tag k="coa:place_id" v="201871"/></node><node id="-18" lat="30.199912" lon="-97.850515" changeset="false"><tag k="addr:street" v="Ampezo Trail"/><tag k="addr:housenumber" v="8805"/><tag k="coa:place_id" v="739216"/></node><node id="-19" lat="30.19847" lon="-97.85074" changeset="false"><tag k="addr:street" v="Iriona Bend"/><tag k="addr:housenumber" v="4025"/><tag k="coa:place_id" v="67928"/></node><node id="-20" lat="30.210663" lon="-97.857042" changeset="false"><tag k="addr:street" v="Nairn Drive"/><tag k="addr:housenumber" v="8212"/><tag k="coa:place_id" v="58006"/></node><node id="-21" lat="30.201396" lon="-97.852007" changeset="false"><tag k="addr:street" v="Cortina Drive"/><tag k="addr:housenumber" v="4216"/><tag k="coa:place_id" v="1141553"/></node><node id="-22" lat="30.201561" lon="-97.847534" changeset="false"><tag k="addr:street" v="Verona Trail"/><tag k="addr:housenumber" v="8508"/><tag k="coa:place_id" v="69938"/></node><node id="-23" lat="30.201233" lon="-97.851543" changeset="false"><tag k="addr:street" v="Cortina Drive"/><tag k="addr:housenumber" v="4214"/><tag k="coa:place_id" v="67886"/></node><node id="-24" lat="30.198854" lon="-97.847463" changeset="false"><tag k="addr:street" v="Coastal Drive"/><tag k="addr:housenumber" v="8717"/><tag k="coa:place_id" v="647860"/></node><node id="-25" lat="30.198083" lon="-97.849929" changeset="false"><tag k="addr:street" v="Iriona Bend"/><tag k="addr:housenumber" v="4013"/><tag k="coa:place_id" v="719392"/></node><node id="-26" lat="30.200833" lon="-97.852512" changeset="false"><tag k="addr:street" v="Iriona Bend"/><tag k="addr:housenumber" v="4241"/><tag k="coa:place_id" v="67912"/></node><node id="-27" lat="30.199133" lon="-97.847248" changeset="false"><tag k="addr:street" v="Coastal Drive"/><tag k="addr:housenumber" v="8715"/><tag k="coa:place_id" v="407686"/></node><node id="-28" lat="30.200412" lon="-97.851225" changeset="false"><tag k="addr:street" v="Teresina Drive"/><tag k="addr:housenumber" v="8803"/><tag k="coa:place_id" v="67948"/></node><node id="-29" lat="30.203297" lon="-97.855586" changeset="false"><tag k="addr:street" v="Barrow Glen Loop"/><tag k="addr:housenumber" v="8600"/><tag k="coa:place_id" v="200424"/></node><node id="-30" lat="30.195196" lon="-97.842987" changeset="false"><tag k="addr:street" v="Brodie Lane"/><tag k="addr:housenumber" v="8906"/><tag k="coa:place_id" v="5083978"/></node><node id="-31" lat="30.214734" lon="-97.851184" changeset="false"><tag k="addr:street" v="Latta Drive"/><tag k="addr:housenumber" v="7606"/><tag k="coa:place_id" v="186823"/></node><node id="-32" lat="30.199003" lon="-97.850602" changeset="false"><tag k="addr:street" v="Ravello Pass"/><tag k="addr:housenumber" v="8906"/><tag k="coa:place_id" v="534508"/></node><node id="-33" lat="30.203159" lon="-97.85585" changeset="false"><tag k="addr:street" v="Barrow Glen Loop"/><tag k="addr:housenumber" v="8601"/><tag k="coa:place_id" v="202583"/></node><node id="-34" lat="30.216103" lon="-97.84916" changeset="false"><tag k="addr:street" v="Latta Drive"/><tag k="addr:housenumber" v="7406"/><tag k="coa:place_id" v="3045659"/></node><node id="-35" lat="30.199755" lon="-97.847941" changeset="false"><tag k="addr:street" v="Verona Trail"/><tag k="addr:housenumber" v="8709"/><tag k="coa:place_id" v="426052"/></node><node id="-36" lat="30.200031" lon="-97.850439" changeset="false"><tag k="addr:street" v="Ampezo Trail"/><tag k="addr:housenumber" v="8803"/><tag k="coa:place_id" v="563218"/></node><node id="-37" lat="30.198387" lon="-97.850609" changeset="false"><tag k="addr:street" v="Iriona Bend"/><tag k="addr:housenumber" v="4023"/><tag k="coa:place_id" v="746392"/></node><node id="-38" lat="30.202852" lon="-97.857338" changeset="false"><tag k="addr:street" v="Puckett Court"/><tag k="addr:housenumber" v="8717"/><tag k="coa:place_id" v="233693"/></node><node id="-39" lat="30.205282" lon="-97.853441" changeset="false"><tag k="addr:street" v="Copano Drive"/><tag k="addr:housenumber" v="8512"/><tag k="coa:place_id" v="130255"/></node><node id="-40" lat="30.199881" lon="-97.853176" changeset="false"><tag k="addr:street" v="Iriona Bend"/><tag k="addr:housenumber" v="4225"/><tag k="coa:place_id" v="729550"/></node><node id="-41" lat="30.201178" lon="-97.854674" changeset="false"><tag k="addr:street" v="East Hove Loop"/><tag k="addr:housenumber" v="4429"/><tag k="coa:place_id" v="225579"/></node><node id="-42" lat="30.206675" lon="-97.855279" changeset="false"><tag k="addr:street" v="Alta Loma Drive"/><tag k="addr:housenumber" v="4705"/><tag k="coa:place_id" v="429658"/></node><node id="-43" lat="30.199216" lon="-97.840058" changeset="false"><tag k="addr:street" v="Brodie Lane"/><tag k="addr:housenumber" v="8506"/><tag k="coa:place_id" v="1141560"/></node><node id="-44" lat="30.198381" lon="-97.849583" changeset="false"><tag k="addr:street" v="Iriona Bend"/><tag k="addr:housenumber" v="4010"/><tag k="coa:place_id" v="534526"/></node><node id="-45" lat="30.199161" lon="-97.840028" changeset="false"><tag k="addr:street" v="Brodie Lane"/><tag k="addr:housenumber" v="8506 1/2"/><tag k="coa:place_id" v="326266"/></node><node id="-46" lat="30.210299" lon="-97.855291" changeset="false"><tag k="addr:street" v="San Simeon Drive"/><tag k="addr:housenumber" v="4805"/><tag k="coa:place_id" v="120916"/></node><node id="-47" lat="30.203214" lon="-97.848119" changeset="false"><tag k="addr:street" v="Alexandria Drive"/><tag k="addr:housenumber" v="4107"/><tag k="coa:place_id" v="241745"/></node><node id="-48" lat="30.199662" lon="-97.850656" changeset="false"><tag k="addr:street" v="Ampezo Trail"/><tag k="addr:housenumber" v="8809"/><tag k="coa:place_id" v="705718"/></node><node id="-49" lat="30.208265" lon="-97.858347" changeset="false"><tag k="addr:street" v="Nairn Drive"/><tag k="addr:housenumber" v="8402"/><tag k="coa:place_id" v="57991"/></node><node id="-50" lat="30.213206" lon="-97.85249" changeset="false"><tag k="addr:street" v="Nairn Drive"/><tag k="addr:housenumber" v="7804"/><tag k="coa:place_id" v="58041"/></node><node id="-51" lat="30.200811" lon="-97.847833" changeset="false"><tag k="addr:street" v="Verona Trail"/><tag k="addr:housenumber" v="8610"/><tag k="coa:place_id" v="423202"/></node><node id="-52" lat="30.199538" lon="-97.849684" changeset="false"><tag k="addr:street" v="Ravello Pass"/><tag k="addr:housenumber" v="8805"/><tag k="coa:place_id" v="563170"/></node><node id="-53" lat="30.200508" lon="-97.85177" changeset="false"><tag k="addr:street" v="Teresina Drive"/><tag k="addr:housenumber" v="8804"/><tag k="coa:place_id" v="67946"/></node><node id="-54" lat="30.200171" lon="-97.851381" changeset="false"><tag k="addr:street" v="Teresina Drive"/><tag k="addr:housenumber" v="8807"/><tag k="coa:place_id" v="67950"/></node><node id="-55" lat="30.199812" lon="-97.851605" changeset="false"><tag k="addr:street" v="Teresina Drive"/><tag k="addr:housenumber" v="8901"/><tag k="coa:place_id" v="67953"/></node><node id="-56" lat="30.200675" lon="-97.855699" changeset="false"><tag k="addr:street" v="West Hove Loop"/><tag k="addr:housenumber" v="8932"/><tag k="coa:place_id" v="225538"/></node><node id="-57" lat="30.200656" lon="-97.854596" changeset="false"><tag k="addr:street" v="West Hove Loop"/><tag k="addr:housenumber" v="8955"/><tag k="coa:place_id" v="225557"/></node><node id="-58" lat="30.208618" lon="-97.858132" changeset="false"><tag k="addr:street" v="Nairn Drive"/><tag k="addr:housenumber" v="8314"/><tag k="coa:place_id" v="57993"/></node><node id="-59" lat="30.199134" lon="-97.850532" changeset="false"><tag k="addr:street" v="Ravello Pass"/><tag k="addr:housenumber" v="8904"/><tag k="coa:place_id" v="552760"/></node><node id="-60" lat="30.200991" lon="-97.852394" changeset="false"><tag k="addr:street" v="Iriona Bend"/><tag k="addr:housenumber" v="4243"/><tag k="coa:place_id" v="67913"/></node><node id="-61" lat="30.199539" lon="-97.850728" changeset="false"><tag k="addr:street" v="Ampezo Trail"/><tag k="addr:housenumber" v="8811"/><tag k="coa:place_id" v="563224"/></node><node id="-62" lat="30.200054" lon="-97.852474" changeset="false"><tag k="addr:street" v="Iriona Bend"/><tag k="addr:housenumber" v="4230"/><tag k="coa:place_id" v="751246"/></node><node id="-63" lat="30.201111" lon="-97.852346" changeset="false"><tag k="addr:street" v="Iriona Bend"/><tag k="addr:housenumber" v="4245"/><tag k="coa:place_id" v="698122"/></node><node id="-64" lat="30.201987" lon="-97.845558" changeset="false"><tag k="addr:street" v="Coastal Drive"/><tag k="addr:housenumber" v="8504"/><tag k="coa:place_id" v="430948"/></node><node id="-65" lat="30.20583" lon="-97.858589" changeset="false"><tag k="addr:street" v="Barasinga Trail"/><tag k="addr:housenumber" v="8526"/><tag k="coa:place_id" v="129516"/></node><node id="-66" lat="30.203435" lon="-97.848467" changeset="false"><tag k="addr:street" v="Alexandria Drive"/><tag k="addr:housenumber" v="4201"/><tag k="coa:place_id" v="3298333"/></node><node id="-67" lat="30.21553" lon="-97.850134" changeset="false"><tag k="addr:street" v="Latta Drive"/><tag k="addr:housenumber" v="7510"/><tag k="coa:place_id" v="5087969"/></node><node id="-68" lat="30.206913" lon="-97.859222" changeset="false"><tag k="addr:street" v="Davis Lane,1100"/><tag k="addr:housenumber" v="5000"/><tag k="coa:place_id" v="3377446"/></node><node id="-69" lat="30.207022" lon="-97.857357" changeset="false"><tag k="addr:street" v="Sika Way"/><tag k="addr:housenumber" v="4806"/><tag k="coa:place_id" v="129563"/></node><node id="-70" lat="30.197601" lon="-97.849044" changeset="false"><tag k="addr:street" v="Coastal Drive"/><tag k="addr:housenumber" v="8912"/><tag k="coa:place_id" v="339682"/></node><node id="-71" lat="30.205632" lon="-97.856195" changeset="false"><tag k="addr:street" v="Aoudad Trail"/><tag k="addr:housenumber" v="8512"/><tag k="coa:place_id" v="130312"/></node><node id="-72" lat="30.199351" lon="-97.850379" changeset="false"><tag k="addr:street" v="Ravello Pass"/><tag k="addr:housenumber" v="8900"/><tag k="coa:place_id" v="713728"/></node><node id="-73" lat="30.202085" lon="-97.845501" changeset="false"><tag k="addr:street" v="Coastal Drive"/><tag k="addr:housenumber" v="8502"/><tag k="coa:place_id" v="127252"/></node><node id="-74" lat="30.197172" lon="-97.848238" changeset="false"><tag k="addr:street" v="Deer Lane"/><tag k="addr:housenumber" v="3900"/><tag k="coa:place_id" v="125707"/></node><node id="-75" lat="30.212297" lon="-97.853547" changeset="false"><tag k="addr:street" v="Nairn Drive"/><tag k="addr:housenumber" v="7906"/><tag k="coa:place_id" v="58033"/></node><node id="-76" lat="30.200546" lon="-97.85217" changeset="false"><tag k="addr:street" v="Iriona Bend"/><tag k="addr:housenumber" v="4238"/><tag k="coa:place_id" v="67916"/></node><node id="-77" lat="30.202184" lon="-97.857192" changeset="false"><tag k="addr:street" v="Barrow Glen Loop"/><tag k="addr:housenumber" v="8816"/><tag k="coa:place_id" v="232284"/></node><node id="-78" lat="30.204582" lon="-97.851179" changeset="false"><tag k="addr:street" v="Mauai Drive"/><tag k="addr:housenumber" v="8506"/><tag k="coa:place_id" v="68553"/></node><node id="-79" lat="30.200048" lon="-97.851442" changeset="false"><tag k="addr:street" v="Teresina Drive"/><tag k="addr:housenumber" v="8809"/><tag k="coa:place_id" v="67951"/></node><node id="-80" lat="30.20779" lon="-97.858122" changeset="false"><tag k="addr:street" v="Nairn Drive"/><tag k="addr:housenumber" v="8409"/><tag k="coa:place_id" v="129527"/></node><node id="-81" lat="30.1993" lon="-97.850878" changeset="false"><tag k="addr:street" v="Ampezo Trail"/><tag k="addr:housenumber" v="8903"/><tag k="coa:place_id" v="705730"/></node><node id="-82" lat="30.200293" lon="-97.851305" changeset="false"><tag k="addr:street" v="Teresina Drive"/><tag k="addr:housenumber" v="8805"/><tag k="coa:place_id" v="628582"/></node><node id="-83" lat="30.214302" lon="-97.851764" changeset="false"><tag k="addr:street" v="Latta Drive"/><tag k="addr:housenumber" v="7700"/><tag k="coa:place_id" v="3143920"/></node><node id="-84" lat="30.198928" lon="-97.850107" changeset="false"><tag k="addr:street" v="Ravello Pass"/><tag k="addr:housenumber" v="8905"/><tag k="coa:place_id" v="576988"/></node><node id="-85" lat="30.196999" lon="-97.841592" changeset="false"><tag k="addr:street" v="Brodie Lane"/><tag k="addr:housenumber" v="8700"/><tag k="coa:place_id" v="202513"/></node><node id="-86" lat="30.200181" lon="-97.850334" changeset="false"><tag k="addr:street" v="Ampezo Trail"/><tag k="addr:housenumber" v="8801"/><tag k="coa:place_id" v="659932"/></node><node id="-87" lat="30.203286" lon="-97.855025" changeset="false"><tag k="addr:street" v="Copano Drive"/><tag k="addr:housenumber" v="8609"/><tag k="coa:place_id" v="130423"/></node><node id="-88" lat="30.204055" lon="-97.852143" changeset="false"><tag k="addr:street" v="Mauai Drive"/><tag k="addr:housenumber" v="8507"/><tag k="coa:place_id" v="1141600"/></node><node id="-89" lat="30.199786" lon="-97.850568" changeset="false"><tag k="addr:street" v="Ampezo Trail"/><tag k="addr:housenumber" v="8807"/><tag k="coa:place_id" v="747130"/></node><node id="-90" lat="30.199698" lon="-97.853251" changeset="false"><tag k="addr:street" v="Iriona Bend"/><tag k="addr:housenumber" v="4223"/><tag k="coa:place_id" v="701836"/></node><node id="-91" lat="30.206599" lon="-97.859061" changeset="false"><tag k="addr:street" v="Davis Lane,1100"/><tag k="addr:housenumber" v="4920"/><tag k="coa:place_id" v="3374229"/></node><node id="-92" lat="30.20275" lon="-97.853913" changeset="false"><tag k="addr:street" v="Corran Ferry Loop"/><tag k="addr:housenumber" v="4432"/><tag k="coa:place_id" v="1141562"/></node><node id="-93" lat="30.1986" lon="-97.840675" changeset="false"><tag k="addr:street" v="Brodie Lane"/><tag k="addr:housenumber" v="8600"/><tag k="coa:place_id" v="3040895"/></node><node id="-94" lat="30.199487" lon="-97.849025" changeset="false"><tag k="addr:street" v="Cortina Drive"/><tag k="addr:housenumber" v="4003"/><tag k="coa:place_id" v="451564"/></node><node id="-95" lat="30.200431" lon="-97.839469" changeset="false"><tag k="addr:street" v="Brodie Lane"/><tag k="addr:housenumber" v="8400"/><tag k="coa:place_id" v="3117406"/></node><node id="-96" lat="30.195973" lon="-97.842198" changeset="false"><tag k="addr:street" v="Brodie Lane"/><tag k="addr:housenumber" v="8800"/><tag k="coa:place_id" v="3083847"/></node><node id="-97" lat="30.210645" lon="-97.855001" changeset="false"><tag k="addr:street" v="Nairn Drive"/><tag k="addr:housenumber" v="8105"/><tag k="coa:place_id" v="1140829"/></node><node id="-98" lat="30.210566" lon="-97.855035" changeset="false"><tag k="addr:street" v="San Simeon Drive"/><tag k="addr:housenumber" v="4808"/><tag k="coa:place_id" v="126805"/></node></osm>