<?xml version="1.0" encoding="UTF-8"?><osm version="0.6" generator="github.com/aaronlidman/osm-and-geojson"><node id="-1" lat="30.249159" lon="-97.826422" changeset="false"><tag k="addr:street" v="Fieldstone Drive"/><tag k="addr:housenumber" v="4604"/><tag k="coa:place_id" v="924086"/></node><node id="-2" lat="30.252447" lon="-97.827793" changeset="false"><tag k="addr:street" v="Travis Country Circle"/><tag k="addr:housenumber" v="4159"/><tag k="coa:place_id" v="3043233"/></node><node id="-3" lat="30.241452" lon="-97.818529" changeset="false"><tag k="addr:street" v="Gaines Court"/><tag k="addr:housenumber" v="3801"/><tag k="coa:place_id" v="180481"/></node><node id="-4" lat="30.240814" lon="-97.817376" changeset="false"><tag k="addr:street" v="South MoPac Expressway"/><tag k="addr:housenumber" v="4424"/><tag k="coa:place_id" v="3312683"/></node><node id="-5" lat="30.245568" lon="-97.824037" changeset="false"><tag k="addr:street" v="Travis Country Circle"/><tag k="addr:housenumber" v="4515 1/2"/><tag k="coa:place_id" v="5056885"/></node><node id="-6" lat="30.238518" lon="-97.822095" changeset="false"><tag k="addr:street" v="South MoPac Expressway"/><tag k="addr:housenumber" v="4900 1/2"/><tag k="coa:place_id" v="1124748"/></node><node id="-7" lat="30.244209" lon="-97.830357" changeset="false"><tag k="addr:street" v="Eagle Feather Drive"/><tag k="addr:housenumber" v="4561"/><tag k="coa:place_id" v="1143728"/></node><node id="-8" lat="30.245784" lon="-97.824001" changeset="false"><tag k="addr:street" v="Travis Country Circle"/><tag k="addr:housenumber" v="4513"/><tag k="coa:place_id" v="1143727"/></node><node id="-9" lat="30.242445" lon="-97.820908" changeset="false"><tag k="addr:street" v="Gaines Court"/><tag k="addr:housenumber" v="3924"/><tag k="coa:place_id" v="168941"/></node><node id="-10" lat="30.250109" lon="-97.826616" changeset="false"><tag k="addr:street" v="Cap Rock Drive"/><tag k="addr:housenumber" v="4700"/><tag k="coa:place_id" v="118005"/></node><node id="-11" lat="30.24706" lon="-97.825417" changeset="false"><tag k="addr:street" v="Travis Country Circle"/><tag k="addr:housenumber" v="4404"/><tag k="coa:place_id" v="500103"/></node><node id="-12" lat="30.24214" lon="-97.820485" changeset="false"><tag k="addr:street" v="Gaines Court"/><tag k="addr:housenumber" v="3915"/><tag k="coa:place_id" v="168983"/></node><node id="-13" lat="30.242249" lon="-97.819034" changeset="false"><tag k="addr:street" v="Gaines Court"/><tag k="addr:housenumber" v="3820"/><tag k="coa:place_id" v="168917"/></node><node id="-14" lat="30.238265" lon="-97.823611" changeset="false"><tag k="addr:street" v="Southwest Parkway"/><tag k="addr:housenumber" v="4000 1/2"/><tag k="coa:place_id" v="1124668"/></node><node id="-15" lat="30.244335" lon="-97.827592" changeset="false"><tag k="addr:street" v="Canyonwood Drive"/><tag k="addr:housenumber" v="4802"/><tag k="coa:place_id" v="918914"/></node><node id="-16" lat="30.242527" lon="-97.820327" changeset="false"><tag k="addr:street" v="Gaines Court"/><tag k="addr:housenumber" v="3914"/><tag k="coa:place_id" v="164177"/></node><node id="-17" lat="30.241964" lon="-97.81967" changeset="false"><tag k="addr:street" v="Gaines Court"/><tag k="addr:housenumber" v="3829"/><tag k="coa:place_id" v="168996"/></node><node id="-18" lat="30.242539" lon="-97.821775" changeset="false"><tag k="addr:street" v="Gaines Court"/><tag k="addr:housenumber" v="4014"/><tag k="coa:place_id" v="168954"/></node><node id="-19" lat="30.242743" lon="-97.821533" changeset="false"><tag k="addr:street" v="Gaines Court"/><tag k="addr:housenumber" v="4010"/><tag k="coa:place_id" v="168952"/></node><node id="-20" lat="30.242134" lon="-97.820909" changeset="false"><tag k="addr:street" v="Gaines Court"/><tag k="addr:housenumber" v="3923"/><tag k="coa:place_id" v="168976"/></node><node id="-21" lat="30.242121" lon="-97.821329" changeset="false"><tag k="addr:street" v="Gaines Court"/><tag k="addr:housenumber" v="4007"/><tag k="coa:place_id" v="168967"/></node><node id="-22" lat="30.242274" lon="-97.826219" changeset="false"><tag k="addr:street" v="Canyonbend Circle"/><tag k="addr:housenumber" v="4841"/><tag k="coa:place_id" v="918212"/></node><node id="-23" lat="30.242621" lon="-97.821311" changeset="false"><tag k="addr:street" v="Gaines Court"/><tag k="addr:housenumber" v="4004"/><tag k="coa:place_id" v="168947"/></node><node id="-24" lat="30.250266" lon="-97.823622" changeset="false"><tag k="addr:street" v="Eagles Landing Cove"/><tag k="addr:housenumber" v="4000"/><tag k="coa:place_id" v="172504"/></node><node id="-25" lat="30.245148" lon="-97.824411" changeset="false"><tag k="addr:street" v="Canyonwood Drive"/><tag k="addr:housenumber" v="4601 1/2"/><tag k="coa:place_id" v="3113829"/></node><node id="-26" lat="30.242368" lon="-97.819943" changeset="false"><tag k="addr:street" v="Gaines Court"/><tag k="addr:housenumber" v="3906"/><tag k="coa:place_id" v="168934"/></node><node id="-27" lat="30.24469" lon="-97.829666" changeset="false"><tag k="addr:street" v="Trail West Drive"/><tag k="addr:housenumber" v="4631"/><tag k="coa:place_id" v="919736"/></node><node id="-28" lat="30.243747" lon="-97.827564" changeset="false"><tag k="addr:street" v="Canyonwood Drive"/><tag k="addr:housenumber" v="4807"/><tag k="coa:place_id" v="918776"/></node><node id="-29" lat="30.249634" lon="-97.823835" changeset="false"><tag k="addr:street" v="Eagles Landing Cove"/><tag k="addr:housenumber" v="4013"/><tag k="coa:place_id" v="164920"/></node><node id="-30" lat="30.249574" lon="-97.823874" changeset="false"><tag k="addr:street" v="Eagles Landing Cove"/><tag k="addr:housenumber" v="4008"/><tag k="coa:place_id" v="164919"/></node><node id="-31" lat="30.249004" lon="-97.825912" changeset="false"><tag k="addr:street" v="Trail Crest Circle"/><tag k="addr:housenumber" v="4601"/><tag k="coa:place_id" v="978716"/></node><node id="-32" lat="30.248959" lon="-97.825841" changeset="false"><tag k="addr:street" v="Fieldstone Drive"/><tag k="addr:housenumber" v="4600"/><tag k="coa:place_id" v="245351"/></node></osm>