<?xml version="1.0" encoding="UTF-8"?><osm version="0.6" generator="github.com/aaronlidman/osm-and-geojson"><node id="-1" lat="30.2573" lon="-97.725788" changeset="false"><tag k="addr:street" v="East Cesar Chavez Street"/><tag k="addr:housenumber" v="1717"/><tag k="addr:postcode" v="78702"/></node><node id="-2" lat="30.257575" lon="-97.726572" changeset="false"><tag k="addr:street" v="East Cesar Chavez Street"/><tag k="addr:housenumber" v="1701"/><tag k="addr:postcode" v="78702"/></node><node id="-3" lat="30.257068" lon="-97.72512" changeset="false"><tag k="addr:street" v="East Cesar Chavez Street"/><tag k="addr:housenumber" v="1807"/><tag k="addr:postcode" v="78702"/></node><node id="-4" lat="30.257129" lon="-97.725309" changeset="false"><tag k="addr:street" v="East Cesar Chavez Street"/><tag k="addr:housenumber" v="1805"/><tag k="addr:postcode" v="78702"/></node><node id="-5" lat="30.257165" lon="-97.725486" changeset="false"><tag k="addr:street" v="East Cesar Chavez Street"/><tag k="addr:housenumber" v="1803"/><tag k="addr:postcode" v="78702"/></node><node id="-6" lat="30.257235" lon="-97.726692" changeset="false"><tag k="addr:street" v="Chalmers Avenue"/><tag k="addr:housenumber" v="93"/><tag k="addr:postcode" v="78702"/></node><node id="-7" lat="30.256835" lon="-97.724984" changeset="false"><tag k="addr:street" v="Chicon Street"/><tag k="addr:housenumber" v="98"/><tag k="addr:postcode" v="78702"/></node><node id="-8" lat="30.256928" lon="-97.72648" changeset="false"><tag k="addr:street" v="Willow Street"/><tag k="addr:housenumber" v="1704"/><tag k="addr:postcode" v="78702"/></node><node id="-9" lat="30.256891" lon="-97.72633" changeset="false"><tag k="addr:street" v="Willow Street"/><tag k="addr:housenumber" v="1706"/><tag k="addr:postcode" v="78702"/></node><node id="-10" lat="30.256827" lon="-97.72574" changeset="false"><tag k="addr:street" v="Willow Street"/><tag k="addr:housenumber" v="1802"/><tag k="addr:postcode" v="78702"/></node><node id="-11" lat="30.256998" lon="-97.724922" changeset="false"><tag k="addr:street" v="East Cesar Chavez Street"/><tag k="addr:housenumber" v="1811"/><tag k="addr:postcode" v="78702"/></node><node id="-12" lat="30.256467" lon="-97.726357" changeset="false"><tag k="addr:street" v="Willow Street"/><tag k="addr:housenumber" v="1709"/><tag k="addr:postcode" v="78702"/></node><node id="-13" lat="30.25652" lon="-97.726667" changeset="false"><tag k="addr:street" v="Willow Street"/><tag k="addr:housenumber" v="1705"/><tag k="addr:postcode" v="78702"/></node><node id="-14" lat="30.256431" lon="-97.725155" changeset="false"><tag k="addr:street" v="Willow Street"/><tag k="addr:housenumber" v="1810"/><tag k="addr:postcode" v="78702"/></node><node id="-15" lat="30.256485" lon="-97.725342" changeset="false"><tag k="addr:street" v="Willow Street"/><tag k="addr:housenumber" v="1808"/><tag k="addr:postcode" v="78702"/></node><node id="-16" lat="30.256467" lon="-97.72651" changeset="false"><tag k="addr:street" v="Willow Street"/><tag k="addr:housenumber" v="1707"/><tag k="addr:postcode" v="78702"/></node><node id="-17" lat="30.25667" lon="-97.725123" changeset="false"><tag k="addr:street" v="Chicon Street"/><tag k="addr:housenumber" v="96"/><tag k="addr:postcode" v="78702"/></node><node id="-18" lat="30.258412" lon="-97.728911" changeset="false"><tag k="addr:street" v="East Cesar Chavez Street"/><tag k="addr:housenumber" v="1519"/><tag k="addr:postcode" v="78702"/></node><node id="-19" lat="30.257765" lon="-97.72881" changeset="false"><tag k="addr:street" v="Willow Street"/><tag k="addr:housenumber" v="1600"/><tag k="addr:postcode" v="78702"/></node><node id="-20" lat="30.257761" lon="-97.726948" changeset="false"><tag k="addr:street" v="East Cesar Chavez Street"/><tag k="addr:housenumber" v="1621"/><tag k="addr:postcode" v="78702"/></node><node id="-21" lat="30.25716" lon="-97.728518" changeset="false"><tag k="addr:street" v="Willow Street"/><tag k="addr:housenumber" v="1607"/><tag k="addr:postcode" v="78702"/></node><node id="-22" lat="30.257209" lon="-97.728661" changeset="false"><tag k="addr:street" v="Willow Street"/><tag k="addr:housenumber" v="1605"/><tag k="addr:postcode" v="78702"/></node><node id="-23" lat="30.257265" lon="-97.728826" changeset="false"><tag k="addr:street" v="Willow Street"/><tag k="addr:housenumber" v="1603"/><tag k="addr:postcode" v="78702"/></node><node id="-24" lat="30.257551" lon="-97.727975" changeset="false"><tag k="addr:street" v="Willow Street"/><tag k="addr:housenumber" v="1612"/><tag k="addr:postcode" v="78702"/></node><node id="-25" lat="30.256827" lon="-97.727316" changeset="false"><tag k="addr:street" v="Willow Street"/><tag k="addr:housenumber" v="1623"/><tag k="addr:postcode" v="78702"/></node><node id="-26" lat="30.256958" lon="-97.727931" changeset="false"><tag k="addr:street" v="Willow Street"/><tag k="addr:housenumber" v="1615"/><tag k="addr:postcode" v="78702"/></node><node id="-27" lat="30.257008" lon="-97.728077" changeset="false"><tag k="addr:street" v="Willow Street"/><tag k="addr:housenumber" v="1613"/><tag k="addr:postcode" v="78702"/></node><node id="-28" lat="30.256856" lon="-97.72764" changeset="false"><tag k="addr:street" v="Willow Street"/><tag k="addr:housenumber" v="1619"/><tag k="addr:postcode" v="78702"/></node><node id="-29" lat="30.256905" lon="-97.727786" changeset="false"><tag k="addr:street" v="Willow Street"/><tag k="addr:housenumber" v="1617"/><tag k="addr:postcode" v="78702"/></node><node id="-30" lat="30.257057" lon="-97.728223" changeset="false"><tag k="addr:street" v="Willow Street"/><tag k="addr:housenumber" v="1611"/><tag k="addr:postcode" v="78702"/></node><node id="-31" lat="30.25711" lon="-97.728371" changeset="false"><tag k="addr:street" v="Willow Street"/><tag k="addr:housenumber" v="1609"/><tag k="addr:postcode" v="78702"/></node><node id="-32" lat="30.257016" lon="-97.726803" changeset="false"><tag k="addr:street" v="Willow Street"/><tag k="addr:housenumber" v="1700"/><tag k="addr:postcode" v="78702"/></node><node id="-33" lat="30.256483" lon="-97.727597" changeset="false"><tag k="addr:street" v="Chalmers Avenue"/><tag k="addr:housenumber" v="86"/><tag k="addr:postcode" v="78702"/></node><node id="-34" lat="30.256572" lon="-97.726811" changeset="false"><tag k="addr:street" v="Willow Street"/><tag k="addr:housenumber" v="1703"/><tag k="addr:postcode" v="78702"/></node><node id="-35" lat="30.25665" lon="-97.727398" changeset="false"><tag k="addr:street" v="Chalmers Avenue"/><tag k="addr:housenumber" v="88"/><tag k="addr:postcode" v="78702"/></node><node id="-36" lat="30.256695" lon="-97.728548" changeset="false"><tag k="addr:street" v="Canterbury Street"/><tag k="addr:housenumber" v="1608"/><tag k="addr:postcode" v="78702"/></node><node id="-37" lat="30.256803" lon="-97.727494" changeset="false"><tag k="addr:street" v="Willow Street"/><tag k="addr:housenumber" v="1621"/><tag k="addr:postcode" v="78702"/></node><node id="-38" lat="30.256627" lon="-97.726961" changeset="false"><tag k="addr:street" v="Willow Street"/><tag k="addr:housenumber" v="1701"/><tag k="addr:postcode" v="78702"/></node><node id="-39" lat="30.256716" lon="-97.728979" changeset="false"><tag k="addr:street" v="Canterbury Street"/><tag k="addr:housenumber" v="1604"/><tag k="addr:postcode" v="78702"/></node><node id="-40" lat="30.2587" lon="-97.72977" changeset="false"><tag k="addr:street" v="East Cesar Chavez Street"/><tag k="addr:housenumber" v="1409"/><tag k="addr:postcode" v="78702"/></node><node id="-41" lat="30.258525" lon="-97.729254" changeset="false"><tag k="addr:street" v="East Cesar Chavez Street"/><tag k="addr:housenumber" v="1505"/><tag k="addr:postcode" v="78702"/></node><node id="-42" lat="30.25834" lon="-97.730154" changeset="false"><tag k="addr:street" v="Willow Street"/><tag k="addr:housenumber" v="1408"/><tag k="addr:postcode" v="78702"/></node><node id="-43" lat="30.25882" lon="-97.730116" changeset="false"><tag k="addr:street" v="East Cesar Chavez Street"/><tag k="addr:housenumber" v="1405"/><tag k="addr:postcode" v="78702"/></node><node id="-44" lat="30.258762" lon="-97.729944" changeset="false"><tag k="addr:street" v="East Cesar Chavez Street"/><tag k="addr:housenumber" v="1407"/><tag k="addr:postcode" v="78702"/></node><node id="-45" lat="30.257746" lon="-97.729611" changeset="false"><tag k="addr:street" v="Willow Street"/><tag k="addr:housenumber" v="1505"/><tag k="addr:postcode" v="78702"/></node><node id="-46" lat="30.257865" lon="-97.729957" changeset="false"><tag k="addr:street" v="Willow Street"/><tag k="addr:housenumber" v="1501"/><tag k="addr:postcode" v="78702"/></node><node id="-47" lat="30.257687" lon="-97.72944" changeset="false"><tag k="addr:street" v="Willow Street"/><tag k="addr:housenumber" v="1507"/><tag k="addr:postcode" v="78702"/></node><node id="-48" lat="30.257804" lon="-97.729784" changeset="false"><tag k="addr:street" v="Willow Street"/><tag k="addr:housenumber" v="1503"/><tag k="addr:postcode" v="78702"/></node><node id="-49" lat="30.257676" lon="-97.729296" changeset="false"><tag k="addr:street" v="Willow Street"/><tag k="addr:housenumber" v="1509"/><tag k="addr:postcode" v="78702"/></node><node id="-50" lat="30.257924" lon="-97.73013" changeset="false"><tag k="addr:street" v="Willow Street"/><tag k="addr:housenumber" v="1411"/><tag k="addr:postcode" v="78702"/></node><node id="-51" lat="30.257003" lon="-97.729175" changeset="false"><tag k="addr:street" v="Comal Street"/><tag k="addr:housenumber" v="85"/><tag k="addr:postcode" v="78702"/></node><node id="-52" lat="30.257045" lon="-97.730192" changeset="false"><tag k="addr:street" v="Canterbury Street"/><tag k="addr:housenumber" v="1503"/><tag k="addr:postcode" v="78702"/></node><node id="-53" lat="30.257387" lon="-97.729985" changeset="false"><tag k="addr:street" v="Canterbury Street"/><tag k="addr:housenumber" v="1504"/><tag k="addr:postcode" v="78702"/></node><node id="-54" lat="30.257338" lon="-97.729434" changeset="false"><tag k="addr:street" v="Canterbury Street"/><tag k="addr:housenumber" v="1512"/><tag k="addr:postcode" v="78702"/></node><node id="-55" lat="30.257212" lon="-97.729461" changeset="false"><tag k="addr:street" v="Canterbury Street"/><tag k="addr:housenumber" v="1510"/><tag k="addr:postcode" v="78702"/></node><node id="-56" lat="30.257329" lon="-97.729008" changeset="false"><tag k="addr:street" v="Willow Street"/><tag k="addr:housenumber" v="1601"/><tag k="addr:postcode" v="78702"/></node><node id="-57" lat="30.257424" lon="-97.730128" changeset="false"><tag k="addr:street" v="Canterbury Street"/><tag k="addr:housenumber" v="1502"/><tag k="addr:postcode" v="78702"/></node><node id="-58" lat="30.25737" lon="-97.729547" changeset="false"><tag k="addr:street" v="Canterbury Street"/><tag k="addr:housenumber" v="1508"/><tag k="addr:postcode" v="78702"/></node><node id="-59" lat="30.256626" lon="-97.730136" changeset="false"><tag k="addr:street" v="Garden Street"/><tag k="addr:housenumber" v="1504"/><tag k="addr:postcode" v="78702"/></node><node id="-60" lat="30.256795" lon="-97.729107" changeset="false"><tag k="addr:street" v="Canterbury Street"/><tag k="addr:housenumber" v="1602"/><tag k="addr:postcode" v="78702"/></node><node id="-61" lat="30.256538" lon="-97.729873" changeset="false"><tag k="addr:street" v="Garden Street"/><tag k="addr:housenumber" v="1506"/><tag k="addr:postcode" v="78702"/></node><node id="-62" lat="30.256562" lon="-97.729688" changeset="false"><tag k="addr:street" v="Comal Street"/><tag k="addr:housenumber" v="74 1/2"/><tag k="addr:postcode" v="78702"/></node><node id="-63" lat="30.256852" lon="-97.729627" changeset="false"><tag k="addr:street" v="Canterbury Street"/><tag k="addr:housenumber" v="1511"/><tag k="addr:postcode" v="78702"/></node><node id="-64" lat="30.256847" lon="-97.729252" changeset="false"><tag k="addr:street" v="Canterbury Street"/><tag k="addr:housenumber" v="1600"/><tag k="addr:postcode" v="78702"/></node><node id="-65" lat="30.256952" lon="-97.72992" changeset="false"><tag k="addr:street" v="Canterbury Street"/><tag k="addr:housenumber" v="1507"/><tag k="addr:postcode" v="78702"/></node><node id="-66" lat="30.256908" lon="-97.729785" changeset="false"><tag k="addr:street" v="Canterbury Street"/><tag k="addr:housenumber" v="1509"/><tag k="addr:postcode" v="78702"/></node><node id="-67" lat="30.256998" lon="-97.730053" changeset="false"><tag k="addr:street" v="Canterbury Street"/><tag k="addr:housenumber" v="1505"/><tag k="addr:postcode" v="78702"/></node><node id="-68" lat="30.258099" lon="-97.730647" changeset="false"><tag k="addr:street" v="Willow Street"/><tag k="addr:housenumber" v="1405"/><tag k="addr:postcode" v="78702"/></node><node id="-69" lat="30.25815" lon="-97.730825" changeset="false"><tag k="addr:street" v="Navasota Street"/><tag k="addr:housenumber" v="87"/><tag k="addr:postcode" v="78702"/></node><node id="-70" lat="30.258214" lon="-97.73078" changeset="false"><tag k="addr:street" v="Navasota Street"/><tag k="addr:housenumber" v="89"/><tag k="addr:postcode" v="78702"/></node><node id="-71" lat="30.258574" lon="-97.730415" changeset="false"><tag k="addr:street" v="Willow Street"/><tag k="addr:housenumber" v="1404"/><tag k="addr:postcode" v="78702"/></node><node id="-72" lat="30.258504" lon="-97.730686" changeset="false"><tag k="addr:street" v="Willow Street"/><tag k="addr:housenumber" v="1400"/><tag k="addr:postcode" v="78702"/></node><node id="-73" lat="30.258413" lon="-97.730301" changeset="false"><tag k="addr:street" v="Willow Street"/><tag k="addr:housenumber" v="1406"/><tag k="addr:postcode" v="78702"/></node><node id="-74" lat="30.258632" lon="-97.730587" changeset="false"><tag k="addr:street" v="Navasota Street"/><tag k="addr:housenumber" v="93"/><tag k="addr:postcode" v="78702"/></node><node id="-75" lat="30.258937" lon="-97.730461" changeset="false"><tag k="addr:street" v="East Cesar Chavez Street"/><tag k="addr:housenumber" v="1401"/><tag k="addr:postcode" v="78702"/></node><node id="-76" lat="30.258879" lon="-97.730287" changeset="false"><tag k="addr:street" v="East Cesar Chavez Street"/><tag k="addr:housenumber" v="1403"/><tag k="addr:postcode" v="78702"/></node><node id="-77" lat="30.257636" lon="-97.730465" changeset="false"><tag k="addr:street" v="Canterbury Street"/><tag k="addr:housenumber" v="1406"/><tag k="addr:postcode" v="78702"/></node><node id="-78" lat="30.257753" lon="-97.730806" changeset="false"><tag k="addr:street" v="Canterbury Street"/><tag k="addr:housenumber" v="1402"/><tag k="addr:postcode" v="78702"/></node><node id="-79" lat="30.257643" lon="-97.730315" changeset="false"><tag k="addr:street" v="Canterbury Street"/><tag k="addr:housenumber" v="1408"/><tag k="addr:postcode" v="78702"/></node><node id="-80" lat="30.258009" lon="-97.730888" changeset="false"><tag k="addr:street" v="Navasota Street"/><tag k="addr:housenumber" v="85"/><tag k="addr:postcode" v="78702"/></node><node id="-81" lat="30.258041" lon="-97.730475" changeset="false"><tag k="addr:street" v="Willow Street"/><tag k="addr:housenumber" v="1407"/><tag k="addr:postcode" v="78702"/></node><node id="-82" lat="30.257104" lon="-97.7313" changeset="false"><tag k="addr:street" v="Navasota Street"/><tag k="addr:housenumber" v="73"/><tag k="addr:postcode" v="78702"/></node><node id="-83" lat="30.25715" lon="-97.73049" changeset="false"><tag k="addr:street" v="Canterbury Street"/><tag k="addr:housenumber" v="1409"/><tag k="addr:postcode" v="78702"/></node><node id="-84" lat="30.257209" lon="-97.730662" changeset="false"><tag k="addr:street" v="Canterbury Street"/><tag k="addr:housenumber" v="1407"/><tag k="addr:postcode" v="78702"/></node><node id="-85" lat="30.25727" lon="-97.730833" changeset="false"><tag k="addr:street" v="Canterbury Street"/><tag k="addr:housenumber" v="1405"/><tag k="addr:postcode" v="78702"/></node><node id="-86" lat="30.257293" lon="-97.730986" changeset="false"><tag k="addr:street" v="Canterbury Street"/><tag k="addr:housenumber" v="1403 1/2"/><tag k="addr:postcode" v="78702"/></node><node id="-87" lat="30.257396" lon="-97.731203" changeset="false"><tag k="addr:street" v="Canterbury Street"/><tag k="addr:housenumber" v="1401"/><tag k="addr:postcode" v="78702"/></node><node id="-88" lat="30.257355" lon="-97.731084" changeset="false"><tag k="addr:street" v="Canterbury Street"/><tag k="addr:housenumber" v="1403"/><tag k="addr:postcode" v="78702"/></node><node id="-89" lat="30.25747" lon="-97.730231" changeset="false"><tag k="addr:street" v="Canterbury Street"/><tag k="addr:housenumber" v="1500"/><tag k="addr:postcode" v="78702"/></node><node id="-90" lat="30.256819" lon="-97.730827" changeset="false"><tag k="addr:street" v="Garden Street"/><tag k="addr:housenumber" v="1406"/><tag k="addr:postcode" v="78702"/></node><node id="-91" lat="30.256614" lon="-97.730343" changeset="false"><tag k="addr:street" v="Garden Street"/><tag k="addr:housenumber" v="1502"/><tag k="addr:postcode" v="78702"/></node><node id="-92" lat="30.256895" lon="-97.731185" changeset="false"><tag k="addr:street" v="Garden Street"/><tag k="addr:housenumber" v="1402"/><tag k="addr:postcode" v="78702"/></node><node id="-93" lat="30.257095" lon="-97.730333" changeset="false"><tag k="addr:street" v="Canterbury Street"/><tag k="addr:housenumber" v="1501"/><tag k="addr:postcode" v="78702"/></node><node id="-94" lat="30.256254" lon="-97.72591" changeset="false"><tag k="addr:street" v="Willow Street"/><tag k="addr:housenumber" v="1803"/><tag k="addr:postcode" v="78702"/></node><node id="-95" lat="30.256265" lon="-97.725743" changeset="false"><tag k="addr:street" v="Willow Street"/><tag k="addr:housenumber" v="1805"/><tag k="addr:postcode" v="78702"/></node><node id="-96" lat="30.256358" lon="-97.726042" changeset="false"><tag k="addr:street" v="Willow Street"/><tag k="addr:housenumber" v="1801"/><tag k="addr:postcode" v="78702"/></node><node id="-97" lat="30.256359" lon="-97.726211" changeset="false"><tag k="addr:street" v="Willow Street"/><tag k="addr:housenumber" v="1711"/><tag k="addr:postcode" v="78702"/></node><node id="-98" lat="30.255904" lon="-97.726322" changeset="false"><tag k="addr:street" v="Canterbury Street"/><tag k="addr:housenumber" v="1712"/><tag k="addr:postcode" v="78702"/></node><node id="-99" lat="30.256044" lon="-97.725312" changeset="false"><tag k="addr:street" v="Willow Street"/><tag k="addr:housenumber" v="1811"/><tag k="addr:postcode" v="78702"/></node><node id="-100" lat="30.256093" lon="-97.725461" changeset="false"><tag k="addr:street" v="Willow Street"/><tag k="addr:housenumber" v="1809"/><tag k="addr:postcode" v="78702"/></node><node id="-101" lat="30.255126" lon="-97.725747" changeset="false"><tag k="addr:street" v="Canterbury Street"/><tag k="addr:housenumber" v="1811"/><tag k="addr:postcode" v="78702"/></node><node id="-102" lat="30.255262" lon="-97.726112" changeset="false"><tag k="addr:street" v="Canterbury Street"/><tag k="addr:housenumber" v="1717"/><tag k="addr:postcode" v="78702"/></node><node id="-103" lat="30.255383" lon="-97.726485" changeset="false"><tag k="addr:street" v="Canterbury Street"/><tag k="addr:housenumber" v="1713"/><tag k="addr:postcode" v="78702"/></node><node id="-104" lat="30.255594" lon="-97.725529" changeset="false"><tag k="addr:street" v="Chicon Street"/><tag k="addr:housenumber" v="80"/><tag k="addr:postcode" v="78702"/></node><node id="-105" lat="30.255742" lon="-97.725784" changeset="false"><tag k="addr:street" v="Canterbury Street"/><tag k="addr:housenumber" v="1804"/><tag k="addr:postcode" v="78702"/></node><node id="-106" lat="30.25381" lon="-97.726532" changeset="false"><tag k="addr:street" v="Holly Street"/><tag k="addr:housenumber" v="1808"/><tag k="addr:postcode" v="78702"/></node><node id="-107" lat="30.254599" lon="-97.725943" changeset="false"><tag k="addr:street" v="Chicon Street"/><tag k="addr:housenumber" v="70"/><tag k="addr:postcode" v="78702"/></node><node id="-108" lat="30.254314" lon="-97.726423" changeset="false"><tag k="addr:street" v="Garden Street"/><tag k="addr:housenumber" v="1807"/><tag k="addr:postcode" v="78702"/></node><node id="-109" lat="30.25429" lon="-97.726168" changeset="false"><tag k="addr:street" v="Garden Street"/><tag k="addr:housenumber" v="1821"/><tag k="addr:postcode" v="78702"/></node><node id="-110" lat="30.253966" lon="-97.726347" changeset="false"><tag k="addr:street" v="Chicon Street"/><tag k="addr:housenumber" v="64"/><tag k="addr:postcode" v="78702"/></node><node id="-111" lat="30.254738" lon="-97.726289" changeset="false"><tag k="addr:street" v="Garden Street"/><tag k="addr:housenumber" v="1806"/><tag k="addr:postcode" v="78702"/></node><node id="-112" lat="30.254061" lon="-97.726235" changeset="false"><tag k="addr:street" v="Chicon Street"/><tag k="addr:housenumber" v="66"/><tag k="addr:postcode" v="78702"/></node><node id="-113" lat="30.25485" lon="-97.72597" changeset="false"><tag k="addr:street" v="Chicon Street"/><tag k="addr:housenumber" v="72"/><tag k="addr:postcode" v="78702"/></node><node id="-114" lat="30.255438" lon="-97.726645" changeset="false"><tag k="addr:street" v="Canterbury Street"/><tag k="addr:housenumber" v="1711"/><tag k="addr:postcode" v="78702"/></node><node id="-115" lat="30.255788" lon="-97.727377" changeset="false"><tag k="addr:street" v="Canterbury Street"/><tag k="addr:housenumber" v="1701"/><tag k="addr:postcode" v="78702"/></node><node id="-116" lat="30.255491" lon="-97.726791" changeset="false"><tag k="addr:street" v="Canterbury Street"/><tag k="addr:housenumber" v="1709"/><tag k="addr:postcode" v="78702"/></node><node id="-117" lat="30.255593" lon="-97.727084" changeset="false"><tag k="addr:street" v="Canterbury Street"/><tag k="addr:housenumber" v="1705"/><tag k="addr:postcode" v="78702"/></node><node id="-118" lat="30.255645" lon="-97.727233" changeset="false"><tag k="addr:street" v="Canterbury Street"/><tag k="addr:housenumber" v="1703"/><tag k="addr:postcode" v="78702"/></node><node id="-119" lat="30.25554" lon="-97.726937" changeset="false"><tag k="addr:street" v="Canterbury Street"/><tag k="addr:housenumber" v="1707"/><tag k="addr:postcode" v="78702"/></node><node id="-120" lat="30.255134" lon="-97.72699" changeset="false"><tag k="addr:street" v="Garden Street"/><tag k="addr:housenumber" v="1708"/><tag k="addr:postcode" v="78702"/></node><node id="-121" lat="30.254376" lon="-97.726608" changeset="false"><tag k="addr:street" v="Garden Street"/><tag k="addr:housenumber" v="1805"/><tag k="addr:postcode" v="78702"/></node><node id="-122" lat="30.254428" lon="-97.726754" changeset="false"><tag k="addr:street" v="Garden Street"/><tag k="addr:housenumber" v="1803"/><tag k="addr:postcode" v="78702"/></node><node id="-123" lat="30.254531" lon="-97.727047" changeset="false"><tag k="addr:street" v="Garden Street"/><tag k="addr:housenumber" v="1711"/><tag k="addr:postcode" v="78702"/></node><node id="-124" lat="30.254478" lon="-97.7269" changeset="false"><tag k="addr:street" v="Garden Street"/><tag k="addr:housenumber" v="1801"/><tag k="addr:postcode" v="78702"/></node><node id="-125" lat="30.254583" lon="-97.727194" changeset="false"><tag k="addr:street" v="Garden Street"/><tag k="addr:housenumber" v="1709"/><tag k="addr:postcode" v="78702"/></node><node id="-126" lat="30.254633" lon="-97.727342" changeset="false"><tag k="addr:street" v="Garden Street"/><tag k="addr:housenumber" v="1707"/><tag k="addr:postcode" v="78702"/></node><node id="-127" lat="30.254884" lon="-97.726728" changeset="false"><tag k="addr:street" v="Garden Street"/><tag k="addr:housenumber" v="1800"/><tag k="addr:postcode" v="78702"/></node><node id="-128" lat="30.253935" lon="-97.726838" changeset="false"><tag k="addr:street" v="Holly Street"/><tag k="addr:housenumber" v="1804"/><tag k="addr:postcode" v="78702"/></node><node id="-129" lat="30.254012" lon="-97.727137" changeset="false"><tag k="addr:street" v="Holly Street"/><tag k="addr:housenumber" v="1800"/><tag k="addr:postcode" v="78702"/></node><node id="-130" lat="30.256098" lon="-97.728534" changeset="false"><tag k="addr:street" v="Canterbury Street"/><tag k="addr:housenumber" v="1611"/><tag k="addr:postcode" v="78702"/></node><node id="-131" lat="30.256046" lon="-97.728382" changeset="false"><tag k="addr:street" v="Canterbury Street"/><tag k="addr:housenumber" v="1613"/><tag k="addr:postcode" v="78702"/></node><node id="-132" lat="30.255938" lon="-97.72808" changeset="false"><tag k="addr:street" v="Canterbury Street"/><tag k="addr:housenumber" v="1617"/><tag k="addr:postcode" v="78702"/></node><node id="-133" lat="30.25599" lon="-97.728232" changeset="false"><tag k="addr:street" v="Canterbury Street"/><tag k="addr:housenumber" v="1615"/><tag k="addr:postcode" v="78702"/></node><node id="-134" lat="30.25622" lon="-97.72762" changeset="false"><tag k="addr:street" v="Chalmers Avenue"/><tag k="addr:housenumber" v="84"/><tag k="addr:postcode" v="78702"/></node><node id="-135" lat="30.256378" lon="-97.727953" changeset="false"><tag k="addr:street" v="Canterbury Street"/><tag k="addr:housenumber" v="1616"/><tag k="addr:postcode" v="78702"/></node><node id="-136" lat="30.256201" lon="-97.728668" changeset="false"><tag k="addr:street" v="Canterbury Street"/><tag k="addr:housenumber" v="1609"/><tag k="addr:postcode" v="78702"/></node><node id="-137" lat="30.255289" lon="-97.727571" changeset="false"><tag k="addr:street" v="Chalmers Avenue"/><tag k="addr:housenumber" v="75"/><tag k="addr:postcode" v="78702"/></node><node id="-138" lat="30.255338" lon="-97.728022" changeset="false"><tag k="addr:street" v="Garden Street"/><tag k="addr:housenumber" v="1622"/><tag k="addr:postcode" v="78702"/></node><node id="-139" lat="30.255449" lon="-97.728313" changeset="false"><tag k="addr:street" v="Garden Street"/><tag k="addr:housenumber" v="1618"/><tag k="addr:postcode" v="78702"/></node><node id="-140" lat="30.2556" lon="-97.727432" changeset="false"><tag k="addr:street" v="Chalmers Avenue"/><tag k="addr:housenumber" v="77"/><tag k="addr:postcode" v="78702"/></node><node id="-141" lat="30.255658" lon="-97.727869" changeset="false"><tag k="addr:street" v="Chalmers Avenue"/><tag k="addr:housenumber" v="76"/><tag k="addr:postcode" v="78702"/></node><node id="-142" lat="30.254794" lon="-97.72826" changeset="false"><tag k="addr:street" v="Chalmers Avenue"/><tag k="addr:housenumber" v="64"/><tag k="addr:postcode" v="78702"/></node><node id="-143" lat="30.254735" lon="-97.727636" changeset="false"><tag k="addr:street" v="Garden Street"/><tag k="addr:housenumber" v="1703"/><tag k="addr:postcode" v="78702"/></node><node id="-144" lat="30.254793" lon="-97.727793" changeset="false"><tag k="addr:street" v="Garden Street"/><tag k="addr:housenumber" v="1701"/><tag k="addr:postcode" v="78702"/></node><node id="-145" lat="30.25497" lon="-97.72835" changeset="false"><tag k="addr:street" v="Garden Street"/><tag k="addr:housenumber" v="1621"/><tag k="addr:postcode" v="78702"/></node><node id="-146" lat="30.255075" lon="-97.728644" changeset="false"><tag k="addr:street" v="Garden Street"/><tag k="addr:housenumber" v="1617"/><tag k="addr:postcode" v="78702"/></node><node id="-147" lat="30.254917" lon="-97.728204" changeset="false"><tag k="addr:street" v="Garden Street"/><tag k="addr:housenumber" v="1623"/><tag k="addr:postcode" v="78702"/></node><node id="-148" lat="30.255022" lon="-97.728495" changeset="false"><tag k="addr:street" v="Garden Street"/><tag k="addr:housenumber" v="1619"/><tag k="addr:postcode" v="78702"/></node><node id="-149" lat="30.255232" lon="-97.727463" changeset="false"><tag k="addr:street" v="Garden Street"/><tag k="addr:housenumber" v="1702"/><tag k="addr:postcode" v="78702"/></node><node id="-150" lat="30.254335" lon="-97.727826" changeset="false"><tag k="addr:street" v="Holly Street"/><tag k="addr:housenumber" v="1702"/><tag k="addr:postcode" v="78702"/></node><node id="-151" lat="30.25449" lon="-97.727905" changeset="false"><tag k="addr:street" v="Chalmers Avenue"/><tag k="addr:housenumber" v="65"/><tag k="addr:postcode" v="78702"/></node><node id="-152" lat="30.254597" lon="-97.72854" changeset="false"><tag k="addr:street" v="Holly Street"/><tag k="addr:housenumber" v="1622"/><tag k="addr:postcode" v="78702"/></node><node id="-153" lat="30.254541" lon="-97.728382" changeset="false"><tag k="addr:street" v="Chalmers Avenue"/><tag k="addr:housenumber" v="62"/><tag k="addr:postcode" v="78702"/></node><node id="-154" lat="30.254685" lon="-97.727489" changeset="false"><tag k="addr:street" v="Garden Street"/><tag k="addr:housenumber" v="1705"/><tag k="addr:postcode" v="78702"/></node><node id="-155" lat="30.256212" lon="-97.728849" changeset="false"><tag k="addr:street" v="Canterbury Street"/><tag k="addr:housenumber" v="1607"/><tag k="addr:postcode" v="78702"/></node><node id="-156" lat="30.256282" lon="-97.729044" changeset="false"><tag k="addr:street" v="Canterbury Street"/><tag k="addr:housenumber" v="1605"/><tag k="addr:postcode" v="78702"/></node><node id="-157" lat="30.256416" lon="-97.729429" changeset="false"><tag k="addr:street" v="Canterbury Street"/><tag k="addr:housenumber" v="1601"/><tag k="addr:postcode" v="78702"/></node><node id="-158" lat="30.256352" lon="-97.729245" changeset="false"><tag k="addr:street" v="Canterbury Street"/><tag k="addr:housenumber" v="1603"/><tag k="addr:postcode" v="78702"/></node><node id="-159" lat="30.255792" lon="-97.729005" changeset="false"><tag k="addr:street" v="Garden Street"/><tag k="addr:housenumber" v="1608"/><tag k="addr:postcode" v="78702"/></node><node id="-160" lat="30.25593" lon="-97.729137" changeset="false"><tag k="addr:street" v="Garden Street"/><tag k="addr:housenumber" v="1606"/><tag k="addr:postcode" v="78702"/></node><node id="-161" lat="30.25518" lon="-97.728941" changeset="false"><tag k="addr:street" v="Garden Street"/><tag k="addr:housenumber" v="1613"/><tag k="addr:postcode" v="78702"/></node><node id="-162" lat="30.255236" lon="-97.729572" changeset="false"><tag k="addr:street" v="Garden Street"/><tag k="addr:housenumber" v="1605 1/2"/><tag k="addr:postcode" v="78702"/></node><node id="-163" lat="30.255334" lon="-97.729388" changeset="false"><tag k="addr:street" v="Garden Street"/><tag k="addr:housenumber" v="1607"/><tag k="addr:postcode" v="78702"/></node><node id="-164" lat="30.255282" lon="-97.729238" changeset="false"><tag k="addr:street" v="Garden Street"/><tag k="addr:housenumber" v="1609"/><tag k="addr:postcode" v="78702"/></node><node id="-165" lat="30.255232" lon="-97.729089" changeset="false"><tag k="addr:street" v="Garden Street"/><tag k="addr:housenumber" v="1611"/><tag k="addr:postcode" v="78702"/></node><node id="-166" lat="30.255437" lon="-97.729514" changeset="false"><tag k="addr:street" v="Garden Street"/><tag k="addr:housenumber" v="1605"/><tag k="addr:postcode" v="78702"/></node><node id="-167" lat="30.255501" lon="-97.729853" changeset="false"><tag k="addr:street" v="Garden Street"/><tag k="addr:housenumber" v="1601"/><tag k="addr:postcode" v="78702"/></node><node id="-168" lat="30.255686" lon="-97.728708" changeset="false"><tag k="addr:street" v="Garden Street"/><tag k="addr:housenumber" v="1612"/><tag k="addr:postcode" v="78702"/></node><node id="-169" lat="30.255499" lon="-97.729657" changeset="false"><tag k="addr:street" v="Garden Street"/><tag k="addr:housenumber" v="1603"/><tag k="addr:postcode" v="78702"/></node><node id="-170" lat="30.254702" lon="-97.72884" changeset="false"><tag k="addr:street" v="Holly Street"/><tag k="addr:housenumber" v="1616"/><tag k="addr:postcode" v="78702"/></node><node id="-171" lat="30.254813" lon="-97.72931" changeset="false"><tag k="addr:street" v="Holly Street"/><tag k="addr:housenumber" v="1610"/><tag k="addr:postcode" v="78702"/></node><node id="-172" lat="30.255147" lon="-97.728754" changeset="false"><tag k="addr:street" v="Garden Street"/><tag k="addr:housenumber" v="1615"/><tag k="addr:postcode" v="78702"/></node><node id="-173" lat="30.255187" lon="-97.729995" changeset="false"><tag k="addr:street" v="Comal Street"/><tag k="addr:housenumber" v="63"/><tag k="addr:postcode" v="78702"/></node></osm>