<?xml version="1.0" encoding="UTF-8"?><osm version="0.6" generator="github.com/aaronlidman/osm-and-geojson"><node id="-1" lat="30.246889" lon="-97.748357" changeset="false"><tag k="addr:street" v="Brackenridge Street"/><tag k="addr:housenumber" v="1608"/><tag k="addr:postcode" v="78704"/></node><node id="-2" lat="30.247813" lon="-97.747006" changeset="false"><tag k="addr:street" v="Drake Avenue"/><tag k="addr:housenumber" v="1507"/><tag k="addr:postcode" v="78704"/></node><node id="-3" lat="30.246582" lon="-97.747014" changeset="false"><tag k="addr:street" v="East Monroe Street"/><tag k="addr:housenumber" v="407"/><tag k="addr:postcode" v="78704"/></node><node id="-4" lat="30.246822" lon="-97.745946" changeset="false"><tag k="addr:street" v="East Monroe Street"/><tag k="addr:housenumber" v="504"/><tag k="addr:postcode" v="78704"/></node><node id="-5" lat="30.247904" lon="-97.747002" changeset="false"><tag k="addr:street" v="Drake Avenue"/><tag k="addr:housenumber" v="1505"/><tag k="addr:postcode" v="78704"/></node><node id="-6" lat="30.240329" lon="-97.747873" changeset="false"><tag k="addr:street" v="East Side Drive"/><tag k="addr:housenumber" v="2114"/><tag k="addr:postcode" v="78704"/></node><node id="-7" lat="30.245663" lon="-97.747792" changeset="false"><tag k="addr:street" v="Drake Avenue"/><tag k="addr:housenumber" v="1707"/><tag k="addr:postcode" v="78704"/></node><node id="-8" lat="30.245772" lon="-97.745557" changeset="false"><tag k="addr:street" v="East Side Drive"/><tag k="addr:housenumber" v="1606"/><tag k="addr:postcode" v="78704"/></node><node id="-9" lat="30.247548" lon="-97.747061" changeset="false"><tag k="addr:street" v="Drake Avenue"/><tag k="addr:housenumber" v="1511"/><tag k="addr:postcode" v="78704"/></node><node id="-10" lat="30.241515" lon="-97.750131" changeset="false"><tag k="addr:street" v="Brackenridge Street"/><tag k="addr:housenumber" v="2113"/><tag k="addr:postcode" v="78704"/></node><node id="-11" lat="30.247268" lon="-97.7483" changeset="false"><tag k="addr:street" v="East Monroe Street"/><tag k="addr:housenumber" v="209"/><tag k="addr:postcode" v="78704"/></node><node id="-12" lat="30.246696" lon="-97.743373" changeset="false"><tag k="addr:street" v="Alameda Drive"/><tag k="addr:housenumber" v="1500"/><tag k="addr:postcode" v="78704"/></node><node id="-13" lat="30.244878" lon="-97.749223" changeset="false"><tag k="addr:street" v="Brackenridge Street"/><tag k="addr:housenumber" v="1808"/><tag k="addr:postcode" v="78704"/></node><node id="-14" lat="30.243143" lon="-97.748434" changeset="false"><tag k="addr:street" v="Newning Avenue"/><tag k="addr:housenumber" v="1924"/><tag k="addr:postcode" v="78704"/></node><node id="-15" lat="30.247857" lon="-97.750138" changeset="false"><tag k="addr:street" v="South Congress Avenue"/><tag k="addr:housenumber" v="1601"/><tag k="addr:postcode" v="78704"/></node><node id="-16" lat="30.24883" lon="-97.743734" changeset="false"><tag k="addr:street" v="Pecan Grove Road"/><tag k="addr:housenumber" v="513"/><tag k="addr:postcode" v="78704"/></node><node id="-17" lat="30.244614" lon="-97.748578" changeset="false"><tag k="addr:street" v="Drake Avenue"/><tag k="addr:housenumber" v="1810"/><tag k="addr:postcode" v="78704"/></node><node id="-18" lat="30.244586" lon="-97.746236" changeset="false"><tag k="addr:street" v="East Annie Street"/><tag k="addr:housenumber" v="511"/><tag k="addr:postcode" v="78704"/></node><node id="-19" lat="30.24412" lon="-97.749009" changeset="false"><tag k="addr:street" v="Brackenridge Street"/><tag k="addr:housenumber" v="1905"/><tag k="addr:postcode" v="78704"/></node><node id="-20" lat="30.246212" lon="-97.750474" changeset="false"><tag k="addr:street" v="South Congress Avenue"/><tag k="addr:housenumber" v="1711"/><tag k="addr:postcode" v="78704"/></node><node id="-21" lat="30.245205" lon="-97.745556" changeset="false"><tag k="addr:street" v="East Side Drive"/><tag k="addr:housenumber" v="1704"/><tag k="addr:postcode" v="78704"/></node><node id="-22" lat="30.246882" lon="-97.747268" changeset="false"><tag k="addr:street" v="Drake Avenue"/><tag k="addr:housenumber" v="1605"/><tag k="addr:postcode" v="78704"/></node><node id="-23" lat="30.246113" lon="-97.748415" changeset="false"><tag k="addr:street" v="Brackenridge Street"/><tag k="addr:housenumber" v="1705"/><tag k="addr:postcode" v="78704"/></node><node id="-24" lat="30.245867" lon="-97.748768" changeset="false"><tag k="addr:street" v="Brackenridge Street"/><tag k="addr:housenumber" v="1710"/><tag k="addr:postcode" v="78704"/></node><node id="-25" lat="30.243031" lon="-97.751895" changeset="false"><tag k="addr:street" v="South Congress Avenue"/><tag k="addr:housenumber" v="2101"/><tag k="addr:postcode" v="78704"/></node><node id="-26" lat="30.247115" lon="-97.746826" changeset="false"><tag k="addr:street" v="East Monroe Street"/><tag k="addr:housenumber" v="408"/><tag k="addr:postcode" v="78704"/></node><node id="-27" lat="30.248999" lon="-97.749741" changeset="false"><tag k="addr:street" v="South Congress Avenue"/><tag k="addr:housenumber" v="1421"/><tag k="addr:postcode" v="78704"/></node><node id="-28" lat="30.243917" lon="-97.747938" changeset="false"><tag k="addr:street" v="Newning Avenue"/><tag k="addr:housenumber" v="1912"/><tag k="addr:postcode" v="78704"/></node><node id="-29" lat="30.246492" lon="-97.747484" changeset="false"><tag k="addr:street" v="Drake Avenue"/><tag k="addr:housenumber" v="1607"/><tag k="addr:postcode" v="78704"/></node><node id="-30" lat="30.246906" lon="-97.747498" changeset="false"><tag k="addr:street" v="East Monroe Street"/><tag k="addr:housenumber" v="401"/><tag k="addr:postcode" v="78704"/></node><node id="-31" lat="30.243402" lon="-97.748982" changeset="false"><tag k="addr:street" v="Terrace Drive"/><tag k="addr:housenumber" v="304"/><tag k="addr:postcode" v="78704"/></node><node id="-32" lat="30.244681" lon="-97.746542" changeset="false"><tag k="addr:street" v="East Annie Street"/><tag k="addr:housenumber" v="507"/><tag k="addr:postcode" v="78704"/></node><node id="-33" lat="30.245138" lon="-97.748051" changeset="false"><tag k="addr:street" v="Drake Avenue"/><tag k="addr:housenumber" v="1805"/><tag k="addr:postcode" v="78704"/></node><node id="-34" lat="30.242491" lon="-97.751976" changeset="false"><tag k="addr:street" v="South Congress Avenue"/><tag k="addr:housenumber" v="2109"/><tag k="addr:postcode" v="78704"/></node><node id="-35" lat="30.247437" lon="-97.749989" changeset="false"><tag k="addr:street" v="South Congress Avenue"/><tag k="addr:housenumber" v="1603"/><tag k="addr:postcode" v="78704"/></node><node id="-36" lat="30.243547" lon="-97.74612" changeset="false"><tag k="addr:street" v="East Mary Street"/><tag k="addr:housenumber" v="519"/><tag k="addr:postcode" v="78704"/></node><node id="-37" lat="30.245162" lon="-97.751027" changeset="false"><tag k="addr:street" v="East Mary Street"/><tag k="addr:housenumber" v="104"/><tag k="addr:postcode" v="78704"/></node><node id="-38" lat="30.24788" lon="-97.749136" changeset="false"><tag k="addr:street" v="Nickerson Street"/><tag k="addr:housenumber" v="1508 1/2"/><tag k="addr:postcode" v="78704"/></node><node id="-39" lat="30.245716" lon="-97.746388" changeset="false"><tag k="addr:street" v="Newning Avenue"/><tag k="addr:housenumber" v="1701"/><tag k="addr:postcode" v="78704"/></node><node id="-40" lat="30.248836" lon="-97.749802" changeset="false"><tag k="addr:street" v="South Congress Avenue"/><tag k="addr:housenumber" v="1501"/><tag k="addr:postcode" v="78704"/></node><node id="-41" lat="30.243244" lon="-97.745603" changeset="false"><tag k="addr:street" v="East Side Drive"/><tag k="addr:housenumber" v="1901"/><tag k="addr:postcode" v="78704"/></node><node id="-42" lat="30.247429" lon="-97.745492" changeset="false"><tag k="addr:street" v="Newning Avenue"/><tag k="addr:housenumber" v="1503"/><tag k="addr:postcode" v="78704"/></node><node id="-43" lat="30.245459" lon="-97.748263" changeset="false"><tag k="addr:street" v="Drake Avenue"/><tag k="addr:housenumber" v="1712"/><tag k="addr:postcode" v="78704"/></node><node id="-44" lat="30.244403" lon="-97.749326" changeset="false"><tag k="addr:street" v="Brackenridge Street"/><tag k="addr:housenumber" v="1902"/><tag k="addr:postcode" v="78704"/></node><node id="-45" lat="30.245059" lon="-97.751169" changeset="false"><tag k="addr:street" v="South Congress Avenue"/><tag k="addr:housenumber" v="1901"/><tag k="addr:postcode" v="78704"/></node><node id="-46" lat="30.245952" lon="-97.744774" changeset="false"><tag k="addr:street" v="Sunset Lane"/><tag k="addr:housenumber" v="1600"/><tag k="addr:postcode" v="78704"/></node><node id="-47" lat="30.249789" lon="-97.748747" changeset="false"><tag k="addr:street" v="East Gibson Street"/><tag k="addr:housenumber" v="106"/><tag k="addr:postcode" v="78704"/></node><node id="-48" lat="30.241509" lon="-97.750318" changeset="false"><tag k="addr:street" v="Brackenridge Street"/><tag k="addr:housenumber" v="2115"/><tag k="addr:postcode" v="78704"/></node><node id="-49" lat="30.246042" lon="-97.746821" changeset="false"><tag k="addr:street" v="Newning Avenue"/><tag k="addr:housenumber" v="1700"/><tag k="addr:postcode" v="78704"/></node><node id="-50" lat="30.243869" lon="-97.749514" changeset="false"><tag k="addr:street" v="Brackenridge Street"/><tag k="addr:housenumber" v="1910"/><tag k="addr:postcode" v="78704"/></node><node id="-51" lat="30.24918" lon="-97.7486" changeset="false"><tag k="addr:street" v="Nickerson Street"/><tag k="addr:housenumber" v="1406 1/2"/><tag k="addr:postcode" v="78704"/></node><node id="-52" lat="30.24871" lon="-97.742722" changeset="false"><tag k="addr:street" v="Pecan Grove Road"/><tag k="addr:housenumber" v="603"/><tag k="addr:postcode" v="78704"/></node><node id="-53" lat="30.244631" lon="-97.74639" changeset="false"><tag k="addr:street" v="East Annie Street"/><tag k="addr:housenumber" v="509"/><tag k="addr:postcode" v="78704"/></node><node id="-54" lat="30.249492" lon="-97.749337" changeset="false"><tag k="addr:street" v="South Congress Avenue"/><tag k="addr:housenumber" v="1403"/><tag k="addr:postcode" v="78704"/></node><node id="-55" lat="30.244403" lon="-97.745618" changeset="false"><tag k="addr:street" v="East Side Drive"/><tag k="addr:housenumber" v="1802"/><tag k="addr:postcode" v="78704"/></node><node id="-56" lat="30.242105" lon="-97.751065" changeset="false"><tag k="addr:street" v="Nickerson Street"/><tag k="addr:housenumber" v="2113"/><tag k="addr:postcode" v="78704"/></node><node id="-57" lat="30.245646" lon="-97.746414" changeset="false"><tag k="addr:street" v="Newning Avenue"/><tag k="addr:housenumber" v="1703"/><tag k="addr:postcode" v="78704"/></node><node id="-58" lat="30.245974" lon="-97.745463" changeset="false"><tag k="addr:street" v="East Side Drive"/><tag k="addr:housenumber" v="1604"/><tag k="addr:postcode" v="78704"/></node><node id="-59" lat="30.243037" lon="-97.748514" changeset="false"><tag k="addr:street" v="Newning Avenue"/><tag k="addr:housenumber" v="1926"/><tag k="addr:postcode" v="78704"/></node><node id="-60" lat="30.244802" lon="-97.748485" changeset="false"><tag k="addr:street" v="Drake Avenue"/><tag k="addr:housenumber" v="1806"/><tag k="addr:postcode" v="78704"/></node><node id="-61" lat="30.248707" lon="-97.742581" changeset="false"><tag k="addr:street" v="Pecan Grove Road"/><tag k="addr:housenumber" v="605"/><tag k="addr:postcode" v="78704"/></node><node id="-62" lat="30.246378" lon="-97.744995" changeset="false"><tag k="addr:street" v="East Monroe Street"/><tag k="addr:housenumber" v="600"/><tag k="addr:postcode" v="78704"/></node><node id="-63" lat="30.242946" lon="-97.748972" changeset="false"><tag k="addr:street" v="Terrace Drive"/><tag k="addr:housenumber" v="308"/><tag k="addr:postcode" v="78704"/></node><node id="-64" lat="30.245327" lon="-97.750904" changeset="false"><tag k="addr:street" v="South Congress Avenue"/><tag k="addr:housenumber" v="1811"/><tag k="addr:postcode" v="78704"/></node><node id="-65" lat="30.246219" lon="-97.745483" changeset="false"><tag k="addr:street" v="East Monroe Street"/><tag k="addr:housenumber" v="513"/><tag k="addr:postcode" v="78704"/></node><node id="-66" lat="30.246296" lon="-97.745614" changeset="false"><tag k="addr:street" v="East Monroe Street"/><tag k="addr:housenumber" v="511"/><tag k="addr:postcode" v="78704"/></node><node id="-67" lat="30.243987" lon="-97.746119" changeset="false"><tag k="addr:street" v="East Mary Street"/><tag k="addr:housenumber" v="514"/><tag k="addr:postcode" v="78704"/></node><node id="-68" lat="30.244048" lon="-97.746269" changeset="false"><tag k="addr:street" v="East Mary Street"/><tag k="addr:housenumber" v="512"/><tag k="addr:postcode" v="78704"/></node><node id="-69" lat="30.242246" lon="-97.746856" changeset="false"><tag k="addr:street" v="Terrace Drive"/><tag k="addr:housenumber" v="518"/><tag k="addr:postcode" v="78704"/></node><node id="-70" lat="30.242234" lon="-97.746872" changeset="false"><tag k="addr:street" v="East Side Drive"/><tag k="addr:housenumber" v="1922"/><tag k="addr:postcode" v="78704"/></node><node id="-71" lat="30.245314" lon="-97.747188" changeset="false"><tag k="addr:street" v="Newning Avenue"/><tag k="addr:housenumber" v="1704"/><tag k="addr:postcode" v="78704"/></node><node id="-72" lat="30.245321" lon="-97.747212" changeset="false"><tag k="addr:street" v="East Annie Street"/><tag k="addr:housenumber" v="410"/><tag k="addr:postcode" v="78704"/></node><node id="-73" lat="30.250499" lon="-97.749077" changeset="false"><tag k="addr:street" v="South Congress Avenue"/><tag k="addr:housenumber" v="1315"/><tag k="addr:postcode" v="78704"/></node><node id="-74" lat="30.250169" lon="-97.749198" changeset="false"><tag k="addr:street" v="South Congress Avenue"/><tag k="addr:housenumber" v="1329"/><tag k="addr:postcode" v="78704"/></node><node id="-75" lat="30.250592" lon="-97.74905" changeset="false"><tag k="addr:street" v="South Congress Avenue"/><tag k="addr:housenumber" v="1313"/><tag k="addr:postcode" v="78704"/></node><node id="-76" lat="30.250426" lon="-97.749111" changeset="false"><tag k="addr:street" v="South Congress Avenue"/><tag k="addr:housenumber" v="1317"/><tag k="addr:postcode" v="78704"/></node><node id="-77" lat="30.250222" lon="-97.749173" changeset="false"><tag k="addr:street" v="South Congress Avenue"/><tag k="addr:housenumber" v="1325"/><tag k="addr:postcode" v="78704"/></node><node id="-78" lat="30.250342" lon="-97.749143" changeset="false"><tag k="addr:street" v="South Congress Avenue"/><tag k="addr:housenumber" v="1321"/><tag k="addr:postcode" v="78704"/></node><node id="-79" lat="30.250278" lon="-97.749129" changeset="false"><tag k="addr:street" v="South Congress Avenue"/><tag k="addr:housenumber" v="1323"/><tag k="addr:postcode" v="78704"/></node><node id="-80" lat="30.247365" lon="-97.748735" changeset="false"><tag k="addr:street" v="East Monroe Street"/><tag k="addr:housenumber" v="205"/><tag k="addr:postcode" v="78704"/></node><node id="-81" lat="30.24745" lon="-97.749002" changeset="false"><tag k="addr:street" v="East Monroe Street"/><tag k="addr:housenumber" v="201"/><tag k="addr:postcode" v="78704"/></node><node id="-82" lat="30.245856" lon="-97.75068" changeset="false"><tag k="addr:street" v="South Congress Avenue"/><tag k="addr:housenumber" v="1801"/><tag k="addr:postcode" v="78704"/></node><node id="-83" lat="30.24592" lon="-97.750703" changeset="false"><tag k="addr:street" v="East Annie Street"/><tag k="addr:housenumber" v="105"/><tag k="addr:postcode" v="78704"/></node></osm>