<?xml version="1.0" encoding="UTF-8"?><osm version="0.6" generator="github.com/aaronlidman/osm-and-geojson"><node id="-1" lat="30.515952" lon="-97.965958" changeset="false"><tag k="addr:street" v="Quail Valley Court"/><tag k="addr:housenumber" v="21708"/><tag k="addr:postcode" v="78641"/></node><node id="-2" lat="30.542068" lon="-97.939979" changeset="false"><tag k="addr:street" v="Nameless Road"/><tag k="addr:housenumber" v="23094"/><tag k="addr:postcode" v="78641"/></node><node id="-3" lat="30.583526" lon="-98.067812" changeset="false"><tag k="addr:street" v="Montana Springs Drive"/><tag k="addr:housenumber" v="12115"/><tag k="addr:postcode" v="78654"/></node><node id="-4" lat="30.572155" lon="-97.958122" changeset="false"><tag k="addr:street" v="Big Sandy Drive"/><tag k="addr:housenumber" v="23209"/><tag k="addr:postcode" v="78641"/></node><node id="-5" lat="30.571892" lon="-97.958677" changeset="false"><tag k="addr:street" v="Big Sandy Drive"/><tag k="addr:housenumber" v="23301"/><tag k="addr:postcode" v="78641"/></node><node id="-6" lat="30.571167" lon="-97.956447" changeset="false"><tag k="addr:street" v="Big Sandy Drive"/><tag k="addr:housenumber" v="23107"/><tag k="addr:postcode" v="78641"/></node><node id="-7" lat="30.584934" lon="-98.06539" changeset="false"><tag k="addr:street" v="Montana Springs Drive"/><tag k="addr:housenumber" v="12213"/><tag k="addr:postcode" v="78654"/></node><node id="-8" lat="30.527167" lon="-97.928658" changeset="false"><tag k="addr:street" v="Nameless Road"/><tag k="addr:housenumber" v="23400"/><tag k="addr:postcode" v="78641"/></node><node id="-9" lat="30.586733" lon="-98.068729" changeset="false"><tag k="addr:street" v="Montana Ridge Pass"/><tag k="addr:housenumber" v="29806"/><tag k="addr:postcode" v="78654"/></node><node id="-10" lat="30.617643" lon="-97.961574" changeset="false"><tag k="addr:street" v="Bingham Creek Road"/><tag k="addr:housenumber" v="25006"/><tag k="addr:postcode" v="78641"/></node><node id="-11" lat="30.56945" lon="-97.959688" changeset="false"><tag k="addr:street" v="Sunny Oak Lane"/><tag k="addr:housenumber" v="23209"/><tag k="addr:postcode" v="78641"/></node><node id="-12" lat="30.583385" lon="-98.068456" changeset="false"><tag k="addr:street" v="Montana Springs Drive"/><tag k="addr:housenumber" v="12113"/><tag k="addr:postcode" v="78654"/></node><node id="-13" lat="30.526305" lon="-97.928142" changeset="false"><tag k="addr:street" v="Nameless Road"/><tag k="addr:housenumber" v="23414"/><tag k="addr:postcode" v="78641"/></node><node id="-14" lat="30.582641" lon="-98.071921" changeset="false"><tag k="addr:street" v="Montana Springs Cove"/><tag k="addr:housenumber" v="29801"/><tag k="addr:postcode" v="78654"/></node><node id="-15" lat="30.616162" lon="-97.9631" changeset="false"><tag k="addr:street" v="Bingham Creek Road"/><tag k="addr:housenumber" v="25036"/><tag k="addr:postcode" v="78641"/></node><node id="-16" lat="30.616908" lon="-97.963148" changeset="false"><tag k="addr:street" v="Bingham Creek Road"/><tag k="addr:housenumber" v="25024"/><tag k="addr:postcode" v="78641"/></node><node id="-17" lat="30.616333" lon="-97.959712" changeset="false"><tag k="addr:street" v="Bingham Creek Road"/><tag k="addr:housenumber" v="24834"/><tag k="addr:postcode" v="78641"/></node><node id="-18" lat="30.515023" lon="-97.966132" changeset="false"><tag k="addr:street" v="Quail Valley Court"/><tag k="addr:housenumber" v="21709"/><tag k="addr:postcode" v="78641"/></node><node id="-19" lat="30.515029" lon="-97.96649" changeset="false"><tag k="addr:street" v="Quail Valley Court"/><tag k="addr:housenumber" v="21711"/><tag k="addr:postcode" v="78641"/></node><node id="-20" lat="30.585204" lon="-98.064451" changeset="false"><tag k="addr:street" v="Montana Springs Drive"/><tag k="addr:housenumber" v="12301"/><tag k="addr:postcode" v="78654"/></node><node id="-21" lat="30.593195" lon="-97.9658" changeset="false"><tag k="addr:street" v="Chaparral Drive"/><tag k="addr:housenumber" v="15100"/><tag k="addr:postcode" v="78641"/></node><node id="-22" lat="30.58629" lon="-98.063988" changeset="false"><tag k="addr:street" v="Montana Springs Drive"/><tag k="addr:housenumber" v="12309"/><tag k="addr:postcode" v="78654"/></node><node id="-23" lat="30.58103" lon="-97.969334" changeset="false"><tag k="addr:street" v="Yaupon Trail"/><tag k="addr:housenumber" v="24203"/><tag k="addr:postcode" v="78641"/></node><node id="-24" lat="30.596573" lon="-97.977824" changeset="false"><tag k="addr:street" v="Fawn Drive"/><tag k="addr:housenumber" v="25204"/><tag k="addr:postcode" v="78641"/></node><node id="-25" lat="30.507339" lon="-97.92049" changeset="false"><tag k="addr:street" v="White Rim Trail"/><tag k="addr:housenumber" v="18704"/><tag k="addr:postcode" v="78645"/></node><node id="-26" lat="30.511256" lon="-97.965474" changeset="false"><tag k="addr:street" v="Tarantula Court"/><tag k="addr:housenumber" v="10505"/><tag k="addr:postcode" v="78641"/></node><node id="-27" lat="30.513605" lon="-97.961287" changeset="false"><tag k="addr:street" v="Creekside Drive"/><tag k="addr:housenumber" v="21437"/><tag k="addr:postcode" v="78641"/></node><node id="-28" lat="30.514428" lon="-97.96221" changeset="false"><tag k="addr:street" v="Creekside Drive"/><tag k="addr:housenumber" v="21432"/><tag k="addr:postcode" v="78641"/></node><node id="-29" lat="30.513041" lon="-97.962623" changeset="false"><tag k="addr:street" v="Creekside Drive"/><tag k="addr:housenumber" v="21444"/><tag k="addr:postcode" v="78641"/></node><node id="-30" lat="30.513174" lon="-97.963669" changeset="false"><tag k="addr:street" v="Quail Valley Drive"/><tag k="addr:housenumber" v="10703"/><tag k="addr:postcode" v="78641"/></node><node id="-31" lat="30.516088" lon="-97.965267" changeset="false"><tag k="addr:street" v="Quail Valley Court"/><tag k="addr:housenumber" v="21704"/><tag k="addr:postcode" v="78641"/></node><node id="-32" lat="30.584855" lon="-98.069734" changeset="false"><tag k="addr:street" v="Montana Springs Drive"/><tag k="addr:housenumber" v="12104"/><tag k="addr:postcode" v="78654"/></node><node id="-33" lat="30.522871" lon="-97.962047" changeset="false"><tag k="addr:street" v="Cold Spring Drive"/><tag k="addr:housenumber" v="21717"/><tag k="addr:postcode" v="78641"/></node><node id="-34" lat="30.514348" lon="-97.960023" changeset="false"><tag k="addr:street" v="Cherry Hollow Court"/><tag k="addr:housenumber" v="21307"/><tag k="addr:postcode" v="78641"/></node><node id="-35" lat="30.515036" lon="-97.960068" changeset="false"><tag k="addr:street" v="Cherry Hollow Court"/><tag k="addr:housenumber" v="21308"/><tag k="addr:postcode" v="78641"/></node><node id="-36" lat="30.512373" lon="-97.957136" changeset="false"><tag k="addr:street" v="Cherry Hollow Crossing"/><tag k="addr:housenumber" v="10905"/><tag k="addr:postcode" v="78641"/></node><node id="-37" lat="30.514145" lon="-97.961131" changeset="false"><tag k="addr:street" v="Creekside Drive"/><tag k="addr:housenumber" v="21433"/><tag k="addr:postcode" v="78641"/></node><node id="-38" lat="30.516922" lon="-97.95484" changeset="false"><tag k="addr:street" v="Creekside Drive"/><tag k="addr:housenumber" v="21102"/><tag k="addr:postcode" v="78641"/></node><node id="-39" lat="30.517096" lon="-97.955855" changeset="false"><tag k="addr:street" v="Creekside Drive"/><tag k="addr:housenumber" v="21200"/><tag k="addr:postcode" v="78641"/></node><node id="-40" lat="30.51487" lon="-97.955957" changeset="false"><tag k="addr:street" v="Cherry Hollow Crossing"/><tag k="addr:housenumber" v="11200"/><tag k="addr:postcode" v="78641"/></node><node id="-41" lat="30.617183" lon="-97.962131" changeset="false"><tag k="addr:street" v="Bingham Creek Road"/><tag k="addr:housenumber" v="25012"/><tag k="addr:postcode" v="78641"/></node><node id="-42" lat="30.513112" lon="-97.955529" changeset="false"><tag k="addr:street" v="Ridge Crest Drive"/><tag k="addr:housenumber" v="21002"/><tag k="addr:postcode" v="78641"/></node><node id="-43" lat="30.514012" lon="-97.965082" changeset="false"><tag k="addr:street" v="Quail Valley Drive"/><tag k="addr:housenumber" v="10710"/><tag k="addr:postcode" v="78641"/></node><node id="-44" lat="30.50997" lon="-97.960631" changeset="false"><tag k="addr:street" v="Cherry Hollow Crossing"/><tag k="addr:housenumber" v="10509"/><tag k="addr:postcode" v="78641"/></node><node id="-45" lat="30.528001" lon="-97.968446" changeset="false"><tag k="addr:street" v="Lindeman Loop"/><tag k="addr:housenumber" v="11636"/><tag k="addr:postcode" v="78641"/></node><node id="-46" lat="30.511905" lon="-97.962377" changeset="false"><tag k="addr:street" v="Quail Valley Drive"/><tag k="addr:housenumber" v="10615"/><tag k="addr:postcode" v="78641"/></node><node id="-47" lat="30.50958" lon="-97.960243" changeset="false"><tag k="addr:street" v="Ridge Rim Drive"/><tag k="addr:housenumber" v="10514"/><tag k="addr:postcode" v="78641"/></node><node id="-48" lat="30.584158" lon="-97.988333" changeset="false"><tag k="addr:street" v="Long Hollow Loop"/><tag k="addr:housenumber" v="13805"/><tag k="addr:postcode" v="78641"/></node><node id="-49" lat="30.599976" lon="-97.98462" changeset="false"><tag k="addr:street" v="Rock Cliff Drive"/><tag k="addr:housenumber" v="14808"/><tag k="addr:postcode" v="78641"/></node><node id="-50" lat="30.50978" lon="-97.958329" changeset="false"><tag k="addr:street" v="Ridge Rim Drive"/><tag k="addr:housenumber" v="10601"/><tag k="addr:postcode" v="78641"/></node><node id="-51" lat="30.510525" lon="-97.95841" changeset="false"><tag k="addr:street" v="Ridge Rim Drive"/><tag k="addr:housenumber" v="10605"/><tag k="addr:postcode" v="78641"/></node><node id="-52" lat="30.511302" lon="-97.958977" changeset="false"><tag k="addr:street" v="Cherry Hollow Crossing"/><tag k="addr:housenumber" v="10705"/><tag k="addr:postcode" v="78641"/></node><node id="-53" lat="30.513242" lon="-97.955797" changeset="false"><tag k="addr:street" v="Ridge Crest Drive"/><tag k="addr:housenumber" v="21004"/><tag k="addr:postcode" v="78641"/></node><node id="-54" lat="30.515061" lon="-97.962983" changeset="false"><tag k="addr:street" v="Quail Valley Court"/><tag k="addr:housenumber" v="21603"/><tag k="addr:postcode" v="78641"/></node><node id="-55" lat="30.582255" lon="-97.982677" changeset="false"><tag k="addr:street" v="Long Hollow Loop"/><tag k="addr:housenumber" v="13903"/><tag k="addr:postcode" v="78641"/></node><node id="-56" lat="30.600118" lon="-97.964193" changeset="false"><tag k="addr:street" v="Chaparral Drive"/><tag k="addr:housenumber" v="15507"/><tag k="addr:postcode" v="78641"/></node><node id="-57" lat="30.525473" lon="-97.960934" changeset="false"><tag k="addr:street" v="Lindeman Lane"/><tag k="addr:housenumber" v="21707"/><tag k="addr:postcode" v="78641"/></node><node id="-58" lat="30.518794" lon="-97.963066" changeset="false"><tag k="addr:street" v="Cherry Hollow Drive"/><tag k="addr:housenumber" v="21608"/><tag k="addr:postcode" v="78641"/></node><node id="-59" lat="30.51802" lon="-97.960434" changeset="false"><tag k="addr:street" v="Cherry Hollow Drive"/><tag k="addr:housenumber" v="21527"/><tag k="addr:postcode" v="78641"/></node><node id="-60" lat="30.594273" lon="-97.987218" changeset="false"><tag k="addr:street" v="Bar K Ranch Road"/><tag k="addr:housenumber" v="25612"/><tag k="addr:postcode" v="78641"/></node><node id="-61" lat="30.594875" lon="-97.982183" changeset="false"><tag k="addr:street" v="Rock Cliff Drive"/><tag k="addr:housenumber" v="14604"/><tag k="addr:postcode" v="78641"/></node><node id="-62" lat="30.505962" lon="-97.94238" changeset="false"><tag k="addr:street" v="Mountain Top Circle"/><tag k="addr:housenumber" v="11665"/><tag k="addr:postcode" v="78641"/></node><node id="-63" lat="30.521056" lon="-97.930308" changeset="false"><tag k="addr:street" v="Lindeman Lane"/><tag k="addr:housenumber" v="19920"/><tag k="addr:postcode" v="78641"/></node><node id="-64" lat="30.592161" lon="-97.972594" changeset="false"><tag k="addr:street" v="Fawn Drive"/><tag k="addr:housenumber" v="24800"/><tag k="addr:postcode" v="78641"/></node><node id="-65" lat="30.517069" lon="-97.955511" changeset="false"><tag k="addr:street" v="Creekside Drive"/><tag k="addr:housenumber" v="21106"/><tag k="addr:postcode" v="78641"/></node><node id="-66" lat="30.580077" lon="-97.965584" changeset="false"><tag k="addr:street" v="Yaupon Trail"/><tag k="addr:housenumber" v="24000"/><tag k="addr:postcode" v="78641"/></node><node id="-67" lat="30.580554" lon="-97.967363" changeset="false"><tag k="addr:street" v="Yaupon Trail"/><tag k="addr:housenumber" v="24103"/><tag k="addr:postcode" v="78641"/></node><node id="-68" lat="30.588305" lon="-98.065512" changeset="false"><tag k="addr:street" v="Montana Ridge Pass"/><tag k="addr:housenumber" v="29610"/><tag k="addr:postcode" v="78654"/></node><node id="-69" lat="30.5194" lon="-97.959527" changeset="false"><tag k="addr:street" v="Cherry Hollow Drive"/><tag k="addr:housenumber" v="21518"/><tag k="addr:postcode" v="78641"/></node><node id="-70" lat="30.590169" lon="-97.969788" changeset="false"><tag k="addr:street" v="Quail Court"/><tag k="addr:housenumber" v="14709"/><tag k="addr:postcode" v="78641"/></node><node id="-71" lat="30.594723" lon="-97.988406" changeset="false"><tag k="addr:street" v="Bar K Ranch Road"/><tag k="addr:housenumber" v="25702"/><tag k="addr:postcode" v="78641"/></node><node id="-72" lat="30.57038" lon="-97.955735" changeset="false"><tag k="addr:street" v="Big Sandy Drive"/><tag k="addr:housenumber" v="23101"/><tag k="addr:postcode" v="78641"/></node><node id="-73" lat="30.582919" lon="-97.985834" changeset="false"><tag k="addr:street" v="Long Hollow Loop"/><tag k="addr:housenumber" v="13817"/><tag k="addr:postcode" v="78641"/></node><node id="-74" lat="30.597513" lon="-97.98551" changeset="false"><tag k="addr:street" v="Rock Cliff Cove"/><tag k="addr:housenumber" v="14704"/><tag k="addr:postcode" v="78641"/></node><node id="-75" lat="30.57218" lon="-97.959111" changeset="false"><tag k="addr:street" v="Big Sandy Drive"/><tag k="addr:housenumber" v="23303"/><tag k="addr:postcode" v="78641"/></node><node id="-76" lat="30.586232" lon="-98.069947" changeset="false"><tag k="addr:street" v="Montana Ridge Pass"/><tag k="addr:housenumber" v="29814"/><tag k="addr:postcode" v="78654"/></node><node id="-77" lat="30.585852" lon="-98.068092" changeset="false"><tag k="addr:street" v="Montana Ridge Pass"/><tag k="addr:housenumber" v="29807"/><tag k="addr:postcode" v="78654"/></node><node id="-78" lat="30.615816" lon="-97.958226" changeset="false"><tag k="addr:street" v="Bingham Creek Road"/><tag k="addr:housenumber" v="24800"/><tag k="addr:postcode" v="78641"/></node><node id="-79" lat="30.589135" lon="-98.062134" changeset="false"><tag k="addr:street" v="Cow Creek Road"/><tag k="addr:housenumber" v="12407"/><tag k="addr:postcode" v="78641"/></node><node id="-80" lat="30.583311" lon="-98.068987" changeset="false"><tag k="addr:street" v="Montana Springs Drive"/><tag k="addr:housenumber" v="12109"/><tag k="addr:postcode" v="78654"/></node><node id="-81" lat="30.588143" lon="-98.066228" changeset="false"><tag k="addr:street" v="Montana Ridge Pass"/><tag k="addr:housenumber" v="29702"/><tag k="addr:postcode" v="78654"/></node><node id="-82" lat="30.594056" lon="-97.967792" changeset="false"><tag k="addr:street" v="Anderson Trail"/><tag k="addr:housenumber" v="24601"/><tag k="addr:postcode" v="78641"/></node><node id="-83" lat="30.513593" lon="-97.963214" changeset="false"><tag k="addr:street" v="Quail Valley Cove"/><tag k="addr:housenumber" v="21501"/><tag k="addr:postcode" v="78641"/></node><node id="-84" lat="30.513819" lon="-97.963753" changeset="false"><tag k="addr:street" v="Quail Valley Cove"/><tag k="addr:housenumber" v="21505"/><tag k="addr:postcode" v="78641"/></node><node id="-85" lat="30.514488" lon="-97.963995" changeset="false"><tag k="addr:street" v="Quail Valley Cove"/><tag k="addr:housenumber" v="21506"/><tag k="addr:postcode" v="78641"/></node><node id="-86" lat="30.515147" lon="-97.963522" changeset="false"><tag k="addr:street" v="Quail Valley Court"/><tag k="addr:housenumber" v="21605"/><tag k="addr:postcode" v="78641"/></node><node id="-87" lat="30.516102" lon="-97.964909" changeset="false"><tag k="addr:street" v="Quail Valley Court"/><tag k="addr:housenumber" v="21702"/><tag k="addr:postcode" v="78641"/></node><node id="-88" lat="30.516053" lon="-97.965642" changeset="false"><tag k="addr:street" v="Quail Valley Court"/><tag k="addr:housenumber" v="21706"/><tag k="addr:postcode" v="78641"/></node><node id="-89" lat="30.515453" lon="-97.967052" changeset="false"><tag k="addr:street" v="Quail Valley Court"/><tag k="addr:housenumber" v="21714"/><tag k="addr:postcode" v="78641"/></node><node id="-90" lat="30.524131" lon="-97.957931" changeset="false"><tag k="addr:street" v="Lindeman Lane"/><tag k="addr:housenumber" v="21502"/><tag k="addr:postcode" v="78641"/></node><node id="-91" lat="30.518806" lon="-97.933663" changeset="false"><tag k="addr:street" v="Lindeman Lane"/><tag k="addr:housenumber" v="20026"/><tag k="addr:postcode" v="78641"/></node><node id="-92" lat="30.511224" lon="-97.965897" changeset="false"><tag k="addr:street" v="Tarantula Court"/><tag k="addr:housenumber" v="10503"/><tag k="addr:postcode" v="78641"/></node><node id="-93" lat="30.511283" lon="-97.96518" changeset="false"><tag k="addr:street" v="Tarantula Court"/><tag k="addr:housenumber" v="10507"/><tag k="addr:postcode" v="78641"/></node><node id="-94" lat="30.585041" lon="-98.067487" changeset="false"><tag k="addr:street" v="Montana Springs Drive"/><tag k="addr:housenumber" v="12200"/><tag k="addr:postcode" v="78654"/></node><node id="-95" lat="30.6157" lon="-97.957203" changeset="false"><tag k="addr:street" v="Bingham Creek Road"/><tag k="addr:housenumber" v="24700"/><tag k="addr:postcode" v="78641"/></node><node id="-96" lat="30.515256" lon="-97.959433" changeset="false"><tag k="addr:street" v="Cherry Hollow Court"/><tag k="addr:housenumber" v="21306"/><tag k="addr:postcode" v="78641"/></node><node id="-97" lat="30.517234" lon="-97.958208" changeset="false"><tag k="addr:street" v="Creekside Drive"/><tag k="addr:housenumber" v="21302"/><tag k="addr:postcode" v="78641"/></node><node id="-98" lat="30.513858" lon="-97.955491" changeset="false"><tag k="addr:street" v="Cherry Hollow Crossing"/><tag k="addr:housenumber" v="11105"/><tag k="addr:postcode" v="78641"/></node><node id="-99" lat="30.516998" lon="-97.955187" changeset="false"><tag k="addr:street" v="Creekside Drive"/><tag k="addr:housenumber" v="21104"/><tag k="addr:postcode" v="78641"/></node><node id="-100" lat="30.507394" lon="-97.918972" changeset="false"><tag k="addr:street" v="White Rim Trail"/><tag k="addr:housenumber" v="18612"/><tag k="addr:postcode" v="78645"/></node><node id="-101" lat="30.508616" lon="-97.960299" changeset="false"><tag k="addr:street" v="Ridge Rim Drive"/><tag k="addr:housenumber" v="10513"/><tag k="addr:postcode" v="78641"/></node><node id="-102" lat="30.50935" lon="-97.958663" changeset="false"><tag k="addr:street" v="Ridge Rim Drive"/><tag k="addr:housenumber" v="10529"/><tag k="addr:postcode" v="78641"/></node><node id="-103" lat="30.509317" lon="-97.962136" changeset="false"><tag k="addr:street" v="Cherry Hollow Crossing"/><tag k="addr:housenumber" v="10500"/><tag k="addr:postcode" v="78641"/></node><node id="-104" lat="30.509677" lon="-97.960938" changeset="false"><tag k="addr:street" v="Ridge Rim Drive"/><tag k="addr:housenumber" v="10500"/><tag k="addr:postcode" v="78641"/></node><node id="-105" lat="30.511145" lon="-97.960814" changeset="false"><tag k="addr:street" v="Cherry Hollow Crossing"/><tag k="addr:housenumber" v="10604"/><tag k="addr:postcode" v="78641"/></node><node id="-106" lat="30.583155" lon="-97.986564" changeset="false"><tag k="addr:street" v="Long Hollow Loop"/><tag k="addr:housenumber" v="13813"/><tag k="addr:postcode" v="78641"/></node><node id="-107" lat="30.583039" lon="-97.9863" changeset="false"><tag k="addr:street" v="Long Hollow Loop"/><tag k="addr:housenumber" v="13815"/><tag k="addr:postcode" v="78641"/></node><node id="-108" lat="30.515575" lon="-97.962644" changeset="false"><tag k="addr:street" v="Quail Valley Court"/><tag k="addr:housenumber" v="21601"/><tag k="addr:postcode" v="78641"/></node><node id="-109" lat="30.51856" lon="-97.953637" changeset="false"><tag k="addr:street" v="Creek Bluff Cove"/><tag k="addr:housenumber" v="11509"/><tag k="addr:postcode" v="78641"/></node><node id="-110" lat="30.597443" lon="-97.977588" changeset="false"><tag k="addr:street" v="Hoot Owl Court"/><tag k="addr:housenumber" v="14905"/><tag k="addr:postcode" v="78641"/></node><node id="-111" lat="30.511434" lon="-97.958691" changeset="false"><tag k="addr:street" v="Cherry Hollow Crossing"/><tag k="addr:housenumber" v="10707"/><tag k="addr:postcode" v="78641"/></node><node id="-112" lat="30.511566" lon="-97.958411" changeset="false"><tag k="addr:street" v="Cherry Hollow Crossing"/><tag k="addr:housenumber" v="10801"/><tag k="addr:postcode" v="78641"/></node><node id="-113" lat="30.511776" lon="-97.958182" changeset="false"><tag k="addr:street" v="Cherry Hollow Crossing"/><tag k="addr:housenumber" v="10803"/><tag k="addr:postcode" v="78641"/></node><node id="-114" lat="30.512129" lon="-97.957697" changeset="false"><tag k="addr:street" v="Cherry Hollow Crossing"/><tag k="addr:housenumber" v="10901"/><tag k="addr:postcode" v="78641"/></node><node id="-115" lat="30.51176" lon="-97.966425" changeset="false"><tag k="addr:street" v="Tarantula Court"/><tag k="addr:housenumber" v="10500"/><tag k="addr:postcode" v="78641"/></node><node id="-116" lat="30.514199" lon="-97.963194" changeset="false"><tag k="addr:street" v="Quail Valley Cove"/><tag k="addr:housenumber" v="21500"/><tag k="addr:postcode" v="78641"/></node><node id="-117" lat="30.599041" lon="-97.95186" changeset="false"><tag k="addr:street" v="Lucky Hit Road"/><tag k="addr:housenumber" v="16102"/><tag k="addr:postcode" v="78641"/></node><node id="-118" lat="30.58083" lon="-97.968321" changeset="false"><tag k="addr:street" v="Yaupon Trail"/><tag k="addr:housenumber" v="24107"/><tag k="addr:postcode" v="78641"/></node><node id="-119" lat="30.515684" lon="-97.954147" changeset="false"><tag k="addr:street" v="Cherry Hollow Crossing"/><tag k="addr:housenumber" v="11301"/><tag k="addr:postcode" v="78641"/></node><node id="-120" lat="30.582505" lon="-97.985025" changeset="false"><tag k="addr:street" v="Long Hollow Loop"/><tag k="addr:housenumber" v="13825"/><tag k="addr:postcode" v="78641"/></node><node id="-121" lat="30.583422" lon="-97.981615" changeset="false"><tag k="addr:street" v="Long Hollow Loop"/><tag k="addr:housenumber" v="13915"/><tag k="addr:postcode" v="78641"/></node><node id="-122" lat="30.583979" lon="-97.980939" changeset="false"><tag k="addr:street" v="Long Hollow Loop"/><tag k="addr:housenumber" v="13923"/><tag k="addr:postcode" v="78641"/></node><node id="-123" lat="30.593271" lon="-97.984169" changeset="false"><tag k="addr:street" v="Bar K Ranch Road"/><tag k="addr:housenumber" v="25406"/><tag k="addr:postcode" v="78641"/></node><node id="-124" lat="30.596435" lon="-97.983471" changeset="false"><tag k="addr:street" v="Rock Cliff Drive"/><tag k="addr:housenumber" v="14708"/><tag k="addr:postcode" v="78641"/></node><node id="-125" lat="30.523269" lon="-97.956023" changeset="false"><tag k="addr:street" v="Long Hill Drive"/><tag k="addr:housenumber" v="21502"/><tag k="addr:postcode" v="78641"/></node><node id="-126" lat="30.518822" lon="-97.963424" changeset="false"><tag k="addr:street" v="Cherry Hollow Drive"/><tag k="addr:housenumber" v="21610"/><tag k="addr:postcode" v="78641"/></node><node id="-127" lat="30.52295" lon="-97.954604" changeset="false"><tag k="addr:street" v="Lonesome Cove"/><tag k="addr:housenumber" v="11700"/><tag k="addr:postcode" v="78641"/></node><node id="-128" lat="30.585143" lon="-97.99146" changeset="false"><tag k="addr:street" v="River Fern Court"/><tag k="addr:housenumber" v="25605"/><tag k="addr:postcode" v="78641"/></node><node id="-129" lat="30.591004" lon="-97.969541" changeset="false"><tag k="addr:street" v="Quail Court"/><tag k="addr:housenumber" v="14713"/><tag k="addr:postcode" v="78641"/></node><node id="-130" lat="30.524625" lon="-97.959004" changeset="false"><tag k="addr:street" v="Lindeman Lane"/><tag k="addr:housenumber" v="21602"/><tag k="addr:postcode" v="78641"/></node><node id="-131" lat="30.533154" lon="-97.936996" changeset="false"><tag k="addr:street" v="Nameless Road"/><tag k="addr:housenumber" v="23280"/><tag k="addr:postcode" v="78641"/></node><node id="-132" lat="30.597743" lon="-97.97775" changeset="false"><tag k="addr:street" v="Hoot Owl Court"/><tag k="addr:housenumber" v="14904"/><tag k="addr:postcode" v="78641"/></node><node id="-133" lat="30.516059" lon="-97.959634" changeset="false"><tag k="addr:street" v="Creekside Drive"/><tag k="addr:housenumber" v="21405"/><tag k="addr:postcode" v="78641"/></node><node id="-134" lat="30.524112" lon="-97.959749" changeset="false"><tag k="addr:street" v="Lindeman Lane"/><tag k="addr:housenumber" v="21607"/><tag k="addr:postcode" v="78641"/></node><node id="-135" lat="30.593512" lon="-97.986728" changeset="false"><tag k="addr:street" v="Bar K Ranch Road"/><tag k="addr:housenumber" v="25606"/><tag k="addr:postcode" v="78641"/></node><node id="-136" lat="30.614649" lon="-97.949002" changeset="false"><tag k="addr:street" v="Bingham Creek Road"/><tag k="addr:housenumber" v="24364"/><tag k="addr:postcode" v="78641"/></node><node id="-137" lat="30.536849" lon="-97.940742" changeset="false"><tag k="addr:street" v="Nameless Road"/><tag k="addr:housenumber" v="23208"/><tag k="addr:postcode" v="78641"/></node><node id="-138" lat="30.520912" lon="-97.959614" changeset="false"><tag k="addr:street" v="Cherry Hollow Drive"/><tag k="addr:housenumber" v="21512"/><tag k="addr:postcode" v="78641"/></node><node id="-139" lat="30.588429" lon="-98.062005" changeset="false"><tag k="addr:street" v="Cow Creek Road"/><tag k="addr:housenumber" v="12403"/><tag k="addr:postcode" v="78641"/></node><node id="-140" lat="30.614796" lon="-97.9535" changeset="false"><tag k="addr:street" v="Bingham Creek Road"/><tag k="addr:housenumber" v="24600"/><tag k="addr:postcode" v="78641"/></node><node id="-141" lat="30.589827" lon="-97.968566" changeset="false"><tag k="addr:street" v="Chaparral Drive"/><tag k="addr:housenumber" v="14800"/><tag k="addr:postcode" v="78641"/></node><node id="-142" lat="30.568348" lon="-97.957381" changeset="false"><tag k="addr:street" v="Sunny Oak Lane"/><tag k="addr:housenumber" v="23101"/><tag k="addr:postcode" v="78641"/></node><node id="-143" lat="30.539007" lon="-97.942334" changeset="false"><tag k="addr:street" v="Nameless Road"/><tag k="addr:housenumber" v="23152"/><tag k="addr:postcode" v="78641"/></node><node id="-144" lat="30.572581" lon="-97.958591" changeset="false"><tag k="addr:street" v="Big Sandy Drive"/><tag k="addr:housenumber" v="23305"/><tag k="addr:postcode" v="78641"/></node><node id="-145" lat="30.588785" lon="-97.969176" changeset="false"><tag k="addr:street" v="Fawn Drive"/><tag k="addr:housenumber" v="24502"/><tag k="addr:postcode" v="78641"/></node><node id="-146" lat="30.51647" lon="-97.939572" changeset="false"><tag k="addr:street" v="Lindeman Lane"/><tag k="addr:housenumber" v="20300"/><tag k="addr:postcode" v="78641"/></node><node id="-147" lat="30.616567" lon="-97.959563" changeset="false"><tag k="addr:street" v="Bingham Creek Road"/><tag k="addr:housenumber" v="24900"/><tag k="addr:postcode" v="78641"/></node><node id="-148" lat="30.573829" lon="-97.958264" changeset="false"><tag k="addr:street" v="Big Sandy Drive"/><tag k="addr:housenumber" v="23311"/><tag k="addr:postcode" v="78641"/></node><node id="-149" lat="30.565892" lon="-97.957478" changeset="false"><tag k="addr:street" v="Spanish Oak Trail"/><tag k="addr:housenumber" v="23004"/><tag k="addr:postcode" v="78641"/></node><node id="-150" lat="30.566787" lon="-97.958072" changeset="false"><tag k="addr:street" v="Spanish Oak Trail"/><tag k="addr:housenumber" v="23010"/><tag k="addr:postcode" v="78641"/></node><node id="-151" lat="30.583845" lon="-98.067262" changeset="false"><tag k="addr:street" v="Montana Springs Drive"/><tag k="addr:housenumber" v="12201"/><tag k="addr:postcode" v="78654"/></node><node id="-152" lat="30.531408" lon="-97.935282" changeset="false"><tag k="addr:street" v="Nameless Road"/><tag k="addr:housenumber" v="23300"/><tag k="addr:postcode" v="78641"/></node><node id="-153" lat="30.539576" lon="-97.941581" changeset="false"><tag k="addr:street" v="Nameless Road"/><tag k="addr:housenumber" v="23102"/><tag k="addr:postcode" v="78641"/></node><node id="-154" lat="30.513435" lon="-97.964933" changeset="false"><tag k="addr:street" v="Quail Valley Drive"/><tag k="addr:housenumber" v="10706"/><tag k="addr:postcode" v="78641"/></node><node id="-155" lat="30.517071" lon="-97.952823" changeset="false"><tag k="addr:street" v="Cherry Hollow Crossing"/><tag k="addr:housenumber" v="11405"/><tag k="addr:postcode" v="78641"/></node><node id="-156" lat="30.511579" lon="-97.964564" changeset="false"><tag k="addr:street" v="Tarantula Court"/><tag k="addr:housenumber" v="10511"/><tag k="addr:postcode" v="78641"/></node><node id="-157" lat="30.517254" lon="-97.957002" changeset="false"><tag k="addr:street" v="Creekside Drive"/><tag k="addr:housenumber" v="21208"/><tag k="addr:postcode" v="78641"/></node><node id="-158" lat="30.515995" lon="-97.956637" changeset="false"><tag k="addr:street" v="Creekside Drive"/><tag k="addr:housenumber" v="21205"/><tag k="addr:postcode" v="78641"/></node><node id="-159" lat="30.515406" lon="-97.955585" changeset="false"><tag k="addr:street" v="Cherry Hollow Crossing"/><tag k="addr:housenumber" v="11204"/><tag k="addr:postcode" v="78641"/></node><node id="-160" lat="30.512196" lon="-97.965972" changeset="false"><tag k="addr:street" v="Tarantula Court"/><tag k="addr:housenumber" v="10504"/><tag k="addr:postcode" v="78641"/></node><node id="-161" lat="30.51447" lon="-97.954905" changeset="false"><tag k="addr:street" v="Cherry Hollow Crossing"/><tag k="addr:housenumber" v="11201"/><tag k="addr:postcode" v="78641"/></node><node id="-162" lat="30.50746" lon="-97.919648" changeset="false"><tag k="addr:street" v="White Rim Trail"/><tag k="addr:housenumber" v="18700"/><tag k="addr:postcode" v="78645"/></node><node id="-163" lat="30.513646" lon="-97.958501" changeset="false"><tag k="addr:street" v="Cherry Hollow Court"/><tag k="addr:housenumber" v="21205"/><tag k="addr:postcode" v="78641"/></node><node id="-164" lat="30.513395" lon="-97.961284" changeset="false"><tag k="addr:street" v="Creekside Drive"/><tag k="addr:housenumber" v="21439"/><tag k="addr:postcode" v="78641"/></node><node id="-165" lat="30.51458" lon="-97.963587" changeset="false"><tag k="addr:street" v="Quail Valley Cove"/><tag k="addr:housenumber" v="21504"/><tag k="addr:postcode" v="78641"/></node><node id="-166" lat="30.516041" lon="-97.963841" changeset="false"><tag k="addr:street" v="Quail Valley Court"/><tag k="addr:housenumber" v="21608"/><tag k="addr:postcode" v="78641"/></node><node id="-167" lat="30.516068" lon="-97.964179" changeset="false"><tag k="addr:street" v="Quail Valley Court"/><tag k="addr:housenumber" v="21610"/><tag k="addr:postcode" v="78641"/></node><node id="-168" lat="30.517273" lon="-97.957404" changeset="false"><tag k="addr:street" v="Creekside Drive"/><tag k="addr:housenumber" v="21212"/><tag k="addr:postcode" v="78641"/></node><node id="-169" lat="30.514411" lon="-97.961104" changeset="false"><tag k="addr:street" v="Creekside Drive"/><tag k="addr:housenumber" v="21431"/><tag k="addr:postcode" v="78641"/></node><node id="-170" lat="30.582972" lon="-97.981815" changeset="false"><tag k="addr:street" v="Long Hollow Loop"/><tag k="addr:housenumber" v="13911"/><tag k="addr:postcode" v="78641"/></node><node id="-171" lat="30.583728" lon="-97.987874" changeset="false"><tag k="addr:street" v="Long Hollow Loop"/><tag k="addr:housenumber" v="13807"/><tag k="addr:postcode" v="78641"/></node><node id="-172" lat="30.587066" lon="-98.065094" changeset="false"><tag k="addr:street" v="Montana Ridge Pass"/><tag k="addr:housenumber" v="29601"/><tag k="addr:postcode" v="78654"/></node><node id="-173" lat="30.52184" lon="-97.954587" changeset="false"><tag k="addr:street" v="Lindeman Lane"/><tag k="addr:housenumber" v="21308"/><tag k="addr:postcode" v="78641"/></node><node id="-174" lat="30.522891" lon="-97.958266" changeset="false"><tag k="addr:street" v="Lindeman Lane"/><tag k="addr:housenumber" v="21509"/><tag k="addr:postcode" v="78641"/></node><node id="-175" lat="30.595888" lon="-97.982569" changeset="false"><tag k="addr:street" v="Rock Cliff Drive"/><tag k="addr:housenumber" v="14608"/><tag k="addr:postcode" v="78641"/></node><node id="-176" lat="30.596562" lon="-97.991756" changeset="false"><tag k="addr:street" v="Bar K Ranch Road"/><tag k="addr:housenumber" v="26001"/><tag k="addr:postcode" v="78641"/></node><node id="-177" lat="30.517792" lon="-97.954027" changeset="false"><tag k="addr:street" v="Creek Bluff Cove"/><tag k="addr:housenumber" v="11501"/><tag k="addr:postcode" v="78641"/></node><node id="-178" lat="30.51771" lon="-97.965917" changeset="false"><tag k="addr:street" v="Cherry Hollow Drive"/><tag k="addr:housenumber" v="21713"/><tag k="addr:postcode" v="78641"/></node><node id="-179" lat="30.521181" lon="-97.962818" changeset="false"><tag k="addr:street" v="Highclimb Court"/><tag k="addr:housenumber" v="21702"/><tag k="addr:postcode" v="78641"/></node><node id="-180" lat="30.523819" lon="-97.961592" changeset="false"><tag k="addr:street" v="Cold Spring Drive"/><tag k="addr:housenumber" v="21702"/><tag k="addr:postcode" v="78641"/></node><node id="-181" lat="30.523195" lon="-97.962455" changeset="false"><tag k="addr:street" v="Cold Spring Drive"/><tag k="addr:housenumber" v="21705"/><tag k="addr:postcode" v="78641"/></node><node id="-182" lat="30.511405" lon="-97.966376" changeset="false"><tag k="addr:street" v="Tarantula Court"/><tag k="addr:housenumber" v="10501"/><tag k="addr:postcode" v="78641"/></node><node id="-183" lat="30.590111" lon="-97.96991" changeset="false"><tag k="addr:street" v="Quail Court"/><tag k="addr:housenumber" v="14707"/><tag k="addr:postcode" v="78641"/></node><node id="-184" lat="30.581518" lon="-97.968704" changeset="false"><tag k="addr:street" v="Yaupon Trail"/><tag k="addr:housenumber" v="24202"/><tag k="addr:postcode" v="78641"/></node><node id="-185" lat="30.583068" lon="-97.973546" changeset="false"><tag k="addr:street" v="Cottonwood Drive"/><tag k="addr:housenumber" v="24418"/><tag k="addr:postcode" v="78641"/></node><node id="-186" lat="30.58339" lon="-98.071086" changeset="false"><tag k="addr:street" v="Montana Springs Drive"/><tag k="addr:housenumber" v="12009"/><tag k="addr:postcode" v="78654"/></node><node id="-187" lat="30.510714" lon="-97.961172" changeset="false"><tag k="addr:street" v="Cherry Hollow Crossing"/><tag k="addr:housenumber" v="10600"/><tag k="addr:postcode" v="78641"/></node><node id="-188" lat="30.518604" lon="-97.950063" changeset="false"><tag k="addr:street" v="Lindeman Lane"/><tag k="addr:housenumber" v="21000"/><tag k="addr:postcode" v="78641"/></node><node id="-189" lat="30.520267" lon="-97.96145" changeset="false"><tag k="addr:street" v="Highclimb Court"/><tag k="addr:housenumber" v="21609"/><tag k="addr:postcode" v="78641"/></node><node id="-190" lat="30.516196" lon="-97.946581" changeset="false"><tag k="addr:street" v="Lindeman Lane"/><tag k="addr:housenumber" v="20601"/><tag k="addr:postcode" v="78641"/></node><node id="-191" lat="30.526422" lon="-97.963185" changeset="false"><tag k="addr:street" v="Ranch House Cove"/><tag k="addr:housenumber" v="11607"/><tag k="addr:postcode" v="78641"/></node><node id="-192" lat="30.58464" lon="-97.976929" changeset="false"><tag k="addr:street" v="Greenwillow Drive"/><tag k="addr:housenumber" v="14205"/><tag k="addr:postcode" v="78641"/></node><node id="-193" lat="30.59539" lon="-97.967634" changeset="false"><tag k="addr:street" v="Anderson Trail"/><tag k="addr:housenumber" v="24604"/><tag k="addr:postcode" v="78641"/></node><node id="-194" lat="30.587149" lon="-98.068134" changeset="false"><tag k="addr:street" v="Montana Ridge Pass"/><tag k="addr:housenumber" v="29802"/><tag k="addr:postcode" v="78654"/></node><node id="-195" lat="30.585431" lon="-98.063396" changeset="false"><tag k="addr:street" v="Cow Creek Road"/><tag k="addr:housenumber" v="12210"/><tag k="addr:postcode" v="78654"/></node><node id="-196" lat="30.595189" lon="-97.988358" changeset="false"><tag k="addr:street" v="Bar K Ranch Road"/><tag k="addr:housenumber" v="25704"/><tag k="addr:postcode" v="78641"/></node><node id="-197" lat="30.589175" lon="-97.969741" changeset="false"><tag k="addr:street" v="Fawn Drive"/><tag k="addr:housenumber" v="24506"/><tag k="addr:postcode" v="78641"/></node><node id="-198" lat="30.568973" lon="-97.958632" changeset="false"><tag k="addr:street" v="Sunny Oak Lane"/><tag k="addr:housenumber" v="23110"/><tag k="addr:postcode" v="78641"/></node><node id="-199" lat="30.568372" lon="-97.957651" changeset="false"><tag k="addr:street" v="Sunny Oak Lane"/><tag k="addr:housenumber" v="23104"/><tag k="addr:postcode" v="78641"/></node><node id="-200" lat="30.583301" lon="-98.069981" changeset="false"><tag k="addr:street" v="Montana Springs Drive"/><tag k="addr:housenumber" v="12101"/><tag k="addr:postcode" v="78654"/></node><node id="-201" lat="30.573038" lon="-97.958497" changeset="false"><tag k="addr:street" v="Big Sandy Drive"/><tag k="addr:housenumber" v="23307"/><tag k="addr:postcode" v="78641"/></node><node id="-202" lat="30.569933" lon="-97.959705" changeset="false"><tag k="addr:street" v="Sunny Oak Lane"/><tag k="addr:housenumber" v="23206"/><tag k="addr:postcode" v="78641"/></node><node id="-203" lat="30.5697" lon="-97.960276" changeset="false"><tag k="addr:street" v="Sunny Oak Lane"/><tag k="addr:housenumber" v="23208"/><tag k="addr:postcode" v="78641"/></node><node id="-204" lat="30.56736" lon="-98.049274" changeset="false"><tag k="addr:street" v="Cow Creek Road"/><tag k="addr:housenumber" v="11638"/><tag k="addr:postcode" v="78654"/></node><node id="-205" lat="30.618269" lon="-97.946986" changeset="false"><tag k="addr:street" v="Bingham Creek Road"/><tag k="addr:housenumber" v="24300"/><tag k="addr:postcode" v="78641"/></node><node id="-206" lat="30.570409" lon="-97.955093" changeset="false"><tag k="addr:street" v="Big Sandy Drive"/><tag k="addr:housenumber" v="23011"/><tag k="addr:postcode" v="78641"/></node><node id="-207" lat="30.568202" lon="-97.95704" changeset="false"><tag k="addr:street" v="Sunny Oak Lane"/><tag k="addr:housenumber" v="23007"/><tag k="addr:postcode" v="78641"/></node><node id="-208" lat="30.586789" lon="-97.989498" changeset="false"><tag k="addr:street" v="River Fern Court"/><tag k="addr:housenumber" v="25504"/><tag k="addr:postcode" v="78641"/></node><node id="-209" lat="30.593601" lon="-97.966491" changeset="false"><tag k="addr:street" v="Anderson Trail"/><tag k="addr:housenumber" v="24505"/><tag k="addr:postcode" v="78641"/></node><node id="-210" lat="30.593426" lon="-97.965971" changeset="false"><tag k="addr:street" v="Anderson Trail"/><tag k="addr:housenumber" v="24501"/><tag k="addr:postcode" v="78641"/></node><node id="-211" lat="30.594482" lon="-97.987858" changeset="false"><tag k="addr:street" v="Bar K Ranch Road"/><tag k="addr:housenumber" v="25700"/><tag k="addr:postcode" v="78641"/></node><node id="-212" lat="30.588811" lon="-97.967768" changeset="false"><tag k="addr:street" v="Chaparral Drive"/><tag k="addr:housenumber" v="14712"/><tag k="addr:postcode" v="78641"/></node><node id="-213" lat="30.511757" lon="-97.964312" changeset="false"><tag k="addr:street" v="Tarantula Court"/><tag k="addr:housenumber" v="10513"/><tag k="addr:postcode" v="78641"/></node><node id="-214" lat="30.516818" lon="-97.960657" changeset="false"><tag k="addr:street" v="Creekside Drive"/><tag k="addr:housenumber" v="21408"/><tag k="addr:postcode" v="78641"/></node><node id="-215" lat="30.513883" lon="-97.961194" changeset="false"><tag k="addr:street" v="Creekside Drive"/><tag k="addr:housenumber" v="21435"/><tag k="addr:postcode" v="78641"/></node><node id="-216" lat="30.515167" lon="-97.96688" changeset="false"><tag k="addr:street" v="Quail Valley Court"/><tag k="addr:housenumber" v="21715"/><tag k="addr:postcode" v="78641"/></node><node id="-217" lat="30.51495" lon="-97.964097" changeset="false"><tag k="addr:street" v="Quail Valley Drive"/><tag k="addr:housenumber" v="10803"/><tag k="addr:postcode" v="78641"/></node><node id="-218" lat="30.515248" lon="-97.964936" changeset="false"><tag k="addr:street" v="Quail Valley Drive"/><tag k="addr:housenumber" v="10812"/><tag k="addr:postcode" v="78641"/></node><node id="-219" lat="30.516096" lon="-97.958261" changeset="false"><tag k="addr:street" v="Creekside Drive"/><tag k="addr:housenumber" v="21305"/><tag k="addr:postcode" v="78641"/></node><node id="-220" lat="30.592545" lon="-97.97336" changeset="false"><tag k="addr:street" v="Fawn Drive"/><tag k="addr:housenumber" v="24900"/><tag k="addr:postcode" v="78641"/></node><node id="-221" lat="30.58571" lon="-98.064224" changeset="false"><tag k="addr:street" v="Montana Springs Drive"/><tag k="addr:housenumber" v="12305"/><tag k="addr:postcode" v="78654"/></node><node id="-222" lat="30.507059" lon="-97.917258" changeset="false"><tag k="addr:street" v="White Rim Trail"/><tag k="addr:housenumber" v="18602"/><tag k="addr:postcode" v="78645"/></node><node id="-223" lat="30.507367" lon="-97.917933" changeset="false"><tag k="addr:street" v="White Rim Trail"/><tag k="addr:housenumber" v="18606"/><tag k="addr:postcode" v="78645"/></node><node id="-224" lat="30.513624" lon="-97.962333" changeset="false"><tag k="addr:street" v="Creekside Drive"/><tag k="addr:housenumber" v="21440"/><tag k="addr:postcode" v="78641"/></node><node id="-225" lat="30.513119" lon="-97.961437" changeset="false"><tag k="addr:street" v="Creekside Drive"/><tag k="addr:housenumber" v="21441"/><tag k="addr:postcode" v="78641"/></node><node id="-226" lat="30.508949" lon="-97.960962" changeset="false"><tag k="addr:street" v="Ridge Rim Drive"/><tag k="addr:housenumber" v="10505"/><tag k="addr:postcode" v="78641"/></node><node id="-227" lat="30.514855" lon="-97.958159" changeset="false"><tag k="addr:street" v="Cherry Hollow Court"/><tag k="addr:housenumber" v="21210"/><tag k="addr:postcode" v="78641"/></node><node id="-228" lat="30.515132" lon="-97.958901" changeset="false"><tag k="addr:street" v="Cherry Hollow Court"/><tag k="addr:housenumber" v="21304"/><tag k="addr:postcode" v="78641"/></node><node id="-229" lat="30.515999" lon="-97.960025" changeset="false"><tag k="addr:street" v="Creekside Drive"/><tag k="addr:housenumber" v="21409"/><tag k="addr:postcode" v="78641"/></node><node id="-230" lat="30.584728" lon="-98.068681" changeset="false"><tag k="addr:street" v="Montana Springs Drive"/><tag k="addr:housenumber" v="12108"/><tag k="addr:postcode" v="78654"/></node><node id="-231" lat="30.595713" lon="-97.975124" changeset="false"><tag k="addr:street" v="Shell Hill Cove"/><tag k="addr:housenumber" v="14909"/><tag k="addr:postcode" v="78641"/></node><node id="-232" lat="30.518097" lon="-97.952135" changeset="false"><tag k="addr:street" v="Cherry Hollow Crossing"/><tag k="addr:housenumber" v="11505"/><tag k="addr:postcode" v="78641"/></node><node id="-233" lat="30.515836" lon="-97.956197" changeset="false"><tag k="addr:street" v="Creekside Drive"/><tag k="addr:housenumber" v="21201"/><tag k="addr:postcode" v="78641"/></node><node id="-234" lat="30.517306" lon="-97.938287" changeset="false"><tag k="addr:street" v="Lindeman Lane"/><tag k="addr:housenumber" v="20212"/><tag k="addr:postcode" v="78641"/></node><node id="-235" lat="30.593489" lon="-97.972228" changeset="false"><tag k="addr:street" v="Rich Trail"/><tag k="addr:housenumber" v="14902"/><tag k="addr:postcode" v="78641"/></node><node id="-236" lat="30.52473" lon="-97.928436" changeset="false"><tag k="addr:street" v="Nameless Road"/><tag k="addr:housenumber" v="23436"/><tag k="addr:postcode" v="78641"/></node><node id="-237" lat="30.521321" lon="-97.963885" changeset="false"><tag k="addr:street" v="Highclimb Court"/><tag k="addr:housenumber" v="21704"/><tag k="addr:postcode" v="78641"/></node><node id="-238" lat="30.517925" lon="-97.934867" changeset="false"><tag k="addr:street" v="Lindeman Lane"/><tag k="addr:housenumber" v="20034"/><tag k="addr:postcode" v="78641"/></node><node id="-239" lat="30.516928" lon="-97.937199" changeset="false"><tag k="addr:street" v="Lindeman Lane"/><tag k="addr:housenumber" v="20120"/><tag k="addr:postcode" v="78641"/></node><node id="-240" lat="30.593792" lon="-97.982222" changeset="false"><tag k="addr:street" v="Rock Cliff Drive"/><tag k="addr:housenumber" v="14504"/><tag k="addr:postcode" v="78641"/></node><node id="-241" lat="30.584547" lon="-97.988691" changeset="false"><tag k="addr:street" v="Long Hollow Loop"/><tag k="addr:housenumber" v="13803"/><tag k="addr:postcode" v="78641"/></node><node id="-242" lat="30.583426" lon="-97.987477" changeset="false"><tag k="addr:street" v="Long Hollow Loop"/><tag k="addr:housenumber" v="13809"/><tag k="addr:postcode" v="78641"/></node><node id="-243" lat="30.527093" lon="-97.955558" changeset="false"><tag k="addr:street" v="Long Hill Drive"/><tag k="addr:housenumber" v="21519"/><tag k="addr:postcode" v="78641"/></node><node id="-244" lat="30.507544" lon="-97.932975" changeset="false"><tag k="addr:street" v="Mountain Top Circle"/><tag k="addr:housenumber" v="11365"/><tag k="addr:postcode" v="78641"/></node><node id="-245" lat="30.590696" lon="-98.064786" changeset="false"><tag k="addr:street" v="Cow Creek Road"/><tag k="addr:housenumber" v="12500"/><tag k="addr:postcode" v="78641"/></node><node id="-246" lat="30.581389" lon="-97.96994" changeset="false"><tag k="addr:street" v="Yaupon Trail"/><tag k="addr:housenumber" v="24205"/><tag k="addr:postcode" v="78641"/></node><node id="-247" lat="30.509502" lon="-97.96056" changeset="false"><tag k="addr:street" v="Ridge Rim Drive"/><tag k="addr:housenumber" v="10504"/><tag k="addr:postcode" v="78641"/></node><node id="-248" lat="30.512272" lon="-97.959394" changeset="false"><tag k="addr:street" v="Cherry Hollow Crossing"/><tag k="addr:housenumber" v="10708"/><tag k="addr:postcode" v="78641"/></node><node id="-249" lat="30.512503" lon="-97.956018" changeset="false"><tag k="addr:street" v="Ridge Crest Drive"/><tag k="addr:housenumber" v="21001"/><tag k="addr:postcode" v="78641"/></node><node id="-250" lat="30.588002" lon="-98.063051" changeset="false"><tag k="addr:street" v="Montana Springs Drive"/><tag k="addr:housenumber" v="12409"/><tag k="addr:postcode" v="78641"/></node><node id="-251" lat="30.535875" lon="-97.940201" changeset="false"><tag k="addr:street" v="Nameless Road"/><tag k="addr:housenumber" v="23224"/><tag k="addr:postcode" v="78641"/></node><node id="-252" lat="30.521067" lon="-97.959651" changeset="false"><tag k="addr:street" v="Cherry Hollow Drive"/><tag k="addr:housenumber" v="21510"/><tag k="addr:postcode" v="78641"/></node><node id="-253" lat="30.520252" lon="-97.959471" changeset="false"><tag k="addr:street" v="Cherry Hollow Drive"/><tag k="addr:housenumber" v="21514"/><tag k="addr:postcode" v="78641"/></node><node id="-254" lat="30.587839" lon="-98.066912" changeset="false"><tag k="addr:street" v="Montana Ridge Pass"/><tag k="addr:housenumber" v="29706"/><tag k="addr:postcode" v="78654"/></node><node id="-255" lat="30.594758" lon="-97.969002" changeset="false"><tag k="addr:street" v="Anderson Trail"/><tag k="addr:housenumber" v="24701"/><tag k="addr:postcode" v="78641"/></node><node id="-256" lat="30.615753" lon="-97.956467" changeset="false"><tag k="addr:street" v="Bingham Creek Road"/><tag k="addr:housenumber" v="24620"/><tag k="addr:postcode" v="78641"/></node><node id="-257" lat="30.595243" lon="-97.988725" changeset="false"><tag k="addr:street" v="Bar K Ranch Road"/><tag k="addr:housenumber" v="25708"/><tag k="addr:postcode" v="78641"/></node><node id="-258" lat="30.587745" lon="-97.967836" changeset="false"><tag k="addr:street" v="Chaparral Drive"/><tag k="addr:housenumber" v="14700"/><tag k="addr:postcode" v="78641"/></node><node id="-259" lat="30.571306" lon="-97.956681" changeset="false"><tag k="addr:street" v="Big Sandy Drive"/><tag k="addr:housenumber" v="23109"/><tag k="addr:postcode" v="78641"/></node><node id="-260" lat="30.536205" lon="-97.94037" changeset="false"><tag k="addr:street" v="Nameless Road"/><tag k="addr:housenumber" v="23216"/><tag k="addr:postcode" v="78641"/></node><node id="-261" lat="30.572832" lon="-98.052949" changeset="false"><tag k="addr:street" v="Cow Creek Road"/><tag k="addr:housenumber" v="11807"/><tag k="addr:postcode" v="78654"/></node><node id="-262" lat="30.57144" lon="-97.957585" changeset="false"><tag k="addr:street" v="Big Sandy Drive"/><tag k="addr:housenumber" v="23205"/><tag k="addr:postcode" v="78641"/></node><node id="-263" lat="30.517162" lon="-97.945326" changeset="false"><tag k="addr:street" v="Lindeman Lane"/><tag k="addr:housenumber" v="20602"/><tag k="addr:postcode" v="78641"/></node><node id="-264" lat="30.577444" lon="-98.059193" changeset="false"><tag k="addr:street" v="Cow Creek Road"/><tag k="addr:housenumber" v="11935"/><tag k="addr:postcode" v="78654"/></node><node id="-265" lat="30.541452" lon="-97.939258" changeset="false"><tag k="addr:street" v="Nameless Road"/><tag k="addr:housenumber" v="23114"/><tag k="addr:postcode" v="78641"/></node><node id="-266" lat="30.508905" lon="-97.926085" changeset="false"><tag k="addr:street" v="White Rim Terrace"/><tag k="addr:housenumber" v="11604"/><tag k="addr:postcode" v="78641"/></node><node id="-267" lat="30.614228" lon="-97.951906" changeset="false"><tag k="addr:street" v="Bingham Creek Road"/><tag k="addr:housenumber" v="24432"/><tag k="addr:postcode" v="78641"/></node><node id="-268" lat="30.580511" lon="-97.967238" changeset="false"><tag k="addr:street" v="Yaupon Trail"/><tag k="addr:housenumber" v="24101"/><tag k="addr:postcode" v="78641"/></node><node id="-269" lat="30.617383" lon="-97.961774" changeset="false"><tag k="addr:street" v="Bingham Creek Road"/><tag k="addr:housenumber" v="25008"/><tag k="addr:postcode" v="78641"/></node><node id="-270" lat="30.581324" lon="-97.967273" changeset="false"><tag k="addr:street" v="Juniper Trail"/><tag k="addr:housenumber" v="14305"/><tag k="addr:postcode" v="78641"/></node><node id="-271" lat="30.566591" lon="-97.958886" changeset="false"><tag k="addr:street" v="Spanish Oak Trail"/><tag k="addr:housenumber" v="23100"/><tag k="addr:postcode" v="78641"/></node><node id="-272" lat="30.594796" lon="-97.965407" changeset="false"><tag k="addr:street" v="Chaparral Drive"/><tag k="addr:housenumber" v="15200"/><tag k="addr:postcode" v="78641"/></node><node id="-273" lat="30.584609" lon="-97.977464" changeset="false"><tag k="addr:street" v="Greenwillow Drive"/><tag k="addr:housenumber" v="14200"/><tag k="addr:postcode" v="78641"/></node><node id="-274" lat="30.514618" lon="-97.963193" changeset="false"><tag k="addr:street" v="Quail Valley Cove"/><tag k="addr:housenumber" v="21502"/><tag k="addr:postcode" v="78641"/></node><node id="-275" lat="30.515983" lon="-97.963521" changeset="false"><tag k="addr:street" v="Quail Valley Court"/><tag k="addr:housenumber" v="21604"/><tag k="addr:postcode" v="78641"/></node><node id="-276" lat="30.514095" lon="-97.95949" changeset="false"><tag k="addr:street" v="Cherry Hollow Court"/><tag k="addr:housenumber" v="21305"/><tag k="addr:postcode" v="78641"/></node><node id="-277" lat="30.515502" lon="-97.961009" changeset="false"><tag k="addr:street" v="Creekside Drive"/><tag k="addr:housenumber" v="21421"/><tag k="addr:postcode" v="78641"/></node><node id="-278" lat="30.584669" lon="-98.07034" changeset="false"><tag k="addr:street" v="Montana Springs Drive"/><tag k="addr:housenumber" v="12100"/><tag k="addr:postcode" v="78654"/></node><node id="-279" lat="30.515148" lon="-97.955756" changeset="false"><tag k="addr:street" v="Cherry Hollow Crossing"/><tag k="addr:housenumber" v="11202"/><tag k="addr:postcode" v="78641"/></node><node id="-280" lat="30.585533" lon="-98.066419" changeset="false"><tag k="addr:street" v="Montana Springs Drive"/><tag k="addr:housenumber" v="12208"/><tag k="addr:postcode" v="78654"/></node><node id="-281" lat="30.518396" lon="-97.952663" changeset="false"><tag k="addr:street" v="Cherry Hollow Crossing"/><tag k="addr:housenumber" v="11504"/><tag k="addr:postcode" v="78641"/></node><node id="-282" lat="30.514005" lon="-97.957513" changeset="false"><tag k="addr:street" v="Cherry Hollow Court"/><tag k="addr:housenumber" v="21202"/><tag k="addr:postcode" v="78641"/></node><node id="-283" lat="30.51613" lon="-97.95783" changeset="false"><tag k="addr:street" v="Creekside Drive"/><tag k="addr:housenumber" v="21301"/><tag k="addr:postcode" v="78641"/></node><node id="-284" lat="30.511398" lon="-97.964825" changeset="false"><tag k="addr:street" v="Tarantula Court"/><tag k="addr:housenumber" v="10509"/><tag k="addr:postcode" v="78641"/></node><node id="-285" lat="30.514188" lon="-97.955136" changeset="false"><tag k="addr:street" v="Cherry Hollow Crossing"/><tag k="addr:housenumber" v="11109"/><tag k="addr:postcode" v="78641"/></node><node id="-286" lat="30.52709" lon="-97.963965" changeset="false"><tag k="addr:street" v="Lindeman Loop"/><tag k="addr:housenumber" v="11609"/><tag k="addr:postcode" v="78641"/></node><node id="-287" lat="30.582492" lon="-97.982146" changeset="false"><tag k="addr:street" v="Long Hollow Loop"/><tag k="addr:housenumber" v="13907"/><tag k="addr:postcode" v="78641"/></node><node id="-288" lat="30.583636" lon="-97.981267" changeset="false"><tag k="addr:street" v="Long Hollow Loop"/><tag k="addr:housenumber" v="13919"/><tag k="addr:postcode" v="78641"/></node><node id="-289" lat="30.511684" lon="-97.913388" changeset="false"><tag k="addr:street" v="Nameless Road"/><tag k="addr:housenumber" v="23736"/><tag k="addr:postcode" v="78641"/></node><node id="-290" lat="30.513326" lon="-97.957051" changeset="false"><tag k="addr:street" v="Ridge Crest Drive"/><tag k="addr:housenumber" v="21101"/><tag k="addr:postcode" v="78641"/></node><node id="-291" lat="30.512385" lon="-97.961991" changeset="false"><tag k="addr:street" v="Creekside Drive"/><tag k="addr:housenumber" v="21449"/><tag k="addr:postcode" v="78641"/></node><node id="-292" lat="30.508992" lon="-97.958884" changeset="false"><tag k="addr:street" v="Ridge Rim Drive"/><tag k="addr:housenumber" v="10525"/><tag k="addr:postcode" v="78641"/></node><node id="-293" lat="30.511513" lon="-97.960299" changeset="false"><tag k="addr:street" v="Cherry Hollow Crossing"/><tag k="addr:housenumber" v="10700"/><tag k="addr:postcode" v="78641"/></node><node id="-294" lat="30.510266" lon="-97.962048" changeset="false"><tag k="addr:street" v="Quail Valley Drive"/><tag k="addr:housenumber" v="10604"/><tag k="addr:postcode" v="78641"/></node><node id="-295" lat="30.512608" lon="-97.961575" changeset="false"><tag k="addr:street" v="Creekside Drive"/><tag k="addr:housenumber" v="21447"/><tag k="addr:postcode" v="78641"/></node><node id="-296" lat="30.594491" lon="-97.974508" changeset="false"><tag k="addr:street" v="Fawn Drive"/><tag k="addr:housenumber" v="25000"/><tag k="addr:postcode" v="78641"/></node><node id="-297" lat="30.505518" lon="-97.922071" changeset="false"><tag k="addr:street" v="White Rim Trail"/><tag k="addr:housenumber" v="18901"/><tag k="addr:postcode" v="78645"/></node><node id="-298" lat="30.597259" lon="-97.98515" changeset="false"><tag k="addr:street" v="Rock Cliff Cove"/><tag k="addr:housenumber" v="14703"/><tag k="addr:postcode" v="78641"/></node><node id="-299" lat="30.513546" lon="-97.956269" changeset="false"><tag k="addr:street" v="Ridge Crest Drive"/><tag k="addr:housenumber" v="21100"/><tag k="addr:postcode" v="78641"/></node><node id="-300" lat="30.58883" lon="-98.063179" changeset="false"><tag k="addr:street" v="Montana Springs Drive"/><tag k="addr:housenumber" v="12408"/><tag k="addr:postcode" v="78641"/></node><node id="-301" lat="30.593075" lon="-97.982946" changeset="false"><tag k="addr:street" v="Bar K Ranch Road"/><tag k="addr:housenumber" v="25404"/><tag k="addr:postcode" v="78641"/></node><node id="-302" lat="30.59423" lon="-97.982157" changeset="false"><tag k="addr:street" v="Rock Cliff Drive"/><tag k="addr:housenumber" v="14600"/><tag k="addr:postcode" v="78641"/></node><node id="-303" lat="30.516091" lon="-97.949059" changeset="false"><tag k="addr:street" v="Lindeman Lane"/><tag k="addr:housenumber" v="20817"/><tag k="addr:postcode" v="78641"/></node><node id="-304" lat="30.517984" lon="-97.961827" changeset="false"><tag k="addr:street" v="Cherry Hollow Drive"/><tag k="addr:housenumber" v="21603"/><tag k="addr:postcode" v="78641"/></node><node id="-305" lat="30.593533" lon="-97.98627" changeset="false"><tag k="addr:street" v="Bar K Ranch Road"/><tag k="addr:housenumber" v="25600"/><tag k="addr:postcode" v="78641"/></node><node id="-306" lat="30.527613" lon="-97.961566" changeset="false"><tag k="addr:street" v="Lindeman Loop"/><tag k="addr:housenumber" v="11720"/><tag k="addr:postcode" v="78641"/></node><node id="-307" lat="30.525882" lon="-97.963018" changeset="false"><tag k="addr:street" v="Ranch House Cove"/><tag k="addr:housenumber" v="11603"/><tag k="addr:postcode" v="78641"/></node><node id="-308" lat="30.52514" lon="-97.963603" changeset="false"><tag k="addr:street" v="Ranch House Cove"/><tag k="addr:housenumber" v="11602"/><tag k="addr:postcode" v="78641"/></node><node id="-309" lat="30.524096" lon="-97.965547" changeset="false"><tag k="addr:street" v="Cold Spring Drive"/><tag k="addr:housenumber" v="21907"/><tag k="addr:postcode" v="78641"/></node><node id="-310" lat="30.590967" lon="-97.971418" changeset="false"><tag k="addr:street" v="Fawn Drive"/><tag k="addr:housenumber" v="24708"/><tag k="addr:postcode" v="78641"/></node><node id="-311" lat="30.518945" lon="-97.964162" changeset="false"><tag k="addr:street" v="Cherry Hollow Drive"/><tag k="addr:housenumber" v="21702"/><tag k="addr:postcode" v="78641"/></node><node id="-312" lat="30.525793" lon="-97.967614" changeset="false"><tag k="addr:street" v="Lindeman Loop"/><tag k="addr:housenumber" v="11622"/><tag k="addr:postcode" v="78641"/></node><node id="-313" lat="30.517753" lon="-97.962638" changeset="false"><tag k="addr:street" v="Cherry Hollow Drive"/><tag k="addr:housenumber" v="21605"/><tag k="addr:postcode" v="78641"/></node><node id="-314" lat="30.579681" lon="-97.965878" changeset="false"><tag k="addr:street" v="Yaupon Trail"/><tag k="addr:housenumber" v="24001"/><tag k="addr:postcode" v="78641"/></node><node id="-315" lat="30.520287" lon="-97.954756" changeset="false"><tag k="addr:street" v="Lindeman Lane"/><tag k="addr:housenumber" v="21300"/><tag k="addr:postcode" v="78641"/></node><node id="-316" lat="30.599604" lon="-97.993897" changeset="false"><tag k="addr:street" v="Bar K Ranch Road"/><tag k="addr:housenumber" v="26220"/><tag k="addr:postcode" v="78641"/></node><node id="-317" lat="30.515528" lon="-97.91909" changeset="false"><tag k="addr:street" v="Nameless Road"/><tag k="addr:housenumber" v="23628"/><tag k="addr:postcode" v="78641"/></node><node id="-318" lat="30.51988" lon="-97.959357" changeset="false"><tag k="addr:street" v="Cherry Hollow Drive"/><tag k="addr:housenumber" v="21516"/><tag k="addr:postcode" v="78641"/></node><node id="-319" lat="30.581416" lon="-98.063002" changeset="false"><tag k="addr:street" v="Cow Creek Road"/><tag k="addr:housenumber" v="12120"/><tag k="addr:postcode" v="78654"/></node><node id="-320" lat="30.516103" lon="-97.958687" changeset="false"><tag k="addr:street" v="Creekside Drive"/><tag k="addr:housenumber" v="21309"/><tag k="addr:postcode" v="78641"/></node><node id="-321" lat="30.514466" lon="-97.957576" changeset="false"><tag k="addr:street" v="Cherry Hollow Court"/><tag k="addr:housenumber" v="21206"/><tag k="addr:postcode" v="78641"/></node><node id="-322" lat="30.514622" lon="-97.957885" changeset="false"><tag k="addr:street" v="Cherry Hollow Court"/><tag k="addr:housenumber" v="21208"/><tag k="addr:postcode" v="78641"/></node><node id="-323" lat="30.516198" lon="-97.957446" changeset="false"><tag k="addr:street" v="Creekside Drive"/><tag k="addr:housenumber" v="21213"/><tag k="addr:postcode" v="78641"/></node><node id="-324" lat="30.517113" lon="-97.95874" changeset="false"><tag k="addr:street" v="Creekside Drive"/><tag k="addr:housenumber" v="21304"/><tag k="addr:postcode" v="78641"/></node><node id="-325" lat="30.516955" lon="-97.959253" changeset="false"><tag k="addr:street" v="Creekside Drive"/><tag k="addr:housenumber" v="21308"/><tag k="addr:postcode" v="78641"/></node><node id="-326" lat="30.516126" lon="-97.959226" changeset="false"><tag k="addr:street" v="Creekside Drive"/><tag k="addr:housenumber" v="21401"/><tag k="addr:postcode" v="78641"/></node><node id="-327" lat="30.515753" lon="-97.961924" changeset="false"><tag k="addr:street" v="Creekside Drive"/><tag k="addr:housenumber" v="21420"/><tag k="addr:postcode" v="78641"/></node><node id="-328" lat="30.515254" lon="-97.962034" changeset="false"><tag k="addr:street" v="Creekside Drive"/><tag k="addr:housenumber" v="21424"/><tag k="addr:postcode" v="78641"/></node><node id="-329" lat="30.516483" lon="-97.95354" changeset="false"><tag k="addr:street" v="Cherry Hollow Crossing"/><tag k="addr:housenumber" v="11401"/><tag k="addr:postcode" v="78641"/></node><node id="-330" lat="30.517173" lon="-97.956409" changeset="false"><tag k="addr:street" v="Creekside Drive"/><tag k="addr:housenumber" v="21206"/><tag k="addr:postcode" v="78641"/></node><node id="-331" lat="30.512378" lon="-97.965748" changeset="false"><tag k="addr:street" v="Tarantula Court"/><tag k="addr:housenumber" v="10506"/><tag k="addr:postcode" v="78641"/></node><node id="-332" lat="30.514803" lon="-97.954699" changeset="false"><tag k="addr:street" v="Cherry Hollow Crossing"/><tag k="addr:housenumber" v="11205"/><tag k="addr:postcode" v="78641"/></node><node id="-333" lat="30.515397" lon="-97.954312" changeset="false"><tag k="addr:street" v="Cherry Hollow Crossing"/><tag k="addr:housenumber" v="11213"/><tag k="addr:postcode" v="78641"/></node><node id="-334" lat="30.511924" lon="-97.957902" changeset="false"><tag k="addr:street" v="Cherry Hollow Crossing"/><tag k="addr:housenumber" v="10805"/><tag k="addr:postcode" v="78641"/></node><node id="-335" lat="30.587854" lon="-98.064133" changeset="false"><tag k="addr:street" v="Montana Ridge Pass"/><tag k="addr:housenumber" v="29600"/><tag k="addr:postcode" v="78654"/></node><node id="-336" lat="30.522725" lon="-97.96162" changeset="false"><tag k="addr:street" v="Cold Spring Drive"/><tag k="addr:housenumber" v="21611"/><tag k="addr:postcode" v="78641"/></node><node id="-337" lat="30.523087" lon="-97.954178" changeset="false"><tag k="addr:street" v="Lonesome Cove"/><tag k="addr:housenumber" v="11701"/><tag k="addr:postcode" v="78641"/></node><node id="-338" lat="30.528273" lon="-97.961959" changeset="false"><tag k="addr:street" v="Lindeman Loop"/><tag k="addr:housenumber" v="11718"/><tag k="addr:postcode" v="78641"/></node><node id="-339" lat="30.597644" lon="-97.965302" changeset="false"><tag k="addr:street" v="Chaparral Drive"/><tag k="addr:housenumber" v="15400"/><tag k="addr:postcode" v="78641"/></node><node id="-340" lat="30.590755" lon="-97.967707" changeset="false"><tag k="addr:street" v="Chaparral Drive"/><tag k="addr:housenumber" v="14810"/><tag k="addr:postcode" v="78641"/></node><node id="-341" lat="30.586239" lon="-97.992192" changeset="false"><tag k="addr:street" v="River Fern Court"/><tag k="addr:housenumber" v="25613"/><tag k="addr:postcode" v="78641"/></node><node id="-342" lat="30.613557" lon="-97.950885" changeset="false"><tag k="addr:street" v="Bingham Creek Road"/><tag k="addr:housenumber" v="24416"/><tag k="addr:postcode" v="78641"/></node><node id="-343" lat="30.570485" lon="-97.955346" changeset="false"><tag k="addr:street" v="Big Sandy Drive"/><tag k="addr:housenumber" v="23013"/><tag k="addr:postcode" v="78641"/></node><node id="-344" lat="30.507398" lon="-97.918418" changeset="false"><tag k="addr:street" v="White Rim Trail"/><tag k="addr:housenumber" v="18608"/><tag k="addr:postcode" v="78645"/></node><node id="-345" lat="30.527998" lon="-97.965296" changeset="false"><tag k="addr:street" v="Lindeman Loop"/><tag k="addr:housenumber" v="11703"/><tag k="addr:postcode" v="78641"/></node><node id="-346" lat="30.527923" lon="-97.963268" changeset="false"><tag k="addr:street" v="Lindeman Loop"/><tag k="addr:housenumber" v="11711"/><tag k="addr:postcode" v="78641"/></node><node id="-347" lat="30.509558" lon="-97.961941" changeset="false"><tag k="addr:street" v="Cherry Hollow Crossing"/><tag k="addr:housenumber" v="10502"/><tag k="addr:postcode" v="78641"/></node><node id="-348" lat="30.510202" lon="-97.960502" changeset="false"><tag k="addr:street" v="Cherry Hollow Crossing"/><tag k="addr:housenumber" v="10601"/><tag k="addr:postcode" v="78641"/></node><node id="-349" lat="30.600278" lon="-97.982686" changeset="false"><tag k="addr:street" v="Fawn Drive"/><tag k="addr:housenumber" v="25700"/><tag k="addr:postcode" v="78641"/></node><node id="-350" lat="30.593001" lon="-97.973861" changeset="false"><tag k="addr:street" v="Fawn Drive"/><tag k="addr:housenumber" v="24906"/><tag k="addr:postcode" v="78641"/></node><node id="-351" lat="30.519589" lon="-97.958694" changeset="false"><tag k="addr:street" v="Cherry Hollow Drive"/><tag k="addr:housenumber" v="21513"/><tag k="addr:postcode" v="78641"/></node><node id="-352" lat="30.580351" lon="-97.965979" changeset="false"><tag k="addr:street" v="Yaupon Trail"/><tag k="addr:housenumber" v="24008"/><tag k="addr:postcode" v="78641"/></node><node id="-353" lat="30.566767" lon="-97.960423" changeset="false"><tag k="addr:street" v="Spanish Oak Trail"/><tag k="addr:housenumber" v="23200"/><tag k="addr:postcode" v="78641"/></node><node id="-354" lat="30.567121" lon="-97.961622" changeset="false"><tag k="addr:street" v="Spanish Oak Trail"/><tag k="addr:housenumber" v="23209"/><tag k="addr:postcode" v="78641"/></node><node id="-355" lat="30.559701" lon="-97.954423" changeset="false"><tag k="addr:street" v="Sunset Hollow"/><tag k="addr:housenumber" v="22505"/><tag k="addr:postcode" v="78641"/></node><node id="-356" lat="30.590589" lon="-97.954378" changeset="false"><tag k="addr:street" v="Faubion Trail"/><tag k="addr:housenumber" v="15214"/><tag k="addr:postcode" v="78641"/></node><node id="-357" lat="30.596802" lon="-97.97601" changeset="false"><tag k="addr:street" v="Shell Hill Cove"/><tag k="addr:housenumber" v="14900"/><tag k="addr:postcode" v="78641"/></node><node id="-358" lat="30.599662" lon="-97.982206" changeset="false"><tag k="addr:street" v="Fawn Drive"/><tag k="addr:housenumber" v="25600"/><tag k="addr:postcode" v="78641"/></node><node id="-359" lat="30.598733" lon="-97.98507" changeset="false"><tag k="addr:street" v="Rock Cliff Drive"/><tag k="addr:housenumber" v="14800"/><tag k="addr:postcode" v="78641"/></node><node id="-360" lat="30.586275" lon="-98.065607" changeset="false"><tag k="addr:street" v="Montana Springs Drive"/><tag k="addr:housenumber" v="12300"/><tag k="addr:postcode" v="78654"/></node><node id="-361" lat="30.595804" lon="-97.986592" changeset="false"><tag k="addr:street" v="Rock Cliff Cove"/><tag k="addr:housenumber" v="14603"/><tag k="addr:postcode" v="78641"/></node><node id="-362" lat="30.596687" lon="-97.984074" changeset="false"><tag k="addr:street" v="Rock Cliff Drive"/><tag k="addr:housenumber" v="14710"/><tag k="addr:postcode" v="78641"/></node><node id="-363" lat="30.511135" lon="-97.963089" changeset="false"><tag k="addr:street" v="Quail Valley Drive"/><tag k="addr:housenumber" v="10612"/><tag k="addr:postcode" v="78641"/></node><node id="-364" lat="30.614028" lon="-97.963542" changeset="false"><tag k="addr:street" v="Bingham Creek Road"/><tag k="addr:housenumber" v="25063"/><tag k="addr:postcode" v="78641"/></node><node id="-365" lat="30.522235" lon="-97.95562" changeset="false"><tag k="addr:street" v="Lindeman Lane"/><tag k="addr:housenumber" v="21312"/><tag k="addr:postcode" v="78641"/></node><node id="-366" lat="30.570696" lon="-97.954582" changeset="false"><tag k="addr:street" v="Big Sandy Drive"/><tag k="addr:housenumber" v="23009"/><tag k="addr:postcode" v="78641"/></node><node id="-367" lat="30.558797" lon="-97.952552" changeset="false"><tag k="addr:street" v="Sunset Hollow"/><tag k="addr:housenumber" v="22400"/><tag k="addr:postcode" v="78641"/></node><node id="-368" lat="30.58237" lon="-97.984624" changeset="false"><tag k="addr:street" v="Long Hollow Loop"/><tag k="addr:housenumber" v="13829"/><tag k="addr:postcode" v="78641"/></node><node id="-369" lat="30.582154" lon="-97.983672" changeset="false"><tag k="addr:street" v="Long Hollow Loop"/><tag k="addr:housenumber" v="13835"/><tag k="addr:postcode" v="78641"/></node><node id="-370" lat="30.518226" lon="-97.950977" changeset="false"><tag k="addr:street" v="Lindeman Lane"/><tag k="addr:housenumber" v="21001"/><tag k="addr:postcode" v="78641"/></node><node id="-371" lat="30.584502" lon="-98.065985" changeset="false"><tag k="addr:street" v="Montana Springs Drive"/><tag k="addr:housenumber" v="12209"/><tag k="addr:postcode" v="78654"/></node><node id="-372" lat="30.6185" lon="-97.944553" changeset="false"><tag k="addr:street" v="Bingham Creek Road"/><tag k="addr:housenumber" v="24200"/><tag k="addr:postcode" v="78641"/></node><node id="-373" lat="30.594241" lon="-97.970822" changeset="false"><tag k="addr:street" v="Rich Trail"/><tag k="addr:housenumber" v="15000"/><tag k="addr:postcode" v="78641"/></node><node id="-374" lat="30.588057" lon="-98.064914" changeset="false"><tag k="addr:street" v="Montana Ridge Pass"/><tag k="addr:housenumber" v="29606"/><tag k="addr:postcode" v="78654"/></node><node id="-375" lat="30.523633" lon="-97.957449" changeset="false"><tag k="addr:street" v="Lindeman Lane"/><tag k="addr:housenumber" v="21500"/><tag k="addr:postcode" v="78641"/></node><node id="-376" lat="30.621758" lon="-97.977307" changeset="false"><tag k="addr:street" v="Pickett Lane"/><tag k="addr:housenumber" v="324"/><tag k="addr:postcode" v="78641"/></node><node id="-377" lat="30.615739" lon="-97.955105" changeset="false"><tag k="addr:street" v="Bingham Creek Road"/><tag k="addr:housenumber" v="24610"/><tag k="addr:postcode" v="78641"/></node><node id="-378" lat="30.569025" lon="-97.958726" changeset="false"><tag k="addr:street" v="Sunny Oak Lane"/><tag k="addr:housenumber" v="23200"/><tag k="addr:postcode" v="78641"/></node><node id="-379" lat="30.566147" lon="-97.958064" changeset="false"><tag k="addr:street" v="Spanish Oak Trail"/><tag k="addr:housenumber" v="23008"/><tag k="addr:postcode" v="78641"/></node><node id="-380" lat="30.565759" lon="-97.9566" changeset="false"><tag k="addr:street" v="Spanish Oak Trail"/><tag k="addr:housenumber" v="23000"/><tag k="addr:postcode" v="78641"/></node><node id="-381" lat="30.589665" lon="-97.970017" changeset="false"><tag k="addr:street" v="Quail Court"/><tag k="addr:housenumber" v="14703"/><tag k="addr:postcode" v="78641"/></node><node id="-382" lat="30.524011" lon="-97.956832" changeset="false"><tag k="addr:street" v="Long Hill Drive"/><tag k="addr:housenumber" v="21503"/><tag k="addr:postcode" v="78641"/></node><node id="-383" lat="30.525596" lon="-97.96098" changeset="false"><tag k="addr:street" v="Lindeman Lane"/><tag k="addr:housenumber" v="21709"/><tag k="addr:postcode" v="78641"/></node><node id="-384" lat="30.582616" lon="-97.972389" changeset="false"><tag k="addr:street" v="Cottonwood Drive"/><tag k="addr:housenumber" v="24417"/><tag k="addr:postcode" v="78641"/></node><node id="-385" lat="30.580275" lon="-97.966785" changeset="false"><tag k="addr:street" v="Yaupon Trail"/><tag k="addr:housenumber" v="24011"/><tag k="addr:postcode" v="78641"/></node><node id="-386" lat="30.599366" lon="-97.994455" changeset="false"><tag k="addr:street" v="Bar K Ranch Road"/><tag k="addr:housenumber" v="26219"/><tag k="addr:postcode" v="78641"/></node><node id="-387" lat="30.532994" lon="-97.941128" changeset="false"><tag k="addr:street" v="Nameless Road"/><tag k="addr:housenumber" v="23244"/><tag k="addr:postcode" v="78641"/></node><node id="-388" lat="30.52123" lon="-97.961427" changeset="false"><tag k="addr:street" v="Highclimb Court"/><tag k="addr:housenumber" v="21612"/><tag k="addr:postcode" v="78641"/></node><node id="-389" lat="30.595309" lon="-97.989182" changeset="false"><tag k="addr:street" v="Bar K Ranch Road"/><tag k="addr:housenumber" v="25802"/><tag k="addr:postcode" v="78641"/></node><node id="-390" lat="30.595887" lon="-97.987211" changeset="false"><tag k="addr:street" v="Rock Cliff Cove"/><tag k="addr:housenumber" v="14601"/><tag k="addr:postcode" v="78641"/></node><node id="-391" lat="30.521781" lon="-97.960057" changeset="false"><tag k="addr:street" v="Cold Spring Drive"/><tag k="addr:housenumber" v="21601"/><tag k="addr:postcode" v="78641"/></node><node id="-392" lat="30.595869" lon="-97.975909" changeset="false"><tag k="addr:street" v="Shell Hill Cove"/><tag k="addr:housenumber" v="14905"/><tag k="addr:postcode" v="78641"/></node><node id="-393" lat="30.523859" lon="-97.955285" changeset="false"><tag k="addr:street" v="Lonesome Cove"/><tag k="addr:housenumber" v="11706"/><tag k="addr:postcode" v="78641"/></node><node id="-394" lat="30.525401" lon="-97.963884" changeset="false"><tag k="addr:street" v="Ranch House Cove"/><tag k="addr:housenumber" v="11604"/><tag k="addr:postcode" v="78641"/></node><node id="-395" lat="30.522721" lon="-97.95955" changeset="false"><tag k="addr:street" v="Cold Spring Drive"/><tag k="addr:housenumber" v="21600"/><tag k="addr:postcode" v="78641"/></node><node id="-396" lat="30.525399" lon="-97.959789" changeset="false"><tag k="addr:street" v="Lindeman Lane"/><tag k="addr:housenumber" v="21700"/><tag k="addr:postcode" v="78641"/></node><node id="-397" lat="30.516018" lon="-97.964498" changeset="false"><tag k="addr:street" v="Quail Valley Court"/><tag k="addr:housenumber" v="21700"/><tag k="addr:postcode" v="78641"/></node><node id="-398" lat="30.529184" lon="-97.965138" changeset="false"><tag k="addr:street" v="Lindeman Loop"/><tag k="addr:housenumber" v="11702"/><tag k="addr:postcode" v="78641"/></node><node id="-399" lat="30.516129" lon="-97.958925" changeset="false"><tag k="addr:street" v="Creekside Drive"/><tag k="addr:housenumber" v="21311"/><tag k="addr:postcode" v="78641"/></node><node id="-400" lat="30.516766" lon="-97.960937" changeset="false"><tag k="addr:street" v="Creekside Drive"/><tag k="addr:housenumber" v="21410"/><tag k="addr:postcode" v="78641"/></node><node id="-401" lat="30.515933" lon="-97.960482" changeset="false"><tag k="addr:street" v="Creekside Drive"/><tag k="addr:housenumber" v="21413"/><tag k="addr:postcode" v="78641"/></node><node id="-402" lat="30.516374" lon="-97.961699" changeset="false"><tag k="addr:street" v="Creekside Drive"/><tag k="addr:housenumber" v="21416"/><tag k="addr:postcode" v="78641"/></node><node id="-403" lat="30.511921" lon="-97.962029" changeset="false"><tag k="addr:street" v="Quail Valley Drive"/><tag k="addr:housenumber" v="10613"/><tag k="addr:postcode" v="78641"/></node><node id="-404" lat="30.597189" lon="-97.986022" changeset="false"><tag k="addr:street" v="Rock Cliff Cove"/><tag k="addr:housenumber" v="14606"/><tag k="addr:postcode" v="78641"/></node><node id="-405" lat="30.584563" lon="-98.071024" changeset="false"><tag k="addr:street" v="Montana Springs Drive"/><tag k="addr:housenumber" v="12006"/><tag k="addr:postcode" v="78654"/></node><node id="-406" lat="30.582192" lon="-97.983156" changeset="false"><tag k="addr:street" v="Long Hollow Loop"/><tag k="addr:housenumber" v="13901"/><tag k="addr:postcode" v="78641"/></node><node id="-407" lat="30.51616" lon="-97.956968" changeset="false"><tag k="addr:street" v="Creekside Drive"/><tag k="addr:housenumber" v="21209"/><tag k="addr:postcode" v="78641"/></node><node id="-408" lat="30.506452" lon="-97.92307" changeset="false"><tag k="addr:street" v="White Rim Trail"/><tag k="addr:housenumber" v="18904"/><tag k="addr:postcode" v="78645"/></node><node id="-409" lat="30.516061" lon="-97.953997" changeset="false"><tag k="addr:street" v="Cherry Hollow Crossing"/><tag k="addr:housenumber" v="11305"/><tag k="addr:postcode" v="78641"/></node><node id="-410" lat="30.51224" lon="-97.91422" changeset="false"><tag k="addr:street" v="Nameless Road"/><tag k="addr:housenumber" v="23700"/><tag k="addr:postcode" v="78641"/></node><node id="-411" lat="30.510183" lon="-97.958372" changeset="false"><tag k="addr:street" v="Ridge Rim Drive"/><tag k="addr:housenumber" v="10603"/><tag k="addr:postcode" v="78641"/></node><node id="-412" lat="30.513057" lon="-97.960199" changeset="false"><tag k="addr:street" v="Cherry Hollow 1 Cove"/><tag k="addr:housenumber" v="21208"/><tag k="addr:postcode" v="78641"/></node><node id="-413" lat="30.513774" lon="-97.956497" changeset="false"><tag k="addr:street" v="Ridge Crest Drive"/><tag k="addr:housenumber" v="21102"/><tag k="addr:postcode" v="78641"/></node><node id="-414" lat="30.512762" lon="-97.956415" changeset="false"><tag k="addr:street" v="Ridge Crest Drive"/><tag k="addr:housenumber" v="21009"/><tag k="addr:postcode" v="78641"/></node><node id="-415" lat="30.587312" lon="-98.063431" changeset="false"><tag k="addr:street" v="Montana Springs Drive"/><tag k="addr:housenumber" v="12405"/><tag k="addr:postcode" v="78654"/></node><node id="-416" lat="30.522552" lon="-97.96124" changeset="false"><tag k="addr:street" v="Cold Spring Drive"/><tag k="addr:housenumber" v="21609"/><tag k="addr:postcode" v="78641"/></node><node id="-417" lat="30.506678" lon="-97.916978" changeset="false"><tag k="addr:street" v="White Rim Trail"/><tag k="addr:housenumber" v="18600"/><tag k="addr:postcode" v="78645"/></node><node id="-418" lat="30.506046" lon="-97.917548" changeset="false"><tag k="addr:street" v="White Rim Trail"/><tag k="addr:housenumber" v="18603"/><tag k="addr:postcode" v="78645"/></node><node id="-419" lat="30.514913" lon="-97.958581" changeset="false"><tag k="addr:street" v="Cherry Hollow Court"/><tag k="addr:housenumber" v="21300"/><tag k="addr:postcode" v="78641"/></node><node id="-420" lat="30.525842" lon="-97.966331" changeset="false"><tag k="addr:street" v="Lindeman Loop"/><tag k="addr:housenumber" v="11618"/><tag k="addr:postcode" v="78641"/></node><node id="-421" lat="30.528063" lon="-97.955276" changeset="false"><tag k="addr:street" v="Long Hill Drive"/><tag k="addr:housenumber" v="21525"/><tag k="addr:postcode" v="78641"/></node><node id="-422" lat="30.526393" lon="-97.968451" changeset="false"><tag k="addr:street" v="Lindeman Loop"/><tag k="addr:housenumber" v="11628"/><tag k="addr:postcode" v="78641"/></node><node id="-423" lat="30.508755" lon="-97.960649" changeset="false"><tag k="addr:street" v="Ridge Rim Drive"/><tag k="addr:housenumber" v="10509"/><tag k="addr:postcode" v="78641"/></node><node id="-424" lat="30.508316" lon="-97.959518" changeset="false"><tag k="addr:street" v="Ridge Rim Drive"/><tag k="addr:housenumber" v="10519"/><tag k="addr:postcode" v="78641"/></node><node id="-425" lat="30.51135" lon="-97.960579" changeset="false"><tag k="addr:street" v="Cherry Hollow Crossing"/><tag k="addr:housenumber" v="10606"/><tag k="addr:postcode" v="78641"/></node><node id="-426" lat="30.510389" lon="-97.962362" changeset="false"><tag k="addr:street" v="Quail Valley Drive"/><tag k="addr:housenumber" v="10606"/><tag k="addr:postcode" v="78641"/></node><node id="-427" lat="30.509408" lon="-97.923944" changeset="false"><tag k="addr:street" v="White Rim Terrace"/><tag k="addr:housenumber" v="11706"/><tag k="addr:postcode" v="78641"/></node><node id="-428" lat="30.518893" lon="-97.948831" changeset="false"><tag k="addr:street" v="Lindeman Lane"/><tag k="addr:housenumber" v="20900"/><tag k="addr:postcode" v="78641"/></node><node id="-429" lat="30.515091" lon="-97.965721" changeset="false"><tag k="addr:street" v="Quail Valley Court"/><tag k="addr:housenumber" v="21705"/><tag k="addr:postcode" v="78641"/></node><node id="-430" lat="30.514768" lon="-97.964884" changeset="false"><tag k="addr:street" v="Quail Valley Drive"/><tag k="addr:housenumber" v="10808"/><tag k="addr:postcode" v="78641"/></node><node id="-431" lat="30.524683" lon="-97.960799" changeset="false"><tag k="addr:street" v="Lindeman Lane"/><tag k="addr:housenumber" v="21703"/><tag k="addr:postcode" v="78641"/></node><node id="-432" lat="30.512884" lon="-97.964358" changeset="false"><tag k="addr:street" v="Quail Valley Drive"/><tag k="addr:housenumber" v="10700"/><tag k="addr:postcode" v="78641"/></node><node id="-433" lat="30.51095" lon="-97.961019" changeset="false"><tag k="addr:street" v="Cherry Hollow Crossing"/><tag k="addr:housenumber" v="10602"/><tag k="addr:postcode" v="78641"/></node><node id="-434" lat="30.583296" lon="-98.070511" changeset="false"><tag k="addr:street" v="Montana Springs Drive"/><tag k="addr:housenumber" v="12013"/><tag k="addr:postcode" v="78654"/></node><node id="-435" lat="30.599126" lon="-97.981115" changeset="false"><tag k="addr:street" v="Fawn Drive"/><tag k="addr:housenumber" v="25520"/><tag k="addr:postcode" v="78641"/></node><node id="-436" lat="30.529042" lon="-97.933786" changeset="false"><tag k="addr:street" v="Nameless Road"/><tag k="addr:housenumber" v="23348"/><tag k="addr:postcode" v="78641"/></node><node id="-437" lat="30.586805" lon="-98.063692" changeset="false"><tag k="addr:street" v="Montana Springs Drive"/><tag k="addr:housenumber" v="12401"/><tag k="addr:postcode" v="78654"/></node><node id="-438" lat="30.512015" lon="-97.966266" changeset="false"><tag k="addr:street" v="Tarantula Court"/><tag k="addr:housenumber" v="10502"/><tag k="addr:postcode" v="78641"/></node><node id="-439" lat="30.512685" lon="-97.965484" changeset="false"><tag k="addr:street" v="Tarantula Court"/><tag k="addr:housenumber" v="10510"/><tag k="addr:postcode" v="78641"/></node><node id="-440" lat="30.512102" lon="-97.963973" changeset="false"><tag k="addr:street" v="Tarantula Court"/><tag k="addr:housenumber" v="10605"/><tag k="addr:postcode" v="78641"/></node><node id="-441" lat="30.519304" lon="-97.955042" changeset="false"><tag k="addr:street" v="Lindeman Lane"/><tag k="addr:housenumber" v="21207"/><tag k="addr:postcode" v="78641"/></node><node id="-442" lat="30.583502" lon="-97.972955" changeset="false"><tag k="addr:street" v="Cottonwood Drive"/><tag k="addr:housenumber" v="24412"/><tag k="addr:postcode" v="78641"/></node><node id="-443" lat="30.583474" lon="-97.973609" changeset="false"><tag k="addr:street" v="Cottonwood Drive"/><tag k="addr:housenumber" v="24414"/><tag k="addr:postcode" v="78641"/></node><node id="-444" lat="30.618656" lon="-97.946438" changeset="false"><tag k="addr:street" v="Bingham Creek Road"/><tag k="addr:housenumber" v="24228"/><tag k="addr:postcode" v="78641"/></node><node id="-445" lat="30.596505" lon="-97.969939" changeset="false"><tag k="addr:street" v="Anderson Trail"/><tag k="addr:housenumber" v="24802"/><tag k="addr:postcode" v="78641"/></node><node id="-446" lat="30.594102" lon="-97.969966" changeset="false"><tag k="addr:street" v="Rich Trail"/><tag k="addr:housenumber" v="15001"/><tag k="addr:postcode" v="78641"/></node><node id="-447" lat="30.584285" lon="-97.976901" changeset="false"><tag k="addr:street" v="Greenwillow Drive"/><tag k="addr:housenumber" v="14201"/><tag k="addr:postcode" v="78641"/></node><node id="-448" lat="30.585573" lon="-97.992048" changeset="false"><tag k="addr:street" v="River Fern Court"/><tag k="addr:housenumber" v="25609"/><tag k="addr:postcode" v="78641"/></node><node id="-449" lat="30.615487" lon="-97.957961" changeset="false"><tag k="addr:street" v="Bingham Creek Road"/><tag k="addr:housenumber" v="24722"/><tag k="addr:postcode" v="78641"/></node><node id="-450" lat="30.613084" lon="-97.949981" changeset="false"><tag k="addr:street" v="Bingham Creek Road"/><tag k="addr:housenumber" v="24390"/><tag k="addr:postcode" v="78641"/></node><node id="-451" lat="30.568359" lon="-97.957265" changeset="false"><tag k="addr:street" v="Sunny Oak Lane"/><tag k="addr:housenumber" v="23100"/><tag k="addr:postcode" v="78641"/></node><node id="-452" lat="30.567065" lon="-97.955494" changeset="false"><tag k="addr:street" v="Sunny Oak Lane"/><tag k="addr:housenumber" v="23001"/><tag k="addr:postcode" v="78641"/></node><node id="-453" lat="30.575977" lon="-98.056305" changeset="false"><tag k="addr:street" v="Cow Creek Road"/><tag k="addr:housenumber" v="11869"/><tag k="addr:postcode" v="78654"/></node><node id="-454" lat="30.56057" lon="-97.953814" changeset="false"><tag k="addr:street" v="Sunset Hollow"/><tag k="addr:housenumber" v="22600"/><tag k="addr:postcode" v="78641"/></node><node id="-455" lat="30.559925" lon="-97.954776" changeset="false"><tag k="addr:street" v="Sunset Hollow"/><tag k="addr:housenumber" v="22601"/><tag k="addr:postcode" v="78641"/></node><node id="-456" lat="30.532637" lon="-97.9507" changeset="false"><tag k="addr:street" v="Nameless Road"/><tag k="addr:housenumber" v="23236"/><tag k="addr:postcode" v="78641"/></node><node id="-457" lat="30.569596" lon="-97.960147" changeset="false"><tag k="addr:street" v="Sunny Oak Lane"/><tag k="addr:housenumber" v="23211"/><tag k="addr:postcode" v="78641"/></node><node id="-458" lat="30.566655" lon="-97.959018" changeset="false"><tag k="addr:street" v="Spanish Oak Trail"/><tag k="addr:housenumber" v="23102"/><tag k="addr:postcode" v="78641"/></node><node id="-459" lat="30.580621" lon="-97.968072" changeset="false"><tag k="addr:street" v="Yaupon Trail"/><tag k="addr:housenumber" v="24105"/><tag k="addr:postcode" v="78641"/></node><node id="-460" lat="30.58588" lon="-97.990925" changeset="false"><tag k="addr:street" v="River Fern Court"/><tag k="addr:housenumber" v="25602"/><tag k="addr:postcode" v="78641"/></node><node id="-461" lat="30.587768" lon="-98.062069" changeset="false"><tag k="addr:street" v="Cow Creek Road"/><tag k="addr:housenumber" v="12339"/><tag k="addr:postcode" v="78641"/></node><node id="-462" lat="30.569268" lon="-97.959203" changeset="false"><tag k="addr:street" v="Sunny Oak Lane"/><tag k="addr:housenumber" v="23204"/><tag k="addr:postcode" v="78641"/></node><node id="-463" lat="30.566764" lon="-97.960673" changeset="false"><tag k="addr:street" v="Spanish Oak Trail"/><tag k="addr:housenumber" v="23202"/><tag k="addr:postcode" v="78641"/></node><node id="-464" lat="30.616399" lon="-97.958529" changeset="false"><tag k="addr:street" v="Bingham Creek Road"/><tag k="addr:housenumber" v="24822"/><tag k="addr:postcode" v="78641"/></node><node id="-465" lat="30.586491" lon="-98.069356" changeset="false"><tag k="addr:street" v="Montana Ridge Pass"/><tag k="addr:housenumber" v="29810"/><tag k="addr:postcode" v="78654"/></node><node id="-466" lat="30.584935" lon="-97.977249" changeset="false"><tag k="addr:street" v="Greenwillow Drive"/><tag k="addr:housenumber" v="14204"/><tag k="addr:postcode" v="78641"/></node><node id="-467" lat="30.61842" lon="-97.945439" changeset="false"><tag k="addr:street" v="Bingham Creek Road"/><tag k="addr:housenumber" v="24216"/><tag k="addr:postcode" v="78641"/></node><node id="-468" lat="30.568382" lon="-97.957458" changeset="false"><tag k="addr:street" v="Sunny Oak Lane"/><tag k="addr:housenumber" v="23102"/><tag k="addr:postcode" v="78641"/></node><node id="-469" lat="30.593543" lon="-97.988735" changeset="false"><tag k="addr:street" v="Bar K Ranch Road"/><tag k="addr:housenumber" v="25703"/><tag k="addr:postcode" v="78641"/></node><node id="-470" lat="30.586679" lon="-98.066592" changeset="false"><tag k="addr:street" v="Montana Ridge Pass"/><tag k="addr:housenumber" v="29711"/><tag k="addr:postcode" v="78654"/></node><node id="-471" lat="30.566781" lon="-97.960133" changeset="false"><tag k="addr:street" v="Spanish Oak Trail"/><tag k="addr:housenumber" v="23106"/><tag k="addr:postcode" v="78641"/></node><node id="-472" lat="30.566858" lon="-97.959504" changeset="false"><tag k="addr:street" v="Spanish Oak Trail"/><tag k="addr:housenumber" v="23108"/><tag k="addr:postcode" v="78641"/></node><node id="-473" lat="30.566964" lon="-97.961326" changeset="false"><tag k="addr:street" v="Spanish Oak Trail"/><tag k="addr:housenumber" v="23204"/><tag k="addr:postcode" v="78641"/></node><node id="-474" lat="30.566699" lon="-97.9591" changeset="false"><tag k="addr:street" v="Spanish Oak Trail"/><tag k="addr:housenumber" v="23104"/><tag k="addr:postcode" v="78641"/></node><node id="-475" lat="30.57787" lon="-98.061792" changeset="false"><tag k="addr:street" v="Cow Creek Road"/><tag k="addr:housenumber" v="12000"/><tag k="addr:postcode" v="78654"/></node><node id="-476" lat="30.579076" lon="-98.060329" changeset="false"><tag k="addr:street" v="Cow Creek Road"/><tag k="addr:housenumber" v="12001"/><tag k="addr:postcode" v="78654"/></node><node id="-477" lat="30.58747" lon="-98.067505" changeset="false"><tag k="addr:street" v="Montana Ridge Pass"/><tag k="addr:housenumber" v="29710"/><tag k="addr:postcode" v="78654"/></node><node id="-478" lat="30.617429" lon="-97.960524" changeset="false"><tag k="addr:street" v="Bingham Creek Road"/><tag k="addr:housenumber" v="24918"/><tag k="addr:postcode" v="78641"/></node><node id="-479" lat="30.58332" lon="-98.069468" changeset="false"><tag k="addr:street" v="Montana Springs Drive"/><tag k="addr:housenumber" v="12105"/><tag k="addr:postcode" v="78654"/></node><node id="-480" lat="30.581924" lon="-98.072146" changeset="false"><tag k="addr:street" v="Montana Springs Cove"/><tag k="addr:housenumber" v="29800"/><tag k="addr:postcode" v="78654"/></node><node id="-481" lat="30.595045" lon="-97.970251" changeset="false"><tag k="addr:street" v="Rich Trail"/><tag k="addr:housenumber" v="15006"/><tag k="addr:postcode" v="78641"/></node><node id="-482" lat="30.50575" lon="-97.929936" changeset="false"><tag k="addr:street" v="Mountain Top Circle"/><tag k="addr:housenumber" v="11331"/><tag k="addr:postcode" v="78645"/></node><node id="-483" lat="30.591939" lon="-97.967384" changeset="false"><tag k="addr:street" v="Chaparral Drive"/><tag k="addr:housenumber" v="14902"/><tag k="addr:postcode" v="78641"/></node><node id="-484" lat="30.540656" lon="-97.939028" changeset="false"><tag k="addr:street" v="Nameless Road"/><tag k="addr:housenumber" v="23122"/><tag k="addr:postcode" v="78641"/></node><node id="-485" lat="30.571809" lon="-97.958222" changeset="false"><tag k="addr:street" v="Big Sandy Drive"/><tag k="addr:housenumber" v="23207"/><tag k="addr:postcode" v="78641"/></node><node id="-486" lat="30.568471" lon="-97.95901" changeset="false"><tag k="addr:street" v="Sunny Oak Lane"/><tag k="addr:housenumber" v="23201"/><tag k="addr:postcode" v="78641"/></node><node id="-487" lat="30.582217" lon="-97.984094" changeset="false"><tag k="addr:street" v="Long Hollow Loop"/><tag k="addr:housenumber" v="13833"/><tag k="addr:postcode" v="78641"/></node><node id="-488" lat="30.592716" lon="-97.970871" changeset="false"><tag k="addr:street" v="Rich Trail"/><tag k="addr:housenumber" v="14901"/><tag k="addr:postcode" v="78641"/></node><node id="-489" lat="30.586216" lon="-98.067261" changeset="false"><tag k="addr:street" v="Montana Ridge Pass"/><tag k="addr:housenumber" v="29803"/><tag k="addr:postcode" v="78654"/></node><node id="-490" lat="30.588551" lon="-97.968884" changeset="false"><tag k="addr:street" v="Fawn Drive"/><tag k="addr:housenumber" v="24500"/><tag k="addr:postcode" v="78641"/></node><node id="-491" lat="30.571551" lon="-97.957095" changeset="false"><tag k="addr:street" v="Big Sandy Drive"/><tag k="addr:housenumber" v="23203"/><tag k="addr:postcode" v="78641"/></node><node id="-492" lat="30.566027" lon="-97.957834" changeset="false"><tag k="addr:street" v="Spanish Oak Trail"/><tag k="addr:housenumber" v="23006"/><tag k="addr:postcode" v="78641"/></node><node id="-493" lat="30.596816" lon="-97.971118" changeset="false"><tag k="addr:street" v="Anderson Trail"/><tag k="addr:housenumber" v="24901"/><tag k="addr:postcode" v="78641"/></node><node id="-494" lat="30.595912" lon="-97.968187" changeset="false"><tag k="addr:street" v="Anderson Trail"/><tag k="addr:housenumber" v="24700"/><tag k="addr:postcode" v="78641"/></node><node id="-495" lat="30.506259" lon="-97.9171" changeset="false"><tag k="addr:street" v="White Rim Trail"/><tag k="addr:housenumber" v="18601"/><tag k="addr:postcode" v="78645"/></node><node id="-496" lat="30.566385" lon="-97.961333" changeset="false"><tag k="addr:street" v="Spanish Oak Trail"/><tag k="addr:housenumber" v="23203"/><tag k="addr:postcode" v="78641"/></node><node id="-497" lat="30.508385" lon="-97.959923" changeset="false"><tag k="addr:street" v="Ridge Rim Drive"/><tag k="addr:housenumber" v="10517"/><tag k="addr:postcode" v="78641"/></node><node id="-498" lat="30.508707" lon="-97.959167" changeset="false"><tag k="addr:street" v="Ridge Rim Drive"/><tag k="addr:housenumber" v="10521"/><tag k="addr:postcode" v="78641"/></node><node id="-499" lat="30.509824" lon="-97.961717" changeset="false"><tag k="addr:street" v="Cherry Hollow Crossing"/><tag k="addr:housenumber" v="10504"/><tag k="addr:postcode" v="78641"/></node><node id="-500" lat="30.51064" lon="-97.962697" changeset="false"><tag k="addr:street" v="Quail Valley Drive"/><tag k="addr:housenumber" v="10608"/><tag k="addr:postcode" v="78641"/></node><node id="-501" lat="30.512838" lon="-97.959663" changeset="false"><tag k="addr:street" v="Cherry Hollow 1 Cove"/><tag k="addr:housenumber" v="21204"/><tag k="addr:postcode" v="78641"/></node><node id="-502" lat="30.617807" lon="-97.960776" changeset="false"><tag k="addr:street" v="Bingham Creek Road"/><tag k="addr:housenumber" v="25000"/><tag k="addr:postcode" v="78641"/></node><node id="-503" lat="30.514667" lon="-97.956363" changeset="false"><tag k="addr:street" v="Cherry Hollow Crossing"/><tag k="addr:housenumber" v="11104"/><tag k="addr:postcode" v="78641"/></node><node id="-504" lat="30.514381" lon="-97.956814" changeset="false"><tag k="addr:street" v="Cherry Hollow Crossing"/><tag k="addr:housenumber" v="11000"/><tag k="addr:postcode" v="78641"/></node><node id="-505" lat="30.573494" lon="-97.958334" changeset="false"><tag k="addr:street" v="Big Sandy Drive"/><tag k="addr:housenumber" v="23309"/><tag k="addr:postcode" v="78641"/></node><node id="-506" lat="30.614363" lon="-97.952242" changeset="false"><tag k="addr:street" v="Bingham Creek Road"/><tag k="addr:housenumber" v="24500"/><tag k="addr:postcode" v="78641"/></node><node id="-507" lat="30.600698" lon="-97.983412" changeset="false"><tag k="addr:street" v="Fawn Drive"/><tag k="addr:housenumber" v="25702"/><tag k="addr:postcode" v="78641"/></node><node id="-508" lat="30.513052" lon="-97.95673" changeset="false"><tag k="addr:street" v="Ridge Crest Drive"/><tag k="addr:housenumber" v="21021"/><tag k="addr:postcode" v="78641"/></node><node id="-509" lat="30.583267" lon="-97.987002" changeset="false"><tag k="addr:street" v="Long Hollow Loop"/><tag k="addr:housenumber" v="13811"/><tag k="addr:postcode" v="78641"/></node><node id="-510" lat="30.513168" lon="-97.964669" changeset="false"><tag k="addr:street" v="Quail Valley Drive"/><tag k="addr:housenumber" v="10704"/><tag k="addr:postcode" v="78641"/></node><node id="-511" lat="30.597509" lon="-97.979172" changeset="false"><tag k="addr:street" v="Fawn Drive"/><tag k="addr:housenumber" v="25400"/><tag k="addr:postcode" v="78641"/></node><node id="-512" lat="30.598451" lon="-97.980249" changeset="false"><tag k="addr:street" v="Fawn Drive"/><tag k="addr:housenumber" v="25402"/><tag k="addr:postcode" v="78641"/></node><node id="-513" lat="30.543067" lon="-97.941386" changeset="false"><tag k="addr:street" v="Nameless Road"/><tag k="addr:housenumber" v="23086"/><tag k="addr:postcode" v="78641"/></node><node id="-514" lat="30.600896" lon="-97.951829" changeset="false"><tag k="addr:street" v="Lucky Hit Road"/><tag k="addr:housenumber" v="16110"/><tag k="addr:postcode" v="78641"/></node><node id="-515" lat="30.596663" lon="-97.985766" changeset="false"><tag k="addr:street" v="Rock Cliff Cove"/><tag k="addr:housenumber" v="14609"/><tag k="addr:postcode" v="78641"/></node><node id="-516" lat="30.518641" lon="-97.93431" changeset="false"><tag k="addr:street" v="Lindeman Lane"/><tag k="addr:housenumber" v="20030"/><tag k="addr:postcode" v="78641"/></node><node id="-517" lat="30.527088" lon="-97.965583" changeset="false"><tag k="addr:street" v="Lindeman Loop"/><tag k="addr:housenumber" v="11615"/><tag k="addr:postcode" v="78641"/></node><node id="-518" lat="30.512937" lon="-97.965189" changeset="false"><tag k="addr:street" v="Tarantula Court"/><tag k="addr:housenumber" v="10600"/><tag k="addr:postcode" v="78641"/></node><node id="-519" lat="30.515079" lon="-97.954526" changeset="false"><tag k="addr:street" v="Cherry Hollow Crossing"/><tag k="addr:housenumber" v="11209"/><tag k="addr:postcode" v="78641"/></node><node id="-520" lat="30.587324" lon="-98.065792" changeset="false"><tag k="addr:street" v="Montana Ridge Pass"/><tag k="addr:housenumber" v="29607"/><tag k="addr:postcode" v="78654"/></node><node id="-521" lat="30.512806" lon="-97.96348" changeset="false"><tag k="addr:street" v="Quail Valley Drive"/><tag k="addr:housenumber" v="10621"/><tag k="addr:postcode" v="78641"/></node><node id="-522" lat="30.513463" lon="-97.963837" changeset="false"><tag k="addr:street" v="Quail Valley Drive"/><tag k="addr:housenumber" v="10705"/><tag k="addr:postcode" v="78641"/></node><node id="-523" lat="30.516012" lon="-97.963019" changeset="false"><tag k="addr:street" v="Quail Valley Court"/><tag k="addr:housenumber" v="21602"/><tag k="addr:postcode" v="78641"/></node><node id="-524" lat="30.515821" lon="-97.966884" changeset="false"><tag k="addr:street" v="Quail Valley Court"/><tag k="addr:housenumber" v="21712"/><tag k="addr:postcode" v="78641"/></node><node id="-525" lat="30.52598" lon="-97.965079" changeset="false"><tag k="addr:street" v="Lindeman Loop"/><tag k="addr:housenumber" v="11610"/><tag k="addr:postcode" v="78641"/></node><node id="-526" lat="30.582704" lon="-97.985471" changeset="false"><tag k="addr:street" v="Long Hollow Loop"/><tag k="addr:housenumber" v="13821"/><tag k="addr:postcode" v="78641"/></node><node id="-527" lat="30.515807" lon="-97.960801" changeset="false"><tag k="addr:street" v="Creekside Drive"/><tag k="addr:housenumber" v="21417"/><tag k="addr:postcode" v="78641"/></node><node id="-528" lat="30.515189" lon="-97.961025" changeset="false"><tag k="addr:street" v="Creekside Drive"/><tag k="addr:housenumber" v="21425"/><tag k="addr:postcode" v="78641"/></node><node id="-529" lat="30.583649" lon="-98.071579" changeset="false"><tag k="addr:street" v="Montana Springs Drive"/><tag k="addr:housenumber" v="12007"/><tag k="addr:postcode" v="78654"/></node><node id="-530" lat="30.512194" lon="-97.957293" changeset="false"><tag k="addr:street" v="Cherry Hollow Crossing"/><tag k="addr:housenumber" v="10903"/><tag k="addr:postcode" v="78641"/></node><node id="-531" lat="30.515017" lon="-97.962077" changeset="false"><tag k="addr:street" v="Creekside Drive"/><tag k="addr:housenumber" v="21426"/><tag k="addr:postcode" v="78641"/></node><node id="-532" lat="30.514952" lon="-97.961021" changeset="false"><tag k="addr:street" v="Creekside Drive"/><tag k="addr:housenumber" v="21427"/><tag k="addr:postcode" v="78641"/></node><node id="-533" lat="30.52162" lon="-97.954911" changeset="false"><tag k="addr:street" v="Lindeman Lane"/><tag k="addr:housenumber" v="21306"/><tag k="addr:postcode" v="78641"/></node></osm>