<?xml version="1.0" encoding="UTF-8"?><osm version="0.6" generator="github.com/aaronlidman/osm-and-geojson"><node id="-1" lat="30.438173" lon="-97.633658" changeset="false"><tag k="addr:street" v="Camp Fire Trail"/><tag k="addr:housenumber" v="613"/><tag k="addr:postcode" v="78660"/></node><node id="-2" lat="30.440956" lon="-97.637592" changeset="false"><tag k="addr:street" v="Tanner Trail"/><tag k="addr:housenumber" v="547"/><tag k="addr:postcode" v="78660"/></node><node id="-3" lat="30.436901" lon="-97.632449" changeset="false"><tag k="addr:street" v="Settlers Valley Cove"/><tag k="addr:housenumber" v="614"/><tag k="addr:postcode" v="78660"/></node><node id="-4" lat="30.441852" lon="-97.636352" changeset="false"><tag k="addr:street" v="Dusty Leather Court"/><tag k="addr:housenumber" v="512"/><tag k="addr:postcode" v="78660"/></node><node id="-5" lat="30.443539" lon="-97.636542" changeset="false"><tag k="addr:street" v="Tanner Trail"/><tag k="addr:housenumber" v="506"/><tag k="addr:postcode" v="78660"/></node><node id="-6" lat="30.438005" lon="-97.633768" changeset="false"><tag k="addr:street" v="Camp Fire Trail"/><tag k="addr:housenumber" v="615"/><tag k="addr:postcode" v="78660"/></node><node id="-7" lat="30.440564" lon="-97.633728" changeset="false"><tag k="addr:street" v="Settlers Valley Drive"/><tag k="addr:housenumber" v="1212"/><tag k="addr:postcode" v="78660"/></node><node id="-8" lat="30.435483" lon="-97.636013" changeset="false"><tag k="addr:street" v="Mountain View Drive"/><tag k="addr:housenumber" v="1203"/><tag k="addr:postcode" v="78660"/></node><node id="-9" lat="30.439998" lon="-97.63385" changeset="false"><tag k="addr:street" v="Settlers Valley Drive"/><tag k="addr:housenumber" v="1211"/><tag k="addr:postcode" v="78660"/></node><node id="-10" lat="30.436345" lon="-97.637253" changeset="false"><tag k="addr:street" v="Smoke Signal Pass"/><tag k="addr:housenumber" v="827"/><tag k="addr:postcode" v="78660"/></node><node id="-11" lat="30.439291" lon="-97.633586" changeset="false"><tag k="addr:street" v="Camp Fire Trail"/><tag k="addr:housenumber" v="602"/><tag k="addr:postcode" v="78660"/></node><node id="-12" lat="30.433776" lon="-97.632544" changeset="false"><tag k="addr:street" v="Mountain View Drive"/><tag k="addr:housenumber" v="1001"/><tag k="addr:postcode" v="78660"/></node><node id="-13" lat="30.441484" lon="-97.63756" changeset="false"><tag k="addr:street" v="Tanner Trail"/><tag k="addr:housenumber" v="541"/><tag k="addr:postcode" v="78660"/></node><node id="-14" lat="30.437544" lon="-97.632391" changeset="false"><tag k="addr:street" v="Settlers Valley Cove"/><tag k="addr:housenumber" v="608"/><tag k="addr:postcode" v="78660"/></node><node id="-15" lat="30.435634" lon="-97.634962" changeset="false"><tag k="addr:street" v="Mountain View Drive"/><tag k="addr:housenumber" v="1110"/><tag k="addr:postcode" v="78660"/></node><node id="-16" lat="30.436867" lon="-97.63214" changeset="false"><tag k="addr:street" v="Settlers Valley Cove"/><tag k="addr:housenumber" v="613"/><tag k="addr:postcode" v="78660"/></node><node id="-17" lat="30.438683" lon="-97.634118" changeset="false"><tag k="addr:street" v="Camp Fire Trail"/><tag k="addr:housenumber" v="610"/><tag k="addr:postcode" v="78660"/></node><node id="-18" lat="30.438264" lon="-97.635508" changeset="false"><tag k="addr:street" v="Cactus Bend Drive"/><tag k="addr:housenumber" v="706"/><tag k="addr:postcode" v="78660"/></node><node id="-19" lat="30.436913" lon="-97.635246" changeset="false"><tag k="addr:street" v="Camp Fire Trail"/><tag k="addr:housenumber" v="716"/><tag k="addr:postcode" v="78660"/></node><node id="-20" lat="30.437417" lon="-97.63488" changeset="false"><tag k="addr:street" v="Camp Fire Trail"/><tag k="addr:housenumber" v="710"/><tag k="addr:postcode" v="78660"/></node><node id="-21" lat="30.440751" lon="-97.634085" changeset="false"><tag k="addr:street" v="Settlers Valley Drive"/><tag k="addr:housenumber" v="1216"/><tag k="addr:postcode" v="78660"/></node><node id="-22" lat="30.442583" lon="-97.629028" changeset="false"><tag k="addr:street" v="Pfluger Street West"/><tag k="addr:housenumber" v="1008"/><tag k="addr:postcode" v="78660"/></node><node id="-23" lat="30.437585" lon="-97.633576" changeset="false"><tag k="addr:street" v="Wagon Wheel Trail"/><tag k="addr:housenumber" v="702"/><tag k="addr:postcode" v="78660"/></node><node id="-24" lat="30.437245" lon="-97.635049" changeset="false"><tag k="addr:street" v="Camp Fire Trail"/><tag k="addr:housenumber" v="712"/><tag k="addr:postcode" v="78660"/></node><node id="-25" lat="30.437933" lon="-97.635725" changeset="false"><tag k="addr:street" v="Cactus Bend Drive"/><tag k="addr:housenumber" v="710"/><tag k="addr:postcode" v="78660"/></node><node id="-26" lat="30.442113" lon="-97.636238" changeset="false"><tag k="addr:street" v="Dusty Leather Court"/><tag k="addr:housenumber" v="508"/><tag k="addr:postcode" v="78660"/></node><node id="-27" lat="30.437677" lon="-97.633908" changeset="false"><tag k="addr:street" v="Camp Fire Trail"/><tag k="addr:housenumber" v="703"/><tag k="addr:postcode" v="78660"/></node><node id="-28" lat="30.437119" lon="-97.633927" changeset="false"><tag k="addr:street" v="Wagon Wheel Trail"/><tag k="addr:housenumber" v="708"/><tag k="addr:postcode" v="78660"/></node><node id="-29" lat="30.440645" lon="-97.633895" changeset="false"><tag k="addr:street" v="Settlers Valley Drive"/><tag k="addr:housenumber" v="1214"/><tag k="addr:postcode" v="78660"/></node><node id="-30" lat="30.43853" lon="-97.632978" changeset="false"><tag k="addr:street" v="Wagon Wheel Trail"/><tag k="addr:housenumber" v="604"/><tag k="addr:postcode" v="78660"/></node><node id="-31" lat="30.43634" lon="-97.634256" changeset="false"><tag k="addr:street" v="Prairie Ridge Trail"/><tag k="addr:housenumber" v="1104"/><tag k="addr:postcode" v="78660"/></node><node id="-32" lat="30.43915" lon="-97.641337" changeset="false"><tag k="addr:street" v="Club Chase Drive"/><tag k="addr:housenumber" v="1501"/><tag k="addr:postcode" v="78660"/></node><node id="-33" lat="30.436442" lon="-97.634429" changeset="false"><tag k="addr:street" v="Prairie Ridge Trail"/><tag k="addr:housenumber" v="1106"/><tag k="addr:postcode" v="78660"/></node><node id="-34" lat="30.435912" lon="-97.635491" changeset="false"><tag k="addr:street" v="Mountain View Drive"/><tag k="addr:housenumber" v="1200"/><tag k="addr:postcode" v="78660"/></node><node id="-35" lat="30.438086" lon="-97.632531" changeset="false"><tag k="addr:street" v="Wagon Wheel Trail"/><tag k="addr:housenumber" v="605"/><tag k="addr:postcode" v="78660"/></node><node id="-36" lat="30.438121" lon="-97.635636" changeset="false"><tag k="addr:street" v="Cactus Bend Drive"/><tag k="addr:housenumber" v="708"/><tag k="addr:postcode" v="78660"/></node><node id="-37" lat="30.439191" lon="-97.641814" changeset="false"><tag k="addr:street" v="Cherokee Run"/><tag k="addr:housenumber" v="1500"/><tag k="addr:postcode" v="78660"/></node><node id="-38" lat="30.443135" lon="-97.628728" changeset="false"><tag k="addr:street" v="West Pecan Street"/><tag k="addr:housenumber" v="1005"/><tag k="addr:postcode" v="78660"/></node><node id="-39" lat="30.443291" lon="-97.629064" changeset="false"><tag k="addr:street" v="West Pecan Street"/><tag k="addr:housenumber" v="1009"/><tag k="addr:postcode" v="78660"/></node><node id="-40" lat="30.435996" lon="-97.635705" changeset="false"><tag k="addr:street" v="Mountain View Drive"/><tag k="addr:housenumber" v="1202"/><tag k="addr:postcode" v="78660"/></node><node id="-41" lat="30.44014" lon="-97.634228" changeset="false"><tag k="addr:street" v="Cactus Bend Drive"/><tag k="addr:housenumber" v="600"/><tag k="addr:postcode" v="78660"/></node><node id="-42" lat="30.436734" lon="-97.635353" changeset="false"><tag k="addr:street" v="Camp Fire Trail"/><tag k="addr:housenumber" v="718"/><tag k="addr:postcode" v="78660"/></node><node id="-43" lat="30.437675" lon="-97.635689" changeset="false"><tag k="addr:street" v="Cactus Bend Drive"/><tag k="addr:housenumber" v="712"/><tag k="addr:postcode" v="78660"/></node><node id="-44" lat="30.437772" lon="-97.631159" changeset="false"><tag k="addr:street" v="Settlers Valley Drive"/><tag k="addr:housenumber" v="1001"/><tag k="addr:postcode" v="78660"/></node><node id="-45" lat="30.442114" lon="-97.638199" changeset="false"><tag k="addr:street" v="Broken Feather Trail"/><tag k="addr:housenumber" v="527"/><tag k="addr:postcode" v="78660"/></node><node id="-46" lat="30.437143" lon="-97.635747" changeset="false"><tag k="addr:street" v="Cactus Bend Drive"/><tag k="addr:housenumber" v="723"/><tag k="addr:postcode" v="78660"/></node><node id="-47" lat="30.436595" lon="-97.637609" changeset="false"><tag k="addr:street" v="Smoke Signal Pass"/><tag k="addr:housenumber" v="824"/><tag k="addr:postcode" v="78660"/></node><node id="-48" lat="30.437438" lon="-97.632867" changeset="false"><tag k="addr:street" v="Wagon Wheel Trail"/><tag k="addr:housenumber" v="701"/><tag k="addr:postcode" v="78660"/></node><node id="-49" lat="30.435681" lon="-97.632993" changeset="false"><tag k="addr:street" v="Prairie Ridge Trail"/><tag k="addr:housenumber" v="1006"/><tag k="addr:postcode" v="78660"/></node><node id="-50" lat="30.437107" lon="-97.633079" changeset="false"><tag k="addr:street" v="Wagon Wheel Trail"/><tag k="addr:housenumber" v="705"/><tag k="addr:postcode" v="78660"/></node><node id="-51" lat="30.436542" lon="-97.636693" changeset="false"><tag k="addr:street" v="Cactus Bend Drive"/><tag k="addr:housenumber" v="806"/><tag k="addr:postcode" v="78660"/></node><node id="-52" lat="30.442691" lon="-97.635706" changeset="false"><tag k="addr:street" v="Dusty Leather Court"/><tag k="addr:housenumber" v="500"/><tag k="addr:postcode" v="78660"/></node><node id="-53" lat="30.436066" lon="-97.633683" changeset="false"><tag k="addr:street" v="Prairie Ridge Trail"/><tag k="addr:housenumber" v="1014"/><tag k="addr:postcode" v="78660"/></node><node id="-54" lat="30.437692" lon="-97.634742" changeset="false"><tag k="addr:street" v="Camp Fire Trail"/><tag k="addr:housenumber" v="706"/><tag k="addr:postcode" v="78660"/></node><node id="-55" lat="30.442498" lon="-97.637984" changeset="false"><tag k="addr:street" v="Broken Feather Trail"/><tag k="addr:housenumber" v="521"/><tag k="addr:postcode" v="78660"/></node><node id="-56" lat="30.437601" lon="-97.632761" changeset="false"><tag k="addr:street" v="Wagon Wheel Trail"/><tag k="addr:housenumber" v="611"/><tag k="addr:postcode" v="78660"/></node><node id="-57" lat="30.442131" lon="-97.643254" changeset="false"><tag k="addr:street" v="South Heatherwilde Boulevard"/><tag k="addr:housenumber" v="619"/><tag k="addr:postcode" v="78660"/></node><node id="-58" lat="30.436233" lon="-97.637284" changeset="false"><tag k="addr:street" v="Smoke Signal Pass"/><tag k="addr:housenumber" v="829"/><tag k="addr:postcode" v="78660"/></node></osm>