<?xml version="1.0" encoding="UTF-8"?><osm version="0.6" generator="github.com/aaronlidman/osm-and-geojson"><node id="-1" lat="30.445868" lon="-97.687674" changeset="false"><tag k="addr:street" v="Merrilltown Drive"/><tag k="addr:housenumber" v="14666"/></node><node id="-2" lat="30.449486" lon="-97.695232" changeset="false"><tag k="addr:street" v="Burnet Road"/><tag k="addr:housenumber" v="14605"/></node><node id="-3" lat="30.442159" lon="-97.695961" changeset="false"><tag k="addr:street" v="Burnet Road"/><tag k="addr:housenumber" v="14007"/></node><node id="-4" lat="30.446508" lon="-97.68853" changeset="false"><tag k="addr:street" v="Merrilltown Drive"/><tag k="addr:housenumber" v="14674"/></node><node id="-5" lat="30.445716" lon="-97.710976" changeset="false"><tag k="addr:street" v="West Howard Lane"/><tag k="addr:housenumber" v="4800"/></node><node id="-6" lat="30.455293" lon="-97.696067" changeset="false"><tag k="addr:street" v="Burnet Road"/><tag k="addr:housenumber" v="14914"/></node><node id="-7" lat="30.445841" lon="-97.712146" changeset="false"><tag k="addr:street" v="West Howard Lane"/><tag k="addr:housenumber" v="4810"/></node><node id="-8" lat="30.443404" lon="-97.688073" changeset="false"><tag k="addr:street" v="Town Hill Drive"/><tag k="addr:housenumber" v="14401"/></node><node id="-9" lat="30.44166" lon="-97.683249" changeset="false"><tag k="addr:street" v="Merrilltown Drive"/><tag k="addr:housenumber" v="14454"/></node><node id="-10" lat="30.444164" lon="-97.683957" changeset="false"><tag k="addr:street" v="Merrilltown Drive"/><tag k="addr:housenumber" v="14603"/></node><node id="-11" lat="30.445192" lon="-97.709329" changeset="false"><tag k="addr:street" v="West Howard Lane"/><tag k="addr:housenumber" v="4616"/></node><node id="-12" lat="30.444415" lon="-97.694685" changeset="false"><tag k="addr:street" v="Tandem Boulevard"/><tag k="addr:housenumber" v="14320"/></node><node id="-13" lat="30.44344" lon="-97.706874" changeset="false"><tag k="addr:street" v="West Howard Lane"/><tag k="addr:housenumber" v="4300"/></node><node id="-14" lat="30.441689" lon="-97.68325" changeset="false"><tag k="addr:street" v="Merrilltown Drive"/><tag k="addr:housenumber" v="14456"/></node><node id="-15" lat="30.440606" lon="-97.695363" changeset="false"><tag k="addr:street" v="Wells Branch Parkway"/><tag k="addr:housenumber" v="3300 1/2"/></node><node id="-16" lat="30.443874" lon="-97.695966" changeset="false"><tag k="addr:street" v="Burnet Road"/><tag k="addr:housenumber" v="14205 1/2"/></node><node id="-17" lat="30.450155" lon="-97.695788" changeset="false"><tag k="addr:street" v="Burnet Road"/><tag k="addr:housenumber" v="14608 1/2"/></node><node id="-18" lat="30.441963" lon="-97.692436" changeset="false"><tag k="addr:street" v="Tandem Boulevard"/><tag k="addr:housenumber" v="14200"/></node><node id="-19" lat="30.442268" lon="-97.684792" changeset="false"><tag k="addr:street" v="Claudia June Avenue"/><tag k="addr:housenumber" v="2306"/></node><node id="-20" lat="30.440762" lon="-97.695438" changeset="false"><tag k="addr:street" v="Wells Branch Parkway"/><tag k="addr:housenumber" v="3300"/></node><node id="-21" lat="30.445247" lon="-97.686896" changeset="false"><tag k="addr:street" v="Merrilltown Drive"/><tag k="addr:housenumber" v="14650"/></node><node id="-22" lat="30.440331" lon="-97.683427" changeset="false"><tag k="addr:street" v="Merrilltown Drive"/><tag k="addr:housenumber" v="14402"/></node><node id="-23" lat="30.446645" lon="-97.688694" changeset="false"><tag k="addr:street" v="Merrilltown Drive"/><tag k="addr:housenumber" v="14678"/></node><node id="-24" lat="30.449924" lon="-97.695789" changeset="false"><tag k="addr:street" v="North MoPac Expressway"/><tag k="addr:housenumber" v="14621 1/2"/></node><node id="-25" lat="30.444162" lon="-97.694426" changeset="false"><tag k="addr:street" v="Tandem Boulevard"/><tag k="addr:housenumber" v="14314"/></node><node id="-26" lat="30.440011" lon="-97.683711" changeset="false"><tag k="addr:street" v="Merrilltown Drive"/><tag k="addr:housenumber" v="14366"/></node><node id="-27" lat="30.442942" lon="-97.694413" changeset="false"><tag k="addr:street" v="Tandem Boulevard"/><tag k="addr:housenumber" v="14300"/></node><node id="-28" lat="30.441876" lon="-97.683231" changeset="false"><tag k="addr:street" v="Merrilltown Drive"/><tag k="addr:housenumber" v="14508"/></node><node id="-29" lat="30.440385" lon="-97.697444" changeset="false"><tag k="addr:street" v="Burnet Road"/><tag k="addr:housenumber" v="13913"/></node></osm>