<?xml version="1.0" encoding="UTF-8"?><osm version="0.6" generator="github.com/aaronlidman/osm-and-geojson"><node id="-1" lat="30.175348" lon="-97.865823" changeset="false"><tag k="addr:street" v="Wyldwood Road"/><tag k="addr:housenumber" v="4117"/><tag k="addr:postcode" v="78739"/></node><node id="-2" lat="30.161167" lon="-97.870283" changeset="false"><tag k="addr:street" v="Ebony Hollow Pass"/><tag k="addr:housenumber" v="3804"/><tag k="addr:postcode" v="78739"/></node><node id="-3" lat="30.159506" lon="-97.872233" changeset="false"><tag k="addr:street" v="Lost Cavern Cove"/><tag k="addr:housenumber" v="3802"/><tag k="addr:postcode" v="78739"/></node><node id="-4" lat="30.164329" lon="-97.872255" changeset="false"><tag k="addr:street" v="Lost Oasis Hollow"/><tag k="addr:housenumber" v="4020"/><tag k="addr:postcode" v="78739"/></node><node id="-5" lat="30.185102" lon="-97.923034" changeset="false"><tag k="addr:street" v="Meridian Park Boulevard"/><tag k="addr:housenumber" v="12200"/><tag k="addr:postcode" v="78739"/></node></osm>