<?xml version="1.0" encoding="UTF-8"?><osm version="0.6" generator="github.com/aaronlidman/osm-and-geojson"><node id="-1" lat="30.170191" lon="-97.871509" changeset="false"><tag k="addr:street" v="Sabinal Mesa Drive"/><tag k="addr:housenumber" v="11500"/><tag k="coa:place_id" v="257148"/></node><node id="-2" lat="30.147125" lon="-97.876388" changeset="false"><tag k="addr:street" v="Fencerail Road"/><tag k="addr:housenumber" v="13110"/><tag k="coa:place_id" v="3257812"/></node><node id="-3" lat="30.189848" lon="-97.920867" changeset="false"><tag k="addr:street" v="Cherisse Drive"/><tag k="addr:housenumber" v="11713"/><tag k="coa:place_id" v="3167119"/></node><node id="-4" lat="30.185258" lon="-97.916848" changeset="false"><tag k="addr:street" v="Jaborandi Drive"/><tag k="addr:housenumber" v="7601"/><tag k="coa:place_id" v="3145025"/></node><node id="-5" lat="30.161052" lon="-97.862512" changeset="false"><tag k="addr:street" v="Green Emerald Terrace"/><tag k="addr:housenumber" v="3401"/><tag k="coa:place_id" v="61478"/></node><node id="-6" lat="30.159778" lon="-97.87074" changeset="false"><tag k="addr:street" v="Ebony Hollow Pass"/><tag k="addr:housenumber" v="3709"/><tag k="coa:place_id" v="53568"/></node><node id="-7" lat="30.157863" lon="-97.868533" changeset="false"><tag k="addr:street" v="Ebony Hollow Pass"/><tag k="addr:housenumber" v="3601"/><tag k="coa:place_id" v="3087611"/></node><node id="-8" lat="30.16675" lon="-97.86979" changeset="false"><tag k="addr:street" v="Hobbiton Trail"/><tag k="addr:housenumber" v="11605"/><tag k="coa:place_id" v="78113"/></node><node id="-9" lat="30.142916" lon="-97.852896" changeset="false"><tag k="addr:street" v="Bismark Drive"/><tag k="addr:housenumber" v="12717"/><tag k="coa:place_id" v="3295911"/></node><node id="-10" lat="30.164658" lon="-97.868002" changeset="false"><tag k="addr:street" v="Baggins Cove"/><tag k="addr:housenumber" v="3801"/><tag k="coa:place_id" v="78081"/></node><node id="-11" lat="30.176777" lon="-97.869181" changeset="false"><tag k="addr:street" v="Wyldwood Road"/><tag k="addr:housenumber" v="4300"/><tag k="coa:place_id" v="155215"/></node><node id="-12" lat="30.158552" lon="-97.864793" changeset="false"><tag k="addr:street" v="Onion Hollow Run"/><tag k="addr:housenumber" v="11910"/><tag k="coa:place_id" v="3087588"/></node><node id="-13" lat="30.169355" lon="-97.867233" changeset="false"><tag k="addr:street" v="Silmarillion Trail"/><tag k="addr:housenumber" v="11412"/><tag k="coa:place_id" v="175468"/></node><node id="-14" lat="30.18513" lon="-97.916983" changeset="false"><tag k="addr:street" v="Jaborandi Drive"/><tag k="addr:housenumber" v="7605"/><tag k="coa:place_id" v="3144985"/></node><node id="-15" lat="30.157446" lon="-97.862736" changeset="false"><tag k="addr:street" v="Edwards Hollow Run"/><tag k="addr:housenumber" v="12000"/><tag k="coa:place_id" v="71593"/></node><node id="-16" lat="30.154287" lon="-97.868726" changeset="false"><tag k="addr:street" v="Barker Hollow Cove"/><tag k="addr:housenumber" v="12400"/><tag k="coa:place_id" v="122031"/></node><node id="-17" lat="30.143592" lon="-97.853533" changeset="false"><tag k="addr:street" v="Bismark Drive"/><tag k="addr:housenumber" v="12625"/><tag k="coa:place_id" v="3295925"/></node><node id="-18" lat="30.165299" lon="-97.868832" changeset="false"><tag k="addr:street" v="Baggins Cove"/><tag k="addr:housenumber" v="3806"/><tag k="coa:place_id" v="78086"/></node><node id="-19" lat="30.189133" lon="-97.923141" changeset="false"><tag k="addr:street" v="Levata Drive"/><tag k="addr:housenumber" v="8012"/><tag k="coa:place_id" v="3167101"/></node><node id="-20" lat="30.14265" lon="-97.848583" changeset="false"><tag k="addr:street" v="Turtle Mountain Bend"/><tag k="addr:housenumber" v="2116"/><tag k="coa:place_id" v="3295844"/></node><node id="-21" lat="30.16094" lon="-97.860703" changeset="false"><tag k="addr:street" v="Onion Hollow Run"/><tag k="addr:housenumber" v="11705"/><tag k="coa:place_id" v="61491"/></node><node id="-22" lat="30.190167" lon="-97.921486" changeset="false"><tag k="addr:street" v="Cherisse Drive"/><tag k="addr:housenumber" v="11629"/><tag k="coa:place_id" v="3167087"/></node><node id="-23" lat="30.155534" lon="-97.867357" changeset="false"><tag k="addr:street" v="Lost Oasis Hollow"/><tag k="addr:housenumber" v="3400"/><tag k="coa:place_id" v="71562"/></node><node id="-24" lat="30.153826" lon="-97.870975" changeset="false"><tag k="addr:street" v="Black Mesa Cove"/><tag k="addr:housenumber" v="12506"/><tag k="coa:place_id" v="71675"/></node><node id="-25" lat="30.160169" lon="-97.862496" changeset="false"><tag k="addr:street" v="Onion Hollow Run"/><tag k="addr:housenumber" v="11804"/><tag k="coa:place_id" v="61487"/></node><node id="-26" lat="30.159736" lon="-97.868268" changeset="false"><tag k="addr:street" v="Corner Brook Pass"/><tag k="addr:housenumber" v="12000"/><tag k="coa:place_id" v="3088206"/></node><node id="-27" lat="30.134431" lon="-97.853864" changeset="false"><tag k="addr:street" v="Farm-to-Market Road 1626"/><tag k="addr:housenumber" v="2120"/><tag k="coa:place_id" v="3272325"/></node><node id="-28" lat="30.171292" lon="-97.868846" changeset="false"><tag k="addr:street" v="Aldama Drive"/><tag k="addr:housenumber" v="4110"/><tag k="coa:place_id" v="67850"/></node><node id="-29" lat="30.16043" lon="-97.8698" changeset="false"><tag k="addr:street" v="Ebony Hollow Pass"/><tag k="addr:housenumber" v="3712"/><tag k="coa:place_id" v="53575"/></node><node id="-30" lat="30.177365" lon="-97.870944" changeset="false"><tag k="addr:street" v="Wyldwood Road"/><tag k="addr:housenumber" v="4314"/><tag k="coa:place_id" v="155218"/></node><node id="-31" lat="30.146816" lon="-97.877055" changeset="false"><tag k="addr:street" v="Turkey Roost Road"/><tag k="addr:housenumber" v="13201"/><tag k="coa:place_id" v="3257791"/></node><node id="-32" lat="30.176449" lon="-97.864802" changeset="false"><tag k="addr:street" v="Wyldwood Road"/><tag k="addr:housenumber" v="4100"/><tag k="coa:place_id" v="3363689"/></node><node id="-33" lat="30.144227" lon="-97.875107" changeset="false"><tag k="addr:street" v="Cattleman Drive"/><tag k="addr:housenumber" v="3405"/><tag k="coa:place_id" v="3257877"/></node><node id="-34" lat="30.143957" lon="-97.874659" changeset="false"><tag k="addr:street" v="Bliss Spillar Road,1100"/><tag k="addr:housenumber" v="3403"/><tag k="coa:place_id" v="3257880"/></node><node id="-35" lat="30.146166" lon="-97.877867" changeset="false"><tag k="addr:street" v="Turkey Roost Road"/><tag k="addr:housenumber" v="13204"/><tag k="coa:place_id" v="3257782"/></node><node id="-36" lat="30.14543" lon="-97.85605" changeset="false"><tag k="addr:street" v="Bear Springs Trail"/><tag k="addr:housenumber" v="2709"/><tag k="coa:place_id" v="3295931"/></node><node id="-37" lat="30.167586" lon="-97.873503" changeset="false"><tag k="addr:street" v="Lost Oasis Hollow"/><tag k="addr:housenumber" v="4228"/><tag k="coa:place_id" v="223593"/></node><node id="-38" lat="30.14483" lon="-97.874825" changeset="false"><tag k="addr:street" v="Bliss Spillar Road,1100"/><tag k="addr:housenumber" v="3411"/><tag k="coa:place_id" v="3257868"/></node><node id="-39" lat="30.145914" lon="-97.874891" changeset="false"><tag k="addr:street" v="Bliss Spillar Road,1100"/><tag k="addr:housenumber" v="3427"/><tag k="coa:place_id" v="3257873"/></node><node id="-40" lat="30.187963" lon="-97.926495" changeset="false"><tag k="addr:street" v="Cherisse Drive"/><tag k="addr:housenumber" v="11213"/><tag k="coa:place_id" v="3315682"/></node><node id="-41" lat="30.188087" lon="-97.926603" changeset="false"><tag k="addr:street" v="Cherisse Drive"/><tag k="addr:housenumber" v="11217"/><tag k="coa:place_id" v="3315683"/></node><node id="-42" lat="30.146698" lon="-97.85367" changeset="false"><tag k="addr:street" v="Brodie Lane"/><tag k="addr:housenumber" v="12469"/><tag k="coa:place_id" v="3692181"/></node><node id="-43" lat="30.185932" lon="-97.92408" changeset="false"><tag k="addr:street" v="Alophia Drive"/><tag k="addr:housenumber" v="8612"/><tag k="coa:place_id" v="3315642"/></node><node id="-44" lat="30.18712" lon="-97.925965" changeset="false"><tag k="addr:street" v="Cherisse Drive"/><tag k="addr:housenumber" v="11121"/><tag k="coa:place_id" v="3315656"/></node><node id="-45" lat="30.186144" lon="-97.925422" changeset="false"><tag k="addr:street" v="Cherisse Drive"/><tag k="addr:housenumber" v="11033"/><tag k="coa:place_id" v="3315637"/></node><node id="-46" lat="30.186377" lon="-97.924377" changeset="false"><tag k="addr:street" v="Alophia Drive"/><tag k="addr:housenumber" v="8600"/><tag k="coa:place_id" v="3315639"/></node><node id="-47" lat="30.141136" lon="-97.847136" changeset="false"><tag k="addr:street" v="Brodie Lane"/><tag k="addr:housenumber" v="12624 1/2"/><tag k="coa:place_id" v="5099722"/></node><node id="-48" lat="30.148702" lon="-97.848642" changeset="false"><tag k="addr:street" v="Claret Cove"/><tag k="addr:housenumber" v="2404"/><tag k="coa:place_id" v="3330116"/></node><node id="-49" lat="30.148366" lon="-97.848739" changeset="false"><tag k="addr:street" v="Claret Cove"/><tag k="addr:housenumber" v="2405"/><tag k="coa:place_id" v="3330119"/></node><node id="-50" lat="30.146196" lon="-97.857345" changeset="false"><tag k="addr:street" v="Bear Springs Trail"/><tag k="addr:housenumber" v="2816"/><tag k="coa:place_id" v="3388250"/></node><node id="-51" lat="30.141856" lon="-97.849741" changeset="false"><tag k="addr:street" v="Bismark Drive"/><tag k="addr:housenumber" v="13033"/><tag k="coa:place_id" v="5094061"/></node><node id="-52" lat="30.149106" lon="-97.859858" changeset="false"><tag k="addr:street" v="Edwards Hollow Run"/><tag k="addr:housenumber" v="12620"/><tag k="coa:place_id" v="3499394"/></node><node id="-53" lat="30.1608" lon="-97.870011" changeset="false"><tag k="addr:street" v="Ebony Hollow Pass"/><tag k="addr:housenumber" v="3800"/><tag k="coa:place_id" v="53576"/></node><node id="-54" lat="30.148559" lon="-97.875928" changeset="false"><tag k="addr:street" v="Bliss Spillar Road,1100"/><tag k="addr:housenumber" v="3510"/><tag k="coa:place_id" v="3390537"/></node><node id="-55" lat="30.169013" lon="-97.910332" changeset="false"><tag k="addr:street" v="Escarpment Boulevard"/><tag k="addr:housenumber" v="12901"/><tag k="coa:place_id" v="5279782"/></node><node id="-56" lat="30.136727" lon="-97.859585" changeset="false"><tag k="addr:street" v="Bliss Spillar Road,1100"/><tag k="addr:housenumber" v="2609"/><tag k="coa:place_id" v="5078498"/></node><node id="-57" lat="30.148744" lon="-97.847795" changeset="false"><tag k="addr:street" v="Frate Barker Road"/><tag k="addr:housenumber" v="2411"/><tag k="coa:place_id" v="5188465"/></node><node id="-58" lat="30.13677" lon="-97.860601" changeset="false"><tag k="addr:street" v="Bliss Spillar Road,1100"/><tag k="addr:housenumber" v="2631"/><tag k="coa:place_id" v="5090445"/></node><node id="-59" lat="30.141422" lon="-97.851567" changeset="false"><tag k="addr:street" v="Bismark Drive"/><tag k="addr:housenumber" v="12908"/><tag k="coa:place_id" v="3499003"/></node><node id="-60" lat="30.141474" lon="-97.850889" changeset="false"><tag k="addr:street" v="Bismark Drive"/><tag k="addr:housenumber" v="12917"/><tag k="coa:place_id" v="3499018"/></node><node id="-61" lat="30.189149" lon="-97.926231" changeset="false"><tag k="addr:street" v="Cherisse Drive"/><tag k="addr:housenumber" v="11332"/><tag k="coa:place_id" v="3315708"/></node><node id="-62" lat="30.179475" lon="-97.92477" changeset="false"><tag k="addr:street" v="Meridian Park Boulevard"/><tag k="addr:housenumber" v="12800"/><tag k="coa:place_id" v="3378886"/></node><node id="-63" lat="30.141509" lon="-97.84933" changeset="false"><tag k="addr:street" v="Bismark Drive"/><tag k="addr:housenumber" v="13100"/><tag k="coa:place_id" v="3499037"/></node><node id="-64" lat="30.178703" lon="-97.917439" changeset="false"><tag k="addr:street" v="Buvana Drive"/><tag k="addr:housenumber" v="12213"/><tag k="coa:place_id" v="3295507"/></node><node id="-65" lat="30.16376" lon="-97.868073" changeset="false"><tag k="addr:street" v="Silmarillion Trail"/><tag k="addr:housenumber" v="11710"/><tag k="coa:place_id" v="122541"/></node><node id="-66" lat="30.150447" lon="-97.864059" changeset="false"><tag k="addr:street" v="River Rock Court"/><tag k="addr:housenumber" v="12507"/><tag k="coa:place_id" v="73806"/></node><node id="-67" lat="30.159609" lon="-97.871673" changeset="false"><tag k="addr:street" v="Lost Cavern Cove"/><tag k="addr:housenumber" v="3800"/><tag k="coa:place_id" v="53550"/></node><node id="-68" lat="30.160557" lon="-97.868929" changeset="false"><tag k="addr:street" v="Corner Brook Pass"/><tag k="addr:housenumber" v="11904"/><tag k="coa:place_id" v="53579"/></node><node id="-69" lat="30.184317" lon="-97.918428" changeset="false"><tag k="addr:street" v="Jaborandi Drive"/><tag k="addr:housenumber" v="7720"/><tag k="coa:place_id" v="3144971"/></node><node id="-70" lat="30.188326" lon="-97.923281" changeset="false"><tag k="addr:street" v="Pepperidge Drive"/><tag k="addr:housenumber" v="12008"/><tag k="coa:place_id" v="3167363"/></node><node id="-71" lat="30.141702" lon="-97.849732" changeset="false"><tag k="addr:street" v="Brodie Lane"/><tag k="addr:housenumber" v="12580"/><tag k="coa:place_id" v="1110507"/></node><node id="-72" lat="30.171315" lon="-97.869019" changeset="false"><tag k="addr:street" v="Aldama Drive"/><tag k="addr:housenumber" v="4112"/><tag k="coa:place_id" v="67849"/></node><node id="-73" lat="30.155837" lon="-97.863259" changeset="false"><tag k="addr:street" v="Lost Oasis Hollow"/><tag k="addr:housenumber" v="3301"/><tag k="coa:place_id" v="88932"/></node><node id="-74" lat="30.152424" lon="-97.863802" changeset="false"><tag k="addr:street" v="Barker Hollow Pass"/><tag k="addr:housenumber" v="3204"/><tag k="coa:place_id" v="73821"/></node><node id="-75" lat="30.166329" lon="-97.870463" changeset="false"><tag k="addr:street" v="Hobbiton Trail"/><tag k="addr:housenumber" v="11608"/><tag k="coa:place_id" v="78114"/></node><node id="-76" lat="30.185174" lon="-97.922095" changeset="false"><tag k="addr:street" v="Meridian Park Boulevard"/><tag k="addr:housenumber" v="12208 1/2"/><tag k="coa:place_id" v="3182830"/></node><node id="-77" lat="30.16779" lon="-97.873489" changeset="false"><tag k="addr:street" v="Lost Oasis Hollow"/><tag k="addr:housenumber" v="4232"/><tag k="coa:place_id" v="223591"/></node><node id="-78" lat="30.167714" lon="-97.874261" changeset="false"><tag k="addr:street" v="Lost Oasis Hollow"/><tag k="addr:housenumber" v="4229"/><tag k="coa:place_id" v="223577"/></node><node id="-79" lat="30.157776" lon="-97.87026" changeset="false"><tag k="addr:street" v="Ebony Hollow Cove"/><tag k="addr:housenumber" v="3709"/><tag k="coa:place_id" v="53560"/></node><node id="-80" lat="30.144253" lon="-97.855023" changeset="false"><tag k="addr:street" v="Bismark Drive"/><tag k="addr:housenumber" v="12600"/><tag k="coa:place_id" v="3295904"/></node><node id="-81" lat="30.144289" lon="-97.853925" changeset="false"><tag k="addr:street" v="Bismark Drive"/><tag k="addr:housenumber" v="12609"/><tag k="coa:place_id" v="3295923"/></node><node id="-82" lat="30.154144" lon="-97.873097" changeset="false"><tag k="addr:street" v="Red Mesa Hollow"/><tag k="addr:housenumber" v="12505"/><tag k="coa:place_id" v="71666"/></node><node id="-83" lat="30.185273" lon="-97.919773" changeset="false"><tag k="addr:street" v="Wisteria Valley Drive"/><tag k="addr:housenumber" v="7517"/><tag k="coa:place_id" v="3145003"/></node><node id="-84" lat="30.152648" lon="-97.865486" changeset="false"><tag k="addr:street" v="Barker Hollow Pass"/><tag k="addr:housenumber" v="3302"/><tag k="coa:place_id" v="124704"/></node><node id="-85" lat="30.150593" lon="-97.880691" changeset="false"><tag k="addr:street" v="Bliss Spillar Road,1100"/><tag k="addr:housenumber" v="3826"/><tag k="coa:place_id" v="3032370"/></node><node id="-86" lat="30.162138" lon="-97.874009" changeset="false"><tag k="addr:street" v="Lost Oasis Hollow"/><tag k="addr:housenumber" v="4009"/><tag k="coa:place_id" v="53599"/></node><node id="-87" lat="30.147308" lon="-97.875651" changeset="false"><tag k="addr:street" v="Fencerail Road"/><tag k="addr:housenumber" v="13106"/><tag k="coa:place_id" v="3257810"/></node><node id="-88" lat="30.161176" lon="-97.874042" changeset="false"><tag k="addr:street" v="Lost Oasis Hollow"/><tag k="addr:housenumber" v="4001"/><tag k="coa:place_id" v="125187"/></node><node id="-89" lat="30.160511" lon="-97.86071" changeset="false"><tag k="addr:street" v="Onion Hollow Run"/><tag k="addr:housenumber" v="11709"/><tag k="coa:place_id" v="256222"/></node><node id="-90" lat="30.176662" lon="-97.861583" changeset="false"><tag k="addr:street" v="Wyldwood Road"/><tag k="addr:housenumber" v="3904"/><tag k="coa:place_id" v="121735"/></node><node id="-91" lat="30.136044" lon="-97.858943" changeset="false"><tag k="addr:street" v="Bliss Spillar Road,1100"/><tag k="addr:housenumber" v="2601"/><tag k="coa:place_id" v="1110502"/></node><node id="-92" lat="30.160375" lon="-97.87221" changeset="false"><tag k="addr:street" v="Green Emerald Terrace"/><tag k="addr:housenumber" v="3905"/><tag k="coa:place_id" v="57063"/></node><node id="-93" lat="30.158595" lon="-97.860537" changeset="false"><tag k="addr:street" v="Edwards Hollow Run"/><tag k="addr:housenumber" v="11900"/><tag k="coa:place_id" v="3087606"/></node><node id="-94" lat="30.158656" lon="-97.86826" changeset="false"><tag k="addr:street" v="Ebony Hollow Pass"/><tag k="addr:housenumber" v="3600"/><tag k="coa:place_id" v="3087610"/></node><node id="-95" lat="30.158654" lon="-97.872191" changeset="false"><tag k="addr:street" v="Lost Cavern Cove"/><tag k="addr:housenumber" v="3805"/><tag k="coa:place_id" v="53555"/></node><node id="-96" lat="30.143226" lon="-97.851535" changeset="false"><tag k="addr:street" v="Turtle Mountain Bend"/><tag k="addr:housenumber" v="2409"/><tag k="coa:place_id" v="3295888"/></node><node id="-97" lat="30.157886" lon="-97.862212" changeset="false"><tag k="addr:street" v="Edwards Hollow Run"/><tag k="addr:housenumber" v="11910"/><tag k="coa:place_id" v="71594"/></node><node id="-98" lat="30.157642" lon="-97.864899" changeset="false"><tag k="addr:street" v="Onion Hollow Run"/><tag k="addr:housenumber" v="12004"/><tag k="coa:place_id" v="71643"/></node><node id="-99" lat="30.168084" lon="-97.868834" changeset="false"><tag k="addr:street" v="Denim Trail"/><tag k="addr:housenumber" v="3906"/><tag k="coa:place_id" v="78101"/></node><node id="-100" lat="30.16801" lon="-97.873497" changeset="false"><tag k="addr:street" v="Lost Oasis Hollow"/><tag k="addr:housenumber" v="4236"/><tag k="coa:place_id" v="223590"/></node><node id="-101" lat="30.144237" lon="-97.876452" changeset="false"><tag k="addr:street" v="Cattleman Drive"/><tag k="addr:housenumber" v="3505"/><tag k="coa:place_id" v="3257766"/></node><node id="-102" lat="30.149236" lon="-97.850292" changeset="false"><tag k="addr:street" v="Frate Barker Road"/><tag k="addr:housenumber" v="2601"/><tag k="coa:place_id" v="3298176"/></node><node id="-103" lat="30.18835" lon="-97.921714" changeset="false"><tag k="addr:street" v="Levata Drive"/><tag k="addr:housenumber" v="7900"/><tag k="coa:place_id" v="3288817"/></node><node id="-104" lat="30.145086" lon="-97.877404" changeset="false"><tag k="addr:street" v="Turkey Roost Road"/><tag k="addr:housenumber" v="13213"/><tag k="coa:place_id" v="3257797"/></node><node id="-105" lat="30.18846" lon="-97.924591" changeset="false"><tag k="addr:street" v="Wisteria Valley Drive"/><tag k="addr:housenumber" v="7909"/><tag k="coa:place_id" v="3274346"/></node><node id="-106" lat="30.179701" lon="-97.924298" changeset="false"><tag k="addr:street" v="Meridian Park Boulevard"/><tag k="addr:housenumber" v="12720"/><tag k="coa:place_id" v="3378884"/></node><node id="-107" lat="30.186227" lon="-97.924249" changeset="false"><tag k="addr:street" v="Alophia Drive"/><tag k="addr:housenumber" v="8604"/><tag k="coa:place_id" v="3315640"/></node><node id="-108" lat="30.145919" lon="-97.855024" changeset="false"><tag k="addr:street" v="Bear Springs Trail"/><tag k="addr:housenumber" v="2617"/><tag k="coa:place_id" v="3355626"/></node><node id="-109" lat="30.141128" lon="-97.85024" changeset="false"><tag k="addr:street" v="Bismark Drive"/><tag k="addr:housenumber" v="13016"/><tag k="coa:place_id" v="3499011"/></node><node id="-110" lat="30.141606" lon="-97.851897" changeset="false"><tag k="addr:street" v="Bismark Drive"/><tag k="addr:housenumber" v="12900"/><tag k="coa:place_id" v="3499001"/></node><node id="-111" lat="30.141269" lon="-97.850722" changeset="false"><tag k="addr:street" v="Bismark Drive"/><tag k="addr:housenumber" v="13015"/><tag k="coa:place_id" v="5060413"/></node><node id="-112" lat="30.1456" lon="-97.876318" changeset="false"><tag k="addr:street" v="Fencerail Road"/><tag k="addr:housenumber" v="13202"/><tag k="coa:place_id" v="3257818"/></node><node id="-113" lat="30.145351" lon="-97.876319" changeset="false"><tag k="addr:street" v="Fencerail Road"/><tag k="addr:housenumber" v="13204"/><tag k="coa:place_id" v="3257819"/></node><node id="-114" lat="30.141471" lon="-97.850425" changeset="false"><tag k="addr:street" v="Bismark Drive"/><tag k="addr:housenumber" v="13017"/><tag k="coa:place_id" v="3499019"/></node><node id="-115" lat="30.140906" lon="-97.850922" changeset="false"><tag k="addr:street" v="Bismark Drive"/><tag k="addr:housenumber" v="13000"/><tag k="coa:place_id" v="3499007"/></node><node id="-116" lat="30.1413" lon="-97.849935" changeset="false"><tag k="addr:street" v="Bismark Drive"/><tag k="addr:housenumber" v="13024"/><tag k="coa:place_id" v="3499013"/></node><node id="-117" lat="30.141677" lon="-97.851207" changeset="false"><tag k="addr:street" v="Bismark Drive"/><tag k="addr:housenumber" v="12909"/><tag k="coa:place_id" v="3499016"/></node><node id="-118" lat="30.145567" lon="-97.855566" changeset="false"><tag k="addr:street" v="Bear Springs Trail"/><tag k="addr:housenumber" v="2701"/><tag k="coa:place_id" v="3424725"/></node><node id="-119" lat="30.143802" lon="-97.851463" changeset="false"><tag k="addr:street" v="Turtle Mountain Bend"/><tag k="addr:housenumber" v="2320"/><tag k="coa:place_id" v="3295884"/></node><node id="-120" lat="30.170024" lon="-97.866529" changeset="false"><tag k="addr:street" v="Silmarillion Trail"/><tag k="addr:housenumber" v="11404"/><tag k="coa:place_id" v="110363"/></node><node id="-121" lat="30.162867" lon="-97.868096" changeset="false"><tag k="addr:street" v="Silmarillion Trail"/><tag k="addr:housenumber" v="11800"/><tag k="coa:place_id" v="78148"/></node><node id="-122" lat="30.188728" lon="-97.920521" changeset="false"><tag k="addr:street" v="Alophia Drive"/><tag k="addr:housenumber" v="7804"/><tag k="coa:place_id" v="3167262"/></node><node id="-123" lat="30.188946" lon="-97.919823" changeset="false"><tag k="addr:street" v="Cherisse Drive"/><tag k="addr:housenumber" v="11809"/><tag k="coa:place_id" v="3167129"/></node><node id="-124" lat="30.151538" lon="-97.862547" changeset="false"><tag k="addr:street" v="Edwards Hollow Run"/><tag k="addr:housenumber" v="12404"/><tag k="coa:place_id" v="61470"/></node><node id="-125" lat="30.168676" lon="-97.873526" changeset="false"><tag k="addr:street" v="Lost Oasis Hollow"/><tag k="addr:housenumber" v="4308"/><tag k="coa:place_id" v="223584"/></node><node id="-126" lat="30.168087" lon="-97.868435" changeset="false"><tag k="addr:street" v="Denim Trail"/><tag k="addr:housenumber" v="3902"/><tag k="coa:place_id" v="78100"/></node><node id="-127" lat="30.166328" lon="-97.868794" changeset="false"><tag k="addr:street" v="Frodo Cove"/><tag k="addr:housenumber" v="3806"/><tag k="coa:place_id" v="78080"/></node><node id="-128" lat="30.153703" lon="-97.865562" changeset="false"><tag k="addr:street" v="Bear Hollow Cove"/><tag k="addr:housenumber" v="12400"/><tag k="coa:place_id" v="73816"/></node><node id="-129" lat="30.153655" lon="-97.867062" changeset="false"><tag k="addr:street" v="Barker Hollow Pass"/><tag k="addr:housenumber" v="3312"/><tag k="coa:place_id" v="73824"/></node><node id="-130" lat="30.160137" lon="-97.868561" changeset="false"><tag k="addr:street" v="Corner Brook Pass"/><tag k="addr:housenumber" v="11908"/><tag k="coa:place_id" v="53580"/></node><node id="-131" lat="30.151582" lon="-97.880617" changeset="false"><tag k="addr:street" v="Bliss Spillar Road,1100"/><tag k="addr:housenumber" v="3830"/><tag k="coa:place_id" v="3032369"/></node><node id="-132" lat="30.147753" lon="-97.879155" changeset="false"><tag k="addr:street" v="Bliss Spillar Road,1100"/><tag k="addr:housenumber" v="3801"/><tag k="coa:place_id" v="93655"/></node><node id="-133" lat="30.159102" lon="-97.867037" changeset="false"><tag k="addr:street" v="Corner Brook Pass"/><tag k="addr:housenumber" v="12005"/><tag k="coa:place_id" v="53583"/></node><node id="-134" lat="30.164655" lon="-97.868409" changeset="false"><tag k="addr:street" v="Baggins Cove"/><tag k="addr:housenumber" v="3803"/><tag k="coa:place_id" v="78082"/></node><node id="-135" lat="30.157596" lon="-97.864061" changeset="false"><tag k="addr:street" v="Onion Hollow Cove"/><tag k="addr:housenumber" v="3303"/><tag k="coa:place_id" v="88935"/></node><node id="-136" lat="30.148537" lon="-97.860316" changeset="false"><tag k="addr:street" v="Frate Barker Road"/><tag k="addr:housenumber" v="2921"/><tag k="coa:place_id" v="3190258"/></node><node id="-137" lat="30.188724" lon="-97.922368" changeset="false"><tag k="addr:street" v="Levata Drive"/><tag k="addr:housenumber" v="7916"/><tag k="coa:place_id" v="3167305"/></node><node id="-138" lat="30.188217" lon="-97.9234" changeset="false"><tag k="addr:street" v="Pepperidge Drive"/><tag k="addr:housenumber" v="12012"/><tag k="coa:place_id" v="3167364"/></node><node id="-139" lat="30.155286" lon="-97.87207" changeset="false"><tag k="addr:street" v="Black Mesa Hollow"/><tag k="addr:housenumber" v="3604"/><tag k="coa:place_id" v="71671"/></node><node id="-140" lat="30.155504" lon="-97.867818" changeset="false"><tag k="addr:street" v="Lost Oasis Hollow"/><tag k="addr:housenumber" v="3404"/><tag k="coa:place_id" v="71563"/></node><node id="-141" lat="30.185353" lon="-97.920505" changeset="false"><tag k="addr:street" v="Wisteria Valley Drive"/><tag k="addr:housenumber" v="7529"/><tag k="coa:place_id" v="3145006"/></node><node id="-142" lat="30.143322" lon="-97.854343" changeset="false"><tag k="addr:street" v="Bismark Drive"/><tag k="addr:housenumber" v="12624"/><tag k="coa:place_id" v="3295907"/></node><node id="-143" lat="30.159342" lon="-97.861562" changeset="false"><tag k="addr:street" v="Onion Hollow Run"/><tag k="addr:housenumber" v="11805"/><tag k="coa:place_id" v="61497"/></node><node id="-144" lat="30.158457" lon="-97.86147" changeset="false"><tag k="addr:street" v="Edwards Hollow Run"/><tag k="addr:housenumber" v="11904"/><tag k="coa:place_id" v="71595"/></node><node id="-145" lat="30.161762" lon="-97.872378" changeset="false"><tag k="addr:street" v="Red Hawk Cove"/><tag k="addr:housenumber" v="12002"/><tag k="coa:place_id" v="53549"/></node><node id="-146" lat="30.16001" lon="-97.866904" changeset="false"><tag k="addr:street" v="Lost Pine Cove"/><tag k="addr:housenumber" v="3501"/><tag k="coa:place_id" v="53564"/></node><node id="-147" lat="30.151617" lon="-97.866458" changeset="false"><tag k="addr:street" v="Bears Den Court"/><tag k="addr:housenumber" v="12504"/><tag k="coa:place_id" v="73811"/></node><node id="-148" lat="30.164267" lon="-97.868744" changeset="false"><tag k="addr:street" v="Middle Earth Trail"/><tag k="addr:housenumber" v="3706"/><tag k="coa:place_id" v="78090"/></node><node id="-149" lat="30.163751" lon="-97.869223" changeset="false"><tag k="addr:street" v="Silkwood Cove"/><tag k="addr:housenumber" v="11800"/><tag k="coa:place_id" v="118273"/></node><node id="-150" lat="30.147904" lon="-97.8749" changeset="false"><tag k="addr:street" v="Bliss Spillar Road,1100"/><tag k="addr:housenumber" v="3503"/><tag k="coa:place_id" v="3257808"/></node><node id="-151" lat="30.157767" lon="-97.870757" changeset="false"><tag k="addr:street" v="Ebony Hollow Cove"/><tag k="addr:housenumber" v="3711"/><tag k="coa:place_id" v="53559"/></node><node id="-152" lat="30.144206" lon="-97.876046" changeset="false"><tag k="addr:street" v="Cattleman Drive"/><tag k="addr:housenumber" v="3501"/><tag k="coa:place_id" v="3257765"/></node><node id="-153" lat="30.146542" lon="-97.877048" changeset="false"><tag k="addr:street" v="Turkey Roost Road"/><tag k="addr:housenumber" v="13203"/><tag k="coa:place_id" v="3257792"/></node><node id="-154" lat="30.145639" lon="-97.874888" changeset="false"><tag k="addr:street" v="Bliss Spillar Road,1100"/><tag k="addr:housenumber" v="3425"/><tag k="coa:place_id" v="3257872"/></node><node id="-155" lat="30.145694" lon="-97.87706" changeset="false"><tag k="addr:street" v="Turkey Roost Road"/><tag k="addr:housenumber" v="13209"/><tag k="coa:place_id" v="3257795"/></node><node id="-156" lat="30.174072" lon="-97.867203" changeset="false"><tag k="addr:street" v="Kellywood Drive"/><tag k="addr:housenumber" v="4200"/><tag k="coa:place_id" v="3391956"/></node><node id="-157" lat="30.1417" lon="-97.852047" changeset="false"><tag k="addr:street" v="Bismark Drive"/><tag k="addr:housenumber" v="12812"/><tag k="coa:place_id" v="3499000"/></node><node id="-158" lat="30.155778" lon="-97.867" changeset="false"><tag k="addr:street" v="Lost Oasis Hollow"/><tag k="addr:housenumber" v="3324"/><tag k="coa:place_id" v="71561"/></node><node id="-159" lat="30.146161" lon="-97.876348" changeset="false"><tag k="addr:street" v="Fencerail Road"/><tag k="addr:housenumber" v="13116"/><tag k="coa:place_id" v="3257815"/></node><node id="-160" lat="30.146713" lon="-97.875558" changeset="false"><tag k="addr:street" v="Fencerail Road"/><tag k="addr:housenumber" v="13105"/><tag k="coa:place_id" v="3257823"/></node><node id="-161" lat="30.146197" lon="-97.875526" changeset="false"><tag k="addr:street" v="Fencerail Road"/><tag k="addr:housenumber" v="13117"/><tag k="coa:place_id" v="3257826"/></node><node id="-162" lat="30.136817" lon="-97.862057" changeset="false"><tag k="addr:street" v="Bliss Spillar Road,1100"/><tag k="addr:housenumber" v="2701"/><tag k="coa:place_id" v="5112583"/></node><node id="-163" lat="30.14354" lon="-97.850568" changeset="false"><tag k="addr:street" v="Turtle Mountain Bend"/><tag k="addr:housenumber" v="2300"/><tag k="coa:place_id" v="3295879"/></node><node id="-164" lat="30.144575" lon="-97.855221" changeset="false"><tag k="addr:street" v="Bismark Drive"/><tag k="addr:housenumber" v="12528"/><tag k="coa:place_id" v="3295927"/></node><node id="-165" lat="30.142843" lon="-97.854003" changeset="false"><tag k="addr:street" v="Bismark Drive"/><tag k="addr:housenumber" v="12700"/><tag k="coa:place_id" v="3295916"/></node><node id="-166" lat="30.148838" lon="-97.852741" changeset="false"><tag k="addr:street" v="Frate Barker Road"/><tag k="addr:housenumber" v="2645"/><tag k="coa:place_id" v="3298177"/></node><node id="-167" lat="30.154308" lon="-97.864951" changeset="false"><tag k="addr:street" v="Edwards Hollow Cove"/><tag k="addr:housenumber" v="3207"/><tag k="coa:place_id" v="71589"/></node><node id="-168" lat="30.186212" lon="-97.919497" changeset="false"><tag k="addr:street" v="Jaborandi Drive"/><tag k="addr:housenumber" v="7324"/><tag k="coa:place_id" v="3145057"/></node><node id="-169" lat="30.156422" lon="-97.874042" changeset="false"><tag k="addr:street" v="Red Mesa Hollow"/><tag k="addr:housenumber" v="12400"/><tag k="coa:place_id" v="71660"/></node><node id="-170" lat="30.155755" lon="-97.864385" changeset="false"><tag k="addr:street" v="Lost Oasis Hollow"/><tag k="addr:housenumber" v="3309"/><tag k="coa:place_id" v="71649"/></node><node id="-171" lat="30.161095" lon="-97.863444" changeset="false"><tag k="addr:street" v="Green Emerald Terrace"/><tag k="addr:housenumber" v="3407"/><tag k="coa:place_id" v="61476"/></node><node id="-172" lat="30.162115" lon="-97.871944" changeset="false"><tag k="addr:street" v="Red Hawk Cove"/><tag k="addr:housenumber" v="12000"/><tag k="coa:place_id" v="53548"/></node><node id="-173" lat="30.159335" lon="-97.862503" changeset="false"><tag k="addr:street" v="Onion Hollow Run"/><tag k="addr:housenumber" v="11809"/><tag k="coa:place_id" v="61499"/></node><node id="-174" lat="30.156758" lon="-97.865238" changeset="false"><tag k="addr:street" v="Onion Hollow Run"/><tag k="addr:housenumber" v="12100"/><tag k="coa:place_id" v="71641"/></node><node id="-175" lat="30.160031" lon="-97.869562" changeset="false"><tag k="addr:street" v="Ebony Hollow Pass"/><tag k="addr:housenumber" v="3708"/><tag k="coa:place_id" v="53574"/></node><node id="-176" lat="30.159679" lon="-97.872211" changeset="false"><tag k="addr:street" v="Lost Cavern Cove"/><tag k="addr:housenumber" v="3802"/><tag k="coa:place_id" v="53551"/></node><node id="-177" lat="30.172377" lon="-97.867507" changeset="false"><tag k="addr:street" v="Reynosa Drive"/><tag k="addr:housenumber" v="4107"/><tag k="coa:place_id" v="67807"/></node><node id="-178" lat="30.187454" lon="-97.923708" changeset="false"><tag k="addr:street" v="Pepperidge Drive"/><tag k="addr:housenumber" v="12032"/><tag k="coa:place_id" v="3167369"/></node><node id="-179" lat="30.166751" lon="-97.868106" changeset="false"><tag k="addr:street" v="Silmarillion Trail"/><tag k="addr:housenumber" v="11522"/><tag k="coa:place_id" v="68998"/></node><node id="-180" lat="30.15022" lon="-97.874426" changeset="false"><tag k="addr:street" v="Bliss Spillar Road,1100"/><tag k="addr:housenumber" v="3500"/><tag k="coa:place_id" v="173691"/></node><node id="-181" lat="30.143641" lon="-97.854645" changeset="false"><tag k="addr:street" v="Bismark Drive"/><tag k="addr:housenumber" v="12616"/><tag k="coa:place_id" v="3295906"/></node><node id="-182" lat="30.168235" lon="-97.873509" changeset="false"><tag k="addr:street" v="Lost Oasis Hollow"/><tag k="addr:housenumber" v="4300"/><tag k="coa:place_id" v="223589"/></node><node id="-183" lat="30.184987" lon="-97.920444" changeset="false"><tag k="addr:street" v="Espina Drive"/><tag k="addr:housenumber" v="7612"/><tag k="coa:place_id" v="3144995"/></node><node id="-184" lat="30.150792" lon="-97.863954" changeset="false"><tag k="addr:street" v="River Rock Court"/><tag k="addr:housenumber" v="12505"/><tag k="coa:place_id" v="73805"/></node><node id="-185" lat="30.188457" lon="-97.921854" changeset="false"><tag k="addr:street" v="Levata Drive"/><tag k="addr:housenumber" v="7904"/><tag k="coa:place_id" v="3167302"/></node><node id="-186" lat="30.147699" lon="-97.880099" changeset="false"><tag k="addr:street" v="Bliss Spillar Road,1100"/><tag k="addr:housenumber" v="3805"/><tag k="coa:place_id" v="93659"/></node><node id="-187" lat="30.161107" lon="-97.864826" changeset="false"><tag k="addr:street" v="Green Emerald Terrace"/><tag k="addr:housenumber" v="3505"/><tag k="coa:place_id" v="3132958"/></node><node id="-188" lat="30.15408" lon="-97.873608" changeset="false"><tag k="addr:street" v="Red Mesa Hollow"/><tag k="addr:housenumber" v="12507"/><tag k="coa:place_id" v="71667"/></node><node id="-189" lat="30.145892" lon="-97.877851" changeset="false"><tag k="addr:street" v="Turkey Roost Road"/><tag k="addr:housenumber" v="13206"/><tag k="coa:place_id" v="3257783"/></node><node id="-190" lat="30.14794" lon="-97.877077" changeset="false"><tag k="addr:street" v="Turkey Roost Road"/><tag k="addr:housenumber" v="13101"/><tag k="coa:place_id" v="3257785"/></node><node id="-191" lat="30.147635" lon="-97.877094" changeset="false"><tag k="addr:street" v="Turkey Roost Road"/><tag k="addr:housenumber" v="13103"/><tag k="coa:place_id" v="3257786"/></node><node id="-192" lat="30.147366" lon="-97.877101" changeset="false"><tag k="addr:street" v="Turkey Roost Road"/><tag k="addr:housenumber" v="13105"/><tag k="coa:place_id" v="3257787"/></node><node id="-193" lat="30.146544" lon="-97.85945" changeset="false"><tag k="addr:street" v="Frate Barker Road"/><tag k="addr:housenumber" v="2825"/><tag k="coa:place_id" v="3188389"/></node><node id="-194" lat="30.162117" lon="-97.868125" changeset="false"><tag k="addr:street" v="Green Emerald Terrace"/><tag k="addr:housenumber" v="3700"/><tag k="coa:place_id" v="133825"/></node><node id="-195" lat="30.148504" lon="-97.876813" changeset="false"><tag k="addr:street" v="Bliss Spillar Road,1100"/><tag k="addr:housenumber" v="3610"/><tag k="coa:place_id" v="3257800"/></node><node id="-196" lat="30.147875" lon="-97.875954" changeset="false"><tag k="addr:street" v="Bliss Spillar Road,1100"/><tag k="addr:housenumber" v="3601"/><tag k="coa:place_id" v="3257803"/></node><node id="-197" lat="30.188337" lon="-97.920668" changeset="false"><tag k="addr:street" v="Cherisse Drive"/><tag k="addr:housenumber" v="11900"/><tag k="coa:place_id" v="3222382"/></node><node id="-198" lat="30.147242" lon="-97.874867" changeset="false"><tag k="addr:street" v="Bliss Spillar Road,1100"/><tag k="addr:housenumber" v="3445"/><tag k="coa:place_id" v="3257806"/></node><node id="-199" lat="30.156288" lon="-97.865112" changeset="false"><tag k="addr:street" v="Lost Oasis Hollow"/><tag k="addr:housenumber" v="3310"/><tag k="coa:place_id" v="3087587"/></node><node id="-200" lat="30.15748" lon="-97.869403" changeset="false"><tag k="addr:street" v="Corner Brook Cove"/><tag k="addr:housenumber" v="3504"/><tag k="coa:place_id" v="71585"/></node><node id="-201" lat="30.159726" lon="-97.869281" changeset="false"><tag k="addr:street" v="Ebony Hollow Pass"/><tag k="addr:housenumber" v="3704"/><tag k="coa:place_id" v="53573"/></node><node id="-202" lat="30.154544" lon="-97.863631" changeset="false"><tag k="addr:street" v="Edwards Hollow Cove"/><tag k="addr:housenumber" v="3203"/><tag k="coa:place_id" v="128898"/></node><node id="-203" lat="30.146632" lon="-97.878556" changeset="false"><tag k="addr:street" v="Eagle Pass Road"/><tag k="addr:housenumber" v="3605"/><tag k="coa:place_id" v="3257773"/></node><node id="-204" lat="30.18886" lon="-97.924949" changeset="false"><tag k="addr:street" v="Wisteria Valley Drive"/><tag k="addr:housenumber" v="7921"/><tag k="coa:place_id" v="3274349"/></node><node id="-205" lat="30.147706" lon="-97.87786" changeset="false"><tag k="addr:street" v="Turkey Roost Road"/><tag k="addr:housenumber" v="13102"/><tag k="coa:place_id" v="3257777"/></node><node id="-206" lat="30.14824" lon="-97.848608" changeset="false"><tag k="addr:street" v="Claret Cove"/><tag k="addr:housenumber" v="2409"/><tag k="coa:place_id" v="3330120"/></node><node id="-207" lat="30.148801" lon="-97.84864" changeset="false"><tag k="addr:street" v="Claret Cove"/><tag k="addr:housenumber" v="2400"/><tag k="coa:place_id" v="3330115"/></node><node id="-208" lat="30.184555" lon="-97.922036" changeset="false"><tag k="addr:street" v="Meridian Park Boulevard"/><tag k="addr:housenumber" v="12225 1/2"/><tag k="coa:place_id" v="3279272"/></node><node id="-209" lat="30.15935" lon="-97.869001" changeset="false"><tag k="addr:street" v="Ebony Hollow Pass"/><tag k="addr:housenumber" v="3700"/><tag k="coa:place_id" v="53572"/></node><node id="-210" lat="30.141066" lon="-97.851048" changeset="false"><tag k="addr:street" v="Bismark Drive"/><tag k="addr:housenumber" v="12920"/><tag k="coa:place_id" v="3499006"/></node><node id="-211" lat="30.141222" lon="-97.850078" changeset="false"><tag k="addr:street" v="Bismark Drive"/><tag k="addr:housenumber" v="13020"/><tag k="coa:place_id" v="3499012"/></node><node id="-212" lat="30.14159" lon="-97.85105" changeset="false"><tag k="addr:street" v="Bismark Drive"/><tag k="addr:housenumber" v="12913"/><tag k="coa:place_id" v="3499017"/></node><node id="-213" lat="30.188984" lon="-97.922842" changeset="false"><tag k="addr:street" v="Levata Drive"/><tag k="addr:housenumber" v="8004"/><tag k="coa:place_id" v="3167099"/></node><node id="-214" lat="30.14699" lon="-97.853235" changeset="false"><tag k="addr:street" v="Bear Springs Trail"/><tag k="addr:housenumber" v="2504"/><tag k="coa:place_id" v="5000510"/></node><node id="-215" lat="30.145256" lon="-97.854494" changeset="false"><tag k="addr:street" v="Bismark Drive"/><tag k="addr:housenumber" v="12521"/><tag k="coa:place_id" v="3295928"/></node><node id="-216" lat="30.160326" lon="-97.872646" changeset="false"><tag k="addr:street" v="Green Emerald Terrace"/><tag k="addr:housenumber" v="3909"/><tag k="coa:place_id" v="57064"/></node><node id="-217" lat="30.165243" lon="-97.869753" changeset="false"><tag k="addr:street" v="Hobbiton Trail"/><tag k="addr:housenumber" v="11709"/><tag k="coa:place_id" v="78129"/></node><node id="-218" lat="30.158646" lon="-97.867217" changeset="false"><tag k="addr:street" v="Corner Brook Pass"/><tag k="addr:housenumber" v="12009"/><tag k="coa:place_id" v="71581"/></node><node id="-219" lat="30.138688" lon="-97.863704" changeset="false"><tag k="addr:street" v="Bliss Spillar Road,1100"/><tag k="addr:housenumber" v="2800"/><tag k="coa:place_id" v="3151235"/></node><node id="-220" lat="30.160173" lon="-97.862031" changeset="false"><tag k="addr:street" v="Onion Hollow Run"/><tag k="addr:housenumber" v="11802"/><tag k="coa:place_id" v="61489"/></node><node id="-221" lat="30.153308" lon="-97.866356" changeset="false"><tag k="addr:street" v="Bear Hollow Cove"/><tag k="addr:housenumber" v="12404"/><tag k="coa:place_id" v="121606"/></node><node id="-222" lat="30.142406" lon="-97.849114" changeset="false"><tag k="addr:street" v="Turtle Mountain Bend"/><tag k="addr:housenumber" v="2121"/><tag k="coa:place_id" v="3295855"/></node><node id="-223" lat="30.154102" lon="-97.870615" changeset="false"><tag k="addr:street" v="Black Mesa Cove"/><tag k="addr:housenumber" v="12505"/><tag k="coa:place_id" v="71676"/></node><node id="-224" lat="30.149868" lon="-97.864766" changeset="false"><tag k="addr:street" v="River Rock Court"/><tag k="addr:housenumber" v="12513"/><tag k="coa:place_id" v="73808"/></node><node id="-225" lat="30.14963" lon="-97.862897" changeset="false"><tag k="addr:street" v="Edwards Hollow Run"/><tag k="addr:housenumber" v="12508"/><tag k="coa:place_id" v="61465"/></node><node id="-226" lat="30.159191" lon="-97.871388" changeset="false"><tag k="addr:street" v="Lost Cavern Cove"/><tag k="addr:housenumber" v="3801"/><tag k="coa:place_id" v="53553"/></node><node id="-227" lat="30.156068" lon="-97.869824" changeset="false"><tag k="addr:street" v="Lost Oasis Hollow"/><tag k="addr:housenumber" v="3504"/><tag k="coa:place_id" v="69378"/></node><node id="-228" lat="30.166361" lon="-97.868037" changeset="false"><tag k="addr:street" v="Frodo Cove"/><tag k="addr:housenumber" v="3800"/><tag k="coa:place_id" v="68906"/></node><node id="-229" lat="30.178347" lon="-97.870968" changeset="false"><tag k="addr:street" v="Wyldwood Road"/><tag k="addr:housenumber" v="4310"/><tag k="coa:place_id" v="155217"/></node><node id="-230" lat="30.157226" lon="-97.86511" changeset="false"><tag k="addr:street" v="Onion Hollow Run"/><tag k="addr:housenumber" v="12008"/><tag k="coa:place_id" v="71642"/></node><node id="-231" lat="30.156996" lon="-97.864124" changeset="false"><tag k="addr:street" v="Onion Hollow Run"/><tag k="addr:housenumber" v="12005"/><tag k="coa:place_id" v="71645"/></node><node id="-232" lat="30.167958" lon="-97.870458" changeset="false"><tag k="addr:street" v="Hobbiton Trail"/><tag k="addr:housenumber" v="11500"/><tag k="coa:place_id" v="117569"/></node><node id="-233" lat="30.145937" lon="-97.856951" changeset="false"><tag k="addr:street" v="Bear Springs Trail"/><tag k="addr:housenumber" v="2800"/><tag k="coa:place_id" v="3295941"/></node><node id="-234" lat="30.164248" lon="-97.869095" changeset="false"><tag k="addr:street" v="Middle Earth Trail"/><tag k="addr:housenumber" v="3800"/><tag k="coa:place_id" v="78091"/></node><node id="-235" lat="30.151144" lon="-97.862645" changeset="false"><tag k="addr:street" v="Edwards Hollow Run"/><tag k="addr:housenumber" v="12408"/><tag k="coa:place_id" v="61469"/></node><node id="-236" lat="30.155545" lon="-97.868458" changeset="false"><tag k="addr:street" v="Corner Brook Pass"/><tag k="addr:housenumber" v="12309"/><tag k="coa:place_id" v="3087506"/></node><node id="-237" lat="30.152363" lon="-97.86661" changeset="false"><tag k="addr:street" v="Barker Hollow Pass"/><tag k="addr:housenumber" v="3305"/><tag k="coa:place_id" v="73827"/></node><node id="-238" lat="30.152179" lon="-97.864646" changeset="false"><tag k="addr:street" v="Barker Hollow Pass"/><tag k="addr:housenumber" v="3212"/><tag k="coa:place_id" v="73823"/></node><node id="-239" lat="30.152151" lon="-97.864206" changeset="false"><tag k="addr:street" v="Barker Hollow Pass"/><tag k="addr:housenumber" v="3208"/><tag k="coa:place_id" v="73822"/></node><node id="-240" lat="30.155958" lon="-97.868298" changeset="false"><tag k="addr:street" v="Corner Brook Pass"/><tag k="addr:housenumber" v="12305"/><tag k="coa:place_id" v="71574"/></node><node id="-241" lat="30.17548" lon="-97.867661" changeset="false"><tag k="addr:street" v="Wyldwood Road"/><tag k="addr:housenumber" v="4301"/><tag k="coa:place_id" v="1150607"/></node><node id="-242" lat="30.162544" lon="-97.87039" changeset="false"><tag k="addr:street" v="Hobbiton Trail"/><tag k="addr:housenumber" v="11900"/><tag k="coa:place_id" v="78124"/></node><node id="-243" lat="30.146419" lon="-97.876356" changeset="false"><tag k="addr:street" v="Fencerail Road"/><tag k="addr:housenumber" v="13114"/><tag k="coa:place_id" v="3257814"/></node><node id="-244" lat="30.148547" lon="-97.862632" changeset="false"><tag k="addr:street" v="Edwards Hollow Run"/><tag k="addr:housenumber" v="12512"/><tag k="coa:place_id" v="3200473"/></node><node id="-245" lat="30.157103" lon="-97.867799" changeset="false"><tag k="addr:street" v="Corner Brook Pass"/><tag k="addr:housenumber" v="12201"/><tag k="coa:place_id" v="71577"/></node><node id="-246" lat="30.161539" lon="-97.871273" changeset="false"><tag k="addr:street" v="Green Emerald Terrace"/><tag k="addr:housenumber" v="3808"/><tag k="coa:place_id" v="129305"/></node><node id="-247" lat="30.161118" lon="-97.867261" changeset="false"><tag k="addr:street" v="Green Emerald Terrace"/><tag k="addr:housenumber" v="3607"/><tag k="coa:place_id" v="53586"/></node><node id="-248" lat="30.141498" lon="-97.847255" changeset="false"><tag k="addr:street" v="Brodie Lane"/><tag k="addr:housenumber" v="12610"/><tag k="coa:place_id" v="232864"/></node><node id="-249" lat="30.188994" lon="-97.920979" changeset="false"><tag k="addr:street" v="Alophia Drive"/><tag k="addr:housenumber" v="7816"/><tag k="coa:place_id" v="3167265"/></node><node id="-250" lat="30.146168" lon="-97.874889" changeset="false"><tag k="addr:street" v="Bliss Spillar Road,1100"/><tag k="addr:housenumber" v="3431"/><tag k="coa:place_id" v="3257874"/></node><node id="-251" lat="30.189265" lon="-97.922538" changeset="false"><tag k="addr:street" v="Alophia Drive"/><tag k="addr:housenumber" v="8009"/><tag k="coa:place_id" v="3274400"/></node><node id="-252" lat="30.175324" lon="-97.865725" changeset="false"><tag k="addr:street" v="Wyldwood Road"/><tag k="addr:housenumber" v="4117"/><tag k="coa:place_id" v="3375015"/></node><node id="-253" lat="30.190272" lon="-97.922701" changeset="false"><tag k="addr:street" v="Cherisse Drive"/><tag k="addr:housenumber" v="11604"/><tag k="coa:place_id" v="3274370"/></node><node id="-254" lat="30.145867" lon="-97.876346" changeset="false"><tag k="addr:street" v="Fencerail Road"/><tag k="addr:housenumber" v="13200"/><tag k="coa:place_id" v="3257817"/></node><node id="-255" lat="30.145072" lon="-97.876321" changeset="false"><tag k="addr:street" v="Fencerail Road"/><tag k="addr:housenumber" v="13206"/><tag k="coa:place_id" v="3257820"/></node><node id="-256" lat="30.145084" lon="-97.874858" changeset="false"><tag k="addr:street" v="Bliss Spillar Road,1100"/><tag k="addr:housenumber" v="3415"/><tag k="coa:place_id" v="3257869"/></node><node id="-257" lat="30.145368" lon="-97.87489" changeset="false"><tag k="addr:street" v="Bliss Spillar Road,1100"/><tag k="addr:housenumber" v="3419"/><tag k="coa:place_id" v="3257870"/></node><node id="-258" lat="30.188391" lon="-97.926777" changeset="false"><tag k="addr:street" v="Cherisse Drive"/><tag k="addr:housenumber" v="11305"/><tag k="coa:place_id" v="3315689"/></node><node id="-259" lat="30.185502" lon="-97.923824" changeset="false"><tag k="addr:street" v="Alophia Drive"/><tag k="addr:housenumber" v="8624"/><tag k="coa:place_id" v="3315650"/></node><node id="-260" lat="30.187267" lon="-97.926006" changeset="false"><tag k="addr:street" v="Cherisse Drive"/><tag k="addr:housenumber" v="11125"/><tag k="coa:place_id" v="3315657"/></node><node id="-261" lat="30.186257" lon="-97.925578" changeset="false"><tag k="addr:street" v="Cherisse Drive"/><tag k="addr:housenumber" v="11037"/><tag k="coa:place_id" v="3315638"/></node><node id="-262" lat="30.189666" lon="-97.923324" changeset="false"><tag k="addr:street" v="Alophia Drive"/><tag k="addr:housenumber" v="8101"/><tag k="coa:place_id" v="3274406"/></node><node id="-263" lat="30.18531" lon="-97.924733" changeset="false"><tag k="addr:street" v="Cherisse Drive"/><tag k="addr:housenumber" v="11005"/><tag k="coa:place_id" v="3315621"/></node><node id="-264" lat="30.141299" lon="-97.851366" changeset="false"><tag k="addr:street" v="Bismark Drive"/><tag k="addr:housenumber" v="12912"/><tag k="coa:place_id" v="3499004"/></node><node id="-265" lat="30.140802" lon="-97.85075" changeset="false"><tag k="addr:street" v="Bismark Drive"/><tag k="addr:housenumber" v="13004"/><tag k="coa:place_id" v="3499008"/></node><node id="-266" lat="30.148707" lon="-97.879217" changeset="false"><tag k="addr:street" v="Bliss Spillar Road,1100"/><tag k="addr:housenumber" v="3800"/><tag k="coa:place_id" v="3390539"/></node><node id="-267" lat="30.172108" lon="-97.869638" changeset="false"><tag k="addr:street" v="Stormy Ridge Road"/><tag k="addr:housenumber" v="11324"/><tag k="coa:place_id" v="67819"/></node><node id="-268" lat="30.185137" lon="-97.921793" changeset="false"><tag k="addr:street" v="Meridian Park Boulevard"/><tag k="addr:housenumber" v="12201"/><tag k="coa:place_id" v="3215889"/></node><node id="-269" lat="30.154395" lon="-97.874591" changeset="false"><tag k="addr:street" v="Red Mesa Hollow"/><tag k="addr:housenumber" v="12512"/><tag k="coa:place_id" v="3151234"/></node><node id="-270" lat="30.154239" lon="-97.869369" changeset="false"><tag k="addr:street" v="Barker Hollow Cove"/><tag k="addr:housenumber" v="12404"/><tag k="coa:place_id" v="88930"/></node><node id="-271" lat="30.161995" lon="-97.87146" changeset="false"><tag k="addr:street" v="Red Hawk Cove"/><tag k="addr:housenumber" v="12001"/><tag k="coa:place_id" v="53547"/></node><node id="-272" lat="30.161663" lon="-97.873009" changeset="false"><tag k="addr:street" v="Lost Oasis Hollow"/><tag k="addr:housenumber" v="4004"/><tag k="coa:place_id" v="53603"/></node><node id="-273" lat="30.161668" lon="-97.873988" changeset="false"><tag k="addr:street" v="Lost Oasis Hollow"/><tag k="addr:housenumber" v="4005"/><tag k="coa:place_id" v="53598"/></node><node id="-274" lat="30.161072" lon="-97.862976" changeset="false"><tag k="addr:street" v="Green Emerald Terrace"/><tag k="addr:housenumber" v="3405"/><tag k="coa:place_id" v="61477"/></node><node id="-275" lat="30.167461" lon="-97.874268" changeset="false"><tag k="addr:street" v="Lost Oasis Hollow"/><tag k="addr:housenumber" v="4225"/><tag k="coa:place_id" v="223573"/></node><node id="-276" lat="30.171296" lon="-97.868618" changeset="false"><tag k="addr:street" v="Aldama Drive"/><tag k="addr:housenumber" v="4108"/><tag k="coa:place_id" v="67851"/></node><node id="-277" lat="30.138195" lon="-97.854993" changeset="false"><tag k="addr:street" v="Bliss Spillar Road,1100"/><tag k="addr:housenumber" v="2310"/><tag k="coa:place_id" v="235953"/></node><node id="-278" lat="30.162594" lon="-97.868079" changeset="false"><tag k="addr:street" v="Silmarillion Trail"/><tag k="addr:housenumber" v="11804"/><tag k="coa:place_id" v="78149"/></node><node id="-279" lat="30.160902" lon="-97.861716" changeset="false"><tag k="addr:street" v="Onion Hollow Run"/><tag k="addr:housenumber" v="11704"/><tag k="coa:place_id" v="61490"/></node><node id="-280" lat="30.141793" lon="-97.852178" changeset="false"><tag k="addr:street" v="Bismark Drive"/><tag k="addr:housenumber" v="12808"/><tag k="coa:place_id" v="3498999"/></node><node id="-281" lat="30.141512" lon="-97.851724" changeset="false"><tag k="addr:street" v="Bismark Drive"/><tag k="addr:housenumber" v="12904"/><tag k="coa:place_id" v="3499002"/></node><node id="-282" lat="30.146739" lon="-97.874895" changeset="false"><tag k="addr:street" v="Bliss Spillar Road,1100"/><tag k="addr:housenumber" v="3439"/><tag k="coa:place_id" v="3257876"/></node><node id="-283" lat="30.171937" lon="-97.870629" changeset="false"><tag k="addr:street" v="Esperanza Drive"/><tag k="addr:housenumber" v="11304"/><tag k="coa:place_id" v="67859"/></node><node id="-284" lat="30.153016" lon="-97.865036" changeset="false"><tag k="addr:street" v="Bear Hollow Cove"/><tag k="addr:housenumber" v="12403"/><tag k="coa:place_id" v="73819"/></node><node id="-285" lat="30.176384" lon="-97.863835" changeset="false"><tag k="addr:street" v="Wyldwood Road"/><tag k="addr:housenumber" v="4016"/><tag k="coa:place_id" v="3355253"/></node><node id="-286" lat="30.144599" lon="-97.854128" changeset="false"><tag k="addr:street" v="Bismark Drive"/><tag k="addr:housenumber" v="12601"/><tag k="coa:place_id" v="3295922"/></node><node id="-287" lat="30.189591" lon="-97.923961" changeset="false"><tag k="addr:street" v="Alophia Drive"/><tag k="addr:housenumber" v="8117"/><tag k="coa:place_id" v="3274411"/></node><node id="-288" lat="30.147428" lon="-97.877863" changeset="false"><tag k="addr:street" v="Turkey Roost Road"/><tag k="addr:housenumber" v="13104"/><tag k="coa:place_id" v="3257778"/></node><node id="-289" lat="30.188447" lon="-97.91939" changeset="false"><tag k="addr:street" v="Meridian Park Boulevard"/><tag k="addr:housenumber" v="11825 1/2"/><tag k="coa:place_id" v="3213004"/></node><node id="-290" lat="30.187126" lon="-97.920431" changeset="false"><tag k="addr:street" v="Meridian Park Boulevard"/><tag k="addr:housenumber" v="12015 1/2"/><tag k="coa:place_id" v="3213005"/></node><node id="-291" lat="30.175301" lon="-97.865043" changeset="false"><tag k="addr:street" v="Wyldwood Road"/><tag k="addr:housenumber" v="4107"/><tag k="coa:place_id" v="3375014"/></node><node id="-292" lat="30.185759" lon="-97.925003" changeset="false"><tag k="addr:street" v="Cherisse Drive"/><tag k="addr:housenumber" v="11021"/><tag k="coa:place_id" v="3315634"/></node><node id="-293" lat="30.158103" lon="-97.869853" changeset="false"><tag k="addr:street" v="Ebony Hollow Cove"/><tag k="addr:housenumber" v="3705"/><tag k="coa:place_id" v="53561"/></node><node id="-294" lat="30.157741" lon="-97.863539" changeset="false"><tag k="addr:street" v="Onion Hollow Cove"/><tag k="addr:housenumber" v="3301"/><tag k="coa:place_id" v="71648"/></node><node id="-295" lat="30.167632" lon="-97.870454" changeset="false"><tag k="addr:street" v="Hobbiton Trail"/><tag k="addr:housenumber" v="11502"/><tag k="coa:place_id" v="78106"/></node><node id="-296" lat="30.147959" lon="-97.877868" changeset="false"><tag k="addr:street" v="Turkey Roost Road"/><tag k="addr:housenumber" v="13100"/><tag k="coa:place_id" v="3257776"/></node><node id="-297" lat="30.136164" lon="-97.855749" changeset="false"><tag k="addr:street" v="Bliss Spillar Road,1100"/><tag k="addr:housenumber" v="2324 1/2"/><tag k="coa:place_id" v="5243845"/></node><node id="-298" lat="30.145305" lon="-97.856488" changeset="false"><tag k="addr:street" v="Bear Springs Trail"/><tag k="addr:housenumber" v="2717"/><tag k="coa:place_id" v="3295932"/></node><node id="-299" lat="30.17774" lon="-97.920549" changeset="false"><tag k="addr:street" v="Buvana Drive"/><tag k="addr:housenumber" v="12413"/><tag k="coa:place_id" v="3347435"/></node><node id="-300" lat="30.146811" lon="-97.852755" changeset="false"><tag k="addr:street" v="Bear Springs Trail"/><tag k="addr:housenumber" v="2501"/><tag k="coa:place_id" v="3393000"/></node><node id="-301" lat="30.146705" lon="-97.853127" changeset="false"><tag k="addr:street" v="Bear Springs Trail"/><tag k="addr:housenumber" v="2509"/><tag k="coa:place_id" v="3393002"/></node><node id="-302" lat="30.148075" lon="-97.848729" changeset="false"><tag k="addr:street" v="Claret Cove"/><tag k="addr:housenumber" v="2421"/><tag k="coa:place_id" v="3330123"/></node><node id="-303" lat="30.141192" lon="-97.851212" changeset="false"><tag k="addr:street" v="Bismark Drive"/><tag k="addr:housenumber" v="12916"/><tag k="coa:place_id" v="3499005"/></node><node id="-304" lat="30.141406" lon="-97.849761" changeset="false"><tag k="addr:street" v="Bismark Drive"/><tag k="addr:housenumber" v="13028"/><tag k="coa:place_id" v="3499014"/></node><node id="-305" lat="30.147117" lon="-97.853101" changeset="false"><tag k="addr:street" v="Bear Springs Trail"/><tag k="addr:housenumber" v="2500"/><tag k="coa:place_id" v="3393003"/></node><node id="-306" lat="30.188742" lon="-97.924813" changeset="false"><tag k="addr:street" v="Wisteria Valley Drive"/><tag k="addr:housenumber" v="7917"/><tag k="coa:place_id" v="3274348"/></node><node id="-307" lat="30.14174" lon="-97.84996" changeset="false"><tag k="addr:street" v="Bismark Drive"/><tag k="addr:housenumber" v="13029"/><tag k="coa:place_id" v="3499022"/></node><node id="-308" lat="30.140852" lon="-97.850507" changeset="false"><tag k="addr:street" v="Bismark Drive"/><tag k="addr:housenumber" v="13008"/><tag k="coa:place_id" v="3499009"/></node><node id="-309" lat="30.189308" lon="-97.924632" changeset="false"><tag k="addr:street" v="Alophia Drive"/><tag k="addr:housenumber" v="8209"/><tag k="coa:place_id" v="3274415"/></node><node id="-310" lat="30.187419" lon="-97.926077" changeset="false"><tag k="addr:street" v="Cherisse Drive"/><tag k="addr:housenumber" v="11129"/><tag k="coa:place_id" v="3315658"/></node><node id="-311" lat="30.174128" lon="-97.869108" changeset="false"><tag k="addr:street" v="Kellywood Drive"/><tag k="addr:housenumber" v="4300"/><tag k="coa:place_id" v="3389799"/></node><node id="-312" lat="30.190694" lon="-97.92284" changeset="false"><tag k="addr:street" v="Cherisse Drive"/><tag k="addr:housenumber" v="11529 1/2"/><tag k="coa:place_id" v="3300413"/></node><node id="-313" lat="30.173585" lon="-97.868698" changeset="false"><tag k="addr:street" v="Kellywood Drive"/><tag k="addr:housenumber" v="4217"/><tag k="coa:place_id" v="3283585"/></node><node id="-314" lat="30.146442" lon="-97.87554" changeset="false"><tag k="addr:street" v="Fencerail Road"/><tag k="addr:housenumber" v="13115"/><tag k="coa:place_id" v="3257825"/></node><node id="-315" lat="30.145656" lon="-97.875525" changeset="false"><tag k="addr:street" v="Fencerail Road"/><tag k="addr:housenumber" v="13203"/><tag k="coa:place_id" v="3257830"/></node><node id="-316" lat="30.148365" lon="-97.848582" changeset="false"><tag k="addr:street" v="Claret Cove"/><tag k="addr:housenumber" v="2401"/><tag k="coa:place_id" v="3330118"/></node><node id="-317" lat="30.148589" lon="-97.848698" changeset="false"><tag k="addr:street" v="Claret Cove"/><tag k="addr:housenumber" v="2408"/><tag k="coa:place_id" v="3330117"/></node><node id="-318" lat="30.144936" lon="-97.854317" changeset="false"><tag k="addr:street" v="Bismark Drive"/><tag k="addr:housenumber" v="12529"/><tag k="coa:place_id" v="3295929"/></node><node id="-319" lat="30.141562" lon="-97.850277" changeset="false"><tag k="addr:street" v="Bismark Drive"/><tag k="addr:housenumber" v="13021"/><tag k="coa:place_id" v="3499020"/></node><node id="-320" lat="30.141541" lon="-97.849128" changeset="false"><tag k="addr:street" v="Bismark Drive"/><tag k="addr:housenumber" v="13104"/><tag k="coa:place_id" v="3499038"/></node><node id="-321" lat="30.146755" lon="-97.852927" changeset="false"><tag k="addr:street" v="Bear Springs Trail"/><tag k="addr:housenumber" v="2505"/><tag k="coa:place_id" v="3393001"/></node><node id="-322" lat="30.151351" lon="-97.875561" changeset="false"><tag k="addr:street" v="Bliss Spillar Road,1100"/><tag k="addr:housenumber" v="3506"/><tag k="coa:place_id" v="5282462"/></node><node id="-323" lat="30.161916" lon="-97.870418" changeset="false"><tag k="addr:street" v="Green Emerald Terrace"/><tag k="addr:housenumber" v="3800"/><tag k="coa:place_id" v="3374926"/></node><node id="-324" lat="30.174044" lon="-97.866725" changeset="false"><tag k="addr:street" v="Kellywood Drive"/><tag k="addr:housenumber" v="4118"/><tag k="coa:place_id" v="3554303"/></node><node id="-325" lat="30.189783" lon="-97.920732" changeset="false"><tag k="addr:street" v="Cherisse Drive"/><tag k="addr:housenumber" v="11717"/><tag k="coa:place_id" v="3167120"/></node><node id="-326" lat="30.144792" lon="-97.876314" changeset="false"><tag k="addr:street" v="Cattleman Drive"/><tag k="addr:housenumber" v="3500"/><tag k="coa:place_id" v="3257821"/></node><node id="-327" lat="30.141656" lon="-97.85013" changeset="false"><tag k="addr:street" v="Bismark Drive"/><tag k="addr:housenumber" v="13025"/><tag k="coa:place_id" v="3499021"/></node><node id="-328" lat="30.155877" lon="-97.863803" changeset="false"><tag k="addr:street" v="Lost Oasis Hollow"/><tag k="addr:housenumber" v="3305"/><tag k="coa:place_id" v="71650"/></node><node id="-329" lat="30.146447" lon="-97.874872" changeset="false"><tag k="addr:street" v="Bliss Spillar Road,1100"/><tag k="addr:housenumber" v="3435"/><tag k="coa:place_id" v="3257875"/></node><node id="-330" lat="30.144221" lon="-97.875423" changeset="false"><tag k="addr:street" v="Cattleman Drive"/><tag k="addr:housenumber" v="3407"/><tag k="coa:place_id" v="3257878"/></node><node id="-331" lat="30.160137" lon="-97.860696" changeset="false"><tag k="addr:street" v="Onion Hollow Run"/><tag k="addr:housenumber" v="11713"/><tag k="coa:place_id" v="61493"/></node><node id="-332" lat="30.159681" lon="-97.860597" changeset="false"><tag k="addr:street" v="Onion Hollow Run"/><tag k="addr:housenumber" v="11717"/><tag k="coa:place_id" v="256216"/></node><node id="-333" lat="30.141021" lon="-97.850388" changeset="false"><tag k="addr:street" v="Bismark Drive"/><tag k="addr:housenumber" v="13012"/><tag k="coa:place_id" v="3499010"/></node><node id="-334" lat="30.14605" lon="-97.856482" changeset="false"><tag k="addr:street" v="Bear Springs Trail"/><tag k="addr:housenumber" v="2716"/><tag k="coa:place_id" v="3295935"/></node><node id="-335" lat="30.145245" lon="-97.857078" changeset="false"><tag k="addr:street" v="Bear Springs Trail"/><tag k="addr:housenumber" v="2801"/><tag k="coa:place_id" v="3295936"/></node><node id="-336" lat="30.189136" lon="-97.919102" changeset="false"><tag k="addr:street" v="Meridian Park Boulevard"/><tag k="addr:housenumber" v="11800 1/2"/><tag k="coa:place_id" v="3194568"/></node><node id="-337" lat="30.15713" lon="-97.869912" changeset="false"><tag k="addr:street" v="Corner Brook Cove"/><tag k="addr:housenumber" v="3506"/><tag k="coa:place_id" v="71584"/></node><node id="-338" lat="30.190048" lon="-97.922225" changeset="false"><tag k="addr:street" v="Cherisse Drive"/><tag k="addr:housenumber" v="11616"/><tag k="coa:place_id" v="3274373"/></node><node id="-339" lat="30.141467" lon="-97.84954" changeset="false"><tag k="addr:street" v="Bismark Drive"/><tag k="addr:housenumber" v="13032"/><tag k="coa:place_id" v="3499015"/></node><node id="-340" lat="30.176501" lon="-97.868376" changeset="false"><tag k="addr:street" v="Wyldwood Road"/><tag k="addr:housenumber" v="4224"/><tag k="coa:place_id" v="5001186"/></node><node id="-341" lat="30.147868" lon="-97.876295" changeset="false"><tag k="addr:street" v="Bliss Spillar Road,1100"/><tag k="addr:housenumber" v="3605"/><tag k="coa:place_id" v="3257804"/></node><node id="-342" lat="30.147307" lon="-97.876057" changeset="false"><tag k="addr:street" v="Fencerail Road"/><tag k="addr:housenumber" v="13108"/><tag k="coa:place_id" v="3257811"/></node><node id="-343" lat="30.147143" lon="-97.877861" changeset="false"><tag k="addr:street" v="Turkey Roost Road"/><tag k="addr:housenumber" v="13106"/><tag k="coa:place_id" v="3257779"/></node><node id="-344" lat="30.146725" lon="-97.877862" changeset="false"><tag k="addr:street" v="Turkey Roost Road"/><tag k="addr:housenumber" v="13200"/><tag k="coa:place_id" v="3257780"/></node><node id="-345" lat="30.165342" lon="-97.868051" changeset="false"><tag k="addr:street" v="Baggins Cove"/><tag k="addr:housenumber" v="3800"/><tag k="coa:place_id" v="3087410"/></node><node id="-346" lat="30.151168" lon="-97.864954" changeset="false"><tag k="addr:street" v="River Rock Court"/><tag k="addr:housenumber" v="12500"/><tag k="coa:place_id" v="3374962"/></node><node id="-347" lat="30.150815" lon="-97.862786" changeset="false"><tag k="addr:street" v="Edwards Hollow Run"/><tag k="addr:housenumber" v="12412"/><tag k="coa:place_id" v="61468"/></node><node id="-348" lat="30.15046" lon="-97.862905" changeset="false"><tag k="addr:street" v="Edwards Hollow Run"/><tag k="addr:housenumber" v="12500"/><tag k="coa:place_id" v="61467"/></node><node id="-349" lat="30.175268" lon="-97.908315" changeset="false"><tag k="addr:street" v="Escarpment Boulevard"/><tag k="addr:housenumber" v="12432 1/2"/><tag k="coa:place_id" v="5280266"/></node><node id="-350" lat="30.17947" lon="-97.918528" changeset="false"><tag k="addr:street" v="Terranova Cove"/><tag k="addr:housenumber" v="12321"/><tag k="coa:place_id" v="3295554"/></node><node id="-351" lat="30.143952" lon="-97.853748" changeset="false"><tag k="addr:street" v="Bismark Drive"/><tag k="addr:housenumber" v="12617"/><tag k="coa:place_id" v="3295924"/></node><node id="-352" lat="30.153921" lon="-97.87144" changeset="false"><tag k="addr:street" v="Black Mesa Cove"/><tag k="addr:housenumber" v="12504"/><tag k="coa:place_id" v="71674"/></node><node id="-353" lat="30.158802" lon="-97.870427" changeset="false"><tag k="addr:street" v="Ebony Hollow Cove"/><tag k="addr:housenumber" v="3704"/><tag k="coa:place_id" v="53556"/></node><node id="-354" lat="30.143944" lon="-97.854855" changeset="false"><tag k="addr:street" v="Bismark Drive"/><tag k="addr:housenumber" v="12608"/><tag k="coa:place_id" v="3295905"/></node><node id="-355" lat="30.161282" lon="-97.860745" changeset="false"><tag k="addr:street" v="Onion Hollow Run"/><tag k="addr:housenumber" v="11701"/><tag k="coa:place_id" v="256012"/></node><node id="-356" lat="30.153762" lon="-97.86631" changeset="false"><tag k="addr:street" v="Bear Hollow Cove"/><tag k="addr:housenumber" v="12402"/><tag k="coa:place_id" v="73815"/></node><node id="-357" lat="30.149962" lon="-97.862932" changeset="false"><tag k="addr:street" v="Edwards Hollow Run"/><tag k="addr:housenumber" v="12504"/><tag k="coa:place_id" v="61466"/></node><node id="-358" lat="30.147344" lon="-97.847063" changeset="false"><tag k="addr:street" v="Hewitt Lane"/><tag k="addr:housenumber" v="12200"/><tag k="coa:place_id" v="3051020"/></node><node id="-359" lat="30.144918" lon="-97.85543" changeset="false"><tag k="addr:street" v="Bismark Drive"/><tag k="addr:housenumber" v="12520"/><tag k="coa:place_id" v="3295926"/></node><node id="-360" lat="30.164271" lon="-97.868399" changeset="false"><tag k="addr:street" v="Middle Earth Trail"/><tag k="addr:housenumber" v="3702"/><tag k="coa:place_id" v="78089"/></node><node id="-361" lat="30.153816" lon="-97.869609" changeset="false"><tag k="addr:street" v="Barker Hollow Cove"/><tag k="addr:housenumber" v="12500"/><tag k="coa:place_id" v="71567"/></node><node id="-362" lat="30.179894" lon="-97.918206" changeset="false"><tag k="addr:street" v="Terranova Cove"/><tag k="addr:housenumber" v="12313"/><tag k="coa:place_id" v="3295552"/></node><node id="-363" lat="30.155952" lon="-97.869308" changeset="false"><tag k="addr:street" v="Corner Brook Pass"/><tag k="addr:housenumber" v="12304"/><tag k="coa:place_id" v="84125"/></node><node id="-364" lat="30.170963" lon="-97.86691" changeset="false"><tag k="addr:street" v="Tecate Trail"/><tag k="addr:housenumber" v="4002"/><tag k="coa:place_id" v="1140773"/></node><node id="-365" lat="30.161097" lon="-97.866807" changeset="false"><tag k="addr:street" v="Green Emerald Terrace"/><tag k="addr:housenumber" v="3603"/><tag k="coa:place_id" v="53585"/></node><node id="-366" lat="30.162054" lon="-97.868615" changeset="false"><tag k="addr:street" v="Green Emerald Terrace"/><tag k="addr:housenumber" v="3704"/><tag k="coa:place_id" v="53589"/></node><node id="-367" lat="30.160448" lon="-97.871726" changeset="false"><tag k="addr:street" v="Green Emerald Terrace"/><tag k="addr:housenumber" v="3901"/><tag k="coa:place_id" v="57062"/></node><node id="-368" lat="30.160345" lon="-97.867764" changeset="false"><tag k="addr:street" v="Lost Pine Cove"/><tag k="addr:housenumber" v="3502"/><tag k="coa:place_id" v="53581"/></node><node id="-369" lat="30.159474" lon="-97.870472" changeset="false"><tag k="addr:street" v="Ebony Hollow Pass"/><tag k="addr:housenumber" v="3705"/><tag k="coa:place_id" v="53569"/></node><node id="-370" lat="30.154663" lon="-97.865215" changeset="false"><tag k="addr:street" v="Edwards Hollow Cove"/><tag k="addr:housenumber" v="3212"/><tag k="coa:place_id" v="71588"/></node><node id="-371" lat="30.154632" lon="-97.866889" changeset="false"><tag k="addr:street" v="Lost Oasis Hollow"/><tag k="addr:housenumber" v="3401"/><tag k="coa:place_id" v="71565"/></node><node id="-372" lat="30.188078" lon="-97.923463" changeset="false"><tag k="addr:street" v="Pepperidge Drive"/><tag k="addr:housenumber" v="12016"/><tag k="coa:place_id" v="3167365"/></node><node id="-373" lat="30.174224" lon="-97.864882" changeset="false"><tag k="addr:street" v="Kellywood Drive"/><tag k="addr:housenumber" v="4014"/><tag k="coa:place_id" v="3124768"/></node><node id="-374" lat="30.157101" lon="-97.863138" changeset="false"><tag k="addr:street" v="Edwards Hollow Run"/><tag k="addr:housenumber" v="12004"/><tag k="coa:place_id" v="71592"/></node><node id="-375" lat="30.152759" lon="-97.86332" changeset="false"><tag k="addr:street" v="Edwards Hollow Run"/><tag k="addr:housenumber" v="12312"/><tag k="coa:place_id" v="71652"/></node><node id="-376" lat="30.150895" lon="-97.865744" changeset="false"><tag k="addr:street" v="Bears Den Court"/><tag k="addr:housenumber" v="12505"/><tag k="coa:place_id" v="73814"/></node><node id="-377" lat="30.137442" lon="-97.860938" changeset="false"><tag k="addr:street" v="Bliss Spillar Road,1100"/><tag k="addr:housenumber" v="2636"/><tag k="coa:place_id" v="1110504"/></node><node id="-378" lat="30.164271" lon="-97.868033" changeset="false"><tag k="addr:street" v="Middle Earth Trail"/><tag k="addr:housenumber" v="3700"/><tag k="coa:place_id" v="78088"/></node><node id="-379" lat="30.158103" lon="-97.864788" changeset="false"><tag k="addr:street" v="Onion Hollow Run"/><tag k="addr:housenumber" v="12000"/><tag k="coa:place_id" v="71644"/></node><node id="-380" lat="30.15428" lon="-97.872195" changeset="false"><tag k="addr:street" v="Black Mesa Hollow"/><tag k="addr:housenumber" v="3605"/><tag k="coa:place_id" v="71673"/></node><node id="-381" lat="30.153502" lon="-97.865053" changeset="false"><tag k="addr:street" v="Bear Hollow Cove"/><tag k="addr:housenumber" v="12401"/><tag k="coa:place_id" v="73817"/></node><node id="-382" lat="30.150068" lon="-97.865383" changeset="false"><tag k="addr:street" v="River Rock Court"/><tag k="addr:housenumber" v="12508"/><tag k="coa:place_id" v="73809"/></node><node id="-383" lat="30.168276" lon="-97.869195" changeset="false"><tag k="addr:street" v="Denim Trail"/><tag k="addr:housenumber" v="4002"/><tag k="coa:place_id" v="78102"/></node><node id="-384" lat="30.184389" lon="-97.918216" changeset="false"><tag k="addr:street" v="Jaborandi Drive"/><tag k="addr:housenumber" v="7716"/><tag k="coa:place_id" v="3144970"/></node><node id="-385" lat="30.156295" lon="-97.868143" changeset="false"><tag k="addr:street" v="Corner Brook Pass"/><tag k="addr:housenumber" v="12301"/><tag k="coa:place_id" v="69393"/></node><node id="-386" lat="30.165687" lon="-97.870425" changeset="false"><tag k="addr:street" v="Hobbiton Trail"/><tag k="addr:housenumber" v="11700"/><tag k="coa:place_id" v="78116"/></node><node id="-387" lat="30.166327" lon="-97.869266" changeset="false"><tag k="addr:street" v="Frodo Cove"/><tag k="addr:housenumber" v="3810"/><tag k="coa:place_id" v="68952"/></node><node id="-388" lat="30.152103" lon="-97.865353" changeset="false"><tag k="addr:street" v="Barker Hollow Pass"/><tag k="addr:housenumber" v="3300"/><tag k="coa:place_id" v="122394"/></node><node id="-389" lat="30.155269" lon="-97.865761" changeset="false"><tag k="addr:street" v="Lost Oasis Hollow"/><tag k="addr:housenumber" v="3317"/><tag k="coa:place_id" v="136821"/></node><node id="-390" lat="30.16046" lon="-97.871025" changeset="false"><tag k="addr:street" v="Ebony Hollow Pass"/><tag k="addr:housenumber" v="3801"/><tag k="coa:place_id" v="53566"/></node><node id="-391" lat="30.168519" lon="-97.870142" changeset="false"><tag k="addr:street" v="Denim Trail"/><tag k="addr:housenumber" v="4100"/><tag k="coa:place_id" v="78104"/></node><node id="-392" lat="30.159033" lon="-97.86874" changeset="false"><tag k="addr:street" v="Ebony Hollow Pass"/><tag k="addr:housenumber" v="3604"/><tag k="coa:place_id" v="53571"/></node><node id="-393" lat="30.163508" lon="-97.868068" changeset="false"><tag k="addr:street" v="Silmarillion Trail"/><tag k="addr:housenumber" v="11714"/><tag k="coa:place_id" v="78146"/></node><node id="-394" lat="30.156692" lon="-97.867988" changeset="false"><tag k="addr:street" v="Corner Brook Pass"/><tag k="addr:housenumber" v="12205"/><tag k="coa:place_id" v="71576"/></node><node id="-395" lat="30.188581" lon="-97.92203" changeset="false"><tag k="addr:street" v="Levata Drive"/><tag k="addr:housenumber" v="7908"/><tag k="coa:place_id" v="3167303"/></node><node id="-396" lat="30.189305" lon="-97.919958" changeset="false"><tag k="addr:street" v="Cherisse Drive"/><tag k="addr:housenumber" v="11801"/><tag k="coa:place_id" v="3167134"/></node><node id="-397" lat="30.189945" lon="-97.921016" changeset="false"><tag k="addr:street" v="Cherisse Drive"/><tag k="addr:housenumber" v="11709"/><tag k="coa:place_id" v="3167118"/></node><node id="-398" lat="30.153323" lon="-97.869896" changeset="false"><tag k="addr:street" v="Barker Hollow Cove"/><tag k="addr:housenumber" v="12504"/><tag k="coa:place_id" v="71568"/></node><node id="-399" lat="30.15749" lon="-97.867706" changeset="false"><tag k="addr:street" v="Corner Brook Pass"/><tag k="addr:housenumber" v="12105"/><tag k="coa:place_id" v="71578"/></node><node id="-400" lat="30.159507" lon="-97.872658" changeset="false"><tag k="addr:street" v="Lost Cavern Cove"/><tag k="addr:housenumber" v="3804"/><tag k="coa:place_id" v="53552"/></node><node id="-401" lat="30.15932" lon="-97.862975" changeset="false"><tag k="addr:street" v="Onion Hollow Run"/><tag k="addr:housenumber" v="11811"/><tag k="coa:place_id" v="61500"/></node><node id="-402" lat="30.162009" lon="-97.869719" changeset="false"><tag k="addr:street" v="Green Emerald Terrace"/><tag k="addr:housenumber" v="3712"/><tag k="coa:place_id" v="122225"/></node><node id="-403" lat="30.152385" lon="-97.863108" changeset="false"><tag k="addr:street" v="Edwards Hollow Run"/><tag k="addr:housenumber" v="12316"/><tag k="coa:place_id" v="3087555"/></node><node id="-404" lat="30.143716" lon="-97.851893" changeset="false"><tag k="addr:street" v="Turtle Mountain Bend"/><tag k="addr:housenumber" v="2400"/><tag k="coa:place_id" v="3295894"/></node><node id="-405" lat="30.188682" lon="-97.923642" changeset="false"><tag k="addr:street" v="Levata Drive"/><tag k="addr:housenumber" v="8017"/><tag k="coa:place_id" v="3167344"/></node><node id="-406" lat="30.188437" lon="-97.923139" changeset="false"><tag k="addr:street" v="Pepperidge Drive"/><tag k="addr:housenumber" v="12004"/><tag k="coa:place_id" v="3167362"/></node><node id="-407" lat="30.146447" lon="-97.877855" changeset="false"><tag k="addr:street" v="Turkey Roost Road"/><tag k="addr:housenumber" v="13202"/><tag k="coa:place_id" v="3257781"/></node><node id="-408" lat="30.151985" lon="-97.88227" changeset="false"><tag k="addr:street" v="Bliss Spillar Road,1100"/><tag k="addr:housenumber" v="3906"/><tag k="coa:place_id" v="1112629"/></node><node id="-409" lat="30.161221" lon="-97.870124" changeset="false"><tag k="addr:street" v="Ebony Hollow Pass"/><tag k="addr:housenumber" v="3804"/><tag k="coa:place_id" v="121836"/></node><node id="-410" lat="30.161127" lon="-97.867743" changeset="false"><tag k="addr:street" v="Green Emerald Terrace"/><tag k="addr:housenumber" v="3701"/><tag k="coa:place_id" v="53587"/></node><node id="-411" lat="30.17423" lon="-97.865319" changeset="false"><tag k="addr:street" v="Kellywood Drive"/><tag k="addr:housenumber" v="4020"/><tag k="coa:place_id" v="3126837"/></node><node id="-412" lat="30.188899" lon="-97.922678" changeset="false"><tag k="addr:street" v="Levata Drive"/><tag k="addr:housenumber" v="8000"/><tag k="coa:place_id" v="3167098"/></node><node id="-413" lat="30.155104" lon="-97.87158" changeset="false"><tag k="addr:street" v="Black Mesa Hollow"/><tag k="addr:housenumber" v="3600"/><tag k="coa:place_id" v="71670"/></node><node id="-414" lat="30.154787" lon="-97.870116" changeset="false"><tag k="addr:street" v="Black Mesa Hollow"/><tag k="addr:housenumber" v="3505"/><tag k="coa:place_id" v="69870"/></node><node id="-415" lat="30.14759" lon="-97.874873" changeset="false"><tag k="addr:street" v="Bliss Spillar Road,1100"/><tag k="addr:housenumber" v="3449"/><tag k="coa:place_id" v="3257807"/></node><node id="-416" lat="30.137634" lon="-97.85957" changeset="false"><tag k="addr:street" v="Bliss Spillar Road,1100"/><tag k="addr:housenumber" v="2604"/><tag k="coa:place_id" v="1110503"/></node><node id="-417" lat="30.186652" lon="-97.917089" changeset="false"><tag k="addr:street" v="Jaborandi Drive"/><tag k="addr:housenumber" v="7501"/><tag k="coa:place_id" v="3145037"/></node><node id="-418" lat="30.185202" lon="-97.917876" changeset="false"><tag k="addr:street" v="Espina Drive"/><tag k="addr:housenumber" v="7408"/><tag k="coa:place_id" v="3144983"/></node><node id="-419" lat="30.171304" lon="-97.869452" changeset="false"><tag k="addr:street" v="Aldama Drive"/><tag k="addr:housenumber" v="4202"/><tag k="coa:place_id" v="67847"/></node><node id="-420" lat="30.167158" lon="-97.873518" changeset="false"><tag k="addr:street" v="Lost Oasis Hollow"/><tag k="addr:housenumber" v="4220"/><tag k="coa:place_id" v="223596"/></node><node id="-421" lat="30.155668" lon="-97.864881" changeset="false"><tag k="addr:street" v="Lost Oasis Hollow"/><tag k="addr:housenumber" v="3313"/><tag k="coa:place_id" v="71566"/></node><node id="-422" lat="30.147882" lon="-97.875647" changeset="false"><tag k="addr:street" v="Bliss Spillar Road,1100"/><tag k="addr:housenumber" v="3519"/><tag k="coa:place_id" v="3257802"/></node><node id="-423" lat="30.142901" lon="-97.851697" changeset="false"><tag k="addr:street" v="Turtle Mountain Bend"/><tag k="addr:housenumber" v="2417"/><tag k="coa:place_id" v="3295890"/></node><node id="-424" lat="30.167547" lon="-97.869319" changeset="false"><tag k="addr:street" v="Knipp Cove"/><tag k="addr:housenumber" v="11500"/><tag k="coa:place_id" v="117193"/></node></osm>