<?xml version="1.0" encoding="UTF-8"?><osm version="0.6" generator="github.com/aaronlidman/osm-and-geojson"><node id="-1" lat="30.334499" lon="-97.77908" changeset="false"><tag k="addr:street" v="Tortuga Trail"/><tag k="addr:housenumber" v="5306"/><tag k="coa:place_id" v="687153"/></node><node id="-2" lat="30.336711" lon="-97.775269" changeset="false"><tag k="addr:street" v="Mount Bonnell Road"/><tag k="addr:housenumber" v="5227"/><tag k="coa:place_id" v="548210"/></node><node id="-3" lat="30.339319" lon="-97.781081" changeset="false"><tag k="addr:street" v="Colorado Crossing"/><tag k="addr:housenumber" v="4704"/><tag k="coa:place_id" v="76853"/></node><node id="-4" lat="30.337921" lon="-97.778695" changeset="false"><tag k="addr:street" v="Tortuga Trail"/><tag k="addr:housenumber" v="5417"/><tag k="coa:place_id" v="687873"/></node><node id="-5" lat="30.339405" lon="-97.777929" changeset="false"><tag k="addr:street" v="Mount Bonnell Road"/><tag k="addr:housenumber" v="5509"/><tag k="coa:place_id" v="120168"/></node><node id="-6" lat="30.335523" lon="-97.778832" changeset="false"><tag k="addr:street" v="Tortuga Trail"/><tag k="addr:housenumber" v="5321"/><tag k="coa:place_id" v="687723"/></node><node id="-7" lat="30.335122" lon="-97.781468" changeset="false"><tag k="addr:street" v="Tortuga Trail"/><tag k="addr:housenumber" v="5223"/><tag k="coa:place_id" v="548342"/></node><node id="-8" lat="30.338702" lon="-97.777992" changeset="false"><tag k="addr:street" v="Tortuga Trail"/><tag k="addr:housenumber" v="5427"/><tag k="coa:place_id" v="687957"/></node><node id="-9" lat="30.354714" lon="-97.783754" changeset="false"><tag k="addr:street" v="Cone Circle"/><tag k="addr:housenumber" v="5908"/><tag k="coa:place_id" v="244164"/></node><node id="-10" lat="30.353582" lon="-97.790775" changeset="false"><tag k="addr:street" v="Courtyard Drive,1100"/><tag k="addr:housenumber" v="5608"/><tag k="coa:place_id" v="309021"/></node><node id="-11" lat="30.352881" lon="-97.792566" changeset="false"><tag k="addr:street" v="Courtyard Drive,1100"/><tag k="addr:housenumber" v="5508"/><tag k="coa:place_id" v="515799"/></node><node id="-12" lat="30.354269" lon="-97.786014" changeset="false"><tag k="addr:street" v="Inter Council Cove"/><tag k="addr:housenumber" v="5902"/><tag k="coa:place_id" v="675387"/></node><node id="-13" lat="30.354947" lon="-97.786952" changeset="false"><tag k="addr:street" v="Tom Wooten Cove"/><tag k="addr:housenumber" v="5813"/><tag k="coa:place_id" v="676539"/></node><node id="-14" lat="30.337609" lon="-97.776548" changeset="false"><tag k="addr:street" v="Mount Bonnell Road"/><tag k="addr:housenumber" v="5310"/><tag k="coa:place_id" v="117630"/></node><node id="-15" lat="30.338341" lon="-97.776833" changeset="false"><tag k="addr:street" v="Mount Bonnell Road"/><tag k="addr:housenumber" v="5406"/><tag k="coa:place_id" v="117618"/></node><node id="-16" lat="30.338391" lon="-97.776393" changeset="false"><tag k="addr:street" v="Mount Bonnell Road"/><tag k="addr:housenumber" v="5405"/><tag k="coa:place_id" v="760029"/></node><node id="-17" lat="30.356527" lon="-97.787524" changeset="false"><tag k="addr:street" v="North Scout Island Circle"/><tag k="addr:housenumber" v="5502"/><tag k="coa:place_id" v="673269"/></node><node id="-18" lat="30.339678" lon="-97.783509" changeset="false"><tag k="addr:street" v="Craggy Point"/><tag k="addr:housenumber" v="5600"/><tag k="coa:place_id" v="93487"/></node><node id="-19" lat="30.339195" lon="-97.781342" changeset="false"><tag k="addr:street" v="Colorado Crossing"/><tag k="addr:housenumber" v="4706"/><tag k="coa:place_id" v="688047"/></node><node id="-20" lat="30.355769" lon="-97.792262" changeset="false"><tag k="addr:street" v="North Scout Island Circle"/><tag k="addr:housenumber" v="5700"/><tag k="coa:place_id" v="1148327"/></node><node id="-21" lat="30.354991" lon="-97.787484" changeset="false"><tag k="addr:street" v="Tom Wooten Drive"/><tag k="addr:housenumber" v="5809"/><tag k="coa:place_id" v="518583"/></node><node id="-22" lat="30.351143" lon="-97.789286" changeset="false"><tag k="addr:street" v="Paradox Cove"/><tag k="addr:housenumber" v="5504"/><tag k="coa:place_id" v="3374399"/></node><node id="-23" lat="30.356243" lon="-97.788165" changeset="false"><tag k="addr:street" v="North Scout Island Circle"/><tag k="addr:housenumber" v="5505"/><tag k="coa:place_id" v="62234"/></node><node id="-24" lat="30.354839" lon="-97.787174" changeset="false"><tag k="addr:street" v="Tom Wooten Cove"/><tag k="addr:housenumber" v="5810"/><tag k="coa:place_id" v="501639"/></node><node id="-25" lat="30.35436" lon="-97.790252" changeset="false"><tag k="addr:street" v="Courtyard Drive,1100"/><tag k="addr:housenumber" v="5706"/><tag k="coa:place_id" v="149314"/></node><node id="-26" lat="30.340538" lon="-97.777383" changeset="false"><tag k="addr:street" v="Colorado Crossing"/><tag k="addr:housenumber" v="4501"/><tag k="coa:place_id" v="125371"/></node><node id="-27" lat="30.342491" lon="-97.784863" changeset="false"><tag k="addr:street" v="Palisade Drive"/><tag k="addr:housenumber" v="4811"/><tag k="coa:place_id" v="93497"/></node><node id="-28" lat="30.342277" lon="-97.784451" changeset="false"><tag k="addr:street" v="Palisade Drive"/><tag k="addr:housenumber" v="4807"/><tag k="coa:place_id" v="93492"/></node><node id="-29" lat="30.355174" lon="-97.784927" changeset="false"><tag k="addr:street" v="North Scout Island Circle"/><tag k="addr:housenumber" v="5308"/><tag k="coa:place_id" v="675627"/></node><node id="-30" lat="30.35536" lon="-97.786388" changeset="false"><tag k="addr:street" v="Little Bull Cove"/><tag k="addr:housenumber" v="6000"/><tag k="coa:place_id" v="675705"/></node><node id="-31" lat="30.355655" lon="-97.788352" changeset="false"><tag k="addr:street" v="Harrington Cove"/><tag k="addr:housenumber" v="5812"/><tag k="coa:place_id" v="470331"/></node><node id="-32" lat="30.353905" lon="-97.78515" changeset="false"><tag k="addr:street" v="North Scout Island Circle,1100"/><tag k="addr:housenumber" v="5202"/><tag k="coa:place_id" v="673167"/></node><node id="-33" lat="30.339958" lon="-97.783751" changeset="false"><tag k="addr:street" v="Craggy Point"/><tag k="addr:housenumber" v="5604"/><tag k="coa:place_id" v="81128"/></node><node id="-34" lat="30.340977" lon="-97.784669" changeset="false"><tag k="addr:street" v="Precipice Cove"/><tag k="addr:housenumber" v="4803"/><tag k="coa:place_id" v="756784"/></node><node id="-35" lat="30.340736" lon="-97.775751" changeset="false"><tag k="addr:street" v="Bonnell Vista Street"/><tag k="addr:housenumber" v="5612"/><tag k="coa:place_id" v="52693"/></node><node id="-36" lat="30.339631" lon="-97.778112" changeset="false"><tag k="addr:street" v="Mount Bonnell Road"/><tag k="addr:housenumber" v="5511"/><tag k="coa:place_id" v="686259"/></node><node id="-37" lat="30.35272" lon="-97.790704" changeset="false"><tag k="addr:street" v="Courtyard Drive,1100"/><tag k="addr:housenumber" v="5523"/><tag k="coa:place_id" v="735532"/></node><node id="-38" lat="30.353396" lon="-97.785107" changeset="false"><tag k="addr:street" v="North Scout Island Circle,1100"/><tag k="addr:housenumber" v="5207"/><tag k="coa:place_id" v="673089"/></node><node id="-39" lat="30.33816" lon="-97.780196" changeset="false"><tag k="addr:street" v="Odessa Lane"/><tag k="addr:housenumber" v="5410"/><tag k="coa:place_id" v="686307"/></node><node id="-40" lat="30.355316" lon="-97.786244" changeset="false"><tag k="addr:street" v="Little Bull Cove"/><tag k="addr:housenumber" v="6001"/><tag k="coa:place_id" v="675711"/></node><node id="-41" lat="30.337497" lon="-97.776458" changeset="false"><tag k="addr:street" v="Mount Bonnell Road"/><tag k="addr:housenumber" v="5308"/><tag k="coa:place_id" v="117175"/></node><node id="-42" lat="30.356712" lon="-97.79023" changeset="false"><tag k="addr:street" v="North Scout Island Circle"/><tag k="addr:housenumber" v="5618"/><tag k="coa:place_id" v="673179"/></node><node id="-43" lat="30.353339" lon="-97.79337" changeset="false"><tag k="addr:street" v="North Scout Island Circle"/><tag k="addr:housenumber" v="5758"/><tag k="coa:place_id" v="409942"/></node><node id="-44" lat="30.338304" lon="-97.781364" changeset="false"><tag k="addr:street" v="Hurlock Drive"/><tag k="addr:housenumber" v="5408"/><tag k="coa:place_id" v="112561"/></node><node id="-45" lat="30.35572" lon="-97.787743" changeset="false"><tag k="addr:street" v="Padre Cove"/><tag k="addr:housenumber" v="5901"/><tag k="coa:place_id" v="555687"/></node><node id="-46" lat="30.340599" lon="-97.778116" changeset="false"><tag k="addr:street" v="Colorado Crossing"/><tag k="addr:housenumber" v="4508"/><tag k="coa:place_id" v="125375"/></node><node id="-47" lat="30.338631" lon="-97.780626" changeset="false"><tag k="addr:street" v="Eby Lane"/><tag k="addr:housenumber" v="4704"/><tag k="coa:place_id" v="686937"/></node><node id="-48" lat="30.338402" lon="-97.778816" changeset="false"><tag k="addr:street" v="Tortuga Trail"/><tag k="addr:housenumber" v="5420"/><tag k="coa:place_id" v="687123"/></node><node id="-49" lat="30.356994" lon="-97.790838" changeset="false"><tag k="addr:street" v="Courtyard Drive,1100"/><tag k="addr:housenumber" v="5910"/><tag k="coa:place_id" v="633573"/></node><node id="-50" lat="30.355447" lon="-97.785911" changeset="false"><tag k="addr:street" v="Little Bull Cove"/><tag k="addr:housenumber" v="6005"/><tag k="coa:place_id" v="139897"/></node><node id="-51" lat="30.355441" lon="-97.786883" changeset="false"><tag k="addr:street" v="Tom Wooten Drive"/><tag k="addr:housenumber" v="5903"/><tag k="coa:place_id" v="1113088"/></node><node id="-52" lat="30.353893" lon="-97.784283" changeset="false"><tag k="addr:street" v="Cone Circle"/><tag k="addr:housenumber" v="5903"/><tag k="coa:place_id" v="76511"/></node><node id="-53" lat="30.353243" lon="-97.785886" changeset="false"><tag k="addr:street" v="North Scout Island Circle,1100"/><tag k="addr:housenumber" v="5215"/><tag k="coa:place_id" v="673071"/></node><node id="-54" lat="30.337185" lon="-97.780539" changeset="false"><tag k="addr:street" v="Mountain Cedar Cove"/><tag k="addr:housenumber" v="5412"/><tag k="coa:place_id" v="687411"/></node><node id="-55" lat="30.337908" lon="-97.777783" changeset="false"><tag k="addr:street" v="Tortuga Cove"/><tag k="addr:housenumber" v="4501"/><tag k="coa:place_id" v="712402"/></node><node id="-56" lat="30.336515" lon="-97.780202" changeset="false"><tag k="addr:street" v="Mountain Cedar Cove"/><tag k="addr:housenumber" v="5404"/><tag k="coa:place_id" v="510844"/></node><node id="-57" lat="30.349671" lon="-97.785608" changeset="false"><tag k="addr:street" v="Ranch to Market Road 2222"/><tag k="addr:housenumber" v="4909"/><tag k="coa:place_id" v="548636"/></node><node id="-58" lat="30.354845" lon="-97.785241" changeset="false"><tag k="addr:street" v="Inter Council Cove"/><tag k="addr:housenumber" v="5909"/><tag k="coa:place_id" v="137377"/></node><node id="-59" lat="30.355514" lon="-97.785268" changeset="false"><tag k="addr:street" v="North Scout Island Circle"/><tag k="addr:housenumber" v="5312"/><tag k="coa:place_id" v="675639"/></node><node id="-60" lat="30.354305" lon="-97.787193" changeset="false"><tag k="addr:street" v="Tom Wooten Cove"/><tag k="addr:housenumber" v="5804"/><tag k="coa:place_id" v="676587"/></node><node id="-61" lat="30.354434" lon="-97.786039" changeset="false"><tag k="addr:street" v="Inter Council Cove"/><tag k="addr:housenumber" v="5904"/><tag k="coa:place_id" v="675381"/></node><node id="-62" lat="30.353518" lon="-97.784889" changeset="false"><tag k="addr:street" v="North Scout Island Circle,1100"/><tag k="addr:housenumber" v="5205"/><tag k="coa:place_id" v="673095"/></node><node id="-63" lat="30.33642" lon="-97.77553" changeset="false"><tag k="addr:street" v="Mount Bonnell Road"/><tag k="addr:housenumber" v="5223"/><tag k="coa:place_id" v="248213"/></node><node id="-64" lat="30.353613" lon="-97.789031" changeset="false"><tag k="addr:street" v="Sam Houston Circle"/><tag k="addr:housenumber" v="5714"/><tag k="coa:place_id" v="117923"/></node><node id="-65" lat="30.338815" lon="-97.777865" changeset="false"><tag k="addr:street" v="Tortuga Trail"/><tag k="addr:housenumber" v="5429"/><tag k="coa:place_id" v="687963"/></node><node id="-66" lat="30.35534" lon="-97.785105" changeset="false"><tag k="addr:street" v="North Scout Island Circle"/><tag k="addr:housenumber" v="5310"/><tag k="coa:place_id" v="675633"/></node><node id="-67" lat="30.357702" lon="-97.790492" changeset="false"><tag k="addr:street" v="Capital of Texas Highway"/><tag k="addr:housenumber" v="6003"/><tag k="coa:place_id" v="349292"/></node><node id="-68" lat="30.356051" lon="-97.791149" changeset="false"><tag k="addr:street" v="Back Court"/><tag k="addr:housenumber" v="5814"/><tag k="coa:place_id" v="359673"/></node><node id="-69" lat="30.358296" lon="-97.788245" changeset="false"><tag k="addr:street" v="Ranch to Market Road 2222"/><tag k="addr:housenumber" v="5617"/><tag k="coa:place_id" v="319131"/></node><node id="-70" lat="30.342289" lon="-97.783846" changeset="false"><tag k="addr:street" v="Palisade Drive"/><tag k="addr:housenumber" v="4804"/><tag k="coa:place_id" v="683223"/></node><node id="-71" lat="30.340996" lon="-97.779685" changeset="false"><tag k="addr:street" v="Mount Bonnell Road"/><tag k="addr:housenumber" v="5608"/><tag k="coa:place_id" v="150522"/></node><node id="-72" lat="30.351127" lon="-97.788243" changeset="false"><tag k="addr:street" v="Paradox Cove"/><tag k="addr:housenumber" v="5408"/><tag k="coa:place_id" v="3541233"/></node><node id="-73" lat="30.354509" lon="-97.788571" changeset="false"><tag k="addr:street" v="North Scout Island Circle,1100"/><tag k="addr:housenumber" v="5501"/><tag k="coa:place_id" v="445882"/></node><node id="-74" lat="30.352344" lon="-97.791854" changeset="false"><tag k="addr:street" v="Courtyard Drive,1100"/><tag k="addr:housenumber" v="5511"/><tag k="coa:place_id" v="515973"/></node><node id="-75" lat="30.340588" lon="-97.784059" changeset="false"><tag k="addr:street" v="Palisade Drive"/><tag k="addr:housenumber" v="4725"/><tag k="coa:place_id" v="93498"/></node><node id="-76" lat="30.353617" lon="-97.784644" changeset="false"><tag k="addr:street" v="North Scout Island Circle,1100"/><tag k="addr:housenumber" v="5203"/><tag k="coa:place_id" v="673101"/></node><node id="-77" lat="30.335208" lon="-97.781117" changeset="false"><tag k="addr:street" v="Tortuga Trail"/><tag k="addr:housenumber" v="5225"/><tag k="coa:place_id" v="237703"/></node><node id="-78" lat="30.334708" lon="-97.779085" changeset="false"><tag k="addr:street" v="Tortuga Trail"/><tag k="addr:housenumber" v="5310"/><tag k="coa:place_id" v="732616"/></node><node id="-79" lat="30.337713" lon="-97.776821" changeset="false"><tag k="addr:street" v="Mount Bonnell Road"/><tag k="addr:housenumber" v="5312"/><tag k="coa:place_id" v="117631"/></node><node id="-80" lat="30.340165" lon="-97.783805" changeset="false"><tag k="addr:street" v="Craggy Point"/><tag k="addr:housenumber" v="5606"/><tag k="coa:place_id" v="81129"/></node><node id="-81" lat="30.356306" lon="-97.786654" changeset="false"><tag k="addr:street" v="North Scout Island Circle"/><tag k="addr:housenumber" v="5406"/><tag k="coa:place_id" v="675675"/></node><node id="-82" lat="30.339878" lon="-97.778351" changeset="false"><tag k="addr:street" v="Colorado Crossing"/><tag k="addr:housenumber" v="4517"/><tag k="coa:place_id" v="125364"/></node><node id="-83" lat="30.337336" lon="-97.778881" changeset="false"><tag k="addr:street" v="Tortuga Trail"/><tag k="addr:housenumber" v="5411"/><tag k="coa:place_id" v="687837"/></node><node id="-84" lat="30.355646" lon="-97.792184" changeset="false"><tag k="addr:street" v="North Scout Island Circle"/><tag k="addr:housenumber" v="5716 1/2"/><tag k="coa:place_id" v="137604"/></node><node id="-85" lat="30.3404" lon="-97.782212" changeset="false"><tag k="addr:street" v="Palisade Court"/><tag k="addr:housenumber" v="5604"/><tag k="coa:place_id" v="664659"/></node><node id="-86" lat="30.340173" lon="-97.779064" changeset="false"><tag k="addr:street" v="Colorado Crossing"/><tag k="addr:housenumber" v="4600"/><tag k="coa:place_id" v="117924"/></node><node id="-87" lat="30.340975" lon="-97.784392" changeset="false"><tag k="addr:street" v="Palisade Drive"/><tag k="addr:housenumber" v="4729"/><tag k="coa:place_id" v="619653"/></node><node id="-88" lat="30.353454" lon="-97.789291" changeset="false"><tag k="addr:street" v="Sam Houston Circle"/><tag k="addr:housenumber" v="5712"/><tag k="coa:place_id" v="673017"/></node><node id="-89" lat="30.338909" lon="-97.780793" changeset="false"><tag k="addr:street" v="Colorado Crossing"/><tag k="addr:housenumber" v="4705"/><tag k="coa:place_id" v="76852"/></node><node id="-90" lat="30.337365" lon="-97.776459" changeset="false"><tag k="addr:street" v="Mount Bonnell Road"/><tag k="addr:housenumber" v="5306"/><tag k="coa:place_id" v="688527"/></node><node id="-91" lat="30.358281" lon="-97.790448" changeset="false"><tag k="addr:street" v="Capital of Texas Highway"/><tag k="addr:housenumber" v="6015"/><tag k="coa:place_id" v="3155110"/></node><node id="-92" lat="30.355324" lon="-97.78974" changeset="false"><tag k="addr:street" v="Karankawa Cove"/><tag k="addr:housenumber" v="5800"/><tag k="coa:place_id" v="673035"/></node><node id="-93" lat="30.352383" lon="-97.792282" changeset="false"><tag k="addr:street" v="Courtyard Drive,1100"/><tag k="addr:housenumber" v="5507"/><tag k="coa:place_id" v="515691"/></node><node id="-94" lat="30.35226" lon="-97.793457" changeset="false"><tag k="addr:street" v="Courtyard Drive,1100"/><tag k="addr:housenumber" v="5411"/><tag k="coa:place_id" v="409948"/></node><node id="-95" lat="30.3548" lon="-97.787824" changeset="false"><tag k="addr:street" v="Tom Wooten Drive"/><tag k="addr:housenumber" v="5804"/><tag k="coa:place_id" v="445491"/></node><node id="-96" lat="30.352484" lon="-97.794427" changeset="false"><tag k="addr:street" v="Courtyard Drive,1100"/><tag k="addr:housenumber" v="5400"/><tag k="coa:place_id" v="1148330"/></node><node id="-97" lat="30.350155" lon="-97.790056" changeset="false"><tag k="addr:street" v="Paradox Cove"/><tag k="addr:housenumber" v="5505"/><tag k="coa:place_id" v="3692047"/></node><node id="-98" lat="30.341272" lon="-97.782624" changeset="false"><tag k="addr:street" v="Palisade Drive"/><tag k="addr:housenumber" v="4714"/><tag k="coa:place_id" v="660081"/></node><node id="-99" lat="30.351128" lon="-97.790643" changeset="false"><tag k="addr:street" v="Paradox Cove"/><tag k="addr:housenumber" v="5516"/><tag k="coa:place_id" v="3541231"/></node><node id="-100" lat="30.355774" lon="-97.790591" changeset="false"><tag k="addr:street" v="Back Court"/><tag k="addr:housenumber" v="5807"/><tag k="coa:place_id" v="388401"/></node><node id="-101" lat="30.352365" lon="-97.793215" changeset="false"><tag k="addr:street" v="Courtyard Drive,1100"/><tag k="addr:housenumber" v="5415"/><tag k="coa:place_id" v="515715"/></node><node id="-102" lat="30.354143" lon="-97.787943" changeset="false"><tag k="addr:street" v="North Scout Island Circle,1100"/><tag k="addr:housenumber" v="5404"/><tag k="coa:place_id" v="672915"/></node><node id="-103" lat="30.342367" lon="-97.784687" changeset="false"><tag k="addr:street" v="Palisade Drive"/><tag k="addr:housenumber" v="4809"/><tag k="coa:place_id" v="93493"/></node><node id="-104" lat="30.354474" lon="-97.787118" changeset="false"><tag k="addr:street" v="Tom Wooten Cove"/><tag k="addr:housenumber" v="5806"/><tag k="coa:place_id" v="676593"/></node><node id="-105" lat="30.339371" lon="-97.777616" changeset="false"><tag k="addr:street" v="Mount Bonnell Road"/><tag k="addr:housenumber" v="5507"/><tag k="coa:place_id" v="120600"/></node><node id="-106" lat="30.33579" lon="-97.781886" changeset="false"><tag k="addr:street" v="Tortuga Trail"/><tag k="addr:housenumber" v="5219"/><tag k="coa:place_id" v="548354"/></node><node id="-107" lat="30.354151" lon="-97.785773" changeset="false"><tag k="addr:street" v="Inter Council Cove"/><tag k="addr:housenumber" v="5900"/><tag k="coa:place_id" v="675393"/></node><node id="-108" lat="30.339675" lon="-97.774542" changeset="false"><tag k="addr:street" v="Old Bull Creek Road"/><tag k="addr:housenumber" v="4301"/><tag k="coa:place_id" v="228017"/></node><node id="-109" lat="30.353213" lon="-97.79087" changeset="false"><tag k="addr:street" v="Courtyard Drive,1100"/><tag k="addr:housenumber" v="5600"/><tag k="coa:place_id" v="3052673"/></node><node id="-110" lat="30.355723" lon="-97.787934" changeset="false"><tag k="addr:street" v="Padre Cove"/><tag k="addr:housenumber" v="5900"/><tag k="coa:place_id" v="324706"/></node><node id="-111" lat="30.337853" lon="-97.776809" changeset="false"><tag k="addr:street" v="Mount Bonnell Road"/><tag k="addr:housenumber" v="5400"/><tag k="coa:place_id" v="117635"/></node><node id="-112" lat="30.340453" lon="-97.775456" changeset="false"><tag k="addr:street" v="Bonnell Vista Street"/><tag k="addr:housenumber" v="5609"/><tag k="coa:place_id" v="52695"/></node><node id="-113" lat="30.340433" lon="-97.783853" changeset="false"><tag k="addr:street" v="Craggy Point"/><tag k="addr:housenumber" v="5608"/><tag k="coa:place_id" v="121341"/></node><node id="-114" lat="30.339943" lon="-97.779813" changeset="false"><tag k="addr:street" v="Colorado Crossing"/><tag k="addr:housenumber" v="4608"/><tag k="coa:place_id" v="717250"/></node><node id="-115" lat="30.358695" lon="-97.787889" changeset="false"><tag k="addr:street" v="Ranch to Market Road 2222"/><tag k="addr:housenumber" v="5607"/><tag k="coa:place_id" v="187183"/></node><node id="-116" lat="30.334534" lon="-97.780196" changeset="false"><tag k="addr:street" v="Tortuga Trail"/><tag k="addr:housenumber" v="5231"/><tag k="coa:place_id" v="583413"/></node><node id="-117" lat="30.333661" lon="-97.779137" changeset="false"><tag k="addr:street" v="Tortuga Trail"/><tag k="addr:housenumber" v="5301"/><tag k="coa:place_id" v="835893"/></node><node id="-118" lat="30.333531" lon="-97.779484" changeset="false"><tag k="addr:street" v="Tortuga Place"/><tag k="addr:housenumber" v="4905"/><tag k="coa:place_id" v="89209"/></node><node id="-119" lat="30.338147" lon="-97.776214" changeset="false"><tag k="addr:street" v="Mount Bonnell Road"/><tag k="addr:housenumber" v="5401"/><tag k="coa:place_id" v="830949"/></node><node id="-120" lat="30.356739" lon="-97.789098" changeset="false"><tag k="addr:street" v="North Scout Island Circle"/><tag k="addr:housenumber" v="5608"/><tag k="coa:place_id" v="673215"/></node><node id="-121" lat="30.356135" lon="-97.786384" changeset="false"><tag k="addr:street" v="North Scout Island Circle"/><tag k="addr:housenumber" v="5404"/><tag k="coa:place_id" v="675669"/></node><node id="-122" lat="30.355928" lon="-97.786618" changeset="false"><tag k="addr:street" v="North Scout Island Circle"/><tag k="addr:housenumber" v="5405"/><tag k="coa:place_id" v="675687"/></node><node id="-123" lat="30.340757" lon="-97.777759" changeset="false"><tag k="addr:street" v="Colorado Crossing"/><tag k="addr:housenumber" v="4504"/><tag k="coa:place_id" v="125373"/></node><node id="-124" lat="30.334202" lon="-97.780434" changeset="false"><tag k="addr:street" v="Tortuga Trail"/><tag k="addr:housenumber" v="5233"/><tag k="coa:place_id" v="548330"/></node><node id="-125" lat="30.356186" lon="-97.789045" changeset="false"><tag k="addr:street" v="Cartwright Cove"/><tag k="addr:housenumber" v="5904"/><tag k="coa:place_id" v="566787"/></node><node id="-126" lat="30.338692" lon="-97.782314" changeset="false"><tag k="addr:street" v="Colorado Crossing"/><tag k="addr:housenumber" v="4714"/><tag k="coa:place_id" v="76854"/></node><node id="-127" lat="30.338997" lon="-97.777755" changeset="false"><tag k="addr:street" v="Tortuga Trail"/><tag k="addr:housenumber" v="5431"/><tag k="coa:place_id" v="687969"/></node><node id="-128" lat="30.356415" lon="-97.78702" changeset="false"><tag k="addr:street" v="North Scout Island Circle"/><tag k="addr:housenumber" v="5410"/><tag k="coa:place_id" v="675597"/></node><node id="-129" lat="30.33891" lon="-97.77659" changeset="false"><tag k="addr:street" v="Mount Bonnell Road"/><tag k="addr:housenumber" v="5407"/><tag k="coa:place_id" v="799305"/></node><node id="-130" lat="30.338452" lon="-97.782276" changeset="false"><tag k="addr:street" v="Colorado Crossing"/><tag k="addr:housenumber" v="4716"/><tag k="coa:place_id" v="727522"/></node><node id="-131" lat="30.336645" lon="-97.780342" changeset="false"><tag k="addr:street" v="Mountain Cedar Cove"/><tag k="addr:housenumber" v="5406"/><tag k="coa:place_id" v="693184"/></node><node id="-132" lat="30.348271" lon="-97.785701" changeset="false"><tag k="addr:street" v="Ranch to Market Road 2222"/><tag k="addr:housenumber" v="4907"/><tag k="coa:place_id" v="3519879"/></node><node id="-133" lat="30.339751" lon="-97.778673" changeset="false"><tag k="addr:street" v="Mount Bonnell Road"/><tag k="addr:housenumber" v="5520 1/2"/><tag k="coa:place_id" v="3287746"/></node><node id="-134" lat="30.349075" lon="-97.78718" changeset="false"><tag k="addr:street" v="Paradox Cove"/><tag k="addr:housenumber" v="5305"/><tag k="coa:place_id" v="3691456"/></node><node id="-135" lat="30.353746" lon="-97.786563" changeset="false"><tag k="addr:street" v="North Scout Island Circle,1100"/><tag k="addr:housenumber" v="5300"/><tag k="coa:place_id" v="133375"/></node><node id="-136" lat="30.340073" lon="-97.777769" changeset="false"><tag k="addr:street" v="Colorado Crossing"/><tag k="addr:housenumber" v="4509"/><tag k="coa:place_id" v="125369"/></node><node id="-137" lat="30.338191" lon="-97.780513" changeset="false"><tag k="addr:street" v="Eby Lane"/><tag k="addr:housenumber" v="4705"/><tag k="coa:place_id" v="686295"/></node><node id="-138" lat="30.35631" lon="-97.788928" changeset="false"><tag k="addr:street" v="North Scout Island Circle"/><tag k="addr:housenumber" v="5605"/><tag k="coa:place_id" v="755433"/></node><node id="-139" lat="30.35604" lon="-97.788488" changeset="false"><tag k="addr:street" v="Cartwright Cove"/><tag k="addr:housenumber" v="5905"/><tag k="coa:place_id" v="775533"/></node><node id="-140" lat="30.35499" lon="-97.786743" changeset="false"><tag k="addr:street" v="Tom Wooten Cove"/><tag k="addr:housenumber" v="5811"/><tag k="coa:place_id" v="740092"/></node><node id="-141" lat="30.342795" lon="-97.78451" changeset="false"><tag k="addr:street" v="Palisade Drive"/><tag k="addr:housenumber" v="4830"/><tag k="coa:place_id" v="415005"/></node><node id="-142" lat="30.356309" lon="-97.790163" changeset="false"><tag k="addr:street" v="Courtyard Cove"/><tag k="addr:housenumber" v="5608"/><tag k="coa:place_id" v="757401"/></node><node id="-143" lat="30.341785" lon="-97.784294" changeset="false"><tag k="addr:street" v="Palisade Drive"/><tag k="addr:housenumber" v="4735"/><tag k="coa:place_id" v="469246"/></node><node id="-144" lat="30.355853" lon="-97.785988" changeset="false"><tag k="addr:street" v="North Scout Island Circle"/><tag k="addr:housenumber" v="5400"/><tag k="coa:place_id" v="675657"/></node><node id="-145" lat="30.338077" lon="-97.777674" changeset="false"><tag k="addr:street" v="Tortuga Cove"/><tag k="addr:housenumber" v="4500"/><tag k="coa:place_id" v="687933"/></node><node id="-146" lat="30.337735" lon="-97.780973" changeset="false"><tag k="addr:street" v="Hurlock Drive"/><tag k="addr:housenumber" v="5400"/><tag k="coa:place_id" v="411970"/></node><node id="-147" lat="30.340809" lon="-97.77942" changeset="false"><tag k="addr:street" v="Mount Bonnell Road"/><tag k="addr:housenumber" v="5610"/><tag k="coa:place_id" v="150521"/></node><node id="-148" lat="30.354768" lon="-97.784568" changeset="false"><tag k="addr:street" v="North Scout Island Circle"/><tag k="addr:housenumber" v="5304"/><tag k="coa:place_id" v="675615"/></node><node id="-149" lat="30.353797" lon="-97.785634" changeset="false"><tag k="addr:street" v="North Scout Island Circle,1100"/><tag k="addr:housenumber" v="5208"/><tag k="coa:place_id" v="673155"/></node><node id="-150" lat="30.354107" lon="-97.789383" changeset="false"><tag k="addr:street" v="Sam Houston Circle"/><tag k="addr:housenumber" v="5722"/><tag k="coa:place_id" v="673005"/></node><node id="-151" lat="30.333063" lon="-97.779874" changeset="false"><tag k="addr:street" v="Tortuga Place"/><tag k="addr:housenumber" v="4902"/><tag k="coa:place_id" v="421852"/></node><node id="-152" lat="30.340055" lon="-97.775656" changeset="false"><tag k="addr:street" v="Bonnell Vista Street"/><tag k="addr:housenumber" v="5604"/><tag k="coa:place_id" v="292918"/></node><node id="-153" lat="30.354802" lon="-97.785974" changeset="false"><tag k="addr:street" v="Inter Council Cove"/><tag k="addr:housenumber" v="5908"/><tag k="coa:place_id" v="675747"/></node><node id="-154" lat="30.343687" lon="-97.785351" changeset="false"><tag k="addr:street" v="Ranch to Market Road 2222"/><tag k="addr:housenumber" v="4825"/><tag k="coa:place_id" v="3091350"/></node><node id="-155" lat="30.33905" lon="-97.781655" changeset="false"><tag k="addr:street" v="Colorado Crossing"/><tag k="addr:housenumber" v="4708"/><tag k="coa:place_id" v="688053"/></node><node id="-156" lat="30.338923" lon="-97.781921" changeset="false"><tag k="addr:street" v="Colorado Crossing"/><tag k="addr:housenumber" v="4710"/><tag k="coa:place_id" v="688059"/></node><node id="-157" lat="30.334438" lon="-97.778705" changeset="false"><tag k="addr:street" v="Tortuga Trail"/><tag k="addr:housenumber" v="5311"/><tag k="coa:place_id" v="688407"/></node><node id="-158" lat="30.356204" lon="-97.790674" changeset="false"><tag k="addr:street" v="Back Court"/><tag k="addr:housenumber" v="5815"/><tag k="coa:place_id" v="242190"/></node><node id="-159" lat="30.356028" lon="-97.788016" changeset="false"><tag k="addr:street" v="Padre Cove"/><tag k="addr:housenumber" v="5904"/><tag k="coa:place_id" v="555705"/></node><node id="-160" lat="30.333746" lon="-97.778965" changeset="false"><tag k="addr:street" v="Tortuga Trail"/><tag k="addr:housenumber" v="5303"/><tag k="coa:place_id" v="560542"/></node><node id="-161" lat="30.338131" lon="-97.780655" changeset="false"><tag k="addr:street" v="Eby Lane"/><tag k="addr:housenumber" v="4707"/><tag k="coa:place_id" v="686289"/></node><node id="-162" lat="30.337756" lon="-97.778849" changeset="false"><tag k="addr:street" v="Tortuga Trail"/><tag k="addr:housenumber" v="5415"/><tag k="coa:place_id" v="687849"/></node><node id="-163" lat="30.337276" lon="-97.77927" changeset="false"><tag k="addr:street" v="Tortuga Trail"/><tag k="addr:housenumber" v="5407"/><tag k="coa:place_id" v="687825"/></node><node id="-164" lat="30.340707" lon="-97.784239" changeset="false"><tag k="addr:street" v="Palisade Drive"/><tag k="addr:housenumber" v="4727"/><tag k="coa:place_id" v="619659"/></node><node id="-165" lat="30.339675" lon="-97.778787" changeset="false"><tag k="addr:street" v="Colorado Crossing"/><tag k="addr:housenumber" v="4601"/><tag k="coa:place_id" v="688005"/></node><node id="-166" lat="30.332908" lon="-97.779713" changeset="false"><tag k="addr:street" v="Tortuga Place"/><tag k="addr:housenumber" v="4900"/><tag k="coa:place_id" v="332452"/></node><node id="-167" lat="30.353308" lon="-97.785662" changeset="false"><tag k="addr:street" v="North Scout Island Circle,1100"/><tag k="addr:housenumber" v="5213"/><tag k="coa:place_id" v="673077"/></node><node id="-168" lat="30.352883" lon="-97.792682" changeset="false"><tag k="addr:street" v="Courtyard Drive,1100"/><tag k="addr:housenumber" v="5506"/><tag k="coa:place_id" v="515793"/></node><node id="-169" lat="30.358739" lon="-97.788274" changeset="false"><tag k="addr:street" v="Ranch to Market Road 2222"/><tag k="addr:housenumber" v="5619"/><tag k="coa:place_id" v="115161"/></node><node id="-170" lat="30.354008" lon="-97.788642" changeset="false"><tag k="addr:street" v="Sam Houston Circle"/><tag k="addr:housenumber" v="5725"/><tag k="coa:place_id" v="430858"/></node><node id="-171" lat="30.33816" lon="-97.776765" changeset="false"><tag k="addr:street" v="Mount Bonnell Road"/><tag k="addr:housenumber" v="5402"/><tag k="coa:place_id" v="117619"/></node><node id="-172" lat="30.339759" lon="-97.783693" changeset="false"><tag k="addr:street" v="Craggy Point"/><tag k="addr:housenumber" v="5602"/><tag k="coa:place_id" v="585556"/></node><node id="-173" lat="30.353784" lon="-97.784453" changeset="false"><tag k="addr:street" v="Cone Circle"/><tag k="addr:housenumber" v="5901"/><tag k="coa:place_id" v="139924"/></node><node id="-174" lat="30.340036" lon="-97.782427" changeset="false"><tag k="addr:street" v="Palisade Court"/><tag k="addr:housenumber" v="5600"/><tag k="coa:place_id" v="664695"/></node><node id="-175" lat="30.336558" lon="-97.776126" changeset="false"><tag k="addr:street" v="Mount Bonnell Road"/><tag k="addr:housenumber" v="5228"/><tag k="coa:place_id" v="117623"/></node><node id="-176" lat="30.355337" lon="-97.787294" changeset="false"><tag k="addr:street" v="Tom Wooten Drive"/><tag k="addr:housenumber" v="5900"/><tag k="coa:place_id" v="507543"/></node><node id="-177" lat="30.354316" lon="-97.784936" changeset="false"><tag k="addr:street" v="North Scout Island Circle"/><tag k="addr:housenumber" v="5303"/><tag k="coa:place_id" v="675435"/></node><node id="-178" lat="30.354169" lon="-97.787649" changeset="false"><tag k="addr:street" v="North Scout Island Circle,1100"/><tag k="addr:housenumber" v="5402"/><tag k="coa:place_id" v="672933"/></node><node id="-179" lat="30.34038" lon="-97.781446" changeset="false"><tag k="addr:street" v="Palisade Court"/><tag k="addr:housenumber" v="5611"/><tag k="coa:place_id" v="664737"/></node><node id="-180" lat="30.353392" lon="-97.785329" changeset="false"><tag k="addr:street" v="North Scout Island Circle,1100"/><tag k="addr:housenumber" v="5209"/><tag k="coa:place_id" v="673083"/></node><node id="-181" lat="30.35572" lon="-97.785801" changeset="false"><tag k="addr:street" v="North Scout Island Circle"/><tag k="addr:housenumber" v="5316"/><tag k="coa:place_id" v="675651"/></node><node id="-182" lat="30.355183" lon="-97.78884" changeset="false"><tag k="addr:street" v="Harrington Cove"/><tag k="addr:housenumber" v="5800"/><tag k="coa:place_id" v="676629"/></node><node id="-183" lat="30.355997" lon="-97.786188" changeset="false"><tag k="addr:street" v="North Scout Island Circle"/><tag k="addr:housenumber" v="5402"/><tag k="coa:place_id" v="675663"/></node><node id="-184" lat="30.338131" lon="-97.78149" changeset="false"><tag k="addr:street" v="Hurlock Drive"/><tag k="addr:housenumber" v="5406"/><tag k="coa:place_id" v="719200"/></node><node id="-185" lat="30.355069" lon="-97.785712" changeset="false"><tag k="addr:street" v="Inter Council Cove"/><tag k="addr:housenumber" v="5912"/><tag k="coa:place_id" v="675735"/></node><node id="-186" lat="30.355561" lon="-97.786381" changeset="false"><tag k="addr:street" v="Little Bull Cove"/><tag k="addr:housenumber" v="6002"/><tag k="coa:place_id" v="675699"/></node><node id="-187" lat="30.355869" lon="-97.790534" changeset="false"><tag k="addr:street" v="Back Court"/><tag k="addr:housenumber" v="5809"/><tag k="coa:place_id" v="388395"/></node><node id="-188" lat="30.340306" lon="-97.775973" changeset="false"><tag k="addr:street" v="Bonnell Vista Street"/><tag k="addr:housenumber" v="5608"/><tag k="coa:place_id" v="3084793"/></node><node id="-189" lat="30.34017" lon="-97.775904" changeset="false"><tag k="addr:street" v="Bonnell Vista Street"/><tag k="addr:housenumber" v="5606"/><tag k="coa:place_id" v="104692"/></node><node id="-190" lat="30.339039" lon="-97.779459" changeset="false"><tag k="addr:street" v="Eby Lane"/><tag k="addr:housenumber" v="4604"/><tag k="coa:place_id" v="686883"/></node><node id="-191" lat="30.338994" lon="-97.779539" changeset="false"><tag k="addr:street" v="Eby Lane"/><tag k="addr:housenumber" v="4606"/><tag k="coa:place_id" v="751600"/></node><node id="-192" lat="30.339194" lon="-97.779109" changeset="false"><tag k="addr:street" v="Eby Lane"/><tag k="addr:housenumber" v="4600"/><tag k="coa:place_id" v="686871"/></node><node id="-193" lat="30.339133" lon="-97.779194" changeset="false"><tag k="addr:street" v="Eby Lane"/><tag k="addr:housenumber" v="4602"/><tag k="coa:place_id" v="710680"/></node><node id="-194" lat="30.338718" lon="-97.780321" changeset="false"><tag k="addr:street" v="Eby Lane"/><tag k="addr:housenumber" v="4700"/><tag k="coa:place_id" v="686925"/></node><node id="-195" lat="30.338701" lon="-97.780408" changeset="false"><tag k="addr:street" v="Eby Lane"/><tag k="addr:housenumber" v="4702"/><tag k="coa:place_id" v="686931"/></node><node id="-196" lat="30.354451" lon="-97.786581" changeset="false"><tag k="addr:street" v="Tom Wooten Cove"/><tag k="addr:housenumber" v="5805"/><tag k="coa:place_id" v="676557"/></node><node id="-197" lat="30.354361" lon="-97.786615" changeset="false"><tag k="addr:street" v="Tom Wooten Cove"/><tag k="addr:housenumber" v="5803"/><tag k="coa:place_id" v="676563"/></node><node id="-198" lat="30.355929" lon="-97.791715" changeset="false"><tag k="addr:street" v="Jamboree Court"/><tag k="addr:housenumber" v="5704"/><tag k="coa:place_id" v="515823"/></node><node id="-199" lat="30.355892" lon="-97.791816" changeset="false"><tag k="addr:street" v="Jamboree Court"/><tag k="addr:housenumber" v="5706"/><tag k="coa:place_id" v="515817"/></node><node id="-200" lat="30.355922" lon="-97.791615" changeset="false"><tag k="addr:street" v="Jamboree Court"/><tag k="addr:housenumber" v="5702"/><tag k="coa:place_id" v="515829"/></node><node id="-201" lat="30.355941" lon="-97.791488" changeset="false"><tag k="addr:street" v="Jamboree Court"/><tag k="addr:housenumber" v="5700"/><tag k="coa:place_id" v="606213"/></node><node id="-202" lat="30.35585" lon="-97.791936" changeset="false"><tag k="addr:street" v="Jamboree Court"/><tag k="addr:housenumber" v="5708"/><tag k="coa:place_id" v="516003"/></node><node id="-203" lat="30.356068" lon="-97.790591" changeset="false"><tag k="addr:street" v="Back Court"/><tag k="addr:housenumber" v="5813"/><tag k="coa:place_id" v="480447"/></node><node id="-204" lat="30.355971" lon="-97.790572" changeset="false"><tag k="addr:street" v="Back Court"/><tag k="addr:housenumber" v="5811"/><tag k="coa:place_id" v="480435"/></node><node id="-205" lat="30.355939" lon="-97.791174" changeset="false"><tag k="addr:street" v="Back Court"/><tag k="addr:housenumber" v="5812"/><tag k="coa:place_id" v="218397"/></node><node id="-206" lat="30.355877" lon="-97.791169" changeset="false"><tag k="addr:street" v="Back Court"/><tag k="addr:housenumber" v="5810"/><tag k="coa:place_id" v="219903"/></node><node id="-207" lat="30.356206" lon="-97.791226" changeset="false"><tag k="addr:street" v="Back Court"/><tag k="addr:housenumber" v="5818"/><tag k="coa:place_id" v="218415"/></node><node id="-208" lat="30.356115" lon="-97.791215" changeset="false"><tag k="addr:street" v="Back Court"/><tag k="addr:housenumber" v="5816"/><tag k="coa:place_id" v="218409"/></node><node id="-209" lat="30.355308" lon="-97.791963" changeset="false"><tag k="addr:street" v="Jamboree Court"/><tag k="addr:housenumber" v="5711"/><tag k="coa:place_id" v="686013"/></node><node id="-210" lat="30.355342" lon="-97.791721" changeset="false"><tag k="addr:street" v="Jamboree Court"/><tag k="addr:housenumber" v="5707"/><tag k="coa:place_id" v="515853"/></node><node id="-211" lat="30.355384" lon="-97.791601" changeset="false"><tag k="addr:street" v="Jamboree Court"/><tag k="addr:housenumber" v="5705"/><tag k="coa:place_id" v="515847"/></node><node id="-212" lat="30.35533" lon="-97.791825" changeset="false"><tag k="addr:street" v="Jamboree Court"/><tag k="addr:housenumber" v="5709"/><tag k="coa:place_id" v="515859"/></node><node id="-213" lat="30.355402" lon="-97.79141" changeset="false"><tag k="addr:street" v="Jamboree Court"/><tag k="addr:housenumber" v="5701"/><tag k="coa:place_id" v="515835"/></node><node id="-214" lat="30.355398" lon="-97.791495" changeset="false"><tag k="addr:street" v="Jamboree Court"/><tag k="addr:housenumber" v="5703"/><tag k="coa:place_id" v="515841"/></node><node id="-215" lat="30.355414" lon="-97.792462" changeset="false"><tag k="addr:street" v="North Scout Island Circle"/><tag k="addr:housenumber" v="5722"/><tag k="coa:place_id" v="515991"/></node><node id="-216" lat="30.355313" lon="-97.792466" changeset="false"><tag k="addr:street" v="North Scout Island Circle"/><tag k="addr:housenumber" v="5724"/><tag k="coa:place_id" v="515985"/></node><node id="-217" lat="30.355228" lon="-97.79247" changeset="false"><tag k="addr:street" v="North Scout Island Circle"/><tag k="addr:housenumber" v="5726"/><tag k="coa:place_id" v="516327"/></node><node id="-218" lat="30.355512" lon="-97.792397" changeset="false"><tag k="addr:street" v="North Scout Island Circle"/><tag k="addr:housenumber" v="5720"/><tag k="coa:place_id" v="515997"/></node><node id="-219" lat="30.355394" lon="-97.790834" changeset="false"><tag k="addr:street" v="Back Court"/><tag k="addr:housenumber" v="5800"/><tag k="coa:place_id" v="371559"/></node><node id="-220" lat="30.355397" lon="-97.790742" changeset="false"><tag k="addr:street" v="Back Court"/><tag k="addr:housenumber" v="5801"/><tag k="coa:place_id" v="371133"/></node><node id="-221" lat="30.355553" lon="-97.790428" changeset="false"><tag k="addr:street" v="Back Court"/><tag k="addr:housenumber" v="5805"/><tag k="coa:place_id" v="460725"/></node><node id="-222" lat="30.35548" lon="-97.790483" changeset="false"><tag k="addr:street" v="Back Court"/><tag k="addr:housenumber" v="5803"/><tag k="coa:place_id" v="460731"/></node><node id="-223" lat="30.355431" lon="-97.791045" changeset="false"><tag k="addr:street" v="Back Court"/><tag k="addr:housenumber" v="5802"/><tag k="coa:place_id" v="371127"/></node><node id="-224" lat="30.355509" lon="-97.791091" changeset="false"><tag k="addr:street" v="Back Court"/><tag k="addr:housenumber" v="5804"/><tag k="coa:place_id" v="370929"/></node><node id="-225" lat="30.355602" lon="-97.791107" changeset="false"><tag k="addr:street" v="Back Court"/><tag k="addr:housenumber" v="5806"/><tag k="coa:place_id" v="303549"/></node><node id="-226" lat="30.355718" lon="-97.791124" changeset="false"><tag k="addr:street" v="Back Court"/><tag k="addr:housenumber" v="5808"/><tag k="coa:place_id" v="303555"/></node><node id="-227" lat="30.354789" lon="-97.792007" changeset="false"><tag k="addr:street" v="North Scout Island Circle"/><tag k="addr:housenumber" v="5731"/><tag k="coa:place_id" v="92908"/></node><node id="-228" lat="30.354862" lon="-97.791918" changeset="false"><tag k="addr:street" v="North Scout Island Circle"/><tag k="addr:housenumber" v="5729"/><tag k="coa:place_id" v="516297"/></node><node id="-229" lat="30.354963" lon="-97.791903" changeset="false"><tag k="addr:street" v="North Scout Island Circle"/><tag k="addr:housenumber" v="5727"/><tag k="coa:place_id" v="516291"/></node><node id="-230" lat="30.35505" lon="-97.791855" changeset="false"><tag k="addr:street" v="North Scout Island Circle"/><tag k="addr:housenumber" v="5725"/><tag k="coa:place_id" v="516285"/></node><node id="-231" lat="30.353725" lon="-97.792617" changeset="false"><tag k="addr:street" v="Muster Court"/><tag k="addr:housenumber" v="5604"/><tag k="coa:place_id" v="515721"/></node><node id="-232" lat="30.353757" lon="-97.792691" changeset="false"><tag k="addr:street" v="Muster Court"/><tag k="addr:housenumber" v="5606"/><tag k="coa:place_id" v="515727"/></node><node id="-233" lat="30.353809" lon="-97.79281" changeset="false"><tag k="addr:street" v="Muster Court"/><tag k="addr:housenumber" v="5608"/><tag k="coa:place_id" v="515733"/></node><node id="-234" lat="30.354208" lon="-97.793071" changeset="false"><tag k="addr:street" v="North Scout Island Circle"/><tag k="addr:housenumber" v="5746"/><tag k="coa:place_id" v="516033"/></node><node id="-235" lat="30.354124" lon="-97.793133" changeset="false"><tag k="addr:street" v="North Scout Island Circle"/><tag k="addr:housenumber" v="5748"/><tag k="coa:place_id" v="516045"/></node><node id="-236" lat="30.353983" lon="-97.793236" changeset="false"><tag k="addr:street" v="North Scout Island Circle"/><tag k="addr:housenumber" v="5752"/><tag k="coa:place_id" v="516315"/></node><node id="-237" lat="30.354051" lon="-97.793185" changeset="false"><tag k="addr:street" v="North Scout Island Circle"/><tag k="addr:housenumber" v="5750"/><tag k="coa:place_id" v="516051"/></node><node id="-238" lat="30.354303" lon="-97.793014" changeset="false"><tag k="addr:street" v="North Scout Island Circle"/><tag k="addr:housenumber" v="5744"/><tag k="coa:place_id" v="655432"/></node><node id="-239" lat="30.354008" lon="-97.792565" changeset="false"><tag k="addr:street" v="North Scout Island Circle"/><tag k="addr:housenumber" v="5747"/><tag k="coa:place_id" v="516057"/></node><node id="-240" lat="30.354176" lon="-97.792436" changeset="false"><tag k="addr:street" v="North Scout Island Circle"/><tag k="addr:housenumber" v="5743"/><tag k="coa:place_id" v="516069"/></node><node id="-241" lat="30.354098" lon="-97.792495" changeset="false"><tag k="addr:street" v="North Scout Island Circle"/><tag k="addr:housenumber" v="5745"/><tag k="coa:place_id" v="516063"/></node><node id="-242" lat="30.354437" lon="-97.792248" changeset="false"><tag k="addr:street" v="North Scout Island Circle"/><tag k="addr:housenumber" v="5739"/><tag k="coa:place_id" v="516099"/></node><node id="-243" lat="30.354586" lon="-97.792138" changeset="false"><tag k="addr:street" v="North Scout Island Circle"/><tag k="addr:housenumber" v="5735"/><tag k="coa:place_id" v="516087"/></node><node id="-244" lat="30.354507" lon="-97.792194" changeset="false"><tag k="addr:street" v="North Scout Island Circle"/><tag k="addr:housenumber" v="5737"/><tag k="coa:place_id" v="516093"/></node><node id="-245" lat="30.354664" lon="-97.792085" changeset="false"><tag k="addr:street" v="North Scout Island Circle"/><tag k="addr:housenumber" v="5733"/><tag k="coa:place_id" v="516081"/></node><node id="-246" lat="30.353316" lon="-97.792724" changeset="false"><tag k="addr:street" v="Muster Court"/><tag k="addr:housenumber" v="5607"/><tag k="coa:place_id" v="515757"/></node><node id="-247" lat="30.35323" lon="-97.792525" changeset="false"><tag k="addr:street" v="Muster Court"/><tag k="addr:housenumber" v="5603"/><tag k="coa:place_id" v="515769"/></node><node id="-248" lat="30.353356" lon="-97.792815" changeset="false"><tag k="addr:street" v="Muster Court"/><tag k="addr:housenumber" v="5609"/><tag k="coa:place_id" v="515751"/></node><node id="-249" lat="30.353451" lon="-97.793032" changeset="false"><tag k="addr:street" v="Muster Court"/><tag k="addr:housenumber" v="5613"/><tag k="coa:place_id" v="515739"/></node><node id="-250" lat="30.353402" lon="-97.792917" changeset="false"><tag k="addr:street" v="Muster Court"/><tag k="addr:housenumber" v="5611"/><tag k="coa:place_id" v="515745"/></node><node id="-251" lat="30.35327" lon="-97.79263" changeset="false"><tag k="addr:street" v="Muster Court"/><tag k="addr:housenumber" v="5605"/><tag k="coa:place_id" v="515763"/></node><node id="-252" lat="30.352557" lon="-97.794236" changeset="false"><tag k="addr:street" v="Courtyard Drive,1100"/><tag k="addr:housenumber" v="5404"/><tag k="coa:place_id" v="516111"/></node><node id="-253" lat="30.352552" lon="-97.794119" changeset="false"><tag k="addr:street" v="Courtyard Drive,1100"/><tag k="addr:housenumber" v="5406"/><tag k="coa:place_id" v="516123"/></node><node id="-254" lat="30.352885" lon="-97.792912" changeset="false"><tag k="addr:street" v="Courtyard Drive,1100"/><tag k="addr:housenumber" v="5502"/><tag k="coa:place_id" v="515781"/></node><node id="-255" lat="30.352885" lon="-97.792797" changeset="false"><tag k="addr:street" v="Courtyard Drive,1100"/><tag k="addr:housenumber" v="5504"/><tag k="coa:place_id" v="273460"/></node><node id="-256" lat="30.352754" lon="-97.793761" changeset="false"><tag k="addr:street" v="Wolf Court"/><tag k="addr:housenumber" v="5606"/><tag k="coa:place_id" v="143905"/></node><node id="-257" lat="30.352709" lon="-97.793851" changeset="false"><tag k="addr:street" v="Wolf Court"/><tag k="addr:housenumber" v="5608"/><tag k="coa:place_id" v="143906"/></node><node id="-258" lat="30.352841" lon="-97.793546" changeset="false"><tag k="addr:street" v="Wolf Court"/><tag k="addr:housenumber" v="5602"/><tag k="coa:place_id" v="143903"/></node><node id="-259" lat="30.352802" lon="-97.793649" changeset="false"><tag k="addr:street" v="Wolf Court"/><tag k="addr:housenumber" v="5604"/><tag k="coa:place_id" v="143904"/></node></osm>