<?xml version="1.0" encoding="UTF-8"?><osm version="0.6" generator="github.com/aaronlidman/osm-and-geojson"><node id="-1" lat="30.35714" lon="-97.855474" changeset="false"><tag k="addr:street" v="Far View Drive"/><tag k="addr:housenumber" v="3342"/><tag k="addr:postcode" v="78730"/></node><node id="-2" lat="30.38225" lon="-97.831253" changeset="false"><tag k="addr:street" v="Bell Mountain Drive"/><tag k="addr:housenumber" v="9500"/><tag k="addr:postcode" v="78730"/></node><node id="-3" lat="30.381822" lon="-97.824994" changeset="false"><tag k="addr:street" v="Epping Forest Cove"/><tag k="addr:housenumber" v="6508"/><tag k="addr:postcode" v="78730"/></node><node id="-4" lat="30.365839" lon="-97.840559" changeset="false"><tag k="addr:street" v="Westminster Glen Avenue"/><tag k="addr:housenumber" v="9424"/><tag k="addr:postcode" v="78730"/></node><node id="-5" lat="30.365487" lon="-97.848242" changeset="false"><tag k="addr:street" v="Westminster Glen Avenue"/><tag k="addr:housenumber" v="9810"/><tag k="addr:postcode" v="78730"/></node><node id="-6" lat="30.367672" lon="-97.847457" changeset="false"><tag k="addr:street" v="Big View Drive"/><tag k="addr:housenumber" v="9812"/><tag k="addr:postcode" v="78730"/></node><node id="-7" lat="30.367656" lon="-97.852573" changeset="false"><tag k="addr:street" v="Inshore Cove"/><tag k="addr:housenumber" v="4309"/><tag k="addr:postcode" v="78730"/></node><node id="-8" lat="30.362812" lon="-97.855847" changeset="false"><tag k="addr:street" v="River Place Boulevard"/><tag k="addr:housenumber" v="3812"/><tag k="addr:postcode" v="78730"/></node><node id="-9" lat="30.367138" lon="-97.848557" changeset="false"><tag k="addr:street" v="Big View Drive"/><tag k="addr:housenumber" v="9801 1/2"/><tag k="addr:postcode" v="78730"/></node><node id="-10" lat="30.35796" lon="-97.860384" changeset="false"><tag k="addr:street" v="Far View Drive"/><tag k="addr:housenumber" v="3306"/><tag k="addr:postcode" v="78730"/></node><node id="-11" lat="30.357832" lon="-97.858425" changeset="false"><tag k="addr:street" v="Far View Drive"/><tag k="addr:housenumber" v="3322"/><tag k="addr:postcode" v="78730"/></node><node id="-12" lat="30.373519" lon="-97.84773" changeset="false"><tag k="addr:street" v="China Garden Drive"/><tag k="addr:housenumber" v="5145"/><tag k="addr:postcode" v="78730"/></node><node id="-13" lat="30.364038" lon="-97.860198" changeset="false"><tag k="addr:street" v="Josh Lane"/><tag k="addr:housenumber" v="3724"/><tag k="addr:postcode" v="78730"/></node><node id="-14" lat="30.357759" lon="-97.85648" changeset="false"><tag k="addr:street" v="Far View Drive"/><tag k="addr:housenumber" v="3334"/><tag k="addr:postcode" v="78730"/></node><node id="-15" lat="30.380126" lon="-97.829504" changeset="false"><tag k="addr:street" v="Bell Mountain Drive"/><tag k="addr:housenumber" v="9305"/><tag k="addr:postcode" v="78730"/></node><node id="-16" lat="30.361801" lon="-97.851599" changeset="false"><tag k="addr:street" v="Glenlake Drive"/><tag k="addr:housenumber" v="9812"/><tag k="addr:postcode" v="78730"/></node><node id="-17" lat="30.384315" lon="-97.830674" changeset="false"><tag k="addr:street" v="Leaning Rock Circle"/><tag k="addr:housenumber" v="9504"/><tag k="addr:postcode" v="78730"/></node><node id="-18" lat="30.35919" lon="-97.846161" changeset="false"><tag k="addr:street" v="Glenlake Drive"/><tag k="addr:housenumber" v="9504"/><tag k="addr:postcode" v="78730"/></node><node id="-19" lat="30.359089" lon="-97.853592" changeset="false"><tag k="addr:street" v="Far View Drive"/><tag k="addr:housenumber" v="3402"/><tag k="addr:postcode" v="78730"/></node><node id="-20" lat="30.364329" lon="-97.836333" changeset="false"><tag k="addr:street" v="Westminster Glen Avenue"/><tag k="addr:housenumber" v="9200"/><tag k="addr:postcode" v="78730"/></node><node id="-21" lat="30.369599" lon="-97.854077" changeset="false"><tag k="addr:street" v="Canoas Drive"/><tag k="addr:housenumber" v="4416"/><tag k="addr:postcode" v="78730"/></node><node id="-22" lat="30.377865" lon="-97.825417" changeset="false"><tag k="addr:street" v="Bell Mountain Drive"/><tag k="addr:housenumber" v="9004"/><tag k="addr:postcode" v="78730"/></node><node id="-23" lat="30.376965" lon="-97.8265" changeset="false"><tag k="addr:street" v="Bell Mountain Drive"/><tag k="addr:housenumber" v="9009"/><tag k="addr:postcode" v="78730"/></node><node id="-24" lat="30.365339" lon="-97.849412" changeset="false"><tag k="addr:street" v="Big View Drive"/><tag k="addr:housenumber" v="9744"/><tag k="addr:postcode" v="78730"/></node><node id="-25" lat="30.356095" lon="-97.851216" changeset="false"><tag k="addr:street" v="Eagle Rising Cove"/><tag k="addr:housenumber" v="9705"/><tag k="addr:postcode" v="78730"/></node><node id="-26" lat="30.363232" lon="-97.850819" changeset="false"><tag k="addr:street" v="Big View Drive"/><tag k="addr:housenumber" v="9708"/><tag k="addr:postcode" v="78730"/></node><node id="-27" lat="30.362814" lon="-97.834957" changeset="false"><tag k="addr:street" v="Westminster Glen Avenue"/><tag k="addr:housenumber" v="9004"/><tag k="addr:postcode" v="78730"/></node><node id="-28" lat="30.375476" lon="-97.852626" changeset="false"><tag k="addr:street" v="Treasure Island Drive"/><tag k="addr:housenumber" v="10407"/><tag k="addr:postcode" v="78730"/></node><node id="-29" lat="30.375004" lon="-97.846865" changeset="false"><tag k="addr:street" v="Planters Woods Drive"/><tag k="addr:housenumber" v="10116"/><tag k="addr:postcode" v="78730"/></node><node id="-30" lat="30.379175" lon="-97.826299" changeset="false"><tag k="addr:street" v="Leaning Rock Circle"/><tag k="addr:housenumber" v="9104"/><tag k="addr:postcode" v="78730"/></node><node id="-31" lat="30.362498" lon="-97.847434" changeset="false"><tag k="addr:street" v="Westminster Glen Avenue"/><tag k="addr:housenumber" v="9915"/><tag k="addr:postcode" v="78730"/></node><node id="-32" lat="30.360114" lon="-97.839882" changeset="false"><tag k="addr:street" v="Prince Charles Drive"/><tag k="addr:housenumber" v="9213"/><tag k="addr:postcode" v="78730"/></node><node id="-33" lat="30.353806" lon="-97.843828" changeset="false"><tag k="addr:street" v="Chalkstone Cove"/><tag k="addr:housenumber" v="3601"/><tag k="addr:postcode" v="78730"/></node><node id="-34" lat="30.353324" lon="-97.841351" changeset="false"><tag k="addr:street" v="Weatherhill Cove"/><tag k="addr:housenumber" v="3707"/><tag k="addr:postcode" v="78730"/></node><node id="-35" lat="30.353277" lon="-97.842759" changeset="false"><tag k="addr:street" v="Weatherhill Cove"/><tag k="addr:housenumber" v="3700"/><tag k="addr:postcode" v="78730"/></node><node id="-36" lat="30.386185" lon="-97.8481" changeset="false"><tag k="addr:street" v="Milky Way Drive"/><tag k="addr:housenumber" v="10408"/><tag k="addr:postcode" v="78730"/></node><node id="-37" lat="30.386472" lon="-97.848999" changeset="false"><tag k="addr:street" v="Milky Way Drive"/><tag k="addr:housenumber" v="10500"/><tag k="addr:postcode" v="78730"/></node><node id="-38" lat="30.37771" lon="-97.825115" changeset="false"><tag k="addr:street" v="Bell Mountain Drive"/><tag k="addr:housenumber" v="9000"/><tag k="addr:postcode" v="78730"/></node><node id="-39" lat="30.356901" lon="-97.850385" changeset="false"><tag k="addr:street" v="Eagle Rising Cove"/><tag k="addr:housenumber" v="9702"/><tag k="addr:postcode" v="78730"/></node><node id="-40" lat="30.392281" lon="-97.846722" changeset="false"><tag k="addr:street" v="River Place Boulevard"/><tag k="addr:housenumber" v="6601 1/2"/><tag k="addr:postcode" v="78730"/></node><node id="-41" lat="30.349925" lon="-97.841155" changeset="false"><tag k="addr:street" v="Ranch Creek Drive"/><tag k="addr:housenumber" v="3614"/><tag k="addr:postcode" v="78730"/></node><node id="-42" lat="30.360752" lon="-97.836106" changeset="false"><tag k="addr:street" v="Mountbatten Circle"/><tag k="addr:housenumber" v="9001"/><tag k="addr:postcode" v="78730"/></node><node id="-43" lat="30.371569" lon="-97.855392" changeset="false"><tag k="addr:street" v="Golf Vista Drive"/><tag k="addr:housenumber" v="4544"/><tag k="addr:postcode" v="78730"/></node><node id="-44" lat="30.360466" lon="-97.831965" changeset="false"><tag k="addr:street" v="Westminster Glen Avenue"/><tag k="addr:housenumber" v="8800"/><tag k="addr:postcode" v="78730"/></node><node id="-45" lat="30.366419" lon="-97.849343" changeset="false"><tag k="addr:street" v="Tideland Cove"/><tag k="addr:housenumber" v="10001"/><tag k="addr:postcode" v="78730"/></node><node id="-46" lat="30.368909" lon="-97.836444" changeset="false"><tag k="addr:street" v="City Park Road"/><tag k="addr:housenumber" v="4820"/><tag k="addr:postcode" v="78730"/></node><node id="-47" lat="30.38239" lon="-97.85006" changeset="false"><tag k="addr:street" v="Merrywing Cove"/><tag k="addr:housenumber" v="10611"/><tag k="addr:postcode" v="78730"/></node><node id="-48" lat="30.352805" lon="-97.841685" changeset="false"><tag k="addr:street" v="Weatherhill Cove"/><tag k="addr:housenumber" v="3701"/><tag k="addr:postcode" v="78730"/></node><node id="-49" lat="30.351486" lon="-97.843462" changeset="false"><tag k="addr:street" v="Ranch Creek Drive"/><tag k="addr:housenumber" v="3635"/><tag k="addr:postcode" v="78730"/></node><node id="-50" lat="30.364412" lon="-97.845439" changeset="false"><tag k="addr:street" v="Noble Hill Court"/><tag k="addr:housenumber" v="4501"/><tag k="addr:postcode" v="78730"/></node><node id="-51" lat="30.360483" lon="-97.839538" changeset="false"><tag k="addr:street" v="Prince Charles Drive"/><tag k="addr:housenumber" v="9209"/><tag k="addr:postcode" v="78730"/></node><node id="-52" lat="30.373866" lon="-97.825142" changeset="false"><tag k="addr:street" v="Maurys Trail"/><tag k="addr:housenumber" v="6008"/><tag k="addr:postcode" v="78730"/></node><node id="-53" lat="30.370488" lon="-97.844046" changeset="false"><tag k="addr:street" v="High Gate Drive"/><tag k="addr:housenumber" v="4908"/><tag k="addr:postcode" v="78730"/></node><node id="-54" lat="30.361996" lon="-97.859884" changeset="false"><tag k="addr:street" v="Atlas Cove"/><tag k="addr:housenumber" v="3608"/><tag k="addr:postcode" v="78730"/></node><node id="-55" lat="30.381342" lon="-97.851481" changeset="false"><tag k="addr:street" v="Merrywing Circle"/><tag k="addr:housenumber" v="5601"/><tag k="addr:postcode" v="78730"/></node><node id="-56" lat="30.362708" lon="-97.851171" changeset="false"><tag k="addr:street" v="Big View Drive"/><tag k="addr:housenumber" v="9700"/><tag k="addr:postcode" v="78730"/></node><node id="-57" lat="30.372716" lon="-97.825539" changeset="false"><tag k="addr:street" v="Standing Rock Drive"/><tag k="addr:housenumber" v="5727"/><tag k="addr:postcode" v="78730"/></node><node id="-58" lat="30.372215" lon="-97.825374" changeset="false"><tag k="addr:street" v="Standing Rock Drive"/><tag k="addr:housenumber" v="5721"/><tag k="addr:postcode" v="78730"/></node><node id="-59" lat="30.383877" lon="-97.829916" changeset="false"><tag k="addr:street" v="Leaning Rock Circle"/><tag k="addr:housenumber" v="9412"/><tag k="addr:postcode" v="78730"/></node><node id="-60" lat="30.367381" lon="-97.848777" changeset="false"><tag k="addr:street" v="Big View Drive"/><tag k="addr:housenumber" v="9801"/><tag k="addr:postcode" v="78730"/></node><node id="-61" lat="30.366702" lon="-97.853042" changeset="false"><tag k="addr:street" v="Inshore Cove"/><tag k="addr:housenumber" v="4301"/><tag k="addr:postcode" v="78730"/></node><node id="-62" lat="30.366403" lon="-97.847555" changeset="false"><tag k="addr:street" v="Whitehall Cove"/><tag k="addr:housenumber" v="4506"/><tag k="addr:postcode" v="78730"/></node><node id="-63" lat="30.382997" lon="-97.834307" changeset="false"><tag k="addr:street" v="Bell Mountain Drive"/><tag k="addr:housenumber" v="9613"/><tag k="addr:postcode" v="78730"/></node><node id="-64" lat="30.366095" lon="-97.840894" changeset="false"><tag k="addr:street" v="Westminster Glen Avenue"/><tag k="addr:housenumber" v="9500"/><tag k="addr:postcode" v="78730"/></node><node id="-65" lat="30.355561" lon="-97.847799" changeset="false"><tag k="addr:street" v="Ranch Creek Drive"/><tag k="addr:housenumber" v="3684"/><tag k="addr:postcode" v="78730"/></node><node id="-66" lat="30.37039" lon="-97.823923" changeset="false"><tag k="addr:street" v="Standing Rock Drive"/><tag k="addr:housenumber" v="5701"/><tag k="addr:postcode" v="78730"/></node><node id="-67" lat="30.365797" lon="-97.859279" changeset="false"><tag k="addr:street" v="River Place Boulevard"/><tag k="addr:housenumber" v="3965"/><tag k="addr:postcode" v="78730"/></node><node id="-68" lat="30.38251" lon="-97.831636" changeset="false"><tag k="addr:street" v="Bell Mountain Drive"/><tag k="addr:housenumber" v="9504"/><tag k="addr:postcode" v="78730"/></node><node id="-69" lat="30.386066" lon="-97.822268" changeset="false"><tag k="addr:street" v="Ranch to Market Road 2222"/><tag k="addr:housenumber" v="9115"/><tag k="addr:postcode" v="78730"/></node><node id="-70" lat="30.383222" lon="-97.845244" changeset="false"><tag k="addr:street" v="Milky Way Drive"/><tag k="addr:housenumber" v="10201"/><tag k="addr:postcode" v="78730"/></node><node id="-71" lat="30.373416" lon="-97.824894" changeset="false"><tag k="addr:street" v="Maurys Trail"/><tag k="addr:housenumber" v="6004"/><tag k="addr:postcode" v="78730"/></node><node id="-72" lat="30.373992" lon="-97.827386" changeset="false"><tag k="addr:street" v="Standing Rock Drive"/><tag k="addr:housenumber" v="5816"/><tag k="addr:postcode" v="78730"/></node><node id="-73" lat="30.381939" lon="-97.827002" changeset="false"><tag k="addr:street" v="Leaning Rock Circle"/><tag k="addr:housenumber" v="9218"/><tag k="addr:postcode" v="78730"/></node><node id="-74" lat="30.383112" lon="-97.830748" changeset="false"><tag k="addr:street" v="Leaning Rock Circle"/><tag k="addr:housenumber" v="9501"/><tag k="addr:postcode" v="78730"/></node><node id="-75" lat="30.367264" lon="-97.842291" changeset="false"><tag k="addr:street" v="Woody Ridge View"/><tag k="addr:housenumber" v="9609"/><tag k="addr:postcode" v="78730"/></node><node id="-76" lat="30.377421" lon="-97.823942" changeset="false"><tag k="addr:street" v="Bell Mountain Drive"/><tag k="addr:housenumber" v="8900"/><tag k="addr:postcode" v="78730"/></node><node id="-77" lat="30.351827" lon="-97.84698" changeset="false"><tag k="addr:street" v="Ranch Creek Drive"/><tag k="addr:housenumber" v="3656"/><tag k="addr:postcode" v="78730"/></node><node id="-78" lat="30.374973" lon="-97.828014" changeset="false"><tag k="addr:street" v="Standing Rock Drive"/><tag k="addr:housenumber" v="5906"/><tag k="addr:postcode" v="78730"/></node><node id="-79" lat="30.36351" lon="-97.848" changeset="false"><tag k="addr:street" v="Westminster Glen Avenue"/><tag k="addr:housenumber" v="9837"/><tag k="addr:postcode" v="78730"/></node><node id="-80" lat="30.354269" lon="-97.844715" changeset="false"><tag k="addr:street" v="Chalkstone Cove"/><tag k="addr:housenumber" v="3600"/><tag k="addr:postcode" v="78730"/></node><node id="-81" lat="30.359338" lon="-97.851262" changeset="false"><tag k="addr:street" v="Glenlake Drive"/><tag k="addr:housenumber" v="9705"/><tag k="addr:postcode" v="78730"/></node><node id="-82" lat="30.358719" lon="-97.852086" changeset="false"><tag k="addr:street" v="Far View Drive"/><tag k="addr:housenumber" v="3702"/><tag k="addr:postcode" v="78730"/></node><node id="-83" lat="30.360973" lon="-97.855603" changeset="false"><tag k="addr:street" v="Lagood Drive"/><tag k="addr:housenumber" v="3709"/><tag k="addr:postcode" v="78730"/></node><node id="-84" lat="30.360647" lon="-97.861509" changeset="false"><tag k="addr:street" v="Josh Lane"/><tag k="addr:housenumber" v="3512"/><tag k="addr:postcode" v="78730"/></node><node id="-85" lat="30.356507" lon="-97.861019" changeset="false"><tag k="addr:street" v="Far View Drive"/><tag k="addr:housenumber" v="3303"/><tag k="addr:postcode" v="78730"/></node><node id="-86" lat="30.363352" lon="-97.859713" changeset="false"><tag k="addr:street" v="Josh Lane"/><tag k="addr:housenumber" v="3721"/><tag k="addr:postcode" v="78730"/></node><node id="-87" lat="30.360822" lon="-97.835163" changeset="false"><tag k="addr:street" v="Mountbatten Circle"/><tag k="addr:housenumber" v="9000"/><tag k="addr:postcode" v="78730"/></node><node id="-88" lat="30.367344" lon="-97.852951" changeset="false"><tag k="addr:street" v="Inshore Cove"/><tag k="addr:housenumber" v="4307"/><tag k="addr:postcode" v="78730"/></node><node id="-89" lat="30.386499" lon="-97.849525" changeset="false"><tag k="addr:street" v="Milky Way Drive"/><tag k="addr:housenumber" v="10508"/><tag k="addr:postcode" v="78730"/></node><node id="-90" lat="30.383254" lon="-97.828322" changeset="false"><tag k="addr:street" v="Guildford Cove"/><tag k="addr:housenumber" v="6504"/><tag k="addr:postcode" v="78730"/></node><node id="-91" lat="30.360428" lon="-97.841791" changeset="false"><tag k="addr:street" v="Prince Charles Drive"/><tag k="addr:housenumber" v="9308"/><tag k="addr:postcode" v="78730"/></node><node id="-92" lat="30.360934" lon="-97.847121" changeset="false"><tag k="addr:street" v="Chamisa Drive"/><tag k="addr:housenumber" v="4005"/><tag k="addr:postcode" v="78730"/></node><node id="-93" lat="30.36709" lon="-97.861194" changeset="false"><tag k="addr:street" v="River Place Boulevard"/><tag k="addr:housenumber" v="4009"/><tag k="addr:postcode" v="78730"/></node><node id="-94" lat="30.37535" lon="-97.853915" changeset="false"><tag k="addr:street" v="River Place Boulevard"/><tag k="addr:housenumber" v="4901 1/2"/><tag k="addr:postcode" v="78730"/></node><node id="-95" lat="30.367823" lon="-97.857589" changeset="false"><tag k="addr:street" v="Canoas Drive"/><tag k="addr:housenumber" v="4208"/><tag k="addr:postcode" v="78730"/></node><node id="-96" lat="30.35146" lon="-97.841122" changeset="false"><tag k="addr:street" v="Turkey Creek Drive"/><tag k="addr:housenumber" v="3643"/><tag k="addr:postcode" v="78730"/></node><node id="-97" lat="30.350733" lon="-97.84475" changeset="false"><tag k="addr:street" v="Ranch Creek Drive"/><tag k="addr:housenumber" v="3638"/><tag k="addr:postcode" v="78730"/></node><node id="-98" lat="30.362964" lon="-97.851029" changeset="false"><tag k="addr:street" v="Big View Drive"/><tag k="addr:housenumber" v="9704"/><tag k="addr:postcode" v="78730"/></node><node id="-99" lat="30.361901" lon="-97.8578" changeset="false"><tag k="addr:street" v="Big View Drive"/><tag k="addr:housenumber" v="9517"/><tag k="addr:postcode" v="78730"/></node><node id="-100" lat="30.360861" lon="-97.85842" changeset="false"><tag k="addr:street" v="Big View Drive"/><tag k="addr:housenumber" v="9500"/><tag k="addr:postcode" v="78730"/></node><node id="-101" lat="30.36884" lon="-97.85688" changeset="false"><tag k="addr:street" v="Canoas Drive"/><tag k="addr:housenumber" v="4312"/><tag k="addr:postcode" v="78730"/></node><node id="-102" lat="30.368365" lon="-97.842063" changeset="false"><tag k="addr:street" v="Elizabeth Jane Court"/><tag k="addr:housenumber" v="4910"/><tag k="addr:postcode" v="78730"/></node><node id="-103" lat="30.359304" lon="-97.843079" changeset="false"><tag k="addr:street" v="Prince Charles Drive"/><tag k="addr:housenumber" v="9317"/><tag k="addr:postcode" v="78730"/></node><node id="-104" lat="30.358521" lon="-97.841074" changeset="false"><tag k="addr:street" v="Prince Andrew Lane"/><tag k="addr:housenumber" v="4100"/><tag k="addr:postcode" v="78730"/></node><node id="-105" lat="30.356758" lon="-97.841863" changeset="false"><tag k="addr:street" v="Glenlake Drive"/><tag k="addr:housenumber" v="9112"/><tag k="addr:postcode" v="78730"/></node><node id="-106" lat="30.356407" lon="-97.857295" changeset="false"><tag k="addr:street" v="Far View Drive"/><tag k="addr:housenumber" v="3327"/><tag k="addr:postcode" v="78730"/></node><node id="-107" lat="30.355893" lon="-97.855725" changeset="false"><tag k="addr:street" v="Far View Drive"/><tag k="addr:housenumber" v="3337"/><tag k="addr:postcode" v="78730"/></node><node id="-108" lat="30.377355" lon="-97.826911" changeset="false"><tag k="addr:street" v="Bell Mountain Drive"/><tag k="addr:housenumber" v="9101"/><tag k="addr:postcode" v="78730"/></node><node id="-109" lat="30.368251" lon="-97.855092" changeset="false"><tag k="addr:street" v="Canoas Drive"/><tag k="addr:housenumber" v="4405"/><tag k="addr:postcode" v="78730"/></node><node id="-110" lat="30.354425" lon="-97.847953" changeset="false"><tag k="addr:street" v="Ranch Creek Drive"/><tag k="addr:housenumber" v="3674"/><tag k="addr:postcode" v="78730"/></node><node id="-111" lat="30.367004" lon="-97.848015" changeset="false"><tag k="addr:street" v="Big View Drive"/><tag k="addr:housenumber" v="9800"/><tag k="addr:postcode" v="78730"/></node><node id="-112" lat="30.36729" lon="-97.856509" changeset="false"><tag k="addr:street" v="Canoas Drive"/><tag k="addr:housenumber" v="4211"/><tag k="addr:postcode" v="78730"/></node><node id="-113" lat="30.379679" lon="-97.829716" changeset="false"><tag k="addr:street" v="Chambly Cove"/><tag k="addr:housenumber" v="6305"/><tag k="addr:postcode" v="78730"/></node><node id="-114" lat="30.364028" lon="-97.849288" changeset="false"><tag k="addr:street" v="Westminster Glen Avenue"/><tag k="addr:housenumber" v="9836"/><tag k="addr:postcode" v="78730"/></node><node id="-115" lat="30.363712" lon="-97.835855" changeset="false"><tag k="addr:street" v="Westminster Glen Avenue"/><tag k="addr:housenumber" v="9100"/><tag k="addr:postcode" v="78730"/></node><node id="-116" lat="30.355565" lon="-97.832716" changeset="false"><tag k="addr:street" v="City Park Road"/><tag k="addr:housenumber" v="4200"/><tag k="addr:postcode" v="78730"/></node><node id="-117" lat="30.358449" lon="-97.854908" changeset="false"><tag k="addr:street" v="Far View Drive"/><tag k="addr:housenumber" v="3350"/><tag k="addr:postcode" v="78730"/></node><node id="-118" lat="30.370072" lon="-97.825206" changeset="false"><tag k="addr:street" v="Long Canyon Drive"/><tag k="addr:housenumber" v="8708"/><tag k="addr:postcode" v="78730"/></node><node id="-119" lat="30.364005" lon="-97.836101" changeset="false"><tag k="addr:street" v="Westminster Glen Avenue"/><tag k="addr:housenumber" v="9104"/><tag k="addr:postcode" v="78730"/></node><node id="-120" lat="30.374446" lon="-97.844603" changeset="false"><tag k="addr:street" v="China Garden Cove"/><tag k="addr:housenumber" v="9901"/><tag k="addr:postcode" v="78730"/></node><node id="-121" lat="30.382068" lon="-97.826014" changeset="false"><tag k="addr:street" v="Epping Forest Cove"/><tag k="addr:housenumber" v="6504"/><tag k="addr:postcode" v="78730"/></node><node id="-122" lat="30.381418" lon="-97.828058" changeset="false"><tag k="addr:street" v="Leaning Rock Circle"/><tag k="addr:housenumber" v="9301"/><tag k="addr:postcode" v="78730"/></node><node id="-123" lat="30.368301" lon="-97.856009" changeset="false"><tag k="addr:street" v="Canoas Drive"/><tag k="addr:housenumber" v="4305"/><tag k="addr:postcode" v="78730"/></node><node id="-124" lat="30.375846" lon="-97.827392" changeset="false"><tag k="addr:street" v="Standing Rock Drive"/><tag k="addr:housenumber" v="5909"/><tag k="addr:postcode" v="78730"/></node><node id="-125" lat="30.393254" lon="-97.844257" changeset="false"><tag k="addr:street" v="Ranch to Market Road 2222"/><tag k="addr:housenumber" v="10603"/><tag k="addr:postcode" v="78730"/></node><node id="-126" lat="30.364632" lon="-97.840721" changeset="false"><tag k="addr:street" v="Westminster Glen Avenue"/><tag k="addr:housenumber" v="9419"/><tag k="addr:postcode" v="78730"/></node><node id="-127" lat="30.364554" lon="-97.839007" changeset="false"><tag k="addr:street" v="Westminster Glen Avenue"/><tag k="addr:housenumber" v="9309"/><tag k="addr:postcode" v="78730"/></node><node id="-128" lat="30.384522" lon="-97.850411" changeset="false"><tag k="addr:street" v="River Place Boulevard"/><tag k="addr:housenumber" v="5821"/><tag k="addr:postcode" v="78730"/></node><node id="-129" lat="30.362946" lon="-97.849957" changeset="false"><tag k="addr:street" v="Narrow Ridge Drive"/><tag k="addr:housenumber" v="4110"/><tag k="addr:postcode" v="78730"/></node><node id="-130" lat="30.356325" lon="-97.839116" changeset="false"><tag k="addr:street" v="Turkey Creek Drive"/><tag k="addr:housenumber" v="4003"/><tag k="addr:postcode" v="78730"/></node><node id="-131" lat="30.356176" lon="-97.833879" changeset="false"><tag k="addr:street" v="Glenlake Drive"/><tag k="addr:housenumber" v="8707"/><tag k="addr:postcode" v="78730"/></node><node id="-132" lat="30.354025" lon="-97.847024" changeset="false"><tag k="addr:street" v="Ranch Creek Drive"/><tag k="addr:housenumber" v="3663"/><tag k="addr:postcode" v="78730"/></node><node id="-133" lat="30.370975" lon="-97.824139" changeset="false"><tag k="addr:street" v="Standing Rock Drive"/><tag k="addr:housenumber" v="5705"/><tag k="addr:postcode" v="78730"/></node><node id="-134" lat="30.351635" lon="-97.839782" changeset="false"><tag k="addr:street" v="Turkey Creek Drive"/><tag k="addr:housenumber" v="3703"/><tag k="addr:postcode" v="78730"/></node><node id="-135" lat="30.360181" lon="-97.83614" changeset="false"><tag k="addr:street" v="Mountbatten Circle"/><tag k="addr:housenumber" v="8909"/><tag k="addr:postcode" v="78730"/></node><node id="-136" lat="30.361077" lon="-97.833018" changeset="false"><tag k="addr:street" v="Westminster Glen Avenue"/><tag k="addr:housenumber" v="8808"/><tag k="addr:postcode" v="78730"/></node><node id="-137" lat="30.358042" lon="-97.833356" changeset="false"><tag k="addr:street" v="City Park Road"/><tag k="addr:housenumber" v="4412"/><tag k="addr:postcode" v="78730"/></node><node id="-138" lat="30.356949" lon="-97.832979" changeset="false"><tag k="addr:street" v="Glenlake Drive"/><tag k="addr:housenumber" v="8700"/><tag k="addr:postcode" v="78730"/></node><node id="-139" lat="30.357873" lon="-97.85798" changeset="false"><tag k="addr:street" v="Far View Drive"/><tag k="addr:housenumber" v="3326"/><tag k="addr:postcode" v="78730"/></node><node id="-140" lat="30.37751" lon="-97.82483" changeset="false"><tag k="addr:street" v="Bell Mountain Drive"/><tag k="addr:housenumber" v="8908"/><tag k="addr:postcode" v="78730"/></node><node id="-141" lat="30.363991" lon="-97.857046" changeset="false"><tag k="addr:street" v="River Place Boulevard"/><tag k="addr:housenumber" v="3846"/><tag k="addr:postcode" v="78730"/></node><node id="-142" lat="30.364391" lon="-97.858268" changeset="false"><tag k="addr:street" v="River Place Boulevard"/><tag k="addr:housenumber" v="3916"/><tag k="addr:postcode" v="78730"/></node><node id="-143" lat="30.352594" lon="-97.845831" changeset="false"><tag k="addr:street" v="Ranch Creek Drive"/><tag k="addr:housenumber" v="3649"/><tag k="addr:postcode" v="78730"/></node><node id="-144" lat="30.363049" lon="-97.849346" changeset="false"><tag k="addr:street" v="Westminster Glen Avenue"/><tag k="addr:housenumber" v="9850"/><tag k="addr:postcode" v="78730"/></node><node id="-145" lat="30.358315" lon="-97.852657" changeset="false"><tag k="addr:street" v="Far View Drive"/><tag k="addr:housenumber" v="3606"/><tag k="addr:postcode" v="78730"/></node><node id="-146" lat="30.360588" lon="-97.858674" changeset="false"><tag k="addr:street" v="Big View Drive"/><tag k="addr:housenumber" v="9436"/><tag k="addr:postcode" v="78730"/></node><node id="-147" lat="30.355722" lon="-97.861501" changeset="false"><tag k="addr:street" v="Big View Drive"/><tag k="addr:housenumber" v="8818"/><tag k="addr:postcode" v="78730"/></node><node id="-148" lat="30.391674" lon="-97.842044" changeset="false"><tag k="addr:street" v="Sitio del Rio Boulevard"/><tag k="addr:housenumber" v="6611"/><tag k="addr:postcode" v="78730"/></node><node id="-149" lat="30.392165" lon="-97.842336" changeset="false"><tag k="addr:street" v="Sitio del Rio Boulevard"/><tag k="addr:housenumber" v="6618 1/2"/><tag k="addr:postcode" v="78730"/></node><node id="-150" lat="30.355944" lon="-97.845295" changeset="false"><tag k="addr:street" v="Ranch Creek Drive"/><tag k="addr:housenumber" v="3805"/><tag k="addr:postcode" v="78730"/></node><node id="-151" lat="30.368354" lon="-97.857453" changeset="false"><tag k="addr:street" v="Canoas Drive"/><tag k="addr:housenumber" v="4214"/><tag k="addr:postcode" v="78730"/></node><node id="-152" lat="30.366629" lon="-97.852369" changeset="false"><tag k="addr:street" v="Inshore Drive"/><tag k="addr:housenumber" v="10104"/><tag k="addr:postcode" v="78730"/></node><node id="-153" lat="30.38301" lon="-97.82748" changeset="false"><tag k="addr:street" v="Guildford Cove"/><tag k="addr:housenumber" v="6509"/><tag k="addr:postcode" v="78730"/></node><node id="-154" lat="30.360817" lon="-97.841976" changeset="false"><tag k="addr:street" v="Prince Andrew Lane"/><tag k="addr:housenumber" v="4208"/><tag k="addr:postcode" v="78730"/></node><node id="-155" lat="30.378116" lon="-97.825721" changeset="false"><tag k="addr:street" v="Bell Mountain Drive"/><tag k="addr:housenumber" v="9008"/><tag k="addr:postcode" v="78730"/></node><node id="-156" lat="30.370608" lon="-97.823513" changeset="false"><tag k="addr:street" v="Long Canyon Drive"/><tag k="addr:housenumber" v="8608"/><tag k="addr:postcode" v="78730"/></node><node id="-157" lat="30.381361" lon="-97.825326" changeset="false"><tag k="addr:street" v="Epping Forest Cove"/><tag k="addr:housenumber" v="6509"/><tag k="addr:postcode" v="78730"/></node><node id="-158" lat="30.365604" lon="-97.849188" changeset="false"><tag k="addr:street" v="Big View Drive"/><tag k="addr:housenumber" v="9748"/><tag k="addr:postcode" v="78730"/></node><node id="-159" lat="30.361358" lon="-97.831462" changeset="false"><tag k="addr:street" v="City Park Road"/><tag k="addr:housenumber" v="4700"/><tag k="addr:postcode" v="78730"/></node><node id="-160" lat="30.371387" lon="-97.821309" changeset="false"><tag k="addr:street" v="Maurys Trail"/><tag k="addr:housenumber" v="5902"/><tag k="addr:postcode" v="78730"/></node><node id="-161" lat="30.358413" lon="-97.836048" changeset="false"><tag k="addr:street" v="Plantain Cove"/><tag k="addr:housenumber" v="4211"/><tag k="addr:postcode" v="78730"/></node><node id="-162" lat="30.367207" lon="-97.841774" changeset="false"><tag k="addr:street" v="Woody Ridge View"/><tag k="addr:housenumber" v="9601"/><tag k="addr:postcode" v="78730"/></node><node id="-163" lat="30.362971" lon="-97.851935" changeset="false"><tag k="addr:street" v="Big View Drive"/><tag k="addr:housenumber" v="9701"/><tag k="addr:postcode" v="78730"/></node><node id="-164" lat="30.380016" lon="-97.825591" changeset="false"><tag k="addr:street" v="Leaning Rock Circle"/><tag k="addr:housenumber" v="9200"/><tag k="addr:postcode" v="78730"/></node><node id="-165" lat="30.361337" lon="-97.83493" changeset="false"><tag k="addr:street" v="Westminster Glen Avenue"/><tag k="addr:housenumber" v="8909"/><tag k="addr:postcode" v="78730"/></node><node id="-166" lat="30.364518" lon="-97.840687" changeset="false"><tag k="addr:street" v="Westminster Glen Avenue"/><tag k="addr:housenumber" v="9405"/><tag k="addr:postcode" v="78730"/></node><node id="-167" lat="30.353897" lon="-97.841118" changeset="false"><tag k="addr:street" v="Weatherhill Cove"/><tag k="addr:housenumber" v="3709"/><tag k="addr:postcode" v="78730"/></node><node id="-168" lat="30.37785" lon="-97.850968" changeset="false"><tag k="addr:street" v="Crow Wing Cove"/><tag k="addr:housenumber" v="10501"/><tag k="addr:postcode" v="78730"/></node><node id="-169" lat="30.358324" lon="-97.849145" changeset="false"><tag k="addr:street" v="Glenlake Drive"/><tag k="addr:housenumber" v="9609"/><tag k="addr:postcode" v="78730"/></node><node id="-170" lat="30.357804" lon="-97.847295" changeset="false"><tag k="addr:street" v="Glenlake Drive"/><tag k="addr:housenumber" v="9507"/><tag k="addr:postcode" v="78730"/></node><node id="-171" lat="30.356531" lon="-97.8531" changeset="false"><tag k="addr:street" v="Far View Cove"/><tag k="addr:housenumber" v="3501"/><tag k="addr:postcode" v="78730"/></node><node id="-172" lat="30.363475" lon="-97.850705" changeset="false"><tag k="addr:street" v="Big View Drive"/><tag k="addr:housenumber" v="9712"/><tag k="addr:postcode" v="78730"/></node><node id="-173" lat="30.357554" lon="-97.861681" changeset="false"><tag k="addr:street" v="Far View Drive"/><tag k="addr:housenumber" v="3300"/><tag k="addr:postcode" v="78730"/></node><node id="-174" lat="30.356252" lon="-97.858195" changeset="false"><tag k="addr:street" v="Far View Drive"/><tag k="addr:housenumber" v="3319"/><tag k="addr:postcode" v="78730"/></node><node id="-175" lat="30.379398" lon="-97.82898" changeset="false"><tag k="addr:street" v="Bell Mountain Drive"/><tag k="addr:housenumber" v="9301"/><tag k="addr:postcode" v="78730"/></node><node id="-176" lat="30.358727" lon="-97.833392" changeset="false"><tag k="addr:street" v="Mountbatten Circle"/><tag k="addr:housenumber" v="8813"/><tag k="addr:postcode" v="78730"/></node><node id="-177" lat="30.363098" lon="-97.835284" changeset="false"><tag k="addr:street" v="Westminster Glen Avenue"/><tag k="addr:housenumber" v="9008"/><tag k="addr:postcode" v="78730"/></node><node id="-178" lat="30.375199" lon="-97.825647" changeset="false"><tag k="addr:street" v="Maurys Trail"/><tag k="addr:housenumber" v="6104"/><tag k="addr:postcode" v="78730"/></node><node id="-179" lat="30.381722" lon="-97.851372" changeset="false"><tag k="addr:street" v="Merrywing Circle"/><tag k="addr:housenumber" v="5600 1/2"/><tag k="addr:postcode" v="78730"/></node><node id="-180" lat="30.393103" lon="-97.844073" changeset="false"><tag k="addr:street" v="Ranch to Market Road 2222"/><tag k="addr:housenumber" v="10601"/><tag k="addr:postcode" v="78730"/></node><node id="-181" lat="30.381832" lon="-97.832508" changeset="false"><tag k="addr:street" v="Bell Mountain Drive"/><tag k="addr:housenumber" v="9505"/><tag k="addr:postcode" v="78730"/></node><node id="-182" lat="30.367317" lon="-97.842785" changeset="false"><tag k="addr:street" v="Woody Ridge View"/><tag k="addr:housenumber" v="9615"/><tag k="addr:postcode" v="78730"/></node><node id="-183" lat="30.367038" lon="-97.839024" changeset="false"><tag k="addr:street" v="Edgerton Street"/><tag k="addr:housenumber" v="4822"/><tag k="addr:postcode" v="78730"/></node><node id="-184" lat="30.366724" lon="-97.848212" changeset="false"><tag k="addr:street" v="Big View Drive"/><tag k="addr:housenumber" v="9764"/><tag k="addr:postcode" v="78730"/></node><node id="-185" lat="30.36372" lon="-97.850577" changeset="false"><tag k="addr:street" v="Big View Drive"/><tag k="addr:housenumber" v="9716"/><tag k="addr:postcode" v="78730"/></node><node id="-186" lat="30.386591" lon="-97.849929" changeset="false"><tag k="addr:street" v="Milky Way Drive"/><tag k="addr:housenumber" v="10600"/><tag k="addr:postcode" v="78730"/></node><node id="-187" lat="30.386385" lon="-97.850358" changeset="false"><tag k="addr:street" v="Milky Way Drive"/><tag k="addr:housenumber" v="10620 1/2"/><tag k="addr:postcode" v="78730"/></node><node id="-188" lat="30.383932" lon="-97.850561" changeset="false"><tag k="addr:street" v="River Place Boulevard"/><tag k="addr:housenumber" v="5801"/><tag k="addr:postcode" v="78730"/></node><node id="-189" lat="30.35776" lon="-97.859242" changeset="false"><tag k="addr:street" v="Far View Drive"/><tag k="addr:housenumber" v="3314"/><tag k="addr:postcode" v="78730"/></node><node id="-190" lat="30.356902" lon="-97.838659" changeset="false"><tag k="addr:street" v="Turkey Creek Drive"/><tag k="addr:housenumber" v="4101"/><tag k="addr:postcode" v="78730"/></node><node id="-191" lat="30.355706" lon="-97.846488" changeset="false"><tag k="addr:street" v="Ranch Creek Drive"/><tag k="addr:housenumber" v="3705"/><tag k="addr:postcode" v="78730"/></node><node id="-192" lat="30.35171" lon="-97.844086" changeset="false"><tag k="addr:street" v="Ranch Creek Drive"/><tag k="addr:housenumber" v="3637"/><tag k="addr:postcode" v="78730"/></node><node id="-193" lat="30.369986" lon="-97.843329" changeset="false"><tag k="addr:street" v="High Gate Drive"/><tag k="addr:housenumber" v="4909"/><tag k="addr:postcode" v="78730"/></node><node id="-194" lat="30.378717" lon="-97.828199" changeset="false"><tag k="addr:street" v="Bell Mountain Drive"/><tag k="addr:housenumber" v="9201"/><tag k="addr:postcode" v="78730"/></node><node id="-195" lat="30.353348" lon="-97.848256" changeset="false"><tag k="addr:street" v="Ranch Creek Drive"/><tag k="addr:housenumber" v="3668"/><tag k="addr:postcode" v="78730"/></node><node id="-196" lat="30.358887" lon="-97.850692" changeset="false"><tag k="addr:street" v="Far View Drive"/><tag k="addr:housenumber" v="3800"/><tag k="addr:postcode" v="78730"/></node><node id="-197" lat="30.361534" lon="-97.856626" changeset="false"><tag k="addr:street" v="Big View Drive"/><tag k="addr:housenumber" v="9534"/><tag k="addr:postcode" v="78730"/></node><node id="-198" lat="30.356321" lon="-97.859367" changeset="false"><tag k="addr:street" v="Far View Drive"/><tag k="addr:housenumber" v="3311"/><tag k="addr:postcode" v="78730"/></node><node id="-199" lat="30.361345" lon="-97.850215" changeset="false"><tag k="addr:street" v="Sorrel Cove"/><tag k="addr:housenumber" v="3904"/><tag k="addr:postcode" v="78730"/></node><node id="-200" lat="30.373126" lon="-97.826005" changeset="false"><tag k="addr:street" v="Standing Rock Drive"/><tag k="addr:housenumber" v="5801"/><tag k="addr:postcode" v="78730"/></node><node id="-201" lat="30.36627" lon="-97.834421" changeset="false"><tag k="addr:street" v="City Park Road"/><tag k="addr:housenumber" v="4814"/><tag k="addr:postcode" v="78730"/></node><node id="-202" lat="30.356467" lon="-97.840331" changeset="false"><tag k="addr:street" v="Glenlake Drive"/><tag k="addr:housenumber" v="9104"/><tag k="addr:postcode" v="78730"/></node><node id="-203" lat="30.391237" lon="-97.846735" changeset="false"><tag k="addr:street" v="Bonaventure Drive"/><tag k="addr:housenumber" v="10625"/><tag k="addr:postcode" v="78730"/></node><node id="-204" lat="30.366785" lon="-97.860602" changeset="false"><tag k="addr:street" v="River Place Boulevard"/><tag k="addr:housenumber" v="3987"/><tag k="addr:postcode" v="78730"/></node><node id="-205" lat="30.367009" lon="-97.860976" changeset="false"><tag k="addr:street" v="River Place Boulevard"/><tag k="addr:housenumber" v="4005"/><tag k="addr:postcode" v="78730"/></node><node id="-206" lat="30.357807" lon="-97.853106" changeset="false"><tag k="addr:street" v="Far View Drive"/><tag k="addr:housenumber" v="3600"/><tag k="addr:postcode" v="78730"/></node><node id="-207" lat="30.366233" lon="-97.859485" changeset="false"><tag k="addr:street" v="River Place Boulevard"/><tag k="addr:housenumber" v="3973"/><tag k="addr:postcode" v="78730"/></node><node id="-208" lat="30.380998" lon="-97.852198" changeset="false"><tag k="addr:street" v="Kite Tail Drive"/><tag k="addr:housenumber" v="5507 1/2"/><tag k="addr:postcode" v="78730"/></node><node id="-209" lat="30.368011" lon="-97.856629" changeset="false"><tag k="addr:street" v="Canoas Drive"/><tag k="addr:housenumber" v="4230"/><tag k="addr:postcode" v="78730"/></node><node id="-210" lat="30.371878" lon="-97.822792" changeset="false"><tag k="addr:street" v="Maurys Trail"/><tag k="addr:housenumber" v="5906"/><tag k="addr:postcode" v="78730"/></node><node id="-211" lat="30.383181" lon="-97.845635" changeset="false"><tag k="addr:street" v="Milky Way Drive"/><tag k="addr:housenumber" v="10205"/><tag k="addr:postcode" v="78730"/></node><node id="-212" lat="30.383285" lon="-97.850546" changeset="false"><tag k="addr:street" v="River Place Boulevard"/><tag k="addr:housenumber" v="5709"/><tag k="addr:postcode" v="78730"/></node><node id="-213" lat="30.362002" lon="-97.835605" changeset="false"><tag k="addr:street" v="Mountbatten Circle"/><tag k="addr:housenumber" v="9013"/><tag k="addr:postcode" v="78730"/></node><node id="-214" lat="30.378415" lon="-97.825864" changeset="false"><tag k="addr:street" v="Bell Mountain Drive"/><tag k="addr:housenumber" v="9100"/><tag k="addr:postcode" v="78730"/></node><node id="-215" lat="30.374277" lon="-97.825351" changeset="false"><tag k="addr:street" v="Maurys Trail"/><tag k="addr:housenumber" v="6012"/><tag k="addr:postcode" v="78730"/></node><node id="-216" lat="30.369624" lon="-97.84585" changeset="false"><tag k="addr:street" v="Big View Drive"/><tag k="addr:housenumber" v="9840"/><tag k="addr:postcode" v="78730"/></node><node id="-217" lat="30.361499" lon="-97.852482" changeset="false"><tag k="addr:street" v="Glenlake Drive"/><tag k="addr:housenumber" v="9817"/><tag k="addr:postcode" v="78730"/></node><node id="-218" lat="30.361294" lon="-97.848135" changeset="false"><tag k="addr:street" v="Westminster Glen Avenue"/><tag k="addr:housenumber" v="9920"/><tag k="addr:postcode" v="78730"/></node><node id="-219" lat="30.360983" lon="-97.851688" changeset="false"><tag k="addr:street" v="Glenlake Drive"/><tag k="addr:housenumber" v="9809"/><tag k="addr:postcode" v="78730"/></node><node id="-220" lat="30.356327" lon="-97.837237" changeset="false"><tag k="addr:street" v="Plantain Cove"/><tag k="addr:housenumber" v="4202"/><tag k="addr:postcode" v="78730"/></node><node id="-221" lat="30.359589" lon="-97.832304" changeset="false"><tag k="addr:street" v="Mountbatten Circle"/><tag k="addr:housenumber" v="8801"/><tag k="addr:postcode" v="78730"/></node><node id="-222" lat="30.3925" lon="-97.845678" changeset="false"><tag k="addr:street" v="River Place Boulevard"/><tag k="addr:housenumber" v="6611"/><tag k="addr:postcode" v="78730"/></node><node id="-223" lat="30.384675" lon="-97.832882" changeset="false"><tag k="addr:street" v="Leaning Rock Circle"/><tag k="addr:housenumber" v="9606"/><tag k="addr:postcode" v="78730"/></node><node id="-224" lat="30.360734" lon="-97.855261" changeset="false"><tag k="addr:street" v="Lagood Drive"/><tag k="addr:housenumber" v="3705"/><tag k="addr:postcode" v="78730"/></node><node id="-225" lat="30.375364" lon="-97.852368" changeset="false"><tag k="addr:street" v="Treasure Island Drive"/><tag k="addr:housenumber" v="10405"/><tag k="addr:postcode" v="78730"/></node><node id="-226" lat="30.355771" lon="-97.850387" changeset="false"><tag k="addr:street" v="Eagle Rising Cove"/><tag k="addr:housenumber" v="9703"/><tag k="addr:postcode" v="78730"/></node><node id="-227" lat="30.3663" lon="-97.852865" changeset="false"><tag k="addr:street" v="Inshore Drive"/><tag k="addr:housenumber" v="10105"/><tag k="addr:postcode" v="78730"/></node><node id="-228" lat="30.359328" lon="-97.849023" changeset="false"><tag k="addr:street" v="Glenlake Drive"/><tag k="addr:housenumber" v="9606"/><tag k="addr:postcode" v="78730"/></node><node id="-229" lat="30.356604" lon="-97.847244" changeset="false"><tag k="addr:street" v="Ranch Creek Drive"/><tag k="addr:housenumber" v="3704"/><tag k="addr:postcode" v="78730"/></node><node id="-230" lat="30.36998" lon="-97.846501" changeset="false"><tag k="addr:street" v="Big View Drive"/><tag k="addr:housenumber" v="9851"/><tag k="addr:postcode" v="78730"/></node><node id="-231" lat="30.364726" lon="-97.83835" changeset="false"><tag k="addr:street" v="Westminster Glen Avenue"/><tag k="addr:housenumber" v="9303"/><tag k="addr:postcode" v="78730"/></node><node id="-232" lat="30.36444" lon="-97.850247" changeset="false"><tag k="addr:street" v="Big View Drive"/><tag k="addr:housenumber" v="9728"/><tag k="addr:postcode" v="78730"/></node><node id="-233" lat="30.377518" lon="-97.824411" changeset="false"><tag k="addr:street" v="Bell Mountain Drive"/><tag k="addr:housenumber" v="8904"/><tag k="addr:postcode" v="78730"/></node><node id="-234" lat="30.376859" lon="-97.828402" changeset="false"><tag k="addr:street" v="Standing Rock Drive"/><tag k="addr:housenumber" v="5925"/><tag k="addr:postcode" v="78730"/></node><node id="-235" lat="30.355871" lon="-97.844515" changeset="false"><tag k="addr:street" v="Glenlake Drive"/><tag k="addr:housenumber" v="9305"/><tag k="addr:postcode" v="78730"/></node><node id="-236" lat="30.361468" lon="-97.841732" changeset="false"><tag k="addr:street" v="Prince Andrew Lane"/><tag k="addr:housenumber" v="4213"/><tag k="addr:postcode" v="78730"/></node><node id="-237" lat="30.394289" lon="-97.845413" changeset="false"><tag k="addr:street" v="Ranch to Market Road 2222"/><tag k="addr:housenumber" v="10709 1/2"/><tag k="addr:postcode" v="78730"/></node><node id="-238" lat="30.392341" lon="-97.84106" changeset="false"><tag k="addr:street" v="Ranch to Market Road 2222"/><tag k="addr:housenumber" v="10405"/><tag k="addr:postcode" v="78730"/></node><node id="-239" lat="30.362458" lon="-97.834592" changeset="false"><tag k="addr:street" v="Westminster Glen Avenue"/><tag k="addr:housenumber" v="9000"/><tag k="addr:postcode" v="78730"/></node><node id="-240" lat="30.362126" lon="-97.83424" changeset="false"><tag k="addr:street" v="Westminster Glen Avenue"/><tag k="addr:housenumber" v="8908"/><tag k="addr:postcode" v="78730"/></node><node id="-241" lat="30.364941" lon="-97.84999" changeset="false"><tag k="addr:street" v="Big View Drive"/><tag k="addr:housenumber" v="9736"/><tag k="addr:postcode" v="78730"/></node><node id="-242" lat="30.354717" lon="-97.84554" changeset="false"><tag k="addr:street" v="Turkey Creek Drive"/><tag k="addr:housenumber" v="3608"/><tag k="addr:postcode" v="78730"/></node><node id="-243" lat="30.353991" lon="-97.848254" changeset="false"><tag k="addr:street" v="Ranch Creek Drive"/><tag k="addr:housenumber" v="3672"/><tag k="addr:postcode" v="78730"/></node><node id="-244" lat="30.368989" lon="-97.857043" changeset="false"><tag k="addr:street" v="Canoas Drive"/><tag k="addr:housenumber" v="4324"/><tag k="addr:postcode" v="78730"/></node><node id="-245" lat="30.375572" lon="-97.843559" changeset="false"><tag k="addr:street" v="Planters Woods Drive"/><tag k="addr:housenumber" v="10009"/><tag k="addr:postcode" v="78730"/></node><node id="-246" lat="30.366037" lon="-97.839321" changeset="false"><tag k="addr:street" v="Edgerton Street"/><tag k="addr:housenumber" v="4810"/><tag k="addr:postcode" v="78730"/></node><node id="-247" lat="30.365318" lon="-97.845045" changeset="false"><tag k="addr:street" v="Westminster Glen Avenue"/><tag k="addr:housenumber" v="9701"/><tag k="addr:postcode" v="78730"/></node><node id="-248" lat="30.389906" lon="-97.847886" changeset="false"><tag k="addr:street" v="River Place Boulevard"/><tag k="addr:housenumber" v="6401"/><tag k="addr:postcode" v="78730"/></node><node id="-249" lat="30.372209" lon="-97.856643" changeset="false"><tag k="addr:street" v="Golf Vista Drive"/><tag k="addr:housenumber" v="4565"/><tag k="addr:postcode" v="78730"/></node><node id="-250" lat="30.380637" lon="-97.848617" changeset="false"><tag k="addr:street" v="Merrywing Circle"/><tag k="addr:housenumber" v="5727"/><tag k="addr:postcode" v="78730"/></node><node id="-251" lat="30.37449" lon="-97.827509" changeset="false"><tag k="addr:street" v="Standing Rock Drive"/><tag k="addr:housenumber" v="5900"/><tag k="addr:postcode" v="78730"/></node><node id="-252" lat="30.358087" lon="-97.836811" changeset="false"><tag k="addr:street" v="Plantain Cove"/><tag k="addr:housenumber" v="4208"/><tag k="addr:postcode" v="78730"/></node><node id="-253" lat="30.358053" lon="-97.848512" changeset="false"><tag k="addr:street" v="Glenlake Drive"/><tag k="addr:housenumber" v="9605"/><tag k="addr:postcode" v="78730"/></node><node id="-254" lat="30.364311" lon="-97.858117" changeset="false"><tag k="addr:street" v="River Place Boulevard"/><tag k="addr:housenumber" v="3912"/><tag k="addr:postcode" v="78730"/></node><node id="-255" lat="30.361614" lon="-97.835863" changeset="false"><tag k="addr:street" v="Mountbatten Circle"/><tag k="addr:housenumber" v="9009"/><tag k="addr:postcode" v="78730"/></node><node id="-256" lat="30.361713" lon="-97.84862" changeset="false"><tag k="addr:street" v="Westminster Glen Avenue"/><tag k="addr:housenumber" v="9914"/><tag k="addr:postcode" v="78730"/></node><node id="-257" lat="30.361123" lon="-97.840123" changeset="false"><tag k="addr:street" v="Prince Charles Drive"/><tag k="addr:housenumber" v="9200"/><tag k="addr:postcode" v="78730"/></node><node id="-258" lat="30.36106" lon="-97.85214" changeset="false"><tag k="addr:street" v="Glenlake Drive"/><tag k="addr:housenumber" v="9813"/><tag k="addr:postcode" v="78730"/></node><node id="-259" lat="30.35734" lon="-97.845937" changeset="false"><tag k="addr:street" v="Glenlake Drive"/><tag k="addr:housenumber" v="9403"/><tag k="addr:postcode" v="78730"/></node><node id="-260" lat="30.385829" lon="-97.847645" changeset="false"><tag k="addr:street" v="Milky Way Drive"/><tag k="addr:housenumber" v="10400"/><tag k="addr:postcode" v="78730"/></node><node id="-261" lat="30.352727" lon="-97.848167" changeset="false"><tag k="addr:street" v="Ranch Creek Drive"/><tag k="addr:housenumber" v="3662"/><tag k="addr:postcode" v="78730"/></node><node id="-262" lat="30.353678" lon="-97.845729" changeset="false"><tag k="addr:street" v="Turkey Creek Drive"/><tag k="addr:housenumber" v="3609"/><tag k="addr:postcode" v="78730"/></node><node id="-263" lat="30.377744" lon="-97.84764" changeset="false"><tag k="addr:street" v="Scull Creek Drive"/><tag k="addr:housenumber" v="10204"/><tag k="addr:postcode" v="78730"/></node><node id="-264" lat="30.37521" lon="-97.846427" changeset="false"><tag k="addr:street" v="Big View Drive"/><tag k="addr:housenumber" v="10105"/><tag k="addr:postcode" v="78730"/></node><node id="-265" lat="30.369456" lon="-97.841892" changeset="false"><tag k="addr:street" v="Elizabeth Jane Court"/><tag k="addr:housenumber" v="4917"/><tag k="addr:postcode" v="78730"/></node><node id="-266" lat="30.392172" lon="-97.842522" changeset="false"><tag k="addr:street" v="Sitio del Rio Boulevard"/><tag k="addr:housenumber" v="6618"/><tag k="addr:postcode" v="78730"/></node><node id="-267" lat="30.373554" lon="-97.826212" changeset="false"><tag k="addr:street" v="Standing Rock Drive"/><tag k="addr:housenumber" v="5807"/><tag k="addr:postcode" v="78730"/></node><node id="-268" lat="30.36058" lon="-97.848483" changeset="false"><tag k="addr:street" v="Chamisa Drive"/><tag k="addr:housenumber" v="4000"/><tag k="addr:postcode" v="78730"/></node><node id="-269" lat="30.359506" lon="-97.861998" changeset="false"><tag k="addr:street" v="Big View Drive"/><tag k="addr:housenumber" v="9341"/><tag k="addr:postcode" v="78730"/></node><node id="-270" lat="30.366563" lon="-97.843034" changeset="false"><tag k="addr:street" v="Westminster Glen Avenue"/><tag k="addr:housenumber" v="9532"/><tag k="addr:postcode" v="78730"/></node><node id="-271" lat="30.36414" lon="-97.857637" changeset="false"><tag k="addr:street" v="River Place Boulevard"/><tag k="addr:housenumber" v="3904"/><tag k="addr:postcode" v="78730"/></node><node id="-272" lat="30.35993" lon="-97.848719" changeset="false"><tag k="addr:street" v="Chamisa Drive"/><tag k="addr:housenumber" v="3904"/><tag k="addr:postcode" v="78730"/></node><node id="-273" lat="30.390836" lon="-97.84765" changeset="false"><tag k="addr:street" v="River Place Boulevard"/><tag k="addr:housenumber" v="6451"/><tag k="addr:postcode" v="78730"/></node><node id="-274" lat="30.37152" lon="-97.826115" changeset="false"><tag k="addr:street" v="Standing Rock Drive"/><tag k="addr:housenumber" v="5718"/><tag k="addr:postcode" v="78730"/></node><node id="-275" lat="30.368802" lon="-97.847576" changeset="false"><tag k="addr:street" v="Big View Drive"/><tag k="addr:housenumber" v="9825"/><tag k="addr:postcode" v="78730"/></node><node id="-276" lat="30.364448" lon="-97.839769" changeset="false"><tag k="addr:street" v="Westminster Glen Avenue"/><tag k="addr:housenumber" v="9401"/><tag k="addr:postcode" v="78730"/></node><node id="-277" lat="30.38368" lon="-97.850403" changeset="false"><tag k="addr:street" v="River Place Boulevard"/><tag k="addr:housenumber" v="5715"/><tag k="addr:postcode" v="78730"/></node><node id="-278" lat="30.382836" lon="-97.833924" changeset="false"><tag k="addr:street" v="Bell Mountain Drive"/><tag k="addr:housenumber" v="9611"/><tag k="addr:postcode" v="78730"/></node><node id="-279" lat="30.363473" lon="-97.856023" changeset="false"><tag k="addr:street" v="River Place Boulevard"/><tag k="addr:housenumber" v="3828"/><tag k="addr:postcode" v="78730"/></node><node id="-280" lat="30.37507" lon="-97.853853" changeset="false"><tag k="addr:street" v="River Place Boulevard"/><tag k="addr:housenumber" v="4825"/><tag k="addr:postcode" v="78730"/></node><node id="-281" lat="30.376583" lon="-97.848569" changeset="false"><tag k="addr:street" v="Scull Creek Drive"/><tag k="addr:housenumber" v="10240"/><tag k="addr:postcode" v="78730"/></node><node id="-282" lat="30.373918" lon="-97.847857" changeset="false"><tag k="addr:street" v="China Garden Drive"/><tag k="addr:housenumber" v="5149"/><tag k="addr:postcode" v="78730"/></node><node id="-283" lat="30.371163" lon="-97.821671" changeset="false"><tag k="addr:street" v="Long Canyon Drive"/><tag k="addr:housenumber" v="8514"/><tag k="addr:postcode" v="78730"/></node><node id="-284" lat="30.370886" lon="-97.822667" changeset="false"><tag k="addr:street" v="Long Canyon Drive"/><tag k="addr:housenumber" v="8602"/><tag k="addr:postcode" v="78730"/></node><node id="-285" lat="30.365389" lon="-97.837385" changeset="false"><tag k="addr:street" v="Westminster Glen Avenue"/><tag k="addr:housenumber" v="9300"/><tag k="addr:postcode" v="78730"/></node><node id="-286" lat="30.365652" lon="-97.851636" changeset="false"><tag k="addr:street" v="Inshore Drive"/><tag k="addr:housenumber" v="10013"/><tag k="addr:postcode" v="78730"/></node><node id="-287" lat="30.361517" lon="-97.860687" changeset="false"><tag k="addr:street" v="Josh Lane"/><tag k="addr:housenumber" v="3601"/><tag k="addr:postcode" v="78730"/></node><node id="-288" lat="30.369112" lon="-97.854964" changeset="false"><tag k="addr:street" v="Canoas Drive"/><tag k="addr:housenumber" v="4410"/><tag k="addr:postcode" v="78730"/></node><node id="-289" lat="30.369045" lon="-97.855204" changeset="false"><tag k="addr:street" v="Canoas Drive"/><tag k="addr:housenumber" v="4400"/><tag k="addr:postcode" v="78730"/></node><node id="-290" lat="30.393974" lon="-97.845503" changeset="false"><tag k="addr:street" v="Ranch to Market Road 2222"/><tag k="addr:housenumber" v="10709"/><tag k="addr:postcode" v="78730"/></node><node id="-291" lat="30.360981" lon="-97.847616" changeset="false"><tag k="addr:street" v="Chamisa Drive"/><tag k="addr:housenumber" v="4007"/><tag k="addr:postcode" v="78730"/></node><node id="-292" lat="30.391707" lon="-97.84716" changeset="false"><tag k="addr:street" v="River Place Boulevard"/><tag k="addr:housenumber" v="6501"/><tag k="addr:postcode" v="78730"/></node><node id="-293" lat="30.362789" lon="-97.860125" changeset="false"><tag k="addr:street" v="Humble Cove"/><tag k="addr:housenumber" v="3700"/><tag k="addr:postcode" v="78730"/></node><node id="-294" lat="30.368457" lon="-97.836178" changeset="false"><tag k="addr:street" v="City Park Road"/><tag k="addr:housenumber" v="4816"/><tag k="addr:postcode" v="78730"/></node><node id="-295" lat="30.382205" lon="-97.832761" changeset="false"><tag k="addr:street" v="Bell Mountain Drive"/><tag k="addr:housenumber" v="9601"/><tag k="addr:postcode" v="78730"/></node><node id="-296" lat="30.376172" lon="-97.829456" changeset="false"><tag k="addr:street" v="Standing Rock Drive"/><tag k="addr:housenumber" v="5926"/><tag k="addr:postcode" v="78730"/></node><node id="-297" lat="30.365382" lon="-97.840156" changeset="false"><tag k="addr:street" v="Westminster Glen Avenue"/><tag k="addr:housenumber" v="9418"/><tag k="addr:postcode" v="78730"/></node><node id="-298" lat="30.365158" lon="-97.83205" changeset="false"><tag k="addr:street" v="City Park Road"/><tag k="addr:housenumber" v="4844 1/2"/><tag k="addr:postcode" v="78730"/></node><node id="-299" lat="30.368265" lon="-97.855479" changeset="false"><tag k="addr:street" v="Canoas Drive"/><tag k="addr:housenumber" v="4325"/><tag k="addr:postcode" v="78730"/></node><node id="-300" lat="30.366894" lon="-97.860792" changeset="false"><tag k="addr:street" v="River Place Boulevard"/><tag k="addr:housenumber" v="4001"/><tag k="addr:postcode" v="78730"/></node><node id="-301" lat="30.360247" lon="-97.835019" changeset="false"><tag k="addr:street" v="Mountbatten Circle"/><tag k="addr:housenumber" v="8906"/><tag k="addr:postcode" v="78730"/></node><node id="-302" lat="30.390057" lon="-97.844006" changeset="false"><tag k="addr:street" v="Sitio del Rio Boulevard"/><tag k="addr:housenumber" v="6500"/><tag k="addr:postcode" v="78730"/></node><node id="-303" lat="30.35222" lon="-97.845282" changeset="false"><tag k="addr:street" v="Ranch Creek Drive"/><tag k="addr:housenumber" v="3645"/><tag k="addr:postcode" v="78730"/></node><node id="-304" lat="30.355271" lon="-97.838513" changeset="false"><tag k="addr:street" v="Glenlake Drive"/><tag k="addr:housenumber" v="9001"/><tag k="addr:postcode" v="78730"/></node><node id="-305" lat="30.354696" lon="-97.844462" changeset="false"><tag k="addr:street" v="Chalkstone Cove"/><tag k="addr:housenumber" v="3604"/><tag k="addr:postcode" v="78730"/></node><node id="-306" lat="30.353963" lon="-97.843878" changeset="false"><tag k="addr:street" v="Chalkstone Cove"/><tag k="addr:housenumber" v="3603"/><tag k="addr:postcode" v="78730"/></node><node id="-307" lat="30.367937" lon="-97.855655" changeset="false"><tag k="addr:street" v="Canoas Drive"/><tag k="addr:housenumber" v="4233"/><tag k="addr:postcode" v="78730"/></node><node id="-308" lat="30.370907" lon="-97.825599" changeset="false"><tag k="addr:street" v="Standing Rock Drive"/><tag k="addr:housenumber" v="5710"/><tag k="addr:postcode" v="78730"/></node><node id="-309" lat="30.370231" lon="-97.824745" changeset="false"><tag k="addr:street" v="Standing Rock Drive"/><tag k="addr:housenumber" v="5700"/><tag k="addr:postcode" v="78730"/></node><node id="-310" lat="30.37918" lon="-97.830807" changeset="false"><tag k="addr:street" v="Chambly Cove"/><tag k="addr:housenumber" v="6300"/><tag k="addr:postcode" v="78730"/></node><node id="-311" lat="30.384906" lon="-97.831897" changeset="false"><tag k="addr:street" v="Leaning Rock Circle"/><tag k="addr:housenumber" v="9603"/><tag k="addr:postcode" v="78730"/></node><node id="-312" lat="30.36374" lon="-97.85648" changeset="false"><tag k="addr:street" v="River Place Boulevard"/><tag k="addr:housenumber" v="3838"/><tag k="addr:postcode" v="78730"/></node><node id="-313" lat="30.381437" lon="-97.83031" changeset="false"><tag k="addr:street" v="Bell Mountain Drive"/><tag k="addr:housenumber" v="9408"/><tag k="addr:postcode" v="78730"/></node><node id="-314" lat="30.357" lon="-97.833962" changeset="false"><tag k="addr:street" v="Glenlake Drive"/><tag k="addr:housenumber" v="8704"/><tag k="addr:postcode" v="78730"/></node><node id="-315" lat="30.363134" lon="-97.851288" changeset="false"><tag k="addr:street" v="Big View Drive"/><tag k="addr:housenumber" v="9706"/><tag k="addr:postcode" v="78730"/></node><node id="-316" lat="30.385766" lon="-97.84878" changeset="false"><tag k="addr:street" v="Milky Way Drive"/><tag k="addr:housenumber" v="10415"/><tag k="addr:postcode" v="78730"/></node><node id="-317" lat="30.360867" lon="-97.849516" changeset="false"><tag k="addr:street" v="Sorrel Cove"/><tag k="addr:housenumber" v="3905"/><tag k="addr:postcode" v="78730"/></node><node id="-318" lat="30.369004" lon="-97.856411" changeset="false"><tag k="addr:street" v="Canoas Drive"/><tag k="addr:housenumber" v="4316"/><tag k="addr:postcode" v="78730"/></node><node id="-319" lat="30.370977" lon="-97.843423" changeset="false"><tag k="addr:street" v="High Gate Drive"/><tag k="addr:housenumber" v="5006 1/2"/><tag k="addr:postcode" v="78730"/></node><node id="-320" lat="30.380562" lon="-97.831433" changeset="false"><tag k="addr:street" v="Bell Mountain Drive"/><tag k="addr:housenumber" v="9405"/><tag k="addr:postcode" v="78730"/></node><node id="-321" lat="30.378606" lon="-97.826203" changeset="false"><tag k="addr:street" v="Bell Mountain Drive"/><tag k="addr:housenumber" v="9104"/><tag k="addr:postcode" v="78730"/></node><node id="-322" lat="30.391519" lon="-97.839466" changeset="false"><tag k="addr:street" v="Ranch to Market Road 2222"/><tag k="addr:housenumber" v="10301"/><tag k="addr:postcode" v="78730"/></node><node id="-323" lat="30.364673" lon="-97.850092" changeset="false"><tag k="addr:street" v="Big View Drive"/><tag k="addr:housenumber" v="9732"/><tag k="addr:postcode" v="78730"/></node><node id="-324" lat="30.383662" lon="-97.829476" changeset="false"><tag k="addr:street" v="Leaning Rock Circle"/><tag k="addr:housenumber" v="9408"/><tag k="addr:postcode" v="78730"/></node><node id="-325" lat="30.360288" lon="-97.855353" changeset="false"><tag k="addr:street" v="Lagood Drive"/><tag k="addr:housenumber" v="3701"/><tag k="addr:postcode" v="78730"/></node><node id="-326" lat="30.368033" lon="-97.841944" changeset="false"><tag k="addr:street" v="Elizabeth Jane Court"/><tag k="addr:housenumber" v="4900"/><tag k="addr:postcode" v="78730"/></node><node id="-327" lat="30.374818" lon="-97.841514" changeset="false"><tag k="addr:street" v="China Garden Drive"/><tag k="addr:housenumber" v="4901"/><tag k="addr:postcode" v="78730"/></node><node id="-328" lat="30.380091" lon="-97.847791" changeset="false"><tag k="addr:street" v="Merrywing Circle"/><tag k="addr:housenumber" v="5739"/><tag k="addr:postcode" v="78730"/></node><node id="-329" lat="30.34958" lon="-97.841929" changeset="false"><tag k="addr:street" v="Ranch Creek Drive"/><tag k="addr:housenumber" v="3620"/><tag k="addr:postcode" v="78730"/></node><node id="-330" lat="30.358295" lon="-97.839583" changeset="false"><tag k="addr:street" v="Turkey Creek Drive"/><tag k="addr:housenumber" v="4104"/><tag k="addr:postcode" v="78730"/></node><node id="-331" lat="30.374225" lon="-97.845031" changeset="false"><tag k="addr:street" v="Big View Drive"/><tag k="addr:housenumber" v="10006"/><tag k="addr:postcode" v="78730"/></node><node id="-332" lat="30.384242" lon="-97.850299" changeset="false"><tag k="addr:street" v="River Place Boulevard"/><tag k="addr:housenumber" v="5811"/><tag k="addr:postcode" v="78730"/></node><node id="-333" lat="30.392034" lon="-97.846851" changeset="false"><tag k="addr:street" v="River Place Boulevard"/><tag k="addr:housenumber" v="6507"/><tag k="addr:postcode" v="78730"/></node><node id="-334" lat="30.363867" lon="-97.846511" changeset="false"><tag k="addr:street" v="Noble Hill Court"/><tag k="addr:housenumber" v="4500"/><tag k="addr:postcode" v="78730"/></node><node id="-335" lat="30.367147" lon="-97.84125" changeset="false"><tag k="addr:street" v="Woody Ridge View"/><tag k="addr:housenumber" v="9515"/><tag k="addr:postcode" v="78730"/></node><node id="-336" lat="30.361995" lon="-97.861389" changeset="false"><tag k="addr:street" v="Josh Lane"/><tag k="addr:housenumber" v="3612"/><tag k="addr:postcode" v="78730"/></node><node id="-337" lat="30.366817" lon="-97.84548" changeset="false"><tag k="addr:street" v="High Gate Drive"/><tag k="addr:housenumber" v="4610"/><tag k="addr:postcode" v="78730"/></node><node id="-338" lat="30.384083" lon="-97.849571" changeset="false"><tag k="addr:street" v="River Place Boulevard"/><tag k="addr:housenumber" v="5811 1/2"/><tag k="addr:postcode" v="78730"/></node><node id="-339" lat="30.366145" lon="-97.841346" changeset="false"><tag k="addr:street" v="Westminster Glen Avenue"/><tag k="addr:housenumber" v="9508"/><tag k="addr:postcode" v="78730"/></node><node id="-340" lat="30.36734" lon="-97.857533" changeset="false"><tag k="addr:street" v="Canoas Drive"/><tag k="addr:housenumber" v="4126"/><tag k="addr:postcode" v="78730"/></node><node id="-341" lat="30.368803" lon="-97.84254" changeset="false"><tag k="addr:street" v="Elizabeth Jane Court"/><tag k="addr:housenumber" v="4918"/><tag k="addr:postcode" v="78730"/></node><node id="-342" lat="30.379456" lon="-97.825783" changeset="false"><tag k="addr:street" v="Leaning Rock Circle"/><tag k="addr:housenumber" v="9108"/><tag k="addr:postcode" v="78730"/></node><node id="-343" lat="30.379154" lon="-97.830156" changeset="false"><tag k="addr:street" v="Chambly Cove"/><tag k="addr:housenumber" v="6301"/><tag k="addr:postcode" v="78730"/></node><node id="-344" lat="30.3546" lon="-97.841386" changeset="false"><tag k="addr:street" v="Weatherhill Cove"/><tag k="addr:housenumber" v="3710"/><tag k="addr:postcode" v="78730"/></node><node id="-345" lat="30.354244" lon="-97.843556" changeset="false"><tag k="addr:street" v="Chalkstone Cove"/><tag k="addr:housenumber" v="3605"/><tag k="addr:postcode" v="78730"/></node><node id="-346" lat="30.37134" lon="-97.824647" changeset="false"><tag k="addr:street" v="Standing Rock Drive"/><tag k="addr:housenumber" v="5711"/><tag k="addr:postcode" v="78730"/></node><node id="-347" lat="30.367477" lon="-97.847624" changeset="false"><tag k="addr:street" v="Big View Drive"/><tag k="addr:housenumber" v="9808"/><tag k="addr:postcode" v="78730"/></node><node id="-348" lat="30.371889" lon="-97.844296" changeset="false"><tag k="addr:street" v="China Garden Drive"/><tag k="addr:housenumber" v="5034"/><tag k="addr:postcode" v="78730"/></node><node id="-349" lat="30.360675" lon="-97.838889" changeset="false"><tag k="addr:street" v="Prince Charles Drive"/><tag k="addr:housenumber" v="9205"/><tag k="addr:postcode" v="78730"/></node><node id="-350" lat="30.360301" lon="-97.851843" changeset="false"><tag k="addr:street" v="Glenlake Drive"/><tag k="addr:housenumber" v="9805"/><tag k="addr:postcode" v="78730"/></node><node id="-351" lat="30.359836" lon="-97.83441" changeset="false"><tag k="addr:street" v="Mountbatten Circle"/><tag k="addr:housenumber" v="8900"/><tag k="addr:postcode" v="78730"/></node><node id="-352" lat="30.359547" lon="-97.832258" changeset="false"><tag k="addr:street" v="City Park Road"/><tag k="addr:housenumber" v="4604"/><tag k="addr:postcode" v="78730"/></node><node id="-353" lat="30.383421" lon="-97.829106" changeset="false"><tag k="addr:street" v="Leaning Rock Circle"/><tag k="addr:housenumber" v="9404"/><tag k="addr:postcode" v="78730"/></node><node id="-354" lat="30.380994" lon="-97.825687" changeset="false"><tag k="addr:street" v="Epping Forest Cove"/><tag k="addr:housenumber" v="6505"/><tag k="addr:postcode" v="78730"/></node><node id="-355" lat="30.380894" lon="-97.831788" changeset="false"><tag k="addr:street" v="Bell Mountain Drive"/><tag k="addr:housenumber" v="9409"/><tag k="addr:postcode" v="78730"/></node><node id="-356" lat="30.375504" lon="-97.828601" changeset="false"><tag k="addr:street" v="Standing Rock Drive"/><tag k="addr:housenumber" v="5912"/><tag k="addr:postcode" v="78730"/></node><node id="-357" lat="30.358052" lon="-97.861121" changeset="false"><tag k="addr:street" v="Far View Drive"/><tag k="addr:housenumber" v="3302"/><tag k="addr:postcode" v="78730"/></node><node id="-358" lat="30.357865" lon="-97.857447" changeset="false"><tag k="addr:street" v="Far View Drive"/><tag k="addr:housenumber" v="3330"/><tag k="addr:postcode" v="78730"/></node><node id="-359" lat="30.356405" lon="-97.857747" changeset="false"><tag k="addr:street" v="Far View Drive"/><tag k="addr:housenumber" v="3323"/><tag k="addr:postcode" v="78730"/></node><node id="-360" lat="30.367069" lon="-97.856881" changeset="false"><tag k="addr:street" v="Canoas Drive"/><tag k="addr:housenumber" v="4129"/><tag k="addr:postcode" v="78730"/></node><node id="-361" lat="30.356477" lon="-97.849778" changeset="false"><tag k="addr:street" v="Eagle Rising Cove"/><tag k="addr:housenumber" v="9701"/><tag k="addr:postcode" v="78730"/></node><node id="-362" lat="30.365132" lon="-97.849634" changeset="false"><tag k="addr:street" v="Big View Drive"/><tag k="addr:housenumber" v="9740"/><tag k="addr:postcode" v="78730"/></node><node id="-363" lat="30.367338" lon="-97.84415" changeset="false"><tag k="addr:street" v="Woody Ridge View"/><tag k="addr:housenumber" v="9705"/><tag k="addr:postcode" v="78730"/></node><node id="-364" lat="30.367788" lon="-97.855923" changeset="false"><tag k="addr:street" v="Canoas Drive"/><tag k="addr:housenumber" v="4231"/><tag k="addr:postcode" v="78730"/></node><node id="-365" lat="30.379365" lon="-97.8502" changeset="false"><tag k="addr:street" v="Laurel Hill Cove"/><tag k="addr:housenumber" v="10409"/><tag k="addr:postcode" v="78730"/></node><node id="-366" lat="30.369551" lon="-97.847492" changeset="false"><tag k="addr:street" v="Big View Drive"/><tag k="addr:housenumber" v="9833"/><tag k="addr:postcode" v="78730"/></node><node id="-367" lat="30.382136" lon="-97.829215" changeset="false"><tag k="addr:street" v="Leaning Rock Circle"/><tag k="addr:housenumber" v="9401"/><tag k="addr:postcode" v="78730"/></node><node id="-368" lat="30.38166" lon="-97.830624" changeset="false"><tag k="addr:street" v="Bell Mountain Drive"/><tag k="addr:housenumber" v="9412"/><tag k="addr:postcode" v="78730"/></node><node id="-369" lat="30.362787" lon="-97.84785" changeset="false"><tag k="addr:street" v="Westminster Glen Avenue"/><tag k="addr:housenumber" v="9907"/><tag k="addr:postcode" v="78730"/></node><node id="-370" lat="30.371678" lon="-97.825075" changeset="false"><tag k="addr:street" v="Standing Rock Drive"/><tag k="addr:housenumber" v="5715"/><tag k="addr:postcode" v="78730"/></node><node id="-371" lat="30.385002" lon="-97.832466" changeset="false"><tag k="addr:street" v="Leaning Rock Circle"/><tag k="addr:housenumber" v="9604"/><tag k="addr:postcode" v="78730"/></node><node id="-372" lat="30.39211" lon="-97.846744" changeset="false"><tag k="addr:street" v="River Place Boulevard"/><tag k="addr:housenumber" v="6601"/><tag k="addr:postcode" v="78730"/></node><node id="-373" lat="30.378459" lon="-97.823867" changeset="false"><tag k="addr:street" v="Culpepper Cove"/><tag k="addr:housenumber" v="6406"/><tag k="addr:postcode" v="78730"/></node><node id="-374" lat="30.359754" lon="-97.851569" changeset="false"><tag k="addr:street" v="Glenlake Drive"/><tag k="addr:housenumber" v="9801"/><tag k="addr:postcode" v="78730"/></node><node id="-375" lat="30.350052" lon="-97.843118" changeset="false"><tag k="addr:street" v="Ranch Creek Drive"/><tag k="addr:housenumber" v="3626"/><tag k="addr:postcode" v="78730"/></node><node id="-376" lat="30.384951" lon="-97.850363" changeset="false"><tag k="addr:street" v="River Place Boulevard"/><tag k="addr:housenumber" v="5833"/><tag k="addr:postcode" v="78730"/></node><node id="-377" lat="30.363039" lon="-97.855882" changeset="false"><tag k="addr:street" v="River Place Boulevard"/><tag k="addr:housenumber" v="3816"/><tag k="addr:postcode" v="78730"/></node><node id="-378" lat="30.362347" lon="-97.855651" changeset="false"><tag k="addr:street" v="River Place Boulevard"/><tag k="addr:housenumber" v="3804"/><tag k="addr:postcode" v="78730"/></node><node id="-379" lat="30.368121" lon="-97.855782" changeset="false"><tag k="addr:street" v="Canoas Drive"/><tag k="addr:housenumber" v="4235"/><tag k="addr:postcode" v="78730"/></node><node id="-380" lat="30.36731" lon="-97.85189" changeset="false"><tag k="addr:street" v="Big View Drive"/><tag k="addr:housenumber" v="9837"/><tag k="addr:postcode" v="78730"/></node><node id="-381" lat="30.37492" lon="-97.854484" changeset="false"><tag k="addr:street" v="River Place Boulevard"/><tag k="addr:housenumber" v="4819"/><tag k="addr:postcode" v="78730"/></node><node id="-382" lat="30.36602" lon="-97.850639" changeset="false"><tag k="addr:street" v="Cormorant Cove"/><tag k="addr:housenumber" v="10009"/><tag k="addr:postcode" v="78730"/></node><node id="-383" lat="30.356724" lon="-97.834924" changeset="false"><tag k="addr:street" v="Glenlake Drive"/><tag k="addr:housenumber" v="8804"/><tag k="addr:postcode" v="78730"/></node><node id="-384" lat="30.355739" lon="-97.852901" changeset="false"><tag k="addr:street" v="Far View Cove"/><tag k="addr:housenumber" v="3400"/><tag k="addr:postcode" v="78730"/></node><node id="-385" lat="30.367342" lon="-97.85633" changeset="false"><tag k="addr:street" v="Canoas Drive"/><tag k="addr:housenumber" v="4221"/><tag k="addr:postcode" v="78730"/></node><node id="-386" lat="30.355323" lon="-97.839245" changeset="false"><tag k="addr:street" v="Turkey Creek Drive"/><tag k="addr:housenumber" v="3903"/><tag k="addr:postcode" v="78730"/></node><node id="-387" lat="30.355174" lon="-97.848028" changeset="false"><tag k="addr:street" v="Ranch Creek Drive"/><tag k="addr:housenumber" v="3678"/><tag k="addr:postcode" v="78730"/></node><node id="-388" lat="30.354137" lon="-97.838915" changeset="false"><tag k="addr:street" v="Turkey Creek Drive"/><tag k="addr:housenumber" v="3811"/><tag k="addr:postcode" v="78730"/></node><node id="-389" lat="30.381555" lon="-97.832261" changeset="false"><tag k="addr:street" v="Bell Mountain Drive"/><tag k="addr:housenumber" v="9501"/><tag k="addr:postcode" v="78730"/></node><node id="-390" lat="30.379248" lon="-97.850429" changeset="false"><tag k="addr:street" v="Laurel Hill Cove"/><tag k="addr:housenumber" v="10411"/><tag k="addr:postcode" v="78730"/></node><node id="-391" lat="30.384077" lon="-97.830296" changeset="false"><tag k="addr:street" v="Leaning Rock Circle"/><tag k="addr:housenumber" v="9500"/><tag k="addr:postcode" v="78730"/></node><node id="-392" lat="30.369703" lon="-97.844399" changeset="false"><tag k="addr:street" v="High Gate Drive"/><tag k="addr:housenumber" v="4814"/><tag k="addr:postcode" v="78730"/></node><node id="-393" lat="30.380077" lon="-97.848484" changeset="false"><tag k="addr:street" v="Merrywing Circle"/><tag k="addr:housenumber" v="5735"/><tag k="addr:postcode" v="78730"/></node><node id="-394" lat="30.377477" lon="-97.852049" changeset="false"><tag k="addr:street" v="Kite Tail Drive"/><tag k="addr:housenumber" v="5129"/><tag k="addr:postcode" v="78730"/></node><node id="-395" lat="30.360293" lon="-97.855846" changeset="false"><tag k="addr:street" v="Lagood Drive"/><tag k="addr:housenumber" v="3700"/><tag k="addr:postcode" v="78730"/></node><node id="-396" lat="30.369001" lon="-97.856672" changeset="false"><tag k="addr:street" v="Canoas Drive"/><tag k="addr:housenumber" v="4314"/><tag k="addr:postcode" v="78730"/></node><node id="-397" lat="30.356324" lon="-97.860079" changeset="false"><tag k="addr:street" v="Far View Drive"/><tag k="addr:housenumber" v="3307"/><tag k="addr:postcode" v="78730"/></node><node id="-398" lat="30.362177" lon="-97.849153" changeset="false"><tag k="addr:street" v="Narrow Ridge Drive"/><tag k="addr:housenumber" v="4111"/><tag k="addr:postcode" v="78730"/></node><node id="-399" lat="30.364417" lon="-97.849071" changeset="false"><tag k="addr:street" v="Westminster Glen Avenue"/><tag k="addr:housenumber" v="9830"/><tag k="addr:postcode" v="78730"/></node><node id="-400" lat="30.364213" lon="-97.847219" changeset="false"><tag k="addr:street" v="Westminster Glen Avenue"/><tag k="addr:housenumber" v="9815"/><tag k="addr:postcode" v="78730"/></node><node id="-401" lat="30.364197" lon="-97.850347" changeset="false"><tag k="addr:street" v="Big View Drive"/><tag k="addr:housenumber" v="9724"/><tag k="addr:postcode" v="78730"/></node><node id="-402" lat="30.363962" lon="-97.850462" changeset="false"><tag k="addr:street" v="Big View Drive"/><tag k="addr:housenumber" v="9720"/><tag k="addr:postcode" v="78730"/></node><node id="-403" lat="30.35589" lon="-97.845884" changeset="false"><tag k="addr:street" v="Ranch Creek Drive"/><tag k="addr:housenumber" v="3801"/><tag k="addr:postcode" v="78730"/></node><node id="-404" lat="30.364699" lon="-97.836703" changeset="false"><tag k="addr:street" v="Westminster Glen Avenue"/><tag k="addr:housenumber" v="9204"/><tag k="addr:postcode" v="78730"/></node><node id="-405" lat="30.38122" lon="-97.832014" changeset="false"><tag k="addr:street" v="Bell Mountain Drive"/><tag k="addr:housenumber" v="9413"/><tag k="addr:postcode" v="78730"/></node><node id="-406" lat="30.379037" lon="-97.850607" changeset="false"><tag k="addr:street" v="Laurel Hill Cove"/><tag k="addr:housenumber" v="10501"/><tag k="addr:postcode" v="78730"/></node><node id="-407" lat="30.379419" lon="-97.849905" changeset="false"><tag k="addr:street" v="Laurel Hill Cove"/><tag k="addr:housenumber" v="10405"/><tag k="addr:postcode" v="78730"/></node><node id="-408" lat="30.358456" lon="-97.84521" changeset="false"><tag k="addr:street" v="Glenlake Drive"/><tag k="addr:housenumber" v="9404"/><tag k="addr:postcode" v="78730"/></node><node id="-409" lat="30.358" lon="-97.84988" changeset="false"><tag k="addr:street" v="Far View Drive"/><tag k="addr:housenumber" v="3801"/><tag k="addr:postcode" v="78730"/></node><node id="-410" lat="30.357223" lon="-97.853561" changeset="false"><tag k="addr:street" v="Far View Drive"/><tag k="addr:housenumber" v="3506"/><tag k="addr:postcode" v="78730"/></node><node id="-411" lat="30.356671" lon="-97.854011" changeset="false"><tag k="addr:street" v="Far View Drive"/><tag k="addr:housenumber" v="3406"/><tag k="addr:postcode" v="78730"/></node><node id="-412" lat="30.352866" lon="-97.846404" changeset="false"><tag k="addr:street" v="Ranch Creek Drive"/><tag k="addr:housenumber" v="3653"/><tag k="addr:postcode" v="78730"/></node><node id="-413" lat="30.352167" lon="-97.847657" changeset="false"><tag k="addr:street" v="Ranch Creek Drive"/><tag k="addr:housenumber" v="3658"/><tag k="addr:postcode" v="78730"/></node><node id="-414" lat="30.38657" lon="-97.850321" changeset="false"><tag k="addr:street" v="Milky Way Drive"/><tag k="addr:housenumber" v="10620"/><tag k="addr:postcode" v="78730"/></node><node id="-415" lat="30.362578" lon="-97.85579" changeset="false"><tag k="addr:street" v="River Place Boulevard"/><tag k="addr:housenumber" v="3808"/><tag k="addr:postcode" v="78730"/></node><node id="-416" lat="30.367225" lon="-97.852774" changeset="false"><tag k="addr:street" v="Inshore Cove"/><tag k="addr:housenumber" v="4305"/><tag k="addr:postcode" v="78730"/></node><node id="-417" lat="30.357902" lon="-97.859783" changeset="false"><tag k="addr:street" v="Far View Drive"/><tag k="addr:housenumber" v="3310"/><tag k="addr:postcode" v="78730"/></node><node id="-418" lat="30.364371" lon="-97.856858" changeset="false"><tag k="addr:street" v="Lob Cove"/><tag k="addr:housenumber" v="4001"/><tag k="addr:postcode" v="78730"/></node><node id="-419" lat="30.357324" lon="-97.855767" changeset="false"><tag k="addr:street" v="Far View Drive"/><tag k="addr:housenumber" v="3338"/><tag k="addr:postcode" v="78730"/></node><node id="-420" lat="30.356266" lon="-97.858681" changeset="false"><tag k="addr:street" v="Far View Drive"/><tag k="addr:housenumber" v="3315"/><tag k="addr:postcode" v="78730"/></node><node id="-421" lat="30.359925" lon="-97.858877" changeset="false"><tag k="addr:street" v="Big View Drive"/><tag k="addr:housenumber" v="9428"/><tag k="addr:postcode" v="78730"/></node><node id="-422" lat="30.380441" lon="-97.826071" changeset="false"><tag k="addr:street" v="Leaning Rock Circle"/><tag k="addr:housenumber" v="9204"/><tag k="addr:postcode" v="78730"/></node><node id="-423" lat="30.361255" lon="-97.836093" changeset="false"><tag k="addr:street" v="Mountbatten Circle"/><tag k="addr:housenumber" v="9005"/><tag k="addr:postcode" v="78730"/></node><node id="-424" lat="30.368261" lon="-97.846886" changeset="false"><tag k="addr:street" v="Big View Drive"/><tag k="addr:housenumber" v="9824"/><tag k="addr:postcode" v="78730"/></node><node id="-425" lat="30.354624" lon="-97.839078" changeset="false"><tag k="addr:street" v="Turkey Creek Drive"/><tag k="addr:housenumber" v="3901"/><tag k="addr:postcode" v="78730"/></node><node id="-426" lat="30.368905" lon="-97.844078" changeset="false"><tag k="addr:street" v="High Gate Drive"/><tag k="addr:housenumber" v="4801"/><tag k="addr:postcode" v="78730"/></node><node id="-427" lat="30.368133" lon="-97.843271" changeset="false"><tag k="addr:street" v="Woody Ridge View"/><tag k="addr:housenumber" v="9624"/><tag k="addr:postcode" v="78730"/></node><node id="-428" lat="30.358768" lon="-97.839294" changeset="false"><tag k="addr:street" v="Turkey Creek Drive"/><tag k="addr:housenumber" v="4200"/><tag k="addr:postcode" v="78730"/></node><node id="-429" lat="30.379737" lon="-97.830783" changeset="false"><tag k="addr:street" v="Chambly Cove"/><tag k="addr:housenumber" v="6302"/><tag k="addr:postcode" v="78730"/></node><node id="-430" lat="30.357181" lon="-97.855039" changeset="false"><tag k="addr:street" v="Far View Drive"/><tag k="addr:housenumber" v="3346"/><tag k="addr:postcode" v="78730"/></node><node id="-431" lat="30.35618" lon="-97.856762" changeset="false"><tag k="addr:street" v="Far View Drive"/><tag k="addr:housenumber" v="3335"/><tag k="addr:postcode" v="78730"/></node><node id="-432" lat="30.366763" lon="-97.846124" changeset="false"><tag k="addr:street" v="Whitehall Cove"/><tag k="addr:housenumber" v="4517"/><tag k="addr:postcode" v="78730"/></node><node id="-433" lat="30.363541" lon="-97.837249" changeset="false"><tag k="addr:street" v="Westminster Glen Avenue"/><tag k="addr:housenumber" v="9109"/><tag k="addr:postcode" v="78730"/></node><node id="-434" lat="30.367168" lon="-97.856719" changeset="false"><tag k="addr:street" v="Canoas Drive"/><tag k="addr:housenumber" v="4201"/><tag k="addr:postcode" v="78730"/></node><node id="-435" lat="30.357925" lon="-97.847879" changeset="false"><tag k="addr:street" v="Glenlake Drive"/><tag k="addr:housenumber" v="9601"/><tag k="addr:postcode" v="78730"/></node><node id="-436" lat="30.366494" lon="-97.842564" changeset="false"><tag k="addr:street" v="Westminster Glen Avenue"/><tag k="addr:housenumber" v="9526"/><tag k="addr:postcode" v="78730"/></node><node id="-437" lat="30.36815" lon="-97.856119" changeset="false"><tag k="addr:street" v="Canoas Drive"/><tag k="addr:housenumber" v="4301"/><tag k="addr:postcode" v="78730"/></node><node id="-438" lat="30.372934" lon="-97.846925" changeset="false"><tag k="addr:street" v="Jekins Cove"/><tag k="addr:housenumber" v="5100"/><tag k="addr:postcode" v="78730"/></node><node id="-439" lat="30.372912" lon="-97.846934" changeset="false"><tag k="addr:street" v="China Garden Drive"/><tag k="addr:housenumber" v="5127"/><tag k="addr:postcode" v="78730"/></node><node id="-440" lat="30.385939" lon="-97.850329" changeset="false"><tag k="addr:street" v="Milky Way Drive"/><tag k="addr:housenumber" v="10621 1/2"/><tag k="addr:postcode" v="78730"/></node><node id="-441" lat="30.385839" lon="-97.850325" changeset="false"><tag k="addr:street" v="Milky Way Drive"/><tag k="addr:housenumber" v="10621"/><tag k="addr:postcode" v="78730"/></node></osm>