<?xml version="1.0" encoding="UTF-8"?><osm version="0.6" generator="github.com/aaronlidman/osm-and-geojson"><node id="-1" lat="30.379286" lon="-97.955768" changeset="false"><tag k="addr:street" v="Monks Mountain Drive"/><tag k="addr:housenumber" v="16200"/><tag k="addr:postcode" v="78734"/></node><node id="-2" lat="30.399677" lon="-97.928455" changeset="false"><tag k="addr:street" v="Conejo Drive"/><tag k="addr:housenumber" v="3903"/><tag k="addr:postcode" v="78734"/></node><node id="-3" lat="30.415667" lon="-97.918312" changeset="false"><tag k="addr:street" v="Lands End Street"/><tag k="addr:housenumber" v="5604"/><tag k="addr:postcode" v="78734"/></node><node id="-4" lat="30.405116" lon="-97.912234" changeset="false"><tag k="addr:street" v="Hornsby Hill Road"/><tag k="addr:housenumber" v="14750"/><tag k="addr:postcode" v="78734"/></node><node id="-5" lat="30.413308" lon="-97.919099" changeset="false"><tag k="addr:street" v="Enid Drive"/><tag k="addr:housenumber" v="15400"/><tag k="addr:postcode" v="78734"/></node><node id="-6" lat="30.401845" lon="-97.928902" changeset="false"><tag k="addr:street" v="Zopilote Circle"/><tag k="addr:housenumber" v="4102"/><tag k="addr:postcode" v="78734"/></node><node id="-7" lat="30.388181" lon="-97.948322" changeset="false"><tag k="addr:street" v="Canard Circle"/><tag k="addr:housenumber" v="16018"/><tag k="addr:postcode" v="78734"/></node><node id="-8" lat="30.387917" lon="-97.949162" changeset="false"><tag k="addr:street" v="Costa Bella Drive"/><tag k="addr:housenumber" v="214"/><tag k="addr:postcode" v="78734"/></node><node id="-9" lat="30.401762" lon="-97.916842" changeset="false"><tag k="addr:street" v="Lago Viento"/><tag k="addr:housenumber" v="4537"/><tag k="addr:postcode" v="78734"/></node><node id="-10" lat="30.409412" lon="-97.918103" changeset="false"><tag k="addr:street" v="Timothy Circle"/><tag k="addr:housenumber" v="5103"/><tag k="addr:postcode" v="78734"/></node><node id="-11" lat="30.398298" lon="-97.908133" changeset="false"><tag k="addr:street" v="Agarita Road"/><tag k="addr:housenumber" v="14426"/><tag k="addr:postcode" v="78734"/></node><node id="-12" lat="30.397558" lon="-97.915453" changeset="false"><tag k="addr:street" v="Mansfield Dam Court"/><tag k="addr:housenumber" v="14614"/><tag k="addr:postcode" v="78734"/></node><node id="-13" lat="30.397488" lon="-97.909418" changeset="false"><tag k="addr:street" v="Agarita Road"/><tag k="addr:housenumber" v="14441"/><tag k="addr:postcode" v="78734"/></node><node id="-14" lat="30.411349" lon="-97.921845" changeset="false"><tag k="addr:street" v="Sioux Lane"/><tag k="addr:housenumber" v="5108"/><tag k="addr:postcode" v="78734"/></node><node id="-15" lat="30.41106" lon="-97.919614" changeset="false"><tag k="addr:street" v="Cree Circle"/><tag k="addr:housenumber" v="15301"/><tag k="addr:postcode" v="78734"/></node><node id="-16" lat="30.415891" lon="-97.918864" changeset="false"><tag k="addr:street" v="Arroyo Road"/><tag k="addr:housenumber" v="5605"/><tag k="addr:postcode" v="78734"/></node><node id="-17" lat="30.380316" lon="-97.957703" changeset="false"><tag k="addr:street" v="Linscomb Drive"/><tag k="addr:housenumber" v="1010"/><tag k="addr:postcode" v="78734"/></node><node id="-18" lat="30.417016" lon="-97.920722" changeset="false"><tag k="addr:street" v="Longhorn Landing"/><tag k="addr:housenumber" v="5604"/><tag k="addr:postcode" v="78734"/></node><node id="-19" lat="30.412671" lon="-97.924087" changeset="false"><tag k="addr:street" v="Beacon Drive"/><tag k="addr:housenumber" v="5107"/><tag k="addr:postcode" v="78734"/></node><node id="-20" lat="30.38055" lon="-97.958717" changeset="false"><tag k="addr:street" v="Stewart Cove"/><tag k="addr:housenumber" v="1008"/><tag k="addr:postcode" v="78734"/></node><node id="-21" lat="30.403817" lon="-97.924665" changeset="false"><tag k="addr:street" v="Poteau Circle"/><tag k="addr:housenumber" v="4403"/><tag k="addr:postcode" v="78734"/></node><node id="-22" lat="30.40411" lon="-97.923372" changeset="false"><tag k="addr:street" v="Mc Cormick Mountain Drive"/><tag k="addr:housenumber" v="4501"/><tag k="addr:postcode" v="78734"/></node><node id="-23" lat="30.404119" lon="-97.925188" changeset="false"><tag k="addr:street" v="Poteau Circle"/><tag k="addr:housenumber" v="4400"/><tag k="addr:postcode" v="78734"/></node><node id="-24" lat="30.401469" lon="-97.926701" changeset="false"><tag k="addr:street" v="Hudson Bend Road"/><tag k="addr:housenumber" v="4102"/><tag k="addr:postcode" v="78734"/></node><node id="-25" lat="30.401157" lon="-97.927362" changeset="false"><tag k="addr:street" v="Aguila Circle"/><tag k="addr:housenumber" v="4101"/><tag k="addr:postcode" v="78734"/></node><node id="-26" lat="30.400874" lon="-97.929516" changeset="false"><tag k="addr:street" v="Tejon Circle"/><tag k="addr:housenumber" v="4001"/><tag k="addr:postcode" v="78734"/></node><node id="-27" lat="30.413207" lon="-97.91625" changeset="false"><tag k="addr:street" v="Rainbow One Street"/><tag k="addr:housenumber" v="15212"/><tag k="addr:postcode" v="78734"/></node><node id="-28" lat="30.395127" lon="-97.935094" changeset="false"><tag k="addr:street" v="Ranch Road 620"/><tag k="addr:housenumber" v="3308"/><tag k="addr:postcode" v="78734"/></node><node id="-29" lat="30.400923" lon="-97.910105" changeset="false"><tag k="addr:street" v="Agarita Cove"/><tag k="addr:housenumber" v="4704"/><tag k="addr:postcode" v="78734"/></node><node id="-30" lat="30.397605" lon="-97.913698" changeset="false"><tag k="addr:street" v="Mansfield Dam Court"/><tag k="addr:housenumber" v="14604"/><tag k="addr:postcode" v="78734"/></node><node id="-31" lat="30.381053" lon="-97.95928" changeset="false"><tag k="addr:street" v="Stewart Road"/><tag k="addr:housenumber" v="16406"/><tag k="addr:postcode" v="78734"/></node><node id="-32" lat="30.409493" lon="-97.917121" changeset="false"><tag k="addr:street" v="Mc Cormick Mountain Drive"/><tag k="addr:housenumber" v="5228"/><tag k="addr:postcode" v="78734"/></node><node id="-33" lat="30.408353" lon="-97.91907" changeset="false"><tag k="addr:street" v="Mc Cormick Mountain Drive"/><tag k="addr:housenumber" v="5003"/><tag k="addr:postcode" v="78734"/></node><node id="-34" lat="30.381242" lon="-97.952957" changeset="false"><tag k="addr:street" v="Spring Branch Trail"/><tag k="addr:housenumber" v="16102"/><tag k="addr:postcode" v="78734"/></node><node id="-35" lat="30.41626" lon="-97.921212" changeset="false"><tag k="addr:street" v="Longhorn Landing"/><tag k="addr:housenumber" v="5506"/><tag k="addr:postcode" v="78734"/></node><node id="-36" lat="30.403025" lon="-97.929939" changeset="false"><tag k="addr:street" v="Gavilan Circle"/><tag k="addr:housenumber" v="15601"/><tag k="addr:postcode" v="78734"/></node><node id="-37" lat="30.41261" lon="-97.91836" changeset="false"><tag k="addr:street" v="Lake Mist"/><tag k="addr:housenumber" v="5305"/><tag k="addr:postcode" v="78734"/></node><node id="-38" lat="30.377773" lon="-97.952654" changeset="false"><tag k="addr:street" v="Buffalo Gap Road"/><tag k="addr:housenumber" v="1100"/><tag k="addr:postcode" v="78734"/></node><node id="-39" lat="30.417792" lon="-97.919084" changeset="false"><tag k="addr:street" v="Lands End Street"/><tag k="addr:housenumber" v="5713"/><tag k="addr:postcode" v="78734"/></node><node id="-40" lat="30.412824" lon="-97.92074" changeset="false"><tag k="addr:street" v="Checotah Drive"/><tag k="addr:housenumber" v="15500"/><tag k="addr:postcode" v="78734"/></node><node id="-41" lat="30.383916" lon="-97.953235" changeset="false"><tag k="addr:street" v="Bella Cima Drive"/><tag k="addr:housenumber" v="119"/><tag k="addr:postcode" v="78734"/></node><node id="-42" lat="30.418521" lon="-97.919739" changeset="false"><tag k="addr:street" v="Longhorn Landing"/><tag k="addr:housenumber" v="5800"/><tag k="addr:postcode" v="78734"/></node><node id="-43" lat="30.410137" lon="-97.923384" changeset="false"><tag k="addr:street" v="Weletka Drive"/><tag k="addr:housenumber" v="4902"/><tag k="addr:postcode" v="78734"/></node><node id="-44" lat="30.378307" lon="-97.953417" changeset="false"><tag k="addr:street" v="Thunderhead Road"/><tag k="addr:housenumber" v="16019"/><tag k="addr:postcode" v="78734"/></node><node id="-45" lat="30.378206" lon="-97.953826" changeset="false"><tag k="addr:street" v="Thunderhead Road"/><tag k="addr:housenumber" v="16031"/><tag k="addr:postcode" v="78734"/></node><node id="-46" lat="30.378887" lon="-97.952794" changeset="false"><tag k="addr:street" v="Thunderhead Road"/><tag k="addr:housenumber" v="16008"/><tag k="addr:postcode" v="78734"/></node><node id="-47" lat="30.386512" lon="-97.946062" changeset="false"><tag k="addr:street" v="Fontaine Avenue"/><tag k="addr:housenumber" v="16052"/><tag k="addr:postcode" v="78734"/></node><node id="-48" lat="30.380245" lon="-97.945569" changeset="false"><tag k="addr:street" v="Ranch Road 620"/><tag k="addr:housenumber" v="1602"/><tag k="addr:postcode" v="78734"/></node><node id="-49" lat="30.375548" lon="-97.949012" changeset="false"><tag k="addr:street" v="Stewart Road"/><tag k="addr:housenumber" v="15700"/><tag k="addr:postcode" v="78734"/></node><node id="-50" lat="30.378139" lon="-97.953215" changeset="false"><tag k="addr:street" v="Stewart Road"/><tag k="addr:housenumber" v="15924"/><tag k="addr:postcode" v="78734"/></node><node id="-51" lat="30.413914" lon="-97.91961" changeset="false"><tag k="addr:street" v="Rock Creek"/><tag k="addr:housenumber" v="15407"/><tag k="addr:postcode" v="78734"/></node><node id="-52" lat="30.399865" lon="-97.907811" changeset="false"><tag k="addr:street" v="Agarita Road"/><tag k="addr:housenumber" v="14419"/><tag k="addr:postcode" v="78734"/></node><node id="-53" lat="30.379602" lon="-97.951875" changeset="false"><tag k="addr:street" v="Buffalo Gap Road"/><tag k="addr:housenumber" v="1217"/><tag k="addr:postcode" v="78734"/></node><node id="-54" lat="30.400726" lon="-97.931711" changeset="false"><tag k="addr:street" v="Eck Lane"/><tag k="addr:housenumber" v="3906"/><tag k="addr:postcode" v="78734"/></node><node id="-55" lat="30.407954" lon="-97.924654" changeset="false"><tag k="addr:street" v="Watumba Road"/><tag k="addr:housenumber" v="15500"/><tag k="addr:postcode" v="78734"/></node><node id="-56" lat="30.401645" lon="-97.929522" changeset="false"><tag k="addr:street" v="Eck Lane"/><tag k="addr:housenumber" v="4007"/><tag k="addr:postcode" v="78734"/></node><node id="-57" lat="30.399503" lon="-97.908412" changeset="false"><tag k="addr:street" v="Limestone Place"/><tag k="addr:housenumber" v="4705"/><tag k="addr:postcode" v="78734"/></node><node id="-58" lat="30.411498" lon="-97.922798" changeset="false"><tag k="addr:street" v="Pryor Lane"/><tag k="addr:housenumber" v="5022"/><tag k="addr:postcode" v="78734"/></node><node id="-59" lat="30.403582" lon="-97.919277" changeset="false"><tag k="addr:street" v="Lago Viento"/><tag k="addr:housenumber" v="4514"/><tag k="addr:postcode" v="78734"/></node><node id="-60" lat="30.411418" lon="-97.92289" changeset="false"><tag k="addr:street" v="Pryor Lane"/><tag k="addr:housenumber" v="5018"/><tag k="addr:postcode" v="78734"/></node><node id="-61" lat="30.410834" lon="-97.920439" changeset="false"><tag k="addr:street" v="Cree Lane"/><tag k="addr:housenumber" v="5105"/><tag k="addr:postcode" v="78734"/></node><node id="-62" lat="30.392436" lon="-97.947246" changeset="false"><tag k="addr:street" v="Chateau Avenue"/><tag k="addr:housenumber" v="16104"/><tag k="addr:postcode" v="78734"/></node><node id="-63" lat="30.412605" lon="-97.921559" changeset="false"><tag k="addr:street" v="Pryor Lane"/><tag k="addr:housenumber" v="5209"/><tag k="addr:postcode" v="78734"/></node><node id="-64" lat="30.413275" lon="-97.922883" changeset="false"><tag k="addr:street" v="Checotah Drive"/><tag k="addr:housenumber" v="15603"/><tag k="addr:postcode" v="78734"/></node><node id="-65" lat="30.410683" lon="-97.916574" changeset="false"><tag k="addr:street" v="Back of the Moon Street"/><tag k="addr:housenumber" v="15201"/><tag k="addr:postcode" v="78734"/></node><node id="-66" lat="30.385449" lon="-97.946463" changeset="false"><tag k="addr:street" v="Fontaine Avenue"/><tag k="addr:housenumber" v="16046"/><tag k="addr:postcode" v="78734"/></node><node id="-67" lat="30.38545" lon="-97.955857" changeset="false"><tag k="addr:street" v="Buffalo Gap Road"/><tag k="addr:housenumber" v="1606"/><tag k="addr:postcode" v="78734"/></node><node id="-68" lat="30.389056" lon="-97.944331" changeset="false"><tag k="addr:street" v="Chateau Avenue"/><tag k="addr:housenumber" v="15901"/><tag k="addr:postcode" v="78734"/></node><node id="-69" lat="30.416019" lon="-97.92009" changeset="false"><tag k="addr:street" v="Cedar Ledge Street"/><tag k="addr:housenumber" v="15600"/><tag k="addr:postcode" v="78734"/></node><node id="-70" lat="30.41592" lon="-97.919574" changeset="false"><tag k="addr:street" v="Arroyo Road"/><tag k="addr:housenumber" v="5606"/><tag k="addr:postcode" v="78734"/></node><node id="-71" lat="30.380431" lon="-97.954684" changeset="false"><tag k="addr:street" v="Spring Branch Trail"/><tag k="addr:housenumber" v="16133 1/2"/><tag k="addr:postcode" v="78734"/></node><node id="-72" lat="30.387415" lon="-97.952805" changeset="false"><tag k="addr:street" v="Bella Riva Drive"/><tag k="addr:housenumber" v="205"/><tag k="addr:postcode" v="78734"/></node><node id="-73" lat="30.397922" lon="-97.933344" changeset="false"><tag k="addr:street" v="Ranch Road 620"/><tag k="addr:housenumber" v="3516"/><tag k="addr:postcode" v="78734"/></node><node id="-74" lat="30.390703" lon="-97.939697" changeset="false"><tag k="addr:street" v="Ranch Road 620"/><tag k="addr:housenumber" v="2816"/><tag k="addr:postcode" v="78734"/></node><node id="-75" lat="30.377318" lon="-97.946801" changeset="false"><tag k="addr:street" v="Ranch Road 620"/><tag k="addr:housenumber" v="1304"/><tag k="addr:postcode" v="78734"/></node><node id="-76" lat="30.412121" lon="-97.916796" changeset="false"><tag k="addr:street" v="Rainbow Two Street"/><tag k="addr:housenumber" v="15208"/><tag k="addr:postcode" v="78734"/></node><node id="-77" lat="30.411353" lon="-97.915404" changeset="false"><tag k="addr:street" v="Rainbow One Street"/><tag k="addr:housenumber" v="15106"/><tag k="addr:postcode" v="78734"/></node><node id="-78" lat="30.411219" lon="-97.91613" changeset="false"><tag k="addr:street" v="Rainbow One Street"/><tag k="addr:housenumber" v="15103"/><tag k="addr:postcode" v="78734"/></node><node id="-79" lat="30.407186" lon="-97.925483" changeset="false"><tag k="addr:street" v="Weletka Drive"/><tag k="addr:housenumber" v="4604"/><tag k="addr:postcode" v="78734"/></node><node id="-80" lat="30.413133" lon="-97.9214" changeset="false"><tag k="addr:street" v="Checotah Drive"/><tag k="addr:housenumber" v="15506"/><tag k="addr:postcode" v="78734"/></node><node id="-81" lat="30.399259" lon="-97.909757" changeset="false"><tag k="addr:street" v="Rock Bluff Place"/><tag k="addr:housenumber" v="4605"/><tag k="addr:postcode" v="78734"/></node><node id="-82" lat="30.398979" lon="-97.908474" changeset="false"><tag k="addr:street" v="Agarita Road"/><tag k="addr:housenumber" v="14414"/><tag k="addr:postcode" v="78734"/></node><node id="-83" lat="30.397771" lon="-97.911246" changeset="false"><tag k="addr:street" v="Agarita Place"/><tag k="addr:housenumber" v="4501"/><tag k="addr:postcode" v="78734"/></node><node id="-84" lat="30.396515" lon="-97.913849" changeset="false"><tag k="addr:street" v="Mansfield Dam Road"/><tag k="addr:housenumber" v="4300"/><tag k="addr:postcode" v="78734"/></node><node id="-85" lat="30.37816" lon="-97.950555" changeset="false"><tag k="addr:street" v="Debba Drive"/><tag k="addr:housenumber" v="15802"/><tag k="addr:postcode" v="78734"/></node><node id="-86" lat="30.413596" lon="-97.921047" changeset="false"><tag k="addr:street" v="Enid Drive"/><tag k="addr:housenumber" v="15507"/><tag k="addr:postcode" v="78734"/></node><node id="-87" lat="30.413298" lon="-97.920476" changeset="false"><tag k="addr:street" v="Enid Drive"/><tag k="addr:housenumber" v="15501"/><tag k="addr:postcode" v="78734"/></node><node id="-88" lat="30.409615" lon="-97.914859" changeset="false"><tag k="addr:street" v="Mc Cormick Mountain Drive"/><tag k="addr:housenumber" v="5242"/><tag k="addr:postcode" v="78734"/></node><node id="-89" lat="30.389675" lon="-97.94127" changeset="false"><tag k="addr:street" v="Ranch Road 620"/><tag k="addr:housenumber" v="2600"/><tag k="addr:postcode" v="78734"/></node><node id="-90" lat="30.385168" lon="-97.954598" changeset="false"><tag k="addr:street" v="Lake Loop"/><tag k="addr:housenumber" v="16464"/><tag k="addr:postcode" v="78734"/></node><node id="-91" lat="30.399553" lon="-97.925491" changeset="false"><tag k="addr:street" v="Lago Viento"/><tag k="addr:housenumber" v="4114 1/2"/><tag k="addr:postcode" v="78734"/></node><node id="-92" lat="30.391453" lon="-97.947935" changeset="false"><tag k="addr:street" v="Chateau Avenue"/><tag k="addr:housenumber" v="16108"/><tag k="addr:postcode" v="78734"/></node><node id="-93" lat="30.403253" lon="-97.910245" changeset="false"><tag k="addr:street" v="Hornsby Hill Road"/><tag k="addr:housenumber" v="14732"/><tag k="addr:postcode" v="78734"/></node><node id="-94" lat="30.40301" lon="-97.913924" changeset="false"><tag k="addr:street" v="Hornsby Hill Road"/><tag k="addr:housenumber" v="14706"/><tag k="addr:postcode" v="78734"/></node><node id="-95" lat="30.41128" lon="-97.920029" changeset="false"><tag k="addr:street" v="Cree Circle"/><tag k="addr:housenumber" v="15401"/><tag k="addr:postcode" v="78734"/></node><node id="-96" lat="30.40239" lon="-97.928426" changeset="false"><tag k="addr:street" v="Zopilote Circle"/><tag k="addr:housenumber" v="4103"/><tag k="addr:postcode" v="78734"/></node><node id="-97" lat="30.385022" lon="-97.956345" changeset="false"><tag k="addr:street" v="Buffalo Gap Road"/><tag k="addr:housenumber" v="1562"/><tag k="addr:postcode" v="78734"/></node><node id="-98" lat="30.380144" lon="-97.956711" changeset="false"><tag k="addr:street" v="Spring Branch Trail"/><tag k="addr:housenumber" v="16214"/><tag k="addr:postcode" v="78734"/></node><node id="-99" lat="30.381594" lon="-97.956267" changeset="false"><tag k="addr:street" v="Lake Loop"/><tag k="addr:housenumber" v="16315"/><tag k="addr:postcode" v="78734"/></node><node id="-100" lat="30.38144" lon="-97.956764" changeset="false"><tag k="addr:street" v="Lake Loop"/><tag k="addr:housenumber" v="16319"/><tag k="addr:postcode" v="78734"/></node><node id="-101" lat="30.381473" lon="-97.957069" changeset="false"><tag k="addr:street" v="Lake Loop"/><tag k="addr:housenumber" v="16321"/><tag k="addr:postcode" v="78734"/></node><node id="-102" lat="30.413425" lon="-97.916887" changeset="false"><tag k="addr:street" v="Rainbow One Street"/><tag k="addr:housenumber" v="15302"/><tag k="addr:postcode" v="78734"/></node><node id="-103" lat="30.411063" lon="-97.917381" changeset="false"><tag k="addr:street" v="Back of the Moon Street"/><tag k="addr:housenumber" v="15209"/><tag k="addr:postcode" v="78734"/></node><node id="-104" lat="30.378913" lon="-97.952999" changeset="false"><tag k="addr:street" v="Thunderhead Road"/><tag k="addr:housenumber" v="16012"/><tag k="addr:postcode" v="78734"/></node><node id="-105" lat="30.409937" lon="-97.914146" changeset="false"><tag k="addr:street" v="Mc Cormick Mountain Drive"/><tag k="addr:housenumber" v="5244"/><tag k="addr:postcode" v="78734"/></node><node id="-106" lat="30.377309" lon="-97.951432" changeset="false"><tag k="addr:street" v="Debba Drive"/><tag k="addr:housenumber" v="15810"/><tag k="addr:postcode" v="78734"/></node><node id="-107" lat="30.404102" lon="-97.915556" changeset="false"><tag k="addr:street" v="Hornsby Hill Road"/><tag k="addr:housenumber" v="14915"/><tag k="addr:postcode" v="78734"/></node><node id="-108" lat="30.407742" lon="-97.923854" changeset="false"><tag k="addr:street" v="Watumba Road"/><tag k="addr:housenumber" v="15406"/><tag k="addr:postcode" v="78734"/></node><node id="-109" lat="30.407981" lon="-97.924115" changeset="false"><tag k="addr:street" v="Watumba Road"/><tag k="addr:housenumber" v="15408"/><tag k="addr:postcode" v="78734"/></node><node id="-110" lat="30.379571" lon="-97.952687" changeset="false"><tag k="addr:street" v="Agua Vista"/><tag k="addr:housenumber" v="16015"/><tag k="addr:postcode" v="78734"/></node><node id="-111" lat="30.410125" lon="-97.921576" changeset="false"><tag k="addr:street" v="Weletka Drive"/><tag k="addr:housenumber" v="5007"/><tag k="addr:postcode" v="78734"/></node><node id="-112" lat="30.409432" lon="-97.9199" changeset="false"><tag k="addr:street" v="Mc Cormick Mountain Drive"/><tag k="addr:housenumber" v="5100"/><tag k="addr:postcode" v="78734"/></node><node id="-113" lat="30.409725" lon="-97.919797" changeset="false"><tag k="addr:street" v="Mc Cormick Mountain Drive"/><tag k="addr:housenumber" v="5102"/><tag k="addr:postcode" v="78734"/></node><node id="-114" lat="30.405919" lon="-97.92012" changeset="false"><tag k="addr:street" v="Mc Cormick Mountain Drive"/><tag k="addr:housenumber" v="4804"/><tag k="addr:postcode" v="78734"/></node><node id="-115" lat="30.406873" lon="-97.919595" changeset="false"><tag k="addr:street" v="Mc Cormick Mountain Drive"/><tag k="addr:housenumber" v="4820"/><tag k="addr:postcode" v="78734"/></node><node id="-116" lat="30.405228" lon="-97.923537" changeset="false"><tag k="addr:street" v="Mc Cormick Mountain Drive"/><tag k="addr:housenumber" v="4600"/><tag k="addr:postcode" v="78734"/></node><node id="-117" lat="30.412733" lon="-97.922018" changeset="false"><tag k="addr:street" v="Pryor Lane"/><tag k="addr:housenumber" v="5208"/><tag k="addr:postcode" v="78734"/></node><node id="-118" lat="30.413293" lon="-97.921802" changeset="false"><tag k="addr:street" v="Checotah Drive"/><tag k="addr:housenumber" v="15510"/><tag k="addr:postcode" v="78734"/></node><node id="-119" lat="30.408993" lon="-97.924439" changeset="false"><tag k="addr:street" v="Weletka Drive"/><tag k="addr:housenumber" v="4802"/><tag k="addr:postcode" v="78734"/></node><node id="-120" lat="30.413823" lon="-97.921468" changeset="false"><tag k="addr:street" v="Enid Drive"/><tag k="addr:housenumber" v="15511"/><tag k="addr:postcode" v="78734"/></node><node id="-121" lat="30.413507" lon="-97.920854" changeset="false"><tag k="addr:street" v="Enid Drive"/><tag k="addr:housenumber" v="15505"/><tag k="addr:postcode" v="78734"/></node><node id="-122" lat="30.406499" lon="-97.923359" changeset="false"><tag k="addr:street" v="Watumba Road"/><tag k="addr:housenumber" v="15401"/><tag k="addr:postcode" v="78734"/></node><node id="-123" lat="30.405234" lon="-97.926264" changeset="false"><tag k="addr:street" v="Weletka Drive"/><tag k="addr:housenumber" v="4502"/><tag k="addr:postcode" v="78734"/></node><node id="-124" lat="30.400431" lon="-97.92867" changeset="false"><tag k="addr:street" v="Conejo Drive"/><tag k="addr:housenumber" v="3907"/><tag k="addr:postcode" v="78734"/></node><node id="-125" lat="30.399897" lon="-97.927088" changeset="false"><tag k="addr:street" v="Hudson Bend Road"/><tag k="addr:housenumber" v="4000"/><tag k="addr:postcode" v="78734"/></node><node id="-126" lat="30.401333" lon="-97.916693" changeset="false"><tag k="addr:street" v="Lago Viento"/><tag k="addr:housenumber" v="4539"/><tag k="addr:postcode" v="78734"/></node><node id="-127" lat="30.397768" lon="-97.908294" changeset="false"><tag k="addr:street" v="Agarita Road"/><tag k="addr:housenumber" v="14433"/><tag k="addr:postcode" v="78734"/></node><node id="-128" lat="30.380599" lon="-97.959123" changeset="false"><tag k="addr:street" v="Stewart Road"/><tag k="addr:housenumber" v="16404"/><tag k="addr:postcode" v="78734"/></node><node id="-129" lat="30.388166" lon="-97.94183" changeset="false"><tag k="addr:street" v="Fontaine Avenue"/><tag k="addr:housenumber" v="15801"/><tag k="addr:postcode" v="78734"/></node><node id="-130" lat="30.379177" lon="-97.951691" changeset="false"><tag k="addr:street" v="Buffalo Gap Road"/><tag k="addr:housenumber" v="1211"/><tag k="addr:postcode" v="78734"/></node><node id="-131" lat="30.383072" lon="-97.958223" changeset="false"><tag k="addr:street" v="Lake Loop"/><tag k="addr:housenumber" v="16407"/><tag k="addr:postcode" v="78734"/></node><node id="-132" lat="30.387398" lon="-97.948477" changeset="false"><tag k="addr:street" v="Fontaine Avenue"/><tag k="addr:housenumber" v="16006"/><tag k="addr:postcode" v="78734"/></node><node id="-133" lat="30.387327" lon="-97.946271" changeset="false"><tag k="addr:street" v="Fontaine Avenue"/><tag k="addr:housenumber" v="15910"/><tag k="addr:postcode" v="78734"/></node><node id="-134" lat="30.416826" lon="-97.920827" changeset="false"><tag k="addr:street" v="Longhorn Landing"/><tag k="addr:housenumber" v="5602"/><tag k="addr:postcode" v="78734"/></node><node id="-135" lat="30.378246" lon="-97.9526" changeset="false"><tag k="addr:street" v="Buffalo Gap Road"/><tag k="addr:housenumber" v="1112"/><tag k="addr:postcode" v="78734"/></node><node id="-136" lat="30.412176" lon="-97.916454" changeset="false"><tag k="addr:street" v="Rainbow One Street"/><tag k="addr:housenumber" v="15209"/><tag k="addr:postcode" v="78734"/></node><node id="-137" lat="30.399823" lon="-97.925672" changeset="false"><tag k="addr:street" v="Lago Viento"/><tag k="addr:housenumber" v="4114"/><tag k="addr:postcode" v="78734"/></node><node id="-138" lat="30.39919" lon="-97.927954" changeset="false"><tag k="addr:street" v="Hudson Bend Road"/><tag k="addr:housenumber" v="3900"/><tag k="addr:postcode" v="78734"/></node><node id="-139" lat="30.398469" lon="-97.923548" changeset="false"><tag k="addr:street" v="Lago Viento"/><tag k="addr:housenumber" v="4025"/><tag k="addr:postcode" v="78734"/></node><node id="-140" lat="30.41612" lon="-97.919731" changeset="false"><tag k="addr:street" v="Arroyo Road"/><tag k="addr:housenumber" v="5608"/><tag k="addr:postcode" v="78734"/></node><node id="-141" lat="30.412524" lon="-97.920148" changeset="false"><tag k="addr:street" v="Checotah Drive"/><tag k="addr:housenumber" v="15402"/><tag k="addr:postcode" v="78734"/></node><node id="-142" lat="30.378568" lon="-97.952642" changeset="false"><tag k="addr:street" v="Buffalo Gap Road"/><tag k="addr:housenumber" v="1200"/><tag k="addr:postcode" v="78734"/></node><node id="-143" lat="30.380593" lon="-97.957446" changeset="false"><tag k="addr:street" v="Linscomb Drive"/><tag k="addr:housenumber" v="1012"/><tag k="addr:postcode" v="78734"/></node><node id="-144" lat="30.406871" lon="-97.923664" changeset="false"><tag k="addr:street" v="Watumba Road"/><tag k="addr:housenumber" v="15403"/><tag k="addr:postcode" v="78734"/></node><node id="-145" lat="30.415766" lon="-97.919456" changeset="false"><tag k="addr:street" v="Arroyo Road"/><tag k="addr:housenumber" v="5604"/><tag k="addr:postcode" v="78734"/></node><node id="-146" lat="30.381511" lon="-97.952042" changeset="false"><tag k="addr:street" v="Buffalo Gap Road"/><tag k="addr:housenumber" v="1407"/><tag k="addr:postcode" v="78734"/></node><node id="-147" lat="30.415486" lon="-97.920622" changeset="false"><tag k="addr:street" v="Caliche Lane"/><tag k="addr:housenumber" v="5504"/><tag k="addr:postcode" v="78734"/></node><node id="-148" lat="30.4155" lon="-97.921738" changeset="false"><tag k="addr:street" v="Longhorn Landing"/><tag k="addr:housenumber" v="5500"/><tag k="addr:postcode" v="78734"/></node><node id="-149" lat="30.400972" lon="-97.931246" changeset="false"><tag k="addr:street" v="Eck Lane"/><tag k="addr:housenumber" v="3905"/><tag k="addr:postcode" v="78734"/></node><node id="-150" lat="30.377767" lon="-97.953716" changeset="false"><tag k="addr:street" v="Stewart Road"/><tag k="addr:housenumber" v="16000"/><tag k="addr:postcode" v="78734"/></node><node id="-151" lat="30.410827" lon="-97.915662" changeset="false"><tag k="addr:street" v="Rainbow One Street"/><tag k="addr:housenumber" v="15102"/><tag k="addr:postcode" v="78734"/></node><node id="-152" lat="30.412079" lon="-97.916316" changeset="false"><tag k="addr:street" v="Rainbow One Street"/><tag k="addr:housenumber" v="15207"/><tag k="addr:postcode" v="78734"/></node><node id="-153" lat="30.408852" lon="-97.918463" changeset="false"><tag k="addr:street" v="Timothy Circle"/><tag k="addr:housenumber" v="5100"/><tag k="addr:postcode" v="78734"/></node><node id="-154" lat="30.413059" lon="-97.918929" changeset="false"><tag k="addr:street" v="Cree Lane"/><tag k="addr:housenumber" v="5309"/><tag k="addr:postcode" v="78734"/></node><node id="-155" lat="30.412047" lon="-97.92138" changeset="false"><tag k="addr:street" v="Sioux Lane"/><tag k="addr:housenumber" v="5204"/><tag k="addr:postcode" v="78734"/></node><node id="-156" lat="30.410724" lon="-97.91928" changeset="false"><tag k="addr:street" v="Mc Cormick Mountain Drive"/><tag k="addr:housenumber" v="5110"/><tag k="addr:postcode" v="78734"/></node><node id="-157" lat="30.397502" lon="-97.914529" changeset="false"><tag k="addr:street" v="Mansfield Dam Court"/><tag k="addr:housenumber" v="14610"/><tag k="addr:postcode" v="78734"/></node><node id="-158" lat="30.404474" lon="-97.914749" changeset="false"><tag k="addr:street" v="Hornsby Hill Road"/><tag k="addr:housenumber" v="14824"/><tag k="addr:postcode" v="78734"/></node><node id="-159" lat="30.402792" lon="-97.911799" changeset="false"><tag k="addr:street" v="Hornsby Hill Road"/><tag k="addr:housenumber" v="14724"/><tag k="addr:postcode" v="78734"/></node><node id="-160" lat="30.416791" lon="-97.918323" changeset="false"><tag k="addr:street" v="Lands End Street"/><tag k="addr:housenumber" v="5703"/><tag k="addr:postcode" v="78734"/></node><node id="-161" lat="30.387782" lon="-97.950599" changeset="false"><tag k="addr:street" v="Bella Riva Drive"/><tag k="addr:housenumber" v="221"/><tag k="addr:postcode" v="78734"/></node><node id="-162" lat="30.384752" lon="-97.954298" changeset="false"><tag k="addr:street" v="Bella Cima Drive"/><tag k="addr:housenumber" v="204"/><tag k="addr:postcode" v="78734"/></node><node id="-163" lat="30.388982" lon="-97.951453" changeset="false"><tag k="addr:street" v="Bella Riva Drive"/><tag k="addr:housenumber" v="215"/><tag k="addr:postcode" v="78734"/></node><node id="-164" lat="30.388433" lon="-97.945401" changeset="false"><tag k="addr:street" v="Fontaine Avenue"/><tag k="addr:housenumber" v="15902"/><tag k="addr:postcode" v="78734"/></node><node id="-165" lat="30.381022" lon="-97.948001" changeset="false"><tag k="addr:street" v="Bella Strada Cove"/><tag k="addr:housenumber" v="105"/><tag k="addr:postcode" v="78734"/></node><node id="-166" lat="30.402932" lon="-97.911452" changeset="false"><tag k="addr:street" v="Hornsby Hill Road"/><tag k="addr:housenumber" v="14726"/><tag k="addr:postcode" v="78734"/></node><node id="-167" lat="30.399436" lon="-97.929879" changeset="false"><tag k="addr:street" v="Alazan Circle"/><tag k="addr:housenumber" v="3803"/><tag k="addr:postcode" v="78734"/></node><node id="-168" lat="30.381166" lon="-97.950299" changeset="false"><tag k="addr:street" v="Bella Strada Cove"/><tag k="addr:housenumber" v="114"/><tag k="addr:postcode" v="78734"/></node><node id="-169" lat="30.381093" lon="-97.953898" changeset="false"><tag k="addr:street" v="Spring Branch Trail"/><tag k="addr:housenumber" v="16112"/><tag k="addr:postcode" v="78734"/></node><node id="-170" lat="30.381031" lon="-97.954405" changeset="false"><tag k="addr:street" v="Spring Branch Trail"/><tag k="addr:housenumber" v="16118"/><tag k="addr:postcode" v="78734"/></node><node id="-171" lat="30.384062" lon="-97.957194" changeset="false"><tag k="addr:street" v="Buffalo Gap Road"/><tag k="addr:housenumber" v="1496"/><tag k="addr:postcode" v="78734"/></node><node id="-172" lat="30.388364" lon="-97.950753" changeset="false"><tag k="addr:street" v="Bella Riva Drive"/><tag k="addr:housenumber" v="219"/><tag k="addr:postcode" v="78734"/></node><node id="-173" lat="30.403972" lon="-97.914" changeset="false"><tag k="addr:street" v="Hornsby Hill Road"/><tag k="addr:housenumber" v="14701"/><tag k="addr:postcode" v="78734"/></node><node id="-174" lat="30.412979" lon="-97.919828" changeset="false"><tag k="addr:street" v="Enid Drive"/><tag k="addr:housenumber" v="15403"/><tag k="addr:postcode" v="78734"/></node><node id="-175" lat="30.37831" lon="-97.953686" changeset="false"><tag k="addr:street" v="Thunderhead Road"/><tag k="addr:housenumber" v="16027"/><tag k="addr:postcode" v="78734"/></node><node id="-176" lat="30.410029" lon="-97.921227" changeset="false"><tag k="addr:street" v="Weletka Drive"/><tag k="addr:housenumber" v="5101"/><tag k="addr:postcode" v="78734"/></node><node id="-177" lat="30.409151" lon="-97.919936" changeset="false"><tag k="addr:street" v="Mc Cormick Mountain Drive"/><tag k="addr:housenumber" v="5010"/><tag k="addr:postcode" v="78734"/></node><node id="-178" lat="30.405951" lon="-97.91982" changeset="false"><tag k="addr:street" v="Mc Cormick Mountain Drive"/><tag k="addr:housenumber" v="4806"/><tag k="addr:postcode" v="78734"/></node><node id="-179" lat="30.407438" lon="-97.919379" changeset="false"><tag k="addr:street" v="Mc Cormick Mountain Drive"/><tag k="addr:housenumber" v="4900"/><tag k="addr:postcode" v="78734"/></node><node id="-180" lat="30.414369" lon="-97.920471" changeset="false"><tag k="addr:street" v="Rock Creek"/><tag k="addr:housenumber" v="15505"/><tag k="addr:postcode" v="78734"/></node><node id="-181" lat="30.400499" lon="-97.915519" changeset="false"><tag k="addr:street" v="Agarita Road"/><tag k="addr:housenumber" v="14702"/><tag k="addr:postcode" v="78734"/></node><node id="-182" lat="30.409803" lon="-97.917414" changeset="false"><tag k="addr:street" v="Mc Cormick Mountain Drive"/><tag k="addr:housenumber" v="5224"/><tag k="addr:postcode" v="78734"/></node><node id="-183" lat="30.405122" lon="-97.926885" changeset="false"><tag k="addr:street" v="Hudson Bend Road"/><tag k="addr:housenumber" v="4419"/><tag k="addr:postcode" v="78734"/></node><node id="-184" lat="30.398189" lon="-97.910398" changeset="false"><tag k="addr:street" v="Agarita Road"/><tag k="addr:housenumber" v="14442"/><tag k="addr:postcode" v="78734"/></node><node id="-185" lat="30.383667" lon="-97.957141" changeset="false"><tag k="addr:street" v="Lake Loop"/><tag k="addr:housenumber" v="16425"/><tag k="addr:postcode" v="78734"/></node><node id="-186" lat="30.382828" lon="-97.957717" changeset="false"><tag k="addr:street" v="Lake Loop"/><tag k="addr:housenumber" v="16406"/><tag k="addr:postcode" v="78734"/></node><node id="-187" lat="30.398074" lon="-97.926679" changeset="false"><tag k="addr:street" v="Ranch Road 620"/><tag k="addr:housenumber" v="3700"/><tag k="addr:postcode" v="78734"/></node><node id="-188" lat="30.400187" lon="-97.927361" changeset="false"><tag k="addr:street" v="Paloma Circle"/><tag k="addr:housenumber" v="4002"/><tag k="addr:postcode" v="78734"/></node><node id="-189" lat="30.40184" lon="-97.931903" changeset="false"><tag k="addr:street" v="Eck Lane"/><tag k="addr:housenumber" v="4000"/><tag k="addr:postcode" v="78734"/></node><node id="-190" lat="30.414739" lon="-97.922018" changeset="false"><tag k="addr:street" v="Enid Drive"/><tag k="addr:housenumber" v="15606"/><tag k="addr:postcode" v="78734"/></node><node id="-191" lat="30.401592" lon="-97.927436" changeset="false"><tag k="addr:street" v="Aguila Circle"/><tag k="addr:housenumber" v="4103"/><tag k="addr:postcode" v="78734"/></node><node id="-192" lat="30.412594" lon="-97.920335" changeset="false"><tag k="addr:street" v="Checotah Drive"/><tag k="addr:housenumber" v="15404"/><tag k="addr:postcode" v="78734"/></node><node id="-193" lat="30.400265" lon="-97.923393" changeset="false"><tag k="addr:street" v="Lago Viento"/><tag k="addr:housenumber" v="4315"/><tag k="addr:postcode" v="78734"/></node><node id="-194" lat="30.377486" lon="-97.949954" changeset="false"><tag k="addr:street" v="Debba Drive"/><tag k="addr:housenumber" v="15805"/><tag k="addr:postcode" v="78734"/></node><node id="-195" lat="30.384848" lon="-97.956011" changeset="false"><tag k="addr:street" v="Lake Loop"/><tag k="addr:housenumber" v="16447"/><tag k="addr:postcode" v="78734"/></node><node id="-196" lat="30.413224" lon="-97.921592" changeset="false"><tag k="addr:street" v="Checotah Drive"/><tag k="addr:housenumber" v="15508"/><tag k="addr:postcode" v="78734"/></node><node id="-197" lat="30.408915" lon="-97.92616" changeset="false"><tag k="addr:street" v="Hudson Bend Road"/><tag k="addr:housenumber" v="4705"/><tag k="addr:postcode" v="78734"/></node><node id="-198" lat="30.408145" lon="-97.919027" changeset="false"><tag k="addr:street" v="Mc Cormick Mountain Drive"/><tag k="addr:housenumber" v="5001"/><tag k="addr:postcode" v="78734"/></node><node id="-199" lat="30.413437" lon="-97.916543" changeset="false"><tag k="addr:street" v="Rainbow One Street"/><tag k="addr:housenumber" v="15300"/><tag k="addr:postcode" v="78734"/></node><node id="-200" lat="30.380029" lon="-97.958343" changeset="false"><tag k="addr:street" v="Linscomb Drive"/><tag k="addr:housenumber" v="1002"/><tag k="addr:postcode" v="78734"/></node><node id="-201" lat="30.379833" lon="-97.955361" changeset="false"><tag k="addr:street" v="Spring Branch Trail"/><tag k="addr:housenumber" v="16145"/><tag k="addr:postcode" v="78734"/></node><node id="-202" lat="30.421061" lon="-97.919248" changeset="false"><tag k="addr:street" v="Rittenhouse Shore Drive"/><tag k="addr:housenumber" v="6006"/><tag k="addr:postcode" v="78734"/></node><node id="-203" lat="30.416138" lon="-97.917461" changeset="false"><tag k="addr:street" v="Lands End Street"/><tag k="addr:housenumber" v="5607"/><tag k="addr:postcode" v="78734"/></node><node id="-204" lat="30.399305" lon="-97.928578" changeset="false"><tag k="addr:street" v="Conejo Drive"/><tag k="addr:housenumber" v="3902"/><tag k="addr:postcode" v="78734"/></node><node id="-205" lat="30.390653" lon="-97.945003" changeset="false"><tag k="addr:street" v="Chateau Avenue"/><tag k="addr:housenumber" v="16000"/><tag k="addr:postcode" v="78734"/></node><node id="-206" lat="30.398948" lon="-97.910078" changeset="false"><tag k="addr:street" v="Agarita Road"/><tag k="addr:housenumber" v="14408"/><tag k="addr:postcode" v="78734"/></node><node id="-207" lat="30.392389" lon="-97.946221" changeset="false"><tag k="addr:street" v="Chateau Avenue"/><tag k="addr:housenumber" v="16100"/><tag k="addr:postcode" v="78734"/></node><node id="-208" lat="30.390924" lon="-97.945556" changeset="false"><tag k="addr:street" v="Chateau Avenue"/><tag k="addr:housenumber" v="16004"/><tag k="addr:postcode" v="78734"/></node><node id="-209" lat="30.414311" lon="-97.922508" changeset="false"><tag k="addr:street" v="Enid Drive"/><tag k="addr:housenumber" v="15609"/><tag k="addr:postcode" v="78734"/></node><node id="-210" lat="30.412229" lon="-97.917076" changeset="false"><tag k="addr:street" v="Rainbow Two Street"/><tag k="addr:housenumber" v="15300"/><tag k="addr:postcode" v="78734"/></node><node id="-211" lat="30.418955" lon="-97.921372" changeset="false"><tag k="addr:street" v="Rittenhouse Shore Drive"/><tag k="addr:housenumber" v="5705"/><tag k="addr:postcode" v="78734"/></node><node id="-212" lat="30.397087" lon="-97.922715" changeset="false"><tag k="addr:street" v="Ranch Road 620"/><tag k="addr:housenumber" v="3908"/><tag k="addr:postcode" v="78734"/></node><node id="-213" lat="30.396877" lon="-97.933523" changeset="false"><tag k="addr:street" v="Ranch Road 620"/><tag k="addr:housenumber" v="3500"/><tag k="addr:postcode" v="78734"/></node><node id="-214" lat="30.404326" lon="-97.911476" changeset="false"><tag k="addr:street" v="Hornsby Hill Road"/><tag k="addr:housenumber" v="14742"/><tag k="addr:postcode" v="78734"/></node><node id="-215" lat="30.403305" lon="-97.913973" changeset="false"><tag k="addr:street" v="Hornsby Hill Road"/><tag k="addr:housenumber" v="14704"/><tag k="addr:postcode" v="78734"/></node><node id="-216" lat="30.403041" lon="-97.911051" changeset="false"><tag k="addr:street" v="Hornsby Hill Road"/><tag k="addr:housenumber" v="14728"/><tag k="addr:postcode" v="78734"/></node><node id="-217" lat="30.416329" lon="-97.919878" changeset="false"><tag k="addr:street" v="Arroyo Road"/><tag k="addr:housenumber" v="5610"/><tag k="addr:postcode" v="78734"/></node><node id="-218" lat="30.409969" lon="-97.917738" changeset="false"><tag k="addr:street" v="Mc Cormick Mountain Drive"/><tag k="addr:housenumber" v="5215"/><tag k="addr:postcode" v="78734"/></node><node id="-219" lat="30.413416" lon="-97.923201" changeset="false"><tag k="addr:street" v="Checotah Drive"/><tag k="addr:housenumber" v="15605"/><tag k="addr:postcode" v="78734"/></node><node id="-220" lat="30.406089" lon="-97.926594" changeset="false"><tag k="addr:street" v="Hudson Bend Road"/><tag k="addr:housenumber" v="4509"/><tag k="addr:postcode" v="78734"/></node><node id="-221" lat="30.411889" lon="-97.922014" changeset="false"><tag k="addr:street" v="Pryor Lane"/><tag k="addr:housenumber" v="5201"/><tag k="addr:postcode" v="78734"/></node><node id="-222" lat="30.411593" lon="-97.918443" changeset="false"><tag k="addr:street" v="Back of the Moon Street"/><tag k="addr:housenumber" v="15307"/><tag k="addr:postcode" v="78734"/></node><node id="-223" lat="30.399427" lon="-97.908717" changeset="false"><tag k="addr:street" v="Limestone Place"/><tag k="addr:housenumber" v="4704"/><tag k="addr:postcode" v="78734"/></node><node id="-224" lat="30.399468" lon="-97.91225" changeset="false"><tag k="addr:street" v="Agarita Road"/><tag k="addr:housenumber" v="14512"/><tag k="addr:postcode" v="78734"/></node><node id="-225" lat="30.397967" lon="-97.909459" changeset="false"><tag k="addr:street" v="Agarita Road"/><tag k="addr:housenumber" v="14436"/><tag k="addr:postcode" v="78734"/></node><node id="-226" lat="30.403435" lon="-97.920862" changeset="false"><tag k="addr:street" v="Lago Viento"/><tag k="addr:housenumber" v="4500"/><tag k="addr:postcode" v="78734"/></node><node id="-227" lat="30.402165" lon="-97.929803" changeset="false"><tag k="addr:street" v="Eck Lane"/><tag k="addr:housenumber" v="4009"/><tag k="addr:postcode" v="78734"/></node><node id="-228" lat="30.400661" lon="-97.929794" changeset="false"><tag k="addr:street" v="Tejon Circle"/><tag k="addr:housenumber" v="4000"/><tag k="addr:postcode" v="78734"/></node><node id="-229" lat="30.402728" lon="-97.913663" changeset="false"><tag k="addr:street" v="Hornsby Hill Road"/><tag k="addr:housenumber" v="14708"/><tag k="addr:postcode" v="78734"/></node><node id="-230" lat="30.378885" lon="-97.956604" changeset="false"><tag k="addr:street" v="Stewart Road"/><tag k="addr:housenumber" v="16208"/><tag k="addr:postcode" v="78734"/></node><node id="-231" lat="30.385807" lon="-97.949743" changeset="false"><tag k="addr:street" v="Fontaine Avenue"/><tag k="addr:housenumber" v="16018"/><tag k="addr:postcode" v="78734"/></node><node id="-232" lat="30.415466" lon="-97.918294" changeset="false"><tag k="addr:street" v="Lands End Street"/><tag k="addr:housenumber" v="5602"/><tag k="addr:postcode" v="78734"/></node><node id="-233" lat="30.38026" lon="-97.958149" changeset="false"><tag k="addr:street" v="Linscomb Drive"/><tag k="addr:housenumber" v="1004"/><tag k="addr:postcode" v="78734"/></node><node id="-234" lat="30.412243" lon="-97.918155" changeset="false"><tag k="addr:street" v="Rainbow Two Street"/><tag k="addr:housenumber" v="15308"/><tag k="addr:postcode" v="78734"/></node><node id="-235" lat="30.388741" lon="-97.943927" changeset="false"><tag k="addr:street" v="Chateau Avenue"/><tag k="addr:housenumber" v="15805"/><tag k="addr:postcode" v="78734"/></node><node id="-236" lat="30.379011" lon="-97.950079" changeset="false"><tag k="addr:street" v="Teck Circle"/><tag k="addr:housenumber" v="1302"/><tag k="addr:postcode" v="78734"/></node><node id="-237" lat="30.397775" lon="-97.911268" changeset="false"><tag k="addr:street" v="Agarita Place"/><tag k="addr:housenumber" v="4503"/><tag k="addr:postcode" v="78734"/></node><node id="-238" lat="30.402589" lon="-97.929843" changeset="false"><tag k="addr:street" v="Gavilan Circle"/><tag k="addr:housenumber" v="15605"/><tag k="addr:postcode" v="78734"/></node><node id="-239" lat="30.376632" lon="-97.947134" changeset="false"><tag k="addr:street" v="Ranch Road 620"/><tag k="addr:housenumber" v="1206"/><tag k="addr:postcode" v="78734"/></node><node id="-240" lat="30.380034" lon="-97.948511" changeset="false"><tag k="addr:street" v="Bella Strada Cove"/><tag k="addr:housenumber" v="111"/><tag k="addr:postcode" v="78734"/></node><node id="-241" lat="30.379878" lon="-97.949039" changeset="false"><tag k="addr:street" v="Bella Strada Cove"/><tag k="addr:housenumber" v="113"/><tag k="addr:postcode" v="78734"/></node><node id="-242" lat="30.380848" lon="-97.951112" changeset="false"><tag k="addr:street" v="Bella Strada Cove"/><tag k="addr:housenumber" v="118"/><tag k="addr:postcode" v="78734"/></node><node id="-243" lat="30.400239" lon="-97.909178" changeset="false"><tag k="addr:street" v="Agarita Cove"/><tag k="addr:housenumber" v="4607"/><tag k="addr:postcode" v="78734"/></node><node id="-244" lat="30.405715" lon="-97.920435" changeset="false"><tag k="addr:street" v="Mc Cormick Mountain Drive"/><tag k="addr:housenumber" v="4800"/><tag k="addr:postcode" v="78734"/></node><node id="-245" lat="30.41056" lon="-97.922856" changeset="false"><tag k="addr:street" v="Weletka Drive"/><tag k="addr:housenumber" v="5000"/><tag k="addr:postcode" v="78734"/></node><node id="-246" lat="30.394541" lon="-97.935128" changeset="false"><tag k="addr:street" v="Ranch Road 620"/><tag k="addr:housenumber" v="3304"/><tag k="addr:postcode" v="78734"/></node><node id="-247" lat="30.389458" lon="-97.945246" changeset="false"><tag k="addr:street" v="Chateau Avenue"/><tag k="addr:housenumber" v="15909"/><tag k="addr:postcode" v="78734"/></node><node id="-248" lat="30.41381" lon="-97.919381" changeset="false"><tag k="addr:street" v="Rock Creek"/><tag k="addr:housenumber" v="15405"/><tag k="addr:postcode" v="78734"/></node><node id="-249" lat="30.409405" lon="-97.919198" changeset="false"><tag k="addr:street" v="Mc Cormick Mountain Drive"/><tag k="addr:housenumber" v="5009"/><tag k="addr:postcode" v="78734"/></node><node id="-250" lat="30.409632" lon="-97.919198" changeset="false"><tag k="addr:street" v="Mc Cormick Mountain Drive"/><tag k="addr:housenumber" v="5011"/><tag k="addr:postcode" v="78734"/></node><node id="-251" lat="30.413808" lon="-97.920179" changeset="false"><tag k="addr:street" v="Enid Drive"/><tag k="addr:housenumber" v="15500"/><tag k="addr:postcode" v="78734"/></node><node id="-252" lat="30.413241" lon="-97.923643" changeset="false"><tag k="addr:street" v="Beacon Drive"/><tag k="addr:housenumber" v="5217"/><tag k="addr:postcode" v="78734"/></node><node id="-253" lat="30.402622" lon="-97.912006" changeset="false"><tag k="addr:street" v="Hornsby Hill Road"/><tag k="addr:housenumber" v="14722"/><tag k="addr:postcode" v="78734"/></node><node id="-254" lat="30.414227" lon="-97.918901" changeset="false"><tag k="addr:street" v="Lands End Street"/><tag k="addr:housenumber" v="5502"/><tag k="addr:postcode" v="78734"/></node><node id="-255" lat="30.405338" lon="-97.913082" changeset="false"><tag k="addr:street" v="Hornsby Hill Road"/><tag k="addr:housenumber" v="14804"/><tag k="addr:postcode" v="78734"/></node><node id="-256" lat="30.410144" lon="-97.921889" changeset="false"><tag k="addr:street" v="Weletka Drive"/><tag k="addr:housenumber" v="5005"/><tag k="addr:postcode" v="78734"/></node><node id="-257" lat="30.409812" lon="-97.920322" changeset="false"><tag k="addr:street" v="Weletka Drive"/><tag k="addr:housenumber" v="5107"/><tag k="addr:postcode" v="78734"/></node><node id="-258" lat="30.384418" lon="-97.95648" changeset="false"><tag k="addr:street" v="Buffalo Gap Road"/><tag k="addr:housenumber" v="1511"/><tag k="addr:postcode" v="78734"/></node><node id="-259" lat="30.410364" lon="-97.920705" changeset="false"><tag k="addr:street" v="Weletka Drive"/><tag k="addr:housenumber" v="5108"/><tag k="addr:postcode" v="78734"/></node><node id="-260" lat="30.391284" lon="-97.948468" changeset="false"><tag k="addr:street" v="Chateau Avenue"/><tag k="addr:housenumber" v="16110"/><tag k="addr:postcode" v="78734"/></node><node id="-261" lat="30.408625" lon="-97.914984" changeset="false"><tag k="addr:street" v="Mc Cormick Mountain Drive"/><tag k="addr:housenumber" v="5248"/><tag k="addr:postcode" v="78734"/></node><node id="-262" lat="30.415474" lon="-97.919714" changeset="false"><tag k="addr:street" v="Cedar Ledge Street"/><tag k="addr:housenumber" v="15504"/><tag k="addr:postcode" v="78734"/></node><node id="-263" lat="30.409059" lon="-97.925661" changeset="false"><tag k="addr:street" v="Hudson Bend Road"/><tag k="addr:housenumber" v="4709"/><tag k="addr:postcode" v="78734"/></node><node id="-264" lat="30.378745" lon="-97.956275" changeset="false"><tag k="addr:street" v="Stewart Road"/><tag k="addr:housenumber" v="16118"/><tag k="addr:postcode" v="78734"/></node><node id="-265" lat="30.402374" lon="-97.916652" changeset="false"><tag k="addr:street" v="Lago Viento"/><tag k="addr:housenumber" v="4530"/><tag k="addr:postcode" v="78734"/></node><node id="-266" lat="30.40006" lon="-97.91286" changeset="false"><tag k="addr:street" v="Agarita Road"/><tag k="addr:housenumber" v="14600"/><tag k="addr:postcode" v="78734"/></node><node id="-267" lat="30.397776" lon="-97.910398" changeset="false"><tag k="addr:street" v="Agarita Place"/><tag k="addr:housenumber" v="4401"/><tag k="addr:postcode" v="78734"/></node><node id="-268" lat="30.411889" lon="-97.921504" changeset="false"><tag k="addr:street" v="Sioux Lane"/><tag k="addr:housenumber" v="5202"/><tag k="addr:postcode" v="78734"/></node><node id="-269" lat="30.411706" lon="-97.922135" changeset="false"><tag k="addr:street" v="Pryor Lane"/><tag k="addr:housenumber" v="5109"/><tag k="addr:postcode" v="78734"/></node><node id="-270" lat="30.402125" lon="-97.920082" changeset="false"><tag k="addr:street" v="Lago Viento"/><tag k="addr:housenumber" v="4501"/><tag k="addr:postcode" v="78734"/></node><node id="-271" lat="30.382116" lon="-97.94747" changeset="false"><tag k="addr:street" v="Oak Grove Boulevard"/><tag k="addr:housenumber" v="15706"/><tag k="addr:postcode" v="78734"/></node><node id="-272" lat="30.403611" lon="-97.920089" changeset="false"><tag k="addr:street" v="Lago Viento"/><tag k="addr:housenumber" v="4508"/><tag k="addr:postcode" v="78734"/></node><node id="-273" lat="30.403097" lon="-97.924623" changeset="false"><tag k="addr:street" v="Rum Runner Road"/><tag k="addr:housenumber" v="4412"/><tag k="addr:postcode" v="78734"/></node><node id="-274" lat="30.402993" lon="-97.923855" changeset="false"><tag k="addr:street" v="Laguna Grande"/><tag k="addr:housenumber" v="4310"/><tag k="addr:postcode" v="78734"/></node><node id="-275" lat="30.400725" lon="-97.927897" changeset="false"><tag k="addr:street" v="Paloma Circle"/><tag k="addr:housenumber" v="4005"/><tag k="addr:postcode" v="78734"/></node><node id="-276" lat="30.411181" lon="-97.923116" changeset="false"><tag k="addr:street" v="Pryor Lane"/><tag k="addr:housenumber" v="5010"/><tag k="addr:postcode" v="78734"/></node><node id="-277" lat="30.407513" lon="-97.92463" changeset="false"><tag k="addr:street" v="Watumba Road"/><tag k="addr:housenumber" v="15501"/><tag k="addr:postcode" v="78734"/></node><node id="-278" lat="30.37844" lon="-97.955652" changeset="false"><tag k="addr:street" v="Stewart Road"/><tag k="addr:housenumber" v="16112"/><tag k="addr:postcode" v="78734"/></node><node id="-279" lat="30.375286" lon="-97.948252" changeset="false"><tag k="addr:street" v="Stewart Road"/><tag k="addr:housenumber" v="15616"/><tag k="addr:postcode" v="78734"/></node><node id="-280" lat="30.401614" lon="-97.922256" changeset="false"><tag k="addr:street" v="Lago Viento"/><tag k="addr:housenumber" v="4406"/><tag k="addr:postcode" v="78734"/></node><node id="-281" lat="30.383071" lon="-97.955962" changeset="false"><tag k="addr:street" v="Bella Cima Drive"/><tag k="addr:housenumber" v="211"/><tag k="addr:postcode" v="78734"/></node><node id="-282" lat="30.382267" lon="-97.951528" changeset="false"><tag k="addr:street" v="Bella Cima Drive"/><tag k="addr:housenumber" v="105"/><tag k="addr:postcode" v="78734"/></node><node id="-283" lat="30.397789" lon="-97.929627" changeset="false"><tag k="addr:street" v="Hudson Bend Road"/><tag k="addr:housenumber" v="3700"/><tag k="addr:postcode" v="78734"/></node><node id="-284" lat="30.390343" lon="-97.940174" changeset="false"><tag k="addr:street" v="Ranch Road 620"/><tag k="addr:housenumber" v="2812"/><tag k="addr:postcode" v="78734"/></node><node id="-285" lat="30.415512" lon="-97.918692" changeset="false"><tag k="addr:street" v="Arroyo Road"/><tag k="addr:housenumber" v="5601"/><tag k="addr:postcode" v="78734"/></node><node id="-286" lat="30.416091" lon="-97.919011" changeset="false"><tag k="addr:street" v="Arroyo Road"/><tag k="addr:housenumber" v="5607"/><tag k="addr:postcode" v="78734"/></node><node id="-287" lat="30.411307" lon="-97.920824" changeset="false"><tag k="addr:street" v="Cree Lane"/><tag k="addr:housenumber" v="5108"/><tag k="addr:postcode" v="78734"/></node><node id="-288" lat="30.379907" lon="-97.958501" changeset="false"><tag k="addr:street" v="Linscomb Drive"/><tag k="addr:housenumber" v="1000"/><tag k="addr:postcode" v="78734"/></node><node id="-289" lat="30.377223" lon="-97.952912" changeset="false"><tag k="addr:street" v="Stewart Road"/><tag k="addr:housenumber" v="15910"/><tag k="addr:postcode" v="78734"/></node><node id="-290" lat="30.416628" lon="-97.919453" changeset="false"><tag k="addr:street" v="Arroyo Road"/><tag k="addr:housenumber" v="5613"/><tag k="addr:postcode" v="78734"/></node><node id="-291" lat="30.399742" lon="-97.928534" changeset="false"><tag k="addr:street" v="Conejo Drive"/><tag k="addr:housenumber" v="3905"/><tag k="addr:postcode" v="78734"/></node><node id="-292" lat="30.411098" lon="-97.915545" changeset="false"><tag k="addr:street" v="Rainbow One Street"/><tag k="addr:housenumber" v="15104"/><tag k="addr:postcode" v="78734"/></node><node id="-293" lat="30.41192" lon="-97.916165" changeset="false"><tag k="addr:street" v="Rainbow One Street"/><tag k="addr:housenumber" v="15205"/><tag k="addr:postcode" v="78734"/></node><node id="-294" lat="30.409228" lon="-97.916086" changeset="false"><tag k="addr:street" v="Mc Cormick Mountain Drive"/><tag k="addr:housenumber" v="5236"/><tag k="addr:postcode" v="78734"/></node><node id="-295" lat="30.378188" lon="-97.954732" changeset="false"><tag k="addr:street" v="Stewart Road"/><tag k="addr:housenumber" v="16102"/><tag k="addr:postcode" v="78734"/></node><node id="-296" lat="30.40342" lon="-97.922675" changeset="false"><tag k="addr:street" v="Laguna Grande"/><tag k="addr:housenumber" v="4316"/><tag k="addr:postcode" v="78734"/></node><node id="-297" lat="30.403221" lon="-97.924761" changeset="false"><tag k="addr:street" v="Rum Runner Road"/><tag k="addr:housenumber" v="4416"/><tag k="addr:postcode" v="78734"/></node><node id="-298" lat="30.406008" lon="-97.923243" changeset="false"><tag k="addr:street" v="Mc Cormick Mountain Drive"/><tag k="addr:housenumber" v="4604"/><tag k="addr:postcode" v="78734"/></node><node id="-299" lat="30.405494" lon="-97.925626" changeset="false"><tag k="addr:street" v="Weletka Drive"/><tag k="addr:housenumber" v="4503"/><tag k="addr:postcode" v="78734"/></node><node id="-300" lat="30.402683" lon="-97.912922" changeset="false"><tag k="addr:street" v="Hornsby Hill Road"/><tag k="addr:housenumber" v="14712"/><tag k="addr:postcode" v="78734"/></node><node id="-301" lat="30.402501" lon="-97.915924" changeset="false"><tag k="addr:street" v="Lago Viento"/><tag k="addr:housenumber" v="4532"/><tag k="addr:postcode" v="78734"/></node><node id="-302" lat="30.397454" lon="-97.91317" changeset="false"><tag k="addr:street" v="Mansfield Dam Court"/><tag k="addr:housenumber" v="14506"/><tag k="addr:postcode" v="78734"/></node><node id="-303" lat="30.411581" lon="-97.916116" changeset="false"><tag k="addr:street" v="Rainbow One Street"/><tag k="addr:housenumber" v="15201"/><tag k="addr:postcode" v="78734"/></node><node id="-304" lat="30.411806" lon="-97.922604" changeset="false"><tag k="addr:street" v="Pryor Lane"/><tag k="addr:housenumber" v="5102"/><tag k="addr:postcode" v="78734"/></node><node id="-305" lat="30.39044" lon="-97.944518" changeset="false"><tag k="addr:street" v="Chateau Avenue"/><tag k="addr:housenumber" v="15908"/><tag k="addr:postcode" v="78734"/></node><node id="-306" lat="30.410005" lon="-97.925024" changeset="false"><tag k="addr:street" v="Hudson Bend Road"/><tag k="addr:housenumber" v="4801"/><tag k="addr:postcode" v="78734"/></node><node id="-307" lat="30.410378" lon="-97.919555" changeset="false"><tag k="addr:street" v="Mc Cormick Mountain Drive"/><tag k="addr:housenumber" v="5106"/><tag k="addr:postcode" v="78734"/></node><node id="-308" lat="30.412699" lon="-97.920651" changeset="false"><tag k="addr:street" v="Checotah Drive"/><tag k="addr:housenumber" v="15406"/><tag k="addr:postcode" v="78734"/></node><node id="-309" lat="30.412665" lon="-97.918773" changeset="false"><tag k="addr:street" v="Lake Mist"/><tag k="addr:housenumber" v="5306"/><tag k="addr:postcode" v="78734"/></node><node id="-310" lat="30.407851" lon="-97.918704" changeset="false"><tag k="addr:street" v="Mc Cormick Mountain Drive"/><tag k="addr:housenumber" v="4907"/><tag k="addr:postcode" v="78734"/></node><node id="-311" lat="30.41424" lon="-97.92122" changeset="false"><tag k="addr:street" v="Enid Drive"/><tag k="addr:housenumber" v="15510"/><tag k="addr:postcode" v="78734"/></node><node id="-312" lat="30.385306" lon="-97.949862" changeset="false"><tag k="addr:street" v="Fontaine Avenue"/><tag k="addr:housenumber" v="16020"/><tag k="addr:postcode" v="78734"/></node><node id="-313" lat="30.399121" lon="-97.930237" changeset="false"><tag k="addr:street" v="Eck Lane"/><tag k="addr:housenumber" v="3717"/><tag k="addr:postcode" v="78734"/></node><node id="-314" lat="30.405394" lon="-97.912722" changeset="false"><tag k="addr:street" v="Hornsby Hill Road"/><tag k="addr:housenumber" v="14800"/><tag k="addr:postcode" v="78734"/></node><node id="-315" lat="30.411279" lon="-97.917803" changeset="false"><tag k="addr:street" v="Back of the Moon Street"/><tag k="addr:housenumber" v="15301"/><tag k="addr:postcode" v="78734"/></node><node id="-316" lat="30.404626" lon="-97.926803" changeset="false"><tag k="addr:street" v="Hudson Bend Road"/><tag k="addr:housenumber" v="4417"/><tag k="addr:postcode" v="78734"/></node><node id="-317" lat="30.401649" lon="-97.926614" changeset="false"><tag k="addr:street" v="Venado Drive"/><tag k="addr:housenumber" v="15401"/><tag k="addr:postcode" v="78734"/></node><node id="-318" lat="30.378874" lon="-97.953237" changeset="false"><tag k="addr:street" v="Thunderhead Road"/><tag k="addr:housenumber" v="16016"/><tag k="addr:postcode" v="78734"/></node><node id="-319" lat="30.380298" lon="-97.949591" changeset="false"><tag k="addr:street" v="Bella Strada Cove"/><tag k="addr:housenumber" v="115"/><tag k="addr:postcode" v="78734"/></node><node id="-320" lat="30.411402" lon="-97.916522" changeset="false"><tag k="addr:street" v="Rainbow Two Street"/><tag k="addr:housenumber" v="15202"/><tag k="addr:postcode" v="78734"/></node><node id="-321" lat="30.410909" lon="-97.923284" changeset="false"><tag k="addr:street" v="Pryor Lane"/><tag k="addr:housenumber" v="5002"/><tag k="addr:postcode" v="78734"/></node><node id="-322" lat="30.410666" lon="-97.926192" changeset="false"><tag k="addr:street" v="Hudson Bend Road"/><tag k="addr:housenumber" v="4823"/><tag k="addr:postcode" v="78734"/></node><node id="-323" lat="30.403249" lon="-97.912852" changeset="false"><tag k="addr:street" v="Hornsby Hill Road"/><tag k="addr:housenumber" v="14711"/><tag k="addr:postcode" v="78734"/></node><node id="-324" lat="30.37872" lon="-97.953607" changeset="false"><tag k="addr:street" v="Thunderhead Road"/><tag k="addr:housenumber" v="16024"/><tag k="addr:postcode" v="78734"/></node><node id="-325" lat="30.410149" lon="-97.922577" changeset="false"><tag k="addr:street" v="Weletka Drive"/><tag k="addr:housenumber" v="5001"/><tag k="addr:postcode" v="78734"/></node><node id="-326" lat="30.409956" lon="-97.920906" changeset="false"><tag k="addr:street" v="Weletka Drive"/><tag k="addr:housenumber" v="5103"/><tag k="addr:postcode" v="78734"/></node><node id="-327" lat="30.406114" lon="-97.919447" changeset="false"><tag k="addr:street" v="Mc Cormick Mountain Drive"/><tag k="addr:housenumber" v="4814"/><tag k="addr:postcode" v="78734"/></node><node id="-328" lat="30.397666" lon="-97.920355" changeset="false"><tag k="addr:street" v="Ranch Road 620"/><tag k="addr:housenumber" v="4000"/><tag k="addr:postcode" v="78734"/></node><node id="-329" lat="30.383324" lon="-97.951967" changeset="false"><tag k="addr:street" v="Bella Cima Drive"/><tag k="addr:housenumber" v="110"/><tag k="addr:postcode" v="78734"/></node><node id="-330" lat="30.381412" lon="-97.948694" changeset="false"><tag k="addr:street" v="Bella Strada Cove"/><tag k="addr:housenumber" v="106"/><tag k="addr:postcode" v="78734"/></node><node id="-331" lat="30.407084" lon="-97.926262" changeset="false"><tag k="addr:street" v="Hudson Bend Road"/><tag k="addr:housenumber" v="4601"/><tag k="addr:postcode" v="78734"/></node><node id="-332" lat="30.400699" lon="-97.924499" changeset="false"><tag k="addr:street" v="Lago Viento"/><tag k="addr:housenumber" v="4215"/><tag k="addr:postcode" v="78734"/></node><node id="-333" lat="30.379968" lon="-97.953581" changeset="false"><tag k="addr:street" v="Agua Vista"/><tag k="addr:housenumber" v="16100"/><tag k="addr:postcode" v="78734"/></node><node id="-334" lat="30.38743" lon="-97.944434" changeset="false"><tag k="addr:street" v="Fontaine Avenue"/><tag k="addr:housenumber" v="15819"/><tag k="addr:postcode" v="78734"/></node><node id="-335" lat="30.414713" lon="-97.91915" changeset="false"><tag k="addr:street" v="Arroyo Road"/><tag k="addr:housenumber" v="5505"/><tag k="addr:postcode" v="78734"/></node><node id="-336" lat="30.396795" lon="-97.932576" changeset="false"><tag k="addr:street" v="Ranch Road 620"/><tag k="addr:housenumber" v="3504"/><tag k="addr:postcode" v="78734"/></node><node id="-337" lat="30.381453" lon="-97.954899" changeset="false"><tag k="addr:street" v="Old Maids Trail"/><tag k="addr:housenumber" v="1306"/><tag k="addr:postcode" v="78734"/></node><node id="-338" lat="30.419934" lon="-97.920629" changeset="false"><tag k="addr:street" v="Rittenhouse Shore Drive"/><tag k="addr:housenumber" v="5805"/><tag k="addr:postcode" v="78734"/></node><node id="-339" lat="30.419306" lon="-97.920606" changeset="false"><tag k="addr:street" v="Lakeview Drive"/><tag k="addr:housenumber" v="5800"/><tag k="addr:postcode" v="78734"/></node><node id="-340" lat="30.418277" lon="-97.921837" changeset="false"><tag k="addr:street" v="Rittenhouse Shore Drive"/><tag k="addr:housenumber" v="5701"/><tag k="addr:postcode" v="78734"/></node><node id="-341" lat="30.385794" lon="-97.946231" changeset="false"><tag k="addr:street" v="Fontaine Avenue"/><tag k="addr:housenumber" v="16048"/><tag k="addr:postcode" v="78734"/></node><node id="-342" lat="30.385533" lon="-97.954973" changeset="false"><tag k="addr:street" v="Lake Loop"/><tag k="addr:housenumber" v="16463"/><tag k="addr:postcode" v="78734"/></node><node id="-343" lat="30.388113" lon="-97.944048" changeset="false"><tag k="addr:street" v="Fontaine Avenue"/><tag k="addr:housenumber" v="15812"/><tag k="addr:postcode" v="78734"/></node><node id="-344" lat="30.388069" lon="-97.945829" changeset="false"><tag k="addr:street" v="Fontaine Avenue"/><tag k="addr:housenumber" v="15904"/><tag k="addr:postcode" v="78734"/></node><node id="-345" lat="30.396612" lon="-97.918798" changeset="false"><tag k="addr:street" v="Highland Drive"/><tag k="addr:housenumber" v="4012"/><tag k="addr:postcode" v="78734"/></node><node id="-346" lat="30.409197" lon="-97.918644" changeset="false"><tag k="addr:street" v="Timothy Circle"/><tag k="addr:housenumber" v="5102"/><tag k="addr:postcode" v="78734"/></node><node id="-347" lat="30.398031" lon="-97.909033" changeset="false"><tag k="addr:street" v="Agarita Road"/><tag k="addr:housenumber" v="14434"/><tag k="addr:postcode" v="78734"/></node><node id="-348" lat="30.397887" lon="-97.907836" changeset="false"><tag k="addr:street" v="Agarita Road"/><tag k="addr:housenumber" v="14429"/><tag k="addr:postcode" v="78734"/></node><node id="-349" lat="30.397229" lon="-97.918074" changeset="false"><tag k="addr:street" v="Mansfield Dam Court"/><tag k="addr:housenumber" v="14618"/><tag k="addr:postcode" v="78734"/></node><node id="-350" lat="30.404674" lon="-97.922457" changeset="false"><tag k="addr:street" v="Mc Cormick Mountain Drive"/><tag k="addr:housenumber" v="4601"/><tag k="addr:postcode" v="78734"/></node><node id="-351" lat="30.402678" lon="-97.926766" changeset="false"><tag k="addr:street" v="Hudson Bend Road"/><tag k="addr:housenumber" v="4204"/><tag k="addr:postcode" v="78734"/></node><node id="-352" lat="30.411157" lon="-97.919849" changeset="false"><tag k="addr:street" v="Cree Circle"/><tag k="addr:housenumber" v="15303"/><tag k="addr:postcode" v="78734"/></node><node id="-353" lat="30.412275" lon="-97.921775" changeset="false"><tag k="addr:street" v="Pryor Lane"/><tag k="addr:housenumber" v="5205"/><tag k="addr:postcode" v="78734"/></node><node id="-354" lat="30.385951" lon="-97.955411" changeset="false"><tag k="addr:street" v="Buffalo Gap Road"/><tag k="addr:housenumber" v="1702"/><tag k="addr:postcode" v="78734"/></node><node id="-355" lat="30.412415" lon="-97.919965" changeset="false"><tag k="addr:street" v="Cree Lane"/><tag k="addr:housenumber" v="5208"/><tag k="addr:postcode" v="78734"/></node><node id="-356" lat="30.41194" lon="-97.92086" changeset="false"><tag k="addr:street" v="Sioux Lane"/><tag k="addr:housenumber" v="5207"/><tag k="addr:postcode" v="78734"/></node><node id="-357" lat="30.411514" lon="-97.91924" changeset="false"><tag k="addr:street" v="Cree Circle"/><tag k="addr:housenumber" v="15302"/><tag k="addr:postcode" v="78734"/></node><node id="-358" lat="30.386196" lon="-97.953781" changeset="false"><tag k="addr:street" v="Bella Vista Cove"/><tag k="addr:housenumber" v="208"/><tag k="addr:postcode" v="78734"/></node><node id="-359" lat="30.411364" lon="-97.920329" changeset="false"><tag k="addr:street" v="Cree Lane"/><tag k="addr:housenumber" v="5201"/><tag k="addr:postcode" v="78734"/></node><node id="-360" lat="30.408815" lon="-97.923557" changeset="false"><tag k="addr:street" v="Weletka Drive"/><tag k="addr:housenumber" v="4811"/><tag k="addr:postcode" v="78734"/></node><node id="-361" lat="30.380908" lon="-97.949014" changeset="false"><tag k="addr:street" v="Bella Strada Cove"/><tag k="addr:housenumber" v="108"/><tag k="addr:postcode" v="78734"/></node><node id="-362" lat="30.381017" lon="-97.949497" changeset="false"><tag k="addr:street" v="Bella Strada Cove"/><tag k="addr:housenumber" v="110"/><tag k="addr:postcode" v="78734"/></node><node id="-363" lat="30.381273" lon="-97.950756" changeset="false"><tag k="addr:street" v="Bella Strada Cove"/><tag k="addr:housenumber" v="116"/><tag k="addr:postcode" v="78734"/></node><node id="-364" lat="30.380454" lon="-97.950201" changeset="false"><tag k="addr:street" v="Bella Strada Cove"/><tag k="addr:housenumber" v="117"/><tag k="addr:postcode" v="78734"/></node><node id="-365" lat="30.378067" lon="-97.94799" changeset="false"><tag k="addr:street" v="Debba Drive"/><tag k="addr:housenumber" v="15700"/><tag k="addr:postcode" v="78734"/></node><node id="-366" lat="30.381069" lon="-97.954133" changeset="false"><tag k="addr:street" v="Spring Branch Trail"/><tag k="addr:housenumber" v="16116"/><tag k="addr:postcode" v="78734"/></node><node id="-367" lat="30.410155" lon="-97.922243" changeset="false"><tag k="addr:street" v="Weletka Drive"/><tag k="addr:housenumber" v="5003"/><tag k="addr:postcode" v="78734"/></node><node id="-368" lat="30.408323" lon="-97.9197" changeset="false"><tag k="addr:street" v="Mc Cormick Mountain Drive"/><tag k="addr:housenumber" v="5004"/><tag k="addr:postcode" v="78734"/></node><node id="-369" lat="30.40641" lon="-97.919503" changeset="false"><tag k="addr:street" v="Mc Cormick Mountain Drive"/><tag k="addr:housenumber" v="4816"/><tag k="addr:postcode" v="78734"/></node><node id="-370" lat="30.407713" lon="-97.919419" changeset="false"><tag k="addr:street" v="Mc Cormick Mountain Drive"/><tag k="addr:housenumber" v="4908"/><tag k="addr:postcode" v="78734"/></node><node id="-371" lat="30.3822" lon="-97.954981" changeset="false"><tag k="addr:street" v="Buffalo Gap Road"/><tag k="addr:housenumber" v="1452"/><tag k="addr:postcode" v="78734"/></node><node id="-372" lat="30.412902" lon="-97.918614" changeset="false"><tag k="addr:street" v="Lake Mist"/><tag k="addr:housenumber" v="5308"/><tag k="addr:postcode" v="78734"/></node><node id="-373" lat="30.40104" lon="-97.92875" changeset="false"><tag k="addr:street" v="Javelina Circle"/><tag k="addr:housenumber" v="4000"/><tag k="addr:postcode" v="78734"/></node><node id="-374" lat="30.40504" lon="-97.913803" changeset="false"><tag k="addr:street" v="Hornsby Hill Road"/><tag k="addr:housenumber" v="14808"/><tag k="addr:postcode" v="78734"/></node><node id="-375" lat="30.403453" lon="-97.914125" changeset="false"><tag k="addr:street" v="Hornsby Hill Road"/><tag k="addr:housenumber" v="14702"/><tag k="addr:postcode" v="78734"/></node><node id="-376" lat="30.402579" lon="-97.912762" changeset="false"><tag k="addr:street" v="Hornsby Hill Road"/><tag k="addr:housenumber" v="14714"/><tag k="addr:postcode" v="78734"/></node><node id="-377" lat="30.41065" lon="-97.920559" changeset="false"><tag k="addr:street" v="Cree Lane"/><tag k="addr:housenumber" v="5103"/><tag k="addr:postcode" v="78734"/></node><node id="-378" lat="30.398148" lon="-97.931692" changeset="false"><tag k="addr:street" v="Ranch Road 620"/><tag k="addr:housenumber" v="3622"/><tag k="addr:postcode" v="78734"/></node><node id="-379" lat="30.400355" lon="-97.924817" changeset="false"><tag k="addr:street" v="Lago Viento"/><tag k="addr:housenumber" v="4127"/><tag k="addr:postcode" v="78734"/></node><node id="-380" lat="30.408162" lon="-97.924328" changeset="false"><tag k="addr:street" v="Watumba Road"/><tag k="addr:housenumber" v="15410"/><tag k="addr:postcode" v="78734"/></node><node id="-381" lat="30.409008" lon="-97.923421" changeset="false"><tag k="addr:street" v="Weletka Drive"/><tag k="addr:housenumber" v="4813"/><tag k="addr:postcode" v="78734"/></node><node id="-382" lat="30.378808" lon="-97.953421" changeset="false"><tag k="addr:street" v="Thunderhead Road"/><tag k="addr:housenumber" v="16020"/><tag k="addr:postcode" v="78734"/></node><node id="-383" lat="30.413726" lon="-97.919168" changeset="false"><tag k="addr:street" v="Rock Creek"/><tag k="addr:housenumber" v="15403"/><tag k="addr:postcode" v="78734"/></node><node id="-384" lat="30.409883" lon="-97.920611" changeset="false"><tag k="addr:street" v="Weletka Drive"/><tag k="addr:housenumber" v="5105"/><tag k="addr:postcode" v="78734"/></node><node id="-385" lat="30.402136" lon="-97.93144" changeset="false"><tag k="addr:street" v="Eck Lane"/><tag k="addr:housenumber" v="4006"/><tag k="addr:postcode" v="78734"/></node><node id="-386" lat="30.381828" lon="-97.947565" changeset="false"><tag k="addr:street" v="Bella Strada Cove"/><tag k="addr:housenumber" v="101 1/2"/><tag k="addr:postcode" v="78734"/></node><node id="-387" lat="30.408033" lon="-97.919569" changeset="false"><tag k="addr:street" v="Mc Cormick Mountain Drive"/><tag k="addr:housenumber" v="5000"/><tag k="addr:postcode" v="78734"/></node><node id="-388" lat="30.406631" lon="-97.919581" changeset="false"><tag k="addr:street" v="Mc Cormick Mountain Drive"/><tag k="addr:housenumber" v="4818"/><tag k="addr:postcode" v="78734"/></node><node id="-389" lat="30.407137" lon="-97.919548" changeset="false"><tag k="addr:street" v="Mc Cormick Mountain Drive"/><tag k="addr:housenumber" v="4822"/><tag k="addr:postcode" v="78734"/></node><node id="-390" lat="30.381589" lon="-97.947463" changeset="false"><tag k="addr:street" v="Bella Strada Cove"/><tag k="addr:housenumber" v="101"/><tag k="addr:postcode" v="78734"/></node><node id="-391" lat="30.389954" lon="-97.944121" changeset="false"><tag k="addr:street" v="Chateau Avenue"/><tag k="addr:housenumber" v="15902"/><tag k="addr:postcode" v="78734"/></node><node id="-392" lat="30.38055" lon="-97.945376" changeset="false"><tag k="addr:street" v="Oak Grove Boulevard"/><tag k="addr:housenumber" v="15701"/><tag k="addr:postcode" v="78734"/></node><node id="-393" lat="30.381517" lon="-97.956519" changeset="false"><tag k="addr:street" v="Lake Loop"/><tag k="addr:housenumber" v="16317"/><tag k="addr:postcode" v="78734"/></node><node id="-394" lat="30.382415" lon="-97.954502" changeset="false"><tag k="addr:street" v="Buffalo Gap Road"/><tag k="addr:housenumber" v="1448"/><tag k="addr:postcode" v="78734"/></node><node id="-395" lat="30.413199" lon="-97.917798" changeset="false"><tag k="addr:street" v="Rainbow One Street"/><tag k="addr:housenumber" v="15308"/><tag k="addr:postcode" v="78734"/></node><node id="-396" lat="30.379169" lon="-97.957187" changeset="false"><tag k="addr:street" v="Stewart Road"/><tag k="addr:housenumber" v="16214"/><tag k="addr:postcode" v="78734"/></node><node id="-397" lat="30.408809" lon="-97.925746" changeset="false"><tag k="addr:street" v="Hudson Bend Road"/><tag k="addr:housenumber" v="4703"/><tag k="addr:postcode" v="78734"/></node><node id="-398" lat="30.41587" lon="-97.920893" changeset="false"><tag k="addr:street" v="Longhorn Landing"/><tag k="addr:housenumber" v="5507"/><tag k="addr:postcode" v="78734"/></node><node id="-399" lat="30.381992" lon="-97.957681" changeset="false"><tag k="addr:street" v="Lake Loop"/><tag k="addr:housenumber" v="16327"/><tag k="addr:postcode" v="78734"/></node><node id="-400" lat="30.384708" lon="-97.953383" changeset="false"><tag k="addr:street" v="Bella Cima Drive"/><tag k="addr:housenumber" v="202"/><tag k="addr:postcode" v="78734"/></node><node id="-401" lat="30.383698" lon="-97.956936" changeset="false"><tag k="addr:street" v="Lake Loop"/><tag k="addr:housenumber" v="16429"/><tag k="addr:postcode" v="78734"/></node><node id="-402" lat="30.41878" lon="-97.920903" changeset="false"><tag k="addr:street" v="Lakeview Drive"/><tag k="addr:housenumber" v="5706"/><tag k="addr:postcode" v="78734"/></node><node id="-403" lat="30.405317" lon="-97.912598" changeset="false"><tag k="addr:street" v="Hornsby Hill Road"/><tag k="addr:housenumber" v="14754"/><tag k="addr:postcode" v="78734"/></node><node id="-404" lat="30.404943" lon="-97.91208" changeset="false"><tag k="addr:street" v="Hornsby Hill Road"/><tag k="addr:housenumber" v="14748"/><tag k="addr:postcode" v="78734"/></node><node id="-405" lat="30.402644" lon="-97.913361" changeset="false"><tag k="addr:street" v="Hornsby Hill Road"/><tag k="addr:housenumber" v="14710"/><tag k="addr:postcode" v="78734"/></node><node id="-406" lat="30.410344" lon="-97.923248" changeset="false"><tag k="addr:street" v="Pryor Lane"/><tag k="addr:housenumber" v="5000"/><tag k="addr:postcode" v="78734"/></node><node id="-407" lat="30.411399" lon="-97.916105" changeset="false"><tag k="addr:street" v="Rainbow One Street"/><tag k="addr:housenumber" v="15105"/><tag k="addr:postcode" v="78734"/></node><node id="-408" lat="30.389303" lon="-97.94475" changeset="false"><tag k="addr:street" v="Chateau Avenue"/><tag k="addr:housenumber" v="15905"/><tag k="addr:postcode" v="78734"/></node><node id="-409" lat="30.386627" lon="-97.954965" changeset="false"><tag k="addr:street" v="Buffalo Gap Road"/><tag k="addr:housenumber" v="1800"/><tag k="addr:postcode" v="78734"/></node><node id="-410" lat="30.400004" lon="-97.927055" changeset="false"><tag k="addr:street" v="Paloma Circle"/><tag k="addr:housenumber" v="4000"/><tag k="addr:postcode" v="78734"/></node><node id="-411" lat="30.400388" lon="-97.911291" changeset="false"><tag k="addr:street" v="Agarita Road"/><tag k="addr:housenumber" v="14458"/><tag k="addr:postcode" v="78734"/></node><node id="-412" lat="30.399325" lon="-97.908885" changeset="false"><tag k="addr:street" v="Limestone Place"/><tag k="addr:housenumber" v="4700"/><tag k="addr:postcode" v="78734"/></node><node id="-413" lat="30.39815" lon="-97.908582" changeset="false"><tag k="addr:street" v="Agarita Road"/><tag k="addr:housenumber" v="14430"/><tag k="addr:postcode" v="78734"/></node><node id="-414" lat="30.374536" lon="-97.947231" changeset="false"><tag k="addr:street" v="Ranch Road 620"/><tag k="addr:housenumber" v="1006"/><tag k="addr:postcode" v="78734"/></node><node id="-415" lat="30.380071" lon="-97.952624" changeset="false"><tag k="addr:street" v="Agua Vista"/><tag k="addr:housenumber" v="16006"/><tag k="addr:postcode" v="78734"/></node><node id="-416" lat="30.411661" lon="-97.920603" changeset="false"><tag k="addr:street" v="Cree Lane"/><tag k="addr:housenumber" v="5202"/><tag k="addr:postcode" v="78734"/></node><node id="-417" lat="30.400824" lon="-97.930422" changeset="false"><tag k="addr:street" v="Guajolote Circle"/><tag k="addr:housenumber" v="3905"/><tag k="addr:postcode" v="78734"/></node><node id="-418" lat="30.400368" lon="-97.930313" changeset="false"><tag k="addr:street" v="Guajolote Circle"/><tag k="addr:housenumber" v="3903"/><tag k="addr:postcode" v="78734"/></node><node id="-419" lat="30.390933" lon="-97.948838" changeset="false"><tag k="addr:street" v="Chateau Avenue"/><tag k="addr:housenumber" v="16112"/><tag k="addr:postcode" v="78734"/></node><node id="-420" lat="30.411247" lon="-97.919335" changeset="false"><tag k="addr:street" v="Cree Circle"/><tag k="addr:housenumber" v="15300"/><tag k="addr:postcode" v="78734"/></node><node id="-421" lat="30.41077" lon="-97.921176" changeset="false"><tag k="addr:street" v="Cree Lane"/><tag k="addr:housenumber" v="5102"/><tag k="addr:postcode" v="78734"/></node><node id="-422" lat="30.402639" lon="-97.924062" changeset="false"><tag k="addr:street" v="Rum Runner Road"/><tag k="addr:housenumber" v="4319"/><tag k="addr:postcode" v="78734"/></node><node id="-423" lat="30.383546" lon="-97.956054" changeset="false"><tag k="addr:street" v="Bella Cima Drive"/><tag k="addr:housenumber" v="212"/><tag k="addr:postcode" v="78734"/></node><node id="-424" lat="30.384332" lon="-97.956233" changeset="false"><tag k="addr:street" v="Lake Loop"/><tag k="addr:housenumber" v="16441"/><tag k="addr:postcode" v="78734"/></node><node id="-425" lat="30.412837" lon="-97.919187" changeset="false"><tag k="addr:street" v="Cree Lane"/><tag k="addr:housenumber" v="5307"/><tag k="addr:postcode" v="78734"/></node><node id="-426" lat="30.387055" lon="-97.948662" changeset="false"><tag k="addr:street" v="Fontaine Avenue"/><tag k="addr:housenumber" v="16008"/><tag k="addr:postcode" v="78734"/></node><node id="-427" lat="30.388909" lon="-97.948112" changeset="false"><tag k="addr:street" v="Canard Circle"/><tag k="addr:housenumber" v="16014"/><tag k="addr:postcode" v="78734"/></node><node id="-428" lat="30.388579" lon="-97.946626" changeset="false"><tag k="addr:street" v="Canard Circle"/><tag k="addr:housenumber" v="16006"/><tag k="addr:postcode" v="78734"/></node><node id="-429" lat="30.388373" lon="-97.941799" changeset="false"><tag k="addr:street" v="Ranch Road 620"/><tag k="addr:housenumber" v="2508"/><tag k="addr:postcode" v="78734"/></node><node id="-430" lat="30.411727" lon="-97.919692" changeset="false"><tag k="addr:street" v="Cree Circle"/><tag k="addr:housenumber" v="15400"/><tag k="addr:postcode" v="78734"/></node><node id="-431" lat="30.411533" lon="-97.921727" changeset="false"><tag k="addr:street" v="Sioux Lane"/><tag k="addr:housenumber" v="5110"/><tag k="addr:postcode" v="78734"/></node><node id="-432" lat="30.41338" lon="-97.92065" changeset="false"><tag k="addr:street" v="Enid Drive"/><tag k="addr:housenumber" v="15503"/><tag k="addr:postcode" v="78734"/></node><node id="-433" lat="30.413181" lon="-97.920248" changeset="false"><tag k="addr:street" v="Enid Drive"/><tag k="addr:housenumber" v="15407"/><tag k="addr:postcode" v="78734"/></node><node id="-434" lat="30.415281" lon="-97.919572" changeset="false"><tag k="addr:street" v="Cedar Ledge Street"/><tag k="addr:housenumber" v="15502"/><tag k="addr:postcode" v="78734"/></node><node id="-435" lat="30.38379" lon="-97.955403" changeset="false"><tag k="addr:street" v="Bella Cima Drive"/><tag k="addr:housenumber" v="210"/><tag k="addr:postcode" v="78734"/></node><node id="-436" lat="30.39883" lon="-97.908977" changeset="false"><tag k="addr:street" v="Agarita Road"/><tag k="addr:housenumber" v="14412"/><tag k="addr:postcode" v="78734"/></node><node id="-437" lat="30.396922" lon="-97.932355" changeset="false"><tag k="addr:street" v="Ranch Road 620"/><tag k="addr:housenumber" v="3508"/><tag k="addr:postcode" v="78734"/></node><node id="-438" lat="30.390326" lon="-97.948004" changeset="false"><tag k="addr:street" v="Chateau Avenue"/><tag k="addr:housenumber" v="16105"/><tag k="addr:postcode" v="78734"/></node><node id="-439" lat="30.389523" lon="-97.943251" changeset="false"><tag k="addr:street" v="Chateau Avenue"/><tag k="addr:housenumber" v="15806"/><tag k="addr:postcode" v="78734"/></node><node id="-440" lat="30.409404" lon="-97.92539" changeset="false"><tag k="addr:street" v="Hudson Bend Road"/><tag k="addr:housenumber" v="4715"/><tag k="addr:postcode" v="78734"/></node><node id="-441" lat="30.403541" lon="-97.918422" changeset="false"><tag k="addr:street" v="Lago Viento"/><tag k="addr:housenumber" v="4520"/><tag k="addr:postcode" v="78734"/></node><node id="-442" lat="30.412617" lon="-97.917255" changeset="false"><tag k="addr:street" v="Rainbow One Street"/><tag k="addr:housenumber" v="15301"/><tag k="addr:postcode" v="78734"/></node><node id="-443" lat="30.412281" lon="-97.917637" changeset="false"><tag k="addr:street" v="Rainbow Two Street"/><tag k="addr:housenumber" v="15304"/><tag k="addr:postcode" v="78734"/></node><node id="-444" lat="30.417515" lon="-97.919671" changeset="false"><tag k="addr:street" v="Lands End Street"/><tag k="addr:housenumber" v="5712"/><tag k="addr:postcode" v="78734"/></node><node id="-445" lat="30.403004" lon="-97.917928" changeset="false"><tag k="addr:street" v="Lago Viento"/><tag k="addr:housenumber" v="4526"/><tag k="addr:postcode" v="78734"/></node><node id="-446" lat="30.399042" lon="-97.928299" changeset="false"><tag k="addr:street" v="Conejo Drive"/><tag k="addr:housenumber" v="3900"/><tag k="addr:postcode" v="78734"/></node><node id="-447" lat="30.411675" lon="-97.925543" changeset="false"><tag k="addr:street" v="Hudson Bend Road"/><tag k="addr:housenumber" v="4917"/><tag k="addr:postcode" v="78734"/></node><node id="-448" lat="30.381691" lon="-97.957255" changeset="false"><tag k="addr:street" v="Lake Loop"/><tag k="addr:housenumber" v="16323"/><tag k="addr:postcode" v="78734"/></node><node id="-449" lat="30.413955" lon="-97.918537" changeset="false"><tag k="addr:street" v="Lands End Street"/><tag k="addr:housenumber" v="5501"/><tag k="addr:postcode" v="78734"/></node><node id="-450" lat="30.396324" lon="-97.91309" changeset="false"><tag k="addr:street" v="Mansfield Dam Road"/><tag k="addr:housenumber" v="4301"/><tag k="addr:postcode" v="78734"/></node><node id="-451" lat="30.387375" lon="-97.943989" changeset="false"><tag k="addr:street" v="Fontaine Avenue"/><tag k="addr:housenumber" v="15815"/><tag k="addr:postcode" v="78734"/></node><node id="-452" lat="30.406889" lon="-97.925767" changeset="false"><tag k="addr:street" v="Weletka Drive"/><tag k="addr:housenumber" v="4602"/><tag k="addr:postcode" v="78734"/></node><node id="-453" lat="30.40365" lon="-97.926377" changeset="false"><tag k="addr:street" v="Hudson Bend Road"/><tag k="addr:housenumber" v="4301"/><tag k="addr:postcode" v="78734"/></node><node id="-454" lat="30.412269" lon="-97.917369" changeset="false"><tag k="addr:street" v="Rainbow Two Street"/><tag k="addr:housenumber" v="15302"/><tag k="addr:postcode" v="78734"/></node><node id="-455" lat="30.412107" lon="-97.919672" changeset="false"><tag k="addr:street" v="Cree Lane"/><tag k="addr:housenumber" v="5205"/><tag k="addr:postcode" v="78734"/></node><node id="-456" lat="30.381774" lon="-97.950425" changeset="false"><tag k="addr:street" v="Buffalo Gap Road"/><tag k="addr:housenumber" v="1405"/><tag k="addr:postcode" v="78734"/></node><node id="-457" lat="30.383198" lon="-97.95142" changeset="false"><tag k="addr:street" v="Bella Cima Drive"/><tag k="addr:housenumber" v="108"/><tag k="addr:postcode" v="78734"/></node><node id="-458" lat="30.399851" lon="-97.924766" changeset="false"><tag k="addr:street" v="Lago Viento"/><tag k="addr:housenumber" v="4101"/><tag k="addr:postcode" v="78734"/></node><node id="-459" lat="30.386163" lon="-97.952932" changeset="false"><tag k="addr:street" v="Bella Vista Cove"/><tag k="addr:housenumber" v="204"/><tag k="addr:postcode" v="78734"/></node><node id="-460" lat="30.410424" lon="-97.916103" changeset="false"><tag k="addr:street" v="Back of the Moon Street"/><tag k="addr:housenumber" v="15101"/><tag k="addr:postcode" v="78734"/></node><node id="-461" lat="30.379862" lon="-97.95618" changeset="false"><tag k="addr:street" v="Spring Branch Trail"/><tag k="addr:housenumber" v="16209"/><tag k="addr:postcode" v="78734"/></node><node id="-462" lat="30.377613" lon="-97.95278" changeset="false"><tag k="addr:street" v="Buffalo Gap Road"/><tag k="addr:housenumber" v="1010"/><tag k="addr:postcode" v="78734"/></node><node id="-463" lat="30.413932" lon="-97.921678" changeset="false"><tag k="addr:street" v="Enid Drive"/><tag k="addr:housenumber" v="15601"/><tag k="addr:postcode" v="78734"/></node><node id="-464" lat="30.406356" lon="-97.925361" changeset="false"><tag k="addr:street" v="Weletka Drive"/><tag k="addr:housenumber" v="4601"/><tag k="addr:postcode" v="78734"/></node><node id="-465" lat="30.405763" lon="-97.926745" changeset="false"><tag k="addr:street" v="Hudson Bend Road"/><tag k="addr:housenumber" v="4503"/><tag k="addr:postcode" v="78734"/></node><node id="-466" lat="30.405582" lon="-97.922698" changeset="false"><tag k="addr:street" v="Mc Cormick Mountain Drive"/><tag k="addr:housenumber" v="4701"/><tag k="addr:postcode" v="78734"/></node><node id="-467" lat="30.390222" lon="-97.947244" changeset="false"><tag k="addr:street" v="Chateau Avenue"/><tag k="addr:housenumber" v="16101"/><tag k="addr:postcode" v="78734"/></node><node id="-468" lat="30.389225" lon="-97.942908" changeset="false"><tag k="addr:street" v="Chateau Avenue"/><tag k="addr:housenumber" v="15802"/><tag k="addr:postcode" v="78734"/></node><node id="-469" lat="30.389082" lon="-97.947786" changeset="false"><tag k="addr:street" v="Canard Circle"/><tag k="addr:housenumber" v="16012"/><tag k="addr:postcode" v="78734"/></node><node id="-470" lat="30.411291" lon="-97.922988" changeset="false"><tag k="addr:street" v="Pryor Lane"/><tag k="addr:housenumber" v="5014"/><tag k="addr:postcode" v="78734"/></node><node id="-471" lat="30.402072" lon="-97.912284" changeset="false"><tag k="addr:street" v="Hornsby Hill Road"/><tag k="addr:housenumber" v="14718"/><tag k="addr:postcode" v="78734"/></node><node id="-472" lat="30.398742" lon="-97.909568" changeset="false"><tag k="addr:street" v="Agarita Road"/><tag k="addr:housenumber" v="14410"/><tag k="addr:postcode" v="78734"/></node><node id="-473" lat="30.398697" lon="-97.910827" changeset="false"><tag k="addr:street" v="Agarita Road"/><tag k="addr:housenumber" v="14456"/><tag k="addr:postcode" v="78734"/></node><node id="-474" lat="30.3995" lon="-97.930427" changeset="false"><tag k="addr:street" v="Alazan Circle"/><tag k="addr:housenumber" v="3800"/><tag k="addr:postcode" v="78734"/></node><node id="-475" lat="30.390179" lon="-97.944093" changeset="false"><tag k="addr:street" v="Chateau Avenue"/><tag k="addr:housenumber" v="15904"/><tag k="addr:postcode" v="78734"/></node><node id="-476" lat="30.411104" lon="-97.918849" changeset="false"><tag k="addr:street" v="Mc Cormick Mountain Drive"/><tag k="addr:housenumber" v="5202"/><tag k="addr:postcode" v="78734"/></node><node id="-477" lat="30.399586" lon="-97.907337" changeset="false"><tag k="addr:street" v="Agarita Road"/><tag k="addr:housenumber" v="14421"/><tag k="addr:postcode" v="78734"/></node><node id="-478" lat="30.399079" lon="-97.908178" changeset="false"><tag k="addr:street" v="Agarita Road"/><tag k="addr:housenumber" v="14416"/><tag k="addr:postcode" v="78734"/></node><node id="-479" lat="30.397624" lon="-97.908799" changeset="false"><tag k="addr:street" v="Agarita Road"/><tag k="addr:housenumber" v="14437"/><tag k="addr:postcode" v="78734"/></node><node id="-480" lat="30.404698" lon="-97.912018" changeset="false"><tag k="addr:street" v="Hornsby Hill Road"/><tag k="addr:housenumber" v="14746"/><tag k="addr:postcode" v="78734"/></node><node id="-481" lat="30.382436" lon="-97.953704" changeset="false"><tag k="addr:street" v="Buffalo Gap Road"/><tag k="addr:housenumber" v="1422"/><tag k="addr:postcode" v="78734"/></node><node id="-482" lat="30.389595" lon="-97.94578" changeset="false"><tag k="addr:street" v="Chateau Avenue"/><tag k="addr:housenumber" v="16001"/><tag k="addr:postcode" v="78734"/></node><node id="-483" lat="30.40213" lon="-97.917692" changeset="false"><tag k="addr:street" v="Lago Viento"/><tag k="addr:housenumber" v="4535"/><tag k="addr:postcode" v="78734"/></node><node id="-484" lat="30.41464" lon="-97.91941" changeset="false"><tag k="addr:street" v="Arroyo Road"/><tag k="addr:housenumber" v="5503"/><tag k="addr:postcode" v="78734"/></node><node id="-485" lat="30.410825" lon="-97.922182" changeset="false"><tag k="addr:street" v="Sioux Lane"/><tag k="addr:housenumber" v="5102"/><tag k="addr:postcode" v="78734"/></node><node id="-486" lat="30.410707" lon="-97.921562" changeset="false"><tag k="addr:street" v="Sioux Lane"/><tag k="addr:housenumber" v="5105"/><tag k="addr:postcode" v="78734"/></node><node id="-487" lat="30.382257" lon="-97.957903" changeset="false"><tag k="addr:street" v="Lake Loop"/><tag k="addr:housenumber" v="16401"/><tag k="addr:postcode" v="78734"/></node><node id="-488" lat="30.38175" lon="-97.952729" changeset="false"><tag k="addr:street" v="Buffalo Gap Road"/><tag k="addr:housenumber" v="1410"/><tag k="addr:postcode" v="78734"/></node><node id="-489" lat="30.416956" lon="-97.919728" changeset="false"><tag k="addr:street" v="Arroyo Road"/><tag k="addr:housenumber" v="5617"/><tag k="addr:postcode" v="78734"/></node><node id="-490" lat="30.403006" lon="-97.921424" changeset="false"><tag k="addr:street" v="Lago Viento"/><tag k="addr:housenumber" v="4424"/><tag k="addr:postcode" v="78734"/></node><node id="-491" lat="30.401287" lon="-97.929953" changeset="false"><tag k="addr:street" v="Tejon Circle"/><tag k="addr:housenumber" v="4003"/><tag k="addr:postcode" v="78734"/></node><node id="-492" lat="30.401269" lon="-97.930421" changeset="false"><tag k="addr:street" v="Tejon Circle"/><tag k="addr:housenumber" v="4004"/><tag k="addr:postcode" v="78734"/></node><node id="-493" lat="30.419914" lon="-97.919464" changeset="false"><tag k="addr:street" v="Lakeview Drive"/><tag k="addr:housenumber" v="5901"/><tag k="addr:postcode" v="78734"/></node><node id="-494" lat="30.409618" lon="-97.915441" changeset="false"><tag k="addr:street" v="Mc Cormick Mountain Drive"/><tag k="addr:housenumber" v="5238"/><tag k="addr:postcode" v="78734"/></node><node id="-495" lat="30.377982" lon="-97.953701" changeset="false"><tag k="addr:street" v="Stewart Road"/><tag k="addr:housenumber" v="16012"/><tag k="addr:postcode" v="78734"/></node><node id="-496" lat="30.397396" lon="-97.932764" changeset="false"><tag k="addr:street" v="Ranch Road 620"/><tag k="addr:housenumber" v="3512"/><tag k="addr:postcode" v="78734"/></node><node id="-497" lat="30.412659" lon="-97.915871" changeset="false"><tag k="addr:street" v="Rainbow One Street"/><tag k="addr:housenumber" v="15208"/><tag k="addr:postcode" v="78734"/></node><node id="-498" lat="30.412395" lon="-97.916556" changeset="false"><tag k="addr:street" v="Rainbow One Street"/><tag k="addr:housenumber" v="15211"/><tag k="addr:postcode" v="78734"/></node><node id="-499" lat="30.378898" lon="-97.949459" changeset="false"><tag k="addr:street" v="Teck Circle"/><tag k="addr:housenumber" v="1303"/><tag k="addr:postcode" v="78734"/></node><node id="-500" lat="30.378988" lon="-97.955883" changeset="false"><tag k="addr:street" v="Monks Mountain Drive"/><tag k="addr:housenumber" v="16111"/><tag k="addr:postcode" v="78734"/></node><node id="-501" lat="30.385858" lon="-97.954562" changeset="false"><tag k="addr:street" v="Bella Vista Cove"/><tag k="addr:housenumber" v="205"/><tag k="addr:postcode" v="78734"/></node><node id="-502" lat="30.385239" lon="-97.948306" changeset="false"><tag k="addr:street" v="Soleil Court"/><tag k="addr:housenumber" v="15905"/><tag k="addr:postcode" v="78734"/></node><node id="-503" lat="30.411668" lon="-97.917509" changeset="false"><tag k="addr:street" v="Back of the Moon Street"/><tag k="addr:housenumber" v="15300"/><tag k="addr:postcode" v="78734"/></node><node id="-504" lat="30.405617" lon="-97.917306" changeset="false"><tag k="addr:street" v="Hornsby Hill Road"/><tag k="addr:housenumber" v="15004"/><tag k="addr:postcode" v="78734"/></node><node id="-505" lat="30.39004" lon="-97.946793" changeset="false"><tag k="addr:street" v="Chateau Avenue"/><tag k="addr:housenumber" v="16009"/><tag k="addr:postcode" v="78734"/></node><node id="-506" lat="30.413175" lon="-97.922621" changeset="false"><tag k="addr:street" v="Checotah Drive"/><tag k="addr:housenumber" v="15601"/><tag k="addr:postcode" v="78734"/></node><node id="-507" lat="30.412941" lon="-97.920962" changeset="false"><tag k="addr:street" v="Checotah Drive"/><tag k="addr:housenumber" v="15502"/><tag k="addr:postcode" v="78734"/></node><node id="-508" lat="30.412072" lon="-97.921895" changeset="false"><tag k="addr:street" v="Pryor Lane"/><tag k="addr:housenumber" v="5203"/><tag k="addr:postcode" v="78734"/></node><node id="-509" lat="30.41204" lon="-97.920342" changeset="false"><tag k="addr:street" v="Cree Lane"/><tag k="addr:housenumber" v="5206"/><tag k="addr:postcode" v="78734"/></node><node id="-510" lat="30.382359" lon="-97.956447" changeset="false"><tag k="addr:street" v="Buffalo Gap Road"/><tag k="addr:housenumber" v="1472"/><tag k="addr:postcode" v="78734"/></node><node id="-511" lat="30.407103" lon="-97.924812" changeset="false"><tag k="addr:street" v="Weletka Drive"/><tag k="addr:housenumber" v="4605"/><tag k="addr:postcode" v="78734"/></node><node id="-512" lat="30.416475" lon="-97.920026" changeset="false"><tag k="addr:street" v="Arroyo Road"/><tag k="addr:housenumber" v="5612"/><tag k="addr:postcode" v="78734"/></node><node id="-513" lat="30.381991" lon="-97.953622" changeset="false"><tag k="addr:street" v="Buffalo Gap Road"/><tag k="addr:housenumber" v="1416"/><tag k="addr:postcode" v="78734"/></node><node id="-514" lat="30.384513" lon="-97.951563" changeset="false"><tag k="addr:street" v="Costa Bella Cove"/><tag k="addr:housenumber" v="105"/><tag k="addr:postcode" v="78734"/></node><node id="-515" lat="30.418467" lon="-97.920389" changeset="false"><tag k="addr:street" v="Lakeview Drive"/><tag k="addr:housenumber" v="5705"/><tag k="addr:postcode" v="78734"/></node><node id="-516" lat="30.41341" lon="-97.919337" changeset="false"><tag k="addr:street" v="Enid Drive"/><tag k="addr:housenumber" v="15402"/><tag k="addr:postcode" v="78734"/></node><node id="-517" lat="30.410439" lon="-97.917912" changeset="false"><tag k="addr:street" v="Mc Cormick Mountain Drive"/><tag k="addr:housenumber" v="5209"/><tag k="addr:postcode" v="78734"/></node><node id="-518" lat="30.386225" lon="-97.955213" changeset="false"><tag k="addr:street" v="Buffalo Gap Road"/><tag k="addr:housenumber" v="1710"/><tag k="addr:postcode" v="78734"/></node><node id="-519" lat="30.400213" lon="-97.931202" changeset="false"><tag k="addr:street" v="Eck Lane"/><tag k="addr:housenumber" v="3900"/><tag k="addr:postcode" v="78734"/></node><node id="-520" lat="30.399924" lon="-97.929958" changeset="false"><tag k="addr:street" v="Alazan Circle"/><tag k="addr:housenumber" v="3802"/><tag k="addr:postcode" v="78734"/></node><node id="-521" lat="30.415004" lon="-97.920202" changeset="false"><tag k="addr:street" v="Caliche Lane"/><tag k="addr:housenumber" v="5503"/><tag k="addr:postcode" v="78734"/></node><node id="-522" lat="30.389813" lon="-97.946294" changeset="false"><tag k="addr:street" v="Chateau Avenue"/><tag k="addr:housenumber" v="16005"/><tag k="addr:postcode" v="78734"/></node><node id="-523" lat="30.388433" lon="-97.949864" changeset="false"><tag k="addr:street" v="Costa Bella Drive"/><tag k="addr:housenumber" v="211"/><tag k="addr:postcode" v="78734"/></node><node id="-524" lat="30.410591" lon="-97.915839" changeset="false"><tag k="addr:street" v="Rainbow One Street"/><tag k="addr:housenumber" v="15100"/><tag k="addr:postcode" v="78734"/></node><node id="-525" lat="30.396765" lon="-97.921622" changeset="false"><tag k="addr:street" v="Ranch Road 620"/><tag k="addr:housenumber" v="4038"/><tag k="addr:postcode" v="78734"/></node><node id="-526" lat="30.413825" lon="-97.922572" changeset="false"><tag k="addr:street" v="Checotah Drive"/><tag k="addr:housenumber" v="15606"/><tag k="addr:postcode" v="78734"/></node><node id="-527" lat="30.405968" lon="-97.912751" changeset="false"><tag k="addr:street" v="Hornsby Hill Road"/><tag k="addr:housenumber" v="14802"/><tag k="addr:postcode" v="78734"/></node><node id="-528" lat="30.39776" lon="-97.910412" changeset="false"><tag k="addr:street" v="Agarita Place"/><tag k="addr:housenumber" v="4403"/><tag k="addr:postcode" v="78734"/></node><node id="-529" lat="30.397523" lon="-97.913415" changeset="false"><tag k="addr:street" v="Mansfield Dam Court"/><tag k="addr:housenumber" v="14600"/><tag k="addr:postcode" v="78734"/></node><node id="-530" lat="30.401628" lon="-97.920371" changeset="false"><tag k="addr:street" v="Lago Viento"/><tag k="addr:housenumber" v="4415"/><tag k="addr:postcode" v="78734"/></node><node id="-531" lat="30.401559" lon="-97.931475" changeset="false"><tag k="addr:street" v="Eck Lane"/><tag k="addr:housenumber" v="3909"/><tag k="addr:postcode" v="78734"/></node><node id="-532" lat="30.400314" lon="-97.926875" changeset="false"><tag k="addr:street" v="Paloma Circle"/><tag k="addr:housenumber" v="4001"/><tag k="addr:postcode" v="78734"/></node><node id="-533" lat="30.411455" lon="-97.921175" changeset="false"><tag k="addr:street" v="Sioux Lane"/><tag k="addr:housenumber" v="5203"/><tag k="addr:postcode" v="78734"/></node><node id="-534" lat="30.411822" lon="-97.919915" changeset="false"><tag k="addr:street" v="Cree Circle"/><tag k="addr:housenumber" v="15402"/><tag k="addr:postcode" v="78734"/></node><node id="-535" lat="30.41723" lon="-97.921951" changeset="false"><tag k="addr:street" v="Lakeview Drive"/><tag k="addr:housenumber" v="5604"/><tag k="addr:postcode" v="78734"/></node><node id="-536" lat="30.390979" lon="-97.946096" changeset="false"><tag k="addr:street" v="Chateau Avenue"/><tag k="addr:housenumber" v="16008"/><tag k="addr:postcode" v="78734"/></node><node id="-537" lat="30.391113" lon="-97.909472" changeset="false"><tag k="addr:street" v="Ranch Road 620"/><tag k="addr:housenumber" v="4340"/><tag k="addr:postcode" v="78732"/></node><node id="-538" lat="30.401745" lon="-97.925894" changeset="false"><tag k="addr:street" v="Laguna Grande"/><tag k="addr:housenumber" v="4200"/><tag k="addr:postcode" v="78734"/></node><node id="-539" lat="30.395931" lon="-97.93436" changeset="false"><tag k="addr:street" v="Ranch Road 620"/><tag k="addr:housenumber" v="3320"/><tag k="addr:postcode" v="78734"/></node><node id="-540" lat="30.385563" lon="-97.955729" changeset="false"><tag k="addr:street" v="Buffalo Gap Road"/><tag k="addr:housenumber" v="1608"/><tag k="addr:postcode" v="78734"/></node><node id="-541" lat="30.379136" lon="-97.956109" changeset="false"><tag k="addr:street" v="Monks Mountain Drive"/><tag k="addr:housenumber" v="16201"/><tag k="addr:postcode" v="78734"/></node><node id="-542" lat="30.407222" lon="-97.924164" changeset="false"><tag k="addr:street" v="Watumba Road"/><tag k="addr:housenumber" v="15405"/><tag k="addr:postcode" v="78734"/></node><node id="-543" lat="30.410072" lon="-97.92609" changeset="false"><tag k="addr:street" v="Hudson Bend Road"/><tag k="addr:housenumber" v="4809"/><tag k="addr:postcode" v="78734"/></node><node id="-544" lat="30.414213" lon="-97.920999" changeset="false"><tag k="addr:street" v="Enid Drive"/><tag k="addr:housenumber" v="15508"/><tag k="addr:postcode" v="78734"/></node><node id="-545" lat="30.41168" lon="-97.919446" changeset="false"><tag k="addr:street" v="Cree Circle"/><tag k="addr:housenumber" v="15304"/><tag k="addr:postcode" v="78734"/></node><node id="-546" lat="30.417214" lon="-97.922018" changeset="false"><tag k="addr:street" v="Lakeview Drive"/><tag k="addr:housenumber" v="5600"/><tag k="addr:postcode" v="78734"/></node><node id="-547" lat="30.412545" lon="-97.918248" changeset="false"><tag k="addr:street" v="Rainbow One Street"/><tag k="addr:housenumber" v="15315"/><tag k="addr:postcode" v="78734"/></node><node id="-548" lat="30.411039" lon="-97.923228" changeset="false"><tag k="addr:street" v="Pryor Lane"/><tag k="addr:housenumber" v="5006"/><tag k="addr:postcode" v="78734"/></node><node id="-549" lat="30.411182" lon="-97.921972" changeset="false"><tag k="addr:street" v="Sioux Lane"/><tag k="addr:housenumber" v="5106"/><tag k="addr:postcode" v="78734"/></node><node id="-550" lat="30.383329" lon="-97.957709" changeset="false"><tag k="addr:street" v="Lake Loop"/><tag k="addr:housenumber" v="16409"/><tag k="addr:postcode" v="78734"/></node><node id="-551" lat="30.38345" lon="-97.957733" changeset="false"><tag k="addr:street" v="Lake Loop"/><tag k="addr:housenumber" v="16421"/><tag k="addr:postcode" v="78734"/></node><node id="-552" lat="30.379244" lon="-97.957508" changeset="false"><tag k="addr:street" v="Stewart Road"/><tag k="addr:housenumber" v="16216"/><tag k="addr:postcode" v="78734"/></node><node id="-553" lat="30.379303" lon="-97.957631" changeset="false"><tag k="addr:street" v="Stewart Road"/><tag k="addr:housenumber" v="16220"/><tag k="addr:postcode" v="78734"/></node></osm>