<?xml version="1.0" encoding="UTF-8"?><osm version="0.6" generator="github.com/aaronlidman/osm-and-geojson"><node id="-1" lat="30.346517" lon="-97.778345" changeset="false"><tag k="addr:street" v="Upvalley Run"/><tag k="addr:housenumber" v="5914"/><tag k="coa:place_id" v="1017705"/></node><node id="-2" lat="30.342457" lon="-97.775972" changeset="false"><tag k="addr:street" v="Small Drive"/><tag k="addr:housenumber" v="4400"/><tag k="coa:place_id" v="201882"/></node><node id="-3" lat="30.350225" lon="-97.778219" changeset="false"><tag k="addr:street" v="Mountain Villa Drive"/><tag k="addr:housenumber" v="6107"/><tag k="coa:place_id" v="133737"/></node><node id="-4" lat="30.345973" lon="-97.774903" changeset="false"><tag k="addr:street" v="Wild Plum Court"/><tag k="addr:housenumber" v="4302"/><tag k="coa:place_id" v="1016925"/></node><node id="-5" lat="30.345822" lon="-97.772592" changeset="false"><tag k="addr:street" v="Lonesome Valley Trail"/><tag k="addr:housenumber" v="5907"/><tag k="coa:place_id" v="1016739"/></node><node id="-6" lat="30.344944" lon="-97.777665" changeset="false"><tag k="addr:street" v="Upvalley Run"/><tag k="addr:housenumber" v="5902"/><tag k="coa:place_id" v="1017669"/></node><node id="-7" lat="30.346727" lon="-97.777126" changeset="false"><tag k="addr:street" v="Upvalley Court"/><tag k="addr:housenumber" v="4502"/><tag k="coa:place_id" v="1017147"/></node><node id="-8" lat="30.350306" lon="-97.776611" changeset="false"><tag k="addr:street" v="Twin Ledge Drive"/><tag k="addr:housenumber" v="6110"/><tag k="coa:place_id" v="388281"/></node><node id="-9" lat="30.346022" lon="-97.776564" changeset="false"><tag k="addr:street" v="Doone Valley Court"/><tag k="addr:housenumber" v="5913"/><tag k="coa:place_id" v="1017357"/></node><node id="-10" lat="30.349773" lon="-97.775787" changeset="false"><tag k="addr:street" v="Twin Ledge Drive"/><tag k="addr:housenumber" v="6000"/><tag k="coa:place_id" v="1016823"/></node><node id="-11" lat="30.343987" lon="-97.776141" changeset="false"><tag k="addr:street" v="Small Drive"/><tag k="addr:housenumber" v="4300"/><tag k="coa:place_id" v="214266"/></node><node id="-12" lat="30.343603" lon="-97.776359" changeset="false"><tag k="addr:street" v="Cross Valley Run"/><tag k="addr:housenumber" v="4409"/><tag k="coa:place_id" v="134789"/></node><node id="-13" lat="30.342441" lon="-97.776288" changeset="false"><tag k="addr:street" v="Small Drive"/><tag k="addr:housenumber" v="4404"/><tag k="coa:place_id" v="134784"/></node><node id="-14" lat="30.348199" lon="-97.773845" changeset="false"><tag k="addr:street" v="Lonesome Valley Court"/><tag k="addr:housenumber" v="4205"/><tag k="coa:place_id" v="1016811"/></node><node id="-15" lat="30.347474" lon="-97.778868" changeset="false"><tag k="addr:street" v="Down Valley Court"/><tag k="addr:housenumber" v="5909"/><tag k="coa:place_id" v="1017783"/></node><node id="-16" lat="30.344076" lon="-97.772726" changeset="false"><tag k="addr:street" v="Gentle Breeze Terrace"/><tag k="addr:housenumber" v="5820"/><tag k="coa:place_id" v="141883"/></node><node id="-17" lat="30.348753" lon="-97.777664" changeset="false"><tag k="addr:street" v="Mountain Villa Drive"/><tag k="addr:housenumber" v="6012"/><tag k="coa:place_id" v="96627"/></node><node id="-18" lat="30.350944" lon="-97.77635" changeset="false"><tag k="addr:street" v="Ledge Mountain Drive"/><tag k="addr:housenumber" v="6222"/><tag k="coa:place_id" v="99960"/></node><node id="-19" lat="30.344354" lon="-97.771963" changeset="false"><tag k="addr:street" v="Mesa Drive"/><tag k="addr:housenumber" v="5830"/><tag k="coa:place_id" v="548746"/></node><node id="-20" lat="30.345318" lon="-97.77492" changeset="false"><tag k="addr:street" v="Mountain Villa Drive"/><tag k="addr:housenumber" v="5905"/><tag k="coa:place_id" v="707140"/></node><node id="-21" lat="30.346543" lon="-97.780377" changeset="false"><tag k="addr:street" v="Hickory Hollow"/><tag k="addr:housenumber" v="4713"/><tag k="coa:place_id" v="86581"/></node><node id="-22" lat="30.348136" lon="-97.776485" changeset="false"><tag k="addr:street" v="Ridgeside Court"/><tag k="addr:housenumber" v="4402"/><tag k="coa:place_id" v="731026"/></node><node id="-23" lat="30.347696" lon="-97.772077" changeset="false"><tag k="addr:street" v="Mesa Drive"/><tag k="addr:housenumber" v="6104"/><tag k="coa:place_id" v="1016469"/></node><node id="-24" lat="30.347572" lon="-97.776324" changeset="false"><tag k="addr:street" v="Mountain Villa Drive"/><tag k="addr:housenumber" v="5925"/><tag k="coa:place_id" v="693172"/></node><node id="-25" lat="30.343164" lon="-97.775975" changeset="false"><tag k="addr:street" v="Small Drive"/><tag k="addr:housenumber" v="4312"/><tag k="coa:place_id" v="134778"/></node><node id="-26" lat="30.350122" lon="-97.776352" changeset="false"><tag k="addr:street" v="Twin Ledge Drive"/><tag k="addr:housenumber" v="6104"/><tag k="coa:place_id" v="388275"/></node><node id="-27" lat="30.347115" lon="-97.778411" changeset="false"><tag k="addr:street" v="Down Valley Court"/><tag k="addr:housenumber" v="5901"/><tag k="coa:place_id" v="117453"/></node><node id="-28" lat="30.346815" lon="-97.779196" changeset="false"><tag k="addr:street" v="Down Valley Court"/><tag k="addr:housenumber" v="5904"/><tag k="coa:place_id" v="1017735"/></node><node id="-29" lat="30.348976" lon="-97.777796" changeset="false"><tag k="addr:street" v="Mountain Villa Drive"/><tag k="addr:housenumber" v="6014"/><tag k="coa:place_id" v="452439"/></node><node id="-30" lat="30.348031" lon="-97.776377" changeset="false"><tag k="addr:street" v="Ridgeside Court"/><tag k="addr:housenumber" v="4401"/><tag k="coa:place_id" v="1017003"/></node><node id="-31" lat="30.343503" lon="-97.776558" changeset="false"><tag k="addr:street" v="Cross Valley Run"/><tag k="addr:housenumber" v="4413"/><tag k="coa:place_id" v="134790"/></node><node id="-32" lat="30.348266" lon="-97.772809" changeset="false"><tag k="addr:street" v="Lonesome Valley Trail"/><tag k="addr:housenumber" v="6100"/><tag k="coa:place_id" v="1016787"/></node><node id="-33" lat="30.345458" lon="-97.777371" changeset="false"><tag k="addr:street" v="Upvalley Run"/><tag k="addr:housenumber" v="5905"/><tag k="coa:place_id" v="1017231"/></node><node id="-34" lat="30.345504" lon="-97.77624" changeset="false"><tag k="addr:street" v="Doone Valley Court"/><tag k="addr:housenumber" v="5909"/><tag k="coa:place_id" v="1017369"/></node><node id="-35" lat="30.345805" lon="-97.774622" changeset="false"><tag k="addr:street" v="Wild Plum Court"/><tag k="addr:housenumber" v="4300"/><tag k="coa:place_id" v="1017519"/></node><node id="-36" lat="30.350218" lon="-97.773952" changeset="false"><tag k="addr:street" v="Ledge Mountain Drive"/><tag k="addr:housenumber" v="6204"/><tag k="coa:place_id" v="195058"/></node><node id="-37" lat="30.344005" lon="-97.778013" changeset="false"><tag k="addr:street" v="Sandalwood Hollow"/><tag k="addr:housenumber" v="5801"/><tag k="coa:place_id" v="89844"/></node><node id="-38" lat="30.345221" lon="-97.776229" changeset="false"><tag k="addr:street" v="Doone Valley Court"/><tag k="addr:housenumber" v="5907"/><tag k="coa:place_id" v="1016919"/></node><node id="-39" lat="30.346893" lon="-97.777486" changeset="false"><tag k="addr:street" v="Upvalley Court"/><tag k="addr:housenumber" v="4500"/><tag k="coa:place_id" v="1017177"/></node><node id="-40" lat="30.346473" lon="-97.777074" changeset="false"><tag k="addr:street" v="Upvalley Court"/><tag k="addr:housenumber" v="4501"/><tag k="coa:place_id" v="1017183"/></node><node id="-41" lat="30.342936" lon="-97.77598" changeset="false"><tag k="addr:street" v="Small Drive"/><tag k="addr:housenumber" v="4316"/><tag k="coa:place_id" v="134779"/></node><node id="-42" lat="30.347004" lon="-97.773223" changeset="false"><tag k="addr:street" v="Lonesome Valley Trail"/><tag k="addr:housenumber" v="6003"/><tag k="coa:place_id" v="1016577"/></node><node id="-43" lat="30.34559" lon="-97.779291" changeset="false"><tag k="addr:street" v="Beechwood Hollow"/><tag k="addr:housenumber" v="4604"/><tag k="coa:place_id" v="82477"/></node><node id="-44" lat="30.345151" lon="-97.777141" changeset="false"><tag k="addr:street" v="Doone Valley Court"/><tag k="addr:housenumber" v="5900"/><tag k="coa:place_id" v="122467"/></node><node id="-45" lat="30.346798" lon="-97.773143" changeset="false"><tag k="addr:street" v="Lonesome Valley Trail"/><tag k="addr:housenumber" v="6001"/><tag k="coa:place_id" v="1016571"/></node><node id="-46" lat="30.349028" lon="-97.777854" changeset="false"><tag k="addr:street" v="Mountain Villa Drive"/><tag k="addr:housenumber" v="6100"/><tag k="coa:place_id" v="384225"/></node><node id="-47" lat="30.348927" lon="-97.778041" changeset="false"><tag k="addr:street" v="Mount Bonnell Road"/><tag k="addr:housenumber" v="6027"/><tag k="coa:place_id" v="259287"/></node><node id="-48" lat="30.351116" lon="-97.777417" changeset="false"><tag k="addr:street" v="Mountain Villa Drive"/><tag k="addr:housenumber" v="6207"/><tag k="coa:place_id" v="989762"/></node><node id="-49" lat="30.346588" lon="-97.772911" changeset="false"><tag k="addr:street" v="Lonesome Valley Trail"/><tag k="addr:housenumber" v="5913"/><tag k="coa:place_id" v="1016565"/></node><node id="-50" lat="30.345588" lon="-97.772597" changeset="false"><tag k="addr:street" v="Lonesome Valley Trail"/><tag k="addr:housenumber" v="5905"/><tag k="coa:place_id" v="1016733"/></node><node id="-51" lat="30.345676" lon="-97.777542" changeset="false"><tag k="addr:street" v="Upvalley Run"/><tag k="addr:housenumber" v="5907"/><tag k="coa:place_id" v="1017225"/></node><node id="-52" lat="30.347134" lon="-97.77257" changeset="false"><tag k="addr:street" v="Mesa Court"/><tag k="addr:housenumber" v="4105"/><tag k="coa:place_id" v="558328"/></node><node id="-53" lat="30.348107" lon="-97.778725" changeset="false"><tag k="addr:street" v="Mount Bonnell Cove"/><tag k="addr:housenumber" v="6004"/><tag k="coa:place_id" v="5080844"/></node><node id="-54" lat="30.348079" lon="-97.776251" changeset="false"><tag k="addr:street" v="Ridgeside Court"/><tag k="addr:housenumber" v="4400"/><tag k="coa:place_id" v="1017009"/></node><node id="-55" lat="30.345967" lon="-97.773364" changeset="false"><tag k="addr:street" v="Lonesome Valley Trail"/><tag k="addr:housenumber" v="5908"/><tag k="coa:place_id" v="1016661"/></node><node id="-56" lat="30.348351" lon="-97.774199" changeset="false"><tag k="addr:street" v="Lonesome Valley Court"/><tag k="addr:housenumber" v="4207"/><tag k="coa:place_id" v="1016817"/></node><node id="-57" lat="30.349678" lon="-97.776305" changeset="false"><tag k="addr:street" v="Twin Ledge Drive"/><tag k="addr:housenumber" v="6100"/><tag k="coa:place_id" v="390279"/></node><node id="-58" lat="30.347504" lon="-97.781049" changeset="false"><tag k="addr:street" v="Mount Bonnell Road"/><tag k="addr:housenumber" v="5929"/><tag k="coa:place_id" v="123845"/></node><node id="-59" lat="30.34442" lon="-97.776358" changeset="false"><tag k="addr:street" v="Cross Valley Run"/><tag k="addr:housenumber" v="4402"/><tag k="coa:place_id" v="1017051"/></node><node id="-60" lat="30.347207" lon="-97.773347" changeset="false"><tag k="addr:street" v="Lonesome Valley Trail"/><tag k="addr:housenumber" v="6005"/><tag k="coa:place_id" v="1016583"/></node><node id="-61" lat="30.34651" lon="-97.778665" changeset="false"><tag k="addr:street" v="Down Valley Court"/><tag k="addr:housenumber" v="5900"/><tag k="coa:place_id" v="1017711"/></node><node id="-62" lat="30.346354" lon="-97.772765" changeset="false"><tag k="addr:street" v="Lonesome Valley Trail"/><tag k="addr:housenumber" v="5911"/><tag k="coa:place_id" v="1016553"/></node><node id="-63" lat="30.347453" lon="-97.773279" changeset="false"><tag k="addr:street" v="Lonesome Valley Trail"/><tag k="addr:housenumber" v="6007"/><tag k="coa:place_id" v="93199"/></node><node id="-64" lat="30.347477" lon="-97.77915" changeset="false"><tag k="addr:street" v="Down Valley Court"/><tag k="addr:housenumber" v="5911"/><tag k="coa:place_id" v="1017777"/></node><node id="-65" lat="30.34493" lon="-97.774202" changeset="false"><tag k="addr:street" v="Cross Valley Run"/><tag k="addr:housenumber" v="4300"/><tag k="coa:place_id" v="1017555"/></node><node id="-66" lat="30.346986" lon="-97.772336" changeset="false"><tag k="addr:street" v="Mesa Court"/><tag k="addr:housenumber" v="4103"/><tag k="coa:place_id" v="581302"/></node><node id="-67" lat="30.344754" lon="-97.778743" changeset="false"><tag k="addr:street" v="Sandalwood Hollow"/><tag k="addr:housenumber" v="5814"/><tag k="coa:place_id" v="82484"/></node></osm>