<?xml version="1.0" encoding="UTF-8"?><osm version="0.6" generator="github.com/aaronlidman/osm-and-geojson"><node id="-1" lat="30.354611" lon="-97.738999" changeset="false"><tag k="addr:street" v="Silverway Drive"/><tag k="addr:housenumber" v="2802"/><tag k="coa:place_id" v="247262"/></node><node id="-2" lat="30.358632" lon="-97.743757" changeset="false"><tag k="addr:street" v="Whitepine Drive"/><tag k="addr:housenumber" v="3307"/><tag k="coa:place_id" v="246752"/></node><node id="-3" lat="30.354569" lon="-97.742079" changeset="false"><tag k="addr:street" v="Silverleaf Drive"/><tag k="addr:housenumber" v="3004"/><tag k="coa:place_id" v="245882"/></node><node id="-4" lat="30.354503" lon="-97.738823" changeset="false"><tag k="addr:street" v="Silverway Drive"/><tag k="addr:housenumber" v="2800"/><tag k="coa:place_id" v="247268"/></node><node id="-5" lat="30.353004" lon="-97.741305" changeset="false"><tag k="addr:street" v="Shoal Creek Boulevard"/><tag k="addr:housenumber" v="7308"/><tag k="coa:place_id" v="798483"/></node><node id="-6" lat="30.355575" lon="-97.745479" changeset="false"><tag k="addr:street" v="Silverleaf Drive"/><tag k="addr:housenumber" v="3305"/><tag k="coa:place_id" v="245780"/></node><node id="-7" lat="30.352799" lon="-97.740879" changeset="false"><tag k="addr:street" v="Shoal Creek Boulevard"/><tag k="addr:housenumber" v="7401"/><tag k="coa:place_id" v="249038"/></node><node id="-8" lat="30.35313" lon="-97.74397" changeset="false"><tag k="addr:street" v="Stardust Drive"/><tag k="addr:housenumber" v="3105"/><tag k="coa:place_id" v="248564"/></node><node id="-9" lat="30.354207" lon="-97.739057" changeset="false"><tag k="addr:street" v="Silverway Drive"/><tag k="addr:housenumber" v="2801"/><tag k="coa:place_id" v="247274"/></node></osm>