<?xml version="1.0" encoding="UTF-8"?><osm version="0.6" generator="github.com/aaronlidman/osm-and-geojson"><node id="-1" lat="30.24812" lon="-97.88045" changeset="false"><tag k="addr:street" v="Landscape Drive"/><tag k="addr:housenumber" v="6104"/><tag k="addr:postcode" v="78735"/></node><node id="-2" lat="30.253915" lon="-97.884129" changeset="false"><tag k="addr:street" v="Cobblestone"/><tag k="addr:housenumber" v="8116"/><tag k="addr:postcode" v="78735"/></node><node id="-3" lat="30.254189" lon="-97.895615" changeset="false"><tag k="addr:street" v="Mountain Shadows Cove"/><tag k="addr:housenumber" v="8908"/><tag k="addr:postcode" v="78735"/></node><node id="-4" lat="30.253852" lon="-97.892666" changeset="false"><tag k="addr:street" v="Sky Mountain Drive"/><tag k="addr:housenumber" v="8702"/><tag k="addr:postcode" v="78735"/></node><node id="-5" lat="30.256086" lon="-97.887591" changeset="false"><tag k="addr:street" v="Cobblestone"/><tag k="addr:housenumber" v="8605"/><tag k="addr:postcode" v="78735"/></node><node id="-6" lat="30.261672" lon="-97.889149" changeset="false"><tag k="addr:street" v="Travis Cook Road"/><tag k="addr:housenumber" v="5400 1/2"/><tag k="addr:postcode" v="78735"/></node><node id="-7" lat="30.246629" lon="-97.870364" changeset="false"><tag k="addr:street" v="Othello Cove"/><tag k="addr:housenumber" v="7120"/><tag k="addr:postcode" v="78735"/></node><node id="-8" lat="30.246423" lon="-97.869342" changeset="false"><tag k="addr:street" v="Othello Cove"/><tag k="addr:housenumber" v="7108"/><tag k="addr:postcode" v="78735"/></node><node id="-9" lat="30.248447" lon="-97.880279" changeset="false"><tag k="addr:street" v="Landscape Drive"/><tag k="addr:housenumber" v="6100"/><tag k="addr:postcode" v="78735"/></node><node id="-10" lat="30.248297" lon="-97.880352" changeset="false"><tag k="addr:street" v="Landscape Drive"/><tag k="addr:housenumber" v="6102"/><tag k="addr:postcode" v="78735"/></node><node id="-11" lat="30.257776" lon="-97.889196" changeset="false"><tag k="addr:street" v="Travis Cook Road"/><tag k="addr:housenumber" v="5704"/><tag k="addr:postcode" v="78735"/></node><node id="-12" lat="30.247229" lon="-97.8821" changeset="false"><tag k="addr:street" v="Homestead Trail"/><tag k="addr:housenumber" v="6206"/><tag k="addr:postcode" v="78735"/></node><node id="-13" lat="30.247646" lon="-97.878933" changeset="false"><tag k="addr:street" v="Big Horn Circle"/><tag k="addr:housenumber" v="6111"/><tag k="addr:postcode" v="78735"/></node><node id="-14" lat="30.246764" lon="-97.88061" changeset="false"><tag k="addr:street" v="Landscape Drive"/><tag k="addr:housenumber" v="6205"/><tag k="addr:postcode" v="78735"/></node><node id="-15" lat="30.253665" lon="-97.895157" changeset="false"><tag k="addr:street" v="Mountain Shadows Drive"/><tag k="addr:housenumber" v="6300"/><tag k="addr:postcode" v="78735"/></node><node id="-16" lat="30.254072" lon="-97.896079" changeset="false"><tag k="addr:street" v="Mountain Shadows Cove"/><tag k="addr:housenumber" v="8901"/><tag k="addr:postcode" v="78735"/></node><node id="-17" lat="30.245485" lon="-97.880094" changeset="false"><tag k="addr:street" v="Big Horn Circle"/><tag k="addr:housenumber" v="6215"/><tag k="addr:postcode" v="78735"/></node><node id="-18" lat="30.248995" lon="-97.87613" changeset="false"><tag k="addr:street" v="Kempson Drive"/><tag k="addr:housenumber" v="5820"/><tag k="addr:postcode" v="78735"/></node><node id="-19" lat="30.24694" lon="-97.870067" changeset="false"><tag k="addr:street" v="Othello Cove"/><tag k="addr:housenumber" v="7120 1/2"/><tag k="addr:postcode" v="78735"/></node><node id="-20" lat="30.249628" lon="-97.884411" changeset="false"><tag k="addr:street" v="Oleander Trail"/><tag k="addr:housenumber" v="6201"/><tag k="addr:postcode" v="78735"/></node><node id="-21" lat="30.254053" lon="-97.884044" changeset="false"><tag k="addr:street" v="Cobblestone"/><tag k="addr:housenumber" v="8112"/><tag k="addr:postcode" v="78735"/></node><node id="-22" lat="30.258305" lon="-97.88736" changeset="false"><tag k="addr:street" v="Sunset Ridge"/><tag k="addr:housenumber" v="5601"/><tag k="addr:postcode" v="78735"/></node><node id="-23" lat="30.247969" lon="-97.879532" changeset="false"><tag k="addr:street" v="Big Horn Circle"/><tag k="addr:housenumber" v="6105"/><tag k="addr:postcode" v="78735"/></node><node id="-24" lat="30.254491" lon="-97.88806" changeset="false"><tag k="addr:street" v="Sunset Ridge"/><tag k="addr:housenumber" v="5929 1/2"/><tag k="addr:postcode" v="78735"/></node><node id="-25" lat="30.27398" lon="-97.898389" changeset="false"><tag k="addr:street" v="Southwest Parkway"/><tag k="addr:housenumber" v="9625"/><tag k="addr:postcode" v="78735"/></node><node id="-26" lat="30.244725" lon="-97.875867" changeset="false"><tag k="addr:street" v="Panorama Vista Drive"/><tag k="addr:housenumber" v="6225"/><tag k="addr:postcode" v="78735"/></node><node id="-27" lat="30.244325" lon="-97.875034" changeset="false"><tag k="addr:street" v="Aviara Drive"/><tag k="addr:housenumber" v="6224"/><tag k="addr:postcode" v="78735"/></node><node id="-28" lat="30.244061" lon="-97.875243" changeset="false"><tag k="addr:street" v="Aviara Drive"/><tag k="addr:housenumber" v="6233"/><tag k="addr:postcode" v="78735"/></node><node id="-29" lat="30.254186" lon="-97.87518" changeset="false"><tag k="addr:street" v="Rialto Boulevard"/><tag k="addr:housenumber" v="7708"/><tag k="addr:postcode" v="78735"/></node><node id="-30" lat="30.244082" lon="-97.875147" changeset="false"><tag k="addr:street" v="Aviara Drive"/><tag k="addr:housenumber" v="6227"/><tag k="addr:postcode" v="78735"/></node><node id="-31" lat="30.244014" lon="-97.874494" changeset="false"><tag k="addr:street" v="Aviara Drive"/><tag k="addr:housenumber" v="6211"/><tag k="addr:postcode" v="78735"/></node><node id="-32" lat="30.244251" lon="-97.873643" changeset="false"><tag k="addr:street" v="Sunset Heights Circle"/><tag k="addr:housenumber" v="7431"/><tag k="addr:postcode" v="78735"/></node><node id="-33" lat="30.245235" lon="-97.874571" changeset="false"><tag k="addr:street" v="Sunset Heights Circle"/><tag k="addr:housenumber" v="7323"/><tag k="addr:postcode" v="78735"/></node><node id="-34" lat="30.244743" lon="-97.87619" changeset="false"><tag k="addr:street" v="Evening Sky Circle"/><tag k="addr:housenumber" v="7419"/><tag k="addr:postcode" v="78735"/></node><node id="-35" lat="30.241298" lon="-97.875127" changeset="false"><tag k="addr:street" v="Rimcrest Cove"/><tag k="addr:housenumber" v="7312"/><tag k="addr:postcode" v="78735"/></node><node id="-36" lat="30.254463" lon="-97.895966" changeset="false"><tag k="addr:street" v="Mountain Shadows Cove"/><tag k="addr:housenumber" v="8913"/><tag k="addr:postcode" v="78735"/></node><node id="-37" lat="30.252965" lon="-97.881104" changeset="false"><tag k="addr:street" v="Wier Hills Road"/><tag k="addr:housenumber" v="5804"/><tag k="addr:postcode" v="78735"/></node><node id="-38" lat="30.250448" lon="-97.876015" changeset="false"><tag k="addr:street" v="Journeyville Drive"/><tag k="addr:housenumber" v="8012"/><tag k="addr:postcode" v="78735"/></node><node id="-39" lat="30.248303" lon="-97.881511" changeset="false"><tag k="addr:street" v="Homestead Trail"/><tag k="addr:housenumber" v="6106"/><tag k="addr:postcode" v="78735"/></node><node id="-40" lat="30.247589" lon="-97.879812" changeset="false"><tag k="addr:street" v="Big Horn Circle"/><tag k="addr:housenumber" v="6104"/><tag k="addr:postcode" v="78735"/></node><node id="-41" lat="30.246649" lon="-97.881141" changeset="false"><tag k="addr:street" v="Landscape Drive"/><tag k="addr:housenumber" v="6208"/><tag k="addr:postcode" v="78735"/></node><node id="-42" lat="30.246027" lon="-97.878645" changeset="false"><tag k="addr:street" v="Big Horn Circle"/><tag k="addr:housenumber" v="6203"/><tag k="addr:postcode" v="78735"/></node><node id="-43" lat="30.247309" lon="-97.87501" changeset="false"><tag k="addr:street" v="Journeyville Drive"/><tag k="addr:housenumber" v="7605"/><tag k="addr:postcode" v="78735"/></node><node id="-44" lat="30.254733" lon="-97.883041" changeset="false"><tag k="addr:street" v="Cobblestone"/><tag k="addr:housenumber" v="8017"/><tag k="addr:postcode" v="78735"/></node><node id="-45" lat="30.25687" lon="-97.890021" changeset="false"><tag k="addr:street" v="Travis Cook Road"/><tag k="addr:housenumber" v="5802"/><tag k="addr:postcode" v="78735"/></node><node id="-46" lat="30.25034" lon="-97.882754" changeset="false"><tag k="addr:street" v="Cedar Elm Trail"/><tag k="addr:housenumber" v="8012"/><tag k="addr:postcode" v="78735"/></node><node id="-47" lat="30.246585" lon="-97.880248" changeset="false"><tag k="addr:street" v="Granite Trail"/><tag k="addr:housenumber" v="6209"/><tag k="addr:postcode" v="78735"/></node><node id="-48" lat="30.246345" lon="-97.878467" changeset="false"><tag k="addr:street" v="Big Horn Circle"/><tag k="addr:housenumber" v="6121"/><tag k="addr:postcode" v="78735"/></node><node id="-49" lat="30.254474" lon="-97.883819" changeset="false"><tag k="addr:street" v="Cobblestone"/><tag k="addr:housenumber" v="8100"/><tag k="addr:postcode" v="78735"/></node><node id="-50" lat="30.25448" lon="-97.894185" changeset="false"><tag k="addr:street" v="Mountain Shadows Drive"/><tag k="addr:housenumber" v="6201"/><tag k="addr:postcode" v="78735"/></node><node id="-51" lat="30.254178" lon="-97.883993" changeset="false"><tag k="addr:street" v="Cobblestone"/><tag k="addr:housenumber" v="8108"/><tag k="addr:postcode" v="78735"/></node><node id="-52" lat="30.258897" lon="-97.892066" changeset="false"><tag k="addr:street" v="Travis Hills Drive"/><tag k="addr:housenumber" v="8818"/><tag k="addr:postcode" v="78735"/></node><node id="-53" lat="30.257451" lon="-97.888948" changeset="false"><tag k="addr:street" v="Travis Cook Road"/><tag k="addr:housenumber" v="5707"/><tag k="addr:postcode" v="78735"/></node><node id="-54" lat="30.246468" lon="-97.880436" changeset="false"><tag k="addr:street" v="Landscape Drive"/><tag k="addr:housenumber" v="6209"/><tag k="addr:postcode" v="78735"/></node><node id="-55" lat="30.247123" lon="-97.880351" changeset="false"><tag k="addr:street" v="Landscape Drive"/><tag k="addr:housenumber" v="6201"/><tag k="addr:postcode" v="78735"/></node><node id="-56" lat="30.245497" lon="-97.876048" changeset="false"><tag k="addr:street" v="Evening Sky Circle"/><tag k="addr:housenumber" v="7500"/><tag k="addr:postcode" v="78735"/></node><node id="-57" lat="30.24814" lon="-97.881611" changeset="false"><tag k="addr:street" v="Homestead Trail"/><tag k="addr:housenumber" v="6108"/><tag k="addr:postcode" v="78735"/></node><node id="-58" lat="30.252833" lon="-97.892971" changeset="false"><tag k="addr:street" v="Sky Mountain Drive"/><tag k="addr:housenumber" v="8701"/><tag k="addr:postcode" v="78735"/></node><node id="-59" lat="30.244659" lon="-97.875553" changeset="false"><tag k="addr:street" v="Panorama Vista Drive"/><tag k="addr:housenumber" v="6217"/><tag k="addr:postcode" v="78735"/></node><node id="-60" lat="30.247579" lon="-97.866682" changeset="false"><tag k="addr:street" v="West William Cannon Drive"/><tag k="addr:housenumber" v="6941 1/2"/><tag k="addr:postcode" v="78735"/></node><node id="-61" lat="30.245785" lon="-97.880435" changeset="false"><tag k="addr:street" v="Big Horn Circle"/><tag k="addr:housenumber" v="6219"/><tag k="addr:postcode" v="78735"/></node><node id="-62" lat="30.244433" lon="-97.876225" changeset="false"><tag k="addr:street" v="Evening Sky Circle"/><tag k="addr:housenumber" v="7411"/><tag k="addr:postcode" v="78735"/></node><node id="-63" lat="30.245657" lon="-97.87509" changeset="false"><tag k="addr:street" v="Evening Sky Circle"/><tag k="addr:housenumber" v="7619"/><tag k="addr:postcode" v="78735"/></node><node id="-64" lat="30.244692" lon="-97.875698" changeset="false"><tag k="addr:street" v="Panorama Vista Drive"/><tag k="addr:housenumber" v="6219"/><tag k="addr:postcode" v="78735"/></node><node id="-65" lat="30.251449" lon="-97.885477" changeset="false"><tag k="addr:street" v="Cedar Elm Trail"/><tag k="addr:housenumber" v="8302"/><tag k="addr:postcode" v="78735"/></node><node id="-66" lat="30.250564" lon="-97.881929" changeset="false"><tag k="addr:street" v="Kidneywood Trail"/><tag k="addr:housenumber" v="6001"/><tag k="addr:postcode" v="78735"/></node><node id="-67" lat="30.250527" lon="-97.883132" changeset="false"><tag k="addr:street" v="Cedar Elm Trail"/><tag k="addr:housenumber" v="8018"/><tag k="addr:postcode" v="78735"/></node><node id="-68" lat="30.254914" lon="-97.88363" changeset="false"><tag k="addr:street" v="Cobblestone"/><tag k="addr:housenumber" v="8016"/><tag k="addr:postcode" v="78735"/></node><node id="-69" lat="30.254911" lon="-97.886921" changeset="false"><tag k="addr:street" v="Sunset Ridge"/><tag k="addr:housenumber" v="5904"/><tag k="addr:postcode" v="78735"/></node><node id="-70" lat="30.254728" lon="-97.883667" changeset="false"><tag k="addr:street" v="Cobblestone"/><tag k="addr:housenumber" v="8020"/><tag k="addr:postcode" v="78735"/></node><node id="-71" lat="30.257613" lon="-97.888718" changeset="false"><tag k="addr:street" v="Travis Cook Road"/><tag k="addr:housenumber" v="5701"/><tag k="addr:postcode" v="78735"/></node><node id="-72" lat="30.256911" lon="-97.887086" changeset="false"><tag k="addr:street" v="Cobblestone"/><tag k="addr:housenumber" v="8701"/><tag k="addr:postcode" v="78735"/></node><node id="-73" lat="30.250226" lon="-97.883032" changeset="false"><tag k="addr:street" v="Cedar Elm Trail"/><tag k="addr:housenumber" v="8015"/><tag k="addr:postcode" v="78735"/></node><node id="-74" lat="30.250411" lon="-97.885688" changeset="false"><tag k="addr:street" v="Cedar Elm Trail"/><tag k="addr:housenumber" v="8403"/><tag k="addr:postcode" v="78735"/></node><node id="-75" lat="30.254318" lon="-97.895999" changeset="false"><tag k="addr:street" v="Mountain Shadows Cove"/><tag k="addr:housenumber" v="8909"/><tag k="addr:postcode" v="78735"/></node><node id="-76" lat="30.256899" lon="-97.883069" changeset="false"><tag k="addr:street" v="Medicine Creek Drive"/><tag k="addr:housenumber" v="5601 1/2"/><tag k="addr:postcode" v="78735"/></node><node id="-77" lat="30.250179" lon="-97.885328" changeset="false"><tag k="addr:street" v="Shumard Oak Trail"/><tag k="addr:housenumber" v="6202"/><tag k="addr:postcode" v="78735"/></node><node id="-78" lat="30.24503" lon="-97.874394" changeset="false"><tag k="addr:street" v="Sunset Heights Circle"/><tag k="addr:housenumber" v="7320"/><tag k="addr:postcode" v="78735"/></node><node id="-79" lat="30.2452" lon="-97.873947" changeset="false"><tag k="addr:street" v="Sunset Heights Circle"/><tag k="addr:housenumber" v="7409"/><tag k="addr:postcode" v="78735"/></node><node id="-80" lat="30.24577" lon="-97.875972" changeset="false"><tag k="addr:street" v="Evening Sky Circle"/><tag k="addr:housenumber" v="7508"/><tag k="addr:postcode" v="78735"/></node><node id="-81" lat="30.242243" lon="-97.875725" changeset="false"><tag k="addr:street" v="Highland Bluff Cove"/><tag k="addr:housenumber" v="7317"/><tag k="addr:postcode" v="78735"/></node><node id="-82" lat="30.245003" lon="-97.873673" changeset="false"><tag k="addr:street" v="Sunset Heights Circle"/><tag k="addr:housenumber" v="7417"/><tag k="addr:postcode" v="78735"/></node><node id="-83" lat="30.247494" lon="-97.880886" changeset="false"><tag k="addr:street" v="Landscape Drive"/><tag k="addr:housenumber" v="6112"/><tag k="addr:postcode" v="78735"/></node><node id="-84" lat="30.248051" lon="-97.879701" changeset="false"><tag k="addr:street" v="Big Horn Circle"/><tag k="addr:housenumber" v="6103"/><tag k="addr:postcode" v="78735"/></node><node id="-85" lat="30.24761" lon="-97.88194" changeset="false"><tag k="addr:street" v="Homestead Trail"/><tag k="addr:housenumber" v="6202"/><tag k="addr:postcode" v="78735"/></node><node id="-86" lat="30.244585" lon="-97.876235" changeset="false"><tag k="addr:street" v="Evening Sky Circle"/><tag k="addr:housenumber" v="7417"/><tag k="addr:postcode" v="78735"/></node><node id="-87" lat="30.244896" lon="-97.876237" changeset="false"><tag k="addr:street" v="Evening Sky Circle"/><tag k="addr:housenumber" v="7425"/><tag k="addr:postcode" v="78735"/></node><node id="-88" lat="30.251459" lon="-97.874397" changeset="false"><tag k="addr:street" v="Menler Drive"/><tag k="addr:housenumber" v="7812 1/2"/><tag k="addr:postcode" v="78735"/></node><node id="-89" lat="30.25596" lon="-97.86825" changeset="false"><tag k="addr:street" v="Southwest Parkway"/><tag k="addr:housenumber" v="7415"/><tag k="addr:postcode" v="78735"/></node><node id="-90" lat="30.244057" lon="-97.874797" changeset="false"><tag k="addr:street" v="Aviara Drive"/><tag k="addr:housenumber" v="6219"/><tag k="addr:postcode" v="78735"/></node><node id="-91" lat="30.244022" lon="-97.873799" changeset="false"><tag k="addr:street" v="Sunset Heights Circle"/><tag k="addr:housenumber" v="7435"/><tag k="addr:postcode" v="78735"/></node><node id="-92" lat="30.244516" lon="-97.873528" changeset="false"><tag k="addr:street" v="Sunset Heights Circle"/><tag k="addr:housenumber" v="7427"/><tag k="addr:postcode" v="78735"/></node><node id="-93" lat="30.244104" lon="-97.875954" changeset="false"><tag k="addr:street" v="Evening Sky Circle"/><tag k="addr:housenumber" v="7403"/><tag k="addr:postcode" v="78735"/></node><node id="-94" lat="30.245044" lon="-97.876188" changeset="false"><tag k="addr:street" v="Evening Sky Circle"/><tag k="addr:housenumber" v="7427"/><tag k="addr:postcode" v="78735"/></node><node id="-95" lat="30.24562" lon="-97.876029" changeset="false"><tag k="addr:street" v="Evening Sky Circle"/><tag k="addr:housenumber" v="7502"/><tag k="addr:postcode" v="78735"/></node><node id="-96" lat="30.255093" lon="-97.894584" changeset="false"><tag k="addr:street" v="Mountain Shadows Drive"/><tag k="addr:housenumber" v="6200"/><tag k="addr:postcode" v="78735"/></node><node id="-97" lat="30.241864" lon="-97.86225" changeset="false"><tag k="addr:street" v="West William Cannon Drive"/><tag k="addr:housenumber" v="6615 1/2"/><tag k="addr:postcode" v="78735"/></node><node id="-98" lat="30.253353" lon="-97.873703" changeset="false"><tag k="addr:street" v="Rialto Boulevard"/><tag k="addr:housenumber" v="7615 1/2"/><tag k="addr:postcode" v="78735"/></node><node id="-99" lat="30.250648" lon="-97.884182" changeset="false"><tag k="addr:street" v="Oleander Trail"/><tag k="addr:housenumber" v="6100"/><tag k="addr:postcode" v="78735"/></node><node id="-100" lat="30.253286" lon="-97.875105" changeset="false"><tag k="addr:street" v="Rialto Boulevard"/><tag k="addr:housenumber" v="7701"/><tag k="addr:postcode" v="78735"/></node><node id="-101" lat="30.250559" lon="-97.868531" changeset="false"><tag k="addr:street" v="Rialto Boulevard"/><tag k="addr:housenumber" v="7259 1/2"/><tag k="addr:postcode" v="78735"/></node><node id="-102" lat="30.257073" lon="-97.88278" changeset="false"><tag k="addr:street" v="Fort Benton Drive"/><tag k="addr:housenumber" v="5400 1/2"/><tag k="addr:postcode" v="78735"/></node><node id="-103" lat="30.235642" lon="-97.86638" changeset="false"><tag k="addr:street" v="West William Cannon Drive"/><tag k="addr:housenumber" v="6501"/><tag k="addr:postcode" v="78735"/></node><node id="-104" lat="30.245372" lon="-97.879932" changeset="false"><tag k="addr:street" v="Big Horn Circle"/><tag k="addr:housenumber" v="6213"/><tag k="addr:postcode" v="78735"/></node><node id="-105" lat="30.247091" lon="-97.879237" changeset="false"><tag k="addr:street" v="Big Horn Circle"/><tag k="addr:housenumber" v="6112"/><tag k="addr:postcode" v="78735"/></node><node id="-106" lat="30.25458" lon="-97.883746" changeset="false"><tag k="addr:street" v="Cobblestone"/><tag k="addr:housenumber" v="8024"/><tag k="addr:postcode" v="78735"/></node><node id="-107" lat="30.254468" lon="-97.878528" changeset="false"><tag k="addr:street" v="Wier Hills Road"/><tag k="addr:housenumber" v="5319"/><tag k="addr:postcode" v="78735"/></node><node id="-108" lat="30.249033" lon="-97.885072" changeset="false"><tag k="addr:street" v="Oleander Trail"/><tag k="addr:housenumber" v="6209"/><tag k="addr:postcode" v="78735"/></node><node id="-109" lat="30.247438" lon="-97.882051" changeset="false"><tag k="addr:street" v="Homestead Trail"/><tag k="addr:housenumber" v="6204"/><tag k="addr:postcode" v="78735"/></node><node id="-110" lat="30.247407" lon="-97.878807" changeset="false"><tag k="addr:street" v="Big Horn Circle"/><tag k="addr:housenumber" v="6113"/><tag k="addr:postcode" v="78735"/></node><node id="-111" lat="30.24563" lon="-97.879264" changeset="false"><tag k="addr:street" v="Big Horn Circle"/><tag k="addr:housenumber" v="6211"/><tag k="addr:postcode" v="78735"/></node><node id="-112" lat="30.246939" lon="-97.874029" changeset="false"><tag k="addr:street" v="Journeyville Drive"/><tag k="addr:housenumber" v="7513"/><tag k="addr:postcode" v="78735"/></node><node id="-113" lat="30.242232" lon="-97.875878" changeset="false"><tag k="addr:street" v="Highland Bluff Cove"/><tag k="addr:housenumber" v="7321"/><tag k="addr:postcode" v="78735"/></node><node id="-114" lat="30.245955" lon="-97.87562" changeset="false"><tag k="addr:street" v="Evening Sky Circle"/><tag k="addr:housenumber" v="7600"/><tag k="addr:postcode" v="78735"/></node><node id="-115" lat="30.24573" lon="-97.875072" changeset="false"><tag k="addr:street" v="Evening Sky Circle"/><tag k="addr:housenumber" v="7617"/><tag k="addr:postcode" v="78735"/></node><node id="-116" lat="30.248489" lon="-97.880742" changeset="false"><tag k="addr:street" v="Homestead Trail"/><tag k="addr:housenumber" v="6103"/><tag k="addr:postcode" v="78735"/></node><node id="-117" lat="30.245343" lon="-97.874228" changeset="false"><tag k="addr:street" v="Sunset Heights Circle"/><tag k="addr:housenumber" v="7401"/><tag k="addr:postcode" v="78735"/></node><node id="-118" lat="30.246911" lon="-97.87917" changeset="false"><tag k="addr:street" v="Big Horn Circle"/><tag k="addr:housenumber" v="6114"/><tag k="addr:postcode" v="78735"/></node><node id="-119" lat="30.244006" lon="-97.875427" changeset="false"><tag k="addr:street" v="Aviara Drive"/><tag k="addr:housenumber" v="6235"/><tag k="addr:postcode" v="78735"/></node><node id="-120" lat="30.244909" lon="-97.873885" changeset="false"><tag k="addr:street" v="Sunset Heights Circle"/><tag k="addr:housenumber" v="7410"/><tag k="addr:postcode" v="78735"/></node><node id="-121" lat="30.245171" lon="-97.875779" changeset="false"><tag k="addr:street" v="Evening Sky Circle"/><tag k="addr:housenumber" v="7635"/><tag k="addr:postcode" v="78735"/></node><node id="-122" lat="30.245157" lon="-97.875993" changeset="false"><tag k="addr:street" v="Evening Sky Circle"/><tag k="addr:housenumber" v="7639"/><tag k="addr:postcode" v="78735"/></node><node id="-123" lat="30.254015" lon="-97.877924" changeset="false"><tag k="addr:street" v="Rialto Boulevard"/><tag k="addr:housenumber" v="7816"/><tag k="addr:postcode" v="78735"/></node><node id="-124" lat="30.244831" lon="-97.8752" changeset="false"><tag k="addr:street" v="Panorama Vista Drive"/><tag k="addr:housenumber" v="6209"/><tag k="addr:postcode" v="78735"/></node><node id="-125" lat="30.24468" lon="-97.87356" changeset="false"><tag k="addr:street" v="Sunset Heights Circle"/><tag k="addr:housenumber" v="7425"/><tag k="addr:postcode" v="78735"/></node><node id="-126" lat="30.24303" lon="-97.874034" changeset="false"><tag k="addr:street" v="Lookout Bluff Terrace"/><tag k="addr:housenumber" v="7201"/><tag k="addr:postcode" v="78735"/></node><node id="-127" lat="30.244236" lon="-97.875797" changeset="false"><tag k="addr:street" v="Evening Sky Circle"/><tag k="addr:housenumber" v="7404 1/2"/><tag k="addr:postcode" v="78735"/></node><node id="-128" lat="30.248703" lon="-97.881279" changeset="false"><tag k="addr:street" v="Homestead Trail"/><tag k="addr:housenumber" v="6102"/><tag k="addr:postcode" v="78735"/></node><node id="-129" lat="30.260387" lon="-97.884675" changeset="false"><tag k="addr:street" v="Southwest Parkway"/><tag k="addr:housenumber" v="8413"/><tag k="addr:postcode" v="78735"/></node><node id="-130" lat="30.250123" lon="-97.882382" changeset="false"><tag k="addr:street" v="Cedar Elm Trail"/><tag k="addr:housenumber" v="8006"/><tag k="addr:postcode" v="78735"/></node><node id="-131" lat="30.249953" lon="-97.886313" changeset="false"><tag k="addr:street" v="Cedar Elm Trail"/><tag k="addr:housenumber" v="8413"/><tag k="addr:postcode" v="78735"/></node><node id="-132" lat="30.252875" lon="-97.893562" changeset="false"><tag k="addr:street" v="Sky Mountain Drive"/><tag k="addr:housenumber" v="8705"/><tag k="addr:postcode" v="78735"/></node><node id="-133" lat="30.257142" lon="-97.889293" changeset="false"><tag k="addr:street" v="Travis Cook Road"/><tag k="addr:housenumber" v="5801"/><tag k="addr:postcode" v="78735"/></node><node id="-134" lat="30.246691" lon="-97.880564" changeset="false"><tag k="addr:street" v="Landscape Drive"/><tag k="addr:housenumber" v="6207"/><tag k="addr:postcode" v="78735"/></node><node id="-135" lat="30.258291" lon="-97.890708" changeset="false"><tag k="addr:street" v="Travis Hills Drive"/><tag k="addr:housenumber" v="8727"/><tag k="addr:postcode" v="78735"/></node><node id="-136" lat="30.255614" lon="-97.87823" changeset="false"><tag k="addr:street" v="Southwest Parkway"/><tag k="addr:housenumber" v="7801"/><tag k="addr:postcode" v="78735"/></node><node id="-137" lat="30.255362" lon="-97.883425" changeset="false"><tag k="addr:street" v="Cobblestone"/><tag k="addr:housenumber" v="8004"/><tag k="addr:postcode" v="78735"/></node><node id="-138" lat="30.247883" lon="-97.879341" changeset="false"><tag k="addr:street" v="Big Horn Circle"/><tag k="addr:housenumber" v="6107"/><tag k="addr:postcode" v="78735"/></node><node id="-139" lat="30.259301" lon="-97.883842" changeset="false"><tag k="addr:street" v="Southwest Parkway"/><tag k="addr:housenumber" v="8401"/><tag k="addr:postcode" v="78735"/></node><node id="-140" lat="30.255759" lon="-97.879201" changeset="false"><tag k="addr:street" v="Southwest Parkway"/><tag k="addr:housenumber" v="7901"/><tag k="addr:postcode" v="78735"/></node><node id="-141" lat="30.246113" lon="-97.880209" changeset="false"><tag k="addr:street" v="Big Horn Circle"/><tag k="addr:housenumber" v="6218"/><tag k="addr:postcode" v="78735"/></node><node id="-142" lat="30.254598" lon="-97.86608" changeset="false"><tag k="addr:street" v="Southwest Parkway"/><tag k="addr:housenumber" v="7401 1/2"/><tag k="addr:postcode" v="78735"/></node><node id="-143" lat="30.254843" lon="-97.891854" changeset="false"><tag k="addr:street" v="Mountain Crest Drive"/><tag k="addr:housenumber" v="8637"/><tag k="addr:postcode" v="78735"/></node><node id="-144" lat="30.254341" lon="-97.887499" changeset="false"><tag k="addr:street" v="Sunset Ridge"/><tag k="addr:housenumber" v="5917"/><tag k="addr:postcode" v="78735"/></node><node id="-145" lat="30.240874" lon="-97.874969" changeset="false"><tag k="addr:street" v="Rimcrest Cove"/><tag k="addr:housenumber" v="7305"/><tag k="addr:postcode" v="78735"/></node><node id="-146" lat="30.24512" lon="-97.875509" changeset="false"><tag k="addr:street" v="Evening Sky Circle"/><tag k="addr:housenumber" v="7633"/><tag k="addr:postcode" v="78735"/></node><node id="-147" lat="30.253662" lon="-97.89483" changeset="false"><tag k="addr:street" v="Mountain Shadows Drive"/><tag k="addr:housenumber" v="6211"/><tag k="addr:postcode" v="78735"/></node><node id="-148" lat="30.241964" lon="-97.875505" changeset="false"><tag k="addr:street" v="Morning Sunrise Cove"/><tag k="addr:housenumber" v="7312"/><tag k="addr:postcode" v="78735"/></node><node id="-149" lat="30.245096" lon="-97.875884" changeset="false"><tag k="addr:street" v="Evening Sky Circle"/><tag k="addr:housenumber" v="7637"/><tag k="addr:postcode" v="78735"/></node><node id="-150" lat="30.244016" lon="-97.875906" changeset="false"><tag k="addr:street" v="Evening Sky Circle"/><tag k="addr:housenumber" v="7401"/><tag k="addr:postcode" v="78735"/></node><node id="-151" lat="30.244277" lon="-97.876163" changeset="false"><tag k="addr:street" v="Evening Sky Circle"/><tag k="addr:housenumber" v="7409"/><tag k="addr:postcode" v="78735"/></node><node id="-152" lat="30.24328" lon="-97.875841" changeset="false"><tag k="addr:street" v="Lookout Bluff Terrace"/><tag k="addr:housenumber" v="7320"/><tag k="addr:postcode" v="78735"/></node><node id="-153" lat="30.241132" lon="-97.876074" changeset="false"><tag k="addr:street" v="Aviara Drive"/><tag k="addr:housenumber" v="6511"/><tag k="addr:postcode" v="78735"/></node><node id="-154" lat="30.241319" lon="-97.87606" changeset="false"><tag k="addr:street" v="Aviara Drive"/><tag k="addr:housenumber" v="6501 1/2"/><tag k="addr:postcode" v="78735"/></node><node id="-155" lat="30.260428" lon="-97.8888" changeset="false"><tag k="addr:street" v="Travis Cook Road"/><tag k="addr:housenumber" v="5414"/><tag k="addr:postcode" v="78735"/></node><node id="-156" lat="30.241273" lon="-97.874996" changeset="false"><tag k="addr:street" v="Rimcrest Cove"/><tag k="addr:housenumber" v="7308"/><tag k="addr:postcode" v="78735"/></node><node id="-157" lat="30.243888" lon="-97.874127" changeset="false"><tag k="addr:street" v="Aviara Drive"/><tag k="addr:housenumber" v="6203"/><tag k="addr:postcode" v="78735"/></node><node id="-158" lat="30.244941" lon="-97.87456" changeset="false"><tag k="addr:street" v="Sunset Heights Circle"/><tag k="addr:housenumber" v="7310"/><tag k="addr:postcode" v="78735"/></node><node id="-159" lat="30.244356" lon="-97.873914" changeset="false"><tag k="addr:street" v="Sunset Heights Circle"/><tag k="addr:housenumber" v="7430"/><tag k="addr:postcode" v="78735"/></node><node id="-160" lat="30.245137" lon="-97.873813" changeset="false"><tag k="addr:street" v="Sunset Heights Circle"/><tag k="addr:housenumber" v="7411"/><tag k="addr:postcode" v="78735"/></node><node id="-161" lat="30.245126" lon="-97.874294" changeset="false"><tag k="addr:street" v="Sunset Heights Circle"/><tag k="addr:housenumber" v="7322"/><tag k="addr:postcode" v="78735"/></node><node id="-162" lat="30.244713" lon="-97.874831" changeset="false"><tag k="addr:street" v="Sunset Heights Circle"/><tag k="addr:housenumber" v="7311"/><tag k="addr:postcode" v="78735"/></node><node id="-163" lat="30.245882" lon="-97.875939" changeset="false"><tag k="addr:street" v="Evening Sky Circle"/><tag k="addr:housenumber" v="7510"/><tag k="addr:postcode" v="78735"/></node><node id="-164" lat="30.245372" lon="-97.875209" changeset="false"><tag k="addr:street" v="Evening Sky Circle"/><tag k="addr:housenumber" v="7627"/><tag k="addr:postcode" v="78735"/></node><node id="-165" lat="30.244772" lon="-97.87526" changeset="false"><tag k="addr:street" v="Panorama Vista Drive"/><tag k="addr:housenumber" v="6211"/><tag k="addr:postcode" v="78735"/></node><node id="-166" lat="30.254651" lon="-97.887555" changeset="false"><tag k="addr:street" v="Sunset Ridge"/><tag k="addr:housenumber" v="5920 1/2"/><tag k="addr:postcode" v="78735"/></node><node id="-167" lat="30.24437" lon="-97.873589" changeset="false"><tag k="addr:street" v="Sunset Heights Circle"/><tag k="addr:housenumber" v="7429"/><tag k="addr:postcode" v="78735"/></node><node id="-168" lat="30.24467" lon="-97.873941" changeset="false"><tag k="addr:street" v="Sunset Heights Circle"/><tag k="addr:housenumber" v="7424"/><tag k="addr:postcode" v="78735"/></node><node id="-169" lat="30.241349" lon="-97.875647" changeset="false"><tag k="addr:street" v="Rimcrest Cove"/><tag k="addr:housenumber" v="7324"/><tag k="addr:postcode" v="78735"/></node><node id="-170" lat="30.240572" lon="-97.876719" changeset="false"><tag k="addr:street" v="Aviara Drive"/><tag k="addr:housenumber" v="6525 1/2"/><tag k="addr:postcode" v="78735"/></node><node id="-171" lat="30.244757" lon="-97.875934" changeset="false"><tag k="addr:street" v="Panorama Vista Drive"/><tag k="addr:housenumber" v="6227"/><tag k="addr:postcode" v="78735"/></node><node id="-172" lat="30.24863" lon="-97.88062" changeset="false"><tag k="addr:street" v="Homestead Trail"/><tag k="addr:housenumber" v="6101"/><tag k="addr:postcode" v="78735"/></node><node id="-173" lat="30.244033" lon="-97.874662" changeset="false"><tag k="addr:street" v="Aviara Drive"/><tag k="addr:housenumber" v="6217"/><tag k="addr:postcode" v="78735"/></node><node id="-174" lat="30.243945" lon="-97.874353" changeset="false"><tag k="addr:street" v="Aviara Drive"/><tag k="addr:housenumber" v="6209"/><tag k="addr:postcode" v="78735"/></node><node id="-175" lat="30.256774" lon="-97.870802" changeset="false"><tag k="addr:street" v="Southwest Parkway"/><tag k="addr:housenumber" v="7601"/><tag k="addr:postcode" v="78735"/></node><node id="-176" lat="30.24113" lon="-97.874725" changeset="false"><tag k="addr:street" v="Rimcrest Cove"/><tag k="addr:housenumber" v="7300"/><tag k="addr:postcode" v="78735"/></node><node id="-177" lat="30.241202" lon="-97.874861" changeset="false"><tag k="addr:street" v="Rimcrest Cove"/><tag k="addr:housenumber" v="7304"/><tag k="addr:postcode" v="78735"/></node><node id="-178" lat="30.241335" lon="-97.875353" changeset="false"><tag k="addr:street" v="Rimcrest Cove"/><tag k="addr:housenumber" v="7316"/><tag k="addr:postcode" v="78735"/></node><node id="-179" lat="30.243761" lon="-97.8761" changeset="false"><tag k="addr:street" v="Aviara Drive"/><tag k="addr:housenumber" v="6308"/><tag k="addr:postcode" v="78735"/></node><node id="-180" lat="30.243211" lon="-97.875384" changeset="false"><tag k="addr:street" v="Lookout Bluff Terrace"/><tag k="addr:housenumber" v="7309"/><tag k="addr:postcode" v="78735"/></node><node id="-181" lat="30.247772" lon="-97.876708" changeset="false"><tag k="addr:street" v="Kelsing Cove"/><tag k="addr:housenumber" v="6016"/><tag k="addr:postcode" v="78735"/></node><node id="-182" lat="30.246208" lon="-97.879256" changeset="false"><tag k="addr:street" v="Big Horn Circle"/><tag k="addr:housenumber" v="6202"/><tag k="addr:postcode" v="78735"/></node><node id="-183" lat="30.247415" lon="-97.879469" changeset="false"><tag k="addr:street" v="Big Horn Circle"/><tag k="addr:housenumber" v="6108"/><tag k="addr:postcode" v="78735"/></node><node id="-184" lat="30.24672" lon="-97.879111" changeset="false"><tag k="addr:street" v="Big Horn Circle"/><tag k="addr:housenumber" v="6116"/><tag k="addr:postcode" v="78735"/></node><node id="-185" lat="30.244598" lon="-97.873893" changeset="false"><tag k="addr:street" v="Sunset Heights Circle"/><tag k="addr:housenumber" v="7426"/><tag k="addr:postcode" v="78735"/></node><node id="-186" lat="30.245923" lon="-97.875468" changeset="false"><tag k="addr:street" v="Evening Sky Circle"/><tag k="addr:housenumber" v="7602"/><tag k="addr:postcode" v="78735"/></node><node id="-187" lat="30.24561" lon="-97.875395" changeset="false"><tag k="addr:street" v="Evening Sky Circle"/><tag k="addr:housenumber" v="7618"/><tag k="addr:postcode" v="78735"/></node><node id="-188" lat="30.24539" lon="-97.875757" changeset="false"><tag k="addr:street" v="Evening Sky Circle"/><tag k="addr:housenumber" v="7634"/><tag k="addr:postcode" v="78735"/></node><node id="-189" lat="30.253971" lon="-97.877592" changeset="false"><tag k="addr:street" v="Rialto Boulevard"/><tag k="addr:housenumber" v="7816 1/2"/><tag k="addr:postcode" v="78735"/></node><node id="-190" lat="30.24386" lon="-97.873971" changeset="false"><tag k="addr:street" v="Aviara Drive"/><tag k="addr:housenumber" v="6201"/><tag k="addr:postcode" v="78735"/></node><node id="-191" lat="30.243461" lon="-97.875494" changeset="false"><tag k="addr:street" v="Lookout Bluff Terrace"/><tag k="addr:housenumber" v="7312"/><tag k="addr:postcode" v="78735"/></node><node id="-192" lat="30.242573" lon="-97.875743" changeset="false"><tag k="addr:street" v="Highland Bluff Cove"/><tag k="addr:housenumber" v="7316"/><tag k="addr:postcode" v="78735"/></node><node id="-193" lat="30.247723" lon="-97.878024" changeset="false"><tag k="addr:street" v="Journeyville Drive"/><tag k="addr:housenumber" v="7725"/><tag k="addr:postcode" v="78735"/></node><node id="-194" lat="30.24543" lon="-97.875532" changeset="false"><tag k="addr:street" v="Evening Sky Circle"/><tag k="addr:housenumber" v="7632"/><tag k="addr:postcode" v="78735"/></node><node id="-195" lat="30.2457" lon="-97.8754" changeset="false"><tag k="addr:street" v="Evening Sky Circle"/><tag k="addr:housenumber" v="7616"/><tag k="addr:postcode" v="78735"/></node><node id="-196" lat="30.247787" lon="-97.881844" changeset="false"><tag k="addr:street" v="Homestead Trail"/><tag k="addr:housenumber" v="6200"/><tag k="addr:postcode" v="78735"/></node><node id="-197" lat="30.240835" lon="-97.876103" changeset="false"><tag k="addr:street" v="Aviara Drive"/><tag k="addr:housenumber" v="6515"/><tag k="addr:postcode" v="78735"/></node><node id="-198" lat="30.249625" lon="-97.871985" changeset="false"><tag k="addr:street" v="Bonniebrook Drive"/><tag k="addr:housenumber" v="7411 1/2"/><tag k="addr:postcode" v="78735"/></node><node id="-199" lat="30.245177" lon="-97.874643" changeset="false"><tag k="addr:street" v="Sunset Heights Circle"/><tag k="addr:housenumber" v="7321"/><tag k="addr:postcode" v="78735"/></node><node id="-200" lat="30.251369" lon="-97.879762" changeset="false"><tag k="addr:street" v="Leckrone Cove"/><tag k="addr:housenumber" v="5800"/><tag k="addr:postcode" v="78735"/></node><node id="-201" lat="30.249923" lon="-97.884176" changeset="false"><tag k="addr:street" v="Oleander Trail"/><tag k="addr:housenumber" v="6111"/><tag k="addr:postcode" v="78735"/></node><node id="-202" lat="30.242066" lon="-97.875092" changeset="false"><tag k="addr:street" v="Morning Sunrise Cove"/><tag k="addr:housenumber" v="7300"/><tag k="addr:postcode" v="78735"/></node><node id="-203" lat="30.256639" lon="-97.889804" changeset="false"><tag k="addr:street" v="Travis Cook Road"/><tag k="addr:housenumber" v="5809"/><tag k="addr:postcode" v="78735"/></node><node id="-204" lat="30.24963" lon="-97.875707" changeset="false"><tag k="addr:street" v="Kempson Drive"/><tag k="addr:housenumber" v="5804"/><tag k="addr:postcode" v="78735"/></node><node id="-205" lat="30.248156" lon="-97.880924" changeset="false"><tag k="addr:street" v="Homestead Trail"/><tag k="addr:housenumber" v="6107"/><tag k="addr:postcode" v="78735"/></node><node id="-206" lat="30.253333" lon="-97.885824" changeset="false"><tag k="addr:street" v="Cobblestone"/><tag k="addr:housenumber" v="8311"/><tag k="addr:postcode" v="78735"/></node><node id="-207" lat="30.253982" lon="-97.896091" changeset="false"><tag k="addr:street" v="Mountain Shadows Cove"/><tag k="addr:housenumber" v="8821"/><tag k="addr:postcode" v="78735"/></node><node id="-208" lat="30.258499" lon="-97.888097" changeset="false"><tag k="addr:street" v="Sunset Ridge"/><tag k="addr:housenumber" v="5501"/><tag k="addr:postcode" v="78735"/></node><node id="-209" lat="30.25632" lon="-97.882287" changeset="false"><tag k="addr:street" v="Cobblestone"/><tag k="addr:housenumber" v="7901"/><tag k="addr:postcode" v="78735"/></node><node id="-210" lat="30.250476" lon="-97.883004" changeset="false"><tag k="addr:street" v="Cedar Elm Trail"/><tag k="addr:housenumber" v="8016"/><tag k="addr:postcode" v="78735"/></node><node id="-211" lat="30.246053" lon="-97.879327" changeset="false"><tag k="addr:street" v="Big Horn Circle"/><tag k="addr:housenumber" v="6204"/><tag k="addr:postcode" v="78735"/></node><node id="-212" lat="30.254112" lon="-97.893482" changeset="false"><tag k="addr:street" v="Sky Mountain Drive"/><tag k="addr:housenumber" v="8800"/><tag k="addr:postcode" v="78735"/></node><node id="-213" lat="30.245024" lon="-97.879341" changeset="false"><tag k="addr:street" v="Iguana Circle"/><tag k="addr:housenumber" v="6207"/><tag k="addr:postcode" v="78735"/></node><node id="-214" lat="30.250156" lon="-97.867178" changeset="false"><tag k="addr:street" v="Rialto Boulevard"/><tag k="addr:housenumber" v="7206"/><tag k="addr:postcode" v="78735"/></node><node id="-215" lat="30.255038" lon="-97.88353" changeset="false"><tag k="addr:street" v="Cobblestone"/><tag k="addr:housenumber" v="8012"/><tag k="addr:postcode" v="78735"/></node><node id="-216" lat="30.24572" lon="-97.878855" changeset="false"><tag k="addr:street" v="Big Horn Circle"/><tag k="addr:housenumber" v="6207"/><tag k="addr:postcode" v="78735"/></node><node id="-217" lat="30.247502" lon="-97.874385" changeset="false"><tag k="addr:street" v="Journeyville Drive"/><tag k="addr:housenumber" v="7516"/><tag k="addr:postcode" v="78735"/></node><node id="-218" lat="30.247533" lon="-97.881363" changeset="false"><tag k="addr:street" v="Homestead Trail"/><tag k="addr:housenumber" v="6201"/><tag k="addr:postcode" v="78735"/></node><node id="-219" lat="30.247509" lon="-97.879631" changeset="false"><tag k="addr:street" v="Big Horn Circle"/><tag k="addr:housenumber" v="6106"/><tag k="addr:postcode" v="78735"/></node><node id="-220" lat="30.247272" lon="-97.87936" changeset="false"><tag k="addr:street" v="Big Horn Circle"/><tag k="addr:housenumber" v="6110"/><tag k="addr:postcode" v="78735"/></node><node id="-221" lat="30.254053" lon="-97.89502" changeset="false"><tag k="addr:street" v="Mountain Shadows Drive"/><tag k="addr:housenumber" v="6208"/><tag k="addr:postcode" v="78735"/></node><node id="-222" lat="30.246545" lon="-97.878423" changeset="false"><tag k="addr:street" v="Big Horn Circle"/><tag k="addr:housenumber" v="6119"/><tag k="addr:postcode" v="78735"/></node><node id="-223" lat="30.25386" lon="-97.89512" changeset="false"><tag k="addr:street" v="Mountain Shadows Drive"/><tag k="addr:housenumber" v="6210"/><tag k="addr:postcode" v="78735"/></node><node id="-224" lat="30.247788" lon="-97.879139" changeset="false"><tag k="addr:street" v="Big Horn Circle"/><tag k="addr:housenumber" v="6109"/><tag k="addr:postcode" v="78735"/></node><node id="-225" lat="30.246526" lon="-97.879061" changeset="false"><tag k="addr:street" v="Big Horn Circle"/><tag k="addr:housenumber" v="6118"/><tag k="addr:postcode" v="78735"/></node><node id="-226" lat="30.246176" lon="-97.878558" changeset="false"><tag k="addr:street" v="Big Horn Circle"/><tag k="addr:housenumber" v="6201"/><tag k="addr:postcode" v="78735"/></node><node id="-227" lat="30.245875" lon="-97.878752" changeset="false"><tag k="addr:street" v="Big Horn Circle"/><tag k="addr:housenumber" v="6205"/><tag k="addr:postcode" v="78735"/></node><node id="-228" lat="30.256816" lon="-97.889582" changeset="false"><tag k="addr:street" v="Travis Cook Road"/><tag k="addr:housenumber" v="5805"/><tag k="addr:postcode" v="78735"/></node><node id="-229" lat="30.256942" lon="-97.890201" changeset="false"><tag k="addr:street" v="Travis Cook Road"/><tag k="addr:housenumber" v="5802 1/2"/><tag k="addr:postcode" v="78735"/></node><node id="-230" lat="30.252861" lon="-97.870509" changeset="false"><tag k="addr:street" v="Rialto Boulevard"/><tag k="addr:housenumber" v="7500"/><tag k="addr:postcode" v="78735"/></node><node id="-231" lat="30.247664" lon="-97.87998" changeset="false"><tag k="addr:street" v="Big Horn Circle"/><tag k="addr:housenumber" v="6102"/><tag k="addr:postcode" v="78735"/></node><node id="-232" lat="30.25583" lon="-97.883236" changeset="false"><tag k="addr:street" v="Cobblestone"/><tag k="addr:housenumber" v="7920"/><tag k="addr:postcode" v="78735"/></node><node id="-233" lat="30.253878" lon="-97.896001" changeset="false"><tag k="addr:street" v="Mountain Shadows Cove"/><tag k="addr:housenumber" v="8817"/><tag k="addr:postcode" v="78735"/></node><node id="-234" lat="30.24636" lon="-97.87914" changeset="false"><tag k="addr:street" v="Big Horn Circle"/><tag k="addr:housenumber" v="6200"/><tag k="addr:postcode" v="78735"/></node><node id="-235" lat="30.248269" lon="-97.88805" changeset="false"><tag k="addr:street" v="Fletcher Lane"/><tag k="addr:housenumber" v="6400"/><tag k="addr:postcode" v="78735"/></node><node id="-236" lat="30.25747" lon="-97.882471" changeset="false"><tag k="addr:street" v="Belgrade Drive"/><tag k="addr:housenumber" v="5500"/><tag k="addr:postcode" v="78735"/></node><node id="-237" lat="30.249772" lon="-97.884301" changeset="false"><tag k="addr:street" v="Oleander Trail"/><tag k="addr:housenumber" v="6113"/><tag k="addr:postcode" v="78735"/></node><node id="-238" lat="30.256164" lon="-97.883098" changeset="false"><tag k="addr:street" v="Cobblestone"/><tag k="addr:housenumber" v="7912"/><tag k="addr:postcode" v="78735"/></node><node id="-239" lat="30.249346" lon="-97.884594" changeset="false"><tag k="addr:street" v="Oleander Trail"/><tag k="addr:housenumber" v="6205"/><tag k="addr:postcode" v="78735"/></node><node id="-240" lat="30.250248" lon="-97.886522" changeset="false"><tag k="addr:street" v="Cedar Elm Trail"/><tag k="addr:housenumber" v="8412"/><tag k="addr:postcode" v="78735"/></node><node id="-241" lat="30.255606" lon="-97.88054" changeset="false"><tag k="addr:street" v="Fort Benton Drive"/><tag k="addr:housenumber" v="5211"/><tag k="addr:postcode" v="78735"/></node><node id="-242" lat="30.253768" lon="-97.884278" changeset="false"><tag k="addr:street" v="Cobblestone"/><tag k="addr:housenumber" v="8120"/><tag k="addr:postcode" v="78735"/></node><node id="-243" lat="30.247358" lon="-97.880987" changeset="false"><tag k="addr:street" v="Landscape Drive"/><tag k="addr:housenumber" v="6200"/><tag k="addr:postcode" v="78735"/></node><node id="-244" lat="30.254105" lon="-97.886609" changeset="false"><tag k="addr:street" v="Sunset Ridge"/><tag k="addr:housenumber" v="5905"/><tag k="addr:postcode" v="78735"/></node><node id="-245" lat="30.254077" lon="-97.885417" changeset="false"><tag k="addr:street" v="Cobblestone"/><tag k="addr:housenumber" v="8306"/><tag k="addr:postcode" v="78735"/></node><node id="-246" lat="30.257796" lon="-97.889545" changeset="false"><tag k="addr:street" v="Travis Hills Drive"/><tag k="addr:housenumber" v="8725"/><tag k="addr:postcode" v="78735"/></node><node id="-247" lat="30.248324" lon="-97.880839" changeset="false"><tag k="addr:street" v="Homestead Trail"/><tag k="addr:housenumber" v="6105"/><tag k="addr:postcode" v="78735"/></node><node id="-248" lat="30.248101" lon="-97.882009" changeset="false"><tag k="addr:street" v="Wier Hills Road"/><tag k="addr:housenumber" v="6111"/><tag k="addr:postcode" v="78735"/></node><node id="-249" lat="30.247418" lon="-97.880265" changeset="false"><tag k="addr:street" v="Landscape Drive"/><tag k="addr:housenumber" v="6109"/><tag k="addr:postcode" v="78735"/></node><node id="-250" lat="30.254302" lon="-97.883888" changeset="false"><tag k="addr:street" v="Cobblestone"/><tag k="addr:housenumber" v="8104"/><tag k="addr:postcode" v="78735"/></node><node id="-251" lat="30.247825" lon="-97.881105" changeset="false"><tag k="addr:street" v="Homestead Trail"/><tag k="addr:housenumber" v="6111"/><tag k="addr:postcode" v="78735"/></node><node id="-252" lat="30.254217" lon="-97.896076" changeset="false"><tag k="addr:street" v="Mountain Shadows Cove"/><tag k="addr:housenumber" v="8905"/><tag k="addr:postcode" v="78735"/></node><node id="-253" lat="30.259537" lon="-97.888206" changeset="false"><tag k="addr:street" v="Travis Cook Road"/><tag k="addr:housenumber" v="5415"/><tag k="addr:postcode" v="78735"/></node><node id="-254" lat="30.257113" lon="-97.881949" changeset="false"><tag k="addr:street" v="Belgrade Drive"/><tag k="addr:housenumber" v="5501"/><tag k="addr:postcode" v="78735"/></node><node id="-255" lat="30.245438" lon="-97.875106" changeset="false"><tag k="addr:street" v="Evening Sky Circle"/><tag k="addr:housenumber" v="7625"/><tag k="addr:postcode" v="78735"/></node><node id="-256" lat="30.249673" lon="-97.872139" changeset="false"><tag k="addr:street" v="Bonniebrook Drive"/><tag k="addr:housenumber" v="7413"/><tag k="addr:postcode" v="78735"/></node><node id="-257" lat="30.244498" lon="-97.873938" changeset="false"><tag k="addr:street" v="Sunset Heights Circle"/><tag k="addr:housenumber" v="7428"/><tag k="addr:postcode" v="78735"/></node><node id="-258" lat="30.243136" lon="-97.875486" changeset="false"><tag k="addr:street" v="Lookout Bluff Terrace"/><tag k="addr:housenumber" v="7313"/><tag k="addr:postcode" v="78735"/></node><node id="-259" lat="30.257142" lon="-97.882731" changeset="false"><tag k="addr:street" v="Fort Benton Drive"/><tag k="addr:housenumber" v="5400"/><tag k="addr:postcode" v="78735"/></node><node id="-260" lat="30.256844" lon="-97.88299" changeset="false"><tag k="addr:street" v="Medicine Creek Drive"/><tag k="addr:housenumber" v="5601"/><tag k="addr:postcode" v="78735"/></node><node id="-261" lat="30.249376" lon="-97.875064" changeset="false"><tag k="addr:street" v="Kempson Drive"/><tag k="addr:housenumber" v="5805"/><tag k="addr:postcode" v="78735"/></node><node id="-262" lat="30.24945" lon="-97.875175" changeset="false"><tag k="addr:street" v="Kempson Drive"/><tag k="addr:housenumber" v="5805 1/2"/><tag k="addr:postcode" v="78735"/></node><node id="-263" lat="30.256288" lon="-97.893681" changeset="false"><tag k="addr:street" v="Mountain Crest Drive"/><tag k="addr:housenumber" v="8720"/><tag k="addr:postcode" v="78735"/></node><node id="-264" lat="30.256234" lon="-97.89373" changeset="false"><tag k="addr:street" v="Mountain Crest Drive"/><tag k="addr:housenumber" v="8740"/><tag k="addr:postcode" v="78735"/></node></osm>