<?xml version="1.0" encoding="UTF-8"?><osm version="0.6" generator="github.com/aaronlidman/osm-and-geojson"><node id="-1" lat="30.388897" lon="-97.664097" changeset="false"><tag k="addr:street" v="Trotwood Drive"/><tag k="addr:housenumber" v="12115"/><tag k="coa:place_id" v="61856"/></node><node id="-2" lat="30.386623" lon="-97.665525" changeset="false"><tag k="addr:street" v="Bodgers Drive"/><tag k="addr:housenumber" v="905"/><tag k="coa:place_id" v="231472"/></node><node id="-3" lat="30.392198" lon="-97.671022" changeset="false"><tag k="addr:street" v="North Interstate Highway 35 Svc Rd; I- 35 Service Road North"/><tag k="addr:housenumber" v="12121"/><tag k="coa:place_id" v="3350687"/></node><node id="-4" lat="30.395813" lon="-97.671386" changeset="false"><tag k="addr:street" v="North Interstate Highway 35 Svc Rd; I- 35 Service Road North"/><tag k="addr:housenumber" v="12205 1/2"/><tag k="coa:place_id" v="3156047"/></node><node id="-5" lat="30.391137" lon="-97.660949" changeset="false"><tag k="addr:street" v="East Yager Lane"/><tag k="addr:housenumber" v="1015"/><tag k="coa:place_id" v="206836"/></node><node id="-6" lat="30.387829" lon="-97.662191" changeset="false"><tag k="addr:street" v="Pyegrave Place"/><tag k="addr:housenumber" v="1007"/><tag k="coa:place_id" v="230626"/></node><node id="-7" lat="30.393266" lon="-97.662836" changeset="false"><tag k="addr:street" v="East Yager Lane"/><tag k="addr:housenumber" v="901"/><tag k="coa:place_id" v="3364954"/></node><node id="-8" lat="30.387888" lon="-97.662385" changeset="false"><tag k="addr:street" v="Pyegrave Place"/><tag k="addr:housenumber" v="1005"/><tag k="coa:place_id" v="230620"/></node><node id="-9" lat="30.386937" lon="-97.665812" changeset="false"><tag k="addr:street" v="Bodgers Drive"/><tag k="addr:housenumber" v="901"/><tag k="coa:place_id" v="61818"/></node></osm>