<?xml version="1.0" encoding="UTF-8"?><osm version="0.6" generator="github.com/aaronlidman/osm-and-geojson"><node id="-1" lat="30.359174" lon="-97.802467" changeset="false"><tag k="addr:street" v="West Courtyard Drive"/><tag k="addr:housenumber" v="6602"/><tag k="addr:postcode" v="78730"/></node><node id="-2" lat="30.358474" lon="-97.803631" changeset="false"><tag k="addr:street" v="West Courtyard Drive"/><tag k="addr:housenumber" v="6701"/><tag k="addr:postcode" v="78730"/></node><node id="-3" lat="30.374701" lon="-97.806282" changeset="false"><tag k="addr:street" v="Vaught Ranch Road"/><tag k="addr:housenumber" v="6622"/><tag k="addr:postcode" v="78730"/></node><node id="-4" lat="30.361027" lon="-97.810995" changeset="false"><tag k="addr:street" v="Bridge Point Parkway"/><tag k="addr:housenumber" v="7400"/><tag k="addr:postcode" v="78730"/></node><node id="-5" lat="30.344457" lon="-97.819961" changeset="false"><tag k="addr:street" v="Pearce Road"/><tag k="addr:housenumber" v="3808 1/2"/><tag k="addr:postcode" v="78730"/></node><node id="-6" lat="30.377899" lon="-97.80645" changeset="false"><tag k="addr:street" v="Ranch to Market Road 2222"/><tag k="addr:housenumber" v="7901"/><tag k="addr:postcode" v="78730"/></node><node id="-7" lat="30.369362" lon="-97.821249" changeset="false"><tag k="addr:street" v="Gibbs Hollow Cove"/><tag k="addr:housenumber" v="5800"/><tag k="addr:postcode" v="78730"/></node><node id="-8" lat="30.379506" lon="-97.813601" changeset="false"><tag k="addr:street" v="Cuesta Trail"/><tag k="addr:housenumber" v="6708"/><tag k="addr:postcode" v="78730"/></node><node id="-9" lat="30.379256" lon="-97.816544" changeset="false"><tag k="addr:street" v="Cuesta Trail"/><tag k="addr:housenumber" v="6608"/><tag k="addr:postcode" v="78730"/></node><node id="-10" lat="30.335566" lon="-97.821537" changeset="false"><tag k="addr:street" v="Encino Verde"/><tag k="addr:housenumber" v="3115"/><tag k="addr:postcode" v="78730"/></node><node id="-11" lat="30.327977" lon="-97.828935" changeset="false"><tag k="addr:street" v="Manana Street"/><tag k="addr:housenumber" v="2201"/><tag k="addr:postcode" v="78730"/></node><node id="-12" lat="30.365298" lon="-97.81529" changeset="false"><tag k="addr:street" v="Two Coves Drive"/><tag k="addr:housenumber" v="8003"/><tag k="addr:postcode" v="78730"/></node><node id="-13" lat="30.363557" lon="-97.820874" changeset="false"><tag k="addr:street" v="Two Coves Drive"/><tag k="addr:housenumber" v="8207"/><tag k="addr:postcode" v="78730"/></node><node id="-14" lat="30.359848" lon="-97.831625" changeset="false"><tag k="addr:street" v="City Park Road"/><tag k="addr:housenumber" v="4605"/><tag k="addr:postcode" v="78730"/></node><node id="-15" lat="30.357355" lon="-97.800883" changeset="false"><tag k="addr:street" v="West Courtyard Drive"/><tag k="addr:housenumber" v="6309"/><tag k="addr:postcode" v="78730"/></node><node id="-16" lat="30.378864" lon="-97.8148" changeset="false"><tag k="addr:street" v="Cuesta Trail"/><tag k="addr:housenumber" v="6701"/><tag k="addr:postcode" v="78730"/></node><node id="-17" lat="30.359636" lon="-97.800087" changeset="false"><tag k="addr:street" v="Long Champ Court"/><tag k="addr:housenumber" v="5801"/><tag k="addr:postcode" v="78730"/></node><node id="-18" lat="30.359189" lon="-97.802259" changeset="false"><tag k="addr:street" v="West Courtyard Drive"/><tag k="addr:housenumber" v="6600"/><tag k="addr:postcode" v="78730"/></node><node id="-19" lat="30.373219" lon="-97.822427" changeset="false"><tag k="addr:street" v="Maurys Trail"/><tag k="addr:housenumber" v="5917"/><tag k="addr:postcode" v="78730"/></node><node id="-20" lat="30.3634" lon="-97.805388" changeset="false"><tag k="addr:street" v="City Park Road"/><tag k="addr:housenumber" v="5807"/><tag k="addr:postcode" v="78730"/></node><node id="-21" lat="30.373901" lon="-97.806876" changeset="false"><tag k="addr:street" v="Vaught Ranch Road"/><tag k="addr:housenumber" v="6532"/><tag k="addr:postcode" v="78730"/></node><node id="-22" lat="30.378844" lon="-97.811989" changeset="false"><tag k="addr:street" v="Cuesta Trail"/><tag k="addr:housenumber" v="6716"/><tag k="addr:postcode" v="78730"/></node><node id="-23" lat="30.37418" lon="-97.809863" changeset="false"><tag k="addr:street" v="Long Canyon Drive"/><tag k="addr:housenumber" v="8012"/><tag k="addr:postcode" v="78730"/></node><node id="-24" lat="30.373558" lon="-97.811283" changeset="false"><tag k="addr:street" v="Long Canyon Drive"/><tag k="addr:housenumber" v="8026"/><tag k="addr:postcode" v="78730"/></node><node id="-25" lat="30.342551" lon="-97.82183" changeset="false"><tag k="addr:street" v="Pappys Way"/><tag k="addr:housenumber" v="3700"/><tag k="addr:postcode" v="78730"/></node><node id="-26" lat="30.340332" lon="-97.825296" changeset="false"><tag k="addr:street" v="Pearce Road"/><tag k="addr:housenumber" v="3308"/><tag k="addr:postcode" v="78730"/></node><node id="-27" lat="30.341156" lon="-97.823993" changeset="false"><tag k="addr:street" v="Pearce Road"/><tag k="addr:housenumber" v="3411"/><tag k="addr:postcode" v="78730"/></node><node id="-28" lat="30.359399" lon="-97.805526" changeset="false"><tag k="addr:street" v="West Courtyard Drive"/><tag k="addr:housenumber" v="6901"/><tag k="addr:postcode" v="78730"/></node><node id="-29" lat="30.359079" lon="-97.80504" changeset="false"><tag k="addr:street" v="West Courtyard Drive"/><tag k="addr:housenumber" v="6805"/><tag k="addr:postcode" v="78730"/></node><node id="-30" lat="30.35891" lon="-97.800654" changeset="false"><tag k="addr:street" v="Long Champ Court"/><tag k="addr:housenumber" v="5701"/><tag k="addr:postcode" v="78730"/></node><node id="-31" lat="30.358959" lon="-97.804815" changeset="false"><tag k="addr:street" v="West Courtyard Drive"/><tag k="addr:housenumber" v="6803"/><tag k="addr:postcode" v="78730"/></node><node id="-32" lat="30.357712" lon="-97.8013" changeset="false"><tag k="addr:street" v="West Courtyard Drive"/><tag k="addr:housenumber" v="6403"/><tag k="addr:postcode" v="78730"/></node><node id="-33" lat="30.35743" lon="-97.795659" changeset="false"><tag k="addr:street" v="Shepherd Mountain Cove"/><tag k="addr:housenumber" v="6001"/><tag k="addr:postcode" v="78730"/></node><node id="-34" lat="30.364469" lon="-97.820709" changeset="false"><tag k="addr:street" v="Two Coves Drive"/><tag k="addr:housenumber" v="8208"/><tag k="addr:postcode" v="78730"/></node><node id="-35" lat="30.362377" lon="-97.801305" changeset="false"><tag k="addr:street" v="Finklea Cove"/><tag k="addr:housenumber" v="6801"/><tag k="addr:postcode" v="78730"/></node><node id="-36" lat="30.362176" lon="-97.799471" changeset="false"><tag k="addr:street" v="Long Champ Court"/><tag k="addr:housenumber" v="5911"/><tag k="addr:postcode" v="78730"/></node><node id="-37" lat="30.37685" lon="-97.821227" changeset="false"><tag k="addr:street" v="Bell Mountain Drive"/><tag k="addr:housenumber" v="8801"/><tag k="addr:postcode" v="78730"/></node><node id="-38" lat="30.378692" lon="-97.823153" changeset="false"><tag k="addr:street" v="Culpepper Cove"/><tag k="addr:housenumber" v="6405"/><tag k="addr:postcode" v="78730"/></node><node id="-39" lat="30.339001" lon="-97.818134" changeset="false"><tag k="addr:street" v="Robbins Road"/><tag k="addr:housenumber" v="3501"/><tag k="addr:postcode" v="78730"/></node><node id="-40" lat="30.370772" lon="-97.817006" changeset="false"><tag k="addr:street" v="Long Canyon Drive"/><tag k="addr:housenumber" v="8309"/><tag k="addr:postcode" v="78730"/></node><node id="-41" lat="30.326017" lon="-97.833219" changeset="false"><tag k="addr:street" v="Manana Street"/><tag k="addr:housenumber" v="1712"/><tag k="addr:postcode" v="78730"/></node><node id="-42" lat="30.336156" lon="-97.824017" changeset="false"><tag k="addr:street" v="Pearce Road"/><tag k="addr:housenumber" v="3100"/><tag k="addr:postcode" v="78730"/></node><node id="-43" lat="30.328954" lon="-97.829132" changeset="false"><tag k="addr:street" v="Manana Street"/><tag k="addr:housenumber" v="2204"/><tag k="addr:postcode" v="78730"/></node><node id="-44" lat="30.329772" lon="-97.827558" changeset="false"><tag k="addr:street" v="Manana Street"/><tag k="addr:housenumber" v="2405"/><tag k="addr:postcode" v="78730"/></node><node id="-45" lat="30.32982" lon="-97.832256" changeset="false"><tag k="addr:street" v="Pearce Road"/><tag k="addr:housenumber" v="2457"/><tag k="addr:postcode" v="78730"/></node><node id="-46" lat="30.33045" lon="-97.830567" changeset="false"><tag k="addr:street" v="Pearce Road"/><tag k="addr:housenumber" v="2481"/><tag k="addr:postcode" v="78730"/></node><node id="-47" lat="30.379598" lon="-97.81436" changeset="false"><tag k="addr:street" v="Cuesta Trail"/><tag k="addr:housenumber" v="6704"/><tag k="addr:postcode" v="78730"/></node><node id="-48" lat="30.359031" lon="-97.811311" changeset="false"><tag k="addr:street" v="Bridge Point Parkway"/><tag k="addr:housenumber" v="7301"/><tag k="addr:postcode" v="78730"/></node><node id="-49" lat="30.339982" lon="-97.818182" changeset="false"><tag k="addr:street" v="Robbins Road"/><tag k="addr:housenumber" v="3510"/><tag k="addr:postcode" v="78730"/></node><node id="-50" lat="30.36093" lon="-97.799079" changeset="false"><tag k="addr:street" v="Long Champ Court"/><tag k="addr:housenumber" v="5901"/><tag k="addr:postcode" v="78730"/></node><node id="-51" lat="30.336072" lon="-97.822415" changeset="false"><tag k="addr:street" v="Frijolita"/><tag k="addr:housenumber" v="3109"/><tag k="addr:postcode" v="78730"/></node><node id="-52" lat="30.378699" lon="-97.809579" changeset="false"><tag k="addr:street" v="Cuesta Trail"/><tag k="addr:housenumber" v="6734"/><tag k="addr:postcode" v="78730"/></node><node id="-53" lat="30.357865" lon="-97.80151" changeset="false"><tag k="addr:street" v="West Courtyard Drive"/><tag k="addr:housenumber" v="6405"/><tag k="addr:postcode" v="78730"/></node><node id="-54" lat="30.335465" lon="-97.82138" changeset="false"><tag k="addr:street" v="Ski Shores Terrace"/><tag k="addr:housenumber" v="3125"/><tag k="addr:postcode" v="78730"/></node><node id="-55" lat="30.374958" lon="-97.824428" changeset="false"><tag k="addr:street" v="Maurys Trail"/><tag k="addr:housenumber" v="6101"/><tag k="addr:postcode" v="78730"/></node><node id="-56" lat="30.358281" lon="-97.803193" changeset="false"><tag k="addr:street" v="West Courtyard Drive"/><tag k="addr:housenumber" v="6609"/><tag k="addr:postcode" v="78730"/></node><node id="-57" lat="30.376944" lon="-97.809866" changeset="false"><tag k="addr:street" v="Peralto Cove"/><tag k="addr:housenumber" v="6608"/><tag k="addr:postcode" v="78730"/></node><node id="-58" lat="30.358223" lon="-97.801373" changeset="false"><tag k="addr:street" v="West Courtyard Drive"/><tag k="addr:housenumber" v="6501"/><tag k="addr:postcode" v="78730"/></node><node id="-59" lat="30.372679" lon="-97.82153" changeset="false"><tag k="addr:street" v="Maurys Trail"/><tag k="addr:housenumber" v="5909"/><tag k="addr:postcode" v="78730"/></node><node id="-60" lat="30.372473" lon="-97.813419" changeset="false"><tag k="addr:street" v="Long Canyon Drive"/><tag k="addr:housenumber" v="8112"/><tag k="addr:postcode" v="78730"/></node><node id="-61" lat="30.373255" lon="-97.808987" changeset="false"><tag k="addr:street" v="Long Canyon Drive"/><tag k="addr:housenumber" v="8017"/><tag k="addr:postcode" v="78730"/></node><node id="-62" lat="30.372039" lon="-97.816423" changeset="false"><tag k="addr:street" v="Long Canyon Drive"/><tag k="addr:housenumber" v="8302"/><tag k="addr:postcode" v="78730"/></node><node id="-63" lat="30.376086" lon="-97.824591" changeset="false"><tag k="addr:street" v="Maurys Trail"/><tag k="addr:housenumber" v="6201"/><tag k="addr:postcode" v="78730"/></node><node id="-64" lat="30.377723" lon="-97.821848" changeset="false"><tag k="addr:street" v="Bell Mountain Drive"/><tag k="addr:housenumber" v="8804"/><tag k="addr:postcode" v="78730"/></node><node id="-65" lat="30.36195" lon="-97.808051" changeset="false"><tag k="addr:street" v="Coldwater Mountain Court"/><tag k="addr:housenumber" v="7300"/><tag k="addr:postcode" v="78730"/></node><node id="-66" lat="30.338081" lon="-97.821056" changeset="false"><tag k="addr:street" v="Smoky Ridge"/><tag k="addr:housenumber" v="3214"/><tag k="addr:postcode" v="78730"/></node><node id="-67" lat="30.325338" lon="-97.833348" changeset="false"><tag k="addr:street" v="Manana Street"/><tag k="addr:housenumber" v="1707"/><tag k="addr:postcode" v="78730"/></node><node id="-68" lat="30.327732" lon="-97.838231" changeset="false"><tag k="addr:street" v="City Park Road"/><tag k="addr:housenumber" v="1706"/><tag k="addr:postcode" v="78730"/></node><node id="-69" lat="30.37346" lon="-97.806802" changeset="false"><tag k="addr:street" v="Vaught Ranch Road"/><tag k="addr:housenumber" v="6533"/><tag k="addr:postcode" v="78730"/></node><node id="-70" lat="30.336703" lon="-97.825233" changeset="false"><tag k="addr:street" v="Pearce Road"/><tag k="addr:housenumber" v="3110"/><tag k="addr:postcode" v="78730"/></node><node id="-71" lat="30.361951" lon="-97.795285" changeset="false"><tag k="addr:street" v="Ranch to Market Road 2222"/><tag k="addr:housenumber" v="6103"/><tag k="addr:postcode" v="78730"/></node><node id="-72" lat="30.378985" lon="-97.820246" changeset="false"><tag k="addr:street" v="Alasan Cove"/><tag k="addr:housenumber" v="6504"/><tag k="addr:postcode" v="78730"/></node><node id="-73" lat="30.376425" lon="-97.808959" changeset="false"><tag k="addr:street" v="Peralto Cove"/><tag k="addr:housenumber" v="6605"/><tag k="addr:postcode" v="78730"/></node><node id="-74" lat="30.370672" lon="-97.817944" changeset="false"><tag k="addr:street" v="Long Canyon Drive"/><tag k="addr:housenumber" v="8401"/><tag k="addr:postcode" v="78730"/></node><node id="-75" lat="30.373732" lon="-97.806556" changeset="false"><tag k="addr:street" v="Vaught Ranch Road"/><tag k="addr:housenumber" v="6601"/><tag k="addr:postcode" v="78730"/></node><node id="-76" lat="30.375347" lon="-97.82453" changeset="false"><tag k="addr:street" v="Maurys Trail"/><tag k="addr:housenumber" v="6105"/><tag k="addr:postcode" v="78730"/></node><node id="-77" lat="30.339384" lon="-97.817666" changeset="false"><tag k="addr:street" v="Robbins Road"/><tag k="addr:housenumber" v="3507"/><tag k="addr:postcode" v="78730"/></node><node id="-78" lat="30.331603" lon="-97.827991" changeset="false"><tag k="addr:street" v="Pearce Road"/><tag k="addr:housenumber" v="2520"/><tag k="addr:postcode" v="78730"/></node><node id="-79" lat="30.325812" lon="-97.83274" changeset="false"><tag k="addr:street" v="Manana Street"/><tag k="addr:housenumber" v="1809"/><tag k="addr:postcode" v="78730"/></node><node id="-80" lat="30.329638" lon="-97.82666" changeset="false"><tag k="addr:street" v="Tydings Cove"/><tag k="addr:housenumber" v="2501"/><tag k="addr:postcode" v="78730"/></node><node id="-81" lat="30.325657" lon="-97.835421" changeset="false"><tag k="addr:street" v="Manana Street"/><tag k="addr:housenumber" v="1608"/><tag k="addr:postcode" v="78730"/></node><node id="-82" lat="30.344214" lon="-97.817019" changeset="false"><tag k="addr:street" v="Greenshores Drive"/><tag k="addr:housenumber" v="7101 1/2"/><tag k="addr:postcode" v="78730"/></node><node id="-83" lat="30.352066" lon="-97.814543" changeset="false"><tag k="addr:street" v="Coldwater Canyon Drive"/><tag k="addr:housenumber" v="7362"/><tag k="addr:postcode" v="78730"/></node><node id="-84" lat="30.347371" lon="-97.818032" changeset="false"><tag k="addr:street" v="Pearce Road"/><tag k="addr:housenumber" v="4026"/><tag k="addr:postcode" v="78730"/></node><node id="-85" lat="30.365851" lon="-97.797872" changeset="false"><tag k="addr:street" v="City Park Road"/><tag k="addr:housenumber" v="6402"/><tag k="addr:postcode" v="78730"/></node><node id="-86" lat="30.362092" lon="-97.808409" changeset="false"><tag k="addr:street" v="Coldwater Mountain Court"/><tag k="addr:housenumber" v="7304"/><tag k="addr:postcode" v="78730"/></node><node id="-87" lat="30.35588" lon="-97.812286" changeset="false"><tag k="addr:street" v="Coldwater Canyon Drive"/><tag k="addr:housenumber" v="7334"/><tag k="addr:postcode" v="78730"/></node><node id="-88" lat="30.363757" lon="-97.814815" changeset="false"><tag k="addr:street" v="Two Coves Drive"/><tag k="addr:housenumber" v="8007"/><tag k="addr:postcode" v="78730"/></node><node id="-89" lat="30.352921" lon="-97.797723" changeset="false"><tag k="addr:street" v="West Courtyard Drive"/><tag k="addr:housenumber" v="5379"/><tag k="addr:postcode" v="78730"/></node><node id="-90" lat="30.36222" lon="-97.799901" changeset="false"><tag k="addr:street" v="Long Champ Court"/><tag k="addr:housenumber" v="5910"/><tag k="addr:postcode" v="78730"/></node><node id="-91" lat="30.340365" lon="-97.822213" changeset="false"><tag k="addr:street" v="Oak Shores Drive"/><tag k="addr:housenumber" v="7228 1/2"/><tag k="addr:postcode" v="78730"/></node><node id="-92" lat="30.380954" lon="-97.810691" changeset="false"><tag k="addr:street" v="Ranch to Market Road 2222"/><tag k="addr:housenumber" v="8401"/><tag k="addr:postcode" v="78730"/></node><node id="-93" lat="30.364332" lon="-97.830109" changeset="false"><tag k="addr:street" v="City Park Road"/><tag k="addr:housenumber" v="4912"/><tag k="addr:postcode" v="78730"/></node><node id="-94" lat="30.379593" lon="-97.815337" changeset="false"><tag k="addr:street" v="Cuesta Trail"/><tag k="addr:housenumber" v="6700"/><tag k="addr:postcode" v="78730"/></node><node id="-95" lat="30.378225" lon="-97.823139" changeset="false"><tag k="addr:street" v="Culpepper Cove"/><tag k="addr:housenumber" v="6401"/><tag k="addr:postcode" v="78730"/></node><node id="-96" lat="30.372297" lon="-97.821022" changeset="false"><tag k="addr:street" v="Maurys Trail"/><tag k="addr:housenumber" v="5905"/><tag k="addr:postcode" v="78730"/></node><node id="-97" lat="30.373412" lon="-97.822739" changeset="false"><tag k="addr:street" v="Maurys Trail"/><tag k="addr:housenumber" v="5921"/><tag k="addr:postcode" v="78730"/></node><node id="-98" lat="30.377552" lon="-97.8232" changeset="false"><tag k="addr:street" v="Bell Mountain Drive"/><tag k="addr:housenumber" v="8816"/><tag k="addr:postcode" v="78730"/></node><node id="-99" lat="30.361669" lon="-97.810504" changeset="false"><tag k="addr:street" v="Coldwater Mountain Court"/><tag k="addr:housenumber" v="7401 1/2"/><tag k="addr:postcode" v="78730"/></node><node id="-100" lat="30.334946" lon="-97.823182" changeset="false"><tag k="addr:street" v="Patio Circle"/><tag k="addr:housenumber" v="3002"/><tag k="addr:postcode" v="78730"/></node><node id="-101" lat="30.342026" lon="-97.823548" changeset="false"><tag k="addr:street" v="Oak Shores Drive"/><tag k="addr:housenumber" v="7424"/><tag k="addr:postcode" v="78730"/></node><node id="-102" lat="30.341098" lon="-97.81834" changeset="false"><tag k="addr:street" v="Oak Shores Drive"/><tag k="addr:housenumber" v="7000"/><tag k="addr:postcode" v="78730"/></node><node id="-103" lat="30.33204" lon="-97.824339" changeset="false"><tag k="addr:street" v="Pearce Road"/><tag k="addr:housenumber" v="2801"/><tag k="addr:postcode" v="78730"/></node><node id="-104" lat="30.324893" lon="-97.836911" changeset="false"><tag k="addr:street" v="Manana Street"/><tag k="addr:housenumber" v="1511"/><tag k="addr:postcode" v="78730"/></node><node id="-105" lat="30.347061" lon="-97.817518" changeset="false"><tag k="addr:street" v="Pearce Road"/><tag k="addr:housenumber" v="4027"/><tag k="addr:postcode" v="78730"/></node><node id="-106" lat="30.336532" lon="-97.820845" changeset="false"><tag k="addr:street" v="Smoky Ridge"/><tag k="addr:housenumber" v="3215"/><tag k="addr:postcode" v="78730"/></node><node id="-107" lat="30.381983" lon="-97.814388" changeset="false"><tag k="addr:street" v="Ranch to Market Road 2222"/><tag k="addr:housenumber" v="8601"/><tag k="addr:postcode" v="78730"/></node><node id="-108" lat="30.374817" lon="-97.818093" changeset="false"><tag k="addr:street" v="Bell Mountain Drive"/><tag k="addr:housenumber" v="8507"/><tag k="addr:postcode" v="78730"/></node><node id="-109" lat="30.358247" lon="-97.796338" changeset="false"><tag k="addr:street" v="Shepherd Mountain Cove"/><tag k="addr:housenumber" v="6000"/><tag k="addr:postcode" v="78730"/></node><node id="-110" lat="30.364355" lon="-97.81812" changeset="false"><tag k="addr:street" v="Two Coves Drive"/><tag k="addr:housenumber" v="8114"/><tag k="addr:postcode" v="78730"/></node><node id="-111" lat="30.364019" lon="-97.821149" changeset="false"><tag k="addr:street" v="Two Coves Drive"/><tag k="addr:housenumber" v="8209"/><tag k="addr:postcode" v="78730"/></node><node id="-112" lat="30.339707" lon="-97.824141" changeset="false"><tag k="addr:street" v="Pearce Road"/><tag k="addr:housenumber" v="3229"/><tag k="addr:postcode" v="78730"/></node><node id="-113" lat="30.37032" lon="-97.818661" changeset="false"><tag k="addr:street" v="Deep Spring Cove"/><tag k="addr:housenumber" v="5902"/><tag k="addr:postcode" v="78730"/></node><node id="-114" lat="30.361421" lon="-97.811093" changeset="false"><tag k="addr:street" v="Bridge Point Parkway"/><tag k="addr:housenumber" v="7418"/><tag k="addr:postcode" v="78730"/></node><node id="-115" lat="30.360745" lon="-97.800123" changeset="false"><tag k="addr:street" v="Long Champ Court"/><tag k="addr:housenumber" v="5810"/><tag k="addr:postcode" v="78730"/></node><node id="-116" lat="30.354045" lon="-97.813364" changeset="false"><tag k="addr:street" v="Coldwater Canyon Drive"/><tag k="addr:housenumber" v="7358"/><tag k="addr:postcode" v="78730"/></node><node id="-117" lat="30.378953" lon="-97.820847" changeset="false"><tag k="addr:street" v="Alasan Cove"/><tag k="addr:housenumber" v="6502"/><tag k="addr:postcode" v="78730"/></node><node id="-118" lat="30.378927" lon="-97.819553" changeset="false"><tag k="addr:street" v="Alasan Cove"/><tag k="addr:housenumber" v="6505"/><tag k="addr:postcode" v="78730"/></node><node id="-119" lat="30.378108" lon="-97.821241" changeset="false"><tag k="addr:street" v="Alasan Cove"/><tag k="addr:housenumber" v="6404"/><tag k="addr:postcode" v="78730"/></node><node id="-120" lat="30.339888" lon="-97.822848" changeset="false"><tag k="addr:street" v="Oak Shores Drive"/><tag k="addr:housenumber" v="7301"/><tag k="addr:postcode" v="78730"/></node><node id="-121" lat="30.342584" lon="-97.820542" changeset="false"><tag k="addr:street" v="Pappys Way"/><tag k="addr:housenumber" v="3717"/><tag k="addr:postcode" v="78730"/></node><node id="-122" lat="30.341564" lon="-97.823111" changeset="false"><tag k="addr:street" v="Oak Shores Drive"/><tag k="addr:housenumber" v="7416"/><tag k="addr:postcode" v="78730"/></node><node id="-123" lat="30.34093" lon="-97.825207" changeset="false"><tag k="addr:street" v="Pearce Road"/><tag k="addr:housenumber" v="3324"/><tag k="addr:postcode" v="78730"/></node><node id="-124" lat="30.362643" lon="-97.803197" changeset="false"><tag k="addr:street" v="Finklea Cove"/><tag k="addr:housenumber" v="6820"/><tag k="addr:postcode" v="78730"/></node><node id="-125" lat="30.331247" lon="-97.825252" changeset="false"><tag k="addr:street" v="Pearce Road"/><tag k="addr:housenumber" v="2701"/><tag k="addr:postcode" v="78730"/></node><node id="-126" lat="30.329583" lon="-97.828624" changeset="false"><tag k="addr:street" v="Manana Street"/><tag k="addr:housenumber" v="2306"/><tag k="addr:postcode" v="78730"/></node><node id="-127" lat="30.331551" lon="-97.833207" changeset="false"><tag k="addr:street" v="Pearce Road"/><tag k="addr:housenumber" v="2422"/><tag k="addr:postcode" v="78730"/></node><node id="-128" lat="30.331432" lon="-97.833244" changeset="false"><tag k="addr:street" v="Pearce Road"/><tag k="addr:housenumber" v="2424"/><tag k="addr:postcode" v="78730"/></node><node id="-129" lat="30.32518" lon="-97.833922" changeset="false"><tag k="addr:street" v="Manana Street"/><tag k="addr:housenumber" v="1703"/><tag k="addr:postcode" v="78730"/></node><node id="-130" lat="30.375405" lon="-97.805935" changeset="false"><tag k="addr:street" v="Vaught Ranch Road"/><tag k="addr:housenumber" v="6720"/><tag k="addr:postcode" v="78730"/></node><node id="-131" lat="30.33062" lon="-97.830051" changeset="false"><tag k="addr:street" v="Pearce Road"/><tag k="addr:housenumber" v="2501"/><tag k="addr:postcode" v="78730"/></node><node id="-132" lat="30.361304" lon="-97.802119" changeset="false"><tag k="addr:street" v="Kaelan Cove"/><tag k="addr:housenumber" v="5803"/><tag k="addr:postcode" v="78730"/></node><node id="-133" lat="30.360188" lon="-97.805327" changeset="false"><tag k="addr:street" v="West Courtyard Drive"/><tag k="addr:housenumber" v="6910"/><tag k="addr:postcode" v="78730"/></node><node id="-134" lat="30.359018" lon="-97.801356" changeset="false"><tag k="addr:street" v="West Courtyard Drive"/><tag k="addr:housenumber" v="6504"/><tag k="addr:postcode" v="78730"/></node><node id="-135" lat="30.341322" lon="-97.822949" changeset="false"><tag k="addr:street" v="Oak Shores Drive"/><tag k="addr:housenumber" v="7412"/><tag k="addr:postcode" v="78730"/></node><node id="-136" lat="30.35828" lon="-97.801769" changeset="false"><tag k="addr:street" v="West Courtyard Drive"/><tag k="addr:housenumber" v="6507"/><tag k="addr:postcode" v="78730"/></node><node id="-137" lat="30.373062" lon="-97.807846" changeset="false"><tag k="addr:street" v="Vaught Ranch Road"/><tag k="addr:housenumber" v="6500 1/2"/><tag k="addr:postcode" v="78730"/></node><node id="-138" lat="30.379811" lon="-97.808303" changeset="false"><tag k="addr:street" v="Ranch to Market Road 2222"/><tag k="addr:housenumber" v="8109"/><tag k="addr:postcode" v="78730"/></node><node id="-139" lat="30.359201" lon="-97.801338" changeset="false"><tag k="addr:street" v="Long Champ Court"/><tag k="addr:housenumber" v="5702"/><tag k="addr:postcode" v="78730"/></node><node id="-140" lat="30.373067" lon="-97.817911" changeset="false"><tag k="addr:street" v="Lost Trail Cove"/><tag k="addr:housenumber" v="6007"/><tag k="addr:postcode" v="78730"/></node><node id="-141" lat="30.377604" lon="-97.822749" changeset="false"><tag k="addr:street" v="Bell Mountain Drive"/><tag k="addr:housenumber" v="8812"/><tag k="addr:postcode" v="78730"/></node><node id="-142" lat="30.36268" lon="-97.80343" changeset="false"><tag k="addr:street" v="Finklea Cove"/><tag k="addr:housenumber" v="6900"/><tag k="addr:postcode" v="78730"/></node><node id="-143" lat="30.361974" lon="-97.799163" changeset="false"><tag k="addr:street" v="Long Champ Court"/><tag k="addr:housenumber" v="5909"/><tag k="addr:postcode" v="78730"/></node><node id="-144" lat="30.361695" lon="-97.79908" changeset="false"><tag k="addr:street" v="Long Champ Court"/><tag k="addr:housenumber" v="5907"/><tag k="addr:postcode" v="78730"/></node><node id="-145" lat="30.360982" lon="-97.800288" changeset="false"><tag k="addr:street" v="Long Champ Court"/><tag k="addr:housenumber" v="5900"/><tag k="addr:postcode" v="78730"/></node><node id="-146" lat="30.34415" lon="-97.823591" changeset="false"><tag k="addr:street" v="Pearce Road"/><tag k="addr:housenumber" v="3612"/><tag k="addr:postcode" v="78730"/></node><node id="-147" lat="30.34123" lon="-97.823327" changeset="false"><tag k="addr:street" v="Oak Shores Drive"/><tag k="addr:housenumber" v="7408"/><tag k="addr:postcode" v="78730"/></node><node id="-148" lat="30.332441" lon="-97.823734" changeset="false"><tag k="addr:street" v="Pearce Road"/><tag k="addr:housenumber" v="2805 1/2"/><tag k="addr:postcode" v="78730"/></node><node id="-149" lat="30.340139" lon="-97.823192" changeset="false"><tag k="addr:street" v="Oak Shores Drive"/><tag k="addr:housenumber" v="7307"/><tag k="addr:postcode" v="78730"/></node><node id="-150" lat="30.358185" lon="-97.801978" changeset="false"><tag k="addr:street" v="West Courtyard Drive"/><tag k="addr:housenumber" v="6601"/><tag k="addr:postcode" v="78730"/></node><node id="-151" lat="30.336396" lon="-97.822781" changeset="false"><tag k="addr:street" v="Frijolita"/><tag k="addr:housenumber" v="3106"/><tag k="addr:postcode" v="78730"/></node><node id="-152" lat="30.336347" lon="-97.823902" changeset="false"><tag k="addr:street" v="Pearce Road"/><tag k="addr:housenumber" v="3106"/><tag k="addr:postcode" v="78730"/></node><node id="-153" lat="30.378851" lon="-97.823539" changeset="false"><tag k="addr:street" v="Culpepper Cove"/><tag k="addr:housenumber" v="6407"/><tag k="addr:postcode" v="78730"/></node><node id="-154" lat="30.374321" lon="-97.82407" changeset="false"><tag k="addr:street" v="Maurys Trail"/><tag k="addr:housenumber" v="6009"/><tag k="addr:postcode" v="78730"/></node><node id="-155" lat="30.37379" lon="-97.823526" changeset="false"><tag k="addr:street" v="Maurys Trail"/><tag k="addr:housenumber" v="6001"/><tag k="addr:postcode" v="78730"/></node><node id="-156" lat="30.373578" lon="-97.823206" changeset="false"><tag k="addr:street" v="Maurys Trail"/><tag k="addr:housenumber" v="5925"/><tag k="addr:postcode" v="78730"/></node><node id="-157" lat="30.345196" lon="-97.818913" changeset="false"><tag k="addr:street" v="Pearce Road"/><tag k="addr:housenumber" v="3900"/><tag k="addr:postcode" v="78730"/></node><node id="-158" lat="30.37639" lon="-97.820444" changeset="false"><tag k="addr:street" v="Bell Mountain Drive"/><tag k="addr:housenumber" v="8701"/><tag k="addr:postcode" v="78730"/></node><node id="-159" lat="30.339189" lon="-97.823525" changeset="false"><tag k="addr:street" v="Pearce Road"/><tag k="addr:housenumber" v="3221"/><tag k="addr:postcode" v="78730"/></node><node id="-160" lat="30.336379" lon="-97.822465" changeset="false"><tag k="addr:street" v="Frijolita"/><tag k="addr:housenumber" v="3108"/><tag k="addr:postcode" v="78730"/></node><node id="-161" lat="30.338296" lon="-97.821462" changeset="false"><tag k="addr:street" v="Bowditch Drive"/><tag k="addr:housenumber" v="7100"/><tag k="addr:postcode" v="78730"/></node><node id="-162" lat="30.340344" lon="-97.825598" changeset="false"><tag k="addr:street" v="Pearce Road"/><tag k="addr:housenumber" v="3312"/><tag k="addr:postcode" v="78730"/></node><node id="-163" lat="30.344175" lon="-97.823152" changeset="false"><tag k="addr:street" v="Pearce Road"/><tag k="addr:housenumber" v="3620"/><tag k="addr:postcode" v="78730"/></node><node id="-164" lat="30.348651" lon="-97.818157" changeset="false"><tag k="addr:street" v="Pearce Road"/><tag k="addr:housenumber" v="4019"/><tag k="addr:postcode" v="78730"/></node><node id="-165" lat="30.343523" lon="-97.824069" changeset="false"><tag k="addr:street" v="Pearce Road"/><tag k="addr:housenumber" v="3600"/><tag k="addr:postcode" v="78730"/></node><node id="-166" lat="30.361385" lon="-97.800492" changeset="false"><tag k="addr:street" v="Long Champ Court"/><tag k="addr:housenumber" v="5904"/><tag k="addr:postcode" v="78730"/></node><node id="-167" lat="30.361194" lon="-97.800427" changeset="false"><tag k="addr:street" v="Long Champ Court"/><tag k="addr:housenumber" v="5902"/><tag k="addr:postcode" v="78730"/></node><node id="-168" lat="30.37285" lon="-97.807896" changeset="false"><tag k="addr:street" v="Vaught Ranch Road"/><tag k="addr:housenumber" v="6500"/><tag k="addr:postcode" v="78730"/></node><node id="-169" lat="30.364253" lon="-97.816974" changeset="false"><tag k="addr:street" v="Two Coves Drive"/><tag k="addr:housenumber" v="8111"/><tag k="addr:postcode" v="78730"/></node><node id="-170" lat="30.330385" lon="-97.831198" changeset="false"><tag k="addr:street" v="Pearce Road"/><tag k="addr:housenumber" v="2473"/><tag k="addr:postcode" v="78730"/></node><node id="-171" lat="30.330829" lon="-97.829578" changeset="false"><tag k="addr:street" v="Pearce Road"/><tag k="addr:housenumber" v="2509"/><tag k="addr:postcode" v="78730"/></node><node id="-172" lat="30.374035" lon="-97.82381" changeset="false"><tag k="addr:street" v="Maurys Trail"/><tag k="addr:housenumber" v="6005"/><tag k="addr:postcode" v="78730"/></node><node id="-173" lat="30.326587" lon="-97.83065" changeset="false"><tag k="addr:street" v="Manana Street"/><tag k="addr:housenumber" v="2003"/><tag k="addr:postcode" v="78730"/></node><node id="-174" lat="30.374449" lon="-97.808018" changeset="false"><tag k="addr:street" v="Entrada Cove"/><tag k="addr:housenumber" v="7907"/><tag k="addr:postcode" v="78730"/></node><node id="-175" lat="30.364099" lon="-97.807136" changeset="false"><tag k="addr:street" v="City Park Road"/><tag k="addr:housenumber" v="5716 1/2"/><tag k="addr:postcode" v="78730"/></node><node id="-176" lat="30.375428" lon="-97.813756" changeset="false"><tag k="addr:street" v="Bell Mountain Drive"/><tag k="addr:housenumber" v="8307"/><tag k="addr:postcode" v="78730"/></node><node id="-177" lat="30.369678" lon="-97.819857" changeset="false"><tag k="addr:street" v="Deep Spring Cove"/><tag k="addr:housenumber" v="5901"/><tag k="addr:postcode" v="78730"/></node><node id="-178" lat="30.339375" lon="-97.817954" changeset="false"><tag k="addr:street" v="Robbins Road"/><tag k="addr:housenumber" v="3505"/><tag k="addr:postcode" v="78730"/></node><node id="-179" lat="30.343152" lon="-97.826867" changeset="false"><tag k="addr:street" v="Oak Shores Drive"/><tag k="addr:housenumber" v="7624"/><tag k="addr:postcode" v="78730"/></node><node id="-180" lat="30.357876" lon="-97.832583" changeset="false"><tag k="addr:street" v="City Park Road"/><tag k="addr:housenumber" v="4401"/><tag k="addr:postcode" v="78730"/></node><node id="-181" lat="30.341715" lon="-97.823731" changeset="false"><tag k="addr:street" v="Oak Shores Drive"/><tag k="addr:housenumber" v="7428"/><tag k="addr:postcode" v="78730"/></node><node id="-182" lat="30.34052" lon="-97.822407" changeset="false"><tag k="addr:street" v="Oak Shores Drive"/><tag k="addr:housenumber" v="7228"/><tag k="addr:postcode" v="78730"/></node><node id="-183" lat="30.35537" lon="-97.811632" changeset="false"><tag k="addr:street" v="Coldwater Canyon Drive"/><tag k="addr:housenumber" v="7401"/><tag k="addr:postcode" v="78730"/></node><node id="-184" lat="30.362014" lon="-97.80937" changeset="false"><tag k="addr:street" v="Coldwater Mountain Court"/><tag k="addr:housenumber" v="7320"/><tag k="addr:postcode" v="78730"/></node><node id="-185" lat="30.361845" lon="-97.802899" changeset="false"><tag k="addr:street" v="Kaelan Cove"/><tag k="addr:housenumber" v="5806"/><tag k="addr:postcode" v="78730"/></node><node id="-186" lat="30.361724" lon="-97.803633" changeset="false"><tag k="addr:street" v="Finklea Cove"/><tag k="addr:housenumber" v="6819"/><tag k="addr:postcode" v="78730"/></node><node id="-187" lat="30.343326" lon="-97.815136" changeset="false"><tag k="addr:street" v="Greenshores Drive"/><tag k="addr:housenumber" v="6901"/><tag k="addr:postcode" v="78730"/></node><node id="-188" lat="30.368648" lon="-97.823587" changeset="false"><tag k="addr:street" v="Standing Rock Drive"/><tag k="addr:housenumber" v="5600"/><tag k="addr:postcode" v="78730"/></node><node id="-189" lat="30.370238" lon="-97.822276" changeset="false"><tag k="addr:street" v="Long Canyon Drive"/><tag k="addr:housenumber" v="8603"/><tag k="addr:postcode" v="78730"/></node><node id="-190" lat="30.358825" lon="-97.804568" changeset="false"><tag k="addr:street" v="West Courtyard Drive"/><tag k="addr:housenumber" v="6801"/><tag k="addr:postcode" v="78730"/></node><node id="-191" lat="30.338548" lon="-97.822571" changeset="false"><tag k="addr:street" v="Bowditch Drive"/><tag k="addr:housenumber" v="7112"/><tag k="addr:postcode" v="78730"/></node><node id="-192" lat="30.365078" lon="-97.817516" changeset="false"><tag k="addr:street" v="Two Coves Drive"/><tag k="addr:housenumber" v="8110"/><tag k="addr:postcode" v="78730"/></node><node id="-193" lat="30.377898" lon="-97.818133" changeset="false"><tag k="addr:street" v="Cuesta Trail"/><tag k="addr:housenumber" v="6504"/><tag k="addr:postcode" v="78730"/></node><node id="-194" lat="30.376861" lon="-97.82361" changeset="false"><tag k="addr:street" v="Bell Mountain Drive"/><tag k="addr:housenumber" v="8901"/><tag k="addr:postcode" v="78730"/></node><node id="-195" lat="30.339386" lon="-97.823897" changeset="false"><tag k="addr:street" v="Pearce Road"/><tag k="addr:housenumber" v="3225"/><tag k="addr:postcode" v="78730"/></node><node id="-196" lat="30.371012" lon="-97.818193" changeset="false"><tag k="addr:street" v="Long Canyon Drive"/><tag k="addr:housenumber" v="8405"/><tag k="addr:postcode" v="78730"/></node><node id="-197" lat="30.370682" lon="-97.817473" changeset="false"><tag k="addr:street" v="Long Canyon Drive"/><tag k="addr:housenumber" v="8313"/><tag k="addr:postcode" v="78730"/></node><node id="-198" lat="30.338378" lon="-97.822" changeset="false"><tag k="addr:street" v="Bowditch Drive"/><tag k="addr:housenumber" v="7104"/><tag k="addr:postcode" v="78730"/></node><node id="-199" lat="30.353557" lon="-97.810229" changeset="false"><tag k="addr:street" v="Coldwater Canyon Drive"/><tag k="addr:housenumber" v="7400"/><tag k="addr:postcode" v="78730"/></node><node id="-200" lat="30.33793" lon="-97.824578" changeset="false"><tag k="addr:street" v="Pearce Road"/><tag k="addr:housenumber" v="3208"/><tag k="addr:postcode" v="78730"/></node><node id="-201" lat="30.336687" lon="-97.82162" changeset="false"><tag k="addr:street" v="Smoky Ridge"/><tag k="addr:housenumber" v="3211"/><tag k="addr:postcode" v="78730"/></node><node id="-202" lat="30.366267" lon="-97.815033" changeset="false"><tag k="addr:street" v="Two Coves Drive"/><tag k="addr:housenumber" v="8000"/><tag k="addr:postcode" v="78730"/></node><node id="-203" lat="30.365711" lon="-97.816861" changeset="false"><tag k="addr:street" v="Two Coves Drive"/><tag k="addr:housenumber" v="8102"/><tag k="addr:postcode" v="78730"/></node><node id="-204" lat="30.363925" lon="-97.81902" changeset="false"><tag k="addr:street" v="Two Coves Drive"/><tag k="addr:housenumber" v="8120"/><tag k="addr:postcode" v="78730"/></node><node id="-205" lat="30.344259" lon="-97.820245" changeset="false"><tag k="addr:street" v="Pearce Road"/><tag k="addr:housenumber" v="3804"/><tag k="addr:postcode" v="78730"/></node><node id="-206" lat="30.33975" lon="-97.817692" changeset="false"><tag k="addr:street" v="Robbins Road"/><tag k="addr:housenumber" v="3509"/><tag k="addr:postcode" v="78730"/></node><node id="-207" lat="30.338778" lon="-97.823039" changeset="false"><tag k="addr:street" v="Bowditch Drive"/><tag k="addr:housenumber" v="7200"/><tag k="addr:postcode" v="78730"/></node><node id="-208" lat="30.343253" lon="-97.818444" changeset="false"><tag k="addr:street" v="Barefoot Cove"/><tag k="addr:housenumber" v="7109"/><tag k="addr:postcode" v="78730"/></node><node id="-209" lat="30.342547" lon="-97.827025" changeset="false"><tag k="addr:street" v="Oak Shores Drive"/><tag k="addr:housenumber" v="7625"/><tag k="addr:postcode" v="78730"/></node><node id="-210" lat="30.376629" lon="-97.822971" changeset="false"><tag k="addr:street" v="Bell Mountain Drive"/><tag k="addr:housenumber" v="8817"/><tag k="addr:postcode" v="78730"/></node><node id="-211" lat="30.360415" lon="-97.799283" changeset="false"><tag k="addr:street" v="Long Champ Court"/><tag k="addr:housenumber" v="5811"/><tag k="addr:postcode" v="78730"/></node><node id="-212" lat="30.361548" lon="-97.812951" changeset="false"><tag k="addr:street" v="City Park Road"/><tag k="addr:housenumber" v="5525"/><tag k="addr:postcode" v="78730"/></node><node id="-213" lat="30.352751" lon="-97.828487" changeset="false"><tag k="addr:street" v="Pearce Road"/><tag k="addr:housenumber" v="4203"/><tag k="addr:postcode" v="78730"/></node><node id="-214" lat="30.344497" lon="-97.818651" changeset="false"><tag k="addr:street" v="Pappys Way"/><tag k="addr:housenumber" v="3900"/><tag k="addr:postcode" v="78730"/></node><node id="-215" lat="30.3574" lon="-97.831825" changeset="false"><tag k="addr:street" v="City Park Road"/><tag k="addr:housenumber" v="4329"/><tag k="addr:postcode" v="78730"/></node><node id="-216" lat="30.355294" lon="-97.811629" changeset="false"><tag k="addr:street" v="Coldwater Canyon Drive"/><tag k="addr:housenumber" v="7403"/><tag k="addr:postcode" v="78730"/></node><node id="-217" lat="30.365053" lon="-97.798478" changeset="false"><tag k="addr:street" v="City Park Road"/><tag k="addr:housenumber" v="6409"/><tag k="addr:postcode" v="78730"/></node><node id="-218" lat="30.381011" lon="-97.811959" changeset="false"><tag k="addr:street" v="Ranch to Market Road 2222"/><tag k="addr:housenumber" v="8501"/><tag k="addr:postcode" v="78730"/></node><node id="-219" lat="30.363249" lon="-97.807936" changeset="false"><tag k="addr:street" v="City Park Road"/><tag k="addr:housenumber" v="5801"/><tag k="addr:postcode" v="78730"/></node><node id="-220" lat="30.358078" lon="-97.802263" changeset="false"><tag k="addr:street" v="West Courtyard Drive"/><tag k="addr:housenumber" v="6603"/><tag k="addr:postcode" v="78730"/></node><node id="-221" lat="30.378464" lon="-97.81938" changeset="false"><tag k="addr:street" v="Alasan Cove"/><tag k="addr:housenumber" v="6503"/><tag k="addr:postcode" v="78730"/></node><node id="-222" lat="30.35561" lon="-97.832225" changeset="false"><tag k="addr:street" v="City Park Road"/><tag k="addr:housenumber" v="4311"/><tag k="addr:postcode" v="78730"/></node><node id="-223" lat="30.374645" lon="-97.824199" changeset="false"><tag k="addr:street" v="Maurys Trail"/><tag k="addr:housenumber" v="6013"/><tag k="addr:postcode" v="78730"/></node><node id="-224" lat="30.339725" lon="-97.821257" changeset="false"><tag k="addr:street" v="Oak Shores Drive"/><tag k="addr:housenumber" v="7115"/><tag k="addr:postcode" v="78730"/></node><node id="-225" lat="30.378367" lon="-97.816632" changeset="false"><tag k="addr:street" v="Cuesta Trail"/><tag k="addr:housenumber" v="6604"/><tag k="addr:postcode" v="78730"/></node><node id="-226" lat="30.372484" lon="-97.814967" changeset="false"><tag k="addr:street" v="Long Canyon Drive"/><tag k="addr:housenumber" v="8204"/><tag k="addr:postcode" v="78730"/></node><node id="-227" lat="30.338198" lon="-97.824624" changeset="false"><tag k="addr:street" v="Pearce Road"/><tag k="addr:housenumber" v="3212"/><tag k="addr:postcode" v="78730"/></node><node id="-228" lat="30.376925" lon="-97.80698" changeset="false"><tag k="addr:street" v="Bell Mountain Drive"/><tag k="addr:housenumber" v="7900"/><tag k="addr:postcode" v="78730"/></node><node id="-229" lat="30.359928" lon="-97.799824" changeset="false"><tag k="addr:street" v="Long Champ Court"/><tag k="addr:housenumber" v="5805"/><tag k="addr:postcode" v="78730"/></node><node id="-230" lat="30.359652" lon="-97.801183" changeset="false"><tag k="addr:street" v="Long Champ Court"/><tag k="addr:housenumber" v="5706"/><tag k="addr:postcode" v="78730"/></node><node id="-231" lat="30.359471" lon="-97.80176" changeset="false"><tag k="addr:street" v="West Courtyard Drive"/><tag k="addr:housenumber" v="6506"/><tag k="addr:postcode" v="78730"/></node><node id="-232" lat="30.377802" lon="-97.81858" changeset="false"><tag k="addr:street" v="Cuesta Trail"/><tag k="addr:housenumber" v="6500"/><tag k="addr:postcode" v="78730"/></node><node id="-233" lat="30.352649" lon="-97.813859" changeset="false"><tag k="addr:street" v="Coldwater Canyon Drive"/><tag k="addr:housenumber" v="7386"/><tag k="addr:postcode" v="78730"/></node><node id="-234" lat="30.333942" lon="-97.822885" changeset="false"><tag k="addr:street" v="Ski Shores Terrace"/><tag k="addr:housenumber" v="3109"/><tag k="addr:postcode" v="78730"/></node><node id="-235" lat="30.332929" lon="-97.833519" changeset="false"><tag k="addr:street" v="Pearce Road"/><tag k="addr:housenumber" v="2400"/><tag k="addr:postcode" v="78730"/></node><node id="-236" lat="30.343909" lon="-97.81843" changeset="false"><tag k="addr:street" v="Barefoot Cove"/><tag k="addr:housenumber" v="7120"/><tag k="addr:postcode" v="78730"/></node><node id="-237" lat="30.343906" lon="-97.816393" changeset="false"><tag k="addr:street" v="Greenshores Drive"/><tag k="addr:housenumber" v="7001 1/2"/><tag k="addr:postcode" v="78730"/></node><node id="-238" lat="30.377299" lon="-97.812175" changeset="false"><tag k="addr:street" v="Serena Cove"/><tag k="addr:housenumber" v="6608"/><tag k="addr:postcode" v="78730"/></node><node id="-239" lat="30.366635" lon="-97.815705" changeset="false"><tag k="addr:street" v="Two Coves Drive"/><tag k="addr:housenumber" v="8004"/><tag k="addr:postcode" v="78730"/></node><node id="-240" lat="30.364667" lon="-97.820005" changeset="false"><tag k="addr:street" v="Two Coves Drive"/><tag k="addr:housenumber" v="8206"/><tag k="addr:postcode" v="78730"/></node><node id="-241" lat="30.37564" lon="-97.816311" changeset="false"><tag k="addr:street" v="Bell Mountain Drive"/><tag k="addr:housenumber" v="8408"/><tag k="addr:postcode" v="78730"/></node><node id="-242" lat="30.361744" lon="-97.803935" changeset="false"><tag k="addr:street" v="Finklea Cove"/><tag k="addr:housenumber" v="6901"/><tag k="addr:postcode" v="78730"/></node><node id="-243" lat="30.362089" lon="-97.802614" changeset="false"><tag k="addr:street" v="Finklea Cove"/><tag k="addr:housenumber" v="6815"/><tag k="addr:postcode" v="78730"/></node><node id="-244" lat="30.326449" lon="-97.836493" changeset="false"><tag k="addr:street" v="Manana Street"/><tag k="addr:housenumber" v="1512"/><tag k="addr:postcode" v="78730"/></node><node id="-245" lat="30.342241" lon="-97.825765" changeset="false"><tag k="addr:street" v="Oak Shores Drive"/><tag k="addr:housenumber" v="7601"/><tag k="addr:postcode" v="78730"/></node><node id="-246" lat="30.32738" lon="-97.839629" changeset="false"><tag k="addr:street" v="City Park Road"/><tag k="addr:housenumber" v="1600"/><tag k="addr:postcode" v="78730"/></node><node id="-247" lat="30.358674" lon="-97.804195" changeset="false"><tag k="addr:street" v="West Courtyard Drive"/><tag k="addr:housenumber" v="6707"/><tag k="addr:postcode" v="78730"/></node><node id="-248" lat="30.372301" lon="-97.818335" changeset="false"><tag k="addr:street" v="Lost Trail Cove"/><tag k="addr:housenumber" v="6002"/><tag k="addr:postcode" v="78730"/></node><node id="-249" lat="30.344805" lon="-97.818277" changeset="false"><tag k="addr:street" v="Greenshores Drive"/><tag k="addr:housenumber" v="7205 1/2"/><tag k="addr:postcode" v="78730"/></node><node id="-250" lat="30.34318" lon="-97.827044" changeset="false"><tag k="addr:street" v="Oak Shores Drive"/><tag k="addr:housenumber" v="7700"/><tag k="addr:postcode" v="78730"/></node><node id="-251" lat="30.361762" lon="-97.800666" changeset="false"><tag k="addr:street" v="Long Champ Court"/><tag k="addr:housenumber" v="5906"/><tag k="addr:postcode" v="78730"/></node><node id="-252" lat="30.376293" lon="-97.81366" changeset="false"><tag k="addr:street" v="Bell Mountain Drive"/><tag k="addr:housenumber" v="8304"/><tag k="addr:postcode" v="78730"/></node><node id="-253" lat="30.358156" lon="-97.802877" changeset="false"><tag k="addr:street" v="West Courtyard Drive"/><tag k="addr:housenumber" v="6607"/><tag k="addr:postcode" v="78730"/></node><node id="-254" lat="30.363351" lon="-97.807775" changeset="false"><tag k="addr:street" v="City Park Road"/><tag k="addr:housenumber" v="5805"/><tag k="addr:postcode" v="78730"/></node><node id="-255" lat="30.355231" lon="-97.80378" changeset="false"><tag k="addr:street" v="Bridge Point Parkway"/><tag k="addr:housenumber" v="6507"/><tag k="addr:postcode" v="78730"/></node><node id="-256" lat="30.367511" lon="-97.801849" changeset="false"><tag k="addr:street" v="Ranch to Market Road 2222"/><tag k="addr:housenumber" v="7005"/><tag k="addr:postcode" v="78730"/></node><node id="-257" lat="30.328781" lon="-97.832148" changeset="false"><tag k="addr:street" v="Pearce Road"/><tag k="addr:housenumber" v="2449"/><tag k="addr:postcode" v="78730"/></node><node id="-258" lat="30.354445" lon="-97.814088" changeset="false"><tag k="addr:street" v="Coldwater Canyon Drive"/><tag k="addr:housenumber" v="7330"/><tag k="addr:postcode" v="78730"/></node><node id="-259" lat="30.358054" lon="-97.832514" changeset="false"><tag k="addr:street" v="City Park Road"/><tag k="addr:housenumber" v="4409 1/2"/><tag k="addr:postcode" v="78730"/></node><node id="-260" lat="30.346318" lon="-97.818352" changeset="false"><tag k="addr:street" v="Pearce Road"/><tag k="addr:housenumber" v="3906"/><tag k="addr:postcode" v="78730"/></node><node id="-261" lat="30.359852" lon="-97.805072" changeset="false"><tag k="addr:street" v="West Courtyard Drive"/><tag k="addr:housenumber" v="6808"/><tag k="addr:postcode" v="78730"/></node><node id="-262" lat="30.377624" lon="-97.816352" changeset="false"><tag k="addr:street" v="Cuesta Trail"/><tag k="addr:housenumber" v="6601"/><tag k="addr:postcode" v="78730"/></node><node id="-263" lat="30.375931" lon="-97.819619" changeset="false"><tag k="addr:street" v="Bell Mountain Drive"/><tag k="addr:housenumber" v="8607"/><tag k="addr:postcode" v="78730"/></node><node id="-264" lat="30.365859" lon="-97.797844" changeset="false"><tag k="addr:street" v="City Park Road"/><tag k="addr:housenumber" v="6404"/><tag k="addr:postcode" v="78730"/></node><node id="-265" lat="30.332445" lon="-97.823948" changeset="false"><tag k="addr:street" v="Pearce Road"/><tag k="addr:housenumber" v="2805"/><tag k="addr:postcode" v="78730"/></node><node id="-266" lat="30.343095" lon="-97.816033" changeset="false"><tag k="addr:street" v="Greenshores Drive"/><tag k="addr:housenumber" v="6919"/><tag k="addr:postcode" v="78730"/></node><node id="-267" lat="30.357546" lon="-97.801101" changeset="false"><tag k="addr:street" v="West Courtyard Drive"/><tag k="addr:housenumber" v="6401"/><tag k="addr:postcode" v="78730"/></node><node id="-268" lat="30.368979" lon="-97.823046" changeset="false"><tag k="addr:street" v="Standing Rock Drive"/><tag k="addr:housenumber" v="5605"/><tag k="addr:postcode" v="78730"/></node><node id="-269" lat="30.336683" lon="-97.822089" changeset="false"><tag k="addr:street" v="Smoky Ridge"/><tag k="addr:housenumber" v="3205"/><tag k="addr:postcode" v="78730"/></node><node id="-270" lat="30.339314" lon="-97.818557" changeset="false"><tag k="addr:street" v="Robbins Road"/><tag k="addr:housenumber" v="3502"/><tag k="addr:postcode" v="78730"/></node><node id="-271" lat="30.33009" lon="-97.826302" changeset="false"><tag k="addr:street" v="Tydings Cove"/><tag k="addr:housenumber" v="2505"/><tag k="addr:postcode" v="78730"/></node><node id="-272" lat="30.329922" lon="-97.828402" changeset="false"><tag k="addr:street" v="Manana Street"/><tag k="addr:housenumber" v="2400"/><tag k="addr:postcode" v="78730"/></node><node id="-273" lat="30.3428" lon="-97.819389" changeset="false"><tag k="addr:street" v="Malibu Cove"/><tag k="addr:housenumber" v="7109"/><tag k="addr:postcode" v="78730"/></node><node id="-274" lat="30.341998" lon="-97.816171" changeset="false"><tag k="addr:street" v="Greenshores Drive"/><tag k="addr:housenumber" v="7029"/><tag k="addr:postcode" v="78730"/></node><node id="-275" lat="30.351337" lon="-97.810156" changeset="false"><tag k="addr:street" v="Coldwater Canyon Drive"/><tag k="addr:housenumber" v="7367"/><tag k="addr:postcode" v="78730"/></node><node id="-276" lat="30.332079" lon="-97.825623" changeset="false"><tag k="addr:street" v="Pearce Road"/><tag k="addr:housenumber" v="2704"/><tag k="addr:postcode" v="78730"/></node><node id="-277" lat="30.331896" lon="-97.824714" changeset="false"><tag k="addr:street" v="Pearce Road"/><tag k="addr:housenumber" v="2707"/><tag k="addr:postcode" v="78730"/></node><node id="-278" lat="30.340076" lon="-97.824309" changeset="false"><tag k="addr:street" v="Pearce Road"/><tag k="addr:housenumber" v="3301"/><tag k="addr:postcode" v="78730"/></node><node id="-279" lat="30.364284" lon="-97.819537" changeset="false"><tag k="addr:street" v="Two Coves Drive"/><tag k="addr:housenumber" v="8202"/><tag k="addr:postcode" v="78730"/></node><node id="-280" lat="30.361131" lon="-97.831176" changeset="false"><tag k="addr:street" v="City Park Road"/><tag k="addr:housenumber" v="4623"/><tag k="addr:postcode" v="78730"/></node><node id="-281" lat="30.356317" lon="-97.83193" changeset="false"><tag k="addr:street" v="City Park Road"/><tag k="addr:housenumber" v="4321"/><tag k="addr:postcode" v="78730"/></node><node id="-282" lat="30.373009" lon="-97.821986" changeset="false"><tag k="addr:street" v="Maurys Trail"/><tag k="addr:housenumber" v="5913"/><tag k="addr:postcode" v="78730"/></node><node id="-283" lat="30.372899" lon="-97.81692" changeset="false"><tag k="addr:street" v="Lost Trail Cove"/><tag k="addr:housenumber" v="6005"/><tag k="addr:postcode" v="78730"/></node><node id="-284" lat="30.372795" lon="-97.818485" changeset="false"><tag k="addr:street" v="Lost Trail Cove"/><tag k="addr:housenumber" v="6004"/><tag k="addr:postcode" v="78730"/></node><node id="-285" lat="30.340654" lon="-97.821538" changeset="false"><tag k="addr:street" v="Oak Shores Drive"/><tag k="addr:housenumber" v="7212"/><tag k="addr:postcode" v="78730"/></node><node id="-286" lat="30.340373" lon="-97.818566" changeset="false"><tag k="addr:street" v="Oak Shores Drive"/><tag k="addr:housenumber" v="7003"/><tag k="addr:postcode" v="78730"/></node><node id="-287" lat="30.359798" lon="-97.799963" changeset="false"><tag k="addr:street" v="Long Champ Court"/><tag k="addr:housenumber" v="5803"/><tag k="addr:postcode" v="78730"/></node><node id="-288" lat="30.359391" lon="-97.802058" changeset="false"><tag k="addr:street" v="West Courtyard Drive"/><tag k="addr:housenumber" v="6508"/><tag k="addr:postcode" v="78730"/></node><node id="-289" lat="30.374299" lon="-97.808959" changeset="false"><tag k="addr:street" v="Long Canyon Drive"/><tag k="addr:housenumber" v="8008"/><tag k="addr:postcode" v="78730"/></node><node id="-290" lat="30.355179" lon="-97.831832" changeset="false"><tag k="addr:street" v="City Park Road"/><tag k="addr:housenumber" v="4301"/><tag k="addr:postcode" v="78730"/></node><node id="-291" lat="30.378695" lon="-97.821578" changeset="false"><tag k="addr:street" v="Alasan Cove"/><tag k="addr:housenumber" v="6500"/><tag k="addr:postcode" v="78730"/></node><node id="-292" lat="30.328614" lon="-97.829459" changeset="false"><tag k="addr:street" v="Manana Street"/><tag k="addr:housenumber" v="2200"/><tag k="addr:postcode" v="78730"/></node><node id="-293" lat="30.359362" lon="-97.800299" changeset="false"><tag k="addr:street" v="Long Champ Court"/><tag k="addr:housenumber" v="5709"/><tag k="addr:postcode" v="78730"/></node><node id="-294" lat="30.343362" lon="-97.821924" changeset="false"><tag k="addr:street" v="Turnbuoy Drive"/><tag k="addr:housenumber" v="7416"/><tag k="addr:postcode" v="78730"/></node><node id="-295" lat="30.361999" lon="-97.801814" changeset="false"><tag k="addr:street" v="Finklea Cove"/><tag k="addr:housenumber" v="6805"/><tag k="addr:postcode" v="78730"/></node><node id="-296" lat="30.376035" lon="-97.808115" changeset="false"><tag k="addr:street" v="Bell Mountain Drive"/><tag k="addr:housenumber" v="7908"/><tag k="addr:postcode" v="78730"/></node><node id="-297" lat="30.358997" lon="-97.802848" changeset="false"><tag k="addr:street" v="West Courtyard Drive"/><tag k="addr:housenumber" v="6604"/><tag k="addr:postcode" v="78730"/></node><node id="-298" lat="30.356014" lon="-97.798075" changeset="false"><tag k="addr:street" v="West Courtyard Drive"/><tag k="addr:housenumber" v="6101"/><tag k="addr:postcode" v="78730"/></node><node id="-299" lat="30.365075" lon="-97.81565" changeset="false"><tag k="addr:street" v="Two Coves Drive"/><tag k="addr:housenumber" v="8009"/><tag k="addr:postcode" v="78730"/></node><node id="-300" lat="30.361675" lon="-97.808064" changeset="false"><tag k="addr:street" v="Coldwater Mountain Court"/><tag k="addr:housenumber" v="7301"/><tag k="addr:postcode" v="78730"/></node><node id="-301" lat="30.361542" lon="-97.802047" changeset="false"><tag k="addr:street" v="Kaelan Cove"/><tag k="addr:housenumber" v="5805"/><tag k="addr:postcode" v="78730"/></node><node id="-302" lat="30.361384" lon="-97.799067" changeset="false"><tag k="addr:street" v="Long Champ Court"/><tag k="addr:housenumber" v="5905"/><tag k="addr:postcode" v="78730"/></node><node id="-303" lat="30.361602" lon="-97.810465" changeset="false"><tag k="addr:street" v="Coldwater Mountain Court"/><tag k="addr:housenumber" v="7401"/><tag k="addr:postcode" v="78730"/></node><node id="-304" lat="30.378749" lon="-97.810197" changeset="false"><tag k="addr:street" v="Cuesta Trail"/><tag k="addr:housenumber" v="6730"/><tag k="addr:postcode" v="78730"/></node><node id="-305" lat="30.364862" lon="-97.829882" changeset="false"><tag k="addr:street" v="City Park Road"/><tag k="addr:housenumber" v="4914"/><tag k="addr:postcode" v="78730"/></node><node id="-306" lat="30.375692" lon="-97.824578" changeset="false"><tag k="addr:street" v="Maurys Trail"/><tag k="addr:housenumber" v="6109"/><tag k="addr:postcode" v="78730"/></node><node id="-307" lat="30.374573" lon="-97.816588" changeset="false"><tag k="addr:street" v="Bell Mountain Drive"/><tag k="addr:housenumber" v="8421"/><tag k="addr:postcode" v="78730"/></node><node id="-308" lat="30.34547" lon="-97.815117" changeset="false"><tag k="addr:street" v="Greenshores Drive"/><tag k="addr:housenumber" v="7100"/><tag k="addr:postcode" v="78730"/></node><node id="-309" lat="30.340863" lon="-97.822404" changeset="false"><tag k="addr:street" v="Oak Shores Drive"/><tag k="addr:housenumber" v="7224"/><tag k="addr:postcode" v="78730"/></node><node id="-310" lat="30.340504" lon="-97.824415" changeset="false"><tag k="addr:street" v="Pearce Road"/><tag k="addr:housenumber" v="3309"/><tag k="addr:postcode" v="78730"/></node><node id="-311" lat="30.331462" lon="-97.829757" changeset="false"><tag k="addr:street" v="Pearce Road"/><tag k="addr:housenumber" v="2500"/><tag k="addr:postcode" v="78730"/></node><node id="-312" lat="30.353399" lon="-97.79694" changeset="false"><tag k="addr:street" v="West Courtyard Drive"/><tag k="addr:housenumber" v="5918"/><tag k="addr:postcode" v="78730"/></node><node id="-313" lat="30.353872" lon="-97.800949" changeset="false"><tag k="addr:street" v="Bridge Point Parkway"/><tag k="addr:housenumber" v="6203"/><tag k="addr:postcode" v="78730"/></node><node id="-314" lat="30.338838" lon="-97.818885" changeset="false"><tag k="addr:street" v="Robbins Road"/><tag k="addr:housenumber" v="3414"/><tag k="addr:postcode" v="78730"/></node><node id="-315" lat="30.369554" lon="-97.823482" changeset="false"><tag k="addr:street" v="Standing Rock Drive"/><tag k="addr:housenumber" v="5609"/><tag k="addr:postcode" v="78730"/></node><node id="-316" lat="30.371438" lon="-97.811859" changeset="false"><tag k="addr:street" v="Fern Spring Cove"/><tag k="addr:housenumber" v="6302"/><tag k="addr:postcode" v="78730"/></node><node id="-317" lat="30.369185" lon="-97.802453" changeset="false"><tag k="addr:street" v="Ranch to Market Road 2222"/><tag k="addr:housenumber" v="7201"/><tag k="addr:postcode" v="78730"/></node><node id="-318" lat="30.324924" lon="-97.835148" changeset="false"><tag k="addr:street" v="Manana Street"/><tag k="addr:housenumber" v="1607"/><tag k="addr:postcode" v="78730"/></node><node id="-319" lat="30.37765" lon="-97.822328" changeset="false"><tag k="addr:street" v="Bell Mountain Drive"/><tag k="addr:housenumber" v="8808"/><tag k="addr:postcode" v="78730"/></node><node id="-320" lat="30.376508" lon="-97.814152" changeset="false"><tag k="addr:street" v="Bell Mountain Drive"/><tag k="addr:housenumber" v="8306"/><tag k="addr:postcode" v="78730"/></node><node id="-321" lat="30.374148" lon="-97.806184" changeset="false"><tag k="addr:street" v="Vaught Ranch Road"/><tag k="addr:housenumber" v="6615"/><tag k="addr:postcode" v="78730"/></node><node id="-322" lat="30.375329" lon="-97.81035" changeset="false"><tag k="addr:street" v="Bell Mountain Drive"/><tag k="addr:housenumber" v="8103"/><tag k="addr:postcode" v="78730"/></node><node id="-323" lat="30.333469" lon="-97.823302" changeset="false"><tag k="addr:street" v="Pearce Road"/><tag k="addr:housenumber" v="2905"/><tag k="addr:postcode" v="78730"/></node><node id="-324" lat="30.34042" lon="-97.817856" changeset="false"><tag k="addr:street" v="Robbins Road"/><tag k="addr:housenumber" v="3604"/><tag k="addr:postcode" v="78730"/></node><node id="-325" lat="30.376216" lon="-97.80826" changeset="false"><tag k="addr:street" v="Bell Mountain Drive"/><tag k="addr:housenumber" v="7904"/><tag k="addr:postcode" v="78730"/></node><node id="-326" lat="30.358312" lon="-97.801572" changeset="false"><tag k="addr:street" v="West Courtyard Drive"/><tag k="addr:housenumber" v="6505"/><tag k="addr:postcode" v="78730"/></node><node id="-327" lat="30.357169" lon="-97.800523" changeset="false"><tag k="addr:street" v="West Courtyard Drive"/><tag k="addr:housenumber" v="6307"/><tag k="addr:postcode" v="78730"/></node><node id="-328" lat="30.356782" lon="-97.794548" changeset="false"><tag k="addr:street" v="Shepherd Mountain Cove"/><tag k="addr:housenumber" v="5901"/><tag k="addr:postcode" v="78730"/></node><node id="-329" lat="30.379517" lon="-97.812887" changeset="false"><tag k="addr:street" v="Cuesta Trail"/><tag k="addr:housenumber" v="6712"/><tag k="addr:postcode" v="78730"/></node><node id="-330" lat="30.373997" lon="-97.81036" changeset="false"><tag k="addr:street" v="Long Canyon Drive"/><tag k="addr:housenumber" v="8016"/><tag k="addr:postcode" v="78730"/></node><node id="-331" lat="30.373578" lon="-97.807091" changeset="false"><tag k="addr:street" v="Vaught Ranch Road"/><tag k="addr:housenumber" v="6530"/><tag k="addr:postcode" v="78730"/></node><node id="-332" lat="30.375475" lon="-97.813209" changeset="false"><tag k="addr:street" v="Bell Mountain Drive"/><tag k="addr:housenumber" v="8303"/><tag k="addr:postcode" v="78730"/></node><node id="-333" lat="30.374586" lon="-97.815433" changeset="false"><tag k="addr:street" v="Bell Mountain Drive"/><tag k="addr:housenumber" v="8413"/><tag k="addr:postcode" v="78730"/></node><node id="-334" lat="30.344725" lon="-97.817334" changeset="false"><tag k="addr:street" v="Greenshores Drive"/><tag k="addr:housenumber" v="7112"/><tag k="addr:postcode" v="78730"/></node><node id="-335" lat="30.335716" lon="-97.821311" changeset="false"><tag k="addr:street" v="Encino Verde"/><tag k="addr:housenumber" v="3117"/><tag k="addr:postcode" v="78730"/></node><node id="-336" lat="30.33574" lon="-97.824677" changeset="false"><tag k="addr:street" v="Pearce Road"/><tag k="addr:housenumber" v="3010"/><tag k="addr:postcode" v="78730"/></node><node id="-337" lat="30.378027" lon="-97.817665" changeset="false"><tag k="addr:street" v="Cuesta Trail"/><tag k="addr:housenumber" v="6508"/><tag k="addr:postcode" v="78730"/></node><node id="-338" lat="30.360219" lon="-97.7994" changeset="false"><tag k="addr:street" v="Long Champ Court"/><tag k="addr:housenumber" v="5809"/><tag k="addr:postcode" v="78730"/></node><node id="-339" lat="30.363596" lon="-97.801653" changeset="false"><tag k="addr:street" v="City Park Road"/><tag k="addr:housenumber" v="6014"/><tag k="addr:postcode" v="78730"/></node><node id="-340" lat="30.360688" lon="-97.799174" changeset="false"><tag k="addr:street" v="Long Champ Court"/><tag k="addr:housenumber" v="5813"/><tag k="addr:postcode" v="78730"/></node><node id="-341" lat="30.360514" lon="-97.801376" changeset="false"><tag k="addr:street" v="Long Champ Court"/><tag k="addr:housenumber" v="5804"/><tag k="addr:postcode" v="78730"/></node><node id="-342" lat="30.332939" lon="-97.823622" changeset="false"><tag k="addr:street" v="Pearce Road"/><tag k="addr:housenumber" v="2813"/><tag k="addr:postcode" v="78730"/></node><node id="-343" lat="30.356921" lon="-97.794657" changeset="false"><tag k="addr:street" v="Shepherd Mountain Cove"/><tag k="addr:housenumber" v="5901 1/2"/><tag k="addr:postcode" v="78730"/></node><node id="-344" lat="30.369534" lon="-97.823005" changeset="false"><tag k="addr:street" v="Long Canyon Drive"/><tag k="addr:housenumber" v="8609"/><tag k="addr:postcode" v="78730"/></node><node id="-345" lat="30.375689" lon="-97.806911" changeset="false"><tag k="addr:street" v="Bell Mountain Drive"/><tag k="addr:housenumber" v="7905"/><tag k="addr:postcode" v="78730"/></node><node id="-346" lat="30.375782" lon="-97.817239" changeset="false"><tag k="addr:street" v="Bell Mountain Drive"/><tag k="addr:housenumber" v="8500"/><tag k="addr:postcode" v="78730"/></node><node id="-347" lat="30.343381" lon="-97.820793" changeset="false"><tag k="addr:street" v="Pappys Way"/><tag k="addr:housenumber" v="3716 1/2"/><tag k="addr:postcode" v="78730"/></node><node id="-348" lat="30.328086" lon="-97.82833" changeset="false"><tag k="addr:street" v="Manana Street"/><tag k="addr:housenumber" v="2205"/><tag k="addr:postcode" v="78730"/></node><node id="-349" lat="30.380053" lon="-97.816821" changeset="false"><tag k="addr:street" v="Cuesta Court"/><tag k="addr:housenumber" v="8507"/><tag k="addr:postcode" v="78730"/></node><node id="-350" lat="30.378918" lon="-97.812557" changeset="false"><tag k="addr:street" v="Cuesta Trail"/><tag k="addr:housenumber" v="6714 1/2"/><tag k="addr:postcode" v="78730"/></node><node id="-351" lat="30.37859" lon="-97.813329" changeset="false"><tag k="addr:street" v="Cuesta Trail"/><tag k="addr:housenumber" v="6709"/><tag k="addr:postcode" v="78730"/></node><node id="-352" lat="30.360251" lon="-97.830828" changeset="false"><tag k="addr:street" v="City Park Road"/><tag k="addr:housenumber" v="4615"/><tag k="addr:postcode" v="78730"/></node><node id="-353" lat="30.376883" lon="-97.812356" changeset="false"><tag k="addr:street" v="Serena Cove"/><tag k="addr:housenumber" v="6604"/><tag k="addr:postcode" v="78730"/></node><node id="-354" lat="30.343676" lon="-97.822781" changeset="false"><tag k="addr:street" v="Pearce Road"/><tag k="addr:housenumber" v="3630"/><tag k="addr:postcode" v="78730"/></node><node id="-355" lat="30.358077" lon="-97.802606" changeset="false"><tag k="addr:street" v="West Courtyard Drive"/><tag k="addr:housenumber" v="6605"/><tag k="addr:postcode" v="78730"/></node><node id="-356" lat="30.326291" lon="-97.834509" changeset="false"><tag k="addr:street" v="Manana Street"/><tag k="addr:housenumber" v="1700"/><tag k="addr:postcode" v="78730"/></node><node id="-357" lat="30.328267" lon="-97.829787" changeset="false"><tag k="addr:street" v="Manana Street"/><tag k="addr:housenumber" v="2106"/><tag k="addr:postcode" v="78730"/></node><node id="-358" lat="30.326968" lon="-97.83727" changeset="false"><tag k="addr:street" v="City Park Road"/><tag k="addr:housenumber" v="1703"/><tag k="addr:postcode" v="78730"/></node><node id="-359" lat="30.331925" lon="-97.825777" changeset="false"><tag k="addr:street" v="Pearce Road"/><tag k="addr:housenumber" v="2702"/><tag k="addr:postcode" v="78730"/></node><node id="-360" lat="30.347623" lon="-97.81728" changeset="false"><tag k="addr:street" v="Pearce Road"/><tag k="addr:housenumber" v="4029"/><tag k="addr:postcode" v="78730"/></node><node id="-361" lat="30.336043" lon="-97.824248" changeset="false"><tag k="addr:street" v="Pearce Road"/><tag k="addr:housenumber" v="3014"/><tag k="addr:postcode" v="78730"/></node><node id="-362" lat="30.331485" lon="-97.827748" changeset="false"><tag k="addr:street" v="Pearce Road"/><tag k="addr:housenumber" v="2522"/><tag k="addr:postcode" v="78730"/></node><node id="-363" lat="30.325482" lon="-97.832847" changeset="false"><tag k="addr:street" v="Manana Street"/><tag k="addr:housenumber" v="1711"/><tag k="addr:postcode" v="78730"/></node><node id="-364" lat="30.376363" lon="-97.823308" changeset="false"><tag k="addr:street" v="Bell Mountain Drive"/><tag k="addr:housenumber" v="8819"/><tag k="addr:postcode" v="78730"/></node><node id="-365" lat="30.363483" lon="-97.817406" changeset="false"><tag k="addr:street" v="Two Coves Drive"/><tag k="addr:housenumber" v="8115"/><tag k="addr:postcode" v="78730"/></node><node id="-366" lat="30.364316" lon="-97.796818" changeset="false"><tag k="addr:street" v="Ranch to Market Road 2222"/><tag k="addr:housenumber" v="6425 1/2"/><tag k="addr:postcode" v="78730"/></node><node id="-367" lat="30.363451" lon="-97.801794" changeset="false"><tag k="addr:street" v="City Park Road"/><tag k="addr:housenumber" v="6004"/><tag k="addr:postcode" v="78730"/></node><node id="-368" lat="30.362163" lon="-97.800339" changeset="false"><tag k="addr:street" v="Long Champ Court"/><tag k="addr:housenumber" v="5908"/><tag k="addr:postcode" v="78730"/></node><node id="-369" lat="30.370101" lon="-97.82234" changeset="false"><tag k="addr:street" v="Gibbs Hollow Cove"/><tag k="addr:housenumber" v="5805"/><tag k="addr:postcode" v="78730"/></node><node id="-370" lat="30.343795" lon="-97.816443" changeset="false"><tag k="addr:street" v="Greenshores Drive"/><tag k="addr:housenumber" v="7001"/><tag k="addr:postcode" v="78730"/></node><node id="-371" lat="30.344065" lon="-97.817102" changeset="false"><tag k="addr:street" v="Greenshores Drive"/><tag k="addr:housenumber" v="7101"/><tag k="addr:postcode" v="78730"/></node><node id="-372" lat="30.34325" lon="-97.820705" changeset="false"><tag k="addr:street" v="Pappys Way"/><tag k="addr:housenumber" v="3716"/><tag k="addr:postcode" v="78730"/></node><node id="-373" lat="30.354953" lon="-97.798921" changeset="false"><tag k="addr:street" v="West Courtyard Drive"/><tag k="addr:housenumber" v="6011"/><tag k="addr:postcode" v="78730"/></node><node id="-374" lat="30.354833" lon="-97.798124" changeset="false"><tag k="addr:street" v="West Courtyard Drive"/><tag k="addr:housenumber" v="5913"/><tag k="addr:postcode" v="78730"/></node><node id="-375" lat="30.359615" lon="-97.803379" changeset="false"><tag k="addr:street" v="West Courtyard Drive"/><tag k="addr:housenumber" v="6702"/><tag k="addr:postcode" v="78730"/></node><node id="-376" lat="30.359563" lon="-97.803385" changeset="false"><tag k="addr:street" v="West Courtyard Drive"/><tag k="addr:housenumber" v="6702 1/2"/><tag k="addr:postcode" v="78730"/></node></osm>