<?xml version="1.0" encoding="UTF-8"?><osm version="0.6" generator="github.com/aaronlidman/osm-and-geojson"><node id="-1" lat="30.355232" lon="-97.771823" changeset="false"><tag k="addr:street" v="Mek Drive"/><tag k="addr:housenumber" v="4112"/><tag k="addr:postcode" v="78731"/></node><node id="-2" lat="30.352149" lon="-97.77418" changeset="false"><tag k="addr:street" v="Northgrove Road"/><tag k="addr:housenumber" v="6309"/><tag k="addr:postcode" v="78731"/></node><node id="-3" lat="30.351014" lon="-97.775585" changeset="false"><tag k="addr:street" v="Ledge Mountain Drive"/><tag k="addr:housenumber" v="6219"/><tag k="addr:postcode" v="78731"/></node><node id="-4" lat="30.344478" lon="-97.784626" changeset="false"><tag k="addr:street" v="Westslope Drive"/><tag k="addr:housenumber" v="5828"/><tag k="addr:postcode" v="78731"/></node><node id="-5" lat="30.344099" lon="-97.778903" changeset="false"><tag k="addr:street" v="Mount Bonnell Road"/><tag k="addr:housenumber" v="5822"/><tag k="addr:postcode" v="78731"/></node><node id="-6" lat="30.356446" lon="-97.780559" changeset="false"><tag k="addr:street" v="Cat Mountain Drive"/><tag k="addr:housenumber" v="4751"/><tag k="addr:postcode" v="78731"/></node><node id="-7" lat="30.348711" lon="-97.781074" changeset="false"><tag k="addr:street" v="Mount Bonnell Road"/><tag k="addr:housenumber" v="6004"/><tag k="addr:postcode" v="78731"/></node><node id="-8" lat="30.351338" lon="-97.780265" changeset="false"><tag k="addr:street" v="Mountain Villa Cove"/><tag k="addr:housenumber" v="6120"/><tag k="addr:postcode" v="78731"/></node><node id="-9" lat="30.355188" lon="-97.77304" changeset="false"><tag k="addr:street" v="Mek Drive"/><tag k="addr:housenumber" v="4115"/><tag k="addr:postcode" v="78731"/></node><node id="-10" lat="30.360323" lon="-97.776942" changeset="false"><tag k="addr:street" v="Candle Ridge Drive"/><tag k="addr:housenumber" v="6613"/><tag k="addr:postcode" v="78731"/></node><node id="-11" lat="30.345014" lon="-97.783223" changeset="false"><tag k="addr:street" v="Westslope Cove"/><tag k="addr:housenumber" v="5805"/><tag k="addr:postcode" v="78731"/></node><node id="-12" lat="30.359724" lon="-97.771996" changeset="false"><tag k="addr:street" v="Stahl Cove"/><tag k="addr:housenumber" v="6901"/><tag k="addr:postcode" v="78731"/></node><node id="-13" lat="30.351168" lon="-97.780267" changeset="false"><tag k="addr:street" v="Mountain Villa Cove"/><tag k="addr:housenumber" v="6118"/><tag k="addr:postcode" v="78731"/></node><node id="-14" lat="30.347881" lon="-97.781802" changeset="false"><tag k="addr:street" v="Twin Valley Drive"/><tag k="addr:housenumber" v="4853"/><tag k="addr:postcode" v="78731"/></node><node id="-15" lat="30.353736" lon="-97.775129" changeset="false"><tag k="addr:street" v="Northgrove Road"/><tag k="addr:housenumber" v="6308"/><tag k="addr:postcode" v="78731"/></node><node id="-16" lat="30.345184" lon="-97.782943" changeset="false"><tag k="addr:street" v="Westslope Drive"/><tag k="addr:housenumber" v="5905"/><tag k="addr:postcode" v="78731"/></node><node id="-17" lat="30.354473" lon="-97.777494" changeset="false"><tag k="addr:street" v="Ledge Mountain Drive"/><tag k="addr:housenumber" v="6409"/><tag k="addr:postcode" v="78731"/></node><node id="-18" lat="30.354739" lon="-97.77552" changeset="false"><tag k="addr:street" v="Williams Ridge Way"/><tag k="addr:housenumber" v="6435"/><tag k="addr:postcode" v="78731"/></node><node id="-19" lat="30.354269" lon="-97.776759" changeset="false"><tag k="addr:street" v="Williams Ridge Way"/><tag k="addr:housenumber" v="6408"/><tag k="addr:postcode" v="78731"/></node><node id="-20" lat="30.358768" lon="-97.77259" changeset="false"><tag k="addr:street" v="Canyonside Trail"/><tag k="addr:housenumber" v="4206"/><tag k="addr:postcode" v="78731"/></node><node id="-21" lat="30.35325" lon="-97.776537" changeset="false"><tag k="addr:street" v="Ledge Mountain Drive"/><tag k="addr:housenumber" v="6315"/><tag k="addr:postcode" v="78731"/></node><node id="-22" lat="30.358483" lon="-97.785473" changeset="false"><tag k="addr:street" v="Mountain Park Cove"/><tag k="addr:housenumber" v="6301"/><tag k="addr:postcode" v="78731"/></node><node id="-23" lat="30.354421" lon="-97.779554" changeset="false"><tag k="addr:street" v="Cat Mountain Drive"/><tag k="addr:housenumber" v="4713"/><tag k="addr:postcode" v="78731"/></node><node id="-24" lat="30.345119" lon="-97.784106" changeset="false"><tag k="addr:street" v="Westslope Drive"/><tag k="addr:housenumber" v="5829"/><tag k="addr:postcode" v="78731"/></node><node id="-25" lat="30.359444" lon="-97.775321" changeset="false"><tag k="addr:street" v="Stony Meadow Lane"/><tag k="addr:housenumber" v="4413"/><tag k="addr:postcode" v="78731"/></node><node id="-26" lat="30.359463" lon="-97.781044" changeset="false"><tag k="addr:street" v="Backtrail Drive"/><tag k="addr:housenumber" v="4901"/><tag k="addr:postcode" v="78731"/></node><node id="-27" lat="30.345242" lon="-97.782701" changeset="false"><tag k="addr:street" v="Westslope Drive"/><tag k="addr:housenumber" v="5907"/><tag k="addr:postcode" v="78731"/></node><node id="-28" lat="30.360926" lon="-97.776936" changeset="false"><tag k="addr:street" v="Candle Ridge Drive"/><tag k="addr:housenumber" v="6621"/><tag k="addr:postcode" v="78731"/></node><node id="-29" lat="30.358296" lon="-97.772395" changeset="false"><tag k="addr:street" v="Canyonside Trail"/><tag k="addr:housenumber" v="4200"/><tag k="addr:postcode" v="78731"/></node><node id="-30" lat="30.353818" lon="-97.779558" changeset="false"><tag k="addr:street" v="Cat Mountain Drive"/><tag k="addr:housenumber" v="4709"/><tag k="addr:postcode" v="78731"/></node><node id="-31" lat="30.35273" lon="-97.77267" changeset="false"><tag k="addr:street" v="Mek Drive"/><tag k="addr:housenumber" v="4109"/><tag k="addr:postcode" v="78731"/></node><node id="-32" lat="30.354108" lon="-97.776964" changeset="false"><tag k="addr:street" v="Williams Ridge Way"/><tag k="addr:housenumber" v="6404"/><tag k="addr:postcode" v="78731"/></node><node id="-33" lat="30.353964" lon="-97.777167" changeset="false"><tag k="addr:street" v="Williams Ridge Way"/><tag k="addr:housenumber" v="6400"/><tag k="addr:postcode" v="78731"/></node><node id="-34" lat="30.35088" lon="-97.775335" changeset="false"><tag k="addr:street" v="Ledge Mountain Drive"/><tag k="addr:housenumber" v="6217"/><tag k="addr:postcode" v="78731"/></node><node id="-35" lat="30.359556" lon="-97.772394" changeset="false"><tag k="addr:street" v="Stahl Cove"/><tag k="addr:housenumber" v="6900"/><tag k="addr:postcode" v="78731"/></node><node id="-36" lat="30.358677" lon="-97.772437" changeset="false"><tag k="addr:street" v="Canyonside Trail"/><tag k="addr:housenumber" v="4204"/><tag k="addr:postcode" v="78731"/></node><node id="-37" lat="30.349674" lon="-97.782681" changeset="false"><tag k="addr:street" v="Belvedere Street"/><tag k="addr:housenumber" v="4802"/><tag k="addr:postcode" v="78731"/></node><node id="-38" lat="30.349699" lon="-97.77266" changeset="false"><tag k="addr:street" v="Ledge Mountain Drive"/><tag k="addr:housenumber" v="6105"/><tag k="addr:postcode" v="78731"/></node><node id="-39" lat="30.348917" lon="-97.782557" changeset="false"><tag k="addr:street" v="Hood Hollow"/><tag k="addr:housenumber" v="6005"/><tag k="addr:postcode" v="78731"/></node><node id="-40" lat="30.351675" lon="-97.779205" changeset="false"><tag k="addr:street" v="Lantana Hollow"/><tag k="addr:housenumber" v="4602"/><tag k="addr:postcode" v="78731"/></node><node id="-41" lat="30.344418" lon="-97.783303" changeset="false"><tag k="addr:street" v="Westslope Cove"/><tag k="addr:housenumber" v="5801"/><tag k="addr:postcode" v="78731"/></node><node id="-42" lat="30.343939" lon="-97.781748" changeset="false"><tag k="addr:street" v="Lakeview Circle"/><tag k="addr:housenumber" v="5810"/><tag k="addr:postcode" v="78731"/></node><node id="-43" lat="30.349998" lon="-97.771786" changeset="false"><tag k="addr:street" v="Mesa Drive"/><tag k="addr:housenumber" v="6302"/><tag k="addr:postcode" v="78731"/></node><node id="-44" lat="30.359661" lon="-97.774771" changeset="false"><tag k="addr:street" v="Stony Meadow Lane"/><tag k="addr:housenumber" v="4407"/><tag k="addr:postcode" v="78731"/></node><node id="-45" lat="30.344639" lon="-97.784719" changeset="false"><tag k="addr:street" v="Westslope Drive"/><tag k="addr:housenumber" v="5830"/><tag k="addr:postcode" v="78731"/></node><node id="-46" lat="30.354602" lon="-97.778154" changeset="false"><tag k="addr:street" v="Ledge Mountain Drive"/><tag k="addr:housenumber" v="6413"/><tag k="addr:postcode" v="78731"/></node><node id="-47" lat="30.348096" lon="-97.782359" changeset="false"><tag k="addr:street" v="Twin Valley Drive"/><tag k="addr:housenumber" v="4848"/><tag k="addr:postcode" v="78731"/></node><node id="-48" lat="30.360801" lon="-97.776744" changeset="false"><tag k="addr:street" v="Candle Ridge Drive"/><tag k="addr:housenumber" v="6619"/><tag k="addr:postcode" v="78731"/></node><node id="-49" lat="30.359368" lon="-97.773307" changeset="false"><tag k="addr:street" v="Canyonside Trail"/><tag k="addr:housenumber" v="4305"/><tag k="addr:postcode" v="78731"/></node><node id="-50" lat="30.35352" lon="-97.773679" changeset="false"><tag k="addr:street" v="Northgrove Road"/><tag k="addr:housenumber" v="6317"/><tag k="addr:postcode" v="78731"/></node><node id="-51" lat="30.349273" lon="-97.772129" changeset="false"><tag k="addr:street" v="Mesa Drive"/><tag k="addr:housenumber" v="6204"/><tag k="addr:postcode" v="78731"/></node><node id="-52" lat="30.342618" lon="-97.780103" changeset="false"><tag k="addr:street" v="Small Drive"/><tag k="addr:housenumber" v="4604"/><tag k="addr:postcode" v="78731"/></node><node id="-53" lat="30.350911" lon="-97.778832" changeset="false"><tag k="addr:street" v="Lime Stone Circle"/><tag k="addr:housenumber" v="4601"/><tag k="addr:postcode" v="78731"/></node><node id="-54" lat="30.35952" lon="-97.776493" changeset="false"><tag k="addr:street" v="Candle Ridge Drive"/><tag k="addr:housenumber" v="6603"/><tag k="addr:postcode" v="78731"/></node><node id="-55" lat="30.354255" lon="-97.77411" changeset="false"><tag k="addr:street" v="Northgrove Road"/><tag k="addr:housenumber" v="6316"/><tag k="addr:postcode" v="78731"/></node><node id="-56" lat="30.359701" lon="-97.776609" changeset="false"><tag k="addr:street" v="Candle Ridge Drive"/><tag k="addr:housenumber" v="6605"/><tag k="addr:postcode" v="78731"/></node><node id="-57" lat="30.352092" lon="-97.779677" changeset="false"><tag k="addr:street" v="Mountain Villa Circle"/><tag k="addr:housenumber" v="6110"/><tag k="addr:postcode" v="78731"/></node><node id="-58" lat="30.350385" lon="-97.773309" changeset="false"><tag k="addr:street" v="Ledge Mountain Drive"/><tag k="addr:housenumber" v="6205"/><tag k="addr:postcode" v="78731"/></node><node id="-59" lat="30.359417" lon="-97.782259" changeset="false"><tag k="addr:street" v="Cedro Trail"/><tag k="addr:housenumber" v="5007"/><tag k="addr:postcode" v="78731"/></node><node id="-60" lat="30.350465" lon="-97.778562" changeset="false"><tag k="addr:street" v="Mountain Villa Drive"/><tag k="addr:housenumber" v="6110"/><tag k="addr:postcode" v="78731"/></node><node id="-61" lat="30.349669" lon="-97.783151" changeset="false"><tag k="addr:street" v="Belvedere Street"/><tag k="addr:housenumber" v="4812"/><tag k="addr:postcode" v="78731"/></node><node id="-62" lat="30.343585" lon="-97.780721" changeset="false"><tag k="addr:street" v="Twin Valley Circle"/><tag k="addr:housenumber" v="5807"/><tag k="addr:postcode" v="78731"/></node><node id="-63" lat="30.350221" lon="-97.782333" changeset="false"><tag k="addr:street" v="Twin Valley Drive"/><tag k="addr:housenumber" v="4814"/><tag k="addr:postcode" v="78731"/></node><node id="-64" lat="30.34435" lon="-97.783732" changeset="false"><tag k="addr:street" v="Westslope Drive"/><tag k="addr:housenumber" v="5819"/><tag k="addr:postcode" v="78731"/></node><node id="-65" lat="30.345356" lon="-97.782471" changeset="false"><tag k="addr:street" v="Westslope Drive"/><tag k="addr:housenumber" v="5909"/><tag k="addr:postcode" v="78731"/></node><node id="-66" lat="30.359636" lon="-97.77093" changeset="false"><tag k="addr:street" v="Farhills Drive"/><tag k="addr:housenumber" v="4303"/><tag k="addr:postcode" v="78731"/></node><node id="-67" lat="30.354694" lon="-97.771191" changeset="false"><tag k="addr:street" v="Mek Drive"/><tag k="addr:housenumber" v="4108"/><tag k="addr:postcode" v="78731"/></node><node id="-68" lat="30.350884" lon="-97.781061" changeset="false"><tag k="addr:street" v="Twin Valley Drive"/><tag k="addr:housenumber" v="4717"/><tag k="addr:postcode" v="78731"/></node><node id="-69" lat="30.360326" lon="-97.77567" changeset="false"><tag k="addr:street" v="Stony Meadow Lane"/><tag k="addr:housenumber" v="4440"/><tag k="addr:postcode" v="78731"/></node><node id="-70" lat="30.345047" lon="-97.780607" changeset="false"><tag k="addr:street" v="Lookout Mountain Drive"/><tag k="addr:housenumber" v="5905"/><tag k="addr:postcode" v="78731"/></node><node id="-71" lat="30.351079" lon="-97.780237" changeset="false"><tag k="addr:street" v="Mountain Villa Cove"/><tag k="addr:housenumber" v="6116"/><tag k="addr:postcode" v="78731"/></node><node id="-72" lat="30.355691" lon="-97.77248" changeset="false"><tag k="addr:street" v="Mek Drive"/><tag k="addr:housenumber" v="4121"/><tag k="addr:postcode" v="78731"/></node><node id="-73" lat="30.360588" lon="-97.775322" changeset="false"><tag k="addr:street" v="Stony Meadow Lane"/><tag k="addr:housenumber" v="4449"/><tag k="addr:postcode" v="78731"/></node><node id="-74" lat="30.342652" lon="-97.783068" changeset="false"><tag k="addr:street" v="Westslope Circle"/><tag k="addr:housenumber" v="4712"/><tag k="addr:postcode" v="78731"/></node><node id="-75" lat="30.360313" lon="-97.778058" changeset="false"><tag k="addr:street" v="Far West Boulevard"/><tag k="addr:housenumber" v="4625 1/2"/><tag k="addr:postcode" v="78731"/></node><node id="-76" lat="30.349977" lon="-97.779724" changeset="false"><tag k="addr:street" v="Twin Valley Drive"/><tag k="addr:housenumber" v="4617"/><tag k="addr:postcode" v="78731"/></node><node id="-77" lat="30.360025" lon="-97.774292" changeset="false"><tag k="addr:street" v="Canyonside Trail"/><tag k="addr:housenumber" v="4400"/><tag k="addr:postcode" v="78731"/></node><node id="-78" lat="30.345072" lon="-97.781616" changeset="false"><tag k="addr:street" v="Lookout Mountain Cove"/><tag k="addr:housenumber" v="4701"/><tag k="addr:postcode" v="78731"/></node><node id="-79" lat="30.350726" lon="-97.778512" changeset="false"><tag k="addr:street" v="Mountain Villa Drive"/><tag k="addr:housenumber" v="6116"/><tag k="addr:postcode" v="78731"/></node><node id="-80" lat="30.360417" lon="-97.777945" changeset="false"><tag k="addr:street" v="Candle Ridge Drive"/><tag k="addr:housenumber" v="4613 1/2"/><tag k="addr:postcode" v="78731"/></node><node id="-81" lat="30.350525" lon="-97.773662" changeset="false"><tag k="addr:street" v="Ledge Mountain Drive"/><tag k="addr:housenumber" v="6207"/><tag k="addr:postcode" v="78731"/></node><node id="-82" lat="30.359922" lon="-97.778338" changeset="false"><tag k="addr:street" v="Far West Boulevard"/><tag k="addr:housenumber" v="4633"/><tag k="addr:postcode" v="78731"/></node><node id="-83" lat="30.359806" lon="-97.785233" changeset="false"><tag k="addr:street" v="Cedro Trail"/><tag k="addr:housenumber" v="5403"/><tag k="addr:postcode" v="78731"/></node><node id="-84" lat="30.359256" lon="-97.773219" changeset="false"><tag k="addr:street" v="Canyonside Trail"/><tag k="addr:housenumber" v="4303"/><tag k="addr:postcode" v="78731"/></node><node id="-85" lat="30.359646" lon="-97.774701" changeset="false"><tag k="addr:street" v="Stony Meadow Lane"/><tag k="addr:housenumber" v="4405"/><tag k="addr:postcode" v="78731"/></node><node id="-86" lat="30.354698" lon="-97.775392" changeset="false"><tag k="addr:street" v="Williams Ridge Way"/><tag k="addr:housenumber" v="6427"/><tag k="addr:postcode" v="78731"/></node><node id="-87" lat="30.350107" lon="-97.782364" changeset="false"><tag k="addr:street" v="Twin Valley Drive"/><tag k="addr:housenumber" v="4816"/><tag k="addr:postcode" v="78731"/></node><node id="-88" lat="30.347771" lon="-97.781807" changeset="false"><tag k="addr:street" v="Twin Valley Drive"/><tag k="addr:housenumber" v="4855"/><tag k="addr:postcode" v="78731"/></node><node id="-89" lat="30.360136" lon="-97.774311" changeset="false"><tag k="addr:street" v="Canyonside Trail"/><tag k="addr:housenumber" v="4320"/><tag k="addr:postcode" v="78731"/></node><node id="-90" lat="30.360212" lon="-97.774388" changeset="false"><tag k="addr:street" v="Stony Meadow Lane"/><tag k="addr:housenumber" v="4400"/><tag k="addr:postcode" v="78731"/></node><node id="-91" lat="30.359076" lon="-97.773151" changeset="false"><tag k="addr:street" v="Canyonside Trail"/><tag k="addr:housenumber" v="4301"/><tag k="addr:postcode" v="78731"/></node><node id="-92" lat="30.358949" lon="-97.773126" changeset="false"><tag k="addr:street" v="Canyonside Trail"/><tag k="addr:housenumber" v="4211"/><tag k="addr:postcode" v="78731"/></node><node id="-93" lat="30.359538" lon="-97.77356" changeset="false"><tag k="addr:street" v="Canyonside Trail"/><tag k="addr:housenumber" v="4309"/><tag k="addr:postcode" v="78731"/></node><node id="-94" lat="30.35947" lon="-97.773453" changeset="false"><tag k="addr:street" v="Canyonside Trail"/><tag k="addr:housenumber" v="4307"/><tag k="addr:postcode" v="78731"/></node><node id="-95" lat="30.359607" lon="-97.773723" changeset="false"><tag k="addr:street" v="Canyonside Trail"/><tag k="addr:housenumber" v="4311"/><tag k="addr:postcode" v="78731"/></node><node id="-96" lat="30.359695" lon="-97.773861" changeset="false"><tag k="addr:street" v="Canyonside Trail"/><tag k="addr:housenumber" v="4313"/><tag k="addr:postcode" v="78731"/></node><node id="-97" lat="30.358829" lon="-97.778849" changeset="false"><tag k="addr:street" v="Santolina Cove"/><tag k="addr:housenumber" v="6502"/><tag k="addr:postcode" v="78731"/></node><node id="-98" lat="30.358902" lon="-97.77875" changeset="false"><tag k="addr:street" v="Santolina Cove"/><tag k="addr:housenumber" v="6504"/><tag k="addr:postcode" v="78731"/></node><node id="-99" lat="30.358762" lon="-97.778892" changeset="false"><tag k="addr:street" v="Santolina Cove"/><tag k="addr:housenumber" v="6500"/><tag k="addr:postcode" v="78731"/></node><node id="-100" lat="30.358948" lon="-97.778596" changeset="false"><tag k="addr:street" v="Santolina Cove"/><tag k="addr:housenumber" v="6506"/><tag k="addr:postcode" v="78731"/></node><node id="-101" lat="30.349622" lon="-97.778614" changeset="false"><tag k="addr:street" v="Twin Ledge Circle"/><tag k="addr:housenumber" v="6114"/><tag k="addr:postcode" v="78731"/></node><node id="-102" lat="30.349503" lon="-97.778553" changeset="false"><tag k="addr:street" v="Twin Ledge Circle"/><tag k="addr:housenumber" v="6112"/><tag k="addr:postcode" v="78731"/></node><node id="-103" lat="30.349931" lon="-97.778719" changeset="false"><tag k="addr:street" v="Twin Valley Circle"/><tag k="addr:housenumber" v="4503"/><tag k="addr:postcode" v="78731"/></node><node id="-104" lat="30.349954" lon="-97.778618" changeset="false"><tag k="addr:street" v="Twin Valley Circle"/><tag k="addr:housenumber" v="4501"/><tag k="addr:postcode" v="78731"/></node><node id="-105" lat="30.359434" lon="-97.779094" changeset="false"><tag k="addr:street" v="Santolina Cove"/><tag k="addr:housenumber" v="6516"/><tag k="addr:postcode" v="78731"/></node><node id="-106" lat="30.359179" lon="-97.779009" changeset="false"><tag k="addr:street" v="Santolina Cove"/><tag k="addr:housenumber" v="6512"/><tag k="addr:postcode" v="78731"/></node><node id="-107" lat="30.35928" lon="-97.779086" changeset="false"><tag k="addr:street" v="Santolina Cove"/><tag k="addr:housenumber" v="6514"/><tag k="addr:postcode" v="78731"/></node><node id="-108" lat="30.359117" lon="-97.778908" changeset="false"><tag k="addr:street" v="Santolina Cove"/><tag k="addr:housenumber" v="6510"/><tag k="addr:postcode" v="78731"/></node><node id="-109" lat="30.359135" lon="-97.778748" changeset="false"><tag k="addr:street" v="Santolina Cove"/><tag k="addr:housenumber" v="6508"/><tag k="addr:postcode" v="78731"/></node><node id="-110" lat="30.349719" lon="-97.779268" changeset="false"><tag k="addr:street" v="Twin Valley Circle"/><tag k="addr:housenumber" v="4609"/><tag k="addr:postcode" v="78731"/></node><node id="-111" lat="30.34973" lon="-97.779146" changeset="false"><tag k="addr:street" v="Twin Valley Circle"/><tag k="addr:housenumber" v="4607"/><tag k="addr:postcode" v="78731"/></node><node id="-112" lat="30.349737" lon="-97.779047" changeset="false"><tag k="addr:street" v="Twin Valley Circle"/><tag k="addr:housenumber" v="4605"/><tag k="addr:postcode" v="78731"/></node><node id="-113" lat="30.349727" lon="-97.779478" changeset="false"><tag k="addr:street" v="Twin Valley Circle"/><tag k="addr:housenumber" v="4613"/><tag k="addr:postcode" v="78731"/></node><node id="-114" lat="30.349673" lon="-97.77937" changeset="false"><tag k="addr:street" v="Twin Valley Circle"/><tag k="addr:housenumber" v="4611"/><tag k="addr:postcode" v="78731"/></node><node id="-115" lat="30.351189" lon="-97.781873" changeset="false"><tag k="addr:street" v="Twin Valley Drive"/><tag k="addr:housenumber" v="4730"/><tag k="addr:postcode" v="78731"/></node><node id="-116" lat="30.351301" lon="-97.781851" changeset="false"><tag k="addr:street" v="Twin Valley Drive"/><tag k="addr:housenumber" v="4728"/><tag k="addr:postcode" v="78731"/></node><node id="-117" lat="30.360667" lon="-97.787832" changeset="false"><tag k="addr:street" v="Lakewood Drive"/><tag k="addr:housenumber" v="6317"/><tag k="addr:postcode" v="78731"/></node><node id="-118" lat="30.360535" lon="-97.787741" changeset="false"><tag k="addr:street" v="Lakewood Drive"/><tag k="addr:housenumber" v="6321"/><tag k="addr:postcode" v="78731"/></node><node id="-119" lat="30.349276" lon="-97.778482" changeset="false"><tag k="addr:street" v="Twin Ledge Circle"/><tag k="addr:housenumber" v="6110"/><tag k="addr:postcode" v="78731"/></node><node id="-120" lat="30.349293" lon="-97.778378" changeset="false"><tag k="addr:street" v="Twin Ledge Circle"/><tag k="addr:housenumber" v="6108"/><tag k="addr:postcode" v="78731"/></node><node id="-121" lat="30.349338" lon="-97.778278" changeset="false"><tag k="addr:street" v="Twin Ledge Circle"/><tag k="addr:housenumber" v="6106"/><tag k="addr:postcode" v="78731"/></node><node id="-122" lat="30.349341" lon="-97.778178" changeset="false"><tag k="addr:street" v="Twin Ledge Circle"/><tag k="addr:housenumber" v="6104"/><tag k="addr:postcode" v="78731"/></node><node id="-123" lat="30.343341" lon="-97.778126" changeset="false"><tag k="addr:street" v="Autumnleaf Hollow"/><tag k="addr:housenumber" v="4506"/><tag k="addr:postcode" v="78731"/></node><node id="-124" lat="30.343413" lon="-97.778103" changeset="false"><tag k="addr:street" v="Autumnleaf Hollow"/><tag k="addr:housenumber" v="4500"/><tag k="addr:postcode" v="78731"/></node></osm>