<?xml version="1.0" encoding="UTF-8"?><osm version="0.6" generator="github.com/aaronlidman/osm-and-geojson"><node id="-1" lat="30.350991" lon="-97.669012" changeset="false"><tag k="addr:street" v="Brown Lane"/><tag k="addr:housenumber" v="9511"/><tag k="coa:place_id" v="932019"/></node><node id="-2" lat="30.330985" lon="-97.649742" changeset="false"><tag k="addr:street" v="Wightman Drive"/><tag k="addr:housenumber" v="8804"/><tag k="coa:place_id" v="81784"/></node><node id="-3" lat="30.353147" lon="-97.645538" changeset="false"><tag k="addr:street" v="Cameron Road"/><tag k="addr:housenumber" v="10520"/><tag k="coa:place_id" v="269672"/></node><node id="-4" lat="30.353091" lon="-97.652087" changeset="false"><tag k="addr:street" v="Sprinkle Cutoff Road,1100"/><tag k="addr:housenumber" v="10401"/><tag k="coa:place_id" v="1161248"/></node><node id="-5" lat="30.373203" lon="-97.660036" changeset="false"><tag k="addr:street" v="Payton Falls Drive"/><tag k="addr:housenumber" v="1509"/><tag k="coa:place_id" v="3073744"/></node><node id="-6" lat="30.372999" lon="-97.661212" changeset="false"><tag k="addr:street" v="Brixey Lane"/><tag k="addr:housenumber" v="11417"/><tag k="coa:place_id" v="237490"/></node><node id="-7" lat="30.372795" lon="-97.662949" changeset="false"><tag k="addr:street" v="Faber Valley Cove"/><tag k="addr:housenumber" v="11321"/><tag k="coa:place_id" v="3095014"/></node><node id="-8" lat="30.3727" lon="-97.661991" changeset="false"><tag k="addr:street" v="Scheider Drive"/><tag k="addr:housenumber" v="1433"/><tag k="coa:place_id" v="3071108"/></node><node id="-9" lat="30.373816" lon="-97.660556" changeset="false"><tag k="addr:street" v="Payton Falls Drive"/><tag k="addr:housenumber" v="1417"/><tag k="coa:place_id" v="237533"/></node><node id="-10" lat="30.33259" lon="-97.653091" changeset="false"><tag k="addr:street" v="Springdale Road"/><tag k="addr:housenumber" v="8907"/><tag k="coa:place_id" v="226442"/></node><node id="-11" lat="30.336703" lon="-97.648453" changeset="false"><tag k="addr:street" v="Magna Carta Loop"/><tag k="addr:housenumber" v="9400"/><tag k="coa:place_id" v="3112352"/></node><node id="-12" lat="30.375665" lon="-97.651752" changeset="false"><tag k="addr:street" v="Shaker Trail"/><tag k="addr:housenumber" v="1909"/><tag k="coa:place_id" v="3131743"/></node><node id="-13" lat="30.350837" lon="-97.669875" changeset="false"><tag k="addr:street" v="Brown Lane"/><tag k="addr:housenumber" v="9510"/><tag k="coa:place_id" v="343052"/></node><node id="-14" lat="30.372678" lon="-97.664065" changeset="false"><tag k="addr:street" v="Faber Valley Cove"/><tag k="addr:housenumber" v="11300"/><tag k="coa:place_id" v="3095005"/></node><node id="-15" lat="30.331127" lon="-97.651495" changeset="false"><tag k="addr:street" v="Quiette Drive"/><tag k="addr:housenumber" v="3633"/><tag k="coa:place_id" v="227630"/></node><node id="-16" lat="30.353594" lon="-97.65307" changeset="false"><tag k="addr:street" v="Sprinkle Cutoff Road,1100"/><tag k="addr:housenumber" v="10202"/><tag k="coa:place_id" v="987729"/></node><node id="-17" lat="30.330644" lon="-97.647482" changeset="false"><tag k="addr:street" v="Chimney Hill Boulevard"/><tag k="addr:housenumber" v="8801"/><tag k="coa:place_id" v="128024"/></node><node id="-18" lat="30.349533" lon="-97.671601" changeset="false"><tag k="addr:street" v="Brown Lane"/><tag k="addr:housenumber" v="9400"/><tag k="coa:place_id" v="342926"/></node><node id="-19" lat="30.375182" lon="-97.651834" changeset="false"><tag k="addr:street" v="Shaker Trail"/><tag k="addr:housenumber" v="2001"/><tag k="coa:place_id" v="3131793"/></node><node id="-20" lat="30.374793" lon="-97.654039" changeset="false"><tag k="addr:street" v="Musket Valley Trail"/><tag k="addr:housenumber" v="1800 1/2"/><tag k="coa:place_id" v="3126019"/></node><node id="-21" lat="30.3746" lon="-97.65185" changeset="false"><tag k="addr:street" v="Shaker Trail"/><tag k="addr:housenumber" v="2017"/><tag k="coa:place_id" v="3131801"/></node><node id="-22" lat="30.36645" lon="-97.66559" changeset="false"><tag k="addr:street" v="Wandering Way"/><tag k="addr:housenumber" v="10808"/><tag k="coa:place_id" v="259053"/></node><node id="-23" lat="30.371904" lon="-97.661696" changeset="false"><tag k="addr:street" v="Payton Falls Drive"/><tag k="addr:housenumber" v="1636"/><tag k="coa:place_id" v="237491"/></node><node id="-24" lat="30.337002" lon="-97.650317" changeset="false"><tag k="addr:street" v="Springdale Road"/><tag k="addr:housenumber" v="9317"/><tag k="coa:place_id" v="226448"/></node><node id="-25" lat="30.377046" lon="-97.65463" changeset="false"><tag k="addr:street" v="Bowerton Drive"/><tag k="addr:housenumber" v="1725"/><tag k="coa:place_id" v="3118058"/></node><node id="-26" lat="30.373975" lon="-97.661826" changeset="false"><tag k="addr:street" v="Mussett Street"/><tag k="addr:housenumber" v="1400"/><tag k="coa:place_id" v="3074019"/></node><node id="-27" lat="30.37373" lon="-97.660372" changeset="false"><tag k="addr:street" v="Payton Falls Drive"/><tag k="addr:housenumber" v="1421"/><tag k="coa:place_id" v="237534"/></node><node id="-28" lat="30.372774" lon="-97.662383" changeset="false"><tag k="addr:street" v="Scheider Drive"/><tag k="addr:housenumber" v="1425"/><tag k="coa:place_id" v="3078406"/></node><node id="-29" lat="30.371657" lon="-97.663737" changeset="false"><tag k="addr:street" v="Brixey Lane"/><tag k="addr:housenumber" v="11305"/><tag k="coa:place_id" v="3078412"/></node><node id="-30" lat="30.371609" lon="-97.663536" changeset="false"><tag k="addr:street" v="Brixey Lane"/><tag k="addr:housenumber" v="11309"/><tag k="coa:place_id" v="3078413"/></node><node id="-31" lat="30.374376" lon="-97.648171" changeset="false"><tag k="addr:street" v="Oltons Bluff Cove"/><tag k="addr:housenumber" v="11505"/><tag k="coa:place_id" v="3184435"/></node><node id="-32" lat="30.375184" lon="-97.654955" changeset="false"><tag k="addr:street" v="Goddard Bluff Drive"/><tag k="addr:housenumber" v="1705"/><tag k="coa:place_id" v="3091785"/></node><node id="-33" lat="30.32978" lon="-97.652763" changeset="false"><tag k="addr:street" v="US Highway 290"/><tag k="addr:housenumber" v="9230"/><tag k="coa:place_id" v="218268"/></node><node id="-34" lat="30.363941" lon="-97.667956" changeset="false"><tag k="addr:street" v="Dessau Road"/><tag k="addr:housenumber" v="10505"/><tag k="coa:place_id" v="235974"/></node><node id="-35" lat="30.371175" lon="-97.66242" changeset="false"><tag k="addr:street" v="Braxton Valley Cove"/><tag k="addr:housenumber" v="1509"/><tag k="coa:place_id" v="3095021"/></node><node id="-36" lat="30.373386" lon="-97.662836" changeset="false"><tag k="addr:street" v="Faber Valley Cove"/><tag k="addr:housenumber" v="11328"/><tag k="coa:place_id" v="3118661"/></node><node id="-37" lat="30.376014" lon="-97.654186" changeset="false"><tag k="addr:street" v="Larch Valley Drive"/><tag k="addr:housenumber" v="11511"/><tag k="coa:place_id" v="3091811"/></node><node id="-38" lat="30.371776" lon="-97.663908" changeset="false"><tag k="addr:street" v="Brixey Lane"/><tag k="addr:housenumber" v="11301"/><tag k="coa:place_id" v="3078411"/></node><node id="-39" lat="30.337707" lon="-97.653472" changeset="false"><tag k="addr:street" v="Ferguson Lane"/><tag k="addr:housenumber" v="3308"/><tag k="coa:place_id" v="226604"/></node><node id="-40" lat="30.336675" lon="-97.647651" changeset="false"><tag k="addr:street" v="Virginia Dare Lane"/><tag k="addr:housenumber" v="4706"/><tag k="coa:place_id" v="3112691"/></node><node id="-41" lat="30.338419" lon="-97.645774" changeset="false"><tag k="addr:street" v="Lake Champlain Lane"/><tag k="addr:housenumber" v="4717"/><tag k="coa:place_id" v="3112239"/></node><node id="-42" lat="30.336468" lon="-97.64852" changeset="false"><tag k="addr:street" v="Magna Carta Loop"/><tag k="addr:housenumber" v="9308"/><tag k="coa:place_id" v="3112355"/></node><node id="-43" lat="30.331292" lon="-97.649797" changeset="false"><tag k="addr:street" v="Wightman Drive"/><tag k="addr:housenumber" v="8810"/><tag k="coa:place_id" v="81781"/></node><node id="-44" lat="30.333744" lon="-97.650405" changeset="false"><tag k="addr:street" v="Quiette Drive"/><tag k="addr:housenumber" v="3612"/><tag k="coa:place_id" v="227774"/></node><node id="-45" lat="30.343293" lon="-97.665398" changeset="false"><tag k="addr:street" v="Ferguson Lane"/><tag k="addr:housenumber" v="2314"/><tag k="coa:place_id" v="127689"/></node><node id="-46" lat="30.340886" lon="-97.646154" changeset="false"><tag k="addr:street" v="Dorchester Heights Lane"/><tag k="addr:housenumber" v="4914"/><tag k="coa:place_id" v="3112274"/></node><node id="-47" lat="30.347325" lon="-97.646852" changeset="false"><tag k="addr:street" v="Springdale Road"/><tag k="addr:housenumber" v="10400"/><tag k="coa:place_id" v="269600"/></node><node id="-48" lat="30.376448" lon="-97.653994" changeset="false"><tag k="addr:street" v="Larch Valley Drive"/><tag k="addr:housenumber" v="11609"/><tag k="coa:place_id" v="3118070"/></node><node id="-49" lat="30.372269" lon="-97.662906" changeset="false"><tag k="addr:street" v="Brixey Cove"/><tag k="addr:housenumber" v="1401"/><tag k="coa:place_id" v="3078416"/></node><node id="-50" lat="30.372081" lon="-97.660938" changeset="false"><tag k="addr:street" v="Payton Falls Drive"/><tag k="addr:housenumber" v="1623"/><tag k="coa:place_id" v="237548"/></node><node id="-51" lat="30.372097" lon="-97.661899" changeset="false"><tag k="addr:street" v="Payton Falls Drive"/><tag k="addr:housenumber" v="1640"/><tag k="coa:place_id" v="3076031"/></node><node id="-52" lat="30.334467" lon="-97.648791" changeset="false"><tag k="addr:street" v="Wellesley Drive"/><tag k="addr:housenumber" v="9212"/><tag k="coa:place_id" v="157278"/></node><node id="-53" lat="30.375139" lon="-97.651415" changeset="false"><tag k="addr:street" v="Shaker Trail"/><tag k="addr:housenumber" v="2000"/><tag k="coa:place_id" v="3131792"/></node><node id="-54" lat="30.374383" lon="-97.653804" changeset="false"><tag k="addr:street" v="Musket Valley Trail"/><tag k="addr:housenumber" v="1805"/><tag k="coa:place_id" v="3109071"/></node><node id="-55" lat="30.366229" lon="-97.650266" changeset="false"><tag k="addr:street" v="Mc Donald Way"/><tag k="addr:housenumber" v="2412"/><tag k="coa:place_id" v="5061132"/></node><node id="-56" lat="30.366225" lon="-97.650777" changeset="false"><tag k="addr:street" v="Mc Donald Way"/><tag k="addr:housenumber" v="2401"/><tag k="coa:place_id" v="5061138"/></node><node id="-57" lat="30.366106" lon="-97.649743" changeset="false"><tag k="addr:street" v="Mc Donald Way"/><tag k="addr:housenumber" v="2504"/><tag k="coa:place_id" v="5061145"/></node><node id="-58" lat="30.366043" lon="-97.649468" changeset="false"><tag k="addr:street" v="Mc Donald Way"/><tag k="addr:housenumber" v="2512"/><tag k="coa:place_id" v="5061147"/></node><node id="-59" lat="30.365569" lon="-97.649473" changeset="false"><tag k="addr:street" v="Mc Donald Way"/><tag k="addr:housenumber" v="2521"/><tag k="coa:place_id" v="5061159"/></node><node id="-60" lat="30.365503" lon="-97.649211" changeset="false"><tag k="addr:street" v="Mc Donald Way"/><tag k="addr:housenumber" v="2529"/><tag k="coa:place_id" v="5061161"/></node><node id="-61" lat="30.350204" lon="-97.671245" changeset="false"><tag k="addr:street" v="Dungan Lane"/><tag k="addr:housenumber" v="1711"/><tag k="coa:place_id" v="3371648"/></node><node id="-62" lat="30.346423" lon="-97.676881" changeset="false"><tag k="addr:street" v="Cameron Road"/><tag k="addr:housenumber" v="9001"/><tag k="coa:place_id" v="5056585"/></node><node id="-63" lat="30.371372" lon="-97.654961" changeset="false"><tag k="addr:street" v="East Braker Lane"/><tag k="addr:housenumber" v="1900"/><tag k="coa:place_id" v="3555389"/></node><node id="-64" lat="30.344617" lon="-97.671744" changeset="false"><tag k="addr:street" v="Ferguson Lane"/><tag k="addr:housenumber" v="1826"/><tag k="coa:place_id" v="3258964"/></node><node id="-65" lat="30.383417" lon="-97.649646" changeset="false"><tag k="addr:street" v="Dessau Road"/><tag k="addr:housenumber" v="12117"/><tag k="coa:place_id" v="5189397"/></node><node id="-66" lat="30.384665" lon="-97.645748" changeset="false"><tag k="addr:street" v="East Parmer Lane"/><tag k="addr:housenumber" v="1917"/><tag k="coa:place_id" v="5189407"/></node><node id="-67" lat="30.384271" lon="-97.64515" changeset="false"><tag k="addr:street" v="East Parmer Lane"/><tag k="addr:housenumber" v="2001"/><tag k="coa:place_id" v="5189408"/></node><node id="-68" lat="30.371558" lon="-97.660526" changeset="false"><tag k="addr:street" v="Payton Falls Drive"/><tag k="addr:housenumber" v="1608"/><tag k="coa:place_id" v="237498"/></node><node id="-69" lat="30.377423" lon="-97.653101" changeset="false"><tag k="addr:street" v="Larch Valley Drive"/><tag k="addr:housenumber" v="11721"/><tag k="coa:place_id" v="3118079"/></node><node id="-70" lat="30.372268" lon="-97.663081" changeset="false"><tag k="addr:street" v="Brixey Cove"/><tag k="addr:housenumber" v="1405"/><tag k="coa:place_id" v="3078417"/></node><node id="-71" lat="30.371959" lon="-97.663907" changeset="false"><tag k="addr:street" v="Brixey Lane"/><tag k="addr:housenumber" v="11300"/><tag k="coa:place_id" v="3078408"/></node><node id="-72" lat="30.369952" lon="-97.655915" changeset="false"><tag k="addr:street" v="Sprinkle Cutoff Road"/><tag k="addr:housenumber" v="11405"/><tag k="coa:place_id" v="3181471"/></node><node id="-73" lat="30.371554" lon="-97.660346" changeset="false"><tag k="addr:street" v="Payton Falls Drive"/><tag k="addr:housenumber" v="1604"/><tag k="coa:place_id" v="237499"/></node><node id="-74" lat="30.372727" lon="-97.66311" changeset="false"><tag k="addr:street" v="Faber Valley Cove"/><tag k="addr:housenumber" v="11317"/><tag k="coa:place_id" v="3095013"/></node><node id="-75" lat="30.352559" lon="-97.646979" changeset="false"><tag k="addr:street" v="Sprinkle Cutoff Road"/><tag k="addr:housenumber" v="10505"/><tag k="coa:place_id" v="810717"/></node><node id="-76" lat="30.334429" lon="-97.648542" changeset="false"><tag k="addr:street" v="Edenbourgh Lane"/><tag k="addr:housenumber" v="4801"/><tag k="coa:place_id" v="64654"/></node><node id="-77" lat="30.371444" lon="-97.662636" changeset="false"><tag k="addr:street" v="Braxton Valley Cove"/><tag k="addr:housenumber" v="1501"/><tag k="coa:place_id" v="3103858"/></node><node id="-78" lat="30.369911" lon="-97.666915" changeset="false"><tag k="addr:street" v="Wandering Way"/><tag k="addr:housenumber" v="11117"/><tag k="coa:place_id" v="919461"/></node><node id="-79" lat="30.337565" lon="-97.652384" changeset="false"><tag k="addr:street" v="Happy Trail"/><tag k="addr:housenumber" v="9305"/><tag k="coa:place_id" v="559731"/></node><node id="-80" lat="30.367512" lon="-97.663772" changeset="false"><tag k="addr:street" v="Misty Cove"/><tag k="addr:housenumber" v="1509"/><tag k="coa:place_id" v="3083017"/></node><node id="-81" lat="30.369059" lon="-97.655348" changeset="false"><tag k="addr:street" v="Trail Weary Drive"/><tag k="addr:housenumber" v="10805"/><tag k="coa:place_id" v="3181449"/></node><node id="-82" lat="30.351244" lon="-97.672746" changeset="false"><tag k="addr:street" v="Dungan Lane"/><tag k="addr:housenumber" v="1610 1/2"/><tag k="coa:place_id" v="214452"/></node><node id="-83" lat="30.332075" lon="-97.647816" changeset="false"><tag k="addr:street" v="Wellesley Drive"/><tag k="addr:housenumber" v="9022"/><tag k="coa:place_id" v="64632"/></node><node id="-84" lat="30.331552" lon="-97.648709" changeset="false"><tag k="addr:street" v="Wimbledon Drive"/><tag k="addr:housenumber" v="5001"/><tag k="coa:place_id" v="145319"/></node><node id="-85" lat="30.372996" lon="-97.661745" changeset="false"><tag k="addr:street" v="Scheider Drive"/><tag k="addr:housenumber" v="1432"/><tag k="coa:place_id" v="3079431"/></node><node id="-86" lat="30.331184" lon="-97.649782" changeset="false"><tag k="addr:street" v="Wightman Drive"/><tag k="addr:housenumber" v="8808"/><tag k="coa:place_id" v="81782"/></node><node id="-87" lat="30.342228" lon="-97.663439" changeset="false"><tag k="addr:street" v="Ferguson Lane"/><tag k="addr:housenumber" v="2506 1/2"/><tag k="coa:place_id" v="3140312"/></node><node id="-88" lat="30.344194" lon="-97.646792" changeset="false"><tag k="addr:street" v="Springdale Road"/><tag k="addr:housenumber" v="10300"/><tag k="coa:place_id" v="269606"/></node><node id="-89" lat="30.377177" lon="-97.656735" changeset="false"><tag k="addr:street" v="Long Rifle Drive"/><tag k="addr:housenumber" v="1609"/><tag k="coa:place_id" v="3091720"/></node><node id="-90" lat="30.374021" lon="-97.660875" changeset="false"><tag k="addr:street" v="Payton Falls Drive"/><tag k="addr:housenumber" v="1409"/><tag k="coa:place_id" v="237528"/></node><node id="-91" lat="30.373709" lon="-97.659483" changeset="false"><tag k="addr:street" v="Waxler Court"/><tag k="addr:housenumber" v="15505"/><tag k="coa:place_id" v="237563"/></node><node id="-92" lat="30.338668" lon="-97.648729" changeset="false"><tag k="addr:street" v="Springdale Road"/><tag k="addr:housenumber" v="9404"/><tag k="coa:place_id" v="269666"/></node><node id="-93" lat="30.338536" lon="-97.647932" changeset="false"><tag k="addr:street" v="Springdale Road"/><tag k="addr:housenumber" v="9501"/><tag k="coa:place_id" v="495543"/></node><node id="-94" lat="30.372869" lon="-97.664011" changeset="false"><tag k="addr:street" v="Faber Valley Cove"/><tag k="addr:housenumber" v="11304"/><tag k="coa:place_id" v="3095006"/></node><node id="-95" lat="30.374261" lon="-97.648253" changeset="false"><tag k="addr:street" v="Oltons Bluff Cove"/><tag k="addr:housenumber" v="11501"/><tag k="coa:place_id" v="3184434"/></node><node id="-96" lat="30.37467" lon="-97.647989" changeset="false"><tag k="addr:street" v="Oltons Bluff Cove"/><tag k="addr:housenumber" v="11513"/><tag k="coa:place_id" v="3184437"/></node><node id="-97" lat="30.351504" lon="-97.675269" changeset="false"><tag k="addr:street" v="Dessau Road"/><tag k="addr:housenumber" v="9409"/><tag k="coa:place_id" v="343262"/></node><node id="-98" lat="30.3733" lon="-97.663011" changeset="false"><tag k="addr:street" v="Faber Valley Cove"/><tag k="addr:housenumber" v="11324"/><tag k="coa:place_id" v="3095011"/></node><node id="-99" lat="30.37322" lon="-97.663206" changeset="false"><tag k="addr:street" v="Faber Valley Cove"/><tag k="addr:housenumber" v="11320"/><tag k="coa:place_id" v="3095010"/></node><node id="-100" lat="30.374173" lon="-97.656219" changeset="false"><tag k="addr:street" v="East Braker Lane"/><tag k="addr:housenumber" v="1620 1/2"/><tag k="coa:place_id" v="3100723"/></node><node id="-101" lat="30.370836" lon="-97.663199" changeset="false"><tag k="addr:street" v="Hidden Bluff Drive"/><tag k="addr:housenumber" v="11216"/><tag k="coa:place_id" v="122063"/></node><node id="-102" lat="30.375944" lon="-97.651348" changeset="false"><tag k="addr:street" v="Shaker Trail"/><tag k="addr:housenumber" v="1904"/><tag k="coa:place_id" v="3131732"/></node><node id="-103" lat="30.365819" lon="-97.662117" changeset="false"><tag k="addr:street" v="Brushy View Cove"/><tag k="addr:housenumber" v="1615"/><tag k="coa:place_id" v="1049396"/></node><node id="-104" lat="30.365655" lon="-97.662288" changeset="false"><tag k="addr:street" v="Brushy View Cove"/><tag k="addr:housenumber" v="1613"/><tag k="coa:place_id" v="483520"/></node><node id="-105" lat="30.370349" lon="-97.651524" changeset="false"><tag k="addr:street" v="Friendship Drive"/><tag k="addr:housenumber" v="11125"/><tag k="coa:place_id" v="3258800"/></node><node id="-106" lat="30.347642" lon="-97.676377" changeset="false"><tag k="addr:street" v="Cameron Road"/><tag k="addr:housenumber" v="9105"/><tag k="coa:place_id" v="3371630"/></node><node id="-107" lat="30.372463" lon="-97.664724" changeset="false"><tag k="addr:street" v="Dessau Road"/><tag k="addr:housenumber" v="11309"/><tag k="coa:place_id" v="3307983"/></node><node id="-108" lat="30.383804" lon="-97.649418" changeset="false"><tag k="addr:street" v="Dessau Road"/><tag k="addr:housenumber" v="12123"/><tag k="coa:place_id" v="5189399"/></node><node id="-109" lat="30.36641" lon="-97.650512" changeset="false"><tag k="addr:street" v="Mc Donald Way"/><tag k="addr:housenumber" v="2404"/><tag k="coa:place_id" v="5061130"/></node><node id="-110" lat="30.355759" lon="-97.671968" changeset="false"><tag k="addr:street" v="Dessau Road"/><tag k="addr:housenumber" v="9795"/><tag k="coa:place_id" v="5062726"/></node><node id="-111" lat="30.367874" lon="-97.649127" changeset="false"><tag k="addr:street" v="East Braker Lane"/><tag k="addr:housenumber" v="2500"/><tag k="coa:place_id" v="5069590"/></node><node id="-112" lat="30.348529" lon="-97.676324" changeset="false"><tag k="addr:street" v="Cameron Road"/><tag k="addr:housenumber" v="9201"/><tag k="coa:place_id" v="3313668"/></node><node id="-113" lat="30.329821" lon="-97.653811" changeset="false"><tag k="addr:street" v="Springdale Road"/><tag k="addr:housenumber" v="8505"/><tag k="coa:place_id" v="208959"/></node><node id="-114" lat="30.33486" lon="-97.647404" changeset="false"><tag k="addr:street" v="Magna Carta Loop"/><tag k="addr:housenumber" v="9202"/><tag k="coa:place_id" v="3112763"/></node><node id="-115" lat="30.361808" lon="-97.66842" changeset="false"><tag k="addr:street" v="Dessau Road"/><tag k="addr:housenumber" v="10217"/><tag k="coa:place_id" v="343322"/></node><node id="-116" lat="30.330973" lon="-97.646009" changeset="false"><tag k="addr:street" v="Langwood Drive"/><tag k="addr:housenumber" v="5217"/><tag k="coa:place_id" v="227126"/></node><node id="-117" lat="30.372612" lon="-97.659491" changeset="false"><tag k="addr:street" v="Payton Falls Drive"/><tag k="addr:housenumber" v="1524"/><tag k="coa:place_id" v="237511"/></node><node id="-118" lat="30.374327" lon="-97.661118" changeset="false"><tag k="addr:street" v="Payton Falls Drive"/><tag k="addr:housenumber" v="1401"/><tag k="coa:place_id" v="3068509"/></node><node id="-119" lat="30.373584" lon="-97.661942" changeset="false"><tag k="addr:street" v="Mussett Street"/><tag k="addr:housenumber" v="1405"/><tag k="coa:place_id" v="237565"/></node><node id="-120" lat="30.33628" lon="-97.645783" changeset="false"><tag k="addr:street" v="Virginia Dare Lane"/><tag k="addr:housenumber" v="4813"/><tag k="coa:place_id" v="3112260"/></node><node id="-121" lat="30.345813" lon="-97.675503" changeset="false"><tag k="addr:street" v="Ferguson Lane"/><tag k="addr:housenumber" v="1508"/><tag k="coa:place_id" v="245333"/></node><node id="-122" lat="30.338329" lon="-97.648701" changeset="false"><tag k="addr:street" v="Springdale Road"/><tag k="addr:housenumber" v="9507"/><tag k="coa:place_id" v="103690"/></node><node id="-123" lat="30.374619" lon="-97.66061" changeset="false"><tag k="addr:street" v="Dessau Road"/><tag k="addr:housenumber" v="11517"/><tag k="coa:place_id" v="3029795"/></node><node id="-124" lat="30.353103" lon="-97.668928" changeset="false"><tag k="addr:street" v="Brown Lane"/><tag k="addr:housenumber" v="9612"/><tag k="coa:place_id" v="110111"/></node><node id="-125" lat="30.351701" lon="-97.673234" changeset="false"><tag k="addr:street" v="Dungan Lane"/><tag k="addr:housenumber" v="1600"/><tag k="coa:place_id" v="343268"/></node><node id="-126" lat="30.373012" lon="-97.659553" changeset="false"><tag k="addr:street" v="Payton Falls Drive"/><tag k="addr:housenumber" v="1512"/><tag k="coa:place_id" v="3091376"/></node><node id="-127" lat="30.374442" lon="-97.656113" changeset="false"><tag k="addr:street" v="Day Camp Lane"/><tag k="addr:housenumber" v="11404"/><tag k="coa:place_id" v="3091792"/></node><node id="-128" lat="30.335807" lon="-97.646793" changeset="false"><tag k="addr:street" v="Valcour Bay Lane"/><tag k="addr:housenumber" v="4804"/><tag k="coa:place_id" v="3112737"/></node><node id="-129" lat="30.37641" lon="-97.657072" changeset="false"><tag k="addr:street" v="Day Camp Lane"/><tag k="addr:housenumber" v="11700"/><tag k="coa:place_id" v="3091723"/></node><node id="-130" lat="30.35167" lon="-97.670211" changeset="false"><tag k="addr:street" v="Brown Lane"/><tag k="addr:housenumber" v="9520"/><tag k="coa:place_id" v="343082"/></node><node id="-131" lat="30.331218" lon="-97.64848" changeset="false"><tag k="addr:street" v="Barons Court"/><tag k="addr:housenumber" v="8901"/><tag k="coa:place_id" v="226988"/></node><node id="-132" lat="30.346845" lon="-97.65899" changeset="false"><tag k="addr:street" v="Sprinkle Cutoff Road,1100"/><tag k="addr:housenumber" v="9501"/><tag k="coa:place_id" v="342686"/></node><node id="-133" lat="30.345603" lon="-97.661015" changeset="false"><tag k="addr:street" v="Sprinkle Cutoff Road,1100"/><tag k="addr:housenumber" v="9312"/><tag k="coa:place_id" v="342674"/></node><node id="-134" lat="30.330572" lon="-97.646694" changeset="false"><tag k="addr:street" v="Merion Circle"/><tag k="addr:housenumber" v="8814"/><tag k="coa:place_id" v="227180"/></node><node id="-135" lat="30.350716" lon="-97.670275" changeset="false"><tag k="addr:street" v="Brown Lane"/><tag k="addr:housenumber" v="9506"/><tag k="coa:place_id" v="148030"/></node><node id="-136" lat="30.366767" lon="-97.662733" changeset="false"><tag k="addr:street" v="Brushy View Cove"/><tag k="addr:housenumber" v="1625"/><tag k="coa:place_id" v="428169"/></node><node id="-137" lat="30.35583" lon="-97.647886" changeset="false"><tag k="addr:street" v="Sprinkle Cutoff Road"/><tag k="addr:housenumber" v="10623"/><tag k="coa:place_id" v="268688"/></node><node id="-138" lat="30.330844" lon="-97.649313" changeset="false"><tag k="addr:street" v="Wightman Drive"/><tag k="addr:housenumber" v="8801"/><tag k="coa:place_id" v="81787"/></node><node id="-139" lat="30.329708" lon="-97.646437" changeset="false"><tag k="addr:street" v="US Highway 290"/><tag k="addr:housenumber" v="9298"/><tag k="coa:place_id" v="227426"/></node><node id="-140" lat="30.348298" lon="-97.672417" changeset="false"><tag k="addr:street" v="Brown Lane"/><tag k="addr:housenumber" v="9202"/><tag k="coa:place_id" v="342908"/></node><node id="-141" lat="30.336997" lon="-97.648405" changeset="false"><tag k="addr:street" v="Magna Carta Loop"/><tag k="addr:housenumber" v="9402"/><tag k="coa:place_id" v="3112353"/></node><node id="-142" lat="30.365691" lon="-97.663118" changeset="false"><tag k="addr:street" v="Brushy View Cove"/><tag k="addr:housenumber" v="1607"/><tag k="coa:place_id" v="569578"/></node><node id="-143" lat="30.377608" lon="-97.654143" changeset="false"><tag k="addr:street" v="Bowerton Drive"/><tag k="addr:housenumber" v="1813"/><tag k="coa:place_id" v="3118063"/></node><node id="-144" lat="30.350378" lon="-97.670575" changeset="false"><tag k="addr:street" v="Dungan Lane"/><tag k="addr:housenumber" v="1710"/><tag k="coa:place_id" v="343076"/></node><node id="-145" lat="30.373069" lon="-97.6608" changeset="false"><tag k="addr:street" v="Hollar Square"/><tag k="addr:housenumber" v="11416"/><tag k="coa:place_id" v="3072950"/></node><node id="-146" lat="30.369346" lon="-97.655526" changeset="false"><tag k="addr:street" v="Sprinkle Cutoff Road"/><tag k="addr:housenumber" v="11345"/><tag k="coa:place_id" v="3181453"/></node><node id="-147" lat="30.369834" lon="-97.663805" changeset="false"><tag k="addr:street" v="Terrace Bluff Drive"/><tag k="addr:housenumber" v="11204"/><tag k="coa:place_id" v="3079730"/></node><node id="-148" lat="30.366631" lon="-97.663851" changeset="false"><tag k="addr:street" v="Brushy View Cove"/><tag k="addr:housenumber" v="1506"/><tag k="coa:place_id" v="488703"/></node><node id="-149" lat="30.366301" lon="-97.662121" changeset="false"><tag k="addr:street" v="Brushy View Cove"/><tag k="addr:housenumber" v="1619"/><tag k="coa:place_id" v="188428"/></node><node id="-150" lat="30.33226" lon="-97.645478" changeset="false"><tag k="addr:street" v="Coppermead Lane"/><tag k="addr:housenumber" v="5223"/><tag k="coa:place_id" v="64594"/></node><node id="-151" lat="30.341862" lon="-97.646531" changeset="false"><tag k="addr:street" v="Springdale Road"/><tag k="addr:housenumber" v="9712"/><tag k="coa:place_id" v="269618"/></node><node id="-152" lat="30.340584" lon="-97.646138" changeset="false"><tag k="addr:street" v="Dorchester Heights Lane"/><tag k="addr:housenumber" v="4910"/><tag k="coa:place_id" v="3112272"/></node><node id="-153" lat="30.353568" lon="-97.653213" changeset="false"><tag k="addr:street" v="Sprinkle Cutoff Road,1100"/><tag k="addr:housenumber" v="10200"/><tag k="coa:place_id" v="268640"/></node><node id="-154" lat="30.332585" lon="-97.650992" changeset="false"><tag k="addr:street" v="Quiette Drive"/><tag k="addr:housenumber" v="3622"/><tag k="coa:place_id" v="227702"/></node><node id="-155" lat="30.374406" lon="-97.65445" changeset="false"><tag k="addr:street" v="Musket Valley Trail"/><tag k="addr:housenumber" v="1713 1/2"/><tag k="coa:place_id" v="3101541"/></node><node id="-156" lat="30.376092" lon="-97.651453" changeset="false"><tag k="addr:street" v="Shaker Trail"/><tag k="addr:housenumber" v="1900"/><tag k="coa:place_id" v="3131731"/></node><node id="-157" lat="30.372489" lon="-97.661114" changeset="false"><tag k="addr:street" v="Hollar Square"/><tag k="addr:housenumber" v="11404"/><tag k="coa:place_id" v="237581"/></node><node id="-158" lat="30.352186" lon="-97.667812" changeset="false"><tag k="addr:street" v="Brown Lane"/><tag k="addr:housenumber" v="9607"/><tag k="coa:place_id" v="582376"/></node><node id="-159" lat="30.365829" lon="-97.664825" changeset="false"><tag k="addr:street" v="Creek Hollow"/><tag k="addr:housenumber" v="1504"/><tag k="coa:place_id" v="395175"/></node><node id="-160" lat="30.366055" lon="-97.662076" changeset="false"><tag k="addr:street" v="Brushy View Cove"/><tag k="addr:housenumber" v="1617"/><tag k="coa:place_id" v="884811"/></node><node id="-161" lat="30.371429" lon="-97.650376" changeset="false"><tag k="addr:street" v="Friendship Drive"/><tag k="addr:housenumber" v="11304"/><tag k="coa:place_id" v="3258755"/></node><node id="-162" lat="30.371051" lon="-97.650646" changeset="false"><tag k="addr:street" v="Friendship Drive"/><tag k="addr:housenumber" v="11305"/><tag k="coa:place_id" v="3258759"/></node><node id="-163" lat="30.370583" lon="-97.651972" changeset="false"><tag k="addr:street" v="Friendship Drive"/><tag k="addr:housenumber" v="11124"/><tag k="coa:place_id" v="3258797"/></node><node id="-164" lat="30.373971" lon="-97.661617" changeset="false"><tag k="addr:street" v="Mussett Street"/><tag k="addr:housenumber" v="1404"/><tag k="coa:place_id" v="3074027"/></node><node id="-165" lat="30.350879" lon="-97.675434" changeset="false"><tag k="addr:street" v="Dessau Road"/><tag k="addr:housenumber" v="9401"/><tag k="coa:place_id" v="3371642"/></node><node id="-166" lat="30.365658" lon="-97.668309" changeset="false"><tag k="addr:street" v="Dessau Road"/><tag k="addr:housenumber" v="10545"/><tag k="coa:place_id" v="3364652"/></node><node id="-167" lat="30.354035" lon="-97.651353" changeset="false"><tag k="addr:street" v="Sprinkle Cutoff Road,1100"/><tag k="addr:housenumber" v="10406"/><tag k="coa:place_id" v="268646"/></node><node id="-168" lat="30.345649" lon="-97.674918" changeset="false"><tag k="addr:street" v="Ferguson Lane"/><tag k="addr:housenumber" v="1600"/><tag k="coa:place_id" v="3369374"/></node><node id="-169" lat="30.33183" lon="-97.653337" changeset="false"><tag k="addr:street" v="Springdale Road"/><tag k="addr:housenumber" v="8717"/><tag k="coa:place_id" v="3305052"/></node><node id="-170" lat="30.348067" lon="-97.671976" changeset="false"><tag k="addr:street" v="Brown Lane"/><tag k="addr:housenumber" v="9201"/><tag k="coa:place_id" v="993578"/></node><node id="-171" lat="30.373224" lon="-97.657864" changeset="false"><tag k="addr:street" v="East Braker Lane"/><tag k="addr:housenumber" v="1701"/><tag k="coa:place_id" v="3329952"/></node><node id="-172" lat="30.366338" lon="-97.650369" changeset="false"><tag k="addr:street" v="Mc Donald Way"/><tag k="addr:housenumber" v="2408"/><tag k="coa:place_id" v="5061131"/></node><node id="-173" lat="30.365915" lon="-97.649063" changeset="false"><tag k="addr:street" v="Mc Donald Way"/><tag k="addr:housenumber" v="2524"/><tag k="coa:place_id" v="5061150"/></node><node id="-174" lat="30.365712" lon="-97.649965" changeset="false"><tag k="addr:street" v="Mc Donald Way"/><tag k="addr:housenumber" v="2505"/><tag k="coa:place_id" v="5061155"/></node><node id="-175" lat="30.384382" lon="-97.649212" changeset="false"><tag k="addr:street" v="Dessau Road"/><tag k="addr:housenumber" v="12133"/><tag k="coa:place_id" v="5189401"/></node><node id="-176" lat="30.372731" lon="-97.661408" changeset="false"><tag k="addr:street" v="Brixey Lane"/><tag k="addr:housenumber" v="11409"/><tag k="coa:place_id" v="237486"/></node><node id="-177" lat="30.331494" lon="-97.646455" changeset="false"><tag k="addr:street" v="Langwood Drive"/><tag k="addr:housenumber" v="5210"/><tag k="coa:place_id" v="125517"/></node><node id="-178" lat="30.331507" lon="-97.647522" changeset="false"><tag k="addr:street" v="Newport Lane"/><tag k="addr:housenumber" v="8913"/><tag k="coa:place_id" v="110533"/></node><node id="-179" lat="30.374308" lon="-97.660402" changeset="false"><tag k="addr:street" v="Payton Falls Drive"/><tag k="addr:housenumber" v="1412"/><tag k="coa:place_id" v="237522"/></node><node id="-180" lat="30.373922" lon="-97.661409" changeset="false"><tag k="addr:street" v="Mussett Street"/><tag k="addr:housenumber" v="1408"/><tag k="coa:place_id" v="237566"/></node><node id="-181" lat="30.370845" lon="-97.655277" changeset="false"><tag k="addr:street" v="Wayward Sun Drive"/><tag k="addr:housenumber" v="1932"/><tag k="coa:place_id" v="3181504"/></node><node id="-182" lat="30.371556" lon="-97.660728" changeset="false"><tag k="addr:street" v="Payton Falls Drive"/><tag k="addr:housenumber" v="1612"/><tag k="coa:place_id" v="237497"/></node><node id="-183" lat="30.370445" lon="-97.663041" changeset="false"><tag k="addr:street" v="Hidden Bluff Drive"/><tag k="addr:housenumber" v="11213"/><tag k="coa:place_id" v="678897"/></node><node id="-184" lat="30.350112" lon="-97.669733" changeset="false"><tag k="addr:street" v="Brown Lane"/><tag k="addr:housenumber" v="9503"/><tag k="coa:place_id" v="342998"/></node><node id="-185" lat="30.373063" lon="-97.663584" changeset="false"><tag k="addr:street" v="Faber Valley Cove"/><tag k="addr:housenumber" v="11312"/><tag k="coa:place_id" v="3095008"/></node><node id="-186" lat="30.333045" lon="-97.65231" changeset="false"><tag k="addr:street" v="Carla Drive"/><tag k="addr:housenumber" v="3603"/><tag k="coa:place_id" v="3038432"/></node><node id="-187" lat="30.343577" lon="-97.662146" changeset="false"><tag k="addr:street" v="Sprinkle Cutoff Road,1100"/><tag k="addr:housenumber" v="9202"/><tag k="coa:place_id" v="702789"/></node><node id="-188" lat="30.366616" lon="-97.662466" changeset="false"><tag k="addr:street" v="Brushy View Cove"/><tag k="addr:housenumber" v="1623"/><tag k="coa:place_id" v="802395"/></node><node id="-189" lat="30.365607" lon="-97.662607" changeset="false"><tag k="addr:street" v="Brushy View Cove"/><tag k="addr:housenumber" v="1611"/><tag k="coa:place_id" v="816867"/></node><node id="-190" lat="30.365248" lon="-97.664158" changeset="false"><tag k="addr:street" v="Creek Hollow"/><tag k="addr:housenumber" v="1604"/><tag k="coa:place_id" v="211167"/></node><node id="-191" lat="30.331167" lon="-97.648249" changeset="false"><tag k="addr:street" v="Barons Court"/><tag k="addr:housenumber" v="8905"/><tag k="coa:place_id" v="3146753"/></node><node id="-192" lat="30.371245" lon="-97.662611" changeset="false"><tag k="addr:street" v="Braxton Valley Cove"/><tag k="addr:housenumber" v="1505"/><tag k="coa:place_id" v="3095020"/></node><node id="-193" lat="30.371995" lon="-97.662395" changeset="false"><tag k="addr:street" v="Brixey Lane"/><tag k="addr:housenumber" v="11344"/><tag k="coa:place_id" v="3078422"/></node><node id="-194" lat="30.365584" lon="-97.664048" changeset="false"><tag k="addr:street" v="Creek Hollow"/><tag k="addr:housenumber" v="1602"/><tag k="coa:place_id" v="144693"/></node><node id="-195" lat="30.329393" lon="-97.650625" changeset="false"><tag k="addr:street" v="US Highway 290"/><tag k="addr:housenumber" v="9270"/><tag k="coa:place_id" v="93630"/></node><node id="-196" lat="30.369463" lon="-97.655616" changeset="false"><tag k="addr:street" v="Sprinkle Cutoff Road"/><tag k="addr:housenumber" v="11349"/><tag k="coa:place_id" v="3181454"/></node><node id="-197" lat="30.37572" lon="-97.655935" changeset="false"><tag k="addr:street" v="Bush Coat Lane"/><tag k="addr:housenumber" v="1609"/><tag k="coa:place_id" v="3091756"/></node><node id="-198" lat="30.371661" lon="-97.665974" changeset="false"><tag k="addr:street" v="Vista Ridge Cove"/><tag k="addr:housenumber" v="1401"/><tag k="coa:place_id" v="136083"/></node><node id="-199" lat="30.372245" lon="-97.661282" changeset="false"><tag k="addr:street" v="Payton Falls Drive"/><tag k="addr:housenumber" v="1631"/><tag k="coa:place_id" v="237552"/></node><node id="-200" lat="30.331077" lon="-97.649762" changeset="false"><tag k="addr:street" v="Wightman Drive"/><tag k="addr:housenumber" v="8806"/><tag k="coa:place_id" v="81783"/></node><node id="-201" lat="30.375252" lon="-97.654463" changeset="false"><tag k="addr:street" v="Goddard Bluff Drive"/><tag k="addr:housenumber" v="1717"/><tag k="coa:place_id" v="3091789"/></node><node id="-202" lat="30.377153" lon="-97.65454" changeset="false"><tag k="addr:street" v="Bowerton Drive"/><tag k="addr:housenumber" v="1729"/><tag k="coa:place_id" v="3118059"/></node><node id="-203" lat="30.346241" lon="-97.672821" changeset="false"><tag k="addr:street" v="Brown Lane"/><tag k="addr:housenumber" v="9011"/><tag k="coa:place_id" v="821241"/></node><node id="-204" lat="30.346048" lon="-97.676142" changeset="false"><tag k="addr:street" v="Ferguson Lane"/><tag k="addr:housenumber" v="1504"/><tag k="coa:place_id" v="739791"/></node><node id="-205" lat="30.350534" lon="-97.669282" changeset="false"><tag k="addr:street" v="Brown Lane"/><tag k="addr:housenumber" v="9513"/><tag k="coa:place_id" v="343004"/></node><node id="-206" lat="30.336838" lon="-97.651983" changeset="false"><tag k="addr:street" v="Ferguson Lane"/><tag k="addr:housenumber" v="3502"/><tag k="coa:place_id" v="92310"/></node><node id="-207" lat="30.336618" lon="-97.647347" changeset="false"><tag k="addr:street" v="Virginia Dare Lane"/><tag k="addr:housenumber" v="4710"/><tag k="coa:place_id" v="3112695"/></node><node id="-208" lat="30.373792" lon="-97.662006" changeset="false"><tag k="addr:street" v="Mussett Street"/><tag k="addr:housenumber" v="1401"/><tag k="coa:place_id" v="3078400"/></node><node id="-209" lat="30.370064" lon="-97.655968" changeset="false"><tag k="addr:street" v="Sprinkle Cutoff Road"/><tag k="addr:housenumber" v="11409"/><tag k="coa:place_id" v="3181472"/></node><node id="-210" lat="30.331188" lon="-97.648146" changeset="false"><tag k="addr:street" v="Barons Court"/><tag k="addr:housenumber" v="8907"/><tag k="coa:place_id" v="226976"/></node><node id="-211" lat="30.35335" lon="-97.673785" changeset="false"><tag k="addr:street" v="Dessau Road"/><tag k="addr:housenumber" v="9601"/><tag k="coa:place_id" v="211279"/></node><node id="-212" lat="30.352453" lon="-97.669136" changeset="false"><tag k="addr:street" v="Brown Lane"/><tag k="addr:housenumber" v="9608"/><tag k="coa:place_id" v="119164"/></node><node id="-213" lat="30.377489" lon="-97.654237" changeset="false"><tag k="addr:street" v="Bowerton Drive"/><tag k="addr:housenumber" v="1809"/><tag k="coa:place_id" v="3118062"/></node><node id="-214" lat="30.370893" lon="-97.664448" changeset="false"><tag k="addr:street" v="Vista Ridge Cove"/><tag k="addr:housenumber" v="1411"/><tag k="coa:place_id" v="119416"/></node><node id="-215" lat="30.373167" lon="-97.662147" changeset="false"><tag k="addr:street" v="Scheider Drive"/><tag k="addr:housenumber" v="1420"/><tag k="coa:place_id" v="3078404"/></node><node id="-216" lat="30.376269" lon="-97.658834" changeset="false"><tag k="addr:street" v="Dessau Road"/><tag k="addr:housenumber" v="11681"/><tag k="coa:place_id" v="3121132"/></node><node id="-217" lat="30.372487" lon="-97.660124" changeset="false"><tag k="addr:street" v="Payton Falls Drive"/><tag k="addr:housenumber" v="1529"/><tag k="coa:place_id" v="237541"/></node><node id="-218" lat="30.353282" lon="-97.66847" changeset="false"><tag k="addr:street" v="Brown Lane"/><tag k="addr:housenumber" v="9702"/><tag k="coa:place_id" v="343112"/></node><node id="-219" lat="30.372984" lon="-97.663808" changeset="false"><tag k="addr:street" v="Faber Valley Cove"/><tag k="addr:housenumber" v="11308"/><tag k="coa:place_id" v="3095007"/></node><node id="-220" lat="30.338686" lon="-97.647577" changeset="false"><tag k="addr:street" v="Magna Carta Loop"/><tag k="addr:housenumber" v="9600"/><tag k="coa:place_id" v="3112293"/></node><node id="-221" lat="30.36608" lon="-97.665272" changeset="false"><tag k="addr:street" v="Creek Hollow"/><tag k="addr:housenumber" v="1500"/><tag k="coa:place_id" v="211173"/></node><node id="-222" lat="30.351706" lon="-97.668216" changeset="false"><tag k="addr:street" v="Brown Lane"/><tag k="addr:housenumber" v="9601"/><tag k="coa:place_id" v="343094"/></node><node id="-223" lat="30.377706" lon="-97.654064" changeset="false"><tag k="addr:street" v="Bowerton Drive"/><tag k="addr:housenumber" v="1817"/><tag k="coa:place_id" v="3118064"/></node><node id="-224" lat="30.369776" lon="-97.652129" changeset="false"><tag k="addr:street" v="Friendship Drive"/><tag k="addr:housenumber" v="11105"/><tag k="coa:place_id" v="3258854"/></node><node id="-225" lat="30.350136" lon="-97.671081" changeset="false"><tag k="addr:street" v="Dungan Lane"/><tag k="addr:housenumber" v="1713"/><tag k="coa:place_id" v="3371649"/></node><node id="-226" lat="30.365944" lon="-97.650681" changeset="false"><tag k="addr:street" v="Mc Donald Way"/><tag k="addr:housenumber" v="2405"/><tag k="coa:place_id" v="5061139"/></node><node id="-227" lat="30.365885" lon="-97.650562" changeset="false"><tag k="addr:street" v="Mc Donald Way"/><tag k="addr:housenumber" v="2409"/><tag k="coa:place_id" v="5061140"/></node><node id="-228" lat="30.366083" lon="-97.6496" changeset="false"><tag k="addr:street" v="Mc Donald Way"/><tag k="addr:housenumber" v="2508"/><tag k="coa:place_id" v="5061146"/></node><node id="-229" lat="30.383223" lon="-97.649864" changeset="false"><tag k="addr:street" v="Dessau Road"/><tag k="addr:housenumber" v="12113"/><tag k="coa:place_id" v="5189398"/></node><node id="-230" lat="30.385317" lon="-97.646878" changeset="false"><tag k="addr:street" v="East Parmer Lane"/><tag k="addr:housenumber" v="1815"/><tag k="coa:place_id" v="5189405"/></node><node id="-231" lat="30.332063" lon="-97.645695" changeset="false"><tag k="addr:street" v="Langwood Drive"/><tag k="addr:housenumber" v="5237"/><tag k="coa:place_id" v="5096226"/></node><node id="-232" lat="30.371658" lon="-97.662166" changeset="false"><tag k="addr:street" v="Braxton Valley Cove"/><tag k="addr:housenumber" v="1500"/><tag k="coa:place_id" v="3103857"/></node><node id="-233" lat="30.348508" lon="-97.673217" changeset="false"><tag k="addr:street" v="Brown Lane"/><tag k="addr:housenumber" v="9200"/><tag k="coa:place_id" v="342896"/></node><node id="-234" lat="30.376958" lon="-97.654772" changeset="false"><tag k="addr:street" v="Bowerton Drive"/><tag k="addr:housenumber" v="1721"/><tag k="coa:place_id" v="3118057"/></node><node id="-235" lat="30.348879" lon="-97.646947" changeset="false"><tag k="addr:street" v="Springdale Road"/><tag k="addr:housenumber" v="10600"/><tag k="coa:place_id" v="166701"/></node><node id="-236" lat="30.337018" lon="-97.652301" changeset="false"><tag k="addr:street" v="Ferguson Lane"/><tag k="addr:housenumber" v="3500"/><tag k="coa:place_id" v="226586"/></node><node id="-237" lat="30.336648" lon="-97.647496" changeset="false"><tag k="addr:street" v="Virginia Dare Lane"/><tag k="addr:housenumber" v="4708"/><tag k="coa:place_id" v="3112693"/></node><node id="-238" lat="30.337181" lon="-97.648063" changeset="false"><tag k="addr:street" v="Fort Moultrie Lane"/><tag k="addr:housenumber" v="4701"/><tag k="coa:place_id" v="3112329"/></node><node id="-239" lat="30.384802" lon="-97.649195" changeset="false"><tag k="addr:street" v="Dessau Road"/><tag k="addr:housenumber" v="12201"/><tag k="coa:place_id" v="653655"/></node><node id="-240" lat="30.380342" lon="-97.652549" changeset="false"><tag k="addr:street" v="Dessau Road"/><tag k="addr:housenumber" v="12037"/><tag k="coa:place_id" v="3049086"/></node><node id="-241" lat="30.37127" lon="-97.662336" changeset="false"><tag k="addr:street" v="Braxton Valley Cove"/><tag k="addr:housenumber" v="1509 1/2"/><tag k="coa:place_id" v="3098029"/></node><node id="-242" lat="30.343787" lon="-97.662008" changeset="false"><tag k="addr:street" v="Sprinkle Cutoff Road,1100"/><tag k="addr:housenumber" v="9200"/><tag k="coa:place_id" v="342662"/></node><node id="-243" lat="30.33981" lon="-97.647458" changeset="false"><tag k="addr:street" v="Springdale Road"/><tag k="addr:housenumber" v="9508"/><tag k="coa:place_id" v="94038"/></node><node id="-244" lat="30.366412" lon="-97.664972" changeset="false"><tag k="addr:street" v="Brushy View Cove"/><tag k="addr:housenumber" v="1501"/><tag k="coa:place_id" v="790767"/></node><node id="-245" lat="30.365593" lon="-97.662871" changeset="false"><tag k="addr:street" v="Brushy View Cove"/><tag k="addr:housenumber" v="1609"/><tag k="coa:place_id" v="282004"/></node><node id="-246" lat="30.353456" lon="-97.673744" changeset="false"><tag k="addr:street" v="Dessau Road"/><tag k="addr:housenumber" v="9603"/><tag k="coa:place_id" v="343280"/></node><node id="-247" lat="30.335461" lon="-97.646721" changeset="false"><tag k="addr:street" v="Valcour Bay Lane"/><tag k="addr:housenumber" v="4805"/><tag k="coa:place_id" v="3112738"/></node><node id="-248" lat="30.367108" lon="-97.665126" changeset="false"><tag k="addr:street" v="Wandering Way"/><tag k="addr:housenumber" v="11000"/><tag k="coa:place_id" v="418689"/></node><node id="-249" lat="30.373905" lon="-97.660721" changeset="false"><tag k="addr:street" v="Payton Falls Drive"/><tag k="addr:housenumber" v="1413"/><tag k="coa:place_id" v="237529"/></node><node id="-250" lat="30.334924" lon="-97.648558" changeset="false"><tag k="addr:street" v="Edenbourgh Lane"/><tag k="addr:housenumber" v="4804"/><tag k="coa:place_id" v="64557"/></node><node id="-251" lat="30.336198" lon="-97.648563" changeset="false"><tag k="addr:street" v="Magna Carta Loop"/><tag k="addr:housenumber" v="9306"/><tag k="coa:place_id" v="3112354"/></node><node id="-252" lat="30.372309" lon="-97.661489" changeset="false"><tag k="addr:street" v="Payton Falls Drive"/><tag k="addr:housenumber" v="1635"/><tag k="coa:place_id" v="237553"/></node><node id="-253" lat="30.365504" lon="-97.664548" changeset="false"><tag k="addr:street" v="Creek Hollow"/><tag k="addr:housenumber" v="1600"/><tag k="coa:place_id" v="75914"/></node><node id="-254" lat="30.370101" lon="-97.665244" changeset="false"><tag k="addr:street" v="Bluff Canyon Drive"/><tag k="addr:housenumber" v="11203"/><tag k="coa:place_id" v="173493"/></node><node id="-255" lat="30.374727" lon="-97.65201" changeset="false"><tag k="addr:street" v="Shaker Trail"/><tag k="addr:housenumber" v="2013"/><tag k="coa:place_id" v="3131799"/></node><node id="-256" lat="30.374518" lon="-97.648754" changeset="false"><tag k="addr:street" v="Oltons Bluff Cove"/><tag k="addr:housenumber" v="11500"/><tag k="coa:place_id" v="3184422"/></node><node id="-257" lat="30.374849" lon="-97.648059" changeset="false"><tag k="addr:street" v="Oltons Bluff Cove"/><tag k="addr:housenumber" v="11517"/><tag k="coa:place_id" v="3184438"/></node><node id="-258" lat="30.352277" lon="-97.667765" changeset="false"><tag k="addr:street" v="Brown Lane"/><tag k="addr:housenumber" v="9609"/><tag k="coa:place_id" v="582382"/></node><node id="-259" lat="30.333448" lon="-97.650065" changeset="false"><tag k="addr:street" v="Quiette Drive"/><tag k="addr:housenumber" v="3614"/><tag k="coa:place_id" v="227732"/></node><node id="-260" lat="30.366804" lon="-97.665313" changeset="false"><tag k="addr:street" v="Wandering Way"/><tag k="addr:housenumber" v="10902"/><tag k="coa:place_id" v="215032"/></node><node id="-261" lat="30.335137" lon="-97.647151" changeset="false"><tag k="addr:street" v="Magna Carta Loop"/><tag k="addr:housenumber" v="9117"/><tag k="coa:place_id" v="3112760"/></node><node id="-262" lat="30.371218" lon="-97.66219" changeset="false"><tag k="addr:street" v="Braxton Valley Cove"/><tag k="addr:housenumber" v="1512"/><tag k="coa:place_id" v="3095019"/></node><node id="-263" lat="30.373222" lon="-97.660398" changeset="false"><tag k="addr:street" v="Mussett Street"/><tag k="addr:housenumber" v="1512"/><tag k="coa:place_id" v="237577"/></node><node id="-264" lat="30.377385" lon="-97.654348" changeset="false"><tag k="addr:street" v="Bowerton Drive"/><tag k="addr:housenumber" v="1805"/><tag k="coa:place_id" v="3118061"/></node><node id="-265" lat="30.373162" lon="-97.663402" changeset="false"><tag k="addr:street" v="Faber Valley Cove"/><tag k="addr:housenumber" v="11316"/><tag k="coa:place_id" v="3095009"/></node><node id="-266" lat="30.332068" lon="-97.651285" changeset="false"><tag k="addr:street" v="Quiette Drive"/><tag k="addr:housenumber" v="3626"/><tag k="coa:place_id" v="227690"/></node><node id="-267" lat="30.36775" lon="-97.663597" changeset="false"><tag k="addr:street" v="Misty Cove"/><tag k="addr:housenumber" v="1506"/><tag k="coa:place_id" v="3083003"/></node><node id="-268" lat="30.372034" lon="-97.660702" changeset="false"><tag k="addr:street" v="Payton Falls Drive"/><tag k="addr:housenumber" v="1613"/><tag k="coa:place_id" v="237547"/></node><node id="-269" lat="30.334701" lon="-97.646427" changeset="false"><tag k="addr:street" v="Magna Carta Loop"/><tag k="addr:housenumber" v="9106"/><tag k="coa:place_id" v="3112750"/></node><node id="-270" lat="30.344679" lon="-97.662102" changeset="false"><tag k="addr:street" v="Sprinkle Cutoff Road,1100"/><tag k="addr:housenumber" v="9212"/><tag k="coa:place_id" v="342668"/></node><node id="-271" lat="30.353784" lon="-97.647027" changeset="false"><tag k="addr:street" v="Sprinkle Cutoff Road"/><tag k="addr:housenumber" v="10519"/><tag k="coa:place_id" v="268676"/></node><node id="-272" lat="30.376772" lon="-97.65542" changeset="false"><tag k="addr:street" v="Bowerton Drive"/><tag k="addr:housenumber" v="1705"/><tag k="coa:place_id" v="3118053"/></node><node id="-273" lat="30.372597" lon="-97.656445" changeset="false"><tag k="addr:street" v="East Braker Lane"/><tag k="addr:housenumber" v="1801"/><tag k="coa:place_id" v="3290528"/></node><node id="-274" lat="30.330883" lon="-97.647889" changeset="false"><tag k="addr:street" v="Newport Lane"/><tag k="addr:housenumber" v="8802"/><tag k="coa:place_id" v="227066"/></node><node id="-275" lat="30.371321" lon="-97.651155" changeset="false"><tag k="addr:street" v="Friendship Drive"/><tag k="addr:housenumber" v="11212"/><tag k="coa:place_id" v="3258772"/></node><node id="-276" lat="30.351163" lon="-97.672085" changeset="false"><tag k="addr:street" v="Dungan Lane"/><tag k="addr:housenumber" v="1616"/><tag k="coa:place_id" v="3224696"/></node><node id="-277" lat="30.369894" lon="-97.65201" changeset="false"><tag k="addr:street" v="Friendship Drive"/><tag k="addr:housenumber" v="11109"/><tag k="coa:place_id" v="3258855"/></node><node id="-278" lat="30.353818" lon="-97.647112" changeset="false"><tag k="addr:street" v="Sprinkle Cutoff Road"/><tag k="addr:housenumber" v="10521"/><tag k="coa:place_id" v="134776"/></node><node id="-279" lat="30.365823" lon="-97.650328" changeset="false"><tag k="addr:street" v="Mc Donald Way"/><tag k="addr:housenumber" v="2417"/><tag k="coa:place_id" v="5061142"/></node><node id="-280" lat="30.366008" lon="-97.649345" changeset="false"><tag k="addr:street" v="Mc Donald Way"/><tag k="addr:housenumber" v="2516"/><tag k="coa:place_id" v="5061148"/></node><node id="-281" lat="30.365602" lon="-97.649599" changeset="false"><tag k="addr:street" v="Mc Donald Way"/><tag k="addr:housenumber" v="2517"/><tag k="coa:place_id" v="5061158"/></node><node id="-282" lat="30.373364" lon="-97.656752" changeset="false"><tag k="addr:street" v="East Braker Lane"/><tag k="addr:housenumber" v="1709"/><tag k="coa:place_id" v="3306538"/></node><node id="-283" lat="30.33696" lon="-97.64694" changeset="false"><tag k="addr:street" v="Fort Moultrie Lane"/><tag k="addr:housenumber" v="4715"/><tag k="coa:place_id" v="3112341"/></node><node id="-284" lat="30.373275" lon="-97.657311" changeset="false"><tag k="addr:street" v="East Braker Lane"/><tag k="addr:housenumber" v="1705"/><tag k="coa:place_id" v="3333682"/></node><node id="-285" lat="30.385918" lon="-97.647773" changeset="false"><tag k="addr:street" v="East Parmer Lane"/><tag k="addr:housenumber" v="1719"/><tag k="coa:place_id" v="5189403"/></node><node id="-286" lat="30.33938" lon="-97.646857" changeset="false"><tag k="addr:street" v="Lake George Lane"/><tag k="addr:housenumber" v="4700"/><tag k="coa:place_id" v="3112282"/></node><node id="-287" lat="30.350365" lon="-97.671538" changeset="false"><tag k="addr:street" v="Dungan Lane"/><tag k="addr:housenumber" v="1707"/><tag k="coa:place_id" v="342974"/></node><node id="-288" lat="30.352545" lon="-97.667688" changeset="false"><tag k="addr:street" v="Brown Lane"/><tag k="addr:housenumber" v="9611"/><tag k="coa:place_id" v="343106"/></node><node id="-289" lat="30.341798" lon="-97.647089" changeset="false"><tag k="addr:street" v="Springdale Road"/><tag k="addr:housenumber" v="9900"/><tag k="coa:place_id" v="269612"/></node><node id="-290" lat="30.340025" lon="-97.647329" changeset="false"><tag k="addr:street" v="Springdale Road"/><tag k="addr:housenumber" v="9510"/><tag k="coa:place_id" v="94039"/></node><node id="-291" lat="30.36575" lon="-97.664604" changeset="false"><tag k="addr:street" v="Creek Hollow"/><tag k="addr:housenumber" v="1506"/><tag k="coa:place_id" v="661551"/></node><node id="-292" lat="30.372158" lon="-97.661096" changeset="false"><tag k="addr:street" v="Payton Falls Drive"/><tag k="addr:housenumber" v="1627"/><tag k="coa:place_id" v="237551"/></node><node id="-293" lat="30.37214" lon="-97.663232" changeset="false"><tag k="addr:street" v="Brixey Cove"/><tag k="addr:housenumber" v="1409"/><tag k="coa:place_id" v="3078418"/></node><node id="-294" lat="30.371683" lon="-97.652039" changeset="false"><tag k="addr:street" v="Bird Call Pass"/><tag k="addr:housenumber" v="1921"/><tag k="coa:place_id" v="3124317"/></node><node id="-295" lat="30.336299" lon="-97.647568" changeset="false"><tag k="addr:street" v="Virginia Dare Lane"/><tag k="addr:housenumber" v="4709"/><tag k="coa:place_id" v="3112694"/></node><node id="-296" lat="30.380579" lon="-97.652158" changeset="false"><tag k="addr:street" v="Dessau Road"/><tag k="addr:housenumber" v="12041"/><tag k="coa:place_id" v="3029798"/></node><node id="-297" lat="30.369546" lon="-97.655706" changeset="false"><tag k="addr:street" v="Sprinkle Cutoff Road"/><tag k="addr:housenumber" v="11353"/><tag k="coa:place_id" v="3181455"/></node><node id="-298" lat="30.369765" lon="-97.655821" changeset="false"><tag k="addr:street" v="Sprinkle Cutoff Road"/><tag k="addr:housenumber" v="11361"/><tag k="coa:place_id" v="3181457"/></node><node id="-299" lat="30.367461" lon="-97.664107" changeset="false"><tag k="addr:street" v="Misty Cove"/><tag k="addr:housenumber" v="1507"/><tag k="coa:place_id" v="328719"/></node><node id="-300" lat="30.347175" lon="-97.676598" changeset="false"><tag k="addr:street" v="Cameron Road"/><tag k="addr:housenumber" v="9101"/><tag k="coa:place_id" v="343208"/></node><node id="-301" lat="30.344804" lon="-97.668509" changeset="false"><tag k="addr:street" v="Ferguson Lane"/><tag k="addr:housenumber" v="2108"/><tag k="coa:place_id" v="990963"/></node><node id="-302" lat="30.37397" lon="-97.659978" changeset="false"><tag k="addr:street" v="Waxler Court"/><tag k="addr:housenumber" v="15500 1/2"/><tag k="coa:place_id" v="3082993"/></node><node id="-303" lat="30.372863" lon="-97.662753" changeset="false"><tag k="addr:street" v="Faber Valley Cove"/><tag k="addr:housenumber" v="11325"/><tag k="coa:place_id" v="3095015"/></node><node id="-304" lat="30.38542" lon="-97.648916" changeset="false"><tag k="addr:street" v="Dessau Road"/><tag k="addr:housenumber" v="12225"/><tag k="coa:place_id" v="268766"/></node><node id="-305" lat="30.378553" lon="-97.655158" changeset="false"><tag k="addr:street" v="Larch Valley Drive"/><tag k="addr:housenumber" v="11925"/><tag k="coa:place_id" v="3373772"/></node><node id="-306" lat="30.365211" lon="-97.65038" changeset="false"><tag k="addr:street" v="Sprinkle Cutoff Road"/><tag k="addr:housenumber" v="11115"/><tag k="coa:place_id" v="5136462"/></node><node id="-307" lat="30.365928" lon="-97.663299" changeset="false"><tag k="addr:street" v="Brushy View Cove"/><tag k="addr:housenumber" v="1605"/><tag k="coa:place_id" v="3368537"/></node><node id="-308" lat="30.366351" lon="-97.650689" changeset="false"><tag k="addr:street" v="Mc Donald Way"/><tag k="addr:housenumber" v="2400"/><tag k="coa:place_id" v="5061129"/></node><node id="-309" lat="30.365854" lon="-97.650442" changeset="false"><tag k="addr:street" v="Mc Donald Way"/><tag k="addr:housenumber" v="2413"/><tag k="coa:place_id" v="5061141"/></node><node id="-310" lat="30.366136" lon="-97.649885" changeset="false"><tag k="addr:street" v="Mc Donald Way"/><tag k="addr:housenumber" v="2500"/><tag k="coa:place_id" v="5061144"/></node><node id="-311" lat="30.365973" lon="-97.649216" changeset="false"><tag k="addr:street" v="Mc Donald Way"/><tag k="addr:housenumber" v="2520"/><tag k="coa:place_id" v="5061149"/></node><node id="-312" lat="30.365741" lon="-97.650094" changeset="false"><tag k="addr:street" v="Mc Donald Way"/><tag k="addr:housenumber" v="2501"/><tag k="coa:place_id" v="5061154"/></node><node id="-313" lat="30.365541" lon="-97.649349" changeset="false"><tag k="addr:street" v="Mc Donald Way"/><tag k="addr:housenumber" v="2525"/><tag k="coa:place_id" v="5061160"/></node><node id="-314" lat="30.366514" lon="-97.653644" changeset="false"><tag k="addr:street" v="Sprinkle Cutoff Road"/><tag k="addr:housenumber" v="11280"/><tag k="coa:place_id" v="5071243"/></node><node id="-315" lat="30.345697" lon="-97.675115" changeset="false"><tag k="addr:street" v="Ferguson Lane"/><tag k="addr:housenumber" v="1516"/><tag k="coa:place_id" v="3369373"/></node><node id="-316" lat="30.371491" lon="-97.650818" changeset="false"><tag k="addr:street" v="Friendship Drive"/><tag k="addr:housenumber" v="11220"/><tag k="coa:place_id" v="3258774"/></node><node id="-317" lat="30.365807" lon="-97.650196" changeset="false"><tag k="addr:street" v="Mc Donald Way"/><tag k="addr:housenumber" v="2421"/><tag k="coa:place_id" v="5061143"/></node><node id="-318" lat="30.365633" lon="-97.64972" changeset="false"><tag k="addr:street" v="Mc Donald Way"/><tag k="addr:housenumber" v="2513"/><tag k="coa:place_id" v="5061157"/></node><node id="-319" lat="30.345777" lon="-97.670476" changeset="false"><tag k="addr:street" v="Ferguson Lane"/><tag k="addr:housenumber" v="1848"/><tag k="coa:place_id" v="3371641"/></node><node id="-320" lat="30.385046" lon="-97.646385" changeset="false"><tag k="addr:street" v="East Parmer Lane"/><tag k="addr:housenumber" v="1901"/><tag k="coa:place_id" v="5189406"/></node><node id="-321" lat="30.346923" lon="-97.672657" changeset="false"><tag k="addr:street" v="Brown Lane"/><tag k="addr:housenumber" v="9111"/><tag k="coa:place_id" v="342854"/></node><node id="-322" lat="30.366127" lon="-97.663735" changeset="false"><tag k="addr:street" v="Brushy View Cove"/><tag k="addr:housenumber" v="1601"/><tag k="coa:place_id" v="3368536"/></node><node id="-323" lat="30.370367" lon="-97.652168" changeset="false"><tag k="addr:street" v="Friendship Drive"/><tag k="addr:housenumber" v="11116"/><tag k="coa:place_id" v="3258795"/></node><node id="-324" lat="30.382913" lon="-97.650079" changeset="false"><tag k="addr:street" v="Dessau Road"/><tag k="addr:housenumber" v="12109"/><tag k="coa:place_id" v="5189396"/></node><node id="-325" lat="30.385091" lon="-97.649005" changeset="false"><tag k="addr:street" v="Dessau Road"/><tag k="addr:housenumber" v="12211"/><tag k="coa:place_id" v="5189402"/></node><node id="-326" lat="30.385643" lon="-97.647288" changeset="false"><tag k="addr:street" v="East Parmer Lane"/><tag k="addr:housenumber" v="1805"/><tag k="coa:place_id" v="5189404"/></node><node id="-327" lat="30.370311" lon="-97.656071" changeset="false"><tag k="addr:street" v="Sprinkle Cutoff Road"/><tag k="addr:housenumber" v="11417"/><tag k="coa:place_id" v="3181474"/></node><node id="-328" lat="30.377129" lon="-97.657997" changeset="false"><tag k="addr:street" v="East Braker Lane"/><tag k="addr:housenumber" v="1406 1/2"/><tag k="coa:place_id" v="3241274"/></node><node id="-329" lat="30.350176" lon="-97.675703" changeset="false"><tag k="addr:street" v="Cameron Road"/><tag k="addr:housenumber" v="9313"/><tag k="coa:place_id" v="3371643"/></node><node id="-330" lat="30.345929" lon="-97.675801" changeset="false"><tag k="addr:street" v="Ferguson Lane"/><tag k="addr:housenumber" v="1506"/><tag k="coa:place_id" v="302980"/></node><node id="-331" lat="30.377278" lon="-97.654449" changeset="false"><tag k="addr:street" v="Bowerton Drive"/><tag k="addr:housenumber" v="1801"/><tag k="coa:place_id" v="3118060"/></node><node id="-332" lat="30.353542" lon="-97.668271" changeset="false"><tag k="addr:street" v="Brown Lane"/><tag k="addr:housenumber" v="9708"/><tag k="coa:place_id" v="3368589"/></node><node id="-333" lat="30.365678" lon="-97.649852" changeset="false"><tag k="addr:street" v="Mc Donald Way"/><tag k="addr:housenumber" v="2509"/><tag k="coa:place_id" v="5061156"/></node><node id="-334" lat="30.345182" lon="-97.671591" changeset="false"><tag k="addr:street" v="Ferguson Lane"/><tag k="addr:housenumber" v="1834"/><tag k="coa:place_id" v="1157587"/></node><node id="-335" lat="30.373616" lon="-97.660177" changeset="false"><tag k="addr:street" v="Payton Falls Drive"/><tag k="addr:housenumber" v="1425"/><tag k="coa:place_id" v="237535"/></node><node id="-336" lat="30.365522" lon="-97.666101" changeset="false"><tag k="addr:street" v="Wandering Way"/><tag k="addr:housenumber" v="10800"/><tag k="coa:place_id" v="220234"/></node><node id="-337" lat="30.351957" lon="-97.668041" changeset="false"><tag k="addr:street" v="Brown Lane"/><tag k="addr:housenumber" v="9603"/><tag k="coa:place_id" v="589090"/></node><node id="-338" lat="30.354765" lon="-97.672592" changeset="false"><tag k="addr:street" v="Dessau Road"/><tag k="addr:housenumber" v="9701"/><tag k="coa:place_id" v="961995"/></node><node id="-339" lat="30.371644" lon="-97.661124" changeset="false"><tag k="addr:street" v="Payton Falls Drive"/><tag k="addr:housenumber" v="1624"/><tag k="coa:place_id" v="237495"/></node><node id="-340" lat="30.336319" lon="-97.647724" changeset="false"><tag k="addr:street" v="Virginia Dare Lane"/><tag k="addr:housenumber" v="4707"/><tag k="coa:place_id" v="3112692"/></node><node id="-341" lat="30.371537" lon="-97.663354" changeset="false"><tag k="addr:street" v="Brixey Lane"/><tag k="addr:housenumber" v="11313"/><tag k="coa:place_id" v="3078414"/></node><node id="-342" lat="30.372364" lon="-97.66095" changeset="false"><tag k="addr:street" v="Hollar Square"/><tag k="addr:housenumber" v="11400"/><tag k="coa:place_id" v="237582"/></node><node id="-343" lat="30.38415" lon="-97.649459" changeset="false"><tag k="addr:street" v="Dessau Road"/><tag k="addr:housenumber" v="12127"/><tag k="coa:place_id" v="395692"/></node><node id="-344" lat="30.346111" lon="-97.673669" changeset="false"><tag k="addr:street" v="Brown Lane"/><tag k="addr:housenumber" v="9016"/><tag k="coa:place_id" v="342824"/></node><node id="-345" lat="30.331167" lon="-97.646865" changeset="false"><tag k="addr:street" v="Langwood Drive"/><tag k="addr:housenumber" v="5201"/><tag k="coa:place_id" v="227072"/></node><node id="-346" lat="30.36624" lon="-97.662932" changeset="false"><tag k="addr:street" v="Brushy View Cove"/><tag k="addr:housenumber" v="1606"/><tag k="coa:place_id" v="328707"/></node><node id="-347" lat="30.34058" lon="-97.648119" changeset="false"><tag k="addr:street" v="Springdale Road"/><tag k="addr:housenumber" v="9700"/><tag k="coa:place_id" v="269624"/></node><node id="-348" lat="30.352657" lon="-97.646433" changeset="false"><tag k="addr:street" v="Cameron Road"/><tag k="addr:housenumber" v="10468"/><tag k="coa:place_id" v="367965"/></node><node id="-349" lat="30.346217" lon="-97.660625" changeset="false"><tag k="addr:street" v="Sprinkle Cutoff Road,1100"/><tag k="addr:housenumber" v="9318"/><tag k="coa:place_id" v="505984"/></node><node id="-350" lat="30.373334" lon="-97.662335" changeset="false"><tag k="addr:street" v="Scheider Drive"/><tag k="addr:housenumber" v="1412"/><tag k="coa:place_id" v="3078403"/></node><node id="-351" lat="30.365924" lon="-97.665037" changeset="false"><tag k="addr:street" v="Creek Hollow"/><tag k="addr:housenumber" v="1502"/><tag k="coa:place_id" v="467745"/></node><node id="-352" lat="30.36502" lon="-97.664305" changeset="false"><tag k="addr:street" v="Creek Hollow"/><tag k="addr:housenumber" v="1605"/><tag k="coa:place_id" v="136245"/></node><node id="-353" lat="30.335798" lon="-97.646647" changeset="false"><tag k="addr:street" v="Valcour Bay Lane"/><tag k="addr:housenumber" v="4806"/><tag k="coa:place_id" v="3112739"/></node><node id="-354" lat="30.33538" lon="-97.648466" changeset="false"><tag k="addr:street" v="Magna Carta Loop"/><tag k="addr:housenumber" v="9215"/><tag k="coa:place_id" v="3112773"/></node><node id="-355" lat="30.372698" lon="-97.662187" changeset="false"><tag k="addr:street" v="Scheider Drive"/><tag k="addr:housenumber" v="1429"/><tag k="coa:place_id" v="3078407"/></node><node id="-356" lat="30.371588" lon="-97.660917" changeset="false"><tag k="addr:street" v="Payton Falls Drive"/><tag k="addr:housenumber" v="1620"/><tag k="coa:place_id" v="3085049"/></node><node id="-357" lat="30.35156" lon="-97.673967" changeset="false"><tag k="addr:street" v="Dungan Lane"/><tag k="addr:housenumber" v="1515"/><tag k="coa:place_id" v="175378"/></node><node id="-358" lat="30.329422" lon="-97.650178" changeset="false"><tag k="addr:street" v="US Highway 290"/><tag k="addr:housenumber" v="9278"/><tag k="coa:place_id" v="128042"/></node><node id="-359" lat="30.334828" lon="-97.648444" changeset="false"><tag k="addr:street" v="Edenbourgh Lane"/><tag k="addr:housenumber" v="4806"/><tag k="coa:place_id" v="64556"/></node><node id="-360" lat="30.373067" lon="-97.661943" changeset="false"><tag k="addr:street" v="Scheider Drive"/><tag k="addr:housenumber" v="1428"/><tag k="coa:place_id" v="3078405"/></node><node id="-361" lat="30.371127" lon="-97.656644" changeset="false"><tag k="addr:street" v="Sprinkle Cutoff Road"/><tag k="addr:housenumber" v="11419"/><tag k="coa:place_id" v="578961"/></node><node id="-362" lat="30.3741" lon="-97.659529" changeset="false"><tag k="addr:street" v="Waxler Court"/><tag k="addr:housenumber" v="15512"/><tag k="coa:place_id" v="237558"/></node><node id="-363" lat="30.373565" lon="-97.661141" changeset="false"><tag k="addr:street" v="Mussett Street"/><tag k="addr:housenumber" v="1416"/><tag k="coa:place_id" v="237570"/></node><node id="-364" lat="30.330352" lon="-97.650609" changeset="false"><tag k="addr:street" v="Quiette Drive"/><tag k="addr:housenumber" v="3640"/><tag k="coa:place_id" v="227648"/></node><node id="-365" lat="30.371863" lon="-97.662569" changeset="false"><tag k="addr:street" v="Brixey Lane"/><tag k="addr:housenumber" v="11336"/><tag k="coa:place_id" v="3078421"/></node><node id="-366" lat="30.332363" lon="-97.651174" changeset="false"><tag k="addr:street" v="Quiette Drive"/><tag k="addr:housenumber" v="3624"/><tag k="coa:place_id" v="227696"/></node><node id="-367" lat="30.331495" lon="-97.647523" changeset="false"><tag k="addr:street" v="Newport Lane"/><tag k="addr:housenumber" v="8911"/><tag k="coa:place_id" v="110532"/></node><node id="-368" lat="30.366824" lon="-97.664658" changeset="false"><tag k="addr:street" v="Wandering Way"/><tag k="addr:housenumber" v="10905"/><tag k="coa:place_id" v="226803"/></node><node id="-369" lat="30.3323" lon="-97.645675" changeset="false"><tag k="addr:street" v="Coppermead Lane"/><tag k="addr:housenumber" v="5221"/><tag k="coa:place_id" v="64595"/></node><node id="-370" lat="30.342878" lon="-97.664773" changeset="false"><tag k="addr:street" v="Ferguson Lane"/><tag k="addr:housenumber" v="2408"/><tag k="coa:place_id" v="731097"/></node><node id="-371" lat="30.339131" lon="-97.64692" changeset="false"><tag k="addr:street" v="Lake George Lane"/><tag k="addr:housenumber" v="4703"/><tag k="coa:place_id" v="3112284"/></node><node id="-372" lat="30.348137" lon="-97.659246" changeset="false"><tag k="addr:street" v="Sprinkle Cutoff Road,1100"/><tag k="addr:housenumber" v="9522"/><tag k="coa:place_id" v="401601"/></node><node id="-373" lat="30.338575" lon="-97.647236" changeset="false"><tag k="addr:street" v="Lake Champlain Lane"/><tag k="addr:housenumber" v="4701"/><tag k="coa:place_id" v="3112296"/></node><node id="-374" lat="30.346897" lon="-97.660776" changeset="false"><tag k="addr:street" v="Sprinkle Cutoff Road,1100"/><tag k="addr:housenumber" v="9400"/><tag k="coa:place_id" v="671092"/></node><node id="-375" lat="30.370289" lon="-97.657138" changeset="false"><tag k="addr:street" v="Sorghum Hill Cove"/><tag k="addr:housenumber" v="10724"/><tag k="coa:place_id" v="3181387"/></node><node id="-376" lat="30.37206" lon="-97.661829" changeset="false"><tag k="addr:street" v="Payton Falls Drive"/><tag k="addr:housenumber" v="1640 1/2"/><tag k="coa:place_id" v="3086918"/></node><node id="-377" lat="30.339089" lon="-97.646757" changeset="false"><tag k="addr:street" v="Lake George Lane"/><tag k="addr:housenumber" v="4705"/><tag k="coa:place_id" v="3112285"/></node><node id="-378" lat="30.338967" lon="-97.647561" changeset="false"><tag k="addr:street" v="Magna Carta Loop"/><tag k="addr:housenumber" v="9602"/><tag k="coa:place_id" v="3112294"/></node><node id="-379" lat="30.373398" lon="-97.660797" changeset="false"><tag k="addr:street" v="Mussett Street"/><tag k="addr:housenumber" v="1504"/><tag k="coa:place_id" v="237575"/></node><node id="-380" lat="30.33248" lon="-97.646011" changeset="false"><tag k="addr:street" v="Coppermead Lane"/><tag k="addr:housenumber" v="5215"/><tag k="coa:place_id" v="64598"/></node><node id="-381" lat="30.372525" lon="-97.663931" changeset="false"><tag k="addr:street" v="Faber Valley Cove"/><tag k="addr:housenumber" v="11301"/><tag k="coa:place_id" v="3095016"/></node><node id="-382" lat="30.365133" lon="-97.664689" changeset="false"><tag k="addr:street" v="Creek Hollow"/><tag k="addr:housenumber" v="1601"/><tag k="coa:place_id" v="259041"/></node><node id="-383" lat="30.333584" lon="-97.645904" changeset="false"><tag k="addr:street" v="Edenbourgh Lane"/><tag k="addr:housenumber" v="5204"/><tag k="coa:place_id" v="64538"/></node><node id="-384" lat="30.33546" lon="-97.646531" changeset="false"><tag k="addr:street" v="Valcour Bay Lane"/><tag k="addr:housenumber" v="4807"/><tag k="coa:place_id" v="3112740"/></node><node id="-385" lat="30.370964" lon="-97.655655" changeset="false"><tag k="addr:street" v="Wayward Sun Drive"/><tag k="addr:housenumber" v="1924"/><tag k="coa:place_id" v="3181502"/></node><node id="-386" lat="30.374619" lon="-97.648669" changeset="false"><tag k="addr:street" v="Oltons Bluff Cove"/><tag k="addr:housenumber" v="11504"/><tag k="coa:place_id" v="3184423"/></node><node id="-387" lat="30.36869" lon="-97.655185" changeset="false"><tag k="addr:street" v="Sprinkle Cutoff Road"/><tag k="addr:housenumber" v="11337 1/2"/><tag k="coa:place_id" v="3184885"/></node><node id="-388" lat="30.3745" lon="-97.648053" changeset="false"><tag k="addr:street" v="Oltons Bluff Cove"/><tag k="addr:housenumber" v="11509"/><tag k="coa:place_id" v="3184436"/></node><node id="-389" lat="30.349675" lon="-97.675787" changeset="false"><tag k="addr:street" v="Cameron Road"/><tag k="addr:housenumber" v="9309"/><tag k="coa:place_id" v="3070866"/></node><node id="-390" lat="30.347367" lon="-97.673455" changeset="false"><tag k="addr:street" v="Brown Lane"/><tag k="addr:housenumber" v="9100"/><tag k="coa:place_id" v="3150695"/></node><node id="-391" lat="30.374433" lon="-97.660565" changeset="false"><tag k="addr:street" v="Payton Falls Drive"/><tag k="addr:housenumber" v="1406"/><tag k="coa:place_id" v="237523"/></node><node id="-392" lat="30.377374" lon="-97.656117" changeset="false"><tag k="addr:street" v="Long Rifle Drive"/><tag k="addr:housenumber" v="1705"/><tag k="coa:place_id" v="3091719"/></node><node id="-393" lat="30.376324" lon="-97.654073" changeset="false"><tag k="addr:street" v="Larch Valley Drive"/><tag k="addr:housenumber" v="11605"/><tag k="coa:place_id" v="3091815"/></node><node id="-394" lat="30.333083" lon="-97.650338" changeset="false"><tag k="addr:street" v="Quiette Drive"/><tag k="addr:housenumber" v="3616"/><tag k="coa:place_id" v="227726"/></node><node id="-395" lat="30.371851" lon="-97.652187" changeset="false"><tag k="addr:street" v="Bird Call Pass"/><tag k="addr:housenumber" v="1917"/><tag k="coa:place_id" v="3123911"/></node><node id="-396" lat="30.330889" lon="-97.649713" changeset="false"><tag k="addr:street" v="Wightman Drive"/><tag k="addr:housenumber" v="8802"/><tag k="coa:place_id" v="81785"/></node><node id="-397" lat="30.330786" lon="-97.649678" changeset="false"><tag k="addr:street" v="Wightman Drive"/><tag k="addr:housenumber" v="8800"/><tag k="coa:place_id" v="81786"/></node><node id="-398" lat="30.331484" lon="-97.647524" changeset="false"><tag k="addr:street" v="Newport Lane"/><tag k="addr:housenumber" v="8909"/><tag k="coa:place_id" v="110531"/></node><node id="-399" lat="30.369865" lon="-97.655851" changeset="false"><tag k="addr:street" v="Sprinkle Cutoff Road"/><tag k="addr:housenumber" v="11401"/><tag k="coa:place_id" v="3181470"/></node><node id="-400" lat="30.336009" lon="-97.651335" changeset="false"><tag k="addr:street" v="Ferguson Lane"/><tag k="addr:housenumber" v="3601"/><tag k="coa:place_id" v="3048518"/></node><node id="-401" lat="30.332115" lon="-97.652686" changeset="false"><tag k="addr:street" v="Vara Drive"/><tag k="addr:housenumber" v="3603"/><tag k="coa:place_id" v="92315"/></node><node id="-402" lat="30.345196" lon="-97.674265" changeset="false"><tag k="addr:street" v="Ferguson Lane"/><tag k="addr:housenumber" v="1618"/><tag k="coa:place_id" v="57281"/></node><node id="-403" lat="30.369468" lon="-97.654579" changeset="false"><tag k="addr:street" v="Wayward Sun Drive"/><tag k="addr:housenumber" v="2104"/><tag k="coa:place_id" v="3181418"/></node><node id="-404" lat="30.373374" lon="-97.661529" changeset="false"><tag k="addr:street" v="Mussett Street"/><tag k="addr:housenumber" v="1413"/><tag k="coa:place_id" v="3080284"/></node><node id="-405" lat="30.373122" lon="-97.651154" changeset="false"><tag k="addr:street" v="Dry Season Trail"/><tag k="addr:housenumber" v="2005"/><tag k="coa:place_id" v="3123881"/></node><node id="-406" lat="30.373027" lon="-97.662621" changeset="false"><tag k="addr:street" v="Faber Valley Cove"/><tag k="addr:housenumber" v="11329"/><tag k="coa:place_id" v="3113973"/></node><node id="-407" lat="30.374013" lon="-97.660042" changeset="false"><tag k="addr:street" v="Waxler Court"/><tag k="addr:housenumber" v="15500"/><tag k="coa:place_id" v="3070810"/></node><node id="-408" lat="30.353612" lon="-97.651152" changeset="false"><tag k="addr:street" v="Sprinkle Cutoff Road,1100"/><tag k="addr:housenumber" v="10201"/><tag k="coa:place_id" v="655540"/></node><node id="-409" lat="30.352483" lon="-97.648307" changeset="false"><tag k="addr:street" v="Sprinkle Cutoff Road,1100"/><tag k="addr:housenumber" v="10449"/><tag k="coa:place_id" v="268658"/></node><node id="-410" lat="30.372653" lon="-97.663312" changeset="false"><tag k="addr:street" v="Faber Valley Cove"/><tag k="addr:housenumber" v="11313"/><tag k="coa:place_id" v="3095012"/></node><node id="-411" lat="30.357566" lon="-97.648634" changeset="false"><tag k="addr:street" v="Sprinkle Cutoff Road"/><tag k="addr:housenumber" v="10709"/><tag k="coa:place_id" v="184565"/></node><node id="-412" lat="30.372685" lon="-97.656197" changeset="false"><tag k="addr:street" v="East Braker Lane"/><tag k="addr:housenumber" v="1801 1/2"/><tag k="coa:place_id" v="3183032"/></node><node id="-413" lat="30.335973" lon="-97.647797" changeset="false"><tag k="addr:street" v="Valcour Bay Lane"/><tag k="addr:housenumber" v="4706"/><tag k="coa:place_id" v="3112722"/></node><node id="-414" lat="30.371549" lon="-97.660094" changeset="false"><tag k="addr:street" v="Payton Falls Drive"/><tag k="addr:housenumber" v="1600"/><tag k="coa:place_id" v="237503"/></node><node id="-415" lat="30.37152" lon="-97.659907" changeset="false"><tag k="addr:street" v="Payton Falls Drive"/><tag k="addr:housenumber" v="1556"/><tag k="coa:place_id" v="237504"/></node><node id="-416" lat="30.341766" lon="-97.650847" changeset="false"><tag k="addr:street" v="Ferguson Lane"/><tag k="addr:housenumber" v="3306"/><tag k="coa:place_id" v="226610"/></node><node id="-417" lat="30.373487" lon="-97.660966" changeset="false"><tag k="addr:street" v="Mussett Street"/><tag k="addr:housenumber" v="1500"/><tag k="coa:place_id" v="237571"/></node><node id="-418" lat="30.377834" lon="-97.653941" changeset="false"><tag k="addr:street" v="Bowerton Drive"/><tag k="addr:housenumber" v="1821"/><tag k="coa:place_id" v="3118065"/></node><node id="-419" lat="30.376784" lon="-97.653698" changeset="false"><tag k="addr:street" v="Larch Valley Drive"/><tag k="addr:housenumber" v="11621"/><tag k="coa:place_id" v="3118073"/></node><node id="-420" lat="30.374782" lon="-97.648601" changeset="false"><tag k="addr:street" v="Oltons Bluff Cove"/><tag k="addr:housenumber" v="11508"/><tag k="coa:place_id" v="3184424"/></node><node id="-421" lat="30.374949" lon="-97.648261" changeset="false"><tag k="addr:street" v="Oltons Bluff Cove"/><tag k="addr:housenumber" v="11516"/><tag k="coa:place_id" v="3184426"/></node><node id="-422" lat="30.351856" lon="-97.674906" changeset="false"><tag k="addr:street" v="Dessau Road"/><tag k="addr:housenumber" v="9411"/><tag k="coa:place_id" v="313162"/></node><node id="-423" lat="30.333565" lon="-97.646213" changeset="false"><tag k="addr:street" v="Edenbourgh Lane"/><tag k="addr:housenumber" v="5200 1/2"/><tag k="coa:place_id" v="157163"/></node><node id="-424" lat="30.37425" lon="-97.660222" changeset="false"><tag k="addr:street" v="Payton Falls Drive"/><tag k="addr:housenumber" v="1416"/><tag k="coa:place_id" v="237521"/></node><node id="-425" lat="30.346862" lon="-97.672166" changeset="false"><tag k="addr:street" v="Aldridge Drive"/><tag k="addr:housenumber" v="1705"/><tag k="coa:place_id" v="342860"/></node><node id="-426" lat="30.369909" lon="-97.659054" changeset="false"><tag k="addr:street" v="Pioneer Farms Drive"/><tag k="addr:housenumber" v="10621"/><tag k="coa:place_id" v="268652"/></node><node id="-427" lat="30.371951" lon="-97.663305" changeset="false"><tag k="addr:street" v="Brixey Cove"/><tag k="addr:housenumber" v="1413"/><tag k="coa:place_id" v="3102900"/></node><node id="-428" lat="30.369218" lon="-97.654948" changeset="false"><tag k="addr:street" v="Trail Weary Drive"/><tag k="addr:housenumber" v="10817"/><tag k="coa:place_id" v="3181452"/></node><node id="-429" lat="30.37181" lon="-97.661531" changeset="false"><tag k="addr:street" v="Payton Falls Drive"/><tag k="addr:housenumber" v="1632"/><tag k="coa:place_id" v="237492"/></node><node id="-430" lat="30.37018" lon="-97.656025" changeset="false"><tag k="addr:street" v="Sprinkle Cutoff Road"/><tag k="addr:housenumber" v="11413"/><tag k="coa:place_id" v="3181473"/></node><node id="-431" lat="30.372044" lon="-97.652559" changeset="false"><tag k="addr:street" v="Bird Call Pass"/><tag k="addr:housenumber" v="1909"/><tag k="coa:place_id" v="3123909"/></node><node id="-432" lat="30.372079" lon="-97.663569" changeset="false"><tag k="addr:street" v="Brixey Lane"/><tag k="addr:housenumber" v="11308"/><tag k="coa:place_id" v="3078410"/></node><node id="-433" lat="30.37208" lon="-97.663775" changeset="false"><tag k="addr:street" v="Brixey Lane"/><tag k="addr:housenumber" v="11304"/><tag k="coa:place_id" v="3078409"/></node><node id="-434" lat="30.332109" lon="-97.646142" changeset="false"><tag k="addr:street" v="Wellesley Drive"/><tag k="addr:housenumber" v="9001"/><tag k="coa:place_id" v="64623"/></node><node id="-435" lat="30.33199" lon="-97.647413" changeset="false"><tag k="addr:street" v="Wellesley Drive"/><tag k="addr:housenumber" v="9016"/><tag k="coa:place_id" v="64629"/></node><node id="-436" lat="30.373404" lon="-97.66005" changeset="false"><tag k="addr:street" v="Payton Falls Drive"/><tag k="addr:housenumber" v="1501"/><tag k="coa:place_id" v="237539"/></node><node id="-437" lat="30.351979" lon="-97.669461" changeset="false"><tag k="addr:street" v="Brown Lane"/><tag k="addr:housenumber" v="9600"/><tag k="coa:place_id" v="343088"/></node><node id="-438" lat="30.373317" lon="-97.660632" changeset="false"><tag k="addr:street" v="Mussett Street"/><tag k="addr:housenumber" v="1508"/><tag k="coa:place_id" v="237576"/></node><node id="-439" lat="30.376567" lon="-97.653893" changeset="false"><tag k="addr:street" v="Larch Valley Drive"/><tag k="addr:housenumber" v="11613"/><tag k="coa:place_id" v="3118071"/></node><node id="-440" lat="30.331357" lon="-97.645806" changeset="false"><tag k="addr:street" v="Langwood Drive"/><tag k="addr:housenumber" v="5223"/><tag k="coa:place_id" v="140421"/></node><node id="-441" lat="30.331255" lon="-97.645919" changeset="false"><tag k="addr:street" v="Langwood Drive"/><tag k="addr:housenumber" v="5221"/><tag k="coa:place_id" v="140415"/></node><node id="-442" lat="30.331748" lon="-97.645597" changeset="false"><tag k="addr:street" v="Langwood Drive"/><tag k="addr:housenumber" v="5233"/><tag k="coa:place_id" v="141231"/></node><node id="-443" lat="30.331836" lon="-97.645551" changeset="false"><tag k="addr:street" v="Langwood Drive"/><tag k="addr:housenumber" v="5235"/><tag k="coa:place_id" v="140433"/></node><node id="-444" lat="30.331552" lon="-97.645683" changeset="false"><tag k="addr:street" v="Langwood Drive"/><tag k="addr:housenumber" v="5227"/><tag k="coa:place_id" v="131835"/></node><node id="-445" lat="30.331608" lon="-97.645698" changeset="false"><tag k="addr:street" v="Langwood Drive"/><tag k="addr:housenumber" v="5231"/><tag k="coa:place_id" v="115553"/></node><node id="-446" lat="30.331625" lon="-97.645636" changeset="false"><tag k="addr:street" v="Langwood Drive"/><tag k="addr:housenumber" v="5229"/><tag k="coa:place_id" v="131829"/></node><node id="-447" lat="30.330319" lon="-97.646407" changeset="false"><tag k="addr:street" v="Merion Circle"/><tag k="addr:housenumber" v="8803"/><tag k="coa:place_id" v="227216"/></node><node id="-448" lat="30.330134" lon="-97.646517" changeset="false"><tag k="addr:street" v="Merion Circle"/><tag k="addr:housenumber" v="8801"/><tag k="coa:place_id" v="227222"/></node><node id="-449" lat="30.331766" lon="-97.646045" changeset="false"><tag k="addr:street" v="Langwood Drive"/><tag k="addr:housenumber" v="5232"/><tag k="coa:place_id" v="118617"/></node><node id="-450" lat="30.331656" lon="-97.64605" changeset="false"><tag k="addr:street" v="Langwood Drive"/><tag k="addr:housenumber" v="5230"/><tag k="coa:place_id" v="118611"/></node><node id="-451" lat="30.331459" lon="-97.646245" changeset="false"><tag k="addr:street" v="Langwood Drive"/><tag k="addr:housenumber" v="5214"/><tag k="coa:place_id" v="133875"/></node><node id="-452" lat="30.331473" lon="-97.646344" changeset="false"><tag k="addr:street" v="Langwood Drive"/><tag k="addr:housenumber" v="5212"/><tag k="coa:place_id" v="98949"/></node><node id="-453" lat="30.3306" lon="-97.646291" changeset="false"><tag k="addr:street" v="Merion Circle"/><tag k="addr:housenumber" v="8807"/><tag k="coa:place_id" v="227204"/></node><node id="-454" lat="30.330771" lon="-97.646184" changeset="false"><tag k="addr:street" v="Merion Circle"/><tag k="addr:housenumber" v="8811"/><tag k="coa:place_id" v="293644"/></node><node id="-455" lat="30.330518" lon="-97.646341" changeset="false"><tag k="addr:street" v="Merion Circle"/><tag k="addr:housenumber" v="8805"/><tag k="coa:place_id" v="227210"/></node><node id="-456" lat="30.330952" lon="-97.646436" changeset="false"><tag k="addr:street" v="Merion Circle"/><tag k="addr:housenumber" v="8813"/><tag k="coa:place_id" v="227132"/></node><node id="-457" lat="30.330961" lon="-97.646206" changeset="false"><tag k="addr:street" v="Langwood Drive"/><tag k="addr:housenumber" v="5213"/><tag k="coa:place_id" v="227108"/></node><node id="-458" lat="30.330955" lon="-97.646319" changeset="false"><tag k="addr:street" v="Langwood Drive"/><tag k="addr:housenumber" v="5211"/><tag k="coa:place_id" v="227102"/></node><node id="-459" lat="30.331158" lon="-97.646434" changeset="false"><tag k="addr:street" v="Langwood Drive"/><tag k="addr:housenumber" v="5209"/><tag k="coa:place_id" v="227096"/></node><node id="-460" lat="30.33116" lon="-97.646521" changeset="false"><tag k="addr:street" v="Langwood Drive"/><tag k="addr:housenumber" v="5207"/><tag k="coa:place_id" v="227090"/></node><node id="-461" lat="30.330972" lon="-97.646098" changeset="false"><tag k="addr:street" v="Langwood Drive"/><tag k="addr:housenumber" v="5215"/><tag k="coa:place_id" v="931202"/></node><node id="-462" lat="30.334759" lon="-97.646788" changeset="false"><tag k="addr:street" v="Magna Carta Loop"/><tag k="addr:housenumber" v="9110"/><tag k="coa:place_id" v="3112754"/></node><node id="-463" lat="30.334779" lon="-97.646914" changeset="false"><tag k="addr:street" v="Magna Carta Loop"/><tag k="addr:housenumber" v="9112"/><tag k="coa:place_id" v="3112756"/></node><node id="-464" lat="30.330949" lon="-97.646672" changeset="false"><tag k="addr:street" v="Merion Circle"/><tag k="addr:housenumber" v="8815"/><tag k="coa:place_id" v="227138"/></node><node id="-465" lat="30.330919" lon="-97.64696" changeset="false"><tag k="addr:street" v="Merion Circle"/><tag k="addr:housenumber" v="8821"/><tag k="coa:place_id" v="227156"/></node><node id="-466" lat="30.330928" lon="-97.646883" changeset="false"><tag k="addr:street" v="Merion Circle"/><tag k="addr:housenumber" v="8819"/><tag k="coa:place_id" v="227150"/></node><node id="-467" lat="30.331163" lon="-97.646669" changeset="false"><tag k="addr:street" v="Langwood Drive"/><tag k="addr:housenumber" v="5205"/><tag k="coa:place_id" v="227084"/></node><node id="-468" lat="30.331165" lon="-97.646757" changeset="false"><tag k="addr:street" v="Langwood Drive"/><tag k="addr:housenumber" v="5203"/><tag k="coa:place_id" v="227078"/></node><node id="-469" lat="30.330937" lon="-97.646772" changeset="false"><tag k="addr:street" v="Merion Circle"/><tag k="addr:housenumber" v="8817"/><tag k="coa:place_id" v="227144"/></node><node id="-470" lat="30.329968" lon="-97.646745" changeset="false"><tag k="addr:street" v="Merion Circle"/><tag k="addr:housenumber" v="8709"/><tag k="coa:place_id" v="227276"/></node><node id="-471" lat="30.329983" lon="-97.646661" changeset="false"><tag k="addr:street" v="Merion Circle"/><tag k="addr:housenumber" v="8711"/><tag k="coa:place_id" v="227282"/></node><node id="-472" lat="30.330572" lon="-97.646925" changeset="false"><tag k="addr:street" v="Merion Circle"/><tag k="addr:housenumber" v="8818"/><tag k="coa:place_id" v="227162"/></node><node id="-473" lat="30.330347" lon="-97.646719" changeset="false"><tag k="addr:street" v="Merion Circle"/><tag k="addr:housenumber" v="8706"/><tag k="coa:place_id" v="227228"/></node><node id="-474" lat="30.330569" lon="-97.646795" changeset="false"><tag k="addr:street" v="Merion Circle"/><tag k="addr:housenumber" v="8816"/><tag k="coa:place_id" v="227168"/></node><node id="-475" lat="30.330343" lon="-97.647033" changeset="false"><tag k="addr:street" v="Merion Circle"/><tag k="addr:housenumber" v="8700"/><tag k="coa:place_id" v="227246"/></node><node id="-476" lat="30.330344" lon="-97.646825" changeset="false"><tag k="addr:street" v="Merion Circle"/><tag k="addr:housenumber" v="8704"/><tag k="coa:place_id" v="227234"/></node><node id="-477" lat="30.330344" lon="-97.646936" changeset="false"><tag k="addr:street" v="Merion Circle"/><tag k="addr:housenumber" v="8702"/><tag k="coa:place_id" v="227240"/></node><node id="-478" lat="30.331529" lon="-97.646697" changeset="false"><tag k="addr:street" v="Langwood Drive"/><tag k="addr:housenumber" v="5204"/><tag k="coa:place_id" v="101967"/></node><node id="-479" lat="30.331539" lon="-97.64678" changeset="false"><tag k="addr:street" v="Langwood Drive"/><tag k="addr:housenumber" v="5202"/><tag k="coa:place_id" v="101961"/></node><node id="-480" lat="30.330889" lon="-97.647493" changeset="false"><tag k="addr:street" v="Newport Lane"/><tag k="addr:housenumber" v="8805"/><tag k="coa:place_id" v="227060"/></node><node id="-481" lat="30.331153" lon="-97.647489" changeset="false"><tag k="addr:street" v="Newport Lane"/><tag k="addr:housenumber" v="8903"/><tag k="coa:place_id" v="227042"/></node><node id="-482" lat="30.331067" lon="-97.647489" changeset="false"><tag k="addr:street" v="Newport Lane"/><tag k="addr:housenumber" v="8901"/><tag k="coa:place_id" v="227048"/></node><node id="-483" lat="30.330971" lon="-97.647491" changeset="false"><tag k="addr:street" v="Newport Lane"/><tag k="addr:housenumber" v="8807"/><tag k="coa:place_id" v="227054"/></node><node id="-484" lat="30.331384" lon="-97.647484" changeset="false"><tag k="addr:street" v="Newport Lane"/><tag k="addr:housenumber" v="8907"/><tag k="coa:place_id" v="227030"/></node><node id="-485" lat="30.331282" lon="-97.647487" changeset="false"><tag k="addr:street" v="Newport Lane"/><tag k="addr:housenumber" v="8905"/><tag k="coa:place_id" v="227036"/></node><node id="-486" lat="30.379199" lon="-97.653759" changeset="false"><tag k="addr:street" v="Dessau Road"/><tag k="addr:housenumber" v="11925 1/2"/><tag k="coa:place_id" v="3098954"/></node><node id="-487" lat="30.379275" lon="-97.653258" changeset="false"><tag k="addr:street" v="Dessau Road"/><tag k="addr:housenumber" v="12001"/><tag k="coa:place_id" v="172812"/></node><node id="-488" lat="30.331078" lon="-97.647877" changeset="false"><tag k="addr:street" v="Newport Lane"/><tag k="addr:housenumber" v="8808"/><tag k="coa:place_id" v="961436"/></node><node id="-489" lat="30.330967" lon="-97.64792" changeset="false"><tag k="addr:street" v="Newport Lane"/><tag k="addr:housenumber" v="8806"/><tag k="coa:place_id" v="961430"/></node><node id="-490" lat="30.331374" lon="-97.647947" changeset="false"><tag k="addr:street" v="Barons Court"/><tag k="addr:housenumber" v="8911"/><tag k="coa:place_id" v="939321"/></node><node id="-491" lat="30.331467" lon="-97.647931" changeset="false"><tag k="addr:street" v="Barons Court"/><tag k="addr:housenumber" v="8913"/><tag k="coa:place_id" v="227012"/></node><node id="-492" lat="30.331276" lon="-97.64797" changeset="false"><tag k="addr:street" v="Barons Court"/><tag k="addr:housenumber" v="8909"/><tag k="coa:place_id" v="227024"/></node><node id="-493" lat="30.331579" lon="-97.64997" changeset="false"><tag k="addr:street" v="Wightman Drive"/><tag k="addr:housenumber" v="8816"/><tag k="coa:place_id" v="142851"/></node><node id="-494" lat="30.331488" lon="-97.649966" changeset="false"><tag k="addr:street" v="Wightman Drive"/><tag k="addr:housenumber" v="8814"/><tag k="coa:place_id" v="142845"/></node><node id="-495" lat="30.331417" lon="-97.648402" changeset="false"><tag k="addr:street" v="Barons Court"/><tag k="addr:housenumber" v="8912"/><tag k="coa:place_id" v="226994"/></node><node id="-496" lat="30.331536" lon="-97.648342" changeset="false"><tag k="addr:street" v="Barons Court"/><tag k="addr:housenumber" v="8914"/><tag k="coa:place_id" v="227000"/></node><node id="-497" lat="30.331799" lon="-97.649975" changeset="false"><tag k="addr:street" v="Wightman Drive"/><tag k="addr:housenumber" v="8900"/><tag k="coa:place_id" v="142833"/></node><node id="-498" lat="30.331892" lon="-97.649967" changeset="false"><tag k="addr:street" v="Wightman Drive"/><tag k="addr:housenumber" v="8902"/><tag k="coa:place_id" v="142839"/></node><node id="-499" lat="30.375937" lon="-97.6564" changeset="false"><tag k="addr:street" v="Bush Coat Lane"/><tag k="addr:housenumber" v="1600"/><tag k="coa:place_id" v="3091750"/></node><node id="-500" lat="30.375913" lon="-97.65636" changeset="false"><tag k="addr:street" v="Bush Coat Lane"/><tag k="addr:housenumber" v="1606"/><tag k="coa:place_id" v="3091754"/></node><node id="-501" lat="30.369006" lon="-97.655487" changeset="false"><tag k="addr:street" v="Trail Weary Drive"/><tag k="addr:housenumber" v="10801"/><tag k="coa:place_id" v="3181448"/></node><node id="-502" lat="30.368979" lon="-97.655549" changeset="false"><tag k="addr:street" v="Sprinkle Cutoff Road"/><tag k="addr:housenumber" v="11343 1/2"/><tag k="coa:place_id" v="3309036"/></node><node id="-503" lat="30.350431" lon="-97.671933" changeset="false"><tag k="addr:street" v="Dungan Lane"/><tag k="addr:housenumber" v="1703"/><tag k="coa:place_id" v="342968"/></node><node id="-504" lat="30.350483" lon="-97.67189" changeset="false"><tag k="addr:street" v="Dungan Lane"/><tag k="addr:housenumber" v="1701"/><tag k="coa:place_id" v="342962"/></node><node id="-505" lat="30.347347" lon="-97.672226" changeset="false"><tag k="addr:street" v="Aldridge Drive"/><tag k="addr:housenumber" v="1702"/><tag k="coa:place_id" v="3424599"/></node><node id="-506" lat="30.347103" lon="-97.671678" changeset="false"><tag k="addr:street" v="Aldridge Drive"/><tag k="addr:housenumber" v="1708"/><tag k="coa:place_id" v="241741"/></node></osm>