<?xml version="1.0" encoding="UTF-8"?><osm version="0.6" generator="github.com/aaronlidman/osm-and-geojson"><node id="-1" lat="30.4289" lon="-97.677628" changeset="false"><tag k="addr:street" v="Hydro Drive"/><tag k="addr:housenumber" v="1703"/><tag k="addr:postcode" v="78728"/></node><node id="-2" lat="30.428668" lon="-97.677085" changeset="false"><tag k="addr:street" v="Hydro Drive"/><tag k="addr:housenumber" v="1609"/><tag k="addr:postcode" v="78728"/></node><node id="-3" lat="30.432445" lon="-97.682004" changeset="false"><tag k="addr:street" v="Bench Mark Drive"/><tag k="addr:housenumber" v="1913"/><tag k="addr:postcode" v="78728"/></node><node id="-4" lat="30.4324" lon="-97.683452" changeset="false"><tag k="addr:street" v="Avenue K"/><tag k="addr:housenumber" v="13807"/><tag k="addr:postcode" v="78728"/></node><node id="-5" lat="30.429279" lon="-97.678363" changeset="false"><tag k="addr:street" v="Hydro Drive"/><tag k="addr:housenumber" v="1709"/><tag k="addr:postcode" v="78728"/></node><node id="-6" lat="30.432116" lon="-97.683726" changeset="false"><tag k="addr:street" v="Avenue K"/><tag k="addr:housenumber" v="13805"/><tag k="addr:postcode" v="78728"/></node><node id="-7" lat="30.429749" lon="-97.676553" changeset="false"><tag k="addr:street" v="Bench Mark Drive"/><tag k="addr:housenumber" v="1609"/><tag k="addr:postcode" v="78728"/></node><node id="-8" lat="30.429563" lon="-97.676314" changeset="false"><tag k="addr:street" v="Bench Mark Drive"/><tag k="addr:housenumber" v="1607"/><tag k="addr:postcode" v="78728"/></node><node id="-9" lat="30.42904" lon="-97.677874" changeset="false"><tag k="addr:street" v="Hydro Drive"/><tag k="addr:housenumber" v="1705"/><tag k="addr:postcode" v="78728"/></node><node id="-10" lat="30.433768" lon="-97.680681" changeset="false"><tag k="addr:street" v="Wells Branch Parkway"/><tag k="addr:housenumber" v="1915"/><tag k="addr:postcode" v="78728"/></node><node id="-11" lat="30.429789" lon="-97.681816" changeset="false"><tag k="addr:street" v="West Howard Lane"/><tag k="addr:housenumber" v="1902"/><tag k="addr:postcode" v="78728"/></node><node id="-12" lat="30.432042" lon="-97.679978" changeset="false"><tag k="addr:street" v="Bench Mark Drive"/><tag k="addr:housenumber" v="1900"/><tag k="addr:postcode" v="78728"/></node><node id="-13" lat="30.429462" lon="-97.676074" changeset="false"><tag k="addr:street" v="Bench Mark Drive"/><tag k="addr:housenumber" v="1605"/><tag k="addr:postcode" v="78728"/></node><node id="-14" lat="30.429753" lon="-97.68055" changeset="false"><tag k="addr:street" v="Hydro Drive"/><tag k="addr:housenumber" v="1809"/><tag k="addr:postcode" v="78728"/></node><node id="-15" lat="30.430487" lon="-97.679196" changeset="false"><tag k="addr:street" v="Hydro Drive"/><tag k="addr:housenumber" v="1804"/><tag k="addr:postcode" v="78728"/></node><node id="-16" lat="30.432289" lon="-97.68417" changeset="false"><tag k="addr:street" v="Avenue K"/><tag k="addr:housenumber" v="13722"/><tag k="addr:postcode" v="78728"/></node><node id="-17" lat="30.434329" lon="-97.682308" changeset="false"><tag k="addr:street" v="Wells Branch Parkway"/><tag k="addr:housenumber" v="2003"/><tag k="addr:postcode" v="78728"/></node><node id="-18" lat="30.431852" lon="-97.675451" changeset="false"><tag k="addr:street" v="Thermal Drive"/><tag k="addr:housenumber" v="14014"/><tag k="addr:postcode" v="78728"/></node><node id="-19" lat="30.430532" lon="-97.683496" changeset="false"><tag k="addr:street" v="West Howard Lane"/><tag k="addr:housenumber" v="1914"/><tag k="addr:postcode" v="78728"/></node><node id="-20" lat="30.428798" lon="-97.679337" changeset="false"><tag k="addr:street" v="West Howard Lane"/><tag k="addr:housenumber" v="1720"/><tag k="addr:postcode" v="78728"/></node><node id="-21" lat="30.428353" lon="-97.678563" changeset="false"><tag k="addr:street" v="West Howard Lane"/><tag k="addr:housenumber" v="1708"/><tag k="addr:postcode" v="78728"/></node><node id="-22" lat="30.432387" lon="-97.682923" changeset="false"><tag k="addr:street" v="Dragline Drive"/><tag k="addr:housenumber" v="13808"/><tag k="addr:postcode" v="78728"/></node><node id="-23" lat="30.430183" lon="-97.682623" changeset="false"><tag k="addr:street" v="West Howard Lane"/><tag k="addr:housenumber" v="1908"/><tag k="addr:postcode" v="78728"/></node><node id="-24" lat="30.43213" lon="-97.684855" changeset="false"><tag k="addr:street" v="West Howard Lane"/><tag k="addr:housenumber" v="2030"/><tag k="addr:postcode" v="78728"/></node><node id="-25" lat="30.432058" lon="-97.684324" changeset="false"><tag k="addr:street" v="Avenue K"/><tag k="addr:housenumber" v="13720"/><tag k="addr:postcode" v="78728"/></node><node id="-26" lat="30.43164" lon="-97.682573" changeset="false"><tag k="addr:street" v="Dragline Drive"/><tag k="addr:housenumber" v="13803"/><tag k="addr:postcode" v="78728"/></node><node id="-27" lat="30.432638" lon="-97.685126" changeset="false"><tag k="addr:street" v="West Howard Lane"/><tag k="addr:housenumber" v="2100"/><tag k="addr:postcode" v="78728"/></node><node id="-28" lat="30.430824" lon="-97.683975" changeset="false"><tag k="addr:street" v="West Howard Lane"/><tag k="addr:housenumber" v="2002"/><tag k="addr:postcode" v="78728"/></node><node id="-29" lat="30.429869" lon="-97.679723" changeset="false"><tag k="addr:street" v="Hydro Drive"/><tag k="addr:housenumber" v="1805"/><tag k="addr:postcode" v="78728"/></node><node id="-30" lat="30.429103" lon="-97.676572" changeset="false"><tag k="addr:street" v="Hydro Drive"/><tag k="addr:housenumber" v="1606"/><tag k="addr:postcode" v="78728"/></node><node id="-31" lat="30.433741" lon="-97.677762" changeset="false"><tag k="addr:street" v="Thermal Drive"/><tag k="addr:housenumber" v="14100"/><tag k="addr:postcode" v="78728"/></node><node id="-32" lat="30.428791" lon="-97.677315" changeset="false"><tag k="addr:street" v="Hydro Drive"/><tag k="addr:housenumber" v="1701"/><tag k="addr:postcode" v="78728"/></node><node id="-33" lat="30.432538" lon="-97.680995" changeset="false"><tag k="addr:street" v="Bench Mark Drive"/><tag k="addr:housenumber" v="1908"/><tag k="addr:postcode" v="78728"/></node><node id="-34" lat="30.430969" lon="-97.677677" changeset="false"><tag k="addr:street" v="Bench Mark Drive"/><tag k="addr:housenumber" v="1710"/><tag k="addr:postcode" v="78728"/></node><node id="-35" lat="30.433387" lon="-97.685302" changeset="false"><tag k="addr:street" v="West Howard Lane"/><tag k="addr:housenumber" v="2106"/><tag k="addr:postcode" v="78728"/></node><node id="-36" lat="30.428609" lon="-97.679106" changeset="false"><tag k="addr:street" v="West Howard Lane"/><tag k="addr:housenumber" v="1716"/><tag k="addr:postcode" v="78728"/></node><node id="-37" lat="30.435273" lon="-97.684859" changeset="false"><tag k="addr:street" v="Renaissance Court"/><tag k="addr:housenumber" v="14001"/><tag k="addr:postcode" v="78728"/></node><node id="-38" lat="30.436713" lon="-97.68612" changeset="false"><tag k="addr:street" v="Renaissance Court"/><tag k="addr:housenumber" v="14000"/><tag k="addr:postcode" v="78728"/></node><node id="-39" lat="30.432944" lon="-97.684486" changeset="false"><tag k="addr:street" v="Avenue I"/><tag k="addr:housenumber" v="13811"/><tag k="addr:postcode" v="78728"/></node><node id="-40" lat="30.430864" lon="-97.678865" changeset="false"><tag k="addr:street" v="Bench Mark Drive"/><tag k="addr:housenumber" v="1805"/><tag k="addr:postcode" v="78728"/></node><node id="-41" lat="30.43047" lon="-97.683182" changeset="false"><tag k="addr:street" v="West Howard Lane"/><tag k="addr:housenumber" v="1912"/><tag k="addr:postcode" v="78728"/></node><node id="-42" lat="30.431753" lon="-97.679265" changeset="false"><tag k="addr:street" v="Bench Mark Drive"/><tag k="addr:housenumber" v="1810"/><tag k="addr:postcode" v="78728"/></node><node id="-43" lat="30.430343" lon="-97.680345" changeset="false"><tag k="addr:street" v="Hydro Drive"/><tag k="addr:housenumber" v="1812"/><tag k="addr:postcode" v="78728"/></node><node id="-44" lat="30.433308" lon="-97.676602" changeset="false"><tag k="addr:street" v="Thermal Drive"/><tag k="addr:housenumber" v="14098"/><tag k="addr:postcode" v="78728"/></node><node id="-45" lat="30.42947" lon="-97.678864" changeset="false"><tag k="addr:street" v="Hydro Drive"/><tag k="addr:housenumber" v="1713"/><tag k="addr:postcode" v="78728"/></node><node id="-46" lat="30.43703" lon="-97.685096" changeset="false"><tag k="addr:street" v="Renaissance Court"/><tag k="addr:housenumber" v="14004"/><tag k="addr:postcode" v="78728"/></node><node id="-47" lat="30.435981" lon="-97.683418" changeset="false"><tag k="addr:street" v="Wells Branch Parkway"/><tag k="addr:housenumber" v="2105"/><tag k="addr:postcode" v="78728"/></node><node id="-48" lat="30.431447" lon="-97.684189" changeset="false"><tag k="addr:street" v="Avenue K"/><tag k="addr:housenumber" v="13721"/><tag k="addr:postcode" v="78728"/></node><node id="-49" lat="30.429478" lon="-97.681554" changeset="false"><tag k="addr:street" v="West Howard Lane"/><tag k="addr:housenumber" v="1900"/><tag k="addr:postcode" v="78728"/></node><node id="-50" lat="30.434816" lon="-97.685908" changeset="false"><tag k="addr:street" v="West Howard Lane"/><tag k="addr:housenumber" v="2200"/><tag k="addr:postcode" v="78728"/></node><node id="-51" lat="30.431671" lon="-97.683953" changeset="false"><tag k="addr:street" v="Avenue K"/><tag k="addr:housenumber" v="13801"/><tag k="addr:postcode" v="78728"/></node><node id="-52" lat="30.431827" lon="-97.679541" changeset="false"><tag k="addr:street" v="Bench Mark Drive"/><tag k="addr:housenumber" v="1812"/><tag k="addr:postcode" v="78728"/></node><node id="-53" lat="30.431742" lon="-97.681974" changeset="false"><tag k="addr:street" v="Quitman Pass"/><tag k="addr:housenumber" v="13804"/><tag k="addr:postcode" v="78728"/></node><node id="-54" lat="30.429924" lon="-97.682074" changeset="false"><tag k="addr:street" v="West Howard Lane"/><tag k="addr:housenumber" v="1904"/><tag k="addr:postcode" v="78728"/></node><node id="-55" lat="30.429046" lon="-97.676326" changeset="false"><tag k="addr:street" v="Hydro Drive"/><tag k="addr:housenumber" v="1604"/><tag k="addr:postcode" v="78728"/></node><node id="-56" lat="30.433266" lon="-97.684679" changeset="false"><tag k="addr:street" v="Avenue I"/><tag k="addr:housenumber" v="13812 1/2"/><tag k="addr:postcode" v="78728"/></node><node id="-57" lat="30.43114" lon="-97.679413" changeset="false"><tag k="addr:street" v="Bench Mark Drive"/><tag k="addr:housenumber" v="1809"/><tag k="addr:postcode" v="78728"/></node><node id="-58" lat="30.431566" lon="-97.678739" changeset="false"><tag k="addr:street" v="Bench Mark Drive"/><tag k="addr:housenumber" v="1806"/><tag k="addr:postcode" v="78728"/></node><node id="-59" lat="30.430957" lon="-97.680092" changeset="false"><tag k="addr:street" v="Turbine Drive"/><tag k="addr:housenumber" v="13805"/><tag k="addr:postcode" v="78728"/></node><node id="-60" lat="30.430936" lon="-97.680897" changeset="false"><tag k="addr:street" v="Turbine Drive"/><tag k="addr:housenumber" v="13802"/><tag k="addr:postcode" v="78728"/></node><node id="-61" lat="30.430852" lon="-97.682423" changeset="false"><tag k="addr:street" v="Hydro Drive"/><tag k="addr:housenumber" v="1913"/><tag k="addr:postcode" v="78728"/></node><node id="-62" lat="30.43032" lon="-97.677793" changeset="false"><tag k="addr:street" v="Bench Mark Drive"/><tag k="addr:housenumber" v="1709"/><tag k="addr:postcode" v="78728"/></node><node id="-63" lat="30.430609" lon="-97.679742" changeset="false"><tag k="addr:street" v="Hydro Drive"/><tag k="addr:housenumber" v="1808"/><tag k="addr:postcode" v="78728"/></node><node id="-64" lat="30.427962" lon="-97.67769" changeset="false"><tag k="addr:street" v="West Howard Lane"/><tag k="addr:housenumber" v="1612"/><tag k="addr:postcode" v="78728"/></node><node id="-65" lat="30.435664" lon="-97.683528" changeset="false"><tag k="addr:street" v="Wells Branch Parkway"/><tag k="addr:housenumber" v="2113"/><tag k="addr:postcode" v="78728"/></node><node id="-66" lat="30.435114" lon="-97.686267" changeset="false"><tag k="addr:street" v="West Howard Lane"/><tag k="addr:housenumber" v="2210"/><tag k="addr:postcode" v="78728"/></node><node id="-67" lat="30.429394" lon="-97.678571" changeset="false"><tag k="addr:street" v="Hydro Drive"/><tag k="addr:housenumber" v="1711"/><tag k="addr:postcode" v="78728"/></node><node id="-68" lat="30.434855" lon="-97.682985" changeset="false"><tag k="addr:street" v="Wells Branch Parkway"/><tag k="addr:housenumber" v="2013"/><tag k="addr:postcode" v="78728"/></node><node id="-69" lat="30.432302" lon="-97.683698" changeset="false"><tag k="addr:street" v="Avenue K"/><tag k="addr:housenumber" v="13811"/><tag k="addr:postcode" v="78728"/></node><node id="-70" lat="30.430111" lon="-97.678416" changeset="false"><tag k="addr:street" v="Hydro Drive"/><tag k="addr:housenumber" v="1710"/><tag k="addr:postcode" v="78728"/></node><node id="-71" lat="30.432876" lon="-97.68262" changeset="false"><tag k="addr:street" v="Dragline Drive"/><tag k="addr:housenumber" v="13812"/><tag k="addr:postcode" v="78728"/></node><node id="-72" lat="30.431196" lon="-97.680807" changeset="false"><tag k="addr:street" v="Turbine Drive"/><tag k="addr:housenumber" v="13804"/><tag k="addr:postcode" v="78728"/></node><node id="-73" lat="30.427532" lon="-97.676647" changeset="false"><tag k="addr:street" v="Thermal Drive"/><tag k="addr:housenumber" v="13702"/><tag k="addr:postcode" v="78728"/></node><node id="-74" lat="30.430985" lon="-97.679115" changeset="false"><tag k="addr:street" v="Bench Mark Drive"/><tag k="addr:housenumber" v="1807"/><tag k="addr:postcode" v="78728"/></node><node id="-75" lat="30.429015" lon="-97.679918" changeset="false"><tag k="addr:street" v="West Howard Lane"/><tag k="addr:housenumber" v="1804"/><tag k="addr:postcode" v="78728"/></node><node id="-76" lat="30.432865" lon="-97.68519" changeset="false"><tag k="addr:street" v="Avenue I"/><tag k="addr:housenumber" v="13810"/><tag k="addr:postcode" v="78728"/></node><node id="-77" lat="30.433072" lon="-97.681764" changeset="false"><tag k="addr:street" v="Bench Mark Drive"/><tag k="addr:housenumber" v="1914"/><tag k="addr:postcode" v="78728"/></node><node id="-78" lat="30.432215" lon="-97.680339" changeset="false"><tag k="addr:street" v="Bench Mark Drive"/><tag k="addr:housenumber" v="1902"/><tag k="addr:postcode" v="78728"/></node><node id="-79" lat="30.43138" lon="-97.682673" changeset="false"><tag k="addr:street" v="Hydro Drive"/><tag k="addr:housenumber" v="1916"/><tag k="addr:postcode" v="78728"/></node><node id="-80" lat="30.430362" lon="-97.682891" changeset="false"><tag k="addr:street" v="West Howard Lane"/><tag k="addr:housenumber" v="1910"/><tag k="addr:postcode" v="78728"/></node><node id="-81" lat="30.429279" lon="-97.679853" changeset="false"><tag k="addr:street" v="West Howard Lane"/><tag k="addr:housenumber" v="1806"/><tag k="addr:postcode" v="78728"/></node><node id="-82" lat="30.433081" lon="-97.682334" changeset="false"><tag k="addr:street" v="Dragline Drive"/><tag k="addr:housenumber" v="13814"/><tag k="addr:postcode" v="78728"/></node><node id="-83" lat="30.433182" lon="-97.682054" changeset="false"><tag k="addr:street" v="Bench Mark Drive"/><tag k="addr:housenumber" v="1916"/><tag k="addr:postcode" v="78728"/></node><node id="-84" lat="30.428928" lon="-97.676021" changeset="false"><tag k="addr:street" v="Hydro Drive"/><tag k="addr:housenumber" v="1602"/><tag k="addr:postcode" v="78728"/></node><node id="-85" lat="30.428789" lon="-97.675848" changeset="false"><tag k="addr:street" v="Thermal Drive"/><tag k="addr:housenumber" v="13800"/><tag k="addr:postcode" v="78728"/></node></osm>