<?xml version="1.0" encoding="UTF-8"?><osm version="0.6" generator="github.com/aaronlidman/osm-and-geojson"><node id="-1" lat="30.217746" lon="-97.853728" changeset="false"><tag k="addr:street" v="Convict Hill Road"/><tag k="addr:housenumber" v="5009"/><tag k="addr:postcode" v="78749"/></node><node id="-2" lat="30.217485" lon="-97.848344" changeset="false"><tag k="addr:street" v="Convict Hill Road"/><tag k="addr:housenumber" v="4601"/><tag k="addr:postcode" v="78749"/></node><node id="-3" lat="30.208285" lon="-97.866813" changeset="false"><tag k="addr:street" v="Hitcher Bend"/><tag k="addr:housenumber" v="5511"/><tag k="addr:postcode" v="78749"/></node><node id="-4" lat="30.208074" lon="-97.868568" changeset="false"><tag k="addr:street" v="Hitcher Bend"/><tag k="addr:housenumber" v="5547"/><tag k="addr:postcode" v="78749"/></node><node id="-5" lat="30.218861" lon="-97.85907" changeset="false"><tag k="addr:street" v="Beckett Road"/><tag k="addr:housenumber" v="7501 1/2"/><tag k="addr:postcode" v="78749"/></node><node id="-6" lat="30.217266" lon="-97.853179" changeset="false"><tag k="addr:street" v="Convict Hill Road"/><tag k="addr:housenumber" v="5001 1/2"/><tag k="addr:postcode" v="78749"/></node><node id="-7" lat="30.213678" lon="-97.862505" changeset="false"><tag k="addr:street" v="Beckett Road"/><tag k="addr:housenumber" v="8101"/><tag k="addr:postcode" v="78749"/></node><node id="-8" lat="30.21115" lon="-97.865475" changeset="false"><tag k="addr:street" v="Beckett Road"/><tag k="addr:housenumber" v="8407"/><tag k="addr:postcode" v="78749"/></node><node id="-9" lat="30.217472" lon="-97.851957" changeset="false"><tag k="addr:street" v="Convict Hill Road"/><tag k="addr:housenumber" v="4905"/><tag k="addr:postcode" v="78749"/></node><node id="-10" lat="30.216763" lon="-97.861611" changeset="false"><tag k="addr:street" v="Kiva Drive"/><tag k="addr:housenumber" v="7739"/><tag k="addr:postcode" v="78749"/></node><node id="-11" lat="30.219675" lon="-97.856883" changeset="false"><tag k="addr:street" v="Ponoma Trail"/><tag k="addr:housenumber" v="7409"/><tag k="addr:postcode" v="78749"/></node><node id="-12" lat="30.216848" lon="-97.861864" changeset="false"><tag k="addr:street" v="Kiva Drive"/><tag k="addr:housenumber" v="7741"/><tag k="addr:postcode" v="78749"/></node><node id="-13" lat="30.217891" lon="-97.856112" changeset="false"><tag k="addr:street" v="Ponoma Trail"/><tag k="addr:housenumber" v="7503"/><tag k="addr:postcode" v="78749"/></node><node id="-14" lat="30.209216" lon="-97.862359" changeset="false"><tag k="addr:street" v="Davis Lane"/><tag k="addr:housenumber" v="5200"/><tag k="addr:postcode" v="78749"/></node><node id="-15" lat="30.216348" lon="-97.858772" changeset="false"><tag k="addr:street" v="Vail Valley Drive"/><tag k="addr:housenumber" v="7706"/><tag k="addr:postcode" v="78749"/></node><node id="-16" lat="30.216379" lon="-97.858797" changeset="false"><tag k="addr:street" v="Vail Valley Drive"/><tag k="addr:housenumber" v="7704"/><tag k="addr:postcode" v="78749"/></node></osm>