<?xml version="1.0" encoding="UTF-8"?><osm version="0.6" generator="github.com/aaronlidman/osm-and-geojson"><node id="-1" lat="30.446979" lon="-97.607989" changeset="false"><tag k="addr:street" v="Kay Lane"/><tag k="addr:housenumber" v="711"/><tag k="addr:postcode" v="78660"/></node><node id="-2" lat="30.451414" lon="-97.607407" changeset="false"><tag k="addr:street" v="Pfennig Lane"/><tag k="addr:housenumber" v="1611"/><tag k="addr:postcode" v="78660"/></node><node id="-3" lat="30.444455" lon="-97.612434" changeset="false"><tag k="addr:street" v="Cedar Lane"/><tag k="addr:housenumber" v="511"/><tag k="addr:postcode" v="78660"/></node><node id="-4" lat="30.445991" lon="-97.614103" changeset="false"><tag k="addr:street" v="Rocky Creek Drive"/><tag k="addr:housenumber" v="1002"/><tag k="addr:postcode" v="78660"/></node><node id="-5" lat="30.443998" lon="-97.616563" changeset="false"><tag k="addr:street" v="Meadow Creek Drive"/><tag k="addr:housenumber" v="701"/><tag k="addr:postcode" v="78660"/></node><node id="-6" lat="30.439657" lon="-97.61947" changeset="false"><tag k="addr:street" v="East Pecan Street"/><tag k="addr:housenumber" v="200"/><tag k="addr:postcode" v="78660"/></node><node id="-7" lat="30.446889" lon="-97.616428" changeset="false"><tag k="addr:street" v="Drake Elm Drive"/><tag k="addr:housenumber" v="102"/><tag k="addr:postcode" v="78660"/></node><node id="-8" lat="30.443432" lon="-97.611337" changeset="false"><tag k="addr:street" v="Applewood Drive"/><tag k="addr:housenumber" v="700"/><tag k="addr:postcode" v="78660"/></node><node id="-9" lat="30.449321" lon="-97.613598" changeset="false"><tag k="addr:street" v="Brophy Drive"/><tag k="addr:housenumber" v="1201"/><tag k="addr:postcode" v="78660"/></node><node id="-10" lat="30.447989" lon="-97.60751" changeset="false"><tag k="addr:street" v="Kay Lane"/><tag k="addr:housenumber" v="710"/><tag k="addr:postcode" v="78660"/></node><node id="-11" lat="30.44456" lon="-97.612655" changeset="false"><tag k="addr:street" v="Cedar Lane"/><tag k="addr:housenumber" v="509"/><tag k="addr:postcode" v="78660"/></node><node id="-12" lat="30.443976" lon="-97.616458" changeset="false"><tag k="addr:street" v="Meadow Creek Drive"/><tag k="addr:housenumber" v="702"/><tag k="addr:postcode" v="78660"/></node></osm>