<?xml version="1.0" encoding="UTF-8"?><osm version="0.6" generator="github.com/aaronlidman/osm-and-geojson"><node id="-1" lat="30.260074" lon="-97.774075" changeset="false"><tag k="addr:street" v="Hollow Creek Drive"/><tag k="addr:housenumber" v="1209"/></node><node id="-2" lat="30.259904" lon="-97.771759" changeset="false"><tag k="addr:street" v="Robert E Lee Road"/><tag k="addr:housenumber" v="1116"/></node><node id="-3" lat="30.259531" lon="-97.7751" changeset="false"><tag k="addr:street" v="Trailside Drive"/><tag k="addr:housenumber" v="2401"/></node><node id="-4" lat="30.26046" lon="-97.772979" changeset="false"><tag k="addr:street" v="Hollow Creek Drive"/><tag k="addr:housenumber" v="1128"/></node><node id="-5" lat="30.2597" lon="-97.773101" changeset="false"><tag k="addr:street" v="Trailside Drive"/><tag k="addr:housenumber" v="2206"/></node><node id="-6" lat="30.259999" lon="-97.782564" changeset="false"><tag k="addr:street" v="Graywood Cove"/><tag k="addr:housenumber" v="1707"/></node><node id="-7" lat="30.254714" lon="-97.78414" changeset="false"><tag k="addr:street" v="Homedale Drive"/><tag k="addr:housenumber" v="2104"/></node><node id="-8" lat="30.259687" lon="-97.772854" changeset="false"><tag k="addr:street" v="Trailside Drive"/><tag k="addr:housenumber" v="2204"/></node><node id="-9" lat="30.259554" lon="-97.772375" changeset="false"><tag k="addr:street" v="Trailside Drive"/><tag k="addr:housenumber" v="2200"/></node><node id="-10" lat="30.26036" lon="-97.773205" changeset="false"><tag k="addr:street" v="Hollow Creek Drive"/><tag k="addr:housenumber" v="1200"/></node><node id="-11" lat="30.257633" lon="-97.782387" changeset="false"><tag k="addr:street" v="Glencliff Drive"/><tag k="addr:housenumber" v="1905"/></node><node id="-12" lat="30.260708" lon="-97.772607" changeset="false"><tag k="addr:street" v="Hollow Creek Drive"/><tag k="addr:housenumber" v="1124"/></node><node id="-13" lat="30.259798" lon="-97.771931" changeset="false"><tag k="addr:street" v="Robert E Lee Road"/><tag k="addr:housenumber" v="1118"/></node><node id="-14" lat="30.260927" lon="-97.775175" changeset="false"><tag k="addr:street" v="Hollow Creek Drive"/><tag k="addr:housenumber" v="1303"/></node><node id="-15" lat="30.260056" lon="-97.773426" changeset="false"><tag k="addr:street" v="Hollow Creek Drive"/><tag k="addr:housenumber" v="1203"/></node><node id="-16" lat="30.26188" lon="-97.771705" changeset="false"><tag k="addr:street" v="Barton Hills Drive"/><tag k="addr:housenumber" v="1030 1/2"/></node><node id="-17" lat="30.261583" lon="-97.772233" changeset="false"><tag k="addr:street" v="Hollow Creek Drive"/><tag k="addr:housenumber" v="1101"/></node><node id="-18" lat="30.262848" lon="-97.767122" changeset="false"><tag k="addr:street" v="Robert E Lee Road"/><tag k="addr:housenumber" v="700"/></node><node id="-19" lat="30.260223" lon="-97.772702" changeset="false"><tag k="addr:street" v="Hollow Creek Drive"/><tag k="addr:housenumber" v="1131"/></node><node id="-20" lat="30.259684" lon="-97.773375" changeset="false"><tag k="addr:street" v="Trailside Drive"/><tag k="addr:housenumber" v="2208"/></node><node id="-21" lat="30.260502" lon="-97.772343" changeset="false"><tag k="addr:street" v="Hollow Creek Drive"/><tag k="addr:housenumber" v="1123"/></node><node id="-22" lat="30.260065" lon="-97.773859" changeset="false"><tag k="addr:street" v="Hollow Creek Drive"/><tag k="addr:housenumber" v="1207"/></node><node id="-23" lat="30.260792" lon="-97.775047" changeset="false"><tag k="addr:street" v="Hollow Creek Drive"/><tag k="addr:housenumber" v="1301"/></node><node id="-24" lat="30.261145" lon="-97.774942" changeset="false"><tag k="addr:street" v="Hollow Creek Drive"/><tag k="addr:housenumber" v="1302 1/2"/></node><node id="-25" lat="30.255515" lon="-97.783493" changeset="false"><tag k="addr:street" v="Homedale Drive"/><tag k="addr:housenumber" v="2009"/></node><node id="-26" lat="30.260959" lon="-97.772238" changeset="false"><tag k="addr:street" v="Hollow Creek Drive"/><tag k="addr:housenumber" v="1120"/></node><node id="-27" lat="30.260582" lon="-97.779542" changeset="false"><tag k="addr:street" v="Deerfoot Trail"/><tag k="addr:housenumber" v="2613"/></node><node id="-28" lat="30.262799" lon="-97.767985" changeset="false"><tag k="addr:street" v="Robert E Lee Road"/><tag k="addr:housenumber" v="800"/></node><node id="-29" lat="30.259613" lon="-97.772609" changeset="false"><tag k="addr:street" v="Trailside Drive"/><tag k="addr:housenumber" v="2202"/></node><node id="-30" lat="30.260529" lon="-97.774784" changeset="false"><tag k="addr:street" v="Hollow Creek Drive"/><tag k="addr:housenumber" v="1217"/></node><node id="-31" lat="30.260367" lon="-97.773729" changeset="false"><tag k="addr:street" v="Hollow Creek Drive"/><tag k="addr:housenumber" v="1204"/></node><node id="-32" lat="30.260225" lon="-97.774465" changeset="false"><tag k="addr:street" v="Hollow Creek Drive"/><tag k="addr:housenumber" v="1213"/></node><node id="-33" lat="30.261822" lon="-97.779248" changeset="false"><tag k="addr:street" v="Foxwood Cove"/><tag k="addr:housenumber" v="1403"/></node><node id="-34" lat="30.263889" lon="-97.766365" changeset="false"><tag k="addr:street" v="Robert E Lee Road"/><tag k="addr:housenumber" v="600"/></node><node id="-35" lat="30.261836" lon="-97.779514" changeset="false"><tag k="addr:street" v="Foxwood Cove"/><tag k="addr:housenumber" v="1401"/></node><node id="-36" lat="30.26189" lon="-97.768545" changeset="false"><tag k="addr:street" v="Robert E Lee Road"/><tag k="addr:housenumber" v="802"/></node><node id="-37" lat="30.260159" lon="-97.784374" changeset="false"><tag k="addr:street" v="Bartoncliff Drive"/><tag k="addr:housenumber" v="1722"/></node><node id="-38" lat="30.253952" lon="-97.784258" changeset="false"><tag k="addr:street" v="Homedale Drive"/><tag k="addr:housenumber" v="2200"/></node><node id="-39" lat="30.26079" lon="-97.774536" changeset="false"><tag k="addr:street" v="Hollow Creek Drive"/><tag k="addr:housenumber" v="1212"/></node><node id="-40" lat="30.259538" lon="-97.783711" changeset="false"><tag k="addr:street" v="Glencliff Drive"/><tag k="addr:housenumber" v="1728"/></node><node id="-41" lat="30.25978" lon="-97.783841" changeset="false"><tag k="addr:street" v="Glencliff Drive"/><tag k="addr:housenumber" v="1726"/></node><node id="-42" lat="30.26038" lon="-97.774644" changeset="false"><tag k="addr:street" v="Hollow Creek Drive"/><tag k="addr:housenumber" v="1215"/></node><node id="-43" lat="30.260028" lon="-97.77162" changeset="false"><tag k="addr:street" v="Robert E Lee Road"/><tag k="addr:housenumber" v="1114"/></node><node id="-44" lat="30.261533" lon="-97.772902" changeset="false"><tag k="addr:street" v="Barton Hills Drive"/><tag k="addr:housenumber" v="1135"/></node><node id="-45" lat="30.2604" lon="-97.773966" changeset="false"><tag k="addr:street" v="Hollow Creek Drive"/><tag k="addr:housenumber" v="1206"/></node><node id="-46" lat="30.260593" lon="-97.772783" changeset="false"><tag k="addr:street" v="Hollow Creek Drive"/><tag k="addr:housenumber" v="1126"/></node><node id="-47" lat="30.261869" lon="-97.778256" changeset="false"><tag k="addr:street" v="Foxtail Cove"/><tag k="addr:housenumber" v="1401"/></node><node id="-48" lat="30.26257" lon="-97.767273" changeset="false"><tag k="addr:street" v="Robert E Lee Road"/><tag k="addr:housenumber" v="710"/></node><node id="-49" lat="30.261094" lon="-97.774839" changeset="false"><tag k="addr:street" v="Hollow Creek Drive"/><tag k="addr:housenumber" v="1302"/></node><node id="-50" lat="30.260348" lon="-97.773457" changeset="false"><tag k="addr:street" v="Hollow Creek Drive"/><tag k="addr:housenumber" v="1202"/></node><node id="-51" lat="30.260055" lon="-97.77363" changeset="false"><tag k="addr:street" v="Hollow Creek Drive"/><tag k="addr:housenumber" v="1205"/></node><node id="-52" lat="30.26066" lon="-97.774912" changeset="false"><tag k="addr:street" v="Hollow Creek Drive"/><tag k="addr:housenumber" v="1219"/></node><node id="-53" lat="30.260825" lon="-97.772427" changeset="false"><tag k="addr:street" v="Hollow Creek Drive"/><tag k="addr:housenumber" v="1122"/></node><node id="-54" lat="30.258554" lon="-97.781664" changeset="false"><tag k="addr:street" v="Cresthaven Drive"/><tag k="addr:housenumber" v="1813"/></node><node id="-55" lat="30.260104" lon="-97.774313" changeset="false"><tag k="addr:street" v="Hollow Creek Drive"/><tag k="addr:housenumber" v="1211"/></node><node id="-56" lat="30.261334" lon="-97.779842" changeset="false"><tag k="addr:street" v="Foxwood Cove"/><tag k="addr:housenumber" v="1404"/></node><node id="-57" lat="30.260647" lon="-97.77438" changeset="false"><tag k="addr:street" v="Hollow Creek Drive"/><tag k="addr:housenumber" v="1210"/></node><node id="-58" lat="30.26127" lon="-97.774978" changeset="false"><tag k="addr:street" v="Hollow Creek Drive"/><tag k="addr:housenumber" v="1304"/></node><node id="-59" lat="30.261885" lon="-97.778508" changeset="false"><tag k="addr:street" v="Foxtail Cove"/><tag k="addr:housenumber" v="1400"/></node><node id="-60" lat="30.261717" lon="-97.774229" changeset="false"><tag k="addr:street" v="Barton Hills Drive"/><tag k="addr:housenumber" v="1200"/></node><node id="-61" lat="30.262636" lon="-97.768476" changeset="false"><tag k="addr:street" v="Robert E Lee Road"/><tag k="addr:housenumber" v="806"/></node><node id="-62" lat="30.260073" lon="-97.773161" changeset="false"><tag k="addr:street" v="Hollow Creek Drive"/><tag k="addr:housenumber" v="1201"/></node><node id="-63" lat="30.260925" lon="-97.774687" changeset="false"><tag k="addr:street" v="Hollow Creek Drive"/><tag k="addr:housenumber" v="1300"/></node><node id="-64" lat="30.258457" lon="-97.778322" changeset="false"><tag k="addr:street" v="Deerfoot Trail"/><tag k="addr:housenumber" v="2402"/></node><node id="-65" lat="30.261089" lon="-97.775284" changeset="false"><tag k="addr:street" v="Hollow Creek Drive"/><tag k="addr:housenumber" v="1305"/></node><node id="-66" lat="30.261885" lon="-97.774944" changeset="false"><tag k="addr:street" v="Barton Hills Drive"/><tag k="addr:housenumber" v="1218"/></node><node id="-67" lat="30.261863" lon="-97.775103" changeset="false"><tag k="addr:street" v="Barton Hills Drive"/><tag k="addr:housenumber" v="1220"/></node></osm>