<?xml version="1.0" encoding="UTF-8"?><osm version="0.6" generator="github.com/aaronlidman/osm-and-geojson"><node id="-1" lat="30.461302" lon="-97.645235" changeset="false"><tag k="addr:street" v="Thackeray Lane"/><tag k="addr:housenumber" v="1203"/><tag k="coa:place_id" v="55237"/></node><node id="-2" lat="30.461559" lon="-97.640012" changeset="false"><tag k="addr:street" v="Black Locust Drive East,1100"/><tag k="addr:housenumber" v="905"/><tag k="coa:place_id" v="59915"/></node><node id="-3" lat="30.464517" lon="-97.635385" changeset="false"><tag k="addr:street" v="Black Isle Drive"/><tag k="addr:housenumber" v="719"/><tag k="coa:place_id" v="3113802"/></node><node id="-4" lat="30.459584" lon="-97.638954" changeset="false"><tag k="addr:street" v="Gower Street"/><tag k="addr:housenumber" v="16907"/><tag k="coa:place_id" v="3082106"/></node><node id="-5" lat="30.459003" lon="-97.639315" changeset="false"><tag k="addr:street" v="Gower Street"/><tag k="addr:housenumber" v="16821"/><tag k="coa:place_id" v="3082103"/></node><node id="-6" lat="30.458265" lon="-97.636563" changeset="false"><tag k="addr:street" v="Ardisia Drive"/><tag k="addr:housenumber" v="16913"/><tag k="coa:place_id" v="55996"/></node><node id="-7" lat="30.459564" lon="-97.635905" changeset="false"><tag k="addr:street" v="Simsbrook Drive"/><tag k="addr:housenumber" v="17010"/><tag k="coa:place_id" v="56006"/></node><node id="-8" lat="30.459757" lon="-97.636778" changeset="false"><tag k="addr:street" v="Ardisia Drive"/><tag k="addr:housenumber" v="17006"/><tag k="coa:place_id" v="55983"/></node><node id="-9" lat="30.461392" lon="-97.641232" changeset="false"><tag k="addr:street" v="Thackeray Lane"/><tag k="addr:housenumber" v="918"/><tag k="coa:place_id" v="59933"/></node><node id="-10" lat="30.459155" lon="-97.639239" changeset="false"><tag k="addr:street" v="Gower Street"/><tag k="addr:housenumber" v="16901"/><tag k="coa:place_id" v="3082102"/></node><node id="-11" lat="30.456795" lon="-97.636649" changeset="false"><tag k="addr:street" v="Cactus Blossom Drive"/><tag k="addr:housenumber" v="16820"/><tag k="coa:place_id" v="55938"/></node><node id="-12" lat="30.459921" lon="-97.635149" changeset="false"><tag k="addr:street" v="Dashwood Creek Drive"/><tag k="addr:housenumber" v="17102"/><tag k="coa:place_id" v="56044"/></node><node id="-13" lat="30.457904" lon="-97.636802" changeset="false"><tag k="addr:street" v="Ardisia Drive"/><tag k="addr:housenumber" v="16907"/><tag k="coa:place_id" v="55999"/></node><node id="-14" lat="30.459846" lon="-97.63455" changeset="false"><tag k="addr:street" v="Dashwood Creek Drive"/><tag k="addr:housenumber" v="17101"/><tag k="coa:place_id" v="56088"/></node><node id="-15" lat="30.457102" lon="-97.635269" changeset="false"><tag k="addr:street" v="Dashwood Creek Drive"/><tag k="addr:housenumber" v="16909"/><tag k="coa:place_id" v="56068"/></node><node id="-16" lat="30.460263" lon="-97.644313" changeset="false"><tag k="addr:street" v="Blackthorn Drive"/><tag k="addr:housenumber" v="1107"/><tag k="coa:place_id" v="55276"/></node><node id="-17" lat="30.460175" lon="-97.641177" changeset="false"><tag k="addr:street" v="Isle of Man Court"/><tag k="addr:housenumber" v="905"/><tag k="coa:place_id" v="59977"/></node><node id="-18" lat="30.460127" lon="-97.63458" changeset="false"><tag k="addr:street" v="Dashwood Creek Drive"/><tag k="addr:housenumber" v="17105"/><tag k="coa:place_id" v="56090"/></node><node id="-19" lat="30.458422" lon="-97.639677" changeset="false"><tag k="addr:street" v="Gower Street"/><tag k="addr:housenumber" v="16813"/><tag k="coa:place_id" v="3082100"/></node><node id="-20" lat="30.465771" lon="-97.632295" changeset="false"><tag k="addr:street" v="Avena Valley Drive"/><tag k="addr:housenumber" v="17506"/><tag k="coa:place_id" v="3272812"/></node><node id="-21" lat="30.464441" lon="-97.635239" changeset="false"><tag k="addr:street" v="Black Isle Drive"/><tag k="addr:housenumber" v="717"/><tag k="coa:place_id" v="3113801"/></node><node id="-22" lat="30.463367" lon="-97.634367" changeset="false"><tag k="addr:street" v="Dashwood Creek Drive"/><tag k="addr:housenumber" v="17303"/><tag k="coa:place_id" v="3113783"/></node><node id="-23" lat="30.458132" lon="-97.63467" changeset="false"><tag k="addr:street" v="Dashwood Creek Drive"/><tag k="addr:housenumber" v="16925"/><tag k="coa:place_id" v="56076"/></node><node id="-24" lat="30.457227" lon="-97.635209" changeset="false"><tag k="addr:street" v="Dashwood Creek Drive"/><tag k="addr:housenumber" v="16911"/><tag k="coa:place_id" v="56069"/></node><node id="-25" lat="30.459817" lon="-97.641757" changeset="false"><tag k="addr:street" v="Gravesend Road"/><tag k="addr:housenumber" v="16813"/><tag k="coa:place_id" v="59983"/></node><node id="-26" lat="30.457175" lon="-97.637241" changeset="false"><tag k="addr:street" v="Cactus Blossom Drive"/><tag k="addr:housenumber" v="16906"/><tag k="coa:place_id" v="55934"/></node><node id="-27" lat="30.46002" lon="-97.637565" changeset="false"><tag k="addr:street" v="Black Locust Drive East,1100"/><tag k="addr:housenumber" v="703"/><tag k="coa:place_id" v="3272456"/></node><node id="-28" lat="30.457718" lon="-97.634884" changeset="false"><tag k="addr:street" v="Dashwood Creek Drive"/><tag k="addr:housenumber" v="16919"/><tag k="coa:place_id" v="56073"/></node><node id="-29" lat="30.460001" lon="-97.641901" changeset="false"><tag k="addr:street" v="Gravesend Road"/><tag k="addr:housenumber" v="16817"/><tag k="coa:place_id" v="59981"/></node><node id="-30" lat="30.4583" lon="-97.639771" changeset="false"><tag k="addr:street" v="Gower Street"/><tag k="addr:housenumber" v="16811"/><tag k="coa:place_id" v="3082101"/></node><node id="-31" lat="30.458695" lon="-97.634506" changeset="false"><tag k="addr:street" v="Dashwood Creek Drive"/><tag k="addr:housenumber" v="17007"/><tag k="coa:place_id" v="56080"/></node><node id="-32" lat="30.460044" lon="-97.641376" changeset="false"><tag k="addr:street" v="Isle of Man Court"/><tag k="addr:housenumber" v="907"/><tag k="coa:place_id" v="59976"/></node><node id="-33" lat="30.466999" lon="-97.63353" changeset="false"><tag k="addr:street" v="Wiseman Drive"/><tag k="addr:housenumber" v="17514"/><tag k="coa:place_id" v="3272763"/></node><node id="-34" lat="30.465655" lon="-97.631853" changeset="false"><tag k="addr:street" v="Avena Valley Drive"/><tag k="addr:housenumber" v="17509"/><tag k="coa:place_id" v="3272821"/></node><node id="-35" lat="30.458157" lon="-97.63665" changeset="false"><tag k="addr:street" v="Ardisia Drive"/><tag k="addr:housenumber" v="16911"/><tag k="coa:place_id" v="55997"/></node><node id="-36" lat="30.458712" lon="-97.639495" changeset="false"><tag k="addr:street" v="Gower Street"/><tag k="addr:housenumber" v="16817"/><tag k="coa:place_id" v="3082098"/></node><node id="-37" lat="30.459792" lon="-97.635137" changeset="false"><tag k="addr:street" v="Dashwood Creek Drive"/><tag k="addr:housenumber" v="17100"/><tag k="coa:place_id" v="56045"/></node><node id="-38" lat="30.458542" lon="-97.635492" changeset="false"><tag k="addr:street" v="Simsbrook Drive"/><tag k="addr:housenumber" v="16923"/><tag k="coa:place_id" v="56032"/></node><node id="-39" lat="30.46001" lon="-97.638689" changeset="false"><tag k="addr:street" v="Gower Street"/><tag k="addr:housenumber" v="17001"/><tag k="coa:place_id" v="3082114"/></node><node id="-40" lat="30.457234" lon="-97.636392" changeset="false"><tag k="addr:street" v="Simsbrook Drive"/><tag k="addr:housenumber" v="16901"/><tag k="coa:place_id" v="117049"/></node><node id="-41" lat="30.458856" lon="-97.639391" changeset="false"><tag k="addr:street" v="Gower Street"/><tag k="addr:housenumber" v="16819"/><tag k="coa:place_id" v="3082104"/></node><node id="-42" lat="30.460012" lon="-97.641053" changeset="false"><tag k="addr:street" v="Isle of Man Road"/><tag k="addr:housenumber" v="16906"/><tag k="coa:place_id" v="60023"/></node><node id="-43" lat="30.458414" lon="-97.634597" changeset="false"><tag k="addr:street" v="Dashwood Creek Drive"/><tag k="addr:housenumber" v="17003"/><tag k="coa:place_id" v="56078"/></node><node id="-44" lat="30.459708" lon="-97.634523" changeset="false"><tag k="addr:street" v="Dashwood Creek Drive"/><tag k="addr:housenumber" v="17021"/><tag k="coa:place_id" v="56087"/></node><node id="-45" lat="30.459273" lon="-97.638694" changeset="false"><tag k="addr:street" v="Cactus Blossom Drive"/><tag k="addr:housenumber" v="16944"/><tag k="coa:place_id" v="55913"/></node><node id="-46" lat="30.456105" lon="-97.635865" changeset="false"><tag k="addr:street" v="Cactus Blossom Drive"/><tag k="addr:housenumber" v="16812"/><tag k="coa:place_id" v="116449"/></node><node id="-47" lat="30.459137" lon="-97.634486" changeset="false"><tag k="addr:street" v="Dashwood Creek Drive"/><tag k="addr:housenumber" v="17013"/><tag k="coa:place_id" v="56083"/></node><node id="-48" lat="30.460993" lon="-97.642498" changeset="false"><tag k="addr:street" v="Thackeray Lane"/><tag k="addr:housenumber" v="1015"/><tag k="coa:place_id" v="55209"/></node><node id="-49" lat="30.45962" lon="-97.637406" changeset="false"><tag k="addr:street" v="Columbine Street"/><tag k="addr:housenumber" v="17009"/><tag k="coa:place_id" v="55951"/></node><node id="-50" lat="30.459299" lon="-97.639139" changeset="false"><tag k="addr:street" v="Gower Street"/><tag k="addr:housenumber" v="16903"/><tag k="coa:place_id" v="3082108"/></node><node id="-51" lat="30.461616" lon="-97.640135" changeset="false"><tag k="addr:street" v="Black Locust Drive East,1100"/><tag k="addr:housenumber" v="907"/><tag k="coa:place_id" v="59914"/></node><node id="-52" lat="30.461555" lon="-97.635643" changeset="false"><tag k="addr:street" v="Simsbrook Drive"/><tag k="addr:housenumber" v="17115"/><tag k="coa:place_id" v="3113688"/></node><node id="-53" lat="30.459967" lon="-97.641795" changeset="false"><tag k="addr:street" v="Gravesend Road"/><tag k="addr:housenumber" v="16807"/><tag k="coa:place_id" v="59986"/></node><node id="-54" lat="30.459909" lon="-97.641829" changeset="false"><tag k="addr:street" v="Gravesend Road"/><tag k="addr:housenumber" v="16815"/><tag k="coa:place_id" v="59982"/></node></osm>