<?xml version="1.0" encoding="UTF-8"?><osm version="0.6" generator="github.com/aaronlidman/osm-and-geojson"><node id="-1" lat="30.318264" lon="-97.858952" changeset="false"><tag k="addr:street" v="Sanostee Cove"/><tag k="addr:housenumber" v="216"/><tag k="coa:place_id" v="3042686"/></node><node id="-2" lat="30.319505" lon="-97.854624" changeset="false"><tag k="addr:street" v="Galeana Trace Cove"/><tag k="addr:housenumber" v="8412"/><tag k="coa:place_id" v="3042683"/></node><node id="-3" lat="30.32633" lon="-97.871424" changeset="false"><tag k="addr:street" v="Southward Cove"/><tag k="addr:housenumber" v="9610"/><tag k="coa:place_id" v="612783"/></node><node id="-4" lat="30.337568" lon="-97.864015" changeset="false"><tag k="addr:street" v="Delgado Way"/><tag k="addr:housenumber" v="9704"/><tag k="coa:place_id" v="90655"/></node><node id="-5" lat="30.335548" lon="-97.865091" changeset="false"><tag k="addr:street" v="Canyon Edge Drive"/><tag k="addr:housenumber" v="1204"/><tag k="coa:place_id" v="90643"/></node><node id="-6" lat="30.346906" lon="-97.848685" changeset="false"><tag k="addr:street" v="Oestrick Lane"/><tag k="addr:housenumber" v="2936"/><tag k="coa:place_id" v="787785"/></node><node id="-7" lat="30.332936" lon="-97.860525" changeset="false"><tag k="addr:street" v="Mayan Way"/><tag k="addr:housenumber" v="1109"/><tag k="coa:place_id" v="90445"/></node><node id="-8" lat="30.334474" lon="-97.860453" changeset="false"><tag k="addr:street" v="Olympus Drive"/><tag k="addr:housenumber" v="1305"/><tag k="coa:place_id" v="90491"/></node><node id="-9" lat="30.333762" lon="-97.860001" changeset="false"><tag k="addr:street" v="Olympus Drive"/><tag k="addr:housenumber" v="1217"/><tag k="coa:place_id" v="90485"/></node><node id="-10" lat="30.334026" lon="-97.87503" changeset="false"><tag k="addr:street" v="Lake Ridge Drive"/><tag k="addr:housenumber" v="10102"/><tag k="coa:place_id" v="104763"/></node><node id="-11" lat="30.319242" lon="-97.859995" changeset="false"><tag k="addr:street" v="Capehart Cove"/><tag k="addr:housenumber" v="8801"/><tag k="coa:place_id" v="1140948"/></node><node id="-12" lat="30.33609" lon="-97.859524" changeset="false"><tag k="addr:street" v="Winchester Road"/><tag k="addr:housenumber" v="9404"/><tag k="coa:place_id" v="90247"/></node><node id="-13" lat="30.337836" lon="-97.862079" changeset="false"><tag k="addr:street" v="Canyon Edge Drive"/><tag k="addr:housenumber" v="1601"/><tag k="coa:place_id" v="90595"/></node><node id="-14" lat="30.337048" lon="-97.863586" changeset="false"><tag k="addr:street" v="Canyon Edge Drive"/><tag k="addr:housenumber" v="1404"/><tag k="coa:place_id" v="199370"/></node><node id="-15" lat="30.330427" lon="-97.885165" changeset="false"><tag k="addr:street" v="Commons Ford Ranch Park Road,1100"/><tag k="addr:housenumber" v="220"/><tag k="coa:place_id" v="3136981"/></node><node id="-16" lat="30.324319" lon="-97.865661" changeset="false"><tag k="addr:street" v="Stallion Drive"/><tag k="addr:housenumber" v="9205"/><tag k="coa:place_id" v="85258"/></node><node id="-17" lat="30.327937" lon="-97.881646" changeset="false"><tag k="addr:street" v="Commons Ford Ranch Park Road,1100"/><tag k="addr:housenumber" v="261"/><tag k="coa:place_id" v="1102727"/></node><node id="-18" lat="30.326236" lon="-97.85836" changeset="false"><tag k="addr:street" v="Brandon Way"/><tag k="addr:housenumber" v="529"/><tag k="coa:place_id" v="3106832"/></node><node id="-19" lat="30.329288" lon="-97.862774" changeset="false"><tag k="addr:street" v="Tumbleweed Trail North,1100"/><tag k="addr:housenumber" v="707"/><tag k="coa:place_id" v="58109"/></node><node id="-20" lat="30.319037" lon="-97.854076" changeset="false"><tag k="addr:street" v="River Hills Road"/><tag k="addr:housenumber" v="210"/><tag k="coa:place_id" v="151193"/></node><node id="-21" lat="30.322697" lon="-97.859861" changeset="false"><tag k="addr:street" v="Brandon Way"/><tag k="addr:housenumber" v="216"/><tag k="coa:place_id" v="3167242"/></node><node id="-22" lat="30.333915" lon="-97.866231" changeset="false"><tag k="addr:street" v="Canyon Edge Drive"/><tag k="addr:housenumber" v="1010"/><tag k="coa:place_id" v="90630"/></node><node id="-23" lat="30.333746" lon="-97.862183" changeset="false"><tag k="addr:street" v="Ottawa Drive"/><tag k="addr:housenumber" v="1117"/><tag k="coa:place_id" v="90407"/></node><node id="-24" lat="30.334813" lon="-97.860032" changeset="false"><tag k="addr:street" v="Caracas Drive"/><tag k="addr:housenumber" v="9403"/><tag k="coa:place_id" v="90313"/></node><node id="-25" lat="30.334853" lon="-97.865561" changeset="false"><tag k="addr:street" v="Canyon Edge Drive"/><tag k="addr:housenumber" v="1106"/><tag k="coa:place_id" v="90637"/></node><node id="-26" lat="30.335057" lon="-97.86201" changeset="false"><tag k="addr:street" v="Ogden Drive"/><tag k="addr:housenumber" v="1302"/><tag k="coa:place_id" v="90359"/></node><node id="-27" lat="30.335518" lon="-97.861252" changeset="false"><tag k="addr:street" v="Olympus Drive"/><tag k="addr:housenumber" v="1401"/><tag k="coa:place_id" v="128484"/></node><node id="-28" lat="30.344685" lon="-97.859955" changeset="false"><tag k="addr:street" v="San Juan Drive"/><tag k="addr:housenumber" v="2300"/><tag k="coa:place_id" v="521049"/></node><node id="-29" lat="30.333658" lon="-97.863187" changeset="false"><tag k="addr:street" v="Ogden Drive"/><tag k="addr:housenumber" v="1110"/><tag k="coa:place_id" v="90347"/></node><node id="-30" lat="30.338802" lon="-97.863954" changeset="false"><tag k="addr:street" v="Cuernavaca Drive North,1100"/><tag k="addr:housenumber" v="1601"/><tag k="coa:place_id" v="3032332"/></node><node id="-31" lat="30.336232" lon="-97.88255" changeset="false"><tag k="addr:street" v="Riders Trail"/><tag k="addr:housenumber" v="500"/><tag k="coa:place_id" v="157272"/></node><node id="-32" lat="30.346241" lon="-97.855254" changeset="false"><tag k="addr:street" v="Demona Drive"/><tag k="addr:housenumber" v="2623"/><tag k="coa:place_id" v="222871"/></node><node id="-33" lat="30.345631" lon="-97.856133" changeset="false"><tag k="addr:street" v="Demona Drive"/><tag k="addr:housenumber" v="2601"/><tag k="coa:place_id" v="222859"/></node><node id="-34" lat="30.338088" lon="-97.883218" changeset="false"><tag k="addr:street" v="Riders Trail"/><tag k="addr:housenumber" v="606"/><tag k="coa:place_id" v="163609"/></node><node id="-35" lat="30.346703" lon="-97.851825" changeset="false"><tag k="addr:street" v="Oestrick Lane"/><tag k="addr:housenumber" v="2801"/><tag k="coa:place_id" v="196088"/></node><node id="-36" lat="30.345369" lon="-97.853893" changeset="false"><tag k="addr:street" v="Padina Drive"/><tag k="addr:housenumber" v="2601"/><tag k="coa:place_id" v="3031757"/></node><node id="-37" lat="30.333451" lon="-97.858869" changeset="false"><tag k="addr:street" v="Bowie Road"/><tag k="addr:housenumber" v="1300"/><tag k="coa:place_id" v="90289"/></node><node id="-38" lat="30.333401" lon="-97.863293" changeset="false"><tag k="addr:street" v="Ogden Drive"/><tag k="addr:housenumber" v="1108"/><tag k="coa:place_id" v="90343"/></node><node id="-39" lat="30.328209" lon="-97.862166" changeset="false"><tag k="addr:street" v="Tumbleweed Trail North,1100"/><tag k="addr:housenumber" v="605"/><tag k="coa:place_id" v="175265"/></node><node id="-40" lat="30.328784" lon="-97.86512" changeset="false"><tag k="addr:street" v="Tumbleweed Trail North,1100"/><tag k="addr:housenumber" v="600"/><tag k="coa:place_id" v="131887"/></node><node id="-41" lat="30.320756" lon="-97.86186" changeset="false"><tag k="addr:street" v="Brandon Way"/><tag k="addr:housenumber" v="100"/><tag k="coa:place_id" v="3070683"/></node><node id="-42" lat="30.332078" lon="-97.85722" changeset="false"><tag k="addr:street" v="Marly Way,1100"/><tag k="addr:housenumber" v="1115"/><tag k="coa:place_id" v="3167902"/></node><node id="-43" lat="30.316857" lon="-97.872952" changeset="false"><tag k="addr:street" v="Cuernavaca Drive North,1100"/><tag k="addr:housenumber" v="624"/><tag k="coa:place_id" v="3136973"/></node><node id="-44" lat="30.323959" lon="-97.853965" changeset="false"><tag k="addr:street" v="River Hills Road"/><tag k="addr:housenumber" v="518"/><tag k="coa:place_id" v="157181"/></node><node id="-45" lat="30.350423" lon="-97.855857" changeset="false"><tag k="addr:street" v="Padina Drive"/><tag k="addr:housenumber" v="2916"/><tag k="coa:place_id" v="222379"/></node><node id="-46" lat="30.328547" lon="-97.864115" changeset="false"><tag k="addr:street" v="Tumbleweed Trail North,1100"/><tag k="addr:housenumber" v="608"/><tag k="coa:place_id" v="143541"/></node><node id="-47" lat="30.350307" lon="-97.857399" changeset="false"><tag k="addr:street" v="Niagara Drive"/><tag k="addr:housenumber" v="2907"/><tag k="coa:place_id" v="90089"/></node><node id="-48" lat="30.321027" lon="-97.860236" changeset="false"><tag k="addr:street" v="Brandon Way"/><tag k="addr:housenumber" v="117"/><tag k="coa:place_id" v="3225116"/></node><node id="-49" lat="30.3213" lon="-97.859953" changeset="false"><tag k="addr:street" v="Brandon Way"/><tag k="addr:housenumber" v="125"/><tag k="coa:place_id" v="3225117"/></node><node id="-50" lat="30.321499" lon="-97.86097" changeset="false"><tag k="addr:street" v="Brandon Way"/><tag k="addr:housenumber" v="116"/><tag k="coa:place_id" v="3225118"/></node><node id="-51" lat="30.327684" lon="-97.861351" changeset="false"><tag k="addr:street" v="Marly Way,1100"/><tag k="addr:housenumber" v="600"/><tag k="coa:place_id" v="3224840"/></node><node id="-52" lat="30.320275" lon="-97.861224" changeset="false"><tag k="addr:street" v="Brandon Way"/><tag k="addr:housenumber" v="101"/><tag k="coa:place_id" v="3271230"/></node><node id="-53" lat="30.327765" lon="-97.859316" changeset="false"><tag k="addr:street" v="Marly Way,1100"/><tag k="addr:housenumber" v="709"/><tag k="coa:place_id" v="3224838"/></node><node id="-54" lat="30.325247" lon="-97.862585" changeset="false"><tag k="addr:street" v="Marly Way,1100"/><tag k="addr:housenumber" v="312"/><tag k="coa:place_id" v="3225059"/></node><node id="-55" lat="30.335481" lon="-97.872793" changeset="false"><tag k="addr:street" v="Valley View Drive"/><tag k="addr:housenumber" v="901"/><tag k="coa:place_id" v="799587"/></node><node id="-56" lat="30.343748" lon="-97.861313" changeset="false"><tag k="addr:street" v="Balboa Road"/><tag k="addr:housenumber" v="2202"/><tag k="coa:place_id" v="238941"/></node><node id="-57" lat="30.343076" lon="-97.861667" changeset="false"><tag k="addr:street" v="Mecca Road"/><tag k="addr:housenumber" v="2101"/><tag k="coa:place_id" v="196160"/></node><node id="-58" lat="30.320374" lon="-97.858359" changeset="false"><tag k="addr:street" v="Capehart Cove"/><tag k="addr:housenumber" v="8700"/><tag k="coa:place_id" v="198096"/></node><node id="-59" lat="30.329856" lon="-97.856035" changeset="false"><tag k="addr:street" v="Camelback Drive"/><tag k="addr:housenumber" v="9201"/><tag k="coa:place_id" v="3224813"/></node><node id="-60" lat="30.330584" lon="-97.858149" changeset="false"><tag k="addr:street" v="Marly Way,1100"/><tag k="addr:housenumber" v="1018"/><tag k="coa:place_id" v="3224819"/></node><node id="-61" lat="30.333007" lon="-97.857711" changeset="false"><tag k="addr:street" v="Marly Way,1100"/><tag k="addr:housenumber" v="1124"/><tag k="coa:place_id" v="3224824"/></node><node id="-62" lat="30.329384" lon="-97.859056" changeset="false"><tag k="addr:street" v="Marly Way,1100"/><tag k="addr:housenumber" v="900"/><tag k="coa:place_id" v="3224827"/></node><node id="-63" lat="30.330469" lon="-97.875893" changeset="false"><tag k="addr:street" v="Laurelwood Drive North,1100"/><tag k="addr:housenumber" v="300"/><tag k="coa:place_id" v="90119"/></node><node id="-64" lat="30.324755" lon="-97.871196" changeset="false"><tag k="addr:street" v="Tumbleweed Trail North,1100"/><tag k="addr:housenumber" v="106"/><tag k="coa:place_id" v="69163"/></node><node id="-65" lat="30.347056" lon="-97.860765" changeset="false"><tag k="addr:street" v="De Soto Drive"/><tag k="addr:housenumber" v="2505"/><tag k="coa:place_id" v="3429274"/></node><node id="-66" lat="30.346333" lon="-97.860584" changeset="false"><tag k="addr:street" v="Saugus Lane"/><tag k="addr:housenumber" v="9802"/><tag k="coa:place_id" v="90006"/></node><node id="-67" lat="30.337592" lon="-97.859511" changeset="false"><tag k="addr:street" v="Corto Lane"/><tag k="addr:housenumber" v="1700"/><tag k="coa:place_id" v="3431855"/></node><node id="-68" lat="30.337737" lon="-97.864613" changeset="false"><tag k="addr:street" v="Cuernavaca Drive North,1100"/><tag k="addr:housenumber" v="1405"/><tag k="coa:place_id" v="3032336"/></node><node id="-69" lat="30.333659" lon="-97.866404" changeset="false"><tag k="addr:street" v="Canyon Edge Drive"/><tag k="addr:housenumber" v="1006"/><tag k="coa:place_id" v="90629"/></node><node id="-70" lat="30.343219" lon="-97.857757" changeset="false"><tag k="addr:street" v="Demona Drive"/><tag k="addr:housenumber" v="2301"/><tag k="coa:place_id" v="3031728"/></node><node id="-71" lat="30.347651" lon="-97.860001" changeset="false"><tag k="addr:street" v="Mecca Circle"/><tag k="addr:housenumber" v="9705"/><tag k="coa:place_id" v="1141016"/></node><node id="-72" lat="30.336045" lon="-97.86524" changeset="false"><tag k="addr:street" v="Cuernavaca Drive North,1100"/><tag k="addr:housenumber" v="1207"/><tag k="coa:place_id" v="90532"/></node><node id="-73" lat="30.330586" lon="-97.87027" changeset="false"><tag k="addr:street" v="Lake Ridge Drive"/><tag k="addr:housenumber" v="9702"/><tag k="coa:place_id" v="212166"/></node><node id="-74" lat="30.33124" lon="-97.863738" changeset="false"><tag k="addr:street" v="Tumbleweed Trail North,1100"/><tag k="addr:housenumber" v="810 1/2"/><tag k="coa:place_id" v="3186044"/></node><node id="-75" lat="30.326807" lon="-97.866747" changeset="false"><tag k="addr:street" v="Tumbleweed Trail North,1100"/><tag k="addr:housenumber" v="302"/><tag k="coa:place_id" v="134813"/></node><node id="-76" lat="30.336164" lon="-97.848402" changeset="false"><tag k="addr:street" v="River Hills Road"/><tag k="addr:housenumber" v="2004"/><tag k="coa:place_id" v="195848"/></node><node id="-77" lat="30.33564" lon="-97.851164" changeset="false"><tag k="addr:street" v="Taylor Road"/><tag k="addr:housenumber" v="8816"/><tag k="coa:place_id" v="1011500"/></node><node id="-78" lat="30.329823" lon="-97.882754" changeset="false"><tag k="addr:street" v="Amwell Cove"/><tag k="addr:housenumber" v="10220"/><tag k="coa:place_id" v="3093655"/></node><node id="-79" lat="30.346455" lon="-97.85835" changeset="false"><tag k="addr:street" v="De Soto Drive"/><tag k="addr:housenumber" v="2600"/><tag k="coa:place_id" v="90019"/></node><node id="-80" lat="30.346184" lon="-97.858412" changeset="false"><tag k="addr:street" v="De Soto Drive"/><tag k="addr:housenumber" v="2526"/><tag k="coa:place_id" v="90018"/></node><node id="-81" lat="30.335262" lon="-97.865662" changeset="false"><tag k="addr:street" v="Cuernavaca Drive North,1100"/><tag k="addr:housenumber" v="1201"/><tag k="coa:place_id" v="90527"/></node><node id="-82" lat="30.333881" lon="-97.863078" changeset="false"><tag k="addr:street" v="Ogden Drive"/><tag k="addr:housenumber" v="1200"/><tag k="coa:place_id" v="90348"/></node><node id="-83" lat="30.335106" lon="-97.865389" changeset="false"><tag k="addr:street" v="Canyon Edge Drive"/><tag k="addr:housenumber" v="1200"/><tag k="coa:place_id" v="90641"/></node><node id="-84" lat="30.331919" lon="-97.849567" changeset="false"><tag k="addr:street" v="Taylor Road"/><tag k="addr:housenumber" v="8716"/><tag k="coa:place_id" v="234649"/></node><node id="-85" lat="30.331893" lon="-97.859856" changeset="false"><tag k="addr:street" v="Mayan Way"/><tag k="addr:housenumber" v="1101"/><tag k="coa:place_id" v="1132667"/></node><node id="-86" lat="30.328544" lon="-97.863147" changeset="false"><tag k="addr:street" v="Tumbleweed Trail North,1100"/><tag k="addr:housenumber" v="611"/><tag k="coa:place_id" v="116770"/></node><node id="-87" lat="30.328906" lon="-97.879664" changeset="false"><tag k="addr:street" v="Commons Ford Ranch Park Road,1100"/><tag k="addr:housenumber" v="265"/><tag k="coa:place_id" v="1108637"/></node><node id="-88" lat="30.327053" lon="-97.876694" changeset="false"><tag k="addr:street" v="Mountain Oaks Drive"/><tag k="addr:housenumber" v="9903"/><tag k="coa:place_id" v="134187"/></node><node id="-89" lat="30.326788" lon="-97.87516" changeset="false"><tag k="addr:street" v="Woodlake Trail"/><tag k="addr:housenumber" v="9902"/><tag k="coa:place_id" v="89790"/></node><node id="-90" lat="30.326562" lon="-97.874756" changeset="false"><tag k="addr:street" v="Tumbleweed Trail North,1100"/><tag k="addr:housenumber" v="204"/><tag k="coa:place_id" v="126815"/></node><node id="-91" lat="30.345635" lon="-97.849177" changeset="false"><tag k="addr:street" v="River Hills Road"/><tag k="addr:housenumber" v="2801"/><tag k="coa:place_id" v="249868"/></node><node id="-92" lat="30.346568" lon="-97.857793" changeset="false"><tag k="addr:street" v="De Soto Drive"/><tag k="addr:housenumber" v="2603"/><tag k="coa:place_id" v="90025"/></node><node id="-93" lat="30.34285" lon="-97.854678" changeset="false"><tag k="addr:street" v="Cuernavaca Drive North,1100"/><tag k="addr:housenumber" v="2327"/><tag k="coa:place_id" v="214561"/></node><node id="-94" lat="30.335325" lon="-97.865226" changeset="false"><tag k="addr:street" v="Canyon Edge Drive"/><tag k="addr:housenumber" v="1202"/><tag k="coa:place_id" v="90642"/></node><node id="-95" lat="30.341631" lon="-97.850495" changeset="false"><tag k="addr:street" v="River Hills Road"/><tag k="addr:housenumber" v="2322"/><tag k="coa:place_id" v="200795"/></node><node id="-96" lat="30.32124" lon="-97.864468" changeset="false"><tag k="addr:street" v="Atwater Cove"/><tag k="addr:housenumber" v="9022"/><tag k="coa:place_id" v="198113"/></node><node id="-97" lat="30.332354" lon="-97.861149" changeset="false"><tag k="addr:street" v="Ottawa Drive"/><tag k="addr:housenumber" v="1105"/><tag k="coa:place_id" v="90395"/></node><node id="-98" lat="30.338114" lon="-97.849268" changeset="false"><tag k="addr:street" v="River Hills Road"/><tag k="addr:housenumber" v="2120"/><tag k="coa:place_id" v="3072654"/></node><node id="-99" lat="30.346071" lon="-97.852401" changeset="false"><tag k="addr:street" v="Oestrick Lane"/><tag k="addr:housenumber" v="2703"/><tag k="coa:place_id" v="196094"/></node><node id="-100" lat="30.33672" lon="-97.863234" changeset="false"><tag k="addr:street" v="Canyon Edge Drive"/><tag k="addr:housenumber" v="1405"/><tag k="coa:place_id" v="3084944"/></node><node id="-101" lat="30.336638" lon="-97.874558" changeset="false"><tag k="addr:street" v="Devereux Drive"/><tag k="addr:housenumber" v="10201"/><tag k="coa:place_id" v="86394"/></node><node id="-102" lat="30.331668" lon="-97.85955" changeset="false"><tag k="addr:street" v="Bowie Road"/><tag k="addr:housenumber" v="1105"/><tag k="coa:place_id" v="257748"/></node><node id="-103" lat="30.331744" lon="-97.885152" changeset="false"><tag k="addr:street" v="Commons Ford Ranch Park Road,1100"/><tag k="addr:housenumber" v="207"/><tag k="coa:place_id" v="122123"/></node><node id="-104" lat="30.343616" lon="-97.8549" changeset="false"><tag k="addr:street" v="Padina Drive"/><tag k="addr:housenumber" v="2407"/><tag k="coa:place_id" v="222853"/></node><node id="-105" lat="30.320188" lon="-97.859796" changeset="false"><tag k="addr:street" v="Capehart Cove"/><tag k="addr:housenumber" v="8712"/><tag k="coa:place_id" v="198101"/></node><node id="-106" lat="30.325132" lon="-97.876767" changeset="false"><tag k="addr:street" v="Tumbleweed Trail North,1100"/><tag k="addr:housenumber" v="304"/><tag k="coa:place_id" v="232791"/></node><node id="-107" lat="30.330208" lon="-97.875442" changeset="false"><tag k="addr:street" v="Laurelwood Drive North,1100"/><tag k="addr:housenumber" v="201"/><tag k="coa:place_id" v="90113"/></node><node id="-108" lat="30.329954" lon="-97.86239" changeset="false"><tag k="addr:street" v="Tumbleweed Trail North,1100"/><tag k="addr:housenumber" v="801"/><tag k="coa:place_id" v="58112"/></node><node id="-109" lat="30.326527" lon="-97.857592" changeset="false"><tag k="addr:street" v="Brandon Way"/><tag k="addr:housenumber" v="517"/><tag k="coa:place_id" v="3133243"/></node><node id="-110" lat="30.325775" lon="-97.870281" changeset="false"><tag k="addr:street" v="Southward Cove"/><tag k="addr:housenumber" v="9603"/><tag k="coa:place_id" v="135963"/></node><node id="-111" lat="30.334151" lon="-97.866059" changeset="false"><tag k="addr:street" v="Canyon Edge Drive"/><tag k="addr:housenumber" v="1100"/><tag k="coa:place_id" v="90631"/></node><node id="-112" lat="30.333086" lon="-97.866888" changeset="false"><tag k="addr:street" v="Canyon Edge Drive"/><tag k="addr:housenumber" v="1003"/><tag k="coa:place_id" v="90546"/></node><node id="-113" lat="30.332386" lon="-97.877785" changeset="false"><tag k="addr:street" v="Lisa Drive"/><tag k="addr:housenumber" v="401"/><tag k="coa:place_id" v="79998"/></node><node id="-114" lat="30.335296" lon="-97.859692" changeset="false"><tag k="addr:street" v="Caracas Drive"/><tag k="addr:housenumber" v="9402"/><tag k="coa:place_id" v="90295"/></node><node id="-115" lat="30.319572" lon="-97.855455" changeset="false"><tag k="addr:street" v="Galeana Trace Cove"/><tag k="addr:housenumber" v="8503"/><tag k="coa:place_id" v="3042679"/></node><node id="-116" lat="30.319284" lon="-97.855298" changeset="false"><tag k="addr:street" v="Galeana Trace Cove"/><tag k="addr:housenumber" v="8419"/><tag k="coa:place_id" v="3042678"/></node><node id="-117" lat="30.324621" lon="-97.869922" changeset="false"><tag k="addr:street" v="Tumbleweed Trail North,1100"/><tag k="addr:housenumber" v="116"/><tag k="coa:place_id" v="89285"/></node><node id="-118" lat="30.323975" lon="-97.86521" changeset="false"><tag k="addr:street" v="Stallion Drive"/><tag k="addr:housenumber" v="9200"/><tag k="coa:place_id" v="85256"/></node><node id="-119" lat="30.326714" lon="-97.863926" changeset="false"><tag k="addr:street" v="Tumbleweed Trail North,1100"/><tag k="addr:housenumber" v="415"/><tag k="coa:place_id" v="227252"/></node><node id="-120" lat="30.326367" lon="-97.857957" changeset="false"><tag k="addr:street" v="Brandon Way"/><tag k="addr:housenumber" v="521"/><tag k="coa:place_id" v="3136142"/></node><node id="-121" lat="30.340964" lon="-97.857543" changeset="false"><tag k="addr:street" v="Deleon Court"/><tag k="addr:housenumber" v="2100"/><tag k="coa:place_id" v="222817"/></node><node id="-122" lat="30.326514" lon="-97.878425" changeset="false"><tag k="addr:street" v="Commons Ford Ranch Park Road,1100"/><tag k="addr:housenumber" v="313"/><tag k="coa:place_id" v="197720"/></node><node id="-123" lat="30.337713" lon="-97.85877" changeset="false"><tag k="addr:street" v="Corto Lane"/><tag k="addr:housenumber" v="1715"/><tag k="coa:place_id" v="3382075"/></node><node id="-124" lat="30.335129" lon="-97.849763" changeset="false"><tag k="addr:street" v="River Hills Road"/><tag k="addr:housenumber" v="1808"/><tag k="coa:place_id" v="1142434"/></node><node id="-125" lat="30.328253" lon="-97.86036" changeset="false"><tag k="addr:street" v="Marly Way,1100"/><tag k="addr:housenumber" v="700"/><tag k="coa:place_id" v="3224835"/></node><node id="-126" lat="30.330726" lon="-97.856748" changeset="false"><tag k="addr:street" v="Camelback Drive"/><tag k="addr:housenumber" v="9116"/><tag k="coa:place_id" v="3224807"/></node><node id="-127" lat="30.332258" lon="-97.858167" changeset="false"><tag k="addr:street" v="Marly Way,1100"/><tag k="addr:housenumber" v="1108"/><tag k="coa:place_id" v="3224822"/></node><node id="-128" lat="30.329196" lon="-97.877798" changeset="false"><tag k="addr:street" v="Lisa Drive"/><tag k="addr:housenumber" v="207"/><tag k="coa:place_id" v="3316827"/></node><node id="-129" lat="30.331695" lon="-97.856872" changeset="false"><tag k="addr:street" v="Camelback Drive"/><tag k="addr:housenumber" v="9100"/><tag k="coa:place_id" v="3224805"/></node><node id="-130" lat="30.323299" lon="-97.857662" changeset="false"><tag k="addr:street" v="Brandon Way"/><tag k="addr:housenumber" v="324"/><tag k="coa:place_id" v="3225081"/></node><node id="-131" lat="30.322157" lon="-97.860471" changeset="false"><tag k="addr:street" v="Brandon Way"/><tag k="addr:housenumber" v="200"/><tag k="coa:place_id" v="3225113"/></node><node id="-132" lat="30.327587" lon="-97.870853" changeset="false"><tag k="addr:street" v="Cuernavaca Drive North,1100"/><tag k="addr:housenumber" v="111"/><tag k="coa:place_id" v="1046967"/></node><node id="-133" lat="30.325071" lon="-97.877619" changeset="false"><tag k="addr:street" v="Commons Ford Ranch Park Road,1100"/><tag k="addr:housenumber" v="329"/><tag k="coa:place_id" v="136644"/></node><node id="-134" lat="30.347396" lon="-97.857504" changeset="false"><tag k="addr:street" v="De Soto Drive"/><tag k="addr:housenumber" v="2701"/><tag k="coa:place_id" v="234907"/></node><node id="-135" lat="30.324172" lon="-97.858726" changeset="false"><tag k="addr:street" v="Brandon Way"/><tag k="addr:housenumber" v="628"/><tag k="coa:place_id" v="3086429"/></node><node id="-136" lat="30.323059" lon="-97.858122" changeset="false"><tag k="addr:street" v="Brandon Way"/><tag k="addr:housenumber" v="308"/><tag k="coa:place_id" v="3429381"/></node><node id="-137" lat="30.333321" lon="-97.850276" changeset="false"><tag k="addr:street" v="River Hills Road"/><tag k="addr:housenumber" v="1308"/><tag k="coa:place_id" v="3254482"/></node><node id="-138" lat="30.339385" lon="-97.857319" changeset="false"><tag k="addr:street" v="Corto Lane"/><tag k="addr:housenumber" v="1820"/><tag k="coa:place_id" v="5065480"/></node><node id="-139" lat="30.34607" lon="-97.860966" changeset="false"><tag k="addr:street" v="Saugus Lane"/><tag k="addr:housenumber" v="9803"/><tag k="coa:place_id" v="90000"/></node><node id="-140" lat="30.31918" lon="-97.865991" changeset="false"><tag k="addr:street" v="Atwater Cove"/><tag k="addr:housenumber" v="9125"/><tag k="coa:place_id" v="5109305"/></node><node id="-141" lat="30.332048" lon="-97.872097" changeset="false"><tag k="addr:street" v="Lake Ridge Drive"/><tag k="addr:housenumber" v="9905"/><tag k="coa:place_id" v="443620"/></node><node id="-142" lat="30.328425" lon="-97.881989" changeset="false"><tag k="addr:street" v="Birdlip Circle"/><tag k="addr:housenumber" v="10209"/><tag k="coa:place_id" v="3427728"/></node><node id="-143" lat="30.341015" lon="-97.862634" changeset="false"><tag k="addr:street" v="Cuernavaca Drive North,1100"/><tag k="addr:housenumber" v="1803"/><tag k="coa:place_id" v="475204"/></node><node id="-144" lat="30.324696" lon="-97.865811" changeset="false"><tag k="addr:street" v="Stallion Drive"/><tag k="addr:housenumber" v="9209"/><tag k="coa:place_id" v="575164"/></node><node id="-145" lat="30.332308" lon="-97.850252" changeset="false"><tag k="addr:street" v="Taylor Road"/><tag k="addr:housenumber" v="8800"/><tag k="coa:place_id" v="195296"/></node><node id="-146" lat="30.332962" lon="-97.862744" changeset="false"><tag k="addr:street" v="Ogden Drive"/><tag k="addr:housenumber" v="1103"/><tag k="coa:place_id" v="90373"/></node><node id="-147" lat="30.332797" lon="-97.859317" changeset="false"><tag k="addr:street" v="Olympus Drive"/><tag k="addr:housenumber" v="1209"/><tag k="coa:place_id" v="116741"/></node><node id="-148" lat="30.325763" lon="-97.863697" changeset="false"><tag k="addr:street" v="Tumbleweed Trail North,1100"/><tag k="addr:housenumber" v="401"/><tag k="coa:place_id" v="90540"/></node><node id="-149" lat="30.335775" lon="-97.864891" changeset="false"><tag k="addr:street" v="Canyon Edge Drive"/><tag k="addr:housenumber" v="1206"/><tag k="coa:place_id" v="90647"/></node><node id="-150" lat="30.339821" lon="-97.861584" changeset="false"><tag k="addr:street" v="Canyon Edge Drive"/><tag k="addr:housenumber" v="1800"/><tag k="coa:place_id" v="90618"/></node><node id="-151" lat="30.339559" lon="-97.860973" changeset="false"><tag k="addr:street" v="Canyon Edge Drive"/><tag k="addr:housenumber" v="1801"/><tag k="coa:place_id" v="90585"/></node><node id="-152" lat="30.345822" lon="-97.861475" changeset="false"><tag k="addr:street" v="Zion Way"/><tag k="addr:housenumber" v="9806"/><tag k="coa:place_id" v="90187"/></node><node id="-153" lat="30.336278" lon="-97.875065" changeset="false"><tag k="addr:street" v="Lisa Drive"/><tag k="addr:housenumber" v="815"/><tag k="coa:place_id" v="3043241"/></node><node id="-154" lat="30.322968" lon="-97.859571" changeset="false"><tag k="addr:street" v="Brandon Way"/><tag k="addr:housenumber" v="224"/><tag k="coa:place_id" v="3137096"/></node><node id="-155" lat="30.331677" lon="-97.876319" changeset="false"><tag k="addr:street" v="Eagle Lookout Drive"/><tag k="addr:housenumber" v="401"/><tag k="coa:place_id" v="79995"/></node><node id="-156" lat="30.341003" lon="-97.856444" changeset="false"><tag k="addr:street" v="Deleon Court"/><tag k="addr:housenumber" v="2107"/><tag k="coa:place_id" v="222822"/></node><node id="-157" lat="30.34993" lon="-97.851875" changeset="false"><tag k="addr:street" v="Demona Drive"/><tag k="addr:housenumber" v="2918"/><tag k="coa:place_id" v="222834"/></node><node id="-158" lat="30.326373" lon="-97.877336" changeset="false"><tag k="addr:street" v="Woodlake Cove"/><tag k="addr:housenumber" v="9907"/><tag k="coa:place_id" v="1161529"/></node><node id="-159" lat="30.343846" lon="-97.858231" changeset="false"><tag k="addr:street" v="Demona Drive"/><tag k="addr:housenumber" v="2316"/><tag k="coa:place_id" v="3031748"/></node><node id="-160" lat="30.33364" lon="-97.860997" changeset="false"><tag k="addr:street" v="Mayan Way"/><tag k="addr:housenumber" v="1203"/><tag k="coa:place_id" v="90451"/></node><node id="-161" lat="30.332382" lon="-97.875811" changeset="false"><tag k="addr:street" v="Wildflower Lane"/><tag k="addr:housenumber" v="10103"/><tag k="coa:place_id" v="79986"/></node><node id="-162" lat="30.33588" lon="-97.883834" changeset="false"><tag k="addr:street" v="North Commons Ford Road"/><tag k="addr:housenumber" v="307"/><tag k="coa:place_id" v="197486"/></node><node id="-163" lat="30.337057" lon="-97.884387" changeset="false"><tag k="addr:street" v="North Commons Ford Road"/><tag k="addr:housenumber" v="358"/><tag k="coa:place_id" v="3137024"/></node><node id="-164" lat="30.332699" lon="-97.885203" changeset="false"><tag k="addr:street" v="Commons Ford Ranch Park Road,1100"/><tag k="addr:housenumber" v="205"/><tag k="coa:place_id" v="240456"/></node><node id="-165" lat="30.340548" lon="-97.86292" changeset="false"><tag k="addr:street" v="Cuernavaca Drive North,1100"/><tag k="addr:housenumber" v="1801"/><tag k="coa:place_id" v="3032328"/></node><node id="-166" lat="30.34241" lon="-97.858125" changeset="false"><tag k="addr:street" v="Demona Drive"/><tag k="addr:housenumber" v="2201"/><tag k="coa:place_id" v="3031707"/></node><node id="-167" lat="30.3237" lon="-97.859524" changeset="false"><tag k="addr:street" v="Brandon Way"/><tag k="addr:housenumber" v="709"/><tag k="coa:place_id" v="3151817"/></node><node id="-168" lat="30.321715" lon="-97.864884" changeset="false"><tag k="addr:street" v="Atwater Cove"/><tag k="addr:housenumber" v="9026"/><tag k="coa:place_id" v="3070750"/></node><node id="-169" lat="30.319817" lon="-97.865119" changeset="false"><tag k="addr:street" v="Atwater Cove"/><tag k="addr:housenumber" v="9115"/><tag k="coa:place_id" v="198108"/></node><node id="-170" lat="30.33385" lon="-97.866712" changeset="false"><tag k="addr:street" v="Cuernavaca Drive North,1100"/><tag k="addr:housenumber" v="1003"/><tag k="coa:place_id" v="119386"/></node><node id="-171" lat="30.335772" lon="-97.860986" changeset="false"><tag k="addr:street" v="Caracas Drive"/><tag k="addr:housenumber" v="9410"/><tag k="coa:place_id" v="671752"/></node><node id="-172" lat="30.334753" lon="-97.864945" changeset="false"><tag k="addr:street" v="Canyon Edge Drive"/><tag k="addr:housenumber" v="1201"/><tag k="coa:place_id" v="3084943"/></node><node id="-173" lat="30.34959" lon="-97.854974" changeset="false"><tag k="addr:street" v="Padina Cove"/><tag k="addr:housenumber" v="9610"/><tag k="coa:place_id" v="3032617"/></node><node id="-174" lat="30.346381" lon="-97.856433" changeset="false"><tag k="addr:street" v="Demona Cove"/><tag k="addr:housenumber" v="9600"/><tag k="coa:place_id" v="1159566"/></node><node id="-175" lat="30.334524" lon="-97.866166" changeset="false"><tag k="addr:street" v="Cuernavaca Drive North,1100"/><tag k="addr:housenumber" v="1103"/><tag k="coa:place_id" v="851013"/></node><node id="-176" lat="30.334221" lon="-97.860304" changeset="false"><tag k="addr:street" v="Olympus Drive"/><tag k="addr:housenumber" v="1303"/><tag k="coa:place_id" v="90487"/></node><node id="-177" lat="30.348456" lon="-97.855301" changeset="false"><tag k="addr:street" v="Padina Drive"/><tag k="addr:housenumber" v="2810"/><tag k="coa:place_id" v="222375"/></node><node id="-178" lat="30.337998" lon="-97.86448" changeset="false"><tag k="addr:street" v="Cuernavaca Drive North,1100"/><tag k="addr:housenumber" v="1407"/><tag k="coa:place_id" v="3032335"/></node><node id="-179" lat="30.320189" lon="-97.855251" changeset="false"><tag k="addr:street" v="Galeana Trace Cove"/><tag k="addr:housenumber" v="8510"/><tag k="coa:place_id" v="3042676"/></node><node id="-180" lat="30.349716" lon="-97.851617" changeset="false"><tag k="addr:street" v="Demona Drive"/><tag k="addr:housenumber" v="2919"/><tag k="coa:place_id" v="222838"/></node><node id="-181" lat="30.347882" lon="-97.853044" changeset="false"><tag k="addr:street" v="Demona Drive"/><tag k="addr:housenumber" v="2815"/><tag k="coa:place_id" v="222845"/></node><node id="-182" lat="30.342478" lon="-97.858736" changeset="false"><tag k="addr:street" v="Demona Drive"/><tag k="addr:housenumber" v="2204"/><tag k="coa:place_id" v="3031708"/></node><node id="-183" lat="30.327687" lon="-97.872499" changeset="false"><tag k="addr:street" v="Timber Ridge Pass"/><tag k="addr:housenumber" v="9705"/><tag k="coa:place_id" v="89823"/></node><node id="-184" lat="30.326282" lon="-97.874955" changeset="false"><tag k="addr:street" v="Tumbleweed Trail North,1100"/><tag k="addr:housenumber" v="206"/><tag k="coa:place_id" v="89784"/></node><node id="-185" lat="30.346405" lon="-97.849068" changeset="false"><tag k="addr:street" v="Oestrick Lane"/><tag k="addr:housenumber" v="2940"/><tag k="coa:place_id" v="542398"/></node><node id="-186" lat="30.334072" lon="-97.866541" changeset="false"><tag k="addr:street" v="Cuernavaca Drive North,1100"/><tag k="addr:housenumber" v="1005"/><tag k="coa:place_id" v="198710"/></node><node id="-187" lat="30.326051" lon="-97.856307" changeset="false"><tag k="addr:street" v="Brandon Way"/><tag k="addr:housenumber" v="449"/><tag k="coa:place_id" v="3183506"/></node><node id="-188" lat="30.331993" lon="-97.849888" changeset="false"><tag k="addr:street" v="Taylor Road"/><tag k="addr:housenumber" v="8720"/><tag k="coa:place_id" v="234652"/></node><node id="-189" lat="30.330879" lon="-97.877432" changeset="false"><tag k="addr:street" v="Falcon Ridge Drive"/><tag k="addr:housenumber" v="10109"/><tag k="coa:place_id" v="79992"/></node><node id="-190" lat="30.331942" lon="-97.87365" changeset="false"><tag k="addr:street" v="Wildflower Lane"/><tag k="addr:housenumber" v="10002"/><tag k="coa:place_id" v="930950"/></node><node id="-191" lat="30.352536" lon="-97.855756" changeset="false"><tag k="addr:street" v="Niagara Drive"/><tag k="addr:housenumber" v="3103"/><tag k="coa:place_id" v="196610"/></node><node id="-192" lat="30.329848" lon="-97.858621" changeset="false"><tag k="addr:street" v="Marly Way,1100"/><tag k="addr:housenumber" v="1000 1/2"/><tag k="coa:place_id" v="3213201"/></node><node id="-193" lat="30.32707" lon="-97.856399" changeset="false"><tag k="addr:street" v="Brandon Way"/><tag k="addr:housenumber" v="461"/><tag k="coa:place_id" v="3200434"/></node><node id="-194" lat="30.32474" lon="-97.861608" changeset="false"><tag k="addr:street" v="Marly Way,1100"/><tag k="addr:housenumber" v="305"/><tag k="coa:place_id" v="3204241"/></node><node id="-195" lat="30.327236" lon="-97.861584" changeset="false"><tag k="addr:street" v="Marly Way,1100"/><tag k="addr:housenumber" v="512"/><tag k="coa:place_id" v="3221037"/></node><node id="-196" lat="30.328111" lon="-97.860755" changeset="false"><tag k="addr:street" v="Marly Way,1100"/><tag k="addr:housenumber" v="612"/><tag k="coa:place_id" v="3224841"/></node><node id="-197" lat="30.328625" lon="-97.859478" changeset="false"><tag k="addr:street" v="Marly Way,1100"/><tag k="addr:housenumber" v="800"/><tag k="coa:place_id" v="3224829"/></node><node id="-198" lat="30.324115" lon="-97.863832" changeset="false"><tag k="addr:street" v="Brookhurst Cove"/><tag k="addr:housenumber" v="9120"/><tag k="coa:place_id" v="3225093"/></node><node id="-199" lat="30.337286" lon="-97.883873" changeset="false"><tag k="addr:street" v="North Commons Ford Road"/><tag k="addr:housenumber" v="501"/><tag k="coa:place_id" v="157115"/></node><node id="-200" lat="30.331127" lon="-97.872897" changeset="false"><tag k="addr:street" v="Lake Hills Drive North,1100"/><tag k="addr:housenumber" v="405"/><tag k="coa:place_id" v="90150"/></node><node id="-201" lat="30.348548" lon="-97.858626" changeset="false"><tag k="addr:street" v="San Juan Drive"/><tag k="addr:housenumber" v="2706"/><tag k="coa:place_id" v="90071"/></node><node id="-202" lat="30.327442" lon="-97.86014" changeset="false"><tag k="addr:street" v="Marly Way,1100"/><tag k="addr:housenumber" v="613"/><tag k="coa:place_id" v="3224873"/></node><node id="-203" lat="30.331369" lon="-97.85904" changeset="false"><tag k="addr:street" v="Olympus Drive"/><tag k="addr:housenumber" v="1108"/><tag k="coa:place_id" v="3224825"/></node><node id="-204" lat="30.33164" lon="-97.859171" changeset="false"><tag k="addr:street" v="Olympus Drive"/><tag k="addr:housenumber" v="1112"/><tag k="coa:place_id" v="3224826"/></node><node id="-205" lat="30.327908" lon="-97.877113" changeset="false"><tag k="addr:street" v="Laurelwood Drive North,1100"/><tag k="addr:housenumber" v="115"/><tag k="coa:place_id" v="254454"/></node><node id="-206" lat="30.327621" lon="-97.875434" changeset="false"><tag k="addr:street" v="Lake Hills Drive North,1100"/><tag k="addr:housenumber" v="109"/><tag k="coa:place_id" v="5002102"/></node><node id="-207" lat="30.338048" lon="-97.861946" changeset="false"><tag k="addr:street" v="Canyon Edge Drive"/><tag k="addr:housenumber" v="1603"/><tag k="coa:place_id" v="90599"/></node><node id="-208" lat="30.318574" lon="-97.866302" changeset="false"><tag k="addr:street" v="Atwater Cove"/><tag k="addr:housenumber" v="9127"/><tag k="coa:place_id" v="3345425"/></node><node id="-209" lat="30.319457" lon="-97.865681" changeset="false"><tag k="addr:street" v="Atwater Cove"/><tag k="addr:housenumber" v="9121"/><tag k="coa:place_id" v="198109"/></node><node id="-210" lat="30.322934" lon="-97.86247" changeset="false"><tag k="addr:street" v="Marly Way,1100"/><tag k="addr:housenumber" v="125"/><tag k="coa:place_id" v="5098845"/></node><node id="-211" lat="30.334791" lon="-97.866043" changeset="false"><tag k="addr:street" v="Cuernavaca Drive North,1100"/><tag k="addr:housenumber" v="1105"/><tag k="coa:place_id" v="153589"/></node><node id="-212" lat="30.345387" lon="-97.85543" changeset="false"><tag k="addr:street" v="Tavia Cove"/><tag k="addr:housenumber" v="9514"/><tag k="coa:place_id" v="222858"/></node><node id="-213" lat="30.345408" lon="-97.858435" changeset="false"><tag k="addr:street" v="De Soto Drive"/><tag k="addr:housenumber" v="2521"/><tag k="coa:place_id" v="90017"/></node><node id="-214" lat="30.322723" lon="-97.873512" changeset="false"><tag k="addr:street" v="Cuernavaca Drive North,1100"/><tag k="addr:housenumber" v="410"/><tag k="coa:place_id" v="3136974"/></node><node id="-215" lat="30.343751" lon="-97.848095" changeset="false"><tag k="addr:street" v="River Hills Road"/><tag k="addr:housenumber" v="2701"/><tag k="coa:place_id" v="249867"/></node><node id="-216" lat="30.349311" lon="-97.858901" changeset="false"><tag k="addr:street" v="Mecca Road"/><tag k="addr:housenumber" v="2803"/><tag k="coa:place_id" v="90193"/></node><node id="-217" lat="30.324855" lon="-97.865931" changeset="false"><tag k="addr:street" v="Stallion Drive"/><tag k="addr:housenumber" v="9301"/><tag k="coa:place_id" v="85261"/></node><node id="-218" lat="30.349978" lon="-97.857602" changeset="false"><tag k="addr:street" v="De Soto Circle"/><tag k="addr:housenumber" v="2811"/><tag k="coa:place_id" v="90053"/></node><node id="-219" lat="30.34414" lon="-97.855691" changeset="false"><tag k="addr:street" v="Padina Drive"/><tag k="addr:housenumber" v="2416"/><tag k="coa:place_id" v="222849"/></node><node id="-220" lat="30.33376" lon="-97.85961" changeset="false"><tag k="addr:street" v="Tiber Circle"/><tag k="addr:housenumber" v="9305"/><tag k="coa:place_id" v="90235"/></node><node id="-221" lat="30.332823" lon="-97.875914" changeset="false"><tag k="addr:street" v="Wildflower Lane"/><tag k="addr:housenumber" v="10102"/><tag k="coa:place_id" v="79985"/></node><node id="-222" lat="30.338051" lon="-97.882166" changeset="false"><tag k="addr:street" v="Riders Trail"/><tag k="addr:housenumber" v="603"/><tag k="coa:place_id" v="163620"/></node><node id="-223" lat="30.332097" lon="-97.860445" changeset="false"><tag k="addr:street" v="Mayan Way"/><tag k="addr:housenumber" v="1104"/><tag k="coa:place_id" v="90421"/></node><node id="-224" lat="30.334794" lon="-97.875914" changeset="false"><tag k="addr:street" v="Lisa Drive"/><tag k="addr:housenumber" v="701"/><tag k="coa:place_id" v="86405"/></node><node id="-225" lat="30.319316" lon="-97.859478" changeset="false"><tag k="addr:street" v="Capehart Cove"/><tag k="addr:housenumber" v="8715"/><tag k="coa:place_id" v="198089"/></node><node id="-226" lat="30.338259" lon="-97.864338" changeset="false"><tag k="addr:street" v="Cuernavaca Drive North,1100"/><tag k="addr:housenumber" v="1501"/><tag k="coa:place_id" v="3032334"/></node><node id="-227" lat="30.339079" lon="-97.884975" changeset="false"><tag k="addr:street" v="North Commons Ford Road"/><tag k="addr:housenumber" v="614"/><tag k="coa:place_id" v="244156"/></node><node id="-228" lat="30.339168" lon="-97.882626" changeset="false"><tag k="addr:street" v="Riders Trail"/><tag k="addr:housenumber" v="617"/><tag k="coa:place_id" v="163622"/></node><node id="-229" lat="30.33315" lon="-97.863356" changeset="false"><tag k="addr:street" v="Ogden Drive"/><tag k="addr:housenumber" v="1106"/><tag k="coa:place_id" v="90342"/></node><node id="-230" lat="30.337193" lon="-97.877429" changeset="false"><tag k="addr:street" v="Jennys Jump Drive"/><tag k="addr:housenumber" v="10401"/><tag k="coa:place_id" v="223435"/></node><node id="-231" lat="30.31776" lon="-97.859333" changeset="false"><tag k="addr:street" v="Sanostee Cove"/><tag k="addr:housenumber" v="228"/><tag k="coa:place_id" v="3042690"/></node><node id="-232" lat="30.31744" lon="-97.854782" changeset="false"><tag k="addr:street" v="River Hills Road"/><tag k="addr:housenumber" v="140 1/2"/><tag k="coa:place_id" v="3128346"/></node><node id="-233" lat="30.346415" lon="-97.860143" changeset="false"><tag k="addr:street" v="De Soto Drive"/><tag k="addr:housenumber" v="2511"/><tag k="coa:place_id" v="234039"/></node><node id="-234" lat="30.347318" lon="-97.85947" changeset="false"><tag k="addr:street" v="Mecca Circle"/><tag k="addr:housenumber" v="9701"/><tag k="coa:place_id" v="90007"/></node><node id="-235" lat="30.347168" lon="-97.856371" changeset="false"><tag k="addr:street" v="Tavares Cove"/><tag k="addr:housenumber" v="9609"/><tag k="coa:place_id" v="222874"/></node><node id="-236" lat="30.338975" lon="-97.859524" changeset="false"><tag k="addr:street" v="Olympus Drive"/><tag k="addr:housenumber" v="1803"/><tag k="coa:place_id" v="1140992"/></node><node id="-237" lat="30.333292" lon="-97.859634" changeset="false"><tag k="addr:street" v="Olympus Drive"/><tag k="addr:housenumber" v="1213"/><tag k="coa:place_id" v="90480"/></node><node id="-238" lat="30.333563" lon="-97.859811" changeset="false"><tag k="addr:street" v="Olympus Drive"/><tag k="addr:housenumber" v="1215"/><tag k="coa:place_id" v="90481"/></node><node id="-239" lat="30.325832" lon="-97.857237" changeset="false"><tag k="addr:street" v="Brandon Way"/><tag k="addr:housenumber" v="440"/><tag k="coa:place_id" v="3152622"/></node><node id="-240" lat="30.332292" lon="-97.860681" changeset="false"><tag k="addr:street" v="Mayan Way"/><tag k="addr:housenumber" v="1106"/><tag k="coa:place_id" v="90425"/></node><node id="-241" lat="30.343308" lon="-97.879736" changeset="false"><tag k="addr:street" v="Bruton Springs Road"/><tag k="addr:housenumber" v="1112"/><tag k="coa:place_id" v="1123869"/></node><node id="-242" lat="30.334302" lon="-97.858533" changeset="false"><tag k="addr:street" v="Caracas Drive"/><tag k="addr:housenumber" v="9303"/><tag k="coa:place_id" v="90306"/></node><node id="-243" lat="30.349073" lon="-97.858442" changeset="false"><tag k="addr:street" v="San Juan Drive"/><tag k="addr:housenumber" v="2800"/><tag k="coa:place_id" v="90072"/></node><node id="-244" lat="30.343573" lon="-97.852472" changeset="false"><tag k="addr:street" v="Cuernavaca Drive North,1100"/><tag k="addr:housenumber" v="2419"/><tag k="coa:place_id" v="224598"/></node><node id="-245" lat="30.343371" lon="-97.85137" changeset="false"><tag k="addr:street" v="Cuernavaca Drive North,1100"/><tag k="addr:housenumber" v="2521"/><tag k="coa:place_id" v="244486"/></node><node id="-246" lat="30.348172" lon="-97.850664" changeset="false"><tag k="addr:street" v="Oestrick Lane"/><tag k="addr:housenumber" v="2912"/><tag k="coa:place_id" v="133195"/></node><node id="-247" lat="30.347168" lon="-97.853395" changeset="false"><tag k="addr:street" v="Padina Drive"/><tag k="addr:housenumber" v="2715"/><tag k="coa:place_id" v="222850"/></node><node id="-248" lat="30.347102" lon="-97.85256" changeset="false"><tag k="addr:street" v="Oestrick Lane"/><tag k="addr:housenumber" v="2800"/><tag k="coa:place_id" v="3032612"/></node><node id="-249" lat="30.344861" lon="-97.854214" changeset="false"><tag k="addr:street" v="Padina Drive"/><tag k="addr:housenumber" v="2501"/><tag k="coa:place_id" v="3031760"/></node><node id="-250" lat="30.333679" lon="-97.875899" changeset="false"><tag k="addr:street" v="Lake Ridge Drive"/><tag k="addr:housenumber" v="10107"/><tag k="coa:place_id" v="79984"/></node><node id="-251" lat="30.319971" lon="-97.860264" changeset="false"><tag k="addr:street" v="Capehart Cove"/><tag k="addr:housenumber" v="8718"/><tag k="coa:place_id" v="198102"/></node><node id="-252" lat="30.31864" lon="-97.857606" changeset="false"><tag k="addr:street" v="Sanostee Cove"/><tag k="addr:housenumber" v="201"/><tag k="coa:place_id" v="3042688"/></node><node id="-253" lat="30.322957" lon="-97.853505" changeset="false"><tag k="addr:street" v="River Hills Road"/><tag k="addr:housenumber" v="512"/><tag k="coa:place_id" v="203567"/></node><node id="-254" lat="30.325445" lon="-97.87172" changeset="false"><tag k="addr:street" v="Cuernavaca Drive North,1100"/><tag k="addr:housenumber" v="109"/><tag k="coa:place_id" v="89830"/></node><node id="-255" lat="30.33193" lon="-97.862838" changeset="false"><tag k="addr:street" v="Ogden Drive"/><tag k="addr:housenumber" v="1012"/><tag k="coa:place_id" v="90331"/></node><node id="-256" lat="30.330939" lon="-97.863789" changeset="false"><tag k="addr:street" v="Tumbleweed Trail North,1100"/><tag k="addr:housenumber" v="810"/><tag k="coa:place_id" v="3106077"/></node><node id="-257" lat="30.346488" lon="-97.860802" changeset="false"><tag k="addr:street" v="Saugus Lane"/><tag k="addr:housenumber" v="9804"/><tag k="coa:place_id" v="89999"/></node><node id="-258" lat="30.334262" lon="-97.865272" changeset="false"><tag k="addr:street" v="Canyon Edge Drive"/><tag k="addr:housenumber" v="1105"/><tag k="coa:place_id" v="90559"/></node><node id="-259" lat="30.333361" lon="-97.856512" changeset="false"><tag k="addr:street" v="Camelback Drive"/><tag k="addr:housenumber" v="9001"/><tag k="coa:place_id" v="3274657"/></node><node id="-260" lat="30.324837" lon="-97.857335" changeset="false"><tag k="addr:street" v="Brandon Way"/><tag k="addr:housenumber" v="416"/><tag k="coa:place_id" v="3225086"/></node><node id="-261" lat="30.328996" lon="-97.859101" changeset="false"><tag k="addr:street" v="Marly Way,1100"/><tag k="addr:housenumber" v="816"/><tag k="coa:place_id" v="3224833"/></node><node id="-262" lat="30.324656" lon="-97.862689" changeset="false"><tag k="addr:street" v="Brookhurst Cove"/><tag k="addr:housenumber" v="9104"/><tag k="coa:place_id" v="3213416"/></node><node id="-263" lat="30.32695" lon="-97.86098" changeset="false"><tag k="addr:street" v="Marly Way,1100"/><tag k="addr:housenumber" v="509"/><tag k="coa:place_id" v="3224871"/></node><node id="-264" lat="30.338959" lon="-97.88404" changeset="false"><tag k="addr:street" v="North Commons Ford Road"/><tag k="addr:housenumber" v="612"/><tag k="coa:place_id" v="773871"/></node><node id="-265" lat="30.314942" lon="-97.855386" changeset="false"><tag k="addr:street" v="River Hills Road"/><tag k="addr:housenumber" v="100"/><tag k="coa:place_id" v="3189923"/></node><node id="-266" lat="30.32667" lon="-97.861952" changeset="false"><tag k="addr:street" v="Marly Way,1100"/><tag k="addr:housenumber" v="500"/><tag k="coa:place_id" v="3224874"/></node><node id="-267" lat="30.331266" lon="-97.856826" changeset="false"><tag k="addr:street" v="Camelback Drive"/><tag k="addr:housenumber" v="9108"/><tag k="coa:place_id" v="3224806"/></node><node id="-268" lat="30.329776" lon="-97.857082" changeset="false"><tag k="addr:street" v="Camelback Drive"/><tag k="addr:housenumber" v="9208"/><tag k="coa:place_id" v="3224812"/></node><node id="-269" lat="30.338466" lon="-97.859811" changeset="false"><tag k="addr:street" v="Olympus Drive"/><tag k="addr:housenumber" v="1705"/><tag k="coa:place_id" v="90521"/></node><node id="-270" lat="30.330998" lon="-97.868879" changeset="false"><tag k="addr:street" v="Cuernavaca Drive North,1100"/><tag k="addr:housenumber" v="611"/><tag k="coa:place_id" v="5087904"/></node><node id="-271" lat="30.343219" lon="-97.848259" changeset="false"><tag k="addr:street" v="River Hills Road"/><tag k="addr:housenumber" v="2607"/><tag k="coa:place_id" v="196010"/></node><node id="-272" lat="30.321216" lon="-97.855336" changeset="false"><tag k="addr:street" v="Galeana Trace Cove"/><tag k="addr:housenumber" v="8504"/><tag k="coa:place_id" v="3655326"/></node><node id="-273" lat="30.34597" lon="-97.859496" changeset="false"><tag k="addr:street" v="San Juan Drive"/><tag k="addr:housenumber" v="2414"/><tag k="coa:place_id" v="3429269"/></node><node id="-274" lat="30.320744" lon="-97.864627" changeset="false"><tag k="addr:street" v="Atwater Cove"/><tag k="addr:housenumber" v="9019"/><tag k="coa:place_id" v="3429377"/></node><node id="-275" lat="30.341033" lon="-97.861693" changeset="false"><tag k="addr:street" v="Cuernavaca Drive North,1100"/><tag k="addr:housenumber" v="1913"/><tag k="coa:place_id" v="3429387"/></node><node id="-276" lat="30.329011" lon="-97.85794" changeset="false"><tag k="addr:street" v="Marly Way,1100"/><tag k="addr:housenumber" v="901"/><tag k="coa:place_id" v="3314075"/></node><node id="-277" lat="30.337034" lon="-97.864821" changeset="false"><tag k="addr:street" v="Cuernavaca Drive North,1100"/><tag k="addr:housenumber" v="1403"/><tag k="coa:place_id" v="1140999"/></node><node id="-278" lat="30.347139" lon="-97.857602" changeset="false"><tag k="addr:street" v="De Soto Drive"/><tag k="addr:housenumber" v="2607"/><tag k="coa:place_id" v="90034"/></node><node id="-279" lat="30.335667" lon="-97.864267" changeset="false"><tag k="addr:street" v="Canyon Edge Drive"/><tag k="addr:housenumber" v="1301"/><tag k="coa:place_id" v="90569"/></node><node id="-280" lat="30.335548" lon="-97.860242" changeset="false"><tag k="addr:street" v="Caracas Drive"/><tag k="addr:housenumber" v="9406"/><tag k="coa:place_id" v="90300"/></node><node id="-281" lat="30.336107" lon="-97.861371" changeset="false"><tag k="addr:street" v="Olympus Drive"/><tag k="addr:housenumber" v="1407 1/2"/><tag k="coa:place_id" v="90505"/></node><node id="-282" lat="30.335212" lon="-97.864638" changeset="false"><tag k="addr:street" v="Canyon Edge Drive"/><tag k="addr:housenumber" v="1205"/><tag k="coa:place_id" v="197816"/></node><node id="-283" lat="30.342498" lon="-97.882578" changeset="false"><tag k="addr:street" v="River Terrace"/><tag k="addr:housenumber" v="10800"/><tag k="coa:place_id" v="197546"/></node><node id="-284" lat="30.348227" lon="-97.857794" changeset="false"><tag k="addr:street" v="De Soto Drive"/><tag k="addr:housenumber" v="2706"/><tag k="coa:place_id" v="163644"/></node><node id="-285" lat="30.33265" lon="-97.850733" changeset="false"><tag k="addr:street" v="Taylor Road"/><tag k="addr:housenumber" v="8804"/><tag k="coa:place_id" v="699387"/></node><node id="-286" lat="30.340867" lon="-97.85693" changeset="false"><tag k="addr:street" v="Deleon Court"/><tag k="addr:housenumber" v="2101"/><tag k="coa:place_id" v="222821"/></node><node id="-287" lat="30.347239" lon="-97.85808" changeset="false"><tag k="addr:street" v="De Soto Drive"/><tag k="addr:housenumber" v="2606"/><tag k="coa:place_id" v="90031"/></node><node id="-288" lat="30.31972" lon="-97.860625" changeset="false"><tag k="addr:street" v="Capehart Cove"/><tag k="addr:housenumber" v="8800"/><tag k="coa:place_id" v="1140947"/></node><node id="-289" lat="30.337102" lon="-97.881983" changeset="false"><tag k="addr:street" v="Riders Trail"/><tag k="addr:housenumber" v="505"/><tag k="coa:place_id" v="163617"/></node><node id="-290" lat="30.326512" lon="-97.872194" changeset="false"><tag k="addr:street" v="Cuernavaca Drive North,1100"/><tag k="addr:housenumber" v="102"/><tag k="coa:place_id" v="89828"/></node><node id="-291" lat="30.332442" lon="-97.873051" changeset="false"><tag k="addr:street" v="Lake Ridge Drive"/><tag k="addr:housenumber" v="9909"/><tag k="coa:place_id" v="3131651"/></node><node id="-292" lat="30.338013" lon="-97.860109" changeset="false"><tag k="addr:street" v="Olympus Drive"/><tag k="addr:housenumber" v="1703"/><tag k="coa:place_id" v="90517"/></node><node id="-293" lat="30.336327" lon="-97.861851" changeset="false"><tag k="addr:street" v="Olympus Drive"/><tag k="addr:housenumber" v="1408"/><tag k="coa:place_id" v="90503"/></node><node id="-294" lat="30.329443" lon="-97.871282" changeset="false"><tag k="addr:street" v="Timber Ridge Pass"/><tag k="addr:housenumber" v="9831"/><tag k="coa:place_id" v="674632"/></node><node id="-295" lat="30.330981" lon="-97.877039" changeset="false"><tag k="addr:street" v="Eagle Lookout Drive"/><tag k="addr:housenumber" v="303"/><tag k="coa:place_id" v="79993"/></node><node id="-296" lat="30.330013" lon="-97.881971" changeset="false"><tag k="addr:street" v="Amwell Cove"/><tag k="addr:housenumber" v="10205"/><tag k="coa:place_id" v="3079166"/></node><node id="-297" lat="30.324801" lon="-97.867856" changeset="false"><tag k="addr:street" v="Tumbleweed Trail North,1100"/><tag k="addr:housenumber" v="161"/><tag k="coa:place_id" v="230681"/></node><node id="-298" lat="30.324123" lon="-97.86549" changeset="false"><tag k="addr:street" v="Stallion Drive"/><tag k="addr:housenumber" v="9203"/><tag k="coa:place_id" v="85257"/></node><node id="-299" lat="30.324004" lon="-97.865028" changeset="false"><tag k="addr:street" v="Stallion Drive"/><tag k="addr:housenumber" v="9202"/><tag k="coa:place_id" v="85254"/></node><node id="-300" lat="30.346923" lon="-97.855854" changeset="false"><tag k="addr:street" v="Tavares Cove"/><tag k="addr:housenumber" v="9601"/><tag k="coa:place_id" v="1159565"/></node><node id="-301" lat="30.334131" lon="-97.861342" changeset="false"><tag k="addr:street" v="Mayan Way"/><tag k="addr:housenumber" v="1207"/><tag k="coa:place_id" v="90456"/></node><node id="-302" lat="30.333903" lon="-97.858058" changeset="false"><tag k="addr:street" v="Bowie Road"/><tag k="addr:housenumber" v="1403"/><tag k="coa:place_id" v="90282"/></node><node id="-303" lat="30.334018" lon="-97.865453" changeset="false"><tag k="addr:street" v="Canyon Edge Drive"/><tag k="addr:housenumber" v="1103"/><tag k="coa:place_id" v="90558"/></node><node id="-304" lat="30.335853" lon="-97.878372" changeset="false"><tag k="addr:street" v="Jennys Jump Drive"/><tag k="addr:housenumber" v="10435"/><tag k="coa:place_id" v="223429"/></node><node id="-305" lat="30.348821" lon="-97.858527" changeset="false"><tag k="addr:street" v="San Juan Drive"/><tag k="addr:housenumber" v="2708"/><tag k="coa:place_id" v="1141014"/></node><node id="-306" lat="30.348355" lon="-97.853701" changeset="false"><tag k="addr:street" v="Demona Drive"/><tag k="addr:housenumber" v="2810"/><tag k="coa:place_id" v="3032614"/></node><node id="-307" lat="30.334639" lon="-97.865695" changeset="false"><tag k="addr:street" v="Canyon Edge Drive"/><tag k="addr:housenumber" v="1104"/><tag k="coa:place_id" v="90636"/></node><node id="-308" lat="30.334215" lon="-97.858704" changeset="false"><tag k="addr:street" v="Caracas Drive"/><tag k="addr:housenumber" v="9301"/><tag k="coa:place_id" v="90305"/></node><node id="-309" lat="30.349855" lon="-97.856207" changeset="false"><tag k="addr:street" v="Padina Drive"/><tag k="addr:housenumber" v="2912"/><tag k="coa:place_id" v="222378"/></node><node id="-310" lat="30.332489" lon="-97.860167" changeset="false"><tag k="addr:street" v="Mayan Way"/><tag k="addr:housenumber" v="1105"/><tag k="coa:place_id" v="90443"/></node><node id="-311" lat="30.332592" lon="-97.871284" changeset="false"><tag k="addr:street" v="Lake Ridge Drive"/><tag k="addr:housenumber" v="9812"/><tag k="coa:place_id" v="3116154"/></node><node id="-312" lat="30.326011" lon="-97.875161" changeset="false"><tag k="addr:street" v="Tumbleweed Trail North,1100"/><tag k="addr:housenumber" v="208"/><tag k="coa:place_id" v="89820"/></node><node id="-313" lat="30.339272" lon="-97.863648" changeset="false"><tag k="addr:street" v="Cuernavaca Drive North,1100"/><tag k="addr:housenumber" v="1605"/><tag k="coa:place_id" v="3032330"/></node><node id="-314" lat="30.317936" lon="-97.854768" changeset="false"><tag k="addr:street" v="River Hills Road"/><tag k="addr:housenumber" v="160"/><tag k="coa:place_id" v="3042684"/></node><node id="-315" lat="30.333409" lon="-97.860816" changeset="false"><tag k="addr:street" v="Mayan Way"/><tag k="addr:housenumber" v="1201"/><tag k="coa:place_id" v="90450"/></node><node id="-316" lat="30.327045" lon="-97.874151" changeset="false"><tag k="addr:street" v="Timber Ridge Cove"/><tag k="addr:housenumber" v="105"/><tag k="coa:place_id" v="114317"/></node><node id="-317" lat="30.326133" lon="-97.87821" changeset="false"><tag k="addr:street" v="Commons Ford Ranch Park Road,1100"/><tag k="addr:housenumber" v="315"/><tag k="coa:place_id" v="3046841"/></node><node id="-318" lat="30.323056" lon="-97.8739" changeset="false"><tag k="addr:street" v="Commons Ford Ranch Park Road,1100"/><tag k="addr:housenumber" v="368"/><tag k="coa:place_id" v="3136975"/></node><node id="-319" lat="30.340581" lon="-97.880815" changeset="false"><tag k="addr:street" v="Bruton Springs Road"/><tag k="addr:housenumber" v="1000"/><tag k="coa:place_id" v="216511"/></node><node id="-320" lat="30.337411" lon="-97.862395" changeset="false"><tag k="addr:street" v="Canyon Edge Drive"/><tag k="addr:housenumber" v="1505"/><tag k="coa:place_id" v="90593"/></node><node id="-321" lat="30.337333" lon="-97.863781" changeset="false"><tag k="addr:street" v="Delgado Way"/><tag k="addr:housenumber" v="9702"/><tag k="coa:place_id" v="90659"/></node><node id="-322" lat="30.337243" lon="-97.86056" changeset="false"><tag k="addr:street" v="Olympus Drive"/><tag k="addr:housenumber" v="1601"/><tag k="coa:place_id" v="90510"/></node><node id="-323" lat="30.333591" lon="-97.866839" changeset="false"><tag k="addr:street" v="Cuernavaca Drive North,1100"/><tag k="addr:housenumber" v="1001"/><tag k="coa:place_id" v="198722"/></node><node id="-324" lat="30.334973" lon="-97.864782" changeset="false"><tag k="addr:street" v="Canyon Edge Drive"/><tag k="addr:housenumber" v="1203"/><tag k="coa:place_id" v="198740"/></node><node id="-325" lat="30.334639" lon="-97.860598" changeset="false"><tag k="addr:street" v="Olympus Drive"/><tag k="addr:housenumber" v="1307"/><tag k="coa:place_id" v="90492"/></node><node id="-326" lat="30.337152" lon="-97.864376" changeset="false"><tag k="addr:street" v="Delgado Way"/><tag k="addr:housenumber" v="9705"/><tag k="coa:place_id" v="90660"/></node><node id="-327" lat="30.337121" lon="-97.883017" changeset="false"><tag k="addr:street" v="Riders Trail"/><tag k="addr:housenumber" v="508"/><tag k="coa:place_id" v="163614"/></node><node id="-328" lat="30.336648" lon="-97.877802" changeset="false"><tag k="addr:street" v="Jennys Jump Drive"/><tag k="addr:housenumber" v="10415"/><tag k="coa:place_id" v="223433"/></node><node id="-329" lat="30.336093" lon="-97.877146" changeset="false"><tag k="addr:street" v="Aqua Azul Court"/><tag k="addr:housenumber" v="10206"/><tag k="coa:place_id" v="86547"/></node><node id="-330" lat="30.334509" lon="-97.865118" changeset="false"><tag k="addr:street" v="Canyon Edge Drive"/><tag k="addr:housenumber" v="1107"/><tag k="coa:place_id" v="90563"/></node><node id="-331" lat="30.334308" lon="-97.859969" changeset="false"><tag k="addr:street" v="Tiber Circle"/><tag k="addr:housenumber" v="9308"/><tag k="coa:place_id" v="90234"/></node><node id="-332" lat="30.334186" lon="-97.85792" changeset="false"><tag k="addr:street" v="Bowie Road"/><tag k="addr:housenumber" v="1405"/><tag k="coa:place_id" v="90283"/></node><node id="-333" lat="30.348515" lon="-97.85775" changeset="false"><tag k="addr:street" v="De Soto Drive"/><tag k="addr:housenumber" v="2708"/><tag k="coa:place_id" v="90043"/></node><node id="-334" lat="30.342004" lon="-97.858992" changeset="false"><tag k="addr:street" v="Demona Drive"/><tag k="addr:housenumber" v="2116"/><tag k="coa:place_id" v="222805"/></node><node id="-335" lat="30.33853" lon="-97.864096" changeset="false"><tag k="addr:street" v="Cuernavaca Drive North,1100"/><tag k="addr:housenumber" v="1503"/><tag k="coa:place_id" v="3032333"/></node><node id="-336" lat="30.34843" lon="-97.852246" changeset="false"><tag k="addr:street" v="Demona Drive"/><tag k="addr:housenumber" v="2909"/><tag k="coa:place_id" v="222840"/></node><node id="-337" lat="30.332447" lon="-97.862443" changeset="false"><tag k="addr:street" v="Ogden Drive"/><tag k="addr:housenumber" v="1013"/><tag k="coa:place_id" v="90371"/></node><node id="-338" lat="30.339639" lon="-97.883338" changeset="false"><tag k="addr:street" v="North Commons Ford Road"/><tag k="addr:housenumber" v="704"/><tag k="coa:place_id" v="689050"/></node><node id="-339" lat="30.331213" lon="-97.858423" changeset="false"><tag k="addr:street" v="Marly Way,1100"/><tag k="addr:housenumber" v="1020"/><tag k="coa:place_id" v="3186119"/></node><node id="-340" lat="30.349792" lon="-97.857263" changeset="false"><tag k="addr:street" v="De Soto Circle"/><tag k="addr:housenumber" v="2809"/><tag k="coa:place_id" v="581512"/></node><node id="-341" lat="30.330922" lon="-97.875734" changeset="false"><tag k="addr:street" v="Laurelwood Drive North,1100"/><tag k="addr:housenumber" v="204"/><tag k="coa:place_id" v="90115"/></node><node id="-342" lat="30.330471" lon="-97.882715" changeset="false"><tag k="addr:street" v="Amwell Cove"/><tag k="addr:housenumber" v="10208"/><tag k="coa:place_id" v="3079164"/></node><node id="-343" lat="30.328537" lon="-97.87648" changeset="false"><tag k="addr:street" v="Laurelwood Drive North,1100"/><tag k="addr:housenumber" v="107"/><tag k="coa:place_id" v="90059"/></node><node id="-344" lat="30.32769" lon="-97.874368" changeset="false"><tag k="addr:street" v="Timber Ridge Cove"/><tag k="addr:housenumber" v="102"/><tag k="coa:place_id" v="741262"/></node><node id="-345" lat="30.315445" lon="-97.855361" changeset="false"><tag k="addr:street" v="River Hills Road"/><tag k="addr:housenumber" v="108 1/2"/><tag k="coa:place_id" v="3106333"/></node><node id="-346" lat="30.325411" lon="-97.877999" changeset="false"><tag k="addr:street" v="Commons Ford Ranch Park Road,1100"/><tag k="addr:housenumber" v="325"/><tag k="coa:place_id" v="195600"/></node><node id="-347" lat="30.32793" lon="-97.882433" changeset="false"><tag k="addr:street" v="Commons Ford Ranch Park Road,1100"/><tag k="addr:housenumber" v="256"/><tag k="coa:place_id" v="3136980"/></node><node id="-348" lat="30.331706" lon="-97.862632" changeset="false"><tag k="addr:street" v="Ogden Drive"/><tag k="addr:housenumber" v="1010"/><tag k="coa:place_id" v="90330"/></node><node id="-349" lat="30.331671" lon="-97.874403" changeset="false"><tag k="addr:street" v="Laurelwood Drive North,1100"/><tag k="addr:housenumber" v="403"/><tag k="coa:place_id" v="386781"/></node><node id="-350" lat="30.330882" lon="-97.869838" changeset="false"><tag k="addr:street" v="Cuernavaca Drive North,1100"/><tag k="addr:housenumber" v="606"/><tag k="coa:place_id" v="169750"/></node><node id="-351" lat="30.329458" lon="-97.84845" changeset="false"><tag k="addr:street" v="Taylor Road"/><tag k="addr:housenumber" v="8600"/><tag k="coa:place_id" v="234648"/></node><node id="-352" lat="30.332682" lon="-97.862081" changeset="false"><tag k="addr:street" v="Ottawa Drive"/><tag k="addr:housenumber" v="1108"/><tag k="coa:place_id" v="90415"/></node><node id="-353" lat="30.323659" lon="-97.867646" changeset="false"><tag k="addr:street" v="Tumbleweed Trail North,1100"/><tag k="addr:housenumber" v="155"/><tag k="coa:place_id" v="564681"/></node><node id="-354" lat="30.324688" lon="-97.856363" changeset="false"><tag k="addr:street" v="Brandon Way"/><tag k="addr:housenumber" v="417"/><tag k="coa:place_id" v="3225087"/></node><node id="-355" lat="30.324495" lon="-97.863351" changeset="false"><tag k="addr:street" v="Brookhurst Cove"/><tag k="addr:housenumber" v="9108"/><tag k="coa:place_id" v="3225092"/></node><node id="-356" lat="30.323703" lon="-97.86367" changeset="false"><tag k="addr:street" v="Brookhurst Cove"/><tag k="addr:housenumber" v="9117"/><tag k="coa:place_id" v="3225094"/></node><node id="-357" lat="30.337126" lon="-97.860012" changeset="false"><tag k="addr:street" v="Corto Lane"/><tag k="addr:housenumber" v="1600"/><tag k="coa:place_id" v="3382077"/></node><node id="-358" lat="30.346206" lon="-97.859843" changeset="false"><tag k="addr:street" v="De Soto Drive"/><tag k="addr:housenumber" v="2513"/><tag k="coa:place_id" v="90012"/></node><node id="-359" lat="30.32483" lon="-97.866897" changeset="false"><tag k="addr:street" v="Tumbleweed Trail North,1100"/><tag k="addr:housenumber" v="165"/><tag k="coa:place_id" v="3200578"/></node><node id="-360" lat="30.325662" lon="-97.862402" changeset="false"><tag k="addr:street" v="Marly Way,1100"/><tag k="addr:housenumber" v="400"/><tag k="coa:place_id" v="3225060"/></node><node id="-361" lat="30.33088" lon="-97.860463" changeset="false"><tag k="addr:street" v="Bowie Road"/><tag k="addr:housenumber" v="1100"/><tag k="coa:place_id" v="58113"/></node><node id="-362" lat="30.329197" lon="-97.856477" changeset="false"><tag k="addr:street" v="Camelback Drive"/><tag k="addr:housenumber" v="9217"/><tag k="coa:place_id" v="3224815"/></node><node id="-363" lat="30.329106" lon="-97.856939" changeset="false"><tag k="addr:street" v="Camelback Drive"/><tag k="addr:housenumber" v="9225"/><tag k="coa:place_id" v="3224816"/></node><node id="-364" lat="30.328065" lon="-97.858861" changeset="false"><tag k="addr:street" v="Marly Way,1100"/><tag k="addr:housenumber" v="801"/><tag k="coa:place_id" v="3224830"/></node><node id="-365" lat="30.347692" lon="-97.858463" changeset="false"><tag k="addr:street" v="San Juan Drive"/><tag k="addr:housenumber" v="2701"/><tag k="coa:place_id" v="90070"/></node><node id="-366" lat="30.347953" lon="-97.857301" changeset="false"><tag k="addr:street" v="De Soto Drive"/><tag k="addr:housenumber" v="2705"/><tag k="coa:place_id" v="90040"/></node><node id="-367" lat="30.327826" lon="-97.875304" changeset="false"><tag k="addr:street" v="Lake Hills Drive North,1100"/><tag k="addr:housenumber" v="107"/><tag k="coa:place_id" v="5062041"/></node><node id="-368" lat="30.339046" lon="-97.858268" changeset="false"><tag k="addr:street" v="Corto Lane"/><tag k="addr:housenumber" v="1810"/><tag k="coa:place_id" v="3365279"/></node><node id="-369" lat="30.329157" lon="-97.861418" changeset="false"><tag k="addr:street" v="Tumbleweed Trail North,1100"/><tag k="addr:housenumber" v="709"/><tag k="coa:place_id" v="58110"/></node><node id="-370" lat="30.346038" lon="-97.860227" changeset="false"><tag k="addr:street" v="Saugus Lane"/><tag k="addr:housenumber" v="9706"/><tag k="coa:place_id" v="89296"/></node><node id="-371" lat="30.338223" lon="-97.858263" changeset="false"><tag k="addr:street" v="Corto Lane"/><tag k="addr:housenumber" v="1801"/><tag k="coa:place_id" v="5001301"/></node><node id="-372" lat="30.33501" lon="-97.865861" changeset="false"><tag k="addr:street" v="Cuernavaca Drive North,1100"/><tag k="addr:housenumber" v="1107"/><tag k="coa:place_id" v="326416"/></node><node id="-373" lat="30.345782" lon="-97.858088" changeset="false"><tag k="addr:street" v="De Soto Drive"/><tag k="addr:housenumber" v="2525"/><tag k="coa:place_id" v="3081268"/></node><node id="-374" lat="30.346543" lon="-97.858756" changeset="false"><tag k="addr:street" v="San Juan Drive"/><tag k="addr:housenumber" v="2503"/><tag k="coa:place_id" v="90055"/></node><node id="-375" lat="30.347682" lon="-97.855395" changeset="false"><tag k="addr:street" v="Tavares Cove"/><tag k="addr:housenumber" v="9600"/><tag k="coa:place_id" v="1159564"/></node><node id="-376" lat="30.346771" lon="-97.855169" changeset="false"><tag k="addr:street" v="Demona Drive"/><tag k="addr:housenumber" v="2635"/><tag k="coa:place_id" v="3031732"/></node><node id="-377" lat="30.3502" lon="-97.857722" changeset="false"><tag k="addr:street" v="Niagara Drive"/><tag k="addr:housenumber" v="2903"/><tag k="coa:place_id" v="196418"/></node><node id="-378" lat="30.332591" lon="-97.86132" changeset="false"><tag k="addr:street" v="Ottawa Drive"/><tag k="addr:housenumber" v="1107"/><tag k="coa:place_id" v="90396"/></node><node id="-379" lat="30.343794" lon="-97.857501" changeset="false"><tag k="addr:street" v="Saugus Lane"/><tag k="addr:housenumber" v="9509"/><tag k="coa:place_id" v="3139716"/></node><node id="-380" lat="30.337244" lon="-97.876603" changeset="false"><tag k="addr:street" v="Jennys Jump Drive"/><tag k="addr:housenumber" v="10221"/><tag k="coa:place_id" v="1121147"/></node><node id="-381" lat="30.349058" lon="-97.852277" changeset="false"><tag k="addr:street" v="Demona Drive"/><tag k="addr:housenumber" v="2922"/><tag k="coa:place_id" v="222835"/></node><node id="-382" lat="30.331216" lon="-97.885129" changeset="false"><tag k="addr:street" v="Commons Ford Ranch Park Road,1100"/><tag k="addr:housenumber" v="217"/><tag k="coa:place_id" v="579598"/></node><node id="-383" lat="30.34615" lon="-97.860452" changeset="false"><tag k="addr:street" v="Saugus Lane"/><tag k="addr:housenumber" v="9800"/><tag k="coa:place_id" v="90001"/></node><node id="-384" lat="30.335485" lon="-97.865536" changeset="false"><tag k="addr:street" v="Cuernavaca Drive North,1100"/><tag k="addr:housenumber" v="1203"/><tag k="coa:place_id" v="90528"/></node><node id="-385" lat="30.341285" lon="-97.862101" changeset="false"><tag k="addr:street" v="Cuernavaca Drive North,1100"/><tag k="addr:housenumber" v="1905"/><tag k="coa:place_id" v="3183756"/></node><node id="-386" lat="30.336076" lon="-97.883529" changeset="false"><tag k="addr:street" v="North Commons Ford Road"/><tag k="addr:housenumber" v="345"/><tag k="coa:place_id" v="952041"/></node><node id="-387" lat="30.343197" lon="-97.879863" changeset="false"><tag k="addr:street" v="Arroweye Trail"/><tag k="addr:housenumber" v="1107"/><tag k="coa:place_id" v="180813"/></node><node id="-388" lat="30.342985" lon="-97.860508" changeset="false"><tag k="addr:street" v="San Juan Drive"/><tag k="addr:housenumber" v="2105"/><tag k="coa:place_id" v="125771"/></node><node id="-389" lat="30.334892" lon="-97.862273" changeset="false"><tag k="addr:street" v="Ogden Drive"/><tag k="addr:housenumber" v="1300"/><tag k="coa:place_id" v="90355"/></node><node id="-390" lat="30.334577" lon="-97.857655" changeset="false"><tag k="addr:street" v="Bowie Road"/><tag k="addr:housenumber" v="1501"/><tag k="coa:place_id" v="90287"/></node><node id="-391" lat="30.34298" lon="-97.8809" changeset="false"><tag k="addr:street" v="River Terrace"/><tag k="addr:housenumber" v="10616"/><tag k="coa:place_id" v="197564"/></node><node id="-392" lat="30.336015" lon="-97.864738" changeset="false"><tag k="addr:street" v="Canyon Edge Drive"/><tag k="addr:housenumber" v="1300"/><tag k="coa:place_id" v="90648"/></node><node id="-393" lat="30.348235" lon="-97.857226" changeset="false"><tag k="addr:street" v="De Soto Drive"/><tag k="addr:housenumber" v="2707"/><tag k="coa:place_id" v="90041"/></node><node id="-394" lat="30.350375" lon="-97.853884" changeset="false"><tag k="addr:street" v="Padina Cove"/><tag k="addr:housenumber" v="9500"/><tag k="coa:place_id" v="3103896"/></node><node id="-395" lat="30.335808" lon="-97.862021" changeset="false"><tag k="addr:street" v="Olympus Drive"/><tag k="addr:housenumber" v="1404"/><tag k="coa:place_id" v="90498"/></node><node id="-396" lat="30.324421" lon="-97.857223" changeset="false"><tag k="addr:street" v="Brandon Way"/><tag k="addr:housenumber" v="408"/><tag k="coa:place_id" v="3225085"/></node><node id="-397" lat="30.322101" lon="-97.855434" changeset="false"><tag k="addr:street" v="Galeana Trace Cove"/><tag k="addr:housenumber" v="8500"/><tag k="coa:place_id" v="3655325"/></node><node id="-398" lat="30.33583" lon="-97.872651" changeset="false"><tag k="addr:street" v="Valley View Drive"/><tag k="addr:housenumber" v="905"/><tag k="coa:place_id" v="813075"/></node><node id="-399" lat="30.32954" lon="-97.87813" changeset="false"><tag k="addr:street" v="Lisa Drive"/><tag k="addr:housenumber" v="205"/><tag k="coa:place_id" v="3316826"/></node><node id="-400" lat="30.328702" lon="-97.858327" changeset="false"><tag k="addr:street" v="Marly Way,1100"/><tag k="addr:housenumber" v="817"/><tag k="coa:place_id" v="3224834"/></node><node id="-401" lat="30.326166" lon="-97.862183" changeset="false"><tag k="addr:street" v="Marly Way,1100"/><tag k="addr:housenumber" v="408"/><tag k="coa:place_id" v="3225079"/></node><node id="-402" lat="30.337044" lon="-97.859447" changeset="false"><tag k="addr:street" v="Corto Lane"/><tag k="addr:housenumber" v="1601"/><tag k="coa:place_id" v="3382074"/></node><node id="-403" lat="30.337305" lon="-97.859116" changeset="false"><tag k="addr:street" v="Corto Lane"/><tag k="addr:housenumber" v="1609"/><tag k="coa:place_id" v="3382076"/></node><node id="-404" lat="30.33673" lon="-97.859758" changeset="false"><tag k="addr:street" v="Corto Lane"/><tag k="addr:housenumber" v="1507"/><tag k="coa:place_id" v="3382073"/></node><node id="-405" lat="30.328209" lon="-97.849966" changeset="false"><tag k="addr:street" v="River Hills Road"/><tag k="addr:housenumber" v="1200"/><tag k="coa:place_id" v="5062843"/></node><node id="-406" lat="30.3298" lon="-97.858931" changeset="false"><tag k="addr:street" v="Marly Way,1100"/><tag k="addr:housenumber" v="908"/><tag k="coa:place_id" v="3224828"/></node><node id="-407" lat="30.330251" lon="-97.855875" changeset="false"><tag k="addr:street" v="Camelback Drive"/><tag k="addr:housenumber" v="9129"/><tag k="coa:place_id" v="3224810"/></node><node id="-408" lat="30.33913" lon="-97.857726" changeset="false"><tag k="addr:street" v="Corto Lane"/><tag k="addr:housenumber" v="1816"/><tag k="coa:place_id" v="3365350"/></node><node id="-409" lat="30.329792" lon="-97.857841" changeset="false"><tag k="addr:street" v="Marly Way,1100"/><tag k="addr:housenumber" v="1001"/><tag k="coa:place_id" v="3313997"/></node><node id="-410" lat="30.330672" lon="-97.873226" changeset="false"><tag k="addr:street" v="Lake Hills Drive North,1100"/><tag k="addr:housenumber" v="401"/><tag k="coa:place_id" v="90139"/></node><node id="-411" lat="30.346714" lon="-97.852674" changeset="false"><tag k="addr:street" v="Oestrick Lane"/><tag k="addr:housenumber" v="2704"/><tag k="coa:place_id" v="3221212"/></node><node id="-412" lat="30.346717" lon="-97.858252" changeset="false"><tag k="addr:street" v="De Soto Drive"/><tag k="addr:housenumber" v="2602"/><tag k="coa:place_id" v="90024"/></node><node id="-413" lat="30.326036" lon="-97.861447" changeset="false"><tag k="addr:street" v="Marly Cove"/><tag k="addr:housenumber" v="9008"/><tag k="coa:place_id" v="3365728"/></node><node id="-414" lat="30.343483" lon="-97.85424" changeset="false"><tag k="addr:street" v="Cuernavaca Drive North,1100"/><tag k="addr:housenumber" v="2408"/><tag k="coa:place_id" v="3774085"/></node><node id="-415" lat="30.322915" lon="-97.865516" changeset="false"><tag k="addr:street" v="Atwater Cove"/><tag k="addr:housenumber" v="9102"/><tag k="coa:place_id" v="3365639"/></node><node id="-416" lat="30.32025" lon="-97.862737" changeset="false"><tag k="addr:street" v="Marly Way,1100"/><tag k="addr:housenumber" v="208"/><tag k="coa:place_id" v="3429572"/></node><node id="-417" lat="30.328935" lon="-97.882292" changeset="false"><tag k="addr:street" v="Birdlip Circle"/><tag k="addr:housenumber" v="10212"/><tag k="coa:place_id" v="3302046"/></node><node id="-418" lat="30.342597" lon="-97.860946" changeset="false"><tag k="addr:street" v="San Juan Drive"/><tag k="addr:housenumber" v="2101"/><tag k="coa:place_id" v="133260"/></node><node id="-419" lat="30.346192" lon="-97.858847" changeset="false"><tag k="addr:street" v="San Juan Drive"/><tag k="addr:housenumber" v="2501"/><tag k="coa:place_id" v="3429268"/></node><node id="-420" lat="30.328041" lon="-97.875085" changeset="false"><tag k="addr:street" v="Lake Hills Drive North,1100"/><tag k="addr:housenumber" v="105"/><tag k="coa:place_id" v="5062042"/></node><node id="-421" lat="30.32093" lon="-97.865335" changeset="false"><tag k="addr:street" v="Atwater Cove"/><tag k="addr:housenumber" v="9110"/><tag k="coa:place_id" v="5062235"/></node><node id="-422" lat="30.326134" lon="-97.873838" changeset="false"><tag k="addr:street" v="Tumbleweed Trail North,1100"/><tag k="addr:housenumber" v="200"/><tag k="coa:place_id" v="1007504"/></node><node id="-423" lat="30.333351" lon="-97.857484" changeset="false"><tag k="addr:street" v="Marly Way,1100"/><tag k="addr:housenumber" v="1200"/><tag k="coa:place_id" v="3224820"/></node><node id="-424" lat="30.322385" lon="-97.858363" changeset="false"><tag k="addr:street" v="Brandon Way"/><tag k="addr:housenumber" v="305"/><tag k="coa:place_id" v="3225090"/></node><node id="-425" lat="30.333489" lon="-97.851991" changeset="false"><tag k="addr:street" v="Taylor Road"/><tag k="addr:housenumber" v="8815"/><tag k="coa:place_id" v="195338"/></node><node id="-426" lat="30.336096" lon="-97.861948" changeset="false"><tag k="addr:street" v="Olympus Drive"/><tag k="addr:housenumber" v="1406"/><tag k="coa:place_id" v="90499"/></node><node id="-427" lat="30.320139" lon="-97.853135" changeset="false"><tag k="addr:street" v="River Hills Road"/><tag k="addr:housenumber" v="404"/><tag k="coa:place_id" v="3212665"/></node><node id="-428" lat="30.325345" lon="-97.86127" changeset="false"><tag k="addr:street" v="Marly Cove"/><tag k="addr:housenumber" v="9005"/><tag k="coa:place_id" v="3365729"/></node><node id="-429" lat="30.338836" lon="-97.858716" changeset="false"><tag k="addr:street" v="Corto Lane"/><tag k="addr:housenumber" v="1800"/><tag k="coa:place_id" v="3365278"/></node><node id="-430" lat="30.334151" lon="-97.857119" changeset="false"><tag k="addr:street" v="Marly Way,1100"/><tag k="addr:housenumber" v="1216"/><tag k="coa:place_id" v="3215413"/></node><node id="-431" lat="30.330684" lon="-97.877476" changeset="false"><tag k="addr:street" v="Falcon Ridge Drive"/><tag k="addr:housenumber" v="10105"/><tag k="coa:place_id" v="79991"/></node><node id="-432" lat="30.320042" lon="-97.862271" changeset="false"><tag k="addr:street" v="Marly Way,1100"/><tag k="addr:housenumber" v="210"/><tag k="coa:place_id" v="5099883"/></node><node id="-433" lat="30.347634" lon="-97.860122" changeset="false"><tag k="addr:street" v="Mecca Road"/><tag k="addr:housenumber" v="2507"/><tag k="coa:place_id" v="132689"/></node><node id="-434" lat="30.325501" lon="-97.861758" changeset="false"><tag k="addr:street" v="Marly Cove"/><tag k="addr:housenumber" v="9013"/><tag k="coa:place_id" v="3365730"/></node><node id="-435" lat="30.343295" lon="-97.849555" changeset="false"><tag k="addr:street" v="Cuernavaca Drive North,1100"/><tag k="addr:housenumber" v="2615"/><tag k="coa:place_id" v="3329542"/></node><node id="-436" lat="30.336132" lon="-97.878156" changeset="false"><tag k="addr:street" v="Jennys Jump Drive"/><tag k="addr:housenumber" v="10429"/><tag k="coa:place_id" v="223431"/></node><node id="-437" lat="30.338171" lon="-97.859182" changeset="false"><tag k="addr:street" v="Corto Lane"/><tag k="addr:housenumber" v="1716"/><tag k="coa:place_id" v="5000579"/></node><node id="-438" lat="30.327625" lon="-97.859814" changeset="false"><tag k="addr:street" v="Marly Way,1100"/><tag k="addr:housenumber" v="701"/><tag k="coa:place_id" v="3224837"/></node><node id="-439" lat="30.327857" lon="-97.861025" changeset="false"><tag k="addr:street" v="Marly Way,1100"/><tag k="addr:housenumber" v="608"/><tag k="coa:place_id" v="3224839"/></node><node id="-440" lat="30.331479" lon="-97.862452" changeset="false"><tag k="addr:street" v="Ogden Drive"/><tag k="addr:housenumber" v="1008"/><tag k="coa:place_id" v="90329"/></node><node id="-441" lat="30.339762" lon="-97.860704" changeset="false"><tag k="addr:street" v="Canyon Edge Drive"/><tag k="addr:housenumber" v="1803"/><tag k="coa:place_id" v="90587"/></node><node id="-442" lat="30.320491" lon="-97.863087" changeset="false"><tag k="addr:street" v="Atwater Cove"/><tag k="addr:housenumber" v="9005"/><tag k="coa:place_id" v="5064110"/></node><node id="-443" lat="30.331445" lon="-97.873048" changeset="false"><tag k="addr:street" v="Lake Hills Drive North,1100"/><tag k="addr:housenumber" v="503"/><tag k="coa:place_id" v="90151"/></node><node id="-444" lat="30.336854" lon="-97.863019" changeset="false"><tag k="addr:street" v="Canyon Edge Drive"/><tag k="addr:housenumber" v="1407"/><tag k="coa:place_id" v="3323173"/></node><node id="-445" lat="30.34687" lon="-97.854277" changeset="false"><tag k="addr:street" v="Padina Drive"/><tag k="addr:housenumber" v="2710"/><tag k="coa:place_id" v="3031749"/></node><node id="-446" lat="30.343371" lon="-97.849199" changeset="false"><tag k="addr:street" v="River Hills Road"/><tag k="addr:housenumber" v="2512"/><tag k="coa:place_id" v="196046"/></node><node id="-447" lat="30.343606" lon="-97.849525" changeset="false"><tag k="addr:street" v="Cuernavaca Drive North,1100"/><tag k="addr:housenumber" v="2610"/><tag k="coa:place_id" v="1106248"/></node><node id="-448" lat="30.332287" lon="-97.860005" changeset="false"><tag k="addr:street" v="Mayan Way"/><tag k="addr:housenumber" v="1103"/><tag k="coa:place_id" v="90439"/></node><node id="-449" lat="30.328915" lon="-97.877001" changeset="false"><tag k="addr:street" v="Laurelwood Drive North,1100"/><tag k="addr:housenumber" v="104"/><tag k="coa:place_id" v="69583"/></node><node id="-450" lat="30.336916" lon="-97.877608" changeset="false"><tag k="addr:street" v="Jennys Jump Drive"/><tag k="addr:housenumber" v="10409"/><tag k="coa:place_id" v="223434"/></node><node id="-451" lat="30.318265" lon="-97.858068" changeset="false"><tag k="addr:street" v="Sanostee Cove"/><tag k="addr:housenumber" v="209"/><tag k="coa:place_id" v="3042689"/></node><node id="-452" lat="30.350232" lon="-97.852212" changeset="false"><tag k="addr:street" v="Demona Drive"/><tag k="addr:housenumber" v="2914"/><tag k="coa:place_id" v="222833"/></node><node id="-453" lat="30.345916" lon="-97.857259" changeset="false"><tag k="addr:street" v="Demona Cove"/><tag k="addr:housenumber" v="9601"/><tag k="coa:place_id" v="1159567"/></node><node id="-454" lat="30.332911" lon="-97.876093" changeset="false"><tag k="addr:street" v="Wildflower Lane"/><tag k="addr:housenumber" v="10108"/><tag k="coa:place_id" v="79989"/></node><node id="-455" lat="30.339055" lon="-97.88412" changeset="false"><tag k="addr:street" v="North Commons Ford Road"/><tag k="addr:housenumber" v="614 1/2"/><tag k="coa:place_id" v="3168642"/></node><node id="-456" lat="30.339976" lon="-97.882403" changeset="false"><tag k="addr:street" v="North Commons Ford Road"/><tag k="addr:housenumber" v="802"/><tag k="coa:place_id" v="627262"/></node><node id="-457" lat="30.336818" lon="-97.864866" changeset="false"><tag k="addr:street" v="Cuernavaca Drive North,1100"/><tag k="addr:housenumber" v="1307"/><tag k="coa:place_id" v="90535"/></node><node id="-458" lat="30.322034" lon="-97.865304" changeset="false"><tag k="addr:street" v="Atwater Cove"/><tag k="addr:housenumber" v="9100"/><tag k="coa:place_id" v="198114"/></node><node id="-459" lat="30.333857" lon="-97.852117" changeset="false"><tag k="addr:street" v="Taylor Road"/><tag k="addr:housenumber" v="8813"/><tag k="coa:place_id" v="256524"/></node><node id="-460" lat="30.331925" lon="-97.880656" changeset="false"><tag k="addr:street" v="Lisa Drive"/><tag k="addr:housenumber" v="116"/><tag k="coa:place_id" v="3093664"/></node><node id="-461" lat="30.319681" lon="-97.855839" changeset="false"><tag k="addr:street" v="Galeana Trace Cove"/><tag k="addr:housenumber" v="8511"/><tag k="coa:place_id" v="3042680"/></node><node id="-462" lat="30.330251" lon="-97.864098" changeset="false"><tag k="addr:street" v="Tumbleweed Trail North,1100"/><tag k="addr:housenumber" v="800"/><tag k="coa:place_id" v="121846"/></node><node id="-463" lat="30.325869" lon="-97.865548" changeset="false"><tag k="addr:street" v="Tumbleweed Trail North,1100"/><tag k="addr:housenumber" v="307"/><tag k="coa:place_id" v="1140971"/></node><node id="-464" lat="30.319332" lon="-97.853663" changeset="false"><tag k="addr:street" v="River Hills Road"/><tag k="addr:housenumber" v="220"/><tag k="coa:place_id" v="3042675"/></node><node id="-465" lat="30.339038" lon="-97.863801" changeset="false"><tag k="addr:street" v="Cuernavaca Drive North,1100"/><tag k="addr:housenumber" v="1603"/><tag k="coa:place_id" v="3032331"/></node><node id="-466" lat="30.328576" lon="-97.863206" changeset="false"><tag k="addr:street" v="Tumbleweed Trail North,1100"/><tag k="addr:housenumber" v="701"/><tag k="coa:place_id" v="134832"/></node><node id="-467" lat="30.329055" lon="-97.862934" changeset="false"><tag k="addr:street" v="Tumbleweed Trail North,1100"/><tag k="addr:housenumber" v="703"/><tag k="coa:place_id" v="58108"/></node><node id="-468" lat="30.331301" lon="-97.861639" changeset="false"><tag k="addr:street" v="Ogden Drive"/><tag k="addr:housenumber" v="1003"/><tag k="coa:place_id" v="90360"/></node><node id="-469" lat="30.34667" lon="-97.859621" changeset="false"><tag k="addr:street" v="De Soto Drive"/><tag k="addr:housenumber" v="2514"/><tag k="coa:place_id" v="90011"/></node><node id="-470" lat="30.326266" lon="-97.853544" changeset="false"><tag k="addr:street" v="River Hills Road"/><tag k="addr:housenumber" v="900"/><tag k="coa:place_id" v="124898"/></node><node id="-471" lat="30.334361" lon="-97.858994" changeset="false"><tag k="addr:street" v="Caracas Drive"/><tag k="addr:housenumber" v="9305"/><tag k="coa:place_id" v="90307"/></node><node id="-472" lat="30.335895" lon="-97.875389" changeset="false"><tag k="addr:street" v="Lisa Drive"/><tag k="addr:housenumber" v="809"/><tag k="coa:place_id" v="198932"/></node><node id="-473" lat="30.329112" lon="-97.881738" changeset="false"><tag k="addr:street" v="Birdlip Circle"/><tag k="addr:housenumber" v="10208"/><tag k="coa:place_id" v="3079170"/></node><node id="-474" lat="30.343303" lon="-97.84993" changeset="false"><tag k="addr:street" v="Cuernavaca Drive North,1100"/><tag k="addr:housenumber" v="2611"/><tag k="coa:place_id" v="439863"/></node><node id="-475" lat="30.340552" lon="-97.848129" changeset="false"><tag k="addr:street" v="River Hills Road"/><tag k="addr:housenumber" v="2313"/><tag k="coa:place_id" v="195932"/></node><node id="-476" lat="30.33436" lon="-97.861527" changeset="false"><tag k="addr:street" v="Mayan Way"/><tag k="addr:housenumber" v="1209"/><tag k="coa:place_id" v="90457"/></node><node id="-477" lat="30.334378" lon="-97.865869" changeset="false"><tag k="addr:street" v="Canyon Edge Drive"/><tag k="addr:housenumber" v="1102"/><tag k="coa:place_id" v="90635"/></node><node id="-478" lat="30.324934" lon="-97.871931" changeset="false"><tag k="addr:street" v="Cuernavaca Drive North,1100"/><tag k="addr:housenumber" v="113"/><tag k="coa:place_id" v="1003850"/></node><node id="-479" lat="30.324141" lon="-97.864855" changeset="false"><tag k="addr:street" v="Stallion Drive"/><tag k="addr:housenumber" v="9204"/><tag k="coa:place_id" v="85255"/></node><node id="-480" lat="30.339634" lon="-97.850029" changeset="false"><tag k="addr:street" v="River Hills Road"/><tag k="addr:housenumber" v="2300"/><tag k="coa:place_id" v="195908"/></node><node id="-481" lat="30.338299" lon="-97.860015" changeset="false"><tag k="addr:street" v="Olympus Drive"/><tag k="addr:housenumber" v="1701"/><tag k="coa:place_id" v="90516"/></node><node id="-482" lat="30.335164" lon="-97.858689" changeset="false"><tag k="addr:street" v="Winchester Road"/><tag k="addr:housenumber" v="9305"/><tag k="coa:place_id" v="90251"/></node><node id="-483" lat="30.320932" lon="-97.863439" changeset="false"><tag k="addr:street" v="Atwater Cove"/><tag k="addr:housenumber" v="9010"/><tag k="coa:place_id" v="3028864"/></node><node id="-484" lat="30.347757" lon="-97.852139" changeset="false"><tag k="addr:street" v="Oestrick Lane"/><tag k="addr:housenumber" v="2900"/><tag k="coa:place_id" v="1142492"/></node><node id="-485" lat="30.347412" lon="-97.854365" changeset="false"><tag k="addr:street" v="Padina Drive"/><tag k="addr:housenumber" v="2722"/><tag k="coa:place_id" v="3031746"/></node><node id="-486" lat="30.331507" lon="-97.871555" changeset="false"><tag k="addr:street" v="Lake Ridge Drive"/><tag k="addr:housenumber" v="9811"/><tag k="coa:place_id" v="89467"/></node><node id="-487" lat="30.331359" lon="-97.86778" changeset="false"><tag k="addr:street" v="Cuernavaca Drive North,1100"/><tag k="addr:housenumber" v="709"/><tag k="coa:place_id" v="197804"/></node><node id="-488" lat="30.336559" lon="-97.883828" changeset="false"><tag k="addr:street" v="North Commons Ford Road"/><tag k="addr:housenumber" v="401"/><tag k="coa:place_id" v="233609"/></node><node id="-489" lat="30.334184" lon="-97.882565" changeset="false"><tag k="addr:street" v="North Commons Ford Road"/><tag k="addr:housenumber" v="221"/><tag k="coa:place_id" v="3037676"/></node><node id="-490" lat="30.336381" lon="-97.860058" changeset="false"><tag k="addr:street" v="Winchester Road"/><tag k="addr:housenumber" v="9408"/><tag k="coa:place_id" v="742402"/></node><node id="-491" lat="30.320457" lon="-97.855995" changeset="false"><tag k="addr:street" v="Galeana Trace Cove"/><tag k="addr:housenumber" v="8527"/><tag k="coa:place_id" v="3042682"/></node><node id="-492" lat="30.336931" lon="-97.864207" changeset="false"><tag k="addr:street" v="Delgado Way"/><tag k="addr:housenumber" v="9703"/><tag k="coa:place_id" v="90661"/></node><node id="-493" lat="30.345486" lon="-97.858734" changeset="false"><tag k="addr:street" v="De Soto Drive"/><tag k="addr:housenumber" v="2519"/><tag k="coa:place_id" v="90013"/></node><node id="-494" lat="30.346844" lon="-97.858663" changeset="false"><tag k="addr:street" v="San Juan Drive"/><tag k="addr:housenumber" v="2601"/><tag k="coa:place_id" v="853731"/></node><node id="-495" lat="30.32829" lon="-97.876668" changeset="false"><tag k="addr:street" v="Laurelwood Drive North,1100"/><tag k="addr:housenumber" v="109"/><tag k="coa:place_id" v="90061"/></node><node id="-496" lat="30.341795" lon="-97.884351" changeset="false"><tag k="addr:street" v="River Terrace"/><tag k="addr:housenumber" v="10900"/><tag k="coa:place_id" v="197516"/></node><node id="-497" lat="30.333441" lon="-97.858335" changeset="false"><tag k="addr:street" v="Bowie Road"/><tag k="addr:housenumber" v="1305"/><tag k="coa:place_id" v="90277"/></node><node id="-498" lat="30.333682" lon="-97.858164" changeset="false"><tag k="addr:street" v="Bowie Road"/><tag k="addr:housenumber" v="1401"/><tag k="coa:place_id" v="90281"/></node><node id="-499" lat="30.335422" lon="-97.859961" changeset="false"><tag k="addr:street" v="Caracas Drive"/><tag k="addr:housenumber" v="9404"/><tag k="coa:place_id" v="90299"/></node><node id="-500" lat="30.345959" lon="-97.855746" changeset="false"><tag k="addr:street" v="Demona Drive"/><tag k="addr:housenumber" v="2611"/><tag k="coa:place_id" v="3031731"/></node><node id="-501" lat="30.345908" lon="-97.859978" changeset="false"><tag k="addr:street" v="Saugus Lane"/><tag k="addr:housenumber" v="9704"/><tag k="coa:place_id" v="89295"/></node><node id="-502" lat="30.33931" lon="-97.883554" changeset="false"><tag k="addr:street" v="North Commons Ford Road"/><tag k="addr:housenumber" v="702"/><tag k="coa:place_id" v="117349"/></node><node id="-503" lat="30.336581" lon="-97.864298" changeset="false"><tag k="addr:street" v="Canyon Edge Drive"/><tag k="addr:housenumber" v="1306"/><tag k="coa:place_id" v="90653"/></node><node id="-504" lat="30.344377" lon="-97.859272" changeset="false"><tag k="addr:street" v="San Juan Drive"/><tag k="addr:housenumber" v="2211"/><tag k="coa:place_id" v="189484"/></node><node id="-505" lat="30.325168" lon="-97.866601" changeset="false"><tag k="addr:street" v="Stallion Drive"/><tag k="addr:housenumber" v="9307"/><tag k="coa:place_id" v="85264"/></node><node id="-506" lat="30.333514" lon="-97.861974" changeset="false"><tag k="addr:street" v="Ottawa Drive"/><tag k="addr:housenumber" v="1115"/><tag k="coa:place_id" v="90403"/></node><node id="-507" lat="30.33296" lon="-97.858669" changeset="false"><tag k="addr:street" v="Bowie Road"/><tag k="addr:housenumber" v="1301"/><tag k="coa:place_id" v="90275"/></node><node id="-508" lat="30.34331" lon="-97.858467" changeset="false"><tag k="addr:street" v="Demona Drive"/><tag k="addr:housenumber" v="2300"/><tag k="coa:place_id" v="3031747"/></node><node id="-509" lat="30.339178" lon="-97.882818" changeset="false"><tag k="addr:street" v="North Commons Ford Road"/><tag k="addr:housenumber" v="707"/><tag k="coa:place_id" v="244157"/></node><node id="-510" lat="30.336781" lon="-97.874868" changeset="false"><tag k="addr:street" v="Lisa Drive"/><tag k="addr:housenumber" v="905"/><tag k="coa:place_id" v="967232"/></node><node id="-511" lat="30.328136" lon="-97.871214" changeset="false"><tag k="addr:street" v="Cuernavaca Drive North,1100"/><tag k="addr:housenumber" v="207"/><tag k="coa:place_id" v="585730"/></node><node id="-512" lat="30.331123" lon="-97.862926" changeset="false"><tag k="addr:street" v="Tumbleweed Trail North,1100"/><tag k="addr:housenumber" v="809"/><tag k="coa:place_id" v="58115"/></node><node id="-513" lat="30.330869" lon="-97.871746" changeset="false"><tag k="addr:street" v="Lake Ridge Drive"/><tag k="addr:housenumber" v="9803"/><tag k="coa:place_id" v="198764"/></node><node id="-514" lat="30.328523" lon="-97.877363" changeset="false"><tag k="addr:street" v="Laurelwood Drive North,1100"/><tag k="addr:housenumber" v="108"/><tag k="coa:place_id" v="90060"/></node><node id="-515" lat="30.345807" lon="-97.854328" changeset="false"><tag k="addr:street" v="Padina Drive"/><tag k="addr:housenumber" v="2602"/><tag k="coa:place_id" v="3031762"/></node><node id="-516" lat="30.33654" lon="-97.861734" changeset="false"><tag k="addr:street" v="Olympus Drive"/><tag k="addr:housenumber" v="1500"/><tag k="coa:place_id" v="90504"/></node><node id="-517" lat="30.336432" lon="-97.864404" changeset="false"><tag k="addr:street" v="Canyon Edge Drive"/><tag k="addr:housenumber" v="1304"/><tag k="coa:place_id" v="90649"/></node><node id="-518" lat="30.31907" lon="-97.858142" changeset="false"><tag k="addr:street" v="Sanostee Cove"/><tag k="addr:housenumber" v="200"/><tag k="coa:place_id" v="3042687"/></node><node id="-519" lat="30.33334" lon="-97.865951" changeset="false"><tag k="addr:street" v="Canyon Edge Drive"/><tag k="addr:housenumber" v="1009"/><tag k="coa:place_id" v="90552"/></node><node id="-520" lat="30.3329" lon="-97.876071" changeset="false"><tag k="addr:street" v="Wildflower Lane"/><tag k="addr:housenumber" v="10106"/><tag k="coa:place_id" v="79988"/></node><node id="-521" lat="30.344132" lon="-97.861012" changeset="false"><tag k="addr:street" v="Balboa Road"/><tag k="addr:housenumber" v="2203"/><tag k="coa:place_id" v="88699"/></node><node id="-522" lat="30.349175" lon="-97.854072" changeset="false"><tag k="addr:street" v="Padina Cove"/><tag k="addr:housenumber" v="9607"/><tag k="coa:place_id" v="222385"/></node><node id="-523" lat="30.326581" lon="-97.865914" changeset="false"><tag k="addr:street" v="Tumbleweed Trail North,1100"/><tag k="addr:housenumber" v="314"/><tag k="coa:place_id" v="214321"/></node><node id="-524" lat="30.326428" lon="-97.864475" changeset="false"><tag k="addr:street" v="Tumbleweed Trail North,1100"/><tag k="addr:housenumber" v="409"/><tag k="coa:place_id" v="227245"/></node><node id="-525" lat="30.346585" lon="-97.853366" changeset="false"><tag k="addr:street" v="Padina Drive"/><tag k="addr:housenumber" v="2709"/><tag k="coa:place_id" v="222851"/></node><node id="-526" lat="30.335946" lon="-97.86133" changeset="false"><tag k="addr:street" v="Olympus Drive"/><tag k="addr:housenumber" v="1405"/><tag k="coa:place_id" v="1141001"/></node><node id="-527" lat="30.343997" lon="-97.854649" changeset="false"><tag k="addr:street" v="Padina Drive"/><tag k="addr:housenumber" v="2419"/><tag k="coa:place_id" v="222852"/></node><node id="-528" lat="30.330657" lon="-97.862605" changeset="false"><tag k="addr:street" v="Tumbleweed Trail North,1100"/><tag k="addr:housenumber" v="805"/><tag k="coa:place_id" v="58114"/></node><node id="-529" lat="30.330575" lon="-97.86186" changeset="false"><tag k="addr:street" v="Ogden Drive"/><tag k="addr:housenumber" v="1000"/><tag k="coa:place_id" v="3130656"/></node><node id="-530" lat="30.330192" lon="-97.861644" changeset="false"><tag k="addr:street" v="Ottawa Drive"/><tag k="addr:housenumber" v="907"/><tag k="coa:place_id" v="90377"/></node><node id="-531" lat="30.329836" lon="-97.870203" changeset="false"><tag k="addr:street" v="Cuernavaca Drive North,1100"/><tag k="addr:housenumber" v="513"/><tag k="coa:place_id" v="60921"/></node><node id="-532" lat="30.329657" lon="-97.862492" changeset="false"><tag k="addr:street" v="Tumbleweed Trail North,1100"/><tag k="addr:housenumber" v="711"/><tag k="coa:place_id" v="58111"/></node><node id="-533" lat="30.336634" lon="-97.864906" changeset="false"><tag k="addr:street" v="Cuernavaca Drive North,1100"/><tag k="addr:housenumber" v="1305"/><tag k="coa:place_id" v="90534"/></node><node id="-534" lat="30.337647" lon="-97.86225" changeset="false"><tag k="addr:street" v="Canyon Edge Drive"/><tag k="addr:housenumber" v="1507"/><tag k="coa:place_id" v="90594"/></node><node id="-535" lat="30.344982" lon="-97.85938" changeset="false"><tag k="addr:street" v="Saugus Lane"/><tag k="addr:housenumber" v="9603"/><tag k="coa:place_id" v="196208"/></node><node id="-536" lat="30.344751" lon="-97.859096" changeset="false"><tag k="addr:street" v="Saugus Lane"/><tag k="addr:housenumber" v="9607"/><tag k="coa:place_id" v="89218"/></node><node id="-537" lat="30.328048" lon="-97.876808" changeset="false"><tag k="addr:street" v="Laurelwood Drive North,1100"/><tag k="addr:housenumber" v="111"/><tag k="coa:place_id" v="90065"/></node><node id="-538" lat="30.334911" lon="-97.852046" changeset="false"><tag k="addr:street" v="Taylor Road"/><tag k="addr:housenumber" v="8812"/><tag k="coa:place_id" v="234653"/></node><node id="-539" lat="30.339354" lon="-97.861081" changeset="false"><tag k="addr:street" v="Canyon Edge Drive"/><tag k="addr:housenumber" v="1707"/><tag k="coa:place_id" v="90583"/></node><node id="-540" lat="30.342868" lon="-97.881216" changeset="false"><tag k="addr:street" v="River Terrace"/><tag k="addr:housenumber" v="10618"/><tag k="coa:place_id" v="59225"/></node><node id="-541" lat="30.333194" lon="-97.858506" changeset="false"><tag k="addr:street" v="Bowie Road"/><tag k="addr:housenumber" v="1303"/><tag k="coa:place_id" v="90276"/></node><node id="-542" lat="30.33307" lon="-97.859503" changeset="false"><tag k="addr:street" v="Olympus Drive"/><tag k="addr:housenumber" v="1211"/><tag k="coa:place_id" v="90479"/></node><node id="-543" lat="30.346652" lon="-97.856717" changeset="false"><tag k="addr:street" v="Demona Cove"/><tag k="addr:housenumber" v="9604"/><tag k="coa:place_id" v="222865"/></node><node id="-544" lat="30.326999" lon="-97.875512" changeset="false"><tag k="addr:street" v="Woodlake Trail"/><tag k="addr:housenumber" v="9904"/><tag k="coa:place_id" v="89789"/></node><node id="-545" lat="30.335054" lon="-97.859295" changeset="false"><tag k="addr:street" v="Caracas Drive"/><tag k="addr:housenumber" v="9318"/><tag k="coa:place_id" v="1141002"/></node><node id="-546" lat="30.345737" lon="-97.859805" changeset="false"><tag k="addr:street" v="Saugus Lane"/><tag k="addr:housenumber" v="9702"/><tag k="coa:place_id" v="89224"/></node><node id="-547" lat="30.332628" lon="-97.863257" changeset="false"><tag k="addr:street" v="Ogden Drive"/><tag k="addr:housenumber" v="1102"/><tag k="coa:place_id" v="90337"/></node><node id="-548" lat="30.317875" lon="-97.858459" changeset="false"><tag k="addr:street" v="Sanostee Cove"/><tag k="addr:housenumber" v="215"/><tag k="coa:place_id" v="3187128"/></node><node id="-549" lat="30.319661" lon="-97.858748" changeset="false"><tag k="addr:street" v="Capehart Cove"/><tag k="addr:housenumber" v="8705"/><tag k="coa:place_id" v="198091"/></node><node id="-550" lat="30.341929" lon="-97.858113" changeset="false"><tag k="addr:street" v="Demona Drive"/><tag k="addr:housenumber" v="2115"/><tag k="coa:place_id" v="222813"/></node><node id="-551" lat="30.332841" lon="-97.857131" changeset="false"><tag k="addr:street" v="Marly Way,1100"/><tag k="addr:housenumber" v="1127"/><tag k="coa:place_id" v="3154687"/></node><node id="-552" lat="30.339917" lon="-97.860448" changeset="false"><tag k="addr:street" v="Canyon Edge Drive"/><tag k="addr:housenumber" v="1901"/><tag k="coa:place_id" v="90619"/></node><node id="-553" lat="30.350249" lon="-97.8581" changeset="false"><tag k="addr:street" v="Niagara Drive"/><tag k="addr:housenumber" v="2905"/><tag k="coa:place_id" v="90085"/></node><node id="-554" lat="30.337365" lon="-97.849085" changeset="false"><tag k="addr:street" v="River Hills Road"/><tag k="addr:housenumber" v="2108"/><tag k="coa:place_id" v="195770"/></node><node id="-555" lat="30.329347" lon="-97.870661" changeset="false"><tag k="addr:street" v="Cuernavaca Drive North,1100"/><tag k="addr:housenumber" v="505"/><tag k="coa:place_id" v="60922"/></node><node id="-556" lat="30.328752" lon="-97.874531" changeset="false"><tag k="addr:street" v="Lake Hills Drive North,1100"/><tag k="addr:housenumber" v="101"/><tag k="coa:place_id" v="90137"/></node><node id="-557" lat="30.32397" lon="-97.859362" changeset="false"><tag k="addr:street" v="Brandon Way"/><tag k="addr:housenumber" v="701"/><tag k="coa:place_id" v="3151816"/></node><node id="-558" lat="30.324562" lon="-97.865709" changeset="false"><tag k="addr:street" v="Stallion Drive"/><tag k="addr:housenumber" v="9207"/><tag k="coa:place_id" v="558148"/></node><node id="-559" lat="30.339853" lon="-97.861372" changeset="false"><tag k="addr:street" v="Canyon Edge Drive"/><tag k="addr:housenumber" v="1804"/><tag k="coa:place_id" v="195647"/></node><node id="-560" lat="30.346759" lon="-97.857146" changeset="false"><tag k="addr:street" v="Demona Cove"/><tag k="addr:housenumber" v="9608"/><tag k="coa:place_id" v="222864"/></node><node id="-561" lat="30.333977" lon="-97.860173" changeset="false"><tag k="addr:street" v="Olympus Drive"/><tag k="addr:housenumber" v="1301"/><tag k="coa:place_id" v="90486"/></node><node id="-562" lat="30.335706" lon="-97.8766" changeset="false"><tag k="addr:street" v="Aqua Azul Court"/><tag k="addr:housenumber" v="10202"/><tag k="coa:place_id" v="338080"/></node><node id="-563" lat="30.345769" lon="-97.853697" changeset="false"><tag k="addr:street" v="Padina Drive"/><tag k="addr:housenumber" v="2609"/><tag k="coa:place_id" v="3031756"/></node><node id="-564" lat="30.332703" lon="-97.862563" changeset="false"><tag k="addr:street" v="Ogden Drive"/><tag k="addr:housenumber" v="1101"/><tag k="coa:place_id" v="90372"/></node><node id="-565" lat="30.335091" lon="-97.857494" changeset="false"><tag k="addr:street" v="Bowie Road"/><tag k="addr:housenumber" v="1505"/><tag k="coa:place_id" v="90288"/></node><node id="-566" lat="30.324611" lon="-97.877174" changeset="false"><tag k="addr:street" v="Tumbleweed Trail North,1100"/><tag k="addr:housenumber" v="318"/><tag k="coa:place_id" v="137326"/></node><node id="-567" lat="30.337609" lon="-97.882026" changeset="false"><tag k="addr:street" v="Riders Trail"/><tag k="addr:housenumber" v="601"/><tag k="coa:place_id" v="163619"/></node><node id="-568" lat="30.348484" lon="-97.857184" changeset="false"><tag k="addr:street" v="De Soto Drive"/><tag k="addr:housenumber" v="2709"/><tag k="coa:place_id" v="90042"/></node><node id="-569" lat="30.35168" lon="-97.856497" changeset="false"><tag k="addr:street" v="Niagara Drive"/><tag k="addr:housenumber" v="3007"/><tag k="coa:place_id" v="90102"/></node><node id="-570" lat="30.34018" lon="-97.861159" changeset="false"><tag k="addr:street" v="Canyon Edge Drive"/><tag k="addr:housenumber" v="1900"/><tag k="coa:place_id" v="90588"/></node><node id="-571" lat="30.331508" lon="-97.860252" changeset="false"><tag k="addr:street" v="Bowie Road"/><tag k="addr:housenumber" v="1102"/><tag k="coa:place_id" v="131560"/></node><node id="-572" lat="30.3258" lon="-97.877497" changeset="false"><tag k="addr:street" v="Woodlake Cove"/><tag k="addr:housenumber" v="9905"/><tag k="coa:place_id" v="238713"/></node><node id="-573" lat="30.345223" lon="-97.858949" changeset="false"><tag k="addr:street" v="Saugus Lane"/><tag k="addr:housenumber" v="9606"/><tag k="coa:place_id" v="89118"/></node><node id="-574" lat="30.344963" lon="-97.855867" changeset="false"><tag k="addr:street" v="Tavia Cove"/><tag k="addr:housenumber" v="9515"/><tag k="coa:place_id" v="222857"/></node><node id="-575" lat="30.344944" lon="-97.86025" changeset="false"><tag k="addr:street" v="Zion Way"/><tag k="addr:housenumber" v="9702"/><tag k="coa:place_id" v="88700"/></node><node id="-576" lat="30.336297" lon="-97.863669" changeset="false"><tag k="addr:street" v="Canyon Edge Drive"/><tag k="addr:housenumber" v="1401"/><tag k="coa:place_id" v="90575"/></node><node id="-577" lat="30.331927" lon="-97.876185" changeset="false"><tag k="addr:street" v="Eagle Lookout Drive"/><tag k="addr:housenumber" v="403"/><tag k="coa:place_id" v="79996"/></node><node id="-578" lat="30.320126" lon="-97.866657" changeset="false"><tag k="addr:street" v="Atwater Cove"/><tag k="addr:housenumber" v="9120"/><tag k="coa:place_id" v="3070710"/></node><node id="-579" lat="30.337678" lon="-97.864261" changeset="false"><tag k="addr:street" v="Delgado Way"/><tag k="addr:housenumber" v="9706"/><tag k="coa:place_id" v="90654"/></node><node id="-580" lat="30.344699" lon="-97.85799" changeset="false"><tag k="addr:street" v="Demona Drive"/><tag k="addr:housenumber" v="2400"/><tag k="coa:place_id" v="3031711"/></node><node id="-581" lat="30.338927" lon="-97.861442" changeset="false"><tag k="addr:street" v="Canyon Edge Drive"/><tag k="addr:housenumber" v="1703"/><tag k="coa:place_id" v="90581"/></node><node id="-582" lat="30.335688" lon="-97.857796" changeset="false"><tag k="addr:street" v="Winchester Road"/><tag k="addr:housenumber" v="9300"/><tag k="coa:place_id" v="90239"/></node><node id="-583" lat="30.336387" lon="-97.877991" changeset="false"><tag k="addr:street" v="Jennys Jump Drive"/><tag k="addr:housenumber" v="10421"/><tag k="coa:place_id" v="223432"/></node><node id="-584" lat="30.315793" lon="-97.855857" changeset="false"><tag k="addr:street" v="River Hills Road"/><tag k="addr:housenumber" v="120"/><tag k="coa:place_id" v="3042685"/></node><node id="-585" lat="30.341609" lon="-97.88405" changeset="false"><tag k="addr:street" v="River Terrace"/><tag k="addr:housenumber" v="10812"/><tag k="coa:place_id" v="3254262"/></node><node id="-586" lat="30.335879" lon="-97.876847" changeset="false"><tag k="addr:street" v="Aqua Azul Court"/><tag k="addr:housenumber" v="10204"/><tag k="coa:place_id" v="86545"/></node><node id="-587" lat="30.333354" lon="-97.877147" changeset="false"><tag k="addr:street" v="Lisa Drive"/><tag k="addr:housenumber" v="507"/><tag k="coa:place_id" v="79999"/></node><node id="-588" lat="30.330416" lon="-97.861493" changeset="false"><tag k="addr:street" v="Ottawa Drive"/><tag k="addr:housenumber" v="909"/><tag k="coa:place_id" v="90378"/></node><node id="-589" lat="30.343718" lon="-97.855874" changeset="false"><tag k="addr:street" v="Padina Drive"/><tag k="addr:housenumber" v="2408"/><tag k="coa:place_id" v="222847"/></node><node id="-590" lat="30.330561" lon="-97.877201" changeset="false"><tag k="addr:street" v="Falcon Ridge Drive"/><tag k="addr:housenumber" v="10103"/><tag k="coa:place_id" v="79990"/></node><node id="-591" lat="30.328445" lon="-97.859953" changeset="false"><tag k="addr:street" v="Marly Way,1100"/><tag k="addr:housenumber" v="708"/><tag k="coa:place_id" v="3224836"/></node><node id="-592" lat="30.325957" lon="-97.860958" changeset="false"><tag k="addr:street" v="Marly Cove"/><tag k="addr:housenumber" v="9000"/><tag k="coa:place_id" v="3220159"/></node><node id="-593" lat="30.330087" lon="-97.882991" changeset="false"><tag k="addr:street" v="Amwell Cove"/><tag k="addr:housenumber" v="10216"/><tag k="coa:place_id" v="3093654"/></node><node id="-594" lat="30.328198" lon="-97.880085" changeset="false"><tag k="addr:street" v="Commons Ford Ranch Park Road,1100"/><tag k="addr:housenumber" v="267"/><tag k="coa:place_id" v="3115927"/></node><node id="-595" lat="30.322398" lon="-97.857961" changeset="false"><tag k="addr:street" v="Brandon Way"/><tag k="addr:housenumber" v="313"/><tag k="coa:place_id" v="3225091"/></node><node id="-596" lat="30.335304" lon="-97.858994" changeset="false"><tag k="addr:street" v="Winchester Road"/><tag k="addr:housenumber" v="9307"/><tag k="coa:place_id" v="90252"/></node><node id="-597" lat="30.328357" lon="-97.858531" changeset="false"><tag k="addr:street" v="Marly Way,1100"/><tag k="addr:housenumber" v="809"/><tag k="coa:place_id" v="3224831"/></node><node id="-598" lat="30.324724" lon="-97.85346" changeset="false"><tag k="addr:street" v="River Hills Road"/><tag k="addr:housenumber" v="604"/><tag k="coa:place_id" v="162949"/></node><node id="-599" lat="30.327573" lon="-97.878997" changeset="false"><tag k="addr:street" v="Commons Ford Ranch Park Road,1100"/><tag k="addr:housenumber" v="291"/><tag k="coa:place_id" v="1117308"/></node><node id="-600" lat="30.327174" lon="-97.875878" changeset="false"><tag k="addr:street" v="Woodlake Trail"/><tag k="addr:housenumber" v="9906"/><tag k="coa:place_id" v="792771"/></node><node id="-601" lat="30.325758" lon="-97.865999" changeset="false"><tag k="addr:street" v="Stallion Drive"/><tag k="addr:housenumber" v="9302"/><tag k="coa:place_id" v="669700"/></node><node id="-602" lat="30.346325" lon="-97.857872" changeset="false"><tag k="addr:street" v="De Soto Drive"/><tag k="addr:housenumber" v="2601"/><tag k="coa:place_id" v="90023"/></node><node id="-603" lat="30.330174" lon="-97.858588" changeset="false"><tag k="addr:street" v="Marly Way,1100"/><tag k="addr:housenumber" v="1000"/><tag k="coa:place_id" v="3224817"/></node><node id="-604" lat="30.332694" lon="-97.858018" changeset="false"><tag k="addr:street" v="Marly Way,1100"/><tag k="addr:housenumber" v="1116"/><tag k="coa:place_id" v="3224823"/></node><node id="-605" lat="30.330201" lon="-97.856887" changeset="false"><tag k="addr:street" v="Camelback Drive"/><tag k="addr:housenumber" v="9200"/><tag k="coa:place_id" v="3224811"/></node><node id="-606" lat="30.33458" lon="-97.861227" changeset="false"><tag k="addr:street" v="Olympus Drive"/><tag k="addr:housenumber" v="1306"/><tag k="coa:place_id" v="90475"/></node><node id="-607" lat="30.334357" lon="-97.859667" changeset="false"><tag k="addr:street" v="Tiber Circle"/><tag k="addr:housenumber" v="9306"/><tag k="coa:place_id" v="728536"/></node><node id="-608" lat="30.335352" lon="-97.864441" changeset="false"><tag k="addr:street" v="Canyon Edge Drive"/><tag k="addr:housenumber" v="1207"/><tag k="coa:place_id" v="90565"/></node><node id="-609" lat="30.323591" lon="-97.857349" changeset="false"><tag k="addr:street" v="Brandon Way"/><tag k="addr:housenumber" v="330"/><tag k="coa:place_id" v="3225083"/></node><node id="-610" lat="30.323518" lon="-97.861803" changeset="false"><tag k="addr:street" v="Marly Way,1100"/><tag k="addr:housenumber" v="201"/><tag k="coa:place_id" v="3225095"/></node><node id="-611" lat="30.324155" lon="-97.861775" changeset="false"><tag k="addr:street" v="Marly Way,1100"/><tag k="addr:housenumber" v="213"/><tag k="coa:place_id" v="3225096"/></node><node id="-612" lat="30.324843" lon="-97.869161" changeset="false"><tag k="addr:street" v="Tumbleweed Trail North,1100"/><tag k="addr:housenumber" v="124"/><tag k="coa:place_id" v="89282"/></node><node id="-613" lat="30.324845" lon="-97.871849" changeset="false"><tag k="addr:street" v="Tumbleweed Trail North,1100"/><tag k="addr:housenumber" v="100"/><tag k="coa:place_id" v="3029656"/></node><node id="-614" lat="30.345159" lon="-97.859738" changeset="false"><tag k="addr:street" v="San Juan Drive"/><tag k="addr:housenumber" v="2306"/><tag k="coa:place_id" v="85810"/></node><node id="-615" lat="30.345161" lon="-97.859809" changeset="false"><tag k="addr:street" v="Saugus Lane"/><tag k="addr:housenumber" v="9701"/><tag k="coa:place_id" v="196196"/></node><node id="-616" lat="30.327303" lon="-97.875399" changeset="false"><tag k="addr:street" v="Lake Hills Drive North,1100"/><tag k="addr:housenumber" v="111"/><tag k="coa:place_id" v="623463"/></node><node id="-617" lat="30.32724" lon="-97.875359" changeset="false"><tag k="addr:street" v="Woodlake Trail"/><tag k="addr:housenumber" v="9907"/><tag k="coa:place_id" v="89788"/></node></osm>