<?xml version="1.0" encoding="UTF-8"?><osm version="0.6" generator="github.com/aaronlidman/osm-and-geojson"><node id="-1" lat="30.291667" lon="-97.730501" changeset="false"><tag k="addr:street" v="Sparks Avenue"/><tag k="addr:housenumber" v="712 1/2"/><tag k="coa:place_id" v="1163250"/></node><node id="-2" lat="30.296092" lon="-97.731305" changeset="false"><tag k="addr:street" v="Duval Street"/><tag k="addr:housenumber" v="3401"/><tag k="coa:place_id" v="545919"/></node><node id="-3" lat="30.295611" lon="-97.731306" changeset="false"><tag k="addr:street" v="Duval Street"/><tag k="addr:housenumber" v="3303"/><tag k="coa:place_id" v="131498"/></node><node id="-4" lat="30.291568" lon="-97.733276" changeset="false"><tag k="addr:street" v="Bellevue Place"/><tag k="addr:housenumber" v="508 1/2"/><tag k="coa:place_id" v="94238"/></node><node id="-5" lat="30.289976" lon="-97.73378" changeset="false"><tag k="addr:street" v="Park Place"/><tag k="addr:housenumber" v="606"/><tag k="coa:place_id" v="248723"/></node><node id="-6" lat="30.296577" lon="-97.728023" changeset="false"><tag k="addr:street" v="Texas Avenue"/><tag k="addr:housenumber" v="709 1/2"/><tag k="coa:place_id" v="132200"/></node><node id="-7" lat="30.297859" lon="-97.728652" changeset="false"><tag k="addr:street" v="East 38th Street"/><tag k="addr:housenumber" v="605"/><tag k="coa:place_id" v="132422"/></node><node id="-8" lat="30.293298" lon="-97.730703" changeset="false"><tag k="addr:street" v="Harris Park Avenue"/><tag k="addr:housenumber" v="3205 1/2"/><tag k="coa:place_id" v="68926"/></node><node id="-9" lat="30.290388" lon="-97.732843" changeset="false"><tag k="addr:street" v="Elmwood Place"/><tag k="addr:housenumber" v="608 1/2"/><tag k="coa:place_id" v="93770"/></node><node id="-10" lat="30.289602" lon="-97.73335" changeset="false"><tag k="addr:street" v="Park Place"/><tag k="addr:housenumber" v="612 1/2"/><tag k="coa:place_id" v="966926"/></node><node id="-11" lat="30.296521" lon="-97.73076" changeset="false"><tag k="addr:street" v="Carolyn Avenue"/><tag k="addr:housenumber" v="503"/><tag k="coa:place_id" v="209849"/></node><node id="-12" lat="30.294583" lon="-97.728024" changeset="false"><tag k="addr:street" v="Harris Avenue,1100"/><tag k="addr:housenumber" v="722"/><tag k="coa:place_id" v="5055541"/></node><node id="-13" lat="30.291554" lon="-97.731702" changeset="false"><tag k="addr:street" v="Harris Park Avenue"/><tag k="addr:housenumber" v="3013"/><tag k="coa:place_id" v="94316"/></node><node id="-14" lat="30.292767" lon="-97.729417" changeset="false"><tag k="addr:street" v="Fairfax Walk"/><tag k="addr:housenumber" v="3203"/><tag k="coa:place_id" v="1159139"/></node><node id="-15" lat="30.293265" lon="-97.729714" changeset="false"><tag k="addr:street" v="Fairfax Walk"/><tag k="addr:housenumber" v="3210 1/2"/><tag k="coa:place_id" v="94604"/></node><node id="-16" lat="30.291062" lon="-97.732001" changeset="false"><tag k="addr:street" v="Harris Park Avenue"/><tag k="addr:housenumber" v="3001"/><tag k="coa:place_id" v="94154"/></node><node id="-17" lat="30.296524" lon="-97.728049" changeset="false"><tag k="addr:street" v="Texas Avenue"/><tag k="addr:housenumber" v="709"/><tag k="coa:place_id" v="132206"/></node><node id="-18" lat="30.295364" lon="-97.73037" changeset="false"><tag k="addr:street" v="Harris Avenue,1100"/><tag k="addr:housenumber" v="603 1/2"/><tag k="coa:place_id" v="131558"/></node><node id="-19" lat="30.296749" lon="-97.730884" changeset="false"><tag k="addr:street" v="Carolyn Avenue"/><tag k="addr:housenumber" v="501 1/2"/><tag k="coa:place_id" v="131882"/></node><node id="-20" lat="30.298272" lon="-97.729487" changeset="false"><tag k="addr:street" v="East 38th Street"/><tag k="addr:housenumber" v="505"/><tag k="coa:place_id" v="540358"/></node><node id="-21" lat="30.294652" lon="-97.72812" changeset="false"><tag k="addr:street" v="Harris Avenue,1100"/><tag k="addr:housenumber" v="720"/><tag k="coa:place_id" v="3267172"/></node><node id="-22" lat="30.293637" lon="-97.731518" changeset="false"><tag k="addr:street" v="Liberty Street"/><tag k="addr:housenumber" v="3205"/><tag k="coa:place_id" v="5112893"/></node><node id="-23" lat="30.296466" lon="-97.729507" changeset="false"><tag k="addr:street" v="Carolyn Avenue"/><tag k="addr:housenumber" v="604"/><tag k="coa:place_id" v="132020"/></node><node id="-24" lat="30.296029" lon="-97.730501" changeset="false"><tag k="addr:street" v="Liberty Street"/><tag k="addr:housenumber" v="3404"/><tag k="coa:place_id" v="131846"/></node><node id="-25" lat="30.294118" lon="-97.729795" changeset="false"><tag k="addr:street" v="Landon Lane"/><tag k="addr:housenumber" v="704 1/2"/><tag k="coa:place_id" v="94808"/></node><node id="-26" lat="30.291799" lon="-97.729267" changeset="false"><tag k="addr:street" v="East 32nd Street"/><tag k="addr:housenumber" v="725"/><tag k="coa:place_id" v="94574"/></node><node id="-27" lat="30.297715" lon="-97.728124" changeset="false"><tag k="addr:street" v="East 38th Street"/><tag k="addr:housenumber" v="701"/><tag k="coa:place_id" v="132446"/></node><node id="-28" lat="30.293758" lon="-97.731423" changeset="false"><tag k="addr:street" v="Liberty Street"/><tag k="addr:housenumber" v="3207"/><tag k="coa:place_id" v="5108600"/></node><node id="-29" lat="30.290683" lon="-97.73435" changeset="false"><tag k="addr:street" v="San Jacinto Boulevard"/><tag k="addr:housenumber" v="2803 1/2"/><tag k="coa:place_id" v="5120292"/></node><node id="-30" lat="30.289551" lon="-97.733306" changeset="false"><tag k="addr:street" v="Harris Park Avenue"/><tag k="addr:housenumber" v="2804"/><tag k="coa:place_id" v="93548"/></node><node id="-31" lat="30.289001" lon="-97.734308" changeset="false"><tag k="addr:street" v="East Dean Keeton Street"/><tag k="addr:housenumber" v="411"/><tag k="coa:place_id" v="677704"/></node><node id="-32" lat="30.295722" lon="-97.731195" changeset="false"><tag k="addr:street" v="Harris Avenue,1100"/><tag k="addr:housenumber" v="505"/><tag k="coa:place_id" v="131516"/></node><node id="-33" lat="30.291354" lon="-97.731879" changeset="false"><tag k="addr:street" v="Harris Park Avenue"/><tag k="addr:housenumber" v="3011"/><tag k="coa:place_id" v="94334"/></node><node id="-34" lat="30.290647" lon="-97.732645" changeset="false"><tag k="addr:street" v="Harris Park Avenue"/><tag k="addr:housenumber" v="2906"/><tag k="coa:place_id" v="94142"/></node><node id="-35" lat="30.297068" lon="-97.730647" changeset="false"><tag k="addr:street" v="Duval Street"/><tag k="addr:housenumber" v="3403"/><tag k="coa:place_id" v="131870"/></node><node id="-36" lat="30.29343" lon="-97.730634" changeset="false"><tag k="addr:street" v="Harris Park Avenue"/><tag k="addr:housenumber" v="3207 1/2"/><tag k="coa:place_id" v="94682"/></node><node id="-37" lat="30.291778" lon="-97.730118" changeset="false"><tag k="addr:street" v="Sparks Avenue"/><tag k="addr:housenumber" v="716"/><tag k="coa:place_id" v="1146887"/></node><node id="-38" lat="30.291462" lon="-97.730966" changeset="false"><tag k="addr:street" v="Sparks Avenue"/><tag k="addr:housenumber" v="709"/><tag k="coa:place_id" v="449367"/></node><node id="-39" lat="30.289549" lon="-97.734276" changeset="false"><tag k="addr:street" v="San Jacinto Boulevard"/><tag k="addr:housenumber" v="2601"/><tag k="coa:place_id" v="515348"/></node><node id="-40" lat="30.294754" lon="-97.728252" changeset="false"><tag k="addr:street" v="Harris Avenue,1100"/><tag k="addr:housenumber" v="718"/><tag k="coa:place_id" v="131672"/></node><node id="-41" lat="30.292935" lon="-97.729406" changeset="false"><tag k="addr:street" v="Fairfax Walk"/><tag k="addr:housenumber" v="3207"/><tag k="coa:place_id" v="1159140"/></node><node id="-42" lat="30.296101" lon="-97.728654" changeset="false"><tag k="addr:street" v="Carolyn Avenue"/><tag k="addr:housenumber" v="706"/><tag k="coa:place_id" v="131984"/></node><node id="-43" lat="30.296069" lon="-97.728525" changeset="false"><tag k="addr:street" v="Carolyn Avenue"/><tag k="addr:housenumber" v="704"/><tag k="coa:place_id" v="131990"/></node><node id="-44" lat="30.297228" lon="-97.728706" changeset="false"><tag k="addr:street" v="Texas Avenue"/><tag k="addr:housenumber" v="608"/><tag k="coa:place_id" v="132278"/></node><node id="-45" lat="30.297226" lon="-97.728677" changeset="false"><tag k="addr:street" v="Montrose Street"/><tag k="addr:housenumber" v="3702"/><tag k="coa:place_id" v="132272"/></node><node id="-46" lat="30.29475" lon="-97.729367" changeset="false"><tag k="addr:street" v="Harris Avenue,1100"/><tag k="addr:housenumber" v="705 1/2"/><tag k="coa:place_id" v="131612"/></node><node id="-47" lat="30.294799" lon="-97.729364" changeset="false"><tag k="addr:street" v="Harris Avenue,1100"/><tag k="addr:housenumber" v="705"/><tag k="coa:place_id" v="131606"/></node><node id="-48" lat="30.294738" lon="-97.72921" changeset="false"><tag k="addr:street" v="Harris Avenue,1100"/><tag k="addr:housenumber" v="707"/><tag k="coa:place_id" v="246035"/></node><node id="-49" lat="30.294709" lon="-97.729264" changeset="false"><tag k="addr:street" v="Harris Avenue,1100"/><tag k="addr:housenumber" v="707 1/2"/><tag k="coa:place_id" v="131624"/></node><node id="-50" lat="30.297464" lon="-97.73021" changeset="false"><tag k="addr:street" v="Texas Avenue"/><tag k="addr:housenumber" v="503"/><tag k="coa:place_id" v="251385"/></node><node id="-51" lat="30.297447" lon="-97.730177" changeset="false"><tag k="addr:street" v="Texas Avenue"/><tag k="addr:housenumber" v="505"/><tag k="coa:place_id" v="251387"/></node><node id="-52" lat="30.298314" lon="-97.729787" changeset="false"><tag k="addr:street" v="Duval Street"/><tag k="addr:housenumber" v="3709"/><tag k="coa:place_id" v="132380"/></node><node id="-53" lat="30.298398" lon="-97.729725" changeset="false"><tag k="addr:street" v="Duval Street"/><tag k="addr:housenumber" v="3711"/><tag k="coa:place_id" v="132386"/></node><node id="-54" lat="30.295568" lon="-97.729742" changeset="false"><tag k="addr:street" v="Montrose Street"/><tag k="addr:housenumber" v="3400"/><tag k="coa:place_id" v="131780"/></node><node id="-55" lat="30.295476" lon="-97.729824" changeset="false"><tag k="addr:street" v="Harris Avenue,1100"/><tag k="addr:housenumber" v="608"/><tag k="coa:place_id" v="246030"/></node><node id="-56" lat="30.295889" lon="-97.729547" changeset="false"><tag k="addr:street" v="Montrose Street"/><tag k="addr:housenumber" v="3408"/><tag k="coa:place_id" v="131768"/></node><node id="-57" lat="30.295971" lon="-97.729521" changeset="false"><tag k="addr:street" v="Carolyn Avenue"/><tag k="addr:housenumber" v="609"/><tag k="coa:place_id" v="131918"/></node><node id="-58" lat="30.297233" lon="-97.730549" changeset="false"><tag k="addr:street" v="Duval Street"/><tag k="addr:housenumber" v="3407"/><tag k="coa:place_id" v="132044"/></node><node id="-59" lat="30.297223" lon="-97.730483" changeset="false"><tag k="addr:street" v="Duval Street"/><tag k="addr:housenumber" v="3409"/><tag k="coa:place_id" v="132050"/></node><node id="-60" lat="30.297146" lon="-97.730585" changeset="false"><tag k="addr:street" v="Duval Street"/><tag k="addr:housenumber" v="3405"/><tag k="coa:place_id" v="132038"/></node><node id="-61" lat="30.295805" lon="-97.731356" changeset="false"><tag k="addr:street" v="Harris Avenue,1100"/><tag k="addr:housenumber" v="501"/><tag k="coa:place_id" v="131510"/></node><node id="-62" lat="30.295781" lon="-97.731393" changeset="false"><tag k="addr:street" v="Duval Street"/><tag k="addr:housenumber" v="3305"/><tag k="coa:place_id" v="244867"/></node><node id="-63" lat="30.29276" lon="-97.73026" changeset="false"><tag k="addr:street" v="Fairfax Walk"/><tag k="addr:housenumber" v="3200"/><tag k="coa:place_id" v="1161452"/></node><node id="-64" lat="30.292718" lon="-97.730198" changeset="false"><tag k="addr:street" v="East 32nd Street"/><tag k="addr:housenumber" v="708"/><tag k="coa:place_id" v="94646"/></node><node id="-65" lat="30.2921" lon="-97.731129" changeset="false"><tag k="addr:street" v="Sparks Avenue"/><tag k="addr:housenumber" v="702"/><tag k="coa:place_id" v="3078423"/></node><node id="-66" lat="30.292047" lon="-97.731036" changeset="false"><tag k="addr:street" v="Sparks Avenue"/><tag k="addr:housenumber" v="704"/><tag k="coa:place_id" v="94436"/></node></osm>