<?xml version="1.0" encoding="UTF-8"?><osm version="0.6" generator="github.com/aaronlidman/osm-and-geojson"><node id="-1" lat="30.262934" lon="-97.812754" changeset="false"><tag k="addr:street" v="Tarlton Lane,1100"/><tag k="addr:housenumber" v="3410"/></node><node id="-2" lat="30.263189" lon="-97.809626" changeset="false"><tag k="addr:street" v="Tarlton Cove"/><tag k="addr:housenumber" v="2201"/></node><node id="-3" lat="30.269266" lon="-97.816008" changeset="false"><tag k="addr:street" v="Stoneridge Terrace"/><tag k="addr:housenumber" v="1910"/></node><node id="-4" lat="30.266126" lon="-97.80962" changeset="false"><tag k="addr:street" v="Stoneridge Road"/><tag k="addr:housenumber" v="3304"/></node><node id="-5" lat="30.266945" lon="-97.808169" changeset="false"><tag k="addr:street" v="Texas Star Lane"/><tag k="addr:housenumber" v="3316"/></node><node id="-6" lat="30.267514" lon="-97.814633" changeset="false"><tag k="addr:street" v="Stoneridge Terrace"/><tag k="addr:housenumber" v="2015"/></node><node id="-7" lat="30.266573" lon="-97.808134" changeset="false"><tag k="addr:street" v="Texas Star Lane"/><tag k="addr:housenumber" v="3313"/></node><node id="-8" lat="30.263148" lon="-97.809344" changeset="false"><tag k="addr:street" v="Tarlton Cove"/><tag k="addr:housenumber" v="2215"/></node><node id="-9" lat="30.265066" lon="-97.808294" changeset="false"><tag k="addr:street" v="Cetona Court"/><tag k="addr:housenumber" v="1916"/></node><node id="-10" lat="30.263132" lon="-97.81218" changeset="false"><tag k="addr:street" v="Tarlton Lane,1100"/><tag k="addr:housenumber" v="3406"/></node><node id="-11" lat="30.271289" lon="-97.810707" changeset="false"><tag k="addr:street" v="Pinnacle Road"/><tag k="addr:housenumber" v="3602"/></node><node id="-12" lat="30.272195" lon="-97.815037" changeset="false"><tag k="addr:street" v="Easy Street"/><tag k="addr:housenumber" v="1508"/></node><node id="-13" lat="30.265766" lon="-97.812969" changeset="false"><tag k="addr:street" v="Stoneridge Road"/><tag k="addr:housenumber" v="3607"/></node><node id="-14" lat="30.264534" lon="-97.817026" changeset="false"><tag k="addr:street" v="Capital of Texas Highway"/><tag k="addr:housenumber" v="2323"/></node><node id="-15" lat="30.270423" lon="-97.817237" changeset="false"><tag k="addr:street" v="Capital of Texas Highway"/><tag k="addr:housenumber" v="1811"/></node><node id="-16" lat="30.265385" lon="-97.807441" changeset="false"><tag k="addr:street" v="Cetona Court"/><tag k="addr:housenumber" v="1901"/></node><node id="-17" lat="30.265785" lon="-97.807806" changeset="false"><tag k="addr:street" v="Cetona Court"/><tag k="addr:housenumber" v="1902"/></node><node id="-18" lat="30.262317" lon="-97.812429" changeset="false"><tag k="addr:street" v="Tarlton Lane,1100"/><tag k="addr:housenumber" v="3414"/></node><node id="-19" lat="30.262397" lon="-97.811914" changeset="false"><tag k="addr:street" v="Tarlton Lane,1100"/><tag k="addr:housenumber" v="3416"/></node><node id="-20" lat="30.265749" lon="-97.808693" changeset="false"><tag k="addr:street" v="Stoneridge Road"/><tag k="addr:housenumber" v="3300"/></node><node id="-21" lat="30.260729" lon="-97.810339" changeset="false"><tag k="addr:street" v="Walsh Tarlton Lane"/><tag k="addr:housenumber" v="2500"/></node><node id="-22" lat="30.260238" lon="-97.8105" changeset="false"><tag k="addr:street" v="Walsh Tarlton Lane"/><tag k="addr:housenumber" v="2520"/></node><node id="-23" lat="30.259628" lon="-97.810838" changeset="false"><tag k="addr:street" v="Walsh Tarlton Lane"/><tag k="addr:housenumber" v="2530"/></node><node id="-24" lat="30.264888" lon="-97.815213" changeset="false"><tag k="addr:street" v="Stoneridge Road"/><tag k="addr:housenumber" v="3667"/></node><node id="-25" lat="30.264851" lon="-97.81725" changeset="false"><tag k="addr:street" v="Capital of Texas Highway"/><tag k="addr:housenumber" v="2203"/></node><node id="-26" lat="30.270417" lon="-97.809871" changeset="false"><tag k="addr:street" v="Pinnacle Road"/><tag k="addr:housenumber" v="3518"/></node><node id="-27" lat="30.262621" lon="-97.814718" changeset="false"><tag k="addr:street" v="Capital of Texas Highway"/><tag k="addr:housenumber" v="2501"/></node><node id="-28" lat="30.262554" lon="-97.812708" changeset="false"><tag k="addr:street" v="Tarlton Lane,1100"/><tag k="addr:housenumber" v="3412"/></node><node id="-29" lat="30.266074" lon="-97.817161" changeset="false"><tag k="addr:street" v="Capital of Texas Highway"/><tag k="addr:housenumber" v="2301"/></node><node id="-30" lat="30.267752" lon="-97.815097" changeset="false"><tag k="addr:street" v="Stoneridge Terrace"/><tag k="addr:housenumber" v="2011"/></node><node id="-31" lat="30.265098" lon="-97.81081" changeset="false"><tag k="addr:street" v="Stoneridge Road"/><tag k="addr:housenumber" v="3411"/></node><node id="-32" lat="30.267743" lon="-97.817589" changeset="false"><tag k="addr:street" v="Capital of Texas Highway"/><tag k="addr:housenumber" v="2009"/></node><node id="-33" lat="30.271834" lon="-97.812192" changeset="false"><tag k="addr:street" v="Pinnacle Road"/><tag k="addr:housenumber" v="3607"/></node><node id="-34" lat="30.266269" lon="-97.806431" changeset="false"><tag k="addr:street" v="Texas Star Lane"/><tag k="addr:housenumber" v="3300"/></node><node id="-35" lat="30.271402" lon="-97.814978" changeset="false"><tag k="addr:street" v="Easy Street"/><tag k="addr:housenumber" v="1603"/></node><node id="-36" lat="30.266982" lon="-97.815219" changeset="false"><tag k="addr:street" v="Stoneridge Road"/><tag k="addr:housenumber" v="3634"/></node><node id="-37" lat="30.262825" lon="-97.815302" changeset="false"><tag k="addr:street" v="Capital of Texas Highway"/><tag k="addr:housenumber" v="2499"/></node><node id="-38" lat="30.27143" lon="-97.814295" changeset="false"><tag k="addr:street" v="Easy Street"/><tag k="addr:housenumber" v="1509"/></node><node id="-39" lat="30.269162" lon="-97.817412" changeset="false"><tag k="addr:street" v="Capital of Texas Highway"/><tag k="addr:housenumber" v="1905 1/2"/></node><node id="-40" lat="30.265418" lon="-97.807976" changeset="false"><tag k="addr:street" v="Cetona Court"/><tag k="addr:housenumber" v="1908"/></node><node id="-41" lat="30.271469" lon="-97.816" changeset="false"><tag k="addr:street" v="Easy Street"/><tag k="addr:housenumber" v="1602"/></node><node id="-42" lat="30.274805" lon="-97.81654" changeset="false"><tag k="addr:street" v="Camp Craft Road"/><tag k="addr:housenumber" v="1400"/></node><node id="-43" lat="30.27381" lon="-97.816755" changeset="false"><tag k="addr:street" v="Camp Craft Road"/><tag k="addr:housenumber" v="1500"/></node><node id="-44" lat="30.272348" lon="-97.813136" changeset="false"><tag k="addr:street" v="Allen Road"/><tag k="addr:housenumber" v="1409"/></node><node id="-45" lat="30.270876" lon="-97.817179" changeset="false"><tag k="addr:street" v="Capital of Texas Highway"/><tag k="addr:housenumber" v="1801"/></node><node id="-46" lat="30.272503" lon="-97.815878" changeset="false"><tag k="addr:street" v="Camp Craft Road"/><tag k="addr:housenumber" v="1513"/></node><node id="-47" lat="30.272085" lon="-97.815584" changeset="false"><tag k="addr:street" v="Easy Street"/><tag k="addr:housenumber" v="1600"/></node><node id="-48" lat="30.266062" lon="-97.806904" changeset="false"><tag k="addr:street" v="Texas Star Lane"/><tag k="addr:housenumber" v="3301"/></node><node id="-49" lat="30.273562" lon="-97.812107" changeset="false"><tag k="addr:street" v="Allen Road"/><tag k="addr:housenumber" v="1303"/></node><node id="-50" lat="30.261018" lon="-97.809935" changeset="false"><tag k="addr:street" v="Walsh Tarlton Lane"/><tag k="addr:housenumber" v="2400"/></node><node id="-51" lat="30.26529" lon="-97.816312" changeset="false"><tag k="addr:street" v="Stoneridge Road"/><tag k="addr:housenumber" v="3660"/></node><node id="-52" lat="30.263863" lon="-97.814803" changeset="false"><tag k="addr:street" v="Capital of Texas Highway"/><tag k="addr:housenumber" v="2451"/></node><node id="-53" lat="30.272868" lon="-97.815236" changeset="false"><tag k="addr:street" v="Allen Road"/><tag k="addr:housenumber" v="1433"/></node><node id="-54" lat="30.264808" lon="-97.810149" changeset="false"><tag k="addr:street" v="Stoneridge Road"/><tag k="addr:housenumber" v="3301"/></node><node id="-55" lat="30.26128" lon="-97.809767" changeset="false"><tag k="addr:street" v="Walsh Tarlton Lane"/><tag k="addr:housenumber" v="2300"/></node><node id="-56" lat="30.26145" lon="-97.813601" changeset="false"><tag k="addr:street" v="Capital of Texas Highway"/><tag k="addr:housenumber" v="2631"/></node><node id="-57" lat="30.263051" lon="-97.810455" changeset="false"><tag k="addr:street" v="Tarlton Cove"/><tag k="addr:housenumber" v="2204"/></node><node id="-58" lat="30.275339" lon="-97.815465" changeset="false"><tag k="addr:street" v="Westbank Drive"/><tag k="addr:housenumber" v="1353"/></node><node id="-59" lat="30.275886" lon="-97.816484" changeset="false"><tag k="addr:street" v="Westbank Drive"/><tag k="addr:housenumber" v="4203"/></node><node id="-60" lat="30.264459" lon="-97.807673" changeset="false"><tag k="addr:street" v="Stoneridge Road"/><tag k="addr:housenumber" v="3200 1/2"/></node><node id="-61" lat="30.263248" lon="-97.808847" changeset="false"><tag k="addr:street" v="Tarlton Cove"/><tag k="addr:housenumber" v="2219"/></node><node id="-62" lat="30.272674" lon="-97.815749" changeset="false"><tag k="addr:street" v="Camp Craft Road"/><tag k="addr:housenumber" v="1511"/></node><node id="-63" lat="30.273041" lon="-97.811359" changeset="false"><tag k="addr:street" v="Pinnacle Road"/><tag k="addr:housenumber" v="3623"/></node><node id="-64" lat="30.258968" lon="-97.811636" changeset="false"><tag k="addr:street" v="Walsh Tarlton Lane"/><tag k="addr:housenumber" v="2614"/></node><node id="-65" lat="30.273572" lon="-97.815818" changeset="false"><tag k="addr:street" v="Allen Road"/><tag k="addr:housenumber" v="1504"/></node><node id="-66" lat="30.273219" lon="-97.815915" changeset="false"><tag k="addr:street" v="Allen Road"/><tag k="addr:housenumber" v="1505"/></node><node id="-67" lat="30.271327" lon="-97.814672" changeset="false"><tag k="addr:street" v="Easy Street"/><tag k="addr:housenumber" v="1601"/></node><node id="-68" lat="30.267769" lon="-97.810665" changeset="false"><tag k="addr:street" v="Rain Forest Drive"/><tag k="addr:housenumber" v="3418"/></node><node id="-69" lat="30.269269" lon="-97.817404" changeset="false"><tag k="addr:street" v="Capital of Texas Highway"/><tag k="addr:housenumber" v="1905"/></node><node id="-70" lat="30.27258" lon="-97.814735" changeset="false"><tag k="addr:street" v="Easy Street"/><tag k="addr:housenumber" v="1500"/></node><node id="-71" lat="30.276001" lon="-97.81718" changeset="false"><tag k="addr:street" v="Westbank Drive"/><tag k="addr:housenumber" v="4301"/></node><node id="-72" lat="30.269629" lon="-97.815165" changeset="false"><tag k="addr:street" v="Stoneridge Terrace"/><tag k="addr:housenumber" v="1700"/></node><node id="-73" lat="30.267056" lon="-97.808925" changeset="false"><tag k="addr:street" v="Barn Swallow Drive"/><tag k="addr:housenumber" v="1713"/></node><node id="-74" lat="30.26701" lon="-97.807738" changeset="false"><tag k="addr:street" v="Texas Star Lane"/><tag k="addr:housenumber" v="3312"/></node><node id="-75" lat="30.275346" lon="-97.81567" changeset="false"><tag k="addr:street" v="Westbank Drive"/><tag k="addr:housenumber" v="4103"/></node><node id="-76" lat="30.275378" lon="-97.815754" changeset="false"><tag k="addr:street" v="Westbank Drive"/><tag k="addr:housenumber" v="4105"/></node><node id="-77" lat="30.265569" lon="-97.807841" changeset="false"><tag k="addr:street" v="Cetona Court"/><tag k="addr:housenumber" v="1904 1/2"/></node><node id="-78" lat="30.26559" lon="-97.807868" changeset="false"><tag k="addr:street" v="Cetona Court"/><tag k="addr:housenumber" v="1904"/></node></osm>