<?xml version="1.0" encoding="UTF-8"?><osm version="0.6" generator="github.com/aaronlidman/osm-and-geojson"><node id="-1" lat="30.238119" lon="-97.587482" changeset="false"><tag k="addr:street" v="Highsmith Street"/><tag k="addr:housenumber" v="14409"/></node><node id="-2" lat="30.25697" lon="-97.633379" changeset="false"><tag k="addr:street" v="Lorado Drive"/><tag k="addr:housenumber" v="10001"/></node><node id="-3" lat="30.261842" lon="-97.630302" changeset="false"><tag k="addr:street" v="Kings Court"/><tag k="addr:housenumber" v="4209"/></node><node id="-4" lat="30.26303" lon="-97.628586" changeset="false"><tag k="addr:street" v="Imperial Drive,1100"/><tag k="addr:housenumber" v="4501"/></node><node id="-5" lat="30.262826" lon="-97.627099" changeset="false"><tag k="addr:street" v="Aristocrat Drive"/><tag k="addr:housenumber" v="4505"/></node><node id="-6" lat="30.262145" lon="-97.627623" changeset="false"><tag k="addr:street" v="Hermes Drive"/><tag k="addr:housenumber" v="10105"/></node><node id="-7" lat="30.23873" lon="-97.575798" changeset="false"><tag k="addr:street" v="Truth Way"/><tag k="addr:housenumber" v="4512"/></node><node id="-8" lat="30.261519" lon="-97.630719" changeset="false"><tag k="addr:street" v="Kings Court"/><tag k="addr:housenumber" v="4206"/></node><node id="-9" lat="30.266171" lon="-97.625601" changeset="false"><tag k="addr:street" v="Imperial Drive,1100"/><tag k="addr:housenumber" v="4801"/></node><node id="-10" lat="30.258788" lon="-97.631026" changeset="false"><tag k="addr:street" v="Veldt Drive"/><tag k="addr:housenumber" v="4001"/></node><node id="-11" lat="30.237635" lon="-97.588164" changeset="false"><tag k="addr:street" v="Varrelman Street"/><tag k="addr:housenumber" v="14405"/></node><node id="-12" lat="30.237568" lon="-97.589663" changeset="false"><tag k="addr:street" v="Sandifer Street"/><tag k="addr:housenumber" v="14301"/></node><node id="-13" lat="30.227557" lon="-97.591106" changeset="false"><tag k="addr:street" v="Caleb Drive"/><tag k="addr:housenumber" v="2906"/></node><node id="-14" lat="30.232621" lon="-97.587866" changeset="false"><tag k="addr:street" v="Deaf Smith Boulevard"/><tag k="addr:housenumber" v="14700"/></node><node id="-15" lat="30.232336" lon="-97.587301" changeset="false"><tag k="addr:street" v="Deaf Smith Boulevard"/><tag k="addr:housenumber" v="14708"/></node><node id="-16" lat="30.239952" lon="-97.574058" changeset="false"><tag k="addr:street" v="Inicio Lane"/><tag k="addr:housenumber" v="4616"/></node><node id="-17" lat="30.240675" lon="-97.58713" changeset="false"><tag k="addr:street" v="Sarah Ann Drive"/><tag k="addr:housenumber" v="14304"/></node><node id="-18" lat="30.245764" lon="-97.584091" changeset="false"><tag k="addr:street" v="Fallenash Drive"/><tag k="addr:housenumber" v="4705"/></node><node id="-19" lat="30.244454" lon="-97.58457" changeset="false"><tag k="addr:street" v="Castleman Drive"/><tag k="addr:housenumber" v="4602"/></node><node id="-20" lat="30.243733" lon="-97.581601" changeset="false"><tag k="addr:street" v="Plain View Drive"/><tag k="addr:housenumber" v="14907"/></node><node id="-21" lat="30.225576" lon="-97.63126" changeset="false"><tag k="addr:street" v="Watermelon Way"/><tag k="addr:housenumber" v="1300"/></node><node id="-22" lat="30.231559" lon="-97.593944" changeset="false"><tag k="addr:street" v="Wickham Lane"/><tag k="addr:housenumber" v="3107"/></node><node id="-23" lat="30.239076" lon="-97.575045" changeset="false"><tag k="addr:street" v="Truth Way"/><tag k="addr:housenumber" v="4527"/></node><node id="-24" lat="30.23667" lon="-97.589955" changeset="false"><tag k="addr:street" v="Banda Lane"/><tag k="addr:housenumber" v="3514"/></node><node id="-25" lat="30.234784" lon="-97.5851" changeset="false"><tag k="addr:street" v="Crownover Street"/><tag k="addr:housenumber" v="3721"/></node><node id="-26" lat="30.23738" lon="-97.638169" changeset="false"><tag k="addr:street" v="Platt Lane"/><tag k="addr:housenumber" v="11340"/></node><node id="-27" lat="30.223609" lon="-97.627655" changeset="false"><tag k="addr:street" v="Garden Grove Drive"/><tag k="addr:housenumber" v="12004"/></node><node id="-28" lat="30.23783" lon="-97.588597" changeset="false"><tag k="addr:street" v="Varrelman Street"/><tag k="addr:housenumber" v="14309"/></node><node id="-29" lat="30.231141" lon="-97.623187" changeset="false"><tag k="addr:street" v="Harold Green Road"/><tag k="addr:housenumber" v="11900"/></node><node id="-30" lat="30.228598" lon="-97.614158" changeset="false"><tag k="addr:street" v="Harold Green Road"/><tag k="addr:housenumber" v="12900"/></node><node id="-31" lat="30.260629" lon="-97.631353" changeset="false"><tag k="addr:street" v="Lower Drive"/><tag k="addr:housenumber" v="4104"/></node><node id="-32" lat="30.238534" lon="-97.588299" changeset="false"><tag k="addr:street" v="Highsmith Street"/><tag k="addr:housenumber" v="14307"/></node><node id="-33" lat="30.246046" lon="-97.584036" changeset="false"><tag k="addr:street" v="Fallenash Drive"/><tag k="addr:housenumber" v="4709"/></node><node id="-34" lat="30.245302" lon="-97.584981" changeset="false"><tag k="addr:street" v="Fallenash Drive"/><tag k="addr:housenumber" v="4610"/></node><node id="-35" lat="30.232693" lon="-97.588009" changeset="false"><tag k="addr:street" v="Deaf Smith Boulevard"/><tag k="addr:housenumber" v="14610"/></node><node id="-36" lat="30.243854" lon="-97.581226" changeset="false"><tag k="addr:street" v="Clear View Drive"/><tag k="addr:housenumber" v="4801"/></node><node id="-37" lat="30.238526" lon="-97.586608" changeset="false"><tag k="addr:street" v="Rumfeldt Street"/><tag k="addr:housenumber" v="14503"/></node><node id="-38" lat="30.233628" lon="-97.585724" changeset="false"><tag k="addr:street" v="Crownover Street"/><tag k="addr:housenumber" v="3703"/></node><node id="-39" lat="30.240278" lon="-97.58715" changeset="false"><tag k="addr:street" v="Louise Lee Drive"/><tag k="addr:housenumber" v="4102"/></node><node id="-40" lat="30.234419" lon="-97.587719" changeset="false"><tag k="addr:street" v="Denehoe Cove"/><tag k="addr:housenumber" v="3700"/></node><node id="-41" lat="30.233981" lon="-97.588331" changeset="false"><tag k="addr:street" v="Fitzgibbon Drive"/><tag k="addr:housenumber" v="14515"/></node><node id="-42" lat="30.24606" lon="-97.583685" changeset="false"><tag k="addr:street" v="Castleman Drive"/><tag k="addr:housenumber" v="4710"/></node><node id="-43" lat="30.261008" lon="-97.631348" changeset="false"><tag k="addr:street" v="Imperial Drive,1100"/><tag k="addr:housenumber" v="4200"/></node><node id="-44" lat="30.238447" lon="-97.587341" changeset="false"><tag k="addr:street" v="Highsmith Street"/><tag k="addr:housenumber" v="14408"/></node><node id="-45" lat="30.234743" lon="-97.571055" changeset="false"><tag k="addr:street" v="Hunters Bend Road"/><tag k="addr:housenumber" v="15619"/></node><node id="-46" lat="30.237349" lon="-97.589251" changeset="false"><tag k="addr:street" v="Sandifer Street"/><tag k="addr:housenumber" v="14307"/></node><node id="-47" lat="30.221469" lon="-97.628162" changeset="false"><tag k="addr:street" v="Green Leaf Drive"/><tag k="addr:housenumber" v="12102"/></node><node id="-48" lat="30.23952" lon="-97.573367" changeset="false"><tag k="addr:street" v="Esper Lane"/><tag k="addr:housenumber" v="4614"/></node><node id="-49" lat="30.240321" lon="-97.575215" changeset="false"><tag k="addr:street" v="Graceful Lane"/><tag k="addr:housenumber" v="4613"/></node><node id="-50" lat="30.237204" lon="-97.572035" changeset="false"><tag k="addr:street" v="Credo Lane"/><tag k="addr:housenumber" v="4516"/></node><node id="-51" lat="30.237005" lon="-97.57163" changeset="false"><tag k="addr:street" v="Credo Lane"/><tag k="addr:housenumber" v="4517"/></node><node id="-52" lat="30.237754" lon="-97.57116" changeset="false"><tag k="addr:street" v="Credo Lane"/><tag k="addr:housenumber" v="4601"/></node><node id="-53" lat="30.226453" lon="-97.591025" changeset="false"><tag k="addr:street" v="Crownover Street"/><tag k="addr:housenumber" v="2708"/></node><node id="-54" lat="30.223792" lon="-97.632682" changeset="false"><tag k="addr:street" v="Farm-to-Market Road 973"/><tag k="addr:housenumber" v="1401"/></node><node id="-55" lat="30.258827" lon="-97.63214" changeset="false"><tag k="addr:street" v="Lower Drive"/><tag k="addr:housenumber" v="3907"/></node><node id="-56" lat="30.232316" lon="-97.591352" changeset="false"><tag k="addr:street" v="Etheredge Drive"/><tag k="addr:housenumber" v="3403"/></node><node id="-57" lat="30.221369" lon="-97.634212" changeset="false"><tag k="addr:street" v="Farm-to-Market Road 973"/><tag k="addr:housenumber" v="1501"/></node><node id="-58" lat="30.224571" lon="-97.63198" changeset="false"><tag k="addr:street" v="Farm-to-Market Road 973"/><tag k="addr:housenumber" v="1319"/></node><node id="-59" lat="30.209984" lon="-97.638004" changeset="false"><tag k="addr:street" v="Farm-to-Market Road 973"/><tag k="addr:housenumber" v="2801"/></node><node id="-60" lat="30.240091" lon="-97.57537" changeset="false"><tag k="addr:street" v="Graceful Lane"/><tag k="addr:housenumber" v="4607"/></node><node id="-61" lat="30.240242" lon="-97.575263" changeset="false"><tag k="addr:street" v="Graceful Lane"/><tag k="addr:housenumber" v="4611"/></node><node id="-62" lat="30.239524" lon="-97.574775" changeset="false"><tag k="addr:street" v="Truth Way"/><tag k="addr:housenumber" v="4601"/></node><node id="-63" lat="30.239754" lon="-97.575112" changeset="false"><tag k="addr:street" v="Truth Way"/><tag k="addr:housenumber" v="4602"/></node><node id="-64" lat="30.225349" lon="-97.626965" changeset="false"><tag k="addr:street" v="Garden Gate Drive"/><tag k="addr:housenumber" v="12000"/></node><node id="-65" lat="30.238446" lon="-97.571197" changeset="false"><tag k="addr:street" v="Credo Lane"/><tag k="addr:housenumber" v="4614"/></node><node id="-66" lat="30.238287" lon="-97.570798" changeset="false"><tag k="addr:street" v="Credo Lane"/><tag k="addr:housenumber" v="4615"/></node><node id="-67" lat="30.238446" lon="-97.570702" changeset="false"><tag k="addr:street" v="Credo Lane"/><tag k="addr:housenumber" v="4619"/></node><node id="-68" lat="30.23768" lon="-97.574047" changeset="false"><tag k="addr:street" v="Esper Lane"/><tag k="addr:housenumber" v="4507"/></node><node id="-69" lat="30.240606" lon="-97.574562" changeset="false"><tag k="addr:street" v="Truth Way"/><tag k="addr:housenumber" v="4624"/></node><node id="-70" lat="30.240672" lon="-97.574501" changeset="false"><tag k="addr:street" v="Truth Way"/><tag k="addr:housenumber" v="4626"/></node><node id="-71" lat="30.238704" lon="-97.580662" changeset="false"><tag k="addr:street" v="Parrish Lane"/><tag k="addr:housenumber" v="15010"/></node><node id="-72" lat="30.237937" lon="-97.572516" changeset="false"><tag k="addr:street" v="Senda Lane"/><tag k="addr:housenumber" v="4526"/></node><node id="-73" lat="30.23781" lon="-97.572058" changeset="false"><tag k="addr:street" v="Senda Lane"/><tag k="addr:housenumber" v="4529"/></node><node id="-74" lat="30.238421" lon="-97.572202" changeset="false"><tag k="addr:street" v="Senda Lane"/><tag k="addr:housenumber" v="4604"/></node><node id="-75" lat="30.239895" lon="-97.574534" changeset="false"><tag k="addr:street" v="Truth Way"/><tag k="addr:housenumber" v="4611"/></node><node id="-76" lat="30.220865" lon="-97.628529" changeset="false"><tag k="addr:street" v="Green Leaf Drive"/><tag k="addr:housenumber" v="12103"/></node><node id="-77" lat="30.240123" lon="-97.57341" changeset="false"><tag k="addr:street" v="Inicio Lane"/><tag k="addr:housenumber" v="4627"/></node><node id="-78" lat="30.239694" lon="-97.576128" changeset="false"><tag k="addr:street" v="Graceful Lane"/><tag k="addr:housenumber" v="4526"/></node><node id="-79" lat="30.232528" lon="-97.591229" changeset="false"><tag k="addr:street" v="Etheredge Drive"/><tag k="addr:housenumber" v="3407"/></node><node id="-80" lat="30.240864" lon="-97.586027" changeset="false"><tag k="addr:street" v="Hunters Bend Road"/><tag k="addr:housenumber" v="14383"/></node><node id="-81" lat="30.237907" lon="-97.569974" changeset="false"><tag k="addr:street" v="Best Way"/><tag k="addr:housenumber" v="4615 1/2"/></node><node id="-82" lat="30.238214" lon="-97.570857" changeset="false"><tag k="addr:street" v="Credo Lane"/><tag k="addr:housenumber" v="4613"/></node><node id="-83" lat="30.237405" lon="-97.573291" changeset="false"><tag k="addr:street" v="Kind Way"/><tag k="addr:housenumber" v="4511"/></node><node id="-84" lat="30.236625" lon="-97.571877" changeset="false"><tag k="addr:street" v="Credo Lane"/><tag k="addr:housenumber" v="4507"/></node><node id="-85" lat="30.23907" lon="-97.574642" changeset="false"><tag k="addr:street" v="Inicio Lane"/><tag k="addr:housenumber" v="4528"/></node><node id="-86" lat="30.238665" lon="-97.572451" changeset="false"><tag k="addr:street" v="Kind Way"/><tag k="addr:housenumber" v="4607"/></node><node id="-87" lat="30.238827" lon="-97.572342" changeset="false"><tag k="addr:street" v="Kind Way"/><tag k="addr:housenumber" v="4611"/></node><node id="-88" lat="30.240079" lon="-97.566639" changeset="false"><tag k="addr:street" v="Dunlap Road North,1100"/><tag k="addr:housenumber" v="4812"/></node><node id="-89" lat="30.236889" lon="-97.572221" changeset="false"><tag k="addr:street" v="Credo Lane"/><tag k="addr:housenumber" v="4508"/></node><node id="-90" lat="30.24042" lon="-97.578779" changeset="false"><tag k="addr:street" v="Halliday Avenue"/><tag k="addr:housenumber" v="4504"/></node><node id="-91" lat="30.239953" lon="-97.579565" changeset="false"><tag k="addr:street" v="Belfield Lane"/><tag k="addr:housenumber" v="4401"/></node><node id="-92" lat="30.239051" lon="-97.571795" changeset="false"><tag k="addr:street" v="Senda Lane"/><tag k="addr:housenumber" v="4620"/></node><node id="-93" lat="30.238861" lon="-97.571384" changeset="false"><tag k="addr:street" v="Senda Lane"/><tag k="addr:housenumber" v="4621"/></node><node id="-94" lat="30.239865" lon="-97.57552" changeset="false"><tag k="addr:street" v="Graceful Lane"/><tag k="addr:housenumber" v="4601"/></node><node id="-95" lat="30.238334" lon="-97.574584" changeset="false"><tag k="addr:street" v="Inicio Lane"/><tag k="addr:housenumber" v="4515"/></node><node id="-96" lat="30.238508" lon="-97.576399" changeset="false"><tag k="addr:street" v="Graceful Lane"/><tag k="addr:housenumber" v="4501"/></node><node id="-97" lat="30.238991" lon="-97.576571" changeset="false"><tag k="addr:street" v="Graceful Lane"/><tag k="addr:housenumber" v="4508"/></node><node id="-98" lat="30.239131" lon="-97.576001" changeset="false"><tag k="addr:street" v="Graceful Lane"/><tag k="addr:housenumber" v="4517"/></node><node id="-99" lat="30.239282" lon="-97.57589" changeset="false"><tag k="addr:street" v="Graceful Lane"/><tag k="addr:housenumber" v="4521"/></node><node id="-100" lat="30.238498" lon="-97.570233" changeset="false"><tag k="addr:street" v="Best Way"/><tag k="addr:housenumber" v="4624"/></node><node id="-101" lat="30.259101" lon="-97.631893" changeset="false"><tag k="addr:street" v="Lower Drive"/><tag k="addr:housenumber" v="4001"/></node><node id="-102" lat="30.238127" lon="-97.578969" changeset="false"><tag k="addr:street" v="Parrish Lane"/><tag k="addr:housenumber" v="15204"/></node><node id="-103" lat="30.238189" lon="-97.578085" changeset="false"><tag k="addr:street" v="Lucian Drive"/><tag k="addr:housenumber" v="15301"/></node><node id="-104" lat="30.238448" lon="-97.573538" changeset="false"><tag k="addr:street" v="Esper Lane"/><tag k="addr:housenumber" v="4527"/></node><node id="-105" lat="30.23828" lon="-97.573231" changeset="false"><tag k="addr:street" v="Kind Way"/><tag k="addr:housenumber" v="4528"/></node><node id="-106" lat="30.237097" lon="-97.573057" changeset="false"><tag k="addr:street" v="Senda Lane"/><tag k="addr:housenumber" v="4504"/></node><node id="-107" lat="30.239568" lon="-97.572822" changeset="false"><tag k="addr:street" v="Esper Lane"/><tag k="addr:housenumber" v="4621"/></node><node id="-108" lat="30.239905" lon="-97.573126" changeset="false"><tag k="addr:street" v="Esper Lane"/><tag k="addr:housenumber" v="4624"/></node><node id="-109" lat="30.238636" lon="-97.573016" changeset="false"><tag k="addr:street" v="Kind Way"/><tag k="addr:housenumber" v="4600"/></node><node id="-110" lat="30.238441" lon="-97.572576" changeset="false"><tag k="addr:street" v="Kind Way"/><tag k="addr:housenumber" v="4601"/></node><node id="-111" lat="30.238513" lon="-97.572545" changeset="false"><tag k="addr:street" v="Kind Way"/><tag k="addr:housenumber" v="4603"/></node><node id="-112" lat="30.238162" lon="-97.570584" changeset="false"><tag k="addr:street" v="Best Way"/><tag k="addr:housenumber" v="4614 1/2"/></node><node id="-113" lat="30.238485" lon="-97.574056" changeset="false"><tag k="addr:street" v="Esper Lane"/><tag k="addr:housenumber" v="4522"/></node><node id="-114" lat="30.234665" lon="-97.624998" changeset="false"><tag k="addr:street" v="Farm-to-Market Road 973"/><tag k="addr:housenumber" v="2501"/></node><node id="-115" lat="30.237068" lon="-97.578411" changeset="false"><tag k="addr:street" v="Yabers Court"/><tag k="addr:housenumber" v="707"/></node><node id="-116" lat="30.236284" lon="-97.578891" changeset="false"><tag k="addr:street" v="Yabers Court"/><tag k="addr:housenumber" v="811"/></node><node id="-117" lat="30.236193" lon="-97.578949" changeset="false"><tag k="addr:street" v="Yabers Court"/><tag k="addr:housenumber" v="901"/></node><node id="-118" lat="30.235904" lon="-97.579146" changeset="false"><tag k="addr:street" v="Yabers Court"/><tag k="addr:housenumber" v="907"/></node><node id="-119" lat="30.236753" lon="-97.581312" changeset="false"><tag k="addr:street" v="Hatton Hill Lane"/><tag k="addr:housenumber" v="808"/></node><node id="-120" lat="30.236456" lon="-97.581478" changeset="false"><tag k="addr:street" v="Hatton Hill Lane"/><tag k="addr:housenumber" v="814"/></node><node id="-121" lat="30.241658" lon="-97.579101" changeset="false"><tag k="addr:street" v="Belfield Lane"/><tag k="addr:housenumber" v="4604"/></node><node id="-122" lat="30.241713" lon="-97.578598" changeset="false"><tag k="addr:street" v="Belfield Lane"/><tag k="addr:housenumber" v="4609"/></node><node id="-123" lat="30.241359" lon="-97.578193" changeset="false"><tag k="addr:street" v="Halliday Avenue"/><tag k="addr:housenumber" v="4608"/></node><node id="-124" lat="30.241782" lon="-97.577459" changeset="false"><tag k="addr:street" v="Halliday Avenue"/><tag k="addr:housenumber" v="4617"/></node><node id="-125" lat="30.233845" lon="-97.591846" changeset="false"><tag k="addr:street" v="Deaf Smith Boulevard"/><tag k="addr:housenumber" v="14317"/></node><node id="-126" lat="30.233831" lon="-97.590523" changeset="false"><tag k="addr:street" v="Deaf Smith Boulevard"/><tag k="addr:housenumber" v="14416"/></node><node id="-127" lat="30.23376" lon="-97.590326" changeset="false"><tag k="addr:street" v="Deaf Smith Boulevard"/><tag k="addr:housenumber" v="14420"/></node><node id="-128" lat="30.233513" lon="-97.591118" changeset="false"><tag k="addr:street" v="Deaf Smith Boulevard"/><tag k="addr:housenumber" v="14409"/></node><node id="-129" lat="30.244263" lon="-97.580637" changeset="false"><tag k="addr:street" v="Clear View Drive"/><tag k="addr:housenumber" v="4805"/></node><node id="-130" lat="30.256995" lon="-97.632096" changeset="false"><tag k="addr:street" v="Lorado Drive"/><tag k="addr:housenumber" v="10013"/></node><node id="-131" lat="30.257967" lon="-97.632636" changeset="false"><tag k="addr:street" v="Lower Drive"/><tag k="addr:housenumber" v="3805"/></node><node id="-132" lat="30.257046" lon="-97.634016" changeset="false"><tag k="addr:street" v="Lorado Drive"/><tag k="addr:housenumber" v="9907"/></node><node id="-133" lat="30.264609" lon="-97.626152" changeset="false"><tag k="addr:street" v="Aristocrat Drive"/><tag k="addr:housenumber" v="4609"/></node><node id="-134" lat="30.232946" lon="-97.590806" changeset="false"><tag k="addr:street" v="Austins Colony Boulevard"/><tag k="addr:housenumber" v="3400 1/2"/></node><node id="-135" lat="30.218444" lon="-97.570449" changeset="false"><tag k="addr:street" v="Dunlap Road North,1100"/><tag k="addr:housenumber" v="1245"/></node><node id="-136" lat="30.226752" lon="-97.591199" changeset="false"><tag k="addr:street" v="Caleb Drive"/><tag k="addr:housenumber" v="2808"/></node><node id="-137" lat="30.226714" lon="-97.59094" changeset="false"><tag k="addr:street" v="Caleb Drive"/><tag k="addr:housenumber" v="2804"/></node><node id="-138" lat="30.245444" lon="-97.584936" changeset="false"><tag k="addr:street" v="Fallenash Drive"/><tag k="addr:housenumber" v="4612"/></node><node id="-139" lat="30.22546" lon="-97.627279" changeset="false"><tag k="addr:street" v="Garden Gate Drive"/><tag k="addr:housenumber" v="11908"/></node><node id="-140" lat="30.224822" lon="-97.628108" changeset="false"><tag k="addr:street" v="Garden Meadow Road"/><tag k="addr:housenumber" v="11904"/></node><node id="-141" lat="30.237778" lon="-97.589341" changeset="false"><tag k="addr:street" v="Sandifer Street"/><tag k="addr:housenumber" v="14304"/></node><node id="-142" lat="30.244018" lon="-97.584261" changeset="false"><tag k="addr:street" v="Castleman Drive"/><tag k="addr:housenumber" v="4603"/></node><node id="-143" lat="30.245915" lon="-97.584086" changeset="false"><tag k="addr:street" v="Fallenash Drive"/><tag k="addr:housenumber" v="4707"/></node><node id="-144" lat="30.262725" lon="-97.629231" changeset="false"><tag k="addr:street" v="Imperial Drive,1100"/><tag k="addr:housenumber" v="4401"/></node><node id="-145" lat="30.258237" lon="-97.633065" changeset="false"><tag k="addr:street" v="Lower Drive"/><tag k="addr:housenumber" v="3900"/></node><node id="-146" lat="30.262041" lon="-97.629228" changeset="false"><tag k="addr:street" v="Imperial Drive,1100"/><tag k="addr:housenumber" v="4217"/></node><node id="-147" lat="30.214258" lon="-97.638983" changeset="false"><tag k="addr:street" v="Farm-to-Market Road 973"/><tag k="addr:housenumber" v="2300"/></node><node id="-148" lat="30.239274" lon="-97.57544" changeset="false"><tag k="addr:street" v="Truth Way"/><tag k="addr:housenumber" v="4526"/></node><node id="-149" lat="30.239365" lon="-97.573899" changeset="false"><tag k="addr:street" v="Inicio Lane"/><tag k="addr:housenumber" v="4607"/></node><node id="-150" lat="30.238045" lon="-97.631469" changeset="false"><tag k="addr:street" v="Platt Lane"/><tag k="addr:housenumber" v="11408"/></node><node id="-151" lat="30.237021" lon="-97.588563" changeset="false"><tag k="addr:street" v="Sandifer Street"/><tag k="addr:housenumber" v="14407"/></node><node id="-152" lat="30.22214" lon="-97.627906" changeset="false"><tag k="addr:street" v="Green Pastures Cove"/><tag k="addr:housenumber" v="1407"/></node><node id="-153" lat="30.236829" lon="-97.590393" changeset="false"><tag k="addr:street" v="Banda Lane"/><tag k="addr:housenumber" v="3600"/></node><node id="-154" lat="30.239352" lon="-97.575399" changeset="false"><tag k="addr:street" v="Truth Way"/><tag k="addr:housenumber" v="4528"/></node><node id="-155" lat="30.232891" lon="-97.641549" changeset="false"><tag k="addr:street" v="Platt Lane"/><tag k="addr:housenumber" v="10415"/></node><node id="-156" lat="30.238267" lon="-97.576081" changeset="false"><tag k="addr:street" v="Truth Way"/><tag k="addr:housenumber" v="4500"/></node><node id="-157" lat="30.238081" lon="-97.575699" changeset="false"><tag k="addr:street" v="Truth Way"/><tag k="addr:housenumber" v="4501"/></node><node id="-158" lat="30.233411" lon="-97.638693" changeset="false"><tag k="addr:street" v="Platt Lane"/><tag k="addr:housenumber" v="10611"/></node><node id="-159" lat="30.234111" lon="-97.585419" changeset="false"><tag k="addr:street" v="Crownover Street"/><tag k="addr:housenumber" v="3711"/></node><node id="-160" lat="30.24496" lon="-97.585576" changeset="false"><tag k="addr:street" v="Sojourner Street"/><tag k="addr:housenumber" v="4603"/></node><node id="-161" lat="30.233267" lon="-97.585951" changeset="false"><tag k="addr:street" v="Crownover Street"/><tag k="addr:housenumber" v="3607"/></node><node id="-162" lat="30.244854" lon="-97.583724" changeset="false"><tag k="addr:street" v="Castleman Drive"/><tag k="addr:housenumber" v="4617"/></node><node id="-163" lat="30.244713" lon="-97.583805" changeset="false"><tag k="addr:street" v="Castleman Drive"/><tag k="addr:housenumber" v="4615"/></node><node id="-164" lat="30.228437" lon="-97.589573" changeset="false"><tag k="addr:street" v="Crownover Street"/><tag k="addr:housenumber" v="3008"/></node><node id="-165" lat="30.236667" lon="-97.589327" changeset="false"><tag k="addr:street" v="Banda Lane"/><tag k="addr:housenumber" v="3506"/></node><node id="-166" lat="30.260402" lon="-97.630649" changeset="false"><tag k="addr:street" v="Imperial Drive,1100"/><tag k="addr:housenumber" v="4205"/></node><node id="-167" lat="30.237608" lon="-97.624707" changeset="false"><tag k="addr:street" v="Farm-to-Market Road 973"/><tag k="addr:housenumber" v="2600"/></node><node id="-168" lat="30.245993" lon="-97.5849" changeset="false"><tag k="addr:street" v="Sojourner Street"/><tag k="addr:housenumber" v="4703"/></node><node id="-169" lat="30.240462" lon="-97.623243" changeset="false"><tag k="addr:street" v="Farm-to-Market Road 973"/><tag k="addr:housenumber" v="2860"/></node><node id="-170" lat="30.259452" lon="-97.632165" changeset="false"><tag k="addr:street" v="Lower Drive"/><tag k="addr:housenumber" v="4002"/></node><node id="-171" lat="30.256978" lon="-97.631661" changeset="false"><tag k="addr:street" v="Lorado Drive"/><tag k="addr:housenumber" v="10101"/></node><node id="-172" lat="30.263635" lon="-97.628509" changeset="false"><tag k="addr:street" v="Imperial Drive,1100"/><tag k="addr:housenumber" v="4504"/></node><node id="-173" lat="30.263564" lon="-97.629878" changeset="false"><tag k="addr:street" v="Regal Court"/><tag k="addr:housenumber" v="9900"/></node><node id="-174" lat="30.237728" lon="-97.589994" changeset="false"><tag k="addr:street" v="Banda Lane"/><tag k="addr:housenumber" v="3614"/></node><node id="-175" lat="30.237644" lon="-97.589066" changeset="false"><tag k="addr:street" v="Sandifer Street"/><tag k="addr:housenumber" v="14308"/></node><node id="-176" lat="30.22108" lon="-97.62867" changeset="false"><tag k="addr:street" v="Green Leaf Drive"/><tag k="addr:housenumber" v="12009"/></node><node id="-177" lat="30.219148" lon="-97.629662" changeset="false"><tag k="addr:street" v="Green Leaf Drive"/><tag k="addr:housenumber" v="12105"/></node><node id="-178" lat="30.23339" lon="-97.592759" changeset="false"><tag k="addr:street" v="Wickham Lane"/><tag k="addr:housenumber" v="3409"/></node><node id="-179" lat="30.237153" lon="-97.588096" changeset="false"><tag k="addr:street" v="Sandifer Street"/><tag k="addr:housenumber" v="14410"/></node><node id="-180" lat="30.243908" lon="-97.583476" changeset="false"><tag k="addr:street" v="Hunters Bend Road"/><tag k="addr:housenumber" v="14336"/></node><node id="-181" lat="30.243007" lon="-97.580735" changeset="false"><tag k="addr:street" v="Plain View Drive"/><tag k="addr:housenumber" v="15009"/></node><node id="-182" lat="30.26226" lon="-97.62807" changeset="false"><tag k="addr:street" v="Hermes Drive"/><tag k="addr:housenumber" v="10101"/></node><node id="-183" lat="30.26208" lon="-97.627841" changeset="false"><tag k="addr:street" v="Hermes Drive"/><tag k="addr:housenumber" v="10103"/></node><node id="-184" lat="30.225184" lon="-97.626667" changeset="false"><tag k="addr:street" v="Garden Gate Drive"/><tag k="addr:housenumber" v="12004"/></node><node id="-185" lat="30.224673" lon="-97.627725" changeset="false"><tag k="addr:street" v="Garden Meadow Road"/><tag k="addr:housenumber" v="11908"/></node><node id="-186" lat="30.238664" lon="-97.580336" changeset="false"><tag k="addr:street" v="Parrish Lane"/><tag k="addr:housenumber" v="15100"/></node><node id="-187" lat="30.224051" lon="-97.62856" changeset="false"><tag k="addr:street" v="Garden Grove Drive"/><tag k="addr:housenumber" v="11904"/></node><node id="-188" lat="30.225881" lon="-97.628166" changeset="false"><tag k="addr:street" v="Garden Gate Drive"/><tag k="addr:housenumber" v="11812"/></node><node id="-189" lat="30.225679" lon="-97.629932" changeset="false"><tag k="addr:street" v="Garden Meadow Road"/><tag k="addr:housenumber" v="11704"/></node><node id="-190" lat="30.240662" lon="-97.57549" changeset="false"><tag k="addr:street" v="Graceful Lane"/><tag k="addr:housenumber" v="4616"/></node><node id="-191" lat="30.235635" lon="-97.625907" changeset="false"><tag k="addr:street" v="Farm-to-Market Road 973"/><tag k="addr:housenumber" v="2534"/></node><node id="-192" lat="30.265326" lon="-97.628553" changeset="false"><tag k="addr:street" v="Atlantis Drive"/><tag k="addr:housenumber" v="4604"/></node><node id="-193" lat="30.264313" lon="-97.629289" changeset="false"><tag k="addr:street" v="Atlantis Drive"/><tag k="addr:housenumber" v="4508"/></node><node id="-194" lat="30.237121" lon="-97.572085" changeset="false"><tag k="addr:street" v="Credo Lane"/><tag k="addr:housenumber" v="4514"/></node><node id="-195" lat="30.237274" lon="-97.57198" changeset="false"><tag k="addr:street" v="Credo Lane"/><tag k="addr:housenumber" v="4518"/></node><node id="-196" lat="30.22358" lon="-97.628867" changeset="false"><tag k="addr:street" v="Garden Grove Drive"/><tag k="addr:housenumber" v="11905"/></node><node id="-197" lat="30.237048" lon="-97.572138" changeset="false"><tag k="addr:street" v="Credo Lane"/><tag k="addr:housenumber" v="4512"/></node><node id="-198" lat="30.238921" lon="-97.574729" changeset="false"><tag k="addr:street" v="Inicio Lane"/><tag k="addr:housenumber" v="4524"/></node><node id="-199" lat="30.258474" lon="-97.632885" changeset="false"><tag k="addr:street" v="Lower Drive"/><tag k="addr:housenumber" v="3902"/></node><node id="-200" lat="30.237508" lon="-97.572259" changeset="false"><tag k="addr:street" v="Senda Lane"/><tag k="addr:housenumber" v="4521"/></node><node id="-201" lat="30.237661" lon="-97.572153" changeset="false"><tag k="addr:street" v="Senda Lane"/><tag k="addr:housenumber" v="4525"/></node><node id="-202" lat="30.239747" lon="-97.574637" changeset="false"><tag k="addr:street" v="Truth Way"/><tag k="addr:housenumber" v="4607"/></node><node id="-203" lat="30.240294" lon="-97.57476" changeset="false"><tag k="addr:street" v="Truth Way"/><tag k="addr:housenumber" v="4616"/></node><node id="-204" lat="30.240206" lon="-97.574339" changeset="false"><tag k="addr:street" v="Truth Way"/><tag k="addr:housenumber" v="4619"/></node><node id="-205" lat="30.240511" lon="-97.574141" changeset="false"><tag k="addr:street" v="Truth Way"/><tag k="addr:housenumber" v="4627"/></node><node id="-206" lat="30.236249" lon="-97.571702" changeset="false"><tag k="addr:street" v="Best Way"/><tag k="addr:housenumber" v="4502"/></node><node id="-207" lat="30.236611" lon="-97.571467" changeset="false"><tag k="addr:street" v="Best Way"/><tag k="addr:housenumber" v="4512"/></node><node id="-208" lat="30.238002" lon="-97.572871" changeset="false"><tag k="addr:street" v="Kind Way"/><tag k="addr:housenumber" v="4527"/></node><node id="-209" lat="30.238022" lon="-97.574775" changeset="false"><tag k="addr:street" v="Inicio Lane"/><tag k="addr:housenumber" v="4507"/></node><node id="-210" lat="30.238298" lon="-97.575133" changeset="false"><tag k="addr:street" v="Inicio Lane"/><tag k="addr:housenumber" v="4508"/></node><node id="-211" lat="30.238606" lon="-97.574926" changeset="false"><tag k="addr:street" v="Inicio Lane"/><tag k="addr:housenumber" v="4516"/></node><node id="-212" lat="30.236729" lon="-97.570864" changeset="false"><tag k="addr:street" v="Best Way"/><tag k="addr:housenumber" v="4521"/></node><node id="-213" lat="30.23877" lon="-97.57672" changeset="false"><tag k="addr:street" v="Graceful Lane"/><tag k="addr:housenumber" v="4502"/></node><node id="-214" lat="30.239237" lon="-97.57641" changeset="false"><tag k="addr:street" v="Graceful Lane"/><tag k="addr:housenumber" v="4514"/></node><node id="-215" lat="30.239462" lon="-97.576273" changeset="false"><tag k="addr:street" v="Graceful Lane"/><tag k="addr:housenumber" v="4520"/></node><node id="-216" lat="30.239505" lon="-97.57575" changeset="false"><tag k="addr:street" v="Graceful Lane"/><tag k="addr:housenumber" v="4527"/></node><node id="-217" lat="30.238091" lon="-97.571432" changeset="false"><tag k="addr:street" v="Credo Lane"/><tag k="addr:housenumber" v="4604"/></node><node id="-218" lat="30.240262" lon="-97.573867" changeset="false"><tag k="addr:street" v="Inicio Lane"/><tag k="addr:housenumber" v="4624"/></node><node id="-219" lat="30.237225" lon="-97.571065" changeset="false"><tag k="addr:street" v="Best Way"/><tag k="addr:housenumber" v="4528"/></node><node id="-220" lat="30.238705" lon="-97.57433" changeset="false"><tag k="addr:street" v="Inicio Lane"/><tag k="addr:housenumber" v="4525"/></node><node id="-221" lat="30.238791" lon="-97.57428" changeset="false"><tag k="addr:street" v="Inicio Lane"/><tag k="addr:housenumber" v="4527"/></node><node id="-222" lat="30.239012" lon="-97.572757" changeset="false"><tag k="addr:street" v="Kind Way"/><tag k="addr:housenumber" v="4610"/></node><node id="-223" lat="30.238545" lon="-97.577739" changeset="false"><tag k="addr:street" v="Lucian Drive"/><tag k="addr:housenumber" v="15302"/></node><node id="-224" lat="30.238421" lon="-97.577534" changeset="false"><tag k="addr:street" v="Lucian Drive"/><tag k="addr:housenumber" v="15304"/></node><node id="-225" lat="30.236873" lon="-97.570346" changeset="false"><tag k="addr:street" v="Secure Lane"/><tag k="addr:housenumber" v="4526"/></node><node id="-226" lat="30.23897" lon="-97.572251" changeset="false"><tag k="addr:street" v="Kind Way"/><tag k="addr:housenumber" v="4615"/></node><node id="-227" lat="30.238779" lon="-97.572909" changeset="false"><tag k="addr:street" v="Kind Way"/><tag k="addr:housenumber" v="4604"/></node><node id="-228" lat="30.239548" lon="-97.572412" changeset="false"><tag k="addr:street" v="Kind Way"/><tag k="addr:housenumber" v="4624"/></node><node id="-229" lat="30.236893" lon="-97.572636" changeset="false"><tag k="addr:street" v="Senda Lane"/><tag k="addr:housenumber" v="4505"/></node><node id="-230" lat="30.237165" lon="-97.573019" changeset="false"><tag k="addr:street" v="Senda Lane"/><tag k="addr:housenumber" v="4506"/></node><node id="-231" lat="30.237202" lon="-97.572447" changeset="false"><tag k="addr:street" v="Senda Lane"/><tag k="addr:housenumber" v="4513"/></node><node id="-232" lat="30.237551" lon="-97.572765" changeset="false"><tag k="addr:street" v="Senda Lane"/><tag k="addr:housenumber" v="4516"/></node><node id="-233" lat="30.240017" lon="-97.579036" changeset="false"><tag k="addr:street" v="Halliday Avenue"/><tag k="addr:housenumber" v="4404"/></node><node id="-234" lat="30.238629" lon="-97.571522" changeset="false"><tag k="addr:street" v="Senda Lane"/><tag k="addr:housenumber" v="4615"/></node><node id="-235" lat="30.238895" lon="-97.571888" changeset="false"><tag k="addr:street" v="Senda Lane"/><tag k="addr:housenumber" v="4616"/></node><node id="-236" lat="30.238132" lon="-97.570907" changeset="false"><tag k="addr:street" v="Credo Lane"/><tag k="addr:housenumber" v="4611"/></node><node id="-237" lat="30.236967" lon="-97.572185" changeset="false"><tag k="addr:street" v="Credo Lane"/><tag k="addr:housenumber" v="4510"/></node><node id="-238" lat="30.238139" lon="-97.573745" changeset="false"><tag k="addr:street" v="Esper Lane"/><tag k="addr:housenumber" v="4519"/></node><node id="-239" lat="30.238804" lon="-97.573328" changeset="false"><tag k="addr:street" v="Esper Lane"/><tag k="addr:housenumber" v="4601"/></node><node id="-240" lat="30.239136" lon="-97.573617" changeset="false"><tag k="addr:street" v="Esper Lane"/><tag k="addr:housenumber" v="4604"/></node><node id="-241" lat="30.238952" lon="-97.573222" changeset="false"><tag k="addr:street" v="Esper Lane"/><tag k="addr:housenumber" v="4605"/></node><node id="-242" lat="30.239032" lon="-97.57317" changeset="false"><tag k="addr:street" v="Esper Lane"/><tag k="addr:housenumber" v="4607"/></node><node id="-243" lat="30.240149" lon="-97.578948" changeset="false"><tag k="addr:street" v="Halliday Avenue"/><tag k="addr:housenumber" v="4500"/></node><node id="-244" lat="30.261349" lon="-97.630677" changeset="false"><tag k="addr:street" v="Kings Court"/><tag k="addr:housenumber" v="4204"/></node><node id="-245" lat="30.259716" lon="-97.631988" changeset="false"><tag k="addr:street" v="Lower Drive"/><tag k="addr:housenumber" v="4004"/></node><node id="-246" lat="30.264304" lon="-97.626098" changeset="false"><tag k="addr:street" v="Aristocrat Drive"/><tag k="addr:housenumber" v="4607"/></node><node id="-247" lat="30.256987" lon="-97.633622" changeset="false"><tag k="addr:street" v="Lorado Drive"/><tag k="addr:housenumber" v="9911"/></node><node id="-248" lat="30.256988" lon="-97.63251" changeset="false"><tag k="addr:street" v="Lorado Drive"/><tag k="addr:housenumber" v="10009"/></node><node id="-249" lat="30.260934" lon="-97.630398" changeset="false"><tag k="addr:street" v="Kings Court"/><tag k="addr:housenumber" v="4200"/></node><node id="-250" lat="30.236099" lon="-97.579011" changeset="false"><tag k="addr:street" v="Yabers Court"/><tag k="addr:housenumber" v="903"/></node><node id="-251" lat="30.235654" lon="-97.579566" changeset="false"><tag k="addr:street" v="Yabers Court"/><tag k="addr:housenumber" v="913"/></node><node id="-252" lat="30.237981" lon="-97.58049" changeset="false"><tag k="addr:street" v="Hatton Hill Lane"/><tag k="addr:housenumber" v="604"/></node><node id="-253" lat="30.237706" lon="-97.580691" changeset="false"><tag k="addr:street" v="Hatton Hill Lane"/><tag k="addr:housenumber" v="702"/></node><node id="-254" lat="30.237514" lon="-97.580814" changeset="false"><tag k="addr:street" v="Hatton Hill Lane"/><tag k="addr:housenumber" v="706"/></node><node id="-255" lat="30.237137" lon="-97.581053" changeset="false"><tag k="addr:street" v="Hatton Hill Lane"/><tag k="addr:housenumber" v="800"/></node><node id="-256" lat="30.236655" lon="-97.581362" changeset="false"><tag k="addr:street" v="Hatton Hill Lane"/><tag k="addr:housenumber" v="810"/></node><node id="-257" lat="30.263064" lon="-97.626962" changeset="false"><tag k="addr:street" v="Aristocrat Drive"/><tag k="addr:housenumber" v="4507"/></node><node id="-258" lat="30.263287" lon="-97.626842" changeset="false"><tag k="addr:street" v="Aristocrat Drive"/><tag k="addr:housenumber" v="4509"/></node><node id="-259" lat="30.241604" lon="-97.578674" changeset="false"><tag k="addr:street" v="Belfield Lane"/><tag k="addr:housenumber" v="4607"/></node><node id="-260" lat="30.24188" lon="-97.57896" changeset="false"><tag k="addr:street" v="Belfield Lane"/><tag k="addr:housenumber" v="4608"/></node><node id="-261" lat="30.241521" lon="-97.577639" changeset="false"><tag k="addr:street" v="Halliday Avenue"/><tag k="addr:housenumber" v="4613"/></node><node id="-262" lat="30.234466" lon="-97.591986" changeset="false"><tag k="addr:street" v="Deaf Smith Boulevard"/><tag k="addr:housenumber" v="14304"/></node><node id="-263" lat="30.233993" lon="-97.592126" changeset="false"><tag k="addr:street" v="Deaf Smith Boulevard"/><tag k="addr:housenumber" v="14309"/></node><node id="-264" lat="30.233929" lon="-97.591978" changeset="false"><tag k="addr:street" v="Deaf Smith Boulevard"/><tag k="addr:housenumber" v="14313"/></node><node id="-265" lat="30.234626" lon="-97.59226" changeset="false"><tag k="addr:street" v="Wickham Lane"/><tag k="addr:housenumber" v="3526"/></node><node id="-266" lat="30.233771" lon="-97.592363" changeset="false"><tag k="addr:street" v="Cottingham Drive"/><tag k="addr:housenumber" v="14204"/></node><node id="-267" lat="30.233602" lon="-97.592025" changeset="false"><tag k="addr:street" v="Cottingham Drive"/><tag k="addr:housenumber" v="14210"/></node><node id="-268" lat="30.233996" lon="-97.590982" changeset="false"><tag k="addr:street" v="Deaf Smith Boulevard"/><tag k="addr:housenumber" v="14404"/></node><node id="-269" lat="30.233581" lon="-97.59127" changeset="false"><tag k="addr:street" v="Deaf Smith Boulevard"/><tag k="addr:housenumber" v="14405"/></node><node id="-270" lat="30.238803" lon="-97.57575" changeset="false"><tag k="addr:street" v="Truth Way"/><tag k="addr:housenumber" v="4514"/></node><node id="-271" lat="30.246733" lon="-97.584521" changeset="false"><tag k="addr:street" v="Fallenash Drive"/><tag k="addr:housenumber" v="4721"/></node><node id="-272" lat="30.246439" lon="-97.584137" changeset="false"><tag k="addr:street" v="Fallenash Drive"/><tag k="addr:housenumber" v="4715"/></node><node id="-273" lat="30.257703" lon="-97.632802" changeset="false"><tag k="addr:street" v="Lower Drive"/><tag k="addr:housenumber" v="3803"/></node><node id="-274" lat="30.245949" lon="-97.582451" changeset="false"><tag k="addr:street" v="Hunters Bend Road"/><tag k="addr:housenumber" v="14314"/></node><node id="-275" lat="30.252855" lon="-97.614661" changeset="false"><tag k="addr:street" v="Farm-to-Market Road 973"/><tag k="addr:housenumber" v="4310"/></node><node id="-276" lat="30.240596" lon="-97.582029" changeset="false"><tag k="addr:street" v="Plain View Drive"/><tag k="addr:housenumber" v="15037"/></node><node id="-277" lat="30.24202" lon="-97.581233" changeset="false"><tag k="addr:street" v="Plain View Drive"/><tag k="addr:housenumber" v="15023"/></node><node id="-278" lat="30.264051" lon="-97.628198" changeset="false"><tag k="addr:street" v="Imperial Drive,1100"/><tag k="addr:housenumber" v="4508"/></node><node id="-279" lat="30.243176" lon="-97.579829" changeset="false"><tag k="addr:street" v="Plain View Drive"/><tag k="addr:housenumber" v="15012"/></node><node id="-280" lat="30.242981" lon="-97.581195" changeset="false"><tag k="addr:street" v="Plain View Drive"/><tag k="addr:housenumber" v="15007"/></node><node id="-281" lat="30.264" lon="-97.626979" changeset="false"><tag k="addr:street" v="Aristocrat Drive"/><tag k="addr:housenumber" v="4600"/></node><node id="-282" lat="30.263048" lon="-97.630104" changeset="false"><tag k="addr:street" v="Regal Court"/><tag k="addr:housenumber" v="9901"/></node><node id="-283" lat="30.245564" lon="-97.585174" changeset="false"><tag k="addr:street" v="Sojourner Street"/><tag k="addr:housenumber" v="4613"/></node><node id="-284" lat="30.234634" lon="-97.588493" changeset="false"><tag k="addr:street" v="Mims Cove"/><tag k="addr:housenumber" v="3608"/></node><node id="-285" lat="30.234175" lon="-97.587869" changeset="false"><tag k="addr:street" v="Denehoe Cove"/><tag k="addr:housenumber" v="3606"/></node><node id="-286" lat="30.233995" lon="-97.585506" changeset="false"><tag k="addr:street" v="Crownover Street"/><tag k="addr:housenumber" v="3709"/></node><node id="-287" lat="30.22158" lon="-97.631758" changeset="false"><tag k="addr:street" v="Green Grove Drive"/><tag k="addr:housenumber" v="11803"/></node><node id="-288" lat="30.220413" lon="-97.629364" changeset="false"><tag k="addr:street" v="Green Pastures Drive"/><tag k="addr:housenumber" v="1601"/></node><node id="-289" lat="30.244821" lon="-97.584351" changeset="false"><tag k="addr:street" v="Castleman Drive"/><tag k="addr:housenumber" v="4608"/></node><node id="-290" lat="30.237355" lon="-97.590218" changeset="false"><tag k="addr:street" v="Banda Lane"/><tag k="addr:housenumber" v="3608"/></node><node id="-291" lat="30.224505" lon="-97.629522" changeset="false"><tag k="addr:street" v="Garden Grove Drive"/><tag k="addr:housenumber" v="11808"/></node><node id="-292" lat="30.237235" lon="-97.588245" changeset="false"><tag k="addr:street" v="Sandifer Street"/><tag k="addr:housenumber" v="14408"/></node><node id="-293" lat="30.23256" lon="-97.587723" changeset="false"><tag k="addr:street" v="Deaf Smith Boulevard"/><tag k="addr:housenumber" v="14702"/></node><node id="-294" lat="30.226597" lon="-97.590699" changeset="false"><tag k="addr:street" v="Caleb Drive"/><tag k="addr:housenumber" v="2800"/></node><node id="-295" lat="30.226506" lon="-97.630669" changeset="false"><tag k="addr:street" v="Watermelon Way"/><tag k="addr:housenumber" v="1200"/></node><node id="-296" lat="30.236989" lon="-97.589467" changeset="false"><tag k="addr:street" v="Banda Lane"/><tag k="addr:housenumber" v="3509"/></node><node id="-297" lat="30.232428" lon="-97.591284" changeset="false"><tag k="addr:street" v="Etheredge Drive"/><tag k="addr:housenumber" v="3405"/></node><node id="-298" lat="30.239827" lon="-97.573614" changeset="false"><tag k="addr:street" v="Inicio Lane"/><tag k="addr:housenumber" v="4619"/></node><node id="-299" lat="30.233105" lon="-97.592943" changeset="false"><tag k="addr:street" v="Wickham Lane"/><tag k="addr:housenumber" v="3403"/></node><node id="-300" lat="30.223756" lon="-97.62795" changeset="false"><tag k="addr:street" v="Garden Grove Drive"/><tag k="addr:housenumber" v="12000"/></node><node id="-301" lat="30.233528" lon="-97.585802" changeset="false"><tag k="addr:street" v="Crownover Street"/><tag k="addr:housenumber" v="3701"/></node><node id="-302" lat="30.238887" lon="-97.575696" changeset="false"><tag k="addr:street" v="Truth Way"/><tag k="addr:housenumber" v="4516"/></node><node id="-303" lat="30.238697" lon="-97.5753" changeset="false"><tag k="addr:street" v="Truth Way"/><tag k="addr:housenumber" v="4517"/></node><node id="-304" lat="30.244949" lon="-97.585233" changeset="false"><tag k="addr:street" v="Fallenash Drive"/><tag k="addr:housenumber" v="4604"/></node><node id="-305" lat="30.259251" lon="-97.630831" changeset="false"><tag k="addr:street" v="Veldt Drive"/><tag k="addr:housenumber" v="4005"/></node><node id="-306" lat="30.230595" lon="-97.593739" changeset="false"><tag k="addr:street" v="Wickham Lane"/><tag k="addr:housenumber" v="2909"/></node><node id="-307" lat="30.228137" lon="-97.589762" changeset="false"><tag k="addr:street" v="Crownover Street"/><tag k="addr:housenumber" v="3002"/></node><node id="-308" lat="30.227759" lon="-97.590981" changeset="false"><tag k="addr:street" v="Caleb Drive"/><tag k="addr:housenumber" v="2910"/></node><node id="-309" lat="30.253204" lon="-97.613624" changeset="false"><tag k="addr:street" v="Farm-to-Market Road 973"/><tag k="addr:housenumber" v="4401"/></node><node id="-310" lat="30.245632" lon="-97.583826" changeset="false"><tag k="addr:street" v="Castleman Drive"/><tag k="addr:housenumber" v="4704"/></node><node id="-311" lat="30.238734" lon="-97.590056" changeset="false"><tag k="addr:street" v="Sojourner Street"/><tag k="addr:housenumber" v="3708"/></node><node id="-312" lat="30.243568" lon="-97.583683" changeset="false"><tag k="addr:street" v="Hunters Bend Road"/><tag k="addr:housenumber" v="14340"/></node><node id="-313" lat="30.244807" lon="-97.585268" changeset="false"><tag k="addr:street" v="Fallenash Drive"/><tag k="addr:housenumber" v="4602"/></node><node id="-314" lat="30.244604" lon="-97.583881" changeset="false"><tag k="addr:street" v="Castleman Drive"/><tag k="addr:housenumber" v="4613"/></node><node id="-315" lat="30.232443" lon="-97.588702" changeset="false"><tag k="addr:street" v="Peavy Drive"/><tag k="addr:housenumber" v="3411"/></node><node id="-316" lat="30.245506" lon="-97.579647" changeset="false"><tag k="addr:street" v="Clear View Drive"/><tag k="addr:housenumber" v="4905"/></node><node id="-317" lat="30.231749" lon="-97.591725" changeset="false"><tag k="addr:street" v="Etheredge Drive"/><tag k="addr:housenumber" v="3303"/></node><node id="-318" lat="30.247417" lon="-97.584222" changeset="false"><tag k="addr:street" v="Castleman Drive"/><tag k="addr:housenumber" v="4741"/></node><node id="-319" lat="30.264476" lon="-97.628524" changeset="false"><tag k="addr:street" v="Atlantis Drive"/><tag k="addr:housenumber" v="4511"/></node><node id="-320" lat="30.237468" lon="-97.590141" changeset="false"><tag k="addr:street" v="Banda Lane"/><tag k="addr:housenumber" v="3610"/></node><node id="-321" lat="30.226448" lon="-97.629336" changeset="false"><tag k="addr:street" v="Garden Gate Drive"/><tag k="addr:housenumber" v="11708"/></node><node id="-322" lat="30.225001" lon="-97.627603" changeset="false"><tag k="addr:street" v="Garden Gate Drive"/><tag k="addr:housenumber" v="11909"/></node><node id="-323" lat="30.237911" lon="-97.58873" changeset="false"><tag k="addr:street" v="Varrelman Street"/><tag k="addr:housenumber" v="14307"/></node><node id="-324" lat="30.235674" lon="-97.570164" changeset="false"><tag k="addr:street" v="Felicity Lane"/><tag k="addr:housenumber" v="4504"/></node><node id="-325" lat="30.257606" lon="-97.631453" changeset="false"><tag k="addr:street" v="Veldt Drive"/><tag k="addr:housenumber" v="3803"/></node><node id="-326" lat="30.261329" lon="-97.630032" changeset="false"><tag k="addr:street" v="Imperial Drive,1100"/><tag k="addr:housenumber" v="4210"/></node><node id="-327" lat="30.263961" lon="-97.626436" changeset="false"><tag k="addr:street" v="Aristocrat Drive"/><tag k="addr:housenumber" v="4603"/></node><node id="-328" lat="30.211372" lon="-97.639212" changeset="false"><tag k="addr:street" v="Farm-to-Market Road 973"/><tag k="addr:housenumber" v="2611"/></node><node id="-329" lat="30.256972" lon="-97.633132" changeset="false"><tag k="addr:street" v="Lorado Drive"/><tag k="addr:housenumber" v="10003"/></node><node id="-330" lat="30.238542" lon="-97.57988" changeset="false"><tag k="addr:street" v="Parrish Lane"/><tag k="addr:housenumber" v="15106"/></node><node id="-331" lat="30.237704" lon="-97.572661" changeset="false"><tag k="addr:street" v="Senda Lane"/><tag k="addr:housenumber" v="4520"/></node><node id="-332" lat="30.237849" lon="-97.572565" changeset="false"><tag k="addr:street" v="Senda Lane"/><tag k="addr:housenumber" v="4524"/></node><node id="-333" lat="30.238407" lon="-97.57168" changeset="false"><tag k="addr:street" v="Senda Lane"/><tag k="addr:housenumber" v="4609"/></node><node id="-334" lat="30.239991" lon="-97.574972" changeset="false"><tag k="addr:street" v="Truth Way"/><tag k="addr:housenumber" v="4608"/></node><node id="-335" lat="30.240043" lon="-97.574426" changeset="false"><tag k="addr:street" v="Truth Way"/><tag k="addr:housenumber" v="4615"/></node><node id="-336" lat="30.24013" lon="-97.574379" changeset="false"><tag k="addr:street" v="Truth Way"/><tag k="addr:housenumber" v="4617"/></node><node id="-337" lat="30.240449" lon="-97.574656" changeset="false"><tag k="addr:street" v="Truth Way"/><tag k="addr:housenumber" v="4620"/></node><node id="-338" lat="30.240281" lon="-97.574288" changeset="false"><tag k="addr:street" v="Truth Way"/><tag k="addr:housenumber" v="4621"/></node><node id="-339" lat="30.240435" lon="-97.574186" changeset="false"><tag k="addr:street" v="Truth Way"/><tag k="addr:housenumber" v="4625"/></node><node id="-340" lat="30.238669" lon="-97.570549" changeset="false"><tag k="addr:street" v="Credo Lane"/><tag k="addr:housenumber" v="4625"/></node><node id="-341" lat="30.237648" lon="-97.570776" changeset="false"><tag k="addr:street" v="Best Way"/><tag k="addr:housenumber" v="4602"/></node><node id="-342" lat="30.237233" lon="-97.572967" changeset="false"><tag k="addr:street" v="Senda Lane"/><tag k="addr:housenumber" v="4508"/></node><node id="-343" lat="30.237045" lon="-97.572549" changeset="false"><tag k="addr:street" v="Senda Lane"/><tag k="addr:housenumber" v="4509"/></node><node id="-344" lat="30.237317" lon="-97.572904" changeset="false"><tag k="addr:street" v="Senda Lane"/><tag k="addr:housenumber" v="4510"/></node><node id="-345" lat="30.237276" lon="-97.572388" changeset="false"><tag k="addr:street" v="Senda Lane"/><tag k="addr:housenumber" v="4515"/></node><node id="-346" lat="30.237717" lon="-97.574556" changeset="false"><tag k="addr:street" v="Esper Lane"/><tag k="addr:housenumber" v="4502"/></node><node id="-347" lat="30.23787" lon="-97.574457" changeset="false"><tag k="addr:street" v="Esper Lane"/><tag k="addr:housenumber" v="4506"/></node><node id="-348" lat="30.238421" lon="-97.570283" changeset="false"><tag k="addr:street" v="Best Way"/><tag k="addr:housenumber" v="4622"/></node><node id="-349" lat="30.237182" lon="-97.573434" changeset="false"><tag k="addr:street" v="Kind Way"/><tag k="addr:housenumber" v="4505"/></node><node id="-350" lat="30.236408" lon="-97.572022" changeset="false"><tag k="addr:street" v="Credo Lane"/><tag k="addr:housenumber" v="4501"/></node><node id="-351" lat="30.238485" lon="-97.574475" changeset="false"><tag k="addr:street" v="Inicio Lane"/><tag k="addr:housenumber" v="4519"/></node><node id="-352" lat="30.237068" lon="-97.571154" changeset="false"><tag k="addr:street" v="Best Way"/><tag k="addr:housenumber" v="4524"/></node><node id="-353" lat="30.238592" lon="-97.572495" changeset="false"><tag k="addr:street" v="Kind Way"/><tag k="addr:housenumber" v="4605"/></node><node id="-354" lat="30.239164" lon="-97.572659" changeset="false"><tag k="addr:street" v="Kind Way"/><tag k="addr:housenumber" v="4614"/></node><node id="-355" lat="30.23653" lon="-97.571523" changeset="false"><tag k="addr:street" v="Best Way"/><tag k="addr:housenumber" v="4510"/></node><node id="-356" lat="30.239215" lon="-97.573572" changeset="false"><tag k="addr:street" v="Esper Lane"/><tag k="addr:housenumber" v="4606"/></node><node id="-357" lat="30.241648" lon="-97.6222" changeset="false"><tag k="addr:street" v="Farm-to-Market Road 973"/><tag k="addr:housenumber" v="2900"/></node><node id="-358" lat="30.224221" lon="-97.628893" changeset="false"><tag k="addr:street" v="Garden Grove Drive"/><tag k="addr:housenumber" v="11900"/></node><node id="-359" lat="30.237632" lon="-97.573124" changeset="false"><tag k="addr:street" v="Kind Way"/><tag k="addr:housenumber" v="4517"/></node><node id="-360" lat="30.237893" lon="-97.573465" changeset="false"><tag k="addr:street" v="Kind Way"/><tag k="addr:housenumber" v="4518"/></node><node id="-361" lat="30.237966" lon="-97.57342" changeset="false"><tag k="addr:street" v="Kind Way"/><tag k="addr:housenumber" v="4520"/></node><node id="-362" lat="30.235986" lon="-97.57134" changeset="false"><tag k="addr:street" v="Best Way"/><tag k="addr:housenumber" v="4501"/></node><node id="-363" lat="30.239233" lon="-97.57259" changeset="false"><tag k="addr:street" v="Kind Way"/><tag k="addr:housenumber" v="4616"/></node><node id="-364" lat="30.23913" lon="-97.572154" changeset="false"><tag k="addr:street" v="Kind Way"/><tag k="addr:housenumber" v="4619"/></node><node id="-365" lat="30.239286" lon="-97.572054" changeset="false"><tag k="addr:street" v="Kind Way"/><tag k="addr:housenumber" v="4623"/></node><node id="-366" lat="30.237015" lon="-97.573104" changeset="false"><tag k="addr:street" v="Senda Lane"/><tag k="addr:housenumber" v="4502"/></node><node id="-367" lat="30.236236" lon="-97.569991" changeset="false"><tag k="addr:street" v="Felicity Lane"/><tag k="addr:housenumber" v="4516 1/2"/></node><node id="-368" lat="30.237943" lon="-97.574813" changeset="false"><tag k="addr:street" v="Inicio Lane"/><tag k="addr:housenumber" v="4505"/></node><node id="-369" lat="30.238691" lon="-97.576773" changeset="false"><tag k="addr:street" v="Graceful Lane"/><tag k="addr:housenumber" v="4500"/></node><node id="-370" lat="30.238898" lon="-97.576147" changeset="false"><tag k="addr:street" v="Graceful Lane"/><tag k="addr:housenumber" v="4511"/></node><node id="-371" lat="30.238402" lon="-97.574105" changeset="false"><tag k="addr:street" v="Esper Lane"/><tag k="addr:housenumber" v="4520"/></node><node id="-372" lat="30.238518" lon="-97.573499" changeset="false"><tag k="addr:street" v="Esper Lane"/><tag k="addr:housenumber" v="4529"/></node><node id="-373" lat="30.239289" lon="-97.573526" changeset="false"><tag k="addr:street" v="Esper Lane"/><tag k="addr:housenumber" v="4608"/></node><node id="-374" lat="30.236763" lon="-97.571358" changeset="false"><tag k="addr:street" v="Best Way"/><tag k="addr:housenumber" v="4516"/></node><node id="-375" lat="30.239974" lon="-97.573078" changeset="false"><tag k="addr:street" v="Esper Lane"/><tag k="addr:housenumber" v="4626"/></node><node id="-376" lat="30.237221" lon="-97.573915" changeset="false"><tag k="addr:street" v="Kind Way"/><tag k="addr:housenumber" v="4500"/></node><node id="-377" lat="30.25869" lon="-97.632747" changeset="false"><tag k="addr:street" v="Lower Drive"/><tag k="addr:housenumber" v="3904"/></node><node id="-378" lat="30.23717" lon="-97.578356" changeset="false"><tag k="addr:street" v="Yabers Court"/><tag k="addr:housenumber" v="705"/></node><node id="-379" lat="30.236689" lon="-97.578653" changeset="false"><tag k="addr:street" v="Yabers Court"/><tag k="addr:housenumber" v="803"/></node><node id="-380" lat="30.23581" lon="-97.579212" changeset="false"><tag k="addr:street" v="Yabers Court"/><tag k="addr:housenumber" v="909"/></node><node id="-381" lat="30.236323" lon="-97.58099" changeset="false"><tag k="addr:street" v="Hatton Hill Lane"/><tag k="addr:housenumber" v="813"/></node><node id="-382" lat="30.236225" lon="-97.581048" changeset="false"><tag k="addr:street" v="Hatton Hill Lane"/><tag k="addr:housenumber" v="815"/></node><node id="-383" lat="30.259725" lon="-97.630724" changeset="false"><tag k="addr:street" v="Veldt Drive"/><tag k="addr:housenumber" v="4009"/></node><node id="-384" lat="30.231337" lon="-97.623792" changeset="false"><tag k="addr:street" v="Harold Green Road"/><tag k="addr:housenumber" v="11824"/></node><node id="-385" lat="30.241473" lon="-97.578757" changeset="false"><tag k="addr:street" v="Belfield Lane"/><tag k="addr:housenumber" v="4605"/></node><node id="-386" lat="30.242071" lon="-97.578356" changeset="false"><tag k="addr:street" v="Belfield Lane"/><tag k="addr:housenumber" v="4615"/></node><node id="-387" lat="30.241615" lon="-97.578072" changeset="false"><tag k="addr:street" v="Halliday Avenue"/><tag k="addr:housenumber" v="4612"/></node><node id="-388" lat="30.234339" lon="-97.591696" changeset="false"><tag k="addr:street" v="Deaf Smith Boulevard"/><tag k="addr:housenumber" v="14312"/></node><node id="-389" lat="30.234661" lon="-97.59261" changeset="false"><tag k="addr:street" v="Wickham Lane"/><tag k="addr:housenumber" v="3518"/></node><node id="-390" lat="30.233663" lon="-97.592133" changeset="false"><tag k="addr:street" v="Cottingham Drive"/><tag k="addr:housenumber" v="14208"/></node><node id="-391" lat="30.23367" lon="-97.591429" changeset="false"><tag k="addr:street" v="Deaf Smith Boulevard"/><tag k="addr:housenumber" v="14401"/></node><node id="-392" lat="30.247052" lon="-97.583073" changeset="false"><tag k="addr:street" v="Hunters Bend Road"/><tag k="addr:housenumber" v="14305"/></node><node id="-393" lat="30.24541" lon="-97.583362" changeset="false"><tag k="addr:street" v="Castleman Drive"/><tag k="addr:housenumber" v="4705"/></node><node id="-394" lat="30.244358" lon="-97.582771" changeset="false"><tag k="addr:street" v="Plain View Drive"/><tag k="addr:housenumber" v="14805"/></node><node id="-395" lat="30.24427" lon="-97.584097" changeset="false"><tag k="addr:street" v="Castleman Drive"/><tag k="addr:housenumber" v="4607"/></node><node id="-396" lat="30.244141" lon="-97.58146" changeset="false"><tag k="addr:street" v="Clear View Drive"/><tag k="addr:housenumber" v="4810"/></node><node id="-397" lat="30.2586" lon="-97.632294" changeset="false"><tag k="addr:street" v="Lower Drive"/><tag k="addr:housenumber" v="3905"/></node><node id="-398" lat="30.239496" lon="-97.57436" changeset="false"><tag k="addr:street" v="Inicio Lane"/><tag k="addr:housenumber" v="4604"/></node><node id="-399" lat="30.263408" lon="-97.629417" changeset="false"><tag k="addr:street" v="Imperial Drive,1100"/><tag k="addr:housenumber" v="4404"/></node><node id="-400" lat="30.265702" lon="-97.628431" changeset="false"><tag k="addr:street" v="Pollo Drive"/><tag k="addr:housenumber" v="9900"/></node><node id="-401" lat="30.25856" lon="-97.631097" changeset="false"><tag k="addr:street" v="Veldt Drive"/><tag k="addr:housenumber" v="3907"/></node><node id="-402" lat="30.256983" lon="-97.63273" changeset="false"><tag k="addr:street" v="Lorado Drive"/><tag k="addr:housenumber" v="10007"/></node><node id="-403" lat="30.217418" lon="-97.5707" changeset="false"><tag k="addr:street" v="Dunlap Road North,1100"/><tag k="addr:housenumber" v="1247"/></node><node id="-404" lat="30.244235" lon="-97.620395" changeset="false"><tag k="addr:street" v="Farm-to-Market Road 973"/><tag k="addr:housenumber" v="3008"/></node><node id="-405" lat="30.240503" lon="-97.58636" changeset="false"><tag k="addr:street" v="Westall Street"/><tag k="addr:housenumber" v="14405"/></node><node id="-406" lat="30.265579" lon="-97.628141" changeset="false"><tag k="addr:street" v="Pollo Drive"/><tag k="addr:housenumber" v="9902"/></node><node id="-407" lat="30.26467" lon="-97.627835" changeset="false"><tag k="addr:street" v="Imperial Drive,1100"/><tag k="addr:housenumber" v="4602"/></node><node id="-408" lat="30.236729" lon="-97.589047" changeset="false"><tag k="addr:street" v="Banda Lane"/><tag k="addr:housenumber" v="3502"/></node><node id="-409" lat="30.222685" lon="-97.633368" changeset="false"><tag k="addr:street" v="Green Grove Drive"/><tag k="addr:housenumber" v="11600 1/2"/></node><node id="-410" lat="30.225854" lon="-97.629453" changeset="false"><tag k="addr:street" v="Garden Gate Drive"/><tag k="addr:housenumber" v="11801"/></node><node id="-411" lat="30.224981" lon="-97.628441" changeset="false"><tag k="addr:street" v="Garden Meadow Road"/><tag k="addr:housenumber" v="11900"/></node><node id="-412" lat="30.22766" lon="-97.591039" changeset="false"><tag k="addr:street" v="Caleb Drive"/><tag k="addr:housenumber" v="2908"/></node><node id="-413" lat="30.23261" lon="-97.59117" changeset="false"><tag k="addr:street" v="Etheredge Drive"/><tag k="addr:housenumber" v="3409"/></node><node id="-414" lat="30.261721" lon="-97.63074" changeset="false"><tag k="addr:street" v="Kings Court"/><tag k="addr:housenumber" v="4208"/></node><node id="-415" lat="30.25813" lon="-97.631762" changeset="false"><tag k="addr:street" v="Veldt Drive"/><tag k="addr:housenumber" v="3902"/></node><node id="-416" lat="30.264671" lon="-97.628401" changeset="false"><tag k="addr:street" v="Atlantis Drive"/><tag k="addr:housenumber" v="4601"/></node><node id="-417" lat="30.234879" lon="-97.58838" changeset="false"><tag k="addr:street" v="Mims Cove"/><tag k="addr:housenumber" v="3700"/></node><node id="-418" lat="30.234664" lon="-97.588864" changeset="false"><tag k="addr:street" v="Fitzgibbon Drive"/><tag k="addr:housenumber" v="14504"/></node><node id="-419" lat="30.236146" lon="-97.588207" changeset="false"><tag k="addr:street" v="Austins Colony Boulevard"/><tag k="addr:housenumber" v="3801"/></node><node id="-420" lat="30.23348" lon="-97.592658" changeset="false"><tag k="addr:street" v="Wickham Lane"/><tag k="addr:housenumber" v="3411"/></node><node id="-421" lat="30.238426" lon="-97.575992" changeset="false"><tag k="addr:street" v="Truth Way"/><tag k="addr:housenumber" v="4504"/></node><node id="-422" lat="30.221594" lon="-97.628387" changeset="false"><tag k="addr:street" v="Green Leaf Drive"/><tag k="addr:housenumber" v="12100"/></node><node id="-423" lat="30.221297" lon="-97.630239" changeset="false"><tag k="addr:street" v="Green Grove Drive"/><tag k="addr:housenumber" v="11904"/></node><node id="-424" lat="30.238646" lon="-97.575839" changeset="false"><tag k="addr:street" v="Truth Way"/><tag k="addr:housenumber" v="4510"/></node><node id="-425" lat="30.238616" lon="-97.575345" changeset="false"><tag k="addr:street" v="Truth Way"/><tag k="addr:housenumber" v="4515"/></node><node id="-426" lat="30.23897" lon="-97.575648" changeset="false"><tag k="addr:street" v="Truth Way"/><tag k="addr:housenumber" v="4518"/></node><node id="-427" lat="30.227371" lon="-97.591222" changeset="false"><tag k="addr:street" v="Caleb Drive"/><tag k="addr:housenumber" v="2902"/></node><node id="-428" lat="30.238514" lon="-97.588144" changeset="false"><tag k="addr:street" v="Highsmith Street"/><tag k="addr:housenumber" v="14309"/></node><node id="-429" lat="30.239464" lon="-97.589586" changeset="false"><tag k="addr:street" v="Sojourner Street"/><tag k="addr:housenumber" v="3900"/></node><node id="-430" lat="30.240008" lon="-97.588257" changeset="false"><tag k="addr:street" v="Reeders Drive"/><tag k="addr:housenumber" v="4004"/></node><node id="-431" lat="30.239886" lon="-97.58832" changeset="false"><tag k="addr:street" v="Reeders Drive"/><tag k="addr:housenumber" v="4002"/></node><node id="-432" lat="30.245395" lon="-97.585859" changeset="false"><tag k="addr:street" v="Sojourner Street"/><tag k="addr:housenumber" v="4608"/></node><node id="-433" lat="30.232834" lon="-97.588304" changeset="false"><tag k="addr:street" v="Deaf Smith Boulevard"/><tag k="addr:housenumber" v="14606"/></node><node id="-434" lat="30.232475" lon="-97.58759" changeset="false"><tag k="addr:street" v="Deaf Smith Boulevard"/><tag k="addr:housenumber" v="14704"/></node><node id="-435" lat="30.23338" lon="-97.58966" changeset="false"><tag k="addr:street" v="Deaf Smith Boulevard"/><tag k="addr:housenumber" v="14504"/></node><node id="-436" lat="30.223076" lon="-97.632615" changeset="false"><tag k="addr:street" v="Farm-to-Market Road 973"/><tag k="addr:housenumber" v="1405"/></node><node id="-437" lat="30.222552" lon="-97.62888" changeset="false"><tag k="addr:street" v="Green Pastures Cove"/><tag k="addr:housenumber" v="1408"/></node><node id="-438" lat="30.238439" lon="-97.588924" changeset="false"><tag k="addr:street" v="Varrelman Street"/><tag k="addr:housenumber" v="14300"/></node><node id="-439" lat="30.245279" lon="-97.583423" changeset="false"><tag k="addr:street" v="Castleman Drive"/><tag k="addr:housenumber" v="4703"/></node><node id="-440" lat="30.244538" lon="-97.582195" changeset="false"><tag k="addr:street" v="Plain View Drive"/><tag k="addr:housenumber" v="14900"/></node><node id="-441" lat="30.231727" lon="-97.590966" changeset="false"><tag k="addr:street" v="Amy Francis Street"/><tag k="addr:housenumber" v="14503"/></node><node id="-442" lat="30.234722" lon="-97.589005" changeset="false"><tag k="addr:street" v="Fitzgibbon Drive"/><tag k="addr:housenumber" v="14502"/></node><node id="-443" lat="30.246335" lon="-97.584694" changeset="false"><tag k="addr:street" v="Sojourner Street"/><tag k="addr:housenumber" v="4709"/></node><node id="-444" lat="30.246146" lon="-97.584487" changeset="false"><tag k="addr:street" v="Fallenash Drive"/><tag k="addr:housenumber" v="4706"/></node><node id="-445" lat="30.236657" lon="-97.589184" changeset="false"><tag k="addr:street" v="Banda Lane"/><tag k="addr:housenumber" v="3504"/></node><node id="-446" lat="30.263728" lon="-97.626586" changeset="false"><tag k="addr:street" v="Aristocrat Drive"/><tag k="addr:housenumber" v="4601"/></node><node id="-447" lat="30.263585" lon="-97.629305" changeset="false"><tag k="addr:street" v="Atlantis Drive"/><tag k="addr:housenumber" v="4502"/></node><node id="-448" lat="30.233011" lon="-97.593012" changeset="false"><tag k="addr:street" v="Wickham Lane"/><tag k="addr:housenumber" v="3401"/></node><node id="-449" lat="30.230786" lon="-97.592355" changeset="false"><tag k="addr:street" v="Etheredge Drive"/><tag k="addr:housenumber" v="3107"/></node><node id="-450" lat="30.258892" lon="-97.631429" changeset="false"><tag k="addr:street" v="Veldt Drive"/><tag k="addr:housenumber" v="4000"/></node><node id="-451" lat="30.258325" lon="-97.631195" changeset="false"><tag k="addr:street" v="Veldt Drive"/><tag k="addr:housenumber" v="3905"/></node><node id="-452" lat="30.258083" lon="-97.6313" changeset="false"><tag k="addr:street" v="Veldt Drive"/><tag k="addr:housenumber" v="3903"/></node><node id="-453" lat="30.257401" lon="-97.633564" changeset="false"><tag k="addr:street" v="Lower Drive"/><tag k="addr:housenumber" v="3806"/></node><node id="-454" lat="30.260408" lon="-97.631523" changeset="false"><tag k="addr:street" v="Lower Drive"/><tag k="addr:housenumber" v="4102"/></node><node id="-455" lat="30.236986" lon="-97.590426" changeset="false"><tag k="addr:street" v="Banda Lane"/><tag k="addr:housenumber" v="3602"/></node><node id="-456" lat="30.237806" lon="-97.633729" changeset="false"><tag k="addr:street" v="Platt Lane"/><tag k="addr:housenumber" v="11404"/></node><node id="-457" lat="30.26501" lon="-97.627094" changeset="false"><tag k="addr:street" v="Imperial Drive,1100"/><tag k="addr:housenumber" v="4606"/></node><node id="-458" lat="30.232232" lon="-97.586645" changeset="false"><tag k="addr:street" v="Crownover Street"/><tag k="addr:housenumber" v="3505"/></node><node id="-459" lat="30.239724" lon="-97.574213" changeset="false"><tag k="addr:street" v="Inicio Lane"/><tag k="addr:housenumber" v="4610"/></node><node id="-460" lat="30.226028" lon="-97.628449" changeset="false"><tag k="addr:street" v="Garden Gate Drive"/><tag k="addr:housenumber" v="11808"/></node><node id="-461" lat="30.239879" lon="-97.574098" changeset="false"><tag k="addr:street" v="Inicio Lane"/><tag k="addr:housenumber" v="4614"/></node><node id="-462" lat="30.239611" lon="-97.576173" changeset="false"><tag k="addr:street" v="Graceful Lane"/><tag k="addr:housenumber" v="4524"/></node><node id="-463" lat="30.238156" lon="-97.572783" changeset="false"><tag k="addr:street" v="Kind Way"/><tag k="addr:housenumber" v="4531"/></node><node id="-464" lat="30.239414" lon="-97.572931" changeset="false"><tag k="addr:street" v="Esper Lane"/><tag k="addr:housenumber" v="4617"/></node><node id="-465" lat="30.239062" lon="-97.572219" changeset="false"><tag k="addr:street" v="Kind Way"/><tag k="addr:housenumber" v="4617"/></node><node id="-466" lat="30.239441" lon="-97.571963" changeset="false"><tag k="addr:street" v="Kind Way"/><tag k="addr:housenumber" v="4627"/></node><node id="-467" lat="30.238941" lon="-97.571331" changeset="false"><tag k="addr:street" v="Senda Lane"/><tag k="addr:housenumber" v="4623"/></node><node id="-468" lat="30.240366" lon="-97.575718" changeset="false"><tag k="addr:street" v="Graceful Lane"/><tag k="addr:housenumber" v="4608"/></node><node id="-469" lat="30.238164" lon="-97.574667" changeset="false"><tag k="addr:street" v="Inicio Lane"/><tag k="addr:housenumber" v="4511"/></node><node id="-470" lat="30.238593" lon="-97.576341" changeset="false"><tag k="addr:street" v="Graceful Lane"/><tag k="addr:housenumber" v="4503"/></node><node id="-471" lat="30.23874" lon="-97.576249" changeset="false"><tag k="addr:street" v="Graceful Lane"/><tag k="addr:housenumber" v="4507"/></node><node id="-472" lat="30.238817" lon="-97.576201" changeset="false"><tag k="addr:street" v="Graceful Lane"/><tag k="addr:housenumber" v="4509"/></node><node id="-473" lat="30.238976" lon="-97.576085" changeset="false"><tag k="addr:street" v="Graceful Lane"/><tag k="addr:housenumber" v="4513"/></node><node id="-474" lat="30.224357" lon="-97.629176" changeset="false"><tag k="addr:street" v="Garden Grove Drive"/><tag k="addr:housenumber" v="11812"/></node><node id="-475" lat="30.237435" lon="-97.572306" changeset="false"><tag k="addr:street" v="Senda Lane"/><tag k="addr:housenumber" v="4519"/></node><node id="-476" lat="30.239672" lon="-97.574687" changeset="false"><tag k="addr:street" v="Truth Way"/><tag k="addr:housenumber" v="4605"/></node><node id="-477" lat="30.239685" lon="-97.575155" changeset="false"><tag k="addr:street" v="Truth Way"/><tag k="addr:housenumber" v="4600"/></node><node id="-478" lat="30.239951" lon="-97.574458" changeset="false"><tag k="addr:street" v="Truth Way"/><tag k="addr:housenumber" v="4613"/></node><node id="-479" lat="30.237464" lon="-97.574192" changeset="false"><tag k="addr:street" v="Esper Lane"/><tag k="addr:housenumber" v="4501"/></node><node id="-480" lat="30.225084" lon="-97.630742" changeset="false"><tag k="addr:street" v="Garden Grove Drive"/><tag k="addr:housenumber" v="11700"/></node><node id="-481" lat="30.237892" lon="-97.571062" changeset="false"><tag k="addr:street" v="Credo Lane"/><tag k="addr:housenumber" v="4605"/></node><node id="-482" lat="30.238178" lon="-97.574246" changeset="false"><tag k="addr:street" v="Esper Lane"/><tag k="addr:housenumber" v="4514"/></node><node id="-483" lat="30.238554" lon="-97.574011" changeset="false"><tag k="addr:street" v="Esper Lane"/><tag k="addr:housenumber" v="4524"/></node><node id="-484" lat="30.239057" lon="-97.573672" changeset="false"><tag k="addr:street" v="Esper Lane"/><tag k="addr:housenumber" v="4602"/></node><node id="-485" lat="30.238939" lon="-97.57281" changeset="false"><tag k="addr:street" v="Kind Way"/><tag k="addr:housenumber" v="4608"/></node><node id="-486" lat="30.237392" lon="-97.572856" changeset="false"><tag k="addr:street" v="Senda Lane"/><tag k="addr:housenumber" v="4512"/></node><node id="-487" lat="30.237475" lon="-97.572805" changeset="false"><tag k="addr:street" v="Senda Lane"/><tag k="addr:housenumber" v="4514"/></node><node id="-488" lat="30.240121" lon="-97.5783" changeset="false"><tag k="addr:street" v="Halliday Avenue"/><tag k="addr:housenumber" v="4503"/></node><node id="-489" lat="30.236242" lon="-97.568689" changeset="false"><tag k="addr:street" v="Dunlap Road North,1100"/><tag k="addr:housenumber" v="4530"/></node><node id="-490" lat="30.238479" lon="-97.624361" changeset="false"><tag k="addr:street" v="Farm-to-Market Road 973"/><tag k="addr:housenumber" v="2814 1/2"/></node><node id="-491" lat="30.239443" lon="-97.573427" changeset="false"><tag k="addr:street" v="Esper Lane"/><tag k="addr:housenumber" v="4612"/></node><node id="-492" lat="30.259221" lon="-97.632325" changeset="false"><tag k="addr:street" v="Lower Drive"/><tag k="addr:housenumber" v="4000"/></node><node id="-493" lat="30.236388" lon="-97.571616" changeset="false"><tag k="addr:street" v="Best Way"/><tag k="addr:housenumber" v="4506"/></node><node id="-494" lat="30.237872" lon="-97.574868" changeset="false"><tag k="addr:street" v="Inicio Lane"/><tag k="addr:housenumber" v="4503"/></node><node id="-495" lat="30.239673" lon="-97.573272" changeset="false"><tag k="addr:street" v="Esper Lane"/><tag k="addr:housenumber" v="4618"/></node><node id="-496" lat="30.23949" lon="-97.572867" changeset="false"><tag k="addr:street" v="Esper Lane"/><tag k="addr:housenumber" v="4619"/></node><node id="-497" lat="30.239387" lon="-97.572504" changeset="false"><tag k="addr:street" v="Kind Way"/><tag k="addr:housenumber" v="4620"/></node><node id="-498" lat="30.238212" lon="-97.580372" changeset="false"><tag k="addr:street" v="Hatton Hill Lane"/><tag k="addr:housenumber" v="600"/></node><node id="-499" lat="30.238768" lon="-97.580962" changeset="false"><tag k="addr:street" v="Parrish Lane"/><tag k="addr:housenumber" v="15006"/></node><node id="-500" lat="30.238733" lon="-97.580809" changeset="false"><tag k="addr:street" v="Parrish Lane"/><tag k="addr:housenumber" v="15008"/></node><node id="-501" lat="30.236688" lon="-97.571412" changeset="false"><tag k="addr:street" v="Best Way"/><tag k="addr:housenumber" v="4514"/></node><node id="-502" lat="30.237108" lon="-97.573459" changeset="false"><tag k="addr:street" v="Kind Way"/><tag k="addr:housenumber" v="4503"/></node><node id="-503" lat="30.237374" lon="-97.573797" changeset="false"><tag k="addr:street" v="Kind Way"/><tag k="addr:housenumber" v="4504"/></node><node id="-504" lat="30.237448" lon="-97.573768" changeset="false"><tag k="addr:street" v="Kind Way"/><tag k="addr:housenumber" v="4506"/></node><node id="-505" lat="30.237256" lon="-97.573379" changeset="false"><tag k="addr:street" v="Kind Way"/><tag k="addr:housenumber" v="4507"/></node><node id="-506" lat="30.237516" lon="-97.573732" changeset="false"><tag k="addr:street" v="Kind Way"/><tag k="addr:housenumber" v="4508"/></node><node id="-507" lat="30.237671" lon="-97.573617" changeset="false"><tag k="addr:street" v="Kind Way"/><tag k="addr:housenumber" v="4512"/></node><node id="-508" lat="30.236596" lon="-97.572413" changeset="false"><tag k="addr:street" v="Credo Lane"/><tag k="addr:housenumber" v="4500"/></node><node id="-509" lat="30.235745" lon="-97.570117" changeset="false"><tag k="addr:street" v="Felicity Lane"/><tag k="addr:housenumber" v="4506"/></node><node id="-510" lat="30.236053" lon="-97.569916" changeset="false"><tag k="addr:street" v="Felicity Lane"/><tag k="addr:housenumber" v="4514"/></node><node id="-511" lat="30.235927" lon="-97.57043" changeset="false"><tag k="addr:street" v="Secure Lane"/><tag k="addr:housenumber" v="4507"/></node><node id="-512" lat="30.239649" lon="-97.572776" changeset="false"><tag k="addr:street" v="Esper Lane"/><tag k="addr:housenumber" v="4623"/></node><node id="-513" lat="30.239719" lon="-97.57272" changeset="false"><tag k="addr:street" v="Esper Lane"/><tag k="addr:housenumber" v="4625"/></node><node id="-514" lat="30.2387" lon="-97.57295" changeset="false"><tag k="addr:street" v="Kind Way"/><tag k="addr:housenumber" v="4602"/></node><node id="-515" lat="30.240741" lon="-97.575373" changeset="false"><tag k="addr:street" v="Graceful Lane"/><tag k="addr:housenumber" v="4620 1/2"/></node><node id="-516" lat="30.236967" lon="-97.578461" changeset="false"><tag k="addr:street" v="Yabers Court"/><tag k="addr:housenumber" v="709"/></node><node id="-517" lat="30.236779" lon="-97.57859" changeset="false"><tag k="addr:street" v="Yabers Court"/><tag k="addr:housenumber" v="801"/></node><node id="-518" lat="30.236005" lon="-97.579076" changeset="false"><tag k="addr:street" v="Yabers Court"/><tag k="addr:housenumber" v="905"/></node><node id="-519" lat="30.23789" lon="-97.580548" changeset="false"><tag k="addr:street" v="Hatton Hill Lane"/><tag k="addr:housenumber" v="606"/></node><node id="-520" lat="30.237803" lon="-97.580633" changeset="false"><tag k="addr:street" v="Hatton Hill Lane"/><tag k="addr:housenumber" v="700"/></node><node id="-521" lat="30.237231" lon="-97.581003" changeset="false"><tag k="addr:street" v="Hatton Hill Lane"/><tag k="addr:housenumber" v="712"/></node><node id="-522" lat="30.224986" lon="-97.576228" changeset="false"><tag k="addr:street" v="Dunlap Road North,1100"/><tag k="addr:housenumber" v="1236"/></node><node id="-523" lat="30.265972" lon="-97.626309" changeset="false"><tag k="addr:street" v="Imperial Drive,1100"/><tag k="addr:housenumber" v="4706"/></node><node id="-524" lat="30.238121" lon="-97.573331" changeset="false"><tag k="addr:street" v="Kind Way"/><tag k="addr:housenumber" v="4524"/></node><node id="-525" lat="30.242247" lon="-97.578735" changeset="false"><tag k="addr:street" v="Belfield Lane"/><tag k="addr:housenumber" v="4614"/></node><node id="-526" lat="30.242387" lon="-97.578651" changeset="false"><tag k="addr:street" v="Belfield Lane"/><tag k="addr:housenumber" v="4616"/></node><node id="-527" lat="30.240994" lon="-97.577854" changeset="false"><tag k="addr:street" v="Halliday Avenue"/><tag k="addr:housenumber" v="4605"/></node><node id="-528" lat="30.241397" lon="-97.577712" changeset="false"><tag k="addr:street" v="Halliday Avenue"/><tag k="addr:housenumber" v="4611"/></node><node id="-529" lat="30.234151" lon="-97.59126" changeset="false"><tag k="addr:street" v="Deaf Smith Boulevard"/><tag k="addr:housenumber" v="14324"/></node><node id="-530" lat="30.234145" lon="-97.592402" changeset="false"><tag k="addr:street" v="Deaf Smith Boulevard"/><tag k="addr:housenumber" v="14301"/></node><node id="-531" lat="30.233823" lon="-97.592476" changeset="false"><tag k="addr:street" v="Cottingham Drive"/><tag k="addr:housenumber" v="14202"/></node><node id="-532" lat="30.233784" lon="-97.591718" changeset="false"><tag k="addr:street" v="Deaf Smith Boulevard"/><tag k="addr:housenumber" v="14321"/></node><node id="-533" lat="30.233718" lon="-97.591576" changeset="false"><tag k="addr:street" v="Deaf Smith Boulevard"/><tag k="addr:housenumber" v="14325"/></node><node id="-534" lat="30.233945" lon="-97.59083" changeset="false"><tag k="addr:street" v="Deaf Smith Boulevard"/><tag k="addr:housenumber" v="14408"/></node><node id="-535" lat="30.239112" lon="-97.575539" changeset="false"><tag k="addr:street" v="Truth Way"/><tag k="addr:housenumber" v="4522"/></node><node id="-536" lat="30.238574" lon="-97.575884" changeset="false"><tag k="addr:street" v="Truth Way"/><tag k="addr:housenumber" v="4508"/></node><node id="-537" lat="30.238842" lon="-97.575199" changeset="false"><tag k="addr:street" v="Truth Way"/><tag k="addr:housenumber" v="4521"/></node><node id="-538" lat="30.261864" lon="-97.63051" changeset="false"><tag k="addr:street" v="Kings Court"/><tag k="addr:housenumber" v="4210"/></node><node id="-539" lat="30.239492" lon="-97.587214" changeset="false"><tag k="addr:street" v="Louise Lee Drive"/><tag k="addr:housenumber" v="4005"/></node><node id="-540" lat="30.257328" lon="-97.633022" changeset="false"><tag k="addr:street" v="Lorado Drive"/><tag k="addr:housenumber" v="10002"/></node><node id="-541" lat="30.237409" lon="-97.589393" changeset="false"><tag k="addr:street" v="Sandifer Street"/><tag k="addr:housenumber" v="14305"/></node><node id="-542" lat="30.233786" lon="-97.593129" changeset="false"><tag k="addr:street" v="Wickham Lane"/><tag k="addr:housenumber" v="3412"/></node><node id="-543" lat="30.233335" lon="-97.590673" changeset="false"><tag k="addr:street" v="Austins Colony Boulevard"/><tag k="addr:housenumber" v="3408 1/2"/></node><node id="-544" lat="30.233205" lon="-97.591352" changeset="false"><tag k="addr:street" v="Cottingham Drive"/><tag k="addr:housenumber" v="14310"/></node><node id="-545" lat="30.229763" lon="-97.591864" changeset="false"><tag k="addr:street" v="Hartsmith Drive"/><tag k="addr:housenumber" v="14505"/></node><node id="-546" lat="30.237067" lon="-97.584363" changeset="false"><tag k="addr:street" v="Highsmith Street"/><tag k="addr:housenumber" v="14706"/></node><node id="-547" lat="30.240461" lon="-97.58752" changeset="false"><tag k="addr:street" v="Reeders Drive"/><tag k="addr:housenumber" v="4103"/></node><node id="-548" lat="30.265452" lon="-97.627885" changeset="false"><tag k="addr:street" v="Pollo Drive"/><tag k="addr:housenumber" v="9904"/></node><node id="-549" lat="30.264706" lon="-97.628996" changeset="false"><tag k="addr:street" v="Atlantis Drive"/><tag k="addr:housenumber" v="4512"/></node><node id="-550" lat="30.239339" lon="-97.574455" changeset="false"><tag k="addr:street" v="Inicio Lane"/><tag k="addr:housenumber" v="4600"/></node><node id="-551" lat="30.239655" lon="-97.57427" changeset="false"><tag k="addr:street" v="Inicio Lane"/><tag k="addr:housenumber" v="4608"/></node><node id="-552" lat="30.230916" lon="-97.59406" changeset="false"><tag k="addr:street" v="Wickham Lane"/><tag k="addr:housenumber" v="3005"/></node><node id="-553" lat="30.225378" lon="-97.630565" changeset="false"><tag k="addr:street" v="Garden Meadow Road"/><tag k="addr:housenumber" v="11701"/></node><node id="-554" lat="30.226659" lon="-97.590837" changeset="false"><tag k="addr:street" v="Caleb Drive"/><tag k="addr:housenumber" v="2802"/></node><node id="-555" lat="30.239012" lon="-97.575099" changeset="false"><tag k="addr:street" v="Truth Way"/><tag k="addr:housenumber" v="4525"/></node><node id="-556" lat="30.239143" lon="-97.575008" changeset="false"><tag k="addr:street" v="Truth Way"/><tag k="addr:housenumber" v="4529"/></node><node id="-557" lat="30.231263" lon="-97.592037" changeset="false"><tag k="addr:street" v="Etheredge Drive"/><tag k="addr:housenumber" v="3205"/></node><node id="-558" lat="30.244602" lon="-97.584531" changeset="false"><tag k="addr:street" v="Castleman Drive"/><tag k="addr:housenumber" v="4604"/></node><node id="-559" lat="30.23943" lon="-97.575348" changeset="false"><tag k="addr:street" v="Truth Way"/><tag k="addr:housenumber" v="4530"/></node><node id="-560" lat="30.233881" lon="-97.585563" changeset="false"><tag k="addr:street" v="Crownover Street"/><tag k="addr:housenumber" v="3707"/></node><node id="-561" lat="30.237159" lon="-97.588838" changeset="false"><tag k="addr:street" v="Sandifer Street"/><tag k="addr:housenumber" v="14403"/></node><node id="-562" lat="30.238147" lon="-97.575632" changeset="false"><tag k="addr:street" v="Truth Way"/><tag k="addr:housenumber" v="4503"/></node><node id="-563" lat="30.236907" lon="-97.589042" changeset="false"><tag k="addr:street" v="Banda Lane"/><tag k="addr:housenumber" v="3500"/></node><node id="-564" lat="30.235677" lon="-97.624699" changeset="false"><tag k="addr:street" v="Farm-to-Market Road 973"/><tag k="addr:housenumber" v="2511"/></node><node id="-565" lat="30.261163" lon="-97.630552" changeset="false"><tag k="addr:street" v="Kings Court"/><tag k="addr:housenumber" v="4202"/></node><node id="-566" lat="30.224083" lon="-97.627779" changeset="false"><tag k="addr:street" v="Garden Meadow Road"/><tag k="addr:housenumber" v="12001"/></node><node id="-567" lat="30.221615" lon="-97.630882" changeset="false"><tag k="addr:street" v="Green Grove Drive"/><tag k="addr:housenumber" v="11900"/></node><node id="-568" lat="30.239051" lon="-97.5756" changeset="false"><tag k="addr:street" v="Truth Way"/><tag k="addr:housenumber" v="4520"/></node><node id="-569" lat="30.242797" lon="-97.580312" changeset="false"><tag k="addr:street" v="Plain View Drive"/><tag k="addr:housenumber" v="15013"/></node><node id="-570" lat="30.239729" lon="-97.579186" changeset="false"><tag k="addr:street" v="Halliday Avenue"/><tag k="addr:housenumber" v="4400"/></node><node id="-571" lat="30.245385" lon="-97.580046" changeset="false"><tag k="addr:street" v="Clear View Drive"/><tag k="addr:housenumber" v="4903"/></node><node id="-572" lat="30.236653" lon="-97.589496" changeset="false"><tag k="addr:street" v="Banda Lane"/><tag k="addr:housenumber" v="3508"/></node><node id="-573" lat="30.227011" lon="-97.590462" changeset="false"><tag k="addr:street" v="Crownover Street"/><tag k="addr:housenumber" v="2802"/></node><node id="-574" lat="30.239537" lon="-97.587615" changeset="false"><tag k="addr:street" v="Louise Lee Drive"/><tag k="addr:housenumber" v="4002"/></node><node id="-575" lat="30.234472" lon="-97.585197" changeset="false"><tag k="addr:street" v="Crownover Street"/><tag k="addr:housenumber" v="3717"/></node><node id="-576" lat="30.232858" lon="-97.58675" changeset="false"><tag k="addr:street" v="Menifee Street"/><tag k="addr:housenumber" v="14710"/></node><node id="-577" lat="30.245084" lon="-97.585489" changeset="false"><tag k="addr:street" v="Sojourner Street"/><tag k="addr:housenumber" v="4605"/></node><node id="-578" lat="30.233374" lon="-97.570691" changeset="false"><tag k="addr:street" v="Dunlap Road North,1100"/><tag k="addr:housenumber" v="902"/></node><node id="-579" lat="30.244603" lon="-97.584858" changeset="false"><tag k="addr:street" v="Fallenash Drive"/><tag k="addr:housenumber" v="4603"/></node><node id="-580" lat="30.256983" lon="-97.632942" changeset="false"><tag k="addr:street" v="Lorado Drive"/><tag k="addr:housenumber" v="10005"/></node><node id="-581" lat="30.239435" lon="-97.573848" changeset="false"><tag k="addr:street" v="Inicio Lane"/><tag k="addr:housenumber" v="4609"/></node><node id="-582" lat="30.239801" lon="-97.574162" changeset="false"><tag k="addr:street" v="Inicio Lane"/><tag k="addr:housenumber" v="4612"/></node><node id="-583" lat="30.237494" lon="-97.589525" changeset="false"><tag k="addr:street" v="Sandifer Street"/><tag k="addr:housenumber" v="14303"/></node><node id="-584" lat="30.223577" lon="-97.626944" changeset="false"><tag k="addr:street" v="Green Pastures Drive"/><tag k="addr:housenumber" v="1325"/></node><node id="-585" lat="30.239592" lon="-97.573753" changeset="false"><tag k="addr:street" v="Inicio Lane"/><tag k="addr:housenumber" v="4613"/></node><node id="-586" lat="30.222441" lon="-97.627687" changeset="false"><tag k="addr:street" v="Green Pastures Cove"/><tag k="addr:housenumber" v="1405"/></node><node id="-587" lat="30.232605" lon="-97.630225" changeset="false"><tag k="addr:street" v="Platt Lane"/><tag k="addr:housenumber" v="11351"/></node><node id="-588" lat="30.227657" lon="-97.612128" changeset="false"><tag k="addr:street" v="Harold Green Road"/><tag k="addr:housenumber" v="13101"/></node><node id="-589" lat="30.231837" lon="-97.587115" changeset="false"><tag k="addr:street" v="Deaf Smith Boulevard"/><tag k="addr:housenumber" v="14801 1/2"/></node><node id="-590" lat="30.264428" lon="-97.627283" changeset="false"><tag k="addr:street" v="Imperial Drive,1100"/><tag k="addr:housenumber" v="4603"/></node><node id="-591" lat="30.238041" lon="-97.588997" changeset="false"><tag k="addr:street" v="Varrelman Street"/><tag k="addr:housenumber" v="14303"/></node><node id="-592" lat="30.238288" lon="-97.589523" changeset="false"><tag k="addr:street" v="Varrelman Street"/><tag k="addr:housenumber" v="14205"/></node><node id="-593" lat="30.221276" lon="-97.629751" changeset="false"><tag k="addr:street" v="Green Pastures Drive"/><tag k="addr:housenumber" v="1508"/></node><node id="-594" lat="30.232406" lon="-97.587451" changeset="false"><tag k="addr:street" v="Deaf Smith Boulevard"/><tag k="addr:housenumber" v="14706"/></node><node id="-595" lat="30.238272" lon="-97.590364" changeset="false"><tag k="addr:street" v="Sojourner Street"/><tag k="addr:housenumber" v="3700"/></node><node id="-596" lat="30.238235" lon="-97.589381" changeset="false"><tag k="addr:street" v="Varrelman Street"/><tag k="addr:housenumber" v="14207"/></node><node id="-597" lat="30.238171" lon="-97.589244" changeset="false"><tag k="addr:street" v="Varrelman Street"/><tag k="addr:housenumber" v="14209"/></node><node id="-598" lat="30.235603" lon="-97.570203" changeset="false"><tag k="addr:street" v="Felicity Lane"/><tag k="addr:housenumber" v="4502"/></node><node id="-599" lat="30.238366" lon="-97.570759" changeset="false"><tag k="addr:street" v="Credo Lane"/><tag k="addr:housenumber" v="4617"/></node><node id="-600" lat="30.257659" lon="-97.631934" changeset="false"><tag k="addr:street" v="Veldt Drive"/><tag k="addr:housenumber" v="3802"/></node><node id="-601" lat="30.238077" lon="-97.571688" changeset="false"><tag k="addr:street" v="Senda Lane"/><tag k="addr:housenumber" v="4601"/></node><node id="-602" lat="30.238359" lon="-97.572249" changeset="false"><tag k="addr:street" v="Senda Lane"/><tag k="addr:housenumber" v="4602"/></node><node id="-603" lat="30.238486" lon="-97.571624" changeset="false"><tag k="addr:street" v="Senda Lane"/><tag k="addr:housenumber" v="4611"/></node><node id="-604" lat="30.239593" lon="-97.57474" changeset="false"><tag k="addr:street" v="Truth Way"/><tag k="addr:housenumber" v="4603"/></node><node id="-605" lat="30.239917" lon="-97.575012" changeset="false"><tag k="addr:street" v="Truth Way"/><tag k="addr:housenumber" v="4606"/></node><node id="-606" lat="30.240142" lon="-97.574868" changeset="false"><tag k="addr:street" v="Truth Way"/><tag k="addr:housenumber" v="4612"/></node><node id="-607" lat="30.240517" lon="-97.57461" changeset="false"><tag k="addr:street" v="Truth Way"/><tag k="addr:housenumber" v="4622"/></node><node id="-608" lat="30.240355" lon="-97.574239" changeset="false"><tag k="addr:street" v="Truth Way"/><tag k="addr:housenumber" v="4623"/></node><node id="-609" lat="30.22462" lon="-97.629806" changeset="false"><tag k="addr:street" v="Garden Grove Drive"/><tag k="addr:housenumber" v="11804"/></node><node id="-610" lat="30.224132" lon="-97.626591" changeset="false"><tag k="addr:street" v="Green Pastures Drive"/><tag k="addr:housenumber" v="1317"/></node><node id="-611" lat="30.226747" lon="-97.59106" changeset="false"><tag k="addr:street" v="Caleb Drive"/><tag k="addr:housenumber" v="2806"/></node><node id="-612" lat="30.226022" lon="-97.630978" changeset="false"><tag k="addr:street" v="Watermelon Way"/><tag k="addr:housenumber" v="1204"/></node><node id="-613" lat="30.239752" lon="-97.573228" changeset="false"><tag k="addr:street" v="Esper Lane"/><tag k="addr:housenumber" v="4620"/></node><node id="-614" lat="30.238774" lon="-97.578288" changeset="false"><tag k="addr:street" v="Lucian Drive"/><tag k="addr:housenumber" v="15206"/></node><node id="-615" lat="30.23756" lon="-97.573173" changeset="false"><tag k="addr:street" v="Kind Way"/><tag k="addr:housenumber" v="4515"/></node><node id="-616" lat="30.237931" lon="-97.572918" changeset="false"><tag k="addr:street" v="Kind Way"/><tag k="addr:housenumber" v="4525"/></node><node id="-617" lat="30.239313" lon="-97.572551" changeset="false"><tag k="addr:street" v="Kind Way"/><tag k="addr:housenumber" v="4618"/></node><node id="-618" lat="30.239469" lon="-97.572462" changeset="false"><tag k="addr:street" v="Kind Way"/><tag k="addr:housenumber" v="4622"/></node><node id="-619" lat="30.237027" lon="-97.573514" changeset="false"><tag k="addr:street" v="Kind Way"/><tag k="addr:housenumber" v="4501"/></node><node id="-620" lat="30.237736" lon="-97.573557" changeset="false"><tag k="addr:street" v="Kind Way"/><tag k="addr:housenumber" v="4514"/></node><node id="-621" lat="30.23667" lon="-97.572371" changeset="false"><tag k="addr:street" v="Credo Lane"/><tag k="addr:housenumber" v="4502"/></node><node id="-622" lat="30.238564" lon="-97.574433" changeset="false"><tag k="addr:street" v="Inicio Lane"/><tag k="addr:housenumber" v="4521"/></node><node id="-623" lat="30.238635" lon="-97.574377" changeset="false"><tag k="addr:street" v="Inicio Lane"/><tag k="addr:housenumber" v="4523"/></node><node id="-624" lat="30.238747" lon="-97.572395" changeset="false"><tag k="addr:street" v="Kind Way"/><tag k="addr:housenumber" v="4609"/></node><node id="-625" lat="30.239435" lon="-97.575797" changeset="false"><tag k="addr:street" v="Graceful Lane"/><tag k="addr:housenumber" v="4525"/></node><node id="-626" lat="30.235894" lon="-97.57097" changeset="false"><tag k="addr:street" v="Secure Lane"/><tag k="addr:housenumber" v="4500"/></node><node id="-627" lat="30.237621" lon="-97.572713" changeset="false"><tag k="addr:street" v="Senda Lane"/><tag k="addr:housenumber" v="4518"/></node><node id="-628" lat="30.240619" lon="-97.578018" changeset="false"><tag k="addr:street" v="Halliday Avenue"/><tag k="addr:housenumber" v="4511"/></node><node id="-629" lat="30.240866" lon="-97.57785" changeset="false"><tag k="addr:street" v="Halliday Avenue"/><tag k="addr:housenumber" v="4603"/></node><node id="-630" lat="30.241163" lon="-97.578578" changeset="false"><tag k="addr:street" v="Imes Lane"/><tag k="addr:housenumber" v="15104"/></node><node id="-631" lat="30.239905" lon="-97.579828" changeset="false"><tag k="addr:street" v="Belfield Lane"/><tag k="addr:housenumber" v="4400"/></node><node id="-632" lat="30.240269" lon="-97.580032" changeset="false"><tag k="addr:street" v="Belfield Lane"/><tag k="addr:housenumber" v="4404"/></node><node id="-633" lat="30.240373" lon="-97.57931" changeset="false"><tag k="addr:street" v="Belfield Lane"/><tag k="addr:housenumber" v="4407"/></node><node id="-634" lat="30.238556" lon="-97.571571" changeset="false"><tag k="addr:street" v="Senda Lane"/><tag k="addr:housenumber" v="4613"/></node><node id="-635" lat="30.239151" lon="-97.576455" changeset="false"><tag k="addr:street" v="Graceful Lane"/><tag k="addr:housenumber" v="4512"/></node><node id="-636" lat="30.239307" lon="-97.576366" changeset="false"><tag k="addr:street" v="Graceful Lane"/><tag k="addr:housenumber" v="4516"/></node><node id="-637" lat="30.238894" lon="-97.578452" changeset="false"><tag k="addr:street" v="Lucian Drive"/><tag k="addr:housenumber" v="15204"/></node><node id="-638" lat="30.23763" lon="-97.570308" changeset="false"><tag k="addr:street" v="Best Way"/><tag k="addr:housenumber" v="4607"/></node><node id="-639" lat="30.239059" lon="-97.576057" changeset="false"><tag k="addr:street" v="Graceful Lane"/><tag k="addr:housenumber" v="4515"/></node><node id="-640" lat="30.236042" lon="-97.570884" changeset="false"><tag k="addr:street" v="Secure Lane"/><tag k="addr:housenumber" v="4504"/></node><node id="-641" lat="30.235851" lon="-97.570479" changeset="false"><tag k="addr:street" v="Secure Lane"/><tag k="addr:housenumber" v="4505"/></node><node id="-642" lat="30.240504" lon="-97.57924" changeset="false"><tag k="addr:street" v="Belfield Lane"/><tag k="addr:housenumber" v="4501"/></node><node id="-643" lat="30.237811" lon="-97.570679" changeset="false"><tag k="addr:street" v="Best Way"/><tag k="addr:housenumber" v="4606"/></node><node id="-644" lat="30.257805" lon="-97.63326" changeset="false"><tag k="addr:street" v="Lower Drive"/><tag k="addr:housenumber" v="3804"/></node><node id="-645" lat="30.237832" lon="-97.573937" changeset="false"><tag k="addr:street" v="Esper Lane"/><tag k="addr:housenumber" v="4511"/></node><node id="-646" lat="30.236795" lon="-97.570396" changeset="false"><tag k="addr:street" v="Secure Lane"/><tag k="addr:housenumber" v="4524"/></node><node id="-647" lat="30.238856" lon="-97.572856" changeset="false"><tag k="addr:street" v="Kind Way"/><tag k="addr:housenumber" v="4606"/></node><node id="-648" lat="30.238212" lon="-97.573691" changeset="false"><tag k="addr:street" v="Esper Lane"/><tag k="addr:housenumber" v="4521"/></node><node id="-649" lat="30.238636" lon="-97.573961" changeset="false"><tag k="addr:street" v="Esper Lane"/><tag k="addr:housenumber" v="4526"/></node><node id="-650" lat="30.238872" lon="-97.573267" changeset="false"><tag k="addr:street" v="Esper Lane"/><tag k="addr:housenumber" v="4603"/></node><node id="-651" lat="30.239286" lon="-97.622637" changeset="false"><tag k="addr:street" v="Farm-to-Market Road 973"/><tag k="addr:housenumber" v="2841"/></node><node id="-652" lat="30.234402" lon="-97.59184" changeset="false"><tag k="addr:street" v="Deaf Smith Boulevard"/><tag k="addr:housenumber" v="14308"/></node><node id="-653" lat="30.234061" lon="-97.592262" changeset="false"><tag k="addr:street" v="Deaf Smith Boulevard"/><tag k="addr:housenumber" v="14305"/></node><node id="-654" lat="30.233994" lon="-97.59298" changeset="false"><tag k="addr:street" v="Wickham Lane"/><tag k="addr:housenumber" v="3502"/></node><node id="-655" lat="30.234695" lon="-97.59241" changeset="false"><tag k="addr:street" v="Wickham Lane"/><tag k="addr:housenumber" v="3522"/></node><node id="-656" lat="30.23346" lon="-97.590962" changeset="false"><tag k="addr:street" v="Deaf Smith Boulevard"/><tag k="addr:housenumber" v="14413"/></node><node id="-657" lat="30.236567" lon="-97.578714" changeset="false"><tag k="addr:street" v="Yabers Court"/><tag k="addr:housenumber" v="805"/></node><node id="-658" lat="30.235683" lon="-97.579333" changeset="false"><tag k="addr:street" v="Yabers Court"/><tag k="addr:housenumber" v="911"/></node><node id="-659" lat="30.241505" lon="-97.578151" changeset="false"><tag k="addr:street" v="Halliday Avenue"/><tag k="addr:housenumber" v="4610"/></node><node id="-660" lat="30.24163" lon="-97.577532" changeset="false"><tag k="addr:street" v="Halliday Avenue"/><tag k="addr:housenumber" v="4615"/></node><node id="-661" lat="30.241997" lon="-97.57785" changeset="false"><tag k="addr:street" v="Halliday Avenue"/><tag k="addr:housenumber" v="4618"/></node><node id="-662" lat="30.265436" lon="-97.626043" changeset="false"><tag k="addr:street" v="Imperial Drive,1100"/><tag k="addr:housenumber" v="4705"/></node><node id="-663" lat="30.260565" lon="-97.630184" changeset="false"><tag k="addr:street" v="Imperial Drive,1100"/><tag k="addr:housenumber" v="4209"/></node><node id="-664" lat="30.223348" lon="-97.627077" changeset="false"><tag k="addr:street" v="Green Pastures Drive"/><tag k="addr:housenumber" v="1329"/></node><node id="-665" lat="30.263807" lon="-97.629451" changeset="false"><tag k="addr:street" v="Atlantis Drive"/><tag k="addr:housenumber" v="4504"/></node><node id="-666" lat="30.229594" lon="-97.621743" changeset="false"><tag k="addr:street" v="Harold Green Road"/><tag k="addr:housenumber" v="12101"/></node><node id="-667" lat="30.216249" lon="-97.571291" changeset="false"><tag k="addr:street" v="Dunlap Road North,1100"/><tag k="addr:housenumber" v="1249"/></node><node id="-668" lat="30.229886" lon="-97.617692" changeset="false"><tag k="addr:street" v="Harold Green Road"/><tag k="addr:housenumber" v="12600"/></node><node id="-669" lat="30.227555" lon="-97.617714" changeset="false"><tag k="addr:street" v="Harold Green Road"/><tag k="addr:housenumber" v="12601"/></node><node id="-670" lat="30.234286" lon="-97.639866" changeset="false"><tag k="addr:street" v="Platt Lane"/><tag k="addr:housenumber" v="10522"/></node><node id="-671" lat="30.259136" lon="-97.631337" changeset="false"><tag k="addr:street" v="Veldt Drive"/><tag k="addr:housenumber" v="4002"/></node><node id="-672" lat="30.265274" lon="-97.626709" changeset="false"><tag k="addr:street" v="Imperial Drive,1100"/><tag k="addr:housenumber" v="4700"/></node><node id="-673" lat="30.264898" lon="-97.628251" changeset="false"><tag k="addr:street" v="Atlantis Drive"/><tag k="addr:housenumber" v="4603"/></node><node id="-674" lat="30.221087" lon="-97.62985" changeset="false"><tag k="addr:street" v="Green Grove Drive"/><tag k="addr:housenumber" v="11908"/></node><node id="-675" lat="30.238057" lon="-97.57097" changeset="false"><tag k="addr:street" v="Credo Lane"/><tag k="addr:housenumber" v="4609"/></node><node id="-676" lat="30.237773" lon="-97.573031" changeset="false"><tag k="addr:street" v="Kind Way"/><tag k="addr:housenumber" v="4521"/></node><node id="-677" lat="30.239204" lon="-97.572104" changeset="false"><tag k="addr:street" v="Kind Way"/><tag k="addr:housenumber" v="4621"/></node><node id="-678" lat="30.236941" lon="-97.573149" changeset="false"><tag k="addr:street" v="Senda Lane"/><tag k="addr:housenumber" v="4500"/></node><node id="-679" lat="30.236441" lon="-97.569674" changeset="false"><tag k="addr:street" v="Felicity Lane"/><tag k="addr:housenumber" v="4524"/></node><node id="-680" lat="30.238403" lon="-97.574517" changeset="false"><tag k="addr:street" v="Inicio Lane"/><tag k="addr:housenumber" v="4517"/></node><node id="-681" lat="30.238767" lon="-97.574832" changeset="false"><tag k="addr:street" v="Inicio Lane"/><tag k="addr:housenumber" v="4520"/></node><node id="-682" lat="30.238998" lon="-97.574707" changeset="false"><tag k="addr:street" v="Inicio Lane"/><tag k="addr:housenumber" v="4526"/></node><node id="-683" lat="30.238865" lon="-97.574244" changeset="false"><tag k="addr:street" v="Inicio Lane"/><tag k="addr:housenumber" v="4529"/></node><node id="-684" lat="30.23998" lon="-97.573513" changeset="false"><tag k="addr:street" v="Inicio Lane"/><tag k="addr:housenumber" v="4623"/></node><node id="-685" lat="30.238604" lon="-97.571098" changeset="false"><tag k="addr:street" v="Credo Lane"/><tag k="addr:housenumber" v="4618"/></node><node id="-686" lat="30.237587" lon="-97.571786" changeset="false"><tag k="addr:street" v="Credo Lane"/><tag k="addr:housenumber" v="4526"/></node><node id="-687" lat="30.238894" lon="-97.572292" changeset="false"><tag k="addr:street" v="Kind Way"/><tag k="addr:housenumber" v="4613"/></node><node id="-688" lat="30.23794" lon="-97.574414" changeset="false"><tag k="addr:street" v="Esper Lane"/><tag k="addr:housenumber" v="4508"/></node><node id="-689" lat="30.236971" lon="-97.5726" changeset="false"><tag k="addr:street" v="Senda Lane"/><tag k="addr:housenumber" v="4507"/></node><node id="-690" lat="30.237353" lon="-97.572352" changeset="false"><tag k="addr:street" v="Senda Lane"/><tag k="addr:housenumber" v="4517"/></node><node id="-691" lat="30.240503" lon="-97.578083" changeset="false"><tag k="addr:street" v="Halliday Avenue"/><tag k="addr:housenumber" v="4509"/></node><node id="-692" lat="30.238711" lon="-97.571492" changeset="false"><tag k="addr:street" v="Senda Lane"/><tag k="addr:housenumber" v="4617"/></node><node id="-693" lat="30.238791" lon="-97.571431" changeset="false"><tag k="addr:street" v="Senda Lane"/><tag k="addr:housenumber" v="4619"/></node><node id="-694" lat="30.239131" lon="-97.571737" changeset="false"><tag k="addr:street" v="Senda Lane"/><tag k="addr:housenumber" v="4622"/></node><node id="-695" lat="30.238498" lon="-97.577218" changeset="false"><tag k="addr:street" v="Hunters Bend Road"/><tag k="addr:housenumber" v="15325"/></node><node id="-696" lat="30.237583" lon="-97.572209" changeset="false"><tag k="addr:street" v="Senda Lane"/><tag k="addr:housenumber" v="4523"/></node><node id="-697" lat="30.238278" lon="-97.572293" changeset="false"><tag k="addr:street" v="Senda Lane"/><tag k="addr:housenumber" v="4600"/></node><node id="-698" lat="30.239835" lon="-97.575049" changeset="false"><tag k="addr:street" v="Truth Way"/><tag k="addr:housenumber" v="4604"/></node><node id="-699" lat="30.240065" lon="-97.574917" changeset="false"><tag k="addr:street" v="Truth Way"/><tag k="addr:housenumber" v="4610"/></node><node id="-700" lat="30.240215" lon="-97.574818" changeset="false"><tag k="addr:street" v="Truth Way"/><tag k="addr:housenumber" v="4614"/></node><node id="-701" lat="30.240366" lon="-97.574702" changeset="false"><tag k="addr:street" v="Truth Way"/><tag k="addr:housenumber" v="4618"/></node><node id="-702" lat="30.237753" lon="-97.573992" changeset="false"><tag k="addr:street" v="Esper Lane"/><tag k="addr:housenumber" v="4509"/></node><node id="-703" lat="30.238017" lon="-97.574362" changeset="false"><tag k="addr:street" v="Esper Lane"/><tag k="addr:housenumber" v="4510"/></node><node id="-704" lat="30.23747" lon="-97.568097" changeset="false"><tag k="addr:street" v="Dunlap Road North,1100"/><tag k="addr:housenumber" v="4600 1/2"/></node><node id="-705" lat="30.23965" lon="-97.579201" changeset="false"><tag k="addr:street" v="Hunters Bend Road"/><tag k="addr:housenumber" v="15118 1/2"/></node><node id="-706" lat="30.23837" lon="-97.575092" changeset="false"><tag k="addr:street" v="Inicio Lane"/><tag k="addr:housenumber" v="4510"/></node><node id="-707" lat="30.238255" lon="-97.574628" changeset="false"><tag k="addr:street" v="Inicio Lane"/><tag k="addr:housenumber" v="4513"/></node><node id="-708" lat="30.23859" lon="-97.572091" changeset="false"><tag k="addr:street" v="Senda Lane"/><tag k="addr:housenumber" v="4608"/></node><node id="-709" lat="30.239076" lon="-97.576507" changeset="false"><tag k="addr:street" v="Graceful Lane"/><tag k="addr:housenumber" v="4510"/></node><node id="-710" lat="30.25949" lon="-97.630745" changeset="false"><tag k="addr:street" v="Veldt Drive"/><tag k="addr:housenumber" v="4007"/></node><node id="-711" lat="30.259351" lon="-97.631727" changeset="false"><tag k="addr:street" v="Lower Drive"/><tag k="addr:housenumber" v="4003"/></node><node id="-712" lat="30.240339" lon="-97.573819" changeset="false"><tag k="addr:street" v="Inicio Lane"/><tag k="addr:housenumber" v="4626"/></node><node id="-713" lat="30.239589" lon="-97.575709" changeset="false"><tag k="addr:street" v="Graceful Lane"/><tag k="addr:housenumber" v="4529"/></node><node id="-714" lat="30.237886" lon="-97.570629" changeset="false"><tag k="addr:street" v="Best Way"/><tag k="addr:housenumber" v="4608"/></node><node id="-715" lat="30.241768" lon="-97.579053" changeset="false"><tag k="addr:street" v="Belfield Lane"/><tag k="addr:housenumber" v="4606"/></node><node id="-716" lat="30.241835" lon="-97.578529" changeset="false"><tag k="addr:street" v="Belfield Lane"/><tag k="addr:housenumber" v="4611"/></node><node id="-717" lat="30.242192" lon="-97.578273" changeset="false"><tag k="addr:street" v="Belfield Lane"/><tag k="addr:housenumber" v="4617"/></node><node id="-718" lat="30.24174" lon="-97.57802" changeset="false"><tag k="addr:street" v="Halliday Avenue"/><tag k="addr:housenumber" v="4614"/></node><node id="-719" lat="30.241885" lon="-97.577953" changeset="false"><tag k="addr:street" v="Halliday Avenue"/><tag k="addr:housenumber" v="4616"/></node><node id="-720" lat="30.239203" lon="-97.571695" changeset="false"><tag k="addr:street" v="Senda Lane"/><tag k="addr:housenumber" v="4624"/></node><node id="-721" lat="30.240508" lon="-97.575599" changeset="false"><tag k="addr:street" v="Graceful Lane"/><tag k="addr:housenumber" v="4612"/></node><node id="-722" lat="30.264851" lon="-97.62768" changeset="false"><tag k="addr:street" v="Imperial Drive,1100"/><tag k="addr:housenumber" v="4604"/></node><node id="-723" lat="30.23791" lon="-97.573885" changeset="false"><tag k="addr:street" v="Esper Lane"/><tag k="addr:housenumber" v="4513"/></node><node id="-724" lat="30.239105" lon="-97.573119" changeset="false"><tag k="addr:street" v="Esper Lane"/><tag k="addr:housenumber" v="4609"/></node><node id="-725" lat="30.240432" lon="-97.575647" changeset="false"><tag k="addr:street" v="Graceful Lane"/><tag k="addr:housenumber" v="4610"/></node><node id="-726" lat="30.262836" lon="-97.629736" changeset="false"><tag k="addr:street" v="Regal Court"/><tag k="addr:housenumber" v="9909"/></node><node id="-727" lat="30.234272" lon="-97.591548" changeset="false"><tag k="addr:street" v="Deaf Smith Boulevard"/><tag k="addr:housenumber" v="14316"/></node><node id="-728" lat="30.234189" lon="-97.592862" changeset="false"><tag k="addr:street" v="Wickham Lane"/><tag k="addr:housenumber" v="3506"/></node><node id="-729" lat="30.234528" lon="-97.592144" changeset="false"><tag k="addr:street" v="Deaf Smith Boulevard"/><tag k="addr:housenumber" v="14300"/></node><node id="-730" lat="30.23388" lon="-97.590682" changeset="false"><tag k="addr:street" v="Deaf Smith Boulevard"/><tag k="addr:housenumber" v="14412"/></node><node id="-731" lat="30.23688" lon="-97.578535" changeset="false"><tag k="addr:street" v="Yabers Court"/><tag k="addr:housenumber" v="711"/></node><node id="-732" lat="30.236487" lon="-97.578772" changeset="false"><tag k="addr:street" v="Yabers Court"/><tag k="addr:housenumber" v="807"/></node><node id="-733" lat="30.236382" lon="-97.578841" changeset="false"><tag k="addr:street" v="Yabers Court"/><tag k="addr:housenumber" v="809"/></node><node id="-734" lat="30.237611" lon="-97.580737" changeset="false"><tag k="addr:street" v="Hatton Hill Lane"/><tag k="addr:housenumber" v="704"/></node><node id="-735" lat="30.233324" lon="-97.590626" changeset="false"><tag k="addr:street" v="Deaf Smith Boulevard"/><tag k="addr:housenumber" v="14421"/></node><node id="-736" lat="30.23923" lon="-97.574947" changeset="false"><tag k="addr:street" v="Truth Way"/><tag k="addr:housenumber" v="4531"/></node><node id="-737" lat="30.237368" lon="-97.57825" changeset="false"><tag k="addr:street" v="Yabers Court"/><tag k="addr:housenumber" v="701"/></node><node id="-738" lat="30.236948" lon="-97.581196" changeset="false"><tag k="addr:street" v="Hatton Hill Lane"/><tag k="addr:housenumber" v="804"/></node><node id="-739" lat="30.238899" lon="-97.578683" changeset="false"><tag k="addr:street" v="Lucian Drive"/><tag k="addr:housenumber" v="15202"/></node><node id="-740" lat="30.238345" lon="-97.580761" changeset="false"><tag k="addr:street" v="Silver Wing Drive"/><tag k="addr:housenumber" v="601"/></node><node id="-741" lat="30.240426" lon="-97.579935" changeset="false"><tag k="addr:street" v="Belfield Lane"/><tag k="addr:housenumber" v="4406"/></node><node id="-742" lat="30.238524" lon="-97.578865" changeset="false"><tag k="addr:street" v="Lucian Drive"/><tag k="addr:housenumber" v="15201"/></node><node id="-743" lat="30.264035" lon="-97.629546" changeset="false"><tag k="addr:street" v="Atlantis Drive"/><tag k="addr:housenumber" v="4506"/></node><node id="-744" lat="30.233508" lon="-97.641277" changeset="false"><tag k="addr:street" v="Platt Lane"/><tag k="addr:housenumber" v="10600"/></node><node id="-745" lat="30.238105" lon="-97.574314" changeset="false"><tag k="addr:street" v="Esper Lane"/><tag k="addr:housenumber" v="4512"/></node><node id="-746" lat="30.236265" lon="-97.57074" changeset="false"><tag k="addr:street" v="Secure Lane"/><tag k="addr:housenumber" v="4510"/></node><node id="-747" lat="30.236642" lon="-97.570489" changeset="false"><tag k="addr:street" v="Secure Lane"/><tag k="addr:housenumber" v="4520"/></node><node id="-748" lat="30.239825" lon="-97.573174" changeset="false"><tag k="addr:street" v="Esper Lane"/><tag k="addr:housenumber" v="4622"/></node><node id="-749" lat="30.238319" lon="-97.578461" changeset="false"><tag k="addr:street" v="Lucian Drive"/><tag k="addr:housenumber" v="15205"/></node><node id="-750" lat="30.238215" lon="-97.578307" changeset="false"><tag k="addr:street" v="Lucian Drive"/><tag k="addr:housenumber" v="15207"/></node><node id="-751" lat="30.238366" lon="-97.578657" changeset="false"><tag k="addr:street" v="Lucian Drive"/><tag k="addr:housenumber" v="15203"/></node><node id="-752" lat="30.262934" lon="-97.629888" changeset="false"><tag k="addr:street" v="Regal Court"/><tag k="addr:housenumber" v="9905"/></node><node id="-753" lat="30.245118" lon="-97.580847" changeset="false"><tag k="addr:street" v="Clear View Drive"/><tag k="addr:housenumber" v="4812"/></node><node id="-754" lat="30.242123" lon="-97.578818" changeset="false"><tag k="addr:street" v="Belfield Lane"/><tag k="addr:housenumber" v="4612"/></node><node id="-755" lat="30.241953" lon="-97.578456" changeset="false"><tag k="addr:street" v="Belfield Lane"/><tag k="addr:housenumber" v="4613"/></node><node id="-756" lat="30.241235" lon="-97.5783" changeset="false"><tag k="addr:street" v="Halliday Avenue"/><tag k="addr:housenumber" v="4606"/></node><node id="-757" lat="30.24115" lon="-97.577819" changeset="false"><tag k="addr:street" v="Halliday Avenue"/><tag k="addr:housenumber" v="4607"/></node><node id="-758" lat="30.241259" lon="-97.577753" changeset="false"><tag k="addr:street" v="Halliday Avenue"/><tag k="addr:housenumber" v="4609"/></node><node id="-759" lat="30.237989" lon="-97.573848" changeset="false"><tag k="addr:street" v="Esper Lane"/><tag k="addr:housenumber" v="4515"/></node><node id="-760" lat="30.238323" lon="-97.574157" changeset="false"><tag k="addr:street" v="Esper Lane"/><tag k="addr:housenumber" v="4518"/></node><node id="-761" lat="30.23837" lon="-97.573598" changeset="false"><tag k="addr:street" v="Esper Lane"/><tag k="addr:housenumber" v="4525"/></node><node id="-762" lat="30.238711" lon="-97.573913" changeset="false"><tag k="addr:street" v="Esper Lane"/><tag k="addr:housenumber" v="4528"/></node><node id="-763" lat="30.238978" lon="-97.573715" changeset="false"><tag k="addr:street" v="Esper Lane"/><tag k="addr:housenumber" v="4600"/></node><node id="-764" lat="30.238614" lon="-97.581574" changeset="false"><tag k="addr:street" v="Red Tails Drive"/><tag k="addr:housenumber" v="601"/></node><node id="-765" lat="30.234212" lon="-97.5914" changeset="false"><tag k="addr:street" v="Deaf Smith Boulevard"/><tag k="addr:housenumber" v="14320"/></node><node id="-766" lat="30.234092" lon="-97.592918" changeset="false"><tag k="addr:street" v="Wickham Lane"/><tag k="addr:housenumber" v="3504"/></node><node id="-767" lat="30.234375" lon="-97.59275" changeset="false"><tag k="addr:street" v="Wickham Lane"/><tag k="addr:housenumber" v="3510"/></node><node id="-768" lat="30.233884" lon="-97.592596" changeset="false"><tag k="addr:street" v="Cottingham Drive"/><tag k="addr:housenumber" v="14200"/></node><node id="-769" lat="30.23372" lon="-97.59225" changeset="false"><tag k="addr:street" v="Cottingham Drive"/><tag k="addr:housenumber" v="14206"/></node><node id="-770" lat="30.233395" lon="-97.590816" changeset="false"><tag k="addr:street" v="Deaf Smith Boulevard"/><tag k="addr:housenumber" v="14417"/></node><node id="-771" lat="30.237329" lon="-97.580945" changeset="false"><tag k="addr:street" v="Hatton Hill Lane"/><tag k="addr:housenumber" v="710"/></node><node id="-772" lat="30.236557" lon="-97.58142" changeset="false"><tag k="addr:street" v="Hatton Hill Lane"/><tag k="addr:housenumber" v="812"/></node><node id="-773" lat="30.236469" lon="-97.570795" changeset="false"><tag k="addr:street" v="Secure Lane"/><tag k="addr:housenumber" v="4514 1/2"/></node><node id="-774" lat="30.265353" lon="-97.627585" changeset="false"><tag k="addr:street" v="Pollo Drive"/><tag k="addr:housenumber" v="10000"/></node><node id="-775" lat="30.238068" lon="-97.573802" changeset="false"><tag k="addr:street" v="Esper Lane"/><tag k="addr:housenumber" v="4517"/></node><node id="-776" lat="30.238291" lon="-97.57364" changeset="false"><tag k="addr:street" v="Esper Lane"/><tag k="addr:housenumber" v="4523"/></node><node id="-777" lat="30.23937" lon="-97.573472" changeset="false"><tag k="addr:street" v="Esper Lane"/><tag k="addr:housenumber" v="4610"/></node><node id="-778" lat="30.264153" lon="-97.626297" changeset="false"><tag k="addr:street" v="Aristocrat Drive"/><tag k="addr:housenumber" v="4605"/></node><node id="-779" lat="30.263991" lon="-97.628735" changeset="false"><tag k="addr:street" v="Atlantis Drive"/><tag k="addr:housenumber" v="4507"/></node><node id="-780" lat="30.235294" lon="-97.570043" changeset="false"><tag k="addr:street" v="Hunters Bend Road"/><tag k="addr:housenumber" v="15620"/></node><node id="-781" lat="30.23852" lon="-97.570654" changeset="false"><tag k="addr:street" v="Credo Lane"/><tag k="addr:housenumber" v="4621"/></node><node id="-782" lat="30.238594" lon="-97.570602" changeset="false"><tag k="addr:street" v="Credo Lane"/><tag k="addr:housenumber" v="4623"/></node><node id="-783" lat="30.236047" lon="-97.571289" changeset="false"><tag k="addr:street" v="Best Way"/><tag k="addr:housenumber" v="4503"/></node><node id="-784" lat="30.236462" lon="-97.571557" changeset="false"><tag k="addr:street" v="Best Way"/><tag k="addr:housenumber" v="4508"/></node><node id="-785" lat="30.238076" lon="-97.575274" changeset="false"><tag k="addr:street" v="Inicio Lane"/><tag k="addr:housenumber" v="4502"/></node><node id="-786" lat="30.238154" lon="-97.575228" changeset="false"><tag k="addr:street" v="Inicio Lane"/><tag k="addr:housenumber" v="4504"/></node><node id="-787" lat="30.257313" lon="-97.632615" changeset="false"><tag k="addr:street" v="Lorado Drive"/><tag k="addr:housenumber" v="10012"/></node><node id="-788" lat="30.238082" lon="-97.580429" changeset="false"><tag k="addr:street" v="Hatton Hill Lane"/><tag k="addr:housenumber" v="602"/></node><node id="-789" lat="30.237419" lon="-97.580872" changeset="false"><tag k="addr:street" v="Hatton Hill Lane"/><tag k="addr:housenumber" v="708"/></node><node id="-790" lat="30.237039" lon="-97.581123" changeset="false"><tag k="addr:street" v="Hatton Hill Lane"/><tag k="addr:housenumber" v="802"/></node><node id="-791" lat="30.236847" lon="-97.581246" changeset="false"><tag k="addr:street" v="Hatton Hill Lane"/><tag k="addr:housenumber" v="806"/></node><node id="-792" lat="30.236533" lon="-97.580917" changeset="false"><tag k="addr:street" v="Hatton Hill Lane"/><tag k="addr:housenumber" v="809"/></node><node id="-793" lat="30.236424" lon="-97.580955" changeset="false"><tag k="addr:street" v="Hatton Hill Lane"/><tag k="addr:housenumber" v="811"/></node><node id="-794" lat="30.237659" lon="-97.571744" changeset="false"><tag k="addr:street" v="Credo Lane"/><tag k="addr:housenumber" v="4528"/></node><node id="-795" lat="30.235345" lon="-97.626095" changeset="false"><tag k="addr:street" v="Farm-to-Market Road 973"/><tag k="addr:housenumber" v="2504"/></node><node id="-796" lat="30.239184" lon="-97.57306" changeset="false"><tag k="addr:street" v="Esper Lane"/><tag k="addr:housenumber" v="4611"/></node><node id="-797" lat="30.239341" lon="-97.572973" changeset="false"><tag k="addr:street" v="Esper Lane"/><tag k="addr:housenumber" v="4615"/></node><node id="-798" lat="30.239592" lon="-97.573319" changeset="false"><tag k="addr:street" v="Esper Lane"/><tag k="addr:housenumber" v="4616"/></node><node id="-799" lat="30.237849" lon="-97.572971" changeset="false"><tag k="addr:street" v="Kind Way"/><tag k="addr:housenumber" v="4523"/></node><node id="-800" lat="30.238074" lon="-97.572823" changeset="false"><tag k="addr:street" v="Kind Way"/><tag k="addr:housenumber" v="4529"/></node><node id="-801" lat="30.238352" lon="-97.573181" changeset="false"><tag k="addr:street" v="Kind Way"/><tag k="addr:housenumber" v="4530"/></node><node id="-802" lat="30.236193" lon="-97.571745" changeset="false"><tag k="addr:street" v="Best Way"/><tag k="addr:housenumber" v="4500"/></node><node id="-803" lat="30.239366" lon="-97.572002" changeset="false"><tag k="addr:street" v="Kind Way"/><tag k="addr:housenumber" v="4625"/></node><node id="-804" lat="30.241095" lon="-97.578437" changeset="false"><tag k="addr:street" v="Imes Lane"/><tag k="addr:housenumber" v="15106"/></node><node id="-805" lat="30.224821" lon="-97.627284" changeset="false"><tag k="addr:street" v="Garden Gate Drive"/><tag k="addr:housenumber" v="12001"/></node><node id="-806" lat="30.238224" lon="-97.571341" changeset="false"><tag k="addr:street" v="Credo Lane"/><tag k="addr:housenumber" v="4608"/></node><node id="-807" lat="30.2373" lon="-97.573856" changeset="false"><tag k="addr:street" v="Kind Way"/><tag k="addr:housenumber" v="4502"/></node><node id="-808" lat="30.237588" lon="-97.57368" changeset="false"><tag k="addr:street" v="Kind Way"/><tag k="addr:housenumber" v="4510"/></node><node id="-809" lat="30.236748" lon="-97.572326" changeset="false"><tag k="addr:street" v="Credo Lane"/><tag k="addr:housenumber" v="4504"/></node><node id="-810" lat="30.238688" lon="-97.57488" changeset="false"><tag k="addr:street" v="Inicio Lane"/><tag k="addr:housenumber" v="4518"/></node><node id="-811" lat="30.240183" lon="-97.573914" changeset="false"><tag k="addr:street" v="Inicio Lane"/><tag k="addr:housenumber" v="4622"/></node><node id="-812" lat="30.238246" lon="-97.574204" changeset="false"><tag k="addr:street" v="Esper Lane"/><tag k="addr:housenumber" v="4516"/></node><node id="-813" lat="30.264527" lon="-97.629252" changeset="false"><tag k="addr:street" v="Atlantis Drive"/><tag k="addr:housenumber" v="4510"/></node><node id="-814" lat="30.227589" lon="-97.610137" changeset="false"><tag k="addr:street" v="Harold Green Road"/><tag k="addr:housenumber" v="13104"/></node><node id="-815" lat="30.236204" lon="-97.569821" changeset="false"><tag k="addr:street" v="Felicity Lane"/><tag k="addr:housenumber" v="4518"/></node><node id="-816" lat="30.236186" lon="-97.570784" changeset="false"><tag k="addr:street" v="Secure Lane"/><tag k="addr:housenumber" v="4508"/></node><node id="-817" lat="30.236348" lon="-97.570696" changeset="false"><tag k="addr:street" v="Secure Lane"/><tag k="addr:housenumber" v="4512"/></node><node id="-818" lat="30.236497" lon="-97.57059" changeset="false"><tag k="addr:street" v="Secure Lane"/><tag k="addr:housenumber" v="4516"/></node><node id="-819" lat="30.23672" lon="-97.570442" changeset="false"><tag k="addr:street" v="Secure Lane"/><tag k="addr:housenumber" v="4522"/></node><node id="-820" lat="30.239794" lon="-97.57268" changeset="false"><tag k="addr:street" v="Esper Lane"/><tag k="addr:housenumber" v="4627"/></node><node id="-821" lat="30.238625" lon="-97.580183" changeset="false"><tag k="addr:street" v="Parrish Lane"/><tag k="addr:housenumber" v="15102"/></node><node id="-822" lat="30.238588" lon="-97.580035" changeset="false"><tag k="addr:street" v="Parrish Lane"/><tag k="addr:housenumber" v="15104"/></node><node id="-823" lat="30.238438" lon="-97.5796" changeset="false"><tag k="addr:street" v="Parrish Lane"/><tag k="addr:housenumber" v="15110"/></node><node id="-824" lat="30.236965" lon="-97.571349" changeset="false"><tag k="addr:street" v="Best Way"/><tag k="addr:housenumber" v="4520 1/2"/></node><node id="-825" lat="30.237646" lon="-97.574602" changeset="false"><tag k="addr:street" v="Esper Lane"/><tag k="addr:housenumber" v="4500"/></node><node id="-826" lat="30.238502" lon="-97.572146" changeset="false"><tag k="addr:street" v="Senda Lane"/><tag k="addr:housenumber" v="4606"/></node><node id="-827" lat="30.224549" lon="-97.627491" changeset="false"><tag k="addr:street" v="Garden Meadow Road"/><tag k="addr:housenumber" v="12000"/></node><node id="-828" lat="30.221767" lon="-97.631215" changeset="false"><tag k="addr:street" v="Green Grove Drive"/><tag k="addr:housenumber" v="11804"/></node><node id="-829" lat="30.238822" lon="-97.571955" changeset="false"><tag k="addr:street" v="Senda Lane"/><tag k="addr:housenumber" v="4614"/></node><node id="-830" lat="30.238973" lon="-97.571838" changeset="false"><tag k="addr:street" v="Senda Lane"/><tag k="addr:housenumber" v="4618"/></node><node id="-831" lat="30.240589" lon="-97.575547" changeset="false"><tag k="addr:street" v="Graceful Lane"/><tag k="addr:housenumber" v="4614"/></node><node id="-832" lat="30.264902" lon="-97.628785" changeset="false"><tag k="addr:street" v="Atlantis Drive"/><tag k="addr:housenumber" v="4600"/></node><node id="-833" lat="30.238212" lon="-97.575182" changeset="false"><tag k="addr:street" v="Inicio Lane"/><tag k="addr:housenumber" v="4506"/></node><node id="-834" lat="30.238456" lon="-97.575036" changeset="false"><tag k="addr:street" v="Inicio Lane"/><tag k="addr:housenumber" v="4512"/></node><node id="-835" lat="30.236919" lon="-97.571262" changeset="false"><tag k="addr:street" v="Best Way"/><tag k="addr:housenumber" v="4520"/></node><node id="-836" lat="30.239535" lon="-97.576221" changeset="false"><tag k="addr:street" v="Graceful Lane"/><tag k="addr:housenumber" v="4522"/></node><node id="-837" lat="30.23936" lon="-97.575862" changeset="false"><tag k="addr:street" v="Graceful Lane"/><tag k="addr:housenumber" v="4523"/></node><node id="-838" lat="30.242566" lon="-97.589936" changeset="false"><tag k="addr:street" v="Westall Street"/><tag k="addr:housenumber" v="14000"/></node><node id="-839" lat="30.240288" lon="-97.57574" changeset="false"><tag k="addr:street" v="Graceful Lane"/><tag k="addr:housenumber" v="4606"/></node><node id="-840" lat="30.240169" lon="-97.575319" changeset="false"><tag k="addr:street" v="Graceful Lane"/><tag k="addr:housenumber" v="4609"/></node><node id="-841" lat="30.240393" lon="-97.575168" changeset="false"><tag k="addr:street" v="Graceful Lane"/><tag k="addr:housenumber" v="4615"/></node><node id="-842" lat="30.237798" lon="-97.574921" changeset="false"><tag k="addr:street" v="Inicio Lane"/><tag k="addr:housenumber" v="4501"/></node><node id="-843" lat="30.237532" lon="-97.574138" changeset="false"><tag k="addr:street" v="Esper Lane"/><tag k="addr:housenumber" v="4503"/></node><node id="-844" lat="30.237806" lon="-97.574506" changeset="false"><tag k="addr:street" v="Esper Lane"/><tag k="addr:housenumber" v="4504"/></node><node id="-845" lat="30.237606" lon="-97.574093" changeset="false"><tag k="addr:street" v="Esper Lane"/><tag k="addr:housenumber" v="4505"/></node><node id="-846" lat="30.239761" lon="-97.576077" changeset="false"><tag k="addr:street" v="Graceful Lane"/><tag k="addr:housenumber" v="4528"/></node><node id="-847" lat="30.235717" lon="-97.570583" changeset="false"><tag k="addr:street" v="Secure Lane"/><tag k="addr:housenumber" v="4501"/></node><node id="-848" lat="30.257324" lon="-97.632196" changeset="false"><tag k="addr:street" v="Lorado Drive"/><tag k="addr:housenumber" v="10020"/></node><node id="-849" lat="30.259031" lon="-97.630917" changeset="false"><tag k="addr:street" v="Veldt Drive"/><tag k="addr:housenumber" v="4003"/></node><node id="-850" lat="30.242007" lon="-97.578887" changeset="false"><tag k="addr:street" v="Belfield Lane"/><tag k="addr:housenumber" v="4610"/></node><node id="-851" lat="30.239751" lon="-97.573663" changeset="false"><tag k="addr:street" v="Inicio Lane"/><tag k="addr:housenumber" v="4617"/></node><node id="-852" lat="30.240034" lon="-97.574013" changeset="false"><tag k="addr:street" v="Inicio Lane"/><tag k="addr:housenumber" v="4618"/></node><node id="-853" lat="30.240108" lon="-97.573965" changeset="false"><tag k="addr:street" v="Inicio Lane"/><tag k="addr:housenumber" v="4620"/></node><node id="-854" lat="30.218186" lon="-97.636272" changeset="false"><tag k="addr:street" v="Farm-to-Market Road 973"/><tag k="addr:housenumber" v="1901"/></node><node id="-855" lat="30.237222" lon="-97.588975" changeset="false"><tag k="addr:street" v="Sandifer Street"/><tag k="addr:housenumber" v="14401"/></node><node id="-856" lat="30.234279" lon="-97.592814" changeset="false"><tag k="addr:street" v="Wickham Lane"/><tag k="addr:housenumber" v="3508"/></node><node id="-857" lat="30.2345" lon="-97.592697" changeset="false"><tag k="addr:street" v="Wickham Lane"/><tag k="addr:housenumber" v="3514"/></node><node id="-858" lat="30.23407" lon="-97.591124" changeset="false"><tag k="addr:street" v="Deaf Smith Boulevard"/><tag k="addr:housenumber" v="14400"/></node><node id="-859" lat="30.233638" lon="-97.589502" changeset="false"><tag k="addr:street" v="Menifee Street"/><tag k="addr:housenumber" v="14505"/></node><node id="-860" lat="30.230678" lon="-97.593888" changeset="false"><tag k="addr:street" v="Wickham Lane"/><tag k="addr:housenumber" v="3001"/></node><node id="-861" lat="30.227208" lon="-97.590341" changeset="false"><tag k="addr:street" v="Crownover Street"/><tag k="addr:housenumber" v="2806"/></node><node id="-862" lat="30.25815" lon="-97.632605" changeset="false"><tag k="addr:street" v="Lower Drive"/><tag k="addr:housenumber" v="3901"/></node><node id="-863" lat="30.257597" lon="-97.633413" changeset="false"><tag k="addr:street" v="Lower Drive"/><tag k="addr:housenumber" v="3802"/></node><node id="-864" lat="30.257008" lon="-97.633833" changeset="false"><tag k="addr:street" v="Lorado Drive"/><tag k="addr:housenumber" v="9909"/></node><node id="-865" lat="30.239204" lon="-97.589731" changeset="false"><tag k="addr:street" v="Sojourner Street"/><tag k="addr:housenumber" v="3806"/></node><node id="-866" lat="30.224208" lon="-97.629937" changeset="false"><tag k="addr:street" v="Garden Grove Drive"/><tag k="addr:housenumber" v="11805"/></node><node id="-867" lat="30.222312" lon="-97.633244" changeset="false"><tag k="addr:street" v="Green Grove Drive"/><tag k="addr:housenumber" v="11601"/></node><node id="-868" lat="30.264825" lon="-97.626087" changeset="false"><tag k="addr:street" v="Aristocrat Drive"/><tag k="addr:housenumber" v="4611"/></node><node id="-869" lat="30.237583" lon="-97.584053" changeset="false"><tag k="addr:street" v="Rumfeldt Street"/><tag k="addr:housenumber" v="14706"/></node><node id="-870" lat="30.238318" lon="-97.575539" changeset="false"><tag k="addr:street" v="Truth Way"/><tag k="addr:housenumber" v="4507"/></node><node id="-871" lat="30.26081" lon="-97.631023" changeset="false"><tag k="addr:street" v="Imperial Drive,1100"/><tag k="addr:housenumber" v="4202"/></node><node id="-872" lat="30.239216" lon="-97.574004" changeset="false"><tag k="addr:street" v="Inicio Lane"/><tag k="addr:housenumber" v="4603"/></node><node id="-873" lat="30.245159" lon="-97.580132" changeset="false"><tag k="addr:street" v="Clear View Drive"/><tag k="addr:housenumber" v="4901"/></node><node id="-874" lat="30.244519" lon="-97.579767" changeset="false"><tag k="addr:street" v="Clear View Drive"/><tag k="addr:housenumber" v="4811"/></node><node id="-875" lat="30.234785" lon="-97.588479" changeset="false"><tag k="addr:street" v="Mims Cove"/><tag k="addr:housenumber" v="3610"/></node><node id="-876" lat="30.234236" lon="-97.585336" changeset="false"><tag k="addr:street" v="Crownover Street"/><tag k="addr:housenumber" v="3713"/></node><node id="-877" lat="30.241097" lon="-97.576388" changeset="false"><tag k="addr:street" v="Hunters Bend Road"/><tag k="addr:housenumber" v="15300 1/2"/></node><node id="-878" lat="30.239781" lon="-97.588423" changeset="false"><tag k="addr:street" v="Reeders Drive"/><tag k="addr:housenumber" v="4000"/></node><node id="-879" lat="30.262799" lon="-97.627644" changeset="false"><tag k="addr:street" v="Aristocrat Drive"/><tag k="addr:housenumber" v="4502"/></node><node id="-880" lat="30.262546" lon="-97.628572" changeset="false"><tag k="addr:street" v="Hermes Drive"/><tag k="addr:housenumber" v="10005"/></node><node id="-881" lat="30.225753" lon="-97.627854" changeset="false"><tag k="addr:street" v="Garden Gate Drive"/><tag k="addr:housenumber" v="11900"/></node><node id="-882" lat="30.235238" lon="-97.633614" changeset="false"><tag k="addr:street" v="Platt Lane"/><tag k="addr:housenumber" v="11400"/></node><node id="-883" lat="30.238926" lon="-97.575151" changeset="false"><tag k="addr:street" v="Truth Way"/><tag k="addr:housenumber" v="4523"/></node><node id="-884" lat="30.239196" lon="-97.575495" changeset="false"><tag k="addr:street" v="Truth Way"/><tag k="addr:housenumber" v="4524"/></node><node id="-885" lat="30.238385" lon="-97.575498" changeset="false"><tag k="addr:street" v="Truth Way"/><tag k="addr:housenumber" v="4509"/></node><node id="-886" lat="30.236719" lon="-97.590273" changeset="false"><tag k="addr:street" v="Banda Lane"/><tag k="addr:housenumber" v="3518"/></node><node id="-887" lat="30.243806" lon="-97.584498" changeset="false"><tag k="addr:street" v="Kincheloe Street"/><tag k="addr:housenumber" v="14311"/></node><node id="-888" lat="30.227277" lon="-97.591289" changeset="false"><tag k="addr:street" v="Caleb Drive"/><tag k="addr:housenumber" v="2900"/></node><node id="-889" lat="30.246317" lon="-97.584098" changeset="false"><tag k="addr:street" v="Fallenash Drive"/><tag k="addr:housenumber" v="4713"/></node><node id="-890" lat="30.263568" lon="-97.627835" changeset="false"><tag k="addr:street" v="Imperial Drive,1100"/><tag k="addr:housenumber" v="4507"/></node><node id="-891" lat="30.232756" lon="-97.588166" changeset="false"><tag k="addr:street" v="Deaf Smith Boulevard"/><tag k="addr:housenumber" v="14608"/></node><node id="-892" lat="30.244792" lon="-97.586218" changeset="false"><tag k="addr:street" v="Sojourner Street"/><tag k="addr:housenumber" v="4514"/></node><node id="-893" lat="30.220934" lon="-97.630453" changeset="false"><tag k="addr:street" v="Green Grove Drive"/><tag k="addr:housenumber" v="11905"/></node><node id="-894" lat="30.241175" lon="-97.585842" changeset="false"><tag k="addr:street" v="Hunters Bend Road"/><tag k="addr:housenumber" v="14379"/></node><node id="-895" lat="30.231863" lon="-97.587449" changeset="false"><tag k="addr:street" v="Crownover Street"/><tag k="addr:housenumber" v="3414"/></node><node id="-896" lat="30.237928" lon="-97.584737" changeset="false"><tag k="addr:street" v="Rumfeldt Street"/><tag k="addr:housenumber" v="14610"/></node><node id="-897" lat="30.226698" lon="-97.629916" changeset="false"><tag k="addr:street" v="Garden Gate Drive"/><tag k="addr:housenumber" v="11700"/></node><node id="-898" lat="30.231581" lon="-97.589253" changeset="false"><tag k="addr:street" v="Peavy Drive"/><tag k="addr:housenumber" v="3311"/></node><node id="-899" lat="30.231539" lon="-97.590542" changeset="false"><tag k="addr:street" v="Amy Francis Street"/><tag k="addr:housenumber" v="14509"/></node><node id="-900" lat="30.260427" lon="-97.630408" changeset="false"><tag k="addr:street" v="Imperial Drive,1100"/><tag k="addr:housenumber" v="4207"/></node><node id="-901" lat="30.230887" lon="-97.592283" changeset="false"><tag k="addr:street" v="Etheredge Drive"/><tag k="addr:housenumber" v="3109"/></node><node id="-902" lat="30.228173" lon="-97.612293" changeset="false"><tag k="addr:street" v="Harold Green Road"/><tag k="addr:housenumber" v="13100"/></node><node id="-903" lat="30.238334" lon="-97.587886" changeset="false"><tag k="addr:street" v="Highsmith Street"/><tag k="addr:housenumber" v="14403"/></node><node id="-904" lat="30.239843" lon="-97.589319" changeset="false"><tag k="addr:street" v="Sojourner Street"/><tag k="addr:housenumber" v="3906"/></node><node id="-905" lat="30.246654" lon="-97.58275" changeset="false"><tag k="addr:street" v="Hunters Bend Road"/><tag k="addr:housenumber" v="14308"/></node><node id="-906" lat="30.234091" lon="-97.590209" changeset="false"><tag k="addr:street" v="Austins Colony Boulevard"/><tag k="addr:housenumber" v="3504"/></node><node id="-907" lat="30.246578" lon="-97.582864" changeset="false"><tag k="addr:street" v="Hunters Bend Road"/><tag k="addr:housenumber" v="14310"/></node><node id="-908" lat="30.245191" lon="-97.585075" changeset="false"><tag k="addr:street" v="Fallenash Drive"/><tag k="addr:housenumber" v="4608"/></node><node id="-909" lat="30.212351" lon="-97.640505" changeset="false"><tag k="addr:street" v="Farm-to-Market Road 973"/><tag k="addr:housenumber" v="2510"/></node><node id="-910" lat="30.226154" lon="-97.628757" changeset="false"><tag k="addr:street" v="Garden Gate Drive"/><tag k="addr:housenumber" v="11804"/></node><node id="-911" lat="30.239659" lon="-97.580221" changeset="false"><tag k="addr:street" v="Hunters Bend Road"/><tag k="addr:housenumber" v="15015"/></node><node id="-912" lat="30.239418" lon="-97.574411" changeset="false"><tag k="addr:street" v="Inicio Lane"/><tag k="addr:housenumber" v="4602"/></node><node id="-913" lat="30.239286" lon="-97.573952" changeset="false"><tag k="addr:street" v="Inicio Lane"/><tag k="addr:housenumber" v="4605"/></node><node id="-914" lat="30.265197" lon="-97.627335" changeset="false"><tag k="addr:street" v="Pollo Drive"/><tag k="addr:housenumber" v="10002"/></node><node id="-915" lat="30.264773" lon="-97.626981" changeset="false"><tag k="addr:street" v="Imperial Drive,1100"/><tag k="addr:housenumber" v="4607"/></node><node id="-916" lat="30.264214" lon="-97.626848" changeset="false"><tag k="addr:street" v="Aristocrat Drive"/><tag k="addr:housenumber" v="4602"/></node><node id="-917" lat="30.211602" lon="-97.640176" changeset="false"><tag k="addr:street" v="Farm-to-Market Road 973"/><tag k="addr:housenumber" v="2600"/></node><node id="-918" lat="30.237598" lon="-97.590064" changeset="false"><tag k="addr:street" v="Banda Lane"/><tag k="addr:housenumber" v="3612"/></node><node id="-919" lat="30.237269" lon="-97.584804" changeset="false"><tag k="addr:street" v="Highsmith Street"/><tag k="addr:housenumber" v="14700"/></node><node id="-920" lat="30.244586" lon="-97.579467" changeset="false"><tag k="addr:street" v="Clear View Drive"/><tag k="addr:housenumber" v="4813"/></node><node id="-921" lat="30.247605" lon="-97.584539" changeset="false"><tag k="addr:street" v="Castleman Drive"/><tag k="addr:housenumber" v="4745"/></node><node id="-922" lat="30.26008" lon="-97.631171" changeset="false"><tag k="addr:street" v="Lower Drive"/><tag k="addr:housenumber" v="4101"/></node><node id="-923" lat="30.259927" lon="-97.63093" changeset="false"><tag k="addr:street" v="Veldt Drive"/><tag k="addr:housenumber" v="4011"/></node><node id="-924" lat="30.258394" lon="-97.631663" changeset="false"><tag k="addr:street" v="Veldt Drive"/><tag k="addr:housenumber" v="3904"/></node><node id="-925" lat="30.257851" lon="-97.631376" changeset="false"><tag k="addr:street" v="Veldt Drive"/><tag k="addr:housenumber" v="3901"/></node><node id="-926" lat="30.237015" lon="-97.584226" changeset="false"><tag k="addr:street" v="Highsmith Street"/><tag k="addr:housenumber" v="14708"/></node><node id="-927" lat="30.237105" lon="-97.590348" changeset="false"><tag k="addr:street" v="Banda Lane"/><tag k="addr:housenumber" v="3604"/></node><node id="-928" lat="30.236883" lon="-97.588268" changeset="false"><tag k="addr:street" v="Sandifer Street"/><tag k="addr:housenumber" v="14411"/></node><node id="-929" lat="30.225594" lon="-97.627577" changeset="false"><tag k="addr:street" v="Garden Gate Drive"/><tag k="addr:housenumber" v="11904"/></node><node id="-930" lat="30.226253" lon="-97.630817" changeset="false"><tag k="addr:street" v="Watermelon Way"/><tag k="addr:housenumber" v="1202"/></node><node id="-931" lat="30.233098" lon="-97.637941" changeset="false"><tag k="addr:street" v="Platt Lane"/><tag k="addr:housenumber" v="10707"/></node><node id="-932" lat="30.236646" lon="-97.589656" changeset="false"><tag k="addr:street" v="Banda Lane"/><tag k="addr:housenumber" v="3510"/></node><node id="-933" lat="30.239669" lon="-97.573712" changeset="false"><tag k="addr:street" v="Inicio Lane"/><tag k="addr:housenumber" v="4615"/></node><node id="-934" lat="30.231174" lon="-97.592109" changeset="false"><tag k="addr:street" v="Etheredge Drive"/><tag k="addr:housenumber" v="3203"/></node><node id="-935" lat="30.220568" lon="-97.629205" changeset="false"><tag k="addr:street" v="Green Pastures Drive"/><tag k="addr:housenumber" v="1513"/></node><node id="-936" lat="30.233435" lon="-97.589795" changeset="false"><tag k="addr:street" v="Deaf Smith Boulevard"/><tag k="addr:housenumber" v="14502"/></node><node id="-937" lat="30.238461" lon="-97.585847" changeset="false"><tag k="addr:street" v="Rumfeldt Street"/><tag k="addr:housenumber" v="14512"/></node><node id="-938" lat="30.237659" lon="-97.576312" changeset="false"><tag k="addr:street" v="Hunters Bend Road"/><tag k="addr:housenumber" v="15551"/></node><node id="-939" lat="30.238778" lon="-97.575259" changeset="false"><tag k="addr:street" v="Truth Way"/><tag k="addr:housenumber" v="4519"/></node><node id="-940" lat="30.238357" lon="-97.576046" changeset="false"><tag k="addr:street" v="Truth Way"/><tag k="addr:housenumber" v="4502"/></node><node id="-941" lat="30.238228" lon="-97.575574" changeset="false"><tag k="addr:street" v="Truth Way"/><tag k="addr:housenumber" v="4505"/></node><node id="-942" lat="30.245638" lon="-97.584113" changeset="false"><tag k="addr:street" v="Fallenash Drive"/><tag k="addr:housenumber" v="4703"/></node><node id="-943" lat="30.245498" lon="-97.5839" changeset="false"><tag k="addr:street" v="Castleman Drive"/><tag k="addr:housenumber" v="4702"/></node><node id="-944" lat="30.24508" lon="-97.584534" changeset="false"><tag k="addr:street" v="Fallenash Drive"/><tag k="addr:housenumber" v="4611"/></node><node id="-945" lat="30.247608" lon="-97.618324" changeset="false"><tag k="addr:street" v="Farm-to-Market Road 973"/><tag k="addr:housenumber" v="3600"/></node><node id="-946" lat="30.24182" lon="-97.619905" changeset="false"><tag k="addr:street" v="Farm-to-Market Road 973"/><tag k="addr:housenumber" v="2921"/></node><node id="-947" lat="30.237491" lon="-97.587885" changeset="false"><tag k="addr:street" v="Varrelman Street"/><tag k="addr:housenumber" v="14409"/></node><node id="-948" lat="30.232683" lon="-97.637407" changeset="false"><tag k="addr:street" v="Platt Lane"/><tag k="addr:housenumber" v="10803"/></node><node id="-949" lat="30.233745" lon="-97.585642" changeset="false"><tag k="addr:street" v="Crownover Street"/><tag k="addr:housenumber" v="3705"/></node><node id="-950" lat="30.232114" lon="-97.591484" changeset="false"><tag k="addr:street" v="Etheredge Drive"/><tag k="addr:housenumber" v="3311"/></node><node id="-951" lat="30.231931" lon="-97.591594" changeset="false"><tag k="addr:street" v="Etheredge Drive"/><tag k="addr:housenumber" v="3307"/></node><node id="-952" lat="30.232249" lon="-97.592003" changeset="false"><tag k="addr:street" v="Etheredge Drive"/><tag k="addr:housenumber" v="3308"/></node><node id="-953" lat="30.256995" lon="-97.631883" changeset="false"><tag k="addr:street" v="Lorado Drive"/><tag k="addr:housenumber" v="10015"/></node><node id="-954" lat="30.262675" lon="-97.628838" changeset="false"><tag k="addr:street" v="Hermes Drive"/><tag k="addr:housenumber" v="10003"/></node><node id="-955" lat="30.23957" lon="-97.574314" changeset="false"><tag k="addr:street" v="Inicio Lane"/><tag k="addr:housenumber" v="4606"/></node><node id="-956" lat="30.259924" lon="-97.63184" changeset="false"><tag k="addr:street" v="Lower Drive"/><tag k="addr:housenumber" v="4006"/></node><node id="-957" lat="30.239903" lon="-97.573559" changeset="false"><tag k="addr:street" v="Inicio Lane"/><tag k="addr:housenumber" v="4621"/></node><node id="-958" lat="30.24588" lon="-97.582989" changeset="false"><tag k="addr:street" v="Hunters Bend Road"/><tag k="addr:housenumber" v="14319"/></node><node id="-959" lat="30.232259" lon="-97.58716" changeset="false"><tag k="addr:street" v="Deaf Smith Boulevard"/><tag k="addr:housenumber" v="14710"/></node><node id="-960" lat="30.231466" lon="-97.594017" changeset="false"><tag k="addr:street" v="Wickham Lane"/><tag k="addr:housenumber" v="3105"/></node><node id="-961" lat="30.264257" lon="-97.628657" changeset="false"><tag k="addr:street" v="Atlantis Drive"/><tag k="addr:housenumber" v="4509"/></node><node id="-962" lat="30.245874" lon="-97.584631" changeset="false"><tag k="addr:street" v="Fallenash Drive"/><tag k="addr:housenumber" v="4702"/></node><node id="-963" lat="30.265661" lon="-97.625912" changeset="false"><tag k="addr:street" v="Imperial Drive,1100"/><tag k="addr:housenumber" v="4707"/></node><node id="-964" lat="30.258679" lon="-97.631548" changeset="false"><tag k="addr:street" v="Veldt Drive"/><tag k="addr:housenumber" v="3906"/></node><node id="-965" lat="30.257905" lon="-97.631838" changeset="false"><tag k="addr:street" v="Veldt Drive"/><tag k="addr:housenumber" v="3900"/></node><node id="-966" lat="30.258964" lon="-97.632559" changeset="false"><tag k="addr:street" v="Lower Drive"/><tag k="addr:housenumber" v="3906"/></node><node id="-967" lat="30.258351" lon="-97.632453" changeset="false"><tag k="addr:street" v="Lower Drive"/><tag k="addr:housenumber" v="3903"/></node><node id="-968" lat="30.237217" lon="-97.590259" changeset="false"><tag k="addr:street" v="Banda Lane"/><tag k="addr:housenumber" v="3606"/></node><node id="-969" lat="30.225802" lon="-97.631125" changeset="false"><tag k="addr:street" v="Watermelon Way"/><tag k="addr:housenumber" v="1206"/></node><node id="-970" lat="30.238535" lon="-97.5754" changeset="false"><tag k="addr:street" v="Truth Way"/><tag k="addr:housenumber" v="4513"/></node><node id="-971" lat="30.221697" lon="-97.628583" changeset="false"><tag k="addr:street" v="Green Leaf Drive"/><tag k="addr:housenumber" v="12006"/></node><node id="-972" lat="30.245846" lon="-97.584991" changeset="false"><tag k="addr:street" v="Sojourner Street"/><tag k="addr:housenumber" v="4701"/></node><node id="-973" lat="30.244505" lon="-97.583981" changeset="false"><tag k="addr:street" v="Castleman Drive"/><tag k="addr:housenumber" v="4611"/></node><node id="-974" lat="30.239431" lon="-97.58771" changeset="false"><tag k="addr:street" v="Louise Lee Drive"/><tag k="addr:housenumber" v="4000"/></node><node id="-975" lat="30.227307" lon="-97.590274" changeset="false"><tag k="addr:street" v="Crownover Street"/><tag k="addr:housenumber" v="2808"/></node><node id="-976" lat="30.233409" lon="-97.585885" changeset="false"><tag k="addr:street" v="Crownover Street"/><tag k="addr:housenumber" v="3609"/></node><node id="-977" lat="30.238344" lon="-97.584643" changeset="false"><tag k="addr:street" v="Hunters Bend Road"/><tag k="addr:housenumber" v="14401"/></node><node id="-978" lat="30.227118" lon="-97.590395" changeset="false"><tag k="addr:street" v="Crownover Street"/><tag k="addr:housenumber" v="2804"/></node><node id="-979" lat="30.23777" lon="-97.588447" changeset="false"><tag k="addr:street" v="Varrelman Street"/><tag k="addr:housenumber" v="14401"/></node><node id="-980" lat="30.237103" lon="-97.587307" changeset="false"><tag k="addr:street" v="Varrelman Street"/><tag k="addr:housenumber" v="14505"/></node><node id="-981" lat="30.233332" lon="-97.588579" changeset="false"><tag k="addr:street" v="Menifee Street"/><tag k="addr:housenumber" v="14601"/></node><node id="-982" lat="30.246683" lon="-97.583331" changeset="false"><tag k="addr:street" v="Castleman Drive"/><tag k="addr:housenumber" v="4725"/></node><node id="-983" lat="30.238463" lon="-97.575447" changeset="false"><tag k="addr:street" v="Truth Way"/><tag k="addr:housenumber" v="4511"/></node><node id="-984" lat="30.229706" lon="-97.591731" changeset="false"><tag k="addr:street" v="Hartsmith Drive"/><tag k="addr:housenumber" v="14507"/></node><node id="-985" lat="30.21416" lon="-97.639417" changeset="false"><tag k="addr:street" v="Farm-to-Market Road 973"/><tag k="addr:housenumber" v="2410"/></node><node id="-986" lat="30.216055" lon="-97.637523" changeset="false"><tag k="addr:street" v="Farm-to-Market Road 973"/><tag k="addr:housenumber" v="2209"/></node><node id="-987" lat="30.245783" lon="-97.585622" changeset="false"><tag k="addr:street" v="Sojourner Street"/><tag k="addr:housenumber" v="4614"/></node><node id="-988" lat="30.26493" lon="-97.626286" changeset="false"><tag k="addr:street" v="Imperial Drive,1100"/><tag k="addr:housenumber" v="4701"/></node><node id="-989" lat="30.223936" lon="-97.627471" changeset="false"><tag k="addr:street" v="Garden Meadow Road"/><tag k="addr:housenumber" v="12005"/></node><node id="-990" lat="30.222645" lon="-97.627526" changeset="false"><tag k="addr:street" v="Green Pastures Cove"/><tag k="addr:housenumber" v="1403"/></node><node id="-991" lat="30.23851" lon="-97.575944" changeset="false"><tag k="addr:street" v="Truth Way"/><tag k="addr:housenumber" v="4506"/></node><node id="-992" lat="30.26169" lon="-97.630193" changeset="false"><tag k="addr:street" v="Kings Court"/><tag k="addr:housenumber" v="4207"/></node><node id="-993" lat="30.260407" lon="-97.630953" changeset="false"><tag k="addr:street" v="Lower Drive"/><tag k="addr:housenumber" v="4103"/></node><node id="-994" lat="30.239138" lon="-97.574058" changeset="false"><tag k="addr:street" v="Inicio Lane"/><tag k="addr:housenumber" v="4601"/></node><node id="-995" lat="30.26424" lon="-97.627472" changeset="false"><tag k="addr:street" v="Imperial Drive,1100"/><tag k="addr:housenumber" v="4601"/></node><node id="-996" lat="30.265074" lon="-97.628719" changeset="false"><tag k="addr:street" v="Atlantis Drive"/><tag k="addr:housenumber" v="4602"/></node><node id="-997" lat="30.234369" lon="-97.586291" changeset="false"><tag k="addr:street" v="Pevetoe Street"/><tag k="addr:housenumber" v="3709"/></node><node id="-998" lat="30.245524" lon="-97.583281" changeset="false"><tag k="addr:street" v="Castleman Drive"/><tag k="addr:housenumber" v="4707"/></node><node id="-999" lat="30.244134" lon="-97.585821" changeset="false"><tag k="addr:street" v="Levering Street"/><tag k="addr:housenumber" v="14204"/></node><node id="-1000" lat="30.24427" lon="-97.580088" changeset="false"><tag k="addr:street" v="Clear View Drive"/><tag k="addr:housenumber" v="4807"/></node><node id="-1001" lat="30.235921" lon="-97.569345" changeset="false"><tag k="addr:street" v="Felicity Lane"/><tag k="addr:housenumber" v="4517 1/2"/></node><node id="-1002" lat="30.262883" lon="-97.628338" changeset="false"><tag k="addr:street" v="Hermes Drive"/><tag k="addr:housenumber" v="10002"/></node><node id="-1003" lat="30.263497" lon="-97.62673" changeset="false"><tag k="addr:street" v="Aristocrat Drive"/><tag k="addr:housenumber" v="4511"/></node><node id="-1004" lat="30.239088" lon="-97.572706" changeset="false"><tag k="addr:street" v="Kind Way"/><tag k="addr:housenumber" v="4612"/></node><node id="-1005" lat="30.239199" lon="-97.575932" changeset="false"><tag k="addr:street" v="Graceful Lane"/><tag k="addr:housenumber" v="4519"/></node><node id="-1006" lat="30.237568" lon="-97.576124" changeset="false"><tag k="addr:street" v="Hunters Bend Road"/><tag k="addr:housenumber" v="15551 1/2"/></node><node id="-1007" lat="30.236952" lon="-97.568783" changeset="false"><tag k="addr:street" v="Dunlap Road North,1100"/><tag k="addr:housenumber" v="4600"/></node><node id="-1008" lat="30.256986" lon="-97.632301" changeset="false"><tag k="addr:street" v="Lorado Drive"/><tag k="addr:housenumber" v="10011"/></node><node id="-1009" lat="30.238149" lon="-97.588371" changeset="false"><tag k="addr:street" v="Varrelman Street"/><tag k="addr:housenumber" v="14308"/></node><node id="-1010" lat="30.238651" lon="-97.580512" changeset="false"><tag k="addr:street" v="Parrish Lane"/><tag k="addr:housenumber" v="15012"/></node><node id="-1011" lat="30.237786" lon="-97.572611" changeset="false"><tag k="addr:street" v="Senda Lane"/><tag k="addr:housenumber" v="4522"/></node><node id="-1012" lat="30.238008" lon="-97.572458" changeset="false"><tag k="addr:street" v="Senda Lane"/><tag k="addr:housenumber" v="4528"/></node><node id="-1013" lat="30.239027" lon="-97.571278" changeset="false"><tag k="addr:street" v="Senda Lane"/><tag k="addr:housenumber" v="4625"/></node><node id="-1014" lat="30.239815" lon="-97.574592" changeset="false"><tag k="addr:street" v="Truth Way"/><tag k="addr:housenumber" v="4609"/></node><node id="-1015" lat="30.237993" lon="-97.575331" changeset="false"><tag k="addr:street" v="Inicio Lane"/><tag k="addr:housenumber" v="4500"/></node><node id="-1016" lat="30.23712" lon="-97.572494" changeset="false"><tag k="addr:street" v="Senda Lane"/><tag k="addr:housenumber" v="4511"/></node><node id="-1017" lat="30.239894" lon="-97.579124" changeset="false"><tag k="addr:street" v="Halliday Avenue"/><tag k="addr:housenumber" v="4402"/></node><node id="-1018" lat="30.240283" lon="-97.578873" changeset="false"><tag k="addr:street" v="Halliday Avenue"/><tag k="addr:housenumber" v="4502"/></node><node id="-1019" lat="30.240061" lon="-97.58002" changeset="false"><tag k="addr:street" v="Belfield Lane"/><tag k="addr:housenumber" v="4402"/></node><node id="-1020" lat="30.238753" lon="-97.572001" changeset="false"><tag k="addr:street" v="Senda Lane"/><tag k="addr:housenumber" v="4612"/></node><node id="-1021" lat="30.244818" lon="-97.585659" changeset="false"><tag k="addr:street" v="Sojourner Street"/><tag k="addr:housenumber" v="4601"/></node><node id="-1022" lat="30.244138" lon="-97.584198" changeset="false"><tag k="addr:street" v="Castleman Drive"/><tag k="addr:housenumber" v="4605"/></node><node id="-1023" lat="30.243886" lon="-97.585388" changeset="false"><tag k="addr:street" v="Levering Street"/><tag k="addr:housenumber" v="14300"/></node><node id="-1024" lat="30.243863" lon="-97.584331" changeset="false"><tag k="addr:street" v="Castleman Drive"/><tag k="addr:housenumber" v="4601"/></node><node id="-1025" lat="30.222085" lon="-97.631891" changeset="false"><tag k="addr:street" v="Green Grove Drive"/><tag k="addr:housenumber" v="11800"/></node><node id="-1026" lat="30.240049" lon="-97.575889" changeset="false"><tag k="addr:street" v="Graceful Lane"/><tag k="addr:housenumber" v="4600"/></node><node id="-1027" lat="30.240141" lon="-97.575843" changeset="false"><tag k="addr:street" v="Graceful Lane"/><tag k="addr:housenumber" v="4602"/></node><node id="-1028" lat="30.238089" lon="-97.574735" changeset="false"><tag k="addr:street" v="Inicio Lane"/><tag k="addr:housenumber" v="4509"/></node><node id="-1029" lat="30.238528" lon="-97.574981" changeset="false"><tag k="addr:street" v="Inicio Lane"/><tag k="addr:housenumber" v="4514"/></node><node id="-1030" lat="30.238846" lon="-97.576655" changeset="false"><tag k="addr:street" v="Graceful Lane"/><tag k="addr:housenumber" v="4504"/></node><node id="-1031" lat="30.238671" lon="-97.576289" changeset="false"><tag k="addr:street" v="Graceful Lane"/><tag k="addr:housenumber" v="4505"/></node><node id="-1032" lat="30.239385" lon="-97.576307" changeset="false"><tag k="addr:street" v="Graceful Lane"/><tag k="addr:housenumber" v="4518"/></node><node id="-1033" lat="30.231028" lon="-97.590143" changeset="false"><tag k="addr:street" v="James Vincent Drive"/><tag k="addr:housenumber" v="14516"/></node><node id="-1034" lat="30.23087" lon="-97.633266" changeset="false"><tag k="addr:street" v="Platt Lane"/><tag k="addr:housenumber" v="11103"/></node><node id="-1035" lat="30.230771" lon="-97.647335" changeset="false"><tag k="addr:street" v="Platt Lane"/><tag k="addr:housenumber" v="10183"/></node><node id="-1036" lat="30.240055" lon="-97.573459" changeset="false"><tag k="addr:street" v="Inicio Lane"/><tag k="addr:housenumber" v="4625"/></node><node id="-1037" lat="30.240644" lon="-97.587904" changeset="false"><tag k="addr:street" v="Reeders Drive"/><tag k="addr:housenumber" v="4102"/></node><node id="-1038" lat="30.236232" lon="-97.586055" changeset="false"><tag k="addr:street" v="Ziller Cove"/><tag k="addr:housenumber" v="3903"/></node><node id="-1039" lat="30.236215" lon="-97.58554" changeset="false"><tag k="addr:street" v="Varrelman Street"/><tag k="addr:housenumber" v="14701"/></node><node id="-1040" lat="30.22627" lon="-97.630105" changeset="false"><tag k="addr:street" v="Garden Gate Drive"/><tag k="addr:housenumber" v="11701"/></node><node id="-1041" lat="30.238674" lon="-97.57205" changeset="false"><tag k="addr:street" v="Senda Lane"/><tag k="addr:housenumber" v="4610"/></node><node id="-1042" lat="30.239943" lon="-97.575466" changeset="false"><tag k="addr:street" v="Graceful Lane"/><tag k="addr:housenumber" v="4603"/></node><node id="-1043" lat="30.240202" lon="-97.57579" changeset="false"><tag k="addr:street" v="Graceful Lane"/><tag k="addr:housenumber" v="4604"/></node><node id="-1044" lat="30.240015" lon="-97.57542" changeset="false"><tag k="addr:street" v="Graceful Lane"/><tag k="addr:housenumber" v="4605"/></node><node id="-1045" lat="30.240472" lon="-97.575118" changeset="false"><tag k="addr:street" v="Graceful Lane"/><tag k="addr:housenumber" v="4617"/></node><node id="-1046" lat="30.24311" lon="-97.584338" changeset="false"><tag k="addr:street" v="Hunters Bend Road"/><tag k="addr:housenumber" v="14352"/></node><node id="-1047" lat="30.229949" lon="-97.59356" changeset="false"><tag k="addr:street" v="Wickham Lane"/><tag k="addr:housenumber" v="2900"/></node><node id="-1048" lat="30.236112" lon="-97.571251" changeset="false"><tag k="addr:street" v="Best Way"/><tag k="addr:housenumber" v="4505"/></node><node id="-1049" lat="30.260115" lon="-97.63169" changeset="false"><tag k="addr:street" v="Lower Drive"/><tag k="addr:housenumber" v="4100"/></node><node id="-1050" lat="30.237744" lon="-97.572103" changeset="false"><tag k="addr:street" v="Senda Lane"/><tag k="addr:housenumber" v="4527"/></node><node id="-1051" lat="30.237091" lon="-97.588692" changeset="false"><tag k="addr:street" v="Sandifer Street"/><tag k="addr:housenumber" v="14405"/></node><node id="-1052" lat="30.238331" lon="-97.585584" changeset="false"><tag k="addr:street" v="Rumfeldt Street"/><tag k="addr:housenumber" v="14516"/></node><node id="-1053" lat="30.240792" lon="-97.581303" changeset="false"><tag k="addr:street" v="Plain View Drive"/><tag k="addr:housenumber" v="15029"/></node><node id="-1054" lat="30.238105" lon="-97.577925" changeset="false"><tag k="addr:street" v="Lucian Drive"/><tag k="addr:housenumber" v="15303"/></node><node id="-1055" lat="30.244874" lon="-97.58119" changeset="false"><tag k="addr:street" v="Clear View Drive"/><tag k="addr:housenumber" v="4808"/></node><node id="-1056" lat="30.239248" lon="-97.573013" changeset="false"><tag k="addr:street" v="Esper Lane"/><tag k="addr:housenumber" v="4613"/></node><node id="-1057" lat="30.237811" lon="-97.573499" changeset="false"><tag k="addr:street" v="Kind Way"/><tag k="addr:housenumber" v="4516"/></node><node id="-1058" lat="30.2377" lon="-97.573081" changeset="false"><tag k="addr:street" v="Kind Way"/><tag k="addr:housenumber" v="4519"/></node><node id="-1059" lat="30.238037" lon="-97.573372" changeset="false"><tag k="addr:street" v="Kind Way"/><tag k="addr:housenumber" v="4522"/></node><node id="-1060" lat="30.2382" lon="-97.573275" changeset="false"><tag k="addr:street" v="Kind Way"/><tag k="addr:housenumber" v="4526"/></node><node id="-1061" lat="30.237345" lon="-97.571938" changeset="false"><tag k="addr:street" v="Credo Lane"/><tag k="addr:housenumber" v="4520"/></node><node id="-1062" lat="30.239617" lon="-97.572359" changeset="false"><tag k="addr:street" v="Kind Way"/><tag k="addr:housenumber" v="4626"/></node><node id="-1063" lat="30.236754" lon="-97.572744" changeset="false"><tag k="addr:street" v="Senda Lane"/><tag k="addr:housenumber" v="4501"/></node><node id="-1064" lat="30.23682" lon="-97.572692" changeset="false"><tag k="addr:street" v="Senda Lane"/><tag k="addr:housenumber" v="4503"/></node><node id="-1065" lat="30.23667" lon="-97.590115" changeset="false"><tag k="addr:street" v="Banda Lane"/><tag k="addr:housenumber" v="3516"/></node><node id="-1066" lat="30.227532" lon="-97.590148" changeset="false"><tag k="addr:street" v="Crownover Street"/><tag k="addr:housenumber" v="2902"/></node><node id="-1067" lat="30.238306" lon="-97.623875" changeset="false"><tag k="addr:street" v="Farm-to-Market Road 973"/><tag k="addr:housenumber" v="2814"/></node><node id="-1068" lat="30.237318" lon="-97.573333" changeset="false"><tag k="addr:street" v="Kind Way"/><tag k="addr:housenumber" v="4509"/></node><node id="-1069" lat="30.237478" lon="-97.57322" changeset="false"><tag k="addr:street" v="Kind Way"/><tag k="addr:housenumber" v="4513"/></node><node id="-1070" lat="30.239277" lon="-97.571642" changeset="false"><tag k="addr:street" v="Senda Lane"/><tag k="addr:housenumber" v="4626"/></node><node id="-1071" lat="30.236589" lon="-97.569584" changeset="false"><tag k="addr:street" v="Felicity Lane"/><tag k="addr:housenumber" v="4528"/></node><node id="-1072" lat="30.235366" lon="-97.569863" changeset="false"><tag k="addr:street" v="Felicity Lane"/><tag k="addr:housenumber" v="4501"/></node><node id="-1073" lat="30.238842" lon="-97.574781" changeset="false"><tag k="addr:street" v="Inicio Lane"/><tag k="addr:housenumber" v="4522"/></node><node id="-1074" lat="30.236999" lon="-97.571214" changeset="false"><tag k="addr:street" v="Best Way"/><tag k="addr:housenumber" v="4522"/></node><node id="-1075" lat="30.236417" lon="-97.571064" changeset="false"><tag k="addr:street" v="Best Way"/><tag k="addr:housenumber" v="4513"/></node><node id="-1076" lat="30.239607" lon="-97.588094" changeset="false"><tag k="addr:street" v="Reeders Drive"/><tag k="addr:housenumber" v="4001"/></node><node id="-1077" lat="30.239778" lon="-97.581833" changeset="false"><tag k="addr:street" v="Hunters Bend Road"/><tag k="addr:housenumber" v="14907"/></node><node id="-1078" lat="30.239514" lon="-97.573799" changeset="false"><tag k="addr:street" v="Inicio Lane"/><tag k="addr:housenumber" v="4611"/></node><node id="-1079" lat="30.223866" lon="-97.626753" changeset="false"><tag k="addr:street" v="Green Pastures Drive"/><tag k="addr:housenumber" v="1321"/></node></osm>