<?xml version="1.0" encoding="UTF-8"?><osm version="0.6" generator="github.com/aaronlidman/osm-and-geojson"><node id="-1" lat="30.414492" lon="-97.745439" changeset="false"><tag k="addr:street" v="Research Boulevard"/><tag k="addr:housenumber" v="11593"/><tag k="addr:postcode" v="78759"/></node><node id="-2" lat="30.418428" lon="-97.746053" changeset="false"><tag k="addr:street" v="Research Boulevard"/><tag k="addr:housenumber" v="11689"/><tag k="addr:postcode" v="78759"/></node><node id="-3" lat="30.414464" lon="-97.745431" changeset="false"><tag k="addr:street" v="Research Boulevard"/><tag k="addr:housenumber" v="11585"/><tag k="addr:postcode" v="78759"/></node><node id="-4" lat="30.417837" lon="-97.743312" changeset="false"><tag k="addr:street" v="Duval Road"/><tag k="addr:housenumber" v="5301"/><tag k="addr:postcode" v="78759"/></node><node id="-5" lat="30.416466" lon="-97.745502" changeset="false"><tag k="addr:street" v="Thunder Creek Road"/><tag k="addr:housenumber" v="5301"/><tag k="addr:postcode" v="78759"/></node><node id="-6" lat="30.415809" lon="-97.740899" changeset="false"><tag k="addr:street" v="Natrona Drive"/><tag k="addr:housenumber" v="11713"/><tag k="addr:postcode" v="78759"/></node><node id="-7" lat="30.416376" lon="-97.74309" changeset="false"><tag k="addr:street" v="Angus Road"/><tag k="addr:housenumber" v="11718"/><tag k="addr:postcode" v="78759"/></node><node id="-8" lat="30.414039" lon="-97.742443" changeset="false"><tag k="addr:street" v="Natrona Drive"/><tag k="addr:housenumber" v="11612"/><tag k="addr:postcode" v="78759"/></node><node id="-9" lat="30.415732" lon="-97.74566" changeset="false"><tag k="addr:street" v="Research Boulevard"/><tag k="addr:housenumber" v="11611"/><tag k="addr:postcode" v="78759"/></node><node id="-10" lat="30.416604" lon="-97.745818" changeset="false"><tag k="addr:street" v="Research Boulevard"/><tag k="addr:housenumber" v="11643"/><tag k="addr:postcode" v="78759"/></node><node id="-11" lat="30.4159" lon="-97.742685" changeset="false"><tag k="addr:street" v="Thunder Creek Road"/><tag k="addr:housenumber" v="5222"/><tag k="addr:postcode" v="78759"/></node><node id="-12" lat="30.413296" lon="-97.743556" changeset="false"><tag k="addr:street" v="Wind River Road"/><tag k="addr:housenumber" v="5208 1/2"/><tag k="addr:postcode" v="78759"/></node><node id="-13" lat="30.4169" lon="-97.74577" changeset="false"><tag k="addr:street" v="Thunder Creek Road"/><tag k="addr:housenumber" v="5320"/><tag k="addr:postcode" v="78759"/></node><node id="-14" lat="30.415358" lon="-97.74333" changeset="false"><tag k="addr:street" v="Angus Road"/><tag k="addr:housenumber" v="11645"/><tag k="addr:postcode" v="78759"/></node><node id="-15" lat="30.41745" lon="-97.745895" changeset="false"><tag k="addr:street" v="Research Boulevard"/><tag k="addr:housenumber" v="11655"/><tag k="addr:postcode" v="78759"/></node><node id="-16" lat="30.416257" lon="-97.745527" changeset="false"><tag k="addr:street" v="Research Boulevard"/><tag k="addr:housenumber" v="11637"/><tag k="addr:postcode" v="78759"/></node><node id="-17" lat="30.413926" lon="-97.740964" changeset="false"><tag k="addr:street" v="Elk Park Trail"/><tag k="addr:housenumber" v="11617"/><tag k="addr:postcode" v="78759"/></node><node id="-18" lat="30.414443" lon="-97.745427" changeset="false"><tag k="addr:street" v="Research Boulevard"/><tag k="addr:housenumber" v="11579"/><tag k="addr:postcode" v="78759"/></node><node id="-19" lat="30.414423" lon="-97.745417" changeset="false"><tag k="addr:street" v="Research Boulevard"/><tag k="addr:housenumber" v="11577"/><tag k="addr:postcode" v="78759"/></node><node id="-20" lat="30.415989" lon="-97.745747" changeset="false"><tag k="addr:street" v="Research Boulevard"/><tag k="addr:housenumber" v="11621"/><tag k="addr:postcode" v="78759"/></node><node id="-21" lat="30.416467" lon="-97.744612" changeset="false"><tag k="addr:street" v="Thunder Creek Road"/><tag k="addr:housenumber" v="5230"/><tag k="addr:postcode" v="78759"/></node><node id="-22" lat="30.413869" lon="-97.738414" changeset="false"><tag k="addr:street" v="Big Trail"/><tag k="addr:housenumber" v="11701"/><tag k="addr:postcode" v="78759"/></node><node id="-23" lat="30.41438" lon="-97.740836" changeset="false"><tag k="addr:street" v="Elk Park Trail"/><tag k="addr:housenumber" v="11623"/><tag k="addr:postcode" v="78759"/></node><node id="-24" lat="30.414306" lon="-97.741221" changeset="false"><tag k="addr:street" v="Elk Park Trail"/><tag k="addr:housenumber" v="11618"/><tag k="addr:postcode" v="78759"/></node><node id="-25" lat="30.414227" lon="-97.743892" changeset="false"><tag k="addr:street" v="Angus Road"/><tag k="addr:housenumber" v="11615"/><tag k="addr:postcode" v="78759"/></node><node id="-26" lat="30.41805" lon="-97.746033" changeset="false"><tag k="addr:street" v="Research Boulevard"/><tag k="addr:housenumber" v="11679"/><tag k="addr:postcode" v="78759"/></node><node id="-27" lat="30.415761" lon="-97.745522" changeset="false"><tag k="addr:street" v="Research Boulevard"/><tag k="addr:housenumber" v="11617"/><tag k="addr:postcode" v="78759"/></node><node id="-28" lat="30.414421" lon="-97.741209" changeset="false"><tag k="addr:street" v="Elk Park Trail"/><tag k="addr:housenumber" v="11620"/><tag k="addr:postcode" v="78759"/></node><node id="-29" lat="30.412757" lon="-97.739734" changeset="false"><tag k="addr:street" v="Beaver Creek Drive"/><tag k="addr:housenumber" v="4811"/><tag k="addr:postcode" v="78759"/></node><node id="-30" lat="30.412827" lon="-97.739756" changeset="false"><tag k="addr:street" v="Big Trail"/><tag k="addr:housenumber" v="11611"/><tag k="addr:postcode" v="78759"/></node></osm>