<?xml version="1.0" encoding="UTF-8"?><osm version="0.6" generator="github.com/aaronlidman/osm-and-geojson"><node id="-1" lat="30.235888" lon="-97.728904" changeset="false"><tag k="addr:street" v="Burton Drive"/><tag k="addr:housenumber" v="1800"/><tag k="addr:postcode" v="78741"/></node><node id="-2" lat="30.236568" lon="-97.731919" changeset="false"><tag k="addr:street" v="Crooked Lane"/><tag k="addr:housenumber" v="1900"/><tag k="addr:postcode" v="78741"/></node><node id="-3" lat="30.233349" lon="-97.732272" changeset="false"><tag k="addr:street" v="Burton Drive"/><tag k="addr:housenumber" v="2000"/><tag k="addr:postcode" v="78741"/></node><node id="-4" lat="30.235076" lon="-97.734937" changeset="false"><tag k="addr:street" v="Parker Lane"/><tag k="addr:housenumber" v="2001"/><tag k="addr:postcode" v="78741"/></node><node id="-5" lat="30.234205" lon="-97.732722" changeset="false"><tag k="addr:street" v="Mariposa Drive"/><tag k="addr:housenumber" v="1901"/><tag k="addr:postcode" v="78741"/></node><node id="-6" lat="30.236446" lon="-97.730795" changeset="false"><tag k="addr:street" v="Crooked Lane"/><tag k="addr:housenumber" v="1910"/><tag k="addr:postcode" v="78741"/></node><node id="-7" lat="30.231786" lon="-97.733577" changeset="false"><tag k="addr:street" v="Burton Drive"/><tag k="addr:housenumber" v="2124"/><tag k="addr:postcode" v="78741"/></node><node id="-8" lat="30.236271" lon="-97.730563" changeset="false"><tag k="addr:street" v="Crooked Lane"/><tag k="addr:housenumber" v="1912"/><tag k="addr:postcode" v="78741"/></node><node id="-9" lat="30.236671" lon="-97.732388" changeset="false"><tag k="addr:street" v="Cedar Ridge Drive"/><tag k="addr:housenumber" v="1809"/><tag k="addr:postcode" v="78741"/></node><node id="-10" lat="30.236232" lon="-97.730383" changeset="false"><tag k="addr:street" v="Crooked Lane"/><tag k="addr:housenumber" v="1914"/><tag k="addr:postcode" v="78741"/></node></osm>