<?xml version="1.0" encoding="UTF-8"?><osm version="0.6" generator="github.com/aaronlidman/osm-and-geojson"><node id="-1" lat="30.358016" lon="-97.75032" changeset="false"><tag k="addr:street" v="Greystone Drive"/><tag k="addr:housenumber" v="3523"/><tag k="coa:place_id" v="1012010"/></node><node id="-2" lat="30.358148" lon="-97.751705" changeset="false"><tag k="addr:street" v="Greystone Drive"/><tag k="addr:housenumber" v="3557"/><tag k="coa:place_id" v="340910"/></node><node id="-3" lat="30.357752" lon="-97.749276" changeset="false"><tag k="addr:street" v="Greystone Drive"/><tag k="addr:housenumber" v="3465"/><tag k="coa:place_id" v="339074"/></node><node id="-4" lat="30.357372" lon="-97.749494" changeset="false"><tag k="addr:street" v="Shadow Hill Drive"/><tag k="addr:housenumber" v="7407"/><tag k="coa:place_id" v="338978"/></node><node id="-5" lat="30.356334" lon="-97.750907" changeset="false"><tag k="addr:street" v="Wood Hollow Drive"/><tag k="addr:housenumber" v="7201"/><tag k="coa:place_id" v="349196"/></node><node id="-6" lat="30.358338" lon="-97.753052" changeset="false"><tag k="addr:street" v="Greystone Drive"/><tag k="addr:housenumber" v="3607"/><tag k="coa:place_id" v="146295"/></node><node id="-7" lat="30.357017" lon="-97.751774" changeset="false"><tag k="addr:street" v="Greystone Drive"/><tag k="addr:housenumber" v="3543"/><tag k="coa:place_id" v="961958"/></node><node id="-8" lat="30.357349" lon="-97.749522" changeset="false"><tag k="addr:street" v="Shadow Hill Drive"/><tag k="addr:housenumber" v="7405"/><tag k="coa:place_id" v="338972"/></node><node id="-9" lat="30.357657" lon="-97.749661" changeset="false"><tag k="addr:street" v="Shadow Hill Drive"/><tag k="addr:housenumber" v="7406"/><tag k="coa:place_id" v="338960"/></node><node id="-10" lat="30.357087" lon="-97.747629" changeset="false"><tag k="addr:street" v="Greystone Drive"/><tag k="addr:housenumber" v="3415"/><tag k="coa:place_id" v="189651"/></node><node id="-11" lat="30.356732" lon="-97.750598" changeset="false"><tag k="addr:street" v="Wood Hollow Drive"/><tag k="addr:housenumber" v="7303"/><tag k="coa:place_id" v="252786"/></node><node id="-12" lat="30.358385" lon="-97.753082" changeset="false"><tag k="addr:street" v="Greystone Drive"/><tag k="addr:housenumber" v="3607 1/2"/><tag k="coa:place_id" v="3184281"/></node><node id="-13" lat="30.357443" lon="-97.74838" changeset="false"><tag k="addr:street" v="Greystone Drive"/><tag k="addr:housenumber" v="3435"/><tag k="coa:place_id" v="319545"/></node><node id="-14" lat="30.357492" lon="-97.749457" changeset="false"><tag k="addr:street" v="Shadow Hill Drive"/><tag k="addr:housenumber" v="7409"/><tag k="coa:place_id" v="338984"/></node><node id="-15" lat="30.356754" lon="-97.747361" changeset="false"><tag k="addr:street" v="Greystone Drive"/><tag k="addr:housenumber" v="3407"/><tag k="coa:place_id" v="147405"/></node><node id="-16" lat="30.358627" lon="-97.753864" changeset="false"><tag k="addr:street" v="Greystone Drive"/><tag k="addr:housenumber" v="3615"/><tag k="coa:place_id" v="3147601"/></node><node id="-17" lat="30.357639" lon="-97.748988" changeset="false"><tag k="addr:street" v="Greystone Drive"/><tag k="addr:housenumber" v="3455"/><tag k="coa:place_id" v="339104"/></node><node id="-18" lat="30.357618" lon="-97.748937" changeset="false"><tag k="addr:street" v="Greystone Drive"/><tag k="addr:housenumber" v="3453"/><tag k="coa:place_id" v="339116"/></node><node id="-19" lat="30.357535" lon="-97.748734" changeset="false"><tag k="addr:street" v="Greystone Drive"/><tag k="addr:housenumber" v="3445"/><tag k="coa:place_id" v="339140"/></node><node id="-20" lat="30.357731" lon="-97.749218" changeset="false"><tag k="addr:street" v="Greystone Drive"/><tag k="addr:housenumber" v="3463"/><tag k="coa:place_id" v="339080"/></node><node id="-21" lat="30.357668" lon="-97.749063" changeset="false"><tag k="addr:street" v="Greystone Drive"/><tag k="addr:housenumber" v="3457"/><tag k="coa:place_id" v="339098"/></node><node id="-22" lat="30.357552" lon="-97.748775" changeset="false"><tag k="addr:street" v="Greystone Drive"/><tag k="addr:housenumber" v="3447"/><tag k="coa:place_id" v="339134"/></node><node id="-23" lat="30.357688" lon="-97.74911" changeset="false"><tag k="addr:street" v="Greystone Drive"/><tag k="addr:housenumber" v="3459"/><tag k="coa:place_id" v="339092"/></node><node id="-24" lat="30.357595" lon="-97.748885" changeset="false"><tag k="addr:street" v="Greystone Drive"/><tag k="addr:housenumber" v="3451"/><tag k="coa:place_id" v="339122"/></node><node id="-25" lat="30.357708" lon="-97.749166" changeset="false"><tag k="addr:street" v="Greystone Drive"/><tag k="addr:housenumber" v="3461"/><tag k="coa:place_id" v="339086"/></node><node id="-26" lat="30.357572" lon="-97.748828" changeset="false"><tag k="addr:street" v="Greystone Drive"/><tag k="addr:housenumber" v="3449"/><tag k="coa:place_id" v="339128"/></node><node id="-27" lat="30.357862" lon="-97.74966" changeset="false"><tag k="addr:street" v="Greystone Drive"/><tag k="addr:housenumber" v="3501"/><tag k="coa:place_id" v="338894"/></node><node id="-28" lat="30.357876" lon="-97.749699" changeset="false"><tag k="addr:street" v="Greystone Drive"/><tag k="addr:housenumber" v="3503"/><tag k="coa:place_id" v="338888"/></node><node id="-29" lat="30.357908" lon="-97.749769" changeset="false"><tag k="addr:street" v="Greystone Drive"/><tag k="addr:housenumber" v="3507"/><tag k="coa:place_id" v="338876"/></node><node id="-30" lat="30.357951" lon="-97.749874" changeset="false"><tag k="addr:street" v="Greystone Drive"/><tag k="addr:housenumber" v="3513"/><tag k="coa:place_id" v="338858"/></node><node id="-31" lat="30.357896" lon="-97.749736" changeset="false"><tag k="addr:street" v="Greystone Drive"/><tag k="addr:housenumber" v="3505"/><tag k="coa:place_id" v="338882"/></node><node id="-32" lat="30.357972" lon="-97.749927" changeset="false"><tag k="addr:street" v="Greystone Drive"/><tag k="addr:housenumber" v="3515"/><tag k="coa:place_id" v="338852"/></node><node id="-33" lat="30.357923" lon="-97.749806" changeset="false"><tag k="addr:street" v="Greystone Drive"/><tag k="addr:housenumber" v="3509"/><tag k="coa:place_id" v="338870"/></node><node id="-34" lat="30.357994" lon="-97.749953" changeset="false"><tag k="addr:street" v="Greystone Drive"/><tag k="addr:housenumber" v="3517"/><tag k="coa:place_id" v="338846"/></node><node id="-35" lat="30.357937" lon="-97.74984" changeset="false"><tag k="addr:street" v="Greystone Drive"/><tag k="addr:housenumber" v="3511"/><tag k="coa:place_id" v="338864"/></node></osm>