<?xml version="1.0" encoding="UTF-8"?><osm version="0.6" generator="github.com/aaronlidman/osm-and-geojson"><node id="-1" lat="30.298249" lon="-97.628365" changeset="false"><tag k="addr:street" v="View Ridge Drive"/><tag k="addr:housenumber" v="8109"/></node><node id="-2" lat="30.293537" lon="-97.629903" changeset="false"><tag k="addr:street" v="Garcreek Circle"/><tag k="addr:housenumber" v="8301"/></node><node id="-3" lat="30.294056" lon="-97.630635" changeset="false"><tag k="addr:street" v="Wentworth Drive"/><tag k="addr:housenumber" v="6711"/></node><node id="-4" lat="30.294187" lon="-97.628642" changeset="false"><tag k="addr:street" v="Garcreek Circle"/><tag k="addr:housenumber" v="8407"/></node><node id="-5" lat="30.291972" lon="-97.628212" changeset="false"><tag k="addr:street" v="Decker Lane"/><tag k="addr:housenumber" v="6700"/></node><node id="-6" lat="30.293337" lon="-97.629654" changeset="false"><tag k="addr:street" v="Riverstone Drive"/><tag k="addr:housenumber" v="8302"/></node><node id="-7" lat="30.294294" lon="-97.628375" changeset="false"><tag k="addr:street" v="Garcreek Circle"/><tag k="addr:housenumber" v="8409"/></node><node id="-8" lat="30.294492" lon="-97.627778" changeset="false"><tag k="addr:street" v="Riverstone Drive"/><tag k="addr:housenumber" v="8414"/></node><node id="-9" lat="30.294826" lon="-97.628021" changeset="false"><tag k="addr:street" v="Garcreek Circle"/><tag k="addr:housenumber" v="8414"/></node><node id="-10" lat="30.293299" lon="-97.628117" changeset="false"><tag k="addr:street" v="Riverstone Drive"/><tag k="addr:housenumber" v="8407"/></node><node id="-11" lat="30.294014" lon="-97.629057" changeset="false"><tag k="addr:street" v="Garcreek Circle"/><tag k="addr:housenumber" v="8403"/></node><node id="-12" lat="30.297537" lon="-97.629217" changeset="false"><tag k="addr:street" v="Wilmington Drive"/><tag k="addr:housenumber" v="6903"/></node><node id="-13" lat="30.293475" lon="-97.629072" changeset="false"><tag k="addr:street" v="Riverstone Drive"/><tag k="addr:housenumber" v="8400"/></node><node id="-14" lat="30.294097" lon="-97.628829" changeset="false"><tag k="addr:street" v="Garcreek Circle"/><tag k="addr:housenumber" v="8405"/></node><node id="-15" lat="30.295516" lon="-97.635143" changeset="false"><tag k="addr:street" v="Loyola Lane"/><tag k="addr:housenumber" v="7900"/></node><node id="-16" lat="30.294137" lon="-97.627327" changeset="false"><tag k="addr:street" v="Riverstone Drive"/><tag k="addr:housenumber" v="8417"/></node><node id="-17" lat="30.293753" lon="-97.628411" changeset="false"><tag k="addr:street" v="Riverstone Drive"/><tag k="addr:housenumber" v="8406"/></node><node id="-18" lat="30.299499" lon="-97.62427" changeset="false"><tag k="addr:street" v="Mayview Drive"/><tag k="addr:housenumber" v="8403"/></node><node id="-19" lat="30.296748" lon="-97.626178" changeset="false"><tag k="addr:street" v="Decker Lane"/><tag k="addr:housenumber" v="7000"/></node><node id="-20" lat="30.293548" lon="-97.627167" changeset="false"><tag k="addr:street" v="Decker Lane"/><tag k="addr:housenumber" v="6820"/></node><node id="-21" lat="30.293562" lon="-97.628861" changeset="false"><tag k="addr:street" v="Riverstone Drive"/><tag k="addr:housenumber" v="8402"/></node><node id="-22" lat="30.298984" lon="-97.626002" changeset="false"><tag k="addr:street" v="View Ridge Drive"/><tag k="addr:housenumber" v="8303"/></node><node id="-23" lat="30.292866" lon="-97.629798" changeset="false"><tag k="addr:street" v="Riverstone Drive"/><tag k="addr:housenumber" v="8305"/></node><node id="-24" lat="30.293434" lon="-97.627894" changeset="false"><tag k="addr:street" v="Riverstone Drive"/><tag k="addr:housenumber" v="8409"/></node><node id="-25" lat="30.29367" lon="-97.632666" changeset="false"><tag k="addr:street" v="Loyola Lane"/><tag k="addr:housenumber" v="8200"/></node><node id="-26" lat="30.294677" lon="-97.627629" changeset="false"><tag k="addr:street" v="Riverstone Drive"/><tag k="addr:housenumber" v="8416"/></node><node id="-27" lat="30.293227" lon="-97.630603" changeset="false"><tag k="addr:street" v="Riverstone Drive"/><tag k="addr:housenumber" v="8205"/></node><node id="-28" lat="30.299168" lon="-97.629771" changeset="false"><tag k="addr:street" v="Colony Loop Drive"/><tag k="addr:housenumber" v="8004"/></node><node id="-29" lat="30.29946" lon="-97.623593" changeset="false"><tag k="addr:street" v="Mayview Drive"/><tag k="addr:housenumber" v="8501"/></node><node id="-30" lat="30.293106" lon="-97.630345" changeset="false"><tag k="addr:street" v="Riverstone Drive"/><tag k="addr:housenumber" v="8301"/></node><node id="-31" lat="30.293645" lon="-97.632614" changeset="false"><tag k="addr:street" v="Loyola Lane"/><tag k="addr:housenumber" v="8206"/></node><node id="-32" lat="30.293948" lon="-97.627465" changeset="false"><tag k="addr:street" v="Riverstone Drive"/><tag k="addr:housenumber" v="8415"/></node><node id="-33" lat="30.292633" lon="-97.630241" changeset="false"><tag k="addr:street" v="Loyola Lane"/><tag k="addr:housenumber" v="8400"/></node><node id="-34" lat="30.294594" lon="-97.627095" changeset="false"><tag k="addr:street" v="Colony Loop Drive"/><tag k="addr:housenumber" v="8501"/></node></osm>