<?xml version="1.0" encoding="UTF-8"?><osm version="0.6" generator="github.com/aaronlidman/osm-and-geojson"><node id="-1" lat="30.166903" lon="-97.769578" changeset="false"><tag k="addr:street" v="Bluff Springs Road"/><tag k="addr:housenumber" v="8406"/><tag k="coa:place_id" v="794528"/></node><node id="-2" lat="30.160549" lon="-97.774011" changeset="false"><tag k="addr:street" v="Brandt Road"/><tag k="addr:housenumber" v="4402"/><tag k="coa:place_id" v="3048562"/></node><node id="-3" lat="30.167464" lon="-97.781696" changeset="false"><tag k="addr:street" v="East Slaughter Lane"/><tag k="addr:housenumber" v="124"/><tag k="coa:place_id" v="833114"/></node><node id="-4" lat="30.171043" lon="-97.782827" changeset="false"><tag k="addr:street" v="I 35 Frontage Road,1100"/><tag k="addr:housenumber" v="8501"/><tag k="coa:place_id" v="225823"/></node><node id="-5" lat="30.159776" lon="-97.769798" changeset="false"><tag k="addr:street" v="Bluff Springs Road"/><tag k="addr:housenumber" v="9020"/><tag k="coa:place_id" v="835988"/></node><node id="-6" lat="30.176739" lon="-97.778658" changeset="false"><tag k="addr:street" v="I 35 Frontage Road,1100"/><tag k="addr:housenumber" v="8001 1/2"/><tag k="coa:place_id" v="3090573"/></node><node id="-7" lat="30.17091" lon="-97.782907" changeset="false"><tag k="addr:street" v="I 35 Frontage Road,1100"/><tag k="addr:housenumber" v="8513"/><tag k="coa:place_id" v="478581"/></node><node id="-8" lat="30.15917" lon="-97.773918" changeset="false"><tag k="addr:street" v="Brandt Road"/><tag k="addr:housenumber" v="4400"/><tag k="coa:place_id" v="321933"/></node><node id="-9" lat="30.15957" lon="-97.772008" changeset="false"><tag k="addr:street" v="Brandt Road"/><tag k="addr:housenumber" v="4506"/><tag k="coa:place_id" v="251127"/></node><node id="-10" lat="30.159453" lon="-97.769868" changeset="false"><tag k="addr:street" v="Bluff Springs Road"/><tag k="addr:housenumber" v="9000"/><tag k="coa:place_id" v="794012"/></node><node id="-11" lat="30.159846" lon="-97.772762" changeset="false"><tag k="addr:street" v="Brandt Road"/><tag k="addr:housenumber" v="4414"/><tag k="coa:place_id" v="3101941"/></node><node id="-12" lat="30.166435" lon="-97.772893" changeset="false"><tag k="addr:street" v="Mozelle Lane"/><tag k="addr:housenumber" v="2350"/><tag k="coa:place_id" v="3055232"/></node><node id="-13" lat="30.169063" lon="-97.768522" changeset="false"><tag k="addr:street" v="Bluff Springs Road"/><tag k="addr:housenumber" v="8209"/><tag k="coa:place_id" v="942248"/></node><node id="-14" lat="30.159769" lon="-97.771371" changeset="false"><tag k="addr:street" v="Brandt Road"/><tag k="addr:housenumber" v="4508"/><tag k="coa:place_id" v="794006"/></node><node id="-15" lat="30.172862" lon="-97.781524" changeset="false"><tag k="addr:street" v="I 35 Frontage Road,1100"/><tag k="addr:housenumber" v="8301"/><tag k="coa:place_id" v="3033454"/></node><node id="-16" lat="30.169749" lon="-97.76998" changeset="false"><tag k="addr:street" v="Bluff Springs Road"/><tag k="addr:housenumber" v="8200"/><tag k="coa:place_id" v="675118"/></node><node id="-17" lat="30.174066" lon="-97.780852" changeset="false"><tag k="addr:street" v="I 35 Frontage Road,1100"/><tag k="addr:housenumber" v="8201 1/2"/><tag k="coa:place_id" v="3224494"/></node><node id="-18" lat="30.167131" lon="-97.776045" changeset="false"><tag k="addr:street" v="Brockman Lane"/><tag k="addr:housenumber" v="2205"/><tag k="coa:place_id" v="794558"/></node><node id="-19" lat="30.170685" lon="-97.782706" changeset="false"><tag k="addr:street" v="I 35 Frontage Road,1100"/><tag k="addr:housenumber" v="8515"/><tag k="coa:place_id" v="3054254"/></node><node id="-20" lat="30.159575" lon="-97.775876" changeset="false"><tag k="addr:street" v="East Slaughter Lane"/><tag k="addr:housenumber" v="810"/><tag k="coa:place_id" v="3324846"/></node><node id="-21" lat="30.164883" lon="-97.776579" changeset="false"><tag k="addr:street" v="Brockman Lane"/><tag k="addr:housenumber" v="2101"/><tag k="coa:place_id" v="5115809"/></node><node id="-22" lat="30.177441" lon="-97.777448" changeset="false"><tag k="addr:street" v="I 35 Frontage Road,1100"/><tag k="addr:housenumber" v="7907"/><tag k="coa:place_id" v="714597"/></node><node id="-23" lat="30.166541" lon="-97.76908" changeset="false"><tag k="addr:street" v="Bluff Springs Road"/><tag k="addr:housenumber" v="8501"/><tag k="coa:place_id" v="166451"/></node><node id="-24" lat="30.162495" lon="-97.76935" changeset="false"><tag k="addr:street" v="Bluff Springs Road"/><tag k="addr:housenumber" v="8707"/><tag k="coa:place_id" v="794060"/></node><node id="-25" lat="30.171008" lon="-97.782834" changeset="false"><tag k="addr:street" v="I 35 Frontage Road,1100"/><tag k="addr:housenumber" v="8501 1/2"/><tag k="coa:place_id" v="3224460"/></node><node id="-26" lat="30.159401" lon="-97.769372" changeset="false"><tag k="addr:street" v="Bluff Springs Road"/><tag k="addr:housenumber" v="9001 1/2"/><tag k="coa:place_id" v="1102850"/></node><node id="-27" lat="30.164853" lon="-97.772268" changeset="false"><tag k="addr:street" v="Cecil Drive"/><tag k="addr:housenumber" v="2407"/><tag k="coa:place_id" v="794306"/></node><node id="-28" lat="30.163659" lon="-97.769794" changeset="false"><tag k="addr:street" v="Bluff Springs Road"/><tag k="addr:housenumber" v="8612"/><tag k="coa:place_id" v="794084"/></node><node id="-29" lat="30.159323" lon="-97.773295" changeset="false"><tag k="addr:street" v="Brandt Road"/><tag k="addr:housenumber" v="4404"/><tag k="coa:place_id" v="793976"/></node><node id="-30" lat="30.159194" lon="-97.773674" changeset="false"><tag k="addr:street" v="Brandt Road"/><tag k="addr:housenumber" v="4412"/><tag k="coa:place_id" v="793982"/></node><node id="-31" lat="30.165184" lon="-97.77459" changeset="false"><tag k="addr:street" v="Cecil Drive"/><tag k="addr:housenumber" v="2392"/><tag k="coa:place_id" v="3033753"/></node><node id="-32" lat="30.176461" lon="-97.778205" changeset="false"><tag k="addr:street" v="I 35 Frontage Road,1100"/><tag k="addr:housenumber" v="8001"/><tag k="coa:place_id" v="3355651"/></node><node id="-33" lat="30.170273" lon="-97.769085" changeset="false"><tag k="addr:street" v="Bluff Springs Road"/><tag k="addr:housenumber" v="8106"/><tag k="coa:place_id" v="171491"/></node><node id="-34" lat="30.159381" lon="-97.772739" changeset="false"><tag k="addr:street" v="Brandt Road"/><tag k="addr:housenumber" v="4424"/><tag k="coa:place_id" v="177902"/></node><node id="-35" lat="30.159333" lon="-97.771823" changeset="false"><tag k="addr:street" v="Brandt Road"/><tag k="addr:housenumber" v="4507"/><tag k="coa:place_id" v="3320599"/></node><node id="-36" lat="30.158991" lon="-97.775763" changeset="false"><tag k="addr:street" v="Brandt Road"/><tag k="addr:housenumber" v="2500"/><tag k="coa:place_id" v="253932"/></node><node id="-37" lat="30.162451" lon="-97.777454" changeset="false"><tag k="addr:street" v="East Slaughter Lane"/><tag k="addr:housenumber" v="648"/><tag k="coa:place_id" v="3294382"/></node><node id="-38" lat="30.167867" lon="-97.768704" changeset="false"><tag k="addr:street" v="Bluff Springs Road"/><tag k="addr:housenumber" v="8307"/><tag k="coa:place_id" v="439552"/></node><node id="-39" lat="30.163887" lon="-97.775681" changeset="false"><tag k="addr:street" v="Brockman Lane"/><tag k="addr:housenumber" v="2001"/><tag k="coa:place_id" v="794546"/></node><node id="-40" lat="30.163127" lon="-97.769869" changeset="false"><tag k="addr:street" v="Bluff Springs Road"/><tag k="addr:housenumber" v="8704"/><tag k="coa:place_id" v="794102"/></node><node id="-41" lat="30.164171" lon="-97.777936" changeset="false"><tag k="addr:street" v="East Slaughter Lane"/><tag k="addr:housenumber" v="516"/><tag k="coa:place_id" v="3074140"/></node><node id="-42" lat="30.165966" lon="-97.776183" changeset="false"><tag k="addr:street" v="Brockman Lane"/><tag k="addr:housenumber" v="2201"/><tag k="coa:place_id" v="3055233"/></node><node id="-43" lat="30.166805" lon="-97.768971" changeset="false"><tag k="addr:street" v="Bluff Springs Road"/><tag k="addr:housenumber" v="8407"/><tag k="coa:place_id" v="401895"/></node><node id="-44" lat="30.168241" lon="-97.769136" changeset="false"><tag k="addr:street" v="Bluff Springs Road"/><tag k="addr:housenumber" v="8300"/><tag k="coa:place_id" v="794564"/></node><node id="-45" lat="30.169948" lon="-97.769062" changeset="false"><tag k="addr:street" v="Bluff Springs Road"/><tag k="addr:housenumber" v="8110"/><tag k="coa:place_id" v="171492"/></node><node id="-46" lat="30.159239" lon="-97.773474" changeset="false"><tag k="addr:street" v="Brandt Road"/><tag k="addr:housenumber" v="4418"/><tag k="coa:place_id" v="253933"/></node><node id="-47" lat="30.158566" lon="-97.775301" changeset="false"><tag k="addr:street" v="Brandt Road"/><tag k="addr:housenumber" v="2501"/><tag k="coa:place_id" v="443986"/></node></osm>