<?xml version="1.0" encoding="UTF-8"?><osm version="0.6" generator="github.com/aaronlidman/osm-and-geojson"><node id="-1" lat="30.235619" lon="-97.75607" changeset="false"><tag k="addr:street" v="South Congress Avenue"/><tag k="addr:housenumber" v="2615"/><tag k="addr:postcode" v="78704"/></node><node id="-2" lat="30.234937" lon="-97.753561" changeset="false"><tag k="addr:street" v="Carnarvon Lane"/><tag k="addr:housenumber" v="2612 1/2"/><tag k="addr:postcode" v="78704"/></node><node id="-3" lat="30.234851" lon="-97.753484" changeset="false"><tag k="addr:street" v="Carnarvon Lane"/><tag k="addr:housenumber" v="2612"/><tag k="addr:postcode" v="78704"/></node><node id="-4" lat="30.235861" lon="-97.755851" changeset="false"><tag k="addr:street" v="South Congress Avenue"/><tag k="addr:housenumber" v="2603"/><tag k="addr:postcode" v="78704"/></node><node id="-5" lat="30.223688" lon="-97.747764" changeset="false"><tag k="addr:street" v="Woodward Street"/><tag k="addr:housenumber" v="1196 1/2"/><tag k="addr:postcode" v="78704"/></node><node id="-6" lat="30.232187" lon="-97.758334" changeset="false"><tag k="addr:street" v="South Congress Avenue"/><tag k="addr:housenumber" v="3001 1/2"/><tag k="addr:postcode" v="78704"/></node><node id="-7" lat="30.226748" lon="-97.753666" changeset="false"><tag k="addr:street" v="Woodward Street"/><tag k="addr:housenumber" v="520"/><tag k="addr:postcode" v="78704"/></node><node id="-8" lat="30.230318" lon="-97.748806" changeset="false"><tag k="addr:street" v="Saint Edward's Drive"/><tag k="addr:housenumber" v="921"/><tag k="addr:postcode" v="78704"/></node><node id="-9" lat="30.225506" lon="-97.747107" changeset="false"><tag k="addr:street" v="I 35 Frontage Road"/><tag k="addr:housenumber" v="3200"/><tag k="addr:postcode" v="78704"/></node><node id="-10" lat="30.228269" lon="-97.746839" changeset="false"><tag k="addr:street" v="Saint Edward's Drive"/><tag k="addr:housenumber" v="1401"/><tag k="addr:postcode" v="78704"/></node><node id="-11" lat="30.236851" lon="-97.754927" changeset="false"><tag k="addr:street" v="South Congress Avenue"/><tag k="addr:housenumber" v="2515"/><tag k="addr:postcode" v="78704"/></node><node id="-12" lat="30.229933" lon="-97.748226" changeset="false"><tag k="addr:street" v="Saint Edward's Drive"/><tag k="addr:housenumber" v="1101"/><tag k="addr:postcode" v="78704"/></node><node id="-13" lat="30.232281" lon="-97.753071" changeset="false"><tag k="addr:street" v="Saint Edward's Drive"/><tag k="addr:housenumber" v="601"/><tag k="addr:postcode" v="78704"/></node><node id="-14" lat="30.235322" lon="-97.75634" changeset="false"><tag k="addr:street" v="South Congress Avenue"/><tag k="addr:housenumber" v="2701"/><tag k="addr:postcode" v="78704"/></node><node id="-15" lat="30.230564" lon="-97.749414" changeset="false"><tag k="addr:street" v="Saint Edward's Drive"/><tag k="addr:housenumber" v="917"/><tag k="addr:postcode" v="78704"/></node><node id="-16" lat="30.235888" lon="-97.755827" changeset="false"><tag k="addr:street" v="South Congress Avenue"/><tag k="addr:housenumber" v="2601"/><tag k="addr:postcode" v="78704"/></node><node id="-17" lat="30.232094" lon="-97.757127" changeset="false"><tag k="addr:street" v="South Congress Avenue"/><tag k="addr:housenumber" v="3001"/><tag k="addr:postcode" v="78704"/></node></osm>