<?xml version="1.0" encoding="UTF-8"?><osm version="0.6" generator="github.com/aaronlidman/osm-and-geojson"><node id="-1" lat="30.421373" lon="-97.716518" changeset="false"><tag k="addr:street" v="Amherst Drive"/><tag k="addr:housenumber" v="12400"/><tag k="coa:place_id" v="685839"/></node><node id="-2" lat="30.414383" lon="-97.720774" changeset="false"><tag k="addr:street" v="Hawkshead Drive"/><tag k="addr:housenumber" v="3702"/><tag k="coa:place_id" v="323889"/></node><node id="-3" lat="30.422558" lon="-97.717955" changeset="false"><tag k="addr:street" v="Adelphi Lane"/><tag k="addr:housenumber" v="4001"/><tag k="coa:place_id" v="143437"/></node><node id="-4" lat="30.426227" lon="-97.718521" changeset="false"><tag k="addr:street" v="Ganymede Drive"/><tag k="addr:housenumber" v="4307"/><tag k="coa:place_id" v="626463"/></node><node id="-5" lat="30.422347" lon="-97.715867" changeset="false"><tag k="addr:street" v="Amherst Drive"/><tag k="addr:housenumber" v="12500"/><tag k="coa:place_id" v="154870"/></node><node id="-6" lat="30.424573" lon="-97.713844" changeset="false"><tag k="addr:street" v="West Parmer Lane"/><tag k="addr:housenumber" v="3901"/><tag k="coa:place_id" v="685881"/></node><node id="-7" lat="30.41959" lon="-97.721204" changeset="false"><tag k="addr:street" v="Cabana Lane"/><tag k="addr:housenumber" v="12223"/><tag k="coa:place_id" v="539169"/></node><node id="-8" lat="30.425363" lon="-97.715936" changeset="false"><tag k="addr:street" v="West Parmer Lane"/><tag k="addr:housenumber" v="4005"/><tag k="coa:place_id" v="3125050"/></node><node id="-9" lat="30.424682" lon="-97.714428" changeset="false"><tag k="addr:street" v="West Parmer Lane"/><tag k="addr:housenumber" v="3921"/><tag k="coa:place_id" v="3040298"/></node><node id="-10" lat="30.421653" lon="-97.717699" changeset="false"><tag k="addr:street" v="Adelphi Lane"/><tag k="addr:housenumber" v="3909"/><tag k="coa:place_id" v="381748"/></node><node id="-11" lat="30.422256" lon="-97.71708" changeset="false"><tag k="addr:street" v="Adelphi Lane"/><tag k="addr:housenumber" v="3905"/><tag k="coa:place_id" v="53333"/></node><node id="-12" lat="30.42171" lon="-97.719162" changeset="false"><tag k="addr:street" v="Cassady Drive"/><tag k="addr:housenumber" v="12217"/><tag k="coa:place_id" v="685887"/></node><node id="-13" lat="30.420717" lon="-97.717363" changeset="false"><tag k="addr:street" v="Amherst Drive"/><tag k="addr:housenumber" v="12300"/><tag k="coa:place_id" v="146714"/></node><node id="-14" lat="30.425008" lon="-97.715619" changeset="false"><tag k="addr:street" v="West Parmer Lane"/><tag k="addr:housenumber" v="4001"/><tag k="coa:place_id" v="162683"/></node><node id="-15" lat="30.422717" lon="-97.723022" changeset="false"><tag k="addr:street" v="Cumbria Lane"/><tag k="addr:housenumber" v="4401"/><tag k="coa:place_id" v="831549"/></node><node id="-16" lat="30.418438" lon="-97.721349" changeset="false"><tag k="addr:street" v="Mosley Lane"/><tag k="addr:housenumber" v="12204"/><tag k="coa:place_id" v="563367"/></node><node id="-17" lat="30.41837" lon="-97.721267" changeset="false"><tag k="addr:street" v="Mosley Lane"/><tag k="addr:housenumber" v="12206"/><tag k="coa:place_id" v="494284"/></node></osm>