<?xml version="1.0" encoding="UTF-8"?><osm version="0.6" generator="github.com/aaronlidman/osm-and-geojson"><node id="-1" lat="30.34269" lon="-97.749039" changeset="false"><tag k="addr:street" v="Treadwell Boulevard"/><tag k="addr:housenumber" v="6200"/><tag k="addr:postcode" v="78757"/></node><node id="-2" lat="30.336736" lon="-97.750315" changeset="false"><tag k="addr:street" v="Carleen Drive"/><tag k="addr:housenumber" v="5902"/><tag k="addr:postcode" v="78757"/></node><node id="-3" lat="30.34428" lon="-97.747674" changeset="false"><tag k="addr:street" v="Hunt Trail"/><tag k="addr:housenumber" v="3000"/><tag k="addr:postcode" v="78757"/></node><node id="-4" lat="30.346402" lon="-97.749847" changeset="false"><tag k="addr:street" v="Great Northern Boulevard"/><tag k="addr:housenumber" v="6505"/><tag k="addr:postcode" v="78757"/></node><node id="-5" lat="30.348225" lon="-97.746372" changeset="false"><tag k="addr:street" v="Pioneer Place"/><tag k="addr:housenumber" v="6802"/><tag k="addr:postcode" v="78757"/></node><node id="-6" lat="30.350788" lon="-97.747883" changeset="false"><tag k="addr:street" v="Stoneway Drive"/><tag k="addr:housenumber" v="3106"/><tag k="addr:postcode" v="78757"/></node><node id="-7" lat="30.346347" lon="-97.74507" changeset="false"><tag k="addr:street" v="Shoal Creek Boulevard"/><tag k="addr:housenumber" v="6701"/><tag k="addr:postcode" v="78757"/></node><node id="-8" lat="30.351668" lon="-97.747387" changeset="false"><tag k="addr:street" v="Great Northern Boulevard"/><tag k="addr:housenumber" v="7000 1/2"/><tag k="addr:postcode" v="78757"/></node><node id="-9" lat="30.338631" lon="-97.751607" changeset="false"><tag k="addr:street" v="Carleen Drive"/><tag k="addr:housenumber" v="5921"/><tag k="addr:postcode" v="78757"/></node><node id="-10" lat="30.345492" lon="-97.750365" changeset="false"><tag k="addr:street" v="Great Northern Boulevard"/><tag k="addr:housenumber" v="6405"/><tag k="addr:postcode" v="78757"/></node><node id="-11" lat="30.348893" lon="-97.748558" changeset="false"><tag k="addr:street" v="Mohawk Road"/><tag k="addr:housenumber" v="3107"/><tag k="addr:postcode" v="78757"/></node><node id="-12" lat="30.343146" lon="-97.751412" changeset="false"><tag k="addr:street" v="Great Northern Boulevard"/><tag k="addr:housenumber" v="6201"/><tag k="addr:postcode" v="78757"/></node><node id="-13" lat="30.349657" lon="-97.748103" changeset="false"><tag k="addr:street" v="Great Northern Boulevard"/><tag k="addr:housenumber" v="6811"/><tag k="addr:postcode" v="78757"/></node><node id="-14" lat="30.349964" lon="-97.747914" changeset="false"><tag k="addr:street" v="Great Northern Boulevard"/><tag k="addr:housenumber" v="6815"/><tag k="addr:postcode" v="78757"/></node><node id="-15" lat="30.349822" lon="-97.747974" changeset="false"><tag k="addr:street" v="Great Northern Boulevard"/><tag k="addr:housenumber" v="6813"/><tag k="addr:postcode" v="78757"/></node><node id="-16" lat="30.350332" lon="-97.747753" changeset="false"><tag k="addr:street" v="Great Northern Boulevard"/><tag k="addr:housenumber" v="6819"/><tag k="addr:postcode" v="78757"/></node><node id="-17" lat="30.350139" lon="-97.747842" changeset="false"><tag k="addr:street" v="Great Northern Boulevard"/><tag k="addr:housenumber" v="6817"/><tag k="addr:postcode" v="78757"/></node><node id="-18" lat="30.348714" lon="-97.74878" changeset="false"><tag k="addr:street" v="Great Northern Boulevard"/><tag k="addr:housenumber" v="6701"/><tag k="addr:postcode" v="78757"/></node><node id="-19" lat="30.348606" lon="-97.748788" changeset="false"><tag k="addr:street" v="Borden Road"/><tag k="addr:housenumber" v="3106"/><tag k="addr:postcode" v="78757"/></node><node id="-20" lat="30.339955" lon="-97.748621" changeset="false"><tag k="addr:street" v="Bullard Drive"/><tag k="addr:housenumber" v="6100"/><tag k="addr:postcode" v="78757"/></node><node id="-21" lat="30.339863" lon="-97.748739" changeset="false"><tag k="addr:street" v="White Rock Drive"/><tag k="addr:housenumber" v="2900"/><tag k="addr:postcode" v="78757"/></node><node id="-22" lat="30.348153" lon="-97.749062" changeset="false"><tag k="addr:street" v="Great Northern Boulevard"/><tag k="addr:housenumber" v="6611"/><tag k="addr:postcode" v="78757"/></node><node id="-23" lat="30.348243" lon="-97.748968" changeset="false"><tag k="addr:street" v="Borden Road"/><tag k="addr:housenumber" v="3107"/><tag k="addr:postcode" v="78757"/></node><node id="-24" lat="30.347019" lon="-97.749505" changeset="false"><tag k="addr:street" v="Carlisle Drive"/><tag k="addr:housenumber" v="3116"/><tag k="addr:postcode" v="78757"/></node><node id="-25" lat="30.347079" lon="-97.749536" changeset="false"><tag k="addr:street" v="Great Northern Boulevard"/><tag k="addr:housenumber" v="6603"/><tag k="addr:postcode" v="78757"/></node><node id="-26" lat="30.346115" lon="-97.749943" changeset="false"><tag k="addr:street" v="West Terrace Drive"/><tag k="addr:housenumber" v="3114"/><tag k="addr:postcode" v="78757"/></node><node id="-27" lat="30.34622" lon="-97.749925" changeset="false"><tag k="addr:street" v="Great Northern Boulevard"/><tag k="addr:housenumber" v="6501"/><tag k="addr:postcode" v="78757"/></node></osm>