<?xml version="1.0" encoding="UTF-8"?><osm version="0.6" generator="github.com/aaronlidman/osm-and-geojson"><node id="-1" lat="30.501024" lon="-97.781832" changeset="false"><tag k="addr:street" v="Banbridge Trail"/><tag k="addr:housenumber" v="15000"/></node><node id="-2" lat="30.498112" lon="-97.777273" changeset="false"><tag k="addr:street" v="Avery Ranch Boulevard"/><tag k="addr:housenumber" v="14900"/></node><node id="-3" lat="30.497011" lon="-97.782601" changeset="false"><tag k="addr:street" v="Wharton Park Trail"/><tag k="addr:housenumber" v="14521"/></node><node id="-4" lat="30.496174" lon="-97.784146" changeset="false"><tag k="addr:street" v="Quarry Oaks Trail"/><tag k="addr:housenumber" v="10701 1/2"/></node><node id="-5" lat="30.500025" lon="-97.777143" changeset="false"><tag k="addr:street" v="West Parmer Lane"/><tag k="addr:housenumber" v="10625"/></node><node id="-6" lat="30.495814" lon="-97.784577" changeset="false"><tag k="addr:street" v="Avery Ranch Boulevard"/><tag k="addr:housenumber" v="14350"/></node><node id="-7" lat="30.497045" lon="-97.782427" changeset="false"><tag k="addr:street" v="Wharton Park Trail"/><tag k="addr:housenumber" v="14525"/></node><node id="-8" lat="30.49702" lon="-97.783884" changeset="false"><tag k="addr:street" v="Wharton Park Trail"/><tag k="addr:housenumber" v="14416"/></node><node id="-9" lat="30.49743" lon="-97.779209" changeset="false"><tag k="addr:street" v="Avery Ranch Boulevard"/><tag k="addr:housenumber" v="14800"/></node><node id="-10" lat="30.499554" lon="-97.776948" changeset="false"><tag k="addr:street" v="West Parmer Lane"/><tag k="addr:housenumber" v="10621"/></node><node id="-11" lat="30.498419" lon="-97.776689" changeset="false"><tag k="addr:street" v="Avery Ranch Boulevard"/><tag k="addr:housenumber" v="14950"/></node><node id="-12" lat="30.496494" lon="-97.784633" changeset="false"><tag k="addr:street" v="Quarry Oaks Trail"/><tag k="addr:housenumber" v="10717 1/2"/></node><node id="-13" lat="30.496828" lon="-97.785178" changeset="false"><tag k="addr:street" v="Quarry Oaks Trail"/><tag k="addr:housenumber" v="10724"/></node><node id="-14" lat="30.497753" lon="-97.784089" changeset="false"><tag k="addr:street" v="Rathdowney Cove"/><tag k="addr:housenumber" v="10720"/></node><node id="-15" lat="30.497723" lon="-97.783822" changeset="false"><tag k="addr:street" v="Rathdowney Cove"/><tag k="addr:housenumber" v="10721"/></node><node id="-16" lat="30.497815" lon="-97.783449" changeset="false"><tag k="addr:street" v="Templemore Cove"/><tag k="addr:housenumber" v="14505"/></node><node id="-17" lat="30.497091" lon="-97.782239" changeset="false"><tag k="addr:street" v="Wharton Park Trail"/><tag k="addr:housenumber" v="14529"/></node><node id="-18" lat="30.497481" lon="-97.78056" changeset="false"><tag k="addr:street" v="Kilkee Cove"/><tag k="addr:housenumber" v="10709"/></node><node id="-19" lat="30.497327" lon="-97.781899" changeset="false"><tag k="addr:street" v="North Canoa Hills Trail"/><tag k="addr:housenumber" v="10700"/></node><node id="-20" lat="30.495429" lon="-97.785414" changeset="false"><tag k="addr:street" v="Avery Ranch Boulevard"/><tag k="addr:housenumber" v="14300"/></node><node id="-21" lat="30.501916" lon="-97.777202" changeset="false"><tag k="addr:street" v="West Parmer Lane"/><tag k="addr:housenumber" v="10717 1/2"/></node><node id="-22" lat="30.496317" lon="-97.784401" changeset="false"><tag k="addr:street" v="Wharton Park Trail"/><tag k="addr:housenumber" v="14401"/></node><node id="-23" lat="30.501418" lon="-97.783675" changeset="false"><tag k="addr:street" v="Quarry Oaks Trail"/><tag k="addr:housenumber" v="11016"/></node><node id="-24" lat="30.49609" lon="-97.786088" changeset="false"><tag k="addr:street" v="Padbrook Park Cove"/><tag k="addr:housenumber" v="14304"/></node><node id="-25" lat="30.496928" lon="-97.782804" changeset="false"><tag k="addr:street" v="Wharton Park Trail"/><tag k="addr:housenumber" v="14517"/></node><node id="-26" lat="30.495568" lon="-97.786031" changeset="false"><tag k="addr:street" v="Padbrook Park Cove"/><tag k="addr:housenumber" v="14301 1/2"/></node><node id="-27" lat="30.498981" lon="-97.776838" changeset="false"><tag k="addr:street" v="West Parmer Lane"/><tag k="addr:housenumber" v="10615 1/2"/></node><node id="-28" lat="30.501265" lon="-97.783845" changeset="false"><tag k="addr:street" v="Quarry Oaks Trail"/><tag k="addr:housenumber" v="11012"/></node><node id="-29" lat="30.497458" lon="-97.778384" changeset="false"><tag k="addr:street" v="Avery Ranch Boulevard"/><tag k="addr:housenumber" v="14812 1/2"/></node><node id="-30" lat="30.495954" lon="-97.786315" changeset="false"><tag k="addr:street" v="Padbrook Park Cove"/><tag k="addr:housenumber" v="14300"/></node><node id="-31" lat="30.497112" lon="-97.782022" changeset="false"><tag k="addr:street" v="Wharton Park Trail"/><tag k="addr:housenumber" v="14533"/></node><node id="-32" lat="30.497954" lon="-97.781513" changeset="false"><tag k="addr:street" v="Kilkee Cove"/><tag k="addr:housenumber" v="10724"/></node><node id="-33" lat="30.498878" lon="-97.783897" changeset="false"><tag k="addr:street" v="Quarry Oaks Trail"/><tag k="addr:housenumber" v="10829"/></node><node id="-34" lat="30.497142" lon="-97.779892" changeset="false"><tag k="addr:street" v="Avery Ranch Boulevard"/><tag k="addr:housenumber" v="14720"/></node><node id="-35" lat="30.500789" lon="-97.777528" changeset="false"><tag k="addr:street" v="West Parmer Lane"/><tag k="addr:housenumber" v="10705 1/2"/></node><node id="-36" lat="30.498114" lon="-97.776097" changeset="false"><tag k="addr:street" v="Avery Ranch Boulevard"/><tag k="addr:housenumber" v="14950 1/2"/></node></osm>