<?xml version="1.0" encoding="UTF-8"?><osm version="0.6" generator="github.com/aaronlidman/osm-and-geojson"><node id="-1" lat="30.221671" lon="-97.870543" changeset="false"><tag k="addr:street" v="Oliver Loving Trail"/><tag k="addr:housenumber" v="6205"/><tag k="addr:postcode" v="78749"/></node><node id="-2" lat="30.214555" lon="-97.875254" changeset="false"><tag k="addr:street" v="La Naranja Lane"/><tag k="addr:housenumber" v="6216"/><tag k="addr:postcode" v="78749"/></node><node id="-3" lat="30.222568" lon="-97.865898" changeset="false"><tag k="addr:street" v="Cannon Mountain Place"/><tag k="addr:housenumber" v="7406"/><tag k="addr:postcode" v="78749"/></node><node id="-4" lat="30.220279" lon="-97.871802" changeset="false"><tag k="addr:street" v="Richard King Trail"/><tag k="addr:housenumber" v="7903"/><tag k="addr:postcode" v="78749"/></node><node id="-5" lat="30.219019" lon="-97.871505" changeset="false"><tag k="addr:street" v="Henry Kinney Row"/><tag k="addr:housenumber" v="8003"/><tag k="addr:postcode" v="78749"/></node><node id="-6" lat="30.223759" lon="-97.87071" changeset="false"><tag k="addr:street" v="Mifflin Kenedy Terrace"/><tag k="addr:housenumber" v="7606"/><tag k="addr:postcode" v="78749"/></node><node id="-7" lat="30.223606" lon="-97.870898" changeset="false"><tag k="addr:street" v="Mifflin Kenedy Terrace"/><tag k="addr:housenumber" v="7608"/><tag k="addr:postcode" v="78749"/></node><node id="-8" lat="30.220805" lon="-97.873157" changeset="false"><tag k="addr:street" v="Escarpment Boulevard"/><tag k="addr:housenumber" v="7901"/><tag k="addr:postcode" v="78749"/></node><node id="-9" lat="30.224032" lon="-97.870175" changeset="false"><tag k="addr:street" v="Mifflin Kenedy Terrace"/><tag k="addr:housenumber" v="7600"/><tag k="addr:postcode" v="78749"/></node><node id="-10" lat="30.224959" lon="-97.867313" changeset="false"><tag k="addr:street" v="Convict Hill Road"/><tag k="addr:housenumber" v="6115"/><tag k="addr:postcode" v="78749"/></node><node id="-11" lat="30.218018" lon="-97.873358" changeset="false"><tag k="addr:street" v="Richard King Court"/><tag k="addr:housenumber" v="8104"/><tag k="addr:postcode" v="78749"/></node><node id="-12" lat="30.222882" lon="-97.872028" changeset="false"><tag k="addr:street" v="John Chisum Lane"/><tag k="addr:housenumber" v="6313"/><tag k="addr:postcode" v="78749"/></node><node id="-13" lat="30.220284" lon="-97.868477" changeset="false"><tag k="addr:street" v="Abilene Trail"/><tag k="addr:housenumber" v="6014"/><tag k="addr:postcode" v="78749"/></node><node id="-14" lat="30.221315" lon="-97.867488" changeset="false"><tag k="addr:street" v="Open Range Trail"/><tag k="addr:housenumber" v="6021"/><tag k="addr:postcode" v="78749"/></node><node id="-15" lat="30.223579" lon="-97.871469" changeset="false"><tag k="addr:street" v="Oliver Loving Trail"/><tag k="addr:housenumber" v="6314"/><tag k="addr:postcode" v="78749"/></node><node id="-16" lat="30.216414" lon="-97.872763" changeset="false"><tag k="addr:street" v="Blanco River Pass"/><tag k="addr:housenumber" v="6108"/><tag k="addr:postcode" v="78749"/></node><node id="-17" lat="30.22285" lon="-97.866908" changeset="false"><tag k="addr:street" v="Whistlestop Drive"/><tag k="addr:housenumber" v="7505"/><tag k="addr:postcode" v="78749"/></node><node id="-18" lat="30.215016" lon="-97.873854" changeset="false"><tag k="addr:street" v="La Naranja Lane"/><tag k="addr:housenumber" v="6114"/><tag k="addr:postcode" v="78749"/></node><node id="-19" lat="30.224899" lon="-97.868792" changeset="false"><tag k="addr:street" v="Mifflin Kenedy Terrace"/><tag k="addr:housenumber" v="7416"/><tag k="addr:postcode" v="78749"/></node><node id="-20" lat="30.222595" lon="-97.869567" changeset="false"><tag k="addr:street" v="Oliver Loving Trail"/><tag k="addr:housenumber" v="6140"/><tag k="addr:postcode" v="78749"/></node><node id="-21" lat="30.2242" lon="-97.868903" changeset="false"><tag k="addr:street" v="Mifflin Kenedy Court"/><tag k="addr:housenumber" v="6205"/><tag k="addr:postcode" v="78749"/></node><node id="-22" lat="30.222678" lon="-97.867005" changeset="false"><tag k="addr:street" v="Whistlestop Drive"/><tag k="addr:housenumber" v="7507"/><tag k="addr:postcode" v="78749"/></node><node id="-23" lat="30.220426" lon="-97.870434" changeset="false"><tag k="addr:street" v="Oasis Drive"/><tag k="addr:housenumber" v="6100"/><tag k="addr:postcode" v="78749"/></node><node id="-24" lat="30.21991" lon="-97.870236" changeset="false"><tag k="addr:street" v="Oasis Drive"/><tag k="addr:housenumber" v="6101"/><tag k="addr:postcode" v="78749"/></node><node id="-25" lat="30.222934" lon="-97.863317" changeset="false"><tag k="addr:street" v="Cannon Mountain Drive"/><tag k="addr:housenumber" v="5801"/><tag k="addr:postcode" v="78749"/></node><node id="-26" lat="30.223652" lon="-97.868457" changeset="false"><tag k="addr:street" v="John Chisum Lane"/><tag k="addr:housenumber" v="6102"/><tag k="addr:postcode" v="78749"/></node><node id="-27" lat="30.223889" lon="-97.866611" changeset="false"><tag k="addr:street" v="Whistlestop Cove"/><tag k="addr:housenumber" v="6001"/><tag k="addr:postcode" v="78749"/></node><node id="-28" lat="30.222861" lon="-97.865514" changeset="false"><tag k="addr:street" v="Cannon Mountain Place"/><tag k="addr:housenumber" v="7409"/><tag k="addr:postcode" v="78749"/></node><node id="-29" lat="30.224926" lon="-97.867456" changeset="false"><tag k="addr:street" v="Mifflin Kenedy Terrace"/><tag k="addr:housenumber" v="7402"/><tag k="addr:postcode" v="78749"/></node><node id="-30" lat="30.223916" lon="-97.870301" changeset="false"><tag k="addr:street" v="Mifflin Kenedy Terrace"/><tag k="addr:housenumber" v="7602"/><tag k="addr:postcode" v="78749"/></node><node id="-31" lat="30.22247" lon="-97.865892" changeset="false"><tag k="addr:street" v="Cannon Mountain Drive"/><tag k="addr:housenumber" v="5910"/><tag k="addr:postcode" v="78749"/></node><node id="-32" lat="30.221272" lon="-97.867526" changeset="false"><tag k="addr:street" v="Open Range Trail"/><tag k="addr:housenumber" v="6005"/><tag k="addr:postcode" v="78749"/></node><node id="-33" lat="30.220381" lon="-97.868382" changeset="false"><tag k="addr:street" v="Abilene Trail"/><tag k="addr:housenumber" v="6012"/><tag k="addr:postcode" v="78749"/></node><node id="-34" lat="30.215106" lon="-97.872686" changeset="false"><tag k="addr:street" v="Abilene Trail"/><tag k="addr:housenumber" v="6080"/><tag k="addr:postcode" v="78749"/></node><node id="-35" lat="30.215088" lon="-97.87251" changeset="false"><tag k="addr:street" v="Abilene Trail"/><tag k="addr:housenumber" v="6082"/><tag k="addr:postcode" v="78749"/></node></osm>