<?xml version="1.0" encoding="UTF-8"?><osm version="0.6" generator="github.com/aaronlidman/osm-and-geojson"><node id="-1" lat="30.482118" lon="-97.58324" changeset="false"><tag k="addr:street" v="Algreg Street"/><tag k="addr:housenumber" v="20101"/><tag k="coa:place_id" v="87825"/></node><node id="-2" lat="30.474733" lon="-97.572316" changeset="false"><tag k="addr:street" v="Farm Pond Lane"/><tag k="addr:housenumber" v="19908"/><tag k="coa:place_id" v="3105532"/></node><node id="-3" lat="30.480296" lon="-97.583474" changeset="false"><tag k="addr:street" v="Mashburn Street"/><tag k="addr:housenumber" v="20003"/><tag k="coa:place_id" v="87833"/></node><node id="-4" lat="30.47585" lon="-97.572098" changeset="false"><tag k="addr:street" v="Farm Pond Lane"/><tag k="addr:housenumber" v="20008"/><tag k="coa:place_id" v="3105521"/></node><node id="-5" lat="30.478342" lon="-97.581267" changeset="false"><tag k="addr:street" v="Terradyne Drive"/><tag k="addr:housenumber" v="2101"/><tag k="coa:place_id" v="3104017"/></node><node id="-6" lat="30.479091" lon="-97.581082" changeset="false"><tag k="addr:street" v="Bethesda Court"/><tag k="addr:housenumber" v="2103"/><tag k="coa:place_id" v="3104001"/></node><node id="-7" lat="30.481833" lon="-97.58341" changeset="false"><tag k="addr:street" v="Algreg Street"/><tag k="addr:housenumber" v="20017"/><tag k="coa:place_id" v="87824"/></node><node id="-8" lat="30.471365" lon="-97.583478" changeset="false"><tag k="addr:street" v="Hayfield Square"/><tag k="addr:housenumber" v="2210"/><tag k="coa:place_id" v="3103264"/></node><node id="-9" lat="30.482684" lon="-97.581974" changeset="false"><tag k="addr:street" v="Mashburn Street"/><tag k="addr:housenumber" v="20117"/><tag k="coa:place_id" v="87839"/></node><node id="-10" lat="30.467801" lon="-97.584655" changeset="false"><tag k="addr:street" v="Kennemer Drive"/><tag k="addr:housenumber" v="19101"/><tag k="coa:place_id" v="3372592"/></node><node id="-11" lat="30.47812" lon="-97.584119" changeset="false"><tag k="addr:street" v="Copper Point Lane"/><tag k="addr:housenumber" v="1701"/><tag k="coa:place_id" v="3377231"/></node><node id="-12" lat="30.476539" lon="-97.585964" changeset="false"><tag k="addr:street" v="Drifting Meadows Drive"/><tag k="addr:housenumber" v="19617"/><tag k="coa:place_id" v="3377492"/></node><node id="-13" lat="30.478692" lon="-97.585428" changeset="false"><tag k="addr:street" v="Tranquility Lane"/><tag k="addr:housenumber" v="1500"/><tag k="coa:place_id" v="3377186"/></node><node id="-14" lat="30.478425" lon="-97.584985" changeset="false"><tag k="addr:street" v="Tranquility Lane"/><tag k="addr:housenumber" v="1512"/><tag k="coa:place_id" v="3377189"/></node><node id="-15" lat="30.471151" lon="-97.580673" changeset="false"><tag k="addr:street" v="Sea Island Drive"/><tag k="addr:housenumber" v="19205"/><tag k="coa:place_id" v="3287715"/></node><node id="-16" lat="30.475185" lon="-97.583919" changeset="false"><tag k="addr:street" v="Tranquility Lane"/><tag k="addr:housenumber" v="2009"/><tag k="coa:place_id" v="3523660"/></node><node id="-17" lat="30.474913" lon="-97.583847" changeset="false"><tag k="addr:street" v="Tranquility Lane"/><tag k="addr:housenumber" v="2017"/><tag k="coa:place_id" v="3523662"/></node><node id="-18" lat="30.476107" lon="-97.585682" changeset="false"><tag k="addr:street" v="Maiden Grass Drive"/><tag k="addr:housenumber" v="19616"/><tag k="coa:place_id" v="3523675"/></node><node id="-19" lat="30.475569" lon="-97.584806" changeset="false"><tag k="addr:street" v="Maiden Grass Drive"/><tag k="addr:housenumber" v="19717"/><tag k="coa:place_id" v="3523692"/></node><node id="-20" lat="30.474304" lon="-97.584008" changeset="false"><tag k="addr:street" v="Tranquility Lane"/><tag k="addr:housenumber" v="2108"/><tag k="coa:place_id" v="3523701"/></node><node id="-21" lat="30.473916" lon="-97.584129" changeset="false"><tag k="addr:street" v="Tranquility Lane"/><tag k="addr:housenumber" v="2116"/><tag k="coa:place_id" v="3523703"/></node><node id="-22" lat="30.473603" lon="-97.584956" changeset="false"><tag k="addr:street" v="Tranquility Lane"/><tag k="addr:housenumber" v="2212"/><tag k="coa:place_id" v="3523712"/></node><node id="-23" lat="30.469372" lon="-97.586508" changeset="false"><tag k="addr:street" v="Heritage Well Lane"/><tag k="addr:housenumber" v="2106"/><tag k="coa:place_id" v="3103256"/></node><node id="-24" lat="30.482949" lon="-97.582708" changeset="false"><tag k="addr:street" v="Algreg Street"/><tag k="addr:housenumber" v="20113"/><tag k="coa:place_id" v="3174162"/></node><node id="-25" lat="30.468866" lon="-97.585337" changeset="false"><tag k="addr:street" v="Heritage Well Lane"/><tag k="addr:housenumber" v="2210"/><tag k="coa:place_id" v="3103252"/></node><node id="-26" lat="30.473947" lon="-97.581334" changeset="false"><tag k="addr:street" v="Mallard Pond Trail"/><tag k="addr:housenumber" v="19603 1/2"/><tag k="coa:place_id" v="3269293"/></node><node id="-27" lat="30.482534" lon="-97.583876" changeset="false"><tag k="addr:street" v="Algreg Street"/><tag k="addr:housenumber" v="20100"/><tag k="coa:place_id" v="87831"/></node><node id="-28" lat="30.465082" lon="-97.573568" changeset="false"><tag k="addr:street" v="Vilamoura Street"/><tag k="addr:housenumber" v="19320"/><tag k="coa:place_id" v="3317865"/></node><node id="-29" lat="30.476848" lon="-97.586267" changeset="false"><tag k="addr:street" v="Drifting Meadows Drive"/><tag k="addr:housenumber" v="19612"/><tag k="coa:place_id" v="3377278"/></node><node id="-30" lat="30.467115" lon="-97.580204" changeset="false"><tag k="addr:street" v="Ventana Court"/><tag k="addr:housenumber" v="19200"/><tag k="coa:place_id" v="3351440"/></node><node id="-31" lat="30.476401" lon="-97.584344" changeset="false"><tag k="addr:street" v="Tranquility Lane"/><tag k="addr:housenumber" v="1900"/><tag k="coa:place_id" v="3523651"/></node><node id="-32" lat="30.475899" lon="-97.585981" changeset="false"><tag k="addr:street" v="Maiden Grass Drive"/><tag k="addr:housenumber" v="19608"/><tag k="coa:place_id" v="3523673"/></node><node id="-33" lat="30.47616" lon="-97.585527" changeset="false"><tag k="addr:street" v="Maiden Grass Drive"/><tag k="addr:housenumber" v="19620"/><tag k="coa:place_id" v="3523676"/></node><node id="-34" lat="30.475497" lon="-97.584434" changeset="false"><tag k="addr:street" v="Maiden Grass Drive"/><tag k="addr:housenumber" v="19725"/><tag k="coa:place_id" v="3523694"/></node><node id="-35" lat="30.474646" lon="-97.584123" changeset="false"><tag k="addr:street" v="Tranquility Lane"/><tag k="addr:housenumber" v="2100"/><tag k="coa:place_id" v="3523699"/></node><node id="-36" lat="30.473757" lon="-97.584281" changeset="false"><tag k="addr:street" v="Tranquility Lane"/><tag k="addr:housenumber" v="2200"/><tag k="coa:place_id" v="3523709"/></node><node id="-37" lat="30.473628" lon="-97.584717" changeset="false"><tag k="addr:street" v="Tranquility Lane"/><tag k="addr:housenumber" v="2208"/><tag k="coa:place_id" v="3523711"/></node><node id="-38" lat="30.474865" lon="-97.57283" changeset="false"><tag k="addr:street" v="Dornick Hills Lane"/><tag k="addr:housenumber" v="19801"/><tag k="coa:place_id" v="3110959"/></node><node id="-39" lat="30.482019" lon="-97.584167" changeset="false"><tag k="addr:street" v="Algreg Street"/><tag k="addr:housenumber" v="20012"/><tag k="coa:place_id" v="87829"/></node><node id="-40" lat="30.469476" lon="-97.587323" changeset="false"><tag k="addr:street" v="Heritage Well Lane"/><tag k="addr:housenumber" v="2101"/><tag k="coa:place_id" v="3103245"/></node><node id="-41" lat="30.484105" lon="-97.581426" changeset="false"><tag k="addr:street" v="Rowe Lane"/><tag k="addr:housenumber" v="1719"/><tag k="coa:place_id" v="87814"/></node><node id="-42" lat="30.48267" lon="-97.582898" changeset="false"><tag k="addr:street" v="Algreg Street"/><tag k="addr:housenumber" v="20109"/><tag k="coa:place_id" v="87827"/></node><node id="-43" lat="30.484112" lon="-97.580322" changeset="false"><tag k="addr:street" v="Rowe Lane"/><tag k="addr:housenumber" v="1815"/><tag k="coa:place_id" v="1128878"/></node><node id="-44" lat="30.480898" lon="-97.580569" changeset="false"><tag k="addr:street" v="Boca Rio Court"/><tag k="addr:housenumber" v="2103"/><tag k="coa:place_id" v="3103942"/></node><node id="-45" lat="30.482375" lon="-97.582161" changeset="false"><tag k="addr:street" v="Mashburn Street"/><tag k="addr:housenumber" v="20111"/><tag k="coa:place_id" v="87838"/></node><node id="-46" lat="30.467516" lon="-97.579417" changeset="false"><tag k="addr:street" v="Ventana Court"/><tag k="addr:housenumber" v="19213"/><tag k="coa:place_id" v="3351459"/></node><node id="-47" lat="30.475669" lon="-97.586839" changeset="false"><tag k="addr:street" v="Drifting Meadows Drive"/><tag k="addr:housenumber" v="19513"/><tag k="coa:place_id" v="3350603"/></node><node id="-48" lat="30.477072" lon="-97.584988" changeset="false"><tag k="addr:street" v="Drifting Meadows Drive"/><tag k="addr:housenumber" v="19716"/><tag k="coa:place_id" v="3377257"/></node><node id="-49" lat="30.476243" lon="-97.584383" changeset="false"><tag k="addr:street" v="Tranquility Lane"/><tag k="addr:housenumber" v="1904"/><tag k="coa:place_id" v="3523652"/></node><node id="-50" lat="30.475699" lon="-97.585664" changeset="false"><tag k="addr:street" v="Maiden Grass Drive"/><tag k="addr:housenumber" v="19609"/><tag k="coa:place_id" v="3523678"/></node><node id="-51" lat="30.47571" lon="-97.585149" changeset="false"><tag k="addr:street" v="Maiden Grass Drive"/><tag k="addr:housenumber" v="19709"/><tag k="coa:place_id" v="3523690"/></node><node id="-52" lat="30.48416" lon="-97.581876" changeset="false"><tag k="addr:street" v="Rowe Lane"/><tag k="addr:housenumber" v="1715"/><tag k="coa:place_id" v="87812"/></node><node id="-53" lat="30.48176" lon="-97.584372" changeset="false"><tag k="addr:street" v="Algreg Street"/><tag k="addr:housenumber" v="20008"/><tag k="coa:place_id" v="87828"/></node><node id="-54" lat="30.482109" lon="-97.582322" changeset="false"><tag k="addr:street" v="Mashburn Street"/><tag k="addr:housenumber" v="20109"/><tag k="coa:place_id" v="87837"/></node><node id="-55" lat="30.480828" lon="-97.583158" changeset="false"><tag k="addr:street" v="Option Avenue"/><tag k="addr:housenumber" v="1801"/><tag k="coa:place_id" v="87835"/></node><node id="-56" lat="30.483597" lon="-97.581373" changeset="false"><tag k="addr:street" v="Mashburn Street"/><tag k="addr:housenumber" v="20207"/><tag k="coa:place_id" v="87842"/></node><node id="-57" lat="30.482932" lon="-97.581815" changeset="false"><tag k="addr:street" v="Mashburn Street"/><tag k="addr:housenumber" v="20201"/><tag k="coa:place_id" v="87840"/></node><node id="-58" lat="30.474717" lon="-97.581821" changeset="false"><tag k="addr:street" v="Mallard Pond Trail"/><tag k="addr:housenumber" v="19608"/><tag k="coa:place_id" v="3103105"/></node><node id="-59" lat="30.471804" lon="-97.587188" changeset="false"><tag k="addr:street" v="Stage Line Trail"/><tag k="addr:housenumber" v="19303"/><tag k="coa:place_id" v="3114714"/></node><node id="-60" lat="30.468581" lon="-97.579743" changeset="false"><tag k="addr:street" v="Dunes Drive"/><tag k="addr:housenumber" v="2604"/><tag k="coa:place_id" v="3351220"/></node><node id="-61" lat="30.476711" lon="-97.586501" changeset="false"><tag k="addr:street" v="Drifting Meadows Drive"/><tag k="addr:housenumber" v="19608"/><tag k="coa:place_id" v="3377277"/></node><node id="-62" lat="30.476891" lon="-97.58614" changeset="false"><tag k="addr:street" v="Drifting Meadows Drive"/><tag k="addr:housenumber" v="19616"/><tag k="coa:place_id" v="3377279"/></node><node id="-63" lat="30.476176" lon="-97.586398" changeset="false"><tag k="addr:street" v="Drifting Meadows Drive"/><tag k="addr:housenumber" v="19605"/><tag k="coa:place_id" v="3377282"/></node><node id="-64" lat="30.476638" lon="-97.578668" changeset="false"><tag k="addr:street" v="Kennemer Drive"/><tag k="addr:housenumber" v="19807"/><tag k="coa:place_id" v="3351068"/></node><node id="-65" lat="30.475882" lon="-97.583997" changeset="false"><tag k="addr:street" v="Tranquility Lane"/><tag k="addr:housenumber" v="1909"/><tag k="coa:place_id" v="3523656"/></node><node id="-66" lat="30.475556" lon="-97.584011" changeset="false"><tag k="addr:street" v="Tranquility Lane"/><tag k="addr:housenumber" v="2001"/><tag k="coa:place_id" v="3523658"/></node><node id="-67" lat="30.474486" lon="-97.584058" changeset="false"><tag k="addr:street" v="Tranquility Lane"/><tag k="addr:housenumber" v="2104"/><tag k="coa:place_id" v="3523700"/></node><node id="-68" lat="30.474115" lon="-97.584014" changeset="false"><tag k="addr:street" v="Tranquility Lane"/><tag k="addr:housenumber" v="2112"/><tag k="coa:place_id" v="3523702"/></node><node id="-69" lat="30.4737" lon="-97.584467" changeset="false"><tag k="addr:street" v="Tranquility Lane"/><tag k="addr:housenumber" v="2204"/><tag k="coa:place_id" v="3523710"/></node><node id="-70" lat="30.476696" lon="-97.585222" changeset="false"><tag k="addr:street" v="Drifting Meadows Drive"/><tag k="addr:housenumber" v="19713"/><tag k="coa:place_id" v="3377497"/></node><node id="-71" lat="30.478832" lon="-97.584694" changeset="false"><tag k="addr:street" v="Tranquility Lane"/><tag k="addr:housenumber" v="1517"/><tag k="coa:place_id" v="3377197"/></node><node id="-72" lat="30.473183" lon="-97.578637" changeset="false"><tag k="addr:street" v="Amen Corner Road"/><tag k="addr:housenumber" v="2421"/><tag k="coa:place_id" v="3106361"/></node><node id="-73" lat="30.483232" lon="-97.581498" changeset="false"><tag k="addr:street" v="Mashburn Street"/><tag k="addr:housenumber" v="20203"/><tag k="coa:place_id" v="87841"/></node><node id="-74" lat="30.484166" lon="-97.582295" changeset="false"><tag k="addr:street" v="Rowe Lane"/><tag k="addr:housenumber" v="1711"/><tag k="coa:place_id" v="87811"/></node><node id="-75" lat="30.475941" lon="-97.57425" changeset="false"><tag k="addr:street" v="Linville Ridge Lane"/><tag k="addr:housenumber" v="2620"/><tag k="coa:place_id" v="3110941"/></node><node id="-76" lat="30.480828" lon="-97.585856" changeset="false"><tag k="addr:street" v="Dalshank Street"/><tag k="addr:housenumber" v="1701"/><tag k="coa:place_id" v="89511"/></node><node id="-77" lat="30.482403" lon="-97.583051" changeset="false"><tag k="addr:street" v="Algreg Street"/><tag k="addr:housenumber" v="20105"/><tag k="coa:place_id" v="87826"/></node><node id="-78" lat="30.48404" lon="-97.580995" changeset="false"><tag k="addr:street" v="Rowe Lane"/><tag k="addr:housenumber" v="1801"/><tag k="coa:place_id" v="87813"/></node><node id="-79" lat="30.484413" lon="-97.583228" changeset="false"><tag k="addr:street" v="Rowe Lane"/><tag k="addr:housenumber" v="1705"/><tag k="coa:place_id" v="5088976"/></node><node id="-80" lat="30.476416" lon="-97.583798" changeset="false"><tag k="addr:street" v="Tranquility Lane"/><tag k="addr:housenumber" v="1813"/><tag k="coa:place_id" v="3429490"/></node><node id="-81" lat="30.474267" lon="-97.581024" changeset="false"><tag k="addr:street" v="Kennemer Drive"/><tag k="addr:housenumber" v="19606"/><tag k="coa:place_id" v="3372577"/></node><node id="-82" lat="30.478593" lon="-97.585304" changeset="false"><tag k="addr:street" v="Tranquility Lane"/><tag k="addr:housenumber" v="1504"/><tag k="coa:place_id" v="3377187"/></node><node id="-83" lat="30.478988" lon="-97.585181" changeset="false"><tag k="addr:street" v="Tranquility Lane"/><tag k="addr:housenumber" v="1505"/><tag k="coa:place_id" v="3377194"/></node><node id="-84" lat="30.476173" lon="-97.585318" changeset="false"><tag k="addr:street" v="Maiden Grass Drive"/><tag k="addr:housenumber" v="19700"/><tag k="coa:place_id" v="3523685"/></node><node id="-85" lat="30.476146" lon="-97.585101" changeset="false"><tag k="addr:street" v="Maiden Grass Drive"/><tag k="addr:housenumber" v="19704"/><tag k="coa:place_id" v="3523686"/></node><node id="-86" lat="30.476007" lon="-97.584786" changeset="false"><tag k="addr:street" v="Maiden Grass Drive"/><tag k="addr:housenumber" v="19712"/><tag k="coa:place_id" v="3523688"/></node><node id="-87" lat="30.469026" lon="-97.584029" changeset="false"><tag k="addr:street" v="Kennemer Drive"/><tag k="addr:housenumber" v="19205"/><tag k="coa:place_id" v="3372590"/></node><node id="-88" lat="30.476415" lon="-97.586132" changeset="false"><tag k="addr:street" v="Drifting Meadows Drive"/><tag k="addr:housenumber" v="19613"/><tag k="coa:place_id" v="3377491"/></node><node id="-89" lat="30.473497" lon="-97.582087" changeset="false"><tag k="addr:street" v="Mallard Pond Trail"/><tag k="addr:housenumber" v="19500"/><tag k="coa:place_id" v="3372576"/></node><node id="-90" lat="30.478894" lon="-97.585326" changeset="false"><tag k="addr:street" v="Tranquility Lane"/><tag k="addr:housenumber" v="1501"/><tag k="coa:place_id" v="3377193"/></node><node id="-91" lat="30.471352" lon="-97.582721" changeset="false"><tag k="addr:street" v="Kennemer Drive"/><tag k="addr:housenumber" v="19406"/><tag k="coa:place_id" v="3372591"/></node><node id="-92" lat="30.469659" lon="-97.577316" changeset="false"><tag k="addr:street" v="Sea Island Drive"/><tag k="addr:housenumber" v="19420"/><tag k="coa:place_id" v="3291981"/></node><node id="-93" lat="30.477532" lon="-97.583781" changeset="false"><tag k="addr:street" v="Tranquility Lane"/><tag k="addr:housenumber" v="1712"/><tag k="coa:place_id" v="3377224"/></node><node id="-94" lat="30.47663" lon="-97.584836" changeset="false"><tag k="addr:street" v="Drifting Meadows Drive"/><tag k="addr:housenumber" v="19801"/><tag k="coa:place_id" v="3377506"/></node><node id="-95" lat="30.474129" lon="-97.580616" changeset="false"><tag k="addr:street" v="Kennemer Drive"/><tag k="addr:housenumber" v="19605"/><tag k="coa:place_id" v="3348644"/></node><node id="-96" lat="30.476071" lon="-97.584378" changeset="false"><tag k="addr:street" v="Tranquility Lane"/><tag k="addr:housenumber" v="1908"/><tag k="coa:place_id" v="3523653"/></node><node id="-97" lat="30.476045" lon="-97.583987" changeset="false"><tag k="addr:street" v="Tranquility Lane"/><tag k="addr:housenumber" v="1905"/><tag k="coa:place_id" v="3523655"/></node><node id="-98" lat="30.476025" lon="-97.585848" changeset="false"><tag k="addr:street" v="Maiden Grass Drive"/><tag k="addr:housenumber" v="19612"/><tag k="coa:place_id" v="3523674"/></node><node id="-99" lat="30.477485" lon="-97.584353" changeset="false"><tag k="addr:street" v="Copper Point Lane"/><tag k="addr:housenumber" v="1801"/><tag k="coa:place_id" v="3377237"/></node><node id="-100" lat="30.468475" lon="-97.583522" changeset="false"><tag k="addr:street" v="Dunes Drive"/><tag k="addr:housenumber" v="2316"/><tag k="coa:place_id" v="3351095"/></node><node id="-101" lat="30.477438" lon="-97.573478" changeset="false"><tag k="addr:street" v="Dakota Dunes Court"/><tag k="addr:housenumber" v="2428"/><tag k="coa:place_id" v="3324755"/></node><node id="-102" lat="30.476173" lon="-97.583949" changeset="false"><tag k="addr:street" v="Tranquility Lane"/><tag k="addr:housenumber" v="1901"/><tag k="coa:place_id" v="3523654"/></node><node id="-103" lat="30.475741" lon="-97.584011" changeset="false"><tag k="addr:street" v="Tranquility Lane"/><tag k="addr:housenumber" v="1913"/><tag k="coa:place_id" v="3523657"/></node><node id="-104" lat="30.475615" lon="-97.586192" changeset="false"><tag k="addr:street" v="Maiden Grass Drive"/><tag k="addr:housenumber" v="19600"/><tag k="coa:place_id" v="3523671"/></node><node id="-105" lat="30.475467" lon="-97.585879" changeset="false"><tag k="addr:street" v="Maiden Grass Drive"/><tag k="addr:housenumber" v="19601"/><tag k="coa:place_id" v="3523677"/></node><node id="-106" lat="30.476054" lon="-97.584949" changeset="false"><tag k="addr:street" v="Maiden Grass Drive"/><tag k="addr:housenumber" v="19708"/><tag k="coa:place_id" v="3523687"/></node><node id="-107" lat="30.47562" lon="-97.584949" changeset="false"><tag k="addr:street" v="Maiden Grass Drive"/><tag k="addr:housenumber" v="19713"/><tag k="coa:place_id" v="3523691"/></node><node id="-108" lat="30.471454" lon="-97.580297" changeset="false"><tag k="addr:street" v="Sea Island Drive"/><tag k="addr:housenumber" v="19200"/><tag k="coa:place_id" v="3287720"/></node><node id="-109" lat="30.477621" lon="-97.584326" changeset="false"><tag k="addr:street" v="Copper Point Lane"/><tag k="addr:housenumber" v="1713"/><tag k="coa:place_id" v="3377234"/></node><node id="-110" lat="30.476964" lon="-97.584007" changeset="false"><tag k="addr:street" v="Tranquility Lane"/><tag k="addr:housenumber" v="1808"/><tag k="coa:place_id" v="3377227"/></node><node id="-111" lat="30.47606" lon="-97.586502" changeset="false"><tag k="addr:street" v="Drifting Meadows Drive"/><tag k="addr:housenumber" v="19601"/><tag k="coa:place_id" v="3377281"/></node><node id="-112" lat="30.475337" lon="-97.583969" changeset="false"><tag k="addr:street" v="Tranquility Lane"/><tag k="addr:housenumber" v="2005"/><tag k="coa:place_id" v="3523659"/></node><node id="-113" lat="30.475047" lon="-97.583878" changeset="false"><tag k="addr:street" v="Tranquility Lane"/><tag k="addr:housenumber" v="2013"/><tag k="coa:place_id" v="3523661"/></node><node id="-114" lat="30.475755" lon="-97.586074" changeset="false"><tag k="addr:street" v="Maiden Grass Drive"/><tag k="addr:housenumber" v="19604"/><tag k="coa:place_id" v="3523672"/></node><node id="-115" lat="30.475795" lon="-97.585359" changeset="false"><tag k="addr:street" v="Maiden Grass Drive"/><tag k="addr:housenumber" v="19701"/><tag k="coa:place_id" v="3523689"/></node><node id="-116" lat="30.475517" lon="-97.584567" changeset="false"><tag k="addr:street" v="Maiden Grass Drive"/><tag k="addr:housenumber" v="19721"/><tag k="coa:place_id" v="3523693"/></node><node id="-117" lat="30.474748" lon="-97.583777" changeset="false"><tag k="addr:street" v="Tranquility Lane"/><tag k="addr:housenumber" v="2101"/><tag k="coa:place_id" v="3523695"/></node><node id="-118" lat="30.474601" lon="-97.583707" changeset="false"><tag k="addr:street" v="Tranquility Lane"/><tag k="addr:housenumber" v="2105"/><tag k="coa:place_id" v="3523696"/></node><node id="-119" lat="30.475635" lon="-97.575219" changeset="false"><tag k="addr:street" v="Ocotillo Drive"/><tag k="addr:housenumber" v="19816"/><tag k="coa:place_id" v="3350664"/></node><node id="-120" lat="30.476289" lon="-97.58629" changeset="false"><tag k="addr:street" v="Drifting Meadows Drive"/><tag k="addr:housenumber" v="19609"/><tag k="coa:place_id" v="3377490"/></node><node id="-121" lat="30.467565" lon="-97.581805" changeset="false"><tag k="addr:street" v="Ganton Court"/><tag k="addr:housenumber" v="19117"/><tag k="coa:place_id" v="3351243"/></node><node id="-122" lat="30.476674" lon="-97.585041" changeset="false"><tag k="addr:street" v="Drifting Meadows Drive"/><tag k="addr:housenumber" v="19717"/><tag k="coa:place_id" v="3377498"/></node><node id="-123" lat="30.472464" lon="-97.583045" changeset="false"><tag k="addr:street" v="Kennemer Drive"/><tag k="addr:housenumber" v="19426"/><tag k="coa:place_id" v="3351812"/></node><node id="-124" lat="30.477944" lon="-97.583622" changeset="false"><tag k="addr:street" v="Tranquility Lane"/><tag k="addr:housenumber" v="1700"/><tag k="coa:place_id" v="3377221"/></node><node id="-125" lat="30.47714" lon="-97.583939" changeset="false"><tag k="addr:street" v="Tranquility Lane"/><tag k="addr:housenumber" v="1804"/><tag k="coa:place_id" v="3377226"/></node><node id="-126" lat="30.474173" lon="-97.579283" changeset="false"><tag k="addr:street" v="Amen Corner Road"/><tag k="addr:housenumber" v="2400"/><tag k="coa:place_id" v="3106342"/></node><node id="-127" lat="30.481163" lon="-97.585101" changeset="false"><tag k="addr:street" v="Dalshank Street"/><tag k="addr:housenumber" v="1704"/><tag k="coa:place_id" v="87810"/></node><node id="-128" lat="30.48031" lon="-97.584538" changeset="false"><tag k="addr:street" v="Dalshank Street"/><tag k="addr:housenumber" v="1711"/><tag k="coa:place_id" v="87808"/></node><node id="-129" lat="30.468728" lon="-97.585054" changeset="false"><tag k="addr:street" v="Heritage Well Lane"/><tag k="addr:housenumber" v="2212"/><tag k="coa:place_id" v="3103253"/></node><node id="-130" lat="30.472888" lon="-97.581655" changeset="false"><tag k="addr:street" v="Kennemer Drive"/><tag k="addr:housenumber" v="19509"/><tag k="coa:place_id" v="3103106"/></node><node id="-131" lat="30.472264" lon="-97.589177" changeset="false"><tag k="addr:street" v="Sunken Creek Pass"/><tag k="addr:housenumber" v="19207"/><tag k="coa:place_id" v="3114745"/></node><node id="-132" lat="30.478532" lon="-97.581057" changeset="false"><tag k="addr:street" v="Terradyne Drive"/><tag k="addr:housenumber" v="2100"/><tag k="coa:place_id" v="3104010"/></node><node id="-133" lat="30.481846" lon="-97.582496" changeset="false"><tag k="addr:street" v="Mashburn Street"/><tag k="addr:housenumber" v="20105"/><tag k="coa:place_id" v="87836"/></node><node id="-134" lat="30.483077" lon="-97.583544" changeset="false"><tag k="addr:street" v="Algreg Street"/><tag k="addr:housenumber" v="20108"/><tag k="coa:place_id" v="3174142"/></node><node id="-135" lat="30.46637" lon="-97.581813" changeset="false"><tag k="addr:street" v="Kelly Lane"/><tag k="addr:housenumber" v="2512"/><tag k="coa:place_id" v="1136205"/></node><node id="-136" lat="30.463654" lon="-97.574459" changeset="false"><tag k="addr:street" v="Kelly Lane"/><tag k="addr:housenumber" v="3018"/><tag k="coa:place_id" v="1146792"/></node><node id="-137" lat="30.480592" lon="-97.58518" changeset="false"><tag k="addr:street" v="Dalshank Street"/><tag k="addr:housenumber" v="1707"/><tag k="coa:place_id" v="87807"/></node><node id="-138" lat="30.482799" lon="-97.580197" changeset="false"><tag k="addr:street" v="Bellerive Drive"/><tag k="addr:housenumber" v="20223"/><tag k="coa:place_id" v="3104046"/></node><node id="-139" lat="30.476661" lon="-97.571075" changeset="false"><tag k="addr:street" v="Farm Pond Lane"/><tag k="addr:housenumber" v="20100"/><tag k="coa:place_id" v="3105518"/></node><node id="-140" lat="30.479933" lon="-97.583657" changeset="false"><tag k="addr:street" v="Mashburn Street"/><tag k="addr:housenumber" v="20001"/><tag k="coa:place_id" v="87805"/></node><node id="-141" lat="30.480678" lon="-97.585514" changeset="false"><tag k="addr:street" v="Dalshank Street"/><tag k="addr:housenumber" v="1703"/><tag k="coa:place_id" v="87806"/></node><node id="-142" lat="30.465522" lon="-97.579954" changeset="false"><tag k="addr:street" v="Kelly Lane"/><tag k="addr:housenumber" v="2700"/><tag k="coa:place_id" v="1146787"/></node><node id="-143" lat="30.470145" lon="-97.574757" changeset="false"><tag k="addr:street" v="Sea Island Drive"/><tag k="addr:housenumber" v="19604"/><tag k="coa:place_id" v="3287726"/></node><node id="-144" lat="30.471378" lon="-97.580707" changeset="false"><tag k="addr:street" v="Sea Island Drive"/><tag k="addr:housenumber" v="19201"/><tag k="coa:place_id" v="3291925"/></node><node id="-145" lat="30.483551" lon="-97.582392" changeset="false"><tag k="addr:street" v="Sullivan Street"/><tag k="addr:housenumber" v="1710"/><tag k="coa:place_id" v="87815"/></node><node id="-146" lat="30.480965" lon="-97.583959" changeset="false"><tag k="addr:street" v="Algreg Street"/><tag k="addr:housenumber" v="20005"/><tag k="coa:place_id" v="87821"/></node><node id="-147" lat="30.480749" lon="-97.584092" changeset="false"><tag k="addr:street" v="Algreg Street"/><tag k="addr:housenumber" v="20001"/><tag k="coa:place_id" v="3387652"/></node></osm>