<?xml version="1.0" encoding="UTF-8"?><osm version="0.6" generator="github.com/aaronlidman/osm-and-geojson"><node id="-1" lat="30.244268" lon="-97.887956" changeset="false"><tag k="addr:street" v="Pax Drive"/><tag k="addr:housenumber" v="8203"/><tag k="coa:place_id" v="524619"/></node><node id="-2" lat="30.235748" lon="-97.891438" changeset="false"><tag k="addr:street" v="Callbram Lane"/><tag k="addr:housenumber" v="7406"/><tag k="coa:place_id" v="77501"/></node><node id="-3" lat="30.235341" lon="-97.881504" changeset="false"><tag k="addr:street" v="Oak Meadow Drive"/><tag k="addr:housenumber" v="7404"/><tag k="coa:place_id" v="914648"/></node><node id="-4" lat="30.235106" lon="-97.894672" changeset="false"><tag k="addr:street" v="Landsman Drive"/><tag k="addr:housenumber" v="8104"/><tag k="coa:place_id" v="77533"/></node><node id="-5" lat="30.233754" lon="-97.891883" changeset="false"><tag k="addr:street" v="Callbram Lane"/><tag k="addr:housenumber" v="7605"/><tag k="coa:place_id" v="77476"/></node><node id="-6" lat="30.230894" lon="-97.894307" changeset="false"><tag k="addr:street" v="Rosson Drive"/><tag k="addr:housenumber" v="8107"/><tag k="coa:place_id" v="872168"/></node><node id="-7" lat="30.236943" lon="-97.879013" changeset="false"><tag k="addr:street" v="Scenic Brook Drive"/><tag k="addr:housenumber" v="6904"/><tag k="coa:place_id" v="913382"/></node><node id="-8" lat="30.235053" lon="-97.891762" changeset="false"><tag k="addr:street" v="Callbram Lane"/><tag k="addr:housenumber" v="7504"/><tag k="coa:place_id" v="77504"/></node><node id="-9" lat="30.234388" lon="-97.895" changeset="false"><tag k="addr:street" v="Landsman Drive"/><tag k="addr:housenumber" v="8103"/><tag k="coa:place_id" v="77550"/></node><node id="-10" lat="30.233462" lon="-97.89762" changeset="false"><tag k="addr:street" v="Thunderbird Road"/><tag k="addr:housenumber" v="8234"/><tag k="coa:place_id" v="872216"/></node><node id="-11" lat="30.232471" lon="-97.899909" changeset="false"><tag k="addr:street" v="Haskel Drive"/><tag k="addr:housenumber" v="8319"/><tag k="coa:place_id" v="130762"/></node><node id="-12" lat="30.23658" lon="-97.887604" changeset="false"><tag k="addr:street" v="South Brook Drive"/><tag k="addr:housenumber" v="7213"/><tag k="coa:place_id" v="914804"/></node><node id="-13" lat="30.236346" lon="-97.884354" changeset="false"><tag k="addr:street" v="Scenic Brook Drive"/><tag k="addr:housenumber" v="7109 1/2"/><tag k="coa:place_id" v="3046861"/></node><node id="-14" lat="30.23615" lon="-97.882756" changeset="false"><tag k="addr:street" v="Whispering Creek Court"/><tag k="addr:housenumber" v="7108"/><tag k="coa:place_id" v="108217"/></node><node id="-15" lat="30.234404" lon="-97.895533" changeset="false"><tag k="addr:street" v="Landsman Drive"/><tag k="addr:housenumber" v="8109"/><tag k="coa:place_id" v="77549"/></node><node id="-16" lat="30.237383" lon="-97.892254" changeset="false"><tag k="addr:street" v="Kirkham Drive"/><tag k="addr:housenumber" v="8103"/><tag k="coa:place_id" v="418768"/></node><node id="-17" lat="30.236022" lon="-97.879468" changeset="false"><tag k="addr:street" v="Whispering Creek Circle"/><tag k="addr:housenumber" v="7304 1/2"/><tag k="coa:place_id" v="3046863"/></node><node id="-18" lat="30.232389" lon="-97.897889" changeset="false"><tag k="addr:street" v="Boling Drive"/><tag k="addr:housenumber" v="8214"/><tag k="coa:place_id" v="1138140"/></node><node id="-19" lat="30.232375" lon="-97.89858" changeset="false"><tag k="addr:street" v="Boling Drive"/><tag k="addr:housenumber" v="8216"/><tag k="coa:place_id" v="1138141"/></node><node id="-20" lat="30.235954" lon="-97.891275" changeset="false"><tag k="addr:street" v="Callbram Lane"/><tag k="addr:housenumber" v="7404"/><tag k="coa:place_id" v="77500"/></node><node id="-21" lat="30.232599" lon="-97.898383" changeset="false"><tag k="addr:street" v="Boling Drive"/><tag k="addr:housenumber" v="8215"/><tag k="coa:place_id" v="1138139"/></node><node id="-22" lat="30.233064" lon="-97.893021" changeset="false"><tag k="addr:street" v="Callbram Lane"/><tag k="addr:housenumber" v="7800"/><tag k="coa:place_id" v="77480"/></node><node id="-23" lat="30.233036" lon="-97.899995" changeset="false"><tag k="addr:street" v="Haskel Drive"/><tag k="addr:housenumber" v="8402"/><tag k="coa:place_id" v="3388822"/></node><node id="-24" lat="30.233894" lon="-97.898499" changeset="false"><tag k="addr:street" v="Thunderbird Road"/><tag k="addr:housenumber" v="8304"/><tag k="coa:place_id" v="1138135"/></node><node id="-25" lat="30.245154" lon="-97.889646" changeset="false"><tag k="addr:street" v="Silvermine Drive"/><tag k="addr:housenumber" v="6717"/><tag k="coa:place_id" v="912458"/></node><node id="-26" lat="30.23677" lon="-97.878647" changeset="false"><tag k="addr:street" v="Scenic Brook Drive"/><tag k="addr:housenumber" v="6907"/><tag k="coa:place_id" v="493551"/></node><node id="-27" lat="30.236378" lon="-97.887427" changeset="false"><tag k="addr:street" v="South Brook Drive"/><tag k="addr:housenumber" v="7211"/><tag k="coa:place_id" v="914798"/></node><node id="-28" lat="30.238501" lon="-97.890124" changeset="false"><tag k="addr:street" v="Scenic Brook Drive"/><tag k="addr:housenumber" v="7219"/><tag k="coa:place_id" v="912872"/></node><node id="-29" lat="30.235169" lon="-97.892348" changeset="false"><tag k="addr:street" v="Flintstone Cove"/><tag k="addr:housenumber" v="7906"/><tag k="coa:place_id" v="77519"/></node><node id="-30" lat="30.234251" lon="-97.893267" changeset="false"><tag k="addr:street" v="Landsman Drive"/><tag k="addr:housenumber" v="8008"/><tag k="coa:place_id" v="77527"/></node><node id="-31" lat="30.232844" lon="-97.896178" changeset="false"><tag k="addr:street" v="Acton Drive"/><tag k="addr:housenumber" v="8101"/><tag k="coa:place_id" v="872240"/></node><node id="-32" lat="30.240741" lon="-97.888625" changeset="false"><tag k="addr:street" v="Pinto Cove"/><tag k="addr:housenumber" v="7001"/><tag k="coa:place_id" v="524781"/></node><node id="-33" lat="30.233046" lon="-97.895571" changeset="false"><tag k="addr:street" v="Acton Drive"/><tag k="addr:housenumber" v="8028"/><tag k="coa:place_id" v="872222"/></node><node id="-34" lat="30.234745" lon="-97.894232" changeset="false"><tag k="addr:street" v="Landsman Drive"/><tag k="addr:housenumber" v="8100"/><tag k="coa:place_id" v="77531"/></node><node id="-35" lat="30.233442" lon="-97.894691" changeset="false"><tag k="addr:street" v="Callbram Lane"/><tag k="addr:housenumber" v="7813"/><tag k="coa:place_id" v="77489"/></node><node id="-36" lat="30.232767" lon="-97.897655" changeset="false"><tag k="addr:street" v="Boling Drive"/><tag k="addr:housenumber" v="8224"/><tag k="coa:place_id" v="872204"/></node><node id="-37" lat="30.234194" lon="-97.896221" changeset="false"><tag k="addr:street" v="Landsman Drive"/><tag k="addr:housenumber" v="8203"/><tag k="coa:place_id" v="77547"/></node><node id="-38" lat="30.234132" lon="-97.893071" changeset="false"><tag k="addr:street" v="Landsman Drive"/><tag k="addr:housenumber" v="8006"/><tag k="coa:place_id" v="77526"/></node><node id="-39" lat="30.233986" lon="-97.892812" changeset="false"><tag k="addr:street" v="Landsman Drive"/><tag k="addr:housenumber" v="8004"/><tag k="coa:place_id" v="77525"/></node><node id="-40" lat="30.234859" lon="-97.897747" changeset="false"><tag k="addr:street" v="Landsman Drive"/><tag k="addr:housenumber" v="8301"/><tag k="coa:place_id" v="77542"/></node><node id="-41" lat="30.232902" lon="-97.901008" changeset="false"><tag k="addr:street" v="Haskel Drive"/><tag k="addr:housenumber" v="8415"/><tag k="coa:place_id" v="3039540"/></node><node id="-42" lat="30.233588" lon="-97.893963" changeset="false"><tag k="addr:street" v="Callbram Lane"/><tag k="addr:housenumber" v="7810"/><tag k="coa:place_id" v="77493"/></node><node id="-43" lat="30.231646" lon="-97.894708" changeset="false"><tag k="addr:street" v="Acton Drive"/><tag k="addr:housenumber" v="8001"/><tag k="coa:place_id" v="872246"/></node><node id="-44" lat="30.236974" lon="-97.878937" changeset="false"><tag k="addr:street" v="Scenic Brook Drive"/><tag k="addr:housenumber" v="6902"/><tag k="coa:place_id" v="913388"/></node><node id="-45" lat="30.234647" lon="-97.891374" changeset="false"><tag k="addr:street" v="Callbram Lane"/><tag k="addr:housenumber" v="7507"/><tag k="coa:place_id" v="77514"/></node><node id="-46" lat="30.239361" lon="-97.881304" changeset="false"><tag k="addr:street" v="Hill Meadow Circle"/><tag k="addr:housenumber" v="7502"/><tag k="coa:place_id" v="997376"/></node><node id="-47" lat="30.232371" lon="-97.893766" changeset="false"><tag k="addr:street" v="Rosson Drive"/><tag k="addr:housenumber" v="7909"/><tag k="coa:place_id" v="872192"/></node><node id="-48" lat="30.243136" lon="-97.890807" changeset="false"><tag k="addr:street" v="Silvermine Drive"/><tag k="addr:housenumber" v="6905"/><tag k="coa:place_id" v="264285"/></node><node id="-49" lat="30.244106" lon="-97.888993" changeset="false"><tag k="addr:street" v="Raccoon Run"/><tag k="addr:housenumber" v="6837"/><tag k="coa:place_id" v="89692"/></node><node id="-50" lat="30.235525" lon="-97.891592" changeset="false"><tag k="addr:street" v="Callbram Lane"/><tag k="addr:housenumber" v="7500"/><tag k="coa:place_id" v="77502"/></node><node id="-51" lat="30.242087" lon="-97.88998" changeset="false"><tag k="addr:street" v="Mescalero Drive"/><tag k="addr:housenumber" v="8105"/><tag k="coa:place_id" v="168879"/></node><node id="-52" lat="30.23438" lon="-97.891508" changeset="false"><tag k="addr:street" v="Callbram Lane"/><tag k="addr:housenumber" v="7509"/><tag k="coa:place_id" v="77515"/></node><node id="-53" lat="30.236774" lon="-97.890423" changeset="false"><tag k="addr:street" v="Callbram Lane"/><tag k="addr:housenumber" v="7304"/><tag k="coa:place_id" v="77497"/></node><node id="-54" lat="30.233299" lon="-97.898291" changeset="false"><tag k="addr:street" v="Thunderbird Road"/><tag k="addr:housenumber" v="8237"/><tag k="coa:place_id" v="1138137"/></node><node id="-55" lat="30.233818" lon="-97.899926" changeset="false"><tag k="addr:street" v="Thunderbird Road"/><tag k="addr:housenumber" v="8409"/><tag k="coa:place_id" v="3039541"/></node><node id="-56" lat="30.236815" lon="-97.890153" changeset="false"><tag k="addr:street" v="Callbram Lane"/><tag k="addr:housenumber" v="7302"/><tag k="coa:place_id" v="77496"/></node><node id="-57" lat="30.232576" lon="-97.894406" changeset="false"><tag k="addr:street" v="Rosson Drive"/><tag k="addr:housenumber" v="7904"/><tag k="coa:place_id" v="872186"/></node><node id="-58" lat="30.231304" lon="-97.89332" changeset="false"><tag k="addr:street" v="Hudson Loop"/><tag k="addr:housenumber" v="7900"/><tag k="coa:place_id" v="872156"/></node><node id="-59" lat="30.236947" lon="-97.879092" changeset="false"><tag k="addr:street" v="Scenic Brook Drive"/><tag k="addr:housenumber" v="6906"/><tag k="coa:place_id" v="913394"/></node><node id="-60" lat="30.232222" lon="-97.899396" changeset="false"><tag k="addr:street" v="Haskel Drive"/><tag k="addr:housenumber" v="8311"/><tag k="coa:place_id" v="872264"/></node><node id="-61" lat="30.238292" lon="-97.889576" changeset="false"><tag k="addr:street" v="Scenic Brook Drive"/><tag k="addr:housenumber" v="7217"/><tag k="coa:place_id" v="480537"/></node><node id="-62" lat="30.234857" lon="-97.891276" changeset="false"><tag k="addr:street" v="Callbram Lane"/><tag k="addr:housenumber" v="7505"/><tag k="coa:place_id" v="77513"/></node><node id="-63" lat="30.235605" lon="-97.890721" changeset="false"><tag k="addr:street" v="Callbram Lane"/><tag k="addr:housenumber" v="7403"/><tag k="coa:place_id" v="77509"/></node><node id="-64" lat="30.23513" lon="-97.896233" changeset="false"><tag k="addr:street" v="Landsman Drive"/><tag k="addr:housenumber" v="8202"/><tag k="coa:place_id" v="77538"/></node><node id="-65" lat="30.235278" lon="-97.891718" changeset="false"><tag k="addr:street" v="Callbram Lane"/><tag k="addr:housenumber" v="7502"/><tag k="coa:place_id" v="77503"/></node><node id="-66" lat="30.235262" lon="-97.892661" changeset="false"><tag k="addr:street" v="Flintstone Cove"/><tag k="addr:housenumber" v="7908"/><tag k="coa:place_id" v="77520"/></node><node id="-67" lat="30.241386" lon="-97.888682" changeset="false"><tag k="addr:street" v="Little Deer Crossing"/><tag k="addr:housenumber" v="8011"/><tag k="coa:place_id" v="524817"/></node><node id="-68" lat="30.235713" lon="-97.881771" changeset="false"><tag k="addr:street" v="Oak Meadow Drive"/><tag k="addr:housenumber" v="7408 1/2"/><tag k="coa:place_id" v="3046862"/></node><node id="-69" lat="30.235152" lon="-97.895238" changeset="false"><tag k="addr:street" v="Landsman Drive"/><tag k="addr:housenumber" v="8108"/><tag k="coa:place_id" v="77535"/></node><node id="-70" lat="30.234174" lon="-97.891658" changeset="false"><tag k="addr:street" v="Callbram Lane"/><tag k="addr:housenumber" v="7601"/><tag k="coa:place_id" v="77516"/></node><node id="-71" lat="30.23281" lon="-97.893263" changeset="false"><tag k="addr:street" v="Callbram Lane"/><tag k="addr:housenumber" v="7801"/><tag k="coa:place_id" v="77481"/></node><node id="-72" lat="30.233393" lon="-97.895851" changeset="false"><tag k="addr:street" v="Acton Drive"/><tag k="addr:housenumber" v="8029"/><tag k="coa:place_id" v="3052981"/></node><node id="-73" lat="30.232856" lon="-97.899594" changeset="false"><tag k="addr:street" v="Haskel Drive"/><tag k="addr:housenumber" v="8316"/><tag k="coa:place_id" v="3388820"/></node><node id="-74" lat="30.23402" lon="-97.892424" changeset="false"><tag k="addr:street" v="Callbram Lane"/><tag k="addr:housenumber" v="7604"/><tag k="coa:place_id" v="77475"/></node><node id="-75" lat="30.237328" lon="-97.893399" changeset="false"><tag k="addr:street" v="Scenic Brook Drive"/><tag k="addr:housenumber" v="7401"/><tag k="coa:place_id" v="537208"/></node><node id="-76" lat="30.231467" lon="-97.8938" changeset="false"><tag k="addr:street" v="Hudson Loop"/><tag k="addr:housenumber" v="7906"/><tag k="coa:place_id" v="665517"/></node><node id="-77" lat="30.233713" lon="-97.894927" changeset="false"><tag k="addr:street" v="Callbram Lane"/><tag k="addr:housenumber" v="7815"/><tag k="coa:place_id" v="77490"/></node><node id="-78" lat="30.232587" lon="-97.900279" changeset="false"><tag k="addr:street" v="Haskel Drive"/><tag k="addr:housenumber" v="8403"/><tag k="coa:place_id" v="3388823"/></node><node id="-79" lat="30.233492" lon="-97.89902" changeset="false"><tag k="addr:street" v="Thunderbird Road"/><tag k="addr:housenumber" v="8309"/><tag k="coa:place_id" v="3388855"/></node><node id="-80" lat="30.232561" lon="-97.898901" changeset="false"><tag k="addr:street" v="Haskel Drive"/><tag k="addr:housenumber" v="8308"/><tag k="coa:place_id" v="3388818"/></node><node id="-81" lat="30.232698" lon="-97.89304" changeset="false"><tag k="addr:street" v="Callbram Lane"/><tag k="addr:housenumber" v="7707"/><tag k="coa:place_id" v="77479"/></node><node id="-82" lat="30.232702" lon="-97.899229" changeset="false"><tag k="addr:street" v="Haskel Drive"/><tag k="addr:housenumber" v="8312"/><tag k="coa:place_id" v="3388819"/></node><node id="-83" lat="30.236151" lon="-97.879953" changeset="false"><tag k="addr:street" v="Whispering Creek Drive"/><tag k="addr:housenumber" v="7000"/><tag k="coa:place_id" v="913550"/></node><node id="-84" lat="30.233476" lon="-97.893711" changeset="false"><tag k="addr:street" v="Callbram Lane"/><tag k="addr:housenumber" v="7808"/><tag k="coa:place_id" v="77492"/></node><node id="-85" lat="30.232728" lon="-97.892606" changeset="false"><tag k="addr:street" v="Callbram Lane"/><tag k="addr:housenumber" v="7705"/><tag k="coa:place_id" v="77478"/></node><node id="-86" lat="30.234728" lon="-97.879926" changeset="false"><tag k="addr:street" v="Oak Meadow Circle"/><tag k="addr:housenumber" v="7005"/><tag k="coa:place_id" v="240135"/></node><node id="-87" lat="30.236779" lon="-97.889848" changeset="false"><tag k="addr:street" v="Callbram Lane"/><tag k="addr:housenumber" v="7300"/><tag k="coa:place_id" v="77495"/></node><node id="-88" lat="30.238533" lon="-97.890673" changeset="false"><tag k="addr:street" v="Scenic Brook Drive"/><tag k="addr:housenumber" v="7223"/><tag k="coa:place_id" v="912866"/></node><node id="-89" lat="30.241847" lon="-97.891457" changeset="false"><tag k="addr:street" v="Silvermine Drive"/><tag k="addr:housenumber" v="7101"/><tag k="coa:place_id" v="780315"/></node><node id="-90" lat="30.241462" lon="-97.891148" changeset="false"><tag k="addr:street" v="Silvermine Drive"/><tag k="addr:housenumber" v="7107"/><tag k="coa:place_id" v="783189"/></node><node id="-91" lat="30.234438" lon="-97.893829" changeset="false"><tag k="addr:street" v="Landsman Drive"/><tag k="addr:housenumber" v="8012"/><tag k="coa:place_id" v="77529"/></node><node id="-92" lat="30.234059" lon="-97.900407" changeset="false"><tag k="addr:street" v="Scenic Brook Drive"/><tag k="addr:housenumber" v="8003"/><tag k="coa:place_id" v="1138134"/></node><node id="-93" lat="30.233399" lon="-97.89865" changeset="false"><tag k="addr:street" v="Thunderbird Road"/><tag k="addr:housenumber" v="8303"/><tag k="coa:place_id" v="1138136"/></node><node id="-94" lat="30.237307" lon="-97.891876" changeset="false"><tag k="addr:street" v="Kirkham Drive"/><tag k="addr:housenumber" v="8100"/><tag k="coa:place_id" v="149860"/></node><node id="-95" lat="30.241222" lon="-97.888175" changeset="false"><tag k="addr:street" v="Little Deer Crossing"/><tag k="addr:housenumber" v="8009"/><tag k="coa:place_id" v="524811"/></node><node id="-96" lat="30.233998" lon="-97.894876" changeset="false"><tag k="addr:street" v="Callbram Lane"/><tag k="addr:housenumber" v="7817"/><tag k="coa:place_id" v="77491"/></node><node id="-97" lat="30.233201" lon="-97.897353" changeset="false"><tag k="addr:street" v="Boling Drive"/><tag k="addr:housenumber" v="8230"/><tag k="coa:place_id" v="872210"/></node><node id="-98" lat="30.235445" lon="-97.890834" changeset="false"><tag k="addr:street" v="Callbram Lane"/><tag k="addr:housenumber" v="7405"/><tag k="coa:place_id" v="77510"/></node><node id="-99" lat="30.235112" lon="-97.892975" changeset="false"><tag k="addr:street" v="Flintstone Cove"/><tag k="addr:housenumber" v="7910"/><tag k="coa:place_id" v="77521"/></node><node id="-100" lat="30.235144" lon="-97.894958" changeset="false"><tag k="addr:street" v="Landsman Drive"/><tag k="addr:housenumber" v="8106"/><tag k="coa:place_id" v="77534"/></node><node id="-101" lat="30.235139" lon="-97.895683" changeset="false"><tag k="addr:street" v="Landsman Drive"/><tag k="addr:housenumber" v="8112"/><tag k="coa:place_id" v="77536"/></node><node id="-102" lat="30.235038" lon="-97.891134" changeset="false"><tag k="addr:street" v="Callbram Lane"/><tag k="addr:housenumber" v="7503"/><tag k="coa:place_id" v="77512"/></node><node id="-103" lat="30.23506" lon="-97.896881" changeset="false"><tag k="addr:street" v="Landsman Drive"/><tag k="addr:housenumber" v="8206"/><tag k="coa:place_id" v="77540"/></node><node id="-104" lat="30.234341" lon="-97.896721" changeset="false"><tag k="addr:street" v="Landsman Drive"/><tag k="addr:housenumber" v="8207"/><tag k="coa:place_id" v="77545"/></node><node id="-105" lat="30.231963" lon="-97.898346" changeset="false"><tag k="addr:street" v="Boling Drive"/><tag k="addr:housenumber" v="8204"/><tag k="coa:place_id" v="1138142"/></node><node id="-106" lat="30.243114" lon="-97.89012" changeset="false"><tag k="addr:street" v="Raccoon Run"/><tag k="addr:housenumber" v="6904"/><tag k="coa:place_id" v="524721"/></node><node id="-107" lat="30.235324" lon="-97.886106" changeset="false"><tag k="addr:street" v="Timberwood Street"/><tag k="addr:housenumber" v="7120 1/2"/><tag k="coa:place_id" v="3046860"/></node><node id="-108" lat="30.242368" lon="-97.890287" changeset="false"><tag k="addr:street" v="Mescalero Drive"/><tag k="addr:housenumber" v="8205"/><tag k="coa:place_id" v="524751"/></node><node id="-109" lat="30.238642" lon="-97.888857" changeset="false"><tag k="addr:street" v="Dunkirk Drive"/><tag k="addr:housenumber" v="7111 1/2"/><tag k="coa:place_id" v="3046864"/></node><node id="-110" lat="30.235016" lon="-97.892139" changeset="false"><tag k="addr:street" v="Flintstone Cove"/><tag k="addr:housenumber" v="7904"/><tag k="coa:place_id" v="77518"/></node><node id="-111" lat="30.243107" lon="-97.885912" changeset="false"><tag k="addr:street" v="Chinook Drive"/><tag k="addr:housenumber" v="6931"/><tag k="coa:place_id" v="524553"/></node><node id="-112" lat="30.235097" lon="-97.896533" changeset="false"><tag k="addr:street" v="Landsman Drive"/><tag k="addr:housenumber" v="8204"/><tag k="coa:place_id" v="77539"/></node><node id="-113" lat="30.233485" lon="-97.89307" changeset="false"><tag k="addr:street" v="Landsman Drive"/><tag k="addr:housenumber" v="8003"/><tag k="coa:place_id" v="125190"/></node><node id="-114" lat="30.234406" lon="-97.897066" changeset="false"><tag k="addr:street" v="Landsman Drive"/><tag k="addr:housenumber" v="8209"/><tag k="coa:place_id" v="77544"/></node><node id="-115" lat="30.238519" lon="-97.890372" changeset="false"><tag k="addr:street" v="Scenic Brook Drive"/><tag k="addr:housenumber" v="7221"/><tag k="coa:place_id" v="952922"/></node><node id="-116" lat="30.23606" lon="-97.890479" changeset="false"><tag k="addr:street" v="Callbram Lane"/><tag k="addr:housenumber" v="7305"/><tag k="coa:place_id" v="77507"/></node><node id="-117" lat="30.235155" lon="-97.895986" changeset="false"><tag k="addr:street" v="Landsman Drive"/><tag k="addr:housenumber" v="8200"/><tag k="coa:place_id" v="77537"/></node><node id="-118" lat="30.23496" lon="-97.894385" changeset="false"><tag k="addr:street" v="Landsman Drive"/><tag k="addr:housenumber" v="8102"/><tag k="coa:place_id" v="77532"/></node><node id="-119" lat="30.234311" lon="-97.89355" changeset="false"><tag k="addr:street" v="Landsman Drive"/><tag k="addr:housenumber" v="8010"/><tag k="coa:place_id" v="77528"/></node><node id="-120" lat="30.244047" lon="-97.886316" changeset="false"><tag k="addr:street" v="Chinook Drive"/><tag k="addr:housenumber" v="6925"/><tag k="coa:place_id" v="524571"/></node><node id="-121" lat="30.236238" lon="-97.890169" changeset="false"><tag k="addr:street" v="Callbram Lane"/><tag k="addr:housenumber" v="7303"/><tag k="coa:place_id" v="77506"/></node><node id="-122" lat="30.233644" lon="-97.900577" changeset="false"><tag k="addr:street" v="Scenic Brook Drive"/><tag k="addr:housenumber" v="8007"/><tag k="coa:place_id" v="3148503"/></node><node id="-123" lat="30.238536" lon="-97.887232" changeset="false"><tag k="addr:street" v="Harvest Trail Drive"/><tag k="addr:housenumber" v="7111"/><tag k="coa:place_id" v="914498"/></node><node id="-124" lat="30.238619" lon="-97.887255" changeset="false"><tag k="addr:street" v="Harvest Trail Drive"/><tag k="addr:housenumber" v="7109"/><tag k="coa:place_id" v="914492"/></node></osm>