<?xml version="1.0" encoding="UTF-8"?><osm version="0.6" generator="github.com/aaronlidman/osm-and-geojson"><node id="-1" lat="30.368794" lon="-97.697679" changeset="false"><tag k="addr:street" v="East Village Lane"/><tag k="addr:housenumber" v="913"/><tag k="addr:postcode" v="78758"/></node><node id="-2" lat="30.367679" lon="-97.698183" changeset="false"><tag k="addr:street" v="Covy Ridge Lane"/><tag k="addr:housenumber" v="9603"/><tag k="addr:postcode" v="78758"/></node><node id="-3" lat="30.366978" lon="-97.699011" changeset="false"><tag k="addr:street" v="Park Village Drive"/><tag k="addr:housenumber" v="9506"/><tag k="addr:postcode" v="78758"/></node><node id="-4" lat="30.369154" lon="-97.698063" changeset="false"><tag k="addr:street" v="West Village Lane"/><tag k="addr:housenumber" v="905"/><tag k="addr:postcode" v="78758"/></node><node id="-5" lat="30.371135" lon="-97.695198" changeset="false"><tag k="addr:street" v="Ken Street"/><tag k="addr:housenumber" v="869"/><tag k="addr:postcode" v="78758"/></node><node id="-6" lat="30.367399" lon="-97.69888" changeset="false"><tag k="addr:street" v="Park Village Drive"/><tag k="addr:housenumber" v="9602"/><tag k="addr:postcode" v="78758"/></node><node id="-7" lat="30.368476" lon="-97.698692" changeset="false"><tag k="addr:street" v="Blue Creek Lane"/><tag k="addr:housenumber" v="9607"/><tag k="addr:postcode" v="78758"/></node><node id="-8" lat="30.366367" lon="-97.698422" changeset="false"><tag k="addr:street" v="Quail Village Lane"/><tag k="addr:housenumber" v="9513"/><tag k="addr:postcode" v="78758"/></node><node id="-9" lat="30.372129" lon="-97.700866" changeset="false"><tag k="addr:street" v="Quail Boulevard"/><tag k="addr:housenumber" v="9900"/><tag k="addr:postcode" v="78758"/></node><node id="-10" lat="30.37011" lon="-97.693347" changeset="false"><tag k="addr:street" v="North Lamar Boulevard"/><tag k="addr:housenumber" v="10014"/><tag k="addr:postcode" v="78758"/></node><node id="-11" lat="30.370934" lon="-97.694805" changeset="false"><tag k="addr:street" v="Ken Street"/><tag k="addr:housenumber" v="855"/><tag k="addr:postcode" v="78758"/></node><node id="-12" lat="30.369226" lon="-97.698259" changeset="false"><tag k="addr:street" v="West Village Lane"/><tag k="addr:housenumber" v="909"/><tag k="addr:postcode" v="78758"/></node><node id="-13" lat="30.367483" lon="-97.699075" changeset="false"><tag k="addr:street" v="Quail Forest Cove"/><tag k="addr:housenumber" v="905"/><tag k="addr:postcode" v="78758"/></node><node id="-14" lat="30.368031" lon="-97.69762" changeset="false"><tag k="addr:street" v="Covy Ridge Lane"/><tag k="addr:housenumber" v="9620"/><tag k="addr:postcode" v="78758"/></node><node id="-15" lat="30.368009" lon="-97.698975" changeset="false"><tag k="addr:street" v="Silver Quail Lane"/><tag k="addr:housenumber" v="909"/><tag k="addr:postcode" v="78758"/></node><node id="-16" lat="30.369913" lon="-97.69783" changeset="false"><tag k="addr:street" v="East Meadowmere Lane"/><tag k="addr:housenumber" v="908"/><tag k="addr:postcode" v="78758"/></node><node id="-17" lat="30.37102" lon="-97.694974" changeset="false"><tag k="addr:street" v="Ken Street"/><tag k="addr:housenumber" v="861"/><tag k="addr:postcode" v="78758"/></node><node id="-18" lat="30.366556" lon="-97.698927" changeset="false"><tag k="addr:street" v="Quail Village Lane"/><tag k="addr:housenumber" v="9501"/><tag k="addr:postcode" v="78758"/></node><node id="-19" lat="30.36935" lon="-97.698374" changeset="false"><tag k="addr:street" v="West Village Lane"/><tag k="addr:housenumber" v="913"/><tag k="addr:postcode" v="78758"/></node><node id="-20" lat="30.367868" lon="-97.699331" changeset="false"><tag k="addr:street" v="Blue Creek Lane"/><tag k="addr:housenumber" v="9511"/><tag k="addr:postcode" v="78758"/></node><node id="-21" lat="30.369808" lon="-97.69364" changeset="false"><tag k="addr:street" v="North Lamar Boulevard"/><tag k="addr:housenumber" v="10010"/><tag k="addr:postcode" v="78758"/></node><node id="-22" lat="30.367584" lon="-97.697829" changeset="false"><tag k="addr:street" v="Covy Ridge Lane"/><tag k="addr:housenumber" v="9611"/><tag k="addr:postcode" v="78758"/></node><node id="-23" lat="30.36657" lon="-97.698805" changeset="false"><tag k="addr:street" v="Quail Village Lane"/><tag k="addr:housenumber" v="9503"/><tag k="addr:postcode" v="78758"/></node><node id="-24" lat="30.368608" lon="-97.698801" changeset="false"><tag k="addr:street" v="Blue Creek Lane"/><tag k="addr:housenumber" v="9603"/><tag k="addr:postcode" v="78758"/></node><node id="-25" lat="30.366942" lon="-97.698753" changeset="false"><tag k="addr:street" v="Park Village Drive"/><tag k="addr:housenumber" v="9539"/><tag k="addr:postcode" v="78758"/></node><node id="-26" lat="30.371049" lon="-97.69503" changeset="false"><tag k="addr:street" v="Ken Street"/><tag k="addr:housenumber" v="863"/><tag k="addr:postcode" v="78758"/></node><node id="-27" lat="30.367661" lon="-97.698107" changeset="false"><tag k="addr:street" v="Covy Ridge Lane"/><tag k="addr:housenumber" v="9605"/><tag k="addr:postcode" v="78758"/></node><node id="-28" lat="30.371106" lon="-97.695142" changeset="false"><tag k="addr:street" v="Ken Street"/><tag k="addr:housenumber" v="867"/><tag k="addr:postcode" v="78758"/></node><node id="-29" lat="30.372142" lon="-97.702979" changeset="false"><tag k="addr:street" v="Mearns Meadow Boulevard"/><tag k="addr:housenumber" v="1236"/><tag k="addr:postcode" v="78758"/></node><node id="-30" lat="30.367659" lon="-97.699362" changeset="false"><tag k="addr:street" v="Blue Creek Lane"/><tag k="addr:housenumber" v="9507"/><tag k="addr:postcode" v="78758"/></node><node id="-31" lat="30.368382" lon="-97.698392" changeset="false"><tag k="addr:street" v="Blue Creek Lane"/><tag k="addr:housenumber" v="9613"/><tag k="addr:postcode" v="78758"/></node><node id="-32" lat="30.366388" lon="-97.698509" changeset="false"><tag k="addr:street" v="Quail Village Lane"/><tag k="addr:housenumber" v="9511"/><tag k="addr:postcode" v="78758"/></node><node id="-33" lat="30.368132" lon="-97.699097" changeset="false"><tag k="addr:street" v="Silver Quail Lane"/><tag k="addr:housenumber" v="913"/><tag k="addr:postcode" v="78758"/></node><node id="-34" lat="30.369263" lon="-97.6951" changeset="false"><tag k="addr:street" v="North Lamar Boulevard"/><tag k="addr:housenumber" v="10000"/><tag k="addr:postcode" v="78758"/></node><node id="-35" lat="30.367972" lon="-97.699198" changeset="false"><tag k="addr:street" v="Blue Creek Lane"/><tag k="addr:housenumber" v="9515"/><tag k="addr:postcode" v="78758"/></node><node id="-36" lat="30.367558" lon="-97.699505" changeset="false"><tag k="addr:street" v="Blue Creek Lane"/><tag k="addr:housenumber" v="9503"/><tag k="addr:postcode" v="78758"/></node><node id="-37" lat="30.367419" lon="-97.698256" changeset="false"><tag k="addr:street" v="Quail Village Lane"/><tag k="addr:housenumber" v="9531"/><tag k="addr:postcode" v="78758"/></node><node id="-38" lat="30.370963" lon="-97.694861" changeset="false"><tag k="addr:street" v="Ken Street"/><tag k="addr:housenumber" v="857"/><tag k="addr:postcode" v="78758"/></node><node id="-39" lat="30.3686" lon="-97.697373" changeset="false"><tag k="addr:street" v="East Village Lane"/><tag k="addr:housenumber" v="905"/><tag k="addr:postcode" v="78758"/></node><node id="-40" lat="30.371078" lon="-97.695086" changeset="false"><tag k="addr:street" v="Ken Street"/><tag k="addr:housenumber" v="865"/><tag k="addr:postcode" v="78758"/></node><node id="-41" lat="30.366056" lon="-97.6955" changeset="false"><tag k="addr:street" v="North Lamar Boulevard"/><tag k="addr:housenumber" v="9604"/><tag k="addr:postcode" v="78758"/></node><node id="-42" lat="30.368961" lon="-97.694199" changeset="false"><tag k="addr:street" v="North Lamar Boulevard"/><tag k="addr:housenumber" v="9908"/><tag k="addr:postcode" v="78758"/></node><node id="-43" lat="30.368557" lon="-97.697295" changeset="false"><tag k="addr:street" v="East Village Lane"/><tag k="addr:housenumber" v="903"/><tag k="addr:postcode" v="78758"/></node><node id="-44" lat="30.367921" lon="-97.698737" changeset="false"><tag k="addr:street" v="Silver Quail Lane"/><tag k="addr:housenumber" v="905"/><tag k="addr:postcode" v="78758"/></node><node id="-45" lat="30.367218" lon="-97.695534" changeset="false"><tag k="addr:street" v="North Lamar Boulevard"/><tag k="addr:housenumber" v="9710"/><tag k="addr:postcode" v="78758"/></node><node id="-46" lat="30.371028" lon="-97.701897" changeset="false"><tag k="addr:street" v="Mearns Meadow Boulevard"/><tag k="addr:housenumber" v="1200"/><tag k="addr:postcode" v="78758"/></node><node id="-47" lat="30.367532" lon="-97.697737" changeset="false"><tag k="addr:street" v="Covy Ridge Lane"/><tag k="addr:housenumber" v="9613"/><tag k="addr:postcode" v="78758"/></node><node id="-48" lat="30.368433" lon="-97.698455" changeset="false"><tag k="addr:street" v="Blue Creek Lane"/><tag k="addr:housenumber" v="9611"/><tag k="addr:postcode" v="78758"/></node><node id="-49" lat="30.368416" lon="-97.69856" changeset="false"><tag k="addr:street" v="Blue Creek Lane"/><tag k="addr:housenumber" v="9609"/><tag k="addr:postcode" v="78758"/></node><node id="-50" lat="30.367915" lon="-97.698831" changeset="false"><tag k="addr:street" v="Silver Quail Lane"/><tag k="addr:housenumber" v="907"/><tag k="addr:postcode" v="78758"/></node><node id="-51" lat="30.368177" lon="-97.697927" changeset="false"><tag k="addr:street" v="Covy Ridge Lane"/><tag k="addr:housenumber" v="9628"/><tag k="addr:postcode" v="78758"/></node><node id="-52" lat="30.369476" lon="-97.698071" changeset="false"><tag k="addr:street" v="West Village Lane"/><tag k="addr:housenumber" v="908"/><tag k="addr:postcode" v="78758"/></node><node id="-53" lat="30.367674" lon="-97.698874" changeset="false"><tag k="addr:street" v="Quail Forest Cove"/><tag k="addr:housenumber" v="900"/><tag k="addr:postcode" v="78758"/></node><node id="-54" lat="30.369318" lon="-97.698297" changeset="false"><tag k="addr:street" v="West Village Lane"/><tag k="addr:housenumber" v="911"/><tag k="addr:postcode" v="78758"/></node><node id="-55" lat="30.371964" lon="-97.700996" changeset="false"><tag k="addr:street" v="Quail Boulevard"/><tag k="addr:housenumber" v="9844"/><tag k="addr:postcode" v="78758"/></node><node id="-56" lat="30.370991" lon="-97.694918" changeset="false"><tag k="addr:street" v="Ken Street"/><tag k="addr:housenumber" v="859"/><tag k="addr:postcode" v="78758"/></node><node id="-57" lat="30.366819" lon="-97.698769" changeset="false"><tag k="addr:street" v="Quail Village Lane"/><tag k="addr:housenumber" v="9500"/><tag k="addr:postcode" v="78758"/></node><node id="-58" lat="30.36657" lon="-97.698265" changeset="false"><tag k="addr:street" v="Quail Village Lane"/><tag k="addr:housenumber" v="9514"/><tag k="addr:postcode" v="78758"/></node><node id="-59" lat="30.371005" lon="-97.69502" changeset="false"><tag k="addr:street" v="Ken Street"/><tag k="addr:housenumber" v="825"/><tag k="addr:postcode" v="78758"/></node><node id="-60" lat="30.369308" lon="-97.698466" changeset="false"><tag k="addr:street" v="West Village Lane"/><tag k="addr:housenumber" v="915"/><tag k="addr:postcode" v="78758"/></node><node id="-61" lat="30.368285" lon="-97.698381" changeset="false"><tag k="addr:street" v="Blue Creek Lane"/><tag k="addr:housenumber" v="9615"/><tag k="addr:postcode" v="78758"/></node><node id="-62" lat="30.369935" lon="-97.69766" changeset="false"><tag k="addr:street" v="West Meadowmere Lane"/><tag k="addr:housenumber" v="906"/><tag k="addr:postcode" v="78758"/></node><node id="-63" lat="30.369928" lon="-97.697452" changeset="false"><tag k="addr:street" v="West Meadowmere Lane"/><tag k="addr:housenumber" v="900"/><tag k="addr:postcode" v="78758"/></node><node id="-64" lat="30.369868" lon="-97.6975" changeset="false"><tag k="addr:street" v="West Meadowmere Lane"/><tag k="addr:housenumber" v="902"/><tag k="addr:postcode" v="78758"/></node><node id="-65" lat="30.369881" lon="-97.697596" changeset="false"><tag k="addr:street" v="West Meadowmere Lane"/><tag k="addr:housenumber" v="904"/><tag k="addr:postcode" v="78758"/></node><node id="-66" lat="30.370038" lon="-97.698005" changeset="false"><tag k="addr:street" v="East Meadowmere Lane"/><tag k="addr:housenumber" v="914"/><tag k="addr:postcode" v="78758"/></node><node id="-67" lat="30.369968" lon="-97.697954" changeset="false"><tag k="addr:street" v="East Meadowmere Lane"/><tag k="addr:housenumber" v="912"/><tag k="addr:postcode" v="78758"/></node><node id="-68" lat="30.369991" lon="-97.697869" changeset="false"><tag k="addr:street" v="East Meadowmere Lane"/><tag k="addr:housenumber" v="910"/><tag k="addr:postcode" v="78758"/></node><node id="-69" lat="30.368924" lon="-97.6976" changeset="false"><tag k="addr:street" v="East Village Lane"/><tag k="addr:housenumber" v="912"/><tag k="addr:postcode" v="78758"/></node><node id="-70" lat="30.368999" lon="-97.697628" changeset="false"><tag k="addr:street" v="East Village Lane"/><tag k="addr:housenumber" v="914"/><tag k="addr:postcode" v="78758"/></node><node id="-71" lat="30.36891" lon="-97.697436" changeset="false"><tag k="addr:street" v="East Village Lane"/><tag k="addr:housenumber" v="908"/><tag k="addr:postcode" v="78758"/></node><node id="-72" lat="30.368892" lon="-97.697523" changeset="false"><tag k="addr:street" v="East Village Lane"/><tag k="addr:housenumber" v="910"/><tag k="addr:postcode" v="78758"/></node><node id="-73" lat="30.369219" lon="-97.697896" changeset="false"><tag k="addr:street" v="West Village Lane"/><tag k="addr:housenumber" v="902"/><tag k="addr:postcode" v="78758"/></node><node id="-74" lat="30.369368" lon="-97.697933" changeset="false"><tag k="addr:street" v="West Village Lane"/><tag k="addr:housenumber" v="906"/><tag k="addr:postcode" v="78758"/></node><node id="-75" lat="30.369273" lon="-97.697962" changeset="false"><tag k="addr:street" v="West Village Lane"/><tag k="addr:housenumber" v="904"/><tag k="addr:postcode" v="78758"/></node><node id="-76" lat="30.369231" lon="-97.697825" changeset="false"><tag k="addr:street" v="West Village Lane"/><tag k="addr:housenumber" v="900"/><tag k="addr:postcode" v="78758"/></node><node id="-77" lat="30.369425" lon="-97.696929" changeset="false"><tag k="addr:street" v="East Meadowmere Lane"/><tag k="addr:housenumber" v="907"/><tag k="addr:postcode" v="78758"/></node><node id="-78" lat="30.369442" lon="-97.696829" changeset="false"><tag k="addr:street" v="East Meadowmere Lane"/><tag k="addr:housenumber" v="905"/><tag k="addr:postcode" v="78758"/></node><node id="-79" lat="30.369394" lon="-97.696765" changeset="false"><tag k="addr:street" v="East Meadowmere Lane"/><tag k="addr:housenumber" v="903"/><tag k="addr:postcode" v="78758"/></node><node id="-80" lat="30.369314" lon="-97.696768" changeset="false"><tag k="addr:street" v="East Meadowmere Lane"/><tag k="addr:housenumber" v="901"/><tag k="addr:postcode" v="78758"/></node><node id="-81" lat="30.369523" lon="-97.696645" changeset="false"><tag k="addr:street" v="East Meadowmere Lane"/><tag k="addr:housenumber" v="902"/><tag k="addr:postcode" v="78758"/></node><node id="-82" lat="30.369538" lon="-97.696567" changeset="false"><tag k="addr:street" v="East Meadowmere Lane"/><tag k="addr:housenumber" v="900"/><tag k="addr:postcode" v="78758"/></node><node id="-83" lat="30.369577" lon="-97.696728" changeset="false"><tag k="addr:street" v="East Meadowmere Lane"/><tag k="addr:housenumber" v="904"/><tag k="addr:postcode" v="78758"/></node><node id="-84" lat="30.369673" lon="-97.69672" changeset="false"><tag k="addr:street" v="East Meadowmere Lane"/><tag k="addr:housenumber" v="906"/><tag k="addr:postcode" v="78758"/></node><node id="-85" lat="30.369152" lon="-97.697033" changeset="false"><tag k="addr:street" v="Greenmeer Lane"/><tag k="addr:housenumber" v="904"/><tag k="addr:postcode" v="78758"/></node><node id="-86" lat="30.369112" lon="-97.696962" changeset="false"><tag k="addr:street" v="Greenmeer Lane"/><tag k="addr:housenumber" v="902"/><tag k="addr:postcode" v="78758"/></node><node id="-87" lat="30.369243" lon="-97.697052" changeset="false"><tag k="addr:street" v="Greenmeer Lane"/><tag k="addr:housenumber" v="906"/><tag k="addr:postcode" v="78758"/></node><node id="-88" lat="30.369143" lon="-97.696869" changeset="false"><tag k="addr:street" v="Greenmeer Lane"/><tag k="addr:housenumber" v="900"/><tag k="addr:postcode" v="78758"/></node><node id="-89" lat="30.369029" lon="-97.697095" changeset="false"><tag k="addr:street" v="Greenmeer Lane"/><tag k="addr:housenumber" v="905"/><tag k="addr:postcode" v="78758"/></node><node id="-90" lat="30.368882" lon="-97.697028" changeset="false"><tag k="addr:street" v="Greenmeer Lane"/><tag k="addr:housenumber" v="901"/><tag k="addr:postcode" v="78758"/></node><node id="-91" lat="30.368993" lon="-97.697195" changeset="false"><tag k="addr:street" v="Greenmeer Lane"/><tag k="addr:housenumber" v="907"/><tag k="addr:postcode" v="78758"/></node><node id="-92" lat="30.368975" lon="-97.697021" changeset="false"><tag k="addr:street" v="Greenmeer Lane"/><tag k="addr:housenumber" v="903"/><tag k="addr:postcode" v="78758"/></node><node id="-93" lat="30.369635" lon="-97.697122" changeset="false"><tag k="addr:street" v="East Meadowmere Lane"/><tag k="addr:housenumber" v="911"/><tag k="addr:postcode" v="78758"/></node><node id="-94" lat="30.369538" lon="-97.697112" changeset="false"><tag k="addr:street" v="East Meadowmere Lane"/><tag k="addr:housenumber" v="909"/><tag k="addr:postcode" v="78758"/></node><node id="-95" lat="30.36968" lon="-97.697193" changeset="false"><tag k="addr:street" v="East Meadowmere Lane"/><tag k="addr:housenumber" v="913"/><tag k="addr:postcode" v="78758"/></node><node id="-96" lat="30.369654" lon="-97.697276" changeset="false"><tag k="addr:street" v="East Meadowmere Lane"/><tag k="addr:housenumber" v="915"/><tag k="addr:postcode" v="78758"/></node><node id="-97" lat="30.369718" lon="-97.69758" changeset="false"><tag k="addr:street" v="West Meadowmere Lane"/><tag k="addr:housenumber" v="903"/><tag k="addr:postcode" v="78758"/></node><node id="-98" lat="30.369656" lon="-97.697744" changeset="false"><tag k="addr:street" v="West Meadowmere Lane"/><tag k="addr:housenumber" v="907"/><tag k="addr:postcode" v="78758"/></node><node id="-99" lat="30.369649" lon="-97.697563" changeset="false"><tag k="addr:street" v="West Meadowmere Lane"/><tag k="addr:housenumber" v="901"/><tag k="addr:postcode" v="78758"/></node><node id="-100" lat="30.369721" lon="-97.697688" changeset="false"><tag k="addr:street" v="West Meadowmere Lane"/><tag k="addr:housenumber" v="905"/><tag k="addr:postcode" v="78758"/></node><node id="-101" lat="30.369742" lon="-97.696987" changeset="false"><tag k="addr:street" v="West Meadowmere Lane"/><tag k="addr:housenumber" v="910"/><tag k="addr:postcode" v="78758"/></node><node id="-102" lat="30.369782" lon="-97.697049" changeset="false"><tag k="addr:street" v="West Meadowmere Lane"/><tag k="addr:housenumber" v="912"/><tag k="addr:postcode" v="78758"/></node><node id="-103" lat="30.369765" lon="-97.696905" changeset="false"><tag k="addr:street" v="West Meadowmere Lane"/><tag k="addr:housenumber" v="908"/><tag k="addr:postcode" v="78758"/></node><node id="-104" lat="30.369876" lon="-97.697067" changeset="false"><tag k="addr:street" v="West Meadowmere Lane"/><tag k="addr:housenumber" v="914"/><tag k="addr:postcode" v="78758"/></node><node id="-105" lat="30.368146" lon="-97.698042" changeset="false"><tag k="addr:street" v="Covy Ridge Lane"/><tag k="addr:housenumber" v="9630"/><tag k="addr:postcode" v="78758"/></node><node id="-106" lat="30.368054" lon="-97.697834" changeset="false"><tag k="addr:street" v="Covy Ridge Lane"/><tag k="addr:housenumber" v="9624"/><tag k="addr:postcode" v="78758"/></node><node id="-107" lat="30.36814" lon="-97.697845" changeset="false"><tag k="addr:street" v="Covy Ridge Lane"/><tag k="addr:housenumber" v="9626"/><tag k="addr:postcode" v="78758"/></node><node id="-108" lat="30.368469" lon="-97.697823" changeset="false"><tag k="addr:street" v="Covy Ridge Lane"/><tag k="addr:housenumber" v="9631"/><tag k="addr:postcode" v="78758"/></node><node id="-109" lat="30.368373" lon="-97.697812" changeset="false"><tag k="addr:street" v="Covy Ridge Lane"/><tag k="addr:housenumber" v="9629"/><tag k="addr:postcode" v="78758"/></node><node id="-110" lat="30.368336" lon="-97.697643" changeset="false"><tag k="addr:street" v="Covy Ridge Lane"/><tag k="addr:housenumber" v="9625"/><tag k="addr:postcode" v="78758"/></node><node id="-111" lat="30.368333" lon="-97.697732" changeset="false"><tag k="addr:street" v="Covy Ridge Lane"/><tag k="addr:housenumber" v="9627"/><tag k="addr:postcode" v="78758"/></node><node id="-112" lat="30.368165" lon="-97.697471" changeset="false"><tag k="addr:street" v="Covy Ridge Lane"/><tag k="addr:housenumber" v="9621"/><tag k="addr:postcode" v="78758"/></node><node id="-113" lat="30.368248" lon="-97.697484" changeset="false"><tag k="addr:street" v="Covy Ridge Lane"/><tag k="addr:housenumber" v="9623"/><tag k="addr:postcode" v="78758"/></node><node id="-114" lat="30.368119" lon="-97.697395" changeset="false"><tag k="addr:street" v="Covy Ridge Lane"/><tag k="addr:housenumber" v="9619"/><tag k="addr:postcode" v="78758"/></node><node id="-115" lat="30.368151" lon="-97.697301" changeset="false"><tag k="addr:street" v="Covy Ridge Lane"/><tag k="addr:housenumber" v="9617"/><tag k="addr:postcode" v="78758"/></node><node id="-116" lat="30.368572" lon="-97.697461" changeset="false"><tag k="addr:street" v="East Village Lane"/><tag k="addr:housenumber" v="907"/><tag k="addr:postcode" v="78758"/></node><node id="-117" lat="30.368469" lon="-97.697275" changeset="false"><tag k="addr:street" v="East Village Lane"/><tag k="addr:housenumber" v="901"/><tag k="addr:postcode" v="78758"/></node><node id="-118" lat="30.368748" lon="-97.697596" changeset="false"><tag k="addr:street" v="East Village Lane"/><tag k="addr:housenumber" v="911"/><tag k="addr:postcode" v="78758"/></node><node id="-119" lat="30.36867" lon="-97.697574" changeset="false"><tag k="addr:street" v="East Village Lane"/><tag k="addr:housenumber" v="909"/><tag k="addr:postcode" v="78758"/></node><node id="-120" lat="30.368746" lon="-97.69777" changeset="false"><tag k="addr:street" v="East Village Lane"/><tag k="addr:housenumber" v="915"/><tag k="addr:postcode" v="78758"/></node><node id="-121" lat="30.368685" lon="-97.697201" changeset="false"><tag k="addr:street" v="East Village Lane"/><tag k="addr:housenumber" v="902"/><tag k="addr:postcode" v="78758"/></node><node id="-122" lat="30.368713" lon="-97.697101" changeset="false"><tag k="addr:street" v="East Village Lane"/><tag k="addr:housenumber" v="900"/><tag k="addr:postcode" v="78758"/></node><node id="-123" lat="30.368813" lon="-97.697292" changeset="false"><tag k="addr:street" v="East Village Lane"/><tag k="addr:housenumber" v="906"/><tag k="addr:postcode" v="78758"/></node><node id="-124" lat="30.36873" lon="-97.697279" changeset="false"><tag k="addr:street" v="East Village Lane"/><tag k="addr:housenumber" v="904"/><tag k="addr:postcode" v="78758"/></node><node id="-125" lat="30.367206" lon="-97.697928" changeset="false"><tag k="addr:street" v="Quail Village Lane"/><tag k="addr:housenumber" v="9525"/><tag k="addr:postcode" v="78758"/></node><node id="-126" lat="30.367221" lon="-97.697846" changeset="false"><tag k="addr:street" v="Quail Village Lane"/><tag k="addr:housenumber" v="9523"/><tag k="addr:postcode" v="78758"/></node><node id="-127" lat="30.367257" lon="-97.697991" changeset="false"><tag k="addr:street" v="Quail Village Lane"/><tag k="addr:housenumber" v="9527"/><tag k="addr:postcode" v="78758"/></node><node id="-128" lat="30.367331" lon="-97.697995" changeset="false"><tag k="addr:street" v="Quail Village Lane"/><tag k="addr:housenumber" v="9529"/><tag k="addr:postcode" v="78758"/></node><node id="-129" lat="30.367536" lon="-97.697901" changeset="false"><tag k="addr:street" v="Covy Ridge Lane"/><tag k="addr:housenumber" v="9609"/><tag k="addr:postcode" v="78758"/></node><node id="-130" lat="30.367464" lon="-97.697737" changeset="false"><tag k="addr:street" v="Covy Ridge Lane"/><tag k="addr:housenumber" v="9615"/><tag k="addr:postcode" v="78758"/></node><node id="-131" lat="30.367982" lon="-97.69754" changeset="false"><tag k="addr:street" v="Covy Ridge Lane"/><tag k="addr:housenumber" v="9618"/><tag k="addr:postcode" v="78758"/></node><node id="-132" lat="30.367907" lon="-97.697517" changeset="false"><tag k="addr:street" v="Covy Ridge Lane"/><tag k="addr:housenumber" v="9616"/><tag k="addr:postcode" v="78758"/></node><node id="-133" lat="30.36798" lon="-97.697725" changeset="false"><tag k="addr:street" v="Covy Ridge Lane"/><tag k="addr:housenumber" v="9622"/><tag k="addr:postcode" v="78758"/></node><node id="-134" lat="30.36772" lon="-97.697623" changeset="false"><tag k="addr:street" v="Covy Ridge Lane"/><tag k="addr:housenumber" v="9614"/><tag k="addr:postcode" v="78758"/></node><node id="-135" lat="30.367734" lon="-97.697772" changeset="false"><tag k="addr:street" v="Covy Ridge Lane"/><tag k="addr:housenumber" v="9610"/><tag k="addr:postcode" v="78758"/></node><node id="-136" lat="30.367686" lon="-97.697698" changeset="false"><tag k="addr:street" v="Covy Ridge Lane"/><tag k="addr:housenumber" v="9612"/><tag k="addr:postcode" v="78758"/></node><node id="-137" lat="30.367814" lon="-97.697796" changeset="false"><tag k="addr:street" v="Covy Ridge Lane"/><tag k="addr:housenumber" v="9608"/><tag k="addr:postcode" v="78758"/></node><node id="-138" lat="30.36983" lon="-97.698072" changeset="false"><tag k="addr:street" v="West Meadowmere Lane"/><tag k="addr:housenumber" v="913"/><tag k="addr:postcode" v="78758"/></node><node id="-139" lat="30.369796" lon="-97.698003" changeset="false"><tag k="addr:street" v="West Meadowmere Lane"/><tag k="addr:housenumber" v="911"/><tag k="addr:postcode" v="78758"/></node><node id="-140" lat="30.369727" lon="-97.697998" changeset="false"><tag k="addr:street" v="West Meadowmere Lane"/><tag k="addr:housenumber" v="909"/><tag k="addr:postcode" v="78758"/></node><node id="-141" lat="30.369788" lon="-97.698175" changeset="false"><tag k="addr:street" v="West Meadowmere Lane"/><tag k="addr:housenumber" v="915"/><tag k="addr:postcode" v="78758"/></node><node id="-142" lat="30.369095" lon="-97.698007" changeset="false"><tag k="addr:street" v="West Village Lane"/><tag k="addr:housenumber" v="903"/><tag k="addr:postcode" v="78758"/></node><node id="-143" lat="30.369007" lon="-97.698032" changeset="false"><tag k="addr:street" v="West Village Lane"/><tag k="addr:housenumber" v="901"/><tag k="addr:postcode" v="78758"/></node><node id="-144" lat="30.36915" lon="-97.698163" changeset="false"><tag k="addr:street" v="West Village Lane"/><tag k="addr:housenumber" v="907"/><tag k="addr:postcode" v="78758"/></node><node id="-145" lat="30.369548" lon="-97.698299" changeset="false"><tag k="addr:street" v="West Village Lane"/><tag k="addr:housenumber" v="914"/><tag k="addr:postcode" v="78758"/></node><node id="-146" lat="30.369453" lon="-97.698202" changeset="false"><tag k="addr:street" v="West Village Lane"/><tag k="addr:housenumber" v="910"/><tag k="addr:postcode" v="78758"/></node><node id="-147" lat="30.369486" lon="-97.698294" changeset="false"><tag k="addr:street" v="West Village Lane"/><tag k="addr:housenumber" v="912"/><tag k="addr:postcode" v="78758"/></node><node id="-148" lat="30.367567" lon="-97.698063" changeset="false"><tag k="addr:street" v="Covy Ridge Lane"/><tag k="addr:housenumber" v="9607"/><tag k="addr:postcode" v="78758"/></node><node id="-149" lat="30.367625" lon="-97.698246" changeset="false"><tag k="addr:street" v="Covy Ridge Lane"/><tag k="addr:housenumber" v="9601"/><tag k="addr:postcode" v="78758"/></node><node id="-150" lat="30.367795" lon="-97.698716" changeset="false"><tag k="addr:street" v="Silver Quail Lane"/><tag k="addr:housenumber" v="901"/><tag k="addr:postcode" v="78758"/></node><node id="-151" lat="30.367849" lon="-97.698688" changeset="false"><tag k="addr:street" v="Silver Quail Lane"/><tag k="addr:housenumber" v="903"/><tag k="addr:postcode" v="78758"/></node><node id="-152" lat="30.367706" lon="-97.699071" changeset="false"><tag k="addr:street" v="Quail Forest Cove"/><tag k="addr:housenumber" v="906"/><tag k="addr:postcode" v="78758"/></node><node id="-153" lat="30.367639" lon="-97.699038" changeset="false"><tag k="addr:street" v="Quail Forest Cove"/><tag k="addr:housenumber" v="904"/><tag k="addr:postcode" v="78758"/></node><node id="-154" lat="30.367618" lon="-97.698941" changeset="false"><tag k="addr:street" v="Quail Forest Cove"/><tag k="addr:housenumber" v="902"/><tag k="addr:postcode" v="78758"/></node><node id="-155" lat="30.368009" lon="-97.698584" changeset="false"><tag k="addr:street" v="Silver Quail Lane"/><tag k="addr:housenumber" v="902"/><tag k="addr:postcode" v="78758"/></node><node id="-156" lat="30.368164" lon="-97.698613" changeset="false"><tag k="addr:street" v="Silver Quail Lane"/><tag k="addr:housenumber" v="906"/><tag k="addr:postcode" v="78758"/></node><node id="-157" lat="30.368071" lon="-97.698655" changeset="false"><tag k="addr:street" v="Silver Quail Lane"/><tag k="addr:housenumber" v="904"/><tag k="addr:postcode" v="78758"/></node><node id="-158" lat="30.36801" lon="-97.698512" changeset="false"><tag k="addr:street" v="Silver Quail Lane"/><tag k="addr:housenumber" v="900"/><tag k="addr:postcode" v="78758"/></node><node id="-159" lat="30.368297" lon="-97.698811" changeset="false"><tag k="addr:street" v="Silver Quail Lane"/><tag k="addr:housenumber" v="908"/><tag k="addr:postcode" v="78758"/></node><node id="-160" lat="30.368244" lon="-97.698917" changeset="false"><tag k="addr:street" v="Silver Quail Lane"/><tag k="addr:housenumber" v="910"/><tag k="addr:postcode" v="78758"/></node><node id="-161" lat="30.368337" lon="-97.699037" changeset="false"><tag k="addr:street" v="Silver Quail Lane"/><tag k="addr:housenumber" v="914"/><tag k="addr:postcode" v="78758"/></node><node id="-162" lat="30.368273" lon="-97.698996" changeset="false"><tag k="addr:street" v="Silver Quail Lane"/><tag k="addr:housenumber" v="912"/><tag k="addr:postcode" v="78758"/></node><node id="-163" lat="30.367805" lon="-97.698039" changeset="false"><tag k="addr:street" v="Covy Ridge Lane"/><tag k="addr:housenumber" v="9604"/><tag k="addr:postcode" v="78758"/></node><node id="-164" lat="30.367832" lon="-97.698126" changeset="false"><tag k="addr:street" v="Covy Ridge Lane"/><tag k="addr:housenumber" v="9602"/><tag k="addr:postcode" v="78758"/></node><node id="-165" lat="30.367902" lon="-97.698167" changeset="false"><tag k="addr:street" v="Covy Ridge Lane"/><tag k="addr:housenumber" v="9600"/><tag k="addr:postcode" v="78758"/></node><node id="-166" lat="30.367862" lon="-97.697979" changeset="false"><tag k="addr:street" v="Covy Ridge Lane"/><tag k="addr:housenumber" v="9606"/><tag k="addr:postcode" v="78758"/></node><node id="-167" lat="30.368573" lon="-97.698697" changeset="false"><tag k="addr:street" v="Blue Creek Lane"/><tag k="addr:housenumber" v="9605"/><tag k="addr:postcode" v="78758"/></node><node id="-168" lat="30.368585" lon="-97.698894" changeset="false"><tag k="addr:street" v="Blue Creek Lane"/><tag k="addr:housenumber" v="9601"/><tag k="addr:postcode" v="78758"/></node><node id="-169" lat="30.368689" lon="-97.698222" changeset="false"><tag k="addr:street" v="Blue Creek Lane"/><tag k="addr:housenumber" v="9614"/><tag k="addr:postcode" v="78758"/></node><node id="-170" lat="30.368669" lon="-97.698312" changeset="false"><tag k="addr:street" v="Blue Creek Lane"/><tag k="addr:housenumber" v="9612"/><tag k="addr:postcode" v="78758"/></node><node id="-171" lat="30.36869" lon="-97.698395" changeset="false"><tag k="addr:street" v="Blue Creek Lane"/><tag k="addr:housenumber" v="9610"/><tag k="addr:postcode" v="78758"/></node><node id="-172" lat="30.36879" lon="-97.698433" changeset="false"><tag k="addr:street" v="Blue Creek Lane"/><tag k="addr:housenumber" v="9608"/><tag k="addr:postcode" v="78758"/></node><node id="-173" lat="30.368838" lon="-97.698763" changeset="false"><tag k="addr:street" v="Blue Creek Lane"/><tag k="addr:housenumber" v="9602"/><tag k="addr:postcode" v="78758"/></node><node id="-174" lat="30.368809" lon="-97.698674" changeset="false"><tag k="addr:street" v="Blue Creek Lane"/><tag k="addr:housenumber" v="9604"/><tag k="addr:postcode" v="78758"/></node><node id="-175" lat="30.368918" lon="-97.698786" changeset="false"><tag k="addr:street" v="Blue Creek Lane"/><tag k="addr:housenumber" v="9600"/><tag k="addr:postcode" v="78758"/></node><node id="-176" lat="30.368834" lon="-97.698592" changeset="false"><tag k="addr:street" v="Blue Creek Lane"/><tag k="addr:housenumber" v="9606"/><tag k="addr:postcode" v="78758"/></node><node id="-177" lat="30.366436" lon="-97.698727" changeset="false"><tag k="addr:street" v="Quail Village Lane"/><tag k="addr:housenumber" v="9507"/><tag k="addr:postcode" v="78758"/></node><node id="-178" lat="30.366511" lon="-97.698763" changeset="false"><tag k="addr:street" v="Quail Village Lane"/><tag k="addr:housenumber" v="9505"/><tag k="addr:postcode" v="78758"/></node><node id="-179" lat="30.366607" lon="-97.698483" changeset="false"><tag k="addr:street" v="Quail Village Lane"/><tag k="addr:housenumber" v="9508"/><tag k="addr:postcode" v="78758"/></node><node id="-180" lat="30.366543" lon="-97.698441" changeset="false"><tag k="addr:street" v="Quail Village Lane"/><tag k="addr:housenumber" v="9510"/><tag k="addr:postcode" v="78758"/></node><node id="-181" lat="30.366533" lon="-97.69835" changeset="false"><tag k="addr:street" v="Quail Village Lane"/><tag k="addr:housenumber" v="9512"/><tag k="addr:postcode" v="78758"/></node><node id="-182" lat="30.367173" lon="-97.698603" changeset="false"><tag k="addr:street" v="Quail Village Lane"/><tag k="addr:housenumber" v="9538"/><tag k="addr:postcode" v="78758"/></node><node id="-183" lat="30.367158" lon="-97.698395" changeset="false"><tag k="addr:street" v="Quail Village Lane"/><tag k="addr:housenumber" v="9532"/><tag k="addr:postcode" v="78758"/></node><node id="-184" lat="30.367221" lon="-97.698531" changeset="false"><tag k="addr:street" v="Quail Village Lane"/><tag k="addr:housenumber" v="9536"/><tag k="addr:postcode" v="78758"/></node><node id="-185" lat="30.367214" lon="-97.698448" changeset="false"><tag k="addr:street" v="Quail Village Lane"/><tag k="addr:housenumber" v="9534"/><tag k="addr:postcode" v="78758"/></node><node id="-186" lat="30.367435" lon="-97.699131" changeset="false"><tag k="addr:street" v="Quail Forest Cove"/><tag k="addr:housenumber" v="907"/><tag k="addr:postcode" v="78758"/></node><node id="-187" lat="30.367472" lon="-97.698966" changeset="false"><tag k="addr:street" v="Quail Forest Cove"/><tag k="addr:housenumber" v="903"/><tag k="addr:postcode" v="78758"/></node><node id="-188" lat="30.367422" lon="-97.698938" changeset="false"><tag k="addr:street" v="Quail Forest Cove"/><tag k="addr:housenumber" v="901"/><tag k="addr:postcode" v="78758"/></node><node id="-189" lat="30.366326" lon="-97.698588" changeset="false"><tag k="addr:street" v="Quail Village Lane"/><tag k="addr:housenumber" v="9509"/><tag k="addr:postcode" v="78758"/></node><node id="-190" lat="30.36631" lon="-97.698371" changeset="false"><tag k="addr:street" v="Quail Village Lane"/><tag k="addr:housenumber" v="9515"/><tag k="addr:postcode" v="78758"/></node><node id="-191" lat="30.367415" lon="-97.698433" changeset="false"><tag k="addr:street" v="Quail Village Lane"/><tag k="addr:housenumber" v="9535"/><tag k="addr:postcode" v="78758"/></node><node id="-192" lat="30.36746" lon="-97.698473" changeset="false"><tag k="addr:street" v="Quail Village Lane"/><tag k="addr:housenumber" v="9537"/><tag k="addr:postcode" v="78758"/></node><node id="-193" lat="30.367419" lon="-97.698354" changeset="false"><tag k="addr:street" v="Quail Village Lane"/><tag k="addr:housenumber" v="9533"/><tag k="addr:postcode" v="78758"/></node><node id="-194" lat="30.3667" lon="-97.69858" changeset="false"><tag k="addr:street" v="Quail Village Lane"/><tag k="addr:housenumber" v="9506"/><tag k="addr:postcode" v="78758"/></node><node id="-195" lat="30.366742" lon="-97.698747" changeset="false"><tag k="addr:street" v="Quail Village Lane"/><tag k="addr:housenumber" v="9502"/><tag k="addr:postcode" v="78758"/></node><node id="-196" lat="30.366694" lon="-97.698688" changeset="false"><tag k="addr:street" v="Quail Village Lane"/><tag k="addr:housenumber" v="9504"/><tag k="addr:postcode" v="78758"/></node><node id="-197" lat="30.366718" lon="-97.698272" changeset="false"><tag k="addr:street" v="Quail Village Lane"/><tag k="addr:housenumber" v="9516"/><tag k="addr:postcode" v="78758"/></node><node id="-198" lat="30.366758" lon="-97.698191" changeset="false"><tag k="addr:street" v="Quail Village Lane"/><tag k="addr:housenumber" v="9518"/><tag k="addr:postcode" v="78758"/></node><node id="-199" lat="30.366904" lon="-97.698202" changeset="false"><tag k="addr:street" v="Quail Village Lane"/><tag k="addr:housenumber" v="9522"/><tag k="addr:postcode" v="78758"/></node><node id="-200" lat="30.366823" lon="-97.698165" changeset="false"><tag k="addr:street" v="Quail Village Lane"/><tag k="addr:housenumber" v="9520"/><tag k="addr:postcode" v="78758"/></node><node id="-201" lat="30.367034" lon="-97.698104" changeset="false"><tag k="addr:street" v="Quail Village Lane"/><tag k="addr:housenumber" v="9524"/><tag k="addr:postcode" v="78758"/></node><node id="-202" lat="30.36714" lon="-97.698176" changeset="false"><tag k="addr:street" v="Quail Village Lane"/><tag k="addr:housenumber" v="9528"/><tag k="addr:postcode" v="78758"/></node><node id="-203" lat="30.367147" lon="-97.698266" changeset="false"><tag k="addr:street" v="Quail Village Lane"/><tag k="addr:housenumber" v="9530"/><tag k="addr:postcode" v="78758"/></node><node id="-204" lat="30.367103" lon="-97.698111" changeset="false"><tag k="addr:street" v="Quail Village Lane"/><tag k="addr:housenumber" v="9526"/><tag k="addr:postcode" v="78758"/></node><node id="-205" lat="30.368106" lon="-97.699159" changeset="false"><tag k="addr:street" v="Silver Quail Lane"/><tag k="addr:housenumber" v="915"/><tag k="addr:postcode" v="78758"/></node><node id="-206" lat="30.3681" lon="-97.699003" changeset="false"><tag k="addr:street" v="Silver Quail Lane"/><tag k="addr:housenumber" v="911"/><tag k="addr:postcode" v="78758"/></node><node id="-207" lat="30.3669" lon="-97.699195" changeset="false"><tag k="addr:street" v="Park Village Cove"/><tag k="addr:housenumber" v="902"/><tag k="addr:postcode" v="78758"/></node><node id="-208" lat="30.366934" lon="-97.699279" changeset="false"><tag k="addr:street" v="Park Village Cove"/><tag k="addr:housenumber" v="904"/><tag k="addr:postcode" v="78758"/></node><node id="-209" lat="30.366931" lon="-97.699105" changeset="false"><tag k="addr:street" v="Park Village Cove"/><tag k="addr:housenumber" v="900"/><tag k="addr:postcode" v="78758"/></node><node id="-210" lat="30.367009" lon="-97.699306" changeset="false"><tag k="addr:street" v="Park Village Cove"/><tag k="addr:housenumber" v="906"/><tag k="addr:postcode" v="78758"/></node><node id="-211" lat="30.367465" lon="-97.699426" changeset="false"><tag k="addr:street" v="Blue Creek Lane"/><tag k="addr:housenumber" v="9501"/><tag k="addr:postcode" v="78758"/></node><node id="-212" lat="30.367628" lon="-97.699466" changeset="false"><tag k="addr:street" v="Blue Creek Lane"/><tag k="addr:housenumber" v="9505"/><tag k="addr:postcode" v="78758"/></node><node id="-213" lat="30.367793" lon="-97.699287" changeset="false"><tag k="addr:street" v="Blue Creek Lane"/><tag k="addr:housenumber" v="9509"/><tag k="addr:postcode" v="78758"/></node><node id="-214" lat="30.367933" lon="-97.699288" changeset="false"><tag k="addr:street" v="Blue Creek Lane"/><tag k="addr:housenumber" v="9513"/><tag k="addr:postcode" v="78758"/></node></osm>