<?xml version="1.0" encoding="UTF-8"?><osm version="0.6" generator="github.com/aaronlidman/osm-and-geojson"><node id="-1" lat="30.436802" lon="-97.73038" changeset="false"><tag k="addr:street" v="Legendary Drive"/><tag k="addr:housenumber" v="13201"/><tag k="addr:postcode" v="78727"/></node><node id="-2" lat="30.447711" lon="-97.74556" changeset="false"><tag k="addr:street" v="Luckenbach Lane"/><tag k="addr:housenumber" v="6602"/><tag k="addr:postcode" v="78729"/></node><node id="-3" lat="30.44871" lon="-97.746569" changeset="false"><tag k="addr:street" v="Luckenbach Lane"/><tag k="addr:housenumber" v="6706"/><tag k="addr:postcode" v="78729"/></node><node id="-4" lat="30.448121" lon="-97.74845" changeset="false"><tag k="addr:street" v="Luckenbach Lane"/><tag k="addr:housenumber" v="6818"/><tag k="addr:postcode" v="78729"/></node><node id="-5" lat="30.442761" lon="-97.746287" changeset="false"><tag k="addr:street" v="Crowley Trail"/><tag k="addr:housenumber" v="6409"/><tag k="addr:postcode" v="78729"/></node><node id="-6" lat="30.446568" lon="-97.745205" changeset="false"><tag k="addr:street" v="Luckenbach Lane"/><tag k="addr:housenumber" v="6503"/><tag k="addr:postcode" v="78729"/></node><node id="-7" lat="30.446937" lon="-97.746618" changeset="false"><tag k="addr:street" v="Shiner Street"/><tag k="addr:housenumber" v="6605"/><tag k="addr:postcode" v="78729"/></node><node id="-8" lat="30.436536" lon="-97.731031" changeset="false"><tag k="addr:street" v="Legendary Drive"/><tag k="addr:housenumber" v="13206 1/2"/><tag k="addr:postcode" v="78727"/></node><node id="-9" lat="30.437022" lon="-97.731684" changeset="false"><tag k="addr:street" v="Legendary Drive"/><tag k="addr:housenumber" v="13212 1/2"/><tag k="addr:postcode" v="78727"/></node><node id="-10" lat="30.444955" lon="-97.743498" changeset="false"><tag k="addr:street" v="West Parmer Lane"/><tag k="addr:housenumber" v="6211"/><tag k="addr:postcode" v="78729"/></node><node id="-11" lat="30.438514" lon="-97.734361" changeset="false"><tag k="addr:street" v="Legendary Drive"/><tag k="addr:housenumber" v="13401"/><tag k="addr:postcode" v="78727"/></node><node id="-12" lat="30.448284" lon="-97.748068" changeset="false"><tag k="addr:street" v="Luckenbach Lane"/><tag k="addr:housenumber" v="6814"/><tag k="addr:postcode" v="78729"/></node><node id="-13" lat="30.446982" lon="-97.74554" changeset="false"><tag k="addr:street" v="Luckenbach Lane"/><tag k="addr:housenumber" v="6509"/><tag k="addr:postcode" v="78729"/></node><node id="-14" lat="30.4353" lon="-97.730394" changeset="false"><tag k="addr:street" v="Legendary Drive"/><tag k="addr:housenumber" v="13021"/><tag k="addr:postcode" v="78727"/></node><node id="-15" lat="30.447375" lon="-97.746342" changeset="false"><tag k="addr:street" v="Shiner Street"/><tag k="addr:housenumber" v="6606"/><tag k="addr:postcode" v="78729"/></node><node id="-16" lat="30.44197" lon="-97.750408" changeset="false"><tag k="addr:street" v="Corpus Christi Drive"/><tag k="addr:housenumber" v="6750"/><tag k="addr:postcode" v="78729"/></node><node id="-17" lat="30.441082" lon="-97.753782" changeset="false"><tag k="addr:street" v="Dakota Lane"/><tag k="addr:housenumber" v="12728"/><tag k="addr:postcode" v="78729"/></node><node id="-18" lat="30.447935" lon="-97.745768" changeset="false"><tag k="addr:street" v="Luckenbach Lane"/><tag k="addr:housenumber" v="6606"/><tag k="addr:postcode" v="78729"/></node><node id="-19" lat="30.448766" lon="-97.747278" changeset="false"><tag k="addr:street" v="Luckenbach Lane"/><tag k="addr:housenumber" v="6804"/><tag k="addr:postcode" v="78729"/></node><node id="-20" lat="30.443349" lon="-97.744345" changeset="false"><tag k="addr:street" v="Marble Falls Cove"/><tag k="addr:housenumber" v="13103"/><tag k="addr:postcode" v="78729"/></node><node id="-21" lat="30.443961" lon="-97.743186" changeset="false"><tag k="addr:street" v="West Parmer Lane"/><tag k="addr:housenumber" v="6107"/><tag k="addr:postcode" v="78729"/></node><node id="-22" lat="30.442838" lon="-97.74612" changeset="false"><tag k="addr:street" v="Crowley Trail"/><tag k="addr:housenumber" v="6407"/><tag k="addr:postcode" v="78729"/></node><node id="-23" lat="30.447579" lon="-97.74545" changeset="false"><tag k="addr:street" v="Luckenbach Lane"/><tag k="addr:housenumber" v="6600"/><tag k="addr:postcode" v="78729"/></node><node id="-24" lat="30.447818" lon="-97.745663" changeset="false"><tag k="addr:street" v="Luckenbach Lane"/><tag k="addr:housenumber" v="6604"/><tag k="addr:postcode" v="78729"/></node><node id="-25" lat="30.44901" lon="-97.746965" changeset="false"><tag k="addr:street" v="Luckenbach Lane"/><tag k="addr:housenumber" v="6800"/><tag k="addr:postcode" v="78729"/></node><node id="-26" lat="30.44201" lon="-97.748058" changeset="false"><tag k="addr:street" v="Amarillo Avenue"/><tag k="addr:housenumber" v="13000"/><tag k="addr:postcode" v="78729"/></node><node id="-27" lat="30.447419" lon="-97.748695" changeset="false"><tag k="addr:street" v="Kerrville Folkway"/><tag k="addr:housenumber" v="13224"/><tag k="addr:postcode" v="78729"/></node><node id="-28" lat="30.442264" lon="-97.74767" changeset="false"><tag k="addr:street" v="Crowley Trail"/><tag k="addr:housenumber" v="6507"/><tag k="addr:postcode" v="78729"/></node><node id="-29" lat="30.440711" lon="-97.753624" changeset="false"><tag k="addr:street" v="Dakota Lane"/><tag k="addr:housenumber" v="12716"/><tag k="addr:postcode" v="78729"/></node><node id="-30" lat="30.442976" lon="-97.745767" changeset="false"><tag k="addr:street" v="Crowley Trail"/><tag k="addr:housenumber" v="6403"/><tag k="addr:postcode" v="78729"/></node><node id="-31" lat="30.442315" lon="-97.752671" changeset="false"><tag k="addr:street" v="Bancroft Woods Cove"/><tag k="addr:housenumber" v="12809"/><tag k="addr:postcode" v="78729"/></node><node id="-32" lat="30.440178" lon="-97.739291" changeset="false"><tag k="addr:street" v="West Parmer Lane"/><tag k="addr:housenumber" v="5820 1/2"/><tag k="addr:postcode" v="78727"/></node><node id="-33" lat="30.447566" lon="-97.748762" changeset="false"><tag k="addr:street" v="Kerrville Folkway"/><tag k="addr:housenumber" v="13226"/><tag k="addr:postcode" v="78729"/></node><node id="-34" lat="30.446797" lon="-97.74648" changeset="false"><tag k="addr:street" v="Shiner Street"/><tag k="addr:housenumber" v="6603"/><tag k="addr:postcode" v="78729"/></node><node id="-35" lat="30.437428" lon="-97.735468" changeset="false"><tag k="addr:street" v="West Parmer Lane"/><tag k="addr:housenumber" v="5522 1/2"/><tag k="addr:postcode" v="78727"/></node><node id="-36" lat="30.448309" lon="-97.74618" changeset="false"><tag k="addr:street" v="Luckenbach Lane"/><tag k="addr:housenumber" v="6700"/><tag k="addr:postcode" v="78729"/></node><node id="-37" lat="30.448148" lon="-97.749084" changeset="false"><tag k="addr:street" v="Kerrville Folkway"/><tag k="addr:housenumber" v="13234"/><tag k="addr:postcode" v="78729"/></node><node id="-38" lat="30.446392" lon="-97.745074" changeset="false"><tag k="addr:street" v="Luckenbach Lane"/><tag k="addr:housenumber" v="6501"/><tag k="addr:postcode" v="78729"/></node><node id="-39" lat="30.447891" lon="-97.748922" changeset="false"><tag k="addr:street" v="Kerrville Folkway"/><tag k="addr:housenumber" v="13230"/><tag k="addr:postcode" v="78729"/></node><node id="-40" lat="30.448382" lon="-97.747882" changeset="false"><tag k="addr:street" v="Luckenbach Lane"/><tag k="addr:housenumber" v="6812"/><tag k="addr:postcode" v="78729"/></node><node id="-41" lat="30.446553" lon="-97.746254" changeset="false"><tag k="addr:street" v="Shiner Street"/><tag k="addr:housenumber" v="6507"/><tag k="addr:postcode" v="78729"/></node><node id="-42" lat="30.445315" lon="-97.743707" changeset="false"><tag k="addr:street" v="West Parmer Lane"/><tag k="addr:housenumber" v="6301"/><tag k="addr:postcode" v="78729"/></node><node id="-43" lat="30.448845" lon="-97.746684" changeset="false"><tag k="addr:street" v="Luckenbach Lane"/><tag k="addr:housenumber" v="6708"/><tag k="addr:postcode" v="78729"/></node><node id="-44" lat="30.448025" lon="-97.748985" changeset="false"><tag k="addr:street" v="Kerrville Folkway"/><tag k="addr:housenumber" v="13232"/><tag k="addr:postcode" v="78729"/></node><node id="-45" lat="30.436696" lon="-97.734233" changeset="false"><tag k="addr:street" v="West Parmer Lane"/><tag k="addr:housenumber" v="5404"/><tag k="addr:postcode" v="78727"/></node><node id="-46" lat="30.436428" lon="-97.733406" changeset="false"><tag k="addr:street" v="West Parmer Lane"/><tag k="addr:housenumber" v="5400"/><tag k="addr:postcode" v="78727"/></node><node id="-47" lat="30.446677" lon="-97.746393" changeset="false"><tag k="addr:street" v="Shiner Street"/><tag k="addr:housenumber" v="6601"/><tag k="addr:postcode" v="78729"/></node><node id="-48" lat="30.44227" lon="-97.751409" changeset="false"><tag k="addr:street" v="Bancroft Woods Drive"/><tag k="addr:housenumber" v="6717"/><tag k="addr:postcode" v="78729"/></node><node id="-49" lat="30.446096" lon="-97.747888" changeset="false"><tag k="addr:street" v="Kerrville Folkway"/><tag k="addr:housenumber" v="13208"/><tag k="addr:postcode" v="78729"/></node><node id="-50" lat="30.439253" lon="-97.737259" changeset="false"><tag k="addr:street" v="West Parmer Lane"/><tag k="addr:housenumber" v="5708"/><tag k="addr:postcode" v="78727"/></node><node id="-51" lat="30.448667" lon="-97.747437" changeset="false"><tag k="addr:street" v="Luckenbach Lane"/><tag k="addr:housenumber" v="6806"/><tag k="addr:postcode" v="78729"/></node><node id="-52" lat="30.448587" lon="-97.746425" changeset="false"><tag k="addr:street" v="Luckenbach Lane"/><tag k="addr:housenumber" v="6704"/><tag k="addr:postcode" v="78729"/></node><node id="-53" lat="30.448577" lon="-97.747597" changeset="false"><tag k="addr:street" v="Luckenbach Lane"/><tag k="addr:housenumber" v="6808"/><tag k="addr:postcode" v="78729"/></node><node id="-54" lat="30.44453" lon="-97.743278" changeset="false"><tag k="addr:street" v="West Parmer Lane"/><tag k="addr:housenumber" v="6201"/><tag k="addr:postcode" v="78729"/></node><node id="-55" lat="30.447092" lon="-97.748542" changeset="false"><tag k="addr:street" v="Kerrville Folkway"/><tag k="addr:housenumber" v="13220"/><tag k="addr:postcode" v="78729"/></node><node id="-56" lat="30.446721" lon="-97.745312" changeset="false"><tag k="addr:street" v="Luckenbach Lane"/><tag k="addr:housenumber" v="6505"/><tag k="addr:postcode" v="78729"/></node><node id="-57" lat="30.448452" lon="-97.746316" changeset="false"><tag k="addr:street" v="Luckenbach Lane"/><tag k="addr:housenumber" v="6702"/><tag k="addr:postcode" v="78729"/></node><node id="-58" lat="30.448475" lon="-97.74773" changeset="false"><tag k="addr:street" v="Luckenbach Lane"/><tag k="addr:housenumber" v="6810"/><tag k="addr:postcode" v="78729"/></node><node id="-59" lat="30.447244" lon="-97.748602" changeset="false"><tag k="addr:street" v="Kerrville Folkway"/><tag k="addr:housenumber" v="13222"/><tag k="addr:postcode" v="78729"/></node><node id="-60" lat="30.4489" lon="-97.747129" changeset="false"><tag k="addr:street" v="Luckenbach Lane"/><tag k="addr:housenumber" v="6802"/><tag k="addr:postcode" v="78729"/></node><node id="-61" lat="30.437358" lon="-97.735197" changeset="false"><tag k="addr:street" v="West Parmer Lane"/><tag k="addr:housenumber" v="5520"/><tag k="addr:postcode" v="78727"/></node><node id="-62" lat="30.448197" lon="-97.748251" changeset="false"><tag k="addr:street" v="Luckenbach Lane"/><tag k="addr:housenumber" v="6816"/><tag k="addr:postcode" v="78729"/></node><node id="-63" lat="30.446856" lon="-97.745423" changeset="false"><tag k="addr:street" v="Luckenbach Lane"/><tag k="addr:housenumber" v="6507"/><tag k="addr:postcode" v="78729"/></node><node id="-64" lat="30.444486" lon="-97.750001" changeset="false"><tag k="addr:street" v="Corpus Christi Drive"/><tag k="addr:housenumber" v="6720"/><tag k="addr:postcode" v="78729"/></node><node id="-65" lat="30.435531" lon="-97.730469" changeset="false"><tag k="addr:street" v="Legendary Drive"/><tag k="addr:housenumber" v="13023 1/2"/><tag k="addr:postcode" v="78727"/></node></osm>