<?xml version="1.0" encoding="UTF-8"?><osm version="0.6" generator="github.com/aaronlidman/osm-and-geojson"><node id="-1" lat="30.260182" lon="-97.696389" changeset="false"><tag k="addr:street" v="Mansell Avenue"/><tag k="addr:housenumber" v="909"/></node><node id="-2" lat="30.252314" lon="-97.699373" changeset="false"><tag k="addr:street" v="East 5th Street"/><tag k="addr:housenumber" v="5005"/></node><node id="-3" lat="30.254436" lon="-97.692067" changeset="false"><tag k="addr:street" v="Airport Boulevard"/><tag k="addr:housenumber" v="771"/></node><node id="-4" lat="30.251319" lon="-97.6836" changeset="false"><tag k="addr:street" v="Ed Bluestein Boulevard"/><tag k="addr:housenumber" v="828"/></node><node id="-5" lat="30.258306" lon="-97.691436" changeset="false"><tag k="addr:street" v="Bolm Road"/><tag k="addr:housenumber" v="5305"/></node><node id="-6" lat="30.252354" lon="-97.69913" changeset="false"><tag k="addr:street" v="East 5th Street"/><tag k="addr:housenumber" v="5009"/></node><node id="-7" lat="30.25223" lon="-97.703215" changeset="false"><tag k="addr:street" v="East Cesar Chavez Street"/><tag k="addr:housenumber" v="4620"/></node><node id="-8" lat="30.255564" lon="-97.699562" changeset="false"><tag k="addr:street" v="Mansell Avenue"/><tag k="addr:housenumber" v="644"/></node><node id="-9" lat="30.257975" lon="-97.694657" changeset="false"><tag k="addr:street" v="Shady Lane"/><tag k="addr:housenumber" v="916"/></node><node id="-10" lat="30.255487" lon="-97.699067" changeset="false"><tag k="addr:street" v="Mansell Avenue"/><tag k="addr:housenumber" v="647"/></node><node id="-11" lat="30.256828" lon="-97.700063" changeset="false"><tag k="addr:street" v="Gonzales Street"/><tag k="addr:housenumber" v="4608"/></node><node id="-12" lat="30.261008" lon="-97.697894" changeset="false"><tag k="addr:street" v="Bolm Road"/><tag k="addr:housenumber" v="4607"/></node><node id="-13" lat="30.260321" lon="-97.698723" changeset="false"><tag k="addr:street" v="Lyons Road"/><tag k="addr:housenumber" v="4601"/></node><node id="-14" lat="30.253425" lon="-97.701067" changeset="false"><tag k="addr:street" v="East 5th Street"/><tag k="addr:housenumber" v="4704"/></node><node id="-15" lat="30.260848" lon="-97.698387" changeset="false"><tag k="addr:street" v="Springdale Road"/><tag k="addr:housenumber" v="903"/></node><node id="-16" lat="30.253992" lon="-97.693768" changeset="false"><tag k="addr:street" v="Airport Boulevard"/><tag k="addr:housenumber" v="740"/></node><node id="-17" lat="30.256849" lon="-97.7008" changeset="false"><tag k="addr:street" v="Springdale Road"/><tag k="addr:housenumber" v="723"/></node><node id="-18" lat="30.257478" lon="-97.698375" changeset="false"><tag k="addr:street" v="Glissman Road"/><tag k="addr:housenumber" v="4707"/></node><node id="-19" lat="30.25884" lon="-97.69439" changeset="false"><tag k="addr:street" v="Shady Lane"/><tag k="addr:housenumber" v="924"/></node><node id="-20" lat="30.252903" lon="-97.700011" changeset="false"><tag k="addr:street" v="East 5th Street"/><tag k="addr:housenumber" v="4924"/></node><node id="-21" lat="30.252427" lon="-97.684465" changeset="false"><tag k="addr:street" v="Interchange Boulevard"/><tag k="addr:housenumber" v="825"/></node><node id="-22" lat="30.258562" lon="-97.693003" changeset="false"><tag k="addr:street" v="Airport Boulevard"/><tag k="addr:housenumber" v="851 1/2"/></node><node id="-23" lat="30.255545" lon="-97.692505" changeset="false"><tag k="addr:street" v="Airport Boulevard"/><tag k="addr:housenumber" v="813"/></node><node id="-24" lat="30.250154" lon="-97.69892" changeset="false"><tag k="addr:street" v="Red Bluff Road"/><tag k="addr:housenumber" v="5017"/></node><node id="-25" lat="30.254782" lon="-97.686236" changeset="false"><tag k="addr:street" v="Gardner Road"/><tag k="addr:housenumber" v="902"/></node><node id="-26" lat="30.255823" lon="-97.698792" changeset="false"><tag k="addr:street" v="Gonzales Street"/><tag k="addr:housenumber" v="4803"/></node><node id="-27" lat="30.252338" lon="-97.697835" changeset="false"><tag k="addr:street" v="East 5th Street"/><tag k="addr:housenumber" v="5100"/></node><node id="-28" lat="30.256667" lon="-97.687478" changeset="false"><tag k="addr:street" v="Bolm Road"/><tag k="addr:housenumber" v="5801"/></node><node id="-29" lat="30.256288" lon="-97.68659" changeset="false"><tag k="addr:street" v="Bolm Road"/><tag k="addr:housenumber" v="5901"/></node><node id="-30" lat="30.255527" lon="-97.698444" changeset="false"><tag k="addr:street" v="Gonzales Street"/><tag k="addr:housenumber" v="4813"/></node><node id="-31" lat="30.255571" lon="-97.701664" changeset="false"><tag k="addr:street" v="Springdale Road"/><tag k="addr:housenumber" v="611"/></node><node id="-32" lat="30.255873" lon="-97.685726" changeset="false"><tag k="addr:street" v="Bolm Road"/><tag k="addr:housenumber" v="6001"/></node><node id="-33" lat="30.250161" lon="-97.697362" changeset="false"><tag k="addr:street" v="Strandtman Cove"/><tag k="addr:housenumber" v="20"/></node><node id="-34" lat="30.256129" lon="-97.695233" changeset="false"><tag k="addr:street" v="Glissman Road"/><tag k="addr:housenumber" v="5105"/></node><node id="-35" lat="30.250629" lon="-97.701084" changeset="false"><tag k="addr:street" v="Red Bluff Road"/><tag k="addr:housenumber" v="4813"/></node><node id="-36" lat="30.251702" lon="-97.684567" changeset="false"><tag k="addr:street" v="Interchange Boulevard"/><tag k="addr:housenumber" v="811"/></node><node id="-37" lat="30.253232" lon="-97.697468" changeset="false"><tag k="addr:street" v="Shady Lane"/><tag k="addr:housenumber" v="605"/></node><node id="-38" lat="30.252941" lon="-97.700117" changeset="false"><tag k="addr:street" v="East 5th Street"/><tag k="addr:housenumber" v="4912"/></node><node id="-39" lat="30.249366" lon="-97.696022" changeset="false"><tag k="addr:street" v="Strandtman Cove"/><tag k="addr:housenumber" v="21"/></node><node id="-40" lat="30.257324" lon="-97.70061" changeset="false"><tag k="addr:street" v="Springdale Road"/><tag k="addr:housenumber" v="731"/></node><node id="-41" lat="30.247087" lon="-97.692476" changeset="false"><tag k="addr:street" v="Levander Loop"/><tag k="addr:housenumber" v="5827"/></node><node id="-42" lat="30.255174" lon="-97.692146" changeset="false"><tag k="addr:street" v="Glissman Road"/><tag k="addr:housenumber" v="5416"/></node><node id="-43" lat="30.253089" lon="-97.695973" changeset="false"><tag k="addr:street" v="East 7th Street"/><tag k="addr:housenumber" v="5206"/></node><node id="-44" lat="30.259525" lon="-97.69331" changeset="false"><tag k="addr:street" v="Bolm Road"/><tag k="addr:housenumber" v="5107 1/2"/></node><node id="-45" lat="30.260981" lon="-97.698327" changeset="false"><tag k="addr:street" v="Springdale Road"/><tag k="addr:housenumber" v="917"/></node><node id="-46" lat="30.260861" lon="-97.694625" changeset="false"><tag k="addr:street" v="Bolm Road"/><tag k="addr:housenumber" v="4906"/></node><node id="-47" lat="30.254292" lon="-97.697877" changeset="false"><tag k="addr:street" v="East 7th Street"/><tag k="addr:housenumber" v="5012"/></node><node id="-48" lat="30.261157" lon="-97.697646" changeset="false"><tag k="addr:street" v="Bolm Road"/><tag k="addr:housenumber" v="4609"/></node><node id="-49" lat="30.260038" lon="-97.696474" changeset="false"><tag k="addr:street" v="Mansell Avenue"/><tag k="addr:housenumber" v="907"/></node><node id="-50" lat="30.258052" lon="-97.690614" changeset="false"><tag k="addr:street" v="Bolm Road"/><tag k="addr:housenumber" v="5405"/></node><node id="-51" lat="30.256497" lon="-97.69856" changeset="false"><tag k="addr:street" v="Mansell Avenue"/><tag k="addr:housenumber" v="739 1/2"/></node><node id="-52" lat="30.250988" lon="-97.696957" changeset="false"><tag k="addr:street" v="East Cesar Chavez Street"/><tag k="addr:housenumber" v="5217"/></node><node id="-53" lat="30.254115" lon="-97.68452" changeset="false"><tag k="addr:street" v="Interchange Boulevard"/><tag k="addr:housenumber" v="845"/></node><node id="-54" lat="30.256007" lon="-97.699468" changeset="false"><tag k="addr:street" v="Gonzales Street"/><tag k="addr:housenumber" v="4709"/></node><node id="-55" lat="30.248584" lon="-97.693329" changeset="false"><tag k="addr:street" v="Julieanna Cove"/><tag k="addr:housenumber" v="21"/></node><node id="-56" lat="30.248665" lon="-97.69289" changeset="false"><tag k="addr:street" v="Julieanna Cove"/><tag k="addr:housenumber" v="41"/></node><node id="-57" lat="30.255759" lon="-97.68549" changeset="false"><tag k="addr:street" v="Bolm Road"/><tag k="addr:housenumber" v="6011"/></node><node id="-58" lat="30.251758" lon="-97.69702" changeset="false"><tag k="addr:street" v="East 5th Street"/><tag k="addr:housenumber" v="5200"/></node><node id="-59" lat="30.251689" lon="-97.695746" changeset="false"><tag k="addr:street" v="East 7th Street"/><tag k="addr:housenumber" v="5201"/></node><node id="-60" lat="30.252511" lon="-97.682504" changeset="false"><tag k="addr:street" v="Ed Bluestein Boulevard"/><tag k="addr:housenumber" v="850"/></node><node id="-61" lat="30.252047" lon="-97.698685" changeset="false"><tag k="addr:street" v="Shady Lane"/><tag k="addr:housenumber" v="408"/></node><node id="-62" lat="30.257551" lon="-97.695214" changeset="false"><tag k="addr:street" v="Shady Lane"/><tag k="addr:housenumber" v="914"/></node><node id="-63" lat="30.259435" lon="-97.694013" changeset="false"><tag k="addr:street" v="Airport Boulevard"/><tag k="addr:housenumber" v="1008"/></node><node id="-64" lat="30.259637" lon="-97.693953" changeset="false"><tag k="addr:street" v="Airport Boulevard"/><tag k="addr:housenumber" v="1024"/></node><node id="-65" lat="30.25472" lon="-97.69911" changeset="false"><tag k="addr:street" v="East 7th Street"/><tag k="addr:housenumber" v="4820"/></node><node id="-66" lat="30.256865" lon="-97.688198" changeset="false"><tag k="addr:street" v="Bolm Road"/><tag k="addr:housenumber" v="5705"/></node><node id="-67" lat="30.259845" lon="-97.697859" changeset="false"><tag k="addr:street" v="Lyons Road"/><tag k="addr:housenumber" v="4611"/></node><node id="-68" lat="30.25486" lon="-97.684094" changeset="false"><tag k="addr:street" v="Bolm Road"/><tag k="addr:housenumber" v="6201"/></node><node id="-69" lat="30.251486" lon="-97.685624" changeset="false"><tag k="addr:street" v="Interchange Boulevard"/><tag k="addr:housenumber" v="800"/></node><node id="-70" lat="30.253839" lon="-97.697732" changeset="false"><tag k="addr:street" v="East 7th Street"/><tag k="addr:housenumber" v="5020"/></node><node id="-71" lat="30.253078" lon="-97.685046" changeset="false"><tag k="addr:street" v="Interchange Boulevard"/><tag k="addr:housenumber" v="840"/></node><node id="-72" lat="30.253283" lon="-97.681802" changeset="false"><tag k="addr:street" v="Ed Bluestein Boulevard"/><tag k="addr:housenumber" v="900"/></node><node id="-73" lat="30.255903" lon="-97.698956" changeset="false"><tag k="addr:street" v="Gonzales Street"/><tag k="addr:housenumber" v="4801"/></node><node id="-74" lat="30.259262" lon="-97.693239" changeset="false"><tag k="addr:street" v="Airport Boulevard"/><tag k="addr:housenumber" v="863"/></node><node id="-75" lat="30.256748" lon="-97.687708" changeset="false"><tag k="addr:street" v="Bolm Road"/><tag k="addr:housenumber" v="5717"/></node><node id="-76" lat="30.250448" lon="-97.700265" changeset="false"><tag k="addr:street" v="Red Bluff Road"/><tag k="addr:housenumber" v="5001"/></node><node id="-77" lat="30.260305" lon="-97.696331" changeset="false"><tag k="addr:street" v="Mansell Avenue"/><tag k="addr:housenumber" v="911"/></node><node id="-78" lat="30.253746" lon="-97.702971" changeset="false"><tag k="addr:street" v="Springdale Road"/><tag k="addr:housenumber" v="405"/></node><node id="-79" lat="30.250236" lon="-97.699222" changeset="false"><tag k="addr:street" v="Red Bluff Road"/><tag k="addr:housenumber" v="5013"/></node><node id="-80" lat="30.251583" lon="-97.69893" changeset="false"><tag k="addr:street" v="East Cesar Chavez Street"/><tag k="addr:housenumber" v="5020"/></node><node id="-81" lat="30.255262" lon="-97.6925" changeset="false"><tag k="addr:street" v="Airport Boulevard"/><tag k="addr:housenumber" v="801"/></node><node id="-82" lat="30.251337" lon="-97.683526" changeset="false"><tag k="addr:street" v="Ed Bluestein Boulevard"/><tag k="addr:housenumber" v="830"/></node><node id="-83" lat="30.258982" lon="-97.693142" changeset="false"><tag k="addr:street" v="Airport Boulevard"/><tag k="addr:housenumber" v="853"/></node><node id="-84" lat="30.257537" lon="-97.690816" changeset="false"><tag k="addr:street" v="Koerner Lane"/><tag k="addr:housenumber" v="910"/></node><node id="-85" lat="30.249986" lon="-97.695471" changeset="false"><tag k="addr:street" v="Strandtman Cove"/><tag k="addr:housenumber" v="41"/></node><node id="-86" lat="30.253356" lon="-97.697391" changeset="false"><tag k="addr:street" v="Shady Lane"/><tag k="addr:housenumber" v="703"/></node><node id="-87" lat="30.260419" lon="-97.69626" changeset="false"><tag k="addr:street" v="Mansell Avenue"/><tag k="addr:housenumber" v="913"/></node><node id="-88" lat="30.250997" lon="-97.69698" changeset="false"><tag k="addr:street" v="East Cesar Chavez Street"/><tag k="addr:housenumber" v="5215"/></node><node id="-89" lat="30.250922" lon="-97.697062" changeset="false"><tag k="addr:street" v="East Cesar Chavez Street"/><tag k="addr:housenumber" v="5201"/></node><node id="-90" lat="30.255801" lon="-97.700658" changeset="false"><tag k="addr:street" v="East 7th Street"/><tag k="addr:housenumber" v="4618"/></node><node id="-91" lat="30.250882" lon="-97.697682" changeset="false"><tag k="addr:street" v="East Cesar Chavez Street"/><tag k="addr:housenumber" v="5117"/></node><node id="-92" lat="30.257886" lon="-97.694719" changeset="false"><tag k="addr:street" v="Shady Lane"/><tag k="addr:housenumber" v="912"/></node><node id="-93" lat="30.248697" lon="-97.693549" changeset="false"><tag k="addr:street" v="Julieanna Cove"/><tag k="addr:housenumber" v="11"/></node><node id="-94" lat="30.253315" lon="-97.701987" changeset="false"><tag k="addr:street" v="East 5th Street"/><tag k="addr:housenumber" v="4715"/></node><node id="-95" lat="30.250518" lon="-97.700703" changeset="false"><tag k="addr:street" v="Red Bluff Road"/><tag k="addr:housenumber" v="4903"/></node><node id="-96" lat="30.257004" lon="-97.698316" changeset="false"><tag k="addr:street" v="Mansell Avenue"/><tag k="addr:housenumber" v="745"/></node><node id="-97" lat="30.257459" lon="-97.700522" changeset="false"><tag k="addr:street" v="Springdale Road"/><tag k="addr:housenumber" v="735"/></node><node id="-98" lat="30.252779" lon="-97.693218" changeset="false"><tag k="addr:street" v="Airport Boulevard"/><tag k="addr:housenumber" v="720"/></node><node id="-99" lat="30.253119" lon="-97.692625" changeset="false"><tag k="addr:street" v="Airport Boulevard"/><tag k="addr:housenumber" v="700"/></node><node id="-100" lat="30.260872" lon="-97.69583" changeset="false"><tag k="addr:street" v="Bolm Road"/><tag k="addr:housenumber" v="4809"/></node><node id="-101" lat="30.253927" lon="-97.692988" changeset="false"><tag k="addr:street" v="Airport Boulevard"/><tag k="addr:housenumber" v="750"/></node><node id="-102" lat="30.25356" lon="-97.701842" changeset="false"><tag k="addr:street" v="East 5th Street"/><tag k="addr:housenumber" v="4716"/></node><node id="-103" lat="30.260546" lon="-97.696177" changeset="false"><tag k="addr:street" v="Mansell Avenue"/><tag k="addr:housenumber" v="915"/></node><node id="-104" lat="30.255846" lon="-97.693765" changeset="false"><tag k="addr:street" v="Glissman Road"/><tag k="addr:housenumber" v="5206"/></node><node id="-105" lat="30.251648" lon="-97.696442" changeset="false"><tag k="addr:street" v="East 5th Street"/><tag k="addr:housenumber" v="5214"/></node><node id="-106" lat="30.257203" lon="-97.700618" changeset="false"><tag k="addr:street" v="Gonzales Street"/><tag k="addr:housenumber" v="4600"/></node><node id="-107" lat="30.251395" lon="-97.690429" changeset="false"><tag k="addr:street" v="Levander Loop"/><tag k="addr:housenumber" v="7201"/></node><node id="-108" lat="30.255671" lon="-97.693161" changeset="false"><tag k="addr:street" v="Airport Boulevard"/><tag k="addr:housenumber" v="812"/></node><node id="-109" lat="30.252124" lon="-97.703873" changeset="false"><tag k="addr:street" v="East Cesar Chavez Street"/><tag k="addr:housenumber" v="4600"/></node><node id="-110" lat="30.258606" lon="-97.693686" changeset="false"><tag k="addr:street" v="Airport Boulevard"/><tag k="addr:housenumber" v="850"/></node><node id="-111" lat="30.256863" lon="-97.691216" changeset="false"><tag k="addr:street" v="Koerner Lane"/><tag k="addr:housenumber" v="900"/></node><node id="-112" lat="30.255311" lon="-97.701961" changeset="false"><tag k="addr:street" v="Springdale Road"/><tag k="addr:housenumber" v="609"/></node><node id="-113" lat="30.25655" lon="-97.693359" changeset="false"><tag k="addr:street" v="Airport Boulevard"/><tag k="addr:housenumber" v="826"/></node><node id="-114" lat="30.254948" lon="-97.699445" changeset="false"><tag k="addr:street" v="East 7th Street"/><tag k="addr:housenumber" v="4812"/></node><node id="-115" lat="30.253461" lon="-97.696955" changeset="false"><tag k="addr:street" v="East 7th Street"/><tag k="addr:housenumber" v="5100"/></node><node id="-116" lat="30.261509" lon="-97.695758" changeset="false"><tag k="addr:street" v="Bolm Road"/><tag k="addr:housenumber" v="4712"/></node><node id="-117" lat="30.257076" lon="-97.700488" changeset="false"><tag k="addr:street" v="Gonzales Street"/><tag k="addr:housenumber" v="4602"/></node><node id="-118" lat="30.258571" lon="-97.691383" changeset="false"><tag k="addr:street" v="Bolm Road"/><tag k="addr:housenumber" v="5307"/></node><node id="-119" lat="30.259456" lon="-97.693144" changeset="false"><tag k="addr:street" v="Bolm Road"/><tag k="addr:housenumber" v="5115"/></node><node id="-120" lat="30.254908" lon="-97.692579" changeset="false"><tag k="addr:street" v="Glissman Road"/><tag k="addr:housenumber" v="5419"/></node><node id="-121" lat="30.251976" lon="-97.701147" changeset="false"><tag k="addr:street" v="East Cesar Chavez Street"/><tag k="addr:housenumber" v="4826"/></node><node id="-122" lat="30.258371" lon="-97.693633" changeset="false"><tag k="addr:street" v="Airport Boulevard"/><tag k="addr:housenumber" v="844"/></node><node id="-123" lat="30.2524" lon="-97.699889" changeset="false"><tag k="addr:street" v="Spencer Lane"/><tag k="addr:housenumber" v="417"/></node><node id="-124" lat="30.254105" lon="-97.686259" changeset="false"><tag k="addr:street" v="Gardner Road"/><tag k="addr:housenumber" v="900"/></node><node id="-125" lat="30.255737" lon="-97.698631" changeset="false"><tag k="addr:street" v="Gonzales Street"/><tag k="addr:housenumber" v="4805"/></node><node id="-126" lat="30.256468" lon="-97.6873" changeset="false"><tag k="addr:street" v="Bolm Road"/><tag k="addr:housenumber" v="5817"/></node><node id="-127" lat="30.255244" lon="-97.699249" changeset="false"><tag k="addr:street" v="Mansell Avenue"/><tag k="addr:housenumber" v="643"/></node><node id="-128" lat="30.258513" lon="-97.699592" changeset="false"><tag k="addr:street" v="Springdale Road"/><tag k="addr:housenumber" v="801"/></node><node id="-129" lat="30.258746" lon="-97.699733" changeset="false"><tag k="addr:street" v="Springdale Road"/><tag k="addr:housenumber" v="811"/></node><node id="-130" lat="30.252226" lon="-97.696821" changeset="false"><tag k="addr:street" v="East 7th Street"/><tag k="addr:housenumber" v="5119"/></node><node id="-131" lat="30.25206" lon="-97.696499" changeset="false"><tag k="addr:street" v="East 7th Street"/><tag k="addr:housenumber" v="5121"/></node><node id="-132" lat="30.251845" lon="-97.697173" changeset="false"><tag k="addr:street" v="East 5th Street"/><tag k="addr:housenumber" v="5130"/></node><node id="-133" lat="30.25197" lon="-97.697296" changeset="false"><tag k="addr:street" v="East 5th Street"/><tag k="addr:housenumber" v="5126"/></node><node id="-134" lat="30.25105" lon="-97.700197" changeset="false"><tag k="addr:street" v="East Cesar Chavez Street"/><tag k="addr:housenumber" v="5007"/></node><node id="-135" lat="30.251236" lon="-97.700162" changeset="false"><tag k="addr:street" v="East Cesar Chavez Street"/><tag k="addr:housenumber" v="5005"/></node><node id="-136" lat="30.251771" lon="-97.699452" changeset="false"><tag k="addr:street" v="East Cesar Chavez Street"/><tag k="addr:housenumber" v="5014"/></node><node id="-137" lat="30.251657" lon="-97.699427" changeset="false"><tag k="addr:street" v="East Cesar Chavez Street"/><tag k="addr:housenumber" v="5016"/></node><node id="-138" lat="30.252904" lon="-97.702593" changeset="false"><tag k="addr:street" v="East 5th Street"/><tag k="addr:housenumber" v="4711"/></node><node id="-139" lat="30.25316" lon="-97.702492" changeset="false"><tag k="addr:street" v="East 5th Street"/><tag k="addr:housenumber" v="4709"/></node><node id="-140" lat="30.251283" lon="-97.700723" changeset="false"><tag k="addr:street" v="East Cesar Chavez Street"/><tag k="addr:housenumber" v="4925"/></node><node id="-141" lat="30.251322" lon="-97.70092" changeset="false"><tag k="addr:street" v="East Cesar Chavez Street"/><tag k="addr:housenumber" v="4909"/></node><node id="-142" lat="30.251519" lon="-97.704159" changeset="false"><tag k="addr:street" v="Red Bluff Road"/><tag k="addr:housenumber" v="4601"/></node><node id="-143" lat="30.251591" lon="-97.704341" changeset="false"><tag k="addr:street" v="East Cesar Chavez Street"/><tag k="addr:housenumber" v="3519"/></node></osm>