<?xml version="1.0" encoding="UTF-8"?><osm version="0.6" generator="github.com/aaronlidman/osm-and-geojson"><node id="-1" lat="30.237587" lon="-97.747196" changeset="false"><tag k="addr:street" v="Alta Vista Avenue"/><tag k="addr:housenumber" v="2218"/><tag k="addr:postcode" v="78704"/></node><node id="-2" lat="30.238403" lon="-97.752591" changeset="false"><tag k="addr:street" v="East Oltorf Street"/><tag k="addr:housenumber" v="210"/><tag k="addr:postcode" v="78704"/></node><node id="-3" lat="30.238676" lon="-97.753022" changeset="false"><tag k="addr:street" v="East Oltorf Street"/><tag k="addr:housenumber" v="106"/><tag k="addr:postcode" v="78704"/></node><node id="-4" lat="30.238653" lon="-97.752984" changeset="false"><tag k="addr:street" v="East Oltorf Street"/><tag k="addr:housenumber" v="112"/><tag k="addr:postcode" v="78704"/></node><node id="-5" lat="30.237945" lon="-97.751961" changeset="false"><tag k="addr:street" v="East Oltorf Street"/><tag k="addr:housenumber" v="308"/><tag k="addr:postcode" v="78704"/></node><node id="-6" lat="30.240906" lon="-97.750593" changeset="false"><tag k="addr:street" v="East Live Oak Street"/><tag k="addr:housenumber" v="303"/><tag k="addr:postcode" v="78704"/></node><node id="-7" lat="30.240468" lon="-97.75212" changeset="false"><tag k="addr:street" v="Post Road"/><tag k="addr:housenumber" v="2219"/><tag k="addr:postcode" v="78704"/></node><node id="-8" lat="30.235794" lon="-97.743119" changeset="false"><tag k="addr:street" v="East Live Oak Street"/><tag k="addr:housenumber" v="1213"/><tag k="addr:postcode" v="78704"/></node><node id="-9" lat="30.234943" lon="-97.74374" changeset="false"><tag k="addr:street" v="Schriber Street"/><tag k="addr:housenumber" v="2212"/><tag k="addr:postcode" v="78704"/></node><node id="-10" lat="30.238691" lon="-97.753046" changeset="false"><tag k="addr:street" v="East Oltorf Street"/><tag k="addr:housenumber" v="102"/><tag k="addr:postcode" v="78704"/></node><node id="-11" lat="30.238411" lon="-97.752603" changeset="false"><tag k="addr:street" v="East Oltorf Street"/><tag k="addr:housenumber" v="208"/><tag k="addr:postcode" v="78704"/></node><node id="-12" lat="30.237906" lon="-97.751899" changeset="false"><tag k="addr:street" v="East Oltorf Street"/><tag k="addr:housenumber" v="318"/><tag k="addr:postcode" v="78704"/></node><node id="-13" lat="30.23796" lon="-97.751986" changeset="false"><tag k="addr:street" v="East Oltorf Street"/><tag k="addr:housenumber" v="304"/><tag k="addr:postcode" v="78704"/></node><node id="-14" lat="30.237929" lon="-97.751936" changeset="false"><tag k="addr:street" v="East Oltorf Street"/><tag k="addr:housenumber" v="312"/><tag k="addr:postcode" v="78704"/></node><node id="-15" lat="30.237922" lon="-97.751924" changeset="false"><tag k="addr:street" v="East Oltorf Street"/><tag k="addr:housenumber" v="314"/><tag k="addr:postcode" v="78704"/></node><node id="-16" lat="30.235869" lon="-97.74332" changeset="false"><tag k="addr:street" v="East Live Oak Street"/><tag k="addr:housenumber" v="1207"/><tag k="addr:postcode" v="78704"/></node><node id="-17" lat="30.240035" lon="-97.75158" changeset="false"><tag k="addr:street" v="Post Road"/><tag k="addr:housenumber" v="2215"/><tag k="addr:postcode" v="78704"/></node><node id="-18" lat="30.237502" lon="-97.75" changeset="false"><tag k="addr:street" v="Rebel Road"/><tag k="addr:housenumber" v="2315"/><tag k="addr:postcode" v="78704"/></node><node id="-19" lat="30.236997" lon="-97.749157" changeset="false"><tag k="addr:street" v="East Oltorf Street"/><tag k="addr:housenumber" v="620"/><tag k="addr:postcode" v="78704"/></node><node id="-20" lat="30.237899" lon="-97.751887" changeset="false"><tag k="addr:street" v="East Oltorf Street"/><tag k="addr:housenumber" v="320"/><tag k="addr:postcode" v="78704"/></node><node id="-21" lat="30.239353" lon="-97.752986" changeset="false"><tag k="addr:street" v="South Congress Avenue"/><tag k="addr:housenumber" v="2315"/><tag k="addr:postcode" v="78704"/></node><node id="-22" lat="30.237188" lon="-97.750118" changeset="false"><tag k="addr:street" v="East Oltorf Street"/><tag k="addr:housenumber" v="526"/><tag k="addr:postcode" v="78704"/></node><node id="-23" lat="30.237914" lon="-97.751911" changeset="false"><tag k="addr:street" v="East Oltorf Street"/><tag k="addr:housenumber" v="316"/><tag k="addr:postcode" v="78704"/></node><node id="-24" lat="30.235629" lon="-97.74331" changeset="false"><tag k="addr:street" v="Schriber Street"/><tag k="addr:housenumber" v="2202"/><tag k="addr:postcode" v="78704"/></node><node id="-25" lat="30.239515" lon="-97.747476" changeset="false"><tag k="addr:street" v="East Live Oak Street"/><tag k="addr:housenumber" v="601"/><tag k="addr:postcode" v="78704"/></node><node id="-26" lat="30.238426" lon="-97.752628" changeset="false"><tag k="addr:street" v="East Oltorf Street"/><tag k="addr:housenumber" v="204"/><tag k="addr:postcode" v="78704"/></node><node id="-27" lat="30.237967" lon="-97.751998" changeset="false"><tag k="addr:street" v="East Oltorf Street"/><tag k="addr:housenumber" v="302"/><tag k="addr:postcode" v="78704"/></node><node id="-28" lat="30.237937" lon="-97.751949" changeset="false"><tag k="addr:street" v="East Oltorf Street"/><tag k="addr:housenumber" v="310"/><tag k="addr:postcode" v="78704"/></node><node id="-29" lat="30.241403" lon="-97.752418" changeset="false"><tag k="addr:street" v="South Congress Avenue"/><tag k="addr:housenumber" v="2205"/><tag k="addr:postcode" v="78704"/></node><node id="-30" lat="30.235055" lon="-97.743673" changeset="false"><tag k="addr:street" v="Schriber Street"/><tag k="addr:housenumber" v="2210"/><tag k="addr:postcode" v="78704"/></node><node id="-31" lat="30.237891" lon="-97.751874" changeset="false"><tag k="addr:street" v="East Oltorf Street"/><tag k="addr:housenumber" v="322"/><tag k="addr:postcode" v="78704"/></node><node id="-32" lat="30.235473" lon="-97.744906" changeset="false"><tag k="addr:street" v="East Oltorf Street"/><tag k="addr:housenumber" v="1102"/><tag k="addr:postcode" v="78704"/></node><node id="-33" lat="30.235431" lon="-97.744826" changeset="false"><tag k="addr:street" v="East Oltorf Street"/><tag k="addr:housenumber" v="1110"/><tag k="addr:postcode" v="78704"/></node><node id="-34" lat="30.235499" lon="-97.743393" changeset="false"><tag k="addr:street" v="Schriber Street"/><tag k="addr:housenumber" v="2204"/><tag k="addr:postcode" v="78704"/></node><node id="-35" lat="30.240811" lon="-97.752438" changeset="false"><tag k="addr:street" v="Post Road"/><tag k="addr:housenumber" v="2218"/><tag k="addr:postcode" v="78704"/></node><node id="-36" lat="30.238684" lon="-97.753034" changeset="false"><tag k="addr:street" v="East Oltorf Street"/><tag k="addr:housenumber" v="104"/><tag k="addr:postcode" v="78704"/></node><node id="-37" lat="30.239472" lon="-97.752931" changeset="false"><tag k="addr:street" v="South Congress Avenue"/><tag k="addr:housenumber" v="2311"/><tag k="addr:postcode" v="78704"/></node><node id="-38" lat="30.238441" lon="-97.752653" changeset="false"><tag k="addr:street" v="East Oltorf Street"/><tag k="addr:housenumber" v="200"/><tag k="addr:postcode" v="78704"/></node><node id="-39" lat="30.238395" lon="-97.752579" changeset="false"><tag k="addr:street" v="East Oltorf Street"/><tag k="addr:housenumber" v="212"/><tag k="addr:postcode" v="78704"/></node><node id="-40" lat="30.240644" lon="-97.749721" changeset="false"><tag k="addr:street" v="East Live Oak Street"/><tag k="addr:housenumber" v="315 1/2"/><tag k="addr:postcode" v="78704"/></node><node id="-41" lat="30.238645" lon="-97.752972" changeset="false"><tag k="addr:street" v="East Oltorf Street"/><tag k="addr:housenumber" v="114"/><tag k="addr:postcode" v="78704"/></node><node id="-42" lat="30.237952" lon="-97.751974" changeset="false"><tag k="addr:street" v="East Oltorf Street"/><tag k="addr:housenumber" v="306"/><tag k="addr:postcode" v="78704"/></node><node id="-43" lat="30.237975" lon="-97.752011" changeset="false"><tag k="addr:street" v="East Oltorf Street"/><tag k="addr:housenumber" v="300"/><tag k="addr:postcode" v="78704"/></node><node id="-44" lat="30.236849" lon="-97.748629" changeset="false"><tag k="addr:street" v="East Side Drive"/><tag k="addr:housenumber" v="2303"/><tag k="addr:postcode" v="78704"/></node><node id="-45" lat="30.240122" lon="-97.748913" changeset="false"><tag k="addr:street" v="East Live Oak Street"/><tag k="addr:housenumber" v="511"/><tag k="addr:postcode" v="78704"/></node><node id="-46" lat="30.238435" lon="-97.746547" changeset="false"><tag k="addr:street" v="Alta Vista Avenue"/><tag k="addr:housenumber" v="2205"/><tag k="addr:postcode" v="78704"/></node><node id="-47" lat="30.238527" lon="-97.746478" changeset="false"><tag k="addr:street" v="Alta Vista Avenue"/><tag k="addr:housenumber" v="2203"/><tag k="addr:postcode" v="78704"/></node><node id="-48" lat="30.236703" lon="-97.747388" changeset="false"><tag k="addr:street" v="Alta Vista Avenue"/><tag k="addr:housenumber" v="2308"/><tag k="addr:postcode" v="78704"/></node><node id="-49" lat="30.236704" lon="-97.747479" changeset="false"><tag k="addr:street" v="East Oltorf Street"/><tag k="addr:housenumber" v="800"/><tag k="addr:postcode" v="78704"/></node><node id="-50" lat="30.237132" lon="-97.749459" changeset="false"><tag k="addr:street" v="East Oltorf Street"/><tag k="addr:housenumber" v="614"/><tag k="addr:postcode" v="78704"/></node><node id="-51" lat="30.237122" lon="-97.749347" changeset="false"><tag k="addr:street" v="East Oltorf Street"/><tag k="addr:housenumber" v="616"/><tag k="addr:postcode" v="78704"/></node><node id="-52" lat="30.240974" lon="-97.752357" changeset="false"><tag k="addr:street" v="South Congress Avenue"/><tag k="addr:housenumber" v="2207"/><tag k="addr:postcode" v="78704"/></node><node id="-53" lat="30.240871" lon="-97.752311" changeset="false"><tag k="addr:street" v="South Congress Avenue"/><tag k="addr:housenumber" v="2209"/><tag k="addr:postcode" v="78704"/></node><node id="-54" lat="30.23872" lon="-97.752245" changeset="false"><tag k="addr:street" v="East Oltorf Street"/><tag k="addr:housenumber" v="120"/><tag k="addr:postcode" v="78704"/></node><node id="-55" lat="30.238769" lon="-97.75234" changeset="false"><tag k="addr:street" v="East Oltorf Street"/><tag k="addr:housenumber" v="118"/><tag k="addr:postcode" v="78704"/></node></osm>