<?xml version="1.0" encoding="UTF-8"?><osm version="0.6" generator="github.com/aaronlidman/osm-and-geojson"><node id="-1" lat="30.458756" lon="-97.631191" changeset="false"><tag k="addr:street" v="Silene Court"/><tag k="addr:housenumber" v="1505"/></node><node id="-2" lat="30.456479" lon="-97.62191" changeset="false"><tag k="addr:street" v="Ruffed Grouse Cove"/><tag k="addr:housenumber" v="1104"/></node><node id="-3" lat="30.456235" lon="-97.633646" changeset="false"><tag k="addr:street" v="Laurelleaf Drive"/><tag k="addr:housenumber" v="1007"/></node><node id="-4" lat="30.453655" lon="-97.629021" changeset="false"><tag k="addr:street" v="Laurel Oak Trail"/><tag k="addr:housenumber" v="1009"/></node><node id="-5" lat="30.457301" lon="-97.632384" changeset="false"><tag k="addr:street" v="Hughmont Drive"/><tag k="addr:housenumber" v="1112"/></node><node id="-6" lat="30.455258" lon="-97.632169" changeset="false"><tag k="addr:street" v="Gazania Drive"/><tag k="addr:housenumber" v="1005"/></node><node id="-7" lat="30.461772" lon="-97.634172" changeset="false"><tag k="addr:street" v="Purple Iris Cove"/><tag k="addr:housenumber" v="1609"/></node><node id="-8" lat="30.449871" lon="-97.638191" changeset="false"><tag k="addr:street" v="North Heatherwilde Boulevard"/><tag k="addr:housenumber" v="305"/></node><node id="-9" lat="30.457737" lon="-97.620747" changeset="false"><tag k="addr:street" v="Golden Eagle Street"/><tag k="addr:housenumber" v="1308"/></node><node id="-10" lat="30.451416" lon="-97.637294" changeset="false"><tag k="addr:street" v="North Heatherwilde Boulevard"/><tag k="addr:housenumber" v="423"/></node><node id="-11" lat="30.451483" lon="-97.637256" changeset="false"><tag k="addr:street" v="North Heatherwilde Boulevard"/><tag k="addr:housenumber" v="425"/></node><node id="-12" lat="30.451671" lon="-97.63713" changeset="false"><tag k="addr:street" v="North Heatherwilde Boulevard"/><tag k="addr:housenumber" v="501"/></node><node id="-13" lat="30.451925" lon="-97.636913" changeset="false"><tag k="addr:street" v="North Heatherwilde Boulevard"/><tag k="addr:housenumber" v="509"/></node><node id="-14" lat="30.452232" lon="-97.636729" changeset="false"><tag k="addr:street" v="North Heatherwilde Boulevard"/><tag k="addr:housenumber" v="519"/></node><node id="-15" lat="30.45799" lon="-97.6314" changeset="false"><tag k="addr:street" v="Mayapple Street"/><tag k="addr:housenumber" v="1505"/></node><node id="-16" lat="30.456316" lon="-97.621621" changeset="false"><tag k="addr:street" v="Golden Eagle Street"/><tag k="addr:housenumber" v="1212"/></node><node id="-17" lat="30.455625" lon="-97.632887" changeset="false"><tag k="addr:street" v="Hughmont Drive"/><tag k="addr:housenumber" v="1005"/></node><node id="-18" lat="30.455983" lon="-97.633821" changeset="false"><tag k="addr:street" v="Laurelleaf Drive"/><tag k="addr:housenumber" v="1003"/></node><node id="-19" lat="30.459549" lon="-97.63094" changeset="false"><tag k="addr:street" v="Blue Willow Court"/><tag k="addr:housenumber" v="1509"/></node><node id="-20" lat="30.456419" lon="-97.62249" changeset="false"><tag k="addr:street" v="Ruffed Grouse Cove"/><tag k="addr:housenumber" v="1107"/></node><node id="-21" lat="30.466607" lon="-97.629688" changeset="false"><tag k="addr:street" v="West Pflugerville Parkway"/><tag k="addr:housenumber" v="419"/></node><node id="-22" lat="30.455618" lon="-97.634834" changeset="false"><tag k="addr:street" v="Pfennig Lane"/><tag k="addr:housenumber" v="1621"/></node><node id="-23" lat="30.45611" lon="-97.624329" changeset="false"><tag k="addr:street" v="Black Locust Drive East,1100"/><tag k="addr:housenumber" v="1007"/></node><node id="-24" lat="30.453299" lon="-97.636058" changeset="false"><tag k="addr:street" v="North Heatherwilde Boulevard"/><tag k="addr:housenumber" v="16701"/></node><node id="-25" lat="30.455769" lon="-97.622344" changeset="false"><tag k="addr:street" v="Ruffed Grouse Cove"/><tag k="addr:housenumber" v="1101"/></node><node id="-26" lat="30.46026" lon="-97.633727" changeset="false"><tag k="addr:street" v="Acanthus Street"/><tag k="addr:housenumber" v="1228"/></node><node id="-27" lat="30.450807" lon="-97.637684" changeset="false"><tag k="addr:street" v="North Heatherwilde Boulevard"/><tag k="addr:housenumber" v="403"/></node><node id="-28" lat="30.451247" lon="-97.6374" changeset="false"><tag k="addr:street" v="North Heatherwilde Boulevard"/><tag k="addr:housenumber" v="417"/></node><node id="-29" lat="30.451351" lon="-97.637335" changeset="false"><tag k="addr:street" v="North Heatherwilde Boulevard"/><tag k="addr:housenumber" v="421"/></node><node id="-30" lat="30.451795" lon="-97.63701" changeset="false"><tag k="addr:street" v="North Heatherwilde Boulevard"/><tag k="addr:housenumber" v="505"/></node><node id="-31" lat="30.45217" lon="-97.636768" changeset="false"><tag k="addr:street" v="North Heatherwilde Boulevard"/><tag k="addr:housenumber" v="517"/></node><node id="-32" lat="30.456686" lon="-97.631239" changeset="false"><tag k="addr:street" v="Gazania Drive"/><tag k="addr:housenumber" v="1113"/></node><node id="-33" lat="30.456352" lon="-97.631494" changeset="false"><tag k="addr:street" v="Gazania Drive"/><tag k="addr:housenumber" v="1107"/></node><node id="-34" lat="30.457584" lon="-97.620866" changeset="false"><tag k="addr:street" v="Golden Eagle Street"/><tag k="addr:housenumber" v="1306"/></node><node id="-35" lat="30.459928" lon="-97.63272" changeset="false"><tag k="addr:street" v="Acanthus Street"/><tag k="addr:housenumber" v="1241"/></node><node id="-36" lat="30.44802" lon="-97.638044" changeset="false"><tag k="addr:street" v="West Pecan Street"/><tag k="addr:housenumber" v="1602"/></node><node id="-37" lat="30.461464" lon="-97.630701" changeset="false"><tag k="addr:street" v="Bergamont Drive"/><tag k="addr:housenumber" v="1520"/></node><node id="-38" lat="30.456935" lon="-97.634108" changeset="false"><tag k="addr:street" v="Acanthus Street"/><tag k="addr:housenumber" v="1015"/></node><node id="-39" lat="30.457788" lon="-97.633637" changeset="false"><tag k="addr:street" v="Acanthus Street"/><tag k="addr:housenumber" v="1113"/></node><node id="-40" lat="30.450435" lon="-97.63796" changeset="false"><tag k="addr:street" v="North Heatherwilde Boulevard"/><tag k="addr:housenumber" v="313"/></node><node id="-41" lat="30.450754" lon="-97.637715" changeset="false"><tag k="addr:street" v="North Heatherwilde Boulevard"/><tag k="addr:housenumber" v="401"/></node><node id="-42" lat="30.451109" lon="-97.637488" changeset="false"><tag k="addr:street" v="North Heatherwilde Boulevard"/><tag k="addr:housenumber" v="413"/></node><node id="-43" lat="30.45185" lon="-97.636971" changeset="false"><tag k="addr:street" v="North Heatherwilde Boulevard"/><tag k="addr:housenumber" v="507"/></node><node id="-44" lat="30.456484" lon="-97.633489" changeset="false"><tag k="addr:street" v="Laurelleaf Drive"/><tag k="addr:housenumber" v="1011"/></node><node id="-45" lat="30.448811" lon="-97.63863" changeset="false"><tag k="addr:street" v="North Heatherwilde Boulevard"/><tag k="addr:housenumber" v="201"/></node><node id="-46" lat="30.450599" lon="-97.637864" changeset="false"><tag k="addr:street" v="North Heatherwilde Boulevard"/><tag k="addr:housenumber" v="319"/></node><node id="-47" lat="30.451317" lon="-97.637367" changeset="false"><tag k="addr:street" v="North Heatherwilde Boulevard"/><tag k="addr:housenumber" v="419"/></node><node id="-48" lat="30.451991" lon="-97.636888" changeset="false"><tag k="addr:street" v="North Heatherwilde Boulevard"/><tag k="addr:housenumber" v="511"/></node><node id="-49" lat="30.452332" lon="-97.636682" changeset="false"><tag k="addr:street" v="North Heatherwilde Boulevard"/><tag k="addr:housenumber" v="523"/></node><node id="-50" lat="30.457683" lon="-97.630623" changeset="false"><tag k="addr:street" v="Gazania Drive"/><tag k="addr:housenumber" v="1211"/></node><node id="-51" lat="30.455577" lon="-97.633451" changeset="false"><tag k="addr:street" v="Hughmont Drive"/><tag k="addr:housenumber" v="1000"/></node><node id="-52" lat="30.457404" lon="-97.620968" changeset="false"><tag k="addr:street" v="Golden Eagle Street"/><tag k="addr:housenumber" v="1304"/></node><node id="-53" lat="30.447954" lon="-97.637473" changeset="false"><tag k="addr:street" v="West Pecan Street"/><tag k="addr:housenumber" v="1600"/></node><node id="-54" lat="30.45173" lon="-97.637049" changeset="false"><tag k="addr:street" v="North Heatherwilde Boulevard"/><tag k="addr:housenumber" v="503"/></node><node id="-55" lat="30.452092" lon="-97.636818" changeset="false"><tag k="addr:street" v="North Heatherwilde Boulevard"/><tag k="addr:housenumber" v="515"/></node><node id="-56" lat="30.452464" lon="-97.636626" changeset="false"><tag k="addr:street" v="North Heatherwilde Boulevard"/><tag k="addr:housenumber" v="527"/></node><node id="-57" lat="30.455802" lon="-97.625395" changeset="false"><tag k="addr:street" v="Black Locust Drive East,1100"/><tag k="addr:housenumber" v="1019"/></node><node id="-58" lat="30.451168" lon="-97.637446" changeset="false"><tag k="addr:street" v="North Heatherwilde Boulevard"/><tag k="addr:housenumber" v="415"/></node><node id="-59" lat="30.452291" lon="-97.636697" changeset="false"><tag k="addr:street" v="North Heatherwilde Boulevard"/><tag k="addr:housenumber" v="521"/></node><node id="-60" lat="30.457091" lon="-97.622127" changeset="false"><tag k="addr:street" v="Fox Sparrow Cove"/><tag k="addr:housenumber" v="1109"/></node><node id="-61" lat="30.457626" lon="-97.632116" changeset="false"><tag k="addr:street" v="Hughmont Drive"/><tag k="addr:housenumber" v="1200"/></node><node id="-62" lat="30.450496" lon="-97.637919" changeset="false"><tag k="addr:street" v="North Heatherwilde Boulevard"/><tag k="addr:housenumber" v="315"/></node><node id="-63" lat="30.450867" lon="-97.637649" changeset="false"><tag k="addr:street" v="North Heatherwilde Boulevard"/><tag k="addr:housenumber" v="405"/></node><node id="-64" lat="30.451053" lon="-97.637525" changeset="false"><tag k="addr:street" v="North Heatherwilde Boulevard"/><tag k="addr:housenumber" v="411"/></node><node id="-65" lat="30.452037" lon="-97.636855" changeset="false"><tag k="addr:street" v="North Heatherwilde Boulevard"/><tag k="addr:housenumber" v="513"/></node><node id="-66" lat="30.457102" lon="-97.623909" changeset="false"><tag k="addr:street" v="Black Locust Drive East,1100"/><tag k="addr:housenumber" v="1010"/></node><node id="-67" lat="30.456192" lon="-97.621778" changeset="false"><tag k="addr:street" v="Golden Eagle Street"/><tag k="addr:housenumber" v="1210"/></node><node id="-68" lat="30.457183" lon="-97.630939" changeset="false"><tag k="addr:street" v="Gazania Drive"/><tag k="addr:housenumber" v="1203"/></node><node id="-69" lat="30.456471" lon="-97.62154" changeset="false"><tag k="addr:street" v="Golden Eagle Street"/><tag k="addr:housenumber" v="1214"/></node><node id="-70" lat="30.45706" lon="-97.631023" changeset="false"><tag k="addr:street" v="Gazania Drive"/><tag k="addr:housenumber" v="1201"/></node><node id="-71" lat="30.459187" lon="-97.632684" changeset="false"><tag k="addr:street" v="Laurelleaf Drive"/><tag k="addr:housenumber" v="1220"/></node><node id="-72" lat="30.455846" lon="-97.631766" changeset="false"><tag k="addr:street" v="Gazania Drive"/><tag k="addr:housenumber" v="1015"/></node><node id="-73" lat="30.450543" lon="-97.637889" changeset="false"><tag k="addr:street" v="North Heatherwilde Boulevard"/><tag k="addr:housenumber" v="317"/></node><node id="-74" lat="30.450923" lon="-97.637611" changeset="false"><tag k="addr:street" v="North Heatherwilde Boulevard"/><tag k="addr:housenumber" v="407"/></node><node id="-75" lat="30.450996" lon="-97.637556" changeset="false"><tag k="addr:street" v="North Heatherwilde Boulevard"/><tag k="addr:housenumber" v="409"/></node><node id="-76" lat="30.452399" lon="-97.636655" changeset="false"><tag k="addr:street" v="North Heatherwilde Boulevard"/><tag k="addr:housenumber" v="525"/></node><node id="-77" lat="30.461371" lon="-97.630457" changeset="false"><tag k="addr:street" v="Bergamont Drive"/><tag k="addr:housenumber" v="1518"/></node><node id="-78" lat="30.462032" lon="-97.623578" changeset="false"><tag k="addr:street" v="East Pflugerville Parkway"/><tag k="addr:housenumber" v="409"/></node><node id="-79" lat="30.456219" lon="-97.631559" changeset="false"><tag k="addr:street" v="Gazania Drive"/><tag k="addr:housenumber" v="1105"/></node><node id="-80" lat="30.460272" lon="-97.633405" changeset="false"><tag k="addr:street" v="Acanthus Street"/><tag k="addr:housenumber" v="1232"/></node><node id="-81" lat="30.456687" lon="-97.634256" changeset="false"><tag k="addr:street" v="Acanthus Street"/><tag k="addr:housenumber" v="1011"/></node><node id="-82" lat="30.459837" lon="-97.633518" changeset="false"><tag k="addr:street" v="Acanthus Street"/><tag k="addr:housenumber" v="1231"/></node><node id="-83" lat="30.459896" lon="-97.633041" changeset="false"><tag k="addr:street" v="Acanthus Street"/><tag k="addr:housenumber" v="1237"/></node><node id="-84" lat="30.456523" lon="-97.629625" changeset="false"><tag k="addr:street" v="Pear Court"/><tag k="addr:housenumber" v="1406"/></node><node id="-85" lat="30.456582" lon="-97.634343" changeset="false"><tag k="addr:street" v="Acanthus Street"/><tag k="addr:housenumber" v="1009"/></node><node id="-86" lat="30.45368" lon="-97.628924" changeset="false"><tag k="addr:street" v="Laurel Oak Trail"/><tag k="addr:housenumber" v="1011"/></node></osm>