<?xml version="1.0" encoding="UTF-8"?><osm version="0.6" generator="github.com/aaronlidman/osm-and-geojson"><node id="-1" lat="30.471523" lon="-97.777939" changeset="false"><tag k="addr:street" v="Beauchamp Square"/><tag k="addr:housenumber" v="9704"/><tag k="addr:postcode" v="78729"/></node><node id="-2" lat="30.463737" lon="-97.761821" changeset="false"><tag k="addr:street" v="Harrier Drive"/><tag k="addr:housenumber" v="8508"/><tag k="addr:postcode" v="78729"/></node><node id="-3" lat="30.46323" lon="-97.762378" changeset="false"><tag k="addr:street" v="Red Egret Drive"/><tag k="addr:housenumber" v="13508"/><tag k="addr:postcode" v="78729"/></node><node id="-4" lat="30.46264" lon="-97.762139" changeset="false"><tag k="addr:street" v="Piping Plover Drive"/><tag k="addr:housenumber" v="13512"/><tag k="addr:postcode" v="78729"/></node><node id="-5" lat="30.46281" lon="-97.761778" changeset="false"><tag k="addr:street" v="Piping Plover Drive"/><tag k="addr:housenumber" v="13524"/><tag k="addr:postcode" v="78729"/></node><node id="-6" lat="30.462967" lon="-97.761536" changeset="false"><tag k="addr:street" v="Harrier Drive"/><tag k="addr:housenumber" v="8400"/><tag k="addr:postcode" v="78729"/></node><node id="-7" lat="30.462693" lon="-97.762014" changeset="false"><tag k="addr:street" v="Piping Plover Drive"/><tag k="addr:housenumber" v="13516"/><tag k="addr:postcode" v="78729"/></node><node id="-8" lat="30.463754" lon="-97.762126" changeset="false"><tag k="addr:street" v="Night Heron Drive"/><tag k="addr:housenumber" v="13525"/><tag k="addr:postcode" v="78729"/></node><node id="-9" lat="30.46211" lon="-97.764072" changeset="false"><tag k="addr:street" v="White Ibis Drive"/><tag k="addr:housenumber" v="8516"/><tag k="addr:postcode" v="78729"/></node><node id="-10" lat="30.462277" lon="-97.763795" changeset="false"><tag k="addr:street" v="White Ibis Drive"/><tag k="addr:housenumber" v="8521"/><tag k="addr:postcode" v="78729"/></node><node id="-11" lat="30.463784" lon="-97.762684" changeset="false"><tag k="addr:street" v="Night Heron Drive"/><tag k="addr:housenumber" v="13508"/><tag k="addr:postcode" v="78729"/></node><node id="-12" lat="30.464705" lon="-97.762705" changeset="false"><tag k="addr:street" v="Rock Pigeon Drive"/><tag k="addr:housenumber" v="8605"/><tag k="addr:postcode" v="78729"/></node><node id="-13" lat="30.468027" lon="-97.77068" changeset="false"><tag k="addr:street" v="Amberglen Boulevard"/><tag k="addr:housenumber" v="9205"/><tag k="addr:postcode" v="78729"/></node><node id="-14" lat="30.462183" lon="-97.763748" changeset="false"><tag k="addr:street" v="White Ibis Drive"/><tag k="addr:housenumber" v="8517"/><tag k="addr:postcode" v="78729"/></node><node id="-15" lat="30.463257" lon="-97.764257" changeset="false"><tag k="addr:street" v="Night Heron Drive"/><tag k="addr:housenumber" v="13400"/><tag k="addr:postcode" v="78729"/></node><node id="-16" lat="30.463416" lon="-97.763777" changeset="false"><tag k="addr:street" v="Night Heron Drive"/><tag k="addr:housenumber" v="13416"/><tag k="addr:postcode" v="78729"/></node><node id="-17" lat="30.462908" lon="-97.764047" changeset="false"><tag k="addr:street" v="White Ibis Drive"/><tag k="addr:housenumber" v="8545"/><tag k="addr:postcode" v="78729"/></node><node id="-18" lat="30.463513" lon="-97.763448" changeset="false"><tag k="addr:street" v="Night Heron Drive"/><tag k="addr:housenumber" v="13428"/><tag k="addr:postcode" v="78729"/></node><node id="-19" lat="30.465514" lon="-97.760247" changeset="false"><tag k="addr:street" v="West Parmer Lane"/><tag k="addr:housenumber" v="8609"/><tag k="addr:postcode" v="78729"/></node><node id="-20" lat="30.472934" lon="-97.770805" changeset="false"><tag k="addr:street" v="Briarwick Drive"/><tag k="addr:housenumber" v="13658"/><tag k="addr:postcode" v="78729"/></node><node id="-21" lat="30.463418" lon="-97.76202" changeset="false"><tag k="addr:street" v="Red Egret Drive"/><tag k="addr:housenumber" v="13520"/><tag k="addr:postcode" v="78729"/></node><node id="-22" lat="30.469871" lon="-97.766422" changeset="false"><tag k="addr:street" v="Amberglen Boulevard"/><tag k="addr:housenumber" v="9001"/><tag k="addr:postcode" v="78729"/></node><node id="-23" lat="30.463282" lon="-97.761302" changeset="false"><tag k="addr:street" v="Harrier Drive"/><tag k="addr:housenumber" v="8409"/><tag k="addr:postcode" v="78729"/></node><node id="-24" lat="30.461896" lon="-97.762673" changeset="false"><tag k="addr:street" v="Little Gull Drive"/><tag k="addr:housenumber" v="13429"/><tag k="addr:postcode" v="78729"/></node><node id="-25" lat="30.462252" lon="-97.762171" changeset="false"><tag k="addr:street" v="Piping Plover Drive"/><tag k="addr:housenumber" v="13505"/><tag k="addr:postcode" v="78729"/></node><node id="-26" lat="30.463626" lon="-97.761781" changeset="false"><tag k="addr:street" v="Harrier Drive"/><tag k="addr:housenumber" v="8504"/><tag k="addr:postcode" v="78729"/></node><node id="-27" lat="30.464008" lon="-97.762244" changeset="false"><tag k="addr:street" v="Night Heron Drive"/><tag k="addr:housenumber" v="13524"/><tag k="addr:postcode" v="78729"/></node><node id="-28" lat="30.46363" lon="-97.762354" changeset="false"><tag k="addr:street" v="Night Heron Drive"/><tag k="addr:housenumber" v="13517"/><tag k="addr:postcode" v="78729"/></node><node id="-29" lat="30.465223" lon="-97.761112" changeset="false"><tag k="addr:street" v="Sage Grouse Drive"/><tag k="addr:housenumber" v="13700"/><tag k="addr:postcode" v="78729"/></node><node id="-30" lat="30.46346" lon="-97.764706" changeset="false"><tag k="addr:street" v="White Ibis Drive"/><tag k="addr:housenumber" v="8616"/><tag k="addr:postcode" v="78729"/></node><node id="-31" lat="30.462082" lon="-97.763709" changeset="false"><tag k="addr:street" v="White Ibis Drive"/><tag k="addr:housenumber" v="8513"/><tag k="addr:postcode" v="78729"/></node><node id="-32" lat="30.462699" lon="-97.763978" changeset="false"><tag k="addr:street" v="White Ibis Drive"/><tag k="addr:housenumber" v="8537"/><tag k="addr:postcode" v="78729"/></node><node id="-33" lat="30.462396" lon="-97.763837" changeset="false"><tag k="addr:street" v="White Ibis Drive"/><tag k="addr:housenumber" v="8525"/><tag k="addr:postcode" v="78729"/></node><node id="-34" lat="30.46249" lon="-97.763876" changeset="false"><tag k="addr:street" v="White Ibis Drive"/><tag k="addr:housenumber" v="8529"/><tag k="addr:postcode" v="78729"/></node><node id="-35" lat="30.468851" lon="-97.778993" changeset="false"><tag k="addr:street" v="Braes Valley Street"/><tag k="addr:housenumber" v="9700"/><tag k="addr:postcode" v="78729"/></node><node id="-36" lat="30.462818" lon="-97.778094" changeset="false"><tag k="addr:street" v="Meadowheath Drive"/><tag k="addr:housenumber" v="9402"/><tag k="addr:postcode" v="78729"/></node><node id="-37" lat="30.462941" lon="-97.762266" changeset="false"><tag k="addr:street" v="Red Egret Drive"/><tag k="addr:housenumber" v="13509"/><tag k="addr:postcode" v="78729"/></node><node id="-38" lat="30.463008" lon="-97.762154" changeset="false"><tag k="addr:street" v="Red Egret Drive"/><tag k="addr:housenumber" v="13513"/><tag k="addr:postcode" v="78729"/></node><node id="-39" lat="30.463087" lon="-97.762046" changeset="false"><tag k="addr:street" v="Red Egret Drive"/><tag k="addr:housenumber" v="13517"/><tag k="addr:postcode" v="78729"/></node><node id="-40" lat="30.463089" lon="-97.761579" changeset="false"><tag k="addr:street" v="Harrier Drive"/><tag k="addr:housenumber" v="8404"/><tag k="addr:postcode" v="78729"/></node><node id="-41" lat="30.462487" lon="-97.762385" changeset="false"><tag k="addr:street" v="Wood Stork Drive"/><tag k="addr:housenumber" v="8505"/><tag k="addr:postcode" v="78729"/></node><node id="-42" lat="30.46278" lon="-97.762491" changeset="false"><tag k="addr:street" v="Wood Stork Drive"/><tag k="addr:housenumber" v="8517"/><tag k="addr:postcode" v="78729"/></node><node id="-43" lat="30.463416" lon="-97.762785" changeset="false"><tag k="addr:street" v="Wood Stork Drive"/><tag k="addr:housenumber" v="8613"/><tag k="addr:postcode" v="78729"/></node><node id="-44" lat="30.462544" lon="-97.764267" changeset="false"><tag k="addr:street" v="White Ibis Drive"/><tag k="addr:housenumber" v="8532"/><tag k="addr:postcode" v="78729"/></node><node id="-45" lat="30.462324" lon="-97.764178" changeset="false"><tag k="addr:street" v="White Ibis Drive"/><tag k="addr:housenumber" v="8524"/><tag k="addr:postcode" v="78729"/></node><node id="-46" lat="30.463442" lon="-97.763669" changeset="false"><tag k="addr:street" v="Night Heron Drive"/><tag k="addr:housenumber" v="13420"/><tag k="addr:postcode" v="78729"/></node><node id="-47" lat="30.465924" lon="-97.767914" changeset="false"><tag k="addr:street" v="Briarwick Drive"/><tag k="addr:housenumber" v="13400"/><tag k="addr:postcode" v="78729"/></node><node id="-48" lat="30.46355" lon="-97.763339" changeset="false"><tag k="addr:street" v="Night Heron Drive"/><tag k="addr:housenumber" v="13432"/><tag k="addr:postcode" v="78729"/></node><node id="-49" lat="30.463957" lon="-97.762341" changeset="false"><tag k="addr:street" v="Night Heron Drive"/><tag k="addr:housenumber" v="13520"/><tag k="addr:postcode" v="78729"/></node><node id="-50" lat="30.463297" lon="-97.762244" changeset="false"><tag k="addr:street" v="Red Egret Drive"/><tag k="addr:housenumber" v="13512"/><tag k="addr:postcode" v="78729"/></node><node id="-51" lat="30.461815" lon="-97.762932" changeset="false"><tag k="addr:street" v="Little Gull Drive"/><tag k="addr:housenumber" v="13421"/><tag k="addr:postcode" v="78729"/></node><node id="-52" lat="30.462576" lon="-97.762425" changeset="false"><tag k="addr:street" v="Wood Stork Drive"/><tag k="addr:housenumber" v="8509"/><tag k="addr:postcode" v="78729"/></node><node id="-53" lat="30.463397" lon="-97.761354" changeset="false"><tag k="addr:street" v="Harrier Drive"/><tag k="addr:housenumber" v="8413"/><tag k="addr:postcode" v="78729"/></node><node id="-54" lat="30.464382" lon="-97.762135" changeset="false"><tag k="addr:street" v="Harrier Drive"/><tag k="addr:housenumber" v="8532"/><tag k="addr:postcode" v="78729"/></node><node id="-55" lat="30.462437" lon="-97.761852" changeset="false"><tag k="addr:street" v="Piping Plover Drive"/><tag k="addr:housenumber" v="13517"/><tag k="addr:postcode" v="78729"/></node><node id="-56" lat="30.461973" lon="-97.763658" changeset="false"><tag k="addr:street" v="White Ibis Drive"/><tag k="addr:housenumber" v="8509"/><tag k="addr:postcode" v="78729"/></node><node id="-57" lat="30.463909" lon="-97.76247" changeset="false"><tag k="addr:street" v="Night Heron Drive"/><tag k="addr:housenumber" v="13516"/><tag k="addr:postcode" v="78729"/></node><node id="-58" lat="30.467818" lon="-97.76176" changeset="false"><tag k="addr:street" v="West Parmer Lane"/><tag k="addr:housenumber" v="8701"/><tag k="addr:postcode" v="78729"/></node><node id="-59" lat="30.463291" lon="-97.764148" changeset="false"><tag k="addr:street" v="Night Heron Drive"/><tag k="addr:housenumber" v="13404"/><tag k="addr:postcode" v="78729"/></node><node id="-60" lat="30.462891" lon="-97.762531" changeset="false"><tag k="addr:street" v="Wood Stork Drive"/><tag k="addr:housenumber" v="8521"/><tag k="addr:postcode" v="78729"/></node><node id="-61" lat="30.463282" lon="-97.761659" changeset="false"><tag k="addr:street" v="Harrier Drive"/><tag k="addr:housenumber" v="8412"/><tag k="addr:postcode" v="78729"/></node><node id="-62" lat="30.469816" lon="-97.77951" changeset="false"><tag k="addr:street" v="Quilberry Drive"/><tag k="addr:housenumber" v="9709"/><tag k="addr:postcode" v="78729"/></node><node id="-63" lat="30.469206" lon="-97.770132" changeset="false"><tag k="addr:street" v="Briarwick Drive"/><tag k="addr:housenumber" v="13600"/><tag k="addr:postcode" v="78729"/></node><node id="-64" lat="30.463566" lon="-97.762462" changeset="false"><tag k="addr:street" v="Night Heron Drive"/><tag k="addr:housenumber" v="13513"/><tag k="addr:postcode" v="78729"/></node><node id="-65" lat="30.463687" lon="-97.762238" changeset="false"><tag k="addr:street" v="Night Heron Drive"/><tag k="addr:housenumber" v="13521"/><tag k="addr:postcode" v="78729"/></node><node id="-66" lat="30.462199" lon="-97.762271" changeset="false"><tag k="addr:street" v="Piping Plover Drive"/><tag k="addr:housenumber" v="13501"/><tag k="addr:postcode" v="78729"/></node><node id="-67" lat="30.463729" lon="-97.762805" changeset="false"><tag k="addr:street" v="Night Heron Drive"/><tag k="addr:housenumber" v="13504"/><tag k="addr:postcode" v="78729"/></node><node id="-68" lat="30.465505" lon="-97.76008" changeset="false"><tag k="addr:street" v="Sage Grouse Drive"/><tag k="addr:housenumber" v="13736"/><tag k="addr:postcode" v="78729"/></node><node id="-69" lat="30.4646" lon="-97.762645" changeset="false"><tag k="addr:street" v="Rock Pigeon Drive"/><tag k="addr:housenumber" v="8601"/><tag k="addr:postcode" v="78729"/></node><node id="-70" lat="30.463244" lon="-97.764625" changeset="false"><tag k="addr:street" v="White Ibis Drive"/><tag k="addr:housenumber" v="8608"/><tag k="addr:postcode" v="78729"/></node><node id="-71" lat="30.462642" lon="-97.76431" changeset="false"><tag k="addr:street" v="White Ibis Drive"/><tag k="addr:housenumber" v="8536"/><tag k="addr:postcode" v="78729"/></node><node id="-72" lat="30.462953" lon="-97.764467" changeset="false"><tag k="addr:street" v="White Ibis Drive"/><tag k="addr:housenumber" v="8548"/><tag k="addr:postcode" v="78729"/></node><node id="-73" lat="30.463335" lon="-97.764011" changeset="false"><tag k="addr:street" v="Night Heron Drive"/><tag k="addr:housenumber" v="13408"/><tag k="addr:postcode" v="78729"/></node><node id="-74" lat="30.463372" lon="-97.763894" changeset="false"><tag k="addr:street" v="Night Heron Drive"/><tag k="addr:housenumber" v="13412"/><tag k="addr:postcode" v="78729"/></node><node id="-75" lat="30.462436" lon="-97.764221" changeset="false"><tag k="addr:street" v="White Ibis Drive"/><tag k="addr:housenumber" v="8528"/><tag k="addr:postcode" v="78729"/></node><node id="-76" lat="30.469466" lon="-97.769897" changeset="false"><tag k="addr:street" v="Briarwick Drive"/><tag k="addr:housenumber" v="13607"/><tag k="addr:postcode" v="78729"/></node><node id="-77" lat="30.46902" lon="-97.762161" changeset="false"><tag k="addr:street" v="West Parmer Lane"/><tag k="addr:housenumber" v="8725 1/2"/><tag k="addr:postcode" v="78729"/></node><node id="-78" lat="30.462377" lon="-97.761956" changeset="false"><tag k="addr:street" v="Piping Plover Drive"/><tag k="addr:housenumber" v="13513"/><tag k="addr:postcode" v="78729"/></node><node id="-79" lat="30.462804" lon="-97.764008" changeset="false"><tag k="addr:street" v="White Ibis Drive"/><tag k="addr:housenumber" v="8541"/><tag k="addr:postcode" v="78729"/></node><node id="-80" lat="30.461664" lon="-97.763403" changeset="false"><tag k="addr:street" v="Little Gull Drive"/><tag k="addr:housenumber" v="13405"/><tag k="addr:postcode" v="78729"/></node><node id="-81" lat="30.462602" lon="-97.763927" changeset="false"><tag k="addr:street" v="White Ibis Drive"/><tag k="addr:housenumber" v="8533"/><tag k="addr:postcode" v="78729"/></node><node id="-82" lat="30.461848" lon="-97.762799" changeset="false"><tag k="addr:street" v="Little Gull Drive"/><tag k="addr:housenumber" v="13425"/><tag k="addr:postcode" v="78729"/></node><node id="-83" lat="30.463675" lon="-97.762927" changeset="false"><tag k="addr:street" v="Night Heron Drive"/><tag k="addr:housenumber" v="13500"/><tag k="addr:postcode" v="78729"/></node><node id="-84" lat="30.463854" lon="-97.762575" changeset="false"><tag k="addr:street" v="Night Heron Drive"/><tag k="addr:housenumber" v="13512"/><tag k="addr:postcode" v="78729"/></node><node id="-85" lat="30.46348" lon="-97.76356" changeset="false"><tag k="addr:street" v="Night Heron Drive"/><tag k="addr:housenumber" v="13424"/><tag k="addr:postcode" v="78729"/></node><node id="-86" lat="30.464079" lon="-97.761998" changeset="false"><tag k="addr:street" v="Harrier Drive"/><tag k="addr:housenumber" v="8520"/><tag k="addr:postcode" v="78729"/></node><node id="-87" lat="30.464305" lon="-97.762385" changeset="false"><tag k="addr:street" v="Sage Grouse Drive"/><tag k="addr:housenumber" v="13525"/><tag k="addr:postcode" v="78729"/></node><node id="-88" lat="30.463515" lon="-97.761746" changeset="false"><tag k="addr:street" v="Harrier Drive"/><tag k="addr:housenumber" v="8500"/><tag k="addr:postcode" v="78729"/></node><node id="-89" lat="30.462219" lon="-97.764115" changeset="false"><tag k="addr:street" v="White Ibis Drive"/><tag k="addr:housenumber" v="8520"/><tag k="addr:postcode" v="78729"/></node><node id="-90" lat="30.462858" lon="-97.764404" changeset="false"><tag k="addr:street" v="White Ibis Drive"/><tag k="addr:housenumber" v="8544"/><tag k="addr:postcode" v="78729"/></node><node id="-91" lat="30.463147" lon="-97.761917" changeset="false"><tag k="addr:street" v="Red Egret Drive"/><tag k="addr:housenumber" v="13521"/><tag k="addr:postcode" v="78729"/></node><node id="-92" lat="30.470158" lon="-97.765118" changeset="false"><tag k="addr:street" v="Amberglen Boulevard"/><tag k="addr:housenumber" v="8901"/><tag k="addr:postcode" v="78729"/></node><node id="-93" lat="30.464712" lon="-97.762341" changeset="false"><tag k="addr:street" v="Harrier Drive"/><tag k="addr:housenumber" v="8600"/><tag k="addr:postcode" v="78729"/></node><node id="-94" lat="30.472535" lon="-97.775665" changeset="false"><tag k="addr:street" v="Amberglen Boulevard"/><tag k="addr:housenumber" v="9601 1/2"/><tag k="addr:postcode" v="78729"/></node><node id="-95" lat="30.462676" lon="-97.762465" changeset="false"><tag k="addr:street" v="Wood Stork Drive"/><tag k="addr:housenumber" v="8513"/><tag k="addr:postcode" v="78729"/></node><node id="-96" lat="30.46429" lon="-97.762522" changeset="false"><tag k="addr:street" v="Sage Grouse Drive"/><tag k="addr:housenumber" v="13521"/><tag k="addr:postcode" v="78729"/></node><node id="-97" lat="30.461782" lon="-97.763048" changeset="false"><tag k="addr:street" v="Little Gull Drive"/><tag k="addr:housenumber" v="13417"/><tag k="addr:postcode" v="78729"/></node><node id="-98" lat="30.463352" lon="-97.76468" changeset="false"><tag k="addr:street" v="White Ibis Drive"/><tag k="addr:housenumber" v="8612"/><tag k="addr:postcode" v="78729"/></node><node id="-99" lat="30.461995" lon="-97.76403" changeset="false"><tag k="addr:street" v="White Ibis Drive"/><tag k="addr:housenumber" v="8512"/><tag k="addr:postcode" v="78729"/></node><node id="-100" lat="30.462746" lon="-97.764361" changeset="false"><tag k="addr:street" v="White Ibis Drive"/><tag k="addr:housenumber" v="8540"/><tag k="addr:postcode" v="78729"/></node><node id="-101" lat="30.463354" lon="-97.762141" changeset="false"><tag k="addr:street" v="Red Egret Drive"/><tag k="addr:housenumber" v="13516"/><tag k="addr:postcode" v="78729"/></node><node id="-102" lat="30.462768" lon="-97.761893" changeset="false"><tag k="addr:street" v="Piping Plover Drive"/><tag k="addr:housenumber" v="13520"/><tag k="addr:postcode" v="78729"/></node><node id="-103" lat="30.463193" lon="-97.761623" changeset="false"><tag k="addr:street" v="Harrier Drive"/><tag k="addr:housenumber" v="8408"/><tag k="addr:postcode" v="78729"/></node><node id="-104" lat="30.466525" lon="-97.768647" changeset="false"><tag k="addr:street" v="Briarwick Drive"/><tag k="addr:housenumber" v="13450"/><tag k="addr:postcode" v="78729"/></node><node id="-105" lat="30.471065" lon="-97.77349" changeset="false"><tag k="addr:street" v="Amberglen Boulevard"/><tag k="addr:housenumber" v="9500"/><tag k="addr:postcode" v="78729"/></node><node id="-106" lat="30.463849" lon="-97.761873" changeset="false"><tag k="addr:street" v="Harrier Drive"/><tag k="addr:housenumber" v="8512"/><tag k="addr:postcode" v="78729"/></node><node id="-107" lat="30.472266" lon="-97.775958" changeset="false"><tag k="addr:street" v="Amberglen Boulevard"/><tag k="addr:housenumber" v="9601"/><tag k="addr:postcode" v="78729"/></node><node id="-108" lat="30.46275" lon="-97.778359" changeset="false"><tag k="addr:street" v="Meadowheath Drive"/><tag k="addr:housenumber" v="9404"/><tag k="addr:postcode" v="78729"/></node><node id="-109" lat="30.46787" lon="-97.778316" changeset="false"><tag k="addr:street" v="Effingham Street"/><tag k="addr:housenumber" v="13408"/><tag k="addr:postcode" v="78729"/></node><node id="-110" lat="30.467926" lon="-97.778411" changeset="false"><tag k="addr:street" v="Braes Valley Street"/><tag k="addr:housenumber" v="9601"/><tag k="addr:postcode" v="78729"/></node><node id="-111" lat="30.468683" lon="-97.781026" changeset="false"><tag k="addr:street" v="Wisterwood Street"/><tag k="addr:housenumber" v="13423"/><tag k="addr:postcode" v="78729"/></node><node id="-112" lat="30.468472" lon="-97.780821" changeset="false"><tag k="addr:street" v="Wisterwood Street"/><tag k="addr:housenumber" v="13421"/><tag k="addr:postcode" v="78729"/></node></osm>