<?xml version="1.0" encoding="UTF-8"?><osm version="0.6" generator="github.com/aaronlidman/osm-and-geojson"><node id="-1" lat="30.470061" lon="-97.772999" changeset="false"><tag k="addr:street" v="Amberglen Boulevard"/><tag k="addr:housenumber" v="9400"/><tag k="addr:postcode" v="78729"/></node><node id="-2" lat="30.470842" lon="-97.771246" changeset="false"><tag k="addr:street" v="Briarwick Drive"/><tag k="addr:housenumber" v="13630"/><tag k="addr:postcode" v="78729"/></node><node id="-3" lat="30.471966" lon="-97.771231" changeset="false"><tag k="addr:street" v="Briarwick Drive"/><tag k="addr:housenumber" v="13640"/><tag k="addr:postcode" v="78729"/></node><node id="-4" lat="30.472548" lon="-97.766573" changeset="false"><tag k="addr:street" v="Amberglen Boulevard"/><tag k="addr:housenumber" v="8900"/><tag k="addr:postcode" v="78729"/></node><node id="-5" lat="30.468814" lon="-97.772134" changeset="false"><tag k="addr:street" v="Amberglen Boulevard"/><tag k="addr:housenumber" v="9300"/><tag k="addr:postcode" v="78729"/></node><node id="-6" lat="30.469514" lon="-97.774539" changeset="false"><tag k="addr:street" v="Amberglen Boulevard"/><tag k="addr:housenumber" v="9401"/><tag k="addr:postcode" v="78729"/></node><node id="-7" lat="30.469657" lon="-97.770986" changeset="false"><tag k="addr:street" v="Briarwick Drive"/><tag k="addr:housenumber" v="13620"/><tag k="addr:postcode" v="78729"/></node><node id="-8" lat="30.467964" lon="-97.77388" changeset="false"><tag k="addr:street" v="Amberglen Boulevard"/><tag k="addr:housenumber" v="9301"/><tag k="addr:postcode" v="78729"/></node><node id="-9" lat="30.470781" lon="-97.775236" changeset="false"><tag k="addr:street" v="Amberglen Boulevard"/><tag k="addr:housenumber" v="9501"/><tag k="addr:postcode" v="78729"/></node></osm>