<?xml version="1.0" encoding="UTF-8"?><osm version="0.6" generator="github.com/aaronlidman/osm-and-geojson"><node id="-1" lat="30.3717" lon="-97.756949" changeset="false"><tag k="addr:street" v="Forest Mesa Drive,1100"/><tag k="addr:housenumber" v="8105"/><tag k="coa:place_id" v="168891"/></node><node id="-2" lat="30.367444" lon="-97.746072" changeset="false"><tag k="addr:street" v="Ceberry Drive"/><tag k="addr:housenumber" v="8124"/><tag k="coa:place_id" v="989612"/></node><node id="-3" lat="30.365782" lon="-97.744793" changeset="false"><tag k="addr:street" v="Westchester Avenue"/><tag k="addr:housenumber" v="3524"/><tag k="coa:place_id" v="252367"/></node><node id="-4" lat="30.365279" lon="-97.745747" changeset="false"><tag k="addr:street" v="Westchester Avenue"/><tag k="addr:housenumber" v="3515"/><tag k="coa:place_id" v="582602"/></node><node id="-5" lat="30.363715" lon="-97.748756" changeset="false"><tag k="addr:street" v="Spicewood Springs Road"/><tag k="addr:housenumber" v="3704"/><tag k="coa:place_id" v="143215"/></node><node id="-6" lat="30.370181" lon="-97.747188" changeset="false"><tag k="addr:street" v="Forest Mesa Drive"/><tag k="addr:housenumber" v="8145"/><tag k="coa:place_id" v="424737"/></node><node id="-7" lat="30.371432" lon="-97.747716" changeset="false"><tag k="addr:street" v="East Court"/><tag k="addr:housenumber" v="8111"/><tag k="coa:place_id" v="542276"/></node><node id="-8" lat="30.369811" lon="-97.749168" changeset="false"><tag k="addr:street" v="Crowncrest Drive"/><tag k="addr:housenumber" v="3501"/><tag k="coa:place_id" v="518277"/></node><node id="-9" lat="30.373452" lon="-97.755545" changeset="false"><tag k="addr:street" v="Forest Mesa Drive,1100"/><tag k="addr:housenumber" v="8133"/><tag k="coa:place_id" v="590355"/></node><node id="-10" lat="30.373649" lon="-97.755636" changeset="false"><tag k="addr:street" v="Forest Mesa Drive,1100"/><tag k="addr:housenumber" v="8137"/><tag k="coa:place_id" v="181197"/></node><node id="-11" lat="30.368361" lon="-97.749118" changeset="false"><tag k="addr:street" v="Forest Mesa Drive"/><tag k="addr:housenumber" v="8102"/><tag k="coa:place_id" v="297123"/></node><node id="-12" lat="30.368811" lon="-97.748814" changeset="false"><tag k="addr:street" v="Forest Mesa Drive"/><tag k="addr:housenumber" v="8108"/><tag k="coa:place_id" v="816675"/></node><node id="-13" lat="30.369279" lon="-97.747592" changeset="false"><tag k="addr:street" v="Forest Mesa Drive"/><tag k="addr:housenumber" v="8125"/><tag k="coa:place_id" v="449745"/></node><node id="-14" lat="30.370024" lon="-97.747332" changeset="false"><tag k="addr:street" v="Forest Mesa Drive"/><tag k="addr:housenumber" v="8141"/><tag k="coa:place_id" v="424587"/></node><node id="-15" lat="30.362712" lon="-97.745065" changeset="false"><tag k="addr:street" v="Northforest Drive"/><tag k="addr:housenumber" v="7901"/><tag k="coa:place_id" v="582704"/></node><node id="-16" lat="30.365186" lon="-97.745546" changeset="false"><tag k="addr:street" v="Westchester Avenue"/><tag k="addr:housenumber" v="3513"/><tag k="coa:place_id" v="299500"/></node><node id="-17" lat="30.372012" lon="-97.750591" changeset="false"><tag k="addr:street" v="Greenslope Drive"/><tag k="addr:housenumber" v="8120"/><tag k="coa:place_id" v="3322849"/></node><node id="-18" lat="30.369383" lon="-97.749199" changeset="false"><tag k="addr:street" v="Ceberry Drive"/><tag k="addr:housenumber" v="8152"/><tag k="coa:place_id" v="446133"/></node><node id="-19" lat="30.370948" lon="-97.75016" changeset="false"><tag k="addr:street" v="Greenslope Drive"/><tag k="addr:housenumber" v="8117"/><tag k="coa:place_id" v="538844"/></node><node id="-20" lat="30.37275" lon="-97.753826" changeset="false"><tag k="addr:street" v="Spicewood Lane"/><tag k="addr:housenumber" v="8100"/><tag k="coa:place_id" v="538868"/></node><node id="-21" lat="30.369229" lon="-97.750043" changeset="false"><tag k="addr:street" v="Cardin Drive"/><tag k="addr:housenumber" v="8107"/><tag k="coa:place_id" v="554097"/></node><node id="-22" lat="30.368392" lon="-97.748194" changeset="false"><tag k="addr:street" v="Ceberry Drive"/><tag k="addr:housenumber" v="8140"/><tag k="coa:place_id" v="243673"/></node><node id="-23" lat="30.368223" lon="-97.748694" changeset="false"><tag k="addr:street" v="Forest Mesa Drive"/><tag k="addr:housenumber" v="8105"/><tag k="coa:place_id" v="798819"/></node><node id="-24" lat="30.36873" lon="-97.750118" changeset="false"><tag k="addr:street" v="Cardin Drive"/><tag k="addr:housenumber" v="8103"/><tag k="coa:place_id" v="748149"/></node><node id="-25" lat="30.368535" lon="-97.747543" changeset="false"><tag k="addr:street" v="Ceberry Drive"/><tag k="addr:housenumber" v="8139"/><tag k="coa:place_id" v="241003"/></node><node id="-26" lat="30.367883" lon="-97.746168" changeset="false"><tag k="addr:street" v="Ceberry Drive"/><tag k="addr:housenumber" v="8125"/><tag k="coa:place_id" v="240982"/></node><node id="-27" lat="30.371933" lon="-97.748673" changeset="false"><tag k="addr:street" v="Middle Court"/><tag k="addr:housenumber" v="8110"/><tag k="coa:place_id" v="542534"/></node><node id="-28" lat="30.364784" lon="-97.746724" changeset="false"><tag k="addr:street" v="Havenwood Drive"/><tag k="addr:housenumber" v="8004"/><tag k="coa:place_id" v="582884"/></node><node id="-29" lat="30.368406" lon="-97.749744" changeset="false"><tag k="addr:street" v="Terrina Street"/><tag k="addr:housenumber" v="3702"/><tag k="coa:place_id" v="307204"/></node><node id="-30" lat="30.371095" lon="-97.748329" changeset="false"><tag k="addr:street" v="East Court"/><tag k="addr:housenumber" v="8100"/><tag k="coa:place_id" v="542408"/></node><node id="-31" lat="30.365905" lon="-97.749702" changeset="false"><tag k="addr:street" v="Spicewood Springs Road"/><tag k="addr:housenumber" v="3822"/><tag k="coa:place_id" v="583616"/></node><node id="-32" lat="30.371368" lon="-97.755965" changeset="false"><tag k="addr:street" v="Spicewood Springs Road"/><tag k="addr:housenumber" v="4210"/><tag k="coa:place_id" v="786477"/></node><node id="-33" lat="30.368686" lon="-97.748906" changeset="false"><tag k="addr:street" v="Forest Mesa Drive"/><tag k="addr:housenumber" v="8106"/><tag k="coa:place_id" v="715383"/></node><node id="-34" lat="30.372943" lon="-97.749501" changeset="false"><tag k="addr:street" v="Greenslope Drive"/><tag k="addr:housenumber" v="8142"/><tag k="coa:place_id" v="538340"/></node><node id="-35" lat="30.372881" lon="-97.750023" changeset="false"><tag k="addr:street" v="Steck Avenue"/><tag k="addr:housenumber" v="3819"/><tag k="coa:place_id" v="923258"/></node><node id="-36" lat="30.366216" lon="-97.750083" changeset="false"><tag k="addr:street" v="Spicewood Springs Road"/><tag k="addr:housenumber" v="3834"/><tag k="coa:place_id" v="308144"/></node><node id="-37" lat="30.370742" lon="-97.753281" changeset="false"><tag k="addr:street" v="Meandering Way"/><tag k="addr:housenumber" v="8101"/><tag k="coa:place_id" v="513921"/></node><node id="-38" lat="30.367137" lon="-97.748513" changeset="false"><tag k="addr:street" v="Baywood Drive"/><tag k="addr:housenumber" v="8102 1/2"/><tag k="coa:place_id" v="3283308"/></node><node id="-39" lat="30.370392" lon="-97.74701" changeset="false"><tag k="addr:street" v="Forest Mesa Drive"/><tag k="addr:housenumber" v="8149"/><tag k="coa:place_id" v="514510"/></node><node id="-40" lat="30.370502" lon="-97.755077" changeset="false"><tag k="addr:street" v="Spicewood Springs Road"/><tag k="addr:housenumber" v="4130"/><tag k="coa:place_id" v="564837"/></node><node id="-41" lat="30.371091" lon="-97.755652" changeset="false"><tag k="addr:street" v="Spicewood Springs Road"/><tag k="addr:housenumber" v="4202"/><tag k="coa:place_id" v="93885"/></node><node id="-42" lat="30.368119" lon="-97.74764" changeset="false"><tag k="addr:street" v="Ceberry Drive"/><tag k="addr:housenumber" v="8136"/><tag k="coa:place_id" v="137187"/></node><node id="-43" lat="30.369099" lon="-97.74769" changeset="false"><tag k="addr:street" v="Forest Mesa Drive"/><tag k="addr:housenumber" v="8121"/><tag k="coa:place_id" v="449757"/></node><node id="-44" lat="30.369821" lon="-97.753867" changeset="false"><tag k="addr:street" v="Raintree Place"/><tag k="addr:housenumber" v="8010"/><tag k="coa:place_id" v="785271"/></node><node id="-45" lat="30.372162" lon="-97.748032" changeset="false"><tag k="addr:street" v="Steck Avenue"/><tag k="addr:housenumber" v="3759"/><tag k="coa:place_id" v="244863"/></node><node id="-46" lat="30.37178" lon="-97.756898" changeset="false"><tag k="addr:street" v="Forest Mesa Drive,1100"/><tag k="addr:housenumber" v="8109"/><tag k="coa:place_id" v="192189"/></node><node id="-47" lat="30.373164" lon="-97.754356" changeset="false"><tag k="addr:street" v="Steck Avenue"/><tag k="addr:housenumber" v="4021"/><tag k="coa:place_id" v="189675"/></node><node id="-48" lat="30.372528" lon="-97.751878" changeset="false"><tag k="addr:street" v="Raintree Place"/><tag k="addr:housenumber" v="8122"/><tag k="coa:place_id" v="331989"/></node><node id="-49" lat="30.367019" lon="-97.746957" changeset="false"><tag k="addr:street" v="Summit Bend"/><tag k="addr:housenumber" v="3604"/><tag k="coa:place_id" v="184269"/></node><node id="-50" lat="30.36493" lon="-97.749189" changeset="false"><tag k="addr:street" v="Spicewood Springs Road"/><tag k="addr:housenumber" v="3808"/><tag k="coa:place_id" v="166146"/></node><node id="-51" lat="30.371329" lon="-97.753596" changeset="false"><tag k="addr:street" v="Meandering Way"/><tag k="addr:housenumber" v="8111"/><tag k="coa:place_id" v="100997"/></node><node id="-52" lat="30.370653" lon="-97.747987" changeset="false"><tag k="addr:street" v="South Drive"/><tag k="addr:housenumber" v="3709"/><tag k="coa:place_id" v="262719"/></node><node id="-53" lat="30.367449" lon="-97.748772" changeset="false"><tag k="addr:street" v="Baywood Drive"/><tag k="addr:housenumber" v="8104"/><tag k="coa:place_id" v="242320"/></node><node id="-54" lat="30.370575" lon="-97.749837" changeset="false"><tag k="addr:street" v="Cardin Drive"/><tag k="addr:housenumber" v="8118"/><tag k="coa:place_id" v="692452"/></node><node id="-55" lat="30.367199" lon="-97.7481" changeset="false"><tag k="addr:street" v="Baywood Drive"/><tag k="addr:housenumber" v="8105"/><tag k="coa:place_id" v="242321"/></node><node id="-56" lat="30.366139" lon="-97.743251" changeset="false"><tag k="addr:street" v="North MoPac Expressway"/><tag k="addr:housenumber" v="8100"/><tag k="coa:place_id" v="998984"/></node><node id="-57" lat="30.369579" lon="-97.754249" changeset="false"><tag k="addr:street" v="Raintree Place"/><tag k="addr:housenumber" v="8000"/><tag k="coa:place_id" v="813417"/></node><node id="-58" lat="30.370925" lon="-97.753969" changeset="false"><tag k="addr:street" v="Meandering Way"/><tag k="addr:housenumber" v="8110"/><tag k="coa:place_id" v="502083"/></node><node id="-59" lat="30.367287" lon="-97.741461" changeset="false"><tag k="addr:street" v="Steck Avenue"/><tag k="addr:housenumber" v="3419"/><tag k="coa:place_id" v="519346"/></node><node id="-60" lat="30.372088" lon="-97.749006" changeset="false"><tag k="addr:street" v="West Court"/><tag k="addr:housenumber" v="8111"/><tag k="coa:place_id" v="542600"/></node><node id="-61" lat="30.366566" lon="-97.747013" changeset="false"><tag k="addr:street" v="Summit Bend"/><tag k="addr:housenumber" v="3603"/><tag k="coa:place_id" v="251111"/></node><node id="-62" lat="30.368297" lon="-97.749499" changeset="false"><tag k="addr:street" v="Terrina Street"/><tag k="addr:housenumber" v="3708"/><tag k="coa:place_id" v="251381"/></node><node id="-63" lat="30.370591" lon="-97.747262" changeset="false"><tag k="addr:street" v="Forest Mesa Drive"/><tag k="addr:housenumber" v="8142"/><tag k="coa:place_id" v="419763"/></node><node id="-64" lat="30.367381" lon="-97.744217" changeset="false"><tag k="addr:street" v="North MoPac Expressway"/><tag k="addr:housenumber" v="8140"/><tag k="coa:place_id" v="451545"/></node><node id="-65" lat="30.366485" lon="-97.745691" changeset="false"><tag k="addr:street" v="Sonnet Avenue"/><tag k="addr:housenumber" v="8106"/><tag k="coa:place_id" v="250721"/></node><node id="-66" lat="30.370762" lon="-97.755335" changeset="false"><tag k="addr:street" v="Spicewood Springs Road"/><tag k="addr:housenumber" v="4134"/><tag k="coa:place_id" v="553791"/></node><node id="-67" lat="30.366768" lon="-97.746538" changeset="false"><tag k="addr:street" v="Summit Bend"/><tag k="addr:housenumber" v="3600"/><tag k="coa:place_id" v="583244"/></node><node id="-68" lat="30.366754" lon="-97.746505" changeset="false"><tag k="addr:street" v="Ceberry Drive"/><tag k="addr:housenumber" v="8106"/><tag k="coa:place_id" v="583238"/></node><node id="-69" lat="30.371797" lon="-97.747668" changeset="false"><tag k="addr:street" v="East Court"/><tag k="addr:housenumber" v="8117"/><tag k="coa:place_id" v="542312"/></node><node id="-70" lat="30.371636" lon="-97.747607" changeset="false"><tag k="addr:street" v="East Court"/><tag k="addr:housenumber" v="8115"/><tag k="coa:place_id" v="542300"/></node><node id="-71" lat="30.371584" lon="-97.747775" changeset="false"><tag k="addr:street" v="East Court"/><tag k="addr:housenumber" v="8113"/><tag k="coa:place_id" v="542288"/></node><node id="-72" lat="30.371096" lon="-97.748086" changeset="false"><tag k="addr:street" v="East Court"/><tag k="addr:housenumber" v="8103"/><tag k="coa:place_id" v="542240"/></node><node id="-73" lat="30.37131" lon="-97.747957" changeset="false"><tag k="addr:street" v="East Court"/><tag k="addr:housenumber" v="8107"/><tag k="coa:place_id" v="542264"/></node><node id="-74" lat="30.370916" lon="-97.748031" changeset="false"><tag k="addr:street" v="East Court"/><tag k="addr:housenumber" v="8101"/><tag k="coa:place_id" v="542222"/></node><node id="-75" lat="30.371111" lon="-97.747914" changeset="false"><tag k="addr:street" v="East Court"/><tag k="addr:housenumber" v="8105"/><tag k="coa:place_id" v="542252"/></node><node id="-76" lat="30.371283" lon="-97.748659" changeset="false"><tag k="addr:street" v="Middle Court"/><tag k="addr:housenumber" v="8101"/><tag k="coa:place_id" v="542420"/></node><node id="-77" lat="30.371484" lon="-97.748521" changeset="false"><tag k="addr:street" v="Middle Court"/><tag k="addr:housenumber" v="8105"/><tag k="coa:place_id" v="542432"/></node><node id="-78" lat="30.371496" lon="-97.748728" changeset="false"><tag k="addr:street" v="Middle Court"/><tag k="addr:housenumber" v="8103"/><tag k="coa:place_id" v="542426"/></node><node id="-79" lat="30.37167" lon="-97.74862" changeset="false"><tag k="addr:street" v="Middle Court"/><tag k="addr:housenumber" v="8107"/><tag k="coa:place_id" v="542450"/></node><node id="-80" lat="30.3717" lon="-97.749393" changeset="false"><tag k="addr:street" v="West Court"/><tag k="addr:housenumber" v="8103"/><tag k="coa:place_id" v="973112"/></node><node id="-81" lat="30.371539" lon="-97.74932" changeset="false"><tag k="addr:street" v="West Court"/><tag k="addr:housenumber" v="8101"/><tag k="coa:place_id" v="542576"/></node><node id="-82" lat="30.371915" lon="-97.749282" changeset="false"><tag k="addr:street" v="West Court"/><tag k="addr:housenumber" v="8107"/><tag k="coa:place_id" v="542594"/></node><node id="-83" lat="30.371748" lon="-97.749209" changeset="false"><tag k="addr:street" v="West Court"/><tag k="addr:housenumber" v="8105"/><tag k="coa:place_id" v="542588"/></node><node id="-84" lat="30.371982" lon="-97.748241" changeset="false"><tag k="addr:street" v="Middle Court"/><tag k="addr:housenumber" v="8115"/><tag k="coa:place_id" v="542486"/></node><node id="-85" lat="30.371938" lon="-97.748394" changeset="false"><tag k="addr:street" v="Middle Court"/><tag k="addr:housenumber" v="8113"/><tag k="coa:place_id" v="542474"/></node><node id="-86" lat="30.371786" lon="-97.748356" changeset="false"><tag k="addr:street" v="Middle Court"/><tag k="addr:housenumber" v="8111"/><tag k="coa:place_id" v="542456"/></node><node id="-87" lat="30.37214" lon="-97.748312" changeset="false"><tag k="addr:street" v="Middle Court"/><tag k="addr:housenumber" v="8117"/><tag k="coa:place_id" v="542498"/></node><node id="-88" lat="30.371476" lon="-97.748281" changeset="false"><tag k="addr:street" v="East Court"/><tag k="addr:housenumber" v="8106"/><tag k="coa:place_id" v="542372"/></node><node id="-89" lat="30.371264" lon="-97.748406" changeset="false"><tag k="addr:street" v="East Court"/><tag k="addr:housenumber" v="8102"/><tag k="coa:place_id" v="542396"/></node><node id="-90" lat="30.371324" lon="-97.748205" changeset="false"><tag k="addr:street" v="East Court"/><tag k="addr:housenumber" v="8104"/><tag k="coa:place_id" v="542378"/></node><node id="-91" lat="30.372289" lon="-97.748633" changeset="false"><tag k="addr:street" v="Middle Court"/><tag k="addr:housenumber" v="8116"/><tag k="coa:place_id" v="542504"/></node><node id="-92" lat="30.372088" lon="-97.74876" changeset="false"><tag k="addr:street" v="Middle Court"/><tag k="addr:housenumber" v="8112"/><tag k="coa:place_id" v="962786"/></node><node id="-93" lat="30.37212" lon="-97.748552" changeset="false"><tag k="addr:street" v="Middle Court"/><tag k="addr:housenumber" v="8114"/><tag k="coa:place_id" v="542516"/></node><node id="-94" lat="30.372233" lon="-97.749089" changeset="false"><tag k="addr:street" v="West Court"/><tag k="addr:housenumber" v="8113"/><tag k="coa:place_id" v="542606"/></node><node id="-95" lat="30.372287" lon="-97.748904" changeset="false"><tag k="addr:street" v="West Court"/><tag k="addr:housenumber" v="8115"/><tag k="coa:place_id" v="542612"/></node><node id="-96" lat="30.37243" lon="-97.748939" changeset="false"><tag k="addr:street" v="West Court"/><tag k="addr:housenumber" v="8117"/><tag k="coa:place_id" v="542618"/></node><node id="-97" lat="30.371754" lon="-97.748953" changeset="false"><tag k="addr:street" v="Middle Court"/><tag k="addr:housenumber" v="8106"/><tag k="coa:place_id" v="542540"/></node><node id="-98" lat="30.371596" lon="-97.748897" changeset="false"><tag k="addr:street" v="Middle Court"/><tag k="addr:housenumber" v="8104"/><tag k="coa:place_id" v="542546"/></node><node id="-99" lat="30.371558" lon="-97.749063" changeset="false"><tag k="addr:street" v="Middle Court"/><tag k="addr:housenumber" v="8102"/><tag k="coa:place_id" v="542558"/></node><node id="-100" lat="30.371369" lon="-97.748974" changeset="false"><tag k="addr:street" v="Middle Court"/><tag k="addr:housenumber" v="8100"/><tag k="coa:place_id" v="542564"/></node><node id="-101" lat="30.371598" lon="-97.748023" changeset="false"><tag k="addr:street" v="East Court"/><tag k="addr:housenumber" v="8110"/><tag k="coa:place_id" v="542360"/></node><node id="-102" lat="30.371949" lon="-97.74797" changeset="false"><tag k="addr:street" v="East Court"/><tag k="addr:housenumber" v="8116"/><tag k="coa:place_id" v="542324"/></node><node id="-103" lat="30.371759" lon="-97.748092" changeset="false"><tag k="addr:street" v="East Court"/><tag k="addr:housenumber" v="8112"/><tag k="coa:place_id" v="542348"/></node><node id="-104" lat="30.37179" lon="-97.747895" changeset="false"><tag k="addr:street" v="East Court"/><tag k="addr:housenumber" v="8114"/><tag k="coa:place_id" v="542336"/></node><node id="-105" lat="30.370035" lon="-97.74785" changeset="false"><tag k="addr:street" v="Forest Mesa Drive"/><tag k="addr:housenumber" v="8130"/><tag k="coa:place_id" v="424641"/></node><node id="-106" lat="30.370153" lon="-97.747962" changeset="false"><tag k="addr:street" v="Forest Mesa Drive"/><tag k="addr:housenumber" v="8132"/><tag k="coa:place_id" v="424647"/></node><node id="-107" lat="30.370274" lon="-97.74772" changeset="false"><tag k="addr:street" v="Forest Mesa Drive"/><tag k="addr:housenumber" v="8134"/><tag k="coa:place_id" v="424725"/></node><node id="-108" lat="30.370373" lon="-97.747857" changeset="false"><tag k="addr:street" v="Forest Mesa Drive"/><tag k="addr:housenumber" v="8136"/><tag k="coa:place_id" v="424713"/></node><node id="-109" lat="30.37038" lon="-97.747626" changeset="false"><tag k="addr:street" v="Forest Mesa Drive"/><tag k="addr:housenumber" v="8138"/><tag k="coa:place_id" v="424689"/></node><node id="-110" lat="30.370536" lon="-97.747755" changeset="false"><tag k="addr:street" v="Forest Mesa Drive"/><tag k="addr:housenumber" v="8140"/><tag k="coa:place_id" v="424695"/></node><node id="-111" lat="30.371141" lon="-97.747619" changeset="false"><tag k="addr:street" v="Club Court"/><tag k="addr:housenumber" v="8106"/><tag k="coa:place_id" v="542174"/></node><node id="-112" lat="30.370759" lon="-97.74763" changeset="false"><tag k="addr:street" v="Club Court"/><tag k="addr:housenumber" v="8100"/><tag k="coa:place_id" v="542210"/></node><node id="-113" lat="30.370945" lon="-97.747707" changeset="false"><tag k="addr:street" v="Club Court"/><tag k="addr:housenumber" v="8102"/><tag k="coa:place_id" v="542204"/></node><node id="-114" lat="30.370988" lon="-97.747513" changeset="false"><tag k="addr:street" v="Club Court"/><tag k="addr:housenumber" v="8104"/><tag k="coa:place_id" v="542186"/></node><node id="-115" lat="30.371089" lon="-97.747201" changeset="false"><tag k="addr:street" v="Club Court"/><tag k="addr:housenumber" v="8109"/><tag k="coa:place_id" v="542162"/></node><node id="-116" lat="30.370702" lon="-97.747256" changeset="false"><tag k="addr:street" v="Club Court"/><tag k="addr:housenumber" v="8103"/><tag k="coa:place_id" v="542126"/></node><node id="-117" lat="30.370773" lon="-97.74709" changeset="false"><tag k="addr:street" v="Club Court"/><tag k="addr:housenumber" v="8105"/><tag k="coa:place_id" v="542132"/></node><node id="-118" lat="30.370631" lon="-97.747411" changeset="false"><tag k="addr:street" v="Club Court"/><tag k="addr:housenumber" v="8101"/><tag k="coa:place_id" v="542114"/></node><node id="-119" lat="30.3709" lon="-97.747113" changeset="false"><tag k="addr:street" v="Club Court"/><tag k="addr:housenumber" v="8107"/><tag k="coa:place_id" v="542150"/></node><node id="-120" lat="30.369478" lon="-97.747523" changeset="false"><tag k="addr:street" v="Forest Mesa Drive"/><tag k="addr:housenumber" v="8129"/><tag k="coa:place_id" v="429843"/></node><node id="-121" lat="30.369535" lon="-97.747366" changeset="false"><tag k="addr:street" v="Forest Mesa Drive"/><tag k="addr:housenumber" v="8131"/><tag k="coa:place_id" v="429849"/></node><node id="-122" lat="30.369661" lon="-97.74745" changeset="false"><tag k="addr:street" v="Forest Mesa Drive"/><tag k="addr:housenumber" v="8133"/><tag k="coa:place_id" v="429855"/></node><node id="-123" lat="30.369715" lon="-97.747268" changeset="false"><tag k="addr:street" v="Forest Mesa Drive"/><tag k="addr:housenumber" v="8135"/><tag k="coa:place_id" v="429861"/></node><node id="-124" lat="30.369844" lon="-97.747377" changeset="false"><tag k="addr:street" v="Forest Mesa Drive"/><tag k="addr:housenumber" v="8137"/><tag k="coa:place_id" v="424653"/></node><node id="-125" lat="30.369912" lon="-97.74721" changeset="false"><tag k="addr:street" v="Forest Mesa Drive"/><tag k="addr:housenumber" v="8139"/><tag k="coa:place_id" v="424659"/></node><node id="-126" lat="30.369619" lon="-97.747967" changeset="false"><tag k="addr:street" v="Forest Mesa Drive"/><tag k="addr:housenumber" v="8122"/><tag k="coa:place_id" v="696003"/></node><node id="-127" lat="30.369765" lon="-97.748102" changeset="false"><tag k="addr:street" v="Forest Mesa Drive"/><tag k="addr:housenumber" v="8124"/><tag k="coa:place_id" v="640359"/></node><node id="-128" lat="30.369964" lon="-97.74804" changeset="false"><tag k="addr:street" v="Forest Mesa Drive"/><tag k="addr:housenumber" v="8128"/><tag k="coa:place_id" v="677187"/></node><node id="-129" lat="30.369841" lon="-97.747902" changeset="false"><tag k="addr:street" v="Forest Mesa Drive"/><tag k="addr:housenumber" v="8126"/><tag k="coa:place_id" v="677199"/></node><node id="-130" lat="30.3717" lon="-97.749674" changeset="false"><tag k="addr:street" v="West Court"/><tag k="addr:housenumber" v="8100"/><tag k="coa:place_id" v="542648"/></node><node id="-131" lat="30.372045" lon="-97.749601" changeset="false"><tag k="addr:street" v="West Court"/><tag k="addr:housenumber" v="8106"/><tag k="coa:place_id" v="542636"/></node><node id="-132" lat="30.371847" lon="-97.749728" changeset="false"><tag k="addr:street" v="West Court"/><tag k="addr:housenumber" v="8102"/><tag k="coa:place_id" v="542642"/></node><node id="-133" lat="30.371892" lon="-97.749548" changeset="false"><tag k="addr:street" v="West Court"/><tag k="addr:housenumber" v="8104"/><tag k="coa:place_id" v="937106"/></node><node id="-134" lat="30.37206" lon="-97.750242" changeset="false"><tag k="addr:street" v="Greenslope Drive"/><tag k="addr:housenumber" v="8124"/><tag k="coa:place_id" v="538412"/></node><node id="-135" lat="30.371917" lon="-97.750207" changeset="false"><tag k="addr:street" v="Greenslope Drive"/><tag k="addr:housenumber" v="8122"/><tag k="coa:place_id" v="538418"/></node><node id="-136" lat="30.372308" lon="-97.749962" changeset="false"><tag k="addr:street" v="Greenslope Drive"/><tag k="addr:housenumber" v="8130"/><tag k="coa:place_id" v="538394"/></node><node id="-137" lat="30.372125" lon="-97.75005" changeset="false"><tag k="addr:street" v="Greenslope Drive"/><tag k="addr:housenumber" v="8126"/><tag k="coa:place_id" v="538406"/></node><node id="-138" lat="30.372296" lon="-97.750176" changeset="false"><tag k="addr:street" v="Greenslope Drive"/><tag k="addr:housenumber" v="8128"/><tag k="coa:place_id" v="538400"/></node><node id="-139" lat="30.372475" lon="-97.750065" changeset="false"><tag k="addr:street" v="Greenslope Drive"/><tag k="addr:housenumber" v="8132"/><tag k="coa:place_id" v="538388"/></node><node id="-140" lat="30.372504" lon="-97.750702" changeset="false"><tag k="addr:street" v="Steck Avenue"/><tag k="addr:housenumber" v="3831"/><tag k="coa:place_id" v="538304"/></node><node id="-141" lat="30.372415" lon="-97.750906" changeset="false"><tag k="addr:street" v="Steck Avenue"/><tag k="addr:housenumber" v="3835"/><tag k="coa:place_id" v="538292"/></node><node id="-142" lat="30.372343" lon="-97.751137" changeset="false"><tag k="addr:street" v="Steck Avenue"/><tag k="addr:housenumber" v="3839"/><tag k="coa:place_id" v="538280"/></node><node id="-143" lat="30.372457" lon="-97.750803" changeset="false"><tag k="addr:street" v="Steck Avenue"/><tag k="addr:housenumber" v="3833"/><tag k="coa:place_id" v="538298"/></node><node id="-144" lat="30.372381" lon="-97.751016" changeset="false"><tag k="addr:street" v="Steck Avenue"/><tag k="addr:housenumber" v="3837"/><tag k="coa:place_id" v="538286"/></node><node id="-145" lat="30.372667" lon="-97.749926" changeset="false"><tag k="addr:street" v="Greenslope Drive"/><tag k="addr:housenumber" v="8136"/><tag k="coa:place_id" v="538376"/></node><node id="-146" lat="30.372525" lon="-97.749813" changeset="false"><tag k="addr:street" v="Greenslope Drive"/><tag k="addr:housenumber" v="8134"/><tag k="coa:place_id" v="538382"/></node><node id="-147" lat="30.372598" lon="-97.750457" changeset="false"><tag k="addr:street" v="Steck Avenue"/><tag k="addr:housenumber" v="3827"/><tag k="coa:place_id" v="538316"/></node><node id="-148" lat="30.37264" lon="-97.750362" changeset="false"><tag k="addr:street" v="Steck Avenue"/><tag k="addr:housenumber" v="3825"/><tag k="coa:place_id" v="538322"/></node><node id="-149" lat="30.372816" lon="-97.750184" changeset="false"><tag k="addr:street" v="Steck Avenue"/><tag k="addr:housenumber" v="3821"/><tag k="coa:place_id" v="538334"/></node><node id="-150" lat="30.372565" lon="-97.750572" changeset="false"><tag k="addr:street" v="Steck Avenue"/><tag k="addr:housenumber" v="3829"/><tag k="coa:place_id" v="538310"/></node><node id="-151" lat="30.372646" lon="-97.750234" changeset="false"><tag k="addr:street" v="Steck Avenue"/><tag k="addr:housenumber" v="3823"/><tag k="coa:place_id" v="538328"/></node><node id="-152" lat="30.372235" lon="-97.749362" changeset="false"><tag k="addr:street" v="West Court"/><tag k="addr:housenumber" v="8110"/><tag k="coa:place_id" v="969554"/></node><node id="-153" lat="30.372444" lon="-97.749206" changeset="false"><tag k="addr:street" v="West Court"/><tag k="addr:housenumber" v="8114"/><tag k="coa:place_id" v="960188"/></node><node id="-154" lat="30.372602" lon="-97.749266" changeset="false"><tag k="addr:street" v="West Court"/><tag k="addr:housenumber" v="8116"/><tag k="coa:place_id" v="952952"/></node><node id="-155" lat="30.372382" lon="-97.749391" changeset="false"><tag k="addr:street" v="West Court"/><tag k="addr:housenumber" v="8112"/><tag k="coa:place_id" v="1031642"/></node><node id="-156" lat="30.372841" lon="-97.749801" changeset="false"><tag k="addr:street" v="Greenslope Drive"/><tag k="addr:housenumber" v="8140"/><tag k="coa:place_id" v="538358"/></node><node id="-157" lat="30.372702" lon="-97.749721" changeset="false"><tag k="addr:street" v="Greenslope Drive"/><tag k="addr:housenumber" v="8138"/><tag k="coa:place_id" v="538370"/></node><node id="-158" lat="30.371424" lon="-97.753071" changeset="false"><tag k="addr:street" v="Meandering Way"/><tag k="addr:housenumber" v="8153"/><tag k="coa:place_id" v="388509"/></node><node id="-159" lat="30.371508" lon="-97.753111" changeset="false"><tag k="addr:street" v="Meandering Way"/><tag k="addr:housenumber" v="8151"/><tag k="coa:place_id" v="388389"/></node><node id="-160" lat="30.371574" lon="-97.752588" changeset="false"><tag k="addr:street" v="Raintree Place"/><tag k="addr:housenumber" v="8118"/><tag k="coa:place_id" v="331995"/></node><node id="-161" lat="30.37152" lon="-97.752656" changeset="false"><tag k="addr:street" v="Raintree Place"/><tag k="addr:housenumber" v="8116"/><tag k="coa:place_id" v="331185"/></node><node id="-162" lat="30.37172" lon="-97.752737" changeset="false"><tag k="addr:street" v="Meandering Way"/><tag k="addr:housenumber" v="8150"/><tag k="coa:place_id" v="345147"/></node><node id="-163" lat="30.37179" lon="-97.752775" changeset="false"><tag k="addr:street" v="Meandering Way"/><tag k="addr:housenumber" v="8148"/><tag k="coa:place_id" v="345153"/></node><node id="-164" lat="30.371626" lon="-97.753375" changeset="false"><tag k="addr:street" v="Meandering Way"/><tag k="addr:housenumber" v="8121"/><tag k="coa:place_id" v="644247"/></node><node id="-165" lat="30.371699" lon="-97.753331" changeset="false"><tag k="addr:street" v="Meandering Way"/><tag k="addr:housenumber" v="8123"/><tag k="coa:place_id" v="644253"/></node><node id="-166" lat="30.371923" lon="-97.752976" changeset="false"><tag k="addr:street" v="Meandering Way"/><tag k="addr:housenumber" v="8144"/><tag k="coa:place_id" v="408249"/></node><node id="-167" lat="30.37188" lon="-97.752896" changeset="false"><tag k="addr:street" v="Meandering Way"/><tag k="addr:housenumber" v="8146"/><tag k="coa:place_id" v="408231"/></node><node id="-168" lat="30.37198" lon="-97.753069" changeset="false"><tag k="addr:street" v="Meandering Way"/><tag k="addr:housenumber" v="8142"/><tag k="coa:place_id" v="408243"/></node><node id="-169" lat="30.372042" lon="-97.753152" changeset="false"><tag k="addr:street" v="Meandering Way"/><tag k="addr:housenumber" v="8140"/><tag k="coa:place_id" v="408237"/></node><node id="-170" lat="30.372089" lon="-97.753322" changeset="false"><tag k="addr:street" v="Meandering Way"/><tag k="addr:housenumber" v="8138"/><tag k="coa:place_id" v="413463"/></node><node id="-171" lat="30.372086" lon="-97.753411" changeset="false"><tag k="addr:street" v="Meandering Way"/><tag k="addr:housenumber" v="8136"/><tag k="coa:place_id" v="413457"/></node><node id="-172" lat="30.371095" lon="-97.753121" changeset="false"><tag k="addr:street" v="Raintree Place"/><tag k="addr:housenumber" v="8108"/><tag k="coa:place_id" v="395301"/></node><node id="-173" lat="30.371014" lon="-97.753188" changeset="false"><tag k="addr:street" v="Raintree Place"/><tag k="addr:housenumber" v="8106"/><tag k="coa:place_id" v="395295"/></node><node id="-174" lat="30.370935" lon="-97.753239" changeset="false"><tag k="addr:street" v="Raintree Place"/><tag k="addr:housenumber" v="8104"/><tag k="coa:place_id" v="644193"/></node><node id="-175" lat="30.370851" lon="-97.753303" changeset="false"><tag k="addr:street" v="Raintree Place"/><tag k="addr:housenumber" v="8102"/><tag k="coa:place_id" v="644241"/></node><node id="-176" lat="30.371325" lon="-97.753032" changeset="false"><tag k="addr:street" v="Meandering Way"/><tag k="addr:housenumber" v="8155"/><tag k="coa:place_id" v="379761"/></node><node id="-177" lat="30.371258" lon="-97.752992" changeset="false"><tag k="addr:street" v="Meandering Way"/><tag k="addr:housenumber" v="8157"/><tag k="coa:place_id" v="422403"/></node><node id="-178" lat="30.371701" lon="-97.753827" changeset="false"><tag k="addr:street" v="Meandering Way"/><tag k="addr:housenumber" v="8124"/><tag k="coa:place_id" v="678609"/></node><node id="-179" lat="30.371616" lon="-97.753872" changeset="false"><tag k="addr:street" v="Meandering Way"/><tag k="addr:housenumber" v="8122"/><tag k="coa:place_id" v="678633"/></node><node id="-180" lat="30.371788" lon="-97.753771" changeset="false"><tag k="addr:street" v="Meandering Way"/><tag k="addr:housenumber" v="8126"/><tag k="coa:place_id" v="428499"/></node><node id="-181" lat="30.371886" lon="-97.753719" changeset="false"><tag k="addr:street" v="Meandering Way"/><tag k="addr:housenumber" v="8128"/><tag k="coa:place_id" v="428493"/></node><node id="-182" lat="30.372077" lon="-97.753542" changeset="false"><tag k="addr:street" v="Meandering Way"/><tag k="addr:housenumber" v="8134"/><tag k="coa:place_id" v="413451"/></node><node id="-183" lat="30.372043" lon="-97.753617" changeset="false"><tag k="addr:street" v="Meandering Way"/><tag k="addr:housenumber" v="8132"/><tag k="coa:place_id" v="413439"/></node><node id="-184" lat="30.370542" lon="-97.754286" changeset="false"><tag k="addr:street" v="Bayberry Drive"/><tag k="addr:housenumber" v="4116"/><tag k="coa:place_id" v="756123"/></node><node id="-185" lat="30.370665" lon="-97.754309" changeset="false"><tag k="addr:street" v="Bayberry Drive"/><tag k="addr:housenumber" v="4118"/><tag k="coa:place_id" v="756117"/></node><node id="-186" lat="30.370731" lon="-97.753726" changeset="false"><tag k="addr:street" v="Meandering Way"/><tag k="addr:housenumber" v="8106"/><tag k="coa:place_id" v="678711"/></node><node id="-187" lat="30.370658" lon="-97.753656" changeset="false"><tag k="addr:street" v="Meandering Way"/><tag k="addr:housenumber" v="8104"/><tag k="coa:place_id" v="678867"/></node><node id="-188" lat="30.371265" lon="-97.754024" changeset="false"><tag k="addr:street" v="Meandering Way"/><tag k="addr:housenumber" v="8114"/><tag k="coa:place_id" v="644259"/></node><node id="-189" lat="30.371344" lon="-97.754002" changeset="false"><tag k="addr:street" v="Meandering Way"/><tag k="addr:housenumber" v="8116"/><tag k="coa:place_id" v="644271"/></node><node id="-190" lat="30.371076" lon="-97.753414" changeset="false"><tag k="addr:street" v="Meandering Way"/><tag k="addr:housenumber" v="8105"/><tag k="coa:place_id" v="510855"/></node><node id="-191" lat="30.371157" lon="-97.753457" changeset="false"><tag k="addr:street" v="Meandering Way"/><tag k="addr:housenumber" v="8107"/><tag k="coa:place_id" v="510843"/></node><node id="-192" lat="30.371136" lon="-97.754897" changeset="false"><tag k="addr:street" v="Spicewood Lane"/><tag k="addr:housenumber" v="8008"/><tag k="coa:place_id" v="363453"/></node><node id="-193" lat="30.371045" lon="-97.754805" changeset="false"><tag k="addr:street" v="Spicewood Lane"/><tag k="addr:housenumber" v="8008 1/2"/><tag k="coa:place_id" v="3180362"/></node><node id="-194" lat="30.371449" lon="-97.753476" changeset="false"><tag k="addr:street" v="Meandering Way"/><tag k="addr:housenumber" v="8117"/><tag k="coa:place_id" v="519993"/></node><node id="-195" lat="30.371528" lon="-97.753444" changeset="false"><tag k="addr:street" v="Meandering Way"/><tag k="addr:housenumber" v="8119"/><tag k="coa:place_id" v="519987"/></node><node id="-196" lat="30.371451" lon="-97.75398" changeset="false"><tag k="addr:street" v="Meandering Way"/><tag k="addr:housenumber" v="8118"/><tag k="coa:place_id" v="678675"/></node><node id="-197" lat="30.371524" lon="-97.753927" changeset="false"><tag k="addr:street" v="Meandering Way"/><tag k="addr:housenumber" v="8120"/><tag k="coa:place_id" v="678657"/></node><node id="-198" lat="30.369781" lon="-97.754013" changeset="false"><tag k="addr:street" v="Raintree Place"/><tag k="addr:housenumber" v="8006"/><tag k="coa:place_id" v="756111"/></node><node id="-199" lat="30.369713" lon="-97.754074" changeset="false"><tag k="addr:street" v="Raintree Place"/><tag k="addr:housenumber" v="8004"/><tag k="coa:place_id" v="756105"/></node><node id="-200" lat="30.370461" lon="-97.753587" changeset="false"><tag k="addr:street" v="Raintree Place"/><tag k="addr:housenumber" v="8020"/><tag k="coa:place_id" v="678519"/></node><node id="-201" lat="30.370545" lon="-97.753516" changeset="false"><tag k="addr:street" v="Raintree Place"/><tag k="addr:housenumber" v="8022"/><tag k="coa:place_id" v="678741"/></node><node id="-202" lat="30.370385" lon="-97.753643" changeset="false"><tag k="addr:street" v="Raintree Place"/><tag k="addr:housenumber" v="8018"/><tag k="coa:place_id" v="678513"/></node><node id="-203" lat="30.370315" lon="-97.753692" changeset="false"><tag k="addr:street" v="Raintree Place"/><tag k="addr:housenumber" v="8016"/><tag k="coa:place_id" v="678507"/></node><node id="-204" lat="30.370142" lon="-97.754536" changeset="false"><tag k="addr:street" v="Bayberry Drive"/><tag k="addr:housenumber" v="4115"/><tag k="coa:place_id" v="756057"/></node><node id="-205" lat="30.370083" lon="-97.754476" changeset="false"><tag k="addr:street" v="Bayberry Drive"/><tag k="addr:housenumber" v="4113"/><tag k="coa:place_id" v="756063"/></node><node id="-206" lat="30.370303" lon="-97.754641" changeset="false"><tag k="addr:street" v="Bayberry Drive"/><tag k="addr:housenumber" v="4119"/><tag k="coa:place_id" v="756033"/></node><node id="-207" lat="30.37022" lon="-97.754594" changeset="false"><tag k="addr:street" v="Bayberry Drive"/><tag k="addr:housenumber" v="4117"/><tag k="coa:place_id" v="756051"/></node><node id="-208" lat="30.37023" lon="-97.754055" changeset="false"><tag k="addr:street" v="Bayberry Drive"/><tag k="addr:housenumber" v="4108"/><tag k="coa:place_id" v="756141"/></node><node id="-209" lat="30.3702" lon="-97.753969" changeset="false"><tag k="addr:street" v="Bayberry Drive"/><tag k="addr:housenumber" v="4106"/><tag k="coa:place_id" v="756147"/></node><node id="-210" lat="30.369971" lon="-97.754393" changeset="false"><tag k="addr:street" v="Bayberry Drive"/><tag k="addr:housenumber" v="4109"/><tag k="coa:place_id" v="756075"/></node><node id="-211" lat="30.369913" lon="-97.754354" changeset="false"><tag k="addr:street" v="Bayberry Drive"/><tag k="addr:housenumber" v="4107"/><tag k="coa:place_id" v="756081"/></node><node id="-212" lat="30.370442" lon="-97.754218" changeset="false"><tag k="addr:street" v="Bayberry Drive"/><tag k="addr:housenumber" v="4114"/><tag k="coa:place_id" v="756129"/></node><node id="-213" lat="30.370359" lon="-97.75415" changeset="false"><tag k="addr:street" v="Bayberry Drive"/><tag k="addr:housenumber" v="4112"/><tag k="coa:place_id" v="756135"/></node><node id="-214" lat="30.370081" lon="-97.753789" changeset="false"><tag k="addr:street" v="Bayberry Drive"/><tag k="addr:housenumber" v="4102"/><tag k="coa:place_id" v="756159"/></node><node id="-215" lat="30.370141" lon="-97.753882" changeset="false"><tag k="addr:street" v="Bayberry Drive"/><tag k="addr:housenumber" v="4104"/><tag k="coa:place_id" v="756153"/></node></osm>