<?xml version="1.0" encoding="UTF-8"?><osm version="0.6" generator="github.com/aaronlidman/osm-and-geojson"><node id="-1" lat="30.291646" lon="-97.635993" changeset="false"><tag k="addr:street" v="Marr Cove"/><tag k="addr:housenumber" v="6419"/><tag k="coa:place_id" v="214833"/></node><node id="-2" lat="30.290993" lon="-97.637007" changeset="false"><tag k="addr:street" v="Far East Drive"/><tag k="addr:housenumber" v="6208"/><tag k="coa:place_id" v="239071"/></node><node id="-3" lat="30.286283" lon="-97.638195" changeset="false"><tag k="addr:street" v="Canoga Avenue"/><tag k="addr:housenumber" v="8006"/><tag k="coa:place_id" v="143443"/></node><node id="-4" lat="30.285396" lon="-97.638795" changeset="false"><tag k="addr:street" v="Tapo Lane"/><tag k="addr:housenumber" v="8005"/><tag k="coa:place_id" v="143076"/></node><node id="-5" lat="30.291283" lon="-97.637017" changeset="false"><tag k="addr:street" v="Far East Drive"/><tag k="addr:housenumber" v="6304"/><tag k="coa:place_id" v="239068"/></node><node id="-6" lat="30.289728" lon="-97.638541" changeset="false"><tag k="addr:street" v="Melwood Drive"/><tag k="addr:housenumber" v="6101"/><tag k="coa:place_id" v="51006"/></node><node id="-7" lat="30.290777" lon="-97.637824" changeset="false"><tag k="addr:street" v="Marr Cove"/><tag k="addr:housenumber" v="6207"/><tag k="coa:place_id" v="200780"/></node><node id="-8" lat="30.286491" lon="-97.631333" changeset="false"><tag k="addr:street" v="Hidden West Boulevard"/><tag k="addr:housenumber" v="8514 1/2"/><tag k="coa:place_id" v="1101447"/></node><node id="-9" lat="30.284719" lon="-97.639966" changeset="false"><tag k="addr:street" v="Tonopa Lane"/><tag k="addr:housenumber" v="7904"/><tag k="coa:place_id" v="144535"/></node><node id="-10" lat="30.285042" lon="-97.639886" changeset="false"><tag k="addr:street" v="Topanga Lane"/><tag k="addr:housenumber" v="7903"/><tag k="coa:place_id" v="144485"/></node><node id="-11" lat="30.2919" lon="-97.639688" changeset="false"><tag k="addr:street" v="Saddler Lane"/><tag k="addr:housenumber" v="6203"/><tag k="coa:place_id" v="163638"/></node><node id="-12" lat="30.291146" lon="-97.639924" changeset="false"><tag k="addr:street" v="Saddler Lane"/><tag k="addr:housenumber" v="6116"/><tag k="coa:place_id" v="214603"/></node><node id="-13" lat="30.291305" lon="-97.63846" changeset="false"><tag k="addr:street" v="Tiner Trail"/><tag k="addr:housenumber" v="6209"/><tag k="coa:place_id" v="301186"/></node><node id="-14" lat="30.29037" lon="-97.63812" changeset="false"><tag k="addr:street" v="Marr Cove"/><tag k="addr:housenumber" v="6203"/><tag k="coa:place_id" v="200779"/></node><node id="-15" lat="30.29184" lon="-97.637587" changeset="false"><tag k="addr:street" v="Dooley Trail"/><tag k="addr:housenumber" v="6304"/><tag k="coa:place_id" v="231634"/></node><node id="-16" lat="30.290797" lon="-97.639782" changeset="false"><tag k="addr:street" v="Saddler Lane"/><tag k="addr:housenumber" v="6115"/><tag k="coa:place_id" v="150722"/></node><node id="-17" lat="30.290605" lon="-97.639178" changeset="false"><tag k="addr:street" v="Tiner Trail"/><tag k="addr:housenumber" v="6124"/><tag k="coa:place_id" v="401572"/></node><node id="-18" lat="30.290392" lon="-97.638088" changeset="false"><tag k="addr:street" v="Marr Cove"/><tag k="addr:housenumber" v="6200"/><tag k="coa:place_id" v="335554"/></node><node id="-19" lat="30.290242" lon="-97.638503" changeset="false"><tag k="addr:street" v="Dooley Trail"/><tag k="addr:housenumber" v="6104"/><tag k="coa:place_id" v="274942"/></node><node id="-20" lat="30.290122" lon="-97.638849" changeset="false"><tag k="addr:street" v="Melwood Drive"/><tag k="addr:housenumber" v="6107"/><tag k="coa:place_id" v="172409"/></node><node id="-21" lat="30.286152" lon="-97.637077" changeset="false"><tag k="addr:street" v="Taza Trail"/><tag k="addr:housenumber" v="8107"/><tag k="coa:place_id" v="172459"/></node><node id="-22" lat="30.291482" lon="-97.637587" changeset="false"><tag k="addr:street" v="Dooley Trail"/><tag k="addr:housenumber" v="6300"/><tag k="coa:place_id" v="397408"/></node><node id="-23" lat="30.291324" lon="-97.639869" changeset="false"><tag k="addr:street" v="Saddler Lane"/><tag k="addr:housenumber" v="6118"/><tag k="coa:place_id" v="3083353"/></node><node id="-24" lat="30.284459" lon="-97.639583" changeset="false"><tag k="addr:street" v="Tonopa Lane"/><tag k="addr:housenumber" v="8004"/><tag k="coa:place_id" v="484948"/></node><node id="-25" lat="30.284392" lon="-97.638525" changeset="false"><tag k="addr:street" v="Topanga Lane"/><tag k="addr:housenumber" v="8103"/><tag k="coa:place_id" v="144491"/></node><node id="-26" lat="30.284181" lon="-97.638918" changeset="false"><tag k="addr:street" v="Tonopa Lane"/><tag k="addr:housenumber" v="8100"/><tag k="coa:place_id" v="144389"/></node><node id="-27" lat="30.284635" lon="-97.63988" changeset="false"><tag k="addr:street" v="Tonopa Lane"/><tag k="addr:housenumber" v="7906"/><tag k="coa:place_id" v="306646"/></node><node id="-28" lat="30.29253" lon="-97.638898" changeset="false"><tag k="addr:street" v="Cognac Cove"/><tag k="addr:housenumber" v="7604"/><tag k="coa:place_id" v="297370"/></node><node id="-29" lat="30.285927" lon="-97.637489" changeset="false"><tag k="addr:street" v="Canoga Avenue"/><tag k="addr:housenumber" v="8102"/><tag k="coa:place_id" v="136458"/></node><node id="-30" lat="30.287026" lon="-97.638885" changeset="false"><tag k="addr:street" v="Taza Trail"/><tag k="addr:housenumber" v="7901"/><tag k="coa:place_id" v="173128"/></node><node id="-31" lat="30.283776" lon="-97.637898" changeset="false"><tag k="addr:street" v="Strathern Drive"/><tag k="addr:housenumber" v="5603"/><tag k="coa:place_id" v="265546"/></node><node id="-32" lat="30.290654" lon="-97.640212" changeset="false"><tag k="addr:street" v="Saddler Lane"/><tag k="addr:housenumber" v="6108"/><tag k="coa:place_id" v="151715"/></node><node id="-33" lat="30.289369" lon="-97.629593" changeset="false"><tag k="addr:street" v="Decker Lane"/><tag k="addr:housenumber" v="6408"/><tag k="coa:place_id" v="487593"/></node><node id="-34" lat="30.286946" lon="-97.63113" changeset="false"><tag k="addr:street" v="Decker Lane"/><tag k="addr:housenumber" v="6104"/><tag k="coa:place_id" v="975861"/></node><node id="-35" lat="30.28672" lon="-97.637386" changeset="false"><tag k="addr:street" v="Taza Trail"/><tag k="addr:housenumber" v="8016"/><tag k="coa:place_id" v="172472"/></node><node id="-36" lat="30.284997" lon="-97.639786" changeset="false"><tag k="addr:street" v="Topanga Lane"/><tag k="addr:housenumber" v="7905"/><tag k="coa:place_id" v="397594"/></node><node id="-37" lat="30.290277" lon="-97.639403" changeset="false"><tag k="addr:street" v="Tiner Trail"/><tag k="addr:housenumber" v="6118"/><tag k="coa:place_id" v="296854"/></node><node id="-38" lat="30.291917" lon="-97.636542" changeset="false"><tag k="addr:street" v="Marr Cove"/><tag k="addr:housenumber" v="6413"/><tag k="coa:place_id" v="1103047"/></node><node id="-39" lat="30.289047" lon="-97.629827" changeset="false"><tag k="addr:street" v="Decker Lane"/><tag k="addr:housenumber" v="6406"/><tag k="coa:place_id" v="228980"/></node><node id="-40" lat="30.291425" lon="-97.640099" changeset="false"><tag k="addr:street" v="Pizer Street"/><tag k="addr:housenumber" v="6125"/><tag k="coa:place_id" v="258034"/></node><node id="-41" lat="30.291281" lon="-97.635644" changeset="false"><tag k="addr:street" v="Ogier Drive"/><tag k="addr:housenumber" v="6309"/><tag k="coa:place_id" v="214839"/></node><node id="-42" lat="30.28584" lon="-97.637275" changeset="false"><tag k="addr:street" v="Canoga Avenue"/><tag k="addr:housenumber" v="8106"/><tag k="coa:place_id" v="138445"/></node><node id="-43" lat="30.28678" lon="-97.6375" changeset="false"><tag k="addr:street" v="Taza Trail"/><tag k="addr:housenumber" v="8014"/><tag k="coa:place_id" v="172473"/></node><node id="-44" lat="30.291262" lon="-97.63957" changeset="false"><tag k="addr:street" v="Saddler Lane"/><tag k="addr:housenumber" v="6123"/><tag k="coa:place_id" v="157129"/></node><node id="-45" lat="30.291025" lon="-97.636324" changeset="false"><tag k="addr:street" v="Ogier Drive"/><tag k="addr:housenumber" v="6303"/><tag k="coa:place_id" v="214835"/></node><node id="-46" lat="30.289596" lon="-97.639848" changeset="false"><tag k="addr:street" v="Tiner Trail"/><tag k="addr:housenumber" v="6103"/><tag k="coa:place_id" v="224062"/></node><node id="-47" lat="30.291636" lon="-97.638123" changeset="false"><tag k="addr:street" v="Marr Cove"/><tag k="addr:housenumber" v="6300"/><tag k="coa:place_id" v="378040"/></node><node id="-48" lat="30.291589" lon="-97.635867" changeset="false"><tag k="addr:street" v="Marr Cove"/><tag k="addr:housenumber" v="6421"/><tag k="coa:place_id" v="1103048"/></node><node id="-49" lat="30.292401" lon="-97.638496" changeset="false"><tag k="addr:street" v="Tiner Trail"/><tag k="addr:housenumber" v="6400"/><tag k="coa:place_id" v="216132"/></node><node id="-50" lat="30.285287" lon="-97.636917" changeset="false"><tag k="addr:street" v="Strathern Drive"/><tag k="addr:housenumber" v="5807"/><tag k="coa:place_id" v="172417"/></node><node id="-51" lat="30.291904" lon="-97.63656" changeset="false"><tag k="addr:street" v="Far East Drive"/><tag k="addr:housenumber" v="6401"/><tag k="coa:place_id" v="239076"/></node><node id="-52" lat="30.291948" lon="-97.638682" changeset="false"><tag k="addr:street" v="Tiner Trail"/><tag k="addr:housenumber" v="6300"/><tag k="coa:place_id" v="189168"/></node><node id="-53" lat="30.286245" lon="-97.637291" changeset="false"><tag k="addr:street" v="Taza Trail"/><tag k="addr:housenumber" v="8103"/><tag k="coa:place_id" v="172457"/></node><node id="-54" lat="30.284575" lon="-97.639773" changeset="false"><tag k="addr:street" v="Tonopa Lane"/><tag k="addr:housenumber" v="8000"/><tag k="coa:place_id" v="144539"/></node><node id="-55" lat="30.284369" lon="-97.637608" changeset="false"><tag k="addr:street" v="Strathern Drive"/><tag k="addr:housenumber" v="5703"/><tag k="coa:place_id" v="434410"/></node><node id="-56" lat="30.290696" lon="-97.639844" changeset="false"><tag k="addr:street" v="Saddler Lane"/><tag k="addr:housenumber" v="6113"/><tag k="coa:place_id" v="257074"/></node><node id="-57" lat="30.285482" lon="-97.639092" changeset="false"><tag k="addr:street" v="Tapo Lane"/><tag k="addr:housenumber" v="7909"/><tag k="coa:place_id" v="3130005"/></node><node id="-58" lat="30.283458" lon="-97.638329" changeset="false"><tag k="addr:street" v="Tonopa Lane"/><tag k="addr:housenumber" v="8113"/><tag k="coa:place_id" v="144534"/></node><node id="-59" lat="30.284111" lon="-97.637753" changeset="false"><tag k="addr:street" v="Strathern Drive"/><tag k="addr:housenumber" v="5609"/><tag k="coa:place_id" v="419326"/></node><node id="-60" lat="30.285121" lon="-97.639166" changeset="false"><tag k="addr:street" v="Topanga Lane"/><tag k="addr:housenumber" v="8004"/><tag k="coa:place_id" v="342334"/></node><node id="-61" lat="30.285073" lon="-97.63745" changeset="false"><tag k="addr:street" v="Tapo Lane"/><tag k="addr:housenumber" v="8112"/><tag k="coa:place_id" v="349336"/></node><node id="-62" lat="30.290168" lon="-97.639471" changeset="false"><tag k="addr:street" v="Tiner Trail"/><tag k="addr:housenumber" v="6116"/><tag k="coa:place_id" v="296242"/></node><node id="-63" lat="30.292649" lon="-97.638548" changeset="false"><tag k="addr:street" v="Tiner Trail"/><tag k="addr:housenumber" v="6404"/><tag k="coa:place_id" v="192549"/></node><node id="-64" lat="30.286042" lon="-97.636796" changeset="false"><tag k="addr:street" v="Taza Trail"/><tag k="addr:housenumber" v="8111"/><tag k="coa:place_id" v="172463"/></node><node id="-65" lat="30.285954" lon="-97.63931" changeset="false"><tag k="addr:street" v="Tapo Lane"/><tag k="addr:housenumber" v="7900"/><tag k="coa:place_id" v="172415"/></node><node id="-66" lat="30.291374" lon="-97.638749" changeset="false"><tag k="addr:street" v="Tiner Trail"/><tag k="addr:housenumber" v="6210"/><tag k="coa:place_id" v="192647"/></node><node id="-67" lat="30.29115" lon="-97.639563" changeset="false"><tag k="addr:street" v="Saddler Lane"/><tag k="addr:housenumber" v="6121"/><tag k="coa:place_id" v="279034"/></node><node id="-68" lat="30.29221" lon="-97.637805" changeset="false"><tag k="addr:street" v="Dooley Trail"/><tag k="addr:housenumber" v="6311"/><tag k="coa:place_id" v="217798"/></node><node id="-69" lat="30.292158" lon="-97.639629" changeset="false"><tag k="addr:street" v="Saddler Lane"/><tag k="addr:housenumber" v="6207"/><tag k="coa:place_id" v="404656"/></node><node id="-70" lat="30.292062" lon="-97.638617" changeset="false"><tag k="addr:street" v="Tiner Trail"/><tag k="addr:housenumber" v="6302"/><tag k="coa:place_id" v="338812"/></node><node id="-71" lat="30.285322" lon="-97.639586" changeset="false"><tag k="addr:street" v="Topanga Lane"/><tag k="addr:housenumber" v="7904"/><tag k="coa:place_id" v="412252"/></node><node id="-72" lat="30.285278" lon="-97.639487" changeset="false"><tag k="addr:street" v="Topanga Lane"/><tag k="addr:housenumber" v="7906"/><tag k="coa:place_id" v="420346"/></node><node id="-73" lat="30.284021" lon="-97.638617" changeset="false"><tag k="addr:street" v="Tonopa Lane"/><tag k="addr:housenumber" v="8106"/><tag k="coa:place_id" v="444802"/></node><node id="-74" lat="30.291707" lon="-97.638452" changeset="false"><tag k="addr:street" v="Tiner Trail"/><tag k="addr:housenumber" v="6215"/><tag k="coa:place_id" v="230632"/></node><node id="-75" lat="30.29094" lon="-97.63655" changeset="false"><tag k="addr:street" v="Ogier Drive"/><tag k="addr:housenumber" v="6301"/><tag k="coa:place_id" v="214834"/></node><node id="-76" lat="30.285794" lon="-97.637176" changeset="false"><tag k="addr:street" v="Canoga Avenue"/><tag k="addr:housenumber" v="8108"/><tag k="coa:place_id" v="138345"/></node><node id="-77" lat="30.289656" lon="-97.639287" changeset="false"><tag k="addr:street" v="Tiner Trail"/><tag k="addr:housenumber" v="6109"/><tag k="coa:place_id" v="243874"/></node><node id="-78" lat="30.290496" lon="-97.639243" changeset="false"><tag k="addr:street" v="Tiner Trail"/><tag k="addr:housenumber" v="6122"/><tag k="coa:place_id" v="171516"/></node><node id="-79" lat="30.290427" lon="-97.640374" changeset="false"><tag k="addr:street" v="Saddler Lane"/><tag k="addr:housenumber" v="6104"/><tag k="coa:place_id" v="151710"/></node><node id="-80" lat="30.291436" lon="-97.638125" changeset="false"><tag k="addr:street" v="Marr Cove"/><tag k="addr:housenumber" v="6216"/><tag k="coa:place_id" v="171916"/></node><node id="-81" lat="30.291766" lon="-97.636293" changeset="false"><tag k="addr:street" v="Marr Cove"/><tag k="addr:housenumber" v="6415"/><tag k="coa:place_id" v="214830"/></node><node id="-82" lat="30.28972" lon="-97.638931" changeset="false"><tag k="addr:street" v="Melwood Drive"/><tag k="addr:housenumber" v="6102"/><tag k="coa:place_id" v="50999"/></node><node id="-83" lat="30.284968" lon="-97.638067" changeset="false"><tag k="addr:street" v="Tapo Lane"/><tag k="addr:housenumber" v="8103"/><tag k="coa:place_id" v="144550"/></node><node id="-84" lat="30.284308" lon="-97.639174" changeset="false"><tag k="addr:street" v="Tonopa Lane"/><tag k="addr:housenumber" v="8012"/><tag k="coa:place_id" v="482068"/></node><node id="-85" lat="30.292171" lon="-97.638551" changeset="false"><tag k="addr:street" v="Tiner Trail"/><tag k="addr:housenumber" v="6304"/><tag k="coa:place_id" v="177100"/></node><node id="-86" lat="30.285413" lon="-97.637254" changeset="false"><tag k="addr:street" v="Canoga Avenue"/><tag k="addr:housenumber" v="8109"/><tag k="coa:place_id" v="424360"/></node><node id="-87" lat="30.283827" lon="-97.63831" changeset="false"><tag k="addr:street" v="Tonopa Lane"/><tag k="addr:housenumber" v="8112"/><tag k="coa:place_id" v="304576"/></node><node id="-88" lat="30.292646" lon="-97.639191" changeset="false"><tag k="addr:street" v="Cognac Cove"/><tag k="addr:housenumber" v="7600"/><tag k="coa:place_id" v="171838"/></node><node id="-89" lat="30.292274" lon="-97.639553" changeset="false"><tag k="addr:street" v="Saddler Lane"/><tag k="addr:housenumber" v="6209"/><tag k="coa:place_id" v="3083362"/></node><node id="-90" lat="30.29197" lon="-97.637931" changeset="false"><tag k="addr:street" v="Dooley Trail"/><tag k="addr:housenumber" v="6310"/><tag k="coa:place_id" v="187171"/></node><node id="-91" lat="30.291732" lon="-97.638747" changeset="false"><tag k="addr:street" v="Tiner Trail"/><tag k="addr:housenumber" v="6216"/><tag k="coa:place_id" v="495400"/></node><node id="-92" lat="30.285084" lon="-97.639062" changeset="false"><tag k="addr:street" v="Topanga Lane"/><tag k="addr:housenumber" v="8006"/><tag k="coa:place_id" v="144493"/></node><node id="-93" lat="30.290299" lon="-97.64046" changeset="false"><tag k="addr:street" v="Saddler Lane"/><tag k="addr:housenumber" v="6102"/><tag k="coa:place_id" v="151709"/></node><node id="-94" lat="30.28535" lon="-97.639895" changeset="false"><tag k="addr:street" v="Saticoy Drive"/><tag k="addr:housenumber" v="5701"/><tag k="coa:place_id" v="551962"/></node><node id="-95" lat="30.291188" lon="-97.638509" changeset="false"><tag k="addr:street" v="Tiner Trail"/><tag k="addr:housenumber" v="6207"/><tag k="coa:place_id" v="200325"/></node><node id="-96" lat="30.28936" lon="-97.632436" changeset="false"><tag k="addr:street" v="Bagby Drive"/><tag k="addr:housenumber" v="8307"/><tag k="coa:place_id" v="381838"/></node><node id="-97" lat="30.284515" lon="-97.637814" changeset="false"><tag k="addr:street" v="Strathern Drive"/><tag k="addr:housenumber" v="5700"/><tag k="coa:place_id" v="338506"/></node><node id="-98" lat="30.284963" lon="-97.637055" changeset="false"><tag k="addr:street" v="Strathern Drive"/><tag k="addr:housenumber" v="5803"/><tag k="coa:place_id" v="139325"/></node><node id="-99" lat="30.29091" lon="-97.64006" changeset="false"><tag k="addr:street" v="Saddler Lane"/><tag k="addr:housenumber" v="6112"/><tag k="coa:place_id" v="539602"/></node><node id="-100" lat="30.290541" lon="-97.640302" changeset="false"><tag k="addr:street" v="Saddler Lane"/><tag k="addr:housenumber" v="6106"/><tag k="coa:place_id" v="151711"/></node><node id="-101" lat="30.287363" lon="-97.631752" changeset="false"><tag k="addr:street" v="Baldwin Drive"/><tag k="addr:housenumber" v="6106"/><tag k="coa:place_id" v="255270"/></node><node id="-102" lat="30.284424" lon="-97.639481" changeset="false"><tag k="addr:street" v="Tonopa Lane"/><tag k="addr:housenumber" v="8006"/><tag k="coa:place_id" v="346570"/></node><node id="-103" lat="30.284283" lon="-97.638312" changeset="false"><tag k="addr:street" v="Topanga Lane"/><tag k="addr:housenumber" v="8107"/><tag k="coa:place_id" v="456376"/></node><node id="-104" lat="30.284123" lon="-97.634631" changeset="false"><tag k="addr:street" v="Canoga Avenue"/><tag k="addr:housenumber" v="8207"/><tag k="coa:place_id" v="150066"/></node><node id="-105" lat="30.286758" lon="-97.638314" changeset="false"><tag k="addr:street" v="Taza Trail"/><tag k="addr:housenumber" v="8001"/><tag k="coa:place_id" v="172441"/></node><node id="-106" lat="30.28638" lon="-97.637595" changeset="false"><tag k="addr:street" v="Taza Trail"/><tag k="addr:housenumber" v="8015"/><tag k="coa:place_id" v="172452"/></node><node id="-107" lat="30.286384" lon="-97.638412" changeset="false"><tag k="addr:street" v="Canoga Avenue"/><tag k="addr:housenumber" v="8002"/><tag k="coa:place_id" v="141445"/></node><node id="-108" lat="30.286201" lon="-97.637192" changeset="false"><tag k="addr:street" v="Taza Trail"/><tag k="addr:housenumber" v="8105"/><tag k="coa:place_id" v="172458"/></node><node id="-109" lat="30.286079" lon="-97.637792" changeset="false"><tag k="addr:street" v="Canoga Avenue"/><tag k="addr:housenumber" v="8014"/><tag k="coa:place_id" v="140129"/></node><node id="-110" lat="30.286957" lon="-97.638749" changeset="false"><tag k="addr:street" v="Taza Trail"/><tag k="addr:housenumber" v="7905"/><tag k="coa:place_id" v="172435"/></node><node id="-111" lat="30.290639" lon="-97.638839" changeset="false"><tag k="addr:street" v="Tiner Trail"/><tag k="addr:housenumber" v="6123"/><tag k="coa:place_id" v="182117"/></node><node id="-112" lat="30.290776" lon="-97.640126" changeset="false"><tag k="addr:street" v="Saddler Lane"/><tag k="addr:housenumber" v="6110"/><tag k="coa:place_id" v="151716"/></node><node id="-113" lat="30.284686" lon="-97.638259" changeset="false"><tag k="addr:street" v="Topanga Lane"/><tag k="addr:housenumber" v="8104"/><tag k="coa:place_id" v="510670"/></node><node id="-114" lat="30.284457" lon="-97.638624" changeset="false"><tag k="addr:street" v="Topanga Lane"/><tag k="addr:housenumber" v="8101"/><tag k="coa:place_id" v="144488"/></node><node id="-115" lat="30.284231" lon="-97.638201" changeset="false"><tag k="addr:street" v="Topanga Lane"/><tag k="addr:housenumber" v="8109"/><tag k="coa:place_id" v="304780"/></node><node id="-116" lat="30.285647" lon="-97.637909" changeset="false"><tag k="addr:street" v="Canoga Avenue"/><tag k="addr:housenumber" v="8015"/><tag k="coa:place_id" v="475144"/></node><node id="-117" lat="30.29137" lon="-97.635954" changeset="false"><tag k="addr:street" v="Ogier Drive"/><tag k="addr:housenumber" v="6304"/><tag k="coa:place_id" v="214845"/></node><node id="-118" lat="30.285333" lon="-97.639708" changeset="false"><tag k="addr:street" v="Topanga Lane"/><tag k="addr:housenumber" v="7902"/><tag k="coa:place_id" v="366490"/></node><node id="-119" lat="30.292052" lon="-97.638281" changeset="false"><tag k="addr:street" v="Tiner Trail"/><tag k="addr:housenumber" v="6305"/><tag k="coa:place_id" v="169960"/></node><node id="-120" lat="30.29125" lon="-97.636515" changeset="false"><tag k="addr:street" v="Ogier Drive"/><tag k="addr:housenumber" v="6300"/><tag k="coa:place_id" v="1103049"/></node><node id="-121" lat="30.286343" lon="-97.637505" changeset="false"><tag k="addr:street" v="Taza Trail"/><tag k="addr:housenumber" v="8017"/><tag k="coa:place_id" v="172453"/></node><node id="-122" lat="30.289856" lon="-97.639017" changeset="false"><tag k="addr:street" v="Melwood Drive"/><tag k="addr:housenumber" v="6104"/><tag k="coa:place_id" v="214702"/></node><node id="-123" lat="30.290391" lon="-97.639336" changeset="false"><tag k="addr:street" v="Tiner Trail"/><tag k="addr:housenumber" v="6120"/><tag k="coa:place_id" v="166134"/></node><node id="-124" lat="30.290142" lon="-97.640191" changeset="false"><tag k="addr:street" v="Saddler Lane"/><tag k="addr:housenumber" v="6103"/><tag k="coa:place_id" v="219370"/></node><node id="-125" lat="30.289873" lon="-97.629247" changeset="false"><tag k="addr:street" v="Decker Lane"/><tag k="addr:housenumber" v="6506"/><tag k="coa:place_id" v="228986"/></node><node id="-126" lat="30.285212" lon="-97.63765" changeset="false"><tag k="addr:street" v="Tapo Lane"/><tag k="addr:housenumber" v="8108"/><tag k="coa:place_id" v="144558"/></node><node id="-127" lat="30.285181" lon="-97.638494" changeset="false"><tag k="addr:street" v="Tapo Lane"/><tag k="addr:housenumber" v="8013"/><tag k="coa:place_id" v="144549"/></node><node id="-128" lat="30.291542" lon="-97.63993" changeset="false"><tag k="addr:street" v="Pizer Street"/><tag k="addr:housenumber" v="6127"/><tag k="coa:place_id" v="259642"/></node><node id="-129" lat="30.29104" lon="-97.638915" changeset="false"><tag k="addr:street" v="Tiner Trail"/><tag k="addr:housenumber" v="6204"/><tag k="coa:place_id" v="312454"/></node><node id="-130" lat="30.283513" lon="-97.638482" changeset="false"><tag k="addr:street" v="Tonopa Lane"/><tag k="addr:housenumber" v="8111"/><tag k="coa:place_id" v="418318"/></node><node id="-131" lat="30.284874" lon="-97.637793" changeset="false"><tag k="addr:street" v="Tapo Lane"/><tag k="addr:housenumber" v="8109"/><tag k="coa:place_id" v="324766"/></node><node id="-132" lat="30.291262" lon="-97.638779" changeset="false"><tag k="addr:street" v="Tiner Trail"/><tag k="addr:housenumber" v="6208"/><tag k="coa:place_id" v="180281"/></node><node id="-133" lat="30.289966" lon="-97.639116" changeset="false"><tag k="addr:street" v="Melwood Drive"/><tag k="addr:housenumber" v="6106"/><tag k="coa:place_id" v="313342"/></node><node id="-134" lat="30.291086" lon="-97.637008" changeset="false"><tag k="addr:street" v="Far East Drive"/><tag k="addr:housenumber" v="6300"/><tag k="coa:place_id" v="239070"/></node><node id="-135" lat="30.291442" lon="-97.638461" changeset="false"><tag k="addr:street" v="Tiner Trail"/><tag k="addr:housenumber" v="6211"/><tag k="coa:place_id" v="5087203"/></node><node id="-136" lat="30.289968" lon="-97.63963" changeset="false"><tag k="addr:street" v="Tiner Trail"/><tag k="addr:housenumber" v="6112"/><tag k="coa:place_id" v="5079392"/></node><node id="-137" lat="30.283611" lon="-97.638704" changeset="false"><tag k="addr:street" v="Tonopa Lane"/><tag k="addr:housenumber" v="8107"/><tag k="coa:place_id" v="321982"/></node><node id="-138" lat="30.290714" lon="-97.639102" changeset="false"><tag k="addr:street" v="Tiner Trail"/><tag k="addr:housenumber" v="6126"/><tag k="coa:place_id" v="425896"/></node><node id="-139" lat="30.284578" lon="-97.638898" changeset="false"><tag k="addr:street" v="Topanga Lane"/><tag k="addr:housenumber" v="8013"/><tag k="coa:place_id" v="143790"/></node><node id="-140" lat="30.284499" lon="-97.639678" changeset="false"><tag k="addr:street" v="Tonopa Lane"/><tag k="addr:housenumber" v="8002"/><tag k="coa:place_id" v="438490"/></node><node id="-141" lat="30.292798" lon="-97.639223" changeset="false"><tag k="addr:street" v="Saddler Lane"/><tag k="addr:housenumber" v="6303"/><tag k="coa:place_id" v="494782"/></node><node id="-142" lat="30.285047" lon="-97.639996" changeset="false"><tag k="addr:street" v="Topanga Lane"/><tag k="addr:housenumber" v="7901"/><tag k="coa:place_id" v="392884"/></node><node id="-143" lat="30.284945" lon="-97.639684" changeset="false"><tag k="addr:street" v="Topanga Lane"/><tag k="addr:housenumber" v="7907"/><tag k="coa:place_id" v="444532"/></node><node id="-144" lat="30.291894" lon="-97.638032" changeset="false"><tag k="addr:street" v="Marr Cove"/><tag k="addr:housenumber" v="6306"/><tag k="coa:place_id" v="157152"/></node><node id="-145" lat="30.291384" lon="-97.639597" changeset="false"><tag k="addr:street" v="Saddler Lane"/><tag k="addr:housenumber" v="6125"/><tag k="coa:place_id" v="324670"/></node><node id="-146" lat="30.291476" lon="-97.63874" changeset="false"><tag k="addr:street" v="Tiner Trail"/><tag k="addr:housenumber" v="6212"/><tag k="coa:place_id" v="155361"/></node><node id="-147" lat="30.289818" lon="-97.639819" changeset="false"><tag k="addr:street" v="Tiner Trail"/><tag k="addr:housenumber" v="6100"/><tag k="coa:place_id" v="248638"/></node><node id="-148" lat="30.292035" lon="-97.639701" changeset="false"><tag k="addr:street" v="Saddler Lane"/><tag k="addr:housenumber" v="6205"/><tag k="coa:place_id" v="181859"/></node><node id="-149" lat="30.284289" lon="-97.637682" changeset="false"><tag k="addr:street" v="Strathern Drive"/><tag k="addr:housenumber" v="5701"/><tag k="coa:place_id" v="310066"/></node><node id="-150" lat="30.290865" lon="-97.638707" changeset="false"><tag k="addr:street" v="Tiner Trail"/><tag k="addr:housenumber" v="6201"/><tag k="coa:place_id" v="206782"/></node><node id="-151" lat="30.290435" lon="-97.637491" changeset="false"><tag k="addr:street" v="Dooley Trail"/><tag k="addr:housenumber" v="6207"/><tag k="coa:place_id" v="347548"/></node><node id="-152" lat="30.286592" lon="-97.63801" changeset="false"><tag k="addr:street" v="Taza Trail"/><tag k="addr:housenumber" v="8007"/><tag k="coa:place_id" v="172445"/></node><node id="-153" lat="30.286527" lon="-97.636971" changeset="false"><tag k="addr:street" v="Taza Trail"/><tag k="addr:housenumber" v="8106"/><tag k="coa:place_id" v="172467"/></node><node id="-154" lat="30.286351" lon="-97.638297" changeset="false"><tag k="addr:street" v="Canoga Avenue"/><tag k="addr:housenumber" v="8004"/><tag k="coa:place_id" v="448156"/></node><node id="-155" lat="30.28671" lon="-97.638219" changeset="false"><tag k="addr:street" v="Taza Trail"/><tag k="addr:housenumber" v="8003"/><tag k="coa:place_id" v="172443"/></node><node id="-156" lat="30.284825" lon="-97.637166" changeset="false"><tag k="addr:street" v="Strathern Drive"/><tag k="addr:housenumber" v="5801"/><tag k="coa:place_id" v="139326"/></node><node id="-157" lat="30.284818" lon="-97.639405" changeset="false"><tag k="addr:street" v="Topanga Lane"/><tag k="addr:housenumber" v="8003"/><tag k="coa:place_id" v="251674"/></node><node id="-158" lat="30.284729" lon="-97.637256" changeset="false"><tag k="addr:street" v="Strathern Drive"/><tag k="addr:housenumber" v="5711"/><tag k="coa:place_id" v="264658"/></node><node id="-159" lat="30.290243" lon="-97.638957" changeset="false"><tag k="addr:street" v="Melwood Drive"/><tag k="addr:housenumber" v="6109"/><tag k="coa:place_id" v="237298"/></node><node id="-160" lat="30.29019" lon="-97.63864" changeset="false"><tag k="addr:street" v="Dooley Trail"/><tag k="addr:housenumber" v="6102"/><tag k="coa:place_id" v="346552"/></node><node id="-161" lat="30.290127" lon="-97.638" changeset="false"><tag k="addr:street" v="Marr Cove"/><tag k="addr:housenumber" v="6201"/><tag k="coa:place_id" v="405928"/></node><node id="-162" lat="30.29082" lon="-97.639046" changeset="false"><tag k="addr:street" v="Tiner Trail"/><tag k="addr:housenumber" v="6200"/><tag k="coa:place_id" v="234124"/></node><node id="-163" lat="30.286478" lon="-97.637809" changeset="false"><tag k="addr:street" v="Taza Trail"/><tag k="addr:housenumber" v="8011"/><tag k="coa:place_id" v="172447"/></node><node id="-164" lat="30.287873" lon="-97.630518" changeset="false"><tag k="addr:street" v="Decker Lane"/><tag k="addr:housenumber" v="6308"/><tag k="coa:place_id" v="501580"/></node><node id="-165" lat="30.284457" lon="-97.637541" changeset="false"><tag k="addr:street" v="Strathern Drive"/><tag k="addr:housenumber" v="5705"/><tag k="coa:place_id" v="271264"/></node><node id="-166" lat="30.286898" lon="-97.638654" changeset="false"><tag k="addr:street" v="Taza Trail"/><tag k="addr:housenumber" v="7907"/><tag k="coa:place_id" v="172437"/></node><node id="-167" lat="30.291153" lon="-97.638835" changeset="false"><tag k="addr:street" v="Tiner Trail"/><tag k="addr:housenumber" v="6206"/><tag k="coa:place_id" v="173570"/></node><node id="-168" lat="30.288958" lon="-97.633036" changeset="false"><tag k="addr:street" v="Banning Lane"/><tag k="addr:housenumber" v="6220"/><tag k="coa:place_id" v="568408"/></node><node id="-169" lat="30.291104" lon="-97.637009" changeset="false"><tag k="addr:street" v="Far East Drive"/><tag k="addr:housenumber" v="6302"/><tag k="coa:place_id" v="239069"/></node><node id="-170" lat="30.290853" lon="-97.639175" changeset="false"><tag k="addr:street" v="Tiner Trail"/><tag k="addr:housenumber" v="6128"/><tag k="coa:place_id" v="275644"/></node><node id="-171" lat="30.291196" lon="-97.635871" changeset="false"><tag k="addr:street" v="Ogier Drive"/><tag k="addr:housenumber" v="6307"/><tag k="coa:place_id" v="214837"/></node><node id="-172" lat="30.292031" lon="-97.637948" changeset="false"><tag k="addr:street" v="Dooley Trail"/><tag k="addr:housenumber" v="6308"/><tag k="coa:place_id" v="174694"/></node><node id="-173" lat="30.290016" lon="-97.638476" changeset="false"><tag k="addr:street" v="Dooley Trail"/><tag k="addr:housenumber" v="6103"/><tag k="coa:place_id" v="138330"/></node><node id="-174" lat="30.286299" lon="-97.637401" changeset="false"><tag k="addr:street" v="Taza Trail"/><tag k="addr:housenumber" v="8101"/><tag k="coa:place_id" v="172455"/></node><node id="-175" lat="30.285347" lon="-97.63984" changeset="false"><tag k="addr:street" v="Topanga Lane"/><tag k="addr:housenumber" v="7900"/><tag k="coa:place_id" v="1154647"/></node><node id="-176" lat="30.291648" lon="-97.63761" changeset="false"><tag k="addr:street" v="Dooley Trail"/><tag k="addr:housenumber" v="6302"/><tag k="coa:place_id" v="321460"/></node><node id="-177" lat="30.28467" lon="-97.633549" changeset="false"><tag k="addr:street" v="Decker Lane"/><tag k="addr:housenumber" v="5810"/><tag k="coa:place_id" v="294076"/></node><node id="-178" lat="30.290926" lon="-97.63898" changeset="false"><tag k="addr:street" v="Tiner Trail"/><tag k="addr:housenumber" v="6202"/><tag k="coa:place_id" v="169806"/></node><node id="-179" lat="30.284646" lon="-97.637369" changeset="false"><tag k="addr:street" v="Strathern Drive"/><tag k="addr:housenumber" v="5709"/><tag k="coa:place_id" v="383224"/></node><node id="-180" lat="30.290065" lon="-97.639511" changeset="false"><tag k="addr:street" v="Tiner Trail"/><tag k="addr:housenumber" v="6114"/><tag k="coa:place_id" v="181869"/></node><node id="-181" lat="30.284199" lon="-97.637741" changeset="false"><tag k="addr:street" v="Strathern Drive"/><tag k="addr:housenumber" v="5611"/><tag k="coa:place_id" v="441772"/></node><node id="-182" lat="30.285629" lon="-97.638479" changeset="false"><tag k="addr:street" v="Tapo Lane"/><tag k="addr:housenumber" v="8010"/><tag k="coa:place_id" v="144553"/></node><node id="-183" lat="30.285392" lon="-97.637961" changeset="false"><tag k="addr:street" v="Tapo Lane"/><tag k="addr:housenumber" v="8102"/><tag k="coa:place_id" v="414964"/></node><node id="-184" lat="30.286655" lon="-97.638116" changeset="false"><tag k="addr:street" v="Taza Trail"/><tag k="addr:housenumber" v="8005"/><tag k="coa:place_id" v="172444"/></node><node id="-185" lat="30.286318" lon="-97.639223" changeset="false"><tag k="addr:street" v="Canoga Avenue"/><tag k="addr:housenumber" v="7901"/><tag k="coa:place_id" v="172410"/></node><node id="-186" lat="30.289787" lon="-97.631918" changeset="false"><tag k="addr:street" v="Bagby Drive"/><tag k="addr:housenumber" v="8218"/><tag k="coa:place_id" v="503152"/></node><node id="-187" lat="30.284766" lon="-97.640078" changeset="false"><tag k="addr:street" v="Tonopa Lane"/><tag k="addr:housenumber" v="7902"/><tag k="coa:place_id" v="398344"/></node><node id="-188" lat="30.286033" lon="-97.637702" changeset="false"><tag k="addr:street" v="Canoga Avenue"/><tag k="addr:housenumber" v="8016"/><tag k="coa:place_id" v="411538"/></node><node id="-189" lat="30.292291" lon="-97.638506" changeset="false"><tag k="addr:street" v="Tiner Trail"/><tag k="addr:housenumber" v="6306"/><tag k="coa:place_id" v="323536"/></node><node id="-190" lat="30.289293" lon="-97.639308" changeset="false"><tag k="addr:street" v="Melwood Drive"/><tag k="addr:housenumber" v="6004"/><tag k="coa:place_id" v="254296"/></node><node id="-191" lat="30.291259" lon="-97.637565" changeset="false"><tag k="addr:street" v="Dooley Trail"/><tag k="addr:housenumber" v="6214"/><tag k="coa:place_id" v="408388"/></node><node id="-192" lat="30.29111" lon="-97.636097" changeset="false"><tag k="addr:street" v="Ogier Drive"/><tag k="addr:housenumber" v="6305"/><tag k="coa:place_id" v="214836"/></node><node id="-193" lat="30.284348" lon="-97.638415" changeset="false"><tag k="addr:street" v="Topanga Lane"/><tag k="addr:housenumber" v="8105"/><tag k="coa:place_id" v="261262"/></node><node id="-194" lat="30.291032" lon="-97.639996" changeset="false"><tag k="addr:street" v="Saddler Lane"/><tag k="addr:housenumber" v="6114"/><tag k="coa:place_id" v="214602"/></node><node id="-195" lat="30.291025" lon="-97.639639" changeset="false"><tag k="addr:street" v="Saddler Lane"/><tag k="addr:housenumber" v="6119"/><tag k="coa:place_id" v="242482"/></node><node id="-196" lat="30.290815" lon="-97.638311" changeset="false"><tag k="addr:street" v="Marr Cove"/><tag k="addr:housenumber" v="6206"/><tag k="coa:place_id" v="315184"/></node><node id="-197" lat="30.292435" lon="-97.639328" changeset="false"><tag k="addr:street" v="Cognac Cove"/><tag k="addr:housenumber" v="7601"/><tag k="coa:place_id" v="406846"/></node><node id="-198" lat="30.291475" lon="-97.637788" changeset="false"><tag k="addr:street" v="Marr Cove"/><tag k="addr:housenumber" v="6215"/><tag k="coa:place_id" v="228820"/></node><node id="-199" lat="30.291366" lon="-97.635418" changeset="false"><tag k="addr:street" v="Ogier Drive"/><tag k="addr:housenumber" v="6311"/><tag k="coa:place_id" v="214841"/></node><node id="-200" lat="30.291537" lon="-97.635197" changeset="false"><tag k="addr:street" v="Marr Cove"/><tag k="addr:housenumber" v="6426"/><tag k="coa:place_id" v="214829"/></node><node id="-201" lat="30.291614" lon="-97.635313" changeset="false"><tag k="addr:street" v="Marr Cove"/><tag k="addr:housenumber" v="6424"/><tag k="coa:place_id" v="214827"/></node><node id="-202" lat="30.289979" lon="-97.632193" changeset="false"><tag k="addr:street" v="Bagby Drive"/><tag k="addr:housenumber" v="8214"/><tag k="coa:place_id" v="621388"/></node><node id="-203" lat="30.290033" lon="-97.632383" changeset="false"><tag k="addr:street" v="Bagby Drive"/><tag k="addr:housenumber" v="8212"/><tag k="coa:place_id" v="389860"/></node><node id="-204" lat="30.291176" lon="-97.636527" changeset="false"><tag k="addr:street" v="Far East Drive"/><tag k="addr:housenumber" v="6309"/><tag k="coa:place_id" v="239075"/></node><node id="-205" lat="30.291158" lon="-97.636525" changeset="false"><tag k="addr:street" v="Far East Drive"/><tag k="addr:housenumber" v="6307"/><tag k="coa:place_id" v="239073"/></node><node id="-206" lat="30.29114" lon="-97.636524" changeset="false"><tag k="addr:street" v="Far East Drive"/><tag k="addr:housenumber" v="6305"/><tag k="coa:place_id" v="239072"/></node><node id="-207" lat="30.286885" lon="-97.638921" changeset="false"><tag k="addr:street" v="Saticoy Drive"/><tag k="addr:housenumber" v="5821"/><tag k="coa:place_id" v="155179"/></node><node id="-208" lat="30.287001" lon="-97.638847" changeset="false"><tag k="addr:street" v="Taza Trail"/><tag k="addr:housenumber" v="7903"/><tag k="coa:place_id" v="172434"/></node><node id="-209" lat="30.291608" lon="-97.639633" changeset="false"><tag k="addr:street" v="Saddler Lane"/><tag k="addr:housenumber" v="6129"/><tag k="coa:place_id" v="3083360"/></node><node id="-210" lat="30.291497" lon="-97.639626" changeset="false"><tag k="addr:street" v="Saddler Lane"/><tag k="addr:housenumber" v="6127"/><tag k="coa:place_id" v="159084"/></node><node id="-211" lat="30.284669" lon="-97.637704" changeset="false"><tag k="addr:street" v="Strathern Drive"/><tag k="addr:housenumber" v="5704"/><tag k="coa:place_id" v="143273"/></node><node id="-212" lat="30.2848" lon="-97.637622" changeset="false"><tag k="addr:street" v="Tapo Lane"/><tag k="addr:housenumber" v="8111"/><tag k="coa:place_id" v="172416"/></node></osm>