<?xml version="1.0" encoding="UTF-8"?><osm version="0.6" generator="github.com/aaronlidman/osm-and-geojson"><node id="-1" lat="30.24866" lon="-97.752105" changeset="false"><tag k="addr:street" v="West Monroe Street"/><tag k="addr:housenumber" v="208"/><tag k="coa:place_id" v="331862"/></node><node id="-2" lat="30.249122" lon="-97.751228" changeset="false"><tag k="addr:street" v="West Elizabeth Street"/><tag k="addr:housenumber" v="205"/><tag k="coa:place_id" v="331664"/></node><node id="-3" lat="30.248572" lon="-97.750215" changeset="false"><tag k="addr:street" v="South Congress Avenue"/><tag k="addr:housenumber" v="1508 1/2"/><tag k="coa:place_id" v="244205"/></node><node id="-4" lat="30.249619" lon="-97.749837" changeset="false"><tag k="addr:street" v="South Congress Avenue"/><tag k="addr:housenumber" v="1410"/><tag k="coa:place_id" v="244201"/></node><node id="-5" lat="30.247561" lon="-97.750749" changeset="false"><tag k="addr:street" v="South Congress Avenue"/><tag k="addr:housenumber" v="1606"/><tag k="coa:place_id" v="196302"/></node><node id="-6" lat="30.250205" lon="-97.750534" changeset="false"><tag k="addr:street" v="Eva Street"/><tag k="addr:housenumber" v="1401"/><tag k="coa:place_id" v="3144705"/></node><node id="-7" lat="30.244792" lon="-97.75626" changeset="false"><tag k="addr:street" v="Crockett Street"/><tag k="addr:housenumber" v="414"/><tag k="coa:place_id" v="3120906"/></node><node id="-8" lat="30.248833" lon="-97.753046" changeset="false"><tag k="addr:street" v="West Monroe Street"/><tag k="addr:housenumber" v="306"/><tag k="coa:place_id" v="181747"/></node><node id="-9" lat="30.249563" lon="-97.75075" changeset="false"><tag k="addr:street" v="Eva Street"/><tag k="addr:housenumber" v="1411"/><tag k="coa:place_id" v="286713"/></node><node id="-10" lat="30.244339" lon="-97.757578" changeset="false"><tag k="addr:street" v="South 1st Street"/><tag k="addr:housenumber" v="2201"/><tag k="coa:place_id" v="367928"/></node><node id="-11" lat="30.241428" lon="-97.756986" changeset="false"><tag k="addr:street" v="Wilson Street"/><tag k="addr:housenumber" v="2350"/><tag k="coa:place_id" v="1120307"/></node><node id="-12" lat="30.249738" lon="-97.750722" changeset="false"><tag k="addr:street" v="Eva Street"/><tag k="addr:housenumber" v="1409"/><tag k="coa:place_id" v="143603"/></node><node id="-13" lat="30.243799" lon="-97.752208" changeset="false"><tag k="addr:street" v="South Congress Avenue"/><tag k="addr:housenumber" v="2008"/><tag k="coa:place_id" v="410498"/></node><node id="-14" lat="30.245503" lon="-97.756745" changeset="false"><tag k="addr:street" v="South 1st Street"/><tag k="addr:housenumber" v="2001"/><tag k="coa:place_id" v="3429018"/></node><node id="-15" lat="30.251911" lon="-97.750192" changeset="false"><tag k="addr:street" v="Newton Street"/><tag k="addr:housenumber" v="1211"/><tag k="coa:place_id" v="195993"/></node><node id="-16" lat="30.248238" lon="-97.754509" changeset="false"><tag k="addr:street" v="West Milton Street"/><tag k="addr:housenumber" v="406"/><tag k="coa:place_id" v="3305334"/></node><node id="-17" lat="30.241844" lon="-97.757535" changeset="false"><tag k="addr:street" v="Durwood Street"/><tag k="addr:housenumber" v="2301"/><tag k="coa:place_id" v="5096148"/></node><node id="-18" lat="30.246654" lon="-97.75425" changeset="false"><tag k="addr:street" v="West Annie Street"/><tag k="addr:housenumber" v="407"/><tag k="coa:place_id" v="409868"/></node><node id="-19" lat="30.251735" lon="-97.749271" changeset="false"><tag k="addr:street" v="South Congress Avenue"/><tag k="addr:housenumber" v="1210"/><tag k="coa:place_id" v="331334"/></node><node id="-20" lat="30.242944" lon="-97.754137" changeset="false"><tag k="addr:street" v="Newton Street"/><tag k="addr:housenumber" v="2111"/><tag k="coa:place_id" v="248299"/></node><node id="-21" lat="30.246551" lon="-97.75351" changeset="false"><tag k="addr:street" v="Newton Street"/><tag k="addr:housenumber" v="1800"/><tag k="coa:place_id" v="410174"/></node><node id="-22" lat="30.250295" lon="-97.750041" changeset="false"><tag k="addr:street" v="West Gibson Street"/><tag k="addr:housenumber" v="108"/><tag k="coa:place_id" v="331424"/></node><node id="-23" lat="30.244292" lon="-97.752326" changeset="false"><tag k="addr:street" v="West Johanna Street"/><tag k="addr:housenumber" v="111"/><tag k="coa:place_id" v="410450"/></node><node id="-24" lat="30.248873" lon="-97.754372" changeset="false"><tag k="addr:street" v="West Monroe Street"/><tag k="addr:housenumber" v="409"/><tag k="coa:place_id" v="97941"/></node><node id="-25" lat="30.243656" lon="-97.756723" changeset="false"><tag k="addr:street" v="West Live Oak Street"/><tag k="addr:housenumber" v="413"/><tag k="coa:place_id" v="52728"/></node><node id="-26" lat="30.250342" lon="-97.749552" changeset="false"><tag k="addr:street" v="South Congress Avenue"/><tag k="addr:housenumber" v="1318"/><tag k="coa:place_id" v="1159051"/></node><node id="-27" lat="30.243056" lon="-97.75831" changeset="false"><tag k="addr:street" v="South 1st Street"/><tag k="addr:housenumber" v="2305"/><tag k="coa:place_id" v="941733"/></node><node id="-28" lat="30.245168" lon="-97.752862" changeset="false"><tag k="addr:street" v="Eva Street"/><tag k="addr:housenumber" v="1904"/><tag k="coa:place_id" v="410336"/></node><node id="-29" lat="30.242917" lon="-97.752498" changeset="false"><tag k="addr:street" v="South Congress Avenue"/><tag k="addr:housenumber" v="2110"/><tag k="coa:place_id" v="411062"/></node><node id="-30" lat="30.241685" lon="-97.754338" changeset="false"><tag k="addr:street" v="Euclid Avenue"/><tag k="addr:housenumber" v="2213"/><tag k="coa:place_id" v="245109"/></node><node id="-31" lat="30.247982" lon="-97.755297" changeset="false"><tag k="addr:street" v="South 1st Street"/><tag k="addr:housenumber" v="1701"/><tag k="coa:place_id" v="368390"/></node><node id="-32" lat="30.247639" lon="-97.75307" changeset="false"><tag k="addr:street" v="Newton Street"/><tag k="addr:housenumber" v="1612"/><tag k="coa:place_id" v="409574"/></node><node id="-33" lat="30.244046" lon="-97.75258" changeset="false"><tag k="addr:street" v="West Johanna Street"/><tag k="addr:housenumber" v="107"/><tag k="coa:place_id" v="246607"/></node><node id="-34" lat="30.248506" lon="-97.750242" changeset="false"><tag k="addr:street" v="South Congress Avenue"/><tag k="addr:housenumber" v="1510 1/2"/><tag k="coa:place_id" v="331760"/></node><node id="-35" lat="30.248511" lon="-97.753053" changeset="false"><tag k="addr:street" v="West Monroe Street"/><tag k="addr:housenumber" v="305"/><tag k="coa:place_id" v="368606"/></node><node id="-36" lat="30.246248" lon="-97.753633" changeset="false"><tag k="addr:street" v="Newton Street"/><tag k="addr:housenumber" v="1810"/><tag k="coa:place_id" v="410186"/></node><node id="-37" lat="30.247655" lon="-97.750853" changeset="false"><tag k="addr:street" v="South Congress Avenue"/><tag k="addr:housenumber" v="1604"/><tag k="coa:place_id" v="331976"/></node><node id="-38" lat="30.243049" lon="-97.758414" changeset="false"><tag k="addr:street" v="South 1st Street"/><tag k="addr:housenumber" v="2303"/><tag k="coa:place_id" v="367856"/></node><node id="-39" lat="30.242813" lon="-97.752297" changeset="false"><tag k="addr:street" v="Crockett Street"/><tag k="addr:housenumber" v="101"/><tag k="coa:place_id" v="244452"/></node><node id="-40" lat="30.248914" lon="-97.750106" changeset="false"><tag k="addr:street" v="South Congress Avenue"/><tag k="addr:housenumber" v="1500"/><tag k="coa:place_id" v="752768"/></node><node id="-41" lat="30.240491" lon="-97.753318" changeset="false"><tag k="addr:street" v="College Avenue"/><tag k="addr:housenumber" v="2218"/><tag k="coa:place_id" v="162730"/></node><node id="-42" lat="30.248882" lon="-97.753188" changeset="false"><tag k="addr:street" v="West Monroe Street"/><tag k="addr:housenumber" v="308"/><tag k="coa:place_id" v="368612"/></node><node id="-43" lat="30.251914" lon="-97.749145" changeset="false"><tag k="addr:street" v="South Congress Avenue"/><tag k="addr:housenumber" v="1206"/><tag k="coa:place_id" v="331322"/></node><node id="-44" lat="30.246674" lon="-97.754022" changeset="false"><tag k="addr:street" v="West Annie Street"/><tag k="addr:housenumber" v="311"/><tag k="coa:place_id" v="409880"/></node><node id="-45" lat="30.244191" lon="-97.75652" changeset="false"><tag k="addr:street" v="West Live Oak Street"/><tag k="addr:housenumber" v="500 1/2"/><tag k="coa:place_id" v="3035719"/></node><node id="-46" lat="30.242969" lon="-97.753158" changeset="false"><tag k="addr:street" v="Eva Street"/><tag k="addr:housenumber" v="2105"/><tag k="coa:place_id" v="3313048"/></node><node id="-47" lat="30.247632" lon="-97.755442" changeset="false"><tag k="addr:street" v="South 1st Street"/><tag k="addr:housenumber" v="1713"/><tag k="coa:place_id" v="368366"/></node><node id="-48" lat="30.243582" lon="-97.756564" changeset="false"><tag k="addr:street" v="West Live Oak Street"/><tag k="addr:housenumber" v="411"/><tag k="coa:place_id" v="89262"/></node><node id="-49" lat="30.249162" lon="-97.751354" changeset="false"><tag k="addr:street" v="Eva Street"/><tag k="addr:housenumber" v="1500"/><tag k="coa:place_id" v="331820"/></node><node id="-50" lat="30.240736" lon="-97.753741" changeset="false"><tag k="addr:street" v="Lindell Avenue"/><tag k="addr:housenumber" v="2217"/><tag k="coa:place_id" v="368786"/></node><node id="-51" lat="30.249658" lon="-97.753736" changeset="false"><tag k="addr:street" v="West Elizabeth Street"/><tag k="addr:housenumber" v="405"/><tag k="coa:place_id" v="244950"/></node><node id="-52" lat="30.243344" lon="-97.752386" changeset="false"><tag k="addr:street" v="South Congress Avenue"/><tag k="addr:housenumber" v="2020"/><tag k="coa:place_id" v="752840"/></node><node id="-53" lat="30.242484" lon="-97.755593" changeset="false"><tag k="addr:street" v="Wilson Street"/><tag k="addr:housenumber" v="2213"/><tag k="coa:place_id" v="225083"/></node><node id="-54" lat="30.249052" lon="-97.753646" changeset="false"><tag k="addr:street" v="West Monroe Street"/><tag k="addr:housenumber" v="400"/><tag k="coa:place_id" v="368630"/></node><node id="-55" lat="30.246394" lon="-97.752528" changeset="false"><tag k="addr:street" v="West Annie Street"/><tag k="addr:housenumber" v="205"/><tag k="coa:place_id" v="410084"/></node><node id="-56" lat="30.239309" lon="-97.75337" changeset="false"><tag k="addr:street" v="South Congress Avenue"/><tag k="addr:housenumber" v="2320"/><tag k="coa:place_id" v="752894"/></node><node id="-57" lat="30.24493" lon="-97.75457" changeset="false"><tag k="addr:street" v="West Johanna Street"/><tag k="addr:housenumber" v="401"/><tag k="coa:place_id" v="188401"/></node><node id="-58" lat="30.247894" lon="-97.755324" changeset="false"><tag k="addr:street" v="South 1st Street"/><tag k="addr:housenumber" v="1703"/><tag k="coa:place_id" v="368384"/></node><node id="-59" lat="30.24284" lon="-97.754253" changeset="false"><tag k="addr:street" v="West Live Oak Street"/><tag k="addr:housenumber" v="212"/><tag k="coa:place_id" v="3263569"/></node><node id="-60" lat="30.249836" lon="-97.749989" changeset="false"><tag k="addr:street" v="South Congress Avenue"/><tag k="addr:housenumber" v="1406"/><tag k="coa:place_id" v="331484"/></node><node id="-61" lat="30.23928" lon="-97.753677" changeset="false"><tag k="addr:street" v="South Congress Avenue"/><tag k="addr:housenumber" v="2336 1/2"/><tag k="coa:place_id" v="3632441"/></node><node id="-62" lat="30.251072" lon="-97.74951" changeset="false"><tag k="addr:street" v="South Congress Avenue"/><tag k="addr:housenumber" v="1300"/><tag k="coa:place_id" v="331412"/></node><node id="-63" lat="30.241925" lon="-97.758686" changeset="false"><tag k="addr:street" v="West Oltorf Street"/><tag k="addr:housenumber" v="510"/><tag k="coa:place_id" v="752906"/></node><node id="-64" lat="30.244249" lon="-97.754724" changeset="false"><tag k="addr:street" v="Crockett Street"/><tag k="addr:housenumber" v="300"/><tag k="coa:place_id" v="410876"/></node><node id="-65" lat="30.244882" lon="-97.755278" changeset="false"><tag k="addr:street" v="West Johanna Street"/><tag k="addr:housenumber" v="409"/><tag k="coa:place_id" v="164818"/></node><node id="-66" lat="30.248957" lon="-97.752137" changeset="false"><tag k="addr:street" v="Newton Street"/><tag k="addr:housenumber" v="1507"/><tag k="coa:place_id" v="331874"/></node><node id="-67" lat="30.247803" lon="-97.750812" changeset="false"><tag k="addr:street" v="South Congress Avenue"/><tag k="addr:housenumber" v="1602"/><tag k="coa:place_id" v="331970"/></node><node id="-68" lat="30.244888" lon="-97.7571" changeset="false"><tag k="addr:street" v="South 1st Street"/><tag k="addr:housenumber" v="2009"/><tag k="coa:place_id" v="440734"/></node><node id="-69" lat="30.245689" lon="-97.752649" changeset="false"><tag k="addr:street" v="West Mary Street"/><tag k="addr:housenumber" v="200"/><tag k="coa:place_id" v="410156"/></node><node id="-70" lat="30.252372" lon="-97.749895" changeset="false"><tag k="addr:street" v="Newton Street"/><tag k="addr:housenumber" v="1203"/><tag k="coa:place_id" v="194601"/></node><node id="-71" lat="30.246352" lon="-97.754528" changeset="false"><tag k="addr:street" v="West Mary Street"/><tag k="addr:housenumber" v="312"/><tag k="coa:place_id" v="191490"/></node><node id="-72" lat="30.241083" lon="-97.75473" changeset="false"><tag k="addr:street" v="Euclid Avenue"/><tag k="addr:housenumber" v="2303"/><tag k="coa:place_id" v="369446"/></node><node id="-73" lat="30.249181" lon="-97.752556" changeset="false"><tag k="addr:street" v="Newton Street"/><tag k="addr:housenumber" v="1504"/><tag k="coa:place_id" v="3271472"/></node><node id="-74" lat="30.251793" lon="-97.749251" changeset="false"><tag k="addr:street" v="South Congress Avenue"/><tag k="addr:housenumber" v="1208"/><tag k="coa:place_id" v="331328"/></node><node id="-75" lat="30.245243" lon="-97.755854" changeset="false"><tag k="addr:street" v="West Johanna Street"/><tag k="addr:housenumber" v="417"/><tag k="coa:place_id" v="3554220"/></node><node id="-76" lat="30.250662" lon="-97.749667" changeset="false"><tag k="addr:street" v="South Congress Avenue"/><tag k="addr:housenumber" v="1316"/><tag k="coa:place_id" v="752762"/></node><node id="-77" lat="30.243905" lon="-97.756852" changeset="false"><tag k="addr:street" v="West Live Oak Street"/><tag k="addr:housenumber" v="501"/><tag k="coa:place_id" v="367952"/></node><node id="-78" lat="30.245706" lon="-97.752148" changeset="false"><tag k="addr:street" v="Eva Street"/><tag k="addr:housenumber" v="1809"/><tag k="coa:place_id" v="3194163"/></node><node id="-79" lat="30.252306" lon="-97.749209" changeset="false"><tag k="addr:street" v="Nellie Street"/><tag k="addr:housenumber" v="103"/><tag k="coa:place_id" v="248253"/></node><node id="-80" lat="30.241561" lon="-97.75557" changeset="false"><tag k="addr:street" v="Forest Avenue"/><tag k="addr:housenumber" v="2303"/><tag k="coa:place_id" v="5073760"/></node><node id="-81" lat="30.245112" lon="-97.751723" changeset="false"><tag k="addr:street" v="South Congress Avenue"/><tag k="addr:housenumber" v="1900"/><tag k="coa:place_id" v="190899"/></node><node id="-82" lat="30.246977" lon="-97.753543" changeset="false"><tag k="addr:street" v="West Annie Street"/><tag k="addr:housenumber" v="304"/><tag k="coa:place_id" v="3310343"/></node><node id="-83" lat="30.252054" lon="-97.74911" changeset="false"><tag k="addr:street" v="South Congress Avenue"/><tag k="addr:housenumber" v="1204"/><tag k="coa:place_id" v="327723"/></node><node id="-84" lat="30.247748" lon="-97.754483" changeset="false"><tag k="addr:street" v="West Milton Street"/><tag k="addr:housenumber" v="405"/><tag k="coa:place_id" v="368504"/></node><node id="-85" lat="30.241428" lon="-97.757364" changeset="false"><tag k="addr:street" v="West Oltorf Street"/><tag k="addr:housenumber" v="306"/><tag k="coa:place_id" v="369176"/></node><node id="-86" lat="30.246952" lon="-97.752882" changeset="false"><tag k="addr:street" v="Newton Street"/><tag k="addr:housenumber" v="1709"/><tag k="coa:place_id" v="409766"/></node><node id="-87" lat="30.246035" lon="-97.751349" changeset="false"><tag k="addr:street" v="South Congress Avenue"/><tag k="addr:housenumber" v="1800"/><tag k="coa:place_id" v="752804"/></node><node id="-88" lat="30.244038" lon="-97.757089" changeset="false"><tag k="addr:street" v="West Live Oak Street"/><tag k="addr:housenumber" v="505"/><tag k="coa:place_id" v="3072657"/></node><node id="-89" lat="30.245349" lon="-97.753481" changeset="false"><tag k="addr:street" v="Newton Street"/><tag k="addr:housenumber" v="1905"/><tag k="coa:place_id" v="410372"/></node><node id="-90" lat="30.246136" lon="-97.756403" changeset="false"><tag k="addr:street" v="South 1st Street"/><tag k="addr:housenumber" v="1905"/><tag k="coa:place_id" v="241399"/></node><node id="-91" lat="30.244555" lon="-97.752231" changeset="false"><tag k="addr:street" v="West Johanna Street"/><tag k="addr:housenumber" v="110"/><tag k="coa:place_id" v="458168"/></node><node id="-92" lat="30.248442" lon="-97.755227" changeset="false"><tag k="addr:street" v="South 1st Street"/><tag k="addr:housenumber" v="1615"/><tag k="coa:place_id" v="368408"/></node><node id="-93" lat="30.242685" lon="-97.752614" changeset="false"><tag k="addr:street" v="South Congress Avenue"/><tag k="addr:housenumber" v="2114"/><tag k="coa:place_id" v="411074"/></node><node id="-94" lat="30.247695" lon="-97.754319" changeset="false"><tag k="addr:street" v="West Milton Street"/><tag k="addr:housenumber" v="403"/><tag k="coa:place_id" v="511971"/></node><node id="-95" lat="30.246997" lon="-97.753391" changeset="false"><tag k="addr:street" v="Newton Street"/><tag k="addr:housenumber" v="1708"/><tag k="coa:place_id" v="409814"/></node><node id="-96" lat="30.241396" lon="-97.757741" changeset="false"><tag k="addr:street" v="West Oltorf Street"/><tag k="addr:housenumber" v="312"/><tag k="coa:place_id" v="369182"/></node><node id="-97" lat="30.249476" lon="-97.752394" changeset="false"><tag k="addr:street" v="West Elizabeth Street"/><tag k="addr:housenumber" v="307"/><tag k="coa:place_id" v="331634"/></node><node id="-98" lat="30.251175" lon="-97.749872" changeset="false"><tag k="addr:street" v="West James Street"/><tag k="addr:housenumber" v="107"/><tag k="coa:place_id" v="331406"/></node><node id="-99" lat="30.24842" lon="-97.75027" changeset="false"><tag k="addr:street" v="South Congress Avenue"/><tag k="addr:housenumber" v="1512 1/2"/><tag k="coa:place_id" v="331778"/></node><node id="-100" lat="30.252041" lon="-97.750107" changeset="false"><tag k="addr:street" v="Newton Street"/><tag k="addr:housenumber" v="1209"/><tag k="coa:place_id" v="196627"/></node><node id="-101" lat="30.240794" lon="-97.756136" changeset="false"><tag k="addr:street" v="Forest Avenue"/><tag k="addr:housenumber" v="2319"/><tag k="coa:place_id" v="245449"/></node><node id="-102" lat="30.239943" lon="-97.753061" changeset="false"><tag k="addr:street" v="South Congress Avenue"/><tag k="addr:housenumber" v="2302"/><tag k="coa:place_id" v="752888"/></node><node id="-103" lat="30.24451" lon="-97.757158" changeset="false"><tag k="addr:street" v="West Live Oak Street"/><tag k="addr:housenumber" v="508"/><tag k="coa:place_id" v="3033667"/></node><node id="-104" lat="30.24691" lon="-97.754514" changeset="false"><tag k="addr:street" v="West Annie Street"/><tag k="addr:housenumber" v="403"/><tag k="coa:place_id" v="409874"/></node><node id="-105" lat="30.2485" lon="-97.751678" changeset="false"><tag k="addr:street" v="West Monroe Street"/><tag k="addr:housenumber" v="204"/><tag k="coa:place_id" v="331850"/></node><node id="-106" lat="30.240985" lon="-97.756684" changeset="false"><tag k="addr:street" v="Forest Avenue"/><tag k="addr:housenumber" v="2314"/><tag k="coa:place_id" v="369170"/></node><node id="-107" lat="30.24561" lon="-97.755801" changeset="false"><tag k="addr:street" v="West Johanna Street"/><tag k="addr:housenumber" v="416"/><tag k="coa:place_id" v="368108"/></node><node id="-108" lat="30.246688" lon="-97.752576" changeset="false"><tag k="addr:street" v="West Annie Street"/><tag k="addr:housenumber" v="206"/><tag k="coa:place_id" v="409754"/></node><node id="-109" lat="30.247313" lon="-97.755502" changeset="false"><tag k="addr:street" v="West Annie Street"/><tag k="addr:housenumber" v="501"/><tag k="coa:place_id" v="368336"/></node><node id="-110" lat="30.244749" lon="-97.757321" changeset="false"><tag k="addr:street" v="South 1st Street"/><tag k="addr:housenumber" v="2101"/><tag k="coa:place_id" v="367964"/></node><node id="-111" lat="30.243873" lon="-97.755875" changeset="false"><tag k="addr:street" v="West Live Oak Street"/><tag k="addr:housenumber" v="400"/><tag k="coa:place_id" v="411302"/></node><node id="-112" lat="30.244263" lon="-97.755288" changeset="false"><tag k="addr:street" v="Crockett Street"/><tag k="addr:housenumber" v="402"/><tag k="coa:place_id" v="3095029"/></node><node id="-113" lat="30.245256" lon="-97.75393" changeset="false"><tag k="addr:street" v="Newton Street"/><tag k="addr:housenumber" v="1906"/><tag k="coa:place_id" v="410426"/></node><node id="-114" lat="30.239636" lon="-97.754655" changeset="false"><tag k="addr:street" v="West Oltorf Street"/><tag k="addr:housenumber" v="120"/><tag k="coa:place_id" v="752900"/></node><node id="-115" lat="30.252402" lon="-97.749451" changeset="false"><tag k="addr:street" v="Nellie Street"/><tag k="addr:housenumber" v="111"/><tag k="coa:place_id" v="799551"/></node><node id="-116" lat="30.252408" lon="-97.749506" changeset="false"><tag k="addr:street" v="Nellie Street"/><tag k="addr:housenumber" v="115"/><tag k="coa:place_id" v="248255"/></node><node id="-117" lat="30.252155" lon="-97.749073" changeset="false"><tag k="addr:street" v="South Congress Avenue"/><tag k="addr:housenumber" v="1202"/><tag k="coa:place_id" v="331304"/></node><node id="-118" lat="30.252259" lon="-97.749042" changeset="false"><tag k="addr:street" v="South Congress Avenue"/><tag k="addr:housenumber" v="1200"/><tag k="coa:place_id" v="331298"/></node><node id="-119" lat="30.25158" lon="-97.749159" changeset="false"><tag k="addr:street" v="South Congress Avenue"/><tag k="addr:housenumber" v="1224"/><tag k="coa:place_id" v="331340"/></node><node id="-120" lat="30.251748" lon="-97.749102" changeset="false"><tag k="addr:street" v="South Congress Avenue"/><tag k="addr:housenumber" v="1220"/><tag k="coa:place_id" v="752750"/></node><node id="-121" lat="30.248851" lon="-97.750241" changeset="false"><tag k="addr:street" v="South Congress Avenue"/><tag k="addr:housenumber" v="1504"/><tag k="coa:place_id" v="331700"/></node><node id="-122" lat="30.248595" lon="-97.750408" changeset="false"><tag k="addr:street" v="South Congress Avenue"/><tag k="addr:housenumber" v="1508"/><tag k="coa:place_id" v="331712"/></node><node id="-123" lat="30.248197" lon="-97.750594" changeset="false"><tag k="addr:street" v="South Congress Avenue"/><tag k="addr:housenumber" v="1518"/><tag k="coa:place_id" v="331790"/></node><node id="-124" lat="30.248737" lon="-97.750352" changeset="false"><tag k="addr:street" v="South Congress Avenue"/><tag k="addr:housenumber" v="1506"/><tag k="coa:place_id" v="331706"/></node><node id="-125" lat="30.248317" lon="-97.750508" changeset="false"><tag k="addr:street" v="South Congress Avenue"/><tag k="addr:housenumber" v="1512"/><tag k="coa:place_id" v="331766"/></node><node id="-126" lat="30.248456" lon="-97.750461" changeset="false"><tag k="addr:street" v="South Congress Avenue"/><tag k="addr:housenumber" v="1510"/><tag k="coa:place_id" v="331742"/></node><node id="-127" lat="30.248279" lon="-97.750518" changeset="false"><tag k="addr:street" v="South Congress Avenue"/><tag k="addr:housenumber" v="1516"/><tag k="coa:place_id" v="331784"/></node><node id="-128" lat="30.248188" lon="-97.750535" changeset="false"><tag k="addr:street" v="South Congress Avenue"/><tag k="addr:housenumber" v="1522"/><tag k="coa:place_id" v="752774"/></node><node id="-129" lat="30.248226" lon="-97.751626" changeset="false"><tag k="addr:street" v="West Monroe Street"/><tag k="addr:housenumber" v="203"/><tag k="coa:place_id" v="331958"/></node><node id="-130" lat="30.248214" lon="-97.751687" changeset="false"><tag k="addr:street" v="Eva Street"/><tag k="addr:housenumber" v="1600"/><tag k="coa:place_id" v="332054"/></node><node id="-131" lat="30.247703" lon="-97.752471" changeset="false"><tag k="addr:street" v="West Milton Street"/><tag k="addr:housenumber" v="206"/><tag k="coa:place_id" v="332090"/></node><node id="-132" lat="30.247761" lon="-97.752631" changeset="false"><tag k="addr:street" v="West Milton Street"/><tag k="addr:housenumber" v="208"/><tag k="coa:place_id" v="332096"/></node><node id="-133" lat="30.247404" lon="-97.750926" changeset="false"><tag k="addr:street" v="South Congress Avenue"/><tag k="addr:housenumber" v="1608"/><tag k="coa:place_id" v="331988"/></node><node id="-134" lat="30.247222" lon="-97.750825" changeset="false"><tag k="addr:street" v="South Congress Avenue"/><tag k="addr:housenumber" v="1612"/><tag k="coa:place_id" v="332006"/></node><node id="-135" lat="30.247262" lon="-97.750813" changeset="false"><tag k="addr:street" v="South Congress Avenue"/><tag k="addr:housenumber" v="1610"/><tag k="coa:place_id" v="331994"/></node><node id="-136" lat="30.246537" lon="-97.751092" changeset="false"><tag k="addr:street" v="South Congress Avenue"/><tag k="addr:housenumber" v="1716"/><tag k="coa:place_id" v="699442"/></node><node id="-137" lat="30.246793" lon="-97.750999" changeset="false"><tag k="addr:street" v="South Congress Avenue"/><tag k="addr:housenumber" v="1708"/><tag k="coa:place_id" v="409658"/></node><node id="-138" lat="30.247052" lon="-97.751223" changeset="false"><tag k="addr:street" v="West Milton Street"/><tag k="addr:housenumber" v="103"/><tag k="coa:place_id" v="409610"/></node><node id="-139" lat="30.246984" lon="-97.750991" changeset="false"><tag k="addr:street" v="South Congress Avenue"/><tag k="addr:housenumber" v="1700"/><tag k="coa:place_id" v="409616"/></node><node id="-140" lat="30.246665" lon="-97.751035" changeset="false"><tag k="addr:street" v="South Congress Avenue"/><tag k="addr:housenumber" v="1712"/><tag k="coa:place_id" v="244207"/></node><node id="-141" lat="30.246746" lon="-97.751013" changeset="false"><tag k="addr:street" v="South Congress Avenue"/><tag k="addr:housenumber" v="1710"/><tag k="coa:place_id" v="409664"/></node><node id="-142" lat="30.2464" lon="-97.751128" changeset="false"><tag k="addr:street" v="South Congress Avenue"/><tag k="addr:housenumber" v="1720"/><tag k="coa:place_id" v="409688"/></node><node id="-143" lat="30.246613" lon="-97.751064" changeset="false"><tag k="addr:street" v="South Congress Avenue"/><tag k="addr:housenumber" v="1714"/><tag k="coa:place_id" v="409682"/></node><node id="-144" lat="30.246476" lon="-97.7511" changeset="false"><tag k="addr:street" v="South Congress Avenue"/><tag k="addr:housenumber" v="1718"/><tag k="coa:place_id" v="703156"/></node><node id="-145" lat="30.246311" lon="-97.751139" changeset="false"><tag k="addr:street" v="South Congress Avenue"/><tag k="addr:housenumber" v="1722"/><tag k="coa:place_id" v="409694"/></node><node id="-146" lat="30.246926" lon="-97.750995" changeset="false"><tag k="addr:street" v="South Congress Avenue"/><tag k="addr:housenumber" v="1704"/><tag k="coa:place_id" v="409622"/></node><node id="-147" lat="30.246861" lon="-97.750976" changeset="false"><tag k="addr:street" v="South Congress Avenue"/><tag k="addr:housenumber" v="1706"/><tag k="coa:place_id" v="409652"/></node><node id="-148" lat="30.244434" lon="-97.7519" changeset="false"><tag k="addr:street" v="West Johanna Street"/><tag k="addr:housenumber" v="104"/><tag k="coa:place_id" v="410264"/></node><node id="-149" lat="30.244482" lon="-97.751942" changeset="false"><tag k="addr:street" v="South Congress Avenue"/><tag k="addr:housenumber" v="1920"/><tag k="coa:place_id" v="410258"/></node><node id="-150" lat="30.247439" lon="-97.753237" changeset="false"><tag k="addr:street" v="Newton Street"/><tag k="addr:housenumber" v="1700"/><tag k="coa:place_id" v="409802"/></node><node id="-151" lat="30.247438" lon="-97.753141" changeset="false"><tag k="addr:street" v="West Milton Street"/><tag k="addr:housenumber" v="303"/><tag k="coa:place_id" v="368540"/></node><node id="-152" lat="30.248338" lon="-97.753949" changeset="false"><tag k="addr:street" v="Roma Street"/><tag k="addr:housenumber" v="1610"/><tag k="coa:place_id" v="368480"/></node><node id="-153" lat="30.24834" lon="-97.753982" changeset="false"><tag k="addr:street" v="Roma Street"/><tag k="addr:housenumber" v="1608"/><tag k="coa:place_id" v="368474"/></node><node id="-154" lat="30.247239" lon="-97.754494" changeset="false"><tag k="addr:street" v="West Annie Street"/><tag k="addr:housenumber" v="402"/><tag k="coa:place_id" v="619851"/></node><node id="-155" lat="30.247193" lon="-97.754488" changeset="false"><tag k="addr:street" v="West Annie Street"/><tag k="addr:housenumber" v="410"/><tag k="coa:place_id" v="409832"/></node><node id="-156" lat="30.248204" lon="-97.755283" changeset="false"><tag k="addr:street" v="South 1st Street"/><tag k="addr:housenumber" v="1619"/><tag k="coa:place_id" v="368396"/></node><node id="-157" lat="30.248327" lon="-97.755255" changeset="false"><tag k="addr:street" v="South 1st Street"/><tag k="addr:housenumber" v="1617"/><tag k="coa:place_id" v="368402"/></node><node id="-158" lat="30.246165" lon="-97.756011" changeset="false"><tag k="addr:street" v="West Mary Street"/><tag k="addr:housenumber" v="503"/><tag k="coa:place_id" v="368180"/></node><node id="-159" lat="30.2462" lon="-97.756105" changeset="false"><tag k="addr:street" v="West Mary Street"/><tag k="addr:housenumber" v="505"/><tag k="coa:place_id" v="368162"/></node><node id="-160" lat="30.246243" lon="-97.756192" changeset="false"><tag k="addr:street" v="West Mary Street"/><tag k="addr:housenumber" v="507"/><tag k="coa:place_id" v="233741"/></node><node id="-161" lat="30.246262" lon="-97.756362" changeset="false"><tag k="addr:street" v="South 1st Street"/><tag k="addr:housenumber" v="1903"/><tag k="coa:place_id" v="368156"/></node><node id="-162" lat="30.246322" lon="-97.75633" changeset="false"><tag k="addr:street" v="South 1st Street"/><tag k="addr:housenumber" v="1901"/><tag k="coa:place_id" v="368174"/></node><node id="-163" lat="30.246214" lon="-97.75597" changeset="false"><tag k="addr:street" v="West Mary Street"/><tag k="addr:housenumber" v="501"/><tag k="coa:place_id" v="368186"/></node><node id="-164" lat="30.241607" lon="-97.758055" changeset="false"><tag k="addr:street" v="West Oltorf Street"/><tag k="addr:housenumber" v="502"/><tag k="coa:place_id" v="367820"/></node><node id="-165" lat="30.241564" lon="-97.757967" changeset="false"><tag k="addr:street" v="West Oltorf Street"/><tag k="addr:housenumber" v="500"/><tag k="coa:place_id" v="134751"/></node></osm>