<?xml version="1.0" encoding="UTF-8"?><osm version="0.6" generator="github.com/aaronlidman/osm-and-geojson"><node id="-1" lat="30.370333" lon="-97.944793" changeset="false"><tag k="addr:street" v="Kollmeyer Drive"/><tag k="addr:housenumber" v="15303"/><tag k="addr:postcode" v="78734"/></node><node id="-2" lat="30.342751" lon="-97.966523" changeset="false"><tag k="addr:street" v="Ranch Road 620"/><tag k="addr:housenumber" v="2103"/><tag k="addr:postcode" v="78734"/></node><node id="-3" lat="30.344367" lon="-97.965085" changeset="false"><tag k="addr:street" v="Ranch Road 620"/><tag k="addr:housenumber" v="1903"/><tag k="addr:postcode" v="78734"/></node><node id="-4" lat="30.343365" lon="-97.966168" changeset="false"><tag k="addr:street" v="Ranch Road 620"/><tag k="addr:housenumber" v="2011"/><tag k="addr:postcode" v="78734"/></node><node id="-5" lat="30.344432" lon="-97.965445" changeset="false"><tag k="addr:street" v="Ranch Road 620"/><tag k="addr:housenumber" v="1909"/><tag k="addr:postcode" v="78734"/></node><node id="-6" lat="30.339759" lon="-97.968569" changeset="false"><tag k="addr:street" v="Ranch Road 620"/><tag k="addr:housenumber" v="2401"/><tag k="addr:postcode" v="78734"/></node><node id="-7" lat="30.341454" lon="-97.966332" changeset="false"><tag k="addr:street" v="Ranch Road 620"/><tag k="addr:housenumber" v="2301"/><tag k="addr:postcode" v="78734"/></node><node id="-8" lat="30.342442" lon="-97.966912" changeset="false"><tag k="addr:street" v="Ranch Road 620"/><tag k="addr:housenumber" v="2109"/><tag k="addr:postcode" v="78734"/></node><node id="-9" lat="30.342955" lon="-97.965475" changeset="false"><tag k="addr:street" v="Ranch Road 620"/><tag k="addr:housenumber" v="2013"/><tag k="addr:postcode" v="78734"/></node></osm>