<?xml version="1.0" encoding="UTF-8"?><osm version="0.6" generator="github.com/aaronlidman/osm-and-geojson"><node id="-1" lat="30.412217" lon="-97.690754" changeset="false"><tag k="addr:street" v="Metric Boulevard"/><tag k="addr:housenumber" v="12439"/><tag k="addr:postcode" v="78758"/></node><node id="-2" lat="30.408679" lon="-97.696503" changeset="false"><tag k="addr:street" v="Metric Boulevard"/><tag k="addr:housenumber" v="12207"/><tag k="addr:postcode" v="78758"/></node><node id="-3" lat="30.40755" lon="-97.679963" changeset="false"><tag k="addr:street" v="Bluestone Circle"/><tag k="addr:housenumber" v="12406"/><tag k="addr:postcode" v="78758"/></node><node id="-4" lat="30.411375" lon="-97.688412" changeset="false"><tag k="addr:street" v="Parmer Lane"/><tag k="addr:housenumber" v="1605"/><tag k="addr:postcode" v="78758"/></node><node id="-5" lat="30.407985" lon="-97.688243" changeset="false"><tag k="addr:street" v="Scofield Farms Drive"/><tag k="addr:housenumber" v="12401"/><tag k="addr:postcode" v="78758"/></node><node id="-6" lat="30.411418" lon="-97.687759" changeset="false"><tag k="addr:street" v="Parmer Lane"/><tag k="addr:housenumber" v="1603"/><tag k="addr:postcode" v="78758"/></node><node id="-7" lat="30.408748" lon="-97.690293" changeset="false"><tag k="addr:street" v="Cedar Bend Drive"/><tag k="addr:housenumber" v="12328"/><tag k="addr:postcode" v="78758"/></node><node id="-8" lat="30.407769" lon="-97.6904" changeset="false"><tag k="addr:street" v="Cedar Bend Drive"/><tag k="addr:housenumber" v="12301"/><tag k="addr:postcode" v="78758"/></node><node id="-9" lat="30.412936" lon="-97.69026" changeset="false"><tag k="addr:street" v="Parmer Lane"/><tag k="addr:housenumber" v="1707"/><tag k="addr:postcode" v="78758"/></node><node id="-10" lat="30.40805" lon="-97.690368" changeset="false"><tag k="addr:street" v="Cedar Bend Drive"/><tag k="addr:housenumber" v="12309"/><tag k="addr:postcode" v="78758"/></node><node id="-11" lat="30.408489" lon="-97.690595" changeset="false"><tag k="addr:street" v="Cedar Bend Drive"/><tag k="addr:housenumber" v="12316"/><tag k="addr:postcode" v="78758"/></node><node id="-12" lat="30.408036" lon="-97.691964" changeset="false"><tag k="addr:street" v="Cedar Bend Drive"/><tag k="addr:housenumber" v="1702"/><tag k="addr:postcode" v="78758"/></node><node id="-13" lat="30.407534" lon="-97.690042" changeset="false"><tag k="addr:street" v="Cedar Bend Drive"/><tag k="addr:housenumber" v="1601"/><tag k="addr:postcode" v="78758"/></node><node id="-14" lat="30.408762" lon="-97.690158" changeset="false"><tag k="addr:street" v="Cedar Bend Drive"/><tag k="addr:housenumber" v="12332"/><tag k="addr:postcode" v="78758"/></node><node id="-15" lat="30.408176" lon="-97.690309" changeset="false"><tag k="addr:street" v="Cedar Bend Drive"/><tag k="addr:housenumber" v="12313"/><tag k="addr:postcode" v="78758"/></node><node id="-16" lat="30.408605" lon="-97.690518" changeset="false"><tag k="addr:street" v="Cedar Bend Drive"/><tag k="addr:housenumber" v="12320"/><tag k="addr:postcode" v="78758"/></node><node id="-17" lat="30.406751" lon="-97.682463" changeset="false"><tag k="addr:street" v="Blue Water Drive"/><tag k="addr:housenumber" v="12318 1/2"/><tag k="addr:postcode" v="78758"/></node><node id="-18" lat="30.408274" lon="-97.692497" changeset="false"><tag k="addr:street" v="Cedar Bend Drive"/><tag k="addr:housenumber" v="1706"/><tag k="addr:postcode" v="78758"/></node><node id="-19" lat="30.405538" lon="-97.682026" changeset="false"><tag k="addr:street" v="Blue Water Drive"/><tag k="addr:housenumber" v="12308"/><tag k="addr:postcode" v="78758"/></node><node id="-20" lat="30.40824" lon="-97.680754" changeset="false"><tag k="addr:street" v="Parmer Lane"/><tag k="addr:housenumber" v="1305"/><tag k="addr:postcode" v="78758"/></node><node id="-21" lat="30.408565" lon="-97.689962" changeset="false"><tag k="addr:street" v="Cedar Bend Drive"/><tag k="addr:housenumber" v="12329"/><tag k="addr:postcode" v="78758"/></node><node id="-22" lat="30.408367" lon="-97.690094" changeset="false"><tag k="addr:street" v="Cedar Bend Drive"/><tag k="addr:housenumber" v="12321"/><tag k="addr:postcode" v="78758"/></node><node id="-23" lat="30.412535" lon="-97.690565" changeset="false"><tag k="addr:street" v="Metric Boulevard"/><tag k="addr:housenumber" v="12443"/><tag k="addr:postcode" v="78758"/></node><node id="-24" lat="30.412467" lon="-97.689893" changeset="false"><tag k="addr:street" v="Parmer Lane"/><tag k="addr:housenumber" v="1709"/><tag k="addr:postcode" v="78758"/></node><node id="-25" lat="30.411348" lon="-97.690994" changeset="false"><tag k="addr:street" v="Shadowview Drive"/><tag k="addr:housenumber" v="1718"/><tag k="addr:postcode" v="78758"/></node><node id="-26" lat="30.408475" lon="-97.690014" changeset="false"><tag k="addr:street" v="Cedar Bend Drive"/><tag k="addr:housenumber" v="12325"/><tag k="addr:postcode" v="78758"/></node><node id="-27" lat="30.407781" lon="-97.691567" changeset="false"><tag k="addr:street" v="Cedar Bend Drive"/><tag k="addr:housenumber" v="1614"/><tag k="addr:postcode" v="78758"/></node><node id="-28" lat="30.410906" lon="-97.68629" changeset="false"><tag k="addr:street" v="Parmer Lane"/><tag k="addr:housenumber" v="1503"/><tag k="addr:postcode" v="78758"/></node><node id="-29" lat="30.407947" lon="-97.691799" changeset="false"><tag k="addr:street" v="Cedar Bend Drive"/><tag k="addr:housenumber" v="1700"/><tag k="addr:postcode" v="78758"/></node><node id="-30" lat="30.408311" lon="-97.690767" changeset="false"><tag k="addr:street" v="Cedar Bend Drive"/><tag k="addr:housenumber" v="12312"/><tag k="addr:postcode" v="78758"/></node><node id="-31" lat="30.407438" lon="-97.681156" changeset="false"><tag k="addr:street" v="Willow Bend Drive"/><tag k="addr:housenumber" v="12404"/><tag k="addr:postcode" v="78758"/></node><node id="-32" lat="30.40813" lon="-97.692164" changeset="false"><tag k="addr:street" v="Cedar Bend Drive"/><tag k="addr:housenumber" v="1704"/><tag k="addr:postcode" v="78758"/></node><node id="-33" lat="30.408289" lon="-97.690248" changeset="false"><tag k="addr:street" v="Cedar Bend Drive"/><tag k="addr:housenumber" v="12317"/><tag k="addr:postcode" v="78758"/></node><node id="-34" lat="30.407913" lon="-97.690407" changeset="false"><tag k="addr:street" v="Cedar Bend Drive"/><tag k="addr:housenumber" v="12305"/><tag k="addr:postcode" v="78758"/></node><node id="-35" lat="30.412312" lon="-97.689464" changeset="false"><tag k="addr:street" v="Parmer Lane"/><tag k="addr:housenumber" v="1701"/><tag k="addr:postcode" v="78758"/></node><node id="-36" lat="30.408308" lon="-97.692741" changeset="false"><tag k="addr:street" v="Running Bird Lane"/><tag k="addr:housenumber" v="12241"/><tag k="addr:postcode" v="78758"/></node><node id="-37" lat="30.409779" lon="-97.695364" changeset="false"><tag k="addr:street" v="Metric Boulevard"/><tag k="addr:housenumber" v="12349"/><tag k="addr:postcode" v="78758"/></node><node id="-38" lat="30.411664" lon="-97.691589" changeset="false"><tag k="addr:street" v="Running Bird Lane"/><tag k="addr:housenumber" v="12430"/><tag k="addr:postcode" v="78758"/></node><node id="-39" lat="30.40872" lon="-97.690421" changeset="false"><tag k="addr:street" v="Cedar Bend Drive"/><tag k="addr:housenumber" v="12324"/><tag k="addr:postcode" v="78758"/></node><node id="-40" lat="30.407992" lon="-97.680838" changeset="false"><tag k="addr:street" v="Willow Bend Drive"/><tag k="addr:housenumber" v="12408"/><tag k="addr:postcode" v="78758"/></node><node id="-41" lat="30.406678" lon="-97.682348" changeset="false"><tag k="addr:street" v="Blue Water Drive"/><tag k="addr:housenumber" v="12318"/><tag k="addr:postcode" v="78758"/></node><node id="-42" lat="30.40986" lon="-97.690349" changeset="false"><tag k="addr:street" v="Shag Bark Trail"/><tag k="addr:housenumber" v="1706"/><tag k="addr:postcode" v="78758"/></node><node id="-43" lat="30.409757" lon="-97.690131" changeset="false"><tag k="addr:street" v="Shag Bark Trail"/><tag k="addr:housenumber" v="1704"/><tag k="addr:postcode" v="78758"/></node><node id="-44" lat="30.409978" lon="-97.690609" changeset="false"><tag k="addr:street" v="Shag Bark Trail"/><tag k="addr:housenumber" v="1708"/><tag k="addr:postcode" v="78758"/></node><node id="-45" lat="30.41007" lon="-97.690811" changeset="false"><tag k="addr:street" v="Shag Bark Trail"/><tag k="addr:housenumber" v="1710"/><tag k="addr:postcode" v="78758"/></node><node id="-46" lat="30.409524" lon="-97.689544" changeset="false"><tag k="addr:street" v="Shag Bark Trail"/><tag k="addr:housenumber" v="1700"/><tag k="addr:postcode" v="78758"/></node><node id="-47" lat="30.409603" lon="-97.689765" changeset="false"><tag k="addr:street" v="Shag Bark Trail"/><tag k="addr:housenumber" v="1702"/><tag k="addr:postcode" v="78758"/></node><node id="-48" lat="30.409268" lon="-97.688996" changeset="false"><tag k="addr:street" v="Shag Bark Trail"/><tag k="addr:housenumber" v="1616"/><tag k="addr:postcode" v="78758"/></node><node id="-49" lat="30.409238" lon="-97.689009" changeset="false"><tag k="addr:street" v="Shadyview Drive"/><tag k="addr:housenumber" v="12301"/><tag k="addr:postcode" v="78758"/></node><node id="-50" lat="30.410314" lon="-97.691281" changeset="false"><tag k="addr:street" v="Shag Bark Trail"/><tag k="addr:housenumber" v="1714"/><tag k="addr:postcode" v="78758"/></node><node id="-51" lat="30.410202" lon="-97.691064" changeset="false"><tag k="addr:street" v="Shag Bark Trail"/><tag k="addr:housenumber" v="1712"/><tag k="addr:postcode" v="78758"/></node></osm>