<?xml version="1.0" encoding="UTF-8"?><osm version="0.6" generator="github.com/aaronlidman/osm-and-geojson"><node id="-1" lat="30.158172" lon="-97.779003" changeset="false"><tag k="addr:street" v="Melissa Oaks Lane"/><tag k="addr:housenumber" v="2209"/><tag k="addr:postcode" v="78744"/></node><node id="-2" lat="30.15957" lon="-97.776632" changeset="false"><tag k="addr:street" v="East Slaughter Lane"/><tag k="addr:housenumber" v="811"/><tag k="addr:postcode" v="78744"/></node><node id="-3" lat="30.156487" lon="-97.787889" changeset="false"><tag k="addr:street" v="Brandt Road"/><tag k="addr:housenumber" v="1847 1/2"/><tag k="addr:postcode" v="78747"/></node><node id="-4" lat="30.1548" lon="-97.787579" changeset="false"><tag k="addr:street" v="Isle Royale"/><tag k="addr:housenumber" v="10028 1/2"/><tag k="addr:postcode" v="78747"/></node><node id="-5" lat="30.160334" lon="-97.777117" changeset="false"><tag k="addr:street" v="East Slaughter Lane"/><tag k="addr:housenumber" v="729"/><tag k="addr:postcode" v="78744"/></node><node id="-6" lat="30.161338" lon="-97.777859" changeset="false"><tag k="addr:street" v="East Slaughter Lane"/><tag k="addr:housenumber" v="709"/><tag k="addr:postcode" v="78744"/></node><node id="-7" lat="30.15815" lon="-97.77912" changeset="false"><tag k="addr:street" v="Melissa Oaks Lane"/><tag k="addr:housenumber" v="2207"/><tag k="addr:postcode" v="78744"/></node><node id="-8" lat="30.156651" lon="-97.783253" changeset="false"><tag k="addr:street" v="Brandt Road"/><tag k="addr:housenumber" v="2117"/><tag k="addr:postcode" v="78747"/></node><node id="-9" lat="30.149611" lon="-97.78522" changeset="false"><tag k="addr:street" v="Channel Island"/><tag k="addr:housenumber" v="10337 1/2"/><tag k="addr:postcode" v="78747"/></node><node id="-10" lat="30.156434" lon="-97.788828" changeset="false"><tag k="addr:street" v="Buffalo Lake"/><tag k="addr:housenumber" v="9900"/><tag k="addr:postcode" v="78747"/></node><node id="-11" lat="30.153066" lon="-97.782708" changeset="false"><tag k="addr:street" v="Channel Island"/><tag k="addr:housenumber" v="10011 1/2"/><tag k="addr:postcode" v="78747"/></node><node id="-12" lat="30.156834" lon="-97.788652" changeset="false"><tag k="addr:street" v="Brandt Road"/><tag k="addr:housenumber" v="1815 1/2"/><tag k="addr:postcode" v="78747"/></node><node id="-13" lat="30.156225" lon="-97.789874" changeset="false"><tag k="addr:street" v="Interstate 35 Frontage Road"/><tag k="addr:housenumber" v="10001"/><tag k="addr:postcode" v="78747"/></node><node id="-14" lat="30.149817" lon="-97.785641" changeset="false"><tag k="addr:street" v="Channel Island"/><tag k="addr:housenumber" v="10400 1/2"/><tag k="addr:postcode" v="78747"/></node><node id="-15" lat="30.15462" lon="-97.789024" changeset="false"><tag k="addr:street" v="National Park"/><tag k="addr:housenumber" v="1901"/><tag k="addr:postcode" v="78747"/></node><node id="-16" lat="30.152514" lon="-97.782883" changeset="false"><tag k="addr:street" v="Channel Island"/><tag k="addr:housenumber" v="10025 1/2"/><tag k="addr:postcode" v="78747"/></node><node id="-17" lat="30.148832" lon="-97.788209" changeset="false"><tag k="addr:street" v="Big Thicket Drive"/><tag k="addr:housenumber" v="10601 1/2"/><tag k="addr:postcode" v="78747"/></node><node id="-18" lat="30.158398" lon="-97.77787" changeset="false"><tag k="addr:street" v="Melissa Oaks Lane"/><tag k="addr:housenumber" v="2315"/><tag k="addr:postcode" v="78744"/></node><node id="-19" lat="30.157844" lon="-97.779568" changeset="false"><tag k="addr:street" v="Brandt Road"/><tag k="addr:housenumber" v="2304"/><tag k="addr:postcode" v="78744"/></node><node id="-20" lat="30.15444" lon="-97.790536" changeset="false"><tag k="addr:street" v="Interstate 35 Frontage Road"/><tag k="addr:housenumber" v="10019"/><tag k="addr:postcode" v="78747"/></node><node id="-21" lat="30.158965" lon="-97.777048" changeset="false"><tag k="addr:street" v="Melissa Oaks Lane"/><tag k="addr:housenumber" v="2415"/><tag k="addr:postcode" v="78744"/></node><node id="-22" lat="30.155822" lon="-97.786907" changeset="false"><tag k="addr:street" v="Petrified Forest Drive"/><tag k="addr:housenumber" v="1916"/><tag k="addr:postcode" v="78747"/></node><node id="-23" lat="30.155764" lon="-97.786775" changeset="false"><tag k="addr:street" v="Petrified Forest Drive"/><tag k="addr:housenumber" v="2000"/><tag k="addr:postcode" v="78747"/></node></osm>