<?xml version="1.0" encoding="UTF-8"?><osm version="0.6" generator="github.com/aaronlidman/osm-and-geojson"><node id="-1" lat="30.153719" lon="-97.827677" changeset="false"><tag k="addr:street" v="Canon Yeomans Trail"/><tag k="addr:housenumber" v="1105"/><tag k="addr:postcode" v="78748"/></node><node id="-2" lat="30.154595" lon="-97.829438" changeset="false"><tag k="addr:street" v="Merchants Tale Lane"/><tag k="addr:housenumber" v="1413"/><tag k="addr:postcode" v="78748"/></node><node id="-3" lat="30.151666" lon="-97.830598" changeset="false"><tag k="addr:street" v="Susie Street"/><tag k="addr:housenumber" v="11506"/><tag k="addr:postcode" v="78748"/></node><node id="-4" lat="30.152297" lon="-97.830592" changeset="false"><tag k="addr:street" v="Susie Street"/><tag k="addr:housenumber" v="11500"/><tag k="addr:postcode" v="78748"/></node><node id="-5" lat="30.14452" lon="-97.832499" changeset="false"><tag k="addr:street" v="Manchaca Road"/><tag k="addr:housenumber" v="12001"/><tag k="addr:postcode" v="78748"/></node><node id="-6" lat="30.140697" lon="-97.832001" changeset="false"><tag k="addr:street" v="Farm-to-Market Road 1626"/><tag k="addr:housenumber" v="1010"/><tag k="addr:postcode" v="78748"/></node><node id="-7" lat="30.151463" lon="-97.830581" changeset="false"><tag k="addr:street" v="Susie Street"/><tag k="addr:housenumber" v="11508"/><tag k="addr:postcode" v="78748"/></node><node id="-8" lat="30.151454" lon="-97.830968" changeset="false"><tag k="addr:street" v="Joy Street"/><tag k="addr:housenumber" v="11513"/><tag k="addr:postcode" v="78748"/></node><node id="-9" lat="30.141806" lon="-97.830282" changeset="false"><tag k="addr:street" v="Wirth Road"/><tag k="addr:housenumber" v="12000"/><tag k="addr:postcode" v="78748"/></node><node id="-10" lat="30.157599" lon="-97.830581" changeset="false"><tag k="addr:street" v="Franklins Tale Loop"/><tag k="addr:housenumber" v="11141"/><tag k="addr:postcode" v="78748"/></node><node id="-11" lat="30.156346" lon="-97.831376" changeset="false"><tag k="addr:street" v="Canterbury Tales Lane"/><tag k="addr:housenumber" v="11216"/><tag k="addr:postcode" v="78748"/></node><node id="-12" lat="30.152896" lon="-97.831018" changeset="false"><tag k="addr:street" v="Joy Street"/><tag k="addr:housenumber" v="11403"/><tag k="addr:postcode" v="78748"/></node><node id="-13" lat="30.150868" lon="-97.830013" changeset="false"><tag k="addr:street" v="Susie Street"/><tag k="addr:housenumber" v="11601"/><tag k="addr:postcode" v="78748"/></node><node id="-14" lat="30.151841" lon="-97.831911" changeset="false"><tag k="addr:street" v="Easy Street"/><tag k="addr:housenumber" v="11513"/><tag k="addr:postcode" v="78748"/></node><node id="-15" lat="30.152515" lon="-97.829702" changeset="false"><tag k="addr:street" v="Mayo Street"/><tag k="addr:housenumber" v="11402"/><tag k="addr:postcode" v="78748"/></node><node id="-16" lat="30.156739" lon="-97.832344" changeset="false"><tag k="addr:street" v="Monahans Lane"/><tag k="addr:housenumber" v="1720"/><tag k="addr:postcode" v="78748"/></node><node id="-17" lat="30.148053" lon="-97.830055" changeset="false"><tag k="addr:street" v="Hartley Cove"/><tag k="addr:housenumber" v="11828"/><tag k="addr:postcode" v="78748"/></node><node id="-18" lat="30.153662" lon="-97.832262" changeset="false"><tag k="addr:street" v="Lost Maples Trail"/><tag k="addr:housenumber" v="11341"/><tag k="addr:postcode" v="78748"/></node><node id="-19" lat="30.153648" lon="-97.832551" changeset="false"><tag k="addr:street" v="Lost Maples Trail"/><tag k="addr:housenumber" v="11409"/><tag k="addr:postcode" v="78748"/></node><node id="-20" lat="30.161198" lon="-97.83157" changeset="false"><tag k="addr:street" v="Manchaca Road"/><tag k="addr:housenumber" v="10901"/><tag k="addr:postcode" v="78748"/></node><node id="-21" lat="30.148256" lon="-97.832638" changeset="false"><tag k="addr:street" v="Easy Street"/><tag k="addr:housenumber" v="11800"/><tag k="addr:postcode" v="78748"/></node><node id="-22" lat="30.157967" lon="-97.829737" changeset="false"><tag k="addr:street" v="Canon Yeomans Trail"/><tag k="addr:housenumber" v="1528"/><tag k="addr:postcode" v="78748"/></node><node id="-23" lat="30.152645" lon="-97.83249" changeset="false"><tag k="addr:street" v="Easy Street"/><tag k="addr:housenumber" v="11504"/><tag k="addr:postcode" v="78748"/></node><node id="-24" lat="30.156163" lon="-97.828909" changeset="false"><tag k="addr:street" v="Canterbury Tales Lane"/><tag k="addr:housenumber" v="11347"/><tag k="addr:postcode" v="78748"/></node><node id="-25" lat="30.15022" lon="-97.831666" changeset="false"><tag k="addr:street" v="Mooreland Drive"/><tag k="addr:housenumber" v="1305"/><tag k="addr:postcode" v="78748"/></node><node id="-26" lat="30.153745" lon="-97.829014" changeset="false"><tag k="addr:street" v="Sir Thopas Trail"/><tag k="addr:housenumber" v="1413"/><tag k="addr:postcode" v="78748"/></node><node id="-27" lat="30.152923" lon="-97.830632" changeset="false"><tag k="addr:street" v="Susie Street"/><tag k="addr:housenumber" v="11402"/><tag k="addr:postcode" v="78748"/></node><node id="-28" lat="30.147663" lon="-97.83249" changeset="false"><tag k="addr:street" v="Easy Street"/><tag k="addr:housenumber" v="11820"/><tag k="addr:postcode" v="78748"/></node><node id="-29" lat="30.151474" lon="-97.829662" changeset="false"><tag k="addr:street" v="Mayo Street"/><tag k="addr:housenumber" v="11506"/><tag k="addr:postcode" v="78748"/></node><node id="-30" lat="30.151444" lon="-97.831896" changeset="false"><tag k="addr:street" v="Easy Street"/><tag k="addr:housenumber" v="11601"/><tag k="addr:postcode" v="78748"/></node><node id="-31" lat="30.150664" lon="-97.829996" changeset="false"><tag k="addr:street" v="Susie Street"/><tag k="addr:housenumber" v="11603"/><tag k="addr:postcode" v="78748"/></node><node id="-32" lat="30.151659" lon="-97.830981" changeset="false"><tag k="addr:street" v="Joy Street"/><tag k="addr:housenumber" v="11511"/><tag k="addr:postcode" v="78748"/></node><node id="-33" lat="30.152086" lon="-97.830997" changeset="false"><tag k="addr:street" v="Joy Street"/><tag k="addr:housenumber" v="11507"/><tag k="addr:postcode" v="78748"/></node><node id="-34" lat="30.152893" lon="-97.831585" changeset="false"><tag k="addr:street" v="Joy Street"/><tag k="addr:housenumber" v="11402"/><tag k="addr:postcode" v="78748"/></node><node id="-35" lat="30.152871" lon="-97.831917" changeset="false"><tag k="addr:street" v="Easy Street"/><tag k="addr:housenumber" v="11503"/><tag k="addr:postcode" v="78748"/></node><node id="-36" lat="30.15286" lon="-97.832484" changeset="false"><tag k="addr:street" v="Easy Street"/><tag k="addr:housenumber" v="11502"/><tag k="addr:postcode" v="78748"/></node><node id="-37" lat="30.152729" lon="-97.829707" changeset="false"><tag k="addr:street" v="Mayo Street"/><tag k="addr:housenumber" v="11400"/><tag k="addr:postcode" v="78748"/></node><node id="-38" lat="30.152485" lon="-97.831556" changeset="false"><tag k="addr:street" v="Joy Street"/><tag k="addr:housenumber" v="11502"/><tag k="addr:postcode" v="78748"/></node><node id="-39" lat="30.155509" lon="-97.832975" changeset="false"><tag k="addr:street" v="Lost Maples Trail"/><tag k="addr:housenumber" v="11212"/><tag k="addr:postcode" v="78748"/></node><node id="-40" lat="30.153954" lon="-97.83284" changeset="false"><tag k="addr:street" v="Lost Maples Trail"/><tag k="addr:housenumber" v="11425"/><tag k="addr:postcode" v="78748"/></node><node id="-41" lat="30.148276" lon="-97.832154" changeset="false"><tag k="addr:street" v="Easy Street"/><tag k="addr:housenumber" v="11801"/><tag k="addr:postcode" v="78748"/></node><node id="-42" lat="30.147041" lon="-97.83039" changeset="false"><tag k="addr:street" v="Regal Row"/><tag k="addr:housenumber" v="1120"/><tag k="addr:postcode" v="78748"/></node><node id="-43" lat="30.155958" lon="-97.827814" changeset="false"><tag k="addr:street" v="Canon Yeomans Trail"/><tag k="addr:housenumber" v="1324"/><tag k="addr:postcode" v="78748"/></node><node id="-44" lat="30.150871" lon="-97.829633" changeset="false"><tag k="addr:street" v="Mayo Street"/><tag k="addr:housenumber" v="11512"/><tag k="addr:postcode" v="78748"/></node><node id="-45" lat="30.151002" lon="-97.832454" changeset="false"><tag k="addr:street" v="Easy Street"/><tag k="addr:housenumber" v="11604"/><tag k="addr:postcode" v="78748"/></node><node id="-46" lat="30.15232" lon="-97.829684" changeset="false"><tag k="addr:street" v="Mayo Street"/><tag k="addr:housenumber" v="11404"/><tag k="addr:postcode" v="78748"/></node><node id="-47" lat="30.150238" lon="-97.83122" changeset="false"><tag k="addr:street" v="Mooreland Drive"/><tag k="addr:housenumber" v="1303"/><tag k="addr:postcode" v="78748"/></node><node id="-48" lat="30.147039" lon="-97.830173" changeset="false"><tag k="addr:street" v="Regal Row"/><tag k="addr:housenumber" v="1112"/><tag k="addr:postcode" v="78748"/></node><node id="-49" lat="30.151495" lon="-97.832469" changeset="false"><tag k="addr:street" v="Easy Street"/><tag k="addr:housenumber" v="11600"/><tag k="addr:postcode" v="78748"/></node><node id="-50" lat="30.15764" lon="-97.828958" changeset="false"><tag k="addr:street" v="Canon Yeomans Court"/><tag k="addr:housenumber" v="11009 1/2"/><tag k="addr:postcode" v="78748"/></node><node id="-51" lat="30.150838" lon="-97.830966" changeset="false"><tag k="addr:street" v="Joy Street"/><tag k="addr:housenumber" v="11603"/><tag k="addr:postcode" v="78748"/></node><node id="-52" lat="30.151426" lon="-97.831551" changeset="false"><tag k="addr:street" v="Joy Street"/><tag k="addr:housenumber" v="11512"/><tag k="addr:postcode" v="78748"/></node><node id="-53" lat="30.152452" lon="-97.832482" changeset="false"><tag k="addr:street" v="Easy Street"/><tag k="addr:housenumber" v="11506"/><tag k="addr:postcode" v="78748"/></node><node id="-54" lat="30.160135" lon="-97.831313" changeset="false"><tag k="addr:street" v="Manchaca Road"/><tag k="addr:housenumber" v="11031"/><tag k="addr:postcode" v="78748"/></node><node id="-55" lat="30.15269" lon="-97.830627" changeset="false"><tag k="addr:street" v="Susie Street"/><tag k="addr:housenumber" v="11404"/><tag k="addr:postcode" v="78748"/></node><node id="-56" lat="30.152668" lon="-97.831936" changeset="false"><tag k="addr:street" v="Easy Street"/><tag k="addr:housenumber" v="11505"/><tag k="addr:postcode" v="78748"/></node><node id="-57" lat="30.156776" lon="-97.832271" changeset="false"><tag k="addr:street" v="Monahans Lane"/><tag k="addr:housenumber" v="1716"/><tag k="addr:postcode" v="78748"/></node><node id="-58" lat="30.154961" lon="-97.832785" changeset="false"><tag k="addr:street" v="Lost Maples Trail"/><tag k="addr:housenumber" v="11248"/><tag k="addr:postcode" v="78748"/></node><node id="-59" lat="30.14877" lon="-97.832142" changeset="false"><tag k="addr:street" v="Easy Street"/><tag k="addr:housenumber" v="11741"/><tag k="addr:postcode" v="78748"/></node><node id="-60" lat="30.153654" lon="-97.832476" changeset="false"><tag k="addr:street" v="Lost Maples Trail"/><tag k="addr:housenumber" v="11405"/><tag k="addr:postcode" v="78748"/></node><node id="-61" lat="30.153741" lon="-97.832783" changeset="false"><tag k="addr:street" v="Lost Maples Trail"/><tag k="addr:housenumber" v="11417"/><tag k="addr:postcode" v="78748"/></node><node id="-62" lat="30.156765" lon="-97.82959" changeset="false"><tag k="addr:street" v="Franklins Tale Loop"/><tag k="addr:housenumber" v="11100"/><tag k="addr:postcode" v="78748"/></node><node id="-63" lat="30.156222" lon="-97.827951" changeset="false"><tag k="addr:street" v="Canon Yeomans Trail"/><tag k="addr:housenumber" v="1332"/><tag k="addr:postcode" v="78748"/></node><node id="-64" lat="30.151036" lon="-97.830569" changeset="false"><tag k="addr:street" v="Susie Street"/><tag k="addr:housenumber" v="11512"/><tag k="addr:postcode" v="78748"/></node><node id="-65" lat="30.151035" lon="-97.831509" changeset="false"><tag k="addr:street" v="Joy Street"/><tag k="addr:housenumber" v="11600"/><tag k="addr:postcode" v="78748"/></node><node id="-66" lat="30.154565" lon="-97.829868" changeset="false"><tag k="addr:street" v="Merchants Tale Lane"/><tag k="addr:housenumber" v="1425"/><tag k="addr:postcode" v="78748"/></node><node id="-67" lat="30.157705" lon="-97.828874" changeset="false"><tag k="addr:street" v="Canon Yeomans Court"/><tag k="addr:housenumber" v="11007 1/2"/><tag k="addr:postcode" v="78748"/></node><node id="-68" lat="30.150322" lon="-97.830443" changeset="false"><tag k="addr:street" v="Mooreland Drive"/><tag k="addr:housenumber" v="1207"/><tag k="addr:postcode" v="78748"/></node><node id="-69" lat="30.150113" lon="-97.832597" changeset="false"><tag k="addr:street" v="Mooreland Drive"/><tag k="addr:housenumber" v="1401"/><tag k="addr:postcode" v="78748"/></node><node id="-70" lat="30.151269" lon="-97.830586" changeset="false"><tag k="addr:street" v="Susie Street"/><tag k="addr:housenumber" v="11510"/><tag k="addr:postcode" v="78748"/></node><node id="-71" lat="30.15186" lon="-97.830593" changeset="false"><tag k="addr:street" v="Susie Street"/><tag k="addr:housenumber" v="11504"/><tag k="addr:postcode" v="78748"/></node><node id="-72" lat="30.155805" lon="-97.832906" changeset="false"><tag k="addr:street" v="Lost Maples Trail"/><tag k="addr:housenumber" v="11204"/><tag k="addr:postcode" v="78748"/></node><node id="-73" lat="30.152506" lon="-97.830621" changeset="false"><tag k="addr:street" v="Susie Street"/><tag k="addr:housenumber" v="11406"/><tag k="addr:postcode" v="78748"/></node><node id="-74" lat="30.155505" lon="-97.83282" changeset="false"><tag k="addr:street" v="Lost Maples Trail"/><tag k="addr:housenumber" v="11220"/><tag k="addr:postcode" v="78748"/></node><node id="-75" lat="30.153663" lon="-97.832103" changeset="false"><tag k="addr:street" v="Lost Maples Trail"/><tag k="addr:housenumber" v="11333"/><tag k="addr:postcode" v="78748"/></node><node id="-76" lat="30.153663" lon="-97.832179" changeset="false"><tag k="addr:street" v="Lost Maples Trail"/><tag k="addr:housenumber" v="11337"/><tag k="addr:postcode" v="78748"/></node><node id="-77" lat="30.153715" lon="-97.83271" changeset="false"><tag k="addr:street" v="Lost Maples Trail"/><tag k="addr:housenumber" v="11413"/><tag k="addr:postcode" v="78748"/></node><node id="-78" lat="30.154184" lon="-97.832812" changeset="false"><tag k="addr:street" v="Lost Maples Trail"/><tag k="addr:housenumber" v="11433"/><tag k="addr:postcode" v="78748"/></node><node id="-79" lat="30.155266" lon="-97.832959" changeset="false"><tag k="addr:street" v="Lost Maples Trail"/><tag k="addr:housenumber" v="11240"/><tag k="addr:postcode" v="78748"/></node><node id="-80" lat="30.154517" lon="-97.832942" changeset="false"><tag k="addr:street" v="Manchaca Road"/><tag k="addr:housenumber" v="11401 1/2"/><tag k="addr:postcode" v="78748"/></node><node id="-81" lat="30.15082" lon="-97.831514" changeset="false"><tag k="addr:street" v="Joy Street"/><tag k="addr:housenumber" v="11602"/><tag k="addr:postcode" v="78748"/></node><node id="-82" lat="30.156088" lon="-97.827873" changeset="false"><tag k="addr:street" v="Canon Yeomans Trail"/><tag k="addr:housenumber" v="1328"/><tag k="addr:postcode" v="78748"/></node><node id="-83" lat="30.152291" lon="-97.831001" changeset="false"><tag k="addr:street" v="Joy Street"/><tag k="addr:housenumber" v="11505"/><tag k="addr:postcode" v="78748"/></node><node id="-84" lat="30.150799" lon="-97.832446" changeset="false"><tag k="addr:street" v="Easy Street"/><tag k="addr:housenumber" v="11606"/><tag k="addr:postcode" v="78748"/></node><node id="-85" lat="30.157279" lon="-97.833072" changeset="false"><tag k="addr:street" v="Ravenscroft Drive"/><tag k="addr:housenumber" v="1722"/><tag k="addr:postcode" v="78748"/></node><node id="-86" lat="30.146657" lon="-97.8291" changeset="false"><tag k="addr:street" v="Regal Row"/><tag k="addr:housenumber" v="1101"/><tag k="addr:postcode" v="78748"/></node><node id="-87" lat="30.150852" lon="-97.830574" changeset="false"><tag k="addr:street" v="Susie Street"/><tag k="addr:housenumber" v="11600"/><tag k="addr:postcode" v="78748"/></node><node id="-88" lat="30.153717" lon="-97.829815" changeset="false"><tag k="addr:street" v="Sir Thopas Trail"/><tag k="addr:housenumber" v="1437"/><tag k="addr:postcode" v="78748"/></node><node id="-89" lat="30.156811" lon="-97.8322" changeset="false"><tag k="addr:street" v="Monahans Lane"/><tag k="addr:housenumber" v="1712"/><tag k="addr:postcode" v="78748"/></node><node id="-90" lat="30.155806" lon="-97.832824" changeset="false"><tag k="addr:street" v="Lost Maples Trail"/><tag k="addr:housenumber" v="11200"/><tag k="addr:postcode" v="78748"/></node><node id="-91" lat="30.155265" lon="-97.832802" changeset="false"><tag k="addr:street" v="Lost Maples Trail"/><tag k="addr:housenumber" v="11232"/><tag k="addr:postcode" v="78748"/></node><node id="-92" lat="30.154129" lon="-97.832847" changeset="false"><tag k="addr:street" v="Lost Maples Trail"/><tag k="addr:housenumber" v="11429"/><tag k="addr:postcode" v="78748"/></node><node id="-93" lat="30.148514" lon="-97.832153" changeset="false"><tag k="addr:street" v="Easy Street"/><tag k="addr:housenumber" v="11749"/><tag k="addr:postcode" v="78748"/></node><node id="-94" lat="30.14802" lon="-97.832151" changeset="false"><tag k="addr:street" v="Easy Street"/><tag k="addr:housenumber" v="11809"/><tag k="addr:postcode" v="78748"/></node><node id="-95" lat="30.14841" lon="-97.829562" changeset="false"><tag k="addr:street" v="Hartley Cove"/><tag k="addr:housenumber" v="11813"/><tag k="addr:postcode" v="78748"/></node><node id="-96" lat="30.155364" lon="-97.83247" changeset="false"><tag k="addr:street" v="Lost Maples Trail"/><tag k="addr:housenumber" v="11229"/><tag k="addr:postcode" v="78748"/></node><node id="-97" lat="30.148901" lon="-97.832138" changeset="false"><tag k="addr:street" v="Easy Street"/><tag k="addr:housenumber" v="11737"/><tag k="addr:postcode" v="78748"/></node><node id="-98" lat="30.15651" lon="-97.829223" changeset="false"><tag k="addr:street" v="Franklins Tale Loop"/><tag k="addr:housenumber" v="11005"/><tag k="addr:postcode" v="78748"/></node><node id="-99" lat="30.158264" lon="-97.831844" changeset="false"><tag k="addr:street" v="Monks Tale Court"/><tag k="addr:housenumber" v="1801"/><tag k="addr:postcode" v="78748"/></node><node id="-100" lat="30.148002" lon="-97.832678" changeset="false"><tag k="addr:street" v="Easy Street"/><tag k="addr:housenumber" v="11808"/><tag k="addr:postcode" v="78748"/></node><node id="-101" lat="30.148964" lon="-97.832601" changeset="false"><tag k="addr:street" v="Easy Street"/><tag k="addr:housenumber" v="11736"/><tag k="addr:postcode" v="78748"/></node><node id="-102" lat="30.155267" lon="-97.832734" changeset="false"><tag k="addr:street" v="Lost Maples Trail"/><tag k="addr:housenumber" v="11228"/><tag k="addr:postcode" v="78748"/></node><node id="-103" lat="30.155507" lon="-97.832892" changeset="false"><tag k="addr:street" v="Lost Maples Trail"/><tag k="addr:housenumber" v="11216"/><tag k="addr:postcode" v="78748"/></node><node id="-104" lat="30.148901" lon="-97.830018" changeset="false"><tag k="addr:street" v="Hartley Cove"/><tag k="addr:housenumber" v="11804"/><tag k="addr:postcode" v="78748"/></node><node id="-105" lat="30.155264" lon="-97.83287" changeset="false"><tag k="addr:street" v="Lost Maples Trail"/><tag k="addr:housenumber" v="11236"/><tag k="addr:postcode" v="78748"/></node><node id="-106" lat="30.154961" lon="-97.832709" changeset="false"><tag k="addr:street" v="Lost Maples Trail"/><tag k="addr:housenumber" v="11252"/><tag k="addr:postcode" v="78748"/></node><node id="-107" lat="30.158317" lon="-97.831579" changeset="false"><tag k="addr:street" v="Monks Tale Court"/><tag k="addr:housenumber" v="1800"/><tag k="addr:postcode" v="78748"/></node><node id="-108" lat="30.158313" lon="-97.832091" changeset="false"><tag k="addr:street" v="Monks Tale Court"/><tag k="addr:housenumber" v="1805"/><tag k="addr:postcode" v="78748"/></node><node id="-109" lat="30.147736" lon="-97.829608" changeset="false"><tag k="addr:street" v="Zachary's Way"/><tag k="addr:housenumber" v="1101"/><tag k="addr:postcode" v="78748"/></node><node id="-110" lat="30.153651" lon="-97.832394" changeset="false"><tag k="addr:street" v="Lost Maples Trail"/><tag k="addr:housenumber" v="11401"/><tag k="addr:postcode" v="78748"/></node><node id="-111" lat="30.153893" lon="-97.832831" changeset="false"><tag k="addr:street" v="Lost Maples Trail"/><tag k="addr:housenumber" v="11421"/><tag k="addr:postcode" v="78748"/></node><node id="-112" lat="30.156845" lon="-97.832137" changeset="false"><tag k="addr:street" v="Monahans Lane"/><tag k="addr:housenumber" v="1708"/><tag k="addr:postcode" v="78748"/></node><node id="-113" lat="30.155302" lon="-97.832444" changeset="false"><tag k="addr:street" v="Lost Maples Trail"/><tag k="addr:housenumber" v="11233"/><tag k="addr:postcode" v="78748"/></node><node id="-114" lat="30.147737" lon="-97.829878" changeset="false"><tag k="addr:street" v="Zachary's Way"/><tag k="addr:housenumber" v="1105"/><tag k="addr:postcode" v="78748"/></node><node id="-115" lat="30.153992" lon="-97.832139" changeset="false"><tag k="addr:street" v="Lost Maples Trail"/><tag k="addr:housenumber" v="11325"/><tag k="addr:postcode" v="78748"/></node><node id="-116" lat="30.154963" lon="-97.832856" changeset="false"><tag k="addr:street" v="Lost Maples Trail"/><tag k="addr:housenumber" v="11244"/><tag k="addr:postcode" v="78748"/></node><node id="-117" lat="30.148137" lon="-97.832641" changeset="false"><tag k="addr:street" v="Easy Street"/><tag k="addr:housenumber" v="11804"/><tag k="addr:postcode" v="78748"/></node><node id="-118" lat="30.152701" lon="-97.830999" changeset="false"><tag k="addr:street" v="Joy Street"/><tag k="addr:housenumber" v="11501"/><tag k="addr:postcode" v="78748"/></node><node id="-119" lat="30.152496" lon="-97.830987" changeset="false"><tag k="addr:street" v="Joy Street"/><tag k="addr:housenumber" v="11503"/><tag k="addr:postcode" v="78748"/></node><node id="-120" lat="30.152072" lon="-97.831547" changeset="false"><tag k="addr:street" v="Joy Street"/><tag k="addr:housenumber" v="11506"/><tag k="addr:postcode" v="78748"/></node><node id="-121" lat="30.154061" lon="-97.832137" changeset="false"><tag k="addr:street" v="Lost Maples Trail"/><tag k="addr:housenumber" v="11321"/><tag k="addr:postcode" v="78748"/></node><node id="-122" lat="30.153923" lon="-97.832131" changeset="false"><tag k="addr:street" v="Lost Maples Trail"/><tag k="addr:housenumber" v="11329"/><tag k="addr:postcode" v="78748"/></node><node id="-123" lat="30.151026" lon="-97.831906" changeset="false"><tag k="addr:street" v="Easy Street"/><tag k="addr:housenumber" v="11605"/><tag k="addr:postcode" v="78748"/></node><node id="-124" lat="30.148714" lon="-97.83265" changeset="false"><tag k="addr:street" v="Easy Street"/><tag k="addr:housenumber" v="11744"/><tag k="addr:postcode" v="78748"/></node><node id="-125" lat="30.155804" lon="-97.832987" changeset="false"><tag k="addr:street" v="Lost Maples Trail"/><tag k="addr:housenumber" v="11208"/><tag k="addr:postcode" v="78748"/></node><node id="-126" lat="30.146664" lon="-97.831714" changeset="false"><tag k="addr:street" v="Regal Row"/><tag k="addr:housenumber" v="1201"/><tag k="addr:postcode" v="78748"/></node><node id="-127" lat="30.15163" lon="-97.831533" changeset="false"><tag k="addr:street" v="Joy Street"/><tag k="addr:housenumber" v="11510"/><tag k="addr:postcode" v="78748"/></node><node id="-128" lat="30.147258" lon="-97.829749" changeset="false"><tag k="addr:street" v="Regal Row"/><tag k="addr:housenumber" v="1104"/><tag k="addr:postcode" v="78748"/></node><node id="-129" lat="30.152074" lon="-97.830609" changeset="false"><tag k="addr:street" v="Susie Street"/><tag k="addr:housenumber" v="11502"/><tag k="addr:postcode" v="78748"/></node><node id="-130" lat="30.156377" lon="-97.828011" changeset="false"><tag k="addr:street" v="Canon Yeomans Trail"/><tag k="addr:housenumber" v="1400"/><tag k="addr:postcode" v="78748"/></node><node id="-131" lat="30.15081" lon="-97.831886" changeset="false"><tag k="addr:street" v="Easy Street"/><tag k="addr:housenumber" v="11607"/><tag k="addr:postcode" v="78748"/></node><node id="-132" lat="30.151229" lon="-97.831875" changeset="false"><tag k="addr:street" v="Easy Street"/><tag k="addr:housenumber" v="11603"/><tag k="addr:postcode" v="78748"/></node><node id="-133" lat="30.151043" lon="-97.830961" changeset="false"><tag k="addr:street" v="Joy Street"/><tag k="addr:housenumber" v="11601"/><tag k="addr:postcode" v="78748"/></node><node id="-134" lat="30.151222" lon="-97.831504" changeset="false"><tag k="addr:street" v="Joy Street"/><tag k="addr:housenumber" v="11514"/><tag k="addr:postcode" v="78748"/></node><node id="-135" lat="30.15618" lon="-97.832919" changeset="false"><tag k="addr:street" v="Manchaca Road"/><tag k="addr:housenumber" v="11315 1/2"/><tag k="addr:postcode" v="78748"/></node><node id="-136" lat="30.141335" lon="-97.831519" changeset="false"><tag k="addr:street" v="Deane Road"/><tag k="addr:housenumber" v="12104"/><tag k="addr:postcode" v="78748"/></node><node id="-137" lat="30.146631" lon="-97.829665" changeset="false"><tag k="addr:street" v="Regal Row"/><tag k="addr:housenumber" v="1105"/><tag k="addr:postcode" v="78748"/></node><node id="-138" lat="30.157332" lon="-97.833124" changeset="false"><tag k="addr:street" v="Ravenscroft Drive"/><tag k="addr:housenumber" v="1722 1/2"/><tag k="addr:postcode" v="78748"/></node><node id="-139" lat="30.154893" lon="-97.832889" changeset="false"><tag k="addr:street" v="Melibee Trail"/><tag k="addr:housenumber" v="1636 1/2"/><tag k="addr:postcode" v="78748"/></node><node id="-140" lat="30.146752" lon="-97.832171" changeset="false"><tag k="addr:street" v="Regal Row"/><tag k="addr:housenumber" v="1205"/><tag k="addr:postcode" v="78748"/></node><node id="-141" lat="30.151872" lon="-97.830985" changeset="false"><tag k="addr:street" v="Joy Street"/><tag k="addr:housenumber" v="11509"/><tag k="addr:postcode" v="78748"/></node><node id="-142" lat="30.151212" lon="-97.832475" changeset="false"><tag k="addr:street" v="Easy Street"/><tag k="addr:housenumber" v="11602"/><tag k="addr:postcode" v="78748"/></node><node id="-143" lat="30.148578" lon="-97.832654" changeset="false"><tag k="addr:street" v="Easy Street"/><tag k="addr:housenumber" v="11748"/><tag k="addr:postcode" v="78748"/></node><node id="-144" lat="30.147654" lon="-97.832317" changeset="false"><tag k="addr:street" v="Easy Street"/><tag k="addr:housenumber" v="11824"/><tag k="addr:postcode" v="78748"/></node><node id="-145" lat="30.152502" lon="-97.830049" changeset="false"><tag k="addr:street" v="Susie Street"/><tag k="addr:housenumber" v="11407"/><tag k="addr:postcode" v="78748"/></node><node id="-146" lat="30.154551" lon="-97.832514" changeset="false"><tag k="addr:street" v="Melibee Trail"/><tag k="addr:housenumber" v="1631"/><tag k="addr:postcode" v="78748"/></node><node id="-147" lat="30.15374" lon="-97.82918" changeset="false"><tag k="addr:street" v="Sir Thopas Trail"/><tag k="addr:housenumber" v="1417"/><tag k="addr:postcode" v="78748"/></node><node id="-148" lat="30.147175" lon="-97.830445" changeset="false"><tag k="addr:street" v="Regal Row"/><tag k="addr:housenumber" v="1114"/><tag k="addr:postcode" v="78748"/></node><node id="-149" lat="30.156331" lon="-97.830453" changeset="false"><tag k="addr:street" v="Canterbury Tales Lane"/><tag k="addr:housenumber" v="11301"/><tag k="addr:postcode" v="78748"/></node><node id="-150" lat="30.156418" lon="-97.83056" changeset="false"><tag k="addr:street" v="Canterbury Tales Lane"/><tag k="addr:housenumber" v="11227"/><tag k="addr:postcode" v="78748"/></node><node id="-151" lat="30.154252" lon="-97.83219" changeset="false"><tag k="addr:street" v="Lost Maples Trail"/><tag k="addr:housenumber" v="11313"/><tag k="addr:postcode" v="78748"/></node><node id="-152" lat="30.154308" lon="-97.832219" changeset="false"><tag k="addr:street" v="Lost Maples Trail"/><tag k="addr:housenumber" v="11309"/><tag k="addr:postcode" v="78748"/></node><node id="-153" lat="30.154194" lon="-97.832162" changeset="false"><tag k="addr:street" v="Lost Maples Trail"/><tag k="addr:housenumber" v="11317"/><tag k="addr:postcode" v="78748"/></node><node id="-154" lat="30.155744" lon="-97.832532" changeset="false"><tag k="addr:street" v="Lost Maples Trail"/><tag k="addr:housenumber" v="11209"/><tag k="addr:postcode" v="78748"/></node><node id="-155" lat="30.155682" lon="-97.832535" changeset="false"><tag k="addr:street" v="Lost Maples Trail"/><tag k="addr:housenumber" v="11213"/><tag k="addr:postcode" v="78748"/></node><node id="-156" lat="30.155805" lon="-97.83253" changeset="false"><tag k="addr:street" v="Lost Maples Trail"/><tag k="addr:housenumber" v="11205"/><tag k="addr:postcode" v="78748"/></node><node id="-157" lat="30.155868" lon="-97.832531" changeset="false"><tag k="addr:street" v="Lost Maples Trail"/><tag k="addr:housenumber" v="11201"/><tag k="addr:postcode" v="78748"/></node><node id="-158" lat="30.156175" lon="-97.832498" changeset="false"><tag k="addr:street" v="Lost Maples Trail"/><tag k="addr:housenumber" v="11129"/><tag k="addr:postcode" v="78748"/></node><node id="-159" lat="30.156064" lon="-97.832517" changeset="false"><tag k="addr:street" v="Lost Maples Trail"/><tag k="addr:housenumber" v="11137"/><tag k="addr:postcode" v="78748"/></node><node id="-160" lat="30.156122" lon="-97.83251" changeset="false"><tag k="addr:street" v="Lost Maples Trail"/><tag k="addr:housenumber" v="11133"/><tag k="addr:postcode" v="78748"/></node><node id="-161" lat="30.156002" lon="-97.832526" changeset="false"><tag k="addr:street" v="Lost Maples Trail"/><tag k="addr:housenumber" v="11141"/><tag k="addr:postcode" v="78748"/></node><node id="-162" lat="30.15602" lon="-97.832993" changeset="false"><tag k="addr:street" v="Lost Maples Trail"/><tag k="addr:housenumber" v="11128"/><tag k="addr:postcode" v="78748"/></node><node id="-163" lat="30.156021" lon="-97.832908" changeset="false"><tag k="addr:street" v="Lost Maples Trail"/><tag k="addr:housenumber" v="11132"/><tag k="addr:postcode" v="78748"/></node><node id="-164" lat="30.156025" lon="-97.83283" changeset="false"><tag k="addr:street" v="Lost Maples Trail"/><tag k="addr:housenumber" v="11136"/><tag k="addr:postcode" v="78748"/></node><node id="-165" lat="30.156317" lon="-97.832842" changeset="false"><tag k="addr:street" v="Lost Maples Trail"/><tag k="addr:housenumber" v="11116"/><tag k="addr:postcode" v="78748"/></node><node id="-166" lat="30.156316" lon="-97.832932" changeset="false"><tag k="addr:street" v="Lost Maples Trail"/><tag k="addr:housenumber" v="11120"/><tag k="addr:postcode" v="78748"/></node><node id="-167" lat="30.156314" lon="-97.833011" changeset="false"><tag k="addr:street" v="Lost Maples Trail"/><tag k="addr:housenumber" v="11124"/><tag k="addr:postcode" v="78748"/></node><node id="-168" lat="30.156383" lon="-97.832304" changeset="false"><tag k="addr:street" v="Monahans Lane"/><tag k="addr:housenumber" v="1725"/><tag k="addr:postcode" v="78748"/></node><node id="-169" lat="30.156373" lon="-97.832393" changeset="false"><tag k="addr:street" v="Monahans Lane"/><tag k="addr:housenumber" v="1729"/><tag k="addr:postcode" v="78748"/></node><node id="-170" lat="30.156363" lon="-97.832463" changeset="false"><tag k="addr:street" v="Monahans Lane"/><tag k="addr:housenumber" v="1733"/><tag k="addr:postcode" v="78748"/></node><node id="-171" lat="30.156391" lon="-97.83224" changeset="false"><tag k="addr:street" v="Monahans Lane"/><tag k="addr:housenumber" v="1721"/><tag k="addr:postcode" v="78748"/></node><node id="-172" lat="30.156833" lon="-97.832954" changeset="false"><tag k="addr:street" v="Lost Maples Trail"/><tag k="addr:housenumber" v="11101"/><tag k="addr:postcode" v="78748"/></node><node id="-173" lat="30.156831" lon="-97.832874" changeset="false"><tag k="addr:street" v="Lost Maples Trail"/><tag k="addr:housenumber" v="11105"/><tag k="addr:postcode" v="78748"/></node><node id="-174" lat="30.156831" lon="-97.832799" changeset="false"><tag k="addr:street" v="Lost Maples Trail"/><tag k="addr:housenumber" v="11109"/><tag k="addr:postcode" v="78748"/></node><node id="-175" lat="30.156534" lon="-97.832935" changeset="false"><tag k="addr:street" v="Lost Maples Trail"/><tag k="addr:housenumber" v="11104"/><tag k="addr:postcode" v="78748"/></node><node id="-176" lat="30.15653" lon="-97.833015" changeset="false"><tag k="addr:street" v="Lost Maples Trail"/><tag k="addr:housenumber" v="11100"/><tag k="addr:postcode" v="78748"/></node><node id="-177" lat="30.156532" lon="-97.832849" changeset="false"><tag k="addr:street" v="Lost Maples Trail"/><tag k="addr:housenumber" v="11108"/><tag k="addr:postcode" v="78748"/></node><node id="-178" lat="30.156683" lon="-97.832504" changeset="false"><tag k="addr:street" v="Lost Maples Trail"/><tag k="addr:housenumber" v="11121"/><tag k="addr:postcode" v="78748"/></node><node id="-179" lat="30.156787" lon="-97.832588" changeset="false"><tag k="addr:street" v="Lost Maples Trail"/><tag k="addr:housenumber" v="11113"/><tag k="addr:postcode" v="78748"/></node><node id="-180" lat="30.156732" lon="-97.832548" changeset="false"><tag k="addr:street" v="Lost Maples Trail"/><tag k="addr:housenumber" v="11117"/><tag k="addr:postcode" v="78748"/></node><node id="-181" lat="30.154919" lon="-97.832504" changeset="false"><tag k="addr:street" v="Melibee Trail"/><tag k="addr:housenumber" v="1630"/><tag k="addr:postcode" v="78748"/></node><node id="-182" lat="30.15502" lon="-97.832413" changeset="false"><tag k="addr:street" v="Lost Maples Trail"/><tag k="addr:housenumber" v="11245"/><tag k="addr:postcode" v="78748"/></node><node id="-183" lat="30.155135" lon="-97.832419" changeset="false"><tag k="addr:street" v="Lost Maples Trail"/><tag k="addr:housenumber" v="11237"/><tag k="addr:postcode" v="78748"/></node><node id="-184" lat="30.154946" lon="-97.83241" changeset="false"><tag k="addr:street" v="Lost Maples Trail"/><tag k="addr:housenumber" v="11249"/><tag k="addr:postcode" v="78748"/></node><node id="-185" lat="30.155075" lon="-97.832414" changeset="false"><tag k="addr:street" v="Lost Maples Trail"/><tag k="addr:housenumber" v="11241"/><tag k="addr:postcode" v="78748"/></node></osm>