<?xml version="1.0" encoding="UTF-8"?><osm version="0.6" generator="github.com/aaronlidman/osm-and-geojson"><node id="-1" lat="30.463558" lon="-97.5505" changeset="false"><tag k="addr:street" v="Hodde Lane"/><tag k="addr:housenumber" v="19918"/><tag k="coa:place_id" v="1136186"/></node><node id="-2" lat="30.480419" lon="-97.563468" changeset="false"><tag k="addr:street" v="Buteo Street"/><tag k="addr:housenumber" v="20521"/><tag k="coa:place_id" v="3138219"/></node><node id="-3" lat="30.4789" lon="-97.571054" changeset="false"><tag k="addr:street" v="Farm Pond Lane"/><tag k="addr:housenumber" v="20304"/><tag k="coa:place_id" v="3105567"/></node><node id="-4" lat="30.45655" lon="-97.560204" changeset="false"><tag k="addr:street" v="Kelly Lane"/><tag k="addr:housenumber" v="4414"/><tag k="coa:place_id" v="1129014"/></node><node id="-5" lat="30.472355" lon="-97.570405" changeset="false"><tag k="addr:street" v="Cajuiles Drive"/><tag k="addr:housenumber" v="2928"/><tag k="coa:place_id" v="3103274"/></node><node id="-6" lat="30.460615" lon="-97.566045" changeset="false"><tag k="addr:street" v="Glastonbury Trail"/><tag k="addr:housenumber" v="3725"/><tag k="coa:place_id" v="3272024"/></node><node id="-7" lat="30.476379" lon="-97.565809" changeset="false"><tag k="addr:street" v="Speidel Drive"/><tag k="addr:housenumber" v="3111"/><tag k="coa:place_id" v="3276694"/></node><node id="-8" lat="30.471495" lon="-97.55457" changeset="false"><tag k="addr:street" v="Merlin Falcon Trail"/><tag k="addr:housenumber" v="20312"/><tag k="coa:place_id" v="3312260"/></node><node id="-9" lat="30.473759" lon="-97.564688" changeset="false"><tag k="addr:street" v="Chayton Circle"/><tag k="addr:housenumber" v="20121"/><tag k="coa:place_id" v="3298589"/></node><node id="-10" lat="30.462054" lon="-97.567905" changeset="false"><tag k="addr:street" v="Glastonbury Trail"/><tag k="addr:housenumber" v="3621"/><tag k="coa:place_id" v="3271842"/></node><node id="-11" lat="30.47864" lon="-97.561974" changeset="false"><tag k="addr:street" v="Murrelet Way"/><tag k="addr:housenumber" v="3305"/><tag k="coa:place_id" v="3347666"/></node><node id="-12" lat="30.473666" lon="-97.569573" changeset="false"><tag k="addr:street" v="Winding Shore Lane"/><tag k="addr:housenumber" v="2917"/><tag k="coa:place_id" v="5061027"/></node><node id="-13" lat="30.473505" lon="-97.56873" changeset="false"><tag k="addr:street" v="Winding Shore Lane"/><tag k="addr:housenumber" v="2929"/><tag k="coa:place_id" v="5061030"/></node><node id="-14" lat="30.472201" lon="-97.567018" changeset="false"><tag k="addr:street" v="Misty Shore Lane"/><tag k="addr:housenumber" v="3100"/><tag k="coa:place_id" v="5061182"/></node><node id="-15" lat="30.471582" lon="-97.567486" changeset="false"><tag k="addr:street" v="Misty Shore Lane"/><tag k="addr:housenumber" v="3021"/><tag k="coa:place_id" v="5061188"/></node><node id="-16" lat="30.482033" lon="-97.565379" changeset="false"><tag k="addr:street" v="Rowe Lane"/><tag k="addr:housenumber" v="2900"/><tag k="coa:place_id" v="3371875"/></node><node id="-17" lat="30.472414" lon="-97.56331" changeset="false"><tag k="addr:street" v="Falconers Way"/><tag k="addr:housenumber" v="3225"/><tag k="coa:place_id" v="3298548"/></node><node id="-18" lat="30.472785" lon="-97.563561" changeset="false"><tag k="addr:street" v="Falconers Way"/><tag k="addr:housenumber" v="3220"/><tag k="coa:place_id" v="3298541"/></node><node id="-19" lat="30.47074" lon="-97.55472" changeset="false"><tag k="addr:street" v="Merlin Falcon Trail"/><tag k="addr:housenumber" v="20220"/><tag k="coa:place_id" v="3312196"/></node><node id="-20" lat="30.464623" lon="-97.568796" changeset="false"><tag k="addr:street" v="Glastonbury Trail"/><tag k="addr:housenumber" v="3316"/><tag k="coa:place_id" v="3373018"/></node><node id="-21" lat="30.462651" lon="-97.569592" changeset="false"><tag k="addr:street" v="Melwas Way"/><tag k="addr:housenumber" v="19200"/><tag k="coa:place_id" v="5187672"/></node><node id="-22" lat="30.462903" lon="-97.568955" changeset="false"><tag k="addr:street" v="Melwas Way"/><tag k="addr:housenumber" v="19304"/><tag k="coa:place_id" v="5187688"/></node><node id="-23" lat="30.463017" lon="-97.568638" changeset="false"><tag k="addr:street" v="Melwas Way"/><tag k="addr:housenumber" v="19312"/><tag k="coa:place_id" v="5187690"/></node><node id="-24" lat="30.470151" lon="-97.567559" changeset="false"><tag k="addr:street" v="Misty Shore Lane"/><tag k="addr:housenumber" v="3205"/><tag k="coa:place_id" v="5114578"/></node><node id="-25" lat="30.469549" lon="-97.567297" changeset="false"><tag k="addr:street" v="Misty Shore Lane"/><tag k="addr:housenumber" v="3216"/><tag k="coa:place_id" v="5114586"/></node><node id="-26" lat="30.465106" lon="-97.557987" changeset="false"><tag k="addr:street" v="Brean Down Road"/><tag k="addr:housenumber" v="3609"/><tag k="coa:place_id" v="5098172"/></node><node id="-27" lat="30.465105" lon="-97.559328" changeset="false"><tag k="addr:street" v="Brean Down Road"/><tag k="addr:housenumber" v="3713"/><tag k="coa:place_id" v="5098180"/></node><node id="-28" lat="30.465133" lon="-97.559817" changeset="false"><tag k="addr:street" v="Brean Down Road"/><tag k="addr:housenumber" v="3725"/><tag k="coa:place_id" v="5098183"/></node><node id="-29" lat="30.464616" lon="-97.559501" changeset="false"><tag k="addr:street" v="Brean Down Road"/><tag k="addr:housenumber" v="3712"/><tag k="coa:place_id" v="5098200"/></node><node id="-30" lat="30.464384" lon="-97.560564" changeset="false"><tag k="addr:street" v="Brean Down Road"/><tag k="addr:housenumber" v="3808"/><tag k="coa:place_id" v="5098205"/></node><node id="-31" lat="30.473907" lon="-97.567131" changeset="false"><tag k="addr:street" v="Winding Shore Lane"/><tag k="addr:housenumber" v="3011"/><tag k="coa:place_id" v="5124236"/></node><node id="-32" lat="30.47422" lon="-97.566678" changeset="false"><tag k="addr:street" v="Winding Shore Lane"/><tag k="addr:housenumber" v="3015"/><tag k="coa:place_id" v="5124238"/></node><node id="-33" lat="30.474874" lon="-97.566213" changeset="false"><tag k="addr:street" v="Winding Shore Lane"/><tag k="addr:housenumber" v="3023"/><tag k="coa:place_id" v="5124241"/></node><node id="-34" lat="30.475556" lon="-97.566654" changeset="false"><tag k="addr:street" v="Winding Shore Lane"/><tag k="addr:housenumber" v="3026"/><tag k="coa:place_id" v="5124248"/></node><node id="-35" lat="30.47026" lon="-97.56375" changeset="false"><tag k="addr:street" v="Chayton Circle"/><tag k="addr:housenumber" v="19917"/><tag k="coa:place_id" v="5124285"/></node><node id="-36" lat="30.471303" lon="-97.564304" changeset="false"><tag k="addr:street" v="Chayton Circle"/><tag k="addr:housenumber" v="20013"/><tag k="coa:place_id" v="5124291"/></node><node id="-37" lat="30.469547" lon="-97.563456" changeset="false"><tag k="addr:street" v="Chayton Circle"/><tag k="addr:housenumber" v="19904"/><tag k="coa:place_id" v="5124293"/></node><node id="-38" lat="30.469822" lon="-97.564044" changeset="false"><tag k="addr:street" v="Chayton Circle"/><tag k="addr:housenumber" v="19916"/><tag k="coa:place_id" v="5124296"/></node><node id="-39" lat="30.470254" lon="-97.56461" changeset="false"><tag k="addr:street" v="Chayton Circle"/><tag k="addr:housenumber" v="19928"/><tag k="coa:place_id" v="5124299"/></node><node id="-40" lat="30.48045" lon="-97.570842" changeset="false"><tag k="addr:street" v="Farm Pond Lane"/><tag k="addr:housenumber" v="20344"/><tag k="coa:place_id" v="3105553"/></node><node id="-41" lat="30.464302" lon="-97.550432" changeset="false"><tag k="addr:street" v="Hodde Lane"/><tag k="addr:housenumber" v="19926"/><tag k="coa:place_id" v="1136185"/></node><node id="-42" lat="30.46073" lon="-97.566196" changeset="false"><tag k="addr:street" v="Glastonbury Trail"/><tag k="addr:housenumber" v="3721"/><tag k="coa:place_id" v="3272023"/></node><node id="-43" lat="30.479182" lon="-97.569387" changeset="false"><tag k="addr:street" v="Kickapoo Cavern Drive"/><tag k="addr:housenumber" v="2745"/><tag k="coa:place_id" v="3111276"/></node><node id="-44" lat="30.460384" lon="-97.565712" changeset="false"><tag k="addr:street" v="Glastonbury Trail"/><tag k="addr:housenumber" v="3805"/><tag k="coa:place_id" v="3272026"/></node><node id="-45" lat="30.47231" lon="-97.564032" changeset="false"><tag k="addr:street" v="Falconers Way"/><tag k="addr:housenumber" v="3213"/><tag k="coa:place_id" v="3298545"/></node><node id="-46" lat="30.464965" lon="-97.568828" changeset="false"><tag k="addr:street" v="Glastonbury Trail"/><tag k="addr:housenumber" v="3308"/><tag k="coa:place_id" v="3373016"/></node><node id="-47" lat="30.480721" lon="-97.561314" changeset="false"><tag k="addr:street" v="Heron Call Trail"/><tag k="addr:housenumber" v="3308"/><tag k="coa:place_id" v="3347842"/></node><node id="-48" lat="30.46402" lon="-97.568536" changeset="false"><tag k="addr:street" v="Glastonbury Trail"/><tag k="addr:housenumber" v="3412"/><tag k="coa:place_id" v="3373042"/></node><node id="-49" lat="30.477107" lon="-97.566299" changeset="false"><tag k="addr:street" v="Winding Shore Lane"/><tag k="addr:housenumber" v="3101"/><tag k="coa:place_id" v="3283033"/></node><node id="-50" lat="30.481057" lon="-97.558767" changeset="false"><tag k="addr:street" v="Rowe Lane"/><tag k="addr:housenumber" v="3221"/><tag k="coa:place_id" v="3348059"/></node><node id="-51" lat="30.469734" lon="-97.567251" changeset="false"><tag k="addr:street" v="Misty Shore Lane"/><tag k="addr:housenumber" v="3212"/><tag k="coa:place_id" v="5114585"/></node><node id="-52" lat="30.459368" lon="-97.564223" changeset="false"><tag k="addr:street" v="Glastonbury Trail"/><tag k="addr:housenumber" v="3917"/><tag k="coa:place_id" v="5117738"/></node><node id="-53" lat="30.47463" lon="-97.566314" changeset="false"><tag k="addr:street" v="Winding Shore Lane"/><tag k="addr:housenumber" v="3021"/><tag k="coa:place_id" v="5124240"/></node><node id="-54" lat="30.474349" lon="-97.569113" changeset="false"><tag k="addr:street" v="Moving Water Lane"/><tag k="addr:housenumber" v="3009"/><tag k="coa:place_id" v="5124275"/></node><node id="-55" lat="30.470082" lon="-97.564477" changeset="false"><tag k="addr:street" v="Chayton Circle"/><tag k="addr:housenumber" v="19924"/><tag k="coa:place_id" v="5124298"/></node><node id="-56" lat="30.47349" lon="-97.569006" changeset="false"><tag k="addr:street" v="Winding Shore Lane"/><tag k="addr:housenumber" v="2925"/><tag k="coa:place_id" v="5061029"/></node><node id="-57" lat="30.473616" lon="-97.568005" changeset="false"><tag k="addr:street" v="Winding Shore Lane"/><tag k="addr:housenumber" v="3005"/><tag k="coa:place_id" v="5061043"/></node><node id="-58" lat="30.473284" lon="-97.571105" changeset="false"><tag k="addr:street" v="Misty Shore Lane"/><tag k="addr:housenumber" v="2821"/><tag k="coa:place_id" v="5061053"/></node><node id="-59" lat="30.472626" lon="-97.569598" changeset="false"><tag k="addr:street" v="Misty Shore Lane"/><tag k="addr:housenumber" v="2912"/><tag k="coa:place_id" v="5061171"/></node><node id="-60" lat="30.472446" lon="-97.568857" changeset="false"><tag k="addr:street" v="Misty Shore Lane"/><tag k="addr:housenumber" v="2924"/><tag k="coa:place_id" v="5061174"/></node><node id="-61" lat="30.472055" lon="-97.569018" changeset="false"><tag k="addr:street" v="Misty Shore Lane"/><tag k="addr:housenumber" v="2925"/><tag k="coa:place_id" v="5061175"/></node><node id="-62" lat="30.472422" lon="-97.568097" changeset="false"><tag k="addr:street" v="Misty Shore Lane"/><tag k="addr:housenumber" v="3008"/><tag k="coa:place_id" v="5061178"/></node><node id="-63" lat="30.472032" lon="-97.568709" changeset="false"><tag k="addr:street" v="Misty Shore Lane"/><tag k="addr:housenumber" v="3001"/><tag k="coa:place_id" v="5061183"/></node><node id="-64" lat="30.47181" lon="-97.567945" changeset="false"><tag k="addr:street" v="Misty Shore Lane"/><tag k="addr:housenumber" v="3013"/><tag k="coa:place_id" v="5061186"/></node><node id="-65" lat="30.465132" lon="-97.559658" changeset="false"><tag k="addr:street" v="Brean Down Road"/><tag k="addr:housenumber" v="3721"/><tag k="coa:place_id" v="5098182"/></node><node id="-66" lat="30.464434" lon="-97.558582" changeset="false"><tag k="addr:street" v="Brean Down Road"/><tag k="addr:housenumber" v="3628"/><tag k="coa:place_id" v="5098196"/></node><node id="-67" lat="30.464634" lon="-97.559815" changeset="false"><tag k="addr:street" v="Brean Down Road"/><tag k="addr:housenumber" v="3720"/><tag k="coa:place_id" v="5098202"/></node><node id="-68" lat="30.463779" lon="-97.561143" changeset="false"><tag k="addr:street" v="Brean Down Road"/><tag k="addr:housenumber" v="3908"/><tag k="coa:place_id" v="3428326"/></node><node id="-69" lat="30.462503" lon="-97.570091" changeset="false"><tag k="addr:street" v="Melwas Way"/><tag k="addr:housenumber" v="19112"/><tag k="coa:place_id" v="5187669"/></node><node id="-70" lat="30.46184" lon="-97.570193" changeset="false"><tag k="addr:street" v="Melwas Way"/><tag k="addr:housenumber" v="19105"/><tag k="coa:place_id" v="5187675"/></node><node id="-71" lat="30.479524" lon="-97.570306" changeset="false"><tag k="addr:street" v="Boca Chica Circle"/><tag k="addr:housenumber" v="2704"/><tag k="coa:place_id" v="3105558"/></node><node id="-72" lat="30.474869" lon="-97.563908" changeset="false"><tag k="addr:street" v="Chayton Circle"/><tag k="addr:housenumber" v="20213"/><tag k="coa:place_id" v="3298594"/></node><node id="-73" lat="30.469147" lon="-97.554411" changeset="false"><tag k="addr:street" v="Raven Caw pass"/><tag k="addr:housenumber" v="3704"/><tag k="coa:place_id" v="3312009"/></node><node id="-74" lat="30.471919" lon="-97.554389" changeset="false"><tag k="addr:street" v="Merlin Falcon Trail"/><tag k="addr:housenumber" v="20324"/><tag k="coa:place_id" v="3312230"/></node><node id="-75" lat="30.481735" lon="-97.571582" changeset="false"><tag k="addr:street" v="Crooked Stick Drive"/><tag k="addr:housenumber" v="20408"/><tag k="coa:place_id" v="3285379"/></node><node id="-76" lat="30.478431" lon="-97.561061" changeset="false"><tag k="addr:street" v="Murrelet Way"/><tag k="addr:housenumber" v="3321"/><tag k="coa:place_id" v="3351816"/></node><node id="-77" lat="30.472429" lon="-97.563128" changeset="false"><tag k="addr:street" v="Falconers Way"/><tag k="addr:housenumber" v="3301"/><tag k="coa:place_id" v="3298549"/></node><node id="-78" lat="30.465182" lon="-97.557846" changeset="false"><tag k="addr:street" v="Brean Down Road"/><tag k="addr:housenumber" v="3605"/><tag k="coa:place_id" v="5098171"/></node><node id="-79" lat="30.465041" lon="-97.558154" changeset="false"><tag k="addr:street" v="Brean Down Road"/><tag k="addr:housenumber" v="3613"/><tag k="coa:place_id" v="5098173"/></node><node id="-80" lat="30.465035" lon="-97.559001" changeset="false"><tag k="addr:street" v="Brean Down Road"/><tag k="addr:housenumber" v="3705"/><tag k="coa:place_id" v="5098178"/></node><node id="-81" lat="30.465127" lon="-97.559493" changeset="false"><tag k="addr:street" v="Brean Down Road"/><tag k="addr:housenumber" v="3717"/><tag k="coa:place_id" v="5098181"/></node><node id="-82" lat="30.465121" lon="-97.559981" changeset="false"><tag k="addr:street" v="Brean Down Road"/><tag k="addr:housenumber" v="3729"/><tag k="coa:place_id" v="5098184"/></node><node id="-83" lat="30.468561" lon="-97.569747" changeset="false"><tag k="addr:street" v="Falsterbo Drive"/><tag k="addr:housenumber" v="3020"/><tag k="coa:place_id" v="5070600"/></node><node id="-84" lat="30.463377" lon="-97.56123" changeset="false"><tag k="addr:street" v="Brean Down Road"/><tag k="addr:housenumber" v="3916"/><tag k="coa:place_id" v="3428328"/></node><node id="-85" lat="30.473975" lon="-97.568924" changeset="false"><tag k="addr:street" v="Winding Shore Lane"/><tag k="addr:housenumber" v="2920"/><tag k="coa:place_id" v="5061023"/></node><node id="-86" lat="30.473198" lon="-97.570429" changeset="false"><tag k="addr:street" v="Misty Shore Lane"/><tag k="addr:housenumber" v="2824"/><tag k="coa:place_id" v="5061051"/></node><node id="-87" lat="30.472837" lon="-97.570057" changeset="false"><tag k="addr:street" v="Misty Shore Lane"/><tag k="addr:housenumber" v="2904"/><tag k="coa:place_id" v="5061169"/></node><node id="-88" lat="30.47255" lon="-97.569372" changeset="false"><tag k="addr:street" v="Misty Shore Lane"/><tag k="addr:housenumber" v="2916"/><tag k="coa:place_id" v="5061172"/></node><node id="-89" lat="30.472473" lon="-97.569123" changeset="false"><tag k="addr:street" v="Misty Shore Lane"/><tag k="addr:housenumber" v="2920"/><tag k="coa:place_id" v="5061173"/></node><node id="-90" lat="30.47154" lon="-97.566315" changeset="false"><tag k="addr:street" v="Misty Shore Lane"/><tag k="addr:housenumber" v="3116"/><tag k="coa:place_id" v="5061193"/></node><node id="-91" lat="30.464128" lon="-97.560915" changeset="false"><tag k="addr:street" v="Brean Down Road"/><tag k="addr:housenumber" v="3900"/><tag k="coa:place_id" v="3428324"/></node><node id="-92" lat="30.466461" lon="-97.571973" changeset="false"><tag k="addr:street" v="Sangremon Way"/><tag k="addr:housenumber" v="19616"/><tag k="coa:place_id" v="3282187"/></node><node id="-93" lat="30.473768" lon="-97.567404" changeset="false"><tag k="addr:street" v="Winding Shore Lane"/><tag k="addr:housenumber" v="3009"/><tag k="coa:place_id" v="5124230"/></node><node id="-94" lat="30.474537" lon="-97.567124" changeset="false"><tag k="addr:street" v="Winding Shore Lane"/><tag k="addr:housenumber" v="3014"/><tag k="coa:place_id" v="5124233"/></node><node id="-95" lat="30.47472" lon="-97.56694" changeset="false"><tag k="addr:street" v="Winding Shore Lane"/><tag k="addr:housenumber" v="3016"/><tag k="coa:place_id" v="5124234"/></node><node id="-96" lat="30.475134" lon="-97.566123" changeset="false"><tag k="addr:street" v="Winding Shore Lane"/><tag k="addr:housenumber" v="3025"/><tag k="coa:place_id" v="5124242"/></node><node id="-97" lat="30.470723" lon="-97.564189" changeset="false"><tag k="addr:street" v="Chayton Circle"/><tag k="addr:housenumber" v="20001"/><tag k="coa:place_id" v="5124288"/></node><node id="-98" lat="30.474908" lon="-97.568695" changeset="false"><tag k="addr:street" v="Moving Water Lane"/><tag k="addr:housenumber" v="3000"/><tag k="coa:place_id" v="5124276"/></node><node id="-99" lat="30.462962" lon="-97.568795" changeset="false"><tag k="addr:street" v="Melwas Way"/><tag k="addr:housenumber" v="19308"/><tag k="coa:place_id" v="5187689"/></node><node id="-100" lat="30.481839" lon="-97.575765" changeset="false"><tag k="addr:street" v="Bellerive Drive"/><tag k="addr:housenumber" v="20616"/><tag k="coa:place_id" v="3092537"/></node><node id="-101" lat="30.478739" lon="-97.558264" changeset="false"><tag k="addr:street" v="Martin Lane"/><tag k="addr:housenumber" v="20509"/><tag k="coa:place_id" v="5116956"/></node><node id="-102" lat="30.479022" lon="-97.558836" changeset="false"><tag k="addr:street" v="Martin Lane"/><tag k="addr:housenumber" v="20521"/><tag k="coa:place_id" v="5116959"/></node><node id="-103" lat="30.469916" lon="-97.567205" changeset="false"><tag k="addr:street" v="Misty Shore Lane"/><tag k="addr:housenumber" v="3208"/><tag k="coa:place_id" v="5114584"/></node><node id="-104" lat="30.473971" lon="-97.563396" changeset="false"><tag k="addr:street" v="Sandpiper Spot Court"/><tag k="addr:housenumber" v="20201"/><tag k="coa:place_id" v="3298572"/></node><node id="-105" lat="30.481809" lon="-97.576902" changeset="false"><tag k="addr:street" v="Plainfield Court"/><tag k="addr:housenumber" v="2216"/><tag k="coa:place_id" v="3104138"/></node><node id="-106" lat="30.471878" lon="-97.569333" changeset="false"><tag k="addr:street" v="Cajuiles Court"/><tag k="addr:housenumber" v="19812"/><tag k="coa:place_id" v="3103279"/></node><node id="-107" lat="30.472207" lon="-97.570222" changeset="false"><tag k="addr:street" v="Cajuiles Drive"/><tag k="addr:housenumber" v="2932"/><tag k="coa:place_id" v="3103275"/></node><node id="-108" lat="30.465749" lon="-97.549213" changeset="false"><tag k="addr:street" v="Hodde Lane"/><tag k="addr:housenumber" v="20108"/><tag k="coa:place_id" v="1136182"/></node><node id="-109" lat="30.480689" lon="-97.570638" changeset="false"><tag k="addr:street" v="Farm Pond Lane"/><tag k="addr:housenumber" v="20350"/><tag k="coa:place_id" v="3105601"/></node><node id="-110" lat="30.463003" lon="-97.561194" changeset="false"><tag k="addr:street" v="Brean Down Road"/><tag k="addr:housenumber" v="3924"/><tag k="coa:place_id" v="3428330"/></node><node id="-111" lat="30.48245" lon="-97.568896" changeset="false"><tag k="addr:street" v="Casa Navarro Drive"/><tag k="addr:housenumber" v="20513"/><tag k="coa:place_id" v="3371876"/></node><node id="-112" lat="30.474374" lon="-97.569688" changeset="false"><tag k="addr:street" v="Winding Shore Lane"/><tag k="addr:housenumber" v="2908"/><tag k="coa:place_id" v="5061020"/></node><node id="-113" lat="30.474003" lon="-97.569224" changeset="false"><tag k="addr:street" v="Winding Shore Lane"/><tag k="addr:housenumber" v="2916"/><tag k="coa:place_id" v="5061022"/></node><node id="-114" lat="30.474231" lon="-97.57007" changeset="false"><tag k="addr:street" v="Winding Shore Lane"/><tag k="addr:housenumber" v="2905"/><tag k="coa:place_id" v="5061024"/></node><node id="-115" lat="30.473564" lon="-97.569319" changeset="false"><tag k="addr:street" v="Winding Shore Lane"/><tag k="addr:housenumber" v="2921"/><tag k="coa:place_id" v="5061028"/></node><node id="-116" lat="30.474002" lon="-97.568386" changeset="false"><tag k="addr:street" v="Winding Shore Lane"/><tag k="addr:housenumber" v="3000"/><tag k="coa:place_id" v="5061032"/></node><node id="-117" lat="30.474058" lon="-97.568074" changeset="false"><tag k="addr:street" v="Winding Shore Lane"/><tag k="addr:housenumber" v="3004"/><tag k="coa:place_id" v="5061033"/></node><node id="-118" lat="30.473054" lon="-97.570947" changeset="false"><tag k="addr:street" v="Misty Shore Lane"/><tag k="addr:housenumber" v="2825"/><tag k="coa:place_id" v="5061057"/></node><node id="-119" lat="30.47224" lon="-97.567269" changeset="false"><tag k="addr:street" v="Misty Shore Lane"/><tag k="addr:housenumber" v="3020"/><tag k="coa:place_id" v="5061181"/></node><node id="-120" lat="30.4721" lon="-97.566793" changeset="false"><tag k="addr:street" v="Misty Shore Lane"/><tag k="addr:housenumber" v="3104"/><tag k="coa:place_id" v="5061190"/></node><node id="-121" lat="30.470584" lon="-97.554773" changeset="false"><tag k="addr:street" v="Merlin Falcon Trail"/><tag k="addr:housenumber" v="20216"/><tag k="coa:place_id" v="3312195"/></node><node id="-122" lat="30.471485" lon="-97.554084" changeset="false"><tag k="addr:street" v="Merlin Falcon Trail"/><tag k="addr:housenumber" v="20313"/><tag k="coa:place_id" v="3312298"/></node><node id="-123" lat="30.474144" lon="-97.567777" changeset="false"><tag k="addr:street" v="Winding Shore Lane"/><tag k="addr:housenumber" v="3008"/><tag k="coa:place_id" v="5124231"/></node><node id="-124" lat="30.474903" lon="-97.566819" changeset="false"><tag k="addr:street" v="Winding Shore Lane"/><tag k="addr:housenumber" v="3018"/><tag k="coa:place_id" v="5124235"/></node><node id="-125" lat="30.47405" lon="-97.566893" changeset="false"><tag k="addr:street" v="Winding Shore Lane"/><tag k="addr:housenumber" v="3013"/><tag k="coa:place_id" v="5124237"/></node><node id="-126" lat="30.475651" lon="-97.56607" changeset="false"><tag k="addr:street" v="Winding Shore Lane"/><tag k="addr:housenumber" v="3029"/><tag k="coa:place_id" v="5124244"/></node><node id="-127" lat="30.47533" lon="-97.566671" changeset="false"><tag k="addr:street" v="Winding Shore Lane"/><tag k="addr:housenumber" v="3024"/><tag k="coa:place_id" v="5124247"/></node><node id="-128" lat="30.47017" lon="-97.563565" changeset="false"><tag k="addr:street" v="Chayton Circle"/><tag k="addr:housenumber" v="19913"/><tag k="coa:place_id" v="5124284"/></node><node id="-129" lat="30.470545" lon="-97.564119" changeset="false"><tag k="addr:street" v="Chayton Circle"/><tag k="addr:housenumber" v="19925"/><tag k="coa:place_id" v="5124287"/></node><node id="-130" lat="30.470912" lon="-97.56423" changeset="false"><tag k="addr:street" v="Chayton Circle"/><tag k="addr:housenumber" v="20005"/><tag k="coa:place_id" v="5124289"/></node><node id="-131" lat="30.471114" lon="-97.564271" changeset="false"><tag k="addr:street" v="Chayton Circle"/><tag k="addr:housenumber" v="20009"/><tag k="coa:place_id" v="5124290"/></node><node id="-132" lat="30.469647" lon="-97.56366" changeset="false"><tag k="addr:street" v="Chayton Circle"/><tag k="addr:housenumber" v="19908"/><tag k="coa:place_id" v="5124294"/></node><node id="-133" lat="30.469718" lon="-97.563851" changeset="false"><tag k="addr:street" v="Chayton Circle"/><tag k="addr:housenumber" v="19912"/><tag k="coa:place_id" v="5124295"/></node><node id="-134" lat="30.474879" lon="-97.569273" changeset="false"><tag k="addr:street" v="Moving Water Lane"/><tag k="addr:housenumber" v="3001"/><tag k="coa:place_id" v="5124273"/></node><node id="-135" lat="30.479472" lon="-97.569892" changeset="false"><tag k="addr:street" v="Boca Chica Circle"/><tag k="addr:housenumber" v="2712"/><tag k="coa:place_id" v="3105560"/></node><node id="-136" lat="30.479204" lon="-97.559307" changeset="false"><tag k="addr:street" v="Martin Lane"/><tag k="addr:housenumber" v="20529"/><tag k="coa:place_id" v="5116961"/></node><node id="-137" lat="30.459968" lon="-97.564384" changeset="false"><tag k="addr:street" v="Glastonbury Trail"/><tag k="addr:housenumber" v="3908"/><tag k="coa:place_id" v="5117739"/></node><node id="-138" lat="30.464979" lon="-97.558672" changeset="false"><tag k="addr:street" v="Brean Down Road"/><tag k="addr:housenumber" v="3625"/><tag k="coa:place_id" v="5098176"/></node><node id="-139" lat="30.465028" lon="-97.560602" changeset="false"><tag k="addr:street" v="Brean Down Road"/><tag k="addr:housenumber" v="3801"/><tag k="coa:place_id" v="5098186"/></node><node id="-140" lat="30.464637" lon="-97.557632" changeset="false"><tag k="addr:street" v="Brean Down Road"/><tag k="addr:housenumber" v="3608"/><tag k="coa:place_id" v="5098188"/></node><node id="-141" lat="30.468528" lon="-97.570177" changeset="false"><tag k="addr:street" v="Falsterbo Drive"/><tag k="addr:housenumber" v="3012"/><tag k="coa:place_id" v="5070598"/></node><node id="-142" lat="30.468523" lon="-97.569938" changeset="false"><tag k="addr:street" v="Falsterbo Drive"/><tag k="addr:housenumber" v="3016"/><tag k="coa:place_id" v="5070599"/></node><node id="-143" lat="30.468586" lon="-97.569512" changeset="false"><tag k="addr:street" v="Falsterbo Drive"/><tag k="addr:housenumber" v="3024"/><tag k="coa:place_id" v="5070601"/></node><node id="-144" lat="30.462548" lon="-97.569923" changeset="false"><tag k="addr:street" v="Melwas Way"/><tag k="addr:housenumber" v="19116"/><tag k="coa:place_id" v="5187670"/></node><node id="-145" lat="30.462721" lon="-97.569437" changeset="false"><tag k="addr:street" v="Melwas Way"/><tag k="addr:housenumber" v="19204"/><tag k="coa:place_id" v="5187673"/></node><node id="-146" lat="30.461927" lon="-97.569975" changeset="false"><tag k="addr:street" v="Melwas Way"/><tag k="addr:housenumber" v="19109"/><tag k="coa:place_id" v="5187676"/></node><node id="-147" lat="30.462839" lon="-97.569116" changeset="false"><tag k="addr:street" v="Melwas Way"/><tag k="addr:housenumber" v="19300"/><tag k="coa:place_id" v="5187687"/></node><node id="-148" lat="30.462006" lon="-97.569801" changeset="false"><tag k="addr:street" v="Melwas Way"/><tag k="addr:housenumber" v="19113"/><tag k="coa:place_id" v="5187677"/></node><node id="-149" lat="30.462176" lon="-97.569502" changeset="false"><tag k="addr:street" v="Melwas Way"/><tag k="addr:housenumber" v="19121"/><tag k="coa:place_id" v="5187679"/></node><node id="-150" lat="30.470012" lon="-97.567673" changeset="false"><tag k="addr:street" v="Misty Shore Lane"/><tag k="addr:housenumber" v="3209"/><tag k="coa:place_id" v="5114579"/></node><node id="-151" lat="30.469628" lon="-97.567773" changeset="false"><tag k="addr:street" v="Misty Shore Lane"/><tag k="addr:housenumber" v="3217"/><tag k="coa:place_id" v="5114581"/></node><node id="-152" lat="30.46165" lon="-97.571337" changeset="false"><tag k="addr:street" v="Kelly Lane"/><tag k="addr:housenumber" v="3310"/><tag k="coa:place_id" v="1146798"/></node><node id="-153" lat="30.481676" lon="-97.565168" changeset="false"><tag k="addr:street" v="Hawks Swoop Trail"/><tag k="addr:housenumber" v="2901"/><tag k="coa:place_id" v="3138195"/></node><node id="-154" lat="30.481885" lon="-97.569688" changeset="false"><tag k="addr:street" v="Winding Shore Lane"/><tag k="addr:housenumber" v="3505"/><tag k="coa:place_id" v="3105587"/></node><node id="-155" lat="30.463611" lon="-97.567711" changeset="false"><tag k="addr:street" v="Melwas Way"/><tag k="addr:housenumber" v="19412"/><tag k="coa:place_id" v="3271850"/></node><node id="-156" lat="30.473454" lon="-97.570625" changeset="false"><tag k="addr:street" v="Misty Shore Lane"/><tag k="addr:housenumber" v="2820"/><tag k="coa:place_id" v="5061050"/></node><node id="-157" lat="30.472419" lon="-97.568344" changeset="false"><tag k="addr:street" v="Misty Shore Lane"/><tag k="addr:housenumber" v="3004"/><tag k="coa:place_id" v="5061177"/></node><node id="-158" lat="30.472295" lon="-97.567495" changeset="false"><tag k="addr:street" v="Misty Shore Lane"/><tag k="addr:housenumber" v="3016"/><tag k="coa:place_id" v="5061180"/></node><node id="-159" lat="30.471861" lon="-97.568186" changeset="false"><tag k="addr:street" v="Misty Shore Lane"/><tag k="addr:housenumber" v="3009"/><tag k="coa:place_id" v="5061185"/></node><node id="-160" lat="30.471075" lon="-97.566358" changeset="false"><tag k="addr:street" v="Misty Shore Lane"/><tag k="addr:housenumber" v="3124"/><tag k="coa:place_id" v="5061195"/></node><node id="-161" lat="30.463576" lon="-97.561201" changeset="false"><tag k="addr:street" v="Brean Down Road"/><tag k="addr:housenumber" v="3912"/><tag k="coa:place_id" v="3428327"/></node><node id="-162" lat="30.472752" lon="-97.563801" changeset="false"><tag k="addr:street" v="Falconers Way"/><tag k="addr:housenumber" v="3216"/><tag k="coa:place_id" v="3298540"/></node><node id="-163" lat="30.46893" lon="-97.571073" changeset="false"><tag k="addr:street" v="Vilamoura Street"/><tag k="addr:housenumber" v="19601"/><tag k="coa:place_id" v="3351080"/></node><node id="-164" lat="30.471364" lon="-97.554598" changeset="false"><tag k="addr:street" v="Merlin Falcon Trail"/><tag k="addr:housenumber" v="20308"/><tag k="coa:place_id" v="3312227"/></node><node id="-165" lat="30.474368" lon="-97.56735" changeset="false"><tag k="addr:street" v="Winding Shore Lane"/><tag k="addr:housenumber" v="3012"/><tag k="coa:place_id" v="5124232"/></node><node id="-166" lat="30.475403" lon="-97.566077" changeset="false"><tag k="addr:street" v="Winding Shore Lane"/><tag k="addr:housenumber" v="3027"/><tag k="coa:place_id" v="5124243"/></node><node id="-167" lat="30.475092" lon="-97.566695" changeset="false"><tag k="addr:street" v="Winding Shore Lane"/><tag k="addr:housenumber" v="3022"/><tag k="coa:place_id" v="5124246"/></node><node id="-168" lat="30.475788" lon="-97.566672" changeset="false"><tag k="addr:street" v="Winding Shore Lane"/><tag k="addr:housenumber" v="3028"/><tag k="coa:place_id" v="5124249"/></node><node id="-169" lat="30.470382" lon="-97.563984" changeset="false"><tag k="addr:street" v="Chayton Circle"/><tag k="addr:housenumber" v="19921"/><tag k="coa:place_id" v="5124286"/></node><node id="-170" lat="30.469932" lon="-97.564269" changeset="false"><tag k="addr:street" v="Chayton Circle"/><tag k="addr:housenumber" v="19920"/><tag k="coa:place_id" v="5124297"/></node><node id="-171" lat="30.464998" lon="-97.558321" changeset="false"><tag k="addr:street" v="Brean Down Road"/><tag k="addr:housenumber" v="3617"/><tag k="coa:place_id" v="5098174"/></node><node id="-172" lat="30.465106" lon="-97.560206" changeset="false"><tag k="addr:street" v="Brean Down Road"/><tag k="addr:housenumber" v="3733"/><tag k="coa:place_id" v="5098185"/></node><node id="-173" lat="30.464497" lon="-97.557975" changeset="false"><tag k="addr:street" v="Brean Down Road"/><tag k="addr:housenumber" v="3616"/><tag k="coa:place_id" v="5098190"/></node><node id="-174" lat="30.464446" lon="-97.558333" changeset="false"><tag k="addr:street" v="Brean Down Road"/><tag k="addr:housenumber" v="3624"/><tag k="coa:place_id" v="5098195"/></node><node id="-175" lat="30.464498" lon="-97.558988" changeset="false"><tag k="addr:street" v="Brean Down Road"/><tag k="addr:housenumber" v="3700"/><tag k="coa:place_id" v="5098197"/></node><node id="-176" lat="30.464551" lon="-97.559184" changeset="false"><tag k="addr:street" v="Brean Down Road"/><tag k="addr:housenumber" v="3704"/><tag k="coa:place_id" v="5098198"/></node><node id="-177" lat="30.478906" lon="-97.558611" changeset="false"><tag k="addr:street" v="Martin Lane"/><tag k="addr:housenumber" v="20517"/><tag k="coa:place_id" v="5116958"/></node><node id="-178" lat="30.459481" lon="-97.564408" changeset="false"><tag k="addr:street" v="Glastonbury Trail"/><tag k="addr:housenumber" v="3913"/><tag k="coa:place_id" v="5117737"/></node><node id="-179" lat="30.471961" lon="-97.553901" changeset="false"><tag k="addr:street" v="Merlin Falcon Trail"/><tag k="addr:housenumber" v="20325"/><tag k="coa:place_id" v="3392397"/></node><node id="-180" lat="30.462095" lon="-97.569659" changeset="false"><tag k="addr:street" v="Melwas Way"/><tag k="addr:housenumber" v="19117"/><tag k="coa:place_id" v="5187678"/></node><node id="-181" lat="30.472296" lon="-97.564258" changeset="false"><tag k="addr:street" v="Falconers Way"/><tag k="addr:housenumber" v="3209"/><tag k="coa:place_id" v="3298544"/></node><node id="-182" lat="30.481925" lon="-97.566926" changeset="false"><tag k="addr:street" v="Winding Shore Lane"/><tag k="addr:housenumber" v="3341"/><tag k="coa:place_id" v="3105645"/></node><node id="-183" lat="30.464169" lon="-97.568628" changeset="false"><tag k="addr:street" v="Glastonbury Trail"/><tag k="addr:housenumber" v="3408"/><tag k="coa:place_id" v="3373041"/></node><node id="-184" lat="30.471768" lon="-97.57131" changeset="false"><tag k="addr:street" v="Vilamoura Street"/><tag k="addr:housenumber" v="19825"/><tag k="coa:place_id" v="3103295"/></node><node id="-185" lat="30.478263" lon="-97.557484" changeset="false"><tag k="addr:street" v="Martin Lane"/><tag k="addr:housenumber" v="20425"/><tag k="coa:place_id" v="5116952"/></node><node id="-186" lat="30.478503" lon="-97.557889" changeset="false"><tag k="addr:street" v="Martin Lane"/><tag k="addr:housenumber" v="20501"/><tag k="coa:place_id" v="5116954"/></node><node id="-187" lat="30.479118" lon="-97.559067" changeset="false"><tag k="addr:street" v="Martin Lane"/><tag k="addr:housenumber" v="20525"/><tag k="coa:place_id" v="5116960"/></node><node id="-188" lat="30.460235" lon="-97.565508" changeset="false"><tag k="addr:street" v="Glastonbury Trail"/><tag k="addr:housenumber" v="3809"/><tag k="coa:place_id" v="5117731"/></node><node id="-189" lat="30.459851" lon="-97.564999" changeset="false"><tag k="addr:street" v="Glastonbury Trail"/><tag k="addr:housenumber" v="3901"/><tag k="coa:place_id" v="5117734"/></node><node id="-190" lat="30.459588" lon="-97.564629" changeset="false"><tag k="addr:street" v="Glastonbury Trail"/><tag k="addr:housenumber" v="3909"/><tag k="coa:place_id" v="5117736"/></node><node id="-191" lat="30.464974" lon="-97.558498" changeset="false"><tag k="addr:street" v="Brean Down Road"/><tag k="addr:housenumber" v="3621"/><tag k="coa:place_id" v="5098175"/></node><node id="-192" lat="30.464944" lon="-97.560823" changeset="false"><tag k="addr:street" v="Brean Down Road"/><tag k="addr:housenumber" v="3805"/><tag k="coa:place_id" v="5098187"/></node><node id="-193" lat="30.464586" lon="-97.559345" changeset="false"><tag k="addr:street" v="Brean Down Road"/><tag k="addr:housenumber" v="3708"/><tag k="coa:place_id" v="5098199"/></node><node id="-194" lat="30.474581" lon="-97.56976" changeset="false"><tag k="addr:street" v="Winding Shore Lane"/><tag k="addr:housenumber" v="2904"/><tag k="coa:place_id" v="5061019"/></node><node id="-195" lat="30.471522" lon="-97.567251" changeset="false"><tag k="addr:street" v="Misty Shore Lane"/><tag k="addr:housenumber" v="3101"/><tag k="coa:place_id" v="5061189"/></node><node id="-196" lat="30.464635" lon="-97.559659" changeset="false"><tag k="addr:street" v="Brean Down Road"/><tag k="addr:housenumber" v="3716"/><tag k="coa:place_id" v="5098201"/></node><node id="-197" lat="30.460491" lon="-97.565871" changeset="false"><tag k="addr:street" v="Glastonbury Trail"/><tag k="addr:housenumber" v="3801"/><tag k="coa:place_id" v="3272025"/></node><node id="-198" lat="30.461845" lon="-97.56763" changeset="false"><tag k="addr:street" v="Glastonbury Trail"/><tag k="addr:housenumber" v="3629"/><tag k="coa:place_id" v="3272014"/></node><node id="-199" lat="30.46136" lon="-97.567012" changeset="false"><tag k="addr:street" v="Glastonbury Trail"/><tag k="addr:housenumber" v="3701"/><tag k="coa:place_id" v="3272018"/></node><node id="-200" lat="30.470077" lon="-97.567066" changeset="false"><tag k="addr:street" v="Misty Shore Lane"/><tag k="addr:housenumber" v="3204"/><tag k="coa:place_id" v="5114583"/></node><node id="-201" lat="30.462161" lon="-97.568032" changeset="false"><tag k="addr:street" v="Glastonbury Trail"/><tag k="addr:housenumber" v="3617"/><tag k="coa:place_id" v="3271841"/></node><node id="-202" lat="30.475522" lon="-97.570244" changeset="false"><tag k="addr:street" v="Moving Water Lane"/><tag k="addr:housenumber" v="2813"/><tag k="coa:place_id" v="3295041"/></node><node id="-203" lat="30.47905" lon="-97.571135" changeset="false"><tag k="addr:street" v="Farm Pond Lane"/><tag k="addr:housenumber" v="20308"/><tag k="coa:place_id" v="3105544"/></node><node id="-204" lat="30.478708" lon="-97.567992" changeset="false"><tag k="addr:street" v="Inks Lake Drive"/><tag k="addr:housenumber" v="2925"/><tag k="coa:place_id" v="3111292"/></node><node id="-205" lat="30.475163" lon="-97.569461" changeset="false"><tag k="addr:street" v="Moving Water Lane"/><tag k="addr:housenumber" v="2905"/><tag k="coa:place_id" v="5124260"/></node><node id="-206" lat="30.463193" lon="-97.561241" changeset="false"><tag k="addr:street" v="Brean Down Road"/><tag k="addr:housenumber" v="3920"/><tag k="coa:place_id" v="3428329"/></node><node id="-207" lat="30.482545" lon="-97.56977" changeset="false"><tag k="addr:street" v="Casa Navarro Drive"/><tag k="addr:housenumber" v="20516"/><tag k="coa:place_id" v="3371861"/></node><node id="-208" lat="30.478619" lon="-97.558059" changeset="false"><tag k="addr:street" v="Martin Lane"/><tag k="addr:housenumber" v="20505"/><tag k="coa:place_id" v="5116955"/></node><node id="-209" lat="30.459777" lon="-97.563967" changeset="false"><tag k="addr:street" v="Glastonbury Trail"/><tag k="addr:housenumber" v="3916"/><tag k="coa:place_id" v="5117741"/></node><node id="-210" lat="30.474131" lon="-97.569506" changeset="false"><tag k="addr:street" v="Winding Shore Lane"/><tag k="addr:housenumber" v="2912"/><tag k="coa:place_id" v="5061021"/></node><node id="-211" lat="30.473835" lon="-97.569805" changeset="false"><tag k="addr:street" v="Winding Shore Lane"/><tag k="addr:housenumber" v="2913"/><tag k="coa:place_id" v="5061026"/></node><node id="-212" lat="30.473598" lon="-97.568339" changeset="false"><tag k="addr:street" v="Winding Shore Lane"/><tag k="addr:housenumber" v="3001"/><tag k="coa:place_id" v="5061040"/></node><node id="-213" lat="30.472835" lon="-97.57073" changeset="false"><tag k="addr:street" v="Misty Shore Lane"/><tag k="addr:housenumber" v="2901"/><tag k="coa:place_id" v="5061167"/></node><node id="-214" lat="30.472428" lon="-97.568586" changeset="false"><tag k="addr:street" v="Misty Shore Lane"/><tag k="addr:housenumber" v="3000"/><tag k="coa:place_id" v="5061176"/></node><node id="-215" lat="30.472374" lon="-97.567842" changeset="false"><tag k="addr:street" v="Misty Shore Lane"/><tag k="addr:housenumber" v="3012"/><tag k="coa:place_id" v="5061179"/></node><node id="-216" lat="30.471954" lon="-97.568406" changeset="false"><tag k="addr:street" v="Misty Shore Lane"/><tag k="addr:housenumber" v="3005"/><tag k="coa:place_id" v="5061184"/></node><node id="-217" lat="30.4713" lon="-97.566303" changeset="false"><tag k="addr:street" v="Misty Shore Lane"/><tag k="addr:housenumber" v="3120"/><tag k="coa:place_id" v="5061194"/></node><node id="-218" lat="30.471204" lon="-97.566892" changeset="false"><tag k="addr:street" v="Misty Shore Lane"/><tag k="addr:housenumber" v="3125"/><tag k="coa:place_id" v="5061197"/></node><node id="-219" lat="30.479087" lon="-97.573398" changeset="false"><tag k="addr:street" v="Treyburn Lane"/><tag k="addr:housenumber" v="20117"/><tag k="coa:place_id" v="3285217"/></node><node id="-220" lat="30.465285" lon="-97.557711" changeset="false"><tag k="addr:street" v="Brean Down Road"/><tag k="addr:housenumber" v="3601"/><tag k="coa:place_id" v="5098170"/></node><node id="-221" lat="30.46507" lon="-97.55916" changeset="false"><tag k="addr:street" v="Brean Down Road"/><tag k="addr:housenumber" v="3709"/><tag k="coa:place_id" v="5098179"/></node><node id="-222" lat="30.464455" lon="-97.558148" changeset="false"><tag k="addr:street" v="Brean Down Road"/><tag k="addr:housenumber" v="3620"/><tag k="coa:place_id" v="5098191"/></node><node id="-223" lat="30.464602" lon="-97.560019" changeset="false"><tag k="addr:street" v="Brean Down Road"/><tag k="addr:housenumber" v="3724"/><tag k="coa:place_id" v="5098203"/></node><node id="-224" lat="30.468333" lon="-97.569373" changeset="false"><tag k="addr:street" v="Falsterbo Drive"/><tag k="addr:housenumber" v="3028"/><tag k="coa:place_id" v="5070602"/></node><node id="-225" lat="30.469842" lon="-97.567743" changeset="false"><tag k="addr:street" v="Misty Shore Lane"/><tag k="addr:housenumber" v="3213"/><tag k="coa:place_id" v="5114580"/></node><node id="-226" lat="30.469428" lon="-97.567803" changeset="false"><tag k="addr:street" v="Misty Shore Lane"/><tag k="addr:housenumber" v="3221"/><tag k="coa:place_id" v="5114582"/></node><node id="-227" lat="30.469306" lon="-97.567352" changeset="false"><tag k="addr:street" v="Misty Shore Lane"/><tag k="addr:housenumber" v="3220"/><tag k="coa:place_id" v="5114587"/></node><node id="-228" lat="30.464735" lon="-97.562036" changeset="false"><tag k="addr:street" v="Jakes Hill Road; County Road 137"/><tag k="addr:housenumber" v="19729"/><tag k="coa:place_id" v="3428316"/></node><node id="-229" lat="30.464294" lon="-97.56076" changeset="false"><tag k="addr:street" v="Brean Down Road"/><tag k="addr:housenumber" v="3812"/><tag k="coa:place_id" v="3428323"/></node><node id="-230" lat="30.463961" lon="-97.561063" changeset="false"><tag k="addr:street" v="Brean Down Road"/><tag k="addr:housenumber" v="3904"/><tag k="coa:place_id" v="3428325"/></node><node id="-231" lat="30.474405" lon="-97.566497" changeset="false"><tag k="addr:street" v="Winding Shore Lane"/><tag k="addr:housenumber" v="3017"/><tag k="coa:place_id" v="5124239"/></node><node id="-232" lat="30.470087" lon="-97.563383" changeset="false"><tag k="addr:street" v="Chayton Circle"/><tag k="addr:housenumber" v="19909"/><tag k="coa:place_id" v="5124283"/></node><node id="-233" lat="30.471485" lon="-97.564338" changeset="false"><tag k="addr:street" v="Chayton Circle"/><tag k="addr:housenumber" v="20017"/><tag k="coa:place_id" v="5124292"/></node><node id="-234" lat="30.474612" lon="-97.569214" changeset="false"><tag k="addr:street" v="Moving Water Lane"/><tag k="addr:housenumber" v="3005"/><tag k="coa:place_id" v="5124274"/></node><node id="-235" lat="30.474366" lon="-97.568522" changeset="false"><tag k="addr:street" v="Moving Water Lane"/><tag k="addr:housenumber" v="3008"/><tag k="coa:place_id" v="5124278"/></node><node id="-236" lat="30.472362" lon="-97.563813" changeset="false"><tag k="addr:street" v="Falconers Way"/><tag k="addr:housenumber" v="3217"/><tag k="coa:place_id" v="3298546"/></node><node id="-237" lat="30.471953" lon="-97.566584" changeset="false"><tag k="addr:street" v="Misty Shore Lane"/><tag k="addr:housenumber" v="3108"/><tag k="coa:place_id" v="5061191"/></node><node id="-238" lat="30.47176" lon="-97.566406" changeset="false"><tag k="addr:street" v="Misty Shore Lane"/><tag k="addr:housenumber" v="3112"/><tag k="coa:place_id" v="5061192"/></node><node id="-239" lat="30.471505" lon="-97.566839" changeset="false"><tag k="addr:street" v="Misty Shore Lane"/><tag k="addr:housenumber" v="3117"/><tag k="coa:place_id" v="5061196"/></node><node id="-240" lat="30.465003" lon="-97.55883" changeset="false"><tag k="addr:street" v="Brean Down Road"/><tag k="addr:housenumber" v="3701"/><tag k="coa:place_id" v="5098177"/></node><node id="-241" lat="30.464561" lon="-97.557801" changeset="false"><tag k="addr:street" v="Brean Down Road"/><tag k="addr:housenumber" v="3612"/><tag k="coa:place_id" v="5098189"/></node><node id="-242" lat="30.464471" lon="-97.560406" changeset="false"><tag k="addr:street" v="Brean Down Road"/><tag k="addr:housenumber" v="3804"/><tag k="coa:place_id" v="5098204"/></node><node id="-243" lat="30.473694" lon="-97.567677" changeset="false"><tag k="addr:street" v="Winding Shore Lane"/><tag k="addr:housenumber" v="3007"/><tag k="coa:place_id" v="5124229"/></node><node id="-244" lat="30.475938" lon="-97.566089" changeset="false"><tag k="addr:street" v="Winding Shore Lane"/><tag k="addr:housenumber" v="3031"/><tag k="coa:place_id" v="5124245"/></node><node id="-245" lat="30.459384" lon="-97.56314" changeset="false"><tag k="addr:street" v="Kelly Lane"/><tag k="addr:housenumber" v="4000"/><tag k="coa:place_id" v="3198766"/></node><node id="-246" lat="30.463278" lon="-97.567336" changeset="false"><tag k="addr:street" v="Melwas Way"/><tag k="addr:housenumber" v="19417"/><tag k="coa:place_id" v="3271873"/></node><node id="-247" lat="30.474637" lon="-97.568624" changeset="false"><tag k="addr:street" v="Moving Water Lane"/><tag k="addr:housenumber" v="3004"/><tag k="coa:place_id" v="5124277"/></node><node id="-248" lat="30.46449" lon="-97.568749" changeset="false"><tag k="addr:street" v="Glastonbury Trail"/><tag k="addr:housenumber" v="3400"/><tag k="coa:place_id" v="3373039"/></node><node id="-249" lat="30.464317" lon="-97.568703" changeset="false"><tag k="addr:street" v="Glastonbury Trail"/><tag k="addr:housenumber" v="3404"/><tag k="coa:place_id" v="3373040"/></node><node id="-250" lat="30.462801" lon="-97.561108" changeset="false"><tag k="addr:street" v="Brean Down Road"/><tag k="addr:housenumber" v="3928"/><tag k="coa:place_id" v="3428331"/></node><node id="-251" lat="30.462453" lon="-97.560905" changeset="false"><tag k="addr:street" v="Brean Down Road"/><tag k="addr:housenumber" v="4000"/><tag k="coa:place_id" v="3428332"/></node><node id="-252" lat="30.480635" lon="-97.563451" changeset="false"><tag k="addr:street" v="Buteo Street"/><tag k="addr:housenumber" v="20525"/><tag k="coa:place_id" v="3347834"/></node><node id="-253" lat="30.464828" lon="-97.568815" changeset="false"><tag k="addr:street" v="Glastonbury Trail"/><tag k="addr:housenumber" v="3312"/><tag k="coa:place_id" v="3373017"/></node><node id="-254" lat="30.474024" lon="-97.569994" changeset="false"><tag k="addr:street" v="Winding Shore Lane"/><tag k="addr:housenumber" v="2909"/><tag k="coa:place_id" v="5061025"/></node><node id="-255" lat="30.47368" lon="-97.570798" changeset="false"><tag k="addr:street" v="Misty Shore Lane"/><tag k="addr:housenumber" v="2816"/><tag k="coa:place_id" v="5061049"/></node><node id="-256" lat="30.472998" lon="-97.57029" changeset="false"><tag k="addr:street" v="Misty Shore Lane"/><tag k="addr:housenumber" v="2900"/><tag k="coa:place_id" v="5061168"/></node><node id="-257" lat="30.472732" lon="-97.569852" changeset="false"><tag k="addr:street" v="Misty Shore Lane"/><tag k="addr:housenumber" v="2908"/><tag k="coa:place_id" v="5061170"/></node><node id="-258" lat="30.471696" lon="-97.567725" changeset="false"><tag k="addr:street" v="Misty Shore Lane"/><tag k="addr:housenumber" v="3017"/><tag k="coa:place_id" v="5061187"/></node><node id="-259" lat="30.465361" lon="-97.549703" changeset="false"><tag k="addr:street" v="Hodde Lane"/><tag k="addr:housenumber" v="20100"/><tag k="coa:place_id" v="1136183"/></node><node id="-260" lat="30.472589" lon="-97.571733" changeset="false"><tag k="addr:street" v="Cajuiles Drive"/><tag k="addr:housenumber" v="2904"/><tag k="coa:place_id" v="3103268"/></node><node id="-261" lat="30.48288" lon="-97.576682" changeset="false"><tag k="addr:street" v="Kearney Hill Road"/><tag k="addr:housenumber" v="20404"/><tag k="coa:place_id" v="3104120"/></node><node id="-262" lat="30.466851" lon="-97.5723" changeset="false"><tag k="addr:street" v="Vilamoura Street"/><tag k="addr:housenumber" v="19421"/><tag k="coa:place_id" v="3103344"/></node><node id="-263" lat="30.481516" lon="-97.573429" changeset="false"><tag k="addr:street" v="Kearney Hill Road"/><tag k="addr:housenumber" v="20724"/><tag k="coa:place_id" v="3092577"/></node><node id="-264" lat="30.461775" lon="-97.571642" changeset="false"><tag k="addr:street" v="Kelly Lane"/><tag k="addr:housenumber" v="3308"/><tag k="coa:place_id" v="1146797"/></node><node id="-265" lat="30.481856" lon="-97.562599" changeset="false"><tag k="addr:street" v="Rowe Lane"/><tag k="addr:housenumber" v="2801"/><tag k="coa:place_id" v="1129233"/></node><node id="-266" lat="30.462602" lon="-97.569759" changeset="false"><tag k="addr:street" v="Melwas Way"/><tag k="addr:housenumber" v="19120"/><tag k="coa:place_id" v="5187671"/></node><node id="-267" lat="30.462772" lon="-97.569275" changeset="false"><tag k="addr:street" v="Melwas Way"/><tag k="addr:housenumber" v="19208"/><tag k="coa:place_id" v="5187674"/></node><node id="-268" lat="30.478082" lon="-97.557261" changeset="false"><tag k="addr:street" v="Martin Lane"/><tag k="addr:housenumber" v="20421"/><tag k="coa:place_id" v="5116951"/></node><node id="-269" lat="30.478847" lon="-97.558459" changeset="false"><tag k="addr:street" v="Martin Lane"/><tag k="addr:housenumber" v="20513"/><tag k="coa:place_id" v="5116957"/></node><node id="-270" lat="30.460095" lon="-97.565347" changeset="false"><tag k="addr:street" v="Glastonbury Trail"/><tag k="addr:housenumber" v="3813"/><tag k="coa:place_id" v="5117732"/></node><node id="-271" lat="30.459968" lon="-97.56518" changeset="false"><tag k="addr:street" v="Glastonbury Trail"/><tag k="addr:housenumber" v="3817"/><tag k="coa:place_id" v="5117733"/></node><node id="-272" lat="30.459699" lon="-97.564818" changeset="false"><tag k="addr:street" v="Glastonbury Trail"/><tag k="addr:housenumber" v="3905"/><tag k="coa:place_id" v="5117735"/></node><node id="-273" lat="30.459871" lon="-97.564172" changeset="false"><tag k="addr:street" v="Glastonbury Trail"/><tag k="addr:housenumber" v="3912"/><tag k="coa:place_id" v="5117740"/></node><node id="-274" lat="30.475354" lon="-97.571135" changeset="false"><tag k="addr:street" v="Winding Shore Lane"/><tag k="addr:housenumber" v="2804"/><tag k="coa:place_id" v="3105526"/></node><node id="-275" lat="30.478498" lon="-97.566001" changeset="false"><tag k="addr:street" v="Winding Shore Lane"/><tag k="addr:housenumber" v="3209"/><tag k="coa:place_id" v="3111112"/></node><node id="-276" lat="30.481567" lon="-97.565011" changeset="false"><tag k="addr:street" v="Hawks Swoop Trail"/><tag k="addr:housenumber" v="2905"/><tag k="coa:place_id" v="3138196"/></node><node id="-277" lat="30.472051" lon="-97.570067" changeset="false"><tag k="addr:street" v="Cajuiles Drive"/><tag k="addr:housenumber" v="2936"/><tag k="coa:place_id" v="3103276"/></node><node id="-278" lat="30.456338" lon="-97.559772" changeset="false"><tag k="addr:street" v="Kelly Lane"/><tag k="addr:housenumber" v="4416"/><tag k="coa:place_id" v="1136448"/></node><node id="-279" lat="30.478484" lon="-97.566482" changeset="false"><tag k="addr:street" v="Winding Shore Lane"/><tag k="addr:housenumber" v="3204"/><tag k="coa:place_id" v="3111125"/></node><node id="-280" lat="30.481205" lon="-97.562291" changeset="false"><tag k="addr:street" v="Hawks Swoop Trail"/><tag k="addr:housenumber" v="3201"/><tag k="coa:place_id" v="3138252"/></node><node id="-281" lat="30.477519" lon="-97.571343" changeset="false"><tag k="addr:street" v="Mustang Island Circle"/><tag k="addr:housenumber" v="20200"/><tag k="coa:place_id" v="3105568"/></node><node id="-282" lat="30.460771" lon="-97.554458" changeset="false"><tag k="addr:street" v="Hodde Lane"/><tag k="addr:housenumber" v="19610"/><tag k="coa:place_id" v="1136447"/></node><node id="-283" lat="30.463301" lon="-97.574155" changeset="false"><tag k="addr:street" v="Kelly Lane"/><tag k="addr:housenumber" v="3100"/><tag k="coa:place_id" v="1146793"/></node><node id="-284" lat="30.470888" lon="-97.554241" changeset="false"><tag k="addr:street" v="Merlin Falcon Trail"/><tag k="addr:housenumber" v="20225"/><tag k="coa:place_id" v="3312243"/></node><node id="-285" lat="30.462379" lon="-97.567456" changeset="false"><tag k="addr:street" v="Glastonbury Trail"/><tag k="addr:housenumber" v="3616"/><tag k="coa:place_id" v="3271835"/></node></osm>