<?xml version="1.0" encoding="UTF-8"?><osm version="0.6" generator="github.com/aaronlidman/osm-and-geojson"><node id="-1" lat="30.447107" lon="-97.625864" changeset="false"><tag k="addr:street" v="Red Tailed Hawk Drive"/><tag k="addr:housenumber" v="503"/><tag k="addr:postcode" v="78660"/></node><node id="-2" lat="30.445423" lon="-97.62788" changeset="false"><tag k="addr:street" v="Coopers Hawk Path"/><tag k="addr:housenumber" v="1105"/><tag k="addr:postcode" v="78660"/></node><node id="-3" lat="30.450612" lon="-97.629152" changeset="false"><tag k="addr:street" v="Swenson Farms Boulevard"/><tag k="addr:housenumber" v="501"/><tag k="addr:postcode" v="78660"/></node><node id="-4" lat="30.444309" lon="-97.626718" changeset="false"><tag k="addr:street" v="Meadow Lane"/><tag k="addr:housenumber" v="202"/><tag k="addr:postcode" v="78660"/></node><node id="-5" lat="30.447479" lon="-97.626411" changeset="false"><tag k="addr:street" v="Red Tailed Hawk Drive"/><tag k="addr:housenumber" v="504"/><tag k="addr:postcode" v="78660"/></node><node id="-6" lat="30.442237" lon="-97.621863" changeset="false"><tag k="addr:street" v="North 3rd Street"/><tag k="addr:housenumber" v="202"/><tag k="addr:postcode" v="78660"/></node><node id="-7" lat="30.443996" lon="-97.628649" changeset="false"><tag k="addr:street" v="Rex Kerwin Court"/><tag k="addr:housenumber" v="100"/><tag k="addr:postcode" v="78660"/></node><node id="-8" lat="30.453106" lon="-97.625722" changeset="false"><tag k="addr:street" v="Pfennig Lane"/><tag k="addr:housenumber" v="1201"/><tag k="addr:postcode" v="78660"/></node><node id="-9" lat="30.445531" lon="-97.628092" changeset="false"><tag k="addr:street" v="Coopers Hawk Path"/><tag k="addr:housenumber" v="1107"/><tag k="addr:postcode" v="78660"/></node><node id="-10" lat="30.443759" lon="-97.626272" changeset="false"><tag k="addr:street" v="Meadow Lane"/><tag k="addr:housenumber" v="201"/><tag k="addr:postcode" v="78660"/></node><node id="-11" lat="30.443828" lon="-97.62818" changeset="false"><tag k="addr:street" v="Rex Kerwin Court"/><tag k="addr:housenumber" v="101"/><tag k="addr:postcode" v="78660"/></node><node id="-12" lat="30.44848" lon="-97.63038" changeset="false"><tag k="addr:street" v="Swenson Farms Boulevard"/><tag k="addr:housenumber" v="413"/><tag k="addr:postcode" v="78660"/></node><node id="-13" lat="30.44328" lon="-97.6203" changeset="false"><tag k="addr:street" v="2nd Street"/><tag k="addr:housenumber" v="402"/><tag k="addr:postcode" v="78660"/></node><node id="-14" lat="30.44589" lon="-97.62964" changeset="false"><tag k="addr:street" v="Lincoln Avenue"/><tag k="addr:housenumber" v="1206"/><tag k="addr:postcode" v="78660"/></node><node id="-15" lat="30.446462" lon="-97.627046" changeset="false"><tag k="addr:street" v="Red Tailed Hawk Drive"/><tag k="addr:housenumber" v="400"/><tag k="addr:postcode" v="78660"/></node><node id="-16" lat="30.448291" lon="-97.627279" changeset="false"><tag k="addr:street" v="Evening Grosbeak Drive"/><tag k="addr:housenumber" v="500"/><tag k="addr:postcode" v="78660"/></node><node id="-17" lat="30.441983" lon="-97.61947" changeset="false"><tag k="addr:street" v="1st Street"/><tag k="addr:housenumber" v="305"/><tag k="addr:postcode" v="78660"/></node><node id="-18" lat="30.445437" lon="-97.629946" changeset="false"><tag k="addr:street" v="Taylor Street"/><tag k="addr:housenumber" v="1206"/><tag k="addr:postcode" v="78660"/></node><node id="-19" lat="30.443449" lon="-97.624176" changeset="false"><tag k="addr:street" v="West Walnut Street"/><tag k="addr:housenumber" v="701"/><tag k="addr:postcode" v="78660"/></node><node id="-20" lat="30.453003" lon="-97.628644" changeset="false"><tag k="addr:street" v="Pfennig Lane"/><tag k="addr:housenumber" v="1301"/><tag k="addr:postcode" v="78660"/></node><node id="-21" lat="30.44535" lon="-97.627699" changeset="false"><tag k="addr:street" v="Coopers Hawk Path"/><tag k="addr:housenumber" v="1103"/><tag k="addr:postcode" v="78660"/></node><node id="-22" lat="30.45083" lon="-97.624611" changeset="false"><tag k="addr:street" v="House Wren"/><tag k="addr:housenumber" v="906"/><tag k="addr:postcode" v="78660"/></node><node id="-23" lat="30.443329" lon="-97.623946" changeset="false"><tag k="addr:street" v="West Walnut Street"/><tag k="addr:housenumber" v="603"/><tag k="addr:postcode" v="78660"/></node><node id="-24" lat="30.443582" lon="-97.624419" changeset="false"><tag k="addr:street" v="West Walnut Street"/><tag k="addr:housenumber" v="703"/><tag k="addr:postcode" v="78660"/></node><node id="-25" lat="30.445159" lon="-97.618379" changeset="false"><tag k="addr:street" v="North Railroad Avenue"/><tag k="addr:housenumber" v="700"/><tag k="addr:postcode" v="78660"/></node><node id="-26" lat="30.443567" lon="-97.620023" changeset="false"><tag k="addr:street" v="Camille Court"/><tag k="addr:housenumber" v="205"/><tag k="addr:postcode" v="78660"/></node><node id="-27" lat="30.443998" lon="-97.627187" changeset="false"><tag k="addr:street" v="Meadow Lane"/><tag k="addr:housenumber" v="200"/><tag k="addr:postcode" v="78660"/></node><node id="-28" lat="30.446809" lon="-97.626837" changeset="false"><tag k="addr:street" v="Red Tailed Hawk Drive"/><tag k="addr:housenumber" v="404"/><tag k="addr:postcode" v="78660"/></node><node id="-29" lat="30.4466" lon="-97.628349" changeset="false"><tag k="addr:street" v="Evening Grosbeak Drive"/><tag k="addr:housenumber" v="308"/><tag k="addr:postcode" v="78660"/></node><node id="-30" lat="30.447832" lon="-97.626718" changeset="false"><tag k="addr:street" v="Evening Grosbeak Drive"/><tag k="addr:housenumber" v="411"/><tag k="addr:postcode" v="78660"/></node><node id="-31" lat="30.446657" lon="-97.627471" changeset="false"><tag k="addr:street" v="Evening Grosbeak Drive"/><tag k="addr:housenumber" v="309"/><tag k="addr:postcode" v="78660"/></node><node id="-32" lat="30.446632" lon="-97.626954" changeset="false"><tag k="addr:street" v="Red Tailed Hawk Drive"/><tag k="addr:housenumber" v="402"/><tag k="addr:postcode" v="78660"/></node><node id="-33" lat="30.449765" lon="-97.629307" changeset="false"><tag k="addr:street" v="Swenson Farms Boulevard"/><tag k="addr:housenumber" v="433"/><tag k="addr:postcode" v="78660"/></node><node id="-34" lat="30.440168" lon="-97.619747" changeset="false"><tag k="addr:street" v="Main Street East"/><tag k="addr:housenumber" v="117"/><tag k="addr:postcode" v="78660"/></node><node id="-35" lat="30.440251" lon="-97.619923" changeset="false"><tag k="addr:street" v="Main Street East"/><tag k="addr:housenumber" v="113"/><tag k="addr:postcode" v="78660"/></node><node id="-36" lat="30.4403" lon="-97.620003" changeset="false"><tag k="addr:street" v="Main Street East"/><tag k="addr:housenumber" v="111"/><tag k="addr:postcode" v="78660"/></node><node id="-37" lat="30.440214" lon="-97.619842" changeset="false"><tag k="addr:street" v="Main Street East"/><tag k="addr:housenumber" v="115"/><tag k="addr:postcode" v="78660"/></node></osm>