<?xml version="1.0" encoding="UTF-8"?><osm version="0.6" generator="github.com/aaronlidman/osm-and-geojson"><node id="-1" lat="30.498666" lon="-97.767859" changeset="false"><tag k="addr:street" v="Avery Ranch Boulevard"/><tag k="addr:housenumber" v="15312 1/2"/><tag k="addr:postcode" v="78717"/></node><node id="-2" lat="30.496985" lon="-97.765326" changeset="false"><tag k="addr:street" v="Whistling Straits Drive"/><tag k="addr:housenumber" v="15421 1/2"/><tag k="addr:postcode" v="78717"/></node><node id="-3" lat="30.507529" lon="-97.755959" changeset="false"><tag k="addr:street" v="Medinah Greens Drive"/><tag k="addr:housenumber" v="10620"/><tag k="addr:postcode" v="78717"/></node><node id="-4" lat="30.506844" lon="-97.756225" changeset="false"><tag k="addr:street" v="Medinah Greens Drive"/><tag k="addr:housenumber" v="10605"/><tag k="addr:postcode" v="78717"/></node><node id="-5" lat="30.500971" lon="-97.767791" changeset="false"><tag k="addr:street" v="Roy Butler Drive"/><tag k="addr:housenumber" v="10320"/><tag k="addr:postcode" v="78717"/></node><node id="-6" lat="30.502038" lon="-97.761356" changeset="false"><tag k="addr:street" v="Bundoran Drive"/><tag k="addr:housenumber" v="9804"/><tag k="addr:postcode" v="78717"/></node><node id="-7" lat="30.502297" lon="-97.760906" changeset="false"><tag k="addr:street" v="Bundoran Drive"/><tag k="addr:housenumber" v="9809"/><tag k="addr:postcode" v="78717"/></node><node id="-8" lat="30.501012" lon="-97.770425" changeset="false"><tag k="addr:street" v="Avery Club Drive"/><tag k="addr:housenumber" v="10328"/><tag k="addr:postcode" v="78717"/></node><node id="-9" lat="30.499619" lon="-97.771008" changeset="false"><tag k="addr:street" v="Avery Ranch Boulevard"/><tag k="addr:housenumber" v="15120 1/2"/><tag k="addr:postcode" v="78717"/></node><node id="-10" lat="30.503864" lon="-97.766296" changeset="false"><tag k="addr:street" v="Roy Butler Drive"/><tag k="addr:housenumber" v="10532"/><tag k="addr:postcode" v="78717"/></node><node id="-11" lat="30.501361" lon="-97.770328" changeset="false"><tag k="addr:street" v="Avery Club Drive"/><tag k="addr:housenumber" v="10336"/><tag k="addr:postcode" v="78717"/></node><node id="-12" lat="30.506207" lon="-97.757368" changeset="false"><tag k="addr:street" v="Medinah Greens Drive"/><tag k="addr:housenumber" v="10517"/><tag k="addr:postcode" v="78717"/></node><node id="-13" lat="30.498669" lon="-97.75982" changeset="false"><tag k="addr:street" v="Pumpkin Ridge Drive"/><tag k="addr:housenumber" v="15809"/><tag k="addr:postcode" v="78717"/></node><node id="-14" lat="30.505351" lon="-97.757405" changeset="false"><tag k="addr:street" v="Royal Ashdown Drive"/><tag k="addr:housenumber" v="15809"/><tag k="addr:postcode" v="78717"/></node><node id="-15" lat="30.498801" lon="-97.763101" changeset="false"><tag k="addr:street" v="Morgan Creek Drive"/><tag k="addr:housenumber" v="9501 1/2"/><tag k="addr:postcode" v="78717"/></node><node id="-16" lat="30.505987" lon="-97.760426" changeset="false"><tag k="addr:street" v="Roy Butler Drive"/><tag k="addr:housenumber" v="11012"/><tag k="addr:postcode" v="78717"/></node><node id="-17" lat="30.503685" lon="-97.756639" changeset="false"><tag k="addr:street" v="Kiawah Island Drive"/><tag k="addr:housenumber" v="15905"/><tag k="addr:postcode" v="78717"/></node><node id="-18" lat="30.505667" lon="-97.758606" changeset="false"><tag k="addr:street" v="Medinah Greens Drive"/><tag k="addr:housenumber" v="10504"/><tag k="addr:postcode" v="78717"/></node><node id="-19" lat="30.506603" lon="-97.756358" changeset="false"><tag k="addr:street" v="Double Eagle Drive"/><tag k="addr:housenumber" v="16313"/><tag k="addr:postcode" v="78717"/></node><node id="-20" lat="30.503785" lon="-97.762085" changeset="false"><tag k="addr:street" v="Bundoran Drive"/><tag k="addr:housenumber" v="9920"/><tag k="addr:postcode" v="78717"/></node><node id="-21" lat="30.502004" lon="-97.760271" changeset="false"><tag k="addr:street" v="Whitley Bay Drive"/><tag k="addr:housenumber" v="9816"/><tag k="addr:postcode" v="78717"/></node><node id="-22" lat="30.50259" lon="-97.759768" changeset="false"><tag k="addr:street" v="Whitley Bay Drive"/><tag k="addr:housenumber" v="9905"/><tag k="addr:postcode" v="78717"/></node><node id="-23" lat="30.505346" lon="-97.758037" changeset="false"><tag k="addr:street" v="Medinah Greens Drive"/><tag k="addr:housenumber" v="10409"/><tag k="addr:postcode" v="78717"/></node><node id="-24" lat="30.49868" lon="-97.7752" changeset="false"><tag k="addr:street" v="West Parmer Lane"/><tag k="addr:housenumber" v="10600 1/2"/><tag k="addr:postcode" v="78717"/></node><node id="-25" lat="30.501355" lon="-97.758858" changeset="false"><tag k="addr:street" v="Avery Ranch Boulevard"/><tag k="addr:housenumber" v="15720 1/2"/><tag k="addr:postcode" v="78717"/></node><node id="-26" lat="30.502155" lon="-97.760788" changeset="false"><tag k="addr:street" v="Bundoran Drive"/><tag k="addr:housenumber" v="9805"/><tag k="addr:postcode" v="78717"/></node><node id="-27" lat="30.502175" lon="-97.771071" changeset="false"><tag k="addr:street" v="Sunningdale Street"/><tag k="addr:housenumber" v="15312"/><tag k="addr:postcode" v="78717"/></node><node id="-28" lat="30.501846" lon="-97.771485" changeset="false"><tag k="addr:street" v="Sunningdale Street"/><tag k="addr:housenumber" v="15304"/><tag k="addr:postcode" v="78717"/></node><node id="-29" lat="30.50358" lon="-97.760563" changeset="false"><tag k="addr:street" v="Whitley Bay Drive"/><tag k="addr:housenumber" v="10005"/><tag k="addr:postcode" v="78717"/></node><node id="-30" lat="30.502346" lon="-97.759724" changeset="false"><tag k="addr:street" v="Whitley Bay Drive"/><tag k="addr:housenumber" v="9901"/><tag k="addr:postcode" v="78717"/></node><node id="-31" lat="30.503569" lon="-97.761555" changeset="false"><tag k="addr:street" v="Bundoran Drive"/><tag k="addr:housenumber" v="9913"/><tag k="addr:postcode" v="78717"/></node><node id="-32" lat="30.503396" lon="-97.76155" changeset="false"><tag k="addr:street" v="Bundoran Drive"/><tag k="addr:housenumber" v="9909"/><tag k="addr:postcode" v="78717"/></node><node id="-33" lat="30.503186" lon="-97.765685" changeset="false"><tag k="addr:street" v="Echo Hills Drive"/><tag k="addr:housenumber" v="15528"/><tag k="addr:postcode" v="78717"/></node><node id="-34" lat="30.505884" lon="-97.75906" changeset="false"><tag k="addr:street" v="Medinah Greens Drive"/><tag k="addr:housenumber" v="10508"/><tag k="addr:postcode" v="78717"/></node><node id="-35" lat="30.503644" lon="-97.766529" changeset="false"><tag k="addr:street" v="Roy Butler Drive"/><tag k="addr:housenumber" v="10528"/><tag k="addr:postcode" v="78717"/></node><node id="-36" lat="30.498252" lon="-97.762447" changeset="false"><tag k="addr:street" v="Morgan Creek Drive"/><tag k="addr:housenumber" v="9510"/><tag k="addr:postcode" v="78717"/></node><node id="-37" lat="30.504064" lon="-97.757117" changeset="false"><tag k="addr:street" v="Kiawah Island Drive"/><tag k="addr:housenumber" v="15904"/><tag k="addr:postcode" v="78717"/></node><node id="-38" lat="30.502978" lon="-97.760088" changeset="false"><tag k="addr:street" v="Whitley Bay Drive"/><tag k="addr:housenumber" v="9913"/><tag k="addr:postcode" v="78717"/></node><node id="-39" lat="30.502569" lon="-97.761865" changeset="false"><tag k="addr:street" v="Bundoran Drive"/><tag k="addr:housenumber" v="9820"/><tag k="addr:postcode" v="78717"/></node><node id="-40" lat="30.499613" lon="-97.770332" changeset="false"><tag k="addr:street" v="Avery Club Drive"/><tag k="addr:housenumber" v="10301"/><tag k="addr:postcode" v="78717"/></node><node id="-41" lat="30.506866" lon="-97.756994" changeset="false"><tag k="addr:street" v="Medinah Greens Drive"/><tag k="addr:housenumber" v="10600"/><tag k="addr:postcode" v="78717"/></node><node id="-42" lat="30.499644" lon="-97.773123" changeset="false"><tag k="addr:street" v="Sunningdale Cove"/><tag k="addr:housenumber" v="10204"/><tag k="addr:postcode" v="78717"/></node><node id="-43" lat="30.500007" lon="-97.759771" changeset="false"><tag k="addr:street" v="Avery Ranch Boulevard"/><tag k="addr:housenumber" v="15701"/><tag k="addr:postcode" v="78717"/></node><node id="-44" lat="30.501667" lon="-97.759359" changeset="false"><tag k="addr:street" v="Avery Ranch Boulevard"/><tag k="addr:housenumber" v="15800 1/2"/><tag k="addr:postcode" v="78717"/></node><node id="-45" lat="30.500436" lon="-97.762915" changeset="false"><tag k="addr:street" v="Avery Ranch Boulevard"/><tag k="addr:housenumber" v="15600 1/2"/><tag k="addr:postcode" v="78717"/></node><node id="-46" lat="30.502818" lon="-97.759872" changeset="false"><tag k="addr:street" v="Whitley Bay Drive"/><tag k="addr:housenumber" v="9909"/><tag k="addr:postcode" v="78717"/></node><node id="-47" lat="30.504124" lon="-97.756381" changeset="false"><tag k="addr:street" v="Double Eagle Drive"/><tag k="addr:housenumber" v="16100"/><tag k="addr:postcode" v="78717"/></node><node id="-48" lat="30.505776" lon="-97.760534" changeset="false"><tag k="addr:street" v="Roy Butler Drive"/><tag k="addr:housenumber" v="11008"/><tag k="addr:postcode" v="78717"/></node><node id="-49" lat="30.499844" lon="-97.762913" changeset="false"><tag k="addr:street" v="Morgan Creek Drive"/><tag k="addr:housenumber" v="9400 1/2"/><tag k="addr:postcode" v="78717"/></node><node id="-50" lat="30.497576" lon="-97.766602" changeset="false"><tag k="addr:street" v="Morgan Creek Drive"/><tag k="addr:housenumber" v="10121"/><tag k="addr:postcode" v="78717"/></node><node id="-51" lat="30.503743" lon="-97.761561" changeset="false"><tag k="addr:street" v="Bundoran Drive"/><tag k="addr:housenumber" v="9917"/><tag k="addr:postcode" v="78717"/></node><node id="-52" lat="30.50086" lon="-97.769983" changeset="false"><tag k="addr:street" v="Avery Club Drive"/><tag k="addr:housenumber" v="10321"/><tag k="addr:postcode" v="78717"/></node><node id="-53" lat="30.506392" lon="-97.756798" changeset="false"><tag k="addr:street" v="Double Eagle Drive"/><tag k="addr:housenumber" v="16312"/><tag k="addr:postcode" v="78717"/></node><node id="-54" lat="30.498107" lon="-97.760558" changeset="false"><tag k="addr:street" v="Fisher Island Drive"/><tag k="addr:housenumber" v="15700"/><tag k="addr:postcode" v="78717"/></node><node id="-55" lat="30.4976" lon="-97.761509" changeset="false"><tag k="addr:street" v="Fisher Island Drive"/><tag k="addr:housenumber" v="15620"/><tag k="addr:postcode" v="78717"/></node><node id="-56" lat="30.503045" lon="-97.75705" changeset="false"><tag k="addr:street" v="Kiawah Island Cove"/><tag k="addr:housenumber" v="10201"/><tag k="addr:postcode" v="78717"/></node><node id="-57" lat="30.506476" lon="-97.758028" changeset="false"><tag k="addr:street" v="Medinah Greens Drive"/><tag k="addr:housenumber" v="10524"/><tag k="addr:postcode" v="78717"/></node><node id="-58" lat="30.498094" lon="-97.759828" changeset="false"><tag k="addr:street" v="Fisher Island Drive"/><tag k="addr:housenumber" v="15712"/><tag k="addr:postcode" v="78717"/></node><node id="-59" lat="30.504227" lon="-97.760395" changeset="false"><tag k="addr:street" v="Whitley Bay Drive"/><tag k="addr:housenumber" v="10017"/><tag k="addr:postcode" v="78717"/></node><node id="-60" lat="30.499801" lon="-97.770273" changeset="false"><tag k="addr:street" v="Avery Club Drive"/><tag k="addr:housenumber" v="10305"/><tag k="addr:postcode" v="78717"/></node><node id="-61" lat="30.502094" lon="-97.759696" changeset="false"><tag k="addr:street" v="Whitley Bay Drive"/><tag k="addr:housenumber" v="9817"/><tag k="addr:postcode" v="78717"/></node><node id="-62" lat="30.505095" lon="-97.757968" changeset="false"><tag k="addr:street" v="Medinah Greens Drive"/><tag k="addr:housenumber" v="10405"/><tag k="addr:postcode" v="78717"/></node><node id="-63" lat="30.503356" lon="-97.758137" changeset="false"><tag k="addr:street" v="Medinah Greens Drive"/><tag k="addr:housenumber" v="10224"/><tag k="addr:postcode" v="78717"/></node><node id="-64" lat="30.50671" lon="-97.757218" changeset="false"><tag k="addr:street" v="Medinah Greens Drive"/><tag k="addr:housenumber" v="10536"/><tag k="addr:postcode" v="78717"/></node><node id="-65" lat="30.500732" lon="-97.77142" changeset="false"><tag k="addr:street" v="Cottesmore Court"/><tag k="addr:housenumber" v="10204"/><tag k="addr:postcode" v="78717"/></node><node id="-66" lat="30.502033" lon="-97.762823" changeset="false"><tag k="addr:street" v="Royal New Kent Drive"/><tag k="addr:housenumber" v="9908"/><tag k="addr:postcode" v="78717"/></node><node id="-67" lat="30.503515" lon="-97.771284" changeset="false"><tag k="addr:street" v="Avery Club Drive"/><tag k="addr:housenumber" v="10500"/><tag k="addr:postcode" v="78717"/></node><node id="-68" lat="30.501898" lon="-97.762706" changeset="false"><tag k="addr:street" v="Royal New Kent Drive"/><tag k="addr:housenumber" v="9904"/><tag k="addr:postcode" v="78717"/></node><node id="-69" lat="30.504107" lon="-97.756935" changeset="false"><tag k="addr:street" v="Kiawah Island Drive"/><tag k="addr:housenumber" v="15908"/><tag k="addr:postcode" v="78717"/></node><node id="-70" lat="30.505349" lon="-97.757577" changeset="false"><tag k="addr:street" v="Royal Ashdown Drive"/><tag k="addr:housenumber" v="15805"/><tag k="addr:postcode" v="78717"/></node><node id="-71" lat="30.500589" lon="-97.762919" changeset="false"><tag k="addr:street" v="Bundoran Drive"/><tag k="addr:housenumber" v="9601"/><tag k="addr:postcode" v="78717"/></node><node id="-72" lat="30.49687" lon="-97.765295" changeset="false"><tag k="addr:street" v="Whistling Straits Drive"/><tag k="addr:housenumber" v="15421"/><tag k="addr:postcode" v="78717"/></node></osm>