<?xml version="1.0" encoding="UTF-8"?><osm version="0.6" generator="github.com/aaronlidman/osm-and-geojson"><node id="-1" lat="30.273117" lon="-97.740952" changeset="false"><tag k="addr:street" v="West 11th Street"/><tag k="addr:housenumber" v="100"/><tag k="addr:postcode" v="78701"/></node><node id="-2" lat="30.280473" lon="-97.745168" changeset="false"><tag k="addr:street" v="West 17th Street"/><tag k="addr:housenumber" v="611"/><tag k="addr:postcode" v="78701"/></node><node id="-3" lat="30.279947" lon="-97.737926" changeset="false"><tag k="addr:street" v="Congress Avenue"/><tag k="addr:housenumber" v="1805"/><tag k="addr:postcode" v="78701"/></node><node id="-4" lat="30.276746" lon="-97.748704" changeset="false"><tag k="addr:street" v="West Avenue"/><tag k="addr:housenumber" v="1206"/><tag k="addr:postcode" v="78701"/></node><node id="-5" lat="30.282644" lon="-97.747908" changeset="false"><tag k="addr:street" v="West 18th Street"/><tag k="addr:housenumber" v="904"/><tag k="addr:postcode" v="78701"/></node><node id="-6" lat="30.273425" lon="-97.737923" changeset="false"><tag k="addr:street" v="San Jacinto Boulevard"/><tag k="addr:housenumber" v="1201"/><tag k="addr:postcode" v="78701"/></node><node id="-7" lat="30.281194" lon="-97.74615" changeset="false"><tag k="addr:street" v="West Avenue"/><tag k="addr:housenumber" v="1703"/><tag k="addr:postcode" v="78701"/></node><node id="-8" lat="30.283008" lon="-97.746908" changeset="false"><tag k="addr:street" v="West Martin Luther King Jr Boulevard"/><tag k="addr:housenumber" v="813"/><tag k="addr:postcode" v="78701"/></node><node id="-9" lat="30.274111" lon="-97.734816" changeset="false"><tag k="addr:street" v="Red River Street"/><tag k="addr:housenumber" v="1313"/><tag k="addr:postcode" v="78701"/></node><node id="-10" lat="30.279112" lon="-97.746326" changeset="false"><tag k="addr:street" v="Rio Grande Street"/><tag k="addr:housenumber" v="1500"/><tag k="addr:postcode" v="78701"/></node><node id="-11" lat="30.276878" lon="-97.748669" changeset="false"><tag k="addr:street" v="West Avenue"/><tag k="addr:housenumber" v="1208"/><tag k="addr:postcode" v="78701"/></node><node id="-12" lat="30.276739" lon="-97.74508" changeset="false"><tag k="addr:street" v="West 13th Street"/><tag k="addr:housenumber" v="502"/><tag k="addr:postcode" v="78701"/></node><node id="-13" lat="30.275749" lon="-97.745348" changeset="false"><tag k="addr:street" v="San Antonio Street"/><tag k="addr:housenumber" v="1204"/><tag k="addr:postcode" v="78701"/></node><node id="-14" lat="30.281953" lon="-97.745845" changeset="false"><tag k="addr:street" v="West Avenue"/><tag k="addr:housenumber" v="1801"/><tag k="addr:postcode" v="78701"/></node><node id="-15" lat="30.278285" lon="-97.736178" changeset="false"><tag k="addr:street" v="San Jacinto Boulevard"/><tag k="addr:housenumber" v="1705"/><tag k="addr:postcode" v="78701"/></node><node id="-16" lat="30.281451" lon="-97.744435" changeset="false"><tag k="addr:street" v="West 18th Street"/><tag k="addr:housenumber" v="602"/><tag k="addr:postcode" v="78701"/></node><node id="-17" lat="30.279054" lon="-97.741759" changeset="false"><tag k="addr:street" v="Lavaca Street"/><tag k="addr:housenumber" v="1612"/><tag k="addr:postcode" v="78701"/></node><node id="-18" lat="30.278982" lon="-97.739017" changeset="false"><tag k="addr:street" v="Congress Avenue"/><tag k="addr:housenumber" v="1700"/><tag k="addr:postcode" v="78701"/></node><node id="-19" lat="30.278823" lon="-97.742833" changeset="false"><tag k="addr:street" v="Guadalupe Street"/><tag k="addr:housenumber" v="1514"/><tag k="addr:postcode" v="78701"/></node><node id="-20" lat="30.27811" lon="-97.743074" changeset="false"><tag k="addr:street" v="West 15th Street"/><tag k="addr:housenumber" v="402"/><tag k="addr:postcode" v="78701"/></node><node id="-21" lat="30.277982" lon="-97.733236" changeset="false"><tag k="addr:street" v="Red River Street"/><tag k="addr:housenumber" v="1714"/><tag k="addr:postcode" v="78701"/></node><node id="-22" lat="30.277619" lon="-97.748344" changeset="false"><tag k="addr:street" v="West Avenue"/><tag k="addr:housenumber" v="1302"/><tag k="addr:postcode" v="78701"/></node><node id="-23" lat="30.277806" lon="-97.745182" changeset="false"><tag k="addr:street" v="West 14th Street"/><tag k="addr:housenumber" v="508"/><tag k="addr:postcode" v="78701"/></node><node id="-24" lat="30.277547" lon="-97.740019" changeset="false"><tag k="addr:street" v="Colorado Street"/><tag k="addr:housenumber" v="1509"/><tag k="addr:postcode" v="78701"/></node><node id="-25" lat="30.279464" lon="-97.734816" changeset="false"><tag k="addr:street" v="East Martin Luther King Jr Boulevard"/><tag k="addr:housenumber" v="313"/><tag k="addr:postcode" v="78701"/></node><node id="-26" lat="30.279372" lon="-97.738196" changeset="false"><tag k="addr:street" v="Congress Avenue"/><tag k="addr:housenumber" v="1709"/><tag k="addr:postcode" v="78701"/></node><node id="-27" lat="30.282601" lon="-97.747595" changeset="false"><tag k="addr:street" v="Pearl Street"/><tag k="addr:housenumber" v="1804"/><tag k="addr:postcode" v="78701"/></node><node id="-28" lat="30.280535" lon="-97.742379" changeset="false"><tag k="addr:street" v="West 18th Street"/><tag k="addr:housenumber" v="405"/><tag k="addr:postcode" v="78701"/></node><node id="-29" lat="30.27939" lon="-97.738234" changeset="false"><tag k="addr:street" v="Congress Avenue"/><tag k="addr:housenumber" v="1709 1/2"/><tag k="addr:postcode" v="78701"/></node><node id="-30" lat="30.280846" lon="-97.749745" changeset="false"><tag k="addr:street" v="Shoal Creek Boulevard"/><tag k="addr:housenumber" v="1511"/><tag k="addr:postcode" v="78701"/></node><node id="-31" lat="30.274969" lon="-97.737104" changeset="false"><tag k="addr:street" v="East 14th Street"/><tag k="addr:housenumber" v="307"/><tag k="addr:postcode" v="78701"/></node><node id="-32" lat="30.274876" lon="-97.742575" changeset="false"><tag k="addr:street" v="Lavaca Street"/><tag k="addr:housenumber" v="1201"/><tag k="addr:postcode" v="78701"/></node><node id="-33" lat="30.281353" lon="-97.746088" changeset="false"><tag k="addr:street" v="West Avenue"/><tag k="addr:housenumber" v="1705"/><tag k="addr:postcode" v="78701"/></node><node id="-34" lat="30.276618" lon="-97.74283" changeset="false"><tag k="addr:street" v="West 14th Street"/><tag k="addr:housenumber" v="303"/><tag k="addr:postcode" v="78701"/></node><node id="-35" lat="30.275762" lon="-97.734607" changeset="false"><tag k="addr:street" v="East 15th Street"/><tag k="addr:housenumber" v="500"/><tag k="addr:postcode" v="78701"/></node><node id="-36" lat="30.277242" lon="-97.73988" changeset="false"><tag k="addr:street" v="West 15th Street"/><tag k="addr:housenumber" v="100"/><tag k="addr:postcode" v="78701"/></node><node id="-37" lat="30.276505" lon="-97.748982" changeset="false"><tag k="addr:street" v="West 12th Street"/><tag k="addr:housenumber" v="812"/><tag k="addr:postcode" v="78701"/></node><node id="-38" lat="30.280514" lon="-97.748969" changeset="false"><tag k="addr:street" v="West 16th Street"/><tag k="addr:housenumber" v="911"/><tag k="addr:postcode" v="78701"/></node><node id="-39" lat="30.272934" lon="-97.735763" changeset="false"><tag k="addr:street" v="East 12th Street"/><tag k="addr:housenumber" v="500"/><tag k="addr:postcode" v="78701"/></node><node id="-40" lat="30.281329" lon="-97.743091" changeset="false"><tag k="addr:street" v="San Antonio Street"/><tag k="addr:housenumber" v="1806"/><tag k="addr:postcode" v="78701"/></node><node id="-41" lat="30.279465" lon="-97.737283" changeset="false"><tag k="addr:street" v="Brazos Street"/><tag k="addr:housenumber" v="1800"/><tag k="addr:postcode" v="78701"/></node><node id="-42" lat="30.278701" lon="-97.732256" changeset="false"><tag k="addr:street" v="Red River Street"/><tag k="addr:housenumber" v="1811 1/2"/><tag k="addr:postcode" v="78701"/></node><node id="-43" lat="30.278877" lon="-97.744163" changeset="false"><tag k="addr:street" v="San Antonio Street"/><tag k="addr:housenumber" v="1506"/><tag k="addr:postcode" v="78701"/></node><node id="-44" lat="30.273102" lon="-97.7347" changeset="false"><tag k="addr:street" v="Red River Street"/><tag k="addr:housenumber" v="1215"/><tag k="addr:postcode" v="78701"/></node><node id="-45" lat="30.280925" lon="-97.747093" changeset="false"><tag k="addr:street" v="West 17th Street"/><tag k="addr:housenumber" v="801"/><tag k="addr:postcode" v="78701"/></node><node id="-46" lat="30.272971" lon="-97.735945" changeset="false"><tag k="addr:street" v="East 12th Street"/><tag k="addr:housenumber" v="408"/><tag k="addr:postcode" v="78701"/></node><node id="-47" lat="30.278575" lon="-97.733633" changeset="false"><tag k="addr:street" v="East 18th Street"/><tag k="addr:housenumber" v="500"/><tag k="addr:postcode" v="78701"/></node><node id="-48" lat="30.280397" lon="-97.743466" changeset="false"><tag k="addr:street" v="San Antonio Street"/><tag k="addr:housenumber" v="1702"/><tag k="addr:postcode" v="78701"/></node><node id="-49" lat="30.277497" lon="-97.737336" changeset="false"><tag k="addr:street" v="East 16th Street"/><tag k="addr:housenumber" v="208"/><tag k="addr:postcode" v="78701"/></node><node id="-50" lat="30.276204" lon="-97.736096" changeset="false"><tag k="addr:street" v="Trinity Street"/><tag k="addr:housenumber" v="1506"/><tag k="addr:postcode" v="78701"/></node><node id="-51" lat="30.274872" lon="-97.737408" changeset="false"><tag k="addr:street" v="San Jacinto Boulevard"/><tag k="addr:housenumber" v="1311"/><tag k="addr:postcode" v="78701"/></node><node id="-52" lat="30.275325" lon="-97.74422" changeset="false"><tag k="addr:street" v="Guadalupe Street"/><tag k="addr:housenumber" v="1200"/><tag k="addr:postcode" v="78701"/></node><node id="-53" lat="30.277071" lon="-97.733569" changeset="false"><tag k="addr:street" v="Red River Street"/><tag k="addr:housenumber" v="1620"/><tag k="addr:postcode" v="78701"/></node><node id="-54" lat="30.277546" lon="-97.746778" changeset="false"><tag k="addr:street" v="Rio Grande Street"/><tag k="addr:housenumber" v="1304 1/2"/><tag k="addr:postcode" v="78701"/></node><node id="-55" lat="30.27708" lon="-97.749815" changeset="false"><tag k="addr:street" v="Shoal Creek Boulevard"/><tag k="addr:housenumber" v="1213"/><tag k="addr:postcode" v="78701"/></node><node id="-56" lat="30.283369" lon="-97.748184" changeset="false"><tag k="addr:street" v="West Martin Luther King Jr Boulevard"/><tag k="addr:housenumber" v="915"/><tag k="addr:postcode" v="78701"/></node><node id="-57" lat="30.27621" lon="-97.736156" changeset="false"><tag k="addr:street" v="Trinity Street"/><tag k="addr:housenumber" v="1500"/><tag k="addr:postcode" v="78701"/></node><node id="-58" lat="30.279318" lon="-97.736572" changeset="false"><tag k="addr:street" v="East 18th Street"/><tag k="addr:housenumber" v="200"/><tag k="addr:postcode" v="78701"/></node><node id="-59" lat="30.275012" lon="-97.735955" changeset="false"><tag k="addr:street" v="Trinity Street"/><tag k="addr:housenumber" v="1409"/><tag k="addr:postcode" v="78701"/></node><node id="-60" lat="30.283722" lon="-97.750102" changeset="false"><tag k="addr:street" v="Vance Circle"/><tag k="addr:housenumber" v="1818"/><tag k="addr:postcode" v="78701"/></node><node id="-61" lat="30.27788" lon="-97.74041" changeset="false"><tag k="addr:street" v="Colorado Street"/><tag k="addr:housenumber" v="1511"/><tag k="addr:postcode" v="78701"/></node><node id="-62" lat="30.277726" lon="-97.747516" changeset="false"><tag k="addr:street" v="West 14th Street"/><tag k="addr:housenumber" v="713"/><tag k="addr:postcode" v="78701"/></node><node id="-63" lat="30.278649" lon="-97.734803" changeset="false"><tag k="addr:street" v="Trinity Street"/><tag k="addr:housenumber" v="1801"/><tag k="addr:postcode" v="78701"/></node><node id="-64" lat="30.277941" lon="-97.735418" changeset="false"><tag k="addr:street" v="East 17th Street"/><tag k="addr:housenumber" v="400"/><tag k="addr:postcode" v="78701"/></node><node id="-65" lat="30.277905" lon="-97.735097" changeset="false"><tag k="addr:street" v="Trinity Street"/><tag k="addr:housenumber" v="1701"/><tag k="addr:postcode" v="78701"/></node><node id="-66" lat="30.283239" lon="-97.750451" changeset="false"><tag k="addr:street" v="Vance Circle"/><tag k="addr:housenumber" v="1808"/><tag k="addr:postcode" v="78701"/></node><node id="-67" lat="30.280708" lon="-97.748293" changeset="false"><tag k="addr:street" v="Pearl Street"/><tag k="addr:housenumber" v="1600"/><tag k="addr:postcode" v="78701"/></node><node id="-68" lat="30.28014" lon="-97.737139" changeset="false"><tag k="addr:street" v="East Martin Luther King Jr Boulevard"/><tag k="addr:housenumber" v="115"/><tag k="addr:postcode" v="78701"/></node><node id="-69" lat="30.280098" lon="-97.742531" changeset="false"><tag k="addr:street" v="West 17th Street"/><tag k="addr:housenumber" v="406"/><tag k="addr:postcode" v="78701"/></node><node id="-70" lat="30.2798" lon="-97.744917" changeset="false"><tag k="addr:street" v="Nueces Street"/><tag k="addr:housenumber" v="1600"/><tag k="addr:postcode" v="78701"/></node><node id="-71" lat="30.277949" lon="-97.748123" changeset="false"><tag k="addr:street" v="West Avenue"/><tag k="addr:housenumber" v="1306"/><tag k="addr:postcode" v="78701"/></node><node id="-72" lat="30.280197" lon="-97.745565" changeset="false"><tag k="addr:street" v="Rio Grande Street"/><tag k="addr:housenumber" v="1609"/><tag k="addr:postcode" v="78701"/></node><node id="-73" lat="30.280392" lon="-97.741811" changeset="false"><tag k="addr:street" v="Guadalupe Street"/><tag k="addr:housenumber" v="1715 1/2"/><tag k="addr:postcode" v="78701"/></node><node id="-74" lat="30.280299" lon="-97.737782" changeset="false"><tag k="addr:street" v="West Martin Luther King Jr Boulevard"/><tag k="addr:housenumber" v="105"/><tag k="addr:postcode" v="78701"/></node><node id="-75" lat="30.280257" lon="-97.748747" changeset="false"><tag k="addr:street" v="West 16th Street"/><tag k="addr:housenumber" v="903"/><tag k="addr:postcode" v="78701"/></node><node id="-76" lat="30.280119" lon="-97.743144" changeset="false"><tag k="addr:street" v="San Antonio Street"/><tag k="addr:housenumber" v="1701"/><tag k="addr:postcode" v="78701"/></node><node id="-77" lat="30.282834" lon="-97.748503" changeset="false"><tag k="addr:street" v="San Gabriel Street"/><tag k="addr:housenumber" v="1803"/><tag k="addr:postcode" v="78701"/></node><node id="-78" lat="30.276459" lon="-97.744085" changeset="false"><tag k="addr:street" v="West 13th Street"/><tag k="addr:housenumber" v="404"/><tag k="addr:postcode" v="78701"/></node><node id="-79" lat="30.278643" lon="-97.73764" changeset="false"><tag k="addr:street" v="East 17th Street"/><tag k="addr:housenumber" v="110"/><tag k="addr:postcode" v="78701"/></node><node id="-80" lat="30.278757" lon="-97.744601" changeset="false"><tag k="addr:street" v="West 15th Street"/><tag k="addr:housenumber" v="506"/><tag k="addr:postcode" v="78701"/></node><node id="-81" lat="30.278626" lon="-97.744279" changeset="false"><tag k="addr:street" v="San Antonio Street"/><tag k="addr:housenumber" v="1502"/><tag k="addr:postcode" v="78701"/></node><node id="-82" lat="30.278308" lon="-97.739573" changeset="false"><tag k="addr:street" v="Congress Avenue"/><tag k="addr:housenumber" v="1600"/><tag k="addr:postcode" v="78701"/></node><node id="-83" lat="30.277594" lon="-97.739597" changeset="false"><tag k="addr:street" v="Congress Avenue"/><tag k="addr:housenumber" v="1510"/><tag k="addr:postcode" v="78701"/></node><node id="-84" lat="30.277631" lon="-97.748525" changeset="false"><tag k="addr:street" v="West Avenue"/><tag k="addr:housenumber" v="1300"/><tag k="addr:postcode" v="78701"/></node><node id="-85" lat="30.277421" lon="-97.744207" changeset="false"><tag k="addr:street" v="San Antonio Street"/><tag k="addr:housenumber" v="1403"/><tag k="addr:postcode" v="78701"/></node><node id="-86" lat="30.27702" lon="-97.73898" changeset="false"><tag k="addr:street" v="East 15th Street"/><tag k="addr:housenumber" v="100"/><tag k="addr:postcode" v="78701"/></node><node id="-87" lat="30.278266" lon="-97.733131" changeset="false"><tag k="addr:street" v="Red River Street"/><tag k="addr:housenumber" v="1800"/><tag k="addr:postcode" v="78701"/></node><node id="-88" lat="30.278367" lon="-97.748041" changeset="false"><tag k="addr:street" v="West Avenue"/><tag k="addr:housenumber" v="1400"/><tag k="addr:postcode" v="78701"/></node><node id="-89" lat="30.276026" lon="-97.746668" changeset="false"><tag k="addr:street" v="West 12th Street"/><tag k="addr:housenumber" v="606"/><tag k="addr:postcode" v="78701"/></node><node id="-90" lat="30.275757" lon="-97.737495" changeset="false"><tag k="addr:street" v="San Jacinto Boulevard"/><tag k="addr:housenumber" v="1406"/><tag k="addr:postcode" v="78701"/></node><node id="-91" lat="30.279149" lon="-97.741684" changeset="false"><tag k="addr:street" v="Lavaca Street"/><tag k="addr:housenumber" v="1614"/><tag k="addr:postcode" v="78701"/></node><node id="-92" lat="30.279643" lon="-97.742487" changeset="false"><tag k="addr:street" v="Guadalupe Street"/><tag k="addr:housenumber" v="1616"/><tag k="addr:postcode" v="78701"/></node><node id="-93" lat="30.281509" lon="-97.743038" changeset="false"><tag k="addr:street" v="San Antonio Street"/><tag k="addr:housenumber" v="1808"/><tag k="addr:postcode" v="78701"/></node><node id="-94" lat="30.276526" lon="-97.749795" changeset="false"><tag k="addr:street" v="West 12th Street"/><tag k="addr:housenumber" v="830"/><tag k="addr:postcode" v="78701"/></node><node id="-95" lat="30.280716" lon="-97.739826" changeset="false"><tag k="addr:street" v="Colorado Street"/><tag k="addr:housenumber" v="1816"/><tag k="addr:postcode" v="78701"/></node><node id="-96" lat="30.282449" lon="-97.745554" changeset="false"><tag k="addr:street" v="West Martin Luther King Jr Boulevard"/><tag k="addr:housenumber" v="707"/><tag k="addr:postcode" v="78701"/></node><node id="-97" lat="30.279768" lon="-97.73806" changeset="false"><tag k="addr:street" v="Congress Avenue"/><tag k="addr:housenumber" v="1801"/><tag k="addr:postcode" v="78701"/></node><node id="-98" lat="30.280873" lon="-97.739408" changeset="false"><tag k="addr:street" v="West Martin Luther King Jr Boulevard"/><tag k="addr:housenumber" v="125"/><tag k="addr:postcode" v="78701"/></node><node id="-99" lat="30.278672" lon="-97.750027" changeset="false"><tag k="addr:street" v="Shoal Creek Boulevard"/><tag k="addr:housenumber" v="1303 1/2"/><tag k="addr:postcode" v="78701"/></node><node id="-100" lat="30.278543" lon="-97.741989" changeset="false"><tag k="addr:street" v="West 16th Street"/><tag k="addr:housenumber" v="307"/><tag k="addr:postcode" v="78701"/></node><node id="-101" lat="30.27819" lon="-97.736304" changeset="false"><tag k="addr:street" v="East 17th Street"/><tag k="addr:housenumber" v="302"/><tag k="addr:postcode" v="78701"/></node><node id="-102" lat="30.280247" lon="-97.741164" changeset="false"><tag k="addr:street" v="Lavaca Street"/><tag k="addr:housenumber" v="1720"/><tag k="addr:postcode" v="78701"/></node><node id="-103" lat="30.280294" lon="-97.743529" changeset="false"><tag k="addr:street" v="San Antonio Street"/><tag k="addr:housenumber" v="1700"/><tag k="addr:postcode" v="78701"/></node><node id="-104" lat="30.277534" lon="-97.735597" changeset="false"><tag k="addr:street" v="Trinity Street"/><tag k="addr:housenumber" v="1602"/><tag k="addr:postcode" v="78701"/></node><node id="-105" lat="30.277248" lon="-97.736471" changeset="false"><tag k="addr:street" v="San Jacinto Boulevard"/><tag k="addr:housenumber" v="1601"/><tag k="addr:postcode" v="78701"/></node><node id="-106" lat="30.282204" lon="-97.74575" changeset="false"><tag k="addr:street" v="West Avenue"/><tag k="addr:housenumber" v="1803"/><tag k="addr:postcode" v="78701"/></node><node id="-107" lat="30.279695" lon="-97.737822" changeset="false"><tag k="addr:street" v="East 18th Street"/><tag k="addr:housenumber" v="104"/><tag k="addr:postcode" v="78701"/></node><node id="-108" lat="30.282525" lon="-97.745733" changeset="false"><tag k="addr:street" v="West Avenue"/><tag k="addr:housenumber" v="1805"/><tag k="addr:postcode" v="78701"/></node><node id="-109" lat="30.28129" lon="-97.741468" changeset="false"><tag k="addr:street" v="Guadalupe Street"/><tag k="addr:housenumber" v="1811"/><tag k="addr:postcode" v="78701"/></node><node id="-110" lat="30.281214" lon="-97.748481" changeset="false"><tag k="addr:street" v="West 17th Street"/><tag k="addr:housenumber" v="901"/><tag k="addr:postcode" v="78701"/></node><node id="-111" lat="30.28098" lon="-97.74377" changeset="false"><tag k="addr:street" v="West 18th Street"/><tag k="addr:housenumber" v="511"/><tag k="addr:postcode" v="78701"/></node><node id="-112" lat="30.279665" lon="-97.744884" changeset="false"><tag k="addr:street" v="West 16th Street"/><tag k="addr:housenumber" v="602"/><tag k="addr:postcode" v="78701"/></node><node id="-113" lat="30.277638" lon="-97.73101" changeset="false"><tag k="addr:street" v="North Interstate Highway 35 Service Road"/><tag k="addr:housenumber" v="1730"/><tag k="addr:postcode" v="78701"/></node><node id="-114" lat="30.276617" lon="-97.743109" changeset="false"><tag k="addr:street" v="Guadalupe Street"/><tag k="addr:housenumber" v="1309"/><tag k="addr:postcode" v="78701"/></node><node id="-115" lat="30.278511" lon="-97.744308" changeset="false"><tag k="addr:street" v="West 15th Street"/><tag k="addr:housenumber" v="502"/><tag k="addr:postcode" v="78701"/></node><node id="-116" lat="30.28283" lon="-97.750349" changeset="false"><tag k="addr:street" v="Vance Circle"/><tag k="addr:housenumber" v="1804"/><tag k="addr:postcode" v="78701"/></node><node id="-117" lat="30.281257" lon="-97.743139" changeset="false"><tag k="addr:street" v="West 18th Street"/><tag k="addr:housenumber" v="500"/><tag k="addr:postcode" v="78701"/></node><node id="-118" lat="30.278043" lon="-97.749221" changeset="false"><tag k="addr:street" v="Shoal Creek Boulevard"/><tag k="addr:housenumber" v="1301"/><tag k="addr:postcode" v="78701"/></node><node id="-119" lat="30.272313" lon="-97.738816" changeset="false"><tag k="addr:street" v="San Jacinto Boulevard"/><tag k="addr:housenumber" v="1100"/><tag k="addr:postcode" v="78701"/></node><node id="-120" lat="30.271986" lon="-97.732982" changeset="false"><tag k="addr:street" v="North Interstate Highway 35 Service Road"/><tag k="addr:housenumber" v="1200"/><tag k="addr:postcode" v="78701"/></node><node id="-121" lat="30.273473" lon="-97.738327" changeset="false"><tag k="addr:street" v="San Jacinto Boulevard"/><tag k="addr:housenumber" v="1200"/><tag k="addr:postcode" v="78701"/></node><node id="-122" lat="30.27266" lon="-97.740254" changeset="false"><tag k="addr:street" v="East 11th Street"/><tag k="addr:housenumber" v="112"/><tag k="addr:postcode" v="78701"/></node><node id="-123" lat="30.27803" lon="-97.735452" changeset="false"><tag k="addr:street" v="Trinity Street"/><tag k="addr:housenumber" v="1702"/><tag k="addr:postcode" v="78701"/></node><node id="-124" lat="30.279144" lon="-97.74418" changeset="false"><tag k="addr:street" v="West 16th Street"/><tag k="addr:housenumber" v="503"/><tag k="addr:postcode" v="78701"/></node><node id="-125" lat="30.273902" lon="-97.733023" changeset="false"><tag k="addr:street" v="Sabine Street"/><tag k="addr:housenumber" v="1249 1/2"/><tag k="addr:postcode" v="78701"/></node><node id="-126" lat="30.282884" lon="-97.747672" changeset="false"><tag k="addr:street" v="Pearl Street"/><tag k="addr:housenumber" v="1806"/><tag k="addr:postcode" v="78701"/></node><node id="-127" lat="30.275516" lon="-97.733521" changeset="false"><tag k="addr:street" v="Red River Street"/><tag k="addr:housenumber" v="1501"/><tag k="addr:postcode" v="78701"/></node><node id="-128" lat="30.280517" lon="-97.749261" changeset="false"><tag k="addr:street" v="Shoal Creek Boulevard"/><tag k="addr:housenumber" v="1507"/><tag k="addr:postcode" v="78701"/></node><node id="-129" lat="30.277275" lon="-97.744041" changeset="false"><tag k="addr:street" v="West 14th Street"/><tag k="addr:housenumber" v="412"/><tag k="addr:postcode" v="78701"/></node><node id="-130" lat="30.276433" lon="-97.734375" changeset="false"><tag k="addr:street" v="Red River Street"/><tag k="addr:housenumber" v="1500"/><tag k="addr:postcode" v="78701"/></node><node id="-131" lat="30.281055" lon="-97.742772" changeset="false"><tag k="addr:street" v="West 18th Street"/><tag k="addr:housenumber" v="412"/><tag k="addr:postcode" v="78701"/></node><node id="-132" lat="30.279265" lon="-97.742129" changeset="false"><tag k="addr:street" v="Guadalupe Street"/><tag k="addr:housenumber" v="1611"/><tag k="addr:postcode" v="78701"/></node><node id="-133" lat="30.277258" lon="-97.744271" changeset="false"><tag k="addr:street" v="San Antonio Street"/><tag k="addr:housenumber" v="1401"/><tag k="addr:postcode" v="78701"/></node><node id="-134" lat="30.275578" lon="-97.73464" changeset="false"><tag k="addr:street" v="East 15th Street"/><tag k="addr:housenumber" v="501"/><tag k="addr:postcode" v="78701"/></node><node id="-135" lat="30.278038" lon="-97.740963" changeset="false"><tag k="addr:street" v="Colorado Street"/><tag k="addr:housenumber" v="1506"/><tag k="addr:postcode" v="78701"/></node><node id="-136" lat="30.277025" lon="-97.748581" changeset="false"><tag k="addr:street" v="West Avenue"/><tag k="addr:housenumber" v="1210"/><tag k="addr:postcode" v="78701"/></node><node id="-137" lat="30.277434" lon="-97.740597" changeset="false"><tag k="addr:street" v="Colorado Street"/><tag k="addr:housenumber" v="1501"/><tag k="addr:postcode" v="78701"/></node><node id="-138" lat="30.277432" lon="-97.742054" changeset="false"><tag k="addr:street" v="West 15th Street"/><tag k="addr:housenumber" v="301"/><tag k="addr:postcode" v="78701"/></node><node id="-139" lat="30.281603" lon="-97.743743" changeset="false"><tag k="addr:street" v="Nueces Street"/><tag k="addr:housenumber" v="1805"/><tag k="addr:postcode" v="78701"/></node><node id="-140" lat="30.283055" lon="-97.749062" changeset="false"><tag k="addr:street" v="San Gabriel Street"/><tag k="addr:housenumber" v="1802"/><tag k="addr:postcode" v="78701"/></node><node id="-141" lat="30.278889" lon="-97.739868" changeset="false"><tag k="addr:street" v="Colorado Street"/><tag k="addr:housenumber" v="1611"/><tag k="addr:postcode" v="78701"/></node><node id="-142" lat="30.276089" lon="-97.735653" changeset="false"><tag k="addr:street" v="East 15th Street"/><tag k="addr:housenumber" v="400"/><tag k="addr:postcode" v="78701"/></node><node id="-143" lat="30.28143" lon="-97.745336" changeset="false"><tag k="addr:street" v="West 18th Street"/><tag k="addr:housenumber" v="701"/><tag k="addr:postcode" v="78701"/></node><node id="-144" lat="30.274743" lon="-97.743013" changeset="false"><tag k="addr:street" v="West 12th Street"/><tag k="addr:housenumber" v="300"/><tag k="addr:postcode" v="78701"/></node><node id="-145" lat="30.275028" lon="-97.733784" changeset="false"><tag k="addr:street" v="East 15th Street"/><tag k="addr:housenumber" v="601"/><tag k="addr:postcode" v="78701"/></node><node id="-146" lat="30.275062" lon="-97.736474" changeset="false"><tag k="addr:street" v="Trinity Street"/><tag k="addr:housenumber" v="1400"/><tag k="addr:postcode" v="78701"/></node><node id="-147" lat="30.27852" lon="-97.747374" changeset="false"><tag k="addr:street" v="West Avenue"/><tag k="addr:housenumber" v="1401"/><tag k="addr:postcode" v="78701"/></node><node id="-148" lat="30.275024" lon="-97.742491" changeset="false"><tag k="addr:street" v="Lavaca Street"/><tag k="addr:housenumber" v="1203"/><tag k="addr:postcode" v="78701"/></node><node id="-149" lat="30.278388" lon="-97.745675" changeset="false"><tag k="addr:street" v="West 15th Street"/><tag k="addr:housenumber" v="605"/><tag k="addr:postcode" v="78701"/></node><node id="-150" lat="30.281364" lon="-97.742765" changeset="false"><tag k="addr:street" v="San Antonio Street"/><tag k="addr:housenumber" v="1809"/><tag k="addr:postcode" v="78701"/></node><node id="-151" lat="30.280521" lon="-97.744038" changeset="false"><tag k="addr:street" v="West 17th Street"/><tag k="addr:housenumber" v="510"/><tag k="addr:postcode" v="78701"/></node><node id="-152" lat="30.274249" lon="-97.736294" changeset="false"><tag k="addr:street" v="Trinity Street"/><tag k="addr:housenumber" v="1305"/><tag k="addr:postcode" v="78701"/></node><node id="-153" lat="30.28081" lon="-97.749004" changeset="false"><tag k="addr:street" v="West 16th Street"/><tag k="addr:housenumber" v="908"/><tag k="addr:postcode" v="78701"/></node><node id="-154" lat="30.275212" lon="-97.744234" changeset="false"><tag k="addr:street" v="West 12th Street"/><tag k="addr:housenumber" v="400"/><tag k="addr:postcode" v="78701"/></node><node id="-155" lat="30.280411" lon="-97.744944" changeset="false"><tag k="addr:street" v="West 17th Street"/><tag k="addr:housenumber" v="609"/><tag k="addr:postcode" v="78701"/></node><node id="-156" lat="30.275599" lon="-97.735746" changeset="false"><tag k="addr:street" v="East 15th Street"/><tag k="addr:housenumber" v="403"/><tag k="addr:postcode" v="78701"/></node><node id="-157" lat="30.273357" lon="-97.738344" changeset="false"><tag k="addr:street" v="San Jacinto Boulevard"/><tag k="addr:housenumber" v="1200 1/2"/><tag k="addr:postcode" v="78701"/></node><node id="-158" lat="30.276186" lon="-97.744874" changeset="false"><tag k="addr:street" v="West 13th Street"/><tag k="addr:housenumber" v="501"/><tag k="addr:postcode" v="78701"/></node><node id="-159" lat="30.277515" lon="-97.74329" changeset="false"><tag k="addr:street" v="Guadalupe Street"/><tag k="addr:housenumber" v="1408"/><tag k="addr:postcode" v="78701"/></node><node id="-160" lat="30.277118" lon="-97.746383" changeset="false"><tag k="addr:street" v="West 13th Street"/><tag k="addr:housenumber" v="604"/><tag k="addr:postcode" v="78701"/></node><node id="-161" lat="30.282697" lon="-97.748095" changeset="false"><tag k="addr:street" v="West 18th Street"/><tag k="addr:housenumber" v="906"/><tag k="addr:postcode" v="78701"/></node><node id="-162" lat="30.27602" lon="-97.747047" changeset="false"><tag k="addr:street" v="Rio Grande Street"/><tag k="addr:housenumber" v="1205"/><tag k="addr:postcode" v="78701"/></node><node id="-163" lat="30.280138" lon="-97.745321" changeset="false"><tag k="addr:street" v="Rio Grande Street"/><tag k="addr:housenumber" v="1601"/><tag k="addr:postcode" v="78701"/></node><node id="-164" lat="30.282441" lon="-97.749593" changeset="false"><tag k="addr:street" v="Vance Circle"/><tag k="addr:housenumber" v="1800"/><tag k="addr:postcode" v="78701"/></node><node id="-165" lat="30.281285" lon="-97.74197" changeset="false"><tag k="addr:street" v="Guadalupe Street"/><tag k="addr:housenumber" v="1810"/><tag k="addr:postcode" v="78701"/></node><node id="-166" lat="30.278844" lon="-97.738449" changeset="false"><tag k="addr:street" v="Congress Avenue"/><tag k="addr:housenumber" v="1701"/><tag k="addr:postcode" v="78701"/></node><node id="-167" lat="30.278649" lon="-97.742359" changeset="false"><tag k="addr:street" v="West 16th Street"/><tag k="addr:housenumber" v="313"/><tag k="addr:postcode" v="78701"/></node><node id="-168" lat="30.279357" lon="-97.735269" changeset="false"><tag k="addr:street" v="San Jacinto Boulevard"/><tag k="addr:housenumber" v="1801"/><tag k="addr:postcode" v="78701"/></node><node id="-169" lat="30.279373" lon="-97.741598" changeset="false"><tag k="addr:street" v="Lavaca Street"/><tag k="addr:housenumber" v="1624"/><tag k="addr:postcode" v="78701"/></node><node id="-170" lat="30.281823" lon="-97.747439" changeset="false"><tag k="addr:street" v="Pearl Street"/><tag k="addr:housenumber" v="1707"/><tag k="addr:postcode" v="78701"/></node><node id="-171" lat="30.277694" lon="-97.736138" changeset="false"><tag k="addr:street" v="San Jacinto Boulevard"/><tag k="addr:housenumber" v="1607"/><tag k="addr:postcode" v="78701"/></node><node id="-172" lat="30.280084" lon="-97.737883" changeset="false"><tag k="addr:street" v="Congress Avenue"/><tag k="addr:housenumber" v="1807"/><tag k="addr:postcode" v="78701"/></node><node id="-173" lat="30.279074" lon="-97.746437" changeset="false"><tag k="addr:street" v="West 15th Street"/><tag k="addr:housenumber" v="700"/><tag k="addr:postcode" v="78701"/></node><node id="-174" lat="30.27895" lon="-97.745736" changeset="false"><tag k="addr:street" v="West 15th Street"/><tag k="addr:housenumber" v="606"/><tag k="addr:postcode" v="78701"/></node><node id="-175" lat="30.273376" lon="-97.742828" changeset="false"><tag k="addr:street" v="West 11th Street"/><tag k="addr:housenumber" v="200"/><tag k="addr:postcode" v="78701"/></node><node id="-176" lat="30.273599" lon="-97.73231" changeset="false"><tag k="addr:street" v="North Interstate Highway 35 Service Road"/><tag k="addr:housenumber" v="1318"/><tag k="addr:postcode" v="78701"/></node><node id="-177" lat="30.272896" lon="-97.740924" changeset="false"><tag k="addr:street" v="East 11th Street"/><tag k="addr:housenumber" v="100"/><tag k="addr:postcode" v="78701"/></node><node id="-178" lat="30.277076" lon="-97.739157" changeset="false"><tag k="addr:street" v="Congress Avenue"/><tag k="addr:housenumber" v="1501"/><tag k="addr:postcode" v="78701"/></node><node id="-179" lat="30.274753" lon="-97.734878" changeset="false"><tag k="addr:street" v="Red River Street"/><tag k="addr:housenumber" v="1401"/><tag k="addr:postcode" v="78701"/></node><node id="-180" lat="30.274774" lon="-97.736277" changeset="false"><tag k="addr:street" v="Trinity Street"/><tag k="addr:housenumber" v="1319"/><tag k="addr:postcode" v="78701"/></node><node id="-181" lat="30.277829" lon="-97.744405" changeset="false"><tag k="addr:street" v="San Antonio Street"/><tag k="addr:housenumber" v="1408"/><tag k="addr:postcode" v="78701"/></node><node id="-182" lat="30.275312" lon="-97.738425" changeset="false"><tag k="addr:street" v="East 14th Street"/><tag k="addr:housenumber" v="201"/><tag k="addr:postcode" v="78701"/></node><node id="-183" lat="30.275058" lon="-97.736142" changeset="false"><tag k="addr:street" v="Trinity Street"/><tag k="addr:housenumber" v="1401"/><tag k="addr:postcode" v="78701"/></node><node id="-184" lat="30.278489" lon="-97.7361" changeset="false"><tag k="addr:street" v="San Jacinto Boulevard"/><tag k="addr:housenumber" v="1709"/><tag k="addr:postcode" v="78701"/></node><node id="-185" lat="30.278387" lon="-97.736139" changeset="false"><tag k="addr:street" v="San Jacinto Boulevard"/><tag k="addr:housenumber" v="1707"/><tag k="addr:postcode" v="78701"/></node><node id="-186" lat="30.274985" lon="-97.733283" changeset="false"><tag k="addr:street" v="East 15th Street"/><tag k="addr:housenumber" v="619"/><tag k="addr:postcode" v="78701"/></node><node id="-187" lat="30.27662" lon="-97.739767" changeset="false"><tag k="addr:street" v="Congress Avenue"/><tag k="addr:housenumber" v="1400"/><tag k="addr:postcode" v="78701"/></node><node id="-188" lat="30.283216" lon="-97.747704" changeset="false"><tag k="addr:street" v="West Martin Luther King Jr Boulevard"/><tag k="addr:housenumber" v="907"/><tag k="addr:postcode" v="78701"/></node><node id="-189" lat="30.280405" lon="-97.744907" changeset="false"><tag k="addr:street" v="West 17th Street"/><tag k="addr:housenumber" v="607"/><tag k="addr:postcode" v="78701"/></node><node id="-190" lat="30.275083" lon="-97.743698" changeset="false"><tag k="addr:street" v="West 12th Street"/><tag k="addr:housenumber" v="316"/><tag k="addr:postcode" v="78701"/></node><node id="-191" lat="30.280173" lon="-97.746524" changeset="false"><tag k="addr:street" v="West 16th Street"/><tag k="addr:housenumber" v="712"/><tag k="addr:postcode" v="78701"/></node><node id="-192" lat="30.277144" lon="-97.741932" changeset="false"><tag k="addr:street" v="Lavaca Street"/><tag k="addr:housenumber" v="1413"/><tag k="addr:postcode" v="78701"/></node><node id="-193" lat="30.282657" lon="-97.748542" changeset="false"><tag k="addr:street" v="San Gabriel Street"/><tag k="addr:housenumber" v="1801"/><tag k="addr:postcode" v="78701"/></node><node id="-194" lat="30.27935" lon="-97.741299" changeset="false"><tag k="addr:street" v="West 17th Street"/><tag k="addr:housenumber" v="301"/><tag k="addr:postcode" v="78701"/></node><node id="-195" lat="30.281487" lon="-97.746194" changeset="false"><tag k="addr:street" v="West Avenue"/><tag k="addr:housenumber" v="1715"/><tag k="addr:postcode" v="78701"/></node><node id="-196" lat="30.27845" lon="-97.738291" changeset="false"><tag k="addr:street" v="East 17th Street"/><tag k="addr:housenumber" v="111"/><tag k="addr:postcode" v="78701"/></node><node id="-197" lat="30.278407" lon="-97.744043" changeset="false"><tag k="addr:street" v="West 15th Street"/><tag k="addr:housenumber" v="500"/><tag k="addr:postcode" v="78701"/></node><node id="-198" lat="30.278224" lon="-97.74095" changeset="false"><tag k="addr:street" v="West 16th Street"/><tag k="addr:housenumber" v="205"/><tag k="addr:postcode" v="78701"/></node><node id="-199" lat="30.272481" lon="-97.734059" changeset="false"><tag k="addr:street" v="East 12th Street"/><tag k="addr:housenumber" v="614"/><tag k="addr:postcode" v="78701"/></node><node id="-200" lat="30.272593" lon="-97.738639" changeset="false"><tag k="addr:street" v="San Jacinto Boulevard"/><tag k="addr:housenumber" v="1100 1/2"/><tag k="addr:postcode" v="78701"/></node><node id="-201" lat="30.280879" lon="-97.747285" changeset="false"><tag k="addr:street" v="West 17th Street"/><tag k="addr:housenumber" v="803"/><tag k="addr:postcode" v="78701"/></node><node id="-202" lat="30.280546" lon="-97.749095" changeset="false"><tag k="addr:street" v="West 16th Street"/><tag k="addr:housenumber" v="913"/><tag k="addr:postcode" v="78701"/></node><node id="-203" lat="30.283578" lon="-97.750314" changeset="false"><tag k="addr:street" v="Vance Circle"/><tag k="addr:housenumber" v="1812"/><tag k="addr:postcode" v="78701"/></node><node id="-204" lat="30.278186" lon="-97.748352" changeset="false"><tag k="addr:street" v="West Avenue"/><tag k="addr:housenumber" v="1308"/><tag k="addr:postcode" v="78701"/></node><node id="-205" lat="30.274949" lon="-97.737827" changeset="false"><tag k="addr:street" v="San Jacinto Boulevard"/><tag k="addr:housenumber" v="1308"/><tag k="addr:postcode" v="78701"/></node><node id="-206" lat="30.273567" lon="-97.736558" changeset="false"><tag k="addr:street" v="Trinity Street"/><tag k="addr:housenumber" v="1213"/><tag k="addr:postcode" v="78701"/></node><node id="-207" lat="30.275922" lon="-97.740679" changeset="false"><tag k="addr:street" v="Congress Avenue"/><tag k="addr:housenumber" v="1300"/><tag k="addr:postcode" v="78701"/></node><node id="-208" lat="30.282766" lon="-97.746628" changeset="false"><tag k="addr:street" v="West Martin Luther King Jr Boulevard"/><tag k="addr:housenumber" v="809"/><tag k="addr:postcode" v="78701"/></node><node id="-209" lat="30.277421" lon="-97.735307" changeset="false"><tag k="addr:street" v="Trinity Street"/><tag k="addr:housenumber" v="1601"/><tag k="addr:postcode" v="78701"/></node><node id="-210" lat="30.280211" lon="-97.744592" changeset="false"><tag k="addr:street" v="Nueces Street"/><tag k="addr:housenumber" v="1612"/><tag k="addr:postcode" v="78701"/></node><node id="-211" lat="30.279382" lon="-97.736201" changeset="false"><tag k="addr:street" v="San Jacinto Boulevard"/><tag k="addr:housenumber" v="1806"/><tag k="addr:postcode" v="78701"/></node><node id="-212" lat="30.277688" lon="-97.733532" changeset="false"><tag k="addr:street" v="Red River Street"/><tag k="addr:housenumber" v="1710"/><tag k="addr:postcode" v="78701"/></node><node id="-213" lat="30.278392" lon="-97.736097" changeset="false"><tag k="addr:street" v="San Jacinto Boulevard"/><tag k="addr:housenumber" v="1711"/><tag k="addr:postcode" v="78701"/></node><node id="-214" lat="30.272797" lon="-97.738882" changeset="false"><tag k="addr:street" v="San Jacinto Boulevard"/><tag k="addr:housenumber" v="1110"/><tag k="addr:postcode" v="78701"/></node><node id="-215" lat="30.28117" lon="-97.741552" changeset="false"><tag k="addr:street" v="Guadalupe Street"/><tag k="addr:housenumber" v="1809"/><tag k="addr:postcode" v="78701"/></node><node id="-216" lat="30.281294" lon="-97.742151" changeset="false"><tag k="addr:street" v="West Martin Luther King Jr Boulevard"/><tag k="addr:housenumber" v="411"/><tag k="addr:postcode" v="78701"/></node><node id="-217" lat="30.278944" lon="-97.743508" changeset="false"><tag k="addr:street" v="West 16th Street"/><tag k="addr:housenumber" v="411"/><tag k="addr:postcode" v="78701"/></node><node id="-218" lat="30.276598" lon="-97.742707" changeset="false"><tag k="addr:street" v="West 14th Street"/><tag k="addr:housenumber" v="301"/><tag k="addr:postcode" v="78701"/></node><node id="-219" lat="30.281442" lon="-97.744355" changeset="false"><tag k="addr:street" v="Nueces Street"/><tag k="addr:housenumber" v="1800"/><tag k="addr:postcode" v="78701"/></node><node id="-220" lat="30.281571" lon="-97.74381" changeset="false"><tag k="addr:street" v="Nueces Street"/><tag k="addr:housenumber" v="1803"/><tag k="addr:postcode" v="78701"/></node><node id="-221" lat="30.280854" lon="-97.743743" changeset="false"><tag k="addr:street" v="West 18th Street"/><tag k="addr:housenumber" v="507"/><tag k="addr:postcode" v="78701"/></node><node id="-222" lat="30.282743" lon="-97.748464" changeset="false"><tag k="addr:street" v="West 18th Street"/><tag k="addr:housenumber" v="910"/><tag k="addr:postcode" v="78701"/></node><node id="-223" lat="30.283259" lon="-97.748264" changeset="false"><tag k="addr:street" v="San Gabriel Street"/><tag k="addr:housenumber" v="1809"/><tag k="addr:postcode" v="78701"/></node><node id="-224" lat="30.282463" lon="-97.747659" changeset="false"><tag k="addr:street" v="West 18th Street"/><tag k="addr:housenumber" v="900"/><tag k="addr:postcode" v="78701"/></node><node id="-225" lat="30.280713" lon="-97.748479" changeset="false"><tag k="addr:street" v="West 16th Street"/><tag k="addr:housenumber" v="900"/><tag k="addr:postcode" v="78701"/></node><node id="-226" lat="30.277495" lon="-97.744086" changeset="false"><tag k="addr:street" v="West 14th Street"/><tag k="addr:housenumber" v="408"/><tag k="addr:postcode" v="78701"/></node><node id="-227" lat="30.279916" lon="-97.745483" changeset="false"><tag k="addr:street" v="Rio Grande Street"/><tag k="addr:housenumber" v="1605"/><tag k="addr:postcode" v="78701"/></node><node id="-228" lat="30.275927" lon="-97.747109" changeset="false"><tag k="addr:street" v="Rio Grande Street"/><tag k="addr:housenumber" v="1201"/><tag k="addr:postcode" v="78701"/></node><node id="-229" lat="30.278442" lon="-97.737141" changeset="false"><tag k="addr:street" v="East 17th Street"/><tag k="addr:housenumber" v="204"/><tag k="addr:postcode" v="78701"/></node><node id="-230" lat="30.27857" lon="-97.736477" changeset="false"><tag k="addr:street" v="San Jacinto Boulevard"/><tag k="addr:housenumber" v="1706"/><tag k="addr:postcode" v="78701"/></node><node id="-231" lat="30.278406" lon="-97.737022" changeset="false"><tag k="addr:street" v="East 17th Street"/><tag k="addr:housenumber" v="206"/><tag k="addr:postcode" v="78701"/></node><node id="-232" lat="30.278385" lon="-97.73656" changeset="false"><tag k="addr:street" v="San Jacinto Boulevard"/><tag k="addr:housenumber" v="1700"/><tag k="addr:postcode" v="78701"/></node><node id="-233" lat="30.278576" lon="-97.7364" changeset="false"><tag k="addr:street" v="San Jacinto Boulevard"/><tag k="addr:housenumber" v="1708"/><tag k="addr:postcode" v="78701"/></node><node id="-234" lat="30.278801" lon="-97.737164" changeset="false"><tag k="addr:street" v="Brazos Street"/><tag k="addr:housenumber" v="1709"/><tag k="addr:postcode" v="78701"/></node><node id="-235" lat="30.27923" lon="-97.734377" changeset="false"><tag k="addr:street" v="Trinity Street"/><tag k="addr:housenumber" v="1815"/><tag k="addr:postcode" v="78701"/></node><node id="-236" lat="30.279277" lon="-97.734092" changeset="false"><tag k="addr:street" v="East Martin Luther King Jr Boulevard"/><tag k="addr:housenumber" v="411"/><tag k="addr:postcode" v="78701"/></node><node id="-237" lat="30.277979" lon="-97.736708" changeset="false"><tag k="addr:street" v="San Jacinto Boulevard"/><tag k="addr:housenumber" v="1620"/><tag k="addr:postcode" v="78701"/></node><node id="-238" lat="30.277739" lon="-97.73684" changeset="false"><tag k="addr:street" v="San Jacinto Boulevard"/><tag k="addr:housenumber" v="1610"/><tag k="addr:postcode" v="78701"/></node><node id="-239" lat="30.273988" lon="-97.732449" changeset="false"><tag k="addr:street" v="North Interstate Highway 35 Service Road"/><tag k="addr:housenumber" v="1410"/><tag k="addr:postcode" v="78701"/></node><node id="-240" lat="30.274207" lon="-97.732184" changeset="false"><tag k="addr:street" v="North Interstate Highway 35 Service Road"/><tag k="addr:housenumber" v="1400"/><tag k="addr:postcode" v="78701"/></node><node id="-241" lat="30.27324" lon="-97.733257" changeset="false"><tag k="addr:street" v="Sabine Street"/><tag k="addr:housenumber" v="1225"/><tag k="addr:postcode" v="78701"/></node><node id="-242" lat="30.279485" lon="-97.740375" changeset="false"><tag k="addr:street" v="West 17th Street"/><tag k="addr:housenumber" v="202"/><tag k="addr:postcode" v="78701"/></node><node id="-243" lat="30.279538" lon="-97.740197" changeset="false"><tag k="addr:street" v="Colorado Street"/><tag k="addr:housenumber" v="1708"/><tag k="addr:postcode" v="78701"/></node><node id="-244" lat="30.280274" lon="-97.738854" changeset="false"><tag k="addr:street" v="Congress Avenue"/><tag k="addr:housenumber" v="1800"/><tag k="addr:postcode" v="78701"/></node><node id="-245" lat="30.279958" lon="-97.73904" changeset="false"><tag k="addr:street" v="West 18th Street"/><tag k="addr:housenumber" v="108"/><tag k="addr:postcode" v="78701"/></node><node id="-246" lat="30.280615" lon="-97.739382" changeset="false"><tag k="addr:street" v="Colorado Street"/><tag k="addr:housenumber" v="1817"/><tag k="addr:postcode" v="78701"/></node><node id="-247" lat="30.274627" lon="-97.736716" changeset="false"><tag k="addr:street" v="Trinity Street"/><tag k="addr:housenumber" v="1308"/><tag k="addr:postcode" v="78701"/></node><node id="-248" lat="30.274226" lon="-97.736843" changeset="false"><tag k="addr:street" v="Trinity Street"/><tag k="addr:housenumber" v="1300"/><tag k="addr:postcode" v="78701"/></node><node id="-249" lat="30.281316" lon="-97.741327" changeset="false"><tag k="addr:street" v="West Martin Luther King Jr Boulevard"/><tag k="addr:housenumber" v="309"/><tag k="addr:postcode" v="78701"/></node><node id="-250" lat="30.281296" lon="-97.741289" changeset="false"><tag k="addr:street" v="West Martin Luther King Jr Boulevard"/><tag k="addr:housenumber" v="307"/><tag k="addr:postcode" v="78701"/></node><node id="-251" lat="30.28123" lon="-97.741251" changeset="false"><tag k="addr:street" v="West Martin Luther King Jr Boulevard"/><tag k="addr:housenumber" v="305"/><tag k="addr:postcode" v="78701"/></node><node id="-252" lat="30.280047" lon="-97.741351" changeset="false"><tag k="addr:street" v="Lavaca Street"/><tag k="addr:housenumber" v="1712"/><tag k="addr:postcode" v="78701"/></node><node id="-253" lat="30.27973" lon="-97.741268" changeset="false"><tag k="addr:street" v="Lavaca Street"/><tag k="addr:housenumber" v="1704"/><tag k="addr:postcode" v="78701"/></node><node id="-254" lat="30.279921" lon="-97.741405" changeset="false"><tag k="addr:street" v="Lavaca Street"/><tag k="addr:housenumber" v="1710"/><tag k="addr:postcode" v="78701"/></node><node id="-255" lat="30.27976" lon="-97.741453" changeset="false"><tag k="addr:street" v="Lavaca Street"/><tag k="addr:housenumber" v="1702"/><tag k="addr:postcode" v="78701"/></node><node id="-256" lat="30.28018" lon="-97.741292" changeset="false"><tag k="addr:street" v="Lavaca Street"/><tag k="addr:housenumber" v="1718"/><tag k="addr:postcode" v="78701"/></node><node id="-257" lat="30.279865" lon="-97.742076" changeset="false"><tag k="addr:street" v="Guadalupe Street"/><tag k="addr:housenumber" v="1703"/><tag k="addr:postcode" v="78701"/></node><node id="-258" lat="30.279807" lon="-97.742095" changeset="false"><tag k="addr:street" v="Guadalupe Street"/><tag k="addr:housenumber" v="1701"/><tag k="addr:postcode" v="78701"/></node><node id="-259" lat="30.279728" lon="-97.741889" changeset="false"><tag k="addr:street" v="West 17th Street"/><tag k="addr:housenumber" v="314"/><tag k="addr:postcode" v="78701"/></node><node id="-260" lat="30.276957" lon="-97.741972" changeset="false"><tag k="addr:street" v="Lavaca Street"/><tag k="addr:housenumber" v="1409"/><tag k="addr:postcode" v="78701"/></node><node id="-261" lat="30.276717" lon="-97.742096" changeset="false"><tag k="addr:street" v="Lavaca Street"/><tag k="addr:housenumber" v="1401"/><tag k="addr:postcode" v="78701"/></node><node id="-262" lat="30.276825" lon="-97.742057" changeset="false"><tag k="addr:street" v="Lavaca Street"/><tag k="addr:housenumber" v="1403"/><tag k="addr:postcode" v="78701"/></node><node id="-263" lat="30.276861" lon="-97.741832" changeset="false"><tag k="addr:street" v="West 14th Street"/><tag k="addr:housenumber" v="208"/><tag k="addr:postcode" v="78701"/></node><node id="-264" lat="30.277399" lon="-97.741796" changeset="false"><tag k="addr:street" v="Lavaca Street"/><tag k="addr:housenumber" v="1419"/><tag k="addr:postcode" v="78701"/></node><node id="-265" lat="30.277281" lon="-97.741818" changeset="false"><tag k="addr:street" v="Lavaca Street"/><tag k="addr:housenumber" v="1415"/><tag k="addr:postcode" v="78701"/></node><node id="-266" lat="30.277357" lon="-97.741769" changeset="false"><tag k="addr:street" v="West 15th Street"/><tag k="addr:housenumber" v="219"/><tag k="addr:postcode" v="78701"/></node><node id="-267" lat="30.278977" lon="-97.741772" changeset="false"><tag k="addr:street" v="Lavaca Street"/><tag k="addr:housenumber" v="1610"/><tag k="addr:postcode" v="78701"/></node><node id="-268" lat="30.278955" lon="-97.741631" changeset="false"><tag k="addr:street" v="Lavaca Street"/><tag k="addr:housenumber" v="1608"/><tag k="addr:postcode" v="78701"/></node><node id="-269" lat="30.278835" lon="-97.741795" changeset="false"><tag k="addr:street" v="Lavaca Street"/><tag k="addr:housenumber" v="1600"/><tag k="addr:postcode" v="78701"/></node><node id="-270" lat="30.278892" lon="-97.74083" changeset="false"><tag k="addr:street" v="Lavaca Street"/><tag k="addr:housenumber" v="1601"/><tag k="addr:postcode" v="78701"/></node><node id="-271" lat="30.278642" lon="-97.740558" changeset="false"><tag k="addr:street" v="Colorado Street"/><tag k="addr:housenumber" v="1604"/><tag k="addr:postcode" v="78701"/></node><node id="-272" lat="30.27572" lon="-97.742087" changeset="false"><tag k="addr:street" v="Colorado Street"/><tag k="addr:housenumber" v="1300"/><tag k="addr:postcode" v="78701"/></node><node id="-273" lat="30.275766" lon="-97.74208" changeset="false"><tag k="addr:street" v="West 13th Street"/><tag k="addr:housenumber" v="200"/><tag k="addr:postcode" v="78701"/></node><node id="-274" lat="30.275801" lon="-97.742205" changeset="false"><tag k="addr:street" v="West 13th Street"/><tag k="addr:housenumber" v="206"/><tag k="addr:postcode" v="78701"/></node><node id="-275" lat="30.280588" lon="-97.742821" changeset="false"><tag k="addr:street" v="West 18th Street"/><tag k="addr:housenumber" v="407"/><tag k="addr:postcode" v="78701"/></node><node id="-276" lat="30.280558" lon="-97.743022" changeset="false"><tag k="addr:street" v="San Antonio Street"/><tag k="addr:housenumber" v="1709"/><tag k="addr:postcode" v="78701"/></node><node id="-277" lat="30.280889" lon="-97.742399" changeset="false"><tag k="addr:street" v="West 18th Street"/><tag k="addr:housenumber" v="408"/><tag k="addr:postcode" v="78701"/></node><node id="-278" lat="30.28099" lon="-97.742567" changeset="false"><tag k="addr:street" v="West 18th Street"/><tag k="addr:housenumber" v="410"/><tag k="addr:postcode" v="78701"/></node><node id="-279" lat="30.279009" lon="-97.742117" changeset="false"><tag k="addr:street" v="West 16th Street"/><tag k="addr:housenumber" v="306"/><tag k="addr:postcode" v="78701"/></node><node id="-280" lat="30.278865" lon="-97.742435" changeset="false"><tag k="addr:street" v="Guadalupe Street"/><tag k="addr:housenumber" v="1601"/><tag k="addr:postcode" v="78701"/></node><node id="-281" lat="30.279062" lon="-97.742309" changeset="false"><tag k="addr:street" v="West 16th Street"/><tag k="addr:housenumber" v="308"/><tag k="addr:postcode" v="78701"/></node><node id="-282" lat="30.278952" lon="-97.742421" changeset="false"><tag k="addr:street" v="West 16th Street"/><tag k="addr:housenumber" v="314"/><tag k="addr:postcode" v="78701"/></node><node id="-283" lat="30.277973" lon="-97.742511" changeset="false"><tag k="addr:street" v="West 15th Street"/><tag k="addr:housenumber" v="304"/><tag k="addr:postcode" v="78701"/></node><node id="-284" lat="30.27794" lon="-97.742309" changeset="false"><tag k="addr:street" v="West 15th Street"/><tag k="addr:housenumber" v="302"/><tag k="addr:postcode" v="78701"/></node><node id="-285" lat="30.278199" lon="-97.741933" changeset="false"><tag k="addr:street" v="Lavaca Street"/><tag k="addr:housenumber" v="1508"/><tag k="addr:postcode" v="78701"/></node><node id="-286" lat="30.27788" lon="-97.742065" changeset="false"><tag k="addr:street" v="West 15th Street"/><tag k="addr:housenumber" v="300"/><tag k="addr:postcode" v="78701"/></node><node id="-287" lat="30.278263" lon="-97.742627" changeset="false"><tag k="addr:street" v="Guadalupe Street"/><tag k="addr:housenumber" v="1509"/><tag k="addr:postcode" v="78701"/></node><node id="-288" lat="30.278139" lon="-97.74317" changeset="false"><tag k="addr:street" v="West 15th Street"/><tag k="addr:housenumber" v="404"/><tag k="addr:postcode" v="78701"/></node><node id="-289" lat="30.278177" lon="-97.743141" changeset="false"><tag k="addr:street" v="West 15th Street"/><tag k="addr:housenumber" v="400"/><tag k="addr:postcode" v="78701"/></node><node id="-290" lat="30.275495" lon="-97.742982" changeset="false"><tag k="addr:street" v="West 13th Street"/><tag k="addr:housenumber" v="301"/><tag k="addr:postcode" v="78701"/></node><node id="-291" lat="30.275569" lon="-97.742836" changeset="false"><tag k="addr:street" v="Lavaca Street"/><tag k="addr:housenumber" v="1220"/><tag k="addr:postcode" v="78701"/></node><node id="-292" lat="30.282208" lon="-97.744604" changeset="false"><tag k="addr:street" v="West Martin Luther King Jr Boulevard"/><tag k="addr:housenumber" v="615"/><tag k="addr:postcode" v="78701"/></node><node id="-293" lat="30.282081" lon="-97.744302" changeset="false"><tag k="addr:street" v="West Martin Luther King Jr Boulevard"/><tag k="addr:housenumber" v="607"/><tag k="addr:postcode" v="78701"/></node><node id="-294" lat="30.281712" lon="-97.744544" changeset="false"><tag k="addr:street" v="Nueces Street"/><tag k="addr:housenumber" v="1802"/><tag k="addr:postcode" v="78701"/></node><node id="-295" lat="30.281479" lon="-97.744573" changeset="false"><tag k="addr:street" v="West 18th Street"/><tag k="addr:housenumber" v="604"/><tag k="addr:postcode" v="78701"/></node><node id="-296" lat="30.280792" lon="-97.744992" changeset="false"><tag k="addr:street" v="West 17th Street"/><tag k="addr:housenumber" v="606"/><tag k="addr:postcode" v="78701"/></node><node id="-297" lat="30.280817" lon="-97.745178" changeset="false"><tag k="addr:street" v="West 17th Street"/><tag k="addr:housenumber" v="608"/><tag k="addr:postcode" v="78701"/></node><node id="-298" lat="30.281253" lon="-97.745083" changeset="false"><tag k="addr:street" v="Rio Grande Street"/><tag k="addr:housenumber" v="1711"/><tag k="addr:postcode" v="78701"/></node><node id="-299" lat="30.281288" lon="-97.745037" changeset="false"><tag k="addr:street" v="West 18th Street"/><tag k="addr:housenumber" v="609"/><tag k="addr:postcode" v="78701"/></node><node id="-300" lat="30.280593" lon="-97.745882" changeset="false"><tag k="addr:street" v="Rio Grande Street"/><tag k="addr:housenumber" v="1616"/><tag k="addr:postcode" v="78701"/></node><node id="-301" lat="30.280503" lon="-97.745932" changeset="false"><tag k="addr:street" v="Rio Grande Street"/><tag k="addr:housenumber" v="1612"/><tag k="addr:postcode" v="78701"/></node><node id="-302" lat="30.282726" lon="-97.746151" changeset="false"><tag k="addr:street" v="West Avenue"/><tag k="addr:housenumber" v="1812"/><tag k="addr:postcode" v="78701"/></node><node id="-303" lat="30.282654" lon="-97.746249" changeset="false"><tag k="addr:street" v="West Avenue"/><tag k="addr:housenumber" v="1808"/><tag k="addr:postcode" v="78701"/></node><node id="-304" lat="30.282746" lon="-97.746163" changeset="false"><tag k="addr:street" v="West Martin Luther King Jr Boulevard"/><tag k="addr:housenumber" v="803"/><tag k="addr:postcode" v="78701"/></node><node id="-305" lat="30.282735" lon="-97.746513" changeset="false"><tag k="addr:street" v="West Martin Luther King Jr Boulevard"/><tag k="addr:housenumber" v="807"/><tag k="addr:postcode" v="78701"/></node><node id="-306" lat="30.282757" lon="-97.74634" changeset="false"><tag k="addr:street" v="West Martin Luther King Jr Boulevard"/><tag k="addr:housenumber" v="805"/><tag k="addr:postcode" v="78701"/></node><node id="-307" lat="30.281401" lon="-97.749031" changeset="false"><tag k="addr:street" v="West 17th Street"/><tag k="addr:housenumber" v="909"/><tag k="addr:postcode" v="78701"/></node><node id="-308" lat="30.281447" lon="-97.74914" changeset="false"><tag k="addr:street" v="West 17th Street"/><tag k="addr:housenumber" v="1001"/><tag k="addr:postcode" v="78701"/></node><node id="-309" lat="30.277802" lon="-97.743624" changeset="false"><tag k="addr:street" v="West 15th Street"/><tag k="addr:housenumber" v="401"/><tag k="addr:postcode" v="78701"/></node><node id="-310" lat="30.277726" lon="-97.743227" changeset="false"><tag k="addr:street" v="West 15th Street"/><tag k="addr:housenumber" v="403"/><tag k="addr:postcode" v="78701"/></node><node id="-311" lat="30.27797" lon="-97.743962" changeset="false"><tag k="addr:street" v="West 15th Street"/><tag k="addr:housenumber" v="415"/><tag k="addr:postcode" v="78701"/></node><node id="-312" lat="30.277905" lon="-97.743694" changeset="false"><tag k="addr:street" v="West 15th Street"/><tag k="addr:housenumber" v="413"/><tag k="addr:postcode" v="78701"/></node><node id="-313" lat="30.278103" lon="-97.744493" changeset="false"><tag k="addr:street" v="West 15th Street"/><tag k="addr:housenumber" v="503"/><tag k="addr:postcode" v="78701"/></node><node id="-314" lat="30.278016" lon="-97.744424" changeset="false"><tag k="addr:street" v="West 15th Street"/><tag k="addr:housenumber" v="501"/><tag k="addr:postcode" v="78701"/></node><node id="-315" lat="30.279909" lon="-97.744869" changeset="false"><tag k="addr:street" v="Nueces Street"/><tag k="addr:housenumber" v="1604"/><tag k="addr:postcode" v="78701"/></node><node id="-316" lat="30.279691" lon="-97.745014" changeset="false"><tag k="addr:street" v="West 16th Street"/><tag k="addr:housenumber" v="604"/><tag k="addr:postcode" v="78701"/></node><node id="-317" lat="30.277351" lon="-97.745391" changeset="false"><tag k="addr:street" v="West 14th Street"/><tag k="addr:housenumber" v="509"/><tag k="addr:postcode" v="78701"/></node><node id="-318" lat="30.277325" lon="-97.745332" changeset="false"><tag k="addr:street" v="West 14th Street"/><tag k="addr:housenumber" v="507"/><tag k="addr:postcode" v="78701"/></node><node id="-319" lat="30.276869" lon="-97.745517" changeset="false"><tag k="addr:street" v="Nueces Street"/><tag k="addr:housenumber" v="1301"/><tag k="addr:postcode" v="78701"/></node><node id="-320" lat="30.276832" lon="-97.745457" changeset="false"><tag k="addr:street" v="West 13th Street"/><tag k="addr:housenumber" v="508"/><tag k="addr:postcode" v="78701"/></node><node id="-321" lat="30.27604" lon="-97.744644" changeset="false"><tag k="addr:street" v="San Antonio Street"/><tag k="addr:housenumber" v="1209"/><tag k="addr:postcode" v="78701"/></node><node id="-322" lat="30.275942" lon="-97.744542" changeset="false"><tag k="addr:street" v="West 13th Street"/><tag k="addr:housenumber" v="411"/><tag k="addr:postcode" v="78701"/></node><node id="-323" lat="30.276215" lon="-97.745514" changeset="false"><tag k="addr:street" v="West 13th Street"/><tag k="addr:housenumber" v="505"/><tag k="addr:postcode" v="78701"/></node><node id="-324" lat="30.276224" lon="-97.745168" changeset="false"><tag k="addr:street" v="San Antonio Street"/><tag k="addr:housenumber" v="1210"/><tag k="addr:postcode" v="78701"/></node><node id="-325" lat="30.278504" lon="-97.746095" changeset="false"><tag k="addr:street" v="West 15th Street"/><tag k="addr:housenumber" v="611"/><tag k="addr:postcode" v="78701"/></node><node id="-326" lat="30.27846" lon="-97.746181" changeset="false"><tag k="addr:street" v="Rio Grande Street"/><tag k="addr:housenumber" v="1411"/><tag k="addr:postcode" v="78701"/></node><node id="-327" lat="30.277492" lon="-97.746911" changeset="false"><tag k="addr:street" v="Rio Grande Street"/><tag k="addr:housenumber" v="1300"/><tag k="addr:postcode" v="78701"/></node><node id="-328" lat="30.277612" lon="-97.747035" changeset="false"><tag k="addr:street" v="Rio Grande Street"/><tag k="addr:housenumber" v="1304"/><tag k="addr:postcode" v="78701"/></node><node id="-329" lat="30.276043" lon="-97.746323" changeset="false"><tag k="addr:street" v="Nueces Street"/><tag k="addr:housenumber" v="1204"/><tag k="addr:postcode" v="78701"/></node><node id="-330" lat="30.275941" lon="-97.746331" changeset="false"><tag k="addr:street" v="Nueces Street"/><tag k="addr:housenumber" v="1202"/><tag k="addr:postcode" v="78701"/></node><node id="-331" lat="30.27646" lon="-97.746387" changeset="false"><tag k="addr:street" v="West 13th Street"/><tag k="addr:housenumber" v="603"/><tag k="addr:postcode" v="78701"/></node><node id="-332" lat="30.276508" lon="-97.746557" changeset="false"><tag k="addr:street" v="West 13th Street"/><tag k="addr:housenumber" v="605"/><tag k="addr:postcode" v="78701"/></node><node id="-333" lat="30.276475" lon="-97.746153" changeset="false"><tag k="addr:street" v="Nueces Street"/><tag k="addr:housenumber" v="1210"/><tag k="addr:postcode" v="78701"/></node><node id="-334" lat="30.276682" lon="-97.749334" changeset="false"><tag k="addr:street" v="West 12th Street"/><tag k="addr:housenumber" v="824"/><tag k="addr:postcode" v="78701"/></node><node id="-335" lat="30.276485" lon="-97.749269" changeset="false"><tag k="addr:street" v="West 12th Street"/><tag k="addr:housenumber" v="816"/><tag k="addr:postcode" v="78701"/></node><node id="-336" lat="30.276466" lon="-97.749107" changeset="false"><tag k="addr:street" v="West 12th Street"/><tag k="addr:housenumber" v="814"/><tag k="addr:postcode" v="78701"/></node></osm>