<?xml version="1.0" encoding="UTF-8"?><osm version="0.6" generator="github.com/aaronlidman/osm-and-geojson"><node id="-1" lat="30.459393" lon="-97.764233" changeset="false"><tag k="addr:street" v="Lyndon Lane"/><tag k="addr:housenumber" v="8501"/><tag k="addr:postcode" v="78729"/></node><node id="-2" lat="30.459448" lon="-97.767155" changeset="false"><tag k="addr:street" v="Talyne Chaise Circle"/><tag k="addr:housenumber" v="8720"/><tag k="addr:postcode" v="78729"/></node><node id="-3" lat="30.459556" lon="-97.76509" changeset="false"><tag k="addr:street" v="Water Oak Lane"/><tag k="addr:housenumber" v="13321"/><tag k="addr:postcode" v="78729"/></node><node id="-4" lat="30.459555" lon="-97.765881" changeset="false"><tag k="addr:street" v="Water Oak Lane"/><tag k="addr:housenumber" v="13322"/><tag k="addr:postcode" v="78729"/></node><node id="-5" lat="30.456118" lon="-97.770937" changeset="false"><tag k="addr:street" v="Cainwood Lane"/><tag k="addr:housenumber" v="8702"/><tag k="addr:postcode" v="78729"/></node><node id="-6" lat="30.458795" lon="-97.7673" changeset="false"><tag k="addr:street" v="Talyne Chaise Circle"/><tag k="addr:housenumber" v="8601"/><tag k="addr:postcode" v="78729"/></node><node id="-7" lat="30.462846" lon="-97.777384" changeset="false"><tag k="addr:street" v="Stillforest Street"/><tag k="addr:housenumber" v="13107"/><tag k="addr:postcode" v="78729"/></node><node id="-8" lat="30.458689" lon="-97.769611" changeset="false"><tag k="addr:street" v="Stillwater Lane"/><tag k="addr:housenumber" v="8801"/><tag k="addr:postcode" v="78729"/></node><node id="-9" lat="30.460667" lon="-97.777782" changeset="false"><tag k="addr:street" v="Tottenham Court"/><tag k="addr:housenumber" v="9304"/><tag k="addr:postcode" v="78729"/></node><node id="-10" lat="30.464073" lon="-97.772724" changeset="false"><tag k="addr:street" v="Villa Park Drive"/><tag k="addr:housenumber" v="13332"/><tag k="addr:postcode" v="78729"/></node><node id="-11" lat="30.45963" lon="-97.764165" changeset="false"><tag k="addr:street" v="Lyndon Lane"/><tag k="addr:housenumber" v="8459"/><tag k="addr:postcode" v="78729"/></node><node id="-12" lat="30.45857" lon="-97.764101" changeset="false"><tag k="addr:street" v="Slant Oak Drive"/><tag k="addr:housenumber" v="8408"/><tag k="addr:postcode" v="78729"/></node><node id="-13" lat="30.460288" lon="-97.764045" changeset="false"><tag k="addr:street" v="Lyndon Lane"/><tag k="addr:housenumber" v="8410"/><tag k="addr:postcode" v="78729"/></node><node id="-14" lat="30.459316" lon="-97.765886" changeset="false"><tag k="addr:street" v="Water Oak Lane"/><tag k="addr:housenumber" v="13320"/><tag k="addr:postcode" v="78729"/></node><node id="-15" lat="30.46311" lon="-97.773284" changeset="false"><tag k="addr:street" v="Ivywood Cove"/><tag k="addr:housenumber" v="13313"/><tag k="addr:postcode" v="78729"/></node><node id="-16" lat="30.46255" lon="-97.772371" changeset="false"><tag k="addr:street" v="Villa Park Drive"/><tag k="addr:housenumber" v="13318"/><tag k="addr:postcode" v="78729"/></node><node id="-17" lat="30.460254" lon="-97.761868" changeset="false"><tag k="addr:street" v="Saddlebrook Trail"/><tag k="addr:housenumber" v="13417"/><tag k="addr:postcode" v="78729"/></node><node id="-18" lat="30.459732" lon="-97.765085" changeset="false"><tag k="addr:street" v="Water Oak Lane"/><tag k="addr:housenumber" v="13323"/><tag k="addr:postcode" v="78729"/></node><node id="-19" lat="30.459152" lon="-97.764972" changeset="false"><tag k="addr:street" v="Water Oak Lane"/><tag k="addr:housenumber" v="13317"/><tag k="addr:postcode" v="78729"/></node><node id="-20" lat="30.459337" lon="-97.770873" changeset="false"><tag k="addr:street" v="Villa Park Drive"/><tag k="addr:housenumber" v="13211"/><tag k="addr:postcode" v="78729"/></node><node id="-21" lat="30.459612" lon="-97.766537" changeset="false"><tag k="addr:street" v="Talyne Chaise Circle"/><tag k="addr:housenumber" v="8705"/><tag k="addr:postcode" v="78729"/></node><node id="-22" lat="30.457105" lon="-97.767094" changeset="false"><tag k="addr:street" v="Morris Road"/><tag k="addr:housenumber" v="13208"/><tag k="addr:postcode" v="78729"/></node><node id="-23" lat="30.4601" lon="-97.768418" changeset="false"><tag k="addr:street" v="Morris Road"/><tag k="addr:housenumber" v="13300"/><tag k="addr:postcode" v="78729"/></node><node id="-24" lat="30.460397" lon="-97.767825" changeset="false"><tag k="addr:street" v="Morris Road"/><tag k="addr:housenumber" v="13305"/><tag k="addr:postcode" v="78729"/></node><node id="-25" lat="30.456256" lon="-97.770072" changeset="false"><tag k="addr:street" v="Villa Park Drive"/><tag k="addr:housenumber" v="13106"/><tag k="addr:postcode" v="78729"/></node><node id="-26" lat="30.462435" lon="-97.771662" changeset="false"><tag k="addr:street" v="Villa Park Drive"/><tag k="addr:housenumber" v="13313"/><tag k="addr:postcode" v="78729"/></node><node id="-27" lat="30.458131" lon="-97.766315" changeset="false"><tag k="addr:street" v="Yellow Oak Street"/><tag k="addr:housenumber" v="8513"/><tag k="addr:postcode" v="78729"/></node><node id="-28" lat="30.459095" lon="-97.765869" changeset="false"><tag k="addr:street" v="Water Oak Lane"/><tag k="addr:housenumber" v="13318"/><tag k="addr:postcode" v="78729"/></node><node id="-29" lat="30.460438" lon="-97.763233" changeset="false"><tag k="addr:street" v="Lyndon Lane"/><tag k="addr:housenumber" v="8404 1/2"/><tag k="addr:postcode" v="78729"/></node><node id="-30" lat="30.457137" lon="-97.764668" changeset="false"><tag k="addr:street" v="Anderson Mill Road"/><tag k="addr:housenumber" v="8410"/><tag k="addr:postcode" v="78729"/></node><node id="-31" lat="30.461193" lon="-97.771168" changeset="false"><tag k="addr:street" v="Hazelhurst Drive"/><tag k="addr:housenumber" v="8901"/><tag k="addr:postcode" v="78729"/></node><node id="-32" lat="30.454399" lon="-97.773254" changeset="false"><tag k="addr:street" v="Black Oak Street"/><tag k="addr:housenumber" v="8933"/><tag k="addr:postcode" v="78729"/></node><node id="-33" lat="30.459468" lon="-97.76649" changeset="false"><tag k="addr:street" v="Talyne Chaise Circle"/><tag k="addr:housenumber" v="8701"/><tag k="addr:postcode" v="78729"/></node><node id="-34" lat="30.458984" lon="-97.769859" changeset="false"><tag k="addr:street" v="Stillwater Lane"/><tag k="addr:housenumber" v="8800"/><tag k="addr:postcode" v="78729"/></node><node id="-35" lat="30.456923" lon="-97.769074" changeset="false"><tag k="addr:street" v="Sparta Lane"/><tag k="addr:housenumber" v="8701"/><tag k="addr:postcode" v="78729"/></node><node id="-36" lat="30.461046" lon="-97.77525" changeset="false"><tag k="addr:street" v="Amanda Drive"/><tag k="addr:housenumber" v="9203"/><tag k="addr:postcode" v="78729"/></node><node id="-37" lat="30.461537" lon="-97.768047" changeset="false"><tag k="addr:street" v="Morris Road"/><tag k="addr:housenumber" v="13401"/><tag k="addr:postcode" v="78729"/></node><node id="-38" lat="30.455108" lon="-97.770587" changeset="false"><tag k="addr:street" v="Anderson Mill Road"/><tag k="addr:housenumber" v="8600"/><tag k="addr:postcode" v="78729"/></node><node id="-39" lat="30.461179" lon="-97.775048" changeset="false"><tag k="addr:street" v="Amanda Drive"/><tag k="addr:housenumber" v="9201"/><tag k="addr:postcode" v="78729"/></node><node id="-40" lat="30.46251" lon="-97.772951" changeset="false"><tag k="addr:street" v="Ivywood Cove"/><tag k="addr:housenumber" v="13307"/><tag k="addr:postcode" v="78729"/></node><node id="-41" lat="30.464768" lon="-97.772201" changeset="false"><tag k="addr:street" v="Meadowheath Drive"/><tag k="addr:housenumber" v="9100"/><tag k="addr:postcode" v="78729"/></node><node id="-42" lat="30.461191" lon="-97.771384" changeset="false"><tag k="addr:street" v="Hazelhurst Drive"/><tag k="addr:housenumber" v="8903"/><tag k="addr:postcode" v="78729"/></node><node id="-43" lat="30.459142" lon="-97.76708" changeset="false"><tag k="addr:street" v="Talyne Chaise Circle"/><tag k="addr:housenumber" v="8608"/><tag k="addr:postcode" v="78729"/></node><node id="-44" lat="30.460808" lon="-97.770094" changeset="false"><tag k="addr:street" v="Hazelhurst Drive"/><tag k="addr:housenumber" v="8800"/><tag k="addr:postcode" v="78729"/></node><node id="-45" lat="30.459359" lon="-97.765042" changeset="false"><tag k="addr:street" v="Water Oak Lane"/><tag k="addr:housenumber" v="13319"/><tag k="addr:postcode" v="78729"/></node><node id="-46" lat="30.463825" lon="-97.773" changeset="false"><tag k="addr:street" v="Villa Park Drive"/><tag k="addr:housenumber" v="13330"/><tag k="addr:postcode" v="78729"/></node><node id="-47" lat="30.455526" lon="-97.769773" changeset="false"><tag k="addr:street" v="Villa Park Drive"/><tag k="addr:housenumber" v="13100"/><tag k="addr:postcode" v="78729"/></node><node id="-48" lat="30.458724" lon="-97.764763" changeset="false"><tag k="addr:street" v="Water Oak Lane"/><tag k="addr:housenumber" v="13313"/><tag k="addr:postcode" v="78729"/></node><node id="-49" lat="30.460291" lon="-97.76377" changeset="false"><tag k="addr:street" v="Lyndon Lane"/><tag k="addr:housenumber" v="8408"/><tag k="addr:postcode" v="78729"/></node><node id="-50" lat="30.458825" lon="-97.767338" changeset="false"><tag k="addr:street" v="Talyne Chaise Circle"/><tag k="addr:housenumber" v="8601 1/2"/><tag k="addr:postcode" v="78729"/></node><node id="-51" lat="30.464045" lon="-97.772286" changeset="false"><tag k="addr:street" v="Villa Park Drive"/><tag k="addr:housenumber" v="13329"/><tag k="addr:postcode" v="78729"/></node><node id="-52" lat="30.460239" lon="-97.763482" changeset="false"><tag k="addr:street" v="Lyndon Lane"/><tag k="addr:housenumber" v="8406"/><tag k="addr:postcode" v="78729"/></node><node id="-53" lat="30.460167" lon="-97.763201" changeset="false"><tag k="addr:street" v="Lyndon Lane"/><tag k="addr:housenumber" v="8404"/><tag k="addr:postcode" v="78729"/></node><node id="-54" lat="30.456323" lon="-97.771093" changeset="false"><tag k="addr:street" v="Clearbrook Trail"/><tag k="addr:housenumber" v="8711"/><tag k="addr:postcode" v="78729"/></node><node id="-55" lat="30.456295" lon="-97.771195" changeset="false"><tag k="addr:street" v="Clearbrook Trail"/><tag k="addr:housenumber" v="8713"/><tag k="addr:postcode" v="78729"/></node><node id="-56" lat="30.455401" lon="-97.776445" changeset="false"><tag k="addr:street" v="Broadmeade Avenue"/><tag k="addr:housenumber" v="12905"/><tag k="addr:postcode" v="78729"/></node><node id="-57" lat="30.455339" lon="-97.776366" changeset="false"><tag k="addr:street" v="Charnwood Court"/><tag k="addr:housenumber" v="9006"/><tag k="addr:postcode" v="78729"/></node></osm>