<?xml version="1.0" encoding="UTF-8"?><osm version="0.6" generator="github.com/aaronlidman/osm-and-geojson"><node id="-1" lat="30.218137" lon="-97.828171" changeset="false"><tag k="addr:street" v="Brodie Lane"/><tag k="addr:housenumber" v="6408"/><tag k="coa:place_id" v="823131"/></node><node id="-2" lat="30.219629" lon="-97.828413" changeset="false"><tag k="addr:street" v="Brodie Lane"/><tag k="addr:housenumber" v="6400"/><tag k="coa:place_id" v="3124660"/></node><node id="-3" lat="30.219738" lon="-97.835824" changeset="false"><tag k="addr:street" v="South MoPac Expressway"/><tag k="addr:housenumber" v="6715 1/2"/><tag k="coa:place_id" v="3138374"/></node><node id="-4" lat="30.227016" lon="-97.824374" changeset="false"><tag k="addr:street" v="Home Depot Boulevard"/><tag k="addr:housenumber" v="1200"/><tag k="coa:place_id" v="3071057"/></node><node id="-5" lat="30.22492" lon="-97.823851" changeset="false"><tag k="addr:street" v="Brodie Lane"/><tag k="addr:housenumber" v="5800"/><tag k="coa:place_id" v="156407"/></node><node id="-6" lat="30.226539" lon="-97.823733" changeset="false"><tag k="addr:street" v="Home Depot Boulevard"/><tag k="addr:housenumber" v="1100"/><tag k="coa:place_id" v="3071056"/></node><node id="-7" lat="30.230707" lon="-97.820422" changeset="false"><tag k="addr:street" v="Brodie Lane"/><tag k="addr:housenumber" v="5400"/><tag k="coa:place_id" v="117813"/></node><node id="-8" lat="30.226922" lon="-97.822687" changeset="false"><tag k="addr:street" v="Brodie Lane"/><tag k="addr:housenumber" v="5602"/><tag k="coa:place_id" v="512205"/></node><node id="-9" lat="30.222351" lon="-97.826902" changeset="false"><tag k="addr:street" v="Country White Lane"/><tag k="addr:housenumber" v="3608"/><tag k="coa:place_id" v="571204"/></node><node id="-10" lat="30.219497" lon="-97.828228" changeset="false"><tag k="addr:street" v="Brodie Lane"/><tag k="addr:housenumber" v="6400 1/2"/><tag k="coa:place_id" v="3189982"/></node><node id="-11" lat="30.227542" lon="-97.827523" changeset="false"><tag k="addr:street" v="South MoPac Expressway"/><tag k="addr:housenumber" v="5701"/><tag k="coa:place_id" v="177954"/></node><node id="-12" lat="30.22062" lon="-97.826422" changeset="false"><tag k="addr:street" v="Brodie Lane"/><tag k="addr:housenumber" v="6218"/><tag k="coa:place_id" v="875366"/></node><node id="-13" lat="30.232917" lon="-97.821237" changeset="false"><tag k="addr:street" v="W US Highway 290 Service Rd"/><tag k="addr:housenumber" v="5001 1/2"/><tag k="coa:place_id" v="3185149"/></node><node id="-14" lat="30.215773" lon="-97.829781" changeset="false"><tag k="addr:street" v="Brodie Lane"/><tag k="addr:housenumber" v="6900"/><tag k="coa:place_id" v="169207"/></node><node id="-15" lat="30.220684" lon="-97.828307" changeset="false"><tag k="addr:street" v="Ben Garza Lane"/><tag k="addr:housenumber" v="3602"/><tag k="coa:place_id" v="875558"/></node></osm>