<?xml version="1.0" encoding="UTF-8"?><osm version="0.6" generator="github.com/aaronlidman/osm-and-geojson"><node id="-1" lat="30.346016" lon="-97.734578" changeset="false"><tag k="addr:street" v="Cullen Avenue"/><tag k="addr:housenumber" v="2100"/><tag k="addr:postcode" v="78757"/></node><node id="-2" lat="30.347317" lon="-97.7357" changeset="false"><tag k="addr:street" v="Burnet Road"/><tag k="addr:housenumber" v="7021"/><tag k="addr:postcode" v="78757"/></node><node id="-3" lat="30.342881" lon="-97.725395" changeset="false"><tag k="addr:street" v="Woodrow Avenue"/><tag k="addr:housenumber" v="7115"/><tag k="addr:postcode" v="78757"/></node><node id="-4" lat="30.342796" lon="-97.725431" changeset="false"><tag k="addr:street" v="Woodrow Avenue"/><tag k="addr:housenumber" v="7111"/><tag k="addr:postcode" v="78757"/></node><node id="-5" lat="30.343271" lon="-97.727098" changeset="false"><tag k="addr:street" v="West Saint John's Avenue"/><tag k="addr:housenumber" v="1508"/><tag k="addr:postcode" v="78757"/></node><node id="-6" lat="30.342688" lon="-97.72548" changeset="false"><tag k="addr:street" v="Woodrow Avenue"/><tag k="addr:housenumber" v="7105"/><tag k="addr:postcode" v="78757"/></node><node id="-7" lat="30.342955" lon="-97.725836" changeset="false"><tag k="addr:street" v="Woodrow Avenue"/><tag k="addr:housenumber" v="7102"/><tag k="addr:postcode" v="78757"/></node><node id="-8" lat="30.346792" lon="-97.736405" changeset="false"><tag k="addr:street" v="Burnet Road"/><tag k="addr:housenumber" v="7007"/><tag k="addr:postcode" v="78757"/></node><node id="-9" lat="30.346256" lon="-97.725885" changeset="false"><tag k="addr:street" v="Richcreek Road"/><tag k="addr:housenumber" v="1511"/><tag k="addr:postcode" v="78757"/></node><node id="-10" lat="30.34783" lon="-97.735741" changeset="false"><tag k="addr:street" v="Burnet Road"/><tag k="addr:housenumber" v="7113 1/2"/><tag k="addr:postcode" v="78757"/></node><node id="-11" lat="30.349019" lon="-97.734968" changeset="false"><tag k="addr:street" v="Burnet Road"/><tag k="addr:housenumber" v="7305"/><tag k="addr:postcode" v="78757"/></node><node id="-12" lat="30.346731" lon="-97.736289" changeset="false"><tag k="addr:street" v="Burnet Road"/><tag k="addr:housenumber" v="7001"/><tag k="addr:postcode" v="78757"/></node><node id="-13" lat="30.34536" lon="-97.733566" changeset="false"><tag k="addr:street" v="Cullen Avenue"/><tag k="addr:housenumber" v="2006"/><tag k="addr:postcode" v="78757"/></node><node id="-14" lat="30.348594" lon="-97.735219" changeset="false"><tag k="addr:street" v="Burnet Road"/><tag k="addr:housenumber" v="7301"/><tag k="addr:postcode" v="78757"/></node><node id="-15" lat="30.345984" lon="-97.733076" changeset="false"><tag k="addr:street" v="Hardy Drive"/><tag k="addr:housenumber" v="7100"/><tag k="addr:postcode" v="78757"/></node><node id="-16" lat="30.34596" lon="-97.725257" changeset="false"><tag k="addr:street" v="Richcreek Road"/><tag k="addr:housenumber" v="1503"/><tag k="addr:postcode" v="78757"/></node><node id="-17" lat="30.347738" lon="-97.735512" changeset="false"><tag k="addr:street" v="Burnet Road"/><tag k="addr:housenumber" v="7115"/><tag k="addr:postcode" v="78757"/></node><node id="-18" lat="30.344952" lon="-97.735078" changeset="false"><tag k="addr:street" v="Justin Lane"/><tag k="addr:housenumber" v="2008"/><tag k="addr:postcode" v="78757"/></node><node id="-19" lat="30.346184" lon="-97.734917" changeset="false"><tag k="addr:street" v="Cullen Avenue"/><tag k="addr:housenumber" v="2110"/><tag k="addr:postcode" v="78757"/></node><node id="-20" lat="30.350459" lon="-97.734224" changeset="false"><tag k="addr:street" v="Burnet Road"/><tag k="addr:housenumber" v="7439"/><tag k="addr:postcode" v="78757"/></node><node id="-21" lat="30.342835" lon="-97.725414" changeset="false"><tag k="addr:street" v="Woodrow Avenue"/><tag k="addr:housenumber" v="7113"/><tag k="addr:postcode" v="78757"/></node><node id="-22" lat="30.341817" lon="-97.728124" changeset="false"><tag k="addr:street" v="Arroyo Seco"/><tag k="addr:housenumber" v="6906"/><tag k="addr:postcode" v="78757"/></node><node id="-23" lat="30.343908" lon="-97.725381" changeset="false"><tag k="addr:street" v="Arroyo Seco"/><tag k="addr:housenumber" v="7208"/><tag k="addr:postcode" v="78757"/></node><node id="-24" lat="30.348979" lon="-97.734439" changeset="false"><tag k="addr:street" v="Pasadena Drive"/><tag k="addr:housenumber" v="2211"/><tag k="addr:postcode" v="78757"/></node><node id="-25" lat="30.346307" lon="-97.734839" changeset="false"><tag k="addr:street" v="Cullen Avenue"/><tag k="addr:housenumber" v="2104"/><tag k="addr:postcode" v="78757"/></node><node id="-26" lat="30.342368" lon="-97.725362" changeset="false"><tag k="addr:street" v="West Saint John's Avenue"/><tag k="addr:housenumber" v="1406"/><tag k="addr:postcode" v="78757"/></node><node id="-27" lat="30.350408" lon="-97.734252" changeset="false"><tag k="addr:street" v="Burnet Road"/><tag k="addr:housenumber" v="7437"/><tag k="addr:postcode" v="78757"/></node><node id="-28" lat="30.345413" lon="-97.737073" changeset="false"><tag k="addr:street" v="Burnet Road"/><tag k="addr:housenumber" v="6901"/><tag k="addr:postcode" v="78757"/></node><node id="-29" lat="30.348746" lon="-97.734383" changeset="false"><tag k="addr:street" v="Pasadena Drive"/><tag k="addr:housenumber" v="2209"/><tag k="addr:postcode" v="78757"/></node><node id="-30" lat="30.346516" lon="-97.735642" changeset="false"><tag k="addr:street" v="Cullen Avenue"/><tag k="addr:housenumber" v="2208"/><tag k="addr:postcode" v="78757"/></node><node id="-31" lat="30.347384" lon="-97.735896" changeset="false"><tag k="addr:street" v="Burnet Road"/><tag k="addr:housenumber" v="7101"/><tag k="addr:postcode" v="78757"/></node><node id="-32" lat="30.342753" lon="-97.725452" changeset="false"><tag k="addr:street" v="Woodrow Avenue"/><tag k="addr:housenumber" v="7109"/><tag k="addr:postcode" v="78757"/></node><node id="-33" lat="30.345351" lon="-97.728182" changeset="false"><tag k="addr:street" v="Madison Avenue"/><tag k="addr:housenumber" v="1709"/><tag k="addr:postcode" v="78757"/></node><node id="-34" lat="30.345392" lon="-97.728328" changeset="false"><tag k="addr:street" v="Madison Avenue"/><tag k="addr:housenumber" v="1711"/><tag k="addr:postcode" v="78757"/></node><node id="-35" lat="30.343119" lon="-97.725654" changeset="false"><tag k="addr:street" v="Woodrow Avenue"/><tag k="addr:housenumber" v="7108"/><tag k="addr:postcode" v="78757"/></node><node id="-36" lat="30.343025" lon="-97.725709" changeset="false"><tag k="addr:street" v="Woodrow Avenue"/><tag k="addr:housenumber" v="7104"/><tag k="addr:postcode" v="78757"/></node><node id="-37" lat="30.347527" lon="-97.731724" changeset="false"><tag k="addr:street" v="Madison Avenue"/><tag k="addr:housenumber" v="1918"/><tag k="addr:postcode" v="78757"/></node><node id="-38" lat="30.34762" lon="-97.731705" changeset="false"><tag k="addr:street" v="Hardy Drive"/><tag k="addr:housenumber" v="7301"/><tag k="addr:postcode" v="78757"/></node><node id="-39" lat="30.349877" lon="-97.734071" changeset="false"><tag k="addr:street" v="Burnet Road"/><tag k="addr:housenumber" v="7423"/><tag k="addr:postcode" v="78757"/></node><node id="-40" lat="30.349793" lon="-97.733861" changeset="false"><tag k="addr:street" v="Burnet Road"/><tag k="addr:housenumber" v="7429"/><tag k="addr:postcode" v="78757"/></node><node id="-41" lat="30.349811" lon="-97.733937" changeset="false"><tag k="addr:street" v="Burnet Road"/><tag k="addr:housenumber" v="7427"/><tag k="addr:postcode" v="78757"/></node><node id="-42" lat="30.349975" lon="-97.733646" changeset="false"><tag k="addr:street" v="Burnet Road"/><tag k="addr:housenumber" v="7435"/><tag k="addr:postcode" v="78757"/></node><node id="-43" lat="30.349848" lon="-97.734001" changeset="false"><tag k="addr:street" v="Burnet Road"/><tag k="addr:housenumber" v="7425"/><tag k="addr:postcode" v="78757"/></node><node id="-44" lat="30.349908" lon="-97.734148" changeset="false"><tag k="addr:street" v="Burnet Road"/><tag k="addr:housenumber" v="7421"/><tag k="addr:postcode" v="78757"/></node><node id="-45" lat="30.349937" lon="-97.734215" changeset="false"><tag k="addr:street" v="Burnet Road"/><tag k="addr:housenumber" v="7415"/><tag k="addr:postcode" v="78757"/></node><node id="-46" lat="30.349952" lon="-97.734274" changeset="false"><tag k="addr:street" v="Burnet Road"/><tag k="addr:housenumber" v="7419"/><tag k="addr:postcode" v="78757"/></node><node id="-47" lat="30.349844" lon="-97.733731" changeset="false"><tag k="addr:street" v="Burnet Road"/><tag k="addr:housenumber" v="7431"/><tag k="addr:postcode" v="78757"/></node><node id="-48" lat="30.349901" lon="-97.733677" changeset="false"><tag k="addr:street" v="Burnet Road"/><tag k="addr:housenumber" v="7433"/><tag k="addr:postcode" v="78757"/></node><node id="-49" lat="30.349028" lon="-97.734776" changeset="false"><tag k="addr:street" v="Burnet Road"/><tag k="addr:housenumber" v="7321"/><tag k="addr:postcode" v="78757"/></node><node id="-50" lat="30.349245" lon="-97.734658" changeset="false"><tag k="addr:street" v="Burnet Road"/><tag k="addr:housenumber" v="7329"/><tag k="addr:postcode" v="78757"/></node><node id="-51" lat="30.34917" lon="-97.734707" changeset="false"><tag k="addr:street" v="Burnet Road"/><tag k="addr:housenumber" v="7327"/><tag k="addr:postcode" v="78757"/></node><node id="-52" lat="30.349094" lon="-97.734743" changeset="false"><tag k="addr:street" v="Burnet Road"/><tag k="addr:housenumber" v="7325"/><tag k="addr:postcode" v="78757"/></node><node id="-53" lat="30.344924" lon="-97.733388" changeset="false"><tag k="addr:street" v="Cullen Avenue"/><tag k="addr:housenumber" v="1917"/><tag k="addr:postcode" v="78757"/></node><node id="-54" lat="30.344754" lon="-97.733478" changeset="false"><tag k="addr:street" v="Hardy Drive"/><tag k="addr:housenumber" v="6913"/><tag k="addr:postcode" v="78757"/></node></osm>