<?xml version="1.0" encoding="UTF-8"?><osm version="0.6" generator="github.com/aaronlidman/osm-and-geojson"><node id="-1" lat="30.102484" lon="-97.61314" changeset="false"><tag k="addr:street" v="Farm-to-Market Road 812"/><tag k="addr:housenumber" v="15935"/><tag k="coa:place_id" v="3028981"/></node><node id="-2" lat="30.090047" lon="-97.627726" changeset="false"><tag k="addr:street" v="Doyle Overton Road"/><tag k="addr:housenumber" v="10727"/><tag k="coa:place_id" v="3190737"/></node><node id="-3" lat="30.122917" lon="-97.670529" changeset="false"><tag k="addr:street" v="Moore Road"/><tag k="addr:housenumber" v="11407"/><tag k="coa:place_id" v="216692"/></node><node id="-4" lat="30.135933" lon="-97.678852" changeset="false"><tag k="addr:street" v="Ruidosa Street"/><tag k="addr:housenumber" v="10500"/><tag k="coa:place_id" v="137296"/></node><node id="-5" lat="30.104542" lon="-97.670368" changeset="false"><tag k="addr:street" v="Von Quintus Road"/><tag k="addr:housenumber" v="12412"/><tag k="coa:place_id" v="660224"/></node><node id="-6" lat="30.132633" lon="-97.68121" changeset="false"><tag k="addr:street" v="Farm-to-Market Road 973 South"/><tag k="addr:housenumber" v="8419"/><tag k="coa:place_id" v="109861"/></node><node id="-7" lat="30.09954" lon="-97.620245" changeset="false"><tag k="addr:street" v="Doyle Overton Road,1100"/><tag k="addr:housenumber" v="10308"/><tag k="coa:place_id" v="228115"/></node><node id="-8" lat="30.098892" lon="-97.620946" changeset="false"><tag k="addr:street" v="Doyle Overton Road,1100"/><tag k="addr:housenumber" v="10344"/><tag k="coa:place_id" v="228114"/></node><node id="-9" lat="30.107296" lon="-97.645572" changeset="false"><tag k="addr:street" v="Hokanson Road"/><tag k="addr:housenumber" v="13802"/><tag k="coa:place_id" v="230517"/></node><node id="-10" lat="30.104323" lon="-97.642697" changeset="false"><tag k="addr:street" v="Hokanson Road"/><tag k="addr:housenumber" v="14100"/><tag k="coa:place_id" v="208962"/></node><node id="-11" lat="30.10366" lon="-97.629446" changeset="false"><tag k="addr:street" v="Peterson Road"/><tag k="addr:housenumber" v="10005"/><tag k="coa:place_id" v="1158230"/></node><node id="-12" lat="30.085192" lon="-97.660378" changeset="false"><tag k="addr:street" v="Maha Loop Road"/><tag k="addr:housenumber" v="10917"/><tag k="coa:place_id" v="1146050"/></node><node id="-13" lat="30.065721" lon="-97.679433" changeset="false"><tag k="addr:street" v="Evelyn Road"/><tag k="addr:housenumber" v="9200"/><tag k="coa:place_id" v="1145944"/></node><node id="-14" lat="30.109258" lon="-97.680682" changeset="false"><tag k="addr:street" v="Sunflower Drive"/><tag k="addr:housenumber" v="9700"/><tag k="coa:place_id" v="3143399"/></node><node id="-15" lat="30.104802" lon="-97.670919" changeset="false"><tag k="addr:street" v="Von Quintus Road"/><tag k="addr:housenumber" v="12310"/><tag k="coa:place_id" v="660230"/></node><node id="-16" lat="30.127154" lon="-97.680447" changeset="false"><tag k="addr:street" v="Moore Road"/><tag k="addr:housenumber" v="10805"/><tag k="coa:place_id" v="660332"/></node><node id="-17" lat="30.118421" lon="-97.633004" changeset="false"><tag k="addr:street" v="Farm-to-Market Road 812"/><tag k="addr:housenumber" v="14201"/><tag k="coa:place_id" v="3170082"/></node><node id="-18" lat="30.118783" lon="-97.663432" changeset="false"><tag k="addr:street" v="Moore Road"/><tag k="addr:housenumber" v="12315"/><tag k="coa:place_id" v="125671"/></node><node id="-19" lat="30.073575" lon="-97.682024" changeset="false"><tag k="addr:street" v="Pistol Pass Circle"/><tag k="addr:housenumber" v="12905"/><tag k="coa:place_id" v="89082"/></node><node id="-20" lat="30.07285" lon="-97.675523" changeset="false"><tag k="addr:street" v="Schriber Road"/><tag k="addr:housenumber" v="11607"/><tag k="coa:place_id" v="96103"/></node><node id="-21" lat="30.071382" lon="-97.67751" changeset="false"><tag k="addr:street" v="Schriber Road"/><tag k="addr:housenumber" v="11707"/><tag k="coa:place_id" v="96113"/></node><node id="-22" lat="30.081285" lon="-97.664497" changeset="false"><tag k="addr:street" v="Maha Loop Road,1100"/><tag k="addr:housenumber" v="13706"/><tag k="coa:place_id" v="1146074"/></node><node id="-23" lat="30.078674" lon="-97.661332" changeset="false"><tag k="addr:street" v="Maha Loop Road,1100"/><tag k="addr:housenumber" v="14008"/><tag k="coa:place_id" v="1146078"/></node><node id="-24" lat="30.109627" lon="-97.677169" changeset="false"><tag k="addr:street" v="Sunflower Drive"/><tag k="addr:housenumber" v="9803"/><tag k="coa:place_id" v="128400"/></node><node id="-25" lat="30.136102" lon="-97.674525" changeset="false"><tag k="addr:street" v="Citation Avenue"/><tag k="addr:housenumber" v="8213"/><tag k="coa:place_id" v="534219"/></node><node id="-26" lat="30.095815" lon="-97.6837" changeset="false"><tag k="addr:street" v="Maha Loop Road"/><tag k="addr:housenumber" v="11539"/><tag k="coa:place_id" v="1129940"/></node><node id="-27" lat="30.073242" lon="-97.646738" changeset="false"><tag k="addr:street" v="Doyle Overton Road"/><tag k="addr:housenumber" v="11628"/><tag k="coa:place_id" v="1146027"/></node><node id="-28" lat="30.10578" lon="-97.672188" changeset="false"><tag k="addr:street" v="Von Quintus Road"/><tag k="addr:housenumber" v="12202"/><tag k="coa:place_id" v="365115"/></node><node id="-29" lat="30.100699" lon="-97.667369" changeset="false"><tag k="addr:street" v="Von Quintus Road"/><tag k="addr:housenumber" v="12711"/><tag k="coa:place_id" v="660218"/></node><node id="-30" lat="30.121477" lon="-97.636513" changeset="false"><tag k="addr:street" v="Farm-to-Market Road 812"/><tag k="addr:housenumber" v="13817"/><tag k="coa:place_id" v="659870"/></node><node id="-31" lat="30.094876" lon="-97.682425" changeset="false"><tag k="addr:street" v="Maha Loop Road"/><tag k="addr:housenumber" v="11515"/><tag k="coa:place_id" v="1129946"/></node><node id="-32" lat="30.102715" lon="-97.615261" changeset="false"><tag k="addr:street" v="Farm-to-Market Road 812"/><tag k="addr:housenumber" v="15909"/><tag k="coa:place_id" v="228139"/></node><node id="-33" lat="30.101603" lon="-97.61392" changeset="false"><tag k="addr:street" v="Doyle Overton Road,1100"/><tag k="addr:housenumber" v="10120"/><tag k="coa:place_id" v="228138"/></node><node id="-34" lat="30.099332" lon="-97.617305" changeset="false"><tag k="addr:street" v="Doyle Overton Road,1100"/><tag k="addr:housenumber" v="10240"/><tag k="coa:place_id" v="228132"/></node><node id="-35" lat="30.08437" lon="-97.662721" changeset="false"><tag k="addr:street" v="Maha Loop Road"/><tag k="addr:housenumber" v="11017"/><tag k="coa:place_id" v="1146060"/></node><node id="-36" lat="30.082691" lon="-97.664005" changeset="false"><tag k="addr:street" v="Maha Loop Road"/><tag k="addr:housenumber" v="11121"/><tag k="coa:place_id" v="1146066"/></node><node id="-37" lat="30.131805" lon="-97.647099" changeset="false"><tag k="addr:street" v="Farm-to-Market Road 812"/><tag k="addr:housenumber" v="12705"/><tag k="coa:place_id" v="245176"/></node><node id="-38" lat="30.13086" lon="-97.682248" changeset="false"><tag k="addr:street" v="Farm-to-Market Road 973 South"/><tag k="addr:housenumber" v="8515"/><tag k="coa:place_id" v="362313"/></node><node id="-39" lat="30.133958" lon="-97.678225" changeset="false"><tag k="addr:street" v="Citation Avenue"/><tag k="addr:housenumber" v="8321"/><tag k="coa:place_id" v="660758"/></node><node id="-40" lat="30.141714" lon="-97.676989" changeset="false"><tag k="addr:street" v="Farm-to-Market Road 973 South"/><tag k="addr:housenumber" v="8002"/><tag k="coa:place_id" v="170773"/></node><node id="-41" lat="30.137286" lon="-97.678726" changeset="false"><tag k="addr:street" v="Ponder Lane"/><tag k="addr:housenumber" v="10506"/><tag k="coa:place_id" v="128169"/></node><node id="-42" lat="30.137024" lon="-97.672872" changeset="false"><tag k="addr:street" v="Citation Avenue"/><tag k="addr:housenumber" v="8200"/><tag k="coa:place_id" v="534213"/></node><node id="-43" lat="30.14214" lon="-97.669155" changeset="false"><tag k="addr:street" v="Farm-to-Market Road 812"/><tag k="addr:housenumber" v="10901"/><tag k="coa:place_id" v="660152"/></node><node id="-44" lat="30.066107" lon="-97.67166" changeset="false"><tag k="addr:street" v="Bock Road"/><tag k="addr:housenumber" v="9712"/><tag k="coa:place_id" v="96132"/></node><node id="-45" lat="30.0632" lon="-97.667482" changeset="false"><tag k="addr:street" v="Avis Road,1100"/><tag k="addr:housenumber" v="12108"/><tag k="coa:place_id" v="1145952"/></node><node id="-46" lat="30.136288" lon="-97.675852" changeset="false"><tag k="addr:street" v="Ponder Lane"/><tag k="addr:housenumber" v="10610"/><tag k="coa:place_id" v="138285"/></node><node id="-47" lat="30.136106" lon="-97.67688" changeset="false"><tag k="addr:street" v="Ponder Lane"/><tag k="addr:housenumber" v="10605"/><tag k="coa:place_id" v="138243"/></node><node id="-48" lat="30.135934" lon="-97.675168" changeset="false"><tag k="addr:street" v="Citation Avenue"/><tag k="addr:housenumber" v="8217"/><tag k="coa:place_id" v="243987"/></node><node id="-49" lat="30.135247" lon="-97.676578" changeset="false"><tag k="addr:street" v="Citation Avenue"/><tag k="addr:housenumber" v="8301"/><tag k="coa:place_id" v="660818"/></node><node id="-50" lat="30.134495" lon="-97.678672" changeset="false"><tag k="addr:street" v="Citation Avenue"/><tag k="addr:housenumber" v="8318"/><tag k="coa:place_id" v="660740"/></node><node id="-51" lat="30.154616" lon="-97.673453" changeset="false"><tag k="addr:street" v="Farm-to-Market Road 812"/><tag k="addr:housenumber" v="10205"/><tag k="coa:place_id" v="660470"/></node><node id="-52" lat="30.060371" lon="-97.674407" changeset="false"><tag k="addr:street" v="Evelyn Road"/><tag k="addr:housenumber" v="9715"/><tag k="coa:place_id" v="1145792"/></node><node id="-53" lat="30.133935" lon="-97.680246" changeset="false"><tag k="addr:street" v="Farm-to-Market Road 973 South"/><tag k="addr:housenumber" v="8401"/><tag k="coa:place_id" v="660356"/></node><node id="-54" lat="30.118864" lon="-97.636389" changeset="false"><tag k="addr:street" v="Farm-to-Market Road 812"/><tag k="addr:housenumber" v="13915"/><tag k="coa:place_id" v="109480"/></node><node id="-55" lat="30.115284" lon="-97.652902" changeset="false"><tag k="addr:street" v="Moore Road"/><tag k="addr:housenumber" v="13004"/><tag k="coa:place_id" v="660146"/></node><node id="-56" lat="30.116782" lon="-97.683835" changeset="false"><tag k="addr:street" v="Lambert Lane"/><tag k="addr:housenumber" v="11006"/><tag k="coa:place_id" v="1118049"/></node><node id="-57" lat="30.16042" lon="-97.685924" changeset="false"><tag k="addr:street" v="Farm-to-Market Road 812"/><tag k="addr:housenumber" v="9201"/><tag k="coa:place_id" v="725973"/></node><node id="-58" lat="30.073288" lon="-97.68474" changeset="false"><tag k="addr:street" v="Saddle Circle"/><tag k="addr:housenumber" v="12800"/><tag k="coa:place_id" v="89083"/></node><node id="-59" lat="30.137178" lon="-97.678977" changeset="false"><tag k="addr:street" v="Ponder Lane"/><tag k="addr:housenumber" v="10504"/><tag k="coa:place_id" v="128163"/></node><node id="-60" lat="30.135199" lon="-97.677311" changeset="false"><tag k="addr:street" v="Man O War Avenue"/><tag k="addr:housenumber" v="10607"/><tag k="coa:place_id" v="660872"/></node><node id="-61" lat="30.103361" lon="-97.681895" changeset="false"><tag k="addr:street" v="Tiffany Trail"/><tag k="addr:housenumber" v="235"/><tag k="coa:place_id" v="3307309"/></node><node id="-62" lat="30.068254" lon="-97.681812" changeset="false"><tag k="addr:street" v="Schriber Road"/><tag k="addr:housenumber" v="11900"/><tag k="coa:place_id" v="3380658"/></node><node id="-63" lat="30.120075" lon="-97.690944" changeset="false"><tag k="addr:street" v="Farm-to-Market Road 973 South"/><tag k="addr:housenumber" v="9108"/><tag k="coa:place_id" v="3342841"/></node><node id="-64" lat="30.095068" lon="-97.682723" changeset="false"><tag k="addr:street" v="Maha Loop Road"/><tag k="addr:housenumber" v="11521"/><tag k="coa:place_id" v="3190912"/></node><node id="-65" lat="30.103969" lon="-97.639724" changeset="false"><tag k="addr:street" v="Hokanson Road"/><tag k="addr:housenumber" v="14300"/><tag k="coa:place_id" v="3223245"/></node><node id="-66" lat="30.104079" lon="-97.6892" changeset="false"><tag k="addr:street" v="Maha Loop Road"/><tag k="addr:housenumber" v="11700"/><tag k="coa:place_id" v="3337001"/></node><node id="-67" lat="30.12522" lon="-97.665443" changeset="false"><tag k="addr:street" v="Moore Road"/><tag k="addr:housenumber" v="11812"/><tag k="coa:place_id" v="5062301"/></node><node id="-68" lat="30.065549" lon="-97.668874" changeset="false"><tag k="addr:street" v="Bock Road"/><tag k="addr:housenumber" v="9901"/><tag k="coa:place_id" v="3347782"/></node><node id="-69" lat="30.066016" lon="-97.667884" changeset="false"><tag k="addr:street" v="Bock Road"/><tag k="addr:housenumber" v="10000"/><tag k="coa:place_id" v="3347785"/></node><node id="-70" lat="30.104427" lon="-97.682663" changeset="false"><tag k="addr:street" v="Tiffany Trail"/><tag k="addr:housenumber" v="330"/><tag k="coa:place_id" v="3307296"/></node><node id="-71" lat="30.105018" lon="-97.684115" changeset="false"><tag k="addr:street" v="Tiffany Trail"/><tag k="addr:housenumber" v="416"/><tag k="coa:place_id" v="3307303"/></node><node id="-72" lat="30.103383" lon="-97.680687" changeset="false"><tag k="addr:street" v="Tiffany Trail"/><tag k="addr:housenumber" v="190"/><tag k="coa:place_id" v="3307306"/></node><node id="-73" lat="30.070074" lon="-97.651171" changeset="false"><tag k="addr:street" v="Maha Loop Road,1100"/><tag k="addr:housenumber" v="15010"/><tag k="coa:place_id" v="3347831"/></node><node id="-74" lat="30.081007" lon="-97.642634" changeset="false"><tag k="addr:street" v="Eilers Road"/><tag k="addr:housenumber" v="15140"/><tag k="coa:place_id" v="3347866"/></node><node id="-75" lat="30.083649" lon="-97.664704" changeset="false"><tag k="addr:street" v="Maha Loop Road"/><tag k="addr:housenumber" v="11122"/><tag k="coa:place_id" v="1146063"/></node><node id="-76" lat="30.155823" lon="-97.677015" changeset="false"><tag k="addr:street" v="Farm-to-Market Road 812"/><tag k="addr:housenumber" v="9921"/><tag k="coa:place_id" v="3053409"/></node><node id="-77" lat="30.076163" lon="-97.673859" changeset="false"><tag k="addr:street" v="Schriber Road"/><tag k="addr:housenumber" v="11420"/><tag k="coa:place_id" v="1145973"/></node><node id="-78" lat="30.081979" lon="-97.637955" changeset="false"><tag k="addr:street" v="Doyle Overton Road"/><tag k="addr:housenumber" v="11200"/><tag k="coa:place_id" v="1146194"/></node><node id="-79" lat="30.079519" lon="-97.640779" changeset="false"><tag k="addr:street" v="Doyle Overton Road"/><tag k="addr:housenumber" v="11324"/><tag k="coa:place_id" v="1146205"/></node><node id="-80" lat="30.135204" lon="-97.678176" changeset="false"><tag k="addr:street" v="Ruidosa Street"/><tag k="addr:housenumber" v="10600"/><tag k="coa:place_id" v="660836"/></node><node id="-81" lat="30.137838" lon="-97.678204" changeset="false"><tag k="addr:street" v="Farm-to-Market Road 973 South"/><tag k="addr:housenumber" v="8129"/><tag k="coa:place_id" v="117897"/></node><node id="-82" lat="30.115048" lon="-97.629126" changeset="false"><tag k="addr:street" v="Farm-to-Market Road 812"/><tag k="addr:housenumber" v="14515"/><tag k="coa:place_id" v="659768"/></node><node id="-83" lat="30.121005" lon="-97.665045" changeset="false"><tag k="addr:street" v="Moore Road"/><tag k="addr:housenumber" v="12014"/><tag k="coa:place_id" v="405177"/></node><node id="-84" lat="30.068958" lon="-97.648852" changeset="false"><tag k="addr:street" v="Doyle Overton Road"/><tag k="addr:housenumber" v="11831"/><tag k="coa:place_id" v="3132238"/></node><node id="-85" lat="30.072966" lon="-97.675372" changeset="false"><tag k="addr:street" v="Schriber Road"/><tag k="addr:housenumber" v="11605"/><tag k="coa:place_id" v="1145911"/></node><node id="-86" lat="30.142397" lon="-97.674109" changeset="false"><tag k="addr:street" v="Farm-to-Market Road 973 South"/><tag k="addr:housenumber" v="7911"/><tag k="coa:place_id" v="3143187"/></node><node id="-87" lat="30.131836" lon="-97.650684" changeset="false"><tag k="addr:street" v="Farm-to-Market Road 812"/><tag k="addr:housenumber" v="12475"/><tag k="coa:place_id" v="3147356"/></node><node id="-88" lat="30.073814" lon="-97.690975" changeset="false"><tag k="addr:street" v="Evelyn Road"/><tag k="addr:housenumber" v="8211"/><tag k="coa:place_id" v="1145589"/></node><node id="-89" lat="30.117925" lon="-97.692051" changeset="false"><tag k="addr:street" v="Farm-to-Market Road 973 South"/><tag k="addr:housenumber" v="9212"/><tag k="coa:place_id" v="257359"/></node><node id="-90" lat="30.118264" lon="-97.635043" changeset="false"><tag k="addr:street" v="Farm-to-Market Road 812"/><tag k="addr:housenumber" v="14003"/><tag k="coa:place_id" v="688828"/></node><node id="-91" lat="30.10527" lon="-97.679548" changeset="false"><tag k="addr:street" v="Horizon Lane"/><tag k="addr:housenumber" v="9916"/><tag k="coa:place_id" v="660926"/></node><node id="-92" lat="30.136841" lon="-97.673562" changeset="false"><tag k="addr:street" v="Citation Avenue"/><tag k="addr:housenumber" v="8204"/><tag k="coa:place_id" v="834591"/></node><node id="-93" lat="30.135119" lon="-97.677943" changeset="false"><tag k="addr:street" v="Ruidosa Street"/><tag k="addr:housenumber" v="10602"/><tag k="coa:place_id" v="660830"/></node><node id="-94" lat="30.133299" lon="-97.681278" changeset="false"><tag k="addr:street" v="Farm-to-Market Road 973 South"/><tag k="addr:housenumber" v="8411"/><tag k="coa:place_id" v="109855"/></node><node id="-95" lat="30.136387" lon="-97.676207" changeset="false"><tag k="addr:street" v="Ponder Lane"/><tag k="addr:housenumber" v="10608"/><tag k="coa:place_id" v="138267"/></node><node id="-96" lat="30.136309" lon="-97.67566" changeset="false"><tag k="addr:street" v="Citation Avenue"/><tag k="addr:housenumber" v="8218"/><tag k="coa:place_id" v="750435"/></node><node id="-97" lat="30.086792" lon="-97.660097" changeset="false"><tag k="addr:street" v="Maha Loop Road"/><tag k="addr:housenumber" v="10901"/><tag k="coa:place_id" v="1146091"/></node><node id="-98" lat="30.066011" lon="-97.669751" changeset="false"><tag k="addr:street" v="Bock Road"/><tag k="addr:housenumber" v="9808"/><tag k="coa:place_id" v="96138"/></node><node id="-99" lat="30.100764" lon="-97.618954" changeset="false"><tag k="addr:street" v="Doyle Overton Road,1100"/><tag k="addr:housenumber" v="10228"/><tag k="coa:place_id" v="228120"/></node><node id="-100" lat="30.08466" lon="-97.662509" changeset="false"><tag k="addr:street" v="Maha Loop Road"/><tag k="addr:housenumber" v="11013"/><tag k="coa:place_id" v="1146058"/></node><node id="-101" lat="30.084069" lon="-97.663051" changeset="false"><tag k="addr:street" v="Maha Loop Road"/><tag k="addr:housenumber" v="11021"/><tag k="coa:place_id" v="1146062"/></node><node id="-102" lat="30.075798" lon="-97.657663" changeset="false"><tag k="addr:street" v="Maha Loop Road,1100"/><tag k="addr:housenumber" v="14312"/><tag k="coa:place_id" v="1146080"/></node><node id="-103" lat="30.095378" lon="-97.683432" changeset="false"><tag k="addr:street" v="Maha Loop Road"/><tag k="addr:housenumber" v="11531"/><tag k="coa:place_id" v="1129965"/></node><node id="-104" lat="30.137026" lon="-97.673202" changeset="false"><tag k="addr:street" v="Citation Avenue"/><tag k="addr:housenumber" v="8202"/><tag k="coa:place_id" v="834585"/></node><node id="-105" lat="30.133986" lon="-97.678621" changeset="false"><tag k="addr:street" v="Citation Avenue"/><tag k="addr:housenumber" v="8322"/><tag k="coa:place_id" v="660752"/></node><node id="-106" lat="30.09219" lon="-97.62407" changeset="false"><tag k="addr:street" v="Doyle Overton Road,1100"/><tag k="addr:housenumber" v="10616"/><tag k="coa:place_id" v="1110835"/></node><node id="-107" lat="30.101975" lon="-97.617574" changeset="false"><tag k="addr:street" v="Doyle Overton Road,1100"/><tag k="addr:housenumber" v="10148"/><tag k="coa:place_id" v="228123"/></node><node id="-108" lat="30.098101" lon="-97.618642" changeset="false"><tag k="addr:street" v="Doyle Overton Road,1100"/><tag k="addr:housenumber" v="10320"/><tag k="coa:place_id" v="228129"/></node><node id="-109" lat="30.15537" lon="-97.675319" changeset="false"><tag k="addr:street" v="Farm-to-Market Road 812"/><tag k="addr:housenumber" v="10051"/><tag k="coa:place_id" v="3046135"/></node><node id="-110" lat="30.070409" lon="-97.647219" changeset="false"><tag k="addr:street" v="Doyle Overton Road"/><tag k="addr:housenumber" v="11801"/><tag k="coa:place_id" v="1146031"/></node><node id="-111" lat="30.100552" lon="-97.63338" changeset="false"><tag k="addr:street" v="Peterson Road"/><tag k="addr:housenumber" v="10201"/><tag k="coa:place_id" v="1158228"/></node><node id="-112" lat="30.127476" lon="-97.681154" changeset="false"><tag k="addr:street" v="Moore Road"/><tag k="addr:housenumber" v="10715"/><tag k="coa:place_id" v="448125"/></node><node id="-113" lat="30.072322" lon="-97.675918" changeset="false"><tag k="addr:street" v="Schriber Road"/><tag k="addr:housenumber" v="11623"/><tag k="coa:place_id" v="96108"/></node><node id="-114" lat="30.136537" lon="-97.660492" changeset="false"><tag k="addr:street" v="Farm-to-Market Road 812"/><tag k="addr:housenumber" v="11617"/><tag k="coa:place_id" v="3113824"/></node><node id="-115" lat="30.132471" lon="-97.68142" changeset="false"><tag k="addr:street" v="Farm-to-Market Road 973 South"/><tag k="addr:housenumber" v="8423"/><tag k="coa:place_id" v="109866"/></node><node id="-116" lat="30.136287" lon="-97.677519" changeset="false"><tag k="addr:street" v="Ponder Lane"/><tag k="addr:housenumber" v="10601"/><tag k="coa:place_id" v="128151"/></node><node id="-117" lat="30.13498" lon="-97.679339" changeset="false"><tag k="addr:street" v="Ruidosa Street"/><tag k="addr:housenumber" v="10507"/><tag k="coa:place_id" v="660710"/></node><node id="-118" lat="30.118635" lon="-97.633592" changeset="false"><tag k="addr:street" v="Farm-to-Market Road 812"/><tag k="addr:housenumber" v="14107"/><tag k="coa:place_id" v="659774"/></node><node id="-119" lat="30.120414" lon="-97.666215" changeset="false"><tag k="addr:street" v="Moore Road"/><tag k="addr:housenumber" v="11901"/><tag k="coa:place_id" v="724623"/></node><node id="-120" lat="30.118012" lon="-97.661206" changeset="false"><tag k="addr:street" v="Moore Road"/><tag k="addr:housenumber" v="12403"/><tag k="coa:place_id" v="660284"/></node><node id="-121" lat="30.127874" lon="-97.642697" changeset="false"><tag k="addr:street" v="Farm-to-Market Road 812"/><tag k="addr:housenumber" v="13201"/><tag k="coa:place_id" v="231479"/></node><node id="-122" lat="30.122153" lon="-97.637255" changeset="false"><tag k="addr:street" v="Farm-to-Market Road 812"/><tag k="addr:housenumber" v="13803"/><tag k="coa:place_id" v="659882"/></node><node id="-123" lat="30.136362" lon="-97.672884" changeset="false"><tag k="addr:street" v="Citation Avenue"/><tag k="addr:housenumber" v="8203"/><tag k="coa:place_id" v="830757"/></node><node id="-124" lat="30.082949" lon="-97.66371" changeset="false"><tag k="addr:street" v="Maha Loop Road"/><tag k="addr:housenumber" v="11107"/><tag k="coa:place_id" v="1146065"/></node><node id="-125" lat="30.095366" lon="-97.684039" changeset="false"><tag k="addr:street" v="Maha Loop Road"/><tag k="addr:housenumber" v="11537"/><tag k="coa:place_id" v="3190910"/></node><node id="-126" lat="30.073207" lon="-97.683407" changeset="false"><tag k="addr:street" v="Reata Drive"/><tag k="addr:housenumber" v="11616"/><tag k="coa:place_id" v="1145910"/></node><node id="-127" lat="30.136465" lon="-97.6751" changeset="false"><tag k="addr:street" v="Citation Avenue"/><tag k="addr:housenumber" v="8214"/><tag k="coa:place_id" v="750399"/></node><node id="-128" lat="30.099227" lon="-97.685384" changeset="false"><tag k="addr:street" v="Maha Loop Road"/><tag k="addr:housenumber" v="11619"/><tag k="coa:place_id" v="3224553"/></node><node id="-129" lat="30.128152" lon="-97.682306" changeset="false"><tag k="addr:street" v="Moore Road"/><tag k="addr:housenumber" v="10629"/><tag k="coa:place_id" v="3325877"/></node><node id="-130" lat="30.139164" lon="-97.662978" changeset="false"><tag k="addr:street" v="Farm-to-Market Road 812"/><tag k="addr:housenumber" v="11405"/><tag k="coa:place_id" v="5053845"/></node><node id="-131" lat="30.102711" lon="-97.67995" changeset="false"><tag k="addr:street" v="Tiffany Trail"/><tag k="addr:housenumber" v="168"/><tag k="coa:place_id" v="3307305"/></node><node id="-132" lat="30.104256" lon="-97.681885" changeset="false"><tag k="addr:street" v="Tiffany Trail"/><tag k="addr:housenumber" v="290"/><tag k="coa:place_id" v="3307295"/></node><node id="-133" lat="30.104666" lon="-97.629409" changeset="false"><tag k="addr:street" v="Peterson Road"/><tag k="addr:housenumber" v="9910"/><tag k="coa:place_id" v="3381480"/></node><node id="-134" lat="30.101781" lon="-97.632041" changeset="false"><tag k="addr:street" v="Peterson Road"/><tag k="addr:housenumber" v="10101"/><tag k="coa:place_id" v="3365032"/></node><node id="-135" lat="30.063745" lon="-97.66798" changeset="false"><tag k="addr:street" v="Avis Road,1100"/><tag k="addr:housenumber" v="12100"/><tag k="coa:place_id" v="3347780"/></node><node id="-136" lat="30.115843" lon="-97.681994" changeset="false"><tag k="addr:street" v="Lambert Lane"/><tag k="addr:housenumber" v="11120"/><tag k="coa:place_id" v="3374521"/></node><node id="-137" lat="30.1236" lon="-97.67093" changeset="false"><tag k="addr:street" v="Moore Road"/><tag k="addr:housenumber" v="11506"/><tag k="coa:place_id" v="5105622"/></node><node id="-138" lat="30.162761" lon="-97.692331" changeset="false"><tag k="addr:street" v="Airline Terrace"/><tag k="addr:housenumber" v="8700"/><tag k="coa:place_id" v="701120"/></node><node id="-139" lat="30.082132" lon="-97.643621" changeset="false"><tag k="addr:street" v="Eilers Road"/><tag k="addr:housenumber" v="14900"/><tag k="coa:place_id" v="5074291"/></node><node id="-140" lat="30.07468" lon="-97.675595" changeset="false"><tag k="addr:street" v="Schriber Road"/><tag k="addr:housenumber" v="11522"/><tag k="coa:place_id" v="5071640"/></node><node id="-141" lat="30.090263" lon="-97.64495" changeset="false"><tag k="addr:street" v="Reynero Lane"/><tag k="addr:housenumber" v="14601"/><tag k="coa:place_id" v="5085727"/></node><node id="-142" lat="30.101817" lon="-97.636652" changeset="false"><tag k="addr:street" v="Hokanson Road"/><tag k="addr:housenumber" v="14510"/><tag k="coa:place_id" v="5120848"/></node><node id="-143" lat="30.068352" lon="-97.680928" changeset="false"><tag k="addr:street" v="Schriber Road"/><tag k="addr:housenumber" v="11841"/><tag k="coa:place_id" v="5226042"/></node><node id="-144" lat="30.105413" lon="-97.671722" changeset="false"><tag k="addr:street" v="Von Quintus Road"/><tag k="addr:housenumber" v="12300"/><tag k="coa:place_id" v="335985"/></node><node id="-145" lat="30.120888" lon="-97.664819" changeset="false"><tag k="addr:street" v="Moore Road"/><tag k="addr:housenumber" v="12014 1/2"/><tag k="coa:place_id" v="3089596"/></node><node id="-146" lat="30.1477" lon="-97.673912" changeset="false"><tag k="addr:street" v="Farm-to-Market Road 812"/><tag k="addr:housenumber" v="10449"/><tag k="coa:place_id" v="698692"/></node><node id="-147" lat="30.108338" lon="-97.675658" changeset="false"><tag k="addr:street" v="Sunbonnet Cove"/><tag k="addr:housenumber" v="11900"/><tag k="coa:place_id" v="222094"/></node><node id="-148" lat="30.115206" lon="-97.652193" changeset="false"><tag k="addr:street" v="Moore Road"/><tag k="addr:housenumber" v="13012"/><tag k="coa:place_id" v="119393"/></node><node id="-149" lat="30.072685" lon="-97.675577" changeset="false"><tag k="addr:street" v="Schriber Road"/><tag k="addr:housenumber" v="11619"/><tag k="coa:place_id" v="96107"/></node><node id="-150" lat="30.071961" lon="-97.683803" changeset="false"><tag k="addr:street" v="Saddle Circle"/><tag k="addr:housenumber" v="12905"/><tag k="coa:place_id" v="89086"/></node><node id="-151" lat="30.140467" lon="-97.677995" changeset="false"><tag k="addr:street" v="Farm-to-Market Road 973 South"/><tag k="addr:housenumber" v="8020"/><tag k="coa:place_id" v="660362"/></node><node id="-152" lat="30.140055" lon="-97.67527" changeset="false"><tag k="addr:street" v="Farm-to-Market Road 973 South"/><tag k="addr:housenumber" v="8013"/><tag k="coa:place_id" v="3087067"/></node><node id="-153" lat="30.141555" lon="-97.67614" changeset="false"><tag k="addr:street" v="Farm-to-Market Road 973 South"/><tag k="addr:housenumber" v="7933"/><tag k="coa:place_id" v="3040944"/></node><node id="-154" lat="30.065386" lon="-97.67908" changeset="false"><tag k="addr:street" v="Evelyn Road"/><tag k="addr:housenumber" v="9302"/><tag k="coa:place_id" v="1145947"/></node><node id="-155" lat="30.099974" lon="-97.616579" changeset="false"><tag k="addr:street" v="Doyle Overton Road,1100"/><tag k="addr:housenumber" v="10220"/><tag k="coa:place_id" v="228133"/></node><node id="-156" lat="30.104019" lon="-97.684253" changeset="false"><tag k="addr:street" v="Tiffany Trail"/><tag k="addr:housenumber" v="351"/><tag k="coa:place_id" v="3050884"/></node><node id="-157" lat="30.103864" lon="-97.688164" changeset="false"><tag k="addr:street" v="Maha Loop Road"/><tag k="addr:housenumber" v="11690"/><tag k="coa:place_id" v="1129960"/></node><node id="-158" lat="30.135289" lon="-97.678428" changeset="false"><tag k="addr:street" v="Ruidosa Street"/><tag k="addr:housenumber" v="10510"/><tag k="coa:place_id" v="660842"/></node><node id="-159" lat="30.161123" lon="-97.691074" changeset="false"><tag k="addr:street" v="Airline Terrace"/><tag k="addr:housenumber" v="8803"/><tag k="coa:place_id" v="701264"/></node><node id="-160" lat="30.102594" lon="-97.616905" changeset="false"><tag k="addr:street" v="Doyle Overton Road,1100"/><tag k="addr:housenumber" v="10144"/><tag k="coa:place_id" v="228125"/></node><node id="-161" lat="30.135977" lon="-97.677678" changeset="false"><tag k="addr:street" v="Man O War Avenue"/><tag k="addr:housenumber" v="10600"/><tag k="coa:place_id" v="660896"/></node><node id="-162" lat="30.083723" lon="-97.661944" changeset="false"><tag k="addr:street" v="Maha Loop Road"/><tag k="addr:housenumber" v="11009"/><tag k="coa:place_id" v="1146061"/></node><node id="-163" lat="30.080345" lon="-97.664947" changeset="false"><tag k="addr:street" v="Maha Loop Road,1100"/><tag k="addr:housenumber" v="13709"/><tag k="coa:place_id" v="1146077"/></node><node id="-164" lat="30.136363" lon="-97.67361" changeset="false"><tag k="addr:street" v="Citation Avenue"/><tag k="addr:housenumber" v="8207"/><tag k="coa:place_id" v="834615"/></node><node id="-165" lat="30.134374" lon="-97.677611" changeset="false"><tag k="addr:street" v="Citation Avenue"/><tag k="addr:housenumber" v="8315"/><tag k="coa:place_id" v="660776"/></node><node id="-166" lat="30.072286" lon="-97.683314" changeset="false"><tag k="addr:street" v="Reata Drive"/><tag k="addr:housenumber" v="11625"/><tag k="coa:place_id" v="1145913"/></node><node id="-167" lat="30.132866" lon="-97.681326" changeset="false"><tag k="addr:street" v="Farm-to-Market Road 973 South"/><tag k="addr:housenumber" v="8417"/><tag k="coa:place_id" v="109860"/></node><node id="-168" lat="30.143701" lon="-97.674842" changeset="false"><tag k="addr:street" v="Farm-to-Market Road 973 South"/><tag k="addr:housenumber" v="7817"/><tag k="coa:place_id" v="477861"/></node><node id="-169" lat="30.06707" lon="-97.685096" changeset="false"><tag k="addr:street" v="Evelyn Road"/><tag k="addr:housenumber" v="8809"/><tag k="coa:place_id" v="1145942"/></node><node id="-170" lat="30.12301" lon="-97.688852" changeset="false"><tag k="addr:street" v="Farm-to-Market Road 973 South"/><tag k="addr:housenumber" v="9002"/><tag k="coa:place_id" v="3222893"/></node><node id="-171" lat="30.142826" lon="-97.670456" changeset="false"><tag k="addr:street" v="Farm-to-Market Road 812"/><tag k="addr:housenumber" v="10711"/><tag k="coa:place_id" v="3255941"/></node><node id="-172" lat="30.094351" lon="-97.682797" changeset="false"><tag k="addr:street" v="Maha Loop Road"/><tag k="addr:housenumber" v="11517"/><tag k="coa:place_id" v="3190913"/></node><node id="-173" lat="30.095965" lon="-97.684899" changeset="false"><tag k="addr:street" v="Maha Loop Road"/><tag k="addr:housenumber" v="11551"/><tag k="coa:place_id" v="3190903"/></node><node id="-174" lat="30.136012" lon="-97.679846" changeset="false"><tag k="addr:street" v="Farm-to-Market Road 973 South"/><tag k="addr:housenumber" v="8221"/><tag k="coa:place_id" v="3048602"/></node><node id="-175" lat="30.127328" lon="-97.684645" changeset="false"><tag k="addr:street" v="Farm-to-Market Road 973 South"/><tag k="addr:housenumber" v="8751"/><tag k="coa:place_id" v="3149425"/></node><node id="-176" lat="30.075165" lon="-97.643769" changeset="false"><tag k="addr:street" v="Pocmont Trail"/><tag k="addr:housenumber" v="15208"/><tag k="coa:place_id" v="3280997"/></node><node id="-177" lat="30.105708" lon="-97.684563" changeset="false"><tag k="addr:street" v="Tiffany Trail"/><tag k="addr:housenumber" v="446"/><tag k="coa:place_id" v="3307304"/></node><node id="-178" lat="30.113891" lon="-97.686036" changeset="false"><tag k="addr:street" v="Lambert Lane"/><tag k="addr:housenumber" v="10921"/><tag k="coa:place_id" v="3346745"/></node><node id="-179" lat="30.102752" lon="-97.63055" changeset="false"><tag k="addr:street" v="Peterson Road"/><tag k="addr:housenumber" v="10013"/><tag k="coa:place_id" v="3365059"/></node><node id="-180" lat="30.080004" lon="-97.662985" changeset="false"><tag k="addr:street" v="Maha Loop Road,1100"/><tag k="addr:housenumber" v="13820"/><tag k="coa:place_id" v="3383210"/></node><node id="-181" lat="30.071887" lon="-97.684126" changeset="false"><tag k="addr:street" v="Reata Drive"/><tag k="addr:housenumber" v="11705"/><tag k="coa:place_id" v="89076"/></node><node id="-182" lat="30.114137" lon="-97.67984" changeset="false"><tag k="addr:street" v="Lambert Lane"/><tag k="addr:housenumber" v="11193"/><tag k="coa:place_id" v="3503573"/></node><node id="-183" lat="30.104884" lon="-97.617416" changeset="false"><tag k="addr:street" v="Farm-to-Market Road 812"/><tag k="addr:housenumber" v="15707"/><tag k="coa:place_id" v="5085979"/></node><node id="-184" lat="30.098795" lon="-97.684367" changeset="false"><tag k="addr:street" v="Maha Loop Road"/><tag k="addr:housenumber" v="11611"/><tag k="coa:place_id" v="5204684"/></node><node id="-185" lat="30.107661" lon="-97.645887" changeset="false"><tag k="addr:street" v="Hokanson Road"/><tag k="addr:housenumber" v="13800"/><tag k="coa:place_id" v="133810"/></node><node id="-186" lat="30.100554" lon="-97.615951" changeset="false"><tag k="addr:street" v="Doyle Overton Road,1100"/><tag k="addr:housenumber" v="10200"/><tag k="coa:place_id" v="228135"/></node><node id="-187" lat="30.135747" lon="-97.679316" changeset="false"><tag k="addr:street" v="Ruidosa Street"/><tag k="addr:housenumber" v="10501"/><tag k="coa:place_id" v="660692"/></node><node id="-188" lat="30.07377" lon="-97.681801" changeset="false"><tag k="addr:street" v="Pistol Pass Circle"/><tag k="addr:housenumber" v="12904"/><tag k="coa:place_id" v="89081"/></node><node id="-189" lat="30.13995" lon="-97.67365" changeset="false"><tag k="addr:street" v="Farm-to-Market Road 973 South"/><tag k="addr:housenumber" v="8005"/><tag k="coa:place_id" v="165264"/></node><node id="-190" lat="30.137133" lon="-97.678225" changeset="false"><tag k="addr:street" v="Ponder Lane"/><tag k="addr:housenumber" v="10510"/><tag k="coa:place_id" v="128175"/></node><node id="-191" lat="30.125162" lon="-97.675933" changeset="false"><tag k="addr:street" v="Moore Road"/><tag k="addr:housenumber" v="11115"/><tag k="coa:place_id" v="660314"/></node><node id="-192" lat="30.122954" lon="-97.66911" changeset="false"><tag k="addr:street" v="Moore Road"/><tag k="addr:housenumber" v="11608"/><tag k="coa:place_id" v="3053234"/></node><node id="-193" lat="30.132316" lon="-97.681666" changeset="false"><tag k="addr:street" v="Farm-to-Market Road 973 South"/><tag k="addr:housenumber" v="8429"/><tag k="coa:place_id" v="660572"/></node><node id="-194" lat="30.138188" lon="-97.660862" changeset="false"><tag k="addr:street" v="Farm-to-Market Road 812"/><tag k="addr:housenumber" v="11513"/><tag k="coa:place_id" v="660032"/></node><node id="-195" lat="30.122558" lon="-97.637838" changeset="false"><tag k="addr:street" v="Farm-to-Market Road 812"/><tag k="addr:housenumber" v="13705"/><tag k="coa:place_id" v="104770"/></node><node id="-196" lat="30.12656" lon="-97.685308" changeset="false"><tag k="addr:street" v="Farm-to-Market Road 973 South"/><tag k="addr:housenumber" v="8791"/><tag k="coa:place_id" v="3149427"/></node><node id="-197" lat="30.137408" lon="-97.663259" changeset="false"><tag k="addr:street" v="Farm-to-Market Road 812"/><tag k="addr:housenumber" v="11411"/><tag k="coa:place_id" v="210754"/></node><node id="-198" lat="30.085213" lon="-97.669438" changeset="false"><tag k="addr:street" v="Maha Loop Road"/><tag k="addr:housenumber" v="11250"/><tag k="coa:place_id" v="1145967"/></node><node id="-199" lat="30.080748" lon="-97.663963" changeset="false"><tag k="addr:street" v="Maha Loop Road,1100"/><tag k="addr:housenumber" v="13800"/><tag k="coa:place_id" v="1146076"/></node><node id="-200" lat="30.062625" lon="-97.672922" changeset="false"><tag k="addr:street" v="Caldvis Road"/><tag k="addr:housenumber" v="12122"/><tag k="coa:place_id" v="1145953"/></node><node id="-201" lat="30.162336" lon="-97.690561" changeset="false"><tag k="addr:street" v="Farm-to-Market Road 812"/><tag k="addr:housenumber" v="8805"/><tag k="coa:place_id" v="701042"/></node><node id="-202" lat="30.16187" lon="-97.691148" changeset="false"><tag k="addr:street" v="Airline Terrace"/><tag k="addr:housenumber" v="8802"/><tag k="coa:place_id" v="627178"/></node><node id="-203" lat="30.098386" lon="-97.665674" changeset="false"><tag k="addr:street" v="Von Quintus Road"/><tag k="addr:housenumber" v="12919"/><tag k="coa:place_id" v="1129813"/></node><node id="-204" lat="30.108163" lon="-97.672658" changeset="false"><tag k="addr:street" v="Blocker Lane"/><tag k="addr:housenumber" v="9723"/><tag k="coa:place_id" v="660248"/></node><node id="-205" lat="30.106839" lon="-97.676578" changeset="false"><tag k="addr:street" v="Sunflower Drive"/><tag k="addr:housenumber" v="9811"/><tag k="coa:place_id" v="128399"/></node><node id="-206" lat="30.074719" lon="-97.690855" changeset="false"><tag k="addr:street" v="Evelyn Road"/><tag k="addr:housenumber" v="8106"/><tag k="coa:place_id" v="1145716"/></node><node id="-207" lat="30.08304" lon="-97.636736" changeset="false"><tag k="addr:street" v="Doyle Overton Road"/><tag k="addr:housenumber" v="11100"/><tag k="coa:place_id" v="1146191"/></node><node id="-208" lat="30.136635" lon="-97.672656" changeset="false"><tag k="addr:street" v="Citation Avenue"/><tag k="addr:housenumber" v="8201"/><tag k="coa:place_id" v="834573"/></node><node id="-209" lat="30.139455" lon="-97.678491" changeset="false"><tag k="addr:street" v="Farm-to-Market Road 973 South"/><tag k="addr:housenumber" v="8114"/><tag k="coa:place_id" v="417879"/></node><node id="-210" lat="30.075337" lon="-97.680064" changeset="false"><tag k="addr:street" v="Bullet Pass"/><tag k="addr:housenumber" v="8800"/><tag k="coa:place_id" v="89079"/></node><node id="-211" lat="30.097535" lon="-97.661721" changeset="false"><tag k="addr:street" v="Von Quintus Road"/><tag k="addr:housenumber" v="13204"/><tag k="coa:place_id" v="3074980"/></node><node id="-212" lat="30.095481" lon="-97.661031" changeset="false"><tag k="addr:street" v="Von Quintus Road"/><tag k="addr:housenumber" v="13401"/><tag k="coa:place_id" v="660176"/></node><node id="-213" lat="30.066059" lon="-97.670893" changeset="false"><tag k="addr:street" v="Bock Road"/><tag k="addr:housenumber" v="9722"/><tag k="coa:place_id" v="96133"/></node><node id="-214" lat="30.066013" lon="-97.666951" changeset="false"><tag k="addr:street" v="Bock Road"/><tag k="addr:housenumber" v="10010"/><tag k="coa:place_id" v="96125"/></node><node id="-215" lat="30.063441" lon="-97.673738" changeset="false"><tag k="addr:street" v="Caldvis Road"/><tag k="addr:housenumber" v="12100"/><tag k="coa:place_id" v="215850"/></node><node id="-216" lat="30.054442" lon="-97.689099" changeset="false"><tag k="addr:street" v="Laws Road"/><tag k="addr:housenumber" v="12601"/><tag k="coa:place_id" v="1145467"/></node><node id="-217" lat="30.108894" lon="-97.671843" changeset="false"><tag k="addr:street" v="Blocker Lane"/><tag k="addr:housenumber" v="9711"/><tag k="coa:place_id" v="660260"/></node><node id="-218" lat="30.085546" lon="-97.659657" changeset="false"><tag k="addr:street" v="Maha Loop Road"/><tag k="addr:housenumber" v="10913"/><tag k="coa:place_id" v="1146048"/></node><node id="-219" lat="30.123256" lon="-97.671674" changeset="false"><tag k="addr:street" v="Moore Road"/><tag k="addr:housenumber" v="11507"/><tag k="coa:place_id" v="381309"/></node><node id="-220" lat="30.13682" lon="-97.673881" changeset="false"><tag k="addr:street" v="Citation Avenue"/><tag k="addr:housenumber" v="8206"/><tag k="coa:place_id" v="834603"/></node><node id="-221" lat="30.09026" lon="-97.674671" changeset="false"><tag k="addr:street" v="Maha Loop Road"/><tag k="addr:housenumber" v="11374"/><tag k="coa:place_id" v="1145993"/></node><node id="-222" lat="30.090273" lon="-97.676533" changeset="false"><tag k="addr:street" v="Maha Loop Road"/><tag k="addr:housenumber" v="11389"/><tag k="coa:place_id" v="1145995"/></node><node id="-223" lat="30.127341" lon="-97.680868" changeset="false"><tag k="addr:street" v="Moore Road"/><tag k="addr:housenumber" v="10801"/><tag k="coa:place_id" v="660338"/></node><node id="-224" lat="30.162231" lon="-97.691614" changeset="false"><tag k="addr:street" v="Airline Terrace"/><tag k="addr:housenumber" v="8704"/><tag k="coa:place_id" v="701108"/></node><node id="-225" lat="30.161698" lon="-97.690163" changeset="false"><tag k="addr:street" v="Airline Terrace"/><tag k="addr:housenumber" v="8808"/><tag k="coa:place_id" v="701276"/></node><node id="-226" lat="30.133519" lon="-97.652858" changeset="false"><tag k="addr:street" v="Farm-to-Market Road 812"/><tag k="addr:housenumber" v="12405"/><tag k="coa:place_id" v="475563"/></node><node id="-227" lat="30.138823" lon="-97.674453" changeset="false"><tag k="addr:street" v="Farm-to-Market Road 973 South"/><tag k="addr:housenumber" v="8023"/><tag k="coa:place_id" v="125673"/></node><node id="-228" lat="30.135241" lon="-97.679464" changeset="false"><tag k="addr:street" v="Ruidosa Street"/><tag k="addr:housenumber" v="10505"/><tag k="coa:place_id" v="660704"/></node><node id="-229" lat="30.134694" lon="-97.678354" changeset="false"><tag k="addr:street" v="Ruidosa Street"/><tag k="addr:housenumber" v="10601"/><tag k="coa:place_id" v="660728"/></node><node id="-230" lat="30.161363" lon="-97.687688" changeset="false"><tag k="addr:street" v="Farm-to-Market Road 812"/><tag k="addr:housenumber" v="9111"/><tag k="coa:place_id" v="181539"/></node><node id="-231" lat="30.125827" lon="-97.677347" changeset="false"><tag k="addr:street" v="Moore Road"/><tag k="addr:housenumber" v="11009"/><tag k="coa:place_id" v="660308"/></node><node id="-232" lat="30.071587" lon="-97.647044" changeset="false"><tag k="addr:street" v="Doyle Overton Road"/><tag k="addr:housenumber" v="11706"/><tag k="coa:place_id" v="1146029"/></node><node id="-233" lat="30.072078" lon="-97.684353" changeset="false"><tag k="addr:street" v="Reata Drive"/><tag k="addr:housenumber" v="11704"/><tag k="coa:place_id" v="89075"/></node><node id="-234" lat="30.070139" lon="-97.678131" changeset="false"><tag k="addr:street" v="Schriber Road"/><tag k="addr:housenumber" v="11719"/><tag k="coa:place_id" v="96115"/></node><node id="-235" lat="30.134742" lon="-97.678982" changeset="false"><tag k="addr:street" v="Ruidosa Street"/><tag k="addr:housenumber" v="10509"/><tag k="coa:place_id" v="660716"/></node><node id="-236" lat="30.13547" lon="-97.676168" changeset="false"><tag k="addr:street" v="Citation Avenue"/><tag k="addr:housenumber" v="8303"/><tag k="coa:place_id" v="660812"/></node><node id="-237" lat="30.12029" lon="-97.689773" changeset="false"><tag k="addr:street" v="Farm-to-Market Road 973 South"/><tag k="addr:housenumber" v="9125"/><tag k="coa:place_id" v="3342842"/></node><node id="-238" lat="30.112884" lon="-97.684465" changeset="false"><tag k="addr:street" v="Lambert Lane"/><tag k="addr:housenumber" v="11101"/><tag k="coa:place_id" v="3346740"/></node><node id="-239" lat="30.065406" lon="-97.667237" changeset="false"><tag k="addr:street" v="Bock Road"/><tag k="addr:housenumber" v="10001"/><tag k="coa:place_id" v="3276747"/></node><node id="-240" lat="30.079516" lon="-97.662232" changeset="false"><tag k="addr:street" v="Maha Loop Road,1100"/><tag k="addr:housenumber" v="13912"/><tag k="coa:place_id" v="3383216"/></node><node id="-241" lat="30.079278" lon="-97.661953" changeset="false"><tag k="addr:street" v="Maha Loop Road,1100"/><tag k="addr:housenumber" v="13916"/><tag k="coa:place_id" v="3383217"/></node><node id="-242" lat="30.098793" lon="-97.635994" changeset="false"><tag k="addr:street" v="Peterson Road"/><tag k="addr:housenumber" v="10288"/><tag k="coa:place_id" v="5103424"/></node><node id="-243" lat="30.098125" lon="-97.684803" changeset="false"><tag k="addr:street" v="Von Quintus Road"/><tag k="addr:housenumber" v="11806"/><tag k="coa:place_id" v="5102067"/></node><node id="-244" lat="30.109975" lon="-97.676574" changeset="false"><tag k="addr:street" v="Sunflower Drive"/><tag k="addr:housenumber" v="9721"/><tag k="coa:place_id" v="3329827"/></node><node id="-245" lat="30.10452" lon="-97.617085" changeset="false"><tag k="addr:street" v="Farm-to-Market Road 812"/><tag k="addr:housenumber" v="15725"/><tag k="coa:place_id" v="5072266"/></node><node id="-246" lat="30.080246" lon="-97.638817" changeset="false"><tag k="addr:street" v="Doyle Overton Road"/><tag k="addr:housenumber" v="11309"/><tag k="coa:place_id" v="1146202"/></node><node id="-247" lat="30.076376" lon="-97.64352" changeset="false"><tag k="addr:street" v="Doyle Overton Road"/><tag k="addr:housenumber" v="11425"/><tag k="coa:place_id" v="1146210"/></node><node id="-248" lat="30.098733" lon="-97.617996" changeset="false"><tag k="addr:street" v="Doyle Overton Road,1100"/><tag k="addr:housenumber" v="10300"/><tag k="coa:place_id" v="228131"/></node><node id="-249" lat="30.101676" lon="-97.631613" changeset="false"><tag k="addr:street" v="Peterson Road"/><tag k="addr:housenumber" v="10023"/><tag k="coa:place_id" v="1158234"/></node><node id="-250" lat="30.119215" lon="-97.668994" changeset="false"><tag k="addr:street" v="Blocker Lane"/><tag k="addr:housenumber" v="9107"/><tag k="coa:place_id" v="151775"/></node><node id="-251" lat="30.118019" lon="-97.669574" changeset="false"><tag k="addr:street" v="Blocker Lane"/><tag k="addr:housenumber" v="9205"/><tag k="coa:place_id" v="419343"/></node><node id="-252" lat="30.061019" lon="-97.673149" changeset="false"><tag k="addr:street" v="Evelyn Road"/><tag k="addr:housenumber" v="9805"/><tag k="coa:place_id" v="1145790"/></node><node id="-253" lat="30.067748" lon="-97.677084" changeset="false"><tag k="addr:street" v="Schriber Road"/><tag k="addr:housenumber" v="11809"/><tag k="coa:place_id" v="1145940"/></node><node id="-254" lat="30.070917" lon="-97.677777" changeset="false"><tag k="addr:street" v="Schriber Road"/><tag k="addr:housenumber" v="11713"/><tag k="coa:place_id" v="96114"/></node><node id="-255" lat="30.074047" lon="-97.674054" changeset="false"><tag k="addr:street" v="Schriber Road"/><tag k="addr:housenumber" v="11517"/><tag k="coa:place_id" v="1145907"/></node><node id="-256" lat="30.120198" lon="-97.634803" changeset="false"><tag k="addr:street" v="Farm-to-Market Road 812"/><tag k="addr:housenumber" v="13919"/><tag k="coa:place_id" v="91287"/></node><node id="-257" lat="30.066663" lon="-97.670336" changeset="false"><tag k="addr:street" v="Bock Road"/><tag k="addr:housenumber" v="9800"/><tag k="coa:place_id" v="96137"/></node><node id="-258" lat="30.084312" lon="-97.6696" changeset="false"><tag k="addr:street" v="Maha Loop Road"/><tag k="addr:housenumber" v="11249"/><tag k="coa:place_id" v="1145968"/></node><node id="-259" lat="30.137222" lon="-97.67854" changeset="false"><tag k="addr:street" v="Ponder Lane"/><tag k="addr:housenumber" v="10508"/><tag k="coa:place_id" v="138279"/></node><node id="-260" lat="30.13674" lon="-97.674153" changeset="false"><tag k="addr:street" v="Citation Avenue"/><tag k="addr:housenumber" v="8208"/><tag k="coa:place_id" v="834621"/></node><node id="-261" lat="30.136403" lon="-97.675389" changeset="false"><tag k="addr:street" v="Citation Avenue"/><tag k="addr:housenumber" v="8216"/><tag k="coa:place_id" v="750417"/></node><node id="-262" lat="30.095624" lon="-97.684421" changeset="false"><tag k="addr:street" v="Maha Loop Road"/><tag k="addr:housenumber" v="11545"/><tag k="coa:place_id" v="1129957"/></node><node id="-263" lat="30.094079" lon="-97.679964" changeset="false"><tag k="addr:street" v="Maha Loop Road"/><tag k="addr:housenumber" v="11430"/><tag k="coa:place_id" v="1145989"/></node><node id="-264" lat="30.106978" lon="-97.644806" changeset="false"><tag k="addr:street" v="Hokanson Road"/><tag k="addr:housenumber" v="13804"/><tag k="coa:place_id" v="1161463"/></node><node id="-265" lat="30.121586" lon="-97.636903" changeset="false"><tag k="addr:street" v="Farm-to-Market Road 812"/><tag k="addr:housenumber" v="13807"/><tag k="coa:place_id" v="271161"/></node><node id="-266" lat="30.097556" lon="-97.619273" changeset="false"><tag k="addr:street" v="Doyle Overton Road,1100"/><tag k="addr:housenumber" v="10340"/><tag k="coa:place_id" v="228127"/></node><node id="-267" lat="30.070338" lon="-97.685263" changeset="false"><tag k="addr:street" v="Evelyn Road"/><tag k="addr:housenumber" v="8608"/><tag k="coa:place_id" v="1145929"/></node><node id="-268" lat="30.135527" lon="-97.656973" changeset="false"><tag k="addr:street" v="Farm-to-Market Road 812"/><tag k="addr:housenumber" v="11907"/><tag k="coa:place_id" v="660008"/></node><node id="-269" lat="30.143655" lon="-97.675118" changeset="false"><tag k="addr:street" v="Farm-to-Market Road 973 South"/><tag k="addr:housenumber" v="7805"/><tag k="coa:place_id" v="660374"/></node><node id="-270" lat="30.066185" lon="-97.672809" changeset="false"><tag k="addr:street" v="Bock Road"/><tag k="addr:housenumber" v="9610"/><tag k="coa:place_id" v="96126"/></node><node id="-271" lat="30.065961" lon="-97.668698" changeset="false"><tag k="addr:street" v="Bock Road"/><tag k="addr:housenumber" v="9912"/><tag k="coa:place_id" v="96139"/></node><node id="-272" lat="30.136273" lon="-97.673899" changeset="false"><tag k="addr:street" v="Citation Avenue"/><tag k="addr:housenumber" v="8209"/><tag k="coa:place_id" v="834627"/></node><node id="-273" lat="30.134813" lon="-97.677677" changeset="false"><tag k="addr:street" v="Citation Avenue"/><tag k="addr:housenumber" v="8312"/><tag k="coa:place_id" v="365877"/></node><node id="-274" lat="30.103755" lon="-97.683226" changeset="false"><tag k="addr:street" v="Tiffany Trail"/><tag k="addr:housenumber" v="301"/><tag k="coa:place_id" v="3387053"/></node><node id="-275" lat="30.08095" lon="-97.639112" changeset="false"><tag k="addr:street" v="Doyle Overton Road"/><tag k="addr:housenumber" v="11222"/><tag k="coa:place_id" v="1146199"/></node><node id="-276" lat="30.089538" lon="-97.644306" changeset="false"><tag k="addr:street" v="Reynero Lane"/><tag k="addr:housenumber" v="14629"/><tag k="coa:place_id" v="3213747"/></node><node id="-277" lat="30.074537" lon="-97.681925" changeset="false"><tag k="addr:street" v="Reata Drive"/><tag k="addr:housenumber" v="11520"/><tag k="coa:place_id" v="1145975"/></node><node id="-278" lat="30.134202" lon="-97.677804" changeset="false"><tag k="addr:street" v="Citation Avenue"/><tag k="addr:housenumber" v="8317"/><tag k="coa:place_id" v="660770"/></node><node id="-279" lat="30.108107" lon="-97.674078" changeset="false"><tag k="addr:street" v="Blocker Lane"/><tag k="addr:housenumber" v="9804"/><tag k="coa:place_id" v="685815"/></node><node id="-280" lat="30.107305" lon="-97.673568" changeset="false"><tag k="addr:street" v="Blocker Lane"/><tag k="addr:housenumber" v="9811"/><tag k="coa:place_id" v="660242"/></node><node id="-281" lat="30.105486" lon="-97.676476" changeset="false"><tag k="addr:street" v="Von Quintus Road"/><tag k="addr:housenumber" v="12032"/><tag k="coa:place_id" v="660932"/></node><node id="-282" lat="30.081936" lon="-97.665371" changeset="false"><tag k="addr:street" v="Maha Loop Road,1100"/><tag k="addr:housenumber" v="13600"/><tag k="coa:place_id" v="1146071"/></node><node id="-283" lat="30.09008" lon="-97.626744" changeset="false"><tag k="addr:street" v="Hokanson Road"/><tag k="addr:housenumber" v="15721"/><tag k="coa:place_id" v="3190736"/></node><node id="-284" lat="30.10569" lon="-97.678556" changeset="false"><tag k="addr:street" v="Horizon Lane"/><tag k="addr:housenumber" v="9906"/><tag k="coa:place_id" v="89069"/></node><node id="-285" lat="30.123872" lon="-97.686905" changeset="false"><tag k="addr:street" v="Farm-to-Market Road 973 South"/><tag k="addr:housenumber" v="8911"/><tag k="coa:place_id" v="3071116"/></node><node id="-286" lat="30.132707" lon="-97.681593" changeset="false"><tag k="addr:street" v="Farm-to-Market Road 973 South"/><tag k="addr:housenumber" v="8421"/><tag k="coa:place_id" v="109865"/></node><node id="-287" lat="30.069296" lon="-97.684522" changeset="false"><tag k="addr:street" v="Evelyn Road"/><tag k="addr:housenumber" v="8700"/><tag k="coa:place_id" v="3257443"/></node><node id="-288" lat="30.160908" lon="-97.687283" changeset="false"><tag k="addr:street" v="Farm-to-Market Road 812"/><tag k="addr:housenumber" v="9111 1/2"/><tag k="coa:place_id" v="3213701"/></node><node id="-289" lat="30.070891" lon="-97.678648" changeset="false"><tag k="addr:street" v="Schriber Road"/><tag k="addr:housenumber" v="11722"/><tag k="coa:place_id" v="1145925"/></node><node id="-290" lat="30.064747" lon="-97.674797" changeset="false"><tag k="addr:street" v="Bock Road"/><tag k="addr:housenumber" v="9515"/><tag k="coa:place_id" v="3276766"/></node><node id="-291" lat="30.118971" lon="-97.68995" changeset="false"><tag k="addr:street" v="Lambert Lane"/><tag k="addr:housenumber" v="10501"/><tag k="coa:place_id" v="3346746"/></node><node id="-292" lat="30.105579" lon="-97.685253" changeset="false"><tag k="addr:street" v="Tiffany Trail"/><tag k="addr:housenumber" v="453"/><tag k="coa:place_id" v="3307312"/></node><node id="-293" lat="30.065989" lon="-97.674047" changeset="false"><tag k="addr:street" v="Bock Road"/><tag k="addr:housenumber" v="9604"/><tag k="coa:place_id" v="3294367"/></node><node id="-294" lat="30.138145" lon="-97.676408" changeset="false"><tag k="addr:street" v="Farm-to-Market Road 973 South"/><tag k="addr:housenumber" v="8119"/><tag k="coa:place_id" v="125753"/></node><node id="-295" lat="30.077583" lon="-97.645546" changeset="false"><tag k="addr:street" v="Pocmont Trail"/><tag k="addr:housenumber" v="15102"/><tag k="coa:place_id" v="3280980"/></node><node id="-296" lat="30.076643" lon="-97.645271" changeset="false"><tag k="addr:street" v="Pocmont Trail"/><tag k="addr:housenumber" v="15106"/><tag k="coa:place_id" v="3280984"/></node><node id="-297" lat="30.105345" lon="-97.672794" changeset="false"><tag k="addr:street" v="Von Quintus Road"/><tag k="addr:housenumber" v="12201"/><tag k="coa:place_id" v="5052780"/></node><node id="-298" lat="30.065584" lon="-97.671361" changeset="false"><tag k="addr:street" v="Bock Road"/><tag k="addr:housenumber" v="9721"/><tag k="coa:place_id" v="3347804"/></node><node id="-299" lat="30.125834" lon="-97.67476" changeset="false"><tag k="addr:street" v="Moore Road"/><tag k="addr:housenumber" v="11204"/><tag k="coa:place_id" v="110161"/></node><node id="-300" lat="30.13587" lon="-97.675438" changeset="false"><tag k="addr:street" v="Citation Avenue"/><tag k="addr:housenumber" v="8219"/><tag k="coa:place_id" v="834663"/></node><node id="-301" lat="30.157875" lon="-97.681283" changeset="false"><tag k="addr:street" v="Farm-to-Market Road 812"/><tag k="addr:housenumber" v="9605"/><tag k="coa:place_id" v="3043427"/></node><node id="-302" lat="30.145299" lon="-97.674316" changeset="false"><tag k="addr:street" v="Farm-to-Market Road 973 South"/><tag k="addr:housenumber" v="7704"/><tag k="coa:place_id" v="540165"/></node><node id="-303" lat="30.083596" lon="-97.645733" changeset="false"><tag k="addr:street" v="Eilers Road"/><tag k="addr:housenumber" v="14804"/><tag k="coa:place_id" v="1146189"/></node><node id="-304" lat="30.081064" lon="-97.664187" changeset="false"><tag k="addr:street" v="Maha Loop Road,1100"/><tag k="addr:housenumber" v="13710"/><tag k="coa:place_id" v="1146075"/></node><node id="-305" lat="30.138357" lon="-97.675056" changeset="false"><tag k="addr:street" v="Farm-to-Market Road 973 South"/><tag k="addr:housenumber" v="8105"/><tag k="coa:place_id" v="128396"/></node><node id="-306" lat="30.137413" lon="-97.65957" changeset="false"><tag k="addr:street" v="Farm-to-Market Road 812"/><tag k="addr:housenumber" v="11701"/><tag k="coa:place_id" v="465376"/></node><node id="-307" lat="30.079846" lon="-97.640363" changeset="false"><tag k="addr:street" v="Doyle Overton Road"/><tag k="addr:housenumber" v="11316"/><tag k="coa:place_id" v="1146204"/></node><node id="-308" lat="30.06603" lon="-97.667654" changeset="false"><tag k="addr:street" v="Bock Road"/><tag k="addr:housenumber" v="10002"/><tag k="coa:place_id" v="96121"/></node><node id="-309" lat="30.060146" lon="-97.67034" changeset="false"><tag k="addr:street" v="Caldvis Road"/><tag k="addr:housenumber" v="12300"/><tag k="coa:place_id" v="1145793"/></node><node id="-310" lat="30.104421" lon="-97.616632" changeset="false"><tag k="addr:street" v="Farm-to-Market Road 812"/><tag k="addr:housenumber" v="15815"/><tag k="coa:place_id" v="3361570"/></node><node id="-311" lat="30.102967" lon="-97.681343" changeset="false"><tag k="addr:street" v="Tiffany Trail"/><tag k="addr:housenumber" v="185"/><tag k="coa:place_id" v="3307308"/></node><node id="-312" lat="30.065519" lon="-97.669638" changeset="false"><tag k="addr:street" v="Bock Road"/><tag k="addr:housenumber" v="9811"/><tag k="coa:place_id" v="3347796"/></node><node id="-313" lat="30.102066" lon="-97.680651" changeset="false"><tag k="addr:street" v="Tiffany Trail"/><tag k="addr:housenumber" v="167"/><tag k="coa:place_id" v="5187488"/></node><node id="-314" lat="30.138934" lon="-97.673126" changeset="false"><tag k="addr:street" v="Farm-to-Market Road 973 South"/><tag k="addr:housenumber" v="8017"/><tag k="coa:place_id" v="3117796"/></node><node id="-315" lat="30.097453" lon="-97.633729" changeset="false"><tag k="addr:street" v="Hokanson Road"/><tag k="addr:housenumber" v="14928"/><tag k="coa:place_id" v="3364957"/></node><node id="-316" lat="30.116012" lon="-97.683325" changeset="false"><tag k="addr:street" v="Lambert Lane"/><tag k="addr:housenumber" v="11005"/><tag k="coa:place_id" v="3346741"/></node><node id="-317" lat="30.064468" lon="-97.675826" changeset="false"><tag k="addr:street" v="Bock Road"/><tag k="addr:housenumber" v="9501"/><tag k="coa:place_id" v="3276767"/></node><node id="-318" lat="30.090514" lon="-97.627151" changeset="false"><tag k="addr:street" v="Hokanson Road"/><tag k="addr:housenumber" v="15707"/><tag k="coa:place_id" v="3256627"/></node><node id="-319" lat="30.065561" lon="-97.676276" changeset="false"><tag k="addr:street" v="Bock Road"/><tag k="addr:housenumber" v="9426"/><tag k="coa:place_id" v="3294357"/></node><node id="-320" lat="30.125952" lon="-97.676066" changeset="false"><tag k="addr:street" v="Moore Road"/><tag k="addr:housenumber" v="11108"/><tag k="coa:place_id" v="3133932"/></node><node id="-321" lat="30.094001" lon="-97.683212" changeset="false"><tag k="addr:street" v="Maha Loop Road"/><tag k="addr:housenumber" v="11519"/><tag k="coa:place_id" v="3190914"/></node><node id="-322" lat="30.103812" lon="-97.68121" changeset="false"><tag k="addr:street" v="Tiffany Trail"/><tag k="addr:housenumber" v="240"/><tag k="coa:place_id" v="3307307"/></node><node id="-323" lat="30.14947" lon="-97.673185" changeset="false"><tag k="addr:street" v="Farm-to-Market Road 812"/><tag k="addr:housenumber" v="10439"/><tag k="coa:place_id" v="3315175"/></node><node id="-324" lat="30.104852" lon="-97.673059" changeset="false"><tag k="addr:street" v="Von Quintus Road"/><tag k="addr:housenumber" v="12205"/><tag k="coa:place_id" v="5060278"/></node><node id="-325" lat="30.101387" lon="-97.636046" changeset="false"><tag k="addr:street" v="Hokanson Road"/><tag k="addr:housenumber" v="14600"/><tag k="coa:place_id" v="5120850"/></node><node id="-326" lat="30.141748" lon="-97.674681" changeset="false"><tag k="addr:street" v="Farm-to-Market Road 973 South"/><tag k="addr:housenumber" v="7919"/><tag k="coa:place_id" v="660368"/></node><node id="-327" lat="30.102625" lon="-97.614652" changeset="false"><tag k="addr:street" v="Farm-to-Market Road 812"/><tag k="addr:housenumber" v="15915"/><tag k="coa:place_id" v="3271584"/></node><node id="-328" lat="30.094884" lon="-97.686583" changeset="false"><tag k="addr:street" v="Von Quintus Road"/><tag k="addr:housenumber" v="11721"/><tag k="coa:place_id" v="5068364"/></node><node id="-329" lat="30.1287" lon="-97.683466" changeset="false"><tag k="addr:street" v="Moore Road"/><tag k="addr:housenumber" v="10505"/><tag k="coa:place_id" v="3364753"/></node><node id="-330" lat="30.075706" lon="-97.681118" changeset="false"><tag k="addr:street" v="Bullet Pass"/><tag k="addr:housenumber" v="8707"/><tag k="coa:place_id" v="3381254"/></node><node id="-331" lat="30.071142" lon="-97.647263" changeset="false"><tag k="addr:street" v="Doyle Overton Road"/><tag k="addr:housenumber" v="11712"/><tag k="coa:place_id" v="3347835"/></node><node id="-332" lat="30.104195" lon="-97.616321" changeset="false"><tag k="addr:street" v="Farm-to-Market Road 812"/><tag k="addr:housenumber" v="15821"/><tag k="coa:place_id" v="3347871"/></node><node id="-333" lat="30.142543" lon="-97.673991" changeset="false"><tag k="addr:street" v="Farm-to-Market Road 973 South"/><tag k="addr:housenumber" v="7907"/><tag k="coa:place_id" v="130137"/></node><node id="-334" lat="30.135452" lon="-97.677701" changeset="false"><tag k="addr:street" v="Man O War Avenue"/><tag k="addr:housenumber" v="10603"/><tag k="coa:place_id" v="660860"/></node><node id="-335" lat="30.065996" lon="-97.665949" changeset="false"><tag k="addr:street" v="Bock Road"/><tag k="addr:housenumber" v="10104"/><tag k="coa:place_id" v="5214460"/></node><node id="-336" lat="30.122821" lon="-97.688977" changeset="false"><tag k="addr:street" v="Farm-to-Market Road 973 South"/><tag k="addr:housenumber" v="9004"/><tag k="coa:place_id" v="3222894"/></node><node id="-337" lat="30.119668" lon="-97.665492" changeset="false"><tag k="addr:street" v="Moore Road"/><tag k="addr:housenumber" v="12101 1/2"/><tag k="coa:place_id" v="3264485"/></node><node id="-338" lat="30.065764" lon="-97.664188" changeset="false"><tag k="addr:street" v="Bock Road"/><tag k="addr:housenumber" v="10203"/><tag k="coa:place_id" v="3691734"/></node><node id="-339" lat="30.100613" lon="-97.622894" changeset="false"><tag k="addr:street" v="Farm-to-Market Road 812"/><tag k="addr:housenumber" v="15605"/><tag k="coa:place_id" v="5119300"/></node><node id="-340" lat="30.158457" lon="-97.681435" changeset="false"><tag k="addr:street" v="Farm-to-Market Road 812"/><tag k="addr:housenumber" v="9521"/><tag k="coa:place_id" v="5056845"/></node><node id="-341" lat="30.104887" lon="-97.685259" changeset="false"><tag k="addr:street" v="Tiffany Trail"/><tag k="addr:housenumber" v="427"/><tag k="coa:place_id" v="3307311"/></node><node id="-342" lat="30.113476" lon="-97.681236" changeset="false"><tag k="addr:street" v="Lambert Lane"/><tag k="addr:housenumber" v="11143"/><tag k="coa:place_id" v="3346738"/></node><node id="-343" lat="30.104287" lon="-97.618209" changeset="false"><tag k="addr:street" v="Farm-to-Market Road 812"/><tag k="addr:housenumber" v="15701"/><tag k="coa:place_id" v="3512096"/></node><node id="-344" lat="30.074212" lon="-97.676009" changeset="false"><tag k="addr:street" v="Schriber Road"/><tag k="addr:housenumber" v="11600"/><tag k="coa:place_id" v="5071641"/></node><node id="-345" lat="30.103171" lon="-97.629894" changeset="false"><tag k="addr:street" v="Peterson Road"/><tag k="addr:housenumber" v="10011"/><tag k="coa:place_id" v="1158231"/></node><node id="-346" lat="30.065602" lon="-97.670858" changeset="false"><tag k="addr:street" v="Bock Road"/><tag k="addr:housenumber" v="9725"/><tag k="coa:place_id" v="3347805"/></node><node id="-347" lat="30.065544" lon="-97.668183" changeset="false"><tag k="addr:street" v="Bock Road"/><tag k="addr:housenumber" v="9909"/><tag k="coa:place_id" v="3347783"/></node><node id="-348" lat="30.065488" lon="-97.670455" changeset="false"><tag k="addr:street" v="Bock Road"/><tag k="addr:housenumber" v="9801"/><tag k="coa:place_id" v="3347795"/></node><node id="-349" lat="30.083993" lon="-97.646399" changeset="false"><tag k="addr:street" v="Eilers Road"/><tag k="addr:housenumber" v="14802"/><tag k="coa:place_id" v="3425638"/></node><node id="-350" lat="30.095305" lon="-97.684876" changeset="false"><tag k="addr:street" v="Maha Loop Road"/><tag k="addr:housenumber" v="11547"/><tag k="coa:place_id" v="3190904"/></node><node id="-351" lat="30.096063" lon="-97.683941" changeset="false"><tag k="addr:street" v="Maha Loop Road"/><tag k="addr:housenumber" v="11543"/><tag k="coa:place_id" v="3190908"/></node><node id="-352" lat="30.071818" lon="-97.676647" changeset="false"><tag k="addr:street" v="Schriber Road"/><tag k="addr:housenumber" v="11637"/><tag k="coa:place_id" v="96109"/></node><node id="-353" lat="30.13601" lon="-97.674879" changeset="false"><tag k="addr:street" v="Citation Avenue"/><tag k="addr:housenumber" v="8215"/><tag k="coa:place_id" v="834657"/></node><node id="-354" lat="30.110819" lon="-97.669886" changeset="false"><tag k="addr:street" v="Blocker Lane"/><tag k="addr:housenumber" v="9605"/><tag k="coa:place_id" v="797625"/></node><node id="-355" lat="30.116548" lon="-97.691058" changeset="false"><tag k="addr:street" v="Farm-to-Market Road 973 South"/><tag k="addr:housenumber" v="9301"/><tag k="coa:place_id" v="180577"/></node><node id="-356" lat="30.136297" lon="-97.678511" changeset="false"><tag k="addr:street" v="Man O War Avenue"/><tag k="addr:housenumber" v="10506"/><tag k="coa:place_id" v="660908"/></node><node id="-357" lat="30.119487" lon="-97.665485" changeset="false"><tag k="addr:street" v="Moore Road"/><tag k="addr:housenumber" v="12101"/><tag k="coa:place_id" v="153805"/></node><node id="-358" lat="30.090756" lon="-97.645794" changeset="false"><tag k="addr:street" v="Reynero Lane"/><tag k="addr:housenumber" v="14509"/><tag k="coa:place_id" v="3224781"/></node><node id="-359" lat="30.087431" lon="-97.641854" changeset="false"><tag k="addr:street" v="Reynero Lane"/><tag k="addr:housenumber" v="14901"/><tag k="coa:place_id" v="3223244"/></node><node id="-360" lat="30.103541" lon="-97.687773" changeset="false"><tag k="addr:street" v="Maha Loop Road"/><tag k="addr:housenumber" v="11682"/><tag k="coa:place_id" v="3336971"/></node><node id="-361" lat="30.066021" lon="-97.669967" changeset="false"><tag k="addr:street" v="Bock Road"/><tag k="addr:housenumber" v="9804"/><tag k="coa:place_id" v="3347797"/></node><node id="-362" lat="30.089537" lon="-97.6282" changeset="false"><tag k="addr:street" v="Doyle Overton Road"/><tag k="addr:housenumber" v="10743"/><tag k="coa:place_id" v="3190738"/></node><node id="-363" lat="30.096692" lon="-97.633581" changeset="false"><tag k="addr:street" v="Hokanson Road"/><tag k="addr:housenumber" v="15008"/><tag k="coa:place_id" v="5119245"/></node><node id="-364" lat="30.136503" lon="-97.676515" changeset="false"><tag k="addr:street" v="Ponder Lane"/><tag k="addr:housenumber" v="10606"/><tag k="coa:place_id" v="138249"/></node><node id="-365" lat="30.081632" lon="-97.6383" changeset="false"><tag k="addr:street" v="Doyle Overton Road"/><tag k="addr:housenumber" v="11208"/><tag k="coa:place_id" v="1146195"/></node><node id="-366" lat="30.126601" lon="-97.679148" changeset="false"><tag k="addr:street" v="Moore Road"/><tag k="addr:housenumber" v="10819"/><tag k="coa:place_id" v="660326"/></node><node id="-367" lat="30.124588" lon="-97.672243" changeset="false"><tag k="addr:street" v="Moore Road"/><tag k="addr:housenumber" v="11408"/><tag k="coa:place_id" v="117041"/></node><node id="-368" lat="30.124188" lon="-97.671545" changeset="false"><tag k="addr:street" v="Moore Road"/><tag k="addr:housenumber" v="11500"/><tag k="coa:place_id" v="173629"/></node><node id="-369" lat="30.124007" lon="-97.679767" changeset="false"><tag k="addr:street" v="Moore Road"/><tag k="addr:housenumber" v="11145"/><tag k="coa:place_id" v="1162790"/></node><node id="-370" lat="30.117901" lon="-97.66148" changeset="false"><tag k="addr:street" v="Moore Road"/><tag k="addr:housenumber" v="12401"/><tag k="coa:place_id" v="3359526"/></node><node id="-371" lat="30.069208" lon="-97.648196" changeset="false"><tag k="addr:street" v="Doyle Overton Road"/><tag k="addr:housenumber" v="11827"/><tag k="coa:place_id" v="1146032"/></node><node id="-372" lat="30.073316" lon="-97.674893" changeset="false"><tag k="addr:street" v="Schriber Road"/><tag k="addr:housenumber" v="11601"/><tag k="coa:place_id" v="96102"/></node><node id="-373" lat="30.116356" lon="-97.683204" changeset="false"><tag k="addr:street" v="Lambert Lane"/><tag k="addr:housenumber" v="11024"/><tag k="coa:place_id" v="1118050"/></node><node id="-374" lat="30.109477" lon="-97.680394" changeset="false"><tag k="addr:street" v="Sunflower Drive"/><tag k="addr:housenumber" v="9717"/><tag k="coa:place_id" v="3329820"/></node><node id="-375" lat="30.139232" lon="-97.669019" changeset="false"><tag k="addr:street" v="Farm-to-Market Road 812"/><tag k="addr:housenumber" v="11005"/><tag k="coa:place_id" v="108423"/></node><node id="-376" lat="30.114688" lon="-97.680247" changeset="false"><tag k="addr:street" v="Lambert Lane"/><tag k="addr:housenumber" v="11189"/><tag k="coa:place_id" v="3346739"/></node><node id="-377" lat="30.117617" lon="-97.686807" changeset="false"><tag k="addr:street" v="Lambert Lane"/><tag k="addr:housenumber" v="10811"/><tag k="coa:place_id" v="3346744"/></node><node id="-378" lat="30.126934" lon="-97.685213" changeset="false"><tag k="addr:street" v="Farm-to-Market Road 973 South"/><tag k="addr:housenumber" v="8771"/><tag k="coa:place_id" v="3351867"/></node><node id="-379" lat="30.120575" lon="-97.635231" changeset="false"><tag k="addr:street" v="Farm-to-Market Road 812"/><tag k="addr:housenumber" v="13911"/><tag k="coa:place_id" v="659708"/></node><node id="-380" lat="30.066074" lon="-97.675791" changeset="false"><tag k="addr:street" v="Bock Road"/><tag k="addr:housenumber" v="9504"/><tag k="coa:place_id" v="3294358"/></node><node id="-381" lat="30.104774" lon="-97.617411" changeset="false"><tag k="addr:street" v="Farm-to-Market Road 812"/><tag k="addr:housenumber" v="15709"/><tag k="coa:place_id" v="5000971"/></node><node id="-382" lat="30.079796" lon="-97.6627" changeset="false"><tag k="addr:street" v="Maha Loop Road,1100"/><tag k="addr:housenumber" v="13900"/><tag k="coa:place_id" v="3383211"/></node><node id="-383" lat="30.080853" lon="-97.661617" changeset="false"><tag k="addr:street" v="Maha Loop Road,1100"/><tag k="addr:housenumber" v="13904"/><tag k="coa:place_id" v="3383214"/></node><node id="-384" lat="30.129974" lon="-97.682891" changeset="false"><tag k="addr:street" v="Farm-to-Market Road 973 South"/><tag k="addr:housenumber" v="8525"/><tag k="coa:place_id" v="660344"/></node><node id="-385" lat="30.129037" lon="-97.68267" changeset="false"><tag k="addr:street" v="Moore Road"/><tag k="addr:housenumber" v="10604"/><tag k="coa:place_id" v="698884"/></node><node id="-386" lat="30.104612" lon="-97.683536" changeset="false"><tag k="addr:street" v="Tiffany Trail"/><tag k="addr:housenumber" v="370"/><tag k="coa:place_id" v="3307297"/></node><node id="-387" lat="30.15863" lon="-97.69261" changeset="false"><tag k="addr:street" v="Viewing Place"/><tag k="addr:housenumber" v="7001"/><tag k="coa:place_id" v="701204"/></node><node id="-388" lat="30.102297" lon="-97.637304" changeset="false"><tag k="addr:street" v="Hokanson Road"/><tag k="addr:housenumber" v="14500"/><tag k="coa:place_id" v="5120846"/></node><node id="-389" lat="30.062607" lon="-97.671625" changeset="false"><tag k="addr:street" v="Caldvis Road"/><tag k="addr:housenumber" v="12227"/><tag k="coa:place_id" v="1145787"/></node><node id="-390" lat="30.104937" lon="-97.642546" changeset="false"><tag k="addr:street" v="Hokanson Road"/><tag k="addr:housenumber" v="14104"/><tag k="coa:place_id" v="660158"/></node><node id="-391" lat="30.093945" lon="-97.682452" changeset="false"><tag k="addr:street" v="Maha Loop Road"/><tag k="addr:housenumber" v="11507"/><tag k="coa:place_id" v="1145988"/></node><node id="-392" lat="30.093416" lon="-97.681084" changeset="false"><tag k="addr:street" v="Maha Loop Road"/><tag k="addr:housenumber" v="11423"/><tag k="coa:place_id" v="1145992"/></node><node id="-393" lat="30.073784" lon="-97.645153" changeset="false"><tag k="addr:street" v="Doyle Overton Road"/><tag k="addr:housenumber" v="11600"/><tag k="coa:place_id" v="1146168"/></node><node id="-394" lat="30.114784" lon="-97.628874" changeset="false"><tag k="addr:street" v="Farm-to-Market Road 812"/><tag k="addr:housenumber" v="14513"/><tag k="coa:place_id" v="659834"/></node><node id="-395" lat="30.102065" lon="-97.631156" changeset="false"><tag k="addr:street" v="Peterson Road"/><tag k="addr:housenumber" v="10019"/><tag k="coa:place_id" v="1158233"/></node><node id="-396" lat="30.119853" lon="-97.668052" changeset="false"><tag k="addr:street" v="Blocker Lane"/><tag k="addr:housenumber" v="9033"/><tag k="coa:place_id" v="3119399"/></node><node id="-397" lat="30.103246" lon="-97.670053" changeset="false"><tag k="addr:street" v="Von Quintus Road"/><tag k="addr:housenumber" v="12415"/><tag k="coa:place_id" v="164358"/></node><node id="-398" lat="30.135737" lon="-97.677093" changeset="false"><tag k="addr:street" v="Man O War Avenue"/><tag k="addr:housenumber" v="10604"/><tag k="coa:place_id" v="660884"/></node><node id="-399" lat="30.067796" lon="-97.681505" changeset="false"><tag k="addr:street" v="Schriber Road"/><tag k="addr:housenumber" v="11901"/><tag k="coa:place_id" v="3033253"/></node><node id="-400" lat="30.064411" lon="-97.679019" changeset="false"><tag k="addr:street" v="Laws Road"/><tag k="addr:housenumber" v="12100"/><tag k="coa:place_id" v="1145950"/></node><node id="-401" lat="30.122831" lon="-97.687456" changeset="false"><tag k="addr:street" v="Farm-to-Market Road 973 South"/><tag k="addr:housenumber" v="8925"/><tag k="coa:place_id" v="3071117"/></node><node id="-402" lat="30.082378" lon="-97.637537" changeset="false"><tag k="addr:street" v="Doyle Overton Road"/><tag k="addr:housenumber" v="11118"/><tag k="coa:place_id" v="1146193"/></node><node id="-403" lat="30.081782" lon="-97.637095" changeset="false"><tag k="addr:street" v="Doyle Overton Road"/><tag k="addr:housenumber" v="11209"/><tag k="coa:place_id" v="1146198"/></node><node id="-404" lat="30.079252" lon="-97.639831" changeset="false"><tag k="addr:street" v="Doyle Overton Road"/><tag k="addr:housenumber" v="11319"/><tag k="coa:place_id" v="1146206"/></node><node id="-405" lat="30.102611" lon="-97.678502" changeset="false"><tag k="addr:street" v="Von Quintus Road"/><tag k="addr:housenumber" v="12001"/><tag k="coa:place_id" v="130764"/></node><node id="-406" lat="30.134515" lon="-97.677462" changeset="false"><tag k="addr:street" v="Citation Avenue"/><tag k="addr:housenumber" v="8313"/><tag k="coa:place_id" v="660782"/></node><node id="-407" lat="30.104686" lon="-97.671446" changeset="false"><tag k="addr:street" v="Von Quintus Road"/><tag k="addr:housenumber" v="12304"/><tag k="coa:place_id" v="163625"/></node><node id="-408" lat="30.105993" lon="-97.674968" changeset="false"><tag k="addr:street" v="Von Quintus Road"/><tag k="addr:housenumber" v="12061"/><tag k="coa:place_id" v="212927"/></node><node id="-409" lat="30.125636" lon="-97.68794" changeset="false"><tag k="addr:street" v="Farm-to-Market Road 973 South"/><tag k="addr:housenumber" v="8880"/><tag k="coa:place_id" v="3148452"/></node><node id="-410" lat="30.096907" lon="-97.619946" changeset="false"><tag k="addr:street" v="Doyle Overton Road,1100"/><tag k="addr:housenumber" v="10360"/><tag k="coa:place_id" v="228126"/></node><node id="-411" lat="30.096754" lon="-97.66278" changeset="false"><tag k="addr:street" v="Von Quintus Road"/><tag k="addr:housenumber" v="13203"/><tag k="coa:place_id" v="3029118"/></node><node id="-412" lat="30.136923" lon="-97.677673" changeset="false"><tag k="addr:street" v="Ponder Lane"/><tag k="addr:housenumber" v="10514"/><tag k="coa:place_id" v="128187"/></node><node id="-413" lat="30.136693" lon="-97.677036" changeset="false"><tag k="addr:street" v="Ponder Lane"/><tag k="addr:housenumber" v="10602"/><tag k="coa:place_id" v="128121"/></node><node id="-414" lat="30.135365" lon="-97.680309" changeset="false"><tag k="addr:street" v="Farm-to-Market Road 973 South"/><tag k="addr:housenumber" v="8231"/><tag k="coa:place_id" v="3048603"/></node><node id="-415" lat="30.105586" lon="-97.645801" changeset="false"><tag k="addr:street" v="Hokanson Road"/><tag k="addr:housenumber" v="13809"/><tag k="coa:place_id" v="1161465"/></node><node id="-416" lat="30.082247" lon="-97.66539" changeset="false"><tag k="addr:street" v="Maha Loop Road"/><tag k="addr:housenumber" v="11135 1/2"/><tag k="coa:place_id" v="1146068"/></node><node id="-417" lat="30.115152" lon="-97.652686" changeset="false"><tag k="addr:street" v="Moore Road"/><tag k="addr:housenumber" v="13010"/><tag k="coa:place_id" v="537682"/></node><node id="-418" lat="30.113157" lon="-97.683245" changeset="false"><tag k="addr:street" v="Lambert Lane"/><tag k="addr:housenumber" v="11201"/><tag k="coa:place_id" v="1161461"/></node><node id="-419" lat="30.114524" lon="-97.628542" changeset="false"><tag k="addr:street" v="Farm-to-Market Road 812"/><tag k="addr:housenumber" v="14601"/><tag k="coa:place_id" v="659840"/></node><node id="-420" lat="30.141841" lon="-97.668625" changeset="false"><tag k="addr:street" v="Farm-to-Market Road 812"/><tag k="addr:housenumber" v="10905"/><tag k="coa:place_id" v="3049571"/></node><node id="-421" lat="30.140707" lon="-97.671031" changeset="false"><tag k="addr:street" v="Farm-to-Market Road 812"/><tag k="addr:housenumber" v="10717"/><tag k="coa:place_id" v="131700"/></node><node id="-422" lat="30.123167" lon="-97.672371" changeset="false"><tag k="addr:street" v="Moore Road"/><tag k="addr:housenumber" v="11503"/><tag k="coa:place_id" v="611883"/></node><node id="-423" lat="30.125179" lon="-97.688162" changeset="false"><tag k="addr:street" v="Farm-to-Market Road 973 South"/><tag k="addr:housenumber" v="8900"/><tag k="coa:place_id" v="3148453"/></node><node id="-424" lat="30.082697" lon="-97.637153" changeset="false"><tag k="addr:street" v="Doyle Overton Road"/><tag k="addr:housenumber" v="11110"/><tag k="coa:place_id" v="1146192"/></node><node id="-425" lat="30.080573" lon="-97.639591" changeset="false"><tag k="addr:street" v="Doyle Overton Road"/><tag k="addr:housenumber" v="11300"/><tag k="coa:place_id" v="1146201"/></node><node id="-426" lat="30.135444" lon="-97.679433" changeset="false"><tag k="addr:street" v="Ruidosa Street"/><tag k="addr:housenumber" v="10503"/><tag k="coa:place_id" v="660698"/></node><node id="-427" lat="30.107552" lon="-97.675798" changeset="false"><tag k="addr:street" v="Sunbonnet Cove"/><tag k="addr:housenumber" v="11901"/><tag k="coa:place_id" v="1032903"/></node><node id="-428" lat="30.105527" lon="-97.672441" changeset="false"><tag k="addr:street" v="Von Quintus Road"/><tag k="addr:housenumber" v="12208"/><tag k="coa:place_id" v="163624"/></node><node id="-429" lat="30.104504" lon="-97.678816" changeset="false"><tag k="addr:street" v="Horizon Lane"/><tag k="addr:housenumber" v="9915"/><tag k="coa:place_id" v="89070"/></node><node id="-430" lat="30.135404" lon="-97.678685" changeset="false"><tag k="addr:street" v="Ruidosa Street"/><tag k="addr:housenumber" v="10504"/><tag k="coa:place_id" v="660848"/></node><node id="-431" lat="30.138415" lon="-97.661207" changeset="false"><tag k="addr:street" v="Farm-to-Market Road 812"/><tag k="addr:housenumber" v="11509"/><tag k="coa:place_id" v="1014464"/></node><node id="-432" lat="30.159555" lon="-97.692414" changeset="false"><tag k="addr:street" v="Viewing Place"/><tag k="addr:housenumber" v="6807"/><tag k="coa:place_id" v="701222"/></node><node id="-433" lat="30.128375" lon="-97.680869" changeset="false"><tag k="addr:street" v="Moore Road"/><tag k="addr:housenumber" v="10710"/><tag k="coa:place_id" v="660350"/></node><node id="-434" lat="30.126689" lon="-97.677284" changeset="false"><tag k="addr:street" v="Moore Road"/><tag k="addr:housenumber" v="11002"/><tag k="coa:place_id" v="312231"/></node><node id="-435" lat="30.101363" lon="-97.618264" changeset="false"><tag k="addr:street" v="Doyle Overton Road,1100"/><tag k="addr:housenumber" v="10224"/><tag k="coa:place_id" v="228121"/></node><node id="-436" lat="30.106668" lon="-97.619694" changeset="false"><tag k="addr:street" v="Farm-to-Market Road 812"/><tag k="addr:housenumber" v="15501"/><tag k="coa:place_id" v="3090388"/></node><node id="-437" lat="30.131288" lon="-97.645931" changeset="false"><tag k="addr:street" v="Farm-to-Market Road 812"/><tag k="addr:housenumber" v="12801"/><tag k="coa:place_id" v="598539"/></node><node id="-438" lat="30.158699" lon="-97.682359" changeset="false"><tag k="addr:street" v="Farm-to-Market Road 812"/><tag k="addr:housenumber" v="9405"/><tag k="coa:place_id" v="663981"/></node><node id="-439" lat="30.082089" lon="-97.666683" changeset="false"><tag k="addr:street" v="Maha Loop Road"/><tag k="addr:housenumber" v="11201"/><tag k="coa:place_id" v="1146070"/></node><node id="-440" lat="30.073445" lon="-97.645858" changeset="false"><tag k="addr:street" v="Doyle Overton Road"/><tag k="addr:housenumber" v="11622"/><tag k="coa:place_id" v="1146079"/></node><node id="-441" lat="30.083351" lon="-97.667046" changeset="false"><tag k="addr:street" v="Maha Loop Road"/><tag k="addr:housenumber" v="11200"/><tag k="coa:place_id" v="1145970"/></node><node id="-442" lat="30.126319" lon="-97.67843" changeset="false"><tag k="addr:street" v="Moore Road"/><tag k="addr:housenumber" v="10911"/><tag k="coa:place_id" v="3046810"/></node><node id="-443" lat="30.090252" lon="-97.677178" changeset="false"><tag k="addr:street" v="Maha Loop Road"/><tag k="addr:housenumber" v="11403"/><tag k="coa:place_id" v="1145994"/></node><node id="-444" lat="30.071864" lon="-97.686847" changeset="false"><tag k="addr:street" v="Evelyn Road"/><tag k="addr:housenumber" v="8500"/><tag k="coa:place_id" v="1145918"/></node><node id="-445" lat="30.123253" lon="-97.669607" changeset="false"><tag k="addr:street" v="Moore Road"/><tag k="addr:housenumber" v="11606"/><tag k="coa:place_id" v="132336"/></node><node id="-446" lat="30.082699" lon="-97.665609" changeset="false"><tag k="addr:street" v="Maha Loop Road"/><tag k="addr:housenumber" v="11134"/><tag k="coa:place_id" v="1146067"/></node><node id="-447" lat="30.080782" lon="-97.638182" changeset="false"><tag k="addr:street" v="Doyle Overton Road"/><tag k="addr:housenumber" v="11217"/><tag k="coa:place_id" v="1146200"/></node><node id="-448" lat="30.076119" lon="-97.642797" changeset="false"><tag k="addr:street" v="Doyle Overton Road"/><tag k="addr:housenumber" v="11435"/><tag k="coa:place_id" v="1146208"/></node><node id="-449" lat="30.105287" lon="-97.675893" changeset="false"><tag k="addr:street" v="Von Quintus Road"/><tag k="addr:housenumber" v="12031"/><tag k="coa:place_id" v="3069501"/></node><node id="-450" lat="30.106193" lon="-97.677502" changeset="false"><tag k="addr:street" v="Horizon Lane"/><tag k="addr:housenumber" v="9900"/><tag k="coa:place_id" v="1111616"/></node><node id="-451" lat="30.090634" lon="-97.655195" changeset="false"><tag k="addr:street" v="Eilers Road"/><tag k="addr:housenumber" v="13911"/><tag k="coa:place_id" v="1146088"/></node><node id="-452" lat="30.13462" lon="-97.678107" changeset="false"><tag k="addr:street" v="Ruidosa Street"/><tag k="addr:housenumber" v="10603"/><tag k="coa:place_id" v="660734"/></node><node id="-453" lat="30.134208" lon="-97.678759" changeset="false"><tag k="addr:street" v="Citation Avenue"/><tag k="addr:housenumber" v="8320"/><tag k="coa:place_id" v="660746"/></node><node id="-454" lat="30.13509" lon="-97.676644" changeset="false"><tag k="addr:street" v="Citation Avenue"/><tag k="addr:housenumber" v="8307"/><tag k="coa:place_id" v="660800"/></node><node id="-455" lat="30.126381" lon="-97.676465" changeset="false"><tag k="addr:street" v="Moore Road"/><tag k="addr:housenumber" v="11100"/><tag k="coa:place_id" v="468849"/></node><node id="-456" lat="30.100164" lon="-97.619586" changeset="false"><tag k="addr:street" v="Doyle Overton Road,1100"/><tag k="addr:housenumber" v="10304"/><tag k="coa:place_id" v="228119"/></node><node id="-457" lat="30.126841" lon="-97.642249" changeset="false"><tag k="addr:street" v="Farm-to-Market Road 812"/><tag k="addr:housenumber" v="13203"/><tag k="coa:place_id" v="660038"/></node><node id="-458" lat="30.13621" lon="-97.674285" changeset="false"><tag k="addr:street" v="Citation Avenue"/><tag k="addr:housenumber" v="8211"/><tag k="coa:place_id" v="834645"/></node><node id="-459" lat="30.123089" lon="-97.665582" changeset="false"><tag k="addr:street" v="Moore Road"/><tag k="addr:housenumber" v="11900"/><tag k="coa:place_id" v="590991"/></node><node id="-460" lat="30.09829" lon="-97.621633" changeset="false"><tag k="addr:street" v="Doyle Overton Road,1100"/><tag k="addr:housenumber" v="10348"/><tag k="coa:place_id" v="228113"/></node><node id="-461" lat="30.075287" lon="-97.680779" changeset="false"><tag k="addr:street" v="Reata Drive"/><tag k="addr:housenumber" v="11504"/><tag k="coa:place_id" v="89074"/></node><node id="-462" lat="30.055246" lon="-97.68758" changeset="false"><tag k="addr:street" v="Laws Road"/><tag k="addr:housenumber" v="12513"/><tag k="coa:place_id" v="1145800"/></node><node id="-463" lat="30.136678" lon="-97.67449" changeset="false"><tag k="addr:street" v="Citation Avenue"/><tag k="addr:housenumber" v="8210"/><tag k="coa:place_id" v="834639"/></node><node id="-464" lat="30.08831" lon="-97.642986" changeset="false"><tag k="addr:street" v="Reynero Lane"/><tag k="addr:housenumber" v="14801"/><tag k="coa:place_id" v="1146214"/></node><node id="-465" lat="30.075146" lon="-97.680291" changeset="false"><tag k="addr:street" v="Bullet Pass"/><tag k="addr:housenumber" v="8805"/><tag k="coa:place_id" v="89080"/></node><node id="-466" lat="30.074062" lon="-97.682986" changeset="false"><tag k="addr:street" v="Reata Drive"/><tag k="addr:housenumber" v="11606"/><tag k="coa:place_id" v="1145908"/></node><node id="-467" lat="30.072159" lon="-97.683585" changeset="false"><tag k="addr:street" v="Saddle Circle"/><tag k="addr:housenumber" v="12904"/><tag k="coa:place_id" v="89085"/></node><node id="-468" lat="30.141604" lon="-97.679237" changeset="false"><tag k="addr:street" v="Farm-to-Market Road 973 South"/><tag k="addr:housenumber" v="8016"/><tag k="coa:place_id" v="1125987"/></node><node id="-469" lat="30.073491" lon="-97.675958" changeset="false"><tag k="addr:street" v="Schriber Road"/><tag k="addr:housenumber" v="11608"/><tag k="coa:place_id" v="5187865"/></node><node id="-470" lat="30.138751" lon="-97.66177" changeset="false"><tag k="addr:street" v="Farm-to-Market Road 812"/><tag k="addr:housenumber" v="11417"/><tag k="coa:place_id" v="245173"/></node><node id="-471" lat="30.127901" lon="-97.679893" changeset="false"><tag k="addr:street" v="Moore Road"/><tag k="addr:housenumber" v="10806"/><tag k="coa:place_id" v="305457"/></node><node id="-472" lat="30.127529" lon="-97.67842" changeset="false"><tag k="addr:street" v="Moore Road"/><tag k="addr:housenumber" v="10900"/><tag k="coa:place_id" v="3103384"/></node><node id="-473" lat="30.119008" lon="-97.691399" changeset="false"><tag k="addr:street" v="Farm-to-Market Road 973 South"/><tag k="addr:housenumber" v="9120"/><tag k="coa:place_id" v="3299910"/></node><node id="-474" lat="30.123504" lon="-97.669887" changeset="false"><tag k="addr:street" v="Moore Road"/><tag k="addr:housenumber" v="11604"/><tag k="coa:place_id" v="696970"/></node><node id="-475" lat="30.158053" lon="-97.693151" changeset="false"><tag k="addr:street" v="Viewing Place"/><tag k="addr:housenumber" v="7005"/><tag k="coa:place_id" v="701192"/></node><node id="-476" lat="30.120652" lon="-97.635559" changeset="false"><tag k="addr:street" v="Farm-to-Market Road 812"/><tag k="addr:housenumber" v="13903"/><tag k="coa:place_id" v="280606"/></node><node id="-477" lat="30.162059" lon="-97.689906" changeset="false"><tag k="addr:street" v="Farm-to-Market Road 812"/><tag k="addr:housenumber" v="8809"/><tag k="coa:place_id" v="701054"/></node><node id="-478" lat="30.064261" lon="-97.679395" changeset="false"><tag k="addr:street" v="Laws Road"/><tag k="addr:housenumber" v="12106"/><tag k="coa:place_id" v="3263331"/></node><node id="-479" lat="30.05161" lon="-97.688189" changeset="false"><tag k="addr:street" v="Laws Road"/><tag k="addr:housenumber" v="12621"/><tag k="coa:place_id" v="3257445"/></node><node id="-480" lat="30.158282" lon="-97.692828" changeset="false"><tag k="addr:street" v="Viewing Place"/><tag k="addr:housenumber" v="7003"/><tag k="coa:place_id" v="701198"/></node><node id="-481" lat="30.102526" lon="-97.630882" changeset="false"><tag k="addr:street" v="Peterson Road"/><tag k="addr:housenumber" v="10017"/><tag k="coa:place_id" v="1158232"/></node><node id="-482" lat="30.109442" lon="-97.647899" changeset="false"><tag k="addr:street" v="Hokanson Road"/><tag k="addr:housenumber" v="13508"/><tag k="coa:place_id" v="705801"/></node><node id="-483" lat="30.097141" lon="-97.650895" changeset="false"><tag k="addr:street" v="Becker Lane"/><tag k="addr:housenumber" v="10500"/><tag k="coa:place_id" v="3073839"/></node><node id="-484" lat="30.086578" lon="-97.660374" changeset="false"><tag k="addr:street" v="Maha Loop Road"/><tag k="addr:housenumber" v="10905"/><tag k="coa:place_id" v="1146092"/></node><node id="-485" lat="30.092165" lon="-97.67553" changeset="false"><tag k="addr:street" v="Maha Loop Road"/><tag k="addr:housenumber" v="11400"/><tag k="coa:place_id" v="1145990"/></node><node id="-486" lat="30.137036" lon="-97.677922" changeset="false"><tag k="addr:street" v="Ponder Lane"/><tag k="addr:housenumber" v="10512"/><tag k="coa:place_id" v="128181"/></node><node id="-487" lat="30.136585" lon="-97.674745" changeset="false"><tag k="addr:street" v="Citation Avenue"/><tag k="addr:housenumber" v="8212"/><tag k="coa:place_id" v="243985"/></node><node id="-488" lat="30.133221" lon="-97.681369" changeset="false"><tag k="addr:street" v="Farm-to-Market Road 973 South"/><tag k="addr:housenumber" v="8413"/><tag k="coa:place_id" v="109859"/></node><node id="-489" lat="30.133115" lon="-97.681439" changeset="false"><tag k="addr:street" v="Farm-to-Market Road 973 South"/><tag k="addr:housenumber" v="8415"/><tag k="coa:place_id" v="339705"/></node><node id="-490" lat="30.097363" lon="-97.633109" changeset="false"><tag k="addr:street" v="Hokanson Road"/><tag k="addr:housenumber" v="15000"/><tag k="coa:place_id" v="3223229"/></node><node id="-491" lat="30.141628" lon="-97.675514" changeset="false"><tag k="addr:street" v="Farm-to-Market Road 973 South"/><tag k="addr:housenumber" v="7929"/><tag k="coa:place_id" v="3040943"/></node><node id="-492" lat="30.138995" lon="-97.679294" changeset="false"><tag k="addr:street" v="Farm-to-Market Road 973 South"/><tag k="addr:housenumber" v="8116"/><tag k="coa:place_id" v="3043203"/></node><node id="-493" lat="30.140752" lon="-97.666443" changeset="false"><tag k="addr:street" v="Farm-to-Market Road 812"/><tag k="addr:housenumber" v="11109"/><tag k="coa:place_id" v="686098"/></node><node id="-494" lat="30.142827" lon="-97.673758" changeset="false"><tag k="addr:street" v="Farm-to-Market Road 973 South"/><tag k="addr:housenumber" v="7905"/><tag k="coa:place_id" v="130135"/></node><node id="-495" lat="30.142204" lon="-97.674246" changeset="false"><tag k="addr:street" v="Farm-to-Market Road 973 South"/><tag k="addr:housenumber" v="7915"/><tag k="coa:place_id" v="660380"/></node><node id="-496" lat="30.119395" lon="-97.636365" changeset="false"><tag k="addr:street" v="Farm-to-Market Road 812"/><tag k="addr:housenumber" v="13913"/><tag k="coa:place_id" v="245177"/></node><node id="-497" lat="30.066165" lon="-97.672075" changeset="false"><tag k="addr:street" v="Bock Road"/><tag k="addr:housenumber" v="9700"/><tag k="coa:place_id" v="96131"/></node><node id="-498" lat="30.088187" lon="-97.676598" changeset="false"><tag k="addr:street" v="Maha Loop Road"/><tag k="addr:housenumber" v="11365"/><tag k="coa:place_id" v="1145998"/></node><node id="-499" lat="30.086907" lon="-97.672632" changeset="false"><tag k="addr:street" v="Maha Loop Road"/><tag k="addr:housenumber" v="11321"/><tag k="coa:place_id" v="1145999"/></node><node id="-500" lat="30.101207" lon="-97.615211" changeset="false"><tag k="addr:street" v="Doyle Overton Road,1100"/><tag k="addr:housenumber" v="10140"/><tag k="coa:place_id" v="228137"/></node><node id="-501" lat="30.134905" lon="-97.676891" changeset="false"><tag k="addr:street" v="Citation Avenue"/><tag k="addr:housenumber" v="8309"/><tag k="coa:place_id" v="660794"/></node><node id="-502" lat="30.0719" lon="-97.65355" changeset="false"><tag k="addr:street" v="Maha Loop Road,1100"/><tag k="addr:housenumber" v="14900"/><tag k="coa:place_id" v="1146030"/></node><node id="-503" lat="30.072973" lon="-97.690068" changeset="false"><tag k="addr:street" v="Evelyn Road"/><tag k="addr:housenumber" v="8301"/><tag k="coa:place_id" v="1145592"/></node><node id="-504" lat="30.072398" lon="-97.689634" changeset="false"><tag k="addr:street" v="Evelyn Road"/><tag k="addr:housenumber" v="8303"/><tag k="coa:place_id" v="1145594"/></node><node id="-505" lat="30.158257" lon="-97.681313" changeset="false"><tag k="addr:street" v="Farm-to-Market Road 812"/><tag k="addr:housenumber" v="9601 1/2"/><tag k="coa:place_id" v="1137927"/></node><node id="-506" lat="30.129201" lon="-97.643467" changeset="false"><tag k="addr:street" v="Farm-to-Market Road 812"/><tag k="addr:housenumber" v="13115"/><tag k="coa:place_id" v="318802"/></node><node id="-507" lat="30.136505" lon="-97.677953" changeset="false"><tag k="addr:street" v="Ponder Lane"/><tag k="addr:housenumber" v="10513"/><tag k="coa:place_id" v="128127"/></node><node id="-508" lat="30.081289" lon="-97.638717" changeset="false"><tag k="addr:street" v="Doyle Overton Road"/><tag k="addr:housenumber" v="11216"/><tag k="coa:place_id" v="1146197"/></node><node id="-509" lat="30.079124" lon="-97.639017" changeset="false"><tag k="addr:street" v="Doyle Overton Road"/><tag k="addr:housenumber" v="11317"/><tag k="coa:place_id" v="1146207"/></node><node id="-510" lat="30.083699" lon="-97.648202" changeset="false"><tag k="addr:street" v="Eilers Road"/><tag k="addr:housenumber" v="14715"/><tag k="coa:place_id" v="1146059"/></node><node id="-511" lat="30.093948" lon="-97.651117" changeset="false"><tag k="addr:street" v="Becker Lane"/><tag k="addr:housenumber" v="10535"/><tag k="coa:place_id" v="1146087"/></node><node id="-512" lat="30.08019" lon="-97.639957" changeset="false"><tag k="addr:street" v="Doyle Overton Road"/><tag k="addr:housenumber" v="11310"/><tag k="coa:place_id" v="1146203"/></node></osm>