<?xml version="1.0" encoding="UTF-8"?><osm version="0.6" generator="github.com/aaronlidman/osm-and-geojson"><node id="-1" lat="30.224928" lon="-97.774503" changeset="false"><tag k="addr:street" v="James Casey Street"/><tag k="addr:housenumber" v="4214"/><tag k="addr:postcode" v="78745"/></node><node id="-2" lat="30.223582" lon="-97.776015" changeset="false"><tag k="addr:street" v="James Casey Street"/><tag k="addr:housenumber" v="4316"/><tag k="addr:postcode" v="78745"/></node><node id="-3" lat="30.221233" lon="-97.773632" changeset="false"><tag k="addr:street" v="West Saint Elmo Road"/><tag k="addr:housenumber" v="607"/><tag k="addr:postcode" v="78745"/></node><node id="-4" lat="30.226516" lon="-97.770399" changeset="false"><tag k="addr:street" v="West Ben White Boulevard"/><tag k="addr:housenumber" v="627"/><tag k="addr:postcode" v="78745"/></node><node id="-5" lat="30.219135" lon="-97.778004" changeset="false"><tag k="addr:street" v="Philco Drive"/><tag k="addr:housenumber" v="807"/><tag k="addr:postcode" v="78745"/></node><node id="-6" lat="30.22008" lon="-97.77753" changeset="false"><tag k="addr:street" v="Vinson Drive"/><tag k="addr:housenumber" v="4511"/><tag k="addr:postcode" v="78745"/></node><node id="-7" lat="30.224709" lon="-97.772182" changeset="false"><tag k="addr:street" v="Radam Lane"/><tag k="addr:housenumber" v="613"/><tag k="addr:postcode" v="78745"/></node><node id="-8" lat="30.223794" lon="-97.775179" changeset="false"><tag k="addr:street" v="James Casey Street"/><tag k="addr:housenumber" v="4316 1/2"/><tag k="addr:postcode" v="78745"/></node><node id="-9" lat="30.222068" lon="-97.775344" changeset="false"><tag k="addr:street" v="West Saint Elmo Road"/><tag k="addr:housenumber" v="715"/><tag k="addr:postcode" v="78745"/></node><node id="-10" lat="30.222818" lon="-97.775583" changeset="false"><tag k="addr:street" v="James Casey Street"/><tag k="addr:housenumber" v="4312"/><tag k="addr:postcode" v="78745"/></node><node id="-11" lat="30.22462" lon="-97.774697" changeset="false"><tag k="addr:street" v="James Casey Street"/><tag k="addr:housenumber" v="4306"/><tag k="addr:postcode" v="78745"/></node><node id="-12" lat="30.222723" lon="-97.775334" changeset="false"><tag k="addr:street" v="James Casey Street"/><tag k="addr:housenumber" v="4333"/><tag k="addr:postcode" v="78745"/></node><node id="-13" lat="30.224184" lon="-97.773004" changeset="false"><tag k="addr:street" v="Clifford Drive"/><tag k="addr:housenumber" v="703"/><tag k="addr:postcode" v="78745"/></node><node id="-14" lat="30.219492" lon="-97.775119" changeset="false"><tag k="addr:street" v="South 2nd Street"/><tag k="addr:housenumber" v="4513"/><tag k="addr:postcode" v="78745"/></node><node id="-15" lat="30.216681" lon="-97.777552" changeset="false"><tag k="addr:street" v="Raintree Boulevard"/><tag k="addr:housenumber" v="4625"/><tag k="addr:postcode" v="78745"/></node><node id="-16" lat="30.226543" lon="-97.770456" changeset="false"><tag k="addr:street" v="West Ben White Boulevard"/><tag k="addr:housenumber" v="631"/><tag k="addr:postcode" v="78745"/></node><node id="-17" lat="30.226944" lon="-97.775037" changeset="false"><tag k="addr:street" v="West Ben White Boulevard"/><tag k="addr:housenumber" v="1001"/><tag k="addr:postcode" v="78745"/></node><node id="-18" lat="30.224882" lon="-97.770972" changeset="false"><tag k="addr:street" v="South 1st Street"/><tag k="addr:housenumber" v="4116"/><tag k="addr:postcode" v="78745"/></node><node id="-19" lat="30.225491" lon="-97.772926" changeset="false"><tag k="addr:street" v="Radam Lane"/><tag k="addr:housenumber" v="620"/><tag k="addr:postcode" v="78745"/></node><node id="-20" lat="30.225441" lon="-97.773845" changeset="false"><tag k="addr:street" v="James Casey Street"/><tag k="addr:housenumber" v="4203"/><tag k="addr:postcode" v="78745"/></node><node id="-21" lat="30.225191" lon="-97.772513" changeset="false"><tag k="addr:street" v="Radam Lane"/><tag k="addr:housenumber" v="616"/><tag k="addr:postcode" v="78745"/></node><node id="-22" lat="30.222743" lon="-97.77606" changeset="false"><tag k="addr:street" v="West Saint Elmo Road"/><tag k="addr:housenumber" v="804"/><tag k="addr:postcode" v="78745"/></node><node id="-23" lat="30.223203" lon="-97.77172" changeset="false"><tag k="addr:street" v="South 1st Street"/><tag k="addr:housenumber" v="4222"/><tag k="addr:postcode" v="78745"/></node><node id="-24" lat="30.224705" lon="-97.774634" changeset="false"><tag k="addr:street" v="James Casey Street"/><tag k="addr:housenumber" v="4302"/><tag k="addr:postcode" v="78745"/></node><node id="-25" lat="30.216021" lon="-97.788481" changeset="false"><tag k="addr:street" v="Meadow Creek Circle"/><tag k="addr:housenumber" v="5307"/><tag k="addr:postcode" v="78745"/></node><node id="-26" lat="30.224368" lon="-97.775553" changeset="false"><tag k="addr:street" v="James Casey Street"/><tag k="addr:housenumber" v="4310"/><tag k="addr:postcode" v="78745"/></node><node id="-27" lat="30.221044" lon="-97.773373" changeset="false"><tag k="addr:street" v="West Saint Elmo Road"/><tag k="addr:housenumber" v="601"/><tag k="addr:postcode" v="78745"/></node><node id="-28" lat="30.215923" lon="-97.788284" changeset="false"><tag k="addr:street" v="Meadow Creek Circle"/><tag k="addr:housenumber" v="5305"/><tag k="addr:postcode" v="78745"/></node><node id="-29" lat="30.22448" lon="-97.773689" changeset="false"><tag k="addr:street" v="James Casey Street"/><tag k="addr:housenumber" v="4215"/><tag k="addr:postcode" v="78745"/></node><node id="-30" lat="30.212798" lon="-97.779075" changeset="false"><tag k="addr:street" v="Emerald Wood Drive"/><tag k="addr:housenumber" v="611"/><tag k="addr:postcode" v="78745"/></node><node id="-31" lat="30.226413" lon="-97.770174" changeset="false"><tag k="addr:street" v="West Ben White Boulevard"/><tag k="addr:housenumber" v="613"/><tag k="addr:postcode" v="78745"/></node><node id="-32" lat="30.224646" lon="-97.774683" changeset="false"><tag k="addr:street" v="James Casey Street"/><tag k="addr:housenumber" v="4304"/><tag k="addr:postcode" v="78745"/></node><node id="-33" lat="30.226048" lon="-97.773553" changeset="false"><tag k="addr:street" v="James Casey Street"/><tag k="addr:housenumber" v="4101"/><tag k="addr:postcode" v="78745"/></node><node id="-34" lat="30.224437" lon="-97.772874" changeset="false"><tag k="addr:street" v="Clifford Drive"/><tag k="addr:housenumber" v="704"/><tag k="addr:postcode" v="78745"/></node><node id="-35" lat="30.225041" lon="-97.774446" changeset="false"><tag k="addr:street" v="James Casey Street"/><tag k="addr:housenumber" v="4210"/><tag k="addr:postcode" v="78745"/></node><node id="-36" lat="30.223087" lon="-97.771796" changeset="false"><tag k="addr:street" v="South 1st Street"/><tag k="addr:housenumber" v="4300"/><tag k="addr:postcode" v="78745"/></node><node id="-37" lat="30.225065" lon="-97.7717" changeset="false"><tag k="addr:street" v="Radam Lane"/><tag k="addr:housenumber" v="608"/><tag k="addr:postcode" v="78745"/></node><node id="-38" lat="30.222254" lon="-97.772612" changeset="false"><tag k="addr:street" v="South 1st Street"/><tag k="addr:housenumber" v="4312"/><tag k="addr:postcode" v="78745"/></node><node id="-39" lat="30.222549" lon="-97.775437" changeset="false"><tag k="addr:street" v="James Casey Street"/><tag k="addr:housenumber" v="4335"/><tag k="addr:postcode" v="78745"/></node><node id="-40" lat="30.218746" lon="-97.778493" changeset="false"><tag k="addr:street" v="Lennox Drive"/><tag k="addr:housenumber" v="4603"/><tag k="addr:postcode" v="78745"/></node><node id="-41" lat="30.212091" lon="-97.779137" changeset="false"><tag k="addr:street" v="South 1st Street"/><tag k="addr:housenumber" v="5120"/><tag k="addr:postcode" v="78745"/></node><node id="-42" lat="30.22403" lon="-97.771991" changeset="false"><tag k="addr:street" v="Clifford Drive"/><tag k="addr:housenumber" v="606"/><tag k="addr:postcode" v="78745"/></node><node id="-43" lat="30.226529" lon="-97.770429" changeset="false"><tag k="addr:street" v="West Ben White Boulevard"/><tag k="addr:housenumber" v="629"/><tag k="addr:postcode" v="78745"/></node><node id="-44" lat="30.221477" lon="-97.774501" changeset="false"><tag k="addr:street" v="South 2nd Street"/><tag k="addr:housenumber" v="4402"/><tag k="addr:postcode" v="78745"/></node><node id="-45" lat="30.224739" lon="-97.774643" changeset="false"><tag k="addr:street" v="James Casey Street"/><tag k="addr:housenumber" v="4300"/><tag k="addr:postcode" v="78745"/></node><node id="-46" lat="30.221231" lon="-97.775158" changeset="false"><tag k="addr:street" v="South 3rd Street"/><tag k="addr:housenumber" v="4409"/><tag k="addr:postcode" v="78745"/></node><node id="-47" lat="30.225759" lon="-97.773531" changeset="false"><tag k="addr:street" v="Radam Lane"/><tag k="addr:housenumber" v="626"/><tag k="addr:postcode" v="78745"/></node><node id="-48" lat="30.224661" lon="-97.774319" changeset="false"><tag k="addr:street" v="James Casey Street"/><tag k="addr:housenumber" v="4305"/><tag k="addr:postcode" v="78745"/></node><node id="-49" lat="30.223958" lon="-97.774527" changeset="false"><tag k="addr:street" v="James Casey Street"/><tag k="addr:housenumber" v="4311"/><tag k="addr:postcode" v="78745"/></node><node id="-50" lat="30.223935" lon="-97.774566" changeset="false"><tag k="addr:street" v="James Casey Street"/><tag k="addr:housenumber" v="4313"/><tag k="addr:postcode" v="78745"/></node><node id="-51" lat="30.225871" lon="-97.773625" changeset="false"><tag k="addr:street" v="Radam Lane"/><tag k="addr:housenumber" v="628"/><tag k="addr:postcode" v="78745"/></node><node id="-52" lat="30.220512" lon="-97.777043" changeset="false"><tag k="addr:street" v="Vinson Drive"/><tag k="addr:housenumber" v="4507"/><tag k="addr:postcode" v="78745"/></node><node id="-53" lat="30.224761" lon="-97.772417" changeset="false"><tag k="addr:street" v="Radam Lane"/><tag k="addr:housenumber" v="615"/><tag k="addr:postcode" v="78745"/></node><node id="-54" lat="30.223133" lon="-97.776444" changeset="false"><tag k="addr:street" v="West Saint Elmo Road"/><tag k="addr:housenumber" v="810"/><tag k="addr:postcode" v="78745"/></node><node id="-55" lat="30.21577" lon="-97.780244" changeset="false"><tag k="addr:street" v="Aberdeen Drive"/><tag k="addr:housenumber" v="4902 1/2"/><tag k="addr:postcode" v="78745"/></node><node id="-56" lat="30.224485" lon="-97.772136" changeset="false"><tag k="addr:street" v="Radam Lane"/><tag k="addr:housenumber" v="611"/><tag k="addr:postcode" v="78745"/></node><node id="-57" lat="30.224065" lon="-97.773007" changeset="false"><tag k="addr:street" v="Clifford Drive"/><tag k="addr:housenumber" v="617"/><tag k="addr:postcode" v="78745"/></node><node id="-58" lat="30.224369" lon="-97.770998" changeset="false"><tag k="addr:street" v="South 1st Street"/><tag k="addr:housenumber" v="4128"/><tag k="addr:postcode" v="78745"/></node><node id="-59" lat="30.22649" lon="-97.77034" changeset="false"><tag k="addr:street" v="West Ben White Boulevard"/><tag k="addr:housenumber" v="623"/><tag k="addr:postcode" v="78745"/></node><node id="-60" lat="30.226904" lon="-97.773011" changeset="false"><tag k="addr:street" v="James Casey Street"/><tag k="addr:housenumber" v="4007"/><tag k="addr:postcode" v="78745"/></node><node id="-61" lat="30.221635" lon="-97.773562" changeset="false"><tag k="addr:street" v="West Saint Elmo Road"/><tag k="addr:housenumber" v="600"/><tag k="addr:postcode" v="78745"/></node><node id="-62" lat="30.212793" lon="-97.778043" changeset="false"><tag k="addr:street" v="South 1st Street"/><tag k="addr:housenumber" v="5111"/><tag k="addr:postcode" v="78745"/></node><node id="-63" lat="30.222994" lon="-97.775132" changeset="false"><tag k="addr:street" v="James Casey Street"/><tag k="addr:housenumber" v="4325"/><tag k="addr:postcode" v="78745"/></node><node id="-64" lat="30.225046" lon="-97.77308" changeset="false"><tag k="addr:street" v="Radam Lane"/><tag k="addr:housenumber" v="621"/><tag k="addr:postcode" v="78745"/></node><node id="-65" lat="30.22678" lon="-97.771384" changeset="false"><tag k="addr:street" v="West Ben White Boulevard"/><tag k="addr:housenumber" v="701"/><tag k="addr:postcode" v="78745"/></node><node id="-66" lat="30.222237" lon="-97.775833" changeset="false"><tag k="addr:street" v="West Saint Elmo Road"/><tag k="addr:housenumber" v="801"/><tag k="addr:postcode" v="78745"/></node><node id="-67" lat="30.224612" lon="-97.774349" changeset="false"><tag k="addr:street" v="James Casey Street"/><tag k="addr:housenumber" v="4309"/><tag k="addr:postcode" v="78745"/></node><node id="-68" lat="30.225244" lon="-97.773648" changeset="false"><tag k="addr:street" v="Radam Lane"/><tag k="addr:housenumber" v="627"/><tag k="addr:postcode" v="78745"/></node><node id="-69" lat="30.224556" lon="-97.773647" changeset="false"><tag k="addr:street" v="James Casey Street"/><tag k="addr:housenumber" v="4209"/><tag k="addr:postcode" v="78745"/></node><node id="-70" lat="30.224719" lon="-97.774293" changeset="false"><tag k="addr:street" v="James Casey Street"/><tag k="addr:housenumber" v="4301"/><tag k="addr:postcode" v="78745"/></node><node id="-71" lat="30.22443" lon="-97.772847" changeset="false"><tag k="addr:street" v="Clifford Drive"/><tag k="addr:housenumber" v="702"/><tag k="addr:postcode" v="78745"/></node><node id="-72" lat="30.224018" lon="-97.774308" changeset="false"><tag k="addr:street" v="James Casey Street"/><tag k="addr:housenumber" v="4307"/><tag k="addr:postcode" v="78745"/></node><node id="-73" lat="30.225733" lon="-97.770859" changeset="false"><tag k="addr:street" v="West Ben White Boulevard"/><tag k="addr:housenumber" v="611"/><tag k="addr:postcode" v="78745"/></node><node id="-74" lat="30.225887" lon="-97.771106" changeset="false"><tag k="addr:street" v="West Ben White Boulevard"/><tag k="addr:housenumber" v="625"/><tag k="addr:postcode" v="78745"/></node><node id="-75" lat="30.220937" lon="-97.7742" changeset="false"><tag k="addr:street" v="South 2nd Street"/><tag k="addr:housenumber" v="4407"/><tag k="addr:postcode" v="78745"/></node><node id="-76" lat="30.221062" lon="-97.774128" changeset="false"><tag k="addr:street" v="South 2nd Street"/><tag k="addr:housenumber" v="4405"/><tag k="addr:postcode" v="78745"/></node></osm>