<?xml version="1.0" encoding="UTF-8"?><osm version="0.6" generator="github.com/aaronlidman/osm-and-geojson"><node id="-1" lat="30.224834" lon="-97.7739" changeset="false"><tag k="addr:street" v="James Casey Street"/><tag k="addr:housenumber" v="4207"/><tag k="addr:postcode" v="78745"/></node><node id="-2" lat="30.223646" lon="-97.774476" changeset="false"><tag k="addr:street" v="James Casey Street"/><tag k="addr:housenumber" v="4315"/><tag k="addr:postcode" v="78745"/></node><node id="-3" lat="30.224302" lon="-97.774093" changeset="false"><tag k="addr:street" v="James Casey Street"/><tag k="addr:housenumber" v="4303"/><tag k="addr:postcode" v="78745"/></node><node id="-4" lat="30.223088" lon="-97.774481" changeset="false"><tag k="addr:street" v="James Casey Street"/><tag k="addr:housenumber" v="4319"/><tag k="addr:postcode" v="78745"/></node><node id="-5" lat="30.226378" lon="-97.774422" changeset="false"><tag k="addr:street" v="West Ben White Boulevard"/><tag k="addr:housenumber" v="901"/><tag k="addr:postcode" v="78745"/></node><node id="-6" lat="30.218658" lon="-97.775294" changeset="false"><tag k="addr:street" v="South 2nd Street"/><tag k="addr:housenumber" v="4523"/><tag k="addr:postcode" v="78745"/></node></osm>