<?xml version="1.0" encoding="UTF-8"?><osm version="0.6" generator="github.com/aaronlidman/osm-and-geojson"><node id="-1" lat="30.291902" lon="-97.735356" changeset="false"><tag k="addr:street" v="San Jacinto Boulevard"/><tag k="addr:housenumber" v="2825"/><tag k="coa:place_id" v="250471"/></node><node id="-2" lat="30.294284" lon="-97.733879" changeset="false"><tag k="addr:street" v="Tom Green Street"/><tag k="addr:housenumber" v="3117"/><tag k="coa:place_id" v="598196"/></node><node id="-3" lat="30.293262" lon="-97.73362" changeset="false"><tag k="addr:street" v="Duval Street"/><tag k="addr:housenumber" v="3104"/><tag k="coa:place_id" v="598034"/></node><node id="-4" lat="30.292944" lon="-97.733682" changeset="false"><tag k="addr:street" v="Duval Street"/><tag k="addr:housenumber" v="3100"/><tag k="coa:place_id" v="244859"/></node><node id="-5" lat="30.292718" lon="-97.73496" changeset="false"><tag k="addr:street" v="East 30th Street"/><tag k="addr:housenumber" v="400"/><tag k="coa:place_id" v="628802"/></node><node id="-6" lat="30.293683" lon="-97.734004" changeset="false"><tag k="addr:street" v="Tom Green Street"/><tag k="addr:housenumber" v="3107"/><tag k="coa:place_id" v="598142"/></node><node id="-7" lat="30.295713" lon="-97.735255" changeset="false"><tag k="addr:street" v="East 32nd Street"/><tag k="addr:housenumber" v="209"/><tag k="coa:place_id" v="597866"/></node><node id="-8" lat="30.293878" lon="-97.733869" changeset="false"><tag k="addr:street" v="Tom Green Street"/><tag k="addr:housenumber" v="3111"/><tag k="coa:place_id" v="963855"/></node><node id="-9" lat="30.292834" lon="-97.73431" changeset="false"><tag k="addr:street" v="East 31st Street"/><tag k="addr:housenumber" v="405"/><tag k="coa:place_id" v="590204"/></node><node id="-10" lat="30.294614" lon="-97.734645" changeset="false"><tag k="addr:street" v="Moore Boulevard"/><tag k="addr:housenumber" v="308 1/2"/><tag k="coa:place_id" v="598352"/></node><node id="-11" lat="30.29244" lon="-97.735185" changeset="false"><tag k="addr:street" v="East 30th Street"/><tag k="addr:housenumber" v="401"/><tag k="coa:place_id" v="628928"/></node><node id="-12" lat="30.294763" lon="-97.73313" changeset="false"><tag k="addr:street" v="East 32nd Street"/><tag k="addr:housenumber" v="407 1/2"/><tag k="coa:place_id" v="597908"/></node><node id="-13" lat="30.294458" lon="-97.734625" changeset="false"><tag k="addr:street" v="Walling Drive"/><tag k="addr:housenumber" v="3106"/><tag k="coa:place_id" v="598490"/></node><node id="-14" lat="30.293102" lon="-97.734649" changeset="false"><tag k="addr:street" v="East 31st Street"/><tag k="addr:housenumber" v="311"/><tag k="coa:place_id" v="590198"/></node><node id="-15" lat="30.293923" lon="-97.733333" changeset="false"><tag k="addr:street" v="Benelva Drive"/><tag k="addr:housenumber" v="3113"/><tag k="coa:place_id" v="242453"/></node><node id="-16" lat="30.293046" lon="-97.733855" changeset="false"><tag k="addr:street" v="East 31st Street"/><tag k="addr:housenumber" v="404"/><tag k="coa:place_id" v="309321"/></node><node id="-17" lat="30.295099" lon="-97.735042" changeset="false"><tag k="addr:street" v="Grooms Street"/><tag k="addr:housenumber" v="3111"/><tag k="coa:place_id" v="245896"/></node><node id="-18" lat="30.294807" lon="-97.735138" changeset="false"><tag k="addr:street" v="Moore Boulevard"/><tag k="addr:housenumber" v="303"/><tag k="coa:place_id" v="598394"/></node><node id="-19" lat="30.29392" lon="-97.733083" changeset="false"><tag k="addr:street" v="Benelva Drive"/><tag k="addr:housenumber" v="3115"/><tag k="coa:place_id" v="598124"/></node><node id="-20" lat="30.293444" lon="-97.734529" changeset="false"><tag k="addr:street" v="Tom Green Street"/><tag k="addr:housenumber" v="3100 1/2"/><tag k="coa:place_id" v="598322"/></node><node id="-21" lat="30.2931" lon="-97.733607" changeset="false"><tag k="addr:street" v="Duval Street"/><tag k="addr:housenumber" v="3102"/><tag k="coa:place_id" v="598052"/></node><node id="-22" lat="30.291853" lon="-97.734503" changeset="false"><tag k="addr:street" v="East 30th Street"/><tag k="addr:housenumber" v="415"/><tag k="coa:place_id" v="629042"/></node><node id="-23" lat="30.293692" lon="-97.734178" changeset="false"><tag k="addr:street" v="Tom Green Street"/><tag k="addr:housenumber" v="3107 1/2"/><tag k="coa:place_id" v="598148"/></node><node id="-24" lat="30.294795" lon="-97.733383" changeset="false"><tag k="addr:street" v="East 32nd Street"/><tag k="addr:housenumber" v="405"/><tag k="coa:place_id" v="253353"/></node><node id="-25" lat="30.292333" lon="-97.735085" changeset="false"><tag k="addr:street" v="East 30th Street"/><tag k="addr:housenumber" v="403"/><tag k="coa:place_id" v="264363"/></node><node id="-26" lat="30.293505" lon="-97.733508" changeset="false"><tag k="addr:street" v="Duval Street"/><tag k="addr:housenumber" v="3106"/><tag k="coa:place_id" v="590210"/></node><node id="-27" lat="30.293202" lon="-97.733798" changeset="false"><tag k="addr:street" v="Benelva Drive"/><tag k="addr:housenumber" v="3103"/><tag k="coa:place_id" v="242449"/></node><node id="-28" lat="30.295134" lon="-97.734205" changeset="false"><tag k="addr:street" v="Walling Drive"/><tag k="addr:housenumber" v="3112"/><tag k="coa:place_id" v="252004"/></node><node id="-29" lat="30.295146" lon="-97.734334" changeset="false"><tag k="addr:street" v="East 32nd Street"/><tag k="addr:housenumber" v="309"/><tag k="coa:place_id" v="598454"/></node><node id="-30" lat="30.293942" lon="-97.734313" changeset="false"><tag k="addr:street" v="Tom Green Street"/><tag k="addr:housenumber" v="3104"/><tag k="coa:place_id" v="251506"/></node><node id="-31" lat="30.293872" lon="-97.734315" changeset="false"><tag k="addr:street" v="Tom Green Street"/><tag k="addr:housenumber" v="3108"/><tag k="coa:place_id" v="198894"/></node><node id="-32" lat="30.291382" lon="-97.734704" changeset="false"><tag k="addr:street" v="Duval Street"/><tag k="addr:housenumber" v="2900"/><tag k="coa:place_id" v="629048"/></node><node id="-33" lat="30.291733" lon="-97.735115" changeset="false"><tag k="addr:street" v="San Jacinto Boulevard"/><tag k="addr:housenumber" v="2819"/><tag k="coa:place_id" v="629066"/></node><node id="-34" lat="30.291558" lon="-97.734917" changeset="false"><tag k="addr:street" v="San Jacinto Boulevard"/><tag k="addr:housenumber" v="2807"/><tag k="coa:place_id" v="590246"/></node><node id="-35" lat="30.291625" lon="-97.735002" changeset="false"><tag k="addr:street" v="San Jacinto Boulevard"/><tag k="addr:housenumber" v="2809"/><tag k="coa:place_id" v="3286056"/></node><node id="-36" lat="30.291801" lon="-97.735186" changeset="false"><tag k="addr:street" v="San Jacinto Boulevard"/><tag k="addr:housenumber" v="2821"/><tag k="coa:place_id" v="629072"/></node><node id="-37" lat="30.291503" lon="-97.734872" changeset="false"><tag k="addr:street" v="San Jacinto Boulevard"/><tag k="addr:housenumber" v="2805"/><tag k="coa:place_id" v="590240"/></node><node id="-38" lat="30.295199" lon="-97.735623" changeset="false"><tag k="addr:street" v="Grooms Street"/><tag k="addr:housenumber" v="3108"/><tag k="coa:place_id" v="598754"/></node><node id="-39" lat="30.29509" lon="-97.735866" changeset="false"><tag k="addr:street" v="East 31st Street"/><tag k="addr:housenumber" v="114"/><tag k="coa:place_id" v="508989"/></node><node id="-40" lat="30.295111" lon="-97.736445" changeset="false"><tag k="addr:street" v="East 31st Street"/><tag k="addr:housenumber" v="106"/><tag k="coa:place_id" v="598766"/></node><node id="-41" lat="30.295193" lon="-97.736543" changeset="false"><tag k="addr:street" v="East 31st Street"/><tag k="addr:housenumber" v="104"/><tag k="coa:place_id" v="598772"/></node><node id="-42" lat="30.294914" lon="-97.735331" changeset="false"><tag k="addr:street" v="Grooms Street"/><tag k="addr:housenumber" v="3107"/><tag k="coa:place_id" v="598502"/></node><node id="-43" lat="30.29491" lon="-97.735231" changeset="false"><tag k="addr:street" v="Moore Boulevard"/><tag k="addr:housenumber" v="301"/><tag k="coa:place_id" v="598388"/></node><node id="-44" lat="30.294244" lon="-97.736707" changeset="false"><tag k="addr:street" v="East 30th Street"/><tag k="addr:housenumber" v="106"/><tag k="coa:place_id" v="656247"/></node><node id="-45" lat="30.294096" lon="-97.736654" changeset="false"><tag k="addr:street" v="East 30th Street"/><tag k="addr:housenumber" v="108"/><tag k="coa:place_id" v="629282"/></node><node id="-46" lat="30.293047" lon="-97.73536" changeset="false"><tag k="addr:street" v="East 30th Street"/><tag k="addr:housenumber" v="304 1/2"/><tag k="coa:place_id" v="220029"/></node><node id="-47" lat="30.292926" lon="-97.735459" changeset="false"><tag k="addr:street" v="East 30th Street"/><tag k="addr:housenumber" v="304"/><tag k="coa:place_id" v="628892"/></node></osm>