<?xml version="1.0" encoding="UTF-8"?><osm version="0.6" generator="github.com/aaronlidman/osm-and-geojson"><node id="-1" lat="30.441387" lon="-97.763844" changeset="false"><tag k="addr:street" v="Los Indios Trail"/><tag k="addr:housenumber" v="12420"/></node><node id="-2" lat="30.441344" lon="-97.764754" changeset="false"><tag k="addr:street" v="Los Indios Trail"/><tag k="addr:housenumber" v="12410"/></node><node id="-3" lat="30.446064" lon="-97.758322" changeset="false"><tag k="addr:street" v="Marimba Trail"/><tag k="addr:housenumber" v="12933 1/2"/></node><node id="-4" lat="30.44177" lon="-97.76458" changeset="false"><tag k="addr:street" v="Oro Valley Trail"/><tag k="addr:housenumber" v="12407"/></node><node id="-5" lat="30.445448" lon="-97.761581" changeset="false"><tag k="addr:street" v="Margit Drive"/><tag k="addr:housenumber" v="12802"/></node><node id="-6" lat="30.445648" lon="-97.759364" changeset="false"><tag k="addr:street" v="Marimba Trail"/><tag k="addr:housenumber" v="12919"/></node><node id="-7" lat="30.44704" lon="-97.757677" changeset="false"><tag k="addr:street" v="Tamayo Drive"/><tag k="addr:housenumber" v="13018"/></node><node id="-8" lat="30.449068" lon="-97.760928" changeset="false"><tag k="addr:street" v="Humphrey Drive"/><tag k="addr:housenumber" v="13009 1/2"/></node><node id="-9" lat="30.44239" lon="-97.764639" changeset="false"><tag k="addr:street" v="Oro Valley Trail"/><tag k="addr:housenumber" v="12505"/></node><node id="-10" lat="30.444844" lon="-97.764243" changeset="false"><tag k="addr:street" v="Modena Trail"/><tag k="addr:housenumber" v="12602"/></node><node id="-11" lat="30.441938" lon="-97.764595" changeset="false"><tag k="addr:street" v="Oro Valley Trail"/><tag k="addr:housenumber" v="12409"/></node><node id="-12" lat="30.444802" lon="-97.762572" changeset="false"><tag k="addr:street" v="Margit Drive"/><tag k="addr:housenumber" v="12708"/></node><node id="-13" lat="30.442528" lon="-97.764577" changeset="false"><tag k="addr:street" v="Oro Valley Trail"/><tag k="addr:housenumber" v="12507"/></node><node id="-14" lat="30.445802" lon="-97.761572" changeset="false"><tag k="addr:street" v="Modena Trail"/><tag k="addr:housenumber" v="12807"/></node><node id="-15" lat="30.44746" lon="-97.758641" changeset="false"><tag k="addr:street" v="Grovedale Trail"/><tag k="addr:housenumber" v="7602"/></node><node id="-16" lat="30.442076" lon="-97.764601" changeset="false"><tag k="addr:street" v="Oro Valley Trail"/><tag k="addr:housenumber" v="12501"/></node><node id="-17" lat="30.445567" lon="-97.759452" changeset="false"><tag k="addr:street" v="Marimba Trail"/><tag k="addr:housenumber" v="12917"/></node><node id="-18" lat="30.441374" lon="-97.764568" changeset="false"><tag k="addr:street" v="Los Indios Trail"/><tag k="addr:housenumber" v="12412"/></node><node id="-19" lat="30.443816" lon="-97.763319" changeset="false"><tag k="addr:street" v="Lonesome Dove Cove"/><tag k="addr:housenumber" v="7805"/></node><node id="-20" lat="30.445731" lon="-97.759268" changeset="false"><tag k="addr:street" v="Marimba Trail"/><tag k="addr:housenumber" v="12921"/></node><node id="-21" lat="30.44323" lon="-97.762509" changeset="false"><tag k="addr:street" v="Marimba Trail"/><tag k="addr:housenumber" v="12601"/></node><node id="-22" lat="30.444275" lon="-97.763751" changeset="false"><tag k="addr:street" v="Lonesome Dove Cove"/><tag k="addr:housenumber" v="7800"/></node><node id="-23" lat="30.448837" lon="-97.761608" changeset="false"><tag k="addr:street" v="Partridge Bend Drive"/><tag k="addr:housenumber" v="13005"/></node><node id="-24" lat="30.444441" lon="-97.763251" changeset="false"><tag k="addr:street" v="Olympiad Drive"/><tag k="addr:housenumber" v="12620"/></node><node id="-25" lat="30.442917" lon="-97.764324" changeset="false"><tag k="addr:street" v="Oro Valley Trail"/><tag k="addr:housenumber" v="12601"/></node><node id="-26" lat="30.444924" lon="-97.76031" changeset="false"><tag k="addr:street" v="Marimba Trail"/><tag k="addr:housenumber" v="12807"/></node><node id="-27" lat="30.444978" lon="-97.760265" changeset="false"><tag k="addr:street" v="Marimba Trail"/><tag k="addr:housenumber" v="12901"/></node><node id="-28" lat="30.448405" lon="-97.760795" changeset="false"><tag k="addr:street" v="Van Dyke Drive"/><tag k="addr:housenumber" v="7807"/></node><node id="-29" lat="30.44838" lon="-97.76066" changeset="false"><tag k="addr:street" v="Van Dyke Drive"/><tag k="addr:housenumber" v="7805"/></node></osm>