<?xml version="1.0" encoding="UTF-8"?><osm version="0.6" generator="github.com/aaronlidman/osm-and-geojson"><node id="-1" lat="30.297606" lon="-97.761216" changeset="false"><tag k="addr:street" v="Greenlee Drive"/><tag k="addr:housenumber" v="2201"/><tag k="coa:place_id" v="372956"/></node><node id="-2" lat="30.294305" lon="-97.759871" changeset="false"><tag k="addr:street" v="Winsted Lane"/><tag k="addr:housenumber" v="2423"/><tag k="coa:place_id" v="933818"/></node><node id="-3" lat="30.301305" lon="-97.760071" changeset="false"><tag k="addr:street" v="Westover Road"/><tag k="addr:housenumber" v="2204"/><tag k="coa:place_id" v="417188"/></node><node id="-4" lat="30.301884" lon="-97.761245" changeset="false"><tag k="addr:street" v="Westover Road"/><tag k="addr:housenumber" v="2400"/><tag k="coa:place_id" v="417224"/></node><node id="-5" lat="30.300491" lon="-97.763923" changeset="false"><tag k="addr:street" v="Mc Cullough Street"/><tag k="addr:housenumber" v="2505"/><tag k="coa:place_id" v="152874"/></node><node id="-6" lat="30.303064" lon="-97.763732" changeset="false"><tag k="addr:street" v="Westover Road"/><tag k="addr:housenumber" v="2610"/><tag k="coa:place_id" v="417308"/></node><node id="-7" lat="30.302991" lon="-97.763539" changeset="false"><tag k="addr:street" v="Westover Road"/><tag k="addr:housenumber" v="2608"/><tag k="coa:place_id" v="417302"/></node><node id="-8" lat="30.29514" lon="-97.759814" changeset="false"><tag k="addr:street" v="Winsted Lane"/><tag k="addr:housenumber" v="2505"/><tag k="coa:place_id" v="224763"/></node><node id="-9" lat="30.303162" lon="-97.764114" changeset="false"><tag k="addr:street" v="Exposition Boulevard"/><tag k="addr:housenumber" v="2701"/><tag k="coa:place_id" v="657680"/></node><node id="-10" lat="30.296793" lon="-97.767947" changeset="false"><tag k="addr:street" v="Windsor Road"/><tag k="addr:housenumber" v="3118"/><tag k="coa:place_id" v="388694"/></node><node id="-11" lat="30.300512" lon="-97.760608" changeset="false"><tag k="addr:street" v="Bonita Street"/><tag k="addr:housenumber" v="2202"/><tag k="coa:place_id" v="416780"/></node><node id="-12" lat="30.294633" lon="-97.759828" changeset="false"><tag k="addr:street" v="Winsted Lane"/><tag k="addr:housenumber" v="2501"/><tag k="coa:place_id" v="371882"/></node><node id="-13" lat="30.296238" lon="-97.760474" changeset="false"><tag k="addr:street" v="Tower Drive"/><tag k="addr:housenumber" v="2007"/><tag k="coa:place_id" v="372362"/></node><node id="-14" lat="30.296916" lon="-97.75964" changeset="false"><tag k="addr:street" v="Winsted Lane"/><tag k="addr:housenumber" v="2520"/><tag k="coa:place_id" v="371942"/></node><node id="-15" lat="30.299414" lon="-97.759528" changeset="false"><tag k="addr:street" v="Margranita Crescent"/><tag k="addr:housenumber" v="28"/><tag k="coa:place_id" v="416750"/></node><node id="-16" lat="30.293003" lon="-97.761248" changeset="false"><tag k="addr:street" v="Windsor Road"/><tag k="addr:housenumber" v="2710"/><tag k="coa:place_id" v="335522"/></node><node id="-17" lat="30.294858" lon="-97.763489" changeset="false"><tag k="addr:street" v="Mc Call Road"/><tag k="addr:housenumber" v="2419"/><tag k="coa:place_id" v="335810"/></node><node id="-18" lat="30.301213" lon="-97.759885" changeset="false"><tag k="addr:street" v="Westover Road"/><tag k="addr:housenumber" v="2202"/><tag k="coa:place_id" v="417182"/></node><node id="-19" lat="30.296888" lon="-97.760839" changeset="false"><tag k="addr:street" v="Tower Drive"/><tag k="addr:housenumber" v="2106"/><tag k="coa:place_id" v="372422"/></node><node id="-20" lat="30.29532" lon="-97.759584" changeset="false"><tag k="addr:street" v="Winsted Lane"/><tag k="addr:housenumber" v="2507 1/2"/><tag k="coa:place_id" v="3167322"/></node><node id="-21" lat="30.30197" lon="-97.761421" changeset="false"><tag k="addr:street" v="Westover Road"/><tag k="addr:housenumber" v="2402"/><tag k="coa:place_id" v="417236"/></node><node id="-22" lat="30.294954" lon="-97.762787" changeset="false"><tag k="addr:street" v="Indian Trail"/><tag k="addr:housenumber" v="2202"/><tag k="coa:place_id" v="336536"/></node><node id="-23" lat="30.299868" lon="-97.764272" changeset="false"><tag k="addr:street" v="Greenlee Drive"/><tag k="addr:housenumber" v="2504"/><tag k="coa:place_id" v="152877"/></node><node id="-24" lat="30.300782" lon="-97.765159" changeset="false"><tag k="addr:street" v="Exposition Boulevard"/><tag k="addr:housenumber" v="2601"/><tag k="coa:place_id" v="416318"/></node><node id="-25" lat="30.293687" lon="-97.761" changeset="false"><tag k="addr:street" v="Indian Trail"/><tag k="addr:housenumber" v="2005"/><tag k="coa:place_id" v="360621"/></node><node id="-26" lat="30.302246" lon="-97.762004" changeset="false"><tag k="addr:street" v="Westover Road"/><tag k="addr:housenumber" v="2500"/><tag k="coa:place_id" v="417254"/></node><node id="-27" lat="30.298629" lon="-97.765025" changeset="false"><tag k="addr:street" v="Tower Drive"/><tag k="addr:housenumber" v="2501"/><tag k="coa:place_id" v="372596"/></node><node id="-28" lat="30.298438" lon="-97.76195" changeset="false"><tag k="addr:street" v="Greenlee Drive"/><tag k="addr:housenumber" v="2208"/><tag k="coa:place_id" v="372980"/></node><node id="-29" lat="30.302711" lon="-97.762988" changeset="false"><tag k="addr:street" v="Westover Road"/><tag k="addr:housenumber" v="2602"/><tag k="coa:place_id" v="417284"/></node><node id="-30" lat="30.296809" lon="-97.764303" changeset="false"><tag k="addr:street" v="Keating Lane"/><tag k="addr:housenumber" v="2503"/><tag k="coa:place_id" v="3184170"/></node><node id="-31" lat="30.29636" lon="-97.767533" changeset="false"><tag k="addr:street" v="Windsor Road"/><tag k="addr:housenumber" v="3102"/><tag k="coa:place_id" v="388682"/></node><node id="-32" lat="30.302432" lon="-97.762386" changeset="false"><tag k="addr:street" v="Westover Road"/><tag k="addr:housenumber" v="2504"/><tag k="coa:place_id" v="417266"/></node><node id="-33" lat="30.294492" lon="-97.764075" changeset="false"><tag k="addr:street" v="Mc Call Road"/><tag k="addr:housenumber" v="2410"/><tag k="coa:place_id" v="335828"/></node><node id="-34" lat="30.296669" lon="-97.764381" changeset="false"><tag k="addr:street" v="Keating Lane"/><tag k="addr:housenumber" v="2501"/><tag k="coa:place_id" v="372062"/></node><node id="-35" lat="30.296328" lon="-97.759373" changeset="false"><tag k="addr:street" v="Winsted Lane"/><tag k="addr:housenumber" v="2517"/><tag k="coa:place_id" v="372380"/></node><node id="-36" lat="30.296851" lon="-97.766807" changeset="false"><tag k="addr:street" v="Spring Lane"/><tag k="addr:housenumber" v="2409"/><tag k="coa:place_id" v="3176242"/></node><node id="-37" lat="30.295059" lon="-97.761063" changeset="false"><tag k="addr:street" v="Bowman Avenue"/><tag k="addr:housenumber" v="2100"/><tag k="coa:place_id" v="1160128"/></node><node id="-38" lat="30.295429" lon="-97.763645" changeset="false"><tag k="addr:street" v="Indian Trail"/><tag k="addr:housenumber" v="2300"/><tag k="coa:place_id" v="5062680"/></node><node id="-39" lat="30.300335" lon="-97.760174" changeset="false"><tag k="addr:street" v="Bland Street"/><tag k="addr:housenumber" v="2604"/><tag k="coa:place_id" v="3748394"/></node><node id="-40" lat="30.294625" lon="-97.764017" changeset="false"><tag k="addr:street" v="Mc Call Road"/><tag k="addr:housenumber" v="2412"/><tag k="coa:place_id" v="3523742"/></node><node id="-41" lat="30.298684" lon="-97.765154" changeset="false"><tag k="addr:street" v="Tower Drive"/><tag k="addr:housenumber" v="2503"/><tag k="coa:place_id" v="372608"/></node><node id="-42" lat="30.297787" lon="-97.759437" changeset="false"><tag k="addr:street" v="Winsted Lane"/><tag k="addr:housenumber" v="2528"/><tag k="coa:place_id" v="371936"/></node><node id="-43" lat="30.302605" lon="-97.762768" changeset="false"><tag k="addr:street" v="Westover Road"/><tag k="addr:housenumber" v="2600"/><tag k="coa:place_id" v="417278"/></node><node id="-44" lat="30.294896" lon="-97.759795" changeset="false"><tag k="addr:street" v="Winsted Lane"/><tag k="addr:housenumber" v="2503"/><tag k="coa:place_id" v="416218"/></node><node id="-45" lat="30.300674" lon="-97.760996" changeset="false"><tag k="addr:street" v="Bonita Street"/><tag k="addr:housenumber" v="2206"/><tag k="coa:place_id" v="416792"/></node><node id="-46" lat="30.295294" lon="-97.764238" changeset="false"><tag k="addr:street" v="Indian Trail"/><tag k="addr:housenumber" v="2309"/><tag k="coa:place_id" v="335948"/></node><node id="-47" lat="30.302811" lon="-97.763195" changeset="false"><tag k="addr:street" v="Westover Road"/><tag k="addr:housenumber" v="2604"/><tag k="coa:place_id" v="417290"/></node><node id="-48" lat="30.296839" lon="-97.761379" changeset="false"><tag k="addr:street" v="Tower Drive"/><tag k="addr:housenumber" v="2201"/><tag k="coa:place_id" v="372332"/></node><node id="-49" lat="30.294622" lon="-97.762032" changeset="false"><tag k="addr:street" v="Indian Trail"/><tag k="addr:housenumber" v="2110"/><tag k="coa:place_id" v="336512"/></node><node id="-50" lat="30.296641" lon="-97.766986" changeset="false"><tag k="addr:street" v="Indian Trail"/><tag k="addr:housenumber" v="2613"/><tag k="coa:place_id" v="336296"/></node><node id="-51" lat="30.295709" lon="-97.760132" changeset="false"><tag k="addr:street" v="Winsted Lane"/><tag k="addr:housenumber" v="2510"/><tag k="coa:place_id" v="371900"/></node><node id="-52" lat="30.3022" lon="-97.763959" changeset="false"><tag k="addr:street" v="Exposition Boulevard"/><tag k="addr:housenumber" v="2627"/><tag k="coa:place_id" v="128205"/></node><node id="-53" lat="30.296549" lon="-97.767749" changeset="false"><tag k="addr:street" v="Windsor Road"/><tag k="addr:housenumber" v="3108"/><tag k="coa:place_id" v="336266"/></node><node id="-54" lat="30.301678" lon="-97.760854" changeset="false"><tag k="addr:street" v="Westover Road"/><tag k="addr:housenumber" v="2304"/><tag k="coa:place_id" v="417212"/></node><node id="-55" lat="30.29575" lon="-97.760087" changeset="false"><tag k="addr:street" v="Tower Drive"/><tag k="addr:housenumber" v="2009"/><tag k="coa:place_id" v="224762"/></node><node id="-56" lat="30.302897" lon="-97.763376" changeset="false"><tag k="addr:street" v="Westover Road"/><tag k="addr:housenumber" v="2606"/><tag k="coa:place_id" v="417296"/></node><node id="-57" lat="30.293484" lon="-97.762472" changeset="false"><tag k="addr:street" v="Dormarion Lane"/><tag k="addr:housenumber" v="2405"/><tag k="coa:place_id" v="335672"/></node><node id="-58" lat="30.302343" lon="-97.762206" changeset="false"><tag k="addr:street" v="Westover Road"/><tag k="addr:housenumber" v="2502"/><tag k="coa:place_id" v="417260"/></node><node id="-59" lat="30.29449" lon="-97.761758" changeset="false"><tag k="addr:street" v="Indian Trail"/><tag k="addr:housenumber" v="2106"/><tag k="coa:place_id" v="336500"/></node><node id="-60" lat="30.297797" lon="-97.75897" changeset="false"><tag k="addr:street" v="Margranita Crescent"/><tag k="addr:housenumber" v="15"/><tag k="coa:place_id" v="5271004"/></node><node id="-61" lat="30.297918" lon="-97.758923" changeset="false"><tag k="addr:street" v="Margranita Crescent"/><tag k="addr:housenumber" v="17"/><tag k="coa:place_id" v="416666"/></node><node id="-62" lat="30.299818" lon="-97.760159" changeset="false"><tag k="addr:street" v="Margranita Crescent"/><tag k="addr:housenumber" v="36"/><tag k="coa:place_id" v="5078296"/></node><node id="-63" lat="30.299741" lon="-97.760026" changeset="false"><tag k="addr:street" v="Margranita Crescent"/><tag k="addr:housenumber" v="34"/><tag k="coa:place_id" v="416768"/></node><node id="-64" lat="30.300019" lon="-97.764704" changeset="false"><tag k="addr:street" v="Spring Lane"/><tag k="addr:housenumber" v="2601"/><tag k="coa:place_id" v="3124113"/></node><node id="-65" lat="30.29999" lon="-97.764658" changeset="false"><tag k="addr:street" v="Greenlee Drive"/><tag k="addr:housenumber" v="2508"/><tag k="coa:place_id" v="3103856"/></node><node id="-66" lat="30.297902" lon="-97.76469" changeset="false"><tag k="addr:street" v="Janice Drive"/><tag k="addr:housenumber" v="2509"/><tag k="coa:place_id" v="372230"/></node><node id="-67" lat="30.297781" lon="-97.764589" changeset="false"><tag k="addr:street" v="Janice Drive"/><tag k="addr:housenumber" v="2507"/><tag k="coa:place_id" v="372224"/></node><node id="-68" lat="30.300074" lon="-97.765787" changeset="false"><tag k="addr:street" v="Exposition Boulevard"/><tag k="addr:housenumber" v="2531"/><tag k="coa:place_id" v="372854"/></node><node id="-69" lat="30.299906" lon="-97.7659" changeset="false"><tag k="addr:street" v="Exposition Boulevard"/><tag k="addr:housenumber" v="2527"/><tag k="coa:place_id" v="245155"/></node><node id="-70" lat="30.300064" lon="-97.765714" changeset="false"><tag k="addr:street" v="Greenlee Drive"/><tag k="addr:housenumber" v="2615"/><tag k="coa:place_id" v="3042952"/></node><node id="-71" lat="30.298623" lon="-97.766659" changeset="false"><tag k="addr:street" v="Exposition Boulevard"/><tag k="addr:housenumber" v="2511"/><tag k="coa:place_id" v="372788"/></node><node id="-72" lat="30.298572" lon="-97.766704" changeset="false"><tag k="addr:street" v="Exposition Boulevard"/><tag k="addr:housenumber" v="2509"/><tag k="coa:place_id" v="245154"/></node><node id="-73" lat="30.29778" lon="-97.766862" changeset="false"><tag k="addr:street" v="Bowman Avenue"/><tag k="addr:housenumber" v="2604"/><tag k="coa:place_id" v="372764"/></node><node id="-74" lat="30.297755" lon="-97.766638" changeset="false"><tag k="addr:street" v="Spring Lane"/><tag k="addr:housenumber" v="2500"/><tag k="coa:place_id" v="372752"/></node><node id="-75" lat="30.29632" lon="-97.764585" changeset="false"><tag k="addr:street" v="Bowman Avenue"/><tag k="addr:housenumber" v="2317"/><tag k="coa:place_id" v="336782"/></node><node id="-76" lat="30.296221" lon="-97.764696" changeset="false"><tag k="addr:street" v="Keating Lane"/><tag k="addr:housenumber" v="2425"/><tag k="coa:place_id" v="3183817"/></node><node id="-77" lat="30.297351" lon="-97.76682" changeset="false"><tag k="addr:street" v="Spring Lane"/><tag k="addr:housenumber" v="2418"/><tag k="coa:place_id" v="388676"/></node><node id="-78" lat="30.297459" lon="-97.767138" changeset="false"><tag k="addr:street" v="Exposition Boulevard"/><tag k="addr:housenumber" v="2425"/><tag k="coa:place_id" v="388658"/></node><node id="-79" lat="30.296535" lon="-97.767579" changeset="false"><tag k="addr:street" v="Windsor Road"/><tag k="addr:housenumber" v="3106"/><tag k="coa:place_id" v="336260"/></node><node id="-80" lat="30.296671" lon="-97.767776" changeset="false"><tag k="addr:street" v="Windsor Road"/><tag k="addr:housenumber" v="3110"/><tag k="coa:place_id" v="388688"/></node><node id="-81" lat="30.296682" lon="-97.767931" changeset="false"><tag k="addr:street" v="Windsor Road"/><tag k="addr:housenumber" v="3112"/><tag k="coa:place_id" v="252731"/></node></osm>