<?xml version="1.0" encoding="UTF-8"?><osm version="0.6" generator="github.com/aaronlidman/osm-and-geojson"><node id="-1" lat="30.354887" lon="-97.729407" changeset="false"><tag k="addr:street" v="West Anderson Lane"/><tag k="addr:housenumber" v="2155"/><tag k="coa:place_id" v="524438"/></node><node id="-2" lat="30.351166" lon="-97.729229" changeset="false"><tag k="addr:street" v="Hardy Drive"/><tag k="addr:housenumber" v="7608"/><tag k="coa:place_id" v="3101367"/></node><node id="-3" lat="30.353835" lon="-97.731983" changeset="false"><tag k="addr:street" v="Burnet Road"/><tag k="addr:housenumber" v="7717"/><tag k="coa:place_id" v="524318"/></node><node id="-4" lat="30.352106" lon="-97.727753" changeset="false"><tag k="addr:street" v="Barbara Street"/><tag k="addr:housenumber" v="1911"/><tag k="coa:place_id" v="524708"/></node><node id="-5" lat="30.353698" lon="-97.732086" changeset="false"><tag k="addr:street" v="Burnet Road"/><tag k="addr:housenumber" v="7713"/><tag k="coa:place_id" v="271718"/></node><node id="-6" lat="30.348937" lon="-97.729236" changeset="false"><tag k="addr:street" v="Aggie Lane"/><tag k="addr:housenumber" v="1903"/><tag k="coa:place_id" v="523574"/></node><node id="-7" lat="30.35376" lon="-97.732047" changeset="false"><tag k="addr:street" v="Burnet Road"/><tag k="addr:housenumber" v="7715"/><tag k="coa:place_id" v="271724"/></node><node id="-8" lat="30.353353" lon="-97.732264" changeset="false"><tag k="addr:street" v="Burnet Road"/><tag k="addr:housenumber" v="7701"/><tag k="coa:place_id" v="602181"/></node><node id="-9" lat="30.354408" lon="-97.73149" changeset="false"><tag k="addr:street" v="Burnet Road"/><tag k="addr:housenumber" v="7793"/><tag k="coa:place_id" v="273994"/></node><node id="-10" lat="30.353893" lon="-97.731948" changeset="false"><tag k="addr:street" v="Burnet Road"/><tag k="addr:housenumber" v="7719"/><tag k="coa:place_id" v="1034511"/></node><node id="-11" lat="30.35236" lon="-97.724707" changeset="false"><tag k="addr:street" v="Duke Avenue"/><tag k="addr:housenumber" v="1802"/><tag k="coa:place_id" v="559148"/></node><node id="-12" lat="30.349734" lon="-97.730145" changeset="false"><tag k="addr:street" v="Hardy Drive"/><tag k="addr:housenumber" v="7512"/><tag k="coa:place_id" v="523832"/></node><node id="-13" lat="30.354631" lon="-97.728247" changeset="false"><tag k="addr:street" v="West Anderson Lane"/><tag k="addr:housenumber" v="2101"/><tag k="coa:place_id" v="853179"/></node><node id="-14" lat="30.355202" lon="-97.729745" changeset="false"><tag k="addr:street" v="West Anderson Lane"/><tag k="addr:housenumber" v="2211"/><tag k="coa:place_id" v="271766"/></node><node id="-15" lat="30.346346" lon="-97.725054" changeset="false"><tag k="addr:street" v="Richcreek Road"/><tag k="addr:housenumber" v="1502"/><tag k="coa:place_id" v="3101338"/></node><node id="-16" lat="30.350169" lon="-97.729439" changeset="false"><tag k="addr:street" v="Morrow Street"/><tag k="addr:housenumber" v="1915"/><tag k="coa:place_id" v="523706"/></node><node id="-17" lat="30.350329" lon="-97.733475" changeset="false"><tag k="addr:street" v="Richcreek Road"/><tag k="addr:housenumber" v="2308"/><tag k="coa:place_id" v="3360178"/></node><node id="-18" lat="30.350354" lon="-97.728328" changeset="false"><tag k="addr:street" v="Mullen Drive"/><tag k="addr:housenumber" v="7600"/><tag k="coa:place_id" v="803577"/></node><node id="-19" lat="30.354327" lon="-97.729078" changeset="false"><tag k="addr:street" v="West Anderson Lane"/><tag k="addr:housenumber" v="2117"/><tag k="coa:place_id" v="524462"/></node><node id="-20" lat="30.348304" lon="-97.724243" changeset="false"><tag k="addr:street" v="Morrow Street"/><tag k="addr:housenumber" v="1510"/><tag k="coa:place_id" v="200503"/></node><node id="-21" lat="30.348494" lon="-97.726137" changeset="false"><tag k="addr:street" v="Morrow Street"/><tag k="addr:housenumber" v="1709"/><tag k="coa:place_id" v="243476"/></node><node id="-22" lat="30.35324" lon="-97.725618" changeset="false"><tag k="addr:street" v="West Anderson Lane"/><tag k="addr:housenumber" v="1809"/><tag k="coa:place_id" v="271814"/></node><node id="-23" lat="30.350296" lon="-97.72846" changeset="false"><tag k="addr:street" v="Mullen Drive"/><tag k="addr:housenumber" v="7504"/><tag k="coa:place_id" v="5072986"/></node><node id="-24" lat="30.355032" lon="-97.729369" changeset="false"><tag k="addr:street" v="West Anderson Lane"/><tag k="addr:housenumber" v="2203"/><tag k="coa:place_id" v="271772"/></node><node id="-25" lat="30.35446" lon="-97.728988" changeset="false"><tag k="addr:street" v="West Anderson Lane"/><tag k="addr:housenumber" v="2115"/><tag k="coa:place_id" v="524468"/></node><node id="-26" lat="30.35356" lon="-97.732152" changeset="false"><tag k="addr:street" v="Burnet Road"/><tag k="addr:housenumber" v="7711"/><tag k="coa:place_id" v="524282"/></node><node id="-27" lat="30.354734" lon="-97.728658" changeset="false"><tag k="addr:street" v="West Anderson Lane"/><tag k="addr:housenumber" v="2105"/><tag k="coa:place_id" v="524480"/></node><node id="-28" lat="30.347186" lon="-97.725274" changeset="false"><tag k="addr:street" v="Aggie Lane"/><tag k="addr:housenumber" v="1511"/><tag k="coa:place_id" v="3033491"/></node><node id="-29" lat="30.352291" lon="-97.723761" changeset="false"><tag k="addr:street" v="West Anderson Lane"/><tag k="addr:housenumber" v="1707"/><tag k="coa:place_id" v="579742"/></node><node id="-30" lat="30.35221" lon="-97.723581" changeset="false"><tag k="addr:street" v="West Anderson Lane"/><tag k="addr:housenumber" v="1701"/><tag k="coa:place_id" v="254974"/></node><node id="-31" lat="30.350476" lon="-97.723477" changeset="false"><tag k="addr:street" v="Barbara Street"/><tag k="addr:housenumber" v="1501"/><tag k="coa:place_id" v="242229"/></node><node id="-32" lat="30.350258" lon="-97.723448" changeset="false"><tag k="addr:street" v="Woodrow Avenue"/><tag k="addr:housenumber" v="7720"/><tag k="coa:place_id" v="3304676"/></node><node id="-33" lat="30.352831" lon="-97.724833" changeset="false"><tag k="addr:street" v="West Anderson Lane"/><tag k="addr:housenumber" v="1741"/><tag k="coa:place_id" v="524918"/></node><node id="-34" lat="30.352824" lon="-97.724748" changeset="false"><tag k="addr:street" v="West Anderson Lane"/><tag k="addr:housenumber" v="1739"/><tag k="coa:place_id" v="524924"/></node><node id="-35" lat="30.352793" lon="-97.724624" changeset="false"><tag k="addr:street" v="West Anderson Lane"/><tag k="addr:housenumber" v="1725"/><tag k="coa:place_id" v="524936"/></node><node id="-36" lat="30.352923" lon="-97.724958" changeset="false"><tag k="addr:street" v="West Anderson Lane"/><tag k="addr:housenumber" v="1745"/><tag k="coa:place_id" v="240303"/></node><node id="-37" lat="30.353429" lon="-97.725965" changeset="false"><tag k="addr:street" v="West Anderson Lane"/><tag k="addr:housenumber" v="1821"/><tag k="coa:place_id" v="524888"/></node><node id="-38" lat="30.353342" lon="-97.725741" changeset="false"><tag k="addr:street" v="West Anderson Lane"/><tag k="addr:housenumber" v="1815"/><tag k="coa:place_id" v="524912"/></node><node id="-39" lat="30.35337" lon="-97.725812" changeset="false"><tag k="addr:street" v="West Anderson Lane"/><tag k="addr:housenumber" v="1817"/><tag k="coa:place_id" v="524906"/></node><node id="-40" lat="30.353411" lon="-97.725894" changeset="false"><tag k="addr:street" v="West Anderson Lane"/><tag k="addr:housenumber" v="1819"/><tag k="coa:place_id" v="524900"/></node><node id="-41" lat="30.353306" lon="-97.726076" changeset="false"><tag k="addr:street" v="Mullen Drive"/><tag k="addr:housenumber" v="7815"/><tag k="coa:place_id" v="524882"/></node><node id="-42" lat="30.353456" lon="-97.726027" changeset="false"><tag k="addr:street" v="West Anderson Lane"/><tag k="addr:housenumber" v="1823"/><tag k="coa:place_id" v="271808"/></node><node id="-43" lat="30.348019" lon="-97.723857" changeset="false"><tag k="addr:street" v="Woodrow Avenue"/><tag k="addr:housenumber" v="7600"/><tag k="coa:place_id" v="558404"/></node><node id="-44" lat="30.348375" lon="-97.723771" changeset="false"><tag k="addr:street" v="Dartmouth Avenue"/><tag k="addr:housenumber" v="1509"/><tag k="coa:place_id" v="998835"/></node><node id="-45" lat="30.347914" lon="-97.723944" changeset="false"><tag k="addr:street" v="Morrow Street"/><tag k="addr:housenumber" v="1506"/><tag k="coa:place_id" v="243362"/></node><node id="-46" lat="30.34708" lon="-97.724361" changeset="false"><tag k="addr:street" v="Aggie Lane"/><tag k="addr:housenumber" v="1500"/><tag k="coa:place_id" v="243650"/></node><node id="-47" lat="30.347124" lon="-97.724491" changeset="false"><tag k="addr:street" v="Aggie Lane"/><tag k="addr:housenumber" v="1502"/><tag k="coa:place_id" v="3033490"/></node><node id="-48" lat="30.348281" lon="-97.725637" changeset="false"><tag k="addr:street" v="Morrow Street"/><tag k="addr:housenumber" v="1703"/><tag k="coa:place_id" v="3774422"/></node><node id="-49" lat="30.348344" lon="-97.725787" changeset="false"><tag k="addr:street" v="Morrow Street"/><tag k="addr:housenumber" v="1705"/><tag k="coa:place_id" v="243488"/></node><node id="-50" lat="30.347467" lon="-97.726176" changeset="false"><tag k="addr:street" v="Aggie Lane"/><tag k="addr:housenumber" v="1703"/><tag k="coa:place_id" v="3033489"/></node><node id="-51" lat="30.347544" lon="-97.726321" changeset="false"><tag k="addr:street" v="Aggie Lane"/><tag k="addr:housenumber" v="1705"/><tag k="coa:place_id" v="243806"/></node><node id="-52" lat="30.354291" lon="-97.727819" changeset="false"><tag k="addr:street" v="West Anderson Lane"/><tag k="addr:housenumber" v="2007"/><tag k="coa:place_id" v="524504"/></node><node id="-53" lat="30.354262" lon="-97.727506" changeset="false"><tag k="addr:street" v="West Anderson Lane"/><tag k="addr:housenumber" v="2003"/><tag k="coa:place_id" v="164277"/></node><node id="-54" lat="30.353903" lon="-97.72934" changeset="false"><tag k="addr:street" v="West Anderson Lane"/><tag k="addr:housenumber" v="2139"/><tag k="coa:place_id" v="271790"/></node><node id="-55" lat="30.353985" lon="-97.72931" changeset="false"><tag k="addr:street" v="West Anderson Lane"/><tag k="addr:housenumber" v="2137"/><tag k="coa:place_id" v="241794"/></node><node id="-56" lat="30.353748" lon="-97.729243" changeset="false"><tag k="addr:street" v="West Anderson Lane"/><tag k="addr:housenumber" v="2143"/><tag k="coa:place_id" v="524444"/></node><node id="-57" lat="30.353811" lon="-97.72937" changeset="false"><tag k="addr:street" v="West Anderson Lane"/><tag k="addr:housenumber" v="2145"/><tag k="coa:place_id" v="271784"/></node><node id="-58" lat="30.354127" lon="-97.729225" changeset="false"><tag k="addr:street" v="West Anderson Lane"/><tag k="addr:housenumber" v="2135"/><tag k="coa:place_id" v="524456"/></node><node id="-59" lat="30.354568" lon="-97.729691" changeset="false"><tag k="addr:street" v="West Anderson Lane"/><tag k="addr:housenumber" v="2153"/><tag k="coa:place_id" v="271778"/></node><node id="-60" lat="30.354171" lon="-97.729924" changeset="false"><tag k="addr:street" v="West Anderson Lane"/><tag k="addr:housenumber" v="2163"/><tag k="coa:place_id" v="524420"/></node><node id="-61" lat="30.354044" lon="-97.730009" changeset="false"><tag k="addr:street" v="West Anderson Lane"/><tag k="addr:housenumber" v="2167"/><tag k="coa:place_id" v="524414"/></node><node id="-62" lat="30.354443" lon="-97.729769" changeset="false"><tag k="addr:street" v="West Anderson Lane"/><tag k="addr:housenumber" v="2157"/><tag k="coa:place_id" v="524432"/></node><node id="-63" lat="30.354106" lon="-97.729962" changeset="false"><tag k="addr:street" v="West Anderson Lane"/><tag k="addr:housenumber" v="2165"/><tag k="coa:place_id" v="524408"/></node><node id="-64" lat="30.35425" lon="-97.729877" changeset="false"><tag k="addr:street" v="West Anderson Lane"/><tag k="addr:housenumber" v="2161"/><tag k="coa:place_id" v="524402"/></node><node id="-65" lat="30.354329" lon="-97.729829" changeset="false"><tag k="addr:street" v="West Anderson Lane"/><tag k="addr:housenumber" v="2159"/><tag k="coa:place_id" v="524426"/></node><node id="-66" lat="30.353918" lon="-97.73124" changeset="false"><tag k="addr:street" v="Burnet Road"/><tag k="addr:housenumber" v="7727"/><tag k="coa:place_id" v="271742"/></node><node id="-67" lat="30.354009" lon="-97.731401" changeset="false"><tag k="addr:street" v="Burnet Road"/><tag k="addr:housenumber" v="7725"/><tag k="coa:place_id" v="271736"/></node><node id="-68" lat="30.353546" lon="-97.730448" changeset="false"><tag k="addr:street" v="Burnet Road"/><tag k="addr:housenumber" v="7797"/><tag k="coa:place_id" v="524336"/></node><node id="-69" lat="30.353695" lon="-97.730752" changeset="false"><tag k="addr:street" v="Burnet Road"/><tag k="addr:housenumber" v="7795"/><tag k="coa:place_id" v="524330"/></node><node id="-70" lat="30.354029" lon="-97.731713" changeset="false"><tag k="addr:street" v="Burnet Road"/><tag k="addr:housenumber" v="7723"/><tag k="coa:place_id" v="271730"/></node><node id="-71" lat="30.353426" lon="-97.729944" changeset="false"><tag k="addr:street" v="Burnet Road"/><tag k="addr:housenumber" v="7799"/><tag k="coa:place_id" v="524342"/></node><node id="-72" lat="30.351535" lon="-97.731179" changeset="false"><tag k="addr:street" v="Saint Joseph Boulevard"/><tag k="addr:housenumber" v="2114"/><tag k="coa:place_id" v="524246"/></node><node id="-73" lat="30.35106" lon="-97.73033" changeset="false"><tag k="addr:street" v="Saint Joseph Boulevard"/><tag k="addr:housenumber" v="2000"/><tag k="coa:place_id" v="524240"/></node><node id="-74" lat="30.350598" lon="-97.733815" changeset="false"><tag k="addr:street" v="Burnet Road"/><tag k="addr:housenumber" v="7501"/><tag k="coa:place_id" v="271700"/></node><node id="-75" lat="30.350852" lon="-97.733607" changeset="false"><tag k="addr:street" v="Burnet Road"/><tag k="addr:housenumber" v="7511"/><tag k="coa:place_id" v="524204"/></node><node id="-76" lat="30.347304" lon="-97.727093" changeset="false"><tag k="addr:street" v="Richcreek Road"/><tag k="addr:housenumber" v="1710"/><tag k="coa:place_id" v="244100"/></node><node id="-77" lat="30.347241" lon="-97.726971" changeset="false"><tag k="addr:street" v="Richcreek Road"/><tag k="addr:housenumber" v="1708"/><tag k="coa:place_id" v="244094"/></node><node id="-78" lat="30.348082" lon="-97.727499" changeset="false"><tag k="addr:street" v="Aggie Lane"/><tag k="addr:housenumber" v="1719"/><tag k="coa:place_id" v="243764"/></node><node id="-79" lat="30.347921" lon="-97.727548" changeset="false"><tag k="addr:street" v="Yates Avenue"/><tag k="addr:housenumber" v="7507"/><tag k="coa:place_id" v="252953"/></node></osm>