<?xml version="1.0" encoding="UTF-8"?><osm version="0.6" generator="github.com/aaronlidman/osm-and-geojson"><node id="-1" lat="30.450548" lon="-97.76699" changeset="false"><tag k="addr:street" v="Stanzel Drive"/><tag k="addr:housenumber" v="12911"/><tag k="addr:postcode" v="78729"/></node><node id="-2" lat="30.449426" lon="-97.76521" changeset="false"><tag k="addr:street" v="Tallyho Trail"/><tag k="addr:housenumber" v="8110"/><tag k="addr:postcode" v="78729"/></node><node id="-3" lat="30.448022" lon="-97.76598" changeset="false"><tag k="addr:street" v="Tantara Drive"/><tag k="addr:housenumber" v="12724"/><tag k="addr:postcode" v="78729"/></node><node id="-4" lat="30.453797" lon="-97.764159" changeset="false"><tag k="addr:street" v="Partridge Bend Drive"/><tag k="addr:housenumber" v="13152"/><tag k="addr:postcode" v="78729"/></node><node id="-5" lat="30.448089" lon="-97.764104" changeset="false"><tag k="addr:street" v="Elkhorn Mountain Trail"/><tag k="addr:housenumber" v="7804"/><tag k="addr:postcode" v="78729"/></node><node id="-6" lat="30.450225" lon="-97.762967" changeset="false"><tag k="addr:street" v="Partridge Bend Drive"/><tag k="addr:housenumber" v="13022"/><tag k="addr:postcode" v="78729"/></node><node id="-7" lat="30.448321" lon="-97.765951" changeset="false"><tag k="addr:street" v="Tantara Drive"/><tag k="addr:housenumber" v="12728"/><tag k="addr:postcode" v="78729"/></node><node id="-8" lat="30.446077" lon="-97.765687" changeset="false"><tag k="addr:street" v="Red Deer Pass"/><tag k="addr:housenumber" v="12701 1/2"/><tag k="addr:postcode" v="78729"/></node><node id="-9" lat="30.448871" lon="-97.763483" changeset="false"><tag k="addr:street" v="Elkhorn Mountain Trail"/><tag k="addr:housenumber" v="7720"/><tag k="addr:postcode" v="78729"/></node><node id="-10" lat="30.448862" lon="-97.763407" changeset="false"><tag k="addr:street" v="Tantivy Drive"/><tag k="addr:housenumber" v="13000"/><tag k="addr:postcode" v="78729"/></node></osm>