<?xml version="1.0" encoding="UTF-8"?><osm version="0.6" generator="github.com/aaronlidman/osm-and-geojson"><node id="-1" lat="30.312554" lon="-97.685675" changeset="false"><tag k="addr:street" v="Wheless Lane"/><tag k="addr:housenumber" v="2115"/></node><node id="-2" lat="30.312504" lon="-97.686427" changeset="false"><tag k="addr:street" v="Gaston Place Drive"/><tag k="addr:housenumber" v="2114"/></node><node id="-3" lat="30.312267" lon="-97.693427" changeset="false"><tag k="addr:street" v="Berkman Drive"/><tag k="addr:housenumber" v="5831"/></node><node id="-4" lat="30.311713" lon="-97.685687" changeset="false"><tag k="addr:street" v="Gaston Place Drive"/><tag k="addr:housenumber" v="2157"/></node><node id="-5" lat="30.313208" lon="-97.69123" changeset="false"><tag k="addr:street" v="Westminster Drive"/><tag k="addr:housenumber" v="5938"/></node><node id="-6" lat="30.310405" lon="-97.686556" changeset="false"><tag k="addr:street" v="Thames Drive"/><tag k="addr:housenumber" v="5711"/></node><node id="-7" lat="30.314395" lon="-97.689193" changeset="false"><tag k="addr:street" v="Wheless Lane"/><tag k="addr:housenumber" v="1909"/></node><node id="-8" lat="30.312791" lon="-97.686257" changeset="false"><tag k="addr:street" v="Wheless Lane"/><tag k="addr:housenumber" v="2103"/></node><node id="-9" lat="30.309513" lon="-97.687564" changeset="false"><tag k="addr:street" v="Wellington Drive"/><tag k="addr:housenumber" v="5728"/></node><node id="-10" lat="30.310064" lon="-97.687503" changeset="false"><tag k="addr:street" v="Wellington Drive"/><tag k="addr:housenumber" v="5731"/></node><node id="-11" lat="30.313561" lon="-97.687713" changeset="false"><tag k="addr:street" v="Wheless Lane"/><tag k="addr:housenumber" v="2005"/></node><node id="-12" lat="30.313118" lon="-97.689123" changeset="false"><tag k="addr:street" v="Gaston Place Drive"/><tag k="addr:housenumber" v="1932"/></node><node id="-13" lat="30.314221" lon="-97.689686" changeset="false"><tag k="addr:street" v="Briarcliff Boulevard"/><tag k="addr:housenumber" v="1804"/></node><node id="-14" lat="30.313444" lon="-97.691348" changeset="false"><tag k="addr:street" v="Briarcliff Boulevard"/><tag k="addr:housenumber" v="1727"/></node><node id="-15" lat="30.312714" lon="-97.68575" changeset="false"><tag k="addr:street" v="Wheless Lane"/><tag k="addr:housenumber" v="2111"/></node><node id="-16" lat="30.311401" lon="-97.692458" changeset="false"><tag k="addr:street" v="Northridge Drive"/><tag k="addr:housenumber" v="1802"/></node><node id="-17" lat="30.309643" lon="-97.687754" changeset="false"><tag k="addr:street" v="Wellington Drive"/><tag k="addr:housenumber" v="5730"/></node><node id="-18" lat="30.312662" lon="-97.685692" changeset="false"><tag k="addr:street" v="Wheless Lane"/><tag k="addr:housenumber" v="2113"/></node><node id="-19" lat="30.312611" lon="-97.685578" changeset="false"><tag k="addr:street" v="Wheless Lane"/><tag k="addr:housenumber" v="2117"/></node><node id="-20" lat="30.311272" lon="-97.690207" changeset="false"><tag k="addr:street" v="Westminster Drive"/><tag k="addr:housenumber" v="5833"/></node><node id="-21" lat="30.312508" lon="-97.685561" changeset="false"><tag k="addr:street" v="Wheless Lane"/><tag k="addr:housenumber" v="2119"/></node><node id="-22" lat="30.310589" lon="-97.687224" changeset="false"><tag k="addr:street" v="Thames Drive"/><tag k="addr:housenumber" v="5800"/></node><node id="-23" lat="30.312514" lon="-97.687667" changeset="false"><tag k="addr:street" v="Gaston Place Drive"/><tag k="addr:housenumber" v="2108"/></node><node id="-24" lat="30.311857" lon="-97.686168" changeset="false"><tag k="addr:street" v="Gaston Place Drive"/><tag k="addr:housenumber" v="2119"/></node><node id="-25" lat="30.313462" lon="-97.68969" changeset="false"><tag k="addr:street" v="Gaston Place Drive"/><tag k="addr:housenumber" v="1920"/></node><node id="-26" lat="30.315573" lon="-97.691522" changeset="false"><tag k="addr:street" v="Wheless Lane"/><tag k="addr:housenumber" v="1701"/></node><node id="-27" lat="30.312575" lon="-97.685449" changeset="false"><tag k="addr:street" v="Wheless Lane"/><tag k="addr:housenumber" v="2121"/></node><node id="-28" lat="30.31213" lon="-97.691104" changeset="false"><tag k="addr:street" v="Westminster Drive"/><tag k="addr:housenumber" v="5936"/></node><node id="-29" lat="30.314702" lon="-97.689861" changeset="false"><tag k="addr:street" v="Wheless Lane"/><tag k="addr:housenumber" v="1905"/></node><node id="-30" lat="30.313193" lon="-97.689327" changeset="false"><tag k="addr:street" v="Gaston Place Drive"/><tag k="addr:housenumber" v="1924"/></node><node id="-31" lat="30.313012" lon="-97.690395" changeset="false"><tag k="addr:street" v="Gaston Place Drive"/><tag k="addr:housenumber" v="1903"/></node><node id="-32" lat="30.312723" lon="-97.688566" changeset="false"><tag k="addr:street" v="Gaston Place Drive"/><tag k="addr:housenumber" v="2006"/></node><node id="-33" lat="30.310387" lon="-97.687134" changeset="false"><tag k="addr:street" v="Thames Drive"/><tag k="addr:housenumber" v="5706"/></node><node id="-34" lat="30.31225" lon="-97.685719" changeset="false"><tag k="addr:street" v="Gaston Place Drive"/><tag k="addr:housenumber" v="2124"/></node><node id="-35" lat="30.312307" lon="-97.685851" changeset="false"><tag k="addr:street" v="Gaston Place Drive"/><tag k="addr:housenumber" v="2120"/></node><node id="-36" lat="30.312276" lon="-97.685778" changeset="false"><tag k="addr:street" v="Gaston Place Drive"/><tag k="addr:housenumber" v="2122"/></node><node id="-37" lat="30.312214" lon="-97.685597" changeset="false"><tag k="addr:street" v="Gaston Place Drive"/><tag k="addr:housenumber" v="2128"/></node><node id="-38" lat="30.312232" lon="-97.685659" changeset="false"><tag k="addr:street" v="Gaston Place Drive"/><tag k="addr:housenumber" v="2126"/></node><node id="-39" lat="30.313695" lon="-97.688192" changeset="false"><tag k="addr:street" v="Wheless Lane"/><tag k="addr:housenumber" v="2001"/></node><node id="-40" lat="30.313543" lon="-97.687902" changeset="false"><tag k="addr:street" v="Wheless Lane"/><tag k="addr:housenumber" v="2003"/></node><node id="-41" lat="30.314228" lon="-97.690047" changeset="false"><tag k="addr:street" v="Briarcliff Boulevard"/><tag k="addr:housenumber" v="1806"/></node><node id="-42" lat="30.31451" lon="-97.689716" changeset="false"><tag k="addr:street" v="Wheless Lane"/><tag k="addr:housenumber" v="1907"/></node><node id="-43" lat="30.31429" lon="-97.689718" changeset="false"><tag k="addr:street" v="Briarcliff Boulevard"/><tag k="addr:housenumber" v="1810"/></node><node id="-44" lat="30.311596" lon="-97.689491" changeset="false"><tag k="addr:street" v="Belmoor Drive"/><tag k="addr:housenumber" v="5810"/></node><node id="-45" lat="30.311738" lon="-97.689428" changeset="false"><tag k="addr:street" v="Belmoor Drive"/><tag k="addr:housenumber" v="5812"/></node><node id="-46" lat="30.311773" lon="-97.689297" changeset="false"><tag k="addr:street" v="Belmoor Drive"/><tag k="addr:housenumber" v="5814"/></node><node id="-47" lat="30.311881" lon="-97.689188" changeset="false"><tag k="addr:street" v="Belmoor Drive"/><tag k="addr:housenumber" v="5816"/></node><node id="-48" lat="30.311134" lon="-97.689653" changeset="false"><tag k="addr:street" v="Belmoor Drive"/><tag k="addr:housenumber" v="5802"/></node><node id="-49" lat="30.311267" lon="-97.689569" changeset="false"><tag k="addr:street" v="Belmoor Drive"/><tag k="addr:housenumber" v="5806"/></node></osm>