<?xml version="1.0" encoding="UTF-8"?><osm version="0.6" generator="github.com/aaronlidman/osm-and-geojson"><node id="-1" lat="30.187127" lon="-97.801831" changeset="false"><tag k="addr:street" v="Forest Wood Road"/><tag k="addr:housenumber" v="7906"/></node><node id="-2" lat="30.186677" lon="-97.801183" changeset="false"><tag k="addr:street" v="Forest Wood Road"/><tag k="addr:housenumber" v="8003"/></node><node id="-3" lat="30.192985" lon="-97.805292" changeset="false"><tag k="addr:street" v="Albert Road"/><tag k="addr:housenumber" v="7708"/></node><node id="-4" lat="30.193468" lon="-97.79499" changeset="false"><tag k="addr:street" v="Dee Street"/><tag k="addr:housenumber" v="7213"/></node><node id="-5" lat="30.188228" lon="-97.801865" changeset="false"><tag k="addr:street" v="Forest Wood Road"/><tag k="addr:housenumber" v="7806"/></node><node id="-6" lat="30.187975" lon="-97.803436" changeset="false"><tag k="addr:street" v="Wynne Lane"/><tag k="addr:housenumber" v="7904"/></node><node id="-7" lat="30.186009" lon="-97.805778" changeset="false"><tag k="addr:street" v="Dittmar Road"/><tag k="addr:housenumber" v="1108"/></node><node id="-8" lat="30.188952" lon="-97.802036" changeset="false"><tag k="addr:street" v="Forest Wood Road"/><tag k="addr:housenumber" v="7800"/></node><node id="-9" lat="30.191005" lon="-97.802805" changeset="false"><tag k="addr:street" v="Wynne Lane"/><tag k="addr:housenumber" v="7605"/></node><node id="-10" lat="30.19539" lon="-97.803014" changeset="false"><tag k="addr:street" v="Albert Road"/><tag k="addr:housenumber" v="7401"/></node><node id="-11" lat="30.18726" lon="-97.802881" changeset="false"><tag k="addr:street" v="Darvone Circle"/><tag k="addr:housenumber" v="1107"/></node><node id="-12" lat="30.187086" lon="-97.794775" changeset="false"><tag k="addr:street" v="Cooper Lane"/><tag k="addr:housenumber" v="7604"/></node><node id="-13" lat="30.188496" lon="-97.803482" changeset="false"><tag k="addr:street" v="Wynne Lane"/><tag k="addr:housenumber" v="7900"/></node><node id="-14" lat="30.19428" lon="-97.803741" changeset="false"><tag k="addr:street" v="Albert Road"/><tag k="addr:housenumber" v="7415"/></node><node id="-15" lat="30.18587" lon="-97.806914" changeset="false"><tag k="addr:street" v="Dittmar Road"/><tag k="addr:housenumber" v="1200 1/2"/></node><node id="-16" lat="30.186458" lon="-97.803347" changeset="false"><tag k="addr:street" v="Wynne Lane"/><tag k="addr:housenumber" v="8008"/></node><node id="-17" lat="30.186402" lon="-97.800781" changeset="false"><tag k="addr:street" v="Persimmon Trail"/><tag k="addr:housenumber" v="8004"/></node><node id="-18" lat="30.193362" lon="-97.795737" changeset="false"><tag k="addr:street" v="Cogbill Street"/><tag k="addr:housenumber" v="1003"/></node><node id="-19" lat="30.18663" lon="-97.794811" changeset="false"><tag k="addr:street" v="Cooper Lane"/><tag k="addr:housenumber" v="7612 1/2"/></node><node id="-20" lat="30.18678" lon="-97.802493" changeset="false"><tag k="addr:street" v="Dymalor Circle"/><tag k="addr:housenumber" v="1102"/></node><node id="-21" lat="30.186182" lon="-97.80317" changeset="false"><tag k="addr:street" v="Wynne Lane"/><tag k="addr:housenumber" v="8100"/></node><node id="-22" lat="30.1898" lon="-97.803344" changeset="false"><tag k="addr:street" v="Wynne Lane"/><tag k="addr:housenumber" v="7702"/></node><node id="-23" lat="30.193275" lon="-97.805394" changeset="false"><tag k="addr:street" v="Damon Road"/><tag k="addr:housenumber" v="1500"/></node><node id="-24" lat="30.189067" lon="-97.800653" changeset="false"><tag k="addr:street" v="Reno Drive"/><tag k="addr:housenumber" v="1004"/></node><node id="-25" lat="30.192525" lon="-97.799181" changeset="false"><tag k="addr:street" v="Wood Cliff Drive"/><tag k="addr:housenumber" v="7400"/></node><node id="-26" lat="30.188398" lon="-97.802534" changeset="false"><tag k="addr:street" v="Reno Drive"/><tag k="addr:housenumber" v="1103"/></node><node id="-27" lat="30.185896" lon="-97.807142" changeset="false"><tag k="addr:street" v="Dittmar Road"/><tag k="addr:housenumber" v="1202"/></node><node id="-28" lat="30.19232" lon="-97.802852" changeset="false"><tag k="addr:street" v="Wynne Lane"/><tag k="addr:housenumber" v="7503"/></node><node id="-29" lat="30.186139" lon="-97.799303" changeset="false"><tag k="addr:street" v="Marc Taylor Drive"/><tag k="addr:housenumber" v="801"/></node><node id="-30" lat="30.19698" lon="-97.801403" changeset="false"><tag k="addr:street" v="Matthews Lane"/><tag k="addr:housenumber" v="1309"/></node><node id="-31" lat="30.197242" lon="-97.802027" changeset="false"><tag k="addr:street" v="Matthews Lane"/><tag k="addr:housenumber" v="1405"/></node><node id="-32" lat="30.186961" lon="-97.800805" changeset="false"><tag k="addr:street" v="Persimmon Trail"/><tag k="addr:housenumber" v="8000"/></node><node id="-33" lat="30.191033" lon="-97.803423" changeset="false"><tag k="addr:street" v="Wynne Lane"/><tag k="addr:housenumber" v="7602"/></node><node id="-34" lat="30.18795" lon="-97.801319" changeset="false"><tag k="addr:street" v="Forest Wood Road"/><tag k="addr:housenumber" v="7901"/></node><node id="-35" lat="30.18932" lon="-97.803279" changeset="false"><tag k="addr:street" v="Wynne Lane"/><tag k="addr:housenumber" v="7706"/></node><node id="-36" lat="30.1976" lon="-97.803094" changeset="false"><tag k="addr:street" v="Matthews Lane"/><tag k="addr:housenumber" v="1505"/></node><node id="-37" lat="30.188619" lon="-97.794982" changeset="false"><tag k="addr:street" v="Cooper Lane"/><tag k="addr:housenumber" v="7506"/></node><node id="-38" lat="30.186853" lon="-97.801885" changeset="false"><tag k="addr:street" v="Forest Wood Road"/><tag k="addr:housenumber" v="8000"/></node><node id="-39" lat="30.191955" lon="-97.803221" changeset="false"><tag k="addr:street" v="Wynne Lane"/><tag k="addr:housenumber" v="7504 1/2"/></node><node id="-40" lat="30.187985" lon="-97.802799" changeset="false"><tag k="addr:street" v="Wynne Lane"/><tag k="addr:housenumber" v="7905"/></node><node id="-41" lat="30.193044" lon="-97.796334" changeset="false"><tag k="addr:street" v="Lenora Street"/><tag k="addr:housenumber" v="7215"/></node><node id="-42" lat="30.192053" lon="-97.802845" changeset="false"><tag k="addr:street" v="Wynne Lane"/><tag k="addr:housenumber" v="7505"/></node><node id="-43" lat="30.194439" lon="-97.795908" changeset="false"><tag k="addr:street" v="Matthews Lane"/><tag k="addr:housenumber" v="1009"/></node><node id="-44" lat="30.185943" lon="-97.803142" changeset="false"><tag k="addr:street" v="Wynne Lane"/><tag k="addr:housenumber" v="8012"/></node><node id="-45" lat="30.194208" lon="-97.804838" changeset="false"><tag k="addr:street" v="Albert Road"/><tag k="addr:housenumber" v="7412"/></node><node id="-46" lat="30.193179" lon="-97.80174" changeset="false"><tag k="addr:street" v="Forest Wood Road"/><tag k="addr:housenumber" v="7407"/></node><node id="-47" lat="30.190799" lon="-97.803411" changeset="false"><tag k="addr:street" v="Wynne Lane"/><tag k="addr:housenumber" v="7604"/></node><node id="-48" lat="30.192403" lon="-97.798269" changeset="false"><tag k="addr:street" v="Wood Cliff Drive"/><tag k="addr:housenumber" v="7401"/></node><node id="-49" lat="30.192502" lon="-97.803414" changeset="false"><tag k="addr:street" v="Wynne Lane"/><tag k="addr:housenumber" v="7500"/></node><node id="-50" lat="30.18841" lon="-97.802899" changeset="false"><tag k="addr:street" v="Reno Drive"/><tag k="addr:housenumber" v="1105"/></node><node id="-51" lat="30.187816" lon="-97.802331" changeset="false"><tag k="addr:street" v="Darvone Circle"/><tag k="addr:housenumber" v="1100"/></node><node id="-52" lat="30.186582" lon="-97.802211" changeset="false"><tag k="addr:street" v="Dymalor Circle"/><tag k="addr:housenumber" v="1100"/></node><node id="-53" lat="30.192883" lon="-97.798688" changeset="false"><tag k="addr:street" v="Sherwood Road"/><tag k="addr:housenumber" v="7404"/></node><node id="-54" lat="30.186233" lon="-97.797411" changeset="false"><tag k="addr:street" v="Marc Taylor Drive"/><tag k="addr:housenumber" v="702"/></node><node id="-55" lat="30.19693" lon="-97.801311" changeset="false"><tag k="addr:street" v="Matthews Lane"/><tag k="addr:housenumber" v="1307"/></node><node id="-56" lat="30.196939" lon="-97.802338" changeset="false"><tag k="addr:street" v="Albert Road"/><tag k="addr:housenumber" v="7207"/></node><node id="-57" lat="30.191" lon="-97.79786" changeset="false"><tag k="addr:street" v="Wood Cliff Drive"/><tag k="addr:housenumber" v="7511"/></node><node id="-58" lat="30.191072" lon="-97.802188" changeset="false"><tag k="addr:street" v="Forest Wood Road"/><tag k="addr:housenumber" v="7608"/></node><node id="-59" lat="30.186951" lon="-97.808879" changeset="false"><tag k="addr:street" v="Dittmar Road"/><tag k="addr:housenumber" v="1300"/></node><node id="-60" lat="30.191834" lon="-97.798154" changeset="false"><tag k="addr:street" v="Wood Cliff Drive"/><tag k="addr:housenumber" v="7503"/></node><node id="-61" lat="30.194468" lon="-97.796267" changeset="false"><tag k="addr:street" v="Lenora Street"/><tag k="addr:housenumber" v="7201"/></node><node id="-62" lat="30.195871" lon="-97.802972" changeset="false"><tag k="addr:street" v="Albert Road"/><tag k="addr:housenumber" v="7311"/></node><node id="-63" lat="30.197107" lon="-97.801781" changeset="false"><tag k="addr:street" v="Matthews Lane"/><tag k="addr:housenumber" v="1403"/></node><node id="-64" lat="30.197076" lon="-97.802267" changeset="false"><tag k="addr:street" v="Albert Road"/><tag k="addr:housenumber" v="7203"/></node><node id="-65" lat="30.196909" lon="-97.801267" changeset="false"><tag k="addr:street" v="Matthews Lane"/><tag k="addr:housenumber" v="1305"/></node><node id="-66" lat="30.197038" lon="-97.801581" changeset="false"><tag k="addr:street" v="Matthews Lane"/><tag k="addr:housenumber" v="1401"/></node><node id="-67" lat="30.197041" lon="-97.802286" changeset="false"><tag k="addr:street" v="Albert Road"/><tag k="addr:housenumber" v="7205"/></node><node id="-68" lat="30.186198" lon="-97.803261" changeset="false"><tag k="addr:street" v="Wynne Lane"/><tag k="addr:housenumber" v="8010"/></node><node id="-69" lat="30.186105" lon="-97.802476" changeset="false"><tag k="addr:street" v="Dymalor Circle"/><tag k="addr:housenumber" v="1103"/></node><node id="-70" lat="30.19593" lon="-97.801245" changeset="false"><tag k="addr:street" v="Forest Wood Road"/><tag k="addr:housenumber" v="7206"/></node><node id="-71" lat="30.185822" lon="-97.794327" changeset="false"><tag k="addr:street" v="Cooper Lane"/><tag k="addr:housenumber" v="7804"/></node><node id="-72" lat="30.187359" lon="-97.802958" changeset="false"><tag k="addr:street" v="Wynne Lane"/><tag k="addr:housenumber" v="8003"/></node><node id="-73" lat="30.187229" lon="-97.800201" changeset="false"><tag k="addr:street" v="Persimmon Trail"/><tag k="addr:housenumber" v="7907"/></node><node id="-74" lat="30.186901" lon="-97.803367" changeset="false"><tag k="addr:street" v="Wynne Lane"/><tag k="addr:housenumber" v="8004"/></node><node id="-75" lat="30.186254" lon="-97.802184" changeset="false"><tag k="addr:street" v="Dymalor Circle"/><tag k="addr:housenumber" v="1101"/></node><node id="-76" lat="30.186961" lon="-97.801226" changeset="false"><tag k="addr:street" v="Forest Wood Road"/><tag k="addr:housenumber" v="8001"/></node><node id="-77" lat="30.193313" lon="-97.794515" changeset="false"><tag k="addr:street" v="Cooper Lane"/><tag k="addr:housenumber" v="7204"/></node><node id="-78" lat="30.188967" lon="-97.800464" changeset="false"><tag k="addr:street" v="Reno Drive"/><tag k="addr:housenumber" v="1002"/></node><node id="-79" lat="30.187089" lon="-97.80256" changeset="false"><tag k="addr:street" v="Darvone Circle"/><tag k="addr:housenumber" v="1105"/></node><node id="-80" lat="30.191126" lon="-97.799475" changeset="false"><tag k="addr:street" v="Wood Cliff Drive"/><tag k="addr:housenumber" v="7506"/></node><node id="-81" lat="30.194038" lon="-97.806401" changeset="false"><tag k="addr:street" v="Damon Road"/><tag k="addr:housenumber" v="1510"/></node><node id="-82" lat="30.188266" lon="-97.803402" changeset="false"><tag k="addr:street" v="Wynne Lane"/><tag k="addr:housenumber" v="7902"/></node><node id="-83" lat="30.187583" lon="-97.800842" changeset="false"><tag k="addr:street" v="Persimmon Trail"/><tag k="addr:housenumber" v="7904"/></node><node id="-84" lat="30.188969" lon="-97.800256" changeset="false"><tag k="addr:street" v="Reno Drive"/><tag k="addr:housenumber" v="1000"/></node><node id="-85" lat="30.191428" lon="-97.798071" changeset="false"><tag k="addr:street" v="Wood Cliff Drive"/><tag k="addr:housenumber" v="7507"/></node><node id="-86" lat="30.19291" lon="-97.804005" changeset="false"><tag k="addr:street" v="Sherwood Road"/><tag k="addr:housenumber" v="7612"/></node><node id="-87" lat="30.187612" lon="-97.802147" changeset="false"><tag k="addr:street" v="Darvone Circle"/><tag k="addr:housenumber" v="1101"/></node><node id="-88" lat="30.185917" lon="-97.800634" changeset="false"><tag k="addr:street" v="Persimmon Trail"/><tag k="addr:housenumber" v="8016 1/2"/></node><node id="-89" lat="30.189848" lon="-97.802715" changeset="false"><tag k="addr:street" v="Wynne Lane"/><tag k="addr:housenumber" v="7703"/></node><node id="-90" lat="30.189698" lon="-97.798062" changeset="false"><tag k="addr:street" v="Oak Hedge Place"/><tag k="addr:housenumber" v="7601"/></node><node id="-91" lat="30.18773" lon="-97.802837" changeset="false"><tag k="addr:street" v="Darvone Circle"/><tag k="addr:housenumber" v="1104"/></node><node id="-92" lat="30.188715" lon="-97.803423" changeset="false"><tag k="addr:street" v="Wynne Lane"/><tag k="addr:housenumber" v="7802"/></node><node id="-93" lat="30.191723" lon="-97.802805" changeset="false"><tag k="addr:street" v="Wynne Lane"/><tag k="addr:housenumber" v="7507"/></node><node id="-94" lat="30.194398" lon="-97.800405" changeset="false"><tag k="addr:street" v="Elm Forest Road"/><tag k="addr:housenumber" v="7304"/></node><node id="-95" lat="30.194434" lon="-97.80042" changeset="false"><tag k="addr:street" v="Elm Forest Road"/><tag k="addr:housenumber" v="7302"/></node><node id="-96" lat="30.196026" lon="-97.802479" changeset="false"><tag k="addr:street" v="Albert Road"/><tag k="addr:housenumber" v="7217"/></node><node id="-97" lat="30.195999" lon="-97.802499" changeset="false"><tag k="addr:street" v="Albert Road"/><tag k="addr:housenumber" v="7305"/></node><node id="-98" lat="30.192573" lon="-97.802834" changeset="false"><tag k="addr:street" v="Sherwood Road"/><tag k="addr:housenumber" v="7605"/></node><node id="-99" lat="30.19257" lon="-97.802828" changeset="false"><tag k="addr:street" v="Wynne Lane"/><tag k="addr:housenumber" v="7501"/></node></osm>