<?xml version="1.0" encoding="UTF-8"?><osm version="0.6" generator="github.com/aaronlidman/osm-and-geojson"><node id="-1" lat="30.230585" lon="-97.865283" changeset="false"><tag k="addr:street" v="West William Cannon Drive"/><tag k="addr:housenumber" v="6211"/><tag k="coa:place_id" v="156708"/></node><node id="-2" lat="30.229512" lon="-97.868955" changeset="false"><tag k="addr:street" v="Bending Oak Road"/><tag k="addr:housenumber" v="7101"/><tag k="coa:place_id" v="135695"/></node><node id="-3" lat="30.228709" lon="-97.877155" changeset="false"><tag k="addr:street" v="Convict Hill Road"/><tag k="addr:housenumber" v="6800"/><tag k="coa:place_id" v="122159"/></node><node id="-4" lat="30.228154" lon="-97.874682" changeset="false"><tag k="addr:street" v="Convict Hill Road"/><tag k="addr:housenumber" v="6604"/><tag k="coa:place_id" v="3076044"/></node><node id="-5" lat="30.232009" lon="-97.873206" changeset="false"><tag k="addr:street" v="Wolfcreek Pass"/><tag k="addr:housenumber" v="6704"/><tag k="coa:place_id" v="3325321"/></node><node id="-6" lat="30.22941" lon="-97.871347" changeset="false"><tag k="addr:street" v="Poncha Pass"/><tag k="addr:housenumber" v="6508"/><tag k="coa:place_id" v="3153052"/></node><node id="-7" lat="30.22996" lon="-97.868662" changeset="false"><tag k="addr:street" v="Bending Oak Road"/><tag k="addr:housenumber" v="7017"/><tag k="coa:place_id" v="1157901"/></node><node id="-8" lat="30.230885" lon="-97.875429" changeset="false"><tag k="addr:street" v="Breezy Pass Cove"/><tag k="addr:housenumber" v="7207"/><tag k="coa:place_id" v="77220"/></node><node id="-9" lat="30.227615" lon="-97.870425" changeset="false"><tag k="addr:street" v="Poncha Pass"/><tag k="addr:housenumber" v="6401"/><tag k="coa:place_id" v="135519"/></node><node id="-10" lat="30.227054" lon="-97.869592" changeset="false"><tag k="addr:street" v="Poncha Pass"/><tag k="addr:housenumber" v="6309"/><tag k="coa:place_id" v="135527"/></node><node id="-11" lat="30.231559" lon="-97.874215" changeset="false"><tag k="addr:street" v="Wolfcreek Pass"/><tag k="addr:housenumber" v="6821"/><tag k="coa:place_id" v="3279327"/></node><node id="-12" lat="30.231951" lon="-97.875074" changeset="false"><tag k="addr:street" v="Wolfcreek Pass"/><tag k="addr:housenumber" v="6825"/><tag k="coa:place_id" v="3279328"/></node><node id="-13" lat="30.228227" lon="-97.875505" changeset="false"><tag k="addr:street" v="Poncha Pass"/><tag k="addr:housenumber" v="6713"/><tag k="coa:place_id" v="120347"/></node><node id="-14" lat="30.231145" lon="-97.867664" changeset="false"><tag k="addr:street" v="Latigo Pass"/><tag k="addr:housenumber" v="6316"/><tag k="coa:place_id" v="80064"/></node><node id="-15" lat="30.231716" lon="-97.869674" changeset="false"><tag k="addr:street" v="Hill Oaks Drive"/><tag k="addr:housenumber" v="6508"/><tag k="coa:place_id" v="239601"/></node><node id="-16" lat="30.23065" lon="-97.868662" changeset="false"><tag k="addr:street" v="Bending Oak Road"/><tag k="addr:housenumber" v="7004"/><tag k="coa:place_id" v="135682"/></node><node id="-17" lat="30.228273" lon="-97.876049" changeset="false"><tag k="addr:street" v="Convict Hill Road"/><tag k="addr:housenumber" v="6700"/><tag k="coa:place_id" v="122153"/></node><node id="-18" lat="30.228431" lon="-97.872415" changeset="false"><tag k="addr:street" v="Poncha Pass"/><tag k="addr:housenumber" v="6507"/><tag k="coa:place_id" v="76724"/></node><node id="-19" lat="30.228211" lon="-97.868806" changeset="false"><tag k="addr:street" v="Wandering Oak Road"/><tag k="addr:housenumber" v="7125"/><tag k="coa:place_id" v="137567"/></node><node id="-20" lat="30.229327" lon="-97.869058" changeset="false"><tag k="addr:street" v="Bending Oak Road"/><tag k="addr:housenumber" v="7105"/><tag k="coa:place_id" v="135691"/></node><node id="-21" lat="30.228715" lon="-97.874139" changeset="false"><tag k="addr:street" v="Breezy Pass,1100"/><tag k="addr:housenumber" v="6609"/><tag k="coa:place_id" v="860745"/></node><node id="-22" lat="30.231616" lon="-97.875436" changeset="false"><tag k="addr:street" v="Breezy Pass Cove"/><tag k="addr:housenumber" v="7201"/><tag k="coa:place_id" v="77218"/></node><node id="-23" lat="30.229476" lon="-97.871474" changeset="false"><tag k="addr:street" v="Samar Cove"/><tag k="addr:housenumber" v="7205"/><tag k="coa:place_id" v="3047060"/></node><node id="-24" lat="30.229126" lon="-97.87232" changeset="false"><tag k="addr:street" v="Poncha Pass"/><tag k="addr:housenumber" v="6514"/><tag k="coa:place_id" v="3153054"/></node><node id="-25" lat="30.231716" lon="-97.875769" changeset="false"><tag k="addr:street" v="Breezy Pass Cove"/><tag k="addr:housenumber" v="7200"/><tag k="coa:place_id" v="77217"/></node><node id="-26" lat="30.23068" lon="-97.875491" changeset="false"><tag k="addr:street" v="Breezy Pass Cove"/><tag k="addr:housenumber" v="7209"/><tag k="coa:place_id" v="77221"/></node><node id="-27" lat="30.230466" lon="-97.875947" changeset="false"><tag k="addr:street" v="Breezy Pass,1100"/><tag k="addr:housenumber" v="6806"/><tag k="coa:place_id" v="133887"/></node><node id="-28" lat="30.228481" lon="-97.874185" changeset="false"><tag k="addr:street" v="Breezy Pass,1100"/><tag k="addr:housenumber" v="6607"/><tag k="coa:place_id" v="3429148"/></node><node id="-29" lat="30.228137" lon="-97.874229" changeset="false"><tag k="addr:street" v="Convict Hill Road"/><tag k="addr:housenumber" v="6552"/><tag k="coa:place_id" v="3076049"/></node><node id="-30" lat="30.227754" lon="-97.871952" changeset="false"><tag k="addr:street" v="Convict Hill Road"/><tag k="addr:housenumber" v="6516"/><tag k="coa:place_id" v="140788"/></node><node id="-31" lat="30.229444" lon="-97.868435" changeset="false"><tag k="addr:street" v="Wandering Oak Road"/><tag k="addr:housenumber" v="7020"/><tag k="coa:place_id" v="135715"/></node><node id="-32" lat="30.230245" lon="-97.866924" changeset="false"><tag k="addr:street" v="Gentle Oak Drive"/><tag k="addr:housenumber" v="6929"/><tag k="coa:place_id" v="135037"/></node><node id="-33" lat="30.227537" lon="-97.871846" changeset="false"><tag k="addr:street" v="Convict Hill Road"/><tag k="addr:housenumber" v="6508"/><tag k="coa:place_id" v="140785"/></node><node id="-34" lat="30.228142" lon="-97.874466" changeset="false"><tag k="addr:street" v="Convict Hill Road"/><tag k="addr:housenumber" v="6600"/><tag k="coa:place_id" v="3076043"/></node><node id="-35" lat="30.232202" lon="-97.864997" changeset="false"><tag k="addr:street" v="West William Cannon Drive"/><tag k="addr:housenumber" v="6233"/><tag k="coa:place_id" v="508132"/></node><node id="-36" lat="30.228874" lon="-97.871656" changeset="false"><tag k="addr:street" v="Poncha Pass"/><tag k="addr:housenumber" v="6504"/><tag k="coa:place_id" v="3153051"/></node><node id="-37" lat="30.228145" lon="-97.867835" changeset="false"><tag k="addr:street" v="Gentle Oak Drive"/><tag k="addr:housenumber" v="7117"/><tag k="coa:place_id" v="135570"/></node><node id="-38" lat="30.229246" lon="-97.871636" changeset="false"><tag k="addr:street" v="Samar Cove"/><tag k="addr:housenumber" v="7209"/><tag k="coa:place_id" v="3047061"/></node><node id="-39" lat="30.23091" lon="-97.871742" changeset="false"><tag k="addr:street" v="Wolfcreek Pass"/><tag k="addr:housenumber" v="6616"/><tag k="coa:place_id" v="914180"/></node><node id="-40" lat="30.230553" lon="-97.874484" changeset="false"><tag k="addr:street" v="La Concha Pass"/><tag k="addr:housenumber" v="6709"/><tag k="coa:place_id" v="850449"/></node><node id="-41" lat="30.230803" lon="-97.8682" changeset="false"><tag k="addr:street" v="Gentle Oak Drive"/><tag k="addr:housenumber" v="6905"/><tag k="coa:place_id" v="135595"/></node><node id="-42" lat="30.232106" lon="-97.871296" changeset="false"><tag k="addr:street" v="Hill Oaks Drive"/><tag k="addr:housenumber" v="6605"/><tag k="coa:place_id" v="182285"/></node><node id="-43" lat="30.229593" lon="-97.873333" changeset="false"><tag k="addr:street" v="La Concha Pass"/><tag k="addr:housenumber" v="6603"/><tag k="coa:place_id" v="180451"/></node><node id="-44" lat="30.229757" lon="-97.867824" changeset="false"><tag k="addr:street" v="Wandering Oak Road"/><tag k="addr:housenumber" v="7009"/><tag k="coa:place_id" v="135743"/></node><node id="-45" lat="30.231971" lon="-97.870987" changeset="false"><tag k="addr:street" v="Hill Oaks Drive"/><tag k="addr:housenumber" v="6603"/><tag k="coa:place_id" v="182281"/></node><node id="-46" lat="30.231393" lon="-97.867556" changeset="false"><tag k="addr:street" v="Latigo Pass"/><tag k="addr:housenumber" v="6314"/><tag k="coa:place_id" v="80063"/></node><node id="-47" lat="30.228164" lon="-97.874902" changeset="false"><tag k="addr:street" v="Convict Hill Road"/><tag k="addr:housenumber" v="6608"/><tag k="coa:place_id" v="3076045"/></node><node id="-48" lat="30.228112" lon="-97.87367" changeset="false"><tag k="addr:street" v="Convict Hill Road"/><tag k="addr:housenumber" v="6544"/><tag k="coa:place_id" v="3076047"/></node><node id="-49" lat="30.228124" lon="-97.87397" changeset="false"><tag k="addr:street" v="Convict Hill Road"/><tag k="addr:housenumber" v="6548"/><tag k="coa:place_id" v="3076048"/></node><node id="-50" lat="30.230736" lon="-97.871413" changeset="false"><tag k="addr:street" v="Wolfcreek Pass"/><tag k="addr:housenumber" v="6610"/><tag k="coa:place_id" v="914204"/></node><node id="-51" lat="30.22966" lon="-97.871523" changeset="false"><tag k="addr:street" v="Samar Cove"/><tag k="addr:housenumber" v="7201"/><tag k="coa:place_id" v="3047059"/></node><node id="-52" lat="30.232451" lon="-97.871919" changeset="false"><tag k="addr:street" v="Hill Oaks Drive"/><tag k="addr:housenumber" v="6611"/><tag k="coa:place_id" v="139610"/></node><node id="-53" lat="30.232404" lon="-97.871912" changeset="false"><tag k="addr:street" v="Hill Oaks Drive"/><tag k="addr:housenumber" v="6701"/><tag k="coa:place_id" v="182287"/></node></osm>