<?xml version="1.0" encoding="UTF-8"?><osm version="0.6" generator="github.com/aaronlidman/osm-and-geojson"><node id="-1" lat="30.52032" lon="-97.878497" changeset="false"><tag k="addr:street" v="Frostdale Drive"/><tag k="addr:housenumber" v="13407"/><tag k="addr:postcode" v="78613"/></node><node id="-2" lat="30.576556" lon="-97.920313" changeset="false"><tag k="addr:street" v="Nameless Road"/><tag k="addr:housenumber" v="21409"/><tag k="addr:postcode" v="78641"/></node><node id="-3" lat="30.575646" lon="-97.936426" changeset="false"><tag k="addr:street" v="Honeycomb Drive"/><tag k="addr:housenumber" v="14914"/><tag k="addr:postcode" v="78641"/></node><node id="-4" lat="30.562441" lon="-97.953453" changeset="false"><tag k="addr:street" v="Dewberry Hollow"/><tag k="addr:housenumber" v="22608"/><tag k="addr:postcode" v="78641"/></node><node id="-5" lat="30.562798" lon="-97.954096" changeset="false"><tag k="addr:street" v="Pecan Hollow"/><tag k="addr:housenumber" v="13609"/><tag k="addr:postcode" v="78641"/></node><node id="-6" lat="30.576774" lon="-97.947715" changeset="false"><tag k="addr:street" v="Round Mountain Road"/><tag k="addr:housenumber" v="14700"/><tag k="addr:postcode" v="78641"/></node><node id="-7" lat="30.576219" lon="-97.945831" changeset="false"><tag k="addr:street" v="Round Mountain Road"/><tag k="addr:housenumber" v="14703"/><tag k="addr:postcode" v="78641"/></node><node id="-8" lat="30.524644" lon="-97.910125" changeset="false"><tag k="addr:street" v="Angel Springs Drive"/><tag k="addr:housenumber" v="13012"/><tag k="addr:postcode" v="78641"/></node><node id="-9" lat="30.51431" lon="-97.882513" changeset="false"><tag k="addr:street" v="Buck Run"/><tag k="addr:housenumber" v="13112"/><tag k="addr:postcode" v="78613"/></node><node id="-10" lat="30.518291" lon="-97.905644" changeset="false"><tag k="addr:street" v="Farm-to-Market Road 1431"/><tag k="addr:housenumber" v="18096"/><tag k="addr:postcode" v="78641"/></node><node id="-11" lat="30.517263" lon="-97.908344" changeset="false"><tag k="addr:street" v="Farm-to-Market Road 1431"/><tag k="addr:housenumber" v="18146"/><tag k="addr:postcode" v="78641"/></node><node id="-12" lat="30.586755" lon="-97.976073" changeset="false"><tag k="addr:street" v="Long Hollow Trail"/><tag k="addr:housenumber" v="24802"/><tag k="addr:postcode" v="78641"/></node><node id="-13" lat="30.615093" lon="-97.947971" changeset="false"><tag k="addr:street" v="Bingham Creek Road"/><tag k="addr:housenumber" v="24349"/><tag k="addr:postcode" v="78641"/></node><node id="-14" lat="30.564176" lon="-97.955051" changeset="false"><tag k="addr:street" v="Cedar Hollow"/><tag k="addr:housenumber" v="22709"/><tag k="addr:postcode" v="78641"/></node><node id="-15" lat="30.56359" lon="-97.953641" changeset="false"><tag k="addr:street" v="Pecan Hollow"/><tag k="addr:housenumber" v="13703"/><tag k="addr:postcode" v="78641"/></node><node id="-16" lat="30.5636" lon="-97.954408" changeset="false"><tag k="addr:street" v="Cedar Hollow"/><tag k="addr:housenumber" v="22705"/><tag k="addr:postcode" v="78641"/></node><node id="-17" lat="30.527179" lon="-97.92594" changeset="false"><tag k="addr:street" v="Nameless Road"/><tag k="addr:housenumber" v="23415"/><tag k="addr:postcode" v="78641"/></node><node id="-18" lat="30.53469" lon="-97.938239" changeset="false"><tag k="addr:street" v="Nameless Road"/><tag k="addr:housenumber" v="23241"/><tag k="addr:postcode" v="78641"/></node><node id="-19" lat="30.596577" lon="-97.927696" changeset="false"><tag k="addr:street" v="Arrow Head Drive"/><tag k="addr:housenumber" v="16503"/><tag k="addr:postcode" v="78641"/></node><node id="-20" lat="30.530026" lon="-97.93182" changeset="false"><tag k="addr:street" v="Nameless Road"/><tag k="addr:housenumber" v="23345"/><tag k="addr:postcode" v="78641"/></node><node id="-21" lat="30.530236" lon="-97.932431" changeset="false"><tag k="addr:street" v="Nameless Road"/><tag k="addr:housenumber" v="23335"/><tag k="addr:postcode" v="78641"/></node><node id="-22" lat="30.575069" lon="-97.93824" changeset="false"><tag k="addr:street" v="Honeycomb Lane"/><tag k="addr:housenumber" v="22306"/><tag k="addr:postcode" v="78641"/></node><node id="-23" lat="30.567932" lon="-97.945186" changeset="false"><tag k="addr:street" v="Nameless Road"/><tag k="addr:housenumber" v="22700"/><tag k="addr:postcode" v="78641"/></node><node id="-24" lat="30.587133" lon="-97.961891" changeset="false"><tag k="addr:street" v="Faubion Trail"/><tag k="addr:housenumber" v="15280"/><tag k="addr:postcode" v="78641"/></node><node id="-25" lat="30.586858" lon="-97.960294" changeset="false"><tag k="addr:street" v="Faubion Trail"/><tag k="addr:housenumber" v="15277"/><tag k="addr:postcode" v="78641"/></node><node id="-26" lat="30.599788" lon="-97.931772" changeset="false"><tag k="addr:street" v="Round Mountain Road"/><tag k="addr:housenumber" v="16509"/><tag k="addr:postcode" v="78641"/></node><node id="-27" lat="30.595491" lon="-97.96399" changeset="false"><tag k="addr:street" v="Chaparral Drive"/><tag k="addr:housenumber" v="15301"/><tag k="addr:postcode" v="78641"/></node><node id="-28" lat="30.573743" lon="-97.958101" changeset="false"><tag k="addr:street" v="Big Sandy Drive"/><tag k="addr:housenumber" v="23310"/><tag k="addr:postcode" v="78641"/></node><node id="-29" lat="30.586358" lon="-97.983992" changeset="false"><tag k="addr:street" v="Layne Loop"/><tag k="addr:housenumber" v="14004"/><tag k="addr:postcode" v="78641"/></node><node id="-30" lat="30.586791" lon="-97.982711" changeset="false"><tag k="addr:street" v="Layne Loop"/><tag k="addr:housenumber" v="14105"/><tag k="addr:postcode" v="78641"/></node><node id="-31" lat="30.585669" lon="-97.981637" changeset="false"><tag k="addr:street" v="Joyce Drive"/><tag k="addr:housenumber" v="14101"/><tag k="addr:postcode" v="78641"/></node><node id="-32" lat="30.568925" lon="-97.950133" changeset="false"><tag k="addr:street" v="Pecan Hollow"/><tag k="addr:housenumber" v="14108"/><tag k="addr:postcode" v="78641"/></node><node id="-33" lat="30.599082" lon="-97.982884" changeset="false"><tag k="addr:street" v="Fawn Drive"/><tag k="addr:housenumber" v="25605"/><tag k="addr:postcode" v="78641"/></node><node id="-34" lat="30.519136" lon="-97.879459" changeset="false"><tag k="addr:street" v="Indian Chief Drive"/><tag k="addr:housenumber" v="17113"/><tag k="addr:postcode" v="78613"/></node><node id="-35" lat="30.585317" lon="-97.983596" changeset="false"><tag k="addr:street" v="Joyce Drive"/><tag k="addr:housenumber" v="13902"/><tag k="addr:postcode" v="78641"/></node><node id="-36" lat="30.521507" lon="-97.875145" changeset="false"><tag k="addr:street" v="Hur Industrial Boulevard"/><tag k="addr:housenumber" v="1905"/><tag k="addr:postcode" v="78613"/></node><node id="-37" lat="30.521609" lon="-97.873841" changeset="false"><tag k="addr:street" v="Hur Industrial Boulevard"/><tag k="addr:housenumber" v="1904"/><tag k="addr:postcode" v="78613"/></node><node id="-38" lat="30.538722" lon="-97.883479" changeset="false"><tag k="addr:street" v="Crystal Falls Parkway"/><tag k="addr:housenumber" v="3207"/><tag k="addr:postcode" v="78641"/></node><node id="-39" lat="30.575345" lon="-97.943525" changeset="false"><tag k="addr:street" v="Sweet Summer Drive"/><tag k="addr:housenumber" v="22600"/><tag k="addr:postcode" v="78641"/></node><node id="-40" lat="30.575359" lon="-97.944971" changeset="false"><tag k="addr:street" v="Sweet Summer Drive"/><tag k="addr:housenumber" v="22610"/><tag k="addr:postcode" v="78641"/></node><node id="-41" lat="30.574569" lon="-97.945058" changeset="false"><tag k="addr:street" v="Sweet Summer Drive"/><tag k="addr:housenumber" v="22613"/><tag k="addr:postcode" v="78641"/></node><node id="-42" lat="30.561864" lon="-97.898395" changeset="false"><tag k="addr:street" v="Apple Springs Hollow"/><tag k="addr:housenumber" v="15203"/><tag k="addr:postcode" v="78641"/></node><node id="-43" lat="30.60296" lon="-97.947419" changeset="false"><tag k="addr:street" v="Lucky Hit Road"/><tag k="addr:housenumber" v="16214"/><tag k="addr:postcode" v="78641"/></node><node id="-44" lat="30.58406" lon="-97.984088" changeset="false"><tag k="addr:street" v="Long Hollow Loop"/><tag k="addr:housenumber" v="13826"/><tag k="addr:postcode" v="78641"/></node><node id="-45" lat="30.584643" lon="-97.980216" changeset="false"><tag k="addr:street" v="Long Hollow Loop"/><tag k="addr:housenumber" v="14005"/><tag k="addr:postcode" v="78641"/></node><node id="-46" lat="30.540407" lon="-97.883482" changeset="false"><tag k="addr:street" v="Crystal Falls Parkway"/><tag k="addr:housenumber" v="3107"/><tag k="addr:postcode" v="78641"/></node><node id="-47" lat="30.556106" lon="-97.900081" changeset="false"><tag k="addr:street" v="Apple Springs Hollow"/><tag k="addr:housenumber" v="14900"/><tag k="addr:postcode" v="78641"/></node><node id="-48" lat="30.556581" lon="-97.899584" changeset="false"><tag k="addr:street" v="Apple Springs Hollow"/><tag k="addr:housenumber" v="14901"/><tag k="addr:postcode" v="78641"/></node><node id="-49" lat="30.541229" lon="-97.871177" changeset="false"><tag k="addr:street" v="Leaders Lane"/><tag k="addr:housenumber" v="1917"/><tag k="addr:postcode" v="78641"/></node><node id="-50" lat="30.564391" lon="-97.902547" changeset="false"><tag k="addr:street" v="Apple Springs Circle"/><tag k="addr:housenumber" v="15400"/><tag k="addr:postcode" v="78641"/></node><node id="-51" lat="30.515925" lon="-97.911326" changeset="false"><tag k="addr:street" v="Lone Mountain Pass"/><tag k="addr:housenumber" v="12510"/><tag k="addr:postcode" v="78641"/></node><node id="-52" lat="30.558924" lon="-97.903111" changeset="false"><tag k="addr:street" v="Apple Springs Hollow"/><tag k="addr:housenumber" v="14916"/><tag k="addr:postcode" v="78641"/></node><node id="-53" lat="30.514368" lon="-97.912192" changeset="false"><tag k="addr:street" v="Lone Mountain Pass"/><tag k="addr:housenumber" v="12400"/><tag k="addr:postcode" v="78641"/></node><node id="-54" lat="30.514994" lon="-97.914603" changeset="false"><tag k="addr:street" v="Angel Mountain Drive"/><tag k="addr:housenumber" v="18805"/><tag k="addr:postcode" v="78641"/></node><node id="-55" lat="30.613564" lon="-97.948029" changeset="false"><tag k="addr:street" v="Bingham Creek Road"/><tag k="addr:housenumber" v="24369"/><tag k="addr:postcode" v="78641"/></node><node id="-56" lat="30.583052" lon="-97.970323" changeset="false"><tag k="addr:street" v="Long Hollow Trail"/><tag k="addr:housenumber" v="24309"/><tag k="addr:postcode" v="78641"/></node><node id="-57" lat="30.588477" lon="-97.985449" changeset="false"><tag k="addr:street" v="Rock Cliff Drive"/><tag k="addr:housenumber" v="14100"/><tag k="addr:postcode" v="78641"/></node><node id="-58" lat="30.549172" lon="-97.876239" changeset="false"><tag k="addr:street" v="Crystal Falls Parkway"/><tag k="addr:housenumber" v="2405"/><tag k="addr:postcode" v="78641"/></node><node id="-59" lat="30.592165" lon="-97.982331" changeset="false"><tag k="addr:street" v="Rock Cliff Drive"/><tag k="addr:housenumber" v="14405"/><tag k="addr:postcode" v="78641"/></node><node id="-60" lat="30.519207" lon="-97.874721" changeset="false"><tag k="addr:street" v="Hur Industrial Boulevard"/><tag k="addr:housenumber" v="1709"/><tag k="addr:postcode" v="78613"/></node><node id="-61" lat="30.555982" lon="-97.893941" changeset="false"><tag k="addr:street" v="Brown Bluff Circle"/><tag k="addr:housenumber" v="15004"/><tag k="addr:postcode" v="78641"/></node><node id="-62" lat="30.558833" lon="-97.946564" changeset="false"><tag k="addr:street" v="Nameless Road"/><tag k="addr:housenumber" v="22836"/><tag k="addr:postcode" v="78641"/></node><node id="-63" lat="30.55354" lon="-97.895738" changeset="false"><tag k="addr:street" v="Brown Bluff Circle"/><tag k="addr:housenumber" v="14901"/><tag k="addr:postcode" v="78641"/></node><node id="-64" lat="30.548988" lon="-97.87812" changeset="false"><tag k="addr:street" v="Crystal Falls Parkway"/><tag k="addr:housenumber" v="2505"/><tag k="addr:postcode" v="78641"/></node><node id="-65" lat="30.537999" lon="-97.875238" changeset="false"><tag k="addr:street" v="Long Bow Drive"/><tag k="addr:housenumber" v="2248"/><tag k="addr:postcode" v="78641"/></node><node id="-66" lat="30.537496" lon="-97.873957" changeset="false"><tag k="addr:street" v="Long Bow Drive"/><tag k="addr:housenumber" v="2221"/><tag k="addr:postcode" v="78641"/></node><node id="-67" lat="30.537575" lon="-97.87096" changeset="false"><tag k="addr:street" v="Champions Corner Drive"/><tag k="addr:housenumber" v="2400"/><tag k="addr:postcode" v="78641"/></node><node id="-68" lat="30.537247" lon="-97.870797" changeset="false"><tag k="addr:street" v="Champions Corner Drive"/><tag k="addr:housenumber" v="2408"/><tag k="addr:postcode" v="78641"/></node><node id="-69" lat="30.53704" lon="-97.870692" changeset="false"><tag k="addr:street" v="Champions Corner Drive"/><tag k="addr:housenumber" v="2412"/><tag k="addr:postcode" v="78641"/></node><node id="-70" lat="30.534614" lon="-97.869804" changeset="false"><tag k="addr:street" v="Champions Corner Drive"/><tag k="addr:housenumber" v="2601"/><tag k="addr:postcode" v="78641"/></node><node id="-71" lat="30.539084" lon="-97.869547" changeset="false"><tag k="addr:street" v="Long Bow Drive"/><tag k="addr:housenumber" v="1916"/><tag k="addr:postcode" v="78641"/></node><node id="-72" lat="30.530379" lon="-97.87065" changeset="false"><tag k="addr:street" v="Garnet Ridge Drive"/><tag k="addr:housenumber" v="2829"/><tag k="addr:postcode" v="78641"/></node><node id="-73" lat="30.5339" lon="-97.871255" changeset="false"><tag k="addr:street" v="Outlook Ridge Loop"/><tag k="addr:housenumber" v="2645"/><tag k="addr:postcode" v="78641"/></node><node id="-74" lat="30.532733" lon="-97.871188" changeset="false"><tag k="addr:street" v="Outlook Ridge Loop"/><tag k="addr:housenumber" v="2704"/><tag k="addr:postcode" v="78641"/></node><node id="-75" lat="30.586118" lon="-97.978961" changeset="false"><tag k="addr:street" v="Summit View Drive"/><tag k="addr:housenumber" v="14201"/><tag k="addr:postcode" v="78641"/></node><node id="-76" lat="30.604372" lon="-97.939253" changeset="false"><tag k="addr:street" v="Lucky Hit Road"/><tag k="addr:housenumber" v="16480"/><tag k="addr:postcode" v="78641"/></node><node id="-77" lat="30.594402" lon="-97.930501" changeset="false"><tag k="addr:street" v="Arrow Head Drive"/><tag k="addr:housenumber" v="16210"/><tag k="addr:postcode" v="78641"/></node><node id="-78" lat="30.617687" lon="-97.946387" changeset="false"><tag k="addr:street" v="Bingham Creek Road"/><tag k="addr:housenumber" v="24301"/><tag k="addr:postcode" v="78641"/></node><node id="-79" lat="30.542704" lon="-97.877741" changeset="false"><tag k="addr:street" v="Gift Horse Pass"/><tag k="addr:housenumber" v="2308"/><tag k="addr:postcode" v="78641"/></node><node id="-80" lat="30.615847" lon="-97.941668" changeset="false"><tag k="addr:street" v="Round Mountain Road"/><tag k="addr:housenumber" v="17226"/><tag k="addr:postcode" v="78641"/></node><node id="-81" lat="30.61308" lon="-97.951127" changeset="false"><tag k="addr:street" v="Bingham Creek Road"/><tag k="addr:housenumber" v="24417"/><tag k="addr:postcode" v="78641"/></node><node id="-82" lat="30.593312" lon="-97.980866" changeset="false"><tag k="addr:street" v="Ranch Road"/><tag k="addr:housenumber" v="25302"/><tag k="addr:postcode" v="78641"/></node><node id="-83" lat="30.582306" lon="-97.951472" changeset="false"><tag k="addr:street" v="Evans Oaks Road"/><tag k="addr:housenumber" v="14901"/><tag k="addr:postcode" v="78641"/></node><node id="-84" lat="30.590671" lon="-97.957979" changeset="false"><tag k="addr:street" v="Faubion Trail"/><tag k="addr:housenumber" v="15247"/><tag k="addr:postcode" v="78641"/></node><node id="-85" lat="30.570286" lon="-97.949483" changeset="false"><tag k="addr:street" v="Big Sandy Drive"/><tag k="addr:housenumber" v="22714"/><tag k="addr:postcode" v="78641"/></node><node id="-86" lat="30.570092" lon="-97.948826" changeset="false"><tag k="addr:street" v="Big Sandy Drive"/><tag k="addr:housenumber" v="22706"/><tag k="addr:postcode" v="78641"/></node><node id="-87" lat="30.566042" lon="-97.95205" changeset="false"><tag k="addr:street" v="Pecan Hollow"/><tag k="addr:housenumber" v="13811"/><tag k="addr:postcode" v="78641"/></node><node id="-88" lat="30.563444" lon="-97.954285" changeset="false"><tag k="addr:street" v="Cedar Hollow"/><tag k="addr:housenumber" v="22703"/><tag k="addr:postcode" v="78641"/></node><node id="-89" lat="30.579349" lon="-97.945224" changeset="false"><tag k="addr:street" v="Round Mountain Road"/><tag k="addr:housenumber" v="14733"/><tag k="addr:postcode" v="78641"/></node><node id="-90" lat="30.540867" lon="-97.869006" changeset="false"><tag k="addr:street" v="Signature Lane"/><tag k="addr:housenumber" v="2116"/><tag k="addr:postcode" v="78641"/></node><node id="-91" lat="30.539432" lon="-97.872864" changeset="false"><tag k="addr:street" v="Champions Corner Drive"/><tag k="addr:housenumber" v="2221"/><tag k="addr:postcode" v="78641"/></node><node id="-92" lat="30.537089" lon="-97.87306" changeset="false"><tag k="addr:street" v="Long Bow Drive"/><tag k="addr:housenumber" v="2204"/><tag k="addr:postcode" v="78641"/></node><node id="-93" lat="30.537412" lon="-97.872231" changeset="false"><tag k="addr:street" v="Long Bow Drive"/><tag k="addr:housenumber" v="2112"/><tag k="addr:postcode" v="78641"/></node><node id="-94" lat="30.539229" lon="-97.872442" changeset="false"><tag k="addr:street" v="Peoria Drive"/><tag k="addr:housenumber" v="2105"/><tag k="addr:postcode" v="78641"/></node><node id="-95" lat="30.539122" lon="-97.872657" changeset="false"><tag k="addr:street" v="Peoria Drive"/><tag k="addr:housenumber" v="2109"/><tag k="addr:postcode" v="78641"/></node><node id="-96" lat="30.538584" lon="-97.872131" changeset="false"><tag k="addr:street" v="Champions Corner Drive"/><tag k="addr:housenumber" v="2309"/><tag k="addr:postcode" v="78641"/></node><node id="-97" lat="30.529538" lon="-97.874827" changeset="false"><tag k="addr:street" v="Granite Hill Drive"/><tag k="addr:housenumber" v="2708"/><tag k="addr:postcode" v="78641"/></node><node id="-98" lat="30.532165" lon="-97.877002" changeset="false"><tag k="addr:street" v="Yuma Trail"/><tag k="addr:housenumber" v="2501"/><tag k="addr:postcode" v="78641"/></node><node id="-99" lat="30.538472" lon="-97.929506" changeset="false"><tag k="addr:street" v="Shady Mountain Road"/><tag k="addr:housenumber" v="13201"/><tag k="addr:postcode" v="78641"/></node><node id="-100" lat="30.57262" lon="-97.927328" changeset="false"><tag k="addr:street" v="Honeycomb Court"/><tag k="addr:housenumber" v="15005"/><tag k="addr:postcode" v="78641"/></node><node id="-101" lat="30.521009" lon="-97.907752" changeset="false"><tag k="addr:street" v="Angel Springs Drive"/><tag k="addr:housenumber" v="12901"/><tag k="addr:postcode" v="78641"/></node><node id="-102" lat="30.571465" lon="-97.925366" changeset="false"><tag k="addr:street" v="Honeycomb Hollow"/><tag k="addr:housenumber" v="15146"/><tag k="addr:postcode" v="78641"/></node><node id="-103" lat="30.57097" lon="-97.92404" changeset="false"><tag k="addr:street" v="Honeycomb Hollow"/><tag k="addr:housenumber" v="15147"/><tag k="addr:postcode" v="78641"/></node><node id="-104" lat="30.570316" lon="-97.945445" changeset="false"><tag k="addr:street" v="Round Mountain Road"/><tag k="addr:housenumber" v="14307"/><tag k="addr:postcode" v="78641"/></node><node id="-105" lat="30.58286" lon="-97.969082" changeset="false"><tag k="addr:street" v="Long Hollow Trail"/><tag k="addr:housenumber" v="24301"/><tag k="addr:postcode" v="78641"/></node><node id="-106" lat="30.517477" lon="-97.907256" changeset="false"><tag k="addr:street" v="Farm-to-Market Road 1431"/><tag k="addr:housenumber" v="18118"/><tag k="addr:postcode" v="78641"/></node><node id="-107" lat="30.568354" lon="-97.950119" changeset="false"><tag k="addr:street" v="Pecan Hollow"/><tag k="addr:housenumber" v="14008"/><tag k="addr:postcode" v="78641"/></node><node id="-108" lat="30.519352" lon="-97.895133" changeset="false"><tag k="addr:street" v="Vista Rock Drive"/><tag k="addr:housenumber" v="13343"/><tag k="addr:postcode" v="78641"/></node><node id="-109" lat="30.615201" lon="-97.95681" changeset="false"><tag k="addr:street" v="Bingham Creek Road"/><tag k="addr:housenumber" v="24701"/><tag k="addr:postcode" v="78641"/></node><node id="-110" lat="30.539036" lon="-97.93057" changeset="false"><tag k="addr:street" v="Shady Mountain Road"/><tag k="addr:housenumber" v="13200"/><tag k="addr:postcode" v="78641"/></node><node id="-111" lat="30.577338" lon="-97.934286" changeset="false"><tag k="addr:street" v="Honeycomb Circle"/><tag k="addr:housenumber" v="22200"/><tag k="addr:postcode" v="78641"/></node><node id="-112" lat="30.5292" lon="-97.930413" changeset="false"><tag k="addr:street" v="Nameless Road"/><tag k="addr:housenumber" v="23367"/><tag k="addr:postcode" v="78641"/></node><node id="-113" lat="30.572207" lon="-97.948678" changeset="false"><tag k="addr:street" v="Round Mountain Road"/><tag k="addr:housenumber" v="14347"/><tag k="addr:postcode" v="78641"/></node><node id="-114" lat="30.57198" lon="-97.957659" changeset="false"><tag k="addr:street" v="Big Sandy Drive"/><tag k="addr:housenumber" v="23206"/><tag k="addr:postcode" v="78641"/></node><node id="-115" lat="30.570522" lon="-97.924367" changeset="false"><tag k="addr:street" v="Honeycomb Hollow"/><tag k="addr:housenumber" v="15145"/><tag k="addr:postcode" v="78641"/></node><node id="-116" lat="30.592056" lon="-97.965369" changeset="false"><tag k="addr:street" v="Chaparral Drive"/><tag k="addr:housenumber" v="15003"/><tag k="addr:postcode" v="78641"/></node><node id="-117" lat="30.591478" lon="-97.966054" changeset="false"><tag k="addr:street" v="Chaparral Drive"/><tag k="addr:housenumber" v="14905"/><tag k="addr:postcode" v="78641"/></node><node id="-118" lat="30.570192" lon="-97.949176" changeset="false"><tag k="addr:street" v="Big Sandy Drive"/><tag k="addr:housenumber" v="22710"/><tag k="addr:postcode" v="78641"/></node><node id="-119" lat="30.60897" lon="-97.935947" changeset="false"><tag k="addr:street" v="Round Mountain Road"/><tag k="addr:housenumber" v="17060"/><tag k="addr:postcode" v="78641"/></node><node id="-120" lat="30.582277" lon="-97.956737" changeset="false"><tag k="addr:street" v="Faubion Trail"/><tag k="addr:housenumber" v="14700"/><tag k="addr:postcode" v="78641"/></node><node id="-121" lat="30.587226" lon="-97.977067" changeset="false"><tag k="addr:street" v="Long Hollow Trail"/><tag k="addr:housenumber" v="24901"/><tag k="addr:postcode" v="78641"/></node><node id="-122" lat="30.610695" lon="-97.937773" changeset="false"><tag k="addr:street" v="Round Mountain Road"/><tag k="addr:housenumber" v="17128"/><tag k="addr:postcode" v="78641"/></node><node id="-123" lat="30.571206" lon="-97.926001" changeset="false"><tag k="addr:street" v="Honeycomb Hollow"/><tag k="addr:housenumber" v="15140"/><tag k="addr:postcode" v="78641"/></node><node id="-124" lat="30.5912" lon="-97.984058" changeset="false"><tag k="addr:street" v="Rock Cliff Drive"/><tag k="addr:housenumber" v="14300"/><tag k="addr:postcode" v="78641"/></node><node id="-125" lat="30.574821" lon="-97.949318" changeset="false"><tag k="addr:street" v="Round Mountain Road"/><tag k="addr:housenumber" v="14500"/><tag k="addr:postcode" v="78641"/></node><node id="-126" lat="30.517924" lon="-97.878001" changeset="false"><tag k="addr:street" v="Indian Chief Drive"/><tag k="addr:housenumber" v="17009"/><tag k="addr:postcode" v="78613"/></node><node id="-127" lat="30.585966" lon="-97.97667" changeset="false"><tag k="addr:street" v="Long Hollow Trail"/><tag k="addr:housenumber" v="24801"/><tag k="addr:postcode" v="78641"/></node><node id="-128" lat="30.589504" lon="-97.973753" changeset="false"><tag k="addr:street" v="Sheep Hollow Trail"/><tag k="addr:housenumber" v="24802"/><tag k="addr:postcode" v="78641"/></node><node id="-129" lat="30.521152" lon="-97.879077" changeset="false"><tag k="addr:street" v="Frostdale Drive"/><tag k="addr:housenumber" v="13412"/><tag k="addr:postcode" v="78613"/></node><node id="-130" lat="30.519505" lon="-97.877417" changeset="false"><tag k="addr:street" v="Wagon Way"/><tag k="addr:housenumber" v="13406"/><tag k="addr:postcode" v="78613"/></node><node id="-131" lat="30.575304" lon="-97.943978" changeset="false"><tag k="addr:street" v="Sweet Summer Drive"/><tag k="addr:housenumber" v="22604"/><tag k="addr:postcode" v="78641"/></node><node id="-132" lat="30.58579" lon="-97.983455" changeset="false"><tag k="addr:street" v="Layne Loop"/><tag k="addr:housenumber" v="14001"/><tag k="addr:postcode" v="78641"/></node><node id="-133" lat="30.586126" lon="-97.981283" changeset="false"><tag k="addr:street" v="Joyce Drive"/><tag k="addr:housenumber" v="14105"/><tag k="addr:postcode" v="78641"/></node><node id="-134" lat="30.589057" lon="-97.971387" changeset="false"><tag k="addr:street" v="Fawn Drive"/><tag k="addr:housenumber" v="24605"/><tag k="addr:postcode" v="78641"/></node><node id="-135" lat="30.588641" lon="-97.970541" changeset="false"><tag k="addr:street" v="Fawn Drive"/><tag k="addr:housenumber" v="24601"/><tag k="addr:postcode" v="78641"/></node><node id="-136" lat="30.574657" lon="-97.941782" changeset="false"><tag k="addr:street" v="Sweet Summer Drive"/><tag k="addr:housenumber" v="22501"/><tag k="addr:postcode" v="78641"/></node><node id="-137" lat="30.595289" lon="-97.981677" changeset="false"><tag k="addr:street" v="Rock Cliff Drive"/><tag k="addr:housenumber" v="14607"/><tag k="addr:postcode" v="78641"/></node><node id="-138" lat="30.587218" lon="-97.978522" changeset="false"><tag k="addr:street" v="Layne Loop"/><tag k="addr:housenumber" v="14238"/><tag k="addr:postcode" v="78641"/></node><node id="-139" lat="30.586756" lon="-97.979965" changeset="false"><tag k="addr:street" v="Long Hollow Loop"/><tag k="addr:housenumber" v="14202"/><tag k="addr:postcode" v="78641"/></node><node id="-140" lat="30.587076" lon="-97.98063" changeset="false"><tag k="addr:street" v="Joyce Drive"/><tag k="addr:housenumber" v="14203"/><tag k="addr:postcode" v="78641"/></node><node id="-141" lat="30.574723" lon="-97.945431" changeset="false"><tag k="addr:street" v="Sweet Summer Drive"/><tag k="addr:housenumber" v="22616"/><tag k="addr:postcode" v="78641"/></node><node id="-142" lat="30.5996" lon="-97.945699" changeset="false"><tag k="addr:street" v="Round Mountain Circle"/><tag k="addr:housenumber" v="23600"/><tag k="addr:postcode" v="78641"/></node><node id="-143" lat="30.577777" lon="-97.921345" changeset="false"><tag k="addr:street" v="Nameless Road"/><tag k="addr:housenumber" v="21504"/><tag k="addr:postcode" v="78641"/></node><node id="-144" lat="30.584186" lon="-97.98437" changeset="false"><tag k="addr:street" v="Long Hollow Loop"/><tag k="addr:housenumber" v="13822"/><tag k="addr:postcode" v="78641"/></node><node id="-145" lat="30.58555" lon="-97.979742" changeset="false"><tag k="addr:street" v="Long Hollow Loop"/><tag k="addr:housenumber" v="14109"/><tag k="addr:postcode" v="78641"/></node><node id="-146" lat="30.597513" lon="-97.98076" changeset="false"><tag k="addr:street" v="Fawn Drive"/><tag k="addr:housenumber" v="25403"/><tag k="addr:postcode" v="78641"/></node><node id="-147" lat="30.539524" lon="-97.883482" changeset="false"><tag k="addr:street" v="Crystal Falls Parkway"/><tag k="addr:housenumber" v="3203"/><tag k="addr:postcode" v="78641"/></node><node id="-148" lat="30.583938" lon="-97.966771" changeset="false"><tag k="addr:street" v="Juniper Trail"/><tag k="addr:housenumber" v="14406"/><tag k="addr:postcode" v="78641"/></node><node id="-149" lat="30.587705" lon="-97.981938" changeset="false"><tag k="addr:street" v="Layne Loop"/><tag k="addr:housenumber" v="14201"/><tag k="addr:postcode" v="78641"/></node><node id="-150" lat="30.586068" lon="-97.979369" changeset="false"><tag k="addr:street" v="Long Hollow Loop"/><tag k="addr:housenumber" v="14201"/><tag k="addr:postcode" v="78641"/></node><node id="-151" lat="30.516938" lon="-97.911132" changeset="false"><tag k="addr:street" v="Lone Mountain Pass"/><tag k="addr:housenumber" v="12515"/><tag k="addr:postcode" v="78641"/></node><node id="-152" lat="30.539144" lon="-97.883514" changeset="false"><tag k="addr:street" v="Crystal Falls Parkway"/><tag k="addr:housenumber" v="3205"/><tag k="addr:postcode" v="78641"/></node><node id="-153" lat="30.536708" lon="-97.884063" changeset="false"><tag k="addr:street" v="Crystal Falls Parkway"/><tag k="addr:housenumber" v="3309"/><tag k="addr:postcode" v="78641"/></node><node id="-154" lat="30.517809" lon="-97.913323" changeset="false"><tag k="addr:street" v="Lone Mountain Pass"/><tag k="addr:housenumber" v="12518"/><tag k="addr:postcode" v="78641"/></node><node id="-155" lat="30.547451" lon="-97.881635" changeset="false"><tag k="addr:street" v="Crystal Falls Parkway"/><tag k="addr:housenumber" v="2705"/><tag k="addr:postcode" v="78641"/></node><node id="-156" lat="30.555433" lon="-97.892153" changeset="false"><tag k="addr:street" v="Apple Springs Drive"/><tag k="addr:housenumber" v="19106"/><tag k="addr:postcode" v="78641"/></node><node id="-157" lat="30.574695" lon="-97.92843" changeset="false"><tag k="addr:street" v="Honeycomb Court"/><tag k="addr:housenumber" v="15104"/><tag k="addr:postcode" v="78641"/></node><node id="-158" lat="30.58259" lon="-97.972003" changeset="false"><tag k="addr:street" v="Cottonwood Drive"/><tag k="addr:housenumber" v="24415"/><tag k="addr:postcode" v="78641"/></node><node id="-159" lat="30.582576" lon="-97.968348" changeset="false"><tag k="addr:street" v="Sheep Hollow Trail"/><tag k="addr:housenumber" v="24201"/><tag k="addr:postcode" v="78641"/></node><node id="-160" lat="30.590573" lon="-97.988135" changeset="false"><tag k="addr:street" v="Fireplace Court"/><tag k="addr:housenumber" v="25602"/><tag k="addr:postcode" v="78641"/></node><node id="-161" lat="30.593174" lon="-97.986488" changeset="false"><tag k="addr:street" v="Ranch Road"/><tag k="addr:housenumber" v="25601"/><tag k="addr:postcode" v="78641"/></node><node id="-162" lat="30.608574" lon="-97.935813" changeset="false"><tag k="addr:street" v="Round Mountain Road"/><tag k="addr:housenumber" v="17054"/><tag k="addr:postcode" v="78641"/></node><node id="-163" lat="30.529015" lon="-97.928522" changeset="false"><tag k="addr:street" v="Nameless Road"/><tag k="addr:housenumber" v="23395"/><tag k="addr:postcode" v="78641"/></node><node id="-164" lat="30.548887" lon="-97.879119" changeset="false"><tag k="addr:street" v="Crystal Falls Parkway"/><tag k="addr:housenumber" v="2601"/><tag k="addr:postcode" v="78641"/></node><node id="-165" lat="30.527773" lon="-97.870686" changeset="false"><tag k="addr:street" v="Granite Hill Drive"/><tag k="addr:housenumber" v="2312"/><tag k="addr:postcode" v="78641"/></node><node id="-166" lat="30.527089" lon="-97.870987" changeset="false"><tag k="addr:street" v="Granite Hill Drive"/><tag k="addr:housenumber" v="2332"/><tag k="addr:postcode" v="78641"/></node><node id="-167" lat="30.52766" lon="-97.871259" changeset="false"><tag k="addr:street" v="Granite Hill Drive"/><tag k="addr:housenumber" v="2317"/><tag k="addr:postcode" v="78641"/></node><node id="-168" lat="30.526888" lon="-97.871938" changeset="false"><tag k="addr:street" v="Granite Hill Drive"/><tag k="addr:housenumber" v="2409"/><tag k="addr:postcode" v="78641"/></node><node id="-169" lat="30.526785" lon="-97.872073" changeset="false"><tag k="addr:street" v="Granite Hill Drive"/><tag k="addr:housenumber" v="2413"/><tag k="addr:postcode" v="78641"/></node><node id="-170" lat="30.526435" lon="-97.871737" changeset="false"><tag k="addr:street" v="Granite Hill Drive"/><tag k="addr:housenumber" v="2416"/><tag k="addr:postcode" v="78641"/></node><node id="-171" lat="30.526138" lon="-97.872059" changeset="false"><tag k="addr:street" v="Granite Hill Drive"/><tag k="addr:housenumber" v="2428"/><tag k="addr:postcode" v="78641"/></node><node id="-172" lat="30.539196" lon="-97.874066" changeset="false"><tag k="addr:street" v="Champions Corner Drive"/><tag k="addr:housenumber" v="2200"/><tag k="addr:postcode" v="78641"/></node><node id="-173" lat="30.540265" lon="-97.872555" changeset="false"><tag k="addr:street" v="Champions Corner Drive"/><tag k="addr:housenumber" v="2236"/><tag k="addr:postcode" v="78641"/></node><node id="-174" lat="30.537575" lon="-97.871803" changeset="false"><tag k="addr:street" v="Long Bow Drive"/><tag k="addr:housenumber" v="2104"/><tag k="addr:postcode" v="78641"/></node><node id="-175" lat="30.537335" lon="-97.872421" changeset="false"><tag k="addr:street" v="Long Bow Drive"/><tag k="addr:housenumber" v="2116"/><tag k="addr:postcode" v="78641"/></node><node id="-176" lat="30.538023" lon="-97.872126" changeset="false"><tag k="addr:street" v="Long Bow Drive"/><tag k="addr:housenumber" v="2105"/><tag k="addr:postcode" v="78641"/></node><node id="-177" lat="30.53753" lon="-97.873168" changeset="false"><tag k="addr:street" v="Peoria Drive"/><tag k="addr:housenumber" v="2145"/><tag k="addr:postcode" v="78641"/></node><node id="-178" lat="30.53862" lon="-97.872511" changeset="false"><tag k="addr:street" v="Peoria Drive"/><tag k="addr:housenumber" v="2112"/><tag k="addr:postcode" v="78641"/></node><node id="-179" lat="30.538361" lon="-97.872587" changeset="false"><tag k="addr:street" v="Peoria Drive"/><tag k="addr:housenumber" v="2120"/><tag k="addr:postcode" v="78641"/></node><node id="-180" lat="30.537706" lon="-97.872667" changeset="false"><tag k="addr:street" v="Peoria Drive"/><tag k="addr:housenumber" v="2140"/><tag k="addr:postcode" v="78641"/></node><node id="-181" lat="30.580351" lon="-97.944642" changeset="false"><tag k="addr:street" v="Round Mountain Road"/><tag k="addr:housenumber" v="14819"/><tag k="addr:postcode" v="78641"/></node><node id="-182" lat="30.579038" lon="-97.922931" changeset="false"><tag k="addr:street" v="Nameless Road"/><tag k="addr:housenumber" v="21800"/><tag k="addr:postcode" v="78641"/></node><node id="-183" lat="30.537091" lon="-97.871392" changeset="false"><tag k="addr:street" v="Champions Corner Drive"/><tag k="addr:housenumber" v="2405"/><tag k="addr:postcode" v="78641"/></node><node id="-184" lat="30.534389" lon="-97.869731" changeset="false"><tag k="addr:street" v="Champions Corner Drive"/><tag k="addr:housenumber" v="2609"/><tag k="addr:postcode" v="78641"/></node><node id="-185" lat="30.538234" lon="-97.87049" changeset="false"><tag k="addr:street" v="Long Bow Drive"/><tag k="addr:housenumber" v="2004"/><tag k="addr:postcode" v="78641"/></node><node id="-186" lat="30.538251" lon="-97.871466" changeset="false"><tag k="addr:street" v="Champions Corner Drive"/><tag k="addr:housenumber" v="2320"/><tag k="addr:postcode" v="78641"/></node><node id="-187" lat="30.530716" lon="-97.870473" changeset="false"><tag k="addr:street" v="Garnet Ridge Drive"/><tag k="addr:housenumber" v="2824"/><tag k="addr:postcode" v="78641"/></node><node id="-188" lat="30.53061" lon="-97.870375" changeset="false"><tag k="addr:street" v="Garnet Ridge Drive"/><tag k="addr:housenumber" v="2828"/><tag k="addr:postcode" v="78641"/></node><node id="-189" lat="30.530194" lon="-97.870413" changeset="false"><tag k="addr:street" v="Garnet Ridge Drive"/><tag k="addr:housenumber" v="2837"/><tag k="addr:postcode" v="78641"/></node><node id="-190" lat="30.534421" lon="-97.872006" changeset="false"><tag k="addr:street" v="Outlook Ridge Loop"/><tag k="addr:housenumber" v="2600"/><tag k="addr:postcode" v="78641"/></node><node id="-191" lat="30.534134" lon="-97.871603" changeset="false"><tag k="addr:street" v="Outlook Ridge Loop"/><tag k="addr:housenumber" v="2601"/><tag k="addr:postcode" v="78641"/></node><node id="-192" lat="30.533516" lon="-97.871035" changeset="false"><tag k="addr:street" v="Outlook Ridge Loop"/><tag k="addr:housenumber" v="2652"/><tag k="addr:postcode" v="78641"/></node><node id="-193" lat="30.602523" lon="-97.935386" changeset="false"><tag k="addr:street" v="Round Mountain Road"/><tag k="addr:housenumber" v="16660"/><tag k="addr:postcode" v="78641"/></node><node id="-194" lat="30.540811" lon="-97.869645" changeset="false"><tag k="addr:street" v="Signature Lane"/><tag k="addr:housenumber" v="2109"/><tag k="addr:postcode" v="78641"/></node><node id="-195" lat="30.541906" lon="-97.869172" changeset="false"><tag k="addr:street" v="Leaders Lane"/><tag k="addr:housenumber" v="1801"/><tag k="addr:postcode" v="78641"/></node><node id="-196" lat="30.541568" lon="-97.870179" changeset="false"><tag k="addr:street" v="Leaders Lane"/><tag k="addr:housenumber" v="1901"/><tag k="addr:postcode" v="78641"/></node><node id="-197" lat="30.541476" lon="-97.870412" changeset="false"><tag k="addr:street" v="Leaders Lane"/><tag k="addr:housenumber" v="1905"/><tag k="addr:postcode" v="78641"/></node><node id="-198" lat="30.553768" lon="-97.898212" changeset="false"><tag k="addr:street" v="Brown Bluff Circle"/><tag k="addr:housenumber" v="14802"/><tag k="addr:postcode" v="78641"/></node><node id="-199" lat="30.554378" lon="-97.892977" changeset="false"><tag k="addr:street" v="Apple Springs Drive"/><tag k="addr:housenumber" v="19103"/><tag k="addr:postcode" v="78641"/></node><node id="-200" lat="30.585165" lon="-97.971226" changeset="false"><tag k="addr:street" v="Long Hollow Trail"/><tag k="addr:housenumber" v="24412"/><tag k="addr:postcode" v="78641"/></node><node id="-201" lat="30.598539" lon="-97.935402" changeset="false"><tag k="addr:street" v="Great Oaks Boulevard"/><tag k="addr:housenumber" v="23000"/><tag k="addr:postcode" v="78641"/></node><node id="-202" lat="30.59561" lon="-97.962095" changeset="false"><tag k="addr:street" v="Cisco Trail"/><tag k="addr:housenumber" v="24401"/><tag k="addr:postcode" v="78641"/></node><node id="-203" lat="30.590538" lon="-97.972166" changeset="false"><tag k="addr:street" v="Fawn Drive"/><tag k="addr:housenumber" v="24705"/><tag k="addr:postcode" v="78641"/></node><node id="-204" lat="30.608454" lon="-97.933207" changeset="false"><tag k="addr:street" v="Round Mountain Road"/><tag k="addr:housenumber" v="17021"/><tag k="addr:postcode" v="78641"/></node><node id="-205" lat="30.583999" lon="-97.955563" changeset="false"><tag k="addr:street" v="Faubion Trail"/><tag k="addr:housenumber" v="14804"/><tag k="addr:postcode" v="78641"/></node><node id="-206" lat="30.579646" lon="-97.952926" changeset="false"><tag k="addr:street" v="Evans Oaks Road"/><tag k="addr:housenumber" v="14615"/><tag k="addr:postcode" v="78641"/></node><node id="-207" lat="30.588286" lon="-97.974509" changeset="false"><tag k="addr:street" v="Sheep Hollow Trail"/><tag k="addr:housenumber" v="24707"/><tag k="addr:postcode" v="78641"/></node><node id="-208" lat="30.588515" lon="-97.97702" changeset="false"><tag k="addr:street" v="Summit View Drive"/><tag k="addr:housenumber" v="14305"/><tag k="addr:postcode" v="78641"/></node><node id="-209" lat="30.571151" lon="-97.956253" changeset="false"><tag k="addr:street" v="Big Sandy Drive"/><tag k="addr:housenumber" v="23104"/><tag k="addr:postcode" v="78641"/></node><node id="-210" lat="30.56918" lon="-97.938087" changeset="false"><tag k="addr:street" v="Honeycomb Drive"/><tag k="addr:housenumber" v="14501"/><tag k="addr:postcode" v="78641"/></node><node id="-211" lat="30.568173" lon="-97.950496" changeset="false"><tag k="addr:street" v="Pecan Hollow"/><tag k="addr:housenumber" v="14006"/><tag k="addr:postcode" v="78641"/></node><node id="-212" lat="30.530769" lon="-97.933307" changeset="false"><tag k="addr:street" v="Nameless Road"/><tag k="addr:housenumber" v="23325"/><tag k="addr:postcode" v="78641"/></node><node id="-213" lat="30.577862" lon="-97.926547" changeset="false"><tag k="addr:street" v="Honeycomb Hollow"/><tag k="addr:housenumber" v="15404"/><tag k="addr:postcode" v="78641"/></node><node id="-214" lat="30.57247" lon="-97.948734" changeset="false"><tag k="addr:street" v="Round Mountain Road"/><tag k="addr:housenumber" v="14343"/><tag k="addr:postcode" v="78641"/></node><node id="-215" lat="30.571391" lon="-97.956578" changeset="false"><tag k="addr:street" v="Big Sandy Drive"/><tag k="addr:housenumber" v="23106"/><tag k="addr:postcode" v="78641"/></node><node id="-216" lat="30.607876" lon="-97.935852" changeset="false"><tag k="addr:street" v="Round Mountain Road"/><tag k="addr:housenumber" v="17048"/><tag k="addr:postcode" v="78641"/></node><node id="-217" lat="30.60532" lon="-97.944967" changeset="false"><tag k="addr:street" v="Lucky Hit Road"/><tag k="addr:housenumber" v="16410"/><tag k="addr:postcode" v="78641"/></node><node id="-218" lat="30.573013" lon="-97.958347" changeset="false"><tag k="addr:street" v="Big Sandy Drive"/><tag k="addr:housenumber" v="23304"/><tag k="addr:postcode" v="78641"/></node><node id="-219" lat="30.57268" lon="-97.958301" changeset="false"><tag k="addr:street" v="Big Sandy Drive"/><tag k="addr:housenumber" v="23300"/><tag k="addr:postcode" v="78641"/></node><node id="-220" lat="30.57548" lon="-97.935363" changeset="false"><tag k="addr:street" v="Honeycomb Drive"/><tag k="addr:housenumber" v="14915"/><tag k="addr:postcode" v="78641"/></node><node id="-221" lat="30.575306" lon="-97.931062" changeset="false"><tag k="addr:street" v="Honeycomb Hollow"/><tag k="addr:housenumber" v="15108"/><tag k="addr:postcode" v="78641"/></node><node id="-222" lat="30.56351" lon="-97.954729" changeset="false"><tag k="addr:street" v="Cedar Hollow"/><tag k="addr:housenumber" v="22707"/><tag k="addr:postcode" v="78641"/></node><node id="-223" lat="30.56995" lon="-97.947065" changeset="false"><tag k="addr:street" v="Sandy Meadow Circle"/><tag k="addr:housenumber" v="14216"/><tag k="addr:postcode" v="78641"/></node><node id="-224" lat="30.580074" lon="-97.936897" changeset="false"><tag k="addr:street" v="Nameless Road"/><tag k="addr:housenumber" v="22501"/><tag k="addr:postcode" v="78641"/></node><node id="-225" lat="30.588466" lon="-97.966325" changeset="false"><tag k="addr:street" v="Chaparral Drive"/><tag k="addr:housenumber" v="14713"/><tag k="addr:postcode" v="78641"/></node><node id="-226" lat="30.614094" lon="-97.960591" changeset="false"><tag k="addr:street" v="Bingham Creek Road"/><tag k="addr:housenumber" v="24901"/><tag k="addr:postcode" v="78641"/></node><node id="-227" lat="30.587524" lon="-97.973882" changeset="false"><tag k="addr:street" v="Sheep Hollow Trail"/><tag k="addr:housenumber" v="24701"/><tag k="addr:postcode" v="78641"/></node><node id="-228" lat="30.587185" lon="-97.978163" changeset="false"><tag k="addr:street" v="Summit View Drive"/><tag k="addr:housenumber" v="14209"/><tag k="addr:postcode" v="78641"/></node><node id="-229" lat="30.586006" lon="-97.979002" changeset="false"><tag k="addr:street" v="Summit View Drive"/><tag k="addr:housenumber" v="14202"/><tag k="addr:postcode" v="78641"/></node><node id="-230" lat="30.523837" lon="-97.909063" changeset="false"><tag k="addr:street" v="Angel Springs Drive"/><tag k="addr:housenumber" v="13009"/><tag k="addr:postcode" v="78641"/></node><node id="-231" lat="30.597396" lon="-97.96379" changeset="false"><tag k="addr:street" v="Cisco Trail"/><tag k="addr:housenumber" v="24502"/><tag k="addr:postcode" v="78641"/></node><node id="-232" lat="30.587514" lon="-97.97128" changeset="false"><tag k="addr:street" v="Sheep Hollow Trail"/><tag k="addr:housenumber" v="24508"/><tag k="addr:postcode" v="78641"/></node><node id="-233" lat="30.564684" lon="-97.952968" changeset="false"><tag k="addr:street" v="Pecan Hollow"/><tag k="addr:housenumber" v="13708"/><tag k="addr:postcode" v="78641"/></node><node id="-234" lat="30.562387" lon="-97.952713" changeset="false"><tag k="addr:street" v="Dewberry Hollow"/><tag k="addr:housenumber" v="22604"/><tag k="addr:postcode" v="78641"/></node><node id="-235" lat="30.586351" lon="-97.975599" changeset="false"><tag k="addr:street" v="Long Hollow Trail"/><tag k="addr:housenumber" v="24706"/><tag k="addr:postcode" v="78641"/></node><node id="-236" lat="30.571002" lon="-97.956067" changeset="false"><tag k="addr:street" v="Big Sandy Drive"/><tag k="addr:housenumber" v="23102"/><tag k="addr:postcode" v="78641"/></node><node id="-237" lat="30.567192" lon="-97.951343" changeset="false"><tag k="addr:street" v="Pecan Hollow"/><tag k="addr:housenumber" v="13906"/><tag k="addr:postcode" v="78641"/></node><node id="-238" lat="30.570318" lon="-97.947366" changeset="false"><tag k="addr:street" v="Round Mountain Road"/><tag k="addr:housenumber" v="14318"/><tag k="addr:postcode" v="78641"/></node><node id="-239" lat="30.590222" lon="-97.966991" changeset="false"><tag k="addr:street" v="Chaparral Drive"/><tag k="addr:housenumber" v="14811"/><tag k="addr:postcode" v="78641"/></node><node id="-240" lat="30.519644" lon="-97.876575" changeset="false"><tag k="addr:street" v="Wagon Way"/><tag k="addr:housenumber" v="13415"/><tag k="addr:postcode" v="78613"/></node><node id="-241" lat="30.519921" lon="-97.877451" changeset="false"><tag k="addr:street" v="Wagon Way"/><tag k="addr:housenumber" v="13410"/><tag k="addr:postcode" v="78613"/></node><node id="-242" lat="30.518671" lon="-97.878903" changeset="false"><tag k="addr:street" v="Indian Chief Drive"/><tag k="addr:housenumber" v="17105"/><tag k="addr:postcode" v="78613"/></node><node id="-243" lat="30.598531" lon="-97.939745" changeset="false"><tag k="addr:street" v="Round Mountain Circle"/><tag k="addr:housenumber" v="23200"/><tag k="addr:postcode" v="78641"/></node><node id="-244" lat="30.597158" lon="-97.934557" changeset="false"><tag k="addr:street" v="Round Mountain Road"/><tag k="addr:housenumber" v="16218"/><tag k="addr:postcode" v="78641"/></node><node id="-245" lat="30.575144" lon="-97.941447" changeset="false"><tag k="addr:street" v="Sweet Summer Drive"/><tag k="addr:housenumber" v="22500"/><tag k="addr:postcode" v="78641"/></node><node id="-246" lat="30.575427" lon="-97.942392" changeset="false"><tag k="addr:street" v="Sweet Summer Drive"/><tag k="addr:housenumber" v="22508"/><tag k="addr:postcode" v="78641"/></node><node id="-247" lat="30.574558" lon="-97.945244" changeset="false"><tag k="addr:street" v="Sweet Summer Drive"/><tag k="addr:housenumber" v="22615"/><tag k="addr:postcode" v="78641"/></node><node id="-248" lat="30.584327" lon="-97.983449" changeset="false"><tag k="addr:street" v="Joyce Drive"/><tag k="addr:housenumber" v="13911"/><tag k="addr:postcode" v="78641"/></node><node id="-249" lat="30.52105" lon="-97.874102" changeset="false"><tag k="addr:street" v="Hur Industrial Boulevard"/><tag k="addr:housenumber" v="1900"/><tag k="addr:postcode" v="78613"/></node><node id="-250" lat="30.58787" lon="-97.969536" changeset="false"><tag k="addr:street" v="Fawn Drive"/><tag k="addr:housenumber" v="24501"/><tag k="addr:postcode" v="78641"/></node><node id="-251" lat="30.595579" lon="-97.978121" changeset="false"><tag k="addr:street" v="Fawn Drive"/><tag k="addr:housenumber" v="25205"/><tag k="addr:postcode" v="78641"/></node><node id="-252" lat="30.596016" lon="-97.978733" changeset="false"><tag k="addr:street" v="Fawn Drive"/><tag k="addr:housenumber" v="25209"/><tag k="addr:postcode" v="78641"/></node><node id="-253" lat="30.588488" lon="-97.98215" changeset="false"><tag k="addr:street" v="Layne Loop"/><tag k="addr:housenumber" v="14202"/><tag k="addr:postcode" v="78641"/></node><node id="-254" lat="30.585271" lon="-97.979876" changeset="false"><tag k="addr:street" v="Long Hollow Loop"/><tag k="addr:housenumber" v="14105"/><tag k="addr:postcode" v="78641"/></node><node id="-255" lat="30.584962" lon="-97.982255" changeset="false"><tag k="addr:street" v="Joyce Drive"/><tag k="addr:housenumber" v="14001"/><tag k="addr:postcode" v="78641"/></node><node id="-256" lat="30.584565" lon="-97.982806" changeset="false"><tag k="addr:street" v="Joyce Drive"/><tag k="addr:housenumber" v="13915"/><tag k="addr:postcode" v="78641"/></node><node id="-257" lat="30.547764" lon="-97.881233" changeset="false"><tag k="addr:street" v="Crystal Falls Parkway"/><tag k="addr:housenumber" v="2703"/><tag k="addr:postcode" v="78641"/></node><node id="-258" lat="30.556985" lon="-97.901595" changeset="false"><tag k="addr:street" v="Apple Springs Hollow"/><tag k="addr:housenumber" v="14904"/><tag k="addr:postcode" v="78641"/></node><node id="-259" lat="30.519151" lon="-97.902515" changeset="false"><tag k="addr:street" v="Farm-to-Market Road 1431"/><tag k="addr:housenumber" v="18056"/><tag k="addr:postcode" v="78641"/></node><node id="-260" lat="30.519043" lon="-97.902923" changeset="false"><tag k="addr:street" v="Farm-to-Market Road 1431"/><tag k="addr:housenumber" v="18062"/><tag k="addr:postcode" v="78641"/></node><node id="-261" lat="30.566709" lon="-97.944327" changeset="false"><tag k="addr:street" v="Nameless Road"/><tag k="addr:housenumber" v="22707"/><tag k="addr:postcode" v="78641"/></node><node id="-262" lat="30.600605" lon="-97.948753" changeset="false"><tag k="addr:street" v="Lucky Hit Road"/><tag k="addr:housenumber" v="16111"/><tag k="addr:postcode" v="78641"/></node><node id="-263" lat="30.518134" lon="-97.874479" changeset="false"><tag k="addr:street" v="Hur Industrial Boulevard"/><tag k="addr:housenumber" v="1701"/><tag k="addr:postcode" v="78613"/></node><node id="-264" lat="30.599364" lon="-97.984175" changeset="false"><tag k="addr:street" v="Rock Cliff Drive"/><tag k="addr:housenumber" v="14809"/><tag k="addr:postcode" v="78641"/></node><node id="-265" lat="30.582456" lon="-97.967012" changeset="false"><tag k="addr:street" v="Juniper Trail"/><tag k="addr:housenumber" v="14404"/><tag k="addr:postcode" v="78641"/></node><node id="-266" lat="30.592922" lon="-97.979685" changeset="false"><tag k="addr:street" v="Ranch Road"/><tag k="addr:housenumber" v="25200"/><tag k="addr:postcode" v="78641"/></node><node id="-267" lat="30.584007" lon="-97.970934" changeset="false"><tag k="addr:street" v="Cottonwood Drive"/><tag k="addr:housenumber" v="24401"/><tag k="addr:postcode" v="78641"/></node><node id="-268" lat="30.555747" lon="-97.892283" changeset="false"><tag k="addr:street" v="Apple Springs Drive"/><tag k="addr:housenumber" v="19110"/><tag k="addr:postcode" v="78641"/></node><node id="-269" lat="30.549326" lon="-97.875887" changeset="false"><tag k="addr:street" v="Crystal Falls Parkway"/><tag k="addr:housenumber" v="2403"/><tag k="addr:postcode" v="78641"/></node><node id="-270" lat="30.535502" lon="-97.869759" changeset="false"><tag k="addr:street" v="Champions Corner Drive"/><tag k="addr:housenumber" v="2524"/><tag k="addr:postcode" v="78641"/></node><node id="-271" lat="30.535785" lon="-97.870807" changeset="false"><tag k="addr:street" v="Champions Corner Drive"/><tag k="addr:housenumber" v="2509"/><tag k="addr:postcode" v="78641"/></node><node id="-272" lat="30.535671" lon="-97.870616" changeset="false"><tag k="addr:street" v="Champions Corner Drive"/><tag k="addr:housenumber" v="2513"/><tag k="addr:postcode" v="78641"/></node><node id="-273" lat="30.535001" lon="-97.87007" changeset="false"><tag k="addr:street" v="Champions Corner Drive"/><tag k="addr:housenumber" v="2529"/><tag k="addr:postcode" v="78641"/></node><node id="-274" lat="30.533578" lon="-97.86988" changeset="false"><tag k="addr:street" v="Champions Corner Court"/><tag k="addr:housenumber" v="2005"/><tag k="addr:postcode" v="78641"/></node><node id="-275" lat="30.538484" lon="-97.869964" changeset="false"><tag k="addr:street" v="Long Bow Drive"/><tag k="addr:housenumber" v="1928"/><tag k="addr:postcode" v="78641"/></node><node id="-276" lat="30.530284" lon="-97.870521" changeset="false"><tag k="addr:street" v="Garnet Ridge Drive"/><tag k="addr:housenumber" v="2833"/><tag k="addr:postcode" v="78641"/></node><node id="-277" lat="30.531983" lon="-97.871162" changeset="false"><tag k="addr:street" v="Outlook Ridge Loop"/><tag k="addr:housenumber" v="2720"/><tag k="addr:postcode" v="78641"/></node><node id="-278" lat="30.532731" lon="-97.870816" changeset="false"><tag k="addr:street" v="Lookout Knoll Drive"/><tag k="addr:housenumber" v="2113"/><tag k="addr:postcode" v="78641"/></node><node id="-279" lat="30.532156" lon="-97.870593" changeset="false"><tag k="addr:street" v="Lookout Knoll Drive"/><tag k="addr:housenumber" v="2100"/><tag k="addr:postcode" v="78641"/></node><node id="-280" lat="30.542651" lon="-97.87751" changeset="false"><tag k="addr:street" v="Gift Horse Pass"/><tag k="addr:housenumber" v="2304"/><tag k="addr:postcode" v="78641"/></node><node id="-281" lat="30.552645" lon="-97.897151" changeset="false"><tag k="addr:street" v="Brown Bluff Circle"/><tag k="addr:housenumber" v="14803"/><tag k="addr:postcode" v="78641"/></node><node id="-282" lat="30.540952" lon="-97.869845" changeset="false"><tag k="addr:street" v="Signature Lane"/><tag k="addr:housenumber" v="2105"/><tag k="addr:postcode" v="78641"/></node><node id="-283" lat="30.540948" lon="-97.871387" changeset="false"><tag k="addr:street" v="Leaders Lane"/><tag k="addr:housenumber" v="1921"/><tag k="addr:postcode" v="78641"/></node><node id="-284" lat="30.540665" lon="-97.8712" changeset="false"><tag k="addr:street" v="Leaders Lane"/><tag k="addr:housenumber" v="1920"/><tag k="addr:postcode" v="78641"/></node><node id="-285" lat="30.553882" lon="-97.894733" changeset="false"><tag k="addr:street" v="Brown Bluff Circle"/><tag k="addr:housenumber" v="14905"/><tag k="addr:postcode" v="78641"/></node><node id="-286" lat="30.54814" lon="-97.880968" changeset="false"><tag k="addr:street" v="Crystal Falls Parkway"/><tag k="addr:housenumber" v="2701"/><tag k="addr:postcode" v="78641"/></node><node id="-287" lat="30.586079" lon="-97.967258" changeset="false"><tag k="addr:street" v="Fawn Drive"/><tag k="addr:housenumber" v="24304"/><tag k="addr:postcode" v="78641"/></node><node id="-288" lat="30.529404" lon="-97.874323" changeset="false"><tag k="addr:street" v="Granite Hill Drive"/><tag k="addr:housenumber" v="2705"/><tag k="addr:postcode" v="78641"/></node><node id="-289" lat="30.527921" lon="-97.871187" changeset="false"><tag k="addr:street" v="Granite Hill Drive"/><tag k="addr:housenumber" v="2309"/><tag k="addr:postcode" v="78641"/></node><node id="-290" lat="30.527339" lon="-97.871436" changeset="false"><tag k="addr:street" v="Granite Hill Drive"/><tag k="addr:housenumber" v="2333"/><tag k="addr:postcode" v="78641"/></node><node id="-291" lat="30.52722" lon="-97.871569" changeset="false"><tag k="addr:street" v="Granite Hill Drive"/><tag k="addr:housenumber" v="2337"/><tag k="addr:postcode" v="78641"/></node><node id="-292" lat="30.526337" lon="-97.871837" changeset="false"><tag k="addr:street" v="Granite Hill Drive"/><tag k="addr:housenumber" v="2420"/><tag k="addr:postcode" v="78641"/></node><node id="-293" lat="30.531901" lon="-97.876449" changeset="false"><tag k="addr:street" v="Yuma Trail"/><tag k="addr:housenumber" v="2500"/><tag k="addr:postcode" v="78641"/></node><node id="-294" lat="30.531764" lon="-97.876659" changeset="false"><tag k="addr:street" v="Yuma Trail"/><tag k="addr:housenumber" v="2504"/><tag k="addr:postcode" v="78641"/></node><node id="-295" lat="30.585405" lon="-97.975936" changeset="false"><tag k="addr:street" v="Long Hollow Trail"/><tag k="addr:housenumber" v="24705"/><tag k="addr:postcode" v="78641"/></node><node id="-296" lat="30.585153" lon="-97.963519" changeset="false"><tag k="addr:street" v="Faubion Trail"/><tag k="addr:housenumber" v="15299"/><tag k="addr:postcode" v="78641"/></node><node id="-297" lat="30.605735" lon="-97.942857" changeset="false"><tag k="addr:street" v="Lucky Hit Road"/><tag k="addr:housenumber" v="16440"/><tag k="addr:postcode" v="78641"/></node><node id="-298" lat="30.593791" lon="-97.932724" changeset="false"><tag k="addr:street" v="Big Oak Circle"/><tag k="addr:housenumber" v="16201"/><tag k="addr:postcode" v="78641"/></node><node id="-299" lat="30.617551" lon="-97.944559" changeset="false"><tag k="addr:street" v="Bingham Creek Road"/><tag k="addr:housenumber" v="24207"/><tag k="addr:postcode" v="78641"/></node><node id="-300" lat="30.590671" lon="-97.978598" changeset="false"><tag k="addr:street" v="Ranch Road"/><tag k="addr:housenumber" v="25007"/><tag k="addr:postcode" v="78641"/></node><node id="-301" lat="30.615494" lon="-97.958983" changeset="false"><tag k="addr:street" v="Bingham Creek Road"/><tag k="addr:housenumber" v="24823"/><tag k="addr:postcode" v="78641"/></node><node id="-302" lat="30.590046" lon="-97.97474" changeset="false"><tag k="addr:street" v="Sheep Hollow Trail"/><tag k="addr:housenumber" v="24808"/><tag k="addr:postcode" v="78641"/></node><node id="-303" lat="30.589193" lon="-97.96014" changeset="false"><tag k="addr:street" v="Faubion Trail"/><tag k="addr:housenumber" v="15272"/><tag k="addr:postcode" v="78641"/></node><node id="-304" lat="30.587982" lon="-97.966777" changeset="false"><tag k="addr:street" v="Chaparral Drive"/><tag k="addr:housenumber" v="14711"/><tag k="addr:postcode" v="78641"/></node><node id="-305" lat="30.56415" lon="-97.945156" changeset="false"><tag k="addr:street" v="Nameless Road"/><tag k="addr:housenumber" v="22763"/><tag k="addr:postcode" v="78641"/></node><node id="-306" lat="30.537572" lon="-97.874509" changeset="false"><tag k="addr:street" v="Long Bow Drive"/><tag k="addr:housenumber" v="2232"/><tag k="addr:postcode" v="78641"/></node><node id="-307" lat="30.538159" lon="-97.875074" changeset="false"><tag k="addr:street" v="Long Bow Drive"/><tag k="addr:housenumber" v="2245"/><tag k="addr:postcode" v="78641"/></node><node id="-308" lat="30.520888" lon="-97.876657" changeset="false"><tag k="addr:street" v="Wagon Way"/><tag k="addr:housenumber" v="13427"/><tag k="addr:postcode" v="78613"/></node><node id="-309" lat="30.585821" lon="-97.941302" changeset="false"><tag k="addr:street" v="Round Mountain Road"/><tag k="addr:housenumber" v="15401"/><tag k="addr:postcode" v="78641"/></node><node id="-310" lat="30.539329" lon="-97.873064" changeset="false"><tag k="addr:street" v="Champions Corner Drive"/><tag k="addr:housenumber" v="2217"/><tag k="addr:postcode" v="78641"/></node><node id="-311" lat="30.539669" lon="-97.871838" changeset="false"><tag k="addr:street" v="Champions Corner Drive"/><tag k="addr:housenumber" v="2252"/><tag k="addr:postcode" v="78641"/></node><node id="-312" lat="30.538492" lon="-97.871509" changeset="false"><tag k="addr:street" v="Champions Corner Drive"/><tag k="addr:housenumber" v="2316"/><tag k="addr:postcode" v="78641"/></node><node id="-313" lat="30.53773" lon="-97.873292" changeset="false"><tag k="addr:street" v="Peoria Drive"/><tag k="addr:housenumber" v="2141"/><tag k="addr:postcode" v="78641"/></node><node id="-314" lat="30.538374" lon="-97.87209" changeset="false"><tag k="addr:street" v="Champions Corner Drive"/><tag k="addr:housenumber" v="2313"/><tag k="addr:postcode" v="78641"/></node><node id="-315" lat="30.537935" lon="-97.8728" changeset="false"><tag k="addr:street" v="Peoria Drive"/><tag k="addr:housenumber" v="2136"/><tag k="addr:postcode" v="78641"/></node><node id="-316" lat="30.521883" lon="-97.907804" changeset="false"><tag k="addr:street" v="Angel Springs Drive"/><tag k="addr:housenumber" v="12905"/><tag k="addr:postcode" v="78641"/></node><node id="-317" lat="30.52967" lon="-97.931168" changeset="false"><tag k="addr:street" v="Nameless Road"/><tag k="addr:housenumber" v="23353"/><tag k="addr:postcode" v="78641"/></node><node id="-318" lat="30.518677" lon="-97.880219" changeset="false"><tag k="addr:street" v="Whitetail Pass"/><tag k="addr:housenumber" v="17102"/><tag k="addr:postcode" v="78613"/></node><node id="-319" lat="30.573126" lon="-97.931819" changeset="false"><tag k="addr:street" v="Honeycomb Hollow"/><tag k="addr:housenumber" v="15117"/><tag k="addr:postcode" v="78641"/></node><node id="-320" lat="30.576303" lon="-97.946492" changeset="false"><tag k="addr:street" v="Round Mountain Road"/><tag k="addr:housenumber" v="14701"/><tag k="addr:postcode" v="78641"/></node><node id="-321" lat="30.51772" lon="-97.87899" changeset="false"><tag k="addr:street" v="Whitetail Pass"/><tag k="addr:housenumber" v="17008"/><tag k="addr:postcode" v="78613"/></node><node id="-322" lat="30.516136" lon="-97.868318" changeset="false"><tag k="addr:street" v="West Whitestone Boulevard"/><tag k="addr:housenumber" v="2665"/><tag k="addr:postcode" v="78613"/></node><node id="-323" lat="30.566149" lon="-97.952037" changeset="false"><tag k="addr:street" v="Pecan Hollow"/><tag k="addr:housenumber" v="13808"/><tag k="addr:postcode" v="78641"/></node><node id="-324" lat="30.55829" lon="-97.891615" changeset="false"><tag k="addr:street" v="Harkey Cove"/><tag k="addr:housenumber" v="15100"/><tag k="addr:postcode" v="78641"/></node><node id="-325" lat="30.598209" lon="-97.931427" changeset="false"><tag k="addr:street" v="Oak Ridge Trail"/><tag k="addr:housenumber" v="22800"/><tag k="addr:postcode" v="78641"/></node><node id="-326" lat="30.565155" lon="-97.952636" changeset="false"><tag k="addr:street" v="Pecan Hollow"/><tag k="addr:housenumber" v="13801"/><tag k="addr:postcode" v="78641"/></node><node id="-327" lat="30.568896" lon="-97.945711" changeset="false"><tag k="addr:street" v="Round Mountain Road"/><tag k="addr:housenumber" v="14306"/><tag k="addr:postcode" v="78641"/></node><node id="-328" lat="30.613964" lon="-97.960564" changeset="false"><tag k="addr:street" v="Bingham Creek Road"/><tag k="addr:housenumber" v="24835"/><tag k="addr:postcode" v="78641"/></node><node id="-329" lat="30.566667" lon="-97.946673" changeset="false"><tag k="addr:street" v="Sandy Meadow Circle"/><tag k="addr:housenumber" v="14100"/><tag k="addr:postcode" v="78641"/></node><node id="-330" lat="30.597015" lon="-97.962557" changeset="false"><tag k="addr:street" v="Cisco Trail"/><tag k="addr:housenumber" v="24402"/><tag k="addr:postcode" v="78641"/></node><node id="-331" lat="30.587687" lon="-97.97167" changeset="false"><tag k="addr:street" v="Sheep Hollow Trail"/><tag k="addr:housenumber" v="24600"/><tag k="addr:postcode" v="78641"/></node><node id="-332" lat="30.571156" lon="-97.929734" changeset="false"><tag k="addr:street" v="Honeycomb Hollow"/><tag k="addr:housenumber" v="15125"/><tag k="addr:postcode" v="78641"/></node><node id="-333" lat="30.570464" lon="-97.949854" changeset="false"><tag k="addr:street" v="Big Sandy Drive"/><tag k="addr:housenumber" v="22718"/><tag k="addr:postcode" v="78641"/></node><node id="-334" lat="30.570596" lon="-97.938327" changeset="false"><tag k="addr:street" v="Honeycomb Drive"/><tag k="addr:housenumber" v="14600"/><tag k="addr:postcode" v="78641"/></node><node id="-335" lat="30.594929" lon="-97.930012" changeset="false"><tag k="addr:street" v="Arrow Head Drive"/><tag k="addr:housenumber" v="16300"/><tag k="addr:postcode" v="78641"/></node><node id="-336" lat="30.594661" lon="-97.928906" changeset="false"><tag k="addr:street" v="Arrow Head Drive"/><tag k="addr:housenumber" v="16305"/><tag k="addr:postcode" v="78641"/></node><node id="-337" lat="30.594216" lon="-97.932003" changeset="false"><tag k="addr:street" v="Big Oak Circle"/><tag k="addr:housenumber" v="16205"/><tag k="addr:postcode" v="78641"/></node><node id="-338" lat="30.593074" lon="-97.931396" changeset="false"><tag k="addr:street" v="Arrow Head Drive"/><tag k="addr:housenumber" v="16104"/><tag k="addr:postcode" v="78641"/></node><node id="-339" lat="30.536628" lon="-97.931263" changeset="false"><tag k="addr:street" v="Shady Mountain Road"/><tag k="addr:housenumber" v="13101"/><tag k="addr:postcode" v="78641"/></node><node id="-340" lat="30.532968" lon="-97.93585" changeset="false"><tag k="addr:street" v="Nameless Road"/><tag k="addr:housenumber" v="23279"/><tag k="addr:postcode" v="78641"/></node><node id="-341" lat="30.599373" lon="-97.932077" changeset="false"><tag k="addr:street" v="Round Mountain Road"/><tag k="addr:housenumber" v="16507"/><tag k="addr:postcode" v="78641"/></node><node id="-342" lat="30.572978" lon="-97.923668" changeset="false"><tag k="addr:street" v="Honeycomb Hollow"/><tag k="addr:housenumber" v="15303"/><tag k="addr:postcode" v="78641"/></node><node id="-343" lat="30.523199" lon="-97.90926" changeset="false"><tag k="addr:street" v="Angel Springs Drive"/><tag k="addr:housenumber" v="13004"/><tag k="addr:postcode" v="78641"/></node><node id="-344" lat="30.587188" lon="-97.966968" changeset="false"><tag k="addr:street" v="Chaparral Drive"/><tag k="addr:housenumber" v="14701"/><tag k="addr:postcode" v="78641"/></node><node id="-345" lat="30.518932" lon="-97.876549" changeset="false"><tag k="addr:street" v="Wagon Way"/><tag k="addr:housenumber" v="13407"/><tag k="addr:postcode" v="78613"/></node><node id="-346" lat="30.519847" lon="-97.878862" changeset="false"><tag k="addr:street" v="Indian Chief Drive"/><tag k="addr:housenumber" v="17116"/><tag k="addr:postcode" v="78613"/></node><node id="-347" lat="30.590268" lon="-97.972046" changeset="false"><tag k="addr:street" v="Fawn Drive"/><tag k="addr:housenumber" v="24703"/><tag k="addr:postcode" v="78641"/></node><node id="-348" lat="30.600339" lon="-97.945416" changeset="false"><tag k="addr:street" v="Round Mountain Circle"/><tag k="addr:housenumber" v="23606"/><tag k="addr:postcode" v="78641"/></node><node id="-349" lat="30.593016" lon="-97.975137" changeset="false"><tag k="addr:street" v="Fawn Drive"/><tag k="addr:housenumber" v="25001"/><tag k="addr:postcode" v="78641"/></node><node id="-350" lat="30.587916" lon="-97.982877" changeset="false"><tag k="addr:street" v="Layne Loop"/><tag k="addr:housenumber" v="14116"/><tag k="addr:postcode" v="78641"/></node><node id="-351" lat="30.574896" lon="-97.943439" changeset="false"><tag k="addr:street" v="Sweet Summer Drive"/><tag k="addr:housenumber" v="22601"/><tag k="addr:postcode" v="78641"/></node><node id="-352" lat="30.59949" lon="-97.936641" changeset="false"><tag k="addr:street" v="Round Mountain Circle"/><tag k="addr:housenumber" v="23029"/><tag k="addr:postcode" v="78641"/></node><node id="-353" lat="30.597802" lon="-97.936491" changeset="false"><tag k="addr:street" v="Great Oaks Boulevard"/><tag k="addr:housenumber" v="23007"/><tag k="addr:postcode" v="78641"/></node><node id="-354" lat="30.595279" lon="-97.977211" changeset="false"><tag k="addr:street" v="Fawn Drive"/><tag k="addr:housenumber" v="25105"/><tag k="addr:postcode" v="78641"/></node><node id="-355" lat="30.520457" lon="-97.873062" changeset="false"><tag k="addr:street" v="Hur Industrial Boulevard"/><tag k="addr:housenumber" v="1700"/><tag k="addr:postcode" v="78613"/></node><node id="-356" lat="30.584156" lon="-97.964202" changeset="false"><tag k="addr:street" v="Faubion Trail"/><tag k="addr:housenumber" v="15311"/><tag k="addr:postcode" v="78641"/></node><node id="-357" lat="30.522931" lon="-97.877189" changeset="false"><tag k="addr:street" v="Wagon Way"/><tag k="addr:housenumber" v="13513"/><tag k="addr:postcode" v="78613"/></node><node id="-358" lat="30.566195" lon="-97.944474" changeset="false"><tag k="addr:street" v="Nameless Road"/><tag k="addr:housenumber" v="22727"/><tag k="addr:postcode" v="78641"/></node><node id="-359" lat="30.589162" lon="-97.977392" changeset="false"><tag k="addr:street" v="Summit View Drive"/><tag k="addr:housenumber" v="14310"/><tag k="addr:postcode" v="78641"/></node><node id="-360" lat="30.58639" lon="-97.988855" changeset="false"><tag k="addr:street" v="River Fern Court"/><tag k="addr:housenumber" v="25501"/><tag k="addr:postcode" v="78641"/></node><node id="-361" lat="30.588399" lon="-97.977985" changeset="false"><tag k="addr:street" v="Summit View Drive"/><tag k="addr:housenumber" v="14300"/><tag k="addr:postcode" v="78641"/></node><node id="-362" lat="30.602454" lon="-97.946669" changeset="false"><tag k="addr:street" v="Lucky Hit Road"/><tag k="addr:housenumber" v="16211"/><tag k="addr:postcode" v="78641"/></node><node id="-363" lat="30.522442" lon="-97.874739" changeset="false"><tag k="addr:street" v="Hur Industrial Boulevard"/><tag k="addr:housenumber" v="1913"/><tag k="addr:postcode" v="78613"/></node><node id="-364" lat="30.584329" lon="-97.980667" changeset="false"><tag k="addr:street" v="Long Hollow Loop"/><tag k="addr:housenumber" v="14001"/><tag k="addr:postcode" v="78641"/></node><node id="-365" lat="30.585012" lon="-97.980058" changeset="false"><tag k="addr:street" v="Long Hollow Loop"/><tag k="addr:housenumber" v="14101"/><tag k="addr:postcode" v="78641"/></node><node id="-366" lat="30.53834" lon="-97.883419" changeset="false"><tag k="addr:street" v="Crystal Falls Parkway"/><tag k="addr:housenumber" v="3301"/><tag k="addr:postcode" v="78641"/></node><node id="-367" lat="30.587665" lon="-97.979512" changeset="false"><tag k="addr:street" v="Layne Loop"/><tag k="addr:housenumber" v="14226"/><tag k="addr:postcode" v="78641"/></node><node id="-368" lat="30.591067" lon="-97.937884" changeset="false"><tag k="addr:street" v="Round Mountain Road"/><tag k="addr:housenumber" v="15719"/><tag k="addr:postcode" v="78641"/></node><node id="-369" lat="30.549002" lon="-97.876753" changeset="false"><tag k="addr:street" v="Crystal Falls Parkway"/><tag k="addr:housenumber" v="2407"/><tag k="addr:postcode" v="78641"/></node><node id="-370" lat="30.54899" lon="-97.877193" changeset="false"><tag k="addr:street" v="Crystal Falls Parkway"/><tag k="addr:housenumber" v="2501"/><tag k="addr:postcode" v="78641"/></node><node id="-371" lat="30.56504" lon="-97.899811" changeset="false"><tag k="addr:street" v="Apple Springs Circle"/><tag k="addr:housenumber" v="15403"/><tag k="addr:postcode" v="78641"/></node><node id="-372" lat="30.587258" lon="-97.981574" changeset="false"><tag k="addr:street" v="Joyce Drive"/><tag k="addr:housenumber" v="14200"/><tag k="addr:postcode" v="78641"/></node><node id="-373" lat="30.548735" lon="-97.879586" changeset="false"><tag k="addr:street" v="Crystal Falls Parkway"/><tag k="addr:housenumber" v="2603"/><tag k="addr:postcode" v="78641"/></node><node id="-374" lat="30.60088" lon="-97.93203" changeset="false"><tag k="addr:street" v="Round Mountain Road"/><tag k="addr:housenumber" v="16608"/><tag k="addr:postcode" v="78641"/></node><node id="-375" lat="30.59055" lon="-97.986842" changeset="false"><tag k="addr:street" v="Fireplace Court"/><tag k="addr:housenumber" v="25600"/><tag k="addr:postcode" v="78641"/></node><node id="-376" lat="30.545862" lon="-97.882486" changeset="false"><tag k="addr:street" v="Crystal Falls Parkway"/><tag k="addr:housenumber" v="2805"/><tag k="addr:postcode" v="78641"/></node><node id="-377" lat="30.544058" lon="-97.883552" changeset="false"><tag k="addr:street" v="Crystal Falls Parkway"/><tag k="addr:housenumber" v="2907"/><tag k="addr:postcode" v="78641"/></node><node id="-378" lat="30.541014" lon="-97.883768" changeset="false"><tag k="addr:street" v="Crystal Falls Parkway"/><tag k="addr:housenumber" v="3105"/><tag k="addr:postcode" v="78641"/></node><node id="-379" lat="30.539886" lon="-97.883496" changeset="false"><tag k="addr:street" v="Crystal Falls Parkway"/><tag k="addr:housenumber" v="3201"/><tag k="addr:postcode" v="78641"/></node><node id="-380" lat="30.540068" lon="-97.868937" changeset="false"><tag k="addr:street" v="Long Bow Drive"/><tag k="addr:housenumber" v="1856"/><tag k="addr:postcode" v="78641"/></node><node id="-381" lat="30.541755" lon="-97.869725" changeset="false"><tag k="addr:street" v="Leaders Lane"/><tag k="addr:housenumber" v="1809"/><tag k="addr:postcode" v="78641"/></node><node id="-382" lat="30.539576" lon="-97.87369" changeset="false"><tag k="addr:street" v="Champions Corner Drive"/><tag k="addr:housenumber" v="2212"/><tag k="addr:postcode" v="78641"/></node><node id="-383" lat="30.539675" lon="-97.873495" changeset="false"><tag k="addr:street" v="Champions Corner Drive"/><tag k="addr:housenumber" v="2216"/><tag k="addr:postcode" v="78641"/></node><node id="-384" lat="30.539991" lon="-97.872924" changeset="false"><tag k="addr:street" v="Champions Corner Drive"/><tag k="addr:housenumber" v="2228"/><tag k="addr:postcode" v="78641"/></node><node id="-385" lat="30.540149" lon="-97.872776" changeset="false"><tag k="addr:street" v="Champions Corner Drive"/><tag k="addr:housenumber" v="2232"/><tag k="addr:postcode" v="78641"/></node><node id="-386" lat="30.539866" lon="-97.871958" changeset="false"><tag k="addr:street" v="Champions Corner Drive"/><tag k="addr:housenumber" v="2248"/><tag k="addr:postcode" v="78641"/></node><node id="-387" lat="30.539055" lon="-97.873396" changeset="false"><tag k="addr:street" v="Champions Corner Drive"/><tag k="addr:housenumber" v="2209"/><tag k="addr:postcode" v="78641"/></node><node id="-388" lat="30.538448" lon="-97.87323" changeset="false"><tag k="addr:street" v="Peoria Drive"/><tag k="addr:housenumber" v="2125"/><tag k="addr:postcode" v="78641"/></node><node id="-389" lat="30.538828" lon="-97.872142" changeset="false"><tag k="addr:street" v="Champions Corner Drive"/><tag k="addr:housenumber" v="2305"/><tag k="addr:postcode" v="78641"/></node><node id="-390" lat="30.536866" lon="-97.870613" changeset="false"><tag k="addr:street" v="Champions Corner Drive"/><tag k="addr:housenumber" v="2416"/><tag k="addr:postcode" v="78641"/></node><node id="-391" lat="30.535524" lon="-97.870421" changeset="false"><tag k="addr:street" v="Champions Corner Drive"/><tag k="addr:housenumber" v="2517"/><tag k="addr:postcode" v="78641"/></node><node id="-392" lat="30.534784" lon="-97.869965" changeset="false"><tag k="addr:street" v="Champions Corner Drive"/><tag k="addr:housenumber" v="2533"/><tag k="addr:postcode" v="78641"/></node><node id="-393" lat="30.536611" lon="-97.871045" changeset="false"><tag k="addr:street" v="Winners Court"/><tag k="addr:housenumber" v="2001"/><tag k="addr:postcode" v="78641"/></node><node id="-394" lat="30.533355" lon="-97.86998" changeset="false"><tag k="addr:street" v="Champions Corner Court"/><tag k="addr:housenumber" v="2009"/><tag k="addr:postcode" v="78641"/></node><node id="-395" lat="30.539869" lon="-97.869075" changeset="false"><tag k="addr:street" v="Long Bow Drive"/><tag k="addr:housenumber" v="1900"/><tag k="addr:postcode" v="78641"/></node><node id="-396" lat="30.538858" lon="-97.869673" changeset="false"><tag k="addr:street" v="Long Bow Drive"/><tag k="addr:housenumber" v="1920"/><tag k="addr:postcode" v="78641"/></node><node id="-397" lat="30.530052" lon="-97.870321" changeset="false"><tag k="addr:street" v="Garnet Ridge Drive"/><tag k="addr:housenumber" v="2841"/><tag k="addr:postcode" v="78641"/></node><node id="-398" lat="30.534081" lon="-97.870673" changeset="false"><tag k="addr:street" v="Outlook Ridge Loop"/><tag k="addr:housenumber" v="2636"/><tag k="addr:postcode" v="78641"/></node><node id="-399" lat="30.528059" lon="-97.871144" changeset="false"><tag k="addr:street" v="Granite Hill Drive"/><tag k="addr:housenumber" v="2305"/><tag k="addr:postcode" v="78641"/></node><node id="-400" lat="30.52699" lon="-97.871809" changeset="false"><tag k="addr:street" v="Granite Hill Drive"/><tag k="addr:housenumber" v="2405"/><tag k="addr:postcode" v="78641"/></node><node id="-401" lat="30.526678" lon="-97.872184" changeset="false"><tag k="addr:street" v="Granite Hill Drive"/><tag k="addr:housenumber" v="2417"/><tag k="addr:postcode" v="78641"/></node><node id="-402" lat="30.526772" lon="-97.871395" changeset="false"><tag k="addr:street" v="Granite Hill Drive"/><tag k="addr:housenumber" v="2404"/><tag k="addr:postcode" v="78641"/></node><node id="-403" lat="30.531476" lon="-97.8771" changeset="false"><tag k="addr:street" v="Yuma Trail"/><tag k="addr:housenumber" v="2512"/><tag k="addr:postcode" v="78641"/></node><node id="-404" lat="30.537229" lon="-97.873747" changeset="false"><tag k="addr:street" v="Long Bow Drive"/><tag k="addr:housenumber" v="2216"/><tag k="addr:postcode" v="78641"/></node><node id="-405" lat="30.537275" lon="-97.873947" changeset="false"><tag k="addr:street" v="Long Bow Drive"/><tag k="addr:housenumber" v="2220"/><tag k="addr:postcode" v="78641"/></node><node id="-406" lat="30.537404" lon="-97.873581" changeset="false"><tag k="addr:street" v="Long Bow Drive"/><tag k="addr:housenumber" v="2213"/><tag k="addr:postcode" v="78641"/></node><node id="-407" lat="30.520628" lon="-97.876583" changeset="false"><tag k="addr:street" v="Wagon Way"/><tag k="addr:housenumber" v="13425"/><tag k="addr:postcode" v="78613"/></node><node id="-408" lat="30.585536" lon="-97.964852" changeset="false"><tag k="addr:street" v="Faubion Trail"/><tag k="addr:housenumber" v="15300"/><tag k="addr:postcode" v="78641"/></node><node id="-409" lat="30.592853" lon="-97.965043" changeset="false"><tag k="addr:street" v="Chaparral Drive"/><tag k="addr:housenumber" v="15101"/><tag k="addr:postcode" v="78641"/></node><node id="-410" lat="30.584402" lon="-97.966747" changeset="false"><tag k="addr:street" v="Juniper Trail"/><tag k="addr:housenumber" v="14502"/><tag k="addr:postcode" v="78641"/></node><node id="-411" lat="30.594288" lon="-97.933561" changeset="false"><tag k="addr:street" v="Big Oak Circle"/><tag k="addr:housenumber" v="16200"/><tag k="addr:postcode" v="78641"/></node><node id="-412" lat="30.592642" lon="-97.930362" changeset="false"><tag k="addr:street" v="Arrow Head Drive"/><tag k="addr:housenumber" v="16103"/><tag k="addr:postcode" v="78641"/></node><node id="-413" lat="30.616532" lon="-97.942405" changeset="false"><tag k="addr:street" v="Round Mountain Road"/><tag k="addr:housenumber" v="17308"/><tag k="addr:postcode" v="78641"/></node><node id="-414" lat="30.615195" lon="-97.956481" changeset="false"><tag k="addr:street" v="Bingham Creek Road"/><tag k="addr:housenumber" v="24621"/><tag k="addr:postcode" v="78641"/></node><node id="-415" lat="30.614633" lon="-97.955803" changeset="false"><tag k="addr:street" v="Bingham Creek Road"/><tag k="addr:housenumber" v="24611"/><tag k="addr:postcode" v="78641"/></node><node id="-416" lat="30.610323" lon="-97.937573" changeset="false"><tag k="addr:street" v="Round Mountain Road"/><tag k="addr:housenumber" v="17120"/><tag k="addr:postcode" v="78641"/></node><node id="-417" lat="30.60751" lon="-97.934952" changeset="false"><tag k="addr:street" v="Round Mountain Road"/><tag k="addr:housenumber" v="16934"/><tag k="addr:postcode" v="78641"/></node><node id="-418" lat="30.578791" lon="-97.926676" changeset="false"><tag k="addr:street" v="Honeycomb Hollow"/><tag k="addr:housenumber" v="15407"/><tag k="addr:postcode" v="78641"/></node><node id="-419" lat="30.586233" lon="-97.955784" changeset="false"><tag k="addr:street" v="Faubion Trail"/><tag k="addr:housenumber" v="14901"/><tag k="addr:postcode" v="78641"/></node><node id="-420" lat="30.579453" lon="-97.938858" changeset="false"><tag k="addr:street" v="Nameless Road"/><tag k="addr:housenumber" v="22516"/><tag k="addr:postcode" v="78641"/></node><node id="-421" lat="30.566384" lon="-97.960981" changeset="false"><tag k="addr:street" v="Spanish Oak Trail"/><tag k="addr:housenumber" v="23201"/><tag k="addr:postcode" v="78641"/></node><node id="-422" lat="30.570811" lon="-97.94637" changeset="false"><tag k="addr:street" v="Round Mountain Road"/><tag k="addr:housenumber" v="14315"/><tag k="addr:postcode" v="78641"/></node><node id="-423" lat="30.569541" lon="-97.947575" changeset="false"><tag k="addr:street" v="Sandy Meadow Circle"/><tag k="addr:housenumber" v="14208"/><tag k="addr:postcode" v="78641"/></node><node id="-424" lat="30.567422" lon="-97.951158" changeset="false"><tag k="addr:street" v="Pecan Hollow"/><tag k="addr:housenumber" v="13910"/><tag k="addr:postcode" v="78641"/></node><node id="-425" lat="30.566144" lon="-97.952742" changeset="false"><tag k="addr:street" v="Pecan Hollow"/><tag k="addr:housenumber" v="13806"/><tag k="addr:postcode" v="78641"/></node><node id="-426" lat="30.563763" lon="-97.954387" changeset="false"><tag k="addr:street" v="Cedar Hollow"/><tag k="addr:housenumber" v="22704"/><tag k="addr:postcode" v="78641"/></node><node id="-427" lat="30.563647" lon="-97.94521" changeset="false"><tag k="addr:street" v="Nameless Road"/><tag k="addr:housenumber" v="22765"/><tag k="addr:postcode" v="78641"/></node><node id="-428" lat="30.576879" lon="-97.929716" changeset="false"><tag k="addr:street" v="Honeycomb Hollow"/><tag k="addr:housenumber" v="15100"/><tag k="addr:postcode" v="78641"/></node><node id="-429" lat="30.573487" lon="-97.932475" changeset="false"><tag k="addr:street" v="Honeycomb Hollow"/><tag k="addr:housenumber" v="15115"/><tag k="addr:postcode" v="78641"/></node><node id="-430" lat="30.520406" lon="-97.879864" changeset="false"><tag k="addr:street" v="Indian Chief Drive"/><tag k="addr:housenumber" v="17200"/><tag k="addr:postcode" v="78613"/></node><node id="-431" lat="30.520039" lon="-97.896575" changeset="false"><tag k="addr:street" v="Farm-to-Market Road 1431"/><tag k="addr:housenumber" v="17998"/><tag k="addr:postcode" v="78641"/></node><node id="-432" lat="30.517149" lon="-97.878333" changeset="false"><tag k="addr:street" v="Whitetail Pass"/><tag k="addr:housenumber" v="17000"/><tag k="addr:postcode" v="78613"/></node><node id="-433" lat="30.521882" lon="-97.891344" changeset="false"><tag k="addr:street" v="Vista Rock Drive"/><tag k="addr:housenumber" v="13233"/><tag k="addr:postcode" v="78641"/></node><node id="-434" lat="30.576406" lon="-97.936036" changeset="false"><tag k="addr:street" v="Honeycomb Drive"/><tag k="addr:housenumber" v="15006"/><tag k="addr:postcode" v="78641"/></node><node id="-435" lat="30.58474" lon="-97.97353" changeset="false"><tag k="addr:street" v="Long Hollow Trail"/><tag k="addr:housenumber" v="24601"/><tag k="addr:postcode" v="78641"/></node><node id="-436" lat="30.578048" lon="-97.93961" changeset="false"><tag k="addr:street" v="Nameless Road"/><tag k="addr:housenumber" v="22540"/><tag k="addr:postcode" v="78641"/></node><node id="-437" lat="30.571326" lon="-97.955573" changeset="false"><tag k="addr:street" v="Big Sandy Drive"/><tag k="addr:housenumber" v="23100"/><tag k="addr:postcode" v="78641"/></node><node id="-438" lat="30.597926" lon="-97.964424" changeset="false"><tag k="addr:street" v="Chaparral Drive"/><tag k="addr:housenumber" v="15401"/><tag k="addr:postcode" v="78641"/></node><node id="-439" lat="30.593708" lon="-97.981771" changeset="false"><tag k="addr:street" v="Rock Cliff Drive"/><tag k="addr:housenumber" v="14505"/><tag k="addr:postcode" v="78641"/></node><node id="-440" lat="30.613607" lon="-97.952233" changeset="false"><tag k="addr:street" v="Bingham Creek Road"/><tag k="addr:housenumber" v="24433"/><tag k="addr:postcode" v="78641"/></node><node id="-441" lat="30.567165" lon="-97.950547" changeset="false"><tag k="addr:street" v="Pecan Hollow"/><tag k="addr:housenumber" v="13911"/><tag k="addr:postcode" v="78641"/></node><node id="-442" lat="30.529332" lon="-97.930568" changeset="false"><tag k="addr:street" v="Nameless Road"/><tag k="addr:housenumber" v="23363"/><tag k="addr:postcode" v="78641"/></node><node id="-443" lat="30.607965" lon="-97.93458" changeset="false"><tag k="addr:street" v="Round Mountain Road"/><tag k="addr:housenumber" v="17004"/><tag k="addr:postcode" v="78641"/></node><node id="-444" lat="30.606096" lon="-97.944392" changeset="false"><tag k="addr:street" v="Lucky Hit Road"/><tag k="addr:housenumber" v="16424"/><tag k="addr:postcode" v="78641"/></node><node id="-445" lat="30.604462" lon="-97.94586" changeset="false"><tag k="addr:street" v="Lucky Hit Road"/><tag k="addr:housenumber" v="16400"/><tag k="addr:postcode" v="78641"/></node><node id="-446" lat="30.53089" lon="-97.933595" changeset="false"><tag k="addr:street" v="Nameless Road"/><tag k="addr:housenumber" v="23321"/><tag k="addr:postcode" v="78641"/></node><node id="-447" lat="30.595427" lon="-97.928411" changeset="false"><tag k="addr:street" v="Arrow Head Drive"/><tag k="addr:housenumber" v="16401"/><tag k="addr:postcode" v="78641"/></node><node id="-448" lat="30.590942" lon="-97.97927" changeset="false"><tag k="addr:street" v="Ranch Road"/><tag k="addr:housenumber" v="25009"/><tag k="addr:postcode" v="78641"/></node><node id="-449" lat="30.587183" lon="-97.968737" changeset="false"><tag k="addr:street" v="Fawn Drive"/><tag k="addr:housenumber" v="24403"/><tag k="addr:postcode" v="78641"/></node><node id="-450" lat="30.519557" lon="-97.879903" changeset="false"><tag k="addr:street" v="Indian Chief Drive"/><tag k="addr:housenumber" v="17121"/><tag k="addr:postcode" v="78613"/></node><node id="-451" lat="30.565836" lon="-97.957614" changeset="false"><tag k="addr:street" v="Spanish Oak Trail"/><tag k="addr:housenumber" v="23005"/><tag k="addr:postcode" v="78641"/></node><node id="-452" lat="30.586243" lon="-97.978767" changeset="false"><tag k="addr:street" v="Summit View Drive"/><tag k="addr:housenumber" v="14205"/><tag k="addr:postcode" v="78641"/></node><node id="-453" lat="30.519139" lon="-97.878063" changeset="false"><tag k="addr:street" v="Indian Chief Drive"/><tag k="addr:housenumber" v="17104"/><tag k="addr:postcode" v="78613"/></node><node id="-454" lat="30.520063" lon="-97.879198" changeset="false"><tag k="addr:street" v="Frostdale Drive"/><tag k="addr:housenumber" v="13401"/><tag k="addr:postcode" v="78613"/></node><node id="-455" lat="30.575117" lon="-97.947814" changeset="false"><tag k="addr:street" v="Round Mountain Road"/><tag k="addr:housenumber" v="14601"/><tag k="addr:postcode" v="78641"/></node><node id="-456" lat="30.57579" lon="-97.947293" changeset="false"><tag k="addr:street" v="Round Mountain Road"/><tag k="addr:housenumber" v="14607"/><tag k="addr:postcode" v="78641"/></node><node id="-457" lat="30.585604" lon="-97.984581" changeset="false"><tag k="addr:street" v="Layne Loop"/><tag k="addr:housenumber" v="13914"/><tag k="addr:postcode" v="78641"/></node><node id="-458" lat="30.58594" lon="-97.982543" changeset="false"><tag k="addr:street" v="Joyce Drive"/><tag k="addr:housenumber" v="14004"/><tag k="addr:postcode" v="78641"/></node><node id="-459" lat="30.585901" lon="-97.981438" changeset="false"><tag k="addr:street" v="Joyce Drive"/><tag k="addr:housenumber" v="14103"/><tag k="addr:postcode" v="78641"/></node><node id="-460" lat="30.59399" lon="-97.929375" changeset="false"><tag k="addr:street" v="Arrow Head Drive"/><tag k="addr:housenumber" v="16245"/><tag k="addr:postcode" v="78641"/></node><node id="-461" lat="30.587458" lon="-97.966717" changeset="false"><tag k="addr:street" v="Chaparral Drive"/><tag k="addr:housenumber" v="14707"/><tag k="addr:postcode" v="78641"/></node><node id="-462" lat="30.564584" lon="-97.953016" changeset="false"><tag k="addr:street" v="Pecan Hollow"/><tag k="addr:housenumber" v="13711"/><tag k="addr:postcode" v="78641"/></node><node id="-463" lat="30.588284" lon="-97.980923" changeset="false"><tag k="addr:street" v="Layne Loop"/><tag k="addr:housenumber" v="14210"/><tag k="addr:postcode" v="78641"/></node><node id="-464" lat="30.603393" lon="-97.938572" changeset="false"><tag k="addr:street" v="Lucky Hit Road"/><tag k="addr:housenumber" v="16500"/><tag k="addr:postcode" v="78641"/></node><node id="-465" lat="30.601282" lon="-97.938355" changeset="false"><tag k="addr:street" v="Hill Country Drive"/><tag k="addr:housenumber" v="16404"/><tag k="addr:postcode" v="78641"/></node><node id="-466" lat="30.587994" lon="-97.980241" changeset="false"><tag k="addr:street" v="Layne Loop"/><tag k="addr:housenumber" v="14218"/><tag k="addr:postcode" v="78641"/></node><node id="-467" lat="30.5865" lon="-97.980094" changeset="false"><tag k="addr:street" v="Long Hollow Loop"/><tag k="addr:housenumber" v="14200"/><tag k="addr:postcode" v="78641"/></node><node id="-468" lat="30.584866" lon="-97.942497" changeset="false"><tag k="addr:street" v="Round Mountain Road"/><tag k="addr:housenumber" v="15300"/><tag k="addr:postcode" v="78641"/></node><node id="-469" lat="30.589887" lon="-97.983765" changeset="false"><tag k="addr:street" v="Rock Cliff Drive"/><tag k="addr:housenumber" v="14203"/><tag k="addr:postcode" v="78641"/></node><node id="-470" lat="30.519863" lon="-97.874996" changeset="false"><tag k="addr:street" v="Hur Industrial Boulevard"/><tag k="addr:housenumber" v="1805"/><tag k="addr:postcode" v="78613"/></node><node id="-471" lat="30.541144" lon="-97.869987" changeset="false"><tag k="addr:street" v="Signature Lane"/><tag k="addr:housenumber" v="2101"/><tag k="addr:postcode" v="78641"/></node><node id="-472" lat="30.540666" lon="-97.869435" changeset="false"><tag k="addr:street" v="Signature Lane"/><tag k="addr:housenumber" v="2113"/><tag k="addr:postcode" v="78641"/></node><node id="-473" lat="30.541667" lon="-97.86995" changeset="false"><tag k="addr:street" v="Leaders Lane"/><tag k="addr:housenumber" v="1813"/><tag k="addr:postcode" v="78641"/></node><node id="-474" lat="30.541408" lon="-97.870656" changeset="false"><tag k="addr:street" v="Leaders Lane"/><tag k="addr:housenumber" v="1909"/><tag k="addr:postcode" v="78641"/></node><node id="-475" lat="30.540861" lon="-97.870626" changeset="false"><tag k="addr:street" v="Leaders Lane"/><tag k="addr:housenumber" v="1912"/><tag k="addr:postcode" v="78641"/></node><node id="-476" lat="30.544717" lon="-97.88323" changeset="false"><tag k="addr:street" v="Crystal Falls Parkway"/><tag k="addr:housenumber" v="2903"/><tag k="addr:postcode" v="78641"/></node><node id="-477" lat="30.549478" lon="-97.87542" changeset="false"><tag k="addr:street" v="Crystal Falls Parkway"/><tag k="addr:housenumber" v="2401"/><tag k="addr:postcode" v="78641"/></node><node id="-478" lat="30.58607" lon="-97.954487" changeset="false"><tag k="addr:street" v="Faubion Trail"/><tag k="addr:housenumber" v="14924"/><tag k="addr:postcode" v="78641"/></node><node id="-479" lat="30.585791" lon="-97.979565" changeset="false"><tag k="addr:street" v="Long Hollow Loop"/><tag k="addr:housenumber" v="14113"/><tag k="addr:postcode" v="78641"/></node><node id="-480" lat="30.557379" lon="-97.900211" changeset="false"><tag k="addr:street" v="Apple Springs Hollow"/><tag k="addr:housenumber" v="14905"/><tag k="addr:postcode" v="78641"/></node><node id="-481" lat="30.58226" lon="-97.966151" changeset="false"><tag k="addr:street" v="Juniper Court"/><tag k="addr:housenumber" v="24103"/><tag k="addr:postcode" v="78641"/></node><node id="-482" lat="30.586437" lon="-97.986256" changeset="false"><tag k="addr:street" v="Rock Cliff Drive"/><tag k="addr:housenumber" v="13909"/><tag k="addr:postcode" v="78641"/></node><node id="-483" lat="30.585566" lon="-97.986908" changeset="false"><tag k="addr:street" v="Rock Cliff Drive"/><tag k="addr:housenumber" v="13903"/><tag k="addr:postcode" v="78641"/></node><node id="-484" lat="30.58238" lon="-97.966446" changeset="false"><tag k="addr:street" v="Juniper Court"/><tag k="addr:housenumber" v="24105"/><tag k="addr:postcode" v="78641"/></node><node id="-485" lat="30.540979" lon="-97.930964" changeset="false"><tag k="addr:street" v="Shady Mountain Road"/><tag k="addr:housenumber" v="13208"/><tag k="addr:postcode" v="78641"/></node><node id="-486" lat="30.537916" lon="-97.925025" changeset="false"><tag k="addr:street" v="Shady Mountain Road"/><tag k="addr:housenumber" v="13211"/><tag k="addr:postcode" v="78641"/></node><node id="-487" lat="30.540192" lon="-97.872274" changeset="false"><tag k="addr:street" v="Champions Corner Drive"/><tag k="addr:housenumber" v="2240"/><tag k="addr:postcode" v="78641"/></node><node id="-488" lat="30.540026" lon="-97.872114" changeset="false"><tag k="addr:street" v="Champions Corner Drive"/><tag k="addr:housenumber" v="2244"/><tag k="addr:postcode" v="78641"/></node><node id="-489" lat="30.539642" lon="-97.872489" changeset="false"><tag k="addr:street" v="Champions Corner Drive"/><tag k="addr:housenumber" v="2229"/><tag k="addr:postcode" v="78641"/></node><node id="-490" lat="30.537935" lon="-97.872343" changeset="false"><tag k="addr:street" v="Long Bow Drive"/><tag k="addr:housenumber" v="2109"/><tag k="addr:postcode" v="78641"/></node><node id="-491" lat="30.539299" lon="-97.872196" changeset="false"><tag k="addr:street" v="Peoria Drive"/><tag k="addr:housenumber" v="2101"/><tag k="addr:postcode" v="78641"/></node><node id="-492" lat="30.53879" lon="-97.87298" changeset="false"><tag k="addr:street" v="Peoria Drive"/><tag k="addr:housenumber" v="2117"/><tag k="addr:postcode" v="78641"/></node><node id="-493" lat="30.538629" lon="-97.87312" changeset="false"><tag k="addr:street" v="Peoria Drive"/><tag k="addr:housenumber" v="2121"/><tag k="addr:postcode" v="78641"/></node><node id="-494" lat="30.538322" lon="-97.873444" changeset="false"><tag k="addr:street" v="Peoria Drive"/><tag k="addr:housenumber" v="2129"/><tag k="addr:postcode" v="78641"/></node><node id="-495" lat="30.529228" lon="-97.874369" changeset="false"><tag k="addr:street" v="Granite Hill Drive"/><tag k="addr:housenumber" v="2701"/><tag k="addr:postcode" v="78641"/></node><node id="-496" lat="30.527791" lon="-97.87122" changeset="false"><tag k="addr:street" v="Granite Hill Drive"/><tag k="addr:housenumber" v="2313"/><tag k="addr:postcode" v="78641"/></node><node id="-497" lat="30.526655" lon="-97.8715" changeset="false"><tag k="addr:street" v="Granite Hill Drive"/><tag k="addr:housenumber" v="2408"/><tag k="addr:postcode" v="78641"/></node><node id="-498" lat="30.531628" lon="-97.876883" changeset="false"><tag k="addr:street" v="Yuma Trail"/><tag k="addr:housenumber" v="2508"/><tag k="addr:postcode" v="78641"/></node><node id="-499" lat="30.612144" lon="-97.938784" changeset="false"><tag k="addr:street" v="Round Mountain Road"/><tag k="addr:housenumber" v="17150"/><tag k="addr:postcode" v="78641"/></node><node id="-500" lat="30.552092" lon="-97.898694" changeset="false"><tag k="addr:street" v="Brown Bluff Circle"/><tag k="addr:housenumber" v="14801"/><tag k="addr:postcode" v="78641"/></node><node id="-501" lat="30.537457" lon="-97.874318" changeset="false"><tag k="addr:street" v="Long Bow Drive"/><tag k="addr:housenumber" v="2228"/><tag k="addr:postcode" v="78641"/></node><node id="-502" lat="30.537783" lon="-97.874866" changeset="false"><tag k="addr:street" v="Long Bow Drive"/><tag k="addr:housenumber" v="2240"/><tag k="addr:postcode" v="78641"/></node><node id="-503" lat="30.535667" lon="-97.869915" changeset="false"><tag k="addr:street" v="Champions Corner Drive"/><tag k="addr:housenumber" v="2520"/><tag k="addr:postcode" v="78641"/></node><node id="-504" lat="30.535342" lon="-97.869658" changeset="false"><tag k="addr:street" v="Champions Corner Drive"/><tag k="addr:housenumber" v="2528"/><tag k="addr:postcode" v="78641"/></node><node id="-505" lat="30.536103" lon="-97.870948" changeset="false"><tag k="addr:street" v="Winners Court"/><tag k="addr:housenumber" v="2000"/><tag k="addr:postcode" v="78641"/></node><node id="-506" lat="30.538363" lon="-97.870227" changeset="false"><tag k="addr:street" v="Long Bow Drive"/><tag k="addr:housenumber" v="2000"/><tag k="addr:postcode" v="78641"/></node><node id="-507" lat="30.533616" lon="-97.870882" changeset="false"><tag k="addr:street" v="Outlook Ridge Loop"/><tag k="addr:housenumber" v="2648"/><tag k="addr:postcode" v="78641"/></node><node id="-508" lat="30.532128" lon="-97.870778" changeset="false"><tag k="addr:street" v="Lookout Knoll Drive"/><tag k="addr:housenumber" v="2104"/><tag k="addr:postcode" v="78641"/></node><node id="-509" lat="30.53278" lon="-97.87185" changeset="false"><tag k="addr:street" v="Lookout Knoll Drive"/><tag k="addr:housenumber" v="2205"/><tag k="addr:postcode" v="78641"/></node><node id="-510" lat="30.533013" lon="-97.93367" changeset="false"><tag k="addr:street" v="Shady Mountain Road"/><tag k="addr:housenumber" v="12809"/><tag k="addr:postcode" v="78641"/></node><node id="-511" lat="30.598555" lon="-97.983998" changeset="false"><tag k="addr:street" v="Rock Cliff Drive"/><tag k="addr:housenumber" v="14801"/><tag k="addr:postcode" v="78641"/></node><node id="-512" lat="30.600055" lon="-97.936103" changeset="false"><tag k="addr:street" v="Round Mountain Circle"/><tag k="addr:housenumber" v="23028"/><tag k="addr:postcode" v="78641"/></node><node id="-513" lat="30.51934" lon="-97.879663" changeset="false"><tag k="addr:street" v="Indian Chief Drive"/><tag k="addr:housenumber" v="17117"/><tag k="addr:postcode" v="78613"/></node><node id="-514" lat="30.573335" lon="-97.92354" changeset="false"><tag k="addr:street" v="Honeycomb Hollow"/><tag k="addr:housenumber" v="15313"/><tag k="addr:postcode" v="78641"/></node><node id="-515" lat="30.595419" lon="-97.934455" changeset="false"><tag k="addr:street" v="Round Mountain Road"/><tag k="addr:housenumber" v="16201"/><tag k="addr:postcode" v="78641"/></node><node id="-516" lat="30.589394" lon="-97.971545" changeset="false"><tag k="addr:street" v="Fawn Drive"/><tag k="addr:housenumber" v="24607"/><tag k="addr:postcode" v="78641"/></node><node id="-517" lat="30.60181" lon="-97.948392" changeset="false"><tag k="addr:street" v="Lucky Hit Road"/><tag k="addr:housenumber" v="16120"/><tag k="addr:postcode" v="78641"/></node><node id="-518" lat="30.514582" lon="-97.880925" changeset="false"><tag k="addr:street" v="Fawnvalley Drive"/><tag k="addr:housenumber" v="13106"/><tag k="addr:postcode" v="78613"/></node><node id="-519" lat="30.534218" lon="-97.871021" changeset="false"><tag k="addr:street" v="Outlook Ridge Loop"/><tag k="addr:housenumber" v="2628"/><tag k="addr:postcode" v="78641"/></node><node id="-520" lat="30.532311" lon="-97.871589" changeset="false"><tag k="addr:street" v="Lookout Knoll Drive"/><tag k="addr:housenumber" v="2200"/><tag k="addr:postcode" v="78641"/></node><node id="-521" lat="30.529685" lon="-97.874795" changeset="false"><tag k="addr:street" v="Granite Hill Drive"/><tag k="addr:housenumber" v="2712"/><tag k="addr:postcode" v="78641"/></node><node id="-522" lat="30.527913" lon="-97.870643" changeset="false"><tag k="addr:street" v="Granite Hill Drive"/><tag k="addr:housenumber" v="2308"/><tag k="addr:postcode" v="78641"/></node><node id="-523" lat="30.527512" lon="-97.870736" changeset="false"><tag k="addr:street" v="Granite Hill Drive"/><tag k="addr:housenumber" v="2320"/><tag k="addr:postcode" v="78641"/></node><node id="-524" lat="30.527105" lon="-97.871687" changeset="false"><tag k="addr:street" v="Granite Hill Drive"/><tag k="addr:housenumber" v="2401"/><tag k="addr:postcode" v="78641"/></node><node id="-525" lat="30.526055" lon="-97.872188" changeset="false"><tag k="addr:street" v="Granite Hill Drive"/><tag k="addr:housenumber" v="2432"/><tag k="addr:postcode" v="78641"/></node><node id="-526" lat="30.526544" lon="-97.872332" changeset="false"><tag k="addr:street" v="Granite Hill Drive"/><tag k="addr:housenumber" v="2425"/><tag k="addr:postcode" v="78641"/></node><node id="-527" lat="30.531396" lon="-97.877868" changeset="false"><tag k="addr:street" v="Long Lasso Pass"/><tag k="addr:housenumber" v="2617"/><tag k="addr:postcode" v="78641"/></node><node id="-528" lat="30.531085" lon="-97.877471" changeset="false"><tag k="addr:street" v="Long Lasso Pass"/><tag k="addr:housenumber" v="2705"/><tag k="addr:postcode" v="78641"/></node><node id="-529" lat="30.548979" lon="-97.877657" changeset="false"><tag k="addr:street" v="Crystal Falls Parkway"/><tag k="addr:housenumber" v="2503"/><tag k="addr:postcode" v="78641"/></node><node id="-530" lat="30.59299" lon="-97.981901" changeset="false"><tag k="addr:street" v="Rock Cliff Drive"/><tag k="addr:housenumber" v="14501"/><tag k="addr:postcode" v="78641"/></node><node id="-531" lat="30.596566" lon="-97.979358" changeset="false"><tag k="addr:street" v="Fawn Drive"/><tag k="addr:housenumber" v="25303"/><tag k="addr:postcode" v="78641"/></node><node id="-532" lat="30.588498" lon="-97.981645" changeset="false"><tag k="addr:street" v="Layne Loop"/><tag k="addr:housenumber" v="14204"/><tag k="addr:postcode" v="78641"/></node><node id="-533" lat="30.584503" lon="-97.983752" changeset="false"><tag k="addr:street" v="Joyce Drive"/><tag k="addr:housenumber" v="13907"/><tag k="addr:postcode" v="78641"/></node><node id="-534" lat="30.581807" lon="-97.958376" changeset="false"><tag k="addr:street" v="Faubion Trail"/><tag k="addr:housenumber" v="14611"/><tag k="addr:postcode" v="78641"/></node><node id="-535" lat="30.562578" lon="-97.954305" changeset="false"><tag k="addr:street" v="Pecan Hollow"/><tag k="addr:housenumber" v="13607"/><tag k="addr:postcode" v="78641"/></node><node id="-536" lat="30.569161" lon="-97.950206" changeset="false"><tag k="addr:street" v="Big Sandy Drive"/><tag k="addr:housenumber" v="22717"/><tag k="addr:postcode" v="78641"/></node><node id="-537" lat="30.5685" lon="-97.947168" changeset="false"><tag k="addr:street" v="Sandy Meadow Circle"/><tag k="addr:housenumber" v="14200"/><tag k="addr:postcode" v="78641"/></node><node id="-538" lat="30.568446" lon="-97.94638" changeset="false"><tag k="addr:street" v="Sandy Meadow Circle"/><tag k="addr:housenumber" v="14201"/><tag k="addr:postcode" v="78641"/></node><node id="-539" lat="30.56535" lon="-97.944906" changeset="false"><tag k="addr:street" v="Nameless Road"/><tag k="addr:housenumber" v="22737"/><tag k="addr:postcode" v="78641"/></node><node id="-540" lat="30.565101" lon="-97.952696" changeset="false"><tag k="addr:street" v="Pecan Hollow"/><tag k="addr:housenumber" v="13712"/><tag k="addr:postcode" v="78641"/></node><node id="-541" lat="30.597359" lon="-97.929641" changeset="false"><tag k="addr:street" v="Oak Ridge Trail"/><tag k="addr:housenumber" v="22620"/><tag k="addr:postcode" v="78641"/></node><node id="-542" lat="30.596386" lon="-97.931012" changeset="false"><tag k="addr:street" v="Big Oak Circle"/><tag k="addr:housenumber" v="16311"/><tag k="addr:postcode" v="78641"/></node><node id="-543" lat="30.594859" lon="-97.931259" changeset="false"><tag k="addr:street" v="Big Oak Circle"/><tag k="addr:housenumber" v="16211"/><tag k="addr:postcode" v="78641"/></node><node id="-544" lat="30.585286" lon="-97.980883" changeset="false"><tag k="addr:street" v="Long Hollow Loop"/><tag k="addr:housenumber" v="14100"/><tag k="addr:postcode" v="78641"/></node><node id="-545" lat="30.575342" lon="-97.947655" changeset="false"><tag k="addr:street" v="Round Mountain Road"/><tag k="addr:housenumber" v="14603"/><tag k="addr:postcode" v="78641"/></node><node id="-546" lat="30.585091" lon="-97.983021" changeset="false"><tag k="addr:street" v="Joyce Drive"/><tag k="addr:housenumber" v="13906"/><tag k="addr:postcode" v="78641"/></node><node id="-547" lat="30.586486" lon="-97.979157" changeset="false"><tag k="addr:street" v="Long Hollow Loop"/><tag k="addr:housenumber" v="14209"/><tag k="addr:postcode" v="78641"/></node><node id="-548" lat="30.575366" lon="-97.941899" changeset="false"><tag k="addr:street" v="Sweet Summer Drive"/><tag k="addr:housenumber" v="22504"/><tag k="addr:postcode" v="78641"/></node><node id="-549" lat="30.575112" lon="-97.945307" changeset="false"><tag k="addr:street" v="Sweet Summer Drive"/><tag k="addr:housenumber" v="22612"/><tag k="addr:postcode" v="78641"/></node><node id="-550" lat="30.5165" lon="-97.913329" changeset="false"><tag k="addr:street" v="Angel Mountain Drive"/><tag k="addr:housenumber" v="18804"/><tag k="addr:postcode" v="78641"/></node><node id="-551" lat="30.515525" lon="-97.915102" changeset="false"><tag k="addr:street" v="Angel Mountain Drive"/><tag k="addr:housenumber" v="18901"/><tag k="addr:postcode" v="78641"/></node><node id="-552" lat="30.516771" lon="-97.916223" changeset="false"><tag k="addr:street" v="Angel Mountain Drive"/><tag k="addr:housenumber" v="18919"/><tag k="addr:postcode" v="78641"/></node><node id="-553" lat="30.577498" lon="-97.932478" changeset="false"><tag k="addr:street" v="Honeycomb Drive"/><tag k="addr:housenumber" v="15122"/><tag k="addr:postcode" v="78641"/></node><node id="-554" lat="30.537359" lon="-97.87415" changeset="false"><tag k="addr:street" v="Long Bow Drive"/><tag k="addr:housenumber" v="2224"/><tag k="addr:postcode" v="78641"/></node><node id="-555" lat="30.537671" lon="-97.874673" changeset="false"><tag k="addr:street" v="Long Bow Drive"/><tag k="addr:housenumber" v="2236"/><tag k="addr:postcode" v="78641"/></node><node id="-556" lat="30.538031" lon="-97.874854" changeset="false"><tag k="addr:street" v="Long Bow Drive"/><tag k="addr:housenumber" v="2241"/><tag k="addr:postcode" v="78641"/></node><node id="-557" lat="30.597718" lon="-97.934274" changeset="false"><tag k="addr:street" v="Great Oaks Boulevard"/><tag k="addr:housenumber" v="22900"/><tag k="addr:postcode" v="78641"/></node><node id="-558" lat="30.586037" lon="-97.96787" changeset="false"><tag k="addr:street" v="Fawn Drive"/><tag k="addr:housenumber" v="24301"/><tag k="addr:postcode" v="78641"/></node><node id="-559" lat="30.583381" lon="-97.97053" changeset="false"><tag k="addr:street" v="Long Hollow Trail"/><tag k="addr:housenumber" v="24313"/><tag k="addr:postcode" v="78641"/></node><node id="-560" lat="30.584981" lon="-97.969169" changeset="false"><tag k="addr:street" v="Sheep Hollow Trail"/><tag k="addr:housenumber" v="24310"/><tag k="addr:postcode" v="78641"/></node><node id="-561" lat="30.540582" lon="-97.869192" changeset="false"><tag k="addr:street" v="Signature Lane"/><tag k="addr:housenumber" v="2117"/><tag k="addr:postcode" v="78641"/></node><node id="-562" lat="30.577066" lon="-97.934948" changeset="false"><tag k="addr:street" v="Honeycomb Circle"/><tag k="addr:housenumber" v="22201"/><tag k="addr:postcode" v="78641"/></node><node id="-563" lat="30.562799" lon="-97.954318" changeset="false"><tag k="addr:street" v="Pecan Hollow"/><tag k="addr:housenumber" v="13606"/><tag k="addr:postcode" v="78641"/></node><node id="-564" lat="30.576056" lon="-97.939108" changeset="false"><tag k="addr:street" v="Nameless Road"/><tag k="addr:housenumber" v="22565"/><tag k="addr:postcode" v="78641"/></node><node id="-565" lat="30.594293" lon="-97.975957" changeset="false"><tag k="addr:street" v="Fawn Drive"/><tag k="addr:housenumber" v="25009"/><tag k="addr:postcode" v="78641"/></node><node id="-566" lat="30.586744" lon="-97.986742" changeset="false"><tag k="addr:street" v="Rock Cliff Drive"/><tag k="addr:housenumber" v="13908"/><tag k="addr:postcode" v="78641"/></node><node id="-567" lat="30.587261" lon="-97.986259" changeset="false"><tag k="addr:street" v="Rock Cliff Drive"/><tag k="addr:housenumber" v="14000"/><tag k="addr:postcode" v="78641"/></node><node id="-568" lat="30.603017" lon="-97.936383" changeset="false"><tag k="addr:street" v="Round Mountain Road"/><tag k="addr:housenumber" v="16670"/><tag k="addr:postcode" v="78641"/></node><node id="-569" lat="30.54127" lon="-97.869538" changeset="false"><tag k="addr:street" v="Signature Lane"/><tag k="addr:housenumber" v="2104"/><tag k="addr:postcode" v="78641"/></node><node id="-570" lat="30.54132" lon="-97.870897" changeset="false"><tag k="addr:street" v="Leaders Lane"/><tag k="addr:housenumber" v="1913"/><tag k="addr:postcode" v="78641"/></node><node id="-571" lat="30.540977" lon="-97.8704" changeset="false"><tag k="addr:street" v="Leaders Lane"/><tag k="addr:housenumber" v="1908"/><tag k="addr:postcode" v="78641"/></node><node id="-572" lat="30.54172" lon="-97.868942" changeset="false"><tag k="addr:street" v="Leaders Lane"/><tag k="addr:housenumber" v="1800"/><tag k="addr:postcode" v="78641"/></node><node id="-573" lat="30.571695" lon="-97.927696" changeset="false"><tag k="addr:street" v="Honeycomb Court"/><tag k="addr:housenumber" v="15001"/><tag k="addr:postcode" v="78641"/></node><node id="-574" lat="30.593086" lon="-97.985432" changeset="false"><tag k="addr:street" v="Ranch Road"/><tag k="addr:housenumber" v="25509"/><tag k="addr:postcode" v="78641"/></node><node id="-575" lat="30.574866" lon="-97.942511" changeset="false"><tag k="addr:street" v="Sweet Summer Drive"/><tag k="addr:housenumber" v="22505"/><tag k="addr:postcode" v="78641"/></node><node id="-576" lat="30.575547" lon="-97.947497" changeset="false"><tag k="addr:street" v="Round Mountain Road"/><tag k="addr:housenumber" v="14605"/><tag k="addr:postcode" v="78641"/></node><node id="-577" lat="30.575976" lon="-97.947092" changeset="false"><tag k="addr:street" v="Round Mountain Road"/><tag k="addr:housenumber" v="14609"/><tag k="addr:postcode" v="78641"/></node><node id="-578" lat="30.574457" lon="-97.941442" changeset="false"><tag k="addr:street" v="Sweet Summer Drive"/><tag k="addr:housenumber" v="22405"/><tag k="addr:postcode" v="78641"/></node><node id="-579" lat="30.555457" lon="-97.895272" changeset="false"><tag k="addr:street" v="Brown Bluff Circle"/><tag k="addr:housenumber" v="14904"/><tag k="addr:postcode" v="78641"/></node><node id="-580" lat="30.53992" lon="-97.929024" changeset="false"><tag k="addr:street" v="Shady Mountain Road"/><tag k="addr:housenumber" v="13207"/><tag k="addr:postcode" v="78641"/></node><node id="-581" lat="30.512858" lon="-97.911875" changeset="false"><tag k="addr:street" v="Farm-to-Market Road 1431"/><tag k="addr:housenumber" v="18220"/><tag k="addr:postcode" v="78641"/></node><node id="-582" lat="30.514259" lon="-97.86381" changeset="false"><tag k="addr:street" v="West Whitestone Boulevard"/><tag k="addr:housenumber" v="2441"/><tag k="addr:postcode" v="78613"/></node><node id="-583" lat="30.54632" lon="-97.882312" changeset="false"><tag k="addr:street" v="Crystal Falls Parkway"/><tag k="addr:housenumber" v="2803"/><tag k="addr:postcode" v="78641"/></node><node id="-584" lat="30.539409" lon="-97.874085" changeset="false"><tag k="addr:street" v="Champions Corner Drive"/><tag k="addr:housenumber" v="2204"/><tag k="addr:postcode" v="78641"/></node><node id="-585" lat="30.538916" lon="-97.8736" changeset="false"><tag k="addr:street" v="Champions Corner Drive"/><tag k="addr:housenumber" v="2205"/><tag k="addr:postcode" v="78641"/></node><node id="-586" lat="30.539197" lon="-97.873236" changeset="false"><tag k="addr:street" v="Champions Corner Drive"/><tag k="addr:housenumber" v="2213"/><tag k="addr:postcode" v="78641"/></node><node id="-587" lat="30.539284" lon="-97.871659" changeset="false"><tag k="addr:street" v="Champions Corner Drive"/><tag k="addr:housenumber" v="2260"/><tag k="addr:postcode" v="78641"/></node><node id="-588" lat="30.538681" lon="-97.871566" changeset="false"><tag k="addr:street" v="Champions Corner Drive"/><tag k="addr:housenumber" v="2312"/><tag k="addr:postcode" v="78641"/></node><node id="-589" lat="30.537023" lon="-97.873306" changeset="false"><tag k="addr:street" v="Long Bow Drive"/><tag k="addr:housenumber" v="2208"/><tag k="addr:postcode" v="78641"/></node><node id="-590" lat="30.538115" lon="-97.871885" changeset="false"><tag k="addr:street" v="Long Bow Drive"/><tag k="addr:housenumber" v="2101"/><tag k="addr:postcode" v="78641"/></node><node id="-591" lat="30.537926" lon="-97.873373" changeset="false"><tag k="addr:street" v="Peoria Drive"/><tag k="addr:housenumber" v="2137"/><tag k="addr:postcode" v="78641"/></node><node id="-592" lat="30.587365" lon="-97.978861" changeset="false"><tag k="addr:street" v="Layne Loop"/><tag k="addr:housenumber" v="14234"/><tag k="addr:postcode" v="78641"/></node><node id="-593" lat="30.536278" lon="-97.871628" changeset="false"><tag k="addr:street" v="Winners Court"/><tag k="addr:housenumber" v="2013"/><tag k="addr:postcode" v="78641"/></node><node id="-594" lat="30.538541" lon="-97.871052" changeset="false"><tag k="addr:street" v="Long Bow Drive"/><tag k="addr:housenumber" v="2009"/><tag k="addr:postcode" v="78641"/></node><node id="-595" lat="30.537945" lon="-97.871257" changeset="false"><tag k="addr:street" v="Long Bow Drive"/><tag k="addr:housenumber" v="2016"/><tag k="addr:postcode" v="78641"/></node><node id="-596" lat="30.530885" lon="-97.871278" changeset="false"><tag k="addr:street" v="Garnet Ridge Drive"/><tag k="addr:housenumber" v="2805"/><tag k="addr:postcode" v="78641"/></node><node id="-597" lat="30.530599" lon="-97.870945" changeset="false"><tag k="addr:street" v="Garnet Ridge Drive"/><tag k="addr:housenumber" v="2817"/><tag k="addr:postcode" v="78641"/></node><node id="-598" lat="30.564474" lon="-97.954171" changeset="false"><tag k="addr:street" v="Cedar Hollow"/><tag k="addr:housenumber" v="22706"/><tag k="addr:postcode" v="78641"/></node><node id="-599" lat="30.587301" lon="-97.970875" changeset="false"><tag k="addr:street" v="Sheep Hollow Trail"/><tag k="addr:housenumber" v="24506"/><tag k="addr:postcode" v="78641"/></node><node id="-600" lat="30.586257" lon="-97.961391" changeset="false"><tag k="addr:street" v="Faubion Trail"/><tag k="addr:housenumber" v="15281"/><tag k="addr:postcode" v="78641"/></node><node id="-601" lat="30.586279" lon="-97.970205" changeset="false"><tag k="addr:street" v="Sheep Hollow Trail"/><tag k="addr:housenumber" v="24500"/><tag k="addr:postcode" v="78641"/></node><node id="-602" lat="30.612676" lon="-97.95049" changeset="false"><tag k="addr:street" v="Bingham Creek Road"/><tag k="addr:housenumber" v="24401"/><tag k="addr:postcode" v="78641"/></node><node id="-603" lat="30.595336" lon="-97.932827" changeset="false"><tag k="addr:street" v="Big Oak Circle"/><tag k="addr:housenumber" v="16210"/><tag k="addr:postcode" v="78641"/></node><node id="-604" lat="30.59368" lon="-97.930904" changeset="false"><tag k="addr:street" v="Arrow Head Drive"/><tag k="addr:housenumber" v="16200"/><tag k="addr:postcode" v="78641"/></node><node id="-605" lat="30.591822" lon="-97.973428" changeset="false"><tag k="addr:street" v="Fawn Drive"/><tag k="addr:housenumber" v="24805"/><tag k="addr:postcode" v="78641"/></node><node id="-606" lat="30.590898" lon="-97.966668" changeset="false"><tag k="addr:street" v="Chaparral Drive"/><tag k="addr:housenumber" v="14901"/><tag k="addr:postcode" v="78641"/></node><node id="-607" lat="30.607245" lon="-97.935056" changeset="false"><tag k="addr:street" v="Round Mountain Road"/><tag k="addr:housenumber" v="16930"/><tag k="addr:postcode" v="78641"/></node><node id="-608" lat="30.588809" lon="-97.966439" changeset="false"><tag k="addr:street" v="Chaparral Drive"/><tag k="addr:housenumber" v="14801"/><tag k="addr:postcode" v="78641"/></node><node id="-609" lat="30.592051" lon="-97.957027" changeset="false"><tag k="addr:street" v="Faubion Trail"/><tag k="addr:housenumber" v="15234"/><tag k="addr:postcode" v="78641"/></node><node id="-610" lat="30.56546" lon="-97.952453" changeset="false"><tag k="addr:street" v="Pecan Hollow"/><tag k="addr:housenumber" v="13802"/><tag k="addr:postcode" v="78641"/></node><node id="-611" lat="30.564039" lon="-97.953365" changeset="false"><tag k="addr:street" v="Pecan Hollow"/><tag k="addr:housenumber" v="13702"/><tag k="addr:postcode" v="78641"/></node><node id="-612" lat="30.520829" lon="-97.913173" changeset="false"><tag k="addr:street" v="Lone Mountain Pass"/><tag k="addr:housenumber" v="12714"/><tag k="addr:postcode" v="78641"/></node><node id="-613" lat="30.537602" lon="-97.883623" changeset="false"><tag k="addr:street" v="Crystal Falls Parkway"/><tag k="addr:housenumber" v="3305"/><tag k="addr:postcode" v="78641"/></node><node id="-614" lat="30.558253" lon="-97.9029" changeset="false"><tag k="addr:street" v="Apple Springs Hollow"/><tag k="addr:housenumber" v="14912"/><tag k="addr:postcode" v="78641"/></node><node id="-615" lat="30.514013" lon="-97.913511" changeset="false"><tag k="addr:street" v="Angel Mountain Drive"/><tag k="addr:housenumber" v="18701"/><tag k="addr:postcode" v="78641"/></node><node id="-616" lat="30.518083" lon="-97.912434" changeset="false"><tag k="addr:street" v="Lone Mountain Pass"/><tag k="addr:housenumber" v="12600"/><tag k="addr:postcode" v="78641"/></node><node id="-617" lat="30.588261" lon="-97.969752" changeset="false"><tag k="addr:street" v="Fawn Drive"/><tag k="addr:housenumber" v="24503"/><tag k="addr:postcode" v="78641"/></node><node id="-618" lat="30.537887" lon="-97.875048" changeset="false"><tag k="addr:street" v="Long Bow Drive"/><tag k="addr:housenumber" v="2244"/><tag k="addr:postcode" v="78641"/></node><node id="-619" lat="30.537916" lon="-97.874663" changeset="false"><tag k="addr:street" v="Long Bow Drive"/><tag k="addr:housenumber" v="2237"/><tag k="addr:postcode" v="78641"/></node><node id="-620" lat="30.530713" lon="-97.933097" changeset="false"><tag k="addr:street" v="Nameless Road"/><tag k="addr:housenumber" v="23327"/><tag k="addr:postcode" v="78641"/></node><node id="-621" lat="30.578155" lon="-97.919889" changeset="false"><tag k="addr:street" v="Nameless Road"/><tag k="addr:housenumber" v="21406"/><tag k="addr:postcode" v="78641"/></node><node id="-622" lat="30.590112" lon="-97.984339" changeset="false"><tag k="addr:street" v="Rock Cliff Drive"/><tag k="addr:housenumber" v="14202"/><tag k="addr:postcode" v="78641"/></node><node id="-623" lat="30.590418" lon="-97.983335" changeset="false"><tag k="addr:street" v="Rock Cliff Drive"/><tag k="addr:housenumber" v="14301"/><tag k="addr:postcode" v="78641"/></node><node id="-624" lat="30.589881" lon="-97.988155" changeset="false"><tag k="addr:street" v="Fireplace Court"/><tag k="addr:housenumber" v="25603"/><tag k="addr:postcode" v="78641"/></node><node id="-625" lat="30.541909" lon="-97.869482" changeset="false"><tag k="addr:street" v="Leaders Lane"/><tag k="addr:housenumber" v="1805"/><tag k="addr:postcode" v="78641"/></node><node id="-626" lat="30.540679" lon="-97.870826" changeset="false"><tag k="addr:street" v="Leaders Lane"/><tag k="addr:housenumber" v="1916"/><tag k="addr:postcode" v="78641"/></node><node id="-627" lat="30.543622" lon="-97.883742" changeset="false"><tag k="addr:street" v="Crystal Falls Parkway"/><tag k="addr:housenumber" v="3001"/><tag k="addr:postcode" v="78641"/></node><node id="-628" lat="30.542301" lon="-97.883967" changeset="false"><tag k="addr:street" v="Crystal Falls Parkway"/><tag k="addr:housenumber" v="3007"/><tag k="addr:postcode" v="78641"/></node><node id="-629" lat="30.548937" lon="-97.878585" changeset="false"><tag k="addr:street" v="Crystal Falls Parkway"/><tag k="addr:housenumber" v="2507"/><tag k="addr:postcode" v="78641"/></node><node id="-630" lat="30.548332" lon="-97.880523" changeset="false"><tag k="addr:street" v="Crystal Falls Parkway"/><tag k="addr:housenumber" v="2607"/><tag k="addr:postcode" v="78641"/></node><node id="-631" lat="30.538889" lon="-97.926959" changeset="false"><tag k="addr:street" v="Shady Mountain Road"/><tag k="addr:housenumber" v="13209"/><tag k="addr:postcode" v="78641"/></node><node id="-632" lat="30.537062" lon="-97.923025" changeset="false"><tag k="addr:street" v="Shady Mountain Road"/><tag k="addr:housenumber" v="13213"/><tag k="addr:postcode" v="78641"/></node><node id="-633" lat="30.539778" lon="-97.873283" changeset="false"><tag k="addr:street" v="Champions Corner Drive"/><tag k="addr:housenumber" v="2220"/><tag k="addr:postcode" v="78641"/></node><node id="-634" lat="30.538951" lon="-97.87392" changeset="false"><tag k="addr:street" v="Champions Corner Drive"/><tag k="addr:housenumber" v="2201"/><tag k="addr:postcode" v="78641"/></node><node id="-635" lat="30.539072" lon="-97.871613" changeset="false"><tag k="addr:street" v="Champions Corner Drive"/><tag k="addr:housenumber" v="2300"/><tag k="addr:postcode" v="78641"/></node><node id="-636" lat="30.538881" lon="-97.871583" changeset="false"><tag k="addr:street" v="Champions Corner Drive"/><tag k="addr:housenumber" v="2308"/><tag k="addr:postcode" v="78641"/></node><node id="-637" lat="30.53766" lon="-97.871589" changeset="false"><tag k="addr:street" v="Long Bow Drive"/><tag k="addr:housenumber" v="2100"/><tag k="addr:postcode" v="78641"/></node><node id="-638" lat="30.537502" lon="-97.872017" changeset="false"><tag k="addr:street" v="Long Bow Drive"/><tag k="addr:housenumber" v="2108"/><tag k="addr:postcode" v="78641"/></node><node id="-639" lat="30.538192" lon="-97.87272" changeset="false"><tag k="addr:street" v="Peoria Drive"/><tag k="addr:housenumber" v="2124"/><tag k="addr:postcode" v="78641"/></node><node id="-640" lat="30.529552" lon="-97.874308" changeset="false"><tag k="addr:street" v="Granite Hill Drive"/><tag k="addr:housenumber" v="2709"/><tag k="addr:postcode" v="78641"/></node><node id="-641" lat="30.5294" lon="-97.874841" changeset="false"><tag k="addr:street" v="Granite Hill Drive"/><tag k="addr:housenumber" v="2704"/><tag k="addr:postcode" v="78641"/></node><node id="-642" lat="30.52735" lon="-97.870787" changeset="false"><tag k="addr:street" v="Granite Hill Drive"/><tag k="addr:housenumber" v="2324"/><tag k="addr:postcode" v="78641"/></node><node id="-643" lat="30.527216" lon="-97.870874" changeset="false"><tag k="addr:street" v="Granite Hill Drive"/><tag k="addr:housenumber" v="2328"/><tag k="addr:postcode" v="78641"/></node><node id="-644" lat="30.526992" lon="-97.871152" changeset="false"><tag k="addr:street" v="Granite Hill Drive"/><tag k="addr:housenumber" v="2336"/><tag k="addr:postcode" v="78641"/></node><node id="-645" lat="30.528206" lon="-97.87111" changeset="false"><tag k="addr:street" v="Granite Hill Drive"/><tag k="addr:housenumber" v="2301"/><tag k="addr:postcode" v="78641"/></node><node id="-646" lat="30.527469" lon="-97.87127" changeset="false"><tag k="addr:street" v="Granite Hill Drive"/><tag k="addr:housenumber" v="2325"/><tag k="addr:postcode" v="78641"/></node><node id="-647" lat="30.526553" lon="-97.871641" changeset="false"><tag k="addr:street" v="Granite Hill Drive"/><tag k="addr:housenumber" v="2412"/><tag k="addr:postcode" v="78641"/></node><node id="-648" lat="30.526246" lon="-97.871941" changeset="false"><tag k="addr:street" v="Granite Hill Drive"/><tag k="addr:housenumber" v="2424"/><tag k="addr:postcode" v="78641"/></node><node id="-649" lat="30.532015" lon="-97.877284" changeset="false"><tag k="addr:street" v="Yuma Trail"/><tag k="addr:housenumber" v="2509"/><tag k="addr:postcode" v="78641"/></node><node id="-650" lat="30.531851" lon="-97.87757" changeset="false"><tag k="addr:street" v="Yuma Trail"/><tag k="addr:housenumber" v="2513"/><tag k="addr:postcode" v="78641"/></node><node id="-651" lat="30.53139" lon="-97.874736" changeset="false"><tag k="addr:street" v="Osage Drive"/><tag k="addr:housenumber" v="2415"/><tag k="addr:postcode" v="78641"/></node><node id="-652" lat="30.530572" lon="-97.875168" changeset="false"><tag k="addr:street" v="Osage Drive"/><tag k="addr:housenumber" v="2455"/><tag k="addr:postcode" v="78641"/></node><node id="-653" lat="30.537426" lon="-97.870892" changeset="false"><tag k="addr:street" v="Champions Corner Drive"/><tag k="addr:housenumber" v="2404"/><tag k="addr:postcode" v="78641"/></node><node id="-654" lat="30.535808" lon="-97.870033" changeset="false"><tag k="addr:street" v="Champions Corner Drive"/><tag k="addr:housenumber" v="2516"/><tag k="addr:postcode" v="78641"/></node><node id="-655" lat="30.533163" lon="-97.869916" changeset="false"><tag k="addr:street" v="Champions Corner Court"/><tag k="addr:housenumber" v="2008"/><tag k="addr:postcode" v="78641"/></node><node id="-656" lat="30.530924" lon="-97.870684" changeset="false"><tag k="addr:street" v="Garnet Ridge Drive"/><tag k="addr:housenumber" v="2816"/><tag k="addr:postcode" v="78641"/></node><node id="-657" lat="30.533198" lon="-97.871635" changeset="false"><tag k="addr:street" v="Outlook Ridge Loop"/><tag k="addr:housenumber" v="2661"/><tag k="addr:postcode" v="78641"/></node><node id="-658" lat="30.532325" lon="-97.871163" changeset="false"><tag k="addr:street" v="Outlook Ridge Loop"/><tag k="addr:housenumber" v="2712"/><tag k="addr:postcode" v="78641"/></node><node id="-659" lat="30.532299" lon="-97.871782" changeset="false"><tag k="addr:street" v="Lookout Knoll Drive"/><tag k="addr:housenumber" v="2204"/><tag k="addr:postcode" v="78641"/></node><node id="-660" lat="30.604687" lon="-97.940892" changeset="false"><tag k="addr:street" v="Lucky Hit Road"/><tag k="addr:housenumber" v="16460"/><tag k="addr:postcode" v="78641"/></node><node id="-661" lat="30.58638" lon="-97.976106" changeset="false"><tag k="addr:street" v="Long Hollow Trail"/><tag k="addr:housenumber" v="24800"/><tag k="addr:postcode" v="78641"/></node><node id="-662" lat="30.517713" lon="-97.87778" changeset="false"><tag k="addr:street" v="Indian Chief Drive"/><tag k="addr:housenumber" v="17005"/><tag k="addr:postcode" v="78613"/></node><node id="-663" lat="30.602549" lon="-97.938926" changeset="false"><tag k="addr:street" v="Lucky Hit Road"/><tag k="addr:housenumber" v="16501"/><tag k="addr:postcode" v="78641"/></node><node id="-664" lat="30.539516" lon="-97.873901" changeset="false"><tag k="addr:street" v="Champions Corner Drive"/><tag k="addr:housenumber" v="2208"/><tag k="addr:postcode" v="78641"/></node><node id="-665" lat="30.53987" lon="-97.8731" changeset="false"><tag k="addr:street" v="Champions Corner Drive"/><tag k="addr:housenumber" v="2224"/><tag k="addr:postcode" v="78641"/></node><node id="-666" lat="30.539532" lon="-97.872702" changeset="false"><tag k="addr:street" v="Champions Corner Drive"/><tag k="addr:housenumber" v="2225"/><tag k="addr:postcode" v="78641"/></node><node id="-667" lat="30.539494" lon="-97.871734" changeset="false"><tag k="addr:street" v="Champions Corner Drive"/><tag k="addr:housenumber" v="2256"/><tag k="addr:postcode" v="78641"/></node><node id="-668" lat="30.53716" lon="-97.872833" changeset="false"><tag k="addr:street" v="Long Bow Drive"/><tag k="addr:housenumber" v="2200"/><tag k="addr:postcode" v="78641"/></node><node id="-669" lat="30.537256" lon="-97.872629" changeset="false"><tag k="addr:street" v="Long Bow Drive"/><tag k="addr:housenumber" v="2120"/><tag k="addr:postcode" v="78641"/></node><node id="-670" lat="30.538964" lon="-97.872833" changeset="false"><tag k="addr:street" v="Peoria Drive"/><tag k="addr:housenumber" v="2113"/><tag k="addr:postcode" v="78641"/></node><node id="-671" lat="30.538127" lon="-97.873364" changeset="false"><tag k="addr:street" v="Peoria Drive"/><tag k="addr:housenumber" v="2133"/><tag k="addr:postcode" v="78641"/></node><node id="-672" lat="30.584047" lon="-97.983112" changeset="false"><tag k="addr:street" v="Long Hollow Loop"/><tag k="addr:housenumber" v="13900"/><tag k="addr:postcode" v="78641"/></node><node id="-673" lat="30.601761" lon="-97.951222" changeset="false"><tag k="addr:street" v="Lucky Hit Road"/><tag k="addr:housenumber" v="16114"/><tag k="addr:postcode" v="78641"/></node><node id="-674" lat="30.591371" lon="-97.982898" changeset="false"><tag k="addr:street" v="Rock Cliff Drive"/><tag k="addr:housenumber" v="14401"/><tag k="addr:postcode" v="78641"/></node><node id="-675" lat="30.541096" lon="-97.869272" changeset="false"><tag k="addr:street" v="Signature Lane"/><tag k="addr:housenumber" v="2112"/><tag k="addr:postcode" v="78641"/></node><node id="-676" lat="30.541433" lon="-97.869061" changeset="false"><tag k="addr:street" v="Leaders Lane"/><tag k="addr:housenumber" v="1804"/><tag k="addr:postcode" v="78641"/></node><node id="-677" lat="30.520708" lon="-97.879557" changeset="false"><tag k="addr:street" v="Frostdale Drive"/><tag k="addr:housenumber" v="13404"/><tag k="addr:postcode" v="78613"/></node><node id="-678" lat="30.591201" lon="-97.977801" changeset="false"><tag k="addr:street" v="Ranch Road"/><tag k="addr:housenumber" v="25004"/><tag k="addr:postcode" v="78641"/></node><node id="-679" lat="30.587519" lon="-97.9792" changeset="false"><tag k="addr:street" v="Layne Loop"/><tag k="addr:housenumber" v="14230"/><tag k="addr:postcode" v="78641"/></node><node id="-680" lat="30.586275" lon="-97.98024" changeset="false"><tag k="addr:street" v="Long Hollow Loop"/><tag k="addr:housenumber" v="14112"/><tag k="addr:postcode" v="78641"/></node><node id="-681" lat="30.518863" lon="-97.879173" changeset="false"><tag k="addr:street" v="Indian Chief Drive"/><tag k="addr:housenumber" v="17109"/><tag k="addr:postcode" v="78613"/></node><node id="-682" lat="30.544456" lon="-97.883379" changeset="false"><tag k="addr:street" v="Crystal Falls Parkway"/><tag k="addr:housenumber" v="2905"/><tag k="addr:postcode" v="78641"/></node><node id="-683" lat="30.541436" lon="-97.883804" changeset="false"><tag k="addr:street" v="Crystal Falls Parkway"/><tag k="addr:housenumber" v="3103"/><tag k="addr:postcode" v="78641"/></node><node id="-684" lat="30.569721" lon="-97.949367" changeset="false"><tag k="addr:street" v="Big Sandy Drive"/><tag k="addr:housenumber" v="22715"/><tag k="addr:postcode" v="78641"/></node><node id="-685" lat="30.59433" lon="-97.964454" changeset="false"><tag k="addr:street" v="Chaparral Drive"/><tag k="addr:housenumber" v="15201"/><tag k="addr:postcode" v="78641"/></node><node id="-686" lat="30.598628" lon="-97.982093" changeset="false"><tag k="addr:street" v="Fawn Drive"/><tag k="addr:housenumber" v="25601"/><tag k="addr:postcode" v="78641"/></node><node id="-687" lat="30.592624" lon="-97.974624" changeset="false"><tag k="addr:street" v="Fawn Drive"/><tag k="addr:housenumber" v="24905"/><tag k="addr:postcode" v="78641"/></node><node id="-688" lat="30.589988" lon="-97.971844" changeset="false"><tag k="addr:street" v="Fawn Drive"/><tag k="addr:housenumber" v="24701"/><tag k="addr:postcode" v="78641"/></node><node id="-689" lat="30.586355" lon="-97.981091" changeset="false"><tag k="addr:street" v="Joyce Drive"/><tag k="addr:housenumber" v="14107"/><tag k="addr:postcode" v="78641"/></node><node id="-690" lat="30.586599" lon="-97.980927" changeset="false"><tag k="addr:street" v="Joyce Drive"/><tag k="addr:housenumber" v="14111"/><tag k="addr:postcode" v="78641"/></node><node id="-691" lat="30.588208" lon="-97.98263" changeset="false"><tag k="addr:street" v="Layne Loop"/><tag k="addr:housenumber" v="14200"/><tag k="addr:postcode" v="78641"/></node><node id="-692" lat="30.539015" lon="-97.870183" changeset="false"><tag k="addr:street" v="Long Bow Drive"/><tag k="addr:housenumber" v="1921"/><tag k="addr:postcode" v="78641"/></node><node id="-693" lat="30.538637" lon="-97.870789" changeset="false"><tag k="addr:street" v="Long Bow Drive"/><tag k="addr:housenumber" v="2005"/><tag k="addr:postcode" v="78641"/></node><node id="-694" lat="30.538037" lon="-97.870993" changeset="false"><tag k="addr:street" v="Long Bow Drive"/><tag k="addr:housenumber" v="2012"/><tag k="addr:postcode" v="78641"/></node><node id="-695" lat="30.539697" lon="-97.86918" changeset="false"><tag k="addr:street" v="Long Bow Drive"/><tag k="addr:housenumber" v="1904"/><tag k="addr:postcode" v="78641"/></node><node id="-696" lat="30.538697" lon="-97.869827" changeset="false"><tag k="addr:street" v="Long Bow Drive"/><tag k="addr:housenumber" v="1924"/><tag k="addr:postcode" v="78641"/></node><node id="-697" lat="30.530743" lon="-97.871119" changeset="false"><tag k="addr:street" v="Garnet Ridge Drive"/><tag k="addr:housenumber" v="2809"/><tag k="addr:postcode" v="78641"/></node><node id="-698" lat="30.533717" lon="-97.870735" changeset="false"><tag k="addr:street" v="Outlook Ridge Loop"/><tag k="addr:housenumber" v="2644"/><tag k="addr:postcode" v="78641"/></node><node id="-699" lat="30.532945" lon="-97.871178" changeset="false"><tag k="addr:street" v="Outlook Ridge Loop"/><tag k="addr:housenumber" v="2700"/><tag k="addr:postcode" v="78641"/></node><node id="-700" lat="30.532991" lon="-97.871644" changeset="false"><tag k="addr:street" v="Outlook Ridge Loop"/><tag k="addr:housenumber" v="2701"/><tag k="addr:postcode" v="78641"/></node><node id="-701" lat="30.53216" lon="-97.871171" changeset="false"><tag k="addr:street" v="Outlook Ridge Loop"/><tag k="addr:housenumber" v="2716"/><tag k="addr:postcode" v="78641"/></node><node id="-702" lat="30.532766" lon="-97.871655" changeset="false"><tag k="addr:street" v="Lookout Knoll Drive"/><tag k="addr:housenumber" v="2201"/><tag k="addr:postcode" v="78641"/></node><node id="-703" lat="30.572106" lon="-97.957016" changeset="false"><tag k="addr:street" v="Big Sandy Drive"/><tag k="addr:housenumber" v="23204"/><tag k="addr:postcode" v="78641"/></node><node id="-704" lat="30.569663" lon="-97.944523" changeset="false"><tag k="addr:street" v="Nameless Road"/><tag k="addr:housenumber" v="22668"/><tag k="addr:postcode" v="78641"/></node><node id="-705" lat="30.567046" lon="-97.951387" changeset="false"><tag k="addr:street" v="Pecan Hollow"/><tag k="addr:housenumber" v="13907"/><tag k="addr:postcode" v="78641"/></node><node id="-706" lat="30.586742" lon="-97.981962" changeset="false"><tag k="addr:street" v="Joyce Drive"/><tag k="addr:housenumber" v="14108"/><tag k="addr:postcode" v="78641"/></node><node id="-707" lat="30.586019" lon="-97.983292" changeset="false"><tag k="addr:street" v="Layne Loop"/><tag k="addr:housenumber" v="14005"/><tag k="addr:postcode" v="78641"/></node><node id="-708" lat="30.586532" lon="-97.982893" changeset="false"><tag k="addr:street" v="Layne Loop"/><tag k="addr:housenumber" v="14101"/><tag k="addr:postcode" v="78641"/></node><node id="-709" lat="30.585439" lon="-97.981761" changeset="false"><tag k="addr:street" v="Joyce Drive"/><tag k="addr:housenumber" v="14005"/><tag k="addr:postcode" v="78641"/></node><node id="-710" lat="30.584653" lon="-97.984034" changeset="false"><tag k="addr:street" v="Joyce Drive"/><tag k="addr:housenumber" v="13903"/><tag k="addr:postcode" v="78641"/></node><node id="-711" lat="30.573673" lon="-97.94143" changeset="false"><tag k="addr:street" v="Nameless Road"/><tag k="addr:housenumber" v="22604"/><tag k="addr:postcode" v="78641"/></node><node id="-712" lat="30.52197" lon="-97.874976" changeset="false"><tag k="addr:street" v="Hur Industrial Boulevard"/><tag k="addr:housenumber" v="1909"/><tag k="addr:postcode" v="78613"/></node><node id="-713" lat="30.529676" lon="-97.874305" changeset="false"><tag k="addr:street" v="Granite Hill Drive"/><tag k="addr:housenumber" v="2713"/><tag k="addr:postcode" v="78641"/></node><node id="-714" lat="30.527643" lon="-97.870711" changeset="false"><tag k="addr:street" v="Granite Hill Drive"/><tag k="addr:housenumber" v="2316"/><tag k="addr:postcode" v="78641"/></node><node id="-715" lat="30.531267" lon="-97.877632" changeset="false"><tag k="addr:street" v="Long Lasso Pass"/><tag k="addr:housenumber" v="2701"/><tag k="addr:postcode" v="78641"/></node><node id="-716" lat="30.586707" lon="-97.985446" changeset="false"><tag k="addr:street" v="Rock Cliff Drive"/><tag k="addr:housenumber" v="14003"/><tag k="addr:postcode" v="78641"/></node><node id="-717" lat="30.522825" lon="-97.872935" changeset="false"><tag k="addr:street" v="Hur Industrial Boulevard"/><tag k="addr:housenumber" v="1908"/><tag k="addr:postcode" v="78613"/></node><node id="-718" lat="30.519377" lon="-97.87143" changeset="false"><tag k="addr:street" v="West Whitestone Boulevard"/><tag k="addr:housenumber" v="2814"/><tag k="addr:postcode" v="78613"/></node><node id="-719" lat="30.591666" lon="-97.976156" changeset="false"><tag k="addr:street" v="Summit View Drive"/><tag k="addr:housenumber" v="14510"/><tag k="addr:postcode" v="78641"/></node><node id="-720" lat="30.527205" lon="-97.921404" changeset="false"><tag k="addr:street" v="Nameless Road"/><tag k="addr:housenumber" v="23421"/><tag k="addr:postcode" v="78641"/></node><node id="-721" lat="30.583602" lon="-97.969237" changeset="false"><tag k="addr:street" v="Sheep Hollow Trail"/><tag k="addr:housenumber" v="24303"/><tag k="addr:postcode" v="78641"/></node><node id="-722" lat="30.588961" lon="-97.96083" changeset="false"><tag k="addr:street" v="Faubion Trail"/><tag k="addr:housenumber" v="15276"/><tag k="addr:postcode" v="78641"/></node><node id="-723" lat="30.57541" lon="-97.942872" changeset="false"><tag k="addr:street" v="Sweet Summer Drive"/><tag k="addr:housenumber" v="22512"/><tag k="addr:postcode" v="78641"/></node><node id="-724" lat="30.575432" lon="-97.94473" changeset="false"><tag k="addr:street" v="Sweet Summer Drive"/><tag k="addr:housenumber" v="22608"/><tag k="addr:postcode" v="78641"/></node><node id="-725" lat="30.574795" lon="-97.944633" changeset="false"><tag k="addr:street" v="Sweet Summer Drive"/><tag k="addr:housenumber" v="22609"/><tag k="addr:postcode" v="78641"/></node><node id="-726" lat="30.517101" lon="-97.914326" changeset="false"><tag k="addr:street" v="Angel Mountain Drive"/><tag k="addr:housenumber" v="18900"/><tag k="addr:postcode" v="78641"/></node><node id="-727" lat="30.51733" lon="-97.915594" changeset="false"><tag k="addr:street" v="Angel Mountain Drive"/><tag k="addr:housenumber" v="18918"/><tag k="addr:postcode" v="78641"/></node><node id="-728" lat="30.572427" lon="-97.942189" changeset="false"><tag k="addr:street" v="Nameless Road"/><tag k="addr:housenumber" v="22653"/><tag k="addr:postcode" v="78641"/></node><node id="-729" lat="30.596922" lon="-97.983209" changeset="false"><tag k="addr:street" v="Rock Cliff Drive"/><tag k="addr:housenumber" v="14713"/><tag k="addr:postcode" v="78641"/></node><node id="-730" lat="30.582808" lon="-97.969534" changeset="false"><tag k="addr:street" v="Long Hollow Trail"/><tag k="addr:housenumber" v="24303"/><tag k="addr:postcode" v="78641"/></node><node id="-731" lat="30.582834" lon="-97.969903" changeset="false"><tag k="addr:street" v="Long Hollow Trail"/><tag k="addr:housenumber" v="24307"/><tag k="addr:postcode" v="78641"/></node><node id="-732" lat="30.582442" lon="-97.965711" changeset="false"><tag k="addr:street" v="Juniper Court"/><tag k="addr:housenumber" v="24102"/><tag k="addr:postcode" v="78641"/></node><node id="-733" lat="30.573587" lon="-97.947908" changeset="false"><tag k="addr:street" v="Round Mountain Road"/><tag k="addr:housenumber" v="14405 1/2"/><tag k="addr:postcode" v="78641"/></node><node id="-734" lat="30.560187" lon="-97.899841" changeset="false"><tag k="addr:street" v="Hedder Circle"/><tag k="addr:housenumber" v="15104"/><tag k="addr:postcode" v="78641"/></node><node id="-735" lat="30.587545" lon="-97.986045" changeset="false"><tag k="addr:street" v="Rock Cliff Drive"/><tag k="addr:housenumber" v="14002"/><tag k="addr:postcode" v="78641"/></node><node id="-736" lat="30.518385" lon="-97.879876" changeset="false"><tag k="addr:street" v="Whitetail Pass"/><tag k="addr:housenumber" v="17100"/><tag k="addr:postcode" v="78613"/></node><node id="-737" lat="30.520305" lon="-97.889985" changeset="false"><tag k="addr:street" v="Vista Rock Drive"/><tag k="addr:housenumber" v="13201"/><tag k="addr:postcode" v="78641"/></node><node id="-738" lat="30.519886" lon="-97.91288" changeset="false"><tag k="addr:street" v="Lone Mountain Pass"/><tag k="addr:housenumber" v="12700"/><tag k="addr:postcode" v="78641"/></node><node id="-739" lat="30.588105" lon="-97.977263" changeset="false"><tag k="addr:street" v="Summit View Drive"/><tag k="addr:housenumber" v="14301"/><tag k="addr:postcode" v="78641"/></node><node id="-740" lat="30.587439" lon="-97.977052" changeset="false"><tag k="addr:street" v="Long Hollow Trail"/><tag k="addr:housenumber" v="24900"/><tag k="addr:postcode" v="78641"/></node><node id="-741" lat="30.618095" lon="-97.944077" changeset="false"><tag k="addr:street" v="Bingham Creek Road"/><tag k="addr:housenumber" v="24201"/><tag k="addr:postcode" v="78641"/></node><node id="-742" lat="30.596187" lon="-97.929178" changeset="false"><tag k="addr:street" v="Arrow Head Drive"/><tag k="addr:housenumber" v="16404"/><tag k="addr:postcode" v="78641"/></node><node id="-743" lat="30.594812" lon="-97.933302" changeset="false"><tag k="addr:street" v="Big Oak Circle"/><tag k="addr:housenumber" v="16204"/><tag k="addr:postcode" v="78641"/></node><node id="-744" lat="30.595513" lon="-97.929646" changeset="false"><tag k="addr:street" v="Arrow Head Drive"/><tag k="addr:housenumber" v="16312"/><tag k="addr:postcode" v="78641"/></node><node id="-745" lat="30.605843" lon="-97.935947" changeset="false"><tag k="addr:street" v="Round Mountain Road"/><tag k="addr:housenumber" v="16800"/><tag k="addr:postcode" v="78641"/></node><node id="-746" lat="30.594245" lon="-97.98168" changeset="false"><tag k="addr:street" v="Rock Cliff Drive"/><tag k="addr:housenumber" v="14601"/><tag k="addr:postcode" v="78641"/></node><node id="-747" lat="30.578945" lon="-97.937849" changeset="false"><tag k="addr:street" v="Nameless Road"/><tag k="addr:housenumber" v="22517"/><tag k="addr:postcode" v="78641"/></node><node id="-748" lat="30.569587" lon="-97.948872" changeset="false"><tag k="addr:street" v="Big Sandy Drive"/><tag k="addr:housenumber" v="22709"/><tag k="addr:postcode" v="78641"/></node><node id="-749" lat="30.568489" lon="-97.951514" changeset="false"><tag k="addr:street" v="Pecan Hollow"/><tag k="addr:housenumber" v="14004"/><tag k="addr:postcode" v="78641"/></node><node id="-750" lat="30.567478" lon="-97.946337" changeset="false"><tag k="addr:street" v="Sandy Meadow Circle"/><tag k="addr:housenumber" v="14109"/><tag k="addr:postcode" v="78641"/></node><node id="-751" lat="30.566764" lon="-97.951636" changeset="false"><tag k="addr:street" v="Pecan Hollow"/><tag k="addr:housenumber" v="13902"/><tag k="addr:postcode" v="78641"/></node><node id="-752" lat="30.563809" lon="-97.953536" changeset="false"><tag k="addr:street" v="Pecan Hollow"/><tag k="addr:housenumber" v="13700"/><tag k="addr:postcode" v="78641"/></node><node id="-753" lat="30.599607" lon="-97.935716" changeset="false"><tag k="addr:street" v="Round Mountain Circle"/><tag k="addr:housenumber" v="23032"/><tag k="addr:postcode" v="78641"/></node><node id="-754" lat="30.537199" lon="-97.873525" changeset="false"><tag k="addr:street" v="Long Bow Drive"/><tag k="addr:housenumber" v="2212"/><tag k="addr:postcode" v="78641"/></node><node id="-755" lat="30.533131" lon="-97.93603" changeset="false"><tag k="addr:street" v="Nameless Road"/><tag k="addr:housenumber" v="23277"/><tag k="addr:postcode" v="78641"/></node><node id="-756" lat="30.574702" lon="-97.935827" changeset="false"><tag k="addr:street" v="Honeycomb Drive"/><tag k="addr:housenumber" v="14901"/><tag k="addr:postcode" v="78641"/></node><node id="-757" lat="30.572251" lon="-97.93243" changeset="false"><tag k="addr:street" v="Honeycomb Hollow"/><tag k="addr:housenumber" v="15121"/><tag k="addr:postcode" v="78641"/></node><node id="-758" lat="30.570789" lon="-97.925239" changeset="false"><tag k="addr:street" v="Honeycomb Hollow"/><tag k="addr:housenumber" v="15144"/><tag k="addr:postcode" v="78641"/></node><node id="-759" lat="30.562523" lon="-97.954585" changeset="false"><tag k="addr:street" v="Pecan Hollow"/><tag k="addr:housenumber" v="13604"/><tag k="addr:postcode" v="78641"/></node><node id="-760" lat="30.571664" lon="-97.957104" changeset="false"><tag k="addr:street" v="Big Sandy Drive"/><tag k="addr:housenumber" v="23202"/><tag k="addr:postcode" v="78641"/></node><node id="-761" lat="30.531177" lon="-97.933923" changeset="false"><tag k="addr:street" v="Nameless Road"/><tag k="addr:housenumber" v="23315"/><tag k="addr:postcode" v="78641"/></node><node id="-762" lat="30.596734" lon="-97.932099" changeset="false"><tag k="addr:street" v="Big Oak Circle"/><tag k="addr:housenumber" v="16312"/><tag k="addr:postcode" v="78641"/></node><node id="-763" lat="30.573586" lon="-97.958159" changeset="false"><tag k="addr:street" v="Big Sandy Drive"/><tag k="addr:housenumber" v="23308"/><tag k="addr:postcode" v="78641"/></node><node id="-764" lat="30.573252" lon="-97.958335" changeset="false"><tag k="addr:street" v="Big Sandy Drive"/><tag k="addr:housenumber" v="23306"/><tag k="addr:postcode" v="78641"/></node><node id="-765" lat="30.596234" lon="-97.961032" changeset="false"><tag k="addr:street" v="Cisco Trail"/><tag k="addr:housenumber" v="24304"/><tag k="addr:postcode" v="78641"/></node><node id="-766" lat="30.586272" lon="-97.975099" changeset="false"><tag k="addr:street" v="Long Hollow Trail"/><tag k="addr:housenumber" v="24702"/><tag k="addr:postcode" v="78641"/></node><node id="-767" lat="30.585448" lon="-97.974824" changeset="false"><tag k="addr:street" v="Long Hollow Trail"/><tag k="addr:housenumber" v="24608"/><tag k="addr:postcode" v="78641"/></node><node id="-768" lat="30.566897" lon="-97.951492" changeset="false"><tag k="addr:street" v="Pecan Hollow"/><tag k="addr:housenumber" v="13905"/><tag k="addr:postcode" v="78641"/></node><node id="-769" lat="30.566387" lon="-97.951842" changeset="false"><tag k="addr:street" v="Pecan Hollow"/><tag k="addr:housenumber" v="13813"/><tag k="addr:postcode" v="78641"/></node><node id="-770" lat="30.565596" lon="-97.95827" changeset="false"><tag k="addr:street" v="Spanish Oak Trail"/><tag k="addr:housenumber" v="23009"/><tag k="addr:postcode" v="78641"/></node><node id="-771" lat="30.563545" lon="-97.954271" changeset="false"><tag k="addr:street" v="Cedar Hollow"/><tag k="addr:housenumber" v="22702"/><tag k="addr:postcode" v="78641"/></node><node id="-772" lat="30.563303" lon="-97.953897" changeset="false"><tag k="addr:street" v="Pecan Hollow"/><tag k="addr:housenumber" v="13701"/><tag k="addr:postcode" v="78641"/></node><node id="-773" lat="30.614603" lon="-97.958528" changeset="false"><tag k="addr:street" v="Bingham Creek Road"/><tag k="addr:housenumber" v="24801"/><tag k="addr:postcode" v="78641"/></node><node id="-774" lat="30.613765" lon="-97.952603" changeset="false"><tag k="addr:street" v="Bingham Creek Road"/><tag k="addr:housenumber" v="24501"/><tag k="addr:postcode" v="78641"/></node><node id="-775" lat="30.616461" lon="-97.962342" changeset="false"><tag k="addr:street" v="Bingham Creek Road"/><tag k="addr:housenumber" v="25025"/><tag k="addr:postcode" v="78641"/></node><node id="-776" lat="30.524655" lon="-97.909545" changeset="false"><tag k="addr:street" v="Angel Springs Drive"/><tag k="addr:housenumber" v="13013"/><tag k="addr:postcode" v="78641"/></node><node id="-777" lat="30.520365" lon="-97.893141" changeset="false"><tag k="addr:street" v="Vista Rock Drive"/><tag k="addr:housenumber" v="13320"/><tag k="addr:postcode" v="78641"/></node><node id="-778" lat="30.567678" lon="-97.950902" changeset="false"><tag k="addr:street" v="Pecan Hollow"/><tag k="addr:housenumber" v="13913"/><tag k="addr:postcode" v="78641"/></node><node id="-779" lat="30.557655" lon="-97.893096" changeset="false"><tag k="addr:street" v="Harkey Cove"/><tag k="addr:housenumber" v="15106"/><tag k="addr:postcode" v="78641"/></node><node id="-780" lat="30.578266" lon="-97.921641" changeset="false"><tag k="addr:street" v="Nameless Road"/><tag k="addr:housenumber" v="21600"/><tag k="addr:postcode" v="78641"/></node><node id="-781" lat="30.565835" lon="-97.952518" changeset="false"><tag k="addr:street" v="Pecan Hollow"/><tag k="addr:housenumber" v="13804"/><tag k="addr:postcode" v="78641"/></node><node id="-782" lat="30.564741" lon="-97.952886" changeset="false"><tag k="addr:street" v="Pecan Hollow"/><tag k="addr:housenumber" v="13713"/><tag k="addr:postcode" v="78641"/></node><node id="-783" lat="30.527763" lon="-97.9283" changeset="false"><tag k="addr:street" v="Nameless Road"/><tag k="addr:housenumber" v="23399"/><tag k="addr:postcode" v="78641"/></node><node id="-784" lat="30.617805" lon="-97.945191" changeset="false"><tag k="addr:street" v="Bingham Creek Road"/><tag k="addr:housenumber" v="24217"/><tag k="addr:postcode" v="78641"/></node><node id="-785" lat="30.613515" lon="-97.940934" changeset="false"><tag k="addr:street" v="Round Mountain Road"/><tag k="addr:housenumber" v="17200"/><tag k="addr:postcode" v="78641"/></node><node id="-786" lat="30.567253" lon="-97.947301" changeset="false"><tag k="addr:street" v="Sandy Meadow Circle"/><tag k="addr:housenumber" v="14102"/><tag k="addr:postcode" v="78641"/></node><node id="-787" lat="30.56642" lon="-97.960262" changeset="false"><tag k="addr:street" v="Spanish Oak Trail"/><tag k="addr:housenumber" v="23109"/><tag k="addr:postcode" v="78641"/></node><node id="-788" lat="30.577706" lon="-97.925538" changeset="false"><tag k="addr:street" v="Honeycomb Hollow"/><tag k="addr:housenumber" v="15401"/><tag k="addr:postcode" v="78641"/></node><node id="-789" lat="30.576781" lon="-97.925955" changeset="false"><tag k="addr:street" v="Honeycomb Hollow"/><tag k="addr:housenumber" v="15400"/><tag k="addr:postcode" v="78641"/></node><node id="-790" lat="30.570811" lon="-97.927874" changeset="false"><tag k="addr:street" v="Honeycomb Hollow"/><tag k="addr:housenumber" v="15131"/><tag k="addr:postcode" v="78641"/></node><node id="-791" lat="30.591778" lon="-97.956106" changeset="false"><tag k="addr:street" v="Faubion Trail"/><tag k="addr:housenumber" v="15220"/><tag k="addr:postcode" v="78641"/></node><node id="-792" lat="30.56262" lon="-97.953956" changeset="false"><tag k="addr:street" v="Dewberry Hollow"/><tag k="addr:housenumber" v="22611"/><tag k="addr:postcode" v="78641"/></node><node id="-793" lat="30.566095" lon="-97.959477" changeset="false"><tag k="addr:street" v="Spanish Oak Trail"/><tag k="addr:housenumber" v="23103"/><tag k="addr:postcode" v="78641"/></node><node id="-794" lat="30.584586" lon="-97.971884" changeset="false"><tag k="addr:street" v="Long Hollow Trail"/><tag k="addr:housenumber" v="24501"/><tag k="addr:postcode" v="78641"/></node><node id="-795" lat="30.521957" lon="-97.896781" changeset="false"><tag k="addr:street" v="Farm-to-Market Road 1431"/><tag k="addr:housenumber" v="18000"/><tag k="addr:postcode" v="78641"/></node><node id="-796" lat="30.52021" lon="-97.912008" changeset="false"><tag k="addr:street" v="Lone Mountain Pass"/><tag k="addr:housenumber" v="12701"/><tag k="addr:postcode" v="78641"/></node><node id="-797" lat="30.599342" lon="-97.949338" changeset="false"><tag k="addr:street" v="Lucky Hit Road"/><tag k="addr:housenumber" v="16107"/><tag k="addr:postcode" v="78641"/></node><node id="-798" lat="30.569171" lon="-97.947321" changeset="false"><tag k="addr:street" v="Sandy Meadow Circle"/><tag k="addr:housenumber" v="14204"/><tag k="addr:postcode" v="78641"/></node><node id="-799" lat="30.609886" lon="-97.937126" changeset="false"><tag k="addr:street" v="Round Mountain Road"/><tag k="addr:housenumber" v="17112"/><tag k="addr:postcode" v="78641"/></node><node id="-800" lat="30.576048" lon="-97.946675" changeset="false"><tag k="addr:street" v="Round Mountain Road"/><tag k="addr:housenumber" v="14611"/><tag k="addr:postcode" v="78641"/></node><node id="-801" lat="30.586833" lon="-97.962494" changeset="false"><tag k="addr:street" v="Faubion Trail"/><tag k="addr:housenumber" v="15282"/><tag k="addr:postcode" v="78641"/></node><node id="-802" lat="30.585984" lon="-97.975701" changeset="false"><tag k="addr:street" v="Long Hollow Trail"/><tag k="addr:housenumber" v="24704"/><tag k="addr:postcode" v="78641"/></node><node id="-803" lat="30.567015" lon="-97.951782" changeset="false"><tag k="addr:street" v="Pecan Hollow"/><tag k="addr:housenumber" v="13904"/><tag k="addr:postcode" v="78641"/></node><node id="-804" lat="30.587072" lon="-97.970688" changeset="false"><tag k="addr:street" v="Sheep Hollow Trail"/><tag k="addr:housenumber" v="24504"/><tag k="addr:postcode" v="78641"/></node><node id="-805" lat="30.586316" lon="-97.977153" changeset="false"><tag k="addr:street" v="Long Hollow Trail"/><tag k="addr:housenumber" v="24805"/><tag k="addr:postcode" v="78641"/></node><node id="-806" lat="30.569749" lon="-97.950942" changeset="false"><tag k="addr:street" v="Big Sandy Drive"/><tag k="addr:housenumber" v="22735"/><tag k="addr:postcode" v="78641"/></node><node id="-807" lat="30.567805" lon="-97.951266" changeset="false"><tag k="addr:street" v="Pecan Hollow"/><tag k="addr:housenumber" v="14000"/><tag k="addr:postcode" v="78641"/></node><node id="-808" lat="30.609397" lon="-97.936372" changeset="false"><tag k="addr:street" v="Round Mountain Road"/><tag k="addr:housenumber" v="17066"/><tag k="addr:postcode" v="78641"/></node><node id="-809" lat="30.584856" lon="-97.955099" changeset="false"><tag k="addr:street" v="Faubion Trail"/><tag k="addr:housenumber" v="14902"/><tag k="addr:postcode" v="78641"/></node><node id="-810" lat="30.591581" lon="-97.972911" changeset="false"><tag k="addr:street" v="Fawn Drive"/><tag k="addr:housenumber" v="24801"/><tag k="addr:postcode" v="78641"/></node><node id="-811" lat="30.586577" lon="-97.968149" changeset="false"><tag k="addr:street" v="Fawn Drive"/><tag k="addr:housenumber" v="24307"/><tag k="addr:postcode" v="78641"/></node><node id="-812" lat="30.586804" lon="-97.978411" changeset="false"><tag k="addr:street" v="Summit View Drive"/><tag k="addr:housenumber" v="14207"/><tag k="addr:postcode" v="78641"/></node><node id="-813" lat="30.585725" lon="-97.974953" changeset="false"><tag k="addr:street" v="Long Hollow Trail"/><tag k="addr:housenumber" v="24700"/><tag k="addr:postcode" v="78641"/></node><node id="-814" lat="30.52567" lon="-97.927983" changeset="false"><tag k="addr:street" v="Nameless Road"/><tag k="addr:housenumber" v="23426"/><tag k="addr:postcode" v="78641"/></node><node id="-815" lat="30.565726" lon="-97.952261" changeset="false"><tag k="addr:street" v="Pecan Hollow"/><tag k="addr:housenumber" v="13807"/><tag k="addr:postcode" v="78641"/></node><node id="-816" lat="30.563946" lon="-97.953419" changeset="false"><tag k="addr:street" v="Pecan Hollow"/><tag k="addr:housenumber" v="13707"/><tag k="addr:postcode" v="78641"/></node><node id="-817" lat="30.543608" lon="-97.940717" changeset="false"><tag k="addr:street" v="Nameless Road"/><tag k="addr:housenumber" v="23081"/><tag k="addr:postcode" v="78641"/></node><node id="-818" lat="30.512333" lon="-97.860549" changeset="false"><tag k="addr:street" v="West Whitestone Boulevard"/><tag k="addr:housenumber" v="2225"/><tag k="addr:postcode" v="78613"/></node><node id="-819" lat="30.521749" lon="-97.912958" changeset="false"><tag k="addr:street" v="Lone Mountain Pass"/><tag k="addr:housenumber" v="12800"/><tag k="addr:postcode" v="78641"/></node><node id="-820" lat="30.614084" lon="-97.95381" changeset="false"><tag k="addr:street" v="Bingham Creek Road"/><tag k="addr:housenumber" v="24601"/><tag k="addr:postcode" v="78641"/></node><node id="-821" lat="30.571075" lon="-97.936733" changeset="false"><tag k="addr:street" v="Honeycomb Drive"/><tag k="addr:housenumber" v="14701"/><tag k="addr:postcode" v="78641"/></node><node id="-822" lat="30.583805" lon="-97.968801" changeset="false"><tag k="addr:street" v="Sheep Hollow Trail"/><tag k="addr:housenumber" v="24300"/><tag k="addr:postcode" v="78641"/></node><node id="-823" lat="30.607698" lon="-97.934687" changeset="false"><tag k="addr:street" v="Round Mountain Road"/><tag k="addr:housenumber" v="17000"/><tag k="addr:postcode" v="78641"/></node><node id="-824" lat="30.59797" lon="-97.932921" changeset="false"><tag k="addr:street" v="Oak Ridge Trail"/><tag k="addr:housenumber" v="22815"/><tag k="addr:postcode" v="78641"/></node><node id="-825" lat="30.57592" lon="-97.924775" changeset="false"><tag k="addr:street" v="Honeycomb Hollow"/><tag k="addr:housenumber" v="15309"/><tag k="addr:postcode" v="78641"/></node><node id="-826" lat="30.593743" lon="-97.964645" changeset="false"><tag k="addr:street" v="Chaparral Drive"/><tag k="addr:housenumber" v="15107"/><tag k="addr:postcode" v="78641"/></node><node id="-827" lat="30.577896" lon="-97.938538" changeset="false"><tag k="addr:street" v="Nameless Road"/><tag k="addr:housenumber" v="22541"/><tag k="addr:postcode" v="78641"/></node><node id="-828" lat="30.522499" lon="-97.908813" changeset="false"><tag k="addr:street" v="Angel Springs Drive"/><tag k="addr:housenumber" v="13000"/><tag k="addr:postcode" v="78641"/></node><node id="-829" lat="30.520922" lon="-97.908248" changeset="false"><tag k="addr:street" v="Angel Springs Drive"/><tag k="addr:housenumber" v="12900"/><tag k="addr:postcode" v="78641"/></node><node id="-830" lat="30.518168" lon="-97.905968" changeset="false"><tag k="addr:street" v="Farm-to-Market Road 1431"/><tag k="addr:housenumber" v="18100"/><tag k="addr:postcode" v="78641"/></node><node id="-831" lat="30.573916" lon="-97.927856" changeset="false"><tag k="addr:street" v="Honeycomb Court"/><tag k="addr:housenumber" v="15103"/><tag k="addr:postcode" v="78641"/></node><node id="-832" lat="30.572924" lon="-97.930726" changeset="false"><tag k="addr:street" v="Honeycomb Hollow"/><tag k="addr:housenumber" v="15120"/><tag k="addr:postcode" v="78641"/></node><node id="-833" lat="30.51723" lon="-97.879185" changeset="false"><tag k="addr:street" v="Fawnvalley Drive"/><tag k="addr:housenumber" v="13215"/><tag k="addr:postcode" v="78613"/></node><node id="-834" lat="30.513754" lon="-97.882283" changeset="false"><tag k="addr:street" v="Buck Run"/><tag k="addr:housenumber" v="13108"/><tag k="addr:postcode" v="78613"/></node><node id="-835" lat="30.591899" lon="-97.958005" changeset="false"><tag k="addr:street" v="Faubion Trail"/><tag k="addr:housenumber" v="15238"/><tag k="addr:postcode" v="78641"/></node><node id="-836" lat="30.592149" lon="-97.957381" changeset="false"><tag k="addr:street" v="Faubion Trail"/><tag k="addr:housenumber" v="15236"/><tag k="addr:postcode" v="78641"/></node><node id="-837" lat="30.587104" lon="-97.976187" changeset="false"><tag k="addr:street" v="Long Hollow Trail"/><tag k="addr:housenumber" v="24804"/><tag k="addr:postcode" v="78641"/></node><node id="-838" lat="30.586569" lon="-97.977296" changeset="false"><tag k="addr:street" v="Long Hollow Trail"/><tag k="addr:housenumber" v="24807"/><tag k="addr:postcode" v="78641"/></node><node id="-839" lat="30.585457" lon="-97.972787" changeset="false"><tag k="addr:street" v="Long Hollow Trail"/><tag k="addr:housenumber" v="24508"/><tag k="addr:postcode" v="78641"/></node><node id="-840" lat="30.617822" lon="-97.946092" changeset="false"><tag k="addr:street" v="Bingham Creek Road"/><tag k="addr:housenumber" v="24229"/><tag k="addr:postcode" v="78641"/></node><node id="-841" lat="30.606747" lon="-97.935186" changeset="false"><tag k="addr:street" v="Round Mountain Road"/><tag k="addr:housenumber" v="16900"/><tag k="addr:postcode" v="78641"/></node><node id="-842" lat="30.595034" lon="-97.931806" changeset="false"><tag k="addr:street" v="Big Oak Circle"/><tag k="addr:housenumber" v="16215"/><tag k="addr:postcode" v="78641"/></node><node id="-843" lat="30.593357" lon="-97.929959" changeset="false"><tag k="addr:street" v="Arrow Head Drive"/><tag k="addr:housenumber" v="16201"/><tag k="addr:postcode" v="78641"/></node><node id="-844" lat="30.59713" lon="-97.964169" changeset="false"><tag k="addr:street" v="Cisco Trail"/><tag k="addr:housenumber" v="24510"/><tag k="addr:postcode" v="78641"/></node><node id="-845" lat="30.584768" lon="-97.963573" changeset="false"><tag k="addr:street" v="Faubion Trail"/><tag k="addr:housenumber" v="15303"/><tag k="addr:postcode" v="78641"/></node><node id="-846" lat="30.590573" lon="-97.975029" changeset="false"><tag k="addr:street" v="Sheep Hollow Trail"/><tag k="addr:housenumber" v="24900"/><tag k="addr:postcode" v="78641"/></node><node id="-847" lat="30.614709" lon="-97.957856" changeset="false"><tag k="addr:street" v="Bingham Creek Road"/><tag k="addr:housenumber" v="24723"/><tag k="addr:postcode" v="78641"/></node><node id="-848" lat="30.608242" lon="-97.934408" changeset="false"><tag k="addr:street" v="Round Mountain Road"/><tag k="addr:housenumber" v="17008"/><tag k="addr:postcode" v="78641"/></node><node id="-849" lat="30.591315" lon="-97.980258" changeset="false"><tag k="addr:street" v="Ranch Road"/><tag k="addr:housenumber" v="25101"/><tag k="addr:postcode" v="78641"/></node><node id="-850" lat="30.581083" lon="-97.930816" changeset="false"><tag k="addr:street" v="Nameless Road"/><tag k="addr:housenumber" v="22123"/><tag k="addr:postcode" v="78641"/></node><node id="-851" lat="30.580424" lon="-97.934571" changeset="false"><tag k="addr:street" v="Nameless Road"/><tag k="addr:housenumber" v="22319"/><tag k="addr:postcode" v="78641"/></node><node id="-852" lat="30.579996" lon="-97.926821" changeset="false"><tag k="addr:street" v="Honeycomb Hollow"/><tag k="addr:housenumber" v="15506"/><tag k="addr:postcode" v="78641"/></node><node id="-853" lat="30.580751" lon="-97.958099" changeset="false"><tag k="addr:street" v="Faubion Trail"/><tag k="addr:housenumber" v="14600"/><tag k="addr:postcode" v="78641"/></node><node id="-854" lat="30.589108" lon="-97.976939" changeset="false"><tag k="addr:street" v="Summit View Drive"/><tag k="addr:housenumber" v="14309"/><tag k="addr:postcode" v="78641"/></node><node id="-855" lat="30.588294" lon="-97.974042" changeset="false"><tag k="addr:street" v="Sheep Hollow Trail"/><tag k="addr:housenumber" v="24705"/><tag k="addr:postcode" v="78641"/></node><node id="-856" lat="30.598666" lon="-97.96437" changeset="false"><tag k="addr:street" v="Chaparral Drive"/><tag k="addr:housenumber" v="15501"/><tag k="addr:postcode" v="78641"/></node><node id="-857" lat="30.569754" lon="-97.947213" changeset="false"><tag k="addr:street" v="Sandy Meadow Circle"/><tag k="addr:housenumber" v="14212"/><tag k="addr:postcode" v="78641"/></node><node id="-858" lat="30.568403" lon="-97.949387" changeset="false"><tag k="addr:street" v="Pecan Hollow"/><tag k="addr:housenumber" v="14101"/><tag k="addr:postcode" v="78641"/></node><node id="-859" lat="30.565332" lon="-97.951827" changeset="false"><tag k="addr:street" v="Pecan Hollow"/><tag k="addr:housenumber" v="13805"/><tag k="addr:postcode" v="78641"/></node><node id="-860" lat="30.571072" lon="-97.925477" changeset="false"><tag k="addr:street" v="Honeycomb Hollow"/><tag k="addr:housenumber" v="15142"/><tag k="addr:postcode" v="78641"/></node><node id="-861" lat="30.588034" lon="-97.976942" changeset="false"><tag k="addr:street" v="Summit View Drive"/><tag k="addr:housenumber" v="14303"/><tag k="addr:postcode" v="78641"/></node><node id="-862" lat="30.535301" lon="-97.8838" changeset="false"><tag k="addr:street" v="Crystal Falls Parkway"/><tag k="addr:housenumber" v="3400"/><tag k="addr:postcode" v="78641"/></node><node id="-863" lat="30.585847" lon="-97.9844" changeset="false"><tag k="addr:street" v="Layne Loop"/><tag k="addr:housenumber" v="13918"/><tag k="addr:postcode" v="78641"/></node><node id="-864" lat="30.575113" lon="-97.940647" changeset="false"><tag k="addr:street" v="Nameless Road"/><tag k="addr:housenumber" v="22580"/><tag k="addr:postcode" v="78641"/></node><node id="-865" lat="30.587293" lon="-97.982343" changeset="false"><tag k="addr:street" v="Layne Loop"/><tag k="addr:housenumber" v="14113"/><tag k="addr:postcode" v="78641"/></node><node id="-866" lat="30.586879" lon="-97.983611" changeset="false"><tag k="addr:street" v="Layne Loop"/><tag k="addr:housenumber" v="14100"/><tag k="addr:postcode" v="78641"/></node><node id="-867" lat="30.587639" lon="-97.969212" changeset="false"><tag k="addr:street" v="Fawn Drive"/><tag k="addr:housenumber" v="24407"/><tag k="addr:postcode" v="78641"/></node><node id="-868" lat="30.585838" lon="-97.962961" changeset="false"><tag k="addr:street" v="Faubion Trail"/><tag k="addr:housenumber" v="15291"/><tag k="addr:postcode" v="78641"/></node><node id="-869" lat="30.6039" lon="-97.944967" changeset="false"><tag k="addr:street" v="Lucky Hit Road"/><tag k="addr:housenumber" v="16401"/><tag k="addr:postcode" v="78641"/></node><node id="-870" lat="30.604625" lon="-97.944332" changeset="false"><tag k="addr:street" v="Lucky Hit Road"/><tag k="addr:housenumber" v="16435"/><tag k="addr:postcode" v="78641"/></node><node id="-871" lat="30.586558" lon="-97.967197" changeset="false"><tag k="addr:street" v="Fawn Drive"/><tag k="addr:housenumber" v="24306"/><tag k="addr:postcode" v="78641"/></node><node id="-872" lat="30.595997" lon="-97.9817" changeset="false"><tag k="addr:street" v="Rock Cliff Drive"/><tag k="addr:housenumber" v="14701"/><tag k="addr:postcode" v="78641"/></node><node id="-873" lat="30.59369" lon="-97.975563" changeset="false"><tag k="addr:street" v="Fawn Drive"/><tag k="addr:housenumber" v="25005"/><tag k="addr:postcode" v="78641"/></node><node id="-874" lat="30.594745" lon="-97.976651" changeset="false"><tag k="addr:street" v="Fawn Drive"/><tag k="addr:housenumber" v="25101"/><tag k="addr:postcode" v="78641"/></node><node id="-875" lat="30.579444" lon="-97.926656" changeset="false"><tag k="addr:street" v="Honeycomb Hollow"/><tag k="addr:housenumber" v="15501"/><tag k="addr:postcode" v="78641"/></node><node id="-876" lat="30.590717" lon="-97.976239" changeset="false"><tag k="addr:street" v="Summit View Drive"/><tag k="addr:housenumber" v="14504"/><tag k="addr:postcode" v="78641"/></node><node id="-877" lat="30.599547" lon="-97.944425" changeset="false"><tag k="addr:street" v="Round Mountain Circle"/><tag k="addr:housenumber" v="23508"/><tag k="addr:postcode" v="78641"/></node><node id="-878" lat="30.574829" lon="-97.943006" changeset="false"><tag k="addr:street" v="Sweet Summer Drive"/><tag k="addr:housenumber" v="22509"/><tag k="addr:postcode" v="78641"/></node><node id="-879" lat="30.574854" lon="-97.94398" changeset="false"><tag k="addr:street" v="Sweet Summer Drive"/><tag k="addr:housenumber" v="22605"/><tag k="addr:postcode" v="78641"/></node><node id="-880" lat="30.584282" lon="-97.9825" changeset="false"><tag k="addr:street" v="Long Hollow Loop"/><tag k="addr:housenumber" v="13904"/><tag k="addr:postcode" v="78641"/></node><node id="-881" lat="30.585201" lon="-97.983283" changeset="false"><tag k="addr:street" v="Joyce Drive"/><tag k="addr:housenumber" v="13904"/><tag k="addr:postcode" v="78641"/></node><node id="-882" lat="30.520321" lon="-97.877413" changeset="false"><tag k="addr:street" v="Wagon Way"/><tag k="addr:housenumber" v="13414"/><tag k="addr:postcode" v="78613"/></node><node id="-883" lat="30.592671" lon="-97.983662" changeset="false"><tag k="addr:street" v="Ranch Road"/><tag k="addr:housenumber" v="25405"/><tag k="addr:postcode" v="78641"/></node></osm>