<?xml version="1.0" encoding="UTF-8"?><osm version="0.6" generator="github.com/aaronlidman/osm-and-geojson"><node id="-1" lat="30.230121" lon="-97.697841" changeset="false"><tag k="addr:street" v="Porter Street"/><tag k="addr:housenumber" v="6500"/><tag k="coa:place_id" v="80763"/></node><node id="-2" lat="30.234669" lon="-97.697044" changeset="false"><tag k="addr:street" v="Montopolis Drive"/><tag k="addr:housenumber" v="915"/><tag k="coa:place_id" v="616286"/></node><node id="-3" lat="30.23854" lon="-97.693143" changeset="false"><tag k="addr:street" v="Thrasher Lane"/><tag k="addr:housenumber" v="516"/><tag k="coa:place_id" v="616808"/></node><node id="-4" lat="30.241136" lon="-97.692897" changeset="false"><tag k="addr:street" v="Montopolis Drive"/><tag k="addr:housenumber" v="401"/><tag k="coa:place_id" v="3131235"/></node><node id="-5" lat="30.24088" lon="-97.689986" changeset="false"><tag k="addr:street" v="Bonnett Street"/><tag k="addr:housenumber" v="207"/><tag k="coa:place_id" v="610586"/></node><node id="-6" lat="30.235145" lon="-97.69315" changeset="false"><tag k="addr:street" v="Vargas Road"/><tag k="addr:housenumber" v="706"/><tag k="coa:place_id" v="640718"/></node><node id="-7" lat="30.237025" lon="-97.694426" changeset="false"><tag k="addr:street" v="Thrasher Lane"/><tag k="addr:housenumber" v="618"/><tag k="coa:place_id" v="616856"/></node><node id="-8" lat="30.233299" lon="-97.697774" changeset="false"><tag k="addr:street" v="Montopolis Drive"/><tag k="addr:housenumber" v="1011"/><tag k="coa:place_id" v="3222573"/></node><node id="-9" lat="30.231525" lon="-97.695813" changeset="false"><tag k="addr:street" v="Vargas Road"/><tag k="addr:housenumber" v="1100"/><tag k="coa:place_id" v="3361812"/></node><node id="-10" lat="30.228516" lon="-97.700926" changeset="false"><tag k="addr:street" v="Santos Street"/><tag k="addr:housenumber" v="6301"/><tag k="coa:place_id" v="3424721"/></node><node id="-11" lat="30.238591" lon="-97.691243" changeset="false"><tag k="addr:street" v="El Mirando Street"/><tag k="addr:housenumber" v="6332"/><tag k="coa:place_id" v="3390912"/></node><node id="-12" lat="30.240548" lon="-97.693124" changeset="false"><tag k="addr:street" v="Montopolis Drive"/><tag k="addr:housenumber" v="411"/><tag k="coa:place_id" v="117931"/></node><node id="-13" lat="30.240057" lon="-97.692832" changeset="false"><tag k="addr:street" v="El Mirando Street"/><tag k="addr:housenumber" v="6308"/><tag k="coa:place_id" v="610376"/></node><node id="-14" lat="30.22986" lon="-97.697945" changeset="false"><tag k="addr:street" v="Porter Street"/><tag k="addr:housenumber" v="6501"/><tag k="coa:place_id" v="80765"/></node><node id="-15" lat="30.237451" lon="-97.693487" changeset="false"><tag k="addr:street" v="Thrasher Lane"/><tag k="addr:housenumber" v="609"/><tag k="coa:place_id" v="367371"/></node><node id="-16" lat="30.238539" lon="-97.694219" changeset="false"><tag k="addr:street" v="Monsanto Drive"/><tag k="addr:housenumber" v="6309"/><tag k="coa:place_id" v="546742"/></node><node id="-17" lat="30.236216" lon="-97.692387" changeset="false"><tag k="addr:street" v="Vargas Road"/><tag k="addr:housenumber" v="608"/><tag k="coa:place_id" v="3115181"/></node><node id="-18" lat="30.234863" lon="-97.696923" changeset="false"><tag k="addr:street" v="Montopolis Drive"/><tag k="addr:housenumber" v="913"/><tag k="coa:place_id" v="616292"/></node><node id="-19" lat="30.230808" lon="-97.699512" changeset="false"><tag k="addr:street" v="Montopolis Drive"/><tag k="addr:housenumber" v="1301"/><tag k="coa:place_id" v="462286"/></node><node id="-20" lat="30.226714" lon="-97.699338" changeset="false"><tag k="addr:street" v="Vargas Road"/><tag k="addr:housenumber" v="1600"/><tag k="coa:place_id" v="838550"/></node><node id="-21" lat="30.237118" lon="-97.694321" changeset="false"><tag k="addr:street" v="Thrasher Lane"/><tag k="addr:housenumber" v="616"/><tag k="coa:place_id" v="3352214"/></node><node id="-22" lat="30.228423" lon="-97.70078" changeset="false"><tag k="addr:street" v="Santos Street"/><tag k="addr:housenumber" v="6303"/><tag k="coa:place_id" v="3424722"/></node><node id="-23" lat="30.2405" lon="-97.691958" changeset="false"><tag k="addr:street" v="Crumley Lane"/><tag k="addr:housenumber" v="6321"/><tag k="coa:place_id" v="220103"/></node><node id="-24" lat="30.240978" lon="-97.693009" changeset="false"><tag k="addr:street" v="Montopolis Drive"/><tag k="addr:housenumber" v="403"/><tag k="coa:place_id" v="3131236"/></node><node id="-25" lat="30.233436" lon="-97.697708" changeset="false"><tag k="addr:street" v="Montopolis Drive"/><tag k="addr:housenumber" v="1007"/><tag k="coa:place_id" v="3125202"/></node><node id="-26" lat="30.234418" lon="-97.695447" changeset="false"><tag k="addr:street" v="Felix Avenue"/><tag k="addr:housenumber" v="6405"/><tag k="coa:place_id" v="616364"/></node><node id="-27" lat="30.239521" lon="-97.69278" changeset="false"><tag k="addr:street" v="El Mirando Street"/><tag k="addr:housenumber" v="6313"/><tag k="coa:place_id" v="610304"/></node><node id="-28" lat="30.230172" lon="-97.69844" changeset="false"><tag k="addr:street" v="Porter Street"/><tag k="addr:housenumber" v="6405"/><tag k="coa:place_id" v="80764"/></node><node id="-29" lat="30.238201" lon="-97.692216" changeset="false"><tag k="addr:street" v="Lynch Lane"/><tag k="addr:housenumber" v="6409"/><tag k="coa:place_id" v="616766"/></node><node id="-30" lat="30.233477" lon="-97.694343" changeset="false"><tag k="addr:street" v="Vargas Road"/><tag k="addr:housenumber" v="904"/><tag k="coa:place_id" v="363886"/></node><node id="-31" lat="30.236502" lon="-97.694139" changeset="false"><tag k="addr:street" v="Ponca Street"/><tag k="addr:housenumber" v="6319"/><tag k="coa:place_id" v="616556"/></node><node id="-32" lat="30.239382" lon="-97.692034" changeset="false"><tag k="addr:street" v="El Mirando Street"/><tag k="addr:housenumber" v="6320 1/2"/><tag k="coa:place_id" v="610340"/></node><node id="-33" lat="30.230691" lon="-97.696431" changeset="false"><tag k="addr:street" v="Vargas Road"/><tag k="addr:housenumber" v="1114"/><tag k="coa:place_id" v="640886"/></node><node id="-34" lat="30.234986" lon="-97.696781" changeset="false"><tag k="addr:street" v="Montopolis Drive"/><tag k="addr:housenumber" v="909"/><tag k="coa:place_id" v="642106"/></node><node id="-35" lat="30.239301" lon="-97.692496" changeset="false"><tag k="addr:street" v="El Mirando Street"/><tag k="addr:housenumber" v="6319"/><tag k="coa:place_id" v="3067893"/></node><node id="-36" lat="30.232712" lon="-97.698372" changeset="false"><tag k="addr:street" v="Montopolis Drive"/><tag k="addr:housenumber" v="1203"/><tag k="coa:place_id" v="615344"/></node><node id="-37" lat="30.225712" lon="-97.702538" changeset="false"><tag k="addr:street" v="Montopolis Drive"/><tag k="addr:housenumber" v="1901"/><tag k="coa:place_id" v="208686"/></node><node id="-38" lat="30.230255" lon="-97.696759" changeset="false"><tag k="addr:street" v="Vargas Road"/><tag k="addr:housenumber" v="1206"/><tag k="coa:place_id" v="3361817"/></node><node id="-39" lat="30.23046" lon="-97.699034" changeset="false"><tag k="addr:street" v="Porter Street"/><tag k="addr:housenumber" v="6309"/><tag k="coa:place_id" v="3361821"/></node><node id="-40" lat="30.236347" lon="-97.69389" changeset="false"><tag k="addr:street" v="Ponca Street"/><tag k="addr:housenumber" v="6325"/><tag k="coa:place_id" v="3302280"/></node><node id="-41" lat="30.240127" lon="-97.692942" changeset="false"><tag k="addr:street" v="El Mirando Street"/><tag k="addr:housenumber" v="6306"/><tag k="coa:place_id" v="3379555"/></node><node id="-42" lat="30.23451" lon="-97.694435" changeset="false"><tag k="addr:street" v="Felix Avenue"/><tag k="addr:housenumber" v="6500"/><tag k="coa:place_id" v="3361561"/></node><node id="-43" lat="30.230599" lon="-97.699595" changeset="false"><tag k="addr:street" v="Montopolis Drive"/><tag k="addr:housenumber" v="1305"/><tag k="coa:place_id" v="615326"/></node><node id="-44" lat="30.241" lon="-97.692846" changeset="false"><tag k="addr:street" v="Crumley Lane"/><tag k="addr:housenumber" v="6301"/><tag k="coa:place_id" v="610400"/></node><node id="-45" lat="30.24089" lon="-97.691931" changeset="false"><tag k="addr:street" v="Crumley Lane"/><tag k="addr:housenumber" v="6312"/><tag k="coa:place_id" v="172560"/></node><node id="-46" lat="30.240827" lon="-97.69029" changeset="false"><tag k="addr:street" v="Del Monte Road"/><tag k="addr:housenumber" v="6410"/><tag k="coa:place_id" v="227962"/></node><node id="-47" lat="30.230588" lon="-97.699113" changeset="false"><tag k="addr:street" v="Porter Street"/><tag k="addr:housenumber" v="6307"/><tag k="coa:place_id" v="642260"/></node><node id="-48" lat="30.233148" lon="-97.698108" changeset="false"><tag k="addr:street" v="Montopolis Drive"/><tag k="addr:housenumber" v="1105"/><tag k="coa:place_id" v="615374"/></node><node id="-49" lat="30.228429" lon="-97.698122" changeset="false"><tag k="addr:street" v="Vargas Road"/><tag k="addr:housenumber" v="1406"/><tag k="coa:place_id" v="643166"/></node><node id="-50" lat="30.241562" lon="-97.69237" changeset="false"><tag k="addr:street" v="Montopolis Drive"/><tag k="addr:housenumber" v="309"/><tag k="coa:place_id" v="610442"/></node><node id="-51" lat="30.241" lon="-97.692715" changeset="false"><tag k="addr:street" v="Crumley Lane"/><tag k="addr:housenumber" v="6303"/><tag k="coa:place_id" v="3131237"/></node><node id="-52" lat="30.230819" lon="-97.696339" changeset="false"><tag k="addr:street" v="Vargas Road"/><tag k="addr:housenumber" v="1112"/><tag k="coa:place_id" v="3361813"/></node><node id="-53" lat="30.235755" lon="-97.693098" changeset="false"><tag k="addr:street" v="Ponca Street"/><tag k="addr:housenumber" v="6507"/><tag k="coa:place_id" v="3361815"/></node><node id="-54" lat="30.236608" lon="-97.694443" changeset="false"><tag k="addr:street" v="Ponca Street"/><tag k="addr:housenumber" v="6317"/><tag k="coa:place_id" v="3333834"/></node><node id="-55" lat="30.230655" lon="-97.699257" changeset="false"><tag k="addr:street" v="Porter Street"/><tag k="addr:housenumber" v="6305"/><tag k="coa:place_id" v="3361896"/></node><node id="-56" lat="30.240877" lon="-97.689558" changeset="false"><tag k="addr:street" v="Bastrop Highway"/><tag k="addr:housenumber" v="260"/><tag k="coa:place_id" v="610736"/></node><node id="-57" lat="30.234841" lon="-97.694157" changeset="false"><tag k="addr:street" v="Richardson Lane"/><tag k="addr:housenumber" v="6405"/><tag k="coa:place_id" v="227157"/></node><node id="-58" lat="30.234711" lon="-97.693971" changeset="false"><tag k="addr:street" v="Richardson Lane"/><tag k="addr:housenumber" v="6407"/><tag k="coa:place_id" v="227159"/></node><node id="-59" lat="30.227186" lon="-97.7015" changeset="false"><tag k="addr:street" v="Montopolis Drive"/><tag k="addr:housenumber" v="1619"/><tag k="coa:place_id" v="3053453"/></node><node id="-60" lat="30.229129" lon="-97.697655" changeset="false"><tag k="addr:street" v="Vargas Road"/><tag k="addr:housenumber" v="1306"/><tag k="coa:place_id" v="3183737"/></node><node id="-61" lat="30.227718" lon="-97.701167" changeset="false"><tag k="addr:street" v="Montopolis Drive"/><tag k="addr:housenumber" v="1601"/><tag k="coa:place_id" v="3053224"/></node><node id="-62" lat="30.230388" lon="-97.698907" changeset="false"><tag k="addr:street" v="Porter Street"/><tag k="addr:housenumber" v="6311"/><tag k="coa:place_id" v="3361822"/></node><node id="-63" lat="30.235702" lon="-97.696209" changeset="false"><tag k="addr:street" v="Montopolis Drive"/><tag k="addr:housenumber" v="805"/><tag k="coa:place_id" v="3365452"/></node><node id="-64" lat="30.224824" lon="-97.702017" changeset="false"><tag k="addr:street" v="East Riverside Drive"/><tag k="addr:housenumber" v="6400"/><tag k="coa:place_id" v="616743"/></node><node id="-65" lat="30.237034" lon="-97.695422" changeset="false"><tag k="addr:street" v="Montopolis Drive"/><tag k="addr:housenumber" v="717"/><tag k="coa:place_id" v="616520"/></node><node id="-66" lat="30.225041" lon="-97.702956" changeset="false"><tag k="addr:street" v="East Riverside Drive"/><tag k="addr:housenumber" v="6306"/><tag k="coa:place_id" v="692968"/></node><node id="-67" lat="30.229974" lon="-97.700064" changeset="false"><tag k="addr:street" v="Montopolis Drive"/><tag k="addr:housenumber" v="1401"/><tag k="coa:place_id" v="615314"/></node><node id="-68" lat="30.241259" lon="-97.692366" changeset="false"><tag k="addr:street" v="Crumley Lane"/><tag k="addr:housenumber" v="6304"/><tag k="coa:place_id" v="172555"/></node><node id="-69" lat="30.234142" lon="-97.693974" changeset="false"><tag k="addr:street" v="Vargas Road"/><tag k="addr:housenumber" v="808"/><tag k="coa:place_id" v="640766"/></node><node id="-70" lat="30.236582" lon="-97.692123" changeset="false"><tag k="addr:street" v="Vargas Road"/><tag k="addr:housenumber" v="600"/><tag k="coa:place_id" v="3115179"/></node><node id="-71" lat="30.229527" lon="-97.700264" changeset="false"><tag k="addr:street" v="Montopolis Drive"/><tag k="addr:housenumber" v="1409"/><tag k="coa:place_id" v="615308"/></node><node id="-72" lat="30.24105" lon="-97.68968" changeset="false"><tag k="addr:street" v="Bastrop Highway"/><tag k="addr:housenumber" v="256"/><tag k="coa:place_id" v="838646"/></node><node id="-73" lat="30.234528" lon="-97.695564" changeset="false"><tag k="addr:street" v="Felix Avenue"/><tag k="addr:housenumber" v="6403"/><tag k="coa:place_id" v="3363467"/></node><node id="-74" lat="30.23303" lon="-97.698165" changeset="false"><tag k="addr:street" v="Montopolis Drive"/><tag k="addr:housenumber" v="1101"/><tag k="coa:place_id" v="615380"/></node><node id="-75" lat="30.240019" lon="-97.690763" changeset="false"><tag k="addr:street" v="Torres Street"/><tag k="addr:housenumber" v="6403"/><tag k="coa:place_id" v="610550"/></node><node id="-76" lat="30.240978" lon="-97.692043" changeset="false"><tag k="addr:street" v="Crumley Lane"/><tag k="addr:housenumber" v="6310"/><tag k="coa:place_id" v="172559"/></node><node id="-77" lat="30.238671" lon="-97.694389" changeset="false"><tag k="addr:street" v="Monsanto Drive"/><tag k="addr:housenumber" v="6307"/><tag k="coa:place_id" v="610154"/></node><node id="-78" lat="30.239201" lon="-97.691786" changeset="false"><tag k="addr:street" v="El Mirando Street"/><tag k="addr:housenumber" v="6324"/><tag k="coa:place_id" v="610328"/></node><node id="-79" lat="30.234456" lon="-97.693609" changeset="false"><tag k="addr:street" v="Vargas Road"/><tag k="addr:housenumber" v="802"/><tag k="coa:place_id" v="211295"/></node><node id="-80" lat="30.236423" lon="-97.692223" changeset="false"><tag k="addr:street" v="Vargas Road"/><tag k="addr:housenumber" v="604"/><tag k="coa:place_id" v="3115180"/></node><node id="-81" lat="30.241082" lon="-97.692149" changeset="false"><tag k="addr:street" v="Crumley Lane"/><tag k="addr:housenumber" v="6308"/><tag k="coa:place_id" v="172558"/></node><node id="-82" lat="30.240272" lon="-97.688998" changeset="false"><tag k="addr:street" v="Bastrop Highway"/><tag k="addr:housenumber" v="308"/><tag k="coa:place_id" v="838652"/></node><node id="-83" lat="30.237598" lon="-97.691355" changeset="false"><tag k="addr:street" v="Vargas Road"/><tag k="addr:housenumber" v="508"/><tag k="coa:place_id" v="3115173"/></node><node id="-84" lat="30.241113" lon="-97.690341" changeset="false"><tag k="addr:street" v="Bonnett Street"/><tag k="addr:housenumber" v="208"/><tag k="coa:place_id" v="610592"/></node><node id="-85" lat="30.238978" lon="-97.691395" changeset="false"><tag k="addr:street" v="El Mirando Street"/><tag k="addr:housenumber" v="6328"/><tag k="coa:place_id" v="664191"/></node><node id="-86" lat="30.232516" lon="-97.698491" changeset="false"><tag k="addr:street" v="Montopolis Drive"/><tag k="addr:housenumber" v="1213"/><tag k="coa:place_id" v="215504"/></node><node id="-87" lat="30.229688" lon="-97.698887" changeset="false"><tag k="addr:street" v="Montopolis Drive"/><tag k="addr:housenumber" v="1318"/><tag k="coa:place_id" v="3361977"/></node><node id="-88" lat="30.237565" lon="-97.694204" changeset="false"><tag k="addr:street" v="Thrasher Lane"/><tag k="addr:housenumber" v="610"/><tag k="coa:place_id" v="616832"/></node><node id="-89" lat="30.232095" lon="-97.695395" changeset="false"><tag k="addr:street" v="Vargas Road"/><tag k="addr:housenumber" v="1008"/><tag k="coa:place_id" v="3361811"/></node><node id="-90" lat="30.235984" lon="-97.69295" changeset="false"><tag k="addr:street" v="Ponca Street"/><tag k="addr:housenumber" v="6506"/><tag k="coa:place_id" v="3361814"/></node><node id="-91" lat="30.241166" lon="-97.692262" changeset="false"><tag k="addr:street" v="Crumley Lane"/><tag k="addr:housenumber" v="6306"/><tag k="coa:place_id" v="172556"/></node><node id="-92" lat="30.240901" lon="-97.691514" changeset="false"><tag k="addr:street" v="Torres Street"/><tag k="addr:housenumber" v="6308"/><tag k="coa:place_id" v="172564"/></node><node id="-93" lat="30.234954" lon="-97.694316" changeset="false"><tag k="addr:street" v="Richardson Lane"/><tag k="addr:housenumber" v="6403"/><tag k="coa:place_id" v="227155"/></node><node id="-94" lat="30.233635" lon="-97.694257" changeset="false"><tag k="addr:street" v="Vargas Road"/><tag k="addr:housenumber" v="902"/><tag k="coa:place_id" v="640778"/></node><node id="-95" lat="30.233657" lon="-97.694238" changeset="false"><tag k="addr:street" v="Vargas Road"/><tag k="addr:housenumber" v="900"/><tag k="coa:place_id" v="522790"/></node><node id="-96" lat="30.236365" lon="-97.695739" changeset="false"><tag k="addr:street" v="Montopolis Drive"/><tag k="addr:housenumber" v="753"/><tag k="coa:place_id" v="616544"/></node><node id="-97" lat="30.236306" lon="-97.69566" changeset="false"><tag k="addr:street" v="Montopolis Drive"/><tag k="addr:housenumber" v="749"/><tag k="coa:place_id" v="838598"/></node><node id="-98" lat="30.236252" lon="-97.69559" changeset="false"><tag k="addr:street" v="Montopolis Drive"/><tag k="addr:housenumber" v="745"/><tag k="coa:place_id" v="616538"/></node></osm>