<?xml version="1.0" encoding="UTF-8"?><osm version="0.6" generator="github.com/aaronlidman/osm-and-geojson"><node id="-1" lat="30.460713" lon="-97.576328" changeset="false"><tag k="addr:street" v="Dusty Chisolm Trl"/><tag k="addr:housenumber" v="3104"/><tag k="addr:postcode" v="78660"/></node><node id="-2" lat="30.444024" lon="-97.56452" changeset="false"><tag k="addr:street" v="Masi Loop"/><tag k="addr:housenumber" v="18004"/><tag k="addr:postcode" v="78660"/></node><node id="-3" lat="30.46819" lon="-97.587682" changeset="false"><tag k="addr:street" v="Kelly Lane"/><tag k="addr:housenumber" v="2101"/><tag k="addr:postcode" v="78660"/></node><node id="-4" lat="30.452834" lon="-97.573525" changeset="false"><tag k="addr:street" v="Shallow Pool Dr"/><tag k="addr:housenumber" v="18409"/><tag k="addr:postcode" v="78660"/></node><node id="-5" lat="30.448906" lon="-97.565681" changeset="false"><tag k="addr:street" v="Bandice Ln"/><tag k="addr:housenumber" v="4413"/><tag k="addr:postcode" v="78660"/></node><node id="-6" lat="30.45119" lon="-97.564732" changeset="false"><tag k="addr:street" v="Rolling Water Dr"/><tag k="addr:housenumber" v="4320"/><tag k="addr:postcode" v="78660"/></node><node id="-7" lat="30.462345" lon="-97.582201" changeset="false"><tag k="addr:street" v="Canyon Sage Lane"/><tag k="addr:housenumber" v="18917"/><tag k="addr:postcode" v="78660"/></node><node id="-8" lat="30.448613" lon="-97.564989" changeset="false"><tag k="addr:street" v="Blue Pond Dr"/><tag k="addr:housenumber" v="18505"/><tag k="addr:postcode" v="78660"/></node><node id="-9" lat="30.445704" lon="-97.566892" changeset="false"><tag k="addr:street" v="Masi Loop"/><tag k="addr:housenumber" v="18300"/><tag k="addr:postcode" v="78660"/></node><node id="-10" lat="30.452288" lon="-97.5747" changeset="false"><tag k="addr:street" v="Dry Brook Loop"/><tag k="addr:housenumber" v="18337"/><tag k="addr:postcode" v="78660"/></node><node id="-11" lat="30.460517" lon="-97.578607" changeset="false"><tag k="addr:street" v="Dusty Chisolm Trl"/><tag k="addr:housenumber" v="2904"/><tag k="addr:postcode" v="78660"/></node><node id="-12" lat="30.44389" lon="-97.56497" changeset="false"><tag k="addr:street" v="Kermit Ct"/><tag k="addr:housenumber" v="18205"/><tag k="addr:postcode" v="78660"/></node><node id="-13" lat="30.441919" lon="-97.574097" changeset="false"><tag k="addr:street" v="Silent Harbor Loop"/><tag k="addr:housenumber" v="17629"/><tag k="addr:postcode" v="78660"/></node><node id="-14" lat="30.44186" lon="-97.573848" changeset="false"><tag k="addr:street" v="Silent Harbor Loop"/><tag k="addr:housenumber" v="17633"/><tag k="addr:postcode" v="78660"/></node><node id="-15" lat="30.441829" lon="-97.573442" changeset="false"><tag k="addr:street" v="Silent Harbor Loop"/><tag k="addr:housenumber" v="17701"/><tag k="addr:postcode" v="78660"/></node><node id="-16" lat="30.442285" lon="-97.572548" changeset="false"><tag k="addr:street" v="Silent Harbor Loop"/><tag k="addr:housenumber" v="17721"/><tag k="addr:postcode" v="78660"/></node><node id="-17" lat="30.442433" lon="-97.572435" changeset="false"><tag k="addr:street" v="Silent Harbor Loop"/><tag k="addr:housenumber" v="17725"/><tag k="addr:postcode" v="78660"/></node><node id="-18" lat="30.442963" lon="-97.573958" changeset="false"><tag k="addr:street" v="Harbor Point Drive"/><tag k="addr:housenumber" v="17708"/><tag k="addr:postcode" v="78660"/></node><node id="-19" lat="30.460989" lon="-97.585266" changeset="false"><tag k="addr:street" v="Falcon Pointe Boulevard"/><tag k="addr:housenumber" v="18813"/><tag k="addr:postcode" v="78660"/></node><node id="-20" lat="30.445793" lon="-97.562868" changeset="false"><tag k="addr:street" v="Masi Loop"/><tag k="addr:housenumber" v="17708"/><tag k="addr:postcode" v="78660"/></node><node id="-21" lat="30.445054" lon="-97.564805" changeset="false"><tag k="addr:street" v="Fritz Falls Crossing"/><tag k="addr:housenumber" v="4717"/><tag k="addr:postcode" v="78660"/></node><node id="-22" lat="30.445864" lon="-97.563706" changeset="false"><tag k="addr:street" v="Randig Ln"/><tag k="addr:housenumber" v="4720"/><tag k="addr:postcode" v="78660"/></node><node id="-23" lat="30.446104" lon="-97.564635" changeset="false"><tag k="addr:street" v="Randig Ln"/><tag k="addr:housenumber" v="4701"/><tag k="addr:postcode" v="78660"/></node><node id="-24" lat="30.460162" lon="-97.579384" changeset="false"><tag k="addr:street" v="Dusty Chisolm Trl"/><tag k="addr:housenumber" v="2812"/><tag k="addr:postcode" v="78660"/></node><node id="-25" lat="30.461449" lon="-97.584923" changeset="false"><tag k="addr:street" v="Falcon Pointe Boulevard"/><tag k="addr:housenumber" v="18825"/><tag k="addr:postcode" v="78660"/></node><node id="-26" lat="30.445756" lon="-97.574293" changeset="false"><tag k="addr:street" v="Silent Harbor Loop"/><tag k="addr:housenumber" v="17328"/><tag k="addr:postcode" v="78660"/></node><node id="-27" lat="30.444886" lon="-97.574835" changeset="false"><tag k="addr:street" v="Silent Harbor Loop"/><tag k="addr:housenumber" v="17420"/><tag k="addr:postcode" v="78660"/></node><node id="-28" lat="30.445757" lon="-97.573174" changeset="false"><tag k="addr:street" v="Misty Harbor Drive"/><tag k="addr:housenumber" v="18021"/><tag k="addr:postcode" v="78660"/></node><node id="-29" lat="30.444434" lon="-97.573427" changeset="false"><tag k="addr:street" v="Calm Harbor Drive"/><tag k="addr:housenumber" v="17904"/><tag k="addr:postcode" v="78660"/></node><node id="-30" lat="30.443621" lon="-97.574761" changeset="false"><tag k="addr:street" v="Hidden Harbor Drive"/><tag k="addr:housenumber" v="3801"/><tag k="addr:postcode" v="78660"/></node><node id="-31" lat="30.44634" lon="-97.574433" changeset="false"><tag k="addr:street" v="Silent Harbor Loop"/><tag k="addr:housenumber" v="17321"/><tag k="addr:postcode" v="78660"/></node><node id="-32" lat="30.458713" lon="-97.585509" changeset="false"><tag k="addr:street" v="Falcon Pointe Boulevard"/><tag k="addr:housenumber" v="18633"/><tag k="addr:postcode" v="78660"/></node><node id="-33" lat="30.458813" lon="-97.585588" changeset="false"><tag k="addr:street" v="Falcon Pointe Boulevard"/><tag k="addr:housenumber" v="18637"/><tag k="addr:postcode" v="78660"/></node><node id="-34" lat="30.442362" lon="-97.573953" changeset="false"><tag k="addr:street" v="Silent Harbor Loop"/><tag k="addr:housenumber" v="17628"/><tag k="addr:postcode" v="78660"/></node><node id="-35" lat="30.442764" lon="-97.57334" changeset="false"><tag k="addr:street" v="Harbor Point Drive"/><tag k="addr:housenumber" v="17701"/><tag k="addr:postcode" v="78660"/></node><node id="-36" lat="30.442467" lon="-97.57415" changeset="false"><tag k="addr:street" v="Silent Harbor Loop"/><tag k="addr:housenumber" v="17620"/><tag k="addr:postcode" v="78660"/></node><node id="-37" lat="30.459259" lon="-97.585341" changeset="false"><tag k="addr:street" v="Derby Hill Lane"/><tag k="addr:housenumber" v="18700"/><tag k="addr:postcode" v="78660"/></node><node id="-38" lat="30.457319" lon="-97.58016" changeset="false"><tag k="addr:street" v="Barley Field Pass"/><tag k="addr:housenumber" v="3000"/><tag k="addr:postcode" v="78660"/></node><node id="-39" lat="30.457037" lon="-97.580327" changeset="false"><tag k="addr:street" v="Barley Field Pass"/><tag k="addr:housenumber" v="3008"/><tag k="addr:postcode" v="78660"/></node><node id="-40" lat="30.442852" lon="-97.574952" changeset="false"><tag k="addr:street" v="Silent Harbor Loop"/><tag k="addr:housenumber" v="17601"/><tag k="addr:postcode" v="78660"/></node><node id="-41" lat="30.44476" lon="-97.572306" changeset="false"><tag k="addr:street" v="Silent Harbor Loop"/><tag k="addr:housenumber" v="17912"/><tag k="addr:postcode" v="78660"/></node><node id="-42" lat="30.445752" lon="-97.563403" changeset="false"><tag k="addr:street" v="Randig Ln"/><tag k="addr:housenumber" v="4728"/><tag k="addr:postcode" v="78660"/></node><node id="-43" lat="30.445106" lon="-97.573602" changeset="false"><tag k="addr:street" v="Misty Harbor Drive"/><tag k="addr:housenumber" v="18001"/><tag k="addr:postcode" v="78660"/></node><node id="-44" lat="30.443362" lon="-97.574003" changeset="false"><tag k="addr:street" v="Harbor Point Drive"/><tag k="addr:housenumber" v="3912"/><tag k="addr:postcode" v="78660"/></node><node id="-45" lat="30.461489" lon="-97.583066" changeset="false"><tag k="addr:street" v="Barley Field Pass"/><tag k="addr:housenumber" v="2701"/><tag k="addr:postcode" v="78660"/></node><node id="-46" lat="30.453793" lon="-97.566567" changeset="false"><tag k="addr:street" v="Veiled Falls Drive"/><tag k="addr:housenumber" v="4024"/><tag k="addr:postcode" v="78660"/></node><node id="-47" lat="30.462422" lon="-97.58276" changeset="false"><tag k="addr:street" v="Canyon Sage Lane"/><tag k="addr:housenumber" v="18912"/><tag k="addr:postcode" v="78660"/></node><node id="-48" lat="30.444738" lon="-97.564219" changeset="false"><tag k="addr:street" v="Fritz Falls Crossing"/><tag k="addr:housenumber" v="4733"/><tag k="addr:postcode" v="78660"/></node><node id="-49" lat="30.443937" lon="-97.563962" changeset="false"><tag k="addr:street" v="Masi Loop"/><tag k="addr:housenumber" v="17920"/><tag k="addr:postcode" v="78660"/></node><node id="-50" lat="30.44676" lon="-97.564091" changeset="false"><tag k="addr:street" v="Rolling Water Dr"/><tag k="addr:housenumber" v="4625"/><tag k="addr:postcode" v="78660"/></node><node id="-51" lat="30.448896" lon="-97.566312" changeset="false"><tag k="addr:street" v="Bandice Ln"/><tag k="addr:housenumber" v="4321"/><tag k="addr:postcode" v="78660"/></node><node id="-52" lat="30.46026" lon="-97.578075" changeset="false"><tag k="addr:street" v="Dusty Chisolm Trl"/><tag k="addr:housenumber" v="2913"/><tag k="addr:postcode" v="78660"/></node><node id="-53" lat="30.450134" lon="-97.570032" changeset="false"><tag k="addr:street" v="Silent Harbor Loop"/><tag k="addr:housenumber" v="18445"/><tag k="addr:postcode" v="78660"/></node><node id="-54" lat="30.444889" lon="-97.564513" changeset="false"><tag k="addr:street" v="Fritz Falls Crossing"/><tag k="addr:housenumber" v="4725"/><tag k="addr:postcode" v="78660"/></node><node id="-55" lat="30.444817" lon="-97.564357" changeset="false"><tag k="addr:street" v="Fritz Falls Crossing"/><tag k="addr:housenumber" v="4729"/><tag k="addr:postcode" v="78660"/></node><node id="-56" lat="30.445352" lon="-97.563125" changeset="false"><tag k="addr:street" v="Masi Loop"/><tag k="addr:housenumber" v="17800"/><tag k="addr:postcode" v="78660"/></node><node id="-57" lat="30.451821" lon="-97.575488" changeset="false"><tag k="addr:street" v="Dry Brook Crossing"/><tag k="addr:housenumber" v="3520"/><tag k="addr:postcode" v="78660"/></node><node id="-58" lat="30.423752" lon="-97.584276" changeset="false"><tag k="addr:street" v="East Pecan Street"/><tag k="addr:housenumber" v="3000"/><tag k="addr:postcode" v="78660"/></node><node id="-59" lat="30.446086" lon="-97.565196" changeset="false"><tag k="addr:street" v="Lydia Springs Dr"/><tag k="addr:housenumber" v="18324"/><tag k="addr:postcode" v="78660"/></node><node id="-60" lat="30.452644" lon="-97.576695" changeset="false"><tag k="addr:street" v="Dry Brook Loop"/><tag k="addr:housenumber" v="18509"/><tag k="addr:postcode" v="78660"/></node><node id="-61" lat="30.44576" lon="-97.565538" changeset="false"><tag k="addr:street" v="Lydia Springs Dr"/><tag k="addr:housenumber" v="18312"/><tag k="addr:postcode" v="78660"/></node><node id="-62" lat="30.445808" lon="-97.563559" changeset="false"><tag k="addr:street" v="Randig Ln"/><tag k="addr:housenumber" v="4724"/><tag k="addr:postcode" v="78660"/></node><node id="-63" lat="30.445965" lon="-97.564517" changeset="false"><tag k="addr:street" v="Randig Ln"/><tag k="addr:housenumber" v="4705"/><tag k="addr:postcode" v="78660"/></node><node id="-64" lat="30.445778" lon="-97.564286" changeset="false"><tag k="addr:street" v="Randig Ln"/><tag k="addr:housenumber" v="4713"/><tag k="addr:postcode" v="78660"/></node><node id="-65" lat="30.459517" lon="-97.579721" changeset="false"><tag k="addr:street" v="Dusty Chisolm Trl"/><tag k="addr:housenumber" v="2801"/><tag k="addr:postcode" v="78660"/></node><node id="-66" lat="30.46748" lon="-97.58491" changeset="false"><tag k="addr:street" v="Kelly Lane"/><tag k="addr:housenumber" v="2301"/><tag k="addr:postcode" v="78660"/></node><node id="-67" lat="30.447907" lon="-97.562" changeset="false"><tag k="addr:street" v="Tiddle Ln"/><tag k="addr:housenumber" v="4657"/><tag k="addr:postcode" v="78660"/></node><node id="-68" lat="30.441953" lon="-97.57304" changeset="false"><tag k="addr:street" v="Silent Harbor Loop"/><tag k="addr:housenumber" v="17709"/><tag k="addr:postcode" v="78660"/></node><node id="-69" lat="30.446039" lon="-97.574106" changeset="false"><tag k="addr:street" v="Silent Harbor Loop"/><tag k="addr:housenumber" v="17320"/><tag k="addr:postcode" v="78660"/></node><node id="-70" lat="30.445887" lon="-97.574214" changeset="false"><tag k="addr:street" v="Silent Harbor Loop"/><tag k="addr:housenumber" v="17324"/><tag k="addr:postcode" v="78660"/></node><node id="-71" lat="30.445878" lon="-97.573636" changeset="false"><tag k="addr:street" v="Misty Harbor Drive"/><tag k="addr:housenumber" v="18016"/><tag k="addr:postcode" v="78660"/></node><node id="-72" lat="30.445426" lon="-97.573419" changeset="false"><tag k="addr:street" v="Misty Harbor Drive"/><tag k="addr:housenumber" v="18009"/><tag k="addr:postcode" v="78660"/></node><node id="-73" lat="30.444614" lon="-97.573371" changeset="false"><tag k="addr:street" v="Calm Harbor Drive"/><tag k="addr:housenumber" v="17908"/><tag k="addr:postcode" v="78660"/></node><node id="-74" lat="30.444816" lon="-97.572685" changeset="false"><tag k="addr:street" v="Calm Harbor Drive"/><tag k="addr:housenumber" v="18001"/><tag k="addr:postcode" v="78660"/></node><node id="-75" lat="30.44572" lon="-97.572275" changeset="false"><tag k="addr:street" v="Silent Harbor Loop"/><tag k="addr:housenumber" v="18001"/><tag k="addr:postcode" v="78660"/></node><node id="-76" lat="30.458959" lon="-97.585717" changeset="false"><tag k="addr:street" v="Falcon Pointe Boulevard"/><tag k="addr:housenumber" v="18641"/><tag k="addr:postcode" v="78660"/></node><node id="-77" lat="30.444474" lon="-97.574402" changeset="false"><tag k="addr:street" v="Misty Harbor Drive"/><tag k="addr:housenumber" v="17908"/><tag k="addr:postcode" v="78660"/></node><node id="-78" lat="30.460198" lon="-97.585777" changeset="false"><tag k="addr:street" v="Falcon Pointe Boulevard"/><tag k="addr:housenumber" v="18725"/><tag k="addr:postcode" v="78660"/></node><node id="-79" lat="30.442837" lon="-97.574393" changeset="false"><tag k="addr:street" v="Silent Harbor Loop"/><tag k="addr:housenumber" v="17600"/><tag k="addr:postcode" v="78660"/></node><node id="-80" lat="30.442289" lon="-97.573447" changeset="false"><tag k="addr:street" v="Silent Harbor Loop"/><tag k="addr:housenumber" v="17700"/><tag k="addr:postcode" v="78660"/></node><node id="-81" lat="30.442369" lon="-97.573235" changeset="false"><tag k="addr:street" v="Silent Harbor Loop"/><tag k="addr:housenumber" v="17712"/><tag k="addr:postcode" v="78660"/></node><node id="-82" lat="30.459919" lon="-97.578908" changeset="false"><tag k="addr:street" v="Dusty Chisolm Trl"/><tag k="addr:housenumber" v="2821"/><tag k="addr:postcode" v="78660"/></node><node id="-83" lat="30.436203" lon="-97.569552" changeset="false"><tag k="addr:street" v="East Pflugerville Parkway"/><tag k="addr:housenumber" v="4600"/><tag k="addr:postcode" v="78660"/></node><node id="-84" lat="30.449358" lon="-97.563021" changeset="false"><tag k="addr:street" v="Tiddle Ln"/><tag k="addr:housenumber" v="4537"/><tag k="addr:postcode" v="78660"/></node><node id="-85" lat="30.457681" lon="-97.579546" changeset="false"><tag k="addr:street" v="Falcon Pointe Boulevard"/><tag k="addr:housenumber" v="18409"/><tag k="addr:postcode" v="78660"/></node><node id="-86" lat="30.446831" lon="-97.573166" changeset="false"><tag k="addr:street" v="Silent Harbor Loop"/><tag k="addr:housenumber" v="18033"/><tag k="addr:postcode" v="78660"/></node><node id="-87" lat="30.446973" lon="-97.573274" changeset="false"><tag k="addr:street" v="Silent Harbor Loop"/><tag k="addr:housenumber" v="18037"/><tag k="addr:postcode" v="78660"/></node><node id="-88" lat="30.445437" lon="-97.563569" changeset="false"><tag k="addr:street" v="Randig Ln"/><tag k="addr:housenumber" v="4733"/><tag k="addr:postcode" v="78660"/></node><node id="-89" lat="30.444656" lon="-97.564983" changeset="false"><tag k="addr:street" v="Masi Loop"/><tag k="addr:housenumber" v="18101"/><tag k="addr:postcode" v="78660"/></node><node id="-90" lat="30.44611" lon="-97.572559" changeset="false"><tag k="addr:street" v="Silent Harbor Loop"/><tag k="addr:housenumber" v="18013"/><tag k="addr:postcode" v="78660"/></node><node id="-91" lat="30.447237" lon="-97.573917" changeset="false"><tag k="addr:street" v="Silent Harbor Loop"/><tag k="addr:housenumber" v="18108"/><tag k="addr:postcode" v="78660"/></node><node id="-92" lat="30.426708" lon="-97.575292" changeset="false"><tag k="addr:street" v="Weiss Lane"/><tag k="addr:housenumber" v="16810"/><tag k="addr:postcode" v="78660"/></node><node id="-93" lat="30.452001" lon="-97.568445" changeset="false"><tag k="addr:street" v="Rocky Shore Ln"/><tag k="addr:housenumber" v="4016"/><tag k="addr:postcode" v="78660"/></node><node id="-94" lat="30.460857" lon="-97.578993" changeset="false"><tag k="addr:street" v="Richfield Landing"/><tag k="addr:housenumber" v="2905"/><tag k="addr:postcode" v="78660"/></node><node id="-95" lat="30.463818" lon="-97.580988" changeset="false"><tag k="addr:street" v="Wandering Vine Road"/><tag k="addr:housenumber" v="19008"/><tag k="addr:postcode" v="78660"/></node><node id="-96" lat="30.449559" lon="-97.565005" changeset="false"><tag k="addr:street" v="Blue Pond Dr"/><tag k="addr:housenumber" v="18533"/><tag k="addr:postcode" v="78660"/></node><node id="-97" lat="30.455953" lon="-97.560703" changeset="false"><tag k="addr:street" v="Kelly Lane"/><tag k="addr:housenumber" v="4415"/><tag k="addr:postcode" v="78660"/></node><node id="-98" lat="30.452314" lon="-97.569912" changeset="false"><tag k="addr:street" v="Bandice Ln"/><tag k="addr:housenumber" v="3812"/><tag k="addr:postcode" v="78660"/></node><node id="-99" lat="30.447646" lon="-97.568373" changeset="false"><tag k="addr:street" v="Lake Edge Court"/><tag k="addr:housenumber" v="18312"/><tag k="addr:postcode" v="78660"/></node><node id="-100" lat="30.446194" lon="-97.563167" changeset="false"><tag k="addr:street" v="Rolling Water Dr"/><tag k="addr:housenumber" v="4725"/><tag k="addr:postcode" v="78660"/></node><node id="-101" lat="30.446791" lon="-97.564834" changeset="false"><tag k="addr:street" v="Randig Ln"/><tag k="addr:housenumber" v="4604"/><tag k="addr:postcode" v="78660"/></node><node id="-102" lat="30.446241" lon="-97.564272" changeset="false"><tag k="addr:street" v="Randig Ln"/><tag k="addr:housenumber" v="4704"/><tag k="addr:postcode" v="78660"/></node><node id="-103" lat="30.446139" lon="-97.564127" changeset="false"><tag k="addr:street" v="Randig Ln"/><tag k="addr:housenumber" v="4708"/><tag k="addr:postcode" v="78660"/></node><node id="-104" lat="30.443858" lon="-97.564183" changeset="false"><tag k="addr:street" v="Masi Loop"/><tag k="addr:housenumber" v="17924"/><tag k="addr:postcode" v="78660"/></node><node id="-105" lat="30.444337" lon="-97.56424" changeset="false"><tag k="addr:street" v="Masi Loop"/><tag k="addr:housenumber" v="18001"/><tag k="addr:postcode" v="78660"/></node><node id="-106" lat="30.446869" lon="-97.564228" changeset="false"><tag k="addr:street" v="Rolling Water Dr"/><tag k="addr:housenumber" v="4621"/><tag k="addr:postcode" v="78660"/></node><node id="-107" lat="30.445974" lon="-97.565278" changeset="false"><tag k="addr:street" v="Lydia Springs Dr"/><tag k="addr:housenumber" v="18320"/><tag k="addr:postcode" v="78660"/></node><node id="-108" lat="30.445494" lon="-97.563743" changeset="false"><tag k="addr:street" v="Randig Ln"/><tag k="addr:housenumber" v="4729"/><tag k="addr:postcode" v="78660"/></node><node id="-109" lat="30.452214" lon="-97.576933" changeset="false"><tag k="addr:street" v="Dry Brook Loop"/><tag k="addr:housenumber" v="18521"/><tag k="addr:postcode" v="78660"/></node><node id="-110" lat="30.452045" lon="-97.577027" changeset="false"><tag k="addr:street" v="Dry Brook Loop"/><tag k="addr:housenumber" v="18525"/><tag k="addr:postcode" v="78660"/></node><node id="-111" lat="30.451768" lon="-97.577213" changeset="false"><tag k="addr:street" v="Dry Brook Loop"/><tag k="addr:housenumber" v="18533"/><tag k="addr:postcode" v="78660"/></node><node id="-112" lat="30.4508" lon="-97.576452" changeset="false"><tag k="addr:street" v="Dry Brook Loop"/><tag k="addr:housenumber" v="18621"/><tag k="addr:postcode" v="78660"/></node><node id="-113" lat="30.446488" lon="-97.563763" changeset="false"><tag k="addr:street" v="Rolling Water Dr"/><tag k="addr:housenumber" v="4709"/><tag k="addr:postcode" v="78660"/></node><node id="-114" lat="30.448478" lon="-97.56173" changeset="false"><tag k="addr:street" v="Tiddle Ln"/><tag k="addr:housenumber" v="4641"/><tag k="addr:postcode" v="78660"/></node><node id="-115" lat="30.460727" lon="-97.576141" changeset="false"><tag k="addr:street" v="Dusty Chisolm Trl"/><tag k="addr:housenumber" v="3108"/><tag k="addr:postcode" v="78660"/></node><node id="-116" lat="30.447865" lon="-97.561541" changeset="false"><tag k="addr:street" v="Tiddle Ln"/><tag k="addr:housenumber" v="4652"/><tag k="addr:postcode" v="78660"/></node><node id="-117" lat="30.444324" lon="-97.574353" changeset="false"><tag k="addr:street" v="Misty Harbor Drive"/><tag k="addr:housenumber" v="17904"/><tag k="addr:postcode" v="78660"/></node><node id="-118" lat="30.44484" lon="-97.574365" changeset="false"><tag k="addr:street" v="Misty Harbor Drive"/><tag k="addr:housenumber" v="17916"/><tag k="addr:postcode" v="78660"/></node><node id="-119" lat="30.459837" lon="-97.579034" changeset="false"><tag k="addr:street" v="Dusty Chisolm Trl"/><tag k="addr:housenumber" v="2817"/><tag k="addr:postcode" v="78660"/></node><node id="-120" lat="30.442643" lon="-97.573568" changeset="false"><tag k="addr:street" v="Harbor Point Drive"/><tag k="addr:housenumber" v="17700"/><tag k="addr:postcode" v="78660"/></node><node id="-121" lat="30.443824" lon="-97.575346" changeset="false"><tag k="addr:street" v="Silent Harbor Loop"/><tag k="addr:housenumber" v="17517"/><tag k="addr:postcode" v="78660"/></node><node id="-122" lat="30.444384" lon="-97.574979" changeset="false"><tag k="addr:street" v="Silent Harbor Loop"/><tag k="addr:housenumber" v="17504"/><tag k="addr:postcode" v="78660"/></node><node id="-123" lat="30.444212" lon="-97.574901" changeset="false"><tag k="addr:street" v="Silent Harbor Loop"/><tag k="addr:housenumber" v="17508"/><tag k="addr:postcode" v="78660"/></node><node id="-124" lat="30.446755" lon="-97.57405" changeset="false"><tag k="addr:street" v="Silent Harbor Loop"/><tag k="addr:housenumber" v="17309"/><tag k="addr:postcode" v="78660"/></node><node id="-125" lat="30.460218" lon="-97.579203" changeset="false"><tag k="addr:street" v="Dusty Chisolm Trl"/><tag k="addr:housenumber" v="2816"/><tag k="addr:postcode" v="78660"/></node><node id="-126" lat="30.460293" lon="-97.579056" changeset="false"><tag k="addr:street" v="Dusty Chisolm Trl"/><tag k="addr:housenumber" v="2820"/><tag k="addr:postcode" v="78660"/></node><node id="-127" lat="30.444225" lon="-97.573418" changeset="false"><tag k="addr:street" v="Calm Harbor Drive"/><tag k="addr:housenumber" v="17900"/><tag k="addr:postcode" v="78660"/></node><node id="-128" lat="30.445533" lon="-97.57267" changeset="false"><tag k="addr:street" v="Calm Harbor Drive"/><tag k="addr:housenumber" v="18016"/><tag k="addr:postcode" v="78660"/></node><node id="-129" lat="30.442209" lon="-97.574585" changeset="false"><tag k="addr:street" v="Silent Harbor Loop"/><tag k="addr:housenumber" v="17617"/><tag k="addr:postcode" v="78660"/></node><node id="-130" lat="30.459138" lon="-97.585839" changeset="false"><tag k="addr:street" v="Falcon Pointe Boulevard"/><tag k="addr:housenumber" v="18645"/><tag k="addr:postcode" v="78660"/></node><node id="-131" lat="30.459272" lon="-97.585931" changeset="false"><tag k="addr:street" v="Falcon Pointe Boulevard"/><tag k="addr:housenumber" v="18701"/><tag k="addr:postcode" v="78660"/></node><node id="-132" lat="30.442172" lon="-97.572711" changeset="false"><tag k="addr:street" v="Silent Harbor Loop"/><tag k="addr:housenumber" v="17717"/><tag k="addr:postcode" v="78660"/></node><node id="-133" lat="30.44236" lon="-97.574712" changeset="false"><tag k="addr:street" v="Silent Harbor Loop"/><tag k="addr:housenumber" v="17613"/><tag k="addr:postcode" v="78660"/></node><node id="-134" lat="30.446354" lon="-97.573823" changeset="false"><tag k="addr:street" v="Silent Harbor Loop"/><tag k="addr:housenumber" v="17312"/><tag k="addr:postcode" v="78660"/></node><node id="-135" lat="30.445188" lon="-97.574655" changeset="false"><tag k="addr:street" v="Silent Harbor Loop"/><tag k="addr:housenumber" v="17412"/><tag k="addr:postcode" v="78660"/></node><node id="-136" lat="30.44577" lon="-97.574817" changeset="false"><tag k="addr:street" v="Silent Harbor Loop"/><tag k="addr:housenumber" v="17401"/><tag k="addr:postcode" v="78660"/></node><node id="-137" lat="30.465447" lon="-97.580662" changeset="false"><tag k="addr:street" v="Kelly Lane"/><tag k="addr:housenumber" v="2617"/><tag k="addr:postcode" v="78660"/></node><node id="-138" lat="30.449296" lon="-97.562896" changeset="false"><tag k="addr:street" v="Tiddle Ln"/><tag k="addr:housenumber" v="4541"/><tag k="addr:postcode" v="78660"/></node><node id="-139" lat="30.462543" lon="-97.575217" changeset="false"><tag k="addr:street" v="Misty Heights Cc"/><tag k="addr:housenumber" v="3120"/><tag k="addr:postcode" v="78660"/></node><node id="-140" lat="30.456307" lon="-97.561273" changeset="false"><tag k="addr:street" v="Kelly Lane"/><tag k="addr:housenumber" v="4301"/><tag k="addr:postcode" v="78660"/></node><node id="-141" lat="30.44345" lon="-97.573407" changeset="false"><tag k="addr:street" v="Harbor Point Drive"/><tag k="addr:housenumber" v="4004"/><tag k="addr:postcode" v="78660"/></node><node id="-142" lat="30.443437" lon="-97.573206" changeset="false"><tag k="addr:street" v="Harbor Point Drive"/><tag k="addr:housenumber" v="4008"/><tag k="addr:postcode" v="78660"/></node><node id="-143" lat="30.446431" lon="-97.572813" changeset="false"><tag k="addr:street" v="Silent Harbor Loop"/><tag k="addr:housenumber" v="18021"/><tag k="addr:postcode" v="78660"/></node><node id="-144" lat="30.469096" lon="-97.588519" changeset="false"><tag k="addr:street" v="Kelly Lane"/><tag k="addr:housenumber" v="2013"/><tag k="addr:postcode" v="78660"/></node><node id="-145" lat="30.447054" lon="-97.573874" changeset="false"><tag k="addr:street" v="Silent Harbor Loop"/><tag k="addr:housenumber" v="18104"/><tag k="addr:postcode" v="78660"/></node><node id="-146" lat="30.457774" lon="-97.578075" changeset="false"><tag k="addr:street" v="Falcon Pointe Boulevard"/><tag k="addr:housenumber" v="18317"/><tag k="addr:postcode" v="78660"/></node><node id="-147" lat="30.45772" lon="-97.579746" changeset="false"><tag k="addr:street" v="Falcon Pointe Boulevard"/><tag k="addr:housenumber" v="18413"/><tag k="addr:postcode" v="78660"/></node><node id="-148" lat="30.420034" lon="-97.579431" changeset="false"><tag k="addr:street" v="Weiss Lane"/><tag k="addr:housenumber" v="16204"/><tag k="addr:postcode" v="78660"/></node><node id="-149" lat="30.463678" lon="-97.580323" changeset="false"><tag k="addr:street" v="Wandering Vine Road"/><tag k="addr:housenumber" v="19013"/><tag k="addr:postcode" v="78660"/></node><node id="-150" lat="30.452645" lon="-97.574311" changeset="false"><tag k="addr:street" v="Shallow Pool Dr"/><tag k="addr:housenumber" v="18337"/><tag k="addr:postcode" v="78660"/></node><node id="-151" lat="30.448431" lon="-97.571513" changeset="false"><tag k="addr:street" v="Lake Edge Way"/><tag k="addr:housenumber" v="4001"/><tag k="addr:postcode" v="78660"/></node><node id="-152" lat="30.461274" lon="-97.572" changeset="false"><tag k="addr:street" v="Kelly Lane"/><tag k="addr:housenumber" v="3309"/><tag k="addr:postcode" v="78660"/></node><node id="-153" lat="30.44891" lon="-97.565844" changeset="false"><tag k="addr:street" v="Bandice Ln"/><tag k="addr:housenumber" v="4409"/><tag k="addr:postcode" v="78660"/></node><node id="-154" lat="30.449208" lon="-97.569076" changeset="false"><tag k="addr:street" v="Dawson Creek Drive"/><tag k="addr:housenumber" v="18413"/><tag k="addr:postcode" v="78660"/></node><node id="-155" lat="30.446582" lon="-97.563917" changeset="false"><tag k="addr:street" v="Rolling Water Dr"/><tag k="addr:housenumber" v="4705"/><tag k="addr:postcode" v="78660"/></node><node id="-156" lat="30.443781" lon="-97.565201" changeset="false"><tag k="addr:street" v="Kermit Ct"/><tag k="addr:housenumber" v="18201"/><tag k="addr:postcode" v="78660"/></node><node id="-157" lat="30.445673" lon="-97.562897" changeset="false"><tag k="addr:street" v="Masi Loop"/><tag k="addr:housenumber" v="17712"/><tag k="addr:postcode" v="78660"/></node><node id="-158" lat="30.445457" lon="-97.563087" changeset="false"><tag k="addr:street" v="Masi Loop"/><tag k="addr:housenumber" v="17720"/><tag k="addr:postcode" v="78660"/></node><node id="-159" lat="30.448456" lon="-97.565065" changeset="false"><tag k="addr:street" v="Blue Pond Dr"/><tag k="addr:housenumber" v="18501"/><tag k="addr:postcode" v="78660"/></node><node id="-160" lat="30.448404" lon="-97.561256" changeset="false"><tag k="addr:street" v="Tiddle Ln"/><tag k="addr:housenumber" v="4636"/><tag k="addr:postcode" v="78660"/></node><node id="-161" lat="30.446694" lon="-97.565333" changeset="false"><tag k="addr:street" v="Hees Lane"/><tag k="addr:housenumber" v="18413"/><tag k="addr:postcode" v="78660"/></node><node id="-162" lat="30.46013" lon="-97.578432" changeset="false"><tag k="addr:street" v="Dusty Chisolm Trl"/><tag k="addr:housenumber" v="2905"/><tag k="addr:postcode" v="78660"/></node><node id="-163" lat="30.460198" lon="-97.578271" changeset="false"><tag k="addr:street" v="Dusty Chisolm Trl"/><tag k="addr:housenumber" v="2909"/><tag k="addr:postcode" v="78660"/></node><node id="-164" lat="30.460597" lon="-97.578446" changeset="false"><tag k="addr:street" v="Dusty Chisolm Trl"/><tag k="addr:housenumber" v="2908"/><tag k="addr:postcode" v="78660"/></node><node id="-165" lat="30.442066" lon="-97.572873" changeset="false"><tag k="addr:street" v="Silent Harbor Loop"/><tag k="addr:housenumber" v="17713"/><tag k="addr:postcode" v="78660"/></node><node id="-166" lat="30.444986" lon="-97.574228" changeset="false"><tag k="addr:street" v="Misty Harbor Drive"/><tag k="addr:housenumber" v="17920"/><tag k="addr:postcode" v="78660"/></node><node id="-167" lat="30.44545" lon="-97.573924" changeset="false"><tag k="addr:street" v="Misty Harbor Drive"/><tag k="addr:housenumber" v="18004"/><tag k="addr:postcode" v="78660"/></node><node id="-168" lat="30.448365" lon="-97.561812" changeset="false"><tag k="addr:street" v="Tiddle Ln"/><tag k="addr:housenumber" v="4645"/><tag k="addr:postcode" v="78660"/></node><node id="-169" lat="30.442574" lon="-97.572373" changeset="false"><tag k="addr:street" v="Silent Harbor Loop"/><tag k="addr:housenumber" v="17729"/><tag k="addr:postcode" v="78660"/></node><node id="-170" lat="30.445597" lon="-97.573338" changeset="false"><tag k="addr:street" v="Misty Harbor Drive"/><tag k="addr:housenumber" v="18013"/><tag k="addr:postcode" v="78660"/></node><node id="-171" lat="30.444789" lon="-97.573284" changeset="false"><tag k="addr:street" v="Calm Harbor Drive"/><tag k="addr:housenumber" v="17912"/><tag k="addr:postcode" v="78660"/></node><node id="-172" lat="30.441992" lon="-97.574269" changeset="false"><tag k="addr:street" v="Silent Harbor Loop"/><tag k="addr:housenumber" v="17625"/><tag k="addr:postcode" v="78660"/></node><node id="-173" lat="30.443851" lon="-97.572958" changeset="false"><tag k="addr:street" v="Hidden Harbor Drive"/><tag k="addr:housenumber" v="4001"/><tag k="addr:postcode" v="78660"/></node><node id="-174" lat="30.458567" lon="-97.585392" changeset="false"><tag k="addr:street" v="Falcon Pointe Boulevard"/><tag k="addr:housenumber" v="18629"/><tag k="addr:postcode" v="78660"/></node><node id="-175" lat="30.445919" lon="-97.574695" changeset="false"><tag k="addr:street" v="Silent Harbor Loop"/><tag k="addr:housenumber" v="17333"/><tag k="addr:postcode" v="78660"/></node><node id="-176" lat="30.445319" lon="-97.574548" changeset="false"><tag k="addr:street" v="Silent Harbor Loop"/><tag k="addr:housenumber" v="17408"/><tag k="addr:postcode" v="78660"/></node><node id="-177" lat="30.445023" lon="-97.574735" changeset="false"><tag k="addr:street" v="Silent Harbor Loop"/><tag k="addr:housenumber" v="17416"/><tag k="addr:postcode" v="78660"/></node><node id="-178" lat="30.448844" lon="-97.561069" changeset="false"><tag k="addr:street" v="Tiddle Ln"/><tag k="addr:housenumber" v="4624"/><tag k="addr:postcode" v="78660"/></node><node id="-179" lat="30.447773" lon="-97.561771" changeset="false"><tag k="addr:street" v="Tiddle Ln"/><tag k="addr:housenumber" v="4656"/><tag k="addr:postcode" v="78660"/></node><node id="-180" lat="30.445155" lon="-97.564934" changeset="false"><tag k="addr:street" v="Fritz Falls Crossing"/><tag k="addr:housenumber" v="4713"/><tag k="addr:postcode" v="78660"/></node><node id="-181" lat="30.445735" lon="-97.573788" changeset="false"><tag k="addr:street" v="Misty Harbor Drive"/><tag k="addr:housenumber" v="18012"/><tag k="addr:postcode" v="78660"/></node><node id="-182" lat="30.451465" lon="-97.577325" changeset="false"><tag k="addr:street" v="Dry Brook Loop"/><tag k="addr:housenumber" v="18541"/><tag k="addr:postcode" v="78660"/></node><node id="-183" lat="30.451038" lon="-97.576929" changeset="false"><tag k="addr:street" v="Dry Brook Loop"/><tag k="addr:housenumber" v="18609"/><tag k="addr:postcode" v="78660"/></node><node id="-184" lat="30.443657" lon="-97.575338" changeset="false"><tag k="addr:street" v="Silent Harbor Loop"/><tag k="addr:housenumber" v="17521"/><tag k="addr:postcode" v="78660"/></node><node id="-185" lat="30.443328" lon="-97.57523" changeset="false"><tag k="addr:street" v="Silent Harbor Loop"/><tag k="addr:housenumber" v="17529"/><tag k="addr:postcode" v="78660"/></node><node id="-186" lat="30.446489" lon="-97.574347" changeset="false"><tag k="addr:street" v="Silent Harbor Loop"/><tag k="addr:housenumber" v="17317"/><tag k="addr:postcode" v="78660"/></node><node id="-187" lat="30.457582" lon="-97.578886" changeset="false"><tag k="addr:street" v="Falcon Pointe Boulevard"/><tag k="addr:housenumber" v="18333"/><tag k="addr:postcode" v="78660"/></node><node id="-188" lat="30.458227" lon="-97.582191" changeset="false"><tag k="addr:street" v="Falcon Pointe Boulevard"/><tag k="addr:housenumber" v="18517"/><tag k="addr:postcode" v="78660"/></node><node id="-189" lat="30.444473" lon="-97.564577" changeset="false"><tag k="addr:street" v="Masi Loop"/><tag k="addr:housenumber" v="18009"/><tag k="addr:postcode" v="78660"/></node><node id="-190" lat="30.445978" lon="-97.57246" changeset="false"><tag k="addr:street" v="Silent Harbor Loop"/><tag k="addr:housenumber" v="18009"/><tag k="addr:postcode" v="78660"/></node><node id="-191" lat="30.447147" lon="-97.573356" changeset="false"><tag k="addr:street" v="Silent Harbor Loop"/><tag k="addr:housenumber" v="18101"/><tag k="addr:postcode" v="78660"/></node><node id="-192" lat="30.449621" lon="-97.588937" changeset="false"><tag k="addr:street" v="East Pflugerville Parkway"/><tag k="addr:housenumber" v="2800"/><tag k="addr:postcode" v="78660"/></node><node id="-193" lat="30.450267" lon="-97.588584" changeset="false"><tag k="addr:street" v="Colorado Sand Drive"/><tag k="addr:housenumber" v="17721"/><tag k="addr:postcode" v="78660"/></node><node id="-194" lat="30.460406" lon="-97.579899" changeset="false"><tag k="addr:street" v="Richfield Landing"/><tag k="addr:housenumber" v="2805"/><tag k="addr:postcode" v="78660"/></node><node id="-195" lat="30.461224" lon="-97.582566" changeset="false"><tag k="addr:street" v="Barley Field Pass"/><tag k="addr:housenumber" v="2713"/><tag k="addr:postcode" v="78660"/></node><node id="-196" lat="30.464427" lon="-97.57994" changeset="false"><tag k="addr:street" v="Kelly Lane"/><tag k="addr:housenumber" v="2715"/><tag k="addr:postcode" v="78660"/></node><node id="-197" lat="30.444835" lon="-97.563411" changeset="false"><tag k="addr:street" v="Masi Loop"/><tag k="addr:housenumber" v="17816"/><tag k="addr:postcode" v="78660"/></node><node id="-198" lat="30.459578" lon="-97.579498" changeset="false"><tag k="addr:street" v="Dusty Chisolm Trl"/><tag k="addr:housenumber" v="2805"/><tag k="addr:postcode" v="78660"/></node><node id="-199" lat="30.450476" lon="-97.575749" changeset="false"><tag k="addr:street" v="Dry Brook Loop"/><tag k="addr:housenumber" v="18637"/><tag k="addr:postcode" v="78660"/></node><node id="-200" lat="30.446841" lon="-97.567082" changeset="false"><tag k="addr:street" v="Masi Loop"/><tag k="addr:housenumber" v="18325"/><tag k="addr:postcode" v="78660"/></node><node id="-201" lat="30.460043" lon="-97.578579" changeset="false"><tag k="addr:street" v="Dusty Chisolm Trl"/><tag k="addr:housenumber" v="2901"/><tag k="addr:postcode" v="78660"/></node><node id="-202" lat="30.460717" lon="-97.576507" changeset="false"><tag k="addr:street" v="Dusty Chisolm Trl"/><tag k="addr:housenumber" v="3100"/><tag k="addr:postcode" v="78660"/></node><node id="-203" lat="30.443851" lon="-97.572769" changeset="false"><tag k="addr:street" v="Hidden Harbor Drive"/><tag k="addr:housenumber" v="4005"/><tag k="addr:postcode" v="78660"/></node><node id="-204" lat="30.452796" lon="-97.576597" changeset="false"><tag k="addr:street" v="Dry Brook Loop"/><tag k="addr:housenumber" v="18505"/><tag k="addr:postcode" v="78660"/></node><node id="-205" lat="30.451619" lon="-97.577292" changeset="false"><tag k="addr:street" v="Dry Brook Loop"/><tag k="addr:housenumber" v="18537"/><tag k="addr:postcode" v="78660"/></node><node id="-206" lat="30.450978" lon="-97.576775" changeset="false"><tag k="addr:street" v="Dry Brook Loop"/><tag k="addr:housenumber" v="18613"/><tag k="addr:postcode" v="78660"/></node><node id="-207" lat="30.442992" lon="-97.57326" changeset="false"><tag k="addr:street" v="Harbor Point Drive"/><tag k="addr:housenumber" v="17705"/><tag k="addr:postcode" v="78660"/></node><node id="-208" lat="30.44419" lon="-97.575488" changeset="false"><tag k="addr:street" v="Silent Harbor Loop"/><tag k="addr:housenumber" v="17509"/><tag k="addr:postcode" v="78660"/></node><node id="-209" lat="30.446208" lon="-97.573162" changeset="false"><tag k="addr:street" v="Misty Harbor Drive"/><tag k="addr:housenumber" v="18028"/><tag k="addr:postcode" v="78660"/></node><node id="-210" lat="30.445267" lon="-97.57348" changeset="false"><tag k="addr:street" v="Misty Harbor Drive"/><tag k="addr:housenumber" v="18005"/><tag k="addr:postcode" v="78660"/></node><node id="-211" lat="30.441884" lon="-97.573223" changeset="false"><tag k="addr:street" v="Silent Harbor Loop"/><tag k="addr:housenumber" v="17705"/><tag k="addr:postcode" v="78660"/></node><node id="-212" lat="30.459381" lon="-97.584861" changeset="false"><tag k="addr:street" v="Derby Hill Lane"/><tag k="addr:housenumber" v="18701"/><tag k="addr:postcode" v="78660"/></node><node id="-213" lat="30.446544" lon="-97.564623" changeset="false"><tag k="addr:street" v="Randig Ln"/><tag k="addr:housenumber" v="4612"/><tag k="addr:postcode" v="78660"/></node><node id="-214" lat="30.4457" lon="-97.564174" changeset="false"><tag k="addr:street" v="Randig Ln"/><tag k="addr:housenumber" v="4717"/><tag k="addr:postcode" v="78660"/></node><node id="-215" lat="30.445628" lon="-97.56401" changeset="false"><tag k="addr:street" v="Randig Ln"/><tag k="addr:housenumber" v="4721"/><tag k="addr:postcode" v="78660"/></node><node id="-216" lat="30.445565" lon="-97.563881" changeset="false"><tag k="addr:street" v="Randig Ln"/><tag k="addr:housenumber" v="4725"/><tag k="addr:postcode" v="78660"/></node><node id="-217" lat="30.451477" lon="-97.575775" changeset="false"><tag k="addr:street" v="Dry Brook Crossing"/><tag k="addr:housenumber" v="3521"/><tag k="addr:postcode" v="78660"/></node><node id="-218" lat="30.449588" lon="-97.56682" changeset="false"><tag k="addr:street" v="Hidden Park Dr"/><tag k="addr:housenumber" v="4317"/><tag k="addr:postcode" v="78660"/></node><node id="-219" lat="30.447201" lon="-97.56869" changeset="false"><tag k="addr:street" v="Lake Edge Court"/><tag k="addr:housenumber" v="18300"/><tag k="addr:postcode" v="78660"/></node><node id="-220" lat="30.460178" lon="-97.58072" changeset="false"><tag k="addr:street" v="Barley Field Pass"/><tag k="addr:housenumber" v="2813"/><tag k="addr:postcode" v="78660"/></node><node id="-221" lat="30.445214" lon="-97.564153" changeset="false"><tag k="addr:street" v="Fritz Falls Crossing"/><tag k="addr:housenumber" v="4724"/><tag k="addr:postcode" v="78660"/></node><node id="-222" lat="30.446948" lon="-97.564357" changeset="false"><tag k="addr:street" v="Rolling Water Dr"/><tag k="addr:housenumber" v="4617"/><tag k="addr:postcode" v="78660"/></node><node id="-223" lat="30.446443" lon="-97.573638" changeset="false"><tag k="addr:street" v="Silent Harbor Loop"/><tag k="addr:housenumber" v="17304"/><tag k="addr:postcode" v="78660"/></node><node id="-224" lat="30.445623" lon="-97.5749" changeset="false"><tag k="addr:street" v="Silent Harbor Loop"/><tag k="addr:housenumber" v="17405"/><tag k="addr:postcode" v="78660"/></node><node id="-225" lat="30.457622" lon="-97.578672" changeset="false"><tag k="addr:street" v="Falcon Pointe Boulevard"/><tag k="addr:housenumber" v="18329"/><tag k="addr:postcode" v="78660"/></node><node id="-226" lat="30.457582" lon="-97.579111" changeset="false"><tag k="addr:street" v="Falcon Pointe Boulevard"/><tag k="addr:housenumber" v="18401"/><tag k="addr:postcode" v="78660"/></node><node id="-227" lat="30.458242" lon="-97.581972" changeset="false"><tag k="addr:street" v="Falcon Pointe Boulevard"/><tag k="addr:housenumber" v="18513"/><tag k="addr:postcode" v="78660"/></node><node id="-228" lat="30.444229" lon="-97.564873" changeset="false"><tag k="addr:street" v="Kermit Ct"/><tag k="addr:housenumber" v="18213"/><tag k="addr:postcode" v="78660"/></node><node id="-229" lat="30.443178" lon="-97.575143" changeset="false"><tag k="addr:street" v="Silent Harbor Loop"/><tag k="addr:housenumber" v="17533"/><tag k="addr:postcode" v="78660"/></node><node id="-230" lat="30.443828" lon="-97.573362" changeset="false"><tag k="addr:street" v="Hidden Harbor Drive"/><tag k="addr:housenumber" v="3913"/><tag k="addr:postcode" v="78660"/></node><node id="-231" lat="30.449667" lon="-97.563784" changeset="false"><tag k="addr:street" v="Tiddle Ln"/><tag k="addr:housenumber" v="4517"/><tag k="addr:postcode" v="78660"/></node><node id="-232" lat="30.449013" lon="-97.563824" changeset="false"><tag k="addr:street" v="Dennis Ln"/><tag k="addr:housenumber" v="4508"/><tag k="addr:postcode" v="78660"/></node><node id="-233" lat="30.448516" lon="-97.561158" changeset="false"><tag k="addr:street" v="Tiddle Ln"/><tag k="addr:housenumber" v="4632"/><tag k="addr:postcode" v="78660"/></node><node id="-234" lat="30.446872" lon="-97.573771" changeset="false"><tag k="addr:street" v="Silent Harbor Loop"/><tag k="addr:housenumber" v="18100"/><tag k="addr:postcode" v="78660"/></node><node id="-235" lat="30.457173" lon="-97.580242" changeset="false"><tag k="addr:street" v="Barley Field Pass"/><tag k="addr:housenumber" v="3004"/><tag k="addr:postcode" v="78660"/></node><node id="-236" lat="30.452689" lon="-97.573721" changeset="false"><tag k="addr:street" v="Shallow Pool Dr"/><tag k="addr:housenumber" v="18405"/><tag k="addr:postcode" v="78660"/></node><node id="-237" lat="30.446551" lon="-97.573457" changeset="false"><tag k="addr:street" v="Silent Harbor Loop"/><tag k="addr:housenumber" v="17300"/><tag k="addr:postcode" v="78660"/></node><node id="-238" lat="30.44458" lon="-97.572309" changeset="false"><tag k="addr:street" v="Silent Harbor Loop"/><tag k="addr:housenumber" v="17908"/><tag k="addr:postcode" v="78660"/></node><node id="-239" lat="30.444506" lon="-97.575542" changeset="false"><tag k="addr:street" v="Silent Harbor Loop"/><tag k="addr:housenumber" v="17501"/><tag k="addr:postcode" v="78660"/></node><node id="-240" lat="30.443687" lon="-97.574328" changeset="false"><tag k="addr:street" v="Hidden Harbor Drive"/><tag k="addr:housenumber" v="3809"/><tag k="addr:postcode" v="78660"/></node><node id="-241" lat="30.443754" lon="-97.574131" changeset="false"><tag k="addr:street" v="Hidden Harbor Drive"/><tag k="addr:housenumber" v="3813"/><tag k="addr:postcode" v="78660"/></node><node id="-242" lat="30.443811" lon="-97.573549" changeset="false"><tag k="addr:street" v="Hidden Harbor Drive"/><tag k="addr:housenumber" v="3909"/><tag k="addr:postcode" v="78660"/></node><node id="-243" lat="30.445321" lon="-97.575087" changeset="false"><tag k="addr:street" v="Silent Harbor Loop"/><tag k="addr:housenumber" v="17413"/><tag k="addr:postcode" v="78660"/></node><node id="-244" lat="30.44505" lon="-97.575273" changeset="false"><tag k="addr:street" v="Silent Harbor Loop"/><tag k="addr:housenumber" v="17421"/><tag k="addr:postcode" v="78660"/></node><node id="-245" lat="30.442994" lon="-97.575034" changeset="false"><tag k="addr:street" v="Silent Harbor Loop"/><tag k="addr:housenumber" v="17537"/><tag k="addr:postcode" v="78660"/></node><node id="-246" lat="30.444512" lon="-97.574975" changeset="false"><tag k="addr:street" v="Silent Harbor Loop"/><tag k="addr:housenumber" v="17500"/><tag k="addr:postcode" v="78660"/></node><node id="-247" lat="30.446644" lon="-97.574214" changeset="false"><tag k="addr:street" v="Silent Harbor Loop"/><tag k="addr:housenumber" v="17313"/><tag k="addr:postcode" v="78660"/></node><node id="-248" lat="30.446223" lon="-97.574539" changeset="false"><tag k="addr:street" v="Silent Harbor Loop"/><tag k="addr:housenumber" v="17325"/><tag k="addr:postcode" v="78660"/></node><node id="-249" lat="30.446053" lon="-97.574609" changeset="false"><tag k="addr:street" v="Silent Harbor Loop"/><tag k="addr:housenumber" v="17329"/><tag k="addr:postcode" v="78660"/></node><node id="-250" lat="30.44645" lon="-97.564494" changeset="false"><tag k="addr:street" v="Randig Ln"/><tag k="addr:housenumber" v="4616"/><tag k="addr:postcode" v="78660"/></node><node id="-251" lat="30.463422" lon="-97.584058" changeset="false"><tag k="addr:street" v="Falcon Pointe Boulevard"/><tag k="addr:housenumber" v="18917"/><tag k="addr:postcode" v="78660"/></node><node id="-252" lat="30.443306" lon="-97.574183" changeset="false"><tag k="addr:street" v="Harbor Point Drive"/><tag k="addr:housenumber" v="3908"/><tag k="addr:postcode" v="78660"/></node><node id="-253" lat="30.443397" lon="-97.572934" changeset="false"><tag k="addr:street" v="Harbor Point Drive"/><tag k="addr:housenumber" v="4012"/><tag k="addr:postcode" v="78660"/></node><node id="-254" lat="30.444416" lon="-97.572319" changeset="false"><tag k="addr:street" v="Silent Harbor Loop"/><tag k="addr:housenumber" v="17904"/><tag k="addr:postcode" v="78660"/></node><node id="-255" lat="30.448104" lon="-97.562021" changeset="false"><tag k="addr:street" v="Tiddle Ln"/><tag k="addr:housenumber" v="4653"/><tag k="addr:postcode" v="78660"/></node><node id="-256" lat="30.44512" lon="-97.563998" changeset="false"><tag k="addr:street" v="Fritz Falls Crossing"/><tag k="addr:housenumber" v="4728"/><tag k="addr:postcode" v="78660"/></node><node id="-257" lat="30.444937" lon="-97.564651" changeset="false"><tag k="addr:street" v="Fritz Falls Crossing"/><tag k="addr:housenumber" v="4721"/><tag k="addr:postcode" v="78660"/></node><node id="-258" lat="30.442881" lon="-97.572777" changeset="false"><tag k="addr:street" v="Silent Harbor Loop"/><tag k="addr:housenumber" v="17736"/><tag k="addr:postcode" v="78660"/></node><node id="-259" lat="30.442731" lon="-97.573863" changeset="false"><tag k="addr:street" v="Harbor Point Drive"/><tag k="addr:housenumber" v="17704"/><tag k="addr:postcode" v="78660"/></node><node id="-260" lat="30.447309" lon="-97.568559" changeset="false"><tag k="addr:street" v="Lake Edge Court"/><tag k="addr:housenumber" v="18304"/><tag k="addr:postcode" v="78660"/></node><node id="-261" lat="30.444954" lon="-97.572316" changeset="false"><tag k="addr:street" v="Silent Harbor Loop"/><tag k="addr:housenumber" v="17920"/><tag k="addr:postcode" v="78660"/></node><node id="-262" lat="30.44254" lon="-97.574833" changeset="false"><tag k="addr:street" v="Silent Harbor Loop"/><tag k="addr:housenumber" v="17609"/><tag k="addr:postcode" v="78660"/></node><node id="-263" lat="30.445569" lon="-97.565806" changeset="false"><tag k="addr:street" v="Lydia Springs Dr"/><tag k="addr:housenumber" v="18304"/><tag k="addr:postcode" v="78660"/></node><node id="-264" lat="30.445263" lon="-97.564309" changeset="false"><tag k="addr:street" v="Fritz Falls Crossing"/><tag k="addr:housenumber" v="4720"/><tag k="addr:postcode" v="78660"/></node><node id="-265" lat="30.449523" lon="-97.563476" changeset="false"><tag k="addr:street" v="Tiddle Ln"/><tag k="addr:housenumber" v="4525"/><tag k="addr:postcode" v="78660"/></node><node id="-266" lat="30.449475" lon="-97.563345" changeset="false"><tag k="addr:street" v="Tiddle Ln"/><tag k="addr:housenumber" v="4529"/><tag k="addr:postcode" v="78660"/></node><node id="-267" lat="30.449402" lon="-97.563173" changeset="false"><tag k="addr:street" v="Tiddle Ln"/><tag k="addr:housenumber" v="4533"/><tag k="addr:postcode" v="78660"/></node><node id="-268" lat="30.444669" lon="-97.574396" changeset="false"><tag k="addr:street" v="Misty Harbor Drive"/><tag k="addr:housenumber" v="17912"/><tag k="addr:postcode" v="78660"/></node><node id="-269" lat="30.446119" lon="-97.573343" changeset="false"><tag k="addr:street" v="Misty Harbor Drive"/><tag k="addr:housenumber" v="18024"/><tag k="addr:postcode" v="78660"/></node><node id="-270" lat="30.444387" lon="-97.573924" changeset="false"><tag k="addr:street" v="Misty Harbor Drive"/><tag k="addr:housenumber" v="17905"/><tag k="addr:postcode" v="78660"/></node><node id="-271" lat="30.444608" lon="-97.573918" changeset="false"><tag k="addr:street" v="Misty Harbor Drive"/><tag k="addr:housenumber" v="17913"/><tag k="addr:postcode" v="78660"/></node><node id="-272" lat="30.459983" lon="-97.5797" changeset="false"><tag k="addr:street" v="Dusty Chisolm Trl"/><tag k="addr:housenumber" v="2804"/><tag k="addr:postcode" v="78660"/></node><node id="-273" lat="30.44303" lon="-97.564445" changeset="false"><tag k="addr:street" v="Weiss Lane"/><tag k="addr:housenumber" v="18216"/><tag k="addr:postcode" v="78660"/></node><node id="-274" lat="30.443491" lon="-97.575273" changeset="false"><tag k="addr:street" v="Silent Harbor Loop"/><tag k="addr:housenumber" v="17525"/><tag k="addr:postcode" v="78660"/></node><node id="-275" lat="30.443789" lon="-97.573754" changeset="false"><tag k="addr:street" v="Hidden Harbor Drive"/><tag k="addr:housenumber" v="3905"/><tag k="addr:postcode" v="78660"/></node><node id="-276" lat="30.443833" lon="-97.573168" changeset="false"><tag k="addr:street" v="Hidden Harbor Drive"/><tag k="addr:housenumber" v="3917"/><tag k="addr:postcode" v="78660"/></node><node id="-277" lat="30.446259" lon="-97.5727" changeset="false"><tag k="addr:street" v="Silent Harbor Loop"/><tag k="addr:housenumber" v="18017"/><tag k="addr:postcode" v="78660"/></node><node id="-278" lat="30.445858" lon="-97.57236" changeset="false"><tag k="addr:street" v="Silent Harbor Loop"/><tag k="addr:housenumber" v="18005"/><tag k="addr:postcode" v="78660"/></node><node id="-279" lat="30.445463" lon="-97.574469" changeset="false"><tag k="addr:street" v="Silent Harbor Loop"/><tag k="addr:housenumber" v="17404"/><tag k="addr:postcode" v="78660"/></node><node id="-280" lat="30.448695" lon="-97.562215" changeset="false"><tag k="addr:street" v="Willie Dr"/><tag k="addr:housenumber" v="18621"/><tag k="addr:postcode" v="78660"/></node><node id="-281" lat="30.444962" lon="-97.573708" changeset="false"><tag k="addr:street" v="Misty Harbor Drive"/><tag k="addr:housenumber" v="17925"/><tag k="addr:postcode" v="78660"/></node><node id="-282" lat="30.442105" lon="-97.574429" changeset="false"><tag k="addr:street" v="Silent Harbor Loop"/><tag k="addr:housenumber" v="17621"/><tag k="addr:postcode" v="78660"/></node><node id="-283" lat="30.459411" lon="-97.586028" changeset="false"><tag k="addr:street" v="Falcon Pointe Boulevard"/><tag k="addr:housenumber" v="18705"/><tag k="addr:postcode" v="78660"/></node><node id="-284" lat="30.459615" lon="-97.58606" changeset="false"><tag k="addr:street" v="Falcon Pointe Boulevard"/><tag k="addr:housenumber" v="18709"/><tag k="addr:postcode" v="78660"/></node><node id="-285" lat="30.443405" lon="-97.573605" changeset="false"><tag k="addr:street" v="Harbor Point Drive"/><tag k="addr:housenumber" v="4000"/><tag k="addr:postcode" v="78660"/></node><node id="-286" lat="30.446569" lon="-97.572925" changeset="false"><tag k="addr:street" v="Silent Harbor Loop"/><tag k="addr:housenumber" v="18025"/><tag k="addr:postcode" v="78660"/></node><node id="-287" lat="30.445179" lon="-97.57413" changeset="false"><tag k="addr:street" v="Misty Harbor Drive"/><tag k="addr:housenumber" v="17924"/><tag k="addr:postcode" v="78660"/></node><node id="-288" lat="30.445306" lon="-97.574031" changeset="false"><tag k="addr:street" v="Misty Harbor Drive"/><tag k="addr:housenumber" v="18000"/><tag k="addr:postcode" v="78660"/></node><node id="-289" lat="30.448692" lon="-97.561052" changeset="false"><tag k="addr:street" v="Tiddle Ln"/><tag k="addr:housenumber" v="4628"/><tag k="addr:postcode" v="78660"/></node><node id="-290" lat="30.448267" lon="-97.561313" changeset="false"><tag k="addr:street" v="Tiddle Ln"/><tag k="addr:housenumber" v="4640"/><tag k="addr:postcode" v="78660"/></node><node id="-291" lat="30.442754" lon="-97.572277" changeset="false"><tag k="addr:street" v="Silent Harbor Loop"/><tag k="addr:housenumber" v="17733"/><tag k="addr:postcode" v="78660"/></node><node id="-292" lat="30.442506" lon="-97.573031" changeset="false"><tag k="addr:street" v="Silent Harbor Loop"/><tag k="addr:housenumber" v="17720"/><tag k="addr:postcode" v="78660"/></node><node id="-293" lat="30.442685" lon="-97.572885" changeset="false"><tag k="addr:street" v="Silent Harbor Loop"/><tag k="addr:housenumber" v="17728"/><tag k="addr:postcode" v="78660"/></node><node id="-294" lat="30.457698" lon="-97.578249" changeset="false"><tag k="addr:street" v="Falcon Pointe Boulevard"/><tag k="addr:housenumber" v="18321"/><tag k="addr:postcode" v="78660"/></node><node id="-295" lat="30.457606" lon="-97.579329" changeset="false"><tag k="addr:street" v="Falcon Pointe Boulevard"/><tag k="addr:housenumber" v="18405"/><tag k="addr:postcode" v="78660"/></node><node id="-296" lat="30.457774" lon="-97.579941" changeset="false"><tag k="addr:street" v="Falcon Pointe Boulevard"/><tag k="addr:housenumber" v="18417"/><tag k="addr:postcode" v="78660"/></node><node id="-297" lat="30.458217" lon="-97.581754" changeset="false"><tag k="addr:street" v="Falcon Pointe Boulevard"/><tag k="addr:housenumber" v="18509"/><tag k="addr:postcode" v="78660"/></node><node id="-298" lat="30.44182" lon="-97.573606" changeset="false"><tag k="addr:street" v="Silent Harbor Loop"/><tag k="addr:housenumber" v="17637"/><tag k="addr:postcode" v="78660"/></node><node id="-299" lat="30.442694" lon="-97.574905" changeset="false"><tag k="addr:street" v="Silent Harbor Loop"/><tag k="addr:housenumber" v="17605"/><tag k="addr:postcode" v="78660"/></node><node id="-300" lat="30.444305" lon="-97.575513" changeset="false"><tag k="addr:street" v="Silent Harbor Loop"/><tag k="addr:housenumber" v="17505"/><tag k="addr:postcode" v="78660"/></node><node id="-301" lat="30.446204" lon="-97.574002" changeset="false"><tag k="addr:street" v="Silent Harbor Loop"/><tag k="addr:housenumber" v="17316"/><tag k="addr:postcode" v="78660"/></node><node id="-302" lat="30.444715" lon="-97.57494" changeset="false"><tag k="addr:street" v="Silent Harbor Loop"/><tag k="addr:housenumber" v="17424"/><tag k="addr:postcode" v="78660"/></node><node id="-303" lat="30.445462" lon="-97.574997" changeset="false"><tag k="addr:street" v="Silent Harbor Loop"/><tag k="addr:housenumber" v="17409"/><tag k="addr:postcode" v="78660"/></node><node id="-304" lat="30.444805" lon="-97.573784" changeset="false"><tag k="addr:street" v="Misty Harbor Drive"/><tag k="addr:housenumber" v="17921"/><tag k="addr:postcode" v="78660"/></node><node id="-305" lat="30.460023" lon="-97.578752" changeset="false"><tag k="addr:street" v="Dusty Chisolm Trl"/><tag k="addr:housenumber" v="2825"/><tag k="addr:postcode" v="78660"/></node><node id="-306" lat="30.443385" lon="-97.573784" changeset="false"><tag k="addr:street" v="Harbor Point Drive"/><tag k="addr:housenumber" v="3916"/><tag k="addr:postcode" v="78660"/></node><node id="-307" lat="30.446694" lon="-97.573025" changeset="false"><tag k="addr:street" v="Silent Harbor Loop"/><tag k="addr:housenumber" v="18029"/><tag k="addr:postcode" v="78660"/></node><node id="-308" lat="30.446708" lon="-97.567013" changeset="false"><tag k="addr:street" v="Masi Loop"/><tag k="addr:housenumber" v="18321"/><tag k="addr:postcode" v="78660"/></node><node id="-309" lat="30.447019" lon="-97.567077" changeset="false"><tag k="addr:street" v="Masi Loop"/><tag k="addr:housenumber" v="18329"/><tag k="addr:postcode" v="78660"/></node><node id="-310" lat="30.446691" lon="-97.564037" changeset="false"><tag k="addr:street" v="Rolling Water Dr"/><tag k="addr:housenumber" v="4701"/><tag k="addr:postcode" v="78660"/></node><node id="-311" lat="30.463964" lon="-97.579578" changeset="false"><tag k="addr:street" v="Marble Glen Ln"/><tag k="addr:housenumber" v="19108"/><tag k="addr:postcode" v="78660"/></node><node id="-312" lat="30.460084" lon="-97.585869" changeset="false"><tag k="addr:street" v="Falcon Pointe Boulevard"/><tag k="addr:housenumber" v="18721"/><tag k="addr:postcode" v="78660"/></node><node id="-313" lat="30.448248" lon="-97.561916" changeset="false"><tag k="addr:street" v="Tiddle Ln"/><tag k="addr:housenumber" v="4649"/><tag k="addr:postcode" v="78660"/></node><node id="-314" lat="30.442627" lon="-97.574287" changeset="false"><tag k="addr:street" v="Silent Harbor Loop"/><tag k="addr:housenumber" v="17612"/><tag k="addr:postcode" v="78660"/></node><node id="-315" lat="30.444405" lon="-97.56527" changeset="false"><tag k="addr:street" v="Kermit Ct"/><tag k="addr:housenumber" v="18212"/><tag k="addr:postcode" v="78660"/></node><node id="-316" lat="30.445553" lon="-97.56473" changeset="false"><tag k="addr:street" v="Fritz Falls Crossing"/><tag k="addr:housenumber" v="4708"/><tag k="addr:postcode" v="78660"/></node><node id="-317" lat="30.448506" lon="-97.563463" changeset="false"><tag k="addr:street" v="Dennis Ln"/><tag k="addr:housenumber" v="4517"/><tag k="addr:postcode" v="78660"/></node><node id="-318" lat="30.457647" lon="-97.578447" changeset="false"><tag k="addr:street" v="Falcon Pointe Boulevard"/><tag k="addr:housenumber" v="18325"/><tag k="addr:postcode" v="78660"/></node><node id="-319" lat="30.442282" lon="-97.573727" changeset="false"><tag k="addr:street" v="Silent Harbor Loop"/><tag k="addr:housenumber" v="17636"/><tag k="addr:postcode" v="78660"/></node><node id="-320" lat="30.445621" lon="-97.574365" changeset="false"><tag k="addr:street" v="Silent Harbor Loop"/><tag k="addr:housenumber" v="17400"/><tag k="addr:postcode" v="78660"/></node><node id="-321" lat="30.459689" lon="-97.579356" changeset="false"><tag k="addr:street" v="Dusty Chisolm Trl"/><tag k="addr:housenumber" v="2809"/><tag k="addr:postcode" v="78660"/></node><node id="-322" lat="30.445568" lon="-97.57386" changeset="false"><tag k="addr:street" v="Misty Harbor Drive"/><tag k="addr:housenumber" v="18008"/><tag k="addr:postcode" v="78660"/></node><node id="-323" lat="30.446017" lon="-97.57353" changeset="false"><tag k="addr:street" v="Misty Harbor Drive"/><tag k="addr:housenumber" v="18020"/><tag k="addr:postcode" v="78660"/></node><node id="-324" lat="30.44378" lon="-97.573938" changeset="false"><tag k="addr:street" v="Hidden Harbor Drive"/><tag k="addr:housenumber" v="3901"/><tag k="addr:postcode" v="78660"/></node><node id="-325" lat="30.445194" lon="-97.575194" changeset="false"><tag k="addr:street" v="Silent Harbor Loop"/><tag k="addr:housenumber" v="17417"/><tag k="addr:postcode" v="78660"/></node><node id="-326" lat="30.443993" lon="-97.575398" changeset="false"><tag k="addr:street" v="Silent Harbor Loop"/><tag k="addr:housenumber" v="17513"/><tag k="addr:postcode" v="78660"/></node><node id="-327" lat="30.444024" lon="-97.574831" changeset="false"><tag k="addr:street" v="Silent Harbor Loop"/><tag k="addr:housenumber" v="17512"/><tag k="addr:postcode" v="78660"/></node><node id="-328" lat="30.443236" lon="-97.574638" changeset="false"><tag k="addr:street" v="Harbor Point Drive"/><tag k="addr:housenumber" v="3900"/><tag k="addr:postcode" v="78660"/></node><node id="-329" lat="30.44328" lon="-97.574408" changeset="false"><tag k="addr:street" v="Harbor Point Drive"/><tag k="addr:housenumber" v="3904"/><tag k="addr:postcode" v="78660"/></node><node id="-330" lat="30.444871" lon="-97.575406" changeset="false"><tag k="addr:street" v="Silent Harbor Loop"/><tag k="addr:housenumber" v="17425"/><tag k="addr:postcode" v="78660"/></node><node id="-331" lat="30.445928" lon="-97.562785" changeset="false"><tag k="addr:street" v="Masi Loop"/><tag k="addr:housenumber" v="17704"/><tag k="addr:postcode" v="78660"/></node><node id="-332" lat="30.445583" lon="-97.562961" changeset="false"><tag k="addr:street" v="Masi Loop"/><tag k="addr:housenumber" v="17716"/><tag k="addr:postcode" v="78660"/></node><node id="-333" lat="30.445201" lon="-97.563182" changeset="false"><tag k="addr:street" v="Masi Loop"/><tag k="addr:housenumber" v="17804"/><tag k="addr:postcode" v="78660"/></node><node id="-334" lat="30.446243" lon="-97.563323" changeset="false"><tag k="addr:street" v="Rolling Water Dr"/><tag k="addr:housenumber" v="4721"/><tag k="addr:postcode" v="78660"/></node><node id="-335" lat="30.446046" lon="-97.564016" changeset="false"><tag k="addr:street" v="Randig Ln"/><tag k="addr:housenumber" v="4712"/><tag k="addr:postcode" v="78660"/></node><node id="-336" lat="30.445872" lon="-97.564388" changeset="false"><tag k="addr:street" v="Randig Ln"/><tag k="addr:housenumber" v="4709"/><tag k="addr:postcode" v="78660"/></node><node id="-337" lat="30.446394" lon="-97.563634" changeset="false"><tag k="addr:street" v="Rolling Water Dr"/><tag k="addr:housenumber" v="4713"/><tag k="addr:postcode" v="78660"/></node><node id="-338" lat="30.446315" lon="-97.563496" changeset="false"><tag k="addr:street" v="Rolling Water Dr"/><tag k="addr:housenumber" v="4717"/><tag k="addr:postcode" v="78660"/></node><node id="-339" lat="30.445467" lon="-97.565292" changeset="false"><tag k="addr:street" v="Fritz Falls Crossing"/><tag k="addr:housenumber" v="4701"/><tag k="addr:postcode" v="78660"/></node><node id="-340" lat="30.445936" lon="-97.563844" changeset="false"><tag k="addr:street" v="Randig Ln"/><tag k="addr:housenumber" v="4716"/><tag k="addr:postcode" v="78660"/></node><node id="-341" lat="30.451535" lon="-97.559135" changeset="false"><tag k="addr:street" v="Weiss Lane"/><tag k="addr:housenumber" v="18908"/><tag k="addr:postcode" v="78660"/></node><node id="-342" lat="30.453126" lon="-97.56619" changeset="false"><tag k="addr:street" v="Dry Pond Dr"/><tag k="addr:housenumber" v="18720"/><tag k="addr:postcode" v="78660"/></node><node id="-343" lat="30.449906" lon="-97.567332" changeset="false"><tag k="addr:street" v="Sandy Bottom Dr"/><tag k="addr:housenumber" v="18509"/><tag k="addr:postcode" v="78660"/></node><node id="-344" lat="30.458755" lon="-97.567294" changeset="false"><tag k="addr:street" v="Kelly Lane"/><tag k="addr:housenumber" v="3715"/><tag k="addr:postcode" v="78660"/></node><node id="-345" lat="30.462142" lon="-97.581818" changeset="false"><tag k="addr:street" v="Wandering Vine Road"/><tag k="addr:housenumber" v="18916"/><tag k="addr:postcode" v="78660"/></node><node id="-346" lat="30.46199" lon="-97.581911" changeset="false"><tag k="addr:street" v="Wandering Vine Road"/><tag k="addr:housenumber" v="18912"/><tag k="addr:postcode" v="78660"/></node><node id="-347" lat="30.461629" lon="-97.581519" changeset="false"><tag k="addr:street" v="Wandering Vine Road"/><tag k="addr:housenumber" v="18909"/><tag k="addr:postcode" v="78660"/></node><node id="-348" lat="30.448759" lon="-97.565027" changeset="false"><tag k="addr:street" v="Blue Pond Dr"/><tag k="addr:housenumber" v="18509"/><tag k="addr:postcode" v="78660"/></node><node id="-349" lat="30.459862" lon="-97.568982" changeset="false"><tag k="addr:street" v="Kelly Lane"/><tag k="addr:housenumber" v="3607"/><tag k="addr:postcode" v="78660"/></node><node id="-350" lat="30.461073" lon="-97.582209" changeset="false"><tag k="addr:street" v="Barley Field Pass"/><tag k="addr:housenumber" v="2721"/><tag k="addr:postcode" v="78660"/></node><node id="-351" lat="30.45575" lon="-97.560095" changeset="false"><tag k="addr:street" v="Kelly Lane"/><tag k="addr:housenumber" v="4417"/><tag k="addr:postcode" v="78660"/></node><node id="-352" lat="30.4609" lon="-97.579951" changeset="false"><tag k="addr:street" v="Richfield Landing"/><tag k="addr:housenumber" v="2808"/><tag k="addr:postcode" v="78660"/></node><node id="-353" lat="30.462222" lon="-97.578488" changeset="false"><tag k="addr:street" v="Hilltop Canyon Cv"/><tag k="addr:housenumber" v="18913"/><tag k="addr:postcode" v="78660"/></node><node id="-354" lat="30.454004" lon="-97.57279" changeset="false"><tag k="addr:street" v="Deep Water Dr"/><tag k="addr:housenumber" v="18500"/><tag k="addr:postcode" v="78660"/></node><node id="-355" lat="30.459327" lon="-97.568065" changeset="false"><tag k="addr:street" v="Kelly Lane"/><tag k="addr:housenumber" v="3701"/><tag k="addr:postcode" v="78660"/></node><node id="-356" lat="30.453154" lon="-97.575057" changeset="false"><tag k="addr:street" v="Shallow Pool Dr"/><tag k="addr:housenumber" v="18317"/><tag k="addr:postcode" v="78660"/></node><node id="-357" lat="30.460449" lon="-97.578775" changeset="false"><tag k="addr:street" v="Dusty Chisolm Trl"/><tag k="addr:housenumber" v="2900"/><tag k="addr:postcode" v="78660"/></node><node id="-358" lat="30.445467" lon="-97.56461" changeset="false"><tag k="addr:street" v="Fritz Falls Crossing"/><tag k="addr:housenumber" v="4712"/><tag k="addr:postcode" v="78660"/></node><node id="-359" lat="30.444682" lon="-97.564055" changeset="false"><tag k="addr:street" v="Fritz Falls Crossing"/><tag k="addr:housenumber" v="4737"/><tag k="addr:postcode" v="78660"/></node><node id="-360" lat="30.44607" lon="-97.562702" changeset="false"><tag k="addr:street" v="Masi Loop"/><tag k="addr:housenumber" v="17700"/><tag k="addr:postcode" v="78660"/></node><node id="-361" lat="30.45978" lon="-97.586068" changeset="false"><tag k="addr:street" v="Falcon Pointe Boulevard"/><tag k="addr:housenumber" v="18713"/><tag k="addr:postcode" v="78660"/></node><node id="-362" lat="30.460826" lon="-97.585359" changeset="false"><tag k="addr:street" v="Falcon Pointe Boulevard"/><tag k="addr:housenumber" v="18809"/><tag k="addr:postcode" v="78660"/></node><node id="-363" lat="30.459263" lon="-97.584757" changeset="false"><tag k="addr:street" v="Derby Hill Lane"/><tag k="addr:housenumber" v="18621"/><tag k="addr:postcode" v="78660"/></node><node id="-364" lat="30.443661" lon="-97.574586" changeset="false"><tag k="addr:street" v="Hidden Harbor Drive"/><tag k="addr:housenumber" v="3805"/><tag k="addr:postcode" v="78660"/></node><node id="-365" lat="30.448524" lon="-97.565572" changeset="false"><tag k="addr:street" v="Hidden Lake Crossing"/><tag k="addr:housenumber" v="4416"/><tag k="addr:postcode" v="78660"/></node><node id="-366" lat="30.460082" lon="-97.579546" changeset="false"><tag k="addr:street" v="Dusty Chisolm Trl"/><tag k="addr:housenumber" v="2808"/><tag k="addr:postcode" v="78660"/></node><node id="-367" lat="30.452499" lon="-97.57676" changeset="false"><tag k="addr:street" v="Dry Brook Loop"/><tag k="addr:housenumber" v="18513"/><tag k="addr:postcode" v="78660"/></node><node id="-368" lat="30.452342" lon="-97.576858" changeset="false"><tag k="addr:street" v="Dry Brook Loop"/><tag k="addr:housenumber" v="18517"/><tag k="addr:postcode" v="78660"/></node><node id="-369" lat="30.451908" lon="-97.57711" changeset="false"><tag k="addr:street" v="Dry Brook Loop"/><tag k="addr:housenumber" v="18529"/><tag k="addr:postcode" v="78660"/></node><node id="-370" lat="30.450885" lon="-97.576614" changeset="false"><tag k="addr:street" v="Dry Brook Loop"/><tag k="addr:housenumber" v="18617"/><tag k="addr:postcode" v="78660"/></node><node id="-371" lat="30.445373" lon="-97.564464" changeset="false"><tag k="addr:street" v="Fritz Falls Crossing"/><tag k="addr:housenumber" v="4716"/><tag k="addr:postcode" v="78660"/></node><node id="-372" lat="30.449987" lon="-97.567207" changeset="false"><tag k="addr:street" v="Sandy Bottom Dr"/><tag k="addr:housenumber" v="18513"/><tag k="addr:postcode" v="78660"/></node><node id="-373" lat="30.444723" lon="-97.563493" changeset="false"><tag k="addr:street" v="Masi Loop"/><tag k="addr:housenumber" v="17820"/><tag k="addr:postcode" v="78660"/></node><node id="-374" lat="30.444608" lon="-97.564879" changeset="false"><tag k="addr:street" v="Masi Loop"/><tag k="addr:housenumber" v="18017"/><tag k="addr:postcode" v="78660"/></node><node id="-375" lat="30.448946" lon="-97.566169" changeset="false"><tag k="addr:street" v="Bandice Ln"/><tag k="addr:housenumber" v="4401"/><tag k="addr:postcode" v="78660"/></node></osm>