<?xml version="1.0" encoding="UTF-8"?><osm version="0.6" generator="github.com/aaronlidman/osm-and-geojson"><node id="-1" lat="30.273521" lon="-97.809009" changeset="false"><tag k="addr:street" v="Pasaguarda Drive"/><tag k="addr:housenumber" v="1203"/><tag k="addr:postcode" v="78746"/></node><node id="-2" lat="30.273359" lon="-97.807809" changeset="false"><tag k="addr:street" v="Constant Springs Drive"/><tag k="addr:housenumber" v="1207"/><tag k="addr:postcode" v="78746"/></node><node id="-3" lat="30.273094" lon="-97.801531" changeset="false"><tag k="addr:street" v="Walsh Tarlton Lane"/><tag k="addr:housenumber" v="1018"/><tag k="addr:postcode" v="78746"/></node><node id="-4" lat="30.269466" lon="-97.803539" changeset="false"><tag k="addr:street" v="Walsh Tarlton Lane"/><tag k="addr:housenumber" v="1325"/><tag k="addr:postcode" v="78746"/></node><node id="-5" lat="30.278582" lon="-97.806972" changeset="false"><tag k="addr:street" v="Bee Caves Road"/><tag k="addr:housenumber" v="3663"/><tag k="addr:postcode" v="78746"/></node><node id="-6" lat="30.278764" lon="-97.808108" changeset="false"><tag k="addr:street" v="Westbank Drive"/><tag k="addr:housenumber" v="911"/><tag k="addr:postcode" v="78746"/></node><node id="-7" lat="30.273342" lon="-97.807199" changeset="false"><tag k="addr:street" v="Dusky Thrush Trail"/><tag k="addr:housenumber" v="1200"/><tag k="addr:postcode" v="78746"/></node><node id="-8" lat="30.277145" lon="-97.807852" changeset="false"><tag k="addr:street" v="Doe Trail"/><tag k="addr:housenumber" v="3616"/><tag k="addr:postcode" v="78746"/></node><node id="-9" lat="30.277317" lon="-97.807796" changeset="false"><tag k="addr:street" v="Doe Trail"/><tag k="addr:housenumber" v="3620"/><tag k="addr:postcode" v="78746"/></node><node id="-10" lat="30.276371" lon="-97.803482" changeset="false"><tag k="addr:street" v="Bee Caves Road"/><tag k="addr:housenumber" v="3435"/><tag k="addr:postcode" v="78746"/></node><node id="-11" lat="30.274992" lon="-97.807484" changeset="false"><tag k="addr:street" v="Constant Springs Drive"/><tag k="addr:housenumber" v="1102"/><tag k="addr:postcode" v="78746"/></node><node id="-12" lat="30.277106" lon="-97.808115" changeset="false"><tag k="addr:street" v="Doe Trail"/><tag k="addr:housenumber" v="3615"/><tag k="addr:postcode" v="78746"/></node><node id="-13" lat="30.274095" lon="-97.801476" changeset="false"><tag k="addr:street" v="Bee Caves Road"/><tag k="addr:housenumber" v="3267"/><tag k="addr:postcode" v="78746"/></node><node id="-14" lat="30.272959" lon="-97.8036" changeset="false"><tag k="addr:street" v="Sanderling Trail"/><tag k="addr:housenumber" v="3313"/><tag k="addr:postcode" v="78746"/></node><node id="-15" lat="30.277057" lon="-97.80788" changeset="false"><tag k="addr:street" v="Doe Trail"/><tag k="addr:housenumber" v="3614"/><tag k="addr:postcode" v="78746"/></node><node id="-16" lat="30.27404" lon="-97.800345" changeset="false"><tag k="addr:street" v="Bee Caves Road"/><tag k="addr:housenumber" v="3211"/><tag k="addr:postcode" v="78746"/></node><node id="-17" lat="30.277966" lon="-97.805558" changeset="false"><tag k="addr:street" v="Bee Caves Road"/><tag k="addr:housenumber" v="3601"/><tag k="addr:postcode" v="78746"/></node><node id="-18" lat="30.272809" lon="-97.800178" changeset="false"><tag k="addr:street" v="Bee Caves Road"/><tag k="addr:housenumber" v="3201"/><tag k="addr:postcode" v="78746"/></node><node id="-19" lat="30.270129" lon="-97.802692" changeset="false"><tag k="addr:street" v="Brians Meadow Cove"/><tag k="addr:housenumber" v="1300"/><tag k="addr:postcode" v="78746"/></node><node id="-20" lat="30.269421" lon="-97.803571" changeset="false"><tag k="addr:street" v="Walsh Tarlton Lane"/><tag k="addr:housenumber" v="1329"/><tag k="addr:postcode" v="78746"/></node><node id="-21" lat="30.277537" lon="-97.80768" changeset="false"><tag k="addr:street" v="Doe Trail"/><tag k="addr:housenumber" v="3624"/><tag k="addr:postcode" v="78746"/></node><node id="-22" lat="30.273371" lon="-97.802982" changeset="false"><tag k="addr:street" v="Rosefinch Trail"/><tag k="addr:housenumber" v="3304"/><tag k="addr:postcode" v="78746"/></node><node id="-23" lat="30.272855" lon="-97.802042" changeset="false"><tag k="addr:street" v="Walsh Tarlton Lane"/><tag k="addr:housenumber" v="1020"/><tag k="addr:postcode" v="78746"/></node><node id="-24" lat="30.275396" lon="-97.809954" changeset="false"><tag k="addr:street" v="Silver Hill Drive"/><tag k="addr:housenumber" v="1200"/><tag k="addr:postcode" v="78746"/></node><node id="-25" lat="30.270215" lon="-97.801913" changeset="false"><tag k="addr:street" v="Verdant Way"/><tag k="addr:housenumber" v="1200"/><tag k="addr:postcode" v="78746"/></node><node id="-26" lat="30.277203" lon="-97.808036" changeset="false"><tag k="addr:street" v="Doe Trail"/><tag k="addr:housenumber" v="3617"/><tag k="addr:postcode" v="78746"/></node><node id="-27" lat="30.27695" lon="-97.807875" changeset="false"><tag k="addr:street" v="Doe Trail"/><tag k="addr:housenumber" v="3612"/><tag k="addr:postcode" v="78746"/></node><node id="-28" lat="30.276185" lon="-97.808952" changeset="false"><tag k="addr:street" v="Silver Hill Circle"/><tag k="addr:housenumber" v="3610"/><tag k="addr:postcode" v="78746"/></node><node id="-29" lat="30.276769" lon="-97.807226" changeset="false"><tag k="addr:street" v="Beaver Trail"/><tag k="addr:housenumber" v="1002"/><tag k="addr:postcode" v="78746"/></node><node id="-30" lat="30.277436" lon="-97.805456" changeset="false"><tag k="addr:street" v="Bee Caves Road"/><tag k="addr:housenumber" v="3535"/><tag k="addr:postcode" v="78746"/></node><node id="-31" lat="30.273882" lon="-97.805317" changeset="false"><tag k="addr:street" v="Rosefinch Trail"/><tag k="addr:housenumber" v="3412"/><tag k="addr:postcode" v="78746"/></node><node id="-32" lat="30.27608" lon="-97.808683" changeset="false"><tag k="addr:street" v="Silver Hill Circle"/><tag k="addr:housenumber" v="3608"/><tag k="addr:postcode" v="78746"/></node><node id="-33" lat="30.278254" lon="-97.805945" changeset="false"><tag k="addr:street" v="Bee Caves Road"/><tag k="addr:housenumber" v="3623"/><tag k="addr:postcode" v="78746"/></node><node id="-34" lat="30.277401" lon="-97.80776" changeset="false"><tag k="addr:street" v="Doe Trail"/><tag k="addr:housenumber" v="3622"/><tag k="addr:postcode" v="78746"/></node><node id="-35" lat="30.275379" lon="-97.802951" changeset="false"><tag k="addr:street" v="Bee Caves Road"/><tag k="addr:housenumber" v="3355"/><tag k="addr:postcode" v="78746"/></node><node id="-36" lat="30.277224" lon="-97.807833" changeset="false"><tag k="addr:street" v="Doe Trail"/><tag k="addr:housenumber" v="3618"/><tag k="addr:postcode" v="78746"/></node><node id="-37" lat="30.273543" lon="-97.806812" changeset="false"><tag k="addr:street" v="Dusky Thrush Trail"/><tag k="addr:housenumber" v="1203"/><tag k="addr:postcode" v="78746"/></node><node id="-38" lat="30.274811" lon="-97.806747" changeset="false"><tag k="addr:street" v="Constant Springs Drive"/><tag k="addr:housenumber" v="1101"/><tag k="addr:postcode" v="78746"/></node><node id="-39" lat="30.277999" lon="-97.805632" changeset="false"><tag k="addr:street" v="Bee Caves Road"/><tag k="addr:housenumber" v="3603"/><tag k="addr:postcode" v="78746"/></node><node id="-40" lat="30.275173" lon="-97.802283" changeset="false"><tag k="addr:street" v="Bee Caves Road"/><tag k="addr:housenumber" v="3345"/><tag k="addr:postcode" v="78746"/></node><node id="-41" lat="30.274487" lon="-97.801944" changeset="false"><tag k="addr:street" v="Bee Caves Road"/><tag k="addr:housenumber" v="3321"/><tag k="addr:postcode" v="78746"/></node><node id="-42" lat="30.276425" lon="-97.803486" changeset="false"><tag k="addr:street" v="Bee Caves Road"/><tag k="addr:housenumber" v="3433"/><tag k="addr:postcode" v="78746"/></node><node id="-43" lat="30.275614" lon="-97.803984" changeset="false"><tag k="addr:street" v="Bee Caves Road"/><tag k="addr:housenumber" v="3437"/><tag k="addr:postcode" v="78746"/></node><node id="-44" lat="30.274109" lon="-97.800448" changeset="false"><tag k="addr:street" v="Bee Caves Road"/><tag k="addr:housenumber" v="3215"/><tag k="addr:postcode" v="78746"/></node><node id="-45" lat="30.273305" lon="-97.80296" changeset="false"><tag k="addr:street" v="Sanderling Trail"/><tag k="addr:housenumber" v="3304"/><tag k="addr:postcode" v="78746"/></node><node id="-46" lat="30.273617" lon="-97.805271" changeset="false"><tag k="addr:street" v="Sanderling Trail"/><tag k="addr:housenumber" v="3408"/><tag k="addr:postcode" v="78746"/></node><node id="-47" lat="30.273675" lon="-97.805276" changeset="false"><tag k="addr:street" v="Rosefinch Trail"/><tag k="addr:housenumber" v="3410"/><tag k="addr:postcode" v="78746"/></node><node id="-48" lat="30.276701" lon="-97.807935" changeset="false"><tag k="addr:street" v="Doe Trail"/><tag k="addr:housenumber" v="3611"/><tag k="addr:postcode" v="78746"/></node><node id="-49" lat="30.27683" lon="-97.808199" changeset="false"><tag k="addr:street" v="Doe Trail"/><tag k="addr:housenumber" v="3613"/><tag k="addr:postcode" v="78746"/></node><node id="-50" lat="30.273221" lon="-97.803367" changeset="false"><tag k="addr:street" v="Sanderling Trail"/><tag k="addr:housenumber" v="3300"/><tag k="addr:postcode" v="78746"/></node><node id="-51" lat="30.273215" lon="-97.803411" changeset="false"><tag k="addr:street" v="Sanderling Trail"/><tag k="addr:housenumber" v="3308"/><tag k="addr:postcode" v="78746"/></node><node id="-52" lat="30.271978" lon="-97.806457" changeset="false"><tag k="addr:street" v="Dusky Thrush Trail"/><tag k="addr:housenumber" v="1302"/><tag k="addr:postcode" v="78746"/></node><node id="-53" lat="30.272028" lon="-97.806518" changeset="false"><tag k="addr:street" v="Dusky Thrush Trail"/><tag k="addr:housenumber" v="1300"/><tag k="addr:postcode" v="78746"/></node></osm>