<?xml version="1.0" encoding="UTF-8"?><osm version="0.6" generator="github.com/aaronlidman/osm-and-geojson"><node id="-1" lat="30.18932" lon="-97.827774" changeset="false"><tag k="addr:street" v="Huebinger Pass"/><tag k="addr:housenumber" v="8800"/><tag k="coa:place_id" v="686494"/></node><node id="-2" lat="30.180409" lon="-97.835375" changeset="false"><tag k="addr:street" v="Nightjar Drive"/><tag k="addr:housenumber" v="9717"/><tag k="coa:place_id" v="71176"/></node><node id="-3" lat="30.180007" lon="-97.836031" changeset="false"><tag k="addr:street" v="Nightjar Drive"/><tag k="addr:housenumber" v="9805"/><tag k="coa:place_id" v="71182"/></node><node id="-4" lat="30.188919" lon="-97.82666" changeset="false"><tag k="addr:street" v="Leo Street"/><tag k="addr:housenumber" v="8802"/><tag k="coa:place_id" v="751394"/></node><node id="-5" lat="30.18966" lon="-97.827962" changeset="false"><tag k="addr:street" v="Gee Street"/><tag k="addr:housenumber" v="2700"/><tag k="coa:place_id" v="661846"/></node><node id="-6" lat="30.180259" lon="-97.833559" changeset="false"><tag k="addr:street" v="Curlew Drive"/><tag k="addr:housenumber" v="9616"/><tag k="coa:place_id" v="162352"/></node><node id="-7" lat="30.178671" lon="-97.839031" changeset="false"><tag k="addr:street" v="West Slaughter Lane"/><tag k="addr:housenumber" v="2900"/><tag k="coa:place_id" v="141649"/></node><node id="-8" lat="30.188298" lon="-97.827606" changeset="false"><tag k="addr:street" v="Guidepost Trail"/><tag k="addr:housenumber" v="2708"/><tag k="coa:place_id" v="3255660"/></node><node id="-9" lat="30.189952" lon="-97.826859" changeset="false"><tag k="addr:street" v="Huebinger Pass"/><tag k="addr:housenumber" v="8703"/><tag k="coa:place_id" v="676438"/></node><node id="-10" lat="30.181095" lon="-97.835262" changeset="false"><tag k="addr:street" v="Nightjar Drive"/><tag k="addr:housenumber" v="9706"/><tag k="coa:place_id" v="71149"/></node><node id="-11" lat="30.180566" lon="-97.83509" changeset="false"><tag k="addr:street" v="Nightjar Drive"/><tag k="addr:housenumber" v="9713"/><tag k="coa:place_id" v="71174"/></node><node id="-12" lat="30.178264" lon="-97.837748" changeset="false"><tag k="addr:street" v="West Slaughter Lane"/><tag k="addr:housenumber" v="2810"/><tag k="coa:place_id" v="3088106"/></node><node id="-13" lat="30.179686" lon="-97.836749" changeset="false"><tag k="addr:street" v="Nightjar Drive"/><tag k="addr:housenumber" v="9903"/><tag k="coa:place_id" v="66080"/></node><node id="-14" lat="30.181347" lon="-97.835097" changeset="false"><tag k="addr:street" v="Nightjar Drive"/><tag k="addr:housenumber" v="9702"/><tag k="coa:place_id" v="254589"/></node><node id="-15" lat="30.190221" lon="-97.827979" changeset="false"><tag k="addr:street" v="Bobby Lane"/><tag k="addr:housenumber" v="2709"/><tag k="coa:place_id" v="652294"/></node><node id="-16" lat="30.180081" lon="-97.835885" changeset="false"><tag k="addr:street" v="Nightjar Drive"/><tag k="addr:housenumber" v="9803"/><tag k="coa:place_id" v="71181"/></node><node id="-17" lat="30.181581" lon="-97.834954" changeset="false"><tag k="addr:street" v="Nightjar Drive"/><tag k="addr:housenumber" v="9616"/><tag k="coa:place_id" v="254583"/></node><node id="-18" lat="30.180161" lon="-97.835746" changeset="false"><tag k="addr:street" v="Nightjar Drive"/><tag k="addr:housenumber" v="9801"/><tag k="coa:place_id" v="71180"/></node><node id="-19" lat="30.179849" lon="-97.834708" changeset="false"><tag k="addr:street" v="Holly Springs Drive"/><tag k="addr:housenumber" v="9712"/><tag k="coa:place_id" v="312820"/></node><node id="-20" lat="30.188402" lon="-97.827786" changeset="false"><tag k="addr:street" v="Huebinger Pass"/><tag k="addr:housenumber" v="8811"/><tag k="coa:place_id" v="661876"/></node><node id="-21" lat="30.189937" lon="-97.826283" changeset="false"><tag k="addr:street" v="Leo Street"/><tag k="addr:housenumber" v="8700"/><tag k="coa:place_id" v="1143510"/></node><node id="-22" lat="30.180965" lon="-97.835354" changeset="false"><tag k="addr:street" v="Nightjar Drive"/><tag k="addr:housenumber" v="9708"/><tag k="coa:place_id" v="71148"/></node><node id="-23" lat="30.189069" lon="-97.828995" changeset="false"><tag k="addr:street" v="Cheney Cove"/><tag k="addr:housenumber" v="2711"/><tag k="coa:place_id" v="642040"/></node><node id="-24" lat="30.182865" lon="-97.833673" changeset="false"><tag k="addr:street" v="Nightjar Drive"/><tag k="addr:housenumber" v="9503"/><tag k="coa:place_id" v="254553"/></node><node id="-25" lat="30.181948" lon="-97.834732" changeset="false"><tag k="addr:street" v="Nightjar Drive"/><tag k="addr:housenumber" v="9610"/><tag k="coa:place_id" v="254573"/></node><node id="-26" lat="30.180994" lon="-97.835751" changeset="false"><tag k="addr:street" v="Sugar Hill Drive"/><tag k="addr:housenumber" v="9711"/><tag k="coa:place_id" v="71193"/></node><node id="-27" lat="30.180841" lon="-97.835508" changeset="false"><tag k="addr:street" v="Nightjar Drive"/><tag k="addr:housenumber" v="9710"/><tag k="coa:place_id" v="71152"/></node><node id="-28" lat="30.179324" lon="-97.840231" changeset="false"><tag k="addr:street" v="West Slaughter Lane"/><tag k="addr:housenumber" v="3008"/><tag k="coa:place_id" v="1119907"/></node><node id="-29" lat="30.182571" lon="-97.833809" changeset="false"><tag k="addr:street" v="Nightjar Drive"/><tag k="addr:housenumber" v="9507"/><tag k="coa:place_id" v="254555"/></node><node id="-30" lat="30.189585" lon="-97.828251" changeset="false"><tag k="addr:street" v="Gee Street"/><tag k="addr:housenumber" v="2701"/><tag k="coa:place_id" v="652516"/></node><node id="-31" lat="30.179897" lon="-97.836951" changeset="false"><tag k="addr:street" v="Nightjar Drive"/><tag k="addr:housenumber" v="9902"/><tag k="coa:place_id" v="66077"/></node><node id="-32" lat="30.180135" lon="-97.833586" changeset="false"><tag k="addr:street" v="Curlew Drive"/><tag k="addr:housenumber" v="9700"/><tag k="coa:place_id" v="162364"/></node><node id="-33" lat="30.17797" lon="-97.834096" changeset="false"><tag k="addr:street" v="Curlew Drive"/><tag k="addr:housenumber" v="9800"/><tag k="coa:place_id" v="686404"/></node><node id="-34" lat="30.180478" lon="-97.835229" changeset="false"><tag k="addr:street" v="Nightjar Drive"/><tag k="addr:housenumber" v="9715"/><tag k="coa:place_id" v="71175"/></node><node id="-35" lat="30.179836" lon="-97.837036" changeset="false"><tag k="addr:street" v="Nightjar Drive"/><tag k="addr:housenumber" v="9904"/><tag k="coa:place_id" v="66078"/></node><node id="-36" lat="30.17993" lon="-97.836177" changeset="false"><tag k="addr:street" v="Nightjar Drive"/><tag k="addr:housenumber" v="9807"/><tag k="coa:place_id" v="71183"/></node><node id="-37" lat="30.188979" lon="-97.826622" changeset="false"><tag k="addr:street" v="Leo Street"/><tag k="addr:housenumber" v="8800"/><tag k="coa:place_id" v="1143512"/></node><node id="-38" lat="30.190241" lon="-97.825769" changeset="false"><tag k="addr:street" v="Leo Street"/><tag k="addr:housenumber" v="8606"/><tag k="coa:place_id" v="751346"/></node><node id="-39" lat="30.190046" lon="-97.825618" changeset="false"><tag k="addr:street" v="Leo Street"/><tag k="addr:housenumber" v="8608"/><tag k="coa:place_id" v="1143509"/></node><node id="-40" lat="30.180953" lon="-97.834764" changeset="false"><tag k="addr:street" v="Nightjar Drive"/><tag k="addr:housenumber" v="9707"/><tag k="coa:place_id" v="71171"/></node><node id="-41" lat="30.189443" lon="-97.828717" changeset="false"><tag k="addr:street" v="Cheney Cove"/><tag k="addr:housenumber" v="2710"/><tag k="coa:place_id" v="631264"/></node><node id="-42" lat="30.180687" lon="-97.834964" changeset="false"><tag k="addr:street" v="Nightjar Drive"/><tag k="addr:housenumber" v="9711"/><tag k="coa:place_id" v="71173"/></node><node id="-43" lat="30.182716" lon="-97.83375" changeset="false"><tag k="addr:street" v="Nightjar Drive"/><tag k="addr:housenumber" v="9505"/><tag k="coa:place_id" v="254554"/></node><node id="-44" lat="30.179747" lon="-97.836663" changeset="false"><tag k="addr:street" v="Nightjar Drive"/><tag k="addr:housenumber" v="9901"/><tag k="coa:place_id" v="408076"/></node><node id="-45" lat="30.179645" lon="-97.837055" changeset="false"><tag k="addr:street" v="Aftonshire Way"/><tag k="addr:housenumber" v="2811"/><tag k="coa:place_id" v="122493"/></node><node id="-46" lat="30.187243" lon="-97.828584" changeset="false"><tag k="addr:street" v="Wagtail Drive"/><tag k="addr:housenumber" v="9001"/><tag k="coa:place_id" v="536457"/></node><node id="-47" lat="30.179624" lon="-97.836834" changeset="false"><tag k="addr:street" v="Nightjar Drive"/><tag k="addr:housenumber" v="9905"/><tag k="coa:place_id" v="66079"/></node><node id="-48" lat="30.190648" lon="-97.827595" changeset="false"><tag k="addr:street" v="Bobby Lane"/><tag k="addr:housenumber" v="2706"/><tag k="coa:place_id" v="683644"/></node><node id="-49" lat="30.180651" lon="-97.835774" changeset="false"><tag k="addr:street" v="Sugar Hill Drive"/><tag k="addr:housenumber" v="9723"/><tag k="coa:place_id" v="121555"/></node><node id="-50" lat="30.182318" lon="-97.834523" changeset="false"><tag k="addr:street" v="Nightjar Drive"/><tag k="addr:housenumber" v="9604"/><tag k="coa:place_id" v="254563"/></node><node id="-51" lat="30.18978" lon="-97.826144" changeset="false"><tag k="addr:street" v="Leo Street"/><tag k="addr:housenumber" v="8702"/><tag k="coa:place_id" v="751352"/></node><node id="-52" lat="30.190613" lon="-97.826941" changeset="false"><tag k="addr:street" v="Bobby Lane"/><tag k="addr:housenumber" v="2700"/><tag k="coa:place_id" v="683674"/></node><node id="-53" lat="30.184699" lon="-97.830845" changeset="false"><tag k="addr:street" v="Wilcrest Drive"/><tag k="addr:housenumber" v="2711"/><tag k="coa:place_id" v="536703"/></node><node id="-54" lat="30.180483" lon="-97.838014" changeset="false"><tag k="addr:street" v="Aftonshire Way"/><tag k="addr:housenumber" v="2915"/><tag k="coa:place_id" v="333274"/></node><node id="-55" lat="30.180277" lon="-97.834094" changeset="false"><tag k="addr:street" v="Holly Springs Drive"/><tag k="addr:housenumber" v="9705"/><tag k="coa:place_id" v="162058"/></node><node id="-56" lat="30.182201" lon="-97.834588" changeset="false"><tag k="addr:street" v="Nightjar Drive"/><tag k="addr:housenumber" v="9606"/><tag k="coa:place_id" v="254568"/></node><node id="-57" lat="30.179988" lon="-97.833769" changeset="false"><tag k="addr:street" v="Curlew Drive"/><tag k="addr:housenumber" v="9702"/><tag k="coa:place_id" v="162376"/></node><node id="-58" lat="30.183621" lon="-97.830456" changeset="false"><tag k="addr:street" v="Marsh Drive"/><tag k="addr:housenumber" v="9302"/><tag k="coa:place_id" v="701277"/></node><node id="-59" lat="30.180236" lon="-97.83562" changeset="false"><tag k="addr:street" v="Nightjar Drive"/><tag k="addr:housenumber" v="9721"/><tag k="coa:place_id" v="71178"/></node><node id="-60" lat="30.180817" lon="-97.834843" changeset="false"><tag k="addr:street" v="Nightjar Drive"/><tag k="addr:housenumber" v="9709"/><tag k="coa:place_id" v="254591"/></node><node id="-61" lat="30.178538" lon="-97.833768" changeset="false"><tag k="addr:street" v="Curlew Drive"/><tag k="addr:housenumber" v="9720"/><tag k="coa:place_id" v="1141469"/></node><node id="-62" lat="30.178456" lon="-97.833776" changeset="false"><tag k="addr:street" v="Aftonshire Way"/><tag k="addr:housenumber" v="2600"/><tag k="coa:place_id" v="253974"/></node></osm>