<?xml version="1.0" encoding="UTF-8"?><osm version="0.6" generator="github.com/aaronlidman/osm-and-geojson"><node id="-1" lat="30.445191" lon="-97.751265" changeset="false"><tag k="addr:street" v="Riverton Drive"/><tag k="addr:housenumber" v="6913"/><tag k="addr:postcode" v="78729"/></node><node id="-2" lat="30.448936" lon="-97.752701" changeset="false"><tag k="addr:street" v="Greybull Trail"/><tag k="addr:housenumber" v="13202"/><tag k="addr:postcode" v="78729"/></node><node id="-3" lat="30.44594" lon="-97.750636" changeset="false"><tag k="addr:street" v="Riverton Drive"/><tag k="addr:housenumber" v="6900"/><tag k="addr:postcode" v="78729"/></node><node id="-4" lat="30.442213" lon="-97.753631" changeset="false"><tag k="addr:street" v="Dakota Lane"/><tag k="addr:housenumber" v="12805"/><tag k="addr:postcode" v="78729"/></node><node id="-5" lat="30.449373" lon="-97.751188" changeset="false"><tag k="addr:street" v="Pine Bluffs Trail"/><tag k="addr:housenumber" v="7104"/><tag k="addr:postcode" v="78729"/></node><node id="-6" lat="30.447208" lon="-97.750361" changeset="false"><tag k="addr:street" v="Amarillo Avenue"/><tag k="addr:housenumber" v="13204"/><tag k="addr:postcode" v="78729"/></node><node id="-7" lat="30.449487" lon="-97.75193" changeset="false"><tag k="addr:street" v="Pine Bluffs Trail"/><tag k="addr:housenumber" v="7201"/><tag k="addr:postcode" v="78729"/></node><node id="-8" lat="30.447053" lon="-97.750307" changeset="false"><tag k="addr:street" v="Amarillo Avenue"/><tag k="addr:housenumber" v="13202"/><tag k="addr:postcode" v="78729"/></node><node id="-9" lat="30.442559" lon="-97.753327" changeset="false"><tag k="addr:street" v="Bancroft Woods Drive"/><tag k="addr:housenumber" v="6905"/><tag k="addr:postcode" v="78729"/></node><node id="-10" lat="30.451154" lon="-97.749381" changeset="false"><tag k="addr:street" v="West Parmer Lane"/><tag k="addr:housenumber" v="7011"/><tag k="addr:postcode" v="78729"/></node><node id="-11" lat="30.447595" lon="-97.750046" changeset="false"><tag k="addr:street" v="Amarillo Avenue"/><tag k="addr:housenumber" v="13207"/><tag k="addr:postcode" v="78729"/></node><node id="-12" lat="30.44955" lon="-97.747575" changeset="false"><tag k="addr:street" v="Dallas Drive"/><tag k="addr:housenumber" v="6801"/><tag k="addr:postcode" v="78729"/></node><node id="-13" lat="30.443222" lon="-97.755784" changeset="false"><tag k="addr:street" v="Arrowhead Pass"/><tag k="addr:housenumber" v="12806"/><tag k="addr:postcode" v="78729"/></node><node id="-14" lat="30.440036" lon="-97.755621" changeset="false"><tag k="addr:street" v="Blackfoot Trail"/><tag k="addr:housenumber" v="12607"/><tag k="addr:postcode" v="78729"/></node><node id="-15" lat="30.447816" lon="-97.749805" changeset="false"><tag k="addr:street" v="Dime Box Trail"/><tag k="addr:housenumber" v="13236"/><tag k="addr:postcode" v="78729"/></node><node id="-16" lat="30.449344" lon="-97.749894" changeset="false"><tag k="addr:street" v="Kerrville Folkway"/><tag k="addr:housenumber" v="13249"/><tag k="addr:postcode" v="78729"/></node><node id="-17" lat="30.449498" lon="-97.747915" changeset="false"><tag k="addr:street" v="Dallas Drive"/><tag k="addr:housenumber" v="6809 1/2"/><tag k="addr:postcode" v="78729"/></node><node id="-18" lat="30.442922" lon="-97.752899" changeset="false"><tag k="addr:street" v="Bancroft Woods Drive"/><tag k="addr:housenumber" v="6904"/><tag k="addr:postcode" v="78729"/></node><node id="-19" lat="30.450195" lon="-97.751589" changeset="false"><tag k="addr:street" v="Kerrville Folkway"/><tag k="addr:housenumber" v="13274"/><tag k="addr:postcode" v="78729"/></node><node id="-20" lat="30.449388" lon="-97.751957" changeset="false"><tag k="addr:street" v="Pine Bluffs Trail"/><tag k="addr:housenumber" v="7111"/><tag k="addr:postcode" v="78729"/></node></osm>