<?xml version="1.0" encoding="UTF-8"?><osm version="0.6" generator="github.com/aaronlidman/osm-and-geojson"><node id="-1" lat="30.199685" lon="-97.955128" changeset="false"><tag k="addr:street" v="Davy Crockett Drive"/><tag k="addr:housenumber" v="10401"/><tag k="addr:postcode" v="78737"/></node><node id="-2" lat="30.199656" lon="-97.958814" changeset="false"><tag k="addr:street" v="Davy Crockett Drive"/><tag k="addr:housenumber" v="10525"/><tag k="addr:postcode" v="78737"/></node><node id="-3" lat="30.199713" lon="-97.959795" changeset="false"><tag k="addr:street" v="Davy Crockett Drive"/><tag k="addr:housenumber" v="10555"/><tag k="addr:postcode" v="78737"/></node><node id="-4" lat="30.172557" lon="-97.944934" changeset="false"><tag k="addr:street" v="Kemp Hills Drive"/><tag k="addr:housenumber" v="13612"/><tag k="addr:postcode" v="78737"/></node><node id="-5" lat="30.19377" lon="-97.954384" changeset="false"><tag k="addr:street" v="Old Baldy Trail"/><tag k="addr:housenumber" v="12851"/><tag k="addr:postcode" v="78737"/></node><node id="-6" lat="30.196475" lon="-97.971081" changeset="false"><tag k="addr:street" v="Nutty Brown Road"/><tag k="addr:housenumber" v="12711"/><tag k="addr:postcode" v="78737"/></node><node id="-7" lat="30.172391" lon="-97.943579" changeset="false"><tag k="addr:street" v="Texas Trail"/><tag k="addr:housenumber" v="13604"/><tag k="addr:postcode" v="78737"/></node><node id="-8" lat="30.192144" lon="-97.968215" changeset="false"><tag k="addr:street" v="Signal Hill Road"/><tag k="addr:housenumber" v="10930"/><tag k="addr:postcode" v="78737"/></node><node id="-9" lat="30.198551" lon="-97.971038" changeset="false"><tag k="addr:street" v="Nutty Brown Road"/><tag k="addr:housenumber" v="12703"/><tag k="addr:postcode" v="78737"/></node><node id="-10" lat="30.198143" lon="-97.971073" changeset="false"><tag k="addr:street" v="Nutty Brown Road"/><tag k="addr:housenumber" v="12705"/><tag k="addr:postcode" v="78737"/></node><node id="-11" lat="30.173314" lon="-97.942913" changeset="false"><tag k="addr:street" v="Rio Bravo Lane"/><tag k="addr:housenumber" v="8502"/><tag k="addr:postcode" v="78737"/></node><node id="-12" lat="30.171682" lon="-97.942801" changeset="false"><tag k="addr:street" v="Texas Trail"/><tag k="addr:housenumber" v="13613"/><tag k="addr:postcode" v="78737"/></node><node id="-13" lat="30.199712" lon="-97.956602" changeset="false"><tag k="addr:street" v="Davy Crockett Drive"/><tag k="addr:housenumber" v="10511"/><tag k="addr:postcode" v="78737"/></node><node id="-14" lat="30.195519" lon="-97.949134" changeset="false"><tag k="addr:street" v="Davy Crockett Drive"/><tag k="addr:housenumber" v="10107"/><tag k="addr:postcode" v="78737"/></node><node id="-15" lat="30.176284" lon="-97.931278" changeset="false"><tag k="addr:street" v="Niles Cove"/><tag k="addr:housenumber" v="8003"/><tag k="addr:postcode" v="78737"/></node><node id="-16" lat="30.197597" lon="-97.970995" changeset="false"><tag k="addr:street" v="Nutty Brown Road"/><tag k="addr:housenumber" v="12707"/><tag k="addr:postcode" v="78737"/></node><node id="-17" lat="30.203129" lon="-97.966367" changeset="false"><tag k="addr:street" v="Daniel Boone Drive"/><tag k="addr:housenumber" v="12530"/><tag k="addr:postcode" v="78737"/></node><node id="-18" lat="30.195854" lon="-97.949438" changeset="false"><tag k="addr:street" v="Davy Crockett Drive"/><tag k="addr:housenumber" v="10111"/><tag k="addr:postcode" v="78737"/></node><node id="-19" lat="30.200622" lon="-97.960666" changeset="false"><tag k="addr:street" v="Davy Crockett Drive"/><tag k="addr:housenumber" v="10585"/><tag k="addr:postcode" v="78737"/></node><node id="-20" lat="30.176944" lon="-97.932" changeset="false"><tag k="addr:street" v="Niles Cove"/><tag k="addr:housenumber" v="8007"/><tag k="addr:postcode" v="78737"/></node><node id="-21" lat="30.196229" lon="-97.949786" changeset="false"><tag k="addr:street" v="Davy Crockett Drive"/><tag k="addr:housenumber" v="10115"/><tag k="addr:postcode" v="78737"/></node><node id="-22" lat="30.193699" lon="-97.957237" changeset="false"><tag k="addr:street" v="Old Baldy Trail"/><tag k="addr:housenumber" v="14100"/><tag k="addr:postcode" v="78737"/></node><node id="-23" lat="30.171905" lon="-97.94496" changeset="false"><tag k="addr:street" v="Kemp Hills Drive"/><tag k="addr:housenumber" v="13620"/><tag k="addr:postcode" v="78737"/></node><node id="-24" lat="30.182981" lon="-97.960463" changeset="false"><tag k="addr:street" v="Signal Hill Road"/><tag k="addr:housenumber" v="10111"/><tag k="addr:postcode" v="78737"/></node><node id="-25" lat="30.200187" lon="-97.954465" changeset="false"><tag k="addr:street" v="Davy Crockett Drive"/><tag k="addr:housenumber" v="10432"/><tag k="addr:postcode" v="78737"/></node><node id="-26" lat="30.173412" lon="-97.944962" changeset="false"><tag k="addr:street" v="Kemp Hills Drive"/><tag k="addr:housenumber" v="13602"/><tag k="addr:postcode" v="78737"/></node><node id="-27" lat="30.172785" lon="-97.944315" changeset="false"><tag k="addr:street" v="Rio Bravo Lane"/><tag k="addr:housenumber" v="8513"/><tag k="addr:postcode" v="78737"/></node><node id="-28" lat="30.199733" lon="-97.955663" changeset="false"><tag k="addr:street" v="Davy Crockett Drive"/><tag k="addr:housenumber" v="10451"/><tag k="addr:postcode" v="78737"/></node><node id="-29" lat="30.170445" lon="-97.942709" changeset="false"><tag k="addr:street" v="Texas Trail"/><tag k="addr:housenumber" v="13709"/><tag k="addr:postcode" v="78737"/></node><node id="-30" lat="30.177489" lon="-97.932769" changeset="false"><tag k="addr:street" v="Niles Cove"/><tag k="addr:housenumber" v="8011"/><tag k="addr:postcode" v="78737"/></node><node id="-31" lat="30.173149" lon="-97.944904" changeset="false"><tag k="addr:street" v="Kemp Hills Drive"/><tag k="addr:housenumber" v="13604"/><tag k="addr:postcode" v="78737"/></node><node id="-32" lat="30.201767" lon="-97.960728" changeset="false"><tag k="addr:street" v="Davy Crockett Drive"/><tag k="addr:housenumber" v="10605"/><tag k="addr:postcode" v="78737"/></node><node id="-33" lat="30.172105" lon="-97.943546" changeset="false"><tag k="addr:street" v="Texas Trail"/><tag k="addr:housenumber" v="13608"/><tag k="addr:postcode" v="78737"/></node></osm>