<?xml version="1.0" encoding="UTF-8"?><osm version="0.6" generator="github.com/aaronlidman/osm-and-geojson"><node id="-1" lat="30.255447" lon="-97.778807" changeset="false"><tag k="addr:street" v="Airole Way"/><tag k="addr:housenumber" v="1814"/><tag k="coa:place_id" v="942290"/></node><node id="-2" lat="30.251122" lon="-97.779731" changeset="false"><tag k="addr:street" v="Rabb Road"/><tag k="addr:housenumber" v="2118"/><tag k="coa:place_id" v="178548"/></node><node id="-3" lat="30.244869" lon="-97.781984" changeset="false"><tag k="addr:street" v="Skyway Circle"/><tag k="addr:housenumber" v="2805"/><tag k="coa:place_id" v="144296"/></node><node id="-4" lat="30.252621" lon="-97.780266" changeset="false"><tag k="addr:street" v="Airole Way"/><tag k="addr:housenumber" v="2109"/><tag k="coa:place_id" v="942344"/></node><node id="-5" lat="30.247419" lon="-97.781462" changeset="false"><tag k="addr:street" v="Rae Dell Avenue"/><tag k="addr:housenumber" v="2603"/><tag k="coa:place_id" v="164316"/></node><node id="-6" lat="30.247662" lon="-97.780904" changeset="false"><tag k="addr:street" v="La Casa Drive"/><tag k="addr:housenumber" v="2203"/><tag k="coa:place_id" v="5053482"/></node><node id="-7" lat="30.250056" lon="-97.780346" changeset="false"><tag k="addr:street" v="Rae Dell Avenue"/><tag k="addr:housenumber" v="2302"/><tag k="coa:place_id" v="812522"/></node><node id="-8" lat="30.255407" lon="-97.778086" changeset="false"><tag k="addr:street" v="Rundell Place"/><tag k="addr:housenumber" v="2310"/><tag k="coa:place_id" v="1153518"/></node><node id="-9" lat="30.245658" lon="-97.782367" changeset="false"><tag k="addr:street" v="Barton Village Circle"/><tag k="addr:housenumber" v="2302"/><tag k="coa:place_id" v="144770"/></node><node id="-10" lat="30.255871" lon="-97.778723" changeset="false"><tag k="addr:street" v="Airole Way"/><tag k="addr:housenumber" v="1810"/><tag k="coa:place_id" v="942278"/></node><node id="-11" lat="30.257425" lon="-97.777748" changeset="false"><tag k="addr:street" v="Michael Street"/><tag k="addr:housenumber" v="1702"/><tag k="coa:place_id" v="786116"/></node><node id="-12" lat="30.244812" lon="-97.781306" changeset="false"><tag k="addr:street" v="South Lamar Boulevard"/><tag k="addr:housenumber" v="2712"/><tag k="coa:place_id" v="144206"/></node><node id="-13" lat="30.253868" lon="-97.778838" changeset="false"><tag k="addr:street" v="Arthur Lane"/><tag k="addr:housenumber" v="2004"/><tag k="coa:place_id" v="779774"/></node><node id="-14" lat="30.255688" lon="-97.77933" changeset="false"><tag k="addr:street" v="Westridge Drive"/><tag k="addr:housenumber" v="1905"/><tag k="coa:place_id" v="122451"/></node><node id="-15" lat="30.258336" lon="-97.775041" changeset="false"><tag k="addr:street" v="Norris Drive"/><tag k="addr:housenumber" v="1502"/><tag k="coa:place_id" v="889107"/></node><node id="-16" lat="30.25794" lon="-97.774458" changeset="false"><tag k="addr:street" v="Norris Drive"/><tag k="addr:housenumber" v="1507"/><tag k="coa:place_id" v="784904"/></node><node id="-17" lat="30.245794" lon="-97.781073" changeset="false"><tag k="addr:street" v="Dickson Drive"/><tag k="addr:housenumber" v="2111"/><tag k="coa:place_id" v="841221"/></node><node id="-18" lat="30.257575" lon="-97.777437" changeset="false"><tag k="addr:street" v="Michael Street"/><tag k="addr:housenumber" v="1700"/><tag k="coa:place_id" v="786122"/></node><node id="-19" lat="30.246332" lon="-97.781292" changeset="false"><tag k="addr:street" v="Dickson Drive"/><tag k="addr:housenumber" v="2121"/><tag k="coa:place_id" v="693861"/></node><node id="-20" lat="30.246371" lon="-97.780373" changeset="false"><tag k="addr:street" v="Dickson Drive"/><tag k="addr:housenumber" v="2200"/><tag k="coa:place_id" v="143912"/></node><node id="-21" lat="30.254556" lon="-97.779432" changeset="false"><tag k="addr:street" v="Westridge Drive"/><tag k="addr:housenumber" v="2001"/><tag k="coa:place_id" v="3367878"/></node><node id="-22" lat="30.252348" lon="-97.78051" changeset="false"><tag k="addr:street" v="Airole Way"/><tag k="addr:housenumber" v="2111"/><tag k="coa:place_id" v="181907"/></node><node id="-23" lat="30.255159" lon="-97.781771" changeset="false"><tag k="addr:street" v="Barton Hills Drive"/><tag k="addr:housenumber" v="2005"/><tag k="coa:place_id" v="183764"/></node><node id="-24" lat="30.245903" lon="-97.782415" changeset="false"><tag k="addr:street" v="Barton Village Circle"/><tag k="addr:housenumber" v="2304"/><tag k="coa:place_id" v="144800"/></node><node id="-25" lat="30.245415" lon="-97.78181" changeset="false"><tag k="addr:street" v="Skyway Circle"/><tag k="addr:housenumber" v="2800"/><tag k="coa:place_id" v="144386"/></node><node id="-26" lat="30.257846" lon="-97.775013" changeset="false"><tag k="addr:street" v="Norris Drive"/><tag k="addr:housenumber" v="1506"/><tag k="coa:place_id" v="1153502"/></node><node id="-27" lat="30.246677" lon="-97.782768" changeset="false"><tag k="addr:street" v="Westhill Drive"/><tag k="addr:housenumber" v="2700"/><tag k="coa:place_id" v="579723"/></node><node id="-28" lat="30.253504" lon="-97.780121" changeset="false"><tag k="addr:street" v="Airole Way"/><tag k="addr:housenumber" v="2101"/><tag k="coa:place_id" v="370983"/></node><node id="-29" lat="30.254923" lon="-97.777952" changeset="false"><tag k="addr:street" v="Rundell Place"/><tag k="addr:housenumber" v="2305"/><tag k="coa:place_id" v="779738"/></node><node id="-30" lat="30.25509" lon="-97.778301" changeset="false"><tag k="addr:street" v="Rundell Place"/><tag k="addr:housenumber" v="2311"/><tag k="coa:place_id" v="161242"/></node><node id="-31" lat="30.246071" lon="-97.782661" changeset="false"><tag k="addr:street" v="Barton Village Circle"/><tag k="addr:housenumber" v="2306"/><tag k="coa:place_id" v="144830"/></node><node id="-32" lat="30.245972" lon="-97.779658" changeset="false"><tag k="addr:street" v="South Lamar Boulevard"/><tag k="addr:housenumber" v="2614"/><tag k="coa:place_id" v="1042431"/></node><node id="-33" lat="30.256919" lon="-97.777189" changeset="false"><tag k="addr:street" v="Michael Street"/><tag k="addr:housenumber" v="1705"/><tag k="coa:place_id" v="1153510"/></node><node id="-34" lat="30.256992" lon="-97.775772" changeset="false"><tag k="addr:street" v="Rabb Road"/><tag k="addr:housenumber" v="1604"/><tag k="coa:place_id" v="786050"/></node><node id="-35" lat="30.249327" lon="-97.780864" changeset="false"><tag k="addr:street" v="Rae Dell Avenue"/><tag k="addr:housenumber" v="2404"/><tag k="coa:place_id" v="812840"/></node><node id="-36" lat="30.247154" lon="-97.780438" changeset="false"><tag k="addr:street" v="La Casa Drive"/><tag k="addr:housenumber" v="2111"/><tag k="coa:place_id" v="813728"/></node><node id="-37" lat="30.254796" lon="-97.779431" changeset="false"><tag k="addr:street" v="Westridge Drive"/><tag k="addr:housenumber" v="1913"/><tag k="coa:place_id" v="786266"/></node><node id="-38" lat="30.249906" lon="-97.780554" changeset="false"><tag k="addr:street" v="Arpdale Street"/><tag k="addr:housenumber" v="2302"/><tag k="coa:place_id" v="812798"/></node><node id="-39" lat="30.255136" lon="-97.777563" changeset="false"><tag k="addr:street" v="Rundell Place"/><tag k="addr:housenumber" v="2304"/><tag k="coa:place_id" v="779708"/></node><node id="-40" lat="30.246267" lon="-97.781001" changeset="false"><tag k="addr:street" v="Dickson Drive"/><tag k="addr:housenumber" v="2202"/><tag k="coa:place_id" v="146054"/></node><node id="-41" lat="30.258954" lon="-97.77376" changeset="false"><tag k="addr:street" v="Spring Creek Drive"/><tag k="addr:housenumber" v="2206"/><tag k="coa:place_id" v="784976"/></node><node id="-42" lat="30.256806" lon="-97.77603" changeset="false"><tag k="addr:street" v="Rabb Road"/><tag k="addr:housenumber" v="1700"/><tag k="coa:place_id" v="3039545"/></node><node id="-43" lat="30.252605" lon="-97.780861" changeset="false"><tag k="addr:street" v="Airole Way"/><tag k="addr:housenumber" v="2110"/><tag k="coa:place_id" v="181906"/></node><node id="-44" lat="30.256543" lon="-97.779037" changeset="false"><tag k="addr:street" v="Westridge Drive"/><tag k="addr:housenumber" v="1805"/><tag k="coa:place_id" v="1153513"/></node><node id="-45" lat="30.25853" lon="-97.773701" changeset="false"><tag k="addr:street" v="Spring Creek Drive"/><tag k="addr:housenumber" v="2207"/><tag k="coa:place_id" v="784934"/></node><node id="-46" lat="30.25506" lon="-97.777334" changeset="false"><tag k="addr:street" v="Rundell Place"/><tag k="addr:housenumber" v="2302"/><tag k="coa:place_id" v="779702"/></node><node id="-47" lat="30.257086" lon="-97.776911" changeset="false"><tag k="addr:street" v="Michael Street"/><tag k="addr:housenumber" v="1703"/><tag k="coa:place_id" v="786110"/></node><node id="-48" lat="30.254542" lon="-97.778149" changeset="false"><tag k="addr:street" v="Arthur Lane"/><tag k="addr:housenumber" v="1904"/><tag k="coa:place_id" v="779750"/></node><node id="-49" lat="30.250124" lon="-97.780988" changeset="false"><tag k="addr:street" v="Arpdale Street"/><tag k="addr:housenumber" v="2306"/><tag k="coa:place_id" v="241960"/></node><node id="-50" lat="30.249974" lon="-97.781469" changeset="false"><tag k="addr:street" v="Arpdale Street"/><tag k="addr:housenumber" v="2309"/><tag k="coa:place_id" v="241962"/></node><node id="-51" lat="30.258835" lon="-97.77439" changeset="false"><tag k="addr:street" v="Spring Creek Drive"/><tag k="addr:housenumber" v="2300"/><tag k="coa:place_id" v="784988"/></node><node id="-52" lat="30.250149" lon="-97.782797" changeset="false"><tag k="addr:street" v="La Casa Drive"/><tag k="addr:housenumber" v="2412"/><tag k="coa:place_id" v="246900"/></node><node id="-53" lat="30.256351" lon="-97.779204" changeset="false"><tag k="addr:street" v="Westridge Drive"/><tag k="addr:housenumber" v="1807"/><tag k="coa:place_id" v="1153514"/></node><node id="-54" lat="30.25757" lon="-97.780625" changeset="false"><tag k="addr:street" v="Barton Hills Drive"/><tag k="addr:housenumber" v="1805"/><tag k="coa:place_id" v="1153505"/></node><node id="-55" lat="30.244284" lon="-97.781625" changeset="false"><tag k="addr:street" v="South Lamar Boulevard"/><tag k="addr:housenumber" v="2802"/><tag k="coa:place_id" v="144224"/></node><node id="-56" lat="30.258338" lon="-97.773082" changeset="false"><tag k="addr:street" v="Robert E Lee Road"/><tag k="addr:housenumber" v="1306"/><tag k="coa:place_id" v="249959"/></node><node id="-57" lat="30.254551" lon="-97.777609" changeset="false"><tag k="addr:street" v="Arthur Lane"/><tag k="addr:housenumber" v="1903"/><tag k="coa:place_id" v="779846"/></node><node id="-58" lat="30.254405" lon="-97.777613" changeset="false"><tag k="addr:street" v="Arthur Lane"/><tag k="addr:housenumber" v="1905"/><tag k="coa:place_id" v="1153520"/></node><node id="-59" lat="30.249356" lon="-97.781344" changeset="false"><tag k="addr:street" v="Montclaire Street"/><tag k="addr:housenumber" v="2308"/><tag k="coa:place_id" v="167415"/></node><node id="-60" lat="30.249332" lon="-97.781282" changeset="false"><tag k="addr:street" v="Montclaire Street"/><tag k="addr:housenumber" v="2306"/><tag k="coa:place_id" v="813116"/></node><node id="-61" lat="30.249403" lon="-97.781393" changeset="false"><tag k="addr:street" v="Montclaire Street"/><tag k="addr:housenumber" v="2310"/><tag k="coa:place_id" v="813128"/></node><node id="-62" lat="30.249435" lon="-97.781457" changeset="false"><tag k="addr:street" v="Montclaire Street"/><tag k="addr:housenumber" v="2312"/><tag k="coa:place_id" v="813134"/></node><node id="-63" lat="30.249474" lon="-97.781503" changeset="false"><tag k="addr:street" v="Montclaire Street"/><tag k="addr:housenumber" v="2314"/><tag k="coa:place_id" v="813140"/></node><node id="-64" lat="30.24418" lon="-97.78233" changeset="false"><tag k="addr:street" v="South Lamar Boulevard"/><tag k="addr:housenumber" v="2820"/><tag k="coa:place_id" v="144230"/></node><node id="-65" lat="30.244275" lon="-97.782194" changeset="false"><tag k="addr:street" v="South Lamar Boulevard"/><tag k="addr:housenumber" v="2818"/><tag k="coa:place_id" v="704907"/></node><node id="-66" lat="30.244573" lon="-97.782649" changeset="false"><tag k="addr:street" v="Barton Skyway"/><tag k="addr:housenumber" v="2216"/><tag k="coa:place_id" v="707900"/></node><node id="-67" lat="30.244504" lon="-97.782606" changeset="false"><tag k="addr:street" v="Barton Skyway"/><tag k="addr:housenumber" v="2218"/><tag k="coa:place_id" v="707906"/></node><node id="-68" lat="30.244425" lon="-97.78253" changeset="false"><tag k="addr:street" v="Barton Skyway"/><tag k="addr:housenumber" v="2220"/><tag k="coa:place_id" v="144536"/></node><node id="-69" lat="30.244369" lon="-97.782488" changeset="false"><tag k="addr:street" v="Barton Skyway"/><tag k="addr:housenumber" v="2222"/><tag k="coa:place_id" v="144542"/></node></osm>