<?xml version="1.0" encoding="UTF-8"?><osm version="0.6" generator="github.com/aaronlidman/osm-and-geojson"><node id="-1" lat="30.507978" lon="-97.740364" changeset="false"><tag k="addr:street" v="Pocono Drive"/><tag k="addr:housenumber" v="16712"/><tag k="coa:place_id" v="79541"/></node><node id="-2" lat="30.507537" lon="-97.73903" changeset="false"><tag k="addr:street" v="Whitebrush Loop"/><tag k="addr:housenumber" v="16714"/><tag k="coa:place_id" v="79586"/></node><node id="-3" lat="30.514452" lon="-97.740486" changeset="false"><tag k="addr:street" v="Hargis Creek Trail"/><tag k="addr:housenumber" v="1409"/><tag k="coa:place_id" v="3036968"/></node><node id="-4" lat="30.516406" lon="-97.740681" changeset="false"><tag k="addr:street" v="Sutter Creek Trail"/><tag k="addr:housenumber" v="1240"/><tag k="coa:place_id" v="3037014"/></node><node id="-5" lat="30.508328" lon="-97.73932" changeset="false"><tag k="addr:street" v="Shattuck Cove"/><tag k="addr:housenumber" v="8904"/><tag k="coa:place_id" v="79615"/></node><node id="-6" lat="30.508079" lon="-97.739678" changeset="false"><tag k="addr:street" v="Shattuck Cove"/><tag k="addr:housenumber" v="8907"/><tag k="coa:place_id" v="79621"/></node><node id="-7" lat="30.514376" lon="-97.740863" changeset="false"><tag k="addr:street" v="Hargis Creek Trail"/><tag k="addr:housenumber" v="1405"/><tag k="coa:place_id" v="3036966"/></node><node id="-8" lat="30.51547" lon="-97.740734" changeset="false"><tag k="addr:street" v="Warm Mist Cove"/><tag k="addr:housenumber" v="410"/><tag k="coa:place_id" v="3036956"/></node><node id="-9" lat="30.515219" lon="-97.737872" changeset="false"><tag k="addr:street" v="Softcloud Cove"/><tag k="addr:housenumber" v="402"/><tag k="coa:place_id" v="3036931"/></node><node id="-10" lat="30.515054" lon="-97.737254" changeset="false"><tag k="addr:street" v="Hillside Drive"/><tag k="addr:housenumber" v="17351"/><tag k="coa:place_id" v="88181"/></node><node id="-11" lat="30.50897" lon="-97.74045" changeset="false"><tag k="addr:street" v="Village Oak Loop"/><tag k="addr:housenumber" v="16809"/><tag k="coa:place_id" v="79528"/></node><node id="-12" lat="30.516629" lon="-97.741428" changeset="false"><tag k="addr:street" v="Sutterville Cove"/><tag k="addr:housenumber" v="203"/><tag k="coa:place_id" v="3037010"/></node><node id="-13" lat="30.516002" lon="-97.738829" changeset="false"><tag k="addr:street" v="Warm Moon Cove"/><tag k="addr:housenumber" v="408"/><tag k="coa:place_id" v="3036940"/></node><node id="-14" lat="30.515259" lon="-97.738897" changeset="false"><tag k="addr:street" v="Warm Moon Cove"/><tag k="addr:housenumber" v="401"/><tag k="coa:place_id" v="3036938"/></node><node id="-15" lat="30.514445" lon="-97.74125" changeset="false"><tag k="addr:street" v="Hargis Creek Trail"/><tag k="addr:housenumber" v="1401"/><tag k="coa:place_id" v="3036964"/></node><node id="-16" lat="30.515036" lon="-97.740784" changeset="false"><tag k="addr:street" v="Warm Mist Cove"/><tag k="addr:housenumber" v="403"/><tag k="coa:place_id" v="3036953"/></node><node id="-17" lat="30.517879" lon="-97.738728" changeset="false"><tag k="addr:street" v="Hargis Creek Trail"/><tag k="addr:housenumber" v="1465"/><tag k="coa:place_id" v="3037068"/></node><node id="-18" lat="30.517356" lon="-97.73975" changeset="false"><tag k="addr:street" v="Chesapeake Bay Lane North,1100"/><tag k="addr:housenumber" v="203"/><tag k="coa:place_id" v="3037048"/></node><node id="-19" lat="30.509392" lon="-97.740252" changeset="false"><tag k="addr:street" v="Village Oak Loop"/><tag k="addr:housenumber" v="16817"/><tag k="coa:place_id" v="79524"/></node><node id="-20" lat="30.508861" lon="-97.740497" changeset="false"><tag k="addr:street" v="Village Oak Loop"/><tag k="addr:housenumber" v="16807"/><tag k="coa:place_id" v="79529"/></node><node id="-21" lat="30.515664" lon="-97.741481" changeset="false"><tag k="addr:street" v="Sutter Creek Trail"/><tag k="addr:housenumber" v="1231"/><tag k="coa:place_id" v="3037023"/></node><node id="-22" lat="30.516679" lon="-97.738479" changeset="false"><tag k="addr:street" v="Hargis Creek Trail"/><tag k="addr:housenumber" v="1448"/><tag k="coa:place_id" v="3036997"/></node><node id="-23" lat="30.517279" lon="-97.737301" changeset="false"><tag k="addr:street" v="Powder Horn Drive"/><tag k="addr:housenumber" v="17405"/><tag k="coa:place_id" v="88174"/></node><node id="-24" lat="30.517308" lon="-97.74084" changeset="false"><tag k="addr:street" v="Kettleman Lane North,1100"/><tag k="addr:housenumber" v="207"/><tag k="coa:place_id" v="3037034"/></node><node id="-25" lat="30.517863" lon="-97.73997" changeset="false"><tag k="addr:street" v="Chesapeake Bay Lane North,1100"/><tag k="addr:housenumber" v="209"/><tag k="coa:place_id" v="3037047"/></node><node id="-26" lat="30.506935" lon="-97.738836" changeset="false"><tag k="addr:street" v="Whitebrush Loop"/><tag k="addr:housenumber" v="16721"/><tag k="coa:place_id" v="79568"/></node><node id="-27" lat="30.516274" lon="-97.73927" changeset="false"><tag k="addr:street" v="Chesapeake Bay Lane North,1100"/><tag k="addr:housenumber" v="309"/><tag k="coa:place_id" v="3037056"/></node><node id="-28" lat="30.516849" lon="-97.738555" changeset="false"><tag k="addr:street" v="Hargis Creek Trail"/><tag k="addr:housenumber" v="1450"/><tag k="coa:place_id" v="3036998"/></node><node id="-29" lat="30.515907" lon="-97.741431" changeset="false"><tag k="addr:street" v="Sutter Creek Trail"/><tag k="addr:housenumber" v="1233"/><tag k="coa:place_id" v="3037013"/></node><node id="-30" lat="30.508555" lon="-97.739649" changeset="false"><tag k="addr:street" v="Pocono Drive"/><tag k="addr:housenumber" v="16805"/><tag k="coa:place_id" v="79561"/></node><node id="-31" lat="30.507272" lon="-97.738524" changeset="false"><tag k="addr:street" v="Whitebrush Loop"/><tag k="addr:housenumber" v="16727"/><tag k="coa:place_id" v="79571"/></node><node id="-32" lat="30.515598" lon="-97.739018" changeset="false"><tag k="addr:street" v="Warm Moon Cove"/><tag k="addr:housenumber" v="405"/><tag k="coa:place_id" v="3036936"/></node><node id="-33" lat="30.515478" lon="-97.739987" changeset="false"><tag k="addr:street" v="Warm Breeze Cove"/><tag k="addr:housenumber" v="407"/><tag k="coa:place_id" v="3036943"/></node><node id="-34" lat="30.516134" lon="-97.740312" changeset="false"><tag k="addr:street" v="Kettleman Lane North,1100"/><tag k="addr:housenumber" v="305"/><tag k="coa:place_id" v="3037025"/></node><node id="-35" lat="30.51536" lon="-97.740894" changeset="false"><tag k="addr:street" v="Warm Mist Cove"/><tag k="addr:housenumber" v="407"/><tag k="coa:place_id" v="3036955"/></node><node id="-36" lat="30.516037" lon="-97.738259" changeset="false"><tag k="addr:street" v="Hargis Creek Trail"/><tag k="addr:housenumber" v="1440"/><tag k="coa:place_id" v="3036989"/></node><node id="-37" lat="30.515938" lon="-97.740205" changeset="false"><tag k="addr:street" v="Kettleman Lane North,1100"/><tag k="addr:housenumber" v="307"/><tag k="coa:place_id" v="3037026"/></node><node id="-38" lat="30.516885" lon="-97.739539" changeset="false"><tag k="addr:street" v="Chesapeake Bay Lane North,1100"/><tag k="addr:housenumber" v="301"/><tag k="coa:place_id" v="3037064"/></node><node id="-39" lat="30.507979" lon="-97.740467" changeset="false"><tag k="addr:street" v="Pocono Drive"/><tag k="addr:housenumber" v="16708"/><tag k="coa:place_id" v="79539"/></node><node id="-40" lat="30.51752" lon="-97.739851" changeset="false"><tag k="addr:street" v="Chesapeake Bay Lane North,1100"/><tag k="addr:housenumber" v="205"/><tag k="coa:place_id" v="3037054"/></node><node id="-41" lat="30.509335" lon="-97.739737" changeset="false"><tag k="addr:street" v="Pocono Drive"/><tag k="addr:housenumber" v="16818"/><tag k="coa:place_id" v="79552"/></node><node id="-42" lat="30.515609" lon="-97.738275" changeset="false"><tag k="addr:street" v="Hargis Creek Trail"/><tag k="addr:housenumber" v="1436"/><tag k="coa:place_id" v="3036987"/></node><node id="-43" lat="30.518965" lon="-97.734992" changeset="false"><tag k="addr:street" v="Great Oaks Cove"/><tag k="addr:housenumber" v="17604"/><tag k="coa:place_id" v="88313"/></node><node id="-44" lat="30.517168" lon="-97.73871" changeset="false"><tag k="addr:street" v="Hargis Creek Trail"/><tag k="addr:housenumber" v="1454"/><tag k="coa:place_id" v="3037065"/></node><node id="-45" lat="30.517454" lon="-97.740962" changeset="false"><tag k="addr:street" v="Kettleman Lane North,1100"/><tag k="addr:housenumber" v="209"/><tag k="coa:place_id" v="3037035"/></node><node id="-46" lat="30.520435" lon="-97.736448" changeset="false"><tag k="addr:street" v="Powder Horn Drive"/><tag k="addr:housenumber" v="17606"/><tag k="coa:place_id" v="88162"/></node><node id="-47" lat="30.507071" lon="-97.739682" changeset="false"><tag k="addr:street" v="Whitebrush Loop"/><tag k="addr:housenumber" v="16709"/><tag k="coa:place_id" v="79564"/></node><node id="-48" lat="30.516567" lon="-97.740365" changeset="false"><tag k="addr:street" v="Kettleman Lane North,1100"/><tag k="addr:housenumber" v="301"/><tag k="coa:place_id" v="3037027"/></node><node id="-49" lat="30.516473" lon="-97.741229" changeset="false"><tag k="addr:street" v="Sutterville Cove"/><tag k="addr:housenumber" v="201"/><tag k="coa:place_id" v="3037004"/></node><node id="-50" lat="30.517304" lon="-97.734631" changeset="false"><tag k="addr:street" v="Great Oaks Cove"/><tag k="addr:housenumber" v="17504"/><tag k="coa:place_id" v="88305"/></node><node id="-51" lat="30.517461" lon="-97.738821" changeset="false"><tag k="addr:street" v="Hargis Creek Trail"/><tag k="addr:housenumber" v="1458"/><tag k="coa:place_id" v="3037070"/></node><node id="-52" lat="30.509126" lon="-97.738379" changeset="false"><tag k="addr:street" v="Pocono Cove"/><tag k="addr:housenumber" v="8902"/><tag k="coa:place_id" v="88884"/></node><node id="-53" lat="30.507486" lon="-97.7393" changeset="false"><tag k="addr:street" v="Whitebrush Loop"/><tag k="addr:housenumber" v="16710"/><tag k="coa:place_id" v="79584"/></node><node id="-54" lat="30.515157" lon="-97.739821" changeset="false"><tag k="addr:street" v="Warm Breeze Cove"/><tag k="addr:housenumber" v="403"/><tag k="coa:place_id" v="3036945"/></node><node id="-55" lat="30.517674" lon="-97.739955" changeset="false"><tag k="addr:street" v="Chesapeake Bay Lane North,1100"/><tag k="addr:housenumber" v="207"/><tag k="coa:place_id" v="3037046"/></node><node id="-56" lat="30.517624" lon="-97.738925" changeset="false"><tag k="addr:street" v="Hargis Creek Trail"/><tag k="addr:housenumber" v="1460"/><tag k="coa:place_id" v="3037071"/></node><node id="-57" lat="30.515508" lon="-97.741482" changeset="false"><tag k="addr:street" v="Sutter Creek Trail"/><tag k="addr:housenumber" v="1229"/><tag k="coa:place_id" v="3037022"/></node><node id="-58" lat="30.51641" lon="-97.739416" changeset="false"><tag k="addr:street" v="Chesapeake Bay Lane North,1100"/><tag k="addr:housenumber" v="307"/><tag k="coa:place_id" v="3037055"/></node><node id="-59" lat="30.508791" lon="-97.738656" changeset="false"><tag k="addr:street" v="Pocono Cove"/><tag k="addr:housenumber" v="8903"/><tag k="coa:place_id" v="88889"/></node><node id="-60" lat="30.515383" lon="-97.738509" changeset="false"><tag k="addr:street" v="Hargis Creek Trail"/><tag k="addr:housenumber" v="1434"/><tag k="coa:place_id" v="3036942"/></node><node id="-61" lat="30.516395" lon="-97.740278" changeset="false"><tag k="addr:street" v="Kettleman Lane North,1100"/><tag k="addr:housenumber" v="303"/><tag k="coa:place_id" v="3037033"/></node><node id="-62" lat="30.516237" lon="-97.741334" changeset="false"><tag k="addr:street" v="Sutter Creek Trail"/><tag k="addr:housenumber" v="1237"/><tag k="coa:place_id" v="3037012"/></node><node id="-63" lat="30.509272" lon="-97.740299" changeset="false"><tag k="addr:street" v="Village Oak Loop"/><tag k="addr:housenumber" v="16815"/><tag k="coa:place_id" v="79525"/></node><node id="-64" lat="30.508658" lon="-97.739598" changeset="false"><tag k="addr:street" v="Pocono Drive"/><tag k="addr:housenumber" v="16807"/><tag k="coa:place_id" v="79560"/></node><node id="-65" lat="30.518745" lon="-97.734932" changeset="false"><tag k="addr:street" v="Great Oaks Cove"/><tag k="addr:housenumber" v="17602"/><tag k="coa:place_id" v="88312"/></node><node id="-66" lat="30.507938" lon="-97.739263" changeset="false"><tag k="addr:street" v="Shattuck Cove"/><tag k="addr:housenumber" v="8901"/><tag k="coa:place_id" v="79618"/></node><node id="-67" lat="30.516574" lon="-97.739428" changeset="false"><tag k="addr:street" v="Chesapeake Bay Lane North,1100"/><tag k="addr:housenumber" v="305"/><tag k="coa:place_id" v="3037063"/></node><node id="-68" lat="30.508034" lon="-97.739568" changeset="false"><tag k="addr:street" v="Shattuck Cove"/><tag k="addr:housenumber" v="8905"/><tag k="coa:place_id" v="79620"/></node><node id="-69" lat="30.51804" lon="-97.738172" changeset="false"><tag k="addr:street" v="Powder Horn Drive"/><tag k="addr:housenumber" v="17414"/><tag k="coa:place_id" v="88149"/></node><node id="-70" lat="30.517939" lon="-97.739802" changeset="false"><tag k="addr:street" v="Chesapeake Bay Lane North,1100"/><tag k="addr:housenumber" v="210"/><tag k="coa:place_id" v="3037053"/></node><node id="-71" lat="30.517636" lon="-97.737447" changeset="false"><tag k="addr:street" v="Powder Horn Drive"/><tag k="addr:housenumber" v="17409"/><tag k="coa:place_id" v="88176"/></node><node id="-72" lat="30.515314" lon="-97.738048" changeset="false"><tag k="addr:street" v="Softcloud Cove"/><tag k="addr:housenumber" v="400"/><tag k="coa:place_id" v="3036934"/></node><node id="-73" lat="30.50964" lon="-97.737411" changeset="false"><tag k="addr:street" v="Whitebrush Loop"/><tag k="addr:housenumber" v="16911"/><tag k="coa:place_id" v="151402"/></node><node id="-74" lat="30.516947" lon="-97.734389" changeset="false"><tag k="addr:street" v="Great Oaks Cove"/><tag k="addr:housenumber" v="17500"/><tag k="coa:place_id" v="88303"/></node><node id="-75" lat="30.506957" lon="-97.738667" changeset="false"><tag k="addr:street" v="Whitebrush Loop"/><tag k="addr:housenumber" v="16723"/><tag k="coa:place_id" v="79569"/></node><node id="-76" lat="30.519174" lon="-97.734898" changeset="false"><tag k="addr:street" v="Great Oaks Cove"/><tag k="addr:housenumber" v="17606"/><tag k="coa:place_id" v="88314"/></node><node id="-77" lat="30.515007" lon="-97.741516" changeset="false"><tag k="addr:street" v="Sutter Creek Trail"/><tag k="addr:housenumber" v="1223"/><tag k="coa:place_id" v="3037019"/></node><node id="-78" lat="30.518874" lon="-97.738207" changeset="false"><tag k="addr:street" v="Powder Horn Drive"/><tag k="addr:housenumber" v="17422"/><tag k="coa:place_id" v="88153"/></node><node id="-79" lat="30.518813" lon="-97.73706" changeset="false"><tag k="addr:street" v="Powder Horn Drive"/><tag k="addr:housenumber" v="17507"/><tag k="coa:place_id" v="3098596"/></node><node id="-80" lat="30.517024" lon="-97.74062" changeset="false"><tag k="addr:street" v="Kettleman Lane North,1100"/><tag k="addr:housenumber" v="203"/><tag k="coa:place_id" v="3037038"/></node><node id="-81" lat="30.514388" lon="-97.741073" changeset="false"><tag k="addr:street" v="Hargis Creek Trail"/><tag k="addr:housenumber" v="1403"/><tag k="coa:place_id" v="3036965"/></node><node id="-82" lat="30.515341" lon="-97.741497" changeset="false"><tag k="addr:street" v="Sutter Creek Trail"/><tag k="addr:housenumber" v="1227"/><tag k="coa:place_id" v="3037021"/></node><node id="-83" lat="30.507828" lon="-97.739422" changeset="false"><tag k="addr:street" v="Shattuck Cove"/><tag k="addr:housenumber" v="8903"/><tag k="coa:place_id" v="79619"/></node><node id="-84" lat="30.516159" lon="-97.736829" changeset="false"><tag k="addr:street" v="Powder Horn Drive"/><tag k="addr:housenumber" v="17311"/><tag k="coa:place_id" v="88168"/></node><node id="-85" lat="30.514777" lon="-97.738113" changeset="false"><tag k="addr:street" v="Hillside Drive"/><tag k="addr:housenumber" v="17359"/><tag k="coa:place_id" v="88185"/></node><node id="-86" lat="30.516524" lon="-97.738432" changeset="false"><tag k="addr:street" v="Hargis Creek Trail"/><tag k="addr:housenumber" v="1446"/><tag k="coa:place_id" v="3036992"/></node><node id="-87" lat="30.509066" lon="-97.740391" changeset="false"><tag k="addr:street" v="Village Oak Loop"/><tag k="addr:housenumber" v="16811"/><tag k="coa:place_id" v="79527"/></node><node id="-88" lat="30.509639" lon="-97.739963" changeset="false"><tag k="addr:street" v="Village Oak Loop"/><tag k="addr:housenumber" v="16823"/><tag k="coa:place_id" v="79521"/></node><node id="-89" lat="30.514645" lon="-97.738548" changeset="false"><tag k="addr:street" v="Hillside Drive"/><tag k="addr:housenumber" v="17363"/><tag k="coa:place_id" v="88187"/></node><node id="-90" lat="30.52006" lon="-97.73595" changeset="false"><tag k="addr:street" v="Powder Horn Drive"/><tag k="addr:housenumber" v="17609"/><tag k="coa:place_id" v="88166"/></node><node id="-91" lat="30.520144" lon="-97.735868" changeset="false"><tag k="addr:street" v="Powder Horn Drive"/><tag k="addr:housenumber" v="17611"/><tag k="coa:place_id" v="88165"/></node><node id="-92" lat="30.517023" lon="-97.738622" changeset="false"><tag k="addr:street" v="Hargis Creek Trail"/><tag k="addr:housenumber" v="1452"/><tag k="coa:place_id" v="3036999"/></node><node id="-93" lat="30.517565" lon="-97.741094" changeset="false"><tag k="addr:street" v="Kettleman Lane North,1100"/><tag k="addr:housenumber" v="211"/><tag k="coa:place_id" v="3037036"/></node><node id="-94" lat="30.515419" lon="-97.738958" changeset="false"><tag k="addr:street" v="Warm Moon Cove"/><tag k="addr:housenumber" v="403"/><tag k="coa:place_id" v="3036935"/></node><node id="-95" lat="30.515174" lon="-97.741505" changeset="false"><tag k="addr:street" v="Sutter Creek Trail"/><tag k="addr:housenumber" v="1225"/><tag k="coa:place_id" v="3037020"/></node><node id="-96" lat="30.51582" lon="-97.73821" changeset="false"><tag k="addr:street" v="Hargis Creek Trail"/><tag k="addr:housenumber" v="1438"/><tag k="coa:place_id" v="3036988"/></node><node id="-97" lat="30.517167" lon="-97.740729" changeset="false"><tag k="addr:street" v="Kettleman Lane North,1100"/><tag k="addr:housenumber" v="205"/><tag k="coa:place_id" v="3037045"/></node><node id="-98" lat="30.507869" lon="-97.740409" changeset="false"><tag k="addr:street" v="Pocono Drive"/><tag k="addr:housenumber" v="16710"/><tag k="coa:place_id" v="79540"/></node><node id="-99" lat="30.51594" lon="-97.739092" changeset="false"><tag k="addr:street" v="Warm Moon Cove"/><tag k="addr:housenumber" v="409"/><tag k="coa:place_id" v="3036937"/></node><node id="-100" lat="30.515754" lon="-97.739835" changeset="false"><tag k="addr:street" v="Warm Breeze Cove"/><tag k="addr:housenumber" v="410"/><tag k="coa:place_id" v="3036951"/></node><node id="-101" lat="30.509891" lon="-97.737784" changeset="false"><tag k="addr:street" v="Whitebrush Loop"/><tag k="addr:housenumber" v="16917"/><tag k="coa:place_id" v="79608"/></node><node id="-102" lat="30.508831" lon="-97.738783" changeset="false"><tag k="addr:street" v="Pocono Cove"/><tag k="addr:housenumber" v="8905"/><tag k="coa:place_id" v="88890"/></node><node id="-103" lat="30.514796" lon="-97.741542" changeset="false"><tag k="addr:street" v="Sutter Creek Trail"/><tag k="addr:housenumber" v="1221"/><tag k="coa:place_id" v="3037018"/></node><node id="-104" lat="30.515736" lon="-97.739106" changeset="false"><tag k="addr:street" v="Warm Moon Cove"/><tag k="addr:housenumber" v="407"/><tag k="coa:place_id" v="3036941"/></node><node id="-105" lat="30.508024" lon="-97.738059" changeset="false"><tag k="addr:street" v="Whitebrush Loop"/><tag k="addr:housenumber" v="16805"/><tag k="coa:place_id" v="79574"/></node><node id="-106" lat="30.515305" lon="-97.736188" changeset="false"><tag k="addr:street" v="Hillside Drive"/><tag k="addr:housenumber" v="17343"/><tag k="coa:place_id" v="88180"/></node><node id="-107" lat="30.515182" lon="-97.740868" changeset="false"><tag k="addr:street" v="Warm Mist Cove"/><tag k="addr:housenumber" v="405"/><tag k="coa:place_id" v="3036954"/></node><node id="-108" lat="30.517754" lon="-97.741127" changeset="false"><tag k="addr:street" v="Kettleman Lane North,1100"/><tag k="addr:housenumber" v="213"/><tag k="coa:place_id" v="3037037"/></node><node id="-109" lat="30.517474" lon="-97.737353" changeset="false"><tag k="addr:street" v="Powder Horn Drive"/><tag k="addr:housenumber" v="17407"/><tag k="coa:place_id" v="88175"/></node><node id="-110" lat="30.520318" lon="-97.736544" changeset="false"><tag k="addr:street" v="Powder Horn Drive"/><tag k="addr:housenumber" v="17604"/><tag k="coa:place_id" v="88161"/></node><node id="-111" lat="30.517832" lon="-97.738906" changeset="false"><tag k="addr:street" v="Hargis Creek Trail"/><tag k="addr:housenumber" v="1462"/><tag k="coa:place_id" v="3037072"/></node><node id="-112" lat="30.515317" lon="-97.739908" changeset="false"><tag k="addr:street" v="Warm Breeze Cove"/><tag k="addr:housenumber" v="405"/><tag k="coa:place_id" v="3036952"/></node><node id="-113" lat="30.51674" lon="-97.739492" changeset="false"><tag k="addr:street" v="Chesapeake Bay Lane North,1100"/><tag k="addr:housenumber" v="303"/><tag k="coa:place_id" v="3037057"/></node><node id="-114" lat="30.516365" lon="-97.738348" changeset="false"><tag k="addr:street" v="Hargis Creek Trail"/><tag k="addr:housenumber" v="1444"/><tag k="coa:place_id" v="3036991"/></node><node id="-115" lat="30.515754" lon="-97.739647" changeset="false"><tag k="addr:street" v="Warm Breeze Cove"/><tag k="addr:housenumber" v="408"/><tag k="coa:place_id" v="3036950"/></node><node id="-116" lat="30.51564" lon="-97.739982" changeset="false"><tag k="addr:street" v="Warm Breeze Cove"/><tag k="addr:housenumber" v="409"/><tag k="coa:place_id" v="3036944"/></node><node id="-117" lat="30.509482" lon="-97.740147" changeset="false"><tag k="addr:street" v="Village Oak Loop"/><tag k="addr:housenumber" v="16819"/><tag k="coa:place_id" v="79523"/></node><node id="-118" lat="30.516203" lon="-97.738314" changeset="false"><tag k="addr:street" v="Hargis Creek Trail"/><tag k="addr:housenumber" v="1442"/><tag k="coa:place_id" v="3036990"/></node><node id="-119" lat="30.507859" lon="-97.741013" changeset="false"><tag k="addr:street" v="Village Oak Loop"/><tag k="addr:housenumber" v="16723"/><tag k="coa:place_id" v="79536"/></node><node id="-120" lat="30.507892" lon="-97.741091" changeset="false"><tag k="addr:street" v="Village Oak Loop"/><tag k="addr:housenumber" v="16727"/><tag k="coa:place_id" v="79534"/></node><node id="-121" lat="30.507875" lon="-97.741052" changeset="false"><tag k="addr:street" v="Village Oak Loop"/><tag k="addr:housenumber" v="16725"/><tag k="coa:place_id" v="79535"/></node><node id="-122" lat="30.507842" lon="-97.740974" changeset="false"><tag k="addr:street" v="Village Oak Loop"/><tag k="addr:housenumber" v="16721"/><tag k="coa:place_id" v="79537"/></node><node id="-123" lat="30.507908" lon="-97.74113" changeset="false"><tag k="addr:street" v="Village Oak Loop"/><tag k="addr:housenumber" v="16729"/><tag k="coa:place_id" v="79533"/></node></osm>