<?xml version="1.0" encoding="UTF-8"?><osm version="0.6" generator="github.com/aaronlidman/osm-and-geojson"><node id="-1" lat="30.227276" lon="-97.702745" changeset="false"><tag k="addr:street" v="Caddie Street"/><tag k="addr:housenumber" v="6211"/><tag k="addr:postcode" v="78741"/></node><node id="-2" lat="30.227114" lon="-97.703324" changeset="false"><tag k="addr:street" v="Langham Street"/><tag k="addr:housenumber" v="6204"/><tag k="addr:postcode" v="78741"/></node><node id="-3" lat="30.23559" lon="-97.701393" changeset="false"><tag k="addr:street" v="Club Terrace"/><tag k="addr:housenumber" v="6002"/><tag k="addr:postcode" v="78741"/></node><node id="-4" lat="30.235236" lon="-97.701601" changeset="false"><tag k="addr:street" v="Club Terrace"/><tag k="addr:housenumber" v="6003"/><tag k="addr:postcode" v="78741"/></node><node id="-5" lat="30.228446" lon="-97.701974" changeset="false"><tag k="addr:street" v="Fairway Street"/><tag k="addr:housenumber" v="6216 1/2"/><tag k="addr:postcode" v="78741"/></node><node id="-6" lat="30.227439" lon="-97.703858" changeset="false"><tag k="addr:street" v="Brassie Street"/><tag k="addr:housenumber" v="1708"/><tag k="addr:postcode" v="78741"/></node><node id="-7" lat="30.235345" lon="-97.702486" changeset="false"><tag k="addr:street" v="Grove Boulevard"/><tag k="addr:housenumber" v="1015"/><tag k="addr:postcode" v="78741"/></node><node id="-8" lat="30.226251" lon="-97.703628" changeset="false"><tag k="addr:street" v="Kasper Street"/><tag k="addr:housenumber" v="6206"/><tag k="addr:postcode" v="78741"/></node><node id="-9" lat="30.22695" lon="-97.702405" changeset="false"><tag k="addr:street" v="Montopolis Drive"/><tag k="addr:housenumber" v="1706"/><tag k="addr:postcode" v="78741"/></node><node id="-10" lat="30.226132" lon="-97.702855" changeset="false"><tag k="addr:street" v="Montopolis Drive"/><tag k="addr:housenumber" v="1808"/><tag k="addr:postcode" v="78741"/></node><node id="-11" lat="30.228755" lon="-97.701353" changeset="false"><tag k="addr:street" v="Montopolis Drive"/><tag k="addr:housenumber" v="1500"/><tag k="addr:postcode" v="78741"/></node><node id="-12" lat="30.228105" lon="-97.702137" changeset="false"><tag k="addr:street" v="Fairway Street"/><tag k="addr:housenumber" v="6209"/><tag k="addr:postcode" v="78741"/></node><node id="-13" lat="30.236579" lon="-97.701882" changeset="false"><tag k="addr:street" v="Hogan Avenue"/><tag k="addr:housenumber" v="5909"/><tag k="addr:postcode" v="78741"/></node><node id="-14" lat="30.229005" lon="-97.703097" changeset="false"><tag k="addr:street" v="Fairway Street"/><tag k="addr:housenumber" v="6118"/><tag k="addr:postcode" v="78741"/></node><node id="-15" lat="30.226417" lon="-97.705735" changeset="false"><tag k="addr:street" v="East Riverside Drive"/><tag k="addr:housenumber" v="6100"/><tag k="addr:postcode" v="78741"/></node><node id="-16" lat="30.226716" lon="-97.706277" changeset="false"><tag k="addr:street" v="East Riverside Drive"/><tag k="addr:housenumber" v="6010"/><tag k="addr:postcode" v="78741"/></node><node id="-17" lat="30.229705" lon="-97.705308" changeset="false"><tag k="addr:street" v="Fairway Street"/><tag k="addr:housenumber" v="6003 1/2"/><tag k="addr:postcode" v="78741"/></node><node id="-18" lat="30.227534" lon="-97.703806" changeset="false"><tag k="addr:street" v="Brassie Street"/><tag k="addr:housenumber" v="1706"/><tag k="addr:postcode" v="78741"/></node><node id="-19" lat="30.226177" lon="-97.705386" changeset="false"><tag k="addr:street" v="East Riverside Drive"/><tag k="addr:housenumber" v="6108"/><tag k="addr:postcode" v="78741"/></node><node id="-20" lat="30.235607" lon="-97.7029" changeset="false"><tag k="addr:street" v="Grove Boulevard"/><tag k="addr:housenumber" v="1101"/><tag k="addr:postcode" v="78741"/></node><node id="-21" lat="30.230653" lon="-97.7048" changeset="false"><tag k="addr:street" v="Marigold Terrace"/><tag k="addr:housenumber" v="6000"/><tag k="addr:postcode" v="78741"/></node><node id="-22" lat="30.22717" lon="-97.707436" changeset="false"><tag k="addr:street" v="East Riverside Drive"/><tag k="addr:housenumber" v="5900"/><tag k="addr:postcode" v="78741"/></node><node id="-23" lat="30.230045" lon="-97.705302" changeset="false"><tag k="addr:street" v="Fairway Street"/><tag k="addr:housenumber" v="6000"/><tag k="addr:postcode" v="78741"/></node><node id="-24" lat="30.228492" lon="-97.701406" changeset="false"><tag k="addr:street" v="Montopolis Drive"/><tag k="addr:housenumber" v="1508"/><tag k="addr:postcode" v="78741"/></node><node id="-25" lat="30.234328" lon="-97.697933" changeset="false"><tag k="addr:street" v="Montopolis Drive"/><tag k="addr:housenumber" v="920"/><tag k="addr:postcode" v="78741"/></node><node id="-26" lat="30.228635" lon="-97.706148" changeset="false"><tag k="addr:street" v="Grove Boulevard"/><tag k="addr:housenumber" v="1881"/><tag k="addr:postcode" v="78741"/></node><node id="-27" lat="30.228958" lon="-97.704327" changeset="false"><tag k="addr:street" v="Fairway Street"/><tag k="addr:housenumber" v="6101"/><tag k="addr:postcode" v="78741"/></node><node id="-28" lat="30.227504" lon="-97.701999" changeset="false"><tag k="addr:street" v="Montopolis Drive"/><tag k="addr:housenumber" v="1612"/><tag k="addr:postcode" v="78741"/></node><node id="-29" lat="30.228142" lon="-97.702104" changeset="false"><tag k="addr:street" v="Fairway Street"/><tag k="addr:housenumber" v="6215"/><tag k="addr:postcode" v="78741"/></node><node id="-30" lat="30.229409" lon="-97.704715" changeset="false"><tag k="addr:street" v="Fairway Street"/><tag k="addr:housenumber" v="6009"/><tag k="addr:postcode" v="78741"/></node><node id="-31" lat="30.235086" lon="-97.701248" changeset="false"><tag k="addr:street" v="Club Terrace"/><tag k="addr:housenumber" v="6007"/><tag k="addr:postcode" v="78741"/></node><node id="-32" lat="30.228665" lon="-97.702527" changeset="false"><tag k="addr:street" v="Fairway Street"/><tag k="addr:housenumber" v="6204"/><tag k="addr:postcode" v="78741"/></node><node id="-33" lat="30.235256" lon="-97.702541" changeset="false"><tag k="addr:street" v="Grove Boulevard"/><tag k="addr:housenumber" v="1017"/><tag k="addr:postcode" v="78741"/></node><node id="-34" lat="30.226514" lon="-97.704948" changeset="false"><tag k="addr:street" v="Kasper Street"/><tag k="addr:housenumber" v="6115"/><tag k="addr:postcode" v="78741"/></node><node id="-35" lat="30.227915" lon="-97.701739" changeset="false"><tag k="addr:street" v="Montopolis Drive"/><tag k="addr:housenumber" v="1604"/><tag k="addr:postcode" v="78741"/></node><node id="-36" lat="30.232177" lon="-97.701551" changeset="false"><tag k="addr:street" v="Begonia Circle"/><tag k="addr:housenumber" v="6111"/><tag k="addr:postcode" v="78741"/></node><node id="-37" lat="30.227015" lon="-97.702357" changeset="false"><tag k="addr:street" v="Montopolis Drive"/><tag k="addr:housenumber" v="1704"/><tag k="addr:postcode" v="78741"/></node><node id="-38" lat="30.235718" lon="-97.70225" changeset="false"><tag k="addr:street" v="Grove Boulevard"/><tag k="addr:housenumber" v="1007"/><tag k="addr:postcode" v="78741"/></node><node id="-39" lat="30.235543" lon="-97.702352" changeset="false"><tag k="addr:street" v="Grove Boulevard"/><tag k="addr:housenumber" v="1011"/><tag k="addr:postcode" v="78741"/></node><node id="-40" lat="30.23563" lon="-97.702297" changeset="false"><tag k="addr:street" v="Grove Boulevard"/><tag k="addr:housenumber" v="1009"/><tag k="addr:postcode" v="78741"/></node><node id="-41" lat="30.227871" lon="-97.701922" changeset="false"><tag k="addr:street" v="Montopolis Drive"/><tag k="addr:housenumber" v="1606"/><tag k="addr:postcode" v="78741"/></node><node id="-42" lat="30.227821" lon="-97.701975" changeset="false"><tag k="addr:street" v="Montopolis Drive"/><tag k="addr:housenumber" v="1608"/><tag k="addr:postcode" v="78741"/></node><node id="-43" lat="30.227771" lon="-97.702019" changeset="false"><tag k="addr:street" v="Montopolis Drive"/><tag k="addr:housenumber" v="1610"/><tag k="addr:postcode" v="78741"/></node><node id="-44" lat="30.227948" lon="-97.701874" changeset="false"><tag k="addr:street" v="Montopolis Drive"/><tag k="addr:housenumber" v="1600"/><tag k="addr:postcode" v="78741"/></node><node id="-45" lat="30.235175" lon="-97.702585" changeset="false"><tag k="addr:street" v="Grove Boulevard"/><tag k="addr:housenumber" v="1019"/><tag k="addr:postcode" v="78741"/></node><node id="-46" lat="30.235092" lon="-97.702645" changeset="false"><tag k="addr:street" v="Grove Boulevard"/><tag k="addr:housenumber" v="1021"/><tag k="addr:postcode" v="78741"/></node><node id="-47" lat="30.226803" lon="-97.702523" changeset="false"><tag k="addr:street" v="Montopolis Drive"/><tag k="addr:housenumber" v="1710"/><tag k="addr:postcode" v="78741"/></node><node id="-48" lat="30.226864" lon="-97.702499" changeset="false"><tag k="addr:street" v="Montopolis Drive"/><tag k="addr:housenumber" v="1708"/><tag k="addr:postcode" v="78741"/></node></osm>