<?xml version="1.0" encoding="UTF-8"?><osm version="0.6" generator="github.com/aaronlidman/osm-and-geojson"><node id="-1" lat="30.273447" lon="-97.756497" changeset="false"><tag k="addr:street" v="Blanco Street"/><tag k="addr:housenumber" v="615"/><tag k="coa:place_id" v="101993"/></node><node id="-2" lat="30.276353" lon="-97.759334" changeset="false"><tag k="addr:street" v="Oakland Avenue"/><tag k="addr:housenumber" v="801"/><tag k="coa:place_id" v="239570"/></node><node id="-3" lat="30.275883" lon="-97.761577" changeset="false"><tag k="addr:street" v="West Lynn Street"/><tag k="addr:housenumber" v="613"/><tag k="coa:place_id" v="239006"/></node><node id="-4" lat="30.275663" lon="-97.759765" changeset="false"><tag k="addr:street" v="Oakland Avenue"/><tag k="addr:housenumber" v="703"/><tag k="coa:place_id" v="248526"/></node><node id="-5" lat="30.271683" lon="-97.753947" changeset="false"><tag k="addr:street" v="West 6th Street"/><tag k="addr:housenumber" v="1000"/><tag k="coa:place_id" v="1002116"/></node><node id="-6" lat="30.273224" lon="-97.755424" changeset="false"><tag k="addr:street" v="West 7th Street"/><tag k="addr:housenumber" v="1111"/><tag k="coa:place_id" v="168950"/></node><node id="-7" lat="30.273764" lon="-97.757916" changeset="false"><tag k="addr:street" v="Harthan Street"/><tag k="addr:housenumber" v="602"/><tag k="coa:place_id" v="240284"/></node><node id="-8" lat="30.275192" lon="-97.755919" changeset="false"><tag k="addr:street" v="Blanco Street"/><tag k="addr:housenumber" v="810"/><tag k="coa:place_id" v="169508"/></node><node id="-9" lat="30.273969" lon="-97.756628" changeset="false"><tag k="addr:street" v="Blanco Street"/><tag k="addr:housenumber" v="620"/><tag k="coa:place_id" v="5092197"/></node><node id="-10" lat="30.276038" lon="-97.757925" changeset="false"><tag k="addr:street" v="Winflo Drive"/><tag k="addr:housenumber" v="812"/><tag k="coa:place_id" v="94365"/></node><node id="-11" lat="30.274995" lon="-97.761976" changeset="false"><tag k="addr:street" v="West 6th Street"/><tag k="addr:housenumber" v="1506"/><tag k="coa:place_id" v="239180"/></node><node id="-12" lat="30.273378" lon="-97.755821" changeset="false"><tag k="addr:street" v="West 7th Street"/><tag k="addr:housenumber" v="1115"/><tag k="coa:place_id" v="191575"/></node><node id="-13" lat="30.275984" lon="-97.76003" changeset="false"><tag k="addr:street" v="Oakland Avenue"/><tag k="addr:housenumber" v="704"/><tag k="coa:place_id" v="239528"/></node><node id="-14" lat="30.275081" lon="-97.75599" changeset="false"><tag k="addr:street" v="Blanco Street"/><tag k="addr:housenumber" v="808"/><tag k="coa:place_id" v="169496"/></node><node id="-15" lat="30.274669" lon="-97.759981" changeset="false"><tag k="addr:street" v="Pressler Street"/><tag k="addr:housenumber" v="606"/><tag k="coa:place_id" v="239732"/></node><node id="-16" lat="30.273785" lon="-97.756733" changeset="false"><tag k="addr:street" v="Blanco Street"/><tag k="addr:housenumber" v="616"/><tag k="coa:place_id" v="5092196"/></node><node id="-17" lat="30.274292" lon="-97.756955" changeset="false"><tag k="addr:street" v="Blanco Street"/><tag k="addr:housenumber" v="704"/><tag k="coa:place_id" v="5092203"/></node><node id="-18" lat="30.273181" lon="-97.753562" changeset="false"><tag k="addr:street" v="North Lamar Boulevard"/><tag k="addr:housenumber" v="702"/><tag k="coa:place_id" v="1122807"/></node><node id="-19" lat="30.272665" lon="-97.753768" changeset="false"><tag k="addr:street" v="North Lamar Boulevard"/><tag k="addr:housenumber" v="626"/><tag k="coa:place_id" v="240932"/></node><node id="-20" lat="30.27175" lon="-97.754112" changeset="false"><tag k="addr:street" v="West 6th Street"/><tag k="addr:housenumber" v="1004"/><tag k="coa:place_id" v="389114"/></node><node id="-21" lat="30.275934" lon="-97.759589" changeset="false"><tag k="addr:street" v="Oakland Avenue"/><tag k="addr:housenumber" v="707"/><tag k="coa:place_id" v="239594"/></node><node id="-22" lat="30.275671" lon="-97.761026" changeset="false"><tag k="addr:street" v="Highland Avenue"/><tag k="addr:housenumber" v="614"/><tag k="coa:place_id" v="246178"/></node><node id="-23" lat="30.274683" lon="-97.755697" changeset="false"><tag k="addr:street" v="Blanco Street"/><tag k="addr:housenumber" v="809"/><tag k="coa:place_id" v="242628"/></node><node id="-24" lat="30.273309" lon="-97.753501" changeset="false"><tag k="addr:street" v="North Lamar Boulevard"/><tag k="addr:housenumber" v="704"/><tag k="coa:place_id" v="698836"/></node><node id="-25" lat="30.274921" lon="-97.756644" changeset="false"><tag k="addr:street" v="West 8th Street"/><tag k="addr:housenumber" v="1208"/><tag k="coa:place_id" v="169442"/></node><node id="-26" lat="30.27494" lon="-97.761829" changeset="false"><tag k="addr:street" v="West 6th Street"/><tag k="addr:housenumber" v="1504"/><tag k="coa:place_id" v="239186"/></node><node id="-27" lat="30.275372" lon="-97.76186" changeset="false"><tag k="addr:street" v="West Lynn Street"/><tag k="addr:housenumber" v="609"/><tag k="coa:place_id" v="239024"/></node><node id="-28" lat="30.276381" lon="-97.758653" changeset="false"><tag k="addr:street" v="West 9th Street"/><tag k="addr:housenumber" v="1401"/><tag k="coa:place_id" v="238412"/></node><node id="-29" lat="30.273597" lon="-97.758158" changeset="false"><tag k="addr:street" v="West 6th Street"/><tag k="addr:housenumber" v="1212"/><tag k="coa:place_id" v="143544"/></node><node id="-30" lat="30.271902" lon="-97.754441" changeset="false"><tag k="addr:street" v="West 6th Street"/><tag k="addr:housenumber" v="1012"/><tag k="coa:place_id" v="131018"/></node><node id="-31" lat="30.274027" lon="-97.755838" changeset="false"><tag k="addr:street" v="West 7th Street"/><tag k="addr:housenumber" v="1120"/><tag k="coa:place_id" v="168824"/></node><node id="-32" lat="30.27398" lon="-97.75543" changeset="false"><tag k="addr:street" v="West 7th Street"/><tag k="addr:housenumber" v="1114"/><tag k="coa:place_id" v="168890"/></node><node id="-33" lat="30.275527" lon="-97.759851" changeset="false"><tag k="addr:street" v="Oakland Avenue"/><tag k="addr:housenumber" v="701"/><tag k="coa:place_id" v="248525"/></node><node id="-34" lat="30.273261" lon="-97.757" changeset="false"><tag k="addr:street" v="Blanco Street"/><tag k="addr:housenumber" v="604"/><tag k="coa:place_id" v="242621"/></node><node id="-35" lat="30.27406" lon="-97.753583" changeset="false"><tag k="addr:street" v="West 9th Street"/><tag k="addr:housenumber" v="1013"/><tag k="coa:place_id" v="168620"/></node><node id="-36" lat="30.276488" lon="-97.759246" changeset="false"><tag k="addr:street" v="Oakland Avenue"/><tag k="addr:housenumber" v="803"/><tag k="coa:place_id" v="248532"/></node><node id="-37" lat="30.276078" lon="-97.759506" changeset="false"><tag k="addr:street" v="Oakland Avenue"/><tag k="addr:housenumber" v="709"/><tag k="coa:place_id" v="239588"/></node><node id="-38" lat="30.272204" lon="-97.75503" changeset="false"><tag k="addr:street" v="West 6th Street"/><tag k="addr:housenumber" v="1100"/><tag k="coa:place_id" v="130676"/></node><node id="-39" lat="30.273896" lon="-97.755216" changeset="false"><tag k="addr:street" v="West 7th Street"/><tag k="addr:housenumber" v="1112"/><tag k="coa:place_id" v="168896"/></node><node id="-40" lat="30.273864" lon="-97.75669" changeset="false"><tag k="addr:street" v="Blanco Street"/><tag k="addr:housenumber" v="618"/><tag k="coa:place_id" v="674475"/></node><node id="-41" lat="30.274215" lon="-97.756675" changeset="false"><tag k="addr:street" v="Blanco Street"/><tag k="addr:housenumber" v="702"/><tag k="coa:place_id" v="5092202"/></node><node id="-42" lat="30.274937" lon="-97.759803" changeset="false"><tag k="addr:street" v="Pressler Street"/><tag k="addr:housenumber" v="610"/><tag k="coa:place_id" v="239744"/></node><node id="-43" lat="30.274098" lon="-97.753643" changeset="false"><tag k="addr:street" v="Baylor Street"/><tag k="addr:housenumber" v="809"/><tag k="coa:place_id" v="130766"/></node><node id="-44" lat="30.274213" lon="-97.760173" changeset="false"><tag k="addr:street" v="West 6th Street"/><tag k="addr:housenumber" v="1400"/><tag k="coa:place_id" v="239720"/></node><node id="-45" lat="30.273689" lon="-97.7568" changeset="false"><tag k="addr:street" v="Blanco Street"/><tag k="addr:housenumber" v="614"/><tag k="coa:place_id" v="130406"/></node><node id="-46" lat="30.276211" lon="-97.758465" changeset="false"><tag k="addr:street" v="West 9th Street"/><tag k="addr:housenumber" v="1403"/><tag k="coa:place_id" v="238418"/></node><node id="-47" lat="30.27657" lon="-97.761117" changeset="false"><tag k="addr:street" v="West Lynn Street"/><tag k="addr:housenumber" v="709"/><tag k="coa:place_id" v="319162"/></node><node id="-48" lat="30.274538" lon="-97.755406" changeset="false"><tag k="addr:street" v="West 9th Street"/><tag k="addr:housenumber" v="1119"/><tag k="coa:place_id" v="241601"/></node><node id="-49" lat="30.275871" lon="-97.759187" changeset="false"><tag k="addr:street" v="Pressler Street"/><tag k="addr:housenumber" v="800"/><tag k="coa:place_id" v="239792"/></node><node id="-50" lat="30.273711" lon="-97.753793" changeset="false"><tag k="addr:street" v="Baylor Street"/><tag k="addr:housenumber" v="709"/><tag k="coa:place_id" v="130796"/></node><node id="-51" lat="30.272464" lon="-97.755821" changeset="false"><tag k="addr:street" v="West 6th Street"/><tag k="addr:housenumber" v="1110"/><tag k="coa:place_id" v="130634"/></node><node id="-52" lat="30.273736" lon="-97.754786" changeset="false"><tag k="addr:street" v="West 7th Street"/><tag k="addr:housenumber" v="1106"/><tag k="coa:place_id" v="168914"/></node><node id="-53" lat="30.273067" lon="-97.753661" changeset="false"><tag k="addr:street" v="North Lamar Boulevard"/><tag k="addr:housenumber" v="700"/><tag k="coa:place_id" v="196513"/></node><node id="-54" lat="30.27472" lon="-97.756223" changeset="false"><tag k="addr:street" v="Blanco Street"/><tag k="addr:housenumber" v="802"/><tag k="coa:place_id" v="169478"/></node><node id="-55" lat="30.274369" lon="-97.756903" changeset="false"><tag k="addr:street" v="Blanco Street"/><tag k="addr:housenumber" v="706"/><tag k="coa:place_id" v="5092204"/></node><node id="-56" lat="30.273958" lon="-97.757157" changeset="false"><tag k="addr:street" v="Harthan Street"/><tag k="addr:housenumber" v="613"/><tag k="coa:place_id" v="5092199"/></node><node id="-57" lat="30.274071" lon="-97.757093" changeset="false"><tag k="addr:street" v="Harthan Street"/><tag k="addr:housenumber" v="615"/><tag k="coa:place_id" v="5092200"/></node><node id="-58" lat="30.272815" lon="-97.753668" changeset="false"><tag k="addr:street" v="North Lamar Boulevard"/><tag k="addr:housenumber" v="632"/><tag k="coa:place_id" v="247035"/></node><node id="-59" lat="30.274059" lon="-97.755649" changeset="false"><tag k="addr:street" v="West 7th Street"/><tag k="addr:housenumber" v="1118"/><tag k="coa:place_id" v="168830"/></node><node id="-60" lat="30.272755" lon="-97.755925" changeset="false"><tag k="addr:street" v="West 6th Street"/><tag k="addr:housenumber" v="1112"/><tag k="coa:place_id" v="713841"/></node><node id="-61" lat="30.271807" lon="-97.754027" changeset="false"><tag k="addr:street" v="North Lamar Boulevard"/><tag k="addr:housenumber" v="600"/><tag k="coa:place_id" v="670858"/></node><node id="-62" lat="30.273857" lon="-97.757217" changeset="false"><tag k="addr:street" v="Harthan Street"/><tag k="addr:housenumber" v="611"/><tag k="coa:place_id" v="5092198"/></node><node id="-63" lat="30.274172" lon="-97.757023" changeset="false"><tag k="addr:street" v="Harthan Street"/><tag k="addr:housenumber" v="617"/><tag k="coa:place_id" v="5092201"/></node><node id="-64" lat="30.274906" lon="-97.757816" changeset="false"><tag k="addr:street" v="Brownlee Circle"/><tag k="addr:housenumber" v="717"/><tag k="coa:place_id" v="674937"/></node><node id="-65" lat="30.274959" lon="-97.756067" changeset="false"><tag k="addr:street" v="Blanco Street"/><tag k="addr:housenumber" v="806"/><tag k="coa:place_id" v="169490"/></node><node id="-66" lat="30.276343" lon="-97.758857" changeset="false"><tag k="addr:street" v="West 9th Street"/><tag k="addr:housenumber" v="1407"/><tag k="coa:place_id" v="238424"/></node><node id="-67" lat="30.27414" lon="-97.756476" changeset="false"><tag k="addr:street" v="Blanco Street"/><tag k="addr:housenumber" v="700"/><tag k="coa:place_id" v="5092194"/></node><node id="-68" lat="30.274436" lon="-97.755113" changeset="false"><tag k="addr:street" v="West 9th Street"/><tag k="addr:housenumber" v="1115"/><tag k="coa:place_id" v="143271"/></node><node id="-69" lat="30.274366" lon="-97.758452" changeset="false"><tag k="addr:street" v="Brownlee Circle"/><tag k="addr:housenumber" v="702"/><tag k="coa:place_id" v="240188"/></node><node id="-70" lat="30.275876" lon="-97.760368" changeset="false"><tag k="addr:street" v="Highland Avenue"/><tag k="addr:housenumber" v="701"/><tag k="coa:place_id" v="246179"/></node><node id="-71" lat="30.274261" lon="-97.759286" changeset="false"><tag k="addr:street" v="Winflo Drive"/><tag k="addr:housenumber" v="612"/><tag k="coa:place_id" v="239840"/></node><node id="-72" lat="30.2753" lon="-97.758" changeset="false"><tag k="addr:street" v="Winflo Drive"/><tag k="addr:housenumber" v="803"/><tag k="coa:place_id" v="94743"/></node><node id="-73" lat="30.276283" lon="-97.761323" changeset="false"><tag k="addr:street" v="West Lynn Street"/><tag k="addr:housenumber" v="705"/><tag k="coa:place_id" v="238982"/></node><node id="-74" lat="30.273595" lon="-97.757058" changeset="false"><tag k="addr:street" v="Blanco Street"/><tag k="addr:housenumber" v="612"/><tag k="coa:place_id" v="242622"/></node><node id="-75" lat="30.273844" lon="-97.755072" changeset="false"><tag k="addr:street" v="West 7th Street"/><tag k="addr:housenumber" v="1110"/><tag k="coa:place_id" v="168902"/></node><node id="-76" lat="30.275334" lon="-97.759552" changeset="false"><tag k="addr:street" v="Pressler Street"/><tag k="addr:housenumber" v="700"/><tag k="coa:place_id" v="239768"/></node><node id="-77" lat="30.275673" lon="-97.761658" changeset="false"><tag k="addr:street" v="West Lynn Street"/><tag k="addr:housenumber" v="611"/><tag k="coa:place_id" v="239012"/></node><node id="-78" lat="30.273385" lon="-97.75798" changeset="false"><tag k="addr:street" v="Harthan Street"/><tag k="addr:housenumber" v="600"/><tag k="coa:place_id" v="240278"/></node><node id="-79" lat="30.276144" lon="-97.761412" changeset="false"><tag k="addr:street" v="West Lynn Street"/><tag k="addr:housenumber" v="617"/><tag k="coa:place_id" v="238988"/></node><node id="-80" lat="30.274736" lon="-97.757455" changeset="false"><tag k="addr:street" v="West 8th Street"/><tag k="addr:housenumber" v="1217"/><tag k="coa:place_id" v="169154"/></node><node id="-81" lat="30.272881" lon="-97.755042" changeset="false"><tag k="addr:street" v="Baylor Street"/><tag k="addr:housenumber" v="608"/><tag k="coa:place_id" v="242299"/></node><node id="-82" lat="30.273562" lon="-97.753376" changeset="false"><tag k="addr:street" v="North Lamar Boulevard"/><tag k="addr:housenumber" v="708"/><tag k="coa:place_id" v="1114897"/></node><node id="-83" lat="30.273434" lon="-97.753439" changeset="false"><tag k="addr:street" v="North Lamar Boulevard"/><tag k="addr:housenumber" v="706"/><tag k="coa:place_id" v="389090"/></node><node id="-84" lat="30.272407" lon="-97.755018" changeset="false"><tag k="addr:street" v="West 6th Street"/><tag k="addr:housenumber" v="1102"/><tag k="coa:place_id" v="130646"/></node><node id="-85" lat="30.274287" lon="-97.760284" changeset="false"><tag k="addr:street" v="West 6th Street"/><tag k="addr:housenumber" v="1402"/><tag k="coa:place_id" v="239714"/></node><node id="-86" lat="30.275418" lon="-97.757857" changeset="false"><tag k="addr:street" v="Winflo Drive"/><tag k="addr:housenumber" v="805"/><tag k="coa:place_id" v="740007"/></node><node id="-87" lat="30.275528" lon="-97.761115" changeset="false"><tag k="addr:street" v="Highland Avenue"/><tag k="addr:housenumber" v="612"/><tag k="coa:place_id" v="239294"/></node><node id="-88" lat="30.273553" lon="-97.755777" changeset="false"><tag k="addr:street" v="West 7th Street"/><tag k="addr:housenumber" v="1117"/><tag k="coa:place_id" v="168974"/></node><node id="-89" lat="30.272048" lon="-97.754866" changeset="false"><tag k="addr:street" v="West 6th Street"/><tag k="addr:housenumber" v="1022"/><tag k="coa:place_id" v="131000"/></node><node id="-90" lat="30.27398" lon="-97.759441" changeset="false"><tag k="addr:street" v="West 6th Street"/><tag k="addr:housenumber" v="1312"/><tag k="coa:place_id" v="240212"/></node><node id="-91" lat="30.276214" lon="-97.75942" changeset="false"><tag k="addr:street" v="Oakland Avenue"/><tag k="addr:housenumber" v="713"/><tag k="coa:place_id" v="248531"/></node><node id="-92" lat="30.273789" lon="-97.754929" changeset="false"><tag k="addr:street" v="West 7th Street"/><tag k="addr:housenumber" v="1108"/><tag k="coa:place_id" v="168908"/></node><node id="-93" lat="30.274839" lon="-97.756145" changeset="false"><tag k="addr:street" v="Blanco Street"/><tag k="addr:housenumber" v="804"/><tag k="coa:place_id" v="242627"/></node><node id="-94" lat="30.272912" lon="-97.756319" changeset="false"><tag k="addr:street" v="West 6th Street"/><tag k="addr:housenumber" v="1118"/><tag k="coa:place_id" v="130580"/></node><node id="-95" lat="30.275289" lon="-97.756289" changeset="false"><tag k="addr:street" v="West 9th Street"/><tag k="addr:housenumber" v="1207"/><tag k="coa:place_id" v="241603"/></node><node id="-96" lat="30.275178" lon="-97.756398" changeset="false"><tag k="addr:street" v="West 9th Street"/><tag k="addr:housenumber" v="1209"/><tag k="coa:place_id" v="238346"/></node><node id="-97" lat="30.274113" lon="-97.754254" changeset="false"><tag k="addr:street" v="Baylor Street"/><tag k="addr:housenumber" v="806"/><tag k="coa:place_id" v="130736"/></node><node id="-98" lat="30.274202" lon="-97.754374" changeset="false"><tag k="addr:street" v="West 9th Street"/><tag k="addr:housenumber" v="1103"/><tag k="coa:place_id" v="168626"/></node><node id="-99" lat="30.271935" lon="-97.754549" changeset="false"><tag k="addr:street" v="West 6th Street"/><tag k="addr:housenumber" v="1014"/><tag k="coa:place_id" v="700132"/></node><node id="-100" lat="30.271806" lon="-97.75424" changeset="false"><tag k="addr:street" v="West 6th Street"/><tag k="addr:housenumber" v="1006"/><tag k="coa:place_id" v="131024"/></node><node id="-101" lat="30.271973" lon="-97.75464" changeset="false"><tag k="addr:street" v="West 6th Street"/><tag k="addr:housenumber" v="1016"/><tag k="coa:place_id" v="131006"/></node><node id="-102" lat="30.272627" lon="-97.756355" changeset="false"><tag k="addr:street" v="West 6th Street"/><tag k="addr:housenumber" v="1124"/><tag k="coa:place_id" v="130562"/></node><node id="-103" lat="30.272653" lon="-97.756211" changeset="false"><tag k="addr:street" v="West 6th Street"/><tag k="addr:housenumber" v="1114"/><tag k="coa:place_id" v="130622"/></node><node id="-104" lat="30.272823" lon="-97.756756" changeset="false"><tag k="addr:street" v="West 6th Street"/><tag k="addr:housenumber" v="1128"/><tag k="coa:place_id" v="574108"/></node><node id="-105" lat="30.272739" lon="-97.756643" changeset="false"><tag k="addr:street" v="West 6th Street"/><tag k="addr:housenumber" v="1126"/><tag k="coa:place_id" v="241538"/></node><node id="-106" lat="30.272855" lon="-97.756894" changeset="false"><tag k="addr:street" v="West 6th Street"/><tag k="addr:housenumber" v="1130"/><tag k="coa:place_id" v="130526"/></node></osm>