<?xml version="1.0" encoding="UTF-8"?><osm version="0.6" generator="github.com/aaronlidman/osm-and-geojson"><node id="-1" lat="30.249087" lon="-97.747486" changeset="false"><tag k="addr:street" v="Park Lane"/><tag k="addr:housenumber" v="208"/><tag k="addr:postcode" v="78704"/></node><node id="-2" lat="30.252531" lon="-97.746191" changeset="false"><tag k="addr:street" v="Melissa Lane"/><tag k="addr:housenumber" v="1020"/><tag k="addr:postcode" v="78704"/></node><node id="-3" lat="30.251425" lon="-97.748651" changeset="false"><tag k="addr:street" v="South Congress Avenue"/><tag k="addr:housenumber" v="1221"/><tag k="addr:postcode" v="78704"/></node><node id="-4" lat="30.252501" lon="-97.741038" changeset="false"><tag k="addr:street" v="East Riverside Drive"/><tag k="addr:housenumber" v="600"/><tag k="addr:postcode" v="78704"/></node><node id="-5" lat="30.249494" lon="-97.74603" changeset="false"><tag k="addr:street" v="Hillside Avenue"/><tag k="addr:housenumber" v="1305"/><tag k="addr:postcode" v="78704"/></node><node id="-6" lat="30.257208" lon="-97.746508" changeset="false"><tag k="addr:street" v="South Congress Avenue"/><tag k="addr:housenumber" v="343"/><tag k="addr:postcode" v="78704"/></node><node id="-7" lat="30.258696" lon="-97.746074" changeset="false"><tag k="addr:street" v="South Congress Avenue"/><tag k="addr:housenumber" v="313"/><tag k="addr:postcode" v="78704"/></node><node id="-8" lat="30.251477" lon="-97.743986" changeset="false"><tag k="addr:street" v="Newning Avenue"/><tag k="addr:housenumber" v="1200"/><tag k="addr:postcode" v="78704"/></node><node id="-9" lat="30.258792" lon="-97.745849" changeset="false"><tag k="addr:street" v="South Congress Avenue"/><tag k="addr:housenumber" v="227"/><tag k="addr:postcode" v="78704"/></node><node id="-10" lat="30.249095" lon="-97.746368" changeset="false"><tag k="addr:street" v="Hillside Avenue"/><tag k="addr:housenumber" v="1402"/><tag k="addr:postcode" v="78704"/></node><node id="-11" lat="30.258218" lon="-97.746144" changeset="false"><tag k="addr:street" v="South Congress Avenue"/><tag k="addr:housenumber" v="311"/><tag k="addr:postcode" v="78704"/></node><node id="-12" lat="30.257175" lon="-97.74661" changeset="false"><tag k="addr:street" v="South Congress Avenue"/><tag k="addr:housenumber" v="377"/><tag k="addr:postcode" v="78704"/></node><node id="-13" lat="30.250387" lon="-97.745709" changeset="false"><tag k="addr:street" v="Hillside Avenue"/><tag k="addr:housenumber" v="1225"/><tag k="addr:postcode" v="78704"/></node><node id="-14" lat="30.250102" lon="-97.743334" changeset="false"><tag k="addr:street" v="Newning Avenue"/><tag k="addr:housenumber" v="1227"/><tag k="addr:postcode" v="78704"/></node><node id="-15" lat="30.253104" lon="-97.747707" changeset="false"><tag k="addr:street" v="Music Lane"/><tag k="addr:housenumber" v="1004"/><tag k="addr:postcode" v="78704"/></node><node id="-16" lat="30.253393" lon="-97.746083" changeset="false"><tag k="addr:street" v="Melissa Lane"/><tag k="addr:housenumber" v="1006"/><tag k="addr:postcode" v="78704"/></node><node id="-17" lat="30.257975" lon="-97.746251" changeset="false"><tag k="addr:street" v="South Congress Avenue"/><tag k="addr:housenumber" v="315"/><tag k="addr:postcode" v="78704"/></node><node id="-18" lat="30.251951" lon="-97.748524" changeset="false"><tag k="addr:street" v="Academy Drive"/><tag k="addr:housenumber" v="105"/><tag k="addr:postcode" v="78704"/></node><node id="-19" lat="30.253023" lon="-97.744549" changeset="false"><tag k="addr:street" v="Le Grande Avenue"/><tag k="addr:housenumber" v="300"/><tag k="addr:postcode" v="78704"/></node><node id="-20" lat="30.249131" lon="-97.742484" changeset="false"><tag k="addr:street" v="Pecan Grove Road"/><tag k="addr:housenumber" v="602"/><tag k="addr:postcode" v="78704"/></node><node id="-21" lat="30.25212" lon="-97.747352" changeset="false"><tag k="addr:street" v="Academy Drive"/><tag k="addr:housenumber" v="112"/><tag k="addr:postcode" v="78704"/></node><node id="-22" lat="30.249129" lon="-97.742398" changeset="false"><tag k="addr:street" v="Pecan Grove Road"/><tag k="addr:housenumber" v="604"/><tag k="addr:postcode" v="78704"/></node><node id="-23" lat="30.252393" lon="-97.743177" changeset="false"><tag k="addr:street" v="Sunny Lane"/><tag k="addr:housenumber" v="500"/><tag k="addr:postcode" v="78704"/></node><node id="-24" lat="30.255607" lon="-97.745567" changeset="false"><tag k="addr:street" v="East Riverside Drive"/><tag k="addr:housenumber" v="149"/><tag k="addr:postcode" v="78704"/></node><node id="-25" lat="30.249706" lon="-97.743809" changeset="false"><tag k="addr:street" v="Newning Avenue"/><tag k="addr:housenumber" v="1307"/><tag k="addr:postcode" v="78704"/></node><node id="-26" lat="30.250445" lon="-97.74328" changeset="false"><tag k="addr:street" v="Newning Avenue"/><tag k="addr:housenumber" v="1219"/><tag k="addr:postcode" v="78704"/></node><node id="-27" lat="30.248864" lon="-97.746544" changeset="false"><tag k="addr:street" v="Park Lane"/><tag k="addr:housenumber" v="302"/><tag k="addr:postcode" v="78704"/></node><node id="-28" lat="30.257644" lon="-97.74638" changeset="false"><tag k="addr:street" v="South Congress Avenue"/><tag k="addr:housenumber" v="325"/><tag k="addr:postcode" v="78704"/></node><node id="-29" lat="30.257806" lon="-97.746344" changeset="false"><tag k="addr:street" v="South Congress Avenue"/><tag k="addr:housenumber" v="319"/><tag k="addr:postcode" v="78704"/></node><node id="-30" lat="30.252647" lon="-97.741966" changeset="false"><tag k="addr:street" v="East Riverside Drive"/><tag k="addr:housenumber" v="512"/><tag k="addr:postcode" v="78704"/></node><node id="-31" lat="30.251897" lon="-97.745959" changeset="false"><tag k="addr:street" v="Academy Drive"/><tag k="addr:housenumber" v="204 1/2"/><tag k="addr:postcode" v="78704"/></node><node id="-32" lat="30.253602" lon="-97.7442" changeset="false"><tag k="addr:street" v="Newning Avenue"/><tag k="addr:housenumber" v="1000"/><tag k="addr:postcode" v="78704"/></node><node id="-33" lat="30.250013" lon="-97.746109" changeset="false"><tag k="addr:street" v="Hillside Avenue"/><tag k="addr:housenumber" v="1301"/><tag k="addr:postcode" v="78704"/></node><node id="-34" lat="30.252156" lon="-97.744886" changeset="false"><tag k="addr:street" v="Academy Drive"/><tag k="addr:housenumber" v="300"/><tag k="addr:postcode" v="78704"/></node><node id="-35" lat="30.25609" lon="-97.747003" changeset="false"><tag k="addr:street" v="South Congress Avenue"/><tag k="addr:housenumber" v="515"/><tag k="addr:postcode" v="78704"/></node><node id="-36" lat="30.254093" lon="-97.744422" changeset="false"><tag k="addr:street" v="East Riverside Drive"/><tag k="addr:housenumber" v="213"/><tag k="addr:postcode" v="78704"/></node><node id="-37" lat="30.251022" lon="-97.745123" changeset="false"><tag k="addr:street" v="Hillside Avenue"/><tag k="addr:housenumber" v="1203"/><tag k="addr:postcode" v="78704"/></node><node id="-38" lat="30.249436" lon="-97.746382" changeset="false"><tag k="addr:street" v="Hillside Avenue"/><tag k="addr:housenumber" v="1308"/><tag k="addr:postcode" v="78704"/></node><node id="-39" lat="30.255052" lon="-97.745046" changeset="false"><tag k="addr:street" v="East Riverside Drive"/><tag k="addr:housenumber" v="203"/><tag k="addr:postcode" v="78704"/></node><node id="-40" lat="30.251442" lon="-97.744296" changeset="false"><tag k="addr:street" v="Academy Drive"/><tag k="addr:housenumber" v="405"/><tag k="addr:postcode" v="78704"/></node><node id="-41" lat="30.252391" lon="-97.746845" changeset="false"><tag k="addr:street" v="Academy Drive"/><tag k="addr:housenumber" v="200 1/2"/><tag k="addr:postcode" v="78704"/></node><node id="-42" lat="30.254087" lon="-97.747113" changeset="false"><tag k="addr:street" v="South Congress Avenue"/><tag k="addr:housenumber" v="1007"/><tag k="addr:postcode" v="78704"/></node><node id="-43" lat="30.25124" lon="-97.744893" changeset="false"><tag k="addr:street" v="Hillside Avenue"/><tag k="addr:housenumber" v="1201"/><tag k="addr:postcode" v="78704"/></node><node id="-44" lat="30.24883" lon="-97.746775" changeset="false"><tag k="addr:street" v="Drake Avenue"/><tag k="addr:housenumber" v="1409"/><tag k="addr:postcode" v="78704"/></node><node id="-45" lat="30.251895" lon="-97.742215" changeset="false"><tag k="addr:street" v="Sunny Lane"/><tag k="addr:housenumber" v="514"/><tag k="addr:postcode" v="78704"/></node><node id="-46" lat="30.253345" lon="-97.744413" changeset="false"><tag k="addr:street" v="Newning Avenue"/><tag k="addr:housenumber" v="1002"/><tag k="addr:postcode" v="78704"/></node><node id="-47" lat="30.255006" lon="-97.747509" changeset="false"><tag k="addr:street" v="South Congress Avenue"/><tag k="addr:housenumber" v="707"/><tag k="addr:postcode" v="78704"/></node><node id="-48" lat="30.259017" lon="-97.745999" changeset="false"><tag k="addr:street" v="South Congress Avenue"/><tag k="addr:housenumber" v="301"/><tag k="addr:postcode" v="78704"/></node><node id="-49" lat="30.249151" lon="-97.74512" changeset="false"><tag k="addr:street" v="Newning Avenue"/><tag k="addr:housenumber" v="1402"/><tag k="addr:postcode" v="78704"/></node><node id="-50" lat="30.255424" lon="-97.743124" changeset="false"><tag k="addr:street" v="East Riverside Drive"/><tag k="addr:housenumber" v="222"/><tag k="addr:postcode" v="78704"/></node><node id="-51" lat="30.256826" lon="-97.746714" changeset="false"><tag k="addr:street" v="South Congress Avenue"/><tag k="addr:housenumber" v="401"/><tag k="addr:postcode" v="78704"/></node><node id="-52" lat="30.25435" lon="-97.747744" changeset="false"><tag k="addr:street" v="South Congress Avenue"/><tag k="addr:housenumber" v="815"/><tag k="addr:postcode" v="78704"/></node><node id="-53" lat="30.252703" lon="-97.743445" changeset="false"><tag k="addr:street" v="Le Grande Avenue"/><tag k="addr:housenumber" v="318"/><tag k="addr:postcode" v="78704"/></node><node id="-54" lat="30.2527" lon="-97.743411" changeset="false"><tag k="addr:street" v="Le Grande Avenue"/><tag k="addr:housenumber" v="318 1/2"/><tag k="addr:postcode" v="78704"/></node><node id="-55" lat="30.254638" lon="-97.745238" changeset="false"><tag k="addr:street" v="East Riverside Drive"/><tag k="addr:housenumber" v="205"/><tag k="addr:postcode" v="78704"/></node><node id="-56" lat="30.254534" lon="-97.744773" changeset="false"><tag k="addr:street" v="East Riverside Drive"/><tag k="addr:housenumber" v="209"/><tag k="addr:postcode" v="78704"/></node><node id="-57" lat="30.255134" lon="-97.745301" changeset="false"><tag k="addr:street" v="East Riverside Drive"/><tag k="addr:housenumber" v="201"/><tag k="addr:postcode" v="78704"/></node><node id="-58" lat="30.255313" lon="-97.745449" changeset="false"><tag k="addr:street" v="East Riverside Drive"/><tag k="addr:housenumber" v="153"/><tag k="addr:postcode" v="78704"/></node><node id="-59" lat="30.255345" lon="-97.74713" changeset="false"><tag k="addr:street" v="South Congress Avenue"/><tag k="addr:housenumber" v="611"/><tag k="addr:postcode" v="78704"/></node><node id="-60" lat="30.255421" lon="-97.747081" changeset="false"><tag k="addr:street" v="South Congress Avenue"/><tag k="addr:housenumber" v="613"/><tag k="addr:postcode" v="78704"/></node><node id="-61" lat="30.256127" lon="-97.746121" changeset="false"><tag k="addr:street" v="East Riverside Drive"/><tag k="addr:housenumber" v="125"/><tag k="addr:postcode" v="78704"/></node><node id="-62" lat="30.255767" lon="-97.745974" changeset="false"><tag k="addr:street" v="East Riverside Drive"/><tag k="addr:housenumber" v="127"/><tag k="addr:postcode" v="78704"/></node><node id="-63" lat="30.252751" lon="-97.748239" changeset="false"><tag k="addr:street" v="South Congress Avenue"/><tag k="addr:housenumber" v="1113"/><tag k="addr:postcode" v="78704"/></node><node id="-64" lat="30.252583" lon="-97.748208" changeset="false"><tag k="addr:street" v="South Congress Avenue"/><tag k="addr:housenumber" v="1117"/><tag k="addr:postcode" v="78704"/></node><node id="-65" lat="30.252847" lon="-97.748217" changeset="false"><tag k="addr:street" v="South Congress Avenue"/><tag k="addr:housenumber" v="1109"/><tag k="addr:postcode" v="78704"/></node><node id="-66" lat="30.252683" lon="-97.748124" changeset="false"><tag k="addr:street" v="South Congress Avenue"/><tag k="addr:housenumber" v="1111"/><tag k="addr:postcode" v="78704"/></node><node id="-67" lat="30.252777" lon="-97.748149" changeset="false"><tag k="addr:street" v="South Congress Avenue"/><tag k="addr:housenumber" v="1115"/><tag k="addr:postcode" v="78704"/></node><node id="-68" lat="30.251778" lon="-97.748546" changeset="false"><tag k="addr:street" v="South Congress Avenue"/><tag k="addr:housenumber" v="1201"/><tag k="addr:postcode" v="78704"/></node><node id="-69" lat="30.251474" lon="-97.748573" changeset="false"><tag k="addr:street" v="South Congress Avenue"/><tag k="addr:housenumber" v="1215"/><tag k="addr:postcode" v="78704"/></node><node id="-70" lat="30.250753" lon="-97.742013" changeset="false"><tag k="addr:street" v="Academy Drive"/><tag k="addr:housenumber" v="523"/><tag k="addr:postcode" v="78704"/></node><node id="-71" lat="30.250846" lon="-97.74199" changeset="false"><tag k="addr:street" v="Bickler Road"/><tag k="addr:housenumber" v="1202"/><tag k="addr:postcode" v="78704"/></node><node id="-72" lat="30.249067" lon="-97.742725" changeset="false"><tag k="addr:street" v="Pecan Grove Road"/><tag k="addr:housenumber" v="600"/><tag k="addr:postcode" v="78704"/></node><node id="-73" lat="30.249151" lon="-97.742688" changeset="false"><tag k="addr:street" v="Bickler Road"/><tag k="addr:housenumber" v="1305"/><tag k="addr:postcode" v="78704"/></node></osm>