<?xml version="1.0" encoding="UTF-8"?><osm version="0.6" generator="github.com/aaronlidman/osm-and-geojson"><node id="-1" lat="30.179273" lon="-97.760733" changeset="false"><tag k="addr:street" v="Magin Meadow Drive"/><tag k="addr:housenumber" v="2517"/><tag k="coa:place_id" v="3171770"/></node><node id="-2" lat="30.17823" lon="-97.754185" changeset="false"><tag k="addr:street" v="Old Post Loop"/><tag k="addr:housenumber" v="6907"/><tag k="coa:place_id" v="265575"/></node><node id="-3" lat="30.179515" lon="-97.761839" changeset="false"><tag k="addr:street" v="Magin Meadow Drive"/><tag k="addr:housenumber" v="2413"/><tag k="coa:place_id" v="3171743"/></node><node id="-4" lat="30.177088" lon="-97.758386" changeset="false"><tag k="addr:street" v="Deep Lane"/><tag k="addr:housenumber" v="7205"/><tag k="coa:place_id" v="148664"/></node><node id="-5" lat="30.176027" lon="-97.758539" changeset="false"><tag k="addr:street" v="Deep Lane"/><tag k="addr:housenumber" v="7215"/><tag k="coa:place_id" v="148656"/></node><node id="-6" lat="30.179378" lon="-97.761928" changeset="false"><tag k="addr:street" v="Leppke Cove"/><tag k="addr:housenumber" v="7105"/><tag k="coa:place_id" v="3171712"/></node><node id="-7" lat="30.177108" lon="-97.75508" changeset="false"><tag k="addr:street" v="Meadow Lake Boulevard"/><tag k="addr:housenumber" v="7051"/><tag k="coa:place_id" v="3319741"/></node><node id="-8" lat="30.179746" lon="-97.76099" changeset="false"><tag k="addr:street" v="Magin Meadow Drive"/><tag k="addr:housenumber" v="2510"/><tag k="coa:place_id" v="3171732"/></node><node id="-9" lat="30.176881" lon="-97.761912" changeset="false"><tag k="addr:street" v="Patsy Parkway"/><tag k="addr:housenumber" v="2511"/><tag k="coa:place_id" v="73884"/></node><node id="-10" lat="30.178156" lon="-97.758006" changeset="false"><tag k="addr:street" v="Thannas Way"/><tag k="addr:housenumber" v="7206"/><tag k="coa:place_id" v="3171945"/></node><node id="-11" lat="30.179556" lon="-97.761979" changeset="false"><tag k="addr:street" v="Magin Meadow Drive"/><tag k="addr:housenumber" v="2411"/><tag k="coa:place_id" v="3171742"/></node><node id="-12" lat="30.176826" lon="-97.761762" changeset="false"><tag k="addr:street" v="Patsy Parkway"/><tag k="addr:housenumber" v="2513"/><tag k="coa:place_id" v="73885"/></node><node id="-13" lat="30.177165" lon="-97.756561" changeset="false"><tag k="addr:street" v="Thannas Way"/><tag k="addr:housenumber" v="7021"/><tag k="coa:place_id" v="3172025"/></node><node id="-14" lat="30.177727" lon="-97.758104" changeset="false"><tag k="addr:street" v="Thannas Way"/><tag k="addr:housenumber" v="7205"/><tag k="coa:place_id" v="3171964"/></node><node id="-15" lat="30.17795" lon="-97.757536" changeset="false"><tag k="addr:street" v="Thannas Way"/><tag k="addr:housenumber" v="7114"/><tag k="coa:place_id" v="3172008"/></node><node id="-16" lat="30.177063" lon="-97.762634" changeset="false"><tag k="addr:street" v="Patsy Parkway"/><tag k="addr:housenumber" v="2503"/><tag k="coa:place_id" v="73880"/></node><node id="-17" lat="30.176294" lon="-97.758305" changeset="false"><tag k="addr:street" v="Deep Lane"/><tag k="addr:housenumber" v="7213"/><tag k="coa:place_id" v="148657"/></node><node id="-18" lat="30.17966" lon="-97.762423" changeset="false"><tag k="addr:street" v="Magin Meadow Drive"/><tag k="addr:housenumber" v="2403"/><tag k="coa:place_id" v="3171717"/></node><node id="-19" lat="30.177912" lon="-97.762418" changeset="false"><tag k="addr:street" v="Lendall Lane"/><tag k="addr:housenumber" v="2405"/><tag k="coa:place_id" v="73923"/></node><node id="-20" lat="30.179353" lon="-97.761097" changeset="false"><tag k="addr:street" v="Magin Meadow Drive"/><tag k="addr:housenumber" v="2511"/><tag k="coa:place_id" v="3171767"/></node><node id="-21" lat="30.179336" lon="-97.760989" changeset="false"><tag k="addr:street" v="Magin Meadow Drive"/><tag k="addr:housenumber" v="2513"/><tag k="coa:place_id" v="3171768"/></node><node id="-22" lat="30.178114" lon="-97.762201" changeset="false"><tag k="addr:street" v="Lendall Lane"/><tag k="addr:housenumber" v="2404"/><tag k="coa:place_id" v="73920"/></node><node id="-23" lat="30.17726" lon="-97.756956" changeset="false"><tag k="addr:street" v="Thannas Way"/><tag k="addr:housenumber" v="7101"/><tag k="coa:place_id" v="3262625"/></node><node id="-24" lat="30.173335" lon="-97.753816" changeset="false"><tag k="addr:street" v="Canella Drive"/><tag k="addr:housenumber" v="5017"/><tag k="coa:place_id" v="825885"/></node><node id="-25" lat="30.176048" lon="-97.759169" changeset="false"><tag k="addr:street" v="Patsy Parkway"/><tag k="addr:housenumber" v="4507"/><tag k="coa:place_id" v="153804"/></node><node id="-26" lat="30.1776" lon="-97.756896" changeset="false"><tag k="addr:street" v="Thannas Way"/><tag k="addr:housenumber" v="7102"/><tag k="coa:place_id" v="3172002"/></node><node id="-27" lat="30.177518" lon="-97.756794" changeset="false"><tag k="addr:street" v="Thannas Way"/><tag k="addr:housenumber" v="7100"/><tag k="coa:place_id" v="3260302"/></node><node id="-28" lat="30.178062" lon="-97.762921" changeset="false"><tag k="addr:street" v="Lendall Lane"/><tag k="addr:housenumber" v="2401"/><tag k="coa:place_id" v="129001"/></node><node id="-29" lat="30.177545" lon="-97.761268" changeset="false"><tag k="addr:street" v="Lendall Lane"/><tag k="addr:housenumber" v="2511"/><tag k="coa:place_id" v="73929"/></node><node id="-30" lat="30.177024" lon="-97.76245" changeset="false"><tag k="addr:street" v="Patsy Parkway"/><tag k="addr:housenumber" v="2505"/><tag k="coa:place_id" v="73881"/></node><node id="-31" lat="30.176909" lon="-97.758367" changeset="false"><tag k="addr:street" v="Deep Lane"/><tag k="addr:housenumber" v="7207"/><tag k="coa:place_id" v="148663"/></node><node id="-32" lat="30.177419" lon="-97.7609" changeset="false"><tag k="addr:street" v="Lendall Lane"/><tag k="addr:housenumber" v="2515"/><tag k="coa:place_id" v="73931"/></node><node id="-33" lat="30.178105" lon="-97.757892" changeset="false"><tag k="addr:street" v="Thannas Way"/><tag k="addr:housenumber" v="7204"/><tag k="coa:place_id" v="3171944"/></node><node id="-34" lat="30.17877" lon="-97.759465" changeset="false"><tag k="addr:street" v="Thannas Way"/><tag k="addr:housenumber" v="7400"/><tag k="coa:place_id" v="3171802"/></node><node id="-35" lat="30.177842" lon="-97.762216" changeset="false"><tag k="addr:street" v="Lendall Lane"/><tag k="addr:housenumber" v="2501"/><tag k="coa:place_id" v="73924"/></node><node id="-36" lat="30.178392" lon="-97.754317" changeset="false"><tag k="addr:street" v="Old Post Loop"/><tag k="addr:housenumber" v="6901"/><tag k="coa:place_id" v="328239"/></node><node id="-37" lat="30.176764" lon="-97.761552" changeset="false"><tag k="addr:street" v="Patsy Parkway"/><tag k="addr:housenumber" v="2515"/><tag k="coa:place_id" v="73886"/></node><node id="-38" lat="30.176929" lon="-97.762097" changeset="false"><tag k="addr:street" v="Patsy Parkway"/><tag k="addr:housenumber" v="2509"/><tag k="coa:place_id" v="73883"/></node><node id="-39" lat="30.178788" lon="-97.747411" changeset="false"><tag k="addr:street" v="South Pleasant Valley Road"/><tag k="addr:housenumber" v="6624"/><tag k="coa:place_id" v="3100738"/></node><node id="-40" lat="30.177128" lon="-97.762827" changeset="false"><tag k="addr:street" v="Patsy Parkway"/><tag k="addr:housenumber" v="2501"/><tag k="coa:place_id" v="73879"/></node><node id="-41" lat="30.178813" lon="-97.759711" changeset="false"><tag k="addr:street" v="Thannas Way"/><tag k="addr:housenumber" v="7404"/><tag k="coa:place_id" v="3171804"/></node><node id="-42" lat="30.179951" lon="-97.760166" changeset="false"><tag k="addr:street" v="Blue Meadow Drive"/><tag k="addr:housenumber" v="2505"/><tag k="coa:place_id" v="110050"/></node><node id="-43" lat="30.17938" lon="-97.761224" changeset="false"><tag k="addr:street" v="Magin Meadow Drive"/><tag k="addr:housenumber" v="2509"/><tag k="coa:place_id" v="3171766"/></node><node id="-44" lat="30.179302" lon="-97.760852" changeset="false"><tag k="addr:street" v="Magin Meadow Drive"/><tag k="addr:housenumber" v="2515"/><tag k="coa:place_id" v="3171769"/></node><node id="-45" lat="30.176738" lon="-97.758328" changeset="false"><tag k="addr:street" v="Deep Lane"/><tag k="addr:housenumber" v="7209"/><tag k="coa:place_id" v="148662"/></node><node id="-46" lat="30.177654" lon="-97.761621" changeset="false"><tag k="addr:street" v="Lendall Lane"/><tag k="addr:housenumber" v="2507"/><tag k="coa:place_id" v="73927"/></node><node id="-47" lat="30.177382" lon="-97.753046" changeset="false"><tag k="addr:street" v="Misty Slope Lane"/><tag k="addr:housenumber" v="4814"/><tag k="coa:place_id" v="816458"/></node><node id="-48" lat="30.176439" lon="-97.763466" changeset="false"><tag k="addr:street" v="Quicksilver Boulevard"/><tag k="addr:housenumber" v="2500"/><tag k="coa:place_id" v="123145"/></node><node id="-49" lat="30.177723" lon="-97.75439" changeset="false"><tag k="addr:street" v="Old Post Loop"/><tag k="addr:housenumber" v="6923"/><tag k="coa:place_id" v="381375"/></node><node id="-50" lat="30.178049" lon="-97.757786" changeset="false"><tag k="addr:street" v="Thannas Way"/><tag k="addr:housenumber" v="7202"/><tag k="coa:place_id" v="3171943"/></node><node id="-51" lat="30.179683" lon="-97.760728" changeset="false"><tag k="addr:street" v="Magin Meadow Drive"/><tag k="addr:housenumber" v="2514"/><tag k="coa:place_id" v="3171734"/></node><node id="-52" lat="30.179821" lon="-97.761359" changeset="false"><tag k="addr:street" v="Magin Meadow Drive"/><tag k="addr:housenumber" v="2504"/><tag k="coa:place_id" v="3171729"/></node><node id="-53" lat="30.179797" lon="-97.761235" changeset="false"><tag k="addr:street" v="Magin Meadow Drive"/><tag k="addr:housenumber" v="2506"/><tag k="coa:place_id" v="3171730"/></node><node id="-54" lat="30.180111" lon="-97.76098" changeset="false"><tag k="addr:street" v="Blue Meadow Drive"/><tag k="addr:housenumber" v="2419"/><tag k="coa:place_id" v="178002"/></node><node id="-55" lat="30.177592" lon="-97.761445" changeset="false"><tag k="addr:street" v="Lendall Lane"/><tag k="addr:housenumber" v="2509"/><tag k="coa:place_id" v="73928"/></node><node id="-56" lat="30.177475" lon="-97.761084" changeset="false"><tag k="addr:street" v="Lendall Lane"/><tag k="addr:housenumber" v="2513"/><tag k="coa:place_id" v="73930"/></node><node id="-57" lat="30.179644" lon="-97.760598" changeset="false"><tag k="addr:street" v="Magin Meadow Drive"/><tag k="addr:housenumber" v="2516"/><tag k="coa:place_id" v="3171735"/></node><node id="-58" lat="30.176451" lon="-97.749696" changeset="false"><tag k="addr:street" v="South Pleasant Valley Road"/><tag k="addr:housenumber" v="6830"/><tag k="coa:place_id" v="437319"/></node><node id="-59" lat="30.17735" lon="-97.760724" changeset="false"><tag k="addr:street" v="Lendall Lane"/><tag k="addr:housenumber" v="4401"/><tag k="coa:place_id" v="73932"/></node><node id="-60" lat="30.179717" lon="-97.760854" changeset="false"><tag k="addr:street" v="Magin Meadow Drive"/><tag k="addr:housenumber" v="2512"/><tag k="coa:place_id" v="3171733"/></node><node id="-61" lat="30.177137" lon="-97.760019" changeset="false"><tag k="addr:street" v="Lendall Lane"/><tag k="addr:housenumber" v="4409"/><tag k="coa:place_id" v="73936"/></node><node id="-62" lat="30.17799" lon="-97.762636" changeset="false"><tag k="addr:street" v="Lendall Lane"/><tag k="addr:housenumber" v="2403"/><tag k="coa:place_id" v="73922"/></node><node id="-63" lat="30.180377" lon="-97.762071" changeset="false"><tag k="addr:street" v="Blue Meadow Drive"/><tag k="addr:housenumber" v="2405"/><tag k="coa:place_id" v="190261"/></node><node id="-64" lat="30.176478" lon="-97.760477" changeset="false"><tag k="addr:street" v="Patsy Parkway"/><tag k="addr:housenumber" v="4409"/><tag k="coa:place_id" v="73892"/></node><node id="-65" lat="30.177772" lon="-97.762032" changeset="false"><tag k="addr:street" v="Lendall Lane"/><tag k="addr:housenumber" v="2503"/><tag k="coa:place_id" v="73925"/></node><node id="-66" lat="30.17756" lon="-97.757761" changeset="false"><tag k="addr:street" v="Thannas Way"/><tag k="addr:housenumber" v="7115"/><tag k="coa:place_id" v="3171986"/></node><node id="-67" lat="30.17962" lon="-97.760469" changeset="false"><tag k="addr:street" v="Magin Meadow Drive"/><tag k="addr:housenumber" v="2518"/><tag k="coa:place_id" v="3171736"/></node><node id="-68" lat="30.179421" lon="-97.761475" changeset="false"><tag k="addr:street" v="Magin Meadow Drive"/><tag k="addr:housenumber" v="2505"/><tag k="coa:place_id" v="3171764"/></node><node id="-69" lat="30.179411" lon="-97.761359" changeset="false"><tag k="addr:street" v="Magin Meadow Drive"/><tag k="addr:housenumber" v="2507"/><tag k="coa:place_id" v="3171765"/></node><node id="-70" lat="30.178043" lon="-97.75571" changeset="false"><tag k="addr:street" v="Blue Meadow Drive"/><tag k="addr:housenumber" v="4705"/><tag k="coa:place_id" v="3073291"/></node><node id="-71" lat="30.179775" lon="-97.761111" changeset="false"><tag k="addr:street" v="Magin Meadow Drive"/><tag k="addr:housenumber" v="2508"/><tag k="coa:place_id" v="3171731"/></node><node id="-72" lat="30.178354" lon="-97.762803" changeset="false"><tag k="addr:street" v="Lendall Lane"/><tag k="addr:housenumber" v="2400"/><tag k="coa:place_id" v="163659"/></node><node id="-73" lat="30.177715" lon="-97.761814" changeset="false"><tag k="addr:street" v="Lendall Lane"/><tag k="addr:housenumber" v="2505"/><tag k="coa:place_id" v="73926"/></node><node id="-74" lat="30.180008" lon="-97.760533" changeset="false"><tag k="addr:street" v="Blue Meadow Drive"/><tag k="addr:housenumber" v="2501"/><tag k="coa:place_id" v="142234"/></node><node id="-75" lat="30.179292" lon="-97.762025" changeset="false"><tag k="addr:street" v="Leppke Cove"/><tag k="addr:housenumber" v="7107 1/2"/><tag k="coa:place_id" v="3369502"/></node><node id="-76" lat="30.179476" lon="-97.761718" changeset="false"><tag k="addr:street" v="Magin Meadow Drive"/><tag k="addr:housenumber" v="2501"/><tag k="coa:place_id" v="3171762"/></node><node id="-77" lat="30.179242" lon="-97.76062" changeset="false"><tag k="addr:street" v="Magin Meadow Drive"/><tag k="addr:housenumber" v="2519"/><tag k="coa:place_id" v="3171771"/></node><node id="-78" lat="30.177238" lon="-97.760381" changeset="false"><tag k="addr:street" v="Lendall Lane"/><tag k="addr:housenumber" v="4405"/><tag k="coa:place_id" v="73934"/></node><node id="-79" lat="30.176578" lon="-97.758357" changeset="false"><tag k="addr:street" v="Deep Lane"/><tag k="addr:housenumber" v="7211"/><tag k="coa:place_id" v="148661"/></node><node id="-80" lat="30.177702" lon="-97.752245" changeset="false"><tag k="addr:street" v="Barkbridge Trail"/><tag k="addr:housenumber" v="4916"/><tag k="coa:place_id" v="816410"/></node><node id="-81" lat="30.177667" lon="-97.752157" changeset="false"><tag k="addr:street" v="Barkbridge Trail"/><tag k="addr:housenumber" v="4918"/><tag k="coa:place_id" v="816398"/></node><node id="-82" lat="30.177603" lon="-97.752143" changeset="false"><tag k="addr:street" v="Barkbridge Trail"/><tag k="addr:housenumber" v="4920"/><tag k="coa:place_id" v="816392"/></node><node id="-83" lat="30.176421" lon="-97.75231" changeset="false"><tag k="addr:street" v="Ten Oaks Circle"/><tag k="addr:housenumber" v="6921"/><tag k="coa:place_id" v="91863"/></node><node id="-84" lat="30.177034" lon="-97.752308" changeset="false"><tag k="addr:street" v="Ten Oaks Circle"/><tag k="addr:housenumber" v="6901"/><tag k="coa:place_id" v="958634"/></node><node id="-85" lat="30.176888" lon="-97.752421" changeset="false"><tag k="addr:street" v="Ten Oaks Circle"/><tag k="addr:housenumber" v="6907"/><tag k="coa:place_id" v="1035956"/></node><node id="-86" lat="30.176817" lon="-97.752449" changeset="false"><tag k="addr:street" v="Ten Oaks Circle"/><tag k="addr:housenumber" v="6909"/><tag k="coa:place_id" v="1020860"/></node><node id="-87" lat="30.176689" lon="-97.752343" changeset="false"><tag k="addr:street" v="Ten Oaks Circle"/><tag k="addr:housenumber" v="6913"/><tag k="coa:place_id" v="962222"/></node><node id="-88" lat="30.176579" lon="-97.75234" changeset="false"><tag k="addr:street" v="Ten Oaks Circle"/><tag k="addr:housenumber" v="6915"/><tag k="coa:place_id" v="961622"/></node><node id="-89" lat="30.176761" lon="-97.752367" changeset="false"><tag k="addr:street" v="Ten Oaks Circle"/><tag k="addr:housenumber" v="6911"/><tag k="coa:place_id" v="1023752"/></node><node id="-90" lat="30.176547" lon="-97.752268" changeset="false"><tag k="addr:street" v="Ten Oaks Circle"/><tag k="addr:housenumber" v="6917"/><tag k="coa:place_id" v="990890"/></node><node id="-91" lat="30.17692" lon="-97.752345" changeset="false"><tag k="addr:street" v="Ten Oaks Circle"/><tag k="addr:housenumber" v="6905"/><tag k="coa:place_id" v="114975"/></node><node id="-92" lat="30.176965" lon="-97.752265" changeset="false"><tag k="addr:street" v="Ten Oaks Circle"/><tag k="addr:housenumber" v="6903"/><tag k="coa:place_id" v="1029476"/></node><node id="-93" lat="30.176472" lon="-97.752221" changeset="false"><tag k="addr:street" v="Ten Oaks Circle"/><tag k="addr:housenumber" v="6919"/><tag k="coa:place_id" v="1045022"/></node><node id="-94" lat="30.176371" lon="-97.752422" changeset="false"><tag k="addr:street" v="Ten Oaks Circle"/><tag k="addr:housenumber" v="6923"/><tag k="coa:place_id" v="989258"/></node><node id="-95" lat="30.177798" lon="-97.753326" changeset="false"><tag k="addr:street" v="Lovely Lane"/><tag k="addr:housenumber" v="6903"/><tag k="coa:place_id" v="816488"/></node><node id="-96" lat="30.177883" lon="-97.753358" changeset="false"><tag k="addr:street" v="Lovely Lane"/><tag k="addr:housenumber" v="6901"/><tag k="coa:place_id" v="100323"/></node><node id="-97" lat="30.177715" lon="-97.753441" changeset="false"><tag k="addr:street" v="Lovely Lane"/><tag k="addr:housenumber" v="6907"/><tag k="coa:place_id" v="816482"/></node><node id="-98" lat="30.177741" lon="-97.75336" changeset="false"><tag k="addr:street" v="Lovely Lane"/><tag k="addr:housenumber" v="6905"/><tag k="coa:place_id" v="523924"/></node><node id="-99" lat="30.177827" lon="-97.752873" changeset="false"><tag k="addr:street" v="Yucca Hill Drive"/><tag k="addr:housenumber" v="4813"/><tag k="coa:place_id" v="270657"/></node><node id="-100" lat="30.177979" lon="-97.752777" changeset="false"><tag k="addr:street" v="Yucca Hill Drive"/><tag k="addr:housenumber" v="4819"/><tag k="coa:place_id" v="144081"/></node><node id="-101" lat="30.177867" lon="-97.752797" changeset="false"><tag k="addr:street" v="Yucca Hill Drive"/><tag k="addr:housenumber" v="4815"/><tag k="coa:place_id" v="152931"/></node><node id="-102" lat="30.177905" lon="-97.752773" changeset="false"><tag k="addr:street" v="Yucca Hill Drive"/><tag k="addr:housenumber" v="4817"/><tag k="coa:place_id" v="155721"/></node><node id="-103" lat="30.178401" lon="-97.753906" changeset="false"><tag k="addr:street" v="Yucca Hill Drive"/><tag k="addr:housenumber" v="4703"/><tag k="coa:place_id" v="360220"/></node><node id="-104" lat="30.178271" lon="-97.753732" changeset="false"><tag k="addr:street" v="Yucca Hill Drive"/><tag k="addr:housenumber" v="4709"/><tag k="coa:place_id" v="265059"/></node><node id="-105" lat="30.178187" lon="-97.753552" changeset="false"><tag k="addr:street" v="Yucca Hill Drive"/><tag k="addr:housenumber" v="4715"/><tag k="coa:place_id" v="263097"/></node><node id="-106" lat="30.178177" lon="-97.753713" changeset="false"><tag k="addr:street" v="Yucca Hill Drive"/><tag k="addr:housenumber" v="4711"/><tag k="coa:place_id" v="312405"/></node><node id="-107" lat="30.178153" lon="-97.753648" changeset="false"><tag k="addr:street" v="Yucca Hill Drive"/><tag k="addr:housenumber" v="4713"/><tag k="coa:place_id" v="377037"/></node><node id="-108" lat="30.178446" lon="-97.753965" changeset="false"><tag k="addr:street" v="Yucca Hill Drive"/><tag k="addr:housenumber" v="4701"/><tag k="coa:place_id" v="292581"/></node><node id="-109" lat="30.178342" lon="-97.753848" changeset="false"><tag k="addr:street" v="Yucca Hill Drive"/><tag k="addr:housenumber" v="4705"/><tag k="coa:place_id" v="264615"/></node><node id="-110" lat="30.178304" lon="-97.753774" changeset="false"><tag k="addr:street" v="Yucca Hill Drive"/><tag k="addr:housenumber" v="4707"/><tag k="coa:place_id" v="268539"/></node><node id="-111" lat="30.177892" lon="-97.75298" changeset="false"><tag k="addr:street" v="Yucca Hill Drive"/><tag k="addr:housenumber" v="4811"/><tag k="coa:place_id" v="154695"/></node><node id="-112" lat="30.177908" lon="-97.75306" changeset="false"><tag k="addr:street" v="Yucca Hill Drive"/><tag k="addr:housenumber" v="4809"/><tag k="coa:place_id" v="140163"/></node><node id="-113" lat="30.178042" lon="-97.753298" changeset="false"><tag k="addr:street" v="Yucca Hill Drive"/><tag k="addr:housenumber" v="4801"/><tag k="coa:place_id" v="140235"/></node><node id="-114" lat="30.177983" lon="-97.753117" changeset="false"><tag k="addr:street" v="Yucca Hill Drive"/><tag k="addr:housenumber" v="4807"/><tag k="coa:place_id" v="143637"/></node><node id="-115" lat="30.178017" lon="-97.753165" changeset="false"><tag k="addr:street" v="Yucca Hill Drive"/><tag k="addr:housenumber" v="4805"/><tag k="coa:place_id" v="133833"/></node><node id="-116" lat="30.178079" lon="-97.753212" changeset="false"><tag k="addr:street" v="Yucca Hill Drive"/><tag k="addr:housenumber" v="4803"/><tag k="coa:place_id" v="134379"/></node><node id="-117" lat="30.17698" lon="-97.753417" changeset="false"><tag k="addr:street" v="Misty Slope Lane"/><tag k="addr:housenumber" v="4821"/><tag k="coa:place_id" v="425583"/></node><node id="-118" lat="30.177112" lon="-97.753563" changeset="false"><tag k="addr:street" v="Misty Slope Lane"/><tag k="addr:housenumber" v="4815"/><tag k="coa:place_id" v="492087"/></node><node id="-119" lat="30.177003" lon="-97.753483" changeset="false"><tag k="addr:street" v="Misty Slope Lane"/><tag k="addr:housenumber" v="4819"/><tag k="coa:place_id" v="492099"/></node><node id="-120" lat="30.177086" lon="-97.753508" changeset="false"><tag k="addr:street" v="Misty Slope Lane"/><tag k="addr:housenumber" v="4817"/><tag k="coa:place_id" v="492093"/></node><node id="-121" lat="30.177016" lon="-97.753316" changeset="false"><tag k="addr:street" v="Misty Slope Lane"/><tag k="addr:housenumber" v="4823"/><tag k="coa:place_id" v="499599"/></node><node id="-122" lat="30.177561" lon="-97.753475" changeset="false"><tag k="addr:street" v="Misty Slope Lane"/><tag k="addr:housenumber" v="4802"/><tag k="coa:place_id" v="943136"/></node><node id="-123" lat="30.177473" lon="-97.753163" changeset="false"><tag k="addr:street" v="Misty Slope Lane"/><tag k="addr:housenumber" v="4810"/><tag k="coa:place_id" v="816470"/></node><node id="-124" lat="30.177472" lon="-97.753256" changeset="false"><tag k="addr:street" v="Misty Slope Lane"/><tag k="addr:housenumber" v="4808"/><tag k="coa:place_id" v="93111"/></node><node id="-125" lat="30.177492" lon="-97.753298" changeset="false"><tag k="addr:street" v="Misty Slope Lane"/><tag k="addr:housenumber" v="4806"/><tag k="coa:place_id" v="816368"/></node><node id="-126" lat="30.177424" lon="-97.753092" changeset="false"><tag k="addr:street" v="Misty Slope Lane"/><tag k="addr:housenumber" v="4812"/><tag k="coa:place_id" v="816464"/></node><node id="-127" lat="30.177525" lon="-97.75356" changeset="false"><tag k="addr:street" v="Misty Slope Lane"/><tag k="addr:housenumber" v="4800"/><tag k="coa:place_id" v="92157"/></node><node id="-128" lat="30.177529" lon="-97.753374" changeset="false"><tag k="addr:street" v="Misty Slope Lane"/><tag k="addr:housenumber" v="4804"/><tag k="coa:place_id" v="544360"/></node><node id="-129" lat="30.176457" lon="-97.752716" changeset="false"><tag k="addr:street" v="Ten Oaks Circle"/><tag k="addr:housenumber" v="7001"/><tag k="coa:place_id" v="946532"/></node><node id="-130" lat="30.176422" lon="-97.752876" changeset="false"><tag k="addr:street" v="Ten Oaks Circle"/><tag k="addr:housenumber" v="7005"/><tag k="coa:place_id" v="992510"/></node><node id="-131" lat="30.176494" lon="-97.752921" changeset="false"><tag k="addr:street" v="Ten Oaks Circle"/><tag k="addr:housenumber" v="7007"/><tag k="coa:place_id" v="1044998"/></node><node id="-132" lat="30.176406" lon="-97.752799" changeset="false"><tag k="addr:street" v="Ten Oaks Circle"/><tag k="addr:housenumber" v="7003"/><tag k="coa:place_id" v="1044716"/></node><node id="-133" lat="30.177708" lon="-97.752415" changeset="false"><tag k="addr:street" v="Barkbridge Trail"/><tag k="addr:housenumber" v="4914"/><tag k="coa:place_id" v="598678"/></node><node id="-134" lat="30.177548" lon="-97.75281" changeset="false"><tag k="addr:street" v="Barkbridge Trail"/><tag k="addr:housenumber" v="4902"/><tag k="coa:place_id" v="816434"/></node><node id="-135" lat="30.177476" lon="-97.752812" changeset="false"><tag k="addr:street" v="Barkbridge Trail"/><tag k="addr:housenumber" v="4900"/><tag k="coa:place_id" v="816446"/></node><node id="-136" lat="30.177575" lon="-97.752645" changeset="false"><tag k="addr:street" v="Barkbridge Trail"/><tag k="addr:housenumber" v="4906"/><tag k="coa:place_id" v="816422"/></node><node id="-137" lat="30.177716" lon="-97.75253" changeset="false"><tag k="addr:street" v="Barkbridge Trail"/><tag k="addr:housenumber" v="4912"/><tag k="coa:place_id" v="816386"/></node><node id="-138" lat="30.177593" lon="-97.752748" changeset="false"><tag k="addr:street" v="Barkbridge Trail"/><tag k="addr:housenumber" v="4904"/><tag k="coa:place_id" v="816428"/></node><node id="-139" lat="30.177607" lon="-97.752603" changeset="false"><tag k="addr:street" v="Barkbridge Trail"/><tag k="addr:housenumber" v="4908"/><tag k="coa:place_id" v="147915"/></node><node id="-140" lat="30.177689" lon="-97.752596" changeset="false"><tag k="addr:street" v="Barkbridge Trail"/><tag k="addr:housenumber" v="4910"/><tag k="coa:place_id" v="816404"/></node><node id="-141" lat="30.176455" lon="-97.753435" changeset="false"><tag k="addr:street" v="Misty Slope Lane"/><tag k="addr:housenumber" v="4917"/><tag k="coa:place_id" v="492153"/></node><node id="-142" lat="30.176843" lon="-97.753186" changeset="false"><tag k="addr:street" v="Misty Slope Lane"/><tag k="addr:housenumber" v="4903"/><tag k="coa:place_id" v="492111"/></node><node id="-143" lat="30.176651" lon="-97.753343" changeset="false"><tag k="addr:street" v="Misty Slope Lane"/><tag k="addr:housenumber" v="4911"/><tag k="coa:place_id" v="492135"/></node><node id="-144" lat="30.176844" lon="-97.753095" changeset="false"><tag k="addr:street" v="Misty Slope Lane"/><tag k="addr:housenumber" v="4901"/><tag k="coa:place_id" v="492105"/></node><node id="-145" lat="30.17668" lon="-97.753268" changeset="false"><tag k="addr:street" v="Misty Slope Lane"/><tag k="addr:housenumber" v="4909"/><tag k="coa:place_id" v="492129"/></node><node id="-146" lat="30.176704" lon="-97.753233" changeset="false"><tag k="addr:street" v="Misty Slope Lane"/><tag k="addr:housenumber" v="4907"/><tag k="coa:place_id" v="492123"/></node><node id="-147" lat="30.176446" lon="-97.75352" changeset="false"><tag k="addr:street" v="Misty Slope Lane"/><tag k="addr:housenumber" v="4919"/><tag k="coa:place_id" v="492159"/></node><node id="-148" lat="30.176786" lon="-97.753231" changeset="false"><tag k="addr:street" v="Misty Slope Lane"/><tag k="addr:housenumber" v="4905"/><tag k="coa:place_id" v="492117"/></node><node id="-149" lat="30.176303" lon="-97.753561" changeset="false"><tag k="addr:street" v="Misty Slope Lane"/><tag k="addr:housenumber" v="4923"/><tag k="coa:place_id" v="492171"/></node><node id="-150" lat="30.176564" lon="-97.75338" changeset="false"><tag k="addr:street" v="Misty Slope Lane"/><tag k="addr:housenumber" v="4913"/><tag k="coa:place_id" v="492141"/></node><node id="-151" lat="30.176501" lon="-97.753396" changeset="false"><tag k="addr:street" v="Misty Slope Lane"/><tag k="addr:housenumber" v="4915"/><tag k="coa:place_id" v="492147"/></node><node id="-152" lat="30.176383" lon="-97.753571" changeset="false"><tag k="addr:street" v="Misty Slope Lane"/><tag k="addr:housenumber" v="4921"/><tag k="coa:place_id" v="492165"/></node><node id="-153" lat="30.17835" lon="-97.754249" changeset="false"><tag k="addr:street" v="Old Post Loop"/><tag k="addr:housenumber" v="6903"/><tag k="coa:place_id" v="266253"/></node><node id="-154" lat="30.178304" lon="-97.754159" changeset="false"><tag k="addr:street" v="Old Post Loop"/><tag k="addr:housenumber" v="6905"/><tag k="coa:place_id" v="268053"/></node><node id="-155" lat="30.177351" lon="-97.754619" changeset="false"><tag k="addr:street" v="Misty Slope Lane"/><tag k="addr:housenumber" v="4711"/><tag k="coa:place_id" v="492009"/></node><node id="-156" lat="30.177367" lon="-97.754454" changeset="false"><tag k="addr:street" v="Misty Slope Lane"/><tag k="addr:housenumber" v="4715"/><tag k="coa:place_id" v="492021"/></node><node id="-157" lat="30.177295" lon="-97.754157" changeset="false"><tag k="addr:street" v="Misty Slope Lane"/><tag k="addr:housenumber" v="4723"/><tag k="coa:place_id" v="419961"/></node><node id="-158" lat="30.177322" lon="-97.754547" changeset="false"><tag k="addr:street" v="Misty Slope Lane"/><tag k="addr:housenumber" v="4713"/><tag k="coa:place_id" v="492015"/></node><node id="-159" lat="30.177307" lon="-97.754352" changeset="false"><tag k="addr:street" v="Misty Slope Lane"/><tag k="addr:housenumber" v="4719"/><tag k="coa:place_id" v="492039"/></node><node id="-160" lat="30.177282" lon="-97.754238" changeset="false"><tag k="addr:street" v="Misty Slope Lane"/><tag k="addr:housenumber" v="4721"/><tag k="coa:place_id" v="492045"/></node><node id="-161" lat="30.177355" lon="-97.754405" changeset="false"><tag k="addr:street" v="Misty Slope Lane"/><tag k="addr:housenumber" v="4717"/><tag k="coa:place_id" v="492033"/></node><node id="-162" lat="30.177485" lon="-97.754872" changeset="false"><tag k="addr:street" v="Misty Slope Lane"/><tag k="addr:housenumber" v="4703"/><tag k="coa:place_id" v="379881"/></node><node id="-163" lat="30.177478" lon="-97.754683" changeset="false"><tag k="addr:street" v="Misty Slope Lane"/><tag k="addr:housenumber" v="4707"/><tag k="coa:place_id" v="491997"/></node><node id="-164" lat="30.177477" lon="-97.754774" changeset="false"><tag k="addr:street" v="Misty Slope Lane"/><tag k="addr:housenumber" v="4705"/><tag k="coa:place_id" v="491991"/></node><node id="-165" lat="30.177445" lon="-97.754643" changeset="false"><tag k="addr:street" v="Misty Slope Lane"/><tag k="addr:housenumber" v="4709"/><tag k="coa:place_id" v="492003"/></node><node id="-166" lat="30.177971" lon="-97.753732" changeset="false"><tag k="addr:street" v="Lovely Lane"/><tag k="addr:housenumber" v="6900"/><tag k="coa:place_id" v="477129"/></node><node id="-167" lat="30.177591" lon="-97.753971" changeset="false"><tag k="addr:street" v="Lovely Lane"/><tag k="addr:housenumber" v="6914"/><tag k="coa:place_id" v="399435"/></node><node id="-168" lat="30.177885" lon="-97.753857" changeset="false"><tag k="addr:street" v="Lovely Lane"/><tag k="addr:housenumber" v="6904"/><tag k="coa:place_id" v="387597"/></node><node id="-169" lat="30.177652" lon="-97.754009" changeset="false"><tag k="addr:street" v="Lovely Lane"/><tag k="addr:housenumber" v="6912"/><tag k="coa:place_id" v="491985"/></node><node id="-170" lat="30.17793" lon="-97.753779" changeset="false"><tag k="addr:street" v="Lovely Lane"/><tag k="addr:housenumber" v="6902"/><tag k="coa:place_id" v="491967"/></node><node id="-171" lat="30.177795" lon="-97.753873" changeset="false"><tag k="addr:street" v="Lovely Lane"/><tag k="addr:housenumber" v="6906"/><tag k="coa:place_id" v="430251"/></node><node id="-172" lat="30.177754" lon="-97.753889" changeset="false"><tag k="addr:street" v="Lovely Lane"/><tag k="addr:housenumber" v="6908"/><tag k="coa:place_id" v="491973"/></node><node id="-173" lat="30.177723" lon="-97.753971" changeset="false"><tag k="addr:street" v="Lovely Lane"/><tag k="addr:housenumber" v="6910"/><tag k="coa:place_id" v="491979"/></node><node id="-174" lat="30.17788" lon="-97.754287" changeset="false"><tag k="addr:street" v="Old Post Loop"/><tag k="addr:housenumber" v="6917"/><tag k="coa:place_id" v="477117"/></node><node id="-175" lat="30.177912" lon="-97.754237" changeset="false"><tag k="addr:street" v="Old Post Loop"/><tag k="addr:housenumber" v="6915"/><tag k="coa:place_id" v="270069"/></node><node id="-176" lat="30.177952" lon="-97.754152" changeset="false"><tag k="addr:street" v="Old Post Loop"/><tag k="addr:housenumber" v="6913"/><tag k="coa:place_id" v="477057"/></node><node id="-177" lat="30.177811" lon="-97.754258" changeset="false"><tag k="addr:street" v="Old Post Loop"/><tag k="addr:housenumber" v="6919"/><tag k="coa:place_id" v="477123"/></node><node id="-178" lat="30.178" lon="-97.754107" changeset="false"><tag k="addr:street" v="Old Post Loop"/><tag k="addr:housenumber" v="6911"/><tag k="coa:place_id" v="477051"/></node><node id="-179" lat="30.177754" lon="-97.754286" changeset="false"><tag k="addr:street" v="Old Post Loop"/><tag k="addr:housenumber" v="6921"/><tag k="coa:place_id" v="410199"/></node><node id="-180" lat="30.177134" lon="-97.753957" changeset="false"><tag k="addr:street" v="Misty Slope Lane"/><tag k="addr:housenumber" v="4805"/><tag k="coa:place_id" v="492063"/></node><node id="-181" lat="30.177173" lon="-97.753877" changeset="false"><tag k="addr:street" v="Misty Slope Lane"/><tag k="addr:housenumber" v="4807"/><tag k="coa:place_id" v="492069"/></node><node id="-182" lat="30.177176" lon="-97.75401" changeset="false"><tag k="addr:street" v="Misty Slope Lane"/><tag k="addr:housenumber" v="4803"/><tag k="coa:place_id" v="492057"/></node><node id="-183" lat="30.177127" lon="-97.753744" changeset="false"><tag k="addr:street" v="Misty Slope Lane"/><tag k="addr:housenumber" v="4811"/><tag k="coa:place_id" v="492075"/></node><node id="-184" lat="30.177169" lon="-97.753808" changeset="false"><tag k="addr:street" v="Misty Slope Lane"/><tag k="addr:housenumber" v="4809"/><tag k="coa:place_id" v="499587"/></node><node id="-185" lat="30.17724" lon="-97.754053" changeset="false"><tag k="addr:street" v="Misty Slope Lane"/><tag k="addr:housenumber" v="4801"/><tag k="coa:place_id" v="492051"/></node><node id="-186" lat="30.177119" lon="-97.753647" changeset="false"><tag k="addr:street" v="Misty Slope Lane"/><tag k="addr:housenumber" v="4813"/><tag k="coa:place_id" v="492081"/></node></osm>