<?xml version="1.0" encoding="UTF-8"?><osm version="0.6" generator="github.com/aaronlidman/osm-and-geojson"><node id="-1" lat="30.425359" lon="-97.685555" changeset="false"><tag k="addr:street" v="Creole Drive"/><tag k="addr:housenumber" v="1901"/><tag k="addr:postcode" v="78727"/></node><node id="-2" lat="30.436762" lon="-97.692884" changeset="false"><tag k="addr:street" v="Orchid Lane"/><tag k="addr:housenumber" v="13805"/><tag k="addr:postcode" v="78727"/></node><node id="-3" lat="30.436139" lon="-97.693355" changeset="false"><tag k="addr:street" v="Gardenia Drive"/><tag k="addr:housenumber" v="2710"/><tag k="addr:postcode" v="78727"/></node><node id="-4" lat="30.421405" lon="-97.683534" changeset="false"><tag k="addr:street" v="Metric Boulevard"/><tag k="addr:housenumber" v="13120"/><tag k="addr:postcode" v="78727"/></node><node id="-5" lat="30.429582" lon="-97.683348" changeset="false"><tag k="addr:street" v="West Howard Lane"/><tag k="addr:housenumber" v="2001"/><tag k="addr:postcode" v="78727"/></node><node id="-6" lat="30.433951" lon="-97.68609" changeset="false"><tag k="addr:street" v="West Howard Lane"/><tag k="addr:housenumber" v="2121"/><tag k="addr:postcode" v="78727"/></node><node id="-7" lat="30.435402" lon="-97.691114" changeset="false"><tag k="addr:street" v="Gardenia Drive"/><tag k="addr:housenumber" v="2504"/><tag k="addr:postcode" v="78727"/></node><node id="-8" lat="30.436" lon="-97.692784" changeset="false"><tag k="addr:street" v="Gardenia Drive"/><tag k="addr:housenumber" v="2704"/><tag k="addr:postcode" v="78727"/></node><node id="-9" lat="30.43546" lon="-97.688707" changeset="false"><tag k="addr:street" v="West Howard Lane"/><tag k="addr:housenumber" v="2315"/><tag k="addr:postcode" v="78727"/></node><node id="-10" lat="30.435173" lon="-97.687758" changeset="false"><tag k="addr:street" v="West Howard Lane"/><tag k="addr:housenumber" v="2219"/><tag k="addr:postcode" v="78727"/></node><node id="-11" lat="30.435851" lon="-97.690877" changeset="false"><tag k="addr:street" v="Daisy Drive"/><tag k="addr:housenumber" v="2505"/><tag k="addr:postcode" v="78727"/></node><node id="-12" lat="30.434666" lon="-97.687022" changeset="false"><tag k="addr:street" v="West Howard Lane"/><tag k="addr:housenumber" v="2213"/><tag k="addr:postcode" v="78727"/></node><node id="-13" lat="30.416987" lon="-97.68546" changeset="false"><tag k="addr:street" v="Withers Way"/><tag k="addr:housenumber" v="12821"/><tag k="addr:postcode" v="78727"/></node><node id="-14" lat="30.432627" lon="-97.687488" changeset="false"><tag k="addr:street" v="Pansy Trail"/><tag k="addr:housenumber" v="13704"/><tag k="addr:postcode" v="78727"/></node><node id="-15" lat="30.427807" lon="-97.688972" changeset="false"><tag k="addr:street" v="Lamplight Village Avenue"/><tag k="addr:housenumber" v="13321"/><tag k="addr:postcode" v="78727"/></node><node id="-16" lat="30.433809" lon="-97.686334" changeset="false"><tag k="addr:street" v="Pansy Trail"/><tag k="addr:housenumber" v="13801"/><tag k="addr:postcode" v="78727"/></node><node id="-17" lat="30.42733" lon="-97.690255" changeset="false"><tag k="addr:street" v="Rodeo Cove"/><tag k="addr:housenumber" v="13301"/><tag k="addr:postcode" v="78727"/></node><node id="-18" lat="30.418711" lon="-97.689026" changeset="false"><tag k="addr:street" v="Staton Cove"/><tag k="addr:housenumber" v="1807"/><tag k="addr:postcode" v="78727"/></node><node id="-19" lat="30.435087" lon="-97.695066" changeset="false"><tag k="addr:street" v="Century Park Boulevard"/><tag k="addr:housenumber" v="2900 1/2"/><tag k="addr:postcode" v="78727"/></node><node id="-20" lat="30.429773" lon="-97.691827" changeset="false"><tag k="addr:street" v="Equestrian Cove"/><tag k="addr:housenumber" v="13407"/><tag k="addr:postcode" v="78727"/></node><node id="-21" lat="30.41978" lon="-97.684522" changeset="false"><tag k="addr:street" v="Withers Way"/><tag k="addr:housenumber" v="13021"/><tag k="addr:postcode" v="78727"/></node><node id="-22" lat="30.418539" lon="-97.689365" changeset="false"><tag k="addr:street" v="Scofield Lane"/><tag k="addr:housenumber" v="1812"/><tag k="addr:postcode" v="78727"/></node><node id="-23" lat="30.431829" lon="-97.68625" changeset="false"><tag k="addr:street" v="Avenue N"/><tag k="addr:housenumber" v="2020"/><tag k="addr:postcode" v="78727"/></node><node id="-24" lat="30.438767" lon="-97.695522" changeset="false"><tag k="addr:street" v="West Howard Lane"/><tag k="addr:housenumber" v="3105"/><tag k="addr:postcode" v="78727"/></node><node id="-25" lat="30.427596" lon="-97.680895" changeset="false"><tag k="addr:street" v="Maize Bend Drive"/><tag k="addr:housenumber" v="1732"/><tag k="addr:postcode" v="78727"/></node><node id="-26" lat="30.434843" lon="-97.690581" changeset="false"><tag k="addr:street" v="Gardenia Drive"/><tag k="addr:housenumber" v="2408"/><tag k="addr:postcode" v="78727"/></node><node id="-27" lat="30.435473" lon="-97.691457" changeset="false"><tag k="addr:street" v="Gardenia Drive"/><tag k="addr:housenumber" v="2508"/><tag k="addr:postcode" v="78727"/></node><node id="-28" lat="30.419095" lon="-97.688685" changeset="false"><tag k="addr:street" v="Staton Cove"/><tag k="addr:housenumber" v="1804"/><tag k="addr:postcode" v="78727"/></node><node id="-29" lat="30.427669" lon="-97.689296" changeset="false"><tag k="addr:street" v="Lamplight Village Avenue"/><tag k="addr:housenumber" v="13312"/><tag k="addr:postcode" v="78727"/></node><node id="-30" lat="30.427541" lon="-97.690435" changeset="false"><tag k="addr:street" v="Rodeo Drive"/><tag k="addr:housenumber" v="2118"/><tag k="addr:postcode" v="78727"/></node><node id="-31" lat="30.435209" lon="-97.687734" changeset="false"><tag k="addr:street" v="West Howard Lane"/><tag k="addr:housenumber" v="2305"/><tag k="addr:postcode" v="78727"/></node><node id="-32" lat="30.418429" lon="-97.68927" changeset="false"><tag k="addr:street" v="Scofield Lane"/><tag k="addr:housenumber" v="1810"/><tag k="addr:postcode" v="78727"/></node><node id="-33" lat="30.423891" lon="-97.685778" changeset="false"><tag k="addr:street" v="Rampart Street"/><tag k="addr:housenumber" v="13215"/><tag k="addr:postcode" v="78727"/></node><node id="-34" lat="30.416667" lon="-97.685806" changeset="false"><tag k="addr:street" v="Withers Way"/><tag k="addr:housenumber" v="12809"/><tag k="addr:postcode" v="78727"/></node><node id="-35" lat="30.427016" lon="-97.688409" changeset="false"><tag k="addr:street" v="Creole Drive"/><tag k="addr:housenumber" v="2029"/><tag k="addr:postcode" v="78727"/></node><node id="-36" lat="30.433023" lon="-97.688425" changeset="false"><tag k="addr:street" v="Gardenia Drive"/><tag k="addr:housenumber" v="2215"/><tag k="addr:postcode" v="78727"/></node><node id="-37" lat="30.438337" lon="-97.694238" changeset="false"><tag k="addr:street" v="West Howard Lane"/><tag k="addr:housenumber" v="3007"/><tag k="addr:postcode" v="78727"/></node><node id="-38" lat="30.416193" lon="-97.688279" changeset="false"><tag k="addr:street" v="Yearling Cove"/><tag k="addr:housenumber" v="12716"/><tag k="addr:postcode" v="78727"/></node><node id="-39" lat="30.435461" lon="-97.688321" changeset="false"><tag k="addr:street" v="West Howard Lane"/><tag k="addr:housenumber" v="2311"/><tag k="addr:postcode" v="78727"/></node><node id="-40" lat="30.435513" lon="-97.693399" changeset="false"><tag k="addr:street" v="Gardenia Drive"/><tag k="addr:housenumber" v="2709"/><tag k="addr:postcode" v="78727"/></node><node id="-41" lat="30.435761" lon="-97.693563" changeset="false"><tag k="addr:street" v="Gardenia Drive"/><tag k="addr:housenumber" v="2711"/><tag k="addr:postcode" v="78727"/></node><node id="-42" lat="30.435419" lon="-97.690167" changeset="false"><tag k="addr:street" v="Daisy Drive"/><tag k="addr:housenumber" v="2409"/><tag k="addr:postcode" v="78727"/></node><node id="-43" lat="30.416093" lon="-97.688249" changeset="false"><tag k="addr:street" v="Yearling Cove"/><tag k="addr:housenumber" v="12712"/><tag k="addr:postcode" v="78727"/></node><node id="-44" lat="30.438641" lon="-97.695278" changeset="false"><tag k="addr:street" v="West Howard Lane"/><tag k="addr:housenumber" v="3103"/><tag k="addr:postcode" v="78727"/></node><node id="-45" lat="30.437705" lon="-97.694099" changeset="false"><tag k="addr:street" v="West Howard Lane"/><tag k="addr:housenumber" v="2905"/><tag k="addr:postcode" v="78727"/></node><node id="-46" lat="30.434851" lon="-97.691499" changeset="false"><tag k="addr:street" v="Gardenia Drive"/><tag k="addr:housenumber" v="2505"/><tag k="addr:postcode" v="78727"/></node><node id="-47" lat="30.434277" lon="-97.695536" changeset="false"><tag k="addr:street" v="Elm Ridge Lane"/><tag k="addr:housenumber" v="13600"/><tag k="addr:postcode" v="78727"/></node><node id="-48" lat="30.417103" lon="-97.685356" changeset="false"><tag k="addr:street" v="Withers Way"/><tag k="addr:housenumber" v="12825"/><tag k="addr:postcode" v="78727"/></node><node id="-49" lat="30.432261" lon="-97.685351" changeset="false"><tag k="addr:street" v="West Howard Lane"/><tag k="addr:housenumber" v="2101"/><tag k="addr:postcode" v="78727"/></node><node id="-50" lat="30.432664" lon="-97.68783" changeset="false"><tag k="addr:street" v="Avenue N"/><tag k="addr:housenumber" v="2205"/><tag k="addr:postcode" v="78727"/></node><node id="-51" lat="30.417544" lon="-97.686713" changeset="false"><tag k="addr:street" v="Meehan Drive"/><tag k="addr:housenumber" v="12812"/><tag k="addr:postcode" v="78727"/></node><node id="-52" lat="30.436473" lon="-97.69214" changeset="false"><tag k="addr:street" v="Daisy Drive"/><tag k="addr:housenumber" v="2701"/><tag k="addr:postcode" v="78727"/></node><node id="-53" lat="30.418538" lon="-97.688736" changeset="false"><tag k="addr:street" v="Staton Cove"/><tag k="addr:housenumber" v="1805"/><tag k="addr:postcode" v="78727"/></node><node id="-54" lat="30.427627" lon="-97.688983" changeset="false"><tag k="addr:street" v="Lamplight Village Avenue"/><tag k="addr:housenumber" v="13313"/><tag k="addr:postcode" v="78727"/></node><node id="-55" lat="30.432954" lon="-97.688007" changeset="false"><tag k="addr:street" v="Gardenia Drive"/><tag k="addr:housenumber" v="2209"/><tag k="addr:postcode" v="78727"/></node><node id="-56" lat="30.432158" lon="-97.687987" changeset="false"><tag k="addr:street" v="Pansy Trail"/><tag k="addr:housenumber" v="13700"/><tag k="addr:postcode" v="78727"/></node><node id="-57" lat="30.439718" lon="-97.69692" changeset="false"><tag k="addr:street" v="Wells Branch Parkway"/><tag k="addr:housenumber" v="3501"/><tag k="addr:postcode" v="78727"/></node><node id="-58" lat="30.434381" lon="-97.68682" changeset="false"><tag k="addr:street" v="Daisy Drive"/><tag k="addr:housenumber" v="2204"/><tag k="addr:postcode" v="78727"/></node><node id="-59" lat="30.429171" lon="-97.681763" changeset="false"><tag k="addr:street" v="West Howard Lane"/><tag k="addr:housenumber" v="1901"/><tag k="addr:postcode" v="78727"/></node><node id="-60" lat="30.432502" lon="-97.694438" changeset="false"><tag k="addr:street" v="William Kennedy Drive"/><tag k="addr:housenumber" v="13500"/><tag k="addr:postcode" v="78727"/></node><node id="-61" lat="30.435055" lon="-97.698525" changeset="false"><tag k="addr:street" v="Century Park Boulevard"/><tag k="addr:housenumber" v="3205"/><tag k="addr:postcode" v="78727"/></node><node id="-62" lat="30.433282" lon="-97.688998" changeset="false"><tag k="addr:street" v="Gardenia Drive"/><tag k="addr:housenumber" v="2305"/><tag k="addr:postcode" v="78727"/></node><node id="-63" lat="30.436903" lon="-97.695937" changeset="false"><tag k="addr:street" v="Ida Ridge Drive"/><tag k="addr:housenumber" v="13700"/><tag k="addr:postcode" v="78727"/></node><node id="-64" lat="30.43159" lon="-97.685759" changeset="false"><tag k="addr:street" v="Avenue N"/><tag k="addr:housenumber" v="2008"/><tag k="addr:postcode" v="78727"/></node><node id="-65" lat="30.431584" lon="-97.694133" changeset="false"><tag k="addr:street" v="Anarosa Loop"/><tag k="addr:housenumber" v="13525"/><tag k="addr:postcode" v="78727"/></node><node id="-66" lat="30.418897" lon="-97.688968" changeset="false"><tag k="addr:street" v="Staton Cove"/><tag k="addr:housenumber" v="1806"/><tag k="addr:postcode" v="78727"/></node><node id="-67" lat="30.416766" lon="-97.685681" changeset="false"><tag k="addr:street" v="Withers Way"/><tag k="addr:housenumber" v="12813"/><tag k="addr:postcode" v="78727"/></node><node id="-68" lat="30.433806" lon="-97.686792" changeset="false"><tag k="addr:street" v="Pansy Trail"/><tag k="addr:housenumber" v="13804"/><tag k="addr:postcode" v="78727"/></node><node id="-69" lat="30.431496" lon="-97.685252" changeset="false"><tag k="addr:street" v="West Howard Lane"/><tag k="addr:housenumber" v="2011"/><tag k="addr:postcode" v="78727"/></node><node id="-70" lat="30.423321" lon="-97.683586" changeset="false"><tag k="addr:street" v="Chasewood Drive"/><tag k="addr:housenumber" v="1729"/><tag k="addr:postcode" v="78727"/></node><node id="-71" lat="30.436325" lon="-97.694174" changeset="false"><tag k="addr:street" v="West Howard Lane"/><tag k="addr:housenumber" v="2807"/><tag k="addr:postcode" v="78727"/></node><node id="-72" lat="30.434364" lon="-97.689321" changeset="false"><tag k="addr:street" v="Gardenia Drive"/><tag k="addr:housenumber" v="2314"/><tag k="addr:postcode" v="78727"/></node><node id="-73" lat="30.426348" lon="-97.678003" changeset="false"><tag k="addr:street" v="Metric Boulevard"/><tag k="addr:housenumber" v="13614"/><tag k="addr:postcode" v="78727"/></node><node id="-74" lat="30.418178" lon="-97.688982" changeset="false"><tag k="addr:street" v="Scofield Lane"/><tag k="addr:housenumber" v="1806"/><tag k="addr:postcode" v="78727"/></node><node id="-75" lat="30.432055" lon="-97.686691" changeset="false"><tag k="addr:street" v="Avenue N"/><tag k="addr:housenumber" v="2120"/><tag k="addr:postcode" v="78727"/></node><node id="-76" lat="30.435802" lon="-97.698578" changeset="false"><tag k="addr:street" v="Century Park Boulevard"/><tag k="addr:housenumber" v="3312 1/2"/><tag k="addr:postcode" v="78727"/></node><node id="-77" lat="30.436071" lon="-97.690175" changeset="false"><tag k="addr:street" v="Daisy Drive"/><tag k="addr:housenumber" v="2414"/><tag k="addr:postcode" v="78727"/></node><node id="-78" lat="30.418052" lon="-97.688763" changeset="false"><tag k="addr:street" v="Scofield Lane"/><tag k="addr:housenumber" v="1804"/><tag k="addr:postcode" v="78727"/></node><node id="-79" lat="30.437137" lon="-97.692037" changeset="false"><tag k="addr:street" v="West Howard Lane"/><tag k="addr:housenumber" v="2703"/><tag k="addr:postcode" v="78727"/></node><node id="-80" lat="30.430806" lon="-97.69932" changeset="false"><tag k="addr:street" v="Scofield Ridge Parkway"/><tag k="addr:housenumber" v="3100"/><tag k="addr:postcode" v="78727"/></node><node id="-81" lat="30.415498" lon="-97.68821" changeset="false"><tag k="addr:street" v="Yearling Cove"/><tag k="addr:housenumber" v="12700"/><tag k="addr:postcode" v="78727"/></node><node id="-82" lat="30.434929" lon="-97.69215" changeset="false"><tag k="addr:street" v="Gardenia Drive"/><tag k="addr:housenumber" v="2601"/><tag k="addr:postcode" v="78727"/></node><node id="-83" lat="30.434409" lon="-97.689626" changeset="false"><tag k="addr:street" v="Gardenia Drive"/><tag k="addr:housenumber" v="2400"/><tag k="addr:postcode" v="78727"/></node><node id="-84" lat="30.425885" lon="-97.682935" changeset="false"><tag k="addr:street" v="Will Rogers Lane"/><tag k="addr:housenumber" v="13500"/><tag k="addr:postcode" v="78727"/></node><node id="-85" lat="30.434628" lon="-97.691331" changeset="false"><tag k="addr:street" v="Gardenia Drive"/><tag k="addr:housenumber" v="2501"/><tag k="addr:postcode" v="78727"/></node><node id="-86" lat="30.432432" lon="-97.686468" changeset="false"><tag k="addr:street" v="Boricco Lane"/><tag k="addr:housenumber" v="2113"/><tag k="addr:postcode" v="78727"/></node><node id="-87" lat="30.416032" lon="-97.687269" changeset="false"><tag k="addr:street" v="Withers Way"/><tag k="addr:housenumber" v="12727"/><tag k="addr:postcode" v="78727"/></node><node id="-88" lat="30.425206" lon="-97.68547" changeset="false"><tag k="addr:street" v="Creole Drive"/><tag k="addr:housenumber" v="1823"/><tag k="addr:postcode" v="78727"/></node><node id="-89" lat="30.432293" lon="-97.687167" changeset="false"><tag k="addr:street" v="Avenue N"/><tag k="addr:housenumber" v="2124"/><tag k="addr:postcode" v="78727"/></node><node id="-90" lat="30.43811" lon="-97.695116" changeset="false"><tag k="addr:street" v="Ida Ridge Drive"/><tag k="addr:housenumber" v="13802"/><tag k="addr:postcode" v="78727"/></node><node id="-91" lat="30.416693" lon="-97.688404" changeset="false"><tag k="addr:street" v="Withers Way"/><tag k="addr:housenumber" v="12700"/><tag k="addr:postcode" v="78727"/></node><node id="-92" lat="30.439179" lon="-97.696769" changeset="false"><tag k="addr:street" v="Wells Branch Parkway"/><tag k="addr:housenumber" v="3411"/><tag k="addr:postcode" v="78727"/></node><node id="-93" lat="30.437016" lon="-97.696175" changeset="false"><tag k="addr:street" v="Ida Ridge Drive"/><tag k="addr:housenumber" v="13704"/><tag k="addr:postcode" v="78727"/></node><node id="-94" lat="30.435063" lon="-97.692385" changeset="false"><tag k="addr:street" v="Gardenia Drive"/><tag k="addr:housenumber" v="2605"/><tag k="addr:postcode" v="78727"/></node><node id="-95" lat="30.43635" lon="-97.691869" changeset="false"><tag k="addr:street" v="Daisy Drive"/><tag k="addr:housenumber" v="2609"/><tag k="addr:postcode" v="78727"/></node><node id="-96" lat="30.437653" lon="-97.695575" changeset="false"><tag k="addr:street" v="Ida Ridge Drive"/><tag k="addr:housenumber" v="13710"/><tag k="addr:postcode" v="78727"/></node><node id="-97" lat="30.43505" lon="-97.688447" changeset="false"><tag k="addr:street" v="Daisy Drive"/><tag k="addr:housenumber" v="2312"/><tag k="addr:postcode" v="78727"/></node><node id="-98" lat="30.436544" lon="-97.692427" changeset="false"><tag k="addr:street" v="Daisy Drive"/><tag k="addr:housenumber" v="2705"/><tag k="addr:postcode" v="78727"/></node><node id="-99" lat="30.437964" lon="-97.693972" changeset="false"><tag k="addr:street" v="West Howard Lane"/><tag k="addr:housenumber" v="2901"/><tag k="addr:postcode" v="78727"/></node><node id="-100" lat="30.433737" lon="-97.693327" changeset="false"><tag k="addr:street" v="Century Park Boulevard"/><tag k="addr:housenumber" v="2632"/><tag k="addr:postcode" v="78727"/></node><node id="-101" lat="30.431352" lon="-97.6877" changeset="false"><tag k="addr:street" v="Campesina Drive"/><tag k="addr:housenumber" v="13628"/><tag k="addr:postcode" v="78727"/></node><node id="-102" lat="30.433149" lon="-97.689642" changeset="false"><tag k="addr:street" v="Avenue N"/><tag k="addr:housenumber" v="2324"/><tag k="addr:postcode" v="78727"/></node><node id="-103" lat="30.420131" lon="-97.688414" changeset="false"><tag k="addr:street" v="Rampart Street"/><tag k="addr:housenumber" v="12905"/><tag k="addr:postcode" v="78727"/></node><node id="-104" lat="30.434395" lon="-97.686472" changeset="false"><tag k="addr:street" v="West Howard Lane"/><tag k="addr:housenumber" v="2207"/><tag k="addr:postcode" v="78727"/></node><node id="-105" lat="30.430796" lon="-97.700198" changeset="false"><tag k="addr:street" v="Scofield Ridge Parkway"/><tag k="addr:housenumber" v="3130 1/2"/><tag k="addr:postcode" v="78727"/></node><node id="-106" lat="30.423673" lon="-97.683272" changeset="false"><tag k="addr:street" v="Chasewood Drive"/><tag k="addr:housenumber" v="1734"/><tag k="addr:postcode" v="78727"/></node><node id="-107" lat="30.437928" lon="-97.69524" changeset="false"><tag k="addr:street" v="Ida Ridge Drive"/><tag k="addr:housenumber" v="13800"/><tag k="addr:postcode" v="78727"/></node><node id="-108" lat="30.434358" lon="-97.693543" changeset="false"><tag k="addr:street" v="Century Park Boulevard"/><tag k="addr:housenumber" v="2700"/><tag k="addr:postcode" v="78727"/></node><node id="-109" lat="30.432154" lon="-97.68947" changeset="false"><tag k="addr:street" v="Pansy Trail"/><tag k="addr:housenumber" v="13500"/><tag k="addr:postcode" v="78727"/></node><node id="-110" lat="30.418276" lon="-97.68917" changeset="false"><tag k="addr:street" v="Scofield Lane"/><tag k="addr:housenumber" v="1808"/><tag k="addr:postcode" v="78727"/></node><node id="-111" lat="30.43323" lon="-97.688745" changeset="false"><tag k="addr:street" v="Gardenia Drive"/><tag k="addr:housenumber" v="2301"/><tag k="addr:postcode" v="78727"/></node><node id="-112" lat="30.427803" lon="-97.680272" changeset="false"><tag k="addr:street" v="Maize Bend Drive"/><tag k="addr:housenumber" v="1829"/><tag k="addr:postcode" v="78727"/></node><node id="-113" lat="30.430342" lon="-97.687404" changeset="false"><tag k="addr:street" v="Campesina Drive"/><tag k="addr:housenumber" v="13601"/><tag k="addr:postcode" v="78727"/></node><node id="-114" lat="30.427574" lon="-97.680897" changeset="false"><tag k="addr:street" v="Maize Bend Drive"/><tag k="addr:housenumber" v="1816"/><tag k="addr:postcode" v="78727"/></node><node id="-115" lat="30.437219" lon="-97.692399" changeset="false"><tag k="addr:street" v="West Howard Lane"/><tag k="addr:housenumber" v="2711"/><tag k="addr:postcode" v="78727"/></node><node id="-116" lat="30.433003" lon="-97.691896" changeset="false"><tag k="addr:street" v="Century Park Boulevard"/><tag k="addr:housenumber" v="2600 1/2"/><tag k="addr:postcode" v="78727"/></node><node id="-117" lat="30.433033" lon="-97.691879" changeset="false"><tag k="addr:street" v="Century Park Boulevard"/><tag k="addr:housenumber" v="2600"/><tag k="addr:postcode" v="78727"/></node><node id="-118" lat="30.43336" lon="-97.693794" changeset="false"><tag k="addr:street" v="Century Park Boulevard"/><tag k="addr:housenumber" v="2633"/><tag k="addr:postcode" v="78727"/></node><node id="-119" lat="30.433285" lon="-97.693722" changeset="false"><tag k="addr:street" v="William Kennedy Drive"/><tag k="addr:housenumber" v="13528"/><tag k="addr:postcode" v="78727"/></node></osm>