<?xml version="1.0" encoding="UTF-8"?><osm version="0.6" generator="github.com/aaronlidman/osm-and-geojson"><node id="-1" lat="30.345113" lon="-97.692601" changeset="false"><tag k="addr:street" v="Shenandoah Drive"/><tag k="addr:housenumber" v="8304"/><tag k="coa:place_id" v="280538"/></node><node id="-2" lat="30.353822" lon="-97.681651" changeset="false"><tag k="addr:street" v="East Rundberg Lane"/><tag k="addr:housenumber" v="1201"/><tag k="coa:place_id" v="3103696"/></node><node id="-3" lat="30.33433" lon="-97.688133" changeset="false"><tag k="addr:street" v="East Anderson Lane"/><tag k="addr:housenumber" v="1410"/><tag k="coa:place_id" v="117611"/></node><node id="-4" lat="30.333178" lon="-97.686683" changeset="false"><tag k="addr:street" v="East Anderson Lane"/><tag k="addr:housenumber" v="1420 1/2"/><tag k="coa:place_id" v="3140732"/></node><node id="-5" lat="30.339246" lon="-97.693577" changeset="false"><tag k="addr:street" v="Norwood Park Boulevard"/><tag k="addr:housenumber" v="1015"/><tag k="coa:place_id" v="3111451"/></node><node id="-6" lat="30.34653" lon="-97.68596" changeset="false"><tag k="addr:street" v="Furness Drive"/><tag k="addr:housenumber" v="8705"/><tag k="coa:place_id" v="3343441"/></node><node id="-7" lat="30.346862" lon="-97.685731" changeset="false"><tag k="addr:street" v="Furness Drive"/><tag k="addr:housenumber" v="8709"/><tag k="coa:place_id" v="3343443"/></node><node id="-8" lat="30.347041" lon="-97.685622" changeset="false"><tag k="addr:street" v="Furness Drive"/><tag k="addr:housenumber" v="8711"/><tag k="coa:place_id" v="3343444"/></node><node id="-9" lat="30.343841" lon="-97.693472" changeset="false"><tag k="addr:street" v="Shenandoah Drive"/><tag k="addr:housenumber" v="8204"/><tag k="coa:place_id" v="280562"/></node><node id="-10" lat="30.339187" lon="-97.698799" changeset="false"><tag k="addr:street" v="East Anderson Lane"/><tag k="addr:housenumber" v="820"/><tag k="coa:place_id" v="600963"/></node><node id="-11" lat="30.337717" lon="-97.694476" changeset="false"><tag k="addr:street" v="Clock Tower Drive"/><tag k="addr:housenumber" v="7811"/><tag k="coa:place_id" v="148548"/></node><node id="-12" lat="30.334371" lon="-97.686766" changeset="false"><tag k="addr:street" v="Cameron Road"/><tag k="addr:housenumber" v="7910"/><tag k="coa:place_id" v="3147407"/></node><node id="-13" lat="30.333655" lon="-97.68714" changeset="false"><tag k="addr:street" v="East Anderson Lane"/><tag k="addr:housenumber" v="1418 1/2"/><tag k="coa:place_id" v="3257266"/></node><node id="-14" lat="30.344896" lon="-97.684315" changeset="false"><tag k="addr:street" v="Sheldon Cove"/><tag k="addr:housenumber" v="1230"/><tag k="coa:place_id" v="3369369"/></node><node id="-15" lat="30.33749" lon="-97.692731" changeset="false"><tag k="addr:street" v="Norwood Park Boulevard"/><tag k="addr:housenumber" v="1045"/><tag k="coa:place_id" v="3331945"/></node><node id="-16" lat="30.333444" lon="-97.686523" changeset="false"><tag k="addr:street" v="East Anderson Lane"/><tag k="addr:housenumber" v="1420"/><tag k="coa:place_id" v="164208"/></node><node id="-17" lat="30.341718" lon="-97.680711" changeset="false"><tag k="addr:street" v="Cameron Road"/><tag k="addr:housenumber" v="8500"/><tag k="coa:place_id" v="199196"/></node><node id="-18" lat="30.345073" lon="-97.68933" changeset="false"><tag k="addr:street" v="Wisteria Circle"/><tag k="addr:housenumber" v="1005"/><tag k="coa:place_id" v="177147"/></node><node id="-19" lat="30.344841" lon="-97.695861" changeset="false"><tag k="addr:street" v="North Interstate Highway 35 Service Road"/><tag k="addr:housenumber" v="8201"/><tag k="coa:place_id" v="163607"/></node><node id="-20" lat="30.346359" lon="-97.694081" changeset="false"><tag k="addr:street" v="Fenelon Drive"/><tag k="addr:housenumber" v="821"/><tag k="coa:place_id" v="280166"/></node><node id="-21" lat="30.336092" lon="-97.684473" changeset="false"><tag k="addr:street" v="Cameron Road"/><tag k="addr:housenumber" v="8006"/><tag k="coa:place_id" v="238492"/></node><node id="-22" lat="30.346064" lon="-97.691908" changeset="false"><tag k="addr:street" v="Shenandoah Drive"/><tag k="addr:housenumber" v="8404"/><tag k="coa:place_id" v="280508"/></node><node id="-23" lat="30.336547" lon="-97.691552" changeset="false"><tag k="addr:street" v="Norwood Park Boulevard"/><tag k="addr:housenumber" v="1044"/><tag k="coa:place_id" v="3364844"/></node><node id="-24" lat="30.337726" lon="-97.695449" changeset="false"><tag k="addr:street" v="Clock Tower Drive"/><tag k="addr:housenumber" v="7806"/><tag k="coa:place_id" v="3363633"/></node><node id="-25" lat="30.345388" lon="-97.685668" changeset="false"><tag k="addr:street" v="Sheldon Cove"/><tag k="addr:housenumber" v="1200"/><tag k="coa:place_id" v="3369362"/></node><node id="-26" lat="30.345551" lon="-97.695166" changeset="false"><tag k="addr:street" v="North Interstate Highway 35 Service Road"/><tag k="addr:housenumber" v="8221"/><tag k="coa:place_id" v="192375"/></node><node id="-27" lat="30.355573" lon="-97.6841" changeset="false"><tag k="addr:street" v="East Rundberg Lane"/><tag k="addr:housenumber" v="1007"/><tag k="coa:place_id" v="199244"/></node><node id="-28" lat="30.342752" lon="-97.683546" changeset="false"><tag k="addr:street" v="Connor Lane"/><tag k="addr:housenumber" v="8411"/><tag k="coa:place_id" v="3044676"/></node><node id="-29" lat="30.34128" lon="-97.692098" changeset="false"><tag k="addr:street" v="Brettonwoods Lane"/><tag k="addr:housenumber" v="8000"/><tag k="coa:place_id" v="3098454"/></node><node id="-30" lat="30.343413" lon="-97.679116" changeset="false"><tag k="addr:street" v="Cameron Road"/><tag k="addr:housenumber" v="8600"/><tag k="coa:place_id" v="342458"/></node><node id="-31" lat="30.334041" lon="-97.686043" changeset="false"><tag k="addr:street" v="Cameron Road"/><tag k="addr:housenumber" v="7912"/><tag k="coa:place_id" v="3325132"/></node><node id="-32" lat="30.345091" lon="-97.682257" changeset="false"><tag k="addr:street" v="Connor Lane"/><tag k="addr:housenumber" v="8523"/><tag k="coa:place_id" v="3369371"/></node><node id="-33" lat="30.340466" lon="-97.682766" changeset="false"><tag k="addr:street" v="Cameron Road"/><tag k="addr:housenumber" v="8324"/><tag k="coa:place_id" v="3369346"/></node><node id="-34" lat="30.339427" lon="-97.685197" changeset="false"><tag k="addr:street" v="Park Center Drive"/><tag k="addr:housenumber" v="1319"/><tag k="coa:place_id" v="3369349"/></node><node id="-35" lat="30.34721" lon="-97.678391" changeset="false"><tag k="addr:street" v="Cameron Road"/><tag k="addr:housenumber" v="9100"/><tag k="coa:place_id" v="210909"/></node><node id="-36" lat="30.333818" lon="-97.68751" changeset="false"><tag k="addr:street" v="East Anderson Lane"/><tag k="addr:housenumber" v="1412"/><tag k="coa:place_id" v="119771"/></node><node id="-37" lat="30.354449" lon="-97.685459" changeset="false"><tag k="addr:street" v="North Plaza,1100"/><tag k="addr:housenumber" v="9125"/><tag k="coa:place_id" v="293445"/></node><node id="-38" lat="30.339394" lon="-97.682568" changeset="false"><tag k="addr:street" v="Park Center Drive"/><tag k="addr:housenumber" v="1432"/><tag k="coa:place_id" v="211565"/></node><node id="-39" lat="30.337216" lon="-97.684232" changeset="false"><tag k="addr:street" v="Cameron Road"/><tag k="addr:housenumber" v="8100"/><tag k="coa:place_id" v="92860"/></node><node id="-40" lat="30.339615" lon="-97.686198" changeset="false"><tag k="addr:street" v="Rutherford Lane"/><tag k="addr:housenumber" v="1312"/><tag k="coa:place_id" v="662962"/></node><node id="-41" lat="30.348731" lon="-97.677264" changeset="false"><tag k="addr:street" v="Cameron Road"/><tag k="addr:housenumber" v="9200"/><tag k="coa:place_id" v="3324685"/></node><node id="-42" lat="30.354414" lon="-97.6827" changeset="false"><tag k="addr:street" v="East Rundberg Lane"/><tag k="addr:housenumber" v="1101"/><tag k="coa:place_id" v="3037635"/></node><node id="-43" lat="30.351631" lon="-97.678315" changeset="false"><tag k="addr:street" v="East Rundberg Lane"/><tag k="addr:housenumber" v="1401"/><tag k="coa:place_id" v="282176"/></node><node id="-44" lat="30.344167" lon="-97.683021" changeset="false"><tag k="addr:street" v="Connor Lane"/><tag k="addr:housenumber" v="8501"/><tag k="coa:place_id" v="3049180"/></node><node id="-45" lat="30.341352" lon="-97.694336" changeset="false"><tag k="addr:street" v="Norwood Park Boulevard"/><tag k="addr:housenumber" v="916"/><tag k="coa:place_id" v="3029087"/></node><node id="-46" lat="30.338025" lon="-97.695069" changeset="false"><tag k="addr:street" v="Clock Tower Drive"/><tag k="addr:housenumber" v="7808"/><tag k="coa:place_id" v="3368039"/></node><node id="-47" lat="30.346702" lon="-97.68585" changeset="false"><tag k="addr:street" v="Furness Drive"/><tag k="addr:housenumber" v="8707"/><tag k="coa:place_id" v="3343442"/></node><node id="-48" lat="30.33772" lon="-97.683301" changeset="false"><tag k="addr:street" v="Cameron Road"/><tag k="addr:housenumber" v="8114 1/2"/><tag k="coa:place_id" v="5105068"/></node><node id="-49" lat="30.339153" lon="-97.691162" changeset="false"><tag k="addr:street" v="Norwood Park Boulevard"/><tag k="addr:housenumber" v="1030"/><tag k="coa:place_id" v="539428"/></node><node id="-50" lat="30.345416" lon="-97.68317" changeset="false"><tag k="addr:street" v="Connor Lane"/><tag k="addr:housenumber" v="8522"/><tag k="coa:place_id" v="3038376"/></node><node id="-51" lat="30.338214" lon="-97.693531" changeset="false"><tag k="addr:street" v="Clock Tower Drive"/><tag k="addr:housenumber" v="7815"/><tag k="coa:place_id" v="554026"/></node><node id="-52" lat="30.338146" lon="-97.690846" changeset="false"><tag k="addr:street" v="Norwood Park Boulevard"/><tag k="addr:housenumber" v="1040"/><tag k="coa:place_id" v="226626"/></node><node id="-53" lat="30.344069" lon="-97.693228" changeset="false"><tag k="addr:street" v="Shenandoah Drive"/><tag k="addr:housenumber" v="8206"/><tag k="coa:place_id" v="3092291"/></node><node id="-54" lat="30.343921" lon="-97.691345" changeset="false"><tag k="addr:street" v="Wisteria Trail"/><tag k="addr:housenumber" v="1010"/><tag k="coa:place_id" v="133995"/></node><node id="-55" lat="30.345537" lon="-97.678782" changeset="false"><tag k="addr:street" v="Cameron Road"/><tag k="addr:housenumber" v="8900"/><tag k="coa:place_id" v="210907"/></node><node id="-56" lat="30.341731" lon="-97.692025" changeset="false"><tag k="addr:street" v="Brettonwoods Lane"/><tag k="addr:housenumber" v="8110 1/2"/><tag k="coa:place_id" v="3083997"/></node><node id="-57" lat="30.346605" lon="-97.694785" changeset="false"><tag k="addr:street" v="North Interstate Highway 35 Service Road"/><tag k="addr:housenumber" v="8309"/><tag k="coa:place_id" v="412522"/></node><node id="-58" lat="30.340557" lon="-97.685138" changeset="false"><tag k="addr:street" v="Park Center Drive"/><tag k="addr:housenumber" v="1300"/><tag k="coa:place_id" v="200349"/></node><node id="-59" lat="30.340263" lon="-97.68415" changeset="false"><tag k="addr:street" v="Park Center Drive"/><tag k="addr:housenumber" v="1404"/><tag k="coa:place_id" v="3320217"/></node></osm>