<?xml version="1.0" encoding="UTF-8"?><osm version="0.6" generator="github.com/aaronlidman/osm-and-geojson"><node id="-1" lat="30.331088" lon="-97.723484" changeset="false"><tag k="addr:street" v="North Lamar Boulevard"/><tag k="addr:housenumber" v="6218"/><tag k="coa:place_id" v="803162"/></node><node id="-2" lat="30.32622" lon="-97.726486" changeset="false"><tag k="addr:street" v="West Koenig Lane"/><tag k="addr:housenumber" v="806"/><tag k="coa:place_id" v="507327"/></node><node id="-3" lat="30.326129" lon="-97.726401" changeset="false"><tag k="addr:street" v="North Lamar Boulevard"/><tag k="addr:housenumber" v="5702"/><tag k="coa:place_id" v="802712"/></node><node id="-4" lat="30.332057" lon="-97.725681" changeset="false"><tag k="addr:street" v="Alegria Road"/><tag k="addr:housenumber" v="1011"/><tag k="coa:place_id" v="96488"/></node><node id="-5" lat="30.331257" lon="-97.73111" changeset="false"><tag k="addr:street" v="Woodrow Avenue"/><tag k="addr:housenumber" v="5911"/><tag k="coa:place_id" v="5115786"/></node><node id="-6" lat="30.332254" lon="-97.727089" changeset="false"><tag k="addr:street" v="Grover Avenue"/><tag k="addr:housenumber" v="6203"/><tag k="coa:place_id" v="96242"/></node><node id="-7" lat="30.33025" lon="-97.728929" changeset="false"><tag k="addr:street" v="Grover Avenue"/><tag k="addr:housenumber" v="5905"/><tag k="coa:place_id" v="95264"/></node><node id="-8" lat="30.330798" lon="-97.730692" changeset="false"><tag k="addr:street" v="West Koenig Lane"/><tag k="addr:housenumber" v="1304"/><tag k="coa:place_id" v="235832"/></node><node id="-9" lat="30.334389" lon="-97.722414" changeset="false"><tag k="addr:street" v="Brentwood Street"/><tag k="addr:housenumber" v="821"/><tag k="coa:place_id" v="236030"/></node><node id="-10" lat="30.327196" lon="-97.725881" changeset="false"><tag k="addr:street" v="North Lamar Boulevard"/><tag k="addr:housenumber" v="5802"/><tag k="coa:place_id" v="437170"/></node><node id="-11" lat="30.331757" lon="-97.723141" changeset="false"><tag k="addr:street" v="North Lamar Boulevard"/><tag k="addr:housenumber" v="6324"/><tag k="coa:place_id" v="803186"/></node><node id="-12" lat="30.333974" lon="-97.721693" changeset="false"><tag k="addr:street" v="North Lamar Boulevard"/><tag k="addr:housenumber" v="6534"/><tag k="coa:place_id" v="247051"/></node><node id="-13" lat="30.332298" lon="-97.723166" changeset="false"><tag k="addr:street" v="North Lamar Boulevard"/><tag k="addr:housenumber" v="6406"/><tag k="coa:place_id" v="3036610"/></node><node id="-14" lat="30.327769" lon="-97.725445" changeset="false"><tag k="addr:street" v="Old Koenig Lane"/><tag k="addr:housenumber" v="805"/><tag k="coa:place_id" v="802670"/></node><node id="-15" lat="30.331229" lon="-97.72351" changeset="false"><tag k="addr:street" v="North Lamar Boulevard"/><tag k="addr:housenumber" v="6222"/><tag k="coa:place_id" v="247045"/></node><node id="-16" lat="30.331359" lon="-97.725814" changeset="false"><tag k="addr:street" v="Romeria Drive"/><tag k="addr:housenumber" v="1004"/><tag k="coa:place_id" v="250024"/></node><node id="-17" lat="30.328601" lon="-97.725974" changeset="false"><tag k="addr:street" v="Old Koenig Lane"/><tag k="addr:housenumber" v="900"/><tag k="coa:place_id" v="802694"/></node><node id="-18" lat="30.331026" lon="-97.725139" changeset="false"><tag k="addr:street" v="Romeria Drive"/><tag k="addr:housenumber" v="906"/><tag k="coa:place_id" v="250020"/></node><node id="-19" lat="30.331137" lon="-97.723568" changeset="false"><tag k="addr:street" v="North Lamar Boulevard"/><tag k="addr:housenumber" v="6220"/><tag k="coa:place_id" v="803168"/></node><node id="-20" lat="30.3317" lon="-97.723168" changeset="false"><tag k="addr:street" v="North Lamar Boulevard"/><tag k="addr:housenumber" v="6320"/><tag k="coa:place_id" v="3186993"/></node><node id="-21" lat="30.327495" lon="-97.72573" changeset="false"><tag k="addr:street" v="North Lamar Boulevard"/><tag k="addr:housenumber" v="5806"/><tag k="coa:place_id" v="802724"/></node><node id="-22" lat="30.328911" lon="-97.727254" changeset="false"><tag k="addr:street" v="Old Koenig Lane"/><tag k="addr:housenumber" v="908"/><tag k="coa:place_id" v="472894"/></node><node id="-23" lat="30.333627" lon="-97.730414" changeset="false"><tag k="addr:street" v="Woodrow Avenue"/><tag k="addr:housenumber" v="6201"/><tag k="coa:place_id" v="96338"/></node><node id="-24" lat="30.329549" lon="-97.728269" changeset="false"><tag k="addr:street" v="West Koenig Lane"/><tag k="addr:housenumber" v="1100"/><tag k="coa:place_id" v="95228"/></node><node id="-25" lat="30.329875" lon="-97.72806" changeset="false"><tag k="addr:street" v="Aurora Drive"/><tag k="addr:housenumber" v="5908"/><tag k="coa:place_id" v="95222"/></node><node id="-26" lat="30.331222" lon="-97.725661" changeset="false"><tag k="addr:street" v="Romeria Drive"/><tag k="addr:housenumber" v="912"/><tag k="coa:place_id" v="96146"/></node><node id="-27" lat="30.332142" lon="-97.728373" changeset="false"><tag k="addr:street" v="Romeria Drive"/><tag k="addr:housenumber" v="1207"/><tag k="coa:place_id" v="95750"/></node><node id="-28" lat="30.33018" lon="-97.729392" changeset="false"><tag k="addr:street" v="Grover Avenue"/><tag k="addr:housenumber" v="5904"/><tag k="coa:place_id" v="195642"/></node><node id="-29" lat="30.328424" lon="-97.725012" changeset="false"><tag k="addr:street" v="North Lamar Boulevard"/><tag k="addr:housenumber" v="5916"/><tag k="coa:place_id" v="236084"/></node><node id="-30" lat="30.331045" lon="-97.723366" changeset="false"><tag k="addr:street" v="North Lamar Boulevard"/><tag k="addr:housenumber" v="6216"/><tag k="coa:place_id" v="803156"/></node><node id="-31" lat="30.328577" lon="-97.727116" changeset="false"><tag k="addr:street" v="Old Koenig Lane"/><tag k="addr:housenumber" v="905"/><tag k="coa:place_id" v="95000"/></node><node id="-32" lat="30.329804" lon="-97.728771" changeset="false"><tag k="addr:street" v="West Koenig Lane"/><tag k="addr:housenumber" v="1108"/><tag k="coa:place_id" v="95252"/></node><node id="-33" lat="30.333314" lon="-97.729797" changeset="false"><tag k="addr:street" v="Romeria Drive"/><tag k="addr:housenumber" v="1306"/><tag k="coa:place_id" v="96320"/></node><node id="-34" lat="30.331713" lon="-97.723157" changeset="false"><tag k="addr:street" v="North Lamar Boulevard"/><tag k="addr:housenumber" v="6322"/><tag k="coa:place_id" v="803180"/></node><node id="-35" lat="30.326166" lon="-97.726346" changeset="false"><tag k="addr:street" v="North Lamar Boulevard"/><tag k="addr:housenumber" v="5702 1/2"/><tag k="coa:place_id" v="3101513"/></node><node id="-36" lat="30.326217" lon="-97.726449" changeset="false"><tag k="addr:street" v="West Koenig Lane"/><tag k="addr:housenumber" v="800"/><tag k="coa:place_id" v="470289"/></node><node id="-37" lat="30.332118" lon="-97.728663" changeset="false"><tag k="addr:street" v="Romeria Drive"/><tag k="addr:housenumber" v="1209"/><tag k="coa:place_id" v="95744"/></node><node id="-38" lat="30.333708" lon="-97.721883" changeset="false"><tag k="addr:street" v="North Lamar Boulevard"/><tag k="addr:housenumber" v="6528"/><tag k="coa:place_id" v="164980"/></node><node id="-39" lat="30.333542" lon="-97.721982" changeset="false"><tag k="addr:street" v="North Lamar Boulevard"/><tag k="addr:housenumber" v="6518"/><tag k="coa:place_id" v="194799"/></node><node id="-40" lat="30.32965" lon="-97.728502" changeset="false"><tag k="addr:street" v="West Koenig Lane"/><tag k="addr:housenumber" v="1104"/><tag k="coa:place_id" v="95240"/></node><node id="-41" lat="30.329632" lon="-97.728436" changeset="false"><tag k="addr:street" v="West Koenig Lane"/><tag k="addr:housenumber" v="1102"/><tag k="coa:place_id" v="95234"/></node><node id="-42" lat="30.330766" lon="-97.730482" changeset="false"><tag k="addr:street" v="West Koenig Lane"/><tag k="addr:housenumber" v="1302"/><tag k="coa:place_id" v="692991"/></node><node id="-43" lat="30.330769" lon="-97.73048" changeset="false"><tag k="addr:street" v="West Koenig Lane"/><tag k="addr:housenumber" v="1300"/><tag k="coa:place_id" v="772281"/></node></osm>