<?xml version="1.0" encoding="UTF-8"?><osm version="0.6" generator="github.com/aaronlidman/osm-and-geojson"><node id="-1" lat="30.46719" lon="-97.658205" changeset="false"><tag k="addr:street" v="Picadilly Drive"/><tag k="addr:housenumber" v="1915"/><tag k="addr:postcode" v="78664"/></node><node id="-2" lat="30.46669" lon="-97.665555" changeset="false"><tag k="addr:street" v="Picadilly Drive"/><tag k="addr:housenumber" v="2251"/><tag k="addr:postcode" v="78664"/></node><node id="-3" lat="30.450021" lon="-97.656567" changeset="false"><tag k="addr:street" v="West Pecan Street"/><tag k="addr:housenumber" v="2700"/><tag k="addr:postcode" v="78660"/></node><node id="-4" lat="30.466647" lon="-97.659619" changeset="false"><tag k="addr:street" v="Picadilly Drive"/><tag k="addr:housenumber" v="1935"/><tag k="addr:postcode" v="78664"/></node><node id="-5" lat="30.451008" lon="-97.665548" changeset="false"><tag k="addr:street" v="North Interstate Highway 35 Service Road"/><tag k="addr:housenumber" v="15601"/><tag k="addr:postcode" v="78660"/></node><node id="-6" lat="30.461922" lon="-97.659261" changeset="false"><tag k="addr:street" v="Royston Lane"/><tag k="addr:housenumber" v="1800"/><tag k="addr:postcode" v="78664"/></node><node id="-7" lat="30.45869" lon="-97.652119" changeset="false"><tag k="addr:street" v="Royston Lane"/><tag k="addr:housenumber" v="1410"/><tag k="addr:postcode" v="78664"/></node><node id="-8" lat="30.461684" lon="-97.659419" changeset="false"><tag k="addr:street" v="Royston Lane"/><tag k="addr:housenumber" v="1801"/><tag k="addr:postcode" v="78664"/></node><node id="-9" lat="30.465651" lon="-97.649695" changeset="false"><tag k="addr:street" v="Emperor Court"/><tag k="addr:housenumber" v="1515"/><tag k="addr:postcode" v="78664"/></node><node id="-10" lat="30.459899" lon="-97.666" changeset="false"><tag k="addr:street" v="North Interstate Highway 35 Service Road"/><tag k="addr:housenumber" v="16029"/><tag k="addr:postcode" v="78660"/></node><node id="-11" lat="30.442634" lon="-97.667346" changeset="false"><tag k="addr:street" v="North Interstate Highway 35 Service Road"/><tag k="addr:housenumber" v="15027"/><tag k="addr:postcode" v="78660"/></node><node id="-12" lat="30.465781" lon="-97.647987" changeset="false"><tag k="addr:street" v="Tortoise Street"/><tag k="addr:housenumber" v="17009"/><tag k="addr:postcode" v="78664"/></node><node id="-13" lat="30.450456" lon="-97.665793" changeset="false"><tag k="addr:street" v="North Interstate Highway 35 Service Road"/><tag k="addr:housenumber" v="15527 1/2"/><tag k="addr:postcode" v="78660"/></node><node id="-14" lat="30.445599" lon="-97.666925" changeset="false"><tag k="addr:street" v="North Interstate Highway 35 Service Road"/><tag k="addr:housenumber" v="15123 1/2"/><tag k="addr:postcode" v="78660"/></node><node id="-15" lat="30.45654" lon="-97.658976" changeset="false"><tag k="addr:street" v="Grand Avenue Parkway"/><tag k="addr:housenumber" v="1620"/><tag k="addr:postcode" v="78660"/></node><node id="-16" lat="30.46372" lon="-97.656752" changeset="false"><tag k="addr:street" v="Central Commerce Court"/><tag k="addr:housenumber" v="1801"/><tag k="addr:postcode" v="78664"/></node><node id="-17" lat="30.45293" lon="-97.665167" changeset="false"><tag k="addr:street" v="North Interstate Highway 35 Service Road"/><tag k="addr:housenumber" v="15701"/><tag k="addr:postcode" v="78660"/></node><node id="-18" lat="30.46207" lon="-97.667145" changeset="false"><tag k="addr:street" v="North Interstate Highway 35 Service Road"/><tag k="addr:housenumber" v="16205"/><tag k="addr:postcode" v="78660"/></node><node id="-19" lat="30.450793" lon="-97.658548" changeset="false"><tag k="addr:street" v="Three Points Road"/><tag k="addr:housenumber" v="1412"/><tag k="addr:postcode" v="78660"/></node><node id="-20" lat="30.455694" lon="-97.659108" changeset="false"><tag k="addr:street" v="Grand Avenue Parkway"/><tag k="addr:housenumber" v="1615"/><tag k="addr:postcode" v="78660"/></node><node id="-21" lat="30.465508" lon="-97.649701" changeset="false"><tag k="addr:street" v="Emperor Court"/><tag k="addr:housenumber" v="1505"/><tag k="addr:postcode" v="78664"/></node><node id="-22" lat="30.463435" lon="-97.650627" changeset="false"><tag k="addr:street" v="Tortoise Street"/><tag k="addr:housenumber" v="16841"/><tag k="addr:postcode" v="78664"/></node><node id="-23" lat="30.464209" lon="-97.650692" changeset="false"><tag k="addr:street" v="Tortoise Street"/><tag k="addr:housenumber" v="16831"/><tag k="addr:postcode" v="78664"/></node><node id="-24" lat="30.45619" lon="-97.661583" changeset="false"><tag k="addr:street" v="Grand Avenue Parkway"/><tag k="addr:housenumber" v="1710"/><tag k="addr:postcode" v="78660"/></node><node id="-25" lat="30.449516" lon="-97.661304" changeset="false"><tag k="addr:street" v="Vision Drive"/><tag k="addr:housenumber" v="15601"/><tag k="addr:postcode" v="78660"/></node><node id="-26" lat="30.465462" lon="-97.647878" changeset="false"><tag k="addr:street" v="Tortoise Street"/><tag k="addr:housenumber" v="17001"/><tag k="addr:postcode" v="78664"/></node><node id="-27" lat="30.453177" lon="-97.657009" changeset="false"><tag k="addr:street" v="Central Commerce Circle"/><tag k="addr:housenumber" v="1404"/><tag k="addr:postcode" v="78660"/></node><node id="-28" lat="30.452644" lon="-97.657819" changeset="false"><tag k="addr:street" v="Central Commerce Circle"/><tag k="addr:housenumber" v="1501"/><tag k="addr:postcode" v="78660"/></node><node id="-29" lat="30.453529" lon="-97.658654" changeset="false"><tag k="addr:street" v="Central Commerce Circle"/><tag k="addr:housenumber" v="1511"/><tag k="addr:postcode" v="78660"/></node><node id="-30" lat="30.465281" lon="-97.64783" changeset="false"><tag k="addr:street" v="Tortoise Street"/><tag k="addr:housenumber" v="16949"/><tag k="addr:postcode" v="78664"/></node><node id="-31" lat="30.466085" lon="-97.662254" changeset="false"><tag k="addr:street" v="Picadilly Drive"/><tag k="addr:housenumber" v="2001"/><tag k="addr:postcode" v="78664"/></node><node id="-32" lat="30.460025" lon="-97.660822" changeset="false"><tag k="addr:street" v="Central Commerce Drive"/><tag k="addr:housenumber" v="16300"/><tag k="addr:postcode" v="78660"/></node><node id="-33" lat="30.451733" lon="-97.661111" changeset="false"><tag k="addr:street" v="Three Points Road"/><tag k="addr:housenumber" v="1528"/><tag k="addr:postcode" v="78660"/></node><node id="-34" lat="30.461484" lon="-97.658155" changeset="false"><tag k="addr:street" v="Royston Lane"/><tag k="addr:housenumber" v="1730"/><tag k="addr:postcode" v="78664"/></node><node id="-35" lat="30.450797" lon="-97.655616" changeset="false"><tag k="addr:street" v="Central Commerce Drive"/><tag k="addr:housenumber" v="15816"/><tag k="addr:postcode" v="78660"/></node><node id="-36" lat="30.464964" lon="-97.657356" changeset="false"><tag k="addr:street" v="Central Commerce Court"/><tag k="addr:housenumber" v="1808"/><tag k="addr:postcode" v="78664"/></node><node id="-37" lat="30.460523" lon="-97.666355" changeset="false"><tag k="addr:street" v="North Interstate Highway 35 Service Road"/><tag k="addr:housenumber" v="16107"/><tag k="addr:postcode" v="78660"/></node><node id="-38" lat="30.458174" lon="-97.660543" changeset="false"><tag k="addr:street" v="Central Commerce Drive"/><tag k="addr:housenumber" v="16200"/><tag k="addr:postcode" v="78660"/></node><node id="-39" lat="30.454725" lon="-97.655033" changeset="false"><tag k="addr:street" v="White River Boulevard"/><tag k="addr:housenumber" v="16101"/><tag k="addr:postcode" v="78660"/></node><node id="-40" lat="30.462447" lon="-97.663312" changeset="false"><tag k="addr:street" v="Waukesha Drive"/><tag k="addr:housenumber" v="1930"/><tag k="addr:postcode" v="78664"/></node><node id="-41" lat="30.464986" lon="-97.647743" changeset="false"><tag k="addr:street" v="Tortoise Street"/><tag k="addr:housenumber" v="16941"/><tag k="addr:postcode" v="78664"/></node><node id="-42" lat="30.455465" lon="-97.66061" changeset="false"><tag k="addr:street" v="Grand Avenue Parkway"/><tag k="addr:housenumber" v="1701"/><tag k="addr:postcode" v="78660"/></node><node id="-43" lat="30.453571" lon="-97.662235" changeset="false"><tag k="addr:street" v="Vision Drive"/><tag k="addr:housenumber" v="15801"/><tag k="addr:postcode" v="78660"/></node><node id="-44" lat="30.452886" lon="-97.655127" changeset="false"><tag k="addr:street" v="Central Commerce Drive"/><tag k="addr:housenumber" v="16004"/><tag k="addr:postcode" v="78660"/></node><node id="-45" lat="30.46752" lon="-97.647851" changeset="false"><tag k="addr:street" v="Picadilly Drive"/><tag k="addr:housenumber" v="1501"/><tag k="addr:postcode" v="78664"/></node><node id="-46" lat="30.452012" lon="-97.665257" changeset="false"><tag k="addr:street" v="North Interstate Highway 35 Service Road"/><tag k="addr:housenumber" v="15625"/><tag k="addr:postcode" v="78660"/></node><node id="-47" lat="30.465619" lon="-97.64793" changeset="false"><tag k="addr:street" v="Tortoise Street"/><tag k="addr:housenumber" v="17005"/><tag k="addr:postcode" v="78664"/></node><node id="-48" lat="30.464568" lon="-97.659987" changeset="false"><tag k="addr:street" v="Central Commerce Drive"/><tag k="addr:housenumber" v="16610"/><tag k="addr:postcode" v="78664"/></node><node id="-49" lat="30.45631" lon="-97.66075" changeset="false"><tag k="addr:street" v="Grand Avenue Parkway"/><tag k="addr:housenumber" v="1700"/><tag k="addr:postcode" v="78660"/></node><node id="-50" lat="30.450387" lon="-97.659649" changeset="false"><tag k="addr:street" v="Three Points Road"/><tag k="addr:housenumber" v="1503"/><tag k="addr:postcode" v="78660"/></node><node id="-51" lat="30.460849" lon="-97.658693" changeset="false"><tag k="addr:street" v="Royston Lane"/><tag k="addr:housenumber" v="1715"/><tag k="addr:postcode" v="78660"/></node><node id="-52" lat="30.450527" lon="-97.662965" changeset="false"><tag k="addr:street" v="Century Street"/><tag k="addr:housenumber" v="1608"/><tag k="addr:postcode" v="78660"/></node><node id="-53" lat="30.450452" lon="-97.664687" changeset="false"><tag k="addr:street" v="Century Street"/><tag k="addr:housenumber" v="1705"/><tag k="addr:postcode" v="78660"/></node><node id="-54" lat="30.466684" lon="-97.648036" changeset="false"><tag k="addr:street" v="Tortoise Street"/><tag k="addr:housenumber" v="17025"/><tag k="addr:postcode" v="78664"/></node><node id="-55" lat="30.462051" lon="-97.667361" changeset="false"><tag k="addr:street" v="North Interstate Highway 35 Service Road"/><tag k="addr:housenumber" v="16205 1/2"/><tag k="addr:postcode" v="78660"/></node><node id="-56" lat="30.451361" lon="-97.662697" changeset="false"><tag k="addr:street" v="Vision Drive"/><tag k="addr:housenumber" v="15650"/><tag k="addr:postcode" v="78660"/></node><node id="-57" lat="30.448767" lon="-97.661868" changeset="false"><tag k="addr:street" v="Vision Drive"/><tag k="addr:housenumber" v="15500"/><tag k="addr:postcode" v="78660"/></node><node id="-58" lat="30.463258" lon="-97.660058" changeset="false"><tag k="addr:street" v="Central Commerce Drive"/><tag k="addr:housenumber" v="16430"/><tag k="addr:postcode" v="78664"/></node><node id="-59" lat="30.451873" lon="-97.661586" changeset="false"><tag k="addr:street" v="Three Points Road"/><tag k="addr:housenumber" v="1608"/><tag k="addr:postcode" v="78660"/></node><node id="-60" lat="30.452159" lon="-97.663804" changeset="false"><tag k="addr:street" v="Three Points Road"/><tag k="addr:housenumber" v="1711"/><tag k="addr:postcode" v="78660"/></node><node id="-61" lat="30.468272" lon="-97.669374" changeset="false"><tag k="addr:street" v="North Interstate Highway 35 Service Road"/><tag k="addr:housenumber" v="16445"/><tag k="addr:postcode" v="78660"/></node><node id="-62" lat="30.452529" lon="-97.657409" changeset="false"><tag k="addr:street" v="Central Commerce Circle"/><tag k="addr:housenumber" v="1415"/><tag k="addr:postcode" v="78660"/></node><node id="-63" lat="30.457966" lon="-97.660045" changeset="false"><tag k="addr:street" v="Central Commerce Drive"/><tag k="addr:housenumber" v="16209"/><tag k="addr:postcode" v="78660"/></node><node id="-64" lat="30.459857" lon="-97.656201" changeset="false"><tag k="addr:street" v="Natural Bridge Lane"/><tag k="addr:housenumber" v="1602"/><tag k="addr:postcode" v="78660"/></node><node id="-65" lat="30.466155" lon="-97.648017" changeset="false"><tag k="addr:street" v="Tortoise Street"/><tag k="addr:housenumber" v="17015"/><tag k="addr:postcode" v="78664"/></node><node id="-66" lat="30.451636" lon="-97.660825" changeset="false"><tag k="addr:street" v="Three Points Road"/><tag k="addr:housenumber" v="1524"/><tag k="addr:postcode" v="78660"/></node><node id="-67" lat="30.455752" lon="-97.662311" changeset="false"><tag k="addr:street" v="Grand Avenue Parkway"/><tag k="addr:housenumber" v="1717"/><tag k="addr:postcode" v="78660"/></node><node id="-68" lat="30.447922" lon="-97.665362" changeset="false"><tag k="addr:street" v="North Interstate Highway 35 Service Road"/><tag k="addr:housenumber" v="15413"/><tag k="addr:postcode" v="78660"/></node><node id="-69" lat="30.449865" lon="-97.663009" changeset="false"><tag k="addr:street" v="Century Street"/><tag k="addr:housenumber" v="1605"/><tag k="addr:postcode" v="78660"/></node><node id="-70" lat="30.456712" lon="-97.665473" changeset="false"><tag k="addr:street" v="North Interstate Highway 35 Service Road"/><tag k="addr:housenumber" v="15851"/><tag k="addr:postcode" v="78660"/></node><node id="-71" lat="30.461473" lon="-97.663117" changeset="false"><tag k="addr:street" v="Waukesha Drive"/><tag k="addr:housenumber" v="1916"/><tag k="addr:postcode" v="78664"/></node><node id="-72" lat="30.445701" lon="-97.666738" changeset="false"><tag k="addr:street" v="North Interstate Highway 35 Service Road"/><tag k="addr:housenumber" v="15233"/><tag k="addr:postcode" v="78660"/></node><node id="-73" lat="30.45351" lon="-97.655933" changeset="false"><tag k="addr:street" v="Central Commerce Drive"/><tag k="addr:housenumber" v="16024"/><tag k="addr:postcode" v="78660"/></node><node id="-74" lat="30.465333" lon="-97.658736" changeset="false"><tag k="addr:street" v="Central Commerce Court"/><tag k="addr:housenumber" v="1824"/><tag k="addr:postcode" v="78664"/></node><node id="-75" lat="30.465194" lon="-97.658423" changeset="false"><tag k="addr:street" v="Central Commerce Court"/><tag k="addr:housenumber" v="1820"/><tag k="addr:postcode" v="78664"/></node><node id="-76" lat="30.452086" lon="-97.656373" changeset="false"><tag k="addr:street" v="Central Commerce Circle"/><tag k="addr:housenumber" v="1401"/><tag k="addr:postcode" v="78660"/></node><node id="-77" lat="30.465808" lon="-97.668521" changeset="false"><tag k="addr:street" v="North Interstate Highway 35 Service Road"/><tag k="addr:housenumber" v="16331"/><tag k="addr:postcode" v="78660"/></node><node id="-78" lat="30.463871" lon="-97.650693" changeset="false"><tag k="addr:street" v="Tortoise Street"/><tag k="addr:housenumber" v="16837"/><tag k="addr:postcode" v="78664"/></node><node id="-79" lat="30.443382" lon="-97.667072" changeset="false"><tag k="addr:street" v="North Interstate Highway 35 Service Road"/><tag k="addr:housenumber" v="15101"/><tag k="addr:postcode" v="78660"/></node><node id="-80" lat="30.453167" lon="-97.658747" changeset="false"><tag k="addr:street" v="Central Commerce Circle"/><tag k="addr:housenumber" v="1509"/><tag k="addr:postcode" v="78660"/></node><node id="-81" lat="30.455223" lon="-97.664463" changeset="false"><tag k="addr:street" v="Vision Drive"/><tag k="addr:housenumber" v="15830"/><tag k="addr:postcode" v="78660"/></node><node id="-82" lat="30.463956" lon="-97.667787" changeset="false"><tag k="addr:street" v="North Interstate Highway 35 Service Road"/><tag k="addr:housenumber" v="16235"/><tag k="addr:postcode" v="78660"/></node><node id="-83" lat="30.465216" lon="-97.66829" changeset="false"><tag k="addr:street" v="North Interstate Highway 35 Service Road"/><tag k="addr:housenumber" v="16321"/><tag k="addr:postcode" v="78660"/></node><node id="-84" lat="30.455769" lon="-97.653831" changeset="false"><tag k="addr:street" v="Grand Avenue Parkway"/><tag k="addr:housenumber" v="1491"/><tag k="addr:postcode" v="78660"/></node><node id="-85" lat="30.460066" lon="-97.649504" changeset="false"><tag k="addr:street" v="Grand Avenue Parkway"/><tag k="addr:housenumber" v="824"/><tag k="addr:postcode" v="78664"/></node><node id="-86" lat="30.465551" lon="-97.645289" changeset="false"><tag k="addr:street" v="Grand Avenue Parkway"/><tag k="addr:housenumber" v="428"/><tag k="addr:postcode" v="78664"/></node><node id="-87" lat="30.45719" lon="-97.659941" changeset="false"><tag k="addr:street" v="Central Commerce Drive"/><tag k="addr:housenumber" v="16117"/><tag k="addr:postcode" v="78660"/></node><node id="-88" lat="30.461648" lon="-97.657631" changeset="false"><tag k="addr:street" v="Royston Lane"/><tag k="addr:housenumber" v="1720"/><tag k="addr:postcode" v="78664"/></node><node id="-89" lat="30.456831" lon="-97.663418" changeset="false"><tag k="addr:street" v="Grand Avenue Parkway"/><tag k="addr:housenumber" v="1720"/><tag k="addr:postcode" v="78660"/></node><node id="-90" lat="30.457565" lon="-97.660872" changeset="false"><tag k="addr:street" v="Central Commerce Drive"/><tag k="addr:housenumber" v="16120 1/2"/><tag k="addr:postcode" v="78660"/></node><node id="-91" lat="30.458046" lon="-97.664269" changeset="false"><tag k="addr:street" v="North Interstate Highway 35 Service Road"/><tag k="addr:housenumber" v="16001"/><tag k="addr:postcode" v="78660"/></node><node id="-92" lat="30.465576" lon="-97.649977" changeset="false"><tag k="addr:street" v="Emperor Court"/><tag k="addr:housenumber" v="1523"/><tag k="addr:postcode" v="78664"/></node><node id="-93" lat="30.451269" lon="-97.661815" changeset="false"><tag k="addr:street" v="Vision Drive"/><tag k="addr:housenumber" v="15655"/><tag k="addr:postcode" v="78660"/></node><node id="-94" lat="30.460518" lon="-97.663642" changeset="false"><tag k="addr:street" v="Waukesha Drive"/><tag k="addr:housenumber" v="1935"/><tag k="addr:postcode" v="78660"/></node><node id="-95" lat="30.460602" lon="-97.659252" changeset="false"><tag k="addr:street" v="Central Commerce Drive"/><tag k="addr:housenumber" v="16401"/><tag k="addr:postcode" v="78660"/></node><node id="-96" lat="30.464092" lon="-97.652934" changeset="false"><tag k="addr:street" v="Jerusalem Drive"/><tag k="addr:housenumber" v="1627"/><tag k="addr:postcode" v="78664"/></node><node id="-97" lat="30.466852" lon="-97.648069" changeset="false"><tag k="addr:street" v="Tortoise Street"/><tag k="addr:housenumber" v="17029"/><tag k="addr:postcode" v="78664"/></node><node id="-98" lat="30.466352" lon="-97.657816" changeset="false"><tag k="addr:street" v="Picadilly Court"/><tag k="addr:housenumber" v="16708"/><tag k="addr:postcode" v="78664"/></node><node id="-99" lat="30.445303" lon="-97.666776" changeset="false"><tag k="addr:street" v="North Interstate Highway 35 Service Road"/><tag k="addr:housenumber" v="15119"/><tag k="addr:postcode" v="78660"/></node><node id="-100" lat="30.460436" lon="-97.65856" changeset="false"><tag k="addr:street" v="Central Commerce Drive"/><tag k="addr:housenumber" v="16311"/><tag k="addr:postcode" v="78660"/></node><node id="-101" lat="30.45373" lon="-97.658897" changeset="false"><tag k="addr:street" v="Central Commerce Drive"/><tag k="addr:housenumber" v="16064"/><tag k="addr:postcode" v="78660"/></node><node id="-102" lat="30.452893" lon="-97.65834" changeset="false"><tag k="addr:street" v="Central Commerce Circle"/><tag k="addr:housenumber" v="1505"/><tag k="addr:postcode" v="78660"/></node><node id="-103" lat="30.463316" lon="-97.667782" changeset="false"><tag k="addr:street" v="North Interstate Highway 35 Service Road"/><tag k="addr:housenumber" v="16231"/><tag k="addr:postcode" v="78660"/></node><node id="-104" lat="30.465614" lon="-97.649836" changeset="false"><tag k="addr:street" v="Emperor Court"/><tag k="addr:housenumber" v="1519"/><tag k="addr:postcode" v="78664"/></node><node id="-105" lat="30.464628" lon="-97.65344" changeset="false"><tag k="addr:street" v="Jerusalem Drive"/><tag k="addr:housenumber" v="1640"/><tag k="addr:postcode" v="78664"/></node><node id="-106" lat="30.462948" lon="-97.649091" changeset="false"><tag k="addr:street" v="Tortoise Street"/><tag k="addr:housenumber" v="16863"/><tag k="addr:postcode" v="78664"/></node><node id="-107" lat="30.464647" lon="-97.668084" changeset="false"><tag k="addr:street" v="North Interstate Highway 35 Service Road"/><tag k="addr:housenumber" v="16301"/><tag k="addr:postcode" v="78660"/></node><node id="-108" lat="30.45022" lon="-97.657929" changeset="false"><tag k="addr:street" v="Three Points Road"/><tag k="addr:housenumber" v="1406"/><tag k="addr:postcode" v="78660"/></node><node id="-109" lat="30.452646" lon="-97.663256" changeset="false"><tag k="addr:street" v="Vision Drive"/><tag k="addr:housenumber" v="15720"/><tag k="addr:postcode" v="78660"/></node><node id="-110" lat="30.452249" lon="-97.655578" changeset="false"><tag k="addr:street" v="Earl Bradford Court"/><tag k="addr:housenumber" v="15901"/><tag k="addr:postcode" v="78660"/></node><node id="-111" lat="30.460141" lon="-97.654999" changeset="false"><tag k="addr:street" v="Royston Lane"/><tag k="addr:housenumber" v="1520"/><tag k="addr:postcode" v="78664"/></node><node id="-112" lat="30.466406" lon="-97.660421" changeset="false"><tag k="addr:street" v="Central Commerce Drive"/><tag k="addr:housenumber" v="16721"/><tag k="addr:postcode" v="78664"/></node><node id="-113" lat="30.46513" lon="-97.647782" changeset="false"><tag k="addr:street" v="Tortoise Street"/><tag k="addr:housenumber" v="16945"/><tag k="addr:postcode" v="78664"/></node><node id="-114" lat="30.452318" lon="-97.664285" changeset="false"><tag k="addr:street" v="Three Points Road"/><tag k="addr:housenumber" v="1713"/><tag k="addr:postcode" v="78660"/></node><node id="-115" lat="30.44994" lon="-97.666002" changeset="false"><tag k="addr:street" v="North Interstate Highway 35 Service Road"/><tag k="addr:housenumber" v="15505"/><tag k="addr:postcode" v="78660"/></node><node id="-116" lat="30.465607" lon="-97.661282" changeset="false"><tag k="addr:street" v="Central Commerce Drive"/><tag k="addr:housenumber" v="16720"/><tag k="addr:postcode" v="78664"/></node><node id="-117" lat="30.441338" lon="-97.667459" changeset="false"><tag k="addr:street" v="North Interstate Highway 35 Service Road"/><tag k="addr:housenumber" v="15001 1/2"/><tag k="addr:postcode" v="78660"/></node><node id="-118" lat="30.450842" lon="-97.65937" changeset="false"><tag k="addr:street" v="Three Points Road"/><tag k="addr:housenumber" v="1500"/><tag k="addr:postcode" v="78660"/></node><node id="-119" lat="30.460672" lon="-97.662451" changeset="false"><tag k="addr:street" v="Waukesha Drive"/><tag k="addr:housenumber" v="1901"/><tag k="addr:postcode" v="78660"/></node><node id="-120" lat="30.450404" lon="-97.665733" changeset="false"><tag k="addr:street" v="North Interstate Highway 35 Service Road"/><tag k="addr:housenumber" v="15527"/><tag k="addr:postcode" v="78660"/></node><node id="-121" lat="30.462047" lon="-97.659851" changeset="false"><tag k="addr:street" v="Central Commerce Drive"/><tag k="addr:housenumber" v="16424"/><tag k="addr:postcode" v="78664"/></node><node id="-122" lat="30.466213" lon="-97.648119" changeset="false"><tag k="addr:street" v="Tortoise Street"/><tag k="addr:housenumber" v="17019"/><tag k="addr:postcode" v="78664"/></node><node id="-123" lat="30.465473" lon="-97.649909" changeset="false"><tag k="addr:street" v="Emperor Court"/><tag k="addr:housenumber" v="1509"/><tag k="addr:postcode" v="78664"/></node><node id="-124" lat="30.450724" lon="-97.661449" changeset="false"><tag k="addr:street" v="Vision Drive"/><tag k="addr:housenumber" v="15635"/><tag k="addr:postcode" v="78660"/></node><node id="-125" lat="30.450803" lon="-97.661275" changeset="false"><tag k="addr:street" v="Three Points Road"/><tag k="addr:housenumber" v="1601"/><tag k="addr:postcode" v="78660"/></node><node id="-126" lat="30.446694" lon="-97.666337" changeset="false"><tag k="addr:street" v="North Interstate Highway 35 Service Road"/><tag k="addr:housenumber" v="15301"/><tag k="addr:postcode" v="78660"/></node><node id="-127" lat="30.446624" lon="-97.666312" changeset="false"><tag k="addr:street" v="North Interstate Highway 35 Service Road"/><tag k="addr:housenumber" v="15301 1/2"/><tag k="addr:postcode" v="78660"/></node></osm>