<?xml version="1.0" encoding="UTF-8"?><osm version="0.6" generator="github.com/aaronlidman/osm-and-geojson"><node id="-1" lat="30.387798" lon="-97.798902" changeset="false"><tag k="addr:street" v="Jester Boulevard"/><tag k="addr:housenumber" v="7809"/><tag k="addr:postcode" v="78750"/></node><node id="-2" lat="30.391257" lon="-97.804885" changeset="false"><tag k="addr:street" v="Willheather Glen"/><tag k="addr:housenumber" v="8308"/><tag k="addr:postcode" v="78750"/></node><node id="-3" lat="30.395846" lon="-97.799782" changeset="false"><tag k="addr:street" v="Chardonnay Cove"/><tag k="addr:housenumber" v="8112"/><tag k="addr:postcode" v="78750"/></node><node id="-4" lat="30.386087" lon="-97.771956" changeset="false"><tag k="addr:street" v="Old Spicewood Springs Road"/><tag k="addr:housenumber" v="5601"/><tag k="addr:postcode" v="78750"/></node><node id="-5" lat="30.384407" lon="-97.79842" changeset="false"><tag k="addr:street" v="Jester Boulevard"/><tag k="addr:housenumber" v="7611"/><tag k="addr:postcode" v="78750"/></node><node id="-6" lat="30.391678" lon="-97.803195" changeset="false"><tag k="addr:street" v="Jester Boulevard"/><tag k="addr:housenumber" v="7930"/><tag k="addr:postcode" v="78750"/></node><node id="-7" lat="30.391277" lon="-97.778557" changeset="false"><tag k="addr:street" v="Old Spicewood Springs Road"/><tag k="addr:housenumber" v="6315"/><tag k="addr:postcode" v="78750"/></node><node id="-8" lat="30.390862" lon="-97.805635" changeset="false"><tag k="addr:street" v="Asmara Drive"/><tag k="addr:housenumber" v="8321"/><tag k="addr:postcode" v="78750"/></node><node id="-9" lat="30.390738" lon="-97.801582" changeset="false"><tag k="addr:street" v="Aloe Cove"/><tag k="addr:housenumber" v="8203"/><tag k="addr:postcode" v="78750"/></node><node id="-10" lat="30.384441" lon="-97.800633" changeset="false"><tag k="addr:street" v="Image Cove"/><tag k="addr:housenumber" v="7703"/><tag k="addr:postcode" v="78750"/></node><node id="-11" lat="30.393389" lon="-97.80519" changeset="false"><tag k="addr:street" v="High Hollow Drive"/><tag k="addr:housenumber" v="8017"/><tag k="addr:postcode" v="78750"/></node><node id="-12" lat="30.393036" lon="-97.800112" changeset="false"><tag k="addr:street" v="Bottlebrush Drive"/><tag k="addr:housenumber" v="8032"/><tag k="addr:postcode" v="78750"/></node><node id="-13" lat="30.392997" lon="-97.778456" changeset="false"><tag k="addr:street" v="Old Spicewood Springs Road"/><tag k="addr:housenumber" v="6425"/><tag k="addr:postcode" v="78759"/></node><node id="-14" lat="30.395398" lon="-97.798467" changeset="false"><tag k="addr:street" v="Aralia Drive"/><tag k="addr:housenumber" v="8113"/><tag k="addr:postcode" v="78750"/></node><node id="-15" lat="30.386791" lon="-97.799591" changeset="false"><tag k="addr:street" v="Jester Boulevard"/><tag k="addr:housenumber" v="7800"/><tag k="addr:postcode" v="78750"/></node><node id="-16" lat="30.385061" lon="-97.798492" changeset="false"><tag k="addr:street" v="Jester Boulevard"/><tag k="addr:housenumber" v="7615"/><tag k="addr:postcode" v="78750"/></node><node id="-17" lat="30.382903" lon="-97.796715" changeset="false"><tag k="addr:street" v="Rockberry Cove"/><tag k="addr:housenumber" v="7402"/><tag k="addr:postcode" v="78750"/></node><node id="-18" lat="30.390349" lon="-97.802779" changeset="false"><tag k="addr:street" v="Moonflower Drive"/><tag k="addr:housenumber" v="7901"/><tag k="addr:postcode" v="78750"/></node><node id="-19" lat="30.393479" lon="-97.801371" changeset="false"><tag k="addr:street" v="Crabtree Drive"/><tag k="addr:housenumber" v="8225"/><tag k="addr:postcode" v="78750"/></node><node id="-20" lat="30.391775" lon="-97.804908" changeset="false"><tag k="addr:street" v="Asmara Drive"/><tag k="addr:housenumber" v="8404"/><tag k="addr:postcode" v="78750"/></node><node id="-21" lat="30.371864" lon="-97.798985" changeset="false"><tag k="addr:street" v="Jester Boulevard"/><tag k="addr:housenumber" v="6700"/><tag k="addr:postcode" v="78750"/></node><node id="-22" lat="30.391567" lon="-97.798682" changeset="false"><tag k="addr:street" v="Vailview Cove"/><tag k="addr:housenumber" v="8105"/><tag k="addr:postcode" v="78750"/></node><node id="-23" lat="30.392253" lon="-97.799739" changeset="false"><tag k="addr:street" v="Vailview Cove"/><tag k="addr:housenumber" v="8112"/><tag k="addr:postcode" v="78750"/></node><node id="-24" lat="30.392302" lon="-97.804036" changeset="false"><tag k="addr:street" v="High Hollow Drive"/><tag k="addr:housenumber" v="7917"/><tag k="addr:postcode" v="78750"/></node><node id="-25" lat="30.390349" lon="-97.802326" changeset="false"><tag k="addr:street" v="Jester Boulevard"/><tag k="addr:housenumber" v="7916"/><tag k="addr:postcode" v="78750"/></node><node id="-26" lat="30.380325" lon="-97.807365" changeset="false"><tag k="addr:street" v="Ranch to Market Road 2222"/><tag k="addr:housenumber" v="8110"/><tag k="addr:postcode" v="78750"/></node><node id="-27" lat="30.388892" lon="-97.824706" changeset="false"><tag k="addr:street" v="Ranch to Market Road 2222"/><tag k="addr:housenumber" v="9500 1/2"/><tag k="addr:postcode" v="78750"/></node><node id="-28" lat="30.391415" lon="-97.805928" changeset="false"><tag k="addr:street" v="Asmara Drive"/><tag k="addr:housenumber" v="8409"/><tag k="addr:postcode" v="78750"/></node><node id="-29" lat="30.39329" lon="-97.804909" changeset="false"><tag k="addr:street" v="High Hollow Drive"/><tag k="addr:housenumber" v="8013"/><tag k="addr:postcode" v="78750"/></node><node id="-30" lat="30.393311" lon="-97.806111" changeset="false"><tag k="addr:street" v="High Hollow Cove"/><tag k="addr:housenumber" v="8004"/><tag k="addr:postcode" v="78750"/></node><node id="-31" lat="30.38214" lon="-97.799721" changeset="false"><tag k="addr:street" v="Clove Cove"/><tag k="addr:housenumber" v="7504"/><tag k="addr:postcode" v="78750"/></node><node id="-32" lat="30.393081" lon="-97.83169" changeset="false"><tag k="addr:street" v="Ribelin Ranch Drive"/><tag k="addr:housenumber" v="7016"/><tag k="addr:postcode" v="78750"/></node><node id="-33" lat="30.385746" lon="-97.800045" changeset="false"><tag k="addr:street" v="Fawnhollow Cove"/><tag k="addr:housenumber" v="7604"/><tag k="addr:postcode" v="78750"/></node><node id="-34" lat="30.396521" lon="-97.801168" changeset="false"><tag k="addr:street" v="Jester Boulevard"/><tag k="addr:housenumber" v="8155 1/2"/><tag k="addr:postcode" v="78750"/></node><node id="-35" lat="30.392959" lon="-97.80038" changeset="false"><tag k="addr:street" v="Bottlebrush Drive"/><tag k="addr:housenumber" v="8028"/><tag k="addr:postcode" v="78750"/></node><node id="-36" lat="30.393655" lon="-97.804417" changeset="false"><tag k="addr:street" v="Elander Drive"/><tag k="addr:housenumber" v="8332"/><tag k="addr:postcode" v="78750"/></node><node id="-37" lat="30.391143" lon="-97.801056" changeset="false"><tag k="addr:street" v="Aloe Cove"/><tag k="addr:housenumber" v="8201"/><tag k="addr:postcode" v="78750"/></node><node id="-38" lat="30.418539" lon="-97.796181" changeset="false"><tag k="addr:street" v="Old Spicewood Springs Road"/><tag k="addr:housenumber" v="7815"/><tag k="addr:postcode" v="78750"/></node><node id="-39" lat="30.393946" lon="-97.779079" changeset="false"><tag k="addr:street" v="White Cliff Drive"/><tag k="addr:housenumber" v="8600"/><tag k="addr:postcode" v="78750"/></node><node id="-40" lat="30.383932" lon="-97.798417" changeset="false"><tag k="addr:street" v="Jester Boulevard"/><tag k="addr:housenumber" v="7607"/><tag k="addr:postcode" v="78750"/></node><node id="-41" lat="30.370445" lon="-97.801045" changeset="false"><tag k="addr:street" v="Jester Boulevard"/><tag k="addr:housenumber" v="6508"/><tag k="addr:postcode" v="78750"/></node><node id="-42" lat="30.396075" lon="-97.800647" changeset="false"><tag k="addr:street" v="Asherton Cove"/><tag k="addr:housenumber" v="8116"/><tag k="addr:postcode" v="78750"/></node><node id="-43" lat="30.400495" lon="-97.784048" changeset="false"><tag k="addr:street" v="Old Spicewood Springs Road"/><tag k="addr:housenumber" v="6839"/><tag k="addr:postcode" v="78750"/></node><node id="-44" lat="30.393471" lon="-97.805414" changeset="false"><tag k="addr:street" v="High Hollow Cove"/><tag k="addr:housenumber" v="8001"/><tag k="addr:postcode" v="78750"/></node><node id="-45" lat="30.393148" lon="-97.804646" changeset="false"><tag k="addr:street" v="High Hollow Drive"/><tag k="addr:housenumber" v="8009"/><tag k="addr:postcode" v="78750"/></node><node id="-46" lat="30.393003" lon="-97.799277" changeset="false"><tag k="addr:street" v="Bottlebrush Drive"/><tag k="addr:housenumber" v="8101"/><tag k="addr:postcode" v="78750"/></node><node id="-47" lat="30.392105" lon="-97.806298" changeset="false"><tag k="addr:street" v="Asmara Drive"/><tag k="addr:housenumber" v="8421"/><tag k="addr:postcode" v="78750"/></node><node id="-48" lat="30.384844" lon="-97.798361" changeset="false"><tag k="addr:street" v="Jester Boulevard"/><tag k="addr:housenumber" v="7613"/><tag k="addr:postcode" v="78750"/></node><node id="-49" lat="30.392136" lon="-97.798524" changeset="false"><tag k="addr:street" v="Vailview Cove"/><tag k="addr:housenumber" v="8101"/><tag k="addr:postcode" v="78750"/></node><node id="-50" lat="30.393542" lon="-97.805801" changeset="false"><tag k="addr:street" v="High Hollow Cove"/><tag k="addr:housenumber" v="8005"/><tag k="addr:postcode" v="78750"/></node><node id="-51" lat="30.393149" lon="-97.803202" changeset="false"><tag k="addr:street" v="Elander Drive"/><tag k="addr:housenumber" v="8312"/><tag k="addr:postcode" v="78750"/></node><node id="-52" lat="30.392761" lon="-97.806386" changeset="false"><tag k="addr:street" v="Asmara Drive"/><tag k="addr:housenumber" v="8429"/><tag k="addr:postcode" v="78750"/></node><node id="-53" lat="30.39321" lon="-97.803491" changeset="false"><tag k="addr:street" v="Elander Drive"/><tag k="addr:housenumber" v="8322 1/2"/><tag k="addr:postcode" v="78750"/></node><node id="-54" lat="30.379321" lon="-97.80555" changeset="false"><tag k="addr:street" v="Ranch to Market Road 2222"/><tag k="addr:housenumber" v="8100"/><tag k="addr:postcode" v="78750"/></node><node id="-55" lat="30.392605" lon="-97.798765" changeset="false"><tag k="addr:street" v="Vailview Cove"/><tag k="addr:housenumber" v="8100"/><tag k="addr:postcode" v="78750"/></node><node id="-56" lat="30.385781" lon="-97.8008" changeset="false"><tag k="addr:street" v="Fawnhollow Cove"/><tag k="addr:housenumber" v="7610"/><tag k="addr:postcode" v="78750"/></node><node id="-57" lat="30.383877" lon="-97.798213" changeset="false"><tag k="addr:street" v="Jester Boulevard"/><tag k="addr:housenumber" v="7605"/><tag k="addr:postcode" v="78750"/></node><node id="-58" lat="30.381354" lon="-97.799223" changeset="false"><tag k="addr:street" v="Clematis Cove"/><tag k="addr:housenumber" v="7500"/><tag k="addr:postcode" v="78750"/></node><node id="-59" lat="30.394964" lon="-97.802345" changeset="false"><tag k="addr:street" v="Jancy Drive"/><tag k="addr:housenumber" v="8304"/><tag k="addr:postcode" v="78750"/></node><node id="-60" lat="30.389237" lon="-97.80202" changeset="false"><tag k="addr:street" v="Moonflower Drive"/><tag k="addr:housenumber" v="7807"/><tag k="addr:postcode" v="78750"/></node><node id="-61" lat="30.391292" lon="-97.80163" changeset="false"><tag k="addr:street" v="Aloe Cove"/><tag k="addr:housenumber" v="8200"/><tag k="addr:postcode" v="78750"/></node><node id="-62" lat="30.394743" lon="-97.77759" changeset="false"><tag k="addr:street" v="Old Spicewood Springs Road"/><tag k="addr:housenumber" v="6501"/><tag k="addr:postcode" v="78759"/></node><node id="-63" lat="30.391907" lon="-97.801166" changeset="false"><tag k="addr:street" v="Vailview Cove"/><tag k="addr:housenumber" v="8129"/><tag k="addr:postcode" v="78750"/></node><node id="-64" lat="30.385339" lon="-97.801423" changeset="false"><tag k="addr:street" v="Image Cove"/><tag k="addr:housenumber" v="7808"/><tag k="addr:postcode" v="78750"/></node><node id="-65" lat="30.373406" lon="-97.799435" changeset="false"><tag k="addr:street" v="Jester Boulevard"/><tag k="addr:housenumber" v="6804"/><tag k="addr:postcode" v="78750"/></node><node id="-66" lat="30.395748" lon="-97.798665" changeset="false"><tag k="addr:street" v="Aralia Drive"/><tag k="addr:housenumber" v="8114 1/2"/><tag k="addr:postcode" v="78750"/></node><node id="-67" lat="30.383618" lon="-97.798248" changeset="false"><tag k="addr:street" v="Jester Boulevard"/><tag k="addr:housenumber" v="7603"/><tag k="addr:postcode" v="78750"/></node><node id="-68" lat="30.388045" lon="-97.802236" changeset="false"><tag k="addr:street" v="Asmara Drive"/><tag k="addr:housenumber" v="8101"/><tag k="addr:postcode" v="78750"/></node><node id="-69" lat="30.381291" lon="-97.7776" changeset="false"><tag k="addr:street" v="Winding Ridge Boulevard"/><tag k="addr:housenumber" v="8020"/><tag k="addr:postcode" v="78750"/></node><node id="-70" lat="30.391223" lon="-97.805814" changeset="false"><tag k="addr:street" v="Asmara Drive"/><tag k="addr:housenumber" v="8405"/><tag k="addr:postcode" v="78750"/></node><node id="-71" lat="30.392463" lon="-97.800203" changeset="false"><tag k="addr:street" v="Bottlebrush Drive"/><tag k="addr:housenumber" v="8029"/><tag k="addr:postcode" v="78750"/></node><node id="-72" lat="30.37562" lon="-97.799986" changeset="false"><tag k="addr:street" v="Halbert Drive"/><tag k="addr:housenumber" v="7301"/><tag k="addr:postcode" v="78750"/></node><node id="-73" lat="30.393172" lon="-97.801558" changeset="false"><tag k="addr:street" v="Bottlebrush Drive"/><tag k="addr:housenumber" v="8004"/><tag k="addr:postcode" v="78750"/></node><node id="-74" lat="30.389347" lon="-97.79951" changeset="false"><tag k="addr:street" v="Bricklebush Cove"/><tag k="addr:housenumber" v="7907"/><tag k="addr:postcode" v="78750"/></node><node id="-75" lat="30.385488" lon="-97.799781" changeset="false"><tag k="addr:street" v="Basil Drive"/><tag k="addr:housenumber" v="7717"/><tag k="addr:postcode" v="78750"/></node><node id="-76" lat="30.394905" lon="-97.803818" changeset="false"><tag k="addr:street" v="Jancy Drive"/><tag k="addr:housenumber" v="8328"/><tag k="addr:postcode" v="78750"/></node><node id="-77" lat="30.392453" lon="-97.806371" changeset="false"><tag k="addr:street" v="Asmara Drive"/><tag k="addr:housenumber" v="8425"/><tag k="addr:postcode" v="78750"/></node><node id="-78" lat="30.384247" lon="-97.799021" changeset="false"><tag k="addr:street" v="Midpark Court"/><tag k="addr:housenumber" v="7601"/><tag k="addr:postcode" v="78750"/></node><node id="-79" lat="30.391562" lon="-97.80483" changeset="false"><tag k="addr:street" v="Asmara Drive"/><tag k="addr:housenumber" v="8400"/><tag k="addr:postcode" v="78750"/></node><node id="-80" lat="30.390276" lon="-97.801704" changeset="false"><tag k="addr:street" v="Jester Boulevard"/><tag k="addr:housenumber" v="7913 1/2"/><tag k="addr:postcode" v="78750"/></node><node id="-81" lat="30.391845" lon="-97.806119" changeset="false"><tag k="addr:street" v="Asmara Drive"/><tag k="addr:housenumber" v="8417"/><tag k="addr:postcode" v="78750"/></node><node id="-82" lat="30.384993" lon="-97.80062" changeset="false"><tag k="addr:street" v="Image Cove"/><tag k="addr:housenumber" v="7802"/><tag k="addr:postcode" v="78750"/></node><node id="-83" lat="30.414877" lon="-97.795423" changeset="false"><tag k="addr:street" v="Old Spicewood Springs Road"/><tag k="addr:housenumber" v="7731 1/2"/><tag k="addr:postcode" v="78750"/></node><node id="-84" lat="30.393342" lon="-97.805443" changeset="false"><tag k="addr:street" v="High Hollow Cove"/><tag k="addr:housenumber" v="8003"/><tag k="addr:postcode" v="78750"/></node><node id="-85" lat="30.379906" lon="-97.777293" changeset="false"><tag k="addr:street" v="Capital of Texas Highway"/><tag k="addr:housenumber" v="8000"/><tag k="addr:postcode" v="78750"/></node><node id="-86" lat="30.396111" lon="-97.800941" changeset="false"><tag k="addr:street" v="Asherton Cove"/><tag k="addr:housenumber" v="8112"/><tag k="addr:postcode" v="78750"/></node><node id="-87" lat="30.372174" lon="-97.798939" changeset="false"><tag k="addr:street" v="Jester Boulevard"/><tag k="addr:housenumber" v="6722"/><tag k="addr:postcode" v="78750"/></node><node id="-88" lat="30.390156" lon="-97.800624" changeset="false"><tag k="addr:street" v="Pampas Cove"/><tag k="addr:housenumber" v="8101"/><tag k="addr:postcode" v="78750"/></node><node id="-89" lat="30.382896" lon="-97.790545" changeset="false"><tag k="addr:street" v="Lakewood Drive"/><tag k="addr:housenumber" v="7841"/><tag k="addr:postcode" v="78750"/></node><node id="-90" lat="30.392925" lon="-97.800864" changeset="false"><tag k="addr:street" v="Bottlebrush Drive"/><tag k="addr:housenumber" v="8020"/><tag k="addr:postcode" v="78750"/></node><node id="-91" lat="30.391641" lon="-97.800765" changeset="false"><tag k="addr:street" v="Vailview Cove"/><tag k="addr:housenumber" v="8125"/><tag k="addr:postcode" v="78750"/></node><node id="-92" lat="30.390989" lon="-97.799086" changeset="false"><tag k="addr:street" v="Vailview Cove"/><tag k="addr:housenumber" v="8109"/><tag k="addr:postcode" v="78750"/></node><node id="-93" lat="30.392757" lon="-97.781614" changeset="false"><tag k="addr:street" v="White Cliff Drive"/><tag k="addr:housenumber" v="8602"/><tag k="addr:postcode" v="78750"/></node><node id="-94" lat="30.392414" lon="-97.830474" changeset="false"><tag k="addr:street" v="Ribelin Ranch Drive"/><tag k="addr:housenumber" v="7011"/><tag k="addr:postcode" v="78750"/></node><node id="-95" lat="30.391396" lon="-97.800059" changeset="false"><tag k="addr:street" v="Vailview Cove"/><tag k="addr:housenumber" v="8117"/><tag k="addr:postcode" v="78750"/></node><node id="-96" lat="30.393964" lon="-97.801114" changeset="false"><tag k="addr:street" v="Crabtree Drive"/><tag k="addr:housenumber" v="8222"/><tag k="addr:postcode" v="78750"/></node><node id="-97" lat="30.388471" lon="-97.799561" changeset="false"><tag k="addr:street" v="Goldenrod Cove"/><tag k="addr:housenumber" v="7900"/><tag k="addr:postcode" v="78750"/></node><node id="-98" lat="30.39255" lon="-97.802802" changeset="false"><tag k="addr:street" v="Elander Drive"/><tag k="addr:housenumber" v="8300"/><tag k="addr:postcode" v="78750"/></node><node id="-99" lat="30.39163" lon="-97.80605" changeset="false"><tag k="addr:street" v="Asmara Drive"/><tag k="addr:housenumber" v="8413"/><tag k="addr:postcode" v="78750"/></node><node id="-100" lat="30.388064" lon="-97.802617" changeset="false"><tag k="addr:street" v="Asmara Drive"/><tag k="addr:housenumber" v="8103"/><tag k="addr:postcode" v="78750"/></node><node id="-101" lat="30.376704" lon="-97.804691" changeset="false"><tag k="addr:street" v="Ranch to Market Road 2222"/><tag k="addr:housenumber" v="7800"/><tag k="addr:postcode" v="78750"/></node><node id="-102" lat="30.385141" lon="-97.800865" changeset="false"><tag k="addr:street" v="Image Cove"/><tag k="addr:housenumber" v="7804"/><tag k="addr:postcode" v="78750"/></node><node id="-103" lat="30.384832" lon="-97.801654" changeset="false"><tag k="addr:street" v="Image Cove"/><tag k="addr:housenumber" v="7810"/><tag k="addr:postcode" v="78750"/></node><node id="-104" lat="30.390063" lon="-97.826777" changeset="false"><tag k="addr:street" v="Ranch to Market Road 2222"/><tag k="addr:housenumber" v="9512"/><tag k="addr:postcode" v="78750"/></node><node id="-105" lat="30.395416" lon="-97.799034" changeset="false"><tag k="addr:street" v="Aralia Drive"/><tag k="addr:housenumber" v="8108"/><tag k="addr:postcode" v="78750"/></node><node id="-106" lat="30.391868" lon="-97.80225" changeset="false"><tag k="addr:street" v="Jester Boulevard"/><tag k="addr:housenumber" v="7933"/><tag k="addr:postcode" v="78750"/></node><node id="-107" lat="30.395158" lon="-97.778124" changeset="false"><tag k="addr:street" v="White Cliff Drive"/><tag k="addr:housenumber" v="8705"/><tag k="addr:postcode" v="78759"/></node><node id="-108" lat="30.394773" lon="-97.77854" changeset="false"><tag k="addr:street" v="White Cliff Drive"/><tag k="addr:housenumber" v="8701"/><tag k="addr:postcode" v="78759"/></node><node id="-109" lat="30.392525" lon="-97.83387" changeset="false"><tag k="addr:street" v="Ranch to Market Road 2222"/><tag k="addr:housenumber" v="10010"/><tag k="addr:postcode" v="78750"/></node><node id="-110" lat="30.385072" lon="-97.801659" changeset="false"><tag k="addr:street" v="Image Cove"/><tag k="addr:housenumber" v="7809"/><tag k="addr:postcode" v="78750"/></node><node id="-111" lat="30.392967" lon="-97.800636" changeset="false"><tag k="addr:street" v="Bottlebrush Drive"/><tag k="addr:housenumber" v="8024"/><tag k="addr:postcode" v="78750"/></node><node id="-112" lat="30.389163" lon="-97.800503" changeset="false"><tag k="addr:street" v="Jester Boulevard"/><tag k="addr:housenumber" v="7827"/><tag k="addr:postcode" v="78750"/></node><node id="-113" lat="30.392198" lon="-97.780041" changeset="false"><tag k="addr:street" v="Old Spicewood Springs Road"/><tag k="addr:housenumber" v="6411"/><tag k="addr:postcode" v="78750"/></node><node id="-114" lat="30.371936" lon="-97.80266" changeset="false"><tag k="addr:street" v="Ranch to Market Road 2222"/><tag k="addr:housenumber" v="7300"/><tag k="addr:postcode" v="78750"/></node><node id="-115" lat="30.38885" lon="-97.801753" changeset="false"><tag k="addr:street" v="Moonflower Drive"/><tag k="addr:housenumber" v="7803"/><tag k="addr:postcode" v="78750"/></node><node id="-116" lat="30.391651" lon="-97.802243" changeset="false"><tag k="addr:street" v="Jester Boulevard"/><tag k="addr:housenumber" v="7929"/><tag k="addr:postcode" v="78750"/></node><node id="-117" lat="30.392974" lon="-97.801132" changeset="false"><tag k="addr:street" v="Bottlebrush Drive"/><tag k="addr:housenumber" v="8012"/><tag k="addr:postcode" v="78750"/></node><node id="-118" lat="30.391479" lon="-97.802167" changeset="false"><tag k="addr:street" v="Jester Boulevard"/><tag k="addr:housenumber" v="7925"/><tag k="addr:postcode" v="78750"/></node><node id="-119" lat="30.391222" lon="-97.802233" changeset="false"><tag k="addr:street" v="Aloe Cove"/><tag k="addr:housenumber" v="8204"/><tag k="addr:postcode" v="78750"/></node><node id="-120" lat="30.392693" lon="-97.838884" changeset="false"><tag k="addr:street" v="Ranch to Market Road 2222"/><tag k="addr:housenumber" v="10220"/><tag k="addr:postcode" v="78750"/></node><node id="-121" lat="30.375281" lon="-97.799359" changeset="false"><tag k="addr:street" v="Halbert Drive"/><tag k="addr:housenumber" v="7201"/><tag k="addr:postcode" v="78750"/></node><node id="-122" lat="30.396376" lon="-97.801691" changeset="false"><tag k="addr:street" v="Jester Boulevard"/><tag k="addr:housenumber" v="8150"/><tag k="addr:postcode" v="78750"/></node><node id="-123" lat="30.395953" lon="-97.800317" changeset="false"><tag k="addr:street" v="Asherton Cove"/><tag k="addr:housenumber" v="8113"/><tag k="addr:postcode" v="78750"/></node><node id="-124" lat="30.384324" lon="-97.800284" changeset="false"><tag k="addr:street" v="Basil Drive"/><tag k="addr:housenumber" v="7705"/><tag k="addr:postcode" v="78750"/></node><node id="-125" lat="30.393909" lon="-97.799184" changeset="false"><tag k="addr:street" v="Bottlebrush Drive"/><tag k="addr:housenumber" v="8117"/><tag k="addr:postcode" v="78750"/></node><node id="-126" lat="30.393781" lon="-97.803852" changeset="false"><tag k="addr:street" v="Elander Drive"/><tag k="addr:housenumber" v="8328"/><tag k="addr:postcode" v="78750"/></node><node id="-127" lat="30.393493" lon="-97.799157" changeset="false"><tag k="addr:street" v="Bottlebrush Drive"/><tag k="addr:housenumber" v="8109"/><tag k="addr:postcode" v="78750"/></node><node id="-128" lat="30.406732" lon="-97.790315" changeset="false"><tag k="addr:street" v="Old Spicewood Springs Road"/><tag k="addr:housenumber" v="7301"/><tag k="addr:postcode" v="78750"/></node><node id="-129" lat="30.391409" lon="-97.800461" changeset="false"><tag k="addr:street" v="Vailview Cove"/><tag k="addr:housenumber" v="8121"/><tag k="addr:postcode" v="78750"/></node><node id="-130" lat="30.399426" lon="-97.830555" changeset="false"><tag k="addr:street" v="Ranch to Market Road 2222"/><tag k="addr:housenumber" v="9818"/><tag k="addr:postcode" v="78750"/></node><node id="-131" lat="30.388553" lon="-97.80414" changeset="false"><tag k="addr:street" v="Asmara Court"/><tag k="addr:housenumber" v="8206"/><tag k="addr:postcode" v="78750"/></node><node id="-132" lat="30.391025" lon="-97.799642" changeset="false"><tag k="addr:street" v="Vailview Cove"/><tag k="addr:housenumber" v="8113"/><tag k="addr:postcode" v="78750"/></node><node id="-133" lat="30.39109" lon="-97.805622" changeset="false"><tag k="addr:street" v="Asmara Drive"/><tag k="addr:housenumber" v="8401"/><tag k="addr:postcode" v="78750"/></node><node id="-134" lat="30.393964" lon="-97.777846" changeset="false"><tag k="addr:street" v="Old Spicewood Springs Road"/><tag k="addr:housenumber" v="6433"/><tag k="addr:postcode" v="78759"/></node><node id="-135" lat="30.396465" lon="-97.80175" changeset="false"><tag k="addr:street" v="Jester Boulevard"/><tag k="addr:housenumber" v="8148"/><tag k="addr:postcode" v="78750"/></node><node id="-136" lat="30.383349" lon="-97.799038" changeset="false"><tag k="addr:street" v="Basil Drive"/><tag k="addr:housenumber" v="7601"/><tag k="addr:postcode" v="78750"/></node><node id="-137" lat="30.383409" lon="-97.798944" changeset="false"><tag k="addr:street" v="Jester Boulevard"/><tag k="addr:housenumber" v="7600"/><tag k="addr:postcode" v="78750"/></node><node id="-138" lat="30.377605" lon="-97.799686" changeset="false"><tag k="addr:street" v="Halbert Drive"/><tag k="addr:housenumber" v="7317"/><tag k="addr:postcode" v="78750"/></node><node id="-139" lat="30.377656" lon="-97.799692" changeset="false"><tag k="addr:street" v="Curly Leaf Cove"/><tag k="addr:housenumber" v="7400"/><tag k="addr:postcode" v="78750"/></node></osm>