<?xml version="1.0" encoding="UTF-8"?><osm version="0.6" generator="github.com/aaronlidman/osm-and-geojson"><node id="-1" lat="30.341732" lon="-97.982671" changeset="false"><tag k="addr:street" v="Tiburon Drive"/><tag k="addr:housenumber" v="18"/><tag k="coa:place_id" v="718336"/></node><node id="-2" lat="30.341681" lon="-97.974554" changeset="false"><tag k="addr:street" v="Rivulet Lane"/><tag k="addr:housenumber" v="106"/><tag k="coa:place_id" v="3113210"/></node><node id="-3" lat="30.341896" lon="-97.972561" changeset="false"><tag k="addr:street" v="Lohmans Crossing Road"/><tag k="addr:housenumber" v="2034"/><tag k="coa:place_id" v="878240"/></node><node id="-4" lat="30.338968" lon="-97.986805" changeset="false"><tag k="addr:street" v="The Hills Drive"/><tag k="addr:housenumber" v="66"/><tag k="coa:place_id" v="3040393"/></node><node id="-5" lat="30.338753" lon="-97.983057" changeset="false"><tag k="addr:street" v="Jack Nicklaus Drive"/><tag k="addr:housenumber" v="401"/><tag k="coa:place_id" v="3074119"/></node><node id="-6" lat="30.337448" lon="-97.981092" changeset="false"><tag k="addr:street" v="Jack Nicklaus Drive"/><tag k="addr:housenumber" v="305"/><tag k="coa:place_id" v="3182834"/></node><node id="-7" lat="30.352113" lon="-97.985357" changeset="false"><tag k="addr:street" v="The Hills Drive"/><tag k="addr:housenumber" v="301"/><tag k="coa:place_id" v="206211"/></node><node id="-8" lat="30.340721" lon="-97.984095" changeset="false"><tag k="addr:street" v="Torrington Lane"/><tag k="addr:housenumber" v="10"/><tag k="coa:place_id" v="256547"/></node><node id="-9" lat="30.337605" lon="-97.982287" changeset="false"><tag k="addr:street" v="Jack Nicklaus Drive"/><tag k="addr:housenumber" v="319"/><tag k="coa:place_id" v="3112992"/></node><node id="-10" lat="30.336695" lon="-97.978585" changeset="false"><tag k="addr:street" v="Golden Bear Drive"/><tag k="addr:housenumber" v="110"/><tag k="coa:place_id" v="3041057"/></node><node id="-11" lat="30.333579" lon="-97.984811" changeset="false"><tag k="addr:street" v="Golden Bear Drive"/><tag k="addr:housenumber" v="313"/><tag k="coa:place_id" v="3041170"/></node><node id="-12" lat="30.335913" lon="-97.978545" changeset="false"><tag k="addr:street" v="Jack Nicklaus Drive"/><tag k="addr:housenumber" v="202"/><tag k="coa:place_id" v="3041064"/></node><node id="-13" lat="30.353402" lon="-97.98348" changeset="false"><tag k="addr:street" v="Luna Vista Drive"/><tag k="addr:housenumber" v="500"/><tag k="coa:place_id" v="3031880"/></node><node id="-14" lat="30.334542" lon="-97.985836" changeset="false"><tag k="addr:street" v="Golden Bear Drive"/><tag k="addr:housenumber" v="406"/><tag k="coa:place_id" v="3041166"/></node><node id="-15" lat="30.352302" lon="-97.980198" changeset="false"><tag k="addr:street" v="Lost Meadow Trail"/><tag k="addr:housenumber" v="52"/><tag k="coa:place_id" v="3029411"/></node><node id="-16" lat="30.348333" lon="-97.983915" changeset="false"><tag k="addr:street" v="Hedgebrook Way"/><tag k="addr:housenumber" v="23"/><tag k="coa:place_id" v="576628"/></node><node id="-17" lat="30.351115" lon="-97.978383" changeset="false"><tag k="addr:street" v="Cottondale Road"/><tag k="addr:housenumber" v="46"/><tag k="coa:place_id" v="225960"/></node><node id="-18" lat="30.342894" lon="-97.978214" changeset="false"><tag k="addr:street" v="Daybreak Cove"/><tag k="addr:housenumber" v="2"/><tag k="coa:place_id" v="3043140"/></node><node id="-19" lat="30.351387" lon="-97.983365" changeset="false"><tag k="addr:street" v="The Hills Drive"/><tag k="addr:housenumber" v="201"/><tag k="coa:place_id" v="206209"/></node><node id="-20" lat="30.350077" lon="-97.982439" changeset="false"><tag k="addr:street" v="Chameleon Court"/><tag k="addr:housenumber" v="4"/><tag k="coa:place_id" v="116508"/></node><node id="-21" lat="30.349743" lon="-97.982801" changeset="false"><tag k="addr:street" v="Chameleon Court"/><tag k="addr:housenumber" v="8"/><tag k="coa:place_id" v="747046"/></node><node id="-22" lat="30.341173" lon="-97.980582" changeset="false"><tag k="addr:street" v="Dovedale Cove"/><tag k="addr:housenumber" v="9"/><tag k="coa:place_id" v="3037594"/></node><node id="-23" lat="30.350855" lon="-97.983153" changeset="false"><tag k="addr:street" v="Hedgebrook Way"/><tag k="addr:housenumber" v="49"/><tag k="coa:place_id" v="228913"/></node><node id="-24" lat="30.341294" lon="-97.982621" changeset="false"><tag k="addr:street" v="Tiburon Drive"/><tag k="addr:housenumber" v="14"/><tag k="coa:place_id" v="116855"/></node><node id="-25" lat="30.35341" lon="-97.983002" changeset="false"><tag k="addr:street" v="Luna Vista Drive"/><tag k="addr:housenumber" v="420"/><tag k="coa:place_id" v="3031878"/></node><node id="-26" lat="30.350462" lon="-97.983035" changeset="false"><tag k="addr:street" v="Hedgebrook Way"/><tag k="addr:housenumber" v="38"/><tag k="coa:place_id" v="165006"/></node><node id="-27" lat="30.350456" lon="-97.98373" changeset="false"><tag k="addr:street" v="Hedgebrook Way"/><tag k="addr:housenumber" v="43"/><tag k="coa:place_id" v="119415"/></node><node id="-28" lat="30.34032" lon="-97.985317" changeset="false"><tag k="addr:street" v="Waterfall Drive"/><tag k="addr:housenumber" v="9"/><tag k="coa:place_id" v="117551"/></node><node id="-29" lat="30.341373" lon="-97.974585" changeset="false"><tag k="addr:street" v="Rivulet Lane"/><tag k="addr:housenumber" v="110"/><tag k="coa:place_id" v="3113212"/></node><node id="-30" lat="30.344542" lon="-97.982535" changeset="false"><tag k="addr:street" v="Tiburon Drive"/><tag k="addr:housenumber" v="33"/><tag k="coa:place_id" v="658636"/></node><node id="-31" lat="30.344347" lon="-97.985597" changeset="false"><tag k="addr:street" v="Waterfall Drive"/><tag k="addr:housenumber" v="49"/><tag k="coa:place_id" v="3035216"/></node><node id="-32" lat="30.334524" lon="-97.986098" changeset="false"><tag k="addr:street" v="Golden Bear Drive"/><tag k="addr:housenumber" v="408"/><tag k="coa:place_id" v="3041167"/></node><node id="-33" lat="30.340214" lon="-97.973615" changeset="false"><tag k="addr:street" v="Rivulet Lane"/><tag k="addr:housenumber" v="205"/><tag k="coa:place_id" v="3113220"/></node><node id="-34" lat="30.335587" lon="-97.978922" changeset="false"><tag k="addr:street" v="Jack Nicklaus Drive"/><tag k="addr:housenumber" v="203"/><tag k="coa:place_id" v="3041065"/></node><node id="-35" lat="30.339492" lon="-97.973993" changeset="false"><tag k="addr:street" v="Rivulet Lane"/><tag k="addr:housenumber" v="212"/><tag k="coa:place_id" v="3113228"/></node><node id="-36" lat="30.33864" lon="-97.976598" changeset="false"><tag k="addr:street" v="Neville Wood Court"/><tag k="addr:housenumber" v="218"/><tag k="coa:place_id" v="3041038"/></node><node id="-37" lat="30.342009" lon="-97.984767" changeset="false"><tag k="addr:street" v="Glen Rock Drive"/><tag k="addr:housenumber" v="19"/><tag k="coa:place_id" v="119202"/></node><node id="-38" lat="30.334708" lon="-97.985099" changeset="false"><tag k="addr:street" v="Cabo del Sol Court"/><tag k="addr:housenumber" v="103"/><tag k="coa:place_id" v="3265981"/></node><node id="-39" lat="30.340685" lon="-97.983294" changeset="false"><tag k="addr:street" v="Torrington Lane"/><tag k="addr:housenumber" v="4"/><tag k="coa:place_id" v="3190167"/></node><node id="-40" lat="30.338982" lon="-97.981516" changeset="false"><tag k="addr:street" v="Borello Drive"/><tag k="addr:housenumber" v="28"/><tag k="coa:place_id" v="3219512"/></node><node id="-41" lat="30.33927" lon="-97.980737" changeset="false"><tag k="addr:street" v="Borello Drive"/><tag k="addr:housenumber" v="23"/><tag k="coa:place_id" v="3219507"/></node><node id="-42" lat="30.34145" lon="-97.975491" changeset="false"><tag k="addr:street" v="Amiata Avenue"/><tag k="addr:housenumber" v="206"/><tag k="coa:place_id" v="3428727"/></node><node id="-43" lat="30.342251" lon="-97.984795" changeset="false"><tag k="addr:street" v="Glen Rock Drive"/><tag k="addr:housenumber" v="21"/><tag k="coa:place_id" v="3388624"/></node><node id="-44" lat="30.342241" lon="-97.986474" changeset="false"><tag k="addr:street" v="Waterfall Drive"/><tag k="addr:housenumber" v="29"/><tag k="coa:place_id" v="3388628"/></node><node id="-45" lat="30.333738" lon="-97.985429" changeset="false"><tag k="addr:street" v="Cabo del Sol Cove"/><tag k="addr:housenumber" v="204"/><tag k="coa:place_id" v="3289753"/></node><node id="-46" lat="30.333364" lon="-97.99066" changeset="false"><tag k="addr:street" v="Pawnee Pass,1100"/><tag k="addr:housenumber" v="3930"/><tag k="coa:place_id" v="5070920"/></node><node id="-47" lat="30.343694" lon="-97.982334" changeset="false"><tag k="addr:street" v="Tiburon Drive"/><tag k="addr:housenumber" v="27"/><tag k="coa:place_id" v="218222"/></node><node id="-48" lat="30.354385" lon="-97.9819" changeset="false"><tag k="addr:street" v="Lost Meadow Trail"/><tag k="addr:housenumber" v="72"/><tag k="coa:place_id" v="193062"/></node><node id="-49" lat="30.345282" lon="-97.983948" changeset="false"><tag k="addr:street" v="Tiburon Drive"/><tag k="addr:housenumber" v="41"/><tag k="coa:place_id" v="3156476"/></node><node id="-50" lat="30.345055" lon="-97.983627" changeset="false"><tag k="addr:street" v="Glenway Drive"/><tag k="addr:housenumber" v="15"/><tag k="coa:place_id" v="558928"/></node><node id="-51" lat="30.344726" lon="-97.983474" changeset="false"><tag k="addr:street" v="Glenway Drive"/><tag k="addr:housenumber" v="16"/><tag k="coa:place_id" v="3146813"/></node><node id="-52" lat="30.344206" lon="-97.982165" changeset="false"><tag k="addr:street" v="Tiburon Drive"/><tag k="addr:housenumber" v="29"/><tag k="coa:place_id" v="227571"/></node><node id="-53" lat="30.340434" lon="-97.982531" changeset="false"><tag k="addr:street" v="Tiburon Drive"/><tag k="addr:housenumber" v="6"/><tag k="coa:place_id" v="180426"/></node><node id="-54" lat="30.342434" lon="-97.984687" changeset="false"><tag k="addr:street" v="Glen Rock Drive"/><tag k="addr:housenumber" v="23"/><tag k="coa:place_id" v="3044216"/></node><node id="-55" lat="30.33634" lon="-97.970921" changeset="false"><tag k="addr:street" v="Flintrock Trace"/><tag k="addr:housenumber" v="2806"/><tag k="coa:place_id" v="3190223"/></node><node id="-56" lat="30.336499" lon="-97.978398" changeset="false"><tag k="addr:street" v="Golden Bear Drive"/><tag k="addr:housenumber" v="112"/><tag k="coa:place_id" v="3041058"/></node><node id="-57" lat="30.336038" lon="-97.977686" changeset="false"><tag k="addr:street" v="Golden Bear Drive"/><tag k="addr:housenumber" v="109"/><tag k="coa:place_id" v="3041053"/></node><node id="-58" lat="30.33349" lon="-97.979944" changeset="false"><tag k="addr:street" v="Golden Bear Drive"/><tag k="addr:housenumber" v="221"/><tag k="coa:place_id" v="3041137"/></node><node id="-59" lat="30.335651" lon="-97.977109" changeset="false"><tag k="addr:street" v="Jack Nicklaus Drive"/><tag k="addr:housenumber" v="100"/><tag k="coa:place_id" v="3047800"/></node><node id="-60" lat="30.351193" lon="-97.977461" changeset="false"><tag k="addr:street" v="Lost Meadow Trail"/><tag k="addr:housenumber" v="2"/><tag k="coa:place_id" v="1158141"/></node><node id="-61" lat="30.347879" lon="-97.982399" changeset="false"><tag k="addr:street" v="Hedgebrook Way"/><tag k="addr:housenumber" v="13"/><tag k="coa:place_id" v="195637"/></node><node id="-62" lat="30.349507" lon="-97.982974" changeset="false"><tag k="addr:street" v="Chameleon Court"/><tag k="addr:housenumber" v="10"/><tag k="coa:place_id" v="115512"/></node><node id="-63" lat="30.348863" lon="-97.977473" changeset="false"><tag k="addr:street" v="Cottondale Road"/><tag k="addr:housenumber" v="30"/><tag k="coa:place_id" v="3028796"/></node><node id="-64" lat="30.33563" lon="-97.990778" changeset="false"><tag k="addr:street" v="Pawnee Pass,1100"/><tag k="addr:housenumber" v="3900"/><tag k="coa:place_id" v="432208"/></node><node id="-65" lat="30.338007" lon="-97.97755" changeset="false"><tag k="addr:street" v="Neville Wood Court"/><tag k="addr:housenumber" v="210"/><tag k="coa:place_id" v="3041034"/></node><node id="-66" lat="30.34095" lon="-97.985038" changeset="false"><tag k="addr:street" v="Bradenton Court"/><tag k="addr:housenumber" v="4"/><tag k="coa:place_id" v="122539"/></node><node id="-67" lat="30.339881" lon="-97.981474" changeset="false"><tag k="addr:street" v="The Hills Drive"/><tag k="addr:housenumber" v="99"/><tag k="coa:place_id" v="128509"/></node><node id="-68" lat="30.343108" lon="-97.982751" changeset="false"><tag k="addr:street" v="Tiburon Drive"/><tag k="addr:housenumber" v="21"/><tag k="coa:place_id" v="3135453"/></node><node id="-69" lat="30.339609" lon="-97.984518" changeset="false"><tag k="addr:street" v="Waterfall Drive"/><tag k="addr:housenumber" v="2"/><tag k="coa:place_id" v="3032341"/></node><node id="-70" lat="30.334073" lon="-97.981332" changeset="false"><tag k="addr:street" v="Golden Bear Drive"/><tag k="addr:housenumber" v="226"/><tag k="coa:place_id" v="3041131"/></node><node id="-71" lat="30.333327" lon="-97.985315" changeset="false"><tag k="addr:street" v="Cabo del Sol Cove"/><tag k="addr:housenumber" v="208"/><tag k="coa:place_id" v="3041169"/></node><node id="-72" lat="30.333183" lon="-97.984886" changeset="false"><tag k="addr:street" v="Cabo del Sol Cove"/><tag k="addr:housenumber" v="207"/><tag k="coa:place_id" v="3041172"/></node><node id="-73" lat="30.33452" lon="-97.988684" changeset="false"><tag k="addr:street" v="Golden Bear Drive"/><tag k="addr:housenumber" v="507"/><tag k="coa:place_id" v="3041179"/></node><node id="-74" lat="30.336496" lon="-97.991996" changeset="false"><tag k="addr:street" v="Golden Bear Drive"/><tag k="addr:housenumber" v="603"/><tag k="coa:place_id" v="3041192"/></node><node id="-75" lat="30.342866" lon="-97.977997" changeset="false"><tag k="addr:street" v="Daybreak Cove"/><tag k="addr:housenumber" v="4"/><tag k="coa:place_id" v="3099525"/></node><node id="-76" lat="30.340649" lon="-97.982552" changeset="false"><tag k="addr:street" v="Tiburon Drive"/><tag k="addr:housenumber" v="8"/><tag k="coa:place_id" v="134915"/></node><node id="-77" lat="30.337337" lon="-97.983559" changeset="false"><tag k="addr:street" v="San Savio Drive"/><tag k="addr:housenumber" v="32"/><tag k="coa:place_id" v="3112970"/></node><node id="-78" lat="30.352845" lon="-97.980574" changeset="false"><tag k="addr:street" v="Lost Meadow Trail"/><tag k="addr:housenumber" v="57"/><tag k="coa:place_id" v="580492"/></node><node id="-79" lat="30.344381" lon="-97.981821" changeset="false"><tag k="addr:street" v="Tiburon Drive"/><tag k="addr:housenumber" v="44"/><tag k="coa:place_id" v="114899"/></node><node id="-80" lat="30.34411" lon="-97.982765" changeset="false"><tag k="addr:street" v="Tiburon Court"/><tag k="addr:housenumber" v="5"/><tag k="coa:place_id" v="134917"/></node><node id="-81" lat="30.350328" lon="-97.983947" changeset="false"><tag k="addr:street" v="Hedgebrook Way"/><tag k="addr:housenumber" v="41"/><tag k="coa:place_id" v="3094159"/></node><node id="-82" lat="30.341282" lon="-97.984254" changeset="false"><tag k="addr:street" v="Glen Rock Drive"/><tag k="addr:housenumber" v="11"/><tag k="coa:place_id" v="120798"/></node><node id="-83" lat="30.35374" lon="-97.981524" changeset="false"><tag k="addr:street" v="Falling Oaks Trail"/><tag k="addr:housenumber" v="27"/><tag k="coa:place_id" v="235963"/></node><node id="-84" lat="30.34158" lon="-97.983853" changeset="false"><tag k="addr:street" v="Glen Rock Drive"/><tag k="addr:housenumber" v="8"/><tag k="coa:place_id" v="123087"/></node><node id="-85" lat="30.343556" lon="-97.983481" changeset="false"><tag k="addr:street" v="Glen Rock Drive"/><tag k="addr:housenumber" v="37"/><tag k="coa:place_id" v="121812"/></node><node id="-86" lat="30.334537" lon="-97.985587" changeset="false"><tag k="addr:street" v="Golden Bear Drive"/><tag k="addr:housenumber" v="404"/><tag k="coa:place_id" v="3041165"/></node><node id="-87" lat="30.336788" lon="-97.982301" changeset="false"><tag k="addr:street" v="San Savio Drive"/><tag k="addr:housenumber" v="29"/><tag k="coa:place_id" v="3183707"/></node><node id="-88" lat="30.338736" lon="-97.982389" changeset="false"><tag k="addr:street" v="Jack Nicklaus Drive"/><tag k="addr:housenumber" v="402"/><tag k="coa:place_id" v="3219311"/></node><node id="-89" lat="30.338906" lon="-97.982412" changeset="false"><tag k="addr:street" v="Jack Nicklaus Drive"/><tag k="addr:housenumber" v="404"/><tag k="coa:place_id" v="3219312"/></node><node id="-90" lat="30.339218" lon="-97.982445" changeset="false"><tag k="addr:street" v="Jack Nicklaus Drive"/><tag k="addr:housenumber" v="408"/><tag k="coa:place_id" v="3219314"/></node><node id="-91" lat="30.339364" lon="-97.982455" changeset="false"><tag k="addr:street" v="Jack Nicklaus Drive"/><tag k="addr:housenumber" v="410"/><tag k="coa:place_id" v="3219315"/></node><node id="-92" lat="30.339951" lon="-97.981201" changeset="false"><tag k="addr:street" v="The Hills Drive"/><tag k="addr:housenumber" v="101"/><tag k="coa:place_id" v="3388656"/></node><node id="-93" lat="30.340778" lon="-97.983066" changeset="false"><tag k="addr:street" v="Torrington Lane"/><tag k="addr:housenumber" v="2"/><tag k="coa:place_id" v="5099875"/></node><node id="-94" lat="30.344746" lon="-97.983939" changeset="false"><tag k="addr:street" v="Glenway Drive"/><tag k="addr:housenumber" v="11"/><tag k="coa:place_id" v="3388620"/></node><node id="-95" lat="30.343926" lon="-97.974841" changeset="false"><tag k="addr:street" v="Lohmans Crossing Road"/><tag k="addr:housenumber" v="1936"/><tag k="coa:place_id" v="3428745"/></node><node id="-96" lat="30.34256" lon="-97.974536" changeset="false"><tag k="addr:street" v="Amiata Avenue"/><tag k="addr:housenumber" v="103"/><tag k="coa:place_id" v="3428755"/></node><node id="-97" lat="30.340661" lon="-97.975043" changeset="false"><tag k="addr:street" v="Amiata Avenue"/><tag k="addr:housenumber" v="307"/><tag k="coa:place_id" v="3428719"/></node><node id="-98" lat="30.34111" lon="-97.983078" changeset="false"><tag k="addr:street" v="Glen Rock Drive"/><tag k="addr:housenumber" v="1"/><tag k="coa:place_id" v="5062003"/></node><node id="-99" lat="30.345829" lon="-97.983837" changeset="false"><tag k="addr:street" v="Tiburon Drive"/><tag k="addr:housenumber" v="64"/><tag k="coa:place_id" v="3100722"/></node><node id="-100" lat="30.344972" lon="-97.984937" changeset="false"><tag k="addr:street" v="Waterfall Drive"/><tag k="addr:housenumber" v="32"/><tag k="coa:place_id" v="1103887"/></node><node id="-101" lat="30.344658" lon="-97.982823" changeset="false"><tag k="addr:street" v="Tiburon Court"/><tag k="addr:housenumber" v="2"/><tag k="coa:place_id" v="134913"/></node><node id="-102" lat="30.344276" lon="-97.982676" changeset="false"><tag k="addr:street" v="Tiburon Court"/><tag k="addr:housenumber" v="3"/><tag k="coa:place_id" v="116003"/></node><node id="-103" lat="30.337091" lon="-97.977188" changeset="false"><tag k="addr:street" v="Golden Bear Cove"/><tag k="addr:housenumber" v="108"/><tag k="coa:place_id" v="3041049"/></node><node id="-104" lat="30.349103" lon="-97.983164" changeset="false"><tag k="addr:street" v="Chameleon Court"/><tag k="addr:housenumber" v="14"/><tag k="coa:place_id" v="574030"/></node><node id="-105" lat="30.336369" lon="-97.977575" changeset="false"><tag k="addr:street" v="Golden Bear Cove"/><tag k="addr:housenumber" v="102"/><tag k="coa:place_id" v="3041046"/></node><node id="-106" lat="30.3345" lon="-97.984393" changeset="false"><tag k="addr:street" v="Cabo del Sol Court"/><tag k="addr:housenumber" v="104"/><tag k="coa:place_id" v="3041174"/></node><node id="-107" lat="30.341848" lon="-97.974521" changeset="false"><tag k="addr:street" v="Rivulet Lane"/><tag k="addr:housenumber" v="104"/><tag k="coa:place_id" v="3113209"/></node><node id="-108" lat="30.337513" lon="-97.977178" changeset="false"><tag k="addr:street" v="Golden Bear Cove"/><tag k="addr:housenumber" v="112"/><tag k="coa:place_id" v="3041051"/></node><node id="-109" lat="30.333297" lon="-97.983677" changeset="false"><tag k="addr:street" v="Golden Bear Drive"/><tag k="addr:housenumber" v="307"/><tag k="coa:place_id" v="3041155"/></node><node id="-110" lat="30.332727" lon="-97.990763" changeset="false"><tag k="addr:street" v="Pawnee Pass,1100"/><tag k="addr:housenumber" v="4008"/><tag k="coa:place_id" v="212358"/></node><node id="-111" lat="30.340704" lon="-97.984641" changeset="false"><tag k="addr:street" v="Torrington Lane"/><tag k="addr:housenumber" v="14"/><tag k="coa:place_id" v="219241"/></node><node id="-112" lat="30.337961" lon="-97.977831" changeset="false"><tag k="addr:street" v="Neville Wood Court"/><tag k="addr:housenumber" v="208"/><tag k="coa:place_id" v="3041033"/></node><node id="-113" lat="30.352424" lon="-97.982413" changeset="false"><tag k="addr:street" v="Luna Vista Drive"/><tag k="addr:housenumber" v="410"/><tag k="coa:place_id" v="3031873"/></node><node id="-114" lat="30.352383" lon="-97.981427" changeset="false"><tag k="addr:street" v="Falling Oaks Trail"/><tag k="addr:housenumber" v="16"/><tag k="coa:place_id" v="171479"/></node><node id="-115" lat="30.335453" lon="-97.978535" changeset="false"><tag k="addr:street" v="Jack Nicklaus Drive"/><tag k="addr:housenumber" v="201"/><tag k="coa:place_id" v="3074121"/></node><node id="-116" lat="30.338218" lon="-97.978622" changeset="false"><tag k="addr:street" v="Neville Wood Court"/><tag k="addr:housenumber" v="203"/><tag k="coa:place_id" v="3041019"/></node><node id="-117" lat="30.334319" lon="-97.989301" changeset="false"><tag k="addr:street" v="Desert Highlands Court"/><tag k="addr:housenumber" v="103"/><tag k="coa:place_id" v="3041180"/></node><node id="-118" lat="30.354065" lon="-97.981102" changeset="false"><tag k="addr:street" v="Lost Meadow Trail"/><tag k="addr:housenumber" v="66"/><tag k="coa:place_id" v="215712"/></node><node id="-119" lat="30.352865" lon="-97.981325" changeset="false"><tag k="addr:street" v="Falling Oaks Trail"/><tag k="addr:housenumber" v="20"/><tag k="coa:place_id" v="219239"/></node><node id="-120" lat="30.341984" lon="-97.974442" changeset="false"><tag k="addr:street" v="Rivulet Lane"/><tag k="addr:housenumber" v="102"/><tag k="coa:place_id" v="3191054"/></node><node id="-121" lat="30.349545" lon="-97.983563" changeset="false"><tag k="addr:street" v="Hedgebrook Way"/><tag k="addr:housenumber" v="26"/><tag k="coa:place_id" v="117168"/></node><node id="-122" lat="30.336842" lon="-97.97957" changeset="false"><tag k="addr:street" v="Jack Nicklaus Drive"/><tag k="addr:housenumber" v="212"/><tag k="coa:place_id" v="3073745"/></node><node id="-123" lat="30.344995" lon="-97.984381" changeset="false"><tag k="addr:street" v="Valhalla Court"/><tag k="addr:housenumber" v="7"/><tag k="coa:place_id" v="131923"/></node><node id="-124" lat="30.344052" lon="-97.984398" changeset="false"><tag k="addr:street" v="Glenway Court"/><tag k="addr:housenumber" v="2"/><tag k="coa:place_id" v="1104248"/></node><node id="-125" lat="30.344002" lon="-97.982948" changeset="false"><tag k="addr:street" v="Tiburon Court"/><tag k="addr:housenumber" v="7"/><tag k="coa:place_id" v="134916"/></node><node id="-126" lat="30.341636" lon="-97.984058" changeset="false"><tag k="addr:street" v="Glen Rock Drive"/><tag k="addr:housenumber" v="10"/><tag k="coa:place_id" v="148157"/></node><node id="-127" lat="30.350226" lon="-97.982173" changeset="false"><tag k="addr:street" v="Chameleon Court"/><tag k="addr:housenumber" v="2"/><tag k="coa:place_id" v="227339"/></node><node id="-128" lat="30.348389" lon="-97.983204" changeset="false"><tag k="addr:street" v="Hedgebrook Way"/><tag k="addr:housenumber" v="16"/><tag k="coa:place_id" v="115584"/></node><node id="-129" lat="30.339804" lon="-97.978661" changeset="false"><tag k="addr:street" v="Hightrail Way"/><tag k="addr:housenumber" v="21"/><tag k="coa:place_id" v="1162694"/></node><node id="-130" lat="30.337951" lon="-97.97941" changeset="false"><tag k="addr:street" v="Neville Wood Court"/><tag k="addr:housenumber" v="107"/><tag k="coa:place_id" v="3041040"/></node><node id="-131" lat="30.337661" lon="-97.978656" changeset="false"><tag k="addr:street" v="Neville Wood Court"/><tag k="addr:housenumber" v="202"/><tag k="coa:place_id" v="3137115"/></node><node id="-132" lat="30.333754" lon="-97.97879" changeset="false"><tag k="addr:street" v="Golden Bear Drive"/><tag k="addr:housenumber" v="213"/><tag k="coa:place_id" v="3041082"/></node><node id="-133" lat="30.338108" lon="-97.97889" changeset="false"><tag k="addr:street" v="Neville Wood Court"/><tag k="addr:housenumber" v="201"/><tag k="coa:place_id" v="3041018"/></node><node id="-134" lat="30.342281" lon="-97.980217" changeset="false"><tag k="addr:street" v="Postwood Road"/><tag k="addr:housenumber" v="6"/><tag k="coa:place_id" v="121917"/></node><node id="-135" lat="30.352203" lon="-97.980649" changeset="false"><tag k="addr:street" v="Lost Meadow Trail"/><tag k="addr:housenumber" v="53"/><tag k="coa:place_id" v="747454"/></node><node id="-136" lat="30.335539" lon="-97.98844" changeset="false"><tag k="addr:street" v="Golden Bear Drive"/><tag k="addr:housenumber" v="510"/><tag k="coa:place_id" v="3041185"/></node><node id="-137" lat="30.341525" lon="-97.974586" changeset="false"><tag k="addr:street" v="Rivulet Lane"/><tag k="addr:housenumber" v="108"/><tag k="coa:place_id" v="3113211"/></node><node id="-138" lat="30.33993" lon="-97.97359" changeset="false"><tag k="addr:street" v="Rivulet Lane"/><tag k="addr:housenumber" v="209"/><tag k="coa:place_id" v="3113222"/></node><node id="-139" lat="30.337426" lon="-97.981702" changeset="false"><tag k="addr:street" v="Jack Nicklaus Drive"/><tag k="addr:housenumber" v="309"/><tag k="coa:place_id" v="3182832"/></node><node id="-140" lat="30.341345" lon="-97.985342" changeset="false"><tag k="addr:street" v="Bradenton Court"/><tag k="addr:housenumber" v="3"/><tag k="coa:place_id" v="3136134"/></node><node id="-141" lat="30.335685" lon="-97.991461" changeset="false"><tag k="addr:street" v="Pawnee Pass,1100"/><tag k="addr:housenumber" v="3840"/><tag k="coa:place_id" v="3190106"/></node><node id="-142" lat="30.33841" lon="-97.981802" changeset="false"><tag k="addr:street" v="Borello Drive"/><tag k="addr:housenumber" v="3"/><tag k="coa:place_id" v="3219487"/></node><node id="-143" lat="30.339441" lon="-97.979331" changeset="false"><tag k="addr:street" v="Borello Drive"/><tag k="addr:housenumber" v="19"/><tag k="coa:place_id" v="3219503"/></node><node id="-144" lat="30.339866" lon="-97.9829" changeset="false"><tag k="addr:street" v="Tiburon Drive"/><tag k="addr:housenumber" v="5"/><tag k="coa:place_id" v="125461"/></node><node id="-145" lat="30.340633" lon="-97.973994" changeset="false"><tag k="addr:street" v="Outcrop View Lane"/><tag k="addr:housenumber" v="119"/><tag k="coa:place_id" v="3260764"/></node><node id="-146" lat="30.342885" lon="-97.98348" changeset="false"><tag k="addr:street" v="Glen Rock Drive"/><tag k="addr:housenumber" v="24"/><tag k="coa:place_id" v="160422"/></node><node id="-147" lat="30.335138" lon="-97.990203" changeset="false"><tag k="addr:street" v="Pawnee Pass,1100"/><tag k="addr:housenumber" v="3904"/><tag k="coa:place_id" v="3367046"/></node><node id="-148" lat="30.334287" lon="-97.991819" changeset="false"><tag k="addr:street" v="Pawnee Pass,1100"/><tag k="addr:housenumber" v="3910"/><tag k="coa:place_id" v="3361467"/></node><node id="-149" lat="30.344865" lon="-97.982461" changeset="false"><tag k="addr:street" v="Tiburon Drive"/><tag k="addr:housenumber" v="50"/><tag k="coa:place_id" v="130633"/></node><node id="-150" lat="30.33503" lon="-97.990892" changeset="false"><tag k="addr:street" v="Pawnee Pass,1100"/><tag k="addr:housenumber" v="3902"/><tag k="coa:place_id" v="3367045"/></node><node id="-151" lat="30.342359" lon="-97.974774" changeset="false"><tag k="addr:street" v="Amiata Avenue"/><tag k="addr:housenumber" v="107"/><tag k="coa:place_id" v="3428751"/></node><node id="-152" lat="30.342669" lon="-97.974419" changeset="false"><tag k="addr:street" v="Amiata Avenue"/><tag k="addr:housenumber" v="101"/><tag k="coa:place_id" v="3428754"/></node><node id="-153" lat="30.34684" lon="-97.978096" changeset="false"><tag k="addr:street" v="Dewdrop Cove"/><tag k="addr:housenumber" v="2"/><tag k="coa:place_id" v="5080647"/></node><node id="-154" lat="30.349367" lon="-97.982528" changeset="false"><tag k="addr:street" v="Chameleon Court"/><tag k="addr:housenumber" v="7"/><tag k="coa:place_id" v="165123"/></node><node id="-155" lat="30.340878" lon="-97.982582" changeset="false"><tag k="addr:street" v="Tiburon Drive"/><tag k="addr:housenumber" v="10"/><tag k="coa:place_id" v="118686"/></node><node id="-156" lat="30.340341" lon="-97.983482" changeset="false"><tag k="addr:street" v="Torrington Lane"/><tag k="addr:housenumber" v="3"/><tag k="coa:place_id" v="190009"/></node><node id="-157" lat="30.349184" lon="-97.982633" changeset="false"><tag k="addr:street" v="Chameleon Court"/><tag k="addr:housenumber" v="9"/><tag k="coa:place_id" v="169528"/></node><node id="-158" lat="30.35061" lon="-97.977466" changeset="false"><tag k="addr:street" v="Lost Meadow Trail"/><tag k="addr:housenumber" v="3"/><tag k="coa:place_id" v="1158143"/></node><node id="-159" lat="30.348003" lon="-97.982989" changeset="false"><tag k="addr:street" v="Hedgebrook Way"/><tag k="addr:housenumber" v="17"/><tag k="coa:place_id" v="602566"/></node><node id="-160" lat="30.340881" lon="-97.974568" changeset="false"><tag k="addr:street" v="Rivulet Lane"/><tag k="addr:housenumber" v="116"/><tag k="coa:place_id" v="3113215"/></node><node id="-161" lat="30.341948" lon="-97.982631" changeset="false"><tag k="addr:street" v="Tiburon Drive"/><tag k="addr:housenumber" v="20"/><tag k="coa:place_id" v="179477"/></node><node id="-162" lat="30.33589" lon="-97.979357" changeset="false"><tag k="addr:street" v="Jack Nicklaus Drive"/><tag k="addr:housenumber" v="207"/><tag k="coa:place_id" v="3041069"/></node><node id="-163" lat="30.348134" lon="-97.983399" changeset="false"><tag k="addr:street" v="Hedgebrook Way"/><tag k="addr:housenumber" v="21"/><tag k="coa:place_id" v="610516"/></node><node id="-164" lat="30.339566" lon="-97.973631" changeset="false"><tag k="addr:street" v="Rivulet Lane"/><tag k="addr:housenumber" v="213"/><tag k="coa:place_id" v="3113224"/></node><node id="-165" lat="30.351526" lon="-97.979568" changeset="false"><tag k="addr:street" v="Cottondale Road"/><tag k="addr:housenumber" v="54"/><tag k="coa:place_id" v="222396"/></node><node id="-166" lat="30.342637" lon="-97.984649" changeset="false"><tag k="addr:street" v="Glen Rock Drive"/><tag k="addr:housenumber" v="25"/><tag k="coa:place_id" v="208573"/></node><node id="-167" lat="30.342391" lon="-97.983359" changeset="false"><tag k="addr:street" v="Windwood Court"/><tag k="addr:housenumber" v="4"/><tag k="coa:place_id" v="143935"/></node><node id="-168" lat="30.336099" lon="-97.979541" changeset="false"><tag k="addr:street" v="Jack Nicklaus Drive"/><tag k="addr:housenumber" v="209"/><tag k="coa:place_id" v="3084172"/></node><node id="-169" lat="30.342226" lon="-97.978038" changeset="false"><tag k="addr:street" v="Parkside Road"/><tag k="addr:housenumber" v="11"/><tag k="coa:place_id" v="3036517"/></node><node id="-170" lat="30.342929" lon="-97.986309" changeset="false"><tag k="addr:street" v="Waterfall Drive"/><tag k="addr:housenumber" v="35"/><tag k="coa:place_id" v="200844"/></node><node id="-171" lat="30.34297" lon="-97.977728" changeset="false"><tag k="addr:street" v="Daybreak Cove"/><tag k="addr:housenumber" v="6"/><tag k="coa:place_id" v="125639"/></node><node id="-172" lat="30.340112" lon="-97.98401" changeset="false"><tag k="addr:street" v="Torrington Court"/><tag k="addr:housenumber" v="4"/><tag k="coa:place_id" v="210149"/></node><node id="-173" lat="30.34228" lon="-97.973806" changeset="false"><tag k="addr:street" v="Meadowland Drive"/><tag k="addr:housenumber" v="206"/><tag k="coa:place_id" v="3113190"/></node><node id="-174" lat="30.343752" lon="-97.985651" changeset="false"><tag k="addr:street" v="Waterfall Drive"/><tag k="addr:housenumber" v="26"/><tag k="coa:place_id" v="3049523"/></node><node id="-175" lat="30.343455" lon="-97.982477" changeset="false"><tag k="addr:street" v="Tiburon Drive"/><tag k="addr:housenumber" v="25"/><tag k="coa:place_id" v="218226"/></node><node id="-176" lat="30.334608" lon="-97.978592" changeset="false"><tag k="addr:street" v="Golden Bear Drive"/><tag k="addr:housenumber" v="206"/><tag k="coa:place_id" v="3041075"/></node><node id="-177" lat="30.334219" lon="-97.979" changeset="false"><tag k="addr:street" v="Golden Bear Drive"/><tag k="addr:housenumber" v="210"/><tag k="coa:place_id" v="3041079"/></node><node id="-178" lat="30.341526" lon="-97.979086" changeset="false"><tag k="addr:street" v="Hightrail Way"/><tag k="addr:housenumber" v="4"/><tag k="coa:place_id" v="3038391"/></node><node id="-179" lat="30.339638" lon="-97.98295" changeset="false"><tag k="addr:street" v="Tiburon Drive"/><tag k="addr:housenumber" v="1"/><tag k="coa:place_id" v="3032340"/></node><node id="-180" lat="30.35259" lon="-97.980591" changeset="false"><tag k="addr:street" v="Lost Meadow Trail"/><tag k="addr:housenumber" v="55"/><tag k="coa:place_id" v="234673"/></node><node id="-181" lat="30.352012" lon="-97.980288" changeset="false"><tag k="addr:street" v="Lost Meadow Trail"/><tag k="addr:housenumber" v="50"/><tag k="coa:place_id" v="206427"/></node><node id="-182" lat="30.349916" lon="-97.982635" changeset="false"><tag k="addr:street" v="Chameleon Court"/><tag k="addr:housenumber" v="6"/><tag k="coa:place_id" v="116461"/></node><node id="-183" lat="30.345693" lon="-97.979297" changeset="false"><tag k="addr:street" v="Radnor Drive"/><tag k="addr:housenumber" v="3"/><tag k="coa:place_id" v="193032"/></node><node id="-184" lat="30.337399" lon="-97.980808" changeset="false"><tag k="addr:street" v="Jack Nicklaus Drive"/><tag k="addr:housenumber" v="303"/><tag k="coa:place_id" v="3182833"/></node><node id="-185" lat="30.336892" lon="-97.98022" changeset="false"><tag k="addr:street" v="Jack Nicklaus Drive"/><tag k="addr:housenumber" v="217"/><tag k="coa:place_id" v="3084176"/></node><node id="-186" lat="30.344743" lon="-97.982217" changeset="false"><tag k="addr:street" v="Tiburon Drive"/><tag k="addr:housenumber" v="48"/><tag k="coa:place_id" v="118283"/></node><node id="-187" lat="30.353143" lon="-97.980596" changeset="false"><tag k="addr:street" v="Lost Meadow Trail"/><tag k="addr:housenumber" v="59"/><tag k="coa:place_id" v="215711"/></node><node id="-188" lat="30.338967" lon="-97.976007" changeset="false"><tag k="addr:street" v="Neville Wood Court"/><tag k="addr:housenumber" v="222"/><tag k="coa:place_id" v="3272071"/></node><node id="-189" lat="30.340398" lon="-97.975361" changeset="false"><tag k="addr:street" v="Amiata Avenue"/><tag k="addr:housenumber" v="308"/><tag k="coa:place_id" v="3428975"/></node><node id="-190" lat="30.34129" lon="-97.975087" changeset="false"><tag k="addr:street" v="Amiata Avenue"/><tag k="addr:housenumber" v="301"/><tag k="coa:place_id" v="3428728"/></node><node id="-191" lat="30.345199" lon="-97.985295" changeset="false"><tag k="addr:street" v="Links Court"/><tag k="addr:housenumber" v="2"/><tag k="coa:place_id" v="3359844"/></node><node id="-192" lat="30.344567" lon="-97.981948" changeset="false"><tag k="addr:street" v="Tiburon Drive"/><tag k="addr:housenumber" v="46"/><tag k="coa:place_id" v="223923"/></node><node id="-193" lat="30.342474" lon="-97.983661" changeset="false"><tag k="addr:street" v="Windwood Court"/><tag k="addr:housenumber" v="6"/><tag k="coa:place_id" v="3388626"/></node><node id="-194" lat="30.342875" lon="-97.979269" changeset="false"><tag k="addr:street" v="Postwood Road"/><tag k="addr:housenumber" v="13"/><tag k="coa:place_id" v="5063846"/></node><node id="-195" lat="30.342103" lon="-97.974953" changeset="false"><tag k="addr:street" v="Amiata Avenue"/><tag k="addr:housenumber" v="111"/><tag k="coa:place_id" v="3428753"/></node><node id="-196" lat="30.333165" lon="-97.985148" changeset="false"><tag k="addr:street" v="Cabo del Sol Cove"/><tag k="addr:housenumber" v="209"/><tag k="coa:place_id" v="3041173"/></node><node id="-197" lat="30.341603" lon="-97.978477" changeset="false"><tag k="addr:street" v="Hightrail Way"/><tag k="addr:housenumber" v="5"/><tag k="coa:place_id" v="229165"/></node><node id="-198" lat="30.34195" lon="-97.97268" changeset="false"><tag k="addr:street" v="Meadowland Drive"/><tag k="addr:housenumber" v="101"/><tag k="coa:place_id" v="3113187"/></node><node id="-199" lat="30.342143" lon="-97.973942" changeset="false"><tag k="addr:street" v="Meadowland Drive"/><tag k="addr:housenumber" v="204"/><tag k="coa:place_id" v="3113189"/></node><node id="-200" lat="30.337792" lon="-97.978381" changeset="false"><tag k="addr:street" v="Neville Wood Court"/><tag k="addr:housenumber" v="204"/><tag k="coa:place_id" v="3041031"/></node><node id="-201" lat="30.343445" lon="-97.983725" changeset="false"><tag k="addr:street" v="Glen Rock Drive"/><tag k="addr:housenumber" v="35"/><tag k="coa:place_id" v="225091"/></node><node id="-202" lat="30.343298" lon="-97.982619" changeset="false"><tag k="addr:street" v="Tiburon Drive"/><tag k="addr:housenumber" v="23"/><tag k="coa:place_id" v="116194"/></node><node id="-203" lat="30.342051" lon="-97.973644" changeset="false"><tag k="addr:street" v="Meadowland Drive"/><tag k="addr:housenumber" v="202"/><tag k="coa:place_id" v="3113188"/></node><node id="-204" lat="30.353968" lon="-97.980915" changeset="false"><tag k="addr:street" v="Lost Meadow Trail"/><tag k="addr:housenumber" v="64"/><tag k="coa:place_id" v="256539"/></node><node id="-205" lat="30.337711" lon="-97.98245" changeset="false"><tag k="addr:street" v="Jack Nicklaus Drive"/><tag k="addr:housenumber" v="321"/><tag k="coa:place_id" v="3112993"/></node><node id="-206" lat="30.33419" lon="-97.983361" changeset="false"><tag k="addr:street" v="Porto Cima Court"/><tag k="addr:housenumber" v="103"/><tag k="coa:place_id" v="3041152"/></node><node id="-207" lat="30.340723" lon="-97.974473" changeset="false"><tag k="addr:street" v="Rivulet Lane"/><tag k="addr:housenumber" v="118"/><tag k="coa:place_id" v="3113216"/></node><node id="-208" lat="30.351683" lon="-97.980155" changeset="false"><tag k="addr:street" v="Cottondale Road"/><tag k="addr:housenumber" v="58"/><tag k="coa:place_id" v="255666"/></node><node id="-209" lat="30.339481" lon="-97.973837" changeset="false"><tag k="addr:street" v="Rivulet Lane"/><tag k="addr:housenumber" v="214"/><tag k="coa:place_id" v="3113229"/></node><node id="-210" lat="30.334469" lon="-97.977976" changeset="false"><tag k="addr:street" v="Golden Bear Drive"/><tag k="addr:housenumber" v="205"/><tag k="coa:place_id" v="3041074"/></node><node id="-211" lat="30.333396" lon="-97.982862" changeset="false"><tag k="addr:street" v="Golden Bear Drive"/><tag k="addr:housenumber" v="301"/><tag k="coa:place_id" v="3041158"/></node><node id="-212" lat="30.350242" lon="-97.977736" changeset="false"><tag k="addr:street" v="Cottondale Road"/><tag k="addr:housenumber" v="40"/><tag k="coa:place_id" v="3134472"/></node><node id="-213" lat="30.344908" lon="-97.983831" changeset="false"><tag k="addr:street" v="Glenway Drive"/><tag k="addr:housenumber" v="13"/><tag k="coa:place_id" v="1125587"/></node><node id="-214" lat="30.348311" lon="-97.984342" changeset="false"><tag k="addr:street" v="Hedgebrook Cove"/><tag k="addr:housenumber" v="5"/><tag k="coa:place_id" v="515476"/></node><node id="-215" lat="30.348238" lon="-97.984206" changeset="false"><tag k="addr:street" v="Hedgebrook Cove"/><tag k="addr:housenumber" v="3"/><tag k="coa:place_id" v="125479"/></node><node id="-216" lat="30.350733" lon="-97.982659" changeset="false"><tag k="addr:street" v="Hedgebrook Way"/><tag k="addr:housenumber" v="42"/><tag k="coa:place_id" v="165005"/></node><node id="-217" lat="30.348308" lon="-97.982853" changeset="false"><tag k="addr:street" v="Hedgebrook Way"/><tag k="addr:housenumber" v="14"/><tag k="coa:place_id" v="473398"/></node><node id="-218" lat="30.337114" lon="-97.977749" changeset="false"><tag k="addr:street" v="Golden Bear Cove"/><tag k="addr:housenumber" v="105"/><tag k="coa:place_id" v="3041042"/></node><node id="-219" lat="30.336582" lon="-97.977363" changeset="false"><tag k="addr:street" v="Golden Bear Cove"/><tag k="addr:housenumber" v="104"/><tag k="coa:place_id" v="3041047"/></node><node id="-220" lat="30.354659" lon="-97.978815" changeset="false"><tag k="addr:street" v="Lohmans Crossing Road"/><tag k="addr:housenumber" v="1602"/><tag k="coa:place_id" v="218971"/></node><node id="-221" lat="30.333337" lon="-97.983965" changeset="false"><tag k="addr:street" v="Golden Bear Drive"/><tag k="addr:housenumber" v="309"/><tag k="coa:place_id" v="3041156"/></node><node id="-222" lat="30.334671" lon="-97.977823" changeset="false"><tag k="addr:street" v="Golden Bear Drive"/><tag k="addr:housenumber" v="203"/><tag k="coa:place_id" v="3041072"/></node><node id="-223" lat="30.341588" lon="-97.979247" changeset="false"><tag k="addr:street" v="Hightrail Way"/><tag k="addr:housenumber" v="2"/><tag k="coa:place_id" v="3038390"/></node><node id="-224" lat="30.341371" lon="-97.978842" changeset="false"><tag k="addr:street" v="Hightrail Way"/><tag k="addr:housenumber" v="6"/><tag k="coa:place_id" v="3038392"/></node><node id="-225" lat="30.339221" lon="-97.983086" changeset="false"><tag k="addr:street" v="Jack Nicklaus Drive"/><tag k="addr:housenumber" v="405"/><tag k="coa:place_id" v="3074897"/></node><node id="-226" lat="30.338115" lon="-97.983322" changeset="false"><tag k="addr:street" v="San Giovani Cove"/><tag k="addr:housenumber" v="12"/><tag k="coa:place_id" v="3112983"/></node><node id="-227" lat="30.337871" lon="-97.97975" changeset="false"><tag k="addr:street" v="Neville Wood Court"/><tag k="addr:housenumber" v="105"/><tag k="coa:place_id" v="3072698"/></node><node id="-228" lat="30.336862" lon="-97.989683" changeset="false"><tag k="addr:street" v="Golden Bear Drive"/><tag k="addr:housenumber" v="522"/><tag k="coa:place_id" v="3041190"/></node><node id="-229" lat="30.333916" lon="-97.978535" changeset="false"><tag k="addr:street" v="Golden Bear Drive"/><tag k="addr:housenumber" v="211"/><tag k="coa:place_id" v="3041080"/></node><node id="-230" lat="30.338376" lon="-97.976773" changeset="false"><tag k="addr:street" v="Neville Wood Court"/><tag k="addr:housenumber" v="216"/><tag k="coa:place_id" v="3041037"/></node><node id="-231" lat="30.336283" lon="-97.979707" changeset="false"><tag k="addr:street" v="Jack Nicklaus Drive"/><tag k="addr:housenumber" v="211"/><tag k="coa:place_id" v="3084173"/></node><node id="-232" lat="30.33162" lon="-97.991289" changeset="false"><tag k="addr:street" v="Pawnee Pass,1100"/><tag k="addr:housenumber" v="4024"/><tag k="coa:place_id" v="3218413"/></node><node id="-233" lat="30.334729" lon="-97.984157" changeset="false"><tag k="addr:street" v="Cabo del Sol Court"/><tag k="addr:housenumber" v="106"/><tag k="coa:place_id" v="3265979"/></node><node id="-234" lat="30.335323" lon="-97.991538" changeset="false"><tag k="addr:street" v="Pawnee Pass,1100"/><tag k="addr:housenumber" v="3850"/><tag k="coa:place_id" v="3190107"/></node><node id="-235" lat="30.338499" lon="-97.981649" changeset="false"><tag k="addr:street" v="Borello Drive"/><tag k="addr:housenumber" v="4"/><tag k="coa:place_id" v="3219488"/></node><node id="-236" lat="30.339324" lon="-97.980589" changeset="false"><tag k="addr:street" v="Borello Drive"/><tag k="addr:housenumber" v="22"/><tag k="coa:place_id" v="3219506"/></node><node id="-237" lat="30.339071" lon="-97.982422" changeset="false"><tag k="addr:street" v="Jack Nicklaus Drive"/><tag k="addr:housenumber" v="406"/><tag k="coa:place_id" v="3219313"/></node><node id="-238" lat="30.339842" lon="-97.974776" changeset="false"><tag k="addr:street" v="Amiata Avenue"/><tag k="addr:housenumber" v="408"/><tag k="coa:place_id" v="3428974"/></node><node id="-239" lat="30.344596" lon="-97.976038" changeset="false"><tag k="addr:street" v="Lohmans Crossing Road"/><tag k="addr:housenumber" v="1930"/><tag k="coa:place_id" v="3385987"/></node><node id="-240" lat="30.33977" lon="-97.97921" changeset="false"><tag k="addr:street" v="Hightrail Way"/><tag k="addr:housenumber" v="25"/><tag k="coa:place_id" v="3388643"/></node><node id="-241" lat="30.348017" lon="-97.981796" changeset="false"><tag k="addr:street" v="Hedgebrook Way"/><tag k="addr:housenumber" v="9"/><tag k="coa:place_id" v="216427"/></node><node id="-242" lat="30.345685" lon="-97.983694" changeset="false"><tag k="addr:street" v="Tiburon Drive"/><tag k="addr:housenumber" v="62"/><tag k="coa:place_id" v="3388619"/></node><node id="-243" lat="30.342236" lon="-97.974888" changeset="false"><tag k="addr:street" v="Amiata Avenue"/><tag k="addr:housenumber" v="109"/><tag k="coa:place_id" v="3428752"/></node><node id="-244" lat="30.341072" lon="-97.975088" changeset="false"><tag k="addr:street" v="Amiata Avenue"/><tag k="addr:housenumber" v="303"/><tag k="coa:place_id" v="3428717"/></node><node id="-245" lat="30.342374" lon="-97.976363" changeset="false"><tag k="addr:street" v="Medici Avenue"/><tag k="addr:housenumber" v="111"/><tag k="coa:place_id" v="3431207"/></node><node id="-246" lat="30.342038" lon="-97.986479" changeset="false"><tag k="addr:street" v="Waterfall Drive"/><tag k="addr:housenumber" v="27"/><tag k="coa:place_id" v="3388627"/></node><node id="-247" lat="30.337617" lon="-97.980267" changeset="false"><tag k="addr:street" v="Jack Nicklaus Drive"/><tag k="addr:housenumber" v="302"/><tag k="coa:place_id" v="3188504"/></node><node id="-248" lat="30.334998" lon="-97.991431" changeset="false"><tag k="addr:street" v="Pawnee Pass,1100"/><tag k="addr:housenumber" v="3860"/><tag k="coa:place_id" v="3190108"/></node><node id="-249" lat="30.344106" lon="-97.977493" changeset="false"><tag k="addr:street" v="Mayleaf Cove"/><tag k="addr:housenumber" v="5"/><tag k="coa:place_id" v="220356"/></node><node id="-250" lat="30.351682" lon="-97.984041" changeset="false"><tag k="addr:street" v="The Hills Drive"/><tag k="addr:housenumber" v="229"/><tag k="coa:place_id" v="220531"/></node><node id="-251" lat="30.33639" lon="-97.991484" changeset="false"><tag k="addr:street" v="Golden Bear Drive"/><tag k="addr:housenumber" v="601"/><tag k="coa:place_id" v="3041191"/></node><node id="-252" lat="30.336277" lon="-97.989518" changeset="false"><tag k="addr:street" v="Golden Bear Drive"/><tag k="addr:housenumber" v="517"/><tag k="coa:place_id" v="3041187"/></node><node id="-253" lat="30.339418" lon="-97.97635" changeset="false"><tag k="addr:street" v="Neville Wood Court"/><tag k="addr:housenumber" v="221"/><tag k="coa:place_id" v="3041026"/></node><node id="-254" lat="30.352654" lon="-97.982458" changeset="false"><tag k="addr:street" v="Luna Vista Drive"/><tag k="addr:housenumber" v="412"/><tag k="coa:place_id" v="3031874"/></node><node id="-255" lat="30.338257" lon="-97.982828" changeset="false"><tag k="addr:street" v="Jack Nicklaus Drive"/><tag k="addr:housenumber" v="327"/><tag k="coa:place_id" v="3112996"/></node><node id="-256" lat="30.337829" lon="-97.982575" changeset="false"><tag k="addr:street" v="Jack Nicklaus Drive"/><tag k="addr:housenumber" v="323"/><tag k="coa:place_id" v="3112994"/></node><node id="-257" lat="30.341848" lon="-97.979556" changeset="false"><tag k="addr:street" v="The Hills Drive"/><tag k="addr:housenumber" v="117"/><tag k="coa:place_id" v="117852"/></node><node id="-258" lat="30.352282" lon="-97.985608" changeset="false"><tag k="addr:street" v="The Hills Drive"/><tag k="addr:housenumber" v="351"/><tag k="coa:place_id" v="216881"/></node><node id="-259" lat="30.35165" lon="-97.98076" changeset="false"><tag k="addr:street" v="Lost Meadow Trail"/><tag k="addr:housenumber" v="49"/><tag k="coa:place_id" v="560074"/></node><node id="-260" lat="30.34056" lon="-97.979518" changeset="false"><tag k="addr:street" v="The Hills Drive"/><tag k="addr:housenumber" v="110"/><tag k="coa:place_id" v="124705"/></node><node id="-261" lat="30.336803" lon="-97.982223" changeset="false"><tag k="addr:street" v="San Savio Drive"/><tag k="addr:housenumber" v="24"/><tag k="coa:place_id" v="3112967"/></node><node id="-262" lat="30.34563" lon="-97.984261" changeset="false"><tag k="addr:street" v="Tiburon Drive"/><tag k="addr:housenumber" v="45"/><tag k="coa:place_id" v="225106"/></node><node id="-263" lat="30.341188" lon="-97.98405" changeset="false"><tag k="addr:street" v="Glen Rock Drive"/><tag k="addr:housenumber" v="9"/><tag k="coa:place_id" v="128214"/></node><node id="-264" lat="30.333792" lon="-97.984978" changeset="false"><tag k="addr:street" v="Cabo del Sol Cove"/><tag k="addr:housenumber" v="203"/><tag k="coa:place_id" v="5086040"/></node><node id="-265" lat="30.350198" lon="-97.979294" changeset="false"><tag k="addr:street" v="Lost Meadow Trail"/><tag k="addr:housenumber" v="14"/><tag k="coa:place_id" v="5101032"/></node><node id="-266" lat="30.341084" lon="-97.975443" changeset="false"><tag k="addr:street" v="Amiata Avenue"/><tag k="addr:housenumber" v="302"/><tag k="coa:place_id" v="3428720"/></node><node id="-267" lat="30.341728" lon="-97.975474" changeset="false"><tag k="addr:street" v="Amiata Avenue"/><tag k="addr:housenumber" v="204"/><tag k="coa:place_id" v="3428725"/></node><node id="-268" lat="30.341467" lon="-97.975093" changeset="false"><tag k="addr:street" v="Amiata Avenue"/><tag k="addr:housenumber" v="205"/><tag k="coa:place_id" v="3428726"/></node><node id="-269" lat="30.34249" lon="-97.978375" changeset="false"><tag k="addr:street" v="Parkside Road"/><tag k="addr:housenumber" v="7"/><tag k="coa:place_id" v="3393194"/></node><node id="-270" lat="30.342128" lon="-97.978634" changeset="false"><tag k="addr:street" v="Parkside Road"/><tag k="addr:housenumber" v="8"/><tag k="coa:place_id" v="3393195"/></node><node id="-271" lat="30.340347" lon="-97.974811" changeset="false"><tag k="addr:street" v="Amiata Avenue"/><tag k="addr:housenumber" v="403"/><tag k="coa:place_id" v="3428971"/></node><node id="-272" lat="30.354077" lon="-97.981897" changeset="false"><tag k="addr:street" v="Lost Meadow Trail"/><tag k="addr:housenumber" v="73"/><tag k="coa:place_id" v="161549"/></node><node id="-273" lat="30.343554" lon="-97.97426" changeset="false"><tag k="addr:street" v="Lohmans Crossing Road"/><tag k="addr:housenumber" v="1938"/><tag k="coa:place_id" v="3428746"/></node><node id="-274" lat="30.343213" lon="-97.985" changeset="false"><tag k="addr:street" v="Cheverly Court"/><tag k="addr:housenumber" v="8"/><tag k="coa:place_id" v="3388622"/></node><node id="-275" lat="30.340884" lon="-97.975078" changeset="false"><tag k="addr:street" v="Amiata Avenue"/><tag k="addr:housenumber" v="305"/><tag k="coa:place_id" v="3428718"/></node><node id="-276" lat="30.342266" lon="-97.975714" changeset="false"><tag k="addr:street" v="Medici Avenue"/><tag k="addr:housenumber" v="205 1/2"/><tag k="coa:place_id" v="3431210"/></node><node id="-277" lat="30.342074" lon="-97.975383" changeset="false"><tag k="addr:street" v="Amiata Avenue"/><tag k="addr:housenumber" v="202"/><tag k="coa:place_id" v="3428699"/></node><node id="-278" lat="30.342763" lon="-97.982993" changeset="false"><tag k="addr:street" v="Glen Rock Drive"/><tag k="addr:housenumber" v="28"/><tag k="coa:place_id" v="5116433"/></node><node id="-279" lat="30.342465" lon="-97.974641" changeset="false"><tag k="addr:street" v="Amiata Avenue"/><tag k="addr:housenumber" v="105"/><tag k="coa:place_id" v="3428756"/></node><node id="-280" lat="30.34658" lon="-97.979966" changeset="false"><tag k="addr:street" v="Wingreen Loop"/><tag k="addr:housenumber" v="37"/><tag k="coa:place_id" v="5067362"/></node><node id="-281" lat="30.339879" lon="-97.974937" changeset="false"><tag k="addr:street" v="Amiata Avenue"/><tag k="addr:housenumber" v="406"/><tag k="coa:place_id" v="3428973"/></node><node id="-282" lat="30.346798" lon="-97.979572" changeset="false"><tag k="addr:street" v="Cottondale Road"/><tag k="addr:housenumber" v="6"/><tag k="coa:place_id" v="3388604"/></node><node id="-283" lat="30.347143" lon="-97.981191" changeset="false"><tag k="addr:street" v="Random Cove"/><tag k="addr:housenumber" v="4"/><tag k="coa:place_id" v="3388605"/></node><node id="-284" lat="30.341818" lon="-97.984706" changeset="false"><tag k="addr:street" v="Glen Rock Drive"/><tag k="addr:housenumber" v="17"/><tag k="coa:place_id" v="3388623"/></node><node id="-285" lat="30.347274" lon="-97.980207" changeset="false"><tag k="addr:street" v="Wingreen Loop"/><tag k="addr:housenumber" v="27"/><tag k="coa:place_id" v="5103389"/></node><node id="-286" lat="30.339136" lon="-97.975736" changeset="false"><tag k="addr:street" v="Neville Wood Court"/><tag k="addr:housenumber" v="224"/><tag k="coa:place_id" v="3268276"/></node><node id="-287" lat="30.341001" lon="-97.986085" changeset="false"><tag k="addr:street" v="Waterfall Drive"/><tag k="addr:housenumber" v="17"/><tag k="coa:place_id" v="3212964"/></node><node id="-288" lat="30.347182" lon="-97.979828" changeset="false"><tag k="addr:street" v="Cottondale Road"/><tag k="addr:housenumber" v="2"/><tag k="coa:place_id" v="5103388"/></node><node id="-289" lat="30.347092" lon="-97.980208" changeset="false"><tag k="addr:street" v="Wingreen Loop"/><tag k="addr:housenumber" v="29"/><tag k="coa:place_id" v="5103390"/></node><node id="-290" lat="30.340519" lon="-97.974937" changeset="false"><tag k="addr:street" v="Amiata Avenue"/><tag k="addr:housenumber" v="401"/><tag k="coa:place_id" v="3428969"/></node><node id="-291" lat="30.340027" lon="-97.975106" changeset="false"><tag k="addr:street" v="Amiata Avenue"/><tag k="addr:housenumber" v="404"/><tag k="coa:place_id" v="3428972"/></node><node id="-292" lat="30.35287" lon="-97.982564" changeset="false"><tag k="addr:street" v="Luna Vista Drive"/><tag k="addr:housenumber" v="414"/><tag k="coa:place_id" v="3031875"/></node><node id="-293" lat="30.336488" lon="-97.979166" changeset="false"><tag k="addr:street" v="Jack Nicklaus Drive"/><tag k="addr:housenumber" v="208"/><tag k="coa:place_id" v="3041070"/></node><node id="-294" lat="30.333276" lon="-97.989876" changeset="false"><tag k="addr:street" v="Pawnee Pass,1100"/><tag k="addr:housenumber" v="3917"/><tag k="coa:place_id" v="3555889"/></node><node id="-295" lat="30.344172" lon="-97.978191" changeset="false"><tag k="addr:street" v="Mayleaf Cove"/><tag k="addr:housenumber" v="1"/><tag k="coa:place_id" v="3388603"/></node><node id="-296" lat="30.343702" lon="-97.977923" changeset="false"><tag k="addr:street" v="Mayleaf Cove"/><tag k="addr:housenumber" v="4"/><tag k="coa:place_id" v="227281"/></node><node id="-297" lat="30.333852" lon="-97.983094" changeset="false"><tag k="addr:street" v="Porto Cima Court"/><tag k="addr:housenumber" v="101"/><tag k="coa:place_id" v="3691015"/></node><node id="-298" lat="30.334329" lon="-97.984766" changeset="false"><tag k="addr:street" v="Cabo del Sol Court"/><tag k="addr:housenumber" v="102"/><tag k="coa:place_id" v="5086532"/></node><node id="-299" lat="30.33336" lon="-97.984717" changeset="false"><tag k="addr:street" v="Cabo del Sol Cove"/><tag k="addr:housenumber" v="205"/><tag k="coa:place_id" v="3217427"/></node><node id="-300" lat="30.338343" lon="-97.981965" changeset="false"><tag k="addr:street" v="Borello Drive"/><tag k="addr:housenumber" v="2"/><tag k="coa:place_id" v="3219486"/></node><node id="-301" lat="30.338271" lon="-97.982103" changeset="false"><tag k="addr:street" v="Borello Drive"/><tag k="addr:housenumber" v="1"/><tag k="coa:place_id" v="3219485"/></node><node id="-302" lat="30.338978" lon="-97.980578" changeset="false"><tag k="addr:street" v="Borello Drive"/><tag k="addr:housenumber" v="11"/><tag k="coa:place_id" v="3219495"/></node><node id="-303" lat="30.339301" lon="-97.979803" changeset="false"><tag k="addr:street" v="Borello Drive"/><tag k="addr:housenumber" v="16"/><tag k="coa:place_id" v="3219500"/></node><node id="-304" lat="30.341125" lon="-97.98327" changeset="false"><tag k="addr:street" v="Glen Rock Drive"/><tag k="addr:housenumber" v="3"/><tag k="coa:place_id" v="3054657"/></node><node id="-305" lat="30.345702" lon="-97.98458" changeset="false"><tag k="addr:street" v="Tiburon Drive"/><tag k="addr:housenumber" v="47"/><tag k="coa:place_id" v="5243794"/></node><node id="-306" lat="30.341618" lon="-97.984595" changeset="false"><tag k="addr:street" v="Glen Rock Drive"/><tag k="addr:housenumber" v="15"/><tag k="coa:place_id" v="3028955"/></node><node id="-307" lat="30.344963" lon="-97.982666" changeset="false"><tag k="addr:street" v="Tiburon Drive"/><tag k="addr:housenumber" v="52"/><tag k="coa:place_id" v="117259"/></node><node id="-308" lat="30.354513" lon="-97.978949" changeset="false"><tag k="addr:street" v="Lohmans Crossing Road"/><tag k="addr:housenumber" v="1604"/><tag k="coa:place_id" v="215219"/></node><node id="-309" lat="30.344538" lon="-97.983615" changeset="false"><tag k="addr:street" v="Glenway Drive"/><tag k="addr:housenumber" v="14"/><tag k="coa:place_id" v="341554"/></node><node id="-310" lat="30.351323" lon="-97.97897" changeset="false"><tag k="addr:street" v="Cottondale Road"/><tag k="addr:housenumber" v="50"/><tag k="coa:place_id" v="133491"/></node><node id="-311" lat="30.337282" lon="-97.978497" changeset="false"><tag k="addr:street" v="Golden Bear Drive"/><tag k="addr:housenumber" v="103"/><tag k="coa:place_id" v="3041060"/></node><node id="-312" lat="30.337085" lon="-97.978945" changeset="false"><tag k="addr:street" v="Golden Bear Drive"/><tag k="addr:housenumber" v="106"/><tag k="coa:place_id" v="3041055"/></node><node id="-313" lat="30.33687" lon="-97.977696" changeset="false"><tag k="addr:street" v="Golden Bear Cove"/><tag k="addr:housenumber" v="103"/><tag k="coa:place_id" v="3041052"/></node><node id="-314" lat="30.336877" lon="-97.978758" changeset="false"><tag k="addr:street" v="Golden Bear Drive"/><tag k="addr:housenumber" v="108"/><tag k="coa:place_id" v="3041056"/></node><node id="-315" lat="30.35357" lon="-97.97991" changeset="false"><tag k="addr:street" v="Lost Meadow Cove"/><tag k="addr:housenumber" v="5"/><tag k="coa:place_id" v="219240"/></node><node id="-316" lat="30.336045" lon="-97.97807" changeset="false"><tag k="addr:street" v="Golden Bear Drive"/><tag k="addr:housenumber" v="116"/><tag k="coa:place_id" v="3041054"/></node><node id="-317" lat="30.337893" lon="-97.98089" changeset="false"><tag k="addr:street" v="Jack Nicklaus Drive"/><tag k="addr:housenumber" v="306"/><tag k="coa:place_id" v="3040327"/></node><node id="-318" lat="30.341197" lon="-97.97458" changeset="false"><tag k="addr:street" v="Rivulet Lane"/><tag k="addr:housenumber" v="112"/><tag k="coa:place_id" v="3113213"/></node><node id="-319" lat="30.338522" lon="-97.982991" changeset="false"><tag k="addr:street" v="Jack Nicklaus Drive"/><tag k="addr:housenumber" v="331"/><tag k="coa:place_id" v="3112998"/></node><node id="-320" lat="30.335266" lon="-97.988402" changeset="false"><tag k="addr:street" v="Golden Bear Drive"/><tag k="addr:housenumber" v="508"/><tag k="coa:place_id" v="3041184"/></node><node id="-321" lat="30.334907" lon="-97.989531" changeset="false"><tag k="addr:street" v="Desert Highlands Court"/><tag k="addr:housenumber" v="106"/><tag k="coa:place_id" v="3041183"/></node><node id="-322" lat="30.342406" lon="-97.978127" changeset="false"><tag k="addr:street" v="Parkside Road"/><tag k="addr:housenumber" v="9"/><tag k="coa:place_id" v="3036518"/></node><node id="-323" lat="30.352468" lon="-97.984562" changeset="false"><tag k="addr:street" v="Luna Vista Drive"/><tag k="addr:housenumber" v="512"/><tag k="coa:place_id" v="3031885"/></node><node id="-324" lat="30.33394" lon="-97.990597" changeset="false"><tag k="addr:street" v="Pawnee Pass,1100"/><tag k="addr:housenumber" v="3920"/><tag k="coa:place_id" v="97456"/></node><node id="-325" lat="30.350994" lon="-97.982962" changeset="false"><tag k="addr:street" v="Hedgebrook Way"/><tag k="addr:housenumber" v="51"/><tag k="coa:place_id" v="598984"/></node><node id="-326" lat="30.334616" lon="-97.988111" changeset="false"><tag k="addr:street" v="Golden Bear Drive"/><tag k="addr:housenumber" v="504"/><tag k="coa:place_id" v="3041176"/></node><node id="-327" lat="30.341775" lon="-97.986379" changeset="false"><tag k="addr:street" v="Waterfall Drive"/><tag k="addr:housenumber" v="25"/><tag k="coa:place_id" v="312310"/></node><node id="-328" lat="30.33704" lon="-97.982112" changeset="false"><tag k="addr:street" v="San Savio Drive"/><tag k="addr:housenumber" v="22"/><tag k="coa:place_id" v="3112965"/></node><node id="-329" lat="30.34831" lon="-97.981925" changeset="false"><tag k="addr:street" v="Hedgebrook Way"/><tag k="addr:housenumber" v="6"/><tag k="coa:place_id" v="219234"/></node><node id="-330" lat="30.348257" lon="-97.982595" changeset="false"><tag k="addr:street" v="Hedgebrook Way"/><tag k="addr:housenumber" v="12"/><tag k="coa:place_id" v="195638"/></node><node id="-331" lat="30.353079" lon="-97.979791" changeset="false"><tag k="addr:street" v="Lost Meadow Cove"/><tag k="addr:housenumber" v="4"/><tag k="coa:place_id" v="220463"/></node><node id="-332" lat="30.353468" lon="-97.981104" changeset="false"><tag k="addr:street" v="Falling Oaks Trail"/><tag k="addr:housenumber" v="26"/><tag k="coa:place_id" v="212890"/></node><node id="-333" lat="30.342134" lon="-97.98571" changeset="false"><tag k="addr:street" v="Cliffbrook Court"/><tag k="addr:housenumber" v="3"/><tag k="coa:place_id" v="137573"/></node><node id="-334" lat="30.338763" lon="-97.976359" changeset="false"><tag k="addr:street" v="Neville Wood Court"/><tag k="addr:housenumber" v="220"/><tag k="coa:place_id" v="3041039"/></node><node id="-335" lat="30.333618" lon="-97.979059" changeset="false"><tag k="addr:street" v="Golden Bear Drive"/><tag k="addr:housenumber" v="215"/><tag k="coa:place_id" v="3041083"/></node><node id="-336" lat="30.341195" lon="-97.978326" changeset="false"><tag k="addr:street" v="Hightrail Way"/><tag k="addr:housenumber" v="9"/><tag k="coa:place_id" v="5280196"/></node><node id="-337" lat="30.357274" lon="-97.979106" changeset="false"><tag k="addr:street" v="Lakeway Boulevard"/><tag k="addr:housenumber" v="2201"/><tag k="coa:place_id" v="135099"/></node><node id="-338" lat="30.340081" lon="-97.973587" changeset="false"><tag k="addr:street" v="Rivulet Lane"/><tag k="addr:housenumber" v="207"/><tag k="coa:place_id" v="3113221"/></node><node id="-339" lat="30.342847" lon="-97.984521" changeset="false"><tag k="addr:street" v="Glen Rock Drive"/><tag k="addr:housenumber" v="27"/><tag k="coa:place_id" v="121876"/></node><node id="-340" lat="30.349565" lon="-97.977745" changeset="false"><tag k="addr:street" v="Cottondale Road"/><tag k="addr:housenumber" v="36"/><tag k="coa:place_id" v="383890"/></node><node id="-341" lat="30.337889" lon="-97.978113" changeset="false"><tag k="addr:street" v="Neville Wood Court"/><tag k="addr:housenumber" v="206"/><tag k="coa:place_id" v="3041032"/></node><node id="-342" lat="30.3335" lon="-97.980494" changeset="false"><tag k="addr:street" v="Golden Bear Drive"/><tag k="addr:housenumber" v="225"/><tag k="coa:place_id" v="3041139"/></node><node id="-343" lat="30.333496" lon="-97.980232" changeset="false"><tag k="addr:street" v="Golden Bear Drive"/><tag k="addr:housenumber" v="223"/><tag k="coa:place_id" v="3041138"/></node><node id="-344" lat="30.351303" lon="-97.981968" changeset="false"><tag k="addr:street" v="Falling Oaks Trail"/><tag k="addr:housenumber" v="5"/><tag k="coa:place_id" v="3042656"/></node><node id="-345" lat="30.344197" lon="-97.985725" changeset="false"><tag k="addr:street" v="Waterfall Drive"/><tag k="addr:housenumber" v="47"/><tag k="coa:place_id" v="125425"/></node><node id="-346" lat="30.3444" lon="-97.984332" changeset="false"><tag k="addr:street" v="Glenway Drive"/><tag k="addr:housenumber" v="7"/><tag k="coa:place_id" v="209020"/></node><node id="-347" lat="30.34401" lon="-97.983922" changeset="false"><tag k="addr:street" v="Glenway Court"/><tag k="addr:housenumber" v="3"/><tag k="coa:place_id" v="711790"/></node><node id="-348" lat="30.347932" lon="-97.982612" changeset="false"><tag k="addr:street" v="Hedgebrook Way"/><tag k="addr:housenumber" v="15"/><tag k="coa:place_id" v="132383"/></node><node id="-349" lat="30.351106" lon="-97.985353" changeset="false"><tag k="addr:street" v="The Hills Drive"/><tag k="addr:housenumber" v="315"/><tag k="coa:place_id" v="220492"/></node><node id="-350" lat="30.335694" lon="-97.979185" changeset="false"><tag k="addr:street" v="Jack Nicklaus Drive"/><tag k="addr:housenumber" v="205"/><tag k="coa:place_id" v="3041067"/></node><node id="-351" lat="30.338027" lon="-97.977254" changeset="false"><tag k="addr:street" v="Neville Wood Court"/><tag k="addr:housenumber" v="212"/><tag k="coa:place_id" v="3041035"/></node><node id="-352" lat="30.343008" lon="-97.984323" changeset="false"><tag k="addr:street" v="Glen Rock Drive"/><tag k="addr:housenumber" v="29"/><tag k="coa:place_id" v="123427"/></node><node id="-353" lat="30.334532" lon="-97.983457" changeset="false"><tag k="addr:street" v="Porto Cima Court"/><tag k="addr:housenumber" v="105"/><tag k="coa:place_id" v="3041151"/></node><node id="-354" lat="30.340095" lon="-97.982942" changeset="false"><tag k="addr:street" v="Tiburon Drive"/><tag k="addr:housenumber" v="3"/><tag k="coa:place_id" v="133885"/></node><node id="-355" lat="30.343364" lon="-97.983179" changeset="false"><tag k="addr:street" v="Glen Rock Drive"/><tag k="addr:housenumber" v="39"/><tag k="coa:place_id" v="604948"/></node><node id="-356" lat="30.343116" lon="-97.984087" changeset="false"><tag k="addr:street" v="Glen Rock Drive"/><tag k="addr:housenumber" v="31"/><tag k="coa:place_id" v="227400"/></node><node id="-357" lat="30.33509" lon="-97.977477" changeset="false"><tag k="addr:street" v="Jack Nicklaus Drive"/><tag k="addr:housenumber" v="101"/><tag k="coa:place_id" v="3046514"/></node><node id="-358" lat="30.341272" lon="-97.97253" changeset="false"><tag k="addr:street" v="Meadowland Drive"/><tag k="addr:housenumber" v="109"/><tag k="coa:place_id" v="3113232"/></node><node id="-359" lat="30.34302" lon="-97.985582" changeset="false"><tag k="addr:street" v="Waterfall Drive"/><tag k="addr:housenumber" v="22"/><tag k="coa:place_id" v="694990"/></node><node id="-360" lat="30.348808" lon="-97.980473" changeset="false"><tag k="addr:street" v="The Hills Drive"/><tag k="addr:housenumber" v="162 1/2"/><tag k="coa:place_id" v="3040992"/></node><node id="-361" lat="30.333333" lon="-97.983126" changeset="false"><tag k="addr:street" v="Golden Bear Drive"/><tag k="addr:housenumber" v="303"/><tag k="coa:place_id" v="3041153"/></node><node id="-362" lat="30.341474" lon="-97.983337" changeset="false"><tag k="addr:street" v="Glen Rock Drive"/><tag k="addr:housenumber" v="4"/><tag k="coa:place_id" v="143939"/></node><node id="-363" lat="30.337053" lon="-97.980379" changeset="false"><tag k="addr:street" v="Jack Nicklaus Drive"/><tag k="addr:housenumber" v="219"/><tag k="coa:place_id" v="3084177"/></node><node id="-364" lat="30.344511" lon="-97.98409" changeset="false"><tag k="addr:street" v="Glenway Drive"/><tag k="addr:housenumber" v="9"/><tag k="coa:place_id" v="233220"/></node><node id="-365" lat="30.344409" lon="-97.984863" changeset="false"><tag k="addr:street" v="Glenway Drive"/><tag k="addr:housenumber" v="3"/><tag k="coa:place_id" v="599134"/></node><node id="-366" lat="30.34139" lon="-97.986251" changeset="false"><tag k="addr:street" v="Waterfall Drive"/><tag k="addr:housenumber" v="21"/><tag k="coa:place_id" v="225335"/></node><node id="-367" lat="30.333483" lon="-97.981399" changeset="false"><tag k="addr:street" v="Golden Bear Drive"/><tag k="addr:housenumber" v="231"/><tag k="coa:place_id" v="3041142"/></node><node id="-368" lat="30.334269" lon="-97.988487" changeset="false"><tag k="addr:street" v="Golden Bear Drive"/><tag k="addr:housenumber" v="505"/><tag k="coa:place_id" v="3041177"/></node><node id="-369" lat="30.339373" lon="-97.980412" changeset="false"><tag k="addr:street" v="Borello Drive"/><tag k="addr:housenumber" v="21"/><tag k="coa:place_id" v="3219505"/></node><node id="-370" lat="30.33681" lon="-97.977225" changeset="false"><tag k="addr:street" v="Golden Bear Cove"/><tag k="addr:housenumber" v="106"/><tag k="coa:place_id" v="3041048"/></node><node id="-371" lat="30.341177" lon="-97.983769" changeset="false"><tag k="addr:street" v="Glen Rock Drive"/><tag k="addr:housenumber" v="7"/><tag k="coa:place_id" v="125325"/></node><node id="-372" lat="30.338566" lon="-97.981491" changeset="false"><tag k="addr:street" v="Borello Drive"/><tag k="addr:housenumber" v="5"/><tag k="coa:place_id" v="3219489"/></node><node id="-373" lat="30.338768" lon="-97.981022" changeset="false"><tag k="addr:street" v="Borello Drive"/><tag k="addr:housenumber" v="8"/><tag k="coa:place_id" v="3219492"/></node><node id="-374" lat="30.35288" lon="-97.98022" changeset="false"><tag k="addr:street" v="Lost Meadow Trail"/><tag k="addr:housenumber" v="56"/><tag k="coa:place_id" v="197972"/></node><node id="-375" lat="30.33407" lon="-97.979269" changeset="false"><tag k="addr:street" v="Golden Bear Drive"/><tag k="addr:housenumber" v="212"/><tag k="coa:place_id" v="3041081"/></node><node id="-376" lat="30.331554" lon="-97.990818" changeset="false"><tag k="addr:street" v="Pawnee Pass,1100"/><tag k="addr:housenumber" v="4028"/><tag k="coa:place_id" v="3218414"/></node><node id="-377" lat="30.347809" lon="-97.977704" changeset="false"><tag k="addr:street" v="Cottondale Road"/><tag k="addr:housenumber" v="22"/><tag k="coa:place_id" v="3051262"/></node><node id="-378" lat="30.347051" lon="-97.977564" changeset="false"><tag k="addr:street" v="Dewdrop Cove"/><tag k="addr:housenumber" v="3"/><tag k="coa:place_id" v="3044644"/></node><node id="-379" lat="30.333547" lon="-97.97937" changeset="false"><tag k="addr:street" v="Golden Bear Drive"/><tag k="addr:housenumber" v="217"/><tag k="coa:place_id" v="3041084"/></node><node id="-380" lat="30.335793" lon="-97.988523" changeset="false"><tag k="addr:street" v="Golden Bear Drive"/><tag k="addr:housenumber" v="512"/><tag k="coa:place_id" v="3041186"/></node><node id="-381" lat="30.341517" lon="-97.98266" changeset="false"><tag k="addr:street" v="Tiburon Drive"/><tag k="addr:housenumber" v="16"/><tag k="coa:place_id" v="459196"/></node><node id="-382" lat="30.341404" lon="-97.98445" changeset="false"><tag k="addr:street" v="Glen Rock Drive"/><tag k="addr:housenumber" v="13"/><tag k="coa:place_id" v="553726"/></node><node id="-383" lat="30.336493" lon="-97.970812" changeset="false"><tag k="addr:street" v="Flintrock Trace"/><tag k="addr:housenumber" v="2802"/><tag k="coa:place_id" v="3158722"/></node><node id="-384" lat="30.339095" lon="-97.981205" changeset="false"><tag k="addr:street" v="Borello Drive"/><tag k="addr:housenumber" v="26"/><tag k="coa:place_id" v="3219510"/></node><node id="-385" lat="30.339049" lon="-97.981317" changeset="false"><tag k="addr:street" v="Borello Drive"/><tag k="addr:housenumber" v="27"/><tag k="coa:place_id" v="3219511"/></node><node id="-386" lat="30.337615" lon="-97.983707" changeset="false"><tag k="addr:street" v="San Savio Drive"/><tag k="addr:housenumber" v="30"/><tag k="coa:place_id" v="3112968"/></node><node id="-387" lat="30.337532" lon="-97.983619" changeset="false"><tag k="addr:street" v="San Savio Drive"/><tag k="addr:housenumber" v="31"/><tag k="coa:place_id" v="3112969"/></node></osm>