<?xml version="1.0" encoding="UTF-8"?><osm version="0.6" generator="github.com/aaronlidman/osm-and-geojson"><node id="-1" lat="30.228433" lon="-97.771264" changeset="false"><tag k="addr:street" v="South 2nd Street"/><tag k="addr:housenumber" v="3809"/><tag k="addr:postcode" v="78704"/></node><node id="-2" lat="30.231446" lon="-97.769429" changeset="false"><tag k="addr:street" v="South 2nd Street"/><tag k="addr:housenumber" v="3605"/><tag k="addr:postcode" v="78704"/></node><node id="-3" lat="30.233776" lon="-97.772286" changeset="false"><tag k="addr:street" v="Daphne Court"/><tag k="addr:housenumber" v="1006"/><tag k="addr:postcode" v="78704"/></node><node id="-4" lat="30.233429" lon="-97.769271" changeset="false"><tag k="addr:street" v="Cardinal Lane"/><tag k="addr:housenumber" v="905"/><tag k="addr:postcode" v="78704"/></node><node id="-5" lat="30.230281" lon="-97.771471" changeset="false"><tag k="addr:street" v="Birch Street"/><tag k="addr:housenumber" v="3711"/><tag k="addr:postcode" v="78704"/></node><node id="-6" lat="30.232667" lon="-97.769688" changeset="false"><tag k="addr:street" v="Garden Villa Court"/><tag k="addr:housenumber" v="3505"/><tag k="addr:postcode" v="78704"/></node><node id="-7" lat="30.232826" lon="-97.768929" changeset="false"><tag k="addr:street" v="South 2nd Street"/><tag k="addr:housenumber" v="3402"/><tag k="addr:postcode" v="78704"/></node><node id="-8" lat="30.231998" lon="-97.766338" changeset="false"><tag k="addr:street" v="Cardinal Lane"/><tag k="addr:housenumber" v="601"/><tag k="addr:postcode" v="78704"/></node><node id="-9" lat="30.229575" lon="-97.774426" changeset="false"><tag k="addr:street" v="Banister Lane"/><tag k="addr:housenumber" v="1006"/><tag k="addr:postcode" v="78704"/></node><node id="-10" lat="30.233528" lon="-97.76952" changeset="false"><tag k="addr:street" v="Cardinal Lane"/><tag k="addr:housenumber" v="907"/><tag k="addr:postcode" v="78704"/></node><node id="-11" lat="30.228165" lon="-97.772621" changeset="false"><tag k="addr:street" v="West Ben White Boulevard"/><tag k="addr:housenumber" v="800"/><tag k="addr:postcode" v="78704"/></node><node id="-12" lat="30.228187" lon="-97.774268" changeset="false"><tag k="addr:street" v="West Ben White Boulevard"/><tag k="addr:housenumber" v="900"/><tag k="addr:postcode" v="78704"/></node><node id="-13" lat="30.228276" lon="-97.773835" changeset="false"><tag k="addr:street" v="West Ben White Boulevard"/><tag k="addr:housenumber" v="910 1/2"/><tag k="addr:postcode" v="78704"/></node><node id="-14" lat="30.230746" lon="-97.770967" changeset="false"><tag k="addr:street" v="South Center Street"/><tag k="addr:housenumber" v="809"/><tag k="addr:postcode" v="78704"/></node><node id="-15" lat="30.230991" lon="-97.767022" changeset="false"><tag k="addr:street" v="South 1st Street"/><tag k="addr:housenumber" v="3508"/><tag k="addr:postcode" v="78704"/></node><node id="-16" lat="30.228339" lon="-97.775236" changeset="false"><tag k="addr:street" v="West Ben White Boulevard"/><tag k="addr:housenumber" v="1000"/><tag k="addr:postcode" v="78704"/></node><node id="-17" lat="30.232986" lon="-97.770412" changeset="false"><tag k="addr:street" v="Marcae Court"/><tag k="addr:housenumber" v="3517"/><tag k="addr:postcode" v="78704"/></node><node id="-18" lat="30.232893" lon="-97.770482" changeset="false"><tag k="addr:street" v="Marcae Court"/><tag k="addr:housenumber" v="3521"/><tag k="addr:postcode" v="78704"/></node><node id="-19" lat="30.230485" lon="-97.771469" changeset="false"><tag k="addr:street" v="Birch Street"/><tag k="addr:housenumber" v="3709"/><tag k="addr:postcode" v="78704"/></node><node id="-20" lat="30.232109" lon="-97.772126" changeset="false"><tag k="addr:street" v="Garden Villa Lane"/><tag k="addr:housenumber" v="3613"/><tag k="addr:postcode" v="78704"/></node><node id="-21" lat="30.231033" lon="-97.771206" changeset="false"><tag k="addr:street" v="South Center Street"/><tag k="addr:housenumber" v="813"/><tag k="addr:postcode" v="78704"/></node><node id="-22" lat="30.228171" lon="-97.772691" changeset="false"><tag k="addr:street" v="West Ben White Boulevard"/><tag k="addr:housenumber" v="804"/><tag k="addr:postcode" v="78704"/></node><node id="-23" lat="30.228181" lon="-97.774561" changeset="false"><tag k="addr:street" v="West Ben White Boulevard"/><tag k="addr:housenumber" v="918"/><tag k="addr:postcode" v="78704"/></node><node id="-24" lat="30.227203" lon="-97.7698" changeset="false"><tag k="addr:street" v="West Ben White Boulevard"/><tag k="addr:housenumber" v="614"/><tag k="addr:postcode" v="78704"/></node><node id="-25" lat="30.233379" lon="-97.769173" changeset="false"><tag k="addr:street" v="Cardinal Lane"/><tag k="addr:housenumber" v="903"/><tag k="addr:postcode" v="78704"/></node><node id="-26" lat="30.229551" lon="-97.773854" changeset="false"><tag k="addr:street" v="Garden Villa Lane"/><tag k="addr:housenumber" v="3809"/><tag k="addr:postcode" v="78704"/></node><node id="-27" lat="30.230977" lon="-97.771556" changeset="false"><tag k="addr:street" v="Birch Street"/><tag k="addr:housenumber" v="3704"/><tag k="addr:postcode" v="78704"/></node><node id="-28" lat="30.230626" lon="-97.770722" changeset="false"><tag k="addr:street" v="South Center Street"/><tag k="addr:housenumber" v="805"/><tag k="addr:postcode" v="78704"/></node><node id="-29" lat="30.22968" lon="-97.773672" changeset="false"><tag k="addr:street" v="Garden Villa Lane"/><tag k="addr:housenumber" v="3801"/><tag k="addr:postcode" v="78704"/></node><node id="-30" lat="30.231675" lon="-97.771623" changeset="false"><tag k="addr:street" v="South Center Street"/><tag k="addr:housenumber" v="904"/><tag k="addr:postcode" v="78704"/></node><node id="-31" lat="30.233365" lon="-97.77046" changeset="false"><tag k="addr:street" v="Marcae Court"/><tag k="addr:housenumber" v="3501"/><tag k="addr:postcode" v="78704"/></node><node id="-32" lat="30.234353" lon="-97.770495" changeset="false"><tag k="addr:street" v="Cardinal Lane"/><tag k="addr:housenumber" v="924"/><tag k="addr:postcode" v="78704"/></node><node id="-33" lat="30.230669" lon="-97.771444" changeset="false"><tag k="addr:street" v="Birch Street"/><tag k="addr:housenumber" v="3707"/><tag k="addr:postcode" v="78704"/></node><node id="-34" lat="30.22922" lon="-97.768064" changeset="false"><tag k="addr:street" v="South 1st Street"/><tag k="addr:housenumber" v="3700"/><tag k="addr:postcode" v="78704"/></node><node id="-35" lat="30.228878" lon="-97.768405" changeset="false"><tag k="addr:street" v="South 1st Street"/><tag k="addr:housenumber" v="3706"/><tag k="addr:postcode" v="78704"/></node><node id="-36" lat="30.227874" lon="-97.771189" changeset="false"><tag k="addr:street" v="West Ben White Boulevard"/><tag k="addr:housenumber" v="702"/><tag k="addr:postcode" v="78704"/></node><node id="-37" lat="30.230529" lon="-97.769352" changeset="false"><tag k="addr:street" v="South Center Street"/><tag k="addr:housenumber" v="714"/><tag k="addr:postcode" v="78704"/></node><node id="-38" lat="30.233265" lon="-97.770181" changeset="false"><tag k="addr:street" v="Marcae Court"/><tag k="addr:housenumber" v="3505"/><tag k="addr:postcode" v="78704"/></node><node id="-39" lat="30.233077" lon="-97.770348" changeset="false"><tag k="addr:street" v="Marcae Court"/><tag k="addr:housenumber" v="3513"/><tag k="addr:postcode" v="78704"/></node><node id="-40" lat="30.2315" lon="-97.772873" changeset="false"><tag k="addr:street" v="Garden Villa Lane"/><tag k="addr:housenumber" v="3712"/><tag k="addr:postcode" v="78704"/></node><node id="-41" lat="30.23134" lon="-97.76949" changeset="false"><tag k="addr:street" v="South 2nd Street"/><tag k="addr:housenumber" v="3607"/><tag k="addr:postcode" v="78704"/></node><node id="-42" lat="30.22719" lon="-97.769771" changeset="false"><tag k="addr:street" v="West Ben White Boulevard"/><tag k="addr:housenumber" v="612"/><tag k="addr:postcode" v="78704"/></node><node id="-43" lat="30.230778" lon="-97.771066" changeset="false"><tag k="addr:street" v="South Center Street"/><tag k="addr:housenumber" v="811"/><tag k="addr:postcode" v="78704"/></node><node id="-44" lat="30.22897" lon="-97.768248" changeset="false"><tag k="addr:street" v="South 1st Street"/><tag k="addr:housenumber" v="3704"/><tag k="addr:postcode" v="78704"/></node><node id="-45" lat="30.229433" lon="-97.767821" changeset="false"><tag k="addr:street" v="South 1st Street"/><tag k="addr:housenumber" v="3700 1/2"/><tag k="addr:postcode" v="78704"/></node><node id="-46" lat="30.228187" lon="-97.773018" changeset="false"><tag k="addr:street" v="West Ben White Boulevard"/><tag k="addr:housenumber" v="824"/><tag k="addr:postcode" v="78704"/></node><node id="-47" lat="30.230804" lon="-97.770141" changeset="false"><tag k="addr:street" v="South 2nd Street"/><tag k="addr:housenumber" v="3618"/><tag k="addr:postcode" v="78704"/></node><node id="-48" lat="30.228409" lon="-97.772236" changeset="false"><tag k="addr:street" v="Banister Lane"/><tag k="addr:housenumber" v="800"/><tag k="addr:postcode" v="78704"/></node><node id="-49" lat="30.227993" lon="-97.771671" changeset="false"><tag k="addr:street" v="West Ben White Boulevard"/><tag k="addr:housenumber" v="732"/><tag k="addr:postcode" v="78704"/></node><node id="-50" lat="30.231259" lon="-97.769546" changeset="false"><tag k="addr:street" v="South 2nd Street"/><tag k="addr:housenumber" v="3609"/><tag k="addr:postcode" v="78704"/></node><node id="-51" lat="30.229188" lon="-97.773243" changeset="false"><tag k="addr:street" v="Banister Lane"/><tag k="addr:housenumber" v="904"/><tag k="addr:postcode" v="78704"/></node><node id="-52" lat="30.232705" lon="-97.76784" changeset="false"><tag k="addr:street" v="Cardinal Lane"/><tag k="addr:housenumber" v="707"/><tag k="addr:postcode" v="78704"/></node><node id="-53" lat="30.234892" lon="-97.770878" changeset="false"><tag k="addr:street" v="Cardinal Lane"/><tag k="addr:housenumber" v="1003"/><tag k="addr:postcode" v="78704"/></node><node id="-54" lat="30.2344" lon="-97.770639" changeset="false"><tag k="addr:street" v="Garden Villa Lane"/><tag k="addr:housenumber" v="3309"/><tag k="addr:postcode" v="78704"/></node><node id="-55" lat="30.230837" lon="-97.77019" changeset="false"><tag k="addr:street" v="South Center Street"/><tag k="addr:housenumber" v="800"/><tag k="addr:postcode" v="78704"/></node><node id="-56" lat="30.229837" lon="-97.77102" changeset="false"><tag k="addr:street" v="South 2nd Street"/><tag k="addr:housenumber" v="3710"/><tag k="addr:postcode" v="78704"/></node><node id="-57" lat="30.230062" lon="-97.77102" changeset="false"><tag k="addr:street" v="South 2nd Street"/><tag k="addr:housenumber" v="3708"/><tag k="addr:postcode" v="78704"/></node><node id="-58" lat="30.228451" lon="-97.771988" changeset="false"><tag k="addr:street" v="Banister Lane"/><tag k="addr:housenumber" v="830"/><tag k="addr:postcode" v="78704"/></node><node id="-59" lat="30.228417" lon="-97.771815" changeset="false"><tag k="addr:street" v="Banister Lane"/><tag k="addr:housenumber" v="806"/><tag k="addr:postcode" v="78704"/></node><node id="-60" lat="30.228799" lon="-97.77237" changeset="false"><tag k="addr:street" v="Banister Lane"/><tag k="addr:housenumber" v="856"/><tag k="addr:postcode" v="78704"/></node><node id="-61" lat="30.228673" lon="-97.771845" changeset="false"><tag k="addr:street" v="Banister Lane"/><tag k="addr:housenumber" v="820"/><tag k="addr:postcode" v="78704"/></node><node id="-62" lat="30.228866" lon="-97.772123" changeset="false"><tag k="addr:street" v="Banister Lane"/><tag k="addr:housenumber" v="848"/><tag k="addr:postcode" v="78704"/></node><node id="-63" lat="30.228718" lon="-97.772421" changeset="false"><tag k="addr:street" v="Banister Lane"/><tag k="addr:housenumber" v="860"/><tag k="addr:postcode" v="78704"/></node><node id="-64" lat="30.228494" lon="-97.771959" changeset="false"><tag k="addr:street" v="Banister Lane"/><tag k="addr:housenumber" v="828"/><tag k="addr:postcode" v="78704"/></node><node id="-65" lat="30.228578" lon="-97.771902" changeset="false"><tag k="addr:street" v="Banister Lane"/><tag k="addr:housenumber" v="824"/><tag k="addr:postcode" v="78704"/></node><node id="-66" lat="30.228627" lon="-97.771877" changeset="false"><tag k="addr:street" v="Banister Lane"/><tag k="addr:housenumber" v="822"/><tag k="addr:postcode" v="78704"/></node><node id="-67" lat="30.228831" lon="-97.772155" changeset="false"><tag k="addr:street" v="Banister Lane"/><tag k="addr:housenumber" v="846"/><tag k="addr:postcode" v="78704"/></node><node id="-68" lat="30.228725" lon="-97.77182" changeset="false"><tag k="addr:street" v="Banister Lane"/><tag k="addr:housenumber" v="818"/><tag k="addr:postcode" v="78704"/></node><node id="-69" lat="30.228455" lon="-97.771785" changeset="false"><tag k="addr:street" v="Banister Lane"/><tag k="addr:housenumber" v="808"/><tag k="addr:postcode" v="78704"/></node><node id="-70" lat="30.228501" lon="-97.77176" changeset="false"><tag k="addr:street" v="Banister Lane"/><tag k="addr:housenumber" v="810"/><tag k="addr:postcode" v="78704"/></node><node id="-71" lat="30.228603" lon="-97.772311" changeset="false"><tag k="addr:street" v="Banister Lane"/><tag k="addr:housenumber" v="836"/><tag k="addr:postcode" v="78704"/></node><node id="-72" lat="30.228848" lon="-97.772339" changeset="false"><tag k="addr:street" v="Banister Lane"/><tag k="addr:housenumber" v="854"/><tag k="addr:postcode" v="78704"/></node><node id="-73" lat="30.228897" lon="-97.772301" changeset="false"><tag k="addr:street" v="Banister Lane"/><tag k="addr:housenumber" v="852"/><tag k="addr:postcode" v="78704"/></node><node id="-74" lat="30.228547" lon="-97.771733" changeset="false"><tag k="addr:street" v="Banister Lane"/><tag k="addr:housenumber" v="812"/><tag k="addr:postcode" v="78704"/></node><node id="-75" lat="30.228645" lon="-97.77167" changeset="false"><tag k="addr:street" v="Banister Lane"/><tag k="addr:housenumber" v="816"/><tag k="addr:postcode" v="78704"/></node><node id="-76" lat="30.228599" lon="-97.771695" changeset="false"><tag k="addr:street" v="Banister Lane"/><tag k="addr:housenumber" v="814"/><tag k="addr:postcode" v="78704"/></node><node id="-77" lat="30.228405" lon="-97.77202" changeset="false"><tag k="addr:street" v="Banister Lane"/><tag k="addr:housenumber" v="832"/><tag k="addr:postcode" v="78704"/></node><node id="-78" lat="30.228684" lon="-97.772254" changeset="false"><tag k="addr:street" v="Banister Lane"/><tag k="addr:housenumber" v="840"/><tag k="addr:postcode" v="78704"/></node><node id="-79" lat="30.228376" lon="-97.771849" changeset="false"><tag k="addr:street" v="Banister Lane"/><tag k="addr:housenumber" v="804"/><tag k="addr:postcode" v="78704"/></node><node id="-80" lat="30.228538" lon="-97.771932" changeset="false"><tag k="addr:street" v="Banister Lane"/><tag k="addr:housenumber" v="826"/><tag k="addr:postcode" v="78704"/></node><node id="-81" lat="30.228328" lon="-97.771876" changeset="false"><tag k="addr:street" v="Banister Lane"/><tag k="addr:housenumber" v="802"/><tag k="addr:postcode" v="78704"/></node><node id="-82" lat="30.228669" lon="-97.772448" changeset="false"><tag k="addr:street" v="Banister Lane"/><tag k="addr:housenumber" v="862"/><tag k="addr:postcode" v="78704"/></node><node id="-83" lat="30.228635" lon="-97.772277" changeset="false"><tag k="addr:street" v="Banister Lane"/><tag k="addr:housenumber" v="838"/><tag k="addr:postcode" v="78704"/></node><node id="-84" lat="30.228562" lon="-97.772335" changeset="false"><tag k="addr:street" v="Banister Lane"/><tag k="addr:housenumber" v="834"/><tag k="addr:postcode" v="78704"/></node><node id="-85" lat="30.228946" lon="-97.772282" changeset="false"><tag k="addr:street" v="Banister Lane"/><tag k="addr:housenumber" v="850"/><tag k="addr:postcode" v="78704"/></node><node id="-86" lat="30.228774" lon="-97.7722" changeset="false"><tag k="addr:street" v="Banister Lane"/><tag k="addr:housenumber" v="844"/><tag k="addr:postcode" v="78704"/></node><node id="-87" lat="30.228623" lon="-97.772471" changeset="false"><tag k="addr:street" v="Banister Lane"/><tag k="addr:housenumber" v="864"/><tag k="addr:postcode" v="78704"/></node><node id="-88" lat="30.228418" lon="-97.772093" changeset="false"><tag k="addr:street" v="Banister Lane"/><tag k="addr:housenumber" v="906"/><tag k="addr:postcode" v="78704"/></node><node id="-89" lat="30.228759" lon="-97.772398" changeset="false"><tag k="addr:street" v="Banister Lane"/><tag k="addr:housenumber" v="858"/><tag k="addr:postcode" v="78704"/></node><node id="-90" lat="30.228728" lon="-97.772222" changeset="false"><tag k="addr:street" v="Banister Lane"/><tag k="addr:housenumber" v="842"/><tag k="addr:postcode" v="78704"/></node><node id="-91" lat="30.229585" lon="-97.773679" changeset="false"><tag k="addr:street" v="Garden Villa Lane"/><tag k="addr:housenumber" v="3817"/><tag k="addr:postcode" v="78704"/></node><node id="-92" lat="30.229603" lon="-97.773721" changeset="false"><tag k="addr:street" v="Garden Villa Lane"/><tag k="addr:housenumber" v="3805"/><tag k="addr:postcode" v="78704"/></node></osm>