<?xml version="1.0" encoding="UTF-8"?><osm version="0.6" generator="github.com/aaronlidman/osm-and-geojson"><node id="-1" lat="30.372731" lon="-97.401572" changeset="false"><tag k="addr:street" v="Imperial Eagle Lane"/><tag k="addr:housenumber" v="18736"/><tag k="coa:place_id" v="3134068"/></node><node id="-2" lat="30.410543" lon="-97.497273" changeset="false"><tag k="addr:street" v="New Sweden Church Road"/><tag k="addr:housenumber" v="12236"/><tag k="coa:place_id" v="1130439"/></node><node id="-3" lat="30.392309" lon="-97.43032" changeset="false"><tag k="addr:street" v="Wells Road,1100"/><tag k="addr:housenumber" v="15807"/><tag k="coa:place_id" v="1140262"/></node><node id="-4" lat="30.3599" lon="-97.473726" changeset="false"><tag k="addr:street" v="Abrahamson Court"/><tag k="addr:housenumber" v="13808"/><tag k="coa:place_id" v="3102896"/></node><node id="-5" lat="30.373903" lon="-97.400832" changeset="false"><tag k="addr:street" v="Spotted Eagle Lane"/><tag k="addr:housenumber" v="18737"/><tag k="coa:place_id" v="3134114"/></node><node id="-6" lat="30.373852" lon="-97.400754" changeset="false"><tag k="addr:street" v="Spotted Eagle Lane"/><tag k="addr:housenumber" v="18741"/><tag k="coa:place_id" v="3134115"/></node><node id="-7" lat="30.373822" lon="-97.400661" changeset="false"><tag k="addr:street" v="Spotted Eagle Lane"/><tag k="addr:housenumber" v="18745"/><tag k="coa:place_id" v="3134116"/></node><node id="-8" lat="30.37371" lon="-97.400408" changeset="false"><tag k="addr:street" v="Spotted Eagle Lane"/><tag k="addr:housenumber" v="18757"/><tag k="coa:place_id" v="3134119"/></node><node id="-9" lat="30.373352" lon="-97.401826" changeset="false"><tag k="addr:street" v="Golden Eagle Way"/><tag k="addr:housenumber" v="18713"/><tag k="coa:place_id" v="3134076"/></node><node id="-10" lat="30.381291" lon="-97.415325" changeset="false"><tag k="addr:street" v="Carlson Lane"/><tag k="addr:housenumber" v="17601"/><tag k="coa:place_id" v="1137989"/></node><node id="-11" lat="30.367262" lon="-97.400674" changeset="false"><tag k="addr:street" v="County Line Road,1100"/><tag k="addr:housenumber" v="14201"/><tag k="coa:place_id" v="1129868"/></node><node id="-12" lat="30.374972" lon="-97.401004" changeset="false"><tag k="addr:street" v="Martial Eagle Drive"/><tag k="addr:housenumber" v="14513"/><tag k="coa:place_id" v="3134140"/></node><node id="-13" lat="30.374378" lon="-97.399971" changeset="false"><tag k="addr:street" v="Gurney's Eagle Drive"/><tag k="addr:housenumber" v="14528"/><tag k="coa:place_id" v="3134153"/></node><node id="-14" lat="30.352759" lon="-97.433729" changeset="false"><tag k="addr:street" v="Highway 290"/><tag k="addr:housenumber" v="17612"/><tag k="coa:place_id" v="1127836"/></node><node id="-15" lat="30.399293" lon="-97.489179" changeset="false"><tag k="addr:street" v="Jacobson Road"/><tag k="addr:housenumber" v="12910"/><tag k="coa:place_id" v="1139110"/></node><node id="-16" lat="30.375877" lon="-97.438214" changeset="false"><tag k="addr:street" v="Farm-to-Market Road 1100"/><tag k="addr:housenumber" v="16601"/><tag k="coa:place_id" v="1128640"/></node><node id="-17" lat="30.369449" lon="-97.421111" changeset="false"><tag k="addr:street" v="Farm-to-Market Road 1100"/><tag k="addr:housenumber" v="17710"/><tag k="coa:place_id" v="1128804"/></node><node id="-18" lat="30.366988" lon="-97.425279" changeset="false"><tag k="addr:street" v="Klaus Lane"/><tag k="addr:housenumber" v="14115"/><tag k="coa:place_id" v="1128711"/></node><node id="-19" lat="30.369993" lon="-97.463415" changeset="false"><tag k="addr:street" v="Giese Lane"/><tag k="addr:housenumber" v="15407"/><tag k="coa:place_id" v="1128919"/></node><node id="-20" lat="30.384847" lon="-97.409168" changeset="false"><tag k="addr:street" v="Carlson Lane"/><tag k="addr:housenumber" v="17816"/><tag k="coa:place_id" v="1129746"/></node><node id="-21" lat="30.378319" lon="-97.43665" changeset="false"><tag k="addr:street" v="Farm-to-Market Road 1100"/><tag k="addr:housenumber" v="16712"/><tag k="coa:place_id" v="1128639"/></node><node id="-22" lat="30.388154" lon="-97.435143" changeset="false"><tag k="addr:street" v="Wells Road,1100"/><tag k="addr:housenumber" v="15501"/><tag k="coa:place_id" v="1140253"/></node><node id="-23" lat="30.406559" lon="-97.425064" changeset="false"><tag k="addr:street" v="Wells Road,1100"/><tag k="addr:housenumber" v="16606"/><tag k="coa:place_id" v="1129767"/></node><node id="-24" lat="30.361361" lon="-97.405708" changeset="false"><tag k="addr:street" v="Blanco Woods Boulevard"/><tag k="addr:housenumber" v="103"/><tag k="coa:place_id" v="3129341"/></node><node id="-25" lat="30.354764" lon="-97.411297" changeset="false"><tag k="addr:street" v="County Line Road,1100"/><tag k="addr:housenumber" v="13314"/><tag k="coa:place_id" v="1129866"/></node><node id="-26" lat="30.353953" lon="-97.424145" changeset="false"><tag k="addr:street" v="Klaus Lane"/><tag k="addr:housenumber" v="13315"/><tag k="coa:place_id" v="3038471"/></node><node id="-27" lat="30.374241" lon="-97.400041" changeset="false"><tag k="addr:street" v="Gurney's Eagle Drive"/><tag k="addr:housenumber" v="14524"/><tag k="coa:place_id" v="3134152"/></node><node id="-28" lat="30.374005" lon="-97.401083" changeset="false"><tag k="addr:street" v="Spotted Eagle Lane"/><tag k="addr:housenumber" v="18725"/><tag k="coa:place_id" v="3134107"/></node><node id="-29" lat="30.373661" lon="-97.401408" changeset="false"><tag k="addr:street" v="Golden Eagle Way"/><tag k="addr:housenumber" v="18720"/><tag k="coa:place_id" v="3134092"/></node><node id="-30" lat="30.37362" lon="-97.401327" changeset="false"><tag k="addr:street" v="Golden Eagle Way"/><tag k="addr:housenumber" v="18724"/><tag k="coa:place_id" v="3134093"/></node><node id="-31" lat="30.373557" lon="-97.401158" changeset="false"><tag k="addr:street" v="Golden Eagle Way"/><tag k="addr:housenumber" v="18732"/><tag k="coa:place_id" v="3134095"/></node><node id="-32" lat="30.373513" lon="-97.401074" changeset="false"><tag k="addr:street" v="Golden Eagle Way"/><tag k="addr:housenumber" v="18736"/><tag k="coa:place_id" v="3134096"/></node><node id="-33" lat="30.373354" lon="-97.400736" changeset="false"><tag k="addr:street" v="Golden Eagle Way"/><tag k="addr:housenumber" v="18752"/><tag k="coa:place_id" v="3134100"/></node><node id="-34" lat="30.373315" lon="-97.400655" changeset="false"><tag k="addr:street" v="Golden Eagle Way"/><tag k="addr:housenumber" v="18756"/><tag k="coa:place_id" v="3134101"/></node><node id="-35" lat="30.391046" lon="-97.471428" changeset="false"><tag k="addr:street" v="Manda Carlson Road,1100"/><tag k="addr:housenumber" v="14210"/><tag k="coa:place_id" v="1129978"/></node><node id="-36" lat="30.390845" lon="-97.415331" changeset="false"><tag k="addr:street" v="Harry Lind Road"/><tag k="addr:housenumber" v="15625"/><tag k="coa:place_id" v="3268220"/></node><node id="-37" lat="30.390307" lon="-97.410508" changeset="false"><tag k="addr:street" v="Carlson Road,1100"/><tag k="addr:housenumber" v="17701"/><tag k="coa:place_id" v="3275238"/></node><node id="-38" lat="30.389689" lon="-97.416766" changeset="false"><tag k="addr:street" v="Harry Lind Road"/><tag k="addr:housenumber" v="15600"/><tag k="coa:place_id" v="3268215"/></node><node id="-39" lat="30.392728" lon="-97.416245" changeset="false"><tag k="addr:street" v="Harry Lind Road"/><tag k="addr:housenumber" v="15630"/><tag k="coa:place_id" v="3268218"/></node><node id="-40" lat="30.447223" lon="-97.465926" changeset="false"><tag k="addr:street" v="Felder Lane"/><tag k="addr:housenumber" v="12500"/><tag k="coa:place_id" v="1136745"/></node><node id="-41" lat="30.373945" lon="-97.400258" changeset="false"><tag k="addr:street" v="Gurney's Eagle Drive"/><tag k="addr:housenumber" v="14516"/><tag k="coa:place_id" v="3363596"/></node><node id="-42" lat="30.359732" lon="-97.43127" changeset="false"><tag k="addr:street" v="Klaus Lane"/><tag k="addr:housenumber" v="13616"/><tag k="coa:place_id" v="3363458"/></node><node id="-43" lat="30.422323" lon="-97.475211" changeset="false"><tag k="addr:street" v="Sandeen Road"/><tag k="addr:housenumber" v="12947"/><tag k="coa:place_id" v="5057086"/></node><node id="-44" lat="30.440601" lon="-97.457459" changeset="false"><tag k="addr:street" v="Felder Lane"/><tag k="addr:housenumber" v="13200"/><tag k="coa:place_id" v="3353126"/></node><node id="-45" lat="30.399289" lon="-97.458873" changeset="false"><tag k="addr:street" v="Wells School Road"/><tag k="addr:housenumber" v="14600"/><tag k="coa:place_id" v="3359950"/></node><node id="-46" lat="30.413556" lon="-97.41068" changeset="false"><tag k="addr:street" v="Lund Carlson Road"/><tag k="addr:housenumber" v="16814"/><tag k="coa:place_id" v="1130031"/></node><node id="-47" lat="30.373275" lon="-97.400579" changeset="false"><tag k="addr:street" v="Golden Eagle Way"/><tag k="addr:housenumber" v="18760"/><tag k="coa:place_id" v="3363616"/></node><node id="-48" lat="30.372882" lon="-97.40082" changeset="false"><tag k="addr:street" v="Golden Eagle Way"/><tag k="addr:housenumber" v="18761"/><tag k="coa:place_id" v="3363618"/></node><node id="-49" lat="30.372369" lon="-97.400787" changeset="false"><tag k="addr:street" v="Imperial Eagle Lane"/><tag k="addr:housenumber" v="18800"/><tag k="coa:place_id" v="3363620"/></node><node id="-50" lat="30.399744" lon="-97.46195" changeset="false"><tag k="addr:street" v="Wells School Road"/><tag k="addr:housenumber" v="14404"/><tag k="coa:place_id" v="3359943"/></node><node id="-51" lat="30.399065" lon="-97.4604" changeset="false"><tag k="addr:street" v="Wells School Road"/><tag k="addr:housenumber" v="14508"/><tag k="coa:place_id" v="3359947"/></node><node id="-52" lat="30.432573" lon="-97.484496" changeset="false"><tag k="addr:street" v="Walton Hill Pass"/><tag k="addr:housenumber" v="11937"/><tag k="coa:place_id" v="3502081"/></node><node id="-53" lat="30.434394" lon="-97.448173" changeset="false"><tag k="addr:street" v="Manda Carlson Road"/><tag k="addr:housenumber" v="18401"/><tag k="coa:place_id" v="5121752"/></node><node id="-54" lat="30.355785" lon="-97.462893" changeset="false"><tag k="addr:street" v="Abrahamson Road"/><tag k="addr:housenumber" v="13423"/><tag k="coa:place_id" v="5101504"/></node><node id="-55" lat="30.4183" lon="-97.429554" changeset="false"><tag k="addr:street" v="Lund Carlson Road"/><tag k="addr:housenumber" v="15505"/><tag k="coa:place_id" v="1129984"/></node><node id="-56" lat="30.385295" lon="-97.457204" changeset="false"><tag k="addr:street" v="Wells Lane"/><tag k="addr:housenumber" v="15315"/><tag k="coa:place_id" v="1129775"/></node><node id="-57" lat="30.37343" lon="-97.400914" changeset="false"><tag k="addr:street" v="Golden Eagle Way"/><tag k="addr:housenumber" v="18744"/><tag k="coa:place_id" v="3134098"/></node><node id="-58" lat="30.373974" lon="-97.401004" changeset="false"><tag k="addr:street" v="Spotted Eagle Lane"/><tag k="addr:housenumber" v="18729"/><tag k="coa:place_id" v="3134108"/></node><node id="-59" lat="30.373786" lon="-97.400576" changeset="false"><tag k="addr:street" v="Spotted Eagle Lane"/><tag k="addr:housenumber" v="18749"/><tag k="coa:place_id" v="3134117"/></node><node id="-60" lat="30.373774" lon="-97.401662" changeset="false"><tag k="addr:street" v="Golden Eagle Way"/><tag k="addr:housenumber" v="18708"/><tag k="coa:place_id" v="3134089"/></node><node id="-61" lat="30.358596" lon="-97.405892" changeset="false"><tag k="addr:street" v="Bexar Forest Cove"/><tag k="addr:housenumber" v="115"/><tag k="coa:place_id" v="3129399"/></node><node id="-62" lat="30.453123" lon="-97.450693" changeset="false"><tag k="addr:street" v="Janak Road"/><tag k="addr:housenumber" v="19514"/><tag k="coa:place_id" v="1136353"/></node><node id="-63" lat="30.36064" lon="-97.404568" changeset="false"><tag k="addr:street" v="Blanco Woods Boulevard"/><tag k="addr:housenumber" v="200"/><tag k="coa:place_id" v="3129323"/></node><node id="-64" lat="30.434879" lon="-97.495148" changeset="false"><tag k="addr:street" v="Farm-to-Market Road 973"/><tag k="addr:housenumber" v="18334"/><tag k="coa:place_id" v="1130612"/></node><node id="-65" lat="30.427462" lon="-97.440258" changeset="false"><tag k="addr:street" v="Lund Carlson Road"/><tag k="addr:housenumber" v="14606"/><tag k="coa:place_id" v="1129990"/></node><node id="-66" lat="30.3844" lon="-97.397753" changeset="false"><tag k="addr:street" v="Carlson Road,1100"/><tag k="addr:housenumber" v="18501"/><tag k="coa:place_id" v="1129778"/></node><node id="-67" lat="30.353591" lon="-97.42416" changeset="false"><tag k="addr:street" v="Klaus Lane"/><tag k="addr:housenumber" v="13301"/><tag k="coa:place_id" v="1140244"/></node><node id="-68" lat="30.397381" lon="-97.383287" changeset="false"><tag k="addr:street" v="County Line Road,1100"/><tag k="addr:housenumber" v="16105"/><tag k="coa:place_id" v="1129851"/></node><node id="-69" lat="30.374831" lon="-97.401647" changeset="false"><tag k="addr:street" v="Martial Eagle Drive"/><tag k="addr:housenumber" v="14504"/><tag k="coa:place_id" v="3134134"/></node><node id="-70" lat="30.374809" lon="-97.4044" changeset="false"><tag k="addr:street" v="Carlson Lane"/><tag k="addr:housenumber" v="18501"/><tag k="coa:place_id" v="1129749"/></node><node id="-71" lat="30.374624" lon="-97.401228" changeset="false"><tag k="addr:street" v="Martial Eagle Drive"/><tag k="addr:housenumber" v="14505"/><tag k="coa:place_id" v="3134138"/></node><node id="-72" lat="30.443126" lon="-97.463611" changeset="false"><tag k="addr:street" v="Felder Lane"/><tag k="addr:housenumber" v="12801"/><tag k="coa:place_id" v="1136751"/></node><node id="-73" lat="30.37342" lon="-97.401995" changeset="false"><tag k="addr:street" v="Golden Eagle Way"/><tag k="addr:housenumber" v="18705"/><tag k="coa:place_id" v="3134074"/></node><node id="-74" lat="30.373032" lon="-97.471143" changeset="false"><tag k="addr:street" v="Farm-to-Market Road 1100"/><tag k="addr:housenumber" v="14315"/><tag k="coa:place_id" v="1130678"/></node><node id="-75" lat="30.37381" lon="-97.401743" changeset="false"><tag k="addr:street" v="Golden Eagle Way"/><tag k="addr:housenumber" v="18704"/><tag k="coa:place_id" v="3134088"/></node><node id="-76" lat="30.372575" lon="-97.40124" changeset="false"><tag k="addr:street" v="Imperial Eagle Lane"/><tag k="addr:housenumber" v="18752"/><tag k="coa:place_id" v="3134072"/></node><node id="-77" lat="30.435695" lon="-97.48051" changeset="false"><tag k="addr:street" v="Walton Hill Pass"/><tag k="addr:housenumber" v="12217"/><tag k="coa:place_id" v="3194936"/></node><node id="-78" lat="30.389024" lon="-97.431468" changeset="false"><tag k="addr:street" v="Carlson Lane"/><tag k="addr:housenumber" v="16421"/><tag k="coa:place_id" v="3360367"/></node><node id="-79" lat="30.380776" lon="-97.413444" changeset="false"><tag k="addr:street" v="Carlson Lane"/><tag k="addr:housenumber" v="17715"/><tag k="coa:place_id" v="3360445"/></node><node id="-80" lat="30.406017" lon="-97.465597" changeset="false"><tag k="addr:street" v="Manda Carlson Road"/><tag k="addr:housenumber" v="16607"/><tag k="coa:place_id" v="3359895"/></node><node id="-81" lat="30.374236" lon="-97.401596" changeset="false"><tag k="addr:street" v="Spotted Eagle Lane"/><tag k="addr:housenumber" v="18701"/><tag k="coa:place_id" v="3363606"/></node><node id="-82" lat="30.372686" lon="-97.400592" changeset="false"><tag k="addr:street" v="Golden Eagle Way"/><tag k="addr:housenumber" v="18801"/><tag k="coa:place_id" v="3363619"/></node><node id="-83" lat="30.399939" lon="-97.462308" changeset="false"><tag k="addr:street" v="Wells School Road"/><tag k="addr:housenumber" v="14400"/><tag k="coa:place_id" v="3359942"/></node><node id="-84" lat="30.399278" lon="-97.460939" changeset="false"><tag k="addr:street" v="Wells School Road"/><tag k="addr:housenumber" v="14500"/><tag k="coa:place_id" v="3359946"/></node><node id="-85" lat="30.412684" lon="-97.392209" changeset="false"><tag k="addr:street" v="North Lund Road"/><tag k="addr:housenumber" v="17001"/><tag k="coa:place_id" v="3319358"/></node><node id="-86" lat="30.406092" lon="-97.42447" changeset="false"><tag k="addr:street" v="Wells Road,1100"/><tag k="addr:housenumber" v="16603"/><tag k="coa:place_id" v="5066139"/></node><node id="-87" lat="30.420108" lon="-97.390562" changeset="false"><tag k="addr:street" v="Skog Road"/><tag k="addr:housenumber" v="18239"/><tag k="coa:place_id" v="3300293"/></node><node id="-88" lat="30.389612" lon="-97.432694" changeset="false"><tag k="addr:street" v="Carlson Lane"/><tag k="addr:housenumber" v="16337"/><tag k="coa:place_id" v="3335369"/></node><node id="-89" lat="30.441116" lon="-97.461074" changeset="false"><tag k="addr:street" v="Felder Lane"/><tag k="addr:housenumber" v="13010"/><tag k="coa:place_id" v="5280284"/></node><node id="-90" lat="30.362137" lon="-97.42865" changeset="false"><tag k="addr:street" v="Klaus Lane"/><tag k="addr:housenumber" v="13817"/><tag k="coa:place_id" v="3348641"/></node><node id="-91" lat="30.436267" lon="-97.453016" changeset="false"><tag k="addr:street" v="Felder Lane"/><tag k="addr:housenumber" v="13601"/><tag k="coa:place_id" v="3321933"/></node><node id="-92" lat="30.352858" lon="-97.421068" changeset="false"><tag k="addr:street" v="Highway 290"/><tag k="addr:housenumber" v="18400"/><tag k="coa:place_id" v="1127912"/></node><node id="-93" lat="30.422448" lon="-97.394383" changeset="false"><tag k="addr:street" v="Skog Road"/><tag k="addr:housenumber" v="18165"/><tag k="coa:place_id" v="1138010"/></node><node id="-94" lat="30.38124" lon="-97.413216" changeset="false"><tag k="addr:street" v="Carlson Lane"/><tag k="addr:housenumber" v="17714"/><tag k="coa:place_id" v="1129744"/></node><node id="-95" lat="30.412393" lon="-97.454738" changeset="false"><tag k="addr:street" v="Manda Carlson Road"/><tag k="addr:housenumber" v="17119"/><tag k="coa:place_id" v="1129986"/></node><node id="-96" lat="30.438374" lon="-97.477009" changeset="false"><tag k="addr:street" v="Farm-to-Market Road 973"/><tag k="addr:housenumber" v="18701"/><tag k="coa:place_id" v="1130605"/></node><node id="-97" lat="30.405678" lon="-97.444878" changeset="false"><tag k="addr:street" v="Wells Lane"/><tag k="addr:housenumber" v="16521"/><tag k="coa:place_id" v="1129809"/></node><node id="-98" lat="30.407083" lon="-97.379627" changeset="false"><tag k="addr:street" v="County Line Road,1100"/><tag k="addr:housenumber" v="16606"/><tag k="coa:place_id" v="1129854"/></node><node id="-99" lat="30.367433" lon="-97.456558" changeset="false"><tag k="addr:street" v="Giese Lane"/><tag k="addr:housenumber" v="15902"/><tag k="coa:place_id" v="1128903"/></node><node id="-100" lat="30.424136" lon="-97.445263" changeset="false"><tag k="addr:street" v="Lund Carlson Road"/><tag k="addr:housenumber" v="14329"/><tag k="coa:place_id" v="1129977"/></node><node id="-101" lat="30.425463" lon="-97.47588" changeset="false"><tag k="addr:street" v="Sandeen Road"/><tag k="addr:housenumber" v="12709"/><tag k="coa:place_id" v="1128884"/></node><node id="-102" lat="30.352972" lon="-97.414232" changeset="false"><tag k="addr:street" v="Highway 290"/><tag k="addr:housenumber" v="18712"/><tag k="coa:place_id" v="3160282"/></node><node id="-103" lat="30.374132" lon="-97.401324" changeset="false"><tag k="addr:street" v="Spotted Eagle Lane"/><tag k="addr:housenumber" v="18713"/><tag k="coa:place_id" v="3134104"/></node><node id="-104" lat="30.373121" lon="-97.401331" changeset="false"><tag k="addr:street" v="Golden Eagle Way"/><tag k="addr:housenumber" v="18737"/><tag k="coa:place_id" v="3134082"/></node><node id="-105" lat="30.403271" lon="-97.391624" changeset="false"><tag k="addr:street" v="Lund Carlson Road"/><tag k="addr:housenumber" v="18111"/><tag k="coa:place_id" v="1130018"/></node><node id="-106" lat="30.365952" lon="-97.425804" changeset="false"><tag k="addr:street" v="Klaus Lane"/><tag k="addr:housenumber" v="14021"/><tag k="coa:place_id" v="1128709"/></node><node id="-107" lat="30.364756" lon="-97.426401" changeset="false"><tag k="addr:street" v="Klaus Lane"/><tag k="addr:housenumber" v="14001"/><tag k="coa:place_id" v="1128705"/></node><node id="-108" lat="30.375101" lon="-97.401208" changeset="false"><tag k="addr:street" v="Martial Eagle Drive"/><tag k="addr:housenumber" v="14516"/><tag k="coa:place_id" v="3134137"/></node><node id="-109" lat="30.374107" lon="-97.400133" changeset="false"><tag k="addr:street" v="Gurney's Eagle Drive"/><tag k="addr:housenumber" v="14520"/><tag k="coa:place_id" v="3134151"/></node><node id="-110" lat="30.418291" lon="-97.465847" changeset="false"><tag k="addr:street" v="Sandeen Road"/><tag k="addr:housenumber" v="13412"/><tag k="coa:place_id" v="1129208"/></node><node id="-111" lat="30.372689" lon="-97.401485" changeset="false"><tag k="addr:street" v="Imperial Eagle Lane"/><tag k="addr:housenumber" v="18740"/><tag k="coa:place_id" v="3134069"/></node><node id="-112" lat="30.405339" lon="-97.425994" changeset="false"><tag k="addr:street" v="Wells Road,1100"/><tag k="addr:housenumber" v="16500"/><tag k="coa:place_id" v="1129766"/></node><node id="-113" lat="30.363904" lon="-97.430339" changeset="false"><tag k="addr:street" v="Klaus Lane"/><tag k="addr:housenumber" v="13902"/><tag k="coa:place_id" v="1140245"/></node><node id="-114" lat="30.459087" lon="-97.437278" changeset="false"><tag k="addr:street" v="Manda Carlson Road"/><tag k="addr:housenumber" v="19919"/><tag k="coa:place_id" v="1129998"/></node><node id="-115" lat="30.374047" lon="-97.40117" changeset="false"><tag k="addr:street" v="Spotted Eagle Lane"/><tag k="addr:housenumber" v="18721"/><tag k="coa:place_id" v="3134106"/></node><node id="-116" lat="30.373033" lon="-97.402245" changeset="false"><tag k="addr:street" v="Imperial Eagle Lane"/><tag k="addr:housenumber" v="18704"/><tag k="coa:place_id" v="3134059"/></node><node id="-117" lat="30.372962" lon="-97.400993" changeset="false"><tag k="addr:street" v="Golden Eagle Way"/><tag k="addr:housenumber" v="18753"/><tag k="coa:place_id" v="3134086"/></node><node id="-118" lat="30.424345" lon="-97.398906" changeset="false"><tag k="addr:street" v="Skog Road"/><tag k="addr:housenumber" v="18101"/><tag k="coa:place_id" v="1137996"/></node><node id="-119" lat="30.387177" lon="-97.436065" changeset="false"><tag k="addr:street" v="Wells Road,1100"/><tag k="addr:housenumber" v="15405"/><tag k="coa:place_id" v="1140256"/></node><node id="-120" lat="30.40687" lon="-97.398772" changeset="false"><tag k="addr:street" v="Lund Carlson Road"/><tag k="addr:housenumber" v="17605"/><tag k="coa:place_id" v="1129982"/></node><node id="-121" lat="30.352366" lon="-97.439132" changeset="false"><tag k="addr:street" v="Highway 290"/><tag k="addr:housenumber" v="17408"/><tag k="coa:place_id" v="1127835"/></node><node id="-122" lat="30.352968" lon="-97.413486" changeset="false"><tag k="addr:street" v="Highway 290"/><tag k="addr:housenumber" v="18720"/><tag k="coa:place_id" v="3160283"/></node><node id="-123" lat="30.394129" lon="-97.419526" changeset="false"><tag k="addr:street" v="Harry Lind Road"/><tag k="addr:housenumber" v="15638"/><tag k="coa:place_id" v="3268219"/></node><node id="-124" lat="30.400546" lon="-97.409232" changeset="false"><tag k="addr:street" v="Harry Lind Road"/><tag k="addr:housenumber" v="16215"/><tag k="coa:place_id" v="1137990"/></node><node id="-125" lat="30.36147" lon="-97.430491" changeset="false"><tag k="addr:street" v="Klaus Lane"/><tag k="addr:housenumber" v="13720"/><tag k="coa:place_id" v="3363459"/></node><node id="-126" lat="30.3723" lon="-97.402734" changeset="false"><tag k="addr:street" v="Martial Eagle Drive"/><tag k="addr:housenumber" v="14401"/><tag k="coa:place_id" v="3134056"/></node><node id="-127" lat="30.361345" lon="-97.406509" changeset="false"><tag k="addr:street" v="County Line Road,1100"/><tag k="addr:housenumber" v="13704"/><tag k="coa:place_id" v="3426274"/></node><node id="-128" lat="30.416317" lon="-97.391322" changeset="false"><tag k="addr:street" v="North Lund Road"/><tag k="addr:housenumber" v="17200"/><tag k="coa:place_id" v="3305550"/></node><node id="-129" lat="30.406484" lon="-97.461716" changeset="false"><tag k="addr:street" v="Manda Carlson Road"/><tag k="addr:housenumber" v="16629"/><tag k="coa:place_id" v="3359898"/></node><node id="-130" lat="30.398523" lon="-97.459227" changeset="false"><tag k="addr:street" v="Wells School Road"/><tag k="addr:housenumber" v="14604"/><tag k="coa:place_id" v="3359951"/></node><node id="-131" lat="30.373016" lon="-97.400295" changeset="false"><tag k="addr:street" v="Gurney's Eagle Drive"/><tag k="addr:housenumber" v="14501"/><tag k="coa:place_id" v="3363605"/></node><node id="-132" lat="30.401673" lon="-97.465858" changeset="false"><tag k="addr:street" v="Wells School Road"/><tag k="addr:housenumber" v="14112"/><tag k="coa:place_id" v="3359846"/></node><node id="-133" lat="30.401855" lon="-97.465027" changeset="false"><tag k="addr:street" v="Wells School Road"/><tag k="addr:housenumber" v="14208"/><tag k="coa:place_id" v="3359848"/></node><node id="-134" lat="30.402972" lon="-97.463737" changeset="false"><tag k="addr:street" v="Manda Carlson Road"/><tag k="addr:housenumber" v="16515"/><tag k="coa:place_id" v="3359864"/></node><node id="-135" lat="30.411967" lon="-97.406762" changeset="false"><tag k="addr:street" v="Lund Carlson Road"/><tag k="addr:housenumber" v="17012"/><tag k="coa:place_id" v="5096315"/></node><node id="-136" lat="30.413438" lon="-97.468407" changeset="false"><tag k="addr:street" v="Manda Carlson Road"/><tag k="addr:housenumber" v="16912"/><tag k="coa:place_id" v="5086012"/></node><node id="-137" lat="30.360575" lon="-97.46846" changeset="false"><tag k="addr:street" v="Abrahamson Road"/><tag k="addr:housenumber" v="13713"/><tag k="coa:place_id" v="5088471"/></node><node id="-138" lat="30.372557" lon="-97.40026" changeset="false"><tag k="addr:street" v="Golden Eagle Way"/><tag k="addr:housenumber" v="18809"/><tag k="coa:place_id" v="3134165"/></node><node id="-139" lat="30.368617" lon="-97.401118" changeset="false"><tag k="addr:street" v="County Line Road,1100"/><tag k="addr:housenumber" v="14219"/><tag k="coa:place_id" v="1129787"/></node><node id="-140" lat="30.373045" lon="-97.401162" changeset="false"><tag k="addr:street" v="Golden Eagle Way"/><tag k="addr:housenumber" v="18745"/><tag k="coa:place_id" v="3134084"/></node><node id="-141" lat="30.372652" lon="-97.401398" changeset="false"><tag k="addr:street" v="Imperial Eagle Lane"/><tag k="addr:housenumber" v="18744"/><tag k="coa:place_id" v="3134070"/></node><node id="-142" lat="30.397032" lon="-97.411105" changeset="false"><tag k="addr:street" v="Harry Lind Road"/><tag k="addr:housenumber" v="16011"/><tag k="coa:place_id" v="1137991"/></node><node id="-143" lat="30.357153" lon="-97.408379" changeset="false"><tag k="addr:street" v="County Line Road,1100"/><tag k="addr:housenumber" v="13501"/><tag k="coa:place_id" v="1129867"/></node><node id="-144" lat="30.356285" lon="-97.484811" changeset="false"><tag k="addr:street" v="Old Kimbro Road"/><tag k="addr:housenumber" v="13505"/><tag k="coa:place_id" v="1129519"/></node><node id="-145" lat="30.443566" lon="-97.476076" changeset="false"><tag k="addr:street" v="Farm-to-Market Road 973"/><tag k="addr:housenumber" v="18919"/><tag k="coa:place_id" v="1130635"/></node><node id="-146" lat="30.351988" lon="-97.465489" changeset="false"><tag k="addr:street" v="Highway 290"/><tag k="addr:housenumber" v="16000"/><tag k="coa:place_id" v="1127907"/></node><node id="-147" lat="30.442157" lon="-97.462867" changeset="false"><tag k="addr:street" v="Felder Lane"/><tag k="addr:housenumber" v="12823"/><tag k="coa:place_id" v="1136753"/></node><node id="-148" lat="30.426401" lon="-97.422058" changeset="false"><tag k="addr:street" v="Werchan Lane"/><tag k="addr:housenumber" v="17831"/><tag k="coa:place_id" v="3047049"/></node><node id="-149" lat="30.351806" lon="-97.478426" changeset="false"><tag k="addr:street" v="Voelker Lane"/><tag k="addr:housenumber" v="15301"/><tag k="coa:place_id" v="1140047"/></node><node id="-150" lat="30.35555" lon="-97.483246" changeset="false"><tag k="addr:street" v="Farm-to-Market Road 1100"/><tag k="addr:housenumber" v="13226"/><tag k="coa:place_id" v="1130668"/></node><node id="-151" lat="30.395956" lon="-97.478373" changeset="false"><tag k="addr:street" v="Manda Carlson Road"/><tag k="addr:housenumber" v="15712"/><tag k="coa:place_id" v="1130161"/></node><node id="-152" lat="30.444782" lon="-97.475" changeset="false"><tag k="addr:street" v="Farm-to-Market Road 973"/><tag k="addr:housenumber" v="19115"/><tag k="coa:place_id" v="1130634"/></node><node id="-153" lat="30.362277" lon="-97.448327" changeset="false"><tag k="addr:street" v="Giese Lane"/><tag k="addr:housenumber" v="16301"/><tag k="coa:place_id" v="1128920"/></node><node id="-154" lat="30.375143" lon="-97.401429" changeset="false"><tag k="addr:street" v="Martial Eagle Drive"/><tag k="addr:housenumber" v="14512"/><tag k="coa:place_id" v="3134136"/></node><node id="-155" lat="30.372848" lon="-97.401825" changeset="false"><tag k="addr:street" v="Imperial Eagle Lane"/><tag k="addr:housenumber" v="18724"/><tag k="coa:place_id" v="3134064"/></node><node id="-156" lat="30.431508" lon="-97.418136" changeset="false"><tag k="addr:street" v="Werchan Lane"/><tag k="addr:housenumber" v="18227"/><tag k="coa:place_id" v="3213102"/></node><node id="-157" lat="30.373939" lon="-97.400914" changeset="false"><tag k="addr:street" v="Spotted Eagle Lane"/><tag k="addr:housenumber" v="18733"/><tag k="coa:place_id" v="3134113"/></node><node id="-158" lat="30.388961" lon="-97.431126" changeset="false"><tag k="addr:street" v="Carlson Lane"/><tag k="addr:housenumber" v="16501"/><tag k="coa:place_id" v="3214320"/></node><node id="-159" lat="30.389138" lon="-97.431719" changeset="false"><tag k="addr:street" v="Carlson Lane"/><tag k="addr:housenumber" v="16419"/><tag k="coa:place_id" v="3224097"/></node><node id="-160" lat="30.403633" lon="-97.465073" changeset="false"><tag k="addr:street" v="Manda Carlson Road"/><tag k="addr:housenumber" v="16513"/><tag k="coa:place_id" v="3359862"/></node><node id="-161" lat="30.36257" lon="-97.428446" changeset="false"><tag k="addr:street" v="Klaus Lane"/><tag k="addr:housenumber" v="13821"/><tag k="coa:place_id" v="3219292"/></node><node id="-162" lat="30.433322" lon="-97.472979" changeset="false"><tag k="addr:street" v="Walton Hill Pass"/><tag k="addr:housenumber" v="12225"/><tag k="coa:place_id" v="3194937"/></node><node id="-163" lat="30.356646" lon="-97.431879" changeset="false"><tag k="addr:street" v="Klaus Lane"/><tag k="addr:housenumber" v="13460"/><tag k="coa:place_id" v="3363460"/></node><node id="-164" lat="30.436377" lon="-97.416914" changeset="false"><tag k="addr:street" v="Werchan Lane"/><tag k="addr:housenumber" v="18320"/><tag k="coa:place_id" v="3379568"/></node><node id="-165" lat="30.398678" lon="-97.459734" changeset="false"><tag k="addr:street" v="Wells School Road"/><tag k="addr:housenumber" v="14516"/><tag k="coa:place_id" v="3359949"/></node><node id="-166" lat="30.412402" lon="-97.407789" changeset="false"><tag k="addr:street" v="Lund Carlson Road"/><tag k="addr:housenumber" v="16924"/><tag k="coa:place_id" v="5099628"/></node><node id="-167" lat="30.410083" lon="-97.46286" changeset="false"><tag k="addr:street" v="Manda Carlson Road"/><tag k="addr:housenumber" v="16823"/><tag k="coa:place_id" v="3359908"/></node><node id="-168" lat="30.400315" lon="-97.463106" changeset="false"><tag k="addr:street" v="Wells School Road"/><tag k="addr:housenumber" v="14308"/><tag k="coa:place_id" v="3359940"/></node><node id="-169" lat="30.363481" lon="-97.452161" changeset="false"><tag k="addr:street" v="Giese Lane"/><tag k="addr:housenumber" v="16201"/><tag k="coa:place_id" v="3388298"/></node><node id="-170" lat="30.412211" lon="-97.37502" changeset="false"><tag k="addr:street" v="County Line Road,1100"/><tag k="addr:housenumber" v="16900"/><tag k="coa:place_id" v="5068474"/></node><node id="-171" lat="30.409359" lon="-97.470946" changeset="false"><tag k="addr:street" v="Manda Carlson Road"/><tag k="addr:housenumber" v="16608"/><tag k="coa:place_id" v="5085981"/></node><node id="-172" lat="30.410068" lon="-97.470528" changeset="false"><tag k="addr:street" v="Manda Carlson Road"/><tag k="addr:housenumber" v="16620"/><tag k="coa:place_id" v="5085990"/></node><node id="-173" lat="30.410991" lon="-97.463547" changeset="false"><tag k="addr:street" v="Manda Carlson Road"/><tag k="addr:housenumber" v="16902"/><tag k="coa:place_id" v="5086007"/></node><node id="-174" lat="30.400466" lon="-97.463465" changeset="false"><tag k="addr:street" v="Wells School Road"/><tag k="addr:housenumber" v="14304"/><tag k="coa:place_id" v="3359939"/></node><node id="-175" lat="30.365651" lon="-97.475051" changeset="false"><tag k="addr:street" v="Farm-to-Market Road 1100"/><tag k="addr:housenumber" v="13923"/><tag k="coa:place_id" v="3256760"/></node><node id="-176" lat="30.405101" lon="-97.379083" changeset="false"><tag k="addr:street" v="County Line Road,1100"/><tag k="addr:housenumber" v="16500"/><tag k="coa:place_id" v="1129858"/></node><node id="-177" lat="30.416583" lon="-97.507241" changeset="false"><tag k="addr:street" v="Farm-to-Market Road 973"/><tag k="addr:housenumber" v="17223"/><tag k="coa:place_id" v="1130246"/></node><node id="-178" lat="30.372249" lon="-97.399668" changeset="false"><tag k="addr:street" v="Golden Eagle Way"/><tag k="addr:housenumber" v="18825"/><tag k="coa:place_id" v="3134169"/></node><node id="-179" lat="30.374527" lon="-97.399887" changeset="false"><tag k="addr:street" v="Gurney's Eagle Drive"/><tag k="addr:housenumber" v="14532"/><tag k="coa:place_id" v="3134154"/></node><node id="-180" lat="30.411746" lon="-97.41236" changeset="false"><tag k="addr:street" v="Lund Carlson Road"/><tag k="addr:housenumber" v="16705"/><tag k="coa:place_id" v="1130005"/></node><node id="-181" lat="30.391596" lon="-97.38647" changeset="false"><tag k="addr:street" v="County Line Road,1100"/><tag k="addr:housenumber" v="15707"/><tag k="coa:place_id" v="1138008"/></node><node id="-182" lat="30.4023" lon="-97.468796" changeset="false"><tag k="addr:street" v="Manda Carlson Road"/><tag k="addr:housenumber" v="16318"/><tag k="coa:place_id" v="1129938"/></node><node id="-183" lat="30.37018" lon="-97.400184" changeset="false"><tag k="addr:street" v="County Line Road,1100"/><tag k="addr:housenumber" v="14313"/><tag k="coa:place_id" v="1129795"/></node><node id="-184" lat="30.351529" lon="-97.48901" changeset="false"><tag k="addr:street" v="Highway 290"/><tag k="addr:housenumber" v="14704"/><tag k="coa:place_id" v="1127924"/></node><node id="-185" lat="30.416923" lon="-97.454858" changeset="false"><tag k="addr:street" v="Manda Carlson Road"/><tag k="addr:housenumber" v="17323"/><tag k="coa:place_id" v="1129967"/></node><node id="-186" lat="30.373344" lon="-97.400069" changeset="false"><tag k="addr:street" v="Gurney's Eagle Drive"/><tag k="addr:housenumber" v="14509"/><tag k="coa:place_id" v="3134162"/></node><node id="-187" lat="30.371998" lon="-97.402189" changeset="false"><tag k="addr:street" v="Little Eagle Court"/><tag k="addr:housenumber" v="14400"/><tag k="coa:place_id" v="3134045"/></node><node id="-188" lat="30.373732" lon="-97.399831" changeset="false"><tag k="addr:street" v="Gurney's Eagle Drive"/><tag k="addr:housenumber" v="14517"/><tag k="coa:place_id" v="3134155"/></node><node id="-189" lat="30.404409" lon="-97.39085" changeset="false"><tag k="addr:street" v="Lund Carlson Road"/><tag k="addr:housenumber" v="18110"/><tag k="coa:place_id" v="1130025"/></node><node id="-190" lat="30.40509" lon="-97.459003" changeset="false"><tag k="addr:street" v="Wells School Road"/><tag k="addr:housenumber" v="14216"/><tag k="coa:place_id" v="1129751"/></node><node id="-191" lat="30.390069" lon="-97.415808" changeset="false"><tag k="addr:street" v="Harry Lind Road"/><tag k="addr:housenumber" v="15605"/><tag k="coa:place_id" v="3200210"/></node><node id="-192" lat="30.391298" lon="-97.412943" changeset="false"><tag k="addr:street" v="Carlson Road,1100"/><tag k="addr:housenumber" v="17401"/><tag k="coa:place_id" v="3275113"/></node><node id="-193" lat="30.389022" lon="-97.416295" changeset="false"><tag k="addr:street" v="Harry Lind Road"/><tag k="addr:housenumber" v="15515"/><tag k="coa:place_id" v="3256908"/></node><node id="-194" lat="30.373847" lon="-97.401854" changeset="false"><tag k="addr:street" v="Golden Eagle Way"/><tag k="addr:housenumber" v="18700"/><tag k="coa:place_id" v="3363615"/></node><node id="-195" lat="30.399551" lon="-97.461642" changeset="false"><tag k="addr:street" v="Wells School Road"/><tag k="addr:housenumber" v="14408"/><tag k="coa:place_id" v="3359944"/></node><node id="-196" lat="30.413242" lon="-97.409791" changeset="false"><tag k="addr:street" v="Lund Carlson Road"/><tag k="addr:housenumber" v="16900"/><tag k="coa:place_id" v="5099635"/></node><node id="-197" lat="30.439654" lon="-97.455679" changeset="false"><tag k="addr:street" v="Felder Lane"/><tag k="addr:housenumber" v="13310"/><tag k="coa:place_id" v="3353127"/></node><node id="-198" lat="30.398343" lon="-97.458852" changeset="false"><tag k="addr:street" v="Wells School Road"/><tag k="addr:housenumber" v="14608"/><tag k="coa:place_id" v="3359952"/></node><node id="-199" lat="30.399018" lon="-97.458286" changeset="false"><tag k="addr:street" v="Wells School Road"/><tag k="addr:housenumber" v="14612"/><tag k="coa:place_id" v="3359953"/></node><node id="-200" lat="30.403242" lon="-97.466836" changeset="false"><tag k="addr:street" v="Manda Carlson Road"/><tag k="addr:housenumber" v="16419"/><tag k="coa:place_id" v="3359855"/></node><node id="-201" lat="30.377756" lon="-97.442835" changeset="false"><tag k="addr:street" v="Wells Road,1100"/><tag k="addr:housenumber" v="14808"/><tag k="coa:place_id" v="3360331"/></node><node id="-202" lat="30.378769" lon="-97.40325" changeset="false"><tag k="addr:street" v="Carlson Lane"/><tag k="addr:housenumber" v="18404"/><tag k="coa:place_id" v="3283367"/></node><node id="-203" lat="30.393807" lon="-97.484775" changeset="false"><tag k="addr:street" v="Jacobson Road"/><tag k="addr:housenumber" v="13408"/><tag k="coa:place_id" v="5071287"/></node><node id="-204" lat="30.406985" lon="-97.377872" changeset="false"><tag k="addr:street" v="County Line Road,1100"/><tag k="addr:housenumber" v="16614"/><tag k="coa:place_id" v="5110028"/></node><node id="-205" lat="30.385081" lon="-97.438647" changeset="false"><tag k="addr:street" v="Wells Road,1100"/><tag k="addr:housenumber" v="15216"/><tag k="coa:place_id" v="1140227"/></node><node id="-206" lat="30.407042" lon="-97.46606" changeset="false"><tag k="addr:street" v="Manda Carlson Road"/><tag k="addr:housenumber" v="16614"/><tag k="coa:place_id" v="5085987"/></node><node id="-207" lat="30.412958" lon="-97.468725" changeset="false"><tag k="addr:street" v="Manda Carlson Road"/><tag k="addr:housenumber" v="16824"/><tag k="coa:place_id" v="5086004"/></node><node id="-208" lat="30.352661" lon="-97.48073" changeset="false"><tag k="addr:street" v="Voelker Lane"/><tag k="addr:housenumber" v="15113"/><tag k="coa:place_id" v="3431193"/></node><node id="-209" lat="30.429045" lon="-97.42064" changeset="false"><tag k="addr:street" v="Werchan Lane"/><tag k="addr:housenumber" v="18021"/><tag k="coa:place_id" v="5064378"/></node><node id="-210" lat="30.383759" lon="-97.4179" changeset="false"><tag k="addr:street" v="Carlson Lane"/><tag k="addr:housenumber" v="17400"/><tag k="coa:place_id" v="1129769"/></node><node id="-211" lat="30.372613" lon="-97.401313" changeset="false"><tag k="addr:street" v="Imperial Eagle Lane"/><tag k="addr:housenumber" v="18748"/><tag k="coa:place_id" v="3134071"/></node><node id="-212" lat="30.373584" lon="-97.401245" changeset="false"><tag k="addr:street" v="Golden Eagle Way"/><tag k="addr:housenumber" v="18728"/><tag k="coa:place_id" v="3134094"/></node><node id="-213" lat="30.405496" lon="-97.395912" changeset="false"><tag k="addr:street" v="Lund Carlson Road"/><tag k="addr:housenumber" v="17807"/><tag k="coa:place_id" v="1130034"/></node><node id="-214" lat="30.372535" lon="-97.40115" changeset="false"><tag k="addr:street" v="Imperial Eagle Lane"/><tag k="addr:housenumber" v="18756"/><tag k="coa:place_id" v="3134073"/></node><node id="-215" lat="30.371565" lon="-97.401207" changeset="false"><tag k="addr:street" v="Gurney's Eagle Drive"/><tag k="addr:housenumber" v="14401"/><tag k="coa:place_id" v="3134042"/></node><node id="-216" lat="30.374769" lon="-97.401095" changeset="false"><tag k="addr:street" v="Martial Eagle Drive"/><tag k="addr:housenumber" v="14509"/><tag k="coa:place_id" v="3134139"/></node><node id="-217" lat="30.409486" lon="-97.464656" changeset="false"><tag k="addr:street" v="Manda Carlson Road"/><tag k="addr:housenumber" v="16800"/><tag k="coa:place_id" v="5085996"/></node><node id="-218" lat="30.412185" lon="-97.407302" changeset="false"><tag k="addr:street" v="Lund Carlson Road"/><tag k="addr:housenumber" v="17000"/><tag k="coa:place_id" v="5099627"/></node><node id="-219" lat="30.40232" lon="-97.427989" changeset="false"><tag k="addr:street" v="Wells Road,1100"/><tag k="addr:housenumber" v="16300"/><tag k="coa:place_id" v="3390898"/></node><node id="-220" lat="30.429225" lon="-97.387055" changeset="false"><tag k="addr:street" v="North Lund Road"/><tag k="addr:housenumber" v="17900"/><tag k="coa:place_id" v="1130022"/></node><node id="-221" lat="30.362435" lon="-97.40516" changeset="false"><tag k="addr:street" v="County Line Road,1100"/><tag k="addr:housenumber" v="13817"/><tag k="coa:place_id" v="3360560"/></node><node id="-222" lat="30.44277" lon="-97.442023" changeset="false"><tag k="addr:street" v="Manda Carlson Road"/><tag k="addr:housenumber" v="18921"/><tag k="coa:place_id" v="1130011"/></node><node id="-223" lat="30.404668" lon="-97.463933" changeset="false"><tag k="addr:street" v="Manda Carlson Road"/><tag k="addr:housenumber" v="16601"/><tag k="coa:place_id" v="3359893"/></node><node id="-224" lat="30.384023" lon="-97.4639" changeset="false"><tag k="addr:street" v="Manda Carlson Road,1100"/><tag k="addr:housenumber" v="14808"/><tag k="coa:place_id" v="1129992"/></node><node id="-225" lat="30.445292" lon="-97.470222" changeset="false"><tag k="addr:street" v="Felder Lane"/><tag k="addr:housenumber" v="12311"/><tag k="coa:place_id" v="1136749"/></node><node id="-226" lat="30.385535" lon="-97.390749" changeset="false"><tag k="addr:street" v="County Line Road,1100"/><tag k="addr:housenumber" v="15305"/><tag k="coa:place_id" v="1128520"/></node><node id="-227" lat="30.408158" lon="-97.465375" changeset="false"><tag k="addr:street" v="Manda Carlson Road"/><tag k="addr:housenumber" v="16706"/><tag k="coa:place_id" v="5085993"/></node><node id="-228" lat="30.353286" lon="-97.423657" changeset="false"><tag k="addr:street" v="Klaus Lane"/><tag k="addr:housenumber" v="13215"/><tag k="coa:place_id" v="3315468"/></node><node id="-229" lat="30.400603" lon="-97.463842" changeset="false"><tag k="addr:street" v="Wells School Road"/><tag k="addr:housenumber" v="14300"/><tag k="coa:place_id" v="3359938"/></node><node id="-230" lat="30.398857" lon="-97.460076" changeset="false"><tag k="addr:street" v="Wells School Road"/><tag k="addr:housenumber" v="14512"/><tag k="coa:place_id" v="3359948"/></node><node id="-231" lat="30.355693" lon="-97.464468" changeset="false"><tag k="addr:street" v="Abrahamson Road"/><tag k="addr:housenumber" v="13409"/><tag k="coa:place_id" v="3363433"/></node><node id="-232" lat="30.389229" lon="-97.432198" changeset="false"><tag k="addr:street" v="Carlson Lane"/><tag k="addr:housenumber" v="16413"/><tag k="coa:place_id" v="3360368"/></node><node id="-233" lat="30.382693" lon="-97.440965" changeset="false"><tag k="addr:street" v="Wells Road,1100"/><tag k="addr:housenumber" v="15020"/><tag k="coa:place_id" v="3393087"/></node><node id="-234" lat="30.373659" lon="-97.400329" changeset="false"><tag k="addr:street" v="Spotted Eagle Lane"/><tag k="addr:housenumber" v="18761"/><tag k="coa:place_id" v="3363611"/></node><node id="-235" lat="30.400103" lon="-97.462633" changeset="false"><tag k="addr:street" v="Wells School Road"/><tag k="addr:housenumber" v="14316"/><tag k="coa:place_id" v="3359941"/></node><node id="-236" lat="30.373686" lon="-97.433434" changeset="false"><tag k="addr:street" v="Farm-to-Market Road 1100"/><tag k="addr:housenumber" v="16905"/><tag k="coa:place_id" v="3363457"/></node><node id="-237" lat="30.419603" lon="-97.425852" changeset="false"><tag k="addr:street" v="Lund Carlson Road"/><tag k="addr:housenumber" v="15610"/><tag k="coa:place_id" v="3364593"/></node><node id="-238" lat="30.392382" lon="-97.420518" changeset="false"><tag k="addr:street" v="Harry Lind Road"/><tag k="addr:housenumber" v="15620"/><tag k="coa:place_id" v="3268216"/></node><node id="-239" lat="30.352977" lon="-97.412755" changeset="false"><tag k="addr:street" v="Highway 290"/><tag k="addr:housenumber" v="18810"/><tag k="coa:place_id" v="3160285"/></node><node id="-240" lat="30.399357" lon="-97.461267" changeset="false"><tag k="addr:street" v="Wells School Road"/><tag k="addr:housenumber" v="14412"/><tag k="coa:place_id" v="3359945"/></node><node id="-241" lat="30.413703" lon="-97.411034" changeset="false"><tag k="addr:street" v="Lund Carlson Road"/><tag k="addr:housenumber" v="16706"/><tag k="coa:place_id" v="5095095"/></node><node id="-242" lat="30.407713" lon="-97.46182" changeset="false"><tag k="addr:street" v="Manda Carlson Road"/><tag k="addr:housenumber" v="16801"/><tag k="coa:place_id" v="3359905"/></node><node id="-243" lat="30.401216" lon="-97.482955" changeset="false"><tag k="addr:street" v="New Sweden Church Road"/><tag k="addr:housenumber" v="13211"/><tag k="coa:place_id" v="3363632"/></node><node id="-244" lat="30.410206" lon="-97.464027" changeset="false"><tag k="addr:street" v="Manda Carlson Road"/><tag k="addr:housenumber" v="16818"/><tag k="coa:place_id" v="5086001"/></node><node id="-245" lat="30.424773" lon="-97.385874" changeset="false"><tag k="addr:street" v="North Lund Road"/><tag k="addr:housenumber" v="17800"/><tag k="coa:place_id" v="1130015"/></node><node id="-246" lat="30.367444" lon="-97.420213" changeset="false"><tag k="addr:street" v="Farm-to-Market Road 1100"/><tag k="addr:housenumber" v="17815"/><tag k="coa:place_id" v="3363462"/></node><node id="-247" lat="30.372498" lon="-97.401075" changeset="false"><tag k="addr:street" v="Imperial Eagle Lane"/><tag k="addr:housenumber" v="18760"/><tag k="coa:place_id" v="3363622"/></node><node id="-248" lat="30.361794" lon="-97.473051" changeset="false"><tag k="addr:street" v="Abrahamson Road"/><tag k="addr:housenumber" v="13824"/><tag k="coa:place_id" v="3775308"/></node><node id="-249" lat="30.361645" lon="-97.406166" changeset="false"><tag k="addr:street" v="County Line Road,1100"/><tag k="addr:housenumber" v="13708"/><tag k="coa:place_id" v="3192251"/></node><node id="-250" lat="30.444999" lon="-97.469345" changeset="false"><tag k="addr:street" v="Felder Lane"/><tag k="addr:housenumber" v="12333"/><tag k="coa:place_id" v="3353123"/></node><node id="-251" lat="30.405046" lon="-97.396209" changeset="false"><tag k="addr:street" v="Lund Carlson Road"/><tag k="addr:housenumber" v="17805"/><tag k="coa:place_id" v="1130023"/></node><node id="-252" lat="30.433278" lon="-97.417845" changeset="false"><tag k="addr:street" v="Werchan Lane"/><tag k="addr:housenumber" v="18241"/><tag k="coa:place_id" v="5112908"/></node><node id="-253" lat="30.408702" lon="-97.442754" changeset="false"><tag k="addr:street" v="Wells Lane"/><tag k="addr:housenumber" v="16705"/><tag k="coa:place_id" v="1129724"/></node><node id="-254" lat="30.374996" lon="-97.401593" changeset="false"><tag k="addr:street" v="Martial Eagle Drive"/><tag k="addr:housenumber" v="14508"/><tag k="coa:place_id" v="3134135"/></node><node id="-255" lat="30.385104" lon="-97.436966" changeset="false"><tag k="addr:street" v="Wells Road,1100"/><tag k="addr:housenumber" v="15301"/><tag k="coa:place_id" v="1140258"/></node><node id="-256" lat="30.388549" lon="-97.389285" changeset="false"><tag k="addr:street" v="County Line Road,1100"/><tag k="addr:housenumber" v="15500"/><tag k="coa:place_id" v="1138000"/></node><node id="-257" lat="30.352646" lon="-97.436173" changeset="false"><tag k="addr:street" v="Highway 290"/><tag k="addr:housenumber" v="17604"/><tag k="coa:place_id" v="1127838"/></node><node id="-258" lat="30.413723" lon="-97.389907" changeset="false"><tag k="addr:street" v="North Lund Road"/><tag k="addr:housenumber" v="17115"/><tag k="coa:place_id" v="1129973"/></node><node id="-259" lat="30.372884" lon="-97.401907" changeset="false"><tag k="addr:street" v="Imperial Eagle Lane"/><tag k="addr:housenumber" v="18720"/><tag k="coa:place_id" v="3134063"/></node><node id="-260" lat="30.372811" lon="-97.401744" changeset="false"><tag k="addr:street" v="Imperial Eagle Lane"/><tag k="addr:housenumber" v="18728"/><tag k="coa:place_id" v="3134065"/></node><node id="-261" lat="30.372477" lon="-97.400114" changeset="false"><tag k="addr:street" v="Golden Eagle Way"/><tag k="addr:housenumber" v="18813"/><tag k="coa:place_id" v="3134166"/></node><node id="-262" lat="30.373276" lon="-97.40166" changeset="false"><tag k="addr:street" v="Golden Eagle Way"/><tag k="addr:housenumber" v="18721"/><tag k="coa:place_id" v="3134078"/></node><node id="-263" lat="30.367737" lon="-97.463275" changeset="false"><tag k="addr:street" v="Giese Lane"/><tag k="addr:housenumber" v="15417"/><tag k="coa:place_id" v="1128918"/></node><node id="-264" lat="30.352973" lon="-97.412016" changeset="false"><tag k="addr:street" v="Highway 290"/><tag k="addr:housenumber" v="18818"/><tag k="coa:place_id" v="3160286"/></node><node id="-265" lat="30.374171" lon="-97.401414" changeset="false"><tag k="addr:street" v="Spotted Eagle Lane"/><tag k="addr:housenumber" v="18709"/><tag k="coa:place_id" v="3134103"/></node><node id="-266" lat="30.372965" lon="-97.402078" changeset="false"><tag k="addr:street" v="Imperial Eagle Lane"/><tag k="addr:housenumber" v="18712"/><tag k="coa:place_id" v="3134061"/></node><node id="-267" lat="30.372772" lon="-97.401654" changeset="false"><tag k="addr:street" v="Imperial Eagle Lane"/><tag k="addr:housenumber" v="18732"/><tag k="coa:place_id" v="3134067"/></node><node id="-268" lat="30.436575" lon="-97.415702" changeset="false"><tag k="addr:street" v="Werchan Lane"/><tag k="addr:housenumber" v="18507"/><tag k="coa:place_id" v="1129721"/></node><node id="-269" lat="30.360409" lon="-97.473383" changeset="false"><tag k="addr:street" v="Abrahamson Court"/><tag k="addr:housenumber" v="13814"/><tag k="coa:place_id" v="3102897"/></node><node id="-270" lat="30.431401" lon="-97.451004" changeset="false"><tag k="addr:street" v="Manda Carlson Road"/><tag k="addr:housenumber" v="18200"/><tag k="coa:place_id" v="1129963"/></node><node id="-271" lat="30.427078" lon="-97.453356" changeset="false"><tag k="addr:street" v="Manda Carlson Road"/><tag k="addr:housenumber" v="17906"/><tag k="coa:place_id" v="1129947"/></node><node id="-272" lat="30.400031" lon="-97.488462" changeset="false"><tag k="addr:street" v="Jacobson Road"/><tag k="addr:housenumber" v="12900"/><tag k="coa:place_id" v="1129478"/></node><node id="-273" lat="30.419897" lon="-97.388824" changeset="false"><tag k="addr:street" v="North Lund Road"/><tag k="addr:housenumber" v="17410"/><tag k="coa:place_id" v="3296602"/></node><node id="-274" lat="30.379162" lon="-97.398315" changeset="false"><tag k="addr:street" v="County Line Road,1100"/><tag k="addr:housenumber" v="14808"/><tag k="coa:place_id" v="1128523"/></node><node id="-275" lat="30.362212" lon="-97.430197" changeset="false"><tag k="addr:street" v="Klaus Lane"/><tag k="addr:housenumber" v="13800"/><tag k="coa:place_id" v="1140246"/></node><node id="-276" lat="30.35395" lon="-97.484096" changeset="false"><tag k="addr:street" v="Farm-to-Market Road 1100"/><tag k="addr:housenumber" v="13118"/><tag k="coa:place_id" v="1130658"/></node><node id="-277" lat="30.364876" lon="-97.476455" changeset="false"><tag k="addr:street" v="Farm-to-Market Road 1100"/><tag k="addr:housenumber" v="13901"/><tag k="coa:place_id" v="1130666"/></node><node id="-278" lat="30.37262" lon="-97.400401" changeset="false"><tag k="addr:street" v="Golden Eagle Way"/><tag k="addr:housenumber" v="18805"/><tag k="coa:place_id" v="3134164"/></node><node id="-279" lat="30.372397" lon="-97.399963" changeset="false"><tag k="addr:street" v="Golden Eagle Way"/><tag k="addr:housenumber" v="18817"/><tag k="coa:place_id" v="3134167"/></node><node id="-280" lat="30.364666" lon="-97.404459" changeset="false"><tag k="addr:street" v="County Line Road,1100"/><tag k="addr:housenumber" v="13916"/><tag k="coa:place_id" v="1129860"/></node><node id="-281" lat="30.373391" lon="-97.400824" changeset="false"><tag k="addr:street" v="Golden Eagle Way"/><tag k="addr:housenumber" v="18748"/><tag k="coa:place_id" v="3134099"/></node><node id="-282" lat="30.389155" lon="-97.3891" changeset="false"><tag k="addr:street" v="County Line Road,1100"/><tag k="addr:housenumber" v="15512"/><tag k="coa:place_id" v="1137998"/></node><node id="-283" lat="30.373732" lon="-97.401586" changeset="false"><tag k="addr:street" v="Golden Eagle Way"/><tag k="addr:housenumber" v="18712"/><tag k="coa:place_id" v="3134090"/></node><node id="-284" lat="30.37409" lon="-97.401249" changeset="false"><tag k="addr:street" v="Spotted Eagle Lane"/><tag k="addr:housenumber" v="18717"/><tag k="coa:place_id" v="3134105"/></node><node id="-285" lat="30.37466" lon="-97.401755" changeset="false"><tag k="addr:street" v="Martial Eagle Drive"/><tag k="addr:housenumber" v="14500"/><tag k="coa:place_id" v="3363592"/></node><node id="-286" lat="30.402982" lon="-97.427852" changeset="false"><tag k="addr:street" v="Wells Road,1100"/><tag k="addr:housenumber" v="16308"/><tag k="coa:place_id" v="1129753"/></node><node id="-287" lat="30.356239" lon="-97.484318" changeset="false"><tag k="addr:street" v="Old Kimbro Road"/><tag k="addr:housenumber" v="13507"/><tag k="coa:place_id" v="1129542"/></node><node id="-288" lat="30.358965" lon="-97.406744" changeset="false"><tag k="addr:street" v="Burnet Forest Cove"/><tag k="addr:housenumber" v="117"/><tag k="coa:place_id" v="3129380"/></node><node id="-289" lat="30.420036" lon="-97.458327" changeset="false"><tag k="addr:street" v="Manda Carlson Road"/><tag k="addr:housenumber" v="17414"/><tag k="coa:place_id" v="1129969"/></node><node id="-290" lat="30.372327" lon="-97.399831" changeset="false"><tag k="addr:street" v="Golden Eagle Way"/><tag k="addr:housenumber" v="18821"/><tag k="coa:place_id" v="3134168"/></node><node id="-291" lat="30.374468" lon="-97.401368" changeset="false"><tag k="addr:street" v="Martial Eagle Drive"/><tag k="addr:housenumber" v="14501"/><tag k="coa:place_id" v="3363593"/></node><node id="-292" lat="30.379541" lon="-97.464813" changeset="false"><tag k="addr:street" v="Manda Carlson Road,1100"/><tag k="addr:housenumber" v="14811"/><tag k="coa:place_id" v="1130013"/></node><node id="-293" lat="30.364033" lon="-97.411911" changeset="false"><tag k="addr:street" v="Farm-to-Market Road 1100"/><tag k="addr:housenumber" v="18407"/><tag k="coa:place_id" v="1130674"/></node><node id="-294" lat="30.352125" lon="-97.466326" changeset="false"><tag k="addr:street" v="Highway 290"/><tag k="addr:housenumber" v="15908"/><tag k="coa:place_id" v="1127827"/></node><node id="-295" lat="30.369655" lon="-97.401406" changeset="false"><tag k="addr:street" v="County Line Road,1100"/><tag k="addr:housenumber" v="14300"/><tag k="coa:place_id" v="1129792"/></node><node id="-296" lat="30.45599" lon="-97.449741" changeset="false"><tag k="addr:street" v="Janak Road"/><tag k="addr:housenumber" v="19711"/><tag k="coa:place_id" v="1136348"/></node><node id="-297" lat="30.403661" lon="-97.427095" changeset="false"><tag k="addr:street" v="Wells Road,1100"/><tag k="addr:housenumber" v="16406"/><tag k="coa:place_id" v="1129761"/></node><node id="-298" lat="30.373198" lon="-97.401491" changeset="false"><tag k="addr:street" v="Golden Eagle Way"/><tag k="addr:housenumber" v="18729"/><tag k="coa:place_id" v="3134080"/></node><node id="-299" lat="30.373739" lon="-97.400492" changeset="false"><tag k="addr:street" v="Spotted Eagle Lane"/><tag k="addr:housenumber" v="18753"/><tag k="coa:place_id" v="3134118"/></node><node id="-300" lat="30.373482" lon="-97.401003" changeset="false"><tag k="addr:street" v="Golden Eagle Way"/><tag k="addr:housenumber" v="18740"/><tag k="coa:place_id" v="3134097"/></node><node id="-301" lat="30.3742" lon="-97.40151" changeset="false"><tag k="addr:street" v="Spotted Eagle Lane"/><tag k="addr:housenumber" v="18705"/><tag k="coa:place_id" v="3134102"/></node><node id="-302" lat="30.388203" lon="-97.453527" changeset="false"><tag k="addr:street" v="Wells Lane"/><tag k="addr:housenumber" v="15521"/><tag k="coa:place_id" v="1129687"/></node><node id="-303" lat="30.357911" lon="-97.408027" changeset="false"><tag k="addr:street" v="County Line Road,1100"/><tag k="addr:housenumber" v="13611"/><tag k="coa:place_id" v="1129869"/></node><node id="-304" lat="30.358187" lon="-97.473083" changeset="false"><tag k="addr:street" v="Abrahamson Court"/><tag k="addr:housenumber" v="13805"/><tag k="coa:place_id" v="3173002"/></node><node id="-305" lat="30.397707" lon="-97.458473" changeset="false"><tag k="addr:street" v="Wells School Road"/><tag k="addr:housenumber" v="14700"/><tag k="coa:place_id" v="3043165"/></node><node id="-306" lat="30.352166" lon="-97.499387" changeset="false"><tag k="addr:street" v="Old Kimbro Road"/><tag k="addr:housenumber" v="13201"/><tag k="coa:place_id" v="1130315"/></node><node id="-307" lat="30.352269" lon="-97.484322" changeset="false"><tag k="addr:street" v="Farm-to-Market Road 1100"/><tag k="addr:housenumber" v="13110"/><tag k="coa:place_id" v="1130675"/></node><node id="-308" lat="30.408077" lon="-97.49971" changeset="false"><tag k="addr:street" v="New Sweden Church Road"/><tag k="addr:housenumber" v="12178"/><tag k="coa:place_id" v="1130450"/></node><node id="-309" lat="30.403609" lon="-97.489204" changeset="false"><tag k="addr:street" v="Church Lane"/><tag k="addr:housenumber" v="16406"/><tag k="coa:place_id" v="1128522"/></node><node id="-310" lat="30.369151" lon="-97.422374" changeset="false"><tag k="addr:street" v="Farm-to-Market Road 1100"/><tag k="addr:housenumber" v="17700"/><tag k="coa:place_id" v="1128643"/></node><node id="-311" lat="30.395794" lon="-97.485404" changeset="false"><tag k="addr:street" v="Jacobson Road"/><tag k="addr:housenumber" v="13300"/><tag k="coa:place_id" v="3256906"/></node><node id="-312" lat="30.391932" lon="-97.416829" changeset="false"><tag k="addr:street" v="Harry Lind Road"/><tag k="addr:housenumber" v="15624"/><tag k="coa:place_id" v="3268217"/></node><node id="-313" lat="30.391069" lon="-97.41735" changeset="false"><tag k="addr:street" v="Harry Lind Road"/><tag k="addr:housenumber" v="15604"/><tag k="coa:place_id" v="3263672"/></node><node id="-314" lat="30.3737" lon="-97.40149" changeset="false"><tag k="addr:street" v="Golden Eagle Way"/><tag k="addr:housenumber" v="18716"/><tag k="coa:place_id" v="3134091"/></node></osm>