<?xml version="1.0" encoding="UTF-8"?><osm version="0.6" generator="github.com/aaronlidman/osm-and-geojson"><node id="-1" lat="30.185479" lon="-97.757819" changeset="false"><tag k="addr:street" v="Lakehurst Drive"/><tag k="addr:housenumber" v="2316"/><tag k="addr:postcode" v="78744"/></node><node id="-2" lat="30.185597" lon="-97.758092" changeset="false"><tag k="addr:street" v="Lakehurst Drive"/><tag k="addr:housenumber" v="2312"/><tag k="addr:postcode" v="78744"/></node><node id="-3" lat="30.185489" lon="-97.758709" changeset="false"><tag k="addr:street" v="Lakehurst Drive"/><tag k="addr:housenumber" v="2307"/><tag k="addr:postcode" v="78744"/></node><node id="-4" lat="30.185762" lon="-97.758358" changeset="false"><tag k="addr:street" v="Lakehurst Drive"/><tag k="addr:housenumber" v="2308"/><tag k="addr:postcode" v="78744"/></node><node id="-5" lat="30.185551" lon="-97.757961" changeset="false"><tag k="addr:street" v="Lakehurst Drive"/><tag k="addr:housenumber" v="2314"/><tag k="addr:postcode" v="78744"/></node><node id="-6" lat="30.18568" lon="-97.758222" changeset="false"><tag k="addr:street" v="Lakehurst Drive"/><tag k="addr:housenumber" v="2310"/><tag k="addr:postcode" v="78744"/></node><node id="-7" lat="30.185855" lon="-97.758465" changeset="false"><tag k="addr:street" v="Lakehurst Drive"/><tag k="addr:housenumber" v="2306"/><tag k="addr:postcode" v="78744"/></node><node id="-8" lat="30.185988" lon="-97.758767" changeset="false"><tag k="addr:street" v="Lakehurst Drive"/><tag k="addr:housenumber" v="2302"/><tag k="addr:postcode" v="78744"/></node><node id="-9" lat="30.185875" lon="-97.75863" changeset="false"><tag k="addr:street" v="Lakehurst Drive"/><tag k="addr:housenumber" v="2304"/><tag k="addr:postcode" v="78744"/></node><node id="-10" lat="30.185072" lon="-97.757123" changeset="false"><tag k="addr:street" v="Lakehurst Drive"/><tag k="addr:housenumber" v="2326"/><tag k="addr:postcode" v="78744"/></node><node id="-11" lat="30.185128" lon="-97.758704" changeset="false"><tag k="addr:street" v="Willow Way"/><tag k="addr:housenumber" v="6600"/><tag k="addr:postcode" v="78744"/></node><node id="-12" lat="30.185155" lon="-97.758008" changeset="false"><tag k="addr:street" v="Lakehurst Drive"/><tag k="addr:housenumber" v="2317"/><tag k="addr:postcode" v="78744"/></node><node id="-13" lat="30.185163" lon="-97.757269" changeset="false"><tag k="addr:street" v="Lakehurst Drive"/><tag k="addr:housenumber" v="2324"/><tag k="addr:postcode" v="78744"/></node><node id="-14" lat="30.185227" lon="-97.758155" changeset="false"><tag k="addr:street" v="Lakehurst Drive"/><tag k="addr:housenumber" v="2315"/><tag k="addr:postcode" v="78744"/></node><node id="-15" lat="30.185344" lon="-97.757513" changeset="false"><tag k="addr:street" v="Lakehurst Drive"/><tag k="addr:housenumber" v="2320"/><tag k="addr:postcode" v="78744"/></node><node id="-16" lat="30.185228" lon="-97.757396" changeset="false"><tag k="addr:street" v="Lakehurst Drive"/><tag k="addr:housenumber" v="2322"/><tag k="addr:postcode" v="78744"/></node><node id="-17" lat="30.185412" lon="-97.758569" changeset="false"><tag k="addr:street" v="Lakehurst Drive"/><tag k="addr:housenumber" v="2309"/><tag k="addr:postcode" v="78744"/></node><node id="-18" lat="30.185354" lon="-97.758425" changeset="false"><tag k="addr:street" v="Lakehurst Drive"/><tag k="addr:housenumber" v="2311"/><tag k="addr:postcode" v="78744"/></node><node id="-19" lat="30.185295" lon="-97.758271" changeset="false"><tag k="addr:street" v="Lakehurst Drive"/><tag k="addr:housenumber" v="2313"/><tag k="addr:postcode" v="78744"/></node><node id="-20" lat="30.185407" lon="-97.757658" changeset="false"><tag k="addr:street" v="Lakehurst Drive"/><tag k="addr:housenumber" v="2318"/><tag k="addr:postcode" v="78744"/></node><node id="-21" lat="30.184809" lon="-97.757482" changeset="false"><tag k="addr:street" v="Lakehurst Drive"/><tag k="addr:housenumber" v="2325"/><tag k="addr:postcode" v="78744"/></node><node id="-22" lat="30.1849" lon="-97.757607" changeset="false"><tag k="addr:street" v="Lakehurst Drive"/><tag k="addr:housenumber" v="2323"/><tag k="addr:postcode" v="78744"/></node><node id="-23" lat="30.184968" lon="-97.758552" changeset="false"><tag k="addr:street" v="Willow Way"/><tag k="addr:housenumber" v="6601"/><tag k="addr:postcode" v="78744"/></node><node id="-24" lat="30.184984" lon="-97.757018" changeset="false"><tag k="addr:street" v="Lakehurst Drive"/><tag k="addr:housenumber" v="2328"/><tag k="addr:postcode" v="78744"/></node><node id="-25" lat="30.184993" lon="-97.757728" changeset="false"><tag k="addr:street" v="Lakehurst Drive"/><tag k="addr:housenumber" v="2321"/><tag k="addr:postcode" v="78744"/></node><node id="-26" lat="30.185073" lon="-97.757884" changeset="false"><tag k="addr:street" v="Lakehurst Drive"/><tag k="addr:housenumber" v="2319"/><tag k="addr:postcode" v="78744"/></node><node id="-27" lat="30.184541" lon="-97.757803" changeset="false"><tag k="addr:street" v="Bluestone Street"/><tag k="addr:housenumber" v="6601"/><tag k="addr:postcode" v="78744"/></node><node id="-28" lat="30.184563" lon="-97.758357" changeset="false"><tag k="addr:street" v="Bluestone Street"/><tag k="addr:housenumber" v="6604"/><tag k="addr:postcode" v="78744"/></node><node id="-29" lat="30.18465" lon="-97.7572" changeset="false"><tag k="addr:street" v="Lakehurst Drive"/><tag k="addr:housenumber" v="2329"/><tag k="addr:postcode" v="78744"/></node><node id="-30" lat="30.184724" lon="-97.757357" changeset="false"><tag k="addr:street" v="Lakehurst Drive"/><tag k="addr:housenumber" v="2327"/><tag k="addr:postcode" v="78744"/></node><node id="-31" lat="30.18469" lon="-97.757977" changeset="false"><tag k="addr:street" v="Bluestone Street"/><tag k="addr:housenumber" v="6600"/><tag k="addr:postcode" v="78744"/></node><node id="-32" lat="30.184634" lon="-97.75875" changeset="false"><tag k="addr:street" v="Willow Way"/><tag k="addr:housenumber" v="6605"/><tag k="addr:postcode" v="78744"/></node><node id="-33" lat="30.184776" lon="-97.758573" changeset="false"><tag k="addr:street" v="Willow Way"/><tag k="addr:housenumber" v="6603"/><tag k="addr:postcode" v="78744"/></node><node id="-34" lat="30.18473" lon="-97.758175" changeset="false"><tag k="addr:street" v="Bluestone Street"/><tag k="addr:housenumber" v="6602"/><tag k="addr:postcode" v="78744"/></node><node id="-35" lat="30.186054" lon="-97.759884" changeset="false"><tag k="addr:street" v="Commodore Circle"/><tag k="addr:housenumber" v="6664"/><tag k="addr:postcode" v="78744"/></node><node id="-36" lat="30.186181" lon="-97.759341" changeset="false"><tag k="addr:street" v="Stonleigh Place"/><tag k="addr:housenumber" v="6502"/><tag k="addr:postcode" v="78744"/></node><node id="-37" lat="30.186176" lon="-97.759776" changeset="false"><tag k="addr:street" v="Commodore Circle"/><tag k="addr:housenumber" v="6662"/><tag k="addr:postcode" v="78744"/></node><node id="-38" lat="30.1863" lon="-97.759236" changeset="false"><tag k="addr:street" v="Stonleigh Place"/><tag k="addr:housenumber" v="6500"/><tag k="addr:postcode" v="78744"/></node><node id="-39" lat="30.186481" lon="-97.759899" changeset="false"><tag k="addr:street" v="Commodore Circle"/><tag k="addr:housenumber" v="6658"/><tag k="addr:postcode" v="78744"/></node><node id="-40" lat="30.186549" lon="-97.760026" changeset="false"><tag k="addr:street" v="Commodore Circle"/><tag k="addr:housenumber" v="6656"/><tag k="addr:postcode" v="78744"/></node><node id="-41" lat="30.185556" lon="-97.759737" changeset="false"><tag k="addr:street" v="Stonleigh Place"/><tag k="addr:housenumber" v="6512"/><tag k="addr:postcode" v="78744"/></node><node id="-42" lat="30.18568" lon="-97.759633" changeset="false"><tag k="addr:street" v="Stonleigh Place"/><tag k="addr:housenumber" v="6510"/><tag k="addr:postcode" v="78744"/></node><node id="-43" lat="30.185811" lon="-97.759556" changeset="false"><tag k="addr:street" v="Stonleigh Place"/><tag k="addr:housenumber" v="6508"/><tag k="addr:postcode" v="78744"/></node><node id="-44" lat="30.185931" lon="-97.759497" changeset="false"><tag k="addr:street" v="Stonleigh Place"/><tag k="addr:housenumber" v="6506"/><tag k="addr:postcode" v="78744"/></node><node id="-45" lat="30.185933" lon="-97.759943" changeset="false"><tag k="addr:street" v="Commodore Circle"/><tag k="addr:housenumber" v="6666"/><tag k="addr:postcode" v="78744"/></node><node id="-46" lat="30.185746" lon="-97.760076" changeset="false"><tag k="addr:street" v="Commodore Circle"/><tag k="addr:housenumber" v="6670"/><tag k="addr:postcode" v="78744"/></node><node id="-47" lat="30.186034" lon="-97.758909" changeset="false"><tag k="addr:street" v="Lakehurst Drive"/><tag k="addr:housenumber" v="2300"/><tag k="addr:postcode" v="78744"/></node><node id="-48" lat="30.18607" lon="-97.759424" changeset="false"><tag k="addr:street" v="Stonleigh Place"/><tag k="addr:housenumber" v="6504"/><tag k="addr:postcode" v="78744"/></node><node id="-49" lat="30.185201" lon="-97.759434" changeset="false"><tag k="addr:street" v="Stonleigh Place"/><tag k="addr:housenumber" v="6601"/><tag k="addr:postcode" v="78744"/></node><node id="-50" lat="30.185312" lon="-97.759896" changeset="false"><tag k="addr:street" v="Stonleigh Place"/><tag k="addr:housenumber" v="6602"/><tag k="addr:postcode" v="78744"/></node><node id="-51" lat="30.185344" lon="-97.759332" changeset="false"><tag k="addr:street" v="Stonleigh Place"/><tag k="addr:housenumber" v="6513"/><tag k="addr:postcode" v="78744"/></node><node id="-52" lat="30.185472" lon="-97.75926" changeset="false"><tag k="addr:street" v="Stonleigh Place"/><tag k="addr:housenumber" v="6511"/><tag k="addr:postcode" v="78744"/></node><node id="-53" lat="30.185442" lon="-97.759823" changeset="false"><tag k="addr:street" v="Stonleigh Place"/><tag k="addr:housenumber" v="6600"/><tag k="addr:postcode" v="78744"/></node><node id="-54" lat="30.185598" lon="-97.759206" changeset="false"><tag k="addr:street" v="Stonleigh Place"/><tag k="addr:housenumber" v="6509"/><tag k="addr:postcode" v="78744"/></node><node id="-55" lat="30.185546" lon="-97.758846" changeset="false"><tag k="addr:street" v="Lakehurst Drive"/><tag k="addr:housenumber" v="2305"/><tag k="addr:postcode" v="78744"/></node><node id="-56" lat="30.184618" lon="-97.759435" changeset="false"><tag k="addr:street" v="Bendridge Trail"/><tag k="addr:housenumber" v="2305"/><tag k="addr:postcode" v="78744"/></node><node id="-57" lat="30.18453" lon="-97.759295" changeset="false"><tag k="addr:street" v="Bendridge Trail"/><tag k="addr:housenumber" v="2307"/><tag k="addr:postcode" v="78744"/></node><node id="-58" lat="30.184678" lon="-97.759556" changeset="false"><tag k="addr:street" v="Bendridge Trail"/><tag k="addr:housenumber" v="2303"/><tag k="addr:postcode" v="78744"/></node><node id="-59" lat="30.184771" lon="-97.759696" changeset="false"><tag k="addr:street" v="Bendridge Trail"/><tag k="addr:housenumber" v="2301"/><tag k="addr:postcode" v="78744"/></node><node id="-60" lat="30.185139" lon="-97.758944" changeset="false"><tag k="addr:street" v="Willow Way"/><tag k="addr:housenumber" v="6602"/><tag k="addr:postcode" v="78744"/></node><node id="-61" lat="30.185053" lon="-97.760047" changeset="false"><tag k="addr:street" v="Stonleigh Place"/><tag k="addr:housenumber" v="6606"/><tag k="addr:postcode" v="78744"/></node><node id="-62" lat="30.184848" lon="-97.75914" changeset="false"><tag k="addr:street" v="Willow Way"/><tag k="addr:housenumber" v="6606"/><tag k="addr:postcode" v="78744"/></node><node id="-63" lat="30.185026" lon="-97.759106" changeset="false"><tag k="addr:street" v="Willow Way"/><tag k="addr:housenumber" v="6604"/><tag k="addr:postcode" v="78744"/></node><node id="-64" lat="30.185098" lon="-97.75952" changeset="false"><tag k="addr:street" v="Stonleigh Place"/><tag k="addr:housenumber" v="6603"/><tag k="addr:postcode" v="78744"/></node><node id="-65" lat="30.185187" lon="-97.759983" changeset="false"><tag k="addr:street" v="Stonleigh Place"/><tag k="addr:housenumber" v="6604"/><tag k="addr:postcode" v="78744"/></node><node id="-66" lat="30.186285" lon="-97.760419" changeset="false"><tag k="addr:street" v="Commodore Circle"/><tag k="addr:housenumber" v="6653"/><tag k="addr:postcode" v="78744"/></node><node id="-67" lat="30.186315" lon="-97.760551" changeset="false"><tag k="addr:street" v="Commodore Circle"/><tag k="addr:housenumber" v="6651"/><tag k="addr:postcode" v="78744"/></node><node id="-68" lat="30.186353" lon="-97.760671" changeset="false"><tag k="addr:street" v="Commodore Circle"/><tag k="addr:housenumber" v="6649"/><tag k="addr:postcode" v="78744"/></node><node id="-69" lat="30.186588" lon="-97.760189" changeset="false"><tag k="addr:street" v="Commodore Circle"/><tag k="addr:housenumber" v="6654"/><tag k="addr:postcode" v="78744"/></node><node id="-70" lat="30.186712" lon="-97.760588" changeset="false"><tag k="addr:street" v="Commodore Circle"/><tag k="addr:housenumber" v="6648"/><tag k="addr:postcode" v="78744"/></node><node id="-71" lat="30.186641" lon="-97.760334" changeset="false"><tag k="addr:street" v="Commodore Circle"/><tag k="addr:housenumber" v="6652"/><tag k="addr:postcode" v="78744"/></node><node id="-72" lat="30.186676" lon="-97.760472" changeset="false"><tag k="addr:street" v="Commodore Circle"/><tag k="addr:housenumber" v="6650"/><tag k="addr:postcode" v="78744"/></node><node id="-73" lat="30.18675" lon="-97.760721" changeset="false"><tag k="addr:street" v="Commodore Circle"/><tag k="addr:housenumber" v="6646"/><tag k="addr:postcode" v="78744"/></node><node id="-74" lat="30.185693" lon="-97.760677" changeset="false"><tag k="addr:street" v="Eastridge Terrace"/><tag k="addr:housenumber" v="2211"/><tag k="addr:postcode" v="78744"/></node><node id="-75" lat="30.186048" lon="-97.760578" changeset="false"><tag k="addr:street" v="Eastridge Terrace"/><tag k="addr:housenumber" v="2208"/><tag k="addr:postcode" v="78744"/></node><node id="-76" lat="30.186085" lon="-97.760694" changeset="false"><tag k="addr:street" v="Eastridge Terrace"/><tag k="addr:housenumber" v="2206"/><tag k="addr:postcode" v="78744"/></node><node id="-77" lat="30.185995" lon="-97.760439" changeset="false"><tag k="addr:street" v="Eastridge Terrace"/><tag k="addr:housenumber" v="2210"/><tag k="addr:postcode" v="78744"/></node><node id="-78" lat="30.186241" lon="-97.760296" changeset="false"><tag k="addr:street" v="Commodore Circle"/><tag k="addr:housenumber" v="6655"/><tag k="addr:postcode" v="78744"/></node><node id="-79" lat="30.18542" lon="-97.760243" changeset="false"><tag k="addr:street" v="Commodore Circle"/><tag k="addr:housenumber" v="6676"/><tag k="addr:postcode" v="78744"/></node><node id="-80" lat="30.185312" lon="-97.760308" changeset="false"><tag k="addr:street" v="Commodore Circle"/><tag k="addr:housenumber" v="6678"/><tag k="addr:postcode" v="78744"/></node><node id="-81" lat="30.185448" lon="-97.760669" changeset="false"><tag k="addr:street" v="East Bluff Drive"/><tag k="addr:housenumber" v="2214"/><tag k="addr:postcode" v="78744"/></node><node id="-82" lat="30.185016" lon="-97.76052" changeset="false"><tag k="addr:street" v="Commodore Circle"/><tag k="addr:housenumber" v="6700"/><tag k="addr:postcode" v="78744"/></node><node id="-83" lat="30.185215" lon="-97.760371" changeset="false"><tag k="addr:street" v="Commodore Circle"/><tag k="addr:housenumber" v="6680"/><tag k="addr:postcode" v="78744"/></node><node id="-84" lat="30.185099" lon="-97.760423" changeset="false"><tag k="addr:street" v="Commodore Circle"/><tag k="addr:housenumber" v="6682"/><tag k="addr:postcode" v="78744"/></node><node id="-85" lat="30.185473" lon="-97.760791" changeset="false"><tag k="addr:street" v="East Bluff Drive"/><tag k="addr:housenumber" v="2212"/><tag k="addr:postcode" v="78744"/></node><node id="-86" lat="30.185516" lon="-97.760193" changeset="false"><tag k="addr:street" v="Commodore Circle"/><tag k="addr:housenumber" v="6674"/><tag k="addr:postcode" v="78744"/></node><node id="-87" lat="30.184746" lon="-97.760225" changeset="false"><tag k="addr:street" v="Stonleigh Place"/><tag k="addr:housenumber" v="6610"/><tag k="addr:postcode" v="78744"/></node><node id="-88" lat="30.184616" lon="-97.760325" changeset="false"><tag k="addr:street" v="Stonleigh Place"/><tag k="addr:housenumber" v="6700"/><tag k="addr:postcode" v="78744"/></node><node id="-89" lat="30.184736" lon="-97.760688" changeset="false"><tag k="addr:street" v="Commodore Circle"/><tag k="addr:housenumber" v="6706"/><tag k="addr:postcode" v="78744"/></node><node id="-90" lat="30.184488" lon="-97.760377" changeset="false"><tag k="addr:street" v="Stonleigh Place"/><tag k="addr:housenumber" v="6702"/><tag k="addr:postcode" v="78744"/></node><node id="-91" lat="30.184954" lon="-97.760566" changeset="false"><tag k="addr:street" v="Commodore Circle"/><tag k="addr:housenumber" v="6702"/><tag k="addr:postcode" v="78744"/></node><node id="-92" lat="30.184899" lon="-97.760164" changeset="false"><tag k="addr:street" v="Stonleigh Place"/><tag k="addr:housenumber" v="6608"/><tag k="addr:postcode" v="78744"/></node><node id="-93" lat="30.184812" lon="-97.760627" changeset="false"><tag k="addr:street" v="Commodore Circle"/><tag k="addr:housenumber" v="6704"/><tag k="addr:postcode" v="78744"/></node><node id="-94" lat="30.186912" lon="-97.76125" changeset="false"><tag k="addr:street" v="Commodore Circle"/><tag k="addr:housenumber" v="6638"/><tag k="addr:postcode" v="78744"/></node><node id="-95" lat="30.18683" lon="-97.760977" changeset="false"><tag k="addr:street" v="Commodore Circle"/><tag k="addr:housenumber" v="6642"/><tag k="addr:postcode" v="78744"/></node><node id="-96" lat="30.186438" lon="-97.760907" changeset="false"><tag k="addr:street" v="Commodore Circle"/><tag k="addr:housenumber" v="6645"/><tag k="addr:postcode" v="78744"/></node><node id="-97" lat="30.186473" lon="-97.76105" changeset="false"><tag k="addr:street" v="Commodore Circle"/><tag k="addr:housenumber" v="6643"/><tag k="addr:postcode" v="78744"/></node><node id="-98" lat="30.186791" lon="-97.760835" changeset="false"><tag k="addr:street" v="Commodore Circle"/><tag k="addr:housenumber" v="6644"/><tag k="addr:postcode" v="78744"/></node><node id="-99" lat="30.186868" lon="-97.761118" changeset="false"><tag k="addr:street" v="Commodore Circle"/><tag k="addr:housenumber" v="6640"/><tag k="addr:postcode" v="78744"/></node><node id="-100" lat="30.186512" lon="-97.761192" changeset="false"><tag k="addr:street" v="Commodore Circle"/><tag k="addr:housenumber" v="6641"/><tag k="addr:postcode" v="78744"/></node><node id="-101" lat="30.185861" lon="-97.761138" changeset="false"><tag k="addr:street" v="Eastridge Terrace"/><tag k="addr:housenumber" v="2203"/><tag k="addr:postcode" v="78744"/></node><node id="-102" lat="30.185889" lon="-97.761273" changeset="false"><tag k="addr:street" v="Eastridge Terrace"/><tag k="addr:housenumber" v="2201"/><tag k="addr:postcode" v="78744"/></node><node id="-103" lat="30.186131" lon="-97.760842" changeset="false"><tag k="addr:street" v="Eastridge Terrace"/><tag k="addr:housenumber" v="2204"/><tag k="addr:postcode" v="78744"/></node><node id="-104" lat="30.186153" lon="-97.760934" changeset="false"><tag k="addr:street" v="Eastridge Terrace"/><tag k="addr:housenumber" v="2202"/><tag k="addr:postcode" v="78744"/></node><node id="-105" lat="30.186196" lon="-97.761065" changeset="false"><tag k="addr:street" v="Eastridge Terrace"/><tag k="addr:housenumber" v="2200"/><tag k="addr:postcode" v="78744"/></node><node id="-106" lat="30.186219" lon="-97.761195" changeset="false"><tag k="addr:street" v="Eastridge Terrace"/><tag k="addr:housenumber" v="2110"/><tag k="addr:postcode" v="78744"/></node><node id="-107" lat="30.18627" lon="-97.761295" changeset="false"><tag k="addr:street" v="Eastridge Terrace"/><tag k="addr:housenumber" v="2108"/><tag k="addr:postcode" v="78744"/></node><node id="-108" lat="30.186389" lon="-97.760792" changeset="false"><tag k="addr:street" v="Commodore Circle"/><tag k="addr:housenumber" v="6647"/><tag k="addr:postcode" v="78744"/></node><node id="-109" lat="30.185205" lon="-97.761152" changeset="false"><tag k="addr:street" v="East Bluff Drive"/><tag k="addr:housenumber" v="2211"/><tag k="addr:postcode" v="78744"/></node><node id="-110" lat="30.185241" lon="-97.761295" changeset="false"><tag k="addr:street" v="East Bluff Drive"/><tag k="addr:housenumber" v="2209"/><tag k="addr:postcode" v="78744"/></node><node id="-111" lat="30.185546" lon="-97.761043" changeset="false"><tag k="addr:street" v="East Bluff Drive"/><tag k="addr:housenumber" v="2208"/><tag k="addr:postcode" v="78744"/></node><node id="-112" lat="30.185583" lon="-97.761119" changeset="false"><tag k="addr:street" v="East Bluff Drive"/><tag k="addr:housenumber" v="2206"/><tag k="addr:postcode" v="78744"/></node><node id="-113" lat="30.185496" lon="-97.76088" changeset="false"><tag k="addr:street" v="East Bluff Drive"/><tag k="addr:housenumber" v="2210"/><tag k="addr:postcode" v="78744"/></node><node id="-114" lat="30.185611" lon="-97.761252" changeset="false"><tag k="addr:street" v="East Bluff Drive"/><tag k="addr:housenumber" v="2204"/><tag k="addr:postcode" v="78744"/></node><node id="-115" lat="30.185766" lon="-97.760759" changeset="false"><tag k="addr:street" v="Eastridge Terrace"/><tag k="addr:housenumber" v="2209"/><tag k="addr:postcode" v="78744"/></node><node id="-116" lat="30.185793" lon="-97.760874" changeset="false"><tag k="addr:street" v="Eastridge Terrace"/><tag k="addr:housenumber" v="2207"/><tag k="addr:postcode" v="78744"/></node><node id="-117" lat="30.185799" lon="-97.76105" changeset="false"><tag k="addr:street" v="Eastridge Terrace"/><tag k="addr:housenumber" v="2205"/><tag k="addr:postcode" v="78744"/></node><node id="-118" lat="30.184562" lon="-97.760782" changeset="false"><tag k="addr:street" v="Commodore Circle"/><tag k="addr:housenumber" v="6708"/><tag k="addr:postcode" v="78744"/></node><node id="-119" lat="30.185111" lon="-97.760866" changeset="false"><tag k="addr:street" v="East Bluff Drive"/><tag k="addr:housenumber" v="2215"/><tag k="addr:postcode" v="78744"/></node><node id="-120" lat="30.184974" lon="-97.761275" changeset="false"><tag k="addr:street" v="Commodore Circle"/><tag k="addr:housenumber" v="6719"/><tag k="addr:postcode" v="78744"/></node><node id="-121" lat="30.184562" lon="-97.761207" changeset="false"><tag k="addr:street" v="Commodore Circle"/><tag k="addr:housenumber" v="6714"/><tag k="addr:postcode" v="78744"/></node><node id="-122" lat="30.184939" lon="-97.761126" changeset="false"><tag k="addr:street" v="Commodore Circle"/><tag k="addr:housenumber" v="6717"/><tag k="addr:postcode" v="78744"/></node><node id="-123" lat="30.185161" lon="-97.761005" changeset="false"><tag k="addr:street" v="East Bluff Drive"/><tag k="addr:housenumber" v="2213"/><tag k="addr:postcode" v="78744"/></node><node id="-124" lat="30.184158" lon="-97.758621" changeset="false"><tag k="addr:street" v="Bendridge Trail"/><tag k="addr:housenumber" v="2317"/><tag k="addr:postcode" v="78744"/></node><node id="-125" lat="30.184226" lon="-97.758016" changeset="false"><tag k="addr:street" v="Bluestone Street"/><tag k="addr:housenumber" v="6605"/><tag k="addr:postcode" v="78744"/></node><node id="-126" lat="30.184395" lon="-97.757397" changeset="false"><tag k="addr:street" v="Branchwood Drive"/><tag k="addr:housenumber" v="6510"/><tag k="addr:postcode" v="78744"/></node><node id="-127" lat="30.184199" lon="-97.757519" changeset="false"><tag k="addr:street" v="Branchwood Drive"/><tag k="addr:housenumber" v="6600"/><tag k="addr:postcode" v="78744"/></node><node id="-128" lat="30.184225" lon="-97.758768" changeset="false"><tag k="addr:street" v="Bendridge Trail"/><tag k="addr:housenumber" v="2315"/><tag k="addr:postcode" v="78744"/></node><node id="-129" lat="30.18431" lon="-97.758901" changeset="false"><tag k="addr:street" v="Bendridge Trail"/><tag k="addr:housenumber" v="2313"/><tag k="addr:postcode" v="78744"/></node><node id="-130" lat="30.184347" lon="-97.757899" changeset="false"><tag k="addr:street" v="Bluestone Street"/><tag k="addr:housenumber" v="6603"/><tag k="addr:postcode" v="78744"/></node><node id="-131" lat="30.18437" lon="-97.759036" changeset="false"><tag k="addr:street" v="Bendridge Trail"/><tag k="addr:housenumber" v="2311"/><tag k="addr:postcode" v="78744"/></node><node id="-132" lat="30.184428" lon="-97.758365" changeset="false"><tag k="addr:street" v="Bluestone Street"/><tag k="addr:housenumber" v="6606"/><tag k="addr:postcode" v="78744"/></node><node id="-133" lat="30.183663" lon="-97.758614" changeset="false"><tag k="addr:street" v="Rockridge Drive"/><tag k="addr:housenumber" v="2320"/><tag k="addr:postcode" v="78744"/></node><node id="-134" lat="30.18377" lon="-97.757786" changeset="false"><tag k="addr:street" v="Bendridge Trail"/><tag k="addr:housenumber" v="2329"/><tag k="addr:postcode" v="78744"/></node><node id="-135" lat="30.183748" lon="-97.758733" changeset="false"><tag k="addr:street" v="Rockridge Drive"/><tag k="addr:housenumber" v="2318"/><tag k="addr:postcode" v="78744"/></node><node id="-136" lat="30.183809" lon="-97.757952" changeset="false"><tag k="addr:street" v="Bendridge Trail"/><tag k="addr:housenumber" v="2327"/><tag k="addr:postcode" v="78744"/></node><node id="-137" lat="30.183798" lon="-97.758867" changeset="false"><tag k="addr:street" v="Rockridge Drive"/><tag k="addr:housenumber" v="2316"/><tag k="addr:postcode" v="78744"/></node><node id="-138" lat="30.183878" lon="-97.758103" changeset="false"><tag k="addr:street" v="Bendridge Trail"/><tag k="addr:housenumber" v="2325"/><tag k="addr:postcode" v="78744"/></node><node id="-139" lat="30.183896" lon="-97.758997" changeset="false"><tag k="addr:street" v="Rockridge Drive"/><tag k="addr:housenumber" v="2314"/><tag k="addr:postcode" v="78744"/></node><node id="-140" lat="30.184013" lon="-97.758349" changeset="false"><tag k="addr:street" v="Bendridge Trail"/><tag k="addr:housenumber" v="2321"/><tag k="addr:postcode" v="78744"/></node><node id="-141" lat="30.184064" lon="-97.757597" changeset="false"><tag k="addr:street" v="Branchwood Drive"/><tag k="addr:housenumber" v="6602"/><tag k="addr:postcode" v="78744"/></node><node id="-142" lat="30.183941" lon="-97.758229" changeset="false"><tag k="addr:street" v="Bendridge Trail"/><tag k="addr:housenumber" v="2323"/><tag k="addr:postcode" v="78744"/></node><node id="-143" lat="30.184093" lon="-97.758498" changeset="false"><tag k="addr:street" v="Bendridge Trail"/><tag k="addr:housenumber" v="2319"/><tag k="addr:postcode" v="78744"/></node><node id="-144" lat="30.183126" lon="-97.758317" changeset="false"><tag k="addr:street" v="Rockridge Drive"/><tag k="addr:housenumber" v="2327"/><tag k="addr:postcode" v="78744"/></node><node id="-145" lat="30.183166" lon="-97.758497" changeset="false"><tag k="addr:street" v="Rockridge Drive"/><tag k="addr:housenumber" v="2325"/><tag k="addr:postcode" v="78744"/></node><node id="-146" lat="30.183485" lon="-97.759075" changeset="false"><tag k="addr:street" v="Rockridge Drive"/><tag k="addr:housenumber" v="2317"/><tag k="addr:postcode" v="78744"/></node><node id="-147" lat="30.183398" lon="-97.758946" changeset="false"><tag k="addr:street" v="Rockridge Drive"/><tag k="addr:housenumber" v="2319"/><tag k="addr:postcode" v="78744"/></node><node id="-148" lat="30.183337" lon="-97.758802" changeset="false"><tag k="addr:street" v="Rockridge Drive"/><tag k="addr:housenumber" v="2321"/><tag k="addr:postcode" v="78744"/></node><node id="-149" lat="30.183246" lon="-97.758666" changeset="false"><tag k="addr:street" v="Rockridge Drive"/><tag k="addr:housenumber" v="2323"/><tag k="addr:postcode" v="78744"/></node><node id="-150" lat="30.183438" lon="-97.758104" changeset="false"><tag k="addr:street" v="Branchwood Drive"/><tag k="addr:housenumber" v="6702"/><tag k="addr:postcode" v="78744"/></node><node id="-151" lat="30.183512" lon="-97.75834" changeset="false"><tag k="addr:street" v="Rockridge Drive"/><tag k="addr:housenumber" v="2324"/><tag k="addr:postcode" v="78744"/></node><node id="-152" lat="30.183524" lon="-97.757983" changeset="false"><tag k="addr:street" v="Branchwood Drive"/><tag k="addr:housenumber" v="6700"/><tag k="addr:postcode" v="78744"/></node><node id="-153" lat="30.183622" lon="-97.758456" changeset="false"><tag k="addr:street" v="Rockridge Drive"/><tag k="addr:housenumber" v="2322"/><tag k="addr:postcode" v="78744"/></node><node id="-154" lat="30.182033" lon="-97.758806" changeset="false"><tag k="addr:street" v="Bucks Run"/><tag k="addr:housenumber" v="2506"/><tag k="addr:postcode" v="78744"/></node><node id="-155" lat="30.182449" lon="-97.758799" changeset="false"><tag k="addr:street" v="Bitter Creek Drive"/><tag k="addr:housenumber" v="2327"/><tag k="addr:postcode" v="78744"/></node><node id="-156" lat="30.182358" lon="-97.758659" changeset="false"><tag k="addr:street" v="Bitter Creek Drive"/><tag k="addr:housenumber" v="2329"/><tag k="addr:postcode" v="78744"/></node><node id="-157" lat="30.182482" lon="-97.758973" changeset="false"><tag k="addr:street" v="Bitter Creek Drive"/><tag k="addr:housenumber" v="2325"/><tag k="addr:postcode" v="78744"/></node><node id="-158" lat="30.182035" lon="-97.759005" changeset="false"><tag k="addr:street" v="Bucks Run"/><tag k="addr:housenumber" v="2504"/><tag k="addr:postcode" v="78744"/></node><node id="-159" lat="30.182778" lon="-97.758505" changeset="false"><tag k="addr:street" v="Bitter Creek Drive"/><tag k="addr:housenumber" v="2326"/><tag k="addr:postcode" v="78744"/></node><node id="-160" lat="30.182802" lon="-97.75871" changeset="false"><tag k="addr:street" v="Bitter Creek Drive"/><tag k="addr:housenumber" v="2324"/><tag k="addr:postcode" v="78744"/></node><node id="-161" lat="30.182978" lon="-97.759028" changeset="false"><tag k="addr:street" v="Bitter Creek Drive"/><tag k="addr:housenumber" v="2320"/><tag k="addr:postcode" v="78744"/></node><node id="-162" lat="30.182918" lon="-97.758878" changeset="false"><tag k="addr:street" v="Bitter Creek Drive"/><tag k="addr:housenumber" v="2322"/><tag k="addr:postcode" v="78744"/></node><node id="-163" lat="30.183642" lon="-97.759325" changeset="false"><tag k="addr:street" v="Rockridge Drive"/><tag k="addr:housenumber" v="2313"/><tag k="addr:postcode" v="78744"/></node><node id="-164" lat="30.183686" lon="-97.759475" changeset="false"><tag k="addr:street" v="Rockridge Drive"/><tag k="addr:housenumber" v="2311"/><tag k="addr:postcode" v="78744"/></node><node id="-165" lat="30.183774" lon="-97.75961" changeset="false"><tag k="addr:street" v="Rockridge Drive"/><tag k="addr:housenumber" v="2309"/><tag k="addr:postcode" v="78744"/></node><node id="-166" lat="30.183856" lon="-97.75973" changeset="false"><tag k="addr:street" v="Rockridge Drive"/><tag k="addr:housenumber" v="2307"/><tag k="addr:postcode" v="78744"/></node><node id="-167" lat="30.184001" lon="-97.759122" changeset="false"><tag k="addr:street" v="Rockridge Drive"/><tag k="addr:housenumber" v="2312"/><tag k="addr:postcode" v="78744"/></node><node id="-168" lat="30.184034" lon="-97.759276" changeset="false"><tag k="addr:street" v="Rockridge Drive"/><tag k="addr:housenumber" v="2310"/><tag k="addr:postcode" v="78744"/></node><node id="-169" lat="30.184127" lon="-97.75938" changeset="false"><tag k="addr:street" v="Rockridge Drive"/><tag k="addr:housenumber" v="2308"/><tag k="addr:postcode" v="78744"/></node><node id="-170" lat="30.18419" lon="-97.759515" changeset="false"><tag k="addr:street" v="Rockridge Drive"/><tag k="addr:housenumber" v="2306"/><tag k="addr:postcode" v="78744"/></node><node id="-171" lat="30.184254" lon="-97.75968" changeset="false"><tag k="addr:street" v="Rockridge Drive"/><tag k="addr:housenumber" v="2304"/><tag k="addr:postcode" v="78744"/></node><node id="-172" lat="30.18445" lon="-97.759167" changeset="false"><tag k="addr:street" v="Bendridge Trail"/><tag k="addr:housenumber" v="2309"/><tag k="addr:postcode" v="78744"/></node><node id="-173" lat="30.184363" lon="-97.759765" changeset="false"><tag k="addr:street" v="Rockridge Drive"/><tag k="addr:housenumber" v="2302"/><tag k="addr:postcode" v="78744"/></node><node id="-174" lat="30.182878" lon="-97.759663" changeset="false"><tag k="addr:street" v="Bitter Creek Drive"/><tag k="addr:housenumber" v="2315"/><tag k="addr:postcode" v="78744"/></node><node id="-175" lat="30.183066" lon="-97.759152" changeset="false"><tag k="addr:street" v="Bitter Creek Drive"/><tag k="addr:housenumber" v="2318"/><tag k="addr:postcode" v="78744"/></node><node id="-176" lat="30.183204" lon="-97.759415" changeset="false"><tag k="addr:street" v="Bitter Creek Drive"/><tag k="addr:housenumber" v="2314"/><tag k="addr:postcode" v="78744"/></node><node id="-177" lat="30.183135" lon="-97.759283" changeset="false"><tag k="addr:street" v="Bitter Creek Drive"/><tag k="addr:housenumber" v="2316"/><tag k="addr:postcode" v="78744"/></node><node id="-178" lat="30.183546" lon="-97.759212" changeset="false"><tag k="addr:street" v="Rockridge Drive"/><tag k="addr:housenumber" v="2315"/><tag k="addr:postcode" v="78744"/></node><node id="-179" lat="30.183275" lon="-97.759553" changeset="false"><tag k="addr:street" v="Bitter Creek Drive"/><tag k="addr:housenumber" v="2312"/><tag k="addr:postcode" v="78744"/></node><node id="-180" lat="30.183349" lon="-97.759696" changeset="false"><tag k="addr:street" v="Bitter Creek Drive"/><tag k="addr:housenumber" v="2310"/><tag k="addr:postcode" v="78744"/></node><node id="-181" lat="30.182966" lon="-97.759783" changeset="false"><tag k="addr:street" v="Bitter Creek Drive"/><tag k="addr:housenumber" v="2313"/><tag k="addr:postcode" v="78744"/></node><node id="-182" lat="30.181849" lon="-97.759504" changeset="false"><tag k="addr:street" v="Bucks Run"/><tag k="addr:housenumber" v="2501"/><tag k="addr:postcode" v="78744"/></node><node id="-183" lat="30.182178" lon="-97.759154" changeset="false"><tag k="addr:street" v="Bucks Run"/><tag k="addr:housenumber" v="2502"/><tag k="addr:postcode" v="78744"/></node><node id="-184" lat="30.182286" lon="-97.759385" changeset="false"><tag k="addr:street" v="Bucks Run"/><tag k="addr:housenumber" v="2410"/><tag k="addr:postcode" v="78744"/></node><node id="-185" lat="30.182325" lon="-97.759654" changeset="false"><tag k="addr:street" v="Bucks Run"/><tag k="addr:housenumber" v="2408"/><tag k="addr:postcode" v="78744"/></node><node id="-186" lat="30.182459" lon="-97.759749" changeset="false"><tag k="addr:street" v="Bucks Run"/><tag k="addr:housenumber" v="2406"/><tag k="addr:postcode" v="78744"/></node><node id="-187" lat="30.182584" lon="-97.75911" changeset="false"><tag k="addr:street" v="Bitter Creek Drive"/><tag k="addr:housenumber" v="2323"/><tag k="addr:postcode" v="78744"/></node><node id="-188" lat="30.18267" lon="-97.759273" changeset="false"><tag k="addr:street" v="Bitter Creek Drive"/><tag k="addr:housenumber" v="2321"/><tag k="addr:postcode" v="78744"/></node><node id="-189" lat="30.182747" lon="-97.759412" changeset="false"><tag k="addr:street" v="Bitter Creek Drive"/><tag k="addr:housenumber" v="2319"/><tag k="addr:postcode" v="78744"/></node><node id="-190" lat="30.182801" lon="-97.759525" changeset="false"><tag k="addr:street" v="Bitter Creek Drive"/><tag k="addr:housenumber" v="2317"/><tag k="addr:postcode" v="78744"/></node><node id="-191" lat="30.180992" lon="-97.759538" changeset="false"><tag k="addr:street" v="Branchwood Drive"/><tag k="addr:housenumber" v="6902"/><tag k="addr:postcode" v="78744"/></node><node id="-192" lat="30.180851" lon="-97.759643" changeset="false"><tag k="addr:street" v="Branchwood Drive"/><tag k="addr:housenumber" v="6904"/><tag k="addr:postcode" v="78744"/></node><node id="-193" lat="30.181144" lon="-97.759458" changeset="false"><tag k="addr:street" v="Branchwood Drive"/><tag k="addr:housenumber" v="6900"/><tag k="addr:postcode" v="78744"/></node><node id="-194" lat="30.181289" lon="-97.759394" changeset="false"><tag k="addr:street" v="Branchwood Drive"/><tag k="addr:housenumber" v="6806"/><tag k="addr:postcode" v="78744"/></node><node id="-195" lat="30.181487" lon="-97.759679" changeset="false"><tag k="addr:street" v="Bitteroot Trail"/><tag k="addr:housenumber" v="6803"/><tag k="addr:postcode" v="78744"/></node><node id="-196" lat="30.181654" lon="-97.759066" changeset="false"><tag k="addr:street" v="Bucks Run"/><tag k="addr:housenumber" v="2507"/><tag k="addr:postcode" v="78744"/></node><node id="-197" lat="30.181709" lon="-97.759222" changeset="false"><tag k="addr:street" v="Bucks Run"/><tag k="addr:housenumber" v="2505"/><tag k="addr:postcode" v="78744"/></node><node id="-198" lat="30.181789" lon="-97.759356" changeset="false"><tag k="addr:street" v="Bucks Run"/><tag k="addr:housenumber" v="2503"/><tag k="addr:postcode" v="78744"/></node><node id="-199" lat="30.183334" lon="-97.760452" changeset="false"><tag k="addr:street" v="Bitter Creek Drive"/><tag k="addr:housenumber" v="2303"/><tag k="addr:postcode" v="78744"/></node><node id="-200" lat="30.183432" lon="-97.759815" changeset="false"><tag k="addr:street" v="Bitter Creek Drive"/><tag k="addr:housenumber" v="2308"/><tag k="addr:postcode" v="78744"/></node><node id="-201" lat="30.183487" lon="-97.759963" changeset="false"><tag k="addr:street" v="Bitter Creek Drive"/><tag k="addr:housenumber" v="2306"/><tag k="addr:postcode" v="78744"/></node><node id="-202" lat="30.183577" lon="-97.760079" changeset="false"><tag k="addr:street" v="Bitter Creek Drive"/><tag k="addr:housenumber" v="2304"/><tag k="addr:postcode" v="78744"/></node><node id="-203" lat="30.184427" lon="-97.759919" changeset="false"><tag k="addr:street" v="Rockridge Drive"/><tag k="addr:housenumber" v="2300"/><tag k="addr:postcode" v="78744"/></node><node id="-204" lat="30.183947" lon="-97.759868" changeset="false"><tag k="addr:street" v="Rockridge Drive"/><tag k="addr:housenumber" v="2305"/><tag k="addr:postcode" v="78744"/></node><node id="-205" lat="30.183646" lon="-97.760217" changeset="false"><tag k="addr:street" v="Bitter Creek Drive"/><tag k="addr:housenumber" v="2302"/><tag k="addr:postcode" v="78744"/></node><node id="-206" lat="30.18407" lon="-97.760128" changeset="false"><tag k="addr:street" v="Rockridge Drive"/><tag k="addr:housenumber" v="2301"/><tag k="addr:postcode" v="78744"/></node><node id="-207" lat="30.183794" lon="-97.760348" changeset="false"><tag k="addr:street" v="Bitter Creek Drive"/><tag k="addr:housenumber" v="2300"/><tag k="addr:postcode" v="78744"/></node><node id="-208" lat="30.184389" lon="-97.760519" changeset="false"><tag k="addr:street" v="Stonleigh Place"/><tag k="addr:housenumber" v="6704"/><tag k="addr:postcode" v="78744"/></node><node id="-209" lat="30.184235" lon="-97.760537" changeset="false"><tag k="addr:street" v="Stonleigh Place"/><tag k="addr:housenumber" v="6706"/><tag k="addr:postcode" v="78744"/></node><node id="-210" lat="30.184021" lon="-97.759988" changeset="false"><tag k="addr:street" v="Rockridge Drive"/><tag k="addr:housenumber" v="2303"/><tag k="addr:postcode" v="78744"/></node><node id="-211" lat="30.182054" lon="-97.759828" changeset="false"><tag k="addr:street" v="Bucks Run"/><tag k="addr:housenumber" v="2407"/><tag k="addr:postcode" v="78744"/></node><node id="-212" lat="30.18223" lon="-97.760105" changeset="false"><tag k="addr:street" v="Bucks Run"/><tag k="addr:housenumber" v="2403"/><tag k="addr:postcode" v="78744"/></node><node id="-213" lat="30.182255" lon="-97.760272" changeset="false"><tag k="addr:street" v="Bucks Run"/><tag k="addr:housenumber" v="2401"/><tag k="addr:postcode" v="78744"/></node><node id="-214" lat="30.182766" lon="-97.760501" changeset="false"><tag k="addr:street" v="Bucks Run"/><tag k="addr:housenumber" v="2400"/><tag k="addr:postcode" v="78744"/></node><node id="-215" lat="30.182582" lon="-97.759986" changeset="false"><tag k="addr:street" v="Bucks Run"/><tag k="addr:housenumber" v="2404"/><tag k="addr:postcode" v="78744"/></node><node id="-216" lat="30.183024" lon="-97.759927" changeset="false"><tag k="addr:street" v="Bitter Creek Drive"/><tag k="addr:housenumber" v="2311"/><tag k="addr:postcode" v="78744"/></node><node id="-217" lat="30.183117" lon="-97.760051" changeset="false"><tag k="addr:street" v="Bitter Creek Drive"/><tag k="addr:housenumber" v="2309"/><tag k="addr:postcode" v="78744"/></node><node id="-218" lat="30.183185" lon="-97.760191" changeset="false"><tag k="addr:street" v="Bitter Creek Drive"/><tag k="addr:housenumber" v="2307"/><tag k="addr:postcode" v="78744"/></node><node id="-219" lat="30.18326" lon="-97.760314" changeset="false"><tag k="addr:street" v="Bitter Creek Drive"/><tag k="addr:housenumber" v="2305"/><tag k="addr:postcode" v="78744"/></node><node id="-220" lat="30.18111" lon="-97.759917" changeset="false"><tag k="addr:street" v="Bitteroot Trail"/><tag k="addr:housenumber" v="6809"/><tag k="addr:postcode" v="78744"/></node><node id="-221" lat="30.181148" lon="-97.76044" changeset="false"><tag k="addr:street" v="Bitteroot Trail"/><tag k="addr:housenumber" v="6900"/><tag k="addr:postcode" v="78744"/></node><node id="-222" lat="30.18124" lon="-97.759849" changeset="false"><tag k="addr:street" v="Bitteroot Trail"/><tag k="addr:housenumber" v="6807"/><tag k="addr:postcode" v="78744"/></node><node id="-223" lat="30.181287" lon="-97.760377" changeset="false"><tag k="addr:street" v="Bitteroot Trail"/><tag k="addr:housenumber" v="6808"/><tag k="addr:postcode" v="78744"/></node><node id="-224" lat="30.181365" lon="-97.759779" changeset="false"><tag k="addr:street" v="Bitteroot Trail"/><tag k="addr:housenumber" v="6805"/><tag k="addr:postcode" v="78744"/></node><node id="-225" lat="30.181417" lon="-97.760286" changeset="false"><tag k="addr:street" v="Bitteroot Trail"/><tag k="addr:housenumber" v="6806"/><tag k="addr:postcode" v="78744"/></node><node id="-226" lat="30.181548" lon="-97.760229" changeset="false"><tag k="addr:street" v="Bitteroot Trail"/><tag k="addr:housenumber" v="6804"/><tag k="addr:postcode" v="78744"/></node><node id="-227" lat="30.181681" lon="-97.760148" changeset="false"><tag k="addr:street" v="Bitteroot Trail"/><tag k="addr:housenumber" v="6802"/><tag k="addr:postcode" v="78744"/></node><node id="-228" lat="30.181841" lon="-97.760465" changeset="false"><tag k="addr:street" v="Trendal Lane"/><tag k="addr:housenumber" v="6805"/><tag k="addr:postcode" v="78744"/></node><node id="-229" lat="30.180405" lon="-97.759913" changeset="false"><tag k="addr:street" v="Branchwood Drive"/><tag k="addr:housenumber" v="6910"/><tag k="addr:postcode" v="78744"/></node><node id="-230" lat="30.180267" lon="-97.75999" changeset="false"><tag k="addr:street" v="Branchwood Drive"/><tag k="addr:housenumber" v="6912"/><tag k="addr:postcode" v="78744"/></node><node id="-231" lat="30.180376" lon="-97.760381" changeset="false"><tag k="addr:street" v="Bitteroot Trail"/><tag k="addr:housenumber" v="7003"/><tag k="addr:postcode" v="78744"/></node><node id="-232" lat="30.180499" lon="-97.760307" changeset="false"><tag k="addr:street" v="Bitteroot Trail"/><tag k="addr:housenumber" v="7001"/><tag k="addr:postcode" v="78744"/></node><node id="-233" lat="30.180555" lon="-97.759826" changeset="false"><tag k="addr:street" v="Branchwood Drive"/><tag k="addr:housenumber" v="6908"/><tag k="addr:postcode" v="78744"/></node><node id="-234" lat="30.180985" lon="-97.759998" changeset="false"><tag k="addr:street" v="Bitteroot Trail"/><tag k="addr:housenumber" v="6901"/><tag k="addr:postcode" v="78744"/></node><node id="-235" lat="30.180691" lon="-97.759728" changeset="false"><tag k="addr:street" v="Branchwood Drive"/><tag k="addr:housenumber" v="6906"/><tag k="addr:postcode" v="78744"/></node><node id="-236" lat="30.180751" lon="-97.760153" changeset="false"><tag k="addr:street" v="Bitteroot Trail"/><tag k="addr:housenumber" v="6905"/><tag k="addr:postcode" v="78744"/></node><node id="-237" lat="30.180862" lon="-97.760057" changeset="false"><tag k="addr:street" v="Bitteroot Trail"/><tag k="addr:housenumber" v="6903"/><tag k="addr:postcode" v="78744"/></node><node id="-238" lat="30.180624" lon="-97.760241" changeset="false"><tag k="addr:street" v="Bitteroot Trail"/><tag k="addr:housenumber" v="6907"/><tag k="addr:postcode" v="78744"/></node><node id="-239" lat="30.181012" lon="-97.760543" changeset="false"><tag k="addr:street" v="Bitteroot Trail"/><tag k="addr:housenumber" v="6902"/><tag k="addr:postcode" v="78744"/></node><node id="-240" lat="30.183742" lon="-97.761023" changeset="false"><tag k="addr:street" v="Bitter Creek Drive"/><tag k="addr:housenumber" v="2219"/><tag k="addr:postcode" v="78744"/></node><node id="-241" lat="30.184199" lon="-97.761317" changeset="false"><tag k="addr:street" v="Bitter Creek Drive"/><tag k="addr:housenumber" v="2212"/><tag k="addr:postcode" v="78744"/></node><node id="-242" lat="30.184013" lon="-97.760675" changeset="false"><tag k="addr:street" v="Stonleigh Place"/><tag k="addr:housenumber" v="6710"/><tag k="addr:postcode" v="78744"/></node><node id="-243" lat="30.184127" lon="-97.760632" changeset="false"><tag k="addr:street" v="Stonleigh Place"/><tag k="addr:housenumber" v="6708"/><tag k="addr:postcode" v="78744"/></node><node id="-244" lat="30.184519" lon="-97.761067" changeset="false"><tag k="addr:street" v="Commodore Circle"/><tag k="addr:housenumber" v="6712"/><tag k="addr:postcode" v="78744"/></node><node id="-245" lat="30.184156" lon="-97.761126" changeset="false"><tag k="addr:street" v="Bitter Creek Drive"/><tag k="addr:housenumber" v="2214"/><tag k="addr:postcode" v="78744"/></node><node id="-246" lat="30.184463" lon="-97.760916" changeset="false"><tag k="addr:street" v="Commodore Circle"/><tag k="addr:housenumber" v="6710"/><tag k="addr:postcode" v="78744"/></node><node id="-247" lat="30.182225" lon="-97.761202" changeset="false"><tag k="addr:street" v="Stonleigh Place"/><tag k="addr:housenumber" v="6805"/><tag k="addr:postcode" v="78744"/></node><node id="-248" lat="30.182404" lon="-97.760676" changeset="false"><tag k="addr:street" v="Trendal Lane"/><tag k="addr:housenumber" v="6802"/><tag k="addr:postcode" v="78744"/></node><node id="-249" lat="30.182591" lon="-97.760982" changeset="false"><tag k="addr:street" v="Stonleigh Place"/><tag k="addr:housenumber" v="6803"/><tag k="addr:postcode" v="78744"/></node><node id="-250" lat="30.182597" lon="-97.760647" changeset="false"><tag k="addr:street" v="Trendal Lane"/><tag k="addr:housenumber" v="6800"/><tag k="addr:postcode" v="78744"/></node><node id="-251" lat="30.182733" lon="-97.760903" changeset="false"><tag k="addr:street" v="Stonleigh Place"/><tag k="addr:housenumber" v="6801"/><tag k="addr:postcode" v="78744"/></node><node id="-252" lat="30.183419" lon="-97.760571" changeset="false"><tag k="addr:street" v="Bitter Creek Drive"/><tag k="addr:housenumber" v="2301"/><tag k="addr:postcode" v="78744"/></node><node id="-253" lat="30.183692" lon="-97.760874" changeset="false"><tag k="addr:street" v="Bitter Creek Drive"/><tag k="addr:housenumber" v="2221"/><tag k="addr:postcode" v="78744"/></node><node id="-254" lat="30.182888" lon="-97.760807" changeset="false"><tag k="addr:street" v="Stonleigh Place"/><tag k="addr:housenumber" v="6719"/><tag k="addr:postcode" v="78744"/></node><node id="-255" lat="30.183306" lon="-97.761118" changeset="false"><tag k="addr:street" v="Blue Dawn Trail"/><tag k="addr:housenumber" v="6800"/><tag k="addr:postcode" v="78744"/></node><node id="-256" lat="30.183365" lon="-97.761288" changeset="false"><tag k="addr:street" v="Blue Dawn Trail"/><tag k="addr:housenumber" v="6802"/><tag k="addr:postcode" v="78744"/></node><node id="-257" lat="30.181211" lon="-97.760876" changeset="false"><tag k="addr:street" v="Trendal Lane"/><tag k="addr:housenumber" v="6907"/><tag k="addr:postcode" v="78744"/></node><node id="-258" lat="30.181567" lon="-97.761191" changeset="false"><tag k="addr:street" v="Trendal Lane"/><tag k="addr:housenumber" v="6904"/><tag k="addr:postcode" v="78744"/></node><node id="-259" lat="30.181592" lon="-97.760634" changeset="false"><tag k="addr:street" v="Trendal Lane"/><tag k="addr:housenumber" v="6901"/><tag k="addr:postcode" v="78744"/></node><node id="-260" lat="30.181467" lon="-97.76073" changeset="false"><tag k="addr:street" v="Trendal Lane"/><tag k="addr:housenumber" v="6903"/><tag k="addr:postcode" v="78744"/></node><node id="-261" lat="30.181334" lon="-97.760806" changeset="false"><tag k="addr:street" v="Trendal Lane"/><tag k="addr:housenumber" v="6905"/><tag k="addr:postcode" v="78744"/></node><node id="-262" lat="30.181684" lon="-97.761124" changeset="false"><tag k="addr:street" v="Trendal Lane"/><tag k="addr:housenumber" v="6902"/><tag k="addr:postcode" v="78744"/></node><node id="-263" lat="30.181711" lon="-97.760554" changeset="false"><tag k="addr:street" v="Trendal Lane"/><tag k="addr:housenumber" v="6807"/><tag k="addr:postcode" v="78744"/></node><node id="-264" lat="30.181809" lon="-97.761045" changeset="false"><tag k="addr:street" v="Trendal Lane"/><tag k="addr:housenumber" v="6900"/><tag k="addr:postcode" v="78744"/></node><node id="-265" lat="30.181936" lon="-97.760953" changeset="false"><tag k="addr:street" v="Trendal Lane"/><tag k="addr:housenumber" v="6806"/><tag k="addr:postcode" v="78744"/></node><node id="-266" lat="30.182051" lon="-97.760894" changeset="false"><tag k="addr:street" v="Trendal Lane"/><tag k="addr:housenumber" v="6804"/><tag k="addr:postcode" v="78744"/></node><node id="-267" lat="30.180455" lon="-97.760885" changeset="false"><tag k="addr:street" v="Bitteroot Trail"/><tag k="addr:housenumber" v="7002"/><tag k="addr:postcode" v="78744"/></node><node id="-268" lat="30.180618" lon="-97.760776" changeset="false"><tag k="addr:street" v="Bitteroot Trail"/><tag k="addr:housenumber" v="7000"/><tag k="addr:postcode" v="78744"/></node><node id="-269" lat="30.180559" lon="-97.761276" changeset="false"><tag k="addr:street" v="Trendal Lane"/><tag k="addr:housenumber" v="7005"/><tag k="addr:postcode" v="78744"/></node><node id="-270" lat="30.181086" lon="-97.760937" changeset="false"><tag k="addr:street" v="Trendal Lane"/><tag k="addr:housenumber" v="6909"/><tag k="addr:postcode" v="78744"/></node><node id="-271" lat="30.180703" lon="-97.761174" changeset="false"><tag k="addr:street" v="Trendal Lane"/><tag k="addr:housenumber" v="7003"/><tag k="addr:postcode" v="78744"/></node><node id="-272" lat="30.180948" lon="-97.761029" changeset="false"><tag k="addr:street" v="Trendal Lane"/><tag k="addr:housenumber" v="6911"/><tag k="addr:postcode" v="78744"/></node><node id="-273" lat="30.180837" lon="-97.761118" changeset="false"><tag k="addr:street" v="Trendal Lane"/><tag k="addr:housenumber" v="7001"/><tag k="addr:postcode" v="78744"/></node><node id="-274" lat="30.186594" lon="-97.761438" changeset="false"><tag k="addr:street" v="Commodore Circle"/><tag k="addr:housenumber" v="6637"/><tag k="addr:postcode" v="78744"/></node><node id="-275" lat="30.186582" lon="-97.761566" changeset="false"><tag k="addr:street" v="Commodore Circle"/><tag k="addr:housenumber" v="6635"/><tag k="addr:postcode" v="78744"/></node><node id="-276" lat="30.187115" lon="-97.761895" changeset="false"><tag k="addr:street" v="Commodore Circle"/><tag k="addr:housenumber" v="6628"/><tag k="addr:postcode" v="78744"/></node><node id="-277" lat="30.187033" lon="-97.761633" changeset="false"><tag k="addr:street" v="Commodore Circle"/><tag k="addr:housenumber" v="6632"/><tag k="addr:postcode" v="78744"/></node><node id="-278" lat="30.187071" lon="-97.761754" changeset="false"><tag k="addr:street" v="Commodore Circle"/><tag k="addr:housenumber" v="6630"/><tag k="addr:postcode" v="78744"/></node><node id="-279" lat="30.186986" lon="-97.76149" changeset="false"><tag k="addr:street" v="Commodore Circle"/><tag k="addr:housenumber" v="6634"/><tag k="addr:postcode" v="78744"/></node><node id="-280" lat="30.186947" lon="-97.76137" changeset="false"><tag k="addr:street" v="Commodore Circle"/><tag k="addr:housenumber" v="6636"/><tag k="addr:postcode" v="78744"/></node><node id="-281" lat="30.186506" lon="-97.76133" changeset="false"><tag k="addr:street" v="Commodore Circle"/><tag k="addr:housenumber" v="6639"/><tag k="addr:postcode" v="78744"/></node><node id="-282" lat="30.185988" lon="-97.761645" changeset="false"><tag k="addr:street" v="Eastridge Terrace"/><tag k="addr:housenumber" v="2107"/><tag k="addr:postcode" v="78744"/></node><node id="-283" lat="30.186039" lon="-97.76176" changeset="false"><tag k="addr:street" v="Eastridge Terrace"/><tag k="addr:housenumber" v="2105"/><tag k="addr:postcode" v="78744"/></node><node id="-284" lat="30.18607" lon="-97.761913" changeset="false"><tag k="addr:street" v="Eastridge Terrace"/><tag k="addr:housenumber" v="2103"/><tag k="addr:postcode" v="78744"/></node><node id="-285" lat="30.18632" lon="-97.761488" changeset="false"><tag k="addr:street" v="Eastridge Terrace"/><tag k="addr:housenumber" v="2106"/><tag k="addr:postcode" v="78744"/></node><node id="-286" lat="30.186383" lon="-97.761619" changeset="false"><tag k="addr:street" v="Eastridge Terrace"/><tag k="addr:housenumber" v="2104"/><tag k="addr:postcode" v="78744"/></node><node id="-287" lat="30.186416" lon="-97.761734" changeset="false"><tag k="addr:street" v="Eastridge Terrace"/><tag k="addr:housenumber" v="2102"/><tag k="addr:postcode" v="78744"/></node><node id="-288" lat="30.185971" lon="-97.761524" changeset="false"><tag k="addr:street" v="Eastridge Terrace"/><tag k="addr:housenumber" v="2109"/><tag k="addr:postcode" v="78744"/></node><node id="-289" lat="30.185279" lon="-97.76141" changeset="false"><tag k="addr:street" v="East Bluff Drive"/><tag k="addr:housenumber" v="2207"/><tag k="addr:postcode" v="78744"/></node><node id="-290" lat="30.185323" lon="-97.761531" changeset="false"><tag k="addr:street" v="East Bluff Drive"/><tag k="addr:housenumber" v="2205"/><tag k="addr:postcode" v="78744"/></node><node id="-291" lat="30.185358" lon="-97.761667" changeset="false"><tag k="addr:street" v="East Bluff Drive"/><tag k="addr:housenumber" v="2203"/><tag k="addr:postcode" v="78744"/></node><node id="-292" lat="30.185405" lon="-97.761783" changeset="false"><tag k="addr:street" v="East Bluff Drive"/><tag k="addr:housenumber" v="2201"/><tag k="addr:postcode" v="78744"/></node><node id="-293" lat="30.185432" lon="-97.761919" changeset="false"><tag k="addr:street" v="East Bluff Drive"/><tag k="addr:housenumber" v="2117"/><tag k="addr:postcode" v="78744"/></node><node id="-294" lat="30.185687" lon="-97.76149" changeset="false"><tag k="addr:street" v="East Bluff Drive"/><tag k="addr:housenumber" v="2200"/><tag k="addr:postcode" v="78744"/></node><node id="-295" lat="30.185805" lon="-97.761865" changeset="false"><tag k="addr:street" v="East Bluff Drive"/><tag k="addr:housenumber" v="2116"/><tag k="addr:postcode" v="78744"/></node><node id="-296" lat="30.18573" lon="-97.761678" changeset="false"><tag k="addr:street" v="East Bluff Drive"/><tag k="addr:housenumber" v="2120"/><tag k="addr:postcode" v="78744"/></node><node id="-297" lat="30.185765" lon="-97.761794" changeset="false"><tag k="addr:street" v="East Bluff Drive"/><tag k="addr:housenumber" v="2118"/><tag k="addr:postcode" v="78744"/></node><node id="-298" lat="30.185661" lon="-97.76142" changeset="false"><tag k="addr:street" v="East Bluff Drive"/><tag k="addr:housenumber" v="2202"/><tag k="addr:postcode" v="78744"/></node><node id="-299" lat="30.185928" lon="-97.761393" changeset="false"><tag k="addr:street" v="Eastridge Terrace"/><tag k="addr:housenumber" v="2111"/><tag k="addr:postcode" v="78744"/></node><node id="-300" lat="30.185061" lon="-97.761511" changeset="false"><tag k="addr:street" v="Commodore Circle"/><tag k="addr:housenumber" v="6723"/><tag k="addr:postcode" v="78744"/></node><node id="-301" lat="30.185017" lon="-97.761396" changeset="false"><tag k="addr:street" v="Commodore Circle"/><tag k="addr:housenumber" v="6721"/><tag k="addr:postcode" v="78744"/></node><node id="-302" lat="30.184725" lon="-97.761756" changeset="false"><tag k="addr:street" v="Commodore Circle"/><tag k="addr:housenumber" v="6722"/><tag k="addr:postcode" v="78744"/></node><node id="-303" lat="30.184673" lon="-97.761622" changeset="false"><tag k="addr:street" v="Commodore Circle"/><tag k="addr:housenumber" v="6720"/><tag k="addr:postcode" v="78744"/></node><node id="-304" lat="30.184726" lon="-97.761891" changeset="false"><tag k="addr:street" v="Commodore Circle"/><tag k="addr:housenumber" v="6724"/><tag k="addr:postcode" v="78744"/></node><node id="-305" lat="30.185129" lon="-97.761768" changeset="false"><tag k="addr:street" v="Commodore Circle"/><tag k="addr:housenumber" v="6727"/><tag k="addr:postcode" v="78744"/></node><node id="-306" lat="30.185094" lon="-97.761648" changeset="false"><tag k="addr:street" v="Commodore Circle"/><tag k="addr:housenumber" v="6725"/><tag k="addr:postcode" v="78744"/></node><node id="-307" lat="30.185173" lon="-97.761889" changeset="false"><tag k="addr:street" v="Commodore Circle"/><tag k="addr:housenumber" v="6729"/><tag k="addr:postcode" v="78744"/></node><node id="-308" lat="30.186754" lon="-97.762362" changeset="false"><tag k="addr:street" v="Commodore Circle"/><tag k="addr:housenumber" v="6615"/><tag k="addr:postcode" v="78744"/></node><node id="-309" lat="30.187183" lon="-97.762164" changeset="false"><tag k="addr:street" v="Commodore Circle"/><tag k="addr:housenumber" v="6624"/><tag k="addr:postcode" v="78744"/></node><node id="-310" lat="30.187205" lon="-97.762289" changeset="false"><tag k="addr:street" v="Commodore Circle"/><tag k="addr:housenumber" v="6622"/><tag k="addr:postcode" v="78744"/></node><node id="-311" lat="30.18715" lon="-97.762561" changeset="false"><tag k="addr:street" v="Commodore Circle"/><tag k="addr:housenumber" v="6618"/><tag k="addr:postcode" v="78744"/></node><node id="-312" lat="30.187151" lon="-97.762038" changeset="false"><tag k="addr:street" v="Commodore Circle"/><tag k="addr:housenumber" v="6626"/><tag k="addr:postcode" v="78744"/></node><node id="-313" lat="30.187222" lon="-97.762439" changeset="false"><tag k="addr:street" v="Commodore Circle"/><tag k="addr:housenumber" v="6620"/><tag k="addr:postcode" v="78744"/></node><node id="-314" lat="30.186591" lon="-97.76212" changeset="false"><tag k="addr:street" v="Woodhill Path"/><tag k="addr:housenumber" v="6604"/><tag k="addr:postcode" v="78744"/></node><node id="-315" lat="30.18641" lon="-97.762248" changeset="false"><tag k="addr:street" v="Woodhill Path"/><tag k="addr:housenumber" v="6608"/><tag k="addr:postcode" v="78744"/></node><node id="-316" lat="30.18631" lon="-97.762357" changeset="false"><tag k="addr:street" v="Woodhill Path"/><tag k="addr:housenumber" v="6610"/><tag k="addr:postcode" v="78744"/></node><node id="-317" lat="30.186456" lon="-97.762571" changeset="false"><tag k="addr:street" v="Commodore Circle"/><tag k="addr:housenumber" v="6609"/><tag k="addr:postcode" v="78744"/></node><node id="-318" lat="30.186496" lon="-97.762177" changeset="false"><tag k="addr:street" v="Woodhill Path"/><tag k="addr:housenumber" v="6606"/><tag k="addr:postcode" v="78744"/></node><node id="-319" lat="30.186579" lon="-97.762476" changeset="false"><tag k="addr:street" v="Commodore Circle"/><tag k="addr:housenumber" v="6611"/><tag k="addr:postcode" v="78744"/></node><node id="-320" lat="30.186674" lon="-97.76242" changeset="false"><tag k="addr:street" v="Commodore Circle"/><tag k="addr:housenumber" v="6613"/><tag k="addr:postcode" v="78744"/></node><node id="-321" lat="30.186692" lon="-97.762059" changeset="false"><tag k="addr:street" v="Woodhill Path"/><tag k="addr:housenumber" v="6602"/><tag k="addr:postcode" v="78744"/></node><node id="-322" lat="30.18547" lon="-97.762051" changeset="false"><tag k="addr:street" v="East Bluff Drive"/><tag k="addr:housenumber" v="2115"/><tag k="addr:postcode" v="78744"/></node><node id="-323" lat="30.185514" lon="-97.762176" changeset="false"><tag k="addr:street" v="East Bluff Drive"/><tag k="addr:housenumber" v="2113"/><tag k="addr:postcode" v="78744"/></node><node id="-324" lat="30.185673" lon="-97.762559" changeset="false"><tag k="addr:street" v="East Bluff Drive"/><tag k="addr:housenumber" v="2109"/><tag k="addr:postcode" v="78744"/></node><node id="-325" lat="30.184848" lon="-97.76212" changeset="false"><tag k="addr:street" v="Commodore Circle"/><tag k="addr:housenumber" v="6728"/><tag k="addr:postcode" v="78744"/></node><node id="-326" lat="30.184798" lon="-97.761973" changeset="false"><tag k="addr:street" v="Commodore Circle"/><tag k="addr:housenumber" v="6726"/><tag k="addr:postcode" v="78744"/></node><node id="-327" lat="30.184878" lon="-97.762246" changeset="false"><tag k="addr:street" v="Commodore Circle"/><tag k="addr:housenumber" v="6730"/><tag k="addr:postcode" v="78744"/></node><node id="-328" lat="30.185208" lon="-97.762015" changeset="false"><tag k="addr:street" v="Commodore Circle"/><tag k="addr:housenumber" v="6731"/><tag k="addr:postcode" v="78744"/></node><node id="-329" lat="30.184905" lon="-97.762389" changeset="false"><tag k="addr:street" v="Commodore Circle"/><tag k="addr:housenumber" v="6732"/><tag k="addr:postcode" v="78744"/></node><node id="-330" lat="30.185253" lon="-97.762162" changeset="false"><tag k="addr:street" v="Commodore Circle"/><tag k="addr:housenumber" v="6733"/><tag k="addr:postcode" v="78744"/></node><node id="-331" lat="30.184946" lon="-97.762483" changeset="false"><tag k="addr:street" v="Commodore Circle"/><tag k="addr:housenumber" v="6734"/><tag k="addr:postcode" v="78744"/></node><node id="-332" lat="30.186842" lon="-97.762819" changeset="false"><tag k="addr:street" v="Commodore Circle"/><tag k="addr:housenumber" v="6612"/><tag k="addr:postcode" v="78744"/></node><node id="-333" lat="30.186918" lon="-97.763165" changeset="false"><tag k="addr:street" v="Elm Creek Drive"/><tag k="addr:housenumber" v="6611"/><tag k="addr:postcode" v="78744"/></node><node id="-334" lat="30.187026" lon="-97.763084" changeset="false"><tag k="addr:street" v="Elm Creek Drive"/><tag k="addr:housenumber" v="6609"/><tag k="addr:postcode" v="78744"/></node><node id="-335" lat="30.187126" lon="-97.763023" changeset="false"><tag k="addr:street" v="Elm Creek Drive"/><tag k="addr:housenumber" v="6607"/><tag k="addr:postcode" v="78744"/></node><node id="-336" lat="30.186289" lon="-97.762694" changeset="false"><tag k="addr:street" v="Commodore Circle"/><tag k="addr:housenumber" v="6605"/><tag k="addr:postcode" v="78744"/></node><node id="-337" lat="30.186592" lon="-97.762997" changeset="false"><tag k="addr:street" v="Commodore Circle"/><tag k="addr:housenumber" v="6608"/><tag k="addr:postcode" v="78744"/></node><node id="-338" lat="30.186384" lon="-97.762635" changeset="false"><tag k="addr:street" v="Commodore Circle"/><tag k="addr:housenumber" v="6607"/><tag k="addr:postcode" v="78744"/></node><node id="-339" lat="30.186362" lon="-97.76316" changeset="false"><tag k="addr:street" v="Commodore Circle"/><tag k="addr:housenumber" v="6604"/><tag k="addr:postcode" v="78744"/></node><node id="-340" lat="30.186461" lon="-97.763041" changeset="false"><tag k="addr:street" v="Commodore Circle"/><tag k="addr:housenumber" v="6606"/><tag k="addr:postcode" v="78744"/></node><node id="-341" lat="30.186731" lon="-97.76289" changeset="false"><tag k="addr:street" v="Commodore Circle"/><tag k="addr:housenumber" v="6610"/><tag k="addr:postcode" v="78744"/></node><node id="-342" lat="30.185392" lon="-97.762672" changeset="false"><tag k="addr:street" v="Commodore Circle"/><tag k="addr:housenumber" v="6739"/><tag k="addr:postcode" v="78744"/></node><node id="-343" lat="30.185445" lon="-97.762819" changeset="false"><tag k="addr:street" v="Commodore Circle"/><tag k="addr:housenumber" v="6741"/><tag k="addr:postcode" v="78744"/></node><node id="-344" lat="30.185479" lon="-97.762943" changeset="false"><tag k="addr:street" v="Commodore Circle"/><tag k="addr:housenumber" v="6743"/><tag k="addr:postcode" v="78744"/></node><node id="-345" lat="30.185502" lon="-97.763048" changeset="false"><tag k="addr:street" v="Commodore Circle"/><tag k="addr:housenumber" v="6745"/><tag k="addr:postcode" v="78744"/></node><node id="-346" lat="30.185537" lon="-97.763181" changeset="false"><tag k="addr:street" v="Commodore Circle"/><tag k="addr:housenumber" v="6747"/><tag k="addr:postcode" v="78744"/></node><node id="-347" lat="30.185736" lon="-97.762817" changeset="false"><tag k="addr:street" v="East Bluff Drive"/><tag k="addr:housenumber" v="2105"/><tag k="addr:postcode" v="78744"/></node><node id="-348" lat="30.185714" lon="-97.762696" changeset="false"><tag k="addr:street" v="East Bluff Drive"/><tag k="addr:housenumber" v="2107"/><tag k="addr:postcode" v="78744"/></node><node id="-349" lat="30.185761" lon="-97.762943" changeset="false"><tag k="addr:street" v="East Bluff Drive"/><tag k="addr:housenumber" v="2103"/><tag k="addr:postcode" v="78744"/></node><node id="-350" lat="30.185832" lon="-97.763053" changeset="false"><tag k="addr:street" v="East Bluff Drive"/><tag k="addr:housenumber" v="2101"/><tag k="addr:postcode" v="78744"/></node><node id="-351" lat="30.185843" lon="-97.763195" changeset="false"><tag k="addr:street" v="East Bluff Drive"/><tag k="addr:housenumber" v="2011"/><tag k="addr:postcode" v="78744"/></node><node id="-352" lat="30.18473" lon="-97.762826" changeset="false"><tag k="addr:street" v="Bitter Creek Drive"/><tag k="addr:housenumber" v="2110"/><tag k="addr:postcode" v="78744"/></node><node id="-353" lat="30.184752" lon="-97.762971" changeset="false"><tag k="addr:street" v="Bitter Creek Drive"/><tag k="addr:housenumber" v="2108"/><tag k="addr:postcode" v="78744"/></node><node id="-354" lat="30.18474" lon="-97.763215" changeset="false"><tag k="addr:street" v="Bitter Creek Drive"/><tag k="addr:housenumber" v="2106"/><tag k="addr:postcode" v="78744"/></node><node id="-355" lat="30.184675" lon="-97.762696" changeset="false"><tag k="addr:street" v="Bitter Creek Drive"/><tag k="addr:housenumber" v="2112"/><tag k="addr:postcode" v="78744"/></node><node id="-356" lat="30.184976" lon="-97.762619" changeset="false"><tag k="addr:street" v="Commodore Circle"/><tag k="addr:housenumber" v="6736"/><tag k="addr:postcode" v="78744"/></node><node id="-357" lat="30.185063" lon="-97.762866" changeset="false"><tag k="addr:street" v="Commodore Circle"/><tag k="addr:housenumber" v="6740"/><tag k="addr:postcode" v="78744"/></node><node id="-358" lat="30.18511" lon="-97.76299" changeset="false"><tag k="addr:street" v="Commodore Circle"/><tag k="addr:housenumber" v="6742"/><tag k="addr:postcode" v="78744"/></node><node id="-359" lat="30.185123" lon="-97.763109" changeset="false"><tag k="addr:street" v="Commodore Circle"/><tag k="addr:housenumber" v="6744"/><tag k="addr:postcode" v="78744"/></node><node id="-360" lat="30.185002" lon="-97.762767" changeset="false"><tag k="addr:street" v="Commodore Circle"/><tag k="addr:housenumber" v="6738"/><tag k="addr:postcode" v="78744"/></node><node id="-361" lat="30.185158" lon="-97.763265" changeset="false"><tag k="addr:street" v="Commodore Circle"/><tag k="addr:housenumber" v="6746"/><tag k="addr:postcode" v="78744"/></node><node id="-362" lat="30.186247" lon="-97.763216" changeset="false"><tag k="addr:street" v="Commodore Circle"/><tag k="addr:housenumber" v="6602"/><tag k="addr:postcode" v="78744"/></node><node id="-363" lat="30.186407" lon="-97.76351" changeset="false"><tag k="addr:street" v="Elm Creek Drive"/><tag k="addr:housenumber" v="6621"/><tag k="addr:postcode" v="78744"/></node><node id="-364" lat="30.186602" lon="-97.763349" changeset="false"><tag k="addr:street" v="Elm Creek Drive"/><tag k="addr:housenumber" v="6617"/><tag k="addr:postcode" v="78744"/></node><node id="-365" lat="30.186455" lon="-97.763422" changeset="false"><tag k="addr:street" v="Elm Creek Drive"/><tag k="addr:housenumber" v="6619"/><tag k="addr:postcode" v="78744"/></node><node id="-366" lat="30.18676" lon="-97.76324" changeset="false"><tag k="addr:street" v="Elm Creek Drive"/><tag k="addr:housenumber" v="6613"/><tag k="addr:postcode" v="78744"/></node><node id="-367" lat="30.186656" lon="-97.763282" changeset="false"><tag k="addr:street" v="Elm Creek Drive"/><tag k="addr:housenumber" v="6615"/><tag k="addr:postcode" v="78744"/></node><node id="-368" lat="30.185707" lon="-97.763686" changeset="false"><tag k="addr:street" v="Commodore Circle"/><tag k="addr:housenumber" v="6755"/><tag k="addr:postcode" v="78744"/></node><node id="-369" lat="30.18574" lon="-97.763817" changeset="false"><tag k="addr:street" v="Commodore Circle"/><tag k="addr:housenumber" v="6757"/><tag k="addr:postcode" v="78744"/></node><node id="-370" lat="30.18587" lon="-97.763332" changeset="false"><tag k="addr:street" v="East Bluff Drive"/><tag k="addr:housenumber" v="2009"/><tag k="addr:postcode" v="78744"/></node><node id="-371" lat="30.185902" lon="-97.763427" changeset="false"><tag k="addr:street" v="East Bluff Drive"/><tag k="addr:housenumber" v="2007"/><tag k="addr:postcode" v="78744"/></node><node id="-372" lat="30.185939" lon="-97.763589" changeset="false"><tag k="addr:street" v="East Bluff Drive"/><tag k="addr:housenumber" v="2005"/><tag k="addr:postcode" v="78744"/></node><node id="-373" lat="30.185982" lon="-97.763689" changeset="false"><tag k="addr:street" v="East Bluff Drive"/><tag k="addr:housenumber" v="2003"/><tag k="addr:postcode" v="78744"/></node><node id="-374" lat="30.18602" lon="-97.763825" changeset="false"><tag k="addr:street" v="East Bluff Drive"/><tag k="addr:housenumber" v="2001"/><tag k="addr:postcode" v="78744"/></node><node id="-375" lat="30.185235" lon="-97.76352" changeset="false"><tag k="addr:street" v="Commodore Circle"/><tag k="addr:housenumber" v="6750"/><tag k="addr:postcode" v="78744"/></node><node id="-376" lat="30.185312" lon="-97.763744" changeset="false"><tag k="addr:street" v="Commodore Circle"/><tag k="addr:housenumber" v="6754"/><tag k="addr:postcode" v="78744"/></node><node id="-377" lat="30.185294" lon="-97.76364" changeset="false"><tag k="addr:street" v="Commodore Circle"/><tag k="addr:housenumber" v="6752"/><tag k="addr:postcode" v="78744"/></node><node id="-378" lat="30.18535" lon="-97.763875" changeset="false"><tag k="addr:street" v="Commodore Circle"/><tag k="addr:housenumber" v="6756"/><tag k="addr:postcode" v="78744"/></node><node id="-379" lat="30.185386" lon="-97.764001" changeset="false"><tag k="addr:street" v="Commodore Circle"/><tag k="addr:housenumber" v="6758"/><tag k="addr:postcode" v="78744"/></node><node id="-380" lat="30.185572" lon="-97.763306" changeset="false"><tag k="addr:street" v="Commodore Circle"/><tag k="addr:housenumber" v="6749"/><tag k="addr:postcode" v="78744"/></node><node id="-381" lat="30.185641" lon="-97.763434" changeset="false"><tag k="addr:street" v="Commodore Circle"/><tag k="addr:housenumber" v="6751"/><tag k="addr:postcode" v="78744"/></node><node id="-382" lat="30.185671" lon="-97.763559" changeset="false"><tag k="addr:street" v="Commodore Circle"/><tag k="addr:housenumber" v="6753"/><tag k="addr:postcode" v="78744"/></node><node id="-383" lat="30.184779" lon="-97.763359" changeset="false"><tag k="addr:street" v="Bitter Creek Drive"/><tag k="addr:housenumber" v="2104"/><tag k="addr:postcode" v="78744"/></node><node id="-384" lat="30.184804" lon="-97.764448" changeset="false"><tag k="addr:street" v="Bitter Creek Drive"/><tag k="addr:housenumber" v="2007"/><tag k="addr:postcode" v="78744"/></node><node id="-385" lat="30.185036" lon="-97.764099" changeset="false"><tag k="addr:street" v="Bitter Creek Drive"/><tag k="addr:housenumber" v="2008"/><tag k="addr:postcode" v="78744"/></node><node id="-386" lat="30.18504" lon="-97.763899" changeset="false"><tag k="addr:street" v="Bitter Creek Drive"/><tag k="addr:housenumber" v="2010"/><tag k="addr:postcode" v="78744"/></node><node id="-387" lat="30.184936" lon="-97.763798" changeset="false"><tag k="addr:street" v="Bitter Creek Drive"/><tag k="addr:housenumber" v="2012"/><tag k="addr:postcode" v="78744"/></node><node id="-388" lat="30.184913" lon="-97.763437" changeset="false"><tag k="addr:street" v="Bitter Creek Drive"/><tag k="addr:housenumber" v="2102"/><tag k="addr:postcode" v="78744"/></node><node id="-389" lat="30.184886" lon="-97.763644" changeset="false"><tag k="addr:street" v="Bitter Creek Drive"/><tag k="addr:housenumber" v="2100"/><tag k="addr:postcode" v="78744"/></node><node id="-390" lat="30.184804" lon="-97.764289" changeset="false"><tag k="addr:street" v="Bitter Creek Drive"/><tag k="addr:housenumber" v="2009"/><tag k="addr:postcode" v="78744"/></node><node id="-391" lat="30.185153" lon="-97.764184" changeset="false"><tag k="addr:street" v="Bitter Creek Drive"/><tag k="addr:housenumber" v="2006"/><tag k="addr:postcode" v="78744"/></node><node id="-392" lat="30.185196" lon="-97.763397" changeset="false"><tag k="addr:street" v="Commodore Circle"/><tag k="addr:housenumber" v="6748"/><tag k="addr:postcode" v="78744"/></node><node id="-393" lat="30.184029" lon="-97.761712" changeset="false"><tag k="addr:street" v="Bitter Creek Drive"/><tag k="addr:housenumber" v="2211"/><tag k="addr:postcode" v="78744"/></node><node id="-394" lat="30.18426" lon="-97.76151" changeset="false"><tag k="addr:street" v="Bitter Creek Drive"/><tag k="addr:housenumber" v="2210"/><tag k="addr:postcode" v="78744"/></node><node id="-395" lat="30.184371" lon="-97.761618" changeset="false"><tag k="addr:street" v="Bitter Creek Drive"/><tag k="addr:housenumber" v="2208"/><tag k="addr:postcode" v="78744"/></node><node id="-396" lat="30.184341" lon="-97.761842" changeset="false"><tag k="addr:street" v="Bitter Creek Drive"/><tag k="addr:housenumber" v="2206"/><tag k="addr:postcode" v="78744"/></node><node id="-397" lat="30.184383" lon="-97.761993" changeset="false"><tag k="addr:street" v="Bitter Creek Drive"/><tag k="addr:housenumber" v="2204"/><tag k="addr:postcode" v="78744"/></node><node id="-398" lat="30.184602" lon="-97.761378" changeset="false"><tag k="addr:street" v="Commodore Circle"/><tag k="addr:housenumber" v="6716"/><tag k="addr:postcode" v="78744"/></node><node id="-399" lat="30.18464" lon="-97.761485" changeset="false"><tag k="addr:street" v="Commodore Circle"/><tag k="addr:housenumber" v="6718"/><tag k="addr:postcode" v="78744"/></node><node id="-400" lat="30.182863" lon="-97.761378" changeset="false"><tag k="addr:street" v="Blue Dawn Trail"/><tag k="addr:housenumber" v="6801"/><tag k="addr:postcode" v="78744"/></node><node id="-401" lat="30.183004" lon="-97.761664" changeset="false"><tag k="addr:street" v="Blue Dawn Trail"/><tag k="addr:housenumber" v="6805"/><tag k="addr:postcode" v="78744"/></node><node id="-402" lat="30.182944" lon="-97.761536" changeset="false"><tag k="addr:street" v="Blue Dawn Trail"/><tag k="addr:housenumber" v="6803"/><tag k="addr:postcode" v="78744"/></node><node id="-403" lat="30.183075" lon="-97.761801" changeset="false"><tag k="addr:street" v="Blue Dawn Trail"/><tag k="addr:housenumber" v="6807"/><tag k="addr:postcode" v="78744"/></node><node id="-404" lat="30.18345" lon="-97.76144" changeset="false"><tag k="addr:street" v="Blue Dawn Trail"/><tag k="addr:housenumber" v="6804"/><tag k="addr:postcode" v="78744"/></node><node id="-405" lat="30.183522" lon="-97.761593" changeset="false"><tag k="addr:street" v="Blue Dawn Trail"/><tag k="addr:housenumber" v="6806"/><tag k="addr:postcode" v="78744"/></node><node id="-406" lat="30.18361" lon="-97.761721" changeset="false"><tag k="addr:street" v="Blue Dawn Trail"/><tag k="addr:housenumber" v="6808"/><tag k="addr:postcode" v="78744"/></node><node id="-407" lat="30.181426" lon="-97.761829" changeset="false"><tag k="addr:street" v="Stonleigh Place"/><tag k="addr:housenumber" v="6907"/><tag k="addr:postcode" v="78744"/></node><node id="-408" lat="30.181545" lon="-97.761752" changeset="false"><tag k="addr:street" v="Stonleigh Place"/><tag k="addr:housenumber" v="6905"/><tag k="addr:postcode" v="78744"/></node><node id="-409" lat="30.18145" lon="-97.76127" changeset="false"><tag k="addr:street" v="Trendal Lane"/><tag k="addr:housenumber" v="6906"/><tag k="addr:postcode" v="78744"/></node><node id="-410" lat="30.181673" lon="-97.761682" changeset="false"><tag k="addr:street" v="Stonleigh Place"/><tag k="addr:housenumber" v="6903"/><tag k="addr:postcode" v="78744"/></node><node id="-411" lat="30.181787" lon="-97.761605" changeset="false"><tag k="addr:street" v="Stonleigh Place"/><tag k="addr:housenumber" v="6901"/><tag k="addr:postcode" v="78744"/></node><node id="-412" lat="30.182157" lon="-97.761374" changeset="false"><tag k="addr:street" v="Stonleigh Place"/><tag k="addr:housenumber" v="6807"/><tag k="addr:postcode" v="78744"/></node><node id="-413" lat="30.181909" lon="-97.761522" changeset="false"><tag k="addr:street" v="Stonleigh Place"/><tag k="addr:housenumber" v="6811"/><tag k="addr:postcode" v="78744"/></node><node id="-414" lat="30.182029" lon="-97.761445" changeset="false"><tag k="addr:street" v="Stonleigh Place"/><tag k="addr:housenumber" v="6809"/><tag k="addr:postcode" v="78744"/></node><node id="-415" lat="30.18094" lon="-97.761592" changeset="false"><tag k="addr:street" v="Trendal Lane"/><tag k="addr:housenumber" v="7002"/><tag k="addr:postcode" v="78744"/></node><node id="-416" lat="30.181274" lon="-97.761826" changeset="false"><tag k="addr:street" v="Stonleigh Place"/><tag k="addr:housenumber" v="6909"/><tag k="addr:postcode" v="78744"/></node><node id="-417" lat="30.18107" lon="-97.761522" changeset="false"><tag k="addr:street" v="Trendal Lane"/><tag k="addr:housenumber" v="7000"/><tag k="addr:postcode" v="78744"/></node><node id="-418" lat="30.181189" lon="-97.761422" changeset="false"><tag k="addr:street" v="Trendal Lane"/><tag k="addr:housenumber" v="6910"/><tag k="addr:postcode" v="78744"/></node><node id="-419" lat="30.180654" lon="-97.76174" changeset="false"><tag k="addr:street" v="Trendal Lane"/><tag k="addr:housenumber" v="7006"/><tag k="addr:postcode" v="78744"/></node><node id="-420" lat="30.180807" lon="-97.761674" changeset="false"><tag k="addr:street" v="Trendal Lane"/><tag k="addr:housenumber" v="7004"/><tag k="addr:postcode" v="78744"/></node><node id="-421" lat="30.181306" lon="-97.761361" changeset="false"><tag k="addr:street" v="Trendal Lane"/><tag k="addr:housenumber" v="6908"/><tag k="addr:postcode" v="78744"/></node><node id="-422" lat="30.18423" lon="-97.762845" changeset="false"><tag k="addr:street" v="Bitter Creek Drive"/><tag k="addr:housenumber" v="2115"/><tag k="addr:postcode" v="78744"/></node><node id="-423" lat="30.184383" lon="-97.763097" changeset="false"><tag k="addr:street" v="Bitter Creek Drive"/><tag k="addr:housenumber" v="2111"/><tag k="addr:postcode" v="78744"/></node><node id="-424" lat="30.184413" lon="-97.763238" changeset="false"><tag k="addr:street" v="Bitter Creek Drive"/><tag k="addr:housenumber" v="2109"/><tag k="addr:postcode" v="78744"/></node><node id="-425" lat="30.184461" lon="-97.762295" changeset="false"><tag k="addr:street" v="Bitter Creek Drive"/><tag k="addr:housenumber" v="2200"/><tag k="addr:postcode" v="78744"/></node><node id="-426" lat="30.184584" lon="-97.762418" changeset="false"><tag k="addr:street" v="Bitter Creek Drive"/><tag k="addr:housenumber" v="2116"/><tag k="addr:postcode" v="78744"/></node><node id="-427" lat="30.184463" lon="-97.763393" changeset="false"><tag k="addr:street" v="Bitter Creek Drive"/><tag k="addr:housenumber" v="2107"/><tag k="addr:postcode" v="78744"/></node><node id="-428" lat="30.184538" lon="-97.762611" changeset="false"><tag k="addr:street" v="Bitter Creek Drive"/><tag k="addr:housenumber" v="2114"/><tag k="addr:postcode" v="78744"/></node><node id="-429" lat="30.184453" lon="-97.762139" changeset="false"><tag k="addr:street" v="Bitter Creek Drive"/><tag k="addr:housenumber" v="2202"/><tag k="addr:postcode" v="78744"/></node><node id="-430" lat="30.184105" lon="-97.762361" changeset="false"><tag k="addr:street" v="Bitter Creek Drive"/><tag k="addr:housenumber" v="2203"/><tag k="addr:postcode" v="78744"/></node><node id="-431" lat="30.183147" lon="-97.761941" changeset="false"><tag k="addr:street" v="Blue Dawn Trail"/><tag k="addr:housenumber" v="6809"/><tag k="addr:postcode" v="78744"/></node><node id="-432" lat="30.183208" lon="-97.762085" changeset="false"><tag k="addr:street" v="Blue Dawn Trail"/><tag k="addr:housenumber" v="6811"/><tag k="addr:postcode" v="78744"/></node><node id="-433" lat="30.183268" lon="-97.762216" changeset="false"><tag k="addr:street" v="Blue Dawn Trail"/><tag k="addr:housenumber" v="6813"/><tag k="addr:postcode" v="78744"/></node><node id="-434" lat="30.183485" lon="-97.762629" changeset="false"><tag k="addr:street" v="Blue Dawn Trail"/><tag k="addr:housenumber" v="6819"/><tag k="addr:postcode" v="78744"/></node><node id="-435" lat="30.183417" lon="-97.762495" changeset="false"><tag k="addr:street" v="Blue Dawn Trail"/><tag k="addr:housenumber" v="6817"/><tag k="addr:postcode" v="78744"/></node><node id="-436" lat="30.183348" lon="-97.762352" changeset="false"><tag k="addr:street" v="Blue Dawn Trail"/><tag k="addr:housenumber" v="6815"/><tag k="addr:postcode" v="78744"/></node><node id="-437" lat="30.183541" lon="-97.762782" changeset="false"><tag k="addr:street" v="Blue Dawn Trail"/><tag k="addr:housenumber" v="6821"/><tag k="addr:postcode" v="78744"/></node><node id="-438" lat="30.183736" lon="-97.762115" changeset="false"><tag k="addr:street" v="Blue Dawn Trail"/><tag k="addr:housenumber" v="6810"/><tag k="addr:postcode" v="78744"/></node><node id="-439" lat="30.180767" lon="-97.762158" changeset="false"><tag k="addr:street" v="Stonleigh Place"/><tag k="addr:housenumber" v="7007"/><tag k="addr:postcode" v="78744"/></node><node id="-440" lat="30.181033" lon="-97.761995" changeset="false"><tag k="addr:street" v="Stonleigh Place"/><tag k="addr:housenumber" v="7003"/><tag k="addr:postcode" v="78744"/></node><node id="-441" lat="30.180897" lon="-97.76208" changeset="false"><tag k="addr:street" v="Stonleigh Place"/><tag k="addr:housenumber" v="7005"/><tag k="addr:postcode" v="78744"/></node><node id="-442" lat="30.181142" lon="-97.761918" changeset="false"><tag k="addr:street" v="Stonleigh Place"/><tag k="addr:housenumber" v="7001"/><tag k="addr:postcode" v="78744"/></node><node id="-443" lat="30.184462" lon="-97.76379" changeset="false"><tag k="addr:street" v="Bitter Creek Drive"/><tag k="addr:housenumber" v="2103"/><tag k="addr:postcode" v="78744"/></node><node id="-444" lat="30.184599" lon="-97.764059" changeset="false"><tag k="addr:street" v="Bitter Creek Drive"/><tag k="addr:housenumber" v="2013"/><tag k="addr:postcode" v="78744"/></node><node id="-445" lat="30.184635" lon="-97.764192" changeset="false"><tag k="addr:street" v="Bitter Creek Drive"/><tag k="addr:housenumber" v="2011"/><tag k="addr:postcode" v="78744"/></node><node id="-446" lat="30.184437" lon="-97.763609" changeset="false"><tag k="addr:street" v="Bitter Creek Drive"/><tag k="addr:housenumber" v="2105"/><tag k="addr:postcode" v="78744"/></node><node id="-447" lat="30.183253" lon="-97.764349" changeset="false"><tag k="addr:street" v="Deer Run Drive"/><tag k="addr:housenumber" v="2105"/><tag k="addr:postcode" v="78744"/></node><node id="-448" lat="30.183311" lon="-97.764485" changeset="false"><tag k="addr:street" v="Deer Run Drive"/><tag k="addr:housenumber" v="2103"/><tag k="addr:postcode" v="78744"/></node><node id="-449" lat="30.183538" lon="-97.764146" changeset="false"><tag k="addr:street" v="Deer Run Drive"/><tag k="addr:housenumber" v="2104"/><tag k="addr:postcode" v="78744"/></node><node id="-450" lat="30.183371" lon="-97.764615" changeset="false"><tag k="addr:street" v="Deer Run Drive"/><tag k="addr:housenumber" v="2101"/><tag k="addr:postcode" v="78744"/></node><node id="-451" lat="30.183389" lon="-97.763875" changeset="false"><tag k="addr:street" v="Deer Run Drive"/><tag k="addr:housenumber" v="2108"/><tag k="addr:postcode" v="78744"/></node><node id="-452" lat="30.183477" lon="-97.764018" changeset="false"><tag k="addr:street" v="Deer Run Drive"/><tag k="addr:housenumber" v="2106"/><tag k="addr:postcode" v="78744"/></node><node id="-453" lat="30.183389" lon="-97.763661" changeset="false"><tag k="addr:street" v="Deer Run Drive"/><tag k="addr:housenumber" v="2110"/><tag k="addr:postcode" v="78744"/></node><node id="-454" lat="30.183587" lon="-97.764285" changeset="false"><tag k="addr:street" v="Deer Run Drive"/><tag k="addr:housenumber" v="2102"/><tag k="addr:postcode" v="78744"/></node><node id="-455" lat="30.18367" lon="-97.764424" changeset="false"><tag k="addr:street" v="Deer Run Drive"/><tag k="addr:housenumber" v="2100"/><tag k="addr:postcode" v="78744"/></node><node id="-456" lat="30.183731" lon="-97.764565" changeset="false"><tag k="addr:street" v="Deer Run Drive"/><tag k="addr:housenumber" v="2012"/><tag k="addr:postcode" v="78744"/></node><node id="-457" lat="30.183797" lon="-97.764722" changeset="false"><tag k="addr:street" v="Deer Run Drive"/><tag k="addr:housenumber" v="2010"/><tag k="addr:postcode" v="78744"/></node><node id="-458" lat="30.183021" lon="-97.763908" changeset="false"><tag k="addr:street" v="Deer Run Drive"/><tag k="addr:housenumber" v="2111"/><tag k="addr:postcode" v="78744"/></node><node id="-459" lat="30.183096" lon="-97.764069" changeset="false"><tag k="addr:street" v="Deer Run Drive"/><tag k="addr:housenumber" v="2109"/><tag k="addr:postcode" v="78744"/></node><node id="-460" lat="30.18317" lon="-97.764202" changeset="false"><tag k="addr:street" v="Deer Run Drive"/><tag k="addr:housenumber" v="2107"/><tag k="addr:postcode" v="78744"/></node><node id="-461" lat="30.181716" lon="-97.763522" changeset="false"><tag k="addr:street" v="Blue Meadow Drive"/><tag k="addr:housenumber" v="2206"/><tag k="addr:postcode" v="78744"/></node><node id="-462" lat="30.182294" lon="-97.764389" changeset="false"><tag k="addr:street" v="Oak Motte Lane"/><tag k="addr:housenumber" v="2111"/><tag k="addr:postcode" v="78744"/></node><node id="-463" lat="30.182707" lon="-97.764129" changeset="false"><tag k="addr:street" v="Oak Motte Lane"/><tag k="addr:housenumber" v="2110"/><tag k="addr:postcode" v="78744"/></node><node id="-464" lat="30.182047" lon="-97.764571" changeset="false"><tag k="addr:street" v="Blue Meadow Drive"/><tag k="addr:housenumber" v="2110"/><tag k="addr:postcode" v="78744"/></node><node id="-465" lat="30.182434" lon="-97.764515" changeset="false"><tag k="addr:street" v="Oak Motte Lane"/><tag k="addr:housenumber" v="2109"/><tag k="addr:postcode" v="78744"/></node><node id="-466" lat="30.18273" lon="-97.764316" changeset="false"><tag k="addr:street" v="Oak Motte Lane"/><tag k="addr:housenumber" v="2108"/><tag k="addr:postcode" v="78744"/></node><node id="-467" lat="30.182862" lon="-97.764608" changeset="false"><tag k="addr:street" v="Oak Motte Lane"/><tag k="addr:housenumber" v="2104"/><tag k="addr:postcode" v="78744"/></node><node id="-468" lat="30.182788" lon="-97.764454" changeset="false"><tag k="addr:street" v="Oak Motte Lane"/><tag k="addr:housenumber" v="2106"/><tag k="addr:postcode" v="78744"/></node><node id="-469" lat="30.183434" lon="-97.764751" changeset="false"><tag k="addr:street" v="Deer Run Drive"/><tag k="addr:housenumber" v="2013"/><tag k="addr:postcode" v="78744"/></node><node id="-470" lat="30.183446" lon="-97.764915" changeset="false"><tag k="addr:street" v="Deer Run Drive"/><tag k="addr:housenumber" v="2011"/><tag k="addr:postcode" v="78744"/></node><node id="-471" lat="30.183873" lon="-97.764831" changeset="false"><tag k="addr:street" v="Deer Run Drive"/><tag k="addr:housenumber" v="2008"/><tag k="addr:postcode" v="78744"/></node><node id="-472" lat="30.183572" lon="-97.765029" changeset="false"><tag k="addr:street" v="Deer Run Drive"/><tag k="addr:housenumber" v="2009"/><tag k="addr:postcode" v="78744"/></node><node id="-473" lat="30.183652" lon="-97.765194" changeset="false"><tag k="addr:street" v="Deer Run Drive"/><tag k="addr:housenumber" v="2007"/><tag k="addr:postcode" v="78744"/></node><node id="-474" lat="30.183975" lon="-97.764948" changeset="false"><tag k="addr:street" v="Deer Run Drive"/><tag k="addr:housenumber" v="2006"/><tag k="addr:postcode" v="78744"/></node><node id="-475" lat="30.182868" lon="-97.765328" changeset="false"><tag k="addr:street" v="Oak Motte Lane"/><tag k="addr:housenumber" v="2011"/><tag k="addr:postcode" v="78744"/></node><node id="-476" lat="30.182923" lon="-97.765647" changeset="false"><tag k="addr:street" v="Oak Motte Lane"/><tag k="addr:housenumber" v="2007"/><tag k="addr:postcode" v="78744"/></node><node id="-477" lat="30.182983" lon="-97.764865" changeset="false"><tag k="addr:street" v="Oak Motte Lane"/><tag k="addr:housenumber" v="2100"/><tag k="addr:postcode" v="78744"/></node><node id="-478" lat="30.183208" lon="-97.765077" changeset="false"><tag k="addr:street" v="Oak Motte Lane"/><tag k="addr:housenumber" v="2010"/><tag k="addr:postcode" v="78744"/></node><node id="-479" lat="30.182923" lon="-97.764748" changeset="false"><tag k="addr:street" v="Oak Motte Lane"/><tag k="addr:housenumber" v="2102"/><tag k="addr:postcode" v="78744"/></node><node id="-480" lat="30.182867" lon="-97.765476" changeset="false"><tag k="addr:street" v="Oak Motte Lane"/><tag k="addr:housenumber" v="2009"/><tag k="addr:postcode" v="78744"/></node><node id="-481" lat="30.18315" lon="-97.764942" changeset="false"><tag k="addr:street" v="Oak Motte Lane"/><tag k="addr:housenumber" v="2012"/><tag k="addr:postcode" v="78744"/></node><node id="-482" lat="30.183266" lon="-97.765236" changeset="false"><tag k="addr:street" v="Oak Motte Lane"/><tag k="addr:housenumber" v="2008"/><tag k="addr:postcode" v="78744"/></node><node id="-483" lat="30.183289" lon="-97.765436" changeset="false"><tag k="addr:street" v="Oak Motte Lane"/><tag k="addr:housenumber" v="2006"/><tag k="addr:postcode" v="78744"/></node><node id="-484" lat="30.182585" lon="-97.764787" changeset="false"><tag k="addr:street" v="Oak Motte Lane"/><tag k="addr:housenumber" v="2105"/><tag k="addr:postcode" v="78744"/></node><node id="-485" lat="30.182579" lon="-97.764948" changeset="false"><tag k="addr:street" v="Oak Motte Lane"/><tag k="addr:housenumber" v="2103"/><tag k="addr:postcode" v="78744"/></node><node id="-486" lat="30.182617" lon="-97.765691" changeset="false"><tag k="addr:street" v="Blue Meadow Drive"/><tag k="addr:housenumber" v="2008"/><tag k="addr:postcode" v="78744"/></node><node id="-487" lat="30.182747" lon="-97.765049" changeset="false"><tag k="addr:street" v="Oak Motte Lane"/><tag k="addr:housenumber" v="2101"/><tag k="addr:postcode" v="78744"/></node><node id="-488" lat="30.182732" lon="-97.765813" changeset="false"><tag k="addr:street" v="Blue Meadow Drive"/><tag k="addr:housenumber" v="2006"/><tag k="addr:postcode" v="78744"/></node><node id="-489" lat="30.182747" lon="-97.765211" changeset="false"><tag k="addr:street" v="Oak Motte Lane"/><tag k="addr:housenumber" v="2013"/><tag k="addr:postcode" v="78744"/></node><node id="-490" lat="30.182285" lon="-97.765014" changeset="false"><tag k="addr:street" v="Blue Meadow Drive"/><tag k="addr:housenumber" v="2104"/><tag k="addr:postcode" v="78744"/></node><node id="-491" lat="30.182169" lon="-97.764844" changeset="false"><tag k="addr:street" v="Blue Meadow Drive"/><tag k="addr:housenumber" v="2106"/><tag k="addr:postcode" v="78744"/></node><node id="-492" lat="30.182095" lon="-97.764765" changeset="false"><tag k="addr:street" v="Blue Meadow Drive"/><tag k="addr:housenumber" v="2108"/><tag k="addr:postcode" v="78744"/></node><node id="-493" lat="30.182298" lon="-97.765155" changeset="false"><tag k="addr:street" v="Blue Meadow Drive"/><tag k="addr:housenumber" v="2102"/><tag k="addr:postcode" v="78744"/></node><node id="-494" lat="30.18237" lon="-97.765286" changeset="false"><tag k="addr:street" v="Blue Meadow Drive"/><tag k="addr:housenumber" v="2100"/><tag k="addr:postcode" v="78744"/></node><node id="-495" lat="30.182489" lon="-97.764661" changeset="false"><tag k="addr:street" v="Oak Motte Lane"/><tag k="addr:housenumber" v="2107"/><tag k="addr:postcode" v="78744"/></node><node id="-496" lat="30.182461" lon="-97.765404" changeset="false"><tag k="addr:street" v="Blue Meadow Drive"/><tag k="addr:housenumber" v="2012"/><tag k="addr:postcode" v="78744"/></node><node id="-497" lat="30.182491" lon="-97.765581" changeset="false"><tag k="addr:street" v="Blue Meadow Drive"/><tag k="addr:housenumber" v="2010"/><tag k="addr:postcode" v="78744"/></node></osm>