<?xml version="1.0" encoding="UTF-8"?><osm version="0.6" generator="github.com/aaronlidman/osm-and-geojson"><node id="-1" lat="30.206237" lon="-97.840724" changeset="false"><tag k="addr:street" v="Wykeham Drive"/><tag k="addr:housenumber" v="7901"/><tag k="coa:place_id" v="812817"/></node><node id="-2" lat="30.206272" lon="-97.843061" changeset="false"><tag k="addr:street" v="Tiger Eye Cove"/><tag k="addr:housenumber" v="7905"/><tag k="coa:place_id" v="784581"/></node><node id="-3" lat="30.208677" lon="-97.845677" changeset="false"><tag k="addr:street" v="Palacios Drive"/><tag k="addr:housenumber" v="7823"/><tag k="coa:place_id" v="542223"/></node><node id="-4" lat="30.208884" lon="-97.83967" changeset="false"><tag k="addr:street" v="Melville Cove"/><tag k="addr:housenumber" v="7604"/><tag k="coa:place_id" v="447171"/></node><node id="-5" lat="30.209299" lon="-97.83965" changeset="false"><tag k="addr:street" v="Melville Cove"/><tag k="addr:housenumber" v="7600"/><tag k="coa:place_id" v="447141"/></node><node id="-6" lat="30.207498" lon="-97.842642" changeset="false"><tag k="addr:street" v="Shale Street"/><tag k="addr:housenumber" v="7810"/><tag k="coa:place_id" v="876698"/></node><node id="-7" lat="30.21161" lon="-97.84716" changeset="false"><tag k="addr:street" v="Clarno Drive"/><tag k="addr:housenumber" v="4406"/><tag k="coa:place_id" v="1141589"/></node><node id="-8" lat="30.206153" lon="-97.841343" changeset="false"><tag k="addr:street" v="Wykeham Drive"/><tag k="addr:housenumber" v="7904"/><tag k="coa:place_id" v="136479"/></node><node id="-9" lat="30.210165" lon="-97.843557" changeset="false"><tag k="addr:street" v="Stonecroft Drive"/><tag k="addr:housenumber" v="4110"/><tag k="coa:place_id" v="65994"/></node><node id="-10" lat="30.20641" lon="-97.841155" changeset="false"><tag k="addr:street" v="Wykeham Drive"/><tag k="addr:housenumber" v="7900"/><tag k="coa:place_id" v="193017"/></node><node id="-11" lat="30.206381" lon="-97.840647" changeset="false"><tag k="addr:street" v="Wykeham Drive"/><tag k="addr:housenumber" v="7811"/><tag k="coa:place_id" v="339495"/></node><node id="-12" lat="30.206413" lon="-97.842984" changeset="false"><tag k="addr:street" v="Tiger Eye Cove"/><tag k="addr:housenumber" v="7903"/><tag k="coa:place_id" v="784527"/></node><node id="-13" lat="30.209245" lon="-97.841772" changeset="false"><tag k="addr:street" v="Stonecroft Drive"/><tag k="addr:housenumber" v="3912"/><tag k="coa:place_id" v="66149"/></node><node id="-14" lat="30.205718" lon="-97.842297" changeset="false"><tag k="addr:street" v="Wakefield Drive"/><tag k="addr:housenumber" v="8003"/><tag k="coa:place_id" v="1141591"/></node><node id="-15" lat="30.205689" lon="-97.842368" changeset="false"><tag k="addr:street" v="Eskew Drive"/><tag k="addr:housenumber" v="3902"/><tag k="coa:place_id" v="499965"/></node><node id="-16" lat="30.209475" lon="-97.846007" changeset="false"><tag k="addr:street" v="Molokai Drive"/><tag k="addr:housenumber" v="4204"/><tag k="coa:place_id" v="542859"/></node><node id="-17" lat="30.209357" lon="-97.845869" changeset="false"><tag k="addr:street" v="Molokai Drive"/><tag k="addr:housenumber" v="4202"/><tag k="coa:place_id" v="542853"/></node><node id="-18" lat="30.210305" lon="-97.84768" changeset="false"><tag k="addr:street" v="Molokai Drive"/><tag k="addr:housenumber" v="4400"/><tag k="coa:place_id" v="541983"/></node><node id="-19" lat="30.210226" lon="-97.84756" changeset="false"><tag k="addr:street" v="Molokai Drive"/><tag k="addr:housenumber" v="4316"/><tag k="coa:place_id" v="541971"/></node></osm>