<?xml version="1.0" encoding="UTF-8"?><osm version="0.6" generator="github.com/aaronlidman/osm-and-geojson"><node id="-1" lat="30.503051" lon="-97.726779" changeset="false"><tag k="addr:street" v="Manx Drive"/><tag k="addr:housenumber" v="8002"/></node><node id="-2" lat="30.505284" lon="-97.733035" changeset="false"><tag k="addr:street" v="Sabertooth Drive"/><tag k="addr:housenumber" v="16804"/></node><node id="-3" lat="30.506694" lon="-97.73629" changeset="false"><tag k="addr:street" v="Judy Scholl Way"/><tag k="addr:housenumber" v="16814"/></node><node id="-4" lat="30.509767" lon="-97.730712" changeset="false"><tag k="addr:street" v="Monument Drive"/><tag k="addr:housenumber" v="8421"/></node><node id="-5" lat="30.509703" lon="-97.732281" changeset="false"><tag k="addr:street" v="Hillrock Drive"/><tag k="addr:housenumber" v="8510"/></node><node id="-6" lat="30.506647" lon="-97.736934" changeset="false"><tag k="addr:street" v="Tin Roof Cove"/><tag k="addr:housenumber" v="8712"/></node><node id="-7" lat="30.512858" lon="-97.734296" changeset="false"><tag k="addr:street" v="Hill Cove,1100"/><tag k="addr:housenumber" v="17302"/></node><node id="-8" lat="30.5125" lon="-97.732553" changeset="false"><tag k="addr:street" v="Hillside Drive"/><tag k="addr:housenumber" v="17304"/></node><node id="-9" lat="30.509024" lon="-97.733959" changeset="false"><tag k="addr:street" v="Bobcat Drive"/><tag k="addr:housenumber" v="8610"/></node><node id="-10" lat="30.503106" lon="-97.7269" changeset="false"><tag k="addr:street" v="Manx Drive"/><tag k="addr:housenumber" v="8010"/></node><node id="-11" lat="30.50706" lon="-97.736844" changeset="false"><tag k="addr:street" v="Mouse Trap Drive"/><tag k="addr:housenumber" v="16811"/></node><node id="-12" lat="30.505321" lon="-97.734313" changeset="false"><tag k="addr:street" v="Chat Lane"/><tag k="addr:housenumber" v="8503"/></node><node id="-13" lat="30.510949" lon="-97.731739" changeset="false"><tag k="addr:street" v="Hillside Drive"/><tag k="addr:housenumber" v="17208"/></node><node id="-14" lat="30.507451" lon="-97.735769" changeset="false"><tag k="addr:street" v="Judy Scholl Way"/><tag k="addr:housenumber" v="16829"/></node><node id="-15" lat="30.505004" lon="-97.733741" changeset="false"><tag k="addr:street" v="Dorman Drive"/><tag k="addr:housenumber" v="16711"/></node><node id="-16" lat="30.503092" lon="-97.726869" changeset="false"><tag k="addr:street" v="Manx Drive"/><tag k="addr:housenumber" v="8008"/></node><node id="-17" lat="30.503064" lon="-97.726809" changeset="false"><tag k="addr:street" v="Manx Drive"/><tag k="addr:housenumber" v="8004"/></node><node id="-18" lat="30.504698" lon="-97.730317" changeset="false"><tag k="addr:street" v="Liberty Walk,1100"/><tag k="addr:housenumber" v="8369"/></node><node id="-19" lat="30.512682" lon="-97.734173" changeset="false"><tag k="addr:street" v="Hill Cove,1100"/><tag k="addr:housenumber" v="17300"/></node><node id="-20" lat="30.510574" lon="-97.731585" changeset="false"><tag k="addr:street" v="Hillside Drive"/><tag k="addr:housenumber" v="17204"/></node><node id="-21" lat="30.509575" lon="-97.731625" changeset="false"><tag k="addr:street" v="Hillrock Drive"/><tag k="addr:housenumber" v="8502"/></node><node id="-22" lat="30.507391" lon="-97.735107" changeset="false"><tag k="addr:street" v="Tomcat Cove"/><tag k="addr:housenumber" v="8604"/></node><node id="-23" lat="30.512754" lon="-97.733676" changeset="false"><tag k="addr:street" v="Hill Cove,1100"/><tag k="addr:housenumber" v="17303"/></node><node id="-24" lat="30.510432" lon="-97.734715" changeset="false"><tag k="addr:street" v="Monument Drive"/><tag k="addr:housenumber" v="8705"/></node><node id="-25" lat="30.507223" lon="-97.735658" changeset="false"><tag k="addr:street" v="Judy Scholl Way"/><tag k="addr:housenumber" v="16825"/></node><node id="-26" lat="30.50511" lon="-97.729726" changeset="false"><tag k="addr:street" v="Tonkinese Drive"/><tag k="addr:housenumber" v="8224"/></node><node id="-27" lat="30.507037" lon="-97.737128" changeset="false"><tag k="addr:street" v="Mouse Trap Drive"/><tag k="addr:housenumber" v="16807"/></node><node id="-28" lat="30.506996" lon="-97.735643" changeset="false"><tag k="addr:street" v="Judy Scholl Way"/><tag k="addr:housenumber" v="16821"/></node><node id="-29" lat="30.506182" lon="-97.734324" changeset="false"><tag k="addr:street" v="Jilbur Drive"/><tag k="addr:housenumber" v="8509"/></node><node id="-30" lat="30.510468" lon="-97.735169" changeset="false"><tag k="addr:street" v="Monument Drive"/><tag k="addr:housenumber" v="8709"/></node><node id="-31" lat="30.50798" lon="-97.73648" changeset="false"><tag k="addr:street" v="Judy Scholl Way"/><tag k="addr:housenumber" v="16909"/></node><node id="-32" lat="30.513038" lon="-97.734205" changeset="false"><tag k="addr:street" v="Hill Cove,1100"/><tag k="addr:housenumber" v="17304"/></node><node id="-33" lat="30.504979" lon="-97.734027" changeset="false"><tag k="addr:street" v="Dorman Drive"/><tag k="addr:housenumber" v="16709"/></node><node id="-34" lat="30.504132" lon="-97.729542" changeset="false"><tag k="addr:street" v="Korat Lane"/><tag k="addr:housenumber" v="16905"/></node><node id="-35" lat="30.503078" lon="-97.726839" changeset="false"><tag k="addr:street" v="Manx Drive"/><tag k="addr:housenumber" v="8006"/></node><node id="-36" lat="30.50673" lon="-97.734158" changeset="false"><tag k="addr:street" v="Jackal Drive"/><tag k="addr:housenumber" v="8526"/></node><node id="-37" lat="30.508165" lon="-97.734389" changeset="false"><tag k="addr:street" v="Mouse Trap Drive"/><tag k="addr:housenumber" v="16931"/></node><node id="-38" lat="30.504508" lon="-97.729472" changeset="false"><tag k="addr:street" v="Korat Lane"/><tag k="addr:housenumber" v="16913"/></node><node id="-39" lat="30.512411" lon="-97.732354" changeset="false"><tag k="addr:street" v="Hillside Drive"/><tag k="addr:housenumber" v="17302"/></node><node id="-40" lat="30.506692" lon="-97.731026" changeset="false"><tag k="addr:street" v="Sabertooth Drive"/><tag k="addr:housenumber" v="16916"/></node><node id="-41" lat="30.507456" lon="-97.732017" changeset="false"><tag k="addr:street" v="Dorman Drive"/><tag k="addr:housenumber" v="16914"/></node><node id="-42" lat="30.504157" lon="-97.733406" changeset="false"><tag k="addr:street" v="Sabertooth Drive"/><tag k="addr:housenumber" v="16711"/></node><node id="-43" lat="30.504665" lon="-97.728249" changeset="false"><tag k="addr:street" v="Tonkinese Drive"/><tag k="addr:housenumber" v="8128"/></node><node id="-44" lat="30.502862" lon="-97.720778" changeset="false"><tag k="addr:street" v="Smyers Lane"/><tag k="addr:housenumber" v="17020"/></node><node id="-45" lat="30.504264" lon="-97.733247" changeset="false"><tag k="addr:street" v="Sabertooth Drive"/><tag k="addr:housenumber" v="16713"/></node><node id="-46" lat="30.511836" lon="-97.732116" changeset="false"><tag k="addr:street" v="Hillside Drive"/><tag k="addr:housenumber" v="17218"/></node><node id="-47" lat="30.505179" lon="-97.733151" changeset="false"><tag k="addr:street" v="Sabertooth Drive"/><tag k="addr:housenumber" v="16802"/></node><node id="-48" lat="30.506025" lon="-97.733974" changeset="false"><tag k="addr:street" v="Jilbur Drive"/><tag k="addr:housenumber" v="8505"/></node><node id="-49" lat="30.507541" lon="-97.731263" changeset="false"><tag k="addr:street" v="Dorman Drive"/><tag k="addr:housenumber" v="16922"/></node><node id="-50" lat="30.509182" lon="-97.734238" changeset="false"><tag k="addr:street" v="Bobcat Drive"/><tag k="addr:housenumber" v="8614"/></node><node id="-51" lat="30.500418" lon="-97.722184" changeset="false"><tag k="addr:street" v="Ranch-to-Market Road 620"/><tag k="addr:housenumber" v="16900"/></node><node id="-52" lat="30.511282" lon="-97.731887" changeset="false"><tag k="addr:street" v="Hillside Drive"/><tag k="addr:housenumber" v="17212"/></node><node id="-53" lat="30.512029" lon="-97.732179" changeset="false"><tag k="addr:street" v="Hillside Drive"/><tag k="addr:housenumber" v="17220"/></node><node id="-54" lat="30.508858" lon="-97.733846" changeset="false"><tag k="addr:street" v="Bobcat Drive"/><tag k="addr:housenumber" v="8608"/></node><node id="-55" lat="30.507412" lon="-97.729774" changeset="false"><tag k="addr:street" v="Liberty Walk,1100"/><tag k="addr:housenumber" v="8324"/></node><node id="-56" lat="30.503704" lon="-97.729431" changeset="false"><tag k="addr:street" v="Manx Drive"/><tag k="addr:housenumber" v="8209"/></node><node id="-57" lat="30.512668" lon="-97.733902" changeset="false"><tag k="addr:street" v="Hill Cove,1100"/><tag k="addr:housenumber" v="17301"/></node><node id="-58" lat="30.503037" lon="-97.726749" changeset="false"><tag k="addr:street" v="Manx Drive"/><tag k="addr:housenumber" v="8000"/></node><node id="-59" lat="30.512916" lon="-97.733596" changeset="false"><tag k="addr:street" v="Hill Cove,1100"/><tag k="addr:housenumber" v="17305"/></node><node id="-60" lat="30.511124" lon="-97.731816" changeset="false"><tag k="addr:street" v="Hillside Drive"/><tag k="addr:housenumber" v="17210"/></node><node id="-61" lat="30.508465" lon="-97.728297" changeset="false"><tag k="addr:street" v="Liberty Walk,1100"/><tag k="addr:housenumber" v="8306"/></node><node id="-62" lat="30.510735" lon="-97.731667" changeset="false"><tag k="addr:street" v="Hillside Drive"/><tag k="addr:housenumber" v="17206"/></node><node id="-63" lat="30.511492" lon="-97.731962" changeset="false"><tag k="addr:street" v="Hillside Drive"/><tag k="addr:housenumber" v="17214"/></node><node id="-64" lat="30.508563" lon="-97.733478" changeset="false"><tag k="addr:street" v="Bobcat Drive"/><tag k="addr:housenumber" v="8602"/></node><node id="-65" lat="30.505433" lon="-97.735422" changeset="false"><tag k="addr:street" v="Tomcat Drive"/><tag k="addr:housenumber" v="16714"/></node><node id="-66" lat="30.50912" lon="-97.73409" changeset="false"><tag k="addr:street" v="Bobcat Drive"/><tag k="addr:housenumber" v="8612"/></node><node id="-67" lat="30.507871" lon="-97.733053" changeset="false"><tag k="addr:street" v="Bobcat Drive"/><tag k="addr:housenumber" v="8510"/></node><node id="-68" lat="30.507895" lon="-97.733075" changeset="false"><tag k="addr:street" v="Bobcat Drive"/><tag k="addr:housenumber" v="8512"/></node></osm>