<?xml version="1.0" encoding="UTF-8"?><osm version="0.6" generator="github.com/aaronlidman/osm-and-geojson"><node id="-1" lat="30.257437" lon="-97.71674" changeset="false"><tag k="addr:street" v="Santa Maria Street"/><tag k="addr:housenumber" v="2326"/><tag k="addr:postcode" v="78702"/></node><node id="-2" lat="30.255942" lon="-97.719238" changeset="false"><tag k="addr:street" v="Mildred Street"/><tag k="addr:housenumber" v="110"/><tag k="addr:postcode" v="78702"/></node><node id="-3" lat="30.255384" lon="-97.717808" changeset="false"><tag k="addr:street" v="East 2nd Street"/><tag k="addr:housenumber" v="2315"/><tag k="addr:postcode" v="78702"/></node><node id="-4" lat="30.257063" lon="-97.714925" changeset="false"><tag k="addr:street" v="East 4th Street"/><tag k="addr:housenumber" v="2506"/><tag k="addr:postcode" v="78702"/></node><node id="-5" lat="30.256781" lon="-97.713941" changeset="false"><tag k="addr:street" v="San Saba Street"/><tag k="addr:housenumber" v="403"/><tag k="addr:postcode" v="78702"/></node><node id="-6" lat="30.256325" lon="-97.712892" changeset="false"><tag k="addr:street" v="East 4th Street"/><tag k="addr:housenumber" v="2620"/><tag k="addr:postcode" v="78702"/></node><node id="-7" lat="30.255066" lon="-97.715969" changeset="false"><tag k="addr:street" v="East 2nd Street"/><tag k="addr:housenumber" v="2505 1/2"/><tag k="addr:postcode" v="78702"/></node><node id="-8" lat="30.254031" lon="-97.712554" changeset="false"><tag k="addr:street" v="East 2nd Street"/><tag k="addr:housenumber" v="2714 1/2"/><tag k="addr:postcode" v="78702"/></node><node id="-9" lat="30.257526" lon="-97.724259" changeset="false"><tag k="addr:street" v="Chicon Street"/><tag k="addr:housenumber" v="109"/><tag k="addr:postcode" v="78702"/></node><node id="-10" lat="30.257049" lon="-97.713111" changeset="false"><tag k="addr:street" v="East 5th Street"/><tag k="addr:housenumber" v="2611"/><tag k="addr:postcode" v="78702"/></node><node id="-11" lat="30.254496" lon="-97.716624" changeset="false"><tag k="addr:street" v="East Cesar Chavez Street"/><tag k="addr:housenumber" v="2500"/><tag k="addr:postcode" v="78702"/></node><node id="-12" lat="30.256195" lon="-97.712612" changeset="false"><tag k="addr:street" v="East 4th Street"/><tag k="addr:housenumber" v="2704"/><tag k="addr:postcode" v="78702"/></node><node id="-13" lat="30.25693" lon="-97.717647" changeset="false"><tag k="addr:street" v="Santa Rita Street"/><tag k="addr:housenumber" v="2317"/><tag k="addr:postcode" v="78702"/></node><node id="-14" lat="30.257823" lon="-97.717099" changeset="false"><tag k="addr:street" v="Santa Rosa Street"/><tag k="addr:housenumber" v="2319"/><tag k="addr:postcode" v="78702"/></node><node id="-15" lat="30.254113" lon="-97.713288" changeset="false"><tag k="addr:street" v="East 2nd Street"/><tag k="addr:housenumber" v="2707 1/2"/><tag k="addr:postcode" v="78702"/></node><node id="-16" lat="30.258137" lon="-97.717077" changeset="false"><tag k="addr:street" v="Santa Rosa Street"/><tag k="addr:housenumber" v="2316"/><tag k="addr:postcode" v="78702"/></node><node id="-17" lat="30.257108" lon="-97.715218" changeset="false"><tag k="addr:street" v="Pedernales Street"/><tag k="addr:housenumber" v="401"/><tag k="addr:postcode" v="78702"/></node><node id="-18" lat="30.257742" lon="-97.717564" changeset="false"><tag k="addr:street" v="Santa Maria Street"/><tag k="addr:housenumber" v="2312"/><tag k="addr:postcode" v="78702"/></node><node id="-19" lat="30.257163" lon="-97.723942" changeset="false"><tag k="addr:street" v="East Cesar Chavez Street"/><tag k="addr:housenumber" v="1906"/><tag k="addr:postcode" v="78702"/></node><node id="-20" lat="30.257586" lon="-97.720827" changeset="false"><tag k="addr:street" v="Caney Street"/><tag k="addr:housenumber" v="207"/><tag k="addr:postcode" v="78702"/></node><node id="-21" lat="30.255028" lon="-97.717736" changeset="false"><tag k="addr:street" v="East Cesar Chavez Street"/><tag k="addr:housenumber" v="2326"/><tag k="addr:postcode" v="78702"/></node><node id="-22" lat="30.255897" lon="-97.720481" changeset="false"><tag k="addr:street" v="East Cesar Chavez Street"/><tag k="addr:housenumber" v="2200"/><tag k="addr:postcode" v="78702"/></node><node id="-23" lat="30.258677" lon="-97.722577" changeset="false"><tag k="addr:street" v="East 3rd Street"/><tag k="addr:housenumber" v="1908"/><tag k="addr:postcode" v="78702"/></node><node id="-24" lat="30.257503" lon="-97.722015" changeset="false"><tag k="addr:street" v="East 2nd Street"/><tag k="addr:housenumber" v="2014"/><tag k="addr:postcode" v="78702"/></node><node id="-25" lat="30.254367" lon="-97.712289" changeset="false"><tag k="addr:street" v="North Pleasant Valley Road"/><tag k="addr:housenumber" v="208"/><tag k="addr:postcode" v="78702"/></node><node id="-26" lat="30.257001" lon="-97.714165" changeset="false"><tag k="addr:street" v="San Saba Street"/><tag k="addr:housenumber" v="406"/><tag k="addr:postcode" v="78702"/></node><node id="-27" lat="30.256308" lon="-97.715689" changeset="false"><tag k="addr:street" v="East 3rd Street"/><tag k="addr:housenumber" v="2500"/><tag k="addr:postcode" v="78702"/></node><node id="-28" lat="30.256124" lon="-97.715063" changeset="false"><tag k="addr:street" v="East 3rd Street"/><tag k="addr:housenumber" v="2512"/><tag k="addr:postcode" v="78702"/></node><node id="-29" lat="30.253926" lon="-97.713048" changeset="false"><tag k="addr:street" v="East 2nd Street"/><tag k="addr:housenumber" v="2711"/><tag k="addr:postcode" v="78702"/></node><node id="-30" lat="30.256623" lon="-97.711935" changeset="false"><tag k="addr:street" v="East 5th Street"/><tag k="addr:housenumber" v="2711"/><tag k="addr:postcode" v="78702"/></node><node id="-31" lat="30.25669" lon="-97.717023" changeset="false"><tag k="addr:street" v="Santa Rita Street"/><tag k="addr:housenumber" v="2329"/><tag k="addr:postcode" v="78702"/></node><node id="-32" lat="30.25779" lon="-97.716941" changeset="false"><tag k="addr:street" v="Santa Rosa Street"/><tag k="addr:housenumber" v="2321"/><tag k="addr:postcode" v="78702"/></node><node id="-33" lat="30.255885" lon="-97.714409" changeset="false"><tag k="addr:street" v="San Saba Street"/><tag k="addr:housenumber" v="303"/><tag k="addr:postcode" v="78702"/></node><node id="-34" lat="30.259493" lon="-97.723294" changeset="false"><tag k="addr:street" v="Chicon Street"/><tag k="addr:housenumber" v="307"/><tag k="addr:postcode" v="78702"/></node><node id="-35" lat="30.257913" lon="-97.722637" changeset="false"><tag k="addr:street" v="East 2nd Street"/><tag k="addr:housenumber" v="2006"/><tag k="addr:postcode" v="78702"/></node><node id="-36" lat="30.255109" lon="-97.715218" changeset="false"><tag k="addr:street" v="East 2nd Street"/><tag k="addr:housenumber" v="2512"/><tag k="addr:postcode" v="78702"/></node><node id="-37" lat="30.255652" lon="-97.713923" changeset="false"><tag k="addr:street" v="East 3rd Street"/><tag k="addr:housenumber" v="2608"/><tag k="addr:postcode" v="78702"/></node><node id="-38" lat="30.255751" lon="-97.720059" changeset="false"><tag k="addr:street" v="East Cesar Chavez Street"/><tag k="addr:housenumber" v="2212"/><tag k="addr:postcode" v="78702"/></node><node id="-39" lat="30.257979" lon="-97.717301" changeset="false"><tag k="addr:street" v="Santa Rosa Street"/><tag k="addr:housenumber" v="2315 1/2"/><tag k="addr:postcode" v="78702"/></node><node id="-40" lat="30.256029" lon="-97.7192" changeset="false"><tag k="addr:street" v="Mildred Street"/><tag k="addr:housenumber" v="112"/><tag k="addr:postcode" v="78702"/></node><node id="-41" lat="30.255816" lon="-97.719264" changeset="false"><tag k="addr:street" v="Mildred Street"/><tag k="addr:housenumber" v="108"/><tag k="addr:postcode" v="78702"/></node><node id="-42" lat="30.258008" lon="-97.723751" changeset="false"><tag k="addr:street" v="East 2nd Street"/><tag k="addr:housenumber" v="1906"/><tag k="addr:postcode" v="78702"/></node><node id="-43" lat="30.256622" lon="-97.713739" changeset="false"><tag k="addr:street" v="East 4th Street"/><tag k="addr:housenumber" v="2604"/><tag k="addr:postcode" v="78702"/></node><node id="-44" lat="30.258275" lon="-97.721603" changeset="false"><tag k="addr:street" v="East 3rd Street"/><tag k="addr:housenumber" v="2014"/><tag k="addr:postcode" v="78702"/></node><node id="-45" lat="30.253296" lon="-97.712803" changeset="false"><tag k="addr:street" v="North Pleasant Valley Road"/><tag k="addr:housenumber" v="104"/><tag k="addr:postcode" v="78702"/></node><node id="-46" lat="30.2574" lon="-97.715099" changeset="false"><tag k="addr:street" v="Pedernales Street"/><tag k="addr:housenumber" v="407"/><tag k="addr:postcode" v="78702"/></node><node id="-47" lat="30.256597" lon="-97.7147" changeset="false"><tag k="addr:street" v="East 4th Street"/><tag k="addr:housenumber" v="2515"/><tag k="addr:postcode" v="78702"/></node><node id="-48" lat="30.256988" lon="-97.723743" changeset="false"><tag k="addr:street" v="East Cesar Chavez Street"/><tag k="addr:housenumber" v="1910"/><tag k="addr:postcode" v="78702"/></node><node id="-49" lat="30.256857" lon="-97.722378" changeset="false"><tag k="addr:street" v="Elkhart Street"/><tag k="addr:housenumber" v="105"/><tag k="addr:postcode" v="78702"/></node><node id="-50" lat="30.254684" lon="-97.714071" changeset="false"><tag k="addr:street" v="East 2nd Street"/><tag k="addr:housenumber" v="2610"/><tag k="addr:postcode" v="78702"/></node><node id="-51" lat="30.256557" lon="-97.722443" changeset="false"><tag k="addr:street" v="East Cesar Chavez Street"/><tag k="addr:housenumber" v="2024"/><tag k="addr:postcode" v="78702"/></node><node id="-52" lat="30.255794" lon="-97.720405" changeset="false"><tag k="addr:street" v="East Cesar Chavez Street"/><tag k="addr:housenumber" v="2204"/><tag k="addr:postcode" v="78702"/></node><node id="-53" lat="30.255868" lon="-97.718628" changeset="false"><tag k="addr:street" v="East 2nd Street"/><tag k="addr:housenumber" v="2311"/><tag k="addr:postcode" v="78702"/></node><node id="-54" lat="30.257606" lon="-97.717184" changeset="false"><tag k="addr:street" v="Santa Maria Street"/><tag k="addr:housenumber" v="2318"/><tag k="addr:postcode" v="78702"/></node><node id="-55" lat="30.254274" lon="-97.71372" changeset="false"><tag k="addr:street" v="East 2nd Street"/><tag k="addr:housenumber" v="2701 1/2"/><tag k="addr:postcode" v="78702"/></node><node id="-56" lat="30.25521" lon="-97.718536" changeset="false"><tag k="addr:street" v="East Cesar Chavez Street"/><tag k="addr:housenumber" v="2308"/><tag k="addr:postcode" v="78702"/></node><node id="-57" lat="30.255938" lon="-97.716203" changeset="false"><tag k="addr:street" v="Pedernales Street"/><tag k="addr:housenumber" v="210"/><tag k="addr:postcode" v="78702"/></node><node id="-58" lat="30.257147" lon="-97.724109" changeset="false"><tag k="addr:street" v="East Cesar Chavez Street"/><tag k="addr:housenumber" v="1904"/><tag k="addr:postcode" v="78702"/></node><node id="-59" lat="30.25691" lon="-97.714488" changeset="false"><tag k="addr:street" v="East 4th Street"/><tag k="addr:housenumber" v="2514"/><tag k="addr:postcode" v="78702"/></node><node id="-60" lat="30.25567" lon="-97.718306" changeset="false"><tag k="addr:street" v="East 2nd Street"/><tag k="addr:housenumber" v="2307"/><tag k="addr:postcode" v="78702"/></node><node id="-61" lat="30.257185" lon="-97.724234" changeset="false"><tag k="addr:street" v="East Cesar Chavez Street"/><tag k="addr:housenumber" v="1902"/><tag k="addr:postcode" v="78702"/></node><node id="-62" lat="30.255591" lon="-97.718201" changeset="false"><tag k="addr:street" v="East 2nd Street"/><tag k="addr:housenumber" v="2309"/><tag k="addr:postcode" v="78702"/></node><node id="-63" lat="30.25747" lon="-97.717562" changeset="false"><tag k="addr:street" v="Santa Maria Street"/><tag k="addr:housenumber" v="2315"/><tag k="addr:postcode" v="78702"/></node><node id="-64" lat="30.257236" lon="-97.718511" changeset="false"><tag k="addr:street" v="Santa Rita Street"/><tag k="addr:housenumber" v="2303"/><tag k="addr:postcode" v="78702"/></node><node id="-65" lat="30.257147" lon="-97.713772" changeset="false"><tag k="addr:street" v="San Saba Street"/><tag k="addr:housenumber" v="451"/><tag k="addr:postcode" v="78702"/></node><node id="-66" lat="30.254752" lon="-97.712201" changeset="false"><tag k="addr:street" v="East 3rd Street"/><tag k="addr:housenumber" v="2717"/><tag k="addr:postcode" v="78702"/></node><node id="-67" lat="30.257014" lon="-97.713418" changeset="false"><tag k="addr:street" v="Santa Rosa Street"/><tag k="addr:housenumber" v="2606"/><tag k="addr:postcode" v="78702"/></node><node id="-68" lat="30.256878" lon="-97.715932" changeset="false"><tag k="addr:street" v="Santa Maria Street"/><tag k="addr:housenumber" v="2411"/><tag k="addr:postcode" v="78702"/></node><node id="-69" lat="30.256774" lon="-97.714266" changeset="false"><tag k="addr:street" v="East 4th Street"/><tag k="addr:housenumber" v="2520"/><tag k="addr:postcode" v="78702"/></node><node id="-70" lat="30.257189" lon="-97.718372" changeset="false"><tag k="addr:street" v="Santa Rita Street"/><tag k="addr:housenumber" v="2305"/><tag k="addr:postcode" v="78702"/></node><node id="-71" lat="30.255795" lon="-97.720191" changeset="false"><tag k="addr:street" v="East Cesar Chavez Street"/><tag k="addr:housenumber" v="2208"/><tag k="addr:postcode" v="78702"/></node><node id="-72" lat="30.25687" lon="-97.720373" changeset="false"><tag k="addr:street" v="East 2nd Street"/><tag k="addr:housenumber" v="2110"/><tag k="addr:postcode" v="78702"/></node><node id="-73" lat="30.25731" lon="-97.716327" changeset="false"><tag k="addr:street" v="Santa Maria Street"/><tag k="addr:housenumber" v="2402"/><tag k="addr:postcode" v="78702"/></node><node id="-74" lat="30.258663" lon="-97.723752" changeset="false"><tag k="addr:street" v="East 3rd Street"/><tag k="addr:housenumber" v="1901"/><tag k="addr:postcode" v="78702"/></node><node id="-75" lat="30.253399" lon="-97.712753" changeset="false"><tag k="addr:street" v="North Pleasant Valley Road"/><tag k="addr:housenumber" v="106"/><tag k="addr:postcode" v="78702"/></node><node id="-76" lat="30.256526" lon="-97.711334" changeset="false"><tag k="addr:street" v="East 5th Street"/><tag k="addr:housenumber" v="2719"/><tag k="addr:postcode" v="78702"/></node><node id="-77" lat="30.256834" lon="-97.715772" changeset="false"><tag k="addr:street" v="Pedernales Street"/><tag k="addr:housenumber" v="310"/><tag k="addr:postcode" v="78702"/></node><node id="-78" lat="30.253345" lon="-97.713267" changeset="false"><tag k="addr:street" v="East Cesar Chavez Street"/><tag k="addr:housenumber" v="2712"/><tag k="addr:postcode" v="78702"/></node><node id="-79" lat="30.259409" lon="-97.722767" changeset="false"><tag k="addr:street" v="East 4th Street"/><tag k="addr:housenumber" v="1907"/><tag k="addr:postcode" v="78702"/></node><node id="-80" lat="30.257534" lon="-97.717499" changeset="false"><tag k="addr:street" v="Santa Maria Street"/><tag k="addr:housenumber" v="2315 1/2"/><tag k="addr:postcode" v="78702"/></node><node id="-81" lat="30.259599" lon="-97.720826" changeset="false"><tag k="addr:street" v="East 5th Street"/><tag k="addr:housenumber" v="2001"/><tag k="addr:postcode" v="78702"/></node><node id="-82" lat="30.257928" lon="-97.717343" changeset="false"><tag k="addr:street" v="Santa Rosa Street"/><tag k="addr:housenumber" v="2315"/><tag k="addr:postcode" v="78702"/></node><node id="-83" lat="30.254107" lon="-97.712764" changeset="false"><tag k="addr:street" v="East 2nd Street"/><tag k="addr:housenumber" v="2710 1/2"/><tag k="addr:postcode" v="78702"/></node><node id="-84" lat="30.258867" lon="-97.721779" changeset="false"><tag k="addr:street" v="East 4th Street"/><tag k="addr:housenumber" v="2001"/><tag k="addr:postcode" v="78702"/></node><node id="-85" lat="30.253231" lon="-97.71298" changeset="false"><tag k="addr:street" v="East Cesar Chavez Street"/><tag k="addr:housenumber" v="2730"/><tag k="addr:postcode" v="78702"/></node><node id="-86" lat="30.253818" lon="-97.712747" changeset="false"><tag k="addr:street" v="East 2nd Street"/><tag k="addr:housenumber" v="2715"/><tag k="addr:postcode" v="78702"/></node><node id="-87" lat="30.257674" lon="-97.715012" changeset="false"><tag k="addr:street" v="East 5th Street"/><tag k="addr:housenumber" v="2501"/><tag k="addr:postcode" v="78702"/></node><node id="-88" lat="30.25497" lon="-97.715969" changeset="false"><tag k="addr:street" v="East 2nd Street"/><tag k="addr:housenumber" v="2505"/><tag k="addr:postcode" v="78702"/></node><node id="-89" lat="30.256168" lon="-97.719519" changeset="false"><tag k="addr:street" v="East 2nd Street"/><tag k="addr:housenumber" v="2215"/><tag k="addr:postcode" v="78702"/></node><node id="-90" lat="30.256675" lon="-97.712062" changeset="false"><tag k="addr:street" v="East 5th Street"/><tag k="addr:housenumber" v="2709"/><tag k="addr:postcode" v="78702"/></node><node id="-91" lat="30.256565" lon="-97.712187" changeset="false"><tag k="addr:street" v="Santa Rosa Street"/><tag k="addr:housenumber" v="2710"/><tag k="addr:postcode" v="78702"/></node><node id="-92" lat="30.256382" lon="-97.71145" changeset="false"><tag k="addr:street" v="North Pleasant Valley Road"/><tag k="addr:housenumber" v="420"/><tag k="addr:postcode" v="78702"/></node><node id="-93" lat="30.25629" lon="-97.711501" changeset="false"><tag k="addr:street" v="North Pleasant Valley Road"/><tag k="addr:housenumber" v="416"/><tag k="addr:postcode" v="78702"/></node><node id="-94" lat="30.25655" lon="-97.711598" changeset="false"><tag k="addr:street" v="East 5th Street"/><tag k="addr:housenumber" v="2715"/><tag k="addr:postcode" v="78702"/></node><node id="-95" lat="30.256412" lon="-97.712634" changeset="false"><tag k="addr:street" v="Santa Rosa Street"/><tag k="addr:housenumber" v="2701"/><tag k="addr:postcode" v="78702"/></node><node id="-96" lat="30.256353" lon="-97.712669" changeset="false"><tag k="addr:street" v="Santa Rosa Street"/><tag k="addr:housenumber" v="2703"/><tag k="addr:postcode" v="78702"/></node><node id="-97" lat="30.256084" lon="-97.712196" changeset="false"><tag k="addr:street" v="East 4th Street"/><tag k="addr:housenumber" v="2712"/><tag k="addr:postcode" v="78702"/></node><node id="-98" lat="30.256147" lon="-97.7123" changeset="false"><tag k="addr:street" v="East 4th Street"/><tag k="addr:housenumber" v="2710"/><tag k="addr:postcode" v="78702"/></node><node id="-99" lat="30.257256" lon="-97.713708" changeset="false"><tag k="addr:street" v="East 5th Street"/><tag k="addr:housenumber" v="2601"/><tag k="addr:postcode" v="78702"/></node><node id="-100" lat="30.257039" lon="-97.713548" changeset="false"><tag k="addr:street" v="Santa Rosa Street"/><tag k="addr:housenumber" v="2604"/><tag k="addr:postcode" v="78702"/></node><node id="-101" lat="30.25603" lon="-97.714619" changeset="false"><tag k="addr:street" v="San Saba Street"/><tag k="addr:housenumber" v="304"/><tag k="addr:postcode" v="78702"/></node><node id="-102" lat="30.255922" lon="-97.714646" changeset="false"><tag k="addr:street" v="East 3rd Street"/><tag k="addr:housenumber" v="2520"/><tag k="addr:postcode" v="78702"/></node><node id="-103" lat="30.256164" lon="-97.716377" changeset="false"><tag k="addr:street" v="Pedernales Street"/><tag k="addr:housenumber" v="228"/><tag k="addr:postcode" v="78702"/></node><node id="-104" lat="30.256147" lon="-97.716333" changeset="false"><tag k="addr:street" v="Pedernales Street"/><tag k="addr:housenumber" v="222"/><tag k="addr:postcode" v="78702"/></node><node id="-105" lat="30.256184" lon="-97.71642" changeset="false"><tag k="addr:street" v="Pedernales Street"/><tag k="addr:housenumber" v="224"/><tag k="addr:postcode" v="78702"/></node><node id="-106" lat="30.256245" lon="-97.716572" changeset="false"><tag k="addr:street" v="Pedernales Street"/><tag k="addr:housenumber" v="218"/><tag k="addr:postcode" v="78702"/></node><node id="-107" lat="30.256266" lon="-97.716633" changeset="false"><tag k="addr:street" v="Pedernales Street"/><tag k="addr:housenumber" v="216"/><tag k="addr:postcode" v="78702"/></node><node id="-108" lat="30.256219" lon="-97.71651" changeset="false"><tag k="addr:street" v="Pedernales Street"/><tag k="addr:housenumber" v="226"/><tag k="addr:postcode" v="78702"/></node><node id="-109" lat="30.256434" lon="-97.716248" changeset="false"><tag k="addr:street" v="Santa Rita Street"/><tag k="addr:housenumber" v="2417"/><tag k="addr:postcode" v="78702"/></node><node id="-110" lat="30.256417" lon="-97.716227" changeset="false"><tag k="addr:street" v="Santa Rita Street"/><tag k="addr:housenumber" v="2413"/><tag k="addr:postcode" v="78702"/></node><node id="-111" lat="30.256405" lon="-97.71617" changeset="false"><tag k="addr:street" v="Santa Rita Street"/><tag k="addr:housenumber" v="2419"/><tag k="addr:postcode" v="78702"/></node><node id="-112" lat="30.256469" lon="-97.71635" changeset="false"><tag k="addr:street" v="Santa Rita Street"/><tag k="addr:housenumber" v="2415"/><tag k="addr:postcode" v="78702"/></node><node id="-113" lat="30.256498" lon="-97.716439" changeset="false"><tag k="addr:street" v="Santa Rita Street"/><tag k="addr:housenumber" v="2411"/><tag k="addr:postcode" v="78702"/></node><node id="-114" lat="30.256597" lon="-97.716697" changeset="false"><tag k="addr:street" v="Santa Rita Street"/><tag k="addr:housenumber" v="2403"/><tag k="addr:postcode" v="78702"/></node><node id="-115" lat="30.25653" lon="-97.716526" changeset="false"><tag k="addr:street" v="Santa Rita Street"/><tag k="addr:housenumber" v="2409"/><tag k="addr:postcode" v="78702"/></node><node id="-116" lat="30.25662" lon="-97.716762" changeset="false"><tag k="addr:street" v="Santa Rita Street"/><tag k="addr:housenumber" v="2401"/><tag k="addr:postcode" v="78702"/></node><node id="-117" lat="30.256553" lon="-97.716585" changeset="false"><tag k="addr:street" v="Santa Rita Street"/><tag k="addr:housenumber" v="2407"/><tag k="addr:postcode" v="78702"/></node><node id="-118" lat="30.256571" lon="-97.716634" changeset="false"><tag k="addr:street" v="Santa Rita Street"/><tag k="addr:housenumber" v="2405"/><tag k="addr:postcode" v="78702"/></node><node id="-119" lat="30.254819" lon="-97.712473" changeset="false"><tag k="addr:street" v="East 3rd Street"/><tag k="addr:housenumber" v="2713"/><tag k="addr:postcode" v="78702"/></node><node id="-120" lat="30.254871" lon="-97.71261" changeset="false"><tag k="addr:street" v="East 3rd Street"/><tag k="addr:housenumber" v="2711"/><tag k="addr:postcode" v="78702"/></node><node id="-121" lat="30.253792" lon="-97.714478" changeset="false"><tag k="addr:street" v="East Cesar Chavez Street"/><tag k="addr:housenumber" v="2610"/><tag k="addr:postcode" v="78702"/></node><node id="-122" lat="30.253788" lon="-97.714626" changeset="false"><tag k="addr:street" v="East Cesar Chavez Street"/><tag k="addr:housenumber" v="2608"/><tag k="addr:postcode" v="78702"/></node><node id="-123" lat="30.253738" lon="-97.714362" changeset="false"><tag k="addr:street" v="East Cesar Chavez Street"/><tag k="addr:housenumber" v="2612"/><tag k="addr:postcode" v="78702"/></node><node id="-124" lat="30.255595" lon="-97.71679" changeset="false"><tag k="addr:street" v="East 2nd Street"/><tag k="addr:housenumber" v="2412"/><tag k="addr:postcode" v="78702"/></node><node id="-125" lat="30.255572" lon="-97.71673" changeset="false"><tag k="addr:street" v="East 2nd Street"/><tag k="addr:housenumber" v="2410"/><tag k="addr:postcode" v="78702"/></node><node id="-126" lat="30.255548" lon="-97.71667" changeset="false"><tag k="addr:street" v="East 2nd Street"/><tag k="addr:housenumber" v="2414"/><tag k="addr:postcode" v="78702"/></node><node id="-127" lat="30.255608" lon="-97.716354" changeset="false"><tag k="addr:street" v="Pedernales Street"/><tag k="addr:housenumber" v="202"/><tag k="addr:postcode" v="78702"/></node><node id="-128" lat="30.255657" lon="-97.716333" changeset="false"><tag k="addr:street" v="Pedernales Street"/><tag k="addr:housenumber" v="204"/><tag k="addr:postcode" v="78702"/></node><node id="-129" lat="30.255524" lon="-97.716395" changeset="false"><tag k="addr:street" v="Pedernales Street"/><tag k="addr:housenumber" v="208"/><tag k="addr:postcode" v="78702"/></node><node id="-130" lat="30.255567" lon="-97.716374" changeset="false"><tag k="addr:street" v="Pedernales Street"/><tag k="addr:housenumber" v="206"/><tag k="addr:postcode" v="78702"/></node><node id="-131" lat="30.259028" lon="-97.720471" changeset="false"><tag k="addr:street" v="East 4th Street"/><tag k="addr:housenumber" v="2006"/><tag k="addr:postcode" v="78702"/></node><node id="-132" lat="30.258799" lon="-97.719758" changeset="false"><tag k="addr:street" v="East 4th Street"/><tag k="addr:housenumber" v="2112"/><tag k="addr:postcode" v="78702"/></node><node id="-133" lat="30.258887" lon="-97.720035" changeset="false"><tag k="addr:street" v="East 4th Street"/><tag k="addr:housenumber" v="2110"/><tag k="addr:postcode" v="78702"/></node><node id="-134" lat="30.258755" lon="-97.719618" changeset="false"><tag k="addr:street" v="East 4th Street"/><tag k="addr:housenumber" v="2114"/><tag k="addr:postcode" v="78702"/></node><node id="-135" lat="30.258619" lon="-97.723626" changeset="false"><tag k="addr:street" v="East 3rd Street"/><tag k="addr:housenumber" v="1903"/><tag k="addr:postcode" v="78702"/></node><node id="-136" lat="30.258619" lon="-97.723609" changeset="false"><tag k="addr:street" v="Chicon Street"/><tag k="addr:housenumber" v="205"/><tag k="addr:postcode" v="78702"/></node><node id="-137" lat="30.258559" lon="-97.723482" changeset="false"><tag k="addr:street" v="East 3rd Street"/><tag k="addr:housenumber" v="1905"/><tag k="addr:postcode" v="78702"/></node><node id="-138" lat="30.260338" lon="-97.722811" changeset="false"><tag k="addr:street" v="Chicon Street"/><tag k="addr:housenumber" v="411"/><tag k="addr:postcode" v="78702"/></node><node id="-139" lat="30.259902" lon="-97.722713" changeset="false"><tag k="addr:street" v="East 4th Street"/><tag k="addr:housenumber" v="1906"/><tag k="addr:postcode" v="78702"/></node><node id="-140" lat="30.257071" lon="-97.717286" changeset="false"><tag k="addr:street" v="Santa Rita Street"/><tag k="addr:housenumber" v="2318"/><tag k="addr:postcode" v="78702"/></node><node id="-141" lat="30.25707" lon="-97.717265" changeset="false"><tag k="addr:street" v="Santa Rita Street"/><tag k="addr:housenumber" v="2320"/><tag k="addr:postcode" v="78702"/></node><node id="-142" lat="30.255987" lon="-97.7178" changeset="false"><tag k="addr:street" v="East 2nd Street"/><tag k="addr:housenumber" v="2320"/><tag k="addr:postcode" v="78702"/></node><node id="-143" lat="30.255969" lon="-97.71775" changeset="false"><tag k="addr:street" v="East 2nd Street"/><tag k="addr:housenumber" v="2318"/><tag k="addr:postcode" v="78702"/></node><node id="-144" lat="30.255999" lon="-97.717845" changeset="false"><tag k="addr:street" v="East 2nd Street"/><tag k="addr:housenumber" v="2322"/><tag k="addr:postcode" v="78702"/></node><node id="-145" lat="30.255952" lon="-97.717697" changeset="false"><tag k="addr:street" v="East 2nd Street"/><tag k="addr:housenumber" v="2316"/><tag k="addr:postcode" v="78702"/></node><node id="-146" lat="30.256175" lon="-97.717319" changeset="false"><tag k="addr:street" v="Corta Street"/><tag k="addr:housenumber" v="2335"/><tag k="addr:postcode" v="78702"/></node><node id="-147" lat="30.256133" lon="-97.717134" changeset="false"><tag k="addr:street" v="Corta Street"/><tag k="addr:housenumber" v="2341"/><tag k="addr:postcode" v="78702"/></node><node id="-148" lat="30.256155" lon="-97.717265" changeset="false"><tag k="addr:street" v="Corta Street"/><tag k="addr:housenumber" v="2337"/><tag k="addr:postcode" v="78702"/></node><node id="-149" lat="30.25614" lon="-97.717211" changeset="false"><tag k="addr:street" v="Corta Street"/><tag k="addr:housenumber" v="2339"/><tag k="addr:postcode" v="78702"/></node><node id="-150" lat="30.25626" lon="-97.717571" changeset="false"><tag k="addr:street" v="Corta Street"/><tag k="addr:housenumber" v="2327"/><tag k="addr:postcode" v="78702"/></node><node id="-151" lat="30.25624" lon="-97.717515" changeset="false"><tag k="addr:street" v="Corta Street"/><tag k="addr:housenumber" v="2329"/><tag k="addr:postcode" v="78702"/></node><node id="-152" lat="30.256219" lon="-97.717457" changeset="false"><tag k="addr:street" v="Corta Street"/><tag k="addr:housenumber" v="2331"/><tag k="addr:postcode" v="78702"/></node><node id="-153" lat="30.256336" lon="-97.717775" changeset="false"><tag k="addr:street" v="Corta Street"/><tag k="addr:housenumber" v="2309"/><tag k="addr:postcode" v="78702"/></node><node id="-154" lat="30.256312" lon="-97.717705" changeset="false"><tag k="addr:street" v="Corta Street"/><tag k="addr:housenumber" v="2333"/><tag k="addr:postcode" v="78702"/></node><node id="-155" lat="30.256416" lon="-97.717149" changeset="false"><tag k="addr:street" v="Corta Street"/><tag k="addr:housenumber" v="2336"/><tag k="addr:postcode" v="78702"/></node><node id="-156" lat="30.256454" lon="-97.717252" changeset="false"><tag k="addr:street" v="Corta Street"/><tag k="addr:housenumber" v="2332"/><tag k="addr:postcode" v="78702"/></node><node id="-157" lat="30.25639" lon="-97.717083" changeset="false"><tag k="addr:street" v="Corta Street"/><tag k="addr:housenumber" v="2338"/><tag k="addr:postcode" v="78702"/></node><node id="-158" lat="30.256434" lon="-97.7172" changeset="false"><tag k="addr:street" v="Corta Street"/><tag k="addr:housenumber" v="2334"/><tag k="addr:postcode" v="78702"/></node><node id="-159" lat="30.256551" lon="-97.717526" changeset="false"><tag k="addr:street" v="Corta Street"/><tag k="addr:housenumber" v="2328"/><tag k="addr:postcode" v="78702"/></node><node id="-160" lat="30.25653" lon="-97.717466" changeset="false"><tag k="addr:street" v="Corta Street"/><tag k="addr:housenumber" v="2330"/><tag k="addr:postcode" v="78702"/></node><node id="-161" lat="30.256574" lon="-97.71758" changeset="false"><tag k="addr:street" v="Corta Street"/><tag k="addr:housenumber" v="2326"/><tag k="addr:postcode" v="78702"/></node><node id="-162" lat="30.256591" lon="-97.717642" changeset="false"><tag k="addr:street" v="Corta Street"/><tag k="addr:housenumber" v="2324"/><tag k="addr:postcode" v="78702"/></node><node id="-163" lat="30.256603" lon="-97.717688" changeset="false"><tag k="addr:street" v="Corta Street"/><tag k="addr:housenumber" v="2322"/><tag k="addr:postcode" v="78702"/></node><node id="-164" lat="30.254861" lon="-97.717624" changeset="false"><tag k="addr:street" v="East Cesar Chavez Street"/><tag k="addr:housenumber" v="2400"/><tag k="addr:postcode" v="78702"/></node><node id="-165" lat="30.254953" lon="-97.717277" changeset="false"><tag k="addr:street" v="East Cesar Chavez Street"/><tag k="addr:housenumber" v="2410"/><tag k="addr:postcode" v="78702"/></node><node id="-166" lat="30.254743" lon="-97.717214" changeset="false"><tag k="addr:street" v="East Cesar Chavez Street"/><tag k="addr:housenumber" v="2412"/><tag k="addr:postcode" v="78702"/></node><node id="-167" lat="30.255711" lon="-97.717089" changeset="false"><tag k="addr:street" v="East 2nd Street"/><tag k="addr:housenumber" v="2408"/><tag k="addr:postcode" v="78702"/></node><node id="-168" lat="30.255662" lon="-97.716963" changeset="false"><tag k="addr:street" v="East 2nd Street"/><tag k="addr:housenumber" v="2404"/><tag k="addr:postcode" v="78702"/></node><node id="-169" lat="30.255636" lon="-97.716906" changeset="false"><tag k="addr:street" v="East 2nd Street"/><tag k="addr:housenumber" v="2402"/><tag k="addr:postcode" v="78702"/></node><node id="-170" lat="30.255685" lon="-97.717026" changeset="false"><tag k="addr:street" v="East 2nd Street"/><tag k="addr:housenumber" v="2406"/><tag k="addr:postcode" v="78702"/></node><node id="-171" lat="30.25587" lon="-97.717477" changeset="false"><tag k="addr:street" v="East 2nd Street"/><tag k="addr:housenumber" v="2330"/><tag k="addr:postcode" v="78702"/></node><node id="-172" lat="30.255891" lon="-97.717535" changeset="false"><tag k="addr:street" v="East 2nd Street"/><tag k="addr:housenumber" v="2328"/><tag k="addr:postcode" v="78702"/></node><node id="-173" lat="30.255829" lon="-97.717367" changeset="false"><tag k="addr:street" v="East 2nd Street"/><tag k="addr:housenumber" v="2326"/><tag k="addr:postcode" v="78702"/></node><node id="-174" lat="30.25585" lon="-97.717422" changeset="false"><tag k="addr:street" v="East 2nd Street"/><tag k="addr:housenumber" v="2324"/><tag k="addr:postcode" v="78702"/></node><node id="-175" lat="30.256425" lon="-97.71906" changeset="false"><tag k="addr:street" v="East 2nd Street"/><tag k="addr:housenumber" v="2220"/><tag k="addr:postcode" v="78702"/></node><node id="-176" lat="30.256396" lon="-97.71897" changeset="false"><tag k="addr:street" v="East 2nd Street"/><tag k="addr:housenumber" v="2218"/><tag k="addr:postcode" v="78702"/></node><node id="-177" lat="30.256432" lon="-97.719108" changeset="false"><tag k="addr:street" v="East 2nd Street"/><tag k="addr:housenumber" v="2222"/><tag k="addr:postcode" v="78702"/></node><node id="-178" lat="30.25641" lon="-97.719014" changeset="false"><tag k="addr:street" v="East 2nd Street"/><tag k="addr:housenumber" v="2216"/><tag k="addr:postcode" v="78702"/></node><node id="-179" lat="30.256424" lon="-97.718049" changeset="false"><tag k="addr:street" v="Corta Street"/><tag k="addr:housenumber" v="2321"/><tag k="addr:postcode" v="78702"/></node><node id="-180" lat="30.256406" lon="-97.718" changeset="false"><tag k="addr:street" v="Corta Street"/><tag k="addr:housenumber" v="2323"/><tag k="addr:postcode" v="78702"/></node><node id="-181" lat="30.256389" lon="-97.717957" changeset="false"><tag k="addr:street" v="Corta Street"/><tag k="addr:housenumber" v="2325"/><tag k="addr:postcode" v="78702"/></node><node id="-182" lat="30.256563" lon="-97.718416" changeset="false"><tag k="addr:street" v="Corta Street"/><tag k="addr:housenumber" v="2313"/><tag k="addr:postcode" v="78702"/></node><node id="-183" lat="30.256502" lon="-97.718267" changeset="false"><tag k="addr:street" v="Corta Street"/><tag k="addr:housenumber" v="2317"/><tag k="addr:postcode" v="78702"/></node><node id="-184" lat="30.256485" lon="-97.7182" changeset="false"><tag k="addr:street" v="Corta Street"/><tag k="addr:housenumber" v="2319"/><tag k="addr:postcode" v="78702"/></node><node id="-185" lat="30.256581" lon="-97.718461" changeset="false"><tag k="addr:street" v="Corta Street"/><tag k="addr:housenumber" v="2311"/><tag k="addr:postcode" v="78702"/></node><node id="-186" lat="30.256546" lon="-97.718378" changeset="false"><tag k="addr:street" v="Corta Street"/><tag k="addr:housenumber" v="2315"/><tag k="addr:postcode" v="78702"/></node><node id="-187" lat="30.256673" lon="-97.717872" changeset="false"><tag k="addr:street" v="Corta Street"/><tag k="addr:housenumber" v="2320"/><tag k="addr:postcode" v="78702"/></node><node id="-188" lat="30.256735" lon="-97.718056" changeset="false"><tag k="addr:street" v="Corta Street"/><tag k="addr:housenumber" v="2314"/><tag k="addr:postcode" v="78702"/></node><node id="-189" lat="30.256699" lon="-97.717933" changeset="false"><tag k="addr:street" v="Corta Street"/><tag k="addr:housenumber" v="2318"/><tag k="addr:postcode" v="78702"/></node><node id="-190" lat="30.25672" lon="-97.717995" changeset="false"><tag k="addr:street" v="Corta Street"/><tag k="addr:housenumber" v="2316"/><tag k="addr:postcode" v="78702"/></node><node id="-191" lat="30.256753" lon="-97.718969" changeset="false"><tag k="addr:street" v="Corta Street"/><tag k="addr:housenumber" v="2218"/><tag k="addr:postcode" v="78702"/></node><node id="-192" lat="30.256724" lon="-97.718887" changeset="false"><tag k="addr:street" v="Corta Street"/><tag k="addr:housenumber" v="2220"/><tag k="addr:postcode" v="78702"/></node><node id="-193" lat="30.256707" lon="-97.718839" changeset="false"><tag k="addr:street" v="Corta Street"/><tag k="addr:housenumber" v="2216"/><tag k="addr:postcode" v="78702"/></node><node id="-194" lat="30.256739" lon="-97.718933" changeset="false"><tag k="addr:street" v="Corta Street"/><tag k="addr:housenumber" v="2222"/><tag k="addr:postcode" v="78702"/></node><node id="-195" lat="30.256838" lon="-97.718402" changeset="false"><tag k="addr:street" v="Corta Street"/><tag k="addr:housenumber" v="2310"/><tag k="addr:postcode" v="78702"/></node><node id="-196" lat="30.256858" lon="-97.718452" changeset="false"><tag k="addr:street" v="Corta Street"/><tag k="addr:housenumber" v="2308"/><tag k="addr:postcode" v="78702"/></node><node id="-197" lat="30.256823" lon="-97.718343" changeset="false"><tag k="addr:street" v="Corta Street"/><tag k="addr:housenumber" v="2312"/><tag k="addr:postcode" v="78702"/></node><node id="-198" lat="30.256992" lon="-97.71882" changeset="false"><tag k="addr:street" v="Corta Street"/><tag k="addr:housenumber" v="2304"/><tag k="addr:postcode" v="78702"/></node><node id="-199" lat="30.256972" lon="-97.718768" changeset="false"><tag k="addr:street" v="Corta Street"/><tag k="addr:housenumber" v="2306"/><tag k="addr:postcode" v="78702"/></node><node id="-200" lat="30.256931" lon="-97.718655" changeset="false"><tag k="addr:street" v="Corta Street"/><tag k="addr:housenumber" v="2302"/><tag k="addr:postcode" v="78702"/></node><node id="-201" lat="30.256949" lon="-97.718711" changeset="false"><tag k="addr:street" v="Corta Street"/><tag k="addr:housenumber" v="2300"/><tag k="addr:postcode" v="78702"/></node><node id="-202" lat="30.25511" lon="-97.718101" changeset="false"><tag k="addr:street" v="East Cesar Chavez Street"/><tag k="addr:housenumber" v="2324"/><tag k="addr:postcode" v="78702"/></node><node id="-203" lat="30.255016" lon="-97.717987" changeset="false"><tag k="addr:street" v="East Cesar Chavez Street"/><tag k="addr:housenumber" v="2328"/><tag k="addr:postcode" v="78702"/></node><node id="-204" lat="30.255319" lon="-97.718816" changeset="false"><tag k="addr:street" v="East Cesar Chavez Street"/><tag k="addr:housenumber" v="2304"/><tag k="addr:postcode" v="78702"/></node><node id="-205" lat="30.255363" lon="-97.718978" changeset="false"><tag k="addr:street" v="East Cesar Chavez Street"/><tag k="addr:housenumber" v="2302"/><tag k="addr:postcode" v="78702"/></node><node id="-206" lat="30.25535" lon="-97.719141" changeset="false"><tag k="addr:street" v="East Cesar Chavez Street"/><tag k="addr:housenumber" v="2300"/><tag k="addr:postcode" v="78702"/></node><node id="-207" lat="30.256063" lon="-97.718013" changeset="false"><tag k="addr:street" v="East 2nd Street"/><tag k="addr:housenumber" v="2310"/><tag k="addr:postcode" v="78702"/></node><node id="-208" lat="30.256101" lon="-97.718131" changeset="false"><tag k="addr:street" v="East 2nd Street"/><tag k="addr:housenumber" v="2314"/><tag k="addr:postcode" v="78702"/></node><node id="-209" lat="30.25608" lon="-97.718074" changeset="false"><tag k="addr:street" v="East 2nd Street"/><tag k="addr:housenumber" v="2312"/><tag k="addr:postcode" v="78702"/></node><node id="-210" lat="30.256124" lon="-97.718181" changeset="false"><tag k="addr:street" v="East 2nd Street"/><tag k="addr:housenumber" v="2308"/><tag k="addr:postcode" v="78702"/></node><node id="-211" lat="30.256229" lon="-97.718487" changeset="false"><tag k="addr:street" v="East 2nd Street"/><tag k="addr:housenumber" v="2300"/><tag k="addr:postcode" v="78702"/></node><node id="-212" lat="30.256272" lon="-97.718587" changeset="false"><tag k="addr:street" v="East 2nd Street"/><tag k="addr:housenumber" v="2302"/><tag k="addr:postcode" v="78702"/></node><node id="-213" lat="30.256206" lon="-97.718432" changeset="false"><tag k="addr:street" v="East 2nd Street"/><tag k="addr:housenumber" v="2304"/><tag k="addr:postcode" v="78702"/></node><node id="-214" lat="30.256249" lon="-97.718535" changeset="false"><tag k="addr:street" v="East 2nd Street"/><tag k="addr:housenumber" v="2306"/><tag k="addr:postcode" v="78702"/></node></osm>