<?xml version="1.0" encoding="UTF-8"?><osm version="0.6" generator="github.com/aaronlidman/osm-and-geojson"><node id="-1" lat="30.3869" lon="-97.744971" changeset="false"><tag k="addr:street" v="Jollyville Road"/><tag k="addr:housenumber" v="9431"/><tag k="addr:postcode" v="78759"/></node><node id="-2" lat="30.386775" lon="-97.746536" changeset="false"><tag k="addr:street" v="Jollyville Road"/><tag k="addr:housenumber" v="9500"/><tag k="addr:postcode" v="78759"/></node><node id="-3" lat="30.387843" lon="-97.750418" changeset="false"><tag k="addr:street" v="Wildridge Drive"/><tag k="addr:housenumber" v="9102"/><tag k="addr:postcode" v="78759"/></node><node id="-4" lat="30.387631" lon="-97.748368" changeset="false"><tag k="addr:street" v="Capital of Texas Highway"/><tag k="addr:housenumber" v="9525"/><tag k="addr:postcode" v="78759"/></node><node id="-5" lat="30.387574" lon="-97.746364" changeset="false"><tag k="addr:street" v="Jollyville Road"/><tag k="addr:housenumber" v="9508"/><tag k="addr:postcode" v="78759"/></node><node id="-6" lat="30.386939" lon="-97.753346" changeset="false"><tag k="addr:street" v="Mountain Ridge Drive"/><tag k="addr:housenumber" v="9009"/><tag k="addr:postcode" v="78759"/></node><node id="-7" lat="30.383132" lon="-97.745178" changeset="false"><tag k="addr:street" v="Mesa Drive"/><tag k="addr:housenumber" v="9012"/><tag k="addr:postcode" v="78759"/></node><node id="-8" lat="30.387285" lon="-97.750129" changeset="false"><tag k="addr:street" v="Wildridge Drive"/><tag k="addr:housenumber" v="9111"/><tag k="addr:postcode" v="78759"/></node><node id="-9" lat="30.385558" lon="-97.750734" changeset="false"><tag k="addr:street" v="Greenridge Place"/><tag k="addr:housenumber" v="4204"/><tag k="addr:postcode" v="78759"/></node><node id="-10" lat="30.384354" lon="-97.754241" changeset="false"><tag k="addr:street" v="Mountain Ridge Drive"/><tag k="addr:housenumber" v="8719 1/2"/><tag k="addr:postcode" v="78759"/></node><node id="-11" lat="30.387657" lon="-97.749782" changeset="false"><tag k="addr:street" v="Capital of Texas Highway"/><tag k="addr:housenumber" v="9501"/><tag k="addr:postcode" v="78759"/></node><node id="-12" lat="30.385862" lon="-97.754062" changeset="false"><tag k="addr:street" v="Mountain Ridge Drive"/><tag k="addr:housenumber" v="8809"/><tag k="addr:postcode" v="78759"/></node><node id="-13" lat="30.386909" lon="-97.750921" changeset="false"><tag k="addr:street" v="Wildridge Drive"/><tag k="addr:housenumber" v="9002"/><tag k="addr:postcode" v="78759"/></node><node id="-14" lat="30.382706" lon="-97.749055" changeset="false"><tag k="addr:street" v="Hycrest Drive"/><tag k="addr:housenumber" v="4101"/><tag k="addr:postcode" v="78759"/></node><node id="-15" lat="30.386574" lon="-97.753362" changeset="false"><tag k="addr:street" v="Mountain Ridge Drive"/><tag k="addr:housenumber" v="9005"/><tag k="addr:postcode" v="78759"/></node><node id="-16" lat="30.385908" lon="-97.751562" changeset="false"><tag k="addr:street" v="Wildridge Drive"/><tag k="addr:housenumber" v="8908"/><tag k="addr:postcode" v="78759"/></node><node id="-17" lat="30.382339" lon="-97.752083" changeset="false"><tag k="addr:street" v="Westover Club Drive"/><tag k="addr:housenumber" v="8704"/><tag k="addr:postcode" v="78759"/></node><node id="-18" lat="30.381398" lon="-97.750225" changeset="false"><tag k="addr:street" v="Ridgehill Drive"/><tag k="addr:housenumber" v="8708"/><tag k="addr:postcode" v="78759"/></node><node id="-19" lat="30.385801" lon="-97.74832" changeset="false"><tag k="addr:street" v="Bluffridge Drive"/><tag k="addr:housenumber" v="4104"/><tag k="addr:postcode" v="78759"/></node><node id="-20" lat="30.381717" lon="-97.752438" changeset="false"><tag k="addr:street" v="Hyridge Drive"/><tag k="addr:housenumber" v="4112"/><tag k="addr:postcode" v="78759"/></node><node id="-21" lat="30.386452" lon="-97.745747" changeset="false"><tag k="addr:street" v="Jollyville Road"/><tag k="addr:housenumber" v="9430"/><tag k="addr:postcode" v="78759"/></node><node id="-22" lat="30.387453" lon="-97.750723" changeset="false"><tag k="addr:street" v="Bluffridge Drive"/><tag k="addr:housenumber" v="4304"/><tag k="addr:postcode" v="78759"/></node><node id="-23" lat="30.380854" lon="-97.750147" changeset="false"><tag k="addr:street" v="Ridgehill Drive"/><tag k="addr:housenumber" v="8709"/><tag k="addr:postcode" v="78759"/></node><node id="-24" lat="30.385314" lon="-97.745692" changeset="false"><tag k="addr:street" v="Jollyville Road"/><tag k="addr:housenumber" v="9310"/><tag k="addr:postcode" v="78759"/></node><node id="-25" lat="30.383955" lon="-97.748859" changeset="false"><tag k="addr:street" v="Currywood Drive"/><tag k="addr:housenumber" v="8906"/><tag k="addr:postcode" v="78759"/></node><node id="-26" lat="30.385758" lon="-97.751046" changeset="false"><tag k="addr:street" v="Wildridge Drive"/><tag k="addr:housenumber" v="8907"/><tag k="addr:postcode" v="78759"/></node><node id="-27" lat="30.38721" lon="-97.750194" changeset="false"><tag k="addr:street" v="Wildridge Drive"/><tag k="addr:housenumber" v="9103"/><tag k="addr:postcode" v="78759"/></node><node id="-28" lat="30.388366" lon="-97.749232" changeset="false"><tag k="addr:street" v="Jollyville Road"/><tag k="addr:housenumber" v="9510"/><tag k="addr:postcode" v="78759"/></node><node id="-29" lat="30.381028" lon="-97.742251" changeset="false"><tag k="addr:street" v="Jollyville Road"/><tag k="addr:housenumber" v="9049"/><tag k="addr:postcode" v="78759"/></node><node id="-30" lat="30.387608" lon="-97.753233" changeset="false"><tag k="addr:street" v="Mountain Ridge Drive"/><tag k="addr:housenumber" v="9101"/><tag k="addr:postcode" v="78759"/></node><node id="-31" lat="30.382628" lon="-97.747281" changeset="false"><tag k="addr:street" v="Split Oak Circle"/><tag k="addr:housenumber" v="8903"/><tag k="addr:postcode" v="78759"/></node><node id="-32" lat="30.380646" lon="-97.741302" changeset="false"><tag k="addr:street" v="Research Boulevard"/><tag k="addr:housenumber" v="9300"/><tag k="addr:postcode" v="78759"/></node><node id="-33" lat="30.381456" lon="-97.7426" changeset="false"><tag k="addr:street" v="Jollyville Road"/><tag k="addr:housenumber" v="9065"/><tag k="addr:postcode" v="78759"/></node><node id="-34" lat="30.38587" lon="-97.753947" changeset="false"><tag k="addr:street" v="Mountain Ridge Circle"/><tag k="addr:housenumber" v="8868"/><tag k="addr:postcode" v="78759"/></node><node id="-35" lat="30.384367" lon="-97.754134" changeset="false"><tag k="addr:street" v="Mountain Ridge Drive"/><tag k="addr:housenumber" v="8719"/><tag k="addr:postcode" v="78759"/></node><node id="-36" lat="30.38659" lon="-97.749122" changeset="false"><tag k="addr:street" v="Bluffridge Drive"/><tag k="addr:housenumber" v="4112"/><tag k="addr:postcode" v="78759"/></node><node id="-37" lat="30.386378" lon="-97.748985" changeset="false"><tag k="addr:street" v="Bluffridge Drive"/><tag k="addr:housenumber" v="4110"/><tag k="addr:postcode" v="78759"/></node><node id="-38" lat="30.378695" lon="-97.753196" changeset="false"><tag k="addr:street" v="Rockford Lane"/><tag k="addr:housenumber" v="4104"/><tag k="addr:postcode" v="78759"/></node><node id="-39" lat="30.378685" lon="-97.753044" changeset="false"><tag k="addr:street" v="Mesa Drive"/><tag k="addr:housenumber" v="8600"/><tag k="addr:postcode" v="78759"/></node></osm>