<?xml version="1.0" encoding="UTF-8"?><osm version="0.6" generator="github.com/aaronlidman/osm-and-geojson"><node id="-1" lat="30.289674" lon="-97.741948" changeset="false"><tag k="addr:street" v="San Antonio Street"/><tag k="addr:housenumber" v="2509"/><tag k="coa:place_id" v="250434"/></node><node id="-2" lat="30.288224" lon="-97.741779" changeset="false"><tag k="addr:street" v="Guadalupe Street"/><tag k="addr:housenumber" v="2416"/><tag k="coa:place_id" v="517130"/></node><node id="-3" lat="30.288413" lon="-97.741754" changeset="false"><tag k="addr:street" v="Guadalupe Street"/><tag k="addr:housenumber" v="2420"/><tag k="coa:place_id" v="517142"/></node><node id="-4" lat="30.288024" lon="-97.741829" changeset="false"><tag k="addr:street" v="Guadalupe Street"/><tag k="addr:housenumber" v="2404"/><tag k="coa:place_id" v="475256"/></node><node id="-5" lat="30.290184" lon="-97.741598" changeset="false"><tag k="addr:street" v="Guadalupe Street"/><tag k="addr:housenumber" v="2552"/><tag k="coa:place_id" v="475316"/></node><node id="-6" lat="30.289292" lon="-97.741656" changeset="false"><tag k="addr:street" v="Guadalupe Street"/><tag k="addr:housenumber" v="2500"/><tag k="coa:place_id" v="475280"/></node><node id="-7" lat="30.290175" lon="-97.7425" changeset="false"><tag k="addr:street" v="West 26th Street"/><tag k="addr:housenumber" v="501"/><tag k="coa:place_id" v="671247"/></node><node id="-8" lat="30.288053" lon="-97.744111" changeset="false"><tag k="addr:street" v="Seton Avenue"/><tag k="addr:housenumber" v="2400"/><tag k="coa:place_id" v="5115624"/></node><node id="-9" lat="30.288191" lon="-97.744379" changeset="false"><tag k="addr:street" v="Rio Grande Street"/><tag k="addr:housenumber" v="2401"/><tag k="coa:place_id" v="589418"/></node><node id="-10" lat="30.288466" lon="-97.744368" changeset="false"><tag k="addr:street" v="Rio Grande Street"/><tag k="addr:housenumber" v="2405"/><tag k="coa:place_id" v="589424"/></node><node id="-11" lat="30.288998" lon="-97.744354" changeset="false"><tag k="addr:street" v="Rio Grande Street"/><tag k="addr:housenumber" v="2419"/><tag k="coa:place_id" v="589430"/></node><node id="-12" lat="30.288431" lon="-97.744004" changeset="false"><tag k="addr:street" v="Seton Avenue"/><tag k="addr:housenumber" v="2412"/><tag k="coa:place_id" v="250515"/></node><node id="-13" lat="30.288232" lon="-97.74286" changeset="false"><tag k="addr:street" v="Nueces Street"/><tag k="addr:housenumber" v="2405"/><tag k="coa:place_id" v="228944"/></node><node id="-14" lat="30.288207" lon="-97.742569" changeset="false"><tag k="addr:street" v="San Antonio Street"/><tag k="addr:housenumber" v="2410"/><tag k="coa:place_id" v="475202"/></node><node id="-15" lat="30.288934" lon="-97.743287" changeset="false"><tag k="addr:street" v="Nueces Street"/><tag k="addr:housenumber" v="2420"/><tag k="coa:place_id" v="475340"/></node><node id="-16" lat="30.288579" lon="-97.742041" changeset="false"><tag k="addr:street" v="San Antonio Street"/><tag k="addr:housenumber" v="2421"/><tag k="coa:place_id" v="250433"/></node><node id="-17" lat="30.288216" lon="-97.743438" changeset="false"><tag k="addr:street" v="Nueces Street"/><tag k="addr:housenumber" v="2400"/><tag k="coa:place_id" v="3125469"/></node><node id="-18" lat="30.287941" lon="-97.742597" changeset="false"><tag k="addr:street" v="West 24th Street"/><tag k="addr:housenumber" v="504"/><tag k="coa:place_id" v="475244"/></node><node id="-19" lat="30.287877" lon="-97.741902" changeset="false"><tag k="addr:street" v="Guadalupe Street"/><tag k="addr:housenumber" v="2402"/><tag k="coa:place_id" v="475250"/></node></osm>