<?xml version="1.0" encoding="UTF-8"?><osm version="0.6" generator="github.com/aaronlidman/osm-and-geojson"><node id="-1" lat="30.285419" lon="-97.641091" changeset="false"><tag k="addr:street" v="Hidden View Circle"/><tag k="addr:housenumber" v="7704"/><tag k="coa:place_id" v="3033606"/></node><node id="-2" lat="30.285442" lon="-97.642404" changeset="false"><tag k="addr:street" v="Hidden View Circle"/><tag k="addr:housenumber" v="7621"/><tag k="coa:place_id" v="3033603"/></node><node id="-3" lat="30.292716" lon="-97.644331" changeset="false"><tag k="addr:street" v="Sendero Hills Parkway"/><tag k="addr:housenumber" v="6125"/><tag k="coa:place_id" v="159977"/></node><node id="-4" lat="30.289879" lon="-97.643388" changeset="false"><tag k="addr:street" v="Pinon Vista Drive"/><tag k="addr:housenumber" v="5841"/><tag k="coa:place_id" v="160020"/></node><node id="-5" lat="30.289909" lon="-97.646637" changeset="false"><tag k="addr:street" v="Marejada Drive"/><tag k="addr:housenumber" v="7013"/><tag k="coa:place_id" v="160337"/></node><node id="-6" lat="30.29042" lon="-97.646742" changeset="false"><tag k="addr:street" v="Marejada Drive"/><tag k="addr:housenumber" v="7008"/><tag k="coa:place_id" v="160341"/></node><node id="-7" lat="30.284433" lon="-97.640206" changeset="false"><tag k="addr:street" v="Tonopa Lane"/><tag k="addr:housenumber" v="7907"/><tag k="coa:place_id" v="319780"/></node><node id="-8" lat="30.286358" lon="-97.643" changeset="false"><tag k="addr:street" v="Chasm Lake Lane"/><tag k="addr:housenumber" v="7601"/><tag k="coa:place_id" v="3033579"/></node><node id="-9" lat="30.286192" lon="-97.640177" changeset="false"><tag k="addr:street" v="Hidden View Circle"/><tag k="addr:housenumber" v="7723"/><tag k="coa:place_id" v="3033618"/></node><node id="-10" lat="30.283521" lon="-97.646967" changeset="false"><tag k="addr:street" v="Sendero Hills Parkway"/><tag k="addr:housenumber" v="5328"/><tag k="coa:place_id" v="177875"/></node><node id="-11" lat="30.293901" lon="-97.643538" changeset="false"><tag k="addr:street" v="Sendero Hills Parkway"/><tag k="addr:housenumber" v="6221"/><tag k="coa:place_id" v="159993"/></node><node id="-12" lat="30.292316" lon="-97.644802" changeset="false"><tag k="addr:street" v="Sendero Hills Parkway"/><tag k="addr:housenumber" v="6105"/><tag k="coa:place_id" v="159967"/></node><node id="-13" lat="30.29224" lon="-97.643552" changeset="false"><tag k="addr:street" v="Perlita Drive"/><tag k="addr:housenumber" v="6105"/><tag k="coa:place_id" v="159763"/></node><node id="-14" lat="30.286918" lon="-97.637809" changeset="false"><tag k="addr:street" v="Taza Trail"/><tag k="addr:housenumber" v="8008"/><tag k="coa:place_id" v="172477"/></node><node id="-15" lat="30.286864" lon="-97.637698" changeset="false"><tag k="addr:street" v="Taza Trail"/><tag k="addr:housenumber" v="8010"/><tag k="coa:place_id" v="172476"/></node><node id="-16" lat="30.293798" lon="-97.643604" changeset="false"><tag k="addr:street" v="Sendero Hills Parkway"/><tag k="addr:housenumber" v="6217"/><tag k="coa:place_id" v="159991"/></node><node id="-17" lat="30.287095" lon="-97.640616" changeset="false"><tag k="addr:street" v="Lily Lake Loop"/><tag k="addr:housenumber" v="7819"/><tag k="coa:place_id" v="3033509"/></node><node id="-18" lat="30.292546" lon="-97.644514" changeset="false"><tag k="addr:street" v="Sendero Hills Parkway"/><tag k="addr:housenumber" v="6117"/><tag k="coa:place_id" v="159973"/></node><node id="-19" lat="30.286792" lon="-97.640198" changeset="false"><tag k="addr:street" v="Hidden View Circle"/><tag k="addr:housenumber" v="7806"/><tag k="coa:place_id" v="3033635"/></node><node id="-20" lat="30.284046" lon="-97.639548" changeset="false"><tag k="addr:street" v="Tonopa Lane"/><tag k="addr:housenumber" v="8009"/><tag k="coa:place_id" v="263044"/></node><node id="-21" lat="30.289473" lon="-97.641462" changeset="false"><tag k="addr:street" v="Key View Drive"/><tag k="addr:housenumber" v="7604"/><tag k="coa:place_id" v="3033562"/></node><node id="-22" lat="30.292911" lon="-97.644185" changeset="false"><tag k="addr:street" v="Sendero Hills Parkway"/><tag k="addr:housenumber" v="6133"/><tag k="coa:place_id" v="159979"/></node><node id="-23" lat="30.292807" lon="-97.644252" changeset="false"><tag k="addr:street" v="Sendero Hills Parkway"/><tag k="addr:housenumber" v="6129"/><tag k="coa:place_id" v="159978"/></node><node id="-24" lat="30.285184" lon="-97.641856" changeset="false"><tag k="addr:street" v="Hidden View Circle"/><tag k="addr:housenumber" v="7631"/><tag k="coa:place_id" v="3033653"/></node><node id="-25" lat="30.291962" lon="-97.643828" changeset="false"><tag k="addr:street" v="Perlita Drive"/><tag k="addr:housenumber" v="6021"/><tag k="coa:place_id" v="159757"/></node><node id="-26" lat="30.289084" lon="-97.641309" changeset="false"><tag k="addr:street" v="Key View Drive"/><tag k="addr:housenumber" v="7605"/><tag k="coa:place_id" v="3033559"/></node><node id="-27" lat="30.289026" lon="-97.643616" changeset="false"><tag k="addr:street" v="Pinon Vista Drive"/><tag k="addr:housenumber" v="5813"/><tag k="coa:place_id" v="160011"/></node><node id="-28" lat="30.288767" lon="-97.645271" changeset="false"><tag k="addr:street" v="Signal Point"/><tag k="addr:housenumber" v="5737"/><tag k="coa:place_id" v="160225"/></node><node id="-29" lat="30.290445" lon="-97.64109" changeset="false"><tag k="addr:street" v="Pizer Street"/><tag k="addr:housenumber" v="6112"/><tag k="coa:place_id" v="323782"/></node><node id="-30" lat="30.282854" lon="-97.646502" changeset="false"><tag k="addr:street" v="Sendero Hills Parkway"/><tag k="addr:housenumber" v="5321"/><tag k="coa:place_id" v="177852"/></node><node id="-31" lat="30.293556" lon="-97.642711" changeset="false"><tag k="addr:street" v="Perlita Drive"/><tag k="addr:housenumber" v="6217"/><tag k="coa:place_id" v="159785"/></node><node id="-32" lat="30.286492" lon="-97.6411" changeset="false"><tag k="addr:street" v="Lily Lake Loop"/><tag k="addr:housenumber" v="7808"/><tag k="coa:place_id" v="3033496"/></node><node id="-33" lat="30.286581" lon="-97.639967" changeset="false"><tag k="addr:street" v="Hidden View Circle"/><tag k="addr:housenumber" v="7807"/><tag k="coa:place_id" v="3033627"/></node><node id="-34" lat="30.289197" lon="-97.641517" changeset="false"><tag k="addr:street" v="Key View Drive"/><tag k="addr:housenumber" v="7601"/><tag k="coa:place_id" v="3033566"/></node><node id="-35" lat="30.293108" lon="-97.644045" changeset="false"><tag k="addr:street" v="Sendero Hills Parkway"/><tag k="addr:housenumber" v="6141"/><tag k="coa:place_id" v="159982"/></node><node id="-36" lat="30.291696" lon="-97.644123" changeset="false"><tag k="addr:street" v="Perlita Drive"/><tag k="addr:housenumber" v="6009"/><tag k="coa:place_id" v="159751"/></node><node id="-37" lat="30.292129" lon="-97.643632" changeset="false"><tag k="addr:street" v="Perlita Drive"/><tag k="addr:housenumber" v="6101"/><tag k="coa:place_id" v="159762"/></node><node id="-38" lat="30.286007" lon="-97.64127" changeset="false"><tag k="addr:street" v="Chasm Lake Lane"/><tag k="addr:housenumber" v="7624"/><tag k="coa:place_id" v="3033585"/></node><node id="-39" lat="30.287754" lon="-97.641668" changeset="false"><tag k="addr:street" v="Hidden View Circle"/><tag k="addr:housenumber" v="8018"/><tag k="coa:place_id" v="3033522"/></node><node id="-40" lat="30.28554" lon="-97.642765" changeset="false"><tag k="addr:street" v="Hidden View Circle"/><tag k="addr:housenumber" v="7615"/><tag k="coa:place_id" v="3033601"/></node><node id="-41" lat="30.286779" lon="-97.641207" changeset="false"><tag k="addr:street" v="Lily Lake Loop"/><tag k="addr:housenumber" v="7812"/><tag k="coa:place_id" v="1164841"/></node><node id="-42" lat="30.28962" lon="-97.643351" changeset="false"><tag k="addr:street" v="Pinon Vista Drive"/><tag k="addr:housenumber" v="5833"/><tag k="coa:place_id" v="160018"/></node><node id="-43" lat="30.289275" lon="-97.641054" changeset="false"><tag k="addr:street" v="Key View Drive"/><tag k="addr:housenumber" v="7612"/><tag k="coa:place_id" v="3033564"/></node><node id="-44" lat="30.282591" lon="-97.646676" changeset="false"><tag k="addr:street" v="Sendero Hills Parkway"/><tag k="addr:housenumber" v="5313"/><tag k="coa:place_id" v="177849"/></node><node id="-45" lat="30.291793" lon="-97.644018" changeset="false"><tag k="addr:street" v="Perlita Drive"/><tag k="addr:housenumber" v="6013"/><tag k="coa:place_id" v="159755"/></node><node id="-46" lat="30.288571" lon="-97.648167" changeset="false"><tag k="addr:street" v="Sendero Hills Parkway"/><tag k="addr:housenumber" v="5632"/><tag k="coa:place_id" v="3323708"/></node><node id="-47" lat="30.28917" lon="-97.648141" changeset="false"><tag k="addr:street" v="Sendero Hills Parkway"/><tag k="addr:housenumber" v="5700"/><tag k="coa:place_id" v="3323711"/></node><node id="-48" lat="30.295526" lon="-97.642883" changeset="false"><tag k="addr:street" v="Sendero Hills Parkway"/><tag k="addr:housenumber" v="6408"/><tag k="coa:place_id" v="3306122"/></node><node id="-49" lat="30.29541" lon="-97.643008" changeset="false"><tag k="addr:street" v="Sendero Hills Parkway"/><tag k="addr:housenumber" v="6404"/><tag k="coa:place_id" v="3306121"/></node><node id="-50" lat="30.288093" lon="-97.648125" changeset="false"><tag k="addr:street" v="Sendero Hills Parkway"/><tag k="addr:housenumber" v="5620"/><tag k="coa:place_id" v="3323700"/></node><node id="-51" lat="30.280713" lon="-97.635427" changeset="false"><tag k="addr:street" v="Decker Lane"/><tag k="addr:housenumber" v="5600"/><tag k="coa:place_id" v="3072231"/></node><node id="-52" lat="30.292051" lon="-97.646014" changeset="false"><tag k="addr:street" v="Sendero Hills Parkway"/><tag k="addr:housenumber" v="6000"/><tag k="coa:place_id" v="3306095"/></node><node id="-53" lat="30.288018" lon="-97.641728" changeset="false"><tag k="addr:street" v="Hidden View Circle"/><tag k="addr:housenumber" v="8015"/><tag k="coa:place_id" v="3033534"/></node><node id="-54" lat="30.287816" lon="-97.639052" changeset="false"><tag k="addr:street" v="Hidden View Circle"/><tag k="addr:housenumber" v="7829"/><tag k="coa:place_id" v="3033548"/></node><node id="-55" lat="30.287609" lon="-97.640516" changeset="false"><tag k="addr:street" v="Lily Lake Loop"/><tag k="addr:housenumber" v="7828"/><tag k="coa:place_id" v="3033499"/></node><node id="-56" lat="30.289847" lon="-97.644979" changeset="false"><tag k="addr:street" v="Signal Point"/><tag k="addr:housenumber" v="5812"/><tag k="coa:place_id" v="160169"/></node><node id="-57" lat="30.286218" lon="-97.639674" changeset="false"><tag k="addr:street" v="Saticoy Drive"/><tag k="addr:housenumber" v="5804"/><tag k="coa:place_id" v="299986"/></node><node id="-58" lat="30.286204" lon="-97.643148" changeset="false"><tag k="addr:street" v="Dream Lake Lane"/><tag k="addr:housenumber" v="5705"/><tag k="coa:place_id" v="3033578"/></node><node id="-59" lat="30.288456" lon="-97.640309" changeset="false"><tag k="addr:street" v="Hidden View Circle"/><tag k="addr:housenumber" v="7917"/><tag k="coa:place_id" v="3033541"/></node><node id="-60" lat="30.286969" lon="-97.639704" changeset="false"><tag k="addr:street" v="Hidden View Circle"/><tag k="addr:housenumber" v="7815"/><tag k="coa:place_id" v="3033631"/></node><node id="-61" lat="30.288977" lon="-97.641062" changeset="false"><tag k="addr:street" v="Key View Drive"/><tag k="addr:housenumber" v="7609"/><tag k="coa:place_id" v="3033560"/></node><node id="-62" lat="30.286656" lon="-97.639462" changeset="false"><tag k="addr:street" v="Saticoy Drive"/><tag k="addr:housenumber" v="5814"/><tag k="coa:place_id" v="301462"/></node><node id="-63" lat="30.2853" lon="-97.642076" changeset="false"><tag k="addr:street" v="Hidden View Circle"/><tag k="addr:housenumber" v="7627"/><tag k="coa:place_id" v="3033651"/></node><node id="-64" lat="30.283104" lon="-97.646333" changeset="false"><tag k="addr:street" v="Sendero Hills Parkway"/><tag k="addr:housenumber" v="5329"/><tag k="coa:place_id" v="177857"/></node><node id="-65" lat="30.293502" lon="-97.643785" changeset="false"><tag k="addr:street" v="Sendero Hills Parkway"/><tag k="addr:housenumber" v="6205"/><tag k="coa:place_id" v="159987"/></node><node id="-66" lat="30.291576" lon="-97.64442" changeset="false"><tag k="addr:street" v="Perlita Drive"/><tag k="addr:housenumber" v="6001"/><tag k="coa:place_id" v="1100668"/></node><node id="-67" lat="30.291749" lon="-97.645047" changeset="false"><tag k="addr:street" v="Pinon Vista Drive"/><tag k="addr:housenumber" v="6036"/><tag k="coa:place_id" v="160129"/></node><node id="-68" lat="30.287621" lon="-97.642036" changeset="false"><tag k="addr:street" v="Hidden View Circle"/><tag k="addr:housenumber" v="8024"/><tag k="coa:place_id" v="3033524"/></node><node id="-69" lat="30.285844" lon="-97.640834" changeset="false"><tag k="addr:street" v="Hidden View Circle"/><tag k="addr:housenumber" v="7712"/><tag k="coa:place_id" v="3033609"/></node><node id="-70" lat="30.285774" lon="-97.642424" changeset="false"><tag k="addr:street" v="Shelf Lake Lane"/><tag k="addr:housenumber" v="5701"/><tag k="coa:place_id" v="3033590"/></node><node id="-71" lat="30.280062" lon="-97.643738" changeset="false"><tag k="addr:street" v="Rogers Lane,1100"/><tag k="addr:housenumber" v="5208"/><tag k="coa:place_id" v="250008"/></node><node id="-72" lat="30.283018" lon="-97.64735" changeset="false"><tag k="addr:street" v="Sendero Hills Parkway"/><tag k="addr:housenumber" v="5312"/><tag k="coa:place_id" v="177870"/></node><node id="-73" lat="30.286713" lon="-97.643296" changeset="false"><tag k="addr:street" v="Dream Lake Lane"/><tag k="addr:housenumber" v="5720"/><tag k="coa:place_id" v="3033577"/></node><node id="-74" lat="30.286647" lon="-97.642925" changeset="false"><tag k="addr:street" v="Chasm Lake Lane"/><tag k="addr:housenumber" v="7600"/><tag k="coa:place_id" v="3033580"/></node><node id="-75" lat="30.285341" lon="-97.64219" changeset="false"><tag k="addr:street" v="Hidden View Circle"/><tag k="addr:housenumber" v="7625"/><tag k="coa:place_id" v="3033654"/></node><node id="-76" lat="30.28531" lon="-97.641126" changeset="false"><tag k="addr:street" v="Hidden View Circle"/><tag k="addr:housenumber" v="7702"/><tag k="coa:place_id" v="3033664"/></node><node id="-77" lat="30.289135" lon="-97.64355" changeset="false"><tag k="addr:street" v="Pinon Vista Drive"/><tag k="addr:housenumber" v="5817"/><tag k="coa:place_id" v="160013"/></node><node id="-78" lat="30.29075" lon="-97.646488" changeset="false"><tag k="addr:street" v="Alsace Trail"/><tag k="addr:housenumber" v="5930"/><tag k="coa:place_id" v="160289"/></node><node id="-79" lat="30.293404" lon="-97.643859" changeset="false"><tag k="addr:street" v="Sendero Hills Parkway"/><tag k="addr:housenumber" v="6201"/><tag k="coa:place_id" v="159985"/></node><node id="-80" lat="30.294088" lon="-97.643424" changeset="false"><tag k="addr:street" v="Sendero Hills Parkway"/><tag k="addr:housenumber" v="6229"/><tag k="coa:place_id" v="159996"/></node><node id="-81" lat="30.282378" lon="-97.646867" changeset="false"><tag k="addr:street" v="Sendero Hills Parkway"/><tag k="addr:housenumber" v="5305"/><tag k="coa:place_id" v="177846"/></node><node id="-82" lat="30.288291" lon="-97.640563" changeset="false"><tag k="addr:street" v="Hidden View Circle"/><tag k="addr:housenumber" v="8000"/><tag k="coa:place_id" v="3033514"/></node><node id="-83" lat="30.28821" lon="-97.64065" changeset="false"><tag k="addr:street" v="Hidden View Circle"/><tag k="addr:housenumber" v="8002"/><tag k="coa:place_id" v="3033538"/></node><node id="-84" lat="30.285097" lon="-97.646845" changeset="false"><tag k="addr:street" v="Sendero Hills Parkway"/><tag k="addr:housenumber" v="5500"/><tag k="coa:place_id" v="177887"/></node><node id="-85" lat="30.287295" lon="-97.640487" changeset="false"><tag k="addr:street" v="Lily Lake Loop"/><tag k="addr:housenumber" v="7823"/><tag k="coa:place_id" v="3033511"/></node><node id="-86" lat="30.288312" lon="-97.641102" changeset="false"><tag k="addr:street" v="Hidden View Circle"/><tag k="addr:housenumber" v="8005"/><tag k="coa:place_id" v="3033529"/></node><node id="-87" lat="30.290626" lon="-97.647632" changeset="false"><tag k="addr:street" v="Sendero Hills Parkway"/><tag k="addr:housenumber" v="5804"/><tag k="coa:place_id" v="3323721"/></node><node id="-88" lat="30.292252" lon="-97.645753" changeset="false"><tag k="addr:street" v="Sendero Hills Parkway"/><tag k="addr:housenumber" v="6008"/><tag k="coa:place_id" v="3306097"/></node><node id="-89" lat="30.279474" lon="-97.64343" changeset="false"><tag k="addr:street" v="Rogers Lane,1100"/><tag k="addr:housenumber" v="5201"/><tag k="coa:place_id" v="3430106"/></node><node id="-90" lat="30.294056" lon="-97.644144" changeset="false"><tag k="addr:street" v="Sendero Hills Parkway"/><tag k="addr:housenumber" v="6212"/><tag k="coa:place_id" v="3306108"/></node><node id="-91" lat="30.294874" lon="-97.643584" changeset="false"><tag k="addr:street" v="Sendero Hills Parkway"/><tag k="addr:housenumber" v="6308"/><tag k="coa:place_id" v="3306116"/></node><node id="-92" lat="30.29276" lon="-97.645124" changeset="false"><tag k="addr:street" v="Sendero Hills Parkway"/><tag k="addr:housenumber" v="6104"/><tag k="coa:place_id" v="3306087"/></node><node id="-93" lat="30.286451" lon="-97.643466" changeset="false"><tag k="addr:street" v="Dream Lake Lane"/><tag k="addr:housenumber" v="5712"/><tag k="coa:place_id" v="3033575"/></node><node id="-94" lat="30.285698" lon="-97.643181" changeset="false"><tag k="addr:street" v="Hidden View Circle"/><tag k="addr:housenumber" v="7609"/><tag k="coa:place_id" v="3033599"/></node><node id="-95" lat="30.287977" lon="-97.641139" changeset="false"><tag k="addr:street" v="Hidden View Circle"/><tag k="addr:housenumber" v="8010"/><tag k="coa:place_id" v="3033518"/></node><node id="-96" lat="30.287926" lon="-97.641287" changeset="false"><tag k="addr:street" v="Hidden View Circle"/><tag k="addr:housenumber" v="8012"/><tag k="coa:place_id" v="3033519"/></node><node id="-97" lat="30.283237" lon="-97.646253" changeset="false"><tag k="addr:street" v="Sendero Hills Parkway"/><tag k="addr:housenumber" v="5333"/><tag k="coa:place_id" v="177858"/></node><node id="-98" lat="30.292063" lon="-97.645343" changeset="false"><tag k="addr:street" v="Pinon Vista Drive"/><tag k="addr:housenumber" v="6048"/><tag k="coa:place_id" v="169768"/></node><node id="-99" lat="30.288923" lon="-97.64369" changeset="false"><tag k="addr:street" v="Pinon Vista Drive"/><tag k="addr:housenumber" v="5809"/><tag k="coa:place_id" v="160009"/></node><node id="-100" lat="30.286075" lon="-97.643725" changeset="false"><tag k="addr:street" v="Dream Lake Lane"/><tag k="addr:housenumber" v="5700"/><tag k="coa:place_id" v="3033572"/></node><node id="-101" lat="30.287903" lon="-97.639931" changeset="false"><tag k="addr:street" v="Hidden View Circle"/><tag k="addr:housenumber" v="7904"/><tag k="coa:place_id" v="3033546"/></node><node id="-102" lat="30.28781" lon="-97.641543" changeset="false"><tag k="addr:street" v="Hidden View Circle"/><tag k="addr:housenumber" v="8016"/><tag k="coa:place_id" v="3033521"/></node><node id="-103" lat="30.287117" lon="-97.639621" changeset="false"><tag k="addr:street" v="Hidden View Circle"/><tag k="addr:housenumber" v="7817"/><tag k="coa:place_id" v="3033623"/></node><node id="-104" lat="30.279647" lon="-97.643254" changeset="false"><tag k="addr:street" v="Rogers Lane,1100"/><tag k="addr:housenumber" v="5205"/><tag k="coa:place_id" v="95406"/></node><node id="-105" lat="30.283364" lon="-97.646173" changeset="false"><tag k="addr:street" v="Sendero Hills Parkway"/><tag k="addr:housenumber" v="5337"/><tag k="coa:place_id" v="177859"/></node><node id="-106" lat="30.286766" lon="-97.639839" changeset="false"><tag k="addr:street" v="Hidden View Circle"/><tag k="addr:housenumber" v="7811"/><tag k="coa:place_id" v="3033629"/></node><node id="-107" lat="30.286544" lon="-97.639513" changeset="false"><tag k="addr:street" v="Saticoy Drive"/><tag k="addr:housenumber" v="5812"/><tag k="coa:place_id" v="280534"/></node><node id="-108" lat="30.286168" lon="-97.642623" changeset="false"><tag k="addr:street" v="Shelf Lake Lane"/><tag k="addr:housenumber" v="5708"/><tag k="coa:place_id" v="3033589"/></node><node id="-109" lat="30.28501" lon="-97.641509" changeset="false"><tag k="addr:street" v="Hidden View Circle"/><tag k="addr:housenumber" v="7637"/><tag k="coa:place_id" v="3033656"/></node><node id="-110" lat="30.283267" lon="-97.641554" changeset="false"><tag k="addr:street" v="Rogers Lane,1100"/><tag k="addr:housenumber" v="7903"/><tag k="coa:place_id" v="128253"/></node><node id="-111" lat="30.281546" lon="-97.642637" changeset="false"><tag k="addr:street" v="Rogers Lane,1100"/><tag k="addr:housenumber" v="5318"/><tag k="coa:place_id" v="270770"/></node><node id="-112" lat="30.284569" lon="-97.640627" changeset="false"><tag k="addr:street" v="Tonopa Lane"/><tag k="addr:housenumber" v="7901"/><tag k="coa:place_id" v="294088"/></node><node id="-113" lat="30.288191" lon="-97.641347" changeset="false"><tag k="addr:street" v="Hidden View Circle"/><tag k="addr:housenumber" v="8009"/><tag k="coa:place_id" v="3033531"/></node><node id="-114" lat="30.286607" lon="-97.647616" changeset="false"><tag k="addr:street" v="Sendero Hills Parkway"/><tag k="addr:housenumber" v="5528"/><tag k="coa:place_id" v="3323687"/></node><node id="-115" lat="30.287118" lon="-97.647891" changeset="false"><tag k="addr:street" v="Sendero Hills Parkway"/><tag k="addr:housenumber" v="5544"/><tag k="coa:place_id" v="3323693"/></node><node id="-116" lat="30.287258" lon="-97.647934" changeset="false"><tag k="addr:street" v="Sendero Hills Parkway"/><tag k="addr:housenumber" v="5548"/><tag k="coa:place_id" v="3323694"/></node><node id="-117" lat="30.287667" lon="-97.648071" changeset="false"><tag k="addr:street" v="Sendero Hills Parkway"/><tag k="addr:housenumber" v="5608"/><tag k="coa:place_id" v="3323697"/></node><node id="-118" lat="30.288385" lon="-97.64815" changeset="false"><tag k="addr:street" v="Sendero Hills Parkway"/><tag k="addr:housenumber" v="5628"/><tag k="coa:place_id" v="3323707"/></node><node id="-119" lat="30.290173" lon="-97.647889" changeset="false"><tag k="addr:street" v="Sendero Hills Parkway"/><tag k="addr:housenumber" v="5728"/><tag k="coa:place_id" v="3323718"/></node><node id="-120" lat="30.290465" lon="-97.647748" changeset="false"><tag k="addr:street" v="Sendero Hills Parkway"/><tag k="addr:housenumber" v="5800"/><tag k="coa:place_id" v="3323720"/></node><node id="-121" lat="30.295194" lon="-97.643254" changeset="false"><tag k="addr:street" v="Sendero Hills Parkway"/><tag k="addr:housenumber" v="6320"/><tag k="coa:place_id" v="3306119"/></node><node id="-122" lat="30.29344" lon="-97.644542" changeset="false"><tag k="addr:street" v="Sendero Hills Parkway"/><tag k="addr:housenumber" v="6128"/><tag k="coa:place_id" v="3306103"/></node><node id="-123" lat="30.29393" lon="-97.644217" changeset="false"><tag k="addr:street" v="Sendero Hills Parkway"/><tag k="addr:housenumber" v="6208"/><tag k="coa:place_id" v="3306107"/></node><node id="-124" lat="30.294176" lon="-97.644074" changeset="false"><tag k="addr:street" v="Sendero Hills Parkway"/><tag k="addr:housenumber" v="6216"/><tag k="coa:place_id" v="3306109"/></node><node id="-125" lat="30.295725" lon="-97.642657" changeset="false"><tag k="addr:street" v="Sendero Hills Parkway"/><tag k="addr:housenumber" v="6416"/><tag k="coa:place_id" v="3306124"/></node><node id="-126" lat="30.286483" lon="-97.647542" changeset="false"><tag k="addr:street" v="Sendero Hills Parkway"/><tag k="addr:housenumber" v="5524"/><tag k="coa:place_id" v="3323686"/></node><node id="-127" lat="30.293188" lon="-97.644685" changeset="false"><tag k="addr:street" v="Sendero Hills Parkway"/><tag k="addr:housenumber" v="6120"/><tag k="coa:place_id" v="3306091"/></node><node id="-128" lat="30.291946" lon="-97.646209" changeset="false"><tag k="addr:street" v="Sendero Hills Parkway"/><tag k="addr:housenumber" v="5916"/><tag k="coa:place_id" v="3306094"/></node><node id="-129" lat="30.285613" lon="-97.640539" changeset="false"><tag k="addr:street" v="Hidden View Circle"/><tag k="addr:housenumber" v="7711"/><tag k="coa:place_id" v="3033612"/></node><node id="-130" lat="30.285538" lon="-97.642631" changeset="false"><tag k="addr:street" v="Hidden View Circle"/><tag k="addr:housenumber" v="7617"/><tag k="coa:place_id" v="3033605"/></node><node id="-131" lat="30.287963" lon="-97.641864" changeset="false"><tag k="addr:street" v="Hidden View Circle"/><tag k="addr:housenumber" v="8017"/><tag k="coa:place_id" v="3033535"/></node><node id="-132" lat="30.287669" lon="-97.641805" changeset="false"><tag k="addr:street" v="Hidden View Circle"/><tag k="addr:housenumber" v="8020"/><tag k="coa:place_id" v="3033523"/></node><node id="-133" lat="30.28745" lon="-97.640047" changeset="false"><tag k="addr:street" v="Lily Lake Loop"/><tag k="addr:housenumber" v="7836"/><tag k="coa:place_id" v="3033502"/></node><node id="-134" lat="30.285242" lon="-97.641963" changeset="false"><tag k="addr:street" v="Hidden View Circle"/><tag k="addr:housenumber" v="7629"/><tag k="coa:place_id" v="3033652"/></node><node id="-135" lat="30.286205" lon="-97.643626" changeset="false"><tag k="addr:street" v="Dream Lake Lane"/><tag k="addr:housenumber" v="5704"/><tag k="coa:place_id" v="3033573"/></node><node id="-136" lat="30.294186" lon="-97.643357" changeset="false"><tag k="addr:street" v="Sendero Hills Parkway"/><tag k="addr:housenumber" v="6233"/><tag k="coa:place_id" v="159997"/></node><node id="-137" lat="30.288537" lon="-97.640905" changeset="false"><tag k="addr:street" v="Hidden View Circle"/><tag k="addr:housenumber" v="8001"/><tag k="coa:place_id" v="3033527"/></node><node id="-138" lat="30.28697" lon="-97.637907" changeset="false"><tag k="addr:street" v="Taza Trail"/><tag k="addr:housenumber" v="8006"/><tag k="coa:place_id" v="172478"/></node><node id="-139" lat="30.283788" lon="-97.643145" changeset="false"><tag k="addr:street" v="Rogers Lane,1100"/><tag k="addr:housenumber" v="7711"/><tag k="coa:place_id" v="930147"/></node><node id="-140" lat="30.289538" lon="-97.64164" changeset="false"><tag k="addr:street" v="Key View Drive"/><tag k="addr:housenumber" v="7600"/><tag k="coa:place_id" v="3033561"/></node><node id="-141" lat="30.285905" lon="-97.642334" changeset="false"><tag k="addr:street" v="Shelf Lake Lane"/><tag k="addr:housenumber" v="5705"/><tag k="coa:place_id" v="3033591"/></node><node id="-142" lat="30.282481" lon="-97.646783" changeset="false"><tag k="addr:street" v="Sendero Hills Parkway"/><tag k="addr:housenumber" v="5309"/><tag k="coa:place_id" v="177847"/></node><node id="-143" lat="30.287089" lon="-97.647391" changeset="false"><tag k="addr:street" v="Pinon Vista Drive"/><tag k="addr:housenumber" v="5601"/><tag k="coa:place_id" v="160021"/></node><node id="-144" lat="30.286019" lon="-97.643211" changeset="false"><tag k="addr:street" v="Hidden View Circle"/><tag k="addr:housenumber" v="7600"/><tag k="coa:place_id" v="3033620"/></node><node id="-145" lat="30.285868" lon="-97.642884" changeset="false"><tag k="addr:street" v="Hidden View Circle"/><tag k="addr:housenumber" v="7608"/><tag k="coa:place_id" v="3033621"/></node><node id="-146" lat="30.288079" lon="-97.641608" changeset="false"><tag k="addr:street" v="Hidden View Circle"/><tag k="addr:housenumber" v="8013"/><tag k="coa:place_id" v="3033533"/></node><node id="-147" lat="30.288028" lon="-97.641009" changeset="false"><tag k="addr:street" v="Hidden View Circle"/><tag k="addr:housenumber" v="8008"/><tag k="coa:place_id" v="3033517"/></node><node id="-148" lat="30.288872" lon="-97.645045" changeset="false"><tag k="addr:street" v="Signal Point"/><tag k="addr:housenumber" v="5745"/><tag k="coa:place_id" v="160230"/></node><node id="-149" lat="30.287871" lon="-97.641417" changeset="false"><tag k="addr:street" v="Hidden View Circle"/><tag k="addr:housenumber" v="8014"/><tag k="coa:place_id" v="3033520"/></node><node id="-150" lat="30.287448" lon="-97.639081" changeset="false"><tag k="addr:street" v="Taza Trail"/><tag k="addr:housenumber" v="7810"/><tag k="coa:place_id" v="172489"/></node><node id="-151" lat="30.287154" lon="-97.638315" changeset="false"><tag k="addr:street" v="Taza Trail"/><tag k="addr:housenumber" v="7908"/><tag k="coa:place_id" v="172484"/></node><node id="-152" lat="30.286901" lon="-97.640732" changeset="false"><tag k="addr:street" v="Lily Lake Loop"/><tag k="addr:housenumber" v="7815"/><tag k="coa:place_id" v="3033507"/></node><node id="-153" lat="30.286746" lon="-97.639416" changeset="false"><tag k="addr:street" v="Saticoy Drive"/><tag k="addr:housenumber" v="5816"/><tag k="coa:place_id" v="490126"/></node><node id="-154" lat="30.28659" lon="-97.643376" changeset="false"><tag k="addr:street" v="Dream Lake Lane"/><tag k="addr:housenumber" v="5716"/><tag k="coa:place_id" v="3033576"/></node><node id="-155" lat="30.28649" lon="-97.640386" changeset="false"><tag k="addr:street" v="Hidden View Circle"/><tag k="addr:housenumber" v="7800"/><tag k="coa:place_id" v="3033632"/></node><node id="-156" lat="30.289922" lon="-97.644377" changeset="false"><tag k="addr:street" v="Signal Point"/><tag k="addr:housenumber" v="5821"/><tag k="coa:place_id" v="160242"/></node><node id="-157" lat="30.286225" lon="-97.641809" changeset="false"><tag k="addr:street" v="Chasm Lake Lane"/><tag k="addr:housenumber" v="7616"/><tag k="coa:place_id" v="3033583"/></node><node id="-158" lat="30.288334" lon="-97.640054" changeset="false"><tag k="addr:street" v="Hidden View Circle"/><tag k="addr:housenumber" v="7913"/><tag k="coa:place_id" v="3033540"/></node><node id="-159" lat="30.289486" lon="-97.64338" changeset="false"><tag k="addr:street" v="Pinon Vista Drive"/><tag k="addr:housenumber" v="5829"/><tag k="coa:place_id" v="160017"/></node><node id="-160" lat="30.294702" lon="-97.642903" changeset="false"><tag k="addr:street" v="Sendero Hills Parkway"/><tag k="addr:housenumber" v="6317"/><tag k="coa:place_id" v="160005"/></node><node id="-161" lat="30.285609" lon="-97.640949" changeset="false"><tag k="addr:street" v="Hidden View Circle"/><tag k="addr:housenumber" v="7708"/><tag k="coa:place_id" v="3033619"/></node><node id="-162" lat="30.293706" lon="-97.64262" changeset="false"><tag k="addr:street" v="Perlita Drive"/><tag k="addr:housenumber" v="6221"/><tag k="coa:place_id" v="190530"/></node><node id="-163" lat="30.286001" lon="-97.640298" changeset="false"><tag k="addr:street" v="Hidden View Circle"/><tag k="addr:housenumber" v="7719"/><tag k="coa:place_id" v="3033616"/></node><node id="-164" lat="30.295297" lon="-97.64312" changeset="false"><tag k="addr:street" v="Sendero Hills Parkway"/><tag k="addr:housenumber" v="6400"/><tag k="coa:place_id" v="3306120"/></node><node id="-165" lat="30.288761" lon="-97.648175" changeset="false"><tag k="addr:street" v="Sendero Hills Parkway"/><tag k="addr:housenumber" v="5636"/><tag k="coa:place_id" v="3323709"/></node><node id="-166" lat="30.290309" lon="-97.647829" changeset="false"><tag k="addr:street" v="Sendero Hills Parkway"/><tag k="addr:housenumber" v="5732"/><tag k="coa:place_id" v="3323719"/></node><node id="-167" lat="30.286868" lon="-97.647768" changeset="false"><tag k="addr:street" v="Sendero Hills Parkway"/><tag k="addr:housenumber" v="5536"/><tag k="coa:place_id" v="3323689"/></node><node id="-168" lat="30.287388" lon="-97.647996" changeset="false"><tag k="addr:street" v="Sendero Hills Parkway"/><tag k="addr:housenumber" v="5600"/><tag k="coa:place_id" v="3323695"/></node><node id="-169" lat="30.295624" lon="-97.642765" changeset="false"><tag k="addr:street" v="Sendero Hills Parkway"/><tag k="addr:housenumber" v="6412"/><tag k="coa:place_id" v="3306123"/></node><node id="-170" lat="30.294428" lon="-97.643934" changeset="false"><tag k="addr:street" v="Sendero Hills Parkway"/><tag k="addr:housenumber" v="6224"/><tag k="coa:place_id" v="3306111"/></node><node id="-171" lat="30.29465" lon="-97.643765" changeset="false"><tag k="addr:street" v="Sendero Hills Parkway"/><tag k="addr:housenumber" v="6300"/><tag k="coa:place_id" v="3306114"/></node><node id="-172" lat="30.292669" lon="-97.645262" changeset="false"><tag k="addr:street" v="Sendero Hills Parkway"/><tag k="addr:housenumber" v="6100"/><tag k="coa:place_id" v="3306086"/></node><node id="-173" lat="30.291819" lon="-97.646356" changeset="false"><tag k="addr:street" v="Sendero Hills Parkway"/><tag k="addr:housenumber" v="5912"/><tag k="coa:place_id" v="3306093"/></node><node id="-174" lat="30.286021" lon="-97.642742" changeset="false"><tag k="addr:street" v="Shelf Lake Lane"/><tag k="addr:housenumber" v="5704"/><tag k="coa:place_id" v="3033588"/></node><node id="-175" lat="30.287308" lon="-97.639811" changeset="false"><tag k="addr:street" v="Lily Lake Loop"/><tag k="addr:housenumber" v="7840"/><tag k="coa:place_id" v="3033504"/></node><node id="-176" lat="30.287216" lon="-97.640949" changeset="false"><tag k="addr:street" v="Lily Lake Loop"/><tag k="addr:housenumber" v="7820"/><tag k="coa:place_id" v="3033497"/></node><node id="-177" lat="30.294524" lon="-97.643087" changeset="false"><tag k="addr:street" v="Sendero Hills Parkway"/><tag k="addr:housenumber" v="6309"/><tag k="coa:place_id" v="160002"/></node><node id="-178" lat="30.28508" lon="-97.641635" changeset="false"><tag k="addr:street" v="Hidden View Circle"/><tag k="addr:housenumber" v="7635"/><tag k="coa:place_id" v="3033655"/></node><node id="-179" lat="30.287857" lon="-97.642136" changeset="false"><tag k="addr:street" v="Hidden View Circle"/><tag k="addr:housenumber" v="8021"/><tag k="coa:place_id" v="3033537"/></node><node id="-180" lat="30.287506" lon="-97.640183" changeset="false"><tag k="addr:street" v="Lily Lake Loop"/><tag k="addr:housenumber" v="7834"/><tag k="coa:place_id" v="3033501"/></node><node id="-181" lat="30.292461" lon="-97.644626" changeset="false"><tag k="addr:street" v="Sendero Hills Parkway"/><tag k="addr:housenumber" v="6113"/><tag k="coa:place_id" v="159972"/></node><node id="-182" lat="30.288078" lon="-97.640873" changeset="false"><tag k="addr:street" v="Hidden View Circle"/><tag k="addr:housenumber" v="8006"/><tag k="coa:place_id" v="3033516"/></node><node id="-183" lat="30.2936" lon="-97.643725" changeset="false"><tag k="addr:street" v="Sendero Hills Parkway"/><tag k="addr:housenumber" v="6209"/><tag k="coa:place_id" v="159989"/></node><node id="-184" lat="30.288944" lon="-97.644934" changeset="false"><tag k="addr:street" v="Signal Point"/><tag k="addr:housenumber" v="5749"/><tag k="coa:place_id" v="160231"/></node><node id="-185" lat="30.288812" lon="-97.643776" changeset="false"><tag k="addr:street" v="Pinon Vista Drive"/><tag k="addr:housenumber" v="5805"/><tag k="coa:place_id" v="160008"/></node><node id="-186" lat="30.288819" lon="-97.645168" changeset="false"><tag k="addr:street" v="Signal Point"/><tag k="addr:housenumber" v="5741"/><tag k="coa:place_id" v="160229"/></node><node id="-187" lat="30.282346" lon="-97.647171" changeset="false"><tag k="addr:street" v="Sendero Hills Parkway"/><tag k="addr:housenumber" v="5301"/><tag k="coa:place_id" v="177845"/></node><node id="-188" lat="30.282542" lon="-97.641578" changeset="false"><tag k="addr:street" v="Rogers Lane,1100"/><tag k="addr:housenumber" v="5416"/><tag k="coa:place_id" v="270848"/></node><node id="-189" lat="30.285494" lon="-97.642518" changeset="false"><tag k="addr:street" v="Hidden View Circle"/><tag k="addr:housenumber" v="7619"/><tag k="coa:place_id" v="3033602"/></node><node id="-190" lat="30.285398" lon="-97.642291" changeset="false"><tag k="addr:street" v="Hidden View Circle"/><tag k="addr:housenumber" v="7623"/><tag k="coa:place_id" v="3033604"/></node><node id="-191" lat="30.28719" lon="-97.640559" changeset="false"><tag k="addr:street" v="Lily Lake Loop"/><tag k="addr:housenumber" v="7821"/><tag k="coa:place_id" v="3033510"/></node><node id="-192" lat="30.287024" lon="-97.638002" changeset="false"><tag k="addr:street" v="Taza Trail"/><tag k="addr:housenumber" v="8004"/><tag k="coa:place_id" v="172481"/></node><node id="-193" lat="30.29156" lon="-97.646683" changeset="false"><tag k="addr:street" v="Sendero Hills Parkway"/><tag k="addr:housenumber" v="5900"/><tag k="coa:place_id" v="3050195"/></node><node id="-194" lat="30.283643" lon="-97.64686" changeset="false"><tag k="addr:street" v="Sendero Hills Parkway"/><tag k="addr:housenumber" v="5334"/><tag k="coa:place_id" v="177876"/></node><node id="-195" lat="30.282985" lon="-97.646435" changeset="false"><tag k="addr:street" v="Sendero Hills Parkway"/><tag k="addr:housenumber" v="5325"/><tag k="coa:place_id" v="177853"/></node><node id="-196" lat="30.28872" lon="-97.645394" changeset="false"><tag k="addr:street" v="Signal Point"/><tag k="addr:housenumber" v="5733"/><tag k="coa:place_id" v="160224"/></node><node id="-197" lat="30.287463" lon="-97.640791" changeset="false"><tag k="addr:street" v="Lily Lake Loop"/><tag k="addr:housenumber" v="7824"/><tag k="coa:place_id" v="3033498"/></node><node id="-198" lat="30.293988" lon="-97.643484" changeset="false"><tag k="addr:street" v="Sendero Hills Parkway"/><tag k="addr:housenumber" v="6225"/><tag k="coa:place_id" v="159995"/></node><node id="-199" lat="30.291725" lon="-97.640002" changeset="false"><tag k="addr:street" v="Pizer Street"/><tag k="addr:housenumber" v="6128"/><tag k="coa:place_id" v="216118"/></node><node id="-200" lat="30.285955" lon="-97.639857" changeset="false"><tag k="addr:street" v="Saticoy Drive"/><tag k="addr:housenumber" v="5708"/><tag k="coa:place_id" v="330868"/></node><node id="-201" lat="30.285804" lon="-97.640418" changeset="false"><tag k="addr:street" v="Hidden View Circle"/><tag k="addr:housenumber" v="7715"/><tag k="coa:place_id" v="3033614"/></node><node id="-202" lat="30.285767" lon="-97.641296" changeset="false"><tag k="addr:street" v="Mirror Lake Lane"/><tag k="addr:housenumber" v="5709"/><tag k="coa:place_id" v="3033594"/></node><node id="-203" lat="30.28771" lon="-97.642567" changeset="false"><tag k="addr:street" v="Hidden View Circle"/><tag k="addr:housenumber" v="8032"/><tag k="coa:place_id" v="3033526"/></node><node id="-204" lat="30.287592" lon="-97.642312" changeset="false"><tag k="addr:street" v="Hidden View Circle"/><tag k="addr:housenumber" v="8028"/><tag k="coa:place_id" v="3033525"/></node><node id="-205" lat="30.284887" lon="-97.641192" changeset="false"><tag k="addr:street" v="Hidden View Circle"/><tag k="addr:housenumber" v="7641"/><tag k="coa:place_id" v="3033658"/></node><node id="-206" lat="30.29461" lon="-97.642995" changeset="false"><tag k="addr:street" v="Sendero Hills Parkway"/><tag k="addr:housenumber" v="6313"/><tag k="coa:place_id" v="160003"/></node><node id="-207" lat="30.28823" lon="-97.648137" changeset="false"><tag k="addr:street" v="Sendero Hills Parkway"/><tag k="addr:housenumber" v="5624"/><tag k="coa:place_id" v="3323706"/></node><node id="-208" lat="30.288958" lon="-97.64817" changeset="false"><tag k="addr:street" v="Sendero Hills Parkway"/><tag k="addr:housenumber" v="5640"/><tag k="coa:place_id" v="3323710"/></node><node id="-209" lat="30.28974" lon="-97.648036" changeset="false"><tag k="addr:street" v="Sendero Hills Parkway"/><tag k="addr:housenumber" v="5716"/><tag k="coa:place_id" v="3323715"/></node><node id="-210" lat="30.294984" lon="-97.64349" changeset="false"><tag k="addr:street" v="Sendero Hills Parkway"/><tag k="addr:housenumber" v="6312"/><tag k="coa:place_id" v="3306117"/></node><node id="-211" lat="30.296044" lon="-97.642281" changeset="false"><tag k="addr:street" v="Sendero Hills Parkway"/><tag k="addr:housenumber" v="6500"/><tag k="coa:place_id" v="3306127"/></node><node id="-212" lat="30.295979" lon="-97.641559" changeset="false"><tag k="addr:street" v="Sendero Hills Parkway"/><tag k="addr:housenumber" v="6513"/><tag k="coa:place_id" v="3292451"/></node><node id="-213" lat="30.28753" lon="-97.648039" changeset="false"><tag k="addr:street" v="Sendero Hills Parkway"/><tag k="addr:housenumber" v="5604"/><tag k="coa:place_id" v="3323696"/></node><node id="-214" lat="30.292331" lon="-97.645642" changeset="false"><tag k="addr:street" v="Sendero Hills Parkway"/><tag k="addr:housenumber" v="6012"/><tag k="coa:place_id" v="3306098"/></node><node id="-215" lat="30.292432" lon="-97.645507" changeset="false"><tag k="addr:street" v="Sendero Hills Parkway"/><tag k="addr:housenumber" v="6016"/><tag k="coa:place_id" v="3306099"/></node><node id="-216" lat="30.294314" lon="-97.644004" changeset="false"><tag k="addr:street" v="Sendero Hills Parkway"/><tag k="addr:housenumber" v="6220"/><tag k="coa:place_id" v="3306110"/></node><node id="-217" lat="30.293081" lon="-97.6448" changeset="false"><tag k="addr:street" v="Sendero Hills Parkway"/><tag k="addr:housenumber" v="6116"/><tag k="coa:place_id" v="3306090"/></node><node id="-218" lat="30.289327" lon="-97.64812" changeset="false"><tag k="addr:street" v="Sendero Hills Parkway"/><tag k="addr:housenumber" v="5704"/><tag k="coa:place_id" v="3323712"/></node><node id="-219" lat="30.289464" lon="-97.648096" changeset="false"><tag k="addr:street" v="Sendero Hills Parkway"/><tag k="addr:housenumber" v="5708"/><tag k="coa:place_id" v="3323713"/></node><node id="-220" lat="30.295091" lon="-97.643379" changeset="false"><tag k="addr:street" v="Sendero Hills Parkway"/><tag k="addr:housenumber" v="6316"/><tag k="coa:place_id" v="3306118"/></node><node id="-221" lat="30.29251" lon="-97.645351" changeset="false"><tag k="addr:street" v="Sendero Hills Parkway"/><tag k="addr:housenumber" v="6020"/><tag k="coa:place_id" v="3306102"/></node><node id="-222" lat="30.293808" lon="-97.64429" changeset="false"><tag k="addr:street" v="Sendero Hills Parkway"/><tag k="addr:housenumber" v="6204"/><tag k="coa:place_id" v="3306106"/></node><node id="-223" lat="30.286984" lon="-97.647837" changeset="false"><tag k="addr:street" v="Sendero Hills Parkway"/><tag k="addr:housenumber" v="5540"/><tag k="coa:place_id" v="3323692"/></node><node id="-224" lat="30.295834" lon="-97.642542" changeset="false"><tag k="addr:street" v="Sendero Hills Parkway"/><tag k="addr:housenumber" v="6420"/><tag k="coa:place_id" v="3306125"/></node><node id="-225" lat="30.292852" lon="-97.645016" changeset="false"><tag k="addr:street" v="Sendero Hills Parkway"/><tag k="addr:housenumber" v="6108"/><tag k="coa:place_id" v="3306088"/></node><node id="-226" lat="30.293578" lon="-97.644468" changeset="false"><tag k="addr:street" v="Sendero Hills Parkway"/><tag k="addr:housenumber" v="6132"/><tag k="coa:place_id" v="3306104"/></node><node id="-227" lat="30.293694" lon="-97.644381" changeset="false"><tag k="addr:street" v="Sendero Hills Parkway"/><tag k="addr:housenumber" v="6200"/><tag k="coa:place_id" v="3306105"/></node><node id="-228" lat="30.294548" lon="-97.643857" changeset="false"><tag k="addr:street" v="Sendero Hills Parkway"/><tag k="addr:housenumber" v="6228"/><tag k="coa:place_id" v="3306112"/></node><node id="-229" lat="30.28988" lon="-97.647996" changeset="false"><tag k="addr:street" v="Sendero Hills Parkway"/><tag k="addr:housenumber" v="5720"/><tag k="coa:place_id" v="3323716"/></node><node id="-230" lat="30.28673" lon="-97.647687" changeset="false"><tag k="addr:street" v="Sendero Hills Parkway"/><tag k="addr:housenumber" v="5532"/><tag k="coa:place_id" v="3323688"/></node><node id="-231" lat="30.287961" lon="-97.648118" changeset="false"><tag k="addr:street" v="Sendero Hills Parkway"/><tag k="addr:housenumber" v="5616"/><tag k="coa:place_id" v="3323699"/></node><node id="-232" lat="30.296127" lon="-97.641449" changeset="false"><tag k="addr:street" v="Sendero Hills Parkway"/><tag k="addr:housenumber" v="6517"/><tag k="coa:place_id" v="3292452"/></node><node id="-233" lat="30.295941" lon="-97.642438" changeset="false"><tag k="addr:street" v="Sendero Hills Parkway"/><tag k="addr:housenumber" v="6424"/><tag k="coa:place_id" v="3306126"/></node><node id="-234" lat="30.289603" lon="-97.648063" changeset="false"><tag k="addr:street" v="Sendero Hills Parkway"/><tag k="addr:housenumber" v="5712"/><tag k="coa:place_id" v="3323714"/></node><node id="-235" lat="30.292976" lon="-97.644883" changeset="false"><tag k="addr:street" v="Sendero Hills Parkway"/><tag k="addr:housenumber" v="6112"/><tag k="coa:place_id" v="3306089"/></node><node id="-236" lat="30.287813" lon="-97.648097" changeset="false"><tag k="addr:street" v="Sendero Hills Parkway"/><tag k="addr:housenumber" v="5612"/><tag k="coa:place_id" v="3323698"/></node><node id="-237" lat="30.293319" lon="-97.644608" changeset="false"><tag k="addr:street" v="Sendero Hills Parkway"/><tag k="addr:housenumber" v="6124"/><tag k="coa:place_id" v="3306092"/></node><node id="-238" lat="30.292155" lon="-97.645888" changeset="false"><tag k="addr:street" v="Sendero Hills Parkway"/><tag k="addr:housenumber" v="6004"/><tag k="coa:place_id" v="3306096"/></node><node id="-239" lat="30.290031" lon="-97.647949" changeset="false"><tag k="addr:street" v="Sendero Hills Parkway"/><tag k="addr:housenumber" v="5724"/><tag k="coa:place_id" v="3323717"/></node><node id="-240" lat="30.283981" lon="-97.639399" changeset="false"><tag k="addr:street" v="Tonopa Lane"/><tag k="addr:housenumber" v="8011"/><tag k="coa:place_id" v="134801"/></node><node id="-241" lat="30.285195" lon="-97.6412" changeset="false"><tag k="addr:street" v="Hidden View Circle"/><tag k="addr:housenumber" v="7700"/><tag k="coa:place_id" v="3033663"/></node><node id="-242" lat="30.294767" lon="-97.643685" changeset="false"><tag k="addr:street" v="Sendero Hills Parkway"/><tag k="addr:housenumber" v="6304"/><tag k="coa:place_id" v="3306115"/></node><node id="-243" lat="30.295125" lon="-97.645287" changeset="false"><tag k="addr:street" v="Moonglow Drive"/><tag k="addr:housenumber" v="6301"/><tag k="coa:place_id" v="3320086"/></node><node id="-244" lat="30.291987" lon="-97.644729" changeset="false"><tag k="addr:street" v="Perlita Drive"/><tag k="addr:housenumber" v="6000"/><tag k="coa:place_id" v="3318896"/></node><node id="-245" lat="30.281248" lon="-97.647622" changeset="false"><tag k="addr:street" v="Sendero Hills Parkway"/><tag k="addr:housenumber" v="5203 1/2"/><tag k="coa:place_id" v="3157260"/></node><node id="-246" lat="30.2943" lon="-97.643265" changeset="false"><tag k="addr:street" v="Sendero Hills Parkway"/><tag k="addr:housenumber" v="6301"/><tag k="coa:place_id" v="159999"/></node><node id="-247" lat="30.287209" lon="-97.638417" changeset="false"><tag k="addr:street" v="Taza Trail"/><tag k="addr:housenumber" v="7906"/><tag k="coa:place_id" v="172485"/></node><node id="-248" lat="30.28336" lon="-97.641758" changeset="false"><tag k="addr:street" v="Rogers Lane,1100"/><tag k="addr:housenumber" v="7901"/><tag k="coa:place_id" v="128251"/></node><node id="-249" lat="30.28091" lon="-97.642968" changeset="false"><tag k="addr:street" v="Rogers Lane,1100"/><tag k="addr:housenumber" v="5300"/><tag k="coa:place_id" v="270764"/></node><node id="-250" lat="30.286284" lon="-97.640584" changeset="false"><tag k="addr:street" v="Lily Lake Loop"/><tag k="addr:housenumber" v="7800"/><tag k="coa:place_id" v="3033494"/></node><node id="-251" lat="30.293" lon="-97.644125" changeset="false"><tag k="addr:street" v="Sendero Hills Parkway"/><tag k="addr:housenumber" v="6137"/><tag k="coa:place_id" v="159981"/></node><node id="-252" lat="30.287563" lon="-97.640311" changeset="false"><tag k="addr:street" v="Lily Lake Loop"/><tag k="addr:housenumber" v="7832"/><tag k="coa:place_id" v="3033500"/></node><node id="-253" lat="30.29263" lon="-97.644423" changeset="false"><tag k="addr:street" v="Sendero Hills Parkway"/><tag k="addr:housenumber" v="6121"/><tag k="coa:place_id" v="159975"/></node><node id="-254" lat="30.28582" lon="-97.643426" changeset="false"><tag k="addr:street" v="Hidden View Circle"/><tag k="addr:housenumber" v="7605"/><tag k="coa:place_id" v="3033598"/></node><node id="-255" lat="30.289747" lon="-97.643354" changeset="false"><tag k="addr:street" v="Pinon Vista Drive"/><tag k="addr:housenumber" v="5837"/><tag k="coa:place_id" v="160019"/></node><node id="-256" lat="30.289842" lon="-97.646829" changeset="false"><tag k="addr:street" v="Marejada Drive"/><tag k="addr:housenumber" v="7009"/><tag k="coa:place_id" v="160335"/></node><node id="-257" lat="30.291876" lon="-97.64392" changeset="false"><tag k="addr:street" v="Perlita Drive"/><tag k="addr:housenumber" v="6017"/><tag k="coa:place_id" v="159756"/></node><node id="-258" lat="30.289395" lon="-97.644027" changeset="false"><tag k="addr:street" v="Pinon Vista Drive"/><tag k="addr:housenumber" v="5820"/><tag k="coa:place_id" v="160097"/></node><node id="-259" lat="30.289251" lon="-97.643476" changeset="false"><tag k="addr:street" v="Pinon Vista Drive"/><tag k="addr:housenumber" v="5821"/><tag k="coa:place_id" v="160014"/></node><node id="-260" lat="30.293217" lon="-97.643991" changeset="false"><tag k="addr:street" v="Sendero Hills Parkway"/><tag k="addr:housenumber" v="6145"/><tag k="coa:place_id" v="159983"/></node><node id="-261" lat="30.292391" lon="-97.644697" changeset="false"><tag k="addr:street" v="Sendero Hills Parkway"/><tag k="addr:housenumber" v="6109"/><tag k="coa:place_id" v="159971"/></node><node id="-262" lat="30.293724" lon="-97.643243" changeset="false"><tag k="addr:street" v="Perlita Drive"/><tag k="addr:housenumber" v="6212"/><tag k="coa:place_id" v="159735"/></node><node id="-263" lat="30.285594" lon="-97.642954" changeset="false"><tag k="addr:street" v="Hidden View Circle"/><tag k="addr:housenumber" v="7613"/><tag k="coa:place_id" v="3033600"/></node><node id="-264" lat="30.288252" lon="-97.641227" changeset="false"><tag k="addr:street" v="Hidden View Circle"/><tag k="addr:housenumber" v="8007"/><tag k="coa:place_id" v="3033530"/></node><node id="-265" lat="30.285883" lon="-97.643654" changeset="false"><tag k="addr:street" v="Hidden View Circle"/><tag k="addr:housenumber" v="7601"/><tag k="coa:place_id" v="3033597"/></node><node id="-266" lat="30.285714" lon="-97.640888" changeset="false"><tag k="addr:street" v="Hidden View Circle"/><tag k="addr:housenumber" v="7710"/><tag k="coa:place_id" v="3033608"/></node><node id="-267" lat="30.286983" lon="-97.640071" changeset="false"><tag k="addr:street" v="Hidden View Circle"/><tag k="addr:housenumber" v="7810"/><tag k="coa:place_id" v="3033637"/></node><node id="-268" lat="30.286701" lon="-97.640861" changeset="false"><tag k="addr:street" v="Lily Lake Loop"/><tag k="addr:housenumber" v="7809"/><tag k="coa:place_id" v="3033505"/></node><node id="-269" lat="30.287107" lon="-97.64001" changeset="false"><tag k="addr:street" v="Lily Lake Loop"/><tag k="addr:housenumber" v="7837"/><tag k="coa:place_id" v="3033638"/></node><node id="-270" lat="30.2853" lon="-97.640769" changeset="false"><tag k="addr:street" v="Hidden View Circle"/><tag k="addr:housenumber" v="7705"/><tag k="coa:place_id" v="3033661"/></node><node id="-271" lat="30.289377" lon="-97.643421" changeset="false"><tag k="addr:street" v="Pinon Vista Drive"/><tag k="addr:housenumber" v="5825"/><tag k="coa:place_id" v="160015"/></node><node id="-272" lat="30.293432" lon="-97.64281" changeset="false"><tag k="addr:street" v="Perlita Drive"/><tag k="addr:housenumber" v="6213"/><tag k="coa:place_id" v="159783"/></node><node id="-273" lat="30.289312" lon="-97.647285" changeset="false"><tag k="addr:street" v="Alsace Trail"/><tag k="addr:housenumber" v="5712"/><tag k="coa:place_id" v="160266"/></node><node id="-274" lat="30.294405" lon="-97.643179" changeset="false"><tag k="addr:street" v="Sendero Hills Parkway"/><tag k="addr:housenumber" v="6305"/><tag k="coa:place_id" v="160001"/></node><node id="-275" lat="30.285511" lon="-97.641031" changeset="false"><tag k="addr:street" v="Hidden View Circle"/><tag k="addr:housenumber" v="7706"/><tag k="coa:place_id" v="3033607"/></node><node id="-276" lat="30.287179" lon="-97.647205" changeset="false"><tag k="addr:street" v="Pinon Vista Drive"/><tag k="addr:housenumber" v="5605"/><tag k="coa:place_id" v="160023"/></node><node id="-277" lat="30.281446" lon="-97.647444" changeset="false"><tag k="addr:street" v="Sendero Hills Parkway"/><tag k="addr:housenumber" v="5201"/><tag k="coa:place_id" v="159628"/></node><node id="-278" lat="30.290243" lon="-97.646541" changeset="false"><tag k="addr:street" v="Marejada Drive"/><tag k="addr:housenumber" v="7014"/><tag k="coa:place_id" v="160339"/></node><node id="-279" lat="30.28814" lon="-97.640764" changeset="false"><tag k="addr:street" v="Hidden View Circle"/><tag k="addr:housenumber" v="8004"/><tag k="coa:place_id" v="3033515"/></node><node id="-280" lat="30.286087" lon="-97.641545" changeset="false"><tag k="addr:street" v="Chasm Lake Lane"/><tag k="addr:housenumber" v="7620"/><tag k="coa:place_id" v="3033584"/></node><node id="-281" lat="30.284088" lon="-97.639603" changeset="false"><tag k="addr:street" v="Tonopa Lane"/><tag k="addr:housenumber" v="8007"/><tag k="coa:place_id" v="413860"/></node><node id="-282" lat="30.286694" lon="-97.640258" changeset="false"><tag k="addr:street" v="Hidden View Circle"/><tag k="addr:housenumber" v="7804"/><tag k="coa:place_id" v="3033634"/></node><node id="-283" lat="30.2937" lon="-97.643665" changeset="false"><tag k="addr:street" v="Sendero Hills Parkway"/><tag k="addr:housenumber" v="6213"/><tag k="coa:place_id" v="159990"/></node><node id="-284" lat="30.286392" lon="-97.642215" changeset="false"><tag k="addr:street" v="Chasm Lake Lane"/><tag k="addr:housenumber" v="7608"/><tag k="coa:place_id" v="3033582"/></node><node id="-285" lat="30.29483" lon="-97.642859" changeset="false"><tag k="addr:street" v="Sendero Hills Parkway"/><tag k="addr:housenumber" v="6321"/><tag k="coa:place_id" v="1115387"/></node><node id="-286" lat="30.288135" lon="-97.641477" changeset="false"><tag k="addr:street" v="Hidden View Circle"/><tag k="addr:housenumber" v="8011"/><tag k="coa:place_id" v="3033532"/></node><node id="-287" lat="30.287107" lon="-97.639087" changeset="false"><tag k="addr:street" v="Saticoy Drive"/><tag k="addr:housenumber" v="5824"/><tag k="coa:place_id" v="172421"/></node><node id="-288" lat="30.283533" lon="-97.642392" changeset="false"><tag k="addr:street" v="Rogers Lane,1100"/><tag k="addr:housenumber" v="7805"/><tag k="coa:place_id" v="93462"/></node><node id="-289" lat="30.283674" lon="-97.642967" changeset="false"><tag k="addr:street" v="Rogers Lane,1100"/><tag k="addr:housenumber" v="7713"/><tag k="coa:place_id" v="834477"/></node><node id="-290" lat="30.288718" lon="-97.643897" changeset="false"><tag k="addr:street" v="Pinon Vista Drive"/><tag k="addr:housenumber" v="5801"/><tag k="coa:place_id" v="160007"/></node><node id="-291" lat="30.282531" lon="-97.641991" changeset="false"><tag k="addr:street" v="Rogers Lane,1100"/><tag k="addr:housenumber" v="5414"/><tag k="coa:place_id" v="270824"/></node><node id="-292" lat="30.286507" lon="-97.642566" changeset="false"><tag k="addr:street" v="Chasm Lake Lane"/><tag k="addr:housenumber" v="7604"/><tag k="coa:place_id" v="3033581"/></node><node id="-293" lat="30.286389" lon="-97.640044" changeset="false"><tag k="addr:street" v="Hidden View Circle"/><tag k="addr:housenumber" v="7803"/><tag k="coa:place_id" v="3033625"/></node><node id="-294" lat="30.288579" lon="-97.640569" changeset="false"><tag k="addr:street" v="Hidden View Circle"/><tag k="addr:housenumber" v="7921"/><tag k="coa:place_id" v="3033542"/></node><node id="-295" lat="30.286807" lon="-97.640789" changeset="false"><tag k="addr:street" v="Lily Lake Loop"/><tag k="addr:housenumber" v="7813"/><tag k="coa:place_id" v="3033506"/></node><node id="-296" lat="30.284941" lon="-97.641364" changeset="false"><tag k="addr:street" v="Hidden View Circle"/><tag k="addr:housenumber" v="7639"/><tag k="coa:place_id" v="3033657"/></node><node id="-297" lat="30.286059" lon="-97.642186" changeset="false"><tag k="addr:street" v="Chasm Lake Lane"/><tag k="addr:housenumber" v="7613"/><tag k="coa:place_id" v="3033586"/></node><node id="-298" lat="30.292048" lon="-97.643724" changeset="false"><tag k="addr:street" v="Perlita Drive"/><tag k="addr:housenumber" v="6025"/><tag k="coa:place_id" v="159761"/></node><node id="-299" lat="30.293323" lon="-97.642858" changeset="false"><tag k="addr:street" v="Perlita Drive"/><tag k="addr:housenumber" v="6209"/><tag k="coa:place_id" v="159781"/></node><node id="-300" lat="30.293318" lon="-97.643918" changeset="false"><tag k="addr:street" v="Sendero Hills Parkway"/><tag k="addr:housenumber" v="6149"/><tag k="coa:place_id" v="159984"/></node><node id="-301" lat="30.289374" lon="-97.641254" changeset="false"><tag k="addr:street" v="Key View Drive"/><tag k="addr:housenumber" v="7608"/><tag k="coa:place_id" v="3033563"/></node><node id="-302" lat="30.289182" lon="-97.640838" changeset="false"><tag k="addr:street" v="Key View Drive"/><tag k="addr:housenumber" v="7616"/><tag k="coa:place_id" v="3033565"/></node><node id="-303" lat="30.281954" lon="-97.647358" changeset="false"><tag k="addr:street" v="Sendero Hills Parkway"/><tag k="addr:housenumber" v="5233"/><tag k="coa:place_id" v="177840"/></node><node id="-304" lat="30.282718" lon="-97.646574" changeset="false"><tag k="addr:street" v="Sendero Hills Parkway"/><tag k="addr:housenumber" v="5317"/><tag k="coa:place_id" v="177851"/></node><node id="-305" lat="30.288383" lon="-97.640999" changeset="false"><tag k="addr:street" v="Hidden View Circle"/><tag k="addr:housenumber" v="8003"/><tag k="coa:place_id" v="3033528"/></node><node id="-306" lat="30.284962" lon="-97.641034" changeset="false"><tag k="addr:street" v="Hidden View Circle"/><tag k="addr:housenumber" v="7701"/><tag k="coa:place_id" v="3033662"/></node><node id="-307" lat="30.287912" lon="-97.642" changeset="false"><tag k="addr:street" v="Hidden View Circle"/><tag k="addr:housenumber" v="8019"/><tag k="coa:place_id" v="3033536"/></node><node id="-308" lat="30.286828" lon="-97.637591" changeset="false"><tag k="addr:street" v="Taza Trail"/><tag k="addr:housenumber" v="8012"/><tag k="coa:place_id" v="172475"/></node><node id="-309" lat="30.291344" lon="-97.644778" changeset="false"><tag k="addr:street" v="Pinon Vista Drive"/><tag k="addr:housenumber" v="6016"/><tag k="coa:place_id" v="160123"/></node><node id="-310" lat="30.286349" lon="-97.640822" changeset="false"><tag k="addr:street" v="Lily Lake Loop"/><tag k="addr:housenumber" v="7804"/><tag k="coa:place_id" v="3033495"/></node><node id="-311" lat="30.286328" lon="-97.643555" changeset="false"><tag k="addr:street" v="Dream Lake Lane"/><tag k="addr:housenumber" v="5708"/><tag k="coa:place_id" v="3033574"/></node><node id="-312" lat="30.285138" lon="-97.641755" changeset="false"><tag k="addr:street" v="Hidden View Circle"/><tag k="addr:housenumber" v="7633"/><tag k="coa:place_id" v="3033659"/></node><node id="-313" lat="30.285031" lon="-97.640477" changeset="false"><tag k="addr:street" v="Saticoy Drive"/><tag k="addr:housenumber" v="5604"/><tag k="coa:place_id" v="377794"/></node><node id="-314" lat="30.289998" lon="-97.643542" changeset="false"><tag k="addr:street" v="Pinon Vista Drive"/><tag k="addr:housenumber" v="5845"/><tag k="coa:place_id" v="171017"/></node></osm>