<?xml version="1.0" encoding="UTF-8"?><osm version="0.6" generator="github.com/aaronlidman/osm-and-geojson"><node id="-1" lat="30.399143" lon="-97.746839" changeset="false"><tag k="addr:street" v="Research Boulevard"/><tag k="addr:housenumber" v="10732"/><tag k="coa:place_id" v="117086"/></node><node id="-2" lat="30.397646" lon="-97.747067" changeset="false"><tag k="addr:street" v="Research Boulevard"/><tag k="addr:housenumber" v="10614"/><tag k="coa:place_id" v="141607"/></node><node id="-3" lat="30.397332" lon="-97.74789" changeset="false"><tag k="addr:street" v="Research Boulevard"/><tag k="addr:housenumber" v="10616"/><tag k="coa:place_id" v="116592"/></node><node id="-4" lat="30.397349" lon="-97.749505" changeset="false"><tag k="addr:street" v="Jollyville Road"/><tag k="addr:housenumber" v="10400"/><tag k="coa:place_id" v="208954"/></node><node id="-5" lat="30.398539" lon="-97.748357" changeset="false"><tag k="addr:street" v="Research Boulevard"/><tag k="addr:housenumber" v="10710"/><tag k="coa:place_id" v="714304"/></node><node id="-6" lat="30.397959" lon="-97.749366" changeset="false"><tag k="addr:street" v="Jollyville Road"/><tag k="addr:housenumber" v="10407"/><tag k="coa:place_id" v="138707"/></node><node id="-7" lat="30.401109" lon="-97.749472" changeset="false"><tag k="addr:street" v="Morado Circle"/><tag k="addr:housenumber" v="10415"/><tag k="coa:place_id" v="314848"/></node><node id="-8" lat="30.389856" lon="-97.747827" changeset="false"><tag k="addr:street" v="Capital of Texas Highway"/><tag k="addr:housenumber" v="9442"/><tag k="coa:place_id" v="237622"/></node><node id="-9" lat="30.396551" lon="-97.747457" changeset="false"><tag k="addr:street" v="Research Boulevard"/><tag k="addr:housenumber" v="10400"/><tag k="coa:place_id" v="263295"/></node><node id="-10" lat="30.401335" lon="-97.751199" changeset="false"><tag k="addr:street" v="Morado Circle"/><tag k="addr:housenumber" v="10431"/><tag k="coa:place_id" v="136471"/></node><node id="-11" lat="30.389722" lon="-97.755201" changeset="false"><tag k="addr:street" v="Capital of Texas Highway"/><tag k="addr:housenumber" v="9050"/><tag k="coa:place_id" v="517528"/></node><node id="-12" lat="30.391065" lon="-97.756667" changeset="false"><tag k="addr:street" v="Agate Cove"/><tag k="addr:housenumber" v="4911"/><tag k="coa:place_id" v="235546"/></node><node id="-13" lat="30.389058" lon="-97.756323" changeset="false"><tag k="addr:street" v="Capital of Texas Highway"/><tag k="addr:housenumber" v="9020"/><tag k="coa:place_id" v="520035"/></node></osm>