<?xml version="1.0" encoding="UTF-8"?><osm version="0.6" generator="github.com/aaronlidman/osm-and-geojson"><node id="-1" lat="30.300908" lon="-97.692831" changeset="false"><tag k="addr:street" v="East 51st Street"/><tag k="addr:housenumber" v="2011"/><tag k="addr:postcode" v="78723"/></node><node id="-2" lat="30.300248" lon="-97.6938" changeset="false"><tag k="addr:street" v="East 51st Street"/><tag k="addr:housenumber" v="2001"/><tag k="addr:postcode" v="78723"/></node><node id="-3" lat="30.290905" lon="-97.69844" changeset="false"><tag k="addr:street" v="Berkman Drive"/><tag k="addr:housenumber" v="3801"/><tag k="addr:postcode" v="78723"/></node><node id="-4" lat="30.300745" lon="-97.707889" changeset="false"><tag k="addr:street" v="James Wheat Street"/><tag k="addr:housenumber" v="4625"/><tag k="addr:postcode" v="78723"/></node><node id="-5" lat="30.301543" lon="-97.708498" changeset="false"><tag k="addr:street" v="Robert Browning Street"/><tag k="addr:housenumber" v="1320"/><tag k="addr:postcode" v="78723"/></node><node id="-6" lat="30.302128" lon="-97.70822" changeset="false"><tag k="addr:street" v="Philomena Street"/><tag k="addr:housenumber" v="1345"/><tag k="addr:postcode" v="78723"/></node><node id="-7" lat="30.286981" lon="-97.703978" changeset="false"><tag k="addr:street" v="Manor Road"/><tag k="addr:housenumber" v="3138"/><tag k="addr:postcode" v="78723"/></node></osm>