<?xml version="1.0" encoding="UTF-8"?><osm version="0.6" generator="github.com/aaronlidman/osm-and-geojson"><node id="-1" lat="30.303502" lon="-97.709352" changeset="false"><tag k="addr:street" v="Philomena Street"/><tag k="addr:housenumber" v="1225 1/2"/><tag k="addr:postcode" v="78723"/></node><node id="-2" lat="30.298884" lon="-97.687153" changeset="false"><tag k="addr:street" v="Manor Road"/><tag k="addr:housenumber" v="5112"/><tag k="addr:postcode" v="78723"/></node><node id="-3" lat="30.294448" lon="-97.707202" changeset="false"><tag k="addr:street" v="Airport Boulevard"/><tag k="addr:housenumber" v="4111"/><tag k="addr:postcode" v="78723"/></node><node id="-4" lat="30.28682" lon="-97.704312" changeset="false"><tag k="addr:street" v="Manor Road"/><tag k="addr:housenumber" v="3128"/><tag k="addr:postcode" v="78723"/></node><node id="-5" lat="30.291644" lon="-97.689579" changeset="false"><tag k="addr:street" v="Manor Road"/><tag k="addr:housenumber" v="4400"/><tag k="addr:postcode" v="78723"/></node><node id="-6" lat="30.298696" lon="-97.687382" changeset="false"><tag k="addr:street" v="Manor Road"/><tag k="addr:housenumber" v="5110"/><tag k="addr:postcode" v="78723"/></node><node id="-7" lat="30.292814" lon="-97.689512" changeset="false"><tag k="addr:street" v="Manor Road"/><tag k="addr:housenumber" v="4600"/><tag k="addr:postcode" v="78723"/></node><node id="-8" lat="30.298618" lon="-97.690668" changeset="false"><tag k="addr:street" v="Old Manor Road"/><tag k="addr:housenumber" v="5009"/><tag k="addr:postcode" v="78723"/></node><node id="-9" lat="30.290285" lon="-97.69386" changeset="false"><tag k="addr:street" v="Manor Road"/><tag k="addr:housenumber" v="3800"/><tag k="addr:postcode" v="78723"/></node><node id="-10" lat="30.303442" lon="-97.706192" changeset="false"><tag k="addr:street" v="Mueller Boulevard"/><tag k="addr:housenumber" v="4900"/><tag k="addr:postcode" v="78723"/></node><node id="-11" lat="30.293975" lon="-97.706488" changeset="false"><tag k="addr:street" v="Zach Scott Street"/><tag k="addr:housenumber" v="1913"/><tag k="addr:postcode" v="78723"/></node><node id="-12" lat="30.294748" lon="-97.689469" changeset="false"><tag k="addr:street" v="Manor Road"/><tag k="addr:housenumber" v="4700"/><tag k="addr:postcode" v="78723"/></node><node id="-13" lat="30.288931" lon="-97.703999" changeset="false"><tag k="addr:street" v="Anchor Lane"/><tag k="addr:housenumber" v="2010"/><tag k="addr:postcode" v="78723"/></node><node id="-14" lat="30.293979" lon="-97.699744" changeset="false"><tag k="addr:street" v="Berkman Drive"/><tag k="addr:housenumber" v="4119"/><tag k="addr:postcode" v="78723"/></node><node id="-15" lat="30.294106" lon="-97.699752" changeset="false"><tag k="addr:street" v="Berkman Drive"/><tag k="addr:housenumber" v="4123"/><tag k="addr:postcode" v="78723"/></node><node id="-16" lat="30.293769" lon="-97.698121" changeset="false"><tag k="addr:street" v="Moreno Street"/><tag k="addr:housenumber" v="2510"/><tag k="addr:postcode" v="78723"/></node><node id="-17" lat="30.294041" lon="-97.698125" changeset="false"><tag k="addr:street" v="Zach Scott Street"/><tag k="addr:housenumber" v="2607"/><tag k="addr:postcode" v="78723"/></node><node id="-18" lat="30.293795" lon="-97.697771" changeset="false"><tag k="addr:street" v="Vaughan Street"/><tag k="addr:housenumber" v="4200"/><tag k="addr:postcode" v="78723"/></node><node id="-19" lat="30.290819" lon="-97.696191" changeset="false"><tag k="addr:street" v="Tom Miller Street"/><tag k="addr:housenumber" v="3108"/><tag k="addr:postcode" v="78723"/></node><node id="-20" lat="30.291904" lon="-97.697256" changeset="false"><tag k="addr:street" v="Vaughan Street"/><tag k="addr:housenumber" v="3919"/><tag k="addr:postcode" v="78723"/></node><node id="-21" lat="30.300667" lon="-97.699679" changeset="false"><tag k="addr:street" v="Berkman Drive"/><tag k="addr:housenumber" v="4719"/><tag k="addr:postcode" v="78723"/></node><node id="-22" lat="30.300308" lon="-97.701883" changeset="false"><tag k="addr:street" v="Ruiz Street"/><tag k="addr:housenumber" v="4705"/><tag k="addr:postcode" v="78723"/></node><node id="-23" lat="30.301001" lon="-97.701851" changeset="false"><tag k="addr:street" v="Ruiz Street"/><tag k="addr:housenumber" v="4721"/><tag k="addr:postcode" v="78723"/></node><node id="-24" lat="30.300806" lon="-97.701542" changeset="false"><tag k="addr:street" v="Page Street"/><tag k="addr:housenumber" v="4718"/><tag k="addr:postcode" v="78723"/></node><node id="-25" lat="30.301114" lon="-97.701513" changeset="false"><tag k="addr:street" v="Page Street"/><tag k="addr:housenumber" v="4726"/><tag k="addr:postcode" v="78723"/></node><node id="-26" lat="30.300196" lon="-97.700821" changeset="false"><tag k="addr:street" v="Philomena Street"/><tag k="addr:housenumber" v="2122"/><tag k="addr:postcode" v="78723"/></node><node id="-27" lat="30.300199" lon="-97.700749" changeset="false"><tag k="addr:street" v="Philomena Street"/><tag k="addr:housenumber" v="2124"/><tag k="addr:postcode" v="78723"/></node><node id="-28" lat="30.301087" lon="-97.700853" changeset="false"><tag k="addr:street" v="Garcia Street"/><tag k="addr:housenumber" v="2123"/><tag k="addr:postcode" v="78723"/></node><node id="-29" lat="30.300556" lon="-97.701102" changeset="false"><tag k="addr:street" v="Page Street"/><tag k="addr:housenumber" v="4711"/><tag k="addr:postcode" v="78723"/></node><node id="-30" lat="30.29758" lon="-97.705002" changeset="false"><tag k="addr:street" v="Simond Avenue"/><tag k="addr:housenumber" v="1830"/><tag k="addr:postcode" v="78723"/></node><node id="-31" lat="30.294376" lon="-97.699518" changeset="false"><tag k="addr:street" v="Zach Scott Street"/><tag k="addr:housenumber" v="2412 1/2"/><tag k="addr:postcode" v="78723"/></node><node id="-32" lat="30.296184" lon="-97.700549" changeset="false"><tag k="addr:street" v="Berkman Drive"/><tag k="addr:housenumber" v="4306"/><tag k="addr:postcode" v="78723"/></node><node id="-33" lat="30.292705" lon="-97.69641" changeset="false"><tag k="addr:street" v="Sorin Street"/><tag k="addr:housenumber" v="2705"/><tag k="addr:postcode" v="78723"/></node><node id="-34" lat="30.296793" lon="-97.702526" changeset="false"><tag k="addr:street" v="Mattie Street"/><tag k="addr:housenumber" v="4401"/><tag k="addr:postcode" v="78723"/></node><node id="-35" lat="30.29714" lon="-97.700624" changeset="false"><tag k="addr:street" v="Berkman Drive"/><tag k="addr:housenumber" v="4416"/><tag k="addr:postcode" v="78723"/></node><node id="-36" lat="30.297573" lon="-97.702144" changeset="false"><tag k="addr:street" v="Ruiz Street"/><tag k="addr:housenumber" v="4504"/><tag k="addr:postcode" v="78723"/></node><node id="-37" lat="30.297977" lon="-97.701763" changeset="false"><tag k="addr:street" v="Ruiz Street"/><tag k="addr:housenumber" v="4525"/><tag k="addr:postcode" v="78723"/></node><node id="-38" lat="30.298092" lon="-97.70268" changeset="false"><tag k="addr:street" v="Mattie Street"/><tag k="addr:housenumber" v="4541"/><tag k="addr:postcode" v="78723"/></node><node id="-39" lat="30.298491" lon="-97.702465" changeset="false"><tag k="addr:street" v="Robert Browning Street"/><tag k="addr:housenumber" v="2013"/><tag k="addr:postcode" v="78723"/></node><node id="-40" lat="30.298495" lon="-97.702296" changeset="false"><tag k="addr:street" v="Robert Browning Street"/><tag k="addr:housenumber" v="2021"/><tag k="addr:postcode" v="78723"/></node><node id="-41" lat="30.297492" lon="-97.701036" changeset="false"><tag k="addr:street" v="Page Street"/><tag k="addr:housenumber" v="4501"/><tag k="addr:postcode" v="78723"/></node><node id="-42" lat="30.2977" lon="-97.701049" changeset="false"><tag k="addr:street" v="Page Street"/><tag k="addr:housenumber" v="4509"/><tag k="addr:postcode" v="78723"/></node><node id="-43" lat="30.297908" lon="-97.701055" changeset="false"><tag k="addr:street" v="Page Street"/><tag k="addr:housenumber" v="4517"/><tag k="addr:postcode" v="78723"/></node><node id="-44" lat="30.298157" lon="-97.700545" changeset="false"><tag k="addr:street" v="Berkman Drive"/><tag k="addr:housenumber" v="4532"/><tag k="addr:postcode" v="78723"/></node><node id="-45" lat="30.298538" lon="-97.700534" changeset="false"><tag k="addr:street" v="Robert Browning Street"/><tag k="addr:housenumber" v="2145"/><tag k="addr:postcode" v="78723"/></node><node id="-46" lat="30.298801" lon="-97.701735" changeset="false"><tag k="addr:street" v="Robert Browning Street"/><tag k="addr:housenumber" v="2040"/><tag k="addr:postcode" v="78723"/></node><node id="-47" lat="30.298806" lon="-97.701644" changeset="false"><tag k="addr:street" v="Robert Browning Street"/><tag k="addr:housenumber" v="2100"/><tag k="addr:postcode" v="78723"/></node><node id="-48" lat="30.298803" lon="-97.701031" changeset="false"><tag k="addr:street" v="Robert Browning Street"/><tag k="addr:housenumber" v="2120"/><tag k="addr:postcode" v="78723"/></node><node id="-49" lat="30.29881" lon="-97.700783" changeset="false"><tag k="addr:street" v="Robert Browning Street"/><tag k="addr:housenumber" v="2132"/><tag k="addr:postcode" v="78723"/></node><node id="-50" lat="30.299071" lon="-97.702182" changeset="false"><tag k="addr:street" v="Ruiz Street"/><tag k="addr:housenumber" v="4612"/><tag k="addr:postcode" v="78723"/></node><node id="-51" lat="30.299569" lon="-97.701821" changeset="false"><tag k="addr:street" v="Ruiz Street"/><tag k="addr:housenumber" v="4637"/><tag k="addr:postcode" v="78723"/></node><node id="-52" lat="30.299568" lon="-97.70192" changeset="false"><tag k="addr:street" v="Ruiz Street"/><tag k="addr:housenumber" v="4641"/><tag k="addr:postcode" v="78723"/></node><node id="-53" lat="30.299613" lon="-97.700594" changeset="false"><tag k="addr:street" v="Berkman Drive"/><tag k="addr:housenumber" v="4636"/><tag k="addr:postcode" v="78723"/></node><node id="-54" lat="30.299838" lon="-97.701664" changeset="false"><tag k="addr:street" v="Philomena Street"/><tag k="addr:housenumber" v="2101"/><tag k="addr:postcode" v="78723"/></node><node id="-55" lat="30.292721" lon="-97.696008" changeset="false"><tag k="addr:street" v="Sorin Street"/><tag k="addr:housenumber" v="2715"/><tag k="addr:postcode" v="78723"/></node><node id="-56" lat="30.293847" lon="-97.696444" changeset="false"><tag k="addr:street" v="Moreno Street"/><tag k="addr:housenumber" v="2712"/><tag k="addr:postcode" v="78723"/></node><node id="-57" lat="30.294279" lon="-97.69675" changeset="false"><tag k="addr:street" v="Zach Scott Street"/><tag k="addr:housenumber" v="2801"/><tag k="addr:postcode" v="78723"/></node><node id="-58" lat="30.29423" lon="-97.696746" changeset="false"><tag k="addr:street" v="Zach Scott Street"/><tag k="addr:housenumber" v="2803"/><tag k="addr:postcode" v="78723"/></node><node id="-59" lat="30.294097" lon="-97.696753" changeset="false"><tag k="addr:street" v="Zach Scott Street"/><tag k="addr:housenumber" v="2807"/><tag k="addr:postcode" v="78723"/></node><node id="-60" lat="30.291909" lon="-97.695624" changeset="false"><tag k="addr:street" v="Teaff Street"/><tag k="addr:housenumber" v="3907"/><tag k="addr:postcode" v="78723"/></node><node id="-61" lat="30.292196" lon="-97.696191" changeset="false"><tag k="addr:street" v="Teaff Street"/><tag k="addr:housenumber" v="4006"/><tag k="addr:postcode" v="78723"/></node><node id="-62" lat="30.292" lon="-97.695226" changeset="false"><tag k="addr:street" v="Tilley Street"/><tag k="addr:housenumber" v="3906"/><tag k="addr:postcode" v="78723"/></node><node id="-63" lat="30.294256" lon="-97.696187" changeset="false"><tag k="addr:street" v="Zach Scott Street"/><tag k="addr:housenumber" v="2903"/><tag k="addr:postcode" v="78723"/></node><node id="-64" lat="30.294125" lon="-97.6962" changeset="false"><tag k="addr:street" v="Zach Scott Street"/><tag k="addr:housenumber" v="2907"/><tag k="addr:postcode" v="78723"/></node><node id="-65" lat="30.294262" lon="-97.695879" changeset="false"><tag k="addr:street" v="Zach Scott Street"/><tag k="addr:housenumber" v="2917"/><tag k="addr:postcode" v="78723"/></node><node id="-66" lat="30.293914" lon="-97.695622" changeset="false"><tag k="addr:street" v="Moreno Street"/><tag k="addr:housenumber" v="2816"/><tag k="addr:postcode" v="78723"/></node><node id="-67" lat="30.29392" lon="-97.695226" changeset="false"><tag k="addr:street" v="Moreno Street"/><tag k="addr:housenumber" v="2828"/><tag k="addr:postcode" v="78723"/></node><node id="-68" lat="30.294223" lon="-97.695295" changeset="false"><tag k="addr:street" v="Zach Scott Street"/><tag k="addr:housenumber" v="2929"/><tag k="addr:postcode" v="78723"/></node><node id="-69" lat="30.294543" lon="-97.699813" changeset="false"><tag k="addr:street" v="Berkman Drive"/><tag k="addr:housenumber" v="4203"/><tag k="addr:postcode" v="78723"/></node><node id="-70" lat="30.295207" lon="-97.699827" changeset="false"><tag k="addr:street" v="Berkman Drive"/><tag k="addr:housenumber" v="4221"/><tag k="addr:postcode" v="78723"/></node><node id="-71" lat="30.295276" lon="-97.699823" changeset="false"><tag k="addr:street" v="Berkman Drive"/><tag k="addr:housenumber" v="4223"/><tag k="addr:postcode" v="78723"/></node><node id="-72" lat="30.294825" lon="-97.699421" changeset="false"><tag k="addr:street" v="Nitschke Street"/><tag k="addr:housenumber" v="4306"/><tag k="addr:postcode" v="78723"/></node><node id="-73" lat="30.294999" lon="-97.697835" changeset="false"><tag k="addr:street" v="Vaughan Street"/><tag k="addr:housenumber" v="4312"/><tag k="addr:postcode" v="78723"/></node><node id="-74" lat="30.295102" lon="-97.697832" changeset="false"><tag k="addr:street" v="Vaughan Street"/><tag k="addr:housenumber" v="4314"/><tag k="addr:postcode" v="78723"/></node><node id="-75" lat="30.295511" lon="-97.698886" changeset="false"><tag k="addr:street" v="Camacho Street"/><tag k="addr:housenumber" v="4605"/><tag k="addr:postcode" v="78723"/></node><node id="-76" lat="30.295887" lon="-97.699336" changeset="false"><tag k="addr:street" v="Camacho Street"/><tag k="addr:housenumber" v="4516"/><tag k="addr:postcode" v="78723"/></node><node id="-77" lat="30.295551" lon="-97.698006" changeset="false"><tag k="addr:street" v="Camacho Street"/><tag k="addr:housenumber" v="4709"/><tag k="addr:postcode" v="78723"/></node><node id="-78" lat="30.294521" lon="-97.698969" changeset="false"><tag k="addr:street" v="Zach Scott Street"/><tag k="addr:housenumber" v="2502"/><tag k="addr:postcode" v="78723"/></node><node id="-79" lat="30.29453" lon="-97.698808" changeset="false"><tag k="addr:street" v="Zach Scott Street"/><tag k="addr:housenumber" v="2506"/><tag k="addr:postcode" v="78723"/></node><node id="-80" lat="30.294914" lon="-97.69894" changeset="false"><tag k="addr:street" v="Nitschke Street"/><tag k="addr:housenumber" v="4317"/><tag k="addr:postcode" v="78723"/></node><node id="-81" lat="30.295275" lon="-97.699002" changeset="false"><tag k="addr:street" v="Nitschke Street"/><tag k="addr:housenumber" v="4335"/><tag k="addr:postcode" v="78723"/></node><node id="-82" lat="30.295272" lon="-97.699055" changeset="false"><tag k="addr:street" v="Nitschke Street"/><tag k="addr:housenumber" v="4337"/><tag k="addr:postcode" v="78723"/></node><node id="-83" lat="30.294552" lon="-97.698267" changeset="false"><tag k="addr:street" v="Zach Scott Street"/><tag k="addr:housenumber" v="2600"/><tag k="addr:postcode" v="78723"/></node><node id="-84" lat="30.299227" lon="-97.697965" changeset="false"><tag k="addr:street" v="Vaughan Street"/><tag k="addr:housenumber" v="4712"/><tag k="addr:postcode" v="78723"/></node><node id="-85" lat="30.299823" lon="-97.69969" changeset="false"><tag k="addr:street" v="Philomena Street"/><tag k="addr:housenumber" v="2209"/><tag k="addr:postcode" v="78723"/></node><node id="-86" lat="30.299854" lon="-97.697889" changeset="false"><tag k="addr:street" v="Philomena Street"/><tag k="addr:housenumber" v="2413"/><tag k="addr:postcode" v="78723"/></node><node id="-87" lat="30.298856" lon="-97.700028" changeset="false"><tag k="addr:street" v="Robert Browning Street"/><tag k="addr:housenumber" v="2200"/><tag k="addr:postcode" v="78723"/></node><node id="-88" lat="30.298865" lon="-97.699709" changeset="false"><tag k="addr:street" v="Robert Browning Street"/><tag k="addr:housenumber" v="2208"/><tag k="addr:postcode" v="78723"/></node><node id="-89" lat="30.298863" lon="-97.699623" changeset="false"><tag k="addr:street" v="Robert Browning Street"/><tag k="addr:housenumber" v="2210"/><tag k="addr:postcode" v="78723"/></node><node id="-90" lat="30.298486" lon="-97.699459" changeset="false"><tag k="addr:street" v="Robert Browning Street"/><tag k="addr:housenumber" v="2215"/><tag k="addr:postcode" v="78723"/></node><node id="-91" lat="30.298007" lon="-97.699926" changeset="false"><tag k="addr:street" v="Berkman Drive"/><tag k="addr:housenumber" v="4525"/><tag k="addr:postcode" v="78723"/></node><node id="-92" lat="30.298085" lon="-97.699926" changeset="false"><tag k="addr:street" v="Berkman Drive"/><tag k="addr:housenumber" v="4529"/><tag k="addr:postcode" v="78723"/></node><node id="-93" lat="30.299319" lon="-97.69998" changeset="false"><tag k="addr:street" v="Berkman Drive"/><tag k="addr:housenumber" v="4617"/><tag k="addr:postcode" v="78723"/></node><node id="-94" lat="30.299523" lon="-97.699971" changeset="false"><tag k="addr:street" v="Berkman Drive"/><tag k="addr:housenumber" v="4623"/><tag k="addr:postcode" v="78723"/></node><node id="-95" lat="30.299037" lon="-97.709527" changeset="false"><tag k="addr:street" v="Airport Boulevard"/><tag k="addr:housenumber" v="4305"/><tag k="addr:postcode" v="78723"/></node><node id="-96" lat="30.296311" lon="-97.688496" changeset="false"><tag k="addr:street" v="Manor Road"/><tag k="addr:housenumber" v="4900"/><tag k="addr:postcode" v="78723"/></node><node id="-97" lat="30.287232" lon="-97.70629" changeset="false"><tag k="addr:street" v="Airport Boulevard"/><tag k="addr:housenumber" v="3737"/><tag k="addr:postcode" v="78723"/></node><node id="-98" lat="30.304206" lon="-97.700209" changeset="false"><tag k="addr:street" v="East 51st Street"/><tag k="addr:housenumber" v="1601"/><tag k="addr:postcode" v="78723"/></node><node id="-99" lat="30.30469" lon="-97.707975" changeset="false"><tag k="addr:street" v="Lancaster Drive"/><tag k="addr:housenumber" v="4901"/><tag k="addr:postcode" v="78723"/></node><node id="-100" lat="30.291786" lon="-97.706927" changeset="false"><tag k="addr:street" v="Airport Boulevard"/><tag k="addr:housenumber" v="4003 1/2"/><tag k="addr:postcode" v="78723"/></node><node id="-101" lat="30.297743" lon="-97.708468" changeset="false"><tag k="addr:street" v="Aldrich Street"/><tag k="addr:housenumber" v="1701 1/2"/><tag k="addr:postcode" v="78723"/></node><node id="-102" lat="30.297156" lon="-97.707873" changeset="false"><tag k="addr:street" v="Airport Boulevard"/><tag k="addr:housenumber" v="4215"/><tag k="addr:postcode" v="78723"/></node><node id="-103" lat="30.295451" lon="-97.703116" changeset="false"><tag k="addr:street" v="Camacho Street"/><tag k="addr:housenumber" v="4321"/><tag k="addr:postcode" v="78723"/></node><node id="-104" lat="30.305125" lon="-97.704812" changeset="false"><tag k="addr:street" v="Barbara Jordan Boulevard"/><tag k="addr:housenumber" v="1400 1/2"/><tag k="addr:postcode" v="78723"/></node><node id="-105" lat="30.286679" lon="-97.704959" changeset="false"><tag k="addr:street" v="Manor Road"/><tag k="addr:housenumber" v="3110"/><tag k="addr:postcode" v="78723"/></node><node id="-106" lat="30.296832" lon="-97.699441" changeset="false"><tag k="addr:street" v="Simond Avenue"/><tag k="addr:housenumber" v="2112"/><tag k="addr:postcode" v="78723"/></node><node id="-107" lat="30.296865" lon="-97.698298" changeset="false"><tag k="addr:street" v="Simond Avenue"/><tag k="addr:housenumber" v="2300"/><tag k="addr:postcode" v="78723"/></node><node id="-108" lat="30.297155" lon="-97.699853" changeset="false"><tag k="addr:street" v="Berkman Drive"/><tag k="addr:housenumber" v="4413"/><tag k="addr:postcode" v="78723"/></node><node id="-109" lat="30.295309" lon="-97.697824" changeset="false"><tag k="addr:street" v="Vaughan Street"/><tag k="addr:housenumber" v="4318"/><tag k="addr:postcode" v="78723"/></node><node id="-110" lat="30.295518" lon="-97.698565" changeset="false"><tag k="addr:street" v="Camacho Street"/><tag k="addr:housenumber" v="4613"/><tag k="addr:postcode" v="78723"/></node><node id="-111" lat="30.292496" lon="-97.697171" changeset="false"><tag k="addr:street" v="Vaughan Street"/><tag k="addr:housenumber" v="4011"/><tag k="addr:postcode" v="78723"/></node><node id="-112" lat="30.292491" lon="-97.697254" changeset="false"><tag k="addr:street" v="Vaughan Street"/><tag k="addr:housenumber" v="4013"/><tag k="addr:postcode" v="78723"/></node><node id="-113" lat="30.292201" lon="-97.696344" changeset="false"><tag k="addr:street" v="Briones Street"/><tag k="addr:housenumber" v="4007"/><tag k="addr:postcode" v="78723"/></node><node id="-114" lat="30.292716" lon="-97.696091" changeset="false"><tag k="addr:street" v="Sorin Street"/><tag k="addr:housenumber" v="2713"/><tag k="addr:postcode" v="78723"/></node><node id="-115" lat="30.293904" lon="-97.696163" changeset="false"><tag k="addr:street" v="Moreno Street"/><tag k="addr:housenumber" v="2804"/><tag k="addr:postcode" v="78723"/></node><node id="-116" lat="30.294041" lon="-97.696454" changeset="false"><tag k="addr:street" v="Zach Scott Street"/><tag k="addr:housenumber" v="2811"/><tag k="addr:postcode" v="78723"/></node><node id="-117" lat="30.291079" lon="-97.695181" changeset="false"><tag k="addr:street" v="Tilley Street"/><tag k="addr:housenumber" v="3800"/><tag k="addr:postcode" v="78723"/></node><node id="-118" lat="30.292004" lon="-97.69608" changeset="false"><tag k="addr:street" v="Teaff Street"/><tag k="addr:housenumber" v="3912"/><tag k="addr:postcode" v="78723"/></node><node id="-119" lat="30.292449" lon="-97.696083" changeset="false"><tag k="addr:street" v="Teaff Street"/><tag k="addr:housenumber" v="4010"/><tag k="addr:postcode" v="78723"/></node><node id="-120" lat="30.291927" lon="-97.695221" changeset="false"><tag k="addr:street" v="Tilley Street"/><tag k="addr:housenumber" v="3904"/><tag k="addr:postcode" v="78723"/></node><node id="-121" lat="30.293818" lon="-97.695863" changeset="false"><tag k="addr:street" v="Moreno Street"/><tag k="addr:housenumber" v="2814"/><tag k="addr:postcode" v="78723"/></node><node id="-122" lat="30.294227" lon="-97.695385" changeset="false"><tag k="addr:street" v="Zach Scott Street"/><tag k="addr:housenumber" v="2927"/><tag k="addr:postcode" v="78723"/></node><node id="-123" lat="30.294221" lon="-97.695213" changeset="false"><tag k="addr:street" v="Zach Scott Street"/><tag k="addr:housenumber" v="2931"/><tag k="addr:postcode" v="78723"/></node><node id="-124" lat="30.295548" lon="-97.69812" changeset="false"><tag k="addr:street" v="Camacho Street"/><tag k="addr:housenumber" v="4705"/><tag k="addr:postcode" v="78723"/></node><node id="-125" lat="30.295551" lon="-97.697894" changeset="false"><tag k="addr:street" v="Camacho Street"/><tag k="addr:housenumber" v="4713"/><tag k="addr:postcode" v="78723"/></node><node id="-126" lat="30.295553" lon="-97.697773" changeset="false"><tag k="addr:street" v="Camacho Street"/><tag k="addr:housenumber" v="4717"/><tag k="addr:postcode" v="78723"/></node><node id="-127" lat="30.294711" lon="-97.699033" changeset="false"><tag k="addr:street" v="Nitschke Street"/><tag k="addr:housenumber" v="4311"/><tag k="addr:postcode" v="78723"/></node><node id="-128" lat="30.29491" lon="-97.6991" changeset="false"><tag k="addr:street" v="Nitschke Street"/><tag k="addr:housenumber" v="4323"/><tag k="addr:postcode" v="78723"/></node><node id="-129" lat="30.295901" lon="-97.699043" changeset="false"><tag k="addr:street" v="Camacho Street"/><tag k="addr:housenumber" v="4600"/><tag k="addr:postcode" v="78723"/></node><node id="-130" lat="30.295079" lon="-97.699002" changeset="false"><tag k="addr:street" v="Nitschke Street"/><tag k="addr:housenumber" v="4329"/><tag k="addr:postcode" v="78723"/></node><node id="-131" lat="30.29528" lon="-97.698953" changeset="false"><tag k="addr:street" v="Nitschke Street"/><tag k="addr:housenumber" v="4333"/><tag k="addr:postcode" v="78723"/></node><node id="-132" lat="30.296889" lon="-97.697919" changeset="false"><tag k="addr:street" v="Vaughan Street"/><tag k="addr:housenumber" v="4500"/><tag k="addr:postcode" v="78723"/></node><node id="-133" lat="30.297142" lon="-97.697919" changeset="false"><tag k="addr:street" v="Vaughan Street"/><tag k="addr:housenumber" v="4512"/><tag k="addr:postcode" v="78723"/></node><node id="-134" lat="30.29839" lon="-97.699156" changeset="false"><tag k="addr:street" v="Robert Browning Street"/><tag k="addr:housenumber" v="2301"/><tag k="addr:postcode" v="78723"/></node><node id="-135" lat="30.298395" lon="-97.698984" changeset="false"><tag k="addr:street" v="Robert Browning Street"/><tag k="addr:housenumber" v="2305"/><tag k="addr:postcode" v="78723"/></node><node id="-136" lat="30.298399" lon="-97.698847" changeset="false"><tag k="addr:street" v="Robert Browning Street"/><tag k="addr:housenumber" v="2309"/><tag k="addr:postcode" v="78723"/></node><node id="-137" lat="30.298398" lon="-97.698698" changeset="false"><tag k="addr:street" v="Robert Browning Street"/><tag k="addr:housenumber" v="2313"/><tag k="addr:postcode" v="78723"/></node><node id="-138" lat="30.298408" lon="-97.697879" changeset="false"><tag k="addr:street" v="Robert Browning Street"/><tag k="addr:housenumber" v="2413"/><tag k="addr:postcode" v="78723"/></node><node id="-139" lat="30.299006" lon="-97.698859" changeset="false"><tag k="addr:street" v="Robert Browning Street"/><tag k="addr:housenumber" v="2308"/><tag k="addr:postcode" v="78723"/></node><node id="-140" lat="30.29981" lon="-97.699961" changeset="false"><tag k="addr:street" v="Philomena Street"/><tag k="addr:housenumber" v="2203"/><tag k="addr:postcode" v="78723"/></node><node id="-141" lat="30.299815" lon="-97.699886" changeset="false"><tag k="addr:street" v="Philomena Street"/><tag k="addr:housenumber" v="2205"/><tag k="addr:postcode" v="78723"/></node><node id="-142" lat="30.299833" lon="-97.698782" changeset="false"><tag k="addr:street" v="Philomena Street"/><tag k="addr:housenumber" v="2311"/><tag k="addr:postcode" v="78723"/></node><node id="-143" lat="30.299848" lon="-97.698425" changeset="false"><tag k="addr:street" v="Philomena Street"/><tag k="addr:housenumber" v="2401"/><tag k="addr:postcode" v="78723"/></node><node id="-144" lat="30.299851" lon="-97.698173" changeset="false"><tag k="addr:street" v="Philomena Street"/><tag k="addr:housenumber" v="2407"/><tag k="addr:postcode" v="78723"/></node><node id="-145" lat="30.298862" lon="-97.699957" changeset="false"><tag k="addr:street" v="Robert Browning Street"/><tag k="addr:housenumber" v="2202"/><tag k="addr:postcode" v="78723"/></node><node id="-146" lat="30.298867" lon="-97.699807" changeset="false"><tag k="addr:street" v="Robert Browning Street"/><tag k="addr:housenumber" v="2206"/><tag k="addr:postcode" v="78723"/></node><node id="-147" lat="30.298496" lon="-97.699948" changeset="false"><tag k="addr:street" v="Robert Browning Street"/><tag k="addr:housenumber" v="2203"/><tag k="addr:postcode" v="78723"/></node><node id="-148" lat="30.297669" lon="-97.699931" changeset="false"><tag k="addr:street" v="Berkman Drive"/><tag k="addr:housenumber" v="4509"/><tag k="addr:postcode" v="78723"/></node><node id="-149" lat="30.297888" lon="-97.697858" changeset="false"><tag k="addr:street" v="Vaughan Street"/><tag k="addr:housenumber" v="4612"/><tag k="addr:postcode" v="78723"/></node><node id="-150" lat="30.298123" lon="-97.69787" changeset="false"><tag k="addr:street" v="Vaughan Street"/><tag k="addr:housenumber" v="4626"/><tag k="addr:postcode" v="78723"/></node><node id="-151" lat="30.304169" lon="-97.701564" changeset="false"><tag k="addr:street" v="Aldrich Street"/><tag k="addr:housenumber" v="2604"/><tag k="addr:postcode" v="78723"/></node><node id="-152" lat="30.302356" lon="-97.702151" changeset="false"><tag k="addr:street" v="Aldrich Street"/><tag k="addr:housenumber" v="2401"/><tag k="addr:postcode" v="78723"/></node><node id="-153" lat="30.291693" lon="-97.699494" changeset="false"><tag k="addr:street" v="Berkman Drive"/><tag k="addr:housenumber" v="3916"/><tag k="addr:postcode" v="78723"/></node><node id="-154" lat="30.290982" lon="-97.695796" changeset="false"><tag k="addr:street" v="Tom Miller Street"/><tag k="addr:housenumber" v="3120"/><tag k="addr:postcode" v="78723"/></node><node id="-155" lat="30.292966" lon="-97.69948" changeset="false"><tag k="addr:street" v="Berkman Drive"/><tag k="addr:housenumber" v="4017"/><tag k="addr:postcode" v="78723"/></node><node id="-156" lat="30.293541" lon="-97.699674" changeset="false"><tag k="addr:street" v="Berkman Drive"/><tag k="addr:housenumber" v="4107"/><tag k="addr:postcode" v="78723"/></node><node id="-157" lat="30.29298" lon="-97.699089" changeset="false"><tag k="addr:street" v="Nitschke Street"/><tag k="addr:housenumber" v="4100"/><tag k="addr:postcode" v="78723"/></node><node id="-158" lat="30.2931" lon="-97.699155" changeset="false"><tag k="addr:street" v="Nitschke Street"/><tag k="addr:housenumber" v="4102"/><tag k="addr:postcode" v="78723"/></node><node id="-159" lat="30.293742" lon="-97.699363" changeset="false"><tag k="addr:street" v="Nitschke Street"/><tag k="addr:housenumber" v="4202"/><tag k="addr:postcode" v="78723"/></node><node id="-160" lat="30.294177" lon="-97.699398" changeset="false"><tag k="addr:street" v="Nitschke Street"/><tag k="addr:housenumber" v="4210"/><tag k="addr:postcode" v="78723"/></node><node id="-161" lat="30.293857" lon="-97.698581" changeset="false"><tag k="addr:street" v="Moreno Street"/><tag k="addr:housenumber" v="2502"/><tag k="addr:postcode" v="78723"/></node><node id="-162" lat="30.293953" lon="-97.698122" changeset="false"><tag k="addr:street" v="Moreno Street"/><tag k="addr:housenumber" v="2506"/><tag k="addr:postcode" v="78723"/></node><node id="-163" lat="30.294008" lon="-97.697782" changeset="false"><tag k="addr:street" v="Vaughan Street"/><tag k="addr:housenumber" v="4208"/><tag k="addr:postcode" v="78723"/></node><node id="-164" lat="30.294218" lon="-97.69779" changeset="false"><tag k="addr:street" v="Vaughan Street"/><tag k="addr:housenumber" v="4216"/><tag k="addr:postcode" v="78723"/></node><node id="-165" lat="30.293453" lon="-97.698752" changeset="false"><tag k="addr:street" v="Moreno Street"/><tag k="addr:housenumber" v="2405"/><tag k="addr:postcode" v="78723"/></node><node id="-166" lat="30.293458" lon="-97.698523" changeset="false"><tag k="addr:street" v="Moreno Street"/><tag k="addr:housenumber" v="2413"/><tag k="addr:postcode" v="78723"/></node><node id="-167" lat="30.293159" lon="-97.698377" changeset="false"><tag k="addr:street" v="Sorin Street"/><tag k="addr:housenumber" v="2412"/><tag k="addr:postcode" v="78723"/></node><node id="-168" lat="30.293156" lon="-97.698152" changeset="false"><tag k="addr:street" v="Sorin Street"/><tag k="addr:housenumber" v="2504"/><tag k="addr:postcode" v="78723"/></node><node id="-169" lat="30.29316" lon="-97.69808" changeset="false"><tag k="addr:street" v="Sorin Street"/><tag k="addr:housenumber" v="2506"/><tag k="addr:postcode" v="78723"/></node><node id="-170" lat="30.293262" lon="-97.697742" changeset="false"><tag k="addr:street" v="Vaughan Street"/><tag k="addr:housenumber" v="4104"/><tag k="addr:postcode" v="78723"/></node><node id="-171" lat="30.292774" lon="-97.697213" changeset="false"><tag k="addr:street" v="Sorin Street"/><tag k="addr:housenumber" v="2605"/><tag k="addr:postcode" v="78723"/></node><node id="-172" lat="30.291318" lon="-97.697228" changeset="false"><tag k="addr:street" v="Vaughan Street"/><tag k="addr:housenumber" v="3901"/><tag k="addr:postcode" v="78723"/></node><node id="-173" lat="30.291839" lon="-97.697252" changeset="false"><tag k="addr:street" v="Vaughan Street"/><tag k="addr:housenumber" v="3917"/><tag k="addr:postcode" v="78723"/></node><node id="-174" lat="30.29171" lon="-97.696893" changeset="false"><tag k="addr:street" v="Briones Street"/><tag k="addr:housenumber" v="3912"/><tag k="addr:postcode" v="78723"/></node><node id="-175" lat="30.291918" lon="-97.696895" changeset="false"><tag k="addr:street" v="Briones Street"/><tag k="addr:housenumber" v="3920"/><tag k="addr:postcode" v="78723"/></node><node id="-176" lat="30.29224" lon="-97.69725" changeset="false"><tag k="addr:street" v="Vaughan Street"/><tag k="addr:housenumber" v="4003"/><tag k="addr:postcode" v="78723"/></node><node id="-177" lat="30.289998" lon="-97.697998" changeset="false"><tag k="addr:street" v="Tom Miller Street"/><tag k="addr:housenumber" v="2901"/><tag k="addr:postcode" v="78723"/></node><node id="-178" lat="30.300399" lon="-97.701883" changeset="false"><tag k="addr:street" v="Ruiz Street"/><tag k="addr:housenumber" v="4707"/><tag k="addr:postcode" v="78723"/></node><node id="-179" lat="30.300478" lon="-97.701885" changeset="false"><tag k="addr:street" v="Ruiz Street"/><tag k="addr:housenumber" v="4709"/><tag k="addr:postcode" v="78723"/></node><node id="-180" lat="30.300183" lon="-97.701071" changeset="false"><tag k="addr:street" v="Philomena Street"/><tag k="addr:housenumber" v="2116"/><tag k="addr:postcode" v="78723"/></node><node id="-181" lat="30.300206" lon="-97.70067" changeset="false"><tag k="addr:street" v="Philomena Street"/><tag k="addr:housenumber" v="2126"/><tag k="addr:postcode" v="78723"/></node><node id="-182" lat="30.300523" lon="-97.700802" changeset="false"><tag k="addr:street" v="Berkman Drive"/><tag k="addr:housenumber" v="4714"/><tag k="addr:postcode" v="78723"/></node><node id="-183" lat="30.300526" lon="-97.700868" changeset="false"><tag k="addr:street" v="Berkman Drive"/><tag k="addr:housenumber" v="4716"/><tag k="addr:postcode" v="78723"/></node><node id="-184" lat="30.300557" lon="-97.701164" changeset="false"><tag k="addr:street" v="Page Street"/><tag k="addr:housenumber" v="4709"/><tag k="addr:postcode" v="78723"/></node><node id="-185" lat="30.2971" lon="-97.702538" changeset="false"><tag k="addr:street" v="Mattie Street"/><tag k="addr:housenumber" v="4417"/><tag k="addr:postcode" v="78723"/></node><node id="-186" lat="30.297725" lon="-97.701849" changeset="false"><tag k="addr:street" v="Ruiz Street"/><tag k="addr:housenumber" v="4509"/><tag k="addr:postcode" v="78723"/></node><node id="-187" lat="30.297976" lon="-97.701858" changeset="false"><tag k="addr:street" v="Ruiz Street"/><tag k="addr:housenumber" v="4529"/><tag k="addr:postcode" v="78723"/></node><node id="-188" lat="30.298029" lon="-97.702676" changeset="false"><tag k="addr:street" v="Mattie Street"/><tag k="addr:housenumber" v="4537"/><tag k="addr:postcode" v="78723"/></node><node id="-189" lat="30.298489" lon="-97.702552" changeset="false"><tag k="addr:street" v="Robert Browning Street"/><tag k="addr:housenumber" v="2009"/><tag k="addr:postcode" v="78723"/></node><node id="-190" lat="30.298499" lon="-97.702225" changeset="false"><tag k="addr:street" v="Robert Browning Street"/><tag k="addr:housenumber" v="2025"/><tag k="addr:postcode" v="78723"/></node><node id="-191" lat="30.297979" lon="-97.701596" changeset="false"><tag k="addr:street" v="Page Street"/><tag k="addr:housenumber" v="4524"/><tag k="addr:postcode" v="78723"/></node><node id="-192" lat="30.298248" lon="-97.701419" changeset="false"><tag k="addr:street" v="Page Street"/><tag k="addr:housenumber" v="4544"/><tag k="addr:postcode" v="78723"/></node><node id="-193" lat="30.298242" lon="-97.701601" changeset="false"><tag k="addr:street" v="Page Street"/><tag k="addr:housenumber" v="4552"/><tag k="addr:postcode" v="78723"/></node><node id="-194" lat="30.298313" lon="-97.701067" changeset="false"><tag k="addr:street" v="Page Street"/><tag k="addr:housenumber" v="4533"/><tag k="addr:postcode" v="78723"/></node><node id="-195" lat="30.29759" lon="-97.700526" changeset="false"><tag k="addr:street" v="Berkman Drive"/><tag k="addr:housenumber" v="4504"/><tag k="addr:postcode" v="78723"/></node><node id="-196" lat="30.298235" lon="-97.700547" changeset="false"><tag k="addr:street" v="Berkman Drive"/><tag k="addr:housenumber" v="4536"/><tag k="addr:postcode" v="78723"/></node><node id="-197" lat="30.298532" lon="-97.700866" changeset="false"><tag k="addr:street" v="Robert Browning Street"/><tag k="addr:housenumber" v="2129"/><tag k="addr:postcode" v="78723"/></node><node id="-198" lat="30.298811" lon="-97.700697" changeset="false"><tag k="addr:street" v="Robert Browning Street"/><tag k="addr:housenumber" v="2136"/><tag k="addr:postcode" v="78723"/></node><node id="-199" lat="30.299323" lon="-97.70219" changeset="false"><tag k="addr:street" v="Ruiz Street"/><tag k="addr:housenumber" v="4624"/><tag k="addr:postcode" v="78723"/></node><node id="-200" lat="30.29932" lon="-97.701816" changeset="false"><tag k="addr:street" v="Ruiz Street"/><tag k="addr:housenumber" v="4625"/><tag k="addr:postcode" v="78723"/></node><node id="-201" lat="30.299325" lon="-97.701732" changeset="false"><tag k="addr:street" v="Ruiz Street"/><tag k="addr:housenumber" v="4629"/><tag k="addr:postcode" v="78723"/></node><node id="-202" lat="30.299333" lon="-97.701384" changeset="false"><tag k="addr:street" v="Page Street"/><tag k="addr:housenumber" v="4620"/><tag k="addr:postcode" v="78723"/></node><node id="-203" lat="30.299333" lon="-97.701482" changeset="false"><tag k="addr:street" v="Page Street"/><tag k="addr:housenumber" v="4624"/><tag k="addr:postcode" v="78723"/></node><node id="-204" lat="30.299332" lon="-97.701566" changeset="false"><tag k="addr:street" v="Page Street"/><tag k="addr:housenumber" v="4628"/><tag k="addr:postcode" v="78723"/></node><node id="-205" lat="30.299328" lon="-97.70165" changeset="false"><tag k="addr:street" v="Page Street"/><tag k="addr:housenumber" v="4632"/><tag k="addr:postcode" v="78723"/></node><node id="-206" lat="30.29985" lon="-97.701146" changeset="false"><tag k="addr:street" v="Philomena Street"/><tag k="addr:housenumber" v="2117"/><tag k="addr:postcode" v="78723"/></node><node id="-207" lat="30.299854" lon="-97.700995" changeset="false"><tag k="addr:street" v="Philomena Street"/><tag k="addr:housenumber" v="2125"/><tag k="addr:postcode" v="78723"/></node><node id="-208" lat="30.299835" lon="-97.701831" changeset="false"><tag k="addr:street" v="Philomena Street"/><tag k="addr:housenumber" v="2037"/><tag k="addr:postcode" v="78723"/></node><node id="-209" lat="30.299377" lon="-97.702722" changeset="false"><tag k="addr:street" v="Mattie Street"/><tag k="addr:housenumber" v="4633"/><tag k="addr:postcode" v="78723"/></node><node id="-210" lat="30.306354" lon="-97.70916" changeset="false"><tag k="addr:street" v="Barbara Jordan Boulevard"/><tag k="addr:housenumber" v="1201"/><tag k="addr:postcode" v="78723"/></node><node id="-211" lat="30.2867" lon="-97.704885" changeset="false"><tag k="addr:street" v="Manor Road"/><tag k="addr:housenumber" v="3116"/><tag k="addr:postcode" v="78723"/></node><node id="-212" lat="30.290361" lon="-97.695161" changeset="false"><tag k="addr:street" v="Manor Road"/><tag k="addr:housenumber" v="3726"/><tag k="addr:postcode" v="78723"/></node><node id="-213" lat="30.287759" lon="-97.701434" changeset="false"><tag k="addr:street" v="Anchor Lane"/><tag k="addr:housenumber" v="2116"/><tag k="addr:postcode" v="78723"/></node><node id="-214" lat="30.299302" lon="-97.69079" changeset="false"><tag k="addr:street" v="Old Manor Road"/><tag k="addr:housenumber" v="5020"/><tag k="addr:postcode" v="78723"/></node><node id="-215" lat="30.292404" lon="-97.689511" changeset="false"><tag k="addr:street" v="Lovell Drive"/><tag k="addr:housenumber" v="2609"/><tag k="addr:postcode" v="78723"/></node><node id="-216" lat="30.288286" lon="-97.701379" changeset="false"><tag k="addr:street" v="Manor Road"/><tag k="addr:housenumber" v="3500"/><tag k="addr:postcode" v="78723"/></node><node id="-217" lat="30.290186" lon="-97.690915" changeset="false"><tag k="addr:street" v="Manor Road"/><tag k="addr:housenumber" v="4300"/><tag k="addr:postcode" v="78723"/></node><node id="-218" lat="30.297606" lon="-97.708458" changeset="false"><tag k="addr:street" v="Airport Boulevard"/><tag k="addr:housenumber" v="4237"/><tag k="addr:postcode" v="78723"/></node><node id="-219" lat="30.29516" lon="-97.707554" changeset="false"><tag k="addr:street" v="Airport Boulevard"/><tag k="addr:housenumber" v="4125"/><tag k="addr:postcode" v="78723"/></node><node id="-220" lat="30.289555" lon="-97.69835" changeset="false"><tag k="addr:street" v="Manor Road"/><tag k="addr:housenumber" v="3600"/><tag k="addr:postcode" v="78723"/></node><node id="-221" lat="30.29795" lon="-97.706877" changeset="false"><tag k="addr:street" v="Aldrich Street"/><tag k="addr:housenumber" v="1801 1/2"/><tag k="addr:postcode" v="78723"/></node><node id="-222" lat="30.293971" lon="-97.706625" changeset="false"><tag k="addr:street" v="Zach Scott Street"/><tag k="addr:housenumber" v="1909"/><tag k="addr:postcode" v="78723"/></node><node id="-223" lat="30.286805" lon="-97.704393" changeset="false"><tag k="addr:street" v="Manor Road"/><tag k="addr:housenumber" v="3126"/><tag k="addr:postcode" v="78723"/></node><node id="-224" lat="30.291388" lon="-97.706869" changeset="false"><tag k="addr:street" v="Airport Boulevard"/><tag k="addr:housenumber" v="3953 1/2"/><tag k="addr:postcode" v="78723"/></node><node id="-225" lat="30.302693" lon="-97.708727" changeset="false"><tag k="addr:street" v="Philomena Street"/><tag k="addr:housenumber" v="1311 1/2"/><tag k="addr:postcode" v="78723"/></node><node id="-226" lat="30.29987" lon="-97.707076" changeset="false"><tag k="addr:street" v="Mueller Boulevard"/><tag k="addr:housenumber" v="4646"/><tag k="addr:postcode" v="78723"/></node><node id="-227" lat="30.293098" lon="-97.695995" changeset="false"><tag k="addr:street" v="Sorin Street"/><tag k="addr:housenumber" v="2710"/><tag k="addr:postcode" v="78723"/></node><node id="-228" lat="30.291757" lon="-97.699519" changeset="false"><tag k="addr:street" v="Berkman Drive"/><tag k="addr:housenumber" v="3920"/><tag k="addr:postcode" v="78723"/></node><node id="-229" lat="30.292903" lon="-97.699441" changeset="false"><tag k="addr:street" v="Berkman Drive"/><tag k="addr:housenumber" v="4015"/><tag k="addr:postcode" v="78723"/></node><node id="-230" lat="30.294182" lon="-97.699758" changeset="false"><tag k="addr:street" v="Berkman Drive"/><tag k="addr:housenumber" v="4125"/><tag k="addr:postcode" v="78723"/></node><node id="-231" lat="30.294058" lon="-97.699395" changeset="false"><tag k="addr:street" v="Nitschke Street"/><tag k="addr:housenumber" v="4208"/><tag k="addr:postcode" v="78723"/></node><node id="-232" lat="30.293764" lon="-97.698919" changeset="false"><tag k="addr:street" v="Nitschke Street"/><tag k="addr:housenumber" v="4201"/><tag k="addr:postcode" v="78723"/></node><node id="-233" lat="30.294185" lon="-97.698935" changeset="false"><tag k="addr:street" v="Nitschke Street"/><tag k="addr:housenumber" v="4209"/><tag k="addr:postcode" v="78723"/></node><node id="-234" lat="30.293867" lon="-97.698124" changeset="false"><tag k="addr:street" v="Moreno Street"/><tag k="addr:housenumber" v="2508"/><tag k="addr:postcode" v="78723"/></node><node id="-235" lat="30.294219" lon="-97.698153" changeset="false"><tag k="addr:street" v="Zach Scott Street"/><tag k="addr:housenumber" v="2611"/><tag k="addr:postcode" v="78723"/></node><node id="-236" lat="30.293164" lon="-97.698292" changeset="false"><tag k="addr:street" v="Sorin Street"/><tag k="addr:housenumber" v="2500"/><tag k="addr:postcode" v="78723"/></node><node id="-237" lat="30.29316" lon="-97.698009" changeset="false"><tag k="addr:street" v="Sorin Street"/><tag k="addr:housenumber" v="2508"/><tag k="addr:postcode" v="78723"/></node><node id="-238" lat="30.290512" lon="-97.697267" changeset="false"><tag k="addr:street" v="Tom Miller Street"/><tag k="addr:housenumber" v="3000"/><tag k="addr:postcode" v="78723"/></node><node id="-239" lat="30.290663" lon="-97.696588" changeset="false"><tag k="addr:street" v="Tom Miller Street"/><tag k="addr:housenumber" v="3020"/><tag k="addr:postcode" v="78723"/></node><node id="-240" lat="30.290869" lon="-97.696055" changeset="false"><tag k="addr:street" v="Tom Miller Street"/><tag k="addr:housenumber" v="3112"/><tag k="addr:postcode" v="78723"/></node><node id="-241" lat="30.290936" lon="-97.695934" changeset="false"><tag k="addr:street" v="Tom Miller Street"/><tag k="addr:housenumber" v="3116"/><tag k="addr:postcode" v="78723"/></node><node id="-242" lat="30.29138" lon="-97.696866" changeset="false"><tag k="addr:street" v="Briones Street"/><tag k="addr:housenumber" v="3900"/><tag k="addr:postcode" v="78723"/></node><node id="-243" lat="30.291514" lon="-97.696887" changeset="false"><tag k="addr:street" v="Briones Street"/><tag k="addr:housenumber" v="3904"/><tag k="addr:postcode" v="78723"/></node><node id="-244" lat="30.291614" lon="-97.69689" changeset="false"><tag k="addr:street" v="Briones Street"/><tag k="addr:housenumber" v="3908"/><tag k="addr:postcode" v="78723"/></node><node id="-245" lat="30.292028" lon="-97.696901" changeset="false"><tag k="addr:street" v="Briones Street"/><tag k="addr:housenumber" v="3924"/><tag k="addr:postcode" v="78723"/></node><node id="-246" lat="30.293446" lon="-97.698887" changeset="false"><tag k="addr:street" v="Moreno Street"/><tag k="addr:housenumber" v="2401"/><tag k="addr:postcode" v="78723"/></node><node id="-247" lat="30.293143" lon="-97.698779" changeset="false"><tag k="addr:street" v="Sorin Street"/><tag k="addr:housenumber" v="2400"/><tag k="addr:postcode" v="78723"/></node><node id="-248" lat="30.300563" lon="-97.701867" changeset="false"><tag k="addr:street" v="Ruiz Street"/><tag k="addr:housenumber" v="4711"/><tag k="addr:postcode" v="78723"/></node><node id="-249" lat="30.300914" lon="-97.701855" changeset="false"><tag k="addr:street" v="Ruiz Street"/><tag k="addr:housenumber" v="4719"/><tag k="addr:postcode" v="78723"/></node><node id="-250" lat="30.30013" lon="-97.701518" changeset="false"><tag k="addr:street" v="Page Street"/><tag k="addr:housenumber" v="4700"/><tag k="addr:postcode" v="78723"/></node><node id="-251" lat="30.300205" lon="-97.701523" changeset="false"><tag k="addr:street" v="Page Street"/><tag k="addr:housenumber" v="4702"/><tag k="addr:postcode" v="78723"/></node><node id="-252" lat="30.30034" lon="-97.701536" changeset="false"><tag k="addr:street" v="Page Street"/><tag k="addr:housenumber" v="4706"/><tag k="addr:postcode" v="78723"/></node><node id="-253" lat="30.300901" lon="-97.701525" changeset="false"><tag k="addr:street" v="Page Street"/><tag k="addr:housenumber" v="4720"/><tag k="addr:postcode" v="78723"/></node><node id="-254" lat="30.300194" lon="-97.700912" changeset="false"><tag k="addr:street" v="Philomena Street"/><tag k="addr:housenumber" v="2120"/><tag k="addr:postcode" v="78723"/></node><node id="-255" lat="30.30021" lon="-97.700586" changeset="false"><tag k="addr:street" v="Philomena Street"/><tag k="addr:housenumber" v="2128"/><tag k="addr:postcode" v="78723"/></node><node id="-256" lat="30.301091" lon="-97.700696" changeset="false"><tag k="addr:street" v="Garcia Street"/><tag k="addr:housenumber" v="2127"/><tag k="addr:postcode" v="78723"/></node><node id="-257" lat="30.300567" lon="-97.70058" changeset="false"><tag k="addr:street" v="Berkman Drive"/><tag k="addr:housenumber" v="4708"/><tag k="addr:postcode" v="78723"/></node><node id="-258" lat="30.300808" lon="-97.700592" changeset="false"><tag k="addr:street" v="Berkman Drive"/><tag k="addr:housenumber" v="4730"/><tag k="addr:postcode" v="78723"/></node><node id="-259" lat="30.300797" lon="-97.700964" changeset="false"><tag k="addr:street" v="Berkman Drive"/><tag k="addr:housenumber" v="4720"/><tag k="addr:postcode" v="78723"/></node><node id="-260" lat="30.300802" lon="-97.701177" changeset="false"><tag k="addr:street" v="Page Street"/><tag k="addr:housenumber" v="4723"/><tag k="addr:postcode" v="78723"/></node><node id="-261" lat="30.292453" lon="-97.696817" changeset="false"><tag k="addr:street" v="Briones Street"/><tag k="addr:housenumber" v="4010"/><tag k="addr:postcode" v="78723"/></node><node id="-262" lat="30.292205" lon="-97.696455" changeset="false"><tag k="addr:street" v="Briones Street"/><tag k="addr:housenumber" v="4005"/><tag k="addr:postcode" v="78723"/></node><node id="-263" lat="30.292201" lon="-97.69627" changeset="false"><tag k="addr:street" v="Briones Street"/><tag k="addr:housenumber" v="4009"/><tag k="addr:postcode" v="78723"/></node><node id="-264" lat="30.292456" lon="-97.696281" changeset="false"><tag k="addr:street" v="Briones Street"/><tag k="addr:housenumber" v="4011"/><tag k="addr:postcode" v="78723"/></node><node id="-265" lat="30.292448" lon="-97.696465" changeset="false"><tag k="addr:street" v="Briones Street"/><tag k="addr:housenumber" v="4015"/><tag k="addr:postcode" v="78723"/></node><node id="-266" lat="30.293981" lon="-97.696447" changeset="false"><tag k="addr:street" v="Moreno Street"/><tag k="addr:housenumber" v="2708"/><tag k="addr:postcode" v="78723"/></node><node id="-267" lat="30.29418" lon="-97.697236" changeset="false"><tag k="addr:street" v="Zach Scott Street"/><tag k="addr:housenumber" v="2705"/><tag k="addr:postcode" v="78723"/></node><node id="-268" lat="30.291204" lon="-97.695183" changeset="false"><tag k="addr:street" v="Tilley Street"/><tag k="addr:housenumber" v="3804"/><tag k="addr:postcode" v="78723"/></node><node id="-269" lat="30.291836" lon="-97.695626" changeset="false"><tag k="addr:street" v="Teaff Street"/><tag k="addr:housenumber" v="3905"/><tag k="addr:postcode" v="78723"/></node><node id="-270" lat="30.291769" lon="-97.696075" changeset="false"><tag k="addr:street" v="Teaff Street"/><tag k="addr:housenumber" v="3906"/><tag k="addr:postcode" v="78723"/></node><node id="-271" lat="30.292204" lon="-97.695964" changeset="false"><tag k="addr:street" v="Teaff Street"/><tag k="addr:housenumber" v="4000"/><tag k="addr:postcode" v="78723"/></node><node id="-272" lat="30.292456" lon="-97.696201" changeset="false"><tag k="addr:street" v="Teaff Street"/><tag k="addr:housenumber" v="4008"/><tag k="addr:postcode" v="78723"/></node><node id="-273" lat="30.292448" lon="-97.696034" changeset="false"><tag k="addr:street" v="Teaff Street"/><tag k="addr:housenumber" v="4012"/><tag k="addr:postcode" v="78723"/></node><node id="-274" lat="30.292526" lon="-97.695616" changeset="false"><tag k="addr:street" v="Teaff Street"/><tag k="addr:housenumber" v="4013"/><tag k="addr:postcode" v="78723"/></node><node id="-275" lat="30.292299" lon="-97.69516" changeset="false"><tag k="addr:street" v="Tilley Street"/><tag k="addr:housenumber" v="4000"/><tag k="addr:postcode" v="78723"/></node><node id="-276" lat="30.292541" lon="-97.695167" changeset="false"><tag k="addr:street" v="Tilley Street"/><tag k="addr:housenumber" v="4010"/><tag k="addr:postcode" v="78723"/></node><node id="-277" lat="30.292766" lon="-97.695707" changeset="false"><tag k="addr:street" v="Sorin Street"/><tag k="addr:housenumber" v="2801"/><tag k="addr:postcode" v="78723"/></node><node id="-278" lat="30.292816" lon="-97.695452" changeset="false"><tag k="addr:street" v="Sorin Street"/><tag k="addr:housenumber" v="2809"/><tag k="addr:postcode" v="78723"/></node><node id="-279" lat="30.292822" lon="-97.695188" changeset="false"><tag k="addr:street" v="Sorin Street"/><tag k="addr:housenumber" v="2817"/><tag k="addr:postcode" v="78723"/></node><node id="-280" lat="30.294227" lon="-97.695484" changeset="false"><tag k="addr:street" v="Zach Scott Street"/><tag k="addr:housenumber" v="2925"/><tag k="addr:postcode" v="78723"/></node><node id="-281" lat="30.297978" lon="-97.70216" changeset="false"><tag k="addr:street" v="Ruiz Street"/><tag k="addr:housenumber" v="4520"/><tag k="addr:postcode" v="78723"/></node><node id="-282" lat="30.298236" lon="-97.701784" changeset="false"><tag k="addr:street" v="Ruiz Street"/><tag k="addr:housenumber" v="4537"/><tag k="addr:postcode" v="78723"/></node><node id="-283" lat="30.298237" lon="-97.701697" changeset="false"><tag k="addr:street" v="Ruiz Street"/><tag k="addr:housenumber" v="4541"/><tag k="addr:postcode" v="78723"/></node><node id="-284" lat="30.297629" lon="-97.702668" changeset="false"><tag k="addr:street" v="Mattie Street"/><tag k="addr:housenumber" v="4513"/><tag k="addr:postcode" v="78723"/></node><node id="-285" lat="30.297899" lon="-97.702669" changeset="false"><tag k="addr:street" v="Mattie Street"/><tag k="addr:housenumber" v="4529"/><tag k="addr:postcode" v="78723"/></node><node id="-286" lat="30.29798" lon="-97.701511" changeset="false"><tag k="addr:street" v="Page Street"/><tag k="addr:housenumber" v="4528"/><tag k="addr:postcode" v="78723"/></node><node id="-287" lat="30.297502" lon="-97.700521" changeset="false"><tag k="addr:street" v="Berkman Drive"/><tag k="addr:housenumber" v="4500"/><tag k="addr:postcode" v="78723"/></node><node id="-288" lat="30.297827" lon="-97.700535" changeset="false"><tag k="addr:street" v="Berkman Drive"/><tag k="addr:housenumber" v="4516"/><tag k="addr:postcode" v="78723"/></node><node id="-289" lat="30.297908" lon="-97.700533" changeset="false"><tag k="addr:street" v="Berkman Drive"/><tag k="addr:housenumber" v="4520"/><tag k="addr:postcode" v="78723"/></node><node id="-290" lat="30.297995" lon="-97.700544" changeset="false"><tag k="addr:street" v="Berkman Drive"/><tag k="addr:housenumber" v="4524"/><tag k="addr:postcode" v="78723"/></node><node id="-291" lat="30.298535" lon="-97.700775" changeset="false"><tag k="addr:street" v="Robert Browning Street"/><tag k="addr:housenumber" v="2133"/><tag k="addr:postcode" v="78723"/></node><node id="-292" lat="30.29881" lon="-97.701362" changeset="false"><tag k="addr:street" v="Robert Browning Street"/><tag k="addr:housenumber" v="2112"/><tag k="addr:postcode" v="78723"/></node><node id="-293" lat="30.298805" lon="-97.700953" changeset="false"><tag k="addr:street" v="Robert Browning Street"/><tag k="addr:housenumber" v="2124"/><tag k="addr:postcode" v="78723"/></node><node id="-294" lat="30.298813" lon="-97.70062" changeset="false"><tag k="addr:street" v="Robert Browning Street"/><tag k="addr:housenumber" v="2140"/><tag k="addr:postcode" v="78723"/></node><node id="-295" lat="30.298765" lon="-97.702716" changeset="false"><tag k="addr:street" v="Robert Browning Street"/><tag k="addr:housenumber" v="2000"/><tag k="addr:postcode" v="78723"/></node><node id="-296" lat="30.298767" lon="-97.702633" changeset="false"><tag k="addr:street" v="Robert Browning Street"/><tag k="addr:housenumber" v="2004"/><tag k="addr:postcode" v="78723"/></node><node id="-297" lat="30.299571" lon="-97.701738" changeset="false"><tag k="addr:street" v="Ruiz Street"/><tag k="addr:housenumber" v="4633"/><tag k="addr:postcode" v="78723"/></node><node id="-298" lat="30.299117" lon="-97.701551" changeset="false"><tag k="addr:street" v="Page Street"/><tag k="addr:housenumber" v="4612"/><tag k="addr:postcode" v="78723"/></node><node id="-299" lat="30.299101" lon="-97.701106" changeset="false"><tag k="addr:street" v="Page Street"/><tag k="addr:housenumber" v="4613"/><tag k="addr:postcode" v="78723"/></node><node id="-300" lat="30.299178" lon="-97.701109" changeset="false"><tag k="addr:street" v="Page Street"/><tag k="addr:housenumber" v="4617"/><tag k="addr:postcode" v="78723"/></node><node id="-301" lat="30.299265" lon="-97.701111" changeset="false"><tag k="addr:street" v="Page Street"/><tag k="addr:housenumber" v="4621"/><tag k="addr:postcode" v="78723"/></node><node id="-302" lat="30.299598" lon="-97.70112" changeset="false"><tag k="addr:street" v="Page Street"/><tag k="addr:housenumber" v="4637"/><tag k="addr:postcode" v="78723"/></node><node id="-303" lat="30.299365" lon="-97.700586" changeset="false"><tag k="addr:street" v="Berkman Drive"/><tag k="addr:housenumber" v="4624"/><tag k="addr:postcode" v="78723"/></node><node id="-304" lat="30.299811" lon="-97.702516" changeset="false"><tag k="addr:street" v="Philomena Street"/><tag k="addr:housenumber" v="2013"/><tag k="addr:postcode" v="78723"/></node><node id="-305" lat="30.299818" lon="-97.702263" changeset="false"><tag k="addr:street" v="Philomena Street"/><tag k="addr:housenumber" v="2025"/><tag k="addr:postcode" v="78723"/></node><node id="-306" lat="30.299313" lon="-97.702723" changeset="false"><tag k="addr:street" v="Mattie Street"/><tag k="addr:housenumber" v="4629"/><tag k="addr:postcode" v="78723"/></node><node id="-307" lat="30.299436" lon="-97.702722" changeset="false"><tag k="addr:street" v="Mattie Street"/><tag k="addr:housenumber" v="4637"/><tag k="addr:postcode" v="78723"/></node><node id="-308" lat="30.299566" lon="-97.702725" changeset="false"><tag k="addr:street" v="Mattie Street"/><tag k="addr:housenumber" v="4645"/><tag k="addr:postcode" v="78723"/></node><node id="-309" lat="30.294682" lon="-97.699816" changeset="false"><tag k="addr:street" v="Berkman Drive"/><tag k="addr:housenumber" v="4207"/><tag k="addr:postcode" v="78723"/></node><node id="-310" lat="30.294977" lon="-97.699822" changeset="false"><tag k="addr:street" v="Berkman Drive"/><tag k="addr:housenumber" v="4215"/><tag k="addr:postcode" v="78723"/></node><node id="-311" lat="30.295064" lon="-97.699822" changeset="false"><tag k="addr:street" v="Berkman Drive"/><tag k="addr:housenumber" v="4217"/><tag k="addr:postcode" v="78723"/></node><node id="-312" lat="30.295435" lon="-97.699832" changeset="false"><tag k="addr:street" v="Berkman Drive"/><tag k="addr:housenumber" v="4227"/><tag k="addr:postcode" v="78723"/></node><node id="-313" lat="30.295498" lon="-97.699833" changeset="false"><tag k="addr:street" v="Berkman Drive"/><tag k="addr:housenumber" v="4229"/><tag k="addr:postcode" v="78723"/></node><node id="-314" lat="30.295567" lon="-97.699836" changeset="false"><tag k="addr:street" v="Berkman Drive"/><tag k="addr:housenumber" v="4231"/><tag k="addr:postcode" v="78723"/></node><node id="-315" lat="30.294926" lon="-97.699423" changeset="false"><tag k="addr:street" v="Nitschke Street"/><tag k="addr:housenumber" v="4308"/><tag k="addr:postcode" v="78723"/></node><node id="-316" lat="30.295024" lon="-97.699437" changeset="false"><tag k="addr:street" v="Nitschke Street"/><tag k="addr:housenumber" v="4310"/><tag k="addr:postcode" v="78723"/></node><node id="-317" lat="30.295546" lon="-97.699425" changeset="false"><tag k="addr:street" v="Nitschke Street"/><tag k="addr:housenumber" v="4320"/><tag k="addr:postcode" v="78723"/></node><node id="-318" lat="30.29589" lon="-97.69918" changeset="false"><tag k="addr:street" v="Camacho Street"/><tag k="addr:housenumber" v="4520"/><tag k="addr:postcode" v="78723"/></node><node id="-319" lat="30.29555" lon="-97.698255" changeset="false"><tag k="addr:street" v="Camacho Street"/><tag k="addr:housenumber" v="4701"/><tag k="addr:postcode" v="78723"/></node><node id="-320" lat="30.294521" lon="-97.699055" changeset="false"><tag k="addr:street" v="Zach Scott Street"/><tag k="addr:housenumber" v="2500"/><tag k="addr:postcode" v="78723"/></node><node id="-321" lat="30.294534" lon="-97.698613" changeset="false"><tag k="addr:street" v="Zach Scott Street"/><tag k="addr:housenumber" v="2510"/><tag k="addr:postcode" v="78723"/></node><node id="-322" lat="30.294712" lon="-97.699094" changeset="false"><tag k="addr:street" v="Nitschke Street"/><tag k="addr:housenumber" v="4309"/><tag k="addr:postcode" v="78723"/></node><node id="-323" lat="30.295075" lon="-97.6991" changeset="false"><tag k="addr:street" v="Nitschke Street"/><tag k="addr:housenumber" v="4325"/><tag k="addr:postcode" v="78723"/></node><node id="-324" lat="30.29508" lon="-97.699049" changeset="false"><tag k="addr:street" v="Nitschke Street"/><tag k="addr:housenumber" v="4327"/><tag k="addr:postcode" v="78723"/></node><node id="-325" lat="30.298388" lon="-97.698048" changeset="false"><tag k="addr:street" v="Robert Browning Street"/><tag k="addr:housenumber" v="2409"/><tag k="addr:postcode" v="78723"/></node><node id="-326" lat="30.299819" lon="-97.699598" changeset="false"><tag k="addr:street" v="Philomena Street"/><tag k="addr:housenumber" v="2211"/><tag k="addr:postcode" v="78723"/></node><node id="-327" lat="30.299829" lon="-97.699068" changeset="false"><tag k="addr:street" v="Philomena Street"/><tag k="addr:housenumber" v="2305"/><tag k="addr:postcode" v="78723"/></node><node id="-328" lat="30.29985" lon="-97.697979" changeset="false"><tag k="addr:street" v="Philomena Street"/><tag k="addr:housenumber" v="2411"/><tag k="addr:postcode" v="78723"/></node><node id="-329" lat="30.298874" lon="-97.699472" changeset="false"><tag k="addr:street" v="Robert Browning Street"/><tag k="addr:housenumber" v="2214"/><tag k="addr:postcode" v="78723"/></node><node id="-330" lat="30.2985" lon="-97.700016" changeset="false"><tag k="addr:street" v="Robert Browning Street"/><tag k="addr:housenumber" v="2201"/><tag k="addr:postcode" v="78723"/></node><node id="-331" lat="30.299251" lon="-97.699988" changeset="false"><tag k="addr:street" v="Berkman Drive"/><tag k="addr:housenumber" v="4615"/><tag k="addr:postcode" v="78723"/></node><node id="-332" lat="30.299463" lon="-97.69997" changeset="false"><tag k="addr:street" v="Berkman Drive"/><tag k="addr:housenumber" v="4621"/><tag k="addr:postcode" v="78723"/></node><node id="-333" lat="30.298694" lon="-97.69866" changeset="false"><tag k="addr:street" v="Robert Browning Street"/><tag k="addr:housenumber" v="2312 1/2"/><tag k="addr:postcode" v="78723"/></node><node id="-334" lat="30.29788" lon="-97.697911" changeset="false"><tag k="addr:street" v="Vaughan Street"/><tag k="addr:housenumber" v="4614"/><tag k="addr:postcode" v="78723"/></node><node id="-335" lat="30.29812" lon="-97.698101" changeset="false"><tag k="addr:street" v="Vaughan Street"/><tag k="addr:housenumber" v="4620"/><tag k="addr:postcode" v="78723"/></node><node id="-336" lat="30.301949" lon="-97.700344" changeset="false"><tag k="addr:street" v="Berkman Drive"/><tag k="addr:housenumber" v="4818"/><tag k="addr:postcode" v="78723"/></node><node id="-337" lat="30.305686" lon="-97.703104" changeset="false"><tag k="addr:street" v="East 51st Street"/><tag k="addr:housenumber" v="1425 1/2"/><tag k="addr:postcode" v="78723"/></node><node id="-338" lat="30.292645" lon="-97.689995" changeset="false"><tag k="addr:street" v="Lovell Drive"/><tag k="addr:housenumber" v="2605"/><tag k="addr:postcode" v="78723"/></node><node id="-339" lat="30.30074" lon="-97.690543" changeset="false"><tag k="addr:street" v="East 51st Street"/><tag k="addr:housenumber" v="2203"/><tag k="addr:postcode" v="78723"/></node><node id="-340" lat="30.298055" lon="-97.708824" changeset="false"><tag k="addr:street" v="Airport Boulevard"/><tag k="addr:housenumber" v="4301"/><tag k="addr:postcode" v="78723"/></node><node id="-341" lat="30.291868" lon="-97.707063" changeset="false"><tag k="addr:street" v="Airport Boulevard"/><tag k="addr:housenumber" v="4005"/><tag k="addr:postcode" v="78723"/></node><node id="-342" lat="30.295547" lon="-97.700454" changeset="false"><tag k="addr:street" v="Berkman Drive"/><tag k="addr:housenumber" v="4260"/><tag k="addr:postcode" v="78723"/></node><node id="-343" lat="30.289079" lon="-97.704281" changeset="false"><tag k="addr:street" v="Anchor Lane"/><tag k="addr:housenumber" v="2002"/><tag k="addr:postcode" v="78723"/></node><node id="-344" lat="30.294197" lon="-97.696457" changeset="false"><tag k="addr:street" v="Zach Scott Street"/><tag k="addr:housenumber" v="2815"/><tag k="addr:postcode" v="78723"/></node><node id="-345" lat="30.294237" lon="-97.696461" changeset="false"><tag k="addr:street" v="Zach Scott Street"/><tag k="addr:housenumber" v="2817"/><tag k="addr:postcode" v="78723"/></node><node id="-346" lat="30.29222" lon="-97.696992" changeset="false"><tag k="addr:street" v="Briones Street"/><tag k="addr:housenumber" v="4004"/><tag k="addr:postcode" v="78723"/></node><node id="-347" lat="30.291417" lon="-97.695177" changeset="false"><tag k="addr:street" v="Tilley Street"/><tag k="addr:housenumber" v="3810"/><tag k="addr:postcode" v="78723"/></node><node id="-348" lat="30.291548" lon="-97.695175" changeset="false"><tag k="addr:street" v="Tilley Street"/><tag k="addr:housenumber" v="3814"/><tag k="addr:postcode" v="78723"/></node><node id="-349" lat="30.291693" lon="-97.696073" changeset="false"><tag k="addr:street" v="Teaff Street"/><tag k="addr:housenumber" v="3904"/><tag k="addr:postcode" v="78723"/></node><node id="-350" lat="30.292454" lon="-97.696511" changeset="false"><tag k="addr:street" v="Briones Street"/><tag k="addr:housenumber" v="4017"/><tag k="addr:postcode" v="78723"/></node><node id="-351" lat="30.291771" lon="-97.695214" changeset="false"><tag k="addr:street" v="Tilley Street"/><tag k="addr:housenumber" v="3900"/><tag k="addr:postcode" v="78723"/></node><node id="-352" lat="30.291851" lon="-97.695221" changeset="false"><tag k="addr:street" v="Tilley Street"/><tag k="addr:housenumber" v="3902"/><tag k="addr:postcode" v="78723"/></node><node id="-353" lat="30.292266" lon="-97.695601" changeset="false"><tag k="addr:street" v="Teaff Street"/><tag k="addr:housenumber" v="4003"/><tag k="addr:postcode" v="78723"/></node><node id="-354" lat="30.292276" lon="-97.695434" changeset="false"><tag k="addr:street" v="Teaff Street"/><tag k="addr:housenumber" v="4007"/><tag k="addr:postcode" v="78723"/></node><node id="-355" lat="30.292535" lon="-97.69544" changeset="false"><tag k="addr:street" v="Teaff Street"/><tag k="addr:housenumber" v="4009"/><tag k="addr:postcode" v="78723"/></node><node id="-356" lat="30.292537" lon="-97.695352" changeset="false"><tag k="addr:street" v="Tilley Street"/><tag k="addr:housenumber" v="4006"/><tag k="addr:postcode" v="78723"/></node><node id="-357" lat="30.292539" lon="-97.695266" changeset="false"><tag k="addr:street" v="Tilley Street"/><tag k="addr:housenumber" v="4008"/><tag k="addr:postcode" v="78723"/></node><node id="-358" lat="30.292835" lon="-97.695326" changeset="false"><tag k="addr:street" v="Sorin Street"/><tag k="addr:housenumber" v="2813"/><tag k="addr:postcode" v="78723"/></node><node id="-359" lat="30.294062" lon="-97.696197" changeset="false"><tag k="addr:street" v="Zach Scott Street"/><tag k="addr:housenumber" v="2909"/><tag k="addr:postcode" v="78723"/></node><node id="-360" lat="30.292455" lon="-97.696567" changeset="false"><tag k="addr:street" v="Briones Street"/><tag k="addr:housenumber" v="4019"/><tag k="addr:postcode" v="78723"/></node><node id="-361" lat="30.293801" lon="-97.696438" changeset="false"><tag k="addr:street" v="Moreno Street"/><tag k="addr:housenumber" v="2714"/><tag k="addr:postcode" v="78723"/></node><node id="-362" lat="30.29413" lon="-97.695876" changeset="false"><tag k="addr:street" v="Zach Scott Street"/><tag k="addr:housenumber" v="2913"/><tag k="addr:postcode" v="78723"/></node><node id="-363" lat="30.294" lon="-97.695867" changeset="false"><tag k="addr:street" v="Moreno Street"/><tag k="addr:housenumber" v="2808"/><tag k="addr:postcode" v="78723"/></node><node id="-364" lat="30.29418" lon="-97.697137" changeset="false"><tag k="addr:street" v="Zach Scott Street"/><tag k="addr:housenumber" v="2707"/><tag k="addr:postcode" v="78723"/></node><node id="-365" lat="30.293916" lon="-97.695864" changeset="false"><tag k="addr:street" v="Moreno Street"/><tag k="addr:housenumber" v="2810"/><tag k="addr:postcode" v="78723"/></node><node id="-366" lat="30.293872" lon="-97.695863" changeset="false"><tag k="addr:street" v="Moreno Street"/><tag k="addr:housenumber" v="2812"/><tag k="addr:postcode" v="78723"/></node><node id="-367" lat="30.293164" lon="-97.699574" changeset="false"><tag k="addr:street" v="Berkman Drive"/><tag k="addr:housenumber" v="4023"/><tag k="addr:postcode" v="78723"/></node><node id="-368" lat="30.293253" lon="-97.699594" changeset="false"><tag k="addr:street" v="Berkman Drive"/><tag k="addr:housenumber" v="4025"/><tag k="addr:postcode" v="78723"/></node><node id="-369" lat="30.293457" lon="-97.699651" changeset="false"><tag k="addr:street" v="Berkman Drive"/><tag k="addr:housenumber" v="4105"/><tag k="addr:postcode" v="78723"/></node><node id="-370" lat="30.294041" lon="-97.699748" changeset="false"><tag k="addr:street" v="Berkman Drive"/><tag k="addr:housenumber" v="4121"/><tag k="addr:postcode" v="78723"/></node><node id="-371" lat="30.29344" lon="-97.69928" changeset="false"><tag k="addr:street" v="Nitschke Street"/><tag k="addr:housenumber" v="4108"/><tag k="addr:postcode" v="78723"/></node><node id="-372" lat="30.294072" lon="-97.698936" changeset="false"><tag k="addr:street" v="Nitschke Street"/><tag k="addr:housenumber" v="4207"/><tag k="addr:postcode" v="78723"/></node><node id="-373" lat="30.293759" lon="-97.698575" changeset="false"><tag k="addr:street" v="Moreno Street"/><tag k="addr:housenumber" v="2500"/><tag k="addr:postcode" v="78723"/></node><node id="-374" lat="30.293941" lon="-97.698582" changeset="false"><tag k="addr:street" v="Moreno Street"/><tag k="addr:housenumber" v="2504"/><tag k="addr:postcode" v="78723"/></node><node id="-375" lat="30.29403" lon="-97.698593" changeset="false"><tag k="addr:street" v="Zach Scott Street"/><tag k="addr:housenumber" v="2605"/><tag k="addr:postcode" v="78723"/></node><node id="-376" lat="30.29412" lon="-97.698131" changeset="false"><tag k="addr:street" v="Zach Scott Street"/><tag k="addr:housenumber" v="2609"/><tag k="addr:postcode" v="78723"/></node><node id="-377" lat="30.292769" lon="-97.697334" changeset="false"><tag k="addr:street" v="Sorin Street"/><tag k="addr:housenumber" v="2601"/><tag k="addr:postcode" v="78723"/></node><node id="-378" lat="30.290589" lon="-97.696855" changeset="false"><tag k="addr:street" v="Tom Miller Street"/><tag k="addr:housenumber" v="3012"/><tag k="addr:postcode" v="78723"/></node><node id="-379" lat="30.29138" lon="-97.697232" changeset="false"><tag k="addr:street" v="Vaughan Street"/><tag k="addr:housenumber" v="3903"/><tag k="addr:postcode" v="78723"/></node><node id="-380" lat="30.291505" lon="-97.697242" changeset="false"><tag k="addr:street" v="Vaughan Street"/><tag k="addr:housenumber" v="3907"/><tag k="addr:postcode" v="78723"/></node><node id="-381" lat="30.291992" lon="-97.69645" changeset="false"><tag k="addr:street" v="Briones Street"/><tag k="addr:housenumber" v="3921"/><tag k="addr:postcode" v="78723"/></node><node id="-382" lat="30.300667" lon="-97.701861" changeset="false"><tag k="addr:street" v="Ruiz Street"/><tag k="addr:housenumber" v="4713"/><tag k="addr:postcode" v="78723"/></node><node id="-383" lat="30.300746" lon="-97.70186" changeset="false"><tag k="addr:street" v="Ruiz Street"/><tag k="addr:housenumber" v="4715"/><tag k="addr:postcode" v="78723"/></node><node id="-384" lat="30.300843" lon="-97.701862" changeset="false"><tag k="addr:street" v="Ruiz Street"/><tag k="addr:housenumber" v="4717"/><tag k="addr:postcode" v="78723"/></node><node id="-385" lat="30.300282" lon="-97.701533" changeset="false"><tag k="addr:street" v="Page Street"/><tag k="addr:housenumber" v="4704"/><tag k="addr:postcode" v="78723"/></node><node id="-386" lat="30.300599" lon="-97.701532" changeset="false"><tag k="addr:street" v="Page Street"/><tag k="addr:housenumber" v="4712"/><tag k="addr:postcode" v="78723"/></node><node id="-387" lat="30.300568" lon="-97.700694" changeset="false"><tag k="addr:street" v="Berkman Drive"/><tag k="addr:housenumber" v="4712"/><tag k="addr:postcode" v="78723"/></node><node id="-388" lat="30.300815" lon="-97.700886" changeset="false"><tag k="addr:street" v="Berkman Drive"/><tag k="addr:housenumber" v="4722"/><tag k="addr:postcode" v="78723"/></node><node id="-389" lat="30.300564" lon="-97.70105" changeset="false"><tag k="addr:street" v="Page Street"/><tag k="addr:housenumber" v="4713"/><tag k="addr:postcode" v="78723"/></node><node id="-390" lat="30.300801" lon="-97.701119" changeset="false"><tag k="addr:street" v="Page Street"/><tag k="addr:housenumber" v="4721"/><tag k="addr:postcode" v="78723"/></node><node id="-391" lat="30.296859" lon="-97.698607" changeset="false"><tag k="addr:street" v="Simond Avenue"/><tag k="addr:housenumber" v="2222"/><tag k="addr:postcode" v="78723"/></node><node id="-392" lat="30.295128" lon="-97.699431" changeset="false"><tag k="addr:street" v="Nitschke Street"/><tag k="addr:housenumber" v="4312"/><tag k="addr:postcode" v="78723"/></node><node id="-393" lat="30.296274" lon="-97.699116" changeset="false"><tag k="addr:street" v="Simond Avenue"/><tag k="addr:housenumber" v="2201"/><tag k="addr:postcode" v="78723"/></node><node id="-394" lat="30.296282" lon="-97.698304" changeset="false"><tag k="addr:street" v="Simond Avenue"/><tag k="addr:housenumber" v="2301"/><tag k="addr:postcode" v="78723"/></node><node id="-395" lat="30.295506" lon="-97.699054" changeset="false"><tag k="addr:street" v="Camacho Street"/><tag k="addr:housenumber" v="4601"/><tag k="addr:postcode" v="78723"/></node><node id="-396" lat="30.295872" lon="-97.699493" changeset="false"><tag k="addr:street" v="Camacho Street"/><tag k="addr:housenumber" v="4512"/><tag k="addr:postcode" v="78723"/></node><node id="-397" lat="30.295907" lon="-97.6989" changeset="false"><tag k="addr:street" v="Camacho Street"/><tag k="addr:housenumber" v="4604"/><tag k="addr:postcode" v="78723"/></node><node id="-398" lat="30.295912" lon="-97.698762" changeset="false"><tag k="addr:street" v="Camacho Street"/><tag k="addr:housenumber" v="4608"/><tag k="addr:postcode" v="78723"/></node><node id="-399" lat="30.295915" lon="-97.698619" changeset="false"><tag k="addr:street" v="Camacho Street"/><tag k="addr:housenumber" v="4612"/><tag k="addr:postcode" v="78723"/></node><node id="-400" lat="30.294526" lon="-97.698899" changeset="false"><tag k="addr:street" v="Zach Scott Street"/><tag k="addr:housenumber" v="2504"/><tag k="addr:postcode" v="78723"/></node><node id="-401" lat="30.29453" lon="-97.698699" changeset="false"><tag k="addr:street" v="Zach Scott Street"/><tag k="addr:housenumber" v="2508"/><tag k="addr:postcode" v="78723"/></node><node id="-402" lat="30.29471" lon="-97.698985" changeset="false"><tag k="addr:street" v="Nitschke Street"/><tag k="addr:housenumber" v="4313"/><tag k="addr:postcode" v="78723"/></node><node id="-403" lat="30.298999" lon="-97.698351" changeset="false"><tag k="addr:street" v="Robert Browning Street"/><tag k="addr:housenumber" v="2400"/><tag k="addr:postcode" v="78723"/></node><node id="-404" lat="30.298988" lon="-97.697895" changeset="false"><tag k="addr:street" v="Robert Browning Street"/><tag k="addr:housenumber" v="2412"/><tag k="addr:postcode" v="78723"/></node><node id="-405" lat="30.299422" lon="-97.697973" changeset="false"><tag k="addr:street" v="Vaughan Street"/><tag k="addr:housenumber" v="4718"/><tag k="addr:postcode" v="78723"/></node><node id="-406" lat="30.299691" lon="-97.697987" changeset="false"><tag k="addr:street" v="Vaughan Street"/><tag k="addr:housenumber" v="4726"/><tag k="addr:postcode" v="78723"/></node><node id="-407" lat="30.299846" lon="-97.698259" changeset="false"><tag k="addr:street" v="Philomena Street"/><tag k="addr:housenumber" v="2405"/><tag k="addr:postcode" v="78723"/></node><node id="-408" lat="30.298865" lon="-97.699889" changeset="false"><tag k="addr:street" v="Robert Browning Street"/><tag k="addr:housenumber" v="2204"/><tag k="addr:postcode" v="78723"/></node><node id="-409" lat="30.297599" lon="-97.699935" changeset="false"><tag k="addr:street" v="Berkman Drive"/><tag k="addr:housenumber" v="4505"/><tag k="addr:postcode" v="78723"/></node><node id="-410" lat="30.298162" lon="-97.699935" changeset="false"><tag k="addr:street" v="Berkman Drive"/><tag k="addr:housenumber" v="4533"/><tag k="addr:postcode" v="78723"/></node><node id="-411" lat="30.298128" lon="-97.69803" changeset="false"><tag k="addr:street" v="Vaughan Street"/><tag k="addr:housenumber" v="4622"/><tag k="addr:postcode" v="78723"/></node><node id="-412" lat="30.298767" lon="-97.701324" changeset="false"><tag k="addr:street" v="Robert Browning Street"/><tag k="addr:housenumber" v="2112 1/2"/><tag k="addr:postcode" v="78723"/></node><node id="-413" lat="30.297873" lon="-97.702151" changeset="false"><tag k="addr:street" v="Ruiz Street"/><tag k="addr:housenumber" v="4516"/><tag k="addr:postcode" v="78723"/></node><node id="-414" lat="30.298183" lon="-97.702158" changeset="false"><tag k="addr:street" v="Ruiz Street"/><tag k="addr:housenumber" v="4528"/><tag k="addr:postcode" v="78723"/></node><node id="-415" lat="30.29798" lon="-97.701677" changeset="false"><tag k="addr:street" v="Ruiz Street"/><tag k="addr:housenumber" v="4521"/><tag k="addr:postcode" v="78723"/></node><node id="-416" lat="30.297436" lon="-97.702663" changeset="false"><tag k="addr:street" v="Mattie Street"/><tag k="addr:housenumber" v="4501"/><tag k="addr:postcode" v="78723"/></node><node id="-417" lat="30.297506" lon="-97.702664" changeset="false"><tag k="addr:street" v="Mattie Street"/><tag k="addr:housenumber" v="4505"/><tag k="addr:postcode" v="78723"/></node><node id="-418" lat="30.298486" lon="-97.702706" changeset="false"><tag k="addr:street" v="Robert Browning Street"/><tag k="addr:housenumber" v="2001"/><tag k="addr:postcode" v="78723"/></node><node id="-419" lat="30.29781" lon="-97.701054" changeset="false"><tag k="addr:street" v="Page Street"/><tag k="addr:housenumber" v="4513"/><tag k="addr:postcode" v="78723"/></node><node id="-420" lat="30.298107" lon="-97.701063" changeset="false"><tag k="addr:street" v="Page Street"/><tag k="addr:housenumber" v="4525"/><tag k="addr:postcode" v="78723"/></node><node id="-421" lat="30.297743" lon="-97.700533" changeset="false"><tag k="addr:street" v="Berkman Drive"/><tag k="addr:housenumber" v="4512"/><tag k="addr:postcode" v="78723"/></node><node id="-422" lat="30.298542" lon="-97.70069" changeset="false"><tag k="addr:street" v="Robert Browning Street"/><tag k="addr:housenumber" v="2137"/><tag k="addr:postcode" v="78723"/></node><node id="-423" lat="30.29854" lon="-97.700614" changeset="false"><tag k="addr:street" v="Robert Browning Street"/><tag k="addr:housenumber" v="2141"/><tag k="addr:postcode" v="78723"/></node><node id="-424" lat="30.298798" lon="-97.701898" changeset="false"><tag k="addr:street" v="Robert Browning Street"/><tag k="addr:housenumber" v="2032"/><tag k="addr:postcode" v="78723"/></node><node id="-425" lat="30.298809" lon="-97.701538" changeset="false"><tag k="addr:street" v="Robert Browning Street"/><tag k="addr:housenumber" v="2104"/><tag k="addr:postcode" v="78723"/></node><node id="-426" lat="30.298805" lon="-97.70111" changeset="false"><tag k="addr:street" v="Robert Browning Street"/><tag k="addr:housenumber" v="2116"/><tag k="addr:postcode" v="78723"/></node><node id="-427" lat="30.299112" lon="-97.701743" changeset="false"><tag k="addr:street" v="Ruiz Street"/><tag k="addr:housenumber" v="4613"/><tag k="addr:postcode" v="78723"/></node><node id="-428" lat="30.299581" lon="-97.701574" changeset="false"><tag k="addr:street" v="Page Street"/><tag k="addr:housenumber" v="4640"/><tag k="addr:postcode" v="78723"/></node><node id="-429" lat="30.299855" lon="-97.70091" changeset="false"><tag k="addr:street" v="Philomena Street"/><tag k="addr:housenumber" v="2129"/><tag k="addr:postcode" v="78723"/></node><node id="-430" lat="30.299815" lon="-97.702419" changeset="false"><tag k="addr:street" v="Philomena Street"/><tag k="addr:housenumber" v="2017"/><tag k="addr:postcode" v="78723"/></node><node id="-431" lat="30.299821" lon="-97.702184" changeset="false"><tag k="addr:street" v="Philomena Street"/><tag k="addr:housenumber" v="2029"/><tag k="addr:postcode" v="78723"/></node><node id="-432" lat="30.299497" lon="-97.702722" changeset="false"><tag k="addr:street" v="Mattie Street"/><tag k="addr:housenumber" v="4641"/><tag k="addr:postcode" v="78723"/></node><node id="-433" lat="30.299514" lon="-97.701117" changeset="false"><tag k="addr:street" v="Page Street"/><tag k="addr:housenumber" v="4633"/><tag k="addr:postcode" v="78723"/></node><node id="-434" lat="30.299113" lon="-97.70058" changeset="false"><tag k="addr:street" v="Berkman Drive"/><tag k="addr:housenumber" v="4612"/><tag k="addr:postcode" v="78723"/></node><node id="-435" lat="30.299277" lon="-97.700583" changeset="false"><tag k="addr:street" v="Berkman Drive"/><tag k="addr:housenumber" v="4620"/><tag k="addr:postcode" v="78723"/></node><node id="-436" lat="30.290625" lon="-97.695668" changeset="false"><tag k="addr:street" v="Manor Road"/><tag k="addr:housenumber" v="3724"/><tag k="addr:postcode" v="78723"/></node><node id="-437" lat="30.301785" lon="-97.698664" changeset="false"><tag k="addr:street" v="East 51st Street"/><tag k="addr:housenumber" v="1801"/><tag k="addr:postcode" v="78723"/></node><node id="-438" lat="30.287997" lon="-97.703336" changeset="false"><tag k="addr:street" v="Anchor Lane"/><tag k="addr:housenumber" v="2027"/><tag k="addr:postcode" v="78723"/></node><node id="-439" lat="30.30101" lon="-97.696117" changeset="false"><tag k="addr:street" v="East 51st Street"/><tag k="addr:housenumber" v="1901"/><tag k="addr:postcode" v="78723"/></node><node id="-440" lat="30.297758" lon="-97.706881" changeset="false"><tag k="addr:street" v="Mueller Boulevard"/><tag k="addr:housenumber" v="4551"/><tag k="addr:postcode" v="78723"/></node><node id="-441" lat="30.288688" lon="-97.703257" changeset="false"><tag k="addr:street" v="Anchor Lane"/><tag k="addr:housenumber" v="2020"/><tag k="addr:postcode" v="78723"/></node><node id="-442" lat="30.300926" lon="-97.708127" changeset="false"><tag k="addr:street" v="James Wheat Street"/><tag k="addr:housenumber" v="4624 1/2"/><tag k="addr:postcode" v="78723"/></node><node id="-443" lat="30.29425" lon="-97.689761" changeset="false"><tag k="addr:street" v="Manor Road"/><tag k="addr:housenumber" v="4670"/><tag k="addr:postcode" v="78723"/></node><node id="-444" lat="30.303261" lon="-97.709159" changeset="false"><tag k="addr:street" v="Philomena Street"/><tag k="addr:housenumber" v="1301 1/2"/><tag k="addr:postcode" v="78723"/></node><node id="-445" lat="30.295184" lon="-97.700452" changeset="false"><tag k="addr:street" v="Berkman Drive"/><tag k="addr:housenumber" v="4240"/><tag k="addr:postcode" v="78723"/></node><node id="-446" lat="30.301107" lon="-97.701858" changeset="false"><tag k="addr:street" v="Ruiz Street"/><tag k="addr:housenumber" v="4723"/><tag k="addr:postcode" v="78723"/></node><node id="-447" lat="30.300198" lon="-97.700999" changeset="false"><tag k="addr:street" v="Philomena Street"/><tag k="addr:housenumber" v="2118"/><tag k="addr:postcode" v="78723"/></node><node id="-448" lat="30.301077" lon="-97.701085" changeset="false"><tag k="addr:street" v="Garcia Street"/><tag k="addr:housenumber" v="2117"/><tag k="addr:postcode" v="78723"/></node><node id="-449" lat="30.30057" lon="-97.700639" changeset="false"><tag k="addr:street" v="Berkman Drive"/><tag k="addr:housenumber" v="4710"/><tag k="addr:postcode" v="78723"/></node><node id="-450" lat="30.302239" lon="-97.699629" changeset="false"><tag k="addr:street" v="Berkman Drive"/><tag k="addr:housenumber" v="4901 1/2"/><tag k="addr:postcode" v="78723"/></node><node id="-451" lat="30.291045" lon="-97.695647" changeset="false"><tag k="addr:street" v="Tom Miller Street"/><tag k="addr:housenumber" v="3200"/><tag k="addr:postcode" v="78723"/></node><node id="-452" lat="30.293092" lon="-97.699537" changeset="false"><tag k="addr:street" v="Berkman Drive"/><tag k="addr:housenumber" v="4021"/><tag k="addr:postcode" v="78723"/></node><node id="-453" lat="30.293325" lon="-97.699614" changeset="false"><tag k="addr:street" v="Berkman Drive"/><tag k="addr:housenumber" v="4101"/><tag k="addr:postcode" v="78723"/></node><node id="-454" lat="30.293812" lon="-97.699727" changeset="false"><tag k="addr:street" v="Berkman Drive"/><tag k="addr:housenumber" v="4115"/><tag k="addr:postcode" v="78723"/></node><node id="-455" lat="30.293955" lon="-97.699387" changeset="false"><tag k="addr:street" v="Nitschke Street"/><tag k="addr:housenumber" v="4206"/><tag k="addr:postcode" v="78723"/></node><node id="-456" lat="30.293903" lon="-97.697779" changeset="false"><tag k="addr:street" v="Vaughan Street"/><tag k="addr:housenumber" v="4204"/><tag k="addr:postcode" v="78723"/></node><node id="-457" lat="30.294108" lon="-97.697782" changeset="false"><tag k="addr:street" v="Vaughan Street"/><tag k="addr:housenumber" v="4212"/><tag k="addr:postcode" v="78723"/></node><node id="-458" lat="30.293458" lon="-97.698405" changeset="false"><tag k="addr:street" v="Moreno Street"/><tag k="addr:housenumber" v="2501"/><tag k="addr:postcode" v="78723"/></node><node id="-459" lat="30.29346" lon="-97.698171" changeset="false"><tag k="addr:street" v="Moreno Street"/><tag k="addr:housenumber" v="2509"/><tag k="addr:postcode" v="78723"/></node><node id="-460" lat="30.293143" lon="-97.69868" changeset="false"><tag k="addr:street" v="Sorin Street"/><tag k="addr:housenumber" v="2404"/><tag k="addr:postcode" v="78723"/></node><node id="-461" lat="30.293145" lon="-97.698537" changeset="false"><tag k="addr:street" v="Sorin Street"/><tag k="addr:housenumber" v="2408"/><tag k="addr:postcode" v="78723"/></node><node id="-462" lat="30.29071" lon="-97.696458" changeset="false"><tag k="addr:street" v="Tom Miller Street"/><tag k="addr:housenumber" v="3100"/><tag k="addr:postcode" v="78723"/></node><node id="-463" lat="30.291445" lon="-97.697238" changeset="false"><tag k="addr:street" v="Vaughan Street"/><tag k="addr:housenumber" v="3905"/><tag k="addr:postcode" v="78723"/></node><node id="-464" lat="30.291638" lon="-97.69725" changeset="false"><tag k="addr:street" v="Vaughan Street"/><tag k="addr:housenumber" v="3911"/><tag k="addr:postcode" v="78723"/></node><node id="-465" lat="30.291968" lon="-97.697257" changeset="false"><tag k="addr:street" v="Vaughan Street"/><tag k="addr:housenumber" v="3921"/><tag k="addr:postcode" v="78723"/></node><node id="-466" lat="30.291789" lon="-97.69645" changeset="false"><tag k="addr:street" v="Briones Street"/><tag k="addr:housenumber" v="3913"/><tag k="addr:postcode" v="78723"/></node><node id="-467" lat="30.305144" lon="-97.706252" changeset="false"><tag k="addr:street" v="Barbara Jordan Boulevard"/><tag k="addr:housenumber" v="1315"/><tag k="addr:postcode" v="78723"/></node><node id="-468" lat="30.29385" lon="-97.699374" changeset="false"><tag k="addr:street" v="Nitschke Street"/><tag k="addr:housenumber" v="4204"/><tag k="addr:postcode" v="78723"/></node><node id="-469" lat="30.291252" lon="-97.706875" changeset="false"><tag k="addr:street" v="Tom Miller Street"/><tag k="addr:housenumber" v="2301 1/2"/><tag k="addr:postcode" v="78723"/></node><node id="-470" lat="30.296851" lon="-97.699166" changeset="false"><tag k="addr:street" v="Simond Avenue"/><tag k="addr:housenumber" v="2200"/><tag k="addr:postcode" v="78723"/></node><node id="-471" lat="30.294902" lon="-97.699819" changeset="false"><tag k="addr:street" v="Berkman Drive"/><tag k="addr:housenumber" v="4213"/><tag k="addr:postcode" v="78723"/></node><node id="-472" lat="30.295149" lon="-97.699819" changeset="false"><tag k="addr:street" v="Berkman Drive"/><tag k="addr:housenumber" v="4219"/><tag k="addr:postcode" v="78723"/></node><node id="-473" lat="30.29472" lon="-97.699408" changeset="false"><tag k="addr:street" v="Nitschke Street"/><tag k="addr:housenumber" v="4304"/><tag k="addr:postcode" v="78723"/></node><node id="-474" lat="30.296279" lon="-97.699416" changeset="false"><tag k="addr:street" v="Simond Avenue"/><tag k="addr:housenumber" v="2113"/><tag k="addr:postcode" v="78723"/></node><node id="-475" lat="30.29479" lon="-97.69781" changeset="false"><tag k="addr:street" v="Vaughan Street"/><tag k="addr:housenumber" v="4308"/><tag k="addr:postcode" v="78723"/></node><node id="-476" lat="30.295199" lon="-97.697834" changeset="false"><tag k="addr:street" v="Vaughan Street"/><tag k="addr:housenumber" v="4316"/><tag k="addr:postcode" v="78723"/></node><node id="-477" lat="30.295922" lon="-97.698345" changeset="false"><tag k="addr:street" v="Camacho Street"/><tag k="addr:housenumber" v="4700"/><tag k="addr:postcode" v="78723"/></node><node id="-478" lat="30.29471" lon="-97.698931" changeset="false"><tag k="addr:street" v="Nitschke Street"/><tag k="addr:housenumber" v="4315"/><tag k="addr:postcode" v="78723"/></node><node id="-479" lat="30.294565" lon="-97.698038" changeset="false"><tag k="addr:street" v="Zach Scott Street"/><tag k="addr:housenumber" v="2606"/><tag k="addr:postcode" v="78723"/></node><node id="-480" lat="30.298391" lon="-97.698187" changeset="false"><tag k="addr:street" v="Robert Browning Street"/><tag k="addr:housenumber" v="2405"/><tag k="addr:postcode" v="78723"/></node><node id="-481" lat="30.299291" lon="-97.697973" changeset="false"><tag k="addr:street" v="Vaughan Street"/><tag k="addr:housenumber" v="4714"/><tag k="addr:postcode" v="78723"/></node><node id="-482" lat="30.299356" lon="-97.697975" changeset="false"><tag k="addr:street" v="Vaughan Street"/><tag k="addr:housenumber" v="4716"/><tag k="addr:postcode" v="78723"/></node><node id="-483" lat="30.299565" lon="-97.697971" changeset="false"><tag k="addr:street" v="Vaughan Street"/><tag k="addr:housenumber" v="4722"/><tag k="addr:postcode" v="78723"/></node><node id="-484" lat="30.299838" lon="-97.698878" changeset="false"><tag k="addr:street" v="Philomena Street"/><tag k="addr:housenumber" v="2309"/><tag k="addr:postcode" v="78723"/></node><node id="-485" lat="30.29983" lon="-97.6987" changeset="false"><tag k="addr:street" v="Philomena Street"/><tag k="addr:housenumber" v="2313"/><tag k="addr:postcode" v="78723"/></node><node id="-486" lat="30.298481" lon="-97.699694" changeset="false"><tag k="addr:street" v="Robert Browning Street"/><tag k="addr:housenumber" v="2209"/><tag k="addr:postcode" v="78723"/></node><node id="-487" lat="30.297852" lon="-97.698098" changeset="false"><tag k="addr:street" v="Vaughan Street"/><tag k="addr:housenumber" v="4618"/><tag k="addr:postcode" v="78723"/></node><node id="-488" lat="30.298284" lon="-97.702164" changeset="false"><tag k="addr:street" v="Ruiz Street"/><tag k="addr:housenumber" v="4532"/><tag k="addr:postcode" v="78723"/></node><node id="-489" lat="30.297726" lon="-97.70167" changeset="false"><tag k="addr:street" v="Ruiz Street"/><tag k="addr:housenumber" v="4517"/><tag k="addr:postcode" v="78723"/></node><node id="-490" lat="30.297571" lon="-97.702666" changeset="false"><tag k="addr:street" v="Mattie Street"/><tag k="addr:housenumber" v="4509"/><tag k="addr:postcode" v="78723"/></node><node id="-491" lat="30.297695" lon="-97.702666" changeset="false"><tag k="addr:street" v="Mattie Street"/><tag k="addr:housenumber" v="4517"/><tag k="addr:postcode" v="78723"/></node><node id="-492" lat="30.29797" lon="-97.702671" changeset="false"><tag k="addr:street" v="Mattie Street"/><tag k="addr:housenumber" v="4533"/><tag k="addr:postcode" v="78723"/></node><node id="-493" lat="30.298488" lon="-97.702381" changeset="false"><tag k="addr:street" v="Robert Browning Street"/><tag k="addr:housenumber" v="2017"/><tag k="addr:postcode" v="78723"/></node><node id="-494" lat="30.297737" lon="-97.701418" changeset="false"><tag k="addr:street" v="Page Street"/><tag k="addr:housenumber" v="4512"/><tag k="addr:postcode" v="78723"/></node><node id="-495" lat="30.298248" lon="-97.701336" changeset="false"><tag k="addr:street" v="Page Street"/><tag k="addr:housenumber" v="4540"/><tag k="addr:postcode" v="78723"/></node><node id="-496" lat="30.297671" lon="-97.700532" changeset="false"><tag k="addr:street" v="Berkman Drive"/><tag k="addr:housenumber" v="4508"/><tag k="addr:postcode" v="78723"/></node><node id="-497" lat="30.298527" lon="-97.701101" changeset="false"><tag k="addr:street" v="Robert Browning Street"/><tag k="addr:housenumber" v="2117"/><tag k="addr:postcode" v="78723"/></node><node id="-498" lat="30.298808" lon="-97.700875" changeset="false"><tag k="addr:street" v="Robert Browning Street"/><tag k="addr:housenumber" v="2128"/><tag k="addr:postcode" v="78723"/></node><node id="-499" lat="30.298772" lon="-97.70248" changeset="false"><tag k="addr:street" v="Robert Browning Street"/><tag k="addr:housenumber" v="2012"/><tag k="addr:postcode" v="78723"/></node><node id="-500" lat="30.299233" lon="-97.702185" changeset="false"><tag k="addr:street" v="Ruiz Street"/><tag k="addr:housenumber" v="4620"/><tag k="addr:postcode" v="78723"/></node><node id="-501" lat="30.299408" lon="-97.702195" changeset="false"><tag k="addr:street" v="Ruiz Street"/><tag k="addr:housenumber" v="4628"/><tag k="addr:postcode" v="78723"/></node><node id="-502" lat="30.29908" lon="-97.701375" changeset="false"><tag k="addr:street" v="Page Street"/><tag k="addr:housenumber" v="4608"/><tag k="addr:postcode" v="78723"/></node><node id="-503" lat="30.299584" lon="-97.701491" changeset="false"><tag k="addr:street" v="Page Street"/><tag k="addr:housenumber" v="4644"/><tag k="addr:postcode" v="78723"/></node><node id="-504" lat="30.299013" lon="-97.701098" changeset="false"><tag k="addr:street" v="Page Street"/><tag k="addr:housenumber" v="4609"/><tag k="addr:postcode" v="78723"/></node><node id="-505" lat="30.299437" lon="-97.701116" changeset="false"><tag k="addr:street" v="Page Street"/><tag k="addr:housenumber" v="4629"/><tag k="addr:postcode" v="78723"/></node><node id="-506" lat="30.299028" lon="-97.700576" changeset="false"><tag k="addr:street" v="Berkman Drive"/><tag k="addr:housenumber" v="4608"/><tag k="addr:postcode" v="78723"/></node><node id="-507" lat="30.299833" lon="-97.701927" changeset="false"><tag k="addr:street" v="Philomena Street"/><tag k="addr:housenumber" v="2033"/><tag k="addr:postcode" v="78723"/></node><node id="-508" lat="30.299839" lon="-97.701749" changeset="false"><tag k="addr:street" v="Philomena Street"/><tag k="addr:housenumber" v="2041"/><tag k="addr:postcode" v="78723"/></node><node id="-509" lat="30.299845" lon="-97.701501" changeset="false"><tag k="addr:street" v="Philomena Street"/><tag k="addr:housenumber" v="2109"/><tag k="addr:postcode" v="78723"/></node><node id="-510" lat="30.299808" lon="-97.702752" changeset="false"><tag k="addr:street" v="Philomena Street"/><tag k="addr:housenumber" v="2001"/><tag k="addr:postcode" v="78723"/></node><node id="-511" lat="30.299817" lon="-97.702336" changeset="false"><tag k="addr:street" v="Philomena Street"/><tag k="addr:housenumber" v="2021"/><tag k="addr:postcode" v="78723"/></node><node id="-512" lat="30.299167" lon="-97.702719" changeset="false"><tag k="addr:street" v="Mattie Street"/><tag k="addr:housenumber" v="4621"/><tag k="addr:postcode" v="78723"/></node><node id="-513" lat="30.292208" lon="-97.696564" changeset="false"><tag k="addr:street" v="Briones Street"/><tag k="addr:housenumber" v="4001"/><tag k="addr:postcode" v="78723"/></node><node id="-514" lat="30.292206" lon="-97.696501" changeset="false"><tag k="addr:street" v="Briones Street"/><tag k="addr:housenumber" v="4003"/><tag k="addr:postcode" v="78723"/></node><node id="-515" lat="30.292711" lon="-97.696562" changeset="false"><tag k="addr:street" v="Sorin Street"/><tag k="addr:housenumber" v="2701"/><tag k="addr:postcode" v="78723"/></node><node id="-516" lat="30.293883" lon="-97.697376" changeset="false"><tag k="addr:street" v="Moreno Street"/><tag k="addr:housenumber" v="2600"/><tag k="addr:postcode" v="78723"/></node><node id="-517" lat="30.293876" lon="-97.697127" changeset="false"><tag k="addr:street" v="Moreno Street"/><tag k="addr:housenumber" v="2608"/><tag k="addr:postcode" v="78723"/></node><node id="-518" lat="30.293886" lon="-97.696746" changeset="false"><tag k="addr:street" v="Moreno Street"/><tag k="addr:housenumber" v="2704"/><tag k="addr:postcode" v="78723"/></node><node id="-519" lat="30.294183" lon="-97.696978" changeset="false"><tag k="addr:street" v="Zach Scott Street"/><tag k="addr:housenumber" v="2711"/><tag k="addr:postcode" v="78723"/></node><node id="-520" lat="30.294289" lon="-97.696462" changeset="false"><tag k="addr:street" v="Zach Scott Street"/><tag k="addr:housenumber" v="2819"/><tag k="addr:postcode" v="78723"/></node><node id="-521" lat="30.292206" lon="-97.696028" changeset="false"><tag k="addr:street" v="Teaff Street"/><tag k="addr:housenumber" v="4002"/><tag k="addr:postcode" v="78723"/></node><node id="-522" lat="30.292455" lon="-97.695975" changeset="false"><tag k="addr:street" v="Teaff Street"/><tag k="addr:housenumber" v="4014"/><tag k="addr:postcode" v="78723"/></node><node id="-523" lat="30.292281" lon="-97.695352" changeset="false"><tag k="addr:street" v="Tilley Street"/><tag k="addr:housenumber" v="4004"/><tag k="addr:postcode" v="78723"/></node><node id="-524" lat="30.292788" lon="-97.695574" changeset="false"><tag k="addr:street" v="Sorin Street"/><tag k="addr:housenumber" v="2805"/><tag k="addr:postcode" v="78723"/></node><node id="-525" lat="30.294063" lon="-97.695871" changeset="false"><tag k="addr:street" v="Zach Scott Street"/><tag k="addr:housenumber" v="2911"/><tag k="addr:postcode" v="78723"/></node><node id="-526" lat="30.294218" lon="-97.69588" changeset="false"><tag k="addr:street" v="Zach Scott Street"/><tag k="addr:housenumber" v="2915"/><tag k="addr:postcode" v="78723"/></node><node id="-527" lat="30.294225" lon="-97.69566" changeset="false"><tag k="addr:street" v="Zach Scott Street"/><tag k="addr:housenumber" v="2921"/><tag k="addr:postcode" v="78723"/></node><node id="-528" lat="30.298085" lon="-97.702159" changeset="false"><tag k="addr:street" v="Ruiz Street"/><tag k="addr:housenumber" v="4524"/><tag k="addr:postcode" v="78723"/></node><node id="-529" lat="30.294836" lon="-97.699819" changeset="false"><tag k="addr:street" v="Berkman Drive"/><tag k="addr:housenumber" v="4211"/><tag k="addr:postcode" v="78723"/></node><node id="-530" lat="30.297726" lon="-97.701753" changeset="false"><tag k="addr:street" v="Ruiz Street"/><tag k="addr:housenumber" v="4513"/><tag k="addr:postcode" v="78723"/></node><node id="-531" lat="30.297754" lon="-97.702666" changeset="false"><tag k="addr:street" v="Mattie Street"/><tag k="addr:housenumber" v="4521"/><tag k="addr:postcode" v="78723"/></node><node id="-532" lat="30.297823" lon="-97.702663" changeset="false"><tag k="addr:street" v="Mattie Street"/><tag k="addr:housenumber" v="4525"/><tag k="addr:postcode" v="78723"/></node><node id="-533" lat="30.298502" lon="-97.702141" changeset="false"><tag k="addr:street" v="Robert Browning Street"/><tag k="addr:housenumber" v="2029"/><tag k="addr:postcode" v="78723"/></node><node id="-534" lat="30.29774" lon="-97.701327" changeset="false"><tag k="addr:street" v="Page Street"/><tag k="addr:housenumber" v="4508"/><tag k="addr:postcode" v="78723"/></node><node id="-535" lat="30.297729" lon="-97.701509" changeset="false"><tag k="addr:street" v="Page Street"/><tag k="addr:housenumber" v="4516"/><tag k="addr:postcode" v="78723"/></node><node id="-536" lat="30.297985" lon="-97.701335" changeset="false"><tag k="addr:street" v="Page Street"/><tag k="addr:housenumber" v="4536"/><tag k="addr:postcode" v="78723"/></node><node id="-537" lat="30.298208" lon="-97.701064" changeset="false"><tag k="addr:street" v="Page Street"/><tag k="addr:housenumber" v="4529"/><tag k="addr:postcode" v="78723"/></node><node id="-538" lat="30.298325" lon="-97.700548" changeset="false"><tag k="addr:street" v="Berkman Drive"/><tag k="addr:housenumber" v="4540"/><tag k="addr:postcode" v="78723"/></node><node id="-539" lat="30.29877" lon="-97.702555" changeset="false"><tag k="addr:street" v="Robert Browning Street"/><tag k="addr:housenumber" v="2008"/><tag k="addr:postcode" v="78723"/></node><node id="-540" lat="30.298773" lon="-97.702387" changeset="false"><tag k="addr:street" v="Robert Browning Street"/><tag k="addr:housenumber" v="2016"/><tag k="addr:postcode" v="78723"/></node><node id="-541" lat="30.298772" lon="-97.7023" changeset="false"><tag k="addr:street" v="Robert Browning Street"/><tag k="addr:housenumber" v="2020"/><tag k="addr:postcode" v="78723"/></node><node id="-542" lat="30.298774" lon="-97.702148" changeset="false"><tag k="addr:street" v="Robert Browning Street"/><tag k="addr:housenumber" v="2028"/><tag k="addr:postcode" v="78723"/></node><node id="-543" lat="30.29915" lon="-97.702178" changeset="false"><tag k="addr:street" v="Ruiz Street"/><tag k="addr:housenumber" v="4616"/><tag k="addr:postcode" v="78723"/></node><node id="-544" lat="30.299159" lon="-97.701379" changeset="false"><tag k="addr:street" v="Page Street"/><tag k="addr:housenumber" v="4616"/><tag k="addr:postcode" v="78723"/></node><node id="-545" lat="30.299576" lon="-97.701659" changeset="false"><tag k="addr:street" v="Page Street"/><tag k="addr:housenumber" v="4636"/><tag k="addr:postcode" v="78723"/></node><node id="-546" lat="30.299582" lon="-97.701397" changeset="false"><tag k="addr:street" v="Page Street"/><tag k="addr:housenumber" v="4648"/><tag k="addr:postcode" v="78723"/></node><node id="-547" lat="30.299809" lon="-97.702672" changeset="false"><tag k="addr:street" v="Philomena Street"/><tag k="addr:housenumber" v="2005"/><tag k="addr:postcode" v="78723"/></node><node id="-548" lat="30.298963" lon="-97.702712" changeset="false"><tag k="addr:street" v="Mattie Street"/><tag k="addr:housenumber" v="4609"/><tag k="addr:postcode" v="78723"/></node><node id="-549" lat="30.293143" lon="-97.696292" changeset="false"><tag k="addr:street" v="Sorin Street"/><tag k="addr:housenumber" v="2708"/><tag k="addr:postcode" v="78723"/></node><node id="-550" lat="30.294516" lon="-97.699402" changeset="false"><tag k="addr:street" v="Nitschke Street"/><tag k="addr:housenumber" v="4300"/><tag k="addr:postcode" v="78723"/></node><node id="-551" lat="30.295433" lon="-97.699432" changeset="false"><tag k="addr:street" v="Nitschke Street"/><tag k="addr:housenumber" v="4318"/><tag k="addr:postcode" v="78723"/></node><node id="-552" lat="30.295993" lon="-97.697875" changeset="false"><tag k="addr:street" v="Vaughan Street"/><tag k="addr:housenumber" v="4400"/><tag k="addr:postcode" v="78723"/></node><node id="-553" lat="30.296269" lon="-97.697886" changeset="false"><tag k="addr:street" v="Vaughan Street"/><tag k="addr:housenumber" v="4412"/><tag k="addr:postcode" v="78723"/></node><node id="-554" lat="30.296289" lon="-97.698849" changeset="false"><tag k="addr:street" v="Simond Avenue"/><tag k="addr:housenumber" v="2213"/><tag k="addr:postcode" v="78723"/></node><node id="-555" lat="30.296275" lon="-97.698565" changeset="false"><tag k="addr:street" v="Simond Avenue"/><tag k="addr:housenumber" v="2223"/><tag k="addr:postcode" v="78723"/></node><node id="-556" lat="30.29489" lon="-97.697824" changeset="false"><tag k="addr:street" v="Vaughan Street"/><tag k="addr:housenumber" v="4310"/><tag k="addr:postcode" v="78723"/></node><node id="-557" lat="30.294912" lon="-97.698998" changeset="false"><tag k="addr:street" v="Nitschke Street"/><tag k="addr:housenumber" v="4319"/><tag k="addr:postcode" v="78723"/></node><node id="-558" lat="30.299005" lon="-97.698188" changeset="false"><tag k="addr:street" v="Robert Browning Street"/><tag k="addr:housenumber" v="2404"/><tag k="addr:postcode" v="78723"/></node><node id="-559" lat="30.299003" lon="-97.698053" changeset="false"><tag k="addr:street" v="Robert Browning Street"/><tag k="addr:housenumber" v="2408"/><tag k="addr:postcode" v="78723"/></node><node id="-560" lat="30.299504" lon="-97.697975" changeset="false"><tag k="addr:street" v="Vaughan Street"/><tag k="addr:housenumber" v="4720"/><tag k="addr:postcode" v="78723"/></node><node id="-561" lat="30.299808" lon="-97.700049" changeset="false"><tag k="addr:street" v="Philomena Street"/><tag k="addr:housenumber" v="2201"/><tag k="addr:postcode" v="78723"/></node><node id="-562" lat="30.299827" lon="-97.6998" changeset="false"><tag k="addr:street" v="Philomena Street"/><tag k="addr:housenumber" v="2207"/><tag k="addr:postcode" v="78723"/></node><node id="-563" lat="30.299821" lon="-97.699518" changeset="false"><tag k="addr:street" v="Philomena Street"/><tag k="addr:housenumber" v="2213"/><tag k="addr:postcode" v="78723"/></node><node id="-564" lat="30.299842" lon="-97.698331" changeset="false"><tag k="addr:street" v="Philomena Street"/><tag k="addr:housenumber" v="2403"/><tag k="addr:postcode" v="78723"/></node><node id="-565" lat="30.29985" lon="-97.698063" changeset="false"><tag k="addr:street" v="Philomena Street"/><tag k="addr:housenumber" v="2409"/><tag k="addr:postcode" v="78723"/></node><node id="-566" lat="30.298481" lon="-97.699608" changeset="false"><tag k="addr:street" v="Robert Browning Street"/><tag k="addr:housenumber" v="2211"/><tag k="addr:postcode" v="78723"/></node><node id="-567" lat="30.29849" lon="-97.699535" changeset="false"><tag k="addr:street" v="Robert Browning Street"/><tag k="addr:housenumber" v="2213"/><tag k="addr:postcode" v="78723"/></node><node id="-568" lat="30.297505" lon="-97.699906" changeset="false"><tag k="addr:street" v="Berkman Drive"/><tag k="addr:housenumber" v="4501"/><tag k="addr:postcode" v="78723"/></node><node id="-569" lat="30.297835" lon="-97.699933" changeset="false"><tag k="addr:street" v="Berkman Drive"/><tag k="addr:housenumber" v="4517"/><tag k="addr:postcode" v="78723"/></node><node id="-570" lat="30.299113" lon="-97.699968" changeset="false"><tag k="addr:street" v="Berkman Drive"/><tag k="addr:housenumber" v="4611"/><tag k="addr:postcode" v="78723"/></node><node id="-571" lat="30.299394" lon="-97.699978" changeset="false"><tag k="addr:street" v="Berkman Drive"/><tag k="addr:housenumber" v="4619"/><tag k="addr:postcode" v="78723"/></node><node id="-572" lat="30.299591" lon="-97.699975" changeset="false"><tag k="addr:street" v="Berkman Drive"/><tag k="addr:housenumber" v="4625"/><tag k="addr:postcode" v="78723"/></node><node id="-573" lat="30.297875" lon="-97.697806" changeset="false"><tag k="addr:street" v="Vaughan Street"/><tag k="addr:housenumber" v="4610"/><tag k="addr:postcode" v="78723"/></node><node id="-574" lat="30.296546" lon="-97.68788" changeset="false"><tag k="addr:street" v="Manor Road"/><tag k="addr:housenumber" v="4902"/><tag k="addr:postcode" v="78723"/></node><node id="-575" lat="30.299282" lon="-97.689322" changeset="false"><tag k="addr:street" v="East 51st Street"/><tag k="addr:housenumber" v="2403"/><tag k="addr:postcode" v="78723"/></node><node id="-576" lat="30.291571" lon="-97.699889" changeset="false"><tag k="addr:street" v="Threadgill Street"/><tag k="addr:housenumber" v="3921"/><tag k="addr:postcode" v="78723"/></node><node id="-577" lat="30.305211" lon="-97.704803" changeset="false"><tag k="addr:street" v="Barbara Jordan Boulevard"/><tag k="addr:housenumber" v="1400"/><tag k="addr:postcode" v="78723"/></node><node id="-578" lat="30.297856" lon="-97.707302" changeset="false"><tag k="addr:street" v="Aldrich Street"/><tag k="addr:housenumber" v="1721 1/2"/><tag k="addr:postcode" v="78723"/></node><node id="-579" lat="30.292815" lon="-97.699418" changeset="false"><tag k="addr:street" v="Berkman Drive"/><tag k="addr:housenumber" v="4013"/><tag k="addr:postcode" v="78723"/></node><node id="-580" lat="30.293378" lon="-97.699631" changeset="false"><tag k="addr:street" v="Berkman Drive"/><tag k="addr:housenumber" v="4103"/><tag k="addr:postcode" v="78723"/></node><node id="-581" lat="30.293678" lon="-97.699706" changeset="false"><tag k="addr:street" v="Berkman Drive"/><tag k="addr:housenumber" v="4111"/><tag k="addr:postcode" v="78723"/></node><node id="-582" lat="30.293907" lon="-97.699738" changeset="false"><tag k="addr:street" v="Berkman Drive"/><tag k="addr:housenumber" v="4117"/><tag k="addr:postcode" v="78723"/></node><node id="-583" lat="30.293531" lon="-97.699325" changeset="false"><tag k="addr:street" v="Nitschke Street"/><tag k="addr:housenumber" v="4110"/><tag k="addr:postcode" v="78723"/></node><node id="-584" lat="30.293979" lon="-97.698935" changeset="false"><tag k="addr:street" v="Nitschke Street"/><tag k="addr:housenumber" v="4205"/><tag k="addr:postcode" v="78723"/></node><node id="-585" lat="30.293453" lon="-97.698628" changeset="false"><tag k="addr:street" v="Moreno Street"/><tag k="addr:housenumber" v="2409"/><tag k="addr:postcode" v="78723"/></node><node id="-586" lat="30.293467" lon="-97.698039" changeset="false"><tag k="addr:street" v="Moreno Street"/><tag k="addr:housenumber" v="2513"/><tag k="addr:postcode" v="78723"/></node><node id="-587" lat="30.29316" lon="-97.69822" changeset="false"><tag k="addr:street" v="Sorin Street"/><tag k="addr:housenumber" v="2502"/><tag k="addr:postcode" v="78723"/></node><node id="-588" lat="30.293131" lon="-97.697737" changeset="false"><tag k="addr:street" v="Vaughan Street"/><tag k="addr:housenumber" v="4100"/><tag k="addr:postcode" v="78723"/></node><node id="-589" lat="30.293516" lon="-97.69776" changeset="false"><tag k="addr:street" v="Vaughan Street"/><tag k="addr:housenumber" v="4112"/><tag k="addr:postcode" v="78723"/></node><node id="-590" lat="30.292772" lon="-97.697095" changeset="false"><tag k="addr:street" v="Sorin Street"/><tag k="addr:housenumber" v="2609"/><tag k="addr:postcode" v="78723"/></node><node id="-591" lat="30.290558" lon="-97.696982" changeset="false"><tag k="addr:street" v="Tom Miller Street"/><tag k="addr:housenumber" v="3008"/><tag k="addr:postcode" v="78723"/></node><node id="-592" lat="30.291892" lon="-97.696445" changeset="false"><tag k="addr:street" v="Briones Street"/><tag k="addr:housenumber" v="3917"/><tag k="addr:postcode" v="78723"/></node><node id="-593" lat="30.292235" lon="-97.697338" changeset="false"><tag k="addr:street" v="Vaughan Street"/><tag k="addr:housenumber" v="4001"/><tag k="addr:postcode" v="78723"/></node><node id="-594" lat="30.300505" lon="-97.701533" changeset="false"><tag k="addr:street" v="Page Street"/><tag k="addr:housenumber" v="4710"/><tag k="addr:postcode" v="78723"/></node><node id="-595" lat="30.300662" lon="-97.701531" changeset="false"><tag k="addr:street" v="Page Street"/><tag k="addr:housenumber" v="4714"/><tag k="addr:postcode" v="78723"/></node><node id="-596" lat="30.300187" lon="-97.701154" changeset="false"><tag k="addr:street" v="Philomena Street"/><tag k="addr:housenumber" v="2114"/><tag k="addr:postcode" v="78723"/></node><node id="-597" lat="30.301085" lon="-97.701161" changeset="false"><tag k="addr:street" v="Garcia Street"/><tag k="addr:housenumber" v="2115"/><tag k="addr:postcode" v="78723"/></node><node id="-598" lat="30.301078" lon="-97.701021" changeset="false"><tag k="addr:street" v="Garcia Street"/><tag k="addr:housenumber" v="2119"/><tag k="addr:postcode" v="78723"/></node><node id="-599" lat="30.301089" lon="-97.700771" changeset="false"><tag k="addr:street" v="Garcia Street"/><tag k="addr:housenumber" v="2125"/><tag k="addr:postcode" v="78723"/></node><node id="-600" lat="30.301087" lon="-97.700593" changeset="false"><tag k="addr:street" v="Garcia Street"/><tag k="addr:housenumber" v="2129"/><tag k="addr:postcode" v="78723"/></node><node id="-601" lat="30.300821" lon="-97.700705" changeset="false"><tag k="addr:street" v="Berkman Drive"/><tag k="addr:housenumber" v="4726"/><tag k="addr:postcode" v="78723"/></node><node id="-602" lat="30.300809" lon="-97.700645" changeset="false"><tag k="addr:street" v="Berkman Drive"/><tag k="addr:housenumber" v="4728"/><tag k="addr:postcode" v="78723"/></node><node id="-603" lat="30.292229" lon="-97.696815" changeset="false"><tag k="addr:street" v="Briones Street"/><tag k="addr:housenumber" v="4000"/><tag k="addr:postcode" v="78723"/></node><node id="-604" lat="30.2925" lon="-97.697" changeset="false"><tag k="addr:street" v="Briones Street"/><tag k="addr:housenumber" v="4006"/><tag k="addr:postcode" v="78723"/></node><node id="-605" lat="30.292455" lon="-97.696914" changeset="false"><tag k="addr:street" v="Briones Street"/><tag k="addr:housenumber" v="4008"/><tag k="addr:postcode" v="78723"/></node><node id="-606" lat="30.292708" lon="-97.696336" changeset="false"><tag k="addr:street" v="Sorin Street"/><tag k="addr:housenumber" v="2707"/><tag k="addr:postcode" v="78723"/></node><node id="-607" lat="30.293877" lon="-97.697244" changeset="false"><tag k="addr:street" v="Moreno Street"/><tag k="addr:housenumber" v="2604"/><tag k="addr:postcode" v="78723"/></node><node id="-608" lat="30.29384" lon="-97.696748" changeset="false"><tag k="addr:street" v="Moreno Street"/><tag k="addr:housenumber" v="2702"/><tag k="addr:postcode" v="78723"/></node><node id="-609" lat="30.294169" lon="-97.697408" changeset="false"><tag k="addr:street" v="Zach Scott Street"/><tag k="addr:housenumber" v="2701"/><tag k="addr:postcode" v="78723"/></node><node id="-610" lat="30.29114" lon="-97.695181" changeset="false"><tag k="addr:street" v="Tilley Street"/><tag k="addr:housenumber" v="3802"/><tag k="addr:postcode" v="78723"/></node><node id="-611" lat="30.291476" lon="-97.695178" changeset="false"><tag k="addr:street" v="Tilley Street"/><tag k="addr:housenumber" v="3812"/><tag k="addr:postcode" v="78723"/></node><node id="-612" lat="30.291985" lon="-97.695624" changeset="false"><tag k="addr:street" v="Teaff Street"/><tag k="addr:housenumber" v="3909"/><tag k="addr:postcode" v="78723"/></node><node id="-613" lat="30.292297" lon="-97.695262" changeset="false"><tag k="addr:street" v="Tilley Street"/><tag k="addr:housenumber" v="4002"/><tag k="addr:postcode" v="78723"/></node><node id="-614" lat="30.294213" lon="-97.696191" changeset="false"><tag k="addr:street" v="Zach Scott Street"/><tag k="addr:housenumber" v="2905"/><tag k="addr:postcode" v="78723"/></node><node id="-615" lat="30.293915" lon="-97.695488" changeset="false"><tag k="addr:street" v="Moreno Street"/><tag k="addr:housenumber" v="2820"/><tag k="addr:postcode" v="78723"/></node><node id="-616" lat="30.294229" lon="-97.695574" changeset="false"><tag k="addr:street" v="Zach Scott Street"/><tag k="addr:housenumber" v="2923"/><tag k="addr:postcode" v="78723"/></node><node id="-617" lat="30.2959" lon="-97.700473" changeset="false"><tag k="addr:street" v="Berkman Drive"/><tag k="addr:housenumber" v="4300"/><tag k="addr:postcode" v="78723"/></node><node id="-618" lat="30.298104" lon="-97.705462" changeset="false"><tag k="addr:street" v="Aldrich Street"/><tag k="addr:housenumber" v="1907 1/2"/><tag k="addr:postcode" v="78723"/></node><node id="-619" lat="30.295639" lon="-97.689068" changeset="false"><tag k="addr:street" v="Manor Road"/><tag k="addr:housenumber" v="4800"/><tag k="addr:postcode" v="78723"/></node><node id="-620" lat="30.291093" lon="-97.697332" changeset="false"><tag k="addr:street" v="Vaughan Street"/><tag k="addr:housenumber" v="3825 1/2"/><tag k="addr:postcode" v="78723"/></node><node id="-621" lat="30.296076" lon="-97.702596" changeset="false"><tag k="addr:street" v="Mattie Street"/><tag k="addr:housenumber" v="4309"/><tag k="addr:postcode" v="78723"/></node><node id="-622" lat="30.29727" lon="-97.703849" changeset="false"><tag k="addr:street" v="Simond Avenue"/><tag k="addr:housenumber" v="1900"/><tag k="addr:postcode" v="78723"/></node><node id="-623" lat="30.294786" lon="-97.699172" changeset="false"><tag k="addr:street" v="Nitschke Street"/><tag k="addr:housenumber" v="4303 1/2"/><tag k="addr:postcode" v="78723"/></node><node id="-624" lat="30.291494" lon="-97.699839" changeset="false"><tag k="addr:street" v="Threadgill Street"/><tag k="addr:housenumber" v="3917"/><tag k="addr:postcode" v="78723"/></node><node id="-625" lat="30.291619" lon="-97.69992" changeset="false"><tag k="addr:street" v="Threadgill Street"/><tag k="addr:housenumber" v="3925"/><tag k="addr:postcode" v="78723"/></node><node id="-626" lat="30.291612" lon="-97.699461" changeset="false"><tag k="addr:street" v="Berkman Drive"/><tag k="addr:housenumber" v="3912"/><tag k="addr:postcode" v="78723"/></node><node id="-627" lat="30.291829" lon="-97.699558" changeset="false"><tag k="addr:street" v="Berkman Drive"/><tag k="addr:housenumber" v="3924"/><tag k="addr:postcode" v="78723"/></node><node id="-628" lat="30.293027" lon="-97.699506" changeset="false"><tag k="addr:street" v="Berkman Drive"/><tag k="addr:housenumber" v="4019"/><tag k="addr:postcode" v="78723"/></node><node id="-629" lat="30.293735" lon="-97.69971" changeset="false"><tag k="addr:street" v="Berkman Drive"/><tag k="addr:housenumber" v="4113"/><tag k="addr:postcode" v="78723"/></node><node id="-630" lat="30.293218" lon="-97.699204" changeset="false"><tag k="addr:street" v="Nitschke Street"/><tag k="addr:housenumber" v="4104"/><tag k="addr:postcode" v="78723"/></node><node id="-631" lat="30.293336" lon="-97.69925" changeset="false"><tag k="addr:street" v="Nitschke Street"/><tag k="addr:housenumber" v="4106"/><tag k="addr:postcode" v="78723"/></node><node id="-632" lat="30.293639" lon="-97.699344" changeset="false"><tag k="addr:street" v="Nitschke Street"/><tag k="addr:housenumber" v="4200"/><tag k="addr:postcode" v="78723"/></node><node id="-633" lat="30.293876" lon="-97.698924" changeset="false"><tag k="addr:street" v="Nitschke Street"/><tag k="addr:housenumber" v="4203"/><tag k="addr:postcode" v="78723"/></node><node id="-634" lat="30.294115" lon="-97.698588" changeset="false"><tag k="addr:street" v="Zach Scott Street"/><tag k="addr:housenumber" v="2603"/><tag k="addr:postcode" v="78723"/></node><node id="-635" lat="30.293462" lon="-97.698286" changeset="false"><tag k="addr:street" v="Moreno Street"/><tag k="addr:housenumber" v="2505"/><tag k="addr:postcode" v="78723"/></node><node id="-636" lat="30.293139" lon="-97.698609" changeset="false"><tag k="addr:street" v="Sorin Street"/><tag k="addr:housenumber" v="2406"/><tag k="addr:postcode" v="78723"/></node><node id="-637" lat="30.293387" lon="-97.697747" changeset="false"><tag k="addr:street" v="Vaughan Street"/><tag k="addr:housenumber" v="4108"/><tag k="addr:postcode" v="78723"/></node><node id="-638" lat="30.292767" lon="-97.696982" changeset="false"><tag k="addr:street" v="Sorin Street"/><tag k="addr:housenumber" v="2613"/><tag k="addr:postcode" v="78723"/></node><node id="-639" lat="30.292747" lon="-97.696851" changeset="false"><tag k="addr:street" v="Sorin Street"/><tag k="addr:housenumber" v="2617"/><tag k="addr:postcode" v="78723"/></node><node id="-640" lat="30.29062" lon="-97.696719" changeset="false"><tag k="addr:street" v="Tom Miller Street"/><tag k="addr:housenumber" v="3016"/><tag k="addr:postcode" v="78723"/></node><node id="-641" lat="30.291567" lon="-97.697252" changeset="false"><tag k="addr:street" v="Vaughan Street"/><tag k="addr:housenumber" v="3909"/><tag k="addr:postcode" v="78723"/></node><node id="-642" lat="30.292035" lon="-97.697258" changeset="false"><tag k="addr:street" v="Vaughan Street"/><tag k="addr:housenumber" v="3923"/><tag k="addr:postcode" v="78723"/></node><node id="-643" lat="30.291689" lon="-97.696439" changeset="false"><tag k="addr:street" v="Briones Street"/><tag k="addr:housenumber" v="3909"/><tag k="addr:postcode" v="78723"/></node><node id="-644" lat="30.300224" lon="-97.701884" changeset="false"><tag k="addr:street" v="Ruiz Street"/><tag k="addr:housenumber" v="4703"/><tag k="addr:postcode" v="78723"/></node><node id="-645" lat="30.300444" lon="-97.701542" changeset="false"><tag k="addr:street" v="Page Street"/><tag k="addr:housenumber" v="4708"/><tag k="addr:postcode" v="78723"/></node><node id="-646" lat="30.300749" lon="-97.701533" changeset="false"><tag k="addr:street" v="Page Street"/><tag k="addr:housenumber" v="4716"/><tag k="addr:postcode" v="78723"/></node><node id="-647" lat="30.300962" lon="-97.701527" changeset="false"><tag k="addr:street" v="Page Street"/><tag k="addr:housenumber" v="4722"/><tag k="addr:postcode" v="78723"/></node><node id="-648" lat="30.301033" lon="-97.701525" changeset="false"><tag k="addr:street" v="Page Street"/><tag k="addr:housenumber" v="4724"/><tag k="addr:postcode" v="78723"/></node><node id="-649" lat="30.300827" lon="-97.700818" changeset="false"><tag k="addr:street" v="Berkman Drive"/><tag k="addr:housenumber" v="4724"/><tag k="addr:postcode" v="78723"/></node><node id="-650" lat="30.292232" lon="-97.697085" changeset="false"><tag k="addr:street" v="Vaughan Street"/><tag k="addr:housenumber" v="4007"/><tag k="addr:postcode" v="78723"/></node><node id="-651" lat="30.292459" lon="-97.696352" changeset="false"><tag k="addr:street" v="Briones Street"/><tag k="addr:housenumber" v="4013"/><tag k="addr:postcode" v="78723"/></node><node id="-652" lat="30.292705" lon="-97.696479" changeset="false"><tag k="addr:street" v="Sorin Street"/><tag k="addr:housenumber" v="2703"/><tag k="addr:postcode" v="78723"/></node><node id="-653" lat="30.292705" lon="-97.69625" changeset="false"><tag k="addr:street" v="Sorin Street"/><tag k="addr:housenumber" v="2709"/><tag k="addr:postcode" v="78723"/></node><node id="-654" lat="30.293788" lon="-97.696749" changeset="false"><tag k="addr:street" v="Moreno Street"/><tag k="addr:housenumber" v="2700"/><tag k="addr:postcode" v="78723"/></node><node id="-655" lat="30.293895" lon="-97.696445" changeset="false"><tag k="addr:street" v="Moreno Street"/><tag k="addr:housenumber" v="2710"/><tag k="addr:postcode" v="78723"/></node><node id="-656" lat="30.293807" lon="-97.696163" changeset="false"><tag k="addr:street" v="Moreno Street"/><tag k="addr:housenumber" v="2800"/><tag k="addr:postcode" v="78723"/></node><node id="-657" lat="30.293857" lon="-97.696162" changeset="false"><tag k="addr:street" v="Moreno Street"/><tag k="addr:housenumber" v="2802"/><tag k="addr:postcode" v="78723"/></node><node id="-658" lat="30.293992" lon="-97.696169" changeset="false"><tag k="addr:street" v="Moreno Street"/><tag k="addr:housenumber" v="2806"/><tag k="addr:postcode" v="78723"/></node><node id="-659" lat="30.294174" lon="-97.69732" changeset="false"><tag k="addr:street" v="Zach Scott Street"/><tag k="addr:housenumber" v="2703"/><tag k="addr:postcode" v="78723"/></node><node id="-660" lat="30.294186" lon="-97.696744" changeset="false"><tag k="addr:street" v="Zach Scott Street"/><tag k="addr:housenumber" v="2805"/><tag k="addr:postcode" v="78723"/></node><node id="-661" lat="30.294104" lon="-97.696463" changeset="false"><tag k="addr:street" v="Zach Scott Street"/><tag k="addr:housenumber" v="2813"/><tag k="addr:postcode" v="78723"/></node><node id="-662" lat="30.291276" lon="-97.695179" changeset="false"><tag k="addr:street" v="Tilley Street"/><tag k="addr:housenumber" v="3806"/><tag k="addr:postcode" v="78723"/></node><node id="-663" lat="30.291347" lon="-97.695175" changeset="false"><tag k="addr:street" v="Tilley Street"/><tag k="addr:housenumber" v="3808"/><tag k="addr:postcode" v="78723"/></node><node id="-664" lat="30.291586" lon="-97.696076" changeset="false"><tag k="addr:street" v="Teaff Street"/><tag k="addr:housenumber" v="3900"/><tag k="addr:postcode" v="78723"/></node><node id="-665" lat="30.291737" lon="-97.69562" changeset="false"><tag k="addr:street" v="Teaff Street"/><tag k="addr:housenumber" v="3901"/><tag k="addr:postcode" v="78723"/></node><node id="-666" lat="30.292075" lon="-97.695622" changeset="false"><tag k="addr:street" v="Teaff Street"/><tag k="addr:housenumber" v="3911"/><tag k="addr:postcode" v="78723"/></node><node id="-667" lat="30.292205" lon="-97.696078" changeset="false"><tag k="addr:street" v="Teaff Street"/><tag k="addr:housenumber" v="4004"/><tag k="addr:postcode" v="78723"/></node><node id="-668" lat="30.292266" lon="-97.695703" changeset="false"><tag k="addr:street" v="Teaff Street"/><tag k="addr:housenumber" v="4001"/><tag k="addr:postcode" v="78723"/></node><node id="-669" lat="30.292537" lon="-97.695528" changeset="false"><tag k="addr:street" v="Teaff Street"/><tag k="addr:housenumber" v="4011"/><tag k="addr:postcode" v="78723"/></node><node id="-670" lat="30.292507" lon="-97.695711" changeset="false"><tag k="addr:street" v="Teaff Street"/><tag k="addr:housenumber" v="4015"/><tag k="addr:postcode" v="78723"/></node><node id="-671" lat="30.294311" lon="-97.695882" changeset="false"><tag k="addr:street" v="Zach Scott Street"/><tag k="addr:housenumber" v="2919"/><tag k="addr:postcode" v="78723"/></node><node id="-672" lat="30.293915" lon="-97.695365" changeset="false"><tag k="addr:street" v="Moreno Street"/><tag k="addr:housenumber" v="2824"/><tag k="addr:postcode" v="78723"/></node><node id="-673" lat="30.292231" lon="-97.697162" changeset="false"><tag k="addr:street" v="Vaughan Street"/><tag k="addr:housenumber" v="4005"/><tag k="addr:postcode" v="78723"/></node><node id="-674" lat="30.297464" lon="-97.702143" changeset="false"><tag k="addr:street" v="Ruiz Street"/><tag k="addr:housenumber" v="4500"/><tag k="addr:postcode" v="78723"/></node><node id="-675" lat="30.297776" lon="-97.702152" changeset="false"><tag k="addr:street" v="Ruiz Street"/><tag k="addr:housenumber" v="4512"/><tag k="addr:postcode" v="78723"/></node><node id="-676" lat="30.298156" lon="-97.702678" changeset="false"><tag k="addr:street" v="Mattie Street"/><tag k="addr:housenumber" v="4545"/><tag k="addr:postcode" v="78723"/></node><node id="-677" lat="30.298487" lon="-97.702625" changeset="false"><tag k="addr:street" v="Robert Browning Street"/><tag k="addr:housenumber" v="2005"/><tag k="addr:postcode" v="78723"/></node><node id="-678" lat="30.298243" lon="-97.701504" changeset="false"><tag k="addr:street" v="Page Street"/><tag k="addr:housenumber" v="4548"/><tag k="addr:postcode" v="78723"/></node><node id="-679" lat="30.298009" lon="-97.701056" changeset="false"><tag k="addr:street" v="Page Street"/><tag k="addr:housenumber" v="4521"/><tag k="addr:postcode" v="78723"/></node><node id="-680" lat="30.298808" lon="-97.701451" changeset="false"><tag k="addr:street" v="Robert Browning Street"/><tag k="addr:housenumber" v="2108"/><tag k="addr:postcode" v="78723"/></node><node id="-681" lat="30.298813" lon="-97.70054" changeset="false"><tag k="addr:street" v="Robert Browning Street"/><tag k="addr:housenumber" v="2144"/><tag k="addr:postcode" v="78723"/></node><node id="-682" lat="30.298772" lon="-97.702224" changeset="false"><tag k="addr:street" v="Robert Browning Street"/><tag k="addr:housenumber" v="2024"/><tag k="addr:postcode" v="78723"/></node><node id="-683" lat="30.298989" lon="-97.702175" changeset="false"><tag k="addr:street" v="Ruiz Street"/><tag k="addr:housenumber" v="4608"/><tag k="addr:postcode" v="78723"/></node><node id="-684" lat="30.299067" lon="-97.701913" changeset="false"><tag k="addr:street" v="Ruiz Street"/><tag k="addr:housenumber" v="4609"/><tag k="addr:postcode" v="78723"/></node><node id="-685" lat="30.299146" lon="-97.70192" changeset="false"><tag k="addr:street" v="Ruiz Street"/><tag k="addr:housenumber" v="4617"/><tag k="addr:postcode" v="78723"/></node><node id="-686" lat="30.299317" lon="-97.701912" changeset="false"><tag k="addr:street" v="Ruiz Street"/><tag k="addr:housenumber" v="4621"/><tag k="addr:postcode" v="78723"/></node><node id="-687" lat="30.299356" lon="-97.701112" changeset="false"><tag k="addr:street" v="Page Street"/><tag k="addr:housenumber" v="4625"/><tag k="addr:postcode" v="78723"/></node><node id="-688" lat="30.299194" lon="-97.700581" changeset="false"><tag k="addr:street" v="Berkman Drive"/><tag k="addr:housenumber" v="4616"/><tag k="addr:postcode" v="78723"/></node><node id="-689" lat="30.299452" lon="-97.700588" changeset="false"><tag k="addr:street" v="Berkman Drive"/><tag k="addr:housenumber" v="4628"/><tag k="addr:postcode" v="78723"/></node><node id="-690" lat="30.299854" lon="-97.701064" changeset="false"><tag k="addr:street" v="Philomena Street"/><tag k="addr:housenumber" v="2121"/><tag k="addr:postcode" v="78723"/></node><node id="-691" lat="30.299869" lon="-97.700578" changeset="false"><tag k="addr:street" v="Philomena Street"/><tag k="addr:housenumber" v="2145"/><tag k="addr:postcode" v="78723"/></node><node id="-692" lat="30.299843" lon="-97.701584" changeset="false"><tag k="addr:street" v="Philomena Street"/><tag k="addr:housenumber" v="2105"/><tag k="addr:postcode" v="78723"/></node><node id="-693" lat="30.299845" lon="-97.70141" changeset="false"><tag k="addr:street" v="Philomena Street"/><tag k="addr:housenumber" v="2113"/><tag k="addr:postcode" v="78723"/></node><node id="-694" lat="30.299034" lon="-97.702715" changeset="false"><tag k="addr:street" v="Mattie Street"/><tag k="addr:housenumber" v="4613"/><tag k="addr:postcode" v="78723"/></node><node id="-695" lat="30.299098" lon="-97.702716" changeset="false"><tag k="addr:street" v="Mattie Street"/><tag k="addr:housenumber" v="4617"/><tag k="addr:postcode" v="78723"/></node><node id="-696" lat="30.296835" lon="-97.69985" changeset="false"><tag k="addr:street" v="Berkman Drive"/><tag k="addr:housenumber" v="4401"/><tag k="addr:postcode" v="78723"/></node><node id="-697" lat="30.296837" lon="-97.698885" changeset="false"><tag k="addr:street" v="Simond Avenue"/><tag k="addr:housenumber" v="2212"/><tag k="addr:postcode" v="78723"/></node><node id="-698" lat="30.294472" lon="-97.699803" changeset="false"><tag k="addr:street" v="Berkman Drive"/><tag k="addr:housenumber" v="4201"/><tag k="addr:postcode" v="78723"/></node><node id="-699" lat="30.294607" lon="-97.699813" changeset="false"><tag k="addr:street" v="Berkman Drive"/><tag k="addr:housenumber" v="4205"/><tag k="addr:postcode" v="78723"/></node><node id="-700" lat="30.294761" lon="-97.699816" changeset="false"><tag k="addr:street" v="Berkman Drive"/><tag k="addr:housenumber" v="4209"/><tag k="addr:postcode" v="78723"/></node><node id="-701" lat="30.295363" lon="-97.699827" changeset="false"><tag k="addr:street" v="Berkman Drive"/><tag k="addr:housenumber" v="4225"/><tag k="addr:postcode" v="78723"/></node><node id="-702" lat="30.294621" lon="-97.699408" changeset="false"><tag k="addr:street" v="Nitschke Street"/><tag k="addr:housenumber" v="4302"/><tag k="addr:postcode" v="78723"/></node><node id="-703" lat="30.295911" lon="-97.699808" changeset="false"><tag k="addr:street" v="Berkman Drive"/><tag k="addr:housenumber" v="4301"/><tag k="addr:postcode" v="78723"/></node><node id="-704" lat="30.296214" lon="-97.69982" changeset="false"><tag k="addr:street" v="Berkman Drive"/><tag k="addr:housenumber" v="4313"/><tag k="addr:postcode" v="78723"/></node><node id="-705" lat="30.295923" lon="-97.698198" changeset="false"><tag k="addr:street" v="Camacho Street"/><tag k="addr:housenumber" v="4704"/><tag k="addr:postcode" v="78723"/></node><node id="-706" lat="30.294914" lon="-97.699037" changeset="false"><tag k="addr:street" v="Nitschke Street"/><tag k="addr:housenumber" v="4321"/><tag k="addr:postcode" v="78723"/></node><node id="-707" lat="30.295279" lon="-97.699113" changeset="false"><tag k="addr:street" v="Nitschke Street"/><tag k="addr:housenumber" v="4339"/><tag k="addr:postcode" v="78723"/></node><node id="-708" lat="30.294556" lon="-97.698194" changeset="false"><tag k="addr:street" v="Zach Scott Street"/><tag k="addr:housenumber" v="2602"/><tag k="addr:postcode" v="78723"/></node><node id="-709" lat="30.294561" lon="-97.698117" changeset="false"><tag k="addr:street" v="Zach Scott Street"/><tag k="addr:housenumber" v="2604"/><tag k="addr:postcode" v="78723"/></node><node id="-710" lat="30.294568" lon="-97.697942" changeset="false"><tag k="addr:street" v="Zach Scott Street"/><tag k="addr:housenumber" v="2608"/><tag k="addr:postcode" v="78723"/></node><node id="-711" lat="30.294569" lon="-97.697785" changeset="false"><tag k="addr:street" v="Zach Scott Street"/><tag k="addr:housenumber" v="2612"/><tag k="addr:postcode" v="78723"/></node><node id="-712" lat="30.294574" lon="-97.697714" changeset="false"><tag k="addr:street" v="Zach Scott Street"/><tag k="addr:housenumber" v="2614"/><tag k="addr:postcode" v="78723"/></node><node id="-713" lat="30.299011" lon="-97.698703" changeset="false"><tag k="addr:street" v="Robert Browning Street"/><tag k="addr:housenumber" v="2312"/><tag k="addr:postcode" v="78723"/></node><node id="-714" lat="30.299832" lon="-97.699142" changeset="false"><tag k="addr:street" v="Philomena Street"/><tag k="addr:housenumber" v="2303"/><tag k="addr:postcode" v="78723"/></node><node id="-715" lat="30.298493" lon="-97.699877" changeset="false"><tag k="addr:street" v="Robert Browning Street"/><tag k="addr:housenumber" v="2205"/><tag k="addr:postcode" v="78723"/></node><node id="-716" lat="30.298483" lon="-97.699792" changeset="false"><tag k="addr:street" v="Robert Browning Street"/><tag k="addr:housenumber" v="2207"/><tag k="addr:postcode" v="78723"/></node><node id="-717" lat="30.299659" lon="-97.699969" changeset="false"><tag k="addr:street" v="Berkman Drive"/><tag k="addr:housenumber" v="4627"/><tag k="addr:postcode" v="78723"/></node><node id="-718" lat="30.298116" lon="-97.697811" changeset="false"><tag k="addr:street" v="Vaughan Street"/><tag k="addr:housenumber" v="4628"/><tag k="addr:postcode" v="78723"/></node><node id="-719" lat="30.298633" lon="-97.704363" changeset="false"><tag k="addr:street" v="Aldrich Street"/><tag k="addr:housenumber" v="1911"/><tag k="addr:postcode" v="78723"/></node><node id="-720" lat="30.289134" lon="-97.704169" changeset="false"><tag k="addr:street" v="Anchor Lane"/><tag k="addr:housenumber" v="2000 1/2"/><tag k="addr:postcode" v="78723"/></node><node id="-721" lat="30.291103" lon="-97.695496" changeset="false"><tag k="addr:street" v="Tom Miller Street"/><tag k="addr:housenumber" v="3204"/><tag k="addr:postcode" v="78723"/></node><node id="-722" lat="30.293618" lon="-97.699691" changeset="false"><tag k="addr:street" v="Berkman Drive"/><tag k="addr:housenumber" v="4109"/><tag k="addr:postcode" v="78723"/></node><node id="-723" lat="30.294211" lon="-97.698585" changeset="false"><tag k="addr:street" v="Zach Scott Street"/><tag k="addr:housenumber" v="2601"/><tag k="addr:postcode" v="78723"/></node><node id="-724" lat="30.293146" lon="-97.698463" changeset="false"><tag k="addr:street" v="Sorin Street"/><tag k="addr:housenumber" v="2410"/><tag k="addr:postcode" v="78723"/></node><node id="-725" lat="30.290528" lon="-97.69712" changeset="false"><tag k="addr:street" v="Tom Miller Street"/><tag k="addr:housenumber" v="3004"/><tag k="addr:postcode" v="78723"/></node><node id="-726" lat="30.290758" lon="-97.696327" changeset="false"><tag k="addr:street" v="Tom Miller Street"/><tag k="addr:housenumber" v="3104"/><tag k="addr:postcode" v="78723"/></node><node id="-727" lat="30.291713" lon="-97.697256" changeset="false"><tag k="addr:street" v="Vaughan Street"/><tag k="addr:housenumber" v="3913"/><tag k="addr:postcode" v="78723"/></node><node id="-728" lat="30.291774" lon="-97.697249" changeset="false"><tag k="addr:street" v="Vaughan Street"/><tag k="addr:housenumber" v="3915"/><tag k="addr:postcode" v="78723"/></node><node id="-729" lat="30.291813" lon="-97.696895" changeset="false"><tag k="addr:street" v="Briones Street"/><tag k="addr:housenumber" v="3916"/><tag k="addr:postcode" v="78723"/></node><node id="-730" lat="30.291478" lon="-97.696434" changeset="false"><tag k="addr:street" v="Briones Street"/><tag k="addr:housenumber" v="3901"/><tag k="addr:postcode" v="78723"/></node><node id="-731" lat="30.291593" lon="-97.696434" changeset="false"><tag k="addr:street" v="Briones Street"/><tag k="addr:housenumber" v="3905"/><tag k="addr:postcode" v="78723"/></node><node id="-732" lat="30.300127" lon="-97.701886" changeset="false"><tag k="addr:street" v="Ruiz Street"/><tag k="addr:housenumber" v="4701"/><tag k="addr:postcode" v="78723"/></node><node id="-733" lat="30.301078" lon="-97.700942" changeset="false"><tag k="addr:street" v="Garcia Street"/><tag k="addr:housenumber" v="2121"/><tag k="addr:postcode" v="78723"/></node><node id="-734" lat="30.300524" lon="-97.700949" changeset="false"><tag k="addr:street" v="Berkman Drive"/><tag k="addr:housenumber" v="4718"/><tag k="addr:postcode" v="78723"/></node><node id="-735" lat="30.300805" lon="-97.701065" changeset="false"><tag k="addr:street" v="Page Street"/><tag k="addr:housenumber" v="4719"/><tag k="addr:postcode" v="78723"/></node><node id="-736" lat="30.295231" lon="-97.699424" changeset="false"><tag k="addr:street" v="Nitschke Street"/><tag k="addr:housenumber" v="4314"/><tag k="addr:postcode" v="78723"/></node><node id="-737" lat="30.295334" lon="-97.699426" changeset="false"><tag k="addr:street" v="Nitschke Street"/><tag k="addr:housenumber" v="4316"/><tag k="addr:postcode" v="78723"/></node><node id="-738" lat="30.29552" lon="-97.698739" changeset="false"><tag k="addr:street" v="Camacho Street"/><tag k="addr:housenumber" v="4609"/><tag k="addr:postcode" v="78723"/></node><node id="-739" lat="30.295918" lon="-97.69848" changeset="false"><tag k="addr:street" v="Camacho Street"/><tag k="addr:housenumber" v="4616"/><tag k="addr:postcode" v="78723"/></node><node id="-740" lat="30.294541" lon="-97.698522" changeset="false"><tag k="addr:street" v="Zach Scott Street"/><tag k="addr:housenumber" v="2512"/><tag k="addr:postcode" v="78723"/></node><node id="-741" lat="30.29508" lon="-97.698951" changeset="false"><tag k="addr:street" v="Nitschke Street"/><tag k="addr:housenumber" v="4331"/><tag k="addr:postcode" v="78723"/></node><node id="-742" lat="30.29457" lon="-97.697856" changeset="false"><tag k="addr:street" v="Zach Scott Street"/><tag k="addr:housenumber" v="2610"/><tag k="addr:postcode" v="78723"/></node><node id="-743" lat="30.298385" lon="-97.698338" changeset="false"><tag k="addr:street" v="Robert Browning Street"/><tag k="addr:housenumber" v="2401"/><tag k="addr:postcode" v="78723"/></node><node id="-744" lat="30.299004" lon="-97.699174" changeset="false"><tag k="addr:street" v="Robert Browning Street"/><tag k="addr:housenumber" v="2300"/><tag k="addr:postcode" v="78723"/></node><node id="-745" lat="30.299002" lon="-97.698996" changeset="false"><tag k="addr:street" v="Robert Browning Street"/><tag k="addr:housenumber" v="2304"/><tag k="addr:postcode" v="78723"/></node><node id="-746" lat="30.299626" lon="-97.697975" changeset="false"><tag k="addr:street" v="Vaughan Street"/><tag k="addr:housenumber" v="4724"/><tag k="addr:postcode" v="78723"/></node><node id="-747" lat="30.299827" lon="-97.699238" changeset="false"><tag k="addr:street" v="Philomena Street"/><tag k="addr:housenumber" v="2301"/><tag k="addr:postcode" v="78723"/></node><node id="-748" lat="30.29984" lon="-97.698977" changeset="false"><tag k="addr:street" v="Philomena Street"/><tag k="addr:housenumber" v="2307"/><tag k="addr:postcode" v="78723"/></node><node id="-749" lat="30.298865" lon="-97.699546" changeset="false"><tag k="addr:street" v="Robert Browning Street"/><tag k="addr:housenumber" v="2212"/><tag k="addr:postcode" v="78723"/></node><node id="-750" lat="30.297747" lon="-97.699933" changeset="false"><tag k="addr:street" v="Berkman Drive"/><tag k="addr:housenumber" v="4513"/><tag k="addr:postcode" v="78723"/></node><node id="-751" lat="30.297922" lon="-97.699928" changeset="false"><tag k="addr:street" v="Berkman Drive"/><tag k="addr:housenumber" v="4521"/><tag k="addr:postcode" v="78723"/></node><node id="-752" lat="30.298239" lon="-97.69992" changeset="false"><tag k="addr:street" v="Berkman Drive"/><tag k="addr:housenumber" v="4537"/><tag k="addr:postcode" v="78723"/></node><node id="-753" lat="30.299187" lon="-97.699992" changeset="false"><tag k="addr:street" v="Berkman Drive"/><tag k="addr:housenumber" v="4613"/><tag k="addr:postcode" v="78723"/></node><node id="-754" lat="30.297856" lon="-97.698022" changeset="false"><tag k="addr:street" v="Vaughan Street"/><tag k="addr:housenumber" v="4616"/><tag k="addr:postcode" v="78723"/></node><node id="-755" lat="30.298118" lon="-97.697922" changeset="false"><tag k="addr:street" v="Vaughan Street"/><tag k="addr:housenumber" v="4624"/><tag k="addr:postcode" v="78723"/></node><node id="-756" lat="30.298111" lon="-97.705547" changeset="false"><tag k="addr:street" v="Simond Avenue"/><tag k="addr:housenumber" v="1800"/><tag k="addr:postcode" v="78723"/></node><node id="-757" lat="30.294777" lon="-97.700439" changeset="false"><tag k="addr:street" v="Berkman Drive"/><tag k="addr:housenumber" v="4216"/><tag k="addr:postcode" v="78723"/></node><node id="-758" lat="30.298473" lon="-97.701677" changeset="false"><tag k="addr:street" v="Robert Browning Street"/><tag k="addr:housenumber" v="2101"/><tag k="addr:postcode" v="78723"/></node><node id="-759" lat="30.292494" lon="-97.697086" changeset="false"><tag k="addr:street" v="Vaughan Street"/><tag k="addr:housenumber" v="4009"/><tag k="addr:postcode" v="78723"/></node><node id="-760" lat="30.292495" lon="-97.697347" changeset="false"><tag k="addr:street" v="Vaughan Street"/><tag k="addr:housenumber" v="4015"/><tag k="addr:postcode" v="78723"/></node><node id="-761" lat="30.292223" lon="-97.696909" changeset="false"><tag k="addr:street" v="Briones Street"/><tag k="addr:housenumber" v="4002"/><tag k="addr:postcode" v="78723"/></node><node id="-762" lat="30.292709" lon="-97.696166" changeset="false"><tag k="addr:street" v="Sorin Street"/><tag k="addr:housenumber" v="2711"/><tag k="addr:postcode" v="78723"/></node><node id="-763" lat="30.293879" lon="-97.696997" changeset="false"><tag k="addr:street" v="Moreno Street"/><tag k="addr:housenumber" v="2612"/><tag k="addr:postcode" v="78723"/></node><node id="-764" lat="30.29397" lon="-97.696757" changeset="false"><tag k="addr:street" v="Moreno Street"/><tag k="addr:housenumber" v="2706"/><tag k="addr:postcode" v="78723"/></node><node id="-765" lat="30.29418" lon="-97.697055" changeset="false"><tag k="addr:street" v="Zach Scott Street"/><tag k="addr:housenumber" v="2709"/><tag k="addr:postcode" v="78723"/></node><node id="-766" lat="30.294031" lon="-97.696757" changeset="false"><tag k="addr:street" v="Zach Scott Street"/><tag k="addr:housenumber" v="2809"/><tag k="addr:postcode" v="78723"/></node><node id="-767" lat="30.291846" lon="-97.696079" changeset="false"><tag k="addr:street" v="Teaff Street"/><tag k="addr:housenumber" v="3908"/><tag k="addr:postcode" v="78723"/></node><node id="-768" lat="30.291922" lon="-97.69608" changeset="false"><tag k="addr:street" v="Teaff Street"/><tag k="addr:housenumber" v="3910"/><tag k="addr:postcode" v="78723"/></node><node id="-769" lat="30.292086" lon="-97.695226" changeset="false"><tag k="addr:street" v="Tilley Street"/><tag k="addr:housenumber" v="3908"/><tag k="addr:postcode" v="78723"/></node><node id="-770" lat="30.292271" lon="-97.695513" changeset="false"><tag k="addr:street" v="Teaff Street"/><tag k="addr:housenumber" v="4005"/><tag k="addr:postcode" v="78723"/></node><node id="-771" lat="30.294302" lon="-97.696188" changeset="false"><tag k="addr:street" v="Zach Scott Street"/><tag k="addr:housenumber" v="2901"/><tag k="addr:postcode" v="78723"/></node><node id="-772" lat="30.304121" lon="-97.702978" changeset="false"><tag k="addr:street" v="Barbara Jordan Boulevard"/><tag k="addr:housenumber" v="1500"/><tag k="addr:postcode" v="78723"/></node><node id="-773" lat="30.286692" lon="-97.705058" changeset="false"><tag k="addr:street" v="Manor Road"/><tag k="addr:housenumber" v="3114"/><tag k="addr:postcode" v="78723"/></node><node id="-774" lat="30.291551" lon="-97.706365" changeset="false"><tag k="addr:street" v="Antone Street"/><tag k="addr:housenumber" v="1908"/><tag k="addr:postcode" v="78723"/></node><node id="-775" lat="30.296223" lon="-97.702599" changeset="false"><tag k="addr:street" v="Mattie Street"/><tag k="addr:housenumber" v="4313"/><tag k="addr:postcode" v="78723"/></node><node id="-776" lat="30.297836" lon="-97.707459" changeset="false"><tag k="addr:street" v="Aldrich Street"/><tag k="addr:housenumber" v="1719 1/2"/><tag k="addr:postcode" v="78723"/></node><node id="-777" lat="30.299762" lon="-97.689736" changeset="false"><tag k="addr:street" v="East 51st Street"/><tag k="addr:housenumber" v="2215"/><tag k="addr:postcode" v="78723"/></node><node id="-778" lat="30.296768" lon="-97.700983" changeset="false"><tag k="addr:street" v="Simond Avenue"/><tag k="addr:housenumber" v="2024"/><tag k="addr:postcode" v="78723"/></node><node id="-779" lat="30.301067" lon="-97.691293" changeset="false"><tag k="addr:street" v="East 51st Street"/><tag k="addr:housenumber" v="2101"/><tag k="addr:postcode" v="78723"/></node><node id="-780" lat="30.296845" lon="-97.700613" changeset="false"><tag k="addr:street" v="Berkman Drive"/><tag k="addr:housenumber" v="4400"/><tag k="addr:postcode" v="78723"/></node><node id="-781" lat="30.297673" lon="-97.702146" changeset="false"><tag k="addr:street" v="Ruiz Street"/><tag k="addr:housenumber" v="4508"/><tag k="addr:postcode" v="78723"/></node><node id="-782" lat="30.298234" lon="-97.70187" changeset="false"><tag k="addr:street" v="Ruiz Street"/><tag k="addr:housenumber" v="4533"/><tag k="addr:postcode" v="78723"/></node><node id="-783" lat="30.298215" lon="-97.70268" changeset="false"><tag k="addr:street" v="Mattie Street"/><tag k="addr:housenumber" v="4549"/><tag k="addr:postcode" v="78723"/></node><node id="-784" lat="30.298283" lon="-97.70268" changeset="false"><tag k="addr:street" v="Mattie Street"/><tag k="addr:housenumber" v="4553"/><tag k="addr:postcode" v="78723"/></node><node id="-785" lat="30.297727" lon="-97.701586" changeset="false"><tag k="addr:street" v="Page Street"/><tag k="addr:housenumber" v="4520"/><tag k="addr:postcode" v="78723"/></node><node id="-786" lat="30.297987" lon="-97.701437" changeset="false"><tag k="addr:street" v="Page Street"/><tag k="addr:housenumber" v="4532"/><tag k="addr:postcode" v="78723"/></node><node id="-787" lat="30.297601" lon="-97.701046" changeset="false"><tag k="addr:street" v="Page Street"/><tag k="addr:housenumber" v="4505"/><tag k="addr:postcode" v="78723"/></node><node id="-788" lat="30.29808" lon="-97.700543" changeset="false"><tag k="addr:street" v="Berkman Drive"/><tag k="addr:housenumber" v="4528"/><tag k="addr:postcode" v="78723"/></node><node id="-789" lat="30.298532" lon="-97.701017" changeset="false"><tag k="addr:street" v="Robert Browning Street"/><tag k="addr:housenumber" v="2121"/><tag k="addr:postcode" v="78723"/></node><node id="-790" lat="30.298534" lon="-97.700945" changeset="false"><tag k="addr:street" v="Robert Browning Street"/><tag k="addr:housenumber" v="2125"/><tag k="addr:postcode" v="78723"/></node><node id="-791" lat="30.2988" lon="-97.701815" changeset="false"><tag k="addr:street" v="Robert Browning Street"/><tag k="addr:housenumber" v="2036"/><tag k="addr:postcode" v="78723"/></node><node id="-792" lat="30.299489" lon="-97.702195" changeset="false"><tag k="addr:street" v="Ruiz Street"/><tag k="addr:housenumber" v="4632"/><tag k="addr:postcode" v="78723"/></node><node id="-793" lat="30.299569" lon="-97.702195" changeset="false"><tag k="addr:street" v="Ruiz Street"/><tag k="addr:housenumber" v="4636"/><tag k="addr:postcode" v="78723"/></node><node id="-794" lat="30.299524" lon="-97.700592" changeset="false"><tag k="addr:street" v="Berkman Drive"/><tag k="addr:housenumber" v="4632"/><tag k="addr:postcode" v="78723"/></node><node id="-795" lat="30.299861" lon="-97.700813" changeset="false"><tag k="addr:street" v="Philomena Street"/><tag k="addr:housenumber" v="2133"/><tag k="addr:postcode" v="78723"/></node><node id="-796" lat="30.299863" lon="-97.700728" changeset="false"><tag k="addr:street" v="Philomena Street"/><tag k="addr:housenumber" v="2137"/><tag k="addr:postcode" v="78723"/></node><node id="-797" lat="30.299866" lon="-97.700657" changeset="false"><tag k="addr:street" v="Philomena Street"/><tag k="addr:housenumber" v="2141"/><tag k="addr:postcode" v="78723"/></node><node id="-798" lat="30.299811" lon="-97.702603" changeset="false"><tag k="addr:street" v="Philomena Street"/><tag k="addr:housenumber" v="2009"/><tag k="addr:postcode" v="78723"/></node><node id="-799" lat="30.299243" lon="-97.702718" changeset="false"><tag k="addr:street" v="Mattie Street"/><tag k="addr:housenumber" v="4625"/><tag k="addr:postcode" v="78723"/></node><node id="-800" lat="30.286727" lon="-97.704751" changeset="false"><tag k="addr:street" v="Manor Road"/><tag k="addr:housenumber" v="3118"/><tag k="addr:postcode" v="78723"/></node><node id="-801" lat="30.299603" lon="-97.689022" changeset="false"><tag k="addr:street" v="Old Manor Road"/><tag k="addr:housenumber" v="5209"/><tag k="addr:postcode" v="78723"/></node><node id="-802" lat="30.29375" lon="-97.707363" changeset="false"><tag k="addr:street" v="Airport Boulevard"/><tag k="addr:housenumber" v="4031"/><tag k="addr:postcode" v="78723"/></node><node id="-803" lat="30.302358" lon="-97.697464" changeset="false"><tag k="addr:street" v="East 51st Street"/><tag k="addr:housenumber" v="1803"/><tag k="addr:postcode" v="78723"/></node><node id="-804" lat="30.291665" lon="-97.706916" changeset="false"><tag k="addr:street" v="Airport Boulevard"/><tag k="addr:housenumber" v="4001"/><tag k="addr:postcode" v="78723"/></node><node id="-805" lat="30.286781" lon="-97.704556" changeset="false"><tag k="addr:street" v="Manor Road"/><tag k="addr:housenumber" v="3122"/><tag k="addr:postcode" v="78723"/></node><node id="-806" lat="30.298419" lon="-97.690894" changeset="false"><tag k="addr:street" v="Old Manor Road"/><tag k="addr:housenumber" v="5001"/><tag k="addr:postcode" v="78723"/></node><node id="-807" lat="30.292899" lon="-97.689873" changeset="false"><tag k="addr:street" v="Lovell Drive"/><tag k="addr:housenumber" v="2606"/><tag k="addr:postcode" v="78723"/></node><node id="-808" lat="30.286755" lon="-97.704643" changeset="false"><tag k="addr:street" v="Manor Road"/><tag k="addr:housenumber" v="3120"/><tag k="addr:postcode" v="78723"/></node><node id="-809" lat="30.307384" lon="-97.709231" changeset="false"><tag k="addr:street" v="Barbara Jordan Boulevard"/><tag k="addr:housenumber" v="1200"/><tag k="addr:postcode" v="78723"/></node><node id="-810" lat="30.297185" lon="-97.705466" changeset="false"><tag k="addr:street" v="Simond Avenue"/><tag k="addr:housenumber" v="1829"/><tag k="addr:postcode" v="78723"/></node><node id="-811" lat="30.289116" lon="-97.7044" changeset="false"><tag k="addr:street" v="Anchor Lane"/><tag k="addr:housenumber" v="2000"/><tag k="addr:postcode" v="78723"/></node><node id="-812" lat="30.298218" lon="-97.707529" changeset="false"><tag k="addr:street" v="Aldrich Street"/><tag k="addr:housenumber" v="1716"/><tag k="addr:postcode" v="78723"/></node><node id="-813" lat="30.298184" lon="-97.707926" changeset="false"><tag k="addr:street" v="Aldrich Street"/><tag k="addr:housenumber" v="1714"/><tag k="addr:postcode" v="78723"/></node><node id="-814" lat="30.286793" lon="-97.704471" changeset="false"><tag k="addr:street" v="Manor Road"/><tag k="addr:housenumber" v="3124"/><tag k="addr:postcode" v="78723"/></node><node id="-815" lat="30.296782" lon="-97.707731" changeset="false"><tag k="addr:street" v="Airport Boulevard"/><tag k="addr:housenumber" v="4209"/><tag k="addr:postcode" v="78723"/></node><node id="-816" lat="30.29545" lon="-97.702929" changeset="false"><tag k="addr:street" v="Camacho Street"/><tag k="addr:housenumber" v="4325"/><tag k="addr:postcode" v="78723"/></node><node id="-817" lat="30.299218" lon="-97.691081" changeset="false"><tag k="addr:street" v="Old Manor Road"/><tag k="addr:housenumber" v="5010"/><tag k="addr:postcode" v="78723"/></node><node id="-818" lat="30.302562" lon="-97.708732" changeset="false"><tag k="addr:street" v="Philomena Street"/><tag k="addr:housenumber" v="1311"/><tag k="addr:postcode" v="78723"/></node><node id="-819" lat="30.301264" lon="-97.706451" changeset="false"><tag k="addr:street" v="Mueller Boulevard"/><tag k="addr:housenumber" v="4700"/><tag k="addr:postcode" v="78723"/></node><node id="-820" lat="30.297723" lon="-97.707382" changeset="false"><tag k="addr:street" v="Aldrich Street"/><tag k="addr:housenumber" v="1721"/><tag k="addr:postcode" v="78723"/></node><node id="-821" lat="30.294157" lon="-97.702758" changeset="false"><tag k="addr:street" v="Mattie Street"/><tag k="addr:housenumber" v="4156 1/2"/><tag k="addr:postcode" v="78723"/></node><node id="-822" lat="30.300641" lon="-97.706888" changeset="false"><tag k="addr:street" v="Robert Browning Street"/><tag k="addr:housenumber" v="1409 1/2"/><tag k="addr:postcode" v="78723"/></node><node id="-823" lat="30.297427" lon="-97.707358" changeset="false"><tag k="addr:street" v="Mueller Boulevard"/><tag k="addr:housenumber" v="4552 1/2"/><tag k="addr:postcode" v="78723"/></node><node id="-824" lat="30.295046" lon="-97.700452" changeset="false"><tag k="addr:street" v="Berkman Drive"/><tag k="addr:housenumber" v="4232"/><tag k="addr:postcode" v="78723"/></node><node id="-825" lat="30.294984" lon="-97.700442" changeset="false"><tag k="addr:street" v="Berkman Drive"/><tag k="addr:housenumber" v="4228"/><tag k="addr:postcode" v="78723"/></node><node id="-826" lat="30.294849" lon="-97.700437" changeset="false"><tag k="addr:street" v="Berkman Drive"/><tag k="addr:housenumber" v="4220"/><tag k="addr:postcode" v="78723"/></node><node id="-827" lat="30.294922" lon="-97.700443" changeset="false"><tag k="addr:street" v="Berkman Drive"/><tag k="addr:housenumber" v="4224"/><tag k="addr:postcode" v="78723"/></node><node id="-828" lat="30.295108" lon="-97.700454" changeset="false"><tag k="addr:street" v="Berkman Drive"/><tag k="addr:housenumber" v="4236"/><tag k="addr:postcode" v="78723"/></node><node id="-829" lat="30.295381" lon="-97.700455" changeset="false"><tag k="addr:street" v="Berkman Drive"/><tag k="addr:housenumber" v="4252"/><tag k="addr:postcode" v="78723"/></node><node id="-830" lat="30.295257" lon="-97.70045" changeset="false"><tag k="addr:street" v="Berkman Drive"/><tag k="addr:housenumber" v="4244"/><tag k="addr:postcode" v="78723"/></node><node id="-831" lat="30.295322" lon="-97.700448" changeset="false"><tag k="addr:street" v="Berkman Drive"/><tag k="addr:housenumber" v="4248"/><tag k="addr:postcode" v="78723"/></node><node id="-832" lat="30.295447" lon="-97.700453" changeset="false"><tag k="addr:street" v="Berkman Drive"/><tag k="addr:housenumber" v="4256"/><tag k="addr:postcode" v="78723"/></node><node id="-833" lat="30.293553" lon="-97.700374" changeset="false"><tag k="addr:street" v="Berkman Drive"/><tag k="addr:housenumber" v="4120"/><tag k="addr:postcode" v="78723"/></node><node id="-834" lat="30.293824" lon="-97.700416" changeset="false"><tag k="addr:street" v="Berkman Drive"/><tag k="addr:housenumber" v="4136"/><tag k="addr:postcode" v="78723"/></node><node id="-835" lat="30.293747" lon="-97.700403" changeset="false"><tag k="addr:street" v="Berkman Drive"/><tag k="addr:housenumber" v="4132"/><tag k="addr:postcode" v="78723"/></node><node id="-836" lat="30.293622" lon="-97.700387" changeset="false"><tag k="addr:street" v="Berkman Drive"/><tag k="addr:housenumber" v="4124"/><tag k="addr:postcode" v="78723"/></node><node id="-837" lat="30.293681" lon="-97.700397" changeset="false"><tag k="addr:street" v="Berkman Drive"/><tag k="addr:housenumber" v="4128"/><tag k="addr:postcode" v="78723"/></node><node id="-838" lat="30.294487" lon="-97.700431" changeset="false"><tag k="addr:street" v="Berkman Drive"/><tag k="addr:housenumber" v="4200"/><tag k="addr:postcode" v="78723"/></node><node id="-839" lat="30.294704" lon="-97.700433" changeset="false"><tag k="addr:street" v="Berkman Drive"/><tag k="addr:housenumber" v="4212"/><tag k="addr:postcode" v="78723"/></node><node id="-840" lat="30.294642" lon="-97.700435" changeset="false"><tag k="addr:street" v="Berkman Drive"/><tag k="addr:housenumber" v="4208"/><tag k="addr:postcode" v="78723"/></node><node id="-841" lat="30.29458" lon="-97.700429" changeset="false"><tag k="addr:street" v="Berkman Drive"/><tag k="addr:housenumber" v="4204"/><tag k="addr:postcode" v="78723"/></node><node id="-842" lat="30.294034" lon="-97.700419" changeset="false"><tag k="addr:street" v="Berkman Drive"/><tag k="addr:housenumber" v="4148"/><tag k="addr:postcode" v="78723"/></node><node id="-843" lat="30.293979" lon="-97.70042" changeset="false"><tag k="addr:street" v="Berkman Drive"/><tag k="addr:housenumber" v="4144"/><tag k="addr:postcode" v="78723"/></node><node id="-844" lat="30.293907" lon="-97.700422" changeset="false"><tag k="addr:street" v="Berkman Drive"/><tag k="addr:housenumber" v="4140"/><tag k="addr:postcode" v="78723"/></node><node id="-845" lat="30.294096" lon="-97.700418" changeset="false"><tag k="addr:street" v="Berkman Drive"/><tag k="addr:housenumber" v="4152"/><tag k="addr:postcode" v="78723"/></node><node id="-846" lat="30.294183" lon="-97.700426" changeset="false"><tag k="addr:street" v="Berkman Drive"/><tag k="addr:housenumber" v="4156"/><tag k="addr:postcode" v="78723"/></node><node id="-847" lat="30.29445" lon="-97.701432" changeset="false"><tag k="addr:street" v="Zach Scott Street"/><tag k="addr:housenumber" v="2248"/><tag k="addr:postcode" v="78723"/></node><node id="-848" lat="30.294452" lon="-97.701352" changeset="false"><tag k="addr:street" v="Zach Scott Street"/><tag k="addr:housenumber" v="2252"/><tag k="addr:postcode" v="78723"/></node><node id="-849" lat="30.294449" lon="-97.701197" changeset="false"><tag k="addr:street" v="Zach Scott Street"/><tag k="addr:housenumber" v="2260"/><tag k="addr:postcode" v="78723"/></node><node id="-850" lat="30.294454" lon="-97.701281" changeset="false"><tag k="addr:street" v="Zach Scott Street"/><tag k="addr:housenumber" v="2256"/><tag k="addr:postcode" v="78723"/></node><node id="-851" lat="30.294162" lon="-97.70127" changeset="false"><tag k="addr:street" v="Zach Scott Street"/><tag k="addr:housenumber" v="2257"/><tag k="addr:postcode" v="78723"/></node><node id="-852" lat="30.294153" lon="-97.701341" changeset="false"><tag k="addr:street" v="Zach Scott Street"/><tag k="addr:housenumber" v="2253"/><tag k="addr:postcode" v="78723"/></node><node id="-853" lat="30.294155" lon="-97.701421" changeset="false"><tag k="addr:street" v="Zach Scott Street"/><tag k="addr:housenumber" v="2249"/><tag k="addr:postcode" v="78723"/></node><node id="-854" lat="30.294164" lon="-97.701178" changeset="false"><tag k="addr:street" v="Zach Scott Street"/><tag k="addr:housenumber" v="2261"/><tag k="addr:postcode" v="78723"/></node><node id="-855" lat="30.29413" lon="-97.702227" changeset="false"><tag k="addr:street" v="Zach Scott Street"/><tag k="addr:housenumber" v="2213"/><tag k="addr:postcode" v="78723"/></node><node id="-856" lat="30.294139" lon="-97.702" changeset="false"><tag k="addr:street" v="Zach Scott Street"/><tag k="addr:housenumber" v="2225"/><tag k="addr:postcode" v="78723"/></node><node id="-857" lat="30.294134" lon="-97.70208" changeset="false"><tag k="addr:street" v="Zach Scott Street"/><tag k="addr:housenumber" v="2221"/><tag k="addr:postcode" v="78723"/></node><node id="-858" lat="30.294132" lon="-97.702152" changeset="false"><tag k="addr:street" v="Zach Scott Street"/><tag k="addr:housenumber" v="2217"/><tag k="addr:postcode" v="78723"/></node><node id="-859" lat="30.294148" lon="-97.701592" changeset="false"><tag k="addr:street" v="Zach Scott Street"/><tag k="addr:housenumber" v="2241"/><tag k="addr:postcode" v="78723"/></node><node id="-860" lat="30.294153" lon="-97.701516" changeset="false"><tag k="addr:street" v="Zach Scott Street"/><tag k="addr:housenumber" v="2245"/><tag k="addr:postcode" v="78723"/></node><node id="-861" lat="30.294141" lon="-97.701743" changeset="false"><tag k="addr:street" v="Zach Scott Street"/><tag k="addr:housenumber" v="2233"/><tag k="addr:postcode" v="78723"/></node><node id="-862" lat="30.294146" lon="-97.701656" changeset="false"><tag k="addr:street" v="Zach Scott Street"/><tag k="addr:housenumber" v="2237"/><tag k="addr:postcode" v="78723"/></node><node id="-863" lat="30.294424" lon="-97.703091" changeset="false"><tag k="addr:street" v="Zach Scott Street"/><tag k="addr:housenumber" v="2120"/><tag k="addr:postcode" v="78723"/></node><node id="-864" lat="30.294434" lon="-97.702855" changeset="false"><tag k="addr:street" v="Zach Scott Street"/><tag k="addr:housenumber" v="2132"/><tag k="addr:postcode" v="78723"/></node><node id="-865" lat="30.294428" lon="-97.703009" changeset="false"><tag k="addr:street" v="Zach Scott Street"/><tag k="addr:housenumber" v="2124"/><tag k="addr:postcode" v="78723"/></node><node id="-866" lat="30.294431" lon="-97.702942" changeset="false"><tag k="addr:street" v="Zach Scott Street"/><tag k="addr:housenumber" v="2128"/><tag k="addr:postcode" v="78723"/></node><node id="-867" lat="30.294432" lon="-97.702248" changeset="false"><tag k="addr:street" v="Zach Scott Street"/><tag k="addr:housenumber" v="2216"/><tag k="addr:postcode" v="78723"/></node><node id="-868" lat="30.294434" lon="-97.702168" changeset="false"><tag k="addr:street" v="Zach Scott Street"/><tag k="addr:housenumber" v="2220"/><tag k="addr:postcode" v="78723"/></node><node id="-869" lat="30.294438" lon="-97.702013" changeset="false"><tag k="addr:street" v="Zach Scott Street"/><tag k="addr:housenumber" v="2228"/><tag k="addr:postcode" v="78723"/></node><node id="-870" lat="30.294433" lon="-97.702093" changeset="false"><tag k="addr:street" v="Zach Scott Street"/><tag k="addr:housenumber" v="2224"/><tag k="addr:postcode" v="78723"/></node><node id="-871" lat="30.294431" lon="-97.702335" changeset="false"><tag k="addr:street" v="Zach Scott Street"/><tag k="addr:housenumber" v="2212"/><tag k="addr:postcode" v="78723"/></node><node id="-872" lat="30.294427" lon="-97.702482" changeset="false"><tag k="addr:street" v="Zach Scott Street"/><tag k="addr:housenumber" v="2204"/><tag k="addr:postcode" v="78723"/></node><node id="-873" lat="30.294429" lon="-97.702415" changeset="false"><tag k="addr:street" v="Zach Scott Street"/><tag k="addr:housenumber" v="2208"/><tag k="addr:postcode" v="78723"/></node><node id="-874" lat="30.294425" lon="-97.702562" changeset="false"><tag k="addr:street" v="Zach Scott Street"/><tag k="addr:housenumber" v="2200"/><tag k="addr:postcode" v="78723"/></node><node id="-875" lat="30.294447" lon="-97.701599" changeset="false"><tag k="addr:street" v="Zach Scott Street"/><tag k="addr:housenumber" v="2240"/><tag k="addr:postcode" v="78723"/></node><node id="-876" lat="30.294445" lon="-97.701528" changeset="false"><tag k="addr:street" v="Zach Scott Street"/><tag k="addr:housenumber" v="2244"/><tag k="addr:postcode" v="78723"/></node><node id="-877" lat="30.294438" lon="-97.701675" changeset="false"><tag k="addr:street" v="Zach Scott Street"/><tag k="addr:housenumber" v="2236"/><tag k="addr:postcode" v="78723"/></node><node id="-878" lat="30.294439" lon="-97.701754" changeset="false"><tag k="addr:street" v="Zach Scott Street"/><tag k="addr:housenumber" v="2232"/><tag k="addr:postcode" v="78723"/></node><node id="-879" lat="30.293508" lon="-97.702928" changeset="false"><tag k="addr:street" v="Mattie Street"/><tag k="addr:housenumber" v="4132"/><tag k="addr:postcode" v="78723"/></node><node id="-880" lat="30.293425" lon="-97.702928" changeset="false"><tag k="addr:street" v="Mattie Street"/><tag k="addr:housenumber" v="4128"/><tag k="addr:postcode" v="78723"/></node><node id="-881" lat="30.293746" lon="-97.702938" changeset="false"><tag k="addr:street" v="Mattie Street"/><tag k="addr:housenumber" v="4148"/><tag k="addr:postcode" v="78723"/></node><node id="-882" lat="30.293563" lon="-97.70294" changeset="false"><tag k="addr:street" v="Mattie Street"/><tag k="addr:housenumber" v="4136"/><tag k="addr:postcode" v="78723"/></node><node id="-883" lat="30.293688" lon="-97.702932" changeset="false"><tag k="addr:street" v="Mattie Street"/><tag k="addr:housenumber" v="4144"/><tag k="addr:postcode" v="78723"/></node><node id="-884" lat="30.293624" lon="-97.702944" changeset="false"><tag k="addr:street" v="Mattie Street"/><tag k="addr:housenumber" v="4140"/><tag k="addr:postcode" v="78723"/></node><node id="-885" lat="30.29382" lon="-97.702944" changeset="false"><tag k="addr:street" v="Mattie Street"/><tag k="addr:housenumber" v="4152"/><tag k="addr:postcode" v="78723"/></node><node id="-886" lat="30.293696" lon="-97.702458" changeset="false"><tag k="addr:street" v="Mattie Street"/><tag k="addr:housenumber" v="4145"/><tag k="addr:postcode" v="78723"/></node><node id="-887" lat="30.293641" lon="-97.702455" changeset="false"><tag k="addr:street" v="Mattie Street"/><tag k="addr:housenumber" v="4141"/><tag k="addr:postcode" v="78723"/></node><node id="-888" lat="30.293834" lon="-97.70245" changeset="false"><tag k="addr:street" v="Mattie Street"/><tag k="addr:housenumber" v="4153"/><tag k="addr:postcode" v="78723"/></node><node id="-889" lat="30.293766" lon="-97.70246" changeset="false"><tag k="addr:street" v="Mattie Street"/><tag k="addr:housenumber" v="4149"/><tag k="addr:postcode" v="78723"/></node><node id="-890" lat="30.293579" lon="-97.702457" changeset="false"><tag k="addr:street" v="Mattie Street"/><tag k="addr:housenumber" v="4137"/><tag k="addr:postcode" v="78723"/></node><node id="-891" lat="30.293444" lon="-97.702441" changeset="false"><tag k="addr:street" v="Mattie Street"/><tag k="addr:housenumber" v="4129"/><tag k="addr:postcode" v="78723"/></node><node id="-892" lat="30.29352" lon="-97.702451" changeset="false"><tag k="addr:street" v="Mattie Street"/><tag k="addr:housenumber" v="4133"/><tag k="addr:postcode" v="78723"/></node><node id="-893" lat="30.294128" lon="-97.702482" changeset="false"><tag k="addr:street" v="Zach Scott Street"/><tag k="addr:housenumber" v="2201"/><tag k="addr:postcode" v="78723"/></node><node id="-894" lat="30.29413" lon="-97.702398" changeset="false"><tag k="addr:street" v="Zach Scott Street"/><tag k="addr:housenumber" v="2205"/><tag k="addr:postcode" v="78723"/></node><node id="-895" lat="30.294128" lon="-97.702319" changeset="false"><tag k="addr:street" v="Zach Scott Street"/><tag k="addr:housenumber" v="2209"/><tag k="addr:postcode" v="78723"/></node><node id="-896" lat="30.294077" lon="-97.702998" changeset="false"><tag k="addr:street" v="Zach Scott Street"/><tag k="addr:housenumber" v="2121"/><tag k="addr:postcode" v="78723"/></node><node id="-897" lat="30.294083" lon="-97.702924" changeset="false"><tag k="addr:street" v="Zach Scott Street"/><tag k="addr:housenumber" v="2125"/><tag k="addr:postcode" v="78723"/></node><node id="-898" lat="30.294074" lon="-97.703076" changeset="false"><tag k="addr:street" v="Zach Scott Street"/><tag k="addr:housenumber" v="2117"/><tag k="addr:postcode" v="78723"/></node><node id="-899" lat="30.292909" lon="-97.700164" changeset="false"><tag k="addr:street" v="Berkman Drive"/><tag k="addr:housenumber" v="4056"/><tag k="addr:postcode" v="78723"/></node><node id="-900" lat="30.29285" lon="-97.700142" changeset="false"><tag k="addr:street" v="Berkman Drive"/><tag k="addr:housenumber" v="4052"/><tag k="addr:postcode" v="78723"/></node><node id="-901" lat="30.292721" lon="-97.700094" changeset="false"><tag k="addr:street" v="Berkman Drive"/><tag k="addr:housenumber" v="4044"/><tag k="addr:postcode" v="78723"/></node><node id="-902" lat="30.292787" lon="-97.700116" changeset="false"><tag k="addr:street" v="Berkman Drive"/><tag k="addr:housenumber" v="4048"/><tag k="addr:postcode" v="78723"/></node><node id="-903" lat="30.292979" lon="-97.700186" changeset="false"><tag k="addr:street" v="Berkman Drive"/><tag k="addr:housenumber" v="4060"/><tag k="addr:postcode" v="78723"/></node><node id="-904" lat="30.293283" lon="-97.700298" changeset="false"><tag k="addr:street" v="Berkman Drive"/><tag k="addr:housenumber" v="4104"/><tag k="addr:postcode" v="78723"/></node><node id="-905" lat="30.293342" lon="-97.700316" changeset="false"><tag k="addr:street" v="Berkman Drive"/><tag k="addr:housenumber" v="4108"/><tag k="addr:postcode" v="78723"/></node><node id="-906" lat="30.293401" lon="-97.70033" changeset="false"><tag k="addr:street" v="Berkman Drive"/><tag k="addr:housenumber" v="4112"/><tag k="addr:postcode" v="78723"/></node><node id="-907" lat="30.29321" lon="-97.70027" changeset="false"><tag k="addr:street" v="Berkman Drive"/><tag k="addr:housenumber" v="4100"/><tag k="addr:postcode" v="78723"/></node><node id="-908" lat="30.293477" lon="-97.700352" changeset="false"><tag k="addr:street" v="Berkman Drive"/><tag k="addr:housenumber" v="4116"/><tag k="addr:postcode" v="78723"/></node><node id="-909" lat="30.29222" lon="-97.699798" changeset="false"><tag k="addr:street" v="Berkman Drive"/><tag k="addr:housenumber" v="4012"/><tag k="addr:postcode" v="78723"/></node><node id="-910" lat="30.292282" lon="-97.699833" changeset="false"><tag k="addr:street" v="Berkman Drive"/><tag k="addr:housenumber" v="4016"/><tag k="addr:postcode" v="78723"/></node><node id="-911" lat="30.292168" lon="-97.699763" changeset="false"><tag k="addr:street" v="Berkman Drive"/><tag k="addr:housenumber" v="4008"/><tag k="addr:postcode" v="78723"/></node><node id="-912" lat="30.292119" lon="-97.699721" changeset="false"><tag k="addr:street" v="Berkman Drive"/><tag k="addr:housenumber" v="4004"/><tag k="addr:postcode" v="78723"/></node><node id="-913" lat="30.292052" lon="-97.699675" changeset="false"><tag k="addr:street" v="Berkman Drive"/><tag k="addr:housenumber" v="4000"/><tag k="addr:postcode" v="78723"/></node><node id="-914" lat="30.292526" lon="-97.699988" changeset="false"><tag k="addr:street" v="Berkman Drive"/><tag k="addr:housenumber" v="4032"/><tag k="addr:postcode" v="78723"/></node><node id="-915" lat="30.292578" lon="-97.700018" changeset="false"><tag k="addr:street" v="Berkman Drive"/><tag k="addr:housenumber" v="4036"/><tag k="addr:postcode" v="78723"/></node><node id="-916" lat="30.292407" lon="-97.699924" changeset="false"><tag k="addr:street" v="Berkman Drive"/><tag k="addr:housenumber" v="4024"/><tag k="addr:postcode" v="78723"/></node><node id="-917" lat="30.292348" lon="-97.699886" changeset="false"><tag k="addr:street" v="Berkman Drive"/><tag k="addr:housenumber" v="4020"/><tag k="addr:postcode" v="78723"/></node><node id="-918" lat="30.292467" lon="-97.699962" changeset="false"><tag k="addr:street" v="Berkman Drive"/><tag k="addr:housenumber" v="4028"/><tag k="addr:postcode" v="78723"/></node><node id="-919" lat="30.292648" lon="-97.700056" changeset="false"><tag k="addr:street" v="Berkman Drive"/><tag k="addr:housenumber" v="4040"/><tag k="addr:postcode" v="78723"/></node><node id="-920" lat="30.292988" lon="-97.702421" changeset="false"><tag k="addr:street" v="Mattie Street"/><tag k="addr:housenumber" v="4101"/><tag k="addr:postcode" v="78723"/></node><node id="-921" lat="30.293178" lon="-97.702432" changeset="false"><tag k="addr:street" v="Mattie Street"/><tag k="addr:housenumber" v="4113"/><tag k="addr:postcode" v="78723"/></node><node id="-922" lat="30.293054" lon="-97.702432" changeset="false"><tag k="addr:street" v="Mattie Street"/><tag k="addr:housenumber" v="4105"/><tag k="addr:postcode" v="78723"/></node><node id="-923" lat="30.293303" lon="-97.702441" changeset="false"><tag k="addr:street" v="Mattie Street"/><tag k="addr:housenumber" v="4121"/><tag k="addr:postcode" v="78723"/></node><node id="-924" lat="30.293237" lon="-97.702443" changeset="false"><tag k="addr:street" v="Mattie Street"/><tag k="addr:housenumber" v="4117"/><tag k="addr:postcode" v="78723"/></node><node id="-925" lat="30.293372" lon="-97.702443" changeset="false"><tag k="addr:street" v="Mattie Street"/><tag k="addr:housenumber" v="4125"/><tag k="addr:postcode" v="78723"/></node><node id="-926" lat="30.293116" lon="-97.70243" changeset="false"><tag k="addr:street" v="Mattie Street"/><tag k="addr:housenumber" v="4109"/><tag k="addr:postcode" v="78723"/></node><node id="-927" lat="30.293039" lon="-97.702907" changeset="false"><tag k="addr:street" v="Mattie Street"/><tag k="addr:housenumber" v="4104"/><tag k="addr:postcode" v="78723"/></node><node id="-928" lat="30.293288" lon="-97.702919" changeset="false"><tag k="addr:street" v="Mattie Street"/><tag k="addr:housenumber" v="4120"/><tag k="addr:postcode" v="78723"/></node><node id="-929" lat="30.293101" lon="-97.702908" changeset="false"><tag k="addr:street" v="Mattie Street"/><tag k="addr:housenumber" v="4108"/><tag k="addr:postcode" v="78723"/></node><node id="-930" lat="30.293226" lon="-97.70292" changeset="false"><tag k="addr:street" v="Mattie Street"/><tag k="addr:housenumber" v="4116"/><tag k="addr:postcode" v="78723"/></node><node id="-931" lat="30.293351" lon="-97.702925" changeset="false"><tag k="addr:street" v="Mattie Street"/><tag k="addr:housenumber" v="4124"/><tag k="addr:postcode" v="78723"/></node><node id="-932" lat="30.292949" lon="-97.702853" changeset="false"><tag k="addr:street" v="Mattie Street"/><tag k="addr:housenumber" v="4100 1/2"/><tag k="addr:postcode" v="78723"/></node><node id="-933" lat="30.292972" lon="-97.702911" changeset="false"><tag k="addr:street" v="Mattie Street"/><tag k="addr:housenumber" v="4100"/><tag k="addr:postcode" v="78723"/></node><node id="-934" lat="30.293161" lon="-97.702914" changeset="false"><tag k="addr:street" v="Mattie Street"/><tag k="addr:housenumber" v="4112"/><tag k="addr:postcode" v="78723"/></node><node id="-935" lat="30.294406" lon="-97.703864" changeset="false"><tag k="addr:street" v="Zach Scott Street"/><tag k="addr:housenumber" v="2048"/><tag k="addr:postcode" v="78723"/></node><node id="-936" lat="30.294413" lon="-97.703561" changeset="false"><tag k="addr:street" v="Zach Scott Street"/><tag k="addr:housenumber" v="2064"/><tag k="addr:postcode" v="78723"/></node><node id="-937" lat="30.294409" lon="-97.703643" changeset="false"><tag k="addr:street" v="Zach Scott Street"/><tag k="addr:housenumber" v="2060"/><tag k="addr:postcode" v="78723"/></node><node id="-938" lat="30.294404" lon="-97.703786" changeset="false"><tag k="addr:street" v="Zach Scott Street"/><tag k="addr:housenumber" v="2052"/><tag k="addr:postcode" v="78723"/></node><node id="-939" lat="30.294409" lon="-97.703714" changeset="false"><tag k="addr:street" v="Zach Scott Street"/><tag k="addr:housenumber" v="2056"/><tag k="addr:postcode" v="78723"/></node><node id="-940" lat="30.294416" lon="-97.703327" changeset="false"><tag k="addr:street" v="Zach Scott Street"/><tag k="addr:housenumber" v="2108"/><tag k="addr:postcode" v="78723"/></node><node id="-941" lat="30.294413" lon="-97.703395" changeset="false"><tag k="addr:street" v="Zach Scott Street"/><tag k="addr:housenumber" v="2104"/><tag k="addr:postcode" v="78723"/></node><node id="-942" lat="30.29441" lon="-97.703474" changeset="false"><tag k="addr:street" v="Zach Scott Street"/><tag k="addr:housenumber" v="2100"/><tag k="addr:postcode" v="78723"/></node><node id="-943" lat="30.294416" lon="-97.703255" changeset="false"><tag k="addr:street" v="Zach Scott Street"/><tag k="addr:housenumber" v="2112"/><tag k="addr:postcode" v="78723"/></node><node id="-944" lat="30.29442" lon="-97.703182" changeset="false"><tag k="addr:street" v="Zach Scott Street"/><tag k="addr:housenumber" v="2116"/><tag k="addr:postcode" v="78723"/></node><node id="-945" lat="30.294062" lon="-97.703245" changeset="false"><tag k="addr:street" v="Zach Scott Street"/><tag k="addr:housenumber" v="2109"/><tag k="addr:postcode" v="78723"/></node><node id="-946" lat="30.294056" lon="-97.703394" changeset="false"><tag k="addr:street" v="Zach Scott Street"/><tag k="addr:housenumber" v="2101"/><tag k="addr:postcode" v="78723"/></node><node id="-947" lat="30.294064" lon="-97.703316" changeset="false"><tag k="addr:street" v="Zach Scott Street"/><tag k="addr:housenumber" v="2105"/><tag k="addr:postcode" v="78723"/></node><node id="-948" lat="30.294069" lon="-97.703174" changeset="false"><tag k="addr:street" v="Zach Scott Street"/><tag k="addr:housenumber" v="2113"/><tag k="addr:postcode" v="78723"/></node><node id="-949" lat="30.29405" lon="-97.703869" changeset="false"><tag k="addr:street" v="Zach Scott Street"/><tag k="addr:housenumber" v="2049"/><tag k="addr:postcode" v="78723"/></node><node id="-950" lat="30.294065" lon="-97.703651" changeset="false"><tag k="addr:street" v="Zach Scott Street"/><tag k="addr:housenumber" v="2061"/><tag k="addr:postcode" v="78723"/></node><node id="-951" lat="30.294063" lon="-97.703725" changeset="false"><tag k="addr:street" v="Zach Scott Street"/><tag k="addr:housenumber" v="2057"/><tag k="addr:postcode" v="78723"/></node><node id="-952" lat="30.294058" lon="-97.703793" changeset="false"><tag k="addr:street" v="Zach Scott Street"/><tag k="addr:housenumber" v="2053"/><tag k="addr:postcode" v="78723"/></node><node id="-953" lat="30.294402" lon="-97.703945" changeset="false"><tag k="addr:street" v="Zach Scott Street"/><tag k="addr:housenumber" v="2044"/><tag k="addr:postcode" v="78723"/></node><node id="-954" lat="30.294396" lon="-97.704102" changeset="false"><tag k="addr:street" v="Zach Scott Street"/><tag k="addr:housenumber" v="2036"/><tag k="addr:postcode" v="78723"/></node><node id="-955" lat="30.294399" lon="-97.704027" changeset="false"><tag k="addr:street" v="Zach Scott Street"/><tag k="addr:housenumber" v="2040"/><tag k="addr:postcode" v="78723"/></node><node id="-956" lat="30.294393" lon="-97.704187" changeset="false"><tag k="addr:street" v="Zach Scott Street"/><tag k="addr:housenumber" v="2032"/><tag k="addr:postcode" v="78723"/></node><node id="-957" lat="30.294391" lon="-97.704451" changeset="false"><tag k="addr:street" v="Zach Scott Street"/><tag k="addr:housenumber" v="2028"/><tag k="addr:postcode" v="78723"/></node><node id="-958" lat="30.294391" lon="-97.704527" changeset="false"><tag k="addr:street" v="Zach Scott Street"/><tag k="addr:housenumber" v="2024"/><tag k="addr:postcode" v="78723"/></node><node id="-959" lat="30.294386" lon="-97.704683" changeset="false"><tag k="addr:street" v="Zach Scott Street"/><tag k="addr:housenumber" v="2016"/><tag k="addr:postcode" v="78723"/></node><node id="-960" lat="30.294387" lon="-97.704598" changeset="false"><tag k="addr:street" v="Zach Scott Street"/><tag k="addr:housenumber" v="2020"/><tag k="addr:postcode" v="78723"/></node><node id="-961" lat="30.29402" lon="-97.704694" changeset="false"><tag k="addr:street" v="Zach Scott Street"/><tag k="addr:housenumber" v="2017"/><tag k="addr:postcode" v="78723"/></node><node id="-962" lat="30.294024" lon="-97.704592" changeset="false"><tag k="addr:street" v="Zach Scott Street"/><tag k="addr:housenumber" v="2021"/><tag k="addr:postcode" v="78723"/></node><node id="-963" lat="30.294035" lon="-97.704439" changeset="false"><tag k="addr:street" v="Zach Scott Street"/><tag k="addr:housenumber" v="2029"/><tag k="addr:postcode" v="78723"/></node><node id="-964" lat="30.294025" lon="-97.704518" changeset="false"><tag k="addr:street" v="Zach Scott Street"/><tag k="addr:housenumber" v="2025"/><tag k="addr:postcode" v="78723"/></node><node id="-965" lat="30.294014" lon="-97.704894" changeset="false"><tag k="addr:street" v="Zach Scott Street"/><tag k="addr:housenumber" v="2005"/><tag k="addr:postcode" v="78723"/></node><node id="-966" lat="30.294012" lon="-97.704978" changeset="false"><tag k="addr:street" v="Zach Scott Street"/><tag k="addr:housenumber" v="2001"/><tag k="addr:postcode" v="78723"/></node><node id="-967" lat="30.294018" lon="-97.704832" changeset="false"><tag k="addr:street" v="Zach Scott Street"/><tag k="addr:housenumber" v="2009"/><tag k="addr:postcode" v="78723"/></node><node id="-968" lat="30.294016" lon="-97.704751" changeset="false"><tag k="addr:street" v="Zach Scott Street"/><tag k="addr:housenumber" v="2013"/><tag k="addr:postcode" v="78723"/></node><node id="-969" lat="30.29403" lon="-97.704182" changeset="false"><tag k="addr:street" v="Zach Scott Street"/><tag k="addr:housenumber" v="2033"/><tag k="addr:postcode" v="78723"/></node><node id="-970" lat="30.294035" lon="-97.704105" changeset="false"><tag k="addr:street" v="Zach Scott Street"/><tag k="addr:housenumber" v="2037"/><tag k="addr:postcode" v="78723"/></node><node id="-971" lat="30.29404" lon="-97.704042" changeset="false"><tag k="addr:street" v="Zach Scott Street"/><tag k="addr:housenumber" v="2041"/><tag k="addr:postcode" v="78723"/></node><node id="-972" lat="30.294043" lon="-97.703963" changeset="false"><tag k="addr:street" v="Zach Scott Street"/><tag k="addr:housenumber" v="2045"/><tag k="addr:postcode" v="78723"/></node><node id="-973" lat="30.294381" lon="-97.704839" changeset="false"><tag k="addr:street" v="Zach Scott Street"/><tag k="addr:housenumber" v="2008"/><tag k="addr:postcode" v="78723"/></node><node id="-974" lat="30.294378" lon="-97.704983" changeset="false"><tag k="addr:street" v="Zach Scott Street"/><tag k="addr:housenumber" v="2000"/><tag k="addr:postcode" v="78723"/></node><node id="-975" lat="30.294381" lon="-97.70476" changeset="false"><tag k="addr:street" v="Zach Scott Street"/><tag k="addr:housenumber" v="2012"/><tag k="addr:postcode" v="78723"/></node><node id="-976" lat="30.29438" lon="-97.704909" changeset="false"><tag k="addr:street" v="Zach Scott Street"/><tag k="addr:housenumber" v="2004"/><tag k="addr:postcode" v="78723"/></node><node id="-977" lat="30.293622" lon="-97.704439" changeset="false"><tag k="addr:street" v="Scales Street"/><tag k="addr:housenumber" v="4132"/><tag k="addr:postcode" v="78723"/></node><node id="-978" lat="30.293697" lon="-97.704442" changeset="false"><tag k="addr:street" v="Scales Street"/><tag k="addr:housenumber" v="4128"/><tag k="addr:postcode" v="78723"/></node><node id="-979" lat="30.305582" lon="-97.707278" changeset="false"><tag k="addr:street" v="Barbara Jordan Boulevard"/><tag k="addr:housenumber" v="1301"/><tag k="addr:postcode" v="78723"/></node><node id="-980" lat="30.305496" lon="-97.706949" changeset="false"><tag k="addr:street" v="Barbara Jordan Boulevard"/><tag k="addr:housenumber" v="1311 1/2"/><tag k="addr:postcode" v="78723"/></node><node id="-981" lat="30.297312" lon="-97.707272" changeset="false"><tag k="addr:street" v="Mueller Boulevard"/><tag k="addr:housenumber" v="4550 1/2"/><tag k="addr:postcode" v="78723"/></node><node id="-982" lat="30.297208" lon="-97.70734" changeset="false"><tag k="addr:street" v="Mueller Boulevard"/><tag k="addr:housenumber" v="4550"/><tag k="addr:postcode" v="78723"/></node><node id="-983" lat="30.299483" lon="-97.708043" changeset="false"><tag k="addr:street" v="Mueller Boulevard"/><tag k="addr:housenumber" v="4600"/><tag k="addr:postcode" v="78723"/></node><node id="-984" lat="30.298301" lon="-97.707521" changeset="false"><tag k="addr:street" v="Aldrich Street"/><tag k="addr:housenumber" v="1716 1/2"/><tag k="addr:postcode" v="78723"/></node></osm>