<?xml version="1.0" encoding="UTF-8"?><osm version="0.6" generator="github.com/aaronlidman/osm-and-geojson"><node id="-1" lat="30.255991" lon="-97.773" changeset="false"><tag k="addr:street" v="Wright Street"/><tag k="addr:housenumber" v="2018"/><tag k="addr:postcode" v="78704"/></node><node id="-2" lat="30.255589" lon="-97.776037" changeset="false"><tag k="addr:street" v="Rabb Road"/><tag k="addr:housenumber" v="1709"/><tag k="addr:postcode" v="78704"/></node><node id="-3" lat="30.255368" lon="-97.77571" changeset="false"><tag k="addr:street" v="Norris Drive"/><tag k="addr:housenumber" v="1710"/><tag k="addr:postcode" v="78704"/></node><node id="-4" lat="30.254691" lon="-97.771984" changeset="false"><tag k="addr:street" v="Bluebonnet Lane"/><tag k="addr:housenumber" v="1701"/><tag k="addr:postcode" v="78704"/></node><node id="-5" lat="30.254654" lon="-97.771875" changeset="false"><tag k="addr:street" v="Anita Drive"/><tag k="addr:housenumber" v="1913"/><tag k="addr:postcode" v="78704"/></node><node id="-6" lat="30.257121" lon="-97.773134" changeset="false"><tag k="addr:street" v="Ashby Avenue"/><tag k="addr:housenumber" v="2106"/><tag k="addr:postcode" v="78704"/></node><node id="-7" lat="30.252231" lon="-97.771232" changeset="false"><tag k="addr:street" v="Goodrich Avenue"/><tag k="addr:housenumber" v="1908"/><tag k="addr:postcode" v="78704"/></node><node id="-8" lat="30.257666" lon="-97.772725" changeset="false"><tag k="addr:street" v="Melridge Place"/><tag k="addr:housenumber" v="2109"/><tag k="addr:postcode" v="78704"/></node><node id="-9" lat="30.257202" lon="-97.773864" changeset="false"><tag k="addr:street" v="Rabb Road"/><tag k="addr:housenumber" v="1501"/><tag k="addr:postcode" v="78704"/></node><node id="-10" lat="30.255504" lon="-97.771771" changeset="false"><tag k="addr:street" v="Bluebonnet Lane"/><tag k="addr:housenumber" v="1512"/><tag k="addr:postcode" v="78704"/></node><node id="-11" lat="30.25579" lon="-97.775892" changeset="false"><tag k="addr:street" v="Rabb Road"/><tag k="addr:housenumber" v="1707"/><tag k="addr:postcode" v="78704"/></node><node id="-12" lat="30.251092" lon="-97.769827" changeset="false"><tag k="addr:street" v="Hether Street"/><tag k="addr:housenumber" v="1606"/><tag k="addr:postcode" v="78704"/></node><node id="-13" lat="30.256976" lon="-97.772881" changeset="false"><tag k="addr:street" v="Ashby Avenue"/><tag k="addr:housenumber" v="2102"/><tag k="addr:postcode" v="78704"/></node><node id="-14" lat="30.254903" lon="-97.775541" changeset="false"><tag k="addr:street" v="Norris Drive"/><tag k="addr:housenumber" v="1715"/><tag k="addr:postcode" v="78704"/></node><node id="-15" lat="30.252223" lon="-97.770132" changeset="false"><tag k="addr:street" v="Bauerle Avenue"/><tag k="addr:housenumber" v="1704"/><tag k="addr:postcode" v="78704"/></node><node id="-16" lat="30.2576" lon="-97.772593" changeset="false"><tag k="addr:street" v="Melridge Place"/><tag k="addr:housenumber" v="2107"/><tag k="addr:postcode" v="78704"/></node><node id="-17" lat="30.252846" lon="-97.76923" changeset="false"><tag k="addr:street" v="Nash Avenue"/><tag k="addr:housenumber" v="1618"/><tag k="addr:postcode" v="78704"/></node><node id="-18" lat="30.257004" lon="-97.773576" changeset="false"><tag k="addr:street" v="Ashby Avenue"/><tag k="addr:housenumber" v="2113"/><tag k="addr:postcode" v="78704"/></node><node id="-19" lat="30.254559" lon="-97.773076" changeset="false"><tag k="addr:street" v="Peach Tree Street"/><tag k="addr:housenumber" v="2007"/><tag k="addr:postcode" v="78704"/></node><node id="-20" lat="30.256857" lon="-97.773572" changeset="false"><tag k="addr:street" v="Ashby Avenue"/><tag k="addr:housenumber" v="2109"/><tag k="addr:postcode" v="78704"/></node><node id="-21" lat="30.252648" lon="-97.77128" changeset="false"><tag k="addr:street" v="Goodrich Avenue"/><tag k="addr:housenumber" v="1904"/><tag k="addr:postcode" v="78704"/></node><node id="-22" lat="30.254358" lon="-97.772506" changeset="false"><tag k="addr:street" v="Bluebonnet Lane"/><tag k="addr:housenumber" v="1708"/><tag k="addr:postcode" v="78704"/></node><node id="-23" lat="30.254382" lon="-97.77464" changeset="false"><tag k="addr:street" v="Ford Street"/><tag k="addr:housenumber" v="2023"/><tag k="addr:postcode" v="78704"/></node><node id="-24" lat="30.25651" lon="-97.772959" changeset="false"><tag k="addr:street" v="Ashby Avenue"/><tag k="addr:housenumber" v="2101"/><tag k="addr:postcode" v="78704"/></node><node id="-25" lat="30.256452" lon="-97.772815" changeset="false"><tag k="addr:street" v="Ashby Avenue"/><tag k="addr:housenumber" v="2019"/><tag k="addr:postcode" v="78704"/></node><node id="-26" lat="30.256211" lon="-97.773297" changeset="false"><tag k="addr:street" v="Wright Street"/><tag k="addr:housenumber" v="2102"/><tag k="addr:postcode" v="78704"/></node><node id="-27" lat="30.256069" lon="-97.773214" changeset="false"><tag k="addr:street" v="Wright Street"/><tag k="addr:housenumber" v="2100"/><tag k="addr:postcode" v="78704"/></node><node id="-28" lat="30.256967" lon="-97.77448" changeset="false"><tag k="addr:street" v="Rabb Road"/><tag k="addr:housenumber" v="1507"/><tag k="addr:postcode" v="78704"/></node><node id="-29" lat="30.256861" lon="-97.774583" changeset="false"><tag k="addr:street" v="Norris Drive"/><tag k="addr:housenumber" v="1601"/><tag k="addr:postcode" v="78704"/></node><node id="-30" lat="30.252486" lon="-97.772689" changeset="false"><tag k="addr:street" v="Hether Street"/><tag k="addr:housenumber" v="1906"/><tag k="addr:postcode" v="78704"/></node><node id="-31" lat="30.25255" lon="-97.772857" changeset="false"><tag k="addr:street" v="Hether Street"/><tag k="addr:housenumber" v="1908"/><tag k="addr:postcode" v="78704"/></node><node id="-32" lat="30.254814" lon="-97.776598" changeset="false"><tag k="addr:street" v="Rabb Road"/><tag k="addr:housenumber" v="1801"/><tag k="addr:postcode" v="78704"/></node><node id="-33" lat="30.254761" lon="-97.776692" changeset="false"><tag k="addr:street" v="Rabb Road"/><tag k="addr:housenumber" v="1809"/><tag k="addr:postcode" v="78704"/></node><node id="-34" lat="30.254302" lon="-97.775748" changeset="false"><tag k="addr:street" v="Rundell Place"/><tag k="addr:housenumber" v="2104"/><tag k="addr:postcode" v="78704"/></node><node id="-35" lat="30.254345" lon="-97.775845" changeset="false"><tag k="addr:street" v="Rundell Place"/><tag k="addr:housenumber" v="2106"/><tag k="addr:postcode" v="78704"/></node></osm>