<?xml version="1.0" encoding="UTF-8"?><osm version="0.6" generator="github.com/aaronlidman/osm-and-geojson"><node id="-1" lat="30.296567" lon="-97.735242" changeset="false"><tag k="addr:street" v="Helms Street"/><tag k="addr:housenumber" v="3205 1/2"/><tag k="addr:postcode" v="78705"/></node><node id="-2" lat="30.296479" lon="-97.735575" changeset="false"><tag k="addr:street" v="Helms Street"/><tag k="addr:housenumber" v="3206"/><tag k="addr:postcode" v="78705"/></node><node id="-3" lat="30.294866" lon="-97.732524" changeset="false"><tag k="addr:street" v="Duval Street"/><tag k="addr:housenumber" v="3202"/><tag k="addr:postcode" v="78705"/></node><node id="-4" lat="30.296381" lon="-97.735638" changeset="false"><tag k="addr:street" v="Helms Street"/><tag k="addr:housenumber" v="3204"/><tag k="addr:postcode" v="78705"/></node><node id="-5" lat="30.299102" lon="-97.73247" changeset="false"><tag k="addr:street" v="Grooms Street"/><tag k="addr:housenumber" v="3605 1/2"/><tag k="addr:postcode" v="78705"/></node><node id="-6" lat="30.29664" lon="-97.731985" changeset="false"><tag k="addr:street" v="East 34th Street"/><tag k="addr:housenumber" v="405"/><tag k="addr:postcode" v="78705"/></node><node id="-7" lat="30.297036" lon="-97.733715" changeset="false"><tag k="addr:street" v="Grooms Street"/><tag k="addr:housenumber" v="3309"/><tag k="addr:postcode" v="78705"/></node><node id="-8" lat="30.298036" lon="-97.73308" changeset="false"><tag k="addr:street" v="Grooms Street"/><tag k="addr:housenumber" v="3409"/><tag k="addr:postcode" v="78705"/></node><node id="-9" lat="30.299339" lon="-97.731293" changeset="false"><tag k="addr:street" v="East 38th Street"/><tag k="addr:housenumber" v="311"/><tag k="addr:postcode" v="78705"/></node><node id="-10" lat="30.299774" lon="-97.732312" changeset="false"><tag k="addr:street" v="Grooms Street"/><tag k="addr:housenumber" v="3712"/><tag k="addr:postcode" v="78705"/></node><node id="-11" lat="30.29524" lon="-97.733601" changeset="false"><tag k="addr:street" v="Tom Green Street"/><tag k="addr:housenumber" v="3200 1/2"/><tag k="addr:postcode" v="78705"/></node><node id="-12" lat="30.295556" lon="-97.731952" changeset="false"><tag k="addr:street" v="Duval Street"/><tag k="addr:housenumber" v="3220"/><tag k="addr:postcode" v="78705"/></node><node id="-13" lat="30.299945" lon="-97.73265" changeset="false"><tag k="addr:street" v="Griffith Street"/><tag k="addr:housenumber" v="3717"/><tag k="addr:postcode" v="78705"/></node><node id="-14" lat="30.299743" lon="-97.732324" changeset="false"><tag k="addr:street" v="Grooms Street"/><tag k="addr:housenumber" v="3710"/><tag k="addr:postcode" v="78705"/></node><node id="-15" lat="30.299146" lon="-97.732369" changeset="false"><tag k="addr:street" v="Grooms Street"/><tag k="addr:housenumber" v="3701"/><tag k="addr:postcode" v="78705"/></node><node id="-16" lat="30.297738" lon="-97.733367" changeset="false"><tag k="addr:street" v="East 34th Street"/><tag k="addr:housenumber" v="300"/><tag k="addr:postcode" v="78705"/></node><node id="-17" lat="30.297946" lon="-97.733139" changeset="false"><tag k="addr:street" v="Grooms Street"/><tag k="addr:housenumber" v="3407"/><tag k="addr:postcode" v="78705"/></node><node id="-18" lat="30.296154" lon="-97.731616" changeset="false"><tag k="addr:street" v="Duval Street"/><tag k="addr:housenumber" v="3306"/><tag k="addr:postcode" v="78705"/></node><node id="-19" lat="30.29501" lon="-97.732415" changeset="false"><tag k="addr:street" v="Duval Street"/><tag k="addr:housenumber" v="3204"/><tag k="addr:postcode" v="78705"/></node><node id="-20" lat="30.296971" lon="-97.733692" changeset="false"><tag k="addr:street" v="Grooms Street"/><tag k="addr:housenumber" v="3305"/><tag k="addr:postcode" v="78705"/></node><node id="-21" lat="30.296315" lon="-97.735761" changeset="false"><tag k="addr:street" v="East 32nd Street"/><tag k="addr:housenumber" v="104"/><tag k="addr:postcode" v="78705"/></node><node id="-22" lat="30.299046" lon="-97.730877" changeset="false"><tag k="addr:street" v="East 38th Street"/><tag k="addr:housenumber" v="401"/><tag k="addr:postcode" v="78705"/></node><node id="-23" lat="30.299012" lon="-97.730935" changeset="false"><tag k="addr:street" v="Tom Green Street"/><tag k="addr:housenumber" v="3715"/><tag k="addr:postcode" v="78705"/></node><node id="-24" lat="30.298514" lon="-97.731123" changeset="false"><tag k="addr:street" v="Tom Green Street"/><tag k="addr:housenumber" v="3707"/><tag k="addr:postcode" v="78705"/></node><node id="-25" lat="30.298687" lon="-97.731073" changeset="false"><tag k="addr:street" v="Tom Green Street"/><tag k="addr:housenumber" v="3709"/><tag k="addr:postcode" v="78705"/></node><node id="-26" lat="30.298718" lon="-97.730229" changeset="false"><tag k="addr:street" v="East 38th Street"/><tag k="addr:housenumber" v="409"/><tag k="addr:postcode" v="78705"/></node><node id="-27" lat="30.298658" lon="-97.730081" changeset="false"><tag k="addr:street" v="East 38th Street"/><tag k="addr:housenumber" v="411"/><tag k="addr:postcode" v="78705"/></node><node id="-28" lat="30.298232" lon="-97.73142" changeset="false"><tag k="addr:street" v="East 35th Street"/><tag k="addr:housenumber" v="400"/><tag k="addr:postcode" v="78705"/></node><node id="-29" lat="30.298353" lon="-97.731283" changeset="false"><tag k="addr:street" v="Tom Green Street"/><tag k="addr:housenumber" v="3503"/><tag k="addr:postcode" v="78705"/></node><node id="-30" lat="30.299598" lon="-97.732064" changeset="false"><tag k="addr:street" v="East 38th Street"/><tag k="addr:housenumber" v="301"/><tag k="addr:postcode" v="78705"/></node><node id="-31" lat="30.299563" lon="-97.732134" changeset="false"><tag k="addr:street" v="Grooms Street"/><tag k="addr:housenumber" v="3709"/><tag k="addr:postcode" v="78705"/></node><node id="-32" lat="30.298864" lon="-97.732537" changeset="false"><tag k="addr:street" v="Grooms Street"/><tag k="addr:housenumber" v="3503"/><tag k="addr:postcode" v="78705"/></node><node id="-33" lat="30.298874" lon="-97.732531" changeset="false"><tag k="addr:street" v="Grooms Street"/><tag k="addr:housenumber" v="3505"/><tag k="addr:postcode" v="78705"/></node><node id="-34" lat="30.298737" lon="-97.732606" changeset="false"><tag k="addr:street" v="East 35th Street"/><tag k="addr:housenumber" v="300"/><tag k="addr:postcode" v="78705"/></node><node id="-35" lat="30.297739" lon="-97.733268" changeset="false"><tag k="addr:street" v="Grooms Street"/><tag k="addr:housenumber" v="3403"/><tag k="addr:postcode" v="78705"/></node><node id="-36" lat="30.297845" lon="-97.733202" changeset="false"><tag k="addr:street" v="Grooms Street"/><tag k="addr:housenumber" v="3405"/><tag k="addr:postcode" v="78705"/></node><node id="-37" lat="30.297734" lon="-97.733199" changeset="false"><tag k="addr:street" v="Grooms Street"/><tag k="addr:housenumber" v="3401"/><tag k="addr:postcode" v="78705"/></node><node id="-38" lat="30.297562" lon="-97.732278" changeset="false"><tag k="addr:street" v="Tom Green Street"/><tag k="addr:housenumber" v="3400"/><tag k="addr:postcode" v="78705"/></node><node id="-39" lat="30.297341" lon="-97.73241" changeset="false"><tag k="addr:street" v="East 34th Street"/><tag k="addr:housenumber" v="310"/><tag k="addr:postcode" v="78705"/></node><node id="-40" lat="30.296015" lon="-97.732466" changeset="false"><tag k="addr:street" v="East 33rd Street"/><tag k="addr:housenumber" v="406"/><tag k="addr:postcode" v="78705"/></node><node id="-41" lat="30.296131" lon="-97.732647" changeset="false"><tag k="addr:street" v="East 33rd Street"/><tag k="addr:housenumber" v="400"/><tag k="addr:postcode" v="78705"/></node><node id="-42" lat="30.296622" lon="-97.732902" changeset="false"><tag k="addr:street" v="Tom Green Street"/><tag k="addr:housenumber" v="3306"/><tag k="addr:postcode" v="78705"/></node><node id="-43" lat="30.296597" lon="-97.732983" changeset="false"><tag k="addr:street" v="Tom Green Street"/><tag k="addr:housenumber" v="3304"/><tag k="addr:postcode" v="78705"/></node><node id="-44" lat="30.296924" lon="-97.732699" changeset="false"><tag k="addr:street" v="Tom Green Street"/><tag k="addr:housenumber" v="3308"/><tag k="addr:postcode" v="78705"/></node><node id="-45" lat="30.296996" lon="-97.732623" changeset="false"><tag k="addr:street" v="East 34th Street"/><tag k="addr:housenumber" v="311"/><tag k="addr:postcode" v="78705"/></node><node id="-46" lat="30.295854" lon="-97.732974" changeset="false"><tag k="addr:street" v="Tom Green Street"/><tag k="addr:housenumber" v="3211"/><tag k="addr:postcode" v="78705"/></node><node id="-47" lat="30.295839" lon="-97.732938" changeset="false"><tag k="addr:street" v="East 33rd Street"/><tag k="addr:housenumber" v="401"/><tag k="addr:postcode" v="78705"/></node><node id="-48" lat="30.296634" lon="-97.733727" changeset="false"><tag k="addr:street" v="East 33rd Street"/><tag k="addr:housenumber" v="302"/><tag k="addr:postcode" v="78705"/></node><node id="-49" lat="30.296711" lon="-97.733849" changeset="false"><tag k="addr:street" v="East 33rd Street"/><tag k="addr:housenumber" v="300"/><tag k="addr:postcode" v="78705"/></node><node id="-50" lat="30.295122" lon="-97.733322" changeset="false"><tag k="addr:street" v="East 32nd Street"/><tag k="addr:housenumber" v="400"/><tag k="addr:postcode" v="78705"/></node><node id="-51" lat="30.295244" lon="-97.733311" changeset="false"><tag k="addr:street" v="Tom Green Street"/><tag k="addr:housenumber" v="3203"/><tag k="addr:postcode" v="78705"/></node><node id="-52" lat="30.29591" lon="-97.735087" changeset="false"><tag k="addr:street" v="East 32nd Street"/><tag k="addr:housenumber" v="208"/><tag k="addr:postcode" v="78705"/></node><node id="-53" lat="30.29589" lon="-97.734897" changeset="false"><tag k="addr:street" v="East 32nd Street"/><tag k="addr:housenumber" v="210"/><tag k="addr:postcode" v="78705"/></node></osm>