<?xml version="1.0" encoding="UTF-8"?><osm version="0.6" generator="github.com/aaronlidman/osm-and-geojson"><node id="-1" lat="30.229359" lon="-97.726213" changeset="false"><tag k="addr:street" v="South Pleasant Valley Road"/><tag k="addr:housenumber" v="2317"/><tag k="coa:place_id" v="415714"/></node><node id="-2" lat="30.227513" lon="-97.727436" changeset="false"><tag k="addr:street" v="East Oltorf Street"/><tag k="addr:housenumber" v="2514"/><tag k="coa:place_id" v="86451"/></node><node id="-3" lat="30.232589" lon="-97.722089" changeset="false"><tag k="addr:street" v="East Riverside Drive"/><tag k="addr:housenumber" v="4501"/><tag k="coa:place_id" v="162057"/></node><node id="-4" lat="30.232976" lon="-97.723782" changeset="false"><tag k="addr:street" v="East Riverside Drive"/><tag k="addr:housenumber" v="4405"/><tag k="coa:place_id" v="185328"/></node><node id="-5" lat="30.227591" lon="-97.727154" changeset="false"><tag k="addr:street" v="South Pleasant Valley Road"/><tag k="addr:housenumber" v="2433"/><tag k="coa:place_id" v="3074193"/></node><node id="-6" lat="30.227709" lon="-97.727323" changeset="false"><tag k="addr:street" v="South Pleasant Valley Road"/><tag k="addr:housenumber" v="2431 1/2"/><tag k="coa:place_id" v="3288356"/></node><node id="-7" lat="30.230168" lon="-97.725422" changeset="false"><tag k="addr:street" v="South Pleasant Valley Road"/><tag k="addr:housenumber" v="2301"/><tag k="coa:place_id" v="757515"/></node><node id="-8" lat="30.227576" lon="-97.726947" changeset="false"><tag k="addr:street" v="South Pleasant Valley Road"/><tag k="addr:housenumber" v="2433 1/2"/><tag k="coa:place_id" v="3084111"/></node><node id="-9" lat="30.232632" lon="-97.724136" changeset="false"><tag k="addr:street" v="South Pleasant Valley Road"/><tag k="addr:housenumber" v="2111"/><tag k="coa:place_id" v="52145"/></node></osm>