<?xml version="1.0" encoding="UTF-8"?><osm version="0.6" generator="github.com/aaronlidman/osm-and-geojson"><node id="-1" lat="30.185394" lon="-97.811745" changeset="false"><tag k="addr:street" v="Dittmar Road"/><tag k="addr:housenumber" v="1619 1/2"/><tag k="addr:postcode" v="78748"/></node><node id="-2" lat="30.174189" lon="-97.811477" changeset="false"><tag k="addr:street" v="West Slaughter Lane"/><tag k="addr:housenumber" v="1114"/><tag k="addr:postcode" v="78748"/></node><node id="-3" lat="30.176075" lon="-97.813679" changeset="false"><tag k="addr:street" v="Texas Oaks Drive"/><tag k="addr:housenumber" v="9218"/><tag k="addr:postcode" v="78748"/></node><node id="-4" lat="30.183909" lon="-97.810446" changeset="false"><tag k="addr:street" v="Waldrop Cove"/><tag k="addr:housenumber" v="1407"/><tag k="addr:postcode" v="78748"/></node><node id="-5" lat="30.174104" lon="-97.814866" changeset="false"><tag k="addr:street" v="West Slaughter Lane"/><tag k="addr:housenumber" v="1212"/><tag k="addr:postcode" v="78748"/></node><node id="-6" lat="30.174762" lon="-97.812809" changeset="false"><tag k="addr:street" v="Independence Loop"/><tag k="addr:housenumber" v="9309"/><tag k="addr:postcode" v="78748"/></node><node id="-7" lat="30.174796" lon="-97.817342" changeset="false"><tag k="addr:street" v="Sweetgum Drive"/><tag k="addr:housenumber" v="9608"/><tag k="addr:postcode" v="78748"/></node><node id="-8" lat="30.178712" lon="-97.816707" changeset="false"><tag k="addr:street" v="Sweetgum Drive"/><tag k="addr:housenumber" v="9105"/><tag k="addr:postcode" v="78748"/></node><node id="-9" lat="30.178603" lon="-97.816724" changeset="false"><tag k="addr:street" v="Sweetgum Drive"/><tag k="addr:housenumber" v="9109"/><tag k="addr:postcode" v="78748"/></node><node id="-10" lat="30.174346" lon="-97.817645" changeset="false"><tag k="addr:street" v="Sugarberry Lane"/><tag k="addr:housenumber" v="1505"/><tag k="addr:postcode" v="78748"/></node><node id="-11" lat="30.174505" lon="-97.810937" changeset="false"><tag k="addr:street" v="Chisholm Lane"/><tag k="addr:housenumber" v="9316"/><tag k="addr:postcode" v="78748"/></node><node id="-12" lat="30.181765" lon="-97.808598" changeset="false"><tag k="addr:street" v="Chisholm Lane"/><tag k="addr:housenumber" v="8715"/><tag k="addr:postcode" v="78748"/></node><node id="-13" lat="30.183905" lon="-97.810365" changeset="false"><tag k="addr:street" v="Waldrop Cove"/><tag k="addr:housenumber" v="1405"/><tag k="addr:postcode" v="78748"/></node><node id="-14" lat="30.178822" lon="-97.816701" changeset="false"><tag k="addr:street" v="Sweetgum Drive"/><tag k="addr:housenumber" v="9101"/><tag k="addr:postcode" v="78748"/></node><node id="-15" lat="30.177682" lon="-97.816672" changeset="false"><tag k="addr:street" v="Sweetgum Drive"/><tag k="addr:housenumber" v="9209"/><tag k="addr:postcode" v="78748"/></node><node id="-16" lat="30.175253" lon="-97.817044" changeset="false"><tag k="addr:street" v="Huckleberry Lane"/><tag k="addr:housenumber" v="1400"/><tag k="addr:postcode" v="78748"/></node><node id="-17" lat="30.174518" lon="-97.818116" changeset="false"><tag k="addr:street" v="Sugarberry Lane"/><tag k="addr:housenumber" v="1521"/><tag k="addr:postcode" v="78748"/></node><node id="-18" lat="30.17471" lon="-97.817586" changeset="false"><tag k="addr:street" v="Sugarberry Lane"/><tag k="addr:housenumber" v="1508"/><tag k="addr:postcode" v="78748"/></node><node id="-19" lat="30.174259" lon="-97.811608" changeset="false"><tag k="addr:street" v="West Slaughter Lane"/><tag k="addr:housenumber" v="1106"/><tag k="addr:postcode" v="78748"/></node><node id="-20" lat="30.18103" lon="-97.809625" changeset="false"><tag k="addr:street" v="Chisholm Lane"/><tag k="addr:housenumber" v="8712"/><tag k="addr:postcode" v="78748"/></node><node id="-21" lat="30.181724" lon="-97.810118" changeset="false"><tag k="addr:street" v="Chisholm Lane"/><tag k="addr:housenumber" v="8710"/><tag k="addr:postcode" v="78748"/></node><node id="-22" lat="30.180383" lon="-97.809082" changeset="false"><tag k="addr:street" v="Chisholm Lane"/><tag k="addr:housenumber" v="8803"/><tag k="addr:postcode" v="78748"/></node><node id="-23" lat="30.177828" lon="-97.816676" changeset="false"><tag k="addr:street" v="Sweetgum Drive"/><tag k="addr:housenumber" v="9205"/><tag k="addr:postcode" v="78748"/></node><node id="-24" lat="30.177455" lon="-97.816669" changeset="false"><tag k="addr:street" v="Sweetgum Drive"/><tag k="addr:housenumber" v="9217"/><tag k="addr:postcode" v="78748"/></node><node id="-25" lat="30.177519" lon="-97.817212" changeset="false"><tag k="addr:street" v="Bluewood Lane"/><tag k="addr:housenumber" v="1608"/><tag k="addr:postcode" v="78748"/></node><node id="-26" lat="30.178381" lon="-97.816721" changeset="false"><tag k="addr:street" v="Sweetgum Drive"/><tag k="addr:housenumber" v="9117"/><tag k="addr:postcode" v="78748"/></node><node id="-27" lat="30.177941" lon="-97.816679" changeset="false"><tag k="addr:street" v="Sweetgum Drive"/><tag k="addr:housenumber" v="9201"/><tag k="addr:postcode" v="78748"/></node><node id="-28" lat="30.174247" lon="-97.817049" changeset="false"><tag k="addr:street" v="West Slaughter Lane"/><tag k="addr:housenumber" v="1400"/><tag k="addr:postcode" v="78748"/></node><node id="-29" lat="30.177562" lon="-97.816647" changeset="false"><tag k="addr:street" v="Sweetgum Drive"/><tag k="addr:housenumber" v="9213"/><tag k="addr:postcode" v="78748"/></node><node id="-30" lat="30.177347" lon="-97.81665" changeset="false"><tag k="addr:street" v="Sweetgum Drive"/><tag k="addr:housenumber" v="9221"/><tag k="addr:postcode" v="78748"/></node><node id="-31" lat="30.177556" lon="-97.817335" changeset="false"><tag k="addr:street" v="Bluewood Lane"/><tag k="addr:housenumber" v="1612"/><tag k="addr:postcode" v="78748"/></node><node id="-32" lat="30.178043" lon="-97.816696" changeset="false"><tag k="addr:street" v="Sweetgum Drive"/><tag k="addr:housenumber" v="9129"/><tag k="addr:postcode" v="78748"/></node><node id="-33" lat="30.184458" lon="-97.809327" changeset="false"><tag k="addr:street" v="Dempsey Lane"/><tag k="addr:housenumber" v="8513"/><tag k="addr:postcode" v="78748"/></node><node id="-34" lat="30.185254" lon="-97.810582" changeset="false"><tag k="addr:street" v="Wheatfall Lane"/><tag k="addr:housenumber" v="1418"/><tag k="addr:postcode" v="78748"/></node><node id="-35" lat="30.174215" lon="-97.816492" changeset="false"><tag k="addr:street" v="West Slaughter Lane"/><tag k="addr:housenumber" v="1312"/><tag k="addr:postcode" v="78748"/></node><node id="-36" lat="30.175662" lon="-97.817244" changeset="false"><tag k="addr:street" v="Waxberry Lane"/><tag k="addr:housenumber" v="1509"/><tag k="addr:postcode" v="78748"/></node><node id="-37" lat="30.174386" lon="-97.817765" changeset="false"><tag k="addr:street" v="Sugarberry Lane"/><tag k="addr:housenumber" v="1509"/><tag k="addr:postcode" v="78748"/></node><node id="-38" lat="30.174595" lon="-97.817418" changeset="false"><tag k="addr:street" v="Sweetgum Drive"/><tag k="addr:housenumber" v="9616"/><tag k="addr:postcode" v="78748"/></node><node id="-39" lat="30.175348" lon="-97.817272" changeset="false"><tag k="addr:street" v="Huckleberry Lane"/><tag k="addr:housenumber" v="1408"/><tag k="addr:postcode" v="78748"/></node><node id="-40" lat="30.175382" lon="-97.817403" changeset="false"><tag k="addr:street" v="Huckleberry Lane"/><tag k="addr:housenumber" v="1412"/><tag k="addr:postcode" v="78748"/></node><node id="-41" lat="30.177232" lon="-97.816669" changeset="false"><tag k="addr:street" v="Sweetgum Drive"/><tag k="addr:housenumber" v="9301"/><tag k="addr:postcode" v="78748"/></node><node id="-42" lat="30.174892" lon="-97.817284" changeset="false"><tag k="addr:street" v="Sweetgum Drive"/><tag k="addr:housenumber" v="9604"/><tag k="addr:postcode" v="78748"/></node><node id="-43" lat="30.175058" lon="-97.817546" changeset="false"><tag k="addr:street" v="Huckleberry Lane"/><tag k="addr:housenumber" v="1413"/><tag k="addr:postcode" v="78748"/></node><node id="-44" lat="30.176548" lon="-97.812794" changeset="false"><tag k="addr:street" v="Saddle Horn Cove"/><tag k="addr:housenumber" v="1300"/><tag k="addr:postcode" v="78748"/></node><node id="-45" lat="30.178278" lon="-97.816712" changeset="false"><tag k="addr:street" v="Sweetgum Drive"/><tag k="addr:housenumber" v="9121"/><tag k="addr:postcode" v="78748"/></node><node id="-46" lat="30.175614" lon="-97.817136" changeset="false"><tag k="addr:street" v="Waxberry Lane"/><tag k="addr:housenumber" v="1505"/><tag k="addr:postcode" v="78748"/></node><node id="-47" lat="30.175285" lon="-97.817161" changeset="false"><tag k="addr:street" v="Huckleberry Lane"/><tag k="addr:housenumber" v="1404"/><tag k="addr:postcode" v="78748"/></node><node id="-48" lat="30.174746" lon="-97.817697" changeset="false"><tag k="addr:street" v="Sugarberry Lane"/><tag k="addr:housenumber" v="1512"/><tag k="addr:postcode" v="78748"/></node><node id="-49" lat="30.178498" lon="-97.816724" changeset="false"><tag k="addr:street" v="Sweetgum Drive"/><tag k="addr:housenumber" v="9113"/><tag k="addr:postcode" v="78748"/></node><node id="-50" lat="30.175208" lon="-97.813999" changeset="false"><tag k="addr:street" v="Texas Oaks Drive"/><tag k="addr:housenumber" v="9401"/><tag k="addr:postcode" v="78748"/></node><node id="-51" lat="30.174991" lon="-97.817233" changeset="false"><tag k="addr:street" v="Sweetgum Drive"/><tag k="addr:housenumber" v="9600"/><tag k="addr:postcode" v="78748"/></node><node id="-52" lat="30.178156" lon="-97.816699" changeset="false"><tag k="addr:street" v="Sweetgum Drive"/><tag k="addr:housenumber" v="9125"/><tag k="addr:postcode" v="78748"/></node><node id="-53" lat="30.177012" lon="-97.816686" changeset="false"><tag k="addr:street" v="Sweetgum Drive"/><tag k="addr:housenumber" v="9309"/><tag k="addr:postcode" v="78748"/></node><node id="-54" lat="30.17691" lon="-97.816689" changeset="false"><tag k="addr:street" v="Sweetgum Drive"/><tag k="addr:housenumber" v="9313"/><tag k="addr:postcode" v="78748"/></node><node id="-55" lat="30.177117" lon="-97.816686" changeset="false"><tag k="addr:street" v="Sweetgum Drive"/><tag k="addr:housenumber" v="9305"/><tag k="addr:postcode" v="78748"/></node><node id="-56" lat="30.185096" lon="-97.809414" changeset="false"><tag k="addr:street" v="Dempsey Lane"/><tag k="addr:housenumber" v="8405"/><tag k="addr:postcode" v="78748"/></node><node id="-57" lat="30.174312" lon="-97.817525" changeset="false"><tag k="addr:street" v="Sugarberry Lane"/><tag k="addr:housenumber" v="1501"/><tag k="addr:postcode" v="78748"/></node><node id="-58" lat="30.17443" lon="-97.817882" changeset="false"><tag k="addr:street" v="Sugarberry Lane"/><tag k="addr:housenumber" v="1513"/><tag k="addr:postcode" v="78748"/></node><node id="-59" lat="30.177027" lon="-97.81319" changeset="false"><tag k="addr:street" v="Texas Oaks Drive"/><tag k="addr:housenumber" v="9203"/><tag k="addr:postcode" v="78748"/></node><node id="-60" lat="30.174245" lon="-97.812652" changeset="false"><tag k="addr:street" v="West Slaughter Lane"/><tag k="addr:housenumber" v="1116"/><tag k="addr:postcode" v="78748"/></node><node id="-61" lat="30.176749" lon="-97.812805" changeset="false"><tag k="addr:street" v="Saddle Horn Cove"/><tag k="addr:housenumber" v="1302"/><tag k="addr:postcode" v="78748"/></node><node id="-62" lat="30.174974" lon="-97.814539" changeset="false"><tag k="addr:street" v="Texas Oaks Drive"/><tag k="addr:housenumber" v="9400"/><tag k="addr:postcode" v="78748"/></node><node id="-63" lat="30.175012" lon="-97.817426" changeset="false"><tag k="addr:street" v="Huckleberry Lane"/><tag k="addr:housenumber" v="1409"/><tag k="addr:postcode" v="78748"/></node><node id="-64" lat="30.175572" lon="-97.817002" changeset="false"><tag k="addr:street" v="Waxberry Lane"/><tag k="addr:housenumber" v="1501"/><tag k="addr:postcode" v="78748"/></node><node id="-65" lat="30.179014" lon="-97.814068" changeset="false"><tag k="addr:street" v="Jesse James Drive"/><tag k="addr:housenumber" v="9060"/><tag k="addr:postcode" v="78748"/></node><node id="-66" lat="30.178577" lon="-97.81416" changeset="false"><tag k="addr:street" v="Jesse James Drive"/><tag k="addr:housenumber" v="9104"/><tag k="addr:postcode" v="78748"/></node><node id="-67" lat="30.174102" lon="-97.814914" changeset="false"><tag k="addr:street" v="West Slaughter Lane"/><tag k="addr:housenumber" v="1216"/><tag k="addr:postcode" v="78748"/></node><node id="-68" lat="30.174142" lon="-97.815996" changeset="false"><tag k="addr:street" v="West Slaughter Lane"/><tag k="addr:housenumber" v="1310"/><tag k="addr:postcode" v="78748"/></node><node id="-69" lat="30.182865" lon="-97.812459" changeset="false"><tag k="addr:street" v="Davis Oaks Trail"/><tag k="addr:housenumber" v="8707"/><tag k="addr:postcode" v="78748"/></node><node id="-70" lat="30.184031" lon="-97.81117" changeset="false"><tag k="addr:street" v="Devine Lane"/><tag k="addr:housenumber" v="8601"/><tag k="addr:postcode" v="78748"/></node><node id="-71" lat="30.183981" lon="-97.810724" changeset="false"><tag k="addr:street" v="Waldrop Cove"/><tag k="addr:housenumber" v="1409"/><tag k="addr:postcode" v="78748"/></node><node id="-72" lat="30.185285" lon="-97.810091" changeset="false"><tag k="addr:street" v="Wheatfall Lane"/><tag k="addr:housenumber" v="1408"/><tag k="addr:postcode" v="78748"/></node><node id="-73" lat="30.178975" lon="-97.814121" changeset="false"><tag k="addr:street" v="Jesse James Drive"/><tag k="addr:housenumber" v="9102"/><tag k="addr:postcode" v="78748"/></node><node id="-74" lat="30.17447" lon="-97.818002" changeset="false"><tag k="addr:street" v="Sugarberry Lane"/><tag k="addr:housenumber" v="1517"/><tag k="addr:postcode" v="78748"/></node><node id="-75" lat="30.174388" lon="-97.810508" changeset="false"><tag k="addr:street" v="Chisholm Lane"/><tag k="addr:housenumber" v="9315"/><tag k="addr:postcode" v="78748"/></node><node id="-76" lat="30.174204" lon="-97.810393" changeset="false"><tag k="addr:street" v="West Slaughter Lane"/><tag k="addr:housenumber" v="1014"/><tag k="addr:postcode" v="78748"/></node><node id="-77" lat="30.179972" lon="-97.813056" changeset="false"><tag k="addr:street" v="Texas Oaks Drive"/><tag k="addr:housenumber" v="8908"/><tag k="addr:postcode" v="78748"/></node><node id="-78" lat="30.179963" lon="-97.813001" changeset="false"><tag k="addr:street" v="Texas Oaks Drive"/><tag k="addr:housenumber" v="9000"/><tag k="addr:postcode" v="78748"/></node><node id="-79" lat="30.179882" lon="-97.814775" changeset="false"><tag k="addr:street" v="Bill Hickcock Pass"/><tag k="addr:housenumber" v="9100"/><tag k="addr:postcode" v="78748"/></node><node id="-80" lat="30.179957" lon="-97.814803" changeset="false"><tag k="addr:street" v="Bill Hickcock Pass"/><tag k="addr:housenumber" v="9008"/><tag k="addr:postcode" v="78748"/></node><node id="-81" lat="30.178839" lon="-97.812799" changeset="false"><tag k="addr:street" v="Texas Oaks Drive"/><tag k="addr:housenumber" v="9103"/><tag k="addr:postcode" v="78748"/></node><node id="-82" lat="30.178835" lon="-97.81274" changeset="false"><tag k="addr:street" v="Texas Oaks Cove"/><tag k="addr:housenumber" v="1307"/><tag k="addr:postcode" v="78748"/></node></osm>