<?xml version="1.0" encoding="UTF-8"?><osm version="0.6" generator="github.com/aaronlidman/osm-and-geojson"><node id="-1" lat="30.400047" lon="-97.776709" changeset="false"><tag k="addr:street" v="Hurley Cove"/><tag k="addr:housenumber" v="9201"/><tag k="coa:place_id" v="221603"/></node><node id="-2" lat="30.399747" lon="-97.772805" changeset="false"><tag k="addr:street" v="Spicebrush Drive"/><tag k="addr:housenumber" v="9221"/><tag k="coa:place_id" v="67306"/></node><node id="-3" lat="30.394585" lon="-97.769238" changeset="false"><tag k="addr:street" v="Bluegrass Drive"/><tag k="addr:housenumber" v="9006"/><tag k="coa:place_id" v="53831"/></node><node id="-4" lat="30.395921" lon="-97.770304" changeset="false"><tag k="addr:street" v="Spicebrush Drive"/><tag k="addr:housenumber" v="9019"/><tag k="coa:place_id" v="127367"/></node><node id="-5" lat="30.397657" lon="-97.770775" changeset="false"><tag k="addr:street" v="Spicebrush Drive"/><tag k="addr:housenumber" v="9111"/><tag k="coa:place_id" v="67315"/></node><node id="-6" lat="30.397247" lon="-97.771164" changeset="false"><tag k="addr:street" v="Spicebrush Drive"/><tag k="addr:housenumber" v="9109"/><tag k="coa:place_id" v="67316"/></node><node id="-7" lat="30.397305" lon="-97.774347" changeset="false"><tag k="addr:street" v="Yaupon Drive"/><tag k="addr:housenumber" v="6420"/><tag k="coa:place_id" v="667600"/></node><node id="-8" lat="30.396396" lon="-97.771225" changeset="false"><tag k="addr:street" v="Ironwood Cove"/><tag k="addr:housenumber" v="6000"/><tag k="coa:place_id" v="133284"/></node><node id="-9" lat="30.399201" lon="-97.768595" changeset="false"><tag k="addr:street" v="Spartan Cove"/><tag k="addr:housenumber" v="5904"/><tag k="coa:place_id" v="620782"/></node><node id="-10" lat="30.404807" lon="-97.776786" changeset="false"><tag k="addr:street" v="Tobrina Lane"/><tag k="addr:housenumber" v="9500"/><tag k="coa:place_id" v="221207"/></node><node id="-11" lat="30.416448" lon="-97.775605" changeset="false"><tag k="addr:street" v="Skyflower Drive"/><tag k="addr:housenumber" v="10609"/><tag k="coa:place_id" v="126796"/></node><node id="-12" lat="30.416502" lon="-97.782896" changeset="false"><tag k="addr:street" v="Double Spur Loop"/><tag k="addr:housenumber" v="10410"/><tag k="coa:place_id" v="112551"/></node><node id="-13" lat="30.421326" lon="-97.786071" changeset="false"><tag k="addr:street" v="Saber Creek Trail"/><tag k="addr:housenumber" v="8310"/><tag k="coa:place_id" v="441730"/></node><node id="-14" lat="30.420868" lon="-97.786973" changeset="false"><tag k="addr:street" v="Saber Creek Trail"/><tag k="addr:housenumber" v="8401"/><tag k="coa:place_id" v="72275"/></node><node id="-15" lat="30.392607" lon="-97.770744" changeset="false"><tag k="addr:street" v="Cyrilla Drive"/><tag k="addr:housenumber" v="5807"/><tag k="coa:place_id" v="552196"/></node><node id="-16" lat="30.395089" lon="-97.774676" changeset="false"><tag k="addr:street" v="Duranta Cove"/><tag k="addr:housenumber" v="6300"/><tag k="coa:place_id" v="758764"/></node><node id="-17" lat="30.398708" lon="-97.775362" changeset="false"><tag k="addr:street" v="Fittonia Drive"/><tag k="addr:housenumber" v="9109"/><tag k="coa:place_id" v="3111906"/></node><node id="-18" lat="30.42282" lon="-97.780986" changeset="false"><tag k="addr:street" v="Yucca Drive"/><tag k="addr:housenumber" v="10901"/><tag k="coa:place_id" v="507452"/></node><node id="-19" lat="30.392463" lon="-97.775788" changeset="false"><tag k="addr:street" v="Yaupon Drive"/><tag k="addr:housenumber" v="6304"/><tag k="coa:place_id" v="3081223"/></node><node id="-20" lat="30.410979" lon="-97.778384" changeset="false"><tag k="addr:street" v="Swan Valley Lane"/><tag k="addr:housenumber" v="10000 1/2"/><tag k="coa:place_id" v="3158582"/></node><node id="-21" lat="30.403451" lon="-97.77665" changeset="false"><tag k="addr:street" v="Yaupon Drive"/><tag k="addr:housenumber" v="6719"/><tag k="coa:place_id" v="1162875"/></node><node id="-22" lat="30.40809" lon="-97.777099" changeset="false"><tag k="addr:street" v="Villa Maria Lane"/><tag k="addr:housenumber" v="7101"/><tag k="coa:place_id" v="3040372"/></node><node id="-23" lat="30.396303" lon="-97.770574" changeset="false"><tag k="addr:street" v="Satsuma Cove"/><tag k="addr:housenumber" v="6005"/><tag k="coa:place_id" v="67329"/></node><node id="-24" lat="30.415502" lon="-97.784969" changeset="false"><tag k="addr:street" v="Muley Drive"/><tag k="addr:housenumber" v="8009"/><tag k="coa:place_id" v="3034309"/></node><node id="-25" lat="30.393764" lon="-97.773667" changeset="false"><tag k="addr:street" v="Spicebrush Drive"/><tag k="addr:housenumber" v="8803"/><tag k="coa:place_id" v="3173142"/></node><node id="-26" lat="30.401645" lon="-97.776569" changeset="false"><tag k="addr:street" v="Yaupon Drive"/><tag k="addr:housenumber" v="6611"/><tag k="coa:place_id" v="1162897"/></node><node id="-27" lat="30.401142" lon="-97.775702" changeset="false"><tag k="addr:street" v="Yaupon Drive"/><tag k="addr:housenumber" v="6600"/><tag k="coa:place_id" v="3140772"/></node><node id="-28" lat="30.390752" lon="-97.769845" changeset="false"><tag k="addr:street" v="Alata Cove"/><tag k="addr:housenumber" v="5703"/><tag k="coa:place_id" v="648478"/></node><node id="-29" lat="30.383426" lon="-97.771085" changeset="false"><tag k="addr:street" v="Old Spicewood Springs Road"/><tag k="addr:housenumber" v="5341 1/2"/><tag k="coa:place_id" v="3098238"/></node><node id="-30" lat="30.394707" lon="-97.77178" changeset="false"><tag k="addr:street" v="Spicebrush Drive"/><tag k="addr:housenumber" v="9005"/><tag k="coa:place_id" v="127378"/></node><node id="-31" lat="30.394648" lon="-97.776016" changeset="false"><tag k="addr:street" v="Yaupon Drive"/><tag k="addr:housenumber" v="6327"/><tag k="coa:place_id" v="67229"/></node><node id="-32" lat="30.394476" lon="-97.776039" changeset="false"><tag k="addr:street" v="Yaupon Drive"/><tag k="addr:housenumber" v="6325"/><tag k="coa:place_id" v="67228"/></node><node id="-33" lat="30.394293" lon="-97.774352" changeset="false"><tag k="addr:street" v="Spicebrush Drive"/><tag k="addr:housenumber" v="8806"/><tag k="coa:place_id" v="67294"/></node><node id="-34" lat="30.395933" lon="-97.772855" changeset="false"><tag k="addr:street" v="Clithea Cove"/><tag k="addr:housenumber" v="9002"/><tag k="coa:place_id" v="67317"/></node><node id="-35" lat="30.39588" lon="-97.776006" changeset="false"><tag k="addr:street" v="Yaupon Drive"/><tag k="addr:housenumber" v="6403"/><tag k="coa:place_id" v="67252"/></node><node id="-36" lat="30.399305" lon="-97.775993" changeset="false"><tag k="addr:street" v="Fittonia Drive"/><tag k="addr:housenumber" v="9114"/><tag k="coa:place_id" v="3111911"/></node><node id="-37" lat="30.412517" lon="-97.775878" changeset="false"><tag k="addr:street" v="Fabion Drive"/><tag k="addr:housenumber" v="7208"/><tag k="coa:place_id" v="221019"/></node><node id="-38" lat="30.413924" lon="-97.772494" changeset="false"><tag k="addr:street" v="Rudi Cove"/><tag k="addr:housenumber" v="6906"/><tag k="coa:place_id" v="52384"/></node><node id="-39" lat="30.404265" lon="-97.783986" changeset="false"><tag k="addr:street" v="Yucca Mountain Road"/><tag k="addr:housenumber" v="9210"/><tag k="coa:place_id" v="218718"/></node><node id="-40" lat="30.41015" lon="-97.769418" changeset="false"><tag k="addr:street" v="Skinner Cove"/><tag k="addr:housenumber" v="6503"/><tag k="coa:place_id" v="52445"/></node><node id="-41" lat="30.404517" lon="-97.771605" changeset="false"><tag k="addr:street" v="Sophora Cove"/><tag k="addr:housenumber" v="9702"/><tag k="coa:place_id" v="330298"/></node><node id="-42" lat="30.402823" lon="-97.769561" changeset="false"><tag k="addr:street" v="Crenata Cove"/><tag k="addr:housenumber" v="9624"/><tag k="coa:place_id" v="139753"/></node><node id="-43" lat="30.398349" lon="-97.775215" changeset="false"><tag k="addr:street" v="Fittonia Drive"/><tag k="addr:housenumber" v="9105"/><tag k="coa:place_id" v="3111902"/></node><node id="-44" lat="30.396843" lon="-97.774779" changeset="false"><tag k="addr:street" v="Yaupon Drive"/><tag k="addr:housenumber" v="6414"/><tag k="coa:place_id" v="67243"/></node><node id="-45" lat="30.411046" lon="-97.769386" changeset="false"><tag k="addr:street" v="Rain Creek Parkway"/><tag k="addr:housenumber" v="6607"/><tag k="coa:place_id" v="52310"/></node><node id="-46" lat="30.395855" lon="-97.773482" changeset="false"><tag k="addr:street" v="Spicebrush Cove"/><tag k="addr:housenumber" v="6205"/><tag k="coa:place_id" v="67287"/></node><node id="-47" lat="30.416272" lon="-97.784456" changeset="false"><tag k="addr:street" v="Muley Drive"/><tag k="addr:housenumber" v="8029 1/2"/><tag k="coa:place_id" v="3142481"/></node><node id="-48" lat="30.419218" lon="-97.781315" changeset="false"><tag k="addr:street" v="Double Spur Loop"/><tag k="addr:housenumber" v="10628"/><tag k="coa:place_id" v="507392"/></node><node id="-49" lat="30.422298" lon="-97.789297" changeset="false"><tag k="addr:street" v="Old Spicewood Springs Road,1100"/><tag k="addr:housenumber" v="8230"/><tag k="coa:place_id" v="89604"/></node><node id="-50" lat="30.418396" lon="-97.782288" changeset="false"><tag k="addr:street" v="Double Spur Loop"/><tag k="addr:housenumber" v="10609"/><tag k="coa:place_id" v="115128"/></node><node id="-51" lat="30.401391" lon="-97.782065" changeset="false"><tag k="addr:street" v="Yucca Mountain Road"/><tag k="addr:housenumber" v="9011"/><tag k="coa:place_id" v="698110"/></node><node id="-52" lat="30.411026" lon="-97.773079" changeset="false"><tag k="addr:street" v="Dianella Lane"/><tag k="addr:housenumber" v="10209"/><tag k="coa:place_id" v="210950"/></node><node id="-53" lat="30.398275" lon="-97.770742" changeset="false"><tag k="addr:street" v="Spicebrush Drive"/><tag k="addr:housenumber" v="9203"/><tag k="coa:place_id" v="67313"/></node><node id="-54" lat="30.414418" lon="-97.773393" changeset="false"><tag k="addr:street" v="Red Maple Cove"/><tag k="addr:housenumber" v="7106"/><tag k="coa:place_id" v="52394"/></node><node id="-55" lat="30.415335" lon="-97.774695" changeset="false"><tag k="addr:street" v="Cissus Cove"/><tag k="addr:housenumber" v="7300"/><tag k="coa:place_id" v="53523"/></node><node id="-56" lat="30.395259" lon="-97.770758" changeset="false"><tag k="addr:street" v="Spicebrush Drive"/><tag k="addr:housenumber" v="9013"/><tag k="coa:place_id" v="127373"/></node><node id="-57" lat="30.422078" lon="-97.782828" changeset="false"><tag k="addr:street" v="Mellow Lane"/><tag k="addr:housenumber" v="10707"/><tag k="coa:place_id" v="507548"/></node><node id="-58" lat="30.399763" lon="-97.772388" changeset="false"><tag k="addr:street" v="Spicebrush Drive"/><tag k="addr:housenumber" v="9219"/><tag k="coa:place_id" v="67305"/></node><node id="-59" lat="30.423183" lon="-97.782916" changeset="false"><tag k="addr:street" v="Mellow Lane"/><tag k="addr:housenumber" v="10806"/><tag k="coa:place_id" v="507500"/></node><node id="-60" lat="30.416409" lon="-97.775177" changeset="false"><tag k="addr:street" v="Skyflower Drive"/><tag k="addr:housenumber" v="10607"/><tag k="coa:place_id" v="125472"/></node><node id="-61" lat="30.410278" lon="-97.777241" changeset="false"><tag k="addr:street" v="Villa Maria Lane"/><tag k="addr:housenumber" v="7243"/><tag k="coa:place_id" v="1126347"/></node><node id="-62" lat="30.414804" lon="-97.77247" changeset="false"><tag k="addr:street" v="Rain Creek Parkway"/><tag k="addr:housenumber" v="7005"/><tag k="coa:place_id" v="692206"/></node><node id="-63" lat="30.414792" lon="-97.774891" changeset="false"><tag k="addr:street" v="Cissus Cove"/><tag k="addr:housenumber" v="7305"/><tag k="coa:place_id" v="125502"/></node><node id="-64" lat="30.41473" lon="-97.776495" changeset="false"><tag k="addr:street" v="Blue Beach Cove"/><tag k="addr:housenumber" v="7400"/><tag k="coa:place_id" v="53494"/></node><node id="-65" lat="30.395673" lon="-97.773447" changeset="false"><tag k="addr:street" v="Spicebrush Cove"/><tag k="addr:housenumber" v="6203"/><tag k="coa:place_id" v="67286"/></node><node id="-66" lat="30.395618" lon="-97.776088" changeset="false"><tag k="addr:street" v="Yaupon Drive"/><tag k="addr:housenumber" v="6401"/><tag k="coa:place_id" v="67234"/></node><node id="-67" lat="30.395422" lon="-97.775086" changeset="false"><tag k="addr:street" v="Yaupon Drive"/><tag k="addr:housenumber" v="6334"/><tag k="coa:place_id" v="67235"/></node><node id="-68" lat="30.415327" lon="-97.773203" changeset="false"><tag k="addr:street" v="Rain Creek Parkway"/><tag k="addr:housenumber" v="7105"/><tag k="coa:place_id" v="52356"/></node><node id="-69" lat="30.398985" lon="-97.782274" changeset="false"><tag k="addr:street" v="Old Spicewood Springs Road,1100"/><tag k="addr:housenumber" v="6816"/><tag k="coa:place_id" v="3256040"/></node><node id="-70" lat="30.41732" lon="-97.774792" changeset="false"><tag k="addr:street" v="Rain Creek Parkway"/><tag k="addr:housenumber" v="7401"/><tag k="coa:place_id" v="52379"/></node><node id="-71" lat="30.383569" lon="-97.771094" changeset="false"><tag k="addr:street" v="Old Spicewood Springs Road"/><tag k="addr:housenumber" v="5343 1/2"/><tag k="coa:place_id" v="3428054"/></node><node id="-72" lat="30.409658" lon="-97.773876" changeset="false"><tag k="addr:street" v="Dianella Lane"/><tag k="addr:housenumber" v="10130"/><tag k="coa:place_id" v="210935"/></node><node id="-73" lat="30.393179" lon="-97.771" changeset="false"><tag k="addr:street" v="Cyrilla Drive"/><tag k="addr:housenumber" v="5810"/><tag k="coa:place_id" v="717526"/></node><node id="-74" lat="30.403655" lon="-97.774858" changeset="false"><tag k="addr:street" v="Bully Hill Cove"/><tag k="addr:housenumber" v="9519"/><tag k="coa:place_id" v="221067"/></node><node id="-75" lat="30.414968" lon="-97.774618" changeset="false"><tag k="addr:street" v="Cissus Cove"/><tag k="addr:housenumber" v="7301"/><tag k="coa:place_id" v="53524"/></node><node id="-76" lat="30.396736" lon="-97.771729" changeset="false"><tag k="addr:street" v="Anemone Cove"/><tag k="addr:housenumber" v="6105"/><tag k="coa:place_id" v="67339"/></node><node id="-77" lat="30.396549" lon="-97.774929" changeset="false"><tag k="addr:street" v="Yaupon Drive"/><tag k="addr:housenumber" v="6410"/><tag k="coa:place_id" v="67241"/></node><node id="-78" lat="30.419165" lon="-97.787207" changeset="false"><tag k="addr:street" v="Yucca Drive"/><tag k="addr:housenumber" v="10306"/><tag k="coa:place_id" v="556078"/></node><node id="-79" lat="30.419062" lon="-97.784793" changeset="false"><tag k="addr:street" v="Yucca Drive"/><tag k="addr:housenumber" v="10505"/><tag k="coa:place_id" v="164961"/></node><node id="-80" lat="30.422114" lon="-97.786707" changeset="false"><tag k="addr:street" v="Saber Creek Cove"/><tag k="addr:housenumber" v="10606"/><tag k="coa:place_id" v="441814"/></node><node id="-81" lat="30.415841" lon="-97.783191" changeset="false"><tag k="addr:street" v="Muley Drive"/><tag k="addr:housenumber" v="8018"/><tag k="coa:place_id" v="3034305"/></node><node id="-82" lat="30.406118" lon="-97.775364" changeset="false"><tag k="addr:street" v="Rainlilly Lane"/><tag k="addr:housenumber" v="9708"/><tag k="coa:place_id" v="221082"/></node><node id="-83" lat="30.414487" lon="-97.776032" changeset="false"><tag k="addr:street" v="Shasta Cove"/><tag k="addr:housenumber" v="7306"/><tag k="coa:place_id" v="53511"/></node><node id="-84" lat="30.410999" lon="-97.775704" changeset="false"><tag k="addr:street" v="Ellaview Lane"/><tag k="addr:housenumber" v="7201"/><tag k="coa:place_id" v="3037665"/></node><node id="-85" lat="30.408224" lon="-97.777915" changeset="false"><tag k="addr:street" v="Villa Maria Cove"/><tag k="addr:housenumber" v="9809"/><tag k="coa:place_id" v="3049157"/></node><node id="-86" lat="30.409731" lon="-97.77835" changeset="false"><tag k="addr:street" v="Villa Maria Lane"/><tag k="addr:housenumber" v="7223"/><tag k="coa:place_id" v="221146"/></node><node id="-87" lat="30.422485" lon="-97.7898" changeset="false"><tag k="addr:street" v="Bintliff Drive"/><tag k="addr:housenumber" v="10599"/><tag k="coa:place_id" v="1163211"/></node><node id="-88" lat="30.398814" lon="-97.773343" changeset="false"><tag k="addr:street" v="Spicebrush Drive"/><tag k="addr:housenumber" v="9218"/><tag k="coa:place_id" v="67357"/></node><node id="-89" lat="30.398563" lon="-97.771488" changeset="false"><tag k="addr:street" v="Spicebrush Drive"/><tag k="addr:housenumber" v="9209"/><tag k="coa:place_id" v="67300"/></node><node id="-90" lat="30.396344" lon="-97.768801" changeset="false"><tag k="addr:street" v="Ginre Cove"/><tag k="addr:housenumber" v="5804"/><tag k="coa:place_id" v="689872"/></node><node id="-91" lat="30.405183" lon="-97.775517" changeset="false"><tag k="addr:street" v="Tobrina Lane"/><tag k="addr:housenumber" v="9604"/><tag k="coa:place_id" v="221079"/></node><node id="-92" lat="30.40479" lon="-97.772226" changeset="false"><tag k="addr:street" v="Bitternut Cove"/><tag k="addr:housenumber" v="9609"/><tag k="coa:place_id" v="283540"/></node><node id="-93" lat="30.410083" lon="-97.772959" changeset="false"><tag k="addr:street" v="Dianella Lane"/><tag k="addr:housenumber" v="10153"/><tag k="coa:place_id" v="210945"/></node><node id="-94" lat="30.403107" lon="-97.772382" changeset="false"><tag k="addr:street" v="Bitternut Cove"/><tag k="addr:housenumber" v="9600"/><tag k="coa:place_id" v="675802"/></node><node id="-95" lat="30.392541" lon="-97.770467" changeset="false"><tag k="addr:street" v="Cyrilla Drive"/><tag k="addr:housenumber" v="5805"/><tag k="coa:place_id" v="50139"/></node><node id="-96" lat="30.394845" lon="-97.776066" changeset="false"><tag k="addr:street" v="Yaupon Drive"/><tag k="addr:housenumber" v="6329"/><tag k="coa:place_id" v="67230"/></node><node id="-97" lat="30.39479" lon="-97.774163" changeset="false"><tag k="addr:street" v="Spicebrush Drive"/><tag k="addr:housenumber" v="8900"/><tag k="coa:place_id" v="67297"/></node><node id="-98" lat="30.393547" lon="-97.774041" changeset="false"><tag k="addr:street" v="Spicebrush Drive"/><tag k="addr:housenumber" v="8801"/><tag k="coa:place_id" v="135069"/></node><node id="-99" lat="30.40016" lon="-97.768459" changeset="false"><tag k="addr:street" v="Linaria Cove"/><tag k="addr:housenumber" v="5904"/><tag k="coa:place_id" v="53882"/></node><node id="-100" lat="30.39473" lon="-97.772246" changeset="false"><tag k="addr:street" v="Spicebrush Drive"/><tag k="addr:housenumber" v="9001"/><tag k="coa:place_id" v="127380"/></node><node id="-101" lat="30.399808" lon="-97.774105" changeset="false"><tag k="addr:street" v="Spicebrush Drive"/><tag k="addr:housenumber" v="9229"/><tag k="coa:place_id" v="121489"/></node><node id="-102" lat="30.405206" lon="-97.769956" changeset="false"><tag k="addr:street" v="Thinleaf Cove"/><tag k="addr:housenumber" v="9801"/><tag k="coa:place_id" v="329992"/></node><node id="-103" lat="30.395622" lon="-97.775165" changeset="false"><tag k="addr:street" v="Yaupon Drive"/><tag k="addr:housenumber" v="6400"/><tag k="coa:place_id" v="67236"/></node><node id="-104" lat="30.413564" lon="-97.773758" changeset="false"><tag k="addr:street" v="Cercis Cove"/><tag k="addr:housenumber" v="7201"/><tag k="coa:place_id" v="53529"/></node><node id="-105" lat="30.402932" lon="-97.776115" changeset="false"><tag k="addr:street" v="Sangiacomo Cove"/><tag k="addr:housenumber" v="6709"/><tag k="coa:place_id" v="3082594"/></node><node id="-106" lat="30.403043" lon="-97.782916" changeset="false"><tag k="addr:street" v="Yucca Mountain Road"/><tag k="addr:housenumber" v="9119"/><tag k="coa:place_id" v="3144881"/></node><node id="-107" lat="30.395535" lon="-97.769018" changeset="false"><tag k="addr:street" v="Bluegrass Drive"/><tag k="addr:housenumber" v="9102"/><tag k="coa:place_id" v="53835"/></node><node id="-108" lat="30.38501" lon="-97.771241" changeset="false"><tag k="addr:street" v="Old Spicewood Springs Road,1100"/><tag k="addr:housenumber" v="5500"/><tag k="coa:place_id" v="129067"/></node><node id="-109" lat="30.404556" lon="-97.776305" changeset="false"><tag k="addr:street" v="Tobrina Lane"/><tag k="addr:housenumber" v="9509"/><tag k="coa:place_id" v="3081313"/></node><node id="-110" lat="30.405645" lon="-97.788768" changeset="false"><tag k="addr:street" v="Old Spicewood Springs Road,1100"/><tag k="addr:housenumber" v="7208"/><tag k="coa:place_id" v="814605"/></node><node id="-111" lat="30.403344" lon="-97.768671" changeset="false"><tag k="addr:street" v="Lost Horizon Drive"/><tag k="addr:housenumber" v="6105"/><tag k="coa:place_id" v="117641"/></node><node id="-112" lat="30.397668" lon="-97.779082" changeset="false"><tag k="addr:street" v="Old Spicewood Springs Road,1100"/><tag k="addr:housenumber" v="6714"/><tag k="coa:place_id" v="995516"/></node><node id="-113" lat="30.418912" lon="-97.782779" changeset="false"><tag k="addr:street" v="Double Spur Loop"/><tag k="addr:housenumber" v="10614"/><tag k="coa:place_id" v="471142"/></node><node id="-114" lat="30.39541" lon="-97.774236" changeset="false"><tag k="addr:street" v="Spicebrush Cove"/><tag k="addr:housenumber" v="6202"/><tag k="coa:place_id" v="67285"/></node><node id="-115" lat="30.423576" lon="-97.781972" changeset="false"><tag k="addr:street" v="Mellow Lane"/><tag k="addr:housenumber" v="10903"/><tag k="coa:place_id" v="508310"/></node><node id="-116" lat="30.41939" lon="-97.786793" changeset="false"><tag k="addr:street" v="Yucca Drive"/><tag k="addr:housenumber" v="10400"/><tag k="coa:place_id" v="610666"/></node><node id="-117" lat="30.423198" lon="-97.783516" changeset="false"><tag k="addr:street" v="Spicewood Springs Cove"/><tag k="addr:housenumber" v="8301"/><tag k="coa:place_id" v="72312"/></node><node id="-118" lat="30.40185" lon="-97.776635" changeset="false"><tag k="addr:street" v="Yaupon Drive"/><tag k="addr:housenumber" v="6615"/><tag k="coa:place_id" v="1162896"/></node><node id="-119" lat="30.399843" lon="-97.77655" changeset="false"><tag k="addr:street" v="Hurley Cove"/><tag k="addr:housenumber" v="9205"/><tag k="coa:place_id" v="221604"/></node><node id="-120" lat="30.415769" lon="-97.773409" changeset="false"><tag k="addr:street" v="Rain Creek Parkway"/><tag k="addr:housenumber" v="7203"/><tag k="coa:place_id" v="52373"/></node><node id="-121" lat="30.398612" lon="-97.772995" changeset="false"><tag k="addr:street" v="Spicebrush Drive"/><tag k="addr:housenumber" v="9214"/><tag k="coa:place_id" v="67359"/></node><node id="-122" lat="30.394635" lon="-97.77426" changeset="false"><tag k="addr:street" v="Spicebrush Drive"/><tag k="addr:housenumber" v="8810"/><tag k="coa:place_id" v="67296"/></node><node id="-123" lat="30.421612" lon="-97.784424" changeset="false"><tag k="addr:street" v="Pommel Drive"/><tag k="addr:housenumber" v="8200"/><tag k="coa:place_id" v="733804"/></node><node id="-124" lat="30.403922" lon="-97.771846" changeset="false"><tag k="addr:street" v="Bitternut Cove"/><tag k="addr:housenumber" v="9601"/><tag k="coa:place_id" v="713746"/></node><node id="-125" lat="30.402458" lon="-97.769889" changeset="false"><tag k="addr:street" v="Crenata Cove"/><tag k="addr:housenumber" v="9616"/><tag k="coa:place_id" v="139757"/></node><node id="-126" lat="30.411247" lon="-97.776835" changeset="false"><tag k="addr:street" v="Swan Valley Lane"/><tag k="addr:housenumber" v="10104"/><tag k="coa:place_id" v="210858"/></node><node id="-127" lat="30.401649" lon="-97.769046" changeset="false"><tag k="addr:street" v="Chictora Cove"/><tag k="addr:housenumber" v="6017"/><tag k="coa:place_id" v="139771"/></node><node id="-128" lat="30.422271" lon="-97.783538" changeset="false"><tag k="addr:street" v="Mellow Lane"/><tag k="addr:housenumber" v="10706"/><tag k="coa:place_id" v="507554"/></node><node id="-129" lat="30.42192" lon="-97.78688" changeset="false"><tag k="addr:street" v="Saber Creek Cove"/><tag k="addr:housenumber" v="10604"/><tag k="coa:place_id" v="578536"/></node><node id="-130" lat="30.421835" lon="-97.79425" changeset="false"><tag k="addr:street" v="Old Lampasas Trail"/><tag k="addr:housenumber" v="8817"/><tag k="coa:place_id" v="3499746"/></node><node id="-131" lat="30.393042" lon="-97.776432" changeset="false"><tag k="addr:street" v="Senecio Cove"/><tag k="addr:housenumber" v="6303"/><tag k="coa:place_id" v="67271"/></node><node id="-132" lat="30.398068" lon="-97.770676" changeset="false"><tag k="addr:street" v="Spicebrush Drive"/><tag k="addr:housenumber" v="9201"/><tag k="coa:place_id" v="67314"/></node><node id="-133" lat="30.397331" lon="-97.772075" changeset="false"><tag k="addr:street" v="Anemone Cove"/><tag k="addr:housenumber" v="6102"/><tag k="coa:place_id" v="67330"/></node><node id="-134" lat="30.396651" lon="-97.771917" changeset="false"><tag k="addr:street" v="Anemone Cove"/><tag k="addr:housenumber" v="6107"/><tag k="coa:place_id" v="67338"/></node><node id="-135" lat="30.392542" lon="-97.770257" changeset="false"><tag k="addr:street" v="Cyrilla Drive"/><tag k="addr:housenumber" v="5803"/><tag k="coa:place_id" v="733072"/></node><node id="-136" lat="30.407206" lon="-97.776846" changeset="false"><tag k="addr:street" v="Llano Estacado Lane"/><tag k="addr:housenumber" v="9715"/><tag k="coa:place_id" v="3048792"/></node><node id="-137" lat="30.411595" lon="-97.777217" changeset="false"><tag k="addr:street" v="Yaupon Drive"/><tag k="addr:housenumber" v="7308"/><tag k="coa:place_id" v="210835"/></node><node id="-138" lat="30.404206" lon="-97.776456" changeset="false"><tag k="addr:street" v="Yaupon Drive"/><tag k="addr:housenumber" v="6801"/><tag k="coa:place_id" v="221214"/></node><node id="-139" lat="30.403423" lon="-97.771228" changeset="false"><tag k="addr:street" v="Pathfinder Drive"/><tag k="addr:housenumber" v="6321"/><tag k="coa:place_id" v="706774"/></node><node id="-140" lat="30.415221" lon="-97.775725" changeset="false"><tag k="addr:street" v="Carissa Cove"/><tag k="addr:housenumber" v="7401"/><tag k="coa:place_id" v="122854"/></node><node id="-141" lat="30.420845" lon="-97.786072" changeset="false"><tag k="addr:street" v="Saber Creek Trail"/><tag k="addr:housenumber" v="8311"/><tag k="coa:place_id" v="578542"/></node><node id="-142" lat="30.397011" lon="-97.770667" changeset="false"><tag k="addr:street" v="Satsuma Cove"/><tag k="addr:housenumber" v="6002"/><tag k="coa:place_id" v="67325"/></node><node id="-143" lat="30.398857" lon="-97.773551" changeset="false"><tag k="addr:street" v="Spicebrush Drive"/><tag k="addr:housenumber" v="9220"/><tag k="coa:place_id" v="67356"/></node><node id="-144" lat="30.391583" lon="-97.769892" changeset="false"><tag k="addr:street" v="Bluegrass Drive"/><tag k="addr:housenumber" v="8712"/><tag k="coa:place_id" v="74265"/></node><node id="-145" lat="30.40777" lon="-97.770778" changeset="false"><tag k="addr:street" v="Staghorn Cove"/><tag k="addr:housenumber" v="6505"/><tag k="coa:place_id" v="73076"/></node><node id="-146" lat="30.422757" lon="-97.782489" changeset="false"><tag k="addr:street" v="Mellow Lane"/><tag k="addr:housenumber" v="10803"/><tag k="coa:place_id" v="507524"/></node><node id="-147" lat="30.415206" lon="-97.783355" changeset="false"><tag k="addr:street" v="Muley Drive"/><tag k="addr:housenumber" v="8010"/><tag k="coa:place_id" v="3034310"/></node><node id="-148" lat="30.422582" lon="-97.783257" changeset="false"><tag k="addr:street" v="Mellow Lane"/><tag k="addr:housenumber" v="10802"/><tag k="coa:place_id" v="507482"/></node><node id="-149" lat="30.421757" lon="-97.781475" changeset="false"><tag k="addr:street" v="Yucca Drive"/><tag k="addr:housenumber" v="10803"/><tag k="coa:place_id" v="507098"/></node><node id="-150" lat="30.390619" lon="-97.770517" changeset="false"><tag k="addr:street" v="Bluegrass Drive"/><tag k="addr:housenumber" v="8628"/><tag k="coa:place_id" v="3076127"/></node><node id="-151" lat="30.393342" lon="-97.770092" changeset="false"><tag k="addr:street" v="Cyrilla Drive"/><tag k="addr:housenumber" v="5802"/><tag k="coa:place_id" v="725770"/></node><node id="-152" lat="30.405404" lon="-97.770039" changeset="false"><tag k="addr:street" v="Thinleaf Cove"/><tag k="addr:housenumber" v="9805"/><tag k="coa:place_id" v="734746"/></node><node id="-153" lat="30.394701" lon="-97.772056" changeset="false"><tag k="addr:street" v="Spicebrush Drive"/><tag k="addr:housenumber" v="9003"/><tag k="coa:place_id" v="127379"/></node><node id="-154" lat="30.394466" lon="-97.774318" changeset="false"><tag k="addr:street" v="Spicebrush Drive"/><tag k="addr:housenumber" v="8808"/><tag k="coa:place_id" v="67295"/></node><node id="-155" lat="30.394094" lon="-97.775783" changeset="false"><tag k="addr:street" v="Yaupon Drive"/><tag k="addr:housenumber" v="6321"/><tag k="coa:place_id" v="67226"/></node><node id="-156" lat="30.412237" lon="-97.772148" changeset="false"><tag k="addr:street" v="Rimner Cove"/><tag k="addr:housenumber" v="6909"/><tag k="coa:place_id" v="52403"/></node><node id="-157" lat="30.389322" lon="-97.768591" changeset="false"><tag k="addr:street" v="Bluegrass Drive"/><tag k="addr:housenumber" v="8600"/><tag k="coa:place_id" v="3093656"/></node><node id="-158" lat="30.414517" lon="-97.776441" changeset="false"><tag k="addr:street" v="Blue Beach Cove"/><tag k="addr:housenumber" v="7401"/><tag k="coa:place_id" v="53496"/></node><node id="-159" lat="30.41196" lon="-97.792" changeset="false"><tag k="addr:street" v="Old Spicewood Springs Road,1100"/><tag k="addr:housenumber" v="7510"/><tag k="coa:place_id" v="228483"/></node><node id="-160" lat="30.414089" lon="-97.783007" changeset="false"><tag k="addr:street" v="Muley Drive"/><tag k="addr:housenumber" v="8001"/><tag k="coa:place_id" v="3034313"/></node><node id="-161" lat="30.391426" lon="-97.77829" changeset="false"><tag k="addr:street" v="Old Spicewood Springs Road,1100"/><tag k="addr:housenumber" v="6314"/><tag k="coa:place_id" v="507710"/></node><node id="-162" lat="30.403084" lon="-97.768452" changeset="false"><tag k="addr:street" v="Crenata Cove"/><tag k="addr:housenumber" v="9716"/><tag k="coa:place_id" v="139746"/></node><node id="-163" lat="30.402905" lon="-97.769399" changeset="false"><tag k="addr:street" v="Crenata Cove"/><tag k="addr:housenumber" v="9700"/><tag k="coa:place_id" v="139752"/></node><node id="-164" lat="30.398583" lon="-97.768378" changeset="false"><tag k="addr:street" v="Spartan Cove"/><tag k="addr:housenumber" v="5905"/><tag k="coa:place_id" v="53889"/></node><node id="-165" lat="30.412375" lon="-97.775335" changeset="false"><tag k="addr:street" v="Ellaview Lane"/><tag k="addr:housenumber" v="7305"/><tag k="coa:place_id" v="221037"/></node><node id="-166" lat="30.418654" lon="-97.782951" changeset="false"><tag k="addr:street" v="Double Spur Loop"/><tag k="addr:housenumber" v="10612"/><tag k="coa:place_id" v="507398"/></node><node id="-167" lat="30.389894" lon="-97.769316" changeset="false"><tag k="addr:street" v="Bluegrass Drive"/><tag k="addr:housenumber" v="8616"/><tag k="coa:place_id" v="3076124"/></node><node id="-168" lat="30.401546" lon="-97.768129" changeset="false"><tag k="addr:street" v="Chictora Cove"/><tag k="addr:housenumber" v="6005"/><tag k="coa:place_id" v="139776"/></node><node id="-169" lat="30.402156" lon="-97.770308" changeset="false"><tag k="addr:street" v="Crenata Cove"/><tag k="addr:housenumber" v="9608"/><tag k="coa:place_id" v="139759"/></node><node id="-170" lat="30.4119" lon="-97.777487" changeset="false"><tag k="addr:street" v="Yaupon Drive"/><tag k="addr:housenumber" v="7316"/><tag k="coa:place_id" v="210833"/></node><node id="-171" lat="30.41031" lon="-97.790904" changeset="false"><tag k="addr:street" v="Old Spicewood Springs Road,1100"/><tag k="addr:housenumber" v="7450"/><tag k="coa:place_id" v="3074269"/></node><node id="-172" lat="30.393631" lon="-97.769561" changeset="false"><tag k="addr:street" v="Bluegrass Drive"/><tag k="addr:housenumber" v="8906"/><tag k="coa:place_id" v="74271"/></node><node id="-173" lat="30.402977" lon="-97.769134" changeset="false"><tag k="addr:street" v="Crenata Cove"/><tag k="addr:housenumber" v="9704"/><tag k="coa:place_id" v="139751"/></node><node id="-174" lat="30.397219" lon="-97.772224" changeset="false"><tag k="addr:street" v="Anemone Cove"/><tag k="addr:housenumber" v="6104"/><tag k="coa:place_id" v="67331"/></node><node id="-175" lat="30.396606" lon="-97.774174" changeset="false"><tag k="addr:street" v="Spicebrush Cove"/><tag k="addr:housenumber" v="6211"/><tag k="coa:place_id" v="67289"/></node><node id="-176" lat="30.415572" lon="-97.788925" changeset="false"><tag k="addr:street" v="Kabar Trail"/><tag k="addr:housenumber" v="9909 1/2"/><tag k="coa:place_id" v="3158462"/></node><node id="-177" lat="30.393268" lon="-97.775485" changeset="false"><tag k="addr:street" v="Yaupon Drive"/><tag k="addr:housenumber" v="6312"/><tag k="coa:place_id" v="3081226"/></node><node id="-178" lat="30.393545" lon="-97.775149" changeset="false"><tag k="addr:street" v="Greyfeather Drive"/><tag k="addr:housenumber" v="6205"/><tag k="coa:place_id" v="141961"/></node><node id="-179" lat="30.396187" lon="-97.772788" changeset="false"><tag k="addr:street" v="Clithea Cove"/><tag k="addr:housenumber" v="9004"/><tag k="coa:place_id" v="67318"/></node><node id="-180" lat="30.396072" lon="-97.775111" changeset="false"><tag k="addr:street" v="Yaupon Drive"/><tag k="addr:housenumber" v="6404"/><tag k="coa:place_id" v="67238"/></node><node id="-181" lat="30.394518" lon="-97.773061" changeset="false"><tag k="addr:street" v="Spicebrush Drive"/><tag k="addr:housenumber" v="8901"/><tag k="coa:place_id" v="233635"/></node><node id="-182" lat="30.394082" lon="-97.773272" changeset="false"><tag k="addr:street" v="Spicebrush Drive"/><tag k="addr:housenumber" v="8807"/><tag k="coa:place_id" v="153743"/></node><node id="-183" lat="30.396946" lon="-97.767807" changeset="false"><tag k="addr:street" v="Bluegrass Drive"/><tag k="addr:housenumber" v="9300"/><tag k="coa:place_id" v="191572"/></node><node id="-184" lat="30.410714" lon="-97.770133" changeset="false"><tag k="addr:street" v="Charette Cove"/><tag k="addr:housenumber" v="10405"/><tag k="coa:place_id" v="732622"/></node><node id="-185" lat="30.424231" lon="-97.783499" changeset="false"><tag k="addr:street" v="Texas Plume Road"/><tag k="addr:housenumber" v="8117"/><tag k="coa:place_id" v="508334"/></node><node id="-186" lat="30.423968" lon="-97.78294" changeset="false"><tag k="addr:street" v="Texas Plume Road"/><tag k="addr:housenumber" v="8113"/><tag k="coa:place_id" v="1015994"/></node><node id="-187" lat="30.421231" lon="-97.785445" changeset="false"><tag k="addr:street" v="Saber Creek Trail"/><tag k="addr:housenumber" v="8302"/><tag k="coa:place_id" v="72266"/></node><node id="-188" lat="30.398387" lon="-97.767941" changeset="false"><tag k="addr:street" v="Bluegrass Drive"/><tag k="addr:housenumber" v="9400"/><tag k="coa:place_id" v="656098"/></node><node id="-189" lat="30.398882" lon="-97.771778" changeset="false"><tag k="addr:street" v="Spicebrush Drive"/><tag k="addr:housenumber" v="9213"/><tag k="coa:place_id" v="67302"/></node><node id="-190" lat="30.415582" lon="-97.776074" changeset="false"><tag k="addr:street" v="Carissa Cove"/><tag k="addr:housenumber" v="7402"/><tag k="coa:place_id" v="53516"/></node><node id="-191" lat="30.398303" lon="-97.772975" changeset="false"><tag k="addr:street" v="Sotol Cove"/><tag k="addr:housenumber" v="6202"/><tag k="coa:place_id" v="67341"/></node><node id="-192" lat="30.422393" lon="-97.785092" changeset="false"><tag k="addr:street" v="Pommel Drive"/><tag k="addr:housenumber" v="8312"/><tag k="coa:place_id" v="87923"/></node><node id="-193" lat="30.409788" lon="-97.770313" changeset="false"><tag k="addr:street" v="Strutton Cove"/><tag k="addr:housenumber" v="6604"/><tag k="coa:place_id" v="52454"/></node><node id="-194" lat="30.396131" lon="-97.768003" changeset="false"><tag k="addr:street" v="Bluegrass Drive"/><tag k="addr:housenumber" v="9204"/><tag k="coa:place_id" v="53826"/></node><node id="-195" lat="30.396332" lon="-97.771738" changeset="false"><tag k="addr:street" v="Ironwood Cove"/><tag k="addr:housenumber" v="6004"/><tag k="coa:place_id" v="89092"/></node><node id="-196" lat="30.39768" lon="-97.772586" changeset="false"><tag k="addr:street" v="Sotol Cove"/><tag k="addr:housenumber" v="6203"/><tag k="coa:place_id" v="733222"/></node><node id="-197" lat="30.416624" lon="-97.78423" changeset="false"><tag k="addr:street" v="Muley Drive"/><tag k="addr:housenumber" v="8000 1/2"/><tag k="coa:place_id" v="3142557"/></node><node id="-198" lat="30.420878" lon="-97.783731" changeset="false"><tag k="addr:street" v="Pommel Drive"/><tag k="addr:housenumber" v="8105"/><tag k="coa:place_id" v="508346"/></node><node id="-199" lat="30.417516" lon="-97.79216" changeset="false"><tag k="addr:street" v="Del Carmen Cove"/><tag k="addr:housenumber" v="8502"/><tag k="coa:place_id" v="85826"/></node><node id="-200" lat="30.422312" lon="-97.791298" changeset="false"><tag k="addr:street" v="Toro Creek Cove"/><tag k="addr:housenumber" v="8629"/><tag k="coa:place_id" v="3071226"/></node><node id="-201" lat="30.39485" lon="-97.772624" changeset="false"><tag k="addr:street" v="Spicebrush Drive"/><tag k="addr:housenumber" v="8913"/><tag k="coa:place_id" v="127385"/></node><node id="-202" lat="30.394788" lon="-97.772416" changeset="false"><tag k="addr:street" v="Spicebrush Drive"/><tag k="addr:housenumber" v="8915"/><tag k="coa:place_id" v="127381"/></node><node id="-203" lat="30.395311" lon="-97.769094" changeset="false"><tag k="addr:street" v="Bluegrass Drive"/><tag k="addr:housenumber" v="9100"/><tag k="coa:place_id" v="53834"/></node><node id="-204" lat="30.411393" lon="-97.775903" changeset="false"><tag k="addr:street" v="Ellaview Lane"/><tag k="addr:housenumber" v="7209"/><tag k="coa:place_id" v="221033"/></node><node id="-205" lat="30.411252" lon="-97.774608" changeset="false"><tag k="addr:street" v="Dianella Lane"/><tag k="addr:housenumber" v="10235"/><tag k="coa:place_id" v="210959"/></node><node id="-206" lat="30.404236" lon="-97.775067" changeset="false"><tag k="addr:street" v="Bully Hill Cove"/><tag k="addr:housenumber" v="9512"/><tag k="coa:place_id" v="221069"/></node><node id="-207" lat="30.403985" lon="-97.783005" changeset="false"><tag k="addr:street" v="Yucca Mountain Road"/><tag k="addr:housenumber" v="9211"/><tag k="coa:place_id" v="204294"/></node><node id="-208" lat="30.411934" lon="-97.775839" changeset="false"><tag k="addr:street" v="Fabion Drive"/><tag k="addr:housenumber" v="7205"/><tag k="coa:place_id" v="221031"/></node><node id="-209" lat="30.414348" lon="-97.774561" changeset="false"><tag k="addr:street" v="Cercis Cove"/><tag k="addr:housenumber" v="7202"/><tag k="coa:place_id" v="53527"/></node><node id="-210" lat="30.414325" lon="-97.779755" changeset="false"><tag k="addr:street" v="Yaupon Drive"/><tag k="addr:housenumber" v="7605"/><tag k="coa:place_id" v="75514"/></node><node id="-211" lat="30.405552" lon="-97.770542" changeset="false"><tag k="addr:street" v="Thinleaf Cove"/><tag k="addr:housenumber" v="9806"/><tag k="coa:place_id" v="330250"/></node><node id="-212" lat="30.413298" lon="-97.777221" changeset="false"><tag k="addr:street" v="Skyflower Cove"/><tag k="addr:housenumber" v="7408"/><tag k="coa:place_id" v="225333"/></node><node id="-213" lat="30.414901" lon="-97.775572" changeset="false"><tag k="addr:street" v="Skyflower Drive"/><tag k="addr:housenumber" v="10508"/><tag k="coa:place_id" v="53543"/></node><node id="-214" lat="30.394457" lon="-97.774848" changeset="false"><tag k="addr:street" v="Duranta Cove"/><tag k="addr:housenumber" v="6303"/><tag k="coa:place_id" v="67284"/></node><node id="-215" lat="30.393991" lon="-97.775072" changeset="false"><tag k="addr:street" v="Greyfeather Drive"/><tag k="addr:housenumber" v="6204"/><tag k="coa:place_id" v="134837"/></node><node id="-216" lat="30.400252" lon="-97.776094" changeset="false"><tag k="addr:street" v="Hurley Cove"/><tag k="addr:housenumber" v="9210"/><tag k="coa:place_id" v="221598"/></node><node id="-217" lat="30.399091" lon="-97.775526" changeset="false"><tag k="addr:street" v="Fittonia Drive"/><tag k="addr:housenumber" v="9113"/><tag k="coa:place_id" v="3111910"/></node><node id="-218" lat="30.414135" lon="-97.779635" changeset="false"><tag k="addr:street" v="Yaupon Drive"/><tag k="addr:housenumber" v="7603"/><tag k="coa:place_id" v="75513"/></node><node id="-219" lat="30.408884" lon="-97.777091" changeset="false"><tag k="addr:street" v="Croton Cove"/><tag k="addr:housenumber" v="9709"/><tag k="coa:place_id" v="3032624"/></node><node id="-220" lat="30.414232" lon="-97.773984" changeset="false"><tag k="addr:street" v="Cercis Cove"/><tag k="addr:housenumber" v="7200"/><tag k="coa:place_id" v="53528"/></node><node id="-221" lat="30.398899" lon="-97.775999" changeset="false"><tag k="addr:street" v="Fittonia Drive"/><tag k="addr:housenumber" v="9110"/><tag k="coa:place_id" v="3111907"/></node><node id="-222" lat="30.398705" lon="-97.775969" changeset="false"><tag k="addr:street" v="Fittonia Drive"/><tag k="addr:housenumber" v="9108"/><tag k="coa:place_id" v="3111905"/></node><node id="-223" lat="30.398603" lon="-97.781838" changeset="false"><tag k="addr:street" v="Old Spicewood Springs Road,1100"/><tag k="addr:housenumber" v="6800"/><tag k="coa:place_id" v="3144885"/></node><node id="-224" lat="30.397851" lon="-97.774844" changeset="false"><tag k="addr:street" v="Yaupon Drive"/><tag k="addr:housenumber" v="6425"/><tag k="coa:place_id" v="67263"/></node><node id="-225" lat="30.414832" lon="-97.774797" changeset="false"><tag k="addr:street" v="Cissus Cove"/><tag k="addr:housenumber" v="7303"/><tag k="coa:place_id" v="53525"/></node><node id="-226" lat="30.395837" lon="-97.774533" changeset="false"><tag k="addr:street" v="Spicebrush Cove"/><tag k="addr:housenumber" v="6206"/><tag k="coa:place_id" v="67292"/></node><node id="-227" lat="30.422286" lon="-97.784551" changeset="false"><tag k="addr:street" v="Pommel Cove"/><tag k="addr:housenumber" v="8303"/><tag k="coa:place_id" v="72310"/></node><node id="-228" lat="30.395133" lon="-97.772864" changeset="false"><tag k="addr:street" v="Spicebrush Drive"/><tag k="addr:housenumber" v="8911"/><tag k="coa:place_id" v="127386"/></node><node id="-229" lat="30.39493" lon="-97.771241" changeset="false"><tag k="addr:street" v="Spicebrush Drive"/><tag k="addr:housenumber" v="9009"/><tag k="coa:place_id" v="127375"/></node><node id="-230" lat="30.407733" lon="-97.775118" changeset="false"><tag k="addr:street" v="Llano Estacado Lane"/><tag k="addr:housenumber" v="9821"/><tag k="coa:place_id" v="221105"/></node><node id="-231" lat="30.40697" lon="-97.776029" changeset="false"><tag k="addr:street" v="Oxaus Lane"/><tag k="addr:housenumber" v="9804"/><tag k="coa:place_id" v="221095"/></node><node id="-232" lat="30.394152" lon="-97.774408" changeset="false"><tag k="addr:street" v="Spicebrush Drive"/><tag k="addr:housenumber" v="8804"/><tag k="coa:place_id" v="67293"/></node><node id="-233" lat="30.399846" lon="-97.773787" changeset="false"><tag k="addr:street" v="Spicebrush Drive"/><tag k="addr:housenumber" v="9227"/><tag k="coa:place_id" v="120827"/></node><node id="-234" lat="30.40985" lon="-97.76943" changeset="false"><tag k="addr:street" v="Lost Horizon Drive"/><tag k="addr:housenumber" v="6523"/><tag k="coa:place_id" v="52475"/></node><node id="-235" lat="30.417013" lon="-97.774596" changeset="false"><tag k="addr:street" v="Rain Creek Parkway"/><tag k="addr:housenumber" v="7307"/><tag k="coa:place_id" v="716614"/></node><node id="-236" lat="30.402367" lon="-97.776196" changeset="false"><tag k="addr:street" v="Havenbrook Cove"/><tag k="addr:housenumber" v="6708"/><tag k="coa:place_id" v="3080439"/></node><node id="-237" lat="30.415178" lon="-97.775952" changeset="false"><tag k="addr:street" v="Carissa Cove"/><tag k="addr:housenumber" v="7403"/><tag k="coa:place_id" v="53521"/></node><node id="-238" lat="30.413186" lon="-97.774926" changeset="false"><tag k="addr:street" v="Skyflower Drive"/><tag k="addr:housenumber" v="10409"/><tag k="coa:place_id" v="53538"/></node><node id="-239" lat="30.404049" lon="-97.77093" changeset="false"><tag k="addr:street" v="Pathfinder Drive"/><tag k="addr:housenumber" v="6315"/><tag k="coa:place_id" v="53783"/></node><node id="-240" lat="30.393115" lon="-97.776635" changeset="false"><tag k="addr:street" v="Senecio Cove"/><tag k="addr:housenumber" v="6305"/><tag k="coa:place_id" v="67272"/></node><node id="-241" lat="30.395112" lon="-97.770994" changeset="false"><tag k="addr:street" v="Spicebrush Drive"/><tag k="addr:housenumber" v="9011"/><tag k="coa:place_id" v="127374"/></node><node id="-242" lat="30.398137" lon="-97.775832" changeset="false"><tag k="addr:street" v="Fittonia Drive"/><tag k="addr:housenumber" v="9102"/><tag k="coa:place_id" v="3111899"/></node><node id="-243" lat="30.397871" lon="-97.773072" changeset="false"><tag k="addr:street" v="Sotol Cove"/><tag k="addr:housenumber" v="6206"/><tag k="coa:place_id" v="67344"/></node><node id="-244" lat="30.396688" lon="-97.774872" changeset="false"><tag k="addr:street" v="Yaupon Drive"/><tag k="addr:housenumber" v="6412"/><tag k="coa:place_id" v="67242"/></node><node id="-245" lat="30.403943" lon="-97.774851" changeset="false"><tag k="addr:street" v="Bully Hill Cove"/><tag k="addr:housenumber" v="9518"/><tag k="coa:place_id" v="221068"/></node><node id="-246" lat="30.403863" lon="-97.776603" changeset="false"><tag k="addr:street" v="Yaupon Drive"/><tag k="addr:housenumber" v="6727"/><tag k="coa:place_id" v="221209"/></node><node id="-247" lat="30.411217" lon="-97.773292" changeset="false"><tag k="addr:street" v="Dianella Lane"/><tag k="addr:housenumber" v="10215"/><tag k="coa:place_id" v="210951"/></node><node id="-248" lat="30.408839" lon="-97.791431" changeset="false"><tag k="addr:street" v="Old Spicewood Springs Road,1100"/><tag k="addr:housenumber" v="7352"/><tag k="coa:place_id" v="507620"/></node><node id="-249" lat="30.406204" lon="-97.771676" changeset="false"><tag k="addr:street" v="Delmonico Drive"/><tag k="addr:housenumber" v="6605"/><tag k="coa:place_id" v="558976"/></node><node id="-250" lat="30.390354" lon="-97.76928" changeset="false"><tag k="addr:street" v="Bluegrass Drive"/><tag k="addr:housenumber" v="8700"/><tag k="coa:place_id" v="74263"/></node><node id="-251" lat="30.392907" lon="-97.776153" changeset="false"><tag k="addr:street" v="Yaupon Drive"/><tag k="addr:housenumber" v="6307"/><tag k="coa:place_id" v="672700"/></node><node id="-252" lat="30.397084" lon="-97.770146" changeset="false"><tag k="addr:street" v="Satsuma Cove"/><tag k="addr:housenumber" v="6000"/><tag k="coa:place_id" v="757516"/></node><node id="-253" lat="30.406811" lon="-97.789839" changeset="false"><tag k="addr:street" v="Old Spicewood Springs Road,1100"/><tag k="addr:housenumber" v="7304"/><tag k="coa:place_id" v="3212844"/></node><node id="-254" lat="30.399828" lon="-97.773455" changeset="false"><tag k="addr:street" v="Spicebrush Drive"/><tag k="addr:housenumber" v="9225"/><tag k="coa:place_id" v="121242"/></node><node id="-255" lat="30.411082" lon="-97.770498" changeset="false"><tag k="addr:street" v="Charette Cove"/><tag k="addr:housenumber" v="10404"/><tag k="coa:place_id" v="709672"/></node><node id="-256" lat="30.385097" lon="-97.767717" changeset="false"><tag k="addr:street" v="Capital of Texas Highway"/><tag k="addr:housenumber" v="8312"/><tag k="coa:place_id" v="252063"/></node><node id="-257" lat="30.4087" lon="-97.770364" changeset="false"><tag k="addr:street" v="Lost Horizon Drive"/><tag k="addr:housenumber" v="6513"/><tag k="coa:place_id" v="52476"/></node><node id="-258" lat="30.424125" lon="-97.783248" changeset="false"><tag k="addr:street" v="Texas Plume Road"/><tag k="addr:housenumber" v="8115"/><tag k="coa:place_id" v="3256032"/></node><node id="-259" lat="30.42264" lon="-97.791174" changeset="false"><tag k="addr:street" v="Toro Creek Cove"/><tag k="addr:housenumber" v="8620"/><tag k="coa:place_id" v="3071219"/></node><node id="-260" lat="30.417135" lon="-97.783447" changeset="false"><tag k="addr:street" v="Double Spur Loop"/><tag k="addr:housenumber" v="10500"/><tag k="coa:place_id" v="112553"/></node><node id="-261" lat="30.397522" lon="-97.774219" changeset="false"><tag k="addr:street" v="Yaupon Drive"/><tag k="addr:housenumber" v="6422"/><tag k="coa:place_id" v="67247"/></node><node id="-262" lat="30.396387" lon="-97.775077" changeset="false"><tag k="addr:street" v="Yaupon Drive"/><tag k="addr:housenumber" v="6408"/><tag k="coa:place_id" v="67240"/></node><node id="-263" lat="30.395446" lon="-97.773392" changeset="false"><tag k="addr:street" v="Spicebrush Cove"/><tag k="addr:housenumber" v="6201"/><tag k="coa:place_id" v="129042"/></node><node id="-264" lat="30.418005" lon="-97.783428" changeset="false"><tag k="addr:street" v="Double Spur Loop"/><tag k="addr:housenumber" v="10508"/><tag k="coa:place_id" v="709360"/></node><node id="-265" lat="30.394962" lon="-97.774098" changeset="false"><tag k="addr:street" v="Spicebrush Drive"/><tag k="addr:housenumber" v="8902"/><tag k="coa:place_id" v="67298"/></node><node id="-266" lat="30.398514" lon="-97.775916" changeset="false"><tag k="addr:street" v="Fittonia Drive"/><tag k="addr:housenumber" v="9106"/><tag k="coa:place_id" v="3111903"/></node><node id="-267" lat="30.395067" lon="-97.769156" changeset="false"><tag k="addr:street" v="Bluegrass Drive"/><tag k="addr:housenumber" v="9010"/><tag k="coa:place_id" v="53833"/></node><node id="-268" lat="30.393418" lon="-97.776947" changeset="false"><tag k="addr:street" v="Senecio Cove"/><tag k="addr:housenumber" v="6309"/><tag k="coa:place_id" v="67274"/></node><node id="-269" lat="30.423224" lon="-97.782083" changeset="false"><tag k="addr:street" v="Mellow Lane"/><tag k="addr:housenumber" v="10901"/><tag k="coa:place_id" v="507512"/></node><node id="-270" lat="30.423093" lon="-97.784072" changeset="false"><tag k="addr:street" v="Pommel Drive"/><tag k="addr:housenumber" v="8322"/><tag k="coa:place_id" v="87917"/></node><node id="-271" lat="30.423326" lon="-97.784442" changeset="false"><tag k="addr:street" v="Pommel Drive"/><tag k="addr:housenumber" v="8321"/><tag k="coa:place_id" v="72293"/></node><node id="-272" lat="30.422084" lon="-97.784354" changeset="false"><tag k="addr:street" v="Pommel Cove"/><tag k="addr:housenumber" v="8301"/><tag k="coa:place_id" v="69852"/></node><node id="-273" lat="30.417162" lon="-97.790395" changeset="false"><tag k="addr:street" v="Horse Mountain Cove"/><tag k="addr:housenumber" v="8406"/><tag k="coa:place_id" v="85882"/></node><node id="-274" lat="30.416884" lon="-97.782193" changeset="false"><tag k="addr:street" v="Double Spur Loop"/><tag k="addr:housenumber" v="10407"/><tag k="coa:place_id" v="402207"/></node><node id="-275" lat="30.416997" lon="-97.791886" changeset="false"><tag k="addr:street" v="Del Carmen Cove"/><tag k="addr:housenumber" v="8503"/><tag k="coa:place_id" v="85827"/></node><node id="-276" lat="30.421469" lon="-97.781632" changeset="false"><tag k="addr:street" v="Yucca Drive"/><tag k="addr:housenumber" v="10801"/><tag k="coa:place_id" v="93397"/></node><node id="-277" lat="30.41061" lon="-97.770281" changeset="false"><tag k="addr:street" v="Charette Cove"/><tag k="addr:housenumber" v="10403"/><tag k="coa:place_id" v="712384"/></node><node id="-278" lat="30.412401" lon="-97.791453" changeset="false"><tag k="addr:street" v="Old Spicewood Springs Road,1100"/><tag k="addr:housenumber" v="7550"/><tag k="coa:place_id" v="3036594"/></node><node id="-279" lat="30.395753" lon="-97.771138" changeset="false"><tag k="addr:street" v="Spicebrush Drive"/><tag k="addr:housenumber" v="9015"/><tag k="coa:place_id" v="127369"/></node><node id="-280" lat="30.395683" lon="-97.772732" changeset="false"><tag k="addr:street" v="Clithea Cove"/><tag k="addr:housenumber" v="9000"/><tag k="coa:place_id" v="190861"/></node><node id="-281" lat="30.403016" lon="-97.776613" changeset="false"><tag k="addr:street" v="Chalk Hill Drive"/><tag k="addr:housenumber" v="6800"/><tag k="coa:place_id" v="3072199"/></node><node id="-282" lat="30.399358" lon="-97.77536" changeset="false"><tag k="addr:street" v="Yaupon Drive"/><tag k="addr:housenumber" v="6507"/><tag k="coa:place_id" v="738730"/></node><node id="-283" lat="30.413935" lon="-97.77223" changeset="false"><tag k="addr:street" v="Rudi Cove"/><tag k="addr:housenumber" v="6904"/><tag k="coa:place_id" v="52383"/></node><node id="-284" lat="30.411909" lon="-97.770906" changeset="false"><tag k="addr:street" v="Misty Hollow Cove"/><tag k="addr:housenumber" v="10404"/><tag k="coa:place_id" v="52408"/></node><node id="-285" lat="30.409704" lon="-97.772997" changeset="false"><tag k="addr:street" v="Dianella Lane"/><tag k="addr:housenumber" v="10145"/><tag k="coa:place_id" v="210942"/></node><node id="-286" lat="30.421137" lon="-97.781957" changeset="false"><tag k="addr:street" v="Yucca Drive"/><tag k="addr:housenumber" v="10709"/><tag k="coa:place_id" v="507092"/></node><node id="-287" lat="30.402363" lon="-97.770107" changeset="false"><tag k="addr:street" v="Crenata Cove"/><tag k="addr:housenumber" v="9612"/><tag k="coa:place_id" v="139758"/></node><node id="-288" lat="30.413849" lon="-97.77189" changeset="false"><tag k="addr:street" v="Rudi Cove"/><tag k="addr:housenumber" v="6900"/><tag k="coa:place_id" v="119472"/></node><node id="-289" lat="30.413701" lon="-97.772737" changeset="false"><tag k="addr:street" v="Rudi Cove"/><tag k="addr:housenumber" v="6908"/><tag k="coa:place_id" v="52385"/></node><node id="-290" lat="30.398169" lon="-97.775287" changeset="false"><tag k="addr:street" v="Fittonia Drive"/><tag k="addr:housenumber" v="9103"/><tag k="coa:place_id" v="3111900"/></node><node id="-291" lat="30.397696" lon="-97.774089" changeset="false"><tag k="addr:street" v="Yaupon Drive"/><tag k="addr:housenumber" v="6424"/><tag k="coa:place_id" v="67248"/></node><node id="-292" lat="30.396832" lon="-97.771572" changeset="false"><tag k="addr:street" v="Anemone Cove"/><tag k="addr:housenumber" v="6103"/><tag k="coa:place_id" v="67340"/></node><node id="-293" lat="30.404202" lon="-97.772918" changeset="false"><tag k="addr:street" v="Bitternut Cove"/><tag k="addr:housenumber" v="9608"/><tag k="coa:place_id" v="330292"/></node><node id="-294" lat="30.403886" lon="-97.772808" changeset="false"><tag k="addr:street" v="Bitternut Cove"/><tag k="addr:housenumber" v="9606"/><tag k="coa:place_id" v="53876"/></node><node id="-295" lat="30.412726" lon="-97.776973" changeset="false"><tag k="addr:street" v="Skyflower Drive"/><tag k="addr:housenumber" v="10227"/><tag k="coa:place_id" v="210875"/></node><node id="-296" lat="30.406278" lon="-97.776574" changeset="false"><tag k="addr:street" v="Oxaus Lane"/><tag k="addr:housenumber" v="9709"/><tag k="coa:place_id" v="3081828"/></node><node id="-297" lat="30.39132" lon="-97.776281" changeset="false"><tag k="addr:street" v="Yaupon Drive"/><tag k="addr:housenumber" v="6204"/><tag k="coa:place_id" v="173590"/></node><node id="-298" lat="30.411135" lon="-97.770282" changeset="false"><tag k="addr:street" v="Charette Cove"/><tag k="addr:housenumber" v="10406"/><tag k="coa:place_id" v="52430"/></node><node id="-299" lat="30.4144" lon="-97.77303" changeset="false"><tag k="addr:street" v="Red Maple Cove"/><tag k="addr:housenumber" v="7107"/><tag k="coa:place_id" v="647206"/></node><node id="-300" lat="30.415513" lon="-97.789869" changeset="false"><tag k="addr:street" v="Kabar Trail"/><tag k="addr:housenumber" v="9909"/><tag k="coa:place_id" v="85905"/></node><node id="-301" lat="30.39292" lon="-97.776227" changeset="false"><tag k="addr:street" v="Senecio Cove"/><tag k="addr:housenumber" v="6301"/><tag k="coa:place_id" v="168425"/></node><node id="-302" lat="30.413333" lon="-97.774324" changeset="false"><tag k="addr:street" v="Cercis Cove"/><tag k="addr:housenumber" v="7203"/><tag k="coa:place_id" v="610924"/></node><node id="-303" lat="30.406663" lon="-97.772335" changeset="false"><tag k="addr:street" v="Delmonico Drive"/><tag k="addr:housenumber" v="6606"/><tag k="coa:place_id" v="328360"/></node><node id="-304" lat="30.41251" lon="-97.77564" changeset="false"><tag k="addr:street" v="Fabion Drive"/><tag k="addr:housenumber" v="7204"/><tag k="coa:place_id" v="221020"/></node><node id="-305" lat="30.422061" lon="-97.78127" changeset="false"><tag k="addr:street" v="Yucca Drive"/><tag k="addr:housenumber" v="10807"/><tag k="coa:place_id" v="507104"/></node><node id="-306" lat="30.421976" lon="-97.782233" changeset="false"><tag k="addr:street" v="Yucca Drive"/><tag k="addr:housenumber" v="10800"/><tag k="coa:place_id" v="507170"/></node><node id="-307" lat="30.40172" lon="-97.781995" changeset="false"><tag k="addr:street" v="Yucca Mountain Road"/><tag k="addr:housenumber" v="9019"/><tag k="coa:place_id" v="832353"/></node><node id="-308" lat="30.410435" lon="-97.774638" changeset="false"><tag k="addr:street" v="Crinium Cove"/><tag k="addr:housenumber" v="10112"/><tag k="coa:place_id" v="210969"/></node><node id="-309" lat="30.410176" lon="-97.773505" changeset="false"><tag k="addr:street" v="Indica Cove"/><tag k="addr:housenumber" v="6901"/><tag k="coa:place_id" v="229115"/></node><node id="-310" lat="30.391359" lon="-97.776979" changeset="false"><tag k="addr:street" v="Yaupon Drive"/><tag k="addr:housenumber" v="6205"/><tag k="coa:place_id" v="173597"/></node><node id="-311" lat="30.415816" lon="-97.775792" changeset="false"><tag k="addr:street" v="Skyflower Drive"/><tag k="addr:housenumber" v="10602"/><tag k="coa:place_id" v="53544"/></node><node id="-312" lat="30.415095" lon="-97.775203" changeset="false"><tag k="addr:street" v="Skyflower Drive"/><tag k="addr:housenumber" v="10511"/><tag k="coa:place_id" v="126243"/></node><node id="-313" lat="30.407375" lon="-97.777268" changeset="false"><tag k="addr:street" v="Llano Estacado Lane"/><tag k="addr:housenumber" v="9708"/><tag k="coa:place_id" v="221173"/></node><node id="-314" lat="30.405117" lon="-97.770544" changeset="false"><tag k="addr:street" v="Thinleaf Cove"/><tag k="addr:housenumber" v="9802"/><tag k="coa:place_id" v="330406"/></node><node id="-315" lat="30.40184" lon="-97.768" changeset="false"><tag k="addr:street" v="Chictora Cove"/><tag k="addr:housenumber" v="6001"/><tag k="coa:place_id" v="139777"/></node><node id="-316" lat="30.423332" lon="-97.783896" changeset="false"><tag k="addr:street" v="Pommel Drive"/><tag k="addr:housenumber" v="8324"/><tag k="coa:place_id" v="118359"/></node><node id="-317" lat="30.398017" lon="-97.77476" changeset="false"><tag k="addr:street" v="Yaupon Drive"/><tag k="addr:housenumber" v="6427"/><tag k="coa:place_id" v="67264"/></node><node id="-318" lat="30.399844" lon="-97.768561" changeset="false"><tag k="addr:street" v="Linaria Cove"/><tag k="addr:housenumber" v="5905"/><tag k="coa:place_id" v="53883"/></node><node id="-319" lat="30.411418" lon="-97.770794" changeset="false"><tag k="addr:street" v="Misty Hollow Cove"/><tag k="addr:housenumber" v="10401"/><tag k="coa:place_id" v="706738"/></node><node id="-320" lat="30.413116" lon="-97.775268" changeset="false"><tag k="addr:street" v="Skyflower Drive"/><tag k="addr:housenumber" v="10407"/><tag k="coa:place_id" v="53537"/></node><node id="-321" lat="30.413082" lon="-97.775526" changeset="false"><tag k="addr:street" v="Skyflower Drive"/><tag k="addr:housenumber" v="10405"/><tag k="coa:place_id" v="53536"/></node><node id="-322" lat="30.389854" lon="-97.768817" changeset="false"><tag k="addr:street" v="Bluegrass Drive"/><tag k="addr:housenumber" v="8608"/><tag k="coa:place_id" v="3072516"/></node><node id="-323" lat="30.394729" lon="-97.771501" changeset="false"><tag k="addr:street" v="Spicebrush Drive"/><tag k="addr:housenumber" v="9007"/><tag k="coa:place_id" v="127376"/></node><node id="-324" lat="30.392245" lon="-97.773281" changeset="false"><tag k="addr:street" v="Greyfeather Drive"/><tag k="addr:housenumber" v="6101"/><tag k="coa:place_id" v="149147"/></node><node id="-325" lat="30.41227" lon="-97.773947" changeset="false"><tag k="addr:street" v="Ellaview Lane"/><tag k="addr:housenumber" v="7330"/><tag k="coa:place_id" v="221059"/></node><node id="-326" lat="30.391138" lon="-97.776402" changeset="false"><tag k="addr:street" v="Yaupon Drive"/><tag k="addr:housenumber" v="6200"/><tag k="coa:place_id" v="173589"/></node><node id="-327" lat="30.390093" lon="-97.770086" changeset="false"><tag k="addr:street" v="Bluegrass Drive"/><tag k="addr:housenumber" v="8620"/><tag k="coa:place_id" v="3076125"/></node><node id="-328" lat="30.413665" lon="-97.778796" changeset="false"><tag k="addr:street" v="Nolina Cove"/><tag k="addr:housenumber" v="10302"/><tag k="coa:place_id" v="627916"/></node><node id="-329" lat="30.422252" lon="-97.782018" changeset="false"><tag k="addr:street" v="Yucca Drive"/><tag k="addr:housenumber" v="10806"/><tag k="coa:place_id" v="507158"/></node><node id="-330" lat="30.415879" lon="-97.784232" changeset="false"><tag k="addr:street" v="Muley Drive"/><tag k="addr:housenumber" v="8035"/><tag k="coa:place_id" v="3034308"/></node><node id="-331" lat="30.415818" lon="-97.783742" changeset="false"><tag k="addr:street" v="Muley Drive"/><tag k="addr:housenumber" v="8017"/><tag k="coa:place_id" v="3034307"/></node><node id="-332" lat="30.415611" lon="-97.775733" changeset="false"><tag k="addr:street" v="Skyflower Drive"/><tag k="addr:housenumber" v="10600"/><tag k="coa:place_id" v="133435"/></node><node id="-333" lat="30.39832" lon="-97.775881" changeset="false"><tag k="addr:street" v="Fittonia Drive"/><tag k="addr:housenumber" v="9104"/><tag k="coa:place_id" v="3111901"/></node><node id="-334" lat="30.416468" lon="-97.788244" changeset="false"><tag k="addr:street" v="Kabar Trail"/><tag k="addr:housenumber" v="10007"/><tag k="coa:place_id" v="85628"/></node><node id="-335" lat="30.41535" lon="-97.777092" changeset="false"><tag k="addr:street" v="Canna Cove"/><tag k="addr:housenumber" v="7500"/><tag k="coa:place_id" v="610906"/></node><node id="-336" lat="30.396238" lon="-97.769972" changeset="false"><tag k="addr:street" v="Satsuma Cove"/><tag k="addr:housenumber" v="6003"/><tag k="coa:place_id" v="67328"/></node><node id="-337" lat="30.409256" lon="-97.777568" changeset="false"><tag k="addr:street" v="Croton Cove"/><tag k="addr:housenumber" v="9700"/><tag k="coa:place_id" v="221122"/></node><node id="-338" lat="30.408659" lon="-97.776198" changeset="false"><tag k="addr:street" v="Villa Maria Court"/><tag k="addr:housenumber" v="7000"/><tag k="coa:place_id" v="221118"/></node><node id="-339" lat="30.408216" lon="-97.775495" changeset="false"><tag k="addr:street" v="Llano Estacado Lane"/><tag k="addr:housenumber" v="9822"/><tag k="coa:place_id" v="221107"/></node><node id="-340" lat="30.407845" lon="-97.773146" changeset="false"><tag k="addr:street" v="Dianella Lane"/><tag k="addr:housenumber" v="10123"/><tag k="coa:place_id" v="221514"/></node><node id="-341" lat="30.409655" lon="-97.769983" changeset="false"><tag k="addr:street" v="Strutton Cove"/><tag k="addr:housenumber" v="6602"/><tag k="coa:place_id" v="52455"/></node><node id="-342" lat="30.417656" lon="-97.78715" changeset="false"><tag k="addr:street" v="Kabar Trail"/><tag k="addr:housenumber" v="10205"/><tag k="coa:place_id" v="122574"/></node><node id="-343" lat="30.394045" lon="-97.769345" changeset="false"><tag k="addr:street" v="Bluegrass Drive"/><tag k="addr:housenumber" v="8910"/><tag k="coa:place_id" v="74272"/></node><node id="-344" lat="30.411576" lon="-97.775967" changeset="false"><tag k="addr:street" v="Ellaview Lane"/><tag k="addr:housenumber" v="7213"/><tag k="coa:place_id" v="221034"/></node><node id="-345" lat="30.405854" lon="-97.782743" changeset="false"><tag k="addr:street" v="Yucca Mountain Road"/><tag k="addr:housenumber" v="9300 1/2"/><tag k="coa:place_id" v="3158482"/></node><node id="-346" lat="30.41851" lon="-97.789144" changeset="false"><tag k="addr:street" v="Vaquero Cove"/><tag k="addr:housenumber" v="8406"/><tag k="coa:place_id" v="727738"/></node><node id="-347" lat="30.395652" lon="-97.770353" changeset="false"><tag k="addr:street" v="Spicebrush Drive"/><tag k="addr:housenumber" v="9017"/><tag k="coa:place_id" v="127368"/></node><node id="-348" lat="30.42381" lon="-97.78264" changeset="false"><tag k="addr:street" v="Texas Plume Road"/><tag k="addr:housenumber" v="8111"/><tag k="coa:place_id" v="507590"/></node><node id="-349" lat="30.397835" lon="-97.777646" changeset="false"><tag k="addr:street" v="Old Spicewood Springs Road,1100"/><tag k="addr:housenumber" v="6648"/><tag k="coa:place_id" v="507680"/></node><node id="-350" lat="30.423723" lon="-97.783665" changeset="false"><tag k="addr:street" v="Spicewood Springs Cove"/><tag k="addr:housenumber" v="8304"/><tag k="coa:place_id" v="68654"/></node><node id="-351" lat="30.414092" lon="-97.792707" changeset="false"><tag k="addr:street" v="Old Spicewood Springs Road,1100"/><tag k="addr:housenumber" v="7630"/><tag k="coa:place_id" v="3313971"/></node><node id="-352" lat="30.417167" lon="-97.793881" changeset="false"><tag k="addr:street" v="Old Spicewood Springs Road,1100"/><tag k="addr:housenumber" v="7800"/><tag k="coa:place_id" v="3313973"/></node><node id="-353" lat="30.389011" lon="-97.773934" changeset="false"><tag k="addr:street" v="Old Spicewood Springs Road,1100"/><tag k="addr:housenumber" v="5900 1/2"/><tag k="coa:place_id" v="3428055"/></node><node id="-354" lat="30.410467" lon="-97.769357" changeset="false"><tag k="addr:street" v="Skinner Cove"/><tag k="addr:housenumber" v="6504"/><tag k="coa:place_id" v="52458"/></node><node id="-355" lat="30.398832" lon="-97.768617" changeset="false"><tag k="addr:street" v="Spartan Cove"/><tag k="addr:housenumber" v="5906"/><tag k="coa:place_id" v="53888"/></node><node id="-356" lat="30.416945" lon="-97.787746" changeset="false"><tag k="addr:street" v="Kabar Trail"/><tag k="addr:housenumber" v="10103"/><tag k="coa:place_id" v="351604"/></node><node id="-357" lat="30.417998" lon="-97.792036" changeset="false"><tag k="addr:street" v="Del Mesa Lane"/><tag k="addr:housenumber" v="8601"/><tag k="coa:place_id" v="146772"/></node><node id="-358" lat="30.418359" lon="-97.788856" changeset="false"><tag k="addr:street" v="Vaquero Cove"/><tag k="addr:housenumber" v="8404"/><tag k="coa:place_id" v="73006"/></node><node id="-359" lat="30.401527" lon="-97.768461" changeset="false"><tag k="addr:street" v="Chictora Cove"/><tag k="addr:housenumber" v="6009"/><tag k="coa:place_id" v="139775"/></node><node id="-360" lat="30.406216" lon="-97.789416" changeset="false"><tag k="addr:street" v="Old Spicewood Springs Road,1100"/><tag k="addr:housenumber" v="7234"/><tag k="coa:place_id" v="507626"/></node><node id="-361" lat="30.405339" lon="-97.771732" changeset="false"><tag k="addr:street" v="Sophora Cove"/><tag k="addr:housenumber" v="9706"/><tag k="coa:place_id" v="73083"/></node><node id="-362" lat="30.404761" lon="-97.771729" changeset="false"><tag k="addr:street" v="Sophora Cove"/><tag k="addr:housenumber" v="9704"/><tag k="coa:place_id" v="330316"/></node><node id="-363" lat="30.403102" lon="-97.768687" changeset="false"><tag k="addr:street" v="Crenata Cove"/><tag k="addr:housenumber" v="9712"/><tag k="coa:place_id" v="139747"/></node><node id="-364" lat="30.414694" lon="-97.775929" changeset="false"><tag k="addr:street" v="Shasta Cove"/><tag k="addr:housenumber" v="7304"/><tag k="coa:place_id" v="53510"/></node><node id="-365" lat="30.41449" lon="-97.772042" changeset="false"><tag k="addr:street" v="Rain Creek Parkway"/><tag k="addr:housenumber" v="7001"/><tag k="coa:place_id" v="52355"/></node><node id="-366" lat="30.414434" lon="-97.783562" changeset="false"><tag k="addr:street" v="Muley Drive"/><tag k="addr:housenumber" v="8005"/><tag k="coa:place_id" v="3034311"/></node><node id="-367" lat="30.407253" lon="-97.771305" changeset="false"><tag k="addr:street" v="Delmonico Drive"/><tag k="addr:housenumber" v="6508"/><tag k="coa:place_id" v="653032"/></node><node id="-368" lat="30.397964" lon="-97.772454" changeset="false"><tag k="addr:street" v="Sotol Cove"/><tag k="addr:housenumber" v="6201"/><tag k="coa:place_id" v="3100776"/></node><node id="-369" lat="30.396066" lon="-97.774562" changeset="false"><tag k="addr:street" v="Spicebrush Cove"/><tag k="addr:housenumber" v="6208"/><tag k="coa:place_id" v="129049"/></node><node id="-370" lat="30.395791" lon="-97.773067" changeset="false"><tag k="addr:street" v="Spicebrush Drive"/><tag k="addr:housenumber" v="8910"/><tag k="coa:place_id" v="67299"/></node><node id="-371" lat="30.421319" lon="-97.781734" changeset="false"><tag k="addr:street" v="Yucca Drive"/><tag k="addr:housenumber" v="10711"/><tag k="coa:place_id" v="126090"/></node><node id="-372" lat="30.397017" lon="-97.774672" changeset="false"><tag k="addr:street" v="Yaupon Drive"/><tag k="addr:housenumber" v="6416"/><tag k="coa:place_id" v="67244"/></node><node id="-373" lat="30.396573" lon="-97.773508" changeset="false"><tag k="addr:street" v="Spicebrush Cove"/><tag k="addr:housenumber" v="6207"/><tag k="coa:place_id" v="67288"/></node><node id="-374" lat="30.396347" lon="-97.775832" changeset="false"><tag k="addr:street" v="Yaupon Drive"/><tag k="addr:housenumber" v="6407"/><tag k="coa:place_id" v="67254"/></node><node id="-375" lat="30.409995" lon="-97.769104" changeset="false"><tag k="addr:street" v="Skinner Cove"/><tag k="addr:housenumber" v="6501"/><tag k="coa:place_id" v="116497"/></node><node id="-376" lat="30.395429" lon="-97.776109" changeset="false"><tag k="addr:street" v="Yaupon Drive"/><tag k="addr:housenumber" v="6335"/><tag k="coa:place_id" v="67233"/></node><node id="-377" lat="30.406467" lon="-97.772565" changeset="false"><tag k="addr:street" v="Delmonico Drive"/><tag k="addr:housenumber" v="6608"/><tag k="coa:place_id" v="578854"/></node><node id="-378" lat="30.406111" lon="-97.772544" changeset="false"><tag k="addr:street" v="Delmonico Drive"/><tag k="addr:housenumber" v="6610"/><tag k="coa:place_id" v="555742"/></node><node id="-379" lat="30.40799" lon="-97.778372" changeset="false"><tag k="addr:street" v="Villa Maria Cove"/><tag k="addr:housenumber" v="9801"/><tag k="coa:place_id" v="221159"/></node><node id="-380" lat="30.39844" lon="-97.771287" changeset="false"><tag k="addr:street" v="Spicebrush Drive"/><tag k="addr:housenumber" v="9207"/><tag k="coa:place_id" v="67311"/></node><node id="-381" lat="30.394835" lon="-97.769218" changeset="false"><tag k="addr:street" v="Bluegrass Drive"/><tag k="addr:housenumber" v="9008"/><tag k="coa:place_id" v="53832"/></node><node id="-382" lat="30.411422" lon="-97.777084" changeset="false"><tag k="addr:street" v="Yaupon Drive"/><tag k="addr:housenumber" v="7304"/><tag k="coa:place_id" v="210837"/></node><node id="-383" lat="30.410266" lon="-97.775114" changeset="false"><tag k="addr:street" v="Crinium Cove"/><tag k="addr:housenumber" v="10104"/><tag k="coa:place_id" v="210972"/></node><node id="-384" lat="30.404456" lon="-97.769134" changeset="false"><tag k="addr:street" v="Lost Horizon Drive"/><tag k="addr:housenumber" v="6205"/><tag k="coa:place_id" v="117647"/></node><node id="-385" lat="30.413416" lon="-97.772794" changeset="false"><tag k="addr:street" v="Rudi Cove"/><tag k="addr:housenumber" v="6910"/><tag k="coa:place_id" v="52386"/></node><node id="-386" lat="30.41314" lon="-97.772627" changeset="false"><tag k="addr:street" v="Rudi Cove"/><tag k="addr:housenumber" v="6909"/><tag k="coa:place_id" v="52390"/></node><node id="-387" lat="30.40378" lon="-97.771192" changeset="false"><tag k="addr:street" v="Pathfinder Drive"/><tag k="addr:housenumber" v="6317"/><tag k="coa:place_id" v="53784"/></node><node id="-388" lat="30.403254" lon="-97.776712" changeset="false"><tag k="addr:street" v="Yaupon Drive"/><tag k="addr:housenumber" v="6715"/><tag k="coa:place_id" v="1162879"/></node><node id="-389" lat="30.393867" lon="-97.775871" changeset="false"><tag k="addr:street" v="Yaupon Drive"/><tag k="addr:housenumber" v="6317"/><tag k="coa:place_id" v="67225"/></node><node id="-390" lat="30.415483" lon="-97.77758" changeset="false"><tag k="addr:street" v="Canna Cove"/><tag k="addr:housenumber" v="7504"/><tag k="coa:place_id" v="118361"/></node><node id="-391" lat="30.408839" lon="-97.778579" changeset="false"><tag k="addr:street" v="Villa Maria Lane"/><tag k="addr:housenumber" v="7207"/><tag k="coa:place_id" v="221152"/></node><node id="-392" lat="30.398875" lon="-97.773778" changeset="false"><tag k="addr:street" v="Spicebrush Drive"/><tag k="addr:housenumber" v="9222"/><tag k="coa:place_id" v="67354"/></node><node id="-393" lat="30.391172" lon="-97.777145" changeset="false"><tag k="addr:street" v="Yaupon Drive"/><tag k="addr:housenumber" v="6201"/><tag k="coa:place_id" v="173593"/></node><node id="-394" lat="30.400631" lon="-97.776328" changeset="false"><tag k="addr:street" v="Yaupon Drive"/><tag k="addr:housenumber" v="6525"/><tag k="coa:place_id" v="3038332"/></node><node id="-395" lat="30.414652" lon="-97.775321" changeset="false"><tag k="addr:street" v="Skyflower Drive"/><tag k="addr:housenumber" v="10506"/><tag k="coa:place_id" v="126047"/></node><node id="-396" lat="30.39912" lon="-97.776011" changeset="false"><tag k="addr:street" v="Fittonia Drive"/><tag k="addr:housenumber" v="9112"/><tag k="coa:place_id" v="3111909"/></node><node id="-397" lat="30.393636" lon="-97.776816" changeset="false"><tag k="addr:street" v="Senecio Cove"/><tag k="addr:housenumber" v="6308"/><tag k="coa:place_id" v="67275"/></node><node id="-398" lat="30.412662" lon="-97.772373" changeset="false"><tag k="addr:street" v="Rimner Cove"/><tag k="addr:housenumber" v="6908"/><tag k="coa:place_id" v="52402"/></node><node id="-399" lat="30.413128" lon="-97.772307" changeset="false"><tag k="addr:street" v="Rudi Cove"/><tag k="addr:housenumber" v="6907"/><tag k="coa:place_id" v="52389"/></node><node id="-400" lat="30.409359" lon="-97.777924" changeset="false"><tag k="addr:street" v="Villa Maria Lane"/><tag k="addr:housenumber" v="7218"/><tag k="coa:place_id" v="221135"/></node><node id="-401" lat="30.409328" lon="-97.778545" changeset="false"><tag k="addr:street" v="Villa Maria Lane"/><tag k="addr:housenumber" v="7215"/><tag k="coa:place_id" v="221148"/></node><node id="-402" lat="30.414048" lon="-97.771973" changeset="false"><tag k="addr:street" v="Rain Creek Parkway"/><tag k="addr:housenumber" v="6911"/><tag k="coa:place_id" v="125106"/></node><node id="-403" lat="30.414404" lon="-97.778058" changeset="false"><tag k="addr:street" v="Blue Beach Cove"/><tag k="addr:housenumber" v="7505"/><tag k="coa:place_id" v="119849"/></node><node id="-404" lat="30.393411" lon="-97.774654" changeset="false"><tag k="addr:street" v="Greyfeather Drive"/><tag k="addr:housenumber" v="6105"/><tag k="coa:place_id" v="67279"/></node><node id="-405" lat="30.413286" lon="-97.772073" changeset="false"><tag k="addr:street" v="Rudi Cove"/><tag k="addr:housenumber" v="6905"/><tag k="coa:place_id" v="52388"/></node><node id="-406" lat="30.396004" lon="-97.768703" changeset="false"><tag k="addr:street" v="Ginre Cove"/><tag k="addr:housenumber" v="5803"/><tag k="coa:place_id" v="53852"/></node><node id="-407" lat="30.395883" lon="-97.775161" changeset="false"><tag k="addr:street" v="Yaupon Drive"/><tag k="addr:housenumber" v="6402"/><tag k="coa:place_id" v="67237"/></node><node id="-408" lat="30.412487" lon="-97.771461" changeset="false"><tag k="addr:street" v="Rimner Cove"/><tag k="addr:housenumber" v="6903"/><tag k="coa:place_id" v="728980"/></node><node id="-409" lat="30.411488" lon="-97.792015" changeset="false"><tag k="addr:street" v="Old Spicewood Springs Road,1100"/><tag k="addr:housenumber" v="7454"/><tag k="coa:place_id" v="324897"/></node><node id="-410" lat="30.417653" lon="-97.775103" changeset="false"><tag k="addr:street" v="Rain Creek Parkway"/><tag k="addr:housenumber" v="7405"/><tag k="coa:place_id" v="220397"/></node><node id="-411" lat="30.401781" lon="-97.783136" changeset="false"><tag k="addr:street" v="Yucca Mountain Road"/><tag k="addr:housenumber" v="9106"/><tag k="coa:place_id" v="228249"/></node><node id="-412" lat="30.400219" lon="-97.774844" changeset="false"><tag k="addr:street" v="Yaupon Drive"/><tag k="addr:housenumber" v="6508"/><tag k="coa:place_id" v="756682"/></node><node id="-413" lat="30.411755" lon="-97.777356" changeset="false"><tag k="addr:street" v="Yaupon Drive"/><tag k="addr:housenumber" v="7312"/><tag k="coa:place_id" v="210834"/></node><node id="-414" lat="30.391519" lon="-97.776181" changeset="false"><tag k="addr:street" v="Yaupon Drive"/><tag k="addr:housenumber" v="6208"/><tag k="coa:place_id" v="173591"/></node><node id="-415" lat="30.38807" lon="-97.773523" changeset="false"><tag k="addr:street" v="Old Spicewood Springs Road,1100"/><tag k="addr:housenumber" v="5800"/><tag k="coa:place_id" v="129068"/></node><node id="-416" lat="30.40394" lon="-97.768878" changeset="false"><tag k="addr:street" v="Lost Horizon Drive"/><tag k="addr:housenumber" v="6201"/><tag k="coa:place_id" v="117174"/></node><node id="-417" lat="30.400369" lon="-97.775206" changeset="false"><tag k="addr:street" v="Yaupon Drive"/><tag k="addr:housenumber" v="6520 1/2"/><tag k="coa:place_id" v="1163591"/></node><node id="-418" lat="30.391044" lon="-97.775991" changeset="false"><tag k="addr:street" v="Old Spicewood Springs Road,1100"/><tag k="addr:housenumber" v="6102"/><tag k="coa:place_id" v="357321"/></node><node id="-419" lat="30.400394" lon="-97.783669" changeset="false"><tag k="addr:street" v="Old Spicewood Springs Road,1100"/><tag k="addr:housenumber" v="6828"/><tag k="coa:place_id" v="507632"/></node><node id="-420" lat="30.391042" lon="-97.770204" changeset="false"><tag k="addr:street" v="Alata Cove"/><tag k="addr:housenumber" v="5704"/><tag k="coa:place_id" v="74277"/></node><node id="-421" lat="30.412535" lon="-97.776089" changeset="false"><tag k="addr:street" v="Fabion Drive"/><tag k="addr:housenumber" v="7212"/><tag k="coa:place_id" v="221017"/></node><node id="-422" lat="30.403759" lon="-97.768797" changeset="false"><tag k="addr:street" v="Lost Horizon Drive"/><tag k="addr:housenumber" v="6109"/><tag k="coa:place_id" v="116940"/></node><node id="-423" lat="30.38428" lon="-97.771019" changeset="false"><tag k="addr:street" v="Old Spicewood Springs Road,1100"/><tag k="addr:housenumber" v="5424 1/2"/><tag k="coa:place_id" v="3098239"/></node><node id="-424" lat="30.419304" lon="-97.79051" changeset="false"><tag k="addr:street" v="Spicewood Mesa Cove"/><tag k="addr:housenumber" v="8504"/><tag k="coa:place_id" v="127721"/></node><node id="-425" lat="30.407294" lon="-97.776372" changeset="false"><tag k="addr:street" v="Llano Estacado Lane"/><tag k="addr:housenumber" v="9801"/><tag k="coa:place_id" v="3035342"/></node><node id="-426" lat="30.419081" lon="-97.78925" changeset="false"><tag k="addr:street" v="Vaquero Trail"/><tag k="addr:housenumber" v="10205"/><tag k="coa:place_id" v="122765"/></node><node id="-427" lat="30.401651" lon="-97.770261" changeset="false"><tag k="addr:street" v="Crenata Cove"/><tag k="addr:housenumber" v="9600"/><tag k="coa:place_id" v="139763"/></node><node id="-428" lat="30.400329" lon="-97.776609" changeset="false"><tag k="addr:street" v="Hurley Cove"/><tag k="addr:housenumber" v="9200"/><tag k="coa:place_id" v="221602"/></node><node id="-429" lat="30.414735" lon="-97.781429" changeset="false"><tag k="addr:street" v="Blue Lilly Drive"/><tag k="addr:housenumber" v="7803"/><tag k="coa:place_id" v="414640"/></node><node id="-430" lat="30.409925" lon="-97.778279" changeset="false"><tag k="addr:street" v="Villa Maria Lane"/><tag k="addr:housenumber" v="7227"/><tag k="coa:place_id" v="221145"/></node><node id="-431" lat="30.398888" lon="-97.775433" changeset="false"><tag k="addr:street" v="Fittonia Drive"/><tag k="addr:housenumber" v="9111"/><tag k="coa:place_id" v="3111908"/></node><node id="-432" lat="30.405517" lon="-97.771285" changeset="false"><tag k="addr:street" v="Sophora Cove"/><tag k="addr:housenumber" v="9705"/><tag k="coa:place_id" v="329296"/></node><node id="-433" lat="30.393381" lon="-97.770816" changeset="false"><tag k="addr:street" v="Cyrilla Drive"/><tag k="addr:housenumber" v="5808"/><tag k="coa:place_id" v="1152114"/></node><node id="-434" lat="30.411308" lon="-97.773596" changeset="false"><tag k="addr:street" v="Dianella Lane"/><tag k="addr:housenumber" v="10219"/><tag k="coa:place_id" v="210953"/></node><node id="-435" lat="30.398405" lon="-97.773366" changeset="false"><tag k="addr:street" v="Copperlily Cove"/><tag k="addr:housenumber" v="6400"/><tag k="coa:place_id" v="743356"/></node><node id="-436" lat="30.397283" lon="-97.772974" changeset="false"><tag k="addr:street" v="Anemone Cove"/><tag k="addr:housenumber" v="6108"/><tag k="coa:place_id" v="67333"/></node><node id="-437" lat="30.396237" lon="-97.775111" changeset="false"><tag k="addr:street" v="Yaupon Drive"/><tag k="addr:housenumber" v="6406"/><tag k="coa:place_id" v="67239"/></node><node id="-438" lat="30.410978" lon="-97.769731" changeset="false"><tag k="addr:street" v="Charette Cove"/><tag k="addr:housenumber" v="10411"/><tag k="coa:place_id" v="52438"/></node><node id="-439" lat="30.39523" lon="-97.776061" changeset="false"><tag k="addr:street" v="Yaupon Drive"/><tag k="addr:housenumber" v="6333"/><tag k="coa:place_id" v="67232"/></node><node id="-440" lat="30.395007" lon="-97.776067" changeset="false"><tag k="addr:street" v="Yaupon Drive"/><tag k="addr:housenumber" v="6331"/><tag k="coa:place_id" v="67231"/></node><node id="-441" lat="30.41416" lon="-97.777551" changeset="false"><tag k="addr:street" v="Blue Beach Cove"/><tag k="addr:housenumber" v="7501"/><tag k="coa:place_id" v="53502"/></node><node id="-442" lat="30.397547" lon="-97.775053" changeset="false"><tag k="addr:street" v="Yaupon Drive"/><tag k="addr:housenumber" v="6421"/><tag k="coa:place_id" v="67261"/></node><node id="-443" lat="30.39765" lon="-97.767816" changeset="false"><tag k="addr:street" v="Bluegrass Drive"/><tag k="addr:housenumber" v="9304"/><tag k="coa:place_id" v="672736"/></node><node id="-444" lat="30.394809" lon="-97.774675" changeset="false"><tag k="addr:street" v="Duranta Cove"/><tag k="addr:housenumber" v="6301"/><tag k="coa:place_id" v="67283"/></node><node id="-445" lat="30.392115" lon="-97.77007" changeset="false"><tag k="addr:street" v="Bluegrass Drive"/><tag k="addr:housenumber" v="8802"/><tag k="coa:place_id" v="74268"/></node><node id="-446" lat="30.413536" lon="-97.777845" changeset="false"><tag k="addr:street" v="Skyflower Cove"/><tag k="addr:housenumber" v="7405"/><tag k="coa:place_id" v="210877"/></node><node id="-447" lat="30.406815" lon="-97.776289" changeset="false"><tag k="addr:street" v="Oxaus Lane"/><tag k="addr:housenumber" v="9800"/><tag k="coa:place_id" v="3028822"/></node><node id="-448" lat="30.395748" lon="-97.76897" changeset="false"><tag k="addr:street" v="Bluegrass Drive"/><tag k="addr:housenumber" v="9104"/><tag k="coa:place_id" v="53836"/></node><node id="-449" lat="30.392813" lon="-97.771025" changeset="false"><tag k="addr:street" v="Cyrilla Drive"/><tag k="addr:housenumber" v="5809"/><tag k="coa:place_id" v="50137"/></node><node id="-450" lat="30.415555" lon="-97.773318" changeset="false"><tag k="addr:street" v="Rain Creek Parkway"/><tag k="addr:housenumber" v="7201"/><tag k="coa:place_id" v="52372"/></node><node id="-451" lat="30.407769" lon="-97.776237" changeset="false"><tag k="addr:street" v="Llano Estacado Lane"/><tag k="addr:housenumber" v="9806"/><tag k="coa:place_id" v="221113"/></node><node id="-452" lat="30.419477" lon="-97.786584" changeset="false"><tag k="addr:street" v="Yucca Drive"/><tag k="addr:housenumber" v="10402"/><tag k="coa:place_id" v="93451"/></node><node id="-453" lat="30.399742" lon="-97.773143" changeset="false"><tag k="addr:street" v="Spicebrush Drive"/><tag k="addr:housenumber" v="9223"/><tag k="coa:place_id" v="67307"/></node><node id="-454" lat="30.399238" lon="-97.771851" changeset="false"><tag k="addr:street" v="Spicebrush Drive"/><tag k="addr:housenumber" v="9215"/><tag k="coa:place_id" v="67303"/></node><node id="-455" lat="30.416777" lon="-97.789557" changeset="false"><tag k="addr:street" v="Horse Mountain Cove"/><tag k="addr:housenumber" v="8400"/><tag k="coa:place_id" v="85879"/></node><node id="-456" lat="30.394357" lon="-97.769286" changeset="false"><tag k="addr:street" v="Bluegrass Drive"/><tag k="addr:housenumber" v="9004"/><tag k="coa:place_id" v="53830"/></node><node id="-457" lat="30.398706" lon="-97.771641" changeset="false"><tag k="addr:street" v="Spicebrush Drive"/><tag k="addr:housenumber" v="9211"/><tag k="coa:place_id" v="67301"/></node><node id="-458" lat="30.398528" lon="-97.775268" changeset="false"><tag k="addr:street" v="Fittonia Drive"/><tag k="addr:housenumber" v="9107"/><tag k="coa:place_id" v="3111904"/></node><node id="-459" lat="30.388772" lon="-97.773438" changeset="false"><tag k="addr:street" v="Old Spicewood Springs Road,1100"/><tag k="addr:housenumber" v="5820"/><tag k="coa:place_id" v="1131487"/></node><node id="-460" lat="30.398189" lon="-97.771243" changeset="false"><tag k="addr:street" v="Spicebrush Drive"/><tag k="addr:housenumber" v="9205"/><tag k="coa:place_id" v="67312"/></node><node id="-461" lat="30.398021" lon="-97.775643" changeset="false"><tag k="addr:street" v="Fittonia Drive"/><tag k="addr:housenumber" v="9100"/><tag k="coa:place_id" v="3111897"/></node><node id="-462" lat="30.396609" lon="-97.77573" changeset="false"><tag k="addr:street" v="Yaupon Drive"/><tag k="addr:housenumber" v="6409"/><tag k="coa:place_id" v="67255"/></node><node id="-463" lat="30.390351" lon="-97.770331" changeset="false"><tag k="addr:street" v="Bluegrass Drive"/><tag k="addr:housenumber" v="8624"/><tag k="coa:place_id" v="3076126"/></node><node id="-464" lat="30.414653" lon="-97.777738" changeset="false"><tag k="addr:street" v="Blue Beach Cove"/><tag k="addr:housenumber" v="7502"/><tag k="coa:place_id" v="121660"/></node><node id="-465" lat="30.415343" lon="-97.78976" changeset="false"><tag k="addr:street" v="Kabar Trail"/><tag k="addr:housenumber" v="9901"/><tag k="coa:place_id" v="85909"/></node><node id="-466" lat="30.401605" lon="-97.768769" changeset="false"><tag k="addr:street" v="Chictora Cove"/><tag k="addr:housenumber" v="6013"/><tag k="coa:place_id" v="139774"/></node><node id="-467" lat="30.401939" lon="-97.776033" changeset="false"><tag k="addr:street" v="Havenbrook Cove"/><tag k="addr:housenumber" v="6709"/><tag k="coa:place_id" v="3072198"/></node><node id="-468" lat="30.403538" lon="-97.768745" changeset="false"><tag k="addr:street" v="Lost Horizon Drive"/><tag k="addr:housenumber" v="6107"/><tag k="coa:place_id" v="117642"/></node><node id="-469" lat="30.398178" lon="-97.774693" changeset="false"><tag k="addr:street" v="Yaupon Drive"/><tag k="addr:housenumber" v="6429"/><tag k="coa:place_id" v="67265"/></node><node id="-470" lat="30.398032" lon="-97.775415" changeset="false"><tag k="addr:street" v="Fittonia Drive"/><tag k="addr:housenumber" v="9101"/><tag k="coa:place_id" v="3111898"/></node><node id="-471" lat="30.414716" lon="-97.781169" changeset="false"><tag k="addr:street" v="Blue Lilly Drive"/><tag k="addr:housenumber" v="7801"/><tag k="coa:place_id" v="497830"/></node><node id="-472" lat="30.402606" lon="-97.776693" changeset="false"><tag k="addr:street" v="Yaupon Drive"/><tag k="addr:housenumber" v="6701"/><tag k="coa:place_id" v="3047781"/></node><node id="-473" lat="30.397677" lon="-97.774943" changeset="false"><tag k="addr:street" v="Yaupon Drive"/><tag k="addr:housenumber" v="6423"/><tag k="coa:place_id" v="67262"/></node><node id="-474" lat="30.416427" lon="-97.77417" changeset="false"><tag k="addr:street" v="Rain Creek Parkway"/><tag k="addr:housenumber" v="7303"/><tag k="coa:place_id" v="52377"/></node><node id="-475" lat="30.421197" lon="-97.787871" changeset="false"><tag k="addr:street" v="Saber Creek Trail"/><tag k="addr:housenumber" v="8407"/><tag k="coa:place_id" v="72278"/></node><node id="-476" lat="30.421015" lon="-97.784935" changeset="false"><tag k="addr:street" v="Saber Creek Trail"/><tag k="addr:housenumber" v="8303"/><tag k="coa:place_id" v="72267"/></node><node id="-477" lat="30.420676" lon="-97.7831" changeset="false"><tag k="addr:street" v="Pommel Drive"/><tag k="addr:housenumber" v="8101"/><tag k="coa:place_id" v="983312"/></node><node id="-478" lat="30.388976" lon="-97.768167" changeset="false"><tag k="addr:street" v="Bluegrass Drive"/><tag k="addr:housenumber" v="8508"/><tag k="coa:place_id" v="3099842"/></node><node id="-479" lat="30.422788" lon="-97.791925" changeset="false"><tag k="addr:street" v="Old Spicewood Springs Road,1100"/><tag k="addr:housenumber" v="8120"/><tag k="coa:place_id" v="257143"/></node><node id="-480" lat="30.396653" lon="-97.769809" changeset="false"><tag k="addr:street" v="Satsuma Cove"/><tag k="addr:housenumber" v="6001"/><tag k="coa:place_id" v="67327"/></node><node id="-481" lat="30.4229" lon="-97.782222" changeset="false"><tag k="addr:street" v="Mellow Lane"/><tag k="addr:housenumber" v="10805"/><tag k="coa:place_id" v="507494"/></node><node id="-482" lat="30.417436" lon="-97.783519" changeset="false"><tag k="addr:street" v="Double Spur Loop"/><tag k="addr:housenumber" v="10504"/><tag k="coa:place_id" v="112554"/></node><node id="-483" lat="30.413079" lon="-97.776032" changeset="false"><tag k="addr:street" v="Skyflower Drive"/><tag k="addr:housenumber" v="10401"/><tag k="coa:place_id" v="707842"/></node><node id="-484" lat="30.422367" lon="-97.782665" changeset="false"><tag k="addr:street" v="Mellow Lane"/><tag k="addr:housenumber" v="10801"/><tag k="coa:place_id" v="507536"/></node><node id="-485" lat="30.415403" lon="-97.775226" changeset="false"><tag k="addr:street" v="Skyflower Drive"/><tag k="addr:housenumber" v="10513"/><tag k="coa:place_id" v="53539"/></node><node id="-486" lat="30.392724" lon="-97.775782" changeset="false"><tag k="addr:street" v="Yaupon Drive"/><tag k="addr:housenumber" v="6306"/><tag k="coa:place_id" v="3081224"/></node><node id="-487" lat="30.403602" lon="-97.772744" changeset="false"><tag k="addr:street" v="Bitternut Cove"/><tag k="addr:housenumber" v="9604"/><tag k="coa:place_id" v="53877"/></node><node id="-488" lat="30.399679" lon="-97.772006" changeset="false"><tag k="addr:street" v="Spicebrush Drive"/><tag k="addr:housenumber" v="9217"/><tag k="coa:place_id" v="67304"/></node><node id="-489" lat="30.415148" lon="-97.77508" changeset="false"><tag k="addr:street" v="Cissus Cove"/><tag k="addr:housenumber" v="7302"/><tag k="coa:place_id" v="125501"/></node><node id="-490" lat="30.398072" lon="-97.767838" changeset="false"><tag k="addr:street" v="Bluegrass Drive"/><tag k="addr:housenumber" v="9308"/><tag k="coa:place_id" v="53824"/></node><node id="-491" lat="30.41474" lon="-97.773292" changeset="false"><tag k="addr:street" v="Red Maple Cove"/><tag k="addr:housenumber" v="7104"/><tag k="coa:place_id" v="712378"/></node><node id="-492" lat="30.399294" lon="-97.782581" changeset="false"><tag k="addr:street" v="Old Spicewood Springs Road,1100"/><tag k="addr:housenumber" v="6820"/><tag k="coa:place_id" v="3256041"/></node><node id="-493" lat="30.42268" lon="-97.790266" changeset="false"><tag k="addr:street" v="Toro Creek Cove"/><tag k="addr:housenumber" v="8600"/><tag k="coa:place_id" v="3072806"/></node><node id="-494" lat="30.422638" lon="-97.790259" changeset="false"><tag k="addr:street" v="Toro Creek Cove"/><tag k="addr:housenumber" v="8600 1/2"/><tag k="coa:place_id" v="3080657"/></node><node id="-495" lat="30.409342" lon="-97.777069" changeset="false"><tag k="addr:street" v="Croton Cove"/><tag k="addr:housenumber" v="9708"/><tag k="coa:place_id" v="3031197"/></node><node id="-496" lat="30.409341" lon="-97.777018" changeset="false"><tag k="addr:street" v="Yaupon Drive"/><tag k="addr:housenumber" v="7131"/><tag k="coa:place_id" v="239097"/></node></osm>