<?xml version="1.0" encoding="UTF-8"?><osm version="0.6" generator="github.com/aaronlidman/osm-and-geojson"><node id="-1" lat="30.399155" lon="-97.697767" changeset="false"><tag k="addr:street" v="Rickem Cove"/><tag k="addr:housenumber" v="11907"/><tag k="coa:place_id" v="108250"/></node><node id="-2" lat="30.400144" lon="-97.697996" changeset="false"><tag k="addr:street" v="Snow Goose Road"/><tag k="addr:housenumber" v="12005"/><tag k="coa:place_id" v="1015977"/></node><node id="-3" lat="30.397457" lon="-97.699734" changeset="false"><tag k="addr:street" v="Gracy Farms Lane"/><tag k="addr:housenumber" v="1800"/><tag k="coa:place_id" v="722445"/></node><node id="-4" lat="30.398621" lon="-97.699375" changeset="false"><tag k="addr:street" v="Snow Goose Road"/><tag k="addr:housenumber" v="11921"/><tag k="coa:place_id" v="3387040"/></node><node id="-5" lat="30.401964" lon="-97.701766" changeset="false"><tag k="addr:street" v="Metric Boulevard"/><tag k="addr:housenumber" v="12001"/><tag k="coa:place_id" v="629896"/></node><node id="-6" lat="30.398647" lon="-97.696085" changeset="false"><tag k="addr:street" v="Bittern Hollow"/><tag k="addr:housenumber" v="11932"/><tag k="coa:place_id" v="214720"/></node><node id="-7" lat="30.397615" lon="-97.696351" changeset="false"><tag k="addr:street" v="Meadowfire Drive"/><tag k="addr:housenumber" v="11908"/><tag k="coa:place_id" v="172186"/></node><node id="-8" lat="30.397585" lon="-97.696337" changeset="false"><tag k="addr:street" v="Kimmerling Lane"/><tag k="addr:housenumber" v="1602"/><tag k="coa:place_id" v="1004295"/></node></osm>