<?xml version="1.0" encoding="UTF-8"?><osm version="0.6" generator="github.com/aaronlidman/osm-and-geojson"><node id="-1" lat="30.13786" lon="-97.562252" changeset="false"><tag k="addr:street" v="Stony Point Drive"/><tag k="addr:housenumber" v="115"/><tag k="coa:place_id" v="3093701"/></node><node id="-2" lat="30.137836" lon="-97.561755" changeset="false"><tag k="addr:street" v="Stony Point Drive"/><tag k="addr:housenumber" v="112"/><tag k="coa:place_id" v="3093581"/></node><node id="-3" lat="30.13699" lon="-97.562711" changeset="false"><tag k="addr:street" v="Stony Point Drive"/><tag k="addr:housenumber" v="131"/><tag k="coa:place_id" v="3093602"/></node><node id="-4" lat="30.136277" lon="-97.562349" changeset="false"><tag k="addr:street" v="Stony Point Drive"/><tag k="addr:housenumber" v="136"/><tag k="coa:place_id" v="3093599"/></node><node id="-5" lat="30.134402" lon="-97.565999" changeset="false"><tag k="addr:street" v="Stony Ridge Drive"/><tag k="addr:housenumber" v="119"/><tag k="coa:place_id" v="3093511"/></node><node id="-6" lat="30.134303" lon="-97.571003" changeset="false"><tag k="addr:street" v="Stony Mont Drive"/><tag k="addr:housenumber" v="150"/><tag k="coa:place_id" v="3093396"/></node><node id="-7" lat="30.135266" lon="-97.568539" changeset="false"><tag k="addr:street" v="High Ridge Drive"/><tag k="addr:housenumber" v="125"/><tag k="coa:place_id" v="3093479"/></node><node id="-8" lat="30.134798" lon="-97.564425" changeset="false"><tag k="addr:street" v="Maha Drive"/><tag k="addr:housenumber" v="107"/><tag k="coa:place_id" v="3093550"/></node><node id="-9" lat="30.11847" lon="-97.590939" changeset="false"><tag k="addr:street" v="Jacobson Road"/><tag k="addr:housenumber" v="16716"/><tag k="coa:place_id" v="1164786"/></node><node id="-10" lat="30.134618" lon="-97.564095" changeset="false"><tag k="addr:street" v="Maha Drive"/><tag k="addr:housenumber" v="101"/><tag k="coa:place_id" v="3093548"/></node><node id="-11" lat="30.133789" lon="-97.57133" changeset="false"><tag k="addr:street" v="Stony Mont Drive"/><tag k="addr:housenumber" v="160"/><tag k="coa:place_id" v="3093399"/></node><node id="-12" lat="30.133049" lon="-97.567384" changeset="false"><tag k="addr:street" v="High Point Drive,1100"/><tag k="addr:housenumber" v="140"/><tag k="coa:place_id" v="3093528"/></node><node id="-13" lat="30.132694" lon="-97.572152" changeset="false"><tag k="addr:street" v="Fagerquist Rd; Wolf Ln; Pearce Lane,1100"/><tag k="addr:housenumber" v="8321"/><tag k="coa:place_id" v="3092515"/></node><node id="-14" lat="30.13209" lon="-97.572396" changeset="false"><tag k="addr:street" v="Edge Rock Drive"/><tag k="addr:housenumber" v="175"/><tag k="coa:place_id" v="3093940"/></node><node id="-15" lat="30.131652" lon="-97.571403" changeset="false"><tag k="addr:street" v="Edge Rock Drive"/><tag k="addr:housenumber" v="163"/><tag k="coa:place_id" v="3093933"/></node><node id="-16" lat="30.13636" lon="-97.569287" changeset="false"><tag k="addr:street" v="Stony Mont Drive"/><tag k="addr:housenumber" v="117"/><tag k="coa:place_id" v="3093379"/></node><node id="-17" lat="30.131548" lon="-97.570319" changeset="false"><tag k="addr:street" v="Edge Rock Drive"/><tag k="addr:housenumber" v="150"/><tag k="coa:place_id" v="3093915"/></node><node id="-18" lat="30.131009" lon="-97.570089" changeset="false"><tag k="addr:street" v="Edge Rock Drive"/><tag k="addr:housenumber" v="143"/><tag k="coa:place_id" v="3093908"/></node><node id="-19" lat="30.130801" lon="-97.567735" changeset="false"><tag k="addr:street" v="Edge Rock Drive"/><tag k="addr:housenumber" v="106"/><tag k="coa:place_id" v="3093875"/></node><node id="-20" lat="30.137098" lon="-97.562074" changeset="false"><tag k="addr:street" v="Stony Point Drive"/><tag k="addr:housenumber" v="124"/><tag k="coa:place_id" v="3093595"/></node><node id="-21" lat="30.135896" lon="-97.568709" changeset="false"><tag k="addr:street" v="High Ridge Drive"/><tag k="addr:housenumber" v="118"/><tag k="coa:place_id" v="3093481"/></node><node id="-22" lat="30.135682" lon="-97.568735" changeset="false"><tag k="addr:street" v="High Ridge Drive"/><tag k="addr:housenumber" v="120"/><tag k="coa:place_id" v="3093482"/></node><node id="-23" lat="30.135334" lon="-97.566376" changeset="false"><tag k="addr:street" v="High Point Drive,1100"/><tag k="addr:housenumber" v="108"/><tag k="coa:place_id" v="3093546"/></node><node id="-24" lat="30.135341" lon="-97.567887" changeset="false"><tag k="addr:street" v="Stony Creek Drive"/><tag k="addr:housenumber" v="120"/><tag k="coa:place_id" v="3093494"/></node><node id="-25" lat="30.132146" lon="-97.565135" changeset="false"><tag k="addr:street" v="Stony Point Drive"/><tag k="addr:housenumber" v="200"/><tag k="coa:place_id" v="3093711"/></node><node id="-26" lat="30.134027" lon="-97.569998" changeset="false"><tag k="addr:street" v="High Ridge Drive"/><tag k="addr:housenumber" v="148"/><tag k="coa:place_id" v="3093408"/></node><node id="-27" lat="30.1392" lon="-97.568953" changeset="false"><tag k="addr:street" v="Fagerquist Rd; Wolf Ln; Pearce Lane,1100"/><tag k="addr:housenumber" v="8106"/><tag k="coa:place_id" v="3093349"/></node><node id="-28" lat="30.136499" lon="-97.569577" changeset="false"><tag k="addr:street" v="Stony Mont Drive"/><tag k="addr:housenumber" v="116"/><tag k="coa:place_id" v="3093378"/></node><node id="-29" lat="30.130586" lon="-97.569277" changeset="false"><tag k="addr:street" v="Edge Rock Drive"/><tag k="addr:housenumber" v="133"/><tag k="coa:place_id" v="3093901"/></node><node id="-30" lat="30.130158" lon="-97.568285" changeset="false"><tag k="addr:street" v="Edge Rock Drive"/><tag k="addr:housenumber" v="121"/><tag k="coa:place_id" v="3093888"/></node><node id="-31" lat="30.136147" lon="-97.567706" changeset="false"><tag k="addr:street" v="Stony Creek Drive"/><tag k="addr:housenumber" v="110"/><tag k="coa:place_id" v="3093491"/></node><node id="-32" lat="30.134688" lon="-97.565752" changeset="false"><tag k="addr:street" v="Stony Ridge Drive"/><tag k="addr:housenumber" v="120"/><tag k="coa:place_id" v="3093513"/></node><node id="-33" lat="30.137978" lon="-97.561583" changeset="false"><tag k="addr:street" v="Stony Point Drive"/><tag k="addr:housenumber" v="110"/><tag k="coa:place_id" v="3093580"/></node><node id="-34" lat="30.132209" lon="-97.56828" changeset="false"><tag k="addr:street" v="Stony Creek Drive"/><tag k="addr:housenumber" v="166"/><tag k="coa:place_id" v="3093835"/></node><node id="-35" lat="30.131922" lon="-97.566799" changeset="false"><tag k="addr:street" v="High Point Drive,1100"/><tag k="addr:housenumber" v="154"/><tag k="coa:place_id" v="3093818"/></node><node id="-36" lat="30.131912" lon="-97.566354" changeset="false"><tag k="addr:street" v="High Point Drive,1100"/><tag k="addr:housenumber" v="158"/><tag k="coa:place_id" v="3093819"/></node><node id="-37" lat="30.131615" lon="-97.568483" changeset="false"><tag k="addr:street" v="Rock Mont Drive"/><tag k="addr:housenumber" v="107"/><tag k="coa:place_id" v="3093845"/></node><node id="-38" lat="30.13125" lon="-97.569685" changeset="false"><tag k="addr:street" v="Edge Rock Drive"/><tag k="addr:housenumber" v="142"/><tag k="coa:place_id" v="3093907"/></node><node id="-39" lat="30.131136" lon="-97.566777" changeset="false"><tag k="addr:street" v="Stony Point Drive"/><tag k="addr:housenumber" v="229"/><tag k="coa:place_id" v="3093723"/></node><node id="-40" lat="30.134647" lon="-97.569483" changeset="false"><tag k="addr:street" v="High Ridge Drive"/><tag k="addr:housenumber" v="138"/><tag k="coa:place_id" v="3093403"/></node><node id="-41" lat="30.134642" lon="-97.570809" changeset="false"><tag k="addr:street" v="Stony Mont Drive"/><tag k="addr:housenumber" v="144"/><tag k="coa:place_id" v="3093392"/></node><node id="-42" lat="30.134456" lon="-97.569603" changeset="false"><tag k="addr:street" v="High Ridge Drive"/><tag k="addr:housenumber" v="140"/><tag k="coa:place_id" v="3093405"/></node><node id="-43" lat="30.134221" lon="-97.565612" changeset="false"><tag k="addr:street" v="Stony Ridge Drive"/><tag k="addr:housenumber" v="113"/><tag k="coa:place_id" v="3093512"/></node><node id="-44" lat="30.134671" lon="-97.563582" changeset="false"><tag k="addr:street" v="Stony Point Drive"/><tag k="addr:housenumber" v="162"/><tag k="coa:place_id" v="3093564"/></node><node id="-45" lat="30.11847" lon="-97.591556" changeset="false"><tag k="addr:street" v="Jacobson Road"/><tag k="addr:housenumber" v="16704"/><tag k="coa:place_id" v="229440"/></node><node id="-46" lat="30.132761" lon="-97.570524" changeset="false"><tag k="addr:street" v="Rock Mont Drive"/><tag k="addr:housenumber" v="134"/><tag k="coa:place_id" v="3093863"/></node><node id="-47" lat="30.132359" lon="-97.56977" changeset="false"><tag k="addr:street" v="Rock Mont Drive"/><tag k="addr:housenumber" v="124"/><tag k="coa:place_id" v="3093853"/></node><node id="-48" lat="30.138289" lon="-97.561331" changeset="false"><tag k="addr:street" v="Stony Point Drive"/><tag k="addr:housenumber" v="104"/><tag k="coa:place_id" v="3093579"/></node><node id="-49" lat="30.137836" lon="-97.569741" changeset="false"><tag k="addr:street" v="Fagerquist Rd; Wolf Ln; Pearce Lane,1100"/><tag k="addr:housenumber" v="8202"/><tag k="coa:place_id" v="3190280"/></node><node id="-50" lat="30.134037" lon="-97.564407" changeset="false"><tag k="addr:street" v="Stony Point Drive"/><tag k="addr:housenumber" v="171"/><tag k="coa:place_id" v="3093543"/></node><node id="-51" lat="30.13391" lon="-97.572019" changeset="false"><tag k="addr:street" v="Fagerquist Rd; Wolf Ln; Pearce Lane,1100"/><tag k="addr:housenumber" v="8308"/><tag k="coa:place_id" v="3092601"/></node><node id="-52" lat="30.133233" lon="-97.5663" changeset="false"><tag k="addr:street" v="Algarita Drive"/><tag k="addr:housenumber" v="106"/><tag k="coa:place_id" v="3093529"/></node><node id="-53" lat="30.132736" lon="-97.56524" changeset="false"><tag k="addr:street" v="Stony Point Drive"/><tag k="addr:housenumber" v="195"/><tag k="coa:place_id" v="3093708"/></node><node id="-54" lat="30.130732" lon="-97.568525" changeset="false"><tag k="addr:street" v="Edge Rock Drive"/><tag k="addr:housenumber" v="126"/><tag k="coa:place_id" v="3093894"/></node><node id="-55" lat="30.130682" lon="-97.566523" changeset="false"><tag k="addr:street" v="Stony Point Drive"/><tag k="addr:housenumber" v="226"/><tag k="coa:place_id" v="3093720"/></node><node id="-56" lat="30.130229" lon="-97.56854" changeset="false"><tag k="addr:street" v="Edge Rock Drive"/><tag k="addr:housenumber" v="123"/><tag k="coa:place_id" v="3093889"/></node><node id="-57" lat="30.13585" lon="-97.569531" changeset="false"><tag k="addr:street" v="Stony Mont Drive"/><tag k="addr:housenumber" v="125"/><tag k="coa:place_id" v="3093383"/></node><node id="-58" lat="30.13266" lon="-97.570299" changeset="false"><tag k="addr:street" v="Rock Mont Drive"/><tag k="addr:housenumber" v="132"/><tag k="coa:place_id" v="3093862"/></node><node id="-59" lat="30.132492" lon="-97.564902" changeset="false"><tag k="addr:street" v="Stony Point Drive"/><tag k="addr:housenumber" v="196"/><tag k="coa:place_id" v="3093709"/></node><node id="-60" lat="30.135968" lon="-97.563511" changeset="false"><tag k="addr:street" v="Stony Point Drive"/><tag k="addr:housenumber" v="145"/><tag k="coa:place_id" v="3093572"/></node><node id="-61" lat="30.13523" lon="-97.569215" changeset="false"><tag k="addr:street" v="High Ridge Drive"/><tag k="addr:housenumber" v="130"/><tag k="coa:place_id" v="3093485"/></node><node id="-62" lat="30.135923" lon="-97.567729" changeset="false"><tag k="addr:street" v="Stony Creek Drive"/><tag k="addr:housenumber" v="112"/><tag k="coa:place_id" v="3093492"/></node><node id="-63" lat="30.135854" lon="-97.565537" changeset="false"><tag k="addr:street" v="Maha Drive"/><tag k="addr:housenumber" v="124"/><tag k="coa:place_id" v="3093560"/></node><node id="-64" lat="30.136183" lon="-97.563408" changeset="false"><tag k="addr:street" v="Stony Point Drive"/><tag k="addr:housenumber" v="143"/><tag k="coa:place_id" v="3093570"/></node><node id="-65" lat="30.13772" lon="-97.562382" changeset="false"><tag k="addr:street" v="Stony Point Drive"/><tag k="addr:housenumber" v="119"/><tag k="coa:place_id" v="3093702"/></node><node id="-66" lat="30.133237" lon="-97.569326" changeset="false"><tag k="addr:street" v="Rock Point Drive"/><tag k="addr:housenumber" v="110"/><tag k="coa:place_id" v="3093419"/></node><node id="-67" lat="30.130325" lon="-97.56873" changeset="false"><tag k="addr:street" v="Edge Rock Drive"/><tag k="addr:housenumber" v="125"/><tag k="coa:place_id" v="3093890"/></node><node id="-68" lat="30.133092" lon="-97.565934" changeset="false"><tag k="addr:street" v="Algarita Drive"/><tag k="addr:housenumber" v="105"/><tag k="coa:place_id" v="3093531"/></node><node id="-69" lat="30.13804" lon="-97.56213" changeset="false"><tag k="addr:street" v="Stony Point Drive"/><tag k="addr:housenumber" v="113"/><tag k="coa:place_id" v="3093700"/></node><node id="-70" lat="30.134812" lon="-97.570708" changeset="false"><tag k="addr:street" v="Stony Mont Drive"/><tag k="addr:housenumber" v="142"/><tag k="coa:place_id" v="3093390"/></node><node id="-71" lat="30.134338" lon="-97.569301" changeset="false"><tag k="addr:street" v="High Ridge Drive"/><tag k="addr:housenumber" v="139"/><tag k="coa:place_id" v="3093404"/></node><node id="-72" lat="30.133561" lon="-97.570757" changeset="false"><tag k="addr:street" v="Rock Point Drive"/><tag k="addr:housenumber" v="127"/><tag k="coa:place_id" v="3093415"/></node><node id="-73" lat="30.135459" lon="-97.563707" changeset="false"><tag k="addr:street" v="Stony Point Drive"/><tag k="addr:housenumber" v="151"/><tag k="coa:place_id" v="3093565"/></node><node id="-74" lat="30.135162" lon="-97.570494" changeset="false"><tag k="addr:street" v="Stony Mont Drive"/><tag k="addr:housenumber" v="136"/><tag k="coa:place_id" v="3093387"/></node><node id="-75" lat="30.132166" lon="-97.565576" changeset="false"><tag k="addr:street" v="High Point Drive,1100"/><tag k="addr:housenumber" v="167"/><tag k="coa:place_id" v="3093824"/></node><node id="-76" lat="30.13156" lon="-97.568747" changeset="false"><tag k="addr:street" v="Rock Mont Drive"/><tag k="addr:housenumber" v="111"/><tag k="coa:place_id" v="3093846"/></node><node id="-77" lat="30.131396" lon="-97.570826" changeset="false"><tag k="addr:street" v="Edge Rock Drive"/><tag k="addr:housenumber" v="155"/><tag k="coa:place_id" v="3093919"/></node><node id="-78" lat="30.131105" lon="-97.570273" changeset="false"><tag k="addr:street" v="Edge Rock Drive"/><tag k="addr:housenumber" v="147"/><tag k="coa:place_id" v="3093912"/></node><node id="-79" lat="30.131861" lon="-97.56764" changeset="false"><tag k="addr:street" v="Stony Creek Drive"/><tag k="addr:housenumber" v="173"/><tag k="coa:place_id" v="3093832"/></node><node id="-80" lat="30.118869" lon="-97.592076" changeset="false"><tag k="addr:street" v="Jacobson Road"/><tag k="addr:housenumber" v="16620"/><tag k="coa:place_id" v="237762"/></node><node id="-81" lat="30.138509" lon="-97.569464" changeset="false"><tag k="addr:street" v="Fagerquist Rd; Wolf Ln; Pearce Lane,1100"/><tag k="addr:housenumber" v="8110"/><tag k="coa:place_id" v="3093350"/></node><node id="-82" lat="30.132038" lon="-97.569972" changeset="false"><tag k="addr:street" v="Rock Mont Drive"/><tag k="addr:housenumber" v="125"/><tag k="coa:place_id" v="3093857"/></node><node id="-83" lat="30.130964" lon="-97.565903" changeset="false"><tag k="addr:street" v="Stony Point Drive"/><tag k="addr:housenumber" v="220"/><tag k="coa:place_id" v="3093716"/></node><node id="-84" lat="30.135062" lon="-97.563378" changeset="false"><tag k="addr:street" v="Stony Point Drive"/><tag k="addr:housenumber" v="156"/><tag k="coa:place_id" v="3093569"/></node><node id="-85" lat="30.134916" lon="-97.564621" changeset="false"><tag k="addr:street" v="Maha Drive"/><tag k="addr:housenumber" v="111"/><tag k="coa:place_id" v="3093551"/></node><node id="-86" lat="30.135268" lon="-97.563781" changeset="false"><tag k="addr:street" v="Stony Point Drive"/><tag k="addr:housenumber" v="155"/><tag k="coa:place_id" v="3093568"/></node><node id="-87" lat="30.133746" lon="-97.570324" changeset="false"><tag k="addr:street" v="Rock Point Drive"/><tag k="addr:housenumber" v="124"/><tag k="coa:place_id" v="3093413"/></node><node id="-88" lat="30.136498" lon="-97.562436" changeset="false"><tag k="addr:street" v="Stony Point Drive"/><tag k="addr:housenumber" v="132"/><tag k="coa:place_id" v="3093598"/></node><node id="-89" lat="30.133457" lon="-97.571594" changeset="false"><tag k="addr:street" v="Stony Mont Drive"/><tag k="addr:housenumber" v="164"/><tag k="coa:place_id" v="3093401"/></node><node id="-90" lat="30.134119" lon="-97.570677" changeset="false"><tag k="addr:street" v="Stony Mont Drive"/><tag k="addr:housenumber" v="149"/><tag k="coa:place_id" v="3093395"/></node><node id="-91" lat="30.132743" lon="-97.566187" changeset="false"><tag k="addr:street" v="Algarita Drive"/><tag k="addr:housenumber" v="109"/><tag k="coa:place_id" v="3093812"/></node><node id="-92" lat="30.132632" lon="-97.566433" changeset="false"><tag k="addr:street" v="Algarita Drive"/><tag k="addr:housenumber" v="111"/><tag k="coa:place_id" v="3093813"/></node><node id="-93" lat="30.134336" lon="-97.565001" changeset="false"><tag k="addr:street" v="Stony Ridge Drive"/><tag k="addr:housenumber" v="110"/><tag k="coa:place_id" v="3093544"/></node><node id="-94" lat="30.136125" lon="-97.562447" changeset="false"><tag k="addr:street" v="Stony Point Drive"/><tag k="addr:housenumber" v="140"/><tag k="coa:place_id" v="3093600"/></node><node id="-95" lat="30.133215" lon="-97.569996" changeset="false"><tag k="addr:street" v="Rock Point Drive"/><tag k="addr:housenumber" v="119"/><tag k="coa:place_id" v="3093506"/></node><node id="-96" lat="30.131505" lon="-97.567356" changeset="false"><tag k="addr:street" v="Stony Creek Drive"/><tag k="addr:housenumber" v="181"/><tag k="coa:place_id" v="3093839"/></node><node id="-97" lat="30.131029" lon="-97.566333" changeset="false"><tag k="addr:street" v="Stony Point Drive"/><tag k="addr:housenumber" v="223"/><tag k="coa:place_id" v="3093718"/></node><node id="-98" lat="30.130883" lon="-97.569877" changeset="false"><tag k="addr:street" v="Edge Rock Drive"/><tag k="addr:housenumber" v="141"/><tag k="coa:place_id" v="3093906"/></node><node id="-99" lat="30.130719" lon="-97.566746" changeset="false"><tag k="addr:street" v="Stony Point Drive"/><tag k="addr:housenumber" v="228"/><tag k="coa:place_id" v="3093722"/></node><node id="-100" lat="30.134638" lon="-97.570356" changeset="false"><tag k="addr:street" v="Stony Mont Drive"/><tag k="addr:housenumber" v="143"/><tag k="coa:place_id" v="3093391"/></node><node id="-101" lat="30.134141" lon="-97.569402" changeset="false"><tag k="addr:street" v="High Ridge Drive"/><tag k="addr:housenumber" v="145"/><tag k="coa:place_id" v="3093407"/></node><node id="-102" lat="30.132772" lon="-97.571967" changeset="false"><tag k="addr:street" v="Stony Mont Drive"/><tag k="addr:housenumber" v="174"/><tag k="coa:place_id" v="3093942"/></node><node id="-103" lat="30.136687" lon="-97.569074" changeset="false"><tag k="addr:street" v="Stony Mont Drive"/><tag k="addr:housenumber" v="111"/><tag k="coa:place_id" v="3093377"/></node><node id="-104" lat="30.135652" lon="-97.568386" changeset="false"><tag k="addr:street" v="High Ridge Drive"/><tag k="addr:housenumber" v="121"/><tag k="coa:place_id" v="3093478"/></node><node id="-105" lat="30.135437" lon="-97.564515" changeset="false"><tag k="addr:street" v="Maha Drive"/><tag k="addr:housenumber" v="112"/><tag k="coa:place_id" v="3093559"/></node><node id="-106" lat="30.134966" lon="-97.564886" changeset="false"><tag k="addr:street" v="Maha Drive"/><tag k="addr:housenumber" v="113"/><tag k="coa:place_id" v="3093554"/></node><node id="-107" lat="30.13222" lon="-97.571591" changeset="false"><tag k="addr:street" v="Edge Rock Drive"/><tag k="addr:housenumber" v="168"/><tag k="coa:place_id" v="3093930"/></node><node id="-108" lat="30.131903" lon="-97.566125" changeset="false"><tag k="addr:street" v="High Point Drive,1100"/><tag k="addr:housenumber" v="160"/><tag k="coa:place_id" v="3093820"/></node><node id="-109" lat="30.132469" lon="-97.56996" changeset="false"><tag k="addr:street" v="Rock Mont Drive"/><tag k="addr:housenumber" v="128"/><tag k="coa:place_id" v="3093860"/></node><node id="-110" lat="30.1368" lon="-97.562919" changeset="false"><tag k="addr:street" v="Stony Point Drive"/><tag k="addr:housenumber" v="133"/><tag k="coa:place_id" v="3093575"/></node><node id="-111" lat="30.139984" lon="-97.568786" changeset="false"><tag k="addr:street" v="Fagerquist Rd; Wolf Ln; Pearce Lane,1100"/><tag k="addr:housenumber" v="8102"/><tag k="coa:place_id" v="3105497"/></node><node id="-112" lat="30.136294" lon="-97.56862" changeset="false"><tag k="addr:street" v="High Ridge Drive"/><tag k="addr:housenumber" v="112"/><tag k="coa:place_id" v="3093474"/></node><node id="-113" lat="30.134134" lon="-97.571116" changeset="false"><tag k="addr:street" v="Stony Mont Drive"/><tag k="addr:housenumber" v="152"/><tag k="coa:place_id" v="3093397"/></node><node id="-114" lat="30.132793" lon="-97.564691" changeset="false"><tag k="addr:street" v="Stony Point Drive"/><tag k="addr:housenumber" v="190"/><tag k="coa:place_id" v="3093706"/></node><node id="-115" lat="30.135157" lon="-97.570021" changeset="false"><tag k="addr:street" v="Stony Mont Drive"/><tag k="addr:housenumber" v="135"/><tag k="coa:place_id" v="3093486"/></node><node id="-116" lat="30.133258" lon="-97.564913" changeset="false"><tag k="addr:street" v="Stony Point Drive"/><tag k="addr:housenumber" v="185"/><tag k="coa:place_id" v="3093535"/></node><node id="-117" lat="30.12067" lon="-97.562914" changeset="false"><tag k="addr:street" v="Mesa Drive"/><tag k="addr:housenumber" v="750"/><tag k="coa:place_id" v="5125625"/></node><node id="-118" lat="30.119087" lon="-97.592357" changeset="false"><tag k="addr:street" v="Jacobson Road"/><tag k="addr:housenumber" v="16616"/><tag k="coa:place_id" v="3134231"/></node><node id="-119" lat="30.118739" lon="-97.591746" changeset="false"><tag k="addr:street" v="Jacobson Road"/><tag k="addr:housenumber" v="16700"/><tag k="coa:place_id" v="237763"/></node><node id="-120" lat="30.135561" lon="-97.565216" changeset="false"><tag k="addr:street" v="Maha Drive"/><tag k="addr:housenumber" v="120"/><tag k="coa:place_id" v="3093557"/></node><node id="-121" lat="30.134758" lon="-97.566713" changeset="false"><tag k="addr:street" v="Stony Ridge Drive"/><tag k="addr:housenumber" v="131"/><tag k="coa:place_id" v="3093498"/></node><node id="-122" lat="30.133342" lon="-97.570374" changeset="false"><tag k="addr:street" v="Rock Point Drive"/><tag k="addr:housenumber" v="123"/><tag k="coa:place_id" v="3093412"/></node><node id="-123" lat="30.132045" lon="-97.571" changeset="false"><tag k="addr:street" v="Edge Rock Drive"/><tag k="addr:housenumber" v="160"/><tag k="coa:place_id" v="3093927"/></node><node id="-124" lat="30.132192" lon="-97.566073" changeset="false"><tag k="addr:street" v="High Point Drive,1100"/><tag k="addr:housenumber" v="161"/><tag k="coa:place_id" v="3093821"/></node><node id="-125" lat="30.132134" lon="-97.570168" changeset="false"><tag k="addr:street" v="Rock Mont Drive"/><tag k="addr:housenumber" v="127"/><tag k="coa:place_id" v="3093858"/></node><node id="-126" lat="30.132437" lon="-97.567157" changeset="false"><tag k="addr:street" v="High Point Drive,1100"/><tag k="addr:housenumber" v="148"/><tag k="coa:place_id" v="3093817"/></node><node id="-127" lat="30.131748" lon="-97.571581" changeset="false"><tag k="addr:street" v="Edge Rock Drive"/><tag k="addr:housenumber" v="165"/><tag k="coa:place_id" v="3093934"/></node><node id="-128" lat="30.131633" lon="-97.570492" changeset="false"><tag k="addr:street" v="Edge Rock Drive"/><tag k="addr:housenumber" v="152"/><tag k="coa:place_id" v="3093917"/></node><node id="-129" lat="30.131422" lon="-97.567887" changeset="false"><tag k="addr:street" v="Stony Creek Drive"/><tag k="addr:housenumber" v="178"/><tag k="coa:place_id" v="3093836"/></node><node id="-130" lat="30.130445" lon="-97.568878" changeset="false"><tag k="addr:street" v="Edge Rock Drive"/><tag k="addr:housenumber" v="129"/><tag k="coa:place_id" v="3093897"/></node><node id="-131" lat="30.134618" lon="-97.567625" changeset="false"><tag k="addr:street" v="Stony Creek Drive"/><tag k="addr:housenumber" v="131"/><tag k="coa:place_id" v="3093500"/></node><node id="-132" lat="30.133841" lon="-97.572817" changeset="false"><tag k="addr:street" v="Fagerquist Rd; Wolf Ln; Pearce Lane,1100"/><tag k="addr:housenumber" v="8310"/><tag k="coa:place_id" v="3092604"/></node><node id="-133" lat="30.131431" lon="-97.570106" changeset="false"><tag k="addr:street" v="Edge Rock Drive"/><tag k="addr:housenumber" v="146"/><tag k="coa:place_id" v="3093911"/></node><node id="-134" lat="30.135003" lon="-97.568884" changeset="false"><tag k="addr:street" v="High Ridge Drive"/><tag k="addr:housenumber" v="129"/><tag k="coa:place_id" v="3093480"/></node><node id="-135" lat="30.134821" lon="-97.568268" changeset="false"><tag k="addr:street" v="Stony Creek Drive"/><tag k="addr:housenumber" v="128"/><tag k="coa:place_id" v="3093496"/></node><node id="-136" lat="30.137282" lon="-97.562003" changeset="false"><tag k="addr:street" v="Stony Point Drive"/><tag k="addr:housenumber" v="122"/><tag k="coa:place_id" v="3093594"/></node><node id="-137" lat="30.133285" lon="-97.570219" changeset="false"><tag k="addr:street" v="Rock Point Drive"/><tag k="addr:housenumber" v="121"/><tag k="coa:place_id" v="3093507"/></node><node id="-138" lat="30.133633" lon="-97.569729" changeset="false"><tag k="addr:street" v="High Ridge Drive"/><tag k="addr:housenumber" v="151"/><tag k="coa:place_id" v="3093411"/></node><node id="-139" lat="30.133311" lon="-97.565093" changeset="false"><tag k="addr:street" v="Post Oak Road"/><tag k="addr:housenumber" v="106"/><tag k="coa:place_id" v="3093521"/></node><node id="-140" lat="30.132643" lon="-97.564807" changeset="false"><tag k="addr:street" v="Stony Point Drive"/><tag k="addr:housenumber" v="194"/><tag k="coa:place_id" v="3093707"/></node><node id="-141" lat="30.132505" lon="-97.570911" changeset="false"><tag k="addr:street" v="Rock Mont Drive"/><tag k="addr:housenumber" v="135"/><tag k="coa:place_id" v="3093865"/></node><node id="-142" lat="30.133103" lon="-97.569049" changeset="false"><tag k="addr:street" v="Rock Point Drive"/><tag k="addr:housenumber" v="106"/><tag k="coa:place_id" v="3093418"/></node><node id="-143" lat="30.131442" lon="-97.571064" changeset="false"><tag k="addr:street" v="Edge Rock Drive"/><tag k="addr:housenumber" v="157"/><tag k="coa:place_id" v="3093920"/></node><node id="-144" lat="30.130106" lon="-97.567538" changeset="false"><tag k="addr:street" v="Edge Rock Drive"/><tag k="addr:housenumber" v="111"/><tag k="coa:place_id" v="3093883"/></node><node id="-145" lat="30.131144" lon="-97.569513" changeset="false"><tag k="addr:street" v="Edge Rock Drive"/><tag k="addr:housenumber" v="138"/><tag k="coa:place_id" v="3093904"/></node><node id="-146" lat="30.135357" lon="-97.569062" changeset="false"><tag k="addr:street" v="High Ridge Drive"/><tag k="addr:housenumber" v="126"/><tag k="coa:place_id" v="3093484"/></node><node id="-147" lat="30.135381" lon="-97.570411" changeset="false"><tag k="addr:street" v="Stony Mont Drive"/><tag k="addr:housenumber" v="132"/><tag k="coa:place_id" v="3093386"/></node><node id="-148" lat="30.122348" lon="-97.561712" changeset="false"><tag k="addr:street" v="Mesa Drive"/><tag k="addr:housenumber" v="770"/><tag k="coa:place_id" v="5125626"/></node><node id="-149" lat="30.123641" lon="-97.560527" changeset="false"><tag k="addr:street" v="Mesa Drive"/><tag k="addr:housenumber" v="790"/><tag k="coa:place_id" v="5125627"/></node><node id="-150" lat="30.137391" lon="-97.562586" changeset="false"><tag k="addr:street" v="Stony Point Drive"/><tag k="addr:housenumber" v="123"/><tag k="coa:place_id" v="3093704"/></node><node id="-151" lat="30.132996" lon="-97.5713" changeset="false"><tag k="addr:street" v="Rock Mont Drive"/><tag k="addr:housenumber" v="144"/><tag k="coa:place_id" v="3093869"/></node><node id="-152" lat="30.132971" lon="-97.571091" changeset="false"><tag k="addr:street" v="Rock Mont Drive"/><tag k="addr:housenumber" v="142"/><tag k="coa:place_id" v="3093867"/></node><node id="-153" lat="30.13278" lon="-97.569279" changeset="false"><tag k="addr:street" v="Rock Point Drive"/><tag k="addr:housenumber" v="107"/><tag k="coa:place_id" v="3093842"/></node><node id="-154" lat="30.132212" lon="-97.569102" changeset="false"><tag k="addr:street" v="Rock Mont Drive"/><tag k="addr:housenumber" v="118"/><tag k="coa:place_id" v="3093850"/></node><node id="-155" lat="30.133545" lon="-97.568854" changeset="false"><tag k="addr:street" v="Stony Creek Drive"/><tag k="addr:housenumber" v="148"/><tag k="coa:place_id" v="3093503"/></node><node id="-156" lat="30.131984" lon="-97.571248" changeset="false"><tag k="addr:street" v="Edge Rock Drive"/><tag k="addr:housenumber" v="162"/><tag k="coa:place_id" v="3093928"/></node><node id="-157" lat="30.131901" lon="-97.569748" changeset="false"><tag k="addr:street" v="Rock Mont Drive"/><tag k="addr:housenumber" v="123"/><tag k="coa:place_id" v="3093856"/></node><node id="-158" lat="30.131533" lon="-97.57126" changeset="false"><tag k="addr:street" v="Edge Rock Drive"/><tag k="addr:housenumber" v="159"/><tag k="coa:place_id" v="3093921"/></node><node id="-159" lat="30.131191" lon="-97.570481" changeset="false"><tag k="addr:street" v="Edge Rock Drive"/><tag k="addr:housenumber" v="149"/><tag k="coa:place_id" v="3093914"/></node><node id="-160" lat="30.134449" lon="-97.570852" changeset="false"><tag k="addr:street" v="Stony Mont Drive"/><tag k="addr:housenumber" v="148"/><tag k="coa:place_id" v="3093394"/></node><node id="-161" lat="30.135265" lon="-97.572121" changeset="false"><tag k="addr:street" v="Fagerquist Rd; Wolf Ln; Pearce Lane,1100"/><tag k="addr:housenumber" v="8302"/><tag k="coa:place_id" v="3092587"/></node><node id="-162" lat="30.134805" lon="-97.563391" changeset="false"><tag k="addr:street" v="Stony Point Drive"/><tag k="addr:housenumber" v="160"/><tag k="coa:place_id" v="3093563"/></node><node id="-163" lat="30.132968" lon="-97.567016" changeset="false"><tag k="addr:street" v="High Point Drive,1100"/><tag k="addr:housenumber" v="147"/><tag k="coa:place_id" v="3093816"/></node><node id="-164" lat="30.130759" lon="-97.566021" changeset="false"><tag k="addr:street" v="Stony Point Drive"/><tag k="addr:housenumber" v="222"/><tag k="coa:place_id" v="3093717"/></node><node id="-165" lat="30.119055" lon="-97.592175" changeset="false"><tag k="addr:street" v="Jacobson Road"/><tag k="addr:housenumber" v="16618"/><tag k="coa:place_id" v="1103787"/></node><node id="-166" lat="30.134134" lon="-97.56798" changeset="false"><tag k="addr:street" v="Stony Creek Drive"/><tag k="addr:housenumber" v="135"/><tag k="coa:place_id" v="3093501"/></node><node id="-167" lat="30.137716" lon="-97.561469" changeset="false"><tag k="addr:street" v="Stony Point Drive"/><tag k="addr:housenumber" v="114"/><tag k="coa:place_id" v="3093582"/></node><node id="-168" lat="30.118037" lon="-97.5912" changeset="false"><tag k="addr:street" v="Jacobson Road"/><tag k="addr:housenumber" v="16800"/><tag k="coa:place_id" v="1164788"/></node><node id="-169" lat="30.137283" lon="-97.57061" changeset="false"><tag k="addr:street" v="Fagerquist Rd; Wolf Ln; Pearce Lane,1100"/><tag k="addr:housenumber" v="8204"/><tag k="coa:place_id" v="3105496"/></node><node id="-170" lat="30.137118" lon="-97.568409" changeset="false"><tag k="addr:street" v="High Point Drive"/><tag k="addr:housenumber" v="113"/><tag k="coa:place_id" v="3093487"/></node><node id="-171" lat="30.135871" lon="-97.570021" changeset="false"><tag k="addr:street" v="Stony Mont Drive"/><tag k="addr:housenumber" v="126"/><tag k="coa:place_id" v="3093384"/></node><node id="-172" lat="30.135821" lon="-97.568374" changeset="false"><tag k="addr:street" v="High Ridge Drive"/><tag k="addr:housenumber" v="119"/><tag k="coa:place_id" v="3093477"/></node><node id="-173" lat="30.132572" lon="-97.567992" changeset="false"><tag k="addr:street" v="Stony Creek Drive"/><tag k="addr:housenumber" v="163"/><tag k="coa:place_id" v="3093829"/></node><node id="-174" lat="30.132404" lon="-97.568395" changeset="false"><tag k="addr:street" v="Stony Creek Drive"/><tag k="addr:housenumber" v="162"/><tag k="coa:place_id" v="3093834"/></node><node id="-175" lat="30.132173" lon="-97.569396" changeset="false"><tag k="addr:street" v="Rock Mont Drive"/><tag k="addr:housenumber" v="120"/><tag k="coa:place_id" v="3093851"/></node><node id="-176" lat="30.135238" lon="-97.563299" changeset="false"><tag k="addr:street" v="Stony Point Drive"/><tag k="addr:housenumber" v="154"/><tag k="coa:place_id" v="3093567"/></node><node id="-177" lat="30.131351" lon="-97.569916" changeset="false"><tag k="addr:street" v="Edge Rock Drive"/><tag k="addr:housenumber" v="144"/><tag k="coa:place_id" v="3093909"/></node><node id="-178" lat="30.136624" lon="-97.562998" changeset="false"><tag k="addr:street" v="Stony Point Drive"/><tag k="addr:housenumber" v="135"/><tag k="coa:place_id" v="3093576"/></node><node id="-179" lat="30.132239" lon="-97.570364" changeset="false"><tag k="addr:street" v="Rock Mont Drive"/><tag k="addr:housenumber" v="129"/><tag k="coa:place_id" v="3093859"/></node><node id="-180" lat="30.134667" lon="-97.573058" changeset="false"><tag k="addr:street" v="Fagerquist Rd; Wolf Ln; Pearce Lane,1100"/><tag k="addr:housenumber" v="8304"/><tag k="coa:place_id" v="3092600"/></node><node id="-181" lat="30.133345" lon="-97.564393" changeset="false"><tag k="addr:street" v="Stony Point Drive"/><tag k="addr:housenumber" v="182"/><tag k="coa:place_id" v="3093533"/></node><node id="-182" lat="30.133269" lon="-97.5716" changeset="false"><tag k="addr:street" v="Stony Mont Drive"/><tag k="addr:housenumber" v="166"/><tag k="coa:place_id" v="3093402"/></node><node id="-183" lat="30.13376" lon="-97.564625" changeset="false"><tag k="addr:street" v="Stony Ridge Drive"/><tag k="addr:housenumber" v="103"/><tag k="coa:place_id" v="3093539"/></node><node id="-184" lat="30.131256" lon="-97.567835" changeset="false"><tag k="addr:street" v="Stony Creek Drive"/><tag k="addr:housenumber" v="180"/><tag k="coa:place_id" v="3093837"/></node><node id="-185" lat="30.130746" lon="-97.568729" changeset="false"><tag k="addr:street" v="Edge Rock Drive"/><tag k="addr:housenumber" v="128"/><tag k="coa:place_id" v="3093896"/></node><node id="-186" lat="30.130666" lon="-97.569486" changeset="false"><tag k="addr:street" v="Edge Rock Drive"/><tag k="addr:housenumber" v="137"/><tag k="coa:place_id" v="3093903"/></node><node id="-187" lat="30.130536" lon="-97.567438" changeset="false"><tag k="addr:street" v="Edge Rock Drive"/><tag k="addr:housenumber" v="105"/><tag k="coa:place_id" v="3093874"/></node><node id="-188" lat="30.130506" lon="-97.569116" changeset="false"><tag k="addr:street" v="Edge Rock Drive"/><tag k="addr:housenumber" v="131"/><tag k="coa:place_id" v="3093899"/></node><node id="-189" lat="30.131909" lon="-97.572003" changeset="false"><tag k="addr:street" v="Edge Rock Drive"/><tag k="addr:housenumber" v="171"/><tag k="coa:place_id" v="3093936"/></node><node id="-190" lat="30.13646" lon="-97.568213" changeset="false"><tag k="addr:street" v="High Ridge Drive"/><tag k="addr:housenumber" v="111"/><tag k="coa:place_id" v="3093473"/></node><node id="-191" lat="30.132514" lon="-97.570151" changeset="false"><tag k="addr:street" v="Rock Mont Drive"/><tag k="addr:housenumber" v="130"/><tag k="coa:place_id" v="3093861"/></node><node id="-192" lat="30.13432" lon="-97.569715" changeset="false"><tag k="addr:street" v="High Ridge Drive"/><tag k="addr:housenumber" v="142"/><tag k="coa:place_id" v="3093406"/></node><node id="-193" lat="30.133443" lon="-97.566191" changeset="false"><tag k="addr:street" v="Post Oak Road"/><tag k="addr:housenumber" v="117"/><tag k="coa:place_id" v="3093523"/></node><node id="-194" lat="30.133359" lon="-97.567529" changeset="false"><tag k="addr:street" v="High Point Drive,1100"/><tag k="addr:housenumber" v="136"/><tag k="coa:place_id" v="3093526"/></node><node id="-195" lat="30.13318" lon="-97.567466" changeset="false"><tag k="addr:street" v="High Point Drive,1100"/><tag k="addr:housenumber" v="138"/><tag k="coa:place_id" v="3093527"/></node><node id="-196" lat="30.13524" lon="-97.565435" changeset="false"><tag k="addr:street" v="Maha Drive"/><tag k="addr:housenumber" v="121"/><tag k="coa:place_id" v="3093558"/></node><node id="-197" lat="30.13497" lon="-97.570602" changeset="false"><tag k="addr:street" v="Stony Mont Drive"/><tag k="addr:housenumber" v="140"/><tag k="coa:place_id" v="3093388"/></node><node id="-198" lat="30.135522" lon="-97.568889" changeset="false"><tag k="addr:street" v="High Ridge Drive"/><tag k="addr:housenumber" v="124"/><tag k="coa:place_id" v="3093483"/></node><node id="-199" lat="30.132979" lon="-97.568232" changeset="false"><tag k="addr:street" v="Stony Creek Drive"/><tag k="addr:housenumber" v="157"/><tag k="coa:place_id" v="3093826"/></node><node id="-200" lat="30.131054" lon="-97.569311" changeset="false"><tag k="addr:street" v="Edge Rock Drive"/><tag k="addr:housenumber" v="134"/><tag k="coa:place_id" v="3093902"/></node><node id="-201" lat="30.130828" lon="-97.56968" changeset="false"><tag k="addr:street" v="Edge Rock Drive"/><tag k="addr:housenumber" v="139"/><tag k="coa:place_id" v="3093905"/></node><node id="-202" lat="30.137531" lon="-97.562465" changeset="false"><tag k="addr:street" v="Stony Point Drive"/><tag k="addr:housenumber" v="121"/><tag k="coa:place_id" v="3093703"/></node><node id="-203" lat="30.136913" lon="-97.562145" changeset="false"><tag k="addr:street" v="Stony Point Drive"/><tag k="addr:housenumber" v="126"/><tag k="coa:place_id" v="3093596"/></node><node id="-204" lat="30.134588" lon="-97.568217" changeset="false"><tag k="addr:street" v="Stony Creek Drive"/><tag k="addr:housenumber" v="132"/><tag k="coa:place_id" v="3093497"/></node><node id="-205" lat="30.134178" lon="-97.568566" changeset="false"><tag k="addr:street" v="Rock Creek Drive"/><tag k="addr:housenumber" v="108"/><tag k="coa:place_id" v="3093421"/></node><node id="-206" lat="30.1336" lon="-97.565687" changeset="false"><tag k="addr:street" v="Post Oak Road"/><tag k="addr:housenumber" v="112"/><tag k="coa:place_id" v="3093522"/></node><node id="-207" lat="30.137651" lon="-97.561816" changeset="false"><tag k="addr:street" v="Stony Point Drive"/><tag k="addr:housenumber" v="116"/><tag k="coa:place_id" v="3093583"/></node><node id="-208" lat="30.132963" lon="-97.564627" changeset="false"><tag k="addr:street" v="Stony Point Drive"/><tag k="addr:housenumber" v="186"/><tag k="coa:place_id" v="3093705"/></node><node id="-209" lat="30.133342" lon="-97.569584" changeset="false"><tag k="addr:street" v="Rock Point Drive"/><tag k="addr:housenumber" v="112"/><tag k="coa:place_id" v="3093420"/></node><node id="-210" lat="30.137434" lon="-97.561878" changeset="false"><tag k="addr:street" v="Stony Point Drive"/><tag k="addr:housenumber" v="120"/><tag k="coa:place_id" v="3093593"/></node><node id="-211" lat="30.135718" lon="-97.563598" changeset="false"><tag k="addr:street" v="Stony Point Drive"/><tag k="addr:housenumber" v="147"/><tag k="coa:place_id" v="3093574"/></node><node id="-212" lat="30.117819" lon="-97.590942" changeset="false"><tag k="addr:street" v="Jacobson Road"/><tag k="addr:housenumber" v="16804"/><tag k="coa:place_id" v="237766"/></node><node id="-213" lat="30.132322" lon="-97.57184" changeset="false"><tag k="addr:street" v="Edge Rock Drive"/><tag k="addr:housenumber" v="170"/><tag k="coa:place_id" v="3093931"/></node><node id="-214" lat="30.129878" lon="-97.567562" changeset="false"><tag k="addr:street" v="Edge Rock Drive"/><tag k="addr:housenumber" v="113"/><tag k="coa:place_id" v="3093884"/></node><node id="-215" lat="30.135171" lon="-97.56525" changeset="false"><tag k="addr:street" v="Maha Drive"/><tag k="addr:housenumber" v="119"/><tag k="coa:place_id" v="3093556"/></node><node id="-216" lat="30.133971" lon="-97.564994" changeset="false"><tag k="addr:street" v="Stony Ridge Drive"/><tag k="addr:housenumber" v="109"/><tag k="coa:place_id" v="3093540"/></node><node id="-217" lat="30.129958" lon="-97.567969" changeset="false"><tag k="addr:street" v="Edge Rock Drive"/><tag k="addr:housenumber" v="117"/><tag k="coa:place_id" v="3093886"/></node><node id="-218" lat="30.132492" lon="-97.56674" changeset="false"><tag k="addr:street" v="High Point Drive,1100"/><tag k="addr:housenumber" v="149"/><tag k="coa:place_id" v="3093823"/></node><node id="-219" lat="30.131809" lon="-97.571813" changeset="false"><tag k="addr:street" v="Edge Rock Drive"/><tag k="addr:housenumber" v="167"/><tag k="coa:place_id" v="3093935"/></node><node id="-220" lat="30.131538" lon="-97.565264" changeset="false"><tag k="addr:street" v="Stony Point Drive"/><tag k="addr:housenumber" v="210"/><tag k="coa:place_id" v="3093713"/></node><node id="-221" lat="30.131599" lon="-97.56895" changeset="false"><tag k="addr:street" v="Rock Mont Drive"/><tag k="addr:housenumber" v="113"/><tag k="coa:place_id" v="3093847"/></node><node id="-222" lat="30.13595" lon="-97.571722" changeset="false"><tag k="addr:street" v="Fagerquist Rd; Wolf Ln; Pearce Lane,1100"/><tag k="addr:housenumber" v="8300"/><tag k="coa:place_id" v="3092605"/></node><node id="-223" lat="30.130601" lon="-97.567892" changeset="false"><tag k="addr:street" v="Edge Rock Drive"/><tag k="addr:housenumber" v="108"/><tag k="coa:place_id" v="3093877"/></node><node id="-224" lat="30.134579" lon="-97.566392" changeset="false"><tag k="addr:street" v="High Point Drive,1100"/><tag k="addr:housenumber" v="115"/><tag k="coa:place_id" v="3093515"/></node><node id="-225" lat="30.134234" lon="-97.56485" changeset="false"><tag k="addr:street" v="Stony Ridge Drive"/><tag k="addr:housenumber" v="108"/><tag k="coa:place_id" v="3093538"/></node><node id="-226" lat="30.134715" lon="-97.56424" changeset="false"><tag k="addr:street" v="Maha Drive"/><tag k="addr:housenumber" v="105"/><tag k="coa:place_id" v="3093549"/></node><node id="-227" lat="30.133884" lon="-97.566264" changeset="false"><tag k="addr:street" v="Post Oak Road"/><tag k="addr:housenumber" v="120"/><tag k="coa:place_id" v="3093520"/></node><node id="-228" lat="30.13397" lon="-97.571204" changeset="false"><tag k="addr:street" v="Stony Mont Drive"/><tag k="addr:housenumber" v="158"/><tag k="coa:place_id" v="3093398"/></node><node id="-229" lat="30.13385" lon="-97.570028" changeset="false"><tag k="addr:street" v="High Ridge Drive"/><tag k="addr:housenumber" v="150"/><tag k="coa:place_id" v="3093410"/></node></osm>