<?xml version="1.0" encoding="UTF-8"?><osm version="0.6" generator="github.com/aaronlidman/osm-and-geojson"><node id="-1" lat="30.196899" lon="-97.826153" changeset="false"><tag k="addr:street" v="Willet Trail"/><tag k="addr:housenumber" v="8015"/><tag k="addr:postcode" v="78745"/></node><node id="-2" lat="30.191786" lon="-97.832275" changeset="false"><tag k="addr:street" v="West Gate Boulevard"/><tag k="addr:housenumber" v="8711"/><tag k="addr:postcode" v="78745"/></node><node id="-3" lat="30.19442" lon="-97.829662" changeset="false"><tag k="addr:street" v="Sea Jay Drive"/><tag k="addr:housenumber" v="3005"/><tag k="addr:postcode" v="78745"/></node><node id="-4" lat="30.194499" lon="-97.829861" changeset="false"><tag k="addr:street" v="Sea Jay Drive"/><tag k="addr:housenumber" v="3009"/><tag k="addr:postcode" v="78745"/></node><node id="-5" lat="30.194393" lon="-97.82865" changeset="false"><tag k="addr:street" v="Nicola Trail"/><tag k="addr:housenumber" v="8317"/><tag k="addr:postcode" v="78745"/></node><node id="-6" lat="30.195484" lon="-97.827681" changeset="false"><tag k="addr:street" v="Nicola Trail"/><tag k="addr:housenumber" v="8205"/><tag k="addr:postcode" v="78745"/></node><node id="-7" lat="30.194917" lon="-97.829385" changeset="false"><tag k="addr:street" v="Sea Jay Drive"/><tag k="addr:housenumber" v="3006"/><tag k="addr:postcode" v="78745"/></node><node id="-8" lat="30.195044" lon="-97.829673" changeset="false"><tag k="addr:street" v="Sea Jay Drive"/><tag k="addr:housenumber" v="3012"/><tag k="addr:postcode" v="78745"/></node><node id="-9" lat="30.195073" lon="-97.82799" changeset="false"><tag k="addr:street" v="Nicola Trail"/><tag k="addr:housenumber" v="8215"/><tag k="addr:postcode" v="78745"/></node><node id="-10" lat="30.194458" lon="-97.828588" changeset="false"><tag k="addr:street" v="Nicola Trail"/><tag k="addr:housenumber" v="8315"/><tag k="addr:postcode" v="78745"/></node><node id="-11" lat="30.194778" lon="-97.830586" changeset="false"><tag k="addr:street" v="West Gate Boulevard"/><tag k="addr:housenumber" v="8425 1/2"/><tag k="addr:postcode" v="78745"/></node><node id="-12" lat="30.19235" lon="-97.826509" changeset="false"><tag k="addr:street" v="Cameron Loop"/><tag k="addr:housenumber" v="2711"/><tag k="addr:postcode" v="78745"/></node><node id="-13" lat="30.19468" lon="-97.830223" changeset="false"><tag k="addr:street" v="Sea Jay Drive"/><tag k="addr:housenumber" v="3017"/><tag k="addr:postcode" v="78745"/></node><node id="-14" lat="30.195098" lon="-97.828772" changeset="false"><tag k="addr:street" v="Nicola Trail"/><tag k="addr:housenumber" v="8300"/><tag k="addr:postcode" v="78745"/></node><node id="-15" lat="30.194167" lon="-97.82951" changeset="false"><tag k="addr:street" v="Nicola Trail"/><tag k="addr:housenumber" v="8406"/><tag k="addr:postcode" v="78745"/></node><node id="-16" lat="30.194885" lon="-97.829288" changeset="false"><tag k="addr:street" v="Sea Jay Drive"/><tag k="addr:housenumber" v="3004"/><tag k="addr:postcode" v="78745"/></node><node id="-17" lat="30.195332" lon="-97.827798" changeset="false"><tag k="addr:street" v="Nicola Trail"/><tag k="addr:housenumber" v="8209"/><tag k="addr:postcode" v="78745"/></node><node id="-18" lat="30.19517" lon="-97.827912" changeset="false"><tag k="addr:street" v="Nicola Trail"/><tag k="addr:housenumber" v="8213"/><tag k="addr:postcode" v="78745"/></node><node id="-19" lat="30.19417" lon="-97.828822" changeset="false"><tag k="addr:street" v="Nicola Trail"/><tag k="addr:housenumber" v="8403"/><tag k="addr:postcode" v="78745"/></node><node id="-20" lat="30.193937" lon="-97.828991" changeset="false"><tag k="addr:street" v="Nicola Trail"/><tag k="addr:housenumber" v="8409"/><tag k="addr:postcode" v="78745"/></node><node id="-21" lat="30.196429" lon="-97.827865" changeset="false"><tag k="addr:street" v="Willet Trail"/><tag k="addr:housenumber" v="8115"/><tag k="addr:postcode" v="78745"/></node><node id="-22" lat="30.190534" lon="-97.825544" changeset="false"><tag k="addr:street" v="Leo Street"/><tag k="addr:housenumber" v="8604"/><tag k="addr:postcode" v="78745"/></node><node id="-23" lat="30.192628" lon="-97.828197" changeset="false"><tag k="addr:street" v="Cameron Loop"/><tag k="addr:housenumber" v="2807"/><tag k="addr:postcode" v="78745"/></node><node id="-24" lat="30.197923" lon="-97.827195" changeset="false"><tag k="addr:street" v="Kestrel Drive"/><tag k="addr:housenumber" v="3000"/><tag k="addr:postcode" v="78745"/></node><node id="-25" lat="30.195119" lon="-97.82986" changeset="false"><tag k="addr:street" v="Sea Jay Drive"/><tag k="addr:housenumber" v="3016"/><tag k="addr:postcode" v="78745"/></node><node id="-26" lat="30.195214" lon="-97.830167" changeset="false"><tag k="addr:street" v="Sea Jay Drive"/><tag k="addr:housenumber" v="3022"/><tag k="addr:postcode" v="78745"/></node><node id="-27" lat="30.194763" lon="-97.830417" changeset="false"><tag k="addr:street" v="Sea Jay Drive"/><tag k="addr:housenumber" v="3021"/><tag k="addr:postcode" v="78745"/></node><node id="-28" lat="30.1934" lon="-97.830712" changeset="false"><tag k="addr:street" v="West Gate Boulevard"/><tag k="addr:housenumber" v="8601 1/2"/><tag k="addr:postcode" v="78745"/></node><node id="-29" lat="30.194012" lon="-97.82894" changeset="false"><tag k="addr:street" v="Nicola Trail"/><tag k="addr:housenumber" v="8407"/><tag k="addr:postcode" v="78745"/></node><node id="-30" lat="30.194806" lon="-97.828288" changeset="false"><tag k="addr:street" v="Nicola Trail"/><tag k="addr:housenumber" v="8305"/><tag k="addr:postcode" v="78745"/></node><node id="-31" lat="30.194547" lon="-97.829943" changeset="false"><tag k="addr:street" v="Sea Jay Drive"/><tag k="addr:housenumber" v="3011"/><tag k="addr:postcode" v="78745"/></node><node id="-32" lat="30.19484" lon="-97.830498" changeset="false"><tag k="addr:street" v="Sea Jay Drive"/><tag k="addr:housenumber" v="3023"/><tag k="addr:postcode" v="78745"/></node><node id="-33" lat="30.195416" lon="-97.827736" changeset="false"><tag k="addr:street" v="Nicola Trail"/><tag k="addr:housenumber" v="8207"/><tag k="addr:postcode" v="78745"/></node><node id="-34" lat="30.194414" lon="-97.829349" changeset="false"><tag k="addr:street" v="Nicola Trail"/><tag k="addr:housenumber" v="8400"/><tag k="addr:postcode" v="78745"/></node><node id="-35" lat="30.194333" lon="-97.829408" changeset="false"><tag k="addr:street" v="Nicola Trail"/><tag k="addr:housenumber" v="8402"/><tag k="addr:postcode" v="78745"/></node><node id="-36" lat="30.194542" lon="-97.828526" changeset="false"><tag k="addr:street" v="Nicola Trail"/><tag k="addr:housenumber" v="8313"/><tag k="addr:postcode" v="78745"/></node><node id="-37" lat="30.198692" lon="-97.824955" changeset="false"><tag k="addr:street" v="Willet Trail"/><tag k="addr:housenumber" v="7906"/><tag k="addr:postcode" v="78745"/></node><node id="-38" lat="30.196493" lon="-97.827621" changeset="false"><tag k="addr:street" v="Willet Trail"/><tag k="addr:housenumber" v="8113"/><tag k="addr:postcode" v="78745"/></node><node id="-39" lat="30.195081" lon="-97.829762" changeset="false"><tag k="addr:street" v="Sea Jay Drive"/><tag k="addr:housenumber" v="3014"/><tag k="addr:postcode" v="78745"/></node><node id="-40" lat="30.195151" lon="-97.829957" changeset="false"><tag k="addr:street" v="Sea Jay Drive"/><tag k="addr:housenumber" v="3018"/><tag k="addr:postcode" v="78745"/></node><node id="-41" lat="30.195183" lon="-97.830062" changeset="false"><tag k="addr:street" v="Sea Jay Drive"/><tag k="addr:housenumber" v="3020"/><tag k="addr:postcode" v="78745"/></node><node id="-42" lat="30.191127" lon="-97.832369" changeset="false"><tag k="addr:street" v="West Gate Boulevard"/><tag k="addr:housenumber" v="8801"/><tag k="addr:postcode" v="78745"/></node><node id="-43" lat="30.195254" lon="-97.82785" changeset="false"><tag k="addr:street" v="Nicola Trail"/><tag k="addr:housenumber" v="8211"/><tag k="addr:postcode" v="78745"/></node><node id="-44" lat="30.194721" lon="-97.83032" changeset="false"><tag k="addr:street" v="Sea Jay Drive"/><tag k="addr:housenumber" v="3019"/><tag k="addr:postcode" v="78745"/></node><node id="-45" lat="30.195768" lon="-97.821725" changeset="false"><tag k="addr:street" v="Seminary Ridge Drive"/><tag k="addr:housenumber" v="8110"/><tag k="addr:postcode" v="78745"/></node><node id="-46" lat="30.194248" lon="-97.828771" changeset="false"><tag k="addr:street" v="Nicola Trail"/><tag k="addr:housenumber" v="8401"/><tag k="addr:postcode" v="78745"/></node><node id="-47" lat="30.195715" lon="-97.827588" changeset="false"><tag k="addr:street" v="Nicola Trail"/><tag k="addr:housenumber" v="8201"/><tag k="addr:postcode" v="78745"/></node><node id="-48" lat="30.194252" lon="-97.829463" changeset="false"><tag k="addr:street" v="Nicola Trail"/><tag k="addr:housenumber" v="8404"/><tag k="addr:postcode" v="78745"/></node><node id="-49" lat="30.194616" lon="-97.828475" changeset="false"><tag k="addr:street" v="Nicola Trail"/><tag k="addr:housenumber" v="8311"/><tag k="addr:postcode" v="78745"/></node><node id="-50" lat="30.194316" lon="-97.82872" changeset="false"><tag k="addr:street" v="Nicola Trail"/><tag k="addr:housenumber" v="8319"/><tag k="addr:postcode" v="78745"/></node><node id="-51" lat="30.194096" lon="-97.828874" changeset="false"><tag k="addr:street" v="Nicola Trail"/><tag k="addr:housenumber" v="8405"/><tag k="addr:postcode" v="78745"/></node><node id="-52" lat="30.194938" lon="-97.828153" changeset="false"><tag k="addr:street" v="Nicola Trail"/><tag k="addr:housenumber" v="8301"/><tag k="addr:postcode" v="78745"/></node><node id="-53" lat="30.194691" lon="-97.828408" changeset="false"><tag k="addr:street" v="Nicola Trail"/><tag k="addr:housenumber" v="8309"/><tag k="addr:postcode" v="78745"/></node><node id="-54" lat="30.194458" lon="-97.829756" changeset="false"><tag k="addr:street" v="Sea Jay Drive"/><tag k="addr:housenumber" v="3007"/><tag k="addr:postcode" v="78745"/></node><node id="-55" lat="30.19288" lon="-97.827495" changeset="false"><tag k="addr:street" v="Cameron Loop"/><tag k="addr:housenumber" v="2803"/><tag k="addr:postcode" v="78745"/></node><node id="-56" lat="30.196569" lon="-97.827426" changeset="false"><tag k="addr:street" v="Willet Trail"/><tag k="addr:housenumber" v="8111"/><tag k="addr:postcode" v="78745"/></node><node id="-57" lat="30.196379" lon="-97.828144" changeset="false"><tag k="addr:street" v="Willet Trail"/><tag k="addr:housenumber" v="8117"/><tag k="addr:postcode" v="78745"/></node><node id="-58" lat="30.197072" lon="-97.825777" changeset="false"><tag k="addr:street" v="Willet Trail"/><tag k="addr:housenumber" v="8011"/><tag k="addr:postcode" v="78745"/></node><node id="-59" lat="30.193496" lon="-97.829342" changeset="false"><tag k="addr:street" v="Cameron Loop"/><tag k="addr:housenumber" v="2903"/><tag k="addr:postcode" v="78745"/></node></osm>