<?xml version="1.0" encoding="UTF-8"?><osm version="0.6" generator="github.com/aaronlidman/osm-and-geojson"><node id="-1" lat="30.368657" lon="-97.988958" changeset="false"><tag k="addr:street" v="Gannet Cove"/><tag k="addr:housenumber" v="212"/><tag k="coa:place_id" v="3263295"/></node><node id="-2" lat="30.386617" lon="-97.968629" changeset="false"><tag k="addr:street" v="Hurst Hollow"/><tag k="addr:housenumber" v="1105"/><tag k="coa:place_id" v="101995"/></node><node id="-3" lat="30.379378" lon="-97.969127" changeset="false"><tag k="addr:street" v="Hurst Creek Road"/><tag k="addr:housenumber" v="511"/><tag k="coa:place_id" v="3082476"/></node><node id="-4" lat="30.377338" lon="-97.974248" changeset="false"><tag k="addr:street" v="Acapulco Drive"/><tag k="addr:housenumber" v="102"/><tag k="coa:place_id" v="3081293"/></node><node id="-5" lat="30.382177" lon="-97.973706" changeset="false"><tag k="addr:street" v="Brooks Hollow Road"/><tag k="addr:housenumber" v="544"/><tag k="coa:place_id" v="3369999"/></node><node id="-6" lat="30.384718" lon="-97.974315" changeset="false"><tag k="addr:street" v="Robin Dale Court"/><tag k="addr:housenumber" v="623"/><tag k="coa:place_id" v="3369970"/></node><node id="-7" lat="30.378039" lon="-97.973006" changeset="false"><tag k="addr:street" v="Acapulco Drive"/><tag k="addr:housenumber" v="118"/><tag k="coa:place_id" v="3081302"/></node><node id="-8" lat="30.376886" lon="-97.971224" changeset="false"><tag k="addr:street" v="Phlox Drive"/><tag k="addr:housenumber" v="101"/><tag k="coa:place_id" v="3083148"/></node><node id="-9" lat="30.387278" lon="-97.969027" changeset="false"><tag k="addr:street" v="Hurst Hollow"/><tag k="addr:housenumber" v="1200"/><tag k="coa:place_id" v="102017"/></node><node id="-10" lat="30.377611" lon="-97.9719" changeset="false"><tag k="addr:street" v="Vitex Drive"/><tag k="addr:housenumber" v="203"/><tag k="coa:place_id" v="3083981"/></node><node id="-11" lat="30.387536" lon="-97.968925" changeset="false"><tag k="addr:street" v="Hurst Hollow"/><tag k="addr:housenumber" v="1202"/><tag k="coa:place_id" v="102018"/></node><node id="-12" lat="30.377922" lon="-97.970401" changeset="false"><tag k="addr:street" v="Picea Drive"/><tag k="addr:housenumber" v="105"/><tag k="coa:place_id" v="3083169"/></node><node id="-13" lat="30.377445" lon="-97.974085" changeset="false"><tag k="addr:street" v="Acapulco Drive"/><tag k="addr:housenumber" v="104"/><tag k="coa:place_id" v="3081295"/></node><node id="-14" lat="30.377255" lon="-97.971218" changeset="false"><tag k="addr:street" v="Vitex Drive"/><tag k="addr:housenumber" v="102"/><tag k="coa:place_id" v="3083973"/></node><node id="-15" lat="30.379671" lon="-97.969047" changeset="false"><tag k="addr:street" v="Hurst Creek Road"/><tag k="addr:housenumber" v="513"/><tag k="coa:place_id" v="3082475"/></node><node id="-16" lat="30.379303" lon="-97.971189" changeset="false"><tag k="addr:street" v="Acapulco Drive"/><tag k="addr:housenumber" v="142"/><tag k="coa:place_id" v="3081315"/></node><node id="-17" lat="30.385881" lon="-97.974032" changeset="false"><tag k="addr:street" v="Brooks Hollow Road"/><tag k="addr:housenumber" v="808"/><tag k="coa:place_id" v="3196755"/></node><node id="-18" lat="30.37801" lon="-97.977441" changeset="false"><tag k="addr:street" v="Morning Cloud Cove"/><tag k="addr:housenumber" v="109"/><tag k="coa:place_id" v="3369116"/></node><node id="-19" lat="30.372429" lon="-97.975619" changeset="false"><tag k="addr:street" v="Vinca Drive"/><tag k="addr:housenumber" v="110"/><tag k="coa:place_id" v="3369001"/></node><node id="-20" lat="30.386322" lon="-97.972859" changeset="false"><tag k="addr:street" v="Brooks Hollow Road"/><tag k="addr:housenumber" v="909"/><tag k="coa:place_id" v="3369790"/></node><node id="-21" lat="30.384025" lon="-97.968939" changeset="false"><tag k="addr:street" v="Hurst Creek Road"/><tag k="addr:housenumber" v="901"/><tag k="coa:place_id" v="3555888"/></node><node id="-22" lat="30.381429" lon="-97.971786" changeset="false"><tag k="addr:street" v="Cedar Glen Cove"/><tag k="addr:housenumber" v="102"/><tag k="coa:place_id" v="3424654"/></node><node id="-23" lat="30.386634" lon="-97.969383" changeset="false"><tag k="addr:street" v="Hurst Hollow"/><tag k="addr:housenumber" v="1104"/><tag k="coa:place_id" v="102012"/></node><node id="-24" lat="30.378742" lon="-97.971903" changeset="false"><tag k="addr:street" v="Acapulco Drive"/><tag k="addr:housenumber" v="132"/><tag k="coa:place_id" v="3081311"/></node><node id="-25" lat="30.377749" lon="-97.972178" changeset="false"><tag k="addr:street" v="Vitex Drive"/><tag k="addr:housenumber" v="205"/><tag k="coa:place_id" v="3083980"/></node><node id="-26" lat="30.382266" lon="-97.969175" changeset="false"><tag k="addr:street" v="Hurst Creek Road"/><tag k="addr:housenumber" v="703"/><tag k="coa:place_id" v="225443"/></node><node id="-27" lat="30.387145" lon="-97.96839" changeset="false"><tag k="addr:street" v="Hurst Creek Road"/><tag k="addr:housenumber" v="1200"/><tag k="coa:place_id" v="102000"/></node><node id="-28" lat="30.387718" lon="-97.971338" changeset="false"><tag k="addr:street" v="Brooks Hollow Road"/><tag k="addr:housenumber" v="1113"/><tag k="coa:place_id" v="3201138"/></node><node id="-29" lat="30.368649" lon="-97.979575" changeset="false"><tag k="addr:street" v="Hurst Creek Road"/><tag k="addr:housenumber" v="105"/><tag k="coa:place_id" v="3265234"/></node><node id="-30" lat="30.368555" lon="-97.989556" changeset="false"><tag k="addr:street" v="Gannet Cove"/><tag k="addr:housenumber" v="214"/><tag k="coa:place_id" v="3263296"/></node><node id="-31" lat="30.380321" lon="-97.971328" changeset="false"><tag k="addr:street" v="Oakbluff Cove"/><tag k="addr:housenumber" v="109"/><tag k="coa:place_id" v="3369747"/></node><node id="-32" lat="30.376484" lon="-97.976857" changeset="false"><tag k="addr:street" v="Explorer Cove"/><tag k="addr:housenumber" v="101"/><tag k="coa:place_id" v="3369064"/></node><node id="-33" lat="30.381699" lon="-97.972728" changeset="false"><tag k="addr:street" v="Cedar Glen Cove"/><tag k="addr:housenumber" v="112"/><tag k="coa:place_id" v="3424659"/></node><node id="-34" lat="30.379118" lon="-97.969204" changeset="false"><tag k="addr:street" v="Hurst Creek Road"/><tag k="addr:housenumber" v="509"/><tag k="coa:place_id" v="3082477"/></node><node id="-35" lat="30.388734" lon="-97.968522" changeset="false"><tag k="addr:street" v="Hurst Hollow"/><tag k="addr:housenumber" v="1304"/><tag k="coa:place_id" v="102025"/></node><node id="-36" lat="30.377606" lon="-97.970582" changeset="false"><tag k="addr:street" v="Vitex Drive"/><tag k="addr:housenumber" v="103"/><tag k="coa:place_id" v="3083971"/></node><node id="-37" lat="30.38744" lon="-97.968342" changeset="false"><tag k="addr:street" v="Hurst Hollow"/><tag k="addr:housenumber" v="1205"/><tag k="coa:place_id" v="102001"/></node><node id="-38" lat="30.377738" lon="-97.970874" changeset="false"><tag k="addr:street" v="Betula Drive"/><tag k="addr:housenumber" v="110"/><tag k="coa:place_id" v="3083970"/></node><node id="-39" lat="30.377591" lon="-97.973802" changeset="false"><tag k="addr:street" v="Acapulco Drive"/><tag k="addr:housenumber" v="108"/><tag k="coa:place_id" v="3081298"/></node><node id="-40" lat="30.377088" lon="-97.970962" changeset="false"><tag k="addr:street" v="Vitex Drive"/><tag k="addr:housenumber" v="104"/><tag k="coa:place_id" v="3083975"/></node><node id="-41" lat="30.378196" lon="-97.972008" changeset="false"><tag k="addr:street" v="Vitex Drive"/><tag k="addr:housenumber" v="206"/><tag k="coa:place_id" v="3083976"/></node><node id="-42" lat="30.387689" lon="-97.968261" changeset="false"><tag k="addr:street" v="Hurst Creek Road"/><tag k="addr:housenumber" v="1300"/><tag k="coa:place_id" v="102005"/></node><node id="-43" lat="30.387273" lon="-97.968133" changeset="false"><tag k="addr:street" v="Hurst Creek Road"/><tag k="addr:housenumber" v="1204"/><tag k="coa:place_id" v="3091290"/></node><node id="-44" lat="30.387013" lon="-97.969132" changeset="false"><tag k="addr:street" v="Hurst Hollow"/><tag k="addr:housenumber" v="1106"/><tag k="coa:place_id" v="102013"/></node><node id="-45" lat="30.371587" lon="-97.974358" changeset="false"><tag k="addr:street" v="Hurst Creek Road"/><tag k="addr:housenumber" v="215"/><tag k="coa:place_id" v="3265448"/></node><node id="-46" lat="30.379523" lon="-97.976366" changeset="false"><tag k="addr:street" v="Firebird Cove"/><tag k="addr:housenumber" v="115"/><tag k="coa:place_id" v="3369896"/></node><node id="-47" lat="30.389726" lon="-97.968487" changeset="false"><tag k="addr:street" v="Hurst Hollow"/><tag k="addr:housenumber" v="1308"/><tag k="coa:place_id" v="3275664"/></node><node id="-48" lat="30.38687" lon="-97.973783" changeset="false"><tag k="addr:street" v="Brooks Hollow Road"/><tag k="addr:housenumber" v="812"/><tag k="coa:place_id" v="3369789"/></node><node id="-49" lat="30.372584" lon="-97.974834" changeset="false"><tag k="addr:street" v="Copperleaf Road"/><tag k="addr:housenumber" v="204"/><tag k="coa:place_id" v="3265511"/></node><node id="-50" lat="30.379573" lon="-97.977859" changeset="false"><tag k="addr:street" v="Firebird Cove"/><tag k="addr:housenumber" v="103"/><tag k="coa:place_id" v="3369890"/></node><node id="-51" lat="30.388925" lon="-97.967756" changeset="false"><tag k="addr:street" v="Hurst Creek Road"/><tag k="addr:housenumber" v="1400"/><tag k="coa:place_id" v="3382977"/></node><node id="-52" lat="30.381241" lon="-97.972942" changeset="false"><tag k="addr:street" v="Cedar Glen Cove"/><tag k="addr:housenumber" v="111"/><tag k="coa:place_id" v="3424676"/></node><node id="-53" lat="30.376854" lon="-97.970341" changeset="false"><tag k="addr:street" v="Hurst Creek Road"/><tag k="addr:housenumber" v="411"/><tag k="coa:place_id" v="3082467"/></node><node id="-54" lat="30.377623" lon="-97.972829" changeset="false"><tag k="addr:street" v="Phlox Drive"/><tag k="addr:housenumber" v="208"/><tag k="coa:place_id" v="3083153"/></node><node id="-55" lat="30.377163" lon="-97.971896" changeset="false"><tag k="addr:street" v="Phlox Drive"/><tag k="addr:housenumber" v="202"/><tag k="coa:place_id" v="721690"/></node><node id="-56" lat="30.383184" lon="-97.96927" changeset="false"><tag k="addr:street" v="Hurst Creek Road"/><tag k="addr:housenumber" v="801"/><tag k="coa:place_id" v="225447"/></node><node id="-57" lat="30.388157" lon="-97.968715" changeset="false"><tag k="addr:street" v="Hurst Hollow"/><tag k="addr:housenumber" v="1300"/><tag k="coa:place_id" v="102023"/></node><node id="-58" lat="30.382548" lon="-97.973734" changeset="false"><tag k="addr:street" v="Brooks Hollow Road"/><tag k="addr:housenumber" v="546"/><tag k="coa:place_id" v="3370000"/></node><node id="-59" lat="30.381622" lon="-97.976929" changeset="false"><tag k="addr:street" v="Edgewater Cove"/><tag k="addr:housenumber" v="106"/><tag k="coa:place_id" v="3369936"/></node><node id="-60" lat="30.376518" lon="-97.97715" changeset="false"><tag k="addr:street" v="Explorer Cove"/><tag k="addr:housenumber" v="103"/><tag k="coa:place_id" v="3369065"/></node><node id="-61" lat="30.376638" lon="-97.977389" changeset="false"><tag k="addr:street" v="Explorer Cove"/><tag k="addr:housenumber" v="105"/><tag k="coa:place_id" v="3369066"/></node><node id="-62" lat="30.389514" lon="-97.968237" changeset="false"><tag k="addr:street" v="Hurst Hollow"/><tag k="addr:housenumber" v="1310"/><tag k="coa:place_id" v="3275665"/></node><node id="-63" lat="30.373984" lon="-97.976279" changeset="false"><tag k="addr:street" v="Copperleaf Road"/><tag k="addr:housenumber" v="404"/><tag k="coa:place_id" v="3265643"/></node><node id="-64" lat="30.374338" lon="-97.976512" changeset="false"><tag k="addr:street" v="Copperleaf Road"/><tag k="addr:housenumber" v="405"/><tag k="coa:place_id" v="3265645"/></node><node id="-65" lat="30.381269" lon="-97.973234" changeset="false"><tag k="addr:street" v="Cedar Glen Cove"/><tag k="addr:housenumber" v="113"/><tag k="coa:place_id" v="3424677"/></node><node id="-66" lat="30.38121" lon="-97.970143" changeset="false"><tag k="addr:street" v="Brooks Hollow Road"/><tag k="addr:housenumber" v="201"/><tag k="coa:place_id" v="225449"/></node><node id="-67" lat="30.377286" lon="-97.970064" changeset="false"><tag k="addr:street" v="Hurst Creek Road"/><tag k="addr:housenumber" v="415"/><tag k="coa:place_id" v="3082471"/></node><node id="-68" lat="30.378106" lon="-97.971571" changeset="false"><tag k="addr:street" v="Vitex Drive"/><tag k="addr:housenumber" v="204"/><tag k="coa:place_id" v="3083977"/></node><node id="-69" lat="30.388009" lon="-97.968126" changeset="false"><tag k="addr:street" v="Hurst Hollow"/><tag k="addr:housenumber" v="1303"/><tag k="coa:place_id" v="102006"/></node><node id="-70" lat="30.389311" lon="-97.968038" changeset="false"><tag k="addr:street" v="Hurst Hollow"/><tag k="addr:housenumber" v="1312"/><tag k="coa:place_id" v="3275666"/></node><node id="-71" lat="30.379448" lon="-97.9705" changeset="false"><tag k="addr:street" v="Betula Drive"/><tag k="addr:housenumber" v="119"/><tag k="coa:place_id" v="3369709"/></node><node id="-72" lat="30.384451" lon="-97.973132" changeset="false"><tag k="addr:street" v="Brooks Hollow Road"/><tag k="addr:housenumber" v="801"/><tag k="coa:place_id" v="3196752"/></node><node id="-73" lat="30.389552" lon="-97.967318" changeset="false"><tag k="addr:street" v="Hurst Creek Road"/><tag k="addr:housenumber" v="1406"/><tag k="coa:place_id" v="3383237"/></node><node id="-74" lat="30.382823" lon="-97.974064" changeset="false"><tag k="addr:street" v="Indian Bend Drive"/><tag k="addr:housenumber" v="112"/><tag k="coa:place_id" v="5000977"/></node><node id="-75" lat="30.379266" lon="-97.976302" changeset="false"><tag k="addr:street" v="Firebird Cove"/><tag k="addr:housenumber" v="110"/><tag k="coa:place_id" v="3369888"/></node><node id="-76" lat="30.386005" lon="-97.972865" changeset="false"><tag k="addr:street" v="Brooks Hollow Road"/><tag k="addr:housenumber" v="907"/><tag k="coa:place_id" v="5120814"/></node><node id="-77" lat="30.381325" lon="-97.972665" changeset="false"><tag k="addr:street" v="Cedar Glen Cove"/><tag k="addr:housenumber" v="109"/><tag k="coa:place_id" v="3424675"/></node><node id="-78" lat="30.380815" lon="-97.976855" changeset="false"><tag k="addr:street" v="Edgewater Cove"/><tag k="addr:housenumber" v="101"/><tag k="coa:place_id" v="3424686"/></node><node id="-79" lat="30.387201" lon="-97.972167" changeset="false"><tag k="addr:street" v="Brooks Hollow Road"/><tag k="addr:housenumber" v="1105"/><tag k="coa:place_id" v="3369793"/></node><node id="-80" lat="30.374191" lon="-97.976855" changeset="false"><tag k="addr:street" v="Copperleaf Road"/><tag k="addr:housenumber" v="403"/><tag k="coa:place_id" v="3265649"/></node><node id="-81" lat="30.378822" lon="-97.971755" changeset="false"><tag k="addr:street" v="Acapulco Drive"/><tag k="addr:housenumber" v="134"/><tag k="coa:place_id" v="3081310"/></node><node id="-82" lat="30.388241" lon="-97.972135" changeset="false"><tag k="addr:street" v="Brooks Hollow Road"/><tag k="addr:housenumber" v="1205"/><tag k="coa:place_id" v="3201137"/></node><node id="-83" lat="30.381627" lon="-97.972279" changeset="false"><tag k="addr:street" v="Cedar Glen Cove"/><tag k="addr:housenumber" v="108"/><tag k="coa:place_id" v="3424657"/></node><node id="-84" lat="30.381183" lon="-97.972231" changeset="false"><tag k="addr:street" v="Cedar Glen Cove"/><tag k="addr:housenumber" v="103"/><tag k="coa:place_id" v="3424674"/></node><node id="-85" lat="30.379648" lon="-97.976859" changeset="false"><tag k="addr:street" v="Firebird Cove"/><tag k="addr:housenumber" v="111"/><tag k="coa:place_id" v="3369894"/></node><node id="-86" lat="30.38162" lon="-97.969131" changeset="false"><tag k="addr:street" v="Hurst Creek Road"/><tag k="addr:housenumber" v="609"/><tag k="coa:place_id" v="225441"/></node><node id="-87" lat="30.389399" lon="-97.967465" changeset="false"><tag k="addr:street" v="Hurst Creek Road"/><tag k="addr:housenumber" v="1404"/><tag k="coa:place_id" v="3383236"/></node><node id="-88" lat="30.368919" lon="-97.988785" changeset="false"><tag k="addr:street" v="Gannet Cove"/><tag k="addr:housenumber" v="210"/><tag k="coa:place_id" v="3263294"/></node><node id="-89" lat="30.380535" lon="-97.971537" changeset="false"><tag k="addr:street" v="Oakbluff Cove"/><tag k="addr:housenumber" v="105"/><tag k="coa:place_id" v="3369745"/></node><node id="-90" lat="30.37846" lon="-97.971111" changeset="false"><tag k="addr:street" v="Picea Drive"/><tag k="addr:housenumber" v="201"/><tag k="coa:place_id" v="3083165"/></node><node id="-91" lat="30.37805" lon="-97.97065" changeset="false"><tag k="addr:street" v="Picea Drive"/><tag k="addr:housenumber" v="107"/><tag k="coa:place_id" v="3083168"/></node><node id="-92" lat="30.37585" lon="-97.970798" changeset="false"><tag k="addr:street" v="Hurst Creek Road"/><tag k="addr:housenumber" v="403"/><tag k="coa:place_id" v="3082465"/></node><node id="-93" lat="30.381899" lon="-97.970878" changeset="false"><tag k="addr:street" v="Brooks Hollow Road"/><tag k="addr:housenumber" v="301"/><tag k="coa:place_id" v="225451"/></node><node id="-94" lat="30.378007" lon="-97.97233" changeset="false"><tag k="addr:street" v="Vitex Drive"/><tag k="addr:housenumber" v="207"/><tag k="coa:place_id" v="3083979"/></node><node id="-95" lat="30.377701" lon="-97.973627" changeset="false"><tag k="addr:street" v="Acapulco Drive"/><tag k="addr:housenumber" v="110"/><tag k="coa:place_id" v="3081296"/></node><node id="-96" lat="30.376546" lon="-97.970919" changeset="false"><tag k="addr:street" v="Phlox Drive"/><tag k="addr:housenumber" v="105"/><tag k="coa:place_id" v="3083150"/></node><node id="-97" lat="30.388957" lon="-97.968371" changeset="false"><tag k="addr:street" v="Hurst Hollow"/><tag k="addr:housenumber" v="1306"/><tag k="coa:place_id" v="102029"/></node><node id="-98" lat="30.377325" lon="-97.970553" changeset="false"><tag k="addr:street" v="Vitex Drive"/><tag k="addr:housenumber" v="105"/><tag k="coa:place_id" v="3083972"/></node><node id="-99" lat="30.37731" lon="-97.972131" changeset="false"><tag k="addr:street" v="Phlox Drive"/><tag k="addr:housenumber" v="204"/><tag k="coa:place_id" v="3083155"/></node><node id="-100" lat="30.382564" lon="-97.969213" changeset="false"><tag k="addr:street" v="Hurst Creek Road"/><tag k="addr:housenumber" v="705"/><tag k="coa:place_id" v="225444"/></node><node id="-101" lat="30.377097" lon="-97.970681" changeset="false"><tag k="addr:street" v="Vitex Drive"/><tag k="addr:housenumber" v="106"/><tag k="coa:place_id" v="3083974"/></node><node id="-102" lat="30.382874" lon="-97.969247" changeset="false"><tag k="addr:street" v="Hurst Creek Road"/><tag k="addr:housenumber" v="707"/><tag k="coa:place_id" v="56536"/></node><node id="-103" lat="30.378465" lon="-97.970014" changeset="false"><tag k="addr:street" v="Picea Drive"/><tag k="addr:housenumber" v="106"/><tag k="coa:place_id" v="3083164"/></node><node id="-104" lat="30.377761" lon="-97.973474" changeset="false"><tag k="addr:street" v="Acapulco Drive"/><tag k="addr:housenumber" v="112"/><tag k="coa:place_id" v="3081297"/></node><node id="-105" lat="30.377401" lon="-97.973296" changeset="false"><tag k="addr:street" v="Phlox Drive"/><tag k="addr:housenumber" v="209"/><tag k="coa:place_id" v="3083156"/></node><node id="-106" lat="30.384175" lon="-97.973083" changeset="false"><tag k="addr:street" v="Brooks Hollow Road"/><tag k="addr:housenumber" v="701"/><tag k="coa:place_id" v="225457"/></node><node id="-107" lat="30.388467" lon="-97.96863" changeset="false"><tag k="addr:street" v="Hurst Hollow"/><tag k="addr:housenumber" v="1302"/><tag k="coa:place_id" v="102024"/></node><node id="-108" lat="30.386876" lon="-97.968529" changeset="false"><tag k="addr:street" v="Hurst Hollow"/><tag k="addr:housenumber" v="1201"/><tag k="coa:place_id" v="101999"/></node><node id="-109" lat="30.377954" lon="-97.971373" changeset="false"><tag k="addr:street" v="Vitex Drive"/><tag k="addr:housenumber" v="202"/><tag k="coa:place_id" v="3083978"/></node><node id="-110" lat="30.377972" lon="-97.973123" changeset="false"><tag k="addr:street" v="Acapulco Drive"/><tag k="addr:housenumber" v="116"/><tag k="coa:place_id" v="3081301"/></node><node id="-111" lat="30.377503" lon="-97.971665" changeset="false"><tag k="addr:street" v="Vitex Drive"/><tag k="addr:housenumber" v="201"/><tag k="coa:place_id" v="3083982"/></node><node id="-112" lat="30.377483" lon="-97.972408" changeset="false"><tag k="addr:street" v="Phlox Drive"/><tag k="addr:housenumber" v="206"/><tag k="coa:place_id" v="3083154"/></node><node id="-113" lat="30.380853" lon="-97.975572" changeset="false"><tag k="addr:street" v="Rock Bluff Drive"/><tag k="addr:housenumber" v="503"/><tag k="coa:place_id" v="3370011"/></node><node id="-114" lat="30.385001" lon="-97.973021" changeset="false"><tag k="addr:street" v="Brooks Hollow Road"/><tag k="addr:housenumber" v="809"/><tag k="coa:place_id" v="3196778"/></node><node id="-115" lat="30.369664" lon="-97.989597" changeset="false"><tag k="addr:street" v="Wee Scot Cove"/><tag k="addr:housenumber" v="104"/><tag k="coa:place_id" v="3263203"/></node><node id="-116" lat="30.383452" lon="-97.969203" changeset="false"><tag k="addr:street" v="Hurst Creek Road"/><tag k="addr:housenumber" v="803"/><tag k="coa:place_id" v="225448"/></node><node id="-117" lat="30.386777" lon="-97.972377" changeset="false"><tag k="addr:street" v="Brooks Hollow Road"/><tag k="addr:housenumber" v="913"/><tag k="coa:place_id" v="3201136"/></node><node id="-118" lat="30.380689" lon="-97.97187" changeset="false"><tag k="addr:street" v="Oakbluff Cove"/><tag k="addr:housenumber" v="101"/><tag k="coa:place_id" v="3369743"/></node><node id="-119" lat="30.380617" lon="-97.971693" changeset="false"><tag k="addr:street" v="Oakbluff Cove"/><tag k="addr:housenumber" v="103"/><tag k="coa:place_id" v="3369744"/></node><node id="-120" lat="30.38078" lon="-97.975589" changeset="false"><tag k="addr:street" v="Rock Bluff Drive"/><tag k="addr:housenumber" v="505"/><tag k="coa:place_id" v="3370012"/></node><node id="-121" lat="30.380713" lon="-97.975648" changeset="false"><tag k="addr:street" v="Rock Bluff Drive"/><tag k="addr:housenumber" v="507"/><tag k="coa:place_id" v="3370013"/></node><node id="-122" lat="30.380637" lon="-97.975668" changeset="false"><tag k="addr:street" v="Rock Bluff Drive"/><tag k="addr:housenumber" v="509"/><tag k="coa:place_id" v="3370014"/></node><node id="-123" lat="30.380929" lon="-97.975546" changeset="false"><tag k="addr:street" v="Rock Bluff Drive"/><tag k="addr:housenumber" v="501"/><tag k="coa:place_id" v="3370010"/></node><node id="-124" lat="30.378403" lon="-97.969352" changeset="false"><tag k="addr:street" v="Hurst Creek Road"/><tag k="addr:housenumber" v="503"/><tag k="coa:place_id" v="3082474"/></node><node id="-125" lat="30.378619" lon="-97.96926" changeset="false"><tag k="addr:street" v="Hurst Creek Road"/><tag k="addr:housenumber" v="505"/><tag k="coa:place_id" v="3082473"/></node><node id="-126" lat="30.38039" lon="-97.975795" changeset="false"><tag k="addr:street" v="Rock Bluff Drive"/><tag k="addr:housenumber" v="515"/><tag k="coa:place_id" v="3370017"/></node><node id="-127" lat="30.380312" lon="-97.975809" changeset="false"><tag k="addr:street" v="Rock Bluff Drive"/><tag k="addr:housenumber" v="517"/><tag k="coa:place_id" v="3370018"/></node><node id="-128" lat="30.380162" lon="-97.975807" changeset="false"><tag k="addr:street" v="Rock Bluff Drive"/><tag k="addr:housenumber" v="521"/><tag k="coa:place_id" v="3370020"/></node><node id="-129" lat="30.380537" lon="-97.975761" changeset="false"><tag k="addr:street" v="Rock Bluff Drive"/><tag k="addr:housenumber" v="511"/><tag k="coa:place_id" v="3370015"/></node><node id="-130" lat="30.380455" lon="-97.975769" changeset="false"><tag k="addr:street" v="Rock Bluff Drive"/><tag k="addr:housenumber" v="513"/><tag k="coa:place_id" v="3370016"/></node><node id="-131" lat="30.38024" lon="-97.975796" changeset="false"><tag k="addr:street" v="Rock Bluff Drive"/><tag k="addr:housenumber" v="519"/><tag k="coa:place_id" v="3370019"/></node><node id="-132" lat="30.379888" lon="-97.97575" changeset="false"><tag k="addr:street" v="Rock Bluff Drive"/><tag k="addr:housenumber" v="527"/><tag k="coa:place_id" v="3370023"/></node><node id="-133" lat="30.37997" lon="-97.975784" changeset="false"><tag k="addr:street" v="Rock Bluff Drive"/><tag k="addr:housenumber" v="525"/><tag k="coa:place_id" v="3370022"/></node><node id="-134" lat="30.379741" lon="-97.975753" changeset="false"><tag k="addr:street" v="Rock Bluff Drive"/><tag k="addr:housenumber" v="531"/><tag k="coa:place_id" v="3370025"/></node><node id="-135" lat="30.379812" lon="-97.975761" changeset="false"><tag k="addr:street" v="Rock Bluff Drive"/><tag k="addr:housenumber" v="529"/><tag k="coa:place_id" v="3370024"/></node><node id="-136" lat="30.380054" lon="-97.975773" changeset="false"><tag k="addr:street" v="Rock Bluff Drive"/><tag k="addr:housenumber" v="523"/><tag k="coa:place_id" v="3370021"/></node></osm>