<?xml version="1.0" encoding="UTF-8"?><osm version="0.6" generator="github.com/aaronlidman/osm-and-geojson"><node id="-1" lat="30.223926" lon="-97.736853" changeset="false"><tag k="addr:street" v="Metcalfe Road"/><tag k="addr:housenumber" v="2827"/><tag k="addr:postcode" v="78741"/></node><node id="-2" lat="30.222239" lon="-97.737801" changeset="false"><tag k="addr:street" v="Wickshire Lane"/><tag k="addr:housenumber" v="2101"/><tag k="addr:postcode" v="78741"/></node><node id="-3" lat="30.224262" lon="-97.736754" changeset="false"><tag k="addr:street" v="Metcalfe Road"/><tag k="addr:housenumber" v="2823"/><tag k="addr:postcode" v="78741"/></node><node id="-4" lat="30.224757" lon="-97.736486" changeset="false"><tag k="addr:street" v="Metcalfe Road"/><tag k="addr:housenumber" v="2817"/><tag k="addr:postcode" v="78741"/></node><node id="-5" lat="30.224033" lon="-97.73985" changeset="false"><tag k="addr:street" v="Wickshire Lane"/><tag k="addr:housenumber" v="1916"/><tag k="addr:postcode" v="78741"/></node><node id="-6" lat="30.226259" lon="-97.738202" changeset="false"><tag k="addr:street" v="Tripshaw Lane"/><tag k="addr:housenumber" v="2013"/><tag k="addr:postcode" v="78741"/></node><node id="-7" lat="30.226212" lon="-97.738088" changeset="false"><tag k="addr:street" v="Tripshaw Lane"/><tag k="addr:housenumber" v="2017"/><tag k="addr:postcode" v="78741"/></node><node id="-8" lat="30.226113" lon="-97.737789" changeset="false"><tag k="addr:street" v="Tripshaw Lane"/><tag k="addr:housenumber" v="2101"/><tag k="addr:postcode" v="78741"/></node><node id="-9" lat="30.225598" lon="-97.740213" changeset="false"><tag k="addr:street" v="Teagle Drive"/><tag k="addr:housenumber" v="1908"/><tag k="addr:postcode" v="78741"/></node><node id="-10" lat="30.225358" lon="-97.740587" changeset="false"><tag k="addr:street" v="Bond Drive"/><tag k="addr:housenumber" v="2917"/><tag k="addr:postcode" v="78741"/></node><node id="-11" lat="30.226436" lon="-97.737832" changeset="false"><tag k="addr:street" v="Carlson Drive"/><tag k="addr:housenumber" v="2101"/><tag k="addr:postcode" v="78741"/></node><node id="-12" lat="30.226923" lon="-97.738914" changeset="false"><tag k="addr:street" v="Carlson Drive"/><tag k="addr:housenumber" v="1913"/><tag k="addr:postcode" v="78741"/></node><node id="-13" lat="30.227943" lon="-97.739155" changeset="false"><tag k="addr:street" v="Witsome Loop"/><tag k="addr:housenumber" v="2620"/><tag k="addr:postcode" v="78741"/></node><node id="-14" lat="30.22632" lon="-97.737863" changeset="false"><tag k="addr:street" v="Tripshaw Lane"/><tag k="addr:housenumber" v="2100"/><tag k="addr:postcode" v="78741"/></node><node id="-15" lat="30.226562" lon="-97.738445" changeset="false"><tag k="addr:street" v="Tripshaw Lane"/><tag k="addr:housenumber" v="2004"/><tag k="addr:postcode" v="78741"/></node><node id="-16" lat="30.226406" lon="-97.738099" changeset="false"><tag k="addr:street" v="Tripshaw Lane"/><tag k="addr:housenumber" v="2016"/><tag k="addr:postcode" v="78741"/></node><node id="-17" lat="30.224545" lon="-97.739629" changeset="false"><tag k="addr:street" v="Sager Drive"/><tag k="addr:housenumber" v="2017"/><tag k="addr:postcode" v="78741"/></node><node id="-18" lat="30.225454" lon="-97.739888" changeset="false"><tag k="addr:street" v="Teagle Drive"/><tag k="addr:housenumber" v="1920"/><tag k="addr:postcode" v="78741"/></node><node id="-19" lat="30.225429" lon="-97.736088" changeset="false"><tag k="addr:street" v="Metcalfe Road"/><tag k="addr:housenumber" v="2809"/><tag k="addr:postcode" v="78741"/></node><node id="-20" lat="30.224989" lon="-97.735089" changeset="false"><tag k="addr:street" v="Burleson Road"/><tag k="addr:housenumber" v="2700"/><tag k="addr:postcode" v="78741"/></node><node id="-21" lat="30.227107" lon="-97.737956" changeset="false"><tag k="addr:street" v="Metcalfe Road"/><tag k="addr:housenumber" v="2624"/><tag k="addr:postcode" v="78741"/></node><node id="-22" lat="30.219633" lon="-97.742954" changeset="false"><tag k="addr:street" v="Parker Lane"/><tag k="addr:housenumber" v="3435"/><tag k="addr:postcode" v="78741"/></node><node id="-23" lat="30.225291" lon="-97.740134" changeset="false"><tag k="addr:street" v="Teagle Drive"/><tag k="addr:housenumber" v="1917"/><tag k="addr:postcode" v="78741"/></node><node id="-24" lat="30.224723" lon="-97.739378" changeset="false"><tag k="addr:street" v="Sager Drive"/><tag k="addr:housenumber" v="2024"/><tag k="addr:postcode" v="78741"/></node><node id="-25" lat="30.225188" lon="-97.739582" changeset="false"><tag k="addr:street" v="Teagle Drive"/><tag k="addr:housenumber" v="2001"/><tag k="addr:postcode" v="78741"/></node><node id="-26" lat="30.228046" lon="-97.739388" changeset="false"><tag k="addr:street" v="Witsome Loop"/><tag k="addr:housenumber" v="2612"/><tag k="addr:postcode" v="78741"/></node><node id="-27" lat="30.227695" lon="-97.739119" changeset="false"><tag k="addr:street" v="Witsome Loop"/><tag k="addr:housenumber" v="2613"/><tag k="addr:postcode" v="78741"/></node><node id="-28" lat="30.2246" lon="-97.739926" changeset="false"><tag k="addr:street" v="Sager Drive"/><tag k="addr:housenumber" v="2005"/><tag k="addr:postcode" v="78741"/></node><node id="-29" lat="30.227576" lon="-97.73909" changeset="false"><tag k="addr:street" v="Carlson Drive"/><tag k="addr:housenumber" v="1828"/><tag k="addr:postcode" v="78741"/></node><node id="-30" lat="30.226828" lon="-97.73901" changeset="false"><tag k="addr:street" v="Tripshaw Lane"/><tag k="addr:housenumber" v="1916"/><tag k="addr:postcode" v="78741"/></node><node id="-31" lat="30.22646" lon="-97.737948" changeset="false"><tag k="addr:street" v="Carlson Drive"/><tag k="addr:housenumber" v="2021"/><tag k="addr:postcode" v="78741"/></node><node id="-32" lat="30.225497" lon="-97.74049" changeset="false"><tag k="addr:street" v="Bond Drive"/><tag k="addr:housenumber" v="2909"/><tag k="addr:postcode" v="78741"/></node><node id="-33" lat="30.225561" lon="-97.740127" changeset="false"><tag k="addr:street" v="Teagle Drive"/><tag k="addr:housenumber" v="1912"/><tag k="addr:postcode" v="78741"/></node><node id="-34" lat="30.226424" lon="-97.738272" changeset="false"><tag k="addr:street" v="Metcalfe Road"/><tag k="addr:housenumber" v="2700"/><tag k="addr:postcode" v="78741"/></node><node id="-35" lat="30.225037" lon="-97.736312" changeset="false"><tag k="addr:street" v="Metcalfe Road"/><tag k="addr:housenumber" v="2813"/><tag k="addr:postcode" v="78741"/></node><node id="-36" lat="30.224589" lon="-97.736585" changeset="false"><tag k="addr:street" v="Metcalfe Road"/><tag k="addr:housenumber" v="2819"/><tag k="addr:postcode" v="78741"/></node><node id="-37" lat="30.224098" lon="-97.736812" changeset="false"><tag k="addr:street" v="Metcalfe Road"/><tag k="addr:housenumber" v="2825"/><tag k="addr:postcode" v="78741"/></node><node id="-38" lat="30.22533" lon="-97.739349" changeset="false"><tag k="addr:street" v="Teagle Drive"/><tag k="addr:housenumber" v="2008"/><tag k="addr:postcode" v="78741"/></node><node id="-39" lat="30.225282" lon="-97.74065" changeset="false"><tag k="addr:street" v="Bond Drive"/><tag k="addr:housenumber" v="2921"/><tag k="addr:postcode" v="78741"/></node><node id="-40" lat="30.225417" lon="-97.73968" changeset="false"><tag k="addr:street" v="Teagle Drive"/><tag k="addr:housenumber" v="1928"/><tag k="addr:postcode" v="78741"/></node><node id="-41" lat="30.225277" lon="-97.739236" changeset="false"><tag k="addr:street" v="Teagle Drive"/><tag k="addr:housenumber" v="2012"/><tag k="addr:postcode" v="78741"/></node><node id="-42" lat="30.225175" lon="-97.739017" changeset="false"><tag k="addr:street" v="Teagle Drive"/><tag k="addr:housenumber" v="2020"/><tag k="addr:postcode" v="78741"/></node><node id="-43" lat="30.227594" lon="-97.738904" changeset="false"><tag k="addr:street" v="Witsome Loop"/><tag k="addr:housenumber" v="2621"/><tag k="addr:postcode" v="78741"/></node><node id="-44" lat="30.22771" lon="-97.739509" changeset="false"><tag k="addr:street" v="Carlson Drive"/><tag k="addr:housenumber" v="1812"/><tag k="addr:postcode" v="78741"/></node><node id="-45" lat="30.227619" lon="-97.7392" changeset="false"><tag k="addr:street" v="Carlson Drive"/><tag k="addr:housenumber" v="1824"/><tag k="addr:postcode" v="78741"/></node><node id="-46" lat="30.226779" lon="-97.738902" changeset="false"><tag k="addr:street" v="Tripshaw Lane"/><tag k="addr:housenumber" v="1920"/><tag k="addr:postcode" v="78741"/></node><node id="-47" lat="30.224861" lon="-97.740229" changeset="false"><tag k="addr:street" v="Sager Drive"/><tag k="addr:housenumber" v="1920"/><tag k="addr:postcode" v="78741"/></node><node id="-48" lat="30.224578" lon="-97.739826" changeset="false"><tag k="addr:street" v="Sager Drive"/><tag k="addr:housenumber" v="2009"/><tag k="addr:postcode" v="78741"/></node><node id="-49" lat="30.225345" lon="-97.740238" changeset="false"><tag k="addr:street" v="Teagle Drive"/><tag k="addr:housenumber" v="1913"/><tag k="addr:postcode" v="78741"/></node><node id="-50" lat="30.225066" lon="-97.739313" changeset="false"><tag k="addr:street" v="Teagle Drive"/><tag k="addr:housenumber" v="2013"/><tag k="addr:postcode" v="78741"/></node><node id="-51" lat="30.225026" lon="-97.739221" changeset="false"><tag k="addr:street" v="Teagle Drive"/><tag k="addr:housenumber" v="2017"/><tag k="addr:postcode" v="78741"/></node><node id="-52" lat="30.228001" lon="-97.739272" changeset="false"><tag k="addr:street" v="Witsome Loop"/><tag k="addr:housenumber" v="2616"/><tag k="addr:postcode" v="78741"/></node><node id="-53" lat="30.227851" lon="-97.738941" changeset="false"><tag k="addr:street" v="Witsome Loop"/><tag k="addr:housenumber" v="2628"/><tag k="addr:postcode" v="78741"/></node><node id="-54" lat="30.218427" lon="-97.743354" changeset="false"><tag k="addr:street" v="Woodward Street"/><tag k="addr:housenumber" v="2000 1/2"/><tag k="addr:postcode" v="78741"/></node><node id="-55" lat="30.227615" lon="-97.739429" changeset="false"><tag k="addr:street" v="Carlson Drive"/><tag k="addr:housenumber" v="1816 1/2"/><tag k="addr:postcode" v="78741"/></node><node id="-56" lat="30.2275" lon="-97.738812" changeset="false"><tag k="addr:street" v="Witsome Loop"/><tag k="addr:housenumber" v="2629"/><tag k="addr:postcode" v="78741"/></node><node id="-57" lat="30.226712" lon="-97.738478" changeset="false"><tag k="addr:street" v="Carlson Drive"/><tag k="addr:housenumber" v="2001"/><tag k="addr:postcode" v="78741"/></node><node id="-58" lat="30.223562" lon="-97.741976" changeset="false"><tag k="addr:street" v="Parker Lane"/><tag k="addr:housenumber" v="3111"/><tag k="addr:postcode" v="78741"/></node><node id="-59" lat="30.227016" lon="-97.738006" changeset="false"><tag k="addr:street" v="Metcalfe Road"/><tag k="addr:housenumber" v="2626"/><tag k="addr:postcode" v="78741"/></node><node id="-60" lat="30.225428" lon="-97.740531" changeset="false"><tag k="addr:street" v="Bond Drive"/><tag k="addr:housenumber" v="2913"/><tag k="addr:postcode" v="78741"/></node><node id="-61" lat="30.225169" lon="-97.74067" changeset="false"><tag k="addr:street" v="Sager Drive"/><tag k="addr:housenumber" v="1900"/><tag k="addr:postcode" v="78741"/></node><node id="-62" lat="30.22512" lon="-97.740572" changeset="false"><tag k="addr:street" v="Sager Drive"/><tag k="addr:housenumber" v="1904"/><tag k="addr:postcode" v="78741"/></node><node id="-63" lat="30.227755" lon="-97.739251" changeset="false"><tag k="addr:street" v="Witsome Loop"/><tag k="addr:housenumber" v="2609"/><tag k="addr:postcode" v="78741"/></node><node id="-64" lat="30.225379" lon="-97.739453" changeset="false"><tag k="addr:street" v="Teagle Drive"/><tag k="addr:housenumber" v="2004"/><tag k="addr:postcode" v="78741"/></node><node id="-65" lat="30.227067" lon="-97.739287" changeset="false"><tag k="addr:street" v="Bond Drive"/><tag k="addr:housenumber" v="2701"/><tag k="addr:postcode" v="78741"/></node><node id="-66" lat="30.224826" lon="-97.740026" changeset="false"><tag k="addr:street" v="Sager Drive"/><tag k="addr:housenumber" v="2000"/><tag k="addr:postcode" v="78741"/></node><node id="-67" lat="30.224792" lon="-97.739841" changeset="false"><tag k="addr:street" v="Sager Drive"/><tag k="addr:housenumber" v="2008"/><tag k="addr:postcode" v="78741"/></node><node id="-68" lat="30.225239" lon="-97.739955" changeset="false"><tag k="addr:street" v="Teagle Drive"/><tag k="addr:housenumber" v="1921"/><tag k="addr:postcode" v="78741"/></node><node id="-69" lat="30.225216" lon="-97.739815" changeset="false"><tag k="addr:street" v="Teagle Drive"/><tag k="addr:housenumber" v="1925"/><tag k="addr:postcode" v="78741"/></node><node id="-70" lat="30.225105" lon="-97.739401" changeset="false"><tag k="addr:street" v="Teagle Drive"/><tag k="addr:housenumber" v="2009"/><tag k="addr:postcode" v="78741"/></node><node id="-71" lat="30.226336" lon="-97.738384" changeset="false"><tag k="addr:street" v="Tripshaw Lane"/><tag k="addr:housenumber" v="2009"/><tag k="addr:postcode" v="78741"/></node><node id="-72" lat="30.224756" lon="-97.739568" changeset="false"><tag k="addr:street" v="Sager Drive"/><tag k="addr:housenumber" v="2016"/><tag k="addr:postcode" v="78741"/></node><node id="-73" lat="30.226889" lon="-97.738838" changeset="false"><tag k="addr:street" v="Carlson Drive"/><tag k="addr:housenumber" v="1917"/><tag k="addr:postcode" v="78741"/></node><node id="-74" lat="30.227554" lon="-97.738792" changeset="false"><tag k="addr:street" v="Witsome Loop"/><tag k="addr:housenumber" v="2625"/><tag k="addr:postcode" v="78741"/></node><node id="-75" lat="30.227679" lon="-97.739405" changeset="false"><tag k="addr:street" v="Carlson Drive"/><tag k="addr:housenumber" v="1816"/><tag k="addr:postcode" v="78741"/></node><node id="-76" lat="30.227396" lon="-97.73895" changeset="false"><tag k="addr:street" v="Carlson Drive"/><tag k="addr:housenumber" v="1836"/><tag k="addr:postcode" v="78741"/></node><node id="-77" lat="30.224738" lon="-97.739473" changeset="false"><tag k="addr:street" v="Sager Drive"/><tag k="addr:housenumber" v="2020"/><tag k="addr:postcode" v="78741"/></node><node id="-78" lat="30.224614" lon="-97.740027" changeset="false"><tag k="addr:street" v="Sager Drive"/><tag k="addr:housenumber" v="2001"/><tag k="addr:postcode" v="78741"/></node><node id="-79" lat="30.226397" lon="-97.737514" changeset="false"><tag k="addr:street" v="Carlson Drive"/><tag k="addr:housenumber" v="2113"/><tag k="addr:postcode" v="78741"/></node><node id="-80" lat="30.227416" lon="-97.738809" changeset="false"><tag k="addr:street" v="Witsome Loop"/><tag k="addr:housenumber" v="2633"/><tag k="addr:postcode" v="78741"/></node><node id="-81" lat="30.21664" lon="-97.743493" changeset="false"><tag k="addr:street" v="East Ben White Boulevard"/><tag k="addr:housenumber" v="2028 1/2"/><tag k="addr:postcode" v="78741"/></node><node id="-82" lat="30.216477" lon="-97.741163" changeset="false"><tag k="addr:street" v="East Ben White Boulevard"/><tag k="addr:housenumber" v="2208 1/2"/><tag k="addr:postcode" v="78741"/></node><node id="-83" lat="30.224412" lon="-97.737254" changeset="false"><tag k="addr:street" v="Metcalfe Road"/><tag k="addr:housenumber" v="2904"/><tag k="addr:postcode" v="78741"/></node><node id="-84" lat="30.223007" lon="-97.73906" changeset="false"><tag k="addr:street" v="Wickshire Lane"/><tag k="addr:housenumber" v="1925 1/2"/><tag k="addr:postcode" v="78741"/></node><node id="-85" lat="30.22646" lon="-97.73533" changeset="false"><tag k="addr:street" v="Burleson Road"/><tag k="addr:housenumber" v="2620"/><tag k="addr:postcode" v="78741"/></node><node id="-86" lat="30.225155" lon="-97.739485" changeset="false"><tag k="addr:street" v="Teagle Drive"/><tag k="addr:housenumber" v="2005"/><tag k="addr:postcode" v="78741"/></node><node id="-87" lat="30.226513" lon="-97.73833" changeset="false"><tag k="addr:street" v="Tripshaw Lane"/><tag k="addr:housenumber" v="2008"/><tag k="addr:postcode" v="78741"/></node><node id="-88" lat="30.225437" lon="-97.739777" changeset="false"><tag k="addr:street" v="Teagle Drive"/><tag k="addr:housenumber" v="1924"/><tag k="addr:postcode" v="78741"/></node><node id="-89" lat="30.225408" lon="-97.739566" changeset="false"><tag k="addr:street" v="Teagle Drive"/><tag k="addr:housenumber" v="2000"/><tag k="addr:postcode" v="78741"/></node><node id="-90" lat="30.227896" lon="-97.739052" changeset="false"><tag k="addr:street" v="Witsome Loop"/><tag k="addr:housenumber" v="2624"/><tag k="addr:postcode" v="78741"/></node><node id="-91" lat="30.226603" lon="-97.738257" changeset="false"><tag k="addr:street" v="Carlson Drive"/><tag k="addr:housenumber" v="2009"/><tag k="addr:postcode" v="78741"/></node><node id="-92" lat="30.226362" lon="-97.737994" changeset="false"><tag k="addr:street" v="Tripshaw Lane"/><tag k="addr:housenumber" v="2020"/><tag k="addr:postcode" v="78741"/></node><node id="-93" lat="30.216774" lon="-97.743725" changeset="false"><tag k="addr:street" v="East Ben White Boulevard"/><tag k="addr:housenumber" v="2018"/><tag k="addr:postcode" v="78741"/></node><node id="-94" lat="30.225514" lon="-97.740039" changeset="false"><tag k="addr:street" v="Teagle Drive"/><tag k="addr:housenumber" v="1916"/><tag k="addr:postcode" v="78741"/></node><node id="-95" lat="30.226308" lon="-97.73771" changeset="false"><tag k="addr:street" v="Tripshaw Lane"/><tag k="addr:housenumber" v="2104"/><tag k="addr:postcode" v="78741"/></node><node id="-96" lat="30.226298" lon="-97.737567" changeset="false"><tag k="addr:street" v="Tripshaw Lane"/><tag k="addr:housenumber" v="2108"/><tag k="addr:postcode" v="78741"/></node><node id="-97" lat="30.226671" lon="-97.73839" changeset="false"><tag k="addr:street" v="Carlson Drive"/><tag k="addr:housenumber" v="2005"/><tag k="addr:postcode" v="78741"/></node><node id="-98" lat="30.224565" lon="-97.739734" changeset="false"><tag k="addr:street" v="Sager Drive"/><tag k="addr:housenumber" v="2013"/><tag k="addr:postcode" v="78741"/></node><node id="-99" lat="30.224536" lon="-97.739526" changeset="false"><tag k="addr:street" v="Sager Drive"/><tag k="addr:housenumber" v="2021"/><tag k="addr:postcode" v="78741"/></node><node id="-100" lat="30.226463" lon="-97.738047" changeset="false"><tag k="addr:street" v="Metcalfe Road"/><tag k="addr:housenumber" v="2700 1/2"/><tag k="addr:postcode" v="78741"/></node><node id="-101" lat="30.224804" lon="-97.739932" changeset="false"><tag k="addr:street" v="Sager Drive"/><tag k="addr:housenumber" v="2004"/><tag k="addr:postcode" v="78741"/></node><node id="-102" lat="30.225683" lon="-97.740379" changeset="false"><tag k="addr:street" v="Teagle Drive"/><tag k="addr:housenumber" v="1900"/><tag k="addr:postcode" v="78741"/></node><node id="-103" lat="30.22656" lon="-97.738175" changeset="false"><tag k="addr:street" v="Carlson Drive"/><tag k="addr:housenumber" v="2013"/><tag k="addr:postcode" v="78741"/></node><node id="-104" lat="30.226503" lon="-97.738032" changeset="false"><tag k="addr:street" v="Carlson Drive"/><tag k="addr:housenumber" v="2017"/><tag k="addr:postcode" v="78741"/></node><node id="-105" lat="30.22643" lon="-97.737721" changeset="false"><tag k="addr:street" v="Carlson Drive"/><tag k="addr:housenumber" v="2105"/><tag k="addr:postcode" v="78741"/></node><node id="-106" lat="30.225201" lon="-97.739687" changeset="false"><tag k="addr:street" v="Teagle Drive"/><tag k="addr:housenumber" v="1929"/><tag k="addr:postcode" v="78741"/></node><node id="-107" lat="30.227641" lon="-97.739002" changeset="false"><tag k="addr:street" v="Witsome Loop"/><tag k="addr:housenumber" v="2617"/><tag k="addr:postcode" v="78741"/></node><node id="-108" lat="30.226462" lon="-97.738221" changeset="false"><tag k="addr:street" v="Tripshaw Lane"/><tag k="addr:housenumber" v="2012"/><tag k="addr:postcode" v="78741"/></node><node id="-109" lat="30.227496" lon="-97.738999" changeset="false"><tag k="addr:street" v="Carlson Drive"/><tag k="addr:housenumber" v="1832"/><tag k="addr:postcode" v="78741"/></node><node id="-110" lat="30.224698" lon="-97.739278" changeset="false"><tag k="addr:street" v="Sager Drive"/><tag k="addr:housenumber" v="2028"/><tag k="addr:postcode" v="78741"/></node><node id="-111" lat="30.226818" lon="-97.738711" changeset="false"><tag k="addr:street" v="Carlson Drive"/><tag k="addr:housenumber" v="1921"/><tag k="addr:postcode" v="78741"/></node><node id="-112" lat="30.227825" lon="-97.739402" changeset="false"><tag k="addr:street" v="Witsome Loop"/><tag k="addr:housenumber" v="2605"/><tag k="addr:postcode" v="78741"/></node><node id="-113" lat="30.225642" lon="-97.740295" changeset="false"><tag k="addr:street" v="Teagle Drive"/><tag k="addr:housenumber" v="1904"/><tag k="addr:postcode" v="78741"/></node><node id="-114" lat="30.226728" lon="-97.738783" changeset="false"><tag k="addr:street" v="Tripshaw Lane"/><tag k="addr:housenumber" v="1924"/><tag k="addr:postcode" v="78741"/></node><node id="-115" lat="30.227645" lon="-97.73931" changeset="false"><tag k="addr:street" v="Carlson Drive"/><tag k="addr:housenumber" v="1820"/><tag k="addr:postcode" v="78741"/></node><node id="-116" lat="30.227301" lon="-97.738906" changeset="false"><tag k="addr:street" v="Witsome Loop"/><tag k="addr:housenumber" v="2637"/><tag k="addr:postcode" v="78741"/></node><node id="-117" lat="30.224911" lon="-97.740314" changeset="false"><tag k="addr:street" v="Sager Drive"/><tag k="addr:housenumber" v="1916"/><tag k="addr:postcode" v="78741"/></node><node id="-118" lat="30.226783" lon="-97.738621" changeset="false"><tag k="addr:street" v="Carlson Drive"/><tag k="addr:housenumber" v="1925"/><tag k="addr:postcode" v="78741"/></node><node id="-119" lat="30.226417" lon="-97.737607" changeset="false"><tag k="addr:street" v="Carlson Drive"/><tag k="addr:housenumber" v="2109"/><tag k="addr:postcode" v="78741"/></node><node id="-120" lat="30.224425" lon="-97.736667" changeset="false"><tag k="addr:street" v="Metcalfe Road"/><tag k="addr:housenumber" v="2821"/><tag k="addr:postcode" v="78741"/></node><node id="-121" lat="30.223766" lon="-97.739374" changeset="false"><tag k="addr:street" v="Wickshire Lane"/><tag k="addr:housenumber" v="1918"/><tag k="addr:postcode" v="78741"/></node><node id="-122" lat="30.217621" lon="-97.743174" changeset="false"><tag k="addr:street" v="Woodward Street"/><tag k="addr:housenumber" v="2014"/><tag k="addr:postcode" v="78741"/></node><node id="-123" lat="30.216519" lon="-97.739544" changeset="false"><tag k="addr:street" v="East Ben White Boulevard"/><tag k="addr:housenumber" v="2238"/><tag k="addr:postcode" v="78741"/></node><node id="-124" lat="30.218486" lon="-97.743421" changeset="false"><tag k="addr:street" v="Woodward Street"/><tag k="addr:housenumber" v="2000"/><tag k="addr:postcode" v="78741"/></node><node id="-125" lat="30.226089" lon="-97.737657" changeset="false"><tag k="addr:street" v="Tripshaw Lane"/><tag k="addr:housenumber" v="2105"/><tag k="addr:postcode" v="78741"/></node><node id="-126" lat="30.225224" lon="-97.739126" changeset="false"><tag k="addr:street" v="Teagle Drive"/><tag k="addr:housenumber" v="2016"/><tag k="addr:postcode" v="78741"/></node><node id="-127" lat="30.224841" lon="-97.740126" changeset="false"><tag k="addr:street" v="Sager Drive"/><tag k="addr:housenumber" v="1924"/><tag k="addr:postcode" v="78741"/></node><node id="-128" lat="30.216528" lon="-97.739608" changeset="false"><tag k="addr:street" v="East Ben White Boulevard"/><tag k="addr:housenumber" v="2236"/><tag k="addr:postcode" v="78741"/></node><node id="-129" lat="30.216543" lon="-97.739654" changeset="false"><tag k="addr:street" v="East Ben White Boulevard"/><tag k="addr:housenumber" v="2234"/><tag k="addr:postcode" v="78741"/></node></osm>