<?xml version="1.0" encoding="UTF-8"?><osm version="0.6" generator="github.com/aaronlidman/osm-and-geojson"><node id="-1" lat="30.418318" lon="-97.801809" changeset="false"><tag k="addr:street" v="Old Lampasas Trail"/><tag k="addr:housenumber" v="9113"/><tag k="addr:postcode" v="78750"/></node><node id="-2" lat="30.425379" lon="-97.807866" changeset="false"><tag k="addr:street" v="Chester Lane"/><tag k="addr:housenumber" v="10004"/><tag k="addr:postcode" v="78750"/></node><node id="-3" lat="30.432956" lon="-97.812744" changeset="false"><tag k="addr:street" v="Lockerbie Drive"/><tag k="addr:housenumber" v="10500"/><tag k="addr:postcode" v="78750"/></node><node id="-4" lat="30.443259" lon="-97.81237" changeset="false"><tag k="addr:street" v="Jamieson Drive"/><tag k="addr:housenumber" v="11601"/><tag k="addr:postcode" v="78750"/></node><node id="-5" lat="30.439562" lon="-97.811777" changeset="false"><tag k="addr:street" v="Pencewood Court"/><tag k="addr:housenumber" v="11010"/><tag k="addr:postcode" v="78750"/></node><node id="-6" lat="30.443055" lon="-97.815584" changeset="false"><tag k="addr:street" v="Centennial Trail"/><tag k="addr:housenumber" v="11102"/><tag k="addr:postcode" v="78726"/></node><node id="-7" lat="30.425924" lon="-97.808044" changeset="false"><tag k="addr:street" v="Chester Lane"/><tag k="addr:housenumber" v="10008"/><tag k="addr:postcode" v="78750"/></node><node id="-8" lat="30.441246" lon="-97.81208" changeset="false"><tag k="addr:street" v="Pencewood Court"/><tag k="addr:housenumber" v="11027"/><tag k="addr:postcode" v="78750"/></node><node id="-9" lat="30.443989" lon="-97.815401" changeset="false"><tag k="addr:street" v="Centennial Trail"/><tag k="addr:housenumber" v="11202"/><tag k="addr:postcode" v="78726"/></node><node id="-10" lat="30.437669" lon="-97.813634" changeset="false"><tag k="addr:street" v="Winchelsea Drive"/><tag k="addr:housenumber" v="10708"/><tag k="addr:postcode" v="78750"/></node><node id="-11" lat="30.444417" lon="-97.813056" changeset="false"><tag k="addr:street" v="Glass Mountain Trail"/><tag k="addr:housenumber" v="10519"/><tag k="addr:postcode" v="78750"/></node><node id="-12" lat="30.418548" lon="-97.803859" changeset="false"><tag k="addr:street" v="Old Lampasas Trail"/><tag k="addr:housenumber" v="9215"/><tag k="addr:postcode" v="78750"/></node><node id="-13" lat="30.439818" lon="-97.814223" changeset="false"><tag k="addr:street" v="Glass Mountain Trail"/><tag k="addr:housenumber" v="10629"/><tag k="addr:postcode" v="78750"/></node><node id="-14" lat="30.420942" lon="-97.806098" changeset="false"><tag k="addr:street" v="Old Lampasas Trail"/><tag k="addr:housenumber" v="9448"/><tag k="addr:postcode" v="78750"/></node><node id="-15" lat="30.433844" lon="-97.812751" changeset="false"><tag k="addr:street" v="Lockerbie Court"/><tag k="addr:housenumber" v="10203"/><tag k="addr:postcode" v="78750"/></node><node id="-16" lat="30.42633" lon="-97.807865" changeset="false"><tag k="addr:street" v="Chester Lane"/><tag k="addr:housenumber" v="10100"/><tag k="addr:postcode" v="78750"/></node><node id="-17" lat="30.422198" lon="-97.806237" changeset="false"><tag k="addr:street" v="Grand Oak Drive"/><tag k="addr:housenumber" v="9718"/><tag k="addr:postcode" v="78750"/></node><node id="-18" lat="30.438331" lon="-97.810422" changeset="false"><tag k="addr:street" v="Pickfair Drive"/><tag k="addr:housenumber" v="10901"/><tag k="addr:postcode" v="78750"/></node><node id="-19" lat="30.425546" lon="-97.809219" changeset="false"><tag k="addr:street" v="Pickfair Drive"/><tag k="addr:housenumber" v="9907"/><tag k="addr:postcode" v="78750"/></node><node id="-20" lat="30.426079" lon="-97.809219" changeset="false"><tag k="addr:street" v="Pickfair Drive"/><tag k="addr:housenumber" v="10001"/><tag k="addr:postcode" v="78750"/></node><node id="-21" lat="30.443502" lon="-97.815415" changeset="false"><tag k="addr:street" v="Centennial Trail"/><tag k="addr:housenumber" v="11200"/><tag k="addr:postcode" v="78726"/></node><node id="-22" lat="30.44699" lon="-97.807402" changeset="false"><tag k="addr:street" v="Anderson Mill Road"/><tag k="addr:housenumber" v="10501 1/2"/><tag k="addr:postcode" v="78750"/></node><node id="-23" lat="30.443406" lon="-97.814737" changeset="false"><tag k="addr:street" v="Centennial Trail"/><tag k="addr:housenumber" v="11201"/><tag k="addr:postcode" v="78750"/></node><node id="-24" lat="30.420552" lon="-97.802042" changeset="false"><tag k="addr:street" v="Grand Oak Drive"/><tag k="addr:housenumber" v="9602"/><tag k="addr:postcode" v="78750"/></node><node id="-25" lat="30.429335" lon="-97.807237" changeset="false"><tag k="addr:street" v="Vista View Drive"/><tag k="addr:housenumber" v="9803"/><tag k="addr:postcode" v="78750"/></node><node id="-26" lat="30.441859" lon="-97.813784" changeset="false"><tag k="addr:street" v="Glass Mountain Trail"/><tag k="addr:housenumber" v="10612"/><tag k="addr:postcode" v="78750"/></node><node id="-27" lat="30.427597" lon="-97.812715" changeset="false"><tag k="addr:street" v="Brightling Lane"/><tag k="addr:housenumber" v="10002"/><tag k="addr:postcode" v="78750"/></node><node id="-28" lat="30.43196" lon="-97.806445" changeset="false"><tag k="addr:street" v="Spicewood Club Drive"/><tag k="addr:housenumber" v="10604"/><tag k="addr:postcode" v="78750"/></node><node id="-29" lat="30.426886" lon="-97.807318" changeset="false"><tag k="addr:street" v="Chester Lane"/><tag k="addr:housenumber" v="10104"/><tag k="addr:postcode" v="78750"/></node><node id="-30" lat="30.439493" lon="-97.806608" changeset="false"><tag k="addr:street" v="Plumewood Drive"/><tag k="addr:housenumber" v="11112"/><tag k="addr:postcode" v="78750"/></node><node id="-31" lat="30.433558" lon="-97.812724" changeset="false"><tag k="addr:street" v="Lockerbie Drive"/><tag k="addr:housenumber" v="10504"/><tag k="addr:postcode" v="78750"/></node><node id="-32" lat="30.43239" lon="-97.812644" changeset="false"><tag k="addr:street" v="Lockerbie Drive"/><tag k="addr:housenumber" v="10406"/><tag k="addr:postcode" v="78750"/></node><node id="-33" lat="30.422532" lon="-97.807598" changeset="false"><tag k="addr:street" v="Tree Bend Cove"/><tag k="addr:housenumber" v="9803"/><tag k="addr:postcode" v="78750"/></node><node id="-34" lat="30.427755" lon="-97.807885" changeset="false"><tag k="addr:street" v="Tree Bend Drive"/><tag k="addr:housenumber" v="9711"/><tag k="addr:postcode" v="78750"/></node><node id="-35" lat="30.441861" lon="-97.817605" changeset="false"><tag k="addr:street" v="Centennial Trail"/><tag k="addr:housenumber" v="11009"/><tag k="addr:postcode" v="78750"/></node><node id="-36" lat="30.441485" lon="-97.812996" changeset="false"><tag k="addr:street" v="Glass Mountain Trail"/><tag k="addr:housenumber" v="10615"/><tag k="addr:postcode" v="78750"/></node><node id="-37" lat="30.441415" lon="-97.817344" changeset="false"><tag k="addr:street" v="Centennial Trail"/><tag k="addr:housenumber" v="11011"/><tag k="addr:postcode" v="78750"/></node><node id="-38" lat="30.441075" lon="-97.81699" changeset="false"><tag k="addr:street" v="Centennial Trail"/><tag k="addr:housenumber" v="11013"/><tag k="addr:postcode" v="78750"/></node><node id="-39" lat="30.431193" lon="-97.81374" changeset="false"><tag k="addr:street" v="Holme Lacey Court"/><tag k="addr:housenumber" v="10218"/><tag k="addr:postcode" v="78750"/></node><node id="-40" lat="30.42165" lon="-97.807086" changeset="false"><tag k="addr:street" v="Old Lampasas Trail"/><tag k="addr:housenumber" v="9618"/><tag k="addr:postcode" v="78750"/></node><node id="-41" lat="30.424642" lon="-97.807734" changeset="false"><tag k="addr:street" v="Chester Cove"/><tag k="addr:housenumber" v="9902"/><tag k="addr:postcode" v="78750"/></node><node id="-42" lat="30.431185" lon="-97.813696" changeset="false"><tag k="addr:street" v="Holme Lacey Court"/><tag k="addr:housenumber" v="10216"/><tag k="addr:postcode" v="78750"/></node><node id="-43" lat="30.444904" lon="-97.815597" changeset="false"><tag k="addr:street" v="Catskill Trail"/><tag k="addr:housenumber" v="10802"/><tag k="addr:postcode" v="78726"/></node><node id="-44" lat="30.443947" lon="-97.812653" changeset="false"><tag k="addr:street" v="Taterwood Drive"/><tag k="addr:housenumber" v="11302"/><tag k="addr:postcode" v="78750"/></node><node id="-45" lat="30.445796" lon="-97.815588" changeset="false"><tag k="addr:street" v="Cade Circle"/><tag k="addr:housenumber" v="10901"/><tag k="addr:postcode" v="78726"/></node><node id="-46" lat="30.42534" lon="-97.80952" changeset="false"><tag k="addr:street" v="Pickfair Drive"/><tag k="addr:housenumber" v="9905"/><tag k="addr:postcode" v="78750"/></node><node id="-47" lat="30.420346" lon="-97.804874" changeset="false"><tag k="addr:street" v="Old Lampasas Trail"/><tag k="addr:housenumber" v="9400"/><tag k="addr:postcode" v="78750"/></node><node id="-48" lat="30.435095" lon="-97.81305" changeset="false"><tag k="addr:street" v="Winchelsea Court"/><tag k="addr:housenumber" v="10600"/><tag k="addr:postcode" v="78750"/></node><node id="-49" lat="30.418456" lon="-97.803103" changeset="false"><tag k="addr:street" v="Old Lampasas Trail"/><tag k="addr:housenumber" v="9207"/><tag k="addr:postcode" v="78750"/></node><node id="-50" lat="30.435905" lon="-97.81307" changeset="false"><tag k="addr:street" v="Winchelsea Drive"/><tag k="addr:housenumber" v="10618"/><tag k="addr:postcode" v="78750"/></node><node id="-51" lat="30.425851" lon="-97.811454" changeset="false"><tag k="addr:street" v="Brightling Lane"/><tag k="addr:housenumber" v="9912"/><tag k="addr:postcode" v="78750"/></node><node id="-52" lat="30.44266" lon="-97.818044" changeset="false"><tag k="addr:street" v="Centennial Trail"/><tag k="addr:housenumber" v="11005"/><tag k="addr:postcode" v="78750"/></node><node id="-53" lat="30.427882" lon="-97.808599" changeset="false"><tag k="addr:street" v="Pickfair Drive"/><tag k="addr:housenumber" v="10109"/><tag k="addr:postcode" v="78750"/></node><node id="-54" lat="30.422479" lon="-97.806395" changeset="false"><tag k="addr:street" v="Grand Oak Drive"/><tag k="addr:housenumber" v="9800"/><tag k="addr:postcode" v="78750"/></node><node id="-55" lat="30.438744" lon="-97.812268" changeset="false"><tag k="addr:street" v="Winchelsea Drive"/><tag k="addr:housenumber" v="10802"/><tag k="addr:postcode" v="78750"/></node><node id="-56" lat="30.439397" lon="-97.814438" changeset="false"><tag k="addr:street" v="Chama Circle"/><tag k="addr:housenumber" v="10801"/><tag k="addr:postcode" v="78750"/></node><node id="-57" lat="30.421581" lon="-97.794427" changeset="false"><tag k="addr:street" v="Spicewood Springs Road"/><tag k="addr:housenumber" v="8017 1/2"/><tag k="addr:postcode" v="78750"/></node><node id="-58" lat="30.443981" lon="-97.814597" changeset="false"><tag k="addr:street" v="Centennial Trail"/><tag k="addr:housenumber" v="11203"/><tag k="addr:postcode" v="78750"/></node><node id="-59" lat="30.426272" lon="-97.804334" changeset="false"><tag k="addr:street" v="Vista View Circle"/><tag k="addr:housenumber" v="10201"/><tag k="addr:postcode" v="78750"/></node><node id="-60" lat="30.426287" lon="-97.809016" changeset="false"><tag k="addr:street" v="Pickfair Drive"/><tag k="addr:housenumber" v="10005"/><tag k="addr:postcode" v="78750"/></node><node id="-61" lat="30.44683" lon="-97.811111" changeset="false"><tag k="addr:street" v="Anderson Mill Road"/><tag k="addr:housenumber" v="10621"/><tag k="addr:postcode" v="78750"/></node><node id="-62" lat="30.440698" lon="-97.814773" changeset="false"><tag k="addr:street" v="Glass Mountain Trail"/><tag k="addr:housenumber" v="10624"/><tag k="addr:postcode" v="78750"/></node><node id="-63" lat="30.445999" lon="-97.815063" changeset="false"><tag k="addr:street" v="Cade Circle"/><tag k="addr:housenumber" v="10900"/><tag k="addr:postcode" v="78726"/></node><node id="-64" lat="30.434845" lon="-97.812586" changeset="false"><tag k="addr:street" v="Winchelsea Court"/><tag k="addr:housenumber" v="10601"/><tag k="addr:postcode" v="78750"/></node><node id="-65" lat="30.421197" lon="-97.794994" changeset="false"><tag k="addr:street" v="Old Lampasas Trail"/><tag k="addr:housenumber" v="8837"/><tag k="addr:postcode" v="78750"/></node><node id="-66" lat="30.426783" lon="-97.808665" changeset="false"><tag k="addr:street" v="Pickfair Drive"/><tag k="addr:housenumber" v="10101"/><tag k="addr:postcode" v="78750"/></node><node id="-67" lat="30.420774" lon="-97.802386" changeset="false"><tag k="addr:street" v="Grand Oak Drive"/><tag k="addr:housenumber" v="9604"/><tag k="addr:postcode" v="78750"/></node><node id="-68" lat="30.419299" lon="-97.800556" changeset="false"><tag k="addr:street" v="Old Lampasas Trail"/><tag k="addr:housenumber" v="9111"/><tag k="addr:postcode" v="78750"/></node><node id="-69" lat="30.424134" lon="-97.807768" changeset="false"><tag k="addr:street" v="Chester Cove"/><tag k="addr:housenumber" v="9900"/><tag k="addr:postcode" v="78750"/></node><node id="-70" lat="30.43446" lon="-97.809529" changeset="false"><tag k="addr:street" v="Pickfair Drive"/><tag k="addr:housenumber" v="10611"/><tag k="addr:postcode" v="78750"/></node><node id="-71" lat="30.437424" lon="-97.813573" changeset="false"><tag k="addr:street" v="Winchelsea Drive"/><tag k="addr:housenumber" v="10706"/><tag k="addr:postcode" v="78750"/></node><node id="-72" lat="30.435542" lon="-97.812952" changeset="false"><tag k="addr:street" v="Winchelsea Drive"/><tag k="addr:housenumber" v="10616"/><tag k="addr:postcode" v="78750"/></node><node id="-73" lat="30.437822" lon="-97.810425" changeset="false"><tag k="addr:street" v="Pickfair Drive"/><tag k="addr:housenumber" v="10805"/><tag k="addr:postcode" v="78750"/></node><node id="-74" lat="30.443807" lon="-97.816832" changeset="false"><tag k="addr:street" v="Bitteroot Circle"/><tag k="addr:housenumber" v="11002"/><tag k="addr:postcode" v="78726"/></node><node id="-75" lat="30.418611" lon="-97.804591" changeset="false"><tag k="addr:street" v="Old Lampasas Trail"/><tag k="addr:housenumber" v="9301"/><tag k="addr:postcode" v="78750"/></node><node id="-76" lat="30.446297" lon="-97.807457" changeset="false"><tag k="addr:street" v="Spicewood Parkway"/><tag k="addr:housenumber" v="11608"/><tag k="addr:postcode" v="78750"/></node><node id="-77" lat="30.440708" lon="-97.813653" changeset="false"><tag k="addr:street" v="Glass Mountain Trail"/><tag k="addr:housenumber" v="10621"/><tag k="addr:postcode" v="78750"/></node><node id="-78" lat="30.426021" lon="-97.813416" changeset="false"><tag k="addr:street" v="Patrice Drive"/><tag k="addr:housenumber" v="9804"/><tag k="addr:postcode" v="78750"/></node><node id="-79" lat="30.442107" lon="-97.810686" changeset="false"><tag k="addr:street" v="Taterwood Drive"/><tag k="addr:housenumber" v="11208"/><tag k="addr:postcode" v="78750"/></node><node id="-80" lat="30.434909" lon="-97.811823" changeset="false"><tag k="addr:street" v="Winchelsea Drive"/><tag k="addr:housenumber" v="10610"/><tag k="addr:postcode" v="78750"/></node><node id="-81" lat="30.442131" lon="-97.816732" changeset="false"><tag k="addr:street" v="Centennial Trail"/><tag k="addr:housenumber" v="11008"/><tag k="addr:postcode" v="78726"/></node><node id="-82" lat="30.441385" lon="-97.815753" changeset="false"><tag k="addr:street" v="Glass Mountain Trail"/><tag k="addr:housenumber" v="10702"/><tag k="addr:postcode" v="78750"/></node><node id="-83" lat="30.418738" lon="-97.805295" changeset="false"><tag k="addr:street" v="Old Lampasas Trail"/><tag k="addr:housenumber" v="9315"/><tag k="addr:postcode" v="78750"/></node><node id="-84" lat="30.42565" lon="-97.80796" changeset="false"><tag k="addr:street" v="Chester Lane"/><tag k="addr:housenumber" v="10006"/><tag k="addr:postcode" v="78750"/></node><node id="-85" lat="30.424419" lon="-97.807135" changeset="false"><tag k="addr:street" v="Chester Cove"/><tag k="addr:housenumber" v="9905 1/2"/><tag k="addr:postcode" v="78750"/></node><node id="-86" lat="30.433235" lon="-97.812712" changeset="false"><tag k="addr:street" v="Lockerbie Drive"/><tag k="addr:housenumber" v="10502"/><tag k="addr:postcode" v="78750"/></node><node id="-87" lat="30.441469" lon="-97.806525" changeset="false"><tag k="addr:street" v="Spicewood Club Drive"/><tag k="addr:housenumber" v="11310"/><tag k="addr:postcode" v="78750"/></node><node id="-88" lat="30.427282" lon="-97.81274" changeset="false"><tag k="addr:street" v="Brightling Lane"/><tag k="addr:housenumber" v="10000"/><tag k="addr:postcode" v="78750"/></node><node id="-89" lat="30.436206" lon="-97.807288" changeset="false"><tag k="addr:street" v="Plumewood Drive"/><tag k="addr:housenumber" v="10805"/><tag k="addr:postcode" v="78750"/></node><node id="-90" lat="30.425063" lon="-97.809591" changeset="false"><tag k="addr:street" v="Pickfair Drive"/><tag k="addr:housenumber" v="9903"/><tag k="addr:postcode" v="78750"/></node><node id="-91" lat="30.427491" lon="-97.808553" changeset="false"><tag k="addr:street" v="Pickfair Drive"/><tag k="addr:housenumber" v="10105"/><tag k="addr:postcode" v="78750"/></node><node id="-92" lat="30.425807" lon="-97.809206" changeset="false"><tag k="addr:street" v="Pickfair Drive"/><tag k="addr:housenumber" v="9909"/><tag k="addr:postcode" v="78750"/></node><node id="-93" lat="30.439357" lon="-97.807379" changeset="false"><tag k="addr:street" v="Plumewood Drive"/><tag k="addr:housenumber" v="11108"/><tag k="addr:postcode" v="78750"/></node><node id="-94" lat="30.418396" lon="-97.802434" changeset="false"><tag k="addr:street" v="Old Lampasas Trail"/><tag k="addr:housenumber" v="9115"/><tag k="addr:postcode" v="78750"/></node><node id="-95" lat="30.442276" lon="-97.817826" changeset="false"><tag k="addr:street" v="Centennial Trail"/><tag k="addr:housenumber" v="11007"/><tag k="addr:postcode" v="78750"/></node><node id="-96" lat="30.428742" lon="-97.81234" changeset="false"><tag k="addr:street" v="Brightling Lane"/><tag k="addr:housenumber" v="10010"/><tag k="addr:postcode" v="78750"/></node><node id="-97" lat="30.438067" lon="-97.810442" changeset="false"><tag k="addr:street" v="Pickfair Drive"/><tag k="addr:housenumber" v="10807"/><tag k="addr:postcode" v="78750"/></node><node id="-98" lat="30.430468" lon="-97.807927" changeset="false"><tag k="addr:street" v="Spicewood Parkway"/><tag k="addr:housenumber" v="10406"/><tag k="addr:postcode" v="78750"/></node><node id="-99" lat="30.427454" lon="-97.807683" changeset="false"><tag k="addr:street" v="Tree Bend Drive"/><tag k="addr:housenumber" v="9709"/><tag k="addr:postcode" v="78750"/></node><node id="-100" lat="30.444749" lon="-97.81517" changeset="false"><tag k="addr:street" v="Catskill Trail"/><tag k="addr:housenumber" v="10800"/><tag k="addr:postcode" v="78726"/></node><node id="-101" lat="30.442494" lon="-97.815235" changeset="false"><tag k="addr:street" v="Centennial Trail"/><tag k="addr:housenumber" v="11101"/><tag k="addr:postcode" v="78750"/></node><node id="-102" lat="30.446312" lon="-97.813256" changeset="false"><tag k="addr:street" v="Centennial Trail"/><tag k="addr:housenumber" v="11403"/><tag k="addr:postcode" v="78750"/></node><node id="-103" lat="30.440404" lon="-97.816064" changeset="false"><tag k="addr:street" v="Glass Mountain Trail"/><tag k="addr:housenumber" v="10701"/><tag k="addr:postcode" v="78750"/></node><node id="-104" lat="30.42062" lon="-97.797548" changeset="false"><tag k="addr:street" v="Old Lampasas Trail"/><tag k="addr:housenumber" v="9011"/><tag k="addr:postcode" v="78750"/></node><node id="-105" lat="30.43087" lon="-97.813818" changeset="false"><tag k="addr:street" v="Holme Lacey Court"/><tag k="addr:housenumber" v="10215"/><tag k="addr:postcode" v="78750"/></node><node id="-106" lat="30.422565" lon="-97.808481" changeset="false"><tag k="addr:street" v="Old Lampasas Trail"/><tag k="addr:housenumber" v="9618 1/2"/><tag k="addr:postcode" v="78750"/></node><node id="-107" lat="30.420088" lon="-97.806297" changeset="false"><tag k="addr:street" v="Old Lampasas Trail"/><tag k="addr:housenumber" v="9415"/><tag k="addr:postcode" v="78750"/></node><node id="-108" lat="30.42054" lon="-97.804752" changeset="false"><tag k="addr:street" v="Old Lampasas Trail"/><tag k="addr:housenumber" v="9420"/><tag k="addr:postcode" v="78750"/></node><node id="-109" lat="30.426704" lon="-97.807722" changeset="false"><tag k="addr:street" v="Chester Lane"/><tag k="addr:housenumber" v="10102"/><tag k="addr:postcode" v="78750"/></node><node id="-110" lat="30.425261" lon="-97.805912" changeset="false"><tag k="addr:street" v="Folkstone Cove"/><tag k="addr:housenumber" v="9603"/><tag k="addr:postcode" v="78750"/></node><node id="-111" lat="30.439149" lon="-97.814909" changeset="false"><tag k="addr:street" v="Chama Circle"/><tag k="addr:housenumber" v="10800"/><tag k="addr:postcode" v="78750"/></node><node id="-112" lat="30.427117" lon="-97.808581" changeset="false"><tag k="addr:street" v="Pickfair Drive"/><tag k="addr:housenumber" v="10103"/><tag k="addr:postcode" v="78750"/></node><node id="-113" lat="30.427815" lon="-97.806468" changeset="false"><tag k="addr:street" v="Worcester Cove"/><tag k="addr:housenumber" v="10203"/><tag k="addr:postcode" v="78750"/></node><node id="-114" lat="30.419843" lon="-97.802042" changeset="false"><tag k="addr:street" v="Talleyran Drive"/><tag k="addr:housenumber" v="9800"/><tag k="addr:postcode" v="78750"/></node><node id="-115" lat="30.421848" lon="-97.8058" changeset="false"><tag k="addr:street" v="Grand Oak Drive"/><tag k="addr:housenumber" v="9714"/><tag k="addr:postcode" v="78750"/></node><node id="-116" lat="30.440818" lon="-97.816506" changeset="false"><tag k="addr:street" v="Glass Mountain Trail"/><tag k="addr:housenumber" v="10705"/><tag k="addr:postcode" v="78750"/></node><node id="-117" lat="30.445527" lon="-97.8137" changeset="false"><tag k="addr:street" v="Centennial Trail"/><tag k="addr:housenumber" v="11305"/><tag k="addr:postcode" v="78750"/></node><node id="-118" lat="30.429969" lon="-97.812634" changeset="false"><tag k="addr:street" v="Holme Lacey Lane"/><tag k="addr:housenumber" v="10215"/><tag k="addr:postcode" v="78750"/></node><node id="-119" lat="30.438503" lon="-97.813397" changeset="false"><tag k="addr:street" v="Winchelsea Drive"/><tag k="addr:housenumber" v="10712"/><tag k="addr:postcode" v="78750"/></node><node id="-120" lat="30.441948" lon="-97.811563" changeset="false"><tag k="addr:street" v="Pencewood Drive"/><tag k="addr:housenumber" v="11200"/><tag k="addr:postcode" v="78750"/></node><node id="-121" lat="30.444393" lon="-97.806805" changeset="false"><tag k="addr:street" v="Spicewood Parkway"/><tag k="addr:housenumber" v="11558"/><tag k="addr:postcode" v="78750"/></node><node id="-122" lat="30.441758" lon="-97.816543" changeset="false"><tag k="addr:street" v="Centennial Trail"/><tag k="addr:housenumber" v="11012"/><tag k="addr:postcode" v="78726"/></node><node id="-123" lat="30.437161" lon="-97.813437" changeset="false"><tag k="addr:street" v="Winchelsea Drive"/><tag k="addr:housenumber" v="10704"/><tag k="addr:postcode" v="78750"/></node><node id="-124" lat="30.439855" lon="-97.815802" changeset="false"><tag k="addr:street" v="Glass Mountain Trail"/><tag k="addr:housenumber" v="10637"/><tag k="addr:postcode" v="78750"/></node><node id="-125" lat="30.438903" lon="-97.810267" changeset="false"><tag k="addr:street" v="Pickfair Drive"/><tag k="addr:housenumber" v="10905 1/2"/><tag k="addr:postcode" v="78750"/></node><node id="-126" lat="30.428321" lon="-97.806148" changeset="false"><tag k="addr:street" v="Vista View Drive"/><tag k="addr:housenumber" v="9705"/><tag k="addr:postcode" v="78750"/></node><node id="-127" lat="30.440094" lon="-97.810164" changeset="false"><tag k="addr:street" v="Pickfair Drive"/><tag k="addr:housenumber" v="11103"/><tag k="addr:postcode" v="78750"/></node><node id="-128" lat="30.445323" lon="-97.816353" changeset="false"><tag k="addr:street" v="Catskill Trail"/><tag k="addr:housenumber" v="10900"/><tag k="addr:postcode" v="78726"/></node><node id="-129" lat="30.424928" lon="-97.806325" changeset="false"><tag k="addr:street" v="Tree Bend Drive"/><tag k="addr:housenumber" v="9601"/><tag k="addr:postcode" v="78750"/></node><node id="-130" lat="30.424827" lon="-97.807376" changeset="false"><tag k="addr:street" v="Chester Cove"/><tag k="addr:housenumber" v="9904"/><tag k="addr:postcode" v="78750"/></node><node id="-131" lat="30.425162" lon="-97.80535" changeset="false"><tag k="addr:street" v="Folkstone Cove"/><tag k="addr:housenumber" v="9601"/><tag k="addr:postcode" v="78750"/></node><node id="-132" lat="30.425132" lon="-97.807772" changeset="false"><tag k="addr:street" v="Chester Lane"/><tag k="addr:housenumber" v="10002"/><tag k="addr:postcode" v="78750"/></node><node id="-133" lat="30.441066" lon="-97.813357" changeset="false"><tag k="addr:street" v="Glass Mountain Trail"/><tag k="addr:housenumber" v="10617"/><tag k="addr:postcode" v="78750"/></node><node id="-134" lat="30.442876" lon="-97.814948" changeset="false"><tag k="addr:street" v="Centennial Trail"/><tag k="addr:housenumber" v="11103"/><tag k="addr:postcode" v="78750"/></node><node id="-135" lat="30.442722" lon="-97.811887" changeset="false"><tag k="addr:street" v="Taterwood Drive"/><tag k="addr:housenumber" v="11216"/><tag k="addr:postcode" v="78750"/></node><node id="-136" lat="30.420265" lon="-97.79875" changeset="false"><tag k="addr:street" v="Old Lampasas Trail"/><tag k="addr:housenumber" v="9023"/><tag k="addr:postcode" v="78750"/></node><node id="-137" lat="30.441206" lon="-97.810738" changeset="false"><tag k="addr:street" v="Pencewood Drive"/><tag k="addr:housenumber" v="11203"/><tag k="addr:postcode" v="78750"/></node><node id="-138" lat="30.436636" lon="-97.810405" changeset="false"><tag k="addr:street" v="Pickfair Cove"/><tag k="addr:housenumber" v="10202"/><tag k="addr:postcode" v="78750"/></node><node id="-139" lat="30.434883" lon="-97.811481" changeset="false"><tag k="addr:street" v="Winchelsea Drive"/><tag k="addr:housenumber" v="10608"/><tag k="addr:postcode" v="78750"/></node><node id="-140" lat="30.43634" lon="-97.813235" changeset="false"><tag k="addr:street" v="Winchelsea Drive"/><tag k="addr:housenumber" v="10622"/><tag k="addr:postcode" v="78750"/></node><node id="-141" lat="30.438138" lon="-97.813659" changeset="false"><tag k="addr:street" v="Winchelsea Drive"/><tag k="addr:housenumber" v="10710"/><tag k="addr:postcode" v="78750"/></node><node id="-142" lat="30.426529" lon="-97.80885" changeset="false"><tag k="addr:street" v="Pickfair Drive"/><tag k="addr:housenumber" v="10007"/><tag k="addr:postcode" v="78750"/></node><node id="-143" lat="30.422098" lon="-97.805913" changeset="false"><tag k="addr:street" v="Grand Oak Drive"/><tag k="addr:housenumber" v="9716"/><tag k="addr:postcode" v="78750"/></node><node id="-144" lat="30.421936" lon="-97.807512" changeset="false"><tag k="addr:street" v="Old Lampasas Trail"/><tag k="addr:housenumber" v="9600"/><tag k="addr:postcode" v="78750"/></node><node id="-145" lat="30.427596" lon="-97.806634" changeset="false"><tag k="addr:street" v="Worcester Cove"/><tag k="addr:housenumber" v="10201"/><tag k="addr:postcode" v="78750"/></node><node id="-146" lat="30.431582" lon="-97.813338" changeset="false"><tag k="addr:street" v="Echoridge Drive"/><tag k="addr:housenumber" v="10310"/><tag k="addr:postcode" v="78750"/></node><node id="-147" lat="30.420982" lon="-97.796286" changeset="false"><tag k="addr:street" v="Old Lampasas Trail"/><tag k="addr:housenumber" v="8917"/><tag k="addr:postcode" v="78750"/></node><node id="-148" lat="30.438778" lon="-97.811053" changeset="false"><tag k="addr:street" v="Pickfair Drive"/><tag k="addr:housenumber" v="10904"/><tag k="addr:postcode" v="78750"/></node><node id="-149" lat="30.438919" lon="-97.812626" changeset="false"><tag k="addr:street" v="Winchelsea Drive"/><tag k="addr:housenumber" v="10800"/><tag k="addr:postcode" v="78750"/></node><node id="-150" lat="30.424547" lon="-97.810893" changeset="false"><tag k="addr:street" v="Brightling Lane"/><tag k="addr:housenumber" v="9902"/><tag k="addr:postcode" v="78750"/></node><node id="-151" lat="30.438773" lon="-97.813068" changeset="false"><tag k="addr:street" v="Winchelsea Drive"/><tag k="addr:housenumber" v="10714"/><tag k="addr:postcode" v="78750"/></node><node id="-152" lat="30.440985" lon="-97.812542" changeset="false"><tag k="addr:street" v="Pencewood Court"/><tag k="addr:housenumber" v="11028"/><tag k="addr:postcode" v="78750"/></node><node id="-153" lat="30.429239" lon="-97.81316" changeset="false"><tag k="addr:street" v="Echoridge Drive"/><tag k="addr:housenumber" v="10104"/><tag k="addr:postcode" v="78750"/></node><node id="-154" lat="30.441219" lon="-97.811431" changeset="false"><tag k="addr:street" v="Pencewood Drive"/><tag k="addr:housenumber" v="11201"/><tag k="addr:postcode" v="78750"/></node><node id="-155" lat="30.421718" lon="-97.806599" changeset="false"><tag k="addr:street" v="Old Lampasas Trail"/><tag k="addr:housenumber" v="9500"/><tag k="addr:postcode" v="78750"/></node><node id="-156" lat="30.43267" lon="-97.812742" changeset="false"><tag k="addr:street" v="Lockerbie Drive"/><tag k="addr:housenumber" v="10408"/><tag k="addr:postcode" v="78750"/></node><node id="-157" lat="30.427506" lon="-97.806493" changeset="false"><tag k="addr:street" v="Tree Bend Drive"/><tag k="addr:housenumber" v="9704"/><tag k="addr:postcode" v="78750"/></node><node id="-158" lat="30.424777" lon="-97.806237" changeset="false"><tag k="addr:street" v="Tree Bend Cove"/><tag k="addr:housenumber" v="10002"/><tag k="addr:postcode" v="78750"/></node><node id="-159" lat="30.425128" lon="-97.805885" changeset="false"><tag k="addr:street" v="Tree Bend Drive"/><tag k="addr:housenumber" v="9602"/><tag k="addr:postcode" v="78750"/></node><node id="-160" lat="30.430804" lon="-97.8137" changeset="false"><tag k="addr:street" v="Holme Lacey Lane"/><tag k="addr:housenumber" v="10306"/><tag k="addr:postcode" v="78750"/></node><node id="-161" lat="30.431131" lon="-97.813536" changeset="false"><tag k="addr:street" v="Holme Lacey Court"/><tag k="addr:housenumber" v="10210"/><tag k="addr:postcode" v="78750"/></node><node id="-162" lat="30.431155" lon="-97.813508" changeset="false"><tag k="addr:street" v="Holme Lacey Lane"/><tag k="addr:housenumber" v="10310"/><tag k="addr:postcode" v="78750"/></node></osm>