<?xml version="1.0" encoding="UTF-8"?><osm version="0.6" generator="github.com/aaronlidman/osm-and-geojson"><node id="-1" lat="30.282544" lon="-97.709813" changeset="false"><tag k="addr:street" v="Real Street"/><tag k="addr:housenumber" v="2833"/></node><node id="-2" lat="30.28462" lon="-97.710246" changeset="false"><tag k="addr:street" v="Alexander Avenue"/><tag k="addr:housenumber" v="2202"/></node><node id="-3" lat="30.28555" lon="-97.710064" changeset="false"><tag k="addr:street" v="Manor Road"/><tag k="addr:housenumber" v="2901"/></node><node id="-4" lat="30.284493" lon="-97.709829" changeset="false"><tag k="addr:street" v="Alexander Avenue"/><tag k="addr:housenumber" v="2201"/></node><node id="-5" lat="30.284074" lon="-97.709728" changeset="false"><tag k="addr:street" v="Alexander Avenue"/><tag k="addr:housenumber" v="2105"/></node><node id="-6" lat="30.284876" lon="-97.714655" changeset="false"><tag k="addr:street" v="Manor Road"/><tag k="addr:housenumber" v="2617"/></node><node id="-7" lat="30.284836" lon="-97.714901" changeset="false"><tag k="addr:street" v="Manor Road"/><tag k="addr:housenumber" v="2611"/></node><node id="-8" lat="30.282116" lon="-97.709252" changeset="false"><tag k="addr:street" v="East Martin Luther King Jr Boulevard"/><tag k="addr:housenumber" v="2900"/></node><node id="-9" lat="30.282981" lon="-97.709539" changeset="false"><tag k="addr:street" v="Alexander Avenue"/><tag k="addr:housenumber" v="2009"/></node><node id="-10" lat="30.28526" lon="-97.71208" changeset="false"><tag k="addr:street" v="Manor Road"/><tag k="addr:housenumber" v="2803"/></node><node id="-11" lat="30.284445" lon="-97.712148" changeset="false"><tag k="addr:street" v="Curtis Avenue"/><tag k="addr:housenumber" v="2205"/></node><node id="-12" lat="30.283955" lon="-97.706741" changeset="false"><tag k="addr:street" v="Rountree Drive"/><tag k="addr:housenumber" v="2105"/></node><node id="-13" lat="30.282523" lon="-97.713371" changeset="false"><tag k="addr:street" v="Rogers Avenue"/><tag k="addr:housenumber" v="2613"/></node><node id="-14" lat="30.282709" lon="-97.704501" changeset="false"><tag k="addr:street" v="East Martin Luther King Jr Boulevard"/><tag k="addr:housenumber" v="3014"/></node><node id="-15" lat="30.282921" lon="-97.709855" changeset="false"><tag k="addr:street" v="Alexander Avenue"/><tag k="addr:housenumber" v="2008"/></node><node id="-16" lat="30.282498" lon="-97.710514" changeset="false"><tag k="addr:street" v="Real Street"/><tag k="addr:housenumber" v="2821"/></node><node id="-17" lat="30.284434" lon="-97.709666" changeset="false"><tag k="addr:street" v="Alexander Avenue"/><tag k="addr:housenumber" v="2111"/></node><node id="-18" lat="30.283966" lon="-97.711378" changeset="false"><tag k="addr:street" v="East 22nd Street"/><tag k="addr:housenumber" v="2809"/></node><node id="-19" lat="30.284822" lon="-97.714988" changeset="false"><tag k="addr:street" v="Manor Road"/><tag k="addr:housenumber" v="2609"/></node><node id="-20" lat="30.283237" lon="-97.714486" changeset="false"><tag k="addr:street" v="Rogers Avenue"/><tag k="addr:housenumber" v="2606"/></node><node id="-21" lat="30.281749" lon="-97.710133" changeset="false"><tag k="addr:street" v="East Martin Luther King Jr Boulevard"/><tag k="addr:housenumber" v="2830"/></node><node id="-22" lat="30.282007" lon="-97.708414" changeset="false"><tag k="addr:street" v="East Martin Luther King Jr Boulevard"/><tag k="addr:housenumber" v="2906"/></node><node id="-23" lat="30.285539" lon="-97.709707" changeset="false"><tag k="addr:street" v="Manor Road"/><tag k="addr:housenumber" v="2821"/></node><node id="-24" lat="30.283742" lon="-97.711688" changeset="false"><tag k="addr:street" v="East 22nd Street"/><tag k="addr:housenumber" v="2805"/></node><node id="-25" lat="30.28577" lon="-97.708718" changeset="false"><tag k="addr:street" v="Manor Road"/><tag k="addr:housenumber" v="2931"/></node><node id="-26" lat="30.285593" lon="-97.709795" changeset="false"><tag k="addr:street" v="Manor Road"/><tag k="addr:housenumber" v="2907"/></node><node id="-27" lat="30.284816" lon="-97.715189" changeset="false"><tag k="addr:street" v="Manor Road"/><tag k="addr:housenumber" v="2601"/></node><node id="-28" lat="30.28411" lon="-97.712365" changeset="false"><tag k="addr:street" v="Curtis Avenue"/><tag k="addr:housenumber" v="2200"/></node><node id="-29" lat="30.284853" lon="-97.714471" changeset="false"><tag k="addr:street" v="Manor Road"/><tag k="addr:housenumber" v="2627"/></node><node id="-30" lat="30.284619" lon="-97.715162" changeset="false"><tag k="addr:street" v="Manor Road"/><tag k="addr:housenumber" v="2605"/></node><node id="-31" lat="30.284765" lon="-97.714745" changeset="false"><tag k="addr:street" v="Manor Road"/><tag k="addr:housenumber" v="2615"/></node><node id="-32" lat="30.284664" lon="-97.714952" changeset="false"><tag k="addr:street" v="Manor Road"/><tag k="addr:housenumber" v="2607"/></node><node id="-33" lat="30.28465" lon="-97.714805" changeset="false"><tag k="addr:street" v="Manor Road"/><tag k="addr:housenumber" v="2613"/></node><node id="-34" lat="30.282198" lon="-97.711208" changeset="false"><tag k="addr:street" v="Real Street"/><tag k="addr:housenumber" v="2831"/></node><node id="-35" lat="30.281701" lon="-97.711274" changeset="false"><tag k="addr:street" v="East Martin Luther King Jr Boulevard"/><tag k="addr:housenumber" v="2810"/></node><node id="-36" lat="30.281801" lon="-97.710646" changeset="false"><tag k="addr:street" v="East Martin Luther King Jr Boulevard"/><tag k="addr:housenumber" v="2820"/></node><node id="-37" lat="30.282389" lon="-97.709926" changeset="false"><tag k="addr:street" v="Real Street"/><tag k="addr:housenumber" v="2835"/></node><node id="-38" lat="30.281967" lon="-97.710401" changeset="false"><tag k="addr:street" v="East Martin Luther King Jr Boulevard"/><tag k="addr:housenumber" v="2832"/></node></osm>