<?xml version="1.0" encoding="UTF-8"?><osm version="0.6" generator="github.com/aaronlidman/osm-and-geojson"><node id="-1" lat="30.453223" lon="-97.799764" changeset="false"><tag k="addr:street" v="Timbercrest Lane"/><tag k="addr:housenumber" v="10301"/></node><node id="-2" lat="30.455486" lon="-97.799321" changeset="false"><tag k="addr:street" v="Old Stage Trail"/><tag k="addr:housenumber" v="12307"/></node><node id="-3" lat="30.451771" lon="-97.796906" changeset="false"><tag k="addr:street" v="Waxwing Circle"/><tag k="addr:housenumber" v="12207"/></node><node id="-4" lat="30.453004" lon="-97.797695" changeset="false"><tag k="addr:street" v="Hidden Meadow Drive"/><tag k="addr:housenumber" v="10112"/></node><node id="-5" lat="30.453004" lon="-97.79668" changeset="false"><tag k="addr:street" v="Hidden Meadow Drive"/><tag k="addr:housenumber" v="10109"/></node><node id="-6" lat="30.450995" lon="-97.799075" changeset="false"><tag k="addr:street" v="Scissortail Drive"/><tag k="addr:housenumber" v="12108"/></node><node id="-7" lat="30.454038" lon="-97.797875" changeset="false"><tag k="addr:street" v="Hymeadow Drive"/><tag k="addr:housenumber" v="12300"/></node><node id="-8" lat="30.457562" lon="-97.802238" changeset="false"><tag k="addr:street" v="Lake Creek Parkway,1100"/><tag k="addr:housenumber" v="10515"/></node><node id="-9" lat="30.45389" lon="-97.799282" changeset="false"><tag k="addr:street" v="Old Stage Trail"/><tag k="addr:housenumber" v="12216"/></node><node id="-10" lat="30.450692" lon="-97.797147" changeset="false"><tag k="addr:street" v="Robin Ridge Lane"/><tag k="addr:housenumber" v="12101"/></node><node id="-11" lat="30.451304" lon="-97.799195" changeset="false"><tag k="addr:street" v="Scissortail Drive"/><tag k="addr:housenumber" v="12112"/></node><node id="-12" lat="30.454704" lon="-97.803428" changeset="false"><tag k="addr:street" v="Jill Sue Court"/><tag k="addr:housenumber" v="12202"/></node><node id="-13" lat="30.453195" lon="-97.799978" changeset="false"><tag k="addr:street" v="Timbercrest Lane"/><tag k="addr:housenumber" v="10303"/></node><node id="-14" lat="30.45632" lon="-97.799899" changeset="false"><tag k="addr:street" v="Old Stage Cove"/><tag k="addr:housenumber" v="12300"/></node><node id="-15" lat="30.453589" lon="-97.798678" changeset="false"><tag k="addr:street" v="Old Stage Trail"/><tag k="addr:housenumber" v="12219"/></node><node id="-16" lat="30.451338" lon="-97.796603" changeset="false"><tag k="addr:street" v="Woodland Village Drive"/><tag k="addr:housenumber" v="10056"/></node><node id="-17" lat="30.451358" lon="-97.796638" changeset="false"><tag k="addr:street" v="Waxwing Circle"/><tag k="addr:housenumber" v="12201"/></node><node id="-18" lat="30.455542" lon="-97.799926" changeset="false"><tag k="addr:street" v="Wallingstone Lane"/><tag k="addr:housenumber" v="12302"/></node><node id="-19" lat="30.455528" lon="-97.799821" changeset="false"><tag k="addr:street" v="Wallingstone Lane"/><tag k="addr:housenumber" v="12304"/></node><node id="-20" lat="30.456417" lon="-97.803969" changeset="false"><tag k="addr:street" v="Lake Creek Parkway,1100"/><tag k="addr:housenumber" v="10621"/></node><node id="-21" lat="30.455993" lon="-97.803528" changeset="false"><tag k="addr:street" v="Lake Creek Parkway,1100"/><tag k="addr:housenumber" v="10633"/></node></osm>