<?xml version="1.0" encoding="UTF-8"?><osm version="0.6" generator="github.com/aaronlidman/osm-and-geojson"><node id="-1" lat="30.507659" lon="-97.741264" changeset="false"><tag k="addr:street" v="Village Oak Loop"/><tag k="addr:housenumber" v="16728"/><tag k="coa:place_id" v="79493"/></node><node id="-2" lat="30.511023" lon="-97.746034" changeset="false"><tag k="addr:street" v="Squaw Valley Lane"/><tag k="addr:housenumber" v="16816"/><tag k="coa:place_id" v="154920"/></node><node id="-3" lat="30.513634" lon="-97.750268" changeset="false"><tag k="addr:street" v="Ennis Trail"/><tag k="addr:housenumber" v="17317"/><tag k="coa:place_id" v="3042430"/></node><node id="-4" lat="30.512823" lon="-97.747712" changeset="false"><tag k="addr:street" v="Ennis Trail"/><tag k="addr:housenumber" v="16912"/><tag k="coa:place_id" v="3079622"/></node><node id="-5" lat="30.509448" lon="-97.74618" changeset="false"><tag k="addr:street" v="Brayton Park Drive"/><tag k="addr:housenumber" v="16712"/><tag k="coa:place_id" v="3042272"/></node><node id="-6" lat="30.50761" lon="-97.741148" changeset="false"><tag k="addr:street" v="Village Oak Loop"/><tag k="addr:housenumber" v="16722"/><tag k="coa:place_id" v="79490"/></node><node id="-7" lat="30.509178" lon="-97.742073" changeset="false"><tag k="addr:street" v="Cessna Lane"/><tag k="addr:housenumber" v="9101"/><tag k="coa:place_id" v="153519"/></node><node id="-8" lat="30.510968" lon="-97.7418" changeset="false"><tag k="addr:street" v="Trowbridge Cove"/><tag k="addr:housenumber" v="9201"/><tag k="coa:place_id" v="153505"/></node><node id="-9" lat="30.507374" lon="-97.746435" changeset="false"><tag k="addr:street" v="Avery Ranch Boulevard"/><tag k="addr:housenumber" v="16524 1/2"/><tag k="coa:place_id" v="3091519"/></node><node id="-10" lat="30.511367" lon="-97.749017" changeset="false"><tag k="addr:street" v="Billingham Trail"/><tag k="addr:housenumber" v="9610 1/2"/><tag k="coa:place_id" v="3082750"/></node><node id="-11" lat="30.512076" lon="-97.751946" changeset="false"><tag k="addr:street" v="Rias Way"/><tag k="addr:housenumber" v="9820"/><tag k="coa:place_id" v="3157135"/></node><node id="-12" lat="30.511949" lon="-97.744183" changeset="false"><tag k="addr:street" v="Capri Isle Lane"/><tag k="addr:housenumber" v="16912"/><tag k="coa:place_id" v="153445"/></node><node id="-13" lat="30.509463" lon="-97.748559" changeset="false"><tag k="addr:street" v="Ennis Trail"/><tag k="addr:housenumber" v="16513"/><tag k="coa:place_id" v="3124991"/></node><node id="-14" lat="30.511541" lon="-97.747175" changeset="false"><tag k="addr:street" v="Ennis Trail"/><tag k="addr:housenumber" v="16800"/><tag k="coa:place_id" v="3122172"/></node><node id="-15" lat="30.517574" lon="-97.7442" changeset="false"><tag k="addr:street" v="Crescent Heights Trail"/><tag k="addr:housenumber" v="17225"/><tag k="coa:place_id" v="153330"/></node><node id="-16" lat="30.507808" lon="-97.74622" changeset="false"><tag k="addr:street" v="Brayton Park Drive"/><tag k="addr:housenumber" v="16920"/><tag k="coa:place_id" v="3049759"/></node><node id="-17" lat="30.510783" lon="-97.748809" changeset="false"><tag k="addr:street" v="Billingham Trail"/><tag k="addr:housenumber" v="9600"/><tag k="coa:place_id" v="3042517"/></node><node id="-18" lat="30.510111" lon="-97.748171" changeset="false"><tag k="addr:street" v="Ennis Trail"/><tag k="addr:housenumber" v="16524 1/2"/><tag k="coa:place_id" v="3070560"/></node><node id="-19" lat="30.512886" lon="-97.748524" changeset="false"><tag k="addr:street" v="Cypress Landing Cove"/><tag k="addr:housenumber" v="16804"/><tag k="coa:place_id" v="3042401"/></node><node id="-20" lat="30.510171" lon="-97.748424" changeset="false"><tag k="addr:street" v="Ennis Trail"/><tag k="addr:housenumber" v="16520"/><tag k="coa:place_id" v="3042339"/></node><node id="-21" lat="30.502808" lon="-97.75462" changeset="false"><tag k="addr:street" v="Avery Ranch Boulevard"/><tag k="addr:housenumber" v="16020 1/2"/><tag k="coa:place_id" v="3193090"/></node><node id="-22" lat="30.510413" lon="-97.754753" changeset="false"><tag k="addr:street" v="Along Creek Cove"/><tag k="addr:housenumber" v="16533"/><tag k="coa:place_id" v="3157212"/></node><node id="-23" lat="30.513894" lon="-97.748594" changeset="false"><tag k="addr:street" v="Crystal Downs Cove"/><tag k="addr:housenumber" v="16901"/><tag k="coa:place_id" v="3042419"/></node><node id="-24" lat="30.517342" lon="-97.743734" changeset="false"><tag k="addr:street" v="Chadwood Court"/><tag k="addr:housenumber" v="17204"/><tag k="coa:place_id" v="153323"/></node><node id="-25" lat="30.508527" lon="-97.747731" changeset="false"><tag k="addr:street" v="Heaton Park Cove"/><tag k="addr:housenumber" v="16508"/><tag k="coa:place_id" v="3042307"/></node><node id="-26" lat="30.50423" lon="-97.75102" changeset="false"><tag k="addr:street" v="Avery Ranch Boulevard"/><tag k="addr:housenumber" v="16200"/><tag k="coa:place_id" v="3144180"/></node><node id="-27" lat="30.511712" lon="-97.742266" changeset="false"><tag k="addr:street" v="Slate Creek Trail"/><tag k="addr:housenumber" v="9201"/><tag k="coa:place_id" v="153492"/></node><node id="-28" lat="30.513984" lon="-97.744876" changeset="false"><tag k="addr:street" v="Manitou Springs Lane"/><tag k="addr:housenumber" v="9409"/><tag k="coa:place_id" v="153343"/></node><node id="-29" lat="30.504384" lon="-97.749887" changeset="false"><tag k="addr:street" v="Lisi Anne Drive"/><tag k="addr:housenumber" v="9401 1/2"/><tag k="coa:place_id" v="3157305"/></node><node id="-30" lat="30.51289" lon="-97.752532" changeset="false"><tag k="addr:street" v="Palmbrook Drive"/><tag k="addr:housenumber" v="10118"/><tag k="coa:place_id" v="3157211"/></node><node id="-31" lat="30.50295" lon="-97.754211" changeset="false"><tag k="addr:street" v="Indina Hills Drive"/><tag k="addr:housenumber" v="9500 1/2"/><tag k="coa:place_id" v="3140862"/></node><node id="-32" lat="30.509484" lon="-97.745977" changeset="false"><tag k="addr:street" v="Brayton Park Drive"/><tag k="addr:housenumber" v="16716"/><tag k="coa:place_id" v="3042273"/></node><node id="-33" lat="30.507643" lon="-97.741226" changeset="false"><tag k="addr:street" v="Village Oak Loop"/><tag k="addr:housenumber" v="16726"/><tag k="coa:place_id" v="79492"/></node><node id="-34" lat="30.507626" lon="-97.741187" changeset="false"><tag k="addr:street" v="Village Oak Loop"/><tag k="addr:housenumber" v="16724"/><tag k="coa:place_id" v="79491"/></node><node id="-35" lat="30.510811" lon="-97.743302" changeset="false"><tag k="addr:street" v="Morgan Hill Trail"/><tag k="addr:housenumber" v="16900"/><tag k="coa:place_id" v="148025"/></node><node id="-36" lat="30.509322" lon="-97.746" changeset="false"><tag k="addr:street" v="Brayton Park Drive"/><tag k="addr:housenumber" v="16720"/><tag k="coa:place_id" v="3042274"/></node><node id="-37" lat="30.517901" lon="-97.743189" changeset="false"><tag k="addr:street" v="Chadwood Court"/><tag k="addr:housenumber" v="17209"/><tag k="coa:place_id" v="153319"/></node><node id="-38" lat="30.513124" lon="-97.74769" changeset="false"><tag k="addr:street" v="Ennis Trail"/><tag k="addr:housenumber" v="17000 1/2"/><tag k="coa:place_id" v="3070561"/></node><node id="-39" lat="30.514859" lon="-97.748995" changeset="false"><tag k="addr:street" v="Ennis Trail"/><tag k="addr:housenumber" v="17208"/><tag k="coa:place_id" v="3042435"/></node><node id="-40" lat="30.504098" lon="-97.751541" changeset="false"><tag k="addr:street" v="Avery Ranch Boulevard"/><tag k="addr:housenumber" v="16110 1/2"/><tag k="coa:place_id" v="3091518"/></node><node id="-41" lat="30.507605" lon="-97.746211" changeset="false"><tag k="addr:street" v="Billingham Trail"/><tag k="addr:housenumber" v="9301 1/2"/><tag k="coa:place_id" v="3053190"/></node><node id="-42" lat="30.507291" lon="-97.753288" changeset="false"><tag k="addr:street" v="Palmbrook Drive"/><tag k="addr:housenumber" v="9604"/><tag k="coa:place_id" v="3136658"/></node><node id="-43" lat="30.507577" lon="-97.74107" changeset="false"><tag k="addr:street" v="Village Oak Loop"/><tag k="addr:housenumber" v="16718"/><tag k="coa:place_id" v="79488"/></node><node id="-44" lat="30.511082" lon="-97.748423" changeset="false"><tag k="addr:street" v="Billingham Trail"/><tag k="addr:housenumber" v="9601"/><tag k="coa:place_id" v="3049912"/></node><node id="-45" lat="30.511106" lon="-97.748442" changeset="false"><tag k="addr:street" v="Billingham Trail"/><tag k="addr:housenumber" v="9601 1/2"/><tag k="coa:place_id" v="3210600"/></node><node id="-46" lat="30.510932" lon="-97.754379" changeset="false"><tag k="addr:street" v="Palmbrook Drive"/><tag k="addr:housenumber" v="10000"/><tag k="coa:place_id" v="3261497"/></node><node id="-47" lat="30.510925" lon="-97.754387" changeset="false"><tag k="addr:street" v="Palmbrook Drive"/><tag k="addr:housenumber" v="10001"/><tag k="coa:place_id" v="3261498"/></node></osm>