<?xml version="1.0" encoding="UTF-8"?><osm version="0.6" generator="github.com/aaronlidman/osm-and-geojson"><node id="-1" lat="30.204798" lon="-97.775016" changeset="false"><tag k="addr:street" v="South Congress Avenue"/><tag k="addr:housenumber" v="5602"/><tag k="addr:postcode" v="78745"/></node><node id="-2" lat="30.202323" lon="-97.778403" changeset="false"><tag k="addr:street" v="Flournoy Drive"/><tag k="addr:housenumber" v="303"/><tag k="addr:postcode" v="78745"/></node><node id="-3" lat="30.204165" lon="-97.777308" changeset="false"><tag k="addr:street" v="Ainsworth Street"/><tag k="addr:housenumber" v="210"/><tag k="addr:postcode" v="78745"/></node><node id="-4" lat="30.207531" lon="-97.780312" changeset="false"><tag k="addr:street" v="West Stassney Lane"/><tag k="addr:housenumber" v="501"/><tag k="addr:postcode" v="78745"/></node><node id="-5" lat="30.205334" lon="-97.776487" changeset="false"><tag k="addr:street" v="West Stassney Lane"/><tag k="addr:housenumber" v="201"/><tag k="addr:postcode" v="78745"/></node><node id="-6" lat="30.200812" lon="-97.77696" changeset="false"><tag k="addr:street" v="South Congress Avenue"/><tag k="addr:housenumber" v="6000"/><tag k="addr:postcode" v="78745"/></node><node id="-7" lat="30.204173" lon="-97.776204" changeset="false"><tag k="addr:street" v="Sandra Street"/><tag k="addr:housenumber" v="117"/><tag k="addr:postcode" v="78745"/></node><node id="-8" lat="30.205984" lon="-97.777666" changeset="false"><tag k="addr:street" v="West Stassney Lane"/><tag k="addr:housenumber" v="301"/><tag k="addr:postcode" v="78745"/></node><node id="-9" lat="30.207483" lon="-97.781641" changeset="false"><tag k="addr:street" v="South 1st Street"/><tag k="addr:housenumber" v="5605"/><tag k="addr:postcode" v="78745"/></node><node id="-10" lat="30.205037" lon="-97.77571" changeset="false"><tag k="addr:street" v="West Stassney Lane"/><tag k="addr:housenumber" v="119"/><tag k="addr:postcode" v="78745"/></node><node id="-11" lat="30.204611" lon="-97.775312" changeset="false"><tag k="addr:street" v="South Congress Avenue"/><tag k="addr:housenumber" v="5604"/><tag k="addr:postcode" v="78745"/></node><node id="-12" lat="30.203472" lon="-97.775674" changeset="false"><tag k="addr:street" v="Ainsworth Street"/><tag k="addr:housenumber" v="104"/><tag k="addr:postcode" v="78745"/></node><node id="-13" lat="30.204879" lon="-97.774983" changeset="false"><tag k="addr:street" v="South Congress Avenue"/><tag k="addr:housenumber" v="5600"/><tag k="addr:postcode" v="78745"/></node><node id="-14" lat="30.20686" lon="-97.782028" changeset="false"><tag k="addr:street" v="Bramble Drive"/><tag k="addr:housenumber" v="610"/><tag k="addr:postcode" v="78745"/></node><node id="-15" lat="30.197722" lon="-97.779276" changeset="false"><tag k="addr:street" v="Eberhart Lane"/><tag k="addr:housenumber" v="140 1/2"/><tag k="addr:postcode" v="78745"/></node><node id="-16" lat="30.201519" lon="-97.780509" changeset="false"><tag k="addr:street" v="Merriwood Drive"/><tag k="addr:housenumber" v="6010"/><tag k="addr:postcode" v="78745"/></node><node id="-17" lat="30.202313" lon="-97.776153" changeset="false"><tag k="addr:street" v="South Congress Avenue"/><tag k="addr:housenumber" v="5900"/><tag k="addr:postcode" v="78745"/></node><node id="-18" lat="30.198323" lon="-97.777279" changeset="false"><tag k="addr:street" v="South Congress Avenue"/><tag k="addr:housenumber" v="6300"/><tag k="addr:postcode" v="78745"/></node><node id="-19" lat="30.201179" lon="-97.785022" changeset="false"><tag k="addr:street" v="South 1st Street"/><tag k="addr:housenumber" v="6311"/><tag k="addr:postcode" v="78745"/></node><node id="-20" lat="30.204107" lon="-97.776064" changeset="false"><tag k="addr:street" v="Sandra Street"/><tag k="addr:housenumber" v="115"/><tag k="addr:postcode" v="78745"/></node><node id="-21" lat="30.204414" lon="-97.776854" changeset="false"><tag k="addr:street" v="Sandra Street"/><tag k="addr:housenumber" v="205"/><tag k="addr:postcode" v="78745"/></node><node id="-22" lat="30.204244" lon="-97.77744" changeset="false"><tag k="addr:street" v="Ainsworth Street"/><tag k="addr:housenumber" v="212"/><tag k="addr:postcode" v="78745"/></node><node id="-23" lat="30.203888" lon="-97.775558" changeset="false"><tag k="addr:street" v="South Congress Avenue"/><tag k="addr:housenumber" v="5700"/><tag k="addr:postcode" v="78745"/></node><node id="-24" lat="30.203928" lon="-97.775768" changeset="false"><tag k="addr:street" v="Sandra Street"/><tag k="addr:housenumber" v="111"/><tag k="addr:postcode" v="78745"/></node><node id="-25" lat="30.20303" lon="-97.775867" changeset="false"><tag k="addr:street" v="South Congress Avenue"/><tag k="addr:housenumber" v="5802"/><tag k="addr:postcode" v="78745"/></node><node id="-26" lat="30.203143" lon="-97.775851" changeset="false"><tag k="addr:street" v="South Congress Avenue"/><tag k="addr:housenumber" v="5800"/><tag k="addr:postcode" v="78745"/></node><node id="-27" lat="30.20282" lon="-97.779811" changeset="false"><tag k="addr:street" v="Breezewood Drive"/><tag k="addr:housenumber" v="5908"/><tag k="addr:postcode" v="78745"/></node><node id="-28" lat="30.202843" lon="-97.779869" changeset="false"><tag k="addr:street" v="Flournoy Drive"/><tag k="addr:housenumber" v="314"/><tag k="addr:postcode" v="78745"/></node><node id="-29" lat="30.201847" lon="-97.777243" changeset="false"><tag k="addr:street" v="Flournoy Drive"/><tag k="addr:housenumber" v="207"/><tag k="addr:postcode" v="78745"/></node><node id="-30" lat="30.201789" lon="-97.777339" changeset="false"><tag k="addr:street" v="Idlewood Cove"/><tag k="addr:housenumber" v="6001"/><tag k="addr:postcode" v="78745"/></node><node id="-31" lat="30.207791" lon="-97.78101" changeset="false"><tag k="addr:street" v="West Stassney Lane"/><tag k="addr:housenumber" v="605"/><tag k="addr:postcode" v="78745"/></node><node id="-32" lat="30.207847" lon="-97.780975" changeset="false"><tag k="addr:street" v="West Stassney Lane"/><tag k="addr:housenumber" v="603"/><tag k="addr:postcode" v="78745"/></node><node id="-33" lat="30.20774" lon="-97.781049" changeset="false"><tag k="addr:street" v="West Stassney Lane"/><tag k="addr:housenumber" v="607"/><tag k="addr:postcode" v="78745"/></node><node id="-34" lat="30.207978" lon="-97.781404" changeset="false"><tag k="addr:street" v="West Stassney Lane"/><tag k="addr:housenumber" v="611"/><tag k="addr:postcode" v="78745"/></node><node id="-35" lat="30.207912" lon="-97.781265" changeset="false"><tag k="addr:street" v="West Stassney Lane"/><tag k="addr:housenumber" v="609"/><tag k="addr:postcode" v="78745"/></node></osm>