<?xml version="1.0" encoding="UTF-8"?><osm version="0.6" generator="github.com/aaronlidman/osm-and-geojson"><node id="-1" lat="30.419756" lon="-97.856214" changeset="false"><tag k="addr:street" v="Klondike Rush Point"/><tag k="addr:housenumber" v="12201"/><tag k="coa:place_id" v="107405"/></node><node id="-2" lat="30.440373" lon="-97.872019" changeset="false"><tag k="addr:street" v="Farm-to-Market Road 2769"/><tag k="addr:housenumber" v="13823"/><tag k="coa:place_id" v="3200583"/></node><node id="-3" lat="30.415138" lon="-97.892528" changeset="false"><tag k="addr:street" v="Comanche Trail"/><tag k="addr:housenumber" v="7087"/><tag k="coa:place_id" v="182340"/></node><node id="-4" lat="30.422633" lon="-97.859332" changeset="false"><tag k="addr:street" v="Glacier Parke Cove"/><tag k="addr:housenumber" v="12505"/><tag k="coa:place_id" v="3053054"/></node><node id="-5" lat="30.42061" lon="-97.858685" changeset="false"><tag k="addr:street" v="Klondike Rush Point"/><tag k="addr:housenumber" v="12310"/><tag k="coa:place_id" v="107419"/></node><node id="-6" lat="30.41857" lon="-97.896321" changeset="false"><tag k="addr:street" v="Comanche Trail"/><tag k="addr:housenumber" v="7200"/><tag k="coa:place_id" v="189084"/></node><node id="-7" lat="30.391854" lon="-97.878648" changeset="false"><tag k="addr:street" v="Cedar Street"/><tag k="addr:housenumber" v="12409"/><tag k="coa:place_id" v="962967"/></node><node id="-8" lat="30.394847" lon="-97.878571" changeset="false"><tag k="addr:street" v="Hughes Park Road"/><tag k="addr:housenumber" v="12816"/><tag k="coa:place_id" v="246327"/></node><node id="-9" lat="30.394318" lon="-97.885613" changeset="false"><tag k="addr:street" v="Park Drive,1100"/><tag k="addr:housenumber" v="12904"/><tag k="coa:place_id" v="1140625"/></node><node id="-10" lat="30.419692" lon="-97.896152" changeset="false"><tag k="addr:street" v="Comanche Trail"/><tag k="addr:housenumber" v="7214"/><tag k="coa:place_id" v="179239"/></node><node id="-11" lat="30.389379" lon="-97.891333" changeset="false"><tag k="addr:street" v="Ranch Road 620"/><tag k="addr:housenumber" v="4604"/><tag k="coa:place_id" v="1140587"/></node><node id="-12" lat="30.390421" lon="-97.881839" changeset="false"><tag k="addr:street" v="Cedar Street"/><tag k="addr:housenumber" v="12603"/><tag k="coa:place_id" v="95437"/></node><node id="-13" lat="30.416343" lon="-97.890409" changeset="false"><tag k="addr:street" v="Lake View Drive"/><tag k="addr:housenumber" v="13915"/><tag k="coa:place_id" v="128730"/></node><node id="-14" lat="30.416262" lon="-97.890187" changeset="false"><tag k="addr:street" v="Lake View Drive"/><tag k="addr:housenumber" v="13913"/><tag k="coa:place_id" v="161543"/></node><node id="-15" lat="30.415796" lon="-97.889066" changeset="false"><tag k="addr:street" v="Lake View Drive"/><tag k="addr:housenumber" v="13818"/><tag k="coa:place_id" v="3122761"/></node><node id="-16" lat="30.415722" lon="-97.888035" changeset="false"><tag k="addr:street" v="Lake View Drive"/><tag k="addr:housenumber" v="13807"/><tag k="coa:place_id" v="182361"/></node><node id="-17" lat="30.392157" lon="-97.889798" changeset="false"><tag k="addr:street" v="Lakeview Drive"/><tag k="addr:housenumber" v="4902"/><tag k="coa:place_id" v="95628"/></node><node id="-18" lat="30.42097" lon="-97.895153" changeset="false"><tag k="addr:street" v="Comanche Trail"/><tag k="addr:housenumber" v="7230"/><tag k="coa:place_id" v="179252"/></node><node id="-19" lat="30.419577" lon="-97.884702" changeset="false"><tag k="addr:street" v="Mountain Trail"/><tag k="addr:housenumber" v="7103"/><tag k="coa:place_id" v="182773"/></node><node id="-20" lat="30.446524" lon="-97.836596" changeset="false"><tag k="addr:street" v="Hanging Valley Drive"/><tag k="addr:housenumber" v="12101"/><tag k="coa:place_id" v="203415"/></node><node id="-21" lat="30.448403" lon="-97.841429" changeset="false"><tag k="addr:street" v="Hanging Valley Drive"/><tag k="addr:housenumber" v="12321"/><tag k="coa:place_id" v="203423"/></node><node id="-22" lat="30.418981" lon="-97.896357" changeset="false"><tag k="addr:street" v="Comanche Trail"/><tag k="addr:housenumber" v="7206"/><tag k="coa:place_id" v="179237"/></node><node id="-23" lat="30.437426" lon="-97.839151" changeset="false"><tag k="addr:street" v="Ranch Road 620"/><tag k="addr:housenumber" v="9804"/><tag k="coa:place_id" v="1164316"/></node><node id="-24" lat="30.429605" lon="-97.874085" changeset="false"><tag k="addr:street" v="Bullick Hollow Road"/><tag k="addr:housenumber" v="13455"/><tag k="coa:place_id" v="3141484"/></node><node id="-25" lat="30.428675" lon="-97.842912" changeset="false"><tag k="addr:street" v="Ranch Road 620"/><tag k="addr:housenumber" v="8824 1/2"/><tag k="coa:place_id" v="3121588"/></node><node id="-26" lat="30.412034" lon="-97.873129" changeset="false"><tag k="addr:street" v="Luna Montana South Way"/><tag k="addr:housenumber" v="12924"/><tag k="coa:place_id" v="3181008"/></node><node id="-27" lat="30.412324" lon="-97.871101" changeset="false"><tag k="addr:street" v="Villa Montana Way"/><tag k="addr:housenumber" v="13136"/><tag k="coa:place_id" v="3181082"/></node><node id="-28" lat="30.412886" lon="-97.871824" changeset="false"><tag k="addr:street" v="Luna Montana South Way"/><tag k="addr:housenumber" v="13029"/><tag k="coa:place_id" v="3181091"/></node><node id="-29" lat="30.413215" lon="-97.873428" changeset="false"><tag k="addr:street" v="Luna Montana South Way"/><tag k="addr:housenumber" v="13112"/><tag k="coa:place_id" v="3181102"/></node><node id="-30" lat="30.394892" lon="-97.877465" changeset="false"><tag k="addr:street" v="Hughes Park Road"/><tag k="addr:housenumber" v="12814"/><tag k="coa:place_id" v="246325"/></node><node id="-31" lat="30.417597" lon="-97.890428" changeset="false"><tag k="addr:street" v="Skyline Drive"/><tag k="addr:housenumber" v="14002"/><tag k="coa:place_id" v="182735"/></node><node id="-32" lat="30.428238" lon="-97.844412" changeset="false"><tag k="addr:street" v="Terraza Circle"/><tag k="addr:housenumber" v="11821"/><tag k="coa:place_id" v="3318802"/></node><node id="-33" lat="30.421565" lon="-97.856906" changeset="false"><tag k="addr:street" v="Waterton Parke Circle"/><tag k="addr:housenumber" v="12208"/><tag k="coa:place_id" v="224443"/></node><node id="-34" lat="30.421275" lon="-97.857223" changeset="false"><tag k="addr:street" v="Tahoe Parke Circle"/><tag k="addr:housenumber" v="8025"/><tag k="coa:place_id" v="224375"/></node><node id="-35" lat="30.408377" lon="-97.874996" changeset="false"><tag k="addr:street" v="Comanche Trail"/><tag k="addr:housenumber" v="6700"/><tag k="coa:place_id" v="143232"/></node><node id="-36" lat="30.448678" lon="-97.841582" changeset="false"><tag k="addr:street" v="Hanging Valley Drive"/><tag k="addr:housenumber" v="12325"/><tag k="coa:place_id" v="203424"/></node><node id="-37" lat="30.445834" lon="-97.837475" changeset="false"><tag k="addr:street" v="Buckner Road"/><tag k="addr:housenumber" v="12030"/><tag k="coa:place_id" v="3054630"/></node><node id="-38" lat="30.443646" lon="-97.862722" changeset="false"><tag k="addr:street" v="Farm-to-Market Road 2769"/><tag k="addr:housenumber" v="13435"/><tag k="coa:place_id" v="3148992"/></node><node id="-39" lat="30.423371" lon="-97.862822" changeset="false"><tag k="addr:street" v="Cloud Mountain Crossing"/><tag k="addr:housenumber" v="12701"/><tag k="coa:place_id" v="1132827"/></node><node id="-40" lat="30.412788" lon="-97.872745" changeset="false"><tag k="addr:street" v="Villa Montana Way"/><tag k="addr:housenumber" v="13213"/><tag k="coa:place_id" v="3181044"/></node><node id="-41" lat="30.412704" lon="-97.871666" changeset="false"><tag k="addr:street" v="Luna Montana South Way"/><tag k="addr:housenumber" v="13025"/><tag k="coa:place_id" v="3181090"/></node><node id="-42" lat="30.420436" lon="-97.855837" changeset="false"><tag k="addr:street" v="Tahoe Parke Circle"/><tag k="addr:housenumber" v="8004"/><tag k="coa:place_id" v="224398"/></node><node id="-43" lat="30.423531" lon="-97.859698" changeset="false"><tag k="addr:street" v="Davis Mountain Pass"/><tag k="addr:housenumber" v="8113"/><tag k="coa:place_id" v="692956"/></node><node id="-44" lat="30.394492" lon="-97.882881" changeset="false"><tag k="addr:street" v="Park Drive,1100"/><tag k="addr:housenumber" v="12874"/><tag k="coa:place_id" v="1140622"/></node><node id="-45" lat="30.42642" lon="-97.858659" changeset="false"><tag k="addr:street" v="Verandah Court"/><tag k="addr:housenumber" v="12520"/><tag k="coa:place_id" v="3078453"/></node><node id="-46" lat="30.420065" lon="-97.857684" changeset="false"><tag k="addr:street" v="Klondike Rush Point"/><tag k="addr:housenumber" v="12303"/><tag k="coa:place_id" v="107411"/></node><node id="-47" lat="30.419414" lon="-97.884957" changeset="false"><tag k="addr:street" v="Mountain Trail"/><tag k="addr:housenumber" v="7105"/><tag k="coa:place_id" v="182778"/></node><node id="-48" lat="30.418954" lon="-97.889718" changeset="false"><tag k="addr:street" v="Panorama Drive"/><tag k="addr:housenumber" v="14002"/><tag k="coa:place_id" v="182809"/></node><node id="-49" lat="30.394607" lon="-97.884961" changeset="false"><tag k="addr:street" v="Park Drive,1100"/><tag k="addr:housenumber" v="12896"/><tag k="coa:place_id" v="1140616"/></node><node id="-50" lat="30.394585" lon="-97.883975" changeset="false"><tag k="addr:street" v="Park Drive,1100"/><tag k="addr:housenumber" v="12885"/><tag k="coa:place_id" v="1140618"/></node><node id="-51" lat="30.394172" lon="-97.88597" changeset="false"><tag k="addr:street" v="Park Drive,1100"/><tag k="addr:housenumber" v="12908"/><tag k="coa:place_id" v="95539"/></node><node id="-52" lat="30.416484" lon="-97.890785" changeset="false"><tag k="addr:street" v="Lake View Drive"/><tag k="addr:housenumber" v="14001"/><tag k="coa:place_id" v="182379"/></node><node id="-53" lat="30.416113" lon="-97.892065" changeset="false"><tag k="addr:street" v="Lake View Drive"/><tag k="addr:housenumber" v="14015"/><tag k="coa:place_id" v="182389"/></node><node id="-54" lat="30.415614" lon="-97.889483" changeset="false"><tag k="addr:street" v="Lake View Drive"/><tag k="addr:housenumber" v="13905"/><tag k="coa:place_id" v="182371"/></node><node id="-55" lat="30.401684" lon="-97.855653" changeset="false"><tag k="addr:street" v="Ranch Road 620"/><tag k="addr:housenumber" v="6808"/><tag k="coa:place_id" v="130281"/></node><node id="-56" lat="30.428512" lon="-97.844977" changeset="false"><tag k="addr:street" v="Terraza Circle"/><tag k="addr:housenumber" v="11905"/><tag k="coa:place_id" v="3318808"/></node><node id="-57" lat="30.394911" lon="-97.882069" changeset="false"><tag k="addr:street" v="Hughes Park Road"/><tag k="addr:housenumber" v="12850"/><tag k="coa:place_id" v="183493"/></node><node id="-58" lat="30.391445" lon="-97.879223" changeset="false"><tag k="addr:street" v="Cedar Street"/><tag k="addr:housenumber" v="12501"/><tag k="coa:place_id" v="95435"/></node><node id="-59" lat="30.422338" lon="-97.856058" changeset="false"><tag k="addr:street" v="Tahoe Parke Circle"/><tag k="addr:housenumber" v="8136"/><tag k="coa:place_id" v="224424"/></node><node id="-60" lat="30.395575" lon="-97.869209" changeset="false"><tag k="addr:street" v="Comanche Trail"/><tag k="addr:housenumber" v="5939"/><tag k="coa:place_id" v="226649"/></node><node id="-61" lat="30.445887" lon="-97.83235" changeset="false"><tag k="addr:street" v="Ranch Road 620"/><tag k="addr:housenumber" v="10624"/><tag k="coa:place_id" v="3187815"/></node><node id="-62" lat="30.415452" lon="-97.89207" changeset="false"><tag k="addr:street" v="Comanche Trail"/><tag k="addr:housenumber" v="7081"/><tag k="coa:place_id" v="182335"/></node><node id="-63" lat="30.45563" lon="-97.828362" changeset="false"><tag k="addr:street" v="Anderson Mill Road,1100"/><tag k="addr:housenumber" v="11907"/><tag k="coa:place_id" v="3354877"/></node><node id="-64" lat="30.4288" lon="-97.843397" changeset="false"><tag k="addr:street" v="Ranch Road 620"/><tag k="addr:housenumber" v="8824"/><tag k="coa:place_id" v="3223367"/></node><node id="-65" lat="30.400768" lon="-97.857528" changeset="false"><tag k="addr:street" v="Ranch Road 620"/><tag k="addr:housenumber" v="6708"/><tag k="coa:place_id" v="3335602"/></node><node id="-66" lat="30.430981" lon="-97.844264" changeset="false"><tag k="addr:street" v="Villa Norte Drive"/><tag k="addr:housenumber" v="9220"/><tag k="coa:place_id" v="3318766"/></node><node id="-67" lat="30.430548" lon="-97.843867" changeset="false"><tag k="addr:street" v="Mira Vista Way"/><tag k="addr:housenumber" v="11809"/><tag k="coa:place_id" v="3318775"/></node><node id="-68" lat="30.430082" lon="-97.844281" changeset="false"><tag k="addr:street" v="Villa Norte Drive"/><tag k="addr:housenumber" v="9312"/><tag k="coa:place_id" v="3318781"/></node><node id="-69" lat="30.391044" lon="-97.881739" changeset="false"><tag k="addr:street" v="Cedar Street"/><tag k="addr:housenumber" v="12520"/><tag k="coa:place_id" v="3291778"/></node><node id="-70" lat="30.435109" lon="-97.870699" changeset="false"><tag k="addr:street" v="Bullick Hollow Road"/><tag k="addr:housenumber" v="13568"/><tag k="coa:place_id" v="3430069"/></node><node id="-71" lat="30.452353" lon="-97.83358" changeset="false"><tag k="addr:street" v="Windy Ridge Road"/><tag k="addr:housenumber" v="12163"/><tag k="coa:place_id" v="134590"/></node><node id="-72" lat="30.390299" lon="-97.882923" changeset="false"><tag k="addr:street" v="Mansfield View Court"/><tag k="addr:housenumber" v="5132"/><tag k="coa:place_id" v="1132807"/></node><node id="-73" lat="30.393094" lon="-97.885012" changeset="false"><tag k="addr:street" v="Thomas Street"/><tag k="addr:housenumber" v="12809"/><tag k="coa:place_id" v="3214270"/></node><node id="-74" lat="30.39383" lon="-97.886389" changeset="false"><tag k="addr:street" v="Park Drive,1100"/><tag k="addr:housenumber" v="12914"/><tag k="coa:place_id" v="1140640"/></node><node id="-75" lat="30.393169" lon="-97.889073" changeset="false"><tag k="addr:street" v="Lakeview Drive"/><tag k="addr:housenumber" v="5000"/><tag k="coa:place_id" v="95640"/></node><node id="-76" lat="30.428612" lon="-97.843933" changeset="false"><tag k="addr:street" v="Versante Circle"/><tag k="addr:housenumber" v="12024"/><tag k="coa:place_id" v="3318718"/></node><node id="-77" lat="30.428662" lon="-97.845312" changeset="false"><tag k="addr:street" v="Terraza Circle"/><tag k="addr:housenumber" v="11921"/><tag k="coa:place_id" v="3318812"/></node><node id="-78" lat="30.455253" lon="-97.829446" changeset="false"><tag k="addr:street" v="Anderson Mill Road,1100"/><tag k="addr:housenumber" v="11909"/><tag k="coa:place_id" v="3283550"/></node><node id="-79" lat="30.403772" lon="-97.870819" changeset="false"><tag k="addr:street" v="Comanche Trail"/><tag k="addr:housenumber" v="6533"/><tag k="coa:place_id" v="3324875"/></node><node id="-80" lat="30.426773" lon="-97.857156" changeset="false"><tag k="addr:street" v="Denali Parkway"/><tag k="addr:housenumber" v="8309"/><tag k="coa:place_id" v="3078461"/></node><node id="-81" lat="30.417746" lon="-97.890967" changeset="false"><tag k="addr:street" v="Skyline Drive"/><tag k="addr:housenumber" v="14006"/><tag k="coa:place_id" v="182737"/></node><node id="-82" lat="30.405208" lon="-97.853864" changeset="false"><tag k="addr:street" v="Ranch Road 620"/><tag k="addr:housenumber" v="7300"/><tag k="coa:place_id" v="3503529"/></node><node id="-83" lat="30.41487" lon="-97.852559" changeset="false"><tag k="addr:street" v="Vista Parke Drive"/><tag k="addr:housenumber" v="11900"/><tag k="coa:place_id" v="3503856"/></node><node id="-84" lat="30.431335" lon="-97.842957" changeset="false"><tag k="addr:street" v="Villa Norte Drive"/><tag k="addr:housenumber" v="9101"/><tag k="coa:place_id" v="3318744"/></node><node id="-85" lat="30.429486" lon="-97.844582" changeset="false"><tag k="addr:street" v="Versante Circle"/><tag k="addr:housenumber" v="11920"/><tag k="coa:place_id" v="3318711"/></node><node id="-86" lat="30.429719" lon="-97.843512" changeset="false"><tag k="addr:street" v="Villa Norte Drive"/><tag k="addr:housenumber" v="8909"/><tag k="coa:place_id" v="3318720"/></node><node id="-87" lat="30.428308" lon="-97.845103" changeset="false"><tag k="addr:street" v="Terraza Circle"/><tag k="addr:housenumber" v="12125"/><tag k="coa:place_id" v="3318836"/></node><node id="-88" lat="30.42883" lon="-97.845841" changeset="false"><tag k="addr:street" v="Terraza Circle"/><tag k="addr:housenumber" v="12008"/><tag k="coa:place_id" v="3318822"/></node><node id="-89" lat="30.418078" lon="-97.88589" changeset="false"><tag k="addr:street" v="Mountain Trail"/><tag k="addr:housenumber" v="7004"/><tag k="coa:place_id" v="179393"/></node><node id="-90" lat="30.417003" lon="-97.891319" changeset="false"><tag k="addr:street" v="Lake View Drive"/><tag k="addr:housenumber" v="14004"/><tag k="coa:place_id" v="182413"/></node><node id="-91" lat="30.416576" lon="-97.891014" changeset="false"><tag k="addr:street" v="Lake View Drive"/><tag k="addr:housenumber" v="14003"/><tag k="coa:place_id" v="182381"/></node><node id="-92" lat="30.415871" lon="-97.892854" changeset="false"><tag k="addr:street" v="Lake View Drive"/><tag k="addr:housenumber" v="14020"/><tag k="coa:place_id" v="182419"/></node><node id="-93" lat="30.392295" lon="-97.88938" changeset="false"><tag k="addr:street" v="Water Lane"/><tag k="addr:housenumber" v="13009"/><tag k="coa:place_id" v="95592"/></node><node id="-94" lat="30.391999" lon="-97.87841" changeset="false"><tag k="addr:street" v="Cedar Street"/><tag k="addr:housenumber" v="12407"/><tag k="coa:place_id" v="3031192"/></node><node id="-95" lat="30.44902" lon="-97.837418" changeset="false"><tag k="addr:street" v="Painted Bunting Drive"/><tag k="addr:housenumber" v="12201"/><tag k="coa:place_id" v="113813"/></node><node id="-96" lat="30.4235" lon="-97.863509" changeset="false"><tag k="addr:street" v="Cloud Mountain Crossing"/><tag k="addr:housenumber" v="12708"/><tag k="coa:place_id" v="223608"/></node><node id="-97" lat="30.423204" lon="-97.859867" changeset="false"><tag k="addr:street" v="Davis Mountain Pass"/><tag k="addr:housenumber" v="8109"/><tag k="coa:place_id" v="730492"/></node><node id="-98" lat="30.394217" lon="-97.883972" changeset="false"><tag k="addr:street" v="Cedar Street"/><tag k="addr:housenumber" v="12808"/><tag k="coa:place_id" v="3100855"/></node><node id="-99" lat="30.422849" lon="-97.861417" changeset="false"><tag k="addr:street" v="Castle Peak Trail"/><tag k="addr:housenumber" v="8009"/><tag k="coa:place_id" v="105144"/></node><node id="-100" lat="30.415156" lon="-97.887971" changeset="false"><tag k="addr:street" v="Comanche Trail"/><tag k="addr:housenumber" v="7039"/><tag k="coa:place_id" v="139002"/></node><node id="-101" lat="30.39582" lon="-97.869439" changeset="false"><tag k="addr:street" v="Comanche Trail"/><tag k="addr:housenumber" v="6001"/><tag k="coa:place_id" v="3050701"/></node><node id="-102" lat="30.418715" lon="-97.857434" changeset="false"><tag k="addr:street" v="Mead Parke Cove"/><tag k="addr:housenumber" v="8000"/><tag k="coa:place_id" v="107392"/></node><node id="-103" lat="30.391476" lon="-97.889112" changeset="false"><tag k="addr:street" v="Marshall Ford Road"/><tag k="addr:housenumber" v="4806"/><tag k="coa:place_id" v="503608"/></node><node id="-104" lat="30.391247" lon="-97.889666" changeset="false"><tag k="addr:street" v="Lakeview Drive"/><tag k="addr:housenumber" v="4807"/><tag k="coa:place_id" v="95604"/></node><node id="-105" lat="30.433156" lon="-97.873309" changeset="false"><tag k="addr:street" v="Bullick Hollow Road"/><tag k="addr:housenumber" v="13541"/><tag k="coa:place_id" v="3095649"/></node><node id="-106" lat="30.44599" lon="-97.859824" changeset="false"><tag k="addr:street" v="Farm-to-Market Road 2769"/><tag k="addr:housenumber" v="13355"/><tag k="coa:place_id" v="1164482"/></node><node id="-107" lat="30.391034" lon="-97.890709" changeset="false"><tag k="addr:street" v="Park Lane"/><tag k="addr:housenumber" v="4801"/><tag k="coa:place_id" v="190213"/></node><node id="-108" lat="30.416556" lon="-97.89939" changeset="false"><tag k="addr:street" v="Ridgetop Terrace"/><tag k="addr:housenumber" v="14421"/><tag k="coa:place_id" v="3119314"/></node><node id="-109" lat="30.40416" lon="-97.870951" changeset="false"><tag k="addr:street" v="Comanche Trail"/><tag k="addr:housenumber" v="6535"/><tag k="coa:place_id" v="3044640"/></node><node id="-110" lat="30.448107" lon="-97.831354" changeset="false"><tag k="addr:street" v="Ranch Road 620"/><tag k="addr:housenumber" v="10806"/><tag k="coa:place_id" v="134760"/></node><node id="-111" lat="30.421972" lon="-97.862159" changeset="false"><tag k="addr:street" v="Davis Mountain Pass"/><tag k="addr:housenumber" v="8007"/><tag k="coa:place_id" v="105211"/></node><node id="-112" lat="30.420735" lon="-97.857782" changeset="false"><tag k="addr:street" v="Tahoe Parke Circle"/><tag k="addr:housenumber" v="8030"/><tag k="coa:place_id" v="224363"/></node><node id="-113" lat="30.417462" lon="-97.889931" changeset="false"><tag k="addr:street" v="Skyline Drive"/><tag k="addr:housenumber" v="13912"/><tag k="coa:place_id" v="182730"/></node><node id="-114" lat="30.417273" lon="-97.889461" changeset="false"><tag k="addr:street" v="Skyline Drive"/><tag k="addr:housenumber" v="13908"/><tag k="coa:place_id" v="182727"/></node><node id="-115" lat="30.417992" lon="-97.887806" changeset="false"><tag k="addr:street" v="Panorama Drive"/><tag k="addr:housenumber" v="13901"/><tag k="coa:place_id" v="182799"/></node><node id="-116" lat="30.412238" lon="-97.874753" changeset="false"><tag k="addr:street" v="Cielo Azul Pass"/><tag k="addr:housenumber" v="6916"/><tag k="coa:place_id" v="3180945"/></node><node id="-117" lat="30.412961" lon="-97.873889" changeset="false"><tag k="addr:street" v="Villa Montana Way"/><tag k="addr:housenumber" v="13237"/><tag k="coa:place_id" v="3181050"/></node><node id="-118" lat="30.401714" lon="-97.855298" changeset="false"><tag k="addr:street" v="Ranch Road 620"/><tag k="addr:housenumber" v="6906"/><tag k="coa:place_id" v="545138"/></node><node id="-119" lat="30.394916" lon="-97.867053" changeset="false"><tag k="addr:street" v="Ranch Road 620"/><tag k="addr:housenumber" v="5930"/><tag k="coa:place_id" v="3147580"/></node><node id="-120" lat="30.394681" lon="-97.867591" changeset="false"><tag k="addr:street" v="Ranch Road 620"/><tag k="addr:housenumber" v="5902"/><tag k="coa:place_id" v="1141109"/></node><node id="-121" lat="30.38894" lon="-97.894473" changeset="false"><tag k="addr:street" v="Mansfield Drive"/><tag k="addr:housenumber" v="13117"/><tag k="coa:place_id" v="1140589"/></node><node id="-122" lat="30.411313" lon="-97.875235" changeset="false"><tag k="addr:street" v="Oasis Pass"/><tag k="addr:housenumber" v="6717"/><tag k="coa:place_id" v="133681"/></node><node id="-123" lat="30.413896" lon="-97.893987" changeset="false"><tag k="addr:street" v="Comanche Trail"/><tag k="addr:housenumber" v="7102"/><tag k="coa:place_id" v="179382"/></node><node id="-124" lat="30.415621" lon="-97.89032" changeset="false"><tag k="addr:street" v="Comanche Trail"/><tag k="addr:housenumber" v="7063"/><tag k="coa:place_id" v="182321"/></node><node id="-125" lat="30.419974" lon="-97.896191" changeset="false"><tag k="addr:street" v="Comanche Trail"/><tag k="addr:housenumber" v="7218"/><tag k="coa:place_id" v="179244"/></node><node id="-126" lat="30.412787" lon="-97.878086" changeset="false"><tag k="addr:street" v="Lake View Drive"/><tag k="addr:housenumber" v="13110"/><tag k="coa:place_id" v="1164420"/></node><node id="-127" lat="30.413991" lon="-97.894227" changeset="false"><tag k="addr:street" v="Comanche Trail"/><tag k="addr:housenumber" v="7104"/><tag k="coa:place_id" v="179383"/></node><node id="-128" lat="30.392295" lon="-97.890101" changeset="false"><tag k="addr:street" v="Park Lane"/><tag k="addr:housenumber" v="4813"/><tag k="coa:place_id" v="1140672"/></node><node id="-129" lat="30.39161" lon="-97.884177" changeset="false"><tag k="addr:street" v="Mansfield View Court"/><tag k="addr:housenumber" v="5118"/><tag k="coa:place_id" v="1134369"/></node><node id="-130" lat="30.392854" lon="-97.8776" changeset="false"><tag k="addr:street" v="Cedar Street"/><tag k="addr:housenumber" v="12400"/><tag k="coa:place_id" v="189395"/></node><node id="-131" lat="30.411677" lon="-97.873688" changeset="false"><tag k="addr:street" v="Luna Montana South Way"/><tag k="addr:housenumber" v="12913"/><tag k="coa:place_id" v="3180964"/></node><node id="-132" lat="30.428304" lon="-97.844565" changeset="false"><tag k="addr:street" v="Terraza Circle"/><tag k="addr:housenumber" v="11829"/><tag k="coa:place_id" v="3318804"/></node><node id="-133" lat="30.392697" lon="-97.884781" changeset="false"><tag k="addr:street" v="Marshall Ford Road"/><tag k="addr:housenumber" v="5112"/><tag k="coa:place_id" v="1140666"/></node><node id="-134" lat="30.392497" lon="-97.890072" changeset="false"><tag k="addr:street" v="Park Lane"/><tag k="addr:housenumber" v="4815"/><tag k="coa:place_id" v="127841"/></node><node id="-135" lat="30.426108" lon="-97.85871" changeset="false"><tag k="addr:street" v="Verandah Court"/><tag k="addr:housenumber" v="12516"/><tag k="coa:place_id" v="3078451"/></node><node id="-136" lat="30.443852" lon="-97.836878" changeset="false"><tag k="addr:street" v="Buckner Road"/><tag k="addr:housenumber" v="11831"/><tag k="coa:place_id" v="3091461"/></node><node id="-137" lat="30.451299" lon="-97.841627" changeset="false"><tag k="addr:street" v="Painted Bunting Drive"/><tag k="addr:housenumber" v="12503"/><tag k="coa:place_id" v="113808"/></node><node id="-138" lat="30.449676" lon="-97.838172" changeset="false"><tag k="addr:street" v="Painted Bunting Drive"/><tag k="addr:housenumber" v="12300"/><tag k="coa:place_id" v="113791"/></node><node id="-139" lat="30.412667" lon="-97.87007" changeset="false"><tag k="addr:street" v="Villa Montana Way"/><tag k="addr:housenumber" v="13117"/><tag k="coa:place_id" v="3181086"/></node><node id="-140" lat="30.389981" lon="-97.892366" changeset="false"><tag k="addr:street" v="Travis View Loop"/><tag k="addr:housenumber" v="13116"/><tag k="coa:place_id" v="117270"/></node><node id="-141" lat="30.391063" lon="-97.892322" changeset="false"><tag k="addr:street" v="Travis View Loop"/><tag k="addr:housenumber" v="13106"/><tag k="coa:place_id" v="546380"/></node><node id="-142" lat="30.41871" lon="-97.859729" changeset="false"><tag k="addr:street" v="Wilson Parke Avenue"/><tag k="addr:housenumber" v="12206"/><tag k="coa:place_id" v="668080"/></node><node id="-143" lat="30.425544" lon="-97.858908" changeset="false"><tag k="addr:street" v="Verandah Court"/><tag k="addr:housenumber" v="12509"/><tag k="coa:place_id" v="3078443"/></node><node id="-144" lat="30.420497" lon="-97.8581" changeset="false"><tag k="addr:street" v="Klondike Rush Point"/><tag k="addr:housenumber" v="12306"/><tag k="coa:place_id" v="107424"/></node><node id="-145" lat="30.388988" lon="-97.892051" changeset="false"><tag k="addr:street" v="Mansfield Drive"/><tag k="addr:housenumber" v="13005"/><tag k="coa:place_id" v="175155"/></node><node id="-146" lat="30.416712" lon="-97.897778" changeset="false"><tag k="addr:street" v="Bob Wentz Park Road"/><tag k="addr:housenumber" v="6506"/><tag k="coa:place_id" v="221943"/></node><node id="-147" lat="30.394322" lon="-97.882753" changeset="false"><tag k="addr:street" v="Park Drive,1100"/><tag k="addr:housenumber" v="12872"/><tag k="coa:place_id" v="1140626"/></node><node id="-148" lat="30.393814" lon="-97.880471" changeset="false"><tag k="addr:street" v="Hughes Park Road"/><tag k="addr:housenumber" v="12841"/><tag k="coa:place_id" v="222390"/></node><node id="-149" lat="30.393669" lon="-97.884974" changeset="false"><tag k="addr:street" v="Thomas Street"/><tag k="addr:housenumber" v="12806"/><tag k="coa:place_id" v="95572"/></node><node id="-150" lat="30.415432" lon="-97.890181" changeset="false"><tag k="addr:street" v="Comanche Trail"/><tag k="addr:housenumber" v="7061"/><tag k="coa:place_id" v="182319"/></node><node id="-151" lat="30.415281" lon="-97.887757" changeset="false"><tag k="addr:street" v="Comanche Trail"/><tag k="addr:housenumber" v="7037"/><tag k="coa:place_id" v="139003"/></node><node id="-152" lat="30.412011" lon="-97.872926" changeset="false"><tag k="addr:street" v="Luna Montana South Way"/><tag k="addr:housenumber" v="12928"/><tag k="coa:place_id" v="3181009"/></node><node id="-153" lat="30.41818" lon="-97.886247" changeset="false"><tag k="addr:street" v="Panorama Drive"/><tag k="addr:housenumber" v="13803"/><tag k="coa:place_id" v="182785"/></node><node id="-154" lat="30.416867" lon="-97.890749" changeset="false"><tag k="addr:street" v="Lake View Drive"/><tag k="addr:housenumber" v="14000"/><tag k="coa:place_id" v="182411"/></node><node id="-155" lat="30.41431" lon="-97.889221" changeset="false"><tag k="addr:street" v="Comanche Trail"/><tag k="addr:housenumber" v="7052"/><tag k="coa:place_id" v="173101"/></node><node id="-156" lat="30.421536" lon="-97.859932" changeset="false"><tag k="addr:street" v="Laramie Parke Cove"/><tag k="addr:housenumber" v="12501"/><tag k="coa:place_id" v="635422"/></node><node id="-157" lat="30.417378" lon="-97.889679" changeset="false"><tag k="addr:street" v="Skyline Drive"/><tag k="addr:housenumber" v="13910"/><tag k="coa:place_id" v="182729"/></node><node id="-158" lat="30.428041" lon="-97.856163" changeset="false"><tag k="addr:street" v="Denali Parkway"/><tag k="addr:housenumber" v="8421"/><tag k="coa:place_id" v="3074259"/></node><node id="-159" lat="30.427016" lon="-97.856978" changeset="false"><tag k="addr:street" v="Denali Parkway"/><tag k="addr:housenumber" v="8317"/><tag k="coa:place_id" v="3078462"/></node><node id="-160" lat="30.445008" lon="-97.832784" changeset="false"><tag k="addr:street" v="Ranch Road 620"/><tag k="addr:housenumber" v="10600"/><tag k="coa:place_id" v="1161451"/></node><node id="-161" lat="30.390564" lon="-97.881305" changeset="false"><tag k="addr:street" v="Cedar Street"/><tag k="addr:housenumber" v="12515"/><tag k="coa:place_id" v="1140570"/></node><node id="-162" lat="30.390506" lon="-97.881569" changeset="false"><tag k="addr:street" v="Cedar Street"/><tag k="addr:housenumber" v="12601"/><tag k="coa:place_id" v="95436"/></node><node id="-163" lat="30.421307" lon="-97.859334" changeset="false"><tag k="addr:street" v="Waterton Parke Circle"/><tag k="addr:housenumber" v="12416"/><tag k="coa:place_id" v="636670"/></node><node id="-164" lat="30.419575" lon="-97.885759" changeset="false"><tag k="addr:street" v="Mountain Trail"/><tag k="addr:housenumber" v="7102"/><tag k="coa:place_id" v="182771"/></node><node id="-165" lat="30.419057" lon="-97.88623" changeset="false"><tag k="addr:street" v="Mountain Trail"/><tag k="addr:housenumber" v="7010"/><tag k="coa:place_id" v="182765"/></node><node id="-166" lat="30.418685" lon="-97.890029" changeset="false"><tag k="addr:street" v="Panorama Drive"/><tag k="addr:housenumber" v="14005"/><tag k="coa:place_id" v="134836"/></node><node id="-167" lat="30.422295" lon="-97.857427" changeset="false"><tag k="addr:street" v="Tahoe Parke Circle"/><tag k="addr:housenumber" v="8100"/><tag k="coa:place_id" v="224437"/></node><node id="-168" lat="30.422121" lon="-97.857923" changeset="false"><tag k="addr:street" v="Tahoe Parke Circle"/><tag k="addr:housenumber" v="8108"/><tag k="coa:place_id" v="224406"/></node><node id="-169" lat="30.428271" lon="-97.844498" changeset="false"><tag k="addr:street" v="Terraza Circle"/><tag k="addr:housenumber" v="11825"/><tag k="coa:place_id" v="3318803"/></node><node id="-170" lat="30.391711" lon="-97.889537" changeset="false"><tag k="addr:street" v="Lakeview Drive"/><tag k="addr:housenumber" v="4803"/><tag k="coa:place_id" v="95599"/></node><node id="-171" lat="30.422589" lon="-97.857219" changeset="false"><tag k="addr:street" v="Tahoe Parke Circle"/><tag k="addr:housenumber" v="8120"/><tag k="coa:place_id" v="224417"/></node><node id="-172" lat="30.3915" lon="-97.880667" changeset="false"><tag k="addr:street" v="Lyndon Drive"/><tag k="addr:housenumber" v="12501"/><tag k="coa:place_id" v="3291776"/></node><node id="-173" lat="30.428549" lon="-97.845042" changeset="false"><tag k="addr:street" v="Terraza Circle"/><tag k="addr:housenumber" v="11909"/><tag k="coa:place_id" v="3318809"/></node><node id="-174" lat="30.457406" lon="-97.834295" changeset="false"><tag k="addr:street" v="Anderson Mill Road,1100"/><tag k="addr:housenumber" v="12311"/><tag k="coa:place_id" v="3382720"/></node><node id="-175" lat="30.391594" lon="-97.889412" changeset="false"><tag k="addr:street" v="Lakeview Drive"/><tag k="addr:housenumber" v="4811"/><tag k="coa:place_id" v="95609"/></node><node id="-176" lat="30.427724" lon="-97.844503" changeset="false"><tag k="addr:street" v="Terraza Circle"/><tag k="addr:housenumber" v="12216"/><tag k="coa:place_id" v="3318872"/></node><node id="-177" lat="30.427725" lon="-97.843834" changeset="false"><tag k="addr:street" v="Terraza Circle"/><tag k="addr:housenumber" v="12312"/><tag k="coa:place_id" v="3318880"/></node><node id="-178" lat="30.449612" lon="-97.830608" changeset="false"><tag k="addr:street" v="Ranch Road 620"/><tag k="addr:housenumber" v="10910"/><tag k="coa:place_id" v="3432303"/></node><node id="-179" lat="30.407019" lon="-97.874536" changeset="false"><tag k="addr:street" v="Comanche Trail"/><tag k="addr:housenumber" v="6612"/><tag k="coa:place_id" v="3430949"/></node><node id="-180" lat="30.411985" lon="-97.877985" changeset="false"><tag k="addr:street" v="Lake View Drive"/><tag k="addr:housenumber" v="13109"/><tag k="coa:place_id" v="3308079"/></node><node id="-181" lat="30.430782" lon="-97.843436" changeset="false"><tag k="addr:street" v="Mira Vista Way"/><tag k="addr:housenumber" v="11804"/><tag k="coa:place_id" v="3318768"/></node><node id="-182" lat="30.430919" lon="-97.843826" changeset="false"><tag k="addr:street" v="Mira Vista Way"/><tag k="addr:housenumber" v="11812"/><tag k="coa:place_id" v="3318770"/></node><node id="-183" lat="30.430763" lon="-97.844819" changeset="false"><tag k="addr:street" v="Mira Vista Way"/><tag k="addr:housenumber" v="11904"/><tag k="coa:place_id" v="3318784"/></node><node id="-184" lat="30.428133" lon="-97.845314" changeset="false"><tag k="addr:street" v="Terraza Circle"/><tag k="addr:housenumber" v="12116"/><tag k="coa:place_id" v="3318845"/></node><node id="-185" lat="30.429415" lon="-97.84519" changeset="false"><tag k="addr:street" v="Mira Vista Way"/><tag k="addr:housenumber" v="12020"/><tag k="coa:place_id" v="3318792"/></node><node id="-186" lat="30.431655" lon="-97.84454" changeset="false"><tag k="addr:street" v="Villa Norte Drive"/><tag k="addr:housenumber" v="9205"/><tag k="coa:place_id" v="3318758"/></node><node id="-187" lat="30.429179" lon="-97.844849" changeset="false"><tag k="addr:street" v="Mira Vista Way"/><tag k="addr:housenumber" v="12028"/><tag k="coa:place_id" v="3318794"/></node><node id="-188" lat="30.429061" lon="-97.843572" changeset="false"><tag k="addr:street" v="Versante Circle"/><tag k="addr:housenumber" v="11900"/><tag k="coa:place_id" v="3318707"/></node><node id="-189" lat="30.429995" lon="-97.843845" changeset="false"><tag k="addr:street" v="Villa Norte Drive"/><tag k="addr:housenumber" v="8912"/><tag k="coa:place_id" v="3318730"/></node><node id="-190" lat="30.428611" lon="-97.84438" changeset="false"><tag k="addr:street" v="Versante Circle"/><tag k="addr:housenumber" v="12016"/><tag k="coa:place_id" v="3318716"/></node><node id="-191" lat="30.430777" lon="-97.842815" changeset="false"><tag k="addr:street" v="Villa Norte Drive"/><tag k="addr:housenumber" v="9009"/><tag k="coa:place_id" v="3318736"/></node><node id="-192" lat="30.435019" lon="-97.872027" changeset="false"><tag k="addr:street" v="Bullick Hollow Road"/><tag k="addr:housenumber" v="13601"/><tag k="coa:place_id" v="3516084"/></node><node id="-193" lat="30.3918" lon="-97.88105" changeset="false"><tag k="addr:street" v="Lyndon Drive"/><tag k="addr:housenumber" v="12601"/><tag k="coa:place_id" v="3313804"/></node><node id="-194" lat="30.428906" lon="-97.845807" changeset="false"><tag k="addr:street" v="Terraza Circle"/><tag k="addr:housenumber" v="12004"/><tag k="coa:place_id" v="3318821"/></node><node id="-195" lat="30.394396" lon="-97.885428" changeset="false"><tag k="addr:street" v="Park Drive,1100"/><tag k="addr:housenumber" v="12902"/><tag k="coa:place_id" v="1140623"/></node><node id="-196" lat="30.391682" lon="-97.878876" changeset="false"><tag k="addr:street" v="Cedar Street"/><tag k="addr:housenumber" v="12411"/><tag k="coa:place_id" v="962979"/></node><node id="-197" lat="30.416239" lon="-97.887986" changeset="false"><tag k="addr:street" v="Lake View Drive"/><tag k="addr:housenumber" v="13808"/><tag k="coa:place_id" v="3431228"/></node><node id="-198" lat="30.429865" lon="-97.844933" changeset="false"><tag k="addr:street" v="Mira Vista Way"/><tag k="addr:housenumber" v="12009"/><tag k="coa:place_id" v="3318795"/></node><node id="-199" lat="30.429648" lon="-97.844912" changeset="false"><tag k="addr:street" v="Mira Vista Way"/><tag k="addr:housenumber" v="12017"/><tag k="coa:place_id" v="3318796"/></node><node id="-200" lat="30.447986" lon="-97.836776" changeset="false"><tag k="addr:street" v="Windy Ridge Road"/><tag k="addr:housenumber" v="12105"/><tag k="coa:place_id" v="3147098"/></node><node id="-201" lat="30.393898" lon="-97.882777" changeset="false"><tag k="addr:street" v="Park Drive,1100"/><tag k="addr:housenumber" v="12871"/><tag k="coa:place_id" v="1140639"/></node><node id="-202" lat="30.393698" lon="-97.886773" changeset="false"><tag k="addr:street" v="Marshall Ford Road"/><tag k="addr:housenumber" v="5102"/><tag k="coa:place_id" v="1140644"/></node><node id="-203" lat="30.414494" lon="-97.893183" changeset="false"><tag k="addr:street" v="Comanche Trail"/><tag k="addr:housenumber" v="7095"/><tag k="coa:place_id" v="182346"/></node><node id="-204" lat="30.418917" lon="-97.898322" changeset="false"><tag k="addr:street" v="Ridgetop Terrace"/><tag k="addr:housenumber" v="14537"/><tag k="coa:place_id" v="182957"/></node><node id="-205" lat="30.430386" lon="-97.874211" changeset="false"><tag k="addr:street" v="Bullick Hollow Road"/><tag k="addr:housenumber" v="13505"/><tag k="coa:place_id" v="3054144"/></node><node id="-206" lat="30.426456" lon="-97.859289" changeset="false"><tag k="addr:street" v="Verandah Court"/><tag k="addr:housenumber" v="12525"/><tag k="coa:place_id" v="3078456"/></node><node id="-207" lat="30.426293" lon="-97.858014" changeset="false"><tag k="addr:street" v="Denali Parkway"/><tag k="addr:housenumber" v="8220"/><tag k="coa:place_id" v="3078458"/></node><node id="-208" lat="30.393343" lon="-97.887531" changeset="false"><tag k="addr:street" v="Lakeview Drive"/><tag k="addr:housenumber" v="5005"/><tag k="coa:place_id" v="95622"/></node><node id="-209" lat="30.450769" lon="-97.829931" changeset="false"><tag k="addr:street" v="Ranch Road 620"/><tag k="addr:housenumber" v="11200"/><tag k="coa:place_id" v="225504"/></node><node id="-210" lat="30.415942" lon="-97.888635" changeset="false"><tag k="addr:street" v="Lake View Drive"/><tag k="addr:housenumber" v="13814"/><tag k="coa:place_id" v="182404"/></node><node id="-211" lat="30.415527" lon="-97.891965" changeset="false"><tag k="addr:street" v="Comanche Trail"/><tag k="addr:housenumber" v="7079"/><tag k="coa:place_id" v="182330"/></node><node id="-212" lat="30.415454" lon="-97.893134" changeset="false"><tag k="addr:street" v="Lake View Drive"/><tag k="addr:housenumber" v="14024"/><tag k="coa:place_id" v="182422"/></node><node id="-213" lat="30.416246" lon="-97.892619" changeset="false"><tag k="addr:street" v="Lake View Drive"/><tag k="addr:housenumber" v="14016"/><tag k="coa:place_id" v="182417"/></node><node id="-214" lat="30.42211" lon="-97.861169" changeset="false"><tag k="addr:street" v="Davis Mountain Pass"/><tag k="addr:housenumber" v="8015"/><tag k="coa:place_id" v="699430"/></node><node id="-215" lat="30.420699" lon="-97.855743" changeset="false"><tag k="addr:street" v="Tahoe Parke Circle"/><tag k="addr:housenumber" v="8000"/><tag k="coa:place_id" v="224395"/></node><node id="-216" lat="30.417961" lon="-97.888039" changeset="false"><tag k="addr:street" v="Panorama Drive"/><tag k="addr:housenumber" v="13903"/><tag k="coa:place_id" v="182801"/></node><node id="-217" lat="30.392902" lon="-97.888188" changeset="false"><tag k="addr:street" v="Marshall Ford Road"/><tag k="addr:housenumber" v="5002"/><tag k="coa:place_id" v="95508"/></node><node id="-218" lat="30.392758" lon="-97.888385" changeset="false"><tag k="addr:street" v="Marshall Ford Road"/><tag k="addr:housenumber" v="5000"/><tag k="coa:place_id" v="546224"/></node><node id="-219" lat="30.443308" lon="-97.834384" changeset="false"><tag k="addr:street" v="Buckner Road"/><tag k="addr:housenumber" v="11815"/><tag k="coa:place_id" v="3091414"/></node><node id="-220" lat="30.393394" lon="-97.884274" changeset="false"><tag k="addr:street" v="Thomas Street"/><tag k="addr:housenumber" v="12803"/><tag k="coa:place_id" v="95579"/></node><node id="-221" lat="30.424292" lon="-97.858666" changeset="false"><tag k="addr:street" v="Alberta Ridge Trail"/><tag k="addr:housenumber" v="12509"/><tag k="coa:place_id" v="3077875"/></node><node id="-222" lat="30.418093" lon="-97.888569" changeset="false"><tag k="addr:street" v="Panorama Drive"/><tag k="addr:housenumber" v="13907"/><tag k="coa:place_id" v="1140712"/></node><node id="-223" lat="30.425192" lon="-97.845118" changeset="false"><tag k="addr:street" v="Ranch Road 620"/><tag k="addr:housenumber" v="8600"/><tag k="coa:place_id" v="1113347"/></node><node id="-224" lat="30.422893" lon="-97.862275" changeset="false"><tag k="addr:street" v="Castle Peak Trail"/><tag k="addr:housenumber" v="8001"/><tag k="coa:place_id" v="105137"/></node><node id="-225" lat="30.422545" lon="-97.855102" changeset="false"><tag k="addr:street" v="Tahoe Parke Circle"/><tag k="addr:housenumber" v="8152"/><tag k="coa:place_id" v="224431"/></node><node id="-226" lat="30.393191" lon="-97.884699" changeset="false"><tag k="addr:street" v="Thomas Street"/><tag k="addr:housenumber" v="12807"/><tag k="coa:place_id" v="545990"/></node><node id="-227" lat="30.412056" lon="-97.873324" changeset="false"><tag k="addr:street" v="Luna Montana South Way"/><tag k="addr:housenumber" v="12920"/><tag k="coa:place_id" v="3181007"/></node><node id="-228" lat="30.41606" lon="-97.892733" changeset="false"><tag k="addr:street" v="Lake View Drive"/><tag k="addr:housenumber" v="14018"/><tag k="coa:place_id" v="182418"/></node><node id="-229" lat="30.414911" lon="-97.889785" changeset="false"><tag k="addr:street" v="Comanche Trail"/><tag k="addr:housenumber" v="7055"/><tag k="coa:place_id" v="182315"/></node><node id="-230" lat="30.422329" lon="-97.857695" changeset="false"><tag k="addr:street" v="Tahoe Parke Circle"/><tag k="addr:housenumber" v="8112"/><tag k="coa:place_id" v="224411"/></node><node id="-231" lat="30.419116" lon="-97.856655" changeset="false"><tag k="addr:street" v="Mead Parke Cove"/><tag k="addr:housenumber" v="8007"/><tag k="coa:place_id" v="107399"/></node><node id="-232" lat="30.418454" lon="-97.88964" changeset="false"><tag k="addr:street" v="Panorama Drive"/><tag k="addr:housenumber" v="14001"/><tag k="coa:place_id" v="182808"/></node><node id="-233" lat="30.413307" lon="-97.875093" changeset="false"><tag k="addr:street" v="Cielo Azul Pass"/><tag k="addr:housenumber" v="7020"/><tag k="coa:place_id" v="3181295"/></node><node id="-234" lat="30.412795" lon="-97.877334" changeset="false"><tag k="addr:street" v="Comanche Trail"/><tag k="addr:housenumber" v="6904"/><tag k="coa:place_id" v="1164418"/></node><node id="-235" lat="30.412207" lon="-97.877109" changeset="false"><tag k="addr:street" v="Comanche Trail"/><tag k="addr:housenumber" v="6812"/><tag k="coa:place_id" v="1164423"/></node><node id="-236" lat="30.394967" lon="-97.880655" changeset="false"><tag k="addr:street" v="Hughes Park Road"/><tag k="addr:housenumber" v="12842"/><tag k="coa:place_id" v="221739"/></node><node id="-237" lat="30.400448" lon="-97.856266" changeset="false"><tag k="addr:street" v="Ranch Road 620"/><tag k="addr:housenumber" v="6712"/><tag k="coa:place_id" v="1141108"/></node><node id="-238" lat="30.428148" lon="-97.844249" changeset="false"><tag k="addr:street" v="Terraza Circle"/><tag k="addr:housenumber" v="11813"/><tag k="coa:place_id" v="3318801"/></node><node id="-239" lat="30.391441" lon="-97.88446" changeset="false"><tag k="addr:street" v="Marshall Ford Road"/><tag k="addr:housenumber" v="5120"/><tag k="coa:place_id" v="1140695"/></node><node id="-240" lat="30.412906" lon="-97.873502" changeset="false"><tag k="addr:street" v="Villa Montana Way"/><tag k="addr:housenumber" v="13229"/><tag k="coa:place_id" v="3181048"/></node><node id="-241" lat="30.392408" lon="-97.880574" changeset="false"><tag k="addr:street" v="Lyndon Drive"/><tag k="addr:housenumber" v="12504"/><tag k="coa:place_id" v="95465"/></node><node id="-242" lat="30.392301" lon="-97.882462" changeset="false"><tag k="addr:street" v="Lyndon Drive"/><tag k="addr:housenumber" v="12606"/><tag k="coa:place_id" v="95467"/></node><node id="-243" lat="30.415378" lon="-97.892175" changeset="false"><tag k="addr:street" v="Comanche Trail"/><tag k="addr:housenumber" v="7083"/><tag k="coa:place_id" v="182338"/></node><node id="-244" lat="30.455026" lon="-97.826858" changeset="false"><tag k="addr:street" v="Ranch Road 620"/><tag k="addr:housenumber" v="11518 1/2"/><tag k="coa:place_id" v="3087225"/></node><node id="-245" lat="30.415031" lon="-97.888185" changeset="false"><tag k="addr:street" v="Comanche Trail"/><tag k="addr:housenumber" v="7041"/><tag k="coa:place_id" v="139001"/></node><node id="-246" lat="30.413185" lon="-97.873222" changeset="false"><tag k="addr:street" v="Luna Montana South Way"/><tag k="addr:housenumber" v="13108"/><tag k="coa:place_id" v="3181101"/></node><node id="-247" lat="30.451356" lon="-97.840404" changeset="false"><tag k="addr:street" v="Painted Bunting Drive"/><tag k="addr:housenumber" v="12422"/><tag k="coa:place_id" v="113785"/></node><node id="-248" lat="30.417571" lon="-97.900713" changeset="false"><tag k="addr:street" v="Ridgetop Terrace"/><tag k="addr:housenumber" v="14509"/><tag k="coa:place_id" v="3119356"/></node><node id="-249" lat="30.391206" lon="-97.879889" changeset="false"><tag k="addr:street" v="Cedar Street"/><tag k="addr:housenumber" v="12505"/><tag k="coa:place_id" v="1140698"/></node><node id="-250" lat="30.391124" lon="-97.882474" changeset="false"><tag k="addr:street" v="Lyndon Drive"/><tag k="addr:housenumber" v="12615"/><tag k="coa:place_id" v="1140701"/></node><node id="-251" lat="30.412378" lon="-97.874665" changeset="false"><tag k="addr:street" v="Cielo Azul Pass"/><tag k="addr:housenumber" v="6924"/><tag k="coa:place_id" v="3181098"/></node><node id="-252" lat="30.412936" lon="-97.87368" changeset="false"><tag k="addr:street" v="Villa Montana Way"/><tag k="addr:housenumber" v="13233"/><tag k="coa:place_id" v="3181049"/></node><node id="-253" lat="30.439264" lon="-97.836968" changeset="false"><tag k="addr:street" v="Ranch Road 620"/><tag k="addr:housenumber" v="9900 1/2"/><tag k="coa:place_id" v="3072983"/></node><node id="-254" lat="30.425557" lon="-97.857596" changeset="false"><tag k="addr:street" v="Denali Parkway"/><tag k="addr:housenumber" v="8211"/><tag k="coa:place_id" v="3078447"/></node><node id="-255" lat="30.419943" lon="-97.884914" changeset="false"><tag k="addr:street" v="Mountain Trail"/><tag k="addr:housenumber" v="7200"/><tag k="coa:place_id" v="213204"/></node><node id="-256" lat="30.419436" lon="-97.896266" changeset="false"><tag k="addr:street" v="Comanche Trail"/><tag k="addr:housenumber" v="7210"/><tag k="coa:place_id" v="179243"/></node><node id="-257" lat="30.422465" lon="-97.85748" changeset="false"><tag k="addr:street" v="Tahoe Parke Circle"/><tag k="addr:housenumber" v="8116"/><tag k="coa:place_id" v="224413"/></node><node id="-258" lat="30.422527" lon="-97.862488" changeset="false"><tag k="addr:street" v="Davis Mountain Pass"/><tag k="addr:housenumber" v="8000"/><tag k="coa:place_id" v="105179"/></node><node id="-259" lat="30.395235" lon="-97.883964" changeset="false"><tag k="addr:street" v="Park Drive,1100"/><tag k="addr:housenumber" v="12888"/><tag k="coa:place_id" v="1140609"/></node><node id="-260" lat="30.416872" lon="-97.89988" changeset="false"><tag k="addr:street" v="Ridgetop Terrace"/><tag k="addr:housenumber" v="14503"/><tag k="coa:place_id" v="3119325"/></node><node id="-261" lat="30.415832" lon="-97.887733" changeset="false"><tag k="addr:street" v="Lake View Drive"/><tag k="addr:housenumber" v="13805"/><tag k="coa:place_id" v="182359"/></node><node id="-262" lat="30.41527" lon="-97.891535" changeset="false"><tag k="addr:street" v="Comanche Trail"/><tag k="addr:housenumber" v="7080"/><tag k="coa:place_id" v="3142390"/></node><node id="-263" lat="30.416692" lon="-97.891981" changeset="false"><tag k="addr:street" v="Lake View Drive"/><tag k="addr:housenumber" v="14010"/><tag k="coa:place_id" v="182415"/></node><node id="-264" lat="30.414057" lon="-97.854754" changeset="false"><tag k="addr:street" v="Vista Parke Drive"/><tag k="addr:housenumber" v="12001"/><tag k="coa:place_id" v="202742"/></node><node id="-265" lat="30.418445" lon="-97.887851" changeset="false"><tag k="addr:street" v="Panorama Drive"/><tag k="addr:housenumber" v="13900"/><tag k="coa:place_id" v="182797"/></node><node id="-266" lat="30.414429" lon="-97.889917" changeset="false"><tag k="addr:street" v="Comanche Trail"/><tag k="addr:housenumber" v="7058"/><tag k="coa:place_id" v="179365"/></node><node id="-267" lat="30.421583" lon="-97.86339" changeset="false"><tag k="addr:street" v="Wilson Parke Avenue"/><tag k="addr:housenumber" v="12701"/><tag k="coa:place_id" v="3068152"/></node><node id="-268" lat="30.421989" lon="-97.862409" changeset="false"><tag k="addr:street" v="Davis Mountain Pass"/><tag k="addr:housenumber" v="8005"/><tag k="coa:place_id" v="105210"/></node><node id="-269" lat="30.414808" lon="-97.892903" changeset="false"><tag k="addr:street" v="Comanche Trail"/><tag k="addr:housenumber" v="7091"/><tag k="coa:place_id" v="182341"/></node><node id="-270" lat="30.408462" lon="-97.859624" changeset="false"><tag k="addr:street" v="Bullick Hollow Road"/><tag k="addr:housenumber" v="12004"/><tag k="coa:place_id" v="3200581"/></node><node id="-271" lat="30.414887" lon="-97.893497" changeset="false"><tag k="addr:street" v="Lake View Drive"/><tag k="addr:housenumber" v="14030"/><tag k="coa:place_id" v="182425"/></node><node id="-272" lat="30.428993" lon="-97.843906" changeset="false"><tag k="addr:street" v="Versante Circle"/><tag k="addr:housenumber" v="11901"/><tag k="coa:place_id" v="3353106"/></node><node id="-273" lat="30.417407" lon="-97.885873" changeset="false"><tag k="addr:street" v="Mountain Trail"/><tag k="addr:housenumber" v="6911"/><tag k="coa:place_id" v="3425954"/></node><node id="-274" lat="30.438384" lon="-97.867951" changeset="false"><tag k="addr:street" v="Farm-to-Market Road 2769"/><tag k="addr:housenumber" v="13635"/><tag k="coa:place_id" v="3292273"/></node><node id="-275" lat="30.430423" lon="-97.844124" changeset="false"><tag k="addr:street" v="Villa Norte Drive"/><tag k="addr:housenumber" v="9304"/><tag k="coa:place_id" v="3318779"/></node><node id="-276" lat="30.428032" lon="-97.844549" changeset="false"><tag k="addr:street" v="Terraza Circle"/><tag k="addr:housenumber" v="12213"/><tag k="coa:place_id" v="3318853"/></node><node id="-277" lat="30.428181" lon="-97.845442" changeset="false"><tag k="addr:street" v="Terraza Circle"/><tag k="addr:housenumber" v="12112"/><tag k="coa:place_id" v="3318844"/></node><node id="-278" lat="30.428094" lon="-97.845226" changeset="false"><tag k="addr:street" v="Terraza Circle"/><tag k="addr:housenumber" v="12120"/><tag k="coa:place_id" v="3318846"/></node><node id="-279" lat="30.427927" lon="-97.844911" changeset="false"><tag k="addr:street" v="Terraza Circle"/><tag k="addr:housenumber" v="12200"/><tag k="coa:place_id" v="3318868"/></node><node id="-280" lat="30.429138" lon="-97.845687" changeset="false"><tag k="addr:street" v="Terraza Circle"/><tag k="addr:housenumber" v="12000"/><tag k="coa:place_id" v="3318820"/></node><node id="-281" lat="30.426576" lon="-97.844005" changeset="false"><tag k="addr:street" v="Ranch Road 620"/><tag k="addr:housenumber" v="8610"/><tag k="coa:place_id" v="5072301"/></node><node id="-282" lat="30.428868" lon="-97.845043" changeset="false"><tag k="addr:street" v="Terraza Circle"/><tag k="addr:housenumber" v="11916"/><tag k="coa:place_id" v="3318816"/></node><node id="-283" lat="30.393099" lon="-97.888417" changeset="false"><tag k="addr:street" v="Lakeview Drive"/><tag k="addr:housenumber" v="5003"/><tag k="coa:place_id" v="95621"/></node><node id="-284" lat="30.430642" lon="-97.842909" changeset="false"><tag k="addr:street" v="Villa Norte Drive"/><tag k="addr:housenumber" v="9005"/><tag k="coa:place_id" v="3318735"/></node><node id="-285" lat="30.417517" lon="-97.890178" changeset="false"><tag k="addr:street" v="Skyline Drive"/><tag k="addr:housenumber" v="14000"/><tag k="coa:place_id" v="182731"/></node><node id="-286" lat="30.412152" lon="-97.870311" changeset="false"><tag k="addr:street" v="Villa Montana Way"/><tag k="addr:housenumber" v="13109"/><tag k="coa:place_id" v="3430462"/></node><node id="-287" lat="30.430295" lon="-97.845124" changeset="false"><tag k="addr:street" v="Mira Vista Way"/><tag k="addr:housenumber" v="12000"/><tag k="coa:place_id" v="3318787"/></node><node id="-288" lat="30.429573" lon="-97.845297" changeset="false"><tag k="addr:street" v="Mira Vista Way"/><tag k="addr:housenumber" v="12016"/><tag k="coa:place_id" v="3318791"/></node><node id="-289" lat="30.421913" lon="-97.847247" changeset="false"><tag k="addr:street" v="Ranch Road 620"/><tag k="addr:housenumber" v="8300"/><tag k="coa:place_id" v="3393344"/></node><node id="-290" lat="30.430006" lon="-97.844494" changeset="false"><tag k="addr:street" v="Villa Norte Drive"/><tag k="addr:housenumber" v="9316"/><tag k="coa:place_id" v="3318782"/></node><node id="-291" lat="30.457845" lon="-97.835987" changeset="false"><tag k="addr:street" v="Anderson Mill Road,1100"/><tag k="addr:housenumber" v="12419"/><tag k="coa:place_id" v="5109260"/></node><node id="-292" lat="30.448596" lon="-97.840531" changeset="false"><tag k="addr:street" v="Hanging Valley Drive"/><tag k="addr:housenumber" v="12310"/><tag k="coa:place_id" v="227186"/></node><node id="-293" lat="30.394778" lon="-97.883148" changeset="false"><tag k="addr:street" v="Park Drive,1100"/><tag k="addr:housenumber" v="12878"/><tag k="coa:place_id" v="1140613"/></node><node id="-294" lat="30.393953" lon="-97.884316" changeset="false"><tag k="addr:street" v="Thomas Street"/><tag k="addr:housenumber" v="12800"/><tag k="coa:place_id" v="546014"/></node><node id="-295" lat="30.393697" lon="-97.883661" changeset="false"><tag k="addr:street" v="Cedar Street"/><tag k="addr:housenumber" v="12802"/><tag k="coa:place_id" v="546026"/></node><node id="-296" lat="30.418054" lon="-97.899414" changeset="false"><tag k="addr:street" v="Ridgetop Terrace"/><tag k="addr:housenumber" v="14522"/><tag k="coa:place_id" v="3119376"/></node><node id="-297" lat="30.393696" lon="-97.887408" changeset="false"><tag k="addr:street" v="Lakeview Drive"/><tag k="addr:housenumber" v="5018"/><tag k="coa:place_id" v="95647"/></node><node id="-298" lat="30.418019" lon="-97.88832" changeset="false"><tag k="addr:street" v="Panorama Drive"/><tag k="addr:housenumber" v="13905"/><tag k="coa:place_id" v="182803"/></node><node id="-299" lat="30.426209" lon="-97.859253" changeset="false"><tag k="addr:street" v="Verandah Court"/><tag k="addr:housenumber" v="12521"/><tag k="coa:place_id" v="3078454"/></node><node id="-300" lat="30.442342" lon="-97.834535" changeset="false"><tag k="addr:street" v="Ranch Road 620"/><tag k="addr:housenumber" v="10208"/><tag k="coa:place_id" v="3126957"/></node><node id="-301" lat="30.45216" lon="-97.840406" changeset="false"><tag k="addr:street" v="Painted Bunting Drive"/><tag k="addr:housenumber" v="12506"/><tag k="coa:place_id" v="113784"/></node><node id="-302" lat="30.451637" lon="-97.850828" changeset="false"><tag k="addr:street" v="Farm-to-Market Road 2769"/><tag k="addr:housenumber" v="13133"/><tag k="coa:place_id" v="71953"/></node><node id="-303" lat="30.417497" lon="-97.89169" changeset="false"><tag k="addr:street" v="Skyline Drive"/><tag k="addr:housenumber" v="14012"/><tag k="coa:place_id" v="182742"/></node><node id="-304" lat="30.415997" lon="-97.890599" changeset="false"><tag k="addr:street" v="Comanche Trail"/><tag k="addr:housenumber" v="7067"/><tag k="coa:place_id" v="182323"/></node><node id="-305" lat="30.391749" lon="-97.895945" changeset="false"><tag k="addr:street" v="Mansfield Drive"/><tag k="addr:housenumber" v="13308"/><tag k="coa:place_id" v="173199"/></node><node id="-306" lat="30.414616" lon="-97.890076" changeset="false"><tag k="addr:street" v="Comanche Trail"/><tag k="addr:housenumber" v="7060"/><tag k="coa:place_id" v="179369"/></node><node id="-307" lat="30.421985" lon="-97.858133" changeset="false"><tag k="addr:street" v="Tahoe Parke Circle"/><tag k="addr:housenumber" v="8104"/><tag k="coa:place_id" v="224405"/></node><node id="-308" lat="30.420757" lon="-97.861216" changeset="false"><tag k="addr:street" v="Waterton Parke Cove"/><tag k="addr:housenumber" v="12404"/><tag k="coa:place_id" v="662038"/></node><node id="-309" lat="30.422285" lon="-97.85493" changeset="false"><tag k="addr:street" v="Tahoe Parke Circle"/><tag k="addr:housenumber" v="8156"/><tag k="coa:place_id" v="224434"/></node><node id="-310" lat="30.413873" lon="-97.893739" changeset="false"><tag k="addr:street" v="Comanche Trail"/><tag k="addr:housenumber" v="7100"/><tag k="coa:place_id" v="179381"/></node><node id="-311" lat="30.412836" lon="-97.873242" changeset="false"><tag k="addr:street" v="Villa Montana Way"/><tag k="addr:housenumber" v="13225"/><tag k="coa:place_id" v="3181046"/></node><node id="-312" lat="30.413059" lon="-97.872026" changeset="false"><tag k="addr:street" v="Luna Montana South Way"/><tag k="addr:housenumber" v="13033"/><tag k="coa:place_id" v="3181092"/></node><node id="-313" lat="30.4133" lon="-97.874024" changeset="false"><tag k="addr:street" v="Luna Montana South Way"/><tag k="addr:housenumber" v="13124"/><tag k="coa:place_id" v="3181105"/></node><node id="-314" lat="30.390967" lon="-97.882504" changeset="false"><tag k="addr:street" v="Cedar Street"/><tag k="addr:housenumber" v="12606"/><tag k="coa:place_id" v="95424"/></node><node id="-315" lat="30.39343" lon="-97.886001" changeset="false"><tag k="addr:street" v="Marshall Ford Road"/><tag k="addr:housenumber" v="5106"/><tag k="coa:place_id" v="428391"/></node><node id="-316" lat="30.415303" lon="-97.892375" changeset="false"><tag k="addr:street" v="Comanche Trail"/><tag k="addr:housenumber" v="7085"/><tag k="coa:place_id" v="182339"/></node><node id="-317" lat="30.420952" lon="-97.860464" changeset="false"><tag k="addr:street" v="Waterton Parke Circle"/><tag k="addr:housenumber" v="12409"/><tag k="coa:place_id" v="686674"/></node><node id="-318" lat="30.440576" lon="-97.868024" changeset="false"><tag k="addr:street" v="Farm-to-Market Road 2769"/><tag k="addr:housenumber" v="13625"/><tag k="coa:place_id" v="170976"/></node><node id="-319" lat="30.418382" lon="-97.888354" changeset="false"><tag k="addr:street" v="Panorama Drive"/><tag k="addr:housenumber" v="13904"/><tag k="coa:place_id" v="182802"/></node><node id="-320" lat="30.414312" lon="-97.889747" changeset="false"><tag k="addr:street" v="Comanche Trail"/><tag k="addr:housenumber" v="7056"/><tag k="coa:place_id" v="179364"/></node><node id="-321" lat="30.414359" lon="-97.892823" changeset="false"><tag k="addr:street" v="Comanche Trail"/><tag k="addr:housenumber" v="7092"/><tag k="coa:place_id" v="179376"/></node><node id="-322" lat="30.41233" lon="-97.872897" changeset="false"><tag k="addr:street" v="Villa Montana Way"/><tag k="addr:housenumber" v="13216"/><tag k="coa:place_id" v="3181026"/></node><node id="-323" lat="30.423178" lon="-97.862925" changeset="false"><tag k="addr:street" v="Cloud Mountain Crossing"/><tag k="addr:housenumber" v="12705"/><tag k="coa:place_id" v="223626"/></node><node id="-324" lat="30.418435" lon="-97.898201" changeset="false"><tag k="addr:street" v="Ridgetop Terrace"/><tag k="addr:housenumber" v="14541"/><tag k="coa:place_id" v="182955"/></node><node id="-325" lat="30.458418" lon="-97.836555" changeset="false"><tag k="addr:street" v="Anderson Mill Road,1100"/><tag k="addr:housenumber" v="12429"/><tag k="coa:place_id" v="3182361"/></node><node id="-326" lat="30.415244" lon="-97.890042" changeset="false"><tag k="addr:street" v="Comanche Trail"/><tag k="addr:housenumber" v="7059"/><tag k="coa:place_id" v="182317"/></node><node id="-327" lat="30.419317" lon="-97.858549" changeset="false"><tag k="addr:street" v="Canyon Parke Court"/><tag k="addr:housenumber" v="8007"/><tag k="coa:place_id" v="102851"/></node><node id="-328" lat="30.392143" lon="-97.890187" changeset="false"><tag k="addr:street" v="Park Lane"/><tag k="addr:housenumber" v="4811"/><tag k="coa:place_id" v="1140676"/></node><node id="-329" lat="30.391846" lon="-97.890998" changeset="false"><tag k="addr:street" v="Park Lane"/><tag k="addr:housenumber" v="4806"/><tag k="coa:place_id" v="146241"/></node><node id="-330" lat="30.422837" lon="-97.861082" changeset="false"><tag k="addr:street" v="Davis Mountain Pass"/><tag k="addr:housenumber" v="8016"/><tag k="coa:place_id" v="105193"/></node><node id="-331" lat="30.420019" lon="-97.860286" changeset="false"><tag k="addr:street" v="Weldon Springs Court"/><tag k="addr:housenumber" v="8004"/><tag k="coa:place_id" v="102840"/></node><node id="-332" lat="30.421187" lon="-97.861649" changeset="false"><tag k="addr:street" v="Davis Mountain Cove"/><tag k="addr:housenumber" v="8000"/><tag k="coa:place_id" v="105163"/></node><node id="-333" lat="30.419186" lon="-97.885156" changeset="false"><tag k="addr:street" v="Mountain Trail"/><tag k="addr:housenumber" v="7101"/><tag k="coa:place_id" v="182772"/></node><node id="-334" lat="30.414806" lon="-97.888627" changeset="false"><tag k="addr:street" v="Comanche Trail"/><tag k="addr:housenumber" v="7045"/><tag k="coa:place_id" v="138996"/></node><node id="-335" lat="30.392569" lon="-97.883672" changeset="false"><tag k="addr:street" v="Cedar Street"/><tag k="addr:housenumber" v="12711"/><tag k="coa:place_id" v="546050"/></node><node id="-336" lat="30.397091" lon="-97.859263" changeset="false"><tag k="addr:street" v="Ranch Road 620"/><tag k="addr:housenumber" v="6550 1/2"/><tag k="coa:place_id" v="1161330"/></node><node id="-337" lat="30.413759" lon="-97.873376" changeset="false"><tag k="addr:street" v="Luna Montana South Way"/><tag k="addr:housenumber" v="13117"/><tag k="coa:place_id" v="3181109"/></node><node id="-338" lat="30.411636" lon="-97.873468" changeset="false"><tag k="addr:street" v="Luna Montana South Way"/><tag k="addr:housenumber" v="12917"/><tag k="coa:place_id" v="3180965"/></node><node id="-339" lat="30.430531" lon="-97.873546" changeset="false"><tag k="addr:street" v="Bullick Hollow Road"/><tag k="addr:housenumber" v="13508"/><tag k="coa:place_id" v="3183223"/></node><node id="-340" lat="30.444566" lon="-97.838153" changeset="false"><tag k="addr:street" v="Buckner Road"/><tag k="addr:housenumber" v="11921"/><tag k="coa:place_id" v="3049966"/></node><node id="-341" lat="30.412801" lon="-97.872952" changeset="false"><tag k="addr:street" v="Villa Montana Way"/><tag k="addr:housenumber" v="13217"/><tag k="coa:place_id" v="3181045"/></node><node id="-342" lat="30.389504" lon="-97.894625" changeset="false"><tag k="addr:street" v="Mansfield Drive"/><tag k="addr:housenumber" v="13203"/><tag k="coa:place_id" v="1140585"/></node><node id="-343" lat="30.394472" lon="-97.883131" changeset="false"><tag k="addr:street" v="Park Drive,1100"/><tag k="addr:housenumber" v="12877"/><tag k="coa:place_id" v="1140624"/></node><node id="-344" lat="30.393892" lon="-97.883782" changeset="false"><tag k="addr:street" v="Cedar Street"/><tag k="addr:housenumber" v="12804"/><tag k="coa:place_id" v="95430"/></node><node id="-345" lat="30.428331" lon="-97.844635" changeset="false"><tag k="addr:street" v="Terraza Circle"/><tag k="addr:housenumber" v="11833"/><tag k="coa:place_id" v="3318805"/></node><node id="-346" lat="30.428481" lon="-97.844901" changeset="false"><tag k="addr:street" v="Terraza Circle"/><tag k="addr:housenumber" v="11901"/><tag k="coa:place_id" v="3318807"/></node><node id="-347" lat="30.388774" lon="-97.892509" changeset="false"><tag k="addr:street" v="Mansfield Drive"/><tag k="addr:housenumber" v="13103"/><tag k="coa:place_id" v="156549"/></node><node id="-348" lat="30.427758" lon="-97.856876" changeset="false"><tag k="addr:street" v="Denali Parkway"/><tag k="addr:housenumber" v="8412"/><tag k="coa:place_id" v="3078466"/></node><node id="-349" lat="30.453713" lon="-97.828444" changeset="false"><tag k="addr:street" v="Ranch Road 620"/><tag k="addr:housenumber" v="11416"/><tag k="coa:place_id" v="3134924"/></node><node id="-350" lat="30.428084" lon="-97.844117" changeset="false"><tag k="addr:street" v="Terraza Circle"/><tag k="addr:housenumber" v="11805"/><tag k="coa:place_id" v="3318799"/></node><node id="-351" lat="30.412494" lon="-97.877475" changeset="false"><tag k="addr:street" v="Lake View Drive"/><tag k="addr:housenumber" v="13104"/><tag k="coa:place_id" v="1164419"/></node><node id="-352" lat="30.451681" lon="-97.833427" changeset="false"><tag k="addr:street" v="Windy Ridge Road"/><tag k="addr:housenumber" v="12176"/><tag k="coa:place_id" v="3029756"/></node><node id="-353" lat="30.417873" lon="-97.898911" changeset="false"><tag k="addr:street" v="Ridgetop Terrace"/><tag k="addr:housenumber" v="14540"/><tag k="coa:place_id" v="3050229"/></node><node id="-354" lat="30.410128" lon="-97.873291" changeset="false"><tag k="addr:street" v="Villa Montana Way"/><tag k="addr:housenumber" v="12801 1/2"/><tag k="coa:place_id" v="3224419"/></node><node id="-355" lat="30.413103" lon="-97.874587" changeset="false"><tag k="addr:street" v="Cielo Azul Pass"/><tag k="addr:housenumber" v="7008"/><tag k="coa:place_id" v="3357576"/></node><node id="-356" lat="30.455929" lon="-97.829468" changeset="false"><tag k="addr:street" v="Anderson Mill Road,1100"/><tag k="addr:housenumber" v="12001"/><tag k="coa:place_id" v="3283565"/></node><node id="-357" lat="30.415658" lon="-97.875465" changeset="false"><tag k="addr:street" v="Cielo Azul Pass"/><tag k="addr:housenumber" v="7208"/><tag k="coa:place_id" v="3321566"/></node><node id="-358" lat="30.427853" lon="-97.844168" changeset="false"><tag k="addr:street" v="Terraza Circle"/><tag k="addr:housenumber" v="12229"/><tag k="coa:place_id" v="3318857"/></node><node id="-359" lat="30.427898" lon="-97.844843" changeset="false"><tag k="addr:street" v="Terraza Circle"/><tag k="addr:housenumber" v="12204"/><tag k="coa:place_id" v="3318869"/></node><node id="-360" lat="30.427573" lon="-97.844198" changeset="false"><tag k="addr:street" v="Terraza Circle"/><tag k="addr:housenumber" v="12228"/><tag k="coa:place_id" v="3318875"/></node><node id="-361" lat="30.427942" lon="-97.843768" changeset="false"><tag k="addr:street" v="Terraza Circle"/><tag k="addr:housenumber" v="12320"/><tag k="coa:place_id" v="3318882"/></node><node id="-362" lat="30.429987" lon="-97.844746" changeset="false"><tag k="addr:street" v="Villa Norte Drive"/><tag k="addr:housenumber" v="9320"/><tag k="coa:place_id" v="3318783"/></node><node id="-363" lat="30.412091" lon="-97.877597" changeset="false"><tag k="addr:street" v="Lake View Drive"/><tag k="addr:housenumber" v="13105"/><tag k="coa:place_id" v="3308078"/></node><node id="-364" lat="30.392257" lon="-97.879022" changeset="false"><tag k="addr:street" v="Cedar Street"/><tag k="addr:housenumber" v="12408"/><tag k="coa:place_id" v="170721"/></node><node id="-365" lat="30.430937" lon="-97.84466" changeset="false"><tag k="addr:street" v="Villa Norte Drive"/><tag k="addr:housenumber" v="9221"/><tag k="coa:place_id" v="3318762"/></node><node id="-366" lat="30.43061" lon="-97.844106" changeset="false"><tag k="addr:street" v="Villa Norte Drive"/><tag k="addr:housenumber" v="9300"/><tag k="coa:place_id" v="3318778"/></node><node id="-367" lat="30.430245" lon="-97.844177" changeset="false"><tag k="addr:street" v="Villa Norte Drive"/><tag k="addr:housenumber" v="9308"/><tag k="coa:place_id" v="3318780"/></node><node id="-368" lat="30.42814" lon="-97.844762" changeset="false"><tag k="addr:street" v="Terraza Circle"/><tag k="addr:housenumber" v="12201"/><tag k="coa:place_id" v="3318850"/></node><node id="-369" lat="30.398085" lon="-97.876882" changeset="false"><tag k="addr:street" v="Hughes Park Road"/><tag k="addr:housenumber" v="12751"/><tag k="coa:place_id" v="3339075"/></node><node id="-370" lat="30.417193" lon="-97.887974" changeset="false"><tag k="addr:street" v="Mountain Trail"/><tag k="addr:housenumber" v="6713"/><tag k="coa:place_id" v="3504854"/></node><node id="-371" lat="30.432408" lon="-97.841842" changeset="false"><tag k="addr:street" v="Ranch Road 620"/><tag k="addr:housenumber" v="9100"/><tag k="coa:place_id" v="5068943"/></node><node id="-372" lat="30.430475" lon="-97.845061" changeset="false"><tag k="addr:street" v="Mira Vista Way"/><tag k="addr:housenumber" v="11912"/><tag k="coa:place_id" v="3318786"/></node><node id="-373" lat="30.429721" lon="-97.844143" changeset="false"><tag k="addr:street" v="Villa Norte Drive"/><tag k="addr:housenumber" v="8904"/><tag k="coa:place_id" v="3318728"/></node><node id="-374" lat="30.430151" lon="-97.843469" changeset="false"><tag k="addr:street" v="Villa Norte Drive"/><tag k="addr:housenumber" v="8920"/><tag k="coa:place_id" v="3318732"/></node><node id="-375" lat="30.430312" lon="-97.843362" changeset="false"><tag k="addr:street" v="Villa Norte Drive"/><tag k="addr:housenumber" v="8924"/><tag k="coa:place_id" v="3318733"/></node><node id="-376" lat="30.430446" lon="-97.842953" changeset="false"><tag k="addr:street" v="Villa Norte Drive"/><tag k="addr:housenumber" v="9001"/><tag k="coa:place_id" v="3318734"/></node><node id="-377" lat="30.424404" lon="-97.860038" changeset="false"><tag k="addr:street" v="Sebastapol Cove"/><tag k="addr:housenumber" v="8104"/><tag k="coa:place_id" v="3033329"/></node><node id="-378" lat="30.43154" lon="-97.843381" changeset="false"><tag k="addr:street" v="Villa Norte Drive"/><tag k="addr:housenumber" v="9109"/><tag k="coa:place_id" v="3318746"/></node><node id="-379" lat="30.43026" lon="-97.842996" changeset="false"><tag k="addr:street" v="Villa Norte Drive"/><tag k="addr:housenumber" v="8925"/><tag k="coa:place_id" v="3318724"/></node><node id="-380" lat="30.431267" lon="-97.843531" changeset="false"><tag k="addr:street" v="Villa Norte Drive"/><tag k="addr:housenumber" v="9108"/><tag k="coa:place_id" v="3318751"/></node><node id="-381" lat="30.450622" lon="-97.841268" changeset="false"><tag k="addr:street" v="Painted Bunting Drive"/><tag k="addr:housenumber" v="12421"/><tag k="coa:place_id" v="113803"/></node><node id="-382" lat="30.42894" lon="-97.845418" changeset="false"><tag k="addr:street" v="Terraza Circle"/><tag k="addr:housenumber" v="11928"/><tag k="coa:place_id" v="3318819"/></node><node id="-383" lat="30.42838" lon="-97.845242" changeset="false"><tag k="addr:street" v="Terraza Circle"/><tag k="addr:housenumber" v="12117"/><tag k="coa:place_id" v="3318834"/></node><node id="-384" lat="30.392622" lon="-97.889431" changeset="false"><tag k="addr:street" v="Lakeview Drive"/><tag k="addr:housenumber" v="4906"/><tag k="coa:place_id" v="95633"/></node><node id="-385" lat="30.393579" lon="-97.888364" changeset="false"><tag k="addr:street" v="Lakeview Drive"/><tag k="addr:housenumber" v="5008"/><tag k="coa:place_id" v="95641"/></node><node id="-386" lat="30.391243" lon="-97.891038" changeset="false"><tag k="addr:street" v="Park Lane"/><tag k="addr:housenumber" v="4802"/><tag k="coa:place_id" v="1140703"/></node><node id="-387" lat="30.391701" lon="-97.889543" changeset="false"><tag k="addr:street" v="Lakeview Drive"/><tag k="addr:housenumber" v="4801"/><tag k="coa:place_id" v="95598"/></node><node id="-388" lat="30.447574" lon="-97.839515" changeset="false"><tag k="addr:street" v="Hanging Valley Drive"/><tag k="addr:housenumber" v="12301"/><tag k="coa:place_id" v="203419"/></node><node id="-389" lat="30.446794" lon="-97.837465" changeset="false"><tag k="addr:street" v="Hanging Valley Drive"/><tag k="addr:housenumber" v="12111"/><tag k="coa:place_id" v="203417"/></node><node id="-390" lat="30.394137" lon="-97.882687" changeset="false"><tag k="addr:street" v="Park Drive,1100"/><tag k="addr:housenumber" v="12870"/><tag k="coa:place_id" v="1140630"/></node><node id="-391" lat="30.41725" lon="-97.900284" changeset="false"><tag k="addr:street" v="Ridgetop Terrace"/><tag k="addr:housenumber" v="14505"/><tag k="coa:place_id" v="3119332"/></node><node id="-392" lat="30.418335" lon="-97.889364" changeset="false"><tag k="addr:street" v="Panorama Drive"/><tag k="addr:housenumber" v="13913"/><tag k="coa:place_id" v="120156"/></node><node id="-393" lat="30.418293" lon="-97.889064" changeset="false"><tag k="addr:street" v="Panorama Drive"/><tag k="addr:housenumber" v="13911"/><tag k="coa:place_id" v="120157"/></node><node id="-394" lat="30.404553" lon="-97.853998" changeset="false"><tag k="addr:street" v="Ranch Road 620"/><tag k="addr:housenumber" v="7202"/><tag k="coa:place_id" v="3043304"/></node><node id="-395" lat="30.389446" lon="-97.892113" changeset="false"><tag k="addr:street" v="Mansfield Circle"/><tag k="addr:housenumber" v="13100"/><tag k="coa:place_id" v="1140586"/></node><node id="-396" lat="30.44982" lon="-97.839395" changeset="false"><tag k="addr:street" v="Painted Bunting Drive"/><tag k="addr:housenumber" v="12311"/><tag k="coa:place_id" v="113797"/></node><node id="-397" lat="30.415816" lon="-97.891522" changeset="false"><tag k="addr:street" v="Comanche Trail"/><tag k="addr:housenumber" v="7075"/><tag k="coa:place_id" v="182328"/></node><node id="-398" lat="30.413722" lon="-97.875625" changeset="false"><tag k="addr:street" v="Cielo Azul Pass"/><tag k="addr:housenumber" v="7032"/><tag k="coa:place_id" v="3181301"/></node><node id="-399" lat="30.412854" lon="-97.876715" changeset="false"><tag k="addr:street" v="Comanche Trail"/><tag k="addr:housenumber" v="6817"/><tag k="coa:place_id" v="3181307"/></node><node id="-400" lat="30.392017" lon="-97.888808" changeset="false"><tag k="addr:street" v="Marshall Ford Road"/><tag k="addr:housenumber" v="4902"/><tag k="coa:place_id" v="546248"/></node><node id="-401" lat="30.414575" lon="-97.893084" changeset="false"><tag k="addr:street" v="Comanche Trail"/><tag k="addr:housenumber" v="7093"/><tag k="coa:place_id" v="182345"/></node><node id="-402" lat="30.414387" lon="-97.875947" changeset="false"><tag k="addr:street" v="Cielo Azul Pass"/><tag k="addr:housenumber" v="7108"/><tag k="coa:place_id" v="3181302"/></node><node id="-403" lat="30.427556" lon="-97.857327" changeset="false"><tag k="addr:street" v="Denali Parkway"/><tag k="addr:housenumber" v="8400"/><tag k="coa:place_id" v="3126004"/></node><node id="-404" lat="30.423205" lon="-97.858838" changeset="false"><tag k="addr:street" v="Presque Cove"/><tag k="addr:housenumber" v="12505"/><tag k="coa:place_id" v="3035730"/></node><node id="-405" lat="30.415076" lon="-97.893376" changeset="false"><tag k="addr:street" v="Lake View Drive"/><tag k="addr:housenumber" v="14028"/><tag k="coa:place_id" v="182424"/></node><node id="-406" lat="30.393231" lon="-97.883643" changeset="false"><tag k="addr:street" v="Cedar Street"/><tag k="addr:housenumber" v="12714"/><tag k="coa:place_id" v="95428"/></node><node id="-407" lat="30.420576" lon="-97.89565" changeset="false"><tag k="addr:street" v="Comanche Trail"/><tag k="addr:housenumber" v="7224"/><tag k="coa:place_id" v="179249"/></node><node id="-408" lat="30.418302" lon="-97.88728" changeset="false"><tag k="addr:street" v="Panorama Drive"/><tag k="addr:housenumber" v="13808"/><tag k="coa:place_id" v="182791"/></node><node id="-409" lat="30.397358" lon="-97.880844" changeset="false"><tag k="addr:street" v="Hughes Park Road"/><tag k="addr:housenumber" v="12714"/><tag k="coa:place_id" v="128256"/></node><node id="-410" lat="30.391798" lon="-97.889981" changeset="false"><tag k="addr:street" v="Lakeview Drive"/><tag k="addr:housenumber" v="4810"/><tag k="coa:place_id" v="95623"/></node><node id="-411" lat="30.403652" lon="-97.854807" changeset="false"><tag k="addr:street" v="Ranch Road 620"/><tag k="addr:housenumber" v="7004"/><tag k="coa:place_id" v="877503"/></node><node id="-412" lat="30.41154" lon="-97.872683" changeset="false"><tag k="addr:street" v="Luna Montana South Way"/><tag k="addr:housenumber" v="12933"/><tag k="coa:place_id" v="3180984"/></node><node id="-413" lat="30.411752" lon="-97.874123" changeset="false"><tag k="addr:street" v="Luna Montana South Way"/><tag k="addr:housenumber" v="12905"/><tag k="coa:place_id" v="3180962"/></node><node id="-414" lat="30.39329" lon="-97.883414" changeset="false"><tag k="addr:street" v="Cedar Street"/><tag k="addr:housenumber" v="12712"/><tag k="coa:place_id" v="1140658"/></node><node id="-415" lat="30.413144" lon="-97.87302" changeset="false"><tag k="addr:street" v="Luna Montana South Way"/><tag k="addr:housenumber" v="13104"/><tag k="coa:place_id" v="3181100"/></node><node id="-416" lat="30.413245" lon="-97.873611" changeset="false"><tag k="addr:street" v="Luna Montana South Way"/><tag k="addr:housenumber" v="13116"/><tag k="coa:place_id" v="3181103"/></node><node id="-417" lat="30.41286" lon="-97.870766" changeset="false"><tag k="addr:street" v="Villa Montana Way"/><tag k="addr:housenumber" v="13129"/><tag k="coa:place_id" v="3181089"/></node><node id="-418" lat="30.391357" lon="-97.896284" changeset="false"><tag k="addr:street" v="Mansfield Drive"/><tag k="addr:housenumber" v="13309"/><tag k="coa:place_id" v="1140274"/></node><node id="-419" lat="30.41276" lon="-97.872554" changeset="false"><tag k="addr:street" v="Villa Montana Way"/><tag k="addr:housenumber" v="13209"/><tag k="coa:place_id" v="3181043"/></node><node id="-420" lat="30.42362" lon="-97.860899" changeset="false"><tag k="addr:street" v="Castle Peak Trail"/><tag k="addr:housenumber" v="8107"/><tag k="coa:place_id" v="712204"/></node><node id="-421" lat="30.418221" lon="-97.856166" changeset="false"><tag k="addr:street" v="Wilson Parke Avenue"/><tag k="addr:housenumber" v="12114"/><tag k="coa:place_id" v="110580"/></node><node id="-422" lat="30.418191" lon="-97.899258" changeset="false"><tag k="addr:street" v="Ridgetop Terrace"/><tag k="addr:housenumber" v="14524"/><tag k="coa:place_id" v="3119377"/></node><node id="-423" lat="30.392211" lon="-97.889124" changeset="false"><tag k="addr:street" v="Lakeview Drive"/><tag k="addr:housenumber" v="4905"/><tag k="coa:place_id" v="95615"/></node><node id="-424" lat="30.41472" lon="-97.889113" changeset="false"><tag k="addr:street" v="Comanche Trail"/><tag k="addr:housenumber" v="7049"/><tag k="coa:place_id" v="138991"/></node><node id="-425" lat="30.414282" lon="-97.889436" changeset="false"><tag k="addr:street" v="Comanche Trail"/><tag k="addr:housenumber" v="7054"/><tag k="coa:place_id" v="179363"/></node><node id="-426" lat="30.414823" lon="-97.87607" changeset="false"><tag k="addr:street" v="Cielo Azul Pass"/><tag k="addr:housenumber" v="7116"/><tag k="coa:place_id" v="3181304"/></node><node id="-427" lat="30.412407" lon="-97.873466" changeset="false"><tag k="addr:street" v="Villa Montana Way"/><tag k="addr:housenumber" v="13228"/><tag k="coa:place_id" v="3181029"/></node><node id="-428" lat="30.409905" lon="-97.872815" changeset="false"><tag k="addr:street" v="Oasis Bluff Drive"/><tag k="addr:housenumber" v="6801"/><tag k="coa:place_id" v="3129894"/></node><node id="-429" lat="30.405118" lon="-97.872707" changeset="false"><tag k="addr:street" v="Comanche Trail"/><tag k="addr:housenumber" v="6549"/><tag k="coa:place_id" v="226818"/></node><node id="-430" lat="30.41173" lon="-97.873935" changeset="false"><tag k="addr:street" v="Luna Montana South Way"/><tag k="addr:housenumber" v="12909"/><tag k="coa:place_id" v="3180963"/></node><node id="-431" lat="30.390168" lon="-97.891799" changeset="false"><tag k="addr:street" v="Travis View Loop"/><tag k="addr:housenumber" v="13123"/><tag k="coa:place_id" v="1140581"/></node><node id="-432" lat="30.389568" lon="-97.892319" changeset="false"><tag k="addr:street" v="Mansfield Circle"/><tag k="addr:housenumber" v="13102"/><tag k="coa:place_id" v="144383"/></node><node id="-433" lat="30.393035" lon="-97.889213" changeset="false"><tag k="addr:street" v="Lakeview Drive"/><tag k="addr:housenumber" v="4912"/><tag k="coa:place_id" v="927795"/></node><node id="-434" lat="30.412935" lon="-97.877625" changeset="false"><tag k="addr:street" v="Comanche Trail"/><tag k="addr:housenumber" v="6906"/><tag k="coa:place_id" v="1164417"/></node><node id="-435" lat="30.42298" lon="-97.861254" changeset="false"><tag k="addr:street" v="Castle Peak Trail"/><tag k="addr:housenumber" v="8011"/><tag k="coa:place_id" v="105145"/></node><node id="-436" lat="30.422614" lon="-97.856649" changeset="false"><tag k="addr:street" v="Tahoe Parke Circle"/><tag k="addr:housenumber" v="8128"/><tag k="coa:place_id" v="224362"/></node><node id="-437" lat="30.427234" lon="-97.856747" changeset="false"><tag k="addr:street" v="Denali Parkway"/><tag k="addr:housenumber" v="8401"/><tag k="coa:place_id" v="3078468"/></node><node id="-438" lat="30.38845" lon="-97.893289" changeset="false"><tag k="addr:street" v="Mansfield Drive"/><tag k="addr:housenumber" v="13109"/><tag k="coa:place_id" v="1140590"/></node><node id="-439" lat="30.420637" lon="-97.860799" changeset="false"><tag k="addr:street" v="Waterton Parke Cove"/><tag k="addr:housenumber" v="12402"/><tag k="coa:place_id" v="102780"/></node><node id="-440" lat="30.419992" lon="-97.885385" changeset="false"><tag k="addr:street" v="Mountain Trail"/><tag k="addr:housenumber" v="7106"/><tag k="coa:place_id" v="204157"/></node><node id="-441" lat="30.419366" lon="-97.89048" changeset="false"><tag k="addr:street" v="Panorama Drive"/><tag k="addr:housenumber" v="14100"/><tag k="coa:place_id" v="182819"/></node><node id="-442" lat="30.39346" lon="-97.875198" changeset="false"><tag k="addr:street" v="Ranch Road 620"/><tag k="addr:housenumber" v="5600"/><tag k="coa:place_id" v="545222"/></node><node id="-443" lat="30.394178" lon="-97.884731" changeset="false"><tag k="addr:street" v="Park Drive,1100"/><tag k="addr:housenumber" v="12895"/><tag k="coa:place_id" v="1140631"/></node><node id="-444" lat="30.419209" lon="-97.860086" changeset="false"><tag k="addr:street" v="Weldon Springs Court"/><tag k="addr:housenumber" v="8003"/><tag k="coa:place_id" v="633202"/></node><node id="-445" lat="30.451996" lon="-97.83325" changeset="false"><tag k="addr:street" v="Windy Ridge Road"/><tag k="addr:housenumber" v="12182"/><tag k="coa:place_id" v="145895"/></node><node id="-446" lat="30.42419" lon="-97.857916" changeset="false"><tag k="addr:street" v="Alberta Ridge Trail"/><tag k="addr:housenumber" v="12500"/><tag k="coa:place_id" v="3033333"/></node><node id="-447" lat="30.418561" lon="-97.900089" changeset="false"><tag k="addr:street" v="Ridgetop Terrace"/><tag k="addr:housenumber" v="14521"/><tag k="coa:place_id" v="3119375"/></node><node id="-448" lat="30.418329" lon="-97.900252" changeset="false"><tag k="addr:street" v="Ridgetop Terrace"/><tag k="addr:housenumber" v="14519"/><tag k="coa:place_id" v="148062"/></node><node id="-449" lat="30.417079" lon="-97.89865" changeset="false"><tag k="addr:street" v="Ridgetop Terrace"/><tag k="addr:housenumber" v="14416"/><tag k="coa:place_id" v="3119355"/></node><node id="-450" lat="30.416773" lon="-97.89957" changeset="false"><tag k="addr:street" v="Ridgetop Terrace"/><tag k="addr:housenumber" v="14423"/><tag k="coa:place_id" v="3119324"/></node><node id="-451" lat="30.412314" lon="-97.872702" changeset="false"><tag k="addr:street" v="Villa Montana Way"/><tag k="addr:housenumber" v="13212"/><tag k="coa:place_id" v="3181025"/></node><node id="-452" lat="30.415972" lon="-97.889795" changeset="false"><tag k="addr:street" v="Lake View Drive"/><tag k="addr:housenumber" v="13909"/><tag k="coa:place_id" v="182375"/></node><node id="-453" lat="30.420353" lon="-97.884443" changeset="false"><tag k="addr:street" v="Mountain Trail"/><tag k="addr:housenumber" v="7206"/><tag k="coa:place_id" v="256513"/></node><node id="-454" lat="30.439199" lon="-97.867207" changeset="false"><tag k="addr:street" v="Farm-to-Market Road 2769"/><tag k="addr:housenumber" v="13627"/><tag k="coa:place_id" v="3292263"/></node><node id="-455" lat="30.421883" lon="-97.859408" changeset="false"><tag k="addr:street" v="Laramie Parke Cove"/><tag k="addr:housenumber" v="12500"/><tag k="coa:place_id" v="640150"/></node><node id="-456" lat="30.450437" lon="-97.840644" changeset="false"><tag k="addr:street" v="Painted Bunting Drive"/><tag k="addr:housenumber" v="12411"/><tag k="coa:place_id" v="113802"/></node><node id="-457" lat="30.430839" lon="-97.843628" changeset="false"><tag k="addr:street" v="Mira Vista Way"/><tag k="addr:housenumber" v="11808"/><tag k="coa:place_id" v="3318769"/></node><node id="-458" lat="30.430497" lon="-97.843673" changeset="false"><tag k="addr:street" v="Mira Vista Way"/><tag k="addr:housenumber" v="11805"/><tag k="coa:place_id" v="3318774"/></node><node id="-459" lat="30.41498" lon="-97.867933" changeset="false"><tag k="addr:street" v="Bullick Hollow Road"/><tag k="addr:housenumber" v="12717"/><tag k="coa:place_id" v="3222114"/></node><node id="-460" lat="30.409341" lon="-97.874913" changeset="false"><tag k="addr:street" v="Oasis Pass"/><tag k="addr:housenumber" v="6701"/><tag k="coa:place_id" v="232845"/></node><node id="-461" lat="30.393669" lon="-97.887571" changeset="false"><tag k="addr:street" v="Lakeview Drive"/><tag k="addr:housenumber" v="5016"/><tag k="coa:place_id" v="95646"/></node><node id="-462" lat="30.430626" lon="-97.844957" changeset="false"><tag k="addr:street" v="Mira Vista Way"/><tag k="addr:housenumber" v="11908"/><tag k="coa:place_id" v="3318785"/></node><node id="-463" lat="30.391868" lon="-97.884267" changeset="false"><tag k="addr:street" v="Mansfield View Court"/><tag k="addr:housenumber" v="5116"/><tag k="coa:place_id" v="1134370"/></node><node id="-464" lat="30.428105" lon="-97.844693" changeset="false"><tag k="addr:street" v="Terraza Circle"/><tag k="addr:housenumber" v="12205"/><tag k="coa:place_id" v="3318851"/></node><node id="-465" lat="30.427519" lon="-97.843918" changeset="false"><tag k="addr:street" v="Terraza Circle"/><tag k="addr:housenumber" v="12304"/><tag k="coa:place_id" v="3318878"/></node><node id="-466" lat="30.428131" lon="-97.843681" changeset="false"><tag k="addr:street" v="Terraza Circle"/><tag k="addr:housenumber" v="12328"/><tag k="coa:place_id" v="3318884"/></node><node id="-467" lat="30.428582" lon="-97.845118" changeset="false"><tag k="addr:street" v="Terraza Circle"/><tag k="addr:housenumber" v="11913"/><tag k="coa:place_id" v="3318810"/></node><node id="-468" lat="30.427823" lon="-97.843796" changeset="false"><tag k="addr:street" v="Terraza Circle"/><tag k="addr:housenumber" v="12316"/><tag k="coa:place_id" v="3318881"/></node><node id="-469" lat="30.428343" lon="-97.845163" changeset="false"><tag k="addr:street" v="Terraza Circle"/><tag k="addr:housenumber" v="12121"/><tag k="coa:place_id" v="3318835"/></node><node id="-470" lat="30.418942" lon="-97.892338" changeset="false"><tag k="addr:street" v="Panorama Drive"/><tag k="addr:housenumber" v="14107"/><tag k="coa:place_id" v="3332101"/></node><node id="-471" lat="30.431828" lon="-97.844435" changeset="false"><tag k="addr:street" v="Villa Norte Drive"/><tag k="addr:housenumber" v="9201"/><tag k="coa:place_id" v="3318757"/></node><node id="-472" lat="30.41693" lon="-97.887117" changeset="false"><tag k="addr:street" v="Mountain Trail"/><tag k="addr:housenumber" v="6709"/><tag k="coa:place_id" v="5059744"/></node><node id="-473" lat="30.431463" lon="-97.843151" changeset="false"><tag k="addr:street" v="Villa Norte Drive"/><tag k="addr:housenumber" v="9105"/><tag k="coa:place_id" v="3318745"/></node><node id="-474" lat="30.428629" lon="-97.845233" changeset="false"><tag k="addr:street" v="Terraza Circle"/><tag k="addr:housenumber" v="11917"/><tag k="coa:place_id" v="3318811"/></node><node id="-475" lat="30.428928" lon="-97.845309" changeset="false"><tag k="addr:street" v="Terraza Circle"/><tag k="addr:housenumber" v="11924"/><tag k="coa:place_id" v="3318818"/></node><node id="-476" lat="30.422649" lon="-97.856918" changeset="false"><tag k="addr:street" v="Tahoe Parke Circle"/><tag k="addr:housenumber" v="8124"/><tag k="coa:place_id" v="224418"/></node><node id="-477" lat="30.413943" lon="-97.89314" changeset="false"><tag k="addr:street" v="Comanche Trail"/><tag k="addr:housenumber" v="7096"/><tag k="coa:place_id" v="179352"/></node><node id="-478" lat="30.411055" lon="-97.875145" changeset="false"><tag k="addr:street" v="Oasis Pass"/><tag k="addr:housenumber" v="6715"/><tag k="coa:place_id" v="3190515"/></node><node id="-479" lat="30.391088" lon="-97.88017" changeset="false"><tag k="addr:street" v="Cedar Street"/><tag k="addr:housenumber" v="12507"/><tag k="coa:place_id" v="1140699"/></node><node id="-480" lat="30.388651" lon="-97.892725" changeset="false"><tag k="addr:street" v="Mansfield Drive"/><tag k="addr:housenumber" v="13105"/><tag k="coa:place_id" v="156548"/></node><node id="-481" lat="30.413276" lon="-97.87381" changeset="false"><tag k="addr:street" v="Luna Montana South Way"/><tag k="addr:housenumber" v="13120"/><tag k="coa:place_id" v="3181104"/></node><node id="-482" lat="30.389115" lon="-97.90759" changeset="false"><tag k="addr:street" v="Ranch Road 620"/><tag k="addr:housenumber" v="4360"/><tag k="coa:place_id" v="3141013"/></node><node id="-483" lat="30.411874" lon="-97.87167" changeset="false"><tag k="addr:street" v="Luna Montana South Way"/><tag k="addr:housenumber" v="13013"/><tag k="coa:place_id" v="3181065"/></node><node id="-484" lat="30.412251" lon="-97.871394" changeset="false"><tag k="addr:street" v="Villa Montana Way"/><tag k="addr:housenumber" v="13140"/><tag k="coa:place_id" v="3181083"/></node><node id="-485" lat="30.393353" lon="-97.889447" changeset="false"><tag k="addr:street" v="Water Lane"/><tag k="addr:housenumber" v="13008"/><tag k="coa:place_id" v="546278"/></node><node id="-486" lat="30.420899" lon="-97.895378" changeset="false"><tag k="addr:street" v="Comanche Trail"/><tag k="addr:housenumber" v="7228"/><tag k="coa:place_id" v="179251"/></node><node id="-487" lat="30.414103" lon="-97.875" changeset="false"><tag k="addr:street" v="Cielo Azul Pass"/><tag k="addr:housenumber" v="7033"/><tag k="coa:place_id" v="3181298"/></node><node id="-488" lat="30.412645" lon="-97.877774" changeset="false"><tag k="addr:street" v="Lake View Drive"/><tag k="addr:housenumber" v="13106"/><tag k="coa:place_id" v="1164421"/></node><node id="-489" lat="30.389996" lon="-97.894724" changeset="false"><tag k="addr:street" v="Mansfield Drive"/><tag k="addr:housenumber" v="13207"/><tag k="coa:place_id" v="546530"/></node><node id="-490" lat="30.423472" lon="-97.859181" changeset="false"><tag k="addr:street" v="Presque Cove"/><tag k="addr:housenumber" v="12509"/><tag k="coa:place_id" v="3093462"/></node><node id="-491" lat="30.41949" lon="-97.856401" changeset="false"><tag k="addr:street" v="Klondike Rush Point"/><tag k="addr:housenumber" v="12203"/><tag k="coa:place_id" v="107406"/></node><node id="-492" lat="30.390198" lon="-97.882669" changeset="false"><tag k="addr:street" v="Mansfield View Court"/><tag k="addr:housenumber" v="5134"/><tag k="coa:place_id" v="1134327"/></node><node id="-493" lat="30.452844" lon="-97.841077" changeset="false"><tag k="addr:street" v="Painted Bunting Drive"/><tag k="addr:housenumber" v="12509"/><tag k="coa:place_id" v="3382732"/></node><node id="-494" lat="30.41787" lon="-97.849115" changeset="false"><tag k="addr:street" v="Wilson Parke Avenue"/><tag k="addr:housenumber" v="11714"/><tag k="coa:place_id" v="5054894"/></node><node id="-495" lat="30.406845" lon="-97.852884" changeset="false"><tag k="addr:street" v="Ranch Road 620"/><tag k="addr:housenumber" v="7400"/><tag k="coa:place_id" v="3503697"/></node><node id="-496" lat="30.411954" lon="-97.872537" changeset="false"><tag k="addr:street" v="Luna Montana South Way"/><tag k="addr:housenumber" v="12936"/><tag k="coa:place_id" v="3430461"/></node><node id="-497" lat="30.416704" lon="-97.890281" changeset="false"><tag k="addr:street" v="Lake View Drive"/><tag k="addr:housenumber" v="13912"/><tag k="coa:place_id" v="3431230"/></node><node id="-498" lat="30.392635" lon="-97.890444" changeset="false"><tag k="addr:street" v="Water Lane"/><tag k="addr:housenumber" v="13101"/><tag k="coa:place_id" v="3390452"/></node><node id="-499" lat="30.427919" lon="-97.844309" changeset="false"><tag k="addr:street" v="Terraza Circle"/><tag k="addr:housenumber" v="12221"/><tag k="coa:place_id" v="3318855"/></node><node id="-500" lat="30.427888" lon="-97.84424" changeset="false"><tag k="addr:street" v="Terraza Circle"/><tag k="addr:housenumber" v="12225"/><tag k="coa:place_id" v="3318856"/></node><node id="-501" lat="30.427822" lon="-97.8447" changeset="false"><tag k="addr:street" v="Terraza Circle"/><tag k="addr:housenumber" v="12208"/><tag k="coa:place_id" v="3318870"/></node><node id="-502" lat="30.428695" lon="-97.845465" changeset="false"><tag k="addr:street" v="Terraza Circle"/><tag k="addr:housenumber" v="11929"/><tag k="coa:place_id" v="3318814"/></node><node id="-503" lat="30.411554" lon="-97.872413" changeset="false"><tag k="addr:street" v="Luna Montana South Way"/><tag k="addr:housenumber" v="13001"/><tag k="coa:place_id" v="3181062"/></node><node id="-504" lat="30.429443" lon="-97.843771" changeset="false"><tag k="addr:street" v="Versante Circle"/><tag k="addr:housenumber" v="11908"/><tag k="coa:place_id" v="3318709"/></node><node id="-505" lat="30.428808" lon="-97.844715" changeset="false"><tag k="addr:street" v="Versante Circle"/><tag k="addr:housenumber" v="12008"/><tag k="coa:place_id" v="3318715"/></node><node id="-506" lat="30.43009" lon="-97.843082" changeset="false"><tag k="addr:street" v="Villa Norte Drive"/><tag k="addr:housenumber" v="8921"/><tag k="coa:place_id" v="3318723"/></node><node id="-507" lat="30.415994" lon="-97.892293" changeset="false"><tag k="addr:street" v="Lake View Drive"/><tag k="addr:housenumber" v="14017"/><tag k="coa:place_id" v="182393"/></node><node id="-508" lat="30.425162" lon="-97.85852" changeset="false"><tag k="addr:street" v="Verandah Court"/><tag k="addr:housenumber" v="12501"/><tag k="coa:place_id" v="3188745"/></node><node id="-509" lat="30.43185" lon="-97.84397" changeset="false"><tag k="addr:street" v="Villa Norte Drive"/><tag k="addr:housenumber" v="9121"/><tag k="coa:place_id" v="3318749"/></node><node id="-510" lat="30.428283" lon="-97.845024" changeset="false"><tag k="addr:street" v="Terraza Circle"/><tag k="addr:housenumber" v="12129"/><tag k="coa:place_id" v="3318837"/></node><node id="-511" lat="30.428897" lon="-97.84514" changeset="false"><tag k="addr:street" v="Terraza Circle"/><tag k="addr:housenumber" v="11920"/><tag k="coa:place_id" v="3318817"/></node><node id="-512" lat="30.428526" lon="-97.845971" changeset="false"><tag k="addr:street" v="Terraza Circle"/><tag k="addr:housenumber" v="12020"/><tag k="coa:place_id" v="3318825"/></node><node id="-513" lat="30.42213" lon="-97.859681" changeset="false"><tag k="addr:street" v="Laramie Parke Cove"/><tag k="addr:housenumber" v="12502"/><tag k="coa:place_id" v="102793"/></node><node id="-514" lat="30.421821" lon="-97.860022" changeset="false"><tag k="addr:street" v="Laramie Parke Cove"/><tag k="addr:housenumber" v="12503"/><tag k="coa:place_id" v="684496"/></node><node id="-515" lat="30.421545" lon="-97.855283" changeset="false"><tag k="addr:street" v="Tahoe Parke Circle"/><tag k="addr:housenumber" v="8149"/><tag k="coa:place_id" v="224435"/></node><node id="-516" lat="30.442862" lon="-97.863521" changeset="false"><tag k="addr:street" v="Farm-to-Market Road 2769"/><tag k="addr:housenumber" v="13501"/><tag k="coa:place_id" v="3270540"/></node><node id="-517" lat="30.419474" lon="-97.892869" changeset="false"><tag k="addr:street" v="Panorama Drive"/><tag k="addr:housenumber" v="14109"/><tag k="coa:place_id" v="3332102"/></node><node id="-518" lat="30.428031" lon="-97.845096" changeset="false"><tag k="addr:street" v="Terraza Circle"/><tag k="addr:housenumber" v="12124"/><tag k="coa:place_id" v="3318847"/></node><node id="-519" lat="30.456953" lon="-97.831368" changeset="false"><tag k="addr:street" v="Anderson Mill Road,1100"/><tag k="addr:housenumber" v="12101"/><tag k="coa:place_id" v="204119"/></node><node id="-520" lat="30.431325" lon="-97.844673" changeset="false"><tag k="addr:street" v="Villa Norte Drive"/><tag k="addr:housenumber" v="9213"/><tag k="coa:place_id" v="3318760"/></node><node id="-521" lat="30.431107" lon="-97.844674" changeset="false"><tag k="addr:street" v="Villa Norte Drive"/><tag k="addr:housenumber" v="9217"/><tag k="coa:place_id" v="3318761"/></node><node id="-522" lat="30.430941" lon="-97.844052" changeset="false"><tag k="addr:street" v="Mira Vista Way"/><tag k="addr:housenumber" v="11816"/><tag k="coa:place_id" v="3318771"/></node><node id="-523" lat="30.430349" lon="-97.873573" changeset="false"><tag k="addr:street" v="Bullick Hollow Road"/><tag k="addr:housenumber" v="13504"/><tag k="coa:place_id" v="3183222"/></node><node id="-524" lat="30.394114" lon="-97.886093" changeset="false"><tag k="addr:street" v="Park Drive,1100"/><tag k="addr:housenumber" v="12910"/><tag k="coa:place_id" v="3112244"/></node><node id="-525" lat="30.417896" lon="-97.90097" changeset="false"><tag k="addr:street" v="Ridgetop Terrace"/><tag k="addr:housenumber" v="14513"/><tag k="coa:place_id" v="3119371"/></node><node id="-526" lat="30.429268" lon="-97.845017" changeset="false"><tag k="addr:street" v="Mira Vista Way"/><tag k="addr:housenumber" v="12024"/><tag k="coa:place_id" v="3318793"/></node><node id="-527" lat="30.394096" lon="-97.884945" changeset="false"><tag k="addr:street" v="Park Drive,1100"/><tag k="addr:housenumber" v="12901"/><tag k="coa:place_id" v="1140635"/></node><node id="-528" lat="30.423866" lon="-97.859982" changeset="false"><tag k="addr:street" v="Davis Mountain Pass"/><tag k="addr:housenumber" v="8114"/><tag k="coa:place_id" v="688888"/></node><node id="-529" lat="30.42822" lon="-97.84552" changeset="false"><tag k="addr:street" v="Terraza Circle"/><tag k="addr:housenumber" v="12108"/><tag k="coa:place_id" v="3318843"/></node><node id="-530" lat="30.425288" lon="-97.857677" changeset="false"><tag k="addr:street" v="Denali Parkway"/><tag k="addr:housenumber" v="8201"/><tag k="coa:place_id" v="3078446"/></node><node id="-531" lat="30.407394" lon="-97.87469" changeset="false"><tag k="addr:street" v="Comanche Trail"/><tag k="addr:housenumber" v="6620 1/2"/><tag k="coa:place_id" v="3430953"/></node><node id="-532" lat="30.390009" lon="-97.890559" changeset="false"><tag k="addr:street" v="Travis View Loop"/><tag k="addr:housenumber" v="13134"/><tag k="coa:place_id" v="3501166"/></node><node id="-533" lat="30.392803" lon="-97.88418" changeset="false"><tag k="addr:street" v="Hughes Street"/><tag k="addr:housenumber" v="12808"/><tag k="coa:place_id" v="89748"/></node><node id="-534" lat="30.392247" lon="-97.884524" changeset="false"><tag k="addr:street" v="Hughes Street"/><tag k="addr:housenumber" v="12807"/><tag k="coa:place_id" v="141945"/></node><node id="-535" lat="30.391261" lon="-97.889257" changeset="false"><tag k="addr:street" v="Marshall Ford Road"/><tag k="addr:housenumber" v="4804"/><tag k="coa:place_id" v="255337"/></node><node id="-536" lat="30.430965" lon="-97.842762" changeset="false"><tag k="addr:street" v="Villa Norte Drive"/><tag k="addr:housenumber" v="9013"/><tag k="coa:place_id" v="3318737"/></node><node id="-537" lat="30.427782" lon="-97.844624" changeset="false"><tag k="addr:street" v="Terraza Circle"/><tag k="addr:housenumber" v="12212"/><tag k="coa:place_id" v="3318871"/></node><node id="-538" lat="30.427683" lon="-97.844418" changeset="false"><tag k="addr:street" v="Terraza Circle"/><tag k="addr:housenumber" v="12220"/><tag k="coa:place_id" v="3318873"/></node><node id="-539" lat="30.427419" lon="-97.843932" changeset="false"><tag k="addr:street" v="Terraza Circle"/><tag k="addr:housenumber" v="12300"/><tag k="coa:place_id" v="3318877"/></node><node id="-540" lat="30.427657" lon="-97.843859" changeset="false"><tag k="addr:street" v="Terraza Circle"/><tag k="addr:housenumber" v="12308"/><tag k="coa:place_id" v="3318879"/></node><node id="-541" lat="30.428055" lon="-97.843716" changeset="false"><tag k="addr:street" v="Terraza Circle"/><tag k="addr:housenumber" v="12324"/><tag k="coa:place_id" v="3318883"/></node><node id="-542" lat="30.389749" lon="-97.891284" changeset="false"><tag k="addr:street" v="Travis View Loop"/><tag k="addr:housenumber" v="13128"/><tag k="coa:place_id" v="3774707"/></node><node id="-543" lat="30.388356" lon="-97.896685" changeset="false"><tag k="addr:street" v="Ranch Road 620"/><tag k="addr:housenumber" v="4506"/><tag k="coa:place_id" v="5058384"/></node><node id="-544" lat="30.400932" lon="-97.872572" changeset="false"><tag k="addr:street" v="Comanche Trail"/><tag k="addr:housenumber" v="6300"/><tag k="coa:place_id" v="3369267"/></node><node id="-545" lat="30.428986" lon="-97.844781" changeset="false"><tag k="addr:street" v="Versante Circle"/><tag k="addr:housenumber" v="12004"/><tag k="coa:place_id" v="3318714"/></node><node id="-546" lat="30.429799" lon="-97.843353" changeset="false"><tag k="addr:street" v="Villa Norte Drive"/><tag k="addr:housenumber" v="8913"/><tag k="coa:place_id" v="3318721"/></node><node id="-547" lat="30.445212" lon="-97.859979" changeset="false"><tag k="addr:street" v="Farm-to-Market Road 2769"/><tag k="addr:housenumber" v="13359"/><tag k="coa:place_id" v="3200585"/></node><node id="-548" lat="30.431552" lon="-97.844125" changeset="false"><tag k="addr:street" v="Villa Norte Drive"/><tag k="addr:housenumber" v="9120"/><tag k="coa:place_id" v="3318754"/></node><node id="-549" lat="30.428049" lon="-97.844034" changeset="false"><tag k="addr:street" v="Terraza Circle"/><tag k="addr:housenumber" v="11801"/><tag k="coa:place_id" v="3318798"/></node><node id="-550" lat="30.388784" lon="-97.906171" changeset="false"><tag k="addr:street" v="Ranch Road 620"/><tag k="addr:housenumber" v="4400"/><tag k="coa:place_id" v="5281494"/></node><node id="-551" lat="30.394658" lon="-97.883027" changeset="false"><tag k="addr:street" v="Park Drive,1100"/><tag k="addr:housenumber" v="12876"/><tag k="coa:place_id" v="1140617"/></node><node id="-552" lat="30.39385" lon="-97.884542" changeset="false"><tag k="addr:street" v="Thomas Street"/><tag k="addr:housenumber" v="12802"/><tag k="coa:place_id" v="95569"/></node><node id="-553" lat="30.427998" lon="-97.845031" changeset="false"><tag k="addr:street" v="Terraza Circle"/><tag k="addr:housenumber" v="12128"/><tag k="coa:place_id" v="3318848"/></node><node id="-554" lat="30.410337" lon="-97.864251" changeset="false"><tag k="addr:street" v="Bullick Hollow Road"/><tag k="addr:housenumber" v="12451"/><tag k="coa:place_id" v="3337711"/></node><node id="-555" lat="30.430118" lon="-97.845226" changeset="false"><tag k="addr:street" v="Mira Vista Way"/><tag k="addr:housenumber" v="12004"/><tag k="coa:place_id" v="3318788"/></node><node id="-556" lat="30.429951" lon="-97.845317" changeset="false"><tag k="addr:street" v="Mira Vista Way"/><tag k="addr:housenumber" v="12008"/><tag k="coa:place_id" v="3318789"/></node><node id="-557" lat="30.428434" lon="-97.846005" changeset="false"><tag k="addr:street" v="Terraza Circle"/><tag k="addr:housenumber" v="12024"/><tag k="coa:place_id" v="3318826"/></node><node id="-558" lat="30.415306" lon="-97.87564" changeset="false"><tag k="addr:street" v="Cielo Azul Pass"/><tag k="addr:housenumber" v="7200"/><tag k="coa:place_id" v="3321564"/></node><node id="-559" lat="30.395507" lon="-97.88363" changeset="false"><tag k="addr:street" v="Park Drive,1100"/><tag k="addr:housenumber" v="12886"/><tag k="coa:place_id" v="1140608"/></node><node id="-560" lat="30.392941" lon="-97.889351" changeset="false"><tag k="addr:street" v="Lakeview Drive"/><tag k="addr:housenumber" v="4910"/><tag k="coa:place_id" v="1140664"/></node><node id="-561" lat="30.392359" lon="-97.889704" changeset="false"><tag k="addr:street" v="Water Lane"/><tag k="addr:housenumber" v="13007"/><tag k="coa:place_id" v="95629"/></node><node id="-562" lat="30.420669" lon="-97.895508" changeset="false"><tag k="addr:street" v="Comanche Trail"/><tag k="addr:housenumber" v="7226"/><tag k="coa:place_id" v="179250"/></node><node id="-563" lat="30.415056" lon="-97.889903" changeset="false"><tag k="addr:street" v="Comanche Trail"/><tag k="addr:housenumber" v="7057"/><tag k="coa:place_id" v="182316"/></node><node id="-564" lat="30.431467" lon="-97.844608" changeset="false"><tag k="addr:street" v="Villa Norte Drive"/><tag k="addr:housenumber" v="9209"/><tag k="coa:place_id" v="3318759"/></node><node id="-565" lat="30.43139" lon="-97.844263" changeset="false"><tag k="addr:street" v="Villa Norte Drive"/><tag k="addr:housenumber" v="9208"/><tag k="coa:place_id" v="3318763"/></node><node id="-566" lat="30.452251" lon="-97.84891" changeset="false"><tag k="addr:street" v="Farm-to-Market Road 2769"/><tag k="addr:housenumber" v="13017"/><tag k="coa:place_id" v="3200592"/></node><node id="-567" lat="30.418279" lon="-97.847194" changeset="false"><tag k="addr:street" v="Ranch Road 620"/><tag k="addr:housenumber" v="8200"/><tag k="coa:place_id" v="3393369"/></node><node id="-568" lat="30.429764" lon="-97.845317" changeset="false"><tag k="addr:street" v="Mira Vista Way"/><tag k="addr:housenumber" v="12012"/><tag k="coa:place_id" v="3318790"/></node><node id="-569" lat="30.438488" lon="-97.869065" changeset="false"><tag k="addr:street" v="Farm-to-Market Road 2769"/><tag k="addr:housenumber" v="13645"/><tag k="coa:place_id" v="3292274"/></node><node id="-570" lat="30.44572" lon="-97.832468" changeset="false"><tag k="addr:street" v="Windy Ridge Road"/><tag k="addr:housenumber" v="11808"/><tag k="coa:place_id" v="3359566"/></node><node id="-571" lat="30.417496" lon="-97.88746" changeset="false"><tag k="addr:street" v="Mountain Trail"/><tag k="addr:housenumber" v="6715"/><tag k="coa:place_id" v="213208"/></node><node id="-572" lat="30.391778" lon="-97.889366" changeset="false"><tag k="addr:street" v="Lakeview Drive"/><tag k="addr:housenumber" v="4901"/><tag k="coa:place_id" v="95610"/></node><node id="-573" lat="30.428573" lon="-97.844174" changeset="false"><tag k="addr:street" v="Versante Circle"/><tag k="addr:housenumber" v="12020"/><tag k="coa:place_id" v="3318717"/></node><node id="-574" lat="30.431008" lon="-97.843122" changeset="false"><tag k="addr:street" v="Villa Norte Drive"/><tag k="addr:housenumber" v="9012"/><tag k="coa:place_id" v="3318742"/></node><node id="-575" lat="30.428073" lon="-97.844625" changeset="false"><tag k="addr:street" v="Terraza Circle"/><tag k="addr:housenumber" v="12209"/><tag k="coa:place_id" v="3318852"/></node><node id="-576" lat="30.427956" lon="-97.844383" changeset="false"><tag k="addr:street" v="Terraza Circle"/><tag k="addr:housenumber" v="12217"/><tag k="coa:place_id" v="3318854"/></node><node id="-577" lat="30.427622" lon="-97.84429" changeset="false"><tag k="addr:street" v="Terraza Circle"/><tag k="addr:housenumber" v="12224"/><tag k="coa:place_id" v="3318874"/></node><node id="-578" lat="30.389928" lon="-97.891044" changeset="false"><tag k="addr:street" v="Travis View Loop"/><tag k="addr:housenumber" v="13130"/><tag k="coa:place_id" v="3774708"/></node><node id="-579" lat="30.428676" lon="-97.845388" changeset="false"><tag k="addr:street" v="Terraza Circle"/><tag k="addr:housenumber" v="11925"/><tag k="coa:place_id" v="3318813"/></node><node id="-580" lat="30.410707" lon="-97.872931" changeset="false"><tag k="addr:street" v="Villa Montana Way"/><tag k="addr:housenumber" v="12831"/><tag k="coa:place_id" v="3217522"/></node><node id="-581" lat="30.412655" lon="-97.877078" changeset="false"><tag k="addr:street" v="Comanche Trail"/><tag k="addr:housenumber" v="6902"/><tag k="coa:place_id" v="3370720"/></node><node id="-582" lat="30.433513" lon="-97.8731" changeset="false"><tag k="addr:street" v="Bullick Hollow Road"/><tag k="addr:housenumber" v="13545"/><tag k="coa:place_id" v="3383175"/></node><node id="-583" lat="30.421168" lon="-97.855992" changeset="false"><tag k="addr:street" v="Tahoe Parke Circle"/><tag k="addr:housenumber" v="8007"/><tag k="coa:place_id" v="224394"/></node><node id="-584" lat="30.420892" lon="-97.857943" changeset="false"><tag k="addr:street" v="Tahoe Parke Circle"/><tag k="addr:housenumber" v="8034"/><tag k="coa:place_id" v="224377"/></node><node id="-585" lat="30.420383" lon="-97.860499" changeset="false"><tag k="addr:street" v="Waterton Parke Circle"/><tag k="addr:housenumber" v="12405"/><tag k="coa:place_id" v="109812"/></node><node id="-586" lat="30.418686" lon="-97.85919" changeset="false"><tag k="addr:street" v="Canyon Parke Court"/><tag k="addr:housenumber" v="8000"/><tag k="coa:place_id" v="102756"/></node><node id="-587" lat="30.418215" lon="-97.856013" changeset="false"><tag k="addr:street" v="Wilson Parke Avenue"/><tag k="addr:housenumber" v="12108"/><tag k="coa:place_id" v="677410"/></node><node id="-588" lat="30.421064" lon="-97.894615" changeset="false"><tag k="addr:street" v="Comanche Trail"/><tag k="addr:housenumber" v="7237"/><tag k="coa:place_id" v="179255"/></node><node id="-589" lat="30.419293" lon="-97.890214" changeset="false"><tag k="addr:street" v="Panorama Drive"/><tag k="addr:housenumber" v="14008"/><tag k="coa:place_id" v="182817"/></node><node id="-590" lat="30.412236" lon="-97.875483" changeset="false"><tag k="addr:street" v="Oasis Pass"/><tag k="addr:housenumber" v="6810"/><tag k="coa:place_id" v="3040841"/></node><node id="-591" lat="30.41413" lon="-97.875976" changeset="false"><tag k="addr:street" v="Cielo Azul Pass"/><tag k="addr:housenumber" v="7104"/><tag k="coa:place_id" v="3181300"/></node><node id="-592" lat="30.414069" lon="-97.849318" changeset="false"><tag k="addr:street" v="Ranch Road 620"/><tag k="addr:housenumber" v="7900"/><tag k="coa:place_id" v="3100120"/></node><node id="-593" lat="30.389764" lon="-97.892494" changeset="false"><tag k="addr:street" v="Mansfield Circle"/><tag k="addr:housenumber" v="13104"/><tag k="coa:place_id" v="144379"/></node><node id="-594" lat="30.393921" lon="-97.885388" changeset="false"><tag k="addr:street" v="Park Drive,1100"/><tag k="addr:housenumber" v="12905"/><tag k="coa:place_id" v="1140638"/></node><node id="-595" lat="30.393788" lon="-97.887019" changeset="false"><tag k="addr:street" v="Marshall Ford Road"/><tag k="addr:housenumber" v="5100"/><tag k="coa:place_id" v="990753"/></node><node id="-596" lat="30.393468" lon="-97.888737" changeset="false"><tag k="addr:street" v="Lakeview Drive"/><tag k="addr:housenumber" v="5004"/><tag k="coa:place_id" v="546170"/></node><node id="-597" lat="30.424039" lon="-97.858471" changeset="false"><tag k="addr:street" v="Alberta Ridge Trail"/><tag k="addr:housenumber" v="12505"/><tag k="coa:place_id" v="3036710"/></node><node id="-598" lat="30.42556" lon="-97.844726" changeset="false"><tag k="addr:street" v="Ranch Road 620"/><tag k="addr:housenumber" v="8600 1/2"/><tag k="coa:place_id" v="3048604"/></node><node id="-599" lat="30.416336" lon="-97.848328" changeset="false"><tag k="addr:street" v="Ranch Road 620"/><tag k="addr:housenumber" v="8110"/><tag k="coa:place_id" v="3129405"/></node><node id="-600" lat="30.422663" lon="-97.861786" changeset="false"><tag k="addr:street" v="Castle Peak Trail"/><tag k="addr:housenumber" v="8005"/><tag k="coa:place_id" v="105139"/></node><node id="-601" lat="30.3906" lon="-97.894985" changeset="false"><tag k="addr:street" v="Mansfield Drive"/><tag k="addr:housenumber" v="13213"/><tag k="coa:place_id" v="546536"/></node><node id="-602" lat="30.390914" lon="-97.89543" changeset="false"><tag k="addr:street" v="Mansfield Drive"/><tag k="addr:housenumber" v="13303"/><tag k="coa:place_id" v="546446"/></node><node id="-603" lat="30.416066" lon="-97.889281" changeset="false"><tag k="addr:street" v="Lake View Drive"/><tag k="addr:housenumber" v="13902"/><tag k="coa:place_id" v="182406"/></node><node id="-604" lat="30.412134" lon="-97.874884" changeset="false"><tag k="addr:street" v="Cielo Azul Pass"/><tag k="addr:housenumber" v="6912"/><tag k="coa:place_id" v="3180944"/></node><node id="-605" lat="30.412185" lon="-97.874084" changeset="false"><tag k="addr:street" v="Luna Montana South Way"/><tag k="addr:housenumber" v="12904"/><tag k="coa:place_id" v="3181003"/></node><node id="-606" lat="30.412151" lon="-97.873889" changeset="false"><tag k="addr:street" v="Luna Montana South Way"/><tag k="addr:housenumber" v="12908"/><tag k="coa:place_id" v="3181004"/></node><node id="-607" lat="30.412731" lon="-97.872334" changeset="false"><tag k="addr:street" v="Villa Montana Way"/><tag k="addr:housenumber" v="13205"/><tag k="coa:place_id" v="3181042"/></node><node id="-608" lat="30.392492" lon="-97.889015" changeset="false"><tag k="addr:street" v="Water Lane"/><tag k="addr:housenumber" v="13004"/><tag k="coa:place_id" v="546266"/></node><node id="-609" lat="30.391089" lon="-97.883969" changeset="false"><tag k="addr:street" v="Mansfield View Court"/><tag k="addr:housenumber" v="5122"/><tag k="coa:place_id" v="229289"/></node><node id="-610" lat="30.411592" lon="-97.872156" changeset="false"><tag k="addr:street" v="Luna Montana South Way"/><tag k="addr:housenumber" v="13005"/><tag k="coa:place_id" v="3181063"/></node><node id="-611" lat="30.41291" lon="-97.870547" changeset="false"><tag k="addr:street" v="Villa Montana Way"/><tag k="addr:housenumber" v="13125"/><tag k="coa:place_id" v="3181088"/></node><node id="-612" lat="30.400966" lon="-97.855939" changeset="false"><tag k="addr:street" v="Ranch Road 620"/><tag k="addr:housenumber" v="6800"/><tag k="coa:place_id" v="1141107"/></node><node id="-613" lat="30.414283" lon="-97.892927" changeset="false"><tag k="addr:street" v="Comanche Trail"/><tag k="addr:housenumber" v="7094"/><tag k="coa:place_id" v="179351"/></node><node id="-614" lat="30.417087" lon="-97.892308" changeset="false"><tag k="addr:street" v="Skyline Drive"/><tag k="addr:housenumber" v="14016"/><tag k="coa:place_id" v="237661"/></node><node id="-615" lat="30.440979" lon="-97.86909" changeset="false"><tag k="addr:street" v="Farm-to-Market Road 2769"/><tag k="addr:housenumber" v="13629"/><tag k="coa:place_id" v="196507"/></node><node id="-616" lat="30.414687" lon="-97.889369" changeset="false"><tag k="addr:street" v="Comanche Trail"/><tag k="addr:housenumber" v="7051"/><tag k="coa:place_id" v="139006"/></node><node id="-617" lat="30.410641" lon="-97.874857" changeset="false"><tag k="addr:street" v="Oasis Pass"/><tag k="addr:housenumber" v="6714"/><tag k="coa:place_id" v="133669"/></node><node id="-618" lat="30.411713" lon="-97.875489" changeset="false"><tag k="addr:street" v="Oasis Pass"/><tag k="addr:housenumber" v="6805"/><tag k="coa:place_id" v="3031049"/></node><node id="-619" lat="30.413883" lon="-97.875885" changeset="false"><tag k="addr:street" v="Cielo Azul Pass"/><tag k="addr:housenumber" v="7100"/><tag k="coa:place_id" v="3181299"/></node><node id="-620" lat="30.391033" lon="-97.896162" changeset="false"><tag k="addr:street" v="Mansfield Drive"/><tag k="addr:housenumber" v="13307"/><tag k="coa:place_id" v="816405"/></node><node id="-621" lat="30.419991" lon="-97.857405" changeset="false"><tag k="addr:street" v="Klondike Rush Point"/><tag k="addr:housenumber" v="12301"/><tag k="coa:place_id" v="122676"/></node><node id="-622" lat="30.393049" lon="-97.887973" changeset="false"><tag k="addr:street" v="Marshall Ford Road"/><tag k="addr:housenumber" v="5004"/><tag k="coa:place_id" v="546218"/></node><node id="-623" lat="30.407682" lon="-97.874891" changeset="false"><tag k="addr:street" v="Comanche Trail"/><tag k="addr:housenumber" v="6638"/><tag k="coa:place_id" v="207913"/></node><node id="-624" lat="30.416255" lon="-97.888469" changeset="false"><tag k="addr:street" v="Skyline Drive"/><tag k="addr:housenumber" v="13807"/><tag k="coa:place_id" v="3067756"/></node><node id="-625" lat="30.416145" lon="-97.889959" changeset="false"><tag k="addr:street" v="Lake View Drive"/><tag k="addr:housenumber" v="13911"/><tag k="coa:place_id" v="182376"/></node><node id="-626" lat="30.415849" lon="-97.888889" changeset="false"><tag k="addr:street" v="Lake View Drive"/><tag k="addr:housenumber" v="13816"/><tag k="coa:place_id" v="176952"/></node><node id="-627" lat="30.415642" lon="-97.893013" changeset="false"><tag k="addr:street" v="Lake View Drive"/><tag k="addr:housenumber" v="14022"/><tag k="coa:place_id" v="182421"/></node><node id="-628" lat="30.415328" lon="-97.889193" changeset="false"><tag k="addr:street" v="Lake View Drive"/><tag k="addr:housenumber" v="13901"/><tag k="coa:place_id" v="182367"/></node><node id="-629" lat="30.422974" lon="-97.860942" changeset="false"><tag k="addr:street" v="Davis Mountain Pass"/><tag k="addr:housenumber" v="8100"/><tag k="coa:place_id" v="105197"/></node><node id="-630" lat="30.420165" lon="-97.857994" changeset="false"><tag k="addr:street" v="Klondike Rush Point"/><tag k="addr:housenumber" v="12305"/><tag k="coa:place_id" v="748930"/></node><node id="-631" lat="30.419874" lon="-97.860599" changeset="false"><tag k="addr:street" v="Weldon Springs Court"/><tag k="addr:housenumber" v="8002"/><tag k="coa:place_id" v="102779"/></node><node id="-632" lat="30.426801" lon="-97.843659" changeset="false"><tag k="addr:street" v="Ranch Road 620"/><tag k="addr:housenumber" v="8612"/><tag k="coa:place_id" v="123944"/></node><node id="-633" lat="30.427436" lon="-97.856504" changeset="false"><tag k="addr:street" v="Denali Parkway"/><tag k="addr:housenumber" v="8409"/><tag k="coa:place_id" v="3078469"/></node><node id="-634" lat="30.419125" lon="-97.899064" changeset="false"><tag k="addr:street" v="Ridgetop Terrace"/><tag k="addr:housenumber" v="14529"/><tag k="coa:place_id" v="3119372"/></node><node id="-635" lat="30.420156" lon="-97.896061" changeset="false"><tag k="addr:street" v="Comanche Trail"/><tag k="addr:housenumber" v="7220"/><tag k="coa:place_id" v="179245"/></node><node id="-636" lat="30.422238" lon="-97.855858" changeset="false"><tag k="addr:street" v="Tahoe Parke Circle"/><tag k="addr:housenumber" v="8140"/><tag k="coa:place_id" v="224425"/></node><node id="-637" lat="30.393271" lon="-97.890096" changeset="false"><tag k="addr:street" v="Water Lane"/><tag k="addr:housenumber" v="13100"/><tag k="coa:place_id" v="546284"/></node><node id="-638" lat="30.393026" lon="-97.883693" changeset="false"><tag k="addr:street" v="Hughes Street"/><tag k="addr:housenumber" v="12800"/><tag k="coa:place_id" v="95581"/></node><node id="-639" lat="30.392994" lon="-97.884061" changeset="false"><tag k="addr:street" v="Hughes Street"/><tag k="addr:housenumber" v="12802"/><tag k="coa:place_id" v="95584"/></node><node id="-640" lat="30.390624" lon="-97.892459" changeset="false"><tag k="addr:street" v="Travis View Loop"/><tag k="addr:housenumber" v="13110"/><tag k="coa:place_id" v="123353"/></node><node id="-641" lat="30.394935" lon="-97.876136" changeset="false"><tag k="addr:street" v="Hughes Park Road"/><tag k="addr:housenumber" v="12795"/><tag k="coa:place_id" v="1140710"/></node><node id="-642" lat="30.394207" lon="-97.883154" changeset="false"><tag k="addr:street" v="Park Drive,1100"/><tag k="addr:housenumber" v="12873"/><tag k="coa:place_id" v="1140634"/></node><node id="-643" lat="30.426002" lon="-97.85912" changeset="false"><tag k="addr:street" v="Verandah Court"/><tag k="addr:housenumber" v="12517"/><tag k="coa:place_id" v="3078452"/></node><node id="-644" lat="30.448048" lon="-97.839162" changeset="false"><tag k="addr:street" v="Hanging Valley Drive"/><tag k="addr:housenumber" v="12216"/><tag k="coa:place_id" v="3029209"/></node><node id="-645" lat="30.443762" lon="-97.835885" changeset="false"><tag k="addr:street" v="Buckner Road"/><tag k="addr:housenumber" v="11827"/><tag k="coa:place_id" v="3091439"/></node><node id="-646" lat="30.450391" lon="-97.838529" changeset="false"><tag k="addr:street" v="Painted Bunting Drive"/><tag k="addr:housenumber" v="12310"/><tag k="coa:place_id" v="113790"/></node><node id="-647" lat="30.388449" lon="-97.897355" changeset="false"><tag k="addr:street" v="Ranch Road 620"/><tag k="addr:housenumber" v="4504 1/2"/><tag k="coa:place_id" v="3120221"/></node><node id="-648" lat="30.412081" lon="-97.871587" changeset="false"><tag k="addr:street" v="Luna Montana South Way"/><tag k="addr:housenumber" v="13017"/><tag k="coa:place_id" v="3181066"/></node><node id="-649" lat="30.412379" lon="-97.873285" changeset="false"><tag k="addr:street" v="Villa Montana Way"/><tag k="addr:housenumber" v="13224"/><tag k="coa:place_id" v="3181028"/></node><node id="-650" lat="30.389214" lon="-97.894549" changeset="false"><tag k="addr:street" v="Mansfield Drive"/><tag k="addr:housenumber" v="13201"/><tag k="coa:place_id" v="1140588"/></node><node id="-651" lat="30.414779" lon="-97.889592" changeset="false"><tag k="addr:street" v="Comanche Trail"/><tag k="addr:housenumber" v="7053"/><tag k="coa:place_id" v="182311"/></node><node id="-652" lat="30.392525" lon="-97.882086" changeset="false"><tag k="addr:street" v="Lyndon Drive"/><tag k="addr:housenumber" v="12604"/><tag k="coa:place_id" v="910575"/></node><node id="-653" lat="30.390642" lon="-97.881012" changeset="false"><tag k="addr:street" v="Cedar Street"/><tag k="addr:housenumber" v="12513"/><tag k="coa:place_id" v="1140567"/></node><node id="-654" lat="30.426632" lon="-97.85792" changeset="false"><tag k="addr:street" v="Denali Parkway"/><tag k="addr:housenumber" v="8300"/><tag k="coa:place_id" v="3078463"/></node><node id="-655" lat="30.420578" lon="-97.857202" changeset="false"><tag k="addr:street" v="Tahoe Parke Circle"/><tag k="addr:housenumber" v="8022"/><tag k="coa:place_id" v="232286"/></node><node id="-656" lat="30.422244" lon="-97.85556" changeset="false"><tag k="addr:street" v="Tahoe Parke Circle"/><tag k="addr:housenumber" v="8144"/><tag k="coa:place_id" v="224429"/></node><node id="-657" lat="30.414318" lon="-97.888668" changeset="false"><tag k="addr:street" v="Comanche Trail"/><tag k="addr:housenumber" v="7044"/><tag k="coa:place_id" v="179358"/></node><node id="-658" lat="30.388053" lon="-97.897293" changeset="false"><tag k="addr:street" v="Ranch Road 620"/><tag k="addr:housenumber" v="4504"/><tag k="coa:place_id" v="3043200"/></node><node id="-659" lat="30.387867" lon="-97.905612" changeset="false"><tag k="addr:street" v="Low Water Crossing Road"/><tag k="addr:housenumber" v="13808"/><tag k="coa:place_id" v="554350"/></node><node id="-660" lat="30.393998" lon="-97.885164" changeset="false"><tag k="addr:street" v="Park Drive,1100"/><tag k="addr:housenumber" v="12903"/><tag k="coa:place_id" v="1140636"/></node><node id="-661" lat="30.429497" lon="-97.844761" changeset="false"><tag k="addr:street" v="Mira Vista Way"/><tag k="addr:housenumber" v="12025"/><tag k="coa:place_id" v="3318797"/></node><node id="-662" lat="30.449406" lon="-97.841093" changeset="false"><tag k="addr:street" v="Hanging Valley Drive"/><tag k="addr:housenumber" v="12322"/><tag k="coa:place_id" v="203429"/></node><node id="-663" lat="30.439729" lon="-97.869757" changeset="false"><tag k="addr:street" v="Farm-to-Market Road 2769"/><tag k="addr:housenumber" v="13701"/><tag k="coa:place_id" v="3124828"/></node><node id="-664" lat="30.412427" lon="-97.870198" changeset="false"><tag k="addr:street" v="Villa Montana Way"/><tag k="addr:housenumber" v="13113"/><tag k="coa:place_id" v="3181085"/></node><node id="-665" lat="30.412429" lon="-97.873658" changeset="false"><tag k="addr:street" v="Villa Montana Way"/><tag k="addr:housenumber" v="13232"/><tag k="coa:place_id" v="3181030"/></node><node id="-666" lat="30.413369" lon="-97.872353" changeset="false"><tag k="addr:street" v="Luna Montana South Way"/><tag k="addr:housenumber" v="13101"/><tag k="coa:place_id" v="3181095"/></node><node id="-667" lat="30.425335" lon="-97.858745" changeset="false"><tag k="addr:street" v="Verandah Court"/><tag k="addr:housenumber" v="12505"/><tag k="coa:place_id" v="3078441"/></node><node id="-668" lat="30.42537" lon="-97.872843" changeset="false"><tag k="addr:street" v="Bullick Hollow Road"/><tag k="addr:housenumber" v="13301"/><tag k="coa:place_id" v="3050730"/></node><node id="-669" lat="30.391107" lon="-97.889364" changeset="false"><tag k="addr:street" v="Marshall Ford Road"/><tag k="addr:housenumber" v="4802"/><tag k="coa:place_id" v="95497"/></node><node id="-670" lat="30.421175" lon="-97.895034" changeset="false"><tag k="addr:street" v="Comanche Trail"/><tag k="addr:housenumber" v="7232"/><tag k="coa:place_id" v="179254"/></node><node id="-671" lat="30.417692" lon="-97.891388" changeset="false"><tag k="addr:street" v="Skyline Drive"/><tag k="addr:housenumber" v="14008"/><tag k="coa:place_id" v="182741"/></node><node id="-672" lat="30.392796" lon="-97.884489" changeset="false"><tag k="addr:street" v="Hughes Street"/><tag k="addr:housenumber" v="12806"/><tag k="coa:place_id" v="95586"/></node><node id="-673" lat="30.392789" lon="-97.889457" changeset="false"><tag k="addr:street" v="Lakeview Drive"/><tag k="addr:housenumber" v="4908"/><tag k="coa:place_id" v="95634"/></node><node id="-674" lat="30.393602" lon="-97.882606" changeset="false"><tag k="addr:street" v="Park Drive,1100"/><tag k="addr:housenumber" v="12863"/><tag k="coa:place_id" v="71785"/></node><node id="-675" lat="30.411522" lon="-97.875242" changeset="false"><tag k="addr:street" v="Oasis Pass"/><tag k="addr:housenumber" v="6801"/><tag k="coa:place_id" v="3036243"/></node><node id="-676" lat="30.408964" lon="-97.875133" changeset="false"><tag k="addr:street" v="Comanche Trail"/><tag k="addr:housenumber" v="6714"/><tag k="coa:place_id" v="207911"/></node><node id="-677" lat="30.411722" lon="-97.87432" changeset="false"><tag k="addr:street" v="Cielo Azul Pass"/><tag k="addr:housenumber" v="6917"/><tag k="coa:place_id" v="3180943"/></node><node id="-678" lat="30.419005" lon="-97.899311" changeset="false"><tag k="addr:street" v="Ridgetop Terrace"/><tag k="addr:housenumber" v="14527"/><tag k="coa:place_id" v="1141907"/></node><node id="-679" lat="30.418825" lon="-97.899569" changeset="false"><tag k="addr:street" v="Ridgetop Terrace"/><tag k="addr:housenumber" v="14525"/><tag k="coa:place_id" v="133259"/></node><node id="-680" lat="30.418712" lon="-97.899853" changeset="false"><tag k="addr:street" v="Ridgetop Terrace"/><tag k="addr:housenumber" v="14523"/><tag k="coa:place_id" v="3119373"/></node><node id="-681" lat="30.416563" lon="-97.88985" changeset="false"><tag k="addr:street" v="Lake View Drive"/><tag k="addr:housenumber" v="13908"/><tag k="coa:place_id" v="182407"/></node><node id="-682" lat="30.415694" lon="-97.891732" changeset="false"><tag k="addr:street" v="Comanche Trail"/><tag k="addr:housenumber" v="7077"/><tag k="coa:place_id" v="182329"/></node><node id="-683" lat="30.419129" lon="-97.858211" changeset="false"><tag k="addr:street" v="Caribou Parke Cove"/><tag k="addr:housenumber" v="8006"/><tag k="coa:place_id" v="102852"/></node><node id="-684" lat="30.415809" lon="-97.890459" changeset="false"><tag k="addr:street" v="Comanche Trail"/><tag k="addr:housenumber" v="7065"/><tag k="coa:place_id" v="182322"/></node><node id="-685" lat="30.404437" lon="-97.854335" changeset="false"><tag k="addr:street" v="Ranch Road 620"/><tag k="addr:housenumber" v="7100"/><tag k="coa:place_id" v="637155"/></node><node id="-686" lat="30.398801" lon="-97.871078" changeset="false"><tag k="addr:street" v="Comanche Trail"/><tag k="addr:housenumber" v="6200"/><tag k="coa:place_id" v="216690"/></node><node id="-687" lat="30.419913" lon="-97.858655" changeset="false"><tag k="addr:street" v="Waterton Parke Circle"/><tag k="addr:housenumber" v="12306"/><tag k="coa:place_id" v="628336"/></node><node id="-688" lat="30.417573" lon="-97.898562" changeset="false"><tag k="addr:street" v="Ridgetop Terrace"/><tag k="addr:housenumber" v="14600"/><tag k="coa:place_id" v="1159254"/></node><node id="-689" lat="30.402047" lon="-97.855446" changeset="false"><tag k="addr:street" v="Ranch Road 620"/><tag k="addr:housenumber" v="6816"/><tag k="coa:place_id" v="545150"/></node><node id="-690" lat="30.423604" lon="-97.863371" changeset="false"><tag k="addr:street" v="Cloud Mountain Crossing"/><tag k="addr:housenumber" v="12704"/><tag k="coa:place_id" v="223607"/></node><node id="-691" lat="30.417156" lon="-97.889241" changeset="false"><tag k="addr:street" v="Skyline Drive"/><tag k="addr:housenumber" v="13906"/><tag k="coa:place_id" v="182725"/></node><node id="-692" lat="30.414698" lon="-97.893618" changeset="false"><tag k="addr:street" v="Lake View Drive"/><tag k="addr:housenumber" v="14032"/><tag k="coa:place_id" v="182428"/></node><node id="-693" lat="30.421741" lon="-97.861893" changeset="false"><tag k="addr:street" v="Davis Mountain Cove"/><tag k="addr:housenumber" v="8006"/><tag k="coa:place_id" v="105175"/></node><node id="-694" lat="30.428105" lon="-97.856705" changeset="false"><tag k="addr:street" v="Denali Parkway"/><tag k="addr:housenumber" v="8424"/><tag k="coa:place_id" v="3078467"/></node><node id="-695" lat="30.4116" lon="-97.874501" changeset="false"><tag k="addr:street" v="Cielo Azul Pass"/><tag k="addr:housenumber" v="6913"/><tag k="coa:place_id" v="3180942"/></node><node id="-696" lat="30.42118" lon="-97.85702" changeset="false"><tag k="addr:street" v="Tahoe Parke Circle"/><tag k="addr:housenumber" v="8021"/><tag k="coa:place_id" v="224453"/></node><node id="-697" lat="30.418499" lon="-97.856912" changeset="false"><tag k="addr:street" v="Mead Parke Cove"/><tag k="addr:housenumber" v="8003"/><tag k="coa:place_id" v="107389"/></node><node id="-698" lat="30.419242" lon="-97.889969" changeset="false"><tag k="addr:street" v="Panorama Drive"/><tag k="addr:housenumber" v="14006"/><tag k="coa:place_id" v="182814"/></node><node id="-699" lat="30.455097" lon="-97.826921" changeset="false"><tag k="addr:street" v="Ranch Road 620"/><tag k="addr:housenumber" v="11518"/><tag k="coa:place_id" v="220986"/></node><node id="-700" lat="30.395637" lon="-97.883045" changeset="false"><tag k="addr:street" v="Park Drive,1100"/><tag k="addr:housenumber" v="12882"/><tag k="coa:place_id" v="1140607"/></node><node id="-701" lat="30.427858" lon="-97.871926" changeset="false"><tag k="addr:street" v="Bullick Hollow Road"/><tag k="addr:housenumber" v="13400"/><tag k="coa:place_id" v="225415"/></node><node id="-702" lat="30.393974" lon="-97.886254" changeset="false"><tag k="addr:street" v="Park Drive,1100"/><tag k="addr:housenumber" v="12912"/><tag k="coa:place_id" v="1140632"/></node><node id="-703" lat="30.393742" lon="-97.887202" changeset="false"><tag k="addr:street" v="Lakeview Drive"/><tag k="addr:housenumber" v="5020"/><tag k="coa:place_id" v="95651"/></node><node id="-704" lat="30.45177" lon="-97.829504" changeset="false"><tag k="addr:street" v="Ranch Road 620"/><tag k="addr:housenumber" v="11210"/><tag k="coa:place_id" v="130321"/></node><node id="-705" lat="30.448816" lon="-97.838172" changeset="false"><tag k="addr:street" v="Painted Bunting Drive"/><tag k="addr:housenumber" v="12211"/><tag k="coa:place_id" v="113795"/></node><node id="-706" lat="30.439511" lon="-97.838042" changeset="false"><tag k="addr:street" v="Ranch Road 620"/><tag k="addr:housenumber" v="9900"/><tag k="coa:place_id" v="3116153"/></node><node id="-707" lat="30.450904" lon="-97.839278" changeset="false"><tag k="addr:street" v="Painted Bunting Drive"/><tag k="addr:housenumber" v="12406"/><tag k="coa:place_id" v="113789"/></node><node id="-708" lat="30.450134" lon="-97.840055" changeset="false"><tag k="addr:street" v="Painted Bunting Drive"/><tag k="addr:housenumber" v="12401"/><tag k="coa:place_id" v="113801"/></node><node id="-709" lat="30.413213" lon="-97.872191" changeset="false"><tag k="addr:street" v="Luna Montana South Way"/><tag k="addr:housenumber" v="13037"/><tag k="coa:place_id" v="3181093"/></node><node id="-710" lat="30.392258" lon="-97.884714" changeset="false"><tag k="addr:street" v="Marshall Ford Road"/><tag k="addr:housenumber" v="5116"/><tag k="coa:place_id" v="1140679"/></node><node id="-711" lat="30.392138" lon="-97.883689" changeset="false"><tag k="addr:street" v="Cedar Street"/><tag k="addr:housenumber" v="12709"/><tag k="coa:place_id" v="95459"/></node><node id="-712" lat="30.391849" lon="-97.884592" changeset="false"><tag k="addr:street" v="Marshall Ford Road"/><tag k="addr:housenumber" v="5118"/><tag k="coa:place_id" v="1140687"/></node><node id="-713" lat="30.416761" lon="-97.892335" changeset="false"><tag k="addr:street" v="Skyline Drive"/><tag k="addr:housenumber" v="14020"/><tag k="coa:place_id" v="182431"/></node><node id="-714" lat="30.425127" lon="-97.861917" changeset="false"><tag k="addr:street" v="Phantom Canyon Drive"/><tag k="addr:housenumber" v="8200"/><tag k="coa:place_id" v="196572"/></node><node id="-715" lat="30.393682" lon="-97.88652" changeset="false"><tag k="addr:street" v="Marshall Ford Road"/><tag k="addr:housenumber" v="5104"/><tag k="coa:place_id" v="1140645"/></node><node id="-716" lat="30.393643" lon="-97.887972" changeset="false"><tag k="addr:street" v="Lakeview Drive"/><tag k="addr:housenumber" v="5012"/><tag k="coa:place_id" v="546182"/></node><node id="-717" lat="30.393473" lon="-97.885398" changeset="false"><tag k="addr:street" v="Thomas Street"/><tag k="addr:housenumber" v="12810"/><tag k="coa:place_id" v="95574"/></node><node id="-718" lat="30.390965" lon="-97.88048" changeset="false"><tag k="addr:street" v="Cedar Street"/><tag k="addr:housenumber" v="12509"/><tag k="coa:place_id" v="1140706"/></node><node id="-719" lat="30.416702" lon="-97.848177" changeset="false"><tag k="addr:street" v="Wilson Parke Avenue"/><tag k="addr:housenumber" v="11701 1/2"/><tag k="coa:place_id" v="3099741"/></node><node id="-720" lat="30.419705" lon="-97.884502" changeset="false"><tag k="addr:street" v="Mountain Trail"/><tag k="addr:housenumber" v="7107"/><tag k="coa:place_id" v="182779"/></node><node id="-721" lat="30.409676" lon="-97.875551" changeset="false"><tag k="addr:street" v="Comanche Trail"/><tag k="addr:housenumber" v="6740"/><tag k="coa:place_id" v="207912"/></node><node id="-722" lat="30.413908" lon="-97.893475" changeset="false"><tag k="addr:street" v="Comanche Trail"/><tag k="addr:housenumber" v="7098"/><tag k="coa:place_id" v="179377"/></node><node id="-723" lat="30.412119" lon="-97.865092" changeset="false"><tag k="addr:street" v="Bullick Hollow Road"/><tag k="addr:housenumber" v="12501"/><tag k="coa:place_id" v="3129914"/></node><node id="-724" lat="30.411614" lon="-97.872926" changeset="false"><tag k="addr:street" v="Luna Montana South Way"/><tag k="addr:housenumber" v="12929"/><tag k="coa:place_id" v="3180983"/></node><node id="-725" lat="30.41609" lon="-97.891159" changeset="false"><tag k="addr:street" v="Comanche Trail"/><tag k="addr:housenumber" v="7071"/><tag k="coa:place_id" v="182326"/></node><node id="-726" lat="30.4149" lon="-97.892035" changeset="false"><tag k="addr:street" v="Comanche Trail"/><tag k="addr:housenumber" v="7084"/><tag k="coa:place_id" v="179371"/></node><node id="-727" lat="30.404977" lon="-97.873403" changeset="false"><tag k="addr:street" v="Comanche Trail"/><tag k="addr:housenumber" v="6550"/><tag k="coa:place_id" v="226817"/></node><node id="-728" lat="30.404773" lon="-97.87184" changeset="false"><tag k="addr:street" v="Comanche Trail"/><tag k="addr:housenumber" v="6545"/><tag k="coa:place_id" v="1164424"/></node><node id="-729" lat="30.424477" lon="-97.861713" changeset="false"><tag k="addr:street" v="Red Bird Court"/><tag k="addr:housenumber" v="8111"/><tag k="coa:place_id" v="223639"/></node><node id="-730" lat="30.418159" lon="-97.886491" changeset="false"><tag k="addr:street" v="Panorama Drive"/><tag k="addr:housenumber" v="13805"/><tag k="coa:place_id" v="182789"/></node><node id="-731" lat="30.422109" lon="-97.862571" changeset="false"><tag k="addr:street" v="Davis Mountain Pass"/><tag k="addr:housenumber" v="8003"/><tag k="coa:place_id" v="133771"/></node><node id="-732" lat="30.421824" lon="-97.861893" changeset="false"><tag k="addr:street" v="Davis Mountain Cove"/><tag k="addr:housenumber" v="8008"/><tag k="coa:place_id" v="685468"/></node><node id="-733" lat="30.418226" lon="-97.856328" changeset="false"><tag k="addr:street" v="Wilson Parke Avenue"/><tag k="addr:housenumber" v="12116"/><tag k="coa:place_id" v="110489"/></node><node id="-734" lat="30.417717" lon="-97.856866" changeset="false"><tag k="addr:street" v="Wilson Parke Avenue"/><tag k="addr:housenumber" v="12117"/><tag k="coa:place_id" v="101009"/></node><node id="-735" lat="30.42031" lon="-97.895849" changeset="false"><tag k="addr:street" v="Comanche Trail"/><tag k="addr:housenumber" v="7222"/><tag k="coa:place_id" v="179248"/></node><node id="-736" lat="30.418565" lon="-97.889806" changeset="false"><tag k="addr:street" v="Panorama Drive"/><tag k="addr:housenumber" v="14003"/><tag k="coa:place_id" v="182811"/></node><node id="-737" lat="30.413518" lon="-97.877178" changeset="false"><tag k="addr:street" v="Comanche Trail"/><tag k="addr:housenumber" v="6907"/><tag k="coa:place_id" v="3181308"/></node><node id="-738" lat="30.448958" lon="-97.841541" changeset="false"><tag k="addr:street" v="Hanging Valley Drive"/><tag k="addr:housenumber" v="12326"/><tag k="coa:place_id" v="203425"/></node><node id="-739" lat="30.394266" lon="-97.878359" changeset="false"><tag k="addr:street" v="Hughes Park Road"/><tag k="addr:housenumber" v="12823"/><tag k="coa:place_id" v="209851"/></node><node id="-740" lat="30.393758" lon="-97.88476" changeset="false"><tag k="addr:street" v="Thomas Street"/><tag k="addr:housenumber" v="12804"/><tag k="coa:place_id" v="80937"/></node><node id="-741" lat="30.419386" lon="-97.856825" changeset="false"><tag k="addr:street" v="Mead Parke Cove"/><tag k="addr:housenumber" v="8009"/><tag k="coa:place_id" v="107400"/></node><node id="-742" lat="30.42377" lon="-97.860832" changeset="false"><tag k="addr:street" v="Castle Peak Trail"/><tag k="addr:housenumber" v="8109"/><tag k="coa:place_id" v="105162"/></node><node id="-743" lat="30.423349" lon="-97.860566" changeset="false"><tag k="addr:street" v="Davis Mountain Pass"/><tag k="addr:housenumber" v="8106"/><tag k="coa:place_id" v="119244"/></node><node id="-744" lat="30.420283" lon="-97.861294" changeset="false"><tag k="addr:street" v="Waterton Parke Cove"/><tag k="addr:housenumber" v="12407"/><tag k="coa:place_id" v="724630"/></node><node id="-745" lat="30.422473" lon="-97.856314" changeset="false"><tag k="addr:street" v="Tahoe Parke Circle"/><tag k="addr:housenumber" v="8132"/><tag k="coa:place_id" v="224423"/></node><node id="-746" lat="30.419504" lon="-97.859844" changeset="false"><tag k="addr:street" v="Weldon Springs Court"/><tag k="addr:housenumber" v="8005"/><tag k="coa:place_id" v="102775"/></node><node id="-747" lat="30.391617" lon="-97.889026" changeset="false"><tag k="addr:street" v="Marshall Ford Road"/><tag k="addr:housenumber" v="4808"/><tag k="coa:place_id" v="546320"/></node><node id="-748" lat="30.391352" lon="-97.884075" changeset="false"><tag k="addr:street" v="Mansfield View Court"/><tag k="addr:housenumber" v="5120"/><tag k="coa:place_id" v="1134368"/></node><node id="-749" lat="30.390117" lon="-97.891575" changeset="false"><tag k="addr:street" v="Travis View Loop"/><tag k="addr:housenumber" v="13125"/><tag k="coa:place_id" v="1042520"/></node><node id="-750" lat="30.411677" lon="-97.873204" changeset="false"><tag k="addr:street" v="Luna Montana South Way"/><tag k="addr:housenumber" v="12925"/><tag k="coa:place_id" v="3180982"/></node><node id="-751" lat="30.421355" lon="-97.857397" changeset="false"><tag k="addr:street" v="Tahoe Parke Circle"/><tag k="addr:housenumber" v="8029"/><tag k="coa:place_id" v="224376"/></node><node id="-752" lat="30.420237" lon="-97.858203" changeset="false"><tag k="addr:street" v="Klondike Rush Point"/><tag k="addr:housenumber" v="12307"/><tag k="coa:place_id" v="107413"/></node><node id="-753" lat="30.444233" lon="-97.837338" changeset="false"><tag k="addr:street" v="Buckner Road"/><tag k="addr:housenumber" v="11833"/><tag k="coa:place_id" v="3091462"/></node><node id="-754" lat="30.430778" lon="-97.874217" changeset="false"><tag k="addr:street" v="Bullick Hollow Road"/><tag k="addr:housenumber" v="13511"/><tag k="coa:place_id" v="162127"/></node><node id="-755" lat="30.392748" lon="-97.884302" changeset="false"><tag k="addr:street" v="Hughes Street"/><tag k="addr:housenumber" v="12810"/><tag k="coa:place_id" v="141947"/></node><node id="-756" lat="30.392559" lon="-97.881575" changeset="false"><tag k="addr:street" v="Lyndon Drive"/><tag k="addr:housenumber" v="12602"/><tag k="coa:place_id" v="3034302"/></node><node id="-757" lat="30.391967" lon="-97.889894" changeset="false"><tag k="addr:street" v="Lakeview Drive"/><tag k="addr:housenumber" v="4900"/><tag k="coa:place_id" v="95627"/></node><node id="-758" lat="30.39195" lon="-97.889282" changeset="false"><tag k="addr:street" v="Lakeview Drive"/><tag k="addr:housenumber" v="4903"/><tag k="coa:place_id" v="95611"/></node><node id="-759" lat="30.412946" lon="-97.870288" changeset="false"><tag k="addr:street" v="Villa Montana Way"/><tag k="addr:housenumber" v="13121"/><tag k="coa:place_id" v="3181087"/></node><node id="-760" lat="30.418048" lon="-97.887291" changeset="false"><tag k="addr:street" v="Panorama Drive"/><tag k="addr:housenumber" v="13811"/><tag k="coa:place_id" v="166522"/></node><node id="-761" lat="30.422832" lon="-97.858963" changeset="false"><tag k="addr:street" v="Glacier Parke Cove"/><tag k="addr:housenumber" v="12500"/><tag k="coa:place_id" v="3029196"/></node><node id="-762" lat="30.41985" lon="-97.884336" changeset="false"><tag k="addr:street" v="Mountain Trail"/><tag k="addr:housenumber" v="7201"/><tag k="coa:place_id" v="182781"/></node><node id="-763" lat="30.414337" lon="-97.889006" changeset="false"><tag k="addr:street" v="Comanche Trail"/><tag k="addr:housenumber" v="7050"/><tag k="coa:place_id" v="179359"/></node><node id="-764" lat="30.424058" lon="-97.861246" changeset="false"><tag k="addr:street" v="Castle Peak Trail"/><tag k="addr:housenumber" v="8108"/><tag k="coa:place_id" v="706420"/></node><node id="-765" lat="30.430702" lon="-97.843264" changeset="false"><tag k="addr:street" v="Mira Vista Way"/><tag k="addr:housenumber" v="11800"/><tag k="coa:place_id" v="3318767"/></node><node id="-766" lat="30.448795" lon="-97.830859" changeset="false"><tag k="addr:street" v="Ranch Road 620"/><tag k="addr:housenumber" v="10814"/><tag k="coa:place_id" v="3222402"/></node><node id="-767" lat="30.428115" lon="-97.844179" changeset="false"><tag k="addr:street" v="Terraza Circle"/><tag k="addr:housenumber" v="11809"/><tag k="coa:place_id" v="3318800"/></node><node id="-768" lat="30.39461" lon="-97.884096" changeset="false"><tag k="addr:street" v="Park Drive,1100"/><tag k="addr:housenumber" v="12887"/><tag k="coa:place_id" v="95549"/></node><node id="-769" lat="30.440627" lon="-97.871563" changeset="false"><tag k="addr:street" v="Farm-to-Market Road 2769"/><tag k="addr:housenumber" v="13813"/><tag k="coa:place_id" v="3200582"/></node><node id="-770" lat="30.4421" lon="-97.864223" changeset="false"><tag k="addr:street" v="Farm-to-Market Road 2769"/><tag k="addr:housenumber" v="13509"/><tag k="coa:place_id" v="3200584"/></node><node id="-771" lat="30.410055" lon="-97.874919" changeset="false"><tag k="addr:street" v="Oasis Pass"/><tag k="addr:housenumber" v="6710"/><tag k="coa:place_id" v="133672"/></node><node id="-772" lat="30.452186" lon="-97.841649" changeset="false"><tag k="addr:street" v="Painted Bunting Drive"/><tag k="addr:housenumber" v="12507"/><tag k="coa:place_id" v="3382731"/></node><node id="-773" lat="30.454252" lon="-97.827886" changeset="false"><tag k="addr:street" v="Ranch Road 620"/><tag k="addr:housenumber" v="11426 1/2"/><tag k="coa:place_id" v="3100815"/></node><node id="-774" lat="30.454425" lon="-97.827784" changeset="false"><tag k="addr:street" v="Ranch Road 620"/><tag k="addr:housenumber" v="11426"/><tag k="coa:place_id" v="3091520"/></node><node id="-775" lat="30.42825" lon="-97.843655" changeset="false"><tag k="addr:street" v="Terraza Circle"/><tag k="addr:housenumber" v="12332"/><tag k="coa:place_id" v="3318887"/></node><node id="-776" lat="30.428338" lon="-97.843629" changeset="false"><tag k="addr:street" v="Terraza Circle"/><tag k="addr:housenumber" v="12336"/><tag k="coa:place_id" v="3318888"/></node><node id="-777" lat="30.428286" lon="-97.845669" changeset="false"><tag k="addr:street" v="Terraza Circle"/><tag k="addr:housenumber" v="12104"/><tag k="coa:place_id" v="3318842"/></node><node id="-778" lat="30.428316" lon="-97.845729" changeset="false"><tag k="addr:street" v="Terraza Circle"/><tag k="addr:housenumber" v="12100"/><tag k="coa:place_id" v="3318841"/></node><node id="-779" lat="30.428463" lon="-97.845464" changeset="false"><tag k="addr:street" v="Terraza Circle"/><tag k="addr:housenumber" v="12109"/><tag k="coa:place_id" v="3318832"/></node><node id="-780" lat="30.42844" lon="-97.845388" changeset="false"><tag k="addr:street" v="Terraza Circle"/><tag k="addr:housenumber" v="12113"/><tag k="coa:place_id" v="3318833"/></node><node id="-781" lat="30.428515" lon="-97.845624" changeset="false"><tag k="addr:street" v="Terraza Circle"/><tag k="addr:housenumber" v="12101"/><tag k="coa:place_id" v="3318830"/></node><node id="-782" lat="30.428488" lon="-97.845548" changeset="false"><tag k="addr:street" v="Terraza Circle"/><tag k="addr:housenumber" v="12105"/><tag k="coa:place_id" v="3318831"/></node><node id="-783" lat="30.428719" lon="-97.845893" changeset="false"><tag k="addr:street" v="Terraza Circle"/><tag k="addr:housenumber" v="12012"/><tag k="coa:place_id" v="3318823"/></node><node id="-784" lat="30.428639" lon="-97.84593" changeset="false"><tag k="addr:street" v="Terraza Circle"/><tag k="addr:housenumber" v="12016"/><tag k="coa:place_id" v="3318824"/></node><node id="-785" lat="30.418666" lon="-97.890472" changeset="false"><tag k="addr:street" v="Panorama Drive"/><tag k="addr:housenumber" v="14007"/><tag k="coa:place_id" v="182815"/></node><node id="-786" lat="30.41893" lon="-97.890422" changeset="false"><tag k="addr:street" v="Panorama Drive"/><tag k="addr:housenumber" v="14009"/><tag k="coa:place_id" v="182818"/></node><node id="-787" lat="30.394528" lon="-97.885109" changeset="false"><tag k="addr:street" v="Park Drive,1100"/><tag k="addr:housenumber" v="12898"/><tag k="coa:place_id" v="1140619"/></node><node id="-788" lat="30.394458" lon="-97.885271" changeset="false"><tag k="addr:street" v="Park Drive,1100"/><tag k="addr:housenumber" v="12900"/><tag k="coa:place_id" v="1140620"/></node><node id="-789" lat="30.391189" lon="-97.889902" changeset="false"><tag k="addr:street" v="Lakeview Drive"/><tag k="addr:housenumber" v="4703"/><tag k="coa:place_id" v="95597"/></node><node id="-790" lat="30.391181" lon="-97.889911" changeset="false"><tag k="addr:street" v="Lakeview Drive"/><tag k="addr:housenumber" v="4701"/><tag k="coa:place_id" v="95593"/></node><node id="-791" lat="30.391514" lon="-97.890368" changeset="false"><tag k="addr:street" v="Park Lane"/><tag k="addr:housenumber" v="4805"/><tag k="coa:place_id" v="1140694"/></node><node id="-792" lat="30.391697" lon="-97.890334" changeset="false"><tag k="addr:street" v="Park Lane"/><tag k="addr:housenumber" v="4807"/><tag k="coa:place_id" v="1140689"/></node></osm>