<?xml version="1.0" encoding="UTF-8"?><osm version="0.6" generator="github.com/aaronlidman/osm-and-geojson"><node id="-1" lat="30.453194" lon="-97.829144" changeset="false"><tag k="addr:street" v="Ranch Road 620"/><tag k="addr:housenumber" v="11320"/><tag k="coa:place_id" v="220437"/></node><node id="-2" lat="30.454633" lon="-97.827311" changeset="false"><tag k="addr:street" v="Ranch Road 620"/><tag k="addr:housenumber" v="11506"/><tag k="coa:place_id" v="3087659"/></node><node id="-3" lat="30.443263" lon="-97.833632" changeset="false"><tag k="addr:street" v="Ranch Road 620"/><tag k="addr:housenumber" v="10418"/><tag k="coa:place_id" v="3222406"/></node><node id="-4" lat="30.441033" lon="-97.835403" changeset="false"><tag k="addr:street" v="Ranch Road 620"/><tag k="addr:housenumber" v="10202"/><tag k="coa:place_id" v="3091322"/></node><node id="-5" lat="30.415636" lon="-97.853712" changeset="false"><tag k="addr:street" v="Vista Parke Drive"/><tag k="addr:housenumber" v="12024"/><tag k="coa:place_id" v="620584"/></node><node id="-6" lat="30.403411" lon="-97.854914" changeset="false"><tag k="addr:street" v="Ranch Road 620"/><tag k="addr:housenumber" v="7002"/><tag k="coa:place_id" v="286983"/></node><node id="-7" lat="30.402583" lon="-97.855211" changeset="false"><tag k="addr:street" v="Ranch Road 620"/><tag k="addr:housenumber" v="6900"/><tag k="coa:place_id" v="122687"/></node><node id="-8" lat="30.403121" lon="-97.854963" changeset="false"><tag k="addr:street" v="Ranch Road 620"/><tag k="addr:housenumber" v="6920"/><tag k="coa:place_id" v="545132"/></node><node id="-9" lat="30.40392" lon="-97.85474" changeset="false"><tag k="addr:street" v="Ranch Road 620"/><tag k="addr:housenumber" v="7008"/><tag k="coa:place_id" v="600729"/></node><node id="-10" lat="30.40483" lon="-97.873173" changeset="false"><tag k="addr:street" v="Comanche Trail"/><tag k="addr:housenumber" v="6548"/><tag k="coa:place_id" v="3336973"/></node><node id="-11" lat="30.389716" lon="-97.890849" changeset="false"><tag k="addr:street" v="Ranch Road 620"/><tag k="addr:housenumber" v="4610"/><tag k="coa:place_id" v="546392"/></node></osm>