<?xml version="1.0" encoding="UTF-8"?><osm version="0.6" generator="github.com/aaronlidman/osm-and-geojson"><node id="-1" lat="30.453871" lon="-97.649915" changeset="false"><tag k="addr:street" v="Orchard Park Circle"/><tag k="addr:housenumber" v="1145"/><tag k="coa:place_id" v="73514"/></node><node id="-2" lat="30.452028" lon="-97.653021" changeset="false"><tag k="addr:street" v="Nimbus Drive"/><tag k="addr:housenumber" v="1211"/><tag k="coa:place_id" v="82550"/></node><node id="-3" lat="30.454325" lon="-97.650871" changeset="false"><tag k="addr:street" v="Orchard Park Circle"/><tag k="addr:housenumber" v="1219"/><tag k="coa:place_id" v="73525"/></node><node id="-4" lat="30.456479" lon="-97.649235" changeset="false"><tag k="addr:street" v="Ivybridge Drive"/><tag k="addr:housenumber" v="1212"/><tag k="coa:place_id" v="66342"/></node><node id="-5" lat="30.456395" lon="-97.649074" changeset="false"><tag k="addr:street" v="Ivybridge Drive"/><tag k="addr:housenumber" v="1210"/><tag k="coa:place_id" v="66341"/></node><node id="-6" lat="30.456971" lon="-97.647685" changeset="false"><tag k="addr:street" v="Pitcairn Drive"/><tag k="addr:housenumber" v="1113"/><tag k="coa:place_id" v="66292"/></node><node id="-7" lat="30.449775" lon="-97.648459" changeset="false"><tag k="addr:street" v="Fitchburg Circle"/><tag k="addr:housenumber" v="16022"/><tag k="coa:place_id" v="77931"/></node><node id="-8" lat="30.453582" lon="-97.650361" changeset="false"><tag k="addr:street" v="Vapor Drive"/><tag k="addr:housenumber" v="1108"/><tag k="coa:place_id" v="82558"/></node><node id="-9" lat="30.456625" lon="-97.650697" changeset="false"><tag k="addr:street" v="Bates Cove"/><tag k="addr:housenumber" v="16306"/><tag k="coa:place_id" v="66388"/></node><node id="-10" lat="30.451756" lon="-97.646673" changeset="false"><tag k="addr:street" v="Fitchburg Circle"/><tag k="addr:housenumber" v="16126"/><tag k="coa:place_id" v="77952"/></node><node id="-11" lat="30.451282" lon="-97.646799" changeset="false"><tag k="addr:street" v="Fitchburg Circle"/><tag k="addr:housenumber" v="16115"/><tag k="coa:place_id" v="77955"/></node><node id="-12" lat="30.45061" lon="-97.647273" changeset="false"><tag k="addr:street" v="Fitchburg Circle"/><tag k="addr:housenumber" v="16049"/><tag k="coa:place_id" v="77964"/></node><node id="-13" lat="30.458362" lon="-97.648453" changeset="false"><tag k="addr:street" v="York Castle Drive"/><tag k="addr:housenumber" v="1211"/><tag k="coa:place_id" v="66224"/></node><node id="-14" lat="30.4498" lon="-97.64776" changeset="false"><tag k="addr:street" v="Fitchburg Circle"/><tag k="addr:housenumber" v="16029"/><tag k="coa:place_id" v="77975"/></node><node id="-15" lat="30.451555" lon="-97.646277" changeset="false"><tag k="addr:street" v="Fitchburg Circle"/><tag k="addr:housenumber" v="16134"/><tag k="coa:place_id" v="77021"/></node><node id="-16" lat="30.456093" lon="-97.649945" changeset="false"><tag k="addr:street" v="Essex Cove"/><tag k="addr:housenumber" v="16304"/><tag k="coa:place_id" v="66381"/></node><node id="-17" lat="30.455441" lon="-97.648326" changeset="false"><tag k="addr:street" v="Ivybridge Drive"/><tag k="addr:housenumber" v="1106"/><tag k="coa:place_id" v="3037111"/></node><node id="-18" lat="30.45334" lon="-97.646372" changeset="false"><tag k="addr:street" v="Edgemere Drive"/><tag k="addr:housenumber" v="16359"/><tag k="coa:place_id" v="77839"/></node><node id="-19" lat="30.451907" lon="-97.64868" changeset="false"><tag k="addr:street" v="Vapor Drive"/><tag k="addr:housenumber" v="1001"/><tag k="coa:place_id" v="82562"/></node><node id="-20" lat="30.456829" lon="-97.647548" changeset="false"><tag k="addr:street" v="Pitcairn Drive"/><tag k="addr:housenumber" v="1111"/><tag k="coa:place_id" v="66291"/></node><node id="-21" lat="30.456178" lon="-97.649431" changeset="false"><tag k="addr:street" v="Essex Cove"/><tag k="addr:housenumber" v="16309"/><tag k="coa:place_id" v="3037106"/></node><node id="-22" lat="30.451203" lon="-97.646857" changeset="false"><tag k="addr:street" v="Fitchburg Circle"/><tag k="addr:housenumber" v="16113"/><tag k="coa:place_id" v="77956"/></node><node id="-23" lat="30.451135" lon="-97.646907" changeset="false"><tag k="addr:street" v="Fitchburg Circle"/><tag k="addr:housenumber" v="16111"/><tag k="coa:place_id" v="77957"/></node><node id="-24" lat="30.450251" lon="-97.647484" changeset="false"><tag k="addr:street" v="Fitchburg Circle"/><tag k="addr:housenumber" v="16041"/><tag k="coa:place_id" v="77969"/></node><node id="-25" lat="30.45574" lon="-97.647205" changeset="false"><tag k="addr:street" v="Cresswell Drive"/><tag k="addr:housenumber" v="1103"/><tag k="coa:place_id" v="66199"/></node><node id="-26" lat="30.456321" lon="-97.65042" changeset="false"><tag k="addr:street" v="Bates Cove"/><tag k="addr:housenumber" v="16305"/><tag k="coa:place_id" v="66394"/></node><node id="-27" lat="30.456162" lon="-97.65068" changeset="false"><tag k="addr:street" v="Bates Cove"/><tag k="addr:housenumber" v="16301"/><tag k="coa:place_id" v="66392"/></node><node id="-28" lat="30.456369" lon="-97.644993" changeset="false"><tag k="addr:street" v="York Castle Drive"/><tag k="addr:housenumber" v="1007"/><tag k="coa:place_id" v="66236"/></node><node id="-29" lat="30.457218" lon="-97.647994" changeset="false"><tag k="addr:street" v="Pitcairn Drive"/><tag k="addr:housenumber" v="1117"/><tag k="coa:place_id" v="66294"/></node><node id="-30" lat="30.455432" lon="-97.649255" changeset="false"><tag k="addr:street" v="Cresswell Drive"/><tag k="addr:housenumber" v="1204"/><tag k="coa:place_id" v="66217"/></node><node id="-31" lat="30.451647" lon="-97.64648" changeset="false"><tag k="addr:street" v="Fitchburg Circle"/><tag k="addr:housenumber" v="16130"/><tag k="coa:place_id" v="77954"/></node><node id="-32" lat="30.457424" lon="-97.64838" changeset="false"><tag k="addr:street" v="Pitcairn Drive"/><tag k="addr:housenumber" v="1203"/><tag k="coa:place_id" v="66296"/></node><node id="-33" lat="30.453484" lon="-97.646133" changeset="false"><tag k="addr:street" v="Edgemere Drive"/><tag k="addr:housenumber" v="16363"/><tag k="coa:place_id" v="77836"/></node><node id="-34" lat="30.45303" lon="-97.649291" changeset="false"><tag k="addr:street" v="Vapor Drive"/><tag k="addr:housenumber" v="1100"/><tag k="coa:place_id" v="82560"/></node><node id="-35" lat="30.451526" lon="-97.647869" changeset="false"><tag k="addr:street" v="Halo Drive"/><tag k="addr:housenumber" v="16105"/><tag k="coa:place_id" v="92333"/></node><node id="-36" lat="30.456537" lon="-97.647929" changeset="false"><tag k="addr:street" v="Batavia Drive"/><tag k="addr:housenumber" v="1108"/><tag k="coa:place_id" v="66306"/></node><node id="-37" lat="30.454646" lon="-97.648039" changeset="false"><tag k="addr:street" v="Framingham Circle"/><tag k="addr:housenumber" v="16304"/><tag k="coa:place_id" v="66194"/></node><node id="-38" lat="30.455098" lon="-97.651755" changeset="false"><tag k="addr:street" v="Orchard Park Circle"/><tag k="addr:housenumber" v="1245"/><tag k="coa:place_id" v="73538"/></node><node id="-39" lat="30.455902" lon="-97.646095" changeset="false"><tag k="addr:street" v="Cresswell Drive"/><tag k="addr:housenumber" v="1013"/><tag k="coa:place_id" v="66205"/></node><node id="-40" lat="30.4572" lon="-97.648955" changeset="false"><tag k="addr:street" v="Batavia Drive"/><tag k="addr:housenumber" v="1206"/><tag k="coa:place_id" v="66314"/></node><node id="-41" lat="30.456528" lon="-97.650811" changeset="false"><tag k="addr:street" v="Bates Cove"/><tag k="addr:housenumber" v="16304"/><tag k="coa:place_id" v="66389"/></node><node id="-42" lat="30.455953" lon="-97.650027" changeset="false"><tag k="addr:street" v="Essex Cove"/><tag k="addr:housenumber" v="16302"/><tag k="coa:place_id" v="66382"/></node><node id="-43" lat="30.458038" lon="-97.648893" changeset="false"><tag k="addr:street" v="Pitcairn Drive"/><tag k="addr:housenumber" v="1212"/><tag k="coa:place_id" v="66282"/></node><node id="-44" lat="30.457062" lon="-97.650416" changeset="false"><tag k="addr:street" v="Ivybridge Drive"/><tag k="addr:housenumber" v="1302"/><tag k="coa:place_id" v="66349"/></node><node id="-45" lat="30.456981" lon="-97.650231" changeset="false"><tag k="addr:street" v="Ivybridge Drive"/><tag k="addr:housenumber" v="1300"/><tag k="coa:place_id" v="66348"/></node><node id="-46" lat="30.453365" lon="-97.649785" changeset="false"><tag k="addr:street" v="Vapor Drive"/><tag k="addr:housenumber" v="1104"/><tag k="coa:place_id" v="82559"/></node><node id="-47" lat="30.452843" lon="-97.646935" changeset="false"><tag k="addr:street" v="Edgerly Lane"/><tag k="addr:housenumber" v="1000"/><tag k="coa:place_id" v="77829"/></node><node id="-48" lat="30.450397" lon="-97.648519" changeset="false"><tag k="addr:street" v="Nimbus Drive"/><tag k="addr:housenumber" v="1001"/><tag k="coa:place_id" v="82543"/></node><node id="-49" lat="30.458528" lon="-97.648782" changeset="false"><tag k="addr:street" v="York Castle Drive"/><tag k="addr:housenumber" v="1215"/><tag k="coa:place_id" v="66222"/></node><node id="-50" lat="30.456685" lon="-97.648641" changeset="false"><tag k="addr:street" v="Batavia Drive"/><tag k="addr:housenumber" v="1201"/><tag k="coa:place_id" v="66325"/></node><node id="-51" lat="30.454656" lon="-97.650478" changeset="false"><tag k="addr:street" v="Orchard Park Circle"/><tag k="addr:housenumber" v="1216"/><tag k="coa:place_id" v="73564"/></node><node id="-52" lat="30.452699" lon="-97.648766" changeset="false"><tag k="addr:street" v="Vapor Drive"/><tag k="addr:housenumber" v="1006"/><tag k="coa:place_id" v="82561"/></node><node id="-53" lat="30.456044" lon="-97.648638" changeset="false"><tag k="addr:street" v="Ivybridge Drive"/><tag k="addr:housenumber" v="1204"/><tag k="coa:place_id" v="66338"/></node><node id="-54" lat="30.456012" lon="-97.649048" changeset="false"><tag k="addr:street" v="Ivybridge Drive"/><tag k="addr:housenumber" v="1205"/><tag k="coa:place_id" v="66351"/></node><node id="-55" lat="30.454998" lon="-97.6477" changeset="false"><tag k="addr:street" v="Framingham Circle"/><tag k="addr:housenumber" v="16310"/><tag k="coa:place_id" v="66191"/></node><node id="-56" lat="30.450497" lon="-97.64999" changeset="false"><tag k="addr:street" v="Cumulus Drive"/><tag k="addr:housenumber" v="16003"/><tag k="coa:place_id" v="92329"/></node><node id="-57" lat="30.454219" lon="-97.65062" changeset="false"><tag k="addr:street" v="Orchard Park Circle"/><tag k="addr:housenumber" v="1213"/><tag k="coa:place_id" v="73522"/></node><node id="-58" lat="30.457015" lon="-97.649309" changeset="false"><tag k="addr:street" v="Batavia Drive"/><tag k="addr:housenumber" v="1209"/><tag k="coa:place_id" v="66329"/></node><node id="-59" lat="30.452462" lon="-97.649972" changeset="false"><tag k="addr:street" v="Vapor Drive"/><tag k="addr:housenumber" v="1105"/><tag k="coa:place_id" v="92340"/></node><node id="-60" lat="30.456783" lon="-97.650578" changeset="false"><tag k="addr:street" v="Bates Cove"/><tag k="addr:housenumber" v="16308"/><tag k="coa:place_id" v="3037103"/></node><node id="-61" lat="30.449171" lon="-97.647553" changeset="false"><tag k="addr:street" v="Fitchburg Circle"/><tag k="addr:housenumber" v="16000"/><tag k="coa:place_id" v="77017"/></node><node id="-62" lat="30.449064" lon="-97.651985" changeset="false"><tag k="addr:street" v="Foothill Farms Loop"/><tag k="addr:housenumber" v="15822"/><tag k="coa:place_id" v="3276049"/></node><node id="-63" lat="30.450004" lon="-97.647633" changeset="false"><tag k="addr:street" v="Fitchburg Circle"/><tag k="addr:housenumber" v="16035"/><tag k="coa:place_id" v="77972"/></node><node id="-64" lat="30.452298" lon="-97.651905" changeset="false"><tag k="addr:street" v="Vapor Drive"/><tag k="addr:housenumber" v="1212"/><tag k="coa:place_id" v="3374150"/></node><node id="-65" lat="30.448219" lon="-97.648878" changeset="false"><tag k="addr:street" v="Windermere Drive"/><tag k="addr:housenumber" v="15906"/><tag k="coa:place_id" v="3386009"/></node><node id="-66" lat="30.454245" lon="-97.650671" changeset="false"><tag k="addr:street" v="Orchard Park Circle"/><tag k="addr:housenumber" v="1215"/><tag k="coa:place_id" v="73523"/></node><node id="-67" lat="30.450355" lon="-97.647414" changeset="false"><tag k="addr:street" v="Fitchburg Circle"/><tag k="addr:housenumber" v="16043"/><tag k="coa:place_id" v="77968"/></node><node id="-68" lat="30.449215" lon="-97.647667" changeset="false"><tag k="addr:street" v="Fitchburg Circle"/><tag k="addr:housenumber" v="16002"/><tag k="coa:place_id" v="77014"/></node><node id="-69" lat="30.452149" lon="-97.646625" changeset="false"><tag k="addr:street" v="Edgerly Lane"/><tag k="addr:housenumber" v="909"/><tag k="coa:place_id" v="77822"/></node><node id="-70" lat="30.452056" lon="-97.647514" changeset="false"><tag k="addr:street" v="Halo Drive"/><tag k="addr:housenumber" v="16111"/><tag k="coa:place_id" v="92334"/></node><node id="-71" lat="30.456775" lon="-97.648819" changeset="false"><tag k="addr:street" v="Batavia Drive"/><tag k="addr:housenumber" v="1203"/><tag k="coa:place_id" v="66326"/></node><node id="-72" lat="30.453383" lon="-97.648524" changeset="false"><tag k="addr:street" v="Orchard Park Circle"/><tag k="addr:housenumber" v="1115"/><tag k="coa:place_id" v="73499"/></node><node id="-73" lat="30.452802" lon="-97.650686" changeset="false"><tag k="addr:street" v="Vapor Drive"/><tag k="addr:housenumber" v="1203"/><tag k="coa:place_id" v="82555"/></node><node id="-74" lat="30.457579" lon="-97.648681" changeset="false"><tag k="addr:street" v="Pitcairn Drive"/><tag k="addr:housenumber" v="1207"/><tag k="coa:place_id" v="66298"/></node><node id="-75" lat="30.450901" lon="-97.647049" changeset="false"><tag k="addr:street" v="Fitchburg Circle"/><tag k="addr:housenumber" v="16105"/><tag k="coa:place_id" v="77960"/></node><node id="-76" lat="30.44857" lon="-97.647899" changeset="false"><tag k="addr:street" v="Windermere Drive"/><tag k="addr:housenumber" v="15900"/><tag k="coa:place_id" v="103674"/></node><node id="-77" lat="30.453344" lon="-97.651255" changeset="false"><tag k="addr:street" v="Vapor Drive"/><tag k="addr:housenumber" v="1204"/><tag k="coa:place_id" v="82556"/></node><node id="-78" lat="30.452888" lon="-97.651548" changeset="false"><tag k="addr:street" v="Vapor Drive"/><tag k="addr:housenumber" v="1208"/><tag k="coa:place_id" v="92339"/></node><node id="-79" lat="30.450745" lon="-97.650819" changeset="false"><tag k="addr:street" v="Cumulus Drive"/><tag k="addr:housenumber" v="16001"/><tag k="coa:place_id" v="92328"/></node><node id="-80" lat="30.454784" lon="-97.647938" changeset="false"><tag k="addr:street" v="Framingham Circle"/><tag k="addr:housenumber" v="16306"/><tag k="coa:place_id" v="66193"/></node><node id="-81" lat="30.456204" lon="-97.650498" changeset="false"><tag k="addr:street" v="Bates Cove"/><tag k="addr:housenumber" v="16303"/><tag k="coa:place_id" v="66393"/></node><node id="-82" lat="30.451411" lon="-97.651471" changeset="false"><tag k="addr:street" v="Nimbus Drive"/><tag k="addr:housenumber" v="1109"/><tag k="coa:place_id" v="82546"/></node><node id="-83" lat="30.45646" lon="-97.648359" changeset="false"><tag k="addr:street" v="Batavia Drive"/><tag k="addr:housenumber" v="1109"/><tag k="coa:place_id" v="66323"/></node><node id="-84" lat="30.45131" lon="-97.650345" changeset="false"><tag k="addr:street" v="Cumulus Drive"/><tag k="addr:housenumber" v="16004"/><tag k="coa:place_id" v="82544"/></node><node id="-85" lat="30.451646" lon="-97.652133" changeset="false"><tag k="addr:street" v="Nimbus Drive"/><tag k="addr:housenumber" v="1203"/><tag k="coa:place_id" v="82548"/></node><node id="-86" lat="30.456372" lon="-97.64609" changeset="false"><tag k="addr:street" v="Cresswell Drive"/><tag k="addr:housenumber" v="1008"/><tag k="coa:place_id" v="66214"/></node><node id="-87" lat="30.452064" lon="-97.650224" changeset="false"><tag k="addr:street" v="Nimbus Drive"/><tag k="addr:housenumber" v="1108"/><tag k="coa:place_id" v="82552"/></node><node id="-88" lat="30.451916" lon="-97.652733" changeset="false"><tag k="addr:street" v="Nimbus Drive"/><tag k="addr:housenumber" v="1209"/><tag k="coa:place_id" v="82549"/></node><node id="-89" lat="30.4588" lon="-97.649311" changeset="false"><tag k="addr:street" v="York Castle Drive"/><tag k="addr:housenumber" v="1303"/><tag k="coa:place_id" v="66219"/></node><node id="-90" lat="30.457847" lon="-97.647479" changeset="false"><tag k="addr:street" v="York Castle Drive"/><tag k="addr:housenumber" v="1115"/><tag k="coa:place_id" v="66230"/></node><node id="-91" lat="30.453252" lon="-97.648848" changeset="false"><tag k="addr:street" v="Orchard Park Circle"/><tag k="addr:housenumber" v="1121"/><tag k="coa:place_id" v="73502"/></node><node id="-92" lat="30.456745" lon="-97.646302" changeset="false"><tag k="addr:street" v="Colwyn Bay Cove"/><tag k="addr:housenumber" v="16501"/><tag k="coa:place_id" v="66377"/></node><node id="-93" lat="30.449936" lon="-97.647675" changeset="false"><tag k="addr:street" v="Fitchburg Circle"/><tag k="addr:housenumber" v="16033"/><tag k="coa:place_id" v="77973"/></node><node id="-94" lat="30.456696" lon="-97.647464" changeset="false"><tag k="addr:street" v="Pitcairn Drive"/><tag k="addr:housenumber" v="1109"/><tag k="coa:place_id" v="66290"/></node><node id="-95" lat="30.456408" lon="-97.647255" changeset="false"><tag k="addr:street" v="Pitcairn Drive"/><tag k="addr:housenumber" v="1105"/><tag k="coa:place_id" v="66288"/></node><node id="-96" lat="30.454832" lon="-97.650838" changeset="false"><tag k="addr:street" v="Orchard Park Circle"/><tag k="addr:housenumber" v="1224"/><tag k="coa:place_id" v="73568"/></node><node id="-97" lat="30.456245" lon="-97.645433" changeset="false"><tag k="addr:street" v="Cresswell Drive"/><tag k="addr:housenumber" v="1005"/><tag k="coa:place_id" v="66209"/></node><node id="-98" lat="30.449868" lon="-97.647718" changeset="false"><tag k="addr:street" v="Fitchburg Circle"/><tag k="addr:housenumber" v="16031"/><tag k="coa:place_id" v="77974"/></node><node id="-99" lat="30.449445" lon="-97.648115" changeset="false"><tag k="addr:street" v="Fitchburg Circle"/><tag k="addr:housenumber" v="16012"/><tag k="coa:place_id" v="77926"/></node><node id="-100" lat="30.457719" lon="-97.65005" changeset="false"><tag k="addr:street" v="Batavia Drive"/><tag k="addr:housenumber" v="1307"/><tag k="coa:place_id" v="66336"/></node><node id="-101" lat="30.45045" lon="-97.64737" changeset="false"><tag k="addr:street" v="Fitchburg Circle"/><tag k="addr:housenumber" v="16045"/><tag k="coa:place_id" v="77967"/></node><node id="-102" lat="30.45492" lon="-97.651001" changeset="false"><tag k="addr:street" v="Orchard Park Circle"/><tag k="addr:housenumber" v="1228"/><tag k="coa:place_id" v="73570"/></node><node id="-103" lat="30.454886" lon="-97.651842" changeset="false"><tag k="addr:street" v="Orchard Park Circle"/><tag k="addr:housenumber" v="1241"/><tag k="coa:place_id" v="73536"/></node><node id="-104" lat="30.455081" lon="-97.648405" changeset="false"><tag k="addr:street" v="Ivybridge Drive"/><tag k="addr:housenumber" v="1100"/><tag k="coa:place_id" v="66398"/></node><node id="-105" lat="30.451601" lon="-97.65187" changeset="false"><tag k="addr:street" v="Nimbus Drive"/><tag k="addr:housenumber" v="1201"/><tag k="coa:place_id" v="82547"/></node><node id="-106" lat="30.450818" lon="-97.648142" changeset="false"><tag k="addr:street" v="Nimbus Drive"/><tag k="addr:housenumber" v="1000"/><tag k="coa:place_id" v="82551"/></node><node id="-107" lat="30.456353" lon="-97.646857" changeset="false"><tag k="addr:street" v="Pitcairn Drive"/><tag k="addr:housenumber" v="1102"/><tag k="coa:place_id" v="66267"/></node><node id="-108" lat="30.450842" lon="-97.653917" changeset="false"><tag k="addr:street" v="Central Commerce Drive"/><tag k="addr:housenumber" v="15901"/><tag k="coa:place_id" v="3386005"/></node><node id="-109" lat="30.448636" lon="-97.654566" changeset="false"><tag k="addr:street" v="Pecan Street"/><tag k="addr:housenumber" v="2600"/><tag k="coa:place_id" v="3317277"/></node><node id="-110" lat="30.451099" lon="-97.648233" changeset="false"><tag k="addr:street" v="Halo Drive"/><tag k="addr:housenumber" v="16101"/><tag k="coa:place_id" v="92335"/></node><node id="-111" lat="30.456483" lon="-97.650375" changeset="false"><tag k="addr:street" v="Bates Cove"/><tag k="addr:housenumber" v="16307"/><tag k="coa:place_id" v="66395"/></node><node id="-112" lat="30.453012" lon="-97.648228" changeset="false"><tag k="addr:street" v="Knottingham Drive"/><tag k="addr:housenumber" v="16200"/><tag k="coa:place_id" v="77848"/></node><node id="-113" lat="30.457788" lon="-97.648412" changeset="false"><tag k="addr:street" v="Pitcairn Drive"/><tag k="addr:housenumber" v="1206"/><tag k="coa:place_id" v="66279"/></node><node id="-114" lat="30.457651" lon="-97.648823" changeset="false"><tag k="addr:street" v="Pitcairn Drive"/><tag k="addr:housenumber" v="1209"/><tag k="coa:place_id" v="66299"/></node><node id="-115" lat="30.456021" lon="-97.645774" changeset="false"><tag k="addr:street" v="Cresswell Drive"/><tag k="addr:housenumber" v="1009"/><tag k="coa:place_id" v="66207"/></node><node id="-116" lat="30.452628" lon="-97.652455" changeset="false"><tag k="addr:street" v="Nimbus Drive"/><tag k="addr:housenumber" v="1206"/><tag k="coa:place_id" v="92322"/></node><node id="-117" lat="30.457425" lon="-97.650161" changeset="false"><tag k="addr:street" v="Batavia Drive"/><tag k="addr:housenumber" v="1303"/><tag k="coa:place_id" v="66334"/></node><node id="-118" lat="30.457356" lon="-97.649973" changeset="false"><tag k="addr:street" v="Batavia Drive"/><tag k="addr:housenumber" v="1301"/><tag k="coa:place_id" v="66333"/></node><node id="-119" lat="30.456177" lon="-97.644953" changeset="false"><tag k="addr:street" v="York Castle Drive"/><tag k="addr:housenumber" v="1005"/><tag k="coa:place_id" v="66238"/></node><node id="-120" lat="30.447485" lon="-97.648963" changeset="false"><tag k="addr:street" v="Windermere Drive"/><tag k="addr:housenumber" v="15812"/><tag k="coa:place_id" v="3303557"/></node><node id="-121" lat="30.455393" lon="-97.646695" changeset="false"><tag k="addr:street" v="Framingham Circle"/><tag k="addr:housenumber" v="16402"/><tag k="coa:place_id" v="66185"/></node><node id="-122" lat="30.457585" lon="-97.650179" changeset="false"><tag k="addr:street" v="Batavia Drive"/><tag k="addr:housenumber" v="1305"/><tag k="coa:place_id" v="66335"/></node><node id="-123" lat="30.458285" lon="-97.648289" changeset="false"><tag k="addr:street" v="York Castle Drive"/><tag k="addr:housenumber" v="1209"/><tag k="coa:place_id" v="66225"/></node><node id="-124" lat="30.45584" lon="-97.648899" changeset="false"><tag k="addr:street" v="Ivybridge Drive"/><tag k="addr:housenumber" v="1203"/><tag k="coa:place_id" v="66350"/></node><node id="-125" lat="30.455743" lon="-97.650845" changeset="false"><tag k="addr:street" v="Edgemere Drive"/><tag k="addr:housenumber" v="16306"/><tag k="coa:place_id" v="66354"/></node><node id="-126" lat="30.450083" lon="-97.647061" changeset="false"><tag k="addr:street" v="Windermere Drive"/><tag k="addr:housenumber" v="16014"/><tag k="coa:place_id" v="76979"/></node><node id="-127" lat="30.453421" lon="-97.647943" changeset="false"><tag k="addr:street" v="Knottingham Drive"/><tag k="addr:housenumber" v="16206"/><tag k="coa:place_id" v="77851"/></node><node id="-128" lat="30.457161" lon="-97.650577" changeset="false"><tag k="addr:street" v="Ivybridge Drive"/><tag k="addr:housenumber" v="1304"/><tag k="coa:place_id" v="3037107"/></node><node id="-129" lat="30.452758" lon="-97.652859" changeset="false"><tag k="addr:street" v="Nimbus Drive"/><tag k="addr:housenumber" v="1210"/><tag k="coa:place_id" v="82553"/></node><node id="-130" lat="30.452188" lon="-97.649311" changeset="false"><tag k="addr:street" v="Vapor Drive"/><tag k="addr:housenumber" v="1101"/><tag k="coa:place_id" v="92341"/></node><node id="-131" lat="30.451777" lon="-97.649594" changeset="false"><tag k="addr:street" v="Nimbus Drive"/><tag k="addr:housenumber" v="1010"/><tag k="coa:place_id" v="92323"/></node><node id="-132" lat="30.452305" lon="-97.650968" changeset="false"><tag k="addr:street" v="Vapor Drive"/><tag k="addr:housenumber" v="1209"/><tag k="coa:place_id" v="82554"/></node><node id="-133" lat="30.451799" lon="-97.647139" changeset="false"><tag k="addr:street" v="Fitchburg Circle"/><tag k="addr:housenumber" v="16118"/><tag k="coa:place_id" v="77948"/></node><node id="-134" lat="30.45774" lon="-97.648985" changeset="false"><tag k="addr:street" v="Pitcairn Drive"/><tag k="addr:housenumber" v="1211"/><tag k="coa:place_id" v="66300"/></node><node id="-135" lat="30.456061" lon="-97.648035" changeset="false"><tag k="addr:street" v="Batavia Drive"/><tag k="addr:housenumber" v="1103"/><tag k="coa:place_id" v="66320"/></node><node id="-136" lat="30.45655" lon="-97.6494" changeset="false"><tag k="addr:street" v="Ivybridge Drive"/><tag k="addr:housenumber" v="1214"/><tag k="coa:place_id" v="66343"/></node><node id="-137" lat="30.45479" lon="-97.651786" changeset="false"><tag k="addr:street" v="Orchard Park Circle"/><tag k="addr:housenumber" v="1239"/><tag k="coa:place_id" v="73535"/></node><node id="-138" lat="30.454299" lon="-97.650819" changeset="false"><tag k="addr:street" v="Orchard Park Circle"/><tag k="addr:housenumber" v="1217"/><tag k="coa:place_id" v="73524"/></node><node id="-139" lat="30.456936" lon="-97.649145" changeset="false"><tag k="addr:street" v="Batavia Drive"/><tag k="addr:housenumber" v="1207"/><tag k="coa:place_id" v="66328"/></node><node id="-140" lat="30.454913" lon="-97.647809" changeset="false"><tag k="addr:street" v="Framingham Circle"/><tag k="addr:housenumber" v="16308"/><tag k="coa:place_id" v="66192"/></node><node id="-141" lat="30.454937" lon="-97.650287" changeset="false"><tag k="addr:street" v="Edgemere Drive"/><tag k="addr:housenumber" v="16221"/><tag k="coa:place_id" v="73591"/></node><node id="-142" lat="30.456045" lon="-97.649524" changeset="false"><tag k="addr:street" v="Essex Cove"/><tag k="addr:housenumber" v="16307"/><tag k="coa:place_id" v="66387"/></node><node id="-143" lat="30.454738" lon="-97.651682" changeset="false"><tag k="addr:street" v="Orchard Park Circle"/><tag k="addr:housenumber" v="1237"/><tag k="coa:place_id" v="73534"/></node><node id="-144" lat="30.45535" lon="-97.646867" changeset="false"><tag k="addr:street" v="Framingham Circle"/><tag k="addr:housenumber" v="16400"/><tag k="coa:place_id" v="66186"/></node><node id="-145" lat="30.452491" lon="-97.645686" changeset="false"><tag k="addr:street" v="Windermere Drive"/><tag k="addr:housenumber" v="16210"/><tag k="coa:place_id" v="76964"/></node><node id="-146" lat="30.450969" lon="-97.647008" changeset="false"><tag k="addr:street" v="Fitchburg Circle"/><tag k="addr:housenumber" v="16107"/><tag k="coa:place_id" v="77959"/></node><node id="-147" lat="30.450811" lon="-97.647108" changeset="false"><tag k="addr:street" v="Fitchburg Circle"/><tag k="addr:housenumber" v="16103"/><tag k="coa:place_id" v="77961"/></node><node id="-148" lat="30.450758" lon="-97.6478" changeset="false"><tag k="addr:street" v="Fitchburg Circle"/><tag k="addr:housenumber" v="16044"/><tag k="coa:place_id" v="77936"/></node><node id="-149" lat="30.456385" lon="-97.647828" changeset="false"><tag k="addr:street" v="Batavia Drive"/><tag k="addr:housenumber" v="1106"/><tag k="coa:place_id" v="66305"/></node><node id="-150" lat="30.451668" lon="-97.647223" changeset="false"><tag k="addr:street" v="Fitchburg Circle"/><tag k="addr:housenumber" v="16116"/><tag k="coa:place_id" v="77947"/></node><node id="-151" lat="30.456727" lon="-97.649739" changeset="false"><tag k="addr:street" v="Ivybridge Drive"/><tag k="addr:housenumber" v="1218"/><tag k="coa:place_id" v="66345"/></node><node id="-152" lat="30.449317" lon="-97.647844" changeset="false"><tag k="addr:street" v="Fitchburg Circle"/><tag k="addr:housenumber" v="16006"/><tag k="coa:place_id" v="77016"/></node><node id="-153" lat="30.453487" lon="-97.649216" changeset="false"><tag k="addr:street" v="Orchard Park Circle"/><tag k="addr:housenumber" v="1129"/><tag k="coa:place_id" v="73506"/></node><node id="-154" lat="30.456878" lon="-97.646587" changeset="false"><tag k="addr:street" v="Colwyn Bay Cove"/><tag k="addr:housenumber" v="16502"/><tag k="coa:place_id" v="66375"/></node><node id="-155" lat="30.457347" lon="-97.648173" changeset="false"><tag k="addr:street" v="Pitcairn Drive"/><tag k="addr:housenumber" v="1201"/><tag k="coa:place_id" v="66295"/></node><node id="-156" lat="30.45357" lon="-97.650851" changeset="false"><tag k="addr:street" v="Vapor Drive"/><tag k="addr:housenumber" v="1200"/><tag k="coa:place_id" v="82557"/></node><node id="-157" lat="30.45833" lon="-97.649368" changeset="false"><tag k="addr:street" v="Pitcairn Drive"/><tag k="addr:housenumber" v="1302"/><tag k="coa:place_id" v="66285"/></node><node id="-158" lat="30.450736" lon="-97.647163" changeset="false"><tag k="addr:street" v="Fitchburg Circle"/><tag k="addr:housenumber" v="16101"/><tag k="coa:place_id" v="77962"/></node><node id="-159" lat="30.456236" lon="-97.65083" changeset="false"><tag k="addr:street" v="Bates Cove"/><tag k="addr:housenumber" v="16300"/><tag k="coa:place_id" v="66391"/></node><node id="-160" lat="30.449275" lon="-97.647752" changeset="false"><tag k="addr:street" v="Fitchburg Circle"/><tag k="addr:housenumber" v="16004"/><tag k="coa:place_id" v="77015"/></node><node id="-161" lat="30.457116" lon="-97.649464" changeset="false"><tag k="addr:street" v="Batavia Drive"/><tag k="addr:housenumber" v="1211"/><tag k="coa:place_id" v="66330"/></node><node id="-162" lat="30.456823" lon="-97.646191" changeset="false"><tag k="addr:street" v="Colwyn Bay Cove"/><tag k="addr:housenumber" v="16503"/><tag k="coa:place_id" v="66378"/></node><node id="-163" lat="30.454053" lon="-97.648464" changeset="false"><tag k="addr:street" v="Edgemere Drive"/><tag k="addr:housenumber" v="16339"/><tag k="coa:place_id" v="3355211"/></node><node id="-164" lat="30.457096" lon="-97.647826" changeset="false"><tag k="addr:street" v="Pitcairn Drive"/><tag k="addr:housenumber" v="1115"/><tag k="coa:place_id" v="66293"/></node><node id="-165" lat="30.453926" lon="-97.652462" changeset="false"><tag k="addr:street" v="West Pflugerville Loop"/><tag k="addr:housenumber" v="1531"/><tag k="coa:place_id" v="3223193"/></node><node id="-166" lat="30.452332" lon="-97.645737" changeset="false"><tag k="addr:street" v="Windermere Drive"/><tag k="addr:housenumber" v="16208"/><tag k="coa:place_id" v="76963"/></node><node id="-167" lat="30.453784" lon="-97.648114" changeset="false"><tag k="addr:street" v="Orchard Park Circle"/><tag k="addr:housenumber" v="1103"/><tag k="coa:place_id" v="73492"/></node><node id="-168" lat="30.45389" lon="-97.648078" changeset="false"><tag k="addr:street" v="Orchard Park Circle"/><tag k="addr:housenumber" v="1101"/><tag k="coa:place_id" v="3373774"/></node><node id="-169" lat="30.453803" lon="-97.648853" changeset="false"><tag k="addr:street" v="Orchard Park Circle"/><tag k="addr:housenumber" v="1126"/><tag k="coa:place_id" v="73545"/></node><node id="-170" lat="30.453762" lon="-97.648774" changeset="false"><tag k="addr:street" v="Orchard Park Circle"/><tag k="addr:housenumber" v="1124"/><tag k="coa:place_id" v="3373775"/></node><node id="-171" lat="30.454179" lon="-97.648776" changeset="false"><tag k="addr:street" v="Edgemere Drive"/><tag k="addr:housenumber" v="16333"/><tag k="coa:place_id" v="73608"/></node><node id="-172" lat="30.454129" lon="-97.648687" changeset="false"><tag k="addr:street" v="Edgemere Drive"/><tag k="addr:housenumber" v="16335"/><tag k="coa:place_id" v="73609"/></node><node id="-173" lat="30.453883" lon="-97.649013" changeset="false"><tag k="addr:street" v="Orchard Park Circle"/><tag k="addr:housenumber" v="1130"/><tag k="coa:place_id" v="73547"/></node><node id="-174" lat="30.453852" lon="-97.648954" changeset="false"><tag k="addr:street" v="Orchard Park Circle"/><tag k="addr:housenumber" v="1128"/><tag k="coa:place_id" v="73546"/></node><node id="-175" lat="30.454277" lon="-97.648953" changeset="false"><tag k="addr:street" v="Edgemere Drive"/><tag k="addr:housenumber" v="16329"/><tag k="coa:place_id" v="73606"/></node><node id="-176" lat="30.454228" lon="-97.648864" changeset="false"><tag k="addr:street" v="Edgemere Drive"/><tag k="addr:housenumber" v="16331"/><tag k="coa:place_id" v="73607"/></node><node id="-177" lat="30.451171" lon="-97.646381" changeset="false"><tag k="addr:street" v="Windermere Drive"/><tag k="addr:housenumber" v="16116"/><tag k="coa:place_id" v="3374017"/></node><node id="-178" lat="30.451102" lon="-97.646439" changeset="false"><tag k="addr:street" v="Windermere Drive"/><tag k="addr:housenumber" v="16114"/><tag k="coa:place_id" v="76992"/></node><node id="-179" lat="30.451461" lon="-97.646122" changeset="false"><tag k="addr:street" v="Fitchburg Circle"/><tag k="addr:housenumber" v="16138"/><tag k="coa:place_id" v="3374125"/></node><node id="-180" lat="30.451521" lon="-97.646169" changeset="false"><tag k="addr:street" v="Fitchburg Circle"/><tag k="addr:housenumber" v="16136"/><tag k="coa:place_id" v="77023"/></node><node id="-181" lat="30.450936" lon="-97.646525" changeset="false"><tag k="addr:street" v="Windermere Drive"/><tag k="addr:housenumber" v="16110"/><tag k="coa:place_id" v="76990"/></node><node id="-182" lat="30.451016" lon="-97.646469" changeset="false"><tag k="addr:street" v="Windermere Drive"/><tag k="addr:housenumber" v="16112"/><tag k="coa:place_id" v="76991"/></node><node id="-183" lat="30.451885" lon="-97.647022" changeset="false"><tag k="addr:street" v="Fitchburg Circle"/><tag k="addr:housenumber" v="16120"/><tag k="coa:place_id" v="77949"/></node><node id="-184" lat="30.451876" lon="-97.646863" changeset="false"><tag k="addr:street" v="Fitchburg Circle"/><tag k="addr:housenumber" v="16122"/><tag k="coa:place_id" v="77950"/></node><node id="-185" lat="30.450779" lon="-97.646631" changeset="false"><tag k="addr:street" v="Windermere Drive"/><tag k="addr:housenumber" v="16106"/><tag k="coa:place_id" v="76988"/></node><node id="-186" lat="30.450855" lon="-97.646591" changeset="false"><tag k="addr:street" v="Windermere Drive"/><tag k="addr:housenumber" v="16108"/><tag k="coa:place_id" v="76989"/></node><node id="-187" lat="30.450321" lon="-97.646912" changeset="false"><tag k="addr:street" v="Windermere Drive"/><tag k="addr:housenumber" v="16020"/><tag k="coa:place_id" v="76982"/></node><node id="-188" lat="30.450393" lon="-97.646881" changeset="false"><tag k="addr:street" v="Windermere Drive"/><tag k="addr:housenumber" v="16022"/><tag k="coa:place_id" v="76983"/></node><node id="-189" lat="30.450698" lon="-97.646677" changeset="false"><tag k="addr:street" v="Windermere Drive"/><tag k="addr:housenumber" v="16104"/><tag k="coa:place_id" v="76987"/></node><node id="-190" lat="30.450626" lon="-97.646742" changeset="false"><tag k="addr:street" v="Windermere Drive"/><tag k="addr:housenumber" v="16102"/><tag k="coa:place_id" v="76986"/></node><node id="-191" lat="30.450555" lon="-97.646787" changeset="false"><tag k="addr:street" v="Windermere Drive"/><tag k="addr:housenumber" v="16100"/><tag k="coa:place_id" v="76985"/></node><node id="-192" lat="30.450473" lon="-97.646828" changeset="false"><tag k="addr:street" v="Windermere Drive"/><tag k="addr:housenumber" v="16024"/><tag k="coa:place_id" v="76984"/></node><node id="-193" lat="30.450165" lon="-97.64703" changeset="false"><tag k="addr:street" v="Windermere Drive"/><tag k="addr:housenumber" v="16016"/><tag k="coa:place_id" v="76980"/></node><node id="-194" lat="30.45024" lon="-97.646966" changeset="false"><tag k="addr:street" v="Windermere Drive"/><tag k="addr:housenumber" v="16018"/><tag k="coa:place_id" v="76981"/></node><node id="-195" lat="30.449932" lon="-97.647196" changeset="false"><tag k="addr:street" v="Windermere Drive"/><tag k="addr:housenumber" v="16010"/><tag k="coa:place_id" v="76977"/></node><node id="-196" lat="30.449851" lon="-97.647244" changeset="false"><tag k="addr:street" v="Windermere Drive"/><tag k="addr:housenumber" v="16008"/><tag k="coa:place_id" v="76976"/></node><node id="-197" lat="30.451388" lon="-97.647369" changeset="false"><tag k="addr:street" v="Fitchburg Circle"/><tag k="addr:housenumber" v="16110"/><tag k="coa:place_id" v="77944"/></node><node id="-198" lat="30.45132" lon="-97.647422" changeset="false"><tag k="addr:street" v="Fitchburg Circle"/><tag k="addr:housenumber" v="16108"/><tag k="coa:place_id" v="77943"/></node><node id="-199" lat="30.451577" lon="-97.647272" changeset="false"><tag k="addr:street" v="Fitchburg Circle"/><tag k="addr:housenumber" v="16114"/><tag k="coa:place_id" v="77946"/></node><node id="-200" lat="30.451493" lon="-97.64732" changeset="false"><tag k="addr:street" v="Fitchburg Circle"/><tag k="addr:housenumber" v="16112"/><tag k="coa:place_id" v="77945"/></node><node id="-201" lat="30.450872" lon="-97.647708" changeset="false"><tag k="addr:street" v="Fitchburg Circle"/><tag k="addr:housenumber" v="16048"/><tag k="coa:place_id" v="77938"/></node><node id="-202" lat="30.450794" lon="-97.647776" changeset="false"><tag k="addr:street" v="Fitchburg Circle"/><tag k="addr:housenumber" v="16046"/><tag k="coa:place_id" v="77937"/></node><node id="-203" lat="30.451063" lon="-97.647589" changeset="false"><tag k="addr:street" v="Fitchburg Circle"/><tag k="addr:housenumber" v="16102"/><tag k="coa:place_id" v="77940"/></node><node id="-204" lat="30.450973" lon="-97.647642" changeset="false"><tag k="addr:street" v="Fitchburg Circle"/><tag k="addr:housenumber" v="16100"/><tag k="coa:place_id" v="77939"/></node><node id="-205" lat="30.451231" lon="-97.647475" changeset="false"><tag k="addr:street" v="Fitchburg Circle"/><tag k="addr:housenumber" v="16106"/><tag k="coa:place_id" v="77942"/></node><node id="-206" lat="30.451141" lon="-97.647532" changeset="false"><tag k="addr:street" v="Fitchburg Circle"/><tag k="addr:housenumber" v="16104"/><tag k="coa:place_id" v="77941"/></node><node id="-207" lat="30.449704" lon="-97.647334" changeset="false"><tag k="addr:street" v="Windermere Drive"/><tag k="addr:housenumber" v="16004"/><tag k="coa:place_id" v="76974"/></node><node id="-208" lat="30.449775" lon="-97.64728" changeset="false"><tag k="addr:street" v="Windermere Drive"/><tag k="addr:housenumber" v="16006"/><tag k="coa:place_id" v="76975"/></node><node id="-209" lat="30.449527" lon="-97.647428" changeset="false"><tag k="addr:street" v="Windermere Drive"/><tag k="addr:housenumber" v="16000"/><tag k="coa:place_id" v="76995"/></node><node id="-210" lat="30.449611" lon="-97.647379" changeset="false"><tag k="addr:street" v="Windermere Drive"/><tag k="addr:housenumber" v="16002"/><tag k="coa:place_id" v="76973"/></node><node id="-211" lat="30.453226" lon="-97.648682" changeset="false"><tag k="addr:street" v="Orchard Park Circle"/><tag k="addr:housenumber" v="1119"/><tag k="coa:place_id" v="73501"/></node><node id="-212" lat="30.453293" lon="-97.648598" changeset="false"><tag k="addr:street" v="Orchard Park Circle"/><tag k="addr:housenumber" v="1117"/><tag k="coa:place_id" v="73500"/></node><node id="-213" lat="30.4535" lon="-97.648377" changeset="false"><tag k="addr:street" v="Orchard Park Circle"/><tag k="addr:housenumber" v="1111"/><tag k="coa:place_id" v="73497"/></node><node id="-214" lat="30.453618" lon="-97.648291" changeset="false"><tag k="addr:street" v="Orchard Park Circle"/><tag k="addr:housenumber" v="1109"/><tag k="coa:place_id" v="73496"/></node><node id="-215" lat="30.453658" lon="-97.648255" changeset="false"><tag k="addr:street" v="Orchard Park Circle"/><tag k="addr:housenumber" v="1107"/><tag k="coa:place_id" v="73495"/></node><node id="-216" lat="30.453743" lon="-97.64815" changeset="false"><tag k="addr:street" v="Orchard Park Circle"/><tag k="addr:housenumber" v="1105"/><tag k="coa:place_id" v="73493"/></node><node id="-217" lat="30.450157" lon="-97.648179" changeset="false"><tag k="addr:street" v="Fitchburg Circle"/><tag k="addr:housenumber" v="16032"/><tag k="coa:place_id" v="3374145"/></node><node id="-218" lat="30.450236" lon="-97.64814" changeset="false"><tag k="addr:street" v="Fitchburg Circle"/><tag k="addr:housenumber" v="16034"/><tag k="coa:place_id" v="3374146"/></node><node id="-219" lat="30.449993" lon="-97.648294" changeset="false"><tag k="addr:street" v="Fitchburg Circle"/><tag k="addr:housenumber" v="16028"/><tag k="coa:place_id" v="77934"/></node><node id="-220" lat="30.450082" lon="-97.648231" changeset="false"><tag k="addr:street" v="Fitchburg Circle"/><tag k="addr:housenumber" v="16030"/><tag k="coa:place_id" v="77935"/></node><node id="-221" lat="30.449843" lon="-97.648417" changeset="false"><tag k="addr:street" v="Fitchburg Circle"/><tag k="addr:housenumber" v="16024"/><tag k="coa:place_id" v="77932"/></node><node id="-222" lat="30.449925" lon="-97.648337" changeset="false"><tag k="addr:street" v="Fitchburg Circle"/><tag k="addr:housenumber" v="16026"/><tag k="coa:place_id" v="77933"/></node><node id="-223" lat="30.450387" lon="-97.648037" changeset="false"><tag k="addr:street" v="Fitchburg Circle"/><tag k="addr:housenumber" v="16040"/><tag k="coa:place_id" v="139728"/></node><node id="-224" lat="30.450308" lon="-97.648088" changeset="false"><tag k="addr:street" v="Fitchburg Circle"/><tag k="addr:housenumber" v="16036"/><tag k="coa:place_id" v="3374147"/></node><node id="-225" lat="30.44939" lon="-97.648022" changeset="false"><tag k="addr:street" v="Fitchburg Circle"/><tag k="addr:housenumber" v="16010"/><tag k="coa:place_id" v="77925"/></node><node id="-226" lat="30.449348" lon="-97.647937" changeset="false"><tag k="addr:street" v="Fitchburg Circle"/><tag k="addr:housenumber" v="16008"/><tag k="coa:place_id" v="77924"/></node><node id="-227" lat="30.449495" lon="-97.648343" changeset="false"><tag k="addr:street" v="Fitchburg Circle"/><tag k="addr:housenumber" v="16016"/><tag k="coa:place_id" v="77928"/></node><node id="-228" lat="30.449531" lon="-97.648422" changeset="false"><tag k="addr:street" v="Fitchburg Circle"/><tag k="addr:housenumber" v="16018"/><tag k="coa:place_id" v="77929"/></node><node id="-229" lat="30.453396" lon="-97.64913" changeset="false"><tag k="addr:street" v="Orchard Park Circle"/><tag k="addr:housenumber" v="1127"/><tag k="coa:place_id" v="73505"/></node><node id="-230" lat="30.45337" lon="-97.649079" changeset="false"><tag k="addr:street" v="Orchard Park Circle"/><tag k="addr:housenumber" v="1125"/><tag k="coa:place_id" v="73504"/></node><node id="-231" lat="30.45359" lon="-97.649464" changeset="false"><tag k="addr:street" v="Orchard Park Circle"/><tag k="addr:housenumber" v="1135"/><tag k="coa:place_id" v="73509"/></node><node id="-232" lat="30.453564" lon="-97.649413" changeset="false"><tag k="addr:street" v="Orchard Park Circle"/><tag k="addr:housenumber" v="1133"/><tag k="coa:place_id" v="73508"/></node><node id="-233" lat="30.454461" lon="-97.649304" changeset="false"><tag k="addr:street" v="Edgemere Drive"/><tag k="addr:housenumber" v="16321"/><tag k="coa:place_id" v="73602"/></node><node id="-234" lat="30.454412" lon="-97.649215" changeset="false"><tag k="addr:street" v="Edgemere Drive"/><tag k="addr:housenumber" v="16323"/><tag k="coa:place_id" v="73603"/></node><node id="-235" lat="30.45408" lon="-97.64936" changeset="false"><tag k="addr:street" v="Orchard Park Circle"/><tag k="addr:housenumber" v="1138"/><tag k="coa:place_id" v="73551"/></node><node id="-236" lat="30.454049" lon="-97.6493" changeset="false"><tag k="addr:street" v="Orchard Park Circle"/><tag k="addr:housenumber" v="1136"/><tag k="coa:place_id" v="73550"/></node><node id="-237" lat="30.454152" lon="-97.649471" changeset="false"><tag k="addr:street" v="Orchard Park Circle"/><tag k="addr:housenumber" v="1140"/><tag k="coa:place_id" v="73552"/></node><node id="-238" lat="30.454183" lon="-97.64953" changeset="false"><tag k="addr:street" v="Orchard Park Circle"/><tag k="addr:housenumber" v="1142"/><tag k="coa:place_id" v="73553"/></node><node id="-239" lat="30.454511" lon="-97.649393" changeset="false"><tag k="addr:street" v="Edgemere Drive"/><tag k="addr:housenumber" v="16319"/><tag k="coa:place_id" v="73601"/></node><node id="-240" lat="30.45456" lon="-97.649481" changeset="false"><tag k="addr:street" v="Edgemere Drive"/><tag k="addr:housenumber" v="16317"/><tag k="coa:place_id" v="73600"/></node><node id="-241" lat="30.454363" lon="-97.649126" changeset="false"><tag k="addr:street" v="Edgemere Drive"/><tag k="addr:housenumber" v="16325"/><tag k="coa:place_id" v="73604"/></node><node id="-242" lat="30.454327" lon="-97.649042" changeset="false"><tag k="addr:street" v="Edgemere Drive"/><tag k="addr:housenumber" v="16327"/><tag k="coa:place_id" v="73605"/></node><node id="-243" lat="30.453986" lon="-97.649189" changeset="false"><tag k="addr:street" v="Orchard Park Circle"/><tag k="addr:housenumber" v="1134"/><tag k="coa:place_id" v="73549"/></node><node id="-244" lat="30.453955" lon="-97.64913" changeset="false"><tag k="addr:street" v="Orchard Park Circle"/><tag k="addr:housenumber" v="1132"/><tag k="coa:place_id" v="73548"/></node><node id="-245" lat="30.454668" lon="-97.64976" changeset="false"><tag k="addr:street" v="Edgemere Drive"/><tag k="addr:housenumber" v="16311"/><tag k="coa:place_id" v="73597"/></node><node id="-246" lat="30.454747" lon="-97.64983" changeset="false"><tag k="addr:street" v="Edgemere Drive"/><tag k="addr:housenumber" v="16309"/><tag k="coa:place_id" v="73596"/></node><node id="-247" lat="30.454828" lon="-97.649999" changeset="false"><tag k="addr:street" v="Edgemere Drive"/><tag k="addr:housenumber" v="16305"/><tag k="coa:place_id" v="73594"/></node><node id="-248" lat="30.454808" lon="-97.649901" changeset="false"><tag k="addr:street" v="Edgemere Drive"/><tag k="addr:housenumber" v="16307"/><tag k="coa:place_id" v="73595"/></node><node id="-249" lat="30.454932" lon="-97.650198" changeset="false"><tag k="addr:street" v="Edgemere Drive"/><tag k="addr:housenumber" v="16301"/><tag k="coa:place_id" v="73592"/></node><node id="-250" lat="30.45488" lon="-97.650101" changeset="false"><tag k="addr:street" v="Edgemere Drive"/><tag k="addr:housenumber" v="16303"/><tag k="coa:place_id" v="73593"/></node><node id="-251" lat="30.453785" lon="-97.649746" changeset="false"><tag k="addr:street" v="Orchard Park Circle"/><tag k="addr:housenumber" v="1141"/><tag k="coa:place_id" v="73512"/></node><node id="-252" lat="30.453811" lon="-97.649797" changeset="false"><tag k="addr:street" v="Orchard Park Circle"/><tag k="addr:housenumber" v="1143"/><tag k="coa:place_id" v="73513"/></node><node id="-253" lat="30.453703" lon="-97.649638" changeset="false"><tag k="addr:street" v="Orchard Park Circle"/><tag k="addr:housenumber" v="1139"/><tag k="coa:place_id" v="73511"/></node><node id="-254" lat="30.453677" lon="-97.649587" changeset="false"><tag k="addr:street" v="Orchard Park Circle"/><tag k="addr:housenumber" v="1137"/><tag k="coa:place_id" v="73510"/></node><node id="-255" lat="30.453962" lon="-97.650084" changeset="false"><tag k="addr:street" v="Orchard Park Circle"/><tag k="addr:housenumber" v="1201"/><tag k="coa:place_id" v="73516"/></node><node id="-256" lat="30.453988" lon="-97.650135" changeset="false"><tag k="addr:street" v="Orchard Park Circle"/><tag k="addr:housenumber" v="1203"/><tag k="coa:place_id" v="73517"/></node><node id="-257" lat="30.454399" lon="-97.650007" changeset="false"><tag k="addr:street" v="Orchard Park Circle"/><tag k="addr:housenumber" v="1204"/><tag k="coa:place_id" v="73558"/></node><node id="-258" lat="30.454429" lon="-97.650066" changeset="false"><tag k="addr:street" v="Orchard Park Circle"/><tag k="addr:housenumber" v="1206"/><tag k="coa:place_id" v="73559"/></node><node id="-259" lat="30.454295" lon="-97.649836" changeset="false"><tag k="addr:street" v="Orchard Park Circle"/><tag k="addr:housenumber" v="1200"/><tag k="coa:place_id" v="73556"/></node><node id="-260" lat="30.454326" lon="-97.649895" changeset="false"><tag k="addr:street" v="Orchard Park Circle"/><tag k="addr:housenumber" v="1202"/><tag k="coa:place_id" v="73557"/></node><node id="-261" lat="30.454249" lon="-97.649712" changeset="false"><tag k="addr:street" v="Orchard Park Circle"/><tag k="addr:housenumber" v="1146"/><tag k="coa:place_id" v="73555"/></node><node id="-262" lat="30.454219" lon="-97.649653" changeset="false"><tag k="addr:street" v="Orchard Park Circle"/><tag k="addr:housenumber" v="1144"/><tag k="coa:place_id" v="73554"/></node><node id="-263" lat="30.45461" lon="-97.64957" changeset="false"><tag k="addr:street" v="Edgemere Drive"/><tag k="addr:housenumber" v="16315"/><tag k="coa:place_id" v="73599"/></node><node id="-264" lat="30.454659" lon="-97.649659" changeset="false"><tag k="addr:street" v="Edgemere Drive"/><tag k="addr:housenumber" v="16313"/><tag k="coa:place_id" v="73598"/></node><node id="-265" lat="30.455239" lon="-97.6508" changeset="false"><tag k="addr:street" v="Edgemere Drive"/><tag k="addr:housenumber" v="16209"/><tag k="coa:place_id" v="73584"/></node><node id="-266" lat="30.455287" lon="-97.650889" changeset="false"><tag k="addr:street" v="Edgemere Drive"/><tag k="addr:housenumber" v="16207"/><tag k="coa:place_id" v="73583"/></node><node id="-267" lat="30.454588" lon="-97.650334" changeset="false"><tag k="addr:street" v="Orchard Park Circle"/><tag k="addr:housenumber" v="1212"/><tag k="coa:place_id" v="73562"/></node><node id="-268" lat="30.454618" lon="-97.650394" changeset="false"><tag k="addr:street" v="Orchard Park Circle"/><tag k="addr:housenumber" v="1214"/><tag k="coa:place_id" v="73563"/></node><node id="-269" lat="30.454752" lon="-97.650659" changeset="false"><tag k="addr:street" v="Orchard Park Circle"/><tag k="addr:housenumber" v="1220"/><tag k="coa:place_id" v="73566"/></node><node id="-270" lat="30.454793" lon="-97.650738" changeset="false"><tag k="addr:street" v="Orchard Park Circle"/><tag k="addr:housenumber" v="1222"/><tag k="coa:place_id" v="73567"/></node><node id="-271" lat="30.455031" lon="-97.650475" changeset="false"><tag k="addr:street" v="Edgemere Drive"/><tag k="addr:housenumber" v="16217"/><tag k="coa:place_id" v="73589"/></node><node id="-272" lat="30.455105" lon="-97.650537" changeset="false"><tag k="addr:street" v="Edgemere Drive"/><tag k="addr:housenumber" v="16215"/><tag k="coa:place_id" v="73588"/></node><node id="-273" lat="30.45514" lon="-97.650634" changeset="false"><tag k="addr:street" v="Edgemere Drive"/><tag k="addr:housenumber" v="16213"/><tag k="coa:place_id" v="73587"/></node><node id="-274" lat="30.455175" lon="-97.650709" changeset="false"><tag k="addr:street" v="Edgemere Drive"/><tag k="addr:housenumber" v="16211"/><tag k="coa:place_id" v="73585"/></node><node id="-275" lat="30.45416" lon="-97.650491" changeset="false"><tag k="addr:street" v="Orchard Park Circle"/><tag k="addr:housenumber" v="1211"/><tag k="coa:place_id" v="73521"/></node><node id="-276" lat="30.454134" lon="-97.65044" changeset="false"><tag k="addr:street" v="Orchard Park Circle"/><tag k="addr:housenumber" v="1209"/><tag k="coa:place_id" v="73520"/></node><node id="-277" lat="30.454062" lon="-97.650264" changeset="false"><tag k="addr:street" v="Orchard Park Circle"/><tag k="addr:housenumber" v="1205"/><tag k="coa:place_id" v="73518"/></node><node id="-278" lat="30.454088" lon="-97.650315" changeset="false"><tag k="addr:street" v="Orchard Park Circle"/><tag k="addr:housenumber" v="1207"/><tag k="coa:place_id" v="73519"/></node><node id="-279" lat="30.454515" lon="-97.650238" changeset="false"><tag k="addr:street" v="Orchard Park Circle"/><tag k="addr:housenumber" v="1210"/><tag k="coa:place_id" v="73561"/></node><node id="-280" lat="30.454484" lon="-97.650179" changeset="false"><tag k="addr:street" v="Orchard Park Circle"/><tag k="addr:housenumber" v="1208"/><tag k="coa:place_id" v="73560"/></node><node id="-281" lat="30.455332" lon="-97.651001" changeset="false"><tag k="addr:street" v="Edgemere Drive"/><tag k="addr:housenumber" v="16205"/><tag k="coa:place_id" v="73582"/></node><node id="-282" lat="30.455387" lon="-97.651075" changeset="false"><tag k="addr:street" v="Edgemere Drive"/><tag k="addr:housenumber" v="16203"/><tag k="coa:place_id" v="3355227"/></node><node id="-283" lat="30.455482" lon="-97.651504" changeset="false"><tag k="addr:street" v="Orchard Park Circle"/><tag k="addr:housenumber" v="1255"/><tag k="coa:place_id" v="73543"/></node><node id="-284" lat="30.455394" lon="-97.651557" changeset="false"><tag k="addr:street" v="Orchard Park Circle"/><tag k="addr:housenumber" v="1253"/><tag k="coa:place_id" v="73542"/></node><node id="-285" lat="30.455251" lon="-97.651644" changeset="false"><tag k="addr:street" v="Orchard Park Circle"/><tag k="addr:housenumber" v="1249"/><tag k="coa:place_id" v="73540"/></node><node id="-286" lat="30.455349" lon="-97.651586" changeset="false"><tag k="addr:street" v="Orchard Park Circle"/><tag k="addr:housenumber" v="1251"/><tag k="coa:place_id" v="73541"/></node><node id="-287" lat="30.455561" lon="-97.651446" changeset="false"><tag k="addr:street" v="Orchard Park Circle"/><tag k="addr:housenumber" v="1257"/><tag k="coa:place_id" v="73544"/></node><node id="-288" lat="30.455625" lon="-97.651375" changeset="false"><tag k="addr:street" v="Orchard Park Circle"/><tag k="addr:housenumber" v="1259"/><tag k="coa:place_id" v="3354750"/></node><node id="-289" lat="30.454421" lon="-97.651047" changeset="false"><tag k="addr:street" v="Orchard Park Circle"/><tag k="addr:housenumber" v="1223"/><tag k="coa:place_id" v="73527"/></node><node id="-290" lat="30.454395" lon="-97.650996" changeset="false"><tag k="addr:street" v="Orchard Park Circle"/><tag k="addr:housenumber" v="1221"/><tag k="coa:place_id" v="73526"/></node><node id="-291" lat="30.454503" lon="-97.651229" changeset="false"><tag k="addr:street" v="Orchard Park Circle"/><tag k="addr:housenumber" v="1227"/><tag k="coa:place_id" v="73529"/></node><node id="-292" lat="30.454477" lon="-97.651178" changeset="false"><tag k="addr:street" v="Orchard Park Circle"/><tag k="addr:housenumber" v="1225"/><tag k="coa:place_id" v="73528"/></node><node id="-293" lat="30.454681" lon="-97.651596" changeset="false"><tag k="addr:street" v="Orchard Park Circle"/><tag k="addr:housenumber" v="1235"/><tag k="coa:place_id" v="73533"/></node><node id="-294" lat="30.454649" lon="-97.651504" changeset="false"><tag k="addr:street" v="Orchard Park Circle"/><tag k="addr:housenumber" v="1233"/><tag k="coa:place_id" v="73532"/></node><node id="-295" lat="30.454581" lon="-97.651338" changeset="false"><tag k="addr:street" v="Orchard Park Circle"/><tag k="addr:housenumber" v="1229"/><tag k="coa:place_id" v="73530"/></node><node id="-296" lat="30.454607" lon="-97.651389" changeset="false"><tag k="addr:street" v="Orchard Park Circle"/><tag k="addr:housenumber" v="1231"/><tag k="coa:place_id" v="73531"/></node></osm>