<?xml version="1.0" encoding="UTF-8"?><osm version="0.6" generator="github.com/aaronlidman/osm-and-geojson"><node id="-1" lat="30.341896" lon="-97.862971" changeset="false"><tag k="addr:street" v="San Juan Drive"/><tag k="addr:housenumber" v="1903"/><tag k="addr:postcode" v="78733"/></node><node id="-2" lat="30.345337" lon="-97.871709" changeset="false"><tag k="addr:street" v="Carlotta Lane"/><tag k="addr:housenumber" v="1833"/><tag k="addr:postcode" v="78733"/></node><node id="-3" lat="30.343549" lon="-97.870831" changeset="false"><tag k="addr:street" v="Carlotta Cove"/><tag k="addr:housenumber" v="10204"/><tag k="addr:postcode" v="78733"/></node><node id="-4" lat="30.343496" lon="-97.871514" changeset="false"><tag k="addr:street" v="Carlotta Cove"/><tag k="addr:housenumber" v="10206"/><tag k="addr:postcode" v="78733"/></node><node id="-5" lat="30.331888" lon="-97.869245" changeset="false"><tag k="addr:street" v="Cuernavaca Drive North"/><tag k="addr:housenumber" v="700"/><tag k="addr:postcode" v="78733"/></node></osm>