<?xml version="1.0" encoding="UTF-8"?><osm version="0.6" generator="github.com/aaronlidman/osm-and-geojson"><node id="-1" lat="30.337491" lon="-97.869853" changeset="false"><tag k="addr:street" v="Village West Drive"/><tag k="addr:housenumber" v="1201"/><tag k="coa:place_id" v="198644"/></node><node id="-2" lat="30.337671" lon="-97.874365" changeset="false"><tag k="addr:street" v="Lisa Drive"/><tag k="addr:housenumber" v="1003"/><tag k="coa:place_id" v="3119288"/></node><node id="-3" lat="30.335261" lon="-97.868885" changeset="false"><tag k="addr:street" v="Castile Road"/><tag k="addr:housenumber" v="1012"/><tag k="coa:place_id" v="577749"/></node><node id="-4" lat="30.339983" lon="-97.8673" changeset="false"><tag k="addr:street" v="Lancer Lane"/><tag k="addr:housenumber" v="1504"/><tag k="coa:place_id" v="198038"/></node><node id="-5" lat="30.34092" lon="-97.870702" changeset="false"><tag k="addr:street" v="Carlotta Lane"/><tag k="addr:housenumber" v="1501"/><tag k="coa:place_id" v="78277"/></node><node id="-6" lat="30.344826" lon="-97.862419" changeset="false"><tag k="addr:street" v="Mecca Road"/><tag k="addr:housenumber" v="2204"/><tag k="coa:place_id" v="197108"/></node><node id="-7" lat="30.349107" lon="-97.865969" changeset="false"><tag k="addr:street" v="Saratoga Drive"/><tag k="addr:housenumber" v="2402"/><tag k="coa:place_id" v="80040"/></node><node id="-8" lat="30.338618" lon="-97.868973" changeset="false"><tag k="addr:street" v="Miami Drive"/><tag k="addr:housenumber" v="1306"/><tag k="coa:place_id" v="87402"/></node><node id="-9" lat="30.338903" lon="-97.879245" changeset="false"><tag k="addr:street" v="Arroweye Trail"/><tag k="addr:housenumber" v="805"/><tag k="coa:place_id" v="1140523"/></node><node id="-10" lat="30.348214" lon="-97.861972" changeset="false"><tag k="addr:street" v="De Soto Drive"/><tag k="addr:housenumber" v="2408"/><tag k="coa:place_id" v="572482"/></node><node id="-11" lat="30.349593" lon="-97.860666" changeset="false"><tag k="addr:street" v="Magellan Drive"/><tag k="addr:housenumber" v="2707"/><tag k="coa:place_id" v="81739"/></node><node id="-12" lat="30.338739" lon="-97.879287" changeset="false"><tag k="addr:street" v="Arroweye Trail"/><tag k="addr:housenumber" v="803"/><tag k="coa:place_id" v="795969"/></node><node id="-13" lat="30.337811" lon="-97.880224" changeset="false"><tag k="addr:street" v="Arroweye Trail"/><tag k="addr:housenumber" v="702"/><tag k="coa:place_id" v="1140529"/></node><node id="-14" lat="30.346108" lon="-97.868902" changeset="false"><tag k="addr:street" v="Lauranne Lane"/><tag k="addr:housenumber" v="2000"/><tag k="coa:place_id" v="78294"/></node><node id="-15" lat="30.345724" lon="-97.872775" changeset="false"><tag k="addr:street" v="Ski Slope Drive"/><tag k="addr:housenumber" v="1801"/><tag k="coa:place_id" v="787953"/></node><node id="-16" lat="30.343767" lon="-97.873559" changeset="false"><tag k="addr:street" v="Heathcliff Drive"/><tag k="addr:housenumber" v="1604"/><tag k="coa:place_id" v="90163"/></node><node id="-17" lat="30.344408" lon="-97.873876" changeset="false"><tag k="addr:street" v="Cliffwood Drive"/><tag k="addr:housenumber" v="1604"/><tag k="coa:place_id" v="709018"/></node><node id="-18" lat="30.344271" lon="-97.873335" changeset="false"><tag k="addr:street" v="Cliffwood Drive"/><tag k="addr:housenumber" v="1701"/><tag k="coa:place_id" v="173065"/></node><node id="-19" lat="30.344116" lon="-97.869972" changeset="false"><tag k="addr:street" v="Carlotta Lane"/><tag k="addr:housenumber" v="1800"/><tag k="coa:place_id" v="78281"/></node><node id="-20" lat="30.338992" lon="-97.868232" changeset="false"><tag k="addr:street" v="Miami Drive"/><tag k="addr:housenumber" v="1401"/><tag k="coa:place_id" v="198068"/></node><node id="-21" lat="30.33759" lon="-97.871725" changeset="false"><tag k="addr:street" v="Village West Drive"/><tag k="addr:housenumber" v="1102"/><tag k="coa:place_id" v="198434"/></node><node id="-22" lat="30.342432" lon="-97.861899" changeset="false"><tag k="addr:street" v="San Juan Drive"/><tag k="addr:housenumber" v="2001"/><tag k="coa:place_id" v="85550"/></node><node id="-23" lat="30.342031" lon="-97.862233" changeset="false"><tag k="addr:street" v="San Juan Drive"/><tag k="addr:housenumber" v="2003"/><tag k="coa:place_id" v="641818"/></node><node id="-24" lat="30.350405" lon="-97.859613" changeset="false"><tag k="addr:street" v="Mecca Road"/><tag k="addr:housenumber" v="2880"/><tag k="coa:place_id" v="1035909"/></node><node id="-25" lat="30.342166" lon="-97.861398" changeset="false"><tag k="addr:street" v="Cuernavaca Drive North"/><tag k="addr:housenumber" v="2000"/><tag k="coa:place_id" v="85868"/></node><node id="-26" lat="30.338556" lon="-97.870329" changeset="false"><tag k="addr:street" v="Castile Road"/><tag k="addr:housenumber" v="1206"/><tag k="coa:place_id" v="198410"/></node><node id="-27" lat="30.337069" lon="-97.865358" changeset="false"><tag k="addr:street" v="Cuernavaca Drive North"/><tag k="addr:housenumber" v="1306"/><tag k="coa:place_id" v="90757"/></node><node id="-28" lat="30.343938" lon="-97.873128" changeset="false"><tag k="addr:street" v="Heathcliff Drive"/><tag k="addr:housenumber" v="1603"/><tag k="coa:place_id" v="90162"/></node><node id="-29" lat="30.343385" lon="-97.867575" changeset="false"><tag k="addr:street" v="Lipan Trail,1100"/><tag k="addr:housenumber" v="1803"/><tag k="coa:place_id" v="87451"/></node><node id="-30" lat="30.340307" lon="-97.878868" changeset="false"><tag k="addr:street" v="War Bonnet Drive"/><tag k="addr:housenumber" v="10508"/><tag k="coa:place_id" v="1140513"/></node><node id="-31" lat="30.339607" lon="-97.878809" changeset="false"><tag k="addr:street" v="War Bonnet Drive"/><tag k="addr:housenumber" v="10505"/><tag k="coa:place_id" v="1140518"/></node><node id="-32" lat="30.337186" lon="-97.878715" changeset="false"><tag k="addr:street" v="Jennys Jump Drive"/><tag k="addr:housenumber" v="10414"/><tag k="coa:place_id" v="3148127"/></node><node id="-33" lat="30.339368" lon="-97.879088" changeset="false"><tag k="addr:street" v="Arroweye Trail"/><tag k="addr:housenumber" v="901"/><tag k="coa:place_id" v="1140520"/></node><node id="-34" lat="30.340296" lon="-97.868283" changeset="false"><tag k="addr:street" v="Miami Drive"/><tag k="addr:housenumber" v="1504"/><tag k="coa:place_id" v="198206"/></node><node id="-35" lat="30.341895" lon="-97.861592" changeset="false"><tag k="addr:street" v="Cuernavaca Drive North"/><tag k="addr:housenumber" v="2002"/><tag k="coa:place_id" v="86025"/></node><node id="-36" lat="30.342971" lon="-97.868385" changeset="false"><tag k="addr:street" v="Lipan Trail,1100"/><tag k="addr:housenumber" v="1704"/><tag k="coa:place_id" v="87439"/></node><node id="-37" lat="30.346876" lon="-97.862473" changeset="false"><tag k="addr:street" v="Yosemite Drive"/><tag k="addr:housenumber" v="2400"/><tag k="coa:place_id" v="84889"/></node><node id="-38" lat="30.34004" lon="-97.866712" changeset="false"><tag k="addr:street" v="Lancer Lane"/><tag k="addr:housenumber" v="1507"/><tag k="coa:place_id" v="197978"/></node><node id="-39" lat="30.347955" lon="-97.868086" changeset="false"><tag k="addr:street" v="Lauranne Lane"/><tag k="addr:housenumber" v="2201"/><tag k="coa:place_id" v="242890"/></node><node id="-40" lat="30.352358" lon="-97.858801" changeset="false"><tag k="addr:street" v="Bal Harbor Road"/><tag k="addr:housenumber" v="9901"/><tag k="coa:place_id" v="90144"/></node><node id="-41" lat="30.34632" lon="-97.872294" changeset="false"><tag k="addr:street" v="Ski Slope Drive"/><tag k="addr:housenumber" v="1808"/><tag k="coa:place_id" v="90181"/></node><node id="-42" lat="30.337142" lon="-97.874196" changeset="false"><tag k="addr:street" v="Devereux Drive"/><tag k="addr:housenumber" v="10200"/><tag k="coa:place_id" v="86157"/></node><node id="-43" lat="30.335545" lon="-97.86634" changeset="false"><tag k="addr:street" v="Orlando Road"/><tag k="addr:housenumber" v="1201"/><tag k="coa:place_id" v="90846"/></node><node id="-44" lat="30.342589" lon="-97.865228" changeset="false"><tag k="addr:street" v="Tonto Lane"/><tag k="addr:housenumber" v="1808"/><tag k="coa:place_id" v="133351"/></node><node id="-45" lat="30.344205" lon="-97.875914" changeset="false"><tag k="addr:street" v="Bruton Springs Road"/><tag k="addr:housenumber" v="1508"/><tag k="coa:place_id" v="1123868"/></node><node id="-46" lat="30.338422" lon="-97.879402" changeset="false"><tag k="addr:street" v="Arroweye Trail"/><tag k="addr:housenumber" v="709"/><tag k="coa:place_id" v="86636"/></node><node id="-47" lat="30.340039" lon="-97.879253" changeset="false"><tag k="addr:street" v="Arroweye Trail"/><tag k="addr:housenumber" v="907"/><tag k="coa:place_id" v="3280285"/></node><node id="-48" lat="30.346637" lon="-97.862941" changeset="false"><tag k="addr:street" v="Bahama Road"/><tag k="addr:housenumber" v="2421"/><tag k="coa:place_id" v="89793"/></node><node id="-49" lat="30.35192" lon="-97.856659" changeset="false"><tag k="addr:street" v="Niagara Drive"/><tag k="addr:housenumber" v="3004"/><tag k="coa:place_id" v="90100"/></node><node id="-50" lat="30.351967" lon="-97.863229" changeset="false"><tag k="addr:street" v="Edgewater Drive"/><tag k="addr:housenumber" v="2807"/><tag k="coa:place_id" v="244925"/></node><node id="-51" lat="30.348372" lon="-97.865112" changeset="false"><tag k="addr:street" v="Bahama Road"/><tag k="addr:housenumber" v="2402"/><tag k="coa:place_id" v="84734"/></node><node id="-52" lat="30.346203" lon="-97.87268" changeset="false"><tag k="addr:street" v="Ski Slope Drive"/><tag k="addr:housenumber" v="1802"/><tag k="coa:place_id" v="136017"/></node><node id="-53" lat="30.335794" lon="-97.868118" changeset="false"><tag k="addr:street" v="San Augustine Drive"/><tag k="addr:housenumber" v="1112"/><tag k="coa:place_id" v="169096"/></node><node id="-54" lat="30.339906" lon="-97.868611" changeset="false"><tag k="addr:street" v="Miami Drive"/><tag k="addr:housenumber" v="1500"/><tag k="coa:place_id" v="87403"/></node><node id="-55" lat="30.347062" lon="-97.867978" changeset="false"><tag k="addr:street" v="Lauranne Lane"/><tag k="addr:housenumber" v="2105"/><tag k="coa:place_id" v="78300"/></node><node id="-56" lat="30.342707" lon="-97.865814" changeset="false"><tag k="addr:street" v="Tonto Lane"/><tag k="addr:housenumber" v="1804"/><tag k="coa:place_id" v="87384"/></node><node id="-57" lat="30.342286" lon="-97.868774" changeset="false"><tag k="addr:street" v="Lipan Trail,1100"/><tag k="addr:housenumber" v="1606"/><tag k="coa:place_id" v="87436"/></node><node id="-58" lat="30.339526" lon="-97.867693" changeset="false"><tag k="addr:street" v="Lancer Lane"/><tag k="addr:housenumber" v="1500"/><tag k="coa:place_id" v="198044"/></node><node id="-59" lat="30.340658" lon="-97.879954" changeset="false"><tag k="addr:street" v="Arroweye Trail"/><tag k="addr:housenumber" v="1000"/><tag k="coa:place_id" v="87394"/></node><node id="-60" lat="30.343873" lon="-97.876883" changeset="false"><tag k="addr:street" v="Bruton Springs Road"/><tag k="addr:housenumber" v="1404"/><tag k="coa:place_id" v="1140508"/></node><node id="-61" lat="30.350631" lon="-97.859601" changeset="false"><tag k="addr:street" v="Mecca Road"/><tag k="addr:housenumber" v="2890"/><tag k="coa:place_id" v="954381"/></node><node id="-62" lat="30.332943" lon="-97.868914" changeset="false"><tag k="addr:street" v="Presa Arriba Road"/><tag k="addr:housenumber" v="805"/><tag k="coa:place_id" v="90785"/></node><node id="-63" lat="30.344722" lon="-97.870016" changeset="false"><tag k="addr:street" v="Carlotta Lane"/><tag k="addr:housenumber" v="1818"/><tag k="coa:place_id" v="78282"/></node><node id="-64" lat="30.344409" lon="-97.867477" changeset="false"><tag k="addr:street" v="Lipan Trail,1100"/><tag k="addr:housenumber" v="1904"/><tag k="coa:place_id" v="87444"/></node><node id="-65" lat="30.344197" lon="-97.865963" changeset="false"><tag k="addr:street" v="Casa Grande Drive"/><tag k="addr:housenumber" v="2000"/><tag k="coa:place_id" v="86521"/></node><node id="-66" lat="30.337974" lon="-97.876549" changeset="false"><tag k="addr:street" v="Jennys Jump Drive"/><tag k="addr:housenumber" v="10300"/><tag k="coa:place_id" v="223411"/></node><node id="-67" lat="30.343724" lon="-97.867878" changeset="false"><tag k="addr:street" v="Lipan Trail,1100"/><tag k="addr:housenumber" v="1804"/><tag k="coa:place_id" v="87441"/></node><node id="-68" lat="30.341289" lon="-97.88016" changeset="false"><tag k="addr:street" v="Arroweye Trail"/><tag k="addr:housenumber" v="1006"/><tag k="coa:place_id" v="87649"/></node><node id="-69" lat="30.340564" lon="-97.879219" changeset="false"><tag k="addr:street" v="War Bonnet Drive"/><tag k="addr:housenumber" v="10512"/><tag k="coa:place_id" v="479788"/></node><node id="-70" lat="30.35189" lon="-97.863483" changeset="false"><tag k="addr:street" v="Edgewater Drive"/><tag k="addr:housenumber" v="2805"/><tag k="coa:place_id" v="1141009"/></node><node id="-71" lat="30.339139" lon="-97.879947" changeset="false"><tag k="addr:street" v="Arroweye Trail"/><tag k="addr:housenumber" v="806"/><tag k="coa:place_id" v="1140521"/></node><node id="-72" lat="30.341953" lon="-97.868182" changeset="false"><tag k="addr:street" v="Lipan Trail,1100"/><tag k="addr:housenumber" v="1607"/><tag k="coa:place_id" v="87446"/></node><node id="-73" lat="30.341838" lon="-97.867349" changeset="false"><tag k="addr:street" v="Miami Drive"/><tag k="addr:housenumber" v="1702"/><tag k="coa:place_id" v="364119"/></node><node id="-74" lat="30.346716" lon="-97.865537" changeset="false"><tag k="addr:street" v="Bahama Road"/><tag k="addr:housenumber" v="2304"/><tag k="coa:place_id" v="84730"/></node><node id="-75" lat="30.346662" lon="-97.867798" changeset="false"><tag k="addr:street" v="Lauranne Lane"/><tag k="addr:housenumber" v="2103"/><tag k="coa:place_id" v="78301"/></node><node id="-76" lat="30.346893" lon="-97.863113" changeset="false"><tag k="addr:street" v="Bahama Road"/><tag k="addr:housenumber" v="2419"/><tag k="coa:place_id" v="197072"/></node><node id="-77" lat="30.347526" lon="-97.865248" changeset="false"><tag k="addr:street" v="Balboa Road"/><tag k="addr:housenumber" v="2321"/><tag k="coa:place_id" v="84128"/></node><node id="-78" lat="30.341132" lon="-97.865972" changeset="false"><tag k="addr:street" v="Lancer Lane"/><tag k="addr:housenumber" v="1703"/><tag k="coa:place_id" v="198008"/></node><node id="-79" lat="30.332151" lon="-97.868955" changeset="false"><tag k="addr:street" v="Cuernavaca Drive North"/><tag k="addr:housenumber" v="704"/><tag k="coa:place_id" v="3089208"/></node><node id="-80" lat="30.337738" lon="-97.870412" changeset="false"><tag k="addr:street" v="Village West Drive"/><tag k="addr:housenumber" v="1108"/><tag k="coa:place_id" v="198416"/></node><node id="-81" lat="30.339463" lon="-97.879885" changeset="false"><tag k="addr:street" v="Arroweye Trail"/><tag k="addr:housenumber" v="900"/><tag k="coa:place_id" v="86679"/></node><node id="-82" lat="30.345031" lon="-97.8645" changeset="false"><tag k="addr:street" v="Saratoga Drive"/><tag k="addr:housenumber" v="2119"/><tag k="coa:place_id" v="86632"/></node><node id="-83" lat="30.34476" lon="-97.865353" changeset="false"><tag k="addr:street" v="Casa Grande Drive"/><tag k="addr:housenumber" v="2103"/><tag k="coa:place_id" v="243595"/></node><node id="-84" lat="30.33286" lon="-97.86827" changeset="false"><tag k="addr:street" v="Lipan Trail,1100"/><tag k="addr:housenumber" v="900"/><tag k="coa:place_id" v="5114262"/></node><node id="-85" lat="30.348441" lon="-97.861215" changeset="false"><tag k="addr:street" v="San Luis Trail"/><tag k="addr:housenumber" v="9807"/><tag k="coa:place_id" v="83346"/></node><node id="-86" lat="30.351341" lon="-97.865599" changeset="false"><tag k="addr:street" v="Edgewater Drive"/><tag k="addr:housenumber" v="2700"/><tag k="coa:place_id" v="196802"/></node><node id="-87" lat="30.351229" lon="-97.858897" changeset="false"><tag k="addr:street" v="Inca Lane"/><tag k="addr:housenumber" v="9804"/><tag k="coa:place_id" v="90223"/></node><node id="-88" lat="30.344528" lon="-97.865385" changeset="false"><tag k="addr:street" v="Casa Grande Drive"/><tag k="addr:housenumber" v="2101"/><tag k="coa:place_id" v="197300"/></node><node id="-89" lat="30.338824" lon="-97.871109" changeset="false"><tag k="addr:street" v="Lipan Trail,1100"/><tag k="addr:housenumber" v="1206"/><tag k="coa:place_id" v="198350"/></node><node id="-90" lat="30.35307" lon="-97.859676" changeset="false"><tag k="addr:street" v="Edgewater Drive"/><tag k="addr:housenumber" v="3017"/><tag k="coa:place_id" v="90155"/></node><node id="-91" lat="30.347957" lon="-97.864931" changeset="false"><tag k="addr:street" v="Bahama Road"/><tag k="addr:housenumber" v="2403"/><tag k="coa:place_id" v="668554"/></node><node id="-92" lat="30.342712" lon="-97.865502" changeset="false"><tag k="addr:street" v="Tonto Lane"/><tag k="addr:housenumber" v="1806"/><tag k="coa:place_id" v="87385"/></node><node id="-93" lat="30.342461" lon="-97.873598" changeset="false"><tag k="addr:street" v="Lisa Cove"/><tag k="addr:housenumber" v="10302"/><tag k="coa:place_id" v="267454"/></node><node id="-94" lat="30.351104" lon="-97.863561" changeset="false"><tag k="addr:street" v="Saratoga Drive"/><tag k="addr:housenumber" v="2706"/><tag k="coa:place_id" v="80042"/></node><node id="-95" lat="30.350566" lon="-97.863874" changeset="false"><tag k="addr:street" v="Saratoga Drive"/><tag k="addr:housenumber" v="2700"/><tag k="coa:place_id" v="197006"/></node><node id="-96" lat="30.343671" lon="-97.873523" changeset="false"><tag k="addr:street" v="Heathcliff Drive"/><tag k="addr:housenumber" v="1602"/><tag k="coa:place_id" v="90161"/></node><node id="-97" lat="30.352046" lon="-97.856869" changeset="false"><tag k="addr:street" v="Bal Harbor Road"/><tag k="addr:housenumber" v="9703"/><tag k="coa:place_id" v="430815"/></node><node id="-98" lat="30.344191" lon="-97.871859" changeset="false"><tag k="addr:street" v="Foggy Glen Cove"/><tag k="addr:housenumber" v="1707"/><tag k="coa:place_id" v="78269"/></node><node id="-99" lat="30.343007" lon="-97.869351" changeset="false"><tag k="addr:street" v="Carlotta Lane"/><tag k="addr:housenumber" v="1705"/><tag k="coa:place_id" v="78289"/></node><node id="-100" lat="30.334684" lon="-97.866749" changeset="false"><tag k="addr:street" v="San Augustine Drive"/><tag k="addr:housenumber" v="1101"/><tag k="coa:place_id" v="143741"/></node><node id="-101" lat="30.34177" lon="-97.880017" changeset="false"><tag k="addr:street" v="Arroweye Trail"/><tag k="addr:housenumber" v="1102"/><tag k="coa:place_id" v="87651"/></node><node id="-102" lat="30.339519" lon="-97.867029" changeset="false"><tag k="addr:street" v="Lancer Lane"/><tag k="addr:housenumber" v="1503"/><tag k="coa:place_id" v="197966"/></node><node id="-103" lat="30.339641" lon="-97.879873" changeset="false"><tag k="addr:street" v="Arroweye Trail"/><tag k="addr:housenumber" v="902"/><tag k="coa:place_id" v="86689"/></node><node id="-104" lat="30.335143" lon="-97.869191" changeset="false"><tag k="addr:street" v="Lipan Trail,1100"/><tag k="addr:housenumber" v="1001"/><tag k="coa:place_id" v="198590"/></node><node id="-105" lat="30.336775" lon="-97.869263" changeset="false"><tag k="addr:street" v="Castile Road"/><tag k="addr:housenumber" v="1109"/><tag k="coa:place_id" v="381381"/></node><node id="-106" lat="30.336073" lon="-97.868752" changeset="false"><tag k="addr:street" v="Castile Road"/><tag k="addr:housenumber" v="1103"/><tag k="coa:place_id" v="553089"/></node><node id="-107" lat="30.345453" lon="-97.864412" changeset="false"><tag k="addr:street" v="Bahama Road"/><tag k="addr:housenumber" v="2216"/><tag k="coa:place_id" v="87653"/></node><node id="-108" lat="30.34163" lon="-97.872695" changeset="false"><tag k="addr:street" v="Venita Cove"/><tag k="addr:housenumber" v="10209"/><tag k="coa:place_id" v="594634"/></node><node id="-109" lat="30.343993" lon="-97.873263" changeset="false"><tag k="addr:street" v="Heathcliff Drive"/><tag k="addr:housenumber" v="1605"/><tag k="coa:place_id" v="90167"/></node><node id="-110" lat="30.342788" lon="-97.869603" changeset="false"><tag k="addr:street" v="Carlotta Lane"/><tag k="addr:housenumber" v="1701"/><tag k="coa:place_id" v="78290"/></node><node id="-111" lat="30.338743" lon="-97.87485" changeset="false"><tag k="addr:street" v="Lisa Drive"/><tag k="addr:housenumber" v="1011"/><tag k="coa:place_id" v="99954"/></node><node id="-112" lat="30.344819" lon="-97.866213" changeset="false"><tag k="addr:street" v="Mestena Trail"/><tag k="addr:housenumber" v="2005"/><tag k="coa:place_id" v="87388"/></node><node id="-113" lat="30.343562" lon="-97.873248" changeset="false"><tag k="addr:street" v="Heathcliff Drive"/><tag k="addr:housenumber" v="1600"/><tag k="coa:place_id" v="90156"/></node><node id="-114" lat="30.343172" lon="-97.867103" changeset="false"><tag k="addr:street" v="Miami Drive"/><tag k="addr:housenumber" v="1810"/><tag k="coa:place_id" v="87409"/></node><node id="-115" lat="30.341499" lon="-97.869319" changeset="false"><tag k="addr:street" v="Lipan Trail,1100"/><tag k="addr:housenumber" v="1600"/><tag k="coa:place_id" v="681424"/></node><node id="-116" lat="30.337885" lon="-97.874177" changeset="false"><tag k="addr:street" v="Lisa Drive"/><tag k="addr:housenumber" v="1005"/><tag k="coa:place_id" v="1034217"/></node><node id="-117" lat="30.339198" lon="-97.879124" changeset="false"><tag k="addr:street" v="Arroweye Trail"/><tag k="addr:housenumber" v="809"/><tag k="coa:place_id" v="86637"/></node><node id="-118" lat="30.340033" lon="-97.878364" changeset="false"><tag k="addr:street" v="War Bonnet Drive"/><tag k="addr:housenumber" v="10502"/><tag k="coa:place_id" v="1140515"/></node><node id="-119" lat="30.33836" lon="-97.877735" changeset="false"><tag k="addr:street" v="Chrissys Cove"/><tag k="addr:housenumber" v="801"/><tag k="coa:place_id" v="1141207"/></node><node id="-120" lat="30.343421" lon="-97.878797" changeset="false"><tag k="addr:street" v="Bruton Springs Road"/><tag k="addr:housenumber" v="1210"/><tag k="coa:place_id" v="197630"/></node><node id="-121" lat="30.345901" lon="-97.863398" changeset="false"><tag k="addr:street" v="Balboa Road"/><tag k="addr:housenumber" v="2302"/><tag k="coa:place_id" v="1141017"/></node><node id="-122" lat="30.350677" lon="-97.866513" changeset="false"><tag k="addr:street" v="Edgewater Drive"/><tag k="addr:housenumber" v="2600"/><tag k="coa:place_id" v="351723"/></node><node id="-123" lat="30.340089" lon="-97.875608" changeset="false"><tag k="addr:street" v="Lisa Drive"/><tag k="addr:housenumber" v="1101"/><tag k="coa:place_id" v="414261"/></node><node id="-124" lat="30.33784" lon="-97.865124" changeset="false"><tag k="addr:street" v="Cuernavaca Drive North"/><tag k="addr:housenumber" v="1404"/><tag k="coa:place_id" v="135762"/></node><node id="-125" lat="30.33471" lon="-97.868993" changeset="false"><tag k="addr:street" v="Lipan Trail,1100"/><tag k="addr:housenumber" v="913"/><tag k="coa:place_id" v="90811"/></node><node id="-126" lat="30.350364" lon="-97.860647" changeset="false"><tag k="addr:street" v="Saratoga Drive"/><tag k="addr:housenumber" v="2818"/><tag k="coa:place_id" v="421738"/></node><node id="-127" lat="30.338214" lon="-97.869725" changeset="false"><tag k="addr:street" v="Castile Road"/><tag k="addr:housenumber" v="1203"/><tag k="coa:place_id" v="87398"/></node><node id="-128" lat="30.347069" lon="-97.863359" changeset="false"><tag k="addr:street" v="Bahama Road"/><tag k="addr:housenumber" v="2417"/><tag k="coa:place_id" v="89517"/></node><node id="-129" lat="30.342288" lon="-97.864889" changeset="false"><tag k="addr:street" v="Tartar Way"/><tag k="addr:housenumber" v="1807"/><tag k="coa:place_id" v="133349"/></node><node id="-130" lat="30.350581" lon="-97.862813" changeset="false"><tag k="addr:street" v="Del Rio Drive"/><tag k="addr:housenumber" v="2702"/><tag k="coa:place_id" v="81899"/></node><node id="-131" lat="30.344392" lon="-97.874473" changeset="false"><tag k="addr:street" v="Ski Slope Drive"/><tag k="addr:housenumber" v="1600"/><tag k="coa:place_id" v="198968"/></node><node id="-132" lat="30.34884" lon="-97.860491" changeset="false"><tag k="addr:street" v="Vallarta Lane"/><tag k="addr:housenumber" v="2702"/><tag k="coa:place_id" v="84891"/></node><node id="-133" lat="30.335697" lon="-97.865935" changeset="false"><tag k="addr:street" v="Cuernavaca Drive North"/><tag k="addr:housenumber" v="1202"/><tag k="coa:place_id" v="90749"/></node><node id="-134" lat="30.351173" lon="-97.857708" changeset="false"><tag k="addr:street" v="Riviera Road"/><tag k="addr:housenumber" v="2907"/><tag k="coa:place_id" v="146707"/></node><node id="-135" lat="30.343151" lon="-97.862274" changeset="false"><tag k="addr:street" v="Saratoga Drive"/><tag k="addr:housenumber" v="2100"/><tag k="coa:place_id" v="137261"/></node><node id="-136" lat="30.341998" lon="-97.863019" changeset="false"><tag k="addr:street" v="San Juan Drive"/><tag k="addr:housenumber" v="1903"/><tag k="coa:place_id" v="85526"/></node><node id="-137" lat="30.34185" lon="-97.864679" changeset="false"><tag k="addr:street" v="Tartar Way"/><tag k="addr:housenumber" v="1803"/><tag k="coa:place_id" v="87386"/></node><node id="-138" lat="30.351385" lon="-97.860331" changeset="false"><tag k="addr:street" v="Vallarta Lane"/><tag k="addr:housenumber" v="2901"/><tag k="coa:place_id" v="1046745"/></node><node id="-139" lat="30.347485" lon="-97.866497" changeset="false"><tag k="addr:street" v="Saratoga Drive"/><tag k="addr:housenumber" v="2213"/><tag k="coa:place_id" v="80023"/></node><node id="-140" lat="30.339257" lon="-97.876152" changeset="false"><tag k="addr:street" v="Lisa Drive"/><tag k="addr:housenumber" v="1024"/><tag k="coa:place_id" v="3289741"/></node><node id="-141" lat="30.336445" lon="-97.870252" changeset="false"><tag k="addr:street" v="Lipan Trail,1100"/><tag k="addr:housenumber" v="1101"/><tag k="coa:place_id" v="198620"/></node><node id="-142" lat="30.340386" lon="-97.863919" changeset="false"><tag k="addr:street" v="Tartar Way"/><tag k="addr:housenumber" v="1702"/><tag k="coa:place_id" v="718401"/></node><node id="-143" lat="30.340299" lon="-97.87188" changeset="false"><tag k="addr:street" v="Carlotta Lane"/><tag k="addr:housenumber" v="1401"/><tag k="coa:place_id" v="122381"/></node><node id="-144" lat="30.336587" lon="-97.870801" changeset="false"><tag k="addr:street" v="Lipan Trail,1100"/><tag k="addr:housenumber" v="1102"/><tag k="coa:place_id" v="198560"/></node><node id="-145" lat="30.33635" lon="-97.865998" changeset="false"><tag k="addr:street" v="Orlando Road"/><tag k="addr:housenumber" v="1207"/><tag k="coa:place_id" v="90852"/></node><node id="-146" lat="30.348597" lon="-97.862703" changeset="false"><tag k="addr:street" v="San Luis Trail"/><tag k="addr:housenumber" v="9907"/><tag k="coa:place_id" v="83349"/></node><node id="-147" lat="30.339916" lon="-97.867799" changeset="false"><tag k="addr:street" v="Miami Drive"/><tag k="addr:housenumber" v="1503"/><tag k="coa:place_id" v="198092"/></node><node id="-148" lat="30.341081" lon="-97.867062" changeset="false"><tag k="addr:street" v="Miami Drive"/><tag k="addr:housenumber" v="1605"/><tag k="coa:place_id" v="198122"/></node><node id="-149" lat="30.345463" lon="-97.86986" changeset="false"><tag k="addr:street" v="Carlotta Lane"/><tag k="addr:housenumber" v="1817"/><tag k="coa:place_id" v="3096066"/></node><node id="-150" lat="30.342811" lon="-97.866887" changeset="false"><tag k="addr:street" v="Miami Drive"/><tag k="addr:housenumber" v="1802"/><tag k="coa:place_id" v="395073"/></node><node id="-151" lat="30.342435" lon="-97.869679" changeset="false"><tag k="addr:street" v="Carlotta Lane"/><tag k="addr:housenumber" v="1605"/><tag k="coa:place_id" v="89776"/></node><node id="-152" lat="30.332898" lon="-97.869564" changeset="false"><tag k="addr:street" v="Presa Arriba Road"/><tag k="addr:housenumber" v="806"/><tag k="coa:place_id" v="90774"/></node><node id="-153" lat="30.338559" lon="-97.871316" changeset="false"><tag k="addr:street" v="Lipan Trail,1100"/><tag k="addr:housenumber" v="1204"/><tag k="coa:place_id" v="238623"/></node><node id="-154" lat="30.339596" lon="-97.87922" changeset="false"><tag k="addr:street" v="Arroweye Trail"/><tag k="addr:housenumber" v="903"/><tag k="coa:place_id" v="86721"/></node><node id="-155" lat="30.341453" lon="-97.868934" changeset="false"><tag k="addr:street" v="Lipan Trail,1100"/><tag k="addr:housenumber" v="1601"/><tag k="coa:place_id" v="696760"/></node><node id="-156" lat="30.346287" lon="-97.865031" changeset="false"><tag k="addr:street" v="Bahama Road"/><tag k="addr:housenumber" v="2300"/><tag k="coa:place_id" v="197189"/></node><node id="-157" lat="30.343408" lon="-97.868102" changeset="false"><tag k="addr:street" v="Lipan Trail,1100"/><tag k="addr:housenumber" v="1800"/><tag k="coa:place_id" v="87440"/></node><node id="-158" lat="30.336474" lon="-97.879632" changeset="false"><tag k="addr:street" v="Jennys Jump Drive"/><tag k="addr:housenumber" v="10434"/><tag k="coa:place_id" v="223423"/></node><node id="-159" lat="30.34662" lon="-97.862041" changeset="false"><tag k="addr:street" v="Yosemite Drive"/><tag k="addr:housenumber" v="2401"/><tag k="coa:place_id" v="90076"/></node><node id="-160" lat="30.347816" lon="-97.866163" changeset="false"><tag k="addr:street" v="Bahama Road"/><tag k="addr:housenumber" v="2312"/><tag k="coa:place_id" v="206542"/></node><node id="-161" lat="30.33904" lon="-97.864479" changeset="false"><tag k="addr:street" v="Cuernavaca Drive North"/><tag k="addr:housenumber" v="1600"/><tag k="coa:place_id" v="1140993"/></node><node id="-162" lat="30.34488" lon="-97.864955" changeset="false"><tag k="addr:street" v="Saratoga Drive"/><tag k="addr:housenumber" v="2122"/><tag k="coa:place_id" v="197270"/></node><node id="-163" lat="30.344809" lon="-97.867251" changeset="false"><tag k="addr:street" v="Lipan Trail,1100"/><tag k="addr:housenumber" v="2000"/><tag k="coa:place_id" v="1141024"/></node><node id="-164" lat="30.343238" lon="-97.867354" changeset="false"><tag k="addr:street" v="Miami Drive"/><tag k="addr:housenumber" v="1812"/><tag k="coa:place_id" v="87411"/></node><node id="-165" lat="30.349569" lon="-97.861165" changeset="false"><tag k="addr:street" v="Magellan Drive"/><tag k="addr:housenumber" v="2704"/><tag k="coa:place_id" v="81731"/></node><node id="-166" lat="30.341743" lon="-97.862313" changeset="false"><tag k="addr:street" v="Cuernavaca Drive North"/><tag k="addr:housenumber" v="1904"/><tag k="coa:place_id" v="85867"/></node><node id="-167" lat="30.341567" lon="-97.862942" changeset="false"><tag k="addr:street" v="Cuernavaca Drive North"/><tag k="addr:housenumber" v="1900"/><tag k="coa:place_id" v="3128805"/></node><node id="-168" lat="30.338502" lon="-97.864776" changeset="false"><tag k="addr:street" v="Cuernavaca Drive North"/><tag k="addr:housenumber" v="1500"/><tag k="coa:place_id" v="1035818"/></node><node id="-169" lat="30.351077" lon="-97.862124" changeset="false"><tag k="addr:street" v="Saratoga Drive"/><tag k="addr:housenumber" v="2806"/><tag k="coa:place_id" v="121854"/></node><node id="-170" lat="30.350596" lon="-97.860714" changeset="false"><tag k="addr:street" v="Vallarta Lane"/><tag k="addr:housenumber" v="2810"/><tag k="coa:place_id" v="84894"/></node><node id="-171" lat="30.350636" lon="-97.863398" changeset="false"><tag k="addr:street" v="Saratoga Drive"/><tag k="addr:housenumber" v="2703"/><tag k="coa:place_id" v="80036"/></node><node id="-172" lat="30.353772" lon="-97.857037" changeset="false"><tag k="addr:street" v="Edgewater Drive"/><tag k="addr:housenumber" v="3116"/><tag k="coa:place_id" v="197390"/></node><node id="-173" lat="30.335529" lon="-97.869533" changeset="false"><tag k="addr:street" v="Lipan Trail,1100"/><tag k="addr:housenumber" v="1005"/><tag k="coa:place_id" v="198602"/></node><node id="-174" lat="30.340513" lon="-97.865965" changeset="false"><tag k="addr:street" v="San Juan Drive"/><tag k="addr:housenumber" v="1602"/><tag k="coa:place_id" v="197918"/></node><node id="-175" lat="30.346083" lon="-97.865379" changeset="false"><tag k="addr:street" v="Mestena Trail"/><tag k="addr:housenumber" v="2200"/><tag k="coa:place_id" v="3192108"/></node><node id="-176" lat="30.347709" lon="-97.866539" changeset="false"><tag k="addr:street" v="Saratoga Drive"/><tag k="addr:housenumber" v="2301"/><tag k="coa:place_id" v="3195489"/></node><node id="-177" lat="30.336926" lon="-97.868917" changeset="false"><tag k="addr:street" v="San Augustine Drive"/><tag k="addr:housenumber" v="1124"/><tag k="coa:place_id" v="552615"/></node><node id="-178" lat="30.339509" lon="-97.878063" changeset="false"><tag k="addr:street" v="War Bonnet Drive"/><tag k="addr:housenumber" v="10409"/><tag k="coa:place_id" v="3289735"/></node><node id="-179" lat="30.349885" lon="-97.860407" changeset="false"><tag k="addr:street" v="Vallarta Lane"/><tag k="addr:housenumber" v="2800"/><tag k="coa:place_id" v="84893"/></node><node id="-180" lat="30.341154" lon="-97.868925" changeset="false"><tag k="addr:street" v="Lipan Trail,1100"/><tag k="addr:housenumber" v="1505"/><tag k="coa:place_id" v="198302"/></node><node id="-181" lat="30.353636" lon="-97.8587" changeset="false"><tag k="addr:street" v="Edgewater Drive"/><tag k="addr:housenumber" v="3106"/><tag k="coa:place_id" v="3254462"/></node><node id="-182" lat="30.342053" lon="-97.868962" changeset="false"><tag k="addr:street" v="Lipan Trail,1100"/><tag k="addr:housenumber" v="1604"/><tag k="coa:place_id" v="87435"/></node><node id="-183" lat="30.345589" lon="-97.866611" changeset="false"><tag k="addr:street" v="Lipan Trail,1100"/><tag k="addr:housenumber" v="2003"/><tag k="coa:place_id" v="87455"/></node><node id="-184" lat="30.351036" lon="-97.865343" changeset="false"><tag k="addr:street" v="Edgewater Drive"/><tag k="addr:housenumber" v="2701"/><tag k="coa:place_id" v="3390472"/></node><node id="-185" lat="30.336531" lon="-97.867551" changeset="false"><tag k="addr:street" v="Miami Drive"/><tag k="addr:housenumber" v="1206"/><tag k="coa:place_id" v="477382"/></node><node id="-186" lat="30.350783" lon="-97.857774" changeset="false"><tag k="addr:street" v="Niagara Drive"/><tag k="addr:housenumber" v="2908"/><tag k="coa:place_id" v="3298042"/></node><node id="-187" lat="30.352072" lon="-97.862946" changeset="false"><tag k="addr:street" v="Edgewater Drive"/><tag k="addr:housenumber" v="2901"/><tag k="coa:place_id" v="5095094"/></node><node id="-188" lat="30.34749" lon="-97.863757" changeset="false"><tag k="addr:street" v="Bahama Road"/><tag k="addr:housenumber" v="2413"/><tag k="coa:place_id" v="3429270"/></node><node id="-189" lat="30.349628" lon="-97.860287" changeset="false"><tag k="addr:street" v="Vallarta Lane"/><tag k="addr:housenumber" v="2708"/><tag k="coa:place_id" v="3429272"/></node><node id="-190" lat="30.349288" lon="-97.864161" changeset="false"><tag k="addr:street" v="Saratoga Drive"/><tag k="addr:housenumber" v="2505"/><tag k="coa:place_id" v="3429273"/></node><node id="-191" lat="30.337713" lon="-97.865537" changeset="false"><tag k="addr:street" v="Orlando Road"/><tag k="addr:housenumber" v="1401"/><tag k="coa:place_id" v="90863"/></node><node id="-192" lat="30.34001" lon="-97.86962" changeset="false"><tag k="addr:street" v="Lipan Trail,1100"/><tag k="addr:housenumber" v="1403"/><tag k="coa:place_id" v="87433"/></node><node id="-193" lat="30.352886" lon="-97.861945" changeset="false"><tag k="addr:street" v="Edgewater Drive"/><tag k="addr:housenumber" v="2910"/><tag k="coa:place_id" v="196700"/></node><node id="-194" lat="30.352834" lon="-97.859593" changeset="false"><tag k="addr:street" v="Bal Harbor Road"/><tag k="addr:housenumber" v="9904"/><tag k="coa:place_id" v="90145"/></node><node id="-195" lat="30.352583" lon="-97.857986" changeset="false"><tag k="addr:street" v="Bal Harbor Road"/><tag k="addr:housenumber" v="9800"/><tag k="coa:place_id" v="90133"/></node><node id="-196" lat="30.343781" lon="-97.873103" changeset="false"><tag k="addr:street" v="Heathcliff Drive"/><tag k="addr:housenumber" v="1601"/><tag k="coa:place_id" v="90157"/></node><node id="-197" lat="30.344186" lon="-97.867607" changeset="false"><tag k="addr:street" v="Lipan Trail,1100"/><tag k="addr:housenumber" v="1902"/><tag k="coa:place_id" v="87443"/></node><node id="-198" lat="30.341043" lon="-97.865214" changeset="false"><tag k="addr:street" v="Saracen Road"/><tag k="addr:housenumber" v="1701"/><tag k="coa:place_id" v="759933"/></node><node id="-199" lat="30.350037" lon="-97.859651" changeset="false"><tag k="addr:street" v="Mecca Road"/><tag k="addr:housenumber" v="2808"/><tag k="coa:place_id" v="90203"/></node><node id="-200" lat="30.350045" lon="-97.860146" changeset="false"><tag k="addr:street" v="Vallarta Lane"/><tag k="addr:housenumber" v="2801"/><tag k="coa:place_id" v="90179"/></node><node id="-201" lat="30.341741" lon="-97.868311" changeset="false"><tag k="addr:street" v="Lipan Trail,1100"/><tag k="addr:housenumber" v="1605"/><tag k="coa:place_id" v="87445"/></node><node id="-202" lat="30.341712" lon="-97.866722" changeset="false"><tag k="addr:street" v="Miami Drive"/><tag k="addr:housenumber" v="1703"/><tag k="coa:place_id" v="198134"/></node><node id="-203" lat="30.340321" lon="-97.87991" changeset="false"><tag k="addr:street" v="Arroweye Trail"/><tag k="addr:housenumber" v="910"/><tag k="coa:place_id" v="86795"/></node><node id="-204" lat="30.345526" lon="-97.865629" changeset="false"><tag k="addr:street" v="Saratoga Drive"/><tag k="addr:housenumber" v="2126"/><tag k="coa:place_id" v="86633"/></node><node id="-205" lat="30.33858" lon="-97.879345" changeset="false"><tag k="addr:street" v="Arroweye Trail"/><tag k="addr:housenumber" v="801"/><tag k="coa:place_id" v="1140526"/></node><node id="-206" lat="30.351998" lon="-97.856427" changeset="false"><tag k="addr:street" v="Bal Harbor Road"/><tag k="addr:housenumber" v="9701"/><tag k="coa:place_id" v="665630"/></node><node id="-207" lat="30.344954" lon="-97.873257" changeset="false"><tag k="addr:street" v="Cliffwood Drive"/><tag k="addr:housenumber" v="1704"/><tag k="coa:place_id" v="1141023"/></node><node id="-208" lat="30.344622" lon="-97.870559" changeset="false"><tag k="addr:street" v="Carlotta Lane"/><tag k="addr:housenumber" v="1822"/><tag k="coa:place_id" v="78283"/></node><node id="-209" lat="30.344493" lon="-97.870996" changeset="false"><tag k="addr:street" v="Carlotta Lane"/><tag k="addr:housenumber" v="1826"/><tag k="coa:place_id" v="78284"/></node><node id="-210" lat="30.335948" lon="-97.871444" changeset="false"><tag k="addr:street" v="Presa Arriba Road"/><tag k="addr:housenumber" v="1004"/><tag k="coa:place_id" v="90797"/></node><node id="-211" lat="30.342748" lon="-97.868492" changeset="false"><tag k="addr:street" v="Lipan Trail,1100"/><tag k="addr:housenumber" v="1702"/><tag k="coa:place_id" v="1140989"/></node><node id="-212" lat="30.342503" lon="-97.862912" changeset="false"><tag k="addr:street" v="San Juan Drive"/><tag k="addr:housenumber" v="1904"/><tag k="coa:place_id" v="156774"/></node><node id="-213" lat="30.333416" lon="-97.869218" changeset="false"><tag k="addr:street" v="Presa Arriba Road"/><tag k="addr:housenumber" v="809"/><tag k="coa:place_id" v="90787"/></node><node id="-214" lat="30.345449" lon="-97.871215" changeset="false"><tag k="addr:street" v="Carlotta Lane"/><tag k="addr:housenumber" v="1829"/><tag k="coa:place_id" v="78285"/></node><node id="-215" lat="30.350306" lon="-97.860256" changeset="false"><tag k="addr:street" v="Vallarta Lane"/><tag k="addr:housenumber" v="2813"/><tag k="coa:place_id" v="84897"/></node><node id="-216" lat="30.338235" lon="-97.866195" changeset="false"><tag k="addr:street" v="Village West Drive"/><tag k="addr:housenumber" v="1503"/><tag k="coa:place_id" v="198692"/></node><node id="-217" lat="30.343271" lon="-97.872948" changeset="false"><tag k="addr:street" v="Foggy Glen Cove"/><tag k="addr:housenumber" v="1700"/><tag k="coa:place_id" v="736978"/></node><node id="-218" lat="30.333878" lon="-97.870197" changeset="false"><tag k="addr:street" v="Presa Arriba Road"/><tag k="addr:housenumber" v="902"/><tag k="coa:place_id" v="90781"/></node><node id="-219" lat="30.349417" lon="-97.862494" changeset="false"><tag k="addr:street" v="Palomino Drive"/><tag k="addr:housenumber" v="2702"/><tag k="coa:place_id" v="196952"/></node><node id="-220" lat="30.336739" lon="-97.879417" changeset="false"><tag k="addr:street" v="Jennys Jump Drive"/><tag k="addr:housenumber" v="10428"/><tag k="coa:place_id" v="223422"/></node><node id="-221" lat="30.341357" lon="-97.869395" changeset="false"><tag k="addr:street" v="Lipan Trail,1100"/><tag k="addr:housenumber" v="1504"/><tag k="coa:place_id" v="198320"/></node><node id="-222" lat="30.348733" lon="-97.861762" changeset="false"><tag k="addr:street" v="San Luis Trail"/><tag k="addr:housenumber" v="9901"/><tag k="coa:place_id" v="83347"/></node><node id="-223" lat="30.34223" lon="-97.873152" changeset="false"><tag k="addr:street" v="Lisa Cove"/><tag k="addr:housenumber" v="10300"/><tag k="coa:place_id" v="78264"/></node><node id="-224" lat="30.343824" lon="-97.867216" changeset="false"><tag k="addr:street" v="Lipan Trail,1100"/><tag k="addr:housenumber" v="1901"/><tag k="coa:place_id" v="87452"/></node><node id="-225" lat="30.335853" lon="-97.870354" changeset="false"><tag k="addr:street" v="Lipan Trail,1100"/><tag k="addr:housenumber" v="1008"/><tag k="coa:place_id" v="198578"/></node><node id="-226" lat="30.343561" lon="-97.866416" changeset="false"><tag k="addr:street" v="Miami Drive"/><tag k="addr:housenumber" v="1809"/><tag k="coa:place_id" v="87408"/></node><node id="-227" lat="30.342953" lon="-97.866161" changeset="false"><tag k="addr:street" v="Miami Drive"/><tag k="addr:housenumber" v="1805"/><tag k="coa:place_id" v="87406"/></node><node id="-228" lat="30.342845" lon="-97.863798" changeset="false"><tag k="addr:street" v="Cochise Trail"/><tag k="addr:housenumber" v="2002"/><tag k="coa:place_id" v="85524"/></node><node id="-229" lat="30.342645" lon="-97.86787" changeset="false"><tag k="addr:street" v="Lipan Trail,1100"/><tag k="addr:housenumber" v="1705"/><tag k="coa:place_id" v="87449"/></node><node id="-230" lat="30.353569" lon="-97.858054" changeset="false"><tag k="addr:street" v="Edgewater Drive"/><tag k="addr:housenumber" v="3108"/><tag k="coa:place_id" v="410572"/></node><node id="-231" lat="30.348235" lon="-97.86631" changeset="false"><tag k="addr:street" v="Saratoga Drive"/><tag k="addr:housenumber" v="2305"/><tag k="coa:place_id" v="80028"/></node><node id="-232" lat="30.340389" lon="-97.865361" changeset="false"><tag k="addr:street" v="Saracen Road"/><tag k="addr:housenumber" v="1610"/><tag k="coa:place_id" v="197888"/></node><node id="-233" lat="30.337627" lon="-97.880237" changeset="false"><tag k="addr:street" v="Arroweye Trail"/><tag k="addr:housenumber" v="700"/><tag k="coa:place_id" v="129677"/></node><node id="-234" lat="30.347219" lon="-97.86641" changeset="false"><tag k="addr:street" v="Saratoga Drive"/><tag k="addr:housenumber" v="2211"/><tag k="coa:place_id" v="80021"/></node><node id="-235" lat="30.352251" lon="-97.856275" changeset="false"><tag k="addr:street" v="Niagara Drive"/><tag k="addr:housenumber" v="3102"/><tag k="coa:place_id" v="90103"/></node><node id="-236" lat="30.338641" lon="-97.880043" changeset="false"><tag k="addr:street" v="Arroweye Trail"/><tag k="addr:housenumber" v="800"/><tag k="coa:place_id" v="1140525"/></node><node id="-237" lat="30.339359" lon="-97.868772" changeset="false"><tag k="addr:street" v="Miami Drive"/><tag k="addr:housenumber" v="1404"/><tag k="coa:place_id" v="955454"/></node><node id="-238" lat="30.349543" lon="-97.862886" changeset="false"><tag k="addr:street" v="Del Rio Drive"/><tag k="addr:housenumber" v="2605"/><tag k="coa:place_id" v="81771"/></node><node id="-239" lat="30.344004" lon="-97.8736" changeset="false"><tag k="addr:street" v="Heathcliff Drive"/><tag k="addr:housenumber" v="1606"/><tag k="coa:place_id" v="90168"/></node><node id="-240" lat="30.346648" lon="-97.871896" changeset="false"><tag k="addr:street" v="Ski Slope Drive"/><tag k="addr:housenumber" v="1814"/><tag k="coa:place_id" v="3254457"/></node><node id="-241" lat="30.344103" lon="-97.867018" changeset="false"><tag k="addr:street" v="Lipan Trail,1100"/><tag k="addr:housenumber" v="1903"/><tag k="coa:place_id" v="87453"/></node><node id="-242" lat="30.339944" lon="-97.864133" changeset="false"><tag k="addr:street" v="Saracen Road"/><tag k="addr:housenumber" v="1603"/><tag k="coa:place_id" v="197834"/></node><node id="-243" lat="30.342347" lon="-97.863225" changeset="false"><tag k="addr:street" v="San Juan Drive"/><tag k="addr:housenumber" v="1902"/><tag k="coa:place_id" v="586066"/></node><node id="-244" lat="30.333648" lon="-97.869374" changeset="false"><tag k="addr:street" v="Presa Arriba Road"/><tag k="addr:housenumber" v="811"/><tag k="coa:place_id" v="90791"/></node><node id="-245" lat="30.337149" lon="-97.870657" changeset="false"><tag k="addr:street" v="Lipan Trail,1100"/><tag k="addr:housenumber" v="1107"/><tag k="coa:place_id" v="327831"/></node><node id="-246" lat="30.350854" lon="-97.858834" changeset="false"><tag k="addr:street" v="Inca Lane"/><tag k="addr:housenumber" v="9803"/><tag k="coa:place_id" v="90120"/></node><node id="-247" lat="30.344367" lon="-97.866874" changeset="false"><tag k="addr:street" v="Lipan Trail,1100"/><tag k="addr:housenumber" v="1905"/><tag k="coa:place_id" v="87454"/></node><node id="-248" lat="30.343985" lon="-97.867751" changeset="false"><tag k="addr:street" v="Lipan Trail,1100"/><tag k="addr:housenumber" v="1900"/><tag k="coa:place_id" v="87442"/></node><node id="-249" lat="30.351884" lon="-97.857438" changeset="false"><tag k="addr:street" v="Riviera Road"/><tag k="addr:housenumber" v="3004"/><tag k="coa:place_id" v="5085907"/></node><node id="-250" lat="30.332691" lon="-97.869384" changeset="false"><tag k="addr:street" v="Presa Arriba Road"/><tag k="addr:housenumber" v="804"/><tag k="coa:place_id" v="90773"/></node><node id="-251" lat="30.351112" lon="-97.860822" changeset="false"><tag k="addr:street" v="Vallarta Lane"/><tag k="addr:housenumber" v="2900"/><tag k="coa:place_id" v="196844"/></node><node id="-252" lat="30.353087" lon="-97.857677" changeset="false"><tag k="addr:street" v="Edgewater Drive"/><tag k="addr:housenumber" v="3111"/><tag k="coa:place_id" v="196526"/></node><node id="-253" lat="30.340181" lon="-97.878749" changeset="false"><tag k="addr:street" v="War Bonnet Drive"/><tag k="addr:housenumber" v="10506"/><tag k="coa:place_id" v="1140514"/></node><node id="-254" lat="30.340136" lon="-97.879885" changeset="false"><tag k="addr:street" v="Arroweye Trail"/><tag k="addr:housenumber" v="908"/><tag k="coa:place_id" v="197612"/></node><node id="-255" lat="30.345982" lon="-97.867898" changeset="false"><tag k="addr:street" v="Lauranne Lane"/><tag k="addr:housenumber" v="2005"/><tag k="coa:place_id" v="78303"/></node><node id="-256" lat="30.346342" lon="-97.87226" changeset="false"><tag k="addr:street" v="Ski Slope Drive"/><tag k="addr:housenumber" v="1812"/><tag k="coa:place_id" v="90185"/></node><node id="-257" lat="30.342508" lon="-97.871728" changeset="false"><tag k="addr:street" v="Carlotta Cove"/><tag k="addr:housenumber" v="10205"/><tag k="coa:place_id" v="78271"/></node><node id="-258" lat="30.341845" lon="-97.866734" changeset="false"><tag k="addr:street" v="Miami Drive"/><tag k="addr:housenumber" v="1701"/><tag k="coa:place_id" v="198128"/></node><node id="-259" lat="30.339303" lon="-97.879905" changeset="false"><tag k="addr:street" v="Arroweye Trail"/><tag k="addr:housenumber" v="808"/><tag k="coa:place_id" v="86638"/></node><node id="-260" lat="30.339034" lon="-97.879188" changeset="false"><tag k="addr:street" v="Arroweye Trail"/><tag k="addr:housenumber" v="807"/><tag k="coa:place_id" v="1140522"/></node><node id="-261" lat="30.343878" lon="-97.864616" changeset="false"><tag k="addr:street" v="Lipanes Trail"/><tag k="addr:housenumber" v="2005"/><tag k="coa:place_id" v="449847"/></node><node id="-262" lat="30.344143" lon="-97.874095" changeset="false"><tag k="addr:street" v="Cliffwood Drive"/><tag k="addr:housenumber" v="1600"/><tag k="coa:place_id" v="1100747"/></node><node id="-263" lat="30.335299" lon="-97.866134" changeset="false"><tag k="addr:street" v="Cuernavaca Drive North"/><tag k="addr:housenumber" v="1200"/><tag k="coa:place_id" v="90745"/></node><node id="-264" lat="30.338323" lon="-97.880127" changeset="false"><tag k="addr:street" v="Arroweye Trail"/><tag k="addr:housenumber" v="708"/><tag k="coa:place_id" v="1140527"/></node><node id="-265" lat="30.337989" lon="-97.880182" changeset="false"><tag k="addr:street" v="Arroweye Trail"/><tag k="addr:housenumber" v="704"/><tag k="coa:place_id" v="475269"/></node><node id="-266" lat="30.334843" lon="-97.868048" changeset="false"><tag k="addr:street" v="Castile Road"/><tag k="addr:housenumber" v="1009"/><tag k="coa:place_id" v="90829"/></node><node id="-267" lat="30.353338" lon="-97.857387" changeset="false"><tag k="addr:street" v="Edgewater Drive"/><tag k="addr:housenumber" v="3112"/><tag k="coa:place_id" v="196628"/></node><node id="-268" lat="30.34366" lon="-97.877528" changeset="false"><tag k="addr:street" v="Bruton Springs Road"/><tag k="addr:housenumber" v="1312"/><tag k="coa:place_id" v="176862"/></node><node id="-269" lat="30.348243" lon="-97.859663" changeset="false"><tag k="addr:street" v="Mecca Road"/><tag k="addr:housenumber" v="2702"/><tag k="coa:place_id" v="90191"/></node><node id="-270" lat="30.336148" lon="-97.879712" changeset="false"><tag k="addr:street" v="Jennys Jump Drive"/><tag k="addr:housenumber" v="10442"/><tag k="coa:place_id" v="223427"/></node><node id="-271" lat="30.34463" lon="-97.873676" changeset="false"><tag k="addr:street" v="Cliffwood Drive"/><tag k="addr:housenumber" v="1608"/><tag k="coa:place_id" v="694234"/></node><node id="-272" lat="30.336935" lon="-97.872395" changeset="false"><tag k="addr:street" v="Village West Drive"/><tag k="addr:housenumber" v="1000"/><tag k="coa:place_id" v="198452"/></node><node id="-273" lat="30.344604" lon="-97.867349" changeset="false"><tag k="addr:street" v="Lipan Trail,1100"/><tag k="addr:housenumber" v="1906"/><tag k="coa:place_id" v="1141025"/></node><node id="-274" lat="30.351519" lon="-97.862999" changeset="false"><tag k="addr:street" v="Saratoga Drive"/><tag k="addr:housenumber" v="2802"/><tag k="coa:place_id" v="5124447"/></node><node id="-275" lat="30.34907" lon="-97.861464" changeset="false"><tag k="addr:street" v="San Luis Trail"/><tag k="addr:housenumber" v="9808"/><tag k="coa:place_id" v="154825"/></node><node id="-276" lat="30.349021" lon="-97.866291" changeset="false"><tag k="addr:street" v="Saratoga Drive"/><tag k="addr:housenumber" v="2400"/><tag k="coa:place_id" v="80037"/></node><node id="-277" lat="30.345961" lon="-97.864809" changeset="false"><tag k="addr:street" v="Mestena Trail"/><tag k="addr:housenumber" v="2213"/><tag k="coa:place_id" v="5058760"/></node><node id="-278" lat="30.335401" lon="-97.870028" changeset="false"><tag k="addr:street" v="Lipan Trail,1100"/><tag k="addr:housenumber" v="1004"/><tag k="coa:place_id" v="877227"/></node><node id="-279" lat="30.340754" lon="-97.866208" changeset="false"><tag k="addr:street" v="Lancer Lane"/><tag k="addr:housenumber" v="1605"/><tag k="coa:place_id" v="197996"/></node><node id="-280" lat="30.334097" lon="-97.870276" changeset="false"><tag k="addr:street" v="Presa Arriba Road"/><tag k="addr:housenumber" v="904"/><tag k="coa:place_id" v="136733"/></node><node id="-281" lat="30.336919" lon="-97.86626" changeset="false"><tag k="addr:street" v="Orlando Road"/><tag k="addr:housenumber" v="1302"/><tag k="coa:place_id" v="326524"/></node><node id="-282" lat="30.343958" lon="-97.864073" changeset="false"><tag k="addr:street" v="Saratoga Drive"/><tag k="addr:housenumber" v="2112"/><tag k="coa:place_id" v="3371375"/></node><node id="-283" lat="30.348201" lon="-97.862333" changeset="false"><tag k="addr:street" v="De Soto Drive"/><tag k="addr:housenumber" v="2406"/><tag k="coa:place_id" v="3429271"/></node><node id="-284" lat="30.333173" lon="-97.869725" changeset="false"><tag k="addr:street" v="Presa Arriba Road"/><tag k="addr:housenumber" v="808"/><tag k="coa:place_id" v="90775"/></node><node id="-285" lat="30.340669" lon="-97.863486" changeset="false"><tag k="addr:street" v="Tartar Way"/><tag k="addr:housenumber" v="1701"/><tag k="coa:place_id" v="3429870"/></node><node id="-286" lat="30.346454" lon="-97.865294" changeset="false"><tag k="addr:street" v="Bahama Road"/><tag k="addr:housenumber" v="2302"/><tag k="coa:place_id" v="87654"/></node><node id="-287" lat="30.341631" lon="-97.86431" changeset="false"><tag k="addr:street" v="San Juan Drive"/><tag k="addr:housenumber" v="1800"/><tag k="coa:place_id" v="593800"/></node><node id="-288" lat="30.332624" lon="-97.868714" changeset="false"><tag k="addr:street" v="Presa Arriba Road"/><tag k="addr:housenumber" v="801"/><tag k="coa:place_id" v="3043209"/></node><node id="-289" lat="30.339171" lon="-97.869577" changeset="false"><tag k="addr:street" v="Castile Road"/><tag k="addr:housenumber" v="1305"/><tag k="coa:place_id" v="87397"/></node><node id="-290" lat="30.339758" lon="-97.869902" changeset="false"><tag k="addr:street" v="Lipan Trail,1100"/><tag k="addr:housenumber" v="1401"/><tag k="coa:place_id" v="3429385"/></node><node id="-291" lat="30.345328" lon="-97.865933" changeset="false"><tag k="addr:street" v="Mestena Trail"/><tag k="addr:housenumber" v="2101"/><tag k="coa:place_id" v="87390"/></node><node id="-292" lat="30.352217" lon="-97.860491" changeset="false"><tag k="addr:street" v="Vallarta Lane"/><tag k="addr:housenumber" v="2906"/><tag k="coa:place_id" v="276489"/></node><node id="-293" lat="30.350554" lon="-97.86283" changeset="false"><tag k="addr:street" v="Del Rio Drive"/><tag k="addr:housenumber" v="2700"/><tag k="coa:place_id" v="81888"/></node><node id="-294" lat="30.349737" lon="-97.861658" changeset="false"><tag k="addr:street" v="Palomino Drive"/><tag k="addr:housenumber" v="2705"/><tag k="coa:place_id" v="81524"/></node><node id="-295" lat="30.346919" lon="-97.863724" changeset="false"><tag k="addr:street" v="Balboa Road"/><tag k="addr:housenumber" v="2309"/><tag k="coa:place_id" v="89304"/></node><node id="-296" lat="30.348613" lon="-97.86599" changeset="false"><tag k="addr:street" v="Saratoga Drive"/><tag k="addr:housenumber" v="2401"/><tag k="coa:place_id" v="80029"/></node><node id="-297" lat="30.343293" lon="-97.866234" changeset="false"><tag k="addr:street" v="Miami Drive"/><tag k="addr:housenumber" v="1807"/><tag k="coa:place_id" v="87407"/></node><node id="-298" lat="30.346578" lon="-97.861589" changeset="false"><tag k="addr:street" v="Mecca Road"/><tag k="addr:housenumber" v="2402"/><tag k="coa:place_id" v="90186"/></node><node id="-299" lat="30.352778" lon="-97.856835" changeset="false"><tag k="addr:street" v="Edgewater Drive"/><tag k="addr:housenumber" v="3119"/><tag k="coa:place_id" v="90173"/></node><node id="-300" lat="30.348839" lon="-97.864595" changeset="false"><tag k="addr:street" v="Saratoga Drive"/><tag k="addr:housenumber" v="2501"/><tag k="coa:place_id" v="472593"/></node><node id="-301" lat="30.34906" lon="-97.86565" changeset="false"><tag k="addr:street" v="Saratoga Drive"/><tag k="addr:housenumber" v="2404"/><tag k="coa:place_id" v="3039471"/></node><node id="-302" lat="30.339783" lon="-97.871467" changeset="false"><tag k="addr:street" v="Frio Cove"/><tag k="addr:housenumber" v="10101"/><tag k="coa:place_id" v="89778"/></node><node id="-303" lat="30.338805" lon="-97.879994" changeset="false"><tag k="addr:street" v="Arroweye Trail"/><tag k="addr:housenumber" v="802"/><tag k="coa:place_id" v="1140524"/></node><node id="-304" lat="30.344607" lon="-97.874917" changeset="false"><tag k="addr:street" v="Bruton Springs Road"/><tag k="addr:housenumber" v="1610"/><tag k="coa:place_id" v="197666"/></node><node id="-305" lat="30.341604" lon="-97.880114" changeset="false"><tag k="addr:street" v="Arroweye Trail"/><tag k="addr:housenumber" v="1100"/><tag k="coa:place_id" v="87650"/></node><node id="-306" lat="30.341264" lon="-97.863184" changeset="false"><tag k="addr:street" v="Casa Grande Drive"/><tag k="addr:housenumber" v="1802"/><tag k="coa:place_id" v="86403"/></node><node id="-307" lat="30.347934" lon="-97.860441" changeset="false"><tag k="addr:street" v="Mecca Road"/><tag k="addr:housenumber" v="2506"/><tag k="coa:place_id" v="123160"/></node><node id="-308" lat="30.351607" lon="-97.865249" changeset="false"><tag k="addr:street" v="Edgewater Drive"/><tag k="addr:housenumber" v="2706"/><tag k="coa:place_id" v="196796"/></node><node id="-309" lat="30.350068" lon="-97.861997" changeset="false"><tag k="addr:street" v="Palomino Drive"/><tag k="addr:housenumber" v="2708"/><tag k="coa:place_id" v="81586"/></node><node id="-310" lat="30.339977" lon="-97.879881" changeset="false"><tag k="addr:street" v="Arroweye Trail"/><tag k="addr:housenumber" v="906"/><tag k="coa:place_id" v="1140517"/></node><node id="-311" lat="30.338477" lon="-97.8801" changeset="false"><tag k="addr:street" v="Arroweye Trail"/><tag k="addr:housenumber" v="710"/><tag k="coa:place_id" v="514953"/></node><node id="-312" lat="30.337551" lon="-97.878875" changeset="false"><tag k="addr:street" v="Jennys Jump Drive"/><tag k="addr:housenumber" v="10408"/><tag k="coa:place_id" v="223416"/></node><node id="-313" lat="30.340034" lon="-97.863789" changeset="false"><tag k="addr:street" v="Cuernavaca Drive North"/><tag k="addr:housenumber" v="1700"/><tag k="coa:place_id" v="606478"/></node><node id="-314" lat="30.351905" lon="-97.856703" changeset="false"><tag k="addr:street" v="Niagara Drive"/><tag k="addr:housenumber" v="3002"/><tag k="coa:place_id" v="90097"/></node><node id="-315" lat="30.335795" lon="-97.866177" changeset="false"><tag k="addr:street" v="Orlando Road"/><tag k="addr:housenumber" v="1203"/><tag k="coa:place_id" v="90847"/></node><node id="-316" lat="30.346658" lon="-97.871752" changeset="false"><tag k="addr:street" v="Ski Slope Drive"/><tag k="addr:housenumber" v="1900"/><tag k="coa:place_id" v="643234"/></node><node id="-317" lat="30.347162" lon="-97.865932" changeset="false"><tag k="addr:street" v="Bahama Road"/><tag k="addr:housenumber" v="2308"/><tag k="coa:place_id" v="84732"/></node><node id="-318" lat="30.342288" lon="-97.866296" changeset="false"><tag k="addr:street" v="Tonto Lane"/><tag k="addr:housenumber" v="1800"/><tag k="coa:place_id" v="1140990"/></node><node id="-319" lat="30.342085" lon="-97.870119" changeset="false"><tag k="addr:street" v="Carlotta Lane"/><tag k="addr:housenumber" v="1601"/><tag k="coa:place_id" v="3184519"/></node><node id="-320" lat="30.350458" lon="-97.86025" changeset="false"><tag k="addr:street" v="Vallarta Lane"/><tag k="addr:housenumber" v="2809"/><tag k="coa:place_id" v="804675"/></node><node id="-321" lat="30.352831" lon="-97.859563" changeset="false"><tag k="addr:street" v="Bal Harbor Road"/><tag k="addr:housenumber" v="9902"/><tag k="coa:place_id" v="90149"/></node><node id="-322" lat="30.349081" lon="-97.864407" changeset="false"><tag k="addr:street" v="Saratoga Drive"/><tag k="addr:housenumber" v="2503"/><tag k="coa:place_id" v="80035"/></node><node id="-323" lat="30.348785" lon="-97.861167" changeset="false"><tag k="addr:street" v="Magellan Drive"/><tag k="addr:housenumber" v="2701"/><tag k="coa:place_id" v="100433"/></node><node id="-324" lat="30.342164" lon="-97.868029" changeset="false"><tag k="addr:street" v="Lipan Trail,1100"/><tag k="addr:housenumber" v="1701"/><tag k="coa:place_id" v="87447"/></node><node id="-325" lat="30.342462" lon="-97.866061" changeset="false"><tag k="addr:street" v="Tonto Lane"/><tag k="addr:housenumber" v="1802"/><tag k="coa:place_id" v="87383"/></node><node id="-326" lat="30.350817" lon="-97.858919" changeset="false"><tag k="addr:street" v="Inca Lane"/><tag k="addr:housenumber" v="9805"/><tag k="coa:place_id" v="196886"/></node><node id="-327" lat="30.34809" lon="-97.868392" changeset="false"><tag k="addr:street" v="Lauranne Lane"/><tag k="addr:housenumber" v="2205"/><tag k="coa:place_id" v="78298"/></node><node id="-328" lat="30.349872" lon="-97.863314" changeset="false"><tag k="addr:street" v="Del Rio Drive"/><tag k="addr:housenumber" v="2604"/><tag k="coa:place_id" v="81880"/></node><node id="-329" lat="30.345146" lon="-97.873049" changeset="false"><tag k="addr:street" v="Cliffwood Drive"/><tag k="addr:housenumber" v="1708"/><tag k="coa:place_id" v="203133"/></node><node id="-330" lat="30.344866" lon="-97.86579" changeset="false"><tag k="addr:street" v="Casa Grande Drive"/><tag k="addr:housenumber" v="2100"/><tag k="coa:place_id" v="86552"/></node><node id="-331" lat="30.345446" lon="-97.870776" changeset="false"><tag k="addr:street" v="Carlotta Lane"/><tag k="addr:housenumber" v="1825"/><tag k="coa:place_id" v="78286"/></node><node id="-332" lat="30.333635" lon="-97.870013" changeset="false"><tag k="addr:street" v="Presa Arriba Road"/><tag k="addr:housenumber" v="900"/><tag k="coa:place_id" v="90780"/></node><node id="-333" lat="30.351307" lon="-97.865378" changeset="false"><tag k="addr:street" v="Edgewater Drive"/><tag k="addr:housenumber" v="2704"/><tag k="coa:place_id" v="212201"/></node><node id="-334" lat="30.341278" lon="-97.865014" changeset="false"><tag k="addr:street" v="San Juan Drive"/><tag k="addr:housenumber" v="1702"/><tag k="coa:place_id" v="245776"/></node><node id="-335" lat="30.333978" lon="-97.868523" changeset="false"><tag k="addr:street" v="Lipan Trail,1100"/><tag k="addr:housenumber" v="907"/><tag k="coa:place_id" v="90805"/></node><node id="-336" lat="30.3383" lon="-97.877355" changeset="false"><tag k="addr:street" v="Jennys Jump Drive"/><tag k="addr:housenumber" v="10320"/><tag k="coa:place_id" v="223415"/></node><node id="-337" lat="30.344137" lon="-97.872806" changeset="false"><tag k="addr:street" v="Foggy Glen Cove"/><tag k="addr:housenumber" v="1702"/><tag k="coa:place_id" v="1161410"/></node><node id="-338" lat="30.345045" lon="-97.86666" changeset="false"><tag k="addr:street" v="Lipan Trail,1100"/><tag k="addr:housenumber" v="2001"/><tag k="coa:place_id" v="1141021"/></node><node id="-339" lat="30.343657" lon="-97.864267" changeset="false"><tag k="addr:street" v="Tonto Lane"/><tag k="addr:housenumber" v="2100"/><tag k="coa:place_id" v="85337"/></node><node id="-340" lat="30.340553" lon="-97.869483" changeset="false"><tag k="addr:street" v="Lipan Trail,1100"/><tag k="addr:housenumber" v="1407"/><tag k="coa:place_id" v="686698"/></node><node id="-341" lat="30.337307" lon="-97.870314" changeset="false"><tag k="addr:street" v="Village West Drive"/><tag k="addr:housenumber" v="1107"/><tag k="coa:place_id" v="198638"/></node><node id="-342" lat="30.341207" lon="-97.87187" changeset="false"><tag k="addr:street" v="Venita Cove"/><tag k="addr:housenumber" v="10207"/><tag k="coa:place_id" v="78273"/></node><node id="-343" lat="30.337474" lon="-97.865706" changeset="false"><tag k="addr:street" v="Orlando Road"/><tag k="addr:housenumber" v="1307"/><tag k="coa:place_id" v="90859"/></node><node id="-344" lat="30.336175" lon="-97.869495" changeset="false"><tag k="addr:street" v="Castile Road"/><tag k="addr:housenumber" v="1104"/><tag k="coa:place_id" v="354969"/></node><node id="-345" lat="30.35133" lon="-97.859177" changeset="false"><tag k="addr:street" v="Inca Lane"/><tag k="addr:housenumber" v="9806"/><tag k="coa:place_id" v="90227"/></node><node id="-346" lat="30.342511" lon="-97.868627" changeset="false"><tag k="addr:street" v="Lipan Trail,1100"/><tag k="addr:housenumber" v="1700"/><tag k="coa:place_id" v="87437"/></node><node id="-347" lat="30.350588" lon="-97.858602" changeset="false"><tag k="addr:street" v="Riviera Road"/><tag k="addr:housenumber" v="2900"/><tag k="coa:place_id" v="90222"/></node><node id="-348" lat="30.348214" lon="-97.868709" changeset="false"><tag k="addr:street" v="Lauranne Lane"/><tag k="addr:housenumber" v="2204"/><tag k="coa:place_id" v="78297"/></node><node id="-349" lat="30.341297" lon="-97.870557" changeset="false"><tag k="addr:street" v="Carlotta Lane"/><tag k="addr:housenumber" v="1503"/><tag k="coa:place_id" v="78278"/></node><node id="-350" lat="30.337585" lon="-97.865183" changeset="false"><tag k="addr:street" v="Cuernavaca Drive North"/><tag k="addr:housenumber" v="1402"/><tag k="coa:place_id" v="412324"/></node><node id="-351" lat="30.345288" lon="-97.872871" changeset="false"><tag k="addr:street" v="Cliffwood Drive"/><tag k="addr:housenumber" v="1710"/><tag k="coa:place_id" v="740170"/></node><node id="-352" lat="30.336653" lon="-97.865891" changeset="false"><tag k="addr:street" v="Orlando Road"/><tag k="addr:housenumber" v="1301"/><tag k="coa:place_id" v="90853"/></node><node id="-353" lat="30.342082" lon="-97.879804" changeset="false"><tag k="addr:street" v="Arroweye Trail"/><tag k="addr:housenumber" v="1106"/><tag k="coa:place_id" v="795567"/></node><node id="-354" lat="30.351621" lon="-97.864095" changeset="false"><tag k="addr:street" v="Edgewater Drive"/><tag k="addr:housenumber" v="2801"/><tag k="coa:place_id" v="1141011"/></node><node id="-355" lat="30.351687" lon="-97.865077" changeset="false"><tag k="addr:street" v="Edgewater Drive"/><tag k="addr:housenumber" v="2708"/><tag k="coa:place_id" v="635572"/></node><node id="-356" lat="30.344053" lon="-97.868839" changeset="false"><tag k="addr:street" v="Carlotta Lane"/><tag k="addr:housenumber" v="1809"/><tag k="coa:place_id" v="89769"/></node><node id="-357" lat="30.345833" lon="-97.872041" changeset="false"><tag k="addr:street" v="Cliffwood Drive"/><tag k="addr:housenumber" v="1808"/><tag k="coa:place_id" v="3115988"/></node><node id="-358" lat="30.349654" lon="-97.863434" changeset="false"><tag k="addr:street" v="Del Rio Drive"/><tag k="addr:housenumber" v="2602"/><tag k="coa:place_id" v="81878"/></node><node id="-359" lat="30.344616" lon="-97.864091" changeset="false"><tag k="addr:street" v="Saratoga Drive"/><tag k="addr:housenumber" v="2115"/><tag k="coa:place_id" v="86566"/></node><node id="-360" lat="30.347746" lon="-97.860794" changeset="false"><tag k="addr:street" v="De Soto Drive"/><tag k="addr:housenumber" v="2504"/><tag k="coa:place_id" v="244569"/></node><node id="-361" lat="30.350517" lon="-97.864331" changeset="false"><tag k="addr:street" v="Saratoga Drive"/><tag k="addr:housenumber" v="2604"/><tag k="coa:place_id" v="204289"/></node><node id="-362" lat="30.340486" lon="-97.879906" changeset="false"><tag k="addr:street" v="Arroweye Trail"/><tag k="addr:housenumber" v="912"/><tag k="coa:place_id" v="86962"/></node><node id="-363" lat="30.340033" lon="-97.870243" changeset="false"><tag k="addr:street" v="Lipan Trail,1100"/><tag k="addr:housenumber" v="1400"/><tag k="coa:place_id" v="87431"/></node><node id="-364" lat="30.348892" lon="-97.861102" changeset="false"><tag k="addr:street" v="Magellan Drive"/><tag k="addr:housenumber" v="2703"/><tag k="coa:place_id" v="81723"/></node><node id="-365" lat="30.342982" lon="-97.867785" changeset="false"><tag k="addr:street" v="Lipan Trail,1100"/><tag k="addr:housenumber" v="1707"/><tag k="coa:place_id" v="87450"/></node><node id="-366" lat="30.342402" lon="-97.867941" changeset="false"><tag k="addr:street" v="Lipan Trail,1100"/><tag k="addr:housenumber" v="1703"/><tag k="coa:place_id" v="87448"/></node><node id="-367" lat="30.341985" lon="-97.873868" changeset="false"><tag k="addr:street" v="Lisa Cove"/><tag k="addr:housenumber" v="10303"/><tag k="coa:place_id" v="125107"/></node><node id="-368" lat="30.339488" lon="-97.878469" changeset="false"><tag k="addr:street" v="War Bonnet Drive"/><tag k="addr:housenumber" v="10501"/><tag k="coa:place_id" v="1140519"/></node><node id="-369" lat="30.338955" lon="-97.879974" changeset="false"><tag k="addr:street" v="Arroweye Trail"/><tag k="addr:housenumber" v="804"/><tag k="coa:place_id" v="726885"/></node><node id="-370" lat="30.341924" lon="-97.879899" changeset="false"><tag k="addr:street" v="Arroweye Trail"/><tag k="addr:housenumber" v="1104"/><tag k="coa:place_id" v="105891"/></node><node id="-371" lat="30.341516" lon="-97.86851" changeset="false"><tag k="addr:street" v="Lipan Trail,1100"/><tag k="addr:housenumber" v="1603"/><tag k="coa:place_id" v="744087"/></node><node id="-372" lat="30.351889" lon="-97.856747" changeset="false"><tag k="addr:street" v="Niagara Drive"/><tag k="addr:housenumber" v="3000"/><tag k="coa:place_id" v="90096"/></node><node id="-373" lat="30.341173" lon="-97.872567" changeset="false"><tag k="addr:street" v="Venita Cove"/><tag k="addr:housenumber" v="10205"/><tag k="coa:place_id" v="78272"/></node><node id="-374" lat="30.346349" lon="-97.872426" changeset="false"><tag k="addr:street" v="Ski Slope Drive"/><tag k="addr:housenumber" v="1806"/><tag k="coa:place_id" v="613485"/></node><node id="-375" lat="30.340358" lon="-97.870759" changeset="false"><tag k="addr:street" v="Frio Cove"/><tag k="addr:housenumber" v="10102"/><tag k="coa:place_id" v="89779"/></node><node id="-376" lat="30.347625" lon="-97.864957" changeset="false"><tag k="addr:street" v="Balboa Road"/><tag k="addr:housenumber" v="2319"/><tag k="coa:place_id" v="84114"/></node><node id="-377" lat="30.339983" lon="-97.878175" changeset="false"><tag k="addr:street" v="War Bonnet Drive"/><tag k="addr:housenumber" v="10500"/><tag k="coa:place_id" v="1140516"/></node><node id="-378" lat="30.336444" lon="-97.872321" changeset="false"><tag k="addr:street" v="Village West Drive"/><tag k="addr:housenumber" v="1001"/><tag k="coa:place_id" v="198458"/></node><node id="-379" lat="30.338266" lon="-97.879467" changeset="false"><tag k="addr:street" v="Arroweye Trail"/><tag k="addr:housenumber" v="707"/><tag k="coa:place_id" v="86635"/></node><node id="-380" lat="30.338056" lon="-97.87954" changeset="false"><tag k="addr:street" v="Arroweye Trail"/><tag k="addr:housenumber" v="705"/><tag k="coa:place_id" v="86634"/></node><node id="-381" lat="30.344395" lon="-97.86388" changeset="false"><tag k="addr:street" v="Saratoga Drive"/><tag k="addr:housenumber" v="2113"/><tag k="coa:place_id" v="86564"/></node><node id="-382" lat="30.350598" lon="-97.858329" changeset="false"><tag k="addr:street" v="Riviera Road"/><tag k="addr:housenumber" v="2903"/><tag k="coa:place_id" v="130679"/></node><node id="-383" lat="30.35177" lon="-97.863823" changeset="false"><tag k="addr:street" v="Edgewater Drive"/><tag k="addr:housenumber" v="2803"/><tag k="coa:place_id" v="1141010"/></node><node id="-384" lat="30.352053" lon="-97.859005" changeset="false"><tag k="addr:street" v="La Jolla Drive"/><tag k="addr:housenumber" v="9806"/><tag k="coa:place_id" v="90126"/></node><node id="-385" lat="30.338853" lon="-97.878083" changeset="false"><tag k="addr:street" v="Chrissys Cove"/><tag k="addr:housenumber" v="805"/><tag k="coa:place_id" v="223440"/></node><node id="-386" lat="30.334832" lon="-97.86649" changeset="false"><tag k="addr:street" v="Cuernavaca Drive North"/><tag k="addr:housenumber" v="1102"/><tag k="coa:place_id" v="90703"/></node><node id="-387" lat="30.33462" lon="-97.867882" changeset="false"><tag k="addr:street" v="Castile Road"/><tag k="addr:housenumber" v="1007"/><tag k="coa:place_id" v="90828"/></node><node id="-388" lat="30.334236" lon="-97.868662" changeset="false"><tag k="addr:street" v="Lipan Trail,1100"/><tag k="addr:housenumber" v="909"/><tag k="coa:place_id" v="90810"/></node><node id="-389" lat="30.348336" lon="-97.86536" changeset="false"><tag k="addr:street" v="Bahama Road"/><tag k="addr:housenumber" v="2400"/><tag k="coa:place_id" v="84733"/></node><node id="-390" lat="30.341811" lon="-97.869122" changeset="false"><tag k="addr:street" v="Lipan Trail,1100"/><tag k="addr:housenumber" v="1602"/><tag k="coa:place_id" v="87434"/></node><node id="-391" lat="30.339882" lon="-97.87104" changeset="false"><tag k="addr:street" v="Frio Cove"/><tag k="addr:housenumber" v="10100"/><tag k="coa:place_id" v="89777"/></node><node id="-392" lat="30.349857" lon="-97.861083" changeset="false"><tag k="addr:street" v="Saratoga Drive"/><tag k="addr:housenumber" v="2817"/><tag k="coa:place_id" v="80771"/></node><node id="-393" lat="30.34747" lon="-97.868063" changeset="false"><tag k="addr:street" v="Lauranne Lane"/><tag k="addr:housenumber" v="2109"/><tag k="coa:place_id" v="78299"/></node><node id="-394" lat="30.337708" lon="-97.865841" changeset="false"><tag k="addr:street" v="Orlando Road"/><tag k="addr:housenumber" v="1402"/><tag k="coa:place_id" v="87396"/></node><node id="-395" lat="30.344376" lon="-97.873061" changeset="false"><tag k="addr:street" v="Cliffwood Drive"/><tag k="addr:housenumber" v="1705"/><tag k="coa:place_id" v="1141029"/></node><node id="-396" lat="30.344326" lon="-97.873193" changeset="false"><tag k="addr:street" v="Cliffwood Drive"/><tag k="addr:housenumber" v="1703"/><tag k="coa:place_id" v="90169"/></node><node id="-397" lat="30.344428" lon="-97.87291" changeset="false"><tag k="addr:street" v="Cliffwood Drive"/><tag k="addr:housenumber" v="1707"/><tag k="coa:place_id" v="1141028"/></node><node id="-398" lat="30.34448" lon="-97.872775" changeset="false"><tag k="addr:street" v="Cliffwood Drive"/><tag k="addr:housenumber" v="1709"/><tag k="coa:place_id" v="326871"/></node><node id="-399" lat="30.344594" lon="-97.872511" changeset="false"><tag k="addr:street" v="Cliffwood Drive"/><tag k="addr:housenumber" v="1713"/><tag k="coa:place_id" v="491776"/></node><node id="-400" lat="30.344571" lon="-97.872613" changeset="false"><tag k="addr:street" v="Cliffwood Drive"/><tag k="addr:housenumber" v="1711"/><tag k="coa:place_id" v="1141026"/></node></osm>