<?xml version="1.0" encoding="UTF-8"?><osm version="0.6" generator="github.com/aaronlidman/osm-and-geojson"><node id="-1" lat="30.387199" lon="-97.669426" changeset="false"><tag k="addr:street" v="Walnut Creek Drive"/><tag k="addr:housenumber" v="815"/><tag k="coa:place_id" v="100099"/></node><node id="-2" lat="30.387103" lon="-97.669173" changeset="false"><tag k="addr:street" v="Walnut Creek Drive"/><tag k="addr:housenumber" v="817"/><tag k="coa:place_id" v="100103"/></node><node id="-3" lat="30.381264" lon="-97.664615" changeset="false"><tag k="addr:street" v="River Oaks Trail"/><tag k="addr:housenumber" v="11701"/><tag k="coa:place_id" v="3376381"/></node><node id="-4" lat="30.381769" lon="-97.668097" changeset="false"><tag k="addr:street" v="Berrywood Drive"/><tag k="addr:housenumber" v="911"/><tag k="coa:place_id" v="3084592"/></node><node id="-5" lat="30.383202" lon="-97.669818" changeset="false"><tag k="addr:street" v="Berrywood Drive"/><tag k="addr:housenumber" v="824"/><tag k="coa:place_id" v="3084546"/></node><node id="-6" lat="30.385189" lon="-97.668725" changeset="false"><tag k="addr:street" v="Dove Haven Drive"/><tag k="addr:housenumber" v="11907 1/2"/><tag k="coa:place_id" v="3218295"/></node><node id="-7" lat="30.378375" lon="-97.670223" changeset="false"><tag k="addr:street" v="Wedgewood Drive"/><tag k="addr:housenumber" v="11500"/><tag k="coa:place_id" v="3358872"/></node><node id="-8" lat="30.386085" lon="-97.668164" changeset="false"><tag k="addr:street" v="Dove Haven Drive"/><tag k="addr:housenumber" v="12009"/><tag k="coa:place_id" v="100086"/></node><node id="-9" lat="30.385409" lon="-97.669567" changeset="false"><tag k="addr:street" v="River Oaks Drive"/><tag k="addr:housenumber" v="823"/><tag k="coa:place_id" v="100105"/></node><node id="-10" lat="30.386141" lon="-97.670524" changeset="false"><tag k="addr:street" v="Oak Trail,1100"/><tag k="addr:housenumber" v="12003"/><tag k="coa:place_id" v="100062"/></node><node id="-11" lat="30.386482" lon="-97.668149" changeset="false"><tag k="addr:street" v="Dove Haven Drive"/><tag k="addr:housenumber" v="12006"/><tag k="coa:place_id" v="266336"/></node><node id="-12" lat="30.382121" lon="-97.664913" changeset="false"><tag k="addr:street" v="River Oaks Trail"/><tag k="addr:housenumber" v="11801"/><tag k="coa:place_id" v="266918"/></node><node id="-13" lat="30.387282" lon="-97.669705" changeset="false"><tag k="addr:street" v="Walnut Creek Drive"/><tag k="addr:housenumber" v="813"/><tag k="coa:place_id" v="100098"/></node><node id="-14" lat="30.379445" lon="-97.67155" changeset="false"><tag k="addr:street" v="Plaza Drive"/><tag k="addr:housenumber" v="820"/><tag k="coa:place_id" v="546046"/></node><node id="-15" lat="30.382262" lon="-97.673178" changeset="false"><tag k="addr:street" v="North Oaks Drive"/><tag k="addr:housenumber" v="11606"/><tag k="coa:place_id" v="3363582"/></node><node id="-16" lat="30.380349" lon="-97.666858" changeset="false"><tag k="addr:street" v="Wedgewood Drive"/><tag k="addr:housenumber" v="11609"/><tag k="coa:place_id" v="267224"/></node><node id="-17" lat="30.380626" lon="-97.664419" changeset="false"><tag k="addr:street" v="River Oaks Trail"/><tag k="addr:housenumber" v="11653"/><tag k="coa:place_id" v="267164"/></node><node id="-18" lat="30.380407" lon="-97.666338" changeset="false"><tag k="addr:street" v="February Drive"/><tag k="addr:housenumber" v="11624"/><tag k="coa:place_id" v="67676"/></node><node id="-19" lat="30.385862" lon="-97.66875" changeset="false"><tag k="addr:street" v="Dove Haven Drive"/><tag k="addr:housenumber" v="12002"/><tag k="coa:place_id" v="100081"/></node><node id="-20" lat="30.382721" lon="-97.669803" changeset="false"><tag k="addr:street" v="Spring Hill Drive"/><tag k="addr:housenumber" v="11602"/><tag k="coa:place_id" v="267026"/></node><node id="-21" lat="30.386349" lon="-97.668252" changeset="false"><tag k="addr:street" v="Dove Haven Drive"/><tag k="addr:housenumber" v="12008"/><tag k="coa:place_id" v="100085"/></node><node id="-22" lat="30.384075" lon="-97.669856" changeset="false"><tag k="addr:street" v="Dove Haven Drive"/><tag k="addr:housenumber" v="11804"/><tag k="coa:place_id" v="100079"/></node><node id="-23" lat="30.385816" lon="-97.672242" changeset="false"><tag k="addr:street" v="North Oaks Drive"/><tag k="addr:housenumber" v="11908"/><tag k="coa:place_id" v="265688"/></node><node id="-24" lat="30.384882" lon="-97.670834" changeset="false"><tag k="addr:street" v="Oak Trail,1100"/><tag k="addr:housenumber" v="11903"/><tag k="coa:place_id" v="266072"/></node><node id="-25" lat="30.3785" lon="-97.67068" changeset="false"><tag k="addr:street" v="Trinity Hill Drive"/><tag k="addr:housenumber" v="11501"/><tag k="coa:place_id" v="422060"/></node><node id="-26" lat="30.381526" lon="-97.668831" changeset="false"><tag k="addr:street" v="Blue Spring Way"/><tag k="addr:housenumber" v="11505"/><tag k="coa:place_id" v="3084791"/></node><node id="-27" lat="30.381659" lon="-97.665209" changeset="false"><tag k="addr:street" v="River Oaks Trail"/><tag k="addr:housenumber" v="11704 1/2"/><tag k="coa:place_id" v="3215062"/></node><node id="-28" lat="30.378886" lon="-97.670425" changeset="false"><tag k="addr:street" v="Trinity Hill Drive"/><tag k="addr:housenumber" v="11505"/><tag k="coa:place_id" v="1112687"/></node><node id="-29" lat="30.386801" lon="-97.66817" changeset="false"><tag k="addr:street" v="Walnut Creek Drive"/><tag k="addr:housenumber" v="825"/><tag k="coa:place_id" v="100104"/></node><node id="-30" lat="30.380422" lon="-97.664401" changeset="false"><tag k="addr:street" v="River Oaks Trail"/><tag k="addr:housenumber" v="11651"/><tag k="coa:place_id" v="267158"/></node><node id="-31" lat="30.381978" lon="-97.668326" changeset="false"><tag k="addr:street" v="Berrywood Drive"/><tag k="addr:housenumber" v="909"/><tag k="coa:place_id" v="266996"/></node><node id="-32" lat="30.38416" lon="-97.665931" changeset="false"><tag k="addr:street" v="River Oaks Trail"/><tag k="addr:housenumber" v="11910 1/2"/><tag k="coa:place_id" v="3215082"/></node><node id="-33" lat="30.382509" lon="-97.665425" changeset="false"><tag k="addr:street" v="River Oaks Trail"/><tag k="addr:housenumber" v="11804 1/2"/><tag k="coa:place_id" v="3219356"/></node><node id="-34" lat="30.380301" lon="-97.66808" changeset="false"><tag k="addr:street" v="River Oaks Trail"/><tag k="addr:housenumber" v="11619"/><tag k="coa:place_id" v="3358885"/></node><node id="-35" lat="30.385627" lon="-97.67114" changeset="false"><tag k="addr:street" v="Oak Trail,1100"/><tag k="addr:housenumber" v="11908 1/2"/><tag k="coa:place_id" v="3268222"/></node><node id="-36" lat="30.386597" lon="-97.667214" changeset="false"><tag k="addr:street" v="Dove Haven Drive"/><tag k="addr:housenumber" v="12015"/><tag k="coa:place_id" v="100087"/></node><node id="-37" lat="30.381631" lon="-97.667948" changeset="false"><tag k="addr:street" v="Berrywood Drive"/><tag k="addr:housenumber" v="913"/><tag k="coa:place_id" v="3035289"/></node><node id="-38" lat="30.382505" lon="-97.667506" changeset="false"><tag k="addr:street" v="Rocky Spring Road"/><tag k="addr:housenumber" v="913"/><tag k="coa:place_id" v="266744"/></node><node id="-39" lat="30.381915" lon="-97.664802" changeset="false"><tag k="addr:street" v="River Oaks Trail"/><tag k="addr:housenumber" v="11707"/><tag k="coa:place_id" v="834309"/></node><node id="-40" lat="30.386984" lon="-97.671407" changeset="false"><tag k="addr:street" v="North Oaks Drive"/><tag k="addr:housenumber" v="12009"/><tag k="coa:place_id" v="265760"/></node><node id="-41" lat="30.387681" lon="-97.671542" changeset="false"><tag k="addr:street" v="Walnut Creek Drive"/><tag k="addr:housenumber" v="800"/><tag k="coa:place_id" v="100092"/></node><node id="-42" lat="30.38199" lon="-97.666011" changeset="false"><tag k="addr:street" v="Rocky Spring Road"/><tag k="addr:housenumber" v="1002"/><tag k="coa:place_id" v="266672"/></node><node id="-43" lat="30.387336" lon="-97.669941" changeset="false"><tag k="addr:street" v="Walnut Creek Drive"/><tag k="addr:housenumber" v="811"/><tag k="coa:place_id" v="100097"/></node><node id="-44" lat="30.384363" lon="-97.669686" changeset="false"><tag k="addr:street" v="Dove Haven Drive"/><tag k="addr:housenumber" v="11806"/><tag k="coa:place_id" v="100080"/></node><node id="-45" lat="30.383577" lon="-97.667349" changeset="false"><tag k="addr:street" v="Fall Creek Drive"/><tag k="addr:housenumber" v="909"/><tag k="coa:place_id" v="267398"/></node><node id="-46" lat="30.387198" lon="-97.667935" changeset="false"><tag k="addr:street" v="Walnut Creek Drive"/><tag k="addr:housenumber" v="826"/><tag k="coa:place_id" v="266378"/></node><node id="-47" lat="30.387166" lon="-97.667954" changeset="false"><tag k="addr:street" v="Walnut Creek Drive"/><tag k="addr:housenumber" v="826 1/2"/><tag k="coa:place_id" v="3215083"/></node><node id="-48" lat="30.385806" lon="-97.669657" changeset="false"><tag k="addr:street" v="River Oaks Drive"/><tag k="addr:housenumber" v="820"/><tag k="coa:place_id" v="266282"/></node><node id="-49" lat="30.385859" lon="-97.669716" changeset="false"><tag k="addr:street" v="Oak Haven Road"/><tag k="addr:housenumber" v="12005"/><tag k="coa:place_id" v="100075"/></node><node id="-50" lat="30.383199" lon="-97.670194" changeset="false"><tag k="addr:street" v="Oak Haven Road"/><tag k="addr:housenumber" v="11701"/><tag k="coa:place_id" v="266504"/></node><node id="-51" lat="30.383195" lon="-97.670017" changeset="false"><tag k="addr:street" v="Berrywood Drive"/><tag k="addr:housenumber" v="822"/><tag k="coa:place_id" v="3084547"/></node><node id="-52" lat="30.387346" lon="-97.671224" changeset="false"><tag k="addr:street" v="Walnut Creek Drive"/><tag k="addr:housenumber" v="801"/><tag k="coa:place_id" v="100093"/></node><node id="-53" lat="30.387194" lon="-97.671342" changeset="false"><tag k="addr:street" v="North Oaks Drive"/><tag k="addr:housenumber" v="12011"/><tag k="coa:place_id" v="265754"/></node><node id="-54" lat="30.382459" lon="-97.668657" changeset="false"><tag k="addr:street" v="Berrywood Drive"/><tag k="addr:housenumber" v="905 1/2"/><tag k="coa:place_id" v="3260170"/></node><node id="-55" lat="30.382467" lon="-97.668702" changeset="false"><tag k="addr:street" v="Berrywood Drive"/><tag k="addr:housenumber" v="905"/><tag k="coa:place_id" v="267008"/></node></osm>