<?xml version="1.0" encoding="UTF-8"?><osm version="0.6" generator="github.com/aaronlidman/osm-and-geojson"><node id="-1" lat="30.303869" lon="-97.786713" changeset="false"><tag k="addr:street" v="Westlake Drive"/><tag k="addr:housenumber" v="2206"/><tag k="coa:place_id" v="3070212"/></node><node id="-2" lat="30.318195" lon="-97.783091" changeset="false"><tag k="addr:street" v="Kittowa Cove"/><tag k="addr:housenumber" v="3200"/><tag k="coa:place_id" v="196368"/></node><node id="-3" lat="30.309747" lon="-97.788088" changeset="false"><tag k="addr:street" v="River Garden Trail"/><tag k="addr:housenumber" v="4240"/><tag k="coa:place_id" v="235089"/></node><node id="-4" lat="30.309338" lon="-97.788099" changeset="false"><tag k="addr:street" v="River Garden Trail"/><tag k="addr:housenumber" v="4232"/><tag k="coa:place_id" v="235090"/></node><node id="-5" lat="30.309365" lon="-97.789716" changeset="false"><tag k="addr:street" v="River Garden Trail"/><tag k="addr:housenumber" v="4433"/><tag k="coa:place_id" v="3034380"/></node><node id="-6" lat="30.319617" lon="-97.779926" changeset="false"><tag k="addr:street" v="Mc Brine Place"/><tag k="addr:housenumber" v="4100"/><tag k="coa:place_id" v="120235"/></node><node id="-7" lat="30.315561" lon="-97.78704" changeset="false"><tag k="addr:street" v="Pescadero Cove"/><tag k="addr:housenumber" v="3008"/><tag k="coa:place_id" v="196415"/></node><node id="-8" lat="30.315246" lon="-97.793309" changeset="false"><tag k="addr:street" v="Christopher Drive"/><tag k="addr:housenumber" v="4709"/><tag k="coa:place_id" v="121487"/></node><node id="-9" lat="30.30802" lon="-97.792813" changeset="false"><tag k="addr:street" v="Mount Larson Road"/><tag k="addr:housenumber" v="1805"/><tag k="coa:place_id" v="1120168"/></node><node id="-10" lat="30.321783" lon="-97.792779" changeset="false"><tag k="addr:street" v="Bull Mountain Cove"/><tag k="addr:housenumber" v="4902"/><tag k="coa:place_id" v="101071"/></node><node id="-11" lat="30.322771" lon="-97.786669" changeset="false"><tag k="addr:street" v="Anikawi Drive"/><tag k="addr:housenumber" v="4615"/><tag k="coa:place_id" v="51129"/></node><node id="-12" lat="30.301356" lon="-97.786188" changeset="false"><tag k="addr:street" v="Island Way"/><tag k="addr:housenumber" v="3900"/><tag k="coa:place_id" v="156188"/></node><node id="-13" lat="30.30078" lon="-97.789379" changeset="false"><tag k="addr:street" v="Mount Larson Road"/><tag k="addr:housenumber" v="1300"/><tag k="coa:place_id" v="3169924"/></node><node id="-14" lat="30.303917" lon="-97.790855" changeset="false"><tag k="addr:street" v="Mount Larson Road"/><tag k="addr:housenumber" v="1505"/><tag k="coa:place_id" v="257338"/></node><node id="-15" lat="30.303174" lon="-97.78413" changeset="false"><tag k="addr:street" v="Westlake Drive"/><tag k="addr:housenumber" v="2221"/><tag k="coa:place_id" v="1035194"/></node><node id="-16" lat="30.308112" lon="-97.786394" changeset="false"><tag k="addr:street" v="River Garden Trail"/><tag k="addr:housenumber" v="4120"/><tag k="coa:place_id" v="235103"/></node><node id="-17" lat="30.307157" lon="-97.789228" changeset="false"><tag k="addr:street" v="River Garden Trail"/><tag k="addr:housenumber" v="4460"/><tag k="coa:place_id" v="3112151"/></node><node id="-18" lat="30.323393" lon="-97.793906" changeset="false"><tag k="addr:street" v="Mantle Drive"/><tag k="addr:housenumber" v="5005"/><tag k="coa:place_id" v="121928"/></node><node id="-19" lat="30.313238" lon="-97.780019" changeset="false"><tag k="addr:street" v="Westlake Drive"/><tag k="addr:housenumber" v="3003"/><tag k="coa:place_id" v="156524"/></node><node id="-20" lat="30.303241" lon="-97.788306" changeset="false"><tag k="addr:street" v="Westlake Drive"/><tag k="addr:housenumber" v="2100"/><tag k="coa:place_id" v="734470"/></node><node id="-21" lat="30.305783" lon="-97.79388" changeset="false"><tag k="addr:street" v="Mount Larson Road"/><tag k="addr:housenumber" v="1440"/><tag k="coa:place_id" v="1120113"/></node><node id="-22" lat="30.306262" lon="-97.781892" changeset="false"><tag k="addr:street" v="Westlake Drive"/><tag k="addr:housenumber" v="2509"/><tag k="coa:place_id" v="156470"/></node><node id="-23" lat="30.306166" lon="-97.788028" changeset="false"><tag k="addr:street" v="San Miguel Lane"/><tag k="addr:housenumber" v="1900"/><tag k="coa:place_id" v="3040672"/></node><node id="-24" lat="30.318547" lon="-97.787108" changeset="false"><tag k="addr:street" v="Rain Dance Cove"/><tag k="addr:housenumber" v="3209"/><tag k="coa:place_id" v="197226"/></node><node id="-25" lat="30.318597" lon="-97.790847" changeset="false"><tag k="addr:street" v="Toreador Drive"/><tag k="addr:housenumber" v="4703"/><tag k="coa:place_id" v="80074"/></node><node id="-26" lat="30.320245" lon="-97.791005" changeset="false"><tag k="addr:street" v="Bull Mountain Cove"/><tag k="addr:housenumber" v="4801"/><tag k="coa:place_id" v="745654"/></node><node id="-27" lat="30.327789" lon="-97.784928" changeset="false"><tag k="addr:street" v="Woodcutters Way"/><tag k="addr:housenumber" v="3807"/><tag k="coa:place_id" v="123678"/></node><node id="-28" lat="30.323041" lon="-97.784601" changeset="false"><tag k="addr:street" v="Anikawi Drive"/><tag k="addr:housenumber" v="4511"/><tag k="coa:place_id" v="439096"/></node><node id="-29" lat="30.326111" lon="-97.781321" changeset="false"><tag k="addr:street" v="Spirit Lake Cove"/><tag k="addr:housenumber" v="3801"/><tag k="coa:place_id" v="1116287"/></node><node id="-30" lat="30.315027" lon="-97.78546" changeset="false"><tag k="addr:street" v="Trailview Mesa Drive"/><tag k="addr:housenumber" v="4230"/><tag k="coa:place_id" v="196467"/></node><node id="-31" lat="30.317621" lon="-97.782891" changeset="false"><tag k="addr:street" v="Kittowa Cove"/><tag k="addr:housenumber" v="3116"/><tag k="coa:place_id" v="196323"/></node><node id="-32" lat="30.311594" lon="-97.780994" changeset="false"><tag k="addr:street" v="Westlake Cove"/><tag k="addr:housenumber" v="2938"/><tag k="coa:place_id" v="156542"/></node><node id="-33" lat="30.311141" lon="-97.780049" changeset="false"><tag k="addr:street" v="Westlake Cove"/><tag k="addr:housenumber" v="2912"/><tag k="coa:place_id" v="933873"/></node><node id="-34" lat="30.311097" lon="-97.788929" changeset="false"><tag k="addr:street" v="River Garden Trail"/><tag k="addr:housenumber" v="4330"/><tag k="coa:place_id" v="235084"/></node><node id="-35" lat="30.324454" lon="-97.792739" changeset="false"><tag k="addr:street" v="Toro Canyon Road"/><tag k="addr:housenumber" v="3317"/><tag k="coa:place_id" v="66800"/></node><node id="-36" lat="30.321208" lon="-97.782591" changeset="false"><tag k="addr:street" v="Silent Trail"/><tag k="addr:housenumber" v="4402"/><tag k="coa:place_id" v="51088"/></node><node id="-37" lat="30.32169" lon="-97.783209" changeset="false"><tag k="addr:street" v="Silent Trail"/><tag k="addr:housenumber" v="4406"/><tag k="coa:place_id" v="51090"/></node><node id="-38" lat="30.307058" lon="-97.793684" changeset="false"><tag k="addr:street" v="Mount Larson Road"/><tag k="addr:housenumber" v="1710"/><tag k="coa:place_id" v="3087010"/></node><node id="-39" lat="30.305166" lon="-97.793409" changeset="false"><tag k="addr:street" v="Mount Larson Road"/><tag k="addr:housenumber" v="1438"/><tag k="coa:place_id" v="1120112"/></node><node id="-40" lat="30.301169" lon="-97.791851" changeset="false"><tag k="addr:street" v="Westlake Drive"/><tag k="addr:housenumber" v="1875"/><tag k="coa:place_id" v="119153"/></node><node id="-41" lat="30.309326" lon="-97.785835" changeset="false"><tag k="addr:street" v="Bennedict Lane"/><tag k="addr:housenumber" v="4100"/><tag k="coa:place_id" v="693609"/></node><node id="-42" lat="30.311685" lon="-97.780606" changeset="false"><tag k="addr:street" v="Westlake Cove"/><tag k="addr:housenumber" v="2934"/><tag k="coa:place_id" v="1013859"/></node><node id="-43" lat="30.303496" lon="-97.795785" changeset="false"><tag k="addr:street" v="Westlake Drive"/><tag k="addr:housenumber" v="1803"/><tag k="coa:place_id" v="639940"/></node><node id="-44" lat="30.311393" lon="-97.789304" changeset="false"><tag k="addr:street" v="River Garden Trail"/><tag k="addr:housenumber" v="4340"/><tag k="coa:place_id" v="235083"/></node><node id="-45" lat="30.323655" lon="-97.779718" changeset="false"><tag k="addr:street" v="Westlake Drive"/><tag k="addr:housenumber" v="3700"/><tag k="coa:place_id" v="5063520"/></node><node id="-46" lat="30.302271" lon="-97.790772" changeset="false"><tag k="addr:street" v="Mount Larson Road"/><tag k="addr:housenumber" v="1406"/><tag k="coa:place_id" v="3391723"/></node><node id="-47" lat="30.301678" lon="-97.787857" changeset="false"><tag k="addr:street" v="Westlake Drive"/><tag k="addr:housenumber" v="2007"/><tag k="coa:place_id" v="157220"/></node><node id="-48" lat="30.300006" lon="-97.790229" changeset="false"><tag k="addr:street" v="Westlake Drive"/><tag k="addr:housenumber" v="1903"/><tag k="coa:place_id" v="66563"/></node><node id="-49" lat="30.327218" lon="-97.790673" changeset="false"><tag k="addr:street" v="Toro Canyon Road"/><tag k="addr:housenumber" v="3601"/><tag k="coa:place_id" v="1103827"/></node><node id="-50" lat="30.32169" lon="-97.784024" changeset="false"><tag k="addr:street" v="Silent Trail"/><tag k="addr:housenumber" v="4410"/><tag k="coa:place_id" v="692524"/></node><node id="-51" lat="30.32451" lon="-97.790711" changeset="false"><tag k="addr:street" v="Toro Canyon Road"/><tag k="addr:housenumber" v="3401"/><tag k="coa:place_id" v="66801"/></node><node id="-52" lat="30.325012" lon="-97.786061" changeset="false"><tag k="addr:street" v="Golden Maize Drive"/><tag k="addr:housenumber" v="4701"/><tag k="coa:place_id" v="51068"/></node><node id="-53" lat="30.324152" lon="-97.789135" changeset="false"><tag k="addr:street" v="Toro Canyon Road"/><tag k="addr:housenumber" v="3405"/><tag k="coa:place_id" v="66803"/></node><node id="-54" lat="30.324045" lon="-97.784456" changeset="false"><tag k="addr:street" v="Elohi Drive"/><tag k="addr:housenumber" v="4605"/><tag k="coa:place_id" v="439102"/></node><node id="-55" lat="30.321404" lon="-97.792773" changeset="false"><tag k="addr:street" v="Bull Mountain Cove"/><tag k="addr:housenumber" v="4907"/><tag k="coa:place_id" v="101070"/></node><node id="-56" lat="30.320326" lon="-97.78818" changeset="false"><tag k="addr:street" v="Aztec Falls Cove"/><tag k="addr:housenumber" v="3209"/><tag k="coa:place_id" v="197242"/></node><node id="-57" lat="30.314433" lon="-97.779212" changeset="false"><tag k="addr:street" v="Westlake Drive"/><tag k="addr:housenumber" v="3015"/><tag k="coa:place_id" v="725962"/></node><node id="-58" lat="30.312893" lon="-97.786863" changeset="false"><tag k="addr:street" v="Dunning Lane"/><tag k="addr:housenumber" v="4300"/><tag k="coa:place_id" v="733960"/></node><node id="-59" lat="30.311921" lon="-97.782081" changeset="false"><tag k="addr:street" v="Island Ledge Cove"/><tag k="addr:housenumber" v="2710"/><tag k="coa:place_id" v="3031787"/></node><node id="-60" lat="30.297931" lon="-97.788319" changeset="false"><tag k="addr:street" v="Lakeshore Drive"/><tag k="addr:housenumber" v="1704"/><tag k="coa:place_id" v="612489"/></node><node id="-61" lat="30.31927" lon="-97.792458" changeset="false"><tag k="addr:street" v="Toreador Drive"/><tag k="addr:housenumber" v="4801"/><tag k="coa:place_id" v="134952"/></node><node id="-62" lat="30.302183" lon="-97.785987" changeset="false"><tag k="addr:street" v="Lakeshore Drive"/><tag k="addr:housenumber" v="2101"/><tag k="coa:place_id" v="156254"/></node><node id="-63" lat="30.30189" lon="-97.791467" changeset="false"><tag k="addr:street" v="Westlake Drive"/><tag k="addr:housenumber" v="1874"/><tag k="coa:place_id" v="55000"/></node><node id="-64" lat="30.302314" lon="-97.792786" changeset="false"><tag k="addr:street" v="Westlake Drive"/><tag k="addr:housenumber" v="1854"/><tag k="coa:place_id" v="54996"/></node><node id="-65" lat="30.320409" lon="-97.778667" changeset="false"><tag k="addr:street" v="Westlake Drive"/><tag k="addr:housenumber" v="3337"/><tag k="coa:place_id" v="156686"/></node><node id="-66" lat="30.320719" lon="-97.783183" changeset="false"><tag k="addr:street" v="Silent Trail"/><tag k="addr:housenumber" v="4403"/><tag k="coa:place_id" v="51094"/></node><node id="-67" lat="30.322873" lon="-97.781766" changeset="false"><tag k="addr:street" v="Michaels Cove"/><tag k="addr:housenumber" v="4401"/><tag k="coa:place_id" v="119851"/></node><node id="-68" lat="30.30905" lon="-97.786038" changeset="false"><tag k="addr:street" v="Bennedict Lane"/><tag k="addr:housenumber" v="4105"/><tag k="coa:place_id" v="709245"/></node><node id="-69" lat="30.32022" lon="-97.78423" changeset="false"><tag k="addr:street" v="Falling Brook Cove"/><tag k="addr:housenumber" v="4401"/><tag k="coa:place_id" v="439126"/></node><node id="-70" lat="30.320076" lon="-97.787477" changeset="false"><tag k="addr:street" v="Mantle Drive"/><tag k="addr:housenumber" v="4609"/><tag k="coa:place_id" v="219588"/></node><node id="-71" lat="30.3224" lon="-97.79414" changeset="false"><tag k="addr:street" v="Toro Canyon Road"/><tag k="addr:housenumber" v="3101"/><tag k="coa:place_id" v="88954"/></node><node id="-72" lat="30.3168" lon="-97.78653" changeset="false"><tag k="addr:street" v="Trailview Mesa Drive"/><tag k="addr:housenumber" v="4305"/><tag k="coa:place_id" v="205355"/></node><node id="-73" lat="30.317074" lon="-97.778801" changeset="false"><tag k="addr:street" v="Westlake Drive"/><tag k="addr:housenumber" v="3115"/><tag k="coa:place_id" v="156656"/></node><node id="-74" lat="30.318826" lon="-97.78687" changeset="false"><tag k="addr:street" v="Rain Dance Cove"/><tag k="addr:housenumber" v="3208"/><tag k="coa:place_id" v="197225"/></node><node id="-75" lat="30.30755" lon="-97.780676" changeset="false"><tag k="addr:street" v="Westlake Drive"/><tag k="addr:housenumber" v="2609"/><tag k="coa:place_id" v="740163"/></node><node id="-76" lat="30.311682" lon="-97.789702" changeset="false"><tag k="addr:street" v="River Garden Trail"/><tag k="addr:housenumber" v="4350"/><tag k="coa:place_id" v="235081"/></node><node id="-77" lat="30.308983" lon="-97.783065" changeset="false"><tag k="addr:street" v="Prentice Lane"/><tag k="addr:housenumber" v="3906"/><tag k="coa:place_id" v="691041"/></node><node id="-78" lat="30.321701" lon="-97.784852" changeset="false"><tag k="addr:street" v="Rapid Springs Cove East,1100"/><tag k="addr:housenumber" v="4503"/><tag k="coa:place_id" v="563398"/></node><node id="-79" lat="30.30268" lon="-97.793423" changeset="false"><tag k="addr:street" v="Westlake Drive"/><tag k="addr:housenumber" v="1847"/><tag k="coa:place_id" v="89365"/></node><node id="-80" lat="30.299681" lon="-97.788418" changeset="false"><tag k="addr:street" v="Laguna Vista Cove"/><tag k="addr:housenumber" v="3907"/><tag k="coa:place_id" v="95914"/></node><node id="-81" lat="30.324593" lon="-97.783659" changeset="false"><tag k="addr:street" v="Tekoa Cove"/><tag k="addr:housenumber" v="3601"/><tag k="coa:place_id" v="51071"/></node><node id="-82" lat="30.305701" lon="-97.786689" changeset="false"><tag k="addr:street" v="Westlake Pass"/><tag k="addr:housenumber" v="1901"/><tag k="coa:place_id" v="135035"/></node><node id="-83" lat="30.314849" lon="-97.787439" changeset="false"><tag k="addr:street" v="Sparkling Brook Lane"/><tag k="addr:housenumber" v="2904"/><tag k="coa:place_id" v="196434"/></node><node id="-84" lat="30.308913" lon="-97.781564" changeset="false"><tag k="addr:street" v="Westlake Drive"/><tag k="addr:housenumber" v="2704"/><tag k="coa:place_id" v="125868"/></node><node id="-85" lat="30.317132" lon="-97.781892" changeset="false"><tag k="addr:street" v="Kittowa Cove"/><tag k="addr:housenumber" v="3101"/><tag k="coa:place_id" v="196327"/></node><node id="-86" lat="30.307761" lon="-97.780364" changeset="false"><tag k="addr:street" v="Westlake Drive"/><tag k="addr:housenumber" v="2611"/><tag k="coa:place_id" v="156512"/></node><node id="-87" lat="30.307534" lon="-97.787847" changeset="false"><tag k="addr:street" v="San Miguel Lane"/><tag k="addr:housenumber" v="2004"/><tag k="coa:place_id" v="1116368"/></node><node id="-88" lat="30.321984" lon="-97.780901" changeset="false"><tag k="addr:street" v="Michaels Cove"/><tag k="addr:housenumber" v="4307"/><tag k="coa:place_id" v="118791"/></node><node id="-89" lat="30.304089" lon="-97.794215" changeset="false"><tag k="addr:street" v="Westlake Drive"/><tag k="addr:housenumber" v="1820"/><tag k="coa:place_id" v="1147080"/></node><node id="-90" lat="30.301187" lon="-97.787196" changeset="false"><tag k="addr:street" v="Lakeshore Drive"/><tag k="addr:housenumber" v="2005"/><tag k="coa:place_id" v="156158"/></node><node id="-91" lat="30.305535" lon="-97.792108" changeset="false"><tag k="addr:street" v="Mount Larson Road"/><tag k="addr:housenumber" v="1611"/><tag k="coa:place_id" v="146715"/></node><node id="-92" lat="30.3015" lon="-97.787048" changeset="false"><tag k="addr:street" v="Lakeshore Drive"/><tag k="addr:housenumber" v="2007"/><tag k="coa:place_id" v="156164"/></node><node id="-93" lat="30.320995" lon="-97.791236" changeset="false"><tag k="addr:street" v="Bull Mountain Cove"/><tag k="addr:housenumber" v="4802"/><tag k="coa:place_id" v="579351"/></node><node id="-94" lat="30.318102" lon="-97.78164" changeset="false"><tag k="addr:street" v="Rustic River Cove"/><tag k="addr:housenumber" v="3201"/><tag k="coa:place_id" v="1159455"/></node><node id="-95" lat="30.312057" lon="-97.779927" changeset="false"><tag k="addr:street" v="Westlake Cove"/><tag k="addr:housenumber" v="2925"/><tag k="coa:place_id" v="1001127"/></node><node id="-96" lat="30.303458" lon="-97.792715" changeset="false"><tag k="addr:street" v="Mount Larson Road"/><tag k="addr:housenumber" v="1428"/><tag k="coa:place_id" v="1120108"/></node><node id="-97" lat="30.304042" lon="-97.793187" changeset="false"><tag k="addr:street" v="Mount Larson Road"/><tag k="addr:housenumber" v="1432"/><tag k="coa:place_id" v="1120110"/></node><node id="-98" lat="30.303487" lon="-97.783915" changeset="false"><tag k="addr:street" v="Westlake Drive"/><tag k="addr:housenumber" v="2309"/><tag k="coa:place_id" v="201791"/></node><node id="-99" lat="30.327038" lon="-97.781577" changeset="false"><tag k="addr:street" v="Spirit Lake Cove"/><tag k="addr:housenumber" v="3809"/><tag k="coa:place_id" v="51043"/></node><node id="-100" lat="30.306639" lon="-97.793469" changeset="false"><tag k="addr:street" v="Mount Larson Road"/><tag k="addr:housenumber" v="1704"/><tag k="coa:place_id" v="3391722"/></node><node id="-101" lat="30.311852" lon="-97.780019" changeset="false"><tag k="addr:street" v="Westlake Cove"/><tag k="addr:housenumber" v="2929"/><tag k="coa:place_id" v="137607"/></node><node id="-102" lat="30.303234" lon="-97.791077" changeset="false"><tag k="addr:street" v="Mount Larson Road"/><tag k="addr:housenumber" v="1414"/><tag k="coa:place_id" v="3391725"/></node><node id="-103" lat="30.327086" lon="-97.781919" changeset="false"><tag k="addr:street" v="Spirit Lake Cove"/><tag k="addr:housenumber" v="3811"/><tag k="coa:place_id" v="51042"/></node><node id="-104" lat="30.310602" lon="-97.779368" changeset="false"><tag k="addr:street" v="Westlake Cove"/><tag k="addr:housenumber" v="2900"/><tag k="coa:place_id" v="115126"/></node><node id="-105" lat="30.318769" lon="-97.792478" changeset="false"><tag k="addr:street" v="Peace Pipe Path"/><tag k="addr:housenumber" v="4708"/><tag k="coa:place_id" v="132384"/></node><node id="-106" lat="30.32687" lon="-97.785604" changeset="false"><tag k="addr:street" v="Woodcutters Way"/><tag k="addr:housenumber" v="3711"/><tag k="coa:place_id" v="117315"/></node><node id="-107" lat="30.306325" lon="-97.792358" changeset="false"><tag k="addr:street" v="Mount Larson Road"/><tag k="addr:housenumber" v="1619"/><tag k="coa:place_id" v="89579"/></node><node id="-108" lat="30.310438" lon="-97.79064" changeset="false"><tag k="addr:street" v="River Garden Trail"/><tag k="addr:housenumber" v="4400"/><tag k="coa:place_id" v="256203"/></node><node id="-109" lat="30.320055" lon="-97.785035" changeset="false"><tag k="addr:street" v="Falling Brook Cove"/><tag k="addr:housenumber" v="4404"/><tag k="coa:place_id" v="51076"/></node><node id="-110" lat="30.320014" lon="-97.783841" changeset="false"><tag k="addr:street" v="Three Rivers Drive"/><tag k="addr:housenumber" v="3206"/><tag k="coa:place_id" v="51110"/></node><node id="-111" lat="30.319928" lon="-97.793061" changeset="false"><tag k="addr:street" v="Toreador Drive"/><tag k="addr:housenumber" v="4806"/><tag k="coa:place_id" v="1147488"/></node><node id="-112" lat="30.319837" lon="-97.792084" changeset="false"><tag k="addr:street" v="Toreador Drive"/><tag k="addr:housenumber" v="4800"/><tag k="coa:place_id" v="80076"/></node><node id="-113" lat="30.299157" lon="-97.788033" changeset="false"><tag k="addr:street" v="Laguna Loma Cove"/><tag k="addr:housenumber" v="1709"/><tag k="coa:place_id" v="679053"/></node><node id="-114" lat="30.307459" lon="-97.78149" changeset="false"><tag k="addr:street" v="Westlake Drive"/><tag k="addr:housenumber" v="2603"/><tag k="coa:place_id" v="834015"/></node><node id="-115" lat="30.315038" lon="-97.785052" changeset="false"><tag k="addr:street" v="Trailview Mesa Drive"/><tag k="addr:housenumber" v="4222"/><tag k="coa:place_id" v="196465"/></node><node id="-116" lat="30.321167" lon="-97.787519" changeset="false"><tag k="addr:street" v="Mantle Drive"/><tag k="addr:housenumber" v="4624"/><tag k="coa:place_id" v="197209"/></node><node id="-117" lat="30.301149" lon="-97.792676" changeset="false"><tag k="addr:street" v="Westlake Drive"/><tag k="addr:housenumber" v="1867"/><tag k="coa:place_id" v="155990"/></node><node id="-118" lat="30.317008" lon="-97.784097" changeset="false"><tag k="addr:street" v="Lating Stream Lane"/><tag k="addr:housenumber" v="3108"/><tag k="coa:place_id" v="196337"/></node><node id="-119" lat="30.318572" lon="-97.791982" changeset="false"><tag k="addr:street" v="Peace Pipe Path"/><tag k="addr:housenumber" v="4704"/><tag k="coa:place_id" v="110903"/></node><node id="-120" lat="30.322996" lon="-97.789233" changeset="false"><tag k="addr:street" v="Mantle Drive"/><tag k="addr:housenumber" v="4804"/><tag k="coa:place_id" v="88943"/></node><node id="-121" lat="30.318408" lon="-97.778305" changeset="false"><tag k="addr:street" v="Westlake Drive"/><tag k="addr:housenumber" v="3209"/><tag k="coa:place_id" v="3072827"/></node><node id="-122" lat="30.308534" lon="-97.789371" changeset="false"><tag k="addr:street" v="River Garden Trail"/><tag k="addr:housenumber" v="4447"/><tag k="coa:place_id" v="1164403"/></node><node id="-123" lat="30.325687" lon="-97.781541" changeset="false"><tag k="addr:street" v="Elohi Drive"/><tag k="addr:housenumber" v="4409"/><tag k="coa:place_id" v="439168"/></node><node id="-124" lat="30.325716" lon="-97.785649" changeset="false"><tag k="addr:street" v="Golden Maize Drive"/><tag k="addr:housenumber" v="4700"/><tag k="coa:place_id" v="705178"/></node><node id="-125" lat="30.329015" lon="-97.786397" changeset="false"><tag k="addr:street" v="Corum Cove"/><tag k="addr:housenumber" v="3901"/><tag k="coa:place_id" v="126240"/></node><node id="-126" lat="30.328486" lon="-97.786933" changeset="false"><tag k="addr:street" v="Corum Cove"/><tag k="addr:housenumber" v="3803"/><tag k="coa:place_id" v="119427"/></node><node id="-127" lat="30.301537" lon="-97.79336" changeset="false"><tag k="addr:street" v="Westlake Drive"/><tag k="addr:housenumber" v="1855"/><tag k="coa:place_id" v="143127"/></node><node id="-128" lat="30.305003" lon="-97.792415" changeset="false"><tag k="addr:street" v="Mount Larson Road"/><tag k="addr:housenumber" v="1606"/><tag k="coa:place_id" v="3036671"/></node><node id="-129" lat="30.323174" lon="-97.793257" changeset="false"><tag k="addr:street" v="Mantle Drive"/><tag k="addr:housenumber" v="5003"/><tag k="coa:place_id" v="88944"/></node><node id="-130" lat="30.320811" lon="-97.787936" changeset="false"><tag k="addr:street" v="Aztec Falls Cove"/><tag k="addr:housenumber" v="3212"/><tag k="coa:place_id" v="197232"/></node><node id="-131" lat="30.311988" lon="-97.783243" changeset="false"><tag k="addr:street" v="Buckminster Court"/><tag k="addr:housenumber" v="2605"/><tag k="coa:place_id" v="125203"/></node><node id="-132" lat="30.309663" lon="-97.790082" changeset="false"><tag k="addr:street" v="River Garden Trail"/><tag k="addr:housenumber" v="4420"/><tag k="coa:place_id" v="256205"/></node><node id="-133" lat="30.303425" lon="-97.788147" changeset="false"><tag k="addr:street" v="Westlake Drive"/><tag k="addr:housenumber" v="2102"/><tag k="coa:place_id" v="129855"/></node><node id="-134" lat="30.304364" lon="-97.794508" changeset="false"><tag k="addr:street" v="Westlake Drive"/><tag k="addr:housenumber" v="1814"/><tag k="coa:place_id" v="1147075"/></node><node id="-135" lat="30.315178" lon="-97.7785" changeset="false"><tag k="addr:street" v="Westlake Drive"/><tag k="addr:housenumber" v="3105"/><tag k="coa:place_id" v="156638"/></node><node id="-136" lat="30.301872" lon="-97.787675" changeset="false"><tag k="addr:street" v="Westlake Drive"/><tag k="addr:housenumber" v="2011"/><tag k="coa:place_id" v="5068440"/></node><node id="-137" lat="30.315761" lon="-97.778757" changeset="false"><tag k="addr:street" v="Westlake Drive"/><tag k="addr:housenumber" v="3107"/><tag k="coa:place_id" v="5116890"/></node><node id="-138" lat="30.324807" lon="-97.785702" changeset="false"><tag k="addr:street" v="Golden Maize Drive"/><tag k="addr:housenumber" v="4605"/><tag k="coa:place_id" v="51067"/></node><node id="-139" lat="30.323114" lon="-97.785072" changeset="false"><tag k="addr:street" v="Anikawi Drive"/><tag k="addr:housenumber" v="4601"/><tag k="coa:place_id" v="3050252"/></node><node id="-140" lat="30.32311" lon="-97.785443" changeset="false"><tag k="addr:street" v="Anikawi Drive"/><tag k="addr:housenumber" v="4605"/><tag k="coa:place_id" v="439162"/></node><node id="-141" lat="30.322792" lon="-97.788826" changeset="false"><tag k="addr:street" v="Mantle Drive"/><tag k="addr:housenumber" v="4800"/><tag k="coa:place_id" v="88942"/></node><node id="-142" lat="30.321711" lon="-97.7874" changeset="false"><tag k="addr:street" v="Mantle Drive"/><tag k="addr:housenumber" v="4628"/><tag k="coa:place_id" v="197208"/></node><node id="-143" lat="30.32591" lon="-97.791134" changeset="false"><tag k="addr:street" v="Toro Canyon Road"/><tag k="addr:housenumber" v="3409"/><tag k="coa:place_id" v="71325"/></node><node id="-144" lat="30.325654" lon="-97.784629" changeset="false"><tag k="addr:street" v="Tekoa Cove"/><tag k="addr:housenumber" v="3702"/><tag k="coa:place_id" v="197971"/></node><node id="-145" lat="30.312216" lon="-97.786843" changeset="false"><tag k="addr:street" v="Dunning Lane"/><tag k="addr:housenumber" v="4209"/><tag k="coa:place_id" v="574210"/></node><node id="-146" lat="30.311799" lon="-97.779265" changeset="false"><tag k="addr:street" v="Westlake Cove"/><tag k="addr:housenumber" v="2917"/><tag k="coa:place_id" v="156350"/></node><node id="-147" lat="30.319696" lon="-97.787069" changeset="false"><tag k="addr:street" v="Mantle Drive"/><tag k="addr:housenumber" v="4604"/><tag k="coa:place_id" v="197215"/></node><node id="-148" lat="30.299172" lon="-97.78937" changeset="false"><tag k="addr:street" v="Lakeshore Drive"/><tag k="addr:housenumber" v="1806"/><tag k="coa:place_id" v="156110"/></node><node id="-149" lat="30.320969" lon="-97.783997" changeset="false"><tag k="addr:street" v="Silent Trail"/><tag k="addr:housenumber" v="4409"/><tag k="coa:place_id" v="439132"/></node><node id="-150" lat="30.311764" lon="-97.788431" changeset="false"><tag k="addr:street" v="Bennedict Lane"/><tag k="addr:housenumber" v="4311"/><tag k="coa:place_id" v="747748"/></node><node id="-151" lat="30.30894" lon="-97.784175" changeset="false"><tag k="addr:street" v="Prentice Lane"/><tag k="addr:housenumber" v="4003"/><tag k="coa:place_id" v="62328"/></node><node id="-152" lat="30.308995" lon="-97.790939" changeset="false"><tag k="addr:street" v="River Garden Trail"/><tag k="addr:housenumber" v="4448"/><tag k="coa:place_id" v="235095"/></node><node id="-153" lat="30.316146" lon="-97.78692" changeset="false"><tag k="addr:street" v="Teak Hawk Cove"/><tag k="addr:housenumber" v="3013"/><tag k="coa:place_id" v="196411"/></node><node id="-154" lat="30.315267" lon="-97.785781" changeset="false"><tag k="addr:street" v="Sparkling Brook Lane"/><tag k="addr:housenumber" v="3005"/><tag k="coa:place_id" v="196452"/></node><node id="-155" lat="30.315054" lon="-97.779152" changeset="false"><tag k="addr:street" v="Westlake Drive"/><tag k="addr:housenumber" v="3103"/><tag k="coa:place_id" v="156632"/></node><node id="-156" lat="30.314527" lon="-97.785428" changeset="false"><tag k="addr:street" v="Calaw Cove"/><tag k="addr:housenumber" v="2808"/><tag k="coa:place_id" v="196464"/></node><node id="-157" lat="30.314261" lon="-97.787186" changeset="false"><tag k="addr:street" v="Sparkling Brook Lane"/><tag k="addr:housenumber" v="2905"/><tag k="coa:place_id" v="196429"/></node><node id="-158" lat="30.308464" lon="-97.793363" changeset="false"><tag k="addr:street" v="Mount Larson Road"/><tag k="addr:housenumber" v="1803"/><tag k="coa:place_id" v="228930"/></node><node id="-159" lat="30.310891" lon="-97.7813" changeset="false"><tag k="addr:street" v="Island Knoll Drive"/><tag k="addr:housenumber" v="3901"/><tag k="coa:place_id" v="152511"/></node><node id="-160" lat="30.301271" lon="-97.790056" changeset="false"><tag k="addr:street" v="Mount Larson Road"/><tag k="addr:housenumber" v="1400"/><tag k="coa:place_id" v="131457"/></node><node id="-161" lat="30.301755" lon="-97.792051" changeset="false"><tag k="addr:street" v="Westlake Drive"/><tag k="addr:housenumber" v="1870"/><tag k="coa:place_id" v="119412"/></node><node id="-162" lat="30.298808" lon="-97.788756" changeset="false"><tag k="addr:street" v="Laguna Loma Cove"/><tag k="addr:housenumber" v="1700"/><tag k="coa:place_id" v="117359"/></node><node id="-163" lat="30.310902" lon="-97.791284" changeset="false"><tag k="addr:street" v="River Garden Trail"/><tag k="addr:housenumber" v="4380"/><tag k="coa:place_id" v="1131768"/></node><node id="-164" lat="30.31567" lon="-97.787774" changeset="false"><tag k="addr:street" v="Pescadero Cove"/><tag k="addr:housenumber" v="3000"/><tag k="coa:place_id" v="196417"/></node><node id="-165" lat="30.307152" lon="-97.781626" changeset="false"><tag k="addr:street" v="Westlake Drive"/><tag k="addr:housenumber" v="2601"/><tag k="coa:place_id" v="3047087"/></node><node id="-166" lat="30.320202" lon="-97.779473" changeset="false"><tag k="addr:street" v="Westlake Drive"/><tag k="addr:housenumber" v="3320"/><tag k="coa:place_id" v="3098788"/></node><node id="-167" lat="30.320228" lon="-97.78879" changeset="false"><tag k="addr:street" v="Aztec Falls Cove"/><tag k="addr:housenumber" v="3201"/><tag k="coa:place_id" v="197239"/></node><node id="-168" lat="30.322878" lon="-97.784032" changeset="false"><tag k="addr:street" v="Anikawi Drive"/><tag k="addr:housenumber" v="4505"/><tag k="coa:place_id" v="51123"/></node><node id="-169" lat="30.318993" lon="-97.787815" changeset="false"><tag k="addr:street" v="Rain Dance Cove"/><tag k="addr:housenumber" v="3201"/><tag k="coa:place_id" v="197229"/></node><node id="-170" lat="30.323083" lon="-97.780927" changeset="false"><tag k="addr:street" v="Michaels Cove"/><tag k="addr:housenumber" v="4400"/><tag k="coa:place_id" v="125770"/></node><node id="-171" lat="30.326537" lon="-97.781033" changeset="false"><tag k="addr:street" v="Spirit Lake Cove"/><tag k="addr:housenumber" v="3805"/><tag k="coa:place_id" v="51045"/></node><node id="-172" lat="30.320464" lon="-97.783646" changeset="false"><tag k="addr:street" v="Three Rivers Drive"/><tag k="addr:housenumber" v="3203"/><tag k="coa:place_id" v="51112"/></node><node id="-173" lat="30.316914" lon="-97.783369" changeset="false"><tag k="addr:street" v="Lating Stream Lane"/><tag k="addr:housenumber" v="3101"/><tag k="coa:place_id" v="196342"/></node><node id="-174" lat="30.299341" lon="-97.790802" changeset="false"><tag k="addr:street" v="Westlake Drive"/><tag k="addr:housenumber" v="1901"/><tag k="coa:place_id" v="156068"/></node><node id="-175" lat="30.320013" lon="-97.786958" changeset="false"><tag k="addr:street" v="Mantle Drive"/><tag k="addr:housenumber" v="4608"/><tag k="coa:place_id" v="197214"/></node><node id="-176" lat="30.306404" lon="-97.787637" changeset="false"><tag k="addr:street" v="San Miguel Lane"/><tag k="addr:housenumber" v="1911"/><tag k="coa:place_id" v="3040673"/></node><node id="-177" lat="30.321169" lon="-97.779414" changeset="false"><tag k="addr:street" v="Westlake Drive"/><tag k="addr:housenumber" v="3400"/><tag k="coa:place_id" v="156710"/></node><node id="-178" lat="30.328616" lon="-97.788629" changeset="false"><tag k="addr:street" v="Corum Cove"/><tag k="addr:housenumber" v="3800"/><tag k="coa:place_id" v="120438"/></node><node id="-179" lat="30.302852" lon="-97.792272" changeset="false"><tag k="addr:street" v="Westlake Drive"/><tag k="addr:housenumber" v="1824"/><tag k="coa:place_id" v="1147081"/></node><node id="-180" lat="30.318308" lon="-97.781434" changeset="false"><tag k="addr:street" v="Rustic River Cove"/><tag k="addr:housenumber" v="3205"/><tag k="coa:place_id" v="1122767"/></node><node id="-181" lat="30.314543" lon="-97.786021" changeset="false"><tag k="addr:street" v="Trailview Mesa Drive"/><tag k="addr:housenumber" v="4233"/><tag k="coa:place_id" v="205356"/></node><node id="-182" lat="30.300763" lon="-97.790948" changeset="false"><tag k="addr:street" v="Westlake Drive"/><tag k="addr:housenumber" v="1895"/><tag k="coa:place_id" v="940545"/></node><node id="-183" lat="30.312724" lon="-97.781794" changeset="false"><tag k="addr:street" v="Westlake Drive"/><tag k="addr:housenumber" v="2970"/><tag k="coa:place_id" v="532941"/></node><node id="-184" lat="30.31382" lon="-97.787978" changeset="false"><tag k="addr:street" v="Dunning Lane"/><tag k="addr:housenumber" v="4319"/><tag k="coa:place_id" v="121397"/></node><node id="-185" lat="30.312805" lon="-97.78396" changeset="false"><tag k="addr:street" v="Dunning Lane"/><tag k="addr:housenumber" v="4100"/><tag k="coa:place_id" v="52831"/></node><node id="-186" lat="30.30902" lon="-97.78794" changeset="false"><tag k="addr:street" v="River Garden Trail"/><tag k="addr:housenumber" v="4220"/><tag k="coa:place_id" v="235091"/></node><node id="-187" lat="30.303035" lon="-97.785006" changeset="false"><tag k="addr:street" v="Westlake Drive"/><tag k="addr:housenumber" v="2218"/><tag k="coa:place_id" v="252414"/></node><node id="-188" lat="30.304456" lon="-97.794606" changeset="false"><tag k="addr:street" v="Westlake Drive"/><tag k="addr:housenumber" v="1812"/><tag k="coa:place_id" v="1147074"/></node><node id="-189" lat="30.303587" lon="-97.784293" changeset="false"><tag k="addr:street" v="Westlake Drive"/><tag k="addr:housenumber" v="2226 1/2"/><tag k="coa:place_id" v="3211770"/></node><node id="-190" lat="30.32074" lon="-97.785639" changeset="false"><tag k="addr:street" v="Elkwater Cove"/><tag k="addr:housenumber" v="4506"/><tag k="coa:place_id" v="51084"/></node><node id="-191" lat="30.298781" lon="-97.789831" changeset="false"><tag k="addr:street" v="Lakeshore Drive"/><tag k="addr:housenumber" v="1802"/><tag k="coa:place_id" v="3355721"/></node><node id="-192" lat="30.308803" lon="-97.781689" changeset="false"><tag k="addr:street" v="Westlake Drive"/><tag k="addr:housenumber" v="2700"/><tag k="coa:place_id" v="3275835"/></node><node id="-193" lat="30.321303" lon="-97.793185" changeset="false"><tag k="addr:street" v="Bull Mountain Cove"/><tag k="addr:housenumber" v="4911"/><tag k="coa:place_id" v="245320"/></node><node id="-194" lat="30.303712" lon="-97.78603" changeset="false"><tag k="addr:street" v="Westlake Drive"/><tag k="addr:housenumber" v="2208"/><tag k="coa:place_id" v="3070251"/></node><node id="-195" lat="30.325165" lon="-97.784921" changeset="false"><tag k="addr:street" v="Elohi Drive"/><tag k="addr:housenumber" v="4604"/><tag k="coa:place_id" v="201714"/></node><node id="-196" lat="30.322549" lon="-97.787506" changeset="false"><tag k="addr:street" v="Anikawi Drive"/><tag k="addr:housenumber" v="4620"/><tag k="coa:place_id" v="98683"/></node><node id="-197" lat="30.322024" lon="-97.779918" changeset="false"><tag k="addr:street" v="Michaels Cove"/><tag k="addr:housenumber" v="4301"/><tag k="coa:place_id" v="118789"/></node><node id="-198" lat="30.326546" lon="-97.782178" changeset="false"><tag k="addr:street" v="Spirit Lake Cove"/><tag k="addr:housenumber" v="3804"/><tag k="coa:place_id" v="51040"/></node><node id="-199" lat="30.300044" lon="-97.789546" changeset="false"><tag k="addr:street" v="Laguna Vista Drive"/><tag k="addr:housenumber" v="107"/><tag k="coa:place_id" v="214743"/></node><node id="-200" lat="30.317771" lon="-97.784464" changeset="false"><tag k="addr:street" v="Lating Stream Lane"/><tag k="addr:housenumber" v="3205"/><tag k="coa:place_id" v="196381"/></node><node id="-201" lat="30.31405" lon="-97.785265" changeset="false"><tag k="addr:street" v="Calaw Cove"/><tag k="addr:housenumber" v="2800"/><tag k="coa:place_id" v="196459"/></node><node id="-202" lat="30.30181" lon="-97.793674" changeset="false"><tag k="addr:street" v="Westlake Drive"/><tag k="addr:housenumber" v="1851"/><tag k="coa:place_id" v="575013"/></node><node id="-203" lat="30.322431" lon="-97.794401" changeset="false"><tag k="addr:street" v="Toro Canyon Road"/><tag k="addr:housenumber" v="3107"/><tag k="coa:place_id" v="604449"/></node><node id="-204" lat="30.311836" lon="-97.790281" changeset="false"><tag k="addr:street" v="River Garden Trail"/><tag k="addr:housenumber" v="4360"/><tag k="coa:place_id" v="235080"/></node><node id="-205" lat="30.32071" lon="-97.791849" changeset="false"><tag k="addr:street" v="Bull Mountain Cove"/><tag k="addr:housenumber" v="4805"/><tag k="coa:place_id" v="101069"/></node><node id="-206" lat="30.324555" lon="-97.784114" changeset="false"><tag k="addr:street" v="Tekoa Cove"/><tag k="addr:housenumber" v="3600"/><tag k="coa:place_id" v="51070"/></node><node id="-207" lat="30.319345" lon="-97.787569" changeset="false"><tag k="addr:street" v="Rain Dance Cove"/><tag k="addr:housenumber" v="3200"/><tag k="coa:place_id" v="197231"/></node><node id="-208" lat="30.320945" lon="-97.789598" changeset="false"><tag k="addr:street" v="El Toro Cove"/><tag k="addr:housenumber" v="3201"/><tag k="coa:place_id" v="88952"/></node><node id="-209" lat="30.329267" lon="-97.788289" changeset="false"><tag k="addr:street" v="Corum Cove"/><tag k="addr:housenumber" v="3806"/><tag k="coa:place_id" v="117681"/></node><node id="-210" lat="30.317019" lon="-97.780471" changeset="false"><tag k="addr:street" v="Crowheart Cove"/><tag k="addr:housenumber" v="3109"/><tag k="coa:place_id" v="196314"/></node><node id="-211" lat="30.329775" lon="-97.7877" changeset="false"><tag k="addr:street" v="Corum Cove"/><tag k="addr:housenumber" v="3900"/><tag k="coa:place_id" v="119310"/></node><node id="-212" lat="30.322155" lon="-97.790973" changeset="false"><tag k="addr:street" v="Lamantilla Cove"/><tag k="addr:housenumber" v="3200"/><tag k="coa:place_id" v="88945"/></node><node id="-213" lat="30.320397" lon="-97.793156" changeset="false"><tag k="addr:street" v="Toro Canyon Road"/><tag k="addr:housenumber" v="2915"/><tag k="coa:place_id" v="698818"/></node><node id="-214" lat="30.319892" lon="-97.781407" changeset="false"><tag k="addr:street" v="Mc Brine Place"/><tag k="addr:housenumber" v="4111"/><tag k="coa:place_id" v="691954"/></node><node id="-215" lat="30.327826" lon="-97.785932" changeset="false"><tag k="addr:street" v="Woodcutters Way"/><tag k="addr:housenumber" v="3804"/><tag k="coa:place_id" v="121567"/></node><node id="-216" lat="30.320551" lon="-97.787736" changeset="false"><tag k="addr:street" v="Aztec Falls Cove"/><tag k="addr:housenumber" v="3215"/><tag k="coa:place_id" v="197243"/></node><node id="-217" lat="30.307234" lon="-97.782327" changeset="false"><tag k="addr:street" v="Westlake Drive"/><tag k="addr:housenumber" v="2514"/><tag k="coa:place_id" v="635439"/></node><node id="-218" lat="30.310534" lon="-97.782586" changeset="false"><tag k="addr:street" v="Island Knoll Drive"/><tag k="addr:housenumber" v="4001"/><tag k="coa:place_id" v="152515"/></node><node id="-219" lat="30.309558" lon="-97.781464" changeset="false"><tag k="addr:street" v="Westlake Drive"/><tag k="addr:housenumber" v="2800"/><tag k="coa:place_id" v="3214158"/></node><node id="-220" lat="30.328062" lon="-97.79063" changeset="false"><tag k="addr:street" v="Toro Canyon Road"/><tag k="addr:housenumber" v="3615"/><tag k="coa:place_id" v="102951"/></node><node id="-221" lat="30.33092" lon="-97.790042" changeset="false"><tag k="addr:street" v="Toro Canyon Road"/><tag k="addr:housenumber" v="3903"/><tag k="coa:place_id" v="3349284"/></node><node id="-222" lat="30.309655" lon="-97.782161" changeset="false"><tag k="addr:street" v="Westlake Drive"/><tag k="addr:housenumber" v="2810"/><tag k="coa:place_id" v="3214160"/></node><node id="-223" lat="30.30903" lon="-97.789094" changeset="false"><tag k="addr:street" v="River Garden Trail"/><tag k="addr:housenumber" v="4445"/><tag k="coa:place_id" v="3277838"/></node><node id="-224" lat="30.325319" lon="-97.780312" changeset="false"><tag k="addr:street" v="Elohi Drive"/><tag k="addr:housenumber" v="4401"/><tag k="coa:place_id" v="3326469"/></node><node id="-225" lat="30.31322" lon="-97.787795" changeset="false"><tag k="addr:street" v="Dunning Lane"/><tag k="addr:housenumber" v="4311"/><tag k="coa:place_id" v="716859"/></node><node id="-226" lat="30.300256" lon="-97.7898" changeset="false"><tag k="addr:street" v="Westlake Drive"/><tag k="addr:housenumber" v="1949"/><tag k="coa:place_id" v="507027"/></node><node id="-227" lat="30.324273" lon="-97.7832" changeset="false"><tag k="addr:street" v="Sacred Moon Cove"/><tag k="addr:housenumber" v="3504"/><tag k="coa:place_id" v="51060"/></node><node id="-228" lat="30.325764" lon="-97.78959" changeset="false"><tag k="addr:street" v="Whitethorn Court"/><tag k="addr:housenumber" v="4903"/><tag k="coa:place_id" v="83223"/></node><node id="-229" lat="30.298331" lon="-97.788888" changeset="false"><tag k="addr:street" v="Lakeshore Drive"/><tag k="addr:housenumber" v="1710"/><tag k="coa:place_id" v="189175"/></node><node id="-230" lat="30.329726" lon="-97.790418" changeset="false"><tag k="addr:street" v="Toro Canyon Road"/><tag k="addr:housenumber" v="3807"/><tag k="coa:place_id" v="3295683"/></node><node id="-231" lat="30.323846" lon="-97.782766" changeset="false"><tag k="addr:street" v="Sacred Moon Cove"/><tag k="addr:housenumber" v="3505"/><tag k="coa:place_id" v="51062"/></node><node id="-232" lat="30.312926" lon="-97.780073" changeset="false"><tag k="addr:street" v="Westlake Cove"/><tag k="addr:housenumber" v="2947"/><tag k="coa:place_id" v="110068"/></node><node id="-233" lat="30.302782" lon="-97.790805" changeset="false"><tag k="addr:street" v="Mount Larson Road"/><tag k="addr:housenumber" v="1410"/><tag k="coa:place_id" v="3391724"/></node><node id="-234" lat="30.301092" lon="-97.7923" changeset="false"><tag k="addr:street" v="Westlake Drive"/><tag k="addr:housenumber" v="1871"/><tag k="coa:place_id" v="119149"/></node><node id="-235" lat="30.302139" lon="-97.792682" changeset="false"><tag k="addr:street" v="Westlake Drive"/><tag k="addr:housenumber" v="1858"/><tag k="coa:place_id" v="54997"/></node><node id="-236" lat="30.309155" lon="-97.781403" changeset="false"><tag k="addr:street" v="Westlake Drive"/><tag k="addr:housenumber" v="2708"/><tag k="coa:place_id" v="3214157"/></node><node id="-237" lat="30.309669" lon="-97.781657" changeset="false"><tag k="addr:street" v="Westlake Drive"/><tag k="addr:housenumber" v="2806"/><tag k="coa:place_id" v="3214159"/></node><node id="-238" lat="30.313876" lon="-97.77928" changeset="false"><tag k="addr:street" v="Westlake Drive"/><tag k="addr:housenumber" v="3009"/><tag k="coa:place_id" v="156596"/></node><node id="-239" lat="30.321452" lon="-97.782851" changeset="false"><tag k="addr:street" v="Silent Trail"/><tag k="addr:housenumber" v="4404"/><tag k="coa:place_id" v="51089"/></node><node id="-240" lat="30.303653" lon="-97.786012" changeset="false"><tag k="addr:street" v="Westlake Drive"/><tag k="addr:housenumber" v="2208 1/2"/><tag k="coa:place_id" v="3215673"/></node><node id="-241" lat="30.323164" lon="-97.784131" changeset="false"><tag k="addr:street" v="Anikawi Drive"/><tag k="addr:housenumber" v="4507"/><tag k="coa:place_id" v="605986"/></node><node id="-242" lat="30.328682" lon="-97.785293" changeset="false"><tag k="addr:street" v="Woodcutters Way"/><tag k="addr:housenumber" v="3900"/><tag k="coa:place_id" v="125437"/></node><node id="-243" lat="30.301777" lon="-97.792718" changeset="false"><tag k="addr:street" v="Westlake Drive"/><tag k="addr:housenumber" v="1863"/><tag k="coa:place_id" v="678196"/></node><node id="-244" lat="30.320003" lon="-97.79253" changeset="false"><tag k="addr:street" v="Toreador Drive"/><tag k="addr:housenumber" v="4804"/><tag k="coa:place_id" v="734176"/></node><node id="-245" lat="30.318528" lon="-97.781161" changeset="false"><tag k="addr:street" v="Rustic River Cove"/><tag k="addr:housenumber" v="3209"/><tag k="coa:place_id" v="1122971"/></node><node id="-246" lat="30.32379" lon="-97.785347" changeset="false"><tag k="addr:street" v="Elohi Drive"/><tag k="addr:housenumber" v="4612"/><tag k="coa:place_id" v="439078"/></node><node id="-247" lat="30.317583" lon="-97.783433" changeset="false"><tag k="addr:street" v="Rio Robles Drive"/><tag k="addr:housenumber" v="4404"/><tag k="coa:place_id" v="221749"/></node><node id="-248" lat="30.303886" lon="-97.784172" changeset="false"><tag k="addr:street" v="Westlake Drive"/><tag k="addr:housenumber" v="2300"/><tag k="coa:place_id" v="1161254"/></node><node id="-249" lat="30.318864" lon="-97.789219" changeset="false"><tag k="addr:street" v="Mantle Drive"/><tag k="addr:housenumber" v="4501"/><tag k="coa:place_id" v="197221"/></node><node id="-250" lat="30.318775" lon="-97.789161" changeset="false"><tag k="addr:street" v="Mantle Drive"/><tag k="addr:housenumber" v="4500"/><tag k="coa:place_id" v="197220"/></node><node id="-251" lat="30.300305" lon="-97.789904" changeset="false"><tag k="addr:street" v="Westlake Drive"/><tag k="addr:housenumber" v="1947"/><tag k="coa:place_id" v="516405"/></node><node id="-252" lat="30.308275" lon="-97.786722" changeset="false"><tag k="addr:street" v="River Garden Trail"/><tag k="addr:housenumber" v="4130"/><tag k="coa:place_id" v="235097"/></node><node id="-253" lat="30.316534" lon="-97.784745" changeset="false"><tag k="addr:street" v="Rio Robles Drive"/><tag k="addr:housenumber" v="4320"/><tag k="coa:place_id" v="196350"/></node><node id="-254" lat="30.307809" lon="-97.788567" changeset="false"><tag k="addr:street" v="River Garden Trail"/><tag k="addr:housenumber" v="4455"/><tag k="coa:place_id" v="3096764"/></node><node id="-255" lat="30.307839" lon="-97.785538" changeset="false"><tag k="addr:street" v="River Garden Trail"/><tag k="addr:housenumber" v="4100"/><tag k="coa:place_id" v="3036527"/></node><node id="-256" lat="30.322103" lon="-97.785229" changeset="false"><tag k="addr:street" v="Three Rivers Drive"/><tag k="addr:housenumber" v="3401"/><tag k="coa:place_id" v="145896"/></node><node id="-257" lat="30.303476" lon="-97.794012" changeset="false"><tag k="addr:street" v="Westlake Drive"/><tag k="addr:housenumber" v="1811"/><tag k="coa:place_id" v="1147084"/></node><node id="-258" lat="30.324641" lon="-97.785253" changeset="false"><tag k="addr:street" v="Elohi Drive"/><tag k="addr:housenumber" v="4608"/><tag k="coa:place_id" v="645694"/></node><node id="-259" lat="30.320277" lon="-97.781274" changeset="false"><tag k="addr:street" v="Mc Brine Place"/><tag k="addr:housenumber" v="4110"/><tag k="coa:place_id" v="718366"/></node><node id="-260" lat="30.313382" lon="-97.787912" changeset="false"><tag k="addr:street" v="Dunning Lane"/><tag k="addr:housenumber" v="4315"/><tag k="coa:place_id" v="116585"/></node><node id="-261" lat="30.301097" lon="-97.78604" changeset="false"><tag k="addr:street" v="Island Way"/><tag k="addr:housenumber" v="3806"/><tag k="coa:place_id" v="246505"/></node><node id="-262" lat="30.300399" lon="-97.789691" changeset="false"><tag k="addr:street" v="Westlake Drive"/><tag k="addr:housenumber" v="1907"/><tag k="coa:place_id" v="66560"/></node><node id="-263" lat="30.308464" lon="-97.78705" changeset="false"><tag k="addr:street" v="River Garden Trail"/><tag k="addr:housenumber" v="4140"/><tag k="coa:place_id" v="235096"/></node><node id="-264" lat="30.312527" lon="-97.779392" changeset="false"><tag k="addr:street" v="Westlake Cove"/><tag k="addr:housenumber" v="2943"/><tag k="coa:place_id" v="156578"/></node><node id="-265" lat="30.323783" lon="-97.788602" changeset="false"><tag k="addr:street" v="Woodcutters Way"/><tag k="addr:housenumber" v="3402"/><tag k="coa:place_id" v="115937"/></node><node id="-266" lat="30.326272" lon="-97.781801" changeset="false"><tag k="addr:street" v="Spirit Lake Cove"/><tag k="addr:housenumber" v="3800"/><tag k="coa:place_id" v="607366"/></node><node id="-267" lat="30.320386" lon="-97.787034" changeset="false"><tag k="addr:street" v="Mantle Drive"/><tag k="addr:housenumber" v="4612"/><tag k="coa:place_id" v="197213"/></node><node id="-268" lat="30.317843" lon="-97.782615" changeset="false"><tag k="addr:street" v="Rio Robles Drive"/><tag k="addr:housenumber" v="4412"/><tag k="coa:place_id" v="232861"/></node><node id="-269" lat="30.312901" lon="-97.782432" changeset="false"><tag k="addr:street" v="Westlake Drive"/><tag k="addr:housenumber" v="2956"/><tag k="coa:place_id" v="532947"/></node><node id="-270" lat="30.311596" lon="-97.779309" changeset="false"><tag k="addr:street" v="Westlake Cove"/><tag k="addr:housenumber" v="2913"/><tag k="coa:place_id" v="156566"/></node><node id="-271" lat="30.32296" lon="-97.785901" changeset="false"><tag k="addr:street" v="Anikawi Drive"/><tag k="addr:housenumber" v="4607"/><tag k="coa:place_id" v="439030"/></node><node id="-272" lat="30.305035" lon="-97.783845" changeset="false"><tag k="addr:street" v="Westlake Drive"/><tag k="addr:housenumber" v="2320"/><tag k="coa:place_id" v="3079055"/></node><node id="-273" lat="30.326133" lon="-97.78853" changeset="false"><tag k="addr:street" v="Whitethorn Court"/><tag k="addr:housenumber" v="4900"/><tag k="coa:place_id" v="83225"/></node><node id="-274" lat="30.301931" lon="-97.792432" changeset="false"><tag k="addr:street" v="Westlake Drive"/><tag k="addr:housenumber" v="1864"/><tag k="coa:place_id" v="182910"/></node><node id="-275" lat="30.303407" lon="-97.793912" changeset="false"><tag k="addr:street" v="Westlake Drive"/><tag k="addr:housenumber" v="1815"/><tag k="coa:place_id" v="1147085"/></node><node id="-276" lat="30.315437" lon="-97.784061" changeset="false"><tag k="addr:street" v="Popano Cove"/><tag k="addr:housenumber" v="2901"/><tag k="coa:place_id" v="200826"/></node><node id="-277" lat="30.31428" lon="-97.786881" changeset="false"><tag k="addr:street" v="Sparkling Brook Lane"/><tag k="addr:housenumber" v="2909"/><tag k="coa:place_id" v="196428"/></node><node id="-278" lat="30.314302" lon="-97.788669" changeset="false"><tag k="addr:street" v="Christopher Drive"/><tag k="addr:housenumber" v="4500"/><tag k="coa:place_id" v="661336"/></node><node id="-279" lat="30.315681" lon="-97.793195" changeset="false"><tag k="addr:street" v="Christopher Drive"/><tag k="addr:housenumber" v="4720"/><tag k="coa:place_id" v="3184144"/></node><node id="-280" lat="30.303876" lon="-97.783584" changeset="false"><tag k="addr:street" v="Westlake Drive"/><tag k="addr:housenumber" v="2319"/><tag k="coa:place_id" v="201793"/></node><node id="-281" lat="30.318701" lon="-97.778155" changeset="false"><tag k="addr:street" v="Westlake Drive"/><tag k="addr:housenumber" v="3311"/><tag k="coa:place_id" v="156680"/></node><node id="-282" lat="30.317771" lon="-97.792055" changeset="false"><tag k="addr:street" v="Peace Pipe Path"/><tag k="addr:housenumber" v="4703"/><tag k="coa:place_id" v="80073"/></node><node id="-283" lat="30.315956" lon="-97.784313" changeset="false"><tag k="addr:street" v="Popano Cove"/><tag k="addr:housenumber" v="2909"/><tag k="coa:place_id" v="150694"/></node><node id="-284" lat="30.298112" lon="-97.788343" changeset="false"><tag k="addr:street" v="Lakeshore Drive"/><tag k="addr:housenumber" v="1701"/><tag k="coa:place_id" v="763390"/></node><node id="-285" lat="30.309897" lon="-97.796528" changeset="false"><tag k="addr:street" v="Toro Canyon Road"/><tag k="addr:housenumber" v="1905"/><tag k="coa:place_id" v="251592"/></node><node id="-286" lat="30.304294" lon="-97.783867" changeset="false"><tag k="addr:street" v="Westlake Drive"/><tag k="addr:housenumber" v="2310"/><tag k="coa:place_id" v="3185286"/></node><node id="-287" lat="30.321391" lon="-97.789053" changeset="false"><tag k="addr:street" v="El Toro Cove"/><tag k="addr:housenumber" v="3205"/><tag k="coa:place_id" v="88953"/></node><node id="-288" lat="30.302564" lon="-97.792183" changeset="false"><tag k="addr:street" v="Westlake Drive"/><tag k="addr:housenumber" v="1826"/><tag k="coa:place_id" v="1147083"/></node><node id="-289" lat="30.300936" lon="-97.786085" changeset="false"><tag k="addr:street" v="Island Way"/><tag k="addr:housenumber" v="3804"/><tag k="coa:place_id" v="276483"/></node><node id="-290" lat="30.312915" lon="-97.787796" changeset="false"><tag k="addr:street" v="Dunning Lane"/><tag k="addr:housenumber" v="4307"/><tag k="coa:place_id" v="716853"/></node><node id="-291" lat="30.307742" lon="-97.792844" changeset="false"><tag k="addr:street" v="Mount Larson Road"/><tag k="addr:housenumber" v="1801"/><tag k="coa:place_id" v="228931"/></node><node id="-292" lat="30.314753" lon="-97.786682" changeset="false"><tag k="addr:street" v="Sparkling Brook Lane"/><tag k="addr:housenumber" v="2912"/><tag k="coa:place_id" v="196439"/></node><node id="-293" lat="30.313296" lon="-97.787882" changeset="false"><tag k="addr:street" v="Dunning Lane"/><tag k="addr:housenumber" v="4313"/><tag k="coa:place_id" v="116256"/></node><node id="-294" lat="30.319305" lon="-97.791527" changeset="false"><tag k="addr:street" v="Toreador Drive"/><tag k="addr:housenumber" v="4708"/><tag k="coa:place_id" v="80075"/></node><node id="-295" lat="30.322904" lon="-97.787527" changeset="false"><tag k="addr:street" v="Anikawi Drive"/><tag k="addr:housenumber" v="4614"/><tag k="coa:place_id" v="51121"/></node><node id="-296" lat="30.30812" lon="-97.783035" changeset="false"><tag k="addr:street" v="Bennedict Lane"/><tag k="addr:housenumber" v="3900"/><tag k="coa:place_id" v="692962"/></node><node id="-297" lat="30.322224" lon="-97.789591" changeset="false"><tag k="addr:street" v="El Toro Cove"/><tag k="addr:housenumber" v="3206"/><tag k="coa:place_id" v="698236"/></node><node id="-298" lat="30.311598" lon="-97.790871" changeset="false"><tag k="addr:street" v="River Garden Trail"/><tag k="addr:housenumber" v="4370"/><tag k="coa:place_id" v="1131767"/></node><node id="-299" lat="30.310829" lon="-97.788598" changeset="false"><tag k="addr:street" v="River Garden Trail"/><tag k="addr:housenumber" v="4320"/><tag k="coa:place_id" v="235085"/></node><node id="-300" lat="30.319975" lon="-97.782965" changeset="false"><tag k="addr:street" v="Three Rivers Drive"/><tag k="addr:housenumber" v="3200"/><tag k="coa:place_id" v="727372"/></node><node id="-301" lat="30.303607" lon="-97.790368" changeset="false"><tag k="addr:street" v="Mount Larson Road"/><tag k="addr:housenumber" v="1425"/><tag k="coa:place_id" v="3116169"/></node><node id="-302" lat="30.327869" lon="-97.787402" changeset="false"><tag k="addr:street" v="Corum Cove"/><tag k="addr:housenumber" v="3705"/><tag k="coa:place_id" v="145902"/></node><node id="-303" lat="30.32743" lon="-97.788732" changeset="false"><tag k="addr:street" v="Corum Cove"/><tag k="addr:housenumber" v="3700"/><tag k="coa:place_id" v="118797"/></node><node id="-304" lat="30.315626" lon="-97.779794" changeset="false"><tag k="addr:street" v="Westlake Drive"/><tag k="addr:housenumber" v="3107 1/2"/><tag k="coa:place_id" v="3047147"/></node><node id="-305" lat="30.326766" lon="-97.786718" changeset="false"><tag k="addr:street" v="Woodcutters Way"/><tag k="addr:housenumber" v="3704"/><tag k="coa:place_id" v="115692"/></node><node id="-306" lat="30.319746" lon="-97.783197" changeset="false"><tag k="addr:street" v="Three Rivers Drive"/><tag k="addr:housenumber" v="3202"/><tag k="coa:place_id" v="51108"/></node><node id="-307" lat="30.301676" lon="-97.791069" changeset="false"><tag k="addr:street" v="Westlake Drive"/><tag k="addr:housenumber" v="1880"/><tag k="coa:place_id" v="495874"/></node><node id="-308" lat="30.31932" lon="-97.788609" changeset="false"><tag k="addr:street" v="Mantle Drive"/><tag k="addr:housenumber" v="4509"/><tag k="coa:place_id" v="197219"/></node><node id="-309" lat="30.307568" lon="-97.785591" changeset="false"><tag k="addr:street" v="Westlake Pass"/><tag k="addr:housenumber" v="2210 1/2"/><tag k="coa:place_id" v="1125969"/></node><node id="-310" lat="30.311239" lon="-97.781412" changeset="false"><tag k="addr:street" v="Island Knoll Drive"/><tag k="addr:housenumber" v="3904"/><tag k="coa:place_id" v="173652"/></node><node id="-311" lat="30.322536" lon="-97.788255" changeset="false"><tag k="addr:street" v="Mantle Drive"/><tag k="addr:housenumber" v="4704"/><tag k="coa:place_id" v="562522"/></node><node id="-312" lat="30.313597" lon="-97.782538" changeset="false"><tag k="addr:street" v="Trailview Mesa Cove"/><tag k="addr:housenumber" v="2801"/><tag k="coa:place_id" v="150553"/></node><node id="-313" lat="30.32068" lon="-97.784525" changeset="false"><tag k="addr:street" v="Falling Brook Cove"/><tag k="addr:housenumber" v="4400"/><tag k="coa:place_id" v="439120"/></node><node id="-314" lat="30.313331" lon="-97.779335" changeset="false"><tag k="addr:street" v="Westlake Drive"/><tag k="addr:housenumber" v="3007"/><tag k="coa:place_id" v="156590"/></node><node id="-315" lat="30.304537" lon="-97.793753" changeset="false"><tag k="addr:street" v="Mount Larson Road"/><tag k="addr:housenumber" v="1436"/><tag k="coa:place_id" v="1120111"/></node><node id="-316" lat="30.304272" lon="-97.794411" changeset="false"><tag k="addr:street" v="Westlake Drive"/><tag k="addr:housenumber" v="1816"/><tag k="coa:place_id" v="1147077"/></node><node id="-317" lat="30.30418" lon="-97.794313" changeset="false"><tag k="addr:street" v="Westlake Drive"/><tag k="addr:housenumber" v="1818"/><tag k="coa:place_id" v="1147078"/></node><node id="-318" lat="30.321437" lon="-97.784446" changeset="false"><tag k="addr:street" v="Silent Trail"/><tag k="addr:housenumber" v="4412"/><tag k="coa:place_id" v="439144"/></node><node id="-319" lat="30.327819" lon="-97.783956" changeset="false"><tag k="addr:street" v="Westlake Drive"/><tag k="addr:housenumber" v="3960"/><tag k="coa:place_id" v="1112907"/></node><node id="-320" lat="30.300513" lon="-97.790037" changeset="false"><tag k="addr:street" v="Westlake Drive"/><tag k="addr:housenumber" v="1905"/><tag k="coa:place_id" v="66559"/></node><node id="-321" lat="30.303684" lon="-97.793044" changeset="false"><tag k="addr:street" v="Mount Larson Road"/><tag k="addr:housenumber" v="1430"/><tag k="coa:place_id" v="1120109"/></node><node id="-322" lat="30.314185" lon="-97.779235" changeset="false"><tag k="addr:street" v="Westlake Drive"/><tag k="addr:housenumber" v="3011"/><tag k="coa:place_id" v="156614"/></node><node id="-323" lat="30.317662" lon="-97.781845" changeset="false"><tag k="addr:street" v="Rio Robles Drive"/><tag k="addr:housenumber" v="4500"/><tag k="coa:place_id" v="221755"/></node><node id="-324" lat="30.304508" lon="-97.78681" changeset="false"><tag k="addr:street" v="Westlake Pass"/><tag k="addr:housenumber" v="1801"/><tag k="coa:place_id" v="3029662"/></node><node id="-325" lat="30.316596" lon="-97.78056" changeset="false"><tag k="addr:street" v="Crowheart Cove"/><tag k="addr:housenumber" v="3101"/><tag k="coa:place_id" v="196317"/></node><node id="-326" lat="30.305187" lon="-97.783388" changeset="false"><tag k="addr:street" v="Westlake Drive"/><tag k="addr:housenumber" v="2400"/><tag k="coa:place_id" v="318466"/></node><node id="-327" lat="30.308113" lon="-97.789042" changeset="false"><tag k="addr:street" v="River Garden Trail"/><tag k="addr:housenumber" v="4451"/><tag k="coa:place_id" v="1164402"/></node><node id="-328" lat="30.323006" lon="-97.786418" changeset="false"><tag k="addr:street" v="Anikawi Drive"/><tag k="addr:housenumber" v="4611"/><tag k="coa:place_id" v="51128"/></node><node id="-329" lat="30.315287" lon="-97.787006" changeset="false"><tag k="addr:street" v="Pescadero Cove"/><tag k="addr:housenumber" v="3009"/><tag k="coa:place_id" v="196423"/></node><node id="-330" lat="30.31199" lon="-97.779179" changeset="false"><tag k="addr:street" v="Westlake Cove"/><tag k="addr:housenumber" v="2921"/><tag k="coa:place_id" v="156356"/></node><node id="-331" lat="30.308851" lon="-97.787612" changeset="false"><tag k="addr:street" v="River Garden Trail"/><tag k="addr:housenumber" v="4210"/><tag k="coa:place_id" v="235092"/></node><node id="-332" lat="30.3244" lon="-97.789992" changeset="false"><tag k="addr:street" v="Toro Canyon Road"/><tag k="addr:housenumber" v="3403"/><tag k="coa:place_id" v="66802"/></node><node id="-333" lat="30.307528" lon="-97.782171" changeset="false"><tag k="addr:street" v="Westlake Drive"/><tag k="addr:housenumber" v="2602"/><tag k="coa:place_id" v="621076"/></node><node id="-334" lat="30.307533" lon="-97.787567" changeset="false"><tag k="addr:street" v="River Garden Trail"/><tag k="addr:housenumber" v="4141"/><tag k="coa:place_id" v="255269"/></node><node id="-335" lat="30.308676" lon="-97.787338" changeset="false"><tag k="addr:street" v="River Garden Trail"/><tag k="addr:housenumber" v="4200"/><tag k="coa:place_id" v="235093"/></node><node id="-336" lat="30.319931" lon="-97.780486" changeset="false"><tag k="addr:street" v="Mc Brine Place"/><tag k="addr:housenumber" v="4106"/><tag k="coa:place_id" v="678322"/></node><node id="-337" lat="30.311041" lon="-97.780969" changeset="false"><tag k="addr:street" v="Island Knoll Drive"/><tag k="addr:housenumber" v="3900"/><tag k="coa:place_id" v="152509"/></node><node id="-338" lat="30.309991" lon="-97.793182" changeset="false"><tag k="addr:street" v="Mount Larson Road"/><tag k="addr:housenumber" v="1811"/><tag k="coa:place_id" v="185323"/></node><node id="-339" lat="30.322897" lon="-97.783311" changeset="false"><tag k="addr:street" v="Anikawi Drive"/><tag k="addr:housenumber" v="4500"/><tag k="coa:place_id" v="51120"/></node><node id="-340" lat="30.3269" lon="-97.782252" changeset="false"><tag k="addr:street" v="Spirit Lake Cove"/><tag k="addr:housenumber" v="3806"/><tag k="coa:place_id" v="51041"/></node><node id="-341" lat="30.313478" lon="-97.787919" changeset="false"><tag k="addr:street" v="Dunning Lane"/><tag k="addr:housenumber" v="4317"/><tag k="coa:place_id" v="116255"/></node><node id="-342" lat="30.319245" lon="-97.789986" changeset="false"><tag k="addr:street" v="Toreador Drive"/><tag k="addr:housenumber" v="4620"/><tag k="coa:place_id" v="190972"/></node><node id="-343" lat="30.307387" lon="-97.786925" changeset="false"><tag k="addr:street" v="River Garden Trail"/><tag k="addr:housenumber" v="4127"/><tag k="coa:place_id" v="235947"/></node><node id="-344" lat="30.310146" lon="-97.788133" changeset="false"><tag k="addr:street" v="River Garden Trail"/><tag k="addr:housenumber" v="4300"/><tag k="coa:place_id" v="235087"/></node><node id="-345" lat="30.326009" lon="-97.780715" changeset="false"><tag k="addr:street" v="Elohi Drive"/><tag k="addr:housenumber" v="4400"/><tag k="coa:place_id" v="3116477"/></node><node id="-346" lat="30.314729" lon="-97.779162" changeset="false"><tag k="addr:street" v="Westlake Drive"/><tag k="addr:housenumber" v="3101"/><tag k="coa:place_id" v="156620"/></node><node id="-347" lat="30.313786" lon="-97.782694" changeset="false"><tag k="addr:street" v="Trailview Mesa Cove"/><tag k="addr:housenumber" v="2800"/><tag k="coa:place_id" v="150554"/></node><node id="-348" lat="30.298305" lon="-97.787934" changeset="false"><tag k="addr:street" v="Lakeshore Drive"/><tag k="addr:housenumber" v="1705"/><tag k="coa:place_id" v="61761"/></node><node id="-349" lat="30.324406" lon="-97.792832" changeset="false"><tag k="addr:street" v="Toro Canyon Road"/><tag k="addr:housenumber" v="3315"/><tag k="coa:place_id" v="117048"/></node><node id="-350" lat="30.322946" lon="-97.792413" changeset="false"><tag k="addr:street" v="Mantle Drive"/><tag k="addr:housenumber" v="4911"/><tag k="coa:place_id" v="137568"/></node><node id="-351" lat="30.300793" lon="-97.786227" changeset="false"><tag k="addr:street" v="Island Way"/><tag k="addr:housenumber" v="3802"/><tag k="coa:place_id" v="246504"/></node><node id="-352" lat="30.300825" lon="-97.788108" changeset="false"><tag k="addr:street" v="Lakeshore Drive"/><tag k="addr:housenumber" v="1908"/><tag k="coa:place_id" v="247031"/></node><node id="-353" lat="30.30497" lon="-97.782064" changeset="false"><tag k="addr:street" v="Westlake Drive"/><tag k="addr:housenumber" v="2461"/><tag k="coa:place_id" v="156398"/></node><node id="-354" lat="30.304869" lon="-97.781879" changeset="false"><tag k="addr:street" v="Westlake Drive"/><tag k="addr:housenumber" v="2465"/><tag k="coa:place_id" v="3032558"/></node><node id="-355" lat="30.305002" lon="-97.782149" changeset="false"><tag k="addr:street" v="Westlake Drive"/><tag k="addr:housenumber" v="2459"/><tag k="coa:place_id" v="3038364"/></node><node id="-356" lat="30.304907" lon="-97.781942" changeset="false"><tag k="addr:street" v="Westlake Drive"/><tag k="addr:housenumber" v="2463"/><tag k="coa:place_id" v="156404"/></node><node id="-357" lat="30.30468" lon="-97.782191" changeset="false"><tag k="addr:street" v="Westlake Drive"/><tag k="addr:housenumber" v="2423"/><tag k="coa:place_id" v="252425"/></node><node id="-358" lat="30.304657" lon="-97.782089" changeset="false"><tag k="addr:street" v="Westlake Drive"/><tag k="addr:housenumber" v="2421"/><tag k="coa:place_id" v="252421"/></node><node id="-359" lat="30.304631" lon="-97.781967" changeset="false"><tag k="addr:street" v="Westlake Drive"/><tag k="addr:housenumber" v="2419"/><tag k="coa:place_id" v="252420"/></node><node id="-360" lat="30.305139" lon="-97.782356" changeset="false"><tag k="addr:street" v="Westlake Drive"/><tag k="addr:housenumber" v="2455"/><tag k="coa:place_id" v="130465"/></node><node id="-361" lat="30.305084" lon="-97.78227" changeset="false"><tag k="addr:street" v="Westlake Drive"/><tag k="addr:housenumber" v="2457"/><tag k="coa:place_id" v="156326"/></node><node id="-362" lat="30.305188" lon="-97.782439" changeset="false"><tag k="addr:street" v="Westlake Drive"/><tag k="addr:housenumber" v="2453"/><tag k="coa:place_id" v="156314"/></node><node id="-363" lat="30.304399" lon="-97.781966" changeset="false"><tag k="addr:street" v="Westlake Drive"/><tag k="addr:housenumber" v="2417"/><tag k="coa:place_id" v="509973"/></node><node id="-364" lat="30.304335" lon="-97.782043" changeset="false"><tag k="addr:street" v="Westlake Drive"/><tag k="addr:housenumber" v="2415"/><tag k="coa:place_id" v="512259"/></node><node id="-365" lat="30.3043" lon="-97.782304" changeset="false"><tag k="addr:street" v="Westlake Drive"/><tag k="addr:housenumber" v="2411"/><tag k="coa:place_id" v="500781"/></node><node id="-366" lat="30.304282" lon="-97.782413" changeset="false"><tag k="addr:street" v="Westlake Drive"/><tag k="addr:housenumber" v="2409"/><tag k="coa:place_id" v="252417"/></node><node id="-367" lat="30.304323" lon="-97.782201" changeset="false"><tag k="addr:street" v="Westlake Drive"/><tag k="addr:housenumber" v="2413"/><tag k="coa:place_id" v="252419"/></node><node id="-368" lat="30.304265" lon="-97.782798" changeset="false"><tag k="addr:street" v="Westlake Drive"/><tag k="addr:housenumber" v="2403"/><tag k="coa:place_id" v="553491"/></node><node id="-369" lat="30.304275" lon="-97.782573" changeset="false"><tag k="addr:street" v="Westlake Drive"/><tag k="addr:housenumber" v="2407"/><tag k="coa:place_id" v="252415"/></node><node id="-370" lat="30.304275" lon="-97.782672" changeset="false"><tag k="addr:street" v="Westlake Drive"/><tag k="addr:housenumber" v="2405"/><tag k="coa:place_id" v="156405"/></node><node id="-371" lat="30.304275" lon="-97.78289" changeset="false"><tag k="addr:street" v="Westlake Drive"/><tag k="addr:housenumber" v="2401"/><tag k="coa:place_id" v="156338"/></node><node id="-372" lat="30.304576" lon="-97.782933" changeset="false"><tag k="addr:street" v="Westlake Drive"/><tag k="addr:housenumber" v="2435"/><tag k="coa:place_id" v="524109"/></node><node id="-373" lat="30.304658" lon="-97.782974" changeset="false"><tag k="addr:street" v="Westlake Drive"/><tag k="addr:housenumber" v="2437"/><tag k="coa:place_id" v="526245"/></node><node id="-374" lat="30.304501" lon="-97.782876" changeset="false"><tag k="addr:street" v="Westlake Drive"/><tag k="addr:housenumber" v="2433"/><tag k="coa:place_id" v="252429"/></node><node id="-375" lat="30.305338" lon="-97.782598" changeset="false"><tag k="addr:street" v="Westlake Drive"/><tag k="addr:housenumber" v="2451"/><tag k="coa:place_id" v="952976"/></node><node id="-376" lat="30.305172" lon="-97.782698" changeset="false"><tag k="addr:street" v="Westlake Drive"/><tag k="addr:housenumber" v="2447"/><tag k="coa:place_id" v="971114"/></node><node id="-377" lat="30.305264" lon="-97.782644" changeset="false"><tag k="addr:street" v="Westlake Drive"/><tag k="addr:housenumber" v="2449"/><tag k="coa:place_id" v="270651"/></node><node id="-378" lat="30.304666" lon="-97.782382" changeset="false"><tag k="addr:street" v="Westlake Drive"/><tag k="addr:housenumber" v="2425"/><tag k="coa:place_id" v="252426"/></node><node id="-379" lat="30.304564" lon="-97.782687" changeset="false"><tag k="addr:street" v="Westlake Drive"/><tag k="addr:housenumber" v="2431"/><tag k="coa:place_id" v="252427"/></node><node id="-380" lat="30.304635" lon="-97.782476" changeset="false"><tag k="addr:street" v="Westlake Drive"/><tag k="addr:housenumber" v="2427"/><tag k="coa:place_id" v="344397"/></node><node id="-381" lat="30.304598" lon="-97.782577" changeset="false"><tag k="addr:street" v="Westlake Drive"/><tag k="addr:housenumber" v="2429"/><tag k="coa:place_id" v="344415"/></node><node id="-382" lat="30.305066" lon="-97.782766" changeset="false"><tag k="addr:street" v="Westlake Drive"/><tag k="addr:housenumber" v="2445"/><tag k="coa:place_id" v="243255"/></node><node id="-383" lat="30.304983" lon="-97.782827" changeset="false"><tag k="addr:street" v="Westlake Drive"/><tag k="addr:housenumber" v="2443"/><tag k="coa:place_id" v="299349"/></node><node id="-384" lat="30.304891" lon="-97.782881" changeset="false"><tag k="addr:street" v="Westlake Drive"/><tag k="addr:housenumber" v="2441"/><tag k="coa:place_id" v="183579"/></node><node id="-385" lat="30.304811" lon="-97.782954" changeset="false"><tag k="addr:street" v="Westlake Drive"/><tag k="addr:housenumber" v="2439"/><tag k="coa:place_id" v="952598"/></node><node id="-386" lat="30.301103" lon="-97.786732" changeset="false"><tag k="addr:street" v="Island Way"/><tag k="addr:housenumber" v="3803"/><tag k="coa:place_id" v="156236"/></node><node id="-387" lat="30.301058" lon="-97.786704" changeset="false"><tag k="addr:street" v="Island Way"/><tag k="addr:housenumber" v="3801"/><tag k="coa:place_id" v="156230"/></node><node id="-388" lat="30.300403" lon="-97.789986" changeset="false"><tag k="addr:street" v="Westlake Drive"/><tag k="addr:housenumber" v="1943"/><tag k="coa:place_id" v="516393"/></node><node id="-389" lat="30.300366" lon="-97.789932" changeset="false"><tag k="addr:street" v="Westlake Drive"/><tag k="addr:housenumber" v="1945"/><tag k="coa:place_id" v="507015"/></node><node id="-390" lat="30.300208" lon="-97.789709" changeset="false"><tag k="addr:street" v="Westlake Drive"/><tag k="addr:housenumber" v="1953"/><tag k="coa:place_id" v="491781"/></node><node id="-391" lat="30.300172" lon="-97.789592" changeset="false"><tag k="addr:street" v="Westlake Drive"/><tag k="addr:housenumber" v="1957"/><tag k="coa:place_id" v="643030"/></node><node id="-392" lat="30.30024" lon="-97.789702" changeset="false"><tag k="addr:street" v="Westlake Drive"/><tag k="addr:housenumber" v="1951"/><tag k="coa:place_id" v="491775"/></node><node id="-393" lat="30.300198" lon="-97.78965" changeset="false"><tag k="addr:street" v="Westlake Drive"/><tag k="addr:housenumber" v="1955"/><tag k="coa:place_id" v="491787"/></node><node id="-394" lat="30.299777" lon="-97.788993" changeset="false"><tag k="addr:street" v="Laguna Vista Drive"/><tag k="addr:housenumber" v="203"/><tag k="coa:place_id" v="246919"/></node><node id="-395" lat="30.299875" lon="-97.789136" changeset="false"><tag k="addr:street" v="Laguna Vista Drive"/><tag k="addr:housenumber" v="201"/><tag k="coa:place_id" v="156026"/></node></osm>