<?xml version="1.0" encoding="UTF-8"?><osm version="0.6" generator="github.com/aaronlidman/osm-and-geojson"><node id="-1" lat="30.188405" lon="-97.825991" changeset="false"><tag k="addr:street" v="Leo Street"/><tag k="addr:housenumber" v="8811"/><tag k="coa:place_id" v="751424"/></node><node id="-2" lat="30.189237" lon="-97.825682" changeset="false"><tag k="addr:street" v="Leo Street"/><tag k="addr:housenumber" v="8707"/><tag k="coa:place_id" v="430659"/></node><node id="-3" lat="30.181563" lon="-97.82299" changeset="false"><tag k="addr:street" v="Toulouse Drive"/><tag k="addr:housenumber" v="2220"/><tag k="coa:place_id" v="5080442"/></node><node id="-4" lat="30.184637" lon="-97.8219" changeset="false"><tag k="addr:street" v="Mosquero Circle"/><tag k="addr:housenumber" v="8836"/><tag k="coa:place_id" v="139261"/></node><node id="-5" lat="30.186177" lon="-97.819931" changeset="false"><tag k="addr:street" v="Escabosa Drive"/><tag k="addr:housenumber" v="8713"/><tag k="coa:place_id" v="139230"/></node><node id="-6" lat="30.186355" lon="-97.818084" changeset="false"><tag k="addr:street" v="Davis Lane"/><tag k="addr:housenumber" v="2101"/><tag k="coa:place_id" v="197945"/></node><node id="-7" lat="30.179477" lon="-97.820736" changeset="false"><tag k="addr:street" v="Manchaca Road"/><tag k="addr:housenumber" v="9304"/><tag k="coa:place_id" v="1143208"/></node><node id="-8" lat="30.187363" lon="-97.826422" changeset="false"><tag k="addr:street" v="Leo Street"/><tag k="addr:housenumber" v="8819"/><tag k="coa:place_id" v="751412"/></node><node id="-9" lat="30.185074" lon="-97.817405" changeset="false"><tag k="addr:street" v="Manchaca Road"/><tag k="addr:housenumber" v="8700"/><tag k="coa:place_id" v="3188524"/></node><node id="-10" lat="30.182636" lon="-97.821593" changeset="false"><tag k="addr:street" v="Sedgemoor Trail"/><tag k="addr:housenumber" v="9012"/><tag k="coa:place_id" v="254149"/></node><node id="-11" lat="30.187493" lon="-97.820291" changeset="false"><tag k="addr:street" v="Mosquero Circle"/><tag k="addr:housenumber" v="8608"/><tag k="coa:place_id" v="139283"/></node><node id="-12" lat="30.179649" lon="-97.821796" changeset="false"><tag k="addr:street" v="Kempler Drive"/><tag k="addr:housenumber" v="9302"/><tag k="coa:place_id" v="933597"/></node><node id="-13" lat="30.185409" lon="-97.820472" changeset="false"><tag k="addr:street" v="Escabosa Drive"/><tag k="addr:housenumber" v="8805"/><tag k="coa:place_id" v="139254"/></node><node id="-14" lat="30.181462" lon="-97.822786" changeset="false"><tag k="addr:street" v="Toulouse Drive"/><tag k="addr:housenumber" v="2216"/><tag k="coa:place_id" v="3390756"/></node><node id="-15" lat="30.182795" lon="-97.819" changeset="false"><tag k="addr:street" v="Manchaca Road"/><tag k="addr:housenumber" v="8922"/><tag k="coa:place_id" v="3502708"/></node><node id="-16" lat="30.17957" lon="-97.821637" changeset="false"><tag k="addr:street" v="Kempler Drive"/><tag k="addr:housenumber" v="9302 1/2"/><tag k="coa:place_id" v="208981"/></node><node id="-17" lat="30.1884" lon="-97.822371" changeset="false"><tag k="addr:street" v="Davis Lane"/><tag k="addr:housenumber" v="2405"/><tag k="coa:place_id" v="1143513"/></node><node id="-18" lat="30.189701" lon="-97.824718" changeset="false"><tag k="addr:street" v="Davis Lane"/><tag k="addr:housenumber" v="2609"/><tag k="coa:place_id" v="1143511"/></node><node id="-19" lat="30.186916" lon="-97.81881" changeset="false"><tag k="addr:street" v="Davis Lane"/><tag k="addr:housenumber" v="2201 1/2"/><tag k="coa:place_id" v="3145687"/></node><node id="-20" lat="30.186524" lon="-97.819693" changeset="false"><tag k="addr:street" v="Escabosa Drive"/><tag k="addr:housenumber" v="8705"/><tag k="coa:place_id" v="139228"/></node><node id="-21" lat="30.185886" lon="-97.821611" changeset="false"><tag k="addr:street" v="Mosquero Circle"/><tag k="addr:housenumber" v="8804"/><tag k="coa:place_id" v="139272"/></node><node id="-22" lat="30.187182" lon="-97.821248" changeset="false"><tag k="addr:street" v="Rustic Oak Lane"/><tag k="addr:housenumber" v="2304"/><tag k="coa:place_id" v="1143514"/></node><node id="-23" lat="30.187281" lon="-97.819859" changeset="false"><tag k="addr:street" v="Escabosa Drive"/><tag k="addr:housenumber" v="8600"/><tag k="coa:place_id" v="1103708"/></node><node id="-24" lat="30.187249" lon="-97.819904" changeset="false"><tag k="addr:street" v="Mosquero Circle"/><tag k="addr:housenumber" v="8600"/><tag k="coa:place_id" v="136837"/></node><node id="-25" lat="30.186344" lon="-97.826357" changeset="false"><tag k="addr:street" v="Comburg Castle Way"/><tag k="addr:housenumber" v="2600"/><tag k="coa:place_id" v="751016"/></node><node id="-26" lat="30.186295" lon="-97.826267" changeset="false"><tag k="addr:street" v="Collingwood Drive"/><tag k="addr:housenumber" v="8904"/><tag k="coa:place_id" v="1003874"/></node><node id="-27" lat="30.179028" lon="-97.823815" changeset="false"><tag k="addr:street" v="Crownspoint Drive"/><tag k="addr:housenumber" v="2116"/><tag k="coa:place_id" v="799701"/></node><node id="-28" lat="30.179029" lon="-97.823718" changeset="false"><tag k="addr:street" v="Crownspoint Drive"/><tag k="addr:housenumber" v="2114"/><tag k="coa:place_id" v="1143210"/></node></osm>