<?xml version="1.0" encoding="UTF-8"?><osm version="0.6" generator="github.com/aaronlidman/osm-and-geojson"><node id="-1" lat="30.202614" lon="-97.807114" changeset="false"><tag k="addr:street" v="Manchaca Road"/><tag k="addr:housenumber" v="6908"/><tag k="coa:place_id" v="232144"/></node><node id="-2" lat="30.199771" lon="-97.813019" changeset="false"><tag k="addr:street" v="Fuente Cove"/><tag k="addr:housenumber" v="2302"/><tag k="coa:place_id" v="502029"/></node><node id="-3" lat="30.199304" lon="-97.807958" changeset="false"><tag k="addr:street" v="Manchaca Road"/><tag k="addr:housenumber" v="7238"/><tag k="coa:place_id" v="751496"/></node><node id="-4" lat="30.20107" lon="-97.812246" changeset="false"><tag k="addr:street" v="Aldea Drive"/><tag k="addr:housenumber" v="7220"/><tag k="coa:place_id" v="241734"/></node><node id="-5" lat="30.200004" lon="-97.812016" changeset="false"><tag k="addr:street" v="Aldea Drive"/><tag k="addr:housenumber" v="7301"/><tag k="coa:place_id" v="168707"/></node><node id="-6" lat="30.202674" lon="-97.807106" changeset="false"><tag k="addr:street" v="Manchaca Road"/><tag k="addr:housenumber" v="6904"/><tag k="coa:place_id" v="738752"/></node><node id="-7" lat="30.199908" lon="-97.807853" changeset="false"><tag k="addr:street" v="Matthews Lane"/><tag k="addr:housenumber" v="2001"/><tag k="coa:place_id" v="3033713"/></node><node id="-8" lat="30.195416" lon="-97.810435" changeset="false"><tag k="addr:street" v="Manchaca Road"/><tag k="addr:housenumber" v="7614"/><tag k="coa:place_id" v="751520"/></node><node id="-9" lat="30.200347" lon="-97.808379" changeset="false"><tag k="addr:street" v="Matthews Lane"/><tag k="addr:housenumber" v="2005 1/2"/><tag k="coa:place_id" v="247807"/></node><node id="-10" lat="30.197369" lon="-97.814509" changeset="false"><tag k="addr:street" v="Lear Lane"/><tag k="addr:housenumber" v="2213"/><tag k="coa:place_id" v="381153"/></node><node id="-11" lat="30.201379" lon="-97.807426" changeset="false"><tag k="addr:street" v="Mimosa Drive"/><tag k="addr:housenumber" v="2000"/><tag k="coa:place_id" v="209338"/></node><node id="-12" lat="30.20184" lon="-97.811819" changeset="false"><tag k="addr:street" v="Aldea Drive"/><tag k="addr:housenumber" v="7200"/><tag k="coa:place_id" v="168705"/></node><node id="-13" lat="30.197822" lon="-97.811479" changeset="false"><tag k="addr:street" v="Trede Cove"/><tag k="addr:housenumber" v="7407"/><tag k="coa:place_id" v="435807"/></node><node id="-14" lat="30.19786" lon="-97.812193" changeset="false"><tag k="addr:street" v="Trede Drive"/><tag k="addr:housenumber" v="2114"/><tag k="coa:place_id" v="454155"/></node><node id="-15" lat="30.202703" lon="-97.807102" changeset="false"><tag k="addr:street" v="Manchaca Road"/><tag k="addr:housenumber" v="6902"/><tag k="coa:place_id" v="739040"/></node><node id="-16" lat="30.19696" lon="-97.815699" changeset="false"><tag k="addr:street" v="Gaines Mill Cove"/><tag k="addr:housenumber" v="2303"/><tag k="coa:place_id" v="218169"/></node><node id="-17" lat="30.201323" lon="-97.81088" changeset="false"><tag k="addr:street" v="Matthews Lane"/><tag k="addr:housenumber" v="2203"/><tag k="coa:place_id" v="738836"/></node><node id="-18" lat="30.202039" lon="-97.808808" changeset="false"><tag k="addr:street" v="Mimosa Drive"/><tag k="addr:housenumber" v="2102"/><tag k="coa:place_id" v="739004"/></node><node id="-19" lat="30.202733" lon="-97.807098" changeset="false"><tag k="addr:street" v="Manchaca Road"/><tag k="addr:housenumber" v="6900"/><tag k="coa:place_id" v="240448"/></node><node id="-20" lat="30.201552" lon="-97.811991" changeset="false"><tag k="addr:street" v="Aldea Drive"/><tag k="addr:housenumber" v="7208"/><tag k="coa:place_id" v="166487"/></node><node id="-21" lat="30.197588" lon="-97.814869" changeset="false"><tag k="addr:street" v="Lear Lane"/><tag k="addr:housenumber" v="2301"/><tag k="coa:place_id" v="517641"/></node><node id="-22" lat="30.200938" lon="-97.81002" changeset="false"><tag k="addr:street" v="Matthews Lane"/><tag k="addr:housenumber" v="2107"/><tag k="coa:place_id" v="1144422"/></node><node id="-23" lat="30.195819" lon="-97.813044" changeset="false"><tag k="addr:street" v="Malvern Hill Drive"/><tag k="addr:housenumber" v="2108"/><tag k="coa:place_id" v="118179"/></node><node id="-24" lat="30.200971" lon="-97.808881" changeset="false"><tag k="addr:street" v="Matthews Lane"/><tag k="addr:housenumber" v="2100"/><tag k="coa:place_id" v="3033712"/></node><node id="-25" lat="30.201335" lon="-97.807301" changeset="false"><tag k="addr:street" v="Manchaca Road"/><tag k="addr:housenumber" v="7002"/><tag k="coa:place_id" v="3038356"/></node><node id="-26" lat="30.196291" lon="-97.812832" changeset="false"><tag k="addr:street" v="Malvern Hill Court"/><tag k="addr:housenumber" v="7701"/><tag k="coa:place_id" v="118155"/></node><node id="-27" lat="30.202149" lon="-97.812854" changeset="false"><tag k="addr:street" v="Southwind Drive"/><tag k="addr:housenumber" v="7202"/><tag k="coa:place_id" v="742190"/></node><node id="-28" lat="30.196971" lon="-97.815391" changeset="false"><tag k="addr:street" v="Gaines Mill Lane"/><tag k="addr:housenumber" v="7708"/><tag k="coa:place_id" v="226893"/></node><node id="-29" lat="30.19692" lon="-97.81532" changeset="false"><tag k="addr:street" v="Gaines Mill Cove"/><tag k="addr:housenumber" v="2301"/><tag k="coa:place_id" v="1143650"/></node></osm>