<?xml version="1.0" encoding="UTF-8"?><osm version="0.6" generator="github.com/aaronlidman/osm-and-geojson"><node id="-1" lat="30.421364" lon="-97.624493" changeset="false"><tag k="addr:street" v="Rendova Lane"/><tag k="addr:housenumber" v="1704"/></node><node id="-2" lat="30.425963" lon="-97.621574" changeset="false"><tag k="addr:street" v="Purple Martin Court"/><tag k="addr:housenumber" v="900"/></node><node id="-3" lat="30.426383" lon="-97.621117" changeset="false"><tag k="addr:street" v="Olympic Drive,1100"/><tag k="addr:housenumber" v="803"/></node><node id="-4" lat="30.419962" lon="-97.621371" changeset="false"><tag k="addr:street" v="Rendova Lane"/><tag k="addr:housenumber" v="1904"/></node><node id="-5" lat="30.431516" lon="-97.616857" changeset="false"><tag k="addr:street" v="Botany Bay Circle"/><tag k="addr:housenumber" v="701"/></node><node id="-6" lat="30.431095" lon="-97.616348" changeset="false"><tag k="addr:street" v="Sykes Court"/><tag k="addr:housenumber" v="803"/></node><node id="-7" lat="30.435925" lon="-97.617846" changeset="false"><tag k="addr:street" v="Willow Street"/><tag k="addr:housenumber" v="308"/></node><node id="-8" lat="30.43262" lon="-97.613651" changeset="false"><tag k="addr:street" v="Cabriole Drive"/><tag k="addr:housenumber" v="907"/></node><node id="-9" lat="30.437586" lon="-97.622017" changeset="false"><tag k="addr:street" v="East Hoopes Avenue"/><tag k="addr:housenumber" v="100"/></node><node id="-10" lat="30.437062" lon="-97.622977" changeset="false"><tag k="addr:street" v="South 1st Street"/><tag k="addr:housenumber" v="402"/></node><node id="-11" lat="30.433505" lon="-97.628906" changeset="false"><tag k="addr:street" v="Brown Drive"/><tag k="addr:housenumber" v="706"/></node><node id="-12" lat="30.434102" lon="-97.612966" changeset="false"><tag k="addr:street" v="Bellaire Oaks Drive"/><tag k="addr:housenumber" v="402"/></node><node id="-13" lat="30.431369" lon="-97.616332" changeset="false"><tag k="addr:street" v="Sykes Court"/><tag k="addr:housenumber" v="801"/></node><node id="-14" lat="30.436982" lon="-97.617388" changeset="false"><tag k="addr:street" v="Willow Street"/><tag k="addr:housenumber" v="200"/></node><node id="-15" lat="30.420271" lon="-97.621846" changeset="false"><tag k="addr:street" v="Rendova Lane"/><tag k="addr:housenumber" v="1900"/></node><node id="-16" lat="30.432851" lon="-97.613391" changeset="false"><tag k="addr:street" v="Cabriole Drive"/><tag k="addr:housenumber" v="908"/></node><node id="-17" lat="30.434094" lon="-97.613908" changeset="false"><tag k="addr:street" v="Bellaire Oaks Drive"/><tag k="addr:housenumber" v="410"/></node><node id="-18" lat="30.433924" lon="-97.614094" changeset="false"><tag k="addr:street" v="Bellaire Oaks Drive"/><tag k="addr:housenumber" v="412"/></node><node id="-19" lat="30.436089" lon="-97.623153" changeset="false"><tag k="addr:street" v="East Walter Avenue"/><tag k="addr:housenumber" v="102"/></node><node id="-20" lat="30.436201" lon="-97.621199" changeset="false"><tag k="addr:street" v="East Noton Street"/><tag k="addr:housenumber" v="206"/></node><node id="-21" lat="30.440259" lon="-97.628222" changeset="false"><tag k="addr:street" v="9th Street"/><tag k="addr:housenumber" v="305"/></node><node id="-22" lat="30.434778" lon="-97.614735" changeset="false"><tag k="addr:street" v="Dessau Road"/><tag k="addr:housenumber" v="16123"/></node><node id="-23" lat="30.43509" lon="-97.629462" changeset="false"><tag k="addr:street" v="Cornell Drive"/><tag k="addr:housenumber" v="606"/></node><node id="-24" lat="30.433021" lon="-97.630921" changeset="false"><tag k="addr:street" v="Mountain View Drive"/><tag k="addr:housenumber" v="801"/></node><node id="-25" lat="30.44" lon="-97.621512" changeset="false"><tag k="addr:street" v="West Pecan Street"/><tag k="addr:housenumber" v="103"/></node><node id="-26" lat="30.435528" lon="-97.62325" changeset="false"><tag k="addr:street" v="East Walter Avenue"/><tag k="addr:housenumber" v="105"/></node><node id="-27" lat="30.431814" lon="-97.615365" changeset="false"><tag k="addr:street" v="Bellaire Oaks Drive"/><tag k="addr:housenumber" v="513"/></node><node id="-28" lat="30.430307" lon="-97.618783" changeset="false"><tag k="addr:street" v="Windsor Hill Drive"/><tag k="addr:housenumber" v="808"/></node><node id="-29" lat="30.42454" lon="-97.620417" changeset="false"><tag k="addr:street" v="Skylark Hill Lane"/><tag k="addr:housenumber" v="1016"/></node><node id="-30" lat="30.43265" lon="-97.614816" changeset="false"><tag k="addr:street" v="Bellaire Oaks Drive"/><tag k="addr:housenumber" v="506"/></node><node id="-31" lat="30.421028" lon="-97.623553" changeset="false"><tag k="addr:street" v="Rendova Lane"/><tag k="addr:housenumber" v="1714"/></node><node id="-32" lat="30.425668" lon="-97.616909" changeset="false"><tag k="addr:street" v="Stansted Manor Drive"/><tag k="addr:housenumber" v="425"/></node><node id="-33" lat="30.430283" lon="-97.615561" changeset="false"><tag k="addr:street" v="Stansted Manor Drive"/><tag k="addr:housenumber" v="721"/></node><node id="-34" lat="30.432132" lon="-97.617775" changeset="false"><tag k="addr:street" v="Botany Bay Circle"/><tag k="addr:housenumber" v="711"/></node><node id="-35" lat="30.435452" lon="-97.622804" changeset="false"><tag k="addr:street" v="South Railroad Avenue"/><tag k="addr:housenumber" v="600"/></node><node id="-36" lat="30.429924" lon="-97.615904" changeset="false"><tag k="addr:street" v="Stansted Manor Drive"/><tag k="addr:housenumber" v="724"/></node><node id="-37" lat="30.430987" lon="-97.621599" changeset="false"><tag k="addr:street" v="Dessau Road"/><tag k="addr:housenumber" v="15711"/></node><node id="-38" lat="30.424198" lon="-97.625857" changeset="false"><tag k="addr:street" v="Wells Branch Parkway"/><tag k="addr:housenumber" v="1605"/></node><node id="-39" lat="30.434887" lon="-97.611061" changeset="false"><tag k="addr:street" v="East Pecan Street"/><tag k="addr:housenumber" v="1009"/></node><node id="-40" lat="30.420465" lon="-97.620331" changeset="false"><tag k="addr:street" v="Immanuel Road"/><tag k="addr:housenumber" v="1308"/></node><node id="-41" lat="30.419725" lon="-97.620825" changeset="false"><tag k="addr:street" v="Rendova Lane"/><tag k="addr:housenumber" v="2000"/></node><node id="-42" lat="30.425889" lon="-97.619218" changeset="false"><tag k="addr:street" v="Skylark Hill Lane"/><tag k="addr:housenumber" v="911"/></node><node id="-43" lat="30.432978" lon="-97.61724" changeset="false"><tag k="addr:street" v="Botany Bay Circle"/><tag k="addr:housenumber" v="715"/></node><node id="-44" lat="30.432222" lon="-97.617402" changeset="false"><tag k="addr:street" v="Botany Bay Circle"/><tag k="addr:housenumber" v="708"/></node><node id="-45" lat="30.433813" lon="-97.612838" changeset="false"><tag k="addr:street" v="Bellaire Oaks Drive"/><tag k="addr:housenumber" v="401"/></node><node id="-46" lat="30.424994" lon="-97.621255" changeset="false"><tag k="addr:street" v="Olympic Drive,1100"/><tag k="addr:housenumber" v="907"/></node><node id="-47" lat="30.432312" lon="-97.615098" changeset="false"><tag k="addr:street" v="Bellaire Oaks Drive"/><tag k="addr:housenumber" v="510"/></node><node id="-48" lat="30.424515" lon="-97.622158" changeset="false"><tag k="addr:street" v="Purple Martin Drive"/><tag k="addr:housenumber" v="803"/></node><node id="-49" lat="30.42458" lon="-97.618107" changeset="false"><tag k="addr:street" v="Immanuel Road"/><tag k="addr:housenumber" v="1010"/></node><node id="-50" lat="30.426199" lon="-97.62092" changeset="false"><tag k="addr:street" v="Olympic Drive,1100"/><tag k="addr:housenumber" v="805"/></node><node id="-51" lat="30.424359" lon="-97.620528" changeset="false"><tag k="addr:street" v="Skylark Hill Lane"/><tag k="addr:housenumber" v="1018"/></node><node id="-52" lat="30.43784" lon="-97.622519" changeset="false"><tag k="addr:street" v="South 1st Street"/><tag k="addr:housenumber" v="304"/></node><node id="-53" lat="30.436646" lon="-97.620938" changeset="false"><tag k="addr:street" v="East Hoopes Avenue"/><tag k="addr:housenumber" v="205"/></node><node id="-54" lat="30.436281" lon="-97.621374" changeset="false"><tag k="addr:street" v="East Noton Street"/><tag k="addr:housenumber" v="204"/></node><node id="-55" lat="30.435461" lon="-97.623365" changeset="false"><tag k="addr:street" v="East Walter Avenue"/><tag k="addr:housenumber" v="103"/></node><node id="-56" lat="30.431608" lon="-97.615947" changeset="false"><tag k="addr:street" v="Sykes Court"/><tag k="addr:housenumber" v="800"/></node><node id="-57" lat="30.435124" lon="-97.623072" changeset="false"><tag k="addr:street" v="South Railroad Avenue"/><tag k="addr:housenumber" v="602 1/2"/></node><node id="-58" lat="30.433934" lon="-97.626558" changeset="false"><tag k="addr:street" v="Settlers Valley Drive"/><tag k="addr:housenumber" v="418"/></node><node id="-59" lat="30.428105" lon="-97.620544" changeset="false"><tag k="addr:street" v="Stansted Manor Drive"/><tag k="addr:housenumber" v="301"/></node><node id="-60" lat="30.429243" lon="-97.617515" changeset="false"><tag k="addr:street" v="Windsor Hill Drive"/><tag k="addr:housenumber" v="904"/></node><node id="-61" lat="30.431383" lon="-97.615926" changeset="false"><tag k="addr:street" v="Sykes Court"/><tag k="addr:housenumber" v="802"/></node><node id="-62" lat="30.435923" lon="-97.617902" changeset="false"><tag k="addr:street" v="Willow Street"/><tag k="addr:housenumber" v="304"/></node><node id="-63" lat="30.424436" lon="-97.621936" changeset="false"><tag k="addr:street" v="Purple Martin Drive"/><tag k="addr:housenumber" v="805"/></node><node id="-64" lat="30.42068" lon="-97.622836" changeset="false"><tag k="addr:street" v="Rendova Lane"/><tag k="addr:housenumber" v="1800"/></node><node id="-65" lat="30.426009" lon="-97.62074" changeset="false"><tag k="addr:street" v="Olympic Drive,1100"/><tag k="addr:housenumber" v="807"/></node><node id="-66" lat="30.43595" lon="-97.617826" changeset="false"><tag k="addr:street" v="Willow Street"/><tag k="addr:housenumber" v="302"/></node><node id="-67" lat="30.425948" lon="-97.619608" changeset="false"><tag k="addr:street" v="Skylark Hill Lane"/><tag k="addr:housenumber" v="907"/></node><node id="-68" lat="30.424879" lon="-97.62018" changeset="false"><tag k="addr:street" v="Skylark Hill Lane"/><tag k="addr:housenumber" v="1012"/></node><node id="-69" lat="30.424717" lon="-97.620317" changeset="false"><tag k="addr:street" v="Skylark Hill Lane"/><tag k="addr:housenumber" v="1014"/></node><node id="-70" lat="30.422464" lon="-97.626703" changeset="false"><tag k="addr:street" v="Rendova Lane"/><tag k="addr:housenumber" v="1604"/></node><node id="-71" lat="30.431177" lon="-97.615877" changeset="false"><tag k="addr:street" v="Sykes Court"/><tag k="addr:housenumber" v="804"/></node><node id="-72" lat="30.432159" lon="-97.61531" changeset="false"><tag k="addr:street" v="Bellaire Oaks Drive"/><tag k="addr:housenumber" v="512"/></node><node id="-73" lat="30.439875" lon="-97.626595" changeset="false"><tag k="addr:street" v="7th Street"/><tag k="addr:housenumber" v="303"/></node><node id="-74" lat="30.436885" lon="-97.620547" changeset="false"><tag k="addr:street" v="East Hoopes Avenue"/><tag k="addr:housenumber" v="208"/></node><node id="-75" lat="30.437519" lon="-97.6262" changeset="false"><tag k="addr:street" v="West Walter Avenue"/><tag k="addr:housenumber" v="402"/></node><node id="-76" lat="30.438789" lon="-97.629894" changeset="false"><tag k="addr:street" v="West Walter Avenue"/><tag k="addr:housenumber" v="903"/></node><node id="-77" lat="30.437608" lon="-97.616422" changeset="false"><tag k="addr:street" v="East Pecan Street"/><tag k="addr:housenumber" v="601"/></node><node id="-78" lat="30.4382" lon="-97.621013" changeset="false"><tag k="addr:street" v="South Railroad Avenue"/><tag k="addr:housenumber" v="202"/></node><node id="-79" lat="30.435864" lon="-97.62272" changeset="false"><tag k="addr:street" v="East Walter Avenue"/><tag k="addr:housenumber" v="106"/></node><node id="-80" lat="30.433705" lon="-97.631065" changeset="false"><tag k="addr:street" v="Mountain View Drive"/><tag k="addr:housenumber" v="804"/></node><node id="-81" lat="30.436511" lon="-97.625118" changeset="false"><tag k="addr:street" v="West Walter Avenue"/><tag k="addr:housenumber" v="205"/></node><node id="-82" lat="30.434219" lon="-97.615395" changeset="false"><tag k="addr:street" v="Dessau Road"/><tag k="addr:housenumber" v="16051"/></node><node id="-83" lat="30.432175" lon="-97.616096" changeset="false"><tag k="addr:street" v="Botany Bay Circle"/><tag k="addr:housenumber" v="720"/></node><node id="-84" lat="30.432954" lon="-97.616994" changeset="false"><tag k="addr:street" v="Botany Bay Circle"/><tag k="addr:housenumber" v="717"/></node><node id="-85" lat="30.432812" lon="-97.614717" changeset="false"><tag k="addr:street" v="Bellaire Oaks Drive"/><tag k="addr:housenumber" v="504"/></node><node id="-86" lat="30.433551" lon="-97.6143" changeset="false"><tag k="addr:street" v="Bellaire Oaks Drive"/><tag k="addr:housenumber" v="416"/></node><node id="-87" lat="30.439965" lon="-97.628359" changeset="false"><tag k="addr:street" v="9th Street"/><tag k="addr:housenumber" v="307"/></node><node id="-88" lat="30.440601" lon="-97.628932" changeset="false"><tag k="addr:street" v="10th Street"/><tag k="addr:housenumber" v="305"/></node><node id="-89" lat="30.435267" lon="-97.622382" changeset="false"><tag k="addr:street" v="South Railroad Avenue"/><tag k="addr:housenumber" v="601"/></node><node id="-90" lat="30.43468" lon="-97.620963" changeset="false"><tag k="addr:street" v="Geyser Avenue"/><tag k="addr:housenumber" v="601"/></node><node id="-91" lat="30.430326" lon="-97.615967" changeset="false"><tag k="addr:street" v="Stansted Manor Drive"/><tag k="addr:housenumber" v="725"/></node><node id="-92" lat="30.428237" lon="-97.61537" changeset="false"><tag k="addr:street" v="Immanuel Road"/><tag k="addr:housenumber" v="700"/></node><node id="-93" lat="30.422098" lon="-97.625893" changeset="false"><tag k="addr:street" v="Rendova Lane"/><tag k="addr:housenumber" v="1612"/></node><node id="-94" lat="30.436638" lon="-97.618484" changeset="false"><tag k="addr:street" v="East Pfluger Street"/><tag k="addr:housenumber" v="497"/></node><node id="-95" lat="30.427276" lon="-97.620657" changeset="false"><tag k="addr:street" v="Swallow Ridge Cove"/><tag k="addr:housenumber" v="900"/></node><node id="-96" lat="30.438138" lon="-97.622329" changeset="false"><tag k="addr:street" v="South 1st Street"/><tag k="addr:housenumber" v="302"/></node><node id="-97" lat="30.42468" lon="-97.622352" changeset="false"><tag k="addr:street" v="Purple Martin Drive"/><tag k="addr:housenumber" v="801"/></node><node id="-98" lat="30.42169" lon="-97.625178" changeset="false"><tag k="addr:street" v="Rendova Lane"/><tag k="addr:housenumber" v="1620"/></node><node id="-99" lat="30.42152" lon="-97.624848" changeset="false"><tag k="addr:street" v="Rendova Lane"/><tag k="addr:housenumber" v="1700"/></node><node id="-100" lat="30.436176" lon="-97.619992" changeset="false"><tag k="addr:street" v="Geyser Avenue"/><tag k="addr:housenumber" v="405"/></node><node id="-101" lat="30.429667" lon="-97.624502" changeset="false"><tag k="addr:street" v="Mountain View Drive"/><tag k="addr:housenumber" v="99"/></node><node id="-102" lat="30.438604" lon="-97.619034" changeset="false"><tag k="addr:street" v="Wren Avenue"/><tag k="addr:housenumber" v="101"/></node><node id="-103" lat="30.433663" lon="-97.628798" changeset="false"><tag k="addr:street" v="Brown Drive"/><tag k="addr:housenumber" v="704"/></node><node id="-104" lat="30.438288" lon="-97.623477" changeset="false"><tag k="addr:street" v="West Hoopes Avenue"/><tag k="addr:housenumber" v="200"/></node><node id="-105" lat="30.438506" lon="-97.621643" changeset="false"><tag k="addr:street" v="South 1st Street"/><tag k="addr:housenumber" v="203"/></node><node id="-106" lat="30.436474" lon="-97.622817" changeset="false"><tag k="addr:street" v="East Noton Street"/><tag k="addr:housenumber" v="101"/></node><node id="-107" lat="30.436468" lon="-97.624112" changeset="false"><tag k="addr:street" v="West Walter Avenue"/><tag k="addr:housenumber" v="108"/></node><node id="-108" lat="30.420862" lon="-97.623223" changeset="false"><tag k="addr:street" v="Rendova Lane"/><tag k="addr:housenumber" v="1718"/></node><node id="-109" lat="30.429921" lon="-97.61792" changeset="false"><tag k="addr:street" v="Bassington Court"/><tag k="addr:housenumber" v="804"/></node><node id="-110" lat="30.433362" lon="-97.614402" changeset="false"><tag k="addr:street" v="Bellaire Oaks Drive"/><tag k="addr:housenumber" v="418"/></node><node id="-111" lat="30.43364" lon="-97.612901" changeset="false"><tag k="addr:street" v="Bellaire Oaks Drive"/><tag k="addr:housenumber" v="403"/></node><node id="-112" lat="30.442879" lon="-97.627676" changeset="false"><tag k="addr:street" v="West Pecan Street"/><tag k="addr:housenumber" v="907"/></node><node id="-113" lat="30.425055" lon="-97.62008" changeset="false"><tag k="addr:street" v="Skylark Hill Lane"/><tag k="addr:housenumber" v="1010"/></node><node id="-114" lat="30.43165" lon="-97.617047" changeset="false"><tag k="addr:street" v="Botany Bay Circle"/><tag k="addr:housenumber" v="703"/></node><node id="-115" lat="30.427092" lon="-97.62077" changeset="false"><tag k="addr:street" v="Swallow Ridge Cove"/><tag k="addr:housenumber" v="902"/></node><node id="-116" lat="30.43292" lon="-97.632011" changeset="false"><tag k="addr:street" v="Olympic Drive,1100"/><tag k="addr:housenumber" v="900 1/2"/></node><node id="-117" lat="30.432999" lon="-97.613458" changeset="false"><tag k="addr:street" v="Cabriole Drive"/><tag k="addr:housenumber" v="906"/></node><node id="-118" lat="30.432725" lon="-97.613823" changeset="false"><tag k="addr:street" v="Cabriole Drive"/><tag k="addr:housenumber" v="905"/></node><node id="-119" lat="30.428587" lon="-97.614796" changeset="false"><tag k="addr:street" v="East Oxford Drive"/><tag k="addr:housenumber" v="1107"/></node><node id="-120" lat="30.434158" lon="-97.613198" changeset="false"><tag k="addr:street" v="Bellaire Oaks Drive"/><tag k="addr:housenumber" v="404"/></node><node id="-121" lat="30.425408" lon="-97.619853" changeset="false"><tag k="addr:street" v="Skylark Hill Lane"/><tag k="addr:housenumber" v="1006"/></node><node id="-122" lat="30.432475" lon="-97.614936" changeset="false"><tag k="addr:street" v="Bellaire Oaks Drive"/><tag k="addr:housenumber" v="508"/></node><node id="-123" lat="30.42581" lon="-97.621777" changeset="false"><tag k="addr:street" v="Purple Martin Court"/><tag k="addr:housenumber" v="902"/></node><node id="-124" lat="30.426697" lon="-97.620643" changeset="false"><tag k="addr:street" v="Swallow Ridge Cove"/><tag k="addr:housenumber" v="906"/></node><node id="-125" lat="30.433064" lon="-97.613625" changeset="false"><tag k="addr:street" v="Cabriole Drive"/><tag k="addr:housenumber" v="904"/></node><node id="-126" lat="30.430978" lon="-97.616183" changeset="false"><tag k="addr:street" v="Sykes Court"/><tag k="addr:housenumber" v="805"/></node><node id="-127" lat="30.434185" lon="-97.613425" changeset="false"><tag k="addr:street" v="Bellaire Oaks Drive"/><tag k="addr:housenumber" v="406"/></node><node id="-128" lat="30.433148" lon="-97.61385" changeset="false"><tag k="addr:street" v="Cabriole Drive"/><tag k="addr:housenumber" v="902"/></node><node id="-129" lat="30.432922" lon="-97.627158" changeset="false"><tag k="addr:street" v="Settlers Valley Drive"/><tag k="addr:housenumber" v="410"/></node><node id="-130" lat="30.435781" lon="-97.62334" changeset="false"><tag k="addr:street" v="East Walter Avenue"/><tag k="addr:housenumber" v="101"/></node><node id="-131" lat="30.435681" lon="-97.622118" changeset="false"><tag k="addr:street" v="South Railroad Avenue"/><tag k="addr:housenumber" v="503"/></node><node id="-132" lat="30.437251" lon="-97.622312" changeset="false"><tag k="addr:street" v="East Hoopes Avenue"/><tag k="addr:housenumber" v="101"/></node><node id="-133" lat="30.439478" lon="-97.620416" changeset="false"><tag k="addr:street" v="East Pecan Street"/><tag k="addr:housenumber" v="113"/></node><node id="-134" lat="30.439534" lon="-97.620558" changeset="false"><tag k="addr:street" v="East Pecan Street"/><tag k="addr:housenumber" v="109"/></node><node id="-135" lat="30.4368" lon="-97.624724" changeset="false"><tag k="addr:street" v="West Walter Avenue"/><tag k="addr:housenumber" v="206"/></node><node id="-136" lat="30.43684" lon="-97.624821" changeset="false"><tag k="addr:street" v="West Walter Avenue"/><tag k="addr:housenumber" v="208"/></node><node id="-137" lat="30.4367" lon="-97.624467" changeset="false"><tag k="addr:street" v="West Walter Avenue"/><tag k="addr:housenumber" v="200"/></node><node id="-138" lat="30.436711" lon="-97.62454" changeset="false"><tag k="addr:street" v="West Walter Avenue"/><tag k="addr:housenumber" v="202"/></node></osm>