<?xml version="1.0" encoding="UTF-8"?><osm version="0.6" generator="github.com/aaronlidman/osm-and-geojson"><node id="-1" lat="30.378604" lon="-97.711201" changeset="false"><tag k="addr:street" v="Rutland Drive"/><tag k="addr:housenumber" v="1812"/><tag k="addr:postcode" v="78758"/></node><node id="-2" lat="30.383602" lon="-97.715658" changeset="false"><tag k="addr:street" v="Energy Drive"/><tag k="addr:housenumber" v="2121"/><tag k="addr:postcode" v="78758"/></node><node id="-3" lat="30.383422" lon="-97.712701" changeset="false"><tag k="addr:street" v="Boyer Boulevard"/><tag k="addr:housenumber" v="10507"/><tag k="addr:postcode" v="78758"/></node><node id="-4" lat="30.383217" lon="-97.717856" changeset="false"><tag k="addr:street" v="Metropolitan Drive"/><tag k="addr:housenumber" v="10208"/><tag k="addr:postcode" v="78758"/></node><node id="-5" lat="30.381367" lon="-97.714074" changeset="false"><tag k="addr:street" v="Centimeter Circle"/><tag k="addr:housenumber" v="2036"/><tag k="addr:postcode" v="78758"/></node><node id="-6" lat="30.381955" lon="-97.701887" changeset="false"><tag k="addr:street" v="Macmora Road"/><tag k="addr:housenumber" v="10706"/><tag k="addr:postcode" v="78758"/></node><node id="-7" lat="30.381789" lon="-97.703042" changeset="false"><tag k="addr:street" v="Macmora Road"/><tag k="addr:housenumber" v="10625"/><tag k="addr:postcode" v="78758"/></node><node id="-8" lat="30.381464" lon="-97.713483" changeset="false"><tag k="addr:street" v="Centimeter Circle"/><tag k="addr:housenumber" v="2012"/><tag k="addr:postcode" v="78758"/></node><node id="-9" lat="30.381279" lon="-97.7047" changeset="false"><tag k="addr:street" v="Pine Knoll Drive"/><tag k="addr:housenumber" v="1614"/><tag k="addr:postcode" v="78758"/></node><node id="-10" lat="30.38226" lon="-97.71771" changeset="false"><tag k="addr:street" v="Metropolitan Drive"/><tag k="addr:housenumber" v="10139"/><tag k="addr:postcode" v="78758"/></node><node id="-11" lat="30.387881" lon="-97.71336" changeset="false"><tag k="addr:street" v="Donley Drive"/><tag k="addr:housenumber" v="2111"/><tag k="addr:postcode" v="78758"/></node><node id="-12" lat="30.386842" lon="-97.708293" changeset="false"><tag k="addr:street" v="Kramer Lane"/><tag k="addr:housenumber" v="1835"/><tag k="addr:postcode" v="78758"/></node><node id="-13" lat="30.383617" lon="-97.717842" changeset="false"><tag k="addr:street" v="Metropolitan Drive"/><tag k="addr:housenumber" v="10220"/><tag k="addr:postcode" v="78758"/></node><node id="-14" lat="30.381258" lon="-97.713852" changeset="false"><tag k="addr:street" v="Centimeter Circle"/><tag k="addr:housenumber" v="2016"/><tag k="addr:postcode" v="78758"/></node><node id="-15" lat="30.382019" lon="-97.703747" changeset="false"><tag k="addr:street" v="Macmora Road"/><tag k="addr:housenumber" v="10615"/><tag k="addr:postcode" v="78758"/></node><node id="-16" lat="30.383111" lon="-97.717456" changeset="false"><tag k="addr:street" v="Metropolitan Drive"/><tag k="addr:housenumber" v="10207"/><tag k="addr:postcode" v="78758"/></node><node id="-17" lat="30.3829" lon="-97.71745" changeset="false"><tag k="addr:street" v="Metropolitan Drive"/><tag k="addr:housenumber" v="10203"/><tag k="addr:postcode" v="78758"/></node><node id="-18" lat="30.38128" lon="-97.713896" changeset="false"><tag k="addr:street" v="Centimeter Circle"/><tag k="addr:housenumber" v="2020"/><tag k="addr:postcode" v="78758"/></node><node id="-19" lat="30.384" lon="-97.715775" changeset="false"><tag k="addr:street" v="Energy Drive"/><tag k="addr:housenumber" v="2124 1/2"/><tag k="addr:postcode" v="78758"/></node><node id="-20" lat="30.381323" lon="-97.713985" changeset="false"><tag k="addr:street" v="Centimeter Circle"/><tag k="addr:housenumber" v="2028"/><tag k="addr:postcode" v="78758"/></node><node id="-21" lat="30.382546" lon="-97.71763" changeset="false"><tag k="addr:street" v="Metropolitan Drive"/><tag k="addr:housenumber" v="10165"/><tag k="addr:postcode" v="78758"/></node><node id="-22" lat="30.381977" lon="-97.702553" changeset="false"><tag k="addr:street" v="Macmora Road"/><tag k="addr:housenumber" v="10700"/><tag k="addr:postcode" v="78758"/></node><node id="-23" lat="30.381457" lon="-97.713412" changeset="false"><tag k="addr:street" v="Centimeter Circle"/><tag k="addr:housenumber" v="2010"/><tag k="addr:postcode" v="78758"/></node><node id="-24" lat="30.390683" lon="-97.716195" changeset="false"><tag k="addr:street" v="West Braker Lane"/><tag k="addr:housenumber" v="2400"/><tag k="addr:postcode" v="78758"/></node><node id="-25" lat="30.387393" lon="-97.710553" changeset="false"><tag k="addr:street" v="Metric Boulevard"/><tag k="addr:housenumber" v="10801"/><tag k="addr:postcode" v="78758"/></node><node id="-26" lat="30.382788" lon="-97.707265" changeset="false"><tag k="addr:street" v="Macmora Road"/><tag k="addr:housenumber" v="10501"/><tag k="addr:postcode" v="78758"/></node><node id="-27" lat="30.382213" lon="-97.717722" changeset="false"><tag k="addr:street" v="Metropolitan Drive"/><tag k="addr:housenumber" v="10135"/><tag k="addr:postcode" v="78758"/></node><node id="-28" lat="30.38331" lon="-97.711018" changeset="false"><tag k="addr:street" v="Mearns Meadow Boulevard"/><tag k="addr:housenumber" v="1904"/><tag k="addr:postcode" v="78758"/></node><node id="-29" lat="30.384653" lon="-97.716516" changeset="false"><tag k="addr:street" v="Energy Drive"/><tag k="addr:housenumber" v="2208"/><tag k="addr:postcode" v="78758"/></node><node id="-30" lat="30.381301" lon="-97.713941" changeset="false"><tag k="addr:street" v="Centimeter Circle"/><tag k="addr:housenumber" v="2024"/><tag k="addr:postcode" v="78758"/></node><node id="-31" lat="30.382777" lon="-97.717436" changeset="false"><tag k="addr:street" v="Metropolitan Drive"/><tag k="addr:housenumber" v="10201"/><tag k="addr:postcode" v="78758"/></node><node id="-32" lat="30.388422" lon="-97.710169" changeset="false"><tag k="addr:street" v="Kramer Lane"/><tag k="addr:housenumber" v="2001"/><tag k="addr:postcode" v="78758"/></node><node id="-33" lat="30.381345" lon="-97.714029" changeset="false"><tag k="addr:street" v="Centimeter Circle"/><tag k="addr:housenumber" v="2032"/><tag k="addr:postcode" v="78758"/></node><node id="-34" lat="30.38129" lon="-97.713918" changeset="false"><tag k="addr:street" v="Centimeter Circle"/><tag k="addr:housenumber" v="2022"/><tag k="addr:postcode" v="78758"/></node><node id="-35" lat="30.382075" lon="-97.714834" changeset="false"><tag k="addr:street" v="Metric Boulevard"/><tag k="addr:housenumber" v="10212"/><tag k="addr:postcode" v="78758"/></node><node id="-36" lat="30.383231" lon="-97.717314" changeset="false"><tag k="addr:street" v="Metropolitan Drive"/><tag k="addr:housenumber" v="10209"/><tag k="addr:postcode" v="78758"/></node><node id="-37" lat="30.388439" lon="-97.71735" changeset="false"><tag k="addr:street" v="Delta Drive"/><tag k="addr:housenumber" v="10612"/><tag k="addr:postcode" v="78758"/></node><node id="-38" lat="30.383434" lon="-97.705345" changeset="false"><tag k="addr:street" v="Macmora Road"/><tag k="addr:housenumber" v="10606"/><tag k="addr:postcode" v="78758"/></node><node id="-39" lat="30.381468" lon="-97.702286" changeset="false"><tag k="addr:street" v="Macmora Road"/><tag k="addr:housenumber" v="10703"/><tag k="addr:postcode" v="78758"/></node><node id="-40" lat="30.381181" lon="-97.70451" changeset="false"><tag k="addr:street" v="Pine Knoll Drive"/><tag k="addr:housenumber" v="1612"/><tag k="addr:postcode" v="78758"/></node><node id="-41" lat="30.382236" lon="-97.717716" changeset="false"><tag k="addr:street" v="Metropolitan Drive"/><tag k="addr:housenumber" v="10137"/><tag k="addr:postcode" v="78758"/></node><node id="-42" lat="30.381389" lon="-97.714118" changeset="false"><tag k="addr:street" v="Centimeter Circle"/><tag k="addr:housenumber" v="2040"/><tag k="addr:postcode" v="78758"/></node><node id="-43" lat="30.379275" lon="-97.708398" changeset="false"><tag k="addr:street" v="Oak Hollow Drive"/><tag k="addr:housenumber" v="10208"/><tag k="addr:postcode" v="78758"/></node><node id="-44" lat="30.384345" lon="-97.71772" changeset="false"><tag k="addr:street" v="Metropolitan Drive"/><tag k="addr:housenumber" v="10300"/><tag k="addr:postcode" v="78758"/></node><node id="-45" lat="30.381084" lon="-97.713717" changeset="false"><tag k="addr:street" v="Centimeter Circle"/><tag k="addr:housenumber" v="2013"/><tag k="addr:postcode" v="78758"/></node><node id="-46" lat="30.382774" lon="-97.707919" changeset="false"><tag k="addr:street" v="Macmora Road"/><tag k="addr:housenumber" v="10417"/><tag k="addr:postcode" v="78758"/></node><node id="-47" lat="30.389435" lon="-97.713263" changeset="false"><tag k="addr:street" v="Kramer Lane"/><tag k="addr:housenumber" v="2205"/><tag k="addr:postcode" v="78758"/></node><node id="-48" lat="30.389719" lon="-97.71399" changeset="false"><tag k="addr:street" v="Kramer Lane"/><tag k="addr:housenumber" v="2215"/><tag k="addr:postcode" v="78758"/></node><node id="-49" lat="30.392306" lon="-97.715399" changeset="false"><tag k="addr:street" v="Kramer Lane"/><tag k="addr:housenumber" v="2335"/><tag k="addr:postcode" v="78758"/></node><node id="-50" lat="30.392334" lon="-97.715423" changeset="false"><tag k="addr:street" v="Kramer Lane"/><tag k="addr:housenumber" v="2339"/><tag k="addr:postcode" v="78758"/></node><node id="-51" lat="30.388617" lon="-97.711206" changeset="false"><tag k="addr:street" v="Kramer Lane"/><tag k="addr:housenumber" v="2105"/><tag k="addr:postcode" v="78758"/></node><node id="-52" lat="30.388791" lon="-97.711986" changeset="false"><tag k="addr:street" v="Kramer Lane"/><tag k="addr:housenumber" v="2111"/><tag k="addr:postcode" v="78758"/></node><node id="-53" lat="30.385915" lon="-97.713286" changeset="false"><tag k="addr:street" v="Denton Drive"/><tag k="addr:housenumber" v="2020"/><tag k="addr:postcode" v="78758"/></node><node id="-54" lat="30.38617" lon="-97.713137" changeset="false"><tag k="addr:street" v="Denton Drive"/><tag k="addr:housenumber" v="2106"/><tag k="addr:postcode" v="78758"/></node><node id="-55" lat="30.382262" lon="-97.718505" changeset="false"><tag k="addr:street" v="Rutland Drive"/><tag k="addr:housenumber" v="2212"/><tag k="addr:postcode" v="78758"/></node><node id="-56" lat="30.382292" lon="-97.718618" changeset="false"><tag k="addr:street" v="Rutland Drive"/><tag k="addr:housenumber" v="2216"/><tag k="addr:postcode" v="78758"/></node><node id="-57" lat="30.382366" lon="-97.715626" changeset="false"><tag k="addr:street" v="Metric Boulevard"/><tag k="addr:housenumber" v="10202"/><tag k="addr:postcode" v="78758"/></node><node id="-58" lat="30.38296" lon="-97.717373" changeset="false"><tag k="addr:street" v="Metropolitan Drive"/><tag k="addr:housenumber" v="10205"/><tag k="addr:postcode" v="78758"/></node><node id="-59" lat="30.381304" lon="-97.715861" changeset="false"><tag k="addr:street" v="Metric Boulevard"/><tag k="addr:housenumber" v="10200"/><tag k="addr:postcode" v="78758"/></node><node id="-60" lat="30.381296" lon="-97.716502" changeset="false"><tag k="addr:street" v="Rutland Drive"/><tag k="addr:housenumber" v="2112"/><tag k="addr:postcode" v="78758"/></node></osm>