<?xml version="1.0" encoding="UTF-8"?><osm version="0.6" generator="github.com/aaronlidman/osm-and-geojson"><node id="-1" lat="30.339818" lon="-97.717186" changeset="false"><tag k="addr:street" v="North Lamar Boulevard"/><tag k="addr:housenumber" v="7213"/><tag k="coa:place_id" v="851768"/></node><node id="-2" lat="30.338557" lon="-97.715724" changeset="false"><tag k="addr:street" v="West Saint John's Avenue"/><tag k="addr:housenumber" v="622"/><tag k="coa:place_id" v="851690"/></node><node id="-3" lat="30.338548" lon="-97.71122" changeset="false"><tag k="addr:street" v="West Croslin Street"/><tag k="addr:housenumber" v="400"/><tag k="coa:place_id" v="851240"/></node><node id="-4" lat="30.340019" lon="-97.717034" changeset="false"><tag k="addr:street" v="North Lamar Boulevard"/><tag k="addr:housenumber" v="7219"/><tag k="coa:place_id" v="130917"/></node><node id="-5" lat="30.339751" lon="-97.717235" changeset="false"><tag k="addr:street" v="North Lamar Boulevard"/><tag k="addr:housenumber" v="7211"/><tag k="coa:place_id" v="851762"/></node><node id="-6" lat="30.340814" lon="-97.711092" changeset="false"><tag k="addr:street" v="Delafield Lane"/><tag k="addr:housenumber" v="7513"/><tag k="coa:place_id" v="969230"/></node><node id="-7" lat="30.341146" lon="-97.716438" changeset="false"><tag k="addr:street" v="North Lamar Boulevard"/><tag k="addr:housenumber" v="7417"/><tag k="coa:place_id" v="997814"/></node><node id="-8" lat="30.343863" lon="-97.709524" changeset="false"><tag k="addr:street" v="Northway Drive"/><tag k="addr:housenumber" v="520"/><tag k="coa:place_id" v="3291910"/></node><node id="-9" lat="30.338996" lon="-97.712909" changeset="false"><tag k="addr:street" v="West Croslin Street"/><tag k="addr:housenumber" v="509"/><tag k="coa:place_id" v="5076603"/></node><node id="-10" lat="30.338966" lon="-97.713087" changeset="false"><tag k="addr:street" v="West Croslin Street"/><tag k="addr:housenumber" v="511"/><tag k="coa:place_id" v="5243830"/></node><node id="-11" lat="30.340798" lon="-97.708701" changeset="false"><tag k="addr:street" v="Northcrest Boulevard"/><tag k="addr:housenumber" v="7600"/><tag k="coa:place_id" v="768434"/></node><node id="-12" lat="30.338589" lon="-97.715531" changeset="false"><tag k="addr:street" v="West Saint John's Avenue"/><tag k="addr:housenumber" v="612"/><tag k="coa:place_id" v="162501"/></node><node id="-13" lat="30.341857" lon="-97.70847" changeset="false"><tag k="addr:street" v="Meadowview Lane"/><tag k="addr:housenumber" v="7609"/><tag k="coa:place_id" v="851936"/></node><node id="-14" lat="30.344398" lon="-97.707734" changeset="false"><tag k="addr:street" v="West Anderson Lane"/><tag k="addr:housenumber" v="301"/><tag k="coa:place_id" v="852242"/></node><node id="-15" lat="30.336987" lon="-97.71238" changeset="false"><tag k="addr:street" v="West Saint John's Avenue"/><tag k="addr:housenumber" v="406"/><tag k="coa:place_id" v="57269"/></node><node id="-16" lat="30.343163" lon="-97.715281" changeset="false"><tag k="addr:street" v="North Lamar Boulevard"/><tag k="addr:housenumber" v="7525"/><tag k="coa:place_id" v="851828"/></node><node id="-17" lat="30.343917" lon="-97.71452" changeset="false"><tag k="addr:street" v="Morrow Street"/><tag k="addr:housenumber" v="720"/><tag k="coa:place_id" v="214491"/></node><node id="-18" lat="30.337814" lon="-97.713986" changeset="false"><tag k="addr:street" v="West Saint John's Avenue"/><tag k="addr:housenumber" v="512"/><tag k="coa:place_id" v="3318097"/></node><node id="-19" lat="30.342576" lon="-97.706865" changeset="false"><tag k="addr:street" v="Northcrest Boulevard"/><tag k="addr:housenumber" v="7800"/><tag k="coa:place_id" v="611367"/></node><node id="-20" lat="30.341945" lon="-97.715793" changeset="false"><tag k="addr:street" v="North Lamar Boulevard"/><tag k="addr:housenumber" v="7435"/><tag k="coa:place_id" v="135135"/></node><node id="-21" lat="30.336955" lon="-97.712311" changeset="false"><tag k="addr:street" v="West Saint John's Avenue"/><tag k="addr:housenumber" v="402"/><tag k="coa:place_id" v="57267"/></node><node id="-22" lat="30.340474" lon="-97.716783" changeset="false"><tag k="addr:street" v="North Lamar Boulevard"/><tag k="addr:housenumber" v="7313"/><tag k="coa:place_id" v="293829"/></node><node id="-23" lat="30.339897" lon="-97.717117" changeset="false"><tag k="addr:street" v="North Lamar Boulevard"/><tag k="addr:housenumber" v="7215"/><tag k="coa:place_id" v="851774"/></node><node id="-24" lat="30.343526" lon="-97.712734" changeset="false"><tag k="addr:street" v="Morrow Street"/><tag k="addr:housenumber" v="608"/><tag k="coa:place_id" v="386895"/></node><node id="-25" lat="30.339985" lon="-97.714609" changeset="false"><tag k="addr:street" v="Marcell Street"/><tag k="addr:housenumber" v="7400"/><tag k="coa:place_id" v="851396"/></node><node id="-26" lat="30.345023" lon="-97.709265" changeset="false"><tag k="addr:street" v="West Anderson Lane"/><tag k="addr:housenumber" v="515"/><tag k="coa:place_id" v="236648"/></node><node id="-27" lat="30.344914" lon="-97.709292" changeset="false"><tag k="addr:street" v="West Anderson Lane"/><tag k="addr:housenumber" v="505"/><tag k="coa:place_id" v="241783"/></node><node id="-28" lat="30.344913" lon="-97.713429" changeset="false"><tag k="addr:street" v="North Lamar Boulevard"/><tag k="addr:housenumber" v="7701"/><tag k="coa:place_id" v="236642"/></node><node id="-29" lat="30.344652" lon="-97.712945" changeset="false"><tag k="addr:street" v="North Lamar Boulevard"/><tag k="addr:housenumber" v="7703"/><tag k="coa:place_id" v="3042825"/></node><node id="-30" lat="30.343501" lon="-97.71484" changeset="false"><tag k="addr:street" v="North Lamar Boulevard"/><tag k="addr:housenumber" v="7541"/><tag k="coa:place_id" v="236618"/></node><node id="-31" lat="30.343625" lon="-97.714751" changeset="false"><tag k="addr:street" v="North Lamar Boulevard"/><tag k="addr:housenumber" v="7545"/><tag k="coa:place_id" v="236624"/></node><node id="-32" lat="30.342069" lon="-97.71578" changeset="false"><tag k="addr:street" v="North Lamar Boulevard"/><tag k="addr:housenumber" v="7439"/><tag k="coa:place_id" v="1035746"/></node><node id="-33" lat="30.341797" lon="-97.715875" changeset="false"><tag k="addr:street" v="North Lamar Boulevard"/><tag k="addr:housenumber" v="7427"/><tag k="coa:place_id" v="823533"/></node><node id="-34" lat="30.339537" lon="-97.717339" changeset="false"><tag k="addr:street" v="North Lamar Boulevard"/><tag k="addr:housenumber" v="7205"/><tag k="coa:place_id" v="851750"/></node><node id="-35" lat="30.339475" lon="-97.717428" changeset="false"><tag k="addr:street" v="North Lamar Boulevard"/><tag k="addr:housenumber" v="7201"/><tag k="coa:place_id" v="247055"/></node><node id="-36" lat="30.339378" lon="-97.717008" changeset="false"><tag k="addr:street" v="West Saint John's Avenue"/><tag k="addr:housenumber" v="710"/><tag k="coa:place_id" v="851738"/></node><node id="-37" lat="30.339203" lon="-97.716932" changeset="false"><tag k="addr:street" v="West Saint John's Avenue"/><tag k="addr:housenumber" v="704"/><tag k="coa:place_id" v="439353"/></node></osm>