<?xml version="1.0" encoding="UTF-8"?><osm version="0.6" generator="github.com/aaronlidman/osm-and-geojson"><node id="-1" lat="30.418017" lon="-97.944357" changeset="false"><tag k="addr:street" v="South Ridge Lane"/><tag k="addr:housenumber" v="16917"/><tag k="coa:place_id" v="586430"/></node><node id="-2" lat="30.416529" lon="-97.938323" changeset="false"><tag k="addr:street" v="Eck Lane"/><tag k="addr:housenumber" v="4809"/><tag k="coa:place_id" v="484180"/></node><node id="-3" lat="30.407183" lon="-97.929892" changeset="false"><tag k="addr:street" v="Sooner Street"/><tag k="addr:housenumber" v="4408"/><tag k="coa:place_id" v="270616"/></node><node id="-4" lat="30.406003" lon="-97.929865" changeset="false"><tag k="addr:street" v="Doss Road"/><tag k="addr:housenumber" v="4515"/><tag k="coa:place_id" v="588164"/></node><node id="-5" lat="30.422417" lon="-97.940362" changeset="false"><tag k="addr:street" v="Rocky Ridge Road"/><tag k="addr:housenumber" v="17215"/><tag k="coa:place_id" v="3089847"/></node><node id="-6" lat="30.420839" lon="-97.946425" changeset="false"><tag k="addr:street" v="Rocky Ridge Road"/><tag k="addr:housenumber" v="17029"/><tag k="coa:place_id" v="586334"/></node><node id="-7" lat="30.410327" lon="-97.929926" changeset="false"><tag k="addr:street" v="Doss Road"/><tag k="addr:housenumber" v="4607"/><tag k="coa:place_id" v="244746"/></node><node id="-8" lat="30.415163" lon="-97.928076" changeset="false"><tag k="addr:street" v="Hudson Bend Road"/><tag k="addr:housenumber" v="5119"/><tag k="coa:place_id" v="367167"/></node><node id="-9" lat="30.427475" lon="-97.929034" changeset="false"><tag k="addr:street" v="Forest Way"/><tag k="addr:housenumber" v="16407"/><tag k="coa:place_id" v="95839"/></node><node id="-10" lat="30.414014" lon="-97.940827" changeset="false"><tag k="addr:street" v="Kidd Lane"/><tag k="addr:housenumber" v="16525"/><tag k="coa:place_id" v="586688"/></node><node id="-11" lat="30.412956" lon="-97.939742" changeset="false"><tag k="addr:street" v="Kidd Lane"/><tag k="addr:housenumber" v="16513"/><tag k="coa:place_id" v="586700"/></node><node id="-12" lat="30.406516" lon="-97.929678" changeset="false"><tag k="addr:street" v="Sooner Street"/><tag k="addr:housenumber" v="4402"/><tag k="coa:place_id" v="588212"/></node><node id="-13" lat="30.429193" lon="-97.936061" changeset="false"><tag k="addr:street" v="Travis Woods Cove"/><tag k="addr:housenumber" v="6002"/><tag k="coa:place_id" v="139907"/></node><node id="-14" lat="30.426063" lon="-97.933817" changeset="false"><tag k="addr:street" v="Laguna Cliff Lane"/><tag k="addr:housenumber" v="5809"/><tag k="coa:place_id" v="3042637"/></node><node id="-15" lat="30.420495" lon="-97.929905" changeset="false"><tag k="addr:street" v="Pool Canyon Road"/><tag k="addr:housenumber" v="16215"/><tag k="coa:place_id" v="1122387"/></node><node id="-16" lat="30.425372" lon="-97.931065" changeset="false"><tag k="addr:street" v="Hudson Bend Road"/><tag k="addr:housenumber" v="5900"/><tag k="coa:place_id" v="95791"/></node><node id="-17" lat="30.42042" lon="-97.938261" changeset="false"><tag k="addr:street" v="Rocky Ridge Road"/><tag k="addr:housenumber" v="17257"/><tag k="coa:place_id" v="586580"/></node><node id="-18" lat="30.419897" lon="-97.923922" changeset="false"><tag k="addr:street" v="Allenwood Drive"/><tag k="addr:housenumber" v="15903"/><tag k="coa:place_id" v="3068105"/></node><node id="-19" lat="30.418833" lon="-97.923018" changeset="false"><tag k="addr:street" v="Beacon Drive"/><tag k="addr:housenumber" v="5702"/><tag k="coa:place_id" v="163816"/></node><node id="-20" lat="30.417499" lon="-97.943132" changeset="false"><tag k="addr:street" v="South Ridge Lane"/><tag k="addr:housenumber" v="16829"/><tag k="coa:place_id" v="586466"/></node><node id="-21" lat="30.416392" lon="-97.941276" changeset="false"><tag k="addr:street" v="Eck Lane"/><tag k="addr:housenumber" v="4831"/><tag k="coa:place_id" v="955940"/></node><node id="-22" lat="30.404794" lon="-97.930823" changeset="false"><tag k="addr:street" v="Eck Lane"/><tag k="addr:housenumber" v="4209"/><tag k="coa:place_id" v="169167"/></node><node id="-23" lat="30.413809" lon="-97.937894" changeset="false"><tag k="addr:street" v="Kidd Lane"/><tag k="addr:housenumber" v="16414"/><tag k="coa:place_id" v="1157327"/></node><node id="-24" lat="30.429403" lon="-97.927644" changeset="false"><tag k="addr:street" v="Hopkins Drive"/><tag k="addr:housenumber" v="6400"/><tag k="coa:place_id" v="585584"/></node><node id="-25" lat="30.420889" lon="-97.94588" changeset="false"><tag k="addr:street" v="Rocky Ridge Road"/><tag k="addr:housenumber" v="17027"/><tag k="coa:place_id" v="110985"/></node><node id="-26" lat="30.421093" lon="-97.939833" changeset="false"><tag k="addr:street" v="Rocky Ridge Road"/><tag k="addr:housenumber" v="17230"/><tag k="coa:place_id" v="467674"/></node><node id="-27" lat="30.420259" lon="-97.922616" changeset="false"><tag k="addr:street" v="Beacon Drive"/><tag k="addr:housenumber" v="5800"/><tag k="coa:place_id" v="686710"/></node><node id="-28" lat="30.423741" lon="-97.931276" changeset="false"><tag k="addr:street" v="Hudson Bend Road"/><tag k="addr:housenumber" v="5705"/><tag k="coa:place_id" v="381549"/></node><node id="-29" lat="30.427557" lon="-97.929626" changeset="false"><tag k="addr:street" v="Forest Way"/><tag k="addr:housenumber" v="16503"/><tag k="coa:place_id" v="95844"/></node><node id="-30" lat="30.416767" lon="-97.938805" changeset="false"><tag k="addr:street" v="Eck Lane"/><tag k="addr:housenumber" v="4811"/><tag k="coa:place_id" v="55366"/></node><node id="-31" lat="30.421324" lon="-97.931632" changeset="false"><tag k="addr:street" v="Rocky Ridge Road"/><tag k="addr:housenumber" v="16304"/><tag k="coa:place_id" v="181800"/></node><node id="-32" lat="30.413164" lon="-97.932236" changeset="false"><tag k="addr:street" v="Doss Road"/><tag k="addr:housenumber" v="4816"/><tag k="coa:place_id" v="189388"/></node><node id="-33" lat="30.426762" lon="-97.925408" changeset="false"><tag k="addr:street" v="Hudson Bend Road"/><tag k="addr:housenumber" v="6200"/><tag k="coa:place_id" v="585284"/></node><node id="-34" lat="30.410702" lon="-97.927446" changeset="false"><tag k="addr:street" v="Hudson Bend Road"/><tag k="addr:housenumber" v="4820"/><tag k="coa:place_id" v="3154684"/></node><node id="-35" lat="30.422798" lon="-97.942342" changeset="false"><tag k="addr:street" v="Rocky Ridge Road"/><tag k="addr:housenumber" v="17188"/><tag k="coa:place_id" v="586196"/></node><node id="-36" lat="30.418987" lon="-97.924468" changeset="false"><tag k="addr:street" v="Allenwood Drive"/><tag k="addr:housenumber" v="15907"/><tag k="coa:place_id" v="100689"/></node><node id="-37" lat="30.422708" lon="-97.936975" changeset="false"><tag k="addr:street" v="French Harbour Court"/><tag k="addr:housenumber" v="16709"/><tag k="coa:place_id" v="3039666"/></node><node id="-38" lat="30.425853" lon="-97.930292" changeset="false"><tag k="addr:street" v="Hudson Bend Road"/><tag k="addr:housenumber" v="5906"/><tag k="coa:place_id" v="95797"/></node><node id="-39" lat="30.424847" lon="-97.932644" changeset="false"><tag k="addr:street" v="Median Road"/><tag k="addr:housenumber" v="5707"/><tag k="coa:place_id" v="95862"/></node><node id="-40" lat="30.424726" lon="-97.931623" changeset="false"><tag k="addr:street" v="Hudson Bend Road"/><tag k="addr:housenumber" v="5802"/><tag k="coa:place_id" v="95789"/></node><node id="-41" lat="30.420983" lon="-97.931214" changeset="false"><tag k="addr:street" v="Rocky Ridge Road"/><tag k="addr:housenumber" v="16302"/><tag k="coa:place_id" v="185280"/></node><node id="-42" lat="30.420386" lon="-97.933927" changeset="false"><tag k="addr:street" v="Rocky Ridge Road"/><tag k="addr:housenumber" v="16525"/><tag k="coa:place_id" v="3368215"/></node><node id="-43" lat="30.423081" lon="-97.929409" changeset="false"><tag k="addr:street" v="Pool Canyon Cove"/><tag k="addr:housenumber" v="5739"/><tag k="coa:place_id" v="3320172"/></node><node id="-44" lat="30.424222" lon="-97.939049" changeset="false"><tag k="addr:street" v="Top of the Trail Cove"/><tag k="addr:housenumber" v="5404"/><tag k="coa:place_id" v="3425586"/></node><node id="-45" lat="30.420991" lon="-97.93328" changeset="false"><tag k="addr:street" v="Rocky Ridge Road"/><tag k="addr:housenumber" v="16419"/><tag k="coa:place_id" v="264352"/></node><node id="-46" lat="30.406609" lon="-97.930228" changeset="false"><tag k="addr:street" v="Doss Road"/><tag k="addr:housenumber" v="4529"/><tag k="coa:place_id" v="156406"/></node><node id="-47" lat="30.420288" lon="-97.934917" changeset="false"><tag k="addr:street" v="Rocky Ridge Road"/><tag k="addr:housenumber" v="16537"/><tag k="coa:place_id" v="3139132"/></node><node id="-48" lat="30.425877" lon="-97.932243" changeset="false"><tag k="addr:street" v="Median Road"/><tag k="addr:housenumber" v="5807"/><tag k="coa:place_id" v="95868"/></node><node id="-49" lat="30.41297" lon="-97.93933" changeset="false"><tag k="addr:street" v="Kidd Lane"/><tag k="addr:housenumber" v="16503"/><tag k="coa:place_id" v="215502"/></node><node id="-50" lat="30.427667" lon="-97.920144" changeset="false"><tag k="addr:street" v="Webb Lane"/><tag k="addr:housenumber" v="16000"/><tag k="coa:place_id" v="95874"/></node><node id="-51" lat="30.427753" lon="-97.932939" changeset="false"><tag k="addr:street" v="Laguna Cliff Lane"/><tag k="addr:housenumber" v="6009"/><tag k="coa:place_id" v="3042641"/></node><node id="-52" lat="30.428195" lon="-97.923889" changeset="false"><tag k="addr:street" v="Edwards Drive"/><tag k="addr:housenumber" v="16202"/><tag k="coa:place_id" v="585452"/></node><node id="-53" lat="30.42804" lon="-97.933932" changeset="false"><tag k="addr:street" v="Laguna Cliff Lane"/><tag k="addr:housenumber" v="6008"/><tag k="coa:place_id" v="3042635"/></node><node id="-54" lat="30.420427" lon="-97.922521" changeset="false"><tag k="addr:street" v="Beacon Drive"/><tag k="addr:housenumber" v="5806"/><tag k="coa:place_id" v="96496"/></node><node id="-55" lat="30.421741" lon="-97.93495" changeset="false"><tag k="addr:street" v="Laguna Cliff Lane"/><tag k="addr:housenumber" v="5304"/><tag k="coa:place_id" v="3039669"/></node><node id="-56" lat="30.420457" lon="-97.932437" changeset="false"><tag k="addr:street" v="Rocky Ridge Road"/><tag k="addr:housenumber" v="16401"/><tag k="coa:place_id" v="586604"/></node><node id="-57" lat="30.412844" lon="-97.926246" changeset="false"><tag k="addr:street" v="Beacon Drive"/><tag k="addr:housenumber" v="5104"/><tag k="coa:place_id" v="242334"/></node><node id="-58" lat="30.423384" lon="-97.92411" changeset="false"><tag k="addr:street" v="Pool Canyon Road"/><tag k="addr:housenumber" v="16008"/><tag k="coa:place_id" v="589112"/></node><node id="-59" lat="30.408213" lon="-97.935985" changeset="false"><tag k="addr:street" v="Eck Lane"/><tag k="addr:housenumber" v="4444"/><tag k="coa:place_id" v="586808"/></node><node id="-60" lat="30.423031" lon="-97.93735" changeset="false"><tag k="addr:street" v="French Harbour Court"/><tag k="addr:housenumber" v="16712"/><tag k="coa:place_id" v="3039665"/></node><node id="-61" lat="30.414703" lon="-97.933684" changeset="false"><tag k="addr:street" v="Doss Road"/><tag k="addr:housenumber" v="4912"/><tag k="coa:place_id" v="3033324"/></node><node id="-62" lat="30.420858" lon="-97.928971" changeset="false"><tag k="addr:street" v="Pool Canyon Cove"/><tag k="addr:housenumber" v="5619"/><tag k="coa:place_id" v="227887"/></node><node id="-63" lat="30.418052" lon="-97.944932" changeset="false"><tag k="addr:street" v="South Ridge Lane"/><tag k="addr:housenumber" v="17001"/><tag k="coa:place_id" v="586418"/></node><node id="-64" lat="30.423664" lon="-97.942163" changeset="false"><tag k="addr:street" v="Feather Rock Trail"/><tag k="addr:housenumber" v="17008"/><tag k="coa:place_id" v="117277"/></node><node id="-65" lat="30.4135" lon="-97.928886" changeset="false"><tag k="addr:street" v="Hudson Bend Road"/><tag k="addr:housenumber" v="5200"/><tag k="coa:place_id" v="3151585"/></node><node id="-66" lat="30.431161" lon="-97.933636" changeset="false"><tag k="addr:street" v="Forest Way"/><tag k="addr:housenumber" v="16808"/><tag k="coa:place_id" v="166306"/></node><node id="-67" lat="30.429195" lon="-97.92618" changeset="false"><tag k="addr:street" v="Hopkins Drive"/><tag k="addr:housenumber" v="6407"/><tag k="coa:place_id" v="585590"/></node><node id="-68" lat="30.421769" lon="-97.931604" changeset="false"><tag k="addr:street" v="Hudson Bend Road"/><tag k="addr:housenumber" v="5600"/><tag k="coa:place_id" v="95771"/></node><node id="-69" lat="30.427486" lon="-97.922918" changeset="false"><tag k="addr:street" v="Edwards Drive"/><tag k="addr:housenumber" v="16109"/><tag k="coa:place_id" v="585326"/></node><node id="-70" lat="30.427366" lon="-97.928715" changeset="false"><tag k="addr:street" v="Forest Way"/><tag k="addr:housenumber" v="16405"/><tag k="coa:place_id" v="95838"/></node><node id="-71" lat="30.419402" lon="-97.927652" changeset="false"><tag k="addr:street" v="Pool Canyon Road"/><tag k="addr:housenumber" v="16105"/><tag k="coa:place_id" v="150162"/></node><node id="-72" lat="30.426464" lon="-97.931211" changeset="false"><tag k="addr:street" v="Median Road"/><tag k="addr:housenumber" v="5907"/><tag k="coa:place_id" v="585824"/></node><node id="-73" lat="30.432284" lon="-97.929997" changeset="false"><tag k="addr:street" v="Forest Way"/><tag k="addr:housenumber" v="16700"/><tag k="coa:place_id" v="95886"/></node><node id="-74" lat="30.425646" lon="-97.935234" changeset="false"><tag k="addr:street" v="Laguna Cliff Lane"/><tag k="addr:housenumber" v="5700"/><tag k="coa:place_id" v="3042629"/></node><node id="-75" lat="30.415357" lon="-97.922613" changeset="false"><tag k="addr:street" v="Beacon Drive"/><tag k="addr:housenumber" v="5406"/><tag k="coa:place_id" v="227725"/></node><node id="-76" lat="30.415312" lon="-97.928214" changeset="false"><tag k="addr:street" v="Hudson Bend Road"/><tag k="addr:housenumber" v="5123"/><tag k="coa:place_id" v="724912"/></node><node id="-77" lat="30.421202" lon="-97.944635" changeset="false"><tag k="addr:street" v="Rocky Ridge Road"/><tag k="addr:housenumber" v="17109"/><tag k="coa:place_id" v="586256"/></node><node id="-78" lat="30.427106" lon="-97.926495" changeset="false"><tag k="addr:street" v="Forest Way"/><tag k="addr:housenumber" v="16304"/><tag k="coa:place_id" v="95741"/></node><node id="-79" lat="30.422655" lon="-97.942558" changeset="false"><tag k="addr:street" v="Rocky Ridge Road"/><tag k="addr:housenumber" v="17170"/><tag k="coa:place_id" v="122311"/></node><node id="-80" lat="30.4234" lon="-97.924339" changeset="false"><tag k="addr:street" v="Pool Canyon Road"/><tag k="addr:housenumber" v="16010"/><tag k="coa:place_id" v="589118"/></node><node id="-81" lat="30.424628" lon="-97.93281" changeset="false"><tag k="addr:street" v="Median Road"/><tag k="addr:housenumber" v="5705"/><tag k="coa:place_id" v="95861"/></node><node id="-82" lat="30.418492" lon="-97.945818" changeset="false"><tag k="addr:street" v="South Ridge Lane"/><tag k="addr:housenumber" v="17009"/><tag k="coa:place_id" v="586400"/></node><node id="-83" lat="30.41542" lon="-97.928904" changeset="false"><tag k="addr:street" v="Hudson Bend Road"/><tag k="addr:housenumber" v="5131"/><tag k="coa:place_id" v="3368219"/></node><node id="-84" lat="30.41592" lon="-97.928821" changeset="false"><tag k="addr:street" v="Hudson Bend Road"/><tag k="addr:housenumber" v="5205"/><tag k="coa:place_id" v="1135927"/></node><node id="-85" lat="30.405437" lon="-97.930552" changeset="false"><tag k="addr:street" v="James Lane"/><tag k="addr:housenumber" v="4308"/><tag k="coa:place_id" v="5099840"/></node><node id="-86" lat="30.414766" lon="-97.927875" changeset="false"><tag k="addr:street" v="Hudson Bend Road"/><tag k="addr:housenumber" v="5115"/><tag k="coa:place_id" v="3380572"/></node><node id="-87" lat="30.428478" lon="-97.945153" changeset="false"><tag k="addr:street" v="West Beach Circle"/><tag k="addr:housenumber" v="5511"/><tag k="coa:place_id" v="3047785"/></node><node id="-88" lat="30.429227" lon="-97.944829" changeset="false"><tag k="addr:street" v="West Beach Circle"/><tag k="addr:housenumber" v="5520"/><tag k="coa:place_id" v="586028"/></node><node id="-89" lat="30.407069" lon="-97.926994" changeset="false"><tag k="addr:street" v="Hudson Bend Road"/><tag k="addr:housenumber" v="4516"/><tag k="coa:place_id" v="5125042"/></node><node id="-90" lat="30.426192" lon="-97.92516" changeset="false"><tag k="addr:street" v="Hudson Bend Road"/><tag k="addr:housenumber" v="6205"/><tag k="coa:place_id" v="585296"/></node><node id="-91" lat="30.427018" lon="-97.9262" changeset="false"><tag k="addr:street" v="Forest Way"/><tag k="addr:housenumber" v="16302"/><tag k="coa:place_id" v="585278"/></node><node id="-92" lat="30.415092" lon="-97.92408" changeset="false"><tag k="addr:street" v="Awalt Drive"/><tag k="addr:housenumber" v="15710"/><tag k="coa:place_id" v="95577"/></node><node id="-93" lat="30.423649" lon="-97.935927" changeset="false"><tag k="addr:street" v="Laguna Cliff Lane"/><tag k="addr:housenumber" v="5409"/><tag k="coa:place_id" v="3042619"/></node><node id="-94" lat="30.407672" lon="-97.930163" changeset="false"><tag k="addr:street" v="Doss Road"/><tag k="addr:housenumber" v="4543"/><tag k="coa:place_id" v="244744"/></node><node id="-95" lat="30.414156" lon="-97.935964" changeset="false"><tag k="addr:street" v="Eck Lane"/><tag k="addr:housenumber" v="4747"/><tag k="coa:place_id" v="244914"/></node><node id="-96" lat="30.42093" lon="-97.923381" changeset="false"><tag k="addr:street" v="Lakeside Trail"/><tag k="addr:housenumber" v="5807"/><tag k="coa:place_id" v="587936"/></node><node id="-97" lat="30.421823" lon="-97.928156" changeset="false"><tag k="addr:street" v="Pool Canyon Cove"/><tag k="addr:housenumber" v="5705"/><tag k="coa:place_id" v="871569"/></node><node id="-98" lat="30.40664" lon="-97.929843" changeset="false"><tag k="addr:street" v="Sooner Street"/><tag k="addr:housenumber" v="4404"/><tag k="coa:place_id" v="588182"/></node><node id="-99" lat="30.404477" lon="-97.929339" changeset="false"><tag k="addr:street" v="Eck Lane"/><tag k="addr:housenumber" v="4205"/><tag k="coa:place_id" v="648118"/></node><node id="-100" lat="30.414136" lon="-97.940185" changeset="false"><tag k="addr:street" v="Kidd Lane"/><tag k="addr:housenumber" v="16519"/><tag k="coa:place_id" v="586706"/></node><node id="-101" lat="30.420727" lon="-97.928667" changeset="false"><tag k="addr:street" v="Pool Canyon Road"/><tag k="addr:housenumber" v="16104"/><tag k="coa:place_id" v="165226"/></node><node id="-102" lat="30.418099" lon="-97.924439" changeset="false"><tag k="addr:street" v="Wildwood Trail"/><tag k="addr:housenumber" v="15804"/><tag k="coa:place_id" v="1035519"/></node><node id="-103" lat="30.423186" lon="-97.94135" changeset="false"><tag k="addr:street" v="Rocky Ridge Road"/><tag k="addr:housenumber" v="17201"/><tag k="coa:place_id" v="3089850"/></node><node id="-104" lat="30.422087" lon="-97.943024" changeset="false"><tag k="addr:street" v="Rocky Ridge Road"/><tag k="addr:housenumber" v="17145"/><tag k="coa:place_id" v="586214"/></node><node id="-105" lat="30.421725" lon="-97.939656" changeset="false"><tag k="addr:street" v="Rocky Ridge Road"/><tag k="addr:housenumber" v="17229"/><tag k="coa:place_id" v="3089849"/></node><node id="-106" lat="30.419909" lon="-97.925993" changeset="false"><tag k="addr:street" v="Pool Canyon Road"/><tag k="addr:housenumber" v="16039"/><tag k="coa:place_id" v="95766"/></node><node id="-107" lat="30.418572" lon="-97.940936" changeset="false"><tag k="addr:street" v="Rocky Ridge Road"/><tag k="addr:housenumber" v="16803"/><tag k="coa:place_id" v="586568"/></node><node id="-108" lat="30.416445" lon="-97.93795" changeset="false"><tag k="addr:street" v="Eck Lane"/><tag k="addr:housenumber" v="4807"/><tag k="coa:place_id" v="55364"/></node><node id="-109" lat="30.415657" lon="-97.938324" changeset="false"><tag k="addr:street" v="Eck Lane"/><tag k="addr:housenumber" v="4810"/><tag k="coa:place_id" v="710452"/></node><node id="-110" lat="30.416651" lon="-97.926912" changeset="false"><tag k="addr:street" v="La Hacienda Drive"/><tag k="addr:housenumber" v="15908"/><tag k="coa:place_id" v="565492"/></node><node id="-111" lat="30.41619" lon="-97.926778" changeset="false"><tag k="addr:street" v="La Hacienda Drive"/><tag k="addr:housenumber" v="15906"/><tag k="coa:place_id" v="93207"/></node><node id="-112" lat="30.42691" lon="-97.930884" changeset="false"><tag k="addr:street" v="Median Road"/><tag k="addr:housenumber" v="6003"/><tag k="coa:place_id" v="95873"/></node><node id="-113" lat="30.40336" lon="-97.926974" changeset="false"><tag k="addr:street" v="Pescado Circle"/><tag k="addr:housenumber" v="15500"/><tag k="coa:place_id" v="722620"/></node><node id="-114" lat="30.420397" lon="-97.935391" changeset="false"><tag k="addr:street" v="Rocky Ridge Road"/><tag k="addr:housenumber" v="16541"/><tag k="coa:place_id" v="3139133"/></node><node id="-115" lat="30.423537" lon="-97.932351" changeset="false"><tag k="addr:street" v="Hudson Bend Road"/><tag k="addr:housenumber" v="5702"/><tag k="coa:place_id" v="95778"/></node><node id="-116" lat="30.420282" lon="-97.936608" changeset="false"><tag k="addr:street" v="Rocky Ridge Road"/><tag k="addr:housenumber" v="16713"/><tag k="coa:place_id" v="113151"/></node><node id="-117" lat="30.421012" lon="-97.945104" changeset="false"><tag k="addr:street" v="Rocky Ridge Road"/><tag k="addr:housenumber" v="17055"/><tag k="coa:place_id" v="531903"/></node><node id="-118" lat="30.403082" lon="-97.928498" changeset="false"><tag k="addr:street" v="Pescado Circle"/><tag k="addr:housenumber" v="15504"/><tag k="coa:place_id" v="433156"/></node><node id="-119" lat="30.411487" lon="-97.931348" changeset="false"><tag k="addr:street" v="Doss Road"/><tag k="addr:housenumber" v="4710"/><tag k="coa:place_id" v="180151"/></node><node id="-120" lat="30.414765" lon="-97.938096" changeset="false"><tag k="addr:street" v="Eck Lane"/><tag k="addr:housenumber" v="4804"/><tag k="coa:place_id" v="122724"/></node><node id="-121" lat="30.413901" lon="-97.926038" changeset="false"><tag k="addr:street" v="La Hacienda Drive"/><tag k="addr:housenumber" v="15711"/><tag k="coa:place_id" v="174726"/></node><node id="-122" lat="30.406991" lon="-97.934463" changeset="false"><tag k="addr:street" v="Eck Lane"/><tag k="addr:housenumber" v="4412"/><tag k="coa:place_id" v="95261"/></node><node id="-123" lat="30.422504" lon="-97.922958" changeset="false"><tag k="addr:street" v="Lakeside Trail"/><tag k="addr:housenumber" v="6000"/><tag k="coa:place_id" v="125603"/></node><node id="-124" lat="30.417313" lon="-97.935547" changeset="false"><tag k="addr:street" v="Doss Road"/><tag k="addr:housenumber" v="5011"/><tag k="coa:place_id" v="589238"/></node><node id="-125" lat="30.424191" lon="-97.933176" changeset="false"><tag k="addr:street" v="Median Road"/><tag k="addr:housenumber" v="5701"/><tag k="coa:place_id" v="95856"/></node><node id="-126" lat="30.417797" lon="-97.942961" changeset="false"><tag k="addr:street" v="South Ridge Lane"/><tag k="addr:housenumber" v="16831"/><tag k="coa:place_id" v="586460"/></node><node id="-127" lat="30.417452" lon="-97.940458" changeset="false"><tag k="addr:street" v="Eck Lane"/><tag k="addr:housenumber" v="4829"/><tag k="coa:place_id" v="95981"/></node><node id="-128" lat="30.413266" lon="-97.935619" changeset="false"><tag k="addr:street" v="Eck Lane"/><tag k="addr:housenumber" v="4717"/><tag k="coa:place_id" v="586754"/></node><node id="-129" lat="30.424827" lon="-97.929637" changeset="false"><tag k="addr:street" v="Hudson Bend Road"/><tag k="addr:housenumber" v="5905"/><tag k="coa:place_id" v="589274"/></node><node id="-130" lat="30.42613" lon="-97.93499" changeset="false"><tag k="addr:street" v="Laguna Cliff Lane"/><tag k="addr:housenumber" v="5800"/><tag k="coa:place_id" v="3042630"/></node><node id="-131" lat="30.426781" lon="-97.926046" changeset="false"><tag k="addr:street" v="Forest Way"/><tag k="addr:housenumber" v="16300"/><tag k="coa:place_id" v="95737"/></node><node id="-132" lat="30.41653" lon="-97.928925" changeset="false"><tag k="addr:street" v="Hudson Bend Road"/><tag k="addr:housenumber" v="5209"/><tag k="coa:place_id" v="157265"/></node><node id="-133" lat="30.416088" lon="-97.927947" changeset="false"><tag k="addr:street" v="La Hacienda Drive"/><tag k="addr:housenumber" v="16001"/><tag k="coa:place_id" v="377043"/></node><node id="-134" lat="30.413678" lon="-97.938671" changeset="false"><tag k="addr:street" v="Kidd Lane"/><tag k="addr:housenumber" v="16504"/><tag k="coa:place_id" v="586670"/></node><node id="-135" lat="30.413475" lon="-97.941052" changeset="false"><tag k="addr:street" v="Kidd Lane"/><tag k="addr:housenumber" v="16523"/><tag k="coa:place_id" v="586694"/></node><node id="-136" lat="30.422189" lon="-97.924509" changeset="false"><tag k="addr:street" v="Pool Canyon Road"/><tag k="addr:housenumber" v="16005"/><tag k="coa:place_id" v="95761"/></node><node id="-137" lat="30.422042" lon="-97.924196" changeset="false"><tag k="addr:street" v="Pool Canyon Road"/><tag k="addr:housenumber" v="16003"/><tag k="coa:place_id" v="95760"/></node><node id="-138" lat="30.424336" lon="-97.937841" changeset="false"><tag k="addr:street" v="Top of the Trail Cove"/><tag k="addr:housenumber" v="5403"/><tag k="coa:place_id" v="71382"/></node><node id="-139" lat="30.422138" lon="-97.944264" changeset="false"><tag k="addr:street" v="Rocky Ridge Road"/><tag k="addr:housenumber" v="17161"/><tag k="coa:place_id" v="461205"/></node><node id="-140" lat="30.415466" lon="-97.927369" changeset="false"><tag k="addr:street" v="La Hacienda Drive"/><tag k="addr:housenumber" v="15905"/><tag k="coa:place_id" v="588272"/></node><node id="-141" lat="30.422348" lon="-97.924799" changeset="false"><tag k="addr:street" v="Pool Canyon Road"/><tag k="addr:housenumber" v="16019"/><tag k="coa:place_id" v="154843"/></node><node id="-142" lat="30.416194" lon="-97.936498" changeset="false"><tag k="addr:street" v="Doss Road"/><tag k="addr:housenumber" v="5006"/><tag k="coa:place_id" v="198093"/></node><node id="-143" lat="30.425165" lon="-97.931243" changeset="false"><tag k="addr:street" v="Hudson Bend Road"/><tag k="addr:housenumber" v="5806"/><tag k="coa:place_id" v="95790"/></node><node id="-144" lat="30.415736" lon="-97.927635" changeset="false"><tag k="addr:street" v="La Hacienda Drive"/><tag k="addr:housenumber" v="15909"/><tag k="coa:place_id" v="3192210"/></node><node id="-145" lat="30.415912" lon="-97.933983" changeset="false"><tag k="addr:street" v="Doss Road"/><tag k="addr:housenumber" v="4921"/><tag k="coa:place_id" v="768639"/></node><node id="-146" lat="30.418456" lon="-97.942929" changeset="false"><tag k="addr:street" v="South Ridge Lane"/><tag k="addr:housenumber" v="16900"/><tag k="coa:place_id" v="3309075"/></node><node id="-147" lat="30.415926" lon="-97.922265" changeset="false"><tag k="addr:street" v="Beacon Drive"/><tag k="addr:housenumber" v="5416"/><tag k="coa:place_id" v="3348431"/></node><node id="-148" lat="30.403587" lon="-97.928197" changeset="false"><tag k="addr:street" v="Hudson Bend Road"/><tag k="addr:housenumber" v="4304"/><tag k="coa:place_id" v="246317"/></node><node id="-149" lat="30.405983" lon="-97.931938" changeset="false"><tag k="addr:street" v="Eck Lane"/><tag k="addr:housenumber" v="4303"/><tag k="coa:place_id" v="172625"/></node><node id="-150" lat="30.421465" lon="-97.932335" changeset="false"><tag k="addr:street" v="Rocky Ridge Road"/><tag k="addr:housenumber" v="16404"/><tag k="coa:place_id" v="95821"/></node><node id="-151" lat="30.411678" lon="-97.933183" changeset="false"><tag k="addr:street" v="Eck Lane"/><tag k="addr:housenumber" v="4609"/><tag k="coa:place_id" v="646114"/></node><node id="-152" lat="30.405428" lon="-97.931329" changeset="false"><tag k="addr:street" v="Eck Lane"/><tag k="addr:housenumber" v="4227"/><tag k="coa:place_id" v="124008"/></node><node id="-153" lat="30.427805" lon="-97.919871" changeset="false"><tag k="addr:street" v="Webb Lane"/><tag k="addr:housenumber" v="15918"/><tag k="coa:place_id" v="585422"/></node><node id="-154" lat="30.425915" lon="-97.936793" changeset="false"><tag k="addr:street" v="Upper Woods Cove"/><tag k="addr:housenumber" v="16900"/><tag k="coa:place_id" v="359044"/></node><node id="-155" lat="30.425806" lon="-97.93229" changeset="false"><tag k="addr:street" v="Median Road"/><tag k="addr:housenumber" v="5801"/><tag k="coa:place_id" v="95863"/></node><node id="-156" lat="30.41412" lon="-97.925259" changeset="false"><tag k="addr:street" v="La Hacienda Drive"/><tag k="addr:housenumber" v="15708"/><tag k="coa:place_id" v="246921"/></node><node id="-157" lat="30.427747" lon="-97.92037" changeset="false"><tag k="addr:street" v="Webb Lane"/><tag k="addr:housenumber" v="16004"/><tag k="coa:place_id" v="585416"/></node><node id="-158" lat="30.426861" lon="-97.934436" changeset="false"><tag k="addr:street" v="Laguna Cliff Lane"/><tag k="addr:housenumber" v="5900"/><tag k="coa:place_id" v="3042632"/></node><node id="-159" lat="30.423272" lon="-97.932345" changeset="false"><tag k="addr:street" v="Hudson Bend Road"/><tag k="addr:housenumber" v="5700"/><tag k="coa:place_id" v="95777"/></node><node id="-160" lat="30.424029" lon="-97.930622" changeset="false"><tag k="addr:street" v="Hudson Bend Road"/><tag k="addr:housenumber" v="5801"/><tag k="coa:place_id" v="95813"/></node><node id="-161" lat="30.423785" lon="-97.93224" changeset="false"><tag k="addr:street" v="Hudson Bend Road"/><tag k="addr:housenumber" v="5704"/><tag k="coa:place_id" v="95779"/></node><node id="-162" lat="30.413547" lon="-97.935047" changeset="false"><tag k="addr:street" v="Eck Lane"/><tag k="addr:housenumber" v="4731"/><tag k="coa:place_id" v="586742"/></node><node id="-163" lat="30.418778" lon="-97.942558" changeset="false"><tag k="addr:street" v="Rocky Ridge Road"/><tag k="addr:housenumber" v="16907"/><tag k="coa:place_id" v="586562"/></node><node id="-164" lat="30.406718" lon="-97.930442" changeset="false"><tag k="addr:street" v="Doss Road"/><tag k="addr:housenumber" v="4533"/><tag k="coa:place_id" v="1153727"/></node><node id="-165" lat="30.418852" lon="-97.929114" changeset="false"><tag k="addr:street" v="Awalt Drive"/><tag k="addr:housenumber" v="16106"/><tag k="coa:place_id" v="146025"/></node><node id="-166" lat="30.417928" lon="-97.923981" changeset="false"><tag k="addr:street" v="Wildwood Trail"/><tag k="addr:housenumber" v="15802"/><tag k="coa:place_id" v="3029041"/></node><node id="-167" lat="30.417965" lon="-97.93769" changeset="false"><tag k="addr:street" v="Doss Road"/><tag k="addr:housenumber" v="5012"/><tag k="coa:place_id" v="3108288"/></node><node id="-168" lat="30.412659" lon="-97.928137" changeset="false"><tag k="addr:street" v="Hudson Bend Road"/><tag k="addr:housenumber" v="5120"/><tag k="coa:place_id" v="3151586"/></node><node id="-169" lat="30.422037" lon="-97.940033" changeset="false"><tag k="addr:street" v="Rocky Ridge Road"/><tag k="addr:housenumber" v="17221"/><tag k="coa:place_id" v="3089848"/></node><node id="-170" lat="30.418642" lon="-97.930315" changeset="false"><tag k="addr:street" v="Hudson Bend Road"/><tag k="addr:housenumber" v="5330"/><tag k="coa:place_id" v="3181511"/></node><node id="-171" lat="30.416035" lon="-97.939703" changeset="false"><tag k="addr:street" v="Eck Lane"/><tag k="addr:housenumber" v="4818"/><tag k="coa:place_id" v="586640"/></node><node id="-172" lat="30.414968" lon="-97.923243" changeset="false"><tag k="addr:street" v="Beacon Drive"/><tag k="addr:housenumber" v="5402"/><tag k="coa:place_id" v="227724"/></node><node id="-173" lat="30.424287" lon="-97.930612" changeset="false"><tag k="addr:street" v="Hudson Bend Road"/><tag k="addr:housenumber" v="5803"/><tag k="coa:place_id" v="585736"/></node><node id="-174" lat="30.413459" lon="-97.926908" changeset="false"><tag k="addr:street" v="Hudson Bend Road"/><tag k="addr:housenumber" v="5101"/><tag k="coa:place_id" v="96987"/></node><node id="-175" lat="30.418684" lon="-97.925582" changeset="false"><tag k="addr:street" v="Allenwood Drive"/><tag k="addr:housenumber" v="15912"/><tag k="coa:place_id" v="127763"/></node><node id="-176" lat="30.417971" lon="-97.930702" changeset="false"><tag k="addr:street" v="Hudson Bend Road"/><tag k="addr:housenumber" v="5320"/><tag k="coa:place_id" v="3072593"/></node><node id="-177" lat="30.422716" lon="-97.923984" changeset="false"><tag k="addr:street" v="Pool Canyon Road"/><tag k="addr:housenumber" v="16006"/><tag k="coa:place_id" v="822381"/></node><node id="-178" lat="30.427295" lon="-97.927406" changeset="false"><tag k="addr:street" v="Forest Way"/><tag k="addr:housenumber" v="16310"/><tag k="coa:place_id" v="95742"/></node><node id="-179" lat="30.427029" lon="-97.924898" changeset="false"><tag k="addr:street" v="Hudson Bend Road"/><tag k="addr:housenumber" v="6300"/><tag k="coa:place_id" v="585794"/></node><node id="-180" lat="30.416531" lon="-97.930319" changeset="false"><tag k="addr:street" v="Hudson Bend Road"/><tag k="addr:housenumber" v="5300"/><tag k="coa:place_id" v="3054614"/></node><node id="-181" lat="30.421648" lon="-97.941687" changeset="false"><tag k="addr:street" v="Serrano Trail"/><tag k="addr:housenumber" v="5112"/><tag k="coa:place_id" v="3029848"/></node><node id="-182" lat="30.420845" lon="-97.9379" changeset="false"><tag k="addr:street" v="Rocky Ridge Road"/><tag k="addr:housenumber" v="16714"/><tag k="coa:place_id" v="1111830"/></node><node id="-183" lat="30.43045" lon="-97.933846" changeset="false"><tag k="addr:street" v="Forest Way"/><tag k="addr:housenumber" v="16814"/><tag k="coa:place_id" v="585704"/></node><node id="-184" lat="30.424779" lon="-97.935482" changeset="false"><tag k="addr:street" v="Laguna Cliff Lane"/><tag k="addr:housenumber" v="5601 1/2"/><tag k="coa:place_id" v="3054672"/></node><node id="-185" lat="30.414538" lon="-97.923943" changeset="false"><tag k="addr:street" v="Awalt Drive"/><tag k="addr:housenumber" v="15706"/><tag k="coa:place_id" v="3040762"/></node><node id="-186" lat="30.423466" lon="-97.928132" changeset="false"><tag k="addr:street" v="Pool Canyon Cove"/><tag k="addr:housenumber" v="5723"/><tag k="coa:place_id" v="589184"/></node><node id="-187" lat="30.422626" lon="-97.927679" changeset="false"><tag k="addr:street" v="Pool Canyon Cove"/><tag k="addr:housenumber" v="5715"/><tag k="coa:place_id" v="589172"/></node><node id="-188" lat="30.418605" lon="-97.941673" changeset="false"><tag k="addr:street" v="Rocky Ridge Road"/><tag k="addr:housenumber" v="16809"/><tag k="coa:place_id" v="102273"/></node><node id="-189" lat="30.421136" lon="-97.936139" changeset="false"><tag k="addr:street" v="Rocky Ridge Road"/><tag k="addr:housenumber" v="16605"/><tag k="coa:place_id" v="645568"/></node><node id="-190" lat="30.427427" lon="-97.919825" changeset="false"><tag k="addr:street" v="Webb Lane"/><tag k="addr:housenumber" v="15916"/><tag k="coa:place_id" v="3256919"/></node><node id="-191" lat="30.41057" lon="-97.934928" changeset="false"><tag k="addr:street" v="Eck Lane"/><tag k="addr:housenumber" v="4511"/><tag k="coa:place_id" v="3274972"/></node><node id="-192" lat="30.421903" lon="-97.923911" changeset="false"><tag k="addr:street" v="Pool Canyon Road"/><tag k="addr:housenumber" v="16001"/><tag k="coa:place_id" v="95759"/></node><node id="-193" lat="30.423137" lon="-97.946964" changeset="false"><tag k="addr:street" v="Rocky Ridge Road"/><tag k="addr:housenumber" v="17135"/><tag k="coa:place_id" v="586244"/></node><node id="-194" lat="30.430398" lon="-97.929603" changeset="false"><tag k="addr:street" v="Forest Way"/><tag k="addr:housenumber" v="16656"/><tag k="coa:place_id" v="95879"/></node><node id="-195" lat="30.420386" lon="-97.927391" changeset="false"><tag k="addr:street" v="Pool Canyon Road"/><tag k="addr:housenumber" v="16042"/><tag k="coa:place_id" v="488674"/></node><node id="-196" lat="30.414003" lon="-97.931021" changeset="false"><tag k="addr:street" v="Doss Road"/><tag k="addr:housenumber" v="4815"/><tag k="coa:place_id" v="369790"/></node><node id="-197" lat="30.424534" lon="-97.93178" changeset="false"><tag k="addr:street" v="Hudson Bend Road"/><tag k="addr:housenumber" v="5800"/><tag k="coa:place_id" v="95785"/></node><node id="-198" lat="30.422773" lon="-97.940805" changeset="false"><tag k="addr:street" v="Rocky Ridge Road"/><tag k="addr:housenumber" v="17209"/><tag k="coa:place_id" v="3089851"/></node><node id="-199" lat="30.421674" lon="-97.942901" changeset="false"><tag k="addr:street" v="Rocky Ridge Road"/><tag k="addr:housenumber" v="17168"/><tag k="coa:place_id" v="209567"/></node><node id="-200" lat="30.421658" lon="-97.94546" changeset="false"><tag k="addr:street" v="Rocky Ridge Road"/><tag k="addr:housenumber" v="17127"/><tag k="coa:place_id" v="329944"/></node><node id="-201" lat="30.421824" lon="-97.945445" changeset="false"><tag k="addr:street" v="Rocky Ridge Road"/><tag k="addr:housenumber" v="17129"/><tag k="coa:place_id" v="586274"/></node><node id="-202" lat="30.41201" lon="-97.936976" changeset="false"><tag k="addr:street" v="Eck Lane"/><tag k="addr:housenumber" v="4738"/><tag k="coa:place_id" v="586730"/></node><node id="-203" lat="30.429738" lon="-97.92645" changeset="false"><tag k="addr:street" v="Hopkins Drive"/><tag k="addr:housenumber" v="6408"/><tag k="coa:place_id" v="115517"/></node><node id="-204" lat="30.427047" lon="-97.937341" changeset="false"><tag k="addr:street" v="Trail View Cove"/><tag k="addr:housenumber" v="16901"/><tag k="coa:place_id" v="71376"/></node><node id="-205" lat="30.425699" lon="-97.93058" changeset="false"><tag k="addr:street" v="Hudson Bend Road"/><tag k="addr:housenumber" v="5904"/><tag k="coa:place_id" v="95796"/></node><node id="-206" lat="30.424867" lon="-97.934695" changeset="false"><tag k="addr:street" v="Laguna Cliff Lane"/><tag k="addr:housenumber" v="5701"/><tag k="coa:place_id" v="3042626"/></node><node id="-207" lat="30.420875" lon="-97.926955" changeset="false"><tag k="addr:street" v="Pool Canyon Road"/><tag k="addr:housenumber" v="16036"/><tag k="coa:place_id" v="125433"/></node><node id="-208" lat="30.414502" lon="-97.929574" changeset="false"><tag k="addr:street" v="Hudson Bend Road"/><tag k="addr:housenumber" v="5210"/><tag k="coa:place_id" v="3151587"/></node><node id="-209" lat="30.416933" lon="-97.940422" changeset="false"><tag k="addr:street" v="Eck Lane"/><tag k="addr:housenumber" v="4832"/><tag k="coa:place_id" v="586634"/></node><node id="-210" lat="30.421085" lon="-97.945055" changeset="false"><tag k="addr:street" v="Rocky Ridge Road"/><tag k="addr:housenumber" v="17101"/><tag k="coa:place_id" v="669220"/></node><node id="-211" lat="30.41677" lon="-97.922341" changeset="false"><tag k="addr:street" v="Beacon Drive"/><tag k="addr:housenumber" v="5504"/><tag k="coa:place_id" v="3096392"/></node><node id="-212" lat="30.416403" lon="-97.928331" changeset="false"><tag k="addr:street" v="La Hacienda Drive"/><tag k="addr:housenumber" v="16007"/><tag k="coa:place_id" v="743877"/></node><node id="-213" lat="30.416176" lon="-97.92457" changeset="false"><tag k="addr:street" v="Awalt Drive"/><tag k="addr:housenumber" v="15800"/><tag k="coa:place_id" v="588824"/></node><node id="-214" lat="30.406952" lon="-97.931923" changeset="false"><tag k="addr:street" v="Eck Lane"/><tag k="addr:housenumber" v="4319"/><tag k="coa:place_id" v="240926"/></node><node id="-215" lat="30.413137" lon="-97.94075" changeset="false"><tag k="addr:street" v="Kidd Lane"/><tag k="addr:housenumber" v="16517"/><tag k="coa:place_id" v="346011"/></node><node id="-216" lat="30.4304" lon="-97.926288" changeset="false"><tag k="addr:street" v="Hopkins Drive"/><tag k="addr:housenumber" v="6412"/><tag k="coa:place_id" v="485242"/></node><node id="-217" lat="30.422296" lon="-97.927479" changeset="false"><tag k="addr:street" v="Pool Canyon Cove"/><tag k="addr:housenumber" v="5709"/><tag k="coa:place_id" v="3152720"/></node><node id="-218" lat="30.427655" lon="-97.924438" changeset="false"><tag k="addr:street" v="Elm Drive"/><tag k="addr:housenumber" v="16206"/><tag k="coa:place_id" v="95730"/></node><node id="-219" lat="30.42764" lon="-97.934035" changeset="false"><tag k="addr:street" v="Laguna Cliff Lane"/><tag k="addr:housenumber" v="6000"/><tag k="coa:place_id" v="3042634"/></node><node id="-220" lat="30.427365" lon="-97.935971" changeset="false"><tag k="addr:street" v="Travis Woods Cove"/><tag k="addr:housenumber" v="5903"/><tag k="coa:place_id" v="66033"/></node><node id="-221" lat="30.427099" lon="-97.928078" changeset="false"><tag k="addr:street" v="Forest Way"/><tag k="addr:housenumber" v="16401"/><tag k="coa:place_id" v="95833"/></node><node id="-222" lat="30.42346" lon="-97.924678" changeset="false"><tag k="addr:street" v="Pool Canyon Road"/><tag k="addr:housenumber" v="16012"/><tag k="coa:place_id" v="95743"/></node><node id="-223" lat="30.424486" lon="-97.935663" changeset="false"><tag k="addr:street" v="Laguna Cliff Lane"/><tag k="addr:housenumber" v="5601"/><tag k="coa:place_id" v="3042625"/></node><node id="-224" lat="30.423176" lon="-97.922542" changeset="false"><tag k="addr:street" v="Lakeside Trail"/><tag k="addr:housenumber" v="6004"/><tag k="coa:place_id" v="339658"/></node><node id="-225" lat="30.423026" lon="-97.942593" changeset="false"><tag k="addr:street" v="Rocky Ridge Road"/><tag k="addr:housenumber" v="17191"/><tag k="coa:place_id" v="3052819"/></node><node id="-226" lat="30.421744" lon="-97.941428" changeset="false"><tag k="addr:street" v="Serrano Trail"/><tag k="addr:housenumber" v="5200"/><tag k="coa:place_id" v="132049"/></node><node id="-227" lat="30.421055" lon="-97.940348" changeset="false"><tag k="addr:street" v="Rocky Ridge Road"/><tag k="addr:housenumber" v="17226"/><tag k="coa:place_id" v="435934"/></node><node id="-228" lat="30.416358" lon="-97.937534" changeset="false"><tag k="addr:street" v="Eck Lane"/><tag k="addr:housenumber" v="4805"/><tag k="coa:place_id" v="1003497"/></node><node id="-229" lat="30.426224" lon="-97.928646" changeset="false"><tag k="addr:street" v="Hudson Bend Road"/><tag k="addr:housenumber" v="6000"/><tag k="coa:place_id" v="95802"/></node><node id="-230" lat="30.418937" lon="-97.946002" changeset="false"><tag k="addr:street" v="South Ridge Lane"/><tag k="addr:housenumber" v="17017"/><tag k="coa:place_id" v="586388"/></node><node id="-231" lat="30.430862" lon="-97.934831" changeset="false"><tag k="addr:street" v="Forest Cove"/><tag k="addr:housenumber" v="16812"/><tag k="coa:place_id" v="576849"/></node><node id="-232" lat="30.41548" lon="-97.928375" changeset="false"><tag k="addr:street" v="Hudson Bend Road"/><tag k="addr:housenumber" v="5125"/><tag k="coa:place_id" v="748360"/></node><node id="-233" lat="30.415552" lon="-97.936928" changeset="false"><tag k="addr:street" v="Doss Road"/><tag k="addr:housenumber" v="5002"/><tag k="coa:place_id" v="116145"/></node><node id="-234" lat="30.423818" lon="-97.93073" changeset="false"><tag k="addr:street" v="Hudson Bend Road"/><tag k="addr:housenumber" v="5709"/><tag k="coa:place_id" v="95809"/></node><node id="-235" lat="30.421608" lon="-97.932245" changeset="false"><tag k="addr:street" v="Rocky Ridge Road"/><tag k="addr:housenumber" v="16400"/><tag k="coa:place_id" v="95820"/></node><node id="-236" lat="30.411052" lon="-97.929798" changeset="false"><tag k="addr:street" v="Doss Road"/><tag k="addr:housenumber" v="4701"/><tag k="coa:place_id" v="5068243"/></node><node id="-237" lat="30.429159" lon="-97.946195" changeset="false"><tag k="addr:street" v="West Beach Circle"/><tag k="addr:housenumber" v="5512"/><tag k="coa:place_id" v="1012466"/></node><node id="-238" lat="30.420724" lon="-97.923417" changeset="false"><tag k="addr:street" v="Lakeside Trail"/><tag k="addr:housenumber" v="5805"/><tag k="coa:place_id" v="5109145"/></node><node id="-239" lat="30.428307" lon="-97.924322" changeset="false"><tag k="addr:street" v="Hudson Bend Road"/><tag k="addr:housenumber" v="6411"/><tag k="coa:place_id" v="246321"/></node><node id="-240" lat="30.424845" lon="-97.943891" changeset="false"><tag k="addr:street" v="Feather Rock Trail"/><tag k="addr:housenumber" v="17115"/><tag k="coa:place_id" v="586172"/></node><node id="-241" lat="30.418461" lon="-97.929577" changeset="false"><tag k="addr:street" v="Awalt Drive"/><tag k="addr:housenumber" v="16109"/><tag k="coa:place_id" v="588974"/></node><node id="-242" lat="30.416959" lon="-97.926736" changeset="false"><tag k="addr:street" v="Awalt Drive"/><tag k="addr:housenumber" v="15909"/><tag k="coa:place_id" v="588896"/></node><node id="-243" lat="30.422699" lon="-97.942051" changeset="false"><tag k="addr:street" v="Rocky Ridge Road"/><tag k="addr:housenumber" v="17192"/><tag k="coa:place_id" v="586190"/></node><node id="-244" lat="30.42" lon="-97.940071" changeset="false"><tag k="addr:street" v="Rocky Ridge Road"/><tag k="addr:housenumber" v="16756"/><tag k="coa:place_id" v="301917"/></node><node id="-245" lat="30.419452" lon="-97.932667" changeset="false"><tag k="addr:street" v="Doss Road"/><tag k="addr:housenumber" v="5306"/><tag k="coa:place_id" v="589208"/></node><node id="-246" lat="30.412351" lon="-97.94048" changeset="false"><tag k="addr:street" v="Kidd Lane"/><tag k="addr:housenumber" v="16515"/><tag k="coa:place_id" v="586724"/></node><node id="-247" lat="30.413204" lon="-97.925256" changeset="false"><tag k="addr:street" v="La Hacienda Drive"/><tag k="addr:housenumber" v="15701"/><tag k="coa:place_id" v="155213"/></node><node id="-248" lat="30.413155" lon="-97.930832" changeset="false"><tag k="addr:street" v="Doss Road"/><tag k="addr:housenumber" v="4811"/><tag k="coa:place_id" v="3105773"/></node><node id="-249" lat="30.413132" lon="-97.934584" changeset="false"><tag k="addr:street" v="Eck Lane"/><tag k="addr:housenumber" v="4715"/><tag k="coa:place_id" v="586748"/></node><node id="-250" lat="30.407745" lon="-97.93554" changeset="false"><tag k="addr:street" v="Eck Lane"/><tag k="addr:housenumber" v="4428"/><tag k="coa:place_id" v="586814"/></node><node id="-251" lat="30.411828" lon="-97.930028" changeset="false"><tag k="addr:street" v="Doss Road"/><tag k="addr:housenumber" v="4711"/><tag k="coa:place_id" v="751546"/></node><node id="-252" lat="30.422639" lon="-97.934835" changeset="false"><tag k="addr:street" v="Laguna Cliff Lane"/><tag k="addr:housenumber" v="5309"/><tag k="coa:place_id" v="3042616"/></node><node id="-253" lat="30.424047" lon="-97.932113" changeset="false"><tag k="addr:street" v="Hudson Bend Road"/><tag k="addr:housenumber" v="5706"/><tag k="coa:place_id" v="95783"/></node><node id="-254" lat="30.403606" lon="-97.931455" changeset="false"><tag k="addr:street" v="Eck Lane"/><tag k="addr:housenumber" v="4200"/><tag k="coa:place_id" v="3380450"/></node><node id="-255" lat="30.418155" lon="-97.92312" changeset="false"><tag k="addr:street" v="Beacon Drive"/><tag k="addr:housenumber" v="5614"/><tag k="coa:place_id" v="5095296"/></node><node id="-256" lat="30.425916" lon="-97.930038" changeset="false"><tag k="addr:street" v="Hudson Bend Road"/><tag k="addr:housenumber" v="5908"/><tag k="coa:place_id" v="759909"/></node><node id="-257" lat="30.403593" lon="-97.929849" changeset="false"><tag k="addr:street" v="Eck Lane"/><tag k="addr:housenumber" v="4105"/><tag k="coa:place_id" v="198319"/></node><node id="-258" lat="30.421916" lon="-97.937235" changeset="false"><tag k="addr:street" v="Rocky Ridge Road"/><tag k="addr:housenumber" v="16704"/><tag k="coa:place_id" v="586598"/></node><node id="-259" lat="30.418783" lon="-97.934424" changeset="false"><tag k="addr:street" v="Doss Road"/><tag k="addr:housenumber" v="5112"/><tag k="coa:place_id" v="197322"/></node><node id="-260" lat="30.42303" lon="-97.929205" changeset="false"><tag k="addr:street" v="Pool Canyon Cove"/><tag k="addr:housenumber" v="5735"/><tag k="coa:place_id" v="3320171"/></node><node id="-261" lat="30.417649" lon="-97.942287" changeset="false"><tag k="addr:street" v="South Ridge Lane"/><tag k="addr:housenumber" v="16820"/><tag k="coa:place_id" v="586478"/></node><node id="-262" lat="30.422968" lon="-97.942799" changeset="false"><tag k="addr:street" v="Rocky Ridge Road"/><tag k="addr:housenumber" v="17185"/><tag k="coa:place_id" v="3329385"/></node><node id="-263" lat="30.408074" lon="-97.933986" changeset="false"><tag k="addr:street" v="Eck Lane"/><tag k="addr:housenumber" v="4423"/><tag k="coa:place_id" v="594040"/></node><node id="-264" lat="30.422539" lon="-97.942313" changeset="false"><tag k="addr:street" v="Rocky Ridge Road"/><tag k="addr:housenumber" v="17178"/><tag k="coa:place_id" v="603526"/></node><node id="-265" lat="30.417482" lon="-97.941045" changeset="false"><tag k="addr:street" v="South Ridge Lane"/><tag k="addr:housenumber" v="16807"/><tag k="coa:place_id" v="586526"/></node><node id="-266" lat="30.415463" lon="-97.934687" changeset="false"><tag k="addr:street" v="Doss Road"/><tag k="addr:housenumber" v="5000"/><tag k="coa:place_id" v="609664"/></node><node id="-267" lat="30.413988" lon="-97.937281" changeset="false"><tag k="addr:street" v="Eck Lane"/><tag k="addr:housenumber" v="4748"/><tag k="coa:place_id" v="647614"/></node><node id="-268" lat="30.413636" lon="-97.939514" changeset="false"><tag k="addr:street" v="Kidd Lane"/><tag k="addr:housenumber" v="16514"/><tag k="coa:place_id" v="586676"/></node><node id="-269" lat="30.412048" lon="-97.934894" changeset="false"><tag k="addr:street" v="Eck Lane"/><tag k="addr:housenumber" v="4710"/><tag k="coa:place_id" v="231187"/></node><node id="-270" lat="30.42247" lon="-97.927497" changeset="false"><tag k="addr:street" v="Pool Canyon Cove"/><tag k="addr:housenumber" v="5711"/><tag k="coa:place_id" v="589166"/></node><node id="-271" lat="30.406648" lon="-97.934101" changeset="false"><tag k="addr:street" v="Eck Lane"/><tag k="addr:housenumber" v="4404"/><tag k="coa:place_id" v="95257"/></node><node id="-272" lat="30.406438" lon="-97.928596" changeset="false"><tag k="addr:street" v="Doss Road"/><tag k="addr:housenumber" v="4511"/><tag k="coa:place_id" v="612736"/></node><node id="-273" lat="30.425283" lon="-97.932466" changeset="false"><tag k="addr:street" v="Median Road"/><tag k="addr:housenumber" v="5803"/><tag k="coa:place_id" v="3198120"/></node><node id="-274" lat="30.417182" lon="-97.925247" changeset="false"><tag k="addr:street" v="Awalt Drive"/><tag k="addr:housenumber" v="15900"/><tag k="coa:place_id" v="497056"/></node><node id="-275" lat="30.431302" lon="-97.936899" changeset="false"><tag k="addr:street" v="End of the Trail"/><tag k="addr:housenumber" v="6110"/><tag k="coa:place_id" v="1123267"/></node><node id="-276" lat="30.432572" lon="-97.929109" changeset="false"><tag k="addr:street" v="Forest Way"/><tag k="addr:housenumber" v="16670"/><tag k="coa:place_id" v="585614"/></node><node id="-277" lat="30.426482" lon="-97.934682" changeset="false"><tag k="addr:street" v="Laguna Cliff Lane"/><tag k="addr:housenumber" v="5808"/><tag k="coa:place_id" v="3042631"/></node><node id="-278" lat="30.426334" lon="-97.931433" changeset="false"><tag k="addr:street" v="Median Road"/><tag k="addr:housenumber" v="5905"/><tag k="coa:place_id" v="936213"/></node><node id="-279" lat="30.430693" lon="-97.933793" changeset="false"><tag k="addr:street" v="Forest Way"/><tag k="addr:housenumber" v="16810"/><tag k="coa:place_id" v="169524"/></node><node id="-280" lat="30.415327" lon="-97.938137" changeset="false"><tag k="addr:street" v="Eck Lane"/><tag k="addr:housenumber" v="4806"/><tag k="coa:place_id" v="525310"/></node><node id="-281" lat="30.407381" lon="-97.92961" changeset="false"><tag k="addr:street" v="Sooner Street"/><tag k="addr:housenumber" v="4410"/><tag k="coa:place_id" v="250722"/></node><node id="-282" lat="30.407371" lon="-97.933606" changeset="false"><tag k="addr:street" v="Eck Lane"/><tag k="addr:housenumber" v="4408"/><tag k="coa:place_id" v="95260"/></node><node id="-283" lat="30.423435" lon="-97.924983" changeset="false"><tag k="addr:street" v="Pool Canyon Road"/><tag k="addr:housenumber" v="16014"/><tag k="coa:place_id" v="95747"/></node><node id="-284" lat="30.42061" lon="-97.941827" changeset="false"><tag k="addr:street" v="Serrano Trail"/><tag k="addr:housenumber" v="5015"/><tag k="coa:place_id" v="229457"/></node><node id="-285" lat="30.426093" lon="-97.926675" changeset="false"><tag k="addr:street" v="Hudson Bend Road"/><tag k="addr:housenumber" v="6107"/><tag k="coa:place_id" v="636609"/></node><node id="-286" lat="30.418554" lon="-97.935992" changeset="false"><tag k="addr:street" v="Doss Road"/><tag k="addr:housenumber" v="5102"/><tag k="coa:place_id" v="169113"/></node><node id="-287" lat="30.425945" lon="-97.929723" changeset="false"><tag k="addr:street" v="Hudson Bend Road"/><tag k="addr:housenumber" v="5910"/><tag k="coa:place_id" v="95801"/></node><node id="-288" lat="30.425334" lon="-97.927928" changeset="false"><tag k="addr:street" v="Hudson Bend Road"/><tag k="addr:housenumber" v="6007"/><tag k="coa:place_id" v="589328"/></node><node id="-289" lat="30.425985" lon="-97.931825" changeset="false"><tag k="addr:street" v="Median Road"/><tag k="addr:housenumber" v="5901"/><tag k="coa:place_id" v="585818"/></node><node id="-290" lat="30.415401" lon="-97.930053" changeset="false"><tag k="addr:street" v="Hudson Bend Road"/><tag k="addr:housenumber" v="5220"/><tag k="coa:place_id" v="3151588"/></node><node id="-291" lat="30.427232" lon="-97.93419" changeset="false"><tag k="addr:street" v="Laguna Cliff Lane"/><tag k="addr:housenumber" v="5908"/><tag k="coa:place_id" v="3042633"/></node><node id="-292" lat="30.421998" lon="-97.926019" changeset="false"><tag k="addr:street" v="Pool Canyon Road"/><tag k="addr:housenumber" v="16026"/><tag k="coa:place_id" v="95748"/></node><node id="-293" lat="30.421545" lon="-97.926418" changeset="false"><tag k="addr:street" v="Pool Canyon Road"/><tag k="addr:housenumber" v="16030"/><tag k="coa:place_id" v="997725"/></node><node id="-294" lat="30.423647" lon="-97.939038" changeset="false"><tag k="addr:street" v="Top of the Trail Cove"/><tag k="addr:housenumber" v="5402"/><tag k="coa:place_id" v="71379"/></node><node id="-295" lat="30.423222" lon="-97.935598" changeset="false"><tag k="addr:street" v="Laguna Cliff Lane"/><tag k="addr:housenumber" v="5401"/><tag k="coa:place_id" v="3042618"/></node><node id="-296" lat="30.422786" lon="-97.921811" changeset="false"><tag k="addr:street" v="Beacon Drive"/><tag k="addr:housenumber" v="5906"/><tag k="coa:place_id" v="161524"/></node><node id="-297" lat="30.415614" lon="-97.932303" changeset="false"><tag k="addr:street" v="Doss Road"/><tag k="addr:housenumber" v="4911"/><tag k="coa:place_id" v="589250"/></node><node id="-298" lat="30.421353" lon="-97.925027" changeset="false"><tag k="addr:street" v="Pool Canyon Road"/><tag k="addr:housenumber" v="16029"/><tag k="coa:place_id" v="3183836"/></node><node id="-299" lat="30.428825" lon="-97.935513" changeset="false"><tag k="addr:street" v="Travis Woods Cove"/><tag k="addr:housenumber" v="6001"/><tag k="coa:place_id" v="66037"/></node><node id="-300" lat="30.412897" lon="-97.929996" changeset="false"><tag k="addr:street" v="Doss Road"/><tag k="addr:housenumber" v="4805"/><tag k="coa:place_id" v="588236"/></node><node id="-301" lat="30.426433" lon="-97.933539" changeset="false"><tag k="addr:street" v="Laguna Cliff Lane"/><tag k="addr:housenumber" v="5901"/><tag k="coa:place_id" v="3042638"/></node><node id="-302" lat="30.427834" lon="-97.920629" changeset="false"><tag k="addr:street" v="Webb Lane"/><tag k="addr:housenumber" v="16008"/><tag k="coa:place_id" v="95875"/></node><node id="-303" lat="30.429667" lon="-97.930806" changeset="false"><tag k="addr:street" v="Forest Way"/><tag k="addr:housenumber" v="16662"/><tag k="coa:place_id" v="95881"/></node><node id="-304" lat="30.427567" lon="-97.929408" changeset="false"><tag k="addr:street" v="Forest Way"/><tag k="addr:housenumber" v="16501"/><tag k="coa:place_id" v="95843"/></node><node id="-305" lat="30.427259" lon="-97.928383" changeset="false"><tag k="addr:street" v="Forest Way"/><tag k="addr:housenumber" v="16403"/><tag k="coa:place_id" v="95837"/></node><node id="-306" lat="30.429784" lon="-97.930736" changeset="false"><tag k="addr:street" v="Forest Way"/><tag k="addr:housenumber" v="16666"/><tag k="coa:place_id" v="95885"/></node><node id="-307" lat="30.418951" lon="-97.929753" changeset="false"><tag k="addr:street" v="Awalt Drive"/><tag k="addr:housenumber" v="16110"/><tag k="coa:place_id" v="216545"/></node><node id="-308" lat="30.414201" lon="-97.923817" changeset="false"><tag k="addr:street" v="Awalt Drive"/><tag k="addr:housenumber" v="15700"/><tag k="coa:place_id" v="140711"/></node><node id="-309" lat="30.422734" lon="-97.932215" changeset="false"><tag k="addr:street" v="Hudson Bend Road"/><tag k="addr:housenumber" v="5608"/><tag k="coa:place_id" v="95773"/></node><node id="-310" lat="30.419424" lon="-97.925058" changeset="false"><tag k="addr:street" v="Allenwood Drive"/><tag k="addr:housenumber" v="15908"/><tag k="coa:place_id" v="5281607"/></node><node id="-311" lat="30.409461" lon="-97.93644" changeset="false"><tag k="addr:street" v="Eck Lane"/><tag k="addr:housenumber" v="4450"/><tag k="coa:place_id" v="5280977"/></node><node id="-312" lat="30.421353" lon="-97.92656" changeset="false"><tag k="addr:street" v="Pool Canyon Road"/><tag k="addr:housenumber" v="16032"/><tag k="coa:place_id" v="95749"/></node><node id="-313" lat="30.423805" lon="-97.938084" changeset="false"><tag k="addr:street" v="Top of the Trail Cove"/><tag k="addr:housenumber" v="5401"/><tag k="coa:place_id" v="71381"/></node><node id="-314" lat="30.414478" lon="-97.927673" changeset="false"><tag k="addr:street" v="Hudson Bend Road"/><tag k="addr:housenumber" v="5113"/><tag k="coa:place_id" v="215824"/></node><node id="-315" lat="30.423716" lon="-97.933332" changeset="false"><tag k="addr:street" v="Median Road"/><tag k="addr:housenumber" v="5605"/><tag k="coa:place_id" v="95851"/></node><node id="-316" lat="30.41089" lon="-97.93105" changeset="false"><tag k="addr:street" v="Doss Road"/><tag k="addr:housenumber" v="4700"/><tag k="coa:place_id" v="122591"/></node><node id="-317" lat="30.410404" lon="-97.934918" changeset="false"><tag k="addr:street" v="Eck Lane"/><tag k="addr:housenumber" v="4509"/><tag k="coa:place_id" v="586772"/></node><node id="-318" lat="30.417242" lon="-97.930475" changeset="false"><tag k="addr:street" v="Hudson Bend Road"/><tag k="addr:housenumber" v="5310"/><tag k="coa:place_id" v="3151589"/></node><node id="-319" lat="30.421415" lon="-97.938557" changeset="false"><tag k="addr:street" v="Rocky Ridge Road"/><tag k="addr:housenumber" v="17245"/><tag k="coa:place_id" v="682270"/></node><node id="-320" lat="30.419959" lon="-97.928802" changeset="false"><tag k="addr:street" v="Pool Canyon Road"/><tag k="addr:housenumber" v="16201"/><tag k="coa:place_id" v="173429"/></node><node id="-321" lat="30.428085" lon="-97.922187" changeset="false"><tag k="addr:street" v="Webb Lane"/><tag k="addr:housenumber" v="16100"/><tag k="coa:place_id" v="117937"/></node><node id="-322" lat="30.427874" lon="-97.923162" changeset="false"><tag k="addr:street" v="Edwards Drive"/><tag k="addr:housenumber" v="16114"/><tag k="coa:place_id" v="585446"/></node><node id="-323" lat="30.427511" lon="-97.930294" changeset="false"><tag k="addr:street" v="Forest Way"/><tag k="addr:housenumber" v="16507"/><tag k="coa:place_id" v="95849"/></node><node id="-324" lat="30.408689" lon="-97.926503" changeset="false"><tag k="addr:street" v="Hudson Bend Road"/><tag k="addr:housenumber" v="4702"/><tag k="coa:place_id" v="190056"/></node><node id="-325" lat="30.427564" lon="-97.929932" changeset="false"><tag k="addr:street" v="Forest Way"/><tag k="addr:housenumber" v="16505"/><tag k="coa:place_id" v="95845"/></node><node id="-326" lat="30.417161" lon="-97.939899" changeset="false"><tag k="addr:street" v="Eck Lane"/><tag k="addr:housenumber" v="4833"/><tag k="coa:place_id" v="579369"/></node><node id="-327" lat="30.421393" lon="-97.931054" changeset="false"><tag k="addr:street" v="Hudson Bend Road"/><tag k="addr:housenumber" v="5506"/><tag k="coa:place_id" v="95767"/></node><node id="-328" lat="30.40694" lon="-97.930484" changeset="false"><tag k="addr:street" v="Doss Road"/><tag k="addr:housenumber" v="4535"/><tag k="coa:place_id" v="1153987"/></node><node id="-329" lat="30.40554" lon="-97.929248" changeset="false"><tag k="addr:street" v="James Lane"/><tag k="addr:housenumber" v="4305"/><tag k="coa:place_id" v="147791"/></node><node id="-330" lat="30.43153" lon="-97.933463" changeset="false"><tag k="addr:street" v="Forest Way"/><tag k="addr:housenumber" v="16806"/><tag k="coa:place_id" v="121133"/></node><node id="-331" lat="30.418675" lon="-97.931425" changeset="false"><tag k="addr:street" v="Doss Road"/><tag k="addr:housenumber" v="5403"/><tag k="coa:place_id" v="3149510"/></node><node id="-332" lat="30.425552" lon="-97.930833" changeset="false"><tag k="addr:street" v="Hudson Bend Road"/><tag k="addr:housenumber" v="5902"/><tag k="coa:place_id" v="95795"/></node><node id="-333" lat="30.428284" lon="-97.924565" changeset="false"><tag k="addr:street" v="Hudson Bend Road"/><tag k="addr:housenumber" v="6410"/><tag k="coa:place_id" v="922286"/></node><node id="-334" lat="30.428925" lon="-97.936148" changeset="false"><tag k="addr:street" v="Travis Woods Cove"/><tag k="addr:housenumber" v="6000"/><tag k="coa:place_id" v="66027"/></node><node id="-335" lat="30.428473" lon="-97.923925" changeset="false"><tag k="addr:street" v="Hudson Bend Road"/><tag k="addr:housenumber" v="6409"/><tag k="coa:place_id" v="349400"/></node><node id="-336" lat="30.421015" lon="-97.931276" changeset="false"><tag k="addr:street" v="Rocky Ridge Road"/><tag k="addr:housenumber" v="16306"/><tag k="coa:place_id" v="95819"/></node><node id="-337" lat="30.424922" lon="-97.943269" changeset="false"><tag k="addr:street" v="Feather Rock Trail"/><tag k="addr:housenumber" v="17110"/><tag k="coa:place_id" v="136465"/></node><node id="-338" lat="30.404584" lon="-97.927685" changeset="false"><tag k="addr:street" v="Hudson Bend Road"/><tag k="addr:housenumber" v="4402"/><tag k="coa:place_id" v="367617"/></node><node id="-339" lat="30.428865" lon="-97.933688" changeset="false"><tag k="addr:street" v="Laguna Cliff Lane"/><tag k="addr:housenumber" v="6108"/><tag k="coa:place_id" v="3039674"/></node><node id="-340" lat="30.417106" lon="-97.922635" changeset="false"><tag k="addr:street" v="Wildwood Trail"/><tag k="addr:housenumber" v="15701"/><tag k="coa:place_id" v="3096391"/></node><node id="-341" lat="30.40573" lon="-97.931894" changeset="false"><tag k="addr:street" v="Eck Lane"/><tag k="addr:housenumber" v="4223"/><tag k="coa:place_id" v="216857"/></node><node id="-342" lat="30.404128" lon="-97.931774" changeset="false"><tag k="addr:street" v="Eck Lane"/><tag k="addr:housenumber" v="4212"/><tag k="coa:place_id" v="586850"/></node><node id="-343" lat="30.417092" lon="-97.937273" changeset="false"><tag k="addr:street" v="Doss Road"/><tag k="addr:housenumber" v="5010"/><tag k="coa:place_id" v="206863"/></node><node id="-344" lat="30.421296" lon="-97.940705" changeset="false"><tag k="addr:street" v="Rocky Ridge Road"/><tag k="addr:housenumber" v="17220"/><tag k="coa:place_id" v="508864"/></node><node id="-345" lat="30.420346" lon="-97.941995" changeset="false"><tag k="addr:street" v="Serrano Trail"/><tag k="addr:housenumber" v="5011"/><tag k="coa:place_id" v="216321"/></node><node id="-346" lat="30.420065" lon="-97.927256" changeset="false"><tag k="addr:street" v="Pool Canyon Road"/><tag k="addr:housenumber" v="16064"/><tag k="coa:place_id" v="566464"/></node><node id="-347" lat="30.42783" lon="-97.923099" changeset="false"><tag k="addr:street" v="Edwards Drive"/><tag k="addr:housenumber" v="16110"/><tag k="coa:place_id" v="585440"/></node><node id="-348" lat="30.41856" lon="-97.92303" changeset="false"><tag k="addr:street" v="Beacon Drive"/><tag k="addr:housenumber" v="5700"/><tag k="coa:place_id" v="3110497"/></node><node id="-349" lat="30.426236" lon="-97.928585" changeset="false"><tag k="addr:street" v="Hudson Bend Road"/><tag k="addr:housenumber" v="6004"/><tag k="coa:place_id" v="95803"/></node><node id="-350" lat="30.413892" lon="-97.933038" changeset="false"><tag k="addr:street" v="Doss Road"/><tag k="addr:housenumber" v="4900"/><tag k="coa:place_id" v="162679"/></node><node id="-351" lat="30.423361" lon="-97.925553" changeset="false"><tag k="addr:street" v="Pool Canyon Road"/><tag k="addr:housenumber" v="16018"/><tag k="coa:place_id" v="589130"/></node><node id="-352" lat="30.432255" lon="-97.929759" changeset="false"><tag k="addr:street" v="Forest Way"/><tag k="addr:housenumber" v="16672"/><tag k="coa:place_id" v="775269"/></node><node id="-353" lat="30.425281" lon="-97.934308" changeset="false"><tag k="addr:street" v="Laguna Cliff Lane"/><tag k="addr:housenumber" v="5709"/><tag k="coa:place_id" v="3042627"/></node><node id="-354" lat="30.425489" lon="-97.92828" changeset="false"><tag k="addr:street" v="Hudson Bend Road"/><tag k="addr:housenumber" v="6005"/><tag k="coa:place_id" v="589316"/></node><node id="-355" lat="30.407332" lon="-97.935065" changeset="false"><tag k="addr:street" v="Eck Lane"/><tag k="addr:housenumber" v="4424"/><tag k="coa:place_id" v="586820"/></node><node id="-356" lat="30.406821" lon="-97.930353" changeset="false"><tag k="addr:street" v="Doss Road"/><tag k="addr:housenumber" v="4531"/><tag k="coa:place_id" v="1153707"/></node><node id="-357" lat="30.418227" lon="-97.932476" changeset="false"><tag k="addr:street" v="Doss Road"/><tag k="addr:housenumber" v="5401"/><tag k="coa:place_id" v="3032592"/></node><node id="-358" lat="30.420506" lon="-97.942729" changeset="false"><tag k="addr:street" v="Serrano Trail"/><tag k="addr:housenumber" v="5002"/><tag k="coa:place_id" v="534172"/></node><node id="-359" lat="30.423338" lon="-97.931456" changeset="false"><tag k="addr:street" v="Hudson Bend Road"/><tag k="addr:housenumber" v="5701"/><tag k="coa:place_id" v="3072539"/></node><node id="-360" lat="30.421776" lon="-97.926163" changeset="false"><tag k="addr:street" v="Pool Canyon Road"/><tag k="addr:housenumber" v="16028"/><tag k="coa:place_id" v="145467"/></node><node id="-361" lat="30.423339" lon="-97.938599" changeset="false"><tag k="addr:street" v="Top of the Trail Cove"/><tag k="addr:housenumber" v="5400"/><tag k="coa:place_id" v="71380"/></node><node id="-362" lat="30.421295" lon="-97.945612" changeset="false"><tag k="addr:street" v="Rocky Ridge Road"/><tag k="addr:housenumber" v="17037"/><tag k="coa:place_id" v="586352"/></node><node id="-363" lat="30.423396" lon="-97.93736" changeset="false"><tag k="addr:street" v="French Harbour Court"/><tag k="addr:housenumber" v="16708"/><tag k="coa:place_id" v="3039664"/></node><node id="-364" lat="30.424351" lon="-97.929653" changeset="false"><tag k="addr:street" v="Hudson Bend Road"/><tag k="addr:housenumber" v="5901"/><tag k="coa:place_id" v="589286"/></node><node id="-365" lat="30.424369" lon="-97.932941" changeset="false"><tag k="addr:street" v="Median Road"/><tag k="addr:housenumber" v="5703"/><tag k="coa:place_id" v="95857"/></node><node id="-366" lat="30.423452" lon="-97.925287" changeset="false"><tag k="addr:street" v="Pool Canyon Road"/><tag k="addr:housenumber" v="16016"/><tag k="coa:place_id" v="589124"/></node><node id="-367" lat="30.426812" lon="-97.933262" changeset="false"><tag k="addr:street" v="Laguna Cliff Lane"/><tag k="addr:housenumber" v="5909"/><tag k="coa:place_id" v="3042639"/></node><node id="-368" lat="30.428475" lon="-97.933808" changeset="false"><tag k="addr:street" v="Laguna Cliff Lane"/><tag k="addr:housenumber" v="6100"/><tag k="coa:place_id" v="3042636"/></node><node id="-369" lat="30.416957" lon="-97.923112" changeset="false"><tag k="addr:street" v="Wildwood Trail"/><tag k="addr:housenumber" v="15705"/><tag k="coa:place_id" v="3190726"/></node><node id="-370" lat="30.421747" lon="-97.944049" changeset="false"><tag k="addr:street" v="Rocky Ridge Road"/><tag k="addr:housenumber" v="17116"/><tag k="coa:place_id" v="586292"/></node><node id="-371" lat="30.426359" lon="-97.925732" changeset="false"><tag k="addr:street" v="Hudson Bend Road"/><tag k="addr:housenumber" v="6207"/><tag k="coa:place_id" v="95814"/></node><node id="-372" lat="30.430735" lon="-97.934994" changeset="false"><tag k="addr:street" v="Forest Cove"/><tag k="addr:housenumber" v="16818"/><tag k="coa:place_id" v="585842"/></node><node id="-373" lat="30.42146" lon="-97.92861" changeset="false"><tag k="addr:street" v="Pool Canyon Cove"/><tag k="addr:housenumber" v="5627"/><tag k="coa:place_id" v="3220976"/></node><node id="-374" lat="30.419336" lon="-97.937957" changeset="false"><tag k="addr:street" v="Rocky Ridge Road"/><tag k="addr:housenumber" v="16735"/><tag k="coa:place_id" v="859875"/></node><node id="-375" lat="30.422127" lon="-97.9377" changeset="false"><tag k="addr:street" v="Rocky Ridge Road"/><tag k="addr:housenumber" v="16708"/><tag k="coa:place_id" v="1164979"/></node><node id="-376" lat="30.412574" lon="-97.926832" changeset="false"><tag k="addr:street" v="Hudson Bend Road"/><tag k="addr:housenumber" v="5001"/><tag k="coa:place_id" v="588290"/></node><node id="-377" lat="30.412509" lon="-97.92683" changeset="false"><tag k="addr:street" v="Hudson Bend Road"/><tag k="addr:housenumber" v="5003"/><tag k="coa:place_id" v="246319"/></node></osm>