<?xml version="1.0" encoding="UTF-8"?><osm version="0.6" generator="github.com/aaronlidman/osm-and-geojson"><node id="-1" lat="30.421401" lon="-97.922391" changeset="false"><tag k="addr:street" v="Beacon Drive"/><tag k="addr:housenumber" v="5904"/><tag k="coa:place_id" v="589052"/></node><node id="-2" lat="30.421612" lon="-97.922899" changeset="false"><tag k="addr:street" v="Lakeside Trail"/><tag k="addr:housenumber" v="5907"/><tag k="coa:place_id" v="587918"/></node><node id="-3" lat="30.415232" lon="-97.926926" changeset="false"><tag k="addr:street" v="La Hacienda Drive"/><tag k="addr:housenumber" v="15901"/><tag k="coa:place_id" v="588386"/></node><node id="-4" lat="30.414916" lon="-97.926787" changeset="false"><tag k="addr:street" v="La Hacienda Drive"/><tag k="addr:housenumber" v="15805"/><tag k="coa:place_id" v="208584"/></node><node id="-5" lat="30.4143" lon="-97.926317" changeset="false"><tag k="addr:street" v="La Hacienda Drive"/><tag k="addr:housenumber" v="15801"/><tag k="coa:place_id" v="588356"/></node><node id="-6" lat="30.414636" lon="-97.926513" changeset="false"><tag k="addr:street" v="La Hacienda Drive"/><tag k="addr:housenumber" v="15803"/><tag k="coa:place_id" v="178624"/></node><node id="-7" lat="30.413265" lon="-97.92582" changeset="false"><tag k="addr:street" v="Beacon Drive"/><tag k="addr:housenumber" v="5110"/><tag k="coa:place_id" v="588314"/></node><node id="-8" lat="30.413758" lon="-97.925861" changeset="false"><tag k="addr:street" v="La Hacienda Drive"/><tag k="addr:housenumber" v="15707"/><tag k="coa:place_id" v="588296"/></node><node id="-9" lat="30.412002" lon="-97.92723" changeset="false"><tag k="addr:street" v="Hudson Bend Road"/><tag k="addr:housenumber" v="5000"/><tag k="coa:place_id" v="200087"/></node><node id="-10" lat="30.412896" lon="-97.925659" changeset="false"><tag k="addr:street" v="Beacon Drive"/><tag k="addr:housenumber" v="5108"/><tag k="coa:place_id" v="588302"/></node><node id="-11" lat="30.414167" lon="-97.927342" changeset="false"><tag k="addr:street" v="Hudson Bend Road"/><tag k="addr:housenumber" v="5107"/><tag k="coa:place_id" v="418803"/></node></osm>