<?xml version="1.0" encoding="UTF-8"?><osm version="0.6" generator="github.com/aaronlidman/osm-and-geojson"><node id="-1" lat="30.27189" lon="-97.734843" changeset="false"><tag k="addr:street" v="Red River Street"/><tag k="addr:housenumber" v="1117"/><tag k="coa:place_id" v="948194"/></node><node id="-2" lat="30.271584" lon="-97.734538" changeset="false"><tag k="addr:street" v="East 11th Street"/><tag k="addr:housenumber" v="610"/><tag k="coa:place_id" v="1115848"/></node><node id="-3" lat="30.27153" lon="-97.733518" changeset="false"><tag k="addr:street" v="East 12th Street"/><tag k="addr:housenumber" v="705"/><tag k="coa:place_id" v="879248"/></node><node id="-4" lat="30.271671" lon="-97.735871" changeset="false"><tag k="addr:street" v="East 11th Street"/><tag k="addr:housenumber" v="512"/><tag k="coa:place_id" v="311427"/></node><node id="-5" lat="30.271779" lon="-97.73619" changeset="false"><tag k="addr:street" v="East 11th Street"/><tag k="addr:housenumber" v="502"/><tag k="coa:place_id" v="205759"/></node><node id="-6" lat="30.271114" lon="-97.733784" changeset="false"><tag k="addr:street" v="East 11th Street"/><tag k="addr:housenumber" v="700"/><tag k="coa:place_id" v="879254"/></node><node id="-7" lat="30.269482" lon="-97.734656" changeset="false"><tag k="addr:street" v="East 10th Street"/><tag k="addr:housenumber" v="625"/><tag k="coa:place_id" v="312022"/></node><node id="-8" lat="30.269466" lon="-97.733994" changeset="false"><tag k="addr:street" v="East 10th Street"/><tag k="addr:housenumber" v="709"/><tag k="coa:place_id" v="879260"/></node><node id="-9" lat="30.26969" lon="-97.736358" changeset="false"><tag k="addr:street" v="Red River Street"/><tag k="addr:housenumber" v="900"/><tag k="coa:place_id" v="272678"/></node><node id="-10" lat="30.267367" lon="-97.735985" changeset="false"><tag k="addr:street" v="East 7th Street"/><tag k="addr:housenumber" v="610"/><tag k="coa:place_id" v="201038"/></node><node id="-11" lat="30.267445" lon="-97.735534" changeset="false"><tag k="addr:street" v="East 7th Street"/><tag k="addr:housenumber" v="700"/><tag k="coa:place_id" v="201014"/></node><node id="-12" lat="30.267633" lon="-97.736213" changeset="false"><tag k="addr:street" v="East 7th Street"/><tag k="addr:housenumber" v="604"/><tag k="coa:place_id" v="201056"/></node><node id="-13" lat="30.271772" lon="-97.738519" changeset="false"><tag k="addr:street" v="San Jacinto Boulevard"/><tag k="addr:housenumber" v="1011"/><tag k="coa:place_id" v="625136"/></node><node id="-14" lat="30.272434" lon="-97.736876" changeset="false"><tag k="addr:street" v="East 12th Street"/><tag k="addr:housenumber" v="401"/><tag k="coa:place_id" v="1114389"/></node><node id="-15" lat="30.271952" lon="-97.736851" changeset="false"><tag k="addr:street" v="East 11th Street"/><tag k="addr:housenumber" v="406"/><tag k="coa:place_id" v="879140"/></node><node id="-16" lat="30.271889" lon="-97.736596" changeset="false"><tag k="addr:street" v="East 11th Street"/><tag k="addr:housenumber" v="408"/><tag k="coa:place_id" v="272924"/></node><node id="-17" lat="30.272202" lon="-97.738022" changeset="false"><tag k="addr:street" v="San Jacinto Boulevard"/><tag k="addr:housenumber" v="1101"/><tag k="coa:place_id" v="1114848"/></node><node id="-18" lat="30.270281" lon="-97.737562" changeset="false"><tag k="addr:street" v="Trinity Street"/><tag k="addr:housenumber" v="901"/><tag k="coa:place_id" v="272696"/></node><node id="-19" lat="30.271229" lon="-97.738206" changeset="false"><tag k="addr:street" v="East 10th Street"/><tag k="addr:housenumber" v="306"/><tag k="coa:place_id" v="272822"/></node><node id="-20" lat="30.268356" lon="-97.737429" changeset="false"><tag k="addr:street" v="East 8th Street"/><tag k="addr:housenumber" v="501"/><tag k="coa:place_id" v="483910"/></node><node id="-21" lat="30.267352" lon="-97.739088" changeset="false"><tag k="addr:street" v="East 6th Street"/><tag k="addr:housenumber" v="400"/><tag k="coa:place_id" v="625256"/></node><node id="-22" lat="30.267413" lon="-97.737739" changeset="false"><tag k="addr:street" v="Neches Street"/><tag k="addr:housenumber" v="611"/><tag k="coa:place_id" v="223935"/></node><node id="-23" lat="30.267354" lon="-97.737529" changeset="false"><tag k="addr:street" v="East 7th Street"/><tag k="addr:housenumber" v="505"/><tag k="coa:place_id" v="200954"/></node><node id="-24" lat="30.271542" lon="-97.739489" changeset="false"><tag k="addr:street" v="East 10th Street"/><tag k="addr:housenumber" v="200"/><tag k="coa:place_id" v="625148"/></node><node id="-25" lat="30.271904" lon="-97.739103" changeset="false"><tag k="addr:street" v="East 11th Street"/><tag k="addr:housenumber" v="219"/><tag k="coa:place_id" v="625124"/></node><node id="-26" lat="30.272119" lon="-97.739651" changeset="false"><tag k="addr:street" v="Brazos Street"/><tag k="addr:housenumber" v="1019"/><tag k="coa:place_id" v="514898"/></node><node id="-27" lat="30.272046" lon="-97.74094" changeset="false"><tag k="addr:street" v="Congress Avenue,1100"/><tag k="addr:housenumber" v="1005"/><tag k="coa:place_id" v="625106"/></node><node id="-28" lat="30.271849" lon="-97.740984" changeset="false"><tag k="addr:street" v="Congress Avenue,1100"/><tag k="addr:housenumber" v="1001"/><tag k="coa:place_id" v="272744"/></node><node id="-29" lat="30.271875" lon="-97.740177" changeset="false"><tag k="addr:street" v="Brazos Street"/><tag k="addr:housenumber" v="1008"/><tag k="coa:place_id" v="3427018"/></node><node id="-30" lat="30.272096" lon="-97.740078" changeset="false"><tag k="addr:street" v="Brazos Street"/><tag k="addr:housenumber" v="1010"/><tag k="coa:place_id" v="272840"/></node><node id="-31" lat="30.269658" lon="-97.739927" changeset="false"><tag k="addr:street" v="East 8th Street"/><tag k="addr:housenumber" v="220"/><tag k="coa:place_id" v="625154"/></node><node id="-32" lat="30.269967" lon="-97.740833" changeset="false"><tag k="addr:street" v="Brazos Street"/><tag k="addr:housenumber" v="800"/><tag k="coa:place_id" v="624968"/></node><node id="-33" lat="30.270072" lon="-97.739648" changeset="false"><tag k="addr:street" v="East 9th Street"/><tag k="addr:housenumber" v="221"/><tag k="coa:place_id" v="625160"/></node><node id="-34" lat="30.270383" lon="-97.739079" changeset="false"><tag k="addr:street" v="East 9th Street"/><tag k="addr:housenumber" v="300"/><tag k="coa:place_id" v="514916"/></node><node id="-35" lat="30.270279" lon="-97.740319" changeset="false"><tag k="addr:street" v="Brazos Street"/><tag k="addr:housenumber" v="815"/><tag k="coa:place_id" v="625172"/></node><node id="-36" lat="30.270595" lon="-97.739768" changeset="false"><tag k="addr:street" v="East 9th Street"/><tag k="addr:housenumber" v="206"/><tag k="coa:place_id" v="336328"/></node><node id="-37" lat="30.270966" lon="-97.740832" changeset="false"><tag k="addr:street" v="East 9th Street"/><tag k="addr:housenumber" v="110"/><tag k="coa:place_id" v="380199"/></node><node id="-38" lat="30.267509" lon="-97.739646" changeset="false"><tag k="addr:street" v="East 6th Street"/><tag k="addr:housenumber" v="316"/><tag k="coa:place_id" v="200822"/></node><node id="-39" lat="30.267733" lon="-97.740498" changeset="false"><tag k="addr:street" v="East 6th Street"/><tag k="addr:housenumber" v="218"/><tag k="coa:place_id" v="200882"/></node><node id="-40" lat="30.267682" lon="-97.74044" changeset="false"><tag k="addr:street" v="East 6th Street"/><tag k="addr:housenumber" v="222"/><tag k="coa:place_id" v="625220"/></node><node id="-41" lat="30.267765" lon="-97.740574" changeset="false"><tag k="addr:street" v="East 6th Street"/><tag k="addr:housenumber" v="214"/><tag k="coa:place_id" v="200888"/></node><node id="-42" lat="30.267751" lon="-97.7407" changeset="false"><tag k="addr:street" v="East 6th Street"/><tag k="addr:housenumber" v="212"/><tag k="coa:place_id" v="200894"/></node><node id="-43" lat="30.267827" lon="-97.741062" changeset="false"><tag k="addr:street" v="East 6th Street"/><tag k="addr:housenumber" v="204"/><tag k="coa:place_id" v="625208"/></node><node id="-44" lat="30.267772" lon="-97.740802" changeset="false"><tag k="addr:street" v="East 6th Street"/><tag k="addr:housenumber" v="208"/><tag k="coa:place_id" v="122547"/></node><node id="-45" lat="30.267802" lon="-97.740935" changeset="false"><tag k="addr:street" v="East 6th Street"/><tag k="addr:housenumber" v="206"/><tag k="coa:place_id" v="733545"/></node><node id="-46" lat="30.267752" lon="-97.740064" changeset="false"><tag k="addr:street" v="San Jacinto Boulevard"/><tag k="addr:housenumber" v="607"/><tag k="coa:place_id" v="437637"/></node><node id="-47" lat="30.268236" lon="-97.740651" changeset="false"><tag k="addr:street" v="East 7th Street"/><tag k="addr:housenumber" v="211"/><tag k="coa:place_id" v="625196"/></node><node id="-48" lat="30.268184" lon="-97.741031" changeset="false"><tag k="addr:street" v="Brazos Street"/><tag k="addr:housenumber" v="605"/><tag k="coa:place_id" v="362541"/></node><node id="-49" lat="30.26739" lon="-97.74123" changeset="false"><tag k="addr:street" v="East 6th Street"/><tag k="addr:housenumber" v="203"/><tag k="coa:place_id" v="1115487"/></node><node id="-50" lat="30.267471" lon="-97.739504" changeset="false"><tag k="addr:street" v="East 6th Street"/><tag k="addr:housenumber" v="320"/><tag k="coa:place_id" v="625250"/></node><node id="-51" lat="30.267434" lon="-97.741368" changeset="false"><tag k="addr:street" v="East 6th Street"/><tag k="addr:housenumber" v="201"/><tag k="coa:place_id" v="1115468"/></node><node id="-52" lat="30.267527" lon="-97.739716" changeset="false"><tag k="addr:street" v="East 6th Street"/><tag k="addr:housenumber" v="314"/><tag k="coa:place_id" v="179007"/></node><node id="-53" lat="30.267584" lon="-97.739923" changeset="false"><tag k="addr:street" v="East 6th Street"/><tag k="addr:housenumber" v="306"/><tag k="coa:place_id" v="200840"/></node><node id="-54" lat="30.267602" lon="-97.740148" changeset="false"><tag k="addr:street" v="East 6th Street"/><tag k="addr:housenumber" v="300"/><tag k="coa:place_id" v="200858"/></node><node id="-55" lat="30.271624" lon="-97.741837" changeset="false"><tag k="addr:street" v="Congress Avenue,1100"/><tag k="addr:housenumber" v="918"/><tag k="coa:place_id" v="92192"/></node><node id="-56" lat="30.271726" lon="-97.741964" changeset="false"><tag k="addr:street" v="Congress Avenue,1100"/><tag k="addr:housenumber" v="920"/><tag k="coa:place_id" v="92204"/></node><node id="-57" lat="30.272095" lon="-97.743505" changeset="false"><tag k="addr:street" v="West 10th Street"/><tag k="addr:housenumber" v="203"/><tag k="coa:place_id" v="92258"/></node><node id="-58" lat="30.27206" lon="-97.743023" changeset="false"><tag k="addr:street" v="West 10th Street"/><tag k="addr:housenumber" v="201"/><tag k="coa:place_id" v="514886"/></node><node id="-59" lat="30.271483" lon="-97.74181" changeset="false"><tag k="addr:street" v="Congress Avenue,1100"/><tag k="addr:housenumber" v="914"/><tag k="coa:place_id" v="92180"/></node><node id="-60" lat="30.271142" lon="-97.741907" changeset="false"><tag k="addr:street" v="Congress Avenue,1100"/><tag k="addr:housenumber" v="900"/><tag k="coa:place_id" v="624434"/></node><node id="-61" lat="30.271363" lon="-97.741861" changeset="false"><tag k="addr:street" v="Congress Avenue,1100"/><tag k="addr:housenumber" v="910"/><tag k="coa:place_id" v="254065"/></node><node id="-62" lat="30.271465" lon="-97.74201" changeset="false"><tag k="addr:street" v="Congress Avenue,1100"/><tag k="addr:housenumber" v="912"/><tag k="coa:place_id" v="92168"/></node><node id="-63" lat="30.271583" lon="-97.741957" changeset="false"><tag k="addr:street" v="Congress Avenue,1100"/><tag k="addr:housenumber" v="916"/><tag k="coa:place_id" v="92186"/></node><node id="-64" lat="30.269704" lon="-97.7434" changeset="false"><tag k="addr:street" v="Colorado Street"/><tag k="addr:housenumber" v="705"/><tag k="coa:place_id" v="164219"/></node><node id="-65" lat="30.270342" lon="-97.743096" changeset="false"><tag k="addr:street" v="West 8th Street"/><tag k="addr:housenumber" v="124"/><tag k="coa:place_id" v="92078"/></node><node id="-66" lat="30.269564" lon="-97.741821" changeset="false"><tag k="addr:street" v="Congress Avenue,1100"/><tag k="addr:housenumber" v="719"/><tag k="coa:place_id" v="624950"/></node><node id="-67" lat="30.270195" lon="-97.741596" changeset="false"><tag k="addr:street" v="Congress Avenue,1100"/><tag k="addr:housenumber" v="809"/><tag k="coa:place_id" v="624992"/></node><node id="-68" lat="30.270239" lon="-97.741498" changeset="false"><tag k="addr:street" v="Congress Avenue,1100"/><tag k="addr:housenumber" v="811"/><tag k="coa:place_id" v="624998"/></node><node id="-69" lat="30.268137" lon="-97.741709" changeset="false"><tag k="addr:street" v="Brazos Street"/><tag k="addr:housenumber" v="604"/><tag k="coa:place_id" v="624650"/></node><node id="-70" lat="30.269268" lon="-97.741904" changeset="false"><tag k="addr:street" v="Congress Avenue,1100"/><tag k="addr:housenumber" v="713"/><tag k="coa:place_id" v="254059"/></node><node id="-71" lat="30.266959" lon="-97.736125" changeset="false"><tag k="addr:street" v="East 7th Street"/><tag k="addr:housenumber" v="617"/><tag k="coa:place_id" v="200984"/></node><node id="-72" lat="30.267003" lon="-97.735974" changeset="false"><tag k="addr:street" v="East 7th Street"/><tag k="addr:housenumber" v="621"/><tag k="coa:place_id" v="200990"/></node><node id="-73" lat="30.267554" lon="-97.734668" changeset="false"><tag k="addr:street" v="East 8th Street"/><tag k="addr:housenumber" v="715"/><tag k="coa:place_id" v="546489"/></node><node id="-74" lat="30.266338" lon="-97.735063" changeset="false"><tag k="addr:street" v="North Interstate Highway 35 Service Road"/><tag k="addr:housenumber" v="610"/><tag k="coa:place_id" v="879272"/></node><node id="-75" lat="30.266187" lon="-97.735581" changeset="false"><tag k="addr:street" v="East 6th Street"/><tag k="addr:housenumber" v="708"/><tag k="coa:place_id" v="200534"/></node><node id="-76" lat="30.266376" lon="-97.736256" changeset="false"><tag k="addr:street" v="East 6th Street"/><tag k="addr:housenumber" v="618"/><tag k="coa:place_id" v="200570"/></node><node id="-77" lat="30.266578" lon="-97.73629" changeset="false"><tag k="addr:street" v="East 6th Street"/><tag k="addr:housenumber" v="616"/><tag k="coa:place_id" v="1125147"/></node><node id="-78" lat="30.266596" lon="-97.736362" changeset="false"><tag k="addr:street" v="East 6th Street"/><tag k="addr:housenumber" v="614"/><tag k="coa:place_id" v="200576"/></node><node id="-79" lat="30.266625" lon="-97.736461" changeset="false"><tag k="addr:street" v="East 6th Street"/><tag k="addr:housenumber" v="612"/><tag k="coa:place_id" v="911469"/></node><node id="-80" lat="30.264956" lon="-97.736326" changeset="false"><tag k="addr:street" v="East 15th Street,1110"/><tag k="addr:housenumber" v="701"/><tag k="coa:place_id" v="166400"/></node><node id="-81" lat="30.265422" lon="-97.736133" changeset="false"><tag k="addr:street" v="Sabine Street"/><tag k="addr:housenumber" v="507"/><tag k="coa:place_id" v="603687"/></node><node id="-82" lat="30.265406" lon="-97.735359" changeset="false"><tag k="addr:street" v="North Interstate Highway 35 Service Road"/><tag k="addr:housenumber" v="510"/><tag k="coa:place_id" v="166418"/></node><node id="-83" lat="30.266941" lon="-97.736696" changeset="false"><tag k="addr:street" v="Red River Street"/><tag k="addr:housenumber" v="607"/><tag k="coa:place_id" v="200618"/></node><node id="-84" lat="30.267032" lon="-97.737925" changeset="false"><tag k="addr:street" v="East 6th Street"/><tag k="addr:housenumber" v="502"/><tag k="coa:place_id" v="200660"/></node><node id="-85" lat="30.267059" lon="-97.736766" changeset="false"><tag k="addr:street" v="Red River Street"/><tag k="addr:housenumber" v="611"/><tag k="coa:place_id" v="200624"/></node><node id="-86" lat="30.267312" lon="-97.737381" changeset="false"><tag k="addr:street" v="East 7th Street"/><tag k="addr:housenumber" v="515"/><tag k="coa:place_id" v="200960"/></node><node id="-87" lat="30.26639" lon="-97.737772" changeset="false"><tag k="addr:street" v="East 6th Street"/><tag k="addr:housenumber" v="515"/><tag k="coa:place_id" v="166856"/></node><node id="-88" lat="30.26637" lon="-97.737705" changeset="false"><tag k="addr:street" v="East 6th Street"/><tag k="addr:housenumber" v="517"/><tag k="coa:place_id" v="166862"/></node><node id="-89" lat="30.266408" lon="-97.737838" changeset="false"><tag k="addr:street" v="East 6th Street"/><tag k="addr:housenumber" v="513"/><tag k="coa:place_id" v="125733"/></node><node id="-90" lat="30.26642" lon="-97.73789" changeset="false"><tag k="addr:street" v="East 6th Street"/><tag k="addr:housenumber" v="511"/><tag k="coa:place_id" v="969428"/></node><node id="-91" lat="30.266822" lon="-97.736849" changeset="false"><tag k="addr:street" v="Red River Street"/><tag k="addr:housenumber" v="603"/><tag k="coa:place_id" v="200612"/></node><node id="-92" lat="30.26685" lon="-97.737357" changeset="false"><tag k="addr:street" v="East 6th Street"/><tag k="addr:housenumber" v="520"/><tag k="coa:place_id" v="1115627"/></node><node id="-93" lat="30.266435" lon="-97.737935" changeset="false"><tag k="addr:street" v="East 6th Street"/><tag k="addr:housenumber" v="509"/><tag k="coa:place_id" v="125727"/></node><node id="-94" lat="30.266987" lon="-97.73775" changeset="false"><tag k="addr:street" v="East 6th Street"/><tag k="addr:housenumber" v="508"/><tag k="coa:place_id" v="159934"/></node><node id="-95" lat="30.266313" lon="-97.737493" changeset="false"><tag k="addr:street" v="Red River Street"/><tag k="addr:housenumber" v="510"/><tag k="coa:place_id" v="166436"/></node><node id="-96" lat="30.266273" lon="-97.737011" changeset="false"><tag k="addr:street" v="East 6th Street"/><tag k="addr:housenumber" v="601"/><tag k="coa:place_id" v="241516"/></node><node id="-97" lat="30.265939" lon="-97.736792" changeset="false"><tag k="addr:street" v="East 6th Street"/><tag k="addr:housenumber" v="611"/><tag k="coa:place_id" v="555117"/></node><node id="-98" lat="30.266352" lon="-97.737635" changeset="false"><tag k="addr:street" v="East 6th Street"/><tag k="addr:housenumber" v="519"/><tag k="coa:place_id" v="166868"/></node><node id="-99" lat="30.266358" lon="-97.73753" changeset="false"><tag k="addr:street" v="East 6th Street"/><tag k="addr:housenumber" v="525"/><tag k="coa:place_id" v="166874"/></node><node id="-100" lat="30.261702" lon="-97.737128" changeset="false"><tag k="addr:street" v="East Cesar Chavez Street"/><tag k="addr:housenumber" v="710"/><tag k="coa:place_id" v="879314"/></node><node id="-101" lat="30.266985" lon="-97.738351" changeset="false"><tag k="addr:street" v="East 6th Street"/><tag k="addr:housenumber" v="424"/><tag k="coa:place_id" v="675640"/></node><node id="-102" lat="30.267185" lon="-97.738456" changeset="false"><tag k="addr:street" v="East 6th Street"/><tag k="addr:housenumber" v="418"/><tag k="coa:place_id" v="733533"/></node><node id="-103" lat="30.267242" lon="-97.738655" changeset="false"><tag k="addr:street" v="East 6th Street"/><tag k="addr:housenumber" v="412"/><tag k="coa:place_id" v="101253"/></node><node id="-104" lat="30.26728" lon="-97.738789" changeset="false"><tag k="addr:street" v="East 6th Street"/><tag k="addr:housenumber" v="408"/><tag k="coa:place_id" v="200744"/></node><node id="-105" lat="30.267072" lon="-97.739954" changeset="false"><tag k="addr:street" v="East 6th Street"/><tag k="addr:housenumber" v="313"/><tag k="coa:place_id" v="166742"/></node><node id="-106" lat="30.26726" lon="-97.738719" changeset="false"><tag k="addr:street" v="East 6th Street"/><tag k="addr:housenumber" v="410"/><tag k="coa:place_id" v="200738"/></node><node id="-107" lat="30.266716" lon="-97.738903" changeset="false"><tag k="addr:street" v="East 6th Street"/><tag k="addr:housenumber" v="411"/><tag k="coa:place_id" v="166814"/></node><node id="-108" lat="30.266731" lon="-97.738967" changeset="false"><tag k="addr:street" v="East 6th Street"/><tag k="addr:housenumber" v="409"/><tag k="coa:place_id" v="166808"/></node><node id="-109" lat="30.266763" lon="-97.739072" changeset="false"><tag k="addr:street" v="East 6th Street"/><tag k="addr:housenumber" v="407"/><tag k="coa:place_id" v="668853"/></node><node id="-110" lat="30.266814" lon="-97.739265" changeset="false"><tag k="addr:street" v="East 6th Street"/><tag k="addr:housenumber" v="401"/><tag k="coa:place_id" v="625286"/></node><node id="-111" lat="30.266787" lon="-97.739175" changeset="false"><tag k="addr:street" v="East 6th Street"/><tag k="addr:housenumber" v="403"/><tag k="coa:place_id" v="625298"/></node><node id="-112" lat="30.266892" lon="-97.739582" changeset="false"><tag k="addr:street" v="East 6th Street"/><tag k="addr:housenumber" v="325"/><tag k="coa:place_id" v="241514"/></node><node id="-113" lat="30.267074" lon="-97.740032" changeset="false"><tag k="addr:street" v="East 6th Street"/><tag k="addr:housenumber" v="311"/><tag k="coa:place_id" v="166736"/></node><node id="-114" lat="30.267086" lon="-97.7401" changeset="false"><tag k="addr:street" v="East 6th Street"/><tag k="addr:housenumber" v="309"/><tag k="coa:place_id" v="166730"/></node><node id="-115" lat="30.266459" lon="-97.738018" changeset="false"><tag k="addr:street" v="East 6th Street"/><tag k="addr:housenumber" v="505"/><tag k="coa:place_id" v="343851"/></node><node id="-116" lat="30.266483" lon="-97.738107" changeset="false"><tag k="addr:street" v="East 6th Street"/><tag k="addr:housenumber" v="503"/><tag k="coa:place_id" v="241515"/></node><node id="-117" lat="30.266503" lon="-97.738184" changeset="false"><tag k="addr:street" v="East 6th Street"/><tag k="addr:housenumber" v="501"/><tag k="coa:place_id" v="379887"/></node><node id="-118" lat="30.266625" lon="-97.738603" changeset="false"><tag k="addr:street" v="East 6th Street"/><tag k="addr:housenumber" v="421"/><tag k="coa:place_id" v="625280"/></node><node id="-119" lat="30.266648" lon="-97.738692" changeset="false"><tag k="addr:street" v="East 6th Street"/><tag k="addr:housenumber" v="419"/><tag k="coa:place_id" v="508665"/></node><node id="-120" lat="30.266669" lon="-97.738759" changeset="false"><tag k="addr:street" v="East 6th Street"/><tag k="addr:housenumber" v="417"/><tag k="coa:place_id" v="166832"/></node><node id="-121" lat="30.266693" lon="-97.738844" changeset="false"><tag k="addr:street" v="East 6th Street"/><tag k="addr:housenumber" v="413"/><tag k="coa:place_id" v="166820"/></node><node id="-122" lat="30.266681" lon="-97.738805" changeset="false"><tag k="addr:street" v="East 6th Street"/><tag k="addr:housenumber" v="415"/><tag k="coa:place_id" v="166826"/></node><node id="-123" lat="30.266964" lon="-97.740393" changeset="false"><tag k="addr:street" v="San Jacinto Boulevard"/><tag k="addr:housenumber" v="509"/><tag k="coa:place_id" v="166526"/></node><node id="-124" lat="30.266979" lon="-97.741446" changeset="false"><tag k="addr:street" v="Brazos Street"/><tag k="addr:housenumber" v="501"/><tag k="coa:place_id" v="120280"/></node><node id="-125" lat="30.267106" lon="-97.740248" changeset="false"><tag k="addr:street" v="East 6th Street"/><tag k="addr:housenumber" v="303"/><tag k="coa:place_id" v="166712"/></node><node id="-126" lat="30.267132" lon="-97.740317" changeset="false"><tag k="addr:street" v="East 6th Street"/><tag k="addr:housenumber" v="301"/><tag k="coa:place_id" v="166706"/></node><node id="-127" lat="30.267217" lon="-97.740702" changeset="false"><tag k="addr:street" v="East 6th Street"/><tag k="addr:housenumber" v="221"/><tag k="coa:place_id" v="166682"/></node><node id="-128" lat="30.267281" lon="-97.740993" changeset="false"><tag k="addr:street" v="East 6th Street"/><tag k="addr:housenumber" v="213"/><tag k="coa:place_id" v="166664"/></node><node id="-129" lat="30.267242" lon="-97.740855" changeset="false"><tag k="addr:street" v="East 6th Street"/><tag k="addr:housenumber" v="217"/><tag k="coa:place_id" v="625304"/></node><node id="-130" lat="30.267299" lon="-97.741063" changeset="false"><tag k="addr:street" v="East 6th Street"/><tag k="addr:housenumber" v="211"/><tag k="coa:place_id" v="714514"/></node><node id="-131" lat="30.267263" lon="-97.740924" changeset="false"><tag k="addr:street" v="East 6th Street"/><tag k="addr:housenumber" v="215"/><tag k="coa:place_id" v="166670"/></node><node id="-132" lat="30.267311" lon="-97.742614" changeset="false"><tag k="addr:street" v="Congress Avenue,1100"/><tag k="addr:housenumber" v="501"/><tag k="coa:place_id" v="624836"/></node><node id="-133" lat="30.267224" lon="-97.740785" changeset="false"><tag k="addr:street" v="East 6th Street"/><tag k="addr:housenumber" v="219"/><tag k="coa:place_id" v="166676"/></node><node id="-134" lat="30.265602" lon="-97.742044" changeset="false"><tag k="addr:street" v="East 14th Street,1110"/><tag k="addr:housenumber" v="201"/><tag k="coa:place_id" v="876705"/></node><node id="-135" lat="30.265632" lon="-97.743375" changeset="false"><tag k="addr:street" v="Congress Avenue,1100"/><tag k="addr:housenumber" v="315"/><tag k="coa:place_id" v="917133"/></node><node id="-136" lat="30.265741" lon="-97.743347" changeset="false"><tag k="addr:street" v="Congress Avenue,1100"/><tag k="addr:housenumber" v="319"/><tag k="coa:place_id" v="909225"/></node><node id="-137" lat="30.265837" lon="-97.743292" changeset="false"><tag k="addr:street" v="Congress Avenue,1100"/><tag k="addr:housenumber" v="323"/><tag k="coa:place_id" v="909231"/></node><node id="-138" lat="30.265943" lon="-97.74325" changeset="false"><tag k="addr:street" v="Congress Avenue,1100"/><tag k="addr:housenumber" v="327"/><tag k="coa:place_id" v="458836"/></node><node id="-139" lat="30.266851" lon="-97.740959" changeset="false"><tag k="addr:street" v="San Jacinto Boulevard"/><tag k="addr:housenumber" v="500"/><tag k="coa:place_id" v="625346"/></node><node id="-140" lat="30.264278" lon="-97.74128" changeset="false"><tag k="addr:street" v="San Jacinto Boulevard"/><tag k="addr:housenumber" v="207"/><tag k="coa:place_id" v="165800"/></node><node id="-141" lat="30.264641" lon="-97.740455" changeset="false"><tag k="addr:street" v="East 3rd Street"/><tag k="addr:housenumber" v="310"/><tag k="coa:place_id" v="166046"/></node><node id="-142" lat="30.264547" lon="-97.740754" changeset="false"><tag k="addr:street" v="East 3rd Street"/><tag k="addr:housenumber" v="306 1/2"/><tag k="coa:place_id" v="5087199"/></node><node id="-143" lat="30.265377" lon="-97.74353" changeset="false"><tag k="addr:street" v="Congress Avenue,1100"/><tag k="addr:housenumber" v="301"/><tag k="coa:place_id" v="992277"/></node><node id="-144" lat="30.26485" lon="-97.741157" changeset="false"><tag k="addr:street" v="San Jacinto Boulevard"/><tag k="addr:housenumber" v="301"/><tag k="coa:place_id" v="625388"/></node><node id="-145" lat="30.264491" lon="-97.741824" changeset="false"><tag k="addr:street" v="East 3rd Street"/><tag k="addr:housenumber" v="211"/><tag k="coa:place_id" v="3501974"/></node><node id="-146" lat="30.274697" lon="-97.746219" changeset="false"><tag k="addr:street" v="Nueces Street"/><tag k="addr:housenumber" v="1105"/><tag k="coa:place_id" v="129652"/></node><node id="-147" lat="30.274413" lon="-97.746323" changeset="false"><tag k="addr:street" v="Nueces Street"/><tag k="addr:housenumber" v="1101"/><tag k="coa:place_id" v="165710"/></node><node id="-148" lat="30.272855" lon="-97.744629" changeset="false"><tag k="addr:street" v="West 10th Street"/><tag k="addr:housenumber" v="310"/><tag k="coa:place_id" v="92294"/></node><node id="-149" lat="30.273067" lon="-97.743828" changeset="false"><tag k="addr:street" v="Lavaca Street"/><tag k="addr:housenumber" v="1010"/><tag k="coa:place_id" v="428348"/></node><node id="-150" lat="30.269246" lon="-97.744074" changeset="false"><tag k="addr:street" v="West 7th Street"/><tag k="addr:housenumber" v="201"/><tag k="coa:place_id" v="625190"/></node><node id="-151" lat="30.270752" lon="-97.74387" changeset="false"><tag k="addr:street" v="West 8th Street"/><tag k="addr:housenumber" v="200"/><tag k="coa:place_id" v="514826"/></node><node id="-152" lat="30.266919" lon="-97.744342" changeset="false"><tag k="addr:street" v="Colorado Street"/><tag k="addr:housenumber" v="407"/><tag k="coa:place_id" v="91640"/></node><node id="-153" lat="30.266984" lon="-97.743708" changeset="false"><tag k="addr:street" v="Congress Avenue,1100"/><tag k="addr:housenumber" v="416"/><tag k="coa:place_id" v="106204"/></node><node id="-154" lat="30.267012" lon="-97.744296" changeset="false"><tag k="addr:street" v="Colorado Street"/><tag k="addr:housenumber" v="409"/><tag k="coa:place_id" v="624398"/></node><node id="-155" lat="30.267132" lon="-97.744251" changeset="false"><tag k="addr:street" v="Colorado Street"/><tag k="addr:housenumber" v="415"/><tag k="coa:place_id" v="91634"/></node><node id="-156" lat="30.268523" lon="-97.743928" changeset="false"><tag k="addr:street" v="West 6th Street"/><tag k="addr:housenumber" v="128"/><tag k="coa:place_id" v="549056"/></node><node id="-157" lat="30.26374" lon="-97.743647" changeset="false"><tag k="addr:street" v="Congress Avenue,1100"/><tag k="addr:housenumber" v="111"/><tag k="coa:place_id" v="193132"/></node><node id="-158" lat="30.266708" lon="-97.743824" changeset="false"><tag k="addr:street" v="Congress Avenue,1100"/><tag k="addr:housenumber" v="408"/><tag k="coa:place_id" v="91658"/></node><node id="-159" lat="30.266768" lon="-97.743801" changeset="false"><tag k="addr:street" v="Congress Avenue,1100"/><tag k="addr:housenumber" v="410"/><tag k="coa:place_id" v="91664"/></node><node id="-160" lat="30.266864" lon="-97.743754" changeset="false"><tag k="addr:street" v="Congress Avenue,1100"/><tag k="addr:housenumber" v="412"/><tag k="coa:place_id" v="624710"/></node><node id="-161" lat="30.270339" lon="-97.745212" changeset="false"><tag k="addr:street" v="Lavaca Street"/><tag k="addr:housenumber" v="700"/><tag k="coa:place_id" v="217743"/></node><node id="-162" lat="30.271102" lon="-97.745135" changeset="false"><tag k="addr:street" v="West 8th Street"/><tag k="addr:housenumber" v="316"/><tag k="coa:place_id" v="1048016"/></node><node id="-163" lat="30.271244" lon="-97.745774" changeset="false"><tag k="addr:street" v="Guadalupe Street"/><tag k="addr:housenumber" v="800"/><tag k="coa:place_id" v="923366"/></node><node id="-164" lat="30.27166" lon="-97.745672" changeset="false"><tag k="addr:street" v="Guadalupe Street"/><tag k="addr:housenumber" v="810"/><tag k="coa:place_id" v="164414"/></node><node id="-165" lat="30.268915" lon="-97.744549" changeset="false"><tag k="addr:street" v="West 6th Street"/><tag k="addr:housenumber" v="220"/><tag k="coa:place_id" v="549050"/></node><node id="-166" lat="30.267648" lon="-97.746123" changeset="false"><tag k="addr:street" v="West 15th Street,1110"/><tag k="addr:housenumber" v="305"/><tag k="coa:place_id" v="670084"/></node><node id="-167" lat="30.267731" lon="-97.746262" changeset="false"><tag k="addr:street" v="West 15th Street,1110"/><tag k="addr:housenumber" v="307"/><tag k="coa:place_id" v="762987"/></node><node id="-168" lat="30.268321" lon="-97.744767" changeset="false"><tag k="addr:street" v="West 6th Street"/><tag k="addr:housenumber" v="221"/><tag k="coa:place_id" v="624380"/></node><node id="-169" lat="30.268138" lon="-97.745637" changeset="false"><tag k="addr:street" v="Lavaca Street"/><tag k="addr:housenumber" v="504"/><tag k="coa:place_id" v="624374"/></node><node id="-170" lat="30.268709" lon="-97.746083" changeset="false"><tag k="addr:street" v="West 6th Street"/><tag k="addr:housenumber" v="321"/><tag k="coa:place_id" v="319485"/></node><node id="-171" lat="30.268636" lon="-97.745841" changeset="false"><tag k="addr:street" v="West 6th Street"/><tag k="addr:housenumber" v="311"/><tag k="coa:place_id" v="624386"/></node><node id="-172" lat="30.269109" lon="-97.745655" changeset="false"><tag k="addr:street" v="West 6th Street"/><tag k="addr:housenumber" v="300"/><tag k="coa:place_id" v="1104776"/></node><node id="-173" lat="30.266578" lon="-97.745808" changeset="false"><tag k="addr:street" v="West 14th Street,1110"/><tag k="addr:housenumber" v="219"/><tag k="coa:place_id" v="91574"/></node><node id="-174" lat="30.266986" lon="-97.745164" changeset="false"><tag k="addr:street" v="West 14th Street,1110"/><tag k="addr:housenumber" v="208"/><tag k="coa:place_id" v="168741"/></node><node id="-175" lat="30.267071" lon="-97.745426" changeset="false"><tag k="addr:street" v="West 14th Street,1110"/><tag k="addr:housenumber" v="214"/><tag k="coa:place_id" v="177249"/></node><node id="-176" lat="30.26702" lon="-97.744952" changeset="false"><tag k="addr:street" v="Colorado Street"/><tag k="addr:housenumber" v="404"/><tag k="coa:place_id" v="91622"/></node><node id="-177" lat="30.267511" lon="-97.745462" changeset="false"><tag k="addr:street" v="West 15th Street,1110"/><tag k="addr:housenumber" v="213"/><tag k="coa:place_id" v="624272"/></node><node id="-178" lat="30.267467" lon="-97.745323" changeset="false"><tag k="addr:street" v="West 15th Street,1110"/><tag k="addr:housenumber" v="209"/><tag k="coa:place_id" v="91736"/></node><node id="-179" lat="30.267598" lon="-97.745843" changeset="false"><tag k="addr:street" v="West 15th Street,1110"/><tag k="addr:housenumber" v="301"/><tag k="coa:place_id" v="91742"/></node><node id="-180" lat="30.265871" lon="-97.744832" changeset="false"><tag k="addr:street" v="Colorado Street"/><tag k="addr:housenumber" v="303"/><tag k="coa:place_id" v="91460"/></node><node id="-181" lat="30.26404" lon="-97.744759" changeset="false"><tag k="addr:street" v="Congress Avenue,1100"/><tag k="addr:housenumber" v="100"/><tag k="coa:place_id" v="191686"/></node><node id="-182" lat="30.266131" lon="-97.745993" changeset="false"><tag k="addr:street" v="Lavaca Street"/><tag k="addr:housenumber" v="301"/><tag k="coa:place_id" v="624248"/></node><node id="-183" lat="30.266539" lon="-97.74567" changeset="false"><tag k="addr:street" v="West 14th Street,1110"/><tag k="addr:housenumber" v="217"/><tag k="coa:place_id" v="91568"/></node><node id="-184" lat="30.271868" lon="-97.746684" changeset="false"><tag k="addr:street" v="San Antonio Street"/><tag k="addr:housenumber" v="812"/><tag k="coa:place_id" v="428252"/></node><node id="-185" lat="30.269465" lon="-97.748757" changeset="false"><tag k="addr:street" v="West 6th Street"/><tag k="addr:housenumber" v="601"/><tag k="coa:place_id" v="128804"/></node><node id="-186" lat="30.2699" lon="-97.748553" changeset="false"><tag k="addr:street" v="West 6th Street"/><tag k="addr:housenumber" v="600"/><tag k="coa:place_id" v="624416"/></node><node id="-187" lat="30.269555" lon="-97.747515" changeset="false"><tag k="addr:street" v="West 6th Street"/><tag k="addr:housenumber" v="500"/><tag k="coa:place_id" v="302805"/></node><node id="-188" lat="30.27033" lon="-97.748446" changeset="false"><tag k="addr:street" v="Nueces Street"/><tag k="addr:housenumber" v="610"/><tag k="coa:place_id" v="129014"/></node><node id="-189" lat="30.26811" lon="-97.748424" changeset="false"><tag k="addr:street" v="West 15th Street,1110"/><tag k="addr:housenumber" v="501"/><tag k="coa:place_id" v="488721"/></node><node id="-190" lat="30.268974" lon="-97.747333" changeset="false"><tag k="addr:street" v="San Antonio Street"/><tag k="addr:housenumber" v="509"/><tag k="coa:place_id" v="128708"/></node><node id="-191" lat="30.270024" lon="-97.750442" changeset="false"><tag k="addr:street" v="West 6th Street"/><tag k="addr:housenumber" v="719"/><tag k="coa:place_id" v="428228"/></node><node id="-192" lat="30.270207" lon="-97.749685" changeset="false"><tag k="addr:street" v="West 6th Street"/><tag k="addr:housenumber" v="700"/><tag k="coa:place_id" v="128924"/></node><node id="-193" lat="30.270564" lon="-97.749005" changeset="false"><tag k="addr:street" v="West 7th Street"/><tag k="addr:housenumber" v="615"/><tag k="coa:place_id" v="428198"/></node><node id="-194" lat="30.26953" lon="-97.750518" changeset="false"><tag k="addr:street" v="West Avenue"/><tag k="addr:housenumber" v="501"/><tag k="coa:place_id" v="428084"/></node><node id="-195" lat="30.269447" lon="-97.750086" changeset="false"><tag k="addr:street" v="West 15th Street,1110"/><tag k="addr:housenumber" v="710"/><tag k="coa:place_id" v="428090"/></node><node id="-196" lat="30.269533" lon="-97.749005" changeset="false"><tag k="addr:street" v="West 6th Street"/><tag k="addr:housenumber" v="609"/><tag k="coa:place_id" v="241535"/></node><node id="-197" lat="30.269596" lon="-97.749897" changeset="false"><tag k="addr:street" v="Rio Grande Street"/><tag k="addr:housenumber" v="510"/><tag k="coa:place_id" v="128630"/></node><node id="-198" lat="30.269764" lon="-97.749834" changeset="false"><tag k="addr:street" v="Rio Grande Street"/><tag k="addr:housenumber" v="512"/><tag k="coa:place_id" v="128636"/></node><node id="-199" lat="30.269852" lon="-97.750504" changeset="false"><tag k="addr:street" v="West Avenue"/><tag k="addr:housenumber" v="507"/><tag k="coa:place_id" v="252269"/></node><node id="-200" lat="30.26648" lon="-97.74902" changeset="false"><tag k="addr:street" v="West 3rd Street"/><tag k="addr:housenumber" v="501"/><tag k="coa:place_id" v="734296"/></node><node id="-201" lat="30.268133" lon="-97.74926" changeset="false"><tag k="addr:street" v="Nueces Street"/><tag k="addr:housenumber" v="400"/><tag k="coa:place_id" v="128474"/></node><node id="-202" lat="30.268526" lon="-97.749113" changeset="false"><tag k="addr:street" v="West 15th Street,1110"/><tag k="addr:housenumber" v="601"/><tag k="coa:place_id" v="715917"/></node><node id="-203" lat="30.269166" lon="-97.749578" changeset="false"><tag k="addr:street" v="West 15th Street,1110"/><tag k="addr:housenumber" v="610"/><tag k="coa:place_id" v="3135292"/></node></osm>