<?xml version="1.0" encoding="UTF-8"?><osm version="0.6" generator="github.com/aaronlidman/osm-and-geojson"><node id="-1" lat="30.318277" lon="-97.741088" changeset="false"><tag k="addr:street" v="Rosedale Avenue"/><tag k="addr:housenumber" v="4616"/><tag k="coa:place_id" v="797192"/></node><node id="-2" lat="30.321938" lon="-97.740816" changeset="false"><tag k="addr:street" v="Lynnwood Street"/><tag k="addr:housenumber" v="5002"/><tag k="coa:place_id" v="796796"/></node><node id="-3" lat="30.318735" lon="-97.742005" changeset="false"><tag k="addr:street" v="Ramsey Avenue"/><tag k="addr:housenumber" v="4616"/><tag k="coa:place_id" v="796574"/></node><node id="-4" lat="30.318574" lon="-97.739806" changeset="false"><tag k="addr:street" v="Burnet Road"/><tag k="addr:housenumber" v="4710"/><tag k="coa:place_id" v="3067914"/></node><node id="-5" lat="30.320547" lon="-97.744931" changeset="false"><tag k="addr:street" v="Hilwin Circle"/><tag k="addr:housenumber" v="4705"/><tag k="coa:place_id" v="885272"/></node><node id="-6" lat="30.32036" lon="-97.748228" changeset="false"><tag k="addr:street" v="Great Oaks Parkway"/><tag k="addr:housenumber" v="2604"/><tag k="coa:place_id" v="755282"/></node><node id="-7" lat="30.318264" lon="-97.7401" changeset="false"><tag k="addr:street" v="West 47th Street"/><tag k="addr:housenumber" v="1404"/><tag k="coa:place_id" v="797582"/></node><node id="-8" lat="30.321102" lon="-97.741619" changeset="false"><tag k="addr:street" v="Sinclair Avenue"/><tag k="addr:housenumber" v="4813"/><tag k="coa:place_id" v="796250"/></node><node id="-9" lat="30.317196" lon="-97.74202" changeset="false"><tag k="addr:street" v="West 46th Street"/><tag k="addr:housenumber" v="1505"/><tag k="coa:place_id" v="797120"/></node><node id="-10" lat="30.323989" lon="-97.744513" changeset="false"><tag k="addr:street" v="Shoal Creek Boulevard"/><tag k="addr:housenumber" v="5005"/><tag k="coa:place_id" v="885170"/></node><node id="-11" lat="30.320378" lon="-97.739744" changeset="false"><tag k="addr:street" v="West 49th Street"/><tag k="addr:housenumber" v="2110"/><tag k="coa:place_id" v="984416"/></node><node id="-12" lat="30.320975" lon="-97.743544" changeset="false"><tag k="addr:street" v="Woodview Avenue"/><tag k="addr:housenumber" v="4803"/><tag k="coa:place_id" v="755504"/></node><node id="-13" lat="30.318841" lon="-97.739553" changeset="false"><tag k="addr:street" v="Burnet Road"/><tag k="addr:housenumber" v="4800"/><tag k="coa:place_id" v="3091638"/></node><node id="-14" lat="30.321286" lon="-97.742313" changeset="false"><tag k="addr:street" v="Shoalwood Avenue"/><tag k="addr:housenumber" v="4811"/><tag k="coa:place_id" v="755888"/></node><node id="-15" lat="30.318963" lon="-97.740244" changeset="false"><tag k="addr:street" v="Rosedale Avenue"/><tag k="addr:housenumber" v="4709"/><tag k="coa:place_id" v="797234"/></node><node id="-16" lat="30.323962" lon="-97.742567" changeset="false"><tag k="addr:street" v="Shoalwood Avenue"/><tag k="addr:housenumber" v="5009"/><tag k="coa:place_id" v="884870"/></node><node id="-17" lat="30.321218" lon="-97.739801" changeset="false"><tag k="addr:street" v="Burnet Road"/><tag k="addr:housenumber" v="5004"/><tag k="coa:place_id" v="884774"/></node><node id="-18" lat="30.322811" lon="-97.745134" changeset="false"><tag k="addr:street" v="Shoal Creek Boulevard"/><tag k="addr:housenumber" v="4906"/><tag k="coa:place_id" v="885350"/></node><node id="-19" lat="30.321323" lon="-97.744131" changeset="false"><tag k="addr:street" v="Shoal Creek Boulevard"/><tag k="addr:housenumber" v="4807"/><tag k="coa:place_id" v="250632"/></node><node id="-20" lat="30.315684" lon="-97.741672" changeset="false"><tag k="addr:street" v="Burnet Road"/><tag k="addr:housenumber" v="4504"/><tag k="coa:place_id" v="449085"/></node><node id="-21" lat="30.319311" lon="-97.739583" changeset="false"><tag k="addr:street" v="Burnet Road"/><tag k="addr:housenumber" v="4810"/><tag k="coa:place_id" v="797708"/></node><node id="-22" lat="30.319549" lon="-97.739416" changeset="false"><tag k="addr:street" v="Burnet Road"/><tag k="addr:housenumber" v="4818"/><tag k="coa:place_id" v="797720"/></node><node id="-23" lat="30.321354" lon="-97.742839" changeset="false"><tag k="addr:street" v="Shoalwood Avenue"/><tag k="addr:housenumber" v="4808"/><tag k="coa:place_id" v="755804"/></node><node id="-24" lat="30.321158" lon="-97.742365" changeset="false"><tag k="addr:street" v="Shoalwood Avenue"/><tag k="addr:housenumber" v="4809"/><tag k="coa:place_id" v="755900"/></node><node id="-25" lat="30.321236" lon="-97.742004" changeset="false"><tag k="addr:street" v="Sinclair Avenue"/><tag k="addr:housenumber" v="4810"/><tag k="coa:place_id" v="756254"/></node><node id="-26" lat="30.317258" lon="-97.744735" changeset="false"><tag k="addr:street" v="Shoalwood Avenue"/><tag k="addr:housenumber" v="4503"/><tag k="coa:place_id" v="5136481"/></node><node id="-27" lat="30.321057" lon="-97.744991" changeset="false"><tag k="addr:street" v="Hilwin Circle"/><tag k="addr:housenumber" v="4706"/><tag k="coa:place_id" v="885296"/></node><node id="-28" lat="30.321472" lon="-97.742777" changeset="false"><tag k="addr:street" v="Shoalwood Avenue"/><tag k="addr:housenumber" v="4810"/><tag k="coa:place_id" v="3545749"/></node><node id="-29" lat="30.322112" lon="-97.741959" changeset="false"><tag k="addr:street" v="Shady Glade Court"/><tag k="addr:housenumber" v="4905"/><tag k="coa:place_id" v="755870"/></node><node id="-30" lat="30.322906" lon="-97.74503" changeset="false"><tag k="addr:street" v="Shoal Creek Boulevard"/><tag k="addr:housenumber" v="4908"/><tag k="coa:place_id" v="885356"/></node><node id="-31" lat="30.320362" lon="-97.739633" changeset="false"><tag k="addr:street" v="Burnet Road"/><tag k="addr:housenumber" v="4910"/><tag k="coa:place_id" v="1134067"/></node><node id="-32" lat="30.318464" lon="-97.746277" changeset="false"><tag k="addr:street" v="Greenbriar Court"/><tag k="addr:housenumber" v="4505"/><tag k="coa:place_id" v="755150"/></node><node id="-33" lat="30.320998" lon="-97.741958" changeset="false"><tag k="addr:street" v="Sinclair Avenue"/><tag k="addr:housenumber" v="4808"/><tag k="coa:place_id" v="756248"/></node><node id="-34" lat="30.320844" lon="-97.739485" changeset="false"><tag k="addr:street" v="Burnet Road"/><tag k="addr:housenumber" v="4922"/><tag k="coa:place_id" v="884744"/></node><node id="-35" lat="30.322058" lon="-97.744064" changeset="false"><tag k="addr:street" v="West 49th Street"/><tag k="addr:housenumber" v="2409"/><tag k="coa:place_id" v="885014"/></node><node id="-36" lat="30.31849" lon="-97.739949" changeset="false"><tag k="addr:street" v="Burnet Road"/><tag k="addr:housenumber" v="4708"/><tag k="coa:place_id" v="797600"/></node><node id="-37" lat="30.323564" lon="-97.744497" changeset="false"><tag k="addr:street" v="Shoal Creek Boulevard"/><tag k="addr:housenumber" v="5001"/><tag k="coa:place_id" v="885182"/></node><node id="-38" lat="30.321798" lon="-97.740151" changeset="false"><tag k="addr:street" v="Lynnwood Street"/><tag k="addr:housenumber" v="5003"/><tag k="coa:place_id" v="796838"/></node><node id="-39" lat="30.317752" lon="-97.74449" changeset="false"><tag k="addr:street" v="Shoalwood Avenue"/><tag k="addr:housenumber" v="4511"/><tag k="coa:place_id" v="756044"/></node><node id="-40" lat="30.3212" lon="-97.742856" changeset="false"><tag k="addr:street" v="Shoalwood Avenue"/><tag k="addr:housenumber" v="4806"/><tag k="coa:place_id" v="755798"/></node><node id="-41" lat="30.319584" lon="-97.746161" changeset="false"><tag k="addr:street" v="Great Oaks Parkway"/><tag k="addr:housenumber" v="2506"/><tag k="coa:place_id" v="755336"/></node><node id="-42" lat="30.321004" lon="-97.741446" changeset="false"><tag k="addr:street" v="West 49th Street"/><tag k="addr:housenumber" v="2205"/><tag k="coa:place_id" v="796676"/></node><node id="-43" lat="30.323796" lon="-97.744043" changeset="false"><tag k="addr:street" v="Woodview Avenue"/><tag k="addr:housenumber" v="5002"/><tag k="coa:place_id" v="885074"/></node><node id="-44" lat="30.318337" lon="-97.743404" changeset="false"><tag k="addr:street" v="Sinclair Avenue"/><tag k="addr:housenumber" v="4602"/><tag k="coa:place_id" v="756134"/></node><node id="-45" lat="30.321092" lon="-97.740843" changeset="false"><tag k="addr:street" v="Tyler Street"/><tag k="addr:housenumber" v="4903"/><tag k="coa:place_id" v="133806"/></node><node id="-46" lat="30.32098" lon="-97.741491" changeset="false"><tag k="addr:street" v="Sinclair Avenue"/><tag k="addr:housenumber" v="4811"/><tag k="coa:place_id" v="687058"/></node><node id="-47" lat="30.31884" lon="-97.739689" changeset="false"><tag k="addr:street" v="Burnet Road"/><tag k="addr:housenumber" v="4718"/><tag k="coa:place_id" v="797606"/></node><node id="-48" lat="30.32074" lon="-97.739684" changeset="false"><tag k="addr:street" v="Burnet Road"/><tag k="addr:housenumber" v="4914"/><tag k="coa:place_id" v="884732"/></node><node id="-49" lat="30.320688" lon="-97.739678" changeset="false"><tag k="addr:street" v="Burnet Road"/><tag k="addr:housenumber" v="4912"/><tag k="coa:place_id" v="448629"/></node><node id="-50" lat="30.321406" lon="-97.74228" changeset="false"><tag k="addr:street" v="West 49th Street"/><tag k="addr:housenumber" v="2213"/><tag k="coa:place_id" v="796682"/></node><node id="-51" lat="30.321394" lon="-97.742371" changeset="false"><tag k="addr:street" v="Shoalwood Avenue"/><tag k="addr:housenumber" v="4813"/><tag k="coa:place_id" v="796694"/></node><node id="-52" lat="30.318411" lon="-97.740347" changeset="false"><tag k="addr:street" v="West 47th Street"/><tag k="addr:housenumber" v="1408"/><tag k="coa:place_id" v="797282"/></node><node id="-53" lat="30.318457" lon="-97.740443" changeset="false"><tag k="addr:street" v="Rosedale Avenue"/><tag k="addr:housenumber" v="4701"/><tag k="coa:place_id" v="250078"/></node><node id="-54" lat="30.31868" lon="-97.740955" changeset="false"><tag k="addr:street" v="West 47th Street"/><tag k="addr:housenumber" v="1504"/><tag k="coa:place_id" v="797216"/></node><node id="-55" lat="30.318657" lon="-97.7409" changeset="false"><tag k="addr:street" v="Rosedale Avenue"/><tag k="addr:housenumber" v="4700"/><tag k="coa:place_id" v="250075"/></node><node id="-56" lat="30.318302" lon="-97.740194" changeset="false"><tag k="addr:street" v="West 47th Street"/><tag k="addr:housenumber" v="1402"/><tag k="coa:place_id" v="797588"/></node><node id="-57" lat="30.318316" lon="-97.740211" changeset="false"><tag k="addr:street" v="West 47th Street"/><tag k="addr:housenumber" v="1406"/><tag k="coa:place_id" v="797576"/></node><node id="-58" lat="30.318382" lon="-97.740012" changeset="false"><tag k="addr:street" v="Burnet Road"/><tag k="addr:housenumber" v="4704"/><tag k="coa:place_id" v="797594"/></node><node id="-59" lat="30.31784" lon="-97.740307" changeset="false"><tag k="addr:street" v="Burnet Road"/><tag k="addr:housenumber" v="4634"/><tag k="coa:place_id" v="797558"/></node><node id="-60" lat="30.317792" lon="-97.740347" changeset="false"><tag k="addr:street" v="Burnet Road"/><tag k="addr:housenumber" v="4630"/><tag k="coa:place_id" v="797552"/></node><node id="-61" lat="30.317878" lon="-97.740274" changeset="false"><tag k="addr:street" v="Burnet Road"/><tag k="addr:housenumber" v="4636"/><tag k="coa:place_id" v="797564"/></node><node id="-62" lat="30.316994" lon="-97.741077" changeset="false"><tag k="addr:street" v="Burnet Road"/><tag k="addr:housenumber" v="4600"/><tag k="coa:place_id" v="243312"/></node><node id="-63" lat="30.317187" lon="-97.740859" changeset="false"><tag k="addr:street" v="West 46th Street"/><tag k="addr:housenumber" v="1406"/><tag k="coa:place_id" v="797504"/></node><node id="-64" lat="30.317265" lon="-97.740668" changeset="false"><tag k="addr:street" v="Burnet Road"/><tag k="addr:housenumber" v="4612"/><tag k="coa:place_id" v="797516"/></node><node id="-65" lat="30.317081" lon="-97.740928" changeset="false"><tag k="addr:street" v="Burnet Road"/><tag k="addr:housenumber" v="4604"/><tag k="coa:place_id" v="272576"/></node><node id="-66" lat="30.317483" lon="-97.740525" changeset="false"><tag k="addr:street" v="Burnet Road"/><tag k="addr:housenumber" v="4622"/><tag k="coa:place_id" v="797528"/></node><node id="-67" lat="30.317648" lon="-97.740439" changeset="false"><tag k="addr:street" v="Burnet Road"/><tag k="addr:housenumber" v="4626"/><tag k="coa:place_id" v="797540"/></node><node id="-68" lat="30.317556" lon="-97.740498" changeset="false"><tag k="addr:street" v="Burnet Road"/><tag k="addr:housenumber" v="4624"/><tag k="coa:place_id" v="797534"/></node><node id="-69" lat="30.321042" lon="-97.742895" changeset="false"><tag k="addr:street" v="Shoalwood Avenue"/><tag k="addr:housenumber" v="4804"/><tag k="coa:place_id" v="755792"/></node><node id="-70" lat="30.320928" lon="-97.742941" changeset="false"><tag k="addr:street" v="Shoalwood Avenue"/><tag k="addr:housenumber" v="4802"/><tag k="coa:place_id" v="3691946"/></node><node id="-71" lat="30.318668" lon="-97.744384" changeset="false"><tag k="addr:street" v="West 46th Street"/><tag k="addr:housenumber" v="1800"/><tag k="coa:place_id" v="755702"/></node><node id="-72" lat="30.318638" lon="-97.744388" changeset="false"><tag k="addr:street" v="Shoalwood Avenue"/><tag k="addr:housenumber" v="4600"/><tag k="coa:place_id" v="250644"/></node></osm>