<?xml version="1.0" encoding="UTF-8"?><osm version="0.6" generator="github.com/aaronlidman/osm-and-geojson"><node id="-1" lat="30.313812" lon="-97.966206" changeset="false"><tag k="addr:street" v="Heron Bay Cove"/><tag k="addr:housenumber" v="14400"/><tag k="addr:postcode" v="78738"/></node><node id="-2" lat="30.324751" lon="-97.976934" changeset="false"><tag k="addr:street" v="Peak Lookout Drive"/><tag k="addr:housenumber" v="4106"/><tag k="addr:postcode" v="78738"/></node><node id="-3" lat="30.325678" lon="-97.977104" changeset="false"><tag k="addr:street" v="Peak Lookout Drive"/><tag k="addr:housenumber" v="4100"/><tag k="addr:postcode" v="78738"/></node><node id="-4" lat="30.331155" lon="-97.991994" changeset="false"><tag k="addr:street" v="Flint Rock Road"/><tag k="addr:housenumber" v="16421"/><tag k="addr:postcode" v="78738"/></node><node id="-5" lat="30.331099" lon="-97.96754" changeset="false"><tag k="addr:street" v="Ranch Road 620 South"/><tag k="addr:housenumber" v="3230"/><tag k="addr:postcode" v="78738"/></node><node id="-6" lat="30.32839" lon="-97.975182" changeset="false"><tag k="addr:street" v="Peak Lookout Drive"/><tag k="addr:housenumber" v="3804"/><tag k="addr:postcode" v="78738"/></node><node id="-7" lat="30.327591" lon="-97.975194" changeset="false"><tag k="addr:street" v="Peak Lookout Drive"/><tag k="addr:housenumber" v="3910"/><tag k="addr:postcode" v="78738"/></node><node id="-8" lat="30.319374" lon="-97.98127" changeset="false"><tag k="addr:street" v="Swiss Alps Court"/><tag k="addr:housenumber" v="15213"/><tag k="addr:postcode" v="78738"/></node><node id="-9" lat="30.321687" lon="-97.993582" changeset="false"><tag k="addr:street" v="Ozarks Path"/><tag k="addr:housenumber" v="16121"/><tag k="addr:postcode" v="78738"/></node><node id="-10" lat="30.329687" lon="-97.99604" changeset="false"><tag k="addr:street" v="Stephanie Lane"/><tag k="addr:housenumber" v="103"/><tag k="addr:postcode" v="78738"/></node><node id="-11" lat="30.328273" lon="-97.995731" changeset="false"><tag k="addr:street" v="Stephanie Lane"/><tag k="addr:housenumber" v="111"/><tag k="addr:postcode" v="78738"/></node><node id="-12" lat="30.320265" lon="-97.993673" changeset="false"><tag k="addr:street" v="Maritime Alps Way"/><tag k="addr:housenumber" v="16117"/><tag k="addr:postcode" v="78738"/></node><node id="-13" lat="30.332094" lon="-97.974311" changeset="false"><tag k="addr:street" v="Wild Cherry Drive"/><tag k="addr:housenumber" v="3504"/><tag k="addr:postcode" v="78738"/></node><node id="-14" lat="30.331525" lon="-97.973751" changeset="false"><tag k="addr:street" v="Wild Cherry Drive"/><tag k="addr:housenumber" v="3503"/><tag k="addr:postcode" v="78738"/></node><node id="-15" lat="30.314516" lon="-97.961346" changeset="false"><tag k="addr:street" v="Ladera Boulevard"/><tag k="addr:housenumber" v="14417"/><tag k="addr:postcode" v="78738"/></node><node id="-16" lat="30.333542" lon="-97.968944" changeset="false"><tag k="addr:street" v="Ranch Road 620 South"/><tag k="addr:housenumber" v="3102"/><tag k="addr:postcode" v="78738"/></node><node id="-17" lat="30.318918" lon="-97.970381" changeset="false"><tag k="addr:street" v="Falcon Head Boulevard"/><tag k="addr:housenumber" v="15501"/><tag k="addr:postcode" v="78738"/></node><node id="-18" lat="30.314574" lon="-97.965972" changeset="false"><tag k="addr:street" v="Sugarloaf Drive"/><tag k="addr:housenumber" v="4113"/><tag k="addr:postcode" v="78738"/></node><node id="-19" lat="30.318095" lon="-97.967378" changeset="false"><tag k="addr:street" v="Myrtle Beach Drive"/><tag k="addr:housenumber" v="4302"/><tag k="addr:postcode" v="78738"/></node><node id="-20" lat="30.327457" lon="-97.991166" changeset="false"><tag k="addr:street" v="Steven Wayne Court"/><tag k="addr:housenumber" v="16205"/><tag k="addr:postcode" v="78738"/></node><node id="-21" lat="30.327974" lon="-97.979171" changeset="false"><tag k="addr:street" v="Pawnee Pass"/><tag k="addr:housenumber" v="3730"/><tag k="addr:postcode" v="78738"/></node><node id="-22" lat="30.31827" lon="-97.977682" changeset="false"><tag k="addr:street" v="Spillman Ranch Loop"/><tag k="addr:housenumber" v="15204"/><tag k="addr:postcode" v="78738"/></node><node id="-23" lat="30.317706" lon="-97.967228" changeset="false"><tag k="addr:street" v="Myrtle Beach Drive"/><tag k="addr:housenumber" v="4308"/><tag k="addr:postcode" v="78738"/></node><node id="-24" lat="30.327552" lon="-97.964731" changeset="false"><tag k="addr:street" v="Ranch Road 620 South"/><tag k="addr:housenumber" v="3324"/><tag k="addr:postcode" v="78738"/></node><node id="-25" lat="30.331555" lon="-97.978705" changeset="false"><tag k="addr:street" v="Pawnee Pass"/><tag k="addr:housenumber" v="3414"/><tag k="addr:postcode" v="78738"/></node><node id="-26" lat="30.326637" lon="-97.963797" changeset="false"><tag k="addr:street" v="Ranch Road 620 South"/><tag k="addr:housenumber" v="3352 1/2"/><tag k="addr:postcode" v="78738"/></node><node id="-27" lat="30.326377" lon="-97.976066" changeset="false"><tag k="addr:street" v="Peak Lookout Drive"/><tag k="addr:housenumber" v="3909"/><tag k="addr:postcode" v="78738"/></node><node id="-28" lat="30.322143" lon="-97.977741" changeset="false"><tag k="addr:street" v="Spillman Ranch Loop"/><tag k="addr:housenumber" v="15517"/><tag k="addr:postcode" v="78738"/></node><node id="-29" lat="30.320007" lon="-97.981486" changeset="false"><tag k="addr:street" v="Swiss Alps Court"/><tag k="addr:housenumber" v="15225"/><tag k="addr:postcode" v="78738"/></node><node id="-30" lat="30.325144" lon="-97.960417" changeset="false"><tag k="addr:street" v="Ranch Road 620 South"/><tag k="addr:housenumber" v="3464"/><tag k="addr:postcode" v="78738"/></node><node id="-31" lat="30.329941" lon="-97.997003" changeset="false"><tag k="addr:street" v="Stephanie Lane"/><tag k="addr:housenumber" v="102"/><tag k="addr:postcode" v="78738"/></node><node id="-32" lat="30.320419" lon="-97.991497" changeset="false"><tag k="addr:street" v="Pyrenees Pass"/><tag k="addr:housenumber" v="4933"/><tag k="addr:postcode" v="78738"/></node><node id="-33" lat="30.330393" lon="-97.974752" changeset="false"><tag k="addr:street" v="Wild Cherry Drive"/><tag k="addr:housenumber" v="3601"/><tag k="addr:postcode" v="78738"/></node><node id="-34" lat="30.331332" lon="-97.974954" changeset="false"><tag k="addr:street" v="Wild Cherry Drive"/><tag k="addr:housenumber" v="3602"/><tag k="addr:postcode" v="78738"/></node><node id="-35" lat="30.323861" lon="-97.957387" changeset="false"><tag k="addr:street" v="Ranch Road 620 South"/><tag k="addr:housenumber" v="3500"/><tag k="addr:postcode" v="78738"/></node><node id="-36" lat="30.314077" lon="-97.954096" changeset="false"><tag k="addr:street" v="Bee Cave Parkway"/><tag k="addr:housenumber" v="13801"/><tag k="addr:postcode" v="78738"/></node><node id="-37" lat="30.311777" lon="-97.963109" changeset="false"><tag k="addr:street" v="Bee Cave Parkway"/><tag k="addr:housenumber" v="14001"/><tag k="addr:postcode" v="78738"/></node><node id="-38" lat="30.336043" lon="-97.970634" changeset="false"><tag k="addr:street" v="Flintrock Trace"/><tag k="addr:housenumber" v="2902 1/2"/><tag k="addr:postcode" v="78738"/></node><node id="-39" lat="30.316296" lon="-97.966825" changeset="false"><tag k="addr:street" v="Sugarloaf Drive"/><tag k="addr:housenumber" v="4004"/><tag k="addr:postcode" v="78738"/></node><node id="-40" lat="30.318321" lon="-97.966351" changeset="false"><tag k="addr:street" v="Piper Glen Drive"/><tag k="addr:housenumber" v="14413"/><tag k="addr:postcode" v="78738"/></node><node id="-41" lat="30.317474" lon="-97.966076" changeset="false"><tag k="addr:street" v="Sugarloaf Drive"/><tag k="addr:housenumber" v="3916"/><tag k="addr:postcode" v="78738"/></node><node id="-42" lat="30.319269" lon="-97.967653" changeset="false"><tag k="addr:street" v="Myrtle Beach Drive"/><tag k="addr:housenumber" v="4200 1/2"/><tag k="addr:postcode" v="78738"/></node><node id="-43" lat="30.334175" lon="-97.969785" changeset="false"><tag k="addr:street" v="Flintrock Trace"/><tag k="addr:housenumber" v="3012"/><tag k="addr:postcode" v="78738"/></node><node id="-44" lat="30.320804" lon="-97.971991" changeset="false"><tag k="addr:street" v="Spillman Ranch Loop"/><tag k="addr:housenumber" v="16103"/><tag k="addr:postcode" v="78738"/></node><node id="-45" lat="30.316211" lon="-97.966342" changeset="false"><tag k="addr:street" v="Sugarloaf Drive"/><tag k="addr:housenumber" v="4005"/><tag k="addr:postcode" v="78738"/></node><node id="-46" lat="30.328402" lon="-97.991585" changeset="false"><tag k="addr:street" v="Steven Wayne Court"/><tag k="addr:housenumber" v="16204"/><tag k="addr:postcode" v="78738"/></node><node id="-47" lat="30.317533" lon="-97.977415" changeset="false"><tag k="addr:street" v="Spillman Ranch Loop"/><tag k="addr:housenumber" v="15121"/><tag k="addr:postcode" v="78738"/></node><node id="-48" lat="30.325022" lon="-97.959017" changeset="false"><tag k="addr:street" v="Ranch Road 620 South"/><tag k="addr:housenumber" v="3490"/><tag k="addr:postcode" v="78738"/></node><node id="-49" lat="30.325249" lon="-97.977097" changeset="false"><tag k="addr:street" v="Peak Lookout Drive"/><tag k="addr:housenumber" v="4104"/><tag k="addr:postcode" v="78738"/></node><node id="-50" lat="30.322338" lon="-97.97764" changeset="false"><tag k="addr:street" v="Spillman Ranch Loop"/><tag k="addr:housenumber" v="15601"/><tag k="addr:postcode" v="78738"/></node><node id="-51" lat="30.318349" lon="-97.966916" changeset="false"><tag k="addr:street" v="Myrtle Beach Drive"/><tag k="addr:housenumber" v="4301"/><tag k="addr:postcode" v="78738"/></node><node id="-52" lat="30.32196" lon="-97.977881" changeset="false"><tag k="addr:street" v="Spillman Ranch Loop"/><tag k="addr:housenumber" v="15513"/><tag k="addr:postcode" v="78738"/></node><node id="-53" lat="30.31913" lon="-97.981227" changeset="false"><tag k="addr:street" v="Swiss Alps Court"/><tag k="addr:housenumber" v="15209"/><tag k="addr:postcode" v="78738"/></node><node id="-54" lat="30.317975" lon="-97.967282" changeset="false"><tag k="addr:street" v="Myrtle Beach Drive"/><tag k="addr:housenumber" v="4304"/><tag k="addr:postcode" v="78738"/></node><node id="-55" lat="30.327428" lon="-97.974476" changeset="false"><tag k="addr:street" v="Peak Lookout Drive"/><tag k="addr:housenumber" v="3805"/><tag k="addr:postcode" v="78738"/></node><node id="-56" lat="30.322001" lon="-97.993134" changeset="false"><tag k="addr:street" v="Ozarks Path"/><tag k="addr:housenumber" v="16116"/><tag k="addr:postcode" v="78738"/></node><node id="-57" lat="30.319621" lon="-97.994164" changeset="false"><tag k="addr:street" v="Patagonia Pass"/><tag k="addr:housenumber" v="5017"/><tag k="addr:postcode" v="78738"/></node><node id="-58" lat="30.319868" lon="-97.994528" changeset="false"><tag k="addr:street" v="Patagonia Pass"/><tag k="addr:housenumber" v="5016"/><tag k="addr:postcode" v="78738"/></node><node id="-59" lat="30.319653" lon="-97.994665" changeset="false"><tag k="addr:street" v="Patagonia Pass"/><tag k="addr:housenumber" v="5020"/><tag k="addr:postcode" v="78738"/></node><node id="-60" lat="30.322818" lon="-97.990241" changeset="false"><tag k="addr:street" v="Mont Blanc Drive"/><tag k="addr:housenumber" v="4717"/><tag k="addr:postcode" v="78738"/></node><node id="-61" lat="30.319426" lon="-97.99238" changeset="false"><tag k="addr:street" v="Pyrenees Pass"/><tag k="addr:housenumber" v="5033"/><tag k="addr:postcode" v="78738"/></node><node id="-62" lat="30.314704" lon="-97.961085" changeset="false"><tag k="addr:street" v="Ladera Boulevard"/><tag k="addr:housenumber" v="14409"/><tag k="addr:postcode" v="78738"/></node><node id="-63" lat="30.321884" lon="-97.99355" changeset="false"><tag k="addr:street" v="Ozarks Path"/><tag k="addr:housenumber" v="16125"/><tag k="addr:postcode" v="78738"/></node><node id="-64" lat="30.328223" lon="-97.993587" changeset="false"><tag k="addr:street" v="Shane Landon Court"/><tag k="addr:housenumber" v="16400"/><tag k="addr:postcode" v="78738"/></node><node id="-65" lat="30.33319" lon="-97.968768" changeset="false"><tag k="addr:street" v="Ranch Road 620 South"/><tag k="addr:housenumber" v="3104"/><tag k="addr:postcode" v="78738"/></node><node id="-66" lat="30.332952" lon="-97.981675" changeset="false"><tag k="addr:street" v="Flint Rock Road"/><tag k="addr:housenumber" v="15809"/><tag k="addr:postcode" v="78738"/></node><node id="-67" lat="30.327244" lon="-97.989667" changeset="false"><tag k="addr:street" v="Navajo Trail"/><tag k="addr:housenumber" v="4316"/><tag k="addr:postcode" v="78738"/></node><node id="-68" lat="30.330104" lon="-97.976228" changeset="false"><tag k="addr:street" v="Wild Cherry Drive"/><tag k="addr:housenumber" v="3701"/><tag k="addr:postcode" v="78738"/></node><node id="-69" lat="30.312344" lon="-97.966688" changeset="false"><tag k="addr:street" v="Heron Bay Cove"/><tag k="addr:housenumber" v="14421"/><tag k="addr:postcode" v="78738"/></node><node id="-70" lat="30.3275" lon="-97.994749" changeset="false"><tag k="addr:street" v="Shane Landon Court"/><tag k="addr:housenumber" v="16409"/><tag k="addr:postcode" v="78738"/></node><node id="-71" lat="30.329306" lon="-97.978117" changeset="false"><tag k="addr:street" v="Pawnee Pass"/><tag k="addr:housenumber" v="3708"/><tag k="addr:postcode" v="78738"/></node><node id="-72" lat="30.32908" lon="-97.973194" changeset="false"><tag k="addr:street" v="Peak Lookout Drive"/><tag k="addr:housenumber" v="3701"/><tag k="addr:postcode" v="78738"/></node><node id="-73" lat="30.325078" lon="-97.959782" changeset="false"><tag k="addr:street" v="Ranch Road 620 South"/><tag k="addr:housenumber" v="3480"/><tag k="addr:postcode" v="78738"/></node><node id="-74" lat="30.330779" lon="-97.991702" changeset="false"><tag k="addr:street" v="Flint Rock Road"/><tag k="addr:housenumber" v="16327"/><tag k="addr:postcode" v="78738"/></node><node id="-75" lat="30.323789" lon="-97.976807" changeset="false"><tag k="addr:street" v="Spillman Ranch Loop"/><tag k="addr:housenumber" v="15709"/><tag k="addr:postcode" v="78738"/></node><node id="-76" lat="30.315936" lon="-97.966356" changeset="false"><tag k="addr:street" v="Sugarloaf Drive"/><tag k="addr:housenumber" v="4009"/><tag k="addr:postcode" v="78738"/></node><node id="-77" lat="30.315379" lon="-97.966221" changeset="false"><tag k="addr:street" v="Sugarloaf Drive"/><tag k="addr:housenumber" v="4101"/><tag k="addr:postcode" v="78738"/></node><node id="-78" lat="30.32353" lon="-97.960378" changeset="false"><tag k="addr:street" v="Broadwinged Hawk Drive"/><tag k="addr:housenumber" v="14308"/><tag k="addr:postcode" v="78738"/></node><node id="-79" lat="30.325881" lon="-97.963002" changeset="false"><tag k="addr:street" v="Ranch Road 620 South"/><tag k="addr:housenumber" v="3400"/><tag k="addr:postcode" v="78738"/></node><node id="-80" lat="30.315846" lon="-97.950008" changeset="false"><tag k="addr:street" v="Ranch Road 620 South"/><tag k="addr:housenumber" v="3728"/><tag k="addr:postcode" v="78738"/></node><node id="-81" lat="30.312786" lon="-97.949121" changeset="false"><tag k="addr:street" v="Ranch Road 620 South"/><tag k="addr:housenumber" v="3922"/><tag k="addr:postcode" v="78738"/></node><node id="-82" lat="30.328308" lon="-97.99668" changeset="false"><tag k="addr:street" v="Stephanie Lane"/><tag k="addr:housenumber" v="110"/><tag k="addr:postcode" v="78738"/></node><node id="-83" lat="30.319824" lon="-97.993988" changeset="false"><tag k="addr:street" v="Patagonia Pass"/><tag k="addr:housenumber" v="5013"/><tag k="addr:postcode" v="78738"/></node><node id="-84" lat="30.320319" lon="-97.994108" changeset="false"><tag k="addr:street" v="Patagonia Pass"/><tag k="addr:housenumber" v="5004"/><tag k="addr:postcode" v="78738"/></node><node id="-85" lat="30.326715" lon="-97.975523" changeset="false"><tag k="addr:street" v="Peak Lookout Drive"/><tag k="addr:housenumber" v="3905"/><tag k="addr:postcode" v="78738"/></node><node id="-86" lat="30.318842" lon="-97.980783" changeset="false"><tag k="addr:street" v="Swiss Alps Court"/><tag k="addr:housenumber" v="15201"/><tag k="addr:postcode" v="78738"/></node><node id="-87" lat="30.330871" lon="-97.975609" changeset="false"><tag k="addr:street" v="Wild Cherry Drive"/><tag k="addr:housenumber" v="3606"/><tag k="addr:postcode" v="78738"/></node><node id="-88" lat="30.330597" lon="-97.976102" changeset="false"><tag k="addr:street" v="Wild Cherry Drive"/><tag k="addr:housenumber" v="3608"/><tag k="addr:postcode" v="78738"/></node><node id="-89" lat="30.332472" lon="-97.968414" changeset="false"><tag k="addr:street" v="Ranch Road 620 South"/><tag k="addr:housenumber" v="3110"/><tag k="addr:postcode" v="78738"/></node><node id="-90" lat="30.319743" lon="-97.99154" changeset="false"><tag k="addr:street" v="Pyrenees Pass"/><tag k="addr:housenumber" v="5013"/><tag k="addr:postcode" v="78738"/></node><node id="-91" lat="30.314436" lon="-97.961498" changeset="false"><tag k="addr:street" v="Ladera Boulevard"/><tag k="addr:housenumber" v="14501"/><tag k="addr:postcode" v="78738"/></node><node id="-92" lat="30.317732" lon="-97.973527" changeset="false"><tag k="addr:street" v="Spillman Ranch Loop"/><tag k="addr:housenumber" v="14913"/><tag k="addr:postcode" v="78738"/></node><node id="-93" lat="30.321927" lon="-97.956218" changeset="false"><tag k="addr:street" v="Ranch Road 620 South"/><tag k="addr:housenumber" v="3544"/><tag k="addr:postcode" v="78738"/></node><node id="-94" lat="30.329766" lon="-97.989148" changeset="false"><tag k="addr:street" v="Flint Rock Road"/><tag k="addr:housenumber" v="16219"/><tag k="addr:postcode" v="78738"/></node><node id="-95" lat="30.328666" lon="-97.994707" changeset="false"><tag k="addr:street" v="Shane Landon Court"/><tag k="addr:housenumber" v="16404"/><tag k="addr:postcode" v="78738"/></node><node id="-96" lat="30.316862" lon="-97.965855" changeset="false"><tag k="addr:street" v="Sugarloaf Drive"/><tag k="addr:housenumber" v="3921"/><tag k="addr:postcode" v="78738"/></node><node id="-97" lat="30.318473" lon="-97.967634" changeset="false"><tag k="addr:street" v="Myrtle Beach Drive"/><tag k="addr:housenumber" v="4216"/><tag k="addr:postcode" v="78738"/></node><node id="-98" lat="30.328163" lon="-97.992207" changeset="false"><tag k="addr:street" v="Steven Wayne Court"/><tag k="addr:housenumber" v="16300"/><tag k="addr:postcode" v="78738"/></node><node id="-99" lat="30.317566" lon="-97.965366" changeset="false"><tag k="addr:street" v="Sugarloaf Drive"/><tag k="addr:housenumber" v="3909"/><tag k="addr:postcode" v="78738"/></node><node id="-100" lat="30.328327" lon="-97.973083" changeset="false"><tag k="addr:street" v="Peak Lookout Drive"/><tag k="addr:housenumber" v="3703"/><tag k="addr:postcode" v="78738"/></node><node id="-101" lat="30.32254" lon="-97.977576" changeset="false"><tag k="addr:street" v="Spillman Ranch Loop"/><tag k="addr:housenumber" v="15605"/><tag k="addr:postcode" v="78738"/></node><node id="-102" lat="30.319991" lon="-97.994353" changeset="false"><tag k="addr:street" v="Patagonia Pass"/><tag k="addr:housenumber" v="5012"/><tag k="addr:postcode" v="78738"/></node><node id="-103" lat="30.316433" lon="-97.950015" changeset="false"><tag k="addr:street" v="Ranch Road 620 South"/><tag k="addr:housenumber" v="3724"/><tag k="addr:postcode" v="78738"/></node><node id="-104" lat="30.330097" lon="-97.997934" changeset="false"><tag k="addr:street" v="Flint Rock Road"/><tag k="addr:housenumber" v="16605"/><tag k="addr:postcode" v="78738"/></node><node id="-105" lat="30.328753" lon="-97.996838" changeset="false"><tag k="addr:street" v="Stephanie Lane"/><tag k="addr:housenumber" v="108"/><tag k="addr:postcode" v="78738"/></node><node id="-106" lat="30.314789" lon="-97.960963" changeset="false"><tag k="addr:street" v="Ladera Boulevard"/><tag k="addr:housenumber" v="14405"/><tag k="addr:postcode" v="78738"/></node><node id="-107" lat="30.333796" lon="-97.969069" changeset="false"><tag k="addr:street" v="Ranch Road 620 South"/><tag k="addr:housenumber" v="3100"/><tag k="addr:postcode" v="78738"/></node><node id="-108" lat="30.322135" lon="-97.991553" changeset="false"><tag k="addr:street" v="Mont Blanc Drive"/><tag k="addr:housenumber" v="4805"/><tag k="addr:postcode" v="78738"/></node><node id="-109" lat="30.327529" lon="-97.993553" changeset="false"><tag k="addr:street" v="Shane Landon Court"/><tag k="addr:housenumber" v="16401"/><tag k="addr:postcode" v="78738"/></node><node id="-110" lat="30.319345" lon="-97.991708" changeset="false"><tag k="addr:street" v="Pyrenees Pass"/><tag k="addr:housenumber" v="5021"/><tag k="addr:postcode" v="78738"/></node><node id="-111" lat="30.32272" lon="-97.990436" changeset="false"><tag k="addr:street" v="Mont Blanc Drive"/><tag k="addr:housenumber" v="4721"/><tag k="addr:postcode" v="78738"/></node><node id="-112" lat="30.315276" lon="-97.956764" changeset="false"><tag k="addr:street" v="Bee Cave Parkway"/><tag k="addr:housenumber" v="13847"/><tag k="addr:postcode" v="78738"/></node><node id="-113" lat="30.320015" lon="-97.991996" changeset="false"><tag k="addr:street" v="Pyrenees Pass"/><tag k="addr:housenumber" v="5008"/><tag k="addr:postcode" v="78738"/></node><node id="-114" lat="30.319556" lon="-97.992575" changeset="false"><tag k="addr:street" v="Pyrenees Pass"/><tag k="addr:housenumber" v="5037"/><tag k="addr:postcode" v="78738"/></node><node id="-115" lat="30.311516" lon="-97.96453" changeset="false"><tag k="addr:street" v="Bee Cave Parkway"/><tag k="addr:housenumber" v="14058"/><tag k="addr:postcode" v="78738"/></node><node id="-116" lat="30.319549" lon="-97.980717" changeset="false"><tag k="addr:street" v="Swiss Alps Court"/><tag k="addr:housenumber" v="15208"/><tag k="addr:postcode" v="78738"/></node><node id="-117" lat="30.314355" lon="-97.961635" changeset="false"><tag k="addr:street" v="Ladera Boulevard"/><tag k="addr:housenumber" v="14505"/><tag k="addr:postcode" v="78738"/></node><node id="-118" lat="30.320708" lon="-97.994436" changeset="false"><tag k="addr:street" v="Maritime Alps Way"/><tag k="addr:housenumber" v="16201"/><tag k="addr:postcode" v="78738"/></node><node id="-119" lat="30.329341" lon="-97.996005" changeset="false"><tag k="addr:street" v="Stephanie Lane"/><tag k="addr:housenumber" v="105"/><tag k="addr:postcode" v="78738"/></node><node id="-120" lat="30.328995" lon="-97.995961" changeset="false"><tag k="addr:street" v="Stephanie Lane"/><tag k="addr:housenumber" v="107"/><tag k="addr:postcode" v="78738"/></node><node id="-121" lat="30.332753" lon="-97.973691" changeset="false"><tag k="addr:street" v="Wild Cherry Drive"/><tag k="addr:housenumber" v="3502"/><tag k="addr:postcode" v="78738"/></node><node id="-122" lat="30.322233" lon="-97.960454" changeset="false"><tag k="addr:street" v="Falcon Head Boulevard"/><tag k="addr:housenumber" v="14501"/><tag k="addr:postcode" v="78738"/></node><node id="-123" lat="30.32125" lon="-97.991635" changeset="false"><tag k="addr:street" v="Pyrenees Pass"/><tag k="addr:housenumber" v="4916"/><tag k="addr:postcode" v="78738"/></node><node id="-124" lat="30.32185" lon="-97.993007" changeset="false"><tag k="addr:street" v="Ozarks Path"/><tag k="addr:housenumber" v="16112"/><tag k="addr:postcode" v="78738"/></node><node id="-125" lat="30.321466" lon="-97.99108" changeset="false"><tag k="addr:street" v="Pyrenees Pass"/><tag k="addr:housenumber" v="4904"/><tag k="addr:postcode" v="78738"/></node><node id="-126" lat="30.330172" lon="-97.975289" changeset="false"><tag k="addr:street" v="Wild Cherry Drive"/><tag k="addr:housenumber" v="3603"/><tag k="addr:postcode" v="78738"/></node><node id="-127" lat="30.329931" lon="-97.975738" changeset="false"><tag k="addr:street" v="Wild Cherry Drive"/><tag k="addr:housenumber" v="3605"/><tag k="addr:postcode" v="78738"/></node><node id="-128" lat="30.332874" lon="-97.968608" changeset="false"><tag k="addr:street" v="Ranch Road 620 South"/><tag k="addr:housenumber" v="3106"/><tag k="addr:postcode" v="78738"/></node><node id="-129" lat="30.332682" lon="-97.968533" changeset="false"><tag k="addr:street" v="Ranch Road 620 South"/><tag k="addr:housenumber" v="3108"/><tag k="addr:postcode" v="78738"/></node><node id="-130" lat="30.310974" lon="-97.963978" changeset="false"><tag k="addr:street" v="Bee Cave Parkway"/><tag k="addr:housenumber" v="14057"/><tag k="addr:postcode" v="78738"/></node><node id="-131" lat="30.330833" lon="-97.99428" changeset="false"><tag k="addr:street" v="Flint Rock Road"/><tag k="addr:housenumber" v="16515"/><tag k="addr:postcode" v="78738"/></node><node id="-132" lat="30.314292" lon="-97.961763" changeset="false"><tag k="addr:street" v="Ladera Boulevard"/><tag k="addr:housenumber" v="14509"/><tag k="addr:postcode" v="78738"/></node><node id="-133" lat="30.329136" lon="-97.996911" changeset="false"><tag k="addr:street" v="Stephanie Lane"/><tag k="addr:housenumber" v="106"/><tag k="addr:postcode" v="78738"/></node><node id="-134" lat="30.322683" lon="-97.959069" changeset="false"><tag k="addr:street" v="Falcon Head Boulevard"/><tag k="addr:housenumber" v="14425"/><tag k="addr:postcode" v="78738"/></node><node id="-135" lat="30.319736" lon="-97.980841" changeset="false"><tag k="addr:street" v="Swiss Alps Court"/><tag k="addr:housenumber" v="15212"/><tag k="addr:postcode" v="78738"/></node><node id="-136" lat="30.331071" lon="-97.975258" changeset="false"><tag k="addr:street" v="Wild Cherry Drive"/><tag k="addr:housenumber" v="3604"/><tag k="addr:postcode" v="78738"/></node><node id="-137" lat="30.32108" lon="-98.005611" changeset="false"><tag k="addr:street" v="Serene Hills Drive"/><tag k="addr:housenumber" v="5329"/><tag k="addr:postcode" v="78738"/></node><node id="-138" lat="30.329526" lon="-97.996963" changeset="false"><tag k="addr:street" v="Stephanie Lane"/><tag k="addr:housenumber" v="104"/><tag k="addr:postcode" v="78738"/></node><node id="-139" lat="30.331593" lon="-97.97466" changeset="false"><tag k="addr:street" v="Wild Cherry Drive"/><tag k="addr:housenumber" v="3506"/><tag k="addr:postcode" v="78738"/></node><node id="-140" lat="30.314986" lon="-97.949808" changeset="false"><tag k="addr:street" v="Ranch Road 620 South"/><tag k="addr:housenumber" v="3810"/><tag k="addr:postcode" v="78738"/></node><node id="-141" lat="30.32184" lon="-98.005675" changeset="false"><tag k="addr:street" v="Serene Hills Drive"/><tag k="addr:housenumber" v="5313"/><tag k="addr:postcode" v="78738"/></node><node id="-142" lat="30.327716" lon="-97.973848" changeset="false"><tag k="addr:street" v="Peak Lookout Drive"/><tag k="addr:housenumber" v="3801"/><tag k="addr:postcode" v="78738"/></node><node id="-143" lat="30.319229" lon="-97.992226" changeset="false"><tag k="addr:street" v="Pyrenees Pass"/><tag k="addr:housenumber" v="5029"/><tag k="addr:postcode" v="78738"/></node><node id="-144" lat="30.321051" lon="-97.994211" changeset="false"><tag k="addr:street" v="Maritime Alps Way"/><tag k="addr:housenumber" v="16132"/><tag k="addr:postcode" v="78738"/></node><node id="-145" lat="30.318943" lon="-97.981079" changeset="false"><tag k="addr:street" v="Swiss Alps Court"/><tag k="addr:housenumber" v="15205"/><tag k="addr:postcode" v="78738"/></node><node id="-146" lat="30.328683" lon="-97.995735" changeset="false"><tag k="addr:street" v="Stephanie Lane"/><tag k="addr:housenumber" v="109"/><tag k="addr:postcode" v="78738"/></node><node id="-147" lat="30.329918" lon="-97.99603" changeset="false"><tag k="addr:street" v="Stephanie Lane"/><tag k="addr:housenumber" v="101"/><tag k="addr:postcode" v="78738"/></node><node id="-148" lat="30.319063" lon="-97.980461" changeset="false"><tag k="addr:street" v="Swiss Alps Court"/><tag k="addr:housenumber" v="15200"/><tag k="addr:postcode" v="78738"/></node><node id="-149" lat="30.319339" lon="-97.980503" changeset="false"><tag k="addr:street" v="Swiss Alps Court"/><tag k="addr:housenumber" v="15204"/><tag k="addr:postcode" v="78738"/></node><node id="-150" lat="30.314906" lon="-97.960839" changeset="false"><tag k="addr:street" v="Ladera Boulevard"/><tag k="addr:housenumber" v="14401"/><tag k="addr:postcode" v="78738"/></node><node id="-151" lat="30.314607" lon="-97.961218" changeset="false"><tag k="addr:street" v="Ladera Boulevard"/><tag k="addr:housenumber" v="14413"/><tag k="addr:postcode" v="78738"/></node><node id="-152" lat="30.316509" lon="-97.96596" changeset="false"><tag k="addr:street" v="Sugarloaf Drive"/><tag k="addr:housenumber" v="3925 1/2"/><tag k="addr:postcode" v="78738"/></node><node id="-153" lat="30.328041" lon="-97.996123" changeset="false"><tag k="addr:street" v="Stephanie Lane"/><tag k="addr:housenumber" v="112"/><tag k="addr:postcode" v="78738"/></node><node id="-154" lat="30.328016" lon="-97.994959" changeset="false"><tag k="addr:street" v="Shane Landon Court"/><tag k="addr:housenumber" v="16411"/><tag k="addr:postcode" v="78738"/></node><node id="-155" lat="30.328886" lon="-97.977974" changeset="false"><tag k="addr:street" v="Pawnee Pass"/><tag k="addr:housenumber" v="3720"/><tag k="addr:postcode" v="78738"/></node><node id="-156" lat="30.318253" lon="-97.967464" changeset="false"><tag k="addr:street" v="Myrtle Beach Drive"/><tag k="addr:housenumber" v="4300"/><tag k="addr:postcode" v="78738"/></node><node id="-157" lat="30.318849" lon="-97.96681" changeset="false"><tag k="addr:street" v="Piper Glen Drive"/><tag k="addr:housenumber" v="14420"/><tag k="addr:postcode" v="78738"/></node><node id="-158" lat="30.310046" lon="-97.946151" changeset="false"><tag k="addr:street" v="Ranch Road 620 South"/><tag k="addr:housenumber" v="4010"/><tag k="addr:postcode" v="78738"/></node><node id="-159" lat="30.327934" lon="-97.976526" changeset="false"><tag k="addr:street" v="Peak Lookout Drive"/><tag k="addr:housenumber" v="4000"/><tag k="addr:postcode" v="78738"/></node><node id="-160" lat="30.324791" lon="-97.95869" changeset="false"><tag k="addr:street" v="Falcon Head Boulevard"/><tag k="addr:housenumber" v="14300 1/2"/><tag k="addr:postcode" v="78738"/></node><node id="-161" lat="30.321809" lon="-97.977165" changeset="false"><tag k="addr:street" v="Bat Falcon Drive"/><tag k="addr:housenumber" v="4300"/><tag k="addr:postcode" v="78738"/></node><node id="-162" lat="30.327322" lon="-97.991746" changeset="false"><tag k="addr:street" v="Steven Wayne Court"/><tag k="addr:housenumber" v="16301"/><tag k="addr:postcode" v="78738"/></node><node id="-163" lat="30.316145" lon="-97.950114" changeset="false"><tag k="addr:street" v="Ranch Road 620 South"/><tag k="addr:housenumber" v="3726"/><tag k="addr:postcode" v="78738"/></node><node id="-164" lat="30.328485" lon="-97.97465" changeset="false"><tag k="addr:street" v="Peak Lookout Drive"/><tag k="addr:housenumber" v="3800"/><tag k="addr:postcode" v="78738"/></node><node id="-165" lat="30.327014" lon="-97.974983" changeset="false"><tag k="addr:street" v="Peak Lookout Drive"/><tag k="addr:housenumber" v="3901"/><tag k="addr:postcode" v="78738"/></node><node id="-166" lat="30.314924" lon="-97.966596" changeset="false"><tag k="addr:street" v="Sugarloaf Drive"/><tag k="addr:housenumber" v="4104"/><tag k="addr:postcode" v="78738"/></node><node id="-167" lat="30.322113" lon="-97.973696" changeset="false"><tag k="addr:street" v="Hookbilled Kite Drive"/><tag k="addr:housenumber" v="4100"/><tag k="addr:postcode" v="78738"/></node><node id="-168" lat="30.312591" lon="-97.967179" changeset="false"><tag k="addr:street" v="Heron Bay Cove"/><tag k="addr:housenumber" v="14420"/><tag k="addr:postcode" v="78738"/></node><node id="-169" lat="30.331106" lon="-97.990289" changeset="false"><tag k="addr:street" v="Flint Rock Road"/><tag k="addr:housenumber" v="16201"/><tag k="addr:postcode" v="78738"/></node><node id="-170" lat="30.326814" lon="-97.976815" changeset="false"><tag k="addr:street" v="Peak Lookout Drive"/><tag k="addr:housenumber" v="4008"/><tag k="addr:postcode" v="78738"/></node><node id="-171" lat="30.320602" lon="-97.968489" changeset="false"><tag k="addr:street" v="Falcon Head Boulevard"/><tag k="addr:housenumber" v="15201"/><tag k="addr:postcode" v="78738"/></node><node id="-172" lat="30.320974" lon="-97.973671" changeset="false"><tag k="addr:street" v="Hookbilled Kite Drive"/><tag k="addr:housenumber" v="4205"/><tag k="addr:postcode" v="78738"/></node><node id="-173" lat="30.320857" lon="-97.967003" changeset="false"><tag k="addr:street" v="Falcon Head Boulevard"/><tag k="addr:housenumber" v="15101"/><tag k="addr:postcode" v="78738"/></node><node id="-174" lat="30.327295" lon="-97.994203" changeset="false"><tag k="addr:street" v="Shane Landon Court"/><tag k="addr:housenumber" v="16405"/><tag k="addr:postcode" v="78738"/></node><node id="-175" lat="30.319577" lon="-97.981362" changeset="false"><tag k="addr:street" v="Swiss Alps Court"/><tag k="addr:housenumber" v="15217"/><tag k="addr:postcode" v="78738"/></node><node id="-176" lat="30.322035" lon="-97.99336" changeset="false"><tag k="addr:street" v="Ozarks Path"/><tag k="addr:housenumber" v="16120"/><tag k="addr:postcode" v="78738"/></node><node id="-177" lat="30.321512" lon="-97.993456" changeset="false"><tag k="addr:street" v="Ozarks Path"/><tag k="addr:housenumber" v="16117"/><tag k="addr:postcode" v="78738"/></node><node id="-178" lat="30.319217" lon="-97.952664" changeset="false"><tag k="addr:street" v="Ranch Road 620 South"/><tag k="addr:housenumber" v="3620"/><tag k="addr:postcode" v="78738"/></node><node id="-179" lat="30.317607" lon="-97.950633" changeset="false"><tag k="addr:street" v="Ranch Road 620 South"/><tag k="addr:housenumber" v="3702"/><tag k="addr:postcode" v="78738"/></node><node id="-180" lat="30.322515" lon="-97.956565" changeset="false"><tag k="addr:street" v="Ranch Road 620 South"/><tag k="addr:housenumber" v="3536"/><tag k="addr:postcode" v="78738"/></node><node id="-181" lat="30.329969" lon="-97.977834" changeset="false"><tag k="addr:street" v="Pawnee Pass"/><tag k="addr:housenumber" v="3616"/><tag k="addr:postcode" v="78738"/></node><node id="-182" lat="30.313142" lon="-97.966869" changeset="false"><tag k="addr:street" v="Heron Bay Cove"/><tag k="addr:housenumber" v="14412"/><tag k="addr:postcode" v="78738"/></node><node id="-183" lat="30.321773" lon="-97.978016" changeset="false"><tag k="addr:street" v="Spillman Ranch Loop"/><tag k="addr:housenumber" v="15509"/><tag k="addr:postcode" v="78738"/></node><node id="-184" lat="30.321586" lon="-97.978213" changeset="false"><tag k="addr:street" v="Spillman Ranch Loop"/><tag k="addr:housenumber" v="15505"/><tag k="addr:postcode" v="78738"/></node><node id="-185" lat="30.319702" lon="-97.953682" changeset="false"><tag k="addr:street" v="Ranch Road 620 South"/><tag k="addr:housenumber" v="3604"/><tag k="addr:postcode" v="78738"/></node><node id="-186" lat="30.319522" lon="-97.953269" changeset="false"><tag k="addr:street" v="Ranch Road 620 South"/><tag k="addr:housenumber" v="3616"/><tag k="addr:postcode" v="78738"/></node></osm>