<?xml version="1.0" encoding="UTF-8"?><osm version="0.6" generator="github.com/aaronlidman/osm-and-geojson"><node id="-1" lat="30.344863" lon="-97.611103" changeset="false"><tag k="addr:street" v="Mumruffin Lane"/><tag k="addr:housenumber" v="7109"/><tag k="addr:postcode" v="78754"/></node><node id="-2" lat="30.398655" lon="-97.586388" changeset="false"><tag k="addr:street" v="Cameron Road"/><tag k="addr:housenumber" v="14701"/><tag k="addr:postcode" v="78653"/></node><node id="-3" lat="30.344557" lon="-97.61121" changeset="false"><tag k="addr:street" v="Whifflewind Way"/><tag k="addr:housenumber" v="7104"/><tag k="addr:postcode" v="78754"/></node><node id="-4" lat="30.352542" lon="-97.61525" changeset="false"><tag k="addr:street" v="Carisbrooke Lane"/><tag k="addr:housenumber" v="6504"/><tag k="addr:postcode" v="78754"/></node><node id="-5" lat="30.339917" lon="-97.607431" changeset="false"><tag k="addr:street" v="Blue Goose Road"/><tag k="addr:housenumber" v="7704"/><tag k="addr:postcode" v="78653"/></node><node id="-6" lat="30.346405" lon="-97.610797" changeset="false"><tag k="addr:street" v="Avering Lane"/><tag k="addr:housenumber" v="11328"/><tag k="addr:postcode" v="78754"/></node><node id="-7" lat="30.346315" lon="-97.610394" changeset="false"><tag k="addr:street" v="Avering Lane"/><tag k="addr:housenumber" v="11320"/><tag k="addr:postcode" v="78754"/></node><node id="-8" lat="30.352191" lon="-97.636675" changeset="false"><tag k="addr:street" v="Blue Goose Road"/><tag k="addr:housenumber" v="4806"/><tag k="addr:postcode" v="78754"/></node><node id="-9" lat="30.342465" lon="-97.612692" changeset="false"><tag k="addr:street" v="Blue Goose Road"/><tag k="addr:housenumber" v="7110"/><tag k="addr:postcode" v="78754"/></node><node id="-10" lat="30.350692" lon="-97.629876" changeset="false"><tag k="addr:street" v="Blue Goose Road"/><tag k="addr:housenumber" v="5510"/><tag k="addr:postcode" v="78754"/></node><node id="-11" lat="30.350575" lon="-97.607417" changeset="false"><tag k="addr:street" v="William Wallace Way"/><tag k="addr:housenumber" v="7022"/><tag k="addr:postcode" v="78754"/></node><node id="-12" lat="30.35358" lon="-97.592377" changeset="false"><tag k="addr:street" v="East Parmer Lane"/><tag k="addr:housenumber" v="8108"/><tag k="addr:postcode" v="78653"/></node><node id="-13" lat="30.352272" lon="-97.593977" changeset="false"><tag k="addr:street" v="East Parmer Lane"/><tag k="addr:housenumber" v="8011"/><tag k="addr:postcode" v="78653"/></node><node id="-14" lat="30.356148" lon="-97.595167" changeset="false"><tag k="addr:street" v="East Parmer Lane"/><tag k="addr:housenumber" v="7800"/><tag k="addr:postcode" v="78653"/></node><node id="-15" lat="30.357433" lon="-97.613013" changeset="false"><tag k="addr:street" v="Rydalwater Lane"/><tag k="addr:housenumber" v="11730"/><tag k="addr:postcode" v="78754"/></node><node id="-16" lat="30.346609" lon="-97.609548" changeset="false"><tag k="addr:street" v="Avering Lane"/><tag k="addr:housenumber" v="11307"/><tag k="addr:postcode" v="78754"/></node><node id="-17" lat="30.375363" lon="-97.609587" changeset="false"><tag k="addr:street" v="Harris Branch Parkway"/><tag k="addr:housenumber" v="12555"/><tag k="addr:postcode" v="78653"/></node><node id="-18" lat="30.387095" lon="-97.584851" changeset="false"><tag k="addr:street" v="Gregg Manor Road"/><tag k="addr:housenumber" v="14114"/><tag k="addr:postcode" v="78653"/></node><node id="-19" lat="30.362188" lon="-97.606671" changeset="false"><tag k="addr:street" v="Boyce Lane"/><tag k="addr:housenumber" v="6610"/><tag k="addr:postcode" v="78653"/></node><node id="-20" lat="30.344859" lon="-97.611321" changeset="false"><tag k="addr:street" v="Mumruffin Lane"/><tag k="addr:housenumber" v="7105"/><tag k="addr:postcode" v="78754"/></node><node id="-21" lat="30.345614" lon="-97.61073" changeset="false"><tag k="addr:street" v="Dagon Drive"/><tag k="addr:housenumber" v="7101"/><tag k="addr:postcode" v="78754"/></node><node id="-22" lat="30.350939" lon="-97.612731" changeset="false"><tag k="addr:street" v="Ashprington Lane"/><tag k="addr:housenumber" v="6702"/><tag k="addr:postcode" v="78754"/></node><node id="-23" lat="30.347245" lon="-97.610829" changeset="false"><tag k="addr:street" v="Avering Lane"/><tag k="addr:housenumber" v="11345"/><tag k="addr:postcode" v="78754"/></node><node id="-24" lat="30.347632" lon="-97.616324" changeset="false"><tag k="addr:street" v="Drumellan Street"/><tag k="addr:housenumber" v="11205"/><tag k="addr:postcode" v="78754"/></node><node id="-25" lat="30.347848" lon="-97.616372" changeset="false"><tag k="addr:street" v="Drumellan Street"/><tag k="addr:housenumber" v="11213"/><tag k="addr:postcode" v="78754"/></node><node id="-26" lat="30.356609" lon="-97.618034" changeset="false"><tag k="addr:street" v="Magnus Street"/><tag k="addr:housenumber" v="6004"/><tag k="addr:postcode" v="78754"/></node><node id="-27" lat="30.354593" lon="-97.619621" changeset="false"><tag k="addr:street" v="Gaelic Drive"/><tag k="addr:housenumber" v="11501"/><tag k="addr:postcode" v="78754"/></node><node id="-28" lat="30.354738" lon="-97.619569" changeset="false"><tag k="addr:street" v="Gaelic Drive"/><tag k="addr:housenumber" v="11505"/><tag k="addr:postcode" v="78754"/></node><node id="-29" lat="30.355747" lon="-97.619427" changeset="false"><tag k="addr:street" v="Gaelic Drive"/><tag k="addr:housenumber" v="11600"/><tag k="addr:postcode" v="78754"/></node><node id="-30" lat="30.35552" lon="-97.618914" changeset="false"><tag k="addr:street" v="Gaelic Drive"/><tag k="addr:housenumber" v="11605"/><tag k="addr:postcode" v="78754"/></node><node id="-31" lat="30.355644" lon="-97.61882" changeset="false"><tag k="addr:street" v="Gaelic Drive"/><tag k="addr:housenumber" v="11609"/><tag k="addr:postcode" v="78754"/></node><node id="-32" lat="30.356026" lon="-97.618594" changeset="false"><tag k="addr:street" v="Gaelic Drive"/><tag k="addr:housenumber" v="11621"/><tag k="addr:postcode" v="78754"/></node><node id="-33" lat="30.345623" lon="-97.614803" changeset="false"><tag k="addr:street" v="Helms Deep Drive"/><tag k="addr:housenumber" v="11001"/><tag k="addr:postcode" v="78754"/></node><node id="-34" lat="30.345252" lon="-97.61503" changeset="false"><tag k="addr:street" v="Helms Deep Drive"/><tag k="addr:housenumber" v="10913"/><tag k="addr:postcode" v="78754"/></node><node id="-35" lat="30.345161" lon="-97.615674" changeset="false"><tag k="addr:street" v="Helms Deep Drive"/><tag k="addr:housenumber" v="10900"/><tag k="addr:postcode" v="78754"/></node><node id="-36" lat="30.345522" lon="-97.615867" changeset="false"><tag k="addr:street" v="Roderick Lawson Lane"/><tag k="addr:housenumber" v="10929"/><tag k="addr:postcode" v="78754"/></node><node id="-37" lat="30.345715" lon="-97.615737" changeset="false"><tag k="addr:street" v="Roderick Lawson Lane"/><tag k="addr:housenumber" v="10937"/><tag k="addr:postcode" v="78754"/></node><node id="-38" lat="30.345901" lon="-97.615617" changeset="false"><tag k="addr:street" v="Roderick Lawson Lane"/><tag k="addr:housenumber" v="11005"/><tag k="addr:postcode" v="78754"/></node><node id="-39" lat="30.346237" lon="-97.615954" changeset="false"><tag k="addr:street" v="Roderick Lawson Lane"/><tag k="addr:housenumber" v="11008"/><tag k="addr:postcode" v="78754"/></node><node id="-40" lat="30.346202" lon="-97.616324" changeset="false"><tag k="addr:street" v="Crosne Street"/><tag k="addr:housenumber" v="6720"/><tag k="addr:postcode" v="78754"/></node><node id="-41" lat="30.345747" lon="-97.617052" changeset="false"><tag k="addr:street" v="Crosne Street"/><tag k="addr:housenumber" v="6705"/><tag k="addr:postcode" v="78754"/></node><node id="-42" lat="30.346168" lon="-97.61461" changeset="false"><tag k="addr:street" v="Helms Deep Drive"/><tag k="addr:housenumber" v="11021"/><tag k="addr:postcode" v="78754"/></node><node id="-43" lat="30.34779" lon="-97.617704" changeset="false"><tag k="addr:street" v="Barns Trail"/><tag k="addr:housenumber" v="11216"/><tag k="addr:postcode" v="78754"/></node><node id="-44" lat="30.348388" lon="-97.620695" changeset="false"><tag k="addr:street" v="Dunlop Terrace"/><tag k="addr:housenumber" v="11213"/><tag k="addr:postcode" v="78754"/></node><node id="-45" lat="30.348146" lon="-97.6218" changeset="false"><tag k="addr:street" v="Minnoch Lane"/><tag k="addr:housenumber" v="6221"/><tag k="addr:postcode" v="78754"/></node><node id="-46" lat="30.347069" lon="-97.622573" changeset="false"><tag k="addr:street" v="Kirkoswald Road"/><tag k="addr:housenumber" v="11013"/><tag k="addr:postcode" v="78754"/></node><node id="-47" lat="30.347482" lon="-97.622111" changeset="false"><tag k="addr:street" v="Garden Rose Path"/><tag k="addr:housenumber" v="6209"/><tag k="addr:postcode" v="78754"/></node><node id="-48" lat="30.347853" lon="-97.621968" changeset="false"><tag k="addr:street" v="Garden Rose Path"/><tag k="addr:housenumber" v="6204"/><tag k="addr:postcode" v="78754"/></node><node id="-49" lat="30.347186" lon="-97.621563" changeset="false"><tag k="addr:street" v="Garden Rose Path"/><tag k="addr:housenumber" v="6301"/><tag k="addr:postcode" v="78754"/></node><node id="-50" lat="30.346868" lon="-97.620986" changeset="false"><tag k="addr:street" v="Garden Rose Path"/><tag k="addr:housenumber" v="6321"/><tag k="addr:postcode" v="78754"/></node><node id="-51" lat="30.394854" lon="-97.59073" changeset="false"><tag k="addr:street" v="Cameron Road"/><tag k="addr:housenumber" v="14505"/><tag k="addr:postcode" v="78653"/></node><node id="-52" lat="30.348171" lon="-97.619034" changeset="false"><tag k="addr:street" v="Kirkland Hill Path"/><tag k="addr:housenumber" v="11300"/><tag k="addr:postcode" v="78754"/></node><node id="-53" lat="30.348394" lon="-97.619396" changeset="false"><tag k="addr:street" v="Kirkland Hill Path"/><tag k="addr:housenumber" v="11316"/><tag k="addr:postcode" v="78754"/></node><node id="-54" lat="30.347375" lon="-97.618324" changeset="false"><tag k="addr:street" v="Kirkland Hill Path"/><tag k="addr:housenumber" v="11205"/><tag k="addr:postcode" v="78754"/></node><node id="-55" lat="30.347961" lon="-97.618407" changeset="false"><tag k="addr:street" v="Kirkland Hill Path"/><tag k="addr:housenumber" v="11225"/><tag k="addr:postcode" v="78754"/></node><node id="-56" lat="30.34879" lon="-97.61922" changeset="false"><tag k="addr:street" v="Kirkland Hill Path"/><tag k="addr:housenumber" v="11321"/><tag k="addr:postcode" v="78754"/></node><node id="-57" lat="30.348013" lon="-97.619438" changeset="false"><tag k="addr:street" v="Whitefaulds Drive"/><tag k="addr:housenumber" v="11220"/><tag k="addr:postcode" v="78754"/></node><node id="-58" lat="30.347227" lon="-97.619243" changeset="false"><tag k="addr:street" v="Whitefaulds Drive"/><tag k="addr:housenumber" v="11201"/><tag k="addr:postcode" v="78754"/></node><node id="-59" lat="30.347973" lon="-97.619934" changeset="false"><tag k="addr:street" v="Harlyn Bay Road"/><tag k="addr:housenumber" v="11213"/><tag k="addr:postcode" v="78754"/></node><node id="-60" lat="30.348265" lon="-97.619761" changeset="false"><tag k="addr:street" v="Harlyn Bay Road"/><tag k="addr:housenumber" v="11225"/><tag k="addr:postcode" v="78754"/></node><node id="-61" lat="30.348357" lon="-97.619695" changeset="false"><tag k="addr:street" v="Harlyn Bay Road"/><tag k="addr:housenumber" v="11229"/><tag k="addr:postcode" v="78754"/></node><node id="-62" lat="30.34856" lon="-97.619587" changeset="false"><tag k="addr:street" v="Harlyn Bay Road"/><tag k="addr:housenumber" v="11237"/><tag k="addr:postcode" v="78754"/></node><node id="-63" lat="30.347594" lon="-97.619758" changeset="false"><tag k="addr:street" v="Minnoch Lane"/><tag k="addr:housenumber" v="6416"/><tag k="addr:postcode" v="78754"/></node><node id="-64" lat="30.34669" lon="-97.616285" changeset="false"><tag k="addr:street" v="Glebe Path"/><tag k="addr:housenumber" v="6601"/><tag k="addr:postcode" v="78754"/></node><node id="-65" lat="30.346347" lon="-97.615457" changeset="false"><tag k="addr:street" v="Roderick Lawson Lane"/><tag k="addr:housenumber" v="11101"/><tag k="addr:postcode" v="78754"/></node><node id="-66" lat="30.359588" lon="-97.611157" changeset="false"><tag k="addr:street" v="Arlington Mill Road"/><tag k="addr:housenumber" v="11949"/><tag k="addr:postcode" v="78754"/></node><node id="-67" lat="30.345847" lon="-97.61475" changeset="false"><tag k="addr:street" v="Helms Deep Drive"/><tag k="addr:housenumber" v="11009"/><tag k="addr:postcode" v="78754"/></node><node id="-68" lat="30.349231" lon="-97.61779" changeset="false"><tag k="addr:street" v="Barns Trail"/><tag k="addr:housenumber" v="11420"/><tag k="addr:postcode" v="78754"/></node><node id="-69" lat="30.348002" lon="-97.614688" changeset="false"><tag k="addr:street" v="Kincraig Court"/><tag k="addr:housenumber" v="11316"/><tag k="addr:postcode" v="78754"/></node><node id="-70" lat="30.347553" lon="-97.614394" changeset="false"><tag k="addr:street" v="Kincraig Court"/><tag k="addr:housenumber" v="11301"/><tag k="addr:postcode" v="78754"/></node><node id="-71" lat="30.347807" lon="-97.614395" changeset="false"><tag k="addr:street" v="Kincraig Court"/><tag k="addr:housenumber" v="11309"/><tag k="addr:postcode" v="78754"/></node><node id="-72" lat="30.347902" lon="-97.616836" changeset="false"><tag k="addr:street" v="Drumellan Street"/><tag k="addr:housenumber" v="11216"/><tag k="addr:postcode" v="78754"/></node><node id="-73" lat="30.348121" lon="-97.617755" changeset="false"><tag k="addr:street" v="Barns Trail"/><tag k="addr:housenumber" v="11304"/><tag k="addr:postcode" v="78754"/></node><node id="-74" lat="30.347635" lon="-97.617241" changeset="false"><tag k="addr:street" v="Barns Trail"/><tag k="addr:housenumber" v="11209"/><tag k="addr:postcode" v="78754"/></node><node id="-75" lat="30.348282" lon="-97.617341" changeset="false"><tag k="addr:street" v="Barns Trail"/><tag k="addr:housenumber" v="11309"/><tag k="addr:postcode" v="78754"/></node><node id="-76" lat="30.348229" lon="-97.617767" changeset="false"><tag k="addr:street" v="Barns Trail"/><tag k="addr:housenumber" v="11308"/><tag k="addr:postcode" v="78754"/></node><node id="-77" lat="30.346654" lon="-97.617533" changeset="false"><tag k="addr:street" v="Barns Trail"/><tag k="addr:housenumber" v="11100"/><tag k="addr:postcode" v="78754"/></node><node id="-78" lat="30.347002" lon="-97.616531" changeset="false"><tag k="addr:street" v="Glebe Path"/><tag k="addr:housenumber" v="6520"/><tag k="addr:postcode" v="78754"/></node><node id="-79" lat="30.347028" lon="-97.616401" changeset="false"><tag k="addr:street" v="Glebe Path"/><tag k="addr:housenumber" v="6600"/><tag k="addr:postcode" v="78754"/></node><node id="-80" lat="30.348682" lon="-97.621524" changeset="false"><tag k="addr:street" v="Kildoon Drive"/><tag k="addr:housenumber" v="11209"/><tag k="addr:postcode" v="78754"/></node><node id="-81" lat="30.348995" lon="-97.621317" changeset="false"><tag k="addr:street" v="Kildoon Drive"/><tag k="addr:housenumber" v="11221"/><tag k="addr:postcode" v="78754"/></node><node id="-82" lat="30.349099" lon="-97.621242" changeset="false"><tag k="addr:street" v="Kildoon Drive"/><tag k="addr:housenumber" v="11225"/><tag k="addr:postcode" v="78754"/></node><node id="-83" lat="30.348932" lon="-97.620928" changeset="false"><tag k="addr:street" v="Dunlop Terrace"/><tag k="addr:housenumber" v="11224"/><tag k="addr:postcode" v="78754"/></node><node id="-84" lat="30.348181" lon="-97.620844" changeset="false"><tag k="addr:street" v="Dunlop Terrace"/><tag k="addr:housenumber" v="11205"/><tag k="addr:postcode" v="78754"/></node><node id="-85" lat="30.345751" lon="-97.619436" changeset="false"><tag k="addr:street" v="Ladywell Lane"/><tag k="addr:housenumber" v="6504"/><tag k="addr:postcode" v="78754"/></node><node id="-86" lat="30.344976" lon="-97.618852" changeset="false"><tag k="addr:street" v="Kirkland Hill Path"/><tag k="addr:housenumber" v="10905"/><tag k="addr:postcode" v="78754"/></node><node id="-87" lat="30.34566" lon="-97.618309" changeset="false"><tag k="addr:street" v="Kirkland Hill Path"/><tag k="addr:housenumber" v="11013"/><tag k="addr:postcode" v="78754"/></node><node id="-88" lat="30.346269" lon="-97.618206" changeset="false"><tag k="addr:street" v="Kirkland Hill Path"/><tag k="addr:housenumber" v="11105"/><tag k="addr:postcode" v="78754"/></node><node id="-89" lat="30.34683" lon="-97.618226" changeset="false"><tag k="addr:street" v="Kirkland Hill Path"/><tag k="addr:housenumber" v="11125"/><tag k="addr:postcode" v="78754"/></node><node id="-90" lat="30.357638" lon="-97.61689" changeset="false"><tag k="addr:street" v="Gaelic Drive"/><tag k="addr:housenumber" v="11805"/><tag k="addr:postcode" v="78754"/></node><node id="-91" lat="30.352047" lon="-97.614399" changeset="false"><tag k="addr:street" v="Bramber Lane"/><tag k="addr:housenumber" v="6506"/><tag k="addr:postcode" v="78754"/></node><node id="-92" lat="30.355982" lon="-97.614664" changeset="false"><tag k="addr:street" v="Gidleigh Court"/><tag k="addr:housenumber" v="6301"/><tag k="addr:postcode" v="78754"/></node><node id="-93" lat="30.344065" lon="-97.611376" changeset="false"><tag k="addr:street" v="Whifflewind Way"/><tag k="addr:housenumber" v="7101"/><tag k="addr:postcode" v="78754"/></node><node id="-94" lat="30.34629" lon="-97.610256" changeset="false"><tag k="addr:street" v="Avering Lane"/><tag k="addr:housenumber" v="11314"/><tag k="addr:postcode" v="78754"/></node><node id="-95" lat="30.371212" lon="-97.612046" changeset="false"><tag k="addr:street" v="Harris Branch Parkway"/><tag k="addr:housenumber" v="12341"/><tag k="addr:postcode" v="78653"/></node><node id="-96" lat="30.350455" lon="-97.630426" changeset="false"><tag k="addr:street" v="Blue Goose Road"/><tag k="addr:housenumber" v="5420"/><tag k="addr:postcode" v="78754"/></node><node id="-97" lat="30.360735" lon="-97.619998" changeset="false"><tag k="addr:street" v="Cameron Road"/><tag k="addr:housenumber" v="12045"/><tag k="addr:postcode" v="78754"/></node><node id="-98" lat="30.362707" lon="-97.609633" changeset="false"><tag k="addr:street" v="Innes View Road"/><tag k="addr:housenumber" v="12109"/><tag k="addr:postcode" v="78653"/></node><node id="-99" lat="30.364845" lon="-97.60827" changeset="false"><tag k="addr:street" v="Innes View Road"/><tag k="addr:housenumber" v="12329"/><tag k="addr:postcode" v="78653"/></node><node id="-100" lat="30.350361" lon="-97.609557" changeset="false"><tag k="addr:street" v="Saint Merryn Road"/><tag k="addr:housenumber" v="11521"/><tag k="addr:postcode" v="78754"/></node><node id="-101" lat="30.335127" lon="-97.620587" changeset="false"><tag k="addr:street" v="Giles Lane"/><tag k="addr:housenumber" v="10033 1/2"/><tag k="addr:postcode" v="78754"/></node><node id="-102" lat="30.3504" lon="-97.613424" changeset="false"><tag k="addr:street" v="Ashprington Cove"/><tag k="addr:housenumber" v="11400"/><tag k="addr:postcode" v="78754"/></node><node id="-103" lat="30.368989" lon="-97.613496" changeset="false"><tag k="addr:street" v="East Parmer Lane"/><tag k="addr:housenumber" v="5724 1/2"/><tag k="addr:postcode" v="78653"/></node><node id="-104" lat="30.354938" lon="-97.636209" changeset="false"><tag k="addr:street" v="Cameron Road"/><tag k="addr:housenumber" v="11101"/><tag k="addr:postcode" v="78754"/></node><node id="-105" lat="30.35568" lon="-97.613951" changeset="false"><tag k="addr:street" v="Rydalwater Lane"/><tag k="addr:housenumber" v="11712"/><tag k="addr:postcode" v="78754"/></node><node id="-106" lat="30.357749" lon="-97.632432" changeset="false"><tag k="addr:street" v="Cameron Road"/><tag k="addr:housenumber" v="11317"/><tag k="addr:postcode" v="78754"/></node><node id="-107" lat="30.357328" lon="-97.601988" changeset="false"><tag k="addr:street" v="Boyce Lane"/><tag k="addr:housenumber" v="7212"/><tag k="addr:postcode" v="78653"/></node><node id="-108" lat="30.346239" lon="-97.610054" changeset="false"><tag k="addr:street" v="Avering Lane"/><tag k="addr:housenumber" v="11310"/><tag k="addr:postcode" v="78754"/></node><node id="-109" lat="30.336985" lon="-97.602511" changeset="false"><tag k="addr:street" v="Blue Goose Road"/><tag k="addr:housenumber" v="8209 1/2"/><tag k="addr:postcode" v="78653"/></node><node id="-110" lat="30.34272" lon="-97.61277" changeset="false"><tag k="addr:street" v="Harris Branch Parkway"/><tag k="addr:housenumber" v="11003"/><tag k="addr:postcode" v="78754"/></node><node id="-111" lat="30.35918" lon="-97.621882" changeset="false"><tag k="addr:street" v="Cameron Road"/><tag k="addr:housenumber" v="11815"/><tag k="addr:postcode" v="78754"/></node><node id="-112" lat="30.339364" lon="-97.618723" changeset="false"><tag k="addr:street" v="Giles Lane"/><tag k="addr:housenumber" v="10300"/><tag k="addr:postcode" v="78754"/></node><node id="-113" lat="30.33882" lon="-97.604974" changeset="false"><tag k="addr:street" v="Blue Goose Road"/><tag k="addr:housenumber" v="8000"/><tag k="addr:postcode" v="78653"/></node><node id="-114" lat="30.336099" lon="-97.621743" changeset="false"><tag k="addr:street" v="Giles Lane"/><tag k="addr:housenumber" v="10106"/><tag k="addr:postcode" v="78754"/></node><node id="-115" lat="30.331484" lon="-97.624845" changeset="false"><tag k="addr:street" v="Reservoir Court"/><tag k="addr:housenumber" v="9701"/><tag k="addr:postcode" v="78754"/></node><node id="-116" lat="30.376771" lon="-97.608628" changeset="false"><tag k="addr:street" v="Harris Branch Parkway"/><tag k="addr:housenumber" v="12621"/><tag k="addr:postcode" v="78653"/></node><node id="-117" lat="30.34849" lon="-97.616905" changeset="false"><tag k="addr:street" v="Drumellan Street"/><tag k="addr:housenumber" v="11312"/><tag k="addr:postcode" v="78754"/></node><node id="-118" lat="30.348494" lon="-97.620629" changeset="false"><tag k="addr:street" v="Dunlop Terrace"/><tag k="addr:housenumber" v="11217"/><tag k="addr:postcode" v="78754"/></node><node id="-119" lat="30.348602" lon="-97.620562" changeset="false"><tag k="addr:street" v="Dunlop Terrace"/><tag k="addr:housenumber" v="11221"/><tag k="addr:postcode" v="78754"/></node><node id="-120" lat="30.348437" lon="-97.622376" changeset="false"><tag k="addr:street" v="Minnoch Lane"/><tag k="addr:housenumber" v="6201"/><tag k="addr:postcode" v="78754"/></node><node id="-121" lat="30.348205" lon="-97.621906" changeset="false"><tag k="addr:street" v="Minnoch Lane"/><tag k="addr:housenumber" v="6217"/><tag k="addr:postcode" v="78754"/></node><node id="-122" lat="30.348084" lon="-97.621689" changeset="false"><tag k="addr:street" v="Minnoch Lane"/><tag k="addr:housenumber" v="6225"/><tag k="addr:postcode" v="78754"/></node><node id="-123" lat="30.348024" lon="-97.621575" changeset="false"><tag k="addr:street" v="Minnoch Lane"/><tag k="addr:housenumber" v="6229"/><tag k="addr:postcode" v="78754"/></node><node id="-124" lat="30.347808" lon="-97.621171" changeset="false"><tag k="addr:street" v="Minnoch Lane"/><tag k="addr:housenumber" v="6301"/><tag k="addr:postcode" v="78754"/></node><node id="-125" lat="30.347746" lon="-97.621049" changeset="false"><tag k="addr:street" v="Minnoch Lane"/><tag k="addr:housenumber" v="6305"/><tag k="addr:postcode" v="78754"/></node><node id="-126" lat="30.346" lon="-97.620793" changeset="false"><tag k="addr:street" v="Cairnhill Court"/><tag k="addr:housenumber" v="11005"/><tag k="addr:postcode" v="78754"/></node><node id="-127" lat="30.346401" lon="-97.620456" changeset="false"><tag k="addr:street" v="Cairnhill Court"/><tag k="addr:housenumber" v="11021"/><tag k="addr:postcode" v="78754"/></node><node id="-128" lat="30.346145" lon="-97.621111" changeset="false"><tag k="addr:street" v="Cairnhill Court"/><tag k="addr:housenumber" v="11000"/><tag k="addr:postcode" v="78754"/></node><node id="-129" lat="30.346704" lon="-97.620811" changeset="false"><tag k="addr:street" v="Cairnhill Court"/><tag k="addr:housenumber" v="11024"/><tag k="addr:postcode" v="78754"/></node><node id="-130" lat="30.347313" lon="-97.622967" changeset="false"><tag k="addr:street" v="Kirkoswald Road"/><tag k="addr:housenumber" v="11016"/><tag k="addr:postcode" v="78754"/></node><node id="-131" lat="30.347684" lon="-97.621634" changeset="false"><tag k="addr:street" v="Garden Rose Path"/><tag k="addr:housenumber" v="6216"/><tag k="addr:postcode" v="78754"/></node><node id="-132" lat="30.347305" lon="-97.620893" changeset="false"><tag k="addr:street" v="Garden Rose Path"/><tag k="addr:housenumber" v="6316"/><tag k="addr:postcode" v="78754"/></node><node id="-133" lat="30.346985" lon="-97.621194" changeset="false"><tag k="addr:street" v="Garden Rose Path"/><tag k="addr:housenumber" v="6313"/><tag k="addr:postcode" v="78754"/></node><node id="-134" lat="30.347126" lon="-97.620546" changeset="false"><tag k="addr:street" v="Garden Rose Path"/><tag k="addr:housenumber" v="6404"/><tag k="addr:postcode" v="78754"/></node><node id="-135" lat="30.347465" lon="-97.617647" changeset="false"><tag k="addr:street" v="Barns Trail"/><tag k="addr:housenumber" v="11204"/><tag k="addr:postcode" v="78754"/></node><node id="-136" lat="30.368243" lon="-97.614085" changeset="false"><tag k="addr:street" v="East Parmer Lane"/><tag k="addr:housenumber" v="5725"/><tag k="addr:postcode" v="78653"/></node><node id="-137" lat="30.34544" lon="-97.614903" changeset="false"><tag k="addr:street" v="Helms Deep Drive"/><tag k="addr:housenumber" v="10921"/><tag k="addr:postcode" v="78754"/></node><node id="-138" lat="30.346204" lon="-97.616737" changeset="false"><tag k="addr:street" v="Crosne Street"/><tag k="addr:housenumber" v="6708"/><tag k="addr:postcode" v="78754"/></node><node id="-139" lat="30.349011" lon="-97.617828" changeset="false"><tag k="addr:street" v="Barns Trail"/><tag k="addr:housenumber" v="11412"/><tag k="addr:postcode" v="78754"/></node><node id="-140" lat="30.347794" lon="-97.616817" changeset="false"><tag k="addr:street" v="Drumellan Street"/><tag k="addr:housenumber" v="11212"/><tag k="addr:postcode" v="78754"/></node><node id="-141" lat="30.347732" lon="-97.61725" changeset="false"><tag k="addr:street" v="Barns Trail"/><tag k="addr:housenumber" v="11213"/><tag k="addr:postcode" v="78754"/></node><node id="-142" lat="30.347305" lon="-97.623794" changeset="false"><tag k="addr:street" v="Blue Goose Road"/><tag k="addr:housenumber" v="6100"/><tag k="addr:postcode" v="78754"/></node><node id="-143" lat="30.346334" lon="-97.617472" changeset="false"><tag k="addr:street" v="Barns Trail"/><tag k="addr:housenumber" v="11004"/><tag k="addr:postcode" v="78754"/></node><node id="-144" lat="30.346942" lon="-97.617026" changeset="false"><tag k="addr:street" v="Glebe Path"/><tag k="addr:housenumber" v="6504"/><tag k="addr:postcode" v="78754"/></node><node id="-145" lat="30.347049" lon="-97.615748" changeset="false"><tag k="addr:street" v="Glebe Path"/><tag k="addr:housenumber" v="6620"/><tag k="addr:postcode" v="78754"/></node><node id="-146" lat="30.346622" lon="-97.616819" changeset="false"><tag k="addr:street" v="Glebe Path"/><tag k="addr:housenumber" v="6509"/><tag k="addr:postcode" v="78754"/></node><node id="-147" lat="30.355098" lon="-97.619311" changeset="false"><tag k="addr:street" v="Gaelic Drive"/><tag k="addr:housenumber" v="11517"/><tag k="addr:postcode" v="78754"/></node><node id="-148" lat="30.355666" lon="-97.619538" changeset="false"><tag k="addr:street" v="Gaelic Drive"/><tag k="addr:housenumber" v="11528"/><tag k="addr:postcode" v="78754"/></node><node id="-149" lat="30.348774" lon="-97.622014" changeset="false"><tag k="addr:street" v="Kildoon Drive"/><tag k="addr:housenumber" v="11204"/><tag k="addr:postcode" v="78754"/></node><node id="-150" lat="30.349257" lon="-97.621731" changeset="false"><tag k="addr:street" v="Kildoon Drive"/><tag k="addr:housenumber" v="11224"/><tag k="addr:postcode" v="78754"/></node><node id="-151" lat="30.349658" lon="-97.621496" changeset="false"><tag k="addr:street" v="Kildoon Drive"/><tag k="addr:housenumber" v="11240"/><tag k="addr:postcode" v="78754"/></node><node id="-152" lat="30.346655" lon="-97.616552" changeset="false"><tag k="addr:street" v="Glebe Path"/><tag k="addr:housenumber" v="6517"/><tag k="addr:postcode" v="78754"/></node><node id="-153" lat="30.346737" lon="-97.615829" changeset="false"><tag k="addr:street" v="Roderick Lawson Lane"/><tag k="addr:housenumber" v="11112"/><tag k="addr:postcode" v="78754"/></node><node id="-154" lat="30.346475" lon="-97.615426" changeset="false"><tag k="addr:street" v="Roderick Lawson Lane"/><tag k="addr:housenumber" v="11105"/><tag k="addr:postcode" v="78754"/></node><node id="-155" lat="30.346738" lon="-97.615413" changeset="false"><tag k="addr:street" v="Roderick Lawson Lane"/><tag k="addr:housenumber" v="11113"/><tag k="addr:postcode" v="78754"/></node><node id="-156" lat="30.347049" lon="-97.615368" changeset="false"><tag k="addr:street" v="Glebe Path"/><tag k="addr:housenumber" v="6708"/><tag k="addr:postcode" v="78754"/></node><node id="-157" lat="30.347043" lon="-97.615112" changeset="false"><tag k="addr:street" v="Glebe Path"/><tag k="addr:housenumber" v="6716"/><tag k="addr:postcode" v="78754"/></node><node id="-158" lat="30.348889" lon="-97.621388" changeset="false"><tag k="addr:street" v="Kildoon Drive"/><tag k="addr:housenumber" v="11217"/><tag k="addr:postcode" v="78754"/></node><node id="-159" lat="30.349205" lon="-97.621176" changeset="false"><tag k="addr:street" v="Kildoon Drive"/><tag k="addr:housenumber" v="11229"/><tag k="addr:postcode" v="78754"/></node><node id="-160" lat="30.348624" lon="-97.621145" changeset="false"><tag k="addr:street" v="Dunlop Terrace"/><tag k="addr:housenumber" v="11212"/><tag k="addr:postcode" v="78754"/></node><node id="-161" lat="30.345603" lon="-97.619092" changeset="false"><tag k="addr:street" v="Ladywell Lane"/><tag k="addr:housenumber" v="6516"/><tag k="addr:postcode" v="78754"/></node><node id="-162" lat="30.347057" lon="-97.618669" changeset="false"><tag k="addr:street" v="Kirkland Hill Path"/><tag k="addr:housenumber" v="11128"/><tag k="addr:postcode" v="78754"/></node><node id="-163" lat="30.345904" lon="-97.619951" changeset="false"><tag k="addr:street" v="Culzean Drive"/><tag k="addr:housenumber" v="11000"/><tag k="addr:postcode" v="78754"/></node><node id="-164" lat="30.345989" lon="-97.619896" changeset="false"><tag k="addr:street" v="Culzean Drive"/><tag k="addr:housenumber" v="11004"/><tag k="addr:postcode" v="78754"/></node><node id="-165" lat="30.345934" lon="-97.618712" changeset="false"><tag k="addr:street" v="Kirkland Hill Path"/><tag k="addr:housenumber" v="11016"/><tag k="addr:postcode" v="78754"/></node><node id="-166" lat="30.360948" lon="-97.615491" changeset="false"><tag k="addr:street" v="Gaelic Drive"/><tag k="addr:housenumber" v="11948"/><tag k="addr:postcode" v="78754"/></node><node id="-167" lat="30.359608" lon="-97.615654" changeset="false"><tag k="addr:street" v="Gaelic Drive"/><tag k="addr:housenumber" v="11913"/><tag k="addr:postcode" v="78754"/></node><node id="-168" lat="30.344738" lon="-97.615319" changeset="false"><tag k="addr:street" v="Trevone Path"/><tag k="addr:housenumber" v="6829"/><tag k="addr:postcode" v="78754"/></node><node id="-169" lat="30.391666" lon="-97.584487" changeset="false"><tag k="addr:street" v="Gregg Manor Road"/><tag k="addr:housenumber" v="14319"/><tag k="addr:postcode" v="78653"/></node><node id="-170" lat="30.347753" lon="-97.618846" changeset="false"><tag k="addr:street" v="Kirkland Hill Path"/><tag k="addr:housenumber" v="11220"/><tag k="addr:postcode" v="78754"/></node><node id="-171" lat="30.347924" lon="-97.618893" changeset="false"><tag k="addr:street" v="Kirkland Hill Path"/><tag k="addr:housenumber" v="11228"/><tag k="addr:postcode" v="78754"/></node><node id="-172" lat="30.347479" lon="-97.618331" changeset="false"><tag k="addr:street" v="Kirkland Hill Path"/><tag k="addr:housenumber" v="11209"/><tag k="addr:postcode" v="78754"/></node><node id="-173" lat="30.347587" lon="-97.618362" changeset="false"><tag k="addr:street" v="Kirkland Hill Path"/><tag k="addr:housenumber" v="11213"/><tag k="addr:postcode" v="78754"/></node><node id="-174" lat="30.348208" lon="-97.6185" changeset="false"><tag k="addr:street" v="Kirkland Hill Path"/><tag k="addr:housenumber" v="11233"/><tag k="addr:postcode" v="78754"/></node><node id="-175" lat="30.348414" lon="-97.618656" changeset="false"><tag k="addr:street" v="Kirkland Hill Path"/><tag k="addr:housenumber" v="11301"/><tag k="addr:postcode" v="78754"/></node><node id="-176" lat="30.348607" lon="-97.618864" changeset="false"><tag k="addr:street" v="Kirkland Hill Path"/><tag k="addr:housenumber" v="11309"/><tag k="addr:postcode" v="78754"/></node><node id="-177" lat="30.346951" lon="-97.619447" changeset="false"><tag k="addr:street" v="Whitefaulds Drive"/><tag k="addr:housenumber" v="11117"/><tag k="addr:postcode" v="78754"/></node><node id="-178" lat="30.347148" lon="-97.619328" changeset="false"><tag k="addr:street" v="Whitefaulds Drive"/><tag k="addr:housenumber" v="11125"/><tag k="addr:postcode" v="78754"/></node><node id="-179" lat="30.347693" lon="-97.62014" changeset="false"><tag k="addr:street" v="Harlyn Bay Road"/><tag k="addr:housenumber" v="11201"/><tag k="addr:postcode" v="78754"/></node><node id="-180" lat="30.34844" lon="-97.620216" changeset="false"><tag k="addr:street" v="Harlyn Bay Road"/><tag k="addr:housenumber" v="11224"/><tag k="addr:postcode" v="78754"/></node><node id="-181" lat="30.347368" lon="-97.620213" changeset="false"><tag k="addr:street" v="Minnoch Lane"/><tag k="addr:housenumber" v="6409"/><tag k="addr:postcode" v="78754"/></node><node id="-182" lat="30.349062" lon="-97.619807" changeset="false"><tag k="addr:street" v="Kirkland Hill Path"/><tag k="addr:housenumber" v="11405"/><tag k="addr:postcode" v="78754"/></node><node id="-183" lat="30.373632" lon="-97.607347" changeset="false"><tag k="addr:street" v="Titanium Drive"/><tag k="addr:housenumber" v="12600"/><tag k="addr:postcode" v="78653"/></node><node id="-184" lat="30.343668" lon="-97.611681" changeset="false"><tag k="addr:street" v="Amaranth Lane"/><tag k="addr:housenumber" v="11108 1/2"/><tag k="addr:postcode" v="78754"/></node><node id="-185" lat="30.334293" lon="-97.622109" changeset="false"><tag k="addr:street" v="Giles Lane"/><tag k="addr:housenumber" v="9912 1/2"/><tag k="addr:postcode" v="78754"/></node><node id="-186" lat="30.331263" lon="-97.627898" changeset="false"><tag k="addr:street" v="US Highway 290"/><tag k="addr:housenumber" v="9530"/><tag k="addr:postcode" v="78754"/></node><node id="-187" lat="30.346532" lon="-97.612524" changeset="false"><tag k="addr:street" v="Amaranth Lane"/><tag k="addr:housenumber" v="11224"/><tag k="addr:postcode" v="78754"/></node><node id="-188" lat="30.362026" lon="-97.609334" changeset="false"><tag k="addr:street" v="Kilmartin Lane"/><tag k="addr:housenumber" v="11921"/><tag k="addr:postcode" v="78653"/></node><node id="-189" lat="30.370917" lon="-97.610779" changeset="false"><tag k="addr:street" v="Silicon Drive"/><tag k="addr:housenumber" v="5815 1/2"/><tag k="addr:postcode" v="78653"/></node><node id="-190" lat="30.365944" lon="-97.612854" changeset="false"><tag k="addr:street" v="Speyside Drive"/><tag k="addr:housenumber" v="5804"/><tag k="addr:postcode" v="78653"/></node><node id="-191" lat="30.344609" lon="-97.61008" changeset="false"><tag k="addr:street" v="Mumruffin Lane"/><tag k="addr:housenumber" v="7129"/><tag k="addr:postcode" v="78754"/></node><node id="-192" lat="30.355813" lon="-97.63526" changeset="false"><tag k="addr:street" v="Cameron Road"/><tag k="addr:housenumber" v="11125"/><tag k="addr:postcode" v="78754"/></node><node id="-193" lat="30.352751" lon="-97.642195" changeset="false"><tag k="addr:street" v="Cameron Road"/><tag k="addr:housenumber" v="10615"/><tag k="addr:postcode" v="78754"/></node><node id="-194" lat="30.349513" lon="-97.613048" changeset="false"><tag k="addr:street" v="Thistle Hill Way"/><tag k="addr:housenumber" v="6860"/><tag k="addr:postcode" v="78754"/></node><node id="-195" lat="30.363452" lon="-97.607886" changeset="false"><tag k="addr:street" v="Boyce Lane"/><tag k="addr:housenumber" v="6504"/><tag k="addr:postcode" v="78653"/></node><node id="-196" lat="30.350655" lon="-97.632572" changeset="false"><tag k="addr:street" v="Blue Goose Road"/><tag k="addr:housenumber" v="5419"/><tag k="addr:postcode" v="78754"/></node><node id="-197" lat="30.347746" lon="-97.642525" changeset="false"><tag k="addr:street" v="Barr Lane"/><tag k="addr:housenumber" v="10302"/><tag k="addr:postcode" v="78754"/></node><node id="-198" lat="30.357824" lon="-97.613061" changeset="false"><tag k="addr:street" v="Rydalwater Lane"/><tag k="addr:housenumber" v="11804"/><tag k="addr:postcode" v="78754"/></node><node id="-199" lat="30.351901" lon="-97.593038" changeset="false"><tag k="addr:street" v="East Parmer Lane"/><tag k="addr:housenumber" v="8205 1/2"/><tag k="addr:postcode" v="78653"/></node><node id="-200" lat="30.390657" lon="-97.583976" changeset="false"><tag k="addr:street" v="Lee Manor Cove"/><tag k="addr:housenumber" v="6808"/><tag k="addr:postcode" v="78653"/></node><node id="-201" lat="30.389947" lon="-97.582361" changeset="false"><tag k="addr:street" v="Lee Manor Cove"/><tag k="addr:housenumber" v="6910"/><tag k="addr:postcode" v="78653"/></node><node id="-202" lat="30.345404" lon="-97.609691" changeset="false"><tag k="addr:street" v="Dagon Drive"/><tag k="addr:housenumber" v="7121"/><tag k="addr:postcode" v="78754"/></node><node id="-203" lat="30.345332" lon="-97.621524" changeset="false"><tag k="addr:street" v="Blue Goose Road"/><tag k="addr:housenumber" v="6301"/><tag k="addr:postcode" v="78754"/></node><node id="-204" lat="30.347095" lon="-97.610758" changeset="false"><tag k="addr:street" v="Avering Lane"/><tag k="addr:housenumber" v="11341"/><tag k="addr:postcode" v="78754"/></node><node id="-205" lat="30.344825" lon="-97.610863" changeset="false"><tag k="addr:street" v="Mumruffin Lane"/><tag k="addr:housenumber" v="7113"/><tag k="addr:postcode" v="78754"/></node><node id="-206" lat="30.344698" lon="-97.610276" changeset="false"><tag k="addr:street" v="Mumruffin Lane"/><tag k="addr:housenumber" v="7125"/><tag k="addr:postcode" v="78754"/></node><node id="-207" lat="30.349822" lon="-97.609313" changeset="false"><tag k="addr:street" v="Glen Falloch Court"/><tag k="addr:housenumber" v="11537"/><tag k="addr:postcode" v="78754"/></node><node id="-208" lat="30.344059" lon="-97.611096" changeset="false"><tag k="addr:street" v="Whifflewind Way"/><tag k="addr:housenumber" v="7105"/><tag k="addr:postcode" v="78754"/></node><node id="-209" lat="30.349871" lon="-97.63117" changeset="false"><tag k="addr:street" v="Blue Goose Road"/><tag k="addr:housenumber" v="5505"/><tag k="addr:postcode" v="78754"/></node><node id="-210" lat="30.347959" lon="-97.616391" changeset="false"><tag k="addr:street" v="Drumellan Street"/><tag k="addr:housenumber" v="11217"/><tag k="addr:postcode" v="78754"/></node><node id="-211" lat="30.348674" lon="-97.616391" changeset="false"><tag k="addr:street" v="Drumellan Street"/><tag k="addr:housenumber" v="11321"/><tag k="addr:postcode" v="78754"/></node><node id="-212" lat="30.349322" lon="-97.620379" changeset="false"><tag k="addr:street" v="Kirkland Hill Path"/><tag k="addr:housenumber" v="11425"/><tag k="addr:postcode" v="78754"/></node><node id="-213" lat="30.349396" lon="-97.620485" changeset="false"><tag k="addr:street" v="Kirkland Hill Path"/><tag k="addr:housenumber" v="11501"/><tag k="addr:postcode" v="78754"/></node><node id="-214" lat="30.348883" lon="-97.621975" changeset="false"><tag k="addr:street" v="Kildoon Drive"/><tag k="addr:housenumber" v="11208"/><tag k="addr:postcode" v="78754"/></node><node id="-215" lat="30.349787" lon="-97.621391" changeset="false"><tag k="addr:street" v="Kildoon Drive"/><tag k="addr:housenumber" v="11244"/><tag k="addr:postcode" v="78754"/></node><node id="-216" lat="30.345703" lon="-97.619323" changeset="false"><tag k="addr:street" v="Ladywell Lane"/><tag k="addr:housenumber" v="6508"/><tag k="addr:postcode" v="78754"/></node><node id="-217" lat="30.345403" lon="-97.619662" changeset="false"><tag k="addr:street" v="Ladywell Lane"/><tag k="addr:housenumber" v="6505"/><tag k="addr:postcode" v="78754"/></node><node id="-218" lat="30.345413" lon="-97.618377" changeset="false"><tag k="addr:street" v="Kirkland Hill Path"/><tag k="addr:housenumber" v="11005"/><tag k="addr:postcode" v="78754"/></node><node id="-219" lat="30.345525" lon="-97.618321" changeset="false"><tag k="addr:street" v="Kirkland Hill Path"/><tag k="addr:housenumber" v="11009"/><tag k="addr:postcode" v="78754"/></node><node id="-220" lat="30.346568" lon="-97.618619" changeset="false"><tag k="addr:street" v="Kirkland Hill Path"/><tag k="addr:housenumber" v="11112"/><tag k="addr:postcode" v="78754"/></node><node id="-221" lat="30.345477" lon="-97.619906" changeset="false"><tag k="addr:street" v="Culzean Drive"/><tag k="addr:housenumber" v="10900"/><tag k="addr:postcode" v="78754"/></node><node id="-222" lat="30.345807" lon="-97.620042" changeset="false"><tag k="addr:street" v="Culzean Drive"/><tag k="addr:housenumber" v="10912"/><tag k="addr:postcode" v="78754"/></node><node id="-223" lat="30.346449" lon="-97.619181" changeset="false"><tag k="addr:street" v="Garden Rose Path"/><tag k="addr:housenumber" v="6600"/><tag k="addr:postcode" v="78754"/></node><node id="-224" lat="30.346389" lon="-97.619069" changeset="false"><tag k="addr:street" v="Garden Rose Path"/><tag k="addr:housenumber" v="6604"/><tag k="addr:postcode" v="78754"/></node><node id="-225" lat="30.346086" lon="-97.619824" changeset="false"><tag k="addr:street" v="Culzean Drive"/><tag k="addr:housenumber" v="11008"/><tag k="addr:postcode" v="78754"/></node><node id="-226" lat="30.359862" lon="-97.615484" changeset="false"><tag k="addr:street" v="Gaelic Drive"/><tag k="addr:housenumber" v="11921"/><tag k="addr:postcode" v="78754"/></node><node id="-227" lat="30.360718" lon="-97.614961" changeset="false"><tag k="addr:street" v="Gaelic Drive"/><tag k="addr:housenumber" v="11949"/><tag k="addr:postcode" v="78754"/></node><node id="-228" lat="30.346613" lon="-97.619526" changeset="false"><tag k="addr:street" v="Garden Rose Path"/><tag k="addr:housenumber" v="6504"/><tag k="addr:postcode" v="78754"/></node><node id="-229" lat="30.345378" lon="-97.616534" changeset="false"><tag k="addr:street" v="Roderick Lawson Lane"/><tag k="addr:housenumber" v="10916"/><tag k="addr:postcode" v="78754"/></node><node id="-230" lat="30.345779" lon="-97.616278" changeset="false"><tag k="addr:street" v="Roderick Lawson Lane"/><tag k="addr:housenumber" v="10932"/><tag k="addr:postcode" v="78754"/></node><node id="-231" lat="30.345341" lon="-97.616029" changeset="false"><tag k="addr:street" v="Roderick Lawson Lane"/><tag k="addr:housenumber" v="10921"/><tag k="addr:postcode" v="78754"/></node><node id="-232" lat="30.346" lon="-97.615559" changeset="false"><tag k="addr:street" v="Roderick Lawson Lane"/><tag k="addr:housenumber" v="11009"/><tag k="addr:postcode" v="78754"/></node><node id="-233" lat="30.346035" lon="-97.616083" changeset="false"><tag k="addr:street" v="Roderick Lawson Lane"/><tag k="addr:housenumber" v="11000"/><tag k="addr:postcode" v="78754"/></node><node id="-234" lat="30.358109" lon="-97.617648" changeset="false"><tag k="addr:street" v="Gaelic Drive"/><tag k="addr:housenumber" v="11800"/><tag k="addr:postcode" v="78754"/></node><node id="-235" lat="30.348008" lon="-97.617735" changeset="false"><tag k="addr:street" v="Barns Trail"/><tag k="addr:housenumber" v="11300"/><tag k="addr:postcode" v="78754"/></node><node id="-236" lat="30.347848" lon="-97.617267" changeset="false"><tag k="addr:street" v="Barns Trail"/><tag k="addr:housenumber" v="11217"/><tag k="addr:postcode" v="78754"/></node><node id="-237" lat="30.348337" lon="-97.61926" changeset="false"><tag k="addr:street" v="Kirkland Hill Path"/><tag k="addr:housenumber" v="11312"/><tag k="addr:postcode" v="78754"/></node><node id="-238" lat="30.347806" lon="-97.618387" changeset="false"><tag k="addr:street" v="Kirkland Hill Path"/><tag k="addr:housenumber" v="11221"/><tag k="addr:postcode" v="78754"/></node><node id="-239" lat="30.348084" lon="-97.618448" changeset="false"><tag k="addr:street" v="Kirkland Hill Path"/><tag k="addr:housenumber" v="11229"/><tag k="addr:postcode" v="78754"/></node><node id="-240" lat="30.348675" lon="-97.618972" changeset="false"><tag k="addr:street" v="Kirkland Hill Path"/><tag k="addr:housenumber" v="11313"/><tag k="addr:postcode" v="78754"/></node><node id="-241" lat="30.34776" lon="-97.619617" changeset="false"><tag k="addr:street" v="Whitefaulds Drive"/><tag k="addr:housenumber" v="11212"/><tag k="addr:postcode" v="78754"/></node><node id="-242" lat="30.347894" lon="-97.619582" changeset="false"><tag k="addr:street" v="Whitefaulds Drive"/><tag k="addr:housenumber" v="11216"/><tag k="addr:postcode" v="78754"/></node><node id="-243" lat="30.347898" lon="-97.620575" changeset="false"><tag k="addr:street" v="Harlyn Bay Road"/><tag k="addr:housenumber" v="11200"/><tag k="addr:postcode" v="78754"/></node><node id="-244" lat="30.346605" lon="-97.61583" changeset="false"><tag k="addr:street" v="Roderick Lawson Lane"/><tag k="addr:housenumber" v="11108"/><tag k="addr:postcode" v="78754"/></node><node id="-245" lat="30.346604" lon="-97.61541" changeset="false"><tag k="addr:street" v="Roderick Lawson Lane"/><tag k="addr:housenumber" v="11109"/><tag k="addr:postcode" v="78754"/></node><node id="-246" lat="30.347049" lon="-97.615625" changeset="false"><tag k="addr:street" v="Glebe Path"/><tag k="addr:housenumber" v="6700"/><tag k="addr:postcode" v="78754"/></node><node id="-247" lat="30.354953" lon="-97.619375" changeset="false"><tag k="addr:street" v="Gaelic Drive"/><tag k="addr:housenumber" v="11513"/><tag k="addr:postcode" v="78754"/></node><node id="-248" lat="30.356134" lon="-97.618512" changeset="false"><tag k="addr:street" v="Gaelic Drive"/><tag k="addr:housenumber" v="11625"/><tag k="addr:postcode" v="78754"/></node><node id="-249" lat="30.357768" lon="-97.616799" changeset="false"><tag k="addr:street" v="Gaelic Drive"/><tag k="addr:housenumber" v="11809"/><tag k="addr:postcode" v="78754"/></node><node id="-250" lat="30.345022" lon="-97.61616" changeset="false"><tag k="addr:street" v="Trevone Path"/><tag k="addr:housenumber" v="6805"/><tag k="addr:postcode" v="78754"/></node><node id="-251" lat="30.348671" lon="-97.617829" changeset="false"><tag k="addr:street" v="Barns Trail"/><tag k="addr:housenumber" v="11400"/><tag k="addr:postcode" v="78754"/></node><node id="-252" lat="30.347406" lon="-97.617198" changeset="false"><tag k="addr:street" v="Barns Trail"/><tag k="addr:housenumber" v="11201"/><tag k="addr:postcode" v="78754"/></node><node id="-253" lat="30.347576" lon="-97.616774" changeset="false"><tag k="addr:street" v="Drumellan Street"/><tag k="addr:housenumber" v="11204"/><tag k="addr:postcode" v="78754"/></node><node id="-254" lat="30.346731" lon="-97.614936" changeset="false"><tag k="addr:street" v="Helms Deep Drive"/><tag k="addr:housenumber" v="11112"/><tag k="addr:postcode" v="78754"/></node><node id="-255" lat="30.346058" lon="-97.614642" changeset="false"><tag k="addr:street" v="Helms Deep Drive"/><tag k="addr:housenumber" v="11017"/><tag k="addr:postcode" v="78754"/></node><node id="-256" lat="30.346976" lon="-97.616776" changeset="false"><tag k="addr:street" v="Glebe Path"/><tag k="addr:housenumber" v="6512"/><tag k="addr:postcode" v="78754"/></node><node id="-257" lat="30.346988" lon="-97.616655" changeset="false"><tag k="addr:street" v="Glebe Path"/><tag k="addr:housenumber" v="6516"/><tag k="addr:postcode" v="78754"/></node><node id="-258" lat="30.346603" lon="-97.616957" changeset="false"><tag k="addr:street" v="Glebe Path"/><tag k="addr:housenumber" v="6505"/><tag k="addr:postcode" v="78754"/></node><node id="-259" lat="30.346493" lon="-97.620399" changeset="false"><tag k="addr:street" v="Cairnhill Court"/><tag k="addr:housenumber" v="11025"/><tag k="addr:postcode" v="78754"/></node><node id="-260" lat="30.346601" lon="-97.620335" changeset="false"><tag k="addr:street" v="Cairnhill Court"/><tag k="addr:housenumber" v="11029"/><tag k="addr:postcode" v="78754"/></node><node id="-261" lat="30.346613" lon="-97.62088" changeset="false"><tag k="addr:street" v="Cairnhill Court"/><tag k="addr:housenumber" v="11020"/><tag k="addr:postcode" v="78754"/></node><node id="-262" lat="30.348068" lon="-97.622317" changeset="false"><tag k="addr:street" v="Kirkoswald Road"/><tag k="addr:housenumber" v="11048"/><tag k="addr:postcode" v="78754"/></node><node id="-263" lat="30.347398" lon="-97.622003" changeset="false"><tag k="addr:street" v="Garden Rose Path"/><tag k="addr:housenumber" v="6213"/><tag k="addr:postcode" v="78754"/></node><node id="-264" lat="30.347468" lon="-97.621238" changeset="false"><tag k="addr:street" v="Garden Rose Path"/><tag k="addr:housenumber" v="6304"/><tag k="addr:postcode" v="78754"/></node><node id="-265" lat="30.347186" lon="-97.620657" changeset="false"><tag k="addr:street" v="Garden Rose Path"/><tag k="addr:housenumber" v="6400"/><tag k="addr:postcode" v="78754"/></node><node id="-266" lat="30.346959" lon="-97.620212" changeset="false"><tag k="addr:street" v="Garden Rose Path"/><tag k="addr:housenumber" v="6416"/><tag k="addr:postcode" v="78754"/></node><node id="-267" lat="30.373816" lon="-97.586305" changeset="false"><tag k="addr:street" v="Hill Lane"/><tag k="addr:housenumber" v="7721"/><tag k="addr:postcode" v="78653"/></node><node id="-268" lat="30.342316" lon="-97.616013" changeset="false"><tag k="addr:street" v="Giles Lane"/><tag k="addr:housenumber" v="10801"/><tag k="addr:postcode" v="78754"/></node><node id="-269" lat="30.354787" lon="-97.615273" changeset="false"><tag k="addr:street" v="Loweswater Lane"/><tag k="addr:housenumber" v="11612"/><tag k="addr:postcode" v="78754"/></node><node id="-270" lat="30.389295" lon="-97.581576" changeset="false"><tag k="addr:street" v="Lee Manor Cove"/><tag k="addr:housenumber" v="6930"/><tag k="addr:postcode" v="78653"/></node><node id="-271" lat="30.390593" lon="-97.597582" changeset="false"><tag k="addr:street" v="Cameron Road"/><tag k="addr:housenumber" v="13917"/><tag k="addr:postcode" v="78653"/></node><node id="-272" lat="30.344045" lon="-97.610803" changeset="false"><tag k="addr:street" v="Whifflewind Way"/><tag k="addr:housenumber" v="7111"/><tag k="addr:postcode" v="78754"/></node><node id="-273" lat="30.346508" lon="-97.610998" changeset="false"><tag k="addr:street" v="Avering Lane"/><tag k="addr:housenumber" v="11332"/><tag k="addr:postcode" v="78754"/></node><node id="-274" lat="30.346364" lon="-97.611919" changeset="false"><tag k="addr:street" v="Muckender Lane"/><tag k="addr:housenumber" v="7001"/><tag k="addr:postcode" v="78754"/></node><node id="-275" lat="30.345962" lon="-97.610357" changeset="false"><tag k="addr:street" v="Dagon Drive"/><tag k="addr:housenumber" v="7104"/><tag k="addr:postcode" v="78754"/></node><node id="-276" lat="30.332376" lon="-97.622345" changeset="false"><tag k="addr:street" v="Giles Lane"/><tag k="addr:housenumber" v="9809"/><tag k="addr:postcode" v="78754"/></node><node id="-277" lat="30.331172" lon="-97.628905" changeset="false"><tag k="addr:street" v="US Highway 290"/><tag k="addr:housenumber" v="9526"/><tag k="addr:postcode" v="78754"/></node><node id="-278" lat="30.352258" lon="-97.594022" changeset="false"><tag k="addr:street" v="East Parmer Lane"/><tag k="addr:housenumber" v="8011 1/2"/><tag k="addr:postcode" v="78653"/></node><node id="-279" lat="30.38384" lon="-97.601674" changeset="false"><tag k="addr:street" v="Cameron Road"/><tag k="addr:housenumber" v="13311"/><tag k="addr:postcode" v="78653"/></node><node id="-280" lat="30.389188" lon="-97.58205" changeset="false"><tag k="addr:street" v="Lee Manor Cove"/><tag k="addr:housenumber" v="6929"/><tag k="addr:postcode" v="78653"/></node><node id="-281" lat="30.352672" lon="-97.594549" changeset="false"><tag k="addr:street" v="East Parmer Lane"/><tag k="addr:housenumber" v="8001"/><tag k="addr:postcode" v="78653"/></node><node id="-282" lat="30.364999" lon="-97.608163" changeset="false"><tag k="addr:street" v="Innes View Road"/><tag k="addr:housenumber" v="12333"/><tag k="addr:postcode" v="78653"/></node><node id="-283" lat="30.335533" lon="-97.608034" changeset="false"><tag k="addr:street" v="Harris Branch Parkway"/><tag k="addr:housenumber" v="10610"/><tag k="addr:postcode" v="78754"/></node><node id="-284" lat="30.334364" lon="-97.622606" changeset="false"><tag k="addr:street" v="Giles Lane"/><tag k="addr:housenumber" v="9912"/><tag k="addr:postcode" v="78754"/></node><node id="-285" lat="30.349877" lon="-97.618612" changeset="false"><tag k="addr:street" v="Farmhaven Road"/><tag k="addr:housenumber" v="11200"/><tag k="addr:postcode" v="78754"/></node><node id="-286" lat="30.332054" lon="-97.621592" changeset="false"><tag k="addr:street" v="US Highway 290"/><tag k="addr:housenumber" v="9614"/><tag k="addr:postcode" v="78754"/></node><node id="-287" lat="30.334282" lon="-97.622648" changeset="false"><tag k="addr:street" v="Giles Lane"/><tag k="addr:housenumber" v="9900"/><tag k="addr:postcode" v="78754"/></node><node id="-288" lat="30.345473" lon="-97.640775" changeset="false"><tag k="addr:street" v="Giles Lane"/><tag k="addr:housenumber" v="9900 1/2"/><tag k="addr:postcode" v="78754"/></node><node id="-289" lat="30.35162" lon="-97.611103" changeset="false"><tag k="addr:street" v="Saint Merryn Road"/><tag k="addr:housenumber" v="11600"/><tag k="addr:postcode" v="78754"/></node><node id="-290" lat="30.348297" lon="-97.608798" changeset="false"><tag k="addr:street" v="Glen Falloch Court"/><tag k="addr:housenumber" v="11441"/><tag k="addr:postcode" v="78754"/></node><node id="-291" lat="30.332248" lon="-97.625167" changeset="false"><tag k="addr:street" v="Reservoir Court"/><tag k="addr:housenumber" v="9708"/><tag k="addr:postcode" v="78754"/></node><node id="-292" lat="30.35117" lon="-97.616659" changeset="false"><tag k="addr:street" v="Farmhaven Road"/><tag k="addr:housenumber" v="11401"/><tag k="addr:postcode" v="78754"/></node><node id="-293" lat="30.345464" lon="-97.609902" changeset="false"><tag k="addr:street" v="Dagon Drive"/><tag k="addr:housenumber" v="7117"/><tag k="addr:postcode" v="78754"/></node><node id="-294" lat="30.347518" lon="-97.616292" changeset="false"><tag k="addr:street" v="Drumellan Street"/><tag k="addr:housenumber" v="11201"/><tag k="addr:postcode" v="78754"/></node><node id="-295" lat="30.35646" lon="-97.617391" changeset="false"><tag k="addr:street" v="Magnus Street"/><tag k="addr:housenumber" v="6104"/><tag k="addr:postcode" v="78754"/></node><node id="-296" lat="30.355668" lon="-97.609056" changeset="false"><tag k="addr:street" v="Lansdowne Road"/><tag k="addr:housenumber" v="12025"/><tag k="addr:postcode" v="78754"/></node><node id="-297" lat="30.348315" lon="-97.622134" changeset="false"><tag k="addr:street" v="Minnoch Lane"/><tag k="addr:housenumber" v="6209"/><tag k="addr:postcode" v="78754"/></node><node id="-298" lat="30.346025" lon="-97.620965" changeset="false"><tag k="addr:street" v="Cairnhill Court"/><tag k="addr:housenumber" v="11001"/><tag k="addr:postcode" v="78754"/></node><node id="-299" lat="30.346431" lon="-97.621001" changeset="false"><tag k="addr:street" v="Cairnhill Court"/><tag k="addr:housenumber" v="11012"/><tag k="addr:postcode" v="78754"/></node><node id="-300" lat="30.347591" lon="-97.622772" changeset="false"><tag k="addr:street" v="Kirkoswald Road"/><tag k="addr:housenumber" v="11028"/><tag k="addr:postcode" v="78754"/></node><node id="-301" lat="30.347913" lon="-97.622625" changeset="false"><tag k="addr:street" v="Kirkoswald Road"/><tag k="addr:housenumber" v="11040"/><tag k="addr:postcode" v="78754"/></node><node id="-302" lat="30.34729" lon="-97.621769" changeset="false"><tag k="addr:street" v="Garden Rose Path"/><tag k="addr:housenumber" v="6221"/><tag k="addr:postcode" v="78754"/></node><node id="-303" lat="30.347119" lon="-97.621449" changeset="false"><tag k="addr:street" v="Garden Rose Path"/><tag k="addr:housenumber" v="6305"/><tag k="addr:postcode" v="78754"/></node><node id="-304" lat="30.346897" lon="-97.620098" changeset="false"><tag k="addr:street" v="Garden Rose Path"/><tag k="addr:housenumber" v="6420"/><tag k="addr:postcode" v="78754"/></node><node id="-305" lat="30.34845" lon="-97.617795" changeset="false"><tag k="addr:street" v="Barns Trail"/><tag k="addr:housenumber" v="11316"/><tag k="addr:postcode" v="78754"/></node><node id="-306" lat="30.348901" lon="-97.61784" changeset="false"><tag k="addr:street" v="Barns Trail"/><tag k="addr:housenumber" v="11408"/><tag k="addr:postcode" v="78754"/></node><node id="-307" lat="30.347934" lon="-97.614909" changeset="false"><tag k="addr:street" v="Kincraig Court"/><tag k="addr:housenumber" v="11312"/><tag k="addr:postcode" v="78754"/></node><node id="-308" lat="30.355212" lon="-97.619209" changeset="false"><tag k="addr:street" v="Gaelic Drive"/><tag k="addr:housenumber" v="11521"/><tag k="addr:postcode" v="78754"/></node><node id="-309" lat="30.355188" lon="-97.619888" changeset="false"><tag k="addr:street" v="Gaelic Drive"/><tag k="addr:housenumber" v="11512"/><tag k="addr:postcode" v="78754"/></node><node id="-310" lat="30.355864" lon="-97.619327" changeset="false"><tag k="addr:street" v="Gaelic Drive"/><tag k="addr:housenumber" v="11604"/><tag k="addr:postcode" v="78754"/></node><node id="-311" lat="30.356111" lon="-97.619162" changeset="false"><tag k="addr:street" v="Gaelic Drive"/><tag k="addr:housenumber" v="11612"/><tag k="addr:postcode" v="78754"/></node><node id="-312" lat="30.344969" lon="-97.616023" changeset="false"><tag k="addr:street" v="Trevone Path"/><tag k="addr:housenumber" v="6809"/><tag k="addr:postcode" v="78754"/></node><node id="-313" lat="30.347576" lon="-97.617667" changeset="false"><tag k="addr:street" v="Barns Trail"/><tag k="addr:housenumber" v="11208"/><tag k="addr:postcode" v="78754"/></node><node id="-314" lat="30.34528" lon="-97.616851" changeset="false"><tag k="addr:street" v="Roderick Lawson Lane"/><tag k="addr:housenumber" v="10908"/><tag k="addr:postcode" v="78754"/></node><node id="-315" lat="30.345626" lon="-97.615811" changeset="false"><tag k="addr:street" v="Roderick Lawson Lane"/><tag k="addr:housenumber" v="10933"/><tag k="addr:postcode" v="78754"/></node><node id="-316" lat="30.346176" lon="-97.616872" changeset="false"><tag k="addr:street" v="Crosne Street"/><tag k="addr:housenumber" v="6704"/><tag k="addr:postcode" v="78754"/></node><node id="-317" lat="30.345832" lon="-97.616612" changeset="false"><tag k="addr:street" v="Crosne Street"/><tag k="addr:housenumber" v="6717"/><tag k="addr:postcode" v="78754"/></node><node id="-318" lat="30.345534" lon="-97.614844" changeset="false"><tag k="addr:street" v="Helms Deep Drive"/><tag k="addr:housenumber" v="10925"/><tag k="addr:postcode" v="78754"/></node><node id="-319" lat="30.345444" lon="-97.615456" changeset="false"><tag k="addr:street" v="Helms Deep Drive"/><tag k="addr:housenumber" v="10912"/><tag k="addr:postcode" v="78754"/></node><node id="-320" lat="30.345739" lon="-97.615266" changeset="false"><tag k="addr:street" v="Helms Deep Drive"/><tag k="addr:housenumber" v="10924"/><tag k="addr:postcode" v="78754"/></node><node id="-321" lat="30.346388" lon="-97.614553" changeset="false"><tag k="addr:street" v="Helms Deep Drive"/><tag k="addr:housenumber" v="11101"/><tag k="addr:postcode" v="78754"/></node><node id="-322" lat="30.346496" lon="-97.614534" changeset="false"><tag k="addr:street" v="Helms Deep Drive"/><tag k="addr:housenumber" v="11105"/><tag k="addr:postcode" v="78754"/></node><node id="-323" lat="30.346605" lon="-97.614526" changeset="false"><tag k="addr:street" v="Helms Deep Drive"/><tag k="addr:housenumber" v="11109"/><tag k="addr:postcode" v="78754"/></node><node id="-324" lat="30.391939" lon="-97.596418" changeset="false"><tag k="addr:street" v="Cameron Road"/><tag k="addr:housenumber" v="14016"/><tag k="addr:postcode" v="78653"/></node><node id="-325" lat="30.389372" lon="-97.582742" changeset="false"><tag k="addr:street" v="Lee Manor Cove"/><tag k="addr:housenumber" v="6915"/><tag k="addr:postcode" v="78653"/></node><node id="-326" lat="30.346707" lon="-97.616138" changeset="false"><tag k="addr:street" v="Glebe Path"/><tag k="addr:housenumber" v="6605"/><tag k="addr:postcode" v="78754"/></node><node id="-327" lat="30.346121" lon="-97.615552" changeset="false"><tag k="addr:street" v="Roderick Lawson Lane"/><tag k="addr:housenumber" v="11013"/><tag k="addr:postcode" v="78754"/></node><node id="-328" lat="30.346128" lon="-97.61501" changeset="false"><tag k="addr:street" v="Helms Deep Drive"/><tag k="addr:housenumber" v="11016"/><tag k="addr:postcode" v="78754"/></node><node id="-329" lat="30.379578" lon="-97.583691" changeset="false"><tag k="addr:street" v="Gregg Manor Road"/><tag k="addr:housenumber" v="13701"/><tag k="addr:postcode" v="78653"/></node><node id="-330" lat="30.347022" lon="-97.61761" changeset="false"><tag k="addr:street" v="Barns Trail"/><tag k="addr:housenumber" v="11112"/><tag k="addr:postcode" v="78754"/></node><node id="-331" lat="30.34704" lon="-97.616272" changeset="false"><tag k="addr:street" v="Glebe Path"/><tag k="addr:housenumber" v="6604"/><tag k="addr:postcode" v="78754"/></node><node id="-332" lat="30.347047" lon="-97.61614" changeset="false"><tag k="addr:street" v="Glebe Path"/><tag k="addr:housenumber" v="6608"/><tag k="addr:postcode" v="78754"/></node><node id="-333" lat="30.349282" lon="-97.620266" changeset="false"><tag k="addr:street" v="Kirkland Hill Path"/><tag k="addr:housenumber" v="11421"/><tag k="addr:postcode" v="78754"/></node><node id="-334" lat="30.349498" lon="-97.620711" changeset="false"><tag k="addr:street" v="Kirkland Hill Path"/><tag k="addr:housenumber" v="11509"/><tag k="addr:postcode" v="78754"/></node><node id="-335" lat="30.34867" lon="-97.622086" changeset="false"><tag k="addr:street" v="Kildoon Drive"/><tag k="addr:housenumber" v="11200"/><tag k="addr:postcode" v="78754"/></node><node id="-336" lat="30.349168" lon="-97.621794" changeset="false"><tag k="addr:street" v="Kildoon Drive"/><tag k="addr:housenumber" v="11220"/><tag k="addr:postcode" v="78754"/></node><node id="-337" lat="30.349445" lon="-97.621604" changeset="false"><tag k="addr:street" v="Kildoon Drive"/><tag k="addr:housenumber" v="11232"/><tag k="addr:postcode" v="78754"/></node><node id="-338" lat="30.349149" lon="-97.620787" changeset="false"><tag k="addr:street" v="Dunlop Terrace"/><tag k="addr:housenumber" v="11232"/><tag k="addr:postcode" v="78754"/></node><node id="-339" lat="30.345652" lon="-97.619212" changeset="false"><tag k="addr:street" v="Ladywell Lane"/><tag k="addr:housenumber" v="6512"/><tag k="addr:postcode" v="78754"/></node><node id="-340" lat="30.346499" lon="-97.61818" changeset="false"><tag k="addr:street" v="Kirkland Hill Path"/><tag k="addr:housenumber" v="11113"/><tag k="addr:postcode" v="78754"/></node><node id="-341" lat="30.346941" lon="-97.61824" changeset="false"><tag k="addr:street" v="Kirkland Hill Path"/><tag k="addr:housenumber" v="11129"/><tag k="addr:postcode" v="78754"/></node><node id="-342" lat="30.345539" lon="-97.618818" changeset="false"><tag k="addr:street" v="Kirkland Hill Path"/><tag k="addr:housenumber" v="11004"/><tag k="addr:postcode" v="78754"/></node><node id="-343" lat="30.346311" lon="-97.61893" changeset="false"><tag k="addr:street" v="Garden Rose Path"/><tag k="addr:housenumber" v="6608"/><tag k="addr:postcode" v="78754"/></node><node id="-344" lat="30.346056" lon="-97.619425" changeset="false"><tag k="addr:street" v="Garden Rose Path"/><tag k="addr:housenumber" v="6601"/><tag k="addr:postcode" v="78754"/></node><node id="-345" lat="30.347174" lon="-97.618715" changeset="false"><tag k="addr:street" v="Kirkland Hill Path"/><tag k="addr:housenumber" v="11200"/><tag k="addr:postcode" v="78754"/></node><node id="-346" lat="30.347701" lon="-97.618376" changeset="false"><tag k="addr:street" v="Kirkland Hill Path"/><tag k="addr:housenumber" v="11217"/><tag k="addr:postcode" v="78754"/></node><node id="-347" lat="30.348725" lon="-97.619098" changeset="false"><tag k="addr:street" v="Kirkland Hill Path"/><tag k="addr:housenumber" v="11317"/><tag k="addr:postcode" v="78754"/></node><node id="-348" lat="30.346859" lon="-97.619498" changeset="false"><tag k="addr:street" v="Whitefaulds Drive"/><tag k="addr:housenumber" v="11113"/><tag k="addr:postcode" v="78754"/></node><node id="-349" lat="30.347051" lon="-97.619386" changeset="false"><tag k="addr:street" v="Whitefaulds Drive"/><tag k="addr:housenumber" v="11121"/><tag k="addr:postcode" v="78754"/></node><node id="-350" lat="30.347321" lon="-97.619182" changeset="false"><tag k="addr:street" v="Whitefaulds Drive"/><tag k="addr:housenumber" v="11205"/><tag k="addr:postcode" v="78754"/></node><node id="-351" lat="30.347495" lon="-97.620457" changeset="false"><tag k="addr:street" v="Minnoch Lane"/><tag k="addr:housenumber" v="6401"/><tag k="addr:postcode" v="78754"/></node><node id="-352" lat="30.347255" lon="-97.619985" changeset="false"><tag k="addr:street" v="Minnoch Lane"/><tag k="addr:housenumber" v="6417"/><tag k="addr:postcode" v="78754"/></node><node id="-353" lat="30.347112" lon="-97.619749" changeset="false"><tag k="addr:street" v="Minnoch Lane"/><tag k="addr:housenumber" v="6425"/><tag k="addr:postcode" v="78754"/></node><node id="-354" lat="30.347647" lon="-97.619861" changeset="false"><tag k="addr:street" v="Minnoch Lane"/><tag k="addr:housenumber" v="6412"/><tag k="addr:postcode" v="78754"/></node><node id="-355" lat="30.347547" lon="-97.619643" changeset="false"><tag k="addr:street" v="Minnoch Lane"/><tag k="addr:housenumber" v="6420"/><tag k="addr:postcode" v="78754"/></node><node id="-356" lat="30.352143" lon="-97.612839" changeset="false"><tag k="addr:street" v="Carisbrooke Lane"/><tag k="addr:housenumber" v="6611"/><tag k="addr:postcode" v="78754"/></node><node id="-357" lat="30.331326" lon="-97.627226" changeset="false"><tag k="addr:street" v="US Highway 290"/><tag k="addr:housenumber" v="9550"/><tag k="addr:postcode" v="78754"/></node><node id="-358" lat="30.373863" lon="-97.610544" changeset="false"><tag k="addr:street" v="Harris Branch Parkway"/><tag k="addr:housenumber" v="12521"/><tag k="addr:postcode" v="78653"/></node><node id="-359" lat="30.346203" lon="-97.609869" changeset="false"><tag k="addr:street" v="Avering Lane"/><tag k="addr:housenumber" v="11306"/><tag k="addr:postcode" v="78754"/></node><node id="-360" lat="30.344026" lon="-97.611798" changeset="false"><tag k="addr:street" v="Amaranth Lane"/><tag k="addr:housenumber" v="11112"/><tag k="addr:postcode" v="78754"/></node><node id="-361" lat="30.35584" lon="-97.614431" changeset="false"><tag k="addr:street" v="Gidleigh Court"/><tag k="addr:housenumber" v="6303"/><tag k="addr:postcode" v="78754"/></node><node id="-362" lat="30.345503" lon="-97.610109" changeset="false"><tag k="addr:street" v="Dagon Drive"/><tag k="addr:housenumber" v="7113"/><tag k="addr:postcode" v="78754"/></node><node id="-363" lat="30.389481" lon="-97.580582" changeset="false"><tag k="addr:street" v="Lee Manor Cove"/><tag k="addr:housenumber" v="6924"/><tag k="addr:postcode" v="78653"/></node><node id="-364" lat="30.353189" lon="-97.592906" changeset="false"><tag k="addr:street" v="East Parmer Lane"/><tag k="addr:housenumber" v="8106"/><tag k="addr:postcode" v="78653"/></node><node id="-365" lat="30.353474" lon="-97.609251" changeset="false"><tag k="addr:street" v="Farmhaven Road"/><tag k="addr:housenumber" v="11801 1/2"/><tag k="addr:postcode" v="78653"/></node><node id="-366" lat="30.35321" lon="-97.610988" changeset="false"><tag k="addr:street" v="Cromarty Lane"/><tag k="addr:housenumber" v="6701 1/2"/><tag k="addr:postcode" v="78754"/></node><node id="-367" lat="30.353153" lon="-97.616489" changeset="false"><tag k="addr:street" v="Harris Branch Parkway"/><tag k="addr:housenumber" v="11500"/><tag k="addr:postcode" v="78754"/></node><node id="-368" lat="30.3662" lon="-97.613189" changeset="false"><tag k="addr:street" v="Harris Branch Parkway"/><tag k="addr:housenumber" v="12209 1/2"/><tag k="addr:postcode" v="78653"/></node><node id="-369" lat="30.389834" lon="-97.582259" changeset="false"><tag k="addr:street" v="Lee Manor Cove"/><tag k="addr:housenumber" v="6918"/><tag k="addr:postcode" v="78653"/></node><node id="-370" lat="30.346372" lon="-97.610632" changeset="false"><tag k="addr:street" v="Avering Lane"/><tag k="addr:housenumber" v="11324"/><tag k="addr:postcode" v="78754"/></node><node id="-371" lat="30.345943" lon="-97.610211" changeset="false"><tag k="addr:street" v="Dagon Drive"/><tag k="addr:housenumber" v="7108"/><tag k="addr:postcode" v="78754"/></node><node id="-372" lat="30.362419" lon="-97.618326" changeset="false"><tag k="addr:street" v="Cameron Road"/><tag k="addr:housenumber" v="12049"/><tag k="addr:postcode" v="78754"/></node><node id="-373" lat="30.344739" lon="-97.609577" changeset="false"><tag k="addr:street" v="Avering Lane"/><tag k="addr:housenumber" v="11217"/><tag k="addr:postcode" v="78754"/></node><node id="-374" lat="30.391487" lon="-97.585149" changeset="false"><tag k="addr:street" v="Gregg Manor Road"/><tag k="addr:housenumber" v="14308"/><tag k="addr:postcode" v="78653"/></node><node id="-375" lat="30.40281" lon="-97.584536" changeset="false"><tag k="addr:street" v="Cameron Road"/><tag k="addr:housenumber" v="15011"/><tag k="addr:postcode" v="78653"/></node><node id="-376" lat="30.348809" lon="-97.620422" changeset="false"><tag k="addr:street" v="Dunlop Terrace"/><tag k="addr:housenumber" v="11229"/><tag k="addr:postcode" v="78754"/></node><node id="-377" lat="30.347631" lon="-97.620829" changeset="false"><tag k="addr:street" v="Minnoch Lane"/><tag k="addr:housenumber" v="6313"/><tag k="addr:postcode" v="78754"/></node><node id="-378" lat="30.346307" lon="-97.621117" changeset="false"><tag k="addr:street" v="Cairnhill Court"/><tag k="addr:housenumber" v="11008"/><tag k="addr:postcode" v="78754"/></node><node id="-379" lat="30.34713" lon="-97.62309" changeset="false"><tag k="addr:street" v="Kirkoswald Road"/><tag k="addr:housenumber" v="11008"/><tag k="addr:postcode" v="78754"/></node><node id="-380" lat="30.346867" lon="-97.622714" changeset="false"><tag k="addr:street" v="Kirkoswald Road"/><tag k="addr:housenumber" v="11005"/><tag k="addr:postcode" v="78754"/></node><node id="-381" lat="30.347281" lon="-97.622422" changeset="false"><tag k="addr:street" v="Kirkoswald Road"/><tag k="addr:housenumber" v="11021"/><tag k="addr:postcode" v="78754"/></node><node id="-382" lat="30.347534" lon="-97.622217" changeset="false"><tag k="addr:street" v="Garden Rose Path"/><tag k="addr:housenumber" v="6205"/><tag k="addr:postcode" v="78754"/></node><node id="-383" lat="30.347016" lon="-97.620324" changeset="false"><tag k="addr:street" v="Garden Rose Path"/><tag k="addr:housenumber" v="6412"/><tag k="addr:postcode" v="78754"/></node><node id="-384" lat="30.344901" lon="-97.615902" changeset="false"><tag k="addr:street" v="Trevone Path"/><tag k="addr:housenumber" v="6813"/><tag k="addr:postcode" v="78754"/></node><node id="-385" lat="30.344758" lon="-97.615689" changeset="false"><tag k="addr:street" v="Trevone Path"/><tag k="addr:housenumber" v="6821"/><tag k="addr:postcode" v="78754"/></node><node id="-386" lat="30.357265" lon="-97.617089" changeset="false"><tag k="addr:street" v="Gaelic Court"/><tag k="addr:housenumber" v="6008"/><tag k="addr:postcode" v="78754"/></node><node id="-387" lat="30.355422" lon="-97.619039" changeset="false"><tag k="addr:street" v="Gaelic Drive"/><tag k="addr:housenumber" v="11601"/><tag k="addr:postcode" v="78754"/></node><node id="-388" lat="30.355818" lon="-97.617333" changeset="false"><tag k="addr:street" v="Magnus Street"/><tag k="addr:housenumber" v="6109"/><tag k="addr:postcode" v="78754"/></node><node id="-389" lat="30.39475" lon="-97.583286" changeset="false"><tag k="addr:street" v="Gregg Manor Road"/><tag k="addr:housenumber" v="14401"/><tag k="addr:postcode" v="78653"/></node><node id="-390" lat="30.349162" lon="-97.620042" changeset="false"><tag k="addr:street" v="Kirkland Hill Path"/><tag k="addr:housenumber" v="11413"/><tag k="addr:postcode" v="78754"/></node><node id="-391" lat="30.349218" lon="-97.620136" changeset="false"><tag k="addr:street" v="Kirkland Hill Path"/><tag k="addr:housenumber" v="11417"/><tag k="addr:postcode" v="78754"/></node><node id="-392" lat="30.348974" lon="-97.621912" changeset="false"><tag k="addr:street" v="Kildoon Drive"/><tag k="addr:housenumber" v="11212"/><tag k="addr:postcode" v="78754"/></node><node id="-393" lat="30.349831" lon="-97.621219" changeset="false"><tag k="addr:street" v="Kildoon Drive"/><tag k="addr:housenumber" v="11248"/><tag k="addr:postcode" v="78754"/></node><node id="-394" lat="30.349303" lon="-97.621082" changeset="false"><tag k="addr:street" v="Kildoon Drive"/><tag k="addr:housenumber" v="11233"/><tag k="addr:postcode" v="78754"/></node><node id="-395" lat="30.348065" lon="-97.620916" changeset="false"><tag k="addr:street" v="Dunlop Terrace"/><tag k="addr:housenumber" v="11201"/><tag k="addr:postcode" v="78754"/></node><node id="-396" lat="30.345238" lon="-97.619293" changeset="false"><tag k="addr:street" v="Ladywell Lane"/><tag k="addr:housenumber" v="6517"/><tag k="addr:postcode" v="78754"/></node><node id="-397" lat="30.344999" lon="-97.618694" changeset="false"><tag k="addr:street" v="Kirkland Hill Path"/><tag k="addr:housenumber" v="10909"/><tag k="addr:postcode" v="78754"/></node><node id="-398" lat="30.345064" lon="-97.618617" changeset="false"><tag k="addr:street" v="Kirkland Hill Path"/><tag k="addr:housenumber" v="10913"/><tag k="addr:postcode" v="78754"/></node><node id="-399" lat="30.346617" lon="-97.618191" changeset="false"><tag k="addr:street" v="Kirkland Hill Path"/><tag k="addr:housenumber" v="11117"/><tag k="addr:postcode" v="78754"/></node><node id="-400" lat="30.345795" lon="-97.618733" changeset="false"><tag k="addr:street" v="Kirkland Hill Path"/><tag k="addr:housenumber" v="11012"/><tag k="addr:postcode" v="78754"/></node><node id="-401" lat="30.345902" lon="-97.618996" changeset="false"><tag k="addr:street" v="Garden Rose Path"/><tag k="addr:housenumber" v="6613"/><tag k="addr:postcode" v="78754"/></node><node id="-402" lat="30.360452" lon="-97.615106" changeset="false"><tag k="addr:street" v="Gaelic Drive"/><tag k="addr:housenumber" v="11941"/><tag k="addr:postcode" v="78754"/></node><node id="-403" lat="30.347414" lon="-97.618794" changeset="false"><tag k="addr:street" v="Kirkland Hill Path"/><tag k="addr:housenumber" v="11208"/><tag k="addr:postcode" v="78754"/></node><node id="-404" lat="30.347531" lon="-97.618804" changeset="false"><tag k="addr:street" v="Kirkland Hill Path"/><tag k="addr:housenumber" v="11212"/><tag k="addr:postcode" v="78754"/></node><node id="-405" lat="30.348272" lon="-97.619141" changeset="false"><tag k="addr:street" v="Kirkland Hill Path"/><tag k="addr:housenumber" v="11308"/><tag k="addr:postcode" v="78754"/></node><node id="-406" lat="30.348843" lon="-97.619332" changeset="false"><tag k="addr:street" v="Kirkland Hill Path"/><tag k="addr:housenumber" v="11325"/><tag k="addr:postcode" v="78754"/></node><node id="-407" lat="30.348908" lon="-97.61944" changeset="false"><tag k="addr:street" v="Kirkland Hill Path"/><tag k="addr:housenumber" v="11329"/><tag k="addr:postcode" v="78754"/></node><node id="-408" lat="30.348983" lon="-97.619576" changeset="false"><tag k="addr:street" v="Kirkland Hill Path"/><tag k="addr:housenumber" v="11333"/><tag k="addr:postcode" v="78754"/></node><node id="-409" lat="30.348011" lon="-97.620492" changeset="false"><tag k="addr:street" v="Harlyn Bay Road"/><tag k="addr:housenumber" v="11204"/><tag k="addr:postcode" v="78754"/></node><node id="-410" lat="30.348456" lon="-97.619637" changeset="false"><tag k="addr:street" v="Harlyn Bay Road"/><tag k="addr:housenumber" v="11233"/><tag k="addr:postcode" v="78754"/></node><node id="-411" lat="30.347313" lon="-97.620104" changeset="false"><tag k="addr:street" v="Minnoch Lane"/><tag k="addr:housenumber" v="6413"/><tag k="addr:postcode" v="78754"/></node><node id="-412" lat="30.349002" lon="-97.619692" changeset="false"><tag k="addr:street" v="Kirkland Hill Path"/><tag k="addr:housenumber" v="11401"/><tag k="addr:postcode" v="78754"/></node><node id="-413" lat="30.346798" lon="-97.617563" changeset="false"><tag k="addr:street" v="Barns Trail"/><tag k="addr:housenumber" v="11104"/><tag k="addr:postcode" v="78754"/></node><node id="-414" lat="30.346332" lon="-97.615897" changeset="false"><tag k="addr:street" v="Roderick Lawson Lane"/><tag k="addr:housenumber" v="11016"/><tag k="addr:postcode" v="78754"/></node><node id="-415" lat="30.347048" lon="-97.615496" changeset="false"><tag k="addr:street" v="Glebe Path"/><tag k="addr:housenumber" v="6704"/><tag k="addr:postcode" v="78754"/></node><node id="-416" lat="30.347046" lon="-97.615239" changeset="false"><tag k="addr:street" v="Glebe Path"/><tag k="addr:housenumber" v="6712"/><tag k="addr:postcode" v="78754"/></node><node id="-417" lat="30.345049" lon="-97.615152" changeset="false"><tag k="addr:street" v="Helms Deep Drive"/><tag k="addr:housenumber" v="10905"/><tag k="addr:postcode" v="78754"/></node><node id="-418" lat="30.345341" lon="-97.614962" changeset="false"><tag k="addr:street" v="Helms Deep Drive"/><tag k="addr:housenumber" v="10917"/><tag k="addr:postcode" v="78754"/></node><node id="-419" lat="30.345249" lon="-97.615593" changeset="false"><tag k="addr:street" v="Helms Deep Drive"/><tag k="addr:housenumber" v="10904"/><tag k="addr:postcode" v="78754"/></node><node id="-420" lat="30.345576" lon="-97.616402" changeset="false"><tag k="addr:street" v="Roderick Lawson Lane"/><tag k="addr:housenumber" v="10924"/><tag k="addr:postcode" v="78754"/></node><node id="-421" lat="30.345682" lon="-97.616341" changeset="false"><tag k="addr:street" v="Roderick Lawson Lane"/><tag k="addr:housenumber" v="10928"/><tag k="addr:postcode" v="78754"/></node><node id="-422" lat="30.346221" lon="-97.617427" changeset="false"><tag k="addr:street" v="Barns Trail"/><tag k="addr:housenumber" v="11000"/><tag k="addr:postcode" v="78754"/></node><node id="-423" lat="30.346147" lon="-97.616991" changeset="false"><tag k="addr:street" v="Crosne Street"/><tag k="addr:housenumber" v="6700"/><tag k="addr:postcode" v="78754"/></node><node id="-424" lat="30.347431" lon="-97.619135" changeset="false"><tag k="addr:street" v="Whitefaulds Drive"/><tag k="addr:housenumber" v="11209"/><tag k="addr:postcode" v="78754"/></node><node id="-425" lat="30.352702" lon="-97.616952" changeset="false"><tag k="addr:street" v="Farmhaven Road"/><tag k="addr:housenumber" v="11402"/><tag k="addr:postcode" v="78754"/></node><node id="-426" lat="30.358147" lon="-97.61654" changeset="false"><tag k="addr:street" v="Gaelic Drive"/><tag k="addr:housenumber" v="11821"/><tag k="addr:postcode" v="78754"/></node><node id="-427" lat="30.347953" lon="-97.617281" changeset="false"><tag k="addr:street" v="Barns Trail"/><tag k="addr:housenumber" v="11221"/><tag k="addr:postcode" v="78754"/></node><node id="-428" lat="30.347689" lon="-97.617678" changeset="false"><tag k="addr:street" v="Barns Trail"/><tag k="addr:housenumber" v="11212"/><tag k="addr:postcode" v="78754"/></node><node id="-429" lat="30.347056" lon="-97.615876" changeset="false"><tag k="addr:street" v="Glebe Path"/><tag k="addr:housenumber" v="6616"/><tag k="addr:postcode" v="78754"/></node><node id="-430" lat="30.346439" lon="-97.617492" changeset="false"><tag k="addr:street" v="Barns Trail"/><tag k="addr:housenumber" v="11008"/><tag k="addr:postcode" v="78754"/></node><node id="-431" lat="30.389161" lon="-97.582411" changeset="false"><tag k="addr:street" v="Lee Manor Cove"/><tag k="addr:housenumber" v="6919"/><tag k="addr:postcode" v="78653"/></node><node id="-432" lat="30.387137" lon="-97.584535" changeset="false"><tag k="addr:street" v="Gregg Manor Road"/><tag k="addr:housenumber" v="14115"/><tag k="addr:postcode" v="78653"/></node><node id="-433" lat="30.349066" lon="-97.613383" changeset="false"><tag k="addr:street" v="Kilt Court"/><tag k="addr:housenumber" v="6713"/><tag k="addr:postcode" v="78754"/></node><node id="-434" lat="30.346565" lon="-97.609379" changeset="false"><tag k="addr:street" v="Avering Lane"/><tag k="addr:housenumber" v="11305"/><tag k="addr:postcode" v="78754"/></node><node id="-435" lat="30.36998" lon="-97.613122" changeset="false"><tag k="addr:street" v="Harris Branch Parkway"/><tag k="addr:housenumber" v="12318 1/2"/><tag k="addr:postcode" v="78653"/></node><node id="-436" lat="30.348706" lon="-97.620491" changeset="false"><tag k="addr:street" v="Dunlop Terrace"/><tag k="addr:housenumber" v="11225"/><tag k="addr:postcode" v="78754"/></node><node id="-437" lat="30.347952" lon="-97.621459" changeset="false"><tag k="addr:street" v="Minnoch Lane"/><tag k="addr:housenumber" v="6233"/><tag k="addr:postcode" v="78754"/></node><node id="-438" lat="30.347688" lon="-97.620943" changeset="false"><tag k="addr:street" v="Minnoch Lane"/><tag k="addr:housenumber" v="6309"/><tag k="addr:postcode" v="78754"/></node><node id="-439" lat="30.346198" lon="-97.620564" changeset="false"><tag k="addr:street" v="Cairnhill Court"/><tag k="addr:housenumber" v="11013"/><tag k="addr:postcode" v="78754"/></node><node id="-440" lat="30.346306" lon="-97.620509" changeset="false"><tag k="addr:street" v="Cairnhill Court"/><tag k="addr:housenumber" v="11017"/><tag k="addr:postcode" v="78754"/></node><node id="-441" lat="30.346813" lon="-97.620759" changeset="false"><tag k="addr:street" v="Cairnhill Court"/><tag k="addr:housenumber" v="11028"/><tag k="addr:postcode" v="78754"/></node><node id="-442" lat="30.347031" lon="-97.623145" changeset="false"><tag k="addr:street" v="Kirkoswald Road"/><tag k="addr:housenumber" v="11004"/><tag k="addr:postcode" v="78754"/></node><node id="-443" lat="30.347403" lon="-97.622912" changeset="false"><tag k="addr:street" v="Kirkoswald Road"/><tag k="addr:housenumber" v="11020"/><tag k="addr:postcode" v="78754"/></node><node id="-444" lat="30.347504" lon="-97.622843" changeset="false"><tag k="addr:street" v="Kirkoswald Road"/><tag k="addr:housenumber" v="11024"/><tag k="addr:postcode" v="78754"/></node><node id="-445" lat="30.34769" lon="-97.622725" changeset="false"><tag k="addr:street" v="Kirkoswald Road"/><tag k="addr:housenumber" v="11032"/><tag k="addr:postcode" v="78754"/></node><node id="-446" lat="30.348048" lon="-97.622475" changeset="false"><tag k="addr:street" v="Kirkoswald Road"/><tag k="addr:housenumber" v="11044"/><tag k="addr:postcode" v="78754"/></node><node id="-447" lat="30.346963" lon="-97.622643" changeset="false"><tag k="addr:street" v="Kirkoswald Road"/><tag k="addr:housenumber" v="11009"/><tag k="addr:postcode" v="78754"/></node><node id="-448" lat="30.347175" lon="-97.622493" changeset="false"><tag k="addr:street" v="Kirkoswald Road"/><tag k="addr:housenumber" v="11017"/><tag k="addr:postcode" v="78754"/></node><node id="-449" lat="30.347594" lon="-97.622333" changeset="false"><tag k="addr:street" v="Garden Rose Path"/><tag k="addr:housenumber" v="6201"/><tag k="addr:postcode" v="78754"/></node><node id="-450" lat="30.347341" lon="-97.621881" changeset="false"><tag k="addr:street" v="Garden Rose Path"/><tag k="addr:housenumber" v="6217"/><tag k="addr:postcode" v="78754"/></node><node id="-451" lat="30.347525" lon="-97.621361" changeset="false"><tag k="addr:street" v="Garden Rose Path"/><tag k="addr:housenumber" v="6300"/><tag k="addr:postcode" v="78754"/></node><node id="-452" lat="30.34736" lon="-97.621013" changeset="false"><tag k="addr:street" v="Garden Rose Path"/><tag k="addr:housenumber" v="6312"/><tag k="addr:postcode" v="78754"/></node><node id="-453" lat="30.346842" lon="-97.619976" changeset="false"><tag k="addr:street" v="Garden Rose Path"/><tag k="addr:housenumber" v="6424"/><tag k="addr:postcode" v="78754"/></node><node id="-454" lat="30.346837" lon="-97.614451" changeset="false"><tag k="addr:street" v="Helms Deep Drive"/><tag k="addr:housenumber" v="11117"/><tag k="addr:postcode" v="78754"/></node><node id="-455" lat="30.348781" lon="-97.617846" changeset="false"><tag k="addr:street" v="Barns Trail"/><tag k="addr:housenumber" v="11404"/><tag k="addr:postcode" v="78754"/></node><node id="-456" lat="30.347738" lon="-97.616357" changeset="false"><tag k="addr:street" v="Drumellan Street"/><tag k="addr:housenumber" v="11209"/><tag k="addr:postcode" v="78754"/></node><node id="-457" lat="30.344955" lon="-97.615228" changeset="false"><tag k="addr:street" v="Helms Deep Drive"/><tag k="addr:housenumber" v="10901"/><tag k="addr:postcode" v="78754"/></node><node id="-458" lat="30.345204" lon="-97.616971" changeset="false"><tag k="addr:street" v="Roderick Lawson Lane"/><tag k="addr:housenumber" v="10904"/><tag k="addr:postcode" v="78754"/></node><node id="-459" lat="30.345814" lon="-97.61568" changeset="false"><tag k="addr:street" v="Roderick Lawson Lane"/><tag k="addr:housenumber" v="11001"/><tag k="addr:postcode" v="78754"/></node><node id="-460" lat="30.345757" lon="-97.61719" changeset="false"><tag k="addr:street" v="Crosne Street"/><tag k="addr:housenumber" v="6701"/><tag k="addr:postcode" v="78754"/></node><node id="-461" lat="30.345773" lon="-97.616936" changeset="false"><tag k="addr:street" v="Crosne Street"/><tag k="addr:housenumber" v="6709"/><tag k="addr:postcode" v="78754"/></node><node id="-462" lat="30.345797" lon="-97.616809" changeset="false"><tag k="addr:street" v="Crosne Street"/><tag k="addr:housenumber" v="6713"/><tag k="addr:postcode" v="78754"/></node><node id="-463" lat="30.348503" lon="-97.617372" changeset="false"><tag k="addr:street" v="Barns Trail"/><tag k="addr:housenumber" v="11317"/><tag k="addr:postcode" v="78754"/></node><node id="-464" lat="30.34884" lon="-97.617398" changeset="false"><tag k="addr:street" v="Barns Trail"/><tag k="addr:housenumber" v="11405"/><tag k="addr:postcode" v="78754"/></node><node id="-465" lat="30.349215" lon="-97.617358" changeset="false"><tag k="addr:street" v="Barns Trail"/><tag k="addr:housenumber" v="11421"/><tag k="addr:postcode" v="78754"/></node><node id="-466" lat="30.34692" lon="-97.617156" changeset="false"><tag k="addr:street" v="Glebe Path"/><tag k="addr:housenumber" v="6500"/><tag k="addr:postcode" v="78754"/></node><node id="-467" lat="30.354816" lon="-97.620122" changeset="false"><tag k="addr:street" v="Gaelic Drive"/><tag k="addr:housenumber" v="11500"/><tag k="addr:postcode" v="78754"/></node><node id="-468" lat="30.355063" lon="-97.619968" changeset="false"><tag k="addr:street" v="Gaelic Drive"/><tag k="addr:housenumber" v="11508"/><tag k="addr:postcode" v="78754"/></node><node id="-469" lat="30.355313" lon="-97.619832" changeset="false"><tag k="addr:street" v="Gaelic Drive"/><tag k="addr:housenumber" v="11516"/><tag k="addr:postcode" v="78754"/></node><node id="-470" lat="30.355787" lon="-97.618737" changeset="false"><tag k="addr:street" v="Gaelic Drive"/><tag k="addr:housenumber" v="11613"/><tag k="addr:postcode" v="78754"/></node><node id="-471" lat="30.349549" lon="-97.620833" changeset="false"><tag k="addr:street" v="Kirkland Hill Path"/><tag k="addr:housenumber" v="11513"/><tag k="addr:postcode" v="78754"/></node><node id="-472" lat="30.349613" lon="-97.620945" changeset="false"><tag k="addr:street" v="Kirkland Hill Path"/><tag k="addr:housenumber" v="11517"/><tag k="addr:postcode" v="78754"/></node><node id="-473" lat="30.348286" lon="-97.621328" changeset="false"><tag k="addr:street" v="Dunlop Terrace"/><tag k="addr:housenumber" v="11200"/><tag k="addr:postcode" v="78754"/></node><node id="-474" lat="30.345123" lon="-97.619077" changeset="false"><tag k="addr:street" v="Ladywell Lane"/><tag k="addr:housenumber" v="6525"/><tag k="addr:postcode" v="78754"/></node><node id="-475" lat="30.345212" lon="-97.618516" changeset="false"><tag k="addr:street" v="Kirkland Hill Path"/><tag k="addr:housenumber" v="10917"/><tag k="addr:postcode" v="78754"/></node><node id="-476" lat="30.346156" lon="-97.618209" changeset="false"><tag k="addr:street" v="Kirkland Hill Path"/><tag k="addr:housenumber" v="11101"/><tag k="addr:postcode" v="78754"/></node><node id="-477" lat="30.346425" lon="-97.618604" changeset="false"><tag k="addr:street" v="Kirkland Hill Path"/><tag k="addr:housenumber" v="11108"/><tag k="addr:postcode" v="78754"/></node><node id="-478" lat="30.346679" lon="-97.618652" changeset="false"><tag k="addr:street" v="Kirkland Hill Path"/><tag k="addr:housenumber" v="11116"/><tag k="addr:postcode" v="78754"/></node><node id="-479" lat="30.345675" lon="-97.620079" changeset="false"><tag k="addr:street" v="Culzean Drive"/><tag k="addr:housenumber" v="10908"/><tag k="addr:postcode" v="78754"/></node><node id="-480" lat="30.346661" lon="-97.619658" changeset="false"><tag k="addr:street" v="Garden Rose Path"/><tag k="addr:housenumber" v="6500"/><tag k="addr:postcode" v="78754"/></node><node id="-481" lat="30.36059" lon="-97.615041" changeset="false"><tag k="addr:street" v="Gaelic Drive"/><tag k="addr:housenumber" v="11945"/><tag k="addr:postcode" v="78754"/></node><node id="-482" lat="30.345813" lon="-97.615223" changeset="false"><tag k="addr:street" v="Helms Deep Drive"/><tag k="addr:housenumber" v="11000"/><tag k="addr:postcode" v="78754"/></node><node id="-483" lat="30.347252" lon="-97.618313" changeset="false"><tag k="addr:street" v="Kirkland Hill Path"/><tag k="addr:housenumber" v="11201"/><tag k="addr:postcode" v="78754"/></node><node id="-484" lat="30.347924" lon="-97.619199" changeset="false"><tag k="addr:street" v="Whitefaulds Drive"/><tag k="addr:housenumber" v="11221"/><tag k="addr:postcode" v="78754"/></node><node id="-485" lat="30.347472" lon="-97.619524" changeset="false"><tag k="addr:street" v="Minnoch Lane"/><tag k="addr:housenumber" v="6424"/><tag k="addr:postcode" v="78754"/></node><node id="-486" lat="30.345743" lon="-97.61481" changeset="false"><tag k="addr:street" v="Helms Deep Drive"/><tag k="addr:housenumber" v="11005"/><tag k="addr:postcode" v="78754"/></node><node id="-487" lat="30.346719" lon="-97.614509" changeset="false"><tag k="addr:street" v="Helms Deep Drive"/><tag k="addr:housenumber" v="11113"/><tag k="addr:postcode" v="78754"/></node><node id="-488" lat="30.361161" lon="-97.61465" changeset="false"><tag k="addr:street" v="Gaelic Drive"/><tag k="addr:housenumber" v="12005"/><tag k="addr:postcode" v="78754"/></node><node id="-489" lat="30.356544" lon="-97.617884" changeset="false"><tag k="addr:street" v="Magnus Street"/><tag k="addr:housenumber" v="6008"/><tag k="addr:postcode" v="78754"/></node><node id="-490" lat="30.347357" lon="-97.617627" changeset="false"><tag k="addr:street" v="Barns Trail"/><tag k="addr:housenumber" v="11200"/><tag k="addr:postcode" v="78754"/></node><node id="-491" lat="30.372516" lon="-97.608122" changeset="false"><tag k="addr:street" v="Titanium Drive"/><tag k="addr:housenumber" v="12500"/><tag k="addr:postcode" v="78653"/></node><node id="-492" lat="30.39552" lon="-97.587901" changeset="false"><tag k="addr:street" v="Gregg Manor Road"/><tag k="addr:housenumber" v="14445"/><tag k="addr:postcode" v="78653"/></node><node id="-493" lat="30.346645" lon="-97.616684" changeset="false"><tag k="addr:street" v="Glebe Path"/><tag k="addr:housenumber" v="6513"/><tag k="addr:postcode" v="78754"/></node><node id="-494" lat="30.346674" lon="-97.616423" changeset="false"><tag k="addr:street" v="Glebe Path"/><tag k="addr:housenumber" v="6521"/><tag k="addr:postcode" v="78754"/></node><node id="-495" lat="30.347044" lon="-97.614988" changeset="false"><tag k="addr:street" v="Glebe Path"/><tag k="addr:housenumber" v="6720"/><tag k="addr:postcode" v="78754"/></node><node id="-496" lat="30.347041" lon="-97.614859" changeset="false"><tag k="addr:street" v="Glebe Path"/><tag k="addr:housenumber" v="6724"/><tag k="addr:postcode" v="78754"/></node><node id="-497" lat="30.3459" lon="-97.615123" changeset="false"><tag k="addr:street" v="Helms Deep Drive"/><tag k="addr:housenumber" v="11004"/><tag k="addr:postcode" v="78754"/></node><node id="-498" lat="30.34503" lon="-97.616998" changeset="false"><tag k="addr:street" v="Roderick Lawson Lane"/><tag k="addr:housenumber" v="10900"/><tag k="addr:postcode" v="78754"/></node><node id="-499" lat="30.345307" lon="-97.616668" changeset="false"><tag k="addr:street" v="Roderick Lawson Lane"/><tag k="addr:housenumber" v="10912"/><tag k="addr:postcode" v="78754"/></node><node id="-500" lat="30.344881" lon="-97.616961" changeset="false"><tag k="addr:street" v="Roderick Lawson Lane"/><tag k="addr:housenumber" v="10901"/><tag k="addr:postcode" v="78754"/></node><node id="-501" lat="30.345425" lon="-97.615935" changeset="false"><tag k="addr:street" v="Roderick Lawson Lane"/><tag k="addr:housenumber" v="10925"/><tag k="addr:postcode" v="78754"/></node><node id="-502" lat="30.346134" lon="-97.616028" changeset="false"><tag k="addr:street" v="Roderick Lawson Lane"/><tag k="addr:housenumber" v="11004"/><tag k="addr:postcode" v="78754"/></node><node id="-503" lat="30.346227" lon="-97.616463" changeset="false"><tag k="addr:street" v="Crosne Street"/><tag k="addr:housenumber" v="6716"/><tag k="addr:postcode" v="78754"/></node><node id="-504" lat="30.347687" lon="-97.616793" changeset="false"><tag k="addr:street" v="Drumellan Street"/><tag k="addr:housenumber" v="11208"/><tag k="addr:postcode" v="78754"/></node><node id="-505" lat="30.36779" lon="-97.612492" changeset="false"><tag k="addr:street" v="East Parmer Lane"/><tag k="addr:housenumber" v="5801"/><tag k="addr:postcode" v="78653"/></node><node id="-506" lat="30.348614" lon="-97.617378" changeset="false"><tag k="addr:street" v="Barns Trail"/><tag k="addr:housenumber" v="11321"/><tag k="addr:postcode" v="78754"/></node><node id="-507" lat="30.346546" lon="-97.617517" changeset="false"><tag k="addr:street" v="Barns Trail"/><tag k="addr:housenumber" v="11012"/><tag k="addr:postcode" v="78754"/></node><node id="-508" lat="30.346915" lon="-97.617585" changeset="false"><tag k="addr:street" v="Barns Trail"/><tag k="addr:housenumber" v="11108"/><tag k="addr:postcode" v="78754"/></node><node id="-509" lat="30.346579" lon="-97.617104" changeset="false"><tag k="addr:street" v="Glebe Path"/><tag k="addr:housenumber" v="6501"/><tag k="addr:postcode" v="78754"/></node><node id="-510" lat="30.355313" lon="-97.619115" changeset="false"><tag k="addr:street" v="Gaelic Drive"/><tag k="addr:housenumber" v="11525"/><tag k="addr:postcode" v="78754"/></node><node id="-511" lat="30.354951" lon="-97.620054" changeset="false"><tag k="addr:street" v="Gaelic Drive"/><tag k="addr:housenumber" v="11504"/><tag k="addr:postcode" v="78754"/></node><node id="-512" lat="30.355539" lon="-97.619619" changeset="false"><tag k="addr:street" v="Gaelic Drive"/><tag k="addr:housenumber" v="11524"/><tag k="addr:postcode" v="78754"/></node><node id="-513" lat="30.356234" lon="-97.619084" changeset="false"><tag k="addr:street" v="Gaelic Drive"/><tag k="addr:housenumber" v="11616"/><tag k="addr:postcode" v="78754"/></node><node id="-514" lat="30.349454" lon="-97.620601" changeset="false"><tag k="addr:street" v="Kirkland Hill Path"/><tag k="addr:housenumber" v="11505"/><tag k="addr:postcode" v="78754"/></node><node id="-515" lat="30.349068" lon="-97.621849" changeset="false"><tag k="addr:street" v="Kildoon Drive"/><tag k="addr:housenumber" v="11216"/><tag k="addr:postcode" v="78754"/></node><node id="-516" lat="30.349351" lon="-97.621665" changeset="false"><tag k="addr:street" v="Kildoon Drive"/><tag k="addr:housenumber" v="11228"/><tag k="addr:postcode" v="78754"/></node><node id="-517" lat="30.348786" lon="-97.621457" changeset="false"><tag k="addr:street" v="Kildoon Drive"/><tag k="addr:housenumber" v="11213"/><tag k="addr:postcode" v="78754"/></node><node id="-518" lat="30.348409" lon="-97.621267" changeset="false"><tag k="addr:street" v="Dunlop Terrace"/><tag k="addr:housenumber" v="11204"/><tag k="addr:postcode" v="78754"/></node><node id="-519" lat="30.34852" lon="-97.621198" changeset="false"><tag k="addr:street" v="Dunlop Terrace"/><tag k="addr:housenumber" v="11208"/><tag k="addr:postcode" v="78754"/></node><node id="-520" lat="30.348824" lon="-97.620991" changeset="false"><tag k="addr:street" v="Dunlop Terrace"/><tag k="addr:housenumber" v="11220"/><tag k="addr:postcode" v="78754"/></node><node id="-521" lat="30.345453" lon="-97.61976" changeset="false"><tag k="addr:street" v="Ladywell Lane"/><tag k="addr:housenumber" v="6501"/><tag k="addr:postcode" v="78754"/></node><node id="-522" lat="30.345183" lon="-97.619181" changeset="false"><tag k="addr:street" v="Ladywell Lane"/><tag k="addr:housenumber" v="6521"/><tag k="addr:postcode" v="78754"/></node><node id="-523" lat="30.34504" lon="-97.618975" changeset="false"><tag k="addr:street" v="Kirkland Hill Path"/><tag k="addr:housenumber" v="10901"/><tag k="addr:postcode" v="78754"/></node><node id="-524" lat="30.345306" lon="-97.618441" changeset="false"><tag k="addr:street" v="Kirkland Hill Path"/><tag k="addr:housenumber" v="11001"/><tag k="addr:postcode" v="78754"/></node><node id="-525" lat="30.345775" lon="-97.618287" changeset="false"><tag k="addr:street" v="Kirkland Hill Path"/><tag k="addr:housenumber" v="11017"/><tag k="addr:postcode" v="78754"/></node><node id="-526" lat="30.346035" lon="-97.618224" changeset="false"><tag k="addr:street" v="Kirkland Hill Path"/><tag k="addr:housenumber" v="11025"/><tag k="addr:postcode" v="78754"/></node><node id="-527" lat="30.346185" lon="-97.618636" changeset="false"><tag k="addr:street" v="Kirkland Hill Path"/><tag k="addr:housenumber" v="11100"/><tag k="addr:postcode" v="78754"/></node><node id="-528" lat="30.345557" lon="-97.620047" changeset="false"><tag k="addr:street" v="Culzean Drive"/><tag k="addr:housenumber" v="10904"/><tag k="addr:postcode" v="78754"/></node><node id="-529" lat="30.346184" lon="-97.619765" changeset="false"><tag k="addr:street" v="Culzean Drive"/><tag k="addr:housenumber" v="11012"/><tag k="addr:postcode" v="78754"/></node><node id="-530" lat="30.346325" lon="-97.619746" changeset="false"><tag k="addr:street" v="Culzean Drive"/><tag k="addr:housenumber" v="11016"/><tag k="addr:postcode" v="78754"/></node><node id="-531" lat="30.345429" lon="-97.61886" changeset="false"><tag k="addr:street" v="Kirkland Hill Path"/><tag k="addr:housenumber" v="11000"/><tag k="addr:postcode" v="78754"/></node><node id="-532" lat="30.346558" lon="-97.619428" changeset="false"><tag k="addr:street" v="Garden Rose Path"/><tag k="addr:housenumber" v="6508"/><tag k="addr:postcode" v="78754"/></node><node id="-533" lat="30.355898" lon="-97.617693" changeset="false"><tag k="addr:street" v="Magnus Street"/><tag k="addr:housenumber" v="6101"/><tag k="addr:postcode" v="78754"/></node><node id="-534" lat="30.345103" lon="-97.616289" changeset="false"><tag k="addr:street" v="Trevone Path"/><tag k="addr:housenumber" v="6801"/><tag k="addr:postcode" v="78754"/></node><node id="-535" lat="30.356689" lon="-97.617384" changeset="false"><tag k="addr:street" v="Gaelic Court"/><tag k="addr:housenumber" v="6013"/><tag k="addr:postcode" v="78754"/></node><node id="-536" lat="30.346606" lon="-97.61493" changeset="false"><tag k="addr:street" v="Helms Deep Drive"/><tag k="addr:housenumber" v="11108"/><tag k="addr:postcode" v="78754"/></node><node id="-537" lat="30.348053" lon="-97.618948" changeset="false"><tag k="addr:street" v="Kirkland Hill Path"/><tag k="addr:housenumber" v="11232"/><tag k="addr:postcode" v="78754"/></node><node id="-538" lat="30.348323" lon="-97.618558" changeset="false"><tag k="addr:street" v="Kirkland Hill Path"/><tag k="addr:housenumber" v="11237"/><tag k="addr:postcode" v="78754"/></node><node id="-539" lat="30.348515" lon="-97.618756" changeset="false"><tag k="addr:street" v="Kirkland Hill Path"/><tag k="addr:housenumber" v="11305"/><tag k="addr:postcode" v="78754"/></node><node id="-540" lat="30.347603" lon="-97.620693" changeset="false"><tag k="addr:street" v="Minnoch Lane"/><tag k="addr:housenumber" v="6317"/><tag k="addr:postcode" v="78754"/></node><node id="-541" lat="30.347533" lon="-97.620582" changeset="false"><tag k="addr:street" v="Minnoch Lane"/><tag k="addr:housenumber" v="6321"/><tag k="addr:postcode" v="78754"/></node><node id="-542" lat="30.348225" lon="-97.620346" changeset="false"><tag k="addr:street" v="Harlyn Bay Road"/><tag k="addr:housenumber" v="11212"/><tag k="addr:postcode" v="78754"/></node><node id="-543" lat="30.348336" lon="-97.62029" changeset="false"><tag k="addr:street" v="Harlyn Bay Road"/><tag k="addr:housenumber" v="11216"/><tag k="addr:postcode" v="78754"/></node><node id="-544" lat="30.348771" lon="-97.619983" changeset="false"><tag k="addr:street" v="Harlyn Bay Road"/><tag k="addr:housenumber" v="11236"/><tag k="addr:postcode" v="78754"/></node><node id="-545" lat="30.347879" lon="-97.620003" changeset="false"><tag k="addr:street" v="Harlyn Bay Road"/><tag k="addr:housenumber" v="11209"/><tag k="addr:postcode" v="78754"/></node><node id="-546" lat="30.348169" lon="-97.619821" changeset="false"><tag k="addr:street" v="Harlyn Bay Road"/><tag k="addr:housenumber" v="11221"/><tag k="addr:postcode" v="78754"/></node><node id="-547" lat="30.347423" lon="-97.620332" changeset="false"><tag k="addr:street" v="Minnoch Lane"/><tag k="addr:housenumber" v="6405"/><tag k="addr:postcode" v="78754"/></node><node id="-548" lat="30.361022" lon="-97.614728" changeset="false"><tag k="addr:street" v="Gaelic Drive"/><tag k="addr:housenumber" v="12001"/><tag k="addr:postcode" v="78754"/></node><node id="-549" lat="30.35586" lon="-97.617496" changeset="false"><tag k="addr:street" v="Magnus Street"/><tag k="addr:housenumber" v="6105"/><tag k="addr:postcode" v="78754"/></node><node id="-550" lat="30.348289" lon="-97.620769" changeset="false"><tag k="addr:street" v="Dunlop Terrace"/><tag k="addr:housenumber" v="11209"/><tag k="addr:postcode" v="78754"/></node><node id="-551" lat="30.348927" lon="-97.620347" changeset="false"><tag k="addr:street" v="Dunlop Terrace"/><tag k="addr:housenumber" v="11233"/><tag k="addr:postcode" v="78754"/></node><node id="-552" lat="30.348253" lon="-97.622026" changeset="false"><tag k="addr:street" v="Minnoch Lane"/><tag k="addr:housenumber" v="6213"/><tag k="addr:postcode" v="78754"/></node><node id="-553" lat="30.346528" lon="-97.620948" changeset="false"><tag k="addr:street" v="Cairnhill Court"/><tag k="addr:housenumber" v="11016"/><tag k="addr:postcode" v="78754"/></node><node id="-554" lat="30.347231" lon="-97.623038" changeset="false"><tag k="addr:street" v="Kirkoswald Road"/><tag k="addr:housenumber" v="11012"/><tag k="addr:postcode" v="78754"/></node><node id="-555" lat="30.347913" lon="-97.622079" changeset="false"><tag k="addr:street" v="Garden Rose Path"/><tag k="addr:housenumber" v="6200"/><tag k="addr:postcode" v="78754"/></node><node id="-556" lat="30.348011" lon="-97.622173" changeset="false"><tag k="addr:street" v="Kirkoswald Road"/><tag k="addr:housenumber" v="11052"/><tag k="addr:postcode" v="78754"/></node><node id="-557" lat="30.347258" lon="-97.620776" changeset="false"><tag k="addr:street" v="Garden Rose Path"/><tag k="addr:housenumber" v="6320"/><tag k="addr:postcode" v="78754"/></node><node id="-558" lat="30.347037" lon="-97.621306" changeset="false"><tag k="addr:street" v="Garden Rose Path"/><tag k="addr:housenumber" v="6309"/><tag k="addr:postcode" v="78754"/></node><node id="-559" lat="30.347074" lon="-97.620438" changeset="false"><tag k="addr:street" v="Garden Rose Path"/><tag k="addr:housenumber" v="6408"/><tag k="addr:postcode" v="78754"/></node><node id="-560" lat="30.347054" lon="-97.616005" changeset="false"><tag k="addr:street" v="Glebe Path"/><tag k="addr:housenumber" v="6612"/><tag k="addr:postcode" v="78754"/></node><node id="-561" lat="30.346462" lon="-97.615843" changeset="false"><tag k="addr:street" v="Roderick Lawson Lane"/><tag k="addr:housenumber" v="11100"/><tag k="addr:postcode" v="78754"/></node><node id="-562" lat="30.346213" lon="-97.615422" changeset="false"><tag k="addr:street" v="Roderick Lawson Lane"/><tag k="addr:housenumber" v="11017"/><tag k="addr:postcode" v="78754"/></node><node id="-563" lat="30.346008" lon="-97.61507" changeset="false"><tag k="addr:street" v="Helms Deep Drive"/><tag k="addr:housenumber" v="11008"/><tag k="addr:postcode" v="78754"/></node><node id="-564" lat="30.354844" lon="-97.619482" changeset="false"><tag k="addr:street" v="Gaelic Drive"/><tag k="addr:housenumber" v="11509"/><tag k="addr:postcode" v="78754"/></node><node id="-565" lat="30.355435" lon="-97.619721" changeset="false"><tag k="addr:street" v="Gaelic Drive"/><tag k="addr:housenumber" v="11520"/><tag k="addr:postcode" v="78754"/></node><node id="-566" lat="30.355993" lon="-97.619241" changeset="false"><tag k="addr:street" v="Gaelic Drive"/><tag k="addr:housenumber" v="11608"/><tag k="addr:postcode" v="78754"/></node><node id="-567" lat="30.3559" lon="-97.618662" changeset="false"><tag k="addr:street" v="Gaelic Drive"/><tag k="addr:housenumber" v="11617"/><tag k="addr:postcode" v="78754"/></node><node id="-568" lat="30.349693" lon="-97.621047" changeset="false"><tag k="addr:street" v="Kirkland Hill Path"/><tag k="addr:housenumber" v="11521"/><tag k="addr:postcode" v="78754"/></node><node id="-569" lat="30.349542" lon="-97.621546" changeset="false"><tag k="addr:street" v="Kildoon Drive"/><tag k="addr:housenumber" v="11236"/><tag k="addr:postcode" v="78754"/></node><node id="-570" lat="30.348456" lon="-97.621681" changeset="false"><tag k="addr:street" v="Kildoon Drive"/><tag k="addr:housenumber" v="11201"/><tag k="addr:postcode" v="78754"/></node><node id="-571" lat="30.348574" lon="-97.621596" changeset="false"><tag k="addr:street" v="Kildoon Drive"/><tag k="addr:housenumber" v="11205"/><tag k="addr:postcode" v="78754"/></node><node id="-572" lat="30.348727" lon="-97.621071" changeset="false"><tag k="addr:street" v="Dunlop Terrace"/><tag k="addr:housenumber" v="11216"/><tag k="addr:postcode" v="78754"/></node><node id="-573" lat="30.349031" lon="-97.620853" changeset="false"><tag k="addr:street" v="Dunlop Terrace"/><tag k="addr:housenumber" v="11228"/><tag k="addr:postcode" v="78754"/></node><node id="-574" lat="30.345802" lon="-97.619573" changeset="false"><tag k="addr:street" v="Ladywell Lane"/><tag k="addr:housenumber" v="6500"/><tag k="addr:postcode" v="78754"/></node><node id="-575" lat="30.345348" lon="-97.619542" changeset="false"><tag k="addr:street" v="Ladywell Lane"/><tag k="addr:housenumber" v="6509"/><tag k="addr:postcode" v="78754"/></node><node id="-576" lat="30.345295" lon="-97.619438" changeset="false"><tag k="addr:street" v="Ladywell Lane"/><tag k="addr:housenumber" v="6513"/><tag k="addr:postcode" v="78754"/></node><node id="-577" lat="30.345877" lon="-97.618254" changeset="false"><tag k="addr:street" v="Kirkland Hill Path"/><tag k="addr:housenumber" v="11021"/><tag k="addr:postcode" v="78754"/></node><node id="-578" lat="30.346381" lon="-97.618186" changeset="false"><tag k="addr:street" v="Kirkland Hill Path"/><tag k="addr:housenumber" v="11109"/><tag k="addr:postcode" v="78754"/></node><node id="-579" lat="30.346726" lon="-97.618218" changeset="false"><tag k="addr:street" v="Kirkland Hill Path"/><tag k="addr:housenumber" v="11121"/><tag k="addr:postcode" v="78754"/></node><node id="-580" lat="30.346322" lon="-97.618637" changeset="false"><tag k="addr:street" v="Kirkland Hill Path"/><tag k="addr:housenumber" v="11104"/><tag k="addr:postcode" v="78754"/></node><node id="-581" lat="30.346812" lon="-97.618665" changeset="false"><tag k="addr:street" v="Kirkland Hill Path"/><tag k="addr:housenumber" v="11120"/><tag k="addr:postcode" v="78754"/></node><node id="-582" lat="30.346932" lon="-97.618662" changeset="false"><tag k="addr:street" v="Kirkland Hill Path"/><tag k="addr:housenumber" v="11124"/><tag k="addr:postcode" v="78754"/></node><node id="-583" lat="30.345683" lon="-97.618772" changeset="false"><tag k="addr:street" v="Kirkland Hill Path"/><tag k="addr:housenumber" v="11008"/><tag k="addr:postcode" v="78754"/></node><node id="-584" lat="30.346512" lon="-97.619304" changeset="false"><tag k="addr:street" v="Garden Rose Path"/><tag k="addr:housenumber" v="6512"/><tag k="addr:postcode" v="78754"/></node><node id="-585" lat="30.345999" lon="-97.619265" changeset="false"><tag k="addr:street" v="Garden Rose Path"/><tag k="addr:housenumber" v="6605"/><tag k="addr:postcode" v="78754"/></node><node id="-586" lat="30.345941" lon="-97.619133" changeset="false"><tag k="addr:street" v="Garden Rose Path"/><tag k="addr:housenumber" v="6609"/><tag k="addr:postcode" v="78754"/></node><node id="-587" lat="30.357484" lon="-97.616983" changeset="false"><tag k="addr:street" v="Gaelic Drive"/><tag k="addr:housenumber" v="11801"/><tag k="addr:postcode" v="78754"/></node><node id="-588" lat="30.360223" lon="-97.615259" changeset="false"><tag k="addr:street" v="Gaelic Drive"/><tag k="addr:housenumber" v="11933"/><tag k="addr:postcode" v="78754"/></node><node id="-589" lat="30.344863" lon="-97.615804" changeset="false"><tag k="addr:street" v="Trevone Path"/><tag k="addr:housenumber" v="6817"/><tag k="addr:postcode" v="78754"/></node><node id="-590" lat="30.344686" lon="-97.615489" changeset="false"><tag k="addr:street" v="Trevone Path"/><tag k="addr:housenumber" v="6825"/><tag k="addr:postcode" v="78754"/></node><node id="-591" lat="30.344847" lon="-97.615256" changeset="false"><tag k="addr:street" v="Trevone Path"/><tag k="addr:housenumber" v="6833"/><tag k="addr:postcode" v="78754"/></node><node id="-592" lat="30.331905" lon="-97.625508" changeset="false"><tag k="addr:street" v="Reservoir Court"/><tag k="addr:housenumber" v="9704"/><tag k="addr:postcode" v="78754"/></node><node id="-593" lat="30.347288" lon="-97.618753" changeset="false"><tag k="addr:street" v="Kirkland Hill Path"/><tag k="addr:housenumber" v="11204"/><tag k="addr:postcode" v="78754"/></node><node id="-594" lat="30.347648" lon="-97.618835" changeset="false"><tag k="addr:street" v="Kirkland Hill Path"/><tag k="addr:housenumber" v="11216"/><tag k="addr:postcode" v="78754"/></node><node id="-595" lat="30.348126" lon="-97.620417" changeset="false"><tag k="addr:street" v="Harlyn Bay Road"/><tag k="addr:housenumber" v="11208"/><tag k="addr:postcode" v="78754"/></node><node id="-596" lat="30.348546" lon="-97.620138" changeset="false"><tag k="addr:street" v="Harlyn Bay Road"/><tag k="addr:housenumber" v="11228"/><tag k="addr:postcode" v="78754"/></node><node id="-597" lat="30.348652" lon="-97.620078" changeset="false"><tag k="addr:street" v="Harlyn Bay Road"/><tag k="addr:housenumber" v="11232"/><tag k="addr:postcode" v="78754"/></node><node id="-598" lat="30.34779" lon="-97.620072" changeset="false"><tag k="addr:street" v="Harlyn Bay Road"/><tag k="addr:housenumber" v="11205"/><tag k="addr:postcode" v="78754"/></node><node id="-599" lat="30.348075" lon="-97.619882" changeset="false"><tag k="addr:street" v="Harlyn Bay Road"/><tag k="addr:housenumber" v="11217"/><tag k="addr:postcode" v="78754"/></node><node id="-600" lat="30.3472" lon="-97.619868" changeset="false"><tag k="addr:street" v="Minnoch Lane"/><tag k="addr:housenumber" v="6421"/><tag k="addr:postcode" v="78754"/></node><node id="-601" lat="30.349117" lon="-97.619929" changeset="false"><tag k="addr:street" v="Kirkland Hill Path"/><tag k="addr:housenumber" v="11409"/><tag k="addr:postcode" v="78754"/></node><node id="-602" lat="30.34596" lon="-97.614691" changeset="false"><tag k="addr:street" v="Helms Deep Drive"/><tag k="addr:housenumber" v="11013"/><tag k="addr:postcode" v="78754"/></node><node id="-603" lat="30.346282" lon="-97.614575" changeset="false"><tag k="addr:street" v="Helms Deep Drive"/><tag k="addr:housenumber" v="11025"/><tag k="addr:postcode" v="78754"/></node><node id="-604" lat="30.381433" lon="-97.605712" changeset="false"><tag k="addr:street" v="Cameron Road"/><tag k="addr:housenumber" v="13015 1/2"/><tag k="addr:postcode" v="78653"/></node><node id="-605" lat="30.389736" lon="-97.583698" changeset="false"><tag k="addr:street" v="Lee Manor Cove"/><tag k="addr:housenumber" v="6817"/><tag k="addr:postcode" v="78653"/></node><node id="-606" lat="30.346366" lon="-97.614947" changeset="false"><tag k="addr:street" v="Helms Deep Drive"/><tag k="addr:housenumber" v="11100"/><tag k="addr:postcode" v="78754"/></node><node id="-607" lat="30.346483" lon="-97.614931" changeset="false"><tag k="addr:street" v="Helms Deep Drive"/><tag k="addr:housenumber" v="11104"/><tag k="addr:postcode" v="78754"/></node><node id="-608" lat="30.348373" lon="-97.622256" changeset="false"><tag k="addr:street" v="Minnoch Lane"/><tag k="addr:housenumber" v="6205"/><tag k="addr:postcode" v="78754"/></node><node id="-609" lat="30.34608" lon="-97.620625" changeset="false"><tag k="addr:street" v="Cairnhill Court"/><tag k="addr:housenumber" v="11009"/><tag k="addr:postcode" v="78754"/></node><node id="-610" lat="30.346941" lon="-97.623214" changeset="false"><tag k="addr:street" v="Kirkoswald Road"/><tag k="addr:housenumber" v="11000"/><tag k="addr:postcode" v="78754"/></node><node id="-611" lat="30.347787" lon="-97.622673" changeset="false"><tag k="addr:street" v="Kirkoswald Road"/><tag k="addr:housenumber" v="11036"/><tag k="addr:postcode" v="78754"/></node><node id="-612" lat="30.346777" lon="-97.622777" changeset="false"><tag k="addr:street" v="Kirkoswald Road"/><tag k="addr:housenumber" v="11001"/><tag k="addr:postcode" v="78754"/></node><node id="-613" lat="30.347252" lon="-97.62166" changeset="false"><tag k="addr:street" v="Garden Rose Path"/><tag k="addr:housenumber" v="6225"/><tag k="addr:postcode" v="78754"/></node><node id="-614" lat="30.347794" lon="-97.621862" changeset="false"><tag k="addr:street" v="Garden Rose Path"/><tag k="addr:housenumber" v="6208"/><tag k="addr:postcode" v="78754"/></node><node id="-615" lat="30.347741" lon="-97.621751" changeset="false"><tag k="addr:street" v="Garden Rose Path"/><tag k="addr:housenumber" v="6212"/><tag k="addr:postcode" v="78754"/></node><node id="-616" lat="30.347415" lon="-97.621124" changeset="false"><tag k="addr:street" v="Garden Rose Path"/><tag k="addr:housenumber" v="6308"/><tag k="addr:postcode" v="78754"/></node><node id="-617" lat="30.34692" lon="-97.621089" changeset="false"><tag k="addr:street" v="Garden Rose Path"/><tag k="addr:housenumber" v="6317"/><tag k="addr:postcode" v="78754"/></node><node id="-618" lat="30.369435" lon="-97.613754" changeset="false"><tag k="addr:street" v="Harris Branch Parkway"/><tag k="addr:housenumber" v="12300"/><tag k="addr:postcode" v="78653"/></node><node id="-619" lat="30.348783" lon="-97.616321" changeset="false"><tag k="addr:street" v="Drumellan Street"/><tag k="addr:housenumber" v="11325"/><tag k="addr:postcode" v="78754"/></node><node id="-620" lat="30.345151" lon="-97.615086" changeset="false"><tag k="addr:street" v="Helms Deep Drive"/><tag k="addr:housenumber" v="10909"/><tag k="addr:postcode" v="78754"/></node><node id="-621" lat="30.345347" lon="-97.615523" changeset="false"><tag k="addr:street" v="Helms Deep Drive"/><tag k="addr:housenumber" v="10908"/><tag k="addr:postcode" v="78754"/></node><node id="-622" lat="30.34554" lon="-97.615396" changeset="false"><tag k="addr:street" v="Helms Deep Drive"/><tag k="addr:housenumber" v="10916"/><tag k="addr:postcode" v="78754"/></node><node id="-623" lat="30.345627" lon="-97.615328" changeset="false"><tag k="addr:street" v="Helms Deep Drive"/><tag k="addr:housenumber" v="10920"/><tag k="addr:postcode" v="78754"/></node><node id="-624" lat="30.344766" lon="-97.616843" changeset="false"><tag k="addr:street" v="Roderick Lawson Lane"/><tag k="addr:housenumber" v="10905"/><tag k="addr:postcode" v="78754"/></node><node id="-625" lat="30.344833" lon="-97.616591" changeset="false"><tag k="addr:street" v="Roderick Lawson Lane"/><tag k="addr:housenumber" v="10909"/><tag k="addr:postcode" v="78754"/></node><node id="-626" lat="30.345484" lon="-97.616451" changeset="false"><tag k="addr:street" v="Roderick Lawson Lane"/><tag k="addr:housenumber" v="10920"/><tag k="addr:postcode" v="78754"/></node><node id="-627" lat="30.34623" lon="-97.616598" changeset="false"><tag k="addr:street" v="Crosne Street"/><tag k="addr:housenumber" v="6712"/><tag k="addr:postcode" v="78754"/></node><node id="-628" lat="30.348342" lon="-97.617784" changeset="false"><tag k="addr:street" v="Barns Trail"/><tag k="addr:housenumber" v="11312"/><tag k="addr:postcode" v="78754"/></node><node id="-629" lat="30.34856" lon="-97.617815" changeset="false"><tag k="addr:street" v="Barns Trail"/><tag k="addr:housenumber" v="11320"/><tag k="addr:postcode" v="78754"/></node><node id="-630" lat="30.347519" lon="-97.617218" changeset="false"><tag k="addr:street" v="Barns Trail"/><tag k="addr:housenumber" v="11205"/><tag k="addr:postcode" v="78754"/></node><node id="-631" lat="30.347668" lon="-97.614396" changeset="false"><tag k="addr:street" v="Kincraig Court"/><tag k="addr:housenumber" v="11305"/><tag k="addr:postcode" v="78754"/></node><node id="-632" lat="30.347956" lon="-97.614505" changeset="false"><tag k="addr:street" v="Kincraig Court"/><tag k="addr:housenumber" v="11313"/><tag k="addr:postcode" v="78754"/></node><node id="-633" lat="30.347905" lon="-97.617721" changeset="false"><tag k="addr:street" v="Barns Trail"/><tag k="addr:housenumber" v="11220"/><tag k="addr:postcode" v="78754"/></node><node id="-634" lat="30.348061" lon="-97.617301" changeset="false"><tag k="addr:street" v="Barns Trail"/><tag k="addr:housenumber" v="11301"/><tag k="addr:postcode" v="78754"/></node><node id="-635" lat="30.346959" lon="-97.616899" changeset="false"><tag k="addr:street" v="Glebe Path"/><tag k="addr:housenumber" v="6508"/><tag k="addr:postcode" v="78754"/></node><node id="-636" lat="30.389845" lon="-97.584259" changeset="false"><tag k="addr:street" v="Lee Manor Cove"/><tag k="addr:housenumber" v="6809"/><tag k="addr:postcode" v="78653"/></node><node id="-637" lat="30.35666" lon="-97.618207" changeset="false"><tag k="addr:street" v="Magnus Street"/><tag k="addr:housenumber" v="6000"/><tag k="addr:postcode" v="78754"/></node><node id="-638" lat="30.370807" lon="-97.611361" changeset="false"><tag k="addr:street" v="Silicon Drive"/><tag k="addr:housenumber" v="5811"/><tag k="addr:postcode" v="78653"/></node><node id="-639" lat="30.364868" lon="-97.612653" changeset="false"><tag k="addr:street" v="Boyce Lane"/><tag k="addr:housenumber" v="5904"/><tag k="addr:postcode" v="78653"/></node><node id="-640" lat="30.337522" lon="-97.602921" changeset="false"><tag k="addr:street" v="Blue Goose Road"/><tag k="addr:housenumber" v="8110"/><tag k="addr:postcode" v="78653"/></node><node id="-641" lat="30.344266" lon="-97.613909" changeset="false"><tag k="addr:street" v="Harris Branch Parkway"/><tag k="addr:housenumber" v="11012"/><tag k="addr:postcode" v="78754"/></node><node id="-642" lat="30.331989" lon="-97.624735" changeset="false"><tag k="addr:street" v="Reservoir Court"/><tag k="addr:housenumber" v="9705"/><tag k="addr:postcode" v="78754"/></node><node id="-643" lat="30.355083" lon="-97.635731" changeset="false"><tag k="addr:street" v="Cameron Road"/><tag k="addr:housenumber" v="11105"/><tag k="addr:postcode" v="78754"/></node><node id="-644" lat="30.346239" lon="-97.614975" changeset="false"><tag k="addr:street" v="Helms Deep Drive"/><tag k="addr:housenumber" v="11020"/><tag k="addr:postcode" v="78754"/></node><node id="-645" lat="30.346982" lon="-97.614453" changeset="false"><tag k="addr:street" v="Helms Deep Drive"/><tag k="addr:housenumber" v="11121"/><tag k="addr:postcode" v="78754"/></node><node id="-646" lat="30.345851" lon="-97.612443" changeset="false"><tag k="addr:street" v="Amaranth Lane"/><tag k="addr:housenumber" v="11212"/><tag k="addr:postcode" v="78754"/></node><node id="-647" lat="30.335389" lon="-97.607479" changeset="false"><tag k="addr:street" v="Harris Branch Parkway"/><tag k="addr:housenumber" v="10603"/><tag k="addr:postcode" v="78653"/></node><node id="-648" lat="30.350943" lon="-97.613748" changeset="false"><tag k="addr:street" v="Ashprington Lane"/><tag k="addr:housenumber" v="6607"/><tag k="addr:postcode" v="78754"/></node><node id="-649" lat="30.390951" lon="-97.582662" changeset="false"><tag k="addr:street" v="Lee Manor Cove"/><tag k="addr:housenumber" v="6900"/><tag k="addr:postcode" v="78653"/></node><node id="-650" lat="30.34618" lon="-97.609698" changeset="false"><tag k="addr:street" v="Avering Lane"/><tag k="addr:housenumber" v="11304"/><tag k="addr:postcode" v="78754"/></node><node id="-651" lat="30.351208" lon="-97.618627" changeset="false"><tag k="addr:street" v="Farmhaven Road"/><tag k="addr:housenumber" v="11316"/><tag k="addr:postcode" v="78754"/></node><node id="-652" lat="30.39056" lon="-97.585116" changeset="false"><tag k="addr:street" v="Gregg Manor Road"/><tag k="addr:housenumber" v="14300"/><tag k="addr:postcode" v="78653"/></node><node id="-653" lat="30.331466" lon="-97.625874" changeset="false"><tag k="addr:street" v="Reservoir Court"/><tag k="addr:housenumber" v="9700"/><tag k="addr:postcode" v="78754"/></node><node id="-654" lat="30.36452" lon="-97.611625" changeset="false"><tag k="addr:street" v="Kelton Drive"/><tag k="addr:housenumber" v="12205"/><tag k="addr:postcode" v="78653"/></node><node id="-655" lat="30.361942" lon="-97.610791" changeset="false"><tag k="addr:street" v="Kilmartin Lane"/><tag k="addr:housenumber" v="12024"/><tag k="addr:postcode" v="78653"/></node><node id="-656" lat="30.349562" lon="-97.629766" changeset="false"><tag k="addr:street" v="Blue Goose Road"/><tag k="addr:housenumber" v="5517"/><tag k="addr:postcode" v="78754"/></node><node id="-657" lat="30.352337" lon="-97.63929" changeset="false"><tag k="addr:street" v="Cameron Road"/><tag k="addr:housenumber" v="10805"/><tag k="addr:postcode" v="78754"/></node><node id="-658" lat="30.344732" lon="-97.610478" changeset="false"><tag k="addr:street" v="Mumruffin Lane"/><tag k="addr:housenumber" v="7121"/><tag k="addr:postcode" v="78754"/></node><node id="-659" lat="30.345268" lon="-97.609163" changeset="false"><tag k="addr:street" v="Avering Lane"/><tag k="addr:housenumber" v="11229"/><tag k="addr:postcode" v="78754"/></node><node id="-660" lat="30.335556" lon="-97.607164" changeset="false"><tag k="addr:street" v="US Highway 290"/><tag k="addr:housenumber" v="9806"/><tag k="addr:postcode" v="78653"/></node><node id="-661" lat="30.365914" lon="-97.613069" changeset="false"><tag k="addr:street" v="Speyside Drive"/><tag k="addr:housenumber" v="5800"/><tag k="addr:postcode" v="78653"/></node><node id="-662" lat="30.389809" lon="-97.583044" changeset="false"><tag k="addr:street" v="Lee Manor Cove"/><tag k="addr:housenumber" v="6901"/><tag k="addr:postcode" v="78653"/></node><node id="-663" lat="30.38892" lon="-97.582116" changeset="false"><tag k="addr:street" v="Lee Manor Cove"/><tag k="addr:housenumber" v="6923"/><tag k="addr:postcode" v="78653"/></node><node id="-664" lat="30.34063" lon="-97.6087" changeset="false"><tag k="addr:street" v="Blue Goose Road"/><tag k="addr:housenumber" v="7600"/><tag k="addr:postcode" v="78653"/></node><node id="-665" lat="30.344859" lon="-97.612186" changeset="false"><tag k="addr:street" v="Amaranth Lane"/><tag k="addr:housenumber" v="11200"/><tag k="addr:postcode" v="78754"/></node><node id="-666" lat="30.34477" lon="-97.610704" changeset="false"><tag k="addr:street" v="Mumruffin Lane"/><tag k="addr:housenumber" v="7117"/><tag k="addr:postcode" v="78754"/></node><node id="-667" lat="30.357767" lon="-97.612787" changeset="false"><tag k="addr:street" v="Rydalwater Lane"/><tag k="addr:housenumber" v="11802"/><tag k="addr:postcode" v="78754"/></node><node id="-668" lat="30.353941" lon="-97.608674" changeset="false"><tag k="addr:street" v="Farmhaven Road"/><tag k="addr:housenumber" v="11815"/><tag k="addr:postcode" v="78653"/></node><node id="-669" lat="30.345263" lon="-97.612336" changeset="false"><tag k="addr:street" v="Amaranth Lane"/><tag k="addr:housenumber" v="11204"/><tag k="addr:postcode" v="78754"/></node><node id="-670" lat="30.33887" lon="-97.619359" changeset="false"><tag k="addr:street" v="Giles Lane"/><tag k="addr:housenumber" v="10200"/><tag k="addr:postcode" v="78754"/></node><node id="-671" lat="30.384593" lon="-97.601132" changeset="false"><tag k="addr:street" v="Cameron Road"/><tag k="addr:housenumber" v="13405"/><tag k="addr:postcode" v="78653"/></node><node id="-672" lat="30.344321" lon="-97.610243" changeset="false"><tag k="addr:street" v="Whifflewind Way"/><tag k="addr:housenumber" v="7120"/><tag k="addr:postcode" v="78754"/></node><node id="-673" lat="30.349725" lon="-97.610833" changeset="false"><tag k="addr:street" v="Tam Court"/><tag k="addr:housenumber" v="6900"/><tag k="addr:postcode" v="78754"/></node><node id="-674" lat="30.352447" lon="-97.594095" changeset="false"><tag k="addr:street" v="East Parmer Lane"/><tag k="addr:housenumber" v="8009"/><tag k="addr:postcode" v="78653"/></node><node id="-675" lat="30.336879" lon="-97.60876" changeset="false"><tag k="addr:street" v="Harris Branch Parkway"/><tag k="addr:housenumber" v="10700"/><tag k="addr:postcode" v="78754"/></node><node id="-676" lat="30.364332" lon="-97.620809" changeset="false"><tag k="addr:street" v="Cameron Road"/><tag k="addr:housenumber" v="12047"/><tag k="addr:postcode" v="78754"/></node><node id="-677" lat="30.345631" lon="-97.630743" changeset="false"><tag k="addr:street" v="Blue Goose Road"/><tag k="addr:housenumber" v="5601"/><tag k="addr:postcode" v="78754"/></node><node id="-678" lat="30.354443" lon="-97.608382" changeset="false"><tag k="addr:street" v="Farmhaven Road"/><tag k="addr:housenumber" v="11819"/><tag k="addr:postcode" v="78653"/></node><node id="-679" lat="30.347091" lon="-97.614621" changeset="false"><tag k="addr:street" v="Helms Deep Drive"/><tag k="addr:housenumber" v="11125"/><tag k="addr:postcode" v="78754"/></node><node id="-680" lat="30.346448" lon="-97.611288" changeset="false"><tag k="addr:street" v="Muckender Lane"/><tag k="addr:housenumber" v="7011"/><tag k="addr:postcode" v="78754"/></node><node id="-681" lat="30.346373" lon="-97.611679" changeset="false"><tag k="addr:street" v="Muckender Lane"/><tag k="addr:housenumber" v="7005"/><tag k="addr:postcode" v="78754"/></node><node id="-682" lat="30.345858" lon="-97.609797" changeset="false"><tag k="addr:street" v="Dagon Drive"/><tag k="addr:housenumber" v="7116"/><tag k="addr:postcode" v="78754"/></node><node id="-683" lat="30.348557" lon="-97.612265" changeset="false"><tag k="addr:street" v="Celtic Court"/><tag k="addr:housenumber" v="6913"/><tag k="addr:postcode" v="78754"/></node><node id="-684" lat="30.347462" lon="-97.616755" changeset="false"><tag k="addr:street" v="Drumellan Street"/><tag k="addr:housenumber" v="11200"/><tag k="addr:postcode" v="78754"/></node><node id="-685" lat="30.341788" lon="-97.616599" changeset="false"><tag k="addr:street" v="Giles Lane"/><tag k="addr:housenumber" v="10701 1/2"/><tag k="addr:postcode" v="78754"/></node><node id="-686" lat="30.356837" lon="-97.617169" changeset="false"><tag k="addr:street" v="Gaelic Court"/><tag k="addr:housenumber" v="6017"/><tag k="addr:postcode" v="78754"/></node><node id="-687" lat="30.369071" lon="-97.613325" changeset="false"><tag k="addr:street" v="Harris Branch Parkway"/><tag k="addr:housenumber" v="12300 1/2"/><tag k="addr:postcode" v="78653"/></node><node id="-688" lat="30.371745" lon="-97.612023" changeset="false"><tag k="addr:street" v="Harris Branch Parkway"/><tag k="addr:housenumber" v="12345 1/2"/><tag k="addr:postcode" v="78653"/></node><node id="-689" lat="30.353134" lon="-97.610945" changeset="false"><tag k="addr:street" v="Cromarty Lane"/><tag k="addr:housenumber" v="6701"/><tag k="addr:postcode" v="78754"/></node><node id="-690" lat="30.348192" lon="-97.608801" changeset="false"><tag k="addr:street" v="Glen Falloch Court"/><tag k="addr:housenumber" v="11437"/><tag k="addr:postcode" v="78754"/></node></osm>