<?xml version="1.0" encoding="UTF-8"?><osm version="0.6" generator="github.com/aaronlidman/osm-and-geojson"><node id="-1" lat="30.267417" lon="-97.683005" changeset="false"><tag k="addr:street" v="Prock Lane"/><tag k="addr:housenumber" v="5409"/><tag k="addr:postcode" v="78721"/></node><node id="-2" lat="30.270709" lon="-97.685517" changeset="false"><tag k="addr:street" v="Richardine Avenue"/><tag k="addr:housenumber" v="1137"/><tag k="addr:postcode" v="78721"/></node><node id="-3" lat="30.272372" lon="-97.687038" changeset="false"><tag k="addr:street" v="Ledesma Road"/><tag k="addr:housenumber" v="4911"/><tag k="addr:postcode" v="78721"/></node><node id="-4" lat="30.268755" lon="-97.688003" changeset="false"><tag k="addr:street" v="Berger Street"/><tag k="addr:housenumber" v="1101"/><tag k="addr:postcode" v="78721"/></node><node id="-5" lat="30.269197" lon="-97.683471" changeset="false"><tag k="addr:street" v="Chico Street"/><tag k="addr:housenumber" v="5308"/><tag k="addr:postcode" v="78721"/></node><node id="-6" lat="30.269301" lon="-97.688072" changeset="false"><tag k="addr:street" v="Berger Street"/><tag k="addr:housenumber" v="1106"/><tag k="addr:postcode" v="78721"/></node><node id="-7" lat="30.269074" lon="-97.686635" changeset="false"><tag k="addr:street" v="Ebert Avenue"/><tag k="addr:housenumber" v="1121"/><tag k="addr:postcode" v="78721"/></node><node id="-8" lat="30.267365" lon="-97.684322" changeset="false"><tag k="addr:street" v="Prock Lane"/><tag k="addr:housenumber" v="5307"/><tag k="addr:postcode" v="78721"/></node><node id="-9" lat="30.267164" lon="-97.683863" changeset="false"><tag k="addr:street" v="Lott Avenue"/><tag k="addr:housenumber" v="947"/><tag k="addr:postcode" v="78721"/></node><node id="-10" lat="30.266961" lon="-97.684347" changeset="false"><tag k="addr:street" v="Lott Avenue"/><tag k="addr:housenumber" v="942 1/2"/><tag k="addr:postcode" v="78721"/></node><node id="-11" lat="30.267769" lon="-97.686722" changeset="false"><tag k="addr:street" v="Ebert Avenue"/><tag k="addr:housenumber" v="1103"/><tag k="addr:postcode" v="78721"/></node><node id="-12" lat="30.268062" lon="-97.687172" changeset="false"><tag k="addr:street" v="Ebert Avenue"/><tag k="addr:housenumber" v="1102"/><tag k="addr:postcode" v="78721"/></node><node id="-13" lat="30.269493" lon="-97.682239" changeset="false"><tag k="addr:street" v="Lott Avenue"/><tag k="addr:housenumber" v="1031"/><tag k="addr:postcode" v="78721"/></node><node id="-14" lat="30.267052" lon="-97.686415" changeset="false"><tag k="addr:street" v="Sara Drive"/><tag k="addr:housenumber" v="5116"/><tag k="addr:postcode" v="78721"/></node><node id="-15" lat="30.268843" lon="-97.687687" changeset="false"><tag k="addr:street" v="Berger Street"/><tag k="addr:housenumber" v="1103"/><tag k="addr:postcode" v="78721"/></node><node id="-16" lat="30.268163" lon="-97.681557" changeset="false"><tag k="addr:street" v="Christie Drive"/><tag k="addr:housenumber" v="1108"/><tag k="addr:postcode" v="78721"/></node><node id="-17" lat="30.26846" lon="-97.68237" changeset="false"><tag k="addr:street" v="Omega Avenue"/><tag k="addr:housenumber" v="1110"/><tag k="addr:postcode" v="78721"/></node><node id="-18" lat="30.268353" lon="-97.680217" changeset="false"><tag k="addr:street" v="Terry Drive"/><tag k="addr:housenumber" v="1118"/><tag k="addr:postcode" v="78721"/></node><node id="-19" lat="30.267253" lon="-97.682276" changeset="false"><tag k="addr:street" v="Prock Lane"/><tag k="addr:housenumber" v="5507"/><tag k="addr:postcode" v="78721"/></node><node id="-20" lat="30.267357" lon="-97.684491" changeset="false"><tag k="addr:street" v="Prock Lane"/><tag k="addr:housenumber" v="5305"/><tag k="addr:postcode" v="78721"/></node><node id="-21" lat="30.266912" lon="-97.686298" changeset="false"><tag k="addr:street" v="Sara Drive"/><tag k="addr:housenumber" v="5118"/><tag k="addr:postcode" v="78721"/></node><node id="-22" lat="30.270254" lon="-97.687944" changeset="false"><tag k="addr:street" v="Dewey Street"/><tag k="addr:housenumber" v="4907"/><tag k="addr:postcode" v="78721"/></node><node id="-23" lat="30.267439" lon="-97.682847" changeset="false"><tag k="addr:street" v="Prock Lane"/><tag k="addr:housenumber" v="5411"/><tag k="addr:postcode" v="78721"/></node><node id="-24" lat="30.270479" lon="-97.687276" changeset="false"><tag k="addr:street" v="Berger Street"/><tag k="addr:housenumber" v="1127"/><tag k="addr:postcode" v="78721"/></node><node id="-25" lat="30.27154" lon="-97.689242" changeset="false"><tag k="addr:street" v="Mark Street"/><tag k="addr:housenumber" v="1124"/><tag k="addr:postcode" v="78721"/></node><node id="-26" lat="30.270951" lon="-97.683763" changeset="false"><tag k="addr:street" v="Ledesma Road"/><tag k="addr:housenumber" v="5221"/><tag k="addr:postcode" v="78721"/></node><node id="-27" lat="30.271401" lon="-97.686404" changeset="false"><tag k="addr:street" v="Ebert Avenue"/><tag k="addr:housenumber" v="1155"/><tag k="addr:postcode" v="78721"/></node><node id="-28" lat="30.270774" lon="-97.689997" changeset="false"><tag k="addr:street" v="Sara Drive"/><tag k="addr:housenumber" v="4709"/><tag k="addr:postcode" v="78721"/></node><node id="-29" lat="30.268087" lon="-97.684509" changeset="false"><tag k="addr:street" v="Estes Avenue"/><tag k="addr:housenumber" v="1107"/><tag k="addr:postcode" v="78721"/></node><node id="-30" lat="30.267881" lon="-97.681496" changeset="false"><tag k="addr:street" v="Christie Drive"/><tag k="addr:housenumber" v="1104"/><tag k="addr:postcode" v="78721"/></node><node id="-31" lat="30.267765" lon="-97.680545" changeset="false"><tag k="addr:street" v="Terry Drive"/><tag k="addr:housenumber" v="1110"/><tag k="addr:postcode" v="78721"/></node><node id="-32" lat="30.273751" lon="-97.689983" changeset="false"><tag k="addr:street" v="Springdale Road"/><tag k="addr:housenumber" v="1105"/><tag k="addr:postcode" v="78721"/></node><node id="-33" lat="30.26729" lon="-97.686059" changeset="false"><tag k="addr:street" v="Prock Lane"/><tag k="addr:housenumber" v="5109"/><tag k="addr:postcode" v="78721"/></node><node id="-34" lat="30.272523" lon="-97.690154" changeset="false"><tag k="addr:street" v="Map Street"/><tag k="addr:housenumber" v="1131"/><tag k="addr:postcode" v="78721"/></node><node id="-35" lat="30.269678" lon="-97.685245" changeset="false"><tag k="addr:street" v="Garland Avenue"/><tag k="addr:housenumber" v="1122"/><tag k="addr:postcode" v="78721"/></node><node id="-36" lat="30.268313" lon="-97.683073" changeset="false"><tag k="addr:street" v="Lott Avenue"/><tag k="addr:housenumber" v="1011"/><tag k="addr:postcode" v="78721"/></node><node id="-37" lat="30.272612" lon="-97.687808" changeset="false"><tag k="addr:street" v="Ledesma Road"/><tag k="addr:housenumber" v="4901"/><tag k="addr:postcode" v="78721"/></node><node id="-38" lat="30.267555" lon="-97.680737" changeset="false"><tag k="addr:street" v="Tura Lane"/><tag k="addr:housenumber" v="5609"/><tag k="addr:postcode" v="78721"/></node><node id="-39" lat="30.273589" lon="-97.689768" changeset="false"><tag k="addr:street" v="Ledesma Road"/><tag k="addr:housenumber" v="4607"/><tag k="addr:postcode" v="78721"/></node><node id="-40" lat="30.270837" lon="-97.68703" changeset="false"><tag k="addr:street" v="Berger Street"/><tag k="addr:housenumber" v="1133"/><tag k="addr:postcode" v="78721"/></node><node id="-41" lat="30.272787" lon="-97.690205" changeset="false"><tag k="addr:street" v="Tanney Street"/><tag k="addr:housenumber" v="4605"/><tag k="addr:postcode" v="78721"/></node><node id="-42" lat="30.269893" lon="-97.684597" changeset="false"><tag k="addr:street" v="Garland Avenue"/><tag k="addr:housenumber" v="1135"/><tag k="addr:postcode" v="78721"/></node><node id="-43" lat="30.272545" lon="-97.687457" changeset="false"><tag k="addr:street" v="Ledesma Road"/><tag k="addr:housenumber" v="4905"/><tag k="addr:postcode" v="78721"/></node><node id="-44" lat="30.271967" lon="-97.690469" changeset="false"><tag k="addr:street" v="Map Street"/><tag k="addr:housenumber" v="1123"/><tag k="addr:postcode" v="78721"/></node><node id="-45" lat="30.271986" lon="-97.688987" changeset="false"><tag k="addr:street" v="Mark Street"/><tag k="addr:housenumber" v="1130"/><tag k="addr:postcode" v="78721"/></node><node id="-46" lat="30.26879" lon="-97.684072" changeset="false"><tag k="addr:street" v="Estes Avenue"/><tag k="addr:housenumber" v="1119"/><tag k="addr:postcode" v="78721"/></node><node id="-47" lat="30.26728" lon="-97.685685" changeset="false"><tag k="addr:street" v="Prock Lane"/><tag k="addr:housenumber" v="5203"/><tag k="addr:postcode" v="78721"/></node><node id="-48" lat="30.271127" lon="-97.687349" changeset="false"><tag k="addr:street" v="Berger Street"/><tag k="addr:housenumber" v="1128"/><tag k="addr:postcode" v="78721"/></node><node id="-49" lat="30.2672" lon="-97.680098" changeset="false"><tag k="addr:street" v="Tura Lane"/><tag k="addr:housenumber" v="5705"/><tag k="addr:postcode" v="78721"/></node><node id="-50" lat="30.267264" lon="-97.680232" changeset="false"><tag k="addr:street" v="Tura Lane"/><tag k="addr:housenumber" v="5703"/><tag k="addr:postcode" v="78721"/></node><node id="-51" lat="30.270471" lon="-97.686897" changeset="false"><tag k="addr:street" v="Ebert Avenue"/><tag k="addr:housenumber" v="1134"/><tag k="addr:postcode" v="78721"/></node><node id="-52" lat="30.270353" lon="-97.686897" changeset="false"><tag k="addr:street" v="Ebert Avenue"/><tag k="addr:housenumber" v="1132"/><tag k="addr:postcode" v="78721"/></node><node id="-53" lat="30.269747" lon="-97.686959" changeset="false"><tag k="addr:street" v="Ebert Avenue"/><tag k="addr:housenumber" v="1130"/><tag k="addr:postcode" v="78721"/></node><node id="-54" lat="30.269763" lon="-97.686979" changeset="false"><tag k="addr:street" v="Ebert Avenue"/><tag k="addr:housenumber" v="1124"/><tag k="addr:postcode" v="78721"/></node></osm>