<?xml version="1.0" encoding="UTF-8"?><osm version="0.6" generator="github.com/aaronlidman/osm-and-geojson"><node id="-1" lat="30.280023" lon="-97.497499" changeset="false"><tag k="addr:street" v="Ed Acklin Road"/><tag k="addr:housenumber" v="20206"/><tag k="addr:postcode" v="78653"/></node><node id="-2" lat="30.278475" lon="-97.488455" changeset="false"><tag k="addr:street" v="Liveoak Lane"/><tag k="addr:housenumber" v="20806"/><tag k="addr:postcode" v="78653"/></node><node id="-3" lat="30.278239" lon="-97.489288" changeset="false"><tag k="addr:street" v="Liveoak Lane"/><tag k="addr:housenumber" v="20801"/><tag k="addr:postcode" v="78653"/></node><node id="-4" lat="30.278195" lon="-97.490189" changeset="false"><tag k="addr:street" v="Postoak Parkway"/><tag k="addr:housenumber" v="20700"/><tag k="addr:postcode" v="78653"/></node><node id="-5" lat="30.283815" lon="-97.487758" changeset="false"><tag k="addr:street" v="Trappers Trail"/><tag k="addr:housenumber" v="20812"/><tag k="addr:postcode" v="78653"/></node><node id="-6" lat="30.283634" lon="-97.486564" changeset="false"><tag k="addr:street" v="Trappers Trail"/><tag k="addr:housenumber" v="20900"/><tag k="addr:postcode" v="78653"/></node><node id="-7" lat="30.281896" lon="-97.490276" changeset="false"><tag k="addr:street" v="Galilee Court"/><tag k="addr:housenumber" v="20702"/><tag k="addr:postcode" v="78653"/></node><node id="-8" lat="30.281735" lon="-97.487163" changeset="false"><tag k="addr:street" v="Verna Street"/><tag k="addr:housenumber" v="20812"/><tag k="addr:postcode" v="78653"/></node><node id="-9" lat="30.281892" lon="-97.499669" changeset="false"><tag k="addr:street" v="Lockwood Springs Road"/><tag k="addr:housenumber" v="9000"/><tag k="addr:postcode" v="78653"/></node><node id="-10" lat="30.281503" lon="-97.4835" changeset="false"><tag k="addr:street" v="Ann Showers Drive"/><tag k="addr:housenumber" v="21106"/><tag k="addr:postcode" v="78653"/></node><node id="-11" lat="30.282536" lon="-97.452931" changeset="false"><tag k="addr:street" v="Hog Eye Road"/><tag k="addr:housenumber" v="23009"/><tag k="addr:postcode" v="78621"/></node><node id="-12" lat="30.278024" lon="-97.453993" changeset="false"><tag k="addr:street" v="Beth Drive"/><tag k="addr:housenumber" v="22905"/><tag k="addr:postcode" v="78621"/></node><node id="-13" lat="30.276816" lon="-97.481402" changeset="false"><tag k="addr:street" v="Ann Showers Drive"/><tag k="addr:housenumber" v="21309"/><tag k="addr:postcode" v="78653"/></node><node id="-14" lat="30.276084" lon="-97.489151" changeset="false"><tag k="addr:street" v="Damita Jo Drive"/><tag k="addr:housenumber" v="8507"/><tag k="addr:postcode" v="78653"/></node><node id="-15" lat="30.275645" lon="-97.479801" changeset="false"><tag k="addr:street" v="Marnie Drive"/><tag k="addr:housenumber" v="8501"/><tag k="addr:postcode" v="78653"/></node><node id="-16" lat="30.284189" lon="-97.491342" changeset="false"><tag k="addr:street" v="Trappers Trail"/><tag k="addr:housenumber" v="20609"/><tag k="addr:postcode" v="78653"/></node><node id="-17" lat="30.283753" lon="-97.491618" changeset="false"><tag k="addr:street" v="Moses Lane"/><tag k="addr:housenumber" v="20600"/><tag k="addr:postcode" v="78653"/></node><node id="-18" lat="30.283419" lon="-97.490952" changeset="false"><tag k="addr:street" v="Moses Lane"/><tag k="addr:housenumber" v="20608"/><tag k="addr:postcode" v="78653"/></node><node id="-19" lat="30.280672" lon="-97.483859" changeset="false"><tag k="addr:street" v="Ann Showers Drive"/><tag k="addr:housenumber" v="21109"/><tag k="addr:postcode" v="78653"/></node><node id="-20" lat="30.279893" lon="-97.487632" changeset="false"><tag k="addr:street" v="Galilee Court"/><tag k="addr:housenumber" v="20813"/><tag k="addr:postcode" v="78653"/></node><node id="-21" lat="30.274064" lon="-97.495752" changeset="false"><tag k="addr:street" v="Hickory Grove Lane"/><tag k="addr:housenumber" v="20317"/><tag k="addr:postcode" v="78653"/></node><node id="-22" lat="30.278315" lon="-97.476572" changeset="false"><tag k="addr:street" v="Ann Showers Drive"/><tag k="addr:housenumber" v="21514"/><tag k="addr:postcode" v="78621"/></node><node id="-23" lat="30.274214" lon="-97.462062" changeset="false"><tag k="addr:street" v="Ingrid Drive"/><tag k="addr:housenumber" v="8401"/><tag k="addr:postcode" v="78621"/></node><node id="-24" lat="30.272764" lon="-97.472972" changeset="false"><tag k="addr:street" v="Ann Showers Drive"/><tag k="addr:housenumber" v="21940"/><tag k="addr:postcode" v="78621"/></node><node id="-25" lat="30.282576" lon="-97.475345" changeset="false"><tag k="addr:street" v="Tristam Drive"/><tag k="addr:housenumber" v="9022"/><tag k="addr:postcode" v="78621"/></node><node id="-26" lat="30.278381" lon="-97.486195" changeset="false"><tag k="addr:street" v="Delorio Street"/><tag k="addr:housenumber" v="20911"/><tag k="addr:postcode" v="78653"/></node><node id="-27" lat="30.27901" lon="-97.495295" changeset="false"><tag k="addr:street" v="Ed Acklin Road"/><tag k="addr:housenumber" v="20312"/><tag k="addr:postcode" v="78653"/></node><node id="-28" lat="30.279647" lon="-97.496627" changeset="false"><tag k="addr:street" v="Ed Acklin Road"/><tag k="addr:housenumber" v="20216"/><tag k="addr:postcode" v="78653"/></node><node id="-29" lat="30.279537" lon="-97.496266" changeset="false"><tag k="addr:street" v="Ed Acklin Road"/><tag k="addr:housenumber" v="20300"/><tag k="addr:postcode" v="78653"/></node><node id="-30" lat="30.279294" lon="-97.486139" changeset="false"><tag k="addr:street" v="Galilee Court"/><tag k="addr:housenumber" v="20911"/><tag k="addr:postcode" v="78653"/></node><node id="-31" lat="30.279115" lon="-97.495469" changeset="false"><tag k="addr:street" v="Ed Acklin Road"/><tag k="addr:housenumber" v="20310"/><tag k="addr:postcode" v="78653"/></node><node id="-32" lat="30.278799" lon="-97.490441" changeset="false"><tag k="addr:street" v="Liveoak Lane"/><tag k="addr:housenumber" v="20705"/><tag k="addr:postcode" v="78653"/></node><node id="-33" lat="30.278567" lon="-97.489954" changeset="false"><tag k="addr:street" v="Liveoak Lane"/><tag k="addr:housenumber" v="20711"/><tag k="addr:postcode" v="78653"/></node><node id="-34" lat="30.266815" lon="-97.466588" changeset="false"><tag k="addr:street" v="Imogene Drive"/><tag k="addr:housenumber" v="7804"/><tag k="addr:postcode" v="78621"/></node><node id="-35" lat="30.290854" lon="-97.463862" changeset="false"><tag k="addr:street" v="Hog Eye Road"/><tag k="addr:housenumber" v="22401"/><tag k="addr:postcode" v="78653"/></node><node id="-36" lat="30.26797" lon="-97.46302" changeset="false"><tag k="addr:street" v="Ingrid Drive"/><tag k="addr:housenumber" v="7906"/><tag k="addr:postcode" v="78621"/></node><node id="-37" lat="30.279774" lon="-97.490062" changeset="false"><tag k="addr:street" v="Delorio Street"/><tag k="addr:housenumber" v="20707"/><tag k="addr:postcode" v="78653"/></node><node id="-38" lat="30.279933" lon="-97.497307" changeset="false"><tag k="addr:street" v="Ed Acklin Road"/><tag k="addr:housenumber" v="20208"/><tag k="addr:postcode" v="78653"/></node><node id="-39" lat="30.299942" lon="-97.512185" changeset="false"><tag k="addr:street" v="Parsons Road"/><tag k="addr:housenumber" v="10402"/><tag k="addr:postcode" v="78653"/></node><node id="-40" lat="30.280515" lon="-97.498282" changeset="false"><tag k="addr:street" v="Ed Acklin Road"/><tag k="addr:housenumber" v="20120"/><tag k="addr:postcode" v="78653"/></node><node id="-41" lat="30.272173" lon="-97.465744" changeset="false"><tag k="addr:street" v="Ann Showers Drive"/><tag k="addr:housenumber" v="22226"/><tag k="addr:postcode" v="78621"/></node><node id="-42" lat="30.267595" lon="-97.468894" changeset="false"><tag k="addr:street" v="Silvia Drive"/><tag k="addr:housenumber" v="22100"/><tag k="addr:postcode" v="78621"/></node><node id="-43" lat="30.298334" lon="-97.508731" changeset="false"><tag k="addr:street" v="Parsons Road"/><tag k="addr:housenumber" v="10219"/><tag k="addr:postcode" v="78653"/></node><node id="-44" lat="30.278108" lon="-97.49133" changeset="false"><tag k="addr:street" v="Postoak Parkway"/><tag k="addr:housenumber" v="20601"/><tag k="addr:postcode" v="78653"/></node><node id="-45" lat="30.28442" lon="-97.518009" changeset="false"><tag k="addr:street" v="Blake Manor Road"/><tag k="addr:housenumber" v="18950"/><tag k="addr:postcode" v="78653"/></node><node id="-46" lat="30.282989" lon="-97.508096" changeset="false"><tag k="addr:street" v="Blake Manor Road"/><tag k="addr:housenumber" v="19500"/><tag k="addr:postcode" v="78653"/></node><node id="-47" lat="30.276813" lon="-97.489379" changeset="false"><tag k="addr:street" v="Damita Jo Drive"/><tag k="addr:housenumber" v="8602"/><tag k="addr:postcode" v="78653"/></node><node id="-48" lat="30.276797" lon="-97.49062" changeset="false"><tag k="addr:street" v="Ed Acklin Road"/><tag k="addr:housenumber" v="20612"/><tag k="addr:postcode" v="78653"/></node><node id="-49" lat="30.284248" lon="-97.488701" changeset="false"><tag k="addr:street" v="Trappers Trail"/><tag k="addr:housenumber" v="20710"/><tag k="addr:postcode" v="78653"/></node><node id="-50" lat="30.284109" lon="-97.492273" changeset="false"><tag k="addr:street" v="Moses Lane"/><tag k="addr:housenumber" v="20510"/><tag k="addr:postcode" v="78653"/></node><node id="-51" lat="30.283979" lon="-97.491881" changeset="false"><tag k="addr:street" v="Moses Lane"/><tag k="addr:housenumber" v="20514"/><tag k="addr:postcode" v="78653"/></node><node id="-52" lat="30.277641" lon="-97.488098" changeset="false"><tag k="addr:street" v="Damita Jo Drive"/><tag k="addr:housenumber" v="8619"/><tag k="addr:postcode" v="78653"/></node><node id="-53" lat="30.277996" lon="-97.488743" changeset="false"><tag k="addr:street" v="Liveoak Lane"/><tag k="addr:housenumber" v="20807"/><tag k="addr:postcode" v="78653"/></node><node id="-54" lat="30.269793" lon="-97.47184" changeset="false"><tag k="addr:street" v="Silvia Drive"/><tag k="addr:housenumber" v="21902"/><tag k="addr:postcode" v="78621"/></node><node id="-55" lat="30.297125" lon="-97.509794" changeset="false"><tag k="addr:street" v="Parsons Road"/><tag k="addr:housenumber" v="10216"/><tag k="addr:postcode" v="78653"/></node><node id="-56" lat="30.269584" lon="-97.469015" changeset="false"><tag k="addr:street" v="Silvia Drive"/><tag k="addr:housenumber" v="22136"/><tag k="addr:postcode" v="78621"/></node><node id="-57" lat="30.279481" lon="-97.457397" changeset="false"><tag k="addr:street" v="Viola Drive"/><tag k="addr:housenumber" v="22811"/><tag k="addr:postcode" v="78621"/></node><node id="-58" lat="30.27819" lon="-97.456234" changeset="false"><tag k="addr:street" v="Lucinda Drive"/><tag k="addr:housenumber" v="8705"/><tag k="addr:postcode" v="78621"/></node><node id="-59" lat="30.274327" lon="-97.460213" changeset="false"><tag k="addr:street" v="Annabelle Drive"/><tag k="addr:housenumber" v="8311"/><tag k="addr:postcode" v="78621"/></node><node id="-60" lat="30.274307" lon="-97.472132" changeset="false"><tag k="addr:street" v="Ann Showers Drive"/><tag k="addr:housenumber" v="21912"/><tag k="addr:postcode" v="78621"/></node><node id="-61" lat="30.276082" lon="-97.472876" changeset="false"><tag k="addr:street" v="Ann Showers Drive"/><tag k="addr:housenumber" v="21829"/><tag k="addr:postcode" v="78621"/></node><node id="-62" lat="30.27377" lon="-97.457471" changeset="false"><tag k="addr:street" v="Vivian Drive"/><tag k="addr:housenumber" v="22801"/><tag k="addr:postcode" v="78621"/></node><node id="-63" lat="30.274195" lon="-97.456047" changeset="false"><tag k="addr:street" v="Vivian Drive"/><tag k="addr:housenumber" v="22811"/><tag k="addr:postcode" v="78621"/></node><node id="-64" lat="30.280687" lon="-97.452803" changeset="false"><tag k="addr:street" v="Beth Drive"/><tag k="addr:housenumber" v="23011"/><tag k="addr:postcode" v="78621"/></node><node id="-65" lat="30.28126" lon="-97.490351" changeset="false"><tag k="addr:street" v="Galilee Court"/><tag k="addr:housenumber" v="20705"/><tag k="addr:postcode" v="78653"/></node><node id="-66" lat="30.281007" lon="-97.488442" changeset="false"><tag k="addr:street" v="Galilee Court"/><tag k="addr:housenumber" v="20802"/><tag k="addr:postcode" v="78653"/></node><node id="-67" lat="30.278464" lon="-97.494133" changeset="false"><tag k="addr:street" v="Ed Acklin Road"/><tag k="addr:housenumber" v="20408"/><tag k="addr:postcode" v="78653"/></node><node id="-68" lat="30.282456" lon="-97.487119" changeset="false"><tag k="addr:street" v="Trappers Trail"/><tag k="addr:housenumber" v="20905"/><tag k="addr:postcode" v="78653"/></node><node id="-69" lat="30.280561" lon="-97.486429" changeset="false"><tag k="addr:street" v="Verna Street"/><tag k="addr:housenumber" v="20911"/><tag k="addr:postcode" v="78653"/></node><node id="-70" lat="30.254109" lon="-97.478723" changeset="false"><tag k="addr:street" v="Union Lee Church Road"/><tag k="addr:housenumber" v="21406"/><tag k="addr:postcode" v="78653"/></node><node id="-71" lat="30.278708" lon="-97.488988" changeset="false"><tag k="addr:street" v="Liveoak Lane"/><tag k="addr:housenumber" v="20800"/><tag k="addr:postcode" v="78653"/></node><node id="-72" lat="30.303081" lon="-97.50826" changeset="false"><tag k="addr:street" v="Formith Street"/><tag k="addr:housenumber" v="10422"/><tag k="addr:postcode" v="78653"/></node><node id="-73" lat="30.297923" lon="-97.487226" changeset="false"><tag k="addr:street" v="Hog Eye Road"/><tag k="addr:housenumber" v="20905"/><tag k="addr:postcode" v="78653"/></node><node id="-74" lat="30.279876" lon="-97.49715" changeset="false"><tag k="addr:street" v="Ed Acklin Road"/><tag k="addr:housenumber" v="20210"/><tag k="addr:postcode" v="78653"/></node><node id="-75" lat="30.296301" lon="-97.476533" changeset="false"><tag k="addr:street" v="Hog Eye Road"/><tag k="addr:housenumber" v="21601"/><tag k="addr:postcode" v="78653"/></node><node id="-76" lat="30.294086" lon="-97.471238" changeset="false"><tag k="addr:street" v="Hog Eye Road"/><tag k="addr:housenumber" v="21909"/><tag k="addr:postcode" v="78653"/></node><node id="-77" lat="30.280582" lon="-97.475904" changeset="false"><tag k="addr:street" v="Tristam Drive"/><tag k="addr:housenumber" v="8729"/><tag k="addr:postcode" v="78621"/></node><node id="-78" lat="30.280968" lon="-97.489838" changeset="false"><tag k="addr:street" v="Galilee Court"/><tag k="addr:housenumber" v="20709"/><tag k="addr:postcode" v="78653"/></node><node id="-79" lat="30.281682" lon="-97.485629" changeset="false"><tag k="addr:street" v="Trappers Trail"/><tag k="addr:housenumber" v="21003"/><tag k="addr:postcode" v="78653"/></node><node id="-80" lat="30.282731" lon="-97.453655" changeset="false"><tag k="addr:street" v="Hog Eye Road"/><tag k="addr:housenumber" v="23001"/><tag k="addr:postcode" v="78621"/></node><node id="-81" lat="30.271387" lon="-97.466482" changeset="false"><tag k="addr:street" v="Ann Showers Drive"/><tag k="addr:housenumber" v="22208"/><tag k="addr:postcode" v="78621"/></node><node id="-82" lat="30.28465" lon="-97.492359" changeset="false"><tag k="addr:street" v="Trappers Trail"/><tag k="addr:housenumber" v="20515"/><tag k="addr:postcode" v="78653"/></node><node id="-83" lat="30.298374" lon="-97.508816" changeset="false"><tag k="addr:street" v="Parsons Road"/><tag k="addr:housenumber" v="10223"/><tag k="addr:postcode" v="78653"/></node><node id="-84" lat="30.283007" lon="-97.513669" changeset="false"><tag k="addr:street" v="Blake Manor Road"/><tag k="addr:housenumber" v="19200"/><tag k="addr:postcode" v="78653"/></node><node id="-85" lat="30.296566" lon="-97.484916" changeset="false"><tag k="addr:street" v="Hog Eye Road"/><tag k="addr:housenumber" v="21019"/><tag k="addr:postcode" v="78621"/></node><node id="-86" lat="30.2792" lon="-97.488879" changeset="false"><tag k="addr:street" v="Delorio Street"/><tag k="addr:housenumber" v="20805"/><tag k="addr:postcode" v="78653"/></node><node id="-87" lat="30.279122" lon="-97.485786" changeset="false"><tag k="addr:street" v="Galilee Court"/><tag k="addr:housenumber" v="20915"/><tag k="addr:postcode" v="78653"/></node><node id="-88" lat="30.267145" lon="-97.462913" changeset="false"><tag k="addr:street" v="Ingrid Drive"/><tag k="addr:housenumber" v="7816"/><tag k="addr:postcode" v="78621"/></node><node id="-89" lat="30.267123" lon="-97.471494" changeset="false"><tag k="addr:street" v="Jotham Drive"/><tag k="addr:housenumber" v="7800"/><tag k="addr:postcode" v="78621"/></node><node id="-90" lat="30.265907" lon="-97.470385" changeset="false"><tag k="addr:street" v="Silvia Drive"/><tag k="addr:housenumber" v="22009"/><tag k="addr:postcode" v="78653"/></node><node id="-91" lat="30.299008" lon="-97.481813" changeset="false"><tag k="addr:street" v="Hog Eye Road"/><tag k="addr:housenumber" v="21211"/><tag k="addr:postcode" v="78653"/></node><node id="-92" lat="30.28008" lon="-97.497656" changeset="false"><tag k="addr:street" v="Ed Acklin Road"/><tag k="addr:housenumber" v="20204"/><tag k="addr:postcode" v="78653"/></node><node id="-93" lat="30.282679" lon="-97.454148" changeset="false"><tag k="addr:street" v="Hog Eye Road"/><tag k="addr:housenumber" v="22919"/><tag k="addr:postcode" v="78621"/></node><node id="-94" lat="30.293161" lon="-97.511616" changeset="false"><tag k="addr:street" v="Hog Eye Road"/><tag k="addr:housenumber" v="19101"/><tag k="addr:postcode" v="78653"/></node><node id="-95" lat="30.294117" lon="-97.51412" changeset="false"><tag k="addr:street" v="Hog Eye Road"/><tag k="addr:housenumber" v="19208"/><tag k="addr:postcode" v="78653"/></node><node id="-96" lat="30.284184" lon="-97.492436" changeset="false"><tag k="addr:street" v="Moses Lane"/><tag k="addr:housenumber" v="20508"/><tag k="addr:postcode" v="78653"/></node><node id="-97" lat="30.282402" lon="-97.486994" changeset="false"><tag k="addr:street" v="Trappers Trail"/><tag k="addr:housenumber" v="20907"/><tag k="addr:postcode" v="78653"/></node><node id="-98" lat="30.282817" lon="-97.469762" changeset="false"><tag k="addr:street" v="Tristam Drive"/><tag k="addr:housenumber" v="9226"/><tag k="addr:postcode" v="78621"/></node><node id="-99" lat="30.281419" lon="-97.476023" changeset="false"><tag k="addr:street" v="Tristam Drive"/><tag k="addr:housenumber" v="9000"/><tag k="addr:postcode" v="78621"/></node><node id="-100" lat="30.276097" lon="-97.464704" changeset="false"><tag k="addr:street" v="Ann Showers Drive"/><tag k="addr:housenumber" v="8600"/><tag k="addr:postcode" v="78621"/></node><node id="-101" lat="30.276058" lon="-97.478985" changeset="false"><tag k="addr:street" v="Ann Showers Drive"/><tag k="addr:housenumber" v="21407"/><tag k="addr:postcode" v="78653"/></node><node id="-102" lat="30.275588" lon="-97.47244" changeset="false"><tag k="addr:street" v="Ann Showers Drive"/><tag k="addr:housenumber" v="21835"/><tag k="addr:postcode" v="78621"/></node><node id="-103" lat="30.303883" lon="-97.514563" changeset="false"><tag k="addr:street" v="Parsons Road"/><tag k="addr:housenumber" v="10604"/><tag k="addr:postcode" v="78653"/></node><node id="-104" lat="30.276501" lon="-97.480721" changeset="false"><tag k="addr:street" v="Ann Showers Drive"/><tag k="addr:housenumber" v="21319"/><tag k="addr:postcode" v="78653"/></node><node id="-105" lat="30.276369" lon="-97.489684" changeset="false"><tag k="addr:street" v="Damita Jo Drive"/><tag k="addr:housenumber" v="8506"/><tag k="addr:postcode" v="78653"/></node><node id="-106" lat="30.276229" lon="-97.48899" changeset="false"><tag k="addr:street" v="Damita Jo Drive"/><tag k="addr:housenumber" v="8509"/><tag k="addr:postcode" v="78653"/></node><node id="-107" lat="30.279462" lon="-97.487894" changeset="false"><tag k="addr:street" v="Delorio Street"/><tag k="addr:housenumber" v="20808"/><tag k="addr:postcode" v="78653"/></node><node id="-108" lat="30.282694" lon="-97.456655" changeset="false"><tag k="addr:street" v="Hog Eye Road"/><tag k="addr:housenumber" v="22811"/><tag k="addr:postcode" v="78621"/></node><node id="-109" lat="30.266796" lon="-97.470889" changeset="false"><tag k="addr:street" v="Jotham Drive"/><tag k="addr:housenumber" v="7801"/><tag k="addr:postcode" v="78653"/></node><node id="-110" lat="30.278263" lon="-97.462449" changeset="false"><tag k="addr:street" v="Ann Showers Drive"/><tag k="addr:housenumber" v="8723"/><tag k="addr:postcode" v="78621"/></node><node id="-111" lat="30.275209" lon="-97.471625" changeset="false"><tag k="addr:street" v="Ann Showers Drive"/><tag k="addr:housenumber" v="21900"/><tag k="addr:postcode" v="78621"/></node><node id="-112" lat="30.280064" lon="-97.489028" changeset="false"><tag k="addr:street" v="Delorio Street"/><tag k="addr:housenumber" v="20710"/><tag k="addr:postcode" v="78653"/></node><node id="-113" lat="30.27893" lon="-97.495157" changeset="false"><tag k="addr:street" v="Ed Acklin Road"/><tag k="addr:housenumber" v="20314"/><tag k="addr:postcode" v="78653"/></node><node id="-114" lat="30.268627" lon="-97.461142" changeset="false"><tag k="addr:street" v="Deidra Drive"/><tag k="addr:housenumber" v="22518"/><tag k="addr:postcode" v="78621"/></node><node id="-115" lat="30.269739" lon="-97.467578" changeset="false"><tag k="addr:street" v="Silvia Drive"/><tag k="addr:housenumber" v="22135"/><tag k="addr:postcode" v="78621"/></node><node id="-116" lat="30.29654" lon="-97.510609" changeset="false"><tag k="addr:street" v="Parsons Road"/><tag k="addr:housenumber" v="10218"/><tag k="addr:postcode" v="78653"/></node><node id="-117" lat="30.297249" lon="-97.516852" changeset="false"><tag k="addr:street" v="Larob Lane"/><tag k="addr:housenumber" v="10109"/><tag k="addr:postcode" v="78653"/></node><node id="-118" lat="30.301608" lon="-97.527427" changeset="false"><tag k="addr:street" v="Taylor Lane"/><tag k="addr:housenumber" v="10419"/><tag k="addr:postcode" v="78653"/></node><node id="-119" lat="30.300035" lon="-97.511315" changeset="false"><tag k="addr:street" v="Parsons Road"/><tag k="addr:housenumber" v="10301"/><tag k="addr:postcode" v="78653"/></node><node id="-120" lat="30.299876" lon="-97.510313" changeset="false"><tag k="addr:street" v="Formith Street"/><tag k="addr:housenumber" v="10300"/><tag k="addr:postcode" v="78653"/></node><node id="-121" lat="30.305256" lon="-97.507827" changeset="false"><tag k="addr:street" v="Lockwood Road"/><tag k="addr:housenumber" v="19701"/><tag k="addr:postcode" v="78653"/></node><node id="-122" lat="30.277215" lon="-97.491483" changeset="false"><tag k="addr:street" v="Ed Acklin Road"/><tag k="addr:housenumber" v="20602"/><tag k="addr:postcode" v="78653"/></node><node id="-123" lat="30.284365" lon="-97.491658" changeset="false"><tag k="addr:street" v="Trappers Trail"/><tag k="addr:housenumber" v="20605"/><tag k="addr:postcode" v="78653"/></node><node id="-124" lat="30.261209" lon="-97.483848" changeset="false"><tag k="addr:street" v="Blake Manor Road"/><tag k="addr:housenumber" v="20824"/><tag k="addr:postcode" v="78653"/></node><node id="-125" lat="30.27265" lon="-97.465409" changeset="false"><tag k="addr:street" v="Ann Showers Drive"/><tag k="addr:housenumber" v="22300"/><tag k="addr:postcode" v="78621"/></node><node id="-126" lat="30.27243" lon="-97.468843" changeset="false"><tag k="addr:street" v="Sigrid Drive"/><tag k="addr:housenumber" v="8231"/><tag k="addr:postcode" v="78621"/></node><node id="-127" lat="30.271416" lon="-97.470875" changeset="false"><tag k="addr:street" v="Sigrid Drive"/><tag k="addr:housenumber" v="8201"/><tag k="addr:postcode" v="78621"/></node><node id="-128" lat="30.27062" lon="-97.461728" changeset="false"><tag k="addr:street" v="Giesla Drive"/><tag k="addr:housenumber" v="22416"/><tag k="addr:postcode" v="78621"/></node><node id="-129" lat="30.269981" lon="-97.4618" changeset="false"><tag k="addr:street" v="Giesla Drive"/><tag k="addr:housenumber" v="22417"/><tag k="addr:postcode" v="78621"/></node><node id="-130" lat="30.282993" lon="-97.503623" changeset="false"><tag k="addr:street" v="Peace on Earth Path"/><tag k="addr:housenumber" v="19811"/><tag k="addr:postcode" v="78653"/></node><node id="-131" lat="30.27661" lon="-97.490297" changeset="false"><tag k="addr:street" v="Ed Acklin Road"/><tag k="addr:housenumber" v="20616"/><tag k="addr:postcode" v="78653"/></node><node id="-132" lat="30.278026" lon="-97.491144" changeset="false"><tag k="addr:street" v="Postoak Parkway"/><tag k="addr:housenumber" v="20603"/><tag k="addr:postcode" v="78653"/></node><node id="-133" lat="30.277544" lon="-97.48816" changeset="false"><tag k="addr:street" v="Damita Jo Drive"/><tag k="addr:housenumber" v="8617"/><tag k="addr:postcode" v="78653"/></node><node id="-134" lat="30.277311" lon="-97.480636" changeset="false"><tag k="addr:street" v="Ann Showers Drive"/><tag k="addr:housenumber" v="21308"/><tag k="addr:postcode" v="78621"/></node><node id="-135" lat="30.278086" lon="-97.477015" changeset="false"><tag k="addr:street" v="Ann Showers Drive"/><tag k="addr:housenumber" v="21506"/><tag k="addr:postcode" v="78621"/></node><node id="-136" lat="30.278873" lon="-97.489307" changeset="false"><tag k="addr:street" v="Liveoak Lane"/><tag k="addr:housenumber" v="20714"/><tag k="addr:postcode" v="78653"/></node><node id="-137" lat="30.27888" lon="-97.490603" changeset="false"><tag k="addr:street" v="Liveoak Lane"/><tag k="addr:housenumber" v="20703"/><tag k="addr:postcode" v="78653"/></node><node id="-138" lat="30.27853" lon="-97.494317" changeset="false"><tag k="addr:street" v="Ed Acklin Road"/><tag k="addr:housenumber" v="20406"/><tag k="addr:postcode" v="78653"/></node><node id="-139" lat="30.280586" lon="-97.489087" changeset="false"><tag k="addr:street" v="Galilee Court"/><tag k="addr:housenumber" v="20801"/><tag k="addr:postcode" v="78653"/></node><node id="-140" lat="30.280181" lon="-97.489312" changeset="false"><tag k="addr:street" v="Delorio Street"/><tag k="addr:housenumber" v="20708"/><tag k="addr:postcode" v="78653"/></node><node id="-141" lat="30.281408" lon="-97.476281" changeset="false"><tag k="addr:street" v="Tristam Drive"/><tag k="addr:housenumber" v="8922"/><tag k="addr:postcode" v="78621"/></node><node id="-142" lat="30.282748" lon="-97.456002" changeset="false"><tag k="addr:street" v="Hog Eye Road"/><tag k="addr:housenumber" v="22901"/><tag k="addr:postcode" v="78621"/></node><node id="-143" lat="30.278328" lon="-97.487663" changeset="false"><tag k="addr:street" v="Damita Jo Drive"/><tag k="addr:housenumber" v="8707"/><tag k="addr:postcode" v="78653"/></node><node id="-144" lat="30.296034" lon="-97.504002" changeset="false"><tag k="addr:street" v="Hog Eye Road"/><tag k="addr:housenumber" v="19818"/><tag k="addr:postcode" v="78653"/></node><node id="-145" lat="30.280002" lon="-97.487815" changeset="false"><tag k="addr:street" v="Galilee Court"/><tag k="addr:housenumber" v="20811"/><tag k="addr:postcode" v="78653"/></node><node id="-146" lat="30.279078" lon="-97.499925" changeset="false"><tag k="addr:street" v="Lockwood Springs Road"/><tag k="addr:housenumber" v="8733"/><tag k="addr:postcode" v="78653"/></node><node id="-147" lat="30.275187" lon="-97.491525" changeset="false"><tag k="addr:street" v="Ed Acklin Road"/><tag k="addr:housenumber" v="20615"/><tag k="addr:postcode" v="78653"/></node><node id="-148" lat="30.282101" lon="-97.486475" changeset="false"><tag k="addr:street" v="Trappers Trail"/><tag k="addr:housenumber" v="20913"/><tag k="addr:postcode" v="78653"/></node><node id="-149" lat="30.280827" lon="-97.487026" changeset="false"><tag k="addr:street" v="Verna Street"/><tag k="addr:housenumber" v="20905"/><tag k="addr:postcode" v="78653"/></node><node id="-150" lat="30.269953" lon="-97.465965" changeset="false"><tag k="addr:street" v="Ann Showers Drive"/><tag k="addr:housenumber" v="22205"/><tag k="addr:postcode" v="78621"/></node><node id="-151" lat="30.279288" lon="-97.490128" changeset="false"><tag k="addr:street" v="Liveoak Lane"/><tag k="addr:housenumber" v="20704"/><tag k="addr:postcode" v="78653"/></node><node id="-152" lat="30.303479" lon="-97.501041" changeset="false"><tag k="addr:street" v="Lockwood Road"/><tag k="addr:housenumber" v="20009"/><tag k="addr:postcode" v="78653"/></node><node id="-153" lat="30.277362" lon="-97.476529" changeset="false"><tag k="addr:street" v="Ann Showers Drive"/><tag k="addr:housenumber" v="21507"/><tag k="addr:postcode" v="78621"/></node><node id="-154" lat="30.285213" lon="-97.493842" changeset="false"><tag k="addr:street" v="Trappers Trail"/><tag k="addr:housenumber" v="20411"/><tag k="addr:postcode" v="78653"/></node><node id="-155" lat="30.28183" lon="-97.487706" changeset="false"><tag k="addr:street" v="Verna Street"/><tag k="addr:housenumber" v="20808"/><tag k="addr:postcode" v="78653"/></node><node id="-156" lat="30.284036" lon="-97.491026" changeset="false"><tag k="addr:street" v="Trappers Trail"/><tag k="addr:housenumber" v="20613"/><tag k="addr:postcode" v="78653"/></node><node id="-157" lat="30.268471" lon="-97.463427" changeset="false"><tag k="addr:street" v="Ingrid Drive"/><tag k="addr:housenumber" v="7912"/><tag k="addr:postcode" v="78621"/></node><node id="-158" lat="30.268034" lon="-97.467864" changeset="false"><tag k="addr:street" v="Silvia Drive"/><tag k="addr:housenumber" v="22111"/><tag k="addr:postcode" v="78621"/></node><node id="-159" lat="30.26814" lon="-97.470743" changeset="false"><tag k="addr:street" v="Jotham Drive"/><tag k="addr:housenumber" v="7817"/><tag k="addr:postcode" v="78621"/></node><node id="-160" lat="30.255609" lon="-97.481734" changeset="false"><tag k="addr:street" v="Blake Manor Road"/><tag k="addr:housenumber" v="21044"/><tag k="addr:postcode" v="78653"/></node><node id="-161" lat="30.278455" lon="-97.486907" changeset="false"><tag k="addr:street" v="Delorio Street"/><tag k="addr:housenumber" v="20905"/><tag k="addr:postcode" v="78653"/></node><node id="-162" lat="30.278516" lon="-97.490857" changeset="false"><tag k="addr:street" v="Postoak Parkway"/><tag k="addr:housenumber" v="20602"/><tag k="addr:postcode" v="78653"/></node><node id="-163" lat="30.278595" lon="-97.494473" changeset="false"><tag k="addr:street" v="Ed Acklin Road"/><tag k="addr:housenumber" v="20404"/><tag k="addr:postcode" v="78653"/></node><node id="-164" lat="30.278402" lon="-97.486323" changeset="false"><tag k="addr:street" v="Delorio Street"/><tag k="addr:housenumber" v="20909"/><tag k="addr:postcode" v="78653"/></node><node id="-165" lat="30.272094" lon="-97.473876" changeset="false"><tag k="addr:street" v="Ann Showers Drive"/><tag k="addr:housenumber" v="21951"/><tag k="addr:postcode" v="78653"/></node><node id="-166" lat="30.284499" lon="-97.489611" changeset="false"><tag k="addr:street" v="Trappers Trail"/><tag k="addr:housenumber" v="20700"/><tag k="addr:postcode" v="78653"/></node><node id="-167" lat="30.28087" lon="-97.475851" changeset="false"><tag k="addr:street" v="Tristam Drive"/><tag k="addr:housenumber" v="8801"/><tag k="addr:postcode" v="78621"/></node><node id="-168" lat="30.301637" lon="-97.512002" changeset="false"><tag k="addr:street" v="Parsons Road"/><tag k="addr:housenumber" v="10411"/><tag k="addr:postcode" v="78653"/></node><node id="-169" lat="30.299935" lon="-97.512147" changeset="false"><tag k="addr:street" v="Parsons Road"/><tag k="addr:housenumber" v="10318"/><tag k="addr:postcode" v="78653"/></node><node id="-170" lat="30.271386" lon="-97.469534" changeset="false"><tag k="addr:street" v="Sigrid Drive"/><tag k="addr:housenumber" v="8217"/><tag k="addr:postcode" v="78621"/></node><node id="-171" lat="30.270456" lon="-97.463618" changeset="false"><tag k="addr:street" v="Ingrid Drive"/><tag k="addr:housenumber" v="8101"/><tag k="addr:postcode" v="78621"/></node><node id="-172" lat="30.282117" lon="-97.454478" changeset="false"><tag k="addr:street" v="Lucinda Drive"/><tag k="addr:housenumber" v="9015"/><tag k="addr:postcode" v="78621"/></node><node id="-173" lat="30.283619" lon="-97.492852" changeset="false"><tag k="addr:street" v="Moses Lane"/><tag k="addr:housenumber" v="20509"/><tag k="addr:postcode" v="78653"/></node><node id="-174" lat="30.281694" lon="-97.489841" changeset="false"><tag k="addr:street" v="Galilee Court"/><tag k="addr:housenumber" v="20706"/><tag k="addr:postcode" v="78653"/></node><node id="-175" lat="30.28051" lon="-97.498031" changeset="false"><tag k="addr:street" v="Ed Acklin Road"/><tag k="addr:housenumber" v="20122"/><tag k="addr:postcode" v="78653"/></node><node id="-176" lat="30.272396" lon="-97.470409" changeset="false"><tag k="addr:street" v="Sigrid Drive"/><tag k="addr:housenumber" v="8216"/><tag k="addr:postcode" v="78621"/></node><node id="-177" lat="30.278872" lon="-97.488161" changeset="false"><tag k="addr:street" v="Delorio Street"/><tag k="addr:housenumber" v="20813"/><tag k="addr:postcode" v="78653"/></node><node id="-178" lat="30.274698" lon="-97.462657" changeset="false"><tag k="addr:street" v="Ingrid Drive"/><tag k="addr:housenumber" v="8400"/><tag k="addr:postcode" v="78621"/></node><node id="-179" lat="30.277901" lon="-97.492945" changeset="false"><tag k="addr:street" v="Ed Acklin Road"/><tag k="addr:housenumber" v="20504"/><tag k="addr:postcode" v="78653"/></node><node id="-180" lat="30.277226" lon="-97.489492" changeset="false"><tag k="addr:street" v="Postoak Parkway"/><tag k="addr:housenumber" v="20713"/><tag k="addr:postcode" v="78653"/></node><node id="-181" lat="30.27738" lon="-97.491806" changeset="false"><tag k="addr:street" v="Ed Acklin Road"/><tag k="addr:housenumber" v="20518"/><tag k="addr:postcode" v="78653"/></node><node id="-182" lat="30.276215" lon="-97.489764" changeset="false"><tag k="addr:street" v="Damita Jo Drive"/><tag k="addr:housenumber" v="8504"/><tag k="addr:postcode" v="78653"/></node><node id="-183" lat="30.282211" lon="-97.486683" changeset="false"><tag k="addr:street" v="Trappers Trail"/><tag k="addr:housenumber" v="20911"/><tag k="addr:postcode" v="78653"/></node><node id="-184" lat="30.28229" lon="-97.451077" changeset="false"><tag k="addr:street" v="Hog Eye Road"/><tag k="addr:housenumber" v="23115"/><tag k="addr:postcode" v="78621"/></node><node id="-185" lat="30.284301" lon="-97.517821" changeset="false"><tag k="addr:street" v="Blake Manor Road"/><tag k="addr:housenumber" v="18960"/><tag k="addr:postcode" v="78653"/></node><node id="-186" lat="30.284069" lon="-97.517568" changeset="false"><tag k="addr:street" v="Blake Manor Road"/><tag k="addr:housenumber" v="19000"/><tag k="addr:postcode" v="78653"/></node><node id="-187" lat="30.28354" lon="-97.516536" changeset="false"><tag k="addr:street" v="Blake Manor Road"/><tag k="addr:housenumber" v="19012"/><tag k="addr:postcode" v="78653"/></node><node id="-188" lat="30.287161" lon="-97.494888" changeset="false"><tag k="addr:street" v="Trappers Trail"/><tag k="addr:housenumber" v="20312"/><tag k="addr:postcode" v="78653"/></node><node id="-189" lat="30.267299" lon="-97.468069" changeset="false"><tag k="addr:street" v="Imogene Drive"/><tag k="addr:housenumber" v="7816"/><tag k="addr:postcode" v="78621"/></node><node id="-190" lat="30.266126" lon="-97.467146" changeset="false"><tag k="addr:street" v="Imogene Drive"/><tag k="addr:housenumber" v="7801"/><tag k="addr:postcode" v="78653"/></node><node id="-191" lat="30.276984" lon="-97.490931" changeset="false"><tag k="addr:street" v="Ed Acklin Road"/><tag k="addr:housenumber" v="20608"/><tag k="addr:postcode" v="78653"/></node><node id="-192" lat="30.294895" lon="-97.490801" changeset="false"><tag k="addr:street" v="Quiet Oaks Lane"/><tag k="addr:housenumber" v="20617"/><tag k="addr:postcode" v="78653"/></node><node id="-193" lat="30.294406" lon="-97.48957" changeset="false"><tag k="addr:street" v="Quiet Oaks Lane"/><tag k="addr:housenumber" v="20619"/><tag k="addr:postcode" v="78653"/></node><node id="-194" lat="30.270683" lon="-97.472788" changeset="false"><tag k="addr:street" v="Ann Showers Drive"/><tag k="addr:housenumber" v="21973"/><tag k="addr:postcode" v="78621"/></node><node id="-195" lat="30.280883" lon="-97.461399" changeset="false"><tag k="addr:street" v="Ingrid Drive"/><tag k="addr:housenumber" v="8905"/><tag k="addr:postcode" v="78621"/></node><node id="-196" lat="30.280051" lon="-97.476606" changeset="false"><tag k="addr:street" v="Tristam Drive"/><tag k="addr:housenumber" v="8800"/><tag k="addr:postcode" v="78621"/></node><node id="-197" lat="30.279155" lon="-97.461852" changeset="false"><tag k="addr:street" v="Ingrid Drive"/><tag k="addr:housenumber" v="8800"/><tag k="addr:postcode" v="78621"/></node><node id="-198" lat="30.278089" lon="-97.463116" changeset="false"><tag k="addr:street" v="Ann Showers Drive"/><tag k="addr:housenumber" v="8707"/><tag k="addr:postcode" v="78621"/></node><node id="-199" lat="30.278739" lon="-97.49029" changeset="false"><tag k="addr:street" v="Liveoak Lane"/><tag k="addr:housenumber" v="20707"/><tag k="addr:postcode" v="78653"/></node><node id="-200" lat="30.280133" lon="-97.486532" changeset="false"><tag k="addr:street" v="Galilee Court"/><tag k="addr:housenumber" v="20902"/><tag k="addr:postcode" v="78653"/></node><node id="-201" lat="30.281418" lon="-97.454821" changeset="false"><tag k="addr:street" v="Lucinda Drive"/><tag k="addr:housenumber" v="9001"/><tag k="addr:postcode" v="78621"/></node><node id="-202" lat="30.277798" lon="-97.477573" changeset="false"><tag k="addr:street" v="Ann Showers Drive"/><tag k="addr:housenumber" v="21500"/><tag k="addr:postcode" v="78621"/></node><node id="-203" lat="30.275699" lon="-97.471375" changeset="false"><tag k="addr:street" v="Ann Showers Drive"/><tag k="addr:housenumber" v="21840"/><tag k="addr:postcode" v="78621"/></node><node id="-204" lat="30.279988" lon="-97.483514" changeset="false"><tag k="addr:street" v="Ann Showers Drive"/><tag k="addr:housenumber" v="21121"/><tag k="addr:postcode" v="78653"/></node><node id="-205" lat="30.281588" lon="-97.486828" changeset="false"><tag k="addr:street" v="Verna Street"/><tag k="addr:housenumber" v="20902"/><tag k="addr:postcode" v="78653"/></node><node id="-206" lat="30.280861" lon="-97.489587" changeset="false"><tag k="addr:street" v="Galilee Court"/><tag k="addr:housenumber" v="20711"/><tag k="addr:postcode" v="78653"/></node><node id="-207" lat="30.280552" lon="-97.482766" changeset="false"><tag k="addr:street" v="Ann Showers Drive"/><tag k="addr:housenumber" v="21120"/><tag k="addr:postcode" v="78653"/></node><node id="-208" lat="30.278984" lon="-97.486827" changeset="false"><tag k="addr:street" v="Delorio Street"/><tag k="addr:housenumber" v="20904"/><tag k="addr:postcode" v="78653"/></node><node id="-209" lat="30.278057" lon="-97.488941" changeset="false"><tag k="addr:street" v="Liveoak Lane"/><tag k="addr:housenumber" v="20805"/><tag k="addr:postcode" v="78653"/></node><node id="-210" lat="30.278964" lon="-97.489469" changeset="false"><tag k="addr:street" v="Liveoak Lane"/><tag k="addr:housenumber" v="20712"/><tag k="addr:postcode" v="78653"/></node><node id="-211" lat="30.30235" lon="-97.52695" changeset="false"><tag k="addr:street" v="Taylor Lane"/><tag k="addr:housenumber" v="10501"/><tag k="addr:postcode" v="78653"/></node><node id="-212" lat="30.279199" lon="-97.485172" changeset="false"><tag k="addr:street" v="Galilee Court"/><tag k="addr:housenumber" v="20918"/><tag k="addr:postcode" v="78653"/></node><node id="-213" lat="30.276565" lon="-97.493481" changeset="false"><tag k="addr:street" v="Ed Acklin Road"/><tag k="addr:housenumber" v="20507"/><tag k="addr:postcode" v="78653"/></node><node id="-214" lat="30.274108" lon="-97.497521" changeset="false"><tag k="addr:street" v="Hickory Grove Lane"/><tag k="addr:housenumber" v="20219"/><tag k="addr:postcode" v="78653"/></node><node id="-215" lat="30.294556" lon="-97.472128" changeset="false"><tag k="addr:street" v="Hog Eye Road"/><tag k="addr:housenumber" v="21817"/><tag k="addr:postcode" v="78653"/></node><node id="-216" lat="30.275929" lon="-97.48985" changeset="false"><tag k="addr:street" v="Ed Acklin Road"/><tag k="addr:housenumber" v="20708"/><tag k="addr:postcode" v="78653"/></node><node id="-217" lat="30.297918" lon="-97.495031" changeset="false"><tag k="addr:street" v="Hog Eye Road"/><tag k="addr:housenumber" v="20404"/><tag k="addr:postcode" v="78653"/></node><node id="-218" lat="30.282849" lon="-97.513273" changeset="false"><tag k="addr:street" v="Blake Manor Road"/><tag k="addr:housenumber" v="19206"/><tag k="addr:postcode" v="78653"/></node><node id="-219" lat="30.284957" lon="-97.460324" changeset="false"><tag k="addr:street" v="Hog Eye Road"/><tag k="addr:housenumber" v="22615"/><tag k="addr:postcode" v="78621"/></node><node id="-220" lat="30.283022" lon="-97.462322" changeset="false"><tag k="addr:street" v="Ingrid Drive"/><tag k="addr:housenumber" v="9022"/><tag k="addr:postcode" v="78621"/></node><node id="-221" lat="30.279177" lon="-97.490002" changeset="false"><tag k="addr:street" v="Liveoak Lane"/><tag k="addr:housenumber" v="20706"/><tag k="addr:postcode" v="78653"/></node><node id="-222" lat="30.278593" lon="-97.481543" changeset="false"><tag k="addr:street" v="Ann Showers Drive"/><tag k="addr:housenumber" v="21222"/><tag k="addr:postcode" v="78621"/></node><node id="-223" lat="30.264286" lon="-97.463228" changeset="false"><tag k="addr:street" v="Ingrid Drive"/><tag k="addr:housenumber" v="7700"/><tag k="addr:postcode" v="78621"/></node><node id="-224" lat="30.278643" lon="-97.503899" changeset="false"><tag k="addr:street" v="Blake Manor Road"/><tag k="addr:housenumber" v="19800"/><tag k="addr:postcode" v="78653"/></node><node id="-225" lat="30.277678" lon="-97.502125" changeset="false"><tag k="addr:street" v="Lockwood Springs Road"/><tag k="addr:housenumber" v="8609"/><tag k="addr:postcode" v="78653"/></node><node id="-226" lat="30.277963" lon="-97.489691" changeset="false"><tag k="addr:street" v="Postoak Parkway"/><tag k="addr:housenumber" v="20706"/><tag k="addr:postcode" v="78653"/></node><node id="-227" lat="30.282942" lon="-97.457277" changeset="false"><tag k="addr:street" v="Hog Eye Road"/><tag k="addr:housenumber" v="22801"/><tag k="addr:postcode" v="78621"/></node><node id="-228" lat="30.281096" lon="-97.490157" changeset="false"><tag k="addr:street" v="Galilee Court"/><tag k="addr:housenumber" v="20707"/><tag k="addr:postcode" v="78653"/></node><node id="-229" lat="30.280427" lon="-97.487281" changeset="false"><tag k="addr:street" v="Galilee Court"/><tag k="addr:housenumber" v="20812"/><tag k="addr:postcode" v="78653"/></node><node id="-230" lat="30.280227" lon="-97.498014" changeset="false"><tag k="addr:street" v="Ed Acklin Road"/><tag k="addr:housenumber" v="20200"/><tag k="addr:postcode" v="78653"/></node><node id="-231" lat="30.277177" lon="-97.471912" changeset="false"><tag k="addr:street" v="Ann Showers Drive"/><tag k="addr:housenumber" v="21820"/><tag k="addr:postcode" v="78621"/></node><node id="-232" lat="30.273984" lon="-97.46798" changeset="false"><tag k="addr:street" v="Sigrid Drive"/><tag k="addr:housenumber" v="8306"/><tag k="addr:postcode" v="78621"/></node><node id="-233" lat="30.277681" lon="-97.492467" changeset="false"><tag k="addr:street" v="Ed Acklin Road"/><tag k="addr:housenumber" v="20510"/><tag k="addr:postcode" v="78653"/></node><node id="-234" lat="30.277469" lon="-97.491953" changeset="false"><tag k="addr:street" v="Ed Acklin Road"/><tag k="addr:housenumber" v="20516"/><tag k="addr:postcode" v="78653"/></node><node id="-235" lat="30.277232" lon="-97.481776" changeset="false"><tag k="addr:street" v="Ann Showers Drive"/><tag k="addr:housenumber" v="21301"/><tag k="addr:postcode" v="78653"/></node><node id="-236" lat="30.29159" lon="-97.510377" changeset="false"><tag k="addr:street" v="Hog Eye Road"/><tag k="addr:housenumber" v="19219"/><tag k="addr:postcode" v="78653"/></node><node id="-237" lat="30.29312" lon="-97.469348" changeset="false"><tag k="addr:street" v="Hog Eye Road"/><tag k="addr:housenumber" v="22009"/><tag k="addr:postcode" v="78653"/></node><node id="-238" lat="30.27993" lon="-97.452983" changeset="false"><tag k="addr:street" v="Beth Drive"/><tag k="addr:housenumber" v="23007"/><tag k="addr:postcode" v="78621"/></node><node id="-239" lat="30.298532" lon="-97.509157" changeset="false"><tag k="addr:street" v="Parsons Road"/><tag k="addr:housenumber" v="10239"/><tag k="addr:postcode" v="78653"/></node><node id="-240" lat="30.298314" lon="-97.508689" changeset="false"><tag k="addr:street" v="Parsons Road"/><tag k="addr:housenumber" v="10217"/><tag k="addr:postcode" v="78653"/></node><node id="-241" lat="30.281615" lon="-97.463135" changeset="false"><tag k="addr:street" v="Ingrid Drive"/><tag k="addr:housenumber" v="9000"/><tag k="addr:postcode" v="78621"/></node><node id="-242" lat="30.268844" lon="-97.46273" changeset="false"><tag k="addr:street" v="Ingrid Drive"/><tag k="addr:housenumber" v="7913"/><tag k="addr:postcode" v="78621"/></node><node id="-243" lat="30.302332" lon="-97.52294" changeset="false"><tag k="addr:street" v="Old Lockwood Road"/><tag k="addr:housenumber" v="18609"/><tag k="addr:postcode" v="78653"/></node><node id="-244" lat="30.281358" lon="-97.481819" changeset="false"><tag k="addr:street" v="Unice Drive"/><tag k="addr:housenumber" v="8906"/><tag k="addr:postcode" v="78621"/></node><node id="-245" lat="30.277632" lon="-97.49034" changeset="false"><tag k="addr:street" v="Postoak Parkway"/><tag k="addr:housenumber" v="20703"/><tag k="addr:postcode" v="78653"/></node><node id="-246" lat="30.294398" lon="-97.507943" changeset="false"><tag k="addr:street" v="Hog Eye Road"/><tag k="addr:housenumber" v="19600"/><tag k="addr:postcode" v="78653"/></node><node id="-247" lat="30.296136" lon="-97.509344" changeset="false"><tag k="addr:street" v="Parsons Road"/><tag k="addr:housenumber" v="10200"/><tag k="addr:postcode" v="78653"/></node><node id="-248" lat="30.275938" lon="-97.489195" changeset="false"><tag k="addr:street" v="Damita Jo Drive"/><tag k="addr:housenumber" v="8505"/><tag k="addr:postcode" v="78653"/></node><node id="-249" lat="30.276453" lon="-97.492669" changeset="false"><tag k="addr:street" v="Ed Acklin Road"/><tag k="addr:housenumber" v="20515"/><tag k="addr:postcode" v="78653"/></node><node id="-250" lat="30.285581" lon="-97.49239" changeset="false"><tag k="addr:street" v="Trappers Trail"/><tag k="addr:housenumber" v="20508"/><tag k="addr:postcode" v="78653"/></node><node id="-251" lat="30.298462" lon="-97.488496" changeset="false"><tag k="addr:street" v="Hog Eye Road"/><tag k="addr:housenumber" v="20811"/><tag k="addr:postcode" v="78653"/></node><node id="-252" lat="30.279136" lon="-97.488678" changeset="false"><tag k="addr:street" v="Delorio Street"/><tag k="addr:housenumber" v="20807"/><tag k="addr:postcode" v="78653"/></node><node id="-253" lat="30.279116" lon="-97.489816" changeset="false"><tag k="addr:street" v="Liveoak Lane"/><tag k="addr:housenumber" v="20708"/><tag k="addr:postcode" v="78653"/></node><node id="-254" lat="30.26663" lon="-97.462994" changeset="false"><tag k="addr:street" v="Ingrid Drive"/><tag k="addr:housenumber" v="7808"/><tag k="addr:postcode" v="78621"/></node><node id="-255" lat="30.265705" lon="-97.469245" changeset="false"><tag k="addr:street" v="Silvia Drive"/><tag k="addr:housenumber" v="22021"/><tag k="addr:postcode" v="78653"/></node><node id="-256" lat="30.265084" lon="-97.461623" changeset="false"><tag k="addr:street" v="Ingrid Drive"/><tag k="addr:housenumber" v="7709"/><tag k="addr:postcode" v="78621"/></node><node id="-257" lat="30.302965" lon="-97.526585" changeset="false"><tag k="addr:street" v="Taylor Lane"/><tag k="addr:housenumber" v="10521"/><tag k="addr:postcode" v="78653"/></node><node id="-258" lat="30.302085" lon="-97.524875" changeset="false"><tag k="addr:street" v="Old Lockwood Road"/><tag k="addr:housenumber" v="18515"/><tag k="addr:postcode" v="78653"/></node><node id="-259" lat="30.299403" lon="-97.527135" changeset="false"><tag k="addr:street" v="Blake Manor Road"/><tag k="addr:housenumber" v="18414"/><tag k="addr:postcode" v="78653"/></node><node id="-260" lat="30.280455" lon="-97.48988" changeset="false"><tag k="addr:street" v="Delorio Street"/><tag k="addr:housenumber" v="20704"/><tag k="addr:postcode" v="78653"/></node><node id="-261" lat="30.279992" lon="-97.486189" changeset="false"><tag k="addr:street" v="Galilee Court"/><tag k="addr:housenumber" v="20906"/><tag k="addr:postcode" v="78653"/></node><node id="-262" lat="30.298216" lon="-97.508476" changeset="false"><tag k="addr:street" v="Parsons Road"/><tag k="addr:housenumber" v="10207"/><tag k="addr:postcode" v="78653"/></node><node id="-263" lat="30.298138" lon="-97.509338" changeset="false"><tag k="addr:street" v="Parsons Road"/><tag k="addr:housenumber" v="10212"/><tag k="addr:postcode" v="78653"/></node><node id="-264" lat="30.297991" lon="-97.508665" changeset="false"><tag k="addr:street" v="Parsons Road"/><tag k="addr:housenumber" v="10208"/><tag k="addr:postcode" v="78653"/></node><node id="-265" lat="30.284144" lon="-97.458688" changeset="false"><tag k="addr:street" v="Hog Eye Road"/><tag k="addr:housenumber" v="22705"/><tag k="addr:postcode" v="78621"/></node><node id="-266" lat="30.282916" lon="-97.474959" changeset="false"><tag k="addr:street" v="Tristam Drive"/><tag k="addr:housenumber" v="9028"/><tag k="addr:postcode" v="78621"/></node><node id="-267" lat="30.281443" lon="-97.463868" changeset="false"><tag k="addr:street" v="Ingrid Drive"/><tag k="addr:housenumber" v="8912"/><tag k="addr:postcode" v="78621"/></node><node id="-268" lat="30.277272" lon="-97.491621" changeset="false"><tag k="addr:street" v="Ed Acklin Road"/><tag k="addr:housenumber" v="20600"/><tag k="addr:postcode" v="78653"/></node><node id="-269" lat="30.277145" lon="-97.489317" changeset="false"><tag k="addr:street" v="Postoak Parkway"/><tag k="addr:housenumber" v="20715"/><tag k="addr:postcode" v="78653"/></node><node id="-270" lat="30.277195" lon="-97.494294" changeset="false"><tag k="addr:street" v="Ed Acklin Road"/><tag k="addr:housenumber" v="20417"/><tag k="addr:postcode" v="78653"/></node><node id="-271" lat="30.295693" lon="-97.524636" changeset="false"><tag k="addr:street" v="Blake Manor Road"/><tag k="addr:housenumber" v="18522"/><tag k="addr:postcode" v="78653"/></node><node id="-272" lat="30.278103" lon="-97.493283" changeset="false"><tag k="addr:street" v="Ed Acklin Road"/><tag k="addr:housenumber" v="20500"/><tag k="addr:postcode" v="78653"/></node><node id="-273" lat="30.277721" lon="-97.489181" changeset="false"><tag k="addr:street" v="Postoak Parkway"/><tag k="addr:housenumber" v="20712"/><tag k="addr:postcode" v="78653"/></node><node id="-274" lat="30.283704" lon="-97.49299" changeset="false"><tag k="addr:street" v="Moses Lane"/><tag k="addr:housenumber" v="20507"/><tag k="addr:postcode" v="78653"/></node><node id="-275" lat="30.281554" lon="-97.484067" changeset="false"><tag k="addr:street" v="Trappers Trail"/><tag k="addr:housenumber" v="21016"/><tag k="addr:postcode" v="78653"/></node><node id="-276" lat="30.276974" lon="-97.463473" changeset="false"><tag k="addr:street" v="Ann Showers Drive"/><tag k="addr:housenumber" v="8615"/><tag k="addr:postcode" v="78621"/></node><node id="-277" lat="30.279291" lon="-97.505081" changeset="false"><tag k="addr:street" v="Blake Manor Road"/><tag k="addr:housenumber" v="19708"/><tag k="addr:postcode" v="78653"/></node><node id="-278" lat="30.277171" lon="-97.477063" changeset="false"><tag k="addr:street" v="Ann Showers Drive"/><tag k="addr:housenumber" v="21501"/><tag k="addr:postcode" v="78621"/></node><node id="-279" lat="30.276358" lon="-97.4658" changeset="false"><tag k="addr:street" v="Ann Showers Drive"/><tag k="addr:housenumber" v="8604"/><tag k="addr:postcode" v="78621"/></node><node id="-280" lat="30.277094" lon="-97.49131" changeset="false"><tag k="addr:street" v="Ed Acklin Road"/><tag k="addr:housenumber" v="20604"/><tag k="addr:postcode" v="78653"/></node><node id="-281" lat="30.27586" lon="-97.456343" changeset="false"><tag k="addr:street" v="Lucinda Drive"/><tag k="addr:housenumber" v="8500"/><tag k="addr:postcode" v="78621"/></node><node id="-282" lat="30.279268" lon="-97.475508" changeset="false"><tag k="addr:street" v="Tristam Drive"/><tag k="addr:housenumber" v="8701"/><tag k="addr:postcode" v="78621"/></node><node id="-283" lat="30.261447" lon="-97.484783" changeset="false"><tag k="addr:street" v="Blake Manor Road"/><tag k="addr:housenumber" v="20810"/><tag k="addr:postcode" v="78653"/></node><node id="-284" lat="30.284289" lon="-97.491519" changeset="false"><tag k="addr:street" v="Trappers Trail"/><tag k="addr:housenumber" v="20607"/><tag k="addr:postcode" v="78653"/></node><node id="-285" lat="30.27944" lon="-97.490476" changeset="false"><tag k="addr:street" v="Liveoak Lane"/><tag k="addr:housenumber" v="20700"/><tag k="addr:postcode" v="78653"/></node><node id="-286" lat="30.268156" lon="-97.493789" changeset="false"><tag k="addr:street" v="Blake Manor Road"/><tag k="addr:housenumber" v="20400"/><tag k="addr:postcode" v="78653"/></node><node id="-287" lat="30.281826" lon="-97.486247" changeset="false"><tag k="addr:street" v="Damita Jo Drive"/><tag k="addr:housenumber" v="8910"/><tag k="addr:postcode" v="78653"/></node><node id="-288" lat="30.286531" lon="-97.496192" changeset="false"><tag k="addr:street" v="Trappers Trail"/><tag k="addr:housenumber" v="20309"/><tag k="addr:postcode" v="78653"/></node><node id="-289" lat="30.28802" lon="-97.492735" changeset="false"><tag k="addr:street" v="Trappers Trail"/><tag k="addr:housenumber" v="20416"/><tag k="addr:postcode" v="78653"/></node><node id="-290" lat="30.283521" lon="-97.492651" changeset="false"><tag k="addr:street" v="Moses Lane"/><tag k="addr:housenumber" v="20511"/><tag k="addr:postcode" v="78653"/></node><node id="-291" lat="30.281022" lon="-97.487339" changeset="false"><tag k="addr:street" v="Verna Street"/><tag k="addr:housenumber" v="20901"/><tag k="addr:postcode" v="78653"/></node><node id="-292" lat="30.280862" lon="-97.488116" changeset="false"><tag k="addr:street" v="Galilee Court"/><tag k="addr:housenumber" v="20804"/><tag k="addr:postcode" v="78653"/></node><node id="-293" lat="30.275012" lon="-97.462327" changeset="false"><tag k="addr:street" v="Annabelle Drive"/><tag k="addr:housenumber" v="8410"/><tag k="addr:postcode" v="78621"/></node><node id="-294" lat="30.277855" lon="-97.490854" changeset="false"><tag k="addr:street" v="Postoak Parkway"/><tag k="addr:housenumber" v="20607"/><tag k="addr:postcode" v="78653"/></node><node id="-295" lat="30.277829" lon="-97.492825" changeset="false"><tag k="addr:street" v="Ed Acklin Road"/><tag k="addr:housenumber" v="20506"/><tag k="addr:postcode" v="78653"/></node><node id="-296" lat="30.276462" lon="-97.490009" changeset="false"><tag k="addr:street" v="Ed Acklin Road"/><tag k="addr:housenumber" v="20702"/><tag k="addr:postcode" v="78653"/></node><node id="-297" lat="30.282317" lon="-97.451543" changeset="false"><tag k="addr:street" v="Hog Eye Road"/><tag k="addr:housenumber" v="23107"/><tag k="addr:postcode" v="78621"/></node><node id="-298" lat="30.281293" lon="-97.455781" changeset="false"><tag k="addr:street" v="Lucinda Drive"/><tag k="addr:housenumber" v="8914"/><tag k="addr:postcode" v="78621"/></node><node id="-299" lat="30.260838" lon="-97.483581" changeset="false"><tag k="addr:street" v="Blake Manor Road"/><tag k="addr:housenumber" v="20828"/><tag k="addr:postcode" v="78653"/></node><node id="-300" lat="30.257245" lon="-97.48085" changeset="false"><tag k="addr:street" v="Blake Manor Road"/><tag k="addr:housenumber" v="21024"/><tag k="addr:postcode" v="78653"/></node><node id="-301" lat="30.279572" lon="-97.488081" changeset="false"><tag k="addr:street" v="Delorio Street"/><tag k="addr:housenumber" v="20806"/><tag k="addr:postcode" v="78653"/></node><node id="-302" lat="30.278315" lon="-97.489468" changeset="false"><tag k="addr:street" v="Liveoak Lane"/><tag k="addr:housenumber" v="20717"/><tag k="addr:postcode" v="78653"/></node><node id="-303" lat="30.278627" lon="-97.488825" changeset="false"><tag k="addr:street" v="Liveoak Lane"/><tag k="addr:housenumber" v="20802"/><tag k="addr:postcode" v="78653"/></node><node id="-304" lat="30.266735" lon="-97.461554" changeset="false"><tag k="addr:street" v="Ingrid Drive"/><tag k="addr:housenumber" v="7811"/><tag k="addr:postcode" v="78621"/></node><node id="-305" lat="30.284443" lon="-97.49186" changeset="false"><tag k="addr:street" v="Trappers Trail"/><tag k="addr:housenumber" v="20603"/><tag k="addr:postcode" v="78653"/></node><node id="-306" lat="30.302013" lon="-97.514702" changeset="false"><tag k="addr:street" v="Kirken Street"/><tag k="addr:housenumber" v="10424"/><tag k="addr:postcode" v="78653"/></node><node id="-307" lat="30.299456" lon="-97.52438" changeset="false"><tag k="addr:street" v="Blake Manor Road"/><tag k="addr:housenumber" v="18432"/><tag k="addr:postcode" v="78653"/></node><node id="-308" lat="30.292012" lon="-97.466622" changeset="false"><tag k="addr:street" v="Hog Eye Road"/><tag k="addr:housenumber" v="22201"/><tag k="addr:postcode" v="78653"/></node><node id="-309" lat="30.273226" lon="-97.482048" changeset="false"><tag k="addr:street" v="Marnie Drive"/><tag k="addr:housenumber" v="8507"/><tag k="addr:postcode" v="78653"/></node><node id="-310" lat="30.272912" lon="-97.484822" changeset="false"><tag k="addr:street" v="Ed Acklin Road"/><tag k="addr:housenumber" v="20765"/><tag k="addr:postcode" v="78653"/></node><node id="-311" lat="30.272721" lon="-97.493017" changeset="false"><tag k="addr:street" v="Hickory Grove Lane"/><tag k="addr:housenumber" v="20417"/><tag k="addr:postcode" v="78653"/></node><node id="-312" lat="30.272077" lon="-97.462911" changeset="false"><tag k="addr:street" v="Ingrid Drive"/><tag k="addr:housenumber" v="8201"/><tag k="addr:postcode" v="78621"/></node><node id="-313" lat="30.278142" lon="-97.503224" changeset="false"><tag k="addr:street" v="Blake Manor Road"/><tag k="addr:housenumber" v="19812"/><tag k="addr:postcode" v="78653"/></node><node id="-314" lat="30.281913" lon="-97.474854" changeset="false"><tag k="addr:street" v="Tristam Drive"/><tag k="addr:housenumber" v="9015"/><tag k="addr:postcode" v="78621"/></node><node id="-315" lat="30.282001" lon="-97.511841" changeset="false"><tag k="addr:street" v="Blake Manor Road"/><tag k="addr:housenumber" v="19304"/><tag k="addr:postcode" v="78653"/></node><node id="-316" lat="30.271058" lon="-97.467051" changeset="false"><tag k="addr:street" v="Ann Showers Drive"/><tag k="addr:housenumber" v="22200"/><tag k="addr:postcode" v="78621"/></node><node id="-317" lat="30.273115" lon="-97.462841" changeset="false"><tag k="addr:street" v="Ingrid Drive"/><tag k="addr:housenumber" v="8301"/><tag k="addr:postcode" v="78621"/></node><node id="-318" lat="30.266983" lon="-97.49342" changeset="false"><tag k="addr:street" v="Blake Manor Road"/><tag k="addr:housenumber" v="20454"/><tag k="addr:postcode" v="78653"/></node><node id="-319" lat="30.276177" lon="-97.480364" changeset="false"><tag k="addr:street" v="Ann Showers Drive"/><tag k="addr:housenumber" v="21323"/><tag k="addr:postcode" v="78653"/></node><node id="-320" lat="30.276045" lon="-97.490013" changeset="false"><tag k="addr:street" v="Ed Acklin Road"/><tag k="addr:housenumber" v="20704"/><tag k="addr:postcode" v="78653"/></node><node id="-321" lat="30.284562" lon="-97.492182" changeset="false"><tag k="addr:street" v="Trappers Trail"/><tag k="addr:housenumber" v="20517"/><tag k="addr:postcode" v="78653"/></node><node id="-322" lat="30.28386" lon="-97.490685" changeset="false"><tag k="addr:street" v="Trappers Trail"/><tag k="addr:housenumber" v="20617"/><tag k="addr:postcode" v="78653"/></node><node id="-323" lat="30.268627" lon="-97.468649" changeset="false"><tag k="addr:street" v="Silvia Drive"/><tag k="addr:housenumber" v="22116"/><tag k="addr:postcode" v="78621"/></node><node id="-324" lat="30.268135" lon="-97.468681" changeset="false"><tag k="addr:street" v="Silvia Drive"/><tag k="addr:housenumber" v="22108"/><tag k="addr:postcode" v="78621"/></node><node id="-325" lat="30.269572" lon="-97.4675" changeset="false"><tag k="addr:street" v="Silvia Drive"/><tag k="addr:housenumber" v="22129"/><tag k="addr:postcode" v="78621"/></node><node id="-326" lat="30.280686" lon="-97.489326" changeset="false"><tag k="addr:street" v="Galilee Court"/><tag k="addr:housenumber" v="20713"/><tag k="addr:postcode" v="78653"/></node><node id="-327" lat="30.277027" lon="-97.502182" changeset="false"><tag k="addr:street" v="Lockwood Springs Road"/><tag k="addr:housenumber" v="8601"/><tag k="addr:postcode" v="78653"/></node><node id="-328" lat="30.281533" lon="-97.475223" changeset="false"><tag k="addr:street" v="Tristam Drive"/><tag k="addr:housenumber" v="9005"/><tag k="addr:postcode" v="78621"/></node><node id="-329" lat="30.283214" lon="-97.492017" changeset="false"><tag k="addr:street" v="Moses Lane"/><tag k="addr:housenumber" v="20601"/><tag k="addr:postcode" v="78653"/></node><node id="-330" lat="30.279582" lon="-97.454265" changeset="false"><tag k="addr:street" v="Beth Drive"/><tag k="addr:housenumber" v="22918"/><tag k="addr:postcode" v="78621"/></node><node id="-331" lat="30.278104" lon="-97.475846" changeset="false"><tag k="addr:street" v="Ann Showers Drive"/><tag k="addr:housenumber" v="21603"/><tag k="addr:postcode" v="78621"/></node><node id="-332" lat="30.274678" lon="-97.473105" changeset="false"><tag k="addr:street" v="Ann Showers Drive"/><tag k="addr:housenumber" v="21913"/><tag k="addr:postcode" v="78653"/></node><node id="-333" lat="30.274068" lon="-97.463252" changeset="false"><tag k="addr:street" v="Ingrid Drive"/><tag k="addr:housenumber" v="8300"/><tag k="addr:postcode" v="78621"/></node><node id="-334" lat="30.277348" lon="-97.473417" changeset="false"><tag k="addr:street" v="Ann Showers Drive"/><tag k="addr:housenumber" v="21811"/><tag k="addr:postcode" v="78653"/></node><node id="-335" lat="30.280476" lon="-97.455288" changeset="false"><tag k="addr:street" v="Lucinda Drive"/><tag k="addr:housenumber" v="8907"/><tag k="addr:postcode" v="78621"/></node><node id="-336" lat="30.278044" lon="-97.489853" changeset="false"><tag k="addr:street" v="Postoak Parkway"/><tag k="addr:housenumber" v="20704"/><tag k="addr:postcode" v="78653"/></node><node id="-337" lat="30.277146" lon="-97.492622" changeset="false"><tag k="addr:street" v="Ed Acklin Road"/><tag k="addr:housenumber" v="20512"/><tag k="addr:postcode" v="78653"/></node><node id="-338" lat="30.279349" lon="-97.48626" changeset="false"><tag k="addr:street" v="Galilee Court"/><tag k="addr:housenumber" v="20909"/><tag k="addr:postcode" v="78653"/></node><node id="-339" lat="30.278829" lon="-97.485981" changeset="false"><tag k="addr:street" v="Delorio Street"/><tag k="addr:housenumber" v="20912"/><tag k="addr:postcode" v="78653"/></node><node id="-340" lat="30.278354" lon="-97.490509" changeset="false"><tag k="addr:street" v="Postoak Parkway"/><tag k="addr:housenumber" v="20606"/><tag k="addr:postcode" v="78653"/></node><node id="-341" lat="30.27983" lon="-97.485813" changeset="false"><tag k="addr:street" v="Galilee Court"/><tag k="addr:housenumber" v="20910"/><tag k="addr:postcode" v="78653"/></node><node id="-342" lat="30.278212" lon="-97.493629" changeset="false"><tag k="addr:street" v="Ed Acklin Road"/><tag k="addr:housenumber" v="20414"/><tag k="addr:postcode" v="78653"/></node><node id="-343" lat="30.277773" lon="-97.490645" changeset="false"><tag k="addr:street" v="Postoak Parkway"/><tag k="addr:housenumber" v="20609"/><tag k="addr:postcode" v="78653"/></node><node id="-344" lat="30.27796" lon="-97.487877" changeset="false"><tag k="addr:street" v="Damita Jo Drive"/><tag k="addr:housenumber" v="8701"/><tag k="addr:postcode" v="78653"/></node><node id="-345" lat="30.302553" lon="-97.508358" changeset="false"><tag k="addr:street" v="Formith Street"/><tag k="addr:housenumber" v="10428"/><tag k="addr:postcode" v="78653"/></node><node id="-346" lat="30.270286" lon="-97.467187" changeset="false"><tag k="addr:street" v="Ann Showers Drive"/><tag k="addr:housenumber" v="22115"/><tag k="addr:postcode" v="78621"/></node><node id="-347" lat="30.257071" lon="-97.467028" changeset="false"><tag k="addr:street" v="Dry Creek Road"/><tag k="addr:housenumber" v="224"/><tag k="addr:postcode" v="78653"/></node><node id="-348" lat="30.283295" lon="-97.492172" changeset="false"><tag k="addr:street" v="Moses Lane"/><tag k="addr:housenumber" v="20517"/><tag k="addr:postcode" v="78653"/></node><node id="-349" lat="30.276699" lon="-97.490476" changeset="false"><tag k="addr:street" v="Ed Acklin Road"/><tag k="addr:housenumber" v="20614"/><tag k="addr:postcode" v="78653"/></node><node id="-350" lat="30.280562" lon="-97.490131" changeset="false"><tag k="addr:street" v="Delorio Street"/><tag k="addr:housenumber" v="20702"/><tag k="addr:postcode" v="78653"/></node><node id="-351" lat="30.280529" lon="-97.491408" changeset="false"><tag k="addr:street" v="Delorio Street"/><tag k="addr:housenumber" v="20601"/><tag k="addr:postcode" v="78653"/></node><node id="-352" lat="30.283577" lon="-97.457639" changeset="false"><tag k="addr:street" v="Hog Eye Road"/><tag k="addr:housenumber" v="22717"/><tag k="addr:postcode" v="78621"/></node><node id="-353" lat="30.282875" lon="-97.499733" changeset="false"><tag k="addr:street" v="Lockwood Springs Road"/><tag k="addr:housenumber" v="9008"/><tag k="addr:postcode" v="78653"/></node><node id="-354" lat="30.279937" lon="-97.486069" changeset="false"><tag k="addr:street" v="Galilee Court"/><tag k="addr:housenumber" v="20908"/><tag k="addr:postcode" v="78653"/></node><node id="-355" lat="30.281529" lon="-97.48958" changeset="false"><tag k="addr:street" v="Galilee Court"/><tag k="addr:housenumber" v="20708"/><tag k="addr:postcode" v="78653"/></node><node id="-356" lat="30.281463" lon="-97.486688" changeset="false"><tag k="addr:street" v="Verna Street"/><tag k="addr:housenumber" v="20904"/><tag k="addr:postcode" v="78653"/></node><node id="-357" lat="30.281269" lon="-97.487873" changeset="false"><tag k="addr:street" v="Verna Street"/><tag k="addr:housenumber" v="20813"/><tag k="addr:postcode" v="78653"/></node><node id="-358" lat="30.28112" lon="-97.487512" changeset="false"><tag k="addr:street" v="Verna Street"/><tag k="addr:housenumber" v="20817"/><tag k="addr:postcode" v="78653"/></node><node id="-359" lat="30.279045" lon="-97.486937" changeset="false"><tag k="addr:street" v="Delorio Street"/><tag k="addr:housenumber" v="20902"/><tag k="addr:postcode" v="78653"/></node><node id="-360" lat="30.277516" lon="-97.492326" changeset="false"><tag k="addr:street" v="Ed Acklin Road"/><tag k="addr:housenumber" v="20514"/><tag k="addr:postcode" v="78653"/></node><node id="-361" lat="30.281129" lon="-97.48873" changeset="false"><tag k="addr:street" v="Galilee Court"/><tag k="addr:housenumber" v="20800"/><tag k="addr:postcode" v="78653"/></node><node id="-362" lat="30.28208" lon="-97.481704" changeset="false"><tag k="addr:street" v="Unice Drive"/><tag k="addr:housenumber" v="9002"/><tag k="addr:postcode" v="78621"/></node><node id="-363" lat="30.273403" lon="-97.486586" changeset="false"><tag k="addr:street" v="Ed Acklin Road"/><tag k="addr:housenumber" v="20759"/><tag k="addr:postcode" v="78653"/></node><node id="-364" lat="30.292417" lon="-97.467518" changeset="false"><tag k="addr:street" v="Hog Eye Road"/><tag k="addr:housenumber" v="22109"/><tag k="addr:postcode" v="78653"/></node><node id="-365" lat="30.279007" lon="-97.488355" changeset="false"><tag k="addr:street" v="Delorio Street"/><tag k="addr:housenumber" v="20811"/><tag k="addr:postcode" v="78653"/></node><node id="-366" lat="30.283322" lon="-97.515527" changeset="false"><tag k="addr:street" v="Blake Manor Road"/><tag k="addr:housenumber" v="19108"/><tag k="addr:postcode" v="78653"/></node><node id="-367" lat="30.281413" lon="-97.485038" changeset="false"><tag k="addr:street" v="Trappers Trail"/><tag k="addr:housenumber" v="21009"/><tag k="addr:postcode" v="78653"/></node><node id="-368" lat="30.279309" lon="-97.489013" changeset="false"><tag k="addr:street" v="Delorio Street"/><tag k="addr:housenumber" v="20803"/><tag k="addr:postcode" v="78653"/></node><node id="-369" lat="30.285865" lon="-97.493689" changeset="false"><tag k="addr:street" v="Trappers Trail"/><tag k="addr:housenumber" v="20410"/><tag k="addr:postcode" v="78653"/></node><node id="-370" lat="30.277522" lon="-97.495228" changeset="false"><tag k="addr:street" v="Ed Acklin Road"/><tag k="addr:housenumber" v="20401"/><tag k="addr:postcode" v="78653"/></node><node id="-371" lat="30.283225" lon="-97.515337" changeset="false"><tag k="addr:street" v="Blake Manor Road"/><tag k="addr:housenumber" v="19109"/><tag k="addr:postcode" v="78653"/></node><node id="-372" lat="30.295979" lon="-97.514719" changeset="false"><tag k="addr:street" v="Hog Eye Road"/><tag k="addr:housenumber" v="19204"/><tag k="addr:postcode" v="78653"/></node><node id="-373" lat="30.280484" lon="-97.48615" changeset="false"><tag k="addr:street" v="Verna Street"/><tag k="addr:housenumber" v="20915"/><tag k="addr:postcode" v="78653"/></node><node id="-374" lat="30.279775" lon="-97.485692" changeset="false"><tag k="addr:street" v="Galilee Court"/><tag k="addr:housenumber" v="20912"/><tag k="addr:postcode" v="78653"/></node><node id="-375" lat="30.26952" lon="-97.459138" changeset="false"><tag k="addr:street" v="Deidra Drive"/><tag k="addr:housenumber" v="22700"/><tag k="addr:postcode" v="78621"/></node><node id="-376" lat="30.28023" lon="-97.485682" changeset="false"><tag k="addr:street" v="Verna Street"/><tag k="addr:housenumber" v="21005"/><tag k="addr:postcode" v="78653"/></node><node id="-377" lat="30.277978" lon="-97.481063" changeset="false"><tag k="addr:street" v="Ann Showers Drive"/><tag k="addr:housenumber" v="21234"/><tag k="addr:postcode" v="78621"/></node><node id="-378" lat="30.281583" lon="-97.485429" changeset="false"><tag k="addr:street" v="Trappers Trail"/><tag k="addr:housenumber" v="21005"/><tag k="addr:postcode" v="78653"/></node><node id="-379" lat="30.279315" lon="-97.498552" changeset="false"><tag k="addr:street" v="Ed Acklin Road"/><tag k="addr:housenumber" v="20123"/><tag k="addr:postcode" v="78653"/></node><node id="-380" lat="30.28508" lon="-97.493308" changeset="false"><tag k="addr:street" v="Trappers Trail"/><tag k="addr:housenumber" v="20507"/><tag k="addr:postcode" v="78653"/></node><node id="-381" lat="30.295409" lon="-97.474042" changeset="false"><tag k="addr:street" v="Hog Eye Road"/><tag k="addr:housenumber" v="21717"/><tag k="addr:postcode" v="78653"/></node><node id="-382" lat="30.282047" lon="-97.48635" changeset="false"><tag k="addr:street" v="Trappers Trail"/><tag k="addr:housenumber" v="20915"/><tag k="addr:postcode" v="78653"/></node><node id="-383" lat="30.280751" lon="-97.487814" changeset="false"><tag k="addr:street" v="Galilee Court"/><tag k="addr:housenumber" v="20806"/><tag k="addr:postcode" v="78653"/></node><node id="-384" lat="30.293609" lon="-97.470325" changeset="false"><tag k="addr:street" v="Hog Eye Road"/><tag k="addr:housenumber" v="22001"/><tag k="addr:postcode" v="78653"/></node><node id="-385" lat="30.302226" lon="-97.513122" changeset="false"><tag k="addr:street" v="Parsons Road"/><tag k="addr:housenumber" v="10501"/><tag k="addr:postcode" v="78653"/></node><node id="-386" lat="30.301364" lon="-97.509623" changeset="false"><tag k="addr:street" v="Formith Street"/><tag k="addr:housenumber" v="10406"/><tag k="addr:postcode" v="78653"/></node><node id="-387" lat="30.293893" lon="-97.520265" changeset="false"><tag k="addr:street" v="Hog Eye Road"/><tag k="addr:housenumber" v="18811"/><tag k="addr:postcode" v="78653"/></node><node id="-388" lat="30.278686" lon="-97.487409" changeset="false"><tag k="addr:street" v="Delorio Street"/><tag k="addr:housenumber" v="20903"/><tag k="addr:postcode" v="78653"/></node><node id="-389" lat="30.275751" lon="-97.480258" changeset="false"><tag k="addr:street" v="Marnie Drive"/><tag k="addr:housenumber" v="8500"/><tag k="addr:postcode" v="78653"/></node><node id="-390" lat="30.275869" lon="-97.499852" changeset="false"><tag k="addr:street" v="Hickory Grove Lane"/><tag k="addr:housenumber" v="20111"/><tag k="addr:postcode" v="78653"/></node><node id="-391" lat="30.279651" lon="-97.482345" changeset="false"><tag k="addr:street" v="Ann Showers Drive"/><tag k="addr:housenumber" v="21200"/><tag k="addr:postcode" v="78621"/></node><node id="-392" lat="30.277546" lon="-97.465035" changeset="false"><tag k="addr:street" v="Ann Showers Drive"/><tag k="addr:housenumber" v="8614"/><tag k="addr:postcode" v="78621"/></node><node id="-393" lat="30.28164" lon="-97.487002" changeset="false"><tag k="addr:street" v="Verna Street"/><tag k="addr:housenumber" v="20900"/><tag k="addr:postcode" v="78653"/></node><node id="-394" lat="30.256574" lon="-97.467335" changeset="false"><tag k="addr:street" v="Dry Creek Road"/><tag k="addr:housenumber" v="216"/><tag k="addr:postcode" v="78653"/></node><node id="-395" lat="30.29374" lon="-97.488121" changeset="false"><tag k="addr:street" v="Quiet Oaks Lane"/><tag k="addr:housenumber" v="20621"/><tag k="addr:postcode" v="78653"/></node><node id="-396" lat="30.274127" lon="-97.473408" changeset="false"><tag k="addr:street" v="Ann Showers Drive"/><tag k="addr:housenumber" v="21921"/><tag k="addr:postcode" v="78653"/></node><node id="-397" lat="30.278478" lon="-97.461713" changeset="false"><tag k="addr:street" v="Ingrid Drive"/><tag k="addr:housenumber" v="8708"/><tag k="addr:postcode" v="78621"/></node><node id="-398" lat="30.2774" lon="-97.4786" changeset="false"><tag k="addr:street" v="Ann Showers Drive"/><tag k="addr:housenumber" v="21418"/><tag k="addr:postcode" v="78621"/></node><node id="-399" lat="30.278706" lon="-97.4751" changeset="false"><tag k="addr:street" v="Ann Showers Drive"/><tag k="addr:housenumber" v="21610"/><tag k="addr:postcode" v="78621"/></node><node id="-400" lat="30.275792" lon="-97.489298" changeset="false"><tag k="addr:street" v="Damita Jo Drive"/><tag k="addr:housenumber" v="8503"/><tag k="addr:postcode" v="78653"/></node><node id="-401" lat="30.27839" lon="-97.49395" changeset="false"><tag k="addr:street" v="Ed Acklin Road"/><tag k="addr:housenumber" v="20410"/><tag k="addr:postcode" v="78653"/></node><node id="-402" lat="30.278983" lon="-97.457244" changeset="false"><tag k="addr:street" v="Lucinda Drive"/><tag k="addr:housenumber" v="8800"/><tag k="addr:postcode" v="78621"/></node><node id="-403" lat="30.278522" lon="-97.457181" changeset="false"><tag k="addr:street" v="Lucinda Drive"/><tag k="addr:housenumber" v="8710"/><tag k="addr:postcode" v="78621"/></node><node id="-404" lat="30.300648" lon="-97.492238" changeset="false"><tag k="addr:street" v="Hog Eye Road"/><tag k="addr:housenumber" v="20519"/><tag k="addr:postcode" v="78653"/></node><node id="-405" lat="30.279597" lon="-97.496434" changeset="false"><tag k="addr:street" v="Ed Acklin Road"/><tag k="addr:housenumber" v="20218"/><tag k="addr:postcode" v="78653"/></node><node id="-406" lat="30.279158" lon="-97.495662" changeset="false"><tag k="addr:street" v="Ed Acklin Road"/><tag k="addr:housenumber" v="20308"/><tag k="addr:postcode" v="78653"/></node><node id="-407" lat="30.270957" lon="-97.473361" changeset="false"><tag k="addr:street" v="Ann Showers Drive"/><tag k="addr:housenumber" v="21965"/><tag k="addr:postcode" v="78653"/></node><node id="-408" lat="30.269812" lon="-97.463726" changeset="false"><tag k="addr:street" v="Ingrid Drive"/><tag k="addr:housenumber" v="8001"/><tag k="addr:postcode" v="78621"/></node><node id="-409" lat="30.303365" lon="-97.526528" changeset="false"><tag k="addr:street" v="Taylor Lane"/><tag k="addr:housenumber" v="10601"/><tag k="addr:postcode" v="78653"/></node><node id="-410" lat="30.279759" lon="-97.488507" changeset="false"><tag k="addr:street" v="Delorio Street"/><tag k="addr:housenumber" v="20802"/><tag k="addr:postcode" v="78653"/></node><node id="-411" lat="30.295164" lon="-97.51894" changeset="false"><tag k="addr:street" v="Larob Lane"/><tag k="addr:housenumber" v="9912"/><tag k="addr:postcode" v="78653"/></node><node id="-412" lat="30.283905" lon="-97.492132" changeset="false"><tag k="addr:street" v="Moses Lane"/><tag k="addr:housenumber" v="20512"/><tag k="addr:postcode" v="78653"/></node><node id="-413" lat="30.281765" lon="-97.500165" changeset="false"><tag k="addr:street" v="Lockwood Springs Road"/><tag k="addr:housenumber" v="8910"/><tag k="addr:postcode" v="78653"/></node><node id="-414" lat="30.280915" lon="-97.487188" changeset="false"><tag k="addr:street" v="Verna Street"/><tag k="addr:housenumber" v="20903"/><tag k="addr:postcode" v="78653"/></node><node id="-415" lat="30.280377" lon="-97.486" changeset="false"><tag k="addr:street" v="Verna Street"/><tag k="addr:housenumber" v="20917"/><tag k="addr:postcode" v="78653"/></node><node id="-416" lat="30.280079" lon="-97.486412" changeset="false"><tag k="addr:street" v="Galilee Court"/><tag k="addr:housenumber" v="20904"/><tag k="addr:postcode" v="78653"/></node><node id="-417" lat="30.293568" lon="-97.508851" changeset="false"><tag k="addr:street" v="Hog Eye Road"/><tag k="addr:housenumber" v="19515"/><tag k="addr:postcode" v="78653"/></node><node id="-418" lat="30.293266" lon="-97.510425" changeset="false"><tag k="addr:street" v="Hog Eye Road"/><tag k="addr:housenumber" v="19411"/><tag k="addr:postcode" v="78653"/></node><node id="-419" lat="30.273299" lon="-97.469119" changeset="false"><tag k="addr:street" v="Sigrid Drive"/><tag k="addr:housenumber" v="8238"/><tag k="addr:postcode" v="78621"/></node><node id="-420" lat="30.2814" lon="-97.461527" changeset="false"><tag k="addr:street" v="Ingrid Drive"/><tag k="addr:housenumber" v="9001"/><tag k="addr:postcode" v="78621"/></node><node id="-421" lat="30.28397" lon="-97.490836" changeset="false"><tag k="addr:street" v="Trappers Trail"/><tag k="addr:housenumber" v="20615"/><tag k="addr:postcode" v="78653"/></node><node id="-422" lat="30.283614" lon="-97.491291" changeset="false"><tag k="addr:street" v="Moses Lane"/><tag k="addr:housenumber" v="20604"/><tag k="addr:postcode" v="78653"/></node><node id="-423" lat="30.306491" lon="-97.516355" changeset="false"><tag k="addr:street" v="Lockwood Road"/><tag k="addr:housenumber" v="19011"/><tag k="addr:postcode" v="78653"/></node><node id="-424" lat="30.280358" lon="-97.458094" changeset="false"><tag k="addr:street" v="Viola Drive"/><tag k="addr:housenumber" v="22800"/><tag k="addr:postcode" v="78621"/></node><node id="-425" lat="30.278194" lon="-97.487743" changeset="false"><tag k="addr:street" v="Damita Jo Drive"/><tag k="addr:housenumber" v="8705"/><tag k="addr:postcode" v="78653"/></node><node id="-426" lat="30.278065" lon="-97.487811" changeset="false"><tag k="addr:street" v="Damita Jo Drive"/><tag k="addr:housenumber" v="8703"/><tag k="addr:postcode" v="78653"/></node><node id="-427" lat="30.267182" lon="-97.462081" changeset="false"><tag k="addr:street" v="Ingrid Drive"/><tag k="addr:housenumber" v="7817"/><tag k="addr:postcode" v="78621"/></node><node id="-428" lat="30.270806" lon="-97.468179" changeset="false"><tag k="addr:street" v="Ann Showers Drive"/><tag k="addr:housenumber" v="22108"/><tag k="addr:postcode" v="78621"/></node><node id="-429" lat="30.269389" lon="-97.458456" changeset="false"><tag k="addr:street" v="Deidra Drive"/><tag k="addr:housenumber" v="22708"/><tag k="addr:postcode" v="78621"/></node><node id="-430" lat="30.280488" lon="-97.46134" changeset="false"><tag k="addr:street" v="Ingrid Drive"/><tag k="addr:housenumber" v="8821"/><tag k="addr:postcode" v="78621"/></node><node id="-431" lat="30.278317" lon="-97.473344" changeset="false"><tag k="addr:street" v="Ann Showers Drive"/><tag k="addr:housenumber" v="21800"/><tag k="addr:postcode" v="78621"/></node><node id="-432" lat="30.302557" lon="-97.508808" changeset="false"><tag k="addr:street" v="Formith Street"/><tag k="addr:housenumber" v="10420"/><tag k="addr:postcode" v="78653"/></node><node id="-433" lat="30.298921" lon="-97.526323" changeset="false"><tag k="addr:street" v="Blake Manor Road"/><tag k="addr:housenumber" v="18420"/><tag k="addr:postcode" v="78653"/></node><node id="-434" lat="30.283388" lon="-97.492329" changeset="false"><tag k="addr:street" v="Moses Lane"/><tag k="addr:housenumber" v="20515"/><tag k="addr:postcode" v="78653"/></node><node id="-435" lat="30.301347" lon="-97.515913" changeset="false"><tag k="addr:street" v="Kirken Street"/><tag k="addr:housenumber" v="10408"/><tag k="addr:postcode" v="78653"/></node><node id="-436" lat="30.300292" lon="-97.5101" changeset="false"><tag k="addr:street" v="Formith Street"/><tag k="addr:housenumber" v="10314"/><tag k="addr:postcode" v="78653"/></node><node id="-437" lat="30.30006" lon="-97.512262" changeset="false"><tag k="addr:street" v="Parsons Road"/><tag k="addr:housenumber" v="10412"/><tag k="addr:postcode" v="78653"/></node><node id="-438" lat="30.276289" lon="-97.497777" changeset="false"><tag k="addr:street" v="Hickory Grove Lane"/><tag k="addr:housenumber" v="20212"/><tag k="addr:postcode" v="78653"/></node><node id="-439" lat="30.274949" lon="-97.48995" changeset="false"><tag k="addr:street" v="Ed Acklin Road"/><tag k="addr:housenumber" v="20711"/><tag k="addr:postcode" v="78653"/></node><node id="-440" lat="30.284112" lon="-97.491165" changeset="false"><tag k="addr:street" v="Trappers Trail"/><tag k="addr:housenumber" v="20611"/><tag k="addr:postcode" v="78653"/></node><node id="-441" lat="30.258199" lon="-97.480096" changeset="false"><tag k="addr:street" v="Blake Manor Road"/><tag k="addr:housenumber" v="21004"/><tag k="addr:postcode" v="78653"/></node><node id="-442" lat="30.307675" lon="-97.512493" changeset="false"><tag k="addr:street" v="Lockwood Road"/><tag k="addr:housenumber" v="19307"/><tag k="addr:postcode" v="78653"/></node><node id="-443" lat="30.277692" lon="-97.490504" changeset="false"><tag k="addr:street" v="Postoak Parkway"/><tag k="addr:housenumber" v="20701"/><tag k="addr:postcode" v="78653"/></node><node id="-444" lat="30.267602" lon="-97.461984" changeset="false"><tag k="addr:street" v="Deidra Drive"/><tag k="addr:housenumber" v="22515"/><tag k="addr:postcode" v="78621"/></node><node id="-445" lat="30.279247" lon="-97.487175" changeset="false"><tag k="addr:street" v="Damita Jo Drive"/><tag k="addr:housenumber" v="8803"/><tag k="addr:postcode" v="78653"/></node><node id="-446" lat="30.278951" lon="-97.490788" changeset="false"><tag k="addr:street" v="Liveoak Lane"/><tag k="addr:housenumber" v="20701"/><tag k="addr:postcode" v="78653"/></node><node id="-447" lat="30.278789" lon="-97.494812" changeset="false"><tag k="addr:street" v="Ed Acklin Road"/><tag k="addr:housenumber" v="20400"/><tag k="addr:postcode" v="78653"/></node><node id="-448" lat="30.278396" lon="-97.48963" changeset="false"><tag k="addr:street" v="Liveoak Lane"/><tag k="addr:housenumber" v="20715"/><tag k="addr:postcode" v="78653"/></node><node id="-449" lat="30.28209" lon="-97.479976" changeset="false"><tag k="addr:street" v="Unice Drive"/><tag k="addr:housenumber" v="9013"/><tag k="addr:postcode" v="78621"/></node><node id="-450" lat="30.275031" lon="-97.47276" changeset="false"><tag k="addr:street" v="Ann Showers Drive"/><tag k="addr:housenumber" v="21907"/><tag k="addr:postcode" v="78621"/></node><node id="-451" lat="30.285248" lon="-97.491249" changeset="false"><tag k="addr:street" v="Trappers Trail"/><tag k="addr:housenumber" v="20600"/><tag k="addr:postcode" v="78653"/></node><node id="-452" lat="30.285411" lon="-97.494869" changeset="false"><tag k="addr:street" v="Trappers Trail"/><tag k="addr:housenumber" v="20401"/><tag k="addr:postcode" v="78653"/></node><node id="-453" lat="30.272119" lon="-97.471414" changeset="false"><tag k="addr:street" v="Sigrid Drive"/><tag k="addr:housenumber" v="8200"/><tag k="addr:postcode" v="78621"/></node><node id="-454" lat="30.300069" lon="-97.492678" changeset="false"><tag k="addr:street" v="Hog Eye Road"/><tag k="addr:housenumber" v="20505"/><tag k="addr:postcode" v="78653"/></node><node id="-455" lat="30.271449" lon="-97.462982" changeset="false"><tag k="addr:street" v="Ingrid Drive"/><tag k="addr:housenumber" v="8115"/><tag k="addr:postcode" v="78621"/></node><node id="-456" lat="30.295129" lon="-97.473249" changeset="false"><tag k="addr:street" v="Hog Eye Road"/><tag k="addr:housenumber" v="21801"/><tag k="addr:postcode" v="78653"/></node><node id="-457" lat="30.303661" lon="-97.52376" changeset="false"><tag k="addr:street" v="Lockwood Road"/><tag k="addr:housenumber" v="18605"/><tag k="addr:postcode" v="78653"/></node><node id="-458" lat="30.286127" lon="-97.461287" changeset="false"><tag k="addr:street" v="Hog Eye Road"/><tag k="addr:housenumber" v="22551"/><tag k="addr:postcode" v="78653"/></node><node id="-459" lat="30.280087" lon="-97.487972" changeset="false"><tag k="addr:street" v="Galilee Court"/><tag k="addr:housenumber" v="20809"/><tag k="addr:postcode" v="78653"/></node><node id="-460" lat="30.28014" lon="-97.490657" changeset="false"><tag k="addr:street" v="Delorio Street"/><tag k="addr:housenumber" v="20701"/><tag k="addr:postcode" v="78653"/></node><node id="-461" lat="30.284433" lon="-97.45945" changeset="false"><tag k="addr:street" v="Hog Eye Road"/><tag k="addr:housenumber" v="22627"/><tag k="addr:postcode" v="78621"/></node><node id="-462" lat="30.283494" lon="-97.46194" changeset="false"><tag k="addr:street" v="Ingrid Drive"/><tag k="addr:housenumber" v="9100"/><tag k="addr:postcode" v="78621"/></node><node id="-463" lat="30.272683" lon="-97.474171" changeset="false"><tag k="addr:street" v="Ann Showers Drive"/><tag k="addr:housenumber" v="21943"/><tag k="addr:postcode" v="78653"/></node><node id="-464" lat="30.277449" lon="-97.48998" changeset="false"><tag k="addr:street" v="Postoak Parkway"/><tag k="addr:housenumber" v="20707"/><tag k="addr:postcode" v="78653"/></node><node id="-465" lat="30.280738" lon="-97.490447" changeset="false"><tag k="addr:street" v="Delorio Street"/><tag k="addr:housenumber" v="20700"/><tag k="addr:postcode" v="78653"/></node><node id="-466" lat="30.273293" lon="-97.46969" changeset="false"><tag k="addr:street" v="Sigrid Drive"/><tag k="addr:housenumber" v="8230"/><tag k="addr:postcode" v="78621"/></node><node id="-467" lat="30.27296" lon="-97.470036" changeset="false"><tag k="addr:street" v="Sigrid Drive"/><tag k="addr:housenumber" v="8222"/><tag k="addr:postcode" v="78621"/></node><node id="-468" lat="30.278179" lon="-97.489136" changeset="false"><tag k="addr:street" v="Liveoak Lane"/><tag k="addr:housenumber" v="20803"/><tag k="addr:postcode" v="78653"/></node><node id="-469" lat="30.278125" lon="-97.490015" changeset="false"><tag k="addr:street" v="Postoak Parkway"/><tag k="addr:housenumber" v="20702"/><tag k="addr:postcode" v="78653"/></node><node id="-470" lat="30.277991" lon="-97.493137" changeset="false"><tag k="addr:street" v="Ed Acklin Road"/><tag k="addr:housenumber" v="20502"/><tag k="addr:postcode" v="78653"/></node><node id="-471" lat="30.279613" lon="-97.489715" changeset="false"><tag k="addr:street" v="Delorio Street"/><tag k="addr:housenumber" v="20711"/><tag k="addr:postcode" v="78653"/></node><node id="-472" lat="30.281195" lon="-97.47564" changeset="false"><tag k="addr:street" v="Tristam Drive"/><tag k="addr:housenumber" v="8805"/><tag k="addr:postcode" v="78621"/></node><node id="-473" lat="30.27851" lon="-97.453966" changeset="false"><tag k="addr:street" v="Beth Drive"/><tag k="addr:housenumber" v="22911"/><tag k="addr:postcode" v="78621"/></node><node id="-474" lat="30.279898" lon="-97.490189" changeset="false"><tag k="addr:street" v="Delorio Street"/><tag k="addr:housenumber" v="20705"/><tag k="addr:postcode" v="78653"/></node><node id="-475" lat="30.282681" lon="-97.480927" changeset="false"><tag k="addr:street" v="Unice Drive"/><tag k="addr:housenumber" v="9012"/><tag k="addr:postcode" v="78621"/></node><node id="-476" lat="30.271875" lon="-97.464465" changeset="false"><tag k="addr:street" v="Ann Showers Drive"/><tag k="addr:housenumber" v="22305"/><tag k="addr:postcode" v="78621"/></node><node id="-477" lat="30.270224" lon="-97.470437" changeset="false"><tag k="addr:street" v="Ann Showers Drive"/><tag k="addr:housenumber" v="22018"/><tag k="addr:postcode" v="78621"/></node><node id="-478" lat="30.272992" lon="-97.464838" changeset="false"><tag k="addr:street" v="Ann Showers Drive"/><tag k="addr:housenumber" v="22308"/><tag k="addr:postcode" v="78621"/></node><node id="-479" lat="30.29569" lon="-97.474533" changeset="false"><tag k="addr:street" v="Hog Eye Road"/><tag k="addr:housenumber" v="21707"/><tag k="addr:postcode" v="78653"/></node><node id="-480" lat="30.268631" lon="-97.473744" changeset="false"><tag k="addr:street" v="Silvia Drive"/><tag k="addr:housenumber" v="21933"/><tag k="addr:postcode" v="78653"/></node><node id="-481" lat="30.302494" lon="-97.513782" changeset="false"><tag k="addr:street" v="Parsons Road"/><tag k="addr:housenumber" v="10517"/><tag k="addr:postcode" v="78653"/></node><node id="-482" lat="30.299319" lon="-97.526686" changeset="false"><tag k="addr:street" v="Blake Manor Road"/><tag k="addr:housenumber" v="18416"/><tag k="addr:postcode" v="78653"/></node><node id="-483" lat="30.298354" lon="-97.508774" changeset="false"><tag k="addr:street" v="Parsons Road"/><tag k="addr:housenumber" v="10221"/><tag k="addr:postcode" v="78653"/></node><node id="-484" lat="30.29434" lon="-97.522538" changeset="false"><tag k="addr:street" v="Hog Eye Road"/><tag k="addr:housenumber" v="18621"/><tag k="addr:postcode" v="78653"/></node><node id="-485" lat="30.278167" lon="-97.496289" changeset="false"><tag k="addr:street" v="Ed Acklin Road"/><tag k="addr:housenumber" v="20311"/><tag k="addr:postcode" v="78653"/></node><node id="-486" lat="30.279036" lon="-97.489666" changeset="false"><tag k="addr:street" v="Liveoak Lane"/><tag k="addr:housenumber" v="20710"/><tag k="addr:postcode" v="78653"/></node><node id="-487" lat="30.275127" lon="-97.490412" changeset="false"><tag k="addr:street" v="Ed Acklin Road"/><tag k="addr:housenumber" v="20705"/><tag k="addr:postcode" v="78653"/></node><node id="-488" lat="30.265265" lon="-97.462594" changeset="false"><tag k="addr:street" v="Ingrid Drive"/><tag k="addr:housenumber" v="7716"/><tag k="addr:postcode" v="78621"/></node><node id="-489" lat="30.277036" lon="-97.491126" changeset="false"><tag k="addr:street" v="Ed Acklin Road"/><tag k="addr:housenumber" v="20606"/><tag k="addr:postcode" v="78653"/></node><node id="-490" lat="30.27777" lon="-97.492613" changeset="false"><tag k="addr:street" v="Ed Acklin Road"/><tag k="addr:housenumber" v="20508"/><tag k="addr:postcode" v="78653"/></node><node id="-491" lat="30.277338" lon="-97.488284" changeset="false"><tag k="addr:street" v="Damita Jo Drive"/><tag k="addr:housenumber" v="8615"/><tag k="addr:postcode" v="78653"/></node><node id="-492" lat="30.278519" lon="-97.487538" changeset="false"><tag k="addr:street" v="Damita Jo Drive"/><tag k="addr:housenumber" v="8709"/><tag k="addr:postcode" v="78653"/></node><node id="-493" lat="30.287797" lon="-97.492309" changeset="false"><tag k="addr:street" v="Trappers Trail"/><tag k="addr:housenumber" v="20500"/><tag k="addr:postcode" v="78653"/></node><node id="-494" lat="30.296768" lon="-97.516916" changeset="false"><tag k="addr:street" v="Larob Lane"/><tag k="addr:housenumber" v="10023"/><tag k="addr:postcode" v="78653"/></node><node id="-495" lat="30.280308" lon="-97.489596" changeset="false"><tag k="addr:street" v="Delorio Street"/><tag k="addr:housenumber" v="20706"/><tag k="addr:postcode" v="78653"/></node><node id="-496" lat="30.281049" lon="-97.500356" changeset="false"><tag k="addr:street" v="Lockwood Springs Road"/><tag k="addr:housenumber" v="8900"/><tag k="addr:postcode" v="78653"/></node><node id="-497" lat="30.300898" lon="-97.508634" changeset="false"><tag k="addr:street" v="Formith Street"/><tag k="addr:housenumber" v="10411"/><tag k="addr:postcode" v="78653"/></node><node id="-498" lat="30.294725" lon="-97.521115" changeset="false"><tag k="addr:street" v="Hog Eye Road"/><tag k="addr:housenumber" v="18718"/><tag k="addr:postcode" v="78653"/></node><node id="-499" lat="30.29411" lon="-97.509908" changeset="false"><tag k="addr:street" v="Hog Eye Road"/><tag k="addr:housenumber" v="19500"/><tag k="addr:postcode" v="78653"/></node><node id="-500" lat="30.283291" lon="-97.490637" changeset="false"><tag k="addr:street" v="Moses Lane"/><tag k="addr:housenumber" v="20612"/><tag k="addr:postcode" v="78653"/></node><node id="-501" lat="30.282751" lon="-97.480236" changeset="false"><tag k="addr:street" v="Unice Drive"/><tag k="addr:housenumber" v="9019"/><tag k="addr:postcode" v="78621"/></node><node id="-502" lat="30.295235" lon="-97.492861" changeset="false"><tag k="addr:street" v="Quiet Oaks Lane"/><tag k="addr:housenumber" v="20511"/><tag k="addr:postcode" v="78653"/></node><node id="-503" lat="30.284619" lon="-97.45991" changeset="false"><tag k="addr:street" v="Hog Eye Road"/><tag k="addr:housenumber" v="22619"/><tag k="addr:postcode" v="78621"/></node><node id="-504" lat="30.282741" lon="-97.47471" changeset="false"><tag k="addr:street" v="Tristam Drive"/><tag k="addr:housenumber" v="9034"/><tag k="addr:postcode" v="78621"/></node><node id="-505" lat="30.305829" lon="-97.507188" changeset="false"><tag k="addr:street" v="Lockwood Road"/><tag k="addr:housenumber" v="19713"/><tag k="addr:postcode" v="78653"/></node><node id="-506" lat="30.27862" lon="-97.476054" changeset="false"><tag k="addr:street" v="Ann Showers Drive"/><tag k="addr:housenumber" v="21602"/><tag k="addr:postcode" v="78621"/></node><node id="-507" lat="30.277941" lon="-97.472136" changeset="false"><tag k="addr:street" v="Ann Showers Drive"/><tag k="addr:housenumber" v="21816"/><tag k="addr:postcode" v="78621"/></node><node id="-508" lat="30.27749" lon="-97.463533" changeset="false"><tag k="addr:street" v="Ann Showers Drive"/><tag k="addr:housenumber" v="8619"/><tag k="addr:postcode" v="78621"/></node><node id="-509" lat="30.276572" lon="-97.46073" changeset="false"><tag k="addr:street" v="Ingrid Drive"/><tag k="addr:housenumber" v="8519"/><tag k="addr:postcode" v="78621"/></node><node id="-510" lat="30.275371" lon="-97.455983" changeset="false"><tag k="addr:street" v="Lucinda Drive"/><tag k="addr:housenumber" v="8424"/><tag k="addr:postcode" v="78621"/></node><node id="-511" lat="30.279229" lon="-97.476107" changeset="false"><tag k="addr:street" v="Tristam Drive"/><tag k="addr:housenumber" v="8700"/><tag k="addr:postcode" v="78621"/></node><node id="-512" lat="30.276539" lon="-97.49013" changeset="false"><tag k="addr:street" v="Ed Acklin Road"/><tag k="addr:housenumber" v="20700"/><tag k="addr:postcode" v="78653"/></node><node id="-513" lat="30.275887" lon="-97.494912" changeset="false"><tag k="addr:street" v="Ed Acklin Road"/><tag k="addr:housenumber" v="20423"/><tag k="addr:postcode" v="78653"/></node><node id="-514" lat="30.278139" lon="-97.493473" changeset="false"><tag k="addr:street" v="Ed Acklin Road"/><tag k="addr:housenumber" v="20416"/><tag k="addr:postcode" v="78653"/></node><node id="-515" lat="30.277956" lon="-97.490981" changeset="false"><tag k="addr:street" v="Postoak Parkway"/><tag k="addr:housenumber" v="20605"/><tag k="addr:postcode" v="78653"/></node><node id="-516" lat="30.284801" lon="-97.490445" changeset="false"><tag k="addr:street" v="Trappers Trail"/><tag k="addr:housenumber" v="20608"/><tag k="addr:postcode" v="78653"/></node><node id="-517" lat="30.279736" lon="-97.496792" changeset="false"><tag k="addr:street" v="Ed Acklin Road"/><tag k="addr:housenumber" v="20214"/><tag k="addr:postcode" v="78653"/></node><node id="-518" lat="30.279141" lon="-97.454735" changeset="false"><tag k="addr:street" v="Beth Drive"/><tag k="addr:housenumber" v="22910"/><tag k="addr:postcode" v="78621"/></node><node id="-519" lat="30.278435" lon="-97.490695" changeset="false"><tag k="addr:street" v="Postoak Parkway"/><tag k="addr:housenumber" v="20604"/><tag k="addr:postcode" v="78653"/></node><node id="-520" lat="30.294908" lon="-97.523311" changeset="false"><tag k="addr:street" v="Hog Eye Road"/><tag k="addr:housenumber" v="18612"/><tag k="addr:postcode" v="78653"/></node><node id="-521" lat="30.305066" lon="-97.507335" changeset="false"><tag k="addr:street" v="Lockwood Road"/><tag k="addr:housenumber" v="19715"/><tag k="addr:postcode" v="78653"/></node><node id="-522" lat="30.27083" lon="-97.462513" changeset="false"><tag k="addr:street" v="Giesla Drive"/><tag k="addr:housenumber" v="22408"/><tag k="addr:postcode" v="78621"/></node><node id="-523" lat="30.304421" lon="-97.514285" changeset="false"><tag k="addr:street" v="Parsons Road"/><tag k="addr:housenumber" v="10616"/><tag k="addr:postcode" v="78653"/></node><node id="-524" lat="30.300627" lon="-97.51469" changeset="false"><tag k="addr:street" v="Kirken Street"/><tag k="addr:housenumber" v="10411"/><tag k="addr:postcode" v="78653"/></node><node id="-525" lat="30.284237" lon="-97.4926" changeset="false"><tag k="addr:street" v="Moses Lane"/><tag k="addr:housenumber" v="20506"/><tag k="addr:postcode" v="78653"/></node><node id="-526" lat="30.268806" lon="-97.464102" changeset="false"><tag k="addr:street" v="Ingrid Drive"/><tag k="addr:housenumber" v="8000"/><tag k="addr:postcode" v="78621"/></node><node id="-527" lat="30.268638" lon="-97.467447" changeset="false"><tag k="addr:street" v="Silvia Drive"/><tag k="addr:housenumber" v="22117"/><tag k="addr:postcode" v="78621"/></node><node id="-528" lat="30.26776" lon="-97.467877" changeset="false"><tag k="addr:street" v="Silvia Drive"/><tag k="addr:housenumber" v="22101"/><tag k="addr:postcode" v="78621"/></node><node id="-529" lat="30.277781" lon="-97.489344" changeset="false"><tag k="addr:street" v="Postoak Parkway"/><tag k="addr:housenumber" v="20710"/><tag k="addr:postcode" v="78653"/></node><node id="-530" lat="30.298275" lon="-97.508604" changeset="false"><tag k="addr:street" v="Parsons Road"/><tag k="addr:housenumber" v="10213"/><tag k="addr:postcode" v="78653"/></node><node id="-531" lat="30.303697" lon="-97.522562" changeset="false"><tag k="addr:street" v="Lockwood Road"/><tag k="addr:housenumber" v="18701"/><tag k="addr:postcode" v="78653"/></node><node id="-532" lat="30.283771" lon="-97.458198" changeset="false"><tag k="addr:street" v="Hog Eye Road"/><tag k="addr:housenumber" v="22711"/><tag k="addr:postcode" v="78621"/></node><node id="-533" lat="30.295893" lon="-97.517779" changeset="false"><tag k="addr:street" v="Larob Lane"/><tag k="addr:housenumber" v="10011"/><tag k="addr:postcode" v="78653"/></node><node id="-534" lat="30.29387" lon="-97.511897" changeset="false"><tag k="addr:street" v="Hog Eye Road"/><tag k="addr:housenumber" v="19308"/><tag k="addr:postcode" v="78653"/></node><node id="-535" lat="30.279512" lon="-97.453381" changeset="false"><tag k="addr:street" v="Beth Drive"/><tag k="addr:housenumber" v="23003"/><tag k="addr:postcode" v="78621"/></node><node id="-536" lat="30.292765" lon="-97.46854" changeset="false"><tag k="addr:street" v="Hog Eye Road"/><tag k="addr:housenumber" v="22015"/><tag k="addr:postcode" v="78653"/></node><node id="-537" lat="30.297032" lon="-97.483708" changeset="false"><tag k="addr:street" v="Hog Eye Road"/><tag k="addr:housenumber" v="21101"/><tag k="addr:postcode" v="78653"/></node><node id="-538" lat="30.294751" lon="-97.496198" changeset="false"><tag k="addr:street" v="Hog Eye Road"/><tag k="addr:housenumber" v="20301"/><tag k="addr:postcode" v="78653"/></node><node id="-539" lat="30.267902" lon="-97.459112" changeset="false"><tag k="addr:street" v="Deidra Drive"/><tag k="addr:housenumber" v="22709"/><tag k="addr:postcode" v="78621"/></node><node id="-540" lat="30.280049" lon="-97.462243" changeset="false"><tag k="addr:street" v="Ingrid Drive"/><tag k="addr:housenumber" v="8816"/><tag k="addr:postcode" v="78621"/></node><node id="-541" lat="30.269116" lon="-97.467281" changeset="false"><tag k="addr:street" v="Silvia Drive"/><tag k="addr:housenumber" v="22123"/><tag k="addr:postcode" v="78621"/></node><node id="-542" lat="30.302259" lon="-97.525409" changeset="false"><tag k="addr:street" v="Old Lockwood Road"/><tag k="addr:housenumber" v="18513"/><tag k="addr:postcode" v="78653"/></node><node id="-543" lat="30.280523" lon="-97.456398" changeset="false"><tag k="addr:street" v="Lucinda Drive"/><tag k="addr:housenumber" v="8900"/><tag k="addr:postcode" v="78621"/></node><node id="-544" lat="30.262839" lon="-97.487494" changeset="false"><tag k="addr:street" v="Blake Manor Road"/><tag k="addr:housenumber" v="20712"/><tag k="addr:postcode" v="78653"/></node><node id="-545" lat="30.256827" lon="-97.467176" changeset="false"><tag k="addr:street" v="Dry Creek Road"/><tag k="addr:housenumber" v="220"/><tag k="addr:postcode" v="78653"/></node><node id="-546" lat="30.29949" lon="-97.510772" changeset="false"><tag k="addr:street" v="Parsons Road"/><tag k="addr:housenumber" v="10233"/><tag k="addr:postcode" v="78653"/></node><node id="-547" lat="30.301006" lon="-97.509833" changeset="false"><tag k="addr:street" v="Formith Street"/><tag k="addr:housenumber" v="10400"/><tag k="addr:postcode" v="78653"/></node><node id="-548" lat="30.280161" lon="-97.497821" changeset="false"><tag k="addr:street" v="Ed Acklin Road"/><tag k="addr:housenumber" v="20202"/><tag k="addr:postcode" v="78653"/></node><node id="-549" lat="30.279802" lon="-97.496958" changeset="false"><tag k="addr:street" v="Ed Acklin Road"/><tag k="addr:housenumber" v="20212"/><tag k="addr:postcode" v="78653"/></node><node id="-550" lat="30.278263" lon="-97.490348" changeset="false"><tag k="addr:street" v="Postoak Parkway"/><tag k="addr:housenumber" v="20608"/><tag k="addr:postcode" v="78653"/></node><node id="-551" lat="30.259716" lon="-97.481613" changeset="false"><tag k="addr:street" v="Blake Manor Road"/><tag k="addr:housenumber" v="20918"/><tag k="addr:postcode" v="78653"/></node><node id="-552" lat="30.283689" lon="-97.491454" changeset="false"><tag k="addr:street" v="Moses Lane"/><tag k="addr:housenumber" v="20602"/><tag k="addr:postcode" v="78653"/></node><node id="-553" lat="30.283756" lon="-97.497875" changeset="false"><tag k="addr:street" v="Lockwood Springs Road"/><tag k="addr:housenumber" v="9115"/><tag k="addr:postcode" v="78653"/></node><node id="-554" lat="30.282405" lon="-97.512575" changeset="false"><tag k="addr:street" v="Blake Manor Road"/><tag k="addr:housenumber" v="19214"/><tag k="addr:postcode" v="78653"/></node><node id="-555" lat="30.279212" lon="-97.482043" changeset="false"><tag k="addr:street" v="Ann Showers Drive"/><tag k="addr:housenumber" v="21212"/><tag k="addr:postcode" v="78621"/></node><node id="-556" lat="30.279072" lon="-97.48853" changeset="false"><tag k="addr:street" v="Delorio Street"/><tag k="addr:housenumber" v="20809"/><tag k="addr:postcode" v="78653"/></node><node id="-557" lat="30.279883" lon="-97.488773" changeset="false"><tag k="addr:street" v="Delorio Street"/><tag k="addr:housenumber" v="20800"/><tag k="addr:postcode" v="78653"/></node><node id="-558" lat="30.278894" lon="-97.486442" changeset="false"><tag k="addr:street" v="Delorio Street"/><tag k="addr:housenumber" v="20908"/><tag k="addr:postcode" v="78653"/></node><node id="-559" lat="30.278773" lon="-97.48918" changeset="false"><tag k="addr:street" v="Liveoak Lane"/><tag k="addr:housenumber" v="20716"/><tag k="addr:postcode" v="78653"/></node><node id="-560" lat="30.278692" lon="-97.494647" changeset="false"><tag k="addr:street" v="Ed Acklin Road"/><tag k="addr:housenumber" v="20402"/><tag k="addr:postcode" v="78653"/></node><node id="-561" lat="30.278596" lon="-97.491007" changeset="false"><tag k="addr:street" v="Postoak Parkway"/><tag k="addr:housenumber" v="20600"/><tag k="addr:postcode" v="78653"/></node><node id="-562" lat="30.295957" lon="-97.511929" changeset="false"><tag k="addr:street" v="Hog Eye Road"/><tag k="addr:housenumber" v="19304"/><tag k="addr:postcode" v="78653"/></node><node id="-563" lat="30.295031" lon="-97.521791" changeset="false"><tag k="addr:street" v="Hog Eye Road"/><tag k="addr:housenumber" v="18714"/><tag k="addr:postcode" v="78653"/></node><node id="-564" lat="30.294463" lon="-97.521689" changeset="false"><tag k="addr:street" v="Hog Eye Road"/><tag k="addr:housenumber" v="18716"/><tag k="addr:postcode" v="78653"/></node><node id="-565" lat="30.269221" lon="-97.472828" changeset="false"><tag k="addr:street" v="Silvia Drive"/><tag k="addr:housenumber" v="21922"/><tag k="addr:postcode" v="78621"/></node><node id="-566" lat="30.282265" lon="-97.486808" changeset="false"><tag k="addr:street" v="Trappers Trail"/><tag k="addr:housenumber" v="20909"/><tag k="addr:postcode" v="78653"/></node><node id="-567" lat="30.269097" lon="-97.468894" changeset="false"><tag k="addr:street" v="Silvia Drive"/><tag k="addr:housenumber" v="22128"/><tag k="addr:postcode" v="78621"/></node><node id="-568" lat="30.281055" lon="-97.485782" changeset="false"><tag k="addr:street" v="Verna Street"/><tag k="addr:housenumber" v="20914"/><tag k="addr:postcode" v="78653"/></node><node id="-569" lat="30.280805" lon="-97.490643" changeset="false"><tag k="addr:street" v="Delorio Street"/><tag k="addr:housenumber" v="20604"/><tag k="addr:postcode" v="78653"/></node><node id="-570" lat="30.280533" lon="-97.498848" changeset="false"><tag k="addr:street" v="Ed Acklin Road"/><tag k="addr:housenumber" v="20116"/><tag k="addr:postcode" v="78653"/></node><node id="-571" lat="30.257979" lon="-97.465363" changeset="false"><tag k="addr:street" v="Dry Creek Road"/><tag k="addr:housenumber" v="248"/><tag k="addr:postcode" v="78653"/></node><node id="-572" lat="30.277394" lon="-97.502155" changeset="false"><tag k="addr:street" v="Lockwood Springs Road"/><tag k="addr:housenumber" v="8605"/><tag k="addr:postcode" v="78653"/></node><node id="-573" lat="30.279177" lon="-97.485906" changeset="false"><tag k="addr:street" v="Galilee Court"/><tag k="addr:housenumber" v="20913"/><tag k="addr:postcode" v="78653"/></node><node id="-574" lat="30.279565" lon="-97.48954" changeset="false"><tag k="addr:street" v="Delorio Street"/><tag k="addr:housenumber" v="20713"/><tag k="addr:postcode" v="78653"/></node><node id="-575" lat="30.279349" lon="-97.490326" changeset="false"><tag k="addr:street" v="Liveoak Lane"/><tag k="addr:housenumber" v="20702"/><tag k="addr:postcode" v="78653"/></node><node id="-576" lat="30.276513" lon="-97.489605" changeset="false"><tag k="addr:street" v="Damita Jo Drive"/><tag k="addr:housenumber" v="8508"/><tag k="addr:postcode" v="78653"/></node><node id="-577" lat="30.277074" lon="-97.488411" changeset="false"><tag k="addr:street" v="Damita Jo Drive"/><tag k="addr:housenumber" v="8611"/><tag k="addr:postcode" v="78653"/></node><node id="-578" lat="30.277241" lon="-97.488346" changeset="false"><tag k="addr:street" v="Damita Jo Drive"/><tag k="addr:housenumber" v="8613"/><tag k="addr:postcode" v="78653"/></node></osm>