<?xml version="1.0" encoding="UTF-8"?><osm version="0.6" generator="github.com/aaronlidman/osm-and-geojson"><node id="-1" lat="30.209074" lon="-97.783125" changeset="false"><tag k="addr:street" v="West Stassney Lane"/><tag k="addr:housenumber" v="732"/><tag k="addr:postcode" v="78745"/></node><node id="-2" lat="30.209647" lon="-97.780966" changeset="false"><tag k="addr:street" v="South 1st Street"/><tag k="addr:housenumber" v="5504"/><tag k="addr:postcode" v="78745"/></node><node id="-3" lat="30.209992" lon="-97.783892" changeset="false"><tag k="addr:street" v="Salem Walk Drive"/><tag k="addr:housenumber" v="5507 1/2"/><tag k="addr:postcode" v="78745"/></node><node id="-4" lat="30.206994" lon="-97.782369" changeset="false"><tag k="addr:street" v="South 1st Street"/><tag k="addr:housenumber" v="5608"/><tag k="addr:postcode" v="78745"/></node><node id="-5" lat="30.205871" lon="-97.786891" changeset="false"><tag k="addr:street" v="Sahara Avenue"/><tag k="addr:housenumber" v="824"/><tag k="addr:postcode" v="78745"/></node><node id="-6" lat="30.206918" lon="-97.782525" changeset="false"><tag k="addr:street" v="South 1st Street"/><tag k="addr:housenumber" v="5616"/><tag k="addr:postcode" v="78745"/></node><node id="-7" lat="30.206561" lon="-97.785787" changeset="false"><tag k="addr:street" v="Nancy Drive"/><tag k="addr:housenumber" v="5806"/><tag k="addr:postcode" v="78745"/></node><node id="-8" lat="30.208167" lon="-97.785345" changeset="false"><tag k="addr:street" v="Cougar Drive"/><tag k="addr:housenumber" v="5705"/><tag k="addr:postcode" v="78745"/></node><node id="-9" lat="30.211179" lon="-97.780913" changeset="false"><tag k="addr:street" v="Lishill Cove"/><tag k="addr:housenumber" v="5401"/><tag k="addr:postcode" v="78745"/></node><node id="-10" lat="30.207347" lon="-97.785907" changeset="false"><tag k="addr:street" v="Cougar Drive"/><tag k="addr:housenumber" v="5807"/><tag k="addr:postcode" v="78745"/></node><node id="-11" lat="30.207658" lon="-97.784936" changeset="false"><tag k="addr:street" v="Nancy Drive"/><tag k="addr:housenumber" v="5704"/><tag k="addr:postcode" v="78745"/></node><node id="-12" lat="30.206213" lon="-97.785262" changeset="false"><tag k="addr:street" v="Nancy Drive"/><tag k="addr:housenumber" v="5811"/><tag k="addr:postcode" v="78745"/></node><node id="-13" lat="30.210482" lon="-97.787018" changeset="false"><tag k="addr:street" v="West Stassney Lane"/><tag k="addr:housenumber" v="1023"/><tag k="addr:postcode" v="78745"/></node><node id="-14" lat="30.209899" lon="-97.786158" changeset="false"><tag k="addr:street" v="West Stassney Lane"/><tag k="addr:housenumber" v="1005 1/2"/><tag k="addr:postcode" v="78745"/></node><node id="-15" lat="30.209073" lon="-97.783311" changeset="false"><tag k="addr:street" v="West Stassney Lane"/><tag k="addr:housenumber" v="734"/><tag k="addr:postcode" v="78745"/></node><node id="-16" lat="30.208818" lon="-97.781584" changeset="false"><tag k="addr:street" v="West Stassney Lane"/><tag k="addr:housenumber" v="704"/><tag k="addr:postcode" v="78745"/></node><node id="-17" lat="30.209068" lon="-97.782682" changeset="false"><tag k="addr:street" v="West Stassney Lane"/><tag k="addr:housenumber" v="726"/><tag k="addr:postcode" v="78745"/></node><node id="-18" lat="30.206685" lon="-97.786349" changeset="false"><tag k="addr:street" v="Cougar Drive"/><tag k="addr:housenumber" v="5907"/><tag k="addr:postcode" v="78745"/></node><node id="-19" lat="30.206141" lon="-97.786071" changeset="false"><tag k="addr:street" v="Nancy Drive"/><tag k="addr:housenumber" v="5902"/><tag k="addr:postcode" v="78745"/></node><node id="-20" lat="30.21066" lon="-97.785805" changeset="false"><tag k="addr:street" v="West Stassney Lane"/><tag k="addr:housenumber" v="1016"/><tag k="addr:postcode" v="78745"/></node><node id="-21" lat="30.207867" lon="-97.785596" changeset="false"><tag k="addr:street" v="Cougar Drive"/><tag k="addr:housenumber" v="5801"/><tag k="addr:postcode" v="78745"/></node><node id="-22" lat="30.206509" lon="-97.786454" changeset="false"><tag k="addr:street" v="Cougar Drive"/><tag k="addr:housenumber" v="6001"/><tag k="addr:postcode" v="78745"/></node><node id="-23" lat="30.208023" lon="-97.784179" changeset="false"><tag k="addr:street" v="Nancy Drive"/><tag k="addr:housenumber" v="5611"/><tag k="addr:postcode" v="78745"/></node><node id="-24" lat="30.208909" lon="-97.78189" changeset="false"><tag k="addr:street" v="West Stassney Lane"/><tag k="addr:housenumber" v="708"/><tag k="addr:postcode" v="78745"/></node><node id="-25" lat="30.208684" lon="-97.783519" changeset="false"><tag k="addr:street" v="West Stassney Lane"/><tag k="addr:housenumber" v="725"/><tag k="addr:postcode" v="78745"/></node><node id="-26" lat="30.209896" lon="-97.78397" changeset="false"><tag k="addr:street" v="Salem Walk Drive"/><tag k="addr:housenumber" v="5507"/><tag k="addr:postcode" v="78745"/></node><node id="-27" lat="30.20769" lon="-97.785701" changeset="false"><tag k="addr:street" v="Cougar Drive"/><tag k="addr:housenumber" v="5803"/><tag k="addr:postcode" v="78745"/></node><node id="-28" lat="30.206678" lon="-97.785586" changeset="false"><tag k="addr:street" v="Nancy Drive"/><tag k="addr:housenumber" v="5802"/><tag k="addr:postcode" v="78745"/></node><node id="-29" lat="30.204367" lon="-97.784283" changeset="false"><tag k="addr:street" v="Turtle Creek Boulevard"/><tag k="addr:housenumber" v="714"/><tag k="addr:postcode" v="78745"/></node><node id="-30" lat="30.206443" lon="-97.787046" changeset="false"><tag k="addr:street" v="Cougar Drive"/><tag k="addr:housenumber" v="6006"/><tag k="addr:postcode" v="78745"/></node><node id="-31" lat="30.212125" lon="-97.783984" changeset="false"><tag k="addr:street" v="Ramble Lane"/><tag k="addr:housenumber" v="904"/><tag k="addr:postcode" v="78745"/></node><node id="-32" lat="30.208283" lon="-97.785553" changeset="false"><tag k="addr:street" v="Cougar Cove"/><tag k="addr:housenumber" v="901"/><tag k="addr:postcode" v="78745"/></node><node id="-33" lat="30.208379" lon="-97.781911" changeset="false"><tag k="addr:street" v="South 1st Street"/><tag k="addr:housenumber" v="5600"/><tag k="addr:postcode" v="78745"/></node><node id="-34" lat="30.208706" lon="-97.785058" changeset="false"><tag k="addr:street" v="Cougar Drive"/><tag k="addr:housenumber" v="5609"/><tag k="addr:postcode" v="78745"/></node><node id="-35" lat="30.208046" lon="-97.785482" changeset="false"><tag k="addr:street" v="Cougar Drive"/><tag k="addr:housenumber" v="5707"/><tag k="addr:postcode" v="78745"/></node><node id="-36" lat="30.2072" lon="-97.785393" changeset="false"><tag k="addr:street" v="Nancy Drive"/><tag k="addr:housenumber" v="5710"/><tag k="addr:postcode" v="78745"/></node><node id="-37" lat="30.209854" lon="-97.782082" changeset="false"><tag k="addr:street" v="West Stassney Lane"/><tag k="addr:housenumber" v="730"/><tag k="addr:postcode" v="78745"/></node><node id="-38" lat="30.21037" lon="-97.782044" changeset="false"><tag k="addr:street" v="Brompton Circle"/><tag k="addr:housenumber" v="5410"/><tag k="addr:postcode" v="78745"/></node><node id="-39" lat="30.206878" lon="-97.786219" changeset="false"><tag k="addr:street" v="Cougar Drive"/><tag k="addr:housenumber" v="5905"/><tag k="addr:postcode" v="78745"/></node><node id="-40" lat="30.208512" lon="-97.78513" changeset="false"><tag k="addr:street" v="Cougar Drive"/><tag k="addr:housenumber" v="5701"/><tag k="addr:postcode" v="78745"/></node><node id="-41" lat="30.209151" lon="-97.783473" changeset="false"><tag k="addr:street" v="West Stassney Lane"/><tag k="addr:housenumber" v="746"/><tag k="addr:postcode" v="78745"/></node><node id="-42" lat="30.205597" lon="-97.785685" changeset="false"><tag k="addr:street" v="Nancy Drive"/><tag k="addr:housenumber" v="5907"/><tag k="addr:postcode" v="78745"/></node><node id="-43" lat="30.208693" lon="-97.784401" changeset="false"><tag k="addr:street" v="Nancy Drive"/><tag k="addr:housenumber" v="5600"/><tag k="addr:postcode" v="78745"/></node><node id="-44" lat="30.208272" lon="-97.784009" changeset="false"><tag k="addr:street" v="Nancy Drive"/><tag k="addr:housenumber" v="5609"/><tag k="addr:postcode" v="78745"/></node><node id="-45" lat="30.207477" lon="-97.785773" changeset="false"><tag k="addr:street" v="Cougar Drive"/><tag k="addr:housenumber" v="5805"/><tag k="addr:postcode" v="78745"/></node><node id="-46" lat="30.207438" lon="-97.78533" changeset="false"><tag k="addr:street" v="Nancy Drive"/><tag k="addr:housenumber" v="5708"/><tag k="addr:postcode" v="78745"/></node><node id="-47" lat="30.211207" lon="-97.78078" changeset="false"><tag k="addr:street" v="Ramble Lane"/><tag k="addr:housenumber" v="707"/><tag k="addr:postcode" v="78745"/></node><node id="-48" lat="30.206619" lon="-97.785632" changeset="false"><tag k="addr:street" v="Nancy Drive"/><tag k="addr:housenumber" v="5804"/><tag k="addr:postcode" v="78745"/></node><node id="-49" lat="30.209672" lon="-97.7836" changeset="false"><tag k="addr:street" v="Salem Walk Drive"/><tag k="addr:housenumber" v="5509"/><tag k="addr:postcode" v="78745"/></node><node id="-50" lat="30.20953" lon="-97.783766" changeset="false"><tag k="addr:street" v="West Stassney Lane"/><tag k="addr:housenumber" v="804"/><tag k="addr:postcode" v="78745"/></node><node id="-51" lat="30.209704" lon="-97.784656" changeset="false"><tag k="addr:street" v="West Stassney Lane"/><tag k="addr:housenumber" v="814"/><tag k="addr:postcode" v="78745"/></node><node id="-52" lat="30.209678" lon="-97.784595" changeset="false"><tag k="addr:street" v="West Stassney Lane"/><tag k="addr:housenumber" v="814 1/2"/><tag k="addr:postcode" v="78745"/></node></osm>