<?xml version="1.0" encoding="UTF-8"?><osm version="0.6" generator="github.com/aaronlidman/osm-and-geojson"><node id="-1" lat="30.063315" lon="-97.666109" changeset="false"><tag k="addr:street" v="Avis Road"/><tag k="addr:housenumber" v="12107"/><tag k="addr:postcode" v="78610"/></node><node id="-2" lat="30.062316" lon="-97.664269" changeset="false"><tag k="addr:street" v="Avis Road"/><tag k="addr:housenumber" v="12221"/><tag k="addr:postcode" v="78616"/></node><node id="-3" lat="30.065159" lon="-97.663261" changeset="false"><tag k="addr:street" v="Calder Road"/><tag k="addr:housenumber" v="1626"/><tag k="addr:postcode" v="78610"/></node><node id="-4" lat="30.05844" lon="-97.671616" changeset="false"><tag k="addr:street" v="Evelyn Road"/><tag k="addr:housenumber" v="10007"/><tag k="addr:postcode" v="78610"/></node><node id="-5" lat="30.043784" lon="-97.687282" changeset="false"><tag k="addr:street" v="Old Lockhart Road"/><tag k="addr:housenumber" v="8775"/><tag k="addr:postcode" v="78644"/></node><node id="-6" lat="30.043622" lon="-97.686506" changeset="false"><tag k="addr:street" v="Old Lockhart Road"/><tag k="addr:housenumber" v="8779"/><tag k="addr:postcode" v="78644"/></node><node id="-7" lat="30.064303" lon="-97.662276" changeset="false"><tag k="addr:street" v="Calder Road"/><tag k="addr:housenumber" v="1602"/><tag k="addr:postcode" v="78616"/></node><node id="-8" lat="30.064772" lon="-97.662723" changeset="false"><tag k="addr:street" v="Calder Road"/><tag k="addr:housenumber" v="1614"/><tag k="addr:postcode" v="78610"/></node><node id="-9" lat="30.066173" lon="-97.662607" changeset="false"><tag k="addr:street" v="Bock Road"/><tag k="addr:housenumber" v="10210"/><tag k="addr:postcode" v="78610"/></node><node id="-10" lat="30.059723" lon="-97.669317" changeset="false"><tag k="addr:street" v="Caldvis Road"/><tag k="addr:housenumber" v="12314"/><tag k="addr:postcode" v="78610"/></node></osm>