<?xml version="1.0" encoding="UTF-8"?><osm version="0.6" generator="github.com/aaronlidman/osm-and-geojson"><node id="-1" lat="30.223516" lon="-97.683448" changeset="false"><tag k="addr:street" v="Bastrop Highway"/><tag k="addr:housenumber" v="1422"/><tag k="addr:postcode" v="78741"/></node><node id="-2" lat="30.218453" lon="-97.696224" changeset="false"><tag k="addr:street" v="East Ben White Boulevard"/><tag k="addr:housenumber" v="7312"/><tag k="addr:postcode" v="78741"/></node><node id="-3" lat="30.236101" lon="-97.686831" changeset="false"><tag k="addr:street" v="Bastrop Highway"/><tag k="addr:housenumber" v="530"/><tag k="addr:postcode" v="78741"/></node><node id="-4" lat="30.218418" lon="-97.697582" changeset="false"><tag k="addr:street" v="Yellow Jacket Lane"/><tag k="addr:housenumber" v="2213"/><tag k="addr:postcode" v="78741"/></node><node id="-5" lat="30.214757" lon="-97.710041" changeset="false"><tag k="addr:street" v="Montopolis Drive"/><tag k="addr:housenumber" v="2901"/><tag k="addr:postcode" v="78741"/></node><node id="-6" lat="30.222629" lon="-97.699024" changeset="false"><tag k="addr:street" v="East Riverside Drive"/><tag k="addr:housenumber" v="6801"/><tag k="addr:postcode" v="78741"/></node><node id="-7" lat="30.223696" lon="-97.70114" changeset="false"><tag k="addr:street" v="East Riverside Drive"/><tag k="addr:housenumber" v="6603"/><tag k="addr:postcode" v="78741"/></node><node id="-8" lat="30.22031" lon="-97.699393" changeset="false"><tag k="addr:street" v="Maxwell Lane"/><tag k="addr:housenumber" v="2129"/><tag k="addr:postcode" v="78741"/></node><node id="-9" lat="30.238809" lon="-97.688027" changeset="false"><tag k="addr:street" v="Bastrop Highway"/><tag k="addr:housenumber" v="432"/><tag k="addr:postcode" v="78741"/></node><node id="-10" lat="30.219183" lon="-97.703298" changeset="false"><tag k="addr:street" v="Thrasher Lane"/><tag k="addr:housenumber" v="2404"/><tag k="addr:postcode" v="78741"/></node><node id="-11" lat="30.237681" lon="-97.688072" changeset="false"><tag k="addr:street" v="Bastrop Highway"/><tag k="addr:housenumber" v="442"/><tag k="addr:postcode" v="78741"/></node><node id="-12" lat="30.22225" lon="-97.696058" changeset="false"><tag k="addr:street" v="Anise Drive"/><tag k="addr:housenumber" v="1738 1/2"/><tag k="addr:postcode" v="78741"/></node><node id="-13" lat="30.22014" lon="-97.691928" changeset="false"><tag k="addr:street" v="Airport Commerce Drive"/><tag k="addr:housenumber" v="1809"/><tag k="addr:postcode" v="78741"/></node><node id="-14" lat="30.239044" lon="-97.688305" changeset="false"><tag k="addr:street" v="Bastrop Highway"/><tag k="addr:housenumber" v="404"/><tag k="addr:postcode" v="78741"/></node><node id="-15" lat="30.219847" lon="-97.696585" changeset="false"><tag k="addr:street" v="Yellow Jacket Lane"/><tag k="addr:housenumber" v="2104"/><tag k="addr:postcode" v="78741"/></node><node id="-16" lat="30.218607" lon="-97.701167" changeset="false"><tag k="addr:street" v="Maxwell Lane"/><tag k="addr:housenumber" v="2312"/><tag k="addr:postcode" v="78741"/></node><node id="-17" lat="30.219966" lon="-97.700097" changeset="false"><tag k="addr:street" v="Maxwell Lane"/><tag k="addr:housenumber" v="2210"/><tag k="addr:postcode" v="78741"/></node><node id="-18" lat="30.218546" lon="-97.700855" changeset="false"><tag k="addr:street" v="Maxwell Lane"/><tag k="addr:housenumber" v="2309"/><tag k="addr:postcode" v="78741"/></node><node id="-19" lat="30.219409" lon="-97.702503" changeset="false"><tag k="addr:street" v="Thrasher Lane"/><tag k="addr:housenumber" v="2311"/><tag k="addr:postcode" v="78741"/></node><node id="-20" lat="30.219431" lon="-97.700161" changeset="false"><tag k="addr:street" v="Maxwell Lane"/><tag k="addr:housenumber" v="2225"/><tag k="addr:postcode" v="78741"/></node><node id="-21" lat="30.218494" lon="-97.698015" changeset="false"><tag k="addr:street" v="Yellow Jacket Lane"/><tag k="addr:housenumber" v="2216"/><tag k="addr:postcode" v="78741"/></node><node id="-22" lat="30.230467" lon="-97.684397" changeset="false"><tag k="addr:street" v="Bastrop Highway"/><tag k="addr:housenumber" v="838"/><tag k="addr:postcode" v="78741"/></node><node id="-23" lat="30.22019" lon="-97.704528" changeset="false"><tag k="addr:street" v="Carson Ridge"/><tag k="addr:housenumber" v="6412"/><tag k="addr:postcode" v="78741"/></node><node id="-24" lat="30.220252" lon="-97.702025" changeset="false"><tag k="addr:street" v="Thrasher Lane"/><tag k="addr:housenumber" v="2223"/><tag k="addr:postcode" v="78741"/></node><node id="-25" lat="30.220249" lon="-97.695747" changeset="false"><tag k="addr:street" v="Yellow Jacket Lane"/><tag k="addr:housenumber" v="2011"/><tag k="addr:postcode" v="78741"/></node><node id="-26" lat="30.235438" lon="-97.686056" changeset="false"><tag k="addr:street" v="Bastrop Highway"/><tag k="addr:housenumber" v="624"/><tag k="addr:postcode" v="78741"/></node><node id="-27" lat="30.215898" lon="-97.699703" changeset="false"><tag k="addr:street" v="East Ben White Boulevard"/><tag k="addr:housenumber" v="7114"/><tag k="addr:postcode" v="78741"/></node><node id="-28" lat="30.219825" lon="-97.704227" changeset="false"><tag k="addr:street" v="Carson Ridge"/><tag k="addr:housenumber" v="6510"/><tag k="addr:postcode" v="78741"/></node><node id="-29" lat="30.220427" lon="-97.705082" changeset="false"><tag k="addr:street" v="Carson Ridge"/><tag k="addr:housenumber" v="6402"/><tag k="addr:postcode" v="78741"/></node><node id="-30" lat="30.219685" lon="-97.699937" changeset="false"><tag k="addr:street" v="Maxwell Lane"/><tag k="addr:housenumber" v="2217"/><tag k="addr:postcode" v="78741"/></node><node id="-31" lat="30.234118" lon="-97.687111" changeset="false"><tag k="addr:street" v="Bastrop Highway"/><tag k="addr:housenumber" v="626"/><tag k="addr:postcode" v="78741"/></node><node id="-32" lat="30.22888" lon="-97.685078" changeset="false"><tag k="addr:street" v="Bastrop Highway"/><tag k="addr:housenumber" v="840"/><tag k="addr:postcode" v="78741"/></node><node id="-33" lat="30.213817" lon="-97.71074" changeset="false"><tag k="addr:street" v="Montopolis Drive"/><tag k="addr:housenumber" v="2919"/><tag k="addr:postcode" v="78741"/></node><node id="-34" lat="30.220109" lon="-97.696329" changeset="false"><tag k="addr:street" v="Yellow Jacket Lane"/><tag k="addr:housenumber" v="2100"/><tag k="addr:postcode" v="78741"/></node><node id="-35" lat="30.238708" lon="-97.68786" changeset="false"><tag k="addr:street" v="Bastrop Highway"/><tag k="addr:housenumber" v="436"/><tag k="addr:postcode" v="78741"/></node><node id="-36" lat="30.221498" lon="-97.699185" changeset="false"><tag k="addr:street" v="Maxwell Lane"/><tag k="addr:housenumber" v="2022"/><tag k="addr:postcode" v="78741"/></node><node id="-37" lat="30.221276" lon="-97.698581" changeset="false"><tag k="addr:street" v="Maxwell Lane"/><tag k="addr:housenumber" v="2103"/><tag k="addr:postcode" v="78741"/></node><node id="-38" lat="30.224263" lon="-97.702419" changeset="false"><tag k="addr:street" v="East Riverside Drive"/><tag k="addr:housenumber" v="6401"/><tag k="addr:postcode" v="78741"/></node><node id="-39" lat="30.223919" lon="-97.701428" changeset="false"><tag k="addr:street" v="East Riverside Drive"/><tag k="addr:housenumber" v="6505"/><tag k="addr:postcode" v="78741"/></node><node id="-40" lat="30.213934" lon="-97.707343" changeset="false"><tag k="addr:street" v="East Ben White Boulevard"/><tag k="addr:housenumber" v="6610"/><tag k="addr:postcode" v="78741"/></node><node id="-41" lat="30.239247" lon="-97.688421" changeset="false"><tag k="addr:street" v="Bastrop Highway"/><tag k="addr:housenumber" v="400"/><tag k="addr:postcode" v="78741"/></node><node id="-42" lat="30.221294" lon="-97.702316" changeset="false"><tag k="addr:street" v="Thrasher Lane"/><tag k="addr:housenumber" v="2114"/><tag k="addr:postcode" v="78741"/></node><node id="-43" lat="30.23814" lon="-97.68858" changeset="false"><tag k="addr:street" v="Bastrop Highway"/><tag k="addr:housenumber" v="406"/><tag k="addr:postcode" v="78741"/></node><node id="-44" lat="30.228137" lon="-97.683262" changeset="false"><tag k="addr:street" v="Bastrop Highway"/><tag k="addr:housenumber" v="1004"/><tag k="addr:postcode" v="78741"/></node><node id="-45" lat="30.215908" lon="-97.708763" changeset="false"><tag k="addr:street" v="Montopolis Drive"/><tag k="addr:housenumber" v="2801"/><tag k="addr:postcode" v="78741"/></node><node id="-46" lat="30.221726" lon="-97.700837" changeset="false"><tag k="addr:street" v="Thrasher Lane"/><tag k="addr:housenumber" v="2109"/><tag k="addr:postcode" v="78741"/></node><node id="-47" lat="30.221634" lon="-97.701895" changeset="false"><tag k="addr:street" v="Thrasher Lane"/><tag k="addr:housenumber" v="2110"/><tag k="addr:postcode" v="78741"/></node><node id="-48" lat="30.21797" lon="-97.702469" changeset="false"><tag k="addr:street" v="East Ben White Boulevard"/><tag k="addr:housenumber" v="7000"/><tag k="addr:postcode" v="78741"/></node><node id="-49" lat="30.220008" lon="-97.696491" changeset="false"><tag k="addr:street" v="Yellow Jacket Lane"/><tag k="addr:housenumber" v="2102"/><tag k="addr:postcode" v="78741"/></node><node id="-50" lat="30.220332" lon="-97.704918" changeset="false"><tag k="addr:street" v="Carson Ridge"/><tag k="addr:housenumber" v="6404"/><tag k="addr:postcode" v="78741"/></node><node id="-51" lat="30.219592" lon="-97.695034" changeset="false"><tag k="addr:street" v="Uphill Lane"/><tag k="addr:housenumber" v="2011"/><tag k="addr:postcode" v="78741"/></node><node id="-52" lat="30.220122" lon="-97.702117" changeset="false"><tag k="addr:street" v="Thrasher Lane"/><tag k="addr:housenumber" v="2301"/><tag k="addr:postcode" v="78741"/></node><node id="-53" lat="30.237807" lon="-97.687959" changeset="false"><tag k="addr:street" v="Bastrop Highway"/><tag k="addr:housenumber" v="440"/><tag k="addr:postcode" v="78741"/></node><node id="-54" lat="30.221107" lon="-97.6927" changeset="false"><tag k="addr:street" v="Coriander Drive"/><tag k="addr:housenumber" v="1703 1/2"/><tag k="addr:postcode" v="78741"/></node><node id="-55" lat="30.236672" lon="-97.686911" changeset="false"><tag k="addr:street" v="Bastrop Highway"/><tag k="addr:housenumber" v="520"/><tag k="addr:postcode" v="78741"/></node><node id="-56" lat="30.216318" lon="-97.703583" changeset="false"><tag k="addr:street" v="East Ben White Boulevard"/><tag k="addr:housenumber" v="6934"/><tag k="addr:postcode" v="78741"/></node><node id="-57" lat="30.219617" lon="-97.700377" changeset="false"><tag k="addr:street" v="Maxwell Lane"/><tag k="addr:housenumber" v="2216"/><tag k="addr:postcode" v="78741"/></node><node id="-58" lat="30.216379" lon="-97.698224" changeset="false"><tag k="addr:street" v="East Ben White Boulevard"/><tag k="addr:housenumber" v="7216"/><tag k="addr:postcode" v="78741"/></node><node id="-59" lat="30.22365" lon="-97.703777" changeset="false"><tag k="addr:street" v="Montopolis Drive"/><tag k="addr:housenumber" v="2101"/><tag k="addr:postcode" v="78741"/></node><node id="-60" lat="30.219121" lon="-97.700338" changeset="false"><tag k="addr:street" v="Maxwell Lane"/><tag k="addr:housenumber" v="2301"/><tag k="addr:postcode" v="78741"/></node><node id="-61" lat="30.220465" lon="-97.696035" changeset="false"><tag k="addr:street" v="Yellow Jacket Lane"/><tag k="addr:housenumber" v="2010"/><tag k="addr:postcode" v="78741"/></node><node id="-62" lat="30.220587" lon="-97.69917" changeset="false"><tag k="addr:street" v="Maxwell Lane"/><tag k="addr:housenumber" v="2117"/><tag k="addr:postcode" v="78741"/></node><node id="-63" lat="30.223821" lon="-97.685274" changeset="false"><tag k="addr:street" v="Airport Commerce Drive"/><tag k="addr:housenumber" v="1322 1/2"/><tag k="addr:postcode" v="78741"/></node><node id="-64" lat="30.22281" lon="-97.687242" changeset="false"><tag k="addr:street" v="Airport Commerce Drive"/><tag k="addr:housenumber" v="1501"/><tag k="addr:postcode" v="78741"/></node><node id="-65" lat="30.219532" lon="-97.703312" changeset="false"><tag k="addr:street" v="Thrasher Lane"/><tag k="addr:housenumber" v="2316"/><tag k="addr:postcode" v="78741"/></node><node id="-66" lat="30.220988" lon="-97.690479" changeset="false"><tag k="addr:street" v="Airport Commerce Drive"/><tag k="addr:housenumber" v="1705"/><tag k="addr:postcode" v="78741"/></node><node id="-67" lat="30.227535" lon="-97.68563" changeset="false"><tag k="addr:street" v="Bastrop Highway"/><tag k="addr:housenumber" v="904"/><tag k="addr:postcode" v="78741"/></node><node id="-68" lat="30.219745" lon="-97.694875" changeset="false"><tag k="addr:street" v="Uphill Lane"/><tag k="addr:housenumber" v="2009"/><tag k="addr:postcode" v="78741"/></node><node id="-69" lat="30.218352" lon="-97.696341" changeset="false"><tag k="addr:street" v="Uphill Lane"/><tag k="addr:housenumber" v="2207"/><tag k="addr:postcode" v="78741"/></node><node id="-70" lat="30.220308" lon="-97.694348" changeset="false"><tag k="addr:street" v="East Riverside Drive"/><tag k="addr:housenumber" v="7301"/><tag k="addr:postcode" v="78741"/></node><node id="-71" lat="30.221033" lon="-97.705606" changeset="false"><tag k="addr:street" v="Montopolis Drive"/><tag k="addr:housenumber" v="2309"/><tag k="addr:postcode" v="78741"/></node><node id="-72" lat="30.219424" lon="-97.700704" changeset="false"><tag k="addr:street" v="Maxwell Lane"/><tag k="addr:housenumber" v="2300"/><tag k="addr:postcode" v="78741"/></node><node id="-73" lat="30.2225" lon="-97.704472" changeset="false"><tag k="addr:street" v="Montopolis Drive"/><tag k="addr:housenumber" v="2201"/><tag k="addr:postcode" v="78741"/></node><node id="-74" lat="30.222995" lon="-97.699816" changeset="false"><tag k="addr:street" v="Thrasher Lane"/><tag k="addr:housenumber" v="2005"/><tag k="addr:postcode" v="78741"/></node><node id="-75" lat="30.215861" lon="-97.701174" changeset="false"><tag k="addr:street" v="East Ben White Boulevard"/><tag k="addr:housenumber" v="7016"/><tag k="addr:postcode" v="78741"/></node><node id="-76" lat="30.215769" lon="-97.706227" changeset="false"><tag k="addr:street" v="Montopolis Drive"/><tag k="addr:housenumber" v="2711"/><tag k="addr:postcode" v="78741"/></node><node id="-77" lat="30.218671" lon="-97.697873" changeset="false"><tag k="addr:street" v="Yellow Jacket Lane"/><tag k="addr:housenumber" v="2212"/><tag k="addr:postcode" v="78741"/></node><node id="-78" lat="30.221663" lon="-97.688837" changeset="false"><tag k="addr:street" v="John Glenn Drive"/><tag k="addr:housenumber" v="7610"/><tag k="addr:postcode" v="78741"/></node><node id="-79" lat="30.218343" lon="-97.698187" changeset="false"><tag k="addr:street" v="Yellow Jacket Lane"/><tag k="addr:housenumber" v="2220"/><tag k="addr:postcode" v="78741"/></node><node id="-80" lat="30.219922" lon="-97.699716" changeset="false"><tag k="addr:street" v="Maxwell Lane"/><tag k="addr:housenumber" v="2209"/><tag k="addr:postcode" v="78741"/></node><node id="-81" lat="30.219797" lon="-97.699838" changeset="false"><tag k="addr:street" v="Maxwell Lane"/><tag k="addr:housenumber" v="2213"/><tag k="addr:postcode" v="78741"/></node><node id="-82" lat="30.219166" lon="-97.68956" changeset="false"><tag k="addr:street" v="East Ben White Boulevard"/><tag k="addr:housenumber" v="7800"/><tag k="addr:postcode" v="78741"/></node><node id="-83" lat="30.221736" lon="-97.701244" changeset="false"><tag k="addr:street" v="Thrasher Lane"/><tag k="addr:housenumber" v="2108"/><tag k="addr:postcode" v="78741"/></node><node id="-84" lat="30.218322" lon="-97.697043" changeset="false"><tag k="addr:street" v="Uphill Lane"/><tag k="addr:housenumber" v="2202"/><tag k="addr:postcode" v="78741"/></node><node id="-85" lat="30.220188" lon="-97.702067" changeset="false"><tag k="addr:street" v="Thrasher Lane"/><tag k="addr:housenumber" v="2225"/><tag k="addr:postcode" v="78741"/></node><node id="-86" lat="30.218915" lon="-97.697652" changeset="false"><tag k="addr:street" v="Yellow Jacket Lane"/><tag k="addr:housenumber" v="2204"/><tag k="addr:postcode" v="78741"/></node><node id="-87" lat="30.2197" lon="-97.704461" changeset="false"><tag k="addr:street" v="Carson Ridge"/><tag k="addr:housenumber" v="6503"/><tag k="addr:postcode" v="78741"/></node><node id="-88" lat="30.219534" lon="-97.700069" changeset="false"><tag k="addr:street" v="Maxwell Lane"/><tag k="addr:housenumber" v="2221"/><tag k="addr:postcode" v="78741"/></node><node id="-89" lat="30.225249" lon="-97.685855" changeset="false"><tag k="addr:street" v="Airport Commerce Drive"/><tag k="addr:housenumber" v="1332"/><tag k="addr:postcode" v="78741"/></node><node id="-90" lat="30.22045" lon="-97.699277" changeset="false"><tag k="addr:street" v="Maxwell Lane"/><tag k="addr:housenumber" v="2125"/><tag k="addr:postcode" v="78741"/></node><node id="-91" lat="30.21971" lon="-97.696744" changeset="false"><tag k="addr:street" v="Yellow Jacket Lane"/><tag k="addr:housenumber" v="2106"/><tag k="addr:postcode" v="78741"/></node><node id="-92" lat="30.219532" lon="-97.697055" changeset="false"><tag k="addr:street" v="Yellow Jacket Lane"/><tag k="addr:housenumber" v="2108"/><tag k="addr:postcode" v="78741"/></node><node id="-93" lat="30.218981" lon="-97.691754" changeset="false"><tag k="addr:street" v="East Riverside Drive"/><tag k="addr:housenumber" v="7525"/><tag k="addr:postcode" v="78741"/></node><node id="-94" lat="30.221391" lon="-97.701055" changeset="false"><tag k="addr:street" v="Thrasher Lane"/><tag k="addr:housenumber" v="2113"/><tag k="addr:postcode" v="78741"/></node><node id="-95" lat="30.220681" lon="-97.695659" changeset="false"><tag k="addr:street" v="Yellow Jacket Lane"/><tag k="addr:housenumber" v="2006"/><tag k="addr:postcode" v="78741"/></node><node id="-96" lat="30.219994" lon="-97.695226" changeset="false"><tag k="addr:street" v="Uphill Lane"/><tag k="addr:housenumber" v="2006"/><tag k="addr:postcode" v="78741"/></node><node id="-97" lat="30.219406" lon="-97.689539" changeset="false"><tag k="addr:street" v="East Ben White Boulevard"/><tag k="addr:housenumber" v="7800 1/2"/><tag k="addr:postcode" v="78741"/></node><node id="-98" lat="30.221806" lon="-97.700656" changeset="false"><tag k="addr:street" v="Thrasher Lane"/><tag k="addr:housenumber" v="2103"/><tag k="addr:postcode" v="78741"/></node><node id="-99" lat="30.231829" lon="-97.684316" changeset="false"><tag k="addr:street" v="Bastrop Highway"/><tag k="addr:housenumber" v="810"/><tag k="addr:postcode" v="78741"/></node><node id="-100" lat="30.234789" lon="-97.685772" changeset="false"><tag k="addr:street" v="Bastrop Highway"/><tag k="addr:housenumber" v="650"/><tag k="addr:postcode" v="78741"/></node><node id="-101" lat="30.216268" lon="-97.699388" changeset="false"><tag k="addr:street" v="East Ben White Boulevard"/><tag k="addr:housenumber" v="7200"/><tag k="addr:postcode" v="78741"/></node><node id="-102" lat="30.236844" lon="-97.687751" changeset="false"><tag k="addr:street" v="Bastrop Highway"/><tag k="addr:housenumber" v="500"/><tag k="addr:postcode" v="78741"/></node><node id="-103" lat="30.21877" lon="-97.704027" changeset="false"><tag k="addr:street" v="Thrasher Lane"/><tag k="addr:housenumber" v="2408"/><tag k="addr:postcode" v="78741"/></node><node id="-104" lat="30.223154" lon="-97.700075" changeset="false"><tag k="addr:street" v="Thrasher Lane"/><tag k="addr:housenumber" v="2004"/><tag k="addr:postcode" v="78741"/></node><node id="-105" lat="30.229328" lon="-97.68624" changeset="false"><tag k="addr:street" v="Bastrop Highway"/><tag k="addr:housenumber" v="830"/><tag k="addr:postcode" v="78741"/></node><node id="-106" lat="30.222129" lon="-97.700974" changeset="false"><tag k="addr:street" v="Thrasher Lane"/><tag k="addr:housenumber" v="2102"/><tag k="addr:postcode" v="78741"/></node><node id="-107" lat="30.222115" lon="-97.700426" changeset="false"><tag k="addr:street" v="Thrasher Lane"/><tag k="addr:housenumber" v="2017"/><tag k="addr:postcode" v="78741"/></node><node id="-108" lat="30.221739" lon="-97.69658" changeset="false"><tag k="addr:street" v="East Riverside Drive"/><tag k="addr:housenumber" v="7003"/><tag k="addr:postcode" v="78741"/></node><node id="-109" lat="30.220844" lon="-97.700811" changeset="false"><tag k="addr:street" v="Thrasher Lane"/><tag k="addr:housenumber" v="2201"/><tag k="addr:postcode" v="78741"/></node><node id="-110" lat="30.220523" lon="-97.699761" changeset="false"><tag k="addr:street" v="Maxwell Lane"/><tag k="addr:housenumber" v="2200"/><tag k="addr:postcode" v="78741"/></node><node id="-111" lat="30.213694" lon="-97.708594" changeset="false"><tag k="addr:street" v="East Ben White Boulevard"/><tag k="addr:housenumber" v="6600"/><tag k="addr:postcode" v="78741"/></node><node id="-112" lat="30.21963" lon="-97.692906" changeset="false"><tag k="addr:street" v="East Riverside Drive"/><tag k="addr:housenumber" v="7419"/><tag k="addr:postcode" v="78741"/></node><node id="-113" lat="30.239504" lon="-97.688249" changeset="false"><tag k="addr:street" v="Bastrop Highway"/><tag k="addr:housenumber" v="408"/><tag k="addr:postcode" v="78741"/></node><node id="-114" lat="30.219009" lon="-97.703454" changeset="false"><tag k="addr:street" v="Thrasher Lane"/><tag k="addr:housenumber" v="2406"/><tag k="addr:postcode" v="78741"/></node><node id="-115" lat="30.220382" lon="-97.694676" changeset="false"><tag k="addr:street" v="East Riverside Drive"/><tag k="addr:housenumber" v="7209"/><tag k="addr:postcode" v="78741"/></node><node id="-116" lat="30.221027" lon="-97.700667" changeset="false"><tag k="addr:street" v="Thrasher Lane"/><tag k="addr:housenumber" v="2117"/><tag k="addr:postcode" v="78741"/></node><node id="-117" lat="30.217255" lon="-97.696215" changeset="false"><tag k="addr:street" v="East Ben White Boulevard"/><tag k="addr:housenumber" v="7310"/><tag k="addr:postcode" v="78741"/></node><node id="-118" lat="30.220536" lon="-97.693553" changeset="false"><tag k="addr:street" v="East Riverside Drive"/><tag k="addr:housenumber" v="7310"/><tag k="addr:postcode" v="78741"/></node><node id="-119" lat="30.220253" lon="-97.704773" changeset="false"><tag k="addr:street" v="Carson Ridge"/><tag k="addr:housenumber" v="6408"/><tag k="addr:postcode" v="78741"/></node><node id="-120" lat="30.227883" lon="-97.683269" changeset="false"><tag k="addr:street" v="Bastrop Highway"/><tag k="addr:housenumber" v="1026"/><tag k="addr:postcode" v="78741"/></node><node id="-121" lat="30.224521" lon="-97.691728" changeset="false"><tag k="addr:street" v="Poppy Seed Lane"/><tag k="addr:housenumber" v="1405"/><tag k="addr:postcode" v="78741"/></node></osm>