<?xml version="1.0" encoding="UTF-8"?><osm version="0.6" generator="github.com/aaronlidman/osm-and-geojson"><node id="-1" lat="30.33493" lon="-97.756517" changeset="false"><tag k="addr:street" v="Northland Drive"/><tag k="addr:housenumber" v="3303"/><tag k="addr:postcode" v="78731"/></node><node id="-2" lat="30.336161" lon="-97.756455" changeset="false"><tag k="addr:street" v="Northland Drive"/><tag k="addr:housenumber" v="3301"/><tag k="addr:postcode" v="78731"/></node><node id="-3" lat="30.334752" lon="-97.757608" changeset="false"><tag k="addr:street" v="Northland Drive"/><tag k="addr:housenumber" v="3307"/><tag k="addr:postcode" v="78731"/></node><node id="-4" lat="30.33429" lon="-97.756814" changeset="false"><tag k="addr:street" v="Northland Drive"/><tag k="addr:housenumber" v="3305"/><tag k="addr:postcode" v="78731"/></node><node id="-5" lat="30.330698" lon="-97.759953" changeset="false"><tag k="addr:street" v="Fairview Drive"/><tag k="addr:housenumber" v="4900"/><tag k="addr:postcode" v="78731"/></node></osm>