<?xml version="1.0" encoding="UTF-8"?><osm version="0.6" generator="github.com/aaronlidman/osm-and-geojson"><node id="-1" lat="30.333647" lon="-97.758775" changeset="false"><tag k="addr:street" v="Fairview Drive"/><tag k="addr:housenumber" v="5115"/><tag k="coa:place_id" v="871712"/></node><node id="-2" lat="30.333007" lon="-97.757305" changeset="false"><tag k="addr:street" v="Valley Oak Drive"/><tag k="addr:housenumber" v="5204"/><tag k="coa:place_id" v="871562"/></node><node id="-3" lat="30.332763" lon="-97.757049" changeset="false"><tag k="addr:street" v="Valley Oak Drive"/><tag k="addr:housenumber" v="5200"/><tag k="coa:place_id" v="871574"/></node><node id="-4" lat="30.328334" lon="-97.755341" changeset="false"><tag k="addr:street" v="North MoPac Expressway"/><tag k="addr:housenumber" v="5001 1/2"/><tag k="coa:place_id" v="1141247"/></node><node id="-5" lat="30.329684" lon="-97.759019" changeset="false"><tag k="addr:street" v="Highland Terrace,1100"/><tag k="addr:housenumber" v="3204"/><tag k="coa:place_id" v="828974"/></node><node id="-6" lat="30.320367" lon="-97.755393" changeset="false"><tag k="addr:street" v="North MoPac Expressway"/><tag k="addr:housenumber" v="4431 1/2"/><tag k="coa:place_id" v="1141267"/></node><node id="-7" lat="30.327501" lon="-97.755379" changeset="false"><tag k="addr:street" v="North MoPac Expressway"/><tag k="addr:housenumber" v="4945 1/2"/><tag k="coa:place_id" v="1144127"/></node><node id="-8" lat="30.332194" lon="-97.758974" changeset="false"><tag k="addr:street" v="Hancock Drive"/><tag k="addr:housenumber" v="3305"/><tag k="coa:place_id" v="871154"/></node><node id="-9" lat="30.330183" lon="-97.754693" changeset="false"><tag k="addr:street" v="Hancock Drive"/><tag k="addr:housenumber" v="3033"/><tag k="coa:place_id" v="224731"/></node><node id="-10" lat="30.333292" lon="-97.757786" changeset="false"><tag k="addr:street" v="Valley Oak Drive"/><tag k="addr:housenumber" v="5210"/><tag k="coa:place_id" v="871544"/></node><node id="-11" lat="30.333726" lon="-97.758169" changeset="false"><tag k="addr:street" v="Valley Oak Drive"/><tag k="addr:housenumber" v="5216"/><tag k="coa:place_id" v="871526"/></node><node id="-12" lat="30.324448" lon="-97.751242" changeset="false"><tag k="addr:street" v="Bull Creek Road"/><tag k="addr:housenumber" v="4810"/><tag k="coa:place_id" v="163114"/></node><node id="-13" lat="30.328568" lon="-97.751403" changeset="false"><tag k="addr:street" v="Fresco Drive North,1100"/><tag k="addr:housenumber" v="5010"/><tag k="coa:place_id" v="757472"/></node><node id="-14" lat="30.328637" lon="-97.762081" changeset="false"><tag k="addr:street" v="Perry Lane"/><tag k="addr:housenumber" v="3312"/><tag k="coa:place_id" v="829286"/></node><node id="-15" lat="30.333565" lon="-97.758072" changeset="false"><tag k="addr:street" v="Valley Oak Drive"/><tag k="addr:housenumber" v="5214"/><tag k="coa:place_id" v="871532"/></node><node id="-16" lat="30.323831" lon="-97.751833" changeset="false"><tag k="addr:street" v="Bull Creek Road"/><tag k="addr:housenumber" v="4708"/><tag k="coa:place_id" v="757226"/></node><node id="-17" lat="30.333934" lon="-97.756083" changeset="false"><tag k="addr:street" v="North MoPac Expressway"/><tag k="addr:housenumber" v="5310 1/2"/><tag k="coa:place_id" v="1141187"/></node><node id="-18" lat="30.331344" lon="-97.758857" changeset="false"><tag k="addr:street" v="Fairview Drive"/><tag k="addr:housenumber" v="5001"/><tag k="coa:place_id" v="871184"/></node><node id="-19" lat="30.32764" lon="-97.755186" changeset="false"><tag k="addr:street" v="Westfield Drive"/><tag k="addr:housenumber" v="4908"/><tag k="coa:place_id" v="715916"/></node><node id="-20" lat="30.332155" lon="-97.758891" changeset="false"><tag k="addr:street" v="Hancock Drive"/><tag k="addr:housenumber" v="3303"/><tag k="coa:place_id" v="871172"/></node><node id="-21" lat="30.32992" lon="-97.75599" changeset="false"><tag k="addr:street" v="North MoPac Expressway"/><tag k="addr:housenumber" v="5010 1/2"/><tag k="coa:place_id" v="1141248"/></node><node id="-22" lat="30.327794" lon="-97.749828" changeset="false"><tag k="addr:street" v="Hancock Drive"/><tag k="addr:housenumber" v="2823"/><tag k="coa:place_id" v="798710"/></node><node id="-23" lat="30.333808" lon="-97.75745" changeset="false"><tag k="addr:street" v="Valley Oak Drive"/><tag k="addr:housenumber" v="5213"/><tag k="coa:place_id" v="871484"/></node><node id="-24" lat="30.322626" lon="-97.75314" changeset="false"><tag k="addr:street" v="Placid Place"/><tag k="addr:housenumber" v="4601"/><tag k="coa:place_id" v="715592"/></node><node id="-25" lat="30.32887" lon="-97.760952" changeset="false"><tag k="addr:street" v="Big Bend Drive"/><tag k="addr:housenumber" v="3303"/><tag k="coa:place_id" v="829394"/></node><node id="-26" lat="30.328481" lon="-97.751214" changeset="false"><tag k="addr:street" v="Hancock Drive"/><tag k="addr:housenumber" v="2847"/><tag k="coa:place_id" v="757478"/></node><node id="-27" lat="30.324806" lon="-97.755224" changeset="false"><tag k="addr:street" v="Perry Lane"/><tag k="addr:housenumber" v="3018"/><tag k="coa:place_id" v="256207"/></node><node id="-28" lat="30.333199" lon="-97.757652" changeset="false"><tag k="addr:street" v="Valley Oak Drive"/><tag k="addr:housenumber" v="5208"/><tag k="coa:place_id" v="871550"/></node><node id="-29" lat="30.327402" lon="-97.755226" changeset="false"><tag k="addr:street" v="Westfield Drive"/><tag k="addr:housenumber" v="4906"/><tag k="coa:place_id" v="715910"/></node><node id="-30" lat="30.320753" lon="-97.754342" changeset="false"><tag k="addr:street" v="West 45th Street"/><tag k="addr:housenumber" v="2807"/><tag k="coa:place_id" v="715292"/></node><node id="-31" lat="30.329509" lon="-97.760432" changeset="false"><tag k="addr:street" v="Fairview Drive"/><tag k="addr:housenumber" v="4800"/><tag k="coa:place_id" v="829382"/></node><node id="-32" lat="30.330321" lon="-97.754978" changeset="false"><tag k="addr:street" v="Hancock Drive"/><tag k="addr:housenumber" v="3043"/><tag k="coa:place_id" v="224730"/></node><node id="-33" lat="30.327325" lon="-97.757142" changeset="false"><tag k="addr:street" v="Highland Terrace,1100"/><tag k="addr:housenumber" v="4708"/><tag k="coa:place_id" v="829070"/></node><node id="-34" lat="30.333102" lon="-97.75748" changeset="false"><tag k="addr:street" v="Valley Oak Drive"/><tag k="addr:housenumber" v="5206"/><tag k="coa:place_id" v="871556"/></node><node id="-35" lat="30.331334" lon="-97.763399" changeset="false"><tag k="addr:street" v="Balcones Drive"/><tag k="addr:housenumber" v="4805"/><tag k="coa:place_id" v="829520"/></node><node id="-36" lat="30.329626" lon="-97.761088" changeset="false"><tag k="addr:street" v="Big Bend Drive"/><tag k="addr:housenumber" v="3302"/><tag k="coa:place_id" v="829370"/></node><node id="-37" lat="30.333006" lon="-97.759712" changeset="false"><tag k="addr:street" v="Hancock Drive"/><tag k="addr:housenumber" v="3310"/><tag k="coa:place_id" v="871796"/></node><node id="-38" lat="30.332424" lon="-97.760583" changeset="false"><tag k="addr:street" v="Balcones Drive"/><tag k="addr:housenumber" v="5011"/><tag k="coa:place_id" v="503854"/></node><node id="-39" lat="30.335427" lon="-97.758572" changeset="false"><tag k="addr:street" v="Balcones Drive"/><tag k="addr:housenumber" v="5307"/><tag k="coa:place_id" v="117446"/></node><node id="-40" lat="30.330371" lon="-97.755298" changeset="false"><tag k="addr:street" v="North MoPac Expressway"/><tag k="addr:housenumber" v="5031 1/2"/><tag k="coa:place_id" v="1141227"/></node><node id="-41" lat="30.32371" lon="-97.751901" changeset="false"><tag k="addr:street" v="Bull Creek Road"/><tag k="addr:housenumber" v="4706"/><tag k="coa:place_id" v="5062545"/></node><node id="-42" lat="30.334359" lon="-97.758606" changeset="false"><tag k="addr:street" v="Valley Oak Drive"/><tag k="addr:housenumber" v="5224"/><tag k="coa:place_id" v="871502"/></node><node id="-43" lat="30.333889" lon="-97.758323" changeset="false"><tag k="addr:street" v="Valley Oak Drive"/><tag k="addr:housenumber" v="5218"/><tag k="coa:place_id" v="871520"/></node><node id="-44" lat="30.333799" lon="-97.758962" changeset="false"><tag k="addr:street" v="Fairview Drive"/><tag k="addr:housenumber" v="5119"/><tag k="coa:place_id" v="871718"/></node><node id="-45" lat="30.329748" lon="-97.755369" changeset="false"><tag k="addr:street" v="North MoPac Expressway"/><tag k="addr:housenumber" v="5023 1/2"/><tag k="coa:place_id" v="1157875"/></node><node id="-46" lat="30.333808" lon="-97.759229" changeset="false"><tag k="addr:street" v="Fairview Drive"/><tag k="addr:housenumber" v="5121"/><tag k="coa:place_id" v="172905"/></node><node id="-47" lat="30.325984" lon="-97.750779" changeset="false"><tag k="addr:street" v="West 50th Street"/><tag k="addr:housenumber" v="2805"/><tag k="coa:place_id" v="757292"/></node><node id="-48" lat="30.331736" lon="-97.758288" changeset="false"><tag k="addr:street" v="Hancock Drive"/><tag k="addr:housenumber" v="3209"/><tag k="coa:place_id" v="871214"/></node><node id="-49" lat="30.331831" lon="-97.762646" changeset="false"><tag k="addr:street" v="Balcones Drive"/><tag k="addr:housenumber" v="4907"/><tag k="coa:place_id" v="871076"/></node><node id="-50" lat="30.328242" lon="-97.757631" changeset="false"><tag k="addr:street" v="Highland Terrace,1100"/><tag k="addr:housenumber" v="3103"/><tag k="coa:place_id" v="829046"/></node><node id="-51" lat="30.328452" lon="-97.758069" changeset="false"><tag k="addr:street" v="Valley Oak Drive"/><tag k="addr:housenumber" v="4807"/><tag k="coa:place_id" v="829142"/></node><node id="-52" lat="30.325523" lon="-97.75701" changeset="false"><tag k="addr:street" v="Highland Terrace,1100"/><tag k="addr:housenumber" v="4700"/><tag k="coa:place_id" v="3215553"/></node><node id="-53" lat="30.320824" lon="-97.754487" changeset="false"><tag k="addr:street" v="West 45th Street"/><tag k="addr:housenumber" v="2823"/><tag k="coa:place_id" v="158254"/></node><node id="-54" lat="30.327737" lon="-97.750153" changeset="false"><tag k="addr:street" v="Hancock Drive"/><tag k="addr:housenumber" v="2825"/><tag k="coa:place_id" v="348968"/></node><node id="-55" lat="30.32816" lon="-97.76037" changeset="false"><tag k="addr:street" v="Fairview Drive"/><tag k="addr:housenumber" v="4702"/><tag k="coa:place_id" v="829244"/></node><node id="-56" lat="30.325588" lon="-97.756696" changeset="false"><tag k="addr:street" v="Perry Lane"/><tag k="addr:housenumber" v="3022"/><tag k="coa:place_id" v="828758"/></node><node id="-57" lat="30.320321" lon="-97.755162" changeset="false"><tag k="addr:street" v="West 44th Street"/><tag k="addr:housenumber" v="2904"/><tag k="coa:place_id" v="224735"/></node><node id="-58" lat="30.321554" lon="-97.754375" changeset="false"><tag k="addr:street" v="Placid Place"/><tag k="addr:housenumber" v="4500"/><tag k="coa:place_id" v="5116608"/></node><node id="-59" lat="30.321675" lon="-97.754297" changeset="false"><tag k="addr:street" v="Placid Place"/><tag k="addr:housenumber" v="4502"/><tag k="coa:place_id" v="715514"/></node><node id="-60" lat="30.33619" lon="-97.757392" changeset="false"><tag k="addr:street" v="Balcones Drive"/><tag k="addr:housenumber" v="5503"/><tag k="coa:place_id" v="349070"/></node><node id="-61" lat="30.336225" lon="-97.75736" changeset="false"><tag k="addr:street" v="Balcones Drive"/><tag k="addr:housenumber" v="5507"/><tag k="coa:place_id" v="749997"/></node><node id="-62" lat="30.336209" lon="-97.757373" changeset="false"><tag k="addr:street" v="Balcones Drive"/><tag k="addr:housenumber" v="5505"/><tag k="coa:place_id" v="349082"/></node><node id="-63" lat="30.336653" lon="-97.75722" changeset="false"><tag k="addr:street" v="Balcones Drive"/><tag k="addr:housenumber" v="5521"/><tag k="coa:place_id" v="117974"/></node><node id="-64" lat="30.336405" lon="-97.75747" changeset="false"><tag k="addr:street" v="Balcones Drive"/><tag k="addr:housenumber" v="5509"/><tag k="coa:place_id" v="751035"/></node><node id="-65" lat="30.336669" lon="-97.757208" changeset="false"><tag k="addr:street" v="Balcones Drive"/><tag k="addr:housenumber" v="5523"/><tag k="coa:place_id" v="117980"/></node><node id="-66" lat="30.336452" lon="-97.757432" changeset="false"><tag k="addr:street" v="Balcones Drive"/><tag k="addr:housenumber" v="5515"/><tag k="coa:place_id" v="545818"/></node><node id="-67" lat="30.336421" lon="-97.757457" changeset="false"><tag k="addr:street" v="Balcones Drive"/><tag k="addr:housenumber" v="5511"/><tag k="coa:place_id" v="749445"/></node><node id="-68" lat="30.336685" lon="-97.757195" changeset="false"><tag k="addr:street" v="Balcones Drive"/><tag k="addr:housenumber" v="5525"/><tag k="coa:place_id" v="752109"/></node><node id="-69" lat="30.336468" lon="-97.757419" changeset="false"><tag k="addr:street" v="Balcones Drive"/><tag k="addr:housenumber" v="5517"/><tag k="coa:place_id" v="752181"/></node><node id="-70" lat="30.336638" lon="-97.757233" changeset="false"><tag k="addr:street" v="Balcones Drive"/><tag k="addr:housenumber" v="5519"/><tag k="coa:place_id" v="117968"/></node><node id="-71" lat="30.336162" lon="-97.757417" changeset="false"><tag k="addr:street" v="Balcones Drive"/><tag k="addr:housenumber" v="5501"/><tag k="coa:place_id" v="349064"/></node><node id="-72" lat="30.336985" lon="-97.757052" changeset="false"><tag k="addr:street" v="Northland Drive"/><tag k="addr:housenumber" v="3319"/><tag k="coa:place_id" v="117956"/></node><node id="-73" lat="30.336904" lon="-97.756879" changeset="false"><tag k="addr:street" v="Northland Drive"/><tag k="addr:housenumber" v="3317"/><tag k="coa:place_id" v="349088"/></node><node id="-74" lat="30.335493" lon="-97.757981" changeset="false"><tag k="addr:street" v="Balcones Drive"/><tag k="addr:housenumber" v="5311"/><tag k="coa:place_id" v="349058"/></node><node id="-75" lat="30.335408" lon="-97.757965" changeset="false"><tag k="addr:street" v="Balcones Drive"/><tag k="addr:housenumber" v="5401"/><tag k="coa:place_id" v="128585"/></node><node id="-76" lat="30.330819" lon="-97.758973" changeset="false"><tag k="addr:street" v="Fairview Drive"/><tag k="addr:housenumber" v="4909"/><tag k="coa:place_id" v="829010"/></node><node id="-77" lat="30.33086" lon="-97.758969" changeset="false"><tag k="addr:street" v="Sunny Lane"/><tag k="addr:housenumber" v="3209"/><tag k="coa:place_id" v="828914"/></node><node id="-78" lat="30.332403" lon="-97.759685" changeset="false"><tag k="addr:street" v="Hancock Drive"/><tag k="addr:housenumber" v="3315"/><tag k="coa:place_id" v="871130"/></node><node id="-79" lat="30.332287" lon="-97.759435" changeset="false"><tag k="addr:street" v="Hancock Drive"/><tag k="addr:housenumber" v="3309"/><tag k="coa:place_id" v="349004"/></node><node id="-80" lat="30.332465" lon="-97.75984" changeset="false"><tag k="addr:street" v="Hancock Drive"/><tag k="addr:housenumber" v="3319"/><tag k="coa:place_id" v="871112"/></node><node id="-81" lat="30.332505" lon="-97.759929" changeset="false"><tag k="addr:street" v="Hancock Drive"/><tag k="addr:housenumber" v="3321"/><tag k="coa:place_id" v="871106"/></node><node id="-82" lat="30.332248" lon="-97.759352" changeset="false"><tag k="addr:street" v="Hancock Drive"/><tag k="addr:housenumber" v="3307"/><tag k="coa:place_id" v="583504"/></node><node id="-83" lat="30.332323" lon="-97.759639" changeset="false"><tag k="addr:street" v="Hancock Drive"/><tag k="addr:housenumber" v="3301"/><tag k="coa:place_id" v="118882"/></node><node id="-84" lat="30.332441" lon="-97.759768" changeset="false"><tag k="addr:street" v="Hancock Drive"/><tag k="addr:housenumber" v="3317"/><tag k="coa:place_id" v="871124"/></node><node id="-85" lat="30.332364" lon="-97.759602" changeset="false"><tag k="addr:street" v="Hancock Drive"/><tag k="addr:housenumber" v="3313"/><tag k="coa:place_id" v="871136"/></node><node id="-86" lat="30.323649" lon="-97.755291" changeset="false"><tag k="addr:street" v="Highland Terrace,1100"/><tag k="addr:housenumber" v="4602"/><tag k="coa:place_id" v="715376"/></node><node id="-87" lat="30.323743" lon="-97.755312" changeset="false"><tag k="addr:street" v="Highland Terrace,1100"/><tag k="addr:housenumber" v="4604"/><tag k="coa:place_id" v="715382"/></node></osm>