<?xml version="1.0" encoding="UTF-8"?><osm version="0.6" generator="github.com/aaronlidman/osm-and-geojson"><node id="-1" lat="30.490556" lon="-97.733457" changeset="false"><tag k="addr:street" v="Staffordshire Lane"/><tag k="addr:housenumber" v="15604"/><tag k="addr:postcode" v="78717"/></node><node id="-2" lat="30.483997" lon="-97.739377" changeset="false"><tag k="addr:street" v="Shady Lane"/><tag k="addr:housenumber" v="15303"/><tag k="addr:postcode" v="78717"/></node><node id="-3" lat="30.487246" lon="-97.737684" changeset="false"><tag k="addr:street" v="Poynette Place"/><tag k="addr:housenumber" v="15608"/><tag k="addr:postcode" v="78717"/></node><node id="-4" lat="30.488541" lon="-97.73999" changeset="false"><tag k="addr:street" v="Ephraim Road"/><tag k="addr:housenumber" v="8212"/><tag k="addr:postcode" v="78717"/></node><node id="-5" lat="30.487534" lon="-97.734463" changeset="false"><tag k="addr:street" v="Garrison Circle"/><tag k="addr:housenumber" v="15855"/><tag k="addr:postcode" v="78717"/></node><node id="-6" lat="30.487135" lon="-97.737722" changeset="false"><tag k="addr:street" v="Poynette Place"/><tag k="addr:housenumber" v="15606"/><tag k="addr:postcode" v="78717"/></node><node id="-7" lat="30.487051" lon="-97.735325" changeset="false"><tag k="addr:street" v="Lecompte Road"/><tag k="addr:housenumber" v="7811"/><tag k="addr:postcode" v="78717"/></node><node id="-8" lat="30.488808" lon="-97.740086" changeset="false"><tag k="addr:street" v="Ephraim Road"/><tag k="addr:housenumber" v="8216"/><tag k="addr:postcode" v="78717"/></node><node id="-9" lat="30.488055" lon="-97.738473" changeset="false"><tag k="addr:street" v="Ephraim Road"/><tag k="addr:housenumber" v="8110"/><tag k="addr:postcode" v="78717"/></node><node id="-10" lat="30.487985" lon="-97.739724" changeset="false"><tag k="addr:street" v="Ephraim Road"/><tag k="addr:housenumber" v="8204"/><tag k="addr:postcode" v="78717"/></node><node id="-11" lat="30.484228" lon="-97.736047" changeset="false"><tag k="addr:street" v="Ranch-to-Market Road 620"/><tag k="addr:housenumber" v="15510"/><tag k="addr:postcode" v="78717"/></node><node id="-12" lat="30.49208" lon="-97.738029" changeset="false"><tag k="addr:street" v="Monona Avenue"/><tag k="addr:housenumber" v="8222"/><tag k="addr:postcode" v="78717"/></node><node id="-13" lat="30.483858" lon="-97.738707" changeset="false"><tag k="addr:street" v="Ranch-to-Market Road 620"/><tag k="addr:housenumber" v="15400"/><tag k="addr:postcode" v="78717"/></node><node id="-14" lat="30.494135" lon="-97.742167" changeset="false"><tag k="addr:street" v="Racine Trail"/><tag k="addr:housenumber" v="8510"/><tag k="addr:postcode" v="78717"/></node><node id="-15" lat="30.483971" lon="-97.738248" changeset="false"><tag k="addr:street" v="Ranch-to-Market Road 620"/><tag k="addr:housenumber" v="15402"/><tag k="addr:postcode" v="78717"/></node><node id="-16" lat="30.483671" lon="-97.739097" changeset="false"><tag k="addr:street" v="Ranch-to-Market Road 620"/><tag k="addr:housenumber" v="15396"/><tag k="addr:postcode" v="78717"/></node><node id="-17" lat="30.484087" lon="-97.737935" changeset="false"><tag k="addr:street" v="Ranch-to-Market Road 620"/><tag k="addr:housenumber" v="15418 1/2"/><tag k="addr:postcode" v="78717"/></node><node id="-18" lat="30.489078" lon="-97.740148" changeset="false"><tag k="addr:street" v="Ephraim Road"/><tag k="addr:housenumber" v="8300"/><tag k="addr:postcode" v="78717"/></node><node id="-19" lat="30.49002" lon="-97.729199" changeset="false"><tag k="addr:street" v="Ranch-to-Market Road 620"/><tag k="addr:housenumber" v="16310"/><tag k="addr:postcode" v="78717"/></node><node id="-20" lat="30.487472" lon="-97.737636" changeset="false"><tag k="addr:street" v="Poynette Place"/><tag k="addr:housenumber" v="15610"/><tag k="addr:postcode" v="78717"/></node><node id="-21" lat="30.48892" lon="-97.740128" changeset="false"><tag k="addr:street" v="Ephraim Road"/><tag k="addr:housenumber" v="8218"/><tag k="addr:postcode" v="78717"/></node><node id="-22" lat="30.484249" lon="-97.735702" changeset="false"><tag k="addr:street" v="Ranch-to-Market Road 620"/><tag k="addr:housenumber" v="15518"/><tag k="addr:postcode" v="78717"/></node><node id="-23" lat="30.48461" lon="-97.734979" changeset="false"><tag k="addr:street" v="Ranch-to-Market Road 620"/><tag k="addr:housenumber" v="15534"/><tag k="addr:postcode" v="78717"/></node><node id="-24" lat="30.490902" lon="-97.738179" changeset="false"><tag k="addr:street" v="Monona Avenue"/><tag k="addr:housenumber" v="8208"/><tag k="addr:postcode" v="78717"/></node><node id="-25" lat="30.487302" lon="-97.73172" changeset="false"><tag k="addr:street" v="Ranch-to-Market Road 620"/><tag k="addr:housenumber" v="15800"/><tag k="addr:postcode" v="78717"/></node><node id="-26" lat="30.492712" lon="-97.734524" changeset="false"><tag k="addr:street" v="Racine Trail"/><tag k="addr:housenumber" v="8139"/><tag k="addr:postcode" v="78717"/></node><node id="-27" lat="30.487375" lon="-97.734361" changeset="false"><tag k="addr:street" v="Garrison Circle"/><tag k="addr:housenumber" v="15853"/><tag k="addr:postcode" v="78717"/></node><node id="-28" lat="30.492546" lon="-97.742343" changeset="false"><tag k="addr:street" v="Delavan Avenue"/><tag k="addr:housenumber" v="8406"/><tag k="addr:postcode" v="78717"/></node><node id="-29" lat="30.489231" lon="-97.740248" changeset="false"><tag k="addr:street" v="Ephraim Road"/><tag k="addr:housenumber" v="8302"/><tag k="addr:postcode" v="78717"/></node><node id="-30" lat="30.48909" lon="-97.742658" changeset="false"><tag k="addr:street" v="Caledonia Drive"/><tag k="addr:housenumber" v="8312"/><tag k="addr:postcode" v="78717"/></node><node id="-31" lat="30.487964" lon="-97.733063" changeset="false"><tag k="addr:street" v="Woodhall Cove"/><tag k="addr:housenumber" v="8001"/><tag k="addr:postcode" v="78717"/></node><node id="-32" lat="30.488254" lon="-97.739853" changeset="false"><tag k="addr:street" v="Ephraim Road"/><tag k="addr:housenumber" v="8208"/><tag k="addr:postcode" v="78717"/></node><node id="-33" lat="30.491096" lon="-97.742444" changeset="false"><tag k="addr:street" v="North Delavan Cove"/><tag k="addr:housenumber" v="15705"/><tag k="addr:postcode" v="78717"/></node><node id="-34" lat="30.491786" lon="-97.738136" changeset="false"><tag k="addr:street" v="Monona Avenue"/><tag k="addr:housenumber" v="8218"/><tag k="addr:postcode" v="78717"/></node></osm>