<?xml version="1.0" encoding="UTF-8"?><osm version="0.6" generator="github.com/aaronlidman/osm-and-geojson"><node id="-1" lat="30.261702" lon="-97.680514" changeset="false"><tag k="addr:street" v="Gardner Cove"/><tag k="addr:housenumber" v="1102"/><tag k="addr:postcode" v="78721"/></node><node id="-2" lat="30.257863" lon="-97.688418" changeset="false"><tag k="addr:street" v="Walton Lane"/><tag k="addr:housenumber" v="1107"/><tag k="addr:postcode" v="78721"/></node><node id="-3" lat="30.26166" lon="-97.693885" changeset="false"><tag k="addr:street" v="Airport Boulevard"/><tag k="addr:housenumber" v="1105"/><tag k="addr:postcode" v="78721"/></node><node id="-4" lat="30.255846" lon="-97.684292" changeset="false"><tag k="addr:street" v="Bolm Road"/><tag k="addr:housenumber" v="6108"/><tag k="addr:postcode" v="78721"/></node><node id="-5" lat="30.261554" lon="-97.67948" changeset="false"><tag k="addr:street" v="Gardner Road"/><tag k="addr:housenumber" v="1129"/><tag k="addr:postcode" v="78721"/></node><node id="-6" lat="30.253813" lon="-97.680114" changeset="false"><tag k="addr:street" v="Ed Bluestein Boulevard"/><tag k="addr:housenumber" v="1000 1/2"/><tag k="addr:postcode" v="78721"/></node><node id="-7" lat="30.261026" lon="-97.685963" changeset="false"><tag k="addr:street" v="Stuart Circle"/><tag k="addr:housenumber" v="5527"/><tag k="addr:postcode" v="78721"/></node><node id="-8" lat="30.260793" lon="-97.687601" changeset="false"><tag k="addr:street" v="Stuart Circle"/><tag k="addr:housenumber" v="5509"/><tag k="addr:postcode" v="78721"/></node><node id="-9" lat="30.262305" lon="-97.68718" changeset="false"><tag k="addr:street" v="Stuart Circle"/><tag k="addr:housenumber" v="5401"/><tag k="addr:postcode" v="78721"/></node><node id="-10" lat="30.262598" lon="-97.687649" changeset="false"><tag k="addr:street" v="Jain Lane"/><tag k="addr:housenumber" v="5403"/><tag k="addr:postcode" v="78721"/></node><node id="-11" lat="30.262193" lon="-97.672418" changeset="false"><tag k="addr:street" v="Shelton Road"/><tag k="addr:housenumber" v="6609"/><tag k="addr:postcode" v="78725"/></node><node id="-12" lat="30.259919" lon="-97.667094" changeset="false"><tag k="addr:street" v="Bay City Bend"/><tag k="addr:housenumber" v="7012"/><tag k="addr:postcode" v="78725"/></node><node id="-13" lat="30.260039" lon="-97.672204" changeset="false"><tag k="addr:street" v="Alleyton Drive"/><tag k="addr:housenumber" v="6433"/><tag k="addr:postcode" v="78725"/></node><node id="-14" lat="30.261533" lon="-97.668949" changeset="false"><tag k="addr:street" v="Bay City Bend"/><tag k="addr:housenumber" v="6624"/><tag k="addr:postcode" v="78725"/></node><node id="-15" lat="30.258976" lon="-97.683836" changeset="false"><tag k="addr:street" v="Lux Street"/><tag k="addr:housenumber" v="5928"/><tag k="addr:postcode" v="78721"/></node><node id="-16" lat="30.25941" lon="-97.668577" changeset="false"><tag k="addr:street" v="Bay City Bend"/><tag k="addr:housenumber" v="7212"/><tag k="addr:postcode" v="78725"/></node><node id="-17" lat="30.25868" lon="-97.68424" changeset="false"><tag k="addr:street" v="Lux Street"/><tag k="addr:housenumber" v="5925"/><tag k="addr:postcode" v="78721"/></node><node id="-18" lat="30.260976" lon="-97.67286" changeset="false"><tag k="addr:street" v="Alleyton Cove"/><tag k="addr:housenumber" v="2504"/><tag k="addr:postcode" v="78725"/></node><node id="-19" lat="30.261236" lon="-97.672731" changeset="false"><tag k="addr:street" v="Alleyton Cove"/><tag k="addr:housenumber" v="2512"/><tag k="addr:postcode" v="78725"/></node><node id="-20" lat="30.261313" lon="-97.672072" changeset="false"><tag k="addr:street" v="Alleyton Cove"/><tag k="addr:housenumber" v="2521"/><tag k="addr:postcode" v="78725"/></node><node id="-21" lat="30.261147" lon="-97.672068" changeset="false"><tag k="addr:street" v="Alleyton Cove"/><tag k="addr:housenumber" v="2517"/><tag k="addr:postcode" v="78725"/></node><node id="-22" lat="30.261789" lon="-97.671549" changeset="false"><tag k="addr:street" v="Winchell Lane"/><tag k="addr:housenumber" v="2600"/><tag k="addr:postcode" v="78725"/></node><node id="-23" lat="30.25907" lon="-97.67134" changeset="false"><tag k="addr:street" v="Alleyton Drive"/><tag k="addr:housenumber" v="6608"/><tag k="addr:postcode" v="78725"/></node><node id="-24" lat="30.259013" lon="-97.670714" changeset="false"><tag k="addr:street" v="Alleyton Drive"/><tag k="addr:housenumber" v="6613"/><tag k="addr:postcode" v="78725"/></node><node id="-25" lat="30.258202" lon="-97.670537" changeset="false"><tag k="addr:street" v="Alleyton Drive"/><tag k="addr:housenumber" v="6701"/><tag k="addr:postcode" v="78725"/></node><node id="-26" lat="30.257801" lon="-97.670446" changeset="false"><tag k="addr:street" v="Alleyton Drive"/><tag k="addr:housenumber" v="6713"/><tag k="addr:postcode" v="78725"/></node><node id="-27" lat="30.25669" lon="-97.6702" changeset="false"><tag k="addr:street" v="Alleyton Drive"/><tag k="addr:housenumber" v="6821"/><tag k="addr:postcode" v="78725"/></node><node id="-28" lat="30.256105" lon="-97.670823" changeset="false"><tag k="addr:street" v="Alleyton Drive"/><tag k="addr:housenumber" v="6917"/><tag k="addr:postcode" v="78725"/></node><node id="-29" lat="30.26086" lon="-97.672935" changeset="false"><tag k="addr:street" v="Alleyton Cove"/><tag k="addr:housenumber" v="2500"/><tag k="addr:postcode" v="78725"/></node><node id="-30" lat="30.256218" lon="-97.677629" changeset="false"><tag k="addr:street" v="Ed Bluestein Boulevard"/><tag k="addr:housenumber" v="1300 1/2"/><tag k="addr:postcode" v="78721"/></node><node id="-31" lat="30.24986" lon="-97.685435" changeset="false"><tag k="addr:street" v="Ed Bluestein Boulevard"/><tag k="addr:housenumber" v="827"/><tag k="addr:postcode" v="78725"/></node><node id="-32" lat="30.259128" lon="-97.672172" changeset="false"><tag k="addr:street" v="Hester Road"/><tag k="addr:housenumber" v="6920"/><tag k="addr:postcode" v="78725"/></node><node id="-33" lat="30.26138" lon="-97.685142" changeset="false"><tag k="addr:street" v="Stuart Circle"/><tag k="addr:housenumber" v="5609"/><tag k="addr:postcode" v="78721"/></node><node id="-34" lat="30.261299" lon="-97.685452" changeset="false"><tag k="addr:street" v="Stuart Circle"/><tag k="addr:housenumber" v="5607"/><tag k="addr:postcode" v="78721"/></node><node id="-35" lat="30.263406" lon="-97.688511" changeset="false"><tag k="addr:street" v="Jain Lane"/><tag k="addr:housenumber" v="5300"/><tag k="addr:postcode" v="78721"/></node><node id="-36" lat="30.259026" lon="-97.683959" changeset="false"><tag k="addr:street" v="Lux Street"/><tag k="addr:housenumber" v="5924"/><tag k="addr:postcode" v="78721"/></node><node id="-37" lat="30.260533" lon="-97.673362" changeset="false"><tag k="addr:street" v="Alleyton Drive"/><tag k="addr:housenumber" v="6401"/><tag k="addr:postcode" v="78725"/></node><node id="-38" lat="30.260196" lon="-97.667669" changeset="false"><tag k="addr:street" v="Bay City Bend"/><tag k="addr:housenumber" v="7109"/><tag k="addr:postcode" v="78725"/></node><node id="-39" lat="30.260286" lon="-97.672791" changeset="false"><tag k="addr:street" v="Alleyton Drive"/><tag k="addr:housenumber" v="6417"/><tag k="addr:postcode" v="78725"/></node><node id="-40" lat="30.261896" lon="-97.671523" changeset="false"><tag k="addr:street" v="Winchell Lane"/><tag k="addr:housenumber" v="2604"/><tag k="addr:postcode" v="78725"/></node><node id="-41" lat="30.259876" lon="-97.667253" changeset="false"><tag k="addr:street" v="Bay City Bend"/><tag k="addr:housenumber" v="7100"/><tag k="addr:postcode" v="78725"/></node><node id="-42" lat="30.263072" lon="-97.688738" changeset="false"><tag k="addr:street" v="Jain Lane"/><tag k="addr:housenumber" v="5301"/><tag k="addr:postcode" v="78721"/></node><node id="-43" lat="30.260227" lon="-97.672651" changeset="false"><tag k="addr:street" v="Alleyton Drive"/><tag k="addr:housenumber" v="6421"/><tag k="addr:postcode" v="78725"/></node><node id="-44" lat="30.26025" lon="-97.666153" changeset="false"><tag k="addr:street" v="Bay City Bend"/><tag k="addr:housenumber" v="6920"/><tag k="addr:postcode" v="78725"/></node><node id="-45" lat="30.259202" lon="-97.671367" changeset="false"><tag k="addr:street" v="Alleyton Drive"/><tag k="addr:housenumber" v="6604"/><tag k="addr:postcode" v="78725"/></node><node id="-46" lat="30.258608" lon="-97.670629" changeset="false"><tag k="addr:street" v="Alleyton Drive"/><tag k="addr:housenumber" v="6625"/><tag k="addr:postcode" v="78725"/></node><node id="-47" lat="30.25701" lon="-97.670803" changeset="false"><tag k="addr:street" v="Alleyton Drive"/><tag k="addr:housenumber" v="6812"/><tag k="addr:postcode" v="78725"/></node><node id="-48" lat="30.256839" lon="-97.670231" changeset="false"><tag k="addr:street" v="Alleyton Drive"/><tag k="addr:housenumber" v="6817"/><tag k="addr:postcode" v="78725"/></node><node id="-49" lat="30.256401" lon="-97.670179" changeset="false"><tag k="addr:street" v="Alleyton Drive"/><tag k="addr:housenumber" v="6901"/><tag k="addr:postcode" v="78725"/></node><node id="-50" lat="30.260052" lon="-97.6699" changeset="false"><tag k="addr:street" v="Hester Road"/><tag k="addr:housenumber" v="7104"/><tag k="addr:postcode" v="78725"/></node><node id="-51" lat="30.259466" lon="-97.668427" changeset="false"><tag k="addr:street" v="Bay City Bend"/><tag k="addr:housenumber" v="7208"/><tag k="addr:postcode" v="78725"/></node><node id="-52" lat="30.25925" lon="-97.669076" changeset="false"><tag k="addr:street" v="Bay City Bend"/><tag k="addr:housenumber" v="7224"/><tag k="addr:postcode" v="78725"/></node><node id="-53" lat="30.259925" lon="-97.670412" changeset="false"><tag k="addr:street" v="Hester Road"/><tag k="addr:housenumber" v="7012"/><tag k="addr:postcode" v="78725"/></node><node id="-54" lat="30.261649" lon="-97.686812" changeset="false"><tag k="addr:street" v="Stuart Circle"/><tag k="addr:housenumber" v="5408"/><tag k="addr:postcode" v="78721"/></node><node id="-55" lat="30.263031" lon="-97.685149" changeset="false"><tag k="addr:street" v="Mahan Drive"/><tag k="addr:housenumber" v="1115"/><tag k="addr:postcode" v="78721"/></node><node id="-56" lat="30.260966" lon="-97.686094" changeset="false"><tag k="addr:street" v="Stuart Circle"/><tag k="addr:housenumber" v="5525"/><tag k="addr:postcode" v="78721"/></node><node id="-57" lat="30.260687" lon="-97.686743" changeset="false"><tag k="addr:street" v="Stuart Circle"/><tag k="addr:housenumber" v="5517"/><tag k="addr:postcode" v="78721"/></node><node id="-58" lat="30.250807" lon="-97.680716" changeset="false"><tag k="addr:street" v="Linger Lane"/><tag k="addr:housenumber" v="826"/><tag k="addr:postcode" v="78725"/></node><node id="-59" lat="30.256152" lon="-97.684068" changeset="false"><tag k="addr:street" v="Gardner Road"/><tag k="addr:housenumber" v="1013 1/2"/><tag k="addr:postcode" v="78721"/></node><node id="-60" lat="30.262694" lon="-97.685095" changeset="false"><tag k="addr:street" v="Mahan Drive"/><tag k="addr:housenumber" v="1111"/><tag k="addr:postcode" v="78721"/></node><node id="-61" lat="30.2627" lon="-97.691099" changeset="false"><tag k="addr:street" v="Shady Lane"/><tag k="addr:housenumber" v="1141"/><tag k="addr:postcode" v="78721"/></node><node id="-62" lat="30.256265" lon="-97.67972" changeset="false"><tag k="addr:street" v="Smith Road"/><tag k="addr:housenumber" v="1300"/><tag k="addr:postcode" v="78721"/></node><node id="-63" lat="30.256922" lon="-97.687084" changeset="false"><tag k="addr:street" v="Bolm Road"/><tag k="addr:housenumber" v="5802"/><tag k="addr:postcode" v="78721"/></node><node id="-64" lat="30.252767" lon="-97.676864" changeset="false"><tag k="addr:street" v="Ed Bluestein Boulevard"/><tag k="addr:housenumber" v="1001"/><tag k="addr:postcode" v="78725"/></node><node id="-65" lat="30.25928" lon="-97.674677" changeset="false"><tag k="addr:street" v="Howard Road"/><tag k="addr:housenumber" v="1901 1/2"/><tag k="addr:postcode" v="78725"/></node><node id="-66" lat="30.258555" lon="-97.684009" changeset="false"><tag k="addr:street" v="Lux Street"/><tag k="addr:housenumber" v="5933"/><tag k="addr:postcode" v="78721"/></node><node id="-67" lat="30.260581" lon="-97.66682" changeset="false"><tag k="addr:street" v="Bay City Bend"/><tag k="addr:housenumber" v="6913"/><tag k="addr:postcode" v="78725"/></node><node id="-68" lat="30.258694" lon="-97.684905" changeset="false"><tag k="addr:street" v="Ventus Street"/><tag k="addr:housenumber" v="5904"/><tag k="addr:postcode" v="78721"/></node><node id="-69" lat="30.258916" lon="-97.684777" changeset="false"><tag k="addr:street" v="Lux Street"/><tag k="addr:housenumber" v="5905"/><tag k="addr:postcode" v="78721"/></node><node id="-70" lat="30.260341" lon="-97.667122" changeset="false"><tag k="addr:street" v="Lane City Drive"/><tag k="addr:housenumber" v="2701"/><tag k="addr:postcode" v="78725"/></node><node id="-71" lat="30.256632" lon="-97.684098" changeset="false"><tag k="addr:street" v="Gardner Road"/><tag k="addr:housenumber" v="1016"/><tag k="addr:postcode" v="78721"/></node><node id="-72" lat="30.261317" lon="-97.666553" changeset="false"><tag k="addr:street" v="Bay City Bend"/><tag k="addr:housenumber" v="6816"/><tag k="addr:postcode" v="78725"/></node><node id="-73" lat="30.26132" lon="-97.66639" changeset="false"><tag k="addr:street" v="Bay City Bend"/><tag k="addr:housenumber" v="6820"/><tag k="addr:postcode" v="78725"/></node><node id="-74" lat="30.258341" lon="-97.685138" changeset="false"><tag k="addr:street" v="Ventus Street"/><tag k="addr:housenumber" v="5905"/><tag k="addr:postcode" v="78721"/></node><node id="-75" lat="30.260345" lon="-97.672932" changeset="false"><tag k="addr:street" v="Alleyton Drive"/><tag k="addr:housenumber" v="6413"/><tag k="addr:postcode" v="78725"/></node><node id="-76" lat="30.25998" lon="-97.672055" changeset="false"><tag k="addr:street" v="Alleyton Drive"/><tag k="addr:housenumber" v="6501"/><tag k="addr:postcode" v="78725"/></node><node id="-77" lat="30.259852" lon="-97.67177" changeset="false"><tag k="addr:street" v="Alleyton Drive"/><tag k="addr:housenumber" v="6509"/><tag k="addr:postcode" v="78725"/></node><node id="-78" lat="30.261026" lon="-97.671786" changeset="false"><tag k="addr:street" v="Winchell Lane"/><tag k="addr:housenumber" v="2516"/><tag k="addr:postcode" v="78725"/></node><node id="-79" lat="30.260079" lon="-97.669748" changeset="false"><tag k="addr:street" v="Hester Road"/><tag k="addr:housenumber" v="7108"/><tag k="addr:postcode" v="78725"/></node><node id="-80" lat="30.26126" lon="-97.686407" changeset="false"><tag k="addr:street" v="Stuart Circle"/><tag k="addr:housenumber" v="5522"/><tag k="addr:postcode" v="78721"/></node><node id="-81" lat="30.259331" lon="-97.671401" changeset="false"><tag k="addr:street" v="Alleyton Drive"/><tag k="addr:housenumber" v="6600"/><tag k="addr:postcode" v="78725"/></node><node id="-82" lat="30.258936" lon="-97.671311" changeset="false"><tag k="addr:street" v="Alleyton Drive"/><tag k="addr:housenumber" v="6612"/><tag k="addr:postcode" v="78725"/></node><node id="-83" lat="30.257935" lon="-97.670478" changeset="false"><tag k="addr:street" v="Alleyton Drive"/><tag k="addr:housenumber" v="6709"/><tag k="addr:postcode" v="78725"/></node><node id="-84" lat="30.256562" lon="-97.670797" changeset="false"><tag k="addr:street" v="Alleyton Drive"/><tag k="addr:housenumber" v="6826"/><tag k="addr:postcode" v="78725"/></node><node id="-85" lat="30.261375" lon="-97.672658" changeset="false"><tag k="addr:street" v="Alleyton Cove"/><tag k="addr:housenumber" v="2516"/><tag k="addr:postcode" v="78725"/></node><node id="-86" lat="30.260947" lon="-97.672195" changeset="false"><tag k="addr:street" v="Alleyton Cove"/><tag k="addr:housenumber" v="2513"/><tag k="addr:postcode" v="78725"/></node><node id="-87" lat="30.260834" lon="-97.671904" changeset="false"><tag k="addr:street" v="Winchell Lane"/><tag k="addr:housenumber" v="2512"/><tag k="addr:postcode" v="78725"/></node><node id="-88" lat="30.262984" lon="-97.688487" changeset="false"><tag k="addr:street" v="Jain Lane"/><tag k="addr:housenumber" v="5305"/><tag k="addr:postcode" v="78721"/></node><node id="-89" lat="30.263039" lon="-97.691501" changeset="false"><tag k="addr:street" v="Shady Lane"/><tag k="addr:housenumber" v="1142"/><tag k="addr:postcode" v="78721"/></node><node id="-90" lat="30.260014" lon="-97.681831" changeset="false"><tag k="addr:street" v="Gardner Road"/><tag k="addr:housenumber" v="1100"/><tag k="addr:postcode" v="78721"/></node><node id="-91" lat="30.262875" lon="-97.688245" changeset="false"><tag k="addr:street" v="Jain Lane"/><tag k="addr:housenumber" v="5309"/><tag k="addr:postcode" v="78721"/></node><node id="-92" lat="30.259594" lon="-97.691195" changeset="false"><tag k="addr:street" v="Bolm Road"/><tag k="addr:housenumber" v="5200"/><tag k="addr:postcode" v="78721"/></node><node id="-93" lat="30.263298" lon="-97.690037" changeset="false"><tag k="addr:street" v="Shady Lane"/><tag k="addr:housenumber" v="1149"/><tag k="addr:postcode" v="78721"/></node><node id="-94" lat="30.257508" lon="-97.68841" changeset="false"><tag k="addr:street" v="Bolm Road"/><tag k="addr:housenumber" v="5502"/><tag k="addr:postcode" v="78721"/></node><node id="-95" lat="30.262039" lon="-97.67082" changeset="false"><tag k="addr:street" v="Shelton Road"/><tag k="addr:housenumber" v="6815"/><tag k="addr:postcode" v="78725"/></node><node id="-96" lat="30.262568" lon="-97.691788" changeset="false"><tag k="addr:street" v="Shady Lane"/><tag k="addr:housenumber" v="1136"/><tag k="addr:postcode" v="78721"/></node><node id="-97" lat="30.259984" lon="-97.677333" changeset="false"><tag k="addr:street" v="Smith Road"/><tag k="addr:housenumber" v="1804"/><tag k="addr:postcode" v="78721"/></node><node id="-98" lat="30.26067" lon="-97.687374" changeset="false"><tag k="addr:street" v="Stuart Circle"/><tag k="addr:housenumber" v="5511"/><tag k="addr:postcode" v="78721"/></node><node id="-99" lat="30.261164" lon="-97.685715" changeset="false"><tag k="addr:street" v="Stuart Circle"/><tag k="addr:housenumber" v="5603"/><tag k="addr:postcode" v="78721"/></node><node id="-100" lat="30.260867" lon="-97.686252" changeset="false"><tag k="addr:street" v="Stuart Circle"/><tag k="addr:housenumber" v="5523"/><tag k="addr:postcode" v="78721"/></node><node id="-101" lat="30.258402" lon="-97.68528" changeset="false"><tag k="addr:street" v="Ventus Street"/><tag k="addr:housenumber" v="5901"/><tag k="addr:postcode" v="78721"/></node><node id="-102" lat="30.251708" lon="-97.680541" changeset="false"><tag k="addr:street" v="Ed Bluestein Boulevard"/><tag k="addr:housenumber" v="825"/><tag k="addr:postcode" v="78725"/></node><node id="-103" lat="30.258356" lon="-97.683653" changeset="false"><tag k="addr:street" v="Altum Street"/><tag k="addr:housenumber" v="1117"/><tag k="addr:postcode" v="78721"/></node><node id="-104" lat="30.261208" lon="-97.671035" changeset="false"><tag k="addr:street" v="Winchell Lane"/><tag k="addr:housenumber" v="2529"/><tag k="addr:postcode" v="78725"/></node><node id="-105" lat="30.256781" lon="-97.684001" changeset="false"><tag k="addr:street" v="Gardner Road"/><tag k="addr:housenumber" v="1018"/><tag k="addr:postcode" v="78721"/></node><node id="-106" lat="30.260419" lon="-97.666202" changeset="false"><tag k="addr:street" v="Bay City Bend"/><tag k="addr:housenumber" v="6916"/><tag k="addr:postcode" v="78725"/></node><node id="-107" lat="30.260478" lon="-97.672115" changeset="false"><tag k="addr:street" v="Winchell Lane"/><tag k="addr:housenumber" v="2500"/><tag k="addr:postcode" v="78725"/></node><node id="-108" lat="30.258728" lon="-97.68435" changeset="false"><tag k="addr:street" v="Lux Street"/><tag k="addr:housenumber" v="5921"/><tag k="addr:postcode" v="78721"/></node><node id="-109" lat="30.25758" lon="-97.682574" changeset="false"><tag k="addr:street" v="Mayhall Drive"/><tag k="addr:housenumber" v="6104"/><tag k="addr:postcode" v="78721"/></node><node id="-110" lat="30.258739" lon="-97.670656" changeset="false"><tag k="addr:street" v="Alleyton Drive"/><tag k="addr:housenumber" v="6621"/><tag k="addr:postcode" v="78725"/></node><node id="-111" lat="30.258474" lon="-97.670595" changeset="false"><tag k="addr:street" v="Alleyton Drive"/><tag k="addr:housenumber" v="6629"/><tag k="addr:postcode" v="78725"/></node><node id="-112" lat="30.257328" lon="-97.670871" changeset="false"><tag k="addr:street" v="Alleyton Drive"/><tag k="addr:housenumber" v="6800"/><tag k="addr:postcode" v="78725"/></node><node id="-113" lat="30.25671" lon="-97.670802" changeset="false"><tag k="addr:street" v="Alleyton Drive"/><tag k="addr:housenumber" v="6822"/><tag k="addr:postcode" v="78725"/></node><node id="-114" lat="30.257395" lon="-97.67035" changeset="false"><tag k="addr:street" v="Alleyton Drive"/><tag k="addr:housenumber" v="6801"/><tag k="addr:postcode" v="78725"/></node><node id="-115" lat="30.257261" lon="-97.670323" changeset="false"><tag k="addr:street" v="Alleyton Drive"/><tag k="addr:housenumber" v="6805"/><tag k="addr:postcode" v="78725"/></node><node id="-116" lat="30.256078" lon="-97.670641" changeset="false"><tag k="addr:street" v="Alleyton Drive"/><tag k="addr:housenumber" v="6913"/><tag k="addr:postcode" v="78725"/></node><node id="-117" lat="30.256126" lon="-97.670952" changeset="false"><tag k="addr:street" v="Alleyton Drive"/><tag k="addr:housenumber" v="6921"/><tag k="addr:postcode" v="78725"/></node><node id="-118" lat="30.261328" lon="-97.671617" changeset="false"><tag k="addr:street" v="Winchell Lane"/><tag k="addr:housenumber" v="2524"/><tag k="addr:postcode" v="78725"/></node><node id="-119" lat="30.260103" lon="-97.672346" changeset="false"><tag k="addr:street" v="Alleyton Drive"/><tag k="addr:housenumber" v="6429"/><tag k="addr:postcode" v="78725"/></node><node id="-120" lat="30.263326" lon="-97.685326" changeset="false"><tag k="addr:street" v="Mahan Drive"/><tag k="addr:housenumber" v="1119"/><tag k="addr:postcode" v="78721"/></node><node id="-121" lat="30.263149" lon="-97.690639" changeset="false"><tag k="addr:street" v="Shady Lane"/><tag k="addr:housenumber" v="1145"/><tag k="addr:postcode" v="78721"/></node><node id="-122" lat="30.253851" lon="-97.67997" changeset="false"><tag k="addr:street" v="Ed Bluestein Boulevard"/><tag k="addr:housenumber" v="1002 1/2"/><tag k="addr:postcode" v="78721"/></node><node id="-123" lat="30.249548" lon="-97.681293" changeset="false"><tag k="addr:street" v="Linger Lane"/><tag k="addr:housenumber" v="726"/><tag k="addr:postcode" v="78725"/></node><node id="-124" lat="30.259264" lon="-97.687313" changeset="false"><tag k="addr:street" v="Walton Lane"/><tag k="addr:housenumber" v="1123"/><tag k="addr:postcode" v="78721"/></node><node id="-125" lat="30.259263" lon="-97.677958" changeset="false"><tag k="addr:street" v="Smith Road"/><tag k="addr:housenumber" v="1700"/><tag k="addr:postcode" v="78721"/></node><node id="-126" lat="30.259903" lon="-97.675313" changeset="false"><tag k="addr:street" v="Ed Bluestein Boulevard"/><tag k="addr:housenumber" v="2020"/><tag k="addr:postcode" v="78721"/></node><node id="-127" lat="30.256386" lon="-97.685831" changeset="false"><tag k="addr:street" v="Bolm Road"/><tag k="addr:housenumber" v="5916"/><tag k="addr:postcode" v="78721"/></node><node id="-128" lat="30.261244" lon="-97.685575" changeset="false"><tag k="addr:street" v="Stuart Circle"/><tag k="addr:housenumber" v="5605"/><tag k="addr:postcode" v="78721"/></node><node id="-129" lat="30.262555" lon="-97.677157" changeset="false"><tag k="addr:street" v="Thurgood Avenue"/><tag k="addr:housenumber" v="6224"/><tag k="addr:postcode" v="78721"/></node><node id="-130" lat="30.251563" lon="-97.680866" changeset="false"><tag k="addr:street" v="Ed Bluestein Boulevard"/><tag k="addr:housenumber" v="821"/><tag k="addr:postcode" v="78725"/></node><node id="-131" lat="30.253086" lon="-97.676675" changeset="false"><tag k="addr:street" v="Ed Bluestein Boulevard"/><tag k="addr:housenumber" v="1003"/><tag k="addr:postcode" v="78725"/></node><node id="-132" lat="30.258067" lon="-97.683822" changeset="false"><tag k="addr:street" v="Altum Street"/><tag k="addr:housenumber" v="1105"/><tag k="addr:postcode" v="78721"/></node><node id="-133" lat="30.261487" lon="-97.667828" changeset="false"><tag k="addr:street" v="Bay City Bend"/><tag k="addr:housenumber" v="6712"/><tag k="addr:postcode" v="78725"/></node><node id="-134" lat="30.261419" lon="-97.667347" changeset="false"><tag k="addr:street" v="Bay City Bend"/><tag k="addr:housenumber" v="6724"/><tag k="addr:postcode" v="78725"/></node><node id="-135" lat="30.261088" lon="-97.667668" changeset="false"><tag k="addr:street" v="Lane City Drive"/><tag k="addr:housenumber" v="2724"/><tag k="addr:postcode" v="78725"/></node><node id="-136" lat="30.258756" lon="-97.685042" changeset="false"><tag k="addr:street" v="Ventus Street"/><tag k="addr:housenumber" v="5900"/><tag k="addr:postcode" v="78721"/></node><node id="-137" lat="30.258452" lon="-97.684359" changeset="false"><tag k="addr:street" v="Ventus Street"/><tag k="addr:housenumber" v="5924"/><tag k="addr:postcode" v="78721"/></node><node id="-138" lat="30.259838" lon="-97.667406" changeset="false"><tag k="addr:street" v="Bay City Bend"/><tag k="addr:housenumber" v="7104"/><tag k="addr:postcode" v="78725"/></node><node id="-139" lat="30.260413" lon="-97.673068" changeset="false"><tag k="addr:street" v="Alleyton Drive"/><tag k="addr:housenumber" v="6409"/><tag k="addr:postcode" v="78725"/></node><node id="-140" lat="30.26066" lon="-97.667214" changeset="false"><tag k="addr:street" v="Lane City Drive"/><tag k="addr:housenumber" v="2713"/><tag k="addr:postcode" v="78725"/></node><node id="-141" lat="30.258805" lon="-97.67125" changeset="false"><tag k="addr:street" v="Alleyton Drive"/><tag k="addr:housenumber" v="6616"/><tag k="addr:postcode" v="78725"/></node><node id="-142" lat="30.261444" lon="-97.686502" changeset="false"><tag k="addr:street" v="Stuart Court"/><tag k="addr:housenumber" v="5503"/><tag k="addr:postcode" v="78721"/></node><node id="-143" lat="30.261363" lon="-97.687367" changeset="false"><tag k="addr:street" v="Stuart Circle"/><tag k="addr:housenumber" v="5503"/><tag k="addr:postcode" v="78721"/></node><node id="-144" lat="30.261106" lon="-97.68584" changeset="false"><tag k="addr:street" v="Stuart Circle"/><tag k="addr:housenumber" v="5601"/><tag k="addr:postcode" v="78721"/></node><node id="-145" lat="30.259007" lon="-97.672251" changeset="false"><tag k="addr:street" v="Hester Road"/><tag k="addr:housenumber" v="6900"/><tag k="addr:postcode" v="78725"/></node><node id="-146" lat="30.258706" lon="-97.687743" changeset="false"><tag k="addr:street" v="Walton Lane"/><tag k="addr:housenumber" v="1117"/><tag k="addr:postcode" v="78721"/></node><node id="-147" lat="30.258391" lon="-97.685216" changeset="false"><tag k="addr:street" v="Perry Road"/><tag k="addr:housenumber" v="1127"/><tag k="addr:postcode" v="78721"/></node><node id="-148" lat="30.261605" lon="-97.671569" changeset="false"><tag k="addr:street" v="Winchell Lane"/><tag k="addr:housenumber" v="2532"/><tag k="addr:postcode" v="78725"/></node><node id="-149" lat="30.258669" lon="-97.67117" changeset="false"><tag k="addr:street" v="Alleyton Drive"/><tag k="addr:housenumber" v="6620"/><tag k="addr:postcode" v="78725"/></node><node id="-150" lat="30.258336" lon="-97.67057" changeset="false"><tag k="addr:street" v="Alleyton Drive"/><tag k="addr:housenumber" v="6633"/><tag k="addr:postcode" v="78725"/></node><node id="-151" lat="30.258071" lon="-97.670509" changeset="false"><tag k="addr:street" v="Alleyton Drive"/><tag k="addr:housenumber" v="6705"/><tag k="addr:postcode" v="78725"/></node><node id="-152" lat="30.257664" lon="-97.670415" changeset="false"><tag k="addr:street" v="Alleyton Drive"/><tag k="addr:housenumber" v="6717"/><tag k="addr:postcode" v="78725"/></node><node id="-153" lat="30.256845" lon="-97.670781" changeset="false"><tag k="addr:street" v="Alleyton Drive"/><tag k="addr:housenumber" v="6818"/><tag k="addr:postcode" v="78725"/></node><node id="-154" lat="30.25624" lon="-97.670239" changeset="false"><tag k="addr:street" v="Alleyton Drive"/><tag k="addr:housenumber" v="6905"/><tag k="addr:postcode" v="78725"/></node><node id="-155" lat="30.25841" lon="-97.684247" changeset="false"><tag k="addr:street" v="Ventus Street"/><tag k="addr:housenumber" v="5928"/><tag k="addr:postcode" v="78721"/></node><node id="-156" lat="30.258266" lon="-97.683705" changeset="false"><tag k="addr:street" v="Altum Street"/><tag k="addr:housenumber" v="1113"/><tag k="addr:postcode" v="78721"/></node><node id="-157" lat="30.263176" lon="-97.690175" changeset="false"><tag k="addr:street" v="Shady Lane"/><tag k="addr:housenumber" v="1147"/><tag k="addr:postcode" v="78721"/></node><node id="-158" lat="30.258582" lon="-97.684639" changeset="false"><tag k="addr:street" v="Ventus Street"/><tag k="addr:housenumber" v="5912"/><tag k="addr:postcode" v="78721"/></node><node id="-159" lat="30.261107" lon="-97.672793" changeset="false"><tag k="addr:street" v="Alleyton Cove"/><tag k="addr:housenumber" v="2508"/><tag k="addr:postcode" v="78725"/></node><node id="-160" lat="30.26071" lon="-97.671965" changeset="false"><tag k="addr:street" v="Winchell Lane"/><tag k="addr:housenumber" v="2508"/><tag k="addr:postcode" v="78725"/></node><node id="-161" lat="30.262043" lon="-97.671485" changeset="false"><tag k="addr:street" v="Winchell Lane"/><tag k="addr:housenumber" v="2608"/><tag k="addr:postcode" v="78725"/></node><node id="-162" lat="30.25979" lon="-97.667565" changeset="false"><tag k="addr:street" v="Bay City Bend"/><tag k="addr:housenumber" v="7108"/><tag k="addr:postcode" v="78725"/></node><node id="-163" lat="30.259841" lon="-97.670807" changeset="false"><tag k="addr:street" v="Hester Road"/><tag k="addr:housenumber" v="7004"/><tag k="addr:postcode" v="78725"/></node><node id="-164" lat="30.260013" lon="-97.670045" changeset="false"><tag k="addr:street" v="Hester Road"/><tag k="addr:housenumber" v="7100"/><tag k="addr:postcode" v="78725"/></node><node id="-165" lat="30.25938" lon="-97.669205" changeset="false"><tag k="addr:street" v="Bay City Bend"/><tag k="addr:housenumber" v="7228"/><tag k="addr:postcode" v="78725"/></node><node id="-166" lat="30.2615" lon="-97.667992" changeset="false"><tag k="addr:street" v="Bay City Bend"/><tag k="addr:housenumber" v="6708"/><tag k="addr:postcode" v="78725"/></node><node id="-167" lat="30.260589" lon="-97.672055" changeset="false"><tag k="addr:street" v="Winchell Lane"/><tag k="addr:housenumber" v="2504"/><tag k="addr:postcode" v="78725"/></node><node id="-168" lat="30.261455" lon="-97.671593" changeset="false"><tag k="addr:street" v="Winchell Lane"/><tag k="addr:housenumber" v="2528"/><tag k="addr:postcode" v="78725"/></node><node id="-169" lat="30.259782" lon="-97.671001" changeset="false"><tag k="addr:street" v="Hester Road"/><tag k="addr:housenumber" v="7000"/><tag k="addr:postcode" v="78725"/></node><node id="-170" lat="30.259884" lon="-97.670603" changeset="false"><tag k="addr:street" v="Hester Road"/><tag k="addr:housenumber" v="7008"/><tag k="addr:postcode" v="78725"/></node><node id="-171" lat="30.259353" lon="-97.668735" changeset="false"><tag k="addr:street" v="Bay City Bend"/><tag k="addr:housenumber" v="7216"/><tag k="addr:postcode" v="78725"/></node><node id="-172" lat="30.259268" lon="-97.668878" changeset="false"><tag k="addr:street" v="Bay City Bend"/><tag k="addr:housenumber" v="7220"/><tag k="addr:postcode" v="78725"/></node><node id="-173" lat="30.260497" lon="-97.667752" changeset="false"><tag k="addr:street" v="Lane City Drive"/><tag k="addr:housenumber" v="2708"/><tag k="addr:postcode" v="78725"/></node><node id="-174" lat="30.260935" lon="-97.667679" changeset="false"><tag k="addr:street" v="Lane City Drive"/><tag k="addr:housenumber" v="2720"/><tag k="addr:postcode" v="78725"/></node><node id="-175" lat="30.261751" lon="-97.69397" changeset="false"><tag k="addr:street" v="Airport Boulevard"/><tag k="addr:housenumber" v="1105 1/2"/><tag k="addr:postcode" v="78721"/></node><node id="-176" lat="30.256919" lon="-97.683907" changeset="false"><tag k="addr:street" v="Gardner Road"/><tag k="addr:housenumber" v="1020"/><tag k="addr:postcode" v="78721"/></node><node id="-177" lat="30.261526" lon="-97.668303" changeset="false"><tag k="addr:street" v="Bay City Bend"/><tag k="addr:housenumber" v="6700"/><tag k="addr:postcode" v="78725"/></node><node id="-178" lat="30.261511" lon="-97.668146" changeset="false"><tag k="addr:street" v="Bay City Bend"/><tag k="addr:housenumber" v="6704"/><tag k="addr:postcode" v="78725"/></node><node id="-179" lat="30.260999" lon="-97.66619" changeset="false"><tag k="addr:street" v="Bay City Bend"/><tag k="addr:housenumber" v="6900"/><tag k="addr:postcode" v="78725"/></node><node id="-180" lat="30.259284" lon="-97.670777" changeset="false"><tag k="addr:street" v="Alleyton Drive"/><tag k="addr:housenumber" v="6605"/><tag k="addr:postcode" v="78725"/></node><node id="-181" lat="30.257167" lon="-97.670836" changeset="false"><tag k="addr:street" v="Alleyton Drive"/><tag k="addr:housenumber" v="6804"/><tag k="addr:postcode" v="78725"/></node><node id="-182" lat="30.257125" lon="-97.670293" changeset="false"><tag k="addr:street" v="Alleyton Drive"/><tag k="addr:housenumber" v="6809"/><tag k="addr:postcode" v="78725"/></node><node id="-183" lat="30.25699" lon="-97.670231" changeset="false"><tag k="addr:street" v="Alleyton Drive"/><tag k="addr:housenumber" v="6813"/><tag k="addr:postcode" v="78725"/></node><node id="-184" lat="30.256542" lon="-97.670193" changeset="false"><tag k="addr:street" v="Alleyton Drive"/><tag k="addr:housenumber" v="6825"/><tag k="addr:postcode" v="78725"/></node><node id="-185" lat="30.256085" lon="-97.67045" changeset="false"><tag k="addr:street" v="Alleyton Drive"/><tag k="addr:housenumber" v="6909"/><tag k="addr:postcode" v="78725"/></node><node id="-186" lat="30.261396" lon="-97.667203" changeset="false"><tag k="addr:street" v="Bay City Bend"/><tag k="addr:housenumber" v="6800"/><tag k="addr:postcode" v="78725"/></node><node id="-187" lat="30.26133" lon="-97.666713" changeset="false"><tag k="addr:street" v="Bay City Bend"/><tag k="addr:housenumber" v="6812"/><tag k="addr:postcode" v="78725"/></node><node id="-188" lat="30.250216" lon="-97.681893" changeset="false"><tag k="addr:street" v="Linger Lane"/><tag k="addr:housenumber" v="800"/><tag k="addr:postcode" v="78725"/></node><node id="-189" lat="30.260167" lon="-97.672511" changeset="false"><tag k="addr:street" v="Alleyton Drive"/><tag k="addr:housenumber" v="6425"/><tag k="addr:postcode" v="78725"/></node><node id="-190" lat="30.261393" lon="-97.670946" changeset="false"><tag k="addr:street" v="Winchell Lane"/><tag k="addr:housenumber" v="2531"/><tag k="addr:postcode" v="78725"/></node><node id="-191" lat="30.259435" lon="-97.670797" changeset="false"><tag k="addr:street" v="Alleyton Drive"/><tag k="addr:housenumber" v="6601"/><tag k="addr:postcode" v="78725"/></node><node id="-192" lat="30.259151" lon="-97.670748" changeset="false"><tag k="addr:street" v="Alleyton Drive"/><tag k="addr:housenumber" v="6609"/><tag k="addr:postcode" v="78725"/></node><node id="-193" lat="30.258881" lon="-97.670685" changeset="false"><tag k="addr:street" v="Alleyton Drive"/><tag k="addr:housenumber" v="6617"/><tag k="addr:postcode" v="78725"/></node><node id="-194" lat="30.257534" lon="-97.670386" changeset="false"><tag k="addr:street" v="Alleyton Drive"/><tag k="addr:housenumber" v="6721"/><tag k="addr:postcode" v="78725"/></node><node id="-195" lat="30.260478" lon="-97.673224" changeset="false"><tag k="addr:street" v="Alleyton Drive"/><tag k="addr:housenumber" v="6405"/><tag k="addr:postcode" v="78725"/></node><node id="-196" lat="30.260697" lon="-97.666285" changeset="false"><tag k="addr:street" v="Bay City Bend"/><tag k="addr:housenumber" v="6908"/><tag k="addr:postcode" v="78725"/></node><node id="-197" lat="30.259915" lon="-97.671916" changeset="false"><tag k="addr:street" v="Alleyton Drive"/><tag k="addr:housenumber" v="6505"/><tag k="addr:postcode" v="78725"/></node><node id="-198" lat="30.261182" lon="-97.671667" changeset="false"><tag k="addr:street" v="Winchell Lane"/><tag k="addr:housenumber" v="2520"/><tag k="addr:postcode" v="78725"/></node><node id="-199" lat="30.25957" lon="-97.668142" changeset="false"><tag k="addr:street" v="Bay City Bend"/><tag k="addr:housenumber" v="7200"/><tag k="addr:postcode" v="78725"/></node><node id="-200" lat="30.259503" lon="-97.668293" changeset="false"><tag k="addr:street" v="Bay City Bend"/><tag k="addr:housenumber" v="7204"/><tag k="addr:postcode" v="78725"/></node><node id="-201" lat="30.261976" lon="-97.672211" changeset="false"><tag k="addr:street" v="Shelton Road"/><tag k="addr:housenumber" v="6611"/><tag k="addr:postcode" v="78725"/></node><node id="-202" lat="30.26185" lon="-97.686022" changeset="false"><tag k="addr:street" v="Jain Lane"/><tag k="addr:housenumber" v="5507"/><tag k="addr:postcode" v="78721"/></node><node id="-203" lat="30.26089" lon="-97.663952" changeset="false"><tag k="addr:street" v="Shelton Road"/><tag k="addr:housenumber" v="7501"/><tag k="addr:postcode" v="78725"/></node><node id="-204" lat="30.255398" lon="-97.6774" changeset="false"><tag k="addr:street" v="Ed Bluestein Boulevard"/><tag k="addr:housenumber" v="1301"/><tag k="addr:postcode" v="78725"/></node><node id="-205" lat="30.255315" lon="-97.683155" changeset="false"><tag k="addr:street" v="Bolm Road"/><tag k="addr:housenumber" v="6300"/><tag k="addr:postcode" v="78721"/></node><node id="-206" lat="30.254673" lon="-97.681464" changeset="false"><tag k="addr:street" v="Smith Road"/><tag k="addr:housenumber" v="1006"/><tag k="addr:postcode" v="78721"/></node><node id="-207" lat="30.263341" lon="-97.685539" changeset="false"><tag k="addr:street" v="Mahan Drive"/><tag k="addr:housenumber" v="1121"/><tag k="addr:postcode" v="78721"/></node><node id="-208" lat="30.261853" lon="-97.66233" changeset="false"><tag k="addr:street" v="Shelton Road"/><tag k="addr:housenumber" v="7703"/><tag k="addr:postcode" v="78725"/></node><node id="-209" lat="30.257494" lon="-97.678906" changeset="false"><tag k="addr:street" v="Smith Road"/><tag k="addr:housenumber" v="1406"/><tag k="addr:postcode" v="78721"/></node><node id="-210" lat="30.260899" lon="-97.692342" changeset="false"><tag k="addr:street" v="Shady Lane"/><tag k="addr:housenumber" v="1111"/><tag k="addr:postcode" v="78721"/></node><node id="-211" lat="30.256508" lon="-97.685987" changeset="false"><tag k="addr:street" v="Bolm Road"/><tag k="addr:housenumber" v="5912"/><tag k="addr:postcode" v="78721"/></node><node id="-212" lat="30.261608" lon="-97.665405" changeset="false"><tag k="addr:street" v="Shelton Road"/><tag k="addr:housenumber" v="7206"/><tag k="addr:postcode" v="78725"/></node><node id="-213" lat="30.26078" lon="-97.686416" changeset="false"><tag k="addr:street" v="Stuart Circle"/><tag k="addr:housenumber" v="5521"/><tag k="addr:postcode" v="78721"/></node><node id="-214" lat="30.261992" lon="-97.686116" changeset="false"><tag k="addr:street" v="Jain Lane"/><tag k="addr:housenumber" v="5505"/><tag k="addr:postcode" v="78721"/></node><node id="-215" lat="30.259116" lon="-97.67218" changeset="false"><tag k="addr:street" v="Hester Road"/><tag k="addr:housenumber" v="6918"/><tag k="addr:postcode" v="78725"/></node><node id="-216" lat="30.263175" lon="-97.685189" changeset="false"><tag k="addr:street" v="Mahan Drive"/><tag k="addr:housenumber" v="1117"/><tag k="addr:postcode" v="78721"/></node><node id="-217" lat="30.249134" lon="-97.681446" changeset="false"><tag k="addr:street" v="Linger Lane"/><tag k="addr:housenumber" v="713"/><tag k="addr:postcode" v="78725"/></node><node id="-218" lat="30.262216" lon="-97.685761" changeset="false"><tag k="addr:street" v="Jain Lane"/><tag k="addr:housenumber" v="5504"/><tag k="addr:postcode" v="78721"/></node><node id="-219" lat="30.260739" lon="-97.686578" changeset="false"><tag k="addr:street" v="Stuart Circle"/><tag k="addr:housenumber" v="5519"/><tag k="addr:postcode" v="78721"/></node><node id="-220" lat="30.262086" lon="-97.672299" changeset="false"><tag k="addr:street" v="Shelton Road"/><tag k="addr:housenumber" v="6611 1/2"/><tag k="addr:postcode" v="78725"/></node><node id="-221" lat="30.258324" lon="-97.68857" changeset="false"><tag k="addr:street" v="Walton Lane"/><tag k="addr:housenumber" v="1108"/><tag k="addr:postcode" v="78721"/></node><node id="-222" lat="30.263121" lon="-97.685799" changeset="false"><tag k="addr:street" v="Mahan Drive"/><tag k="addr:housenumber" v="1120"/><tag k="addr:postcode" v="78721"/></node><node id="-223" lat="30.261095" lon="-97.692221" changeset="false"><tag k="addr:street" v="Shady Lane"/><tag k="addr:housenumber" v="1115"/><tag k="addr:postcode" v="78721"/></node><node id="-224" lat="30.261622" lon="-97.664066" changeset="false"><tag k="addr:street" v="Shelton Road"/><tag k="addr:housenumber" v="7506"/><tag k="addr:postcode" v="78725"/></node><node id="-225" lat="30.262114" lon="-97.671284" changeset="false"><tag k="addr:street" v="Shelton Road"/><tag k="addr:housenumber" v="6813"/><tag k="addr:postcode" v="78725"/></node><node id="-226" lat="30.260678" lon="-97.687106" changeset="false"><tag k="addr:street" v="Stuart Circle"/><tag k="addr:housenumber" v="5513"/><tag k="addr:postcode" v="78721"/></node><node id="-227" lat="30.260316" lon="-97.683937" changeset="false"><tag k="addr:street" v="Perry Road"/><tag k="addr:housenumber" v="1153"/><tag k="addr:postcode" v="78721"/></node><node id="-228" lat="30.260779" lon="-97.692881" changeset="false"><tag k="addr:street" v="Shady Lane"/><tag k="addr:housenumber" v="1112"/><tag k="addr:postcode" v="78721"/></node><node id="-229" lat="30.260644" lon="-97.68692" changeset="false"><tag k="addr:street" v="Stuart Circle"/><tag k="addr:housenumber" v="5515"/><tag k="addr:postcode" v="78721"/></node><node id="-230" lat="30.259064" lon="-97.687625" changeset="false"><tag k="addr:street" v="Walton Lane"/><tag k="addr:housenumber" v="1121"/><tag k="addr:postcode" v="78721"/></node><node id="-231" lat="30.259622" lon="-97.667993" changeset="false"><tag k="addr:street" v="Bay City Bend"/><tag k="addr:housenumber" v="7120"/><tag k="addr:postcode" v="78725"/></node><node id="-232" lat="30.262876" lon="-97.685116" changeset="false"><tag k="addr:street" v="Mahan Drive"/><tag k="addr:housenumber" v="1113"/><tag k="addr:postcode" v="78721"/></node><node id="-233" lat="30.26118" lon="-97.683938" changeset="false"><tag k="addr:street" v="Jain Lane"/><tag k="addr:housenumber" v="5812"/><tag k="addr:postcode" v="78721"/></node><node id="-234" lat="30.258451" lon="-97.68358" changeset="false"><tag k="addr:street" v="Altum Street"/><tag k="addr:housenumber" v="1121"/><tag k="addr:postcode" v="78721"/></node><node id="-235" lat="30.258681" lon="-97.683412" changeset="false"><tag k="addr:street" v="Altum Street"/><tag k="addr:housenumber" v="1129"/><tag k="addr:postcode" v="78721"/></node><node id="-236" lat="30.260589" lon="-97.683687" changeset="false"><tag k="addr:street" v="Jain Lane"/><tag k="addr:housenumber" v="5903"/><tag k="addr:postcode" v="78721"/></node><node id="-237" lat="30.260573" lon="-97.683658" changeset="false"><tag k="addr:street" v="Jain Lane"/><tag k="addr:housenumber" v="5903 1/2"/><tag k="addr:postcode" v="78721"/></node><node id="-238" lat="30.25982" lon="-97.684823" changeset="false"><tag k="addr:street" v="Perry Road"/><tag k="addr:housenumber" v="1144"/><tag k="addr:postcode" v="78721"/></node><node id="-239" lat="30.259824" lon="-97.684904" changeset="false"><tag k="addr:street" v="Emmitt Run"/><tag k="addr:housenumber" v="1143"/><tag k="addr:postcode" v="78721"/></node></osm>