<?xml version="1.0" encoding="UTF-8"?><osm version="0.6" generator="github.com/aaronlidman/osm-and-geojson"><node id="-1" lat="30.342466" lon="-97.716495" changeset="false"><tag k="addr:street" v="North Lamar Boulevard"/><tag k="addr:housenumber" v="7436"/><tag k="coa:place_id" v="888008"/></node><node id="-2" lat="30.345269" lon="-97.715127" changeset="false"><tag k="addr:street" v="Taulbee Lane"/><tag k="addr:housenumber" v="815"/><tag k="coa:place_id" v="889580"/></node><node id="-3" lat="30.349358" lon="-97.717372" changeset="false"><tag k="addr:street" v="West Anderson Lane"/><tag k="addr:housenumber" v="1113"/><tag k="coa:place_id" v="890432"/></node><node id="-4" lat="30.342085" lon="-97.719954" changeset="false"><tag k="addr:street" v="Sugaree Avenue"/><tag k="addr:housenumber" v="1036"/><tag k="coa:place_id" v="3773826"/></node><node id="-5" lat="30.342049" lon="-97.720191" changeset="false"><tag k="addr:street" v="Sugaree Avenue"/><tag k="addr:housenumber" v="1048"/><tag k="coa:place_id" v="3773829"/></node><node id="-6" lat="30.342531" lon="-97.719398" changeset="false"><tag k="addr:street" v="Wolverine Street"/><tag k="addr:housenumber" v="7401"/><tag k="coa:place_id" v="3773843"/></node><node id="-7" lat="30.3424" lon="-97.719131" changeset="false"><tag k="addr:street" v="Easy Wind Drive"/><tag k="addr:housenumber" v="7412"/><tag k="coa:place_id" v="3773861"/></node><node id="-8" lat="30.343077" lon="-97.717808" changeset="false"><tag k="addr:street" v="Banyon Street"/><tag k="addr:housenumber" v="907"/><tag k="coa:place_id" v="5068072"/></node><node id="-9" lat="30.343445" lon="-97.717679" changeset="false"><tag k="addr:street" v="Banyon Street"/><tag k="addr:housenumber" v="908"/><tag k="coa:place_id" v="5068081"/></node><node id="-10" lat="30.343611" lon="-97.717238" changeset="false"><tag k="addr:street" v="Cannoneer Lane"/><tag k="addr:housenumber" v="903"/><tag k="coa:place_id" v="5068083"/></node><node id="-11" lat="30.344057" lon="-97.717217" changeset="false"><tag k="addr:street" v="Cannoneer Lane"/><tag k="addr:housenumber" v="908"/><tag k="coa:place_id" v="5068094"/></node><node id="-12" lat="30.344105" lon="-97.717312" changeset="false"><tag k="addr:street" v="Cannoneer Lane"/><tag k="addr:housenumber" v="910"/><tag k="coa:place_id" v="5068095"/></node><node id="-13" lat="30.344279" lon="-97.71699" changeset="false"><tag k="addr:street" v="Mountaineer Lane"/><tag k="addr:housenumber" v="907"/><tag k="coa:place_id" v="5068103"/></node><node id="-14" lat="30.343132" lon="-97.716657" changeset="false"><tag k="addr:street" v="Sugar Magnolia Street"/><tag k="addr:housenumber" v="7507"/><tag k="coa:place_id" v="5068115"/></node><node id="-15" lat="30.343355" lon="-97.716567" changeset="false"><tag k="addr:street" v="Sugar Magnolia Street"/><tag k="addr:housenumber" v="7515"/><tag k="coa:place_id" v="5068118"/></node><node id="-16" lat="30.348569" lon="-97.71778" changeset="false"><tag k="addr:street" v="Stobaugh Street"/><tag k="addr:housenumber" v="1110"/><tag k="coa:place_id" v="3279810"/></node><node id="-17" lat="30.342228" lon="-97.718597" changeset="false"><tag k="addr:street" v="Sugaree Avenue"/><tag k="addr:housenumber" v="920"/><tag k="coa:place_id" v="3773868"/></node><node id="-18" lat="30.342055" lon="-97.718204" changeset="false"><tag k="addr:street" v="Sugaree Avenue"/><tag k="addr:housenumber" v="904"/><tag k="coa:place_id" v="3773892"/></node><node id="-19" lat="30.342141" lon="-97.718395" changeset="false"><tag k="addr:street" v="Sugaree Avenue"/><tag k="addr:housenumber" v="912"/><tag k="coa:place_id" v="3773894"/></node><node id="-20" lat="30.343559" lon="-97.718779" changeset="false"><tag k="addr:street" v="Banyon Street"/><tag k="addr:housenumber" v="1013"/><tag k="coa:place_id" v="3773935"/></node><node id="-21" lat="30.341113" lon="-97.718011" changeset="false"><tag k="addr:street" v="North Lamar Boulevard"/><tag k="addr:housenumber" v="7300"/><tag k="coa:place_id" v="5216514"/></node><node id="-22" lat="30.342927" lon="-97.720027" changeset="false"><tag k="addr:street" v="Pantherpaw Street"/><tag k="addr:housenumber" v="7409"/><tag k="coa:place_id" v="5116747"/></node><node id="-23" lat="30.342952" lon="-97.719951" changeset="false"><tag k="addr:street" v="Pantherpaw Street"/><tag k="addr:housenumber" v="7411"/><tag k="coa:place_id" v="5116748"/></node><node id="-24" lat="30.341848" lon="-97.720509" changeset="false"><tag k="addr:street" v="Wildcat Pass"/><tag k="addr:housenumber" v="7300"/><tag k="coa:place_id" v="5116759"/></node><node id="-25" lat="30.34328" lon="-97.720832" changeset="false"><tag k="addr:street" v="Wildcat Pass"/><tag k="addr:housenumber" v="7500"/><tag k="coa:place_id" v="5116844"/></node><node id="-26" lat="30.344364" lon="-97.721056" changeset="false"><tag k="addr:street" v="Wildcat Pass"/><tag k="addr:housenumber" v="7612"/><tag k="coa:place_id" v="5116859"/></node><node id="-27" lat="30.343903" lon="-97.72017" changeset="false"><tag k="addr:street" v="Wildcat Pass"/><tag k="addr:housenumber" v="7517"/><tag k="coa:place_id" v="5116866"/></node><node id="-28" lat="30.344226" lon="-97.7204" changeset="false"><tag k="addr:street" v="Wildcat Pass"/><tag k="addr:housenumber" v="7605"/><tag k="coa:place_id" v="5116869"/></node><node id="-29" lat="30.344801" lon="-97.720023" changeset="false"><tag k="addr:street" v="Wildcat Pass"/><tag k="addr:housenumber" v="7804"/><tag k="coa:place_id" v="5116872"/></node><node id="-30" lat="30.344403" lon="-97.720022" changeset="false"><tag k="addr:street" v="Wildcat Pass"/><tag k="addr:housenumber" v="7809"/><tag k="coa:place_id" v="5116886"/></node><node id="-31" lat="30.34448" lon="-97.71656" changeset="false"><tag k="addr:street" v="Morrow Street"/><tag k="addr:housenumber" v="903"/><tag k="coa:place_id" v="5091299"/></node><node id="-32" lat="30.344766" lon="-97.717138" changeset="false"><tag k="addr:street" v="Morrow Street"/><tag k="addr:housenumber" v="915"/><tag k="coa:place_id" v="5091305"/></node><node id="-33" lat="30.344273" lon="-97.717971" changeset="false"><tag k="addr:street" v="Easy Wind Drive"/><tag k="addr:housenumber" v="7700"/><tag k="coa:place_id" v="5091324"/></node><node id="-34" lat="30.344395" lon="-97.717904" changeset="false"><tag k="addr:street" v="Easy Wind Drive"/><tag k="addr:housenumber" v="7704"/><tag k="coa:place_id" v="5091326"/></node><node id="-35" lat="30.34413" lon="-97.718395" changeset="false"><tag k="addr:street" v="Wolverine Street"/><tag k="addr:housenumber" v="7611"/><tag k="coa:place_id" v="5091343"/></node><node id="-36" lat="30.344255" lon="-97.718317" changeset="false"><tag k="addr:street" v="Wolverine Street"/><tag k="addr:housenumber" v="7615"/><tag k="coa:place_id" v="5091345"/></node><node id="-37" lat="30.344398" lon="-97.718228" changeset="false"><tag k="addr:street" v="Wolverine Street"/><tag k="addr:housenumber" v="7701"/><tag k="coa:place_id" v="5091347"/></node><node id="-38" lat="30.344581" lon="-97.718117" changeset="false"><tag k="addr:street" v="Wolverine Street"/><tag k="addr:housenumber" v="7707"/><tag k="coa:place_id" v="5091350"/></node><node id="-39" lat="30.343888" lon="-97.71857" changeset="false"><tag k="addr:street" v="Banyon Street"/><tag k="addr:housenumber" v="1012"/><tag k="coa:place_id" v="5091358"/></node><node id="-40" lat="30.344302" lon="-97.718884" changeset="false"><tag k="addr:street" v="Wildcat Pass"/><tag k="addr:housenumber" v="8006"/><tag k="coa:place_id" v="5091361"/></node><node id="-41" lat="30.343761" lon="-97.719213" changeset="false"><tag k="addr:street" v="Wildcat Pass"/><tag k="addr:housenumber" v="8005"/><tag k="coa:place_id" v="5091369"/></node><node id="-42" lat="30.34535" lon="-97.714616" changeset="false"><tag k="addr:street" v="Taulbee Lane"/><tag k="addr:housenumber" v="806"/><tag k="coa:place_id" v="676222"/></node><node id="-43" lat="30.350341" lon="-97.722111" changeset="false"><tag k="addr:street" v="Northwest Drive"/><tag k="addr:housenumber" v="7716"/><tag k="coa:place_id" v="325474"/></node><node id="-44" lat="30.342495" lon="-97.716049" changeset="false"><tag k="addr:street" v="North Lamar Boulevard"/><tag k="addr:housenumber" v="7500"/><tag k="coa:place_id" v="888170"/></node><node id="-45" lat="30.343498" lon="-97.71553" changeset="false"><tag k="addr:street" v="North Lamar Boulevard"/><tag k="addr:housenumber" v="7520"/><tag k="coa:place_id" v="888332"/></node><node id="-46" lat="30.347417" lon="-97.721288" changeset="false"><tag k="addr:street" v="Tisdale Drive"/><tag k="addr:housenumber" v="7603"/><tag k="coa:place_id" v="890576"/></node><node id="-47" lat="30.348665" lon="-97.718997" changeset="false"><tag k="addr:street" v="Stobaugh Street"/><tag k="addr:housenumber" v="1211"/><tag k="coa:place_id" v="890132"/></node><node id="-48" lat="30.342917" lon="-97.71877" changeset="false"><tag k="addr:street" v="Easy Wind Drive"/><tag k="addr:housenumber" v="7500"/><tag k="coa:place_id" v="3773870"/></node><node id="-49" lat="30.342663" lon="-97.718961" changeset="false"><tag k="addr:street" v="Easy Wind Drive"/><tag k="addr:housenumber" v="7428"/><tag k="coa:place_id" v="3773871"/></node><node id="-50" lat="30.342847" lon="-97.718843" changeset="false"><tag k="addr:street" v="Easy Wind Drive"/><tag k="addr:housenumber" v="7440"/><tag k="coa:place_id" v="3773879"/></node><node id="-51" lat="30.342099" lon="-97.718298" changeset="false"><tag k="addr:street" v="Sugaree Avenue"/><tag k="addr:housenumber" v="908"/><tag k="coa:place_id" v="3773893"/></node><node id="-52" lat="30.342311" lon="-97.717908" changeset="false"><tag k="addr:street" v="Cavalier Lane"/><tag k="addr:housenumber" v="901"/><tag k="coa:place_id" v="3773918"/></node><node id="-53" lat="30.342641" lon="-97.718579" changeset="false"><tag k="addr:street" v="Cavalier Lane"/><tag k="addr:housenumber" v="929"/><tag k="coa:place_id" v="3773925"/></node><node id="-54" lat="30.341253" lon="-97.719012" changeset="false"><tag k="addr:street" v="Easy Wind Drive"/><tag k="addr:housenumber" v="7304"/><tag k="coa:place_id" v="3773805"/></node><node id="-55" lat="30.341667" lon="-97.719099" changeset="false"><tag k="addr:street" v="Easy Wind Drive"/><tag k="addr:housenumber" v="7324"/><tag k="coa:place_id" v="3773810"/></node><node id="-56" lat="30.344258" lon="-97.716088" changeset="false"><tag k="addr:street" v="Morrow Street"/><tag k="addr:housenumber" v="817"/><tag k="coa:place_id" v="5091295"/></node><node id="-57" lat="30.344412" lon="-97.716382" changeset="false"><tag k="addr:street" v="Morrow Street"/><tag k="addr:housenumber" v="823"/><tag k="coa:place_id" v="5091298"/></node><node id="-58" lat="30.345089" lon="-97.71774" changeset="false"><tag k="addr:street" v="Morrow Street"/><tag k="addr:housenumber" v="1007"/><tag k="coa:place_id" v="5091316"/></node><node id="-59" lat="30.343944" lon="-97.718185" changeset="false"><tag k="addr:street" v="Easy Wind Drive"/><tag k="addr:housenumber" v="7608"/><tag k="coa:place_id" v="5091319"/></node><node id="-60" lat="30.344457" lon="-97.718196" changeset="false"><tag k="addr:street" v="Wolverine Street"/><tag k="addr:housenumber" v="7703"/><tag k="coa:place_id" v="5091348"/></node><node id="-61" lat="30.343792" lon="-97.718374" changeset="false"><tag k="addr:street" v="Banyon Street"/><tag k="addr:housenumber" v="1004"/><tag k="coa:place_id" v="5091356"/></node><node id="-62" lat="30.344235" lon="-97.718741" changeset="false"><tag k="addr:street" v="Wildcat Pass"/><tag k="addr:housenumber" v="8010"/><tag k="coa:place_id" v="5091359"/></node><node id="-63" lat="30.344367" lon="-97.719017" changeset="false"><tag k="addr:street" v="Wildcat Pass"/><tag k="addr:housenumber" v="8002"/><tag k="coa:place_id" v="5091363"/></node><node id="-64" lat="30.343728" lon="-97.719145" changeset="false"><tag k="addr:street" v="Wildcat Pass"/><tag k="addr:housenumber" v="8007"/><tag k="coa:place_id" v="5091370"/></node><node id="-65" lat="30.343694" lon="-97.719075" changeset="false"><tag k="addr:street" v="Wildcat Pass"/><tag k="addr:housenumber" v="8009"/><tag k="coa:place_id" v="5091371"/></node><node id="-66" lat="30.343062" lon="-97.719848" changeset="false"><tag k="addr:street" v="Pantherpaw Street"/><tag k="addr:housenumber" v="7415"/><tag k="coa:place_id" v="5116749"/></node><node id="-67" lat="30.343441" lon="-97.719582" changeset="false"><tag k="addr:street" v="Pantherpaw Street"/><tag k="addr:housenumber" v="7507"/><tag k="coa:place_id" v="5116756"/></node><node id="-68" lat="30.3435" lon="-97.719548" changeset="false"><tag k="addr:street" v="Pantherpaw Street"/><tag k="addr:housenumber" v="7509"/><tag k="coa:place_id" v="5116757"/></node><node id="-69" lat="30.342054" lon="-97.720574" changeset="false"><tag k="addr:street" v="Wildcat Pass"/><tag k="addr:housenumber" v="7306"/><tag k="coa:place_id" v="5116762"/></node><node id="-70" lat="30.342282" lon="-97.720624" changeset="false"><tag k="addr:street" v="Wildcat Pass"/><tag k="addr:housenumber" v="7312"/><tag k="coa:place_id" v="5116765"/></node><node id="-71" lat="30.342667" lon="-97.719948" changeset="false"><tag k="addr:street" v="Wolverine Street"/><tag k="addr:housenumber" v="7308"/><tag k="coa:place_id" v="5116785"/></node><node id="-72" lat="30.342813" lon="-97.719629" changeset="false"><tag k="addr:street" v="Wolverine Street"/><tag k="addr:housenumber" v="7406"/><tag k="coa:place_id" v="5116788"/></node><node id="-73" lat="30.343079" lon="-97.719477" changeset="false"><tag k="addr:street" v="Wolverine Street"/><tag k="addr:housenumber" v="7414"/><tag k="coa:place_id" v="5116792"/></node><node id="-74" lat="30.343808" lon="-97.719792" changeset="false"><tag k="addr:street" v="Pantherpaw Street"/><tag k="addr:housenumber" v="7510"/><tag k="coa:place_id" v="5116837"/></node><node id="-75" lat="30.344064" lon="-97.719637" changeset="false"><tag k="addr:street" v="Pantherpaw Street"/><tag k="addr:housenumber" v="7516"/><tag k="coa:place_id" v="5116840"/></node><node id="-76" lat="30.34341" lon="-97.720868" changeset="false"><tag k="addr:street" v="Wildcat Pass"/><tag k="addr:housenumber" v="7504"/><tag k="coa:place_id" v="5116846"/></node><node id="-77" lat="30.344069" lon="-97.721003" changeset="false"><tag k="addr:street" v="Wildcat Pass"/><tag k="addr:housenumber" v="7604"/><tag k="coa:place_id" v="5116855"/></node><node id="-78" lat="30.343819" lon="-97.720225" changeset="false"><tag k="addr:street" v="Wildcat Pass"/><tag k="addr:housenumber" v="7515"/><tag k="coa:place_id" v="5116865"/></node><node id="-79" lat="30.34454" lon="-97.719507" changeset="false"><tag k="addr:street" v="Wildcat Pass"/><tag k="addr:housenumber" v="7906"/><tag k="coa:place_id" v="5116879"/></node><node id="-80" lat="30.34449" lon="-97.719406" changeset="false"><tag k="addr:street" v="Wildcat Pass"/><tag k="addr:housenumber" v="7908"/><tag k="coa:place_id" v="5116880"/></node><node id="-81" lat="30.343402" lon="-97.717591" changeset="false"><tag k="addr:street" v="Banyon Street"/><tag k="addr:housenumber" v="906"/><tag k="coa:place_id" v="5068080"/></node><node id="-82" lat="30.344208" lon="-97.71753" changeset="false"><tag k="addr:street" v="Cannoneer Lane"/><tag k="addr:housenumber" v="916"/><tag k="coa:place_id" v="5068098"/></node><node id="-83" lat="30.344233" lon="-97.717595" changeset="false"><tag k="addr:street" v="Cannoneer Lane"/><tag k="addr:housenumber" v="918"/><tag k="coa:place_id" v="5068099"/></node><node id="-84" lat="30.343071" lon="-97.716693" changeset="false"><tag k="addr:street" v="Sugar Magnolia Street"/><tag k="addr:housenumber" v="7505"/><tag k="coa:place_id" v="5068114"/></node><node id="-85" lat="30.349835" lon="-97.718339" changeset="false"><tag k="addr:street" v="West Anderson Lane"/><tag k="addr:housenumber" v="1213"/><tag k="coa:place_id" v="890456"/></node><node id="-86" lat="30.344766" lon="-97.714999" changeset="false"><tag k="addr:street" v="North Lamar Boulevard"/><tag k="addr:housenumber" v="7620"/><tag k="coa:place_id" v="247057"/></node><node id="-87" lat="30.34888" lon="-97.718311" changeset="false"><tag k="addr:street" v="Stobaugh Street"/><tag k="addr:housenumber" v="1202"/><tag k="coa:place_id" v="696118"/></node><node id="-88" lat="30.342042" lon="-97.716568" changeset="false"><tag k="addr:street" v="North Lamar Boulevard"/><tag k="addr:housenumber" v="7432 1/2"/><tag k="coa:place_id" v="3183124"/></node><node id="-89" lat="30.345134" lon="-97.714612" changeset="false"><tag k="addr:street" v="North Lamar Boulevard"/><tag k="addr:housenumber" v="7630"/><tag k="coa:place_id" v="3068382"/></node><node id="-90" lat="30.345289" lon="-97.715157" changeset="false"><tag k="addr:street" v="Taulbee Lane"/><tag k="addr:housenumber" v="817"/><tag k="coa:place_id" v="92910"/></node><node id="-91" lat="30.345344" lon="-97.715263" changeset="false"><tag k="addr:street" v="Taulbee Lane"/><tag k="addr:housenumber" v="821"/><tag k="coa:place_id" v="889586"/></node><node id="-92" lat="30.343495" lon="-97.717788" changeset="false"><tag k="addr:street" v="Banyon Street"/><tag k="addr:housenumber" v="910"/><tag k="coa:place_id" v="170415"/></node><node id="-93" lat="30.338452" lon="-97.71962" changeset="false"><tag k="addr:street" v="North Lamar Boulevard"/><tag k="addr:housenumber" v="6932"/><tag k="coa:place_id" v="803414"/></node><node id="-94" lat="30.351735" lon="-97.722423" changeset="false"><tag k="addr:street" v="West Anderson Lane"/><tag k="addr:housenumber" v="1519"/><tag k="coa:place_id" v="3350276"/></node><node id="-95" lat="30.341348" lon="-97.719034" changeset="false"><tag k="addr:street" v="Easy Wind Drive"/><tag k="addr:housenumber" v="7308"/><tag k="coa:place_id" v="3773806"/></node><node id="-96" lat="30.3418" lon="-97.719126" changeset="false"><tag k="addr:street" v="Easy Wind Drive"/><tag k="addr:housenumber" v="7332"/><tag k="coa:place_id" v="3773812"/></node><node id="-97" lat="30.342124" lon="-97.719689" changeset="false"><tag k="addr:street" v="Sugaree Avenue"/><tag k="addr:housenumber" v="1024"/><tag k="coa:place_id" v="3773823"/></node><node id="-98" lat="30.34237" lon="-97.719586" changeset="false"><tag k="addr:street" v="Wolverine Street"/><tag k="addr:housenumber" v="7333"/><tag k="coa:place_id" v="3773842"/></node><node id="-99" lat="30.342848" lon="-97.719171" changeset="false"><tag k="addr:street" v="Wolverine Street"/><tag k="addr:housenumber" v="7421"/><tag k="coa:place_id" v="3773848"/></node><node id="-100" lat="30.342465" lon="-97.719085" changeset="false"><tag k="addr:street" v="Easy Wind Drive"/><tag k="addr:housenumber" v="7416"/><tag k="coa:place_id" v="3773865"/></node><node id="-101" lat="30.342992" lon="-97.718757" changeset="false"><tag k="addr:street" v="Easy Wind Drive"/><tag k="addr:housenumber" v="7504"/><tag k="coa:place_id" v="3773872"/></node><node id="-102" lat="30.342733" lon="-97.718932" changeset="false"><tag k="addr:street" v="Easy Wind Drive"/><tag k="addr:housenumber" v="7432"/><tag k="coa:place_id" v="3773873"/></node><node id="-103" lat="30.34311" lon="-97.718689" changeset="false"><tag k="addr:street" v="Easy Wind Drive"/><tag k="addr:housenumber" v="7512"/><tag k="coa:place_id" v="3773878"/></node><node id="-104" lat="30.34241" lon="-97.718103" changeset="false"><tag k="addr:street" v="Cavalier Lane"/><tag k="addr:housenumber" v="909"/><tag k="coa:place_id" v="3773920"/></node><node id="-105" lat="30.34279" lon="-97.717985" changeset="false"><tag k="addr:street" v="Cavalier Lane"/><tag k="addr:housenumber" v="906"/><tag k="coa:place_id" v="5068058"/></node><node id="-106" lat="30.342935" lon="-97.717516" changeset="false"><tag k="addr:street" v="Banyon Street"/><tag k="addr:housenumber" v="901"/><tag k="coa:place_id" v="5068069"/></node><node id="-107" lat="30.34299" lon="-97.717618" changeset="false"><tag k="addr:street" v="Banyon Street"/><tag k="addr:housenumber" v="903"/><tag k="coa:place_id" v="5068070"/></node><node id="-108" lat="30.343213" lon="-97.718102" changeset="false"><tag k="addr:street" v="Banyon Street"/><tag k="addr:housenumber" v="913"/><tag k="coa:place_id" v="5068075"/></node><node id="-109" lat="30.343557" lon="-97.717137" changeset="false"><tag k="addr:street" v="Cannoneer Lane"/><tag k="addr:housenumber" v="901"/><tag k="coa:place_id" v="5068082"/></node><node id="-110" lat="30.34438" lon="-97.717234" changeset="false"><tag k="addr:street" v="Mountaineer Lane"/><tag k="addr:housenumber" v="913"/><tag k="coa:place_id" v="5068106"/></node><node id="-111" lat="30.342943" lon="-97.716758" changeset="false"><tag k="addr:street" v="Sugar Magnolia Street"/><tag k="addr:housenumber" v="7501"/><tag k="coa:place_id" v="5068112"/></node><node id="-112" lat="30.344222" lon="-97.715985" changeset="false"><tag k="addr:street" v="Morrow Street"/><tag k="addr:housenumber" v="815"/><tag k="coa:place_id" v="5091294"/></node><node id="-113" lat="30.344719" lon="-97.717033" changeset="false"><tag k="addr:street" v="Morrow Street"/><tag k="addr:housenumber" v="913"/><tag k="coa:place_id" v="5091304"/></node><node id="-114" lat="30.34499" lon="-97.717549" changeset="false"><tag k="addr:street" v="Morrow Street"/><tag k="addr:housenumber" v="1003"/><tag k="coa:place_id" v="5091314"/></node><node id="-115" lat="30.345037" lon="-97.717649" changeset="false"><tag k="addr:street" v="Morrow Street"/><tag k="addr:housenumber" v="1005"/><tag k="coa:place_id" v="5091315"/></node><node id="-116" lat="30.344009" lon="-97.71815" changeset="false"><tag k="addr:street" v="Easy Wind Drive"/><tag k="addr:housenumber" v="7610"/><tag k="coa:place_id" v="5091320"/></node><node id="-117" lat="30.34407" lon="-97.718114" changeset="false"><tag k="addr:street" v="Easy Wind Drive"/><tag k="addr:housenumber" v="7612"/><tag k="coa:place_id" v="5091321"/></node><node id="-118" lat="30.344133" lon="-97.718077" changeset="false"><tag k="addr:street" v="Easy Wind Drive"/><tag k="addr:housenumber" v="7614"/><tag k="coa:place_id" v="5091322"/></node><node id="-119" lat="30.344207" lon="-97.718017" changeset="false"><tag k="addr:street" v="Easy Wind Drive"/><tag k="addr:housenumber" v="7616"/><tag k="coa:place_id" v="5091323"/></node><node id="-120" lat="30.34433" lon="-97.717938" changeset="false"><tag k="addr:street" v="Easy Wind Drive"/><tag k="addr:housenumber" v="7702"/><tag k="coa:place_id" v="5091325"/></node><node id="-121" lat="30.344537" lon="-97.717805" changeset="false"><tag k="addr:street" v="Easy Wind Drive"/><tag k="addr:housenumber" v="7708"/><tag k="coa:place_id" v="5091328"/></node><node id="-122" lat="30.344721" lon="-97.717687" changeset="false"><tag k="addr:street" v="Easy Wind Drive"/><tag k="addr:housenumber" v="7714"/><tag k="coa:place_id" v="5091331"/></node><node id="-123" lat="30.344521" lon="-97.718158" changeset="false"><tag k="addr:street" v="Wolverine Street"/><tag k="addr:housenumber" v="7705"/><tag k="coa:place_id" v="5091349"/></node><node id="-124" lat="30.344785" lon="-97.717986" changeset="false"><tag k="addr:street" v="Wolverine Street"/><tag k="addr:housenumber" v="7713"/><tag k="coa:place_id" v="5091353"/></node><node id="-125" lat="30.343748" lon="-97.718282" changeset="false"><tag k="addr:street" v="Banyon Street"/><tag k="addr:housenumber" v="1000"/><tag k="coa:place_id" v="5091355"/></node><node id="-126" lat="30.344334" lon="-97.718951" changeset="false"><tag k="addr:street" v="Wildcat Pass"/><tag k="addr:housenumber" v="8004"/><tag k="coa:place_id" v="5091362"/></node><node id="-127" lat="30.344437" lon="-97.716474" changeset="false"><tag k="addr:street" v="Morrow Street"/><tag k="addr:housenumber" v="901"/><tag k="coa:place_id" v="5091376"/></node><node id="-128" lat="30.34399" lon="-97.716832" changeset="false"><tag k="addr:street" v="Sugar Magnolia Street"/><tag k="addr:housenumber" v="7608 1/2"/><tag k="coa:place_id" v="5101317"/></node><node id="-129" lat="30.341812" lon="-97.717274" changeset="false"><tag k="addr:street" v="North Lamar Boulevard"/><tag k="addr:housenumber" v="7400"/><tag k="coa:place_id" v="5216512"/></node><node id="-130" lat="30.342875" lon="-97.720364" changeset="false"><tag k="addr:street" v="Pantherpaw Street"/><tag k="addr:housenumber" v="7401"/><tag k="coa:place_id" v="5116743"/></node><node id="-131" lat="30.343183" lon="-97.719766" changeset="false"><tag k="addr:street" v="Pantherpaw Street"/><tag k="addr:housenumber" v="7419"/><tag k="coa:place_id" v="5116751"/></node><node id="-132" lat="30.343232" lon="-97.719721" changeset="false"><tag k="addr:street" v="Pantherpaw Street"/><tag k="addr:housenumber" v="7501"/><tag k="coa:place_id" v="5116753"/></node><node id="-133" lat="30.343321" lon="-97.719663" changeset="false"><tag k="addr:street" v="Pantherpaw Street"/><tag k="addr:housenumber" v="7503"/><tag k="coa:place_id" v="5116754"/></node><node id="-134" lat="30.342424" lon="-97.720642" changeset="false"><tag k="addr:street" v="Wildcat Pass"/><tag k="addr:housenumber" v="7316"/><tag k="coa:place_id" v="5116767"/></node><node id="-135" lat="30.342724" lon="-97.72069" changeset="false"><tag k="addr:street" v="Wildcat Pass"/><tag k="addr:housenumber" v="7406"/><tag k="coa:place_id" v="5116773"/></node><node id="-136" lat="30.343089" lon="-97.720788" changeset="false"><tag k="addr:street" v="Wildcat Pass"/><tag k="addr:housenumber" v="7416"/><tag k="coa:place_id" v="5116778"/></node><node id="-137" lat="30.342614" lon="-97.720283" changeset="false"><tag k="addr:street" v="Wolverine Street"/><tag k="addr:housenumber" v="7300"/><tag k="coa:place_id" v="5116781"/></node><node id="-138" lat="30.343201" lon="-97.72025" changeset="false"><tag k="addr:street" v="Pantherpaw Street"/><tag k="addr:housenumber" v="7404"/><tag k="coa:place_id" v="5116831"/></node><node id="-139" lat="30.343564" lon="-97.719958" changeset="false"><tag k="addr:street" v="Pantherpaw Street"/><tag k="addr:housenumber" v="7504"/><tag k="coa:place_id" v="5116834"/></node><node id="-140" lat="30.343729" lon="-97.719849" changeset="false"><tag k="addr:street" v="Pantherpaw Street"/><tag k="addr:housenumber" v="7508"/><tag k="coa:place_id" v="5116836"/></node><node id="-141" lat="30.343979" lon="-97.71969" changeset="false"><tag k="addr:street" v="Pantherpaw Street"/><tag k="addr:housenumber" v="7514"/><tag k="coa:place_id" v="5116839"/></node><node id="-142" lat="30.343771" lon="-97.720953" changeset="false"><tag k="addr:street" v="Wildcat Pass"/><tag k="addr:housenumber" v="7514"/><tag k="coa:place_id" v="5116851"/></node><node id="-143" lat="30.344136" lon="-97.721016" changeset="false"><tag k="addr:street" v="Wildcat Pass"/><tag k="addr:housenumber" v="7606"/><tag k="coa:place_id" v="5116856"/></node><node id="-144" lat="30.344206" lon="-97.721033" changeset="false"><tag k="addr:street" v="Wildcat Pass"/><tag k="addr:housenumber" v="7608"/><tag k="coa:place_id" v="5116857"/></node><node id="-145" lat="30.344459" lon="-97.719342" changeset="false"><tag k="addr:street" v="Wildcat Pass"/><tag k="addr:housenumber" v="7910"/><tag k="coa:place_id" v="5116881"/></node><node id="-146" lat="30.344446" lon="-97.720119" changeset="false"><tag k="addr:street" v="Wildcat Pass"/><tag k="addr:housenumber" v="7807"/><tag k="coa:place_id" v="5116885"/></node><node id="-147" lat="30.344492" lon="-97.720215" changeset="false"><tag k="addr:street" v="Wildcat Pass"/><tag k="addr:housenumber" v="7805"/><tag k="coa:place_id" v="5116888"/></node><node id="-148" lat="30.344306" lon="-97.719833" changeset="false"><tag k="addr:street" v="Wildcat Pass"/><tag k="addr:housenumber" v="7901"/><tag k="coa:place_id" v="5116889"/></node><node id="-149" lat="30.343585" lon="-97.717986" changeset="false"><tag k="addr:street" v="Banyon Street"/><tag k="addr:housenumber" v="914"/><tag k="coa:place_id" v="888038"/></node><node id="-150" lat="30.34351" lon="-97.715935" changeset="false"><tag k="addr:street" v="North Lamar Boulevard"/><tag k="addr:housenumber" v="7526"/><tag k="coa:place_id" v="548650"/></node><node id="-151" lat="30.345303" lon="-97.715196" changeset="false"><tag k="addr:street" v="Taulbee Lane"/><tag k="addr:housenumber" v="819"/><tag k="coa:place_id" v="92911"/></node><node id="-152" lat="30.343701" lon="-97.715812" changeset="false"><tag k="addr:street" v="North Lamar Boulevard"/><tag k="addr:housenumber" v="7530"/><tag k="coa:place_id" v="247056"/></node><node id="-153" lat="30.348357" lon="-97.718234" changeset="false"><tag k="addr:street" v="Stobaugh Street"/><tag k="addr:housenumber" v="1117"/><tag k="coa:place_id" v="3364707"/></node><node id="-154" lat="30.344374" lon="-97.717567" changeset="false"><tag k="addr:street" v="Easy Wind Drive"/><tag k="addr:housenumber" v="7709 1/2"/><tag k="coa:place_id" v="5101316"/></node><node id="-155" lat="30.342277" lon="-97.718698" changeset="false"><tag k="addr:street" v="Sugaree Avenue"/><tag k="addr:housenumber" v="924"/><tag k="coa:place_id" v="3773866"/></node><node id="-156" lat="30.344302" lon="-97.716183" changeset="false"><tag k="addr:street" v="Morrow Street"/><tag k="addr:housenumber" v="819"/><tag k="coa:place_id" v="5091296"/></node><node id="-157" lat="30.344525" lon="-97.716656" changeset="false"><tag k="addr:street" v="Morrow Street"/><tag k="addr:housenumber" v="905"/><tag k="coa:place_id" v="5091300"/></node><node id="-158" lat="30.344456" lon="-97.717859" changeset="false"><tag k="addr:street" v="Easy Wind Drive"/><tag k="addr:housenumber" v="7706"/><tag k="coa:place_id" v="5091327"/></node><node id="-159" lat="30.344658" lon="-97.71773" changeset="false"><tag k="addr:street" v="Easy Wind Drive"/><tag k="addr:housenumber" v="7712"/><tag k="coa:place_id" v="5091330"/></node><node id="-160" lat="30.344189" lon="-97.718354" changeset="false"><tag k="addr:street" v="Wolverine Street"/><tag k="addr:housenumber" v="7613"/><tag k="coa:place_id" v="5091344"/></node><node id="-161" lat="30.344845" lon="-97.717946" changeset="false"><tag k="addr:street" v="Wolverine Street"/><tag k="addr:housenumber" v="7715"/><tag k="coa:place_id" v="5091354"/></node><node id="-162" lat="30.343824" lon="-97.719354" changeset="false"><tag k="addr:street" v="Wildcat Pass"/><tag k="addr:housenumber" v="8001"/><tag k="coa:place_id" v="5091367"/></node><node id="-163" lat="30.342688" lon="-97.717787" changeset="false"><tag k="addr:street" v="Cavalier Lane"/><tag k="addr:housenumber" v="902"/><tag k="coa:place_id" v="5068056"/></node><node id="-164" lat="30.343653" lon="-97.717327" changeset="false"><tag k="addr:street" v="Cannoneer Lane"/><tag k="addr:housenumber" v="905"/><tag k="coa:place_id" v="5068084"/></node><node id="-165" lat="30.343748" lon="-97.717529" changeset="false"><tag k="addr:street" v="Cannoneer Lane"/><tag k="addr:housenumber" v="909"/><tag k="coa:place_id" v="5068086"/></node><node id="-166" lat="30.344347" lon="-97.717158" changeset="false"><tag k="addr:street" v="Mountaineer Lane"/><tag k="addr:housenumber" v="911"/><tag k="coa:place_id" v="5068105"/></node><node id="-167" lat="30.344411" lon="-97.717305" changeset="false"><tag k="addr:street" v="Mountaineer Lane"/><tag k="addr:housenumber" v="915"/><tag k="coa:place_id" v="5068107"/></node><node id="-168" lat="30.34216" lon="-97.719427" changeset="false"><tag k="addr:street" v="Sugaree Avenue"/><tag k="addr:housenumber" v="1012"/><tag k="coa:place_id" v="3773820"/></node><node id="-169" lat="30.342135" lon="-97.719531" changeset="false"><tag k="addr:street" v="Sugaree Avenue"/><tag k="addr:housenumber" v="1016"/><tag k="coa:place_id" v="3773821"/></node><node id="-170" lat="30.342134" lon="-97.719611" changeset="false"><tag k="addr:street" v="Sugaree Avenue"/><tag k="addr:housenumber" v="1020"/><tag k="coa:place_id" v="3773822"/></node><node id="-171" lat="30.342112" lon="-97.719772" changeset="false"><tag k="addr:street" v="Sugaree Avenue"/><tag k="addr:housenumber" v="1028"/><tag k="coa:place_id" v="3773824"/></node><node id="-172" lat="30.342294" lon="-97.720158" changeset="false"><tag k="addr:street" v="Wolverine Street"/><tag k="addr:housenumber" v="7305"/><tag k="coa:place_id" v="3773835"/></node><node id="-173" lat="30.342325" lon="-97.71993" changeset="false"><tag k="addr:street" v="Wolverine Street"/><tag k="addr:housenumber" v="7317"/><tag k="coa:place_id" v="3773838"/></node><node id="-174" lat="30.342357" lon="-97.719661" changeset="false"><tag k="addr:street" v="Wolverine Street"/><tag k="addr:housenumber" v="7329"/><tag k="coa:place_id" v="3773841"/></node><node id="-175" lat="30.342585" lon="-97.72066" changeset="false"><tag k="addr:street" v="Wildcat Pass"/><tag k="addr:housenumber" v="7402"/><tag k="coa:place_id" v="5116771"/></node><node id="-176" lat="30.343022" lon="-97.720756" changeset="false"><tag k="addr:street" v="Wildcat Pass"/><tag k="addr:housenumber" v="7414"/><tag k="coa:place_id" v="5116777"/></node><node id="-177" lat="30.343165" lon="-97.720788" changeset="false"><tag k="addr:street" v="Wildcat Pass"/><tag k="addr:housenumber" v="7418"/><tag k="coa:place_id" v="5116779"/></node><node id="-178" lat="30.342648" lon="-97.720128" changeset="false"><tag k="addr:street" v="Wolverine Street"/><tag k="addr:housenumber" v="7304"/><tag k="coa:place_id" v="5116783"/></node><node id="-179" lat="30.342663" lon="-97.720027" changeset="false"><tag k="addr:street" v="Wolverine Street"/><tag k="addr:housenumber" v="7306"/><tag k="coa:place_id" v="5116784"/></node><node id="-180" lat="30.342679" lon="-97.719872" changeset="false"><tag k="addr:street" v="Wolverine Street"/><tag k="addr:housenumber" v="7310"/><tag k="coa:place_id" v="5116786"/></node><node id="-181" lat="30.342871" lon="-97.719596" changeset="false"><tag k="addr:street" v="Wolverine Street"/><tag k="addr:housenumber" v="7408"/><tag k="coa:place_id" v="5116789"/></node><node id="-182" lat="30.343398" lon="-97.720065" changeset="false"><tag k="addr:street" v="Pantherpaw Street"/><tag k="addr:housenumber" v="7500"/><tag k="coa:place_id" v="5116832"/></node><node id="-183" lat="30.343648" lon="-97.719906" changeset="false"><tag k="addr:street" v="Pantherpaw Street"/><tag k="addr:housenumber" v="7506"/><tag k="coa:place_id" v="5116835"/></node><node id="-184" lat="30.343348" lon="-97.719313" changeset="false"><tag k="addr:street" v="Wolverine Street"/><tag k="addr:housenumber" v="7504"/><tag k="coa:place_id" v="5116800"/></node><node id="-185" lat="30.344003" lon="-97.720986" changeset="false"><tag k="addr:street" v="Wildcat Pass"/><tag k="addr:housenumber" v="7602"/><tag k="coa:place_id" v="5116854"/></node><node id="-186" lat="30.343737" lon="-97.720277" changeset="false"><tag k="addr:street" v="Wildcat Pass"/><tag k="addr:housenumber" v="7513"/><tag k="coa:place_id" v="5116864"/></node><node id="-187" lat="30.344179" lon="-97.720304" changeset="false"><tag k="addr:street" v="Wildcat Pass"/><tag k="addr:housenumber" v="7603"/><tag k="coa:place_id" v="5116868"/></node><node id="-188" lat="30.344765" lon="-97.719953" changeset="false"><tag k="addr:street" v="Wildcat Pass"/><tag k="addr:housenumber" v="7806"/><tag k="coa:place_id" v="5116873"/></node><node id="-189" lat="30.344355" lon="-97.719926" changeset="false"><tag k="addr:street" v="Wildcat Pass"/><tag k="addr:housenumber" v="7811"/><tag k="coa:place_id" v="5116887"/></node><node id="-190" lat="30.348599" lon="-97.716412" changeset="false"><tag k="addr:street" v="Watson Street"/><tag k="addr:housenumber" v="7809"/><tag k="coa:place_id" v="252168"/></node><node id="-191" lat="30.345764" lon="-97.715039" changeset="false"><tag k="addr:street" v="Taulbee Lane"/><tag k="addr:housenumber" v="822"/><tag k="coa:place_id" v="3101335"/></node><node id="-192" lat="30.350749" lon="-97.719874" changeset="false"><tag k="addr:street" v="West Anderson Lane"/><tag k="addr:housenumber" v="1315"/><tag k="coa:place_id" v="3365451"/></node><node id="-193" lat="30.343479" lon="-97.718176" changeset="false"><tag k="addr:street" v="Banyon Street"/><tag k="addr:housenumber" v="950"/><tag k="coa:place_id" v="3300784"/></node><node id="-194" lat="30.342791" lon="-97.718891" changeset="false"><tag k="addr:street" v="Easy Wind Drive"/><tag k="addr:housenumber" v="7436"/><tag k="coa:place_id" v="3773875"/></node><node id="-195" lat="30.342185" lon="-97.718495" changeset="false"><tag k="addr:street" v="Sugaree Avenue"/><tag k="addr:housenumber" v="916"/><tag k="coa:place_id" v="3773895"/></node><node id="-196" lat="30.342362" lon="-97.718005" changeset="false"><tag k="addr:street" v="Cavalier Lane"/><tag k="addr:housenumber" v="905"/><tag k="coa:place_id" v="3773919"/></node><node id="-197" lat="30.342592" lon="-97.718492" changeset="false"><tag k="addr:street" v="Cavalier Lane"/><tag k="addr:housenumber" v="925"/><tag k="coa:place_id" v="3773924"/></node><node id="-198" lat="30.343422" lon="-97.718479" changeset="false"><tag k="addr:street" v="Banyon Street"/><tag k="addr:housenumber" v="1001"/><tag k="coa:place_id" v="3773932"/></node><node id="-199" lat="30.342969" lon="-97.718366" changeset="false"><tag k="addr:street" v="Cavalier Lane"/><tag k="addr:housenumber" v="914"/><tag k="coa:place_id" v="5068062"/></node><node id="-200" lat="30.343123" lon="-97.717908" changeset="false"><tag k="addr:street" v="Banyon Street"/><tag k="addr:housenumber" v="909"/><tag k="coa:place_id" v="5068073"/></node><node id="-201" lat="30.343169" lon="-97.718006" changeset="false"><tag k="addr:street" v="Banyon Street"/><tag k="addr:housenumber" v="911"/><tag k="coa:place_id" v="5068074"/></node><node id="-202" lat="30.343704" lon="-97.71742" changeset="false"><tag k="addr:street" v="Cannoneer Lane"/><tag k="addr:housenumber" v="907"/><tag k="coa:place_id" v="5068085"/></node><node id="-203" lat="30.344182" lon="-97.716779" changeset="false"><tag k="addr:street" v="Mountaineer Lane"/><tag k="addr:housenumber" v="901"/><tag k="coa:place_id" v="5068100"/></node><node id="-204" lat="30.344245" lon="-97.716922" changeset="false"><tag k="addr:street" v="Mountaineer Lane"/><tag k="addr:housenumber" v="905"/><tag k="coa:place_id" v="5068102"/></node><node id="-205" lat="30.344441" lon="-97.717373" changeset="false"><tag k="addr:street" v="Mountaineer Lane"/><tag k="addr:housenumber" v="917"/><tag k="coa:place_id" v="5068108"/></node><node id="-206" lat="30.343226" lon="-97.716628" changeset="false"><tag k="addr:street" v="Sugar Magnolia Street"/><tag k="addr:housenumber" v="7511"/><tag k="coa:place_id" v="5068116"/></node><node id="-207" lat="30.341576" lon="-97.719086" changeset="false"><tag k="addr:street" v="Easy Wind Drive"/><tag k="addr:housenumber" v="7320"/><tag k="coa:place_id" v="3773809"/></node><node id="-208" lat="30.341881" lon="-97.71915" changeset="false"><tag k="addr:street" v="Easy Wind Drive"/><tag k="addr:housenumber" v="7336"/><tag k="coa:place_id" v="3773813"/></node><node id="-209" lat="30.342175" lon="-97.719274" changeset="false"><tag k="addr:street" v="Sugaree Avenue"/><tag k="addr:housenumber" v="1004"/><tag k="coa:place_id" v="3773818"/></node><node id="-210" lat="30.341409" lon="-97.719869" changeset="false"><tag k="addr:street" v="Sugaree Avenue"/><tag k="addr:housenumber" v="1031"/><tag k="coa:place_id" v="5216513"/></node><node id="-211" lat="30.342913" lon="-97.720097" changeset="false"><tag k="addr:street" v="Pantherpaw Street"/><tag k="addr:housenumber" v="7407"/><tag k="coa:place_id" v="5116746"/></node><node id="-212" lat="30.343117" lon="-97.719803" changeset="false"><tag k="addr:street" v="Pantherpaw Street"/><tag k="addr:housenumber" v="7417"/><tag k="coa:place_id" v="5116750"/></node><node id="-213" lat="30.341985" lon="-97.720566" changeset="false"><tag k="addr:street" v="Wildcat Pass"/><tag k="addr:housenumber" v="7304"/><tag k="coa:place_id" v="5116761"/></node><node id="-214" lat="30.343229" lon="-97.720807" changeset="false"><tag k="addr:street" v="Wildcat Pass"/><tag k="addr:housenumber" v="7420"/><tag k="coa:place_id" v="5116780"/></node><node id="-215" lat="30.343173" lon="-97.720482" changeset="false"><tag k="addr:street" v="Pantherpaw Street"/><tag k="addr:housenumber" v="7400"/><tag k="coa:place_id" v="5116829"/></node><node id="-216" lat="30.343185" lon="-97.720356" changeset="false"><tag k="addr:street" v="Pantherpaw Street"/><tag k="addr:housenumber" v="7402"/><tag k="coa:place_id" v="5116830"/></node><node id="-217" lat="30.343342" lon="-97.720852" changeset="false"><tag k="addr:street" v="Wildcat Pass"/><tag k="addr:housenumber" v="7502"/><tag k="coa:place_id" v="5116845"/></node><node id="-218" lat="30.343473" lon="-97.72088" changeset="false"><tag k="addr:street" v="Wildcat Pass"/><tag k="addr:housenumber" v="7506"/><tag k="coa:place_id" v="5116847"/></node><node id="-219" lat="30.343547" lon="-97.720898" changeset="false"><tag k="addr:street" v="Wildcat Pass"/><tag k="addr:housenumber" v="7508"/><tag k="coa:place_id" v="5116848"/></node><node id="-220" lat="30.344297" lon="-97.721043" changeset="false"><tag k="addr:street" v="Wildcat Pass"/><tag k="addr:housenumber" v="7610"/><tag k="coa:place_id" v="5116858"/></node><node id="-221" lat="30.343568" lon="-97.720382" changeset="false"><tag k="addr:street" v="Wildcat Pass"/><tag k="addr:housenumber" v="7509"/><tag k="coa:place_id" v="5116862"/></node><node id="-222" lat="30.343651" lon="-97.720333" changeset="false"><tag k="addr:street" v="Wildcat Pass"/><tag k="addr:housenumber" v="7511"/><tag k="coa:place_id" v="5116863"/></node><node id="-223" lat="30.344862" lon="-97.720152" changeset="false"><tag k="addr:street" v="Wildcat Pass"/><tag k="addr:housenumber" v="7800"/><tag k="coa:place_id" v="5116870"/></node><node id="-224" lat="30.344728" lon="-97.719878" changeset="false"><tag k="addr:street" v="Wildcat Pass"/><tag k="addr:housenumber" v="7808"/><tag k="coa:place_id" v="5116874"/></node><node id="-225" lat="30.344646" lon="-97.719717" changeset="false"><tag k="addr:street" v="Wildcat Pass"/><tag k="addr:housenumber" v="7900"/><tag k="coa:place_id" v="5116876"/></node><node id="-226" lat="30.342054" lon="-97.72011" changeset="false"><tag k="addr:street" v="Sugaree Avenue"/><tag k="addr:housenumber" v="1044"/><tag k="coa:place_id" v="3773828"/></node><node id="-227" lat="30.342304" lon="-97.719992" changeset="false"><tag k="addr:street" v="Wolverine Street"/><tag k="addr:housenumber" v="7313"/><tag k="coa:place_id" v="3773837"/></node><node id="-228" lat="30.342347" lon="-97.719734" changeset="false"><tag k="addr:street" v="Wolverine Street"/><tag k="addr:housenumber" v="7325"/><tag k="coa:place_id" v="3773840"/></node><node id="-229" lat="30.343066" lon="-97.719067" changeset="false"><tag k="addr:street" v="Wolverine Street"/><tag k="addr:housenumber" v="7501"/><tag k="coa:place_id" v="3773851"/></node><node id="-230" lat="30.342327" lon="-97.718781" changeset="false"><tag k="addr:street" v="Sugaree Avenue"/><tag k="addr:housenumber" v="928"/><tag k="coa:place_id" v="3773864"/></node><node id="-231" lat="30.342088" lon="-97.71988" changeset="false"><tag k="addr:street" v="Sugaree Avenue"/><tag k="addr:housenumber" v="1032"/><tag k="coa:place_id" v="3773825"/></node><node id="-232" lat="30.344941" lon="-97.71746" changeset="false"><tag k="addr:street" v="Morrow Street"/><tag k="addr:housenumber" v="1001"/><tag k="coa:place_id" v="5091313"/></node><node id="-233" lat="30.341505" lon="-97.719072" changeset="false"><tag k="addr:street" v="Easy Wind Drive"/><tag k="addr:housenumber" v="7316"/><tag k="coa:place_id" v="3773808"/></node><node id="-234" lat="30.342078" lon="-97.720038" changeset="false"><tag k="addr:street" v="Sugaree Avenue"/><tag k="addr:housenumber" v="1040"/><tag k="coa:place_id" v="3773827"/></node><node id="-235" lat="30.342298" lon="-97.720075" changeset="false"><tag k="addr:street" v="Wolverine Street"/><tag k="addr:housenumber" v="7309"/><tag k="coa:place_id" v="3773836"/></node><node id="-236" lat="30.342587" lon="-97.719357" changeset="false"><tag k="addr:street" v="Wolverine Street"/><tag k="addr:housenumber" v="7405"/><tag k="coa:place_id" v="3773844"/></node><node id="-237" lat="30.342786" lon="-97.719213" changeset="false"><tag k="addr:street" v="Wolverine Street"/><tag k="addr:housenumber" v="7417"/><tag k="coa:place_id" v="3773847"/></node><node id="-238" lat="30.342966" lon="-97.719098" changeset="false"><tag k="addr:street" v="Wolverine Street"/><tag k="addr:housenumber" v="7429"/><tag k="coa:place_id" v="3773850"/></node><node id="-239" lat="30.343171" lon="-97.718964" changeset="false"><tag k="addr:street" v="Wolverine Street"/><tag k="addr:housenumber" v="7509"/><tag k="coa:place_id" v="3773853"/></node><node id="-240" lat="30.343041" lon="-97.718691" changeset="false"><tag k="addr:street" v="Easy Wind Drive"/><tag k="addr:housenumber" v="7508"/><tag k="coa:place_id" v="3773874"/></node><node id="-241" lat="30.342449" lon="-97.7182" changeset="false"><tag k="addr:street" v="Cavalier Lane"/><tag k="addr:housenumber" v="913"/><tag k="coa:place_id" v="3773921"/></node><node id="-242" lat="30.344575" lon="-97.716753" changeset="false"><tag k="addr:street" v="Morrow Street"/><tag k="addr:housenumber" v="907"/><tag k="coa:place_id" v="5091301"/></node><node id="-243" lat="30.344811" lon="-97.717237" changeset="false"><tag k="addr:street" v="Morrow Street"/><tag k="addr:housenumber" v="917"/><tag k="coa:place_id" v="5091306"/></node><node id="-244" lat="30.345133" lon="-97.71784" changeset="false"><tag k="addr:street" v="Morrow Street"/><tag k="addr:housenumber" v="1009"/><tag k="coa:place_id" v="5091317"/></node><node id="-245" lat="30.344597" lon="-97.717768" changeset="false"><tag k="addr:street" v="Easy Wind Drive"/><tag k="addr:housenumber" v="7710"/><tag k="coa:place_id" v="5091329"/></node><node id="-246" lat="30.344338" lon="-97.718266" changeset="false"><tag k="addr:street" v="Wolverine Street"/><tag k="addr:housenumber" v="7617"/><tag k="coa:place_id" v="5091346"/></node><node id="-247" lat="30.342882" lon="-97.720285" changeset="false"><tag k="addr:street" v="Pantherpaw Street"/><tag k="addr:housenumber" v="7403"/><tag k="coa:place_id" v="5116744"/></node><node id="-248" lat="30.342894" lon="-97.720208" changeset="false"><tag k="addr:street" v="Pantherpaw Street"/><tag k="addr:housenumber" v="7405"/><tag k="coa:place_id" v="5116745"/></node><node id="-249" lat="30.343381" lon="-97.719626" changeset="false"><tag k="addr:street" v="Pantherpaw Street"/><tag k="addr:housenumber" v="7505"/><tag k="coa:place_id" v="5116755"/></node><node id="-250" lat="30.341918" lon="-97.72054" changeset="false"><tag k="addr:street" v="Wildcat Pass"/><tag k="addr:housenumber" v="7302"/><tag k="coa:place_id" v="5116760"/></node><node id="-251" lat="30.342216" lon="-97.720608" changeset="false"><tag k="addr:street" v="Wildcat Pass"/><tag k="addr:housenumber" v="7310"/><tag k="coa:place_id" v="5116764"/></node><node id="-252" lat="30.342353" lon="-97.72064" changeset="false"><tag k="addr:street" v="Wildcat Pass"/><tag k="addr:housenumber" v="7314"/><tag k="coa:place_id" v="5116766"/></node><node id="-253" lat="30.342625" lon="-97.720208" changeset="false"><tag k="addr:street" v="Wolverine Street"/><tag k="addr:housenumber" v="7302"/><tag k="coa:place_id" v="5116782"/></node><node id="-254" lat="30.343636" lon="-97.720915" changeset="false"><tag k="addr:street" v="Wildcat Pass"/><tag k="addr:housenumber" v="7510"/><tag k="coa:place_id" v="5116849"/></node><node id="-255" lat="30.343702" lon="-97.720933" changeset="false"><tag k="addr:street" v="Wildcat Pass"/><tag k="addr:housenumber" v="7512"/><tag k="coa:place_id" v="5116850"/></node><node id="-256" lat="30.343484" lon="-97.720435" changeset="false"><tag k="addr:street" v="Wildcat Pass"/><tag k="addr:housenumber" v="7507"/><tag k="coa:place_id" v="5116861"/></node><node id="-257" lat="30.344832" lon="-97.72009" changeset="false"><tag k="addr:street" v="Wildcat Pass"/><tag k="addr:housenumber" v="7802"/><tag k="coa:place_id" v="5116871"/></node><node id="-258" lat="30.344577" lon="-97.71958" changeset="false"><tag k="addr:street" v="Wildcat Pass"/><tag k="addr:housenumber" v="7904"/><tag k="coa:place_id" v="5116878"/></node><node id="-259" lat="30.344356" lon="-97.719123" changeset="false"><tag k="addr:street" v="Wildcat Pass"/><tag k="addr:housenumber" v="8000"/><tag k="coa:place_id" v="5116884"/></node><node id="-260" lat="30.342649" lon="-97.71769" changeset="false"><tag k="addr:street" v="Cavalier Lane"/><tag k="addr:housenumber" v="900"/><tag k="coa:place_id" v="5068055"/></node><node id="-261" lat="30.343311" lon="-97.717397" changeset="false"><tag k="addr:street" v="Banyon Street"/><tag k="addr:housenumber" v="902"/><tag k="coa:place_id" v="5068078"/></node><node id="-262" lat="30.34379" lon="-97.717621" changeset="false"><tag k="addr:street" v="Cannoneer Lane"/><tag k="addr:housenumber" v="911"/><tag k="coa:place_id" v="5068087"/></node><node id="-263" lat="30.344177" lon="-97.717458" changeset="false"><tag k="addr:street" v="Cannoneer Lane"/><tag k="addr:housenumber" v="914"/><tag k="coa:place_id" v="5068097"/></node><node id="-264" lat="30.344305" lon="-97.717061" changeset="false"><tag k="addr:street" v="Mountaineer Lane"/><tag k="addr:housenumber" v="909"/><tag k="coa:place_id" v="5068104"/></node><node id="-265" lat="30.344029" lon="-97.717154" changeset="false"><tag k="addr:street" v="Cannoneer Lane"/><tag k="addr:housenumber" v="906"/><tag k="coa:place_id" v="5068093"/></node><node id="-266" lat="30.341414" lon="-97.71905" changeset="false"><tag k="addr:street" v="Easy Wind Drive"/><tag k="addr:housenumber" v="7312"/><tag k="coa:place_id" v="3773807"/></node><node id="-267" lat="30.342647" lon="-97.719308" changeset="false"><tag k="addr:street" v="Wolverine Street"/><tag k="addr:housenumber" v="7409"/><tag k="coa:place_id" v="3773845"/></node><node id="-268" lat="30.3427" lon="-97.719268" changeset="false"><tag k="addr:street" v="Wolverine Street"/><tag k="addr:housenumber" v="7413"/><tag k="coa:place_id" v="3773846"/></node><node id="-269" lat="30.343231" lon="-97.718936" changeset="false"><tag k="addr:street" v="Wolverine Street"/><tag k="addr:housenumber" v="7513"/><tag k="coa:place_id" v="3773854"/></node><node id="-270" lat="30.342523" lon="-97.719051" changeset="false"><tag k="addr:street" v="Easy Wind Drive"/><tag k="addr:housenumber" v="7420"/><tag k="coa:place_id" v="3773867"/></node><node id="-271" lat="30.342494" lon="-97.718291" changeset="false"><tag k="addr:street" v="Cavalier Lane"/><tag k="addr:housenumber" v="917"/><tag k="coa:place_id" v="3773922"/></node><node id="-272" lat="30.343466" lon="-97.718582" changeset="false"><tag k="addr:street" v="Banyon Street"/><tag k="addr:housenumber" v="1005"/><tag k="coa:place_id" v="3773933"/></node><node id="-273" lat="30.34435" lon="-97.716293" changeset="false"><tag k="addr:street" v="Morrow Street"/><tag k="addr:housenumber" v="821"/><tag k="coa:place_id" v="5091297"/></node><node id="-274" lat="30.34467" lon="-97.716941" changeset="false"><tag k="addr:street" v="Morrow Street"/><tag k="addr:housenumber" v="911"/><tag k="coa:place_id" v="5091303"/></node><node id="-275" lat="30.345174" lon="-97.717947" changeset="false"><tag k="addr:street" v="Morrow Street"/><tag k="addr:housenumber" v="1011"/><tag k="coa:place_id" v="5091318"/></node><node id="-276" lat="30.344068" lon="-97.71843" changeset="false"><tag k="addr:street" v="Wolverine Street"/><tag k="addr:housenumber" v="7609"/><tag k="coa:place_id" v="5091342"/></node><node id="-277" lat="30.344721" lon="-97.718023" changeset="false"><tag k="addr:street" v="Wolverine Street"/><tag k="addr:housenumber" v="7711"/><tag k="coa:place_id" v="5091352"/></node><node id="-278" lat="30.347362" lon="-97.716468" changeset="false"><tag k="addr:street" v="Stobaugh Street"/><tag k="addr:housenumber" v="1003"/><tag k="coa:place_id" v="5109595"/></node><node id="-279" lat="30.342492" lon="-97.720643" changeset="false"><tag k="addr:street" v="Wildcat Pass"/><tag k="addr:housenumber" v="7400"/><tag k="coa:place_id" v="5116770"/></node><node id="-280" lat="30.342662" lon="-97.720674" changeset="false"><tag k="addr:street" v="Wildcat Pass"/><tag k="addr:housenumber" v="7404"/><tag k="coa:place_id" v="5116772"/></node><node id="-281" lat="30.342789" lon="-97.720703" changeset="false"><tag k="addr:street" v="Wildcat Pass"/><tag k="addr:housenumber" v="7408"/><tag k="coa:place_id" v="5116774"/></node><node id="-282" lat="30.342866" lon="-97.720726" changeset="false"><tag k="addr:street" v="Wildcat Pass"/><tag k="addr:housenumber" v="7410"/><tag k="coa:place_id" v="5116775"/></node><node id="-283" lat="30.34296" lon="-97.720744" changeset="false"><tag k="addr:street" v="Wildcat Pass"/><tag k="addr:housenumber" v="7412"/><tag k="coa:place_id" v="5116776"/></node><node id="-284" lat="30.342994" lon="-97.71953" changeset="false"><tag k="addr:street" v="Wolverine Street"/><tag k="addr:housenumber" v="7412"/><tag k="coa:place_id" v="5116791"/></node><node id="-285" lat="30.34348" lon="-97.720009" changeset="false"><tag k="addr:street" v="Pantherpaw Street"/><tag k="addr:housenumber" v="7502"/><tag k="coa:place_id" v="5116833"/></node><node id="-286" lat="30.343893" lon="-97.719742" changeset="false"><tag k="addr:street" v="Pantherpaw Street"/><tag k="addr:housenumber" v="7512"/><tag k="coa:place_id" v="5116838"/></node><node id="-287" lat="30.343471" lon="-97.719233" changeset="false"><tag k="addr:street" v="Wolverine Street"/><tag k="addr:housenumber" v="7508"/><tag k="coa:place_id" v="5116802"/></node><node id="-288" lat="30.343908" lon="-97.720979" changeset="false"><tag k="addr:street" v="Wildcat Pass"/><tag k="addr:housenumber" v="7600"/><tag k="coa:place_id" v="5116853"/></node><node id="-289" lat="30.344134" lon="-97.720206" changeset="false"><tag k="addr:street" v="Wildcat Pass"/><tag k="addr:housenumber" v="7601"/><tag k="coa:place_id" v="5116867"/></node><node id="-290" lat="30.34439" lon="-97.7192" changeset="false"><tag k="addr:street" v="Wildcat Pass"/><tag k="addr:housenumber" v="7914"/><tag k="coa:place_id" v="5116883"/></node><node id="-291" lat="30.343689" lon="-97.716809" changeset="false"><tag k="addr:street" v="Sugar Magnolia Street"/><tag k="addr:housenumber" v="7601 1/2"/><tag k="coa:place_id" v="5097206"/></node><node id="-292" lat="30.350677" lon="-97.719751" changeset="false"><tag k="addr:street" v="West Anderson Lane"/><tag k="addr:housenumber" v="1309"/><tag k="coa:place_id" v="890756"/></node><node id="-293" lat="30.342734" lon="-97.717885" changeset="false"><tag k="addr:street" v="Cavalier Lane"/><tag k="addr:housenumber" v="904"/><tag k="coa:place_id" v="5068057"/></node><node id="-294" lat="30.342924" lon="-97.718272" changeset="false"><tag k="addr:street" v="Cavalier Lane"/><tag k="addr:housenumber" v="912"/><tag k="coa:place_id" v="5068061"/></node><node id="-295" lat="30.343033" lon="-97.717713" changeset="false"><tag k="addr:street" v="Banyon Street"/><tag k="addr:housenumber" v="905"/><tag k="coa:place_id" v="5068071"/></node><node id="-296" lat="30.343833" lon="-97.717733" changeset="false"><tag k="addr:street" v="Cannoneer Lane"/><tag k="addr:housenumber" v="913"/><tag k="coa:place_id" v="5068088"/></node><node id="-297" lat="30.343875" lon="-97.71783" changeset="false"><tag k="addr:street" v="Cannoneer Lane"/><tag k="addr:housenumber" v="915"/><tag k="coa:place_id" v="5068089"/></node><node id="-298" lat="30.343931" lon="-97.716949" changeset="false"><tag k="addr:street" v="Cannoneer Lane"/><tag k="addr:housenumber" v="900"/><tag k="coa:place_id" v="5068090"/></node><node id="-299" lat="30.343995" lon="-97.717083" changeset="false"><tag k="addr:street" v="Cannoneer Lane"/><tag k="addr:housenumber" v="904"/><tag k="coa:place_id" v="5068092"/></node><node id="-300" lat="30.344145" lon="-97.717384" changeset="false"><tag k="addr:street" v="Cannoneer Lane"/><tag k="addr:housenumber" v="912"/><tag k="coa:place_id" v="5068096"/></node><node id="-301" lat="30.343292" lon="-97.716598" changeset="false"><tag k="addr:street" v="Sugar Magnolia Street"/><tag k="addr:housenumber" v="7513"/><tag k="coa:place_id" v="5068117"/></node><node id="-302" lat="30.347011" lon="-97.715502" changeset="false"><tag k="addr:street" v="Stobaugh Street"/><tag k="addr:housenumber" v="913"/><tag k="coa:place_id" v="3390755"/></node><node id="-303" lat="30.34283" lon="-97.718077" changeset="false"><tag k="addr:street" v="Cavalier Lane"/><tag k="addr:housenumber" v="908"/><tag k="coa:place_id" v="5068059"/></node><node id="-304" lat="30.342883" lon="-97.718175" changeset="false"><tag k="addr:street" v="Cavalier Lane"/><tag k="addr:housenumber" v="910"/><tag k="coa:place_id" v="5068060"/></node><node id="-305" lat="30.343254" lon="-97.718193" changeset="false"><tag k="addr:street" v="Banyon Street"/><tag k="addr:housenumber" v="915"/><tag k="coa:place_id" v="5068076"/></node><node id="-306" lat="30.343265" lon="-97.717305" changeset="false"><tag k="addr:street" v="Banyon Street"/><tag k="addr:housenumber" v="900"/><tag k="coa:place_id" v="5068077"/></node><node id="-307" lat="30.343353" lon="-97.717486" changeset="false"><tag k="addr:street" v="Banyon Street"/><tag k="addr:housenumber" v="904"/><tag k="coa:place_id" v="5068079"/></node><node id="-308" lat="30.343963" lon="-97.717013" changeset="false"><tag k="addr:street" v="Cannoneer Lane"/><tag k="addr:housenumber" v="902"/><tag k="coa:place_id" v="5068091"/></node><node id="-309" lat="30.344215" lon="-97.71685" changeset="false"><tag k="addr:street" v="Mountaineer Lane"/><tag k="addr:housenumber" v="903"/><tag k="coa:place_id" v="5068101"/></node><node id="-310" lat="30.344475" lon="-97.717445" changeset="false"><tag k="addr:street" v="Mountaineer Lane"/><tag k="addr:housenumber" v="919"/><tag k="coa:place_id" v="5068109"/></node><node id="-311" lat="30.343438" lon="-97.715993" changeset="false"><tag k="addr:street" v="North Lamar Boulevard"/><tag k="addr:housenumber" v="7524"/><tag k="coa:place_id" v="744009"/></node><node id="-312" lat="30.34301" lon="-97.716723" changeset="false"><tag k="addr:street" v="Sugar Magnolia Street"/><tag k="addr:housenumber" v="7503"/><tag k="coa:place_id" v="5068113"/></node><node id="-313" lat="30.340797" lon="-97.717299" changeset="false"><tag k="addr:street" v="North Lamar Boulevard"/><tag k="addr:housenumber" v="7316 1/2"/><tag k="coa:place_id" v="3660983"/></node><node id="-314" lat="30.341182" lon="-97.718994" changeset="false"><tag k="addr:street" v="Easy Wind Drive"/><tag k="addr:housenumber" v="7300"/><tag k="coa:place_id" v="3773804"/></node><node id="-315" lat="30.34173" lon="-97.719114" changeset="false"><tag k="addr:street" v="Easy Wind Drive"/><tag k="addr:housenumber" v="7328"/><tag k="coa:place_id" v="3773811"/></node><node id="-316" lat="30.342167" lon="-97.719343" changeset="false"><tag k="addr:street" v="Sugaree Avenue"/><tag k="addr:housenumber" v="1008"/><tag k="coa:place_id" v="3773819"/></node><node id="-317" lat="30.342268" lon="-97.720236" changeset="false"><tag k="addr:street" v="Wolverine Street"/><tag k="addr:housenumber" v="7301"/><tag k="coa:place_id" v="3773834"/></node><node id="-318" lat="30.34234" lon="-97.719818" changeset="false"><tag k="addr:street" v="Wolverine Street"/><tag k="addr:housenumber" v="7321"/><tag k="coa:place_id" v="3773839"/></node><node id="-319" lat="30.342912" lon="-97.719136" changeset="false"><tag k="addr:street" v="Wolverine Street"/><tag k="addr:housenumber" v="7425"/><tag k="coa:place_id" v="3773849"/></node><node id="-320" lat="30.343118" lon="-97.719004" changeset="false"><tag k="addr:street" v="Wolverine Street"/><tag k="addr:housenumber" v="7505"/><tag k="coa:place_id" v="3773852"/></node><node id="-321" lat="30.347612" lon="-97.714225" changeset="false"><tag k="addr:street" v="North Lamar Boulevard"/><tag k="addr:housenumber" v="7866"/><tag k="coa:place_id" v="465579"/></node><node id="-322" lat="30.342581" lon="-97.719017" changeset="false"><tag k="addr:street" v="Easy Wind Drive"/><tag k="addr:housenumber" v="7424"/><tag k="coa:place_id" v="3773869"/></node><node id="-323" lat="30.342005" lon="-97.718105" changeset="false"><tag k="addr:street" v="Sugaree Avenue"/><tag k="addr:housenumber" v="900"/><tag k="coa:place_id" v="3773891"/></node><node id="-324" lat="30.342543" lon="-97.718391" changeset="false"><tag k="addr:street" v="Cavalier Lane"/><tag k="addr:housenumber" v="921"/><tag k="coa:place_id" v="3773923"/></node><node id="-325" lat="30.343513" lon="-97.71868" changeset="false"><tag k="addr:street" v="Banyon Street"/><tag k="addr:housenumber" v="1009"/><tag k="coa:place_id" v="3773934"/></node><node id="-326" lat="30.344623" lon="-97.716842" changeset="false"><tag k="addr:street" v="Morrow Street"/><tag k="addr:housenumber" v="909"/><tag k="coa:place_id" v="5091302"/></node><node id="-327" lat="30.344664" lon="-97.718065" changeset="false"><tag k="addr:street" v="Wolverine Street"/><tag k="addr:housenumber" v="7709"/><tag k="coa:place_id" v="5091351"/></node><node id="-328" lat="30.34384" lon="-97.718469" changeset="false"><tag k="addr:street" v="Banyon Street"/><tag k="addr:housenumber" v="1008"/><tag k="coa:place_id" v="5091357"/></node><node id="-329" lat="30.344267" lon="-97.71881" changeset="false"><tag k="addr:street" v="Wildcat Pass"/><tag k="addr:housenumber" v="8008"/><tag k="coa:place_id" v="5091360"/></node><node id="-330" lat="30.343793" lon="-97.719285" changeset="false"><tag k="addr:street" v="Wildcat Pass"/><tag k="addr:housenumber" v="8003"/><tag k="coa:place_id" v="5091368"/></node><node id="-331" lat="30.347194" lon="-97.71775" changeset="false"><tag k="addr:street" v="Watson Street"/><tag k="addr:housenumber" v="7704"/><tag k="coa:place_id" v="5096102"/></node><node id="-332" lat="30.343563" lon="-97.719518" changeset="false"><tag k="addr:street" v="Pantherpaw Street"/><tag k="addr:housenumber" v="7511"/><tag k="coa:place_id" v="5116758"/></node><node id="-333" lat="30.342125" lon="-97.720586" changeset="false"><tag k="addr:street" v="Wildcat Pass"/><tag k="addr:housenumber" v="7308"/><tag k="coa:place_id" v="5116763"/></node><node id="-334" lat="30.342933" lon="-97.719564" changeset="false"><tag k="addr:street" v="Wolverine Street"/><tag k="addr:housenumber" v="7410"/><tag k="coa:place_id" v="5116790"/></node><node id="-335" lat="30.343142" lon="-97.719434" changeset="false"><tag k="addr:street" v="Wolverine Street"/><tag k="addr:housenumber" v="7416"/><tag k="coa:place_id" v="5116793"/></node><node id="-336" lat="30.343208" lon="-97.719398" changeset="false"><tag k="addr:street" v="Wolverine Street"/><tag k="addr:housenumber" v="7500"/><tag k="coa:place_id" v="5116798"/></node><node id="-337" lat="30.34329" lon="-97.71936" changeset="false"><tag k="addr:street" v="Wolverine Street"/><tag k="addr:housenumber" v="7502"/><tag k="coa:place_id" v="5116799"/></node><node id="-338" lat="30.344143" lon="-97.719582" changeset="false"><tag k="addr:street" v="Pantherpaw Street"/><tag k="addr:housenumber" v="7518"/><tag k="coa:place_id" v="5116841"/></node><node id="-339" lat="30.344222" lon="-97.719532" changeset="false"><tag k="addr:street" v="Pantherpaw Street"/><tag k="addr:housenumber" v="7520"/><tag k="coa:place_id" v="5116842"/></node><node id="-340" lat="30.343404" lon="-97.71927" changeset="false"><tag k="addr:street" v="Wolverine Street"/><tag k="addr:housenumber" v="7506"/><tag k="coa:place_id" v="5116801"/></node><node id="-341" lat="30.343835" lon="-97.720969" changeset="false"><tag k="addr:street" v="Wildcat Pass"/><tag k="addr:housenumber" v="7516"/><tag k="coa:place_id" v="5116852"/></node><node id="-342" lat="30.344437" lon="-97.721052" changeset="false"><tag k="addr:street" v="Wildcat Pass"/><tag k="addr:housenumber" v="7614"/><tag k="coa:place_id" v="5116860"/></node><node id="-343" lat="30.34468" lon="-97.719779" changeset="false"><tag k="addr:street" v="Wildcat Pass"/><tag k="addr:housenumber" v="7810"/><tag k="coa:place_id" v="5116875"/></node><node id="-344" lat="30.34461" lon="-97.719645" changeset="false"><tag k="addr:street" v="Wildcat Pass"/><tag k="addr:housenumber" v="7902"/><tag k="coa:place_id" v="5116877"/></node><node id="-345" lat="30.344426" lon="-97.719272" changeset="false"><tag k="addr:street" v="Wildcat Pass"/><tag k="addr:housenumber" v="7912"/><tag k="coa:place_id" v="5116882"/></node><node id="-346" lat="30.343148" lon="-97.717289" changeset="false"><tag k="addr:street" v="Sugar Magnolia Street"/><tag k="addr:housenumber" v="7500 1/2"/><tag k="coa:place_id" v="5116013"/></node><node id="-347" lat="30.346021" lon="-97.719763" changeset="false"><tag k="addr:street" v="Morrow Street"/><tag k="addr:housenumber" v="1117"/><tag k="coa:place_id" v="889232"/></node><node id="-348" lat="30.347311" lon="-97.721385" changeset="false"><tag k="addr:street" v="Tisdale Drive"/><tag k="addr:housenumber" v="7601"/><tag k="coa:place_id" v="251495"/></node><node id="-349" lat="30.345601" lon="-97.717874" changeset="false"><tag k="addr:street" v="Morrow Street"/><tag k="addr:housenumber" v="1008"/><tag k="coa:place_id" v="889442"/></node><node id="-350" lat="30.34533" lon="-97.717288" changeset="false"><tag k="addr:street" v="Morrow Street"/><tag k="addr:housenumber" v="1000"/><tag k="coa:place_id" v="889466"/></node><node id="-351" lat="30.343537" lon="-97.717881" changeset="false"><tag k="addr:street" v="Banyon Street"/><tag k="addr:housenumber" v="912"/><tag k="coa:place_id" v="242227"/></node><node id="-352" lat="30.345309" lon="-97.714522" changeset="false"><tag k="addr:street" v="North Lamar Boulevard"/><tag k="addr:housenumber" v="7700"/><tag k="coa:place_id" v="625018"/></node><node id="-353" lat="30.344767" lon="-97.716191" changeset="false"><tag k="addr:street" v="Morrow Street"/><tag k="addr:housenumber" v="902"/><tag k="coa:place_id" v="889508"/></node><node id="-354" lat="30.346722" lon="-97.718123" changeset="false"><tag k="addr:street" v="Watson Street"/><tag k="addr:housenumber" v="7614"/><tag k="coa:place_id" v="889670"/></node><node id="-355" lat="30.346365" lon="-97.7143" changeset="false"><tag k="addr:street" v="Stobaugh Street"/><tag k="addr:housenumber" v="813"/><tag k="coa:place_id" v="3101337"/></node><node id="-356" lat="30.351776" lon="-97.722235" changeset="false"><tag k="addr:street" v="West Anderson Lane"/><tag k="addr:housenumber" v="1517"/><tag k="coa:place_id" v="891086"/></node><node id="-357" lat="30.347198" lon="-97.71987" changeset="false"><tag k="addr:street" v="Taulbee Lane"/><tag k="addr:housenumber" v="1207"/><tag k="coa:place_id" v="1112627"/></node><node id="-358" lat="30.346358" lon="-97.72045" changeset="false"><tag k="addr:street" v="Morrow Street"/><tag k="addr:housenumber" v="1201"/><tag k="coa:place_id" v="889238"/></node><node id="-359" lat="30.346485" lon="-97.714593" changeset="false"><tag k="addr:street" v="Stobaugh Street"/><tag k="addr:housenumber" v="827"/><tag k="coa:place_id" v="3101336"/></node><node id="-360" lat="30.346315" lon="-97.71455" changeset="false"><tag k="addr:street" v="North Lamar Boulevard"/><tag k="addr:housenumber" v="7720"/><tag k="coa:place_id" v="233641"/></node><node id="-361" lat="30.344352" lon="-97.715327" changeset="false"><tag k="addr:street" v="Morrow Street"/><tag k="addr:housenumber" v="810"/><tag k="coa:place_id" v="889556"/></node><node id="-362" lat="30.344375" lon="-97.71525" changeset="false"><tag k="addr:street" v="North Lamar Boulevard"/><tag k="addr:housenumber" v="7600"/><tag k="coa:place_id" v="236636"/></node><node id="-363" lat="30.347686" lon="-97.716968" changeset="false"><tag k="addr:street" v="Watson Street"/><tag k="addr:housenumber" v="7715"/><tag k="coa:place_id" v="252167"/></node><node id="-364" lat="30.347709" lon="-97.716853" changeset="false"><tag k="addr:street" v="Stobaugh Street"/><tag k="addr:housenumber" v="1015"/><tag k="coa:place_id" v="889922"/></node><node id="-365" lat="30.350905" lon="-97.721729" changeset="false"><tag k="addr:street" v="Northwest Drive"/><tag k="addr:housenumber" v="7806"/><tag k="coa:place_id" v="891068"/></node><node id="-366" lat="30.35085" lon="-97.721758" changeset="false"><tag k="addr:street" v="Northwest Drive"/><tag k="addr:housenumber" v="7804"/><tag k="coa:place_id" v="891062"/></node><node id="-367" lat="30.351234" lon="-97.722435" changeset="false"><tag k="addr:street" v="West Anderson Lane"/><tag k="addr:housenumber" v="1513"/><tag k="coa:place_id" v="271832"/></node><node id="-368" lat="30.350741" lon="-97.722326" changeset="false"><tag k="addr:street" v="West Anderson Lane"/><tag k="addr:housenumber" v="1503"/><tag k="coa:place_id" v="891116"/></node><node id="-369" lat="30.350977" lon="-97.722414" changeset="false"><tag k="addr:street" v="West Anderson Lane"/><tag k="addr:housenumber" v="1507"/><tag k="coa:place_id" v="891128"/></node><node id="-370" lat="30.350896" lon="-97.722405" changeset="false"><tag k="addr:street" v="West Anderson Lane"/><tag k="addr:housenumber" v="1505"/><tag k="coa:place_id" v="891122"/></node><node id="-371" lat="30.35114" lon="-97.722422" changeset="false"><tag k="addr:street" v="West Anderson Lane"/><tag k="addr:housenumber" v="1511"/><tag k="coa:place_id" v="891140"/></node><node id="-372" lat="30.351073" lon="-97.722401" changeset="false"><tag k="addr:street" v="West Anderson Lane"/><tag k="addr:housenumber" v="1509"/><tag k="coa:place_id" v="891134"/></node><node id="-373" lat="30.348272" lon="-97.718182" changeset="false"><tag k="addr:street" v="Stobaugh Street"/><tag k="addr:housenumber" v="1113"/><tag k="coa:place_id" v="890108"/></node><node id="-374" lat="30.348269" lon="-97.718067" changeset="false"><tag k="addr:street" v="Stobaugh Street"/><tag k="addr:housenumber" v="1115"/><tag k="coa:place_id" v="3364706"/></node><node id="-375" lat="30.346481" lon="-97.717768" changeset="false"><tag k="addr:street" v="Watson Street"/><tag k="addr:housenumber" v="7615"/><tag k="coa:place_id" v="889406"/></node><node id="-376" lat="30.346532" lon="-97.717733" changeset="false"><tag k="addr:street" v="Watson Street"/><tag k="addr:housenumber" v="7617"/><tag k="coa:place_id" v="889658"/></node><node id="-377" lat="30.348765" lon="-97.719285" changeset="false"><tag k="addr:street" v="Gault Street"/><tag k="addr:housenumber" v="7717"/><tag k="coa:place_id" v="245555"/></node><node id="-378" lat="30.34883" lon="-97.719242" changeset="false"><tag k="addr:street" v="Stobaugh Street"/><tag k="addr:housenumber" v="1213"/><tag k="coa:place_id" v="890138"/></node><node id="-379" lat="30.348612" lon="-97.719343" changeset="false"><tag k="addr:street" v="Gault Street"/><tag k="addr:housenumber" v="7715"/><tag k="coa:place_id" v="245554"/></node><node id="-380" lat="30.338771" lon="-97.719188" changeset="false"><tag k="addr:street" v="Easy Wind Drive"/><tag k="addr:housenumber" v="7101"/><tag k="coa:place_id" v="3351558"/></node><node id="-381" lat="30.33967" lon="-97.718948" changeset="false"><tag k="addr:street" v="West Saint John's Avenue"/><tag k="addr:housenumber" v="811"/><tag k="coa:place_id" v="3351561"/></node><node id="-382" lat="30.339429" lon="-97.718879" changeset="false"><tag k="addr:street" v="North Lamar Boulevard"/><tag k="addr:housenumber" v="7114"/><tag k="coa:place_id" v="236570"/></node><node id="-383" lat="30.339932" lon="-97.718569" changeset="false"><tag k="addr:street" v="West Saint John's Avenue"/><tag k="addr:housenumber" v="810"/><tag k="coa:place_id" v="3351563"/></node><node id="-384" lat="30.340454" lon="-97.718832" changeset="false"><tag k="addr:street" v="Easy Wind Drive"/><tag k="addr:housenumber" v="7211"/><tag k="coa:place_id" v="3351570"/></node><node id="-385" lat="30.340399" lon="-97.719602" changeset="false"><tag k="addr:street" v="Easy Wind Drive"/><tag k="addr:housenumber" v="7200 1/2"/><tag k="coa:place_id" v="3748436"/></node><node id="-386" lat="30.340508" lon="-97.719436" changeset="false"><tag k="addr:street" v="Easy Wind Drive"/><tag k="addr:housenumber" v="7200"/><tag k="coa:place_id" v="3390230"/></node></osm>