<?xml version="1.0" encoding="UTF-8"?><osm version="0.6" generator="github.com/aaronlidman/osm-and-geojson"><node id="-1" lat="30.395415" lon="-97.657679" changeset="false"><tag k="addr:street" v="Captain Hopkins Cove"/><tag k="addr:housenumber" v="12406"/><tag k="coa:place_id" v="61046"/></node><node id="-2" lat="30.397408" lon="-97.657921" changeset="false"><tag k="addr:street" v="Zeller Lane"/><tag k="addr:housenumber" v="12528"/><tag k="coa:place_id" v="214405"/></node><node id="-3" lat="30.404912" lon="-97.663563" changeset="false"><tag k="addr:street" v="East Parmer Lane"/><tag k="addr:housenumber" v="301"/><tag k="coa:place_id" v="208589"/></node><node id="-4" lat="30.396196" lon="-97.661525" changeset="false"><tag k="addr:street" v="Donovan Circle"/><tag k="addr:housenumber" v="12368"/><tag k="coa:place_id" v="154992"/></node><node id="-5" lat="30.396192" lon="-97.662377" changeset="false"><tag k="addr:street" v="Donovan Circle"/><tag k="addr:housenumber" v="12356"/><tag k="coa:place_id" v="154986"/></node><node id="-6" lat="30.39785" lon="-97.661527" changeset="false"><tag k="addr:street" v="Tech Ridge Boulevard"/><tag k="addr:housenumber" v="12501"/><tag k="coa:place_id" v="220824"/></node><node id="-7" lat="30.394503" lon="-97.661567" changeset="false"><tag k="addr:street" v="Zeller Lane"/><tag k="addr:housenumber" v="12329"/><tag k="coa:place_id" v="166438"/></node><node id="-8" lat="30.402618" lon="-97.67135" changeset="false"><tag k="addr:street" v="West Canyon Ridge Drive"/><tag k="addr:housenumber" v="401"/><tag k="coa:place_id" v="3106056"/></node><node id="-9" lat="30.398202" lon="-97.65842" changeset="false"><tag k="addr:street" v="Wethersby Way"/><tag k="addr:housenumber" v="12532"/><tag k="coa:place_id" v="214421"/></node><node id="-10" lat="30.396241" lon="-97.661827" changeset="false"><tag k="addr:street" v="Donovan Circle"/><tag k="addr:housenumber" v="12364"/><tag k="coa:place_id" v="154991"/></node><node id="-11" lat="30.39618" lon="-97.662078" changeset="false"><tag k="addr:street" v="Donovan Circle"/><tag k="addr:housenumber" v="12360"/><tag k="coa:place_id" v="154987"/></node><node id="-12" lat="30.397122" lon="-97.658204" changeset="false"><tag k="addr:street" v="Zeller Lane"/><tag k="addr:housenumber" v="12518"/><tag k="coa:place_id" v="214403"/></node><node id="-13" lat="30.398661" lon="-97.666471" changeset="false"><tag k="addr:street" v="Tech Ridge Boulevard"/><tag k="addr:housenumber" v="12431 1/2"/><tag k="coa:place_id" v="5214793"/></node><node id="-14" lat="30.391962" lon="-97.654985" changeset="false"><tag k="addr:street" v="Shropshire Boulevard"/><tag k="addr:housenumber" v="12320"/><tag k="coa:place_id" v="75394"/></node><node id="-15" lat="30.398029" lon="-97.657252" changeset="false"><tag k="addr:street" v="Wethersby Way"/><tag k="addr:housenumber" v="12569"/><tag k="coa:place_id" v="236855"/></node><node id="-16" lat="30.397954" lon="-97.656536" changeset="false"><tag k="addr:street" v="Copperfield Drive"/><tag k="addr:housenumber" v="12521 1/2"/><tag k="coa:place_id" v="3046042"/></node><node id="-17" lat="30.397854" lon="-97.658093" changeset="false"><tag k="addr:street" v="Wethersby Way"/><tag k="addr:housenumber" v="12529"/><tag k="coa:place_id" v="214433"/></node><node id="-18" lat="30.404276" lon="-97.674184" changeset="false"><tag k="addr:street" v="North Interstate Highway 35 Svc Rd; I- 35 Service Road North"/><tag k="addr:housenumber" v="12415"/><tag k="coa:place_id" v="3135516"/></node><node id="-19" lat="30.399136" lon="-97.655275" changeset="false"><tag k="addr:street" v="East Parmer Lane"/><tag k="addr:housenumber" v="1003 1/2"/><tag k="coa:place_id" v="3142577"/></node><node id="-20" lat="30.392508" lon="-97.660329" changeset="false"><tag k="addr:street" v="East Yager Lane"/><tag k="addr:housenumber" v="1000"/><tag k="coa:place_id" v="3051099"/></node><node id="-21" lat="30.395194" lon="-97.662145" changeset="false"><tag k="addr:street" v="Donovan Circle"/><tag k="addr:housenumber" v="12341"/><tag k="coa:place_id" v="154999"/></node><node id="-22" lat="30.397274" lon="-97.6581" changeset="false"><tag k="addr:street" v="Zeller Lane"/><tag k="addr:housenumber" v="12524"/><tag k="coa:place_id" v="214404"/></node><node id="-23" lat="30.398806" lon="-97.668763" changeset="false"><tag k="addr:street" v="Tech Ridge Boulevard"/><tag k="addr:housenumber" v="12401 1/2"/><tag k="coa:place_id" v="3185309"/></node><node id="-24" lat="30.39777" lon="-97.65868" changeset="false"><tag k="addr:street" v="Wethersby Way"/><tag k="addr:housenumber" v="12520"/><tag k="coa:place_id" v="214424"/></node><node id="-25" lat="30.403021" lon="-97.673658" changeset="false"><tag k="addr:street" v="West Canyon Ridge Drive"/><tag k="addr:housenumber" v="605"/><tag k="coa:place_id" v="3333764"/></node><node id="-26" lat="30.398694" lon="-97.668148" changeset="false"><tag k="addr:street" v="Tech Ridge Boulevard"/><tag k="addr:housenumber" v="12427"/><tag k="coa:place_id" v="3430134"/></node><node id="-27" lat="30.395624" lon="-97.660746" changeset="false"><tag k="addr:street" v="Zeller Lane"/><tag k="addr:housenumber" v="12401"/><tag k="coa:place_id" v="154948"/></node><node id="-28" lat="30.395878" lon="-97.660276" changeset="false"><tag k="addr:street" v="Zeller Lane"/><tag k="addr:housenumber" v="12413"/><tag k="coa:place_id" v="154967"/></node><node id="-29" lat="30.400146" lon="-97.658516" changeset="false"><tag k="addr:street" v="Tech Ridge Boulevard"/><tag k="addr:housenumber" v="12601"/><tag k="coa:place_id" v="256427"/></node><node id="-30" lat="30.401031" lon="-97.656523" changeset="false"><tag k="addr:street" v="East Parmer Lane"/><tag k="addr:housenumber" v="901 1/2"/><tag k="coa:place_id" v="1120867"/></node><node id="-31" lat="30.38982" lon="-97.65566" changeset="false"><tag k="addr:street" v="Little Fatima Lane"/><tag k="addr:housenumber" v="12203"/><tag k="coa:place_id" v="422932"/></node><node id="-32" lat="30.398352" lon="-97.658334" changeset="false"><tag k="addr:street" v="Wethersby Way"/><tag k="addr:housenumber" v="12536"/><tag k="coa:place_id" v="214419"/></node><node id="-33" lat="30.394969" lon="-97.658064" changeset="false"><tag k="addr:street" v="Uttimer Lane"/><tag k="addr:housenumber" v="12403"/><tag k="coa:place_id" v="65208"/></node><node id="-34" lat="30.39497" lon="-97.663033" changeset="false"><tag k="addr:street" v="Donovan Circle"/><tag k="addr:housenumber" v="12328"/><tag k="coa:place_id" v="154978"/></node><node id="-35" lat="30.3911" lon="-97.653517" changeset="false"><tag k="addr:street" v="Little Fatima Lane"/><tag k="addr:housenumber" v="12327"/><tag k="coa:place_id" v="263296"/></node><node id="-36" lat="30.398654" lon="-97.655179" changeset="false"><tag k="addr:street" v="East Parmer Lane"/><tag k="addr:housenumber" v="1021"/><tag k="coa:place_id" v="3364929"/></node><node id="-37" lat="30.398272" lon="-97.657784" changeset="false"><tag k="addr:street" v="Wethersby Way"/><tag k="addr:housenumber" v="12541"/><tag k="coa:place_id" v="256590"/></node><node id="-38" lat="30.396778" lon="-97.658039" changeset="false"><tag k="addr:street" v="Zeller Lane"/><tag k="addr:housenumber" v="12517"/><tag k="coa:place_id" v="214391"/></node><node id="-39" lat="30.396623" lon="-97.65626" changeset="false"><tag k="addr:street" v="Fallen Tower Lane"/><tag k="addr:housenumber" v="12517"/><tag k="coa:place_id" v="60991"/></node><node id="-40" lat="30.394929" lon="-97.662377" changeset="false"><tag k="addr:street" v="Donovan Circle"/><tag k="addr:housenumber" v="12333"/><tag k="coa:place_id" v="154997"/></node><node id="-41" lat="30.395136" lon="-97.662945" changeset="false"><tag k="addr:street" v="Donovan Circle"/><tag k="addr:housenumber" v="12332"/><tag k="coa:place_id" v="154979"/></node><node id="-42" lat="30.396807" lon="-97.66746" changeset="false"><tag k="addr:street" v="East Yager Lane"/><tag k="addr:housenumber" v="304"/><tag k="coa:place_id" v="3132825"/></node><node id="-43" lat="30.395944" lon="-97.666316" changeset="false"><tag k="addr:street" v="East Yager Lane"/><tag k="addr:housenumber" v="400"/><tag k="coa:place_id" v="190461"/></node><node id="-44" lat="30.395613" lon="-97.656888" changeset="false"><tag k="addr:street" v="Chestle Court"/><tag k="addr:housenumber" v="12501"/><tag k="coa:place_id" v="61053"/></node><node id="-45" lat="30.39676" lon="-97.658758" changeset="false"><tag k="addr:street" v="Wethersby Way"/><tag k="addr:housenumber" v="12501"/><tag k="coa:place_id" v="229049"/></node><node id="-46" lat="30.40276" lon="-97.672224" changeset="false"><tag k="addr:street" v="West Canyon Ridge Drive"/><tag k="addr:housenumber" v="501"/><tag k="coa:place_id" v="3388362"/></node><node id="-47" lat="30.398861" lon="-97.670851" changeset="false"><tag k="addr:street" v="Tech Ridge Boulevard"/><tag k="addr:housenumber" v="12213"/><tag k="coa:place_id" v="3430135"/></node><node id="-48" lat="30.391624" lon="-97.653696" changeset="false"><tag k="addr:street" v="Little Fatima Lane"/><tag k="addr:housenumber" v="12335"/><tag k="coa:place_id" v="263404"/></node><node id="-49" lat="30.396658" lon="-97.663742" changeset="false"><tag k="addr:street" v="Tech Ridge Boulevard"/><tag k="addr:housenumber" v="12443"/><tag k="coa:place_id" v="3031209"/></node><node id="-50" lat="30.395889" lon="-97.666211" changeset="false"><tag k="addr:street" v="East Yager Lane"/><tag k="addr:housenumber" v="402"/><tag k="coa:place_id" v="221269"/></node><node id="-51" lat="30.39701" lon="-97.657712" changeset="false"><tag k="addr:street" v="Zeller Lane"/><tag k="addr:housenumber" v="12525"/><tag k="coa:place_id" v="214393"/></node><node id="-52" lat="30.405813" lon="-97.670304" changeset="false"><tag k="addr:street" v="East Parmer Lane,1100"/><tag k="addr:housenumber" v="401"/><tag k="coa:place_id" v="3087613"/></node><node id="-53" lat="30.39932" lon="-97.65531" changeset="false"><tag k="addr:street" v="East Parmer Lane"/><tag k="addr:housenumber" v="1001"/><tag k="coa:place_id" v="256518"/></node><node id="-54" lat="30.398539" lon="-97.663883" changeset="false"><tag k="addr:street" v="Tech Ridge Boulevard"/><tag k="addr:housenumber" v="12439 1/2"/><tag k="coa:place_id" v="3220065"/></node><node id="-55" lat="30.399477" lon="-97.670876" changeset="false"><tag k="addr:street" v="Tech Ridge Boulevard"/><tag k="addr:housenumber" v="12212"/><tag k="coa:place_id" v="3430136"/></node><node id="-56" lat="30.404068" lon="-97.663231" changeset="false"><tag k="addr:street" v="East Parmer Lane"/><tag k="addr:housenumber" v="319"/><tag k="coa:place_id" v="1119367"/></node><node id="-57" lat="30.394337" lon="-97.661655" changeset="false"><tag k="addr:street" v="Zeller Lane"/><tag k="addr:housenumber" v="12325"/><tag k="coa:place_id" v="154957"/></node><node id="-58" lat="30.393521" lon="-97.661996" changeset="false"><tag k="addr:street" v="Zeller Lane"/><tag k="addr:housenumber" v="12305"/><tag k="coa:place_id" v="188352"/></node><node id="-59" lat="30.397805" lon="-97.654913" changeset="false"><tag k="addr:street" v="East Parmer Lane"/><tag k="addr:housenumber" v="1101"/><tag k="coa:place_id" v="1104868"/></node><node id="-60" lat="30.398501" lon="-97.65823" changeset="false"><tag k="addr:street" v="Wethersby Way"/><tag k="addr:housenumber" v="12540"/><tag k="coa:place_id" v="214418"/></node><node id="-61" lat="30.399948" lon="-97.667844" changeset="false"><tag k="addr:street" v="West Canyon Ridge Drive"/><tag k="addr:housenumber" v="200"/><tag k="coa:place_id" v="3319870"/></node><node id="-62" lat="30.405024" lon="-97.666035" changeset="false"><tag k="addr:street" v="East Parmer Lane"/><tag k="addr:housenumber" v="201 1/2"/><tag k="coa:place_id" v="5104003"/></node><node id="-63" lat="30.401573" lon="-97.66964" changeset="false"><tag k="addr:street" v="West Canyon Ridge Drive"/><tag k="addr:housenumber" v="235 1/2"/><tag k="coa:place_id" v="3267210"/></node><node id="-64" lat="30.390803" lon="-97.658016" changeset="false"><tag k="addr:street" v="East Yager Lane"/><tag k="addr:housenumber" v="1112"/><tag k="coa:place_id" v="3283306"/></node><node id="-65" lat="30.399438" lon="-97.669749" changeset="false"><tag k="addr:street" v="Tech Ridge Boulevard"/><tag k="addr:housenumber" v="12316"/><tag k="coa:place_id" v="3430137"/></node><node id="-66" lat="30.395259" lon="-97.662771" changeset="false"><tag k="addr:street" v="Donovan Circle"/><tag k="addr:housenumber" v="12336"/><tag k="coa:place_id" v="154980"/></node><node id="-67" lat="30.39478" lon="-97.658005" changeset="false"><tag k="addr:street" v="Uttimer Lane"/><tag k="addr:housenumber" v="12401"/><tag k="coa:place_id" v="137122"/></node><node id="-68" lat="30.395909" lon="-97.660955" changeset="false"><tag k="addr:street" v="Zeller Lane"/><tag k="addr:housenumber" v="12400"/><tag k="coa:place_id" v="190218"/></node><node id="-69" lat="30.403513" lon="-97.672041" changeset="false"><tag k="addr:street" v="West Canyon Ridge Drive"/><tag k="addr:housenumber" v="500 1/2"/><tag k="coa:place_id" v="3095113"/></node><node id="-70" lat="30.406405" lon="-97.673992" changeset="false"><tag k="addr:street" v="North Interstate Highway 35 Svc Rd; I- 35 Service Road North"/><tag k="addr:housenumber" v="12521"/><tag k="coa:place_id" v="3100070"/></node><node id="-71" lat="30.394085" lon="-97.662918" changeset="false"><tag k="addr:street" v="Donovan Circle"/><tag k="addr:housenumber" v="12312"/><tag k="coa:place_id" v="155008"/></node><node id="-72" lat="30.396192" lon="-97.660817" changeset="false"><tag k="addr:street" v="Zeller Lane"/><tag k="addr:housenumber" v="12404"/><tag k="coa:place_id" v="154995"/></node><node id="-73" lat="30.395248" lon="-97.661163" changeset="false"><tag k="addr:street" v="Zeller Lane"/><tag k="addr:housenumber" v="12345"/><tag k="coa:place_id" v="154961"/></node><node id="-74" lat="30.394204" lon="-97.658056" changeset="false"><tag k="addr:street" v="Uttimer Lane"/><tag k="addr:housenumber" v="12317"/><tag k="coa:place_id" v="65209"/></node><node id="-75" lat="30.406947" lon="-97.673281" changeset="false"><tag k="addr:street" v="East Parmer Lane,1100"/><tag k="addr:housenumber" v="815"/><tag k="coa:place_id" v="3115686"/></node><node id="-76" lat="30.394851" lon="-97.663102" changeset="false"><tag k="addr:street" v="Donovan Circle"/><tag k="addr:housenumber" v="12324"/><tag k="coa:place_id" v="154977"/></node><node id="-77" lat="30.388326" lon="-97.651701" changeset="false"><tag k="addr:street" v="East Yager Lane"/><tag k="addr:housenumber" v="1508"/><tag k="coa:place_id" v="252948"/></node><node id="-78" lat="30.391498" lon="-97.653614" changeset="false"><tag k="addr:street" v="Little Fatima Lane"/><tag k="addr:housenumber" v="12333"/><tag k="coa:place_id" v="265768"/></node><node id="-79" lat="30.391351" lon="-97.65356" changeset="false"><tag k="addr:street" v="Little Fatima Lane"/><tag k="addr:housenumber" v="12331"/><tag k="coa:place_id" v="265996"/></node><node id="-80" lat="30.394432" lon="-97.663213" changeset="false"><tag k="addr:street" v="Donovan Circle"/><tag k="addr:housenumber" v="12316"/><tag k="coa:place_id" v="155007"/></node><node id="-81" lat="30.39462" lon="-97.662466" changeset="false"><tag k="addr:street" v="Donovan Circle"/><tag k="addr:housenumber" v="12325"/><tag k="coa:place_id" v="179226"/></node><node id="-82" lat="30.392693" lon="-97.654633" changeset="false"><tag k="addr:street" v="Shropshire Boulevard"/><tag k="addr:housenumber" v="12329"/><tag k="coa:place_id" v="139055"/></node><node id="-83" lat="30.392022" lon="-97.654041" changeset="false"><tag k="addr:street" v="Little Fatima Lane"/><tag k="addr:housenumber" v="12341"/><tag k="coa:place_id" v="296266"/></node><node id="-84" lat="30.404057" lon="-97.661613" changeset="false"><tag k="addr:street" v="East Parmer Lane"/><tag k="addr:housenumber" v="401"/><tag k="coa:place_id" v="200395"/></node><node id="-85" lat="30.391242" lon="-97.653443" changeset="false"><tag k="addr:street" v="Little Fatima Lane"/><tag k="addr:housenumber" v="12329"/><tag k="coa:place_id" v="263278"/></node><node id="-86" lat="30.395916" lon="-97.662479" changeset="false"><tag k="addr:street" v="Donovan Circle"/><tag k="addr:housenumber" v="12352"/><tag k="coa:place_id" v="154985"/></node><node id="-87" lat="30.396144" lon="-97.661138" changeset="false"><tag k="addr:street" v="Donovan Circle"/><tag k="addr:housenumber" v="12372"/><tag k="coa:place_id" v="154993"/></node><node id="-88" lat="30.396091" lon="-97.65951" changeset="false"><tag k="addr:street" v="Zeller Lane"/><tag k="addr:housenumber" v="12427"/><tag k="coa:place_id" v="188353"/></node><node id="-89" lat="30.39378" lon="-97.659475" changeset="false"><tag k="addr:street" v="Chillip Cove"/><tag k="addr:housenumber" v="1001"/><tag k="coa:place_id" v="65179"/></node><node id="-90" lat="30.38802" lon="-97.652817" changeset="false"><tag k="addr:street" v="East Yager Lane"/><tag k="addr:housenumber" v="1438"/><tag k="coa:place_id" v="3372792"/></node><node id="-91" lat="30.39196" lon="-97.657795" changeset="false"><tag k="addr:street" v="Little Emily Way"/><tag k="addr:housenumber" v="12310"/><tag k="coa:place_id" v="452266"/></node><node id="-92" lat="30.391951" lon="-97.657751" changeset="false"><tag k="addr:street" v="Little Emily Way"/><tag k="addr:housenumber" v="12310 1/2"/><tag k="coa:place_id" v="3208524"/></node></osm>