<?xml version="1.0" encoding="UTF-8"?><osm version="0.6" generator="github.com/aaronlidman/osm-and-geojson"><node id="-1" lat="30.230969" lon="-97.711198" changeset="false"><tag k="addr:street" v="Summer Circle"/><tag k="addr:housenumber" v="5407"/><tag k="coa:place_id" v="154684"/></node><node id="-2" lat="30.231385" lon="-97.714396" changeset="false"><tag k="addr:street" v="River Crossing Circle"/><tag k="addr:housenumber" v="1817"/><tag k="coa:place_id" v="92575"/></node><node id="-3" lat="30.231981" lon="-97.711884" changeset="false"><tag k="addr:street" v="Summer Drive"/><tag k="addr:housenumber" v="5241"/><tag k="coa:place_id" v="1021101"/></node><node id="-4" lat="30.22839" lon="-97.708942" changeset="false"><tag k="addr:street" v="East Riverside Drive"/><tag k="addr:housenumber" v="5700"/><tag k="coa:place_id" v="3034218"/></node><node id="-5" lat="30.234921" lon="-97.721268" changeset="false"><tag k="addr:street" v="South Pleasant Valley Road"/><tag k="addr:housenumber" v="1819 1/2"/><tag k="coa:place_id" v="3096747"/></node><node id="-6" lat="30.230273" lon="-97.706852" changeset="false"><tag k="addr:street" v="Grove Boulevard"/><tag k="addr:housenumber" v="1600"/><tag k="coa:place_id" v="3042801"/></node><node id="-7" lat="30.230777" lon="-97.713347" changeset="false"><tag k="addr:street" v="River Crossing Circle"/><tag k="addr:housenumber" v="1850"/><tag k="coa:place_id" v="996633"/></node><node id="-8" lat="30.232096" lon="-97.716876" changeset="false"><tag k="addr:street" v="Crossing Place"/><tag k="addr:housenumber" v="1901"/><tag k="coa:place_id" v="3079274"/></node><node id="-9" lat="30.231613" lon="-97.712151" changeset="false"><tag k="addr:street" v="Summer Circle"/><tag k="addr:housenumber" v="5302"/><tag k="coa:place_id" v="1008681"/></node><node id="-10" lat="30.228421" lon="-97.709893" changeset="false"><tag k="addr:street" v="East Riverside Drive"/><tag k="addr:housenumber" v="5602"/><tag k="coa:place_id" v="3034217"/></node><node id="-11" lat="30.228359" lon="-97.709427" changeset="false"><tag k="addr:street" v="East Riverside Drive"/><tag k="addr:housenumber" v="5604"/><tag k="coa:place_id" v="3034219"/></node><node id="-12" lat="30.235978" lon="-97.718586" changeset="false"><tag k="addr:street" v="Wickersham Lane"/><tag k="addr:housenumber" v="1600"/><tag k="coa:place_id" v="198083"/></node><node id="-13" lat="30.237261" lon="-97.720348" changeset="false"><tag k="addr:street" v="South Pleasant Valley Road"/><tag k="addr:housenumber" v="1607"/><tag k="coa:place_id" v="51394"/></node><node id="-14" lat="30.23313" lon="-97.71545" changeset="false"><tag k="addr:street" v="Crossing Place"/><tag k="addr:housenumber" v="1705"/><tag k="coa:place_id" v="858393"/></node><node id="-15" lat="30.233477" lon="-97.711689" changeset="false"><tag k="addr:street" v="Faro Drive"/><tag k="addr:housenumber" v="1601"/><tag k="coa:place_id" v="850347"/></node><node id="-16" lat="30.234338" lon="-97.713981" changeset="false"><tag k="addr:street" v="Faro Drive"/><tag k="addr:housenumber" v="1500"/><tag k="coa:place_id" v="152905"/></node><node id="-17" lat="30.234456" lon="-97.721625" changeset="false"><tag k="addr:street" v="South Pleasant Valley Road"/><tag k="addr:housenumber" v="1825"/><tag k="coa:place_id" v="5066298"/></node><node id="-18" lat="30.231106" lon="-97.710094" changeset="false"><tag k="addr:street" v="Whitney Way"/><tag k="addr:housenumber" v="1703"/><tag k="coa:place_id" v="209968"/></node><node id="-19" lat="30.235132" lon="-97.720155" changeset="false"><tag k="addr:street" v="South Pleasant Valley Road"/><tag k="addr:housenumber" v="1717"/><tag k="coa:place_id" v="363220"/></node><node id="-20" lat="30.233549" lon="-97.721161" changeset="false"><tag k="addr:street" v="East Riverside Drive"/><tag k="addr:housenumber" v="4410"/><tag k="coa:place_id" v="363448"/></node><node id="-21" lat="30.237744" lon="-97.720042" changeset="false"><tag k="addr:street" v="South Pleasant Valley Road"/><tag k="addr:housenumber" v="1531"/><tag k="coa:place_id" v="51388"/></node><node id="-22" lat="30.236664" lon="-97.720727" changeset="false"><tag k="addr:street" v="South Pleasant Valley Road"/><tag k="addr:housenumber" v="1701"/><tag k="coa:place_id" v="51986"/></node><node id="-23" lat="30.232251" lon="-97.710606" changeset="false"><tag k="addr:street" v="Summer Drive"/><tag k="addr:housenumber" v="5316"/><tag k="coa:place_id" v="250198"/></node><node id="-24" lat="30.23085" lon="-97.710222" changeset="false"><tag k="addr:street" v="Whitney Way"/><tag k="addr:housenumber" v="1707"/><tag k="coa:place_id" v="187984"/></node><node id="-25" lat="30.230914" lon="-97.711022" changeset="false"><tag k="addr:street" v="Summer Circle"/><tag k="addr:housenumber" v="5409"/><tag k="coa:place_id" v="1008867"/></node></osm>