<?xml version="1.0" encoding="UTF-8"?><osm version="0.6" generator="github.com/aaronlidman/osm-and-geojson"><node id="-1" lat="30.4489" lon="-97.757235" changeset="false"><tag k="addr:street" v="Elkhorn Mountain Trail"/><tag k="addr:housenumber" v="7617"/><tag k="addr:postcode" v="78729"/></node><node id="-2" lat="30.45099" lon="-97.756531" changeset="false"><tag k="addr:street" v="Windrush Drive"/><tag k="addr:housenumber" v="7613"/><tag k="addr:postcode" v="78729"/></node><node id="-3" lat="30.452969" lon="-97.751788" changeset="false"><tag k="addr:street" v="Peabody Drive"/><tag k="addr:housenumber" v="7429"/><tag k="addr:postcode" v="78729"/></node><node id="-4" lat="30.455356" lon="-97.753576" changeset="false"><tag k="addr:street" v="Tamayo Drive"/><tag k="addr:housenumber" v="13445"/><tag k="addr:postcode" v="78729"/></node><node id="-5" lat="30.453191" lon="-97.752199" changeset="false"><tag k="addr:street" v="Peabody Drive"/><tag k="addr:housenumber" v="7437"/><tag k="addr:postcode" v="78729"/></node><node id="-6" lat="30.455442" lon="-97.753622" changeset="false"><tag k="addr:street" v="Tamayo Drive"/><tag k="addr:housenumber" v="13441"/><tag k="addr:postcode" v="78729"/></node><node id="-7" lat="30.455607" lon="-97.753336" changeset="false"><tag k="addr:street" v="Peabody Drive"/><tag k="addr:housenumber" v="7717"/><tag k="addr:postcode" v="78729"/></node><node id="-8" lat="30.455654" lon="-97.753233" changeset="false"><tag k="addr:street" v="Peabody Drive"/><tag k="addr:housenumber" v="7715"/><tag k="addr:postcode" v="78729"/></node></osm>