<?xml version="1.0" encoding="UTF-8"?><osm version="0.6" generator="github.com/aaronlidman/osm-and-geojson"><node id="-1" lat="30.463872" lon="-97.810538" changeset="false"><tag k="addr:street" v="Ranch Road 620"/><tag k="addr:housenumber" v="12401 1/2"/><tag k="addr:postcode" v="78750"/></node><node id="-2" lat="30.463536" lon="-97.804919" changeset="false"><tag k="addr:street" v="Split Rail Parkway"/><tag k="addr:housenumber" v="12509"/><tag k="addr:postcode" v="78750"/></node><node id="-3" lat="30.466904" lon="-97.798894" changeset="false"><tag k="addr:street" v="Ranch Road 620"/><tag k="addr:housenumber" v="13003"/><tag k="addr:postcode" v="78750"/></node><node id="-4" lat="30.466423" lon="-97.800837" changeset="false"><tag k="addr:street" v="Ranch Road 620"/><tag k="addr:housenumber" v="12841"/><tag k="addr:postcode" v="78750"/></node><node id="-5" lat="30.462197" lon="-97.800879" changeset="false"><tag k="addr:street" v="Jen Lane"/><tag k="addr:housenumber" v="12504"/><tag k="addr:postcode" v="78750"/></node><node id="-6" lat="30.462702" lon="-97.801519" changeset="false"><tag k="addr:street" v="Brycen Court"/><tag k="addr:housenumber" v="12701"/><tag k="addr:postcode" v="78750"/></node><node id="-7" lat="30.461821" lon="-97.802431" changeset="false"><tag k="addr:street" v="Piper Court"/><tag k="addr:housenumber" v="12504"/><tag k="addr:postcode" v="78750"/></node><node id="-8" lat="30.462206" lon="-97.800344" changeset="false"><tag k="addr:street" v="Ellen Court"/><tag k="addr:housenumber" v="12500"/><tag k="addr:postcode" v="78750"/></node><node id="-9" lat="30.462249" lon="-97.802821" changeset="false"><tag k="addr:street" v="Minter Court"/><tag k="addr:housenumber" v="10900"/><tag k="addr:postcode" v="78750"/></node><node id="-10" lat="30.462293" lon="-97.802911" changeset="false"><tag k="addr:street" v="Minter Court"/><tag k="addr:housenumber" v="10904"/><tag k="addr:postcode" v="78750"/></node><node id="-11" lat="30.466113" lon="-97.803081" changeset="false"><tag k="addr:street" v="Ranch Road 620"/><tag k="addr:housenumber" v="12815"/><tag k="addr:postcode" v="78750"/></node><node id="-12" lat="30.466754" lon="-97.799385" changeset="false"><tag k="addr:street" v="Ranch Road 620"/><tag k="addr:housenumber" v="13001"/><tag k="addr:postcode" v="78750"/></node><node id="-13" lat="30.465964" lon="-97.80343" changeset="false"><tag k="addr:street" v="Ranch Road 620"/><tag k="addr:housenumber" v="12801 1/2"/><tag k="addr:postcode" v="78750"/></node><node id="-14" lat="30.467092" lon="-97.798397" changeset="false"><tag k="addr:street" v="Ranch Road 620"/><tag k="addr:housenumber" v="13005"/><tag k="addr:postcode" v="78750"/></node><node id="-15" lat="30.462269" lon="-97.800601" changeset="false"><tag k="addr:street" v="Jen Lane"/><tag k="addr:housenumber" v="12505"/><tag k="addr:postcode" v="78750"/></node><node id="-16" lat="30.462563" lon="-97.799054" changeset="false"><tag k="addr:street" v="Luke Court"/><tag k="addr:housenumber" v="10505"/><tag k="addr:postcode" v="78750"/></node><node id="-17" lat="30.462445" lon="-97.799828" changeset="false"><tag k="addr:street" v="Charlies Lane"/><tag k="addr:housenumber" v="12504"/><tag k="addr:postcode" v="78750"/></node><node id="-18" lat="30.462521" lon="-97.799514" changeset="false"><tag k="addr:street" v="Charlies Lane"/><tag k="addr:housenumber" v="12505"/><tag k="addr:postcode" v="78750"/></node><node id="-19" lat="30.461938" lon="-97.801915" changeset="false"><tag k="addr:street" v="Pranav Lane"/><tag k="addr:housenumber" v="12504"/><tag k="addr:postcode" v="78750"/></node><node id="-20" lat="30.461789" lon="-97.802106" changeset="false"><tag k="addr:street" v="Piper Court"/><tag k="addr:housenumber" v="12501"/><tag k="addr:postcode" v="78750"/></node><node id="-21" lat="30.461886" lon="-97.802142" changeset="false"><tag k="addr:street" v="Piper Court"/><tag k="addr:housenumber" v="12505"/><tag k="addr:postcode" v="78750"/></node><node id="-22" lat="30.461993" lon="-97.802172" changeset="false"><tag k="addr:street" v="Piper Court"/><tag k="addr:housenumber" v="12509"/><tag k="addr:postcode" v="78750"/></node><node id="-23" lat="30.461636" lon="-97.803271" changeset="false"><tag k="addr:street" v="Orson Court"/><tag k="addr:housenumber" v="10905"/><tag k="addr:postcode" v="78750"/></node><node id="-24" lat="30.462854" lon="-97.80217" changeset="false"><tag k="addr:street" v="Champ Court"/><tag k="addr:housenumber" v="10804"/><tag k="addr:postcode" v="78750"/></node><node id="-25" lat="30.460516" lon="-97.804488" changeset="false"><tag k="addr:street" v="School House Lane"/><tag k="addr:housenumber" v="10702"/><tag k="addr:postcode" v="78750"/></node><node id="-26" lat="30.463762" lon="-97.800663" changeset="false"><tag k="addr:street" v="Pecan Park Boulevard"/><tag k="addr:housenumber" v="10703"/><tag k="addr:postcode" v="78750"/></node><node id="-27" lat="30.465624" lon="-97.803314" changeset="false"><tag k="addr:street" v="Ranch Road 620"/><tag k="addr:housenumber" v="12801"/><tag k="addr:postcode" v="78750"/></node><node id="-28" lat="30.467335" lon="-97.798089" changeset="false"><tag k="addr:street" v="Ranch Road 620"/><tag k="addr:housenumber" v="13007"/><tag k="addr:postcode" v="78750"/></node><node id="-29" lat="30.464237" lon="-97.803585" changeset="false"><tag k="addr:street" v="Pecan Park Boulevard"/><tag k="addr:housenumber" v="10903 1/2"/><tag k="addr:postcode" v="78750"/></node><node id="-30" lat="30.463464" lon="-97.802283" changeset="false"><tag k="addr:street" v="Pecan Park Boulevard"/><tag k="addr:housenumber" v="10807"/><tag k="addr:postcode" v="78750"/></node><node id="-31" lat="30.464727" lon="-97.796985" changeset="false"><tag k="addr:street" v="Pecan Park Boulevard"/><tag k="addr:housenumber" v="10503"/><tag k="addr:postcode" v="78750"/></node><node id="-32" lat="30.460158" lon="-97.799096" changeset="false"><tag k="addr:street" v="Mellow Meadows"/><tag k="addr:housenumber" v="10507"/><tag k="addr:postcode" v="78750"/></node><node id="-33" lat="30.462471" lon="-97.80271" changeset="false"><tag k="addr:street" v="Vetters Court"/><tag k="addr:housenumber" v="10901"/><tag k="addr:postcode" v="78750"/></node><node id="-34" lat="30.462711" lon="-97.802687" changeset="false"><tag k="addr:street" v="Vetters Court"/><tag k="addr:housenumber" v="10904"/><tag k="addr:postcode" v="78750"/></node><node id="-35" lat="30.462631" lon="-97.802309" changeset="false"><tag k="addr:street" v="Champ Court"/><tag k="addr:housenumber" v="10805"/><tag k="addr:postcode" v="78750"/></node><node id="-36" lat="30.4625" lon="-97.800083" changeset="false"><tag k="addr:street" v="Ellen Court"/><tag k="addr:housenumber" v="12509"/><tag k="addr:postcode" v="78750"/></node><node id="-37" lat="30.462526" lon="-97.799169" changeset="false"><tag k="addr:street" v="Luke Court"/><tag k="addr:housenumber" v="10509"/><tag k="addr:postcode" v="78750"/></node><node id="-38" lat="30.461962" lon="-97.801369" changeset="false"><tag k="addr:street" v="Kate Lane"/><tag k="addr:housenumber" v="12500"/><tag k="addr:postcode" v="78750"/></node><node id="-39" lat="30.462162" lon="-97.801437" changeset="false"><tag k="addr:street" v="Kate Lane"/><tag k="addr:housenumber" v="12508"/><tag k="addr:postcode" v="78750"/></node><node id="-40" lat="30.462671" lon="-97.801809" changeset="false"><tag k="addr:street" v="Brycen Court"/><tag k="addr:housenumber" v="12700"/><tag k="addr:postcode" v="78750"/></node><node id="-41" lat="30.462876" lon="-97.801842" changeset="false"><tag k="addr:street" v="Brycen Court"/><tag k="addr:housenumber" v="12708"/><tag k="addr:postcode" v="78750"/></node><node id="-42" lat="30.462007" lon="-97.801617" changeset="false"><tag k="addr:street" v="Pranav Lane"/><tag k="addr:housenumber" v="12505"/><tag k="addr:postcode" v="78750"/></node><node id="-43" lat="30.462383" lon="-97.802064" changeset="false"><tag k="addr:street" v="Pranav Lane"/><tag k="addr:housenumber" v="12604"/><tag k="addr:postcode" v="78750"/></node><node id="-44" lat="30.462228" lon="-97.802255" changeset="false"><tag k="addr:street" v="Gates Lane"/><tag k="addr:housenumber" v="10812"/><tag k="addr:postcode" v="78750"/></node><node id="-45" lat="30.462039" lon="-97.802929" changeset="false"><tag k="addr:street" v="Minter Court"/><tag k="addr:housenumber" v="10901"/><tag k="addr:postcode" v="78750"/></node><node id="-46" lat="30.464739" lon="-97.796569" changeset="false"><tag k="addr:street" v="Pecan Park Boulevard"/><tag k="addr:housenumber" v="10501"/><tag k="addr:postcode" v="78750"/></node><node id="-47" lat="30.464264" lon="-97.80367" changeset="false"><tag k="addr:street" v="Pecan Park Boulevard"/><tag k="addr:housenumber" v="10903"/><tag k="addr:postcode" v="78750"/></node><node id="-48" lat="30.459014" lon="-97.800278" changeset="false"><tag k="addr:street" v="Mellow Meadows"/><tag k="addr:housenumber" v="10515 1/2"/><tag k="addr:postcode" v="78750"/></node><node id="-49" lat="30.463991" lon="-97.798652" changeset="false"><tag k="addr:street" v="Pecan Park Boulevard"/><tag k="addr:housenumber" v="10601"/><tag k="addr:postcode" v="78750"/></node><node id="-50" lat="30.463453" lon="-97.802125" changeset="false"><tag k="addr:street" v="Pecan Park Boulevard"/><tag k="addr:housenumber" v="10803"/><tag k="addr:postcode" v="78750"/></node><node id="-51" lat="30.463457" lon="-97.80219" changeset="false"><tag k="addr:street" v="Pecan Park Boulevard"/><tag k="addr:housenumber" v="10805"/><tag k="addr:postcode" v="78750"/></node><node id="-52" lat="30.466277" lon="-97.80132" changeset="false"><tag k="addr:street" v="Ranch Road 620"/><tag k="addr:housenumber" v="12833"/><tag k="addr:postcode" v="78750"/></node><node id="-53" lat="30.462633" lon="-97.798095" changeset="false"><tag k="addr:street" v="Mellow Meadows"/><tag k="addr:housenumber" v="10502"/><tag k="addr:postcode" v="78750"/></node><node id="-54" lat="30.462116" lon="-97.803152" changeset="false"><tag k="addr:street" v="Minter Court"/><tag k="addr:housenumber" v="10909"/><tag k="addr:postcode" v="78750"/></node><node id="-55" lat="30.462556" lon="-97.802913" changeset="false"><tag k="addr:street" v="Vetters Court"/><tag k="addr:housenumber" v="10909"/><tag k="addr:postcode" v="78750"/></node><node id="-56" lat="30.462765" lon="-97.802812" changeset="false"><tag k="addr:street" v="Vetters Court"/><tag k="addr:housenumber" v="10908"/><tag k="addr:postcode" v="78750"/></node><node id="-57" lat="30.462598" lon="-97.802204" changeset="false"><tag k="addr:street" v="Champ Court"/><tag k="addr:housenumber" v="10801"/><tag k="addr:postcode" v="78750"/></node><node id="-58" lat="30.463258" lon="-97.801286" changeset="false"><tag k="addr:street" v="Cayman Lane"/><tag k="addr:housenumber" v="12800"/><tag k="addr:postcode" v="78750"/></node><node id="-59" lat="30.463442" lon="-97.801342" changeset="false"><tag k="addr:street" v="Cayman Lane"/><tag k="addr:housenumber" v="12808"/><tag k="addr:postcode" v="78750"/></node><node id="-60" lat="30.462309" lon="-97.800377" changeset="false"><tag k="addr:street" v="Ellen Court"/><tag k="addr:housenumber" v="12504"/><tag k="addr:postcode" v="78750"/></node><node id="-61" lat="30.462102" lon="-97.800844" changeset="false"><tag k="addr:street" v="Jen Lane"/><tag k="addr:housenumber" v="12500"/><tag k="addr:postcode" v="78750"/></node><node id="-62" lat="30.462342" lon="-97.799795" changeset="false"><tag k="addr:street" v="Charlies Lane"/><tag k="addr:housenumber" v="12500"/><tag k="addr:postcode" v="78750"/></node><node id="-63" lat="30.462417" lon="-97.799486" changeset="false"><tag k="addr:street" v="Charlies Lane"/><tag k="addr:housenumber" v="12501"/><tag k="addr:postcode" v="78750"/></node><node id="-64" lat="30.463066" lon="-97.799705" changeset="false"><tag k="addr:street" v="Charlies Lane"/><tag k="addr:housenumber" v="12609"/><tag k="addr:postcode" v="78750"/></node><node id="-65" lat="30.462891" lon="-97.799972" changeset="false"><tag k="addr:street" v="Charlies Lane"/><tag k="addr:housenumber" v="12604"/><tag k="addr:postcode" v="78750"/></node><node id="-66" lat="30.462241" lon="-97.801137" changeset="false"><tag k="addr:street" v="Kate Lane"/><tag k="addr:housenumber" v="12509"/><tag k="addr:postcode" v="78750"/></node><node id="-67" lat="30.462506" lon="-97.801544" changeset="false"><tag k="addr:street" v="Kate Lane"/><tag k="addr:housenumber" v="12604"/><tag k="addr:postcode" v="78750"/></node><node id="-68" lat="30.462063" lon="-97.8014" changeset="false"><tag k="addr:street" v="Kate Lane"/><tag k="addr:housenumber" v="12504"/><tag k="addr:postcode" v="78750"/></node><node id="-69" lat="30.4628" lon="-97.801521" changeset="false"><tag k="addr:street" v="Brycen Court"/><tag k="addr:housenumber" v="12705"/><tag k="addr:postcode" v="78750"/></node><node id="-70" lat="30.461914" lon="-97.801591" changeset="false"><tag k="addr:street" v="Pranav Lane"/><tag k="addr:housenumber" v="12501"/><tag k="addr:postcode" v="78750"/></node><node id="-71" lat="30.462279" lon="-97.80202" changeset="false"><tag k="addr:street" v="Pranav Lane"/><tag k="addr:housenumber" v="12600"/><tag k="addr:postcode" v="78750"/></node><node id="-72" lat="30.461844" lon="-97.801884" changeset="false"><tag k="addr:street" v="Pranav Lane"/><tag k="addr:housenumber" v="12500"/><tag k="addr:postcode" v="78750"/></node><node id="-73" lat="30.461924" lon="-97.802466" changeset="false"><tag k="addr:street" v="Piper Court"/><tag k="addr:housenumber" v="12508"/><tag k="addr:postcode" v="78750"/></node><node id="-74" lat="30.462381" lon="-97.8023" changeset="false"><tag k="addr:street" v="Midnight Court"/><tag k="addr:housenumber" v="10800"/><tag k="addr:postcode" v="78750"/></node><node id="-75" lat="30.461595" lon="-97.803154" changeset="false"><tag k="addr:street" v="Orson Court"/><tag k="addr:housenumber" v="10901"/><tag k="addr:postcode" v="78750"/></node><node id="-76" lat="30.461834" lon="-97.803036" changeset="false"><tag k="addr:street" v="Orson Court"/><tag k="addr:housenumber" v="10900"/><tag k="addr:postcode" v="78750"/></node><node id="-77" lat="30.465872" lon="-97.802772" changeset="false"><tag k="addr:street" v="Ranch Road 620"/><tag k="addr:housenumber" v="12809"/><tag k="addr:postcode" v="78750"/></node><node id="-78" lat="30.463132" lon="-97.80293" changeset="false"><tag k="addr:street" v="Pecan Park Boulevard"/><tag k="addr:housenumber" v="10809"/><tag k="addr:postcode" v="78750"/></node><node id="-79" lat="30.463701" lon="-97.80089" changeset="false"><tag k="addr:street" v="Pecan Park Boulevard"/><tag k="addr:housenumber" v="10707"/><tag k="addr:postcode" v="78750"/></node><node id="-80" lat="30.462172" lon="-97.80057" changeset="false"><tag k="addr:street" v="Jen Lane"/><tag k="addr:housenumber" v="12501"/><tag k="addr:postcode" v="78750"/></node><node id="-81" lat="30.46236" lon="-97.800632" changeset="false"><tag k="addr:street" v="Jen Lane"/><tag k="addr:housenumber" v="12509"/><tag k="addr:postcode" v="78750"/></node><node id="-82" lat="30.462856" lon="-97.79963" changeset="false"><tag k="addr:street" v="Charlies Lane"/><tag k="addr:housenumber" v="12601"/><tag k="addr:postcode" v="78750"/></node><node id="-83" lat="30.462783" lon="-97.799933" changeset="false"><tag k="addr:street" v="Charlies Lane"/><tag k="addr:housenumber" v="12600"/><tag k="addr:postcode" v="78750"/></node><node id="-84" lat="30.462288" lon="-97.800028" changeset="false"><tag k="addr:street" v="Ellen Court"/><tag k="addr:housenumber" v="12501"/><tag k="addr:postcode" v="78750"/></node><node id="-85" lat="30.462403" lon="-97.801507" changeset="false"><tag k="addr:street" v="Kate Lane"/><tag k="addr:housenumber" v="12600"/><tag k="addr:postcode" v="78750"/></node><node id="-86" lat="30.462341" lon="-97.801727" changeset="false"><tag k="addr:street" v="Pranav Lane"/><tag k="addr:housenumber" v="12601"/><tag k="addr:postcode" v="78750"/></node><node id="-87" lat="30.462193" lon="-97.802526" changeset="false"><tag k="addr:street" v="Midnight Court"/><tag k="addr:housenumber" v="10805"/><tag k="addr:postcode" v="78750"/></node><node id="-88" lat="30.463608" lon="-97.800519" changeset="false"><tag k="addr:street" v="Pecan Park Boulevard"/><tag k="addr:housenumber" v="10701"/><tag k="addr:postcode" v="78750"/></node><node id="-89" lat="30.46609" lon="-97.802029" changeset="false"><tag k="addr:street" v="Ranch Road 620"/><tag k="addr:housenumber" v="12827"/><tag k="addr:postcode" v="78750"/></node><node id="-90" lat="30.462334" lon="-97.803019" changeset="false"><tag k="addr:street" v="Minter Court"/><tag k="addr:housenumber" v="10908"/><tag k="addr:postcode" v="78750"/></node><node id="-91" lat="30.462821" lon="-97.802086" changeset="false"><tag k="addr:street" v="Champ Court"/><tag k="addr:housenumber" v="10800"/><tag k="addr:postcode" v="78750"/></node><node id="-92" lat="30.463191" lon="-97.802074" changeset="false"><tag k="addr:street" v="Papa Leo Court"/><tag k="addr:housenumber" v="12804"/><tag k="addr:postcode" v="78750"/></node><node id="-93" lat="30.463344" lon="-97.801313" changeset="false"><tag k="addr:street" v="Cayman Lane"/><tag k="addr:housenumber" v="12804"/><tag k="addr:postcode" v="78750"/></node><node id="-94" lat="30.463328" lon="-97.799424" changeset="false"><tag k="addr:street" v="Patricia Court"/><tag k="addr:housenumber" v="10508"/><tag k="addr:postcode" v="78750"/></node><node id="-95" lat="30.462136" lon="-97.801106" changeset="false"><tag k="addr:street" v="Kate Lane"/><tag k="addr:housenumber" v="12505"/><tag k="addr:postcode" v="78750"/></node><node id="-96" lat="30.462452" lon="-97.801764" changeset="false"><tag k="addr:street" v="Pranav Lane"/><tag k="addr:housenumber" v="12605"/><tag k="addr:postcode" v="78750"/></node><node id="-97" lat="30.461873" lon="-97.803136" changeset="false"><tag k="addr:street" v="Orson Court"/><tag k="addr:housenumber" v="10904"/><tag k="addr:postcode" v="78750"/></node><node id="-98" lat="30.462509" lon="-97.802799" changeset="false"><tag k="addr:street" v="Vetters Court"/><tag k="addr:housenumber" v="10905"/><tag k="addr:postcode" v="78750"/></node><node id="-99" lat="30.462674" lon="-97.802596" changeset="false"><tag k="addr:street" v="Vetters Court"/><tag k="addr:housenumber" v="10900"/><tag k="addr:postcode" v="78750"/></node><node id="-100" lat="30.462595" lon="-97.798917" changeset="false"><tag k="addr:street" v="Luke Court"/><tag k="addr:housenumber" v="10501"/><tag k="addr:postcode" v="78750"/></node><node id="-101" lat="30.462563" lon="-97.799863" changeset="false"><tag k="addr:street" v="Charlies Lane"/><tag k="addr:housenumber" v="12508"/><tag k="addr:postcode" v="78750"/></node><node id="-102" lat="30.462386" lon="-97.800063" changeset="false"><tag k="addr:street" v="Ellen Court"/><tag k="addr:housenumber" v="12505"/><tag k="addr:postcode" v="78750"/></node><node id="-103" lat="30.462041" lon="-97.801075" changeset="false"><tag k="addr:street" v="Kate Lane"/><tag k="addr:housenumber" v="12501"/><tag k="addr:postcode" v="78750"/></node><node id="-104" lat="30.462768" lon="-97.801831" changeset="false"><tag k="addr:street" v="Brycen Court"/><tag k="addr:housenumber" v="12704"/><tag k="addr:postcode" v="78750"/></node><node id="-105" lat="30.46292" lon="-97.801535" changeset="false"><tag k="addr:street" v="Brycen Court"/><tag k="addr:housenumber" v="12709"/><tag k="addr:postcode" v="78750"/></node><node id="-106" lat="30.46252" lon="-97.801962" changeset="false"><tag k="addr:street" v="Pranav Lane"/><tag k="addr:housenumber" v="12608"/><tag k="addr:postcode" v="78750"/></node><node id="-107" lat="30.462039" lon="-97.801948" changeset="false"><tag k="addr:street" v="Pranav Lane"/><tag k="addr:housenumber" v="12508"/><tag k="addr:postcode" v="78750"/></node><node id="-108" lat="30.461716" lon="-97.802398" changeset="false"><tag k="addr:street" v="Piper Court"/><tag k="addr:housenumber" v="12500"/><tag k="addr:postcode" v="78750"/></node><node id="-109" lat="30.46243" lon="-97.802406" changeset="false"><tag k="addr:street" v="Midnight Court"/><tag k="addr:housenumber" v="10804"/><tag k="addr:postcode" v="78750"/></node><node id="-110" lat="30.461924" lon="-97.803259" changeset="false"><tag k="addr:street" v="Orson Court"/><tag k="addr:housenumber" v="10908"/><tag k="addr:postcode" v="78750"/></node><node id="-111" lat="30.462076" lon="-97.803039" changeset="false"><tag k="addr:street" v="Minter Court"/><tag k="addr:housenumber" v="10905"/><tag k="addr:postcode" v="78750"/></node><node id="-112" lat="30.463303" lon="-97.802073" changeset="false"><tag k="addr:street" v="Papa Leo Court"/><tag k="addr:housenumber" v="12808"/><tag k="addr:postcode" v="78750"/></node><node id="-113" lat="30.46229" lon="-97.800915" changeset="false"><tag k="addr:street" v="Jen Lane"/><tag k="addr:housenumber" v="12508"/><tag k="addr:postcode" v="78750"/></node><node id="-114" lat="30.463357" lon="-97.799296" changeset="false"><tag k="addr:street" v="Patricia Court"/><tag k="addr:housenumber" v="10504"/><tag k="addr:postcode" v="78750"/></node><node id="-115" lat="30.462632" lon="-97.799553" changeset="false"><tag k="addr:street" v="Charlies Lane"/><tag k="addr:housenumber" v="12509"/><tag k="addr:postcode" v="78750"/></node><node id="-116" lat="30.462968" lon="-97.799665" changeset="false"><tag k="addr:street" v="Charlies Lane"/><tag k="addr:housenumber" v="12605"/><tag k="addr:postcode" v="78750"/></node><node id="-117" lat="30.462575" lon="-97.801239" changeset="false"><tag k="addr:street" v="Kate Lane"/><tag k="addr:housenumber" v="12605"/><tag k="addr:postcode" v="78750"/></node><node id="-118" lat="30.462122" lon="-97.801654" changeset="false"><tag k="addr:street" v="Pranav Lane"/><tag k="addr:housenumber" v="12509"/><tag k="addr:postcode" v="78750"/></node><node id="-119" lat="30.463449" lon="-97.802054" changeset="false"><tag k="addr:street" v="Pecan Park Boulevard"/><tag k="addr:housenumber" v="10801"/><tag k="addr:postcode" v="78750"/></node><node id="-120" lat="30.464656" lon="-97.799684" changeset="false"><tag k="addr:street" v="Pecan Park Boulevard"/><tag k="addr:housenumber" v="10700"/><tag k="addr:postcode" v="78750"/></node><node id="-121" lat="30.464897" lon="-97.804481" changeset="false"><tag k="addr:street" v="Ranch Road 620"/><tag k="addr:housenumber" v="12703"/><tag k="addr:postcode" v="78750"/></node><node id="-122" lat="30.460423" lon="-97.801728" changeset="false"><tag k="addr:street" v="Mellow Meadows"/><tag k="addr:housenumber" v="10616"/><tag k="addr:postcode" v="78750"/></node><node id="-123" lat="30.463733" lon="-97.800763" changeset="false"><tag k="addr:street" v="Pecan Park Boulevard"/><tag k="addr:housenumber" v="10705"/><tag k="addr:postcode" v="78750"/></node><node id="-124" lat="30.462646" lon="-97.804596" changeset="false"><tag k="addr:street" v="Split Rail Parkway"/><tag k="addr:housenumber" v="12501"/><tag k="addr:postcode" v="78750"/></node><node id="-125" lat="30.464924" lon="-97.799102" changeset="false"><tag k="addr:street" v="Pecan Park Boulevard"/><tag k="addr:housenumber" v="10606"/><tag k="addr:postcode" v="78750"/></node></osm>