<?xml version="1.0" encoding="UTF-8"?><osm version="0.6" generator="github.com/aaronlidman/osm-and-geojson"><node id="-1" lat="30.143927" lon="-97.883004" changeset="false"><tag k="addr:street" v="Cattleman Drive"/><tag k="addr:housenumber" v="3901"/><tag k="coa:place_id" v="81256"/></node><node id="-2" lat="30.146899" lon="-97.889573" changeset="false"><tag k="addr:street" v="September Song Drive"/><tag k="addr:housenumber" v="4209"/><tag k="coa:place_id" v="1140305"/></node><node id="-3" lat="30.146343" lon="-97.886682" changeset="false"><tag k="addr:street" v="September Song Drive"/><tag k="addr:housenumber" v="4008"/><tag k="coa:place_id" v="1140309"/></node><node id="-4" lat="30.143484" lon="-97.874824" changeset="false"><tag k="addr:street" v="Bliss Spillar Road"/><tag k="addr:housenumber" v="3335"/><tag k="coa:place_id" v="3032364"/></node><node id="-5" lat="30.175711" lon="-97.922258" changeset="false"><tag k="addr:street" v="Meridian Park Boulevard"/><tag k="addr:housenumber" v="13432"/><tag k="coa:place_id" v="3378934"/></node><node id="-6" lat="30.176042" lon="-97.927211" changeset="false"><tag k="addr:street" v="Meridian Park Boulevard"/><tag k="addr:housenumber" v="13108"/><tag k="coa:place_id" v="3378914"/></node><node id="-7" lat="30.145571" lon="-97.877854" changeset="false"><tag k="addr:street" v="Turkey Roost Road"/><tag k="addr:housenumber" v="13210"/><tag k="coa:place_id" v="3257784"/></node><node id="-8" lat="30.145076" lon="-97.881443" changeset="false"><tag k="addr:street" v="Cattleman Drive"/><tag k="addr:housenumber" v="3803"/><tag k="coa:place_id" v="81251"/></node><node id="-9" lat="30.176852" lon="-97.927096" changeset="false"><tag k="addr:street" v="Meridian Park Boulevard"/><tag k="addr:housenumber" v="13016"/><tag k="coa:place_id" v="3378911"/></node><node id="-10" lat="30.176108" lon="-97.925994" changeset="false"><tag k="addr:street" v="Meridian Park Boulevard"/><tag k="addr:housenumber" v="13125"/><tag k="coa:place_id" v="3378918"/></node><node id="-11" lat="30.176061" lon="-97.92512" changeset="false"><tag k="addr:street" v="Meridian Park Boulevard"/><tag k="addr:housenumber" v="13225"/><tag k="coa:place_id" v="3378924"/></node><node id="-12" lat="30.176244" lon="-97.924272" changeset="false"><tag k="addr:street" v="Meridian Park Boulevard"/><tag k="addr:housenumber" v="13309"/><tag k="coa:place_id" v="3378929"/></node><node id="-13" lat="30.17539" lon="-97.923707" changeset="false"><tag k="addr:street" v="Meridian Park Boulevard"/><tag k="addr:housenumber" v="13400"/><tag k="coa:place_id" v="3378930"/></node><node id="-14" lat="30.175315" lon="-97.923276" changeset="false"><tag k="addr:street" v="Meridian Park Boulevard"/><tag k="addr:housenumber" v="13408"/><tag k="coa:place_id" v="3378931"/></node><node id="-15" lat="30.17546" lon="-97.924193" changeset="false"><tag k="addr:street" v="Meridian Park Boulevard"/><tag k="addr:housenumber" v="13308"/><tag k="coa:place_id" v="3378927"/></node><node id="-16" lat="30.146433" lon="-97.888351" changeset="false"><tag k="addr:street" v="September Song Drive"/><tag k="addr:housenumber" v="4206"/><tag k="coa:place_id" v="1140308"/></node><node id="-17" lat="30.145788" lon="-97.883018" changeset="false"><tag k="addr:street" v="Ramrod Drive"/><tag k="addr:housenumber" v="13403"/><tag k="coa:place_id" v="93643"/></node><node id="-18" lat="30.146694" lon="-97.884178" changeset="false"><tag k="addr:street" v="Ramrod Drive"/><tag k="addr:housenumber" v="13306"/><tag k="coa:place_id" v="93642"/></node><node id="-19" lat="30.146436" lon="-97.885913" changeset="false"><tag k="addr:street" v="September Song Drive"/><tag k="addr:housenumber" v="4004"/><tag k="coa:place_id" v="1140307"/></node><node id="-20" lat="30.14615" lon="-97.889299" changeset="false"><tag k="addr:street" v="September Song Drive"/><tag k="addr:housenumber" v="4205"/><tag k="coa:place_id" v="1140311"/></node><node id="-21" lat="30.145513" lon="-97.884235" changeset="false"><tag k="addr:street" v="Ramrod Drive"/><tag k="addr:housenumber" v="13402"/><tag k="coa:place_id" v="93641"/></node><node id="-22" lat="30.147926" lon="-97.883105" changeset="false"><tag k="addr:street" v="Bliss Spillar Road"/><tag k="addr:housenumber" v="4003"/><tag k="coa:place_id" v="3257663"/></node><node id="-23" lat="30.148473" lon="-97.881743" changeset="false"><tag k="addr:street" v="Bliss Spillar Road"/><tag k="addr:housenumber" v="3912"/><tag k="coa:place_id" v="3257678"/></node><node id="-24" lat="30.147598" lon="-97.882831" changeset="false"><tag k="addr:street" v="Ramrod Drive"/><tag k="addr:housenumber" v="13301"/><tag k="coa:place_id" v="93661"/></node><node id="-25" lat="30.145019" lon="-97.881918" changeset="false"><tag k="addr:street" v="Cattleman Drive"/><tag k="addr:housenumber" v="3805"/><tag k="coa:place_id" v="81252"/></node><node id="-26" lat="30.145278" lon="-97.888172" changeset="false"><tag k="addr:street" v="September Song Drive"/><tag k="addr:housenumber" v="4101"/><tag k="coa:place_id" v="1140312"/></node><node id="-27" lat="30.144206" lon="-97.880522" changeset="false"><tag k="addr:street" v="Copper Hills Drive"/><tag k="addr:housenumber" v="13418"/><tag k="coa:place_id" v="53396"/></node><node id="-28" lat="30.143563" lon="-97.885215" changeset="false"><tag k="addr:street" v="Cattleman Drive"/><tag k="addr:housenumber" v="3906"/><tag k="coa:place_id" v="53925"/></node><node id="-29" lat="30.146774" lon="-97.880136" changeset="false"><tag k="addr:street" v="Gunsmith Drive"/><tag k="addr:housenumber" v="13301"/><tag k="coa:place_id" v="93654"/></node><node id="-30" lat="30.145877" lon="-97.879713" changeset="false"><tag k="addr:street" v="Cattleman Drive"/><tag k="addr:housenumber" v="3700"/><tag k="coa:place_id" v="89471"/></node><node id="-31" lat="30.148516" lon="-97.887081" changeset="false"><tag k="addr:street" v="Bliss Spillar Road"/><tag k="addr:housenumber" v="4210"/><tag k="coa:place_id" v="229167"/></node><node id="-32" lat="30.147718" lon="-97.8814" changeset="false"><tag k="addr:street" v="Bliss Spillar Road"/><tag k="addr:housenumber" v="3903"/><tag k="coa:place_id" v="93660"/></node><node id="-33" lat="30.143473" lon="-97.878139" changeset="false"><tag k="addr:street" v="Copper Hills Drive"/><tag k="addr:housenumber" v="13404"/><tag k="coa:place_id" v="53389"/></node><node id="-34" lat="30.177201" lon="-97.926789" changeset="false"><tag k="addr:street" v="Meridian Park Boulevard"/><tag k="addr:housenumber" v="13008"/><tag k="coa:place_id" v="3378910"/></node><node id="-35" lat="30.176193" lon="-97.924692" changeset="false"><tag k="addr:street" v="Meridian Park Boulevard"/><tag k="addr:housenumber" v="13301"/><tag k="coa:place_id" v="3378928"/></node><node id="-36" lat="30.179252" lon="-97.925124" changeset="false"><tag k="addr:street" v="Meridian Park Boulevard"/><tag k="addr:housenumber" v="12808"/><tag k="coa:place_id" v="3378887"/></node><node id="-37" lat="30.178345" lon="-97.924998" changeset="false"><tag k="addr:street" v="Meridian Park Boulevard"/><tag k="addr:housenumber" v="12901"/><tag k="coa:place_id" v="3378894"/></node><node id="-38" lat="30.147471" lon="-97.886581" changeset="false"><tag k="addr:street" v="Bliss Spillar Road"/><tag k="addr:housenumber" v="4109"/><tag k="coa:place_id" v="3032375"/></node><node id="-39" lat="30.144071" lon="-97.881255" changeset="false"><tag k="addr:street" v="Copper Hills Drive"/><tag k="addr:housenumber" v="13502"/><tag k="coa:place_id" v="53398"/></node><node id="-40" lat="30.144098" lon="-97.88579" changeset="false"><tag k="addr:street" v="Tis Autumn Court"/><tag k="addr:housenumber" v="4905"/><tag k="coa:place_id" v="3035742"/></node><node id="-41" lat="30.143199" lon="-97.883635" changeset="false"><tag k="addr:street" v="Cattleman Drive"/><tag k="addr:housenumber" v="3909"/><tag k="coa:place_id" v="81258"/></node><node id="-42" lat="30.177558" lon="-97.926474" changeset="false"><tag k="addr:street" v="Meridian Park Boulevard"/><tag k="addr:housenumber" v="13000"/><tag k="coa:place_id" v="3378909"/></node><node id="-43" lat="30.146003" lon="-97.881313" changeset="false"><tag k="addr:street" v="Gunsmith Drive"/><tag k="addr:housenumber" v="13302"/><tag k="coa:place_id" v="93648"/></node><node id="-44" lat="30.178288" lon="-97.925944" changeset="false"><tag k="addr:street" v="Meridian Park Boulevard"/><tag k="addr:housenumber" v="12908"/><tag k="coa:place_id" v="3378895"/></node><node id="-45" lat="30.177949" lon="-97.92619" changeset="false"><tag k="addr:street" v="Meridian Park Boulevard"/><tag k="addr:housenumber" v="12916"/><tag k="coa:place_id" v="3378896"/></node><node id="-46" lat="30.175024" lon="-97.92549" changeset="false"><tag k="addr:street" v="Meridian Park Boulevard"/><tag k="addr:housenumber" v="13216"/><tag k="coa:place_id" v="3378921"/></node><node id="-47" lat="30.145072" lon="-97.879352" changeset="false"><tag k="addr:street" v="Cattleman Drive"/><tag k="addr:housenumber" v="3611"/><tag k="coa:place_id" v="81246"/></node><node id="-48" lat="30.144799" lon="-97.882869" changeset="false"><tag k="addr:street" v="Cattleman Drive"/><tag k="addr:housenumber" v="3813"/><tag k="coa:place_id" v="81254"/></node><node id="-49" lat="30.147688" lon="-97.888268" changeset="false"><tag k="addr:street" v="Bliss Spillar Road"/><tag k="addr:housenumber" v="4205"/><tag k="coa:place_id" v="3032371"/></node><node id="-50" lat="30.144213" lon="-97.882806" changeset="false"><tag k="addr:street" v="Cattleman Drive"/><tag k="addr:housenumber" v="3815"/><tag k="coa:place_id" v="81255"/></node><node id="-51" lat="30.14296" lon="-97.885188" changeset="false"><tag k="addr:street" v="Cattleman Drive"/><tag k="addr:housenumber" v="3915"/><tag k="coa:place_id" v="53926"/></node><node id="-52" lat="30.142974" lon="-97.88395" changeset="false"><tag k="addr:street" v="Cattleman Drive"/><tag k="addr:housenumber" v="3911"/><tag k="coa:place_id" v="81259"/></node><node id="-53" lat="30.146742" lon="-97.881271" changeset="false"><tag k="addr:street" v="Gunsmith Drive"/><tag k="addr:housenumber" v="13204"/><tag k="coa:place_id" v="93649"/></node><node id="-54" lat="30.145083" lon="-97.880634" changeset="false"><tag k="addr:street" v="Cattleman Drive"/><tag k="addr:housenumber" v="3709"/><tag k="coa:place_id" v="81249"/></node><node id="-55" lat="30.17664" lon="-97.927168" changeset="false"><tag k="addr:street" v="Meridian Park Boulevard"/><tag k="addr:housenumber" v="13018"/><tag k="coa:place_id" v="3378912"/></node><node id="-56" lat="30.176406" lon="-97.927234" changeset="false"><tag k="addr:street" v="Meridian Park Boulevard"/><tag k="addr:housenumber" v="13100"/><tag k="coa:place_id" v="3378913"/></node><node id="-57" lat="30.175405" lon="-97.926746" changeset="false"><tag k="addr:street" v="Meridian Park Boulevard"/><tag k="addr:housenumber" v="13124"/><tag k="coa:place_id" v="3378916"/></node><node id="-58" lat="30.175156" lon="-97.926362" changeset="false"><tag k="addr:street" v="Meridian Park Boulevard"/><tag k="addr:housenumber" v="13200"/><tag k="coa:place_id" v="3378919"/></node><node id="-59" lat="30.175326" lon="-97.924664" changeset="false"><tag k="addr:street" v="Meridian Park Boulevard"/><tag k="addr:housenumber" v="13300"/><tag k="coa:place_id" v="3378926"/></node><node id="-60" lat="30.144087" lon="-97.880936" changeset="false"><tag k="addr:street" v="Copper Hills Drive"/><tag k="addr:housenumber" v="13500"/><tag k="coa:place_id" v="53397"/></node><node id="-61" lat="30.143605" lon="-97.883318" changeset="false"><tag k="addr:street" v="Cattleman Drive"/><tag k="addr:housenumber" v="3905"/><tag k="coa:place_id" v="81257"/></node><node id="-62" lat="30.147602" lon="-97.889548" changeset="false"><tag k="addr:street" v="Bliss Spillar Road"/><tag k="addr:housenumber" v="4301"/><tag k="coa:place_id" v="3032372"/></node><node id="-63" lat="30.147464" lon="-97.885909" changeset="false"><tag k="addr:street" v="Bliss Spillar Road"/><tag k="addr:housenumber" v="4105"/><tag k="coa:place_id" v="3032374"/></node><node id="-64" lat="30.146754" lon="-97.88304" changeset="false"><tag k="addr:street" v="Ramrod Drive"/><tag k="addr:housenumber" v="13305"/><tag k="coa:place_id" v="93647"/></node><node id="-65" lat="30.17512" lon="-97.925108" changeset="false"><tag k="addr:street" v="Meridian Park Boulevard"/><tag k="addr:housenumber" v="13224"/><tag k="coa:place_id" v="3378922"/></node><node id="-66" lat="30.178964" lon="-97.925427" changeset="false"><tag k="addr:street" v="Meridian Park Boulevard"/><tag k="addr:housenumber" v="12816"/><tag k="coa:place_id" v="3378889"/></node><node id="-67" lat="30.178645" lon="-97.925677" changeset="false"><tag k="addr:street" v="Meridian Park Boulevard"/><tag k="addr:housenumber" v="12900"/><tag k="coa:place_id" v="3378893"/></node><node id="-68" lat="30.145253" lon="-97.879804" changeset="false"><tag k="addr:street" v="Cattleman Drive"/><tag k="addr:housenumber" v="3703"/><tag k="coa:place_id" v="81247"/></node><node id="-69" lat="30.148185" lon="-97.893323" changeset="false"><tag k="addr:street" v="Bliss Spillar Road"/><tag k="addr:housenumber" v="4701"/><tag k="coa:place_id" v="229315"/></node><node id="-70" lat="30.16809" lon="-97.913114" changeset="false"><tag k="addr:street" v="Escarpment Boulevard"/><tag k="addr:housenumber" v="13401"/><tag k="coa:place_id" v="3772952"/></node><node id="-71" lat="30.176356" lon="-97.926346" changeset="false"><tag k="addr:street" v="Meridian Park Boulevard"/><tag k="addr:housenumber" v="13105"/><tag k="coa:place_id" v="3378917"/></node><node id="-72" lat="30.175863" lon="-97.925624" changeset="false"><tag k="addr:street" v="Meridian Park Boulevard"/><tag k="addr:housenumber" v="13213"/><tag k="coa:place_id" v="3378923"/></node><node id="-73" lat="30.175685" lon="-97.927027" changeset="false"><tag k="addr:street" v="Meridian Park Boulevard"/><tag k="addr:housenumber" v="13116"/><tag k="coa:place_id" v="3378915"/></node><node id="-74" lat="30.175023" lon="-97.925926" changeset="false"><tag k="addr:street" v="Meridian Park Boulevard"/><tag k="addr:housenumber" v="13208"/><tag k="coa:place_id" v="3378920"/></node><node id="-75" lat="30.144414" lon="-97.886607" changeset="false"><tag k="addr:street" v="Tis Autumn Court"/><tag k="addr:housenumber" v="4907"/><tag k="coa:place_id" v="3035741"/></node><node id="-76" lat="30.175512" lon="-97.922561" changeset="false"><tag k="addr:street" v="Meridian Park Boulevard"/><tag k="addr:housenumber" v="13424"/><tag k="coa:place_id" v="3378933"/></node><node id="-77" lat="30.175335" lon="-97.922896" changeset="false"><tag k="addr:street" v="Meridian Park Boulevard"/><tag k="addr:housenumber" v="13416"/><tag k="coa:place_id" v="3378932"/></node><node id="-78" lat="30.144735" lon="-97.885131" changeset="false"><tag k="addr:street" v="Tis Autumn Court"/><tag k="addr:housenumber" v="4903"/><tag k="coa:place_id" v="3035740"/></node><node id="-79" lat="30.145089" lon="-97.881004" changeset="false"><tag k="addr:street" v="Cattleman Drive"/><tag k="addr:housenumber" v="3801"/><tag k="coa:place_id" v="81250"/></node><node id="-80" lat="30.145951" lon="-97.87882" changeset="false"><tag k="addr:street" v="Cattleman Drive"/><tag k="addr:housenumber" v="3604"/><tag k="coa:place_id" v="81260"/></node><node id="-81" lat="30.145033" lon="-97.882496" changeset="false"><tag k="addr:street" v="Cattleman Drive"/><tag k="addr:housenumber" v="3809"/><tag k="coa:place_id" v="81253"/></node><node id="-82" lat="30.14385" lon="-97.8815" changeset="false"><tag k="addr:street" v="Copper Hills Drive"/><tag k="addr:housenumber" v="13504"/><tag k="coa:place_id" v="53399"/></node><node id="-83" lat="30.147477" lon="-97.887318" changeset="false"><tag k="addr:street" v="Bliss Spillar Road"/><tag k="addr:housenumber" v="4201"/><tag k="coa:place_id" v="3032376"/></node><node id="-84" lat="30.146214" lon="-97.887532" changeset="false"><tag k="addr:street" v="September Song Drive"/><tag k="addr:housenumber" v="4100"/><tag k="coa:place_id" v="1140310"/></node><node id="-85" lat="30.145043" lon="-97.878911" changeset="false"><tag k="addr:street" v="Cattleman Drive"/><tag k="addr:housenumber" v="3607"/><tag k="coa:place_id" v="81245"/></node><node id="-86" lat="30.173358" lon="-97.929732" changeset="false"><tag k="addr:street" v="Ranch to Market Road 1826"/><tag k="addr:housenumber" v="12701"/><tag k="coa:place_id" v="3427668"/></node><node id="-87" lat="30.148304" lon="-97.89022" changeset="false"><tag k="addr:street" v="Bliss Spillar Road"/><tag k="addr:housenumber" v="4410"/><tag k="coa:place_id" v="229169"/></node><node id="-88" lat="30.146169" lon="-97.884877" changeset="false"><tag k="addr:street" v="September Song Drive"/><tag k="addr:housenumber" v="4000"/><tag k="coa:place_id" v="1140306"/></node><node id="-89" lat="30.144146" lon="-97.877194" changeset="false"><tag k="addr:street" v="Cattleman Drive"/><tag k="addr:housenumber" v="3509"/><tag k="coa:place_id" v="3257768"/></node><node id="-90" lat="30.145044" lon="-97.880084" changeset="false"><tag k="addr:street" v="Cattleman Drive"/><tag k="addr:housenumber" v="3705"/><tag k="coa:place_id" v="81248"/></node></osm>