<?xml version="1.0" encoding="UTF-8"?><osm version="0.6" generator="github.com/aaronlidman/osm-and-geojson"><node id="-1" lat="30.288843" lon="-97.788302" changeset="false"><tag k="addr:street" v="Lake Cliff Trail"/><tag k="addr:housenumber" v="407"/></node><node id="-2" lat="30.286073" lon="-97.792889" changeset="false"><tag k="addr:street" v="Birnam Wood Court"/><tag k="addr:housenumber" v="120"/></node><node id="-3" lat="30.287464" lon="-97.791716" changeset="false"><tag k="addr:street" v="Birnam Wood Court"/><tag k="addr:housenumber" v="140"/></node><node id="-4" lat="30.285559" lon="-97.788579" changeset="false"><tag k="addr:street" v="Above Stratford Place"/><tag k="addr:housenumber" v="3129"/></node><node id="-5" lat="30.291717" lon="-97.797311" changeset="false"><tag k="addr:street" v="Redbud Trail"/><tag k="addr:housenumber" v="3916 1/2"/></node><node id="-6" lat="30.278159" lon="-97.781443" changeset="false"><tag k="addr:street" v="Stratford Drive"/><tag k="addr:housenumber" v="2701"/></node><node id="-7" lat="30.285751" lon="-97.793036" changeset="false"><tag k="addr:street" v="Birnam Wood Court"/><tag k="addr:housenumber" v="116"/></node><node id="-8" lat="30.285614" lon="-97.792211" changeset="false"><tag k="addr:street" v="Birnam Wood Court"/><tag k="addr:housenumber" v="119"/></node><node id="-9" lat="30.290801" lon="-97.787162" changeset="false"><tag k="addr:street" v="Redbud Trail"/><tag k="addr:housenumber" v="3401"/></node><node id="-10" lat="30.284249" lon="-97.787037" changeset="false"><tag k="addr:street" v="Stratford Drive"/><tag k="addr:housenumber" v="3004"/></node><node id="-11" lat="30.288927" lon="-97.789792" changeset="false"><tag k="addr:street" v="Lake Cliff Court"/><tag k="addr:housenumber" v="3314"/></node><node id="-12" lat="30.268449" lon="-97.791317" changeset="false"><tag k="addr:street" v="Montebello Road"/><tag k="addr:housenumber" v="2834"/></node><node id="-13" lat="30.270545" lon="-97.790573" changeset="false"><tag k="addr:street" v="Bee Caves Road"/><tag k="addr:housenumber" v="2829"/></node><node id="-14" lat="30.288218" lon="-97.7919" changeset="false"><tag k="addr:street" v="Stratford Hills Lane"/><tag k="addr:housenumber" v="3415"/></node><node id="-15" lat="30.285481" lon="-97.786887" changeset="false"><tag k="addr:street" v="Above Stratford Place"/><tag k="addr:housenumber" v="3107"/></node><node id="-16" lat="30.270734" lon="-97.789495" changeset="false"><tag k="addr:street" v="Bee Caves Road"/><tag k="addr:housenumber" v="2805"/></node><node id="-17" lat="30.273116" lon="-97.773767" changeset="false"><tag k="addr:street" v="Stratford Drive"/><tag k="addr:housenumber" v="2400"/></node><node id="-18" lat="30.284719" lon="-97.787417" changeset="false"><tag k="addr:street" v="Above Stratford Place"/><tag k="addr:housenumber" v="3113"/></node><node id="-19" lat="30.285323" lon="-97.789413" changeset="false"><tag k="addr:street" v="Stratford Drive"/><tag k="addr:housenumber" v="3107"/></node><node id="-20" lat="30.278451" lon="-97.780981" changeset="false"><tag k="addr:street" v="Stratford Drive"/><tag k="addr:housenumber" v="2700"/></node><node id="-21" lat="30.27425" lon="-97.774346" changeset="false"><tag k="addr:street" v="Stratford Drive"/><tag k="addr:housenumber" v="2418"/></node><node id="-22" lat="30.289968" lon="-97.796085" changeset="false"><tag k="addr:street" v="Forest View Drive"/><tag k="addr:housenumber" v="1000"/></node><node id="-23" lat="30.268303" lon="-97.789558" changeset="false"><tag k="addr:street" v="Liberty Park Drive"/><tag k="addr:housenumber" v="1036"/></node><node id="-24" lat="30.285931" lon="-97.7886" changeset="false"><tag k="addr:street" v="Above Stratford Place"/><tag k="addr:housenumber" v="3135"/></node><node id="-25" lat="30.285672" lon="-97.788191" changeset="false"><tag k="addr:street" v="Above Stratford Place"/><tag k="addr:housenumber" v="3120"/></node><node id="-26" lat="30.286662" lon="-97.789851" changeset="false"><tag k="addr:street" v="Stratford Hills Lane"/><tag k="addr:housenumber" v="3226"/></node><node id="-27" lat="30.287767" lon="-97.791454" changeset="false"><tag k="addr:street" v="Birnam Wood Court"/><tag k="addr:housenumber" v="200"/></node><node id="-28" lat="30.28681" lon="-97.791633" changeset="false"><tag k="addr:street" v="Birnam Wood Court"/><tag k="addr:housenumber" v="135"/></node><node id="-29" lat="30.286278" lon="-97.788929" changeset="false"><tag k="addr:street" v="Above Stratford Place"/><tag k="addr:housenumber" v="3152"/></node><node id="-30" lat="30.285737" lon="-97.790189" changeset="false"><tag k="addr:street" v="Stratford Hills Lane"/><tag k="addr:housenumber" v="3216"/></node><node id="-31" lat="30.273528" lon="-97.777513" changeset="false"><tag k="addr:street" v="Vale Street"/><tag k="addr:housenumber" v="101"/></node><node id="-32" lat="30.27106" lon="-97.78842" changeset="false"><tag k="addr:street" v="Bee Caves Road"/><tag k="addr:housenumber" v="2785"/></node><node id="-33" lat="30.284637" lon="-97.793298" changeset="false"><tag k="addr:street" v="Birnam Wood Court"/><tag k="addr:housenumber" v="100"/></node><node id="-34" lat="30.277422" lon="-97.780471" changeset="false"><tag k="addr:street" v="Stratford Drive"/><tag k="addr:housenumber" v="2607"/></node><node id="-35" lat="30.277119" lon="-97.780204" changeset="false"><tag k="addr:street" v="Stratford Drive"/><tag k="addr:housenumber" v="2605"/></node><node id="-36" lat="30.266391" lon="-97.789279" changeset="false"><tag k="addr:street" v="Liberty Park Drive"/><tag k="addr:housenumber" v="1034"/></node><node id="-37" lat="30.285392" lon="-97.788085" changeset="false"><tag k="addr:street" v="Above Stratford Place"/><tag k="addr:housenumber" v="3116"/></node><node id="-38" lat="30.285488" lon="-97.793201" changeset="false"><tag k="addr:street" v="Birnam Wood Court"/><tag k="addr:housenumber" v="112"/></node><node id="-39" lat="30.285962" lon="-97.788357" changeset="false"><tag k="addr:street" v="Above Stratford Place"/><tag k="addr:housenumber" v="3124"/></node><node id="-40" lat="30.270007" lon="-97.78035" changeset="false"><tag k="addr:street" v="Vale Street"/><tag k="addr:housenumber" v="503"/></node><node id="-41" lat="30.283399" lon="-97.785886" changeset="false"><tag k="addr:street" v="Canyon Circle East,1100"/><tag k="addr:housenumber" v="100"/></node><node id="-42" lat="30.268761" lon="-97.78665" changeset="false"><tag k="addr:street" v="Bee Caves Road"/><tag k="addr:housenumber" v="2705"/></node><node id="-43" lat="30.273442" lon="-97.776722" changeset="false"><tag k="addr:street" v="Arnulfo Alonso Way"/><tag k="addr:housenumber" v="200"/></node><node id="-44" lat="30.286214" lon="-97.790399" changeset="false"><tag k="addr:street" v="Stratford Hills Lane"/><tag k="addr:housenumber" v="3219"/></node><node id="-45" lat="30.288473" lon="-97.791276" changeset="false"><tag k="addr:street" v="Stratford Hills Lane"/><tag k="addr:housenumber" v="3408"/></node><node id="-46" lat="30.287732" lon="-97.790545" changeset="false"><tag k="addr:street" v="Stratford Hills Lane"/><tag k="addr:housenumber" v="3308"/></node><node id="-47" lat="30.284807" lon="-97.787003" changeset="false"><tag k="addr:street" v="Above Stratford Place"/><tag k="addr:housenumber" v="3109"/></node><node id="-48" lat="30.291617" lon="-97.795866" changeset="false"><tag k="addr:street" v="Redbud Trail"/><tag k="addr:housenumber" v="3800"/></node><node id="-49" lat="30.270967" lon="-97.787907" changeset="false"><tag k="addr:street" v="Bee Caves Road"/><tag k="addr:housenumber" v="2765"/></node><node id="-50" lat="30.29009" lon="-97.789598" changeset="false"><tag k="addr:street" v="Lake Cliff Trail"/><tag k="addr:housenumber" v="510"/></node><node id="-51" lat="30.289132" lon="-97.78888" changeset="false"><tag k="addr:street" v="Lake Cliff Trail"/><tag k="addr:housenumber" v="410"/></node><node id="-52" lat="30.288469" lon="-97.788867" changeset="false"><tag k="addr:street" v="Lake Cliff Trail"/><tag k="addr:housenumber" v="400"/></node><node id="-53" lat="30.274144" lon="-97.777056" changeset="false"><tag k="addr:street" v="Stratford Drive"/><tag k="addr:housenumber" v="2407"/></node><node id="-54" lat="30.279985" lon="-97.783359" changeset="false"><tag k="addr:street" v="Lacey Avenue"/><tag k="addr:housenumber" v="202"/></node><node id="-55" lat="30.289164" lon="-97.789656" changeset="false"><tag k="addr:street" v="Lake Cliff Court"/><tag k="addr:housenumber" v="3310"/></node><node id="-56" lat="30.292037" lon="-97.788017" changeset="false"><tag k="addr:street" v="Redbud Trail"/><tag k="addr:housenumber" v="3400 1/2"/></node><node id="-57" lat="30.291342" lon="-97.795857" changeset="false"><tag k="addr:street" v="Redbud Trail"/><tag k="addr:housenumber" v="3801"/></node><node id="-58" lat="30.277158" lon="-97.779506" changeset="false"><tag k="addr:street" v="Stratford Drive"/><tag k="addr:housenumber" v="2602"/></node><node id="-59" lat="30.285808" lon="-97.792067" changeset="false"><tag k="addr:street" v="Birnam Wood Court"/><tag k="addr:housenumber" v="123"/></node><node id="-60" lat="30.271843" lon="-97.77892" changeset="false"><tag k="addr:street" v="Vale Street"/><tag k="addr:housenumber" v="305"/></node><node id="-61" lat="30.285636" lon="-97.790668" changeset="false"><tag k="addr:street" v="Stratford Hills Lane"/><tag k="addr:housenumber" v="3211"/></node><node id="-62" lat="30.286142" lon="-97.792029" changeset="false"><tag k="addr:street" v="Birnam Wood Court"/><tag k="addr:housenumber" v="127"/></node><node id="-63" lat="30.290444" lon="-97.793369" changeset="false"><tag k="addr:street" v="Forest View Drive"/><tag k="addr:housenumber" v="1024 1/2"/></node><node id="-64" lat="30.28989" lon="-97.788797" changeset="false"><tag k="addr:street" v="Lake Cliff Trail"/><tag k="addr:housenumber" v="507"/></node><node id="-65" lat="30.287658" lon="-97.789172" changeset="false"><tag k="addr:street" v="Lake Cliff Trail"/><tag k="addr:housenumber" v="302"/></node><node id="-66" lat="30.291664" lon="-97.796426" changeset="false"><tag k="addr:street" v="Redbud Trail"/><tag k="addr:housenumber" v="3805 1/2"/></node><node id="-67" lat="30.272168" lon="-97.77865" changeset="false"><tag k="addr:street" v="Vale Street"/><tag k="addr:housenumber" v="303"/></node><node id="-68" lat="30.27969" lon="-97.781405" changeset="false"><tag k="addr:street" v="Valley Spring Road"/><tag k="addr:housenumber" v="2706"/></node><node id="-69" lat="30.284765" lon="-97.78697" changeset="false"><tag k="addr:street" v="Above Stratford Place"/><tag k="addr:housenumber" v="3111"/></node><node id="-70" lat="30.283955" lon="-97.786771" changeset="false"><tag k="addr:street" v="Stratford Drive"/><tag k="addr:housenumber" v="3002"/></node><node id="-71" lat="30.269377" lon="-97.77887" changeset="false"><tag k="addr:street" v="Rollingwood Drive"/><tag k="addr:housenumber" v="2305"/></node><node id="-72" lat="30.288215" lon="-97.79106" changeset="false"><tag k="addr:street" v="Stratford Hills Lane"/><tag k="addr:housenumber" v="3404"/></node><node id="-73" lat="30.288507" lon="-97.78828" changeset="false"><tag k="addr:street" v="Lake Cliff Trail"/><tag k="addr:housenumber" v="403"/></node><node id="-74" lat="30.287496" lon="-97.790283" changeset="false"><tag k="addr:street" v="Stratford Hills Lane"/><tag k="addr:housenumber" v="3304"/></node><node id="-75" lat="30.269323" lon="-97.78092" changeset="false"><tag k="addr:street" v="Rollingwood Drive"/><tag k="addr:housenumber" v="2400"/></node><node id="-76" lat="30.289514" lon="-97.788643" changeset="false"><tag k="addr:street" v="Lake Cliff Trail"/><tag k="addr:housenumber" v="501"/></node><node id="-77" lat="30.289962" lon="-97.789124" changeset="false"><tag k="addr:street" v="Lake Cliff Trail"/><tag k="addr:housenumber" v="511"/></node><node id="-78" lat="30.285165" lon="-97.789129" changeset="false"><tag k="addr:street" v="Stratford Drive"/><tag k="addr:housenumber" v="3101"/></node><node id="-79" lat="30.284545" lon="-97.792912" changeset="false"><tag k="addr:street" v="Birnam Wood Court"/><tag k="addr:housenumber" v="101"/></node><node id="-80" lat="30.288594" lon="-97.791582" changeset="false"><tag k="addr:street" v="Stratford Hills Lane"/><tag k="addr:housenumber" v="3412"/></node><node id="-81" lat="30.286014" lon="-97.790004" changeset="false"><tag k="addr:street" v="Stratford Hills Lane"/><tag k="addr:housenumber" v="3220"/></node><node id="-82" lat="30.288148" lon="-97.788376" changeset="false"><tag k="addr:street" v="Lake Cliff Trail"/><tag k="addr:housenumber" v="401"/></node><node id="-83" lat="30.287974" lon="-97.790798" changeset="false"><tag k="addr:street" v="Stratford Hills Lane"/><tag k="addr:housenumber" v="3400"/></node><node id="-84" lat="30.268974" lon="-97.779577" changeset="false"><tag k="addr:street" v="Rollingwood Drive"/><tag k="addr:housenumber" v="2304"/></node><node id="-85" lat="30.284726" lon="-97.791367" changeset="false"><tag k="addr:street" v="Stratford Hills Lane"/><tag k="addr:housenumber" v="3201"/></node><node id="-86" lat="30.270137" lon="-97.786592" changeset="false"><tag k="addr:street" v="Bee Caves Road"/><tag k="addr:housenumber" v="2725"/></node><node id="-87" lat="30.284854" lon="-97.793505" changeset="false"><tag k="addr:street" v="Birnam Wood Court"/><tag k="addr:housenumber" v="104"/></node><node id="-88" lat="30.287184" lon="-97.790082" changeset="false"><tag k="addr:street" v="Stratford Hills Lane"/><tag k="addr:housenumber" v="3300"/></node><node id="-89" lat="30.285906" lon="-97.79052" changeset="false"><tag k="addr:street" v="Stratford Hills Lane"/><tag k="addr:housenumber" v="3215"/></node><node id="-90" lat="30.286402" lon="-97.791687" changeset="false"><tag k="addr:street" v="Birnam Wood Court"/><tag k="addr:housenumber" v="131"/></node><node id="-91" lat="30.288009" lon="-97.791856" changeset="false"><tag k="addr:street" v="Stratford Hills Lane"/><tag k="addr:housenumber" v="3411"/></node><node id="-92" lat="30.281944" lon="-97.783677" changeset="false"><tag k="addr:street" v="Stratford Drive"/><tag k="addr:housenumber" v="2806"/></node><node id="-93" lat="30.291986" lon="-97.787603" changeset="false"><tag k="addr:street" v="Redbud Trail"/><tag k="addr:housenumber" v="3310"/></node><node id="-94" lat="30.286335" lon="-97.78985" changeset="false"><tag k="addr:street" v="Stratford Hills Lane"/><tag k="addr:housenumber" v="3224"/></node><node id="-95" lat="30.265987" lon="-97.787837" changeset="false"><tag k="addr:street" v="Liberty Park Drive"/><tag k="addr:housenumber" v="1000"/></node><node id="-96" lat="30.285004" lon="-97.792662" changeset="false"><tag k="addr:street" v="Birnam Wood Court"/><tag k="addr:housenumber" v="111"/></node><node id="-97" lat="30.275353" lon="-97.776047" changeset="false"><tag k="addr:street" v="Stratford Drive"/><tag k="addr:housenumber" v="2420"/></node><node id="-98" lat="30.267745" lon="-97.791713" changeset="false"><tag k="addr:street" v="Montebello Road"/><tag k="addr:housenumber" v="2808"/></node><node id="-99" lat="30.288477" lon="-97.789538" changeset="false"><tag k="addr:street" v="Lake Cliff Court"/><tag k="addr:housenumber" v="3309"/></node><node id="-100" lat="30.269202" lon="-97.777497" changeset="false"><tag k="addr:street" v="Rollingwood Drive"/><tag k="addr:housenumber" v="2301"/></node><node id="-101" lat="30.284385" lon="-97.787667" changeset="false"><tag k="addr:street" v="Stratford Drive"/><tag k="addr:housenumber" v="3006"/></node><node id="-102" lat="30.284535" lon="-97.790903" changeset="false"><tag k="addr:street" v="Stratford Hills Lane"/><tag k="addr:housenumber" v="3200"/></node><node id="-103" lat="30.288509" lon="-97.791852" changeset="false"><tag k="addr:street" v="Stratford Hills Lane"/><tag k="addr:housenumber" v="3419"/></node><node id="-104" lat="30.284716" lon="-97.790457" changeset="false"><tag k="addr:street" v="Stratford Hills Lane"/><tag k="addr:housenumber" v="3204"/></node><node id="-105" lat="30.27804" lon="-97.780144" changeset="false"><tag k="addr:street" v="Stratford Drive"/><tag k="addr:housenumber" v="2606"/></node></osm>