<?xml version="1.0" encoding="UTF-8"?><osm version="0.6" generator="github.com/aaronlidman/osm-and-geojson"><node id="-1" lat="30.41634" lon="-97.748559" changeset="false"><tag k="addr:street" v="Jollyville Road"/><tag k="addr:housenumber" v="11587"/><tag k="coa:place_id" v="131998"/></node><node id="-2" lat="30.425673" lon="-97.753647" changeset="false"><tag k="addr:street" v="Research Boulevard"/><tag k="addr:housenumber" v="12200"/><tag k="coa:place_id" v="170951"/></node><node id="-3" lat="30.423155" lon="-97.753582" changeset="false"><tag k="addr:street" v="Arabian Trail"/><tag k="addr:housenumber" v="11811"/><tag k="coa:place_id" v="140988"/></node><node id="-4" lat="30.421588" lon="-97.760544" changeset="false"><tag k="addr:street" v="Juniper Ridge Drive"/><tag k="addr:housenumber" v="11510"/><tag k="coa:place_id" v="89678"/></node><node id="-5" lat="30.4211" lon="-97.762859" changeset="false"><tag k="addr:street" v="Oak Knoll Drive"/><tag k="addr:housenumber" v="11501"/><tag k="coa:place_id" v="932354"/></node><node id="-6" lat="30.419516" lon="-97.751781" changeset="false"><tag k="addr:street" v="Jollyville Road"/><tag k="addr:housenumber" v="11701"/><tag k="coa:place_id" v="472418"/></node><node id="-7" lat="30.422723" lon="-97.74863" changeset="false"><tag k="addr:street" v="Research Boulevard"/><tag k="addr:housenumber" v="11844"/><tag k="coa:place_id" v="472526"/></node><node id="-8" lat="30.422196" lon="-97.754158" changeset="false"><tag k="addr:street" v="Arabian Trail"/><tag k="addr:housenumber" v="11803"/><tag k="coa:place_id" v="3084659"/></node><node id="-9" lat="30.428343" lon="-97.758677" changeset="false"><tag k="addr:street" v="Research Boulevard"/><tag k="addr:housenumber" v="12434"/><tag k="coa:place_id" v="679611"/></node><node id="-10" lat="30.416838" lon="-97.749108" changeset="false"><tag k="addr:street" v="Jollyville Road"/><tag k="addr:housenumber" v="11601"/><tag k="coa:place_id" v="471656"/></node><node id="-11" lat="30.421608" lon="-97.756401" changeset="false"><tag k="addr:street" v="Q Ranch Road"/><tag k="addr:housenumber" v="11618"/><tag k="coa:place_id" v="383834"/></node><node id="-12" lat="30.422492" lon="-97.758369" changeset="false"><tag k="addr:street" v="Buttonwood Drive"/><tag k="addr:housenumber" v="11610"/><tag k="coa:place_id" v="782091"/></node><node id="-13" lat="30.423476" lon="-97.755845" changeset="false"><tag k="addr:street" v="Jollyville Road"/><tag k="addr:housenumber" v="11851"/><tag k="coa:place_id" v="3053099"/></node><node id="-14" lat="30.424348" lon="-97.757957" changeset="false"><tag k="addr:street" v="Jollyville Road"/><tag k="addr:housenumber" v="11900"/><tag k="coa:place_id" v="113206"/></node><node id="-15" lat="30.424218" lon="-97.760082" changeset="false"><tag k="addr:street" v="Columbia Oaks Court"/><tag k="addr:housenumber" v="6501"/><tag k="coa:place_id" v="632205"/></node><node id="-16" lat="30.418547" lon="-97.750744" changeset="false"><tag k="addr:street" v="Jollyville Road"/><tag k="addr:housenumber" v="11673"/><tag k="coa:place_id" v="3149802"/></node><node id="-17" lat="30.42611" lon="-97.754483" changeset="false"><tag k="addr:street" v="Research Boulevard"/><tag k="addr:housenumber" v="12222"/><tag k="coa:place_id" v="197503"/></node><node id="-18" lat="30.40796" lon="-97.746647" changeset="false"><tag k="addr:street" v="Balcones Woods Drive"/><tag k="addr:housenumber" v="5114"/><tag k="coa:place_id" v="367353"/></node><node id="-19" lat="30.416588" lon="-97.74876" changeset="false"><tag k="addr:street" v="Jollyville Road"/><tag k="addr:housenumber" v="11589"/><tag k="coa:place_id" v="471650"/></node><node id="-20" lat="30.422047" lon="-97.756893" changeset="false"><tag k="addr:street" v="Woodcrest Drive"/><tag k="addr:housenumber" v="6105"/><tag k="coa:place_id" v="3310323"/></node><node id="-21" lat="30.413704" lon="-97.746448" changeset="false"><tag k="addr:street" v="Research Boulevard"/><tag k="addr:housenumber" v="11570"/><tag k="coa:place_id" v="122808"/></node><node id="-22" lat="30.416144" lon="-97.748197" changeset="false"><tag k="addr:street" v="Thunder Creek Road"/><tag k="addr:housenumber" v="5350"/><tag k="coa:place_id" v="471440"/></node><node id="-23" lat="30.422086" lon="-97.758021" changeset="false"><tag k="addr:street" v="Buttonwood Drive"/><tag k="addr:housenumber" v="11611"/><tag k="coa:place_id" v="782325"/></node><node id="-24" lat="30.42207" lon="-97.749488" changeset="false"><tag k="addr:street" v="Bell Avenue"/><tag k="addr:housenumber" v="11909"/><tag k="coa:place_id" v="472520"/></node><node id="-25" lat="30.423016" lon="-97.75636" changeset="false"><tag k="addr:street" v="Jollyville Road"/><tag k="addr:housenumber" v="11846"/><tag k="coa:place_id" v="115685"/></node><node id="-26" lat="30.408229" lon="-97.745789" changeset="false"><tag k="addr:street" v="Research Boulevard"/><tag k="addr:housenumber" v="11200"/><tag k="coa:place_id" v="374613"/></node><node id="-27" lat="30.418177" lon="-97.749879" changeset="false"><tag k="addr:street" v="Jollyville Road"/><tag k="addr:housenumber" v="11651"/><tag k="coa:place_id" v="227370"/></node><node id="-28" lat="30.423027" lon="-97.755294" changeset="false"><tag k="addr:street" v="Jollyville Road"/><tag k="addr:housenumber" v="11829"/><tag k="coa:place_id" v="308336"/></node><node id="-29" lat="30.422674" lon="-97.753871" changeset="false"><tag k="addr:street" v="Arabian Trail"/><tag k="addr:housenumber" v="11807"/><tag k="coa:place_id" v="3084660"/></node><node id="-30" lat="30.424555" lon="-97.760688" changeset="false"><tag k="addr:street" v="Three Oaks Trail"/><tag k="addr:housenumber" v="11709"/><tag k="coa:place_id" v="385100"/></node><node id="-31" lat="30.408521" lon="-97.74586" changeset="false"><tag k="addr:street" v="Research Boulevard"/><tag k="addr:housenumber" v="11222"/><tag k="coa:place_id" v="203405"/></node><node id="-32" lat="30.416394" lon="-97.748206" changeset="false"><tag k="addr:street" v="Thunder Creek Road"/><tag k="addr:housenumber" v="5352"/><tag k="coa:place_id" v="471446"/></node><node id="-33" lat="30.417853" lon="-97.749601" changeset="false"><tag k="addr:street" v="Duval Road"/><tag k="addr:housenumber" v="5700"/><tag k="coa:place_id" v="202531"/></node><node id="-34" lat="30.42367" lon="-97.761153" changeset="false"><tag k="addr:street" v="Three Oaks Trail"/><tag k="addr:housenumber" v="11701"/><tag k="coa:place_id" v="385562"/></node><node id="-35" lat="30.412311" lon="-97.74624" changeset="false"><tag k="addr:street" v="Research Boulevard"/><tag k="addr:housenumber" v="11514"/><tag k="coa:place_id" v="751809"/></node><node id="-36" lat="30.427985" lon="-97.758004" changeset="false"><tag k="addr:street" v="Research Boulevard"/><tag k="addr:housenumber" v="12424"/><tag k="coa:place_id" v="191279"/></node><node id="-37" lat="30.42378" lon="-97.74979" changeset="false"><tag k="addr:street" v="Research Boulevard"/><tag k="addr:housenumber" v="11906"/><tag k="coa:place_id" v="308678"/></node><node id="-38" lat="30.423275" lon="-97.751331" changeset="false"><tag k="addr:street" v="Hamrich Court"/><tag k="addr:housenumber" v="11900"/><tag k="coa:place_id" v="472544"/></node><node id="-39" lat="30.421529" lon="-97.758501" changeset="false"><tag k="addr:street" v="Buttonwood Drive"/><tag k="addr:housenumber" v="11605"/><tag k="coa:place_id" v="782343"/></node><node id="-40" lat="30.417265" lon="-97.749247" changeset="false"><tag k="addr:street" v="Jollyville Road"/><tag k="addr:housenumber" v="11603"/><tag k="coa:place_id" v="471662"/></node><node id="-41" lat="30.417114" lon="-97.747802" changeset="false"><tag k="addr:street" v="Thunder Creek Road"/><tag k="addr:housenumber" v="5338"/><tag k="coa:place_id" v="471500"/></node><node id="-42" lat="30.422447" lon="-97.754748" changeset="false"><tag k="addr:street" v="Arabian Trail"/><tag k="addr:housenumber" v="11800"/><tag k="coa:place_id" v="472412"/></node><node id="-43" lat="30.418799" lon="-97.75127" changeset="false"><tag k="addr:street" v="Jollyville Road"/><tag k="addr:housenumber" v="11675"/><tag k="coa:place_id" v="301648"/></node><node id="-44" lat="30.422839" lon="-97.755516" changeset="false"><tag k="addr:street" v="Jollyville Road"/><tag k="addr:housenumber" v="11841"/><tag k="coa:place_id" v="383894"/></node><node id="-45" lat="30.422842" lon="-97.755937" changeset="false"><tag k="addr:street" v="Jollyville Road"/><tag k="addr:housenumber" v="11854"/><tag k="coa:place_id" v="383900"/></node><node id="-46" lat="30.422823" lon="-97.759508" changeset="false"><tag k="addr:street" v="Juniper Ridge Drive"/><tag k="addr:housenumber" v="11605"/><tag k="coa:place_id" v="781983"/></node><node id="-47" lat="30.421502" lon="-97.749766" changeset="false"><tag k="addr:street" v="Bell Avenue"/><tag k="addr:housenumber" v="11807 1/2"/><tag k="coa:place_id" v="3185355"/></node><node id="-48" lat="30.419359" lon="-97.751079" changeset="false"><tag k="addr:street" v="Bell Avenue"/><tag k="addr:housenumber" v="11717 1/2"/><tag k="coa:place_id" v="3185356"/></node><node id="-49" lat="30.425494" lon="-97.760085" changeset="false"><tag k="addr:street" v="Three Oaks Trail"/><tag k="addr:housenumber" v="11805"/><tag k="coa:place_id" v="385070"/></node><node id="-50" lat="30.409451" lon="-97.747315" changeset="false"><tag k="addr:street" v="Jollyville Road"/><tag k="addr:housenumber" v="11201"/><tag k="coa:place_id" v="184614"/></node><node id="-51" lat="30.423577" lon="-97.760086" changeset="false"><tag k="addr:street" v="Autumn Ridge Drive"/><tag k="addr:housenumber" v="11611"/><tag k="coa:place_id" v="668895"/></node><node id="-52" lat="30.422617" lon="-97.748545" changeset="false"><tag k="addr:street" v="Research Boulevard"/><tag k="addr:housenumber" v="11836"/><tag k="coa:place_id" v="308690"/></node><node id="-53" lat="30.423265" lon="-97.750211" changeset="false"><tag k="addr:street" v="Arabian Trail"/><tag k="addr:housenumber" v="11945"/><tag k="coa:place_id" v="93631"/></node><node id="-54" lat="30.424738" lon="-97.756673" changeset="false"><tag k="addr:street" v="Jollyville Road"/><tag k="addr:housenumber" v="11901"/><tag k="coa:place_id" v="621562"/></node><node id="-55" lat="30.42658" lon="-97.758751" changeset="false"><tag k="addr:street" v="Jollyville Road"/><tag k="addr:housenumber" v="11970"/><tag k="coa:place_id" v="632067"/></node><node id="-56" lat="30.428511" lon="-97.75911" changeset="false"><tag k="addr:street" v="Research Boulevard"/><tag k="addr:housenumber" v="12444"/><tag k="coa:place_id" v="249781"/></node><node id="-57" lat="30.416264" lon="-97.747766" changeset="false"><tag k="addr:street" v="Thunder Creek Road"/><tag k="addr:housenumber" v="5351"/><tag k="coa:place_id" v="471506"/></node><node id="-58" lat="30.424056" lon="-97.756468" changeset="false"><tag k="addr:street" v="Jollyville Road"/><tag k="addr:housenumber" v="11885"/><tag k="coa:place_id" v="1164384"/></node><node id="-59" lat="30.410646" lon="-97.74605" changeset="false"><tag k="addr:street" v="Research Boulevard"/><tag k="addr:housenumber" v="11400"/><tag k="coa:place_id" v="992180"/></node><node id="-60" lat="30.422377" lon="-97.759354" changeset="false"><tag k="addr:street" v="Leatherwood Cove"/><tag k="addr:housenumber" v="6309"/><tag k="coa:place_id" v="782073"/></node><node id="-61" lat="30.411273" lon="-97.745734" changeset="false"><tag k="addr:street" v="Research Boulevard"/><tag k="addr:housenumber" v="11500"/><tag k="coa:place_id" v="471536"/></node><node id="-62" lat="30.420604" lon="-97.751074" changeset="false"><tag k="addr:street" v="Bell Avenue"/><tag k="addr:housenumber" v="11722"/><tag k="coa:place_id" v="3357592"/></node><node id="-63" lat="30.421871" lon="-97.756476" changeset="false"><tag k="addr:street" v="Woodcrest Drive"/><tag k="addr:housenumber" v="6009"/><tag k="coa:place_id" v="3310321"/></node><node id="-64" lat="30.42195" lon="-97.756681" changeset="false"><tag k="addr:street" v="Woodcrest Drive"/><tag k="addr:housenumber" v="6101"/><tag k="coa:place_id" v="3310322"/></node><node id="-65" lat="30.422956" lon="-97.750264" changeset="false"><tag k="addr:street" v="Hamrich Court"/><tag k="addr:housenumber" v="11903"/><tag k="coa:place_id" v="472538"/></node><node id="-66" lat="30.423192" lon="-97.754311" changeset="false"><tag k="addr:street" v="Arabian Trail"/><tag k="addr:housenumber" v="11808"/><tag k="coa:place_id" v="472394"/></node><node id="-67" lat="30.416637" lon="-97.748017" changeset="false"><tag k="addr:street" v="Thunder Creek Road"/><tag k="addr:housenumber" v="5346"/><tag k="coa:place_id" v="150150"/></node><node id="-68" lat="30.40958" lon="-97.747319" changeset="false"><tag k="addr:street" v="Jollyville Road"/><tag k="addr:housenumber" v="11207"/><tag k="coa:place_id" v="184615"/></node><node id="-69" lat="30.421239" lon="-97.760369" changeset="false"><tag k="addr:street" v="Juniper Ridge Drive"/><tag k="addr:housenumber" v="11515"/><tag k="coa:place_id" v="782463"/></node><node id="-70" lat="30.420899" lon="-97.751499" changeset="false"><tag k="addr:street" v="Rain Forest Cove"/><tag k="addr:housenumber" v="11803"/><tag k="coa:place_id" v="740229"/></node><node id="-71" lat="30.408698" lon="-97.745736" changeset="false"><tag k="addr:street" v="Research Boulevard"/><tag k="addr:housenumber" v="11220"/><tag k="coa:place_id" v="688137"/></node><node id="-72" lat="30.425183" lon="-97.753205" changeset="false"><tag k="addr:street" v="Arabian Trail"/><tag k="addr:housenumber" v="11912"/><tag k="coa:place_id" v="3084661"/></node><node id="-73" lat="30.427063" lon="-97.759427" changeset="false"><tag k="addr:street" v="Jollyville Road"/><tag k="addr:housenumber" v="11994"/><tag k="coa:place_id" v="320583"/></node><node id="-74" lat="30.413329" lon="-97.746406" changeset="false"><tag k="addr:street" v="Research Boulevard"/><tag k="addr:housenumber" v="11560"/><tag k="coa:place_id" v="362505"/></node><node id="-75" lat="30.426163" lon="-97.757986" changeset="false"><tag k="addr:street" v="Jollyville Road"/><tag k="addr:housenumber" v="11949"/><tag k="coa:place_id" v="383912"/></node><node id="-76" lat="30.416878" lon="-97.747725" changeset="false"><tag k="addr:street" v="Thunder Creek Road"/><tag k="addr:housenumber" v="5336"/><tag k="coa:place_id" v="56295"/></node><node id="-77" lat="30.420414" lon="-97.751158" changeset="false"><tag k="addr:street" v="Bell Avenue"/><tag k="addr:housenumber" v="11720"/><tag k="coa:place_id" v="67629"/></node><node id="-78" lat="30.422418" lon="-97.755646" changeset="false"><tag k="addr:street" v="Jollyville Road"/><tag k="addr:housenumber" v="11824"/><tag k="coa:place_id" v="257134"/></node><node id="-79" lat="30.421419" lon="-97.762611" changeset="false"><tag k="addr:street" v="Oak Knoll Drive"/><tag k="addr:housenumber" v="11505"/><tag k="coa:place_id" v="189711"/></node><node id="-80" lat="30.422945" lon="-97.748828" changeset="false"><tag k="addr:street" v="Research Boulevard"/><tag k="addr:housenumber" v="11862"/><tag k="coa:place_id" v="356229"/></node><node id="-81" lat="30.416086" lon="-97.748546" changeset="false"><tag k="addr:street" v="Jollyville Road"/><tag k="addr:housenumber" v="11585"/><tag k="coa:place_id" v="471644"/></node><node id="-82" lat="30.421365" lon="-97.760832" changeset="false"><tag k="addr:street" v="Juniper Ridge Drive"/><tag k="addr:housenumber" v="11506"/><tag k="coa:place_id" v="89677"/></node><node id="-83" lat="30.415519" lon="-97.747949" changeset="false"><tag k="addr:street" v="Jollyville Road"/><tag k="addr:housenumber" v="11575"/><tag k="coa:place_id" v="471518"/></node><node id="-84" lat="30.420846" lon="-97.75325" changeset="false"><tag k="addr:street" v="Secrest Drive"/><tag k="addr:housenumber" v="5844"/><tag k="coa:place_id" v="114433"/></node><node id="-85" lat="30.415522" lon="-97.747128" changeset="false"><tag k="addr:street" v="Research Boulevard"/><tag k="addr:housenumber" v="11600"/><tag k="coa:place_id" v="134490"/></node><node id="-86" lat="30.416822" lon="-97.747205" changeset="false"><tag k="addr:street" v="Research Boulevard"/><tag k="addr:housenumber" v="11654"/><tag k="coa:place_id" v="162508"/></node><node id="-87" lat="30.421832" lon="-97.755918" changeset="false"><tag k="addr:street" v="Q Ranch Road"/><tag k="addr:housenumber" v="11628"/><tag k="coa:place_id" v="383906"/></node><node id="-88" lat="30.418012" lon="-97.747573" changeset="false"><tag k="addr:street" v="Research Boulevard"/><tag k="addr:housenumber" v="11680"/><tag k="coa:place_id" v="184609"/></node><node id="-89" lat="30.418273" lon="-97.750646" changeset="false"><tag k="addr:street" v="Jollyville Road"/><tag k="addr:housenumber" v="11671"/><tag k="coa:place_id" v="1163187"/></node><node id="-90" lat="30.421886" lon="-97.758184" changeset="false"><tag k="addr:street" v="Buttonwood Drive"/><tag k="addr:housenumber" v="11609"/><tag k="coa:place_id" v="782331"/></node><node id="-91" lat="30.423804" lon="-97.756189" changeset="false"><tag k="addr:street" v="Jollyville Road"/><tag k="addr:housenumber" v="11881"/><tag k="coa:place_id" v="208685"/></node><node id="-92" lat="30.422701" lon="-97.762463" changeset="false"><tag k="addr:street" v="Three Oaks Trail"/><tag k="addr:housenumber" v="11500"/><tag k="coa:place_id" v="101333"/></node><node id="-93" lat="30.421897" lon="-97.749959" changeset="false"><tag k="addr:street" v="Bell Avenue"/><tag k="addr:housenumber" v="11900"/><tag k="coa:place_id" v="472448"/></node><node id="-94" lat="30.408064" lon="-97.746274" changeset="false"><tag k="addr:street" v="Balcones Woods Drive"/><tag k="addr:housenumber" v="5108"/><tag k="coa:place_id" v="440439"/></node><node id="-95" lat="30.420042" lon="-97.750652" changeset="false"><tag k="addr:street" v="Bell Avenue"/><tag k="addr:housenumber" v="11727"/><tag k="coa:place_id" v="3219379"/></node><node id="-96" lat="30.422573" lon="-97.749018" changeset="false"><tag k="addr:street" v="Bell Avenue"/><tag k="addr:housenumber" v="11907"/><tag k="coa:place_id" v="242425"/></node><node id="-97" lat="30.422559" lon="-97.748996" changeset="false"><tag k="addr:street" v="Bell Avenue"/><tag k="addr:housenumber" v="11905 1/2"/><tag k="coa:place_id" v="3033684"/></node><node id="-98" lat="30.425271" lon="-97.752875" changeset="false"><tag k="addr:street" v="Research Boulevard"/><tag k="addr:housenumber" v="12034"/><tag k="coa:place_id" v="126964"/></node><node id="-99" lat="30.42549" lon="-97.753194" changeset="false"><tag k="addr:street" v="Research Boulevard"/><tag k="addr:housenumber" v="12038"/><tag k="coa:place_id" v="679444"/></node><node id="-100" lat="30.422971" lon="-97.75544" changeset="false"><tag k="addr:street" v="Jollyville Road"/><tag k="addr:housenumber" v="11835"/><tag k="coa:place_id" v="3307838"/></node><node id="-101" lat="30.422938" lon="-97.755355" changeset="false"><tag k="addr:street" v="Jollyville Road"/><tag k="addr:housenumber" v="11827"/><tag k="coa:place_id" v="383888"/></node><node id="-102" lat="30.42282" lon="-97.755268" changeset="false"><tag k="addr:street" v="Jollyville Road"/><tag k="addr:housenumber" v="11825"/><tag k="coa:place_id" v="383882"/></node><node id="-103" lat="30.421395" lon="-97.751804" changeset="false"><tag k="addr:street" v="Rain Forest Cove"/><tag k="addr:housenumber" v="11806"/><tag k="coa:place_id" v="847953"/></node><node id="-104" lat="30.421271" lon="-97.751949" changeset="false"><tag k="addr:street" v="Rain Forest Cove"/><tag k="addr:housenumber" v="11804"/><tag k="coa:place_id" v="738681"/></node></osm>