<?xml version="1.0" encoding="UTF-8"?><osm version="0.6" generator="github.com/aaronlidman/osm-and-geojson"><node id="-1" lat="30.091626" lon="-97.726573" changeset="false"><tag k="addr:street" v="Farm-to-Market Road 1327"/><tag k="addr:housenumber" v="5300"/></node><node id="-2" lat="30.123703" lon="-97.740891" changeset="false"><tag k="addr:street" v="Thaxton Road"/><tag k="addr:housenumber" v="10509"/></node><node id="-3" lat="30.122886" lon="-97.738437" changeset="false"><tag k="addr:street" v="Coulver Road"/><tag k="addr:housenumber" v="7821"/></node><node id="-4" lat="30.111909" lon="-97.718548" changeset="false"><tag k="addr:street" v="Farm-to-Market Road 1625"/><tag k="addr:housenumber" v="10513"/></node><node id="-5" lat="30.109718" lon="-97.749863" changeset="false"><tag k="addr:street" v="Carl Road"/><tag k="addr:housenumber" v="11519"/></node><node id="-6" lat="30.104733" lon="-97.717969" changeset="false"><tag k="addr:street" v="Cliffbrook Drive"/><tag k="addr:housenumber" v="9500"/></node><node id="-7" lat="30.096952" lon="-97.732248" changeset="false"><tag k="addr:street" v="Farm-to-Market Road 1625"/><tag k="addr:housenumber" v="11720"/></node><node id="-8" lat="30.119373" lon="-97.743679" changeset="false"><tag k="addr:street" v="Thaxton Road"/><tag k="addr:housenumber" v="10807"/></node><node id="-9" lat="30.120262" lon="-97.73449" changeset="false"><tag k="addr:street" v="Coulver Road"/><tag k="addr:housenumber" v="8027"/></node><node id="-10" lat="30.093927" lon="-97.732541" changeset="false"><tag k="addr:street" v="Farm-to-Market Road 1625"/><tag k="addr:housenumber" v="12004"/></node><node id="-11" lat="30.116952" lon="-97.714894" changeset="false"><tag k="addr:street" v="Farm-to-Market Road 1625"/><tag k="addr:housenumber" v="10017"/></node><node id="-12" lat="30.119986" lon="-97.713205" changeset="false"><tag k="addr:street" v="Rodriguez Road"/><tag k="addr:housenumber" v="9125"/></node><node id="-13" lat="30.115363" lon="-97.703592" changeset="false"><tag k="addr:street" v="Rodriguez Road"/><tag k="addr:housenumber" v="9903"/></node><node id="-14" lat="30.117154" lon="-97.717071" changeset="false"><tag k="addr:street" v="Farm-to-Market Road 1625"/><tag k="addr:housenumber" v="10101"/></node><node id="-15" lat="30.1176" lon="-97.744704" changeset="false"><tag k="addr:street" v="Thaxton Road"/><tag k="addr:housenumber" v="10911"/></node><node id="-16" lat="30.1088" lon="-97.747567" changeset="false"><tag k="addr:street" v="Hunters Ridge Road"/><tag k="addr:housenumber" v="11501"/></node><node id="-17" lat="30.104078" lon="-97.716591" changeset="false"><tag k="addr:street" v="Cliffbrook Drive"/><tag k="addr:housenumber" v="9600"/></node><node id="-18" lat="30.120848" lon="-97.742807" changeset="false"><tag k="addr:street" v="Thaxton Road"/><tag k="addr:housenumber" v="10705"/></node><node id="-19" lat="30.119113" lon="-97.735441" changeset="false"><tag k="addr:street" v="Coulver Road"/><tag k="addr:housenumber" v="8023"/></node><node id="-20" lat="30.103171" lon="-97.726747" changeset="false"><tag k="addr:street" v="Farm-to-Market Road 1625"/><tag k="addr:housenumber" v="11218"/></node><node id="-21" lat="30.10544" lon="-97.719427" changeset="false"><tag k="addr:street" v="Cliffbrook Drive"/><tag k="addr:housenumber" v="9304"/></node><node id="-22" lat="30.107046" lon="-97.748647" changeset="false"><tag k="addr:street" v="Hunters Ridge Road"/><tag k="addr:housenumber" v="11605"/></node><node id="-23" lat="30.095834" lon="-97.746295" changeset="false"><tag k="addr:street" v="Farm-to-Market Road 1327"/><tag k="addr:housenumber" v="4016"/></node><node id="-24" lat="30.092903" lon="-97.73941" changeset="false"><tag k="addr:street" v="Farm-to-Market Road 1327"/><tag k="addr:housenumber" v="4512"/></node><node id="-25" lat="30.10799" lon="-97.748163" changeset="false"><tag k="addr:street" v="Hunters Ridge Road"/><tag k="addr:housenumber" v="11601"/></node><node id="-26" lat="30.123774" lon="-97.740942" changeset="false"><tag k="addr:street" v="Thaxton Road"/><tag k="addr:housenumber" v="10505"/></node><node id="-27" lat="30.122987" lon="-97.741401" changeset="false"><tag k="addr:street" v="Thaxton Road"/><tag k="addr:housenumber" v="10513"/></node><node id="-28" lat="30.092454" lon="-97.733491" changeset="false"><tag k="addr:street" v="Farm-to-Market Road 1625"/><tag k="addr:housenumber" v="12108"/></node><node id="-29" lat="30.115286" lon="-97.718361" changeset="false"><tag k="addr:street" v="Farm-to-Market Road 1625"/><tag k="addr:housenumber" v="10301"/></node><node id="-30" lat="30.090585" lon="-97.733098" changeset="false"><tag k="addr:street" v="Farm-to-Market Road 1625"/><tag k="addr:housenumber" v="12215"/></node><node id="-31" lat="30.095312" lon="-97.732091" changeset="false"><tag k="addr:street" v="Farm-to-Market Road 1625"/><tag k="addr:housenumber" v="11900"/></node><node id="-32" lat="30.10473" lon="-97.719807" changeset="false"><tag k="addr:street" v="Cliffbrook Drive"/><tag k="addr:housenumber" v="9305"/></node><node id="-33" lat="30.115515" lon="-97.703938" changeset="false"><tag k="addr:street" v="Rodriguez Road"/><tag k="addr:housenumber" v="9901"/></node><node id="-34" lat="30.106908" lon="-97.721993" changeset="false"><tag k="addr:street" v="Cliffbrook Drive"/><tag k="addr:housenumber" v="9100"/></node><node id="-35" lat="30.105753" lon="-97.72428" changeset="false"><tag k="addr:street" v="Farm-to-Market Road 1625"/><tag k="addr:housenumber" v="11019"/></node><node id="-36" lat="30.108241" lon="-97.723517" changeset="false"><tag k="addr:street" v="Farm-to-Market Road 1625"/><tag k="addr:housenumber" v="10900"/></node><node id="-37" lat="30.118954" lon="-97.730359" changeset="false"><tag k="addr:street" v="Coulver Road"/><tag k="addr:housenumber" v="8301"/></node><node id="-38" lat="30.120976" lon="-97.736328" changeset="false"><tag k="addr:street" v="Coulver Road"/><tag k="addr:housenumber" v="8001"/></node><node id="-39" lat="30.119424" lon="-97.731127" changeset="false"><tag k="addr:street" v="Coulver Road"/><tag k="addr:housenumber" v="8219"/></node><node id="-40" lat="30.089024" lon="-97.721233" changeset="false"><tag k="addr:street" v="Farm-to-Market Road 1327"/><tag k="addr:housenumber" v="5700"/></node><node id="-41" lat="30.105601" lon="-97.721842" changeset="false"><tag k="addr:street" v="Cliffbrook Drive"/><tag k="addr:housenumber" v="9105"/></node><node id="-42" lat="30.120608" lon="-97.735391" changeset="false"><tag k="addr:street" v="Coulver Road"/><tag k="addr:housenumber" v="8017"/></node><node id="-43" lat="30.120168" lon="-97.737682" changeset="false"><tag k="addr:street" v="Coulver Road"/><tag k="addr:housenumber" v="7927"/></node><node id="-44" lat="30.090812" lon="-97.734541" changeset="false"><tag k="addr:street" v="Farm-to-Market Road 1625"/><tag k="addr:housenumber" v="12220"/></node><node id="-45" lat="30.118532" lon="-97.743923" changeset="false"><tag k="addr:street" v="Thaxton Road"/><tag k="addr:housenumber" v="10901"/></node><node id="-46" lat="30.117023" lon="-97.726628" changeset="false"><tag k="addr:street" v="Coulver Road"/><tag k="addr:housenumber" v="8415"/></node><node id="-47" lat="30.116228" lon="-97.705428" changeset="false"><tag k="addr:street" v="Rodriguez Road"/><tag k="addr:housenumber" v="9713"/></node><node id="-48" lat="30.104244" lon="-97.752332" changeset="false"><tag k="addr:street" v="Carl Road"/><tag k="addr:housenumber" v="11901"/></node><node id="-49" lat="30.09517" lon="-97.74445" changeset="false"><tag k="addr:street" v="Farm-to-Market Road 1327"/><tag k="addr:housenumber" v="4200"/></node><node id="-50" lat="30.118328" lon="-97.729072" changeset="false"><tag k="addr:street" v="Coulver Road"/><tag k="addr:housenumber" v="8311"/></node><node id="-51" lat="30.104802" lon="-97.725948" changeset="false"><tag k="addr:street" v="Farm-to-Market Road 1625"/><tag k="addr:housenumber" v="11110"/></node><node id="-52" lat="30.103832" lon="-97.726404" changeset="false"><tag k="addr:street" v="Farm-to-Market Road 1625"/><tag k="addr:housenumber" v="11206"/></node><node id="-53" lat="30.114665" lon="-97.702241" changeset="false"><tag k="addr:street" v="Rodriguez Road"/><tag k="addr:housenumber" v="10009"/></node><node id="-54" lat="30.117581" lon="-97.727536" changeset="false"><tag k="addr:street" v="Coulver Road"/><tag k="addr:housenumber" v="8409"/></node><node id="-55" lat="30.110386" lon="-97.749576" changeset="false"><tag k="addr:street" v="Carl Road"/><tag k="addr:housenumber" v="11509"/></node><node id="-56" lat="30.119523" lon="-97.712383" changeset="false"><tag k="addr:street" v="Rodriguez Road"/><tag k="addr:housenumber" v="9207"/></node><node id="-57" lat="30.122149" lon="-97.741946" changeset="false"><tag k="addr:street" v="Thaxton Road"/><tag k="addr:housenumber" v="10611"/></node><node id="-58" lat="30.09767" lon="-97.730851" changeset="false"><tag k="addr:street" v="Farm-to-Market Road 1625"/><tag k="addr:housenumber" v="11712"/></node><node id="-59" lat="30.116484" lon="-97.71394" changeset="false"><tag k="addr:street" v="Farm-to-Market Road 1625"/><tag k="addr:housenumber" v="10019"/></node><node id="-60" lat="30.117621" lon="-97.708539" changeset="false"><tag k="addr:street" v="Rodriguez Road"/><tag k="addr:housenumber" v="9507"/></node><node id="-61" lat="30.091814" lon="-97.733934" changeset="false"><tag k="addr:street" v="Farm-to-Market Road 1625"/><tag k="addr:housenumber" v="12200"/></node><node id="-62" lat="30.114188" lon="-97.744623" changeset="false"><tag k="addr:street" v="Thaxton Road"/><tag k="addr:housenumber" v="11201"/></node><node id="-63" lat="30.117563" lon="-97.709862" changeset="false"><tag k="addr:street" v="Rodriguez Road"/><tag k="addr:housenumber" v="9407"/></node><node id="-64" lat="30.120655" lon="-97.714563" changeset="false"><tag k="addr:street" v="Rodriguez Road"/><tag k="addr:housenumber" v="9009"/></node><node id="-65" lat="30.120099" lon="-97.713449" changeset="false"><tag k="addr:street" v="Rodriguez Road"/><tag k="addr:housenumber" v="9109"/></node><node id="-66" lat="30.10742" lon="-97.69561" changeset="false"><tag k="addr:street" v="Maha Circle"/><tag k="addr:housenumber" v="10701"/></node><node id="-67" lat="30.11352" lon="-97.748298" changeset="false"><tag k="addr:street" v="Thaxton Road"/><tag k="addr:housenumber" v="11303"/></node><node id="-68" lat="30.103658" lon="-97.715835" changeset="false"><tag k="addr:street" v="Cliffbrook Drive"/><tag k="addr:housenumber" v="9604"/></node><node id="-69" lat="30.104456" lon="-97.717279" changeset="false"><tag k="addr:street" v="Cliffbrook Drive"/><tag k="addr:housenumber" v="9502"/></node><node id="-70" lat="30.104443" lon="-97.724788" changeset="false"><tag k="addr:street" v="Farm-to-Market Road 1625"/><tag k="addr:housenumber" v="11111"/></node><node id="-71" lat="30.123612" lon="-97.739904" changeset="false"><tag k="addr:street" v="Coulver Road"/><tag k="addr:housenumber" v="7707"/></node><node id="-72" lat="30.110837" lon="-97.718555" changeset="false"><tag k="addr:street" v="Farm-to-Market Road 1625"/><tag k="addr:housenumber" v="10601"/></node><node id="-73" lat="30.093806" lon="-97.735752" changeset="false"><tag k="addr:street" v="Farm-to-Market Road 1327"/><tag k="addr:housenumber" v="4620"/></node><node id="-74" lat="30.117773" lon="-97.72788" changeset="false"><tag k="addr:street" v="Coulver Road"/><tag k="addr:housenumber" v="8403"/></node><node id="-75" lat="30.096717" lon="-97.731179" changeset="false"><tag k="addr:street" v="Farm-to-Market Road 1625"/><tag k="addr:housenumber" v="11718"/></node><node id="-76" lat="30.119585" lon="-97.743548" changeset="false"><tag k="addr:street" v="Thaxton Road"/><tag k="addr:housenumber" v="10805"/></node><node id="-77" lat="30.1145" lon="-97.702676" changeset="false"><tag k="addr:street" v="Rodriguez Road"/><tag k="addr:housenumber" v="9939"/></node><node id="-78" lat="30.106239" lon="-97.720906" changeset="false"><tag k="addr:street" v="Cliffbrook Drive"/><tag k="addr:housenumber" v="9202"/></node><node id="-79" lat="30.104586" lon="-97.719195" changeset="false"><tag k="addr:street" v="Cliffbrook Drive"/><tag k="addr:housenumber" v="9401"/></node><node id="-80" lat="30.100824" lon="-97.755219" changeset="false"><tag k="addr:street" v="Carl Road"/><tag k="addr:housenumber" v="12205"/></node><node id="-81" lat="30.099035" lon="-97.75229" changeset="false"><tag k="addr:street" v="Farm-to-Market Road 1327"/><tag k="addr:housenumber" v="3606"/></node><node id="-82" lat="30.123873" lon="-97.740448" changeset="false"><tag k="addr:street" v="Coulver Road"/><tag k="addr:housenumber" v="7701"/></node><node id="-83" lat="30.110431" lon="-97.721422" changeset="false"><tag k="addr:street" v="Farm-to-Market Road 1625"/><tag k="addr:housenumber" v="10701"/></node><node id="-84" lat="30.114151" lon="-97.702743" changeset="false"><tag k="addr:street" v="Rodriguez Road"/><tag k="addr:housenumber" v="9945"/></node><node id="-85" lat="30.091303" lon="-97.733365" changeset="false"><tag k="addr:street" v="Farm-to-Market Road 1625"/><tag k="addr:housenumber" v="12201"/></node><node id="-86" lat="30.116091" lon="-97.705105" changeset="false"><tag k="addr:street" v="Rodriguez Road"/><tag k="addr:housenumber" v="9801"/></node><node id="-87" lat="30.114289" lon="-97.703936" changeset="false"><tag k="addr:street" v="Rodriguez Road"/><tag k="addr:housenumber" v="9907"/></node><node id="-88" lat="30.114215" lon="-97.701219" changeset="false"><tag k="addr:street" v="Rodriguez Road"/><tag k="addr:housenumber" v="10105"/></node><node id="-89" lat="30.103343" lon="-97.715285" changeset="false"><tag k="addr:street" v="Cliffbrook Drive"/><tag k="addr:housenumber" v="9608"/></node><node id="-90" lat="30.089796" lon="-97.722154" changeset="false"><tag k="addr:street" v="Farm-to-Market Road 1327"/><tag k="addr:housenumber" v="5604"/></node><node id="-91" lat="30.094244" lon="-97.741636" changeset="false"><tag k="addr:street" v="Farm-to-Market Road 1327"/><tag k="addr:housenumber" v="4410"/></node><node id="-92" lat="30.110014" lon="-97.747031" changeset="false"><tag k="addr:street" v="Hunters Ridge Road"/><tag k="addr:housenumber" v="11401"/></node><node id="-93" lat="30.110032" lon="-97.714037" changeset="false"><tag k="addr:street" v="Farm-to-Market Road 1625"/><tag k="addr:housenumber" v="10815"/></node><node id="-94" lat="30.091159" lon="-97.734232" changeset="false"><tag k="addr:street" v="Farm-to-Market Road 1625"/><tag k="addr:housenumber" v="12208"/></node><node id="-95" lat="30.089224" lon="-97.718454" changeset="false"><tag k="addr:street" v="Farm-to-Market Road 1327"/><tag k="addr:housenumber" v="5900"/></node><node id="-96" lat="30.090252" lon="-97.733654" changeset="false"><tag k="addr:street" v="Farm-to-Market Road 1327"/><tag k="addr:housenumber" v="4904"/></node><node id="-97" lat="30.114494" lon="-97.718504" changeset="false"><tag k="addr:street" v="Farm-to-Market Road 1625"/><tag k="addr:housenumber" v="10325"/></node><node id="-98" lat="30.119795" lon="-97.715476" changeset="false"><tag k="addr:street" v="Farm-to-Market Road 1625"/><tag k="addr:housenumber" v="10005"/></node><node id="-99" lat="30.118239" lon="-97.728701" changeset="false"><tag k="addr:street" v="Coulver Road"/><tag k="addr:housenumber" v="8401"/></node><node id="-100" lat="30.11752" lon="-97.745092" changeset="false"><tag k="addr:street" v="Thaxton Road"/><tag k="addr:housenumber" v="10925"/></node><node id="-101" lat="30.114783" lon="-97.702605" changeset="false"><tag k="addr:street" v="Rodriguez Road"/><tag k="addr:housenumber" v="9919"/></node><node id="-102" lat="30.091773" lon="-97.733106" changeset="false"><tag k="addr:street" v="Farm-to-Market Road 1625"/><tag k="addr:housenumber" v="12117"/></node><node id="-103" lat="30.094743" lon="-97.732212" changeset="false"><tag k="addr:street" v="Farm-to-Market Road 1625"/><tag k="addr:housenumber" v="11916"/></node><node id="-104" lat="30.118173" lon="-97.74418" changeset="false"><tag k="addr:street" v="Thaxton Road"/><tag k="addr:housenumber" v="10907"/></node><node id="-105" lat="30.117542" lon="-97.709167" changeset="false"><tag k="addr:street" v="Rodriguez Road"/><tag k="addr:housenumber" v="9415"/></node><node id="-106" lat="30.108767" lon="-97.696214" changeset="false"><tag k="addr:street" v="Maha Circle"/><tag k="addr:housenumber" v="10608"/></node><node id="-107" lat="30.12069" lon="-97.714672" changeset="false"><tag k="addr:street" v="Rodriguez Road"/><tag k="addr:housenumber" v="9005"/></node><node id="-108" lat="30.118794" lon="-97.710869" changeset="false"><tag k="addr:street" v="Rodriguez Road"/><tag k="addr:housenumber" v="9315"/></node><node id="-109" lat="30.117361" lon="-97.726899" changeset="false"><tag k="addr:street" v="Coulver Road"/><tag k="addr:housenumber" v="8413"/></node><node id="-110" lat="30.120152" lon="-97.73262" changeset="false"><tag k="addr:street" v="Coulver Road"/><tag k="addr:housenumber" v="8107"/></node><node id="-111" lat="30.094406" lon="-97.742463" changeset="false"><tag k="addr:street" v="Farm-to-Market Road 1327"/><tag k="addr:housenumber" v="4402"/></node><node id="-112" lat="30.105133" lon="-97.718726" changeset="false"><tag k="addr:street" v="Cliffbrook Drive"/><tag k="addr:housenumber" v="9402"/></node><node id="-113" lat="30.115901" lon="-97.746209" changeset="false"><tag k="addr:street" v="Thaxton Road"/><tag k="addr:housenumber" v="11109"/></node><node id="-114" lat="30.090932" lon="-97.735909" changeset="false"><tag k="addr:street" v="Farm-to-Market Road 1327"/><tag k="addr:housenumber" v="4722"/></node><node id="-115" lat="30.117425" lon="-97.727808" changeset="false"><tag k="addr:street" v="Coulver Road"/><tag k="addr:housenumber" v="8407"/></node><node id="-116" lat="30.097427" lon="-97.73262" changeset="false"><tag k="addr:street" v="Farm-to-Market Road 1625"/><tag k="addr:housenumber" v="11708"/></node><node id="-117" lat="30.119745" lon="-97.736521" changeset="false"><tag k="addr:street" v="Coulver Road"/><tag k="addr:housenumber" v="8007"/></node><node id="-118" lat="30.12221" lon="-97.737078" changeset="false"><tag k="addr:street" v="Coulver Road"/><tag k="addr:housenumber" v="7915"/></node><node id="-119" lat="30.108341" lon="-97.696128" changeset="false"><tag k="addr:street" v="Maha Circle"/><tag k="addr:housenumber" v="10610"/></node><node id="-120" lat="30.094287" lon="-97.732305" changeset="false"><tag k="addr:street" v="Farm-to-Market Road 1625"/><tag k="addr:housenumber" v="11920"/></node><node id="-121" lat="30.118367" lon="-97.744059" changeset="false"><tag k="addr:street" v="Thaxton Road"/><tag k="addr:housenumber" v="10905"/></node><node id="-122" lat="30.11404" lon="-97.700848" changeset="false"><tag k="addr:street" v="Rodriguez Road"/><tag k="addr:housenumber" v="10111"/></node><node id="-123" lat="30.115033" lon="-97.703064" changeset="false"><tag k="addr:street" v="Rodriguez Road"/><tag k="addr:housenumber" v="9917"/></node><node id="-124" lat="30.119151" lon="-97.743889" changeset="false"><tag k="addr:street" v="Thaxton Road"/><tag k="addr:housenumber" v="10821"/></node><node id="-125" lat="30.094039" lon="-97.697465" changeset="false"><tag k="addr:street" v="Farm-to-Market Road 1327"/><tag k="addr:housenumber" v="7000"/></node><node id="-126" lat="30.09468" lon="-97.743364" changeset="false"><tag k="addr:street" v="Farm-to-Market Road 1327"/><tag k="addr:housenumber" v="4400"/></node><node id="-127" lat="30.1213" lon="-97.735087" changeset="false"><tag k="addr:street" v="Coulver Road"/><tag k="addr:housenumber" v="7921"/></node><node id="-128" lat="30.106654" lon="-97.721418" changeset="false"><tag k="addr:street" v="Cliffbrook Drive"/><tag k="addr:housenumber" v="9104"/></node><node id="-129" lat="30.10304" lon="-97.716282" changeset="false"><tag k="addr:street" v="Cliffbrook Drive"/><tag k="addr:housenumber" v="9605"/></node><node id="-130" lat="30.114406" lon="-97.701666" changeset="false"><tag k="addr:street" v="Rodriguez Road"/><tag k="addr:housenumber" v="10101"/></node><node id="-131" lat="30.09706" lon="-97.730582" changeset="false"><tag k="addr:street" v="Farm-to-Market Road 1625"/><tag k="addr:housenumber" v="11716"/></node><node id="-132" lat="30.090542" lon="-97.735142" changeset="false"><tag k="addr:street" v="Farm-to-Market Road 1327"/><tag k="addr:housenumber" v="4808"/></node><node id="-133" lat="30.105111" lon="-97.720658" changeset="false"><tag k="addr:street" v="Cliffbrook Drive"/><tag k="addr:housenumber" v="9301"/></node><node id="-134" lat="30.109156" lon="-97.723312" changeset="false"><tag k="addr:street" v="Farm-to-Market Road 1625"/><tag k="addr:housenumber" v="10810"/></node><node id="-135" lat="30.114478" lon="-97.701827" changeset="false"><tag k="addr:street" v="Rodriguez Road"/><tag k="addr:housenumber" v="10015"/></node><node id="-136" lat="30.122315" lon="-97.737227" changeset="false"><tag k="addr:street" v="Coulver Road"/><tag k="addr:housenumber" v="7907"/></node><node id="-137" lat="30.118612" lon="-97.743705" changeset="false"><tag k="addr:street" v="Thaxton Road"/><tag k="addr:housenumber" v="10815"/></node><node id="-138" lat="30.108465" lon="-97.749091" changeset="false"><tag k="addr:street" v="Hunters Ridge Road"/><tag k="addr:housenumber" v="11600"/></node><node id="-139" lat="30.107149" lon="-97.749315" changeset="false"><tag k="addr:street" v="Hunters Ridge Road"/><tag k="addr:housenumber" v="11606"/></node><node id="-140" lat="30.09147" lon="-97.708915" changeset="false"><tag k="addr:street" v="Farm-to-Market Road 1327"/><tag k="addr:housenumber" v="6310"/></node><node id="-141" lat="30.114444" lon="-97.701722" changeset="false"><tag k="addr:street" v="Rodriguez Road"/><tag k="addr:housenumber" v="10017"/></node><node id="-142" lat="30.118133" lon="-97.716529" changeset="false"><tag k="addr:street" v="Farm-to-Market Road 1625"/><tag k="addr:housenumber" v="10015"/></node><node id="-143" lat="30.093051" lon="-97.739805" changeset="false"><tag k="addr:street" v="Farm-to-Market Road 1327"/><tag k="addr:housenumber" v="4508"/></node><node id="-144" lat="30.091234" lon="-97.736465" changeset="false"><tag k="addr:street" v="Farm-to-Market Road 1327"/><tag k="addr:housenumber" v="4714"/></node><node id="-145" lat="30.120181" lon="-97.733865" changeset="false"><tag k="addr:street" v="Coulver Road"/><tag k="addr:housenumber" v="8101"/></node><node id="-146" lat="30.122853" lon="-97.741482" changeset="false"><tag k="addr:street" v="Thaxton Road"/><tag k="addr:housenumber" v="10515"/></node><node id="-147" lat="30.122936" lon="-97.738547" changeset="false"><tag k="addr:street" v="Coulver Road"/><tag k="addr:housenumber" v="7815"/></node><node id="-148" lat="30.105617" lon="-97.720155" changeset="false"><tag k="addr:street" v="Cliffbrook Drive"/><tag k="addr:housenumber" v="9300"/></node><node id="-149" lat="30.118232" lon="-97.728967" changeset="false"><tag k="addr:street" v="Coulver Road"/><tag k="addr:housenumber" v="8313"/></node><node id="-150" lat="30.116228" lon="-97.746045" changeset="false"><tag k="addr:street" v="Thaxton Road"/><tag k="addr:housenumber" v="11105"/></node><node id="-151" lat="30.110278" lon="-97.747834" changeset="false"><tag k="addr:street" v="Hunters Ridge Road"/><tag k="addr:housenumber" v="11400"/></node><node id="-152" lat="30.123819" lon="-97.740893" changeset="false"><tag k="addr:street" v="Thaxton Road"/><tag k="addr:housenumber" v="10511"/></node><node id="-153" lat="30.115759" lon="-97.704669" changeset="false"><tag k="addr:street" v="Rodriguez Road"/><tag k="addr:housenumber" v="9809"/></node></osm>