<?xml version="1.0" encoding="UTF-8"?><osm version="0.6" generator="github.com/aaronlidman/osm-and-geojson"><node id="-1" lat="30.414656" lon="-97.692943" changeset="false"><tag k="addr:street" v="Parmer Lane"/><tag k="addr:housenumber" v="1902"/><tag k="addr:postcode" v="78727"/></node><node id="-2" lat="30.415831" lon="-97.695336" changeset="false"><tag k="addr:street" v="Parmer Lane"/><tag k="addr:housenumber" v="2008"/><tag k="addr:postcode" v="78727"/></node><node id="-3" lat="30.412827" lon="-97.68891" changeset="false"><tag k="addr:street" v="Parmer Lane"/><tag k="addr:housenumber" v="1700"/><tag k="addr:postcode" v="78727"/></node><node id="-4" lat="30.415011" lon="-97.687654" changeset="false"><tag k="addr:street" v="Dapplegrey Lane"/><tag k="addr:housenumber" v="1753"/><tag k="addr:postcode" v="78727"/></node><node id="-5" lat="30.414295" lon="-97.683866" changeset="false"><tag k="addr:street" v="Scofield Farms Drive"/><tag k="addr:housenumber" v="12700"/><tag k="addr:postcode" v="78727"/></node><node id="-6" lat="30.41514" lon="-97.689653" changeset="false"><tag k="addr:street" v="Metric Boulevard"/><tag k="addr:housenumber" v="12601"/><tag k="addr:postcode" v="78727"/></node><node id="-7" lat="30.416139" lon="-97.683388" changeset="false"><tag k="addr:street" v="Visalia Lane"/><tag k="addr:housenumber" v="1520"/><tag k="addr:postcode" v="78727"/></node><node id="-8" lat="30.415244" lon="-97.686817" changeset="false"><tag k="addr:street" v="Dapplegrey Lane"/><tag k="addr:housenumber" v="1827"/><tag k="addr:postcode" v="78727"/></node><node id="-9" lat="30.416679" lon="-97.694381" changeset="false"><tag k="addr:street" v="Lamppost Lane"/><tag k="addr:housenumber" v="12500"/><tag k="addr:postcode" v="78727"/></node><node id="-10" lat="30.415413" lon="-97.688851" changeset="false"><tag k="addr:street" v="Scofield Lane"/><tag k="addr:housenumber" v="1701"/><tag k="addr:postcode" v="78727"/></node><node id="-11" lat="30.413831" lon="-97.690986" changeset="false"><tag k="addr:street" v="Parmer Lane"/><tag k="addr:housenumber" v="1806"/><tag k="addr:postcode" v="78727"/></node><node id="-12" lat="30.418345" lon="-97.693052" changeset="false"><tag k="addr:street" v="Carriage Park Lane"/><tag k="addr:housenumber" v="2005"/><tag k="addr:postcode" v="78727"/></node><node id="-13" lat="30.416578" lon="-97.693933" changeset="false"><tag k="addr:street" v="Esplanade Street"/><tag k="addr:housenumber" v="12524"/><tag k="addr:postcode" v="78727"/></node><node id="-14" lat="30.418243" lon="-97.692135" changeset="false"><tag k="addr:street" v="Gentilly Circle"/><tag k="addr:housenumber" v="1907"/><tag k="addr:postcode" v="78727"/></node><node id="-15" lat="30.418245" lon="-97.692154" changeset="false"><tag k="addr:street" v="Esplanade Street"/><tag k="addr:housenumber" v="12703"/><tag k="addr:postcode" v="78727"/></node><node id="-16" lat="30.417895" lon="-97.693201" changeset="false"><tag k="addr:street" v="Esplanade Street"/><tag k="addr:housenumber" v="12608"/><tag k="addr:postcode" v="78727"/></node><node id="-17" lat="30.417869" lon="-97.693124" changeset="false"><tag k="addr:street" v="Esplanade Street"/><tag k="addr:housenumber" v="12608 1/2"/><tag k="addr:postcode" v="78727"/></node><node id="-18" lat="30.4159" lon="-97.69505" changeset="false"><tag k="addr:street" v="Parmer Lane"/><tag k="addr:housenumber" v="2006"/><tag k="addr:postcode" v="78727"/></node><node id="-19" lat="30.416168" lon="-97.695366" changeset="false"><tag k="addr:street" v="Lamplight Village Avenue"/><tag k="addr:housenumber" v="12503"/><tag k="addr:postcode" v="78727"/></node></osm>