<?xml version="1.0" encoding="UTF-8"?><osm version="0.6" generator="github.com/aaronlidman/osm-and-geojson"><node id="-1" lat="30.35393" lon="-97.714136" changeset="false"><tag k="addr:street" v="Research Boulevard"/><tag k="addr:housenumber" v="8129"/><tag k="addr:postcode" v="78758"/></node><node id="-2" lat="30.353762" lon="-97.713076" changeset="false"><tag k="addr:street" v="Research Boulevard"/><tag k="addr:housenumber" v="8105"/><tag k="addr:postcode" v="78758"/></node><node id="-3" lat="30.362499" lon="-97.717004" changeset="false"><tag k="addr:street" v="Research Boulevard"/><tag k="addr:housenumber" v="8607"/><tag k="addr:postcode" v="78758"/></node><node id="-4" lat="30.355483" lon="-97.709984" changeset="false"><tag k="addr:street" v="Leesburg Circle"/><tag k="addr:housenumber" v="8495"/><tag k="addr:postcode" v="78758"/></node><node id="-5" lat="30.36242" lon="-97.716982" changeset="false"><tag k="addr:street" v="Research Boulevard"/><tag k="addr:housenumber" v="8603"/><tag k="addr:postcode" v="78758"/></node><node id="-6" lat="30.351429" lon="-97.70925" changeset="false"><tag k="addr:street" v="North Lamar Boulevard"/><tag k="addr:housenumber" v="8206"/><tag k="addr:postcode" v="78758"/></node><node id="-7" lat="30.355289" lon="-97.713425" changeset="false"><tag k="addr:street" v="Jamestown Drive"/><tag k="addr:housenumber" v="8323"/><tag k="addr:postcode" v="78758"/></node><node id="-8" lat="30.352248" lon="-97.708831" changeset="false"><tag k="addr:street" v="North Lamar Boulevard"/><tag k="addr:housenumber" v="8300"/><tag k="addr:postcode" v="78758"/></node><node id="-9" lat="30.359401" lon="-97.71485" changeset="false"><tag k="addr:street" v="Dryfield Drive"/><tag k="addr:housenumber" v="8502"/><tag k="addr:postcode" v="78758"/></node><node id="-10" lat="30.358655" lon="-97.71472" changeset="false"><tag k="addr:street" v="Beech Drive"/><tag k="addr:housenumber" v="8504"/><tag k="addr:postcode" v="78758"/></node><node id="-11" lat="30.357743" lon="-97.714424" changeset="false"><tag k="addr:street" v="Beech Drive"/><tag k="addr:housenumber" v="8400"/><tag k="addr:postcode" v="78758"/></node><node id="-12" lat="30.353481" lon="-97.709726" changeset="false"><tag k="addr:street" v="Meadowlark Street"/><tag k="addr:housenumber" v="906 1/2"/><tag k="addr:postcode" v="78758"/></node><node id="-13" lat="30.359179" lon="-97.714231" changeset="false"><tag k="addr:street" v="Dryfield Drive"/><tag k="addr:housenumber" v="8507"/><tag k="addr:postcode" v="78758"/></node><node id="-14" lat="30.350963" lon="-97.709967" changeset="false"><tag k="addr:street" v="North Lamar Boulevard"/><tag k="addr:housenumber" v="8140"/><tag k="addr:postcode" v="78758"/></node><node id="-15" lat="30.357277" lon="-97.71495" changeset="false"><tag k="addr:street" v="Clearfield Drive"/><tag k="addr:housenumber" v="1413"/><tag k="addr:postcode" v="78758"/></node><node id="-16" lat="30.353212" lon="-97.708644" changeset="false"><tag k="addr:street" v="Robin Court"/><tag k="addr:housenumber" v="8309"/><tag k="addr:postcode" v="78758"/></node><node id="-17" lat="30.352204" lon="-97.707878" changeset="false"><tag k="addr:street" v="North Lamar Boulevard"/><tag k="addr:housenumber" v="8316"/><tag k="addr:postcode" v="78758"/></node><node id="-18" lat="30.35109" lon="-97.709747" changeset="false"><tag k="addr:street" v="North Lamar Boulevard"/><tag k="addr:housenumber" v="8134"/><tag k="addr:postcode" v="78758"/></node><node id="-19" lat="30.364038" lon="-97.714851" changeset="false"><tag k="addr:street" v="Ohlen Road"/><tag k="addr:housenumber" v="1609"/><tag k="addr:postcode" v="78758"/></node><node id="-20" lat="30.358375" lon="-97.715836" changeset="false"><tag k="addr:street" v="Research Boulevard"/><tag k="addr:housenumber" v="8325"/><tag k="addr:postcode" v="78758"/></node><node id="-21" lat="30.35559" lon="-97.709926" changeset="false"><tag k="addr:street" v="Leesburg Circle"/><tag k="addr:housenumber" v="8405"/><tag k="addr:postcode" v="78758"/></node><node id="-22" lat="30.355359" lon="-97.709273" changeset="false"><tag k="addr:street" v="Jamestown Drive"/><tag k="addr:housenumber" v="8436"/><tag k="addr:postcode" v="78758"/></node><node id="-23" lat="30.35586" lon="-97.713318" changeset="false"><tag k="addr:street" v="Jamestown Drive"/><tag k="addr:housenumber" v="8400"/><tag k="addr:postcode" v="78758"/></node><node id="-24" lat="30.354536" lon="-97.708432" changeset="false"><tag k="addr:street" v="Thurmond Street"/><tag k="addr:housenumber" v="919"/><tag k="addr:postcode" v="78758"/></node><node id="-25" lat="30.358543" lon="-97.715667" changeset="false"><tag k="addr:street" v="Research Boulevard"/><tag k="addr:housenumber" v="8415"/><tag k="addr:postcode" v="78758"/></node><node id="-26" lat="30.35177" lon="-97.713329" changeset="false"><tag k="addr:street" v="Research Boulevard"/><tag k="addr:housenumber" v="8001"/><tag k="addr:postcode" v="78758"/></node><node id="-27" lat="30.349602" lon="-97.711933" changeset="false"><tag k="addr:street" v="North Lamar Boulevard"/><tag k="addr:housenumber" v="8020"/><tag k="addr:postcode" v="78758"/></node><node id="-28" lat="30.355609" lon="-97.710589" changeset="false"><tag k="addr:street" v="Leesburg Circle"/><tag k="addr:housenumber" v="8404"/><tag k="addr:postcode" v="78758"/></node><node id="-29" lat="30.351261" lon="-97.709404" changeset="false"><tag k="addr:street" v="North Lamar Boulevard"/><tag k="addr:housenumber" v="8204"/><tag k="addr:postcode" v="78758"/></node><node id="-30" lat="30.353191" lon="-97.708606" changeset="false"><tag k="addr:street" v="Robin Court"/><tag k="addr:housenumber" v="8313"/><tag k="addr:postcode" v="78758"/></node><node id="-31" lat="30.358679" lon="-97.714649" changeset="false"><tag k="addr:street" v="Brookfield Drive"/><tag k="addr:housenumber" v="8500"/><tag k="addr:postcode" v="78758"/></node><node id="-32" lat="30.364459" lon="-97.716338" changeset="false"><tag k="addr:street" v="Ohlen Road"/><tag k="addr:housenumber" v="1612"/><tag k="addr:postcode" v="78758"/></node><node id="-33" lat="30.364492" lon="-97.716107" changeset="false"><tag k="addr:street" v="Ohlen Road"/><tag k="addr:housenumber" v="1628"/><tag k="addr:postcode" v="78758"/></node><node id="-34" lat="30.364229" lon="-97.715844" changeset="false"><tag k="addr:street" v="Ohlen Road"/><tag k="addr:housenumber" v="1610"/><tag k="addr:postcode" v="78758"/></node><node id="-35" lat="30.364248" lon="-97.715698" changeset="false"><tag k="addr:street" v="Ohlen Road"/><tag k="addr:housenumber" v="1620"/><tag k="addr:postcode" v="78758"/></node><node id="-36" lat="30.35687" lon="-97.715216" changeset="false"><tag k="addr:street" v="Research Boulevard"/><tag k="addr:housenumber" v="8335"/><tag k="addr:postcode" v="78758"/></node><node id="-37" lat="30.35718" lon="-97.715179" changeset="false"><tag k="addr:street" v="Research Boulevard"/><tag k="addr:housenumber" v="8339"/><tag k="addr:postcode" v="78758"/></node><node id="-38" lat="30.356406" lon="-97.714982" changeset="false"><tag k="addr:street" v="Research Boulevard"/><tag k="addr:housenumber" v="8311"/><tag k="addr:postcode" v="78758"/></node><node id="-39" lat="30.356131" lon="-97.714857" changeset="false"><tag k="addr:street" v="Research Boulevard"/><tag k="addr:housenumber" v="8301"/><tag k="addr:postcode" v="78758"/></node><node id="-40" lat="30.356281" lon="-97.714961" changeset="false"><tag k="addr:street" v="Research Boulevard"/><tag k="addr:housenumber" v="8309"/><tag k="addr:postcode" v="78758"/></node></osm>