<?xml version="1.0" encoding="UTF-8"?><osm version="0.6" generator="github.com/aaronlidman/osm-and-geojson"><node id="-1" lat="30.31979" lon="-97.676219" changeset="false"><tag k="addr:street" v="Creighton Lane"/><tag k="addr:housenumber" v="7003"/><tag k="coa:place_id" v="495572"/></node><node id="-2" lat="30.321281" lon="-97.669076" changeset="false"><tag k="addr:street" v="Meadowood Cove"/><tag k="addr:housenumber" v="7303"/><tag k="coa:place_id" v="445694"/></node><node id="-3" lat="30.31869" lon="-97.670818" changeset="false"><tag k="addr:street" v="Fred Morse Drive"/><tag k="addr:housenumber" v="7007"/><tag k="coa:place_id" v="445952"/></node><node id="-4" lat="30.319362" lon="-97.667771" changeset="false"><tag k="addr:street" v="Fred Morse Drive"/><tag k="addr:housenumber" v="7305"/><tag k="coa:place_id" v="446042"/></node><node id="-5" lat="30.316351" lon="-97.673279" changeset="false"><tag k="addr:street" v="Willamette Drive"/><tag k="addr:housenumber" v="6819"/><tag k="coa:place_id" v="495188"/></node><node id="-6" lat="30.318382" lon="-97.67556" changeset="false"><tag k="addr:street" v="Drexel Drive"/><tag k="addr:housenumber" v="6906"/><tag k="coa:place_id" v="495302"/></node><node id="-7" lat="30.319926" lon="-97.671492" changeset="false"><tag k="addr:street" v="Meadowood Drive"/><tag k="addr:housenumber" v="7108"/><tag k="coa:place_id" v="445766"/></node><node id="-8" lat="30.318647" lon="-97.674817" changeset="false"><tag k="addr:street" v="Drexel Drive"/><tag k="addr:housenumber" v="6912"/><tag k="coa:place_id" v="495284"/></node><node id="-9" lat="30.32063" lon="-97.669443" changeset="false"><tag k="addr:street" v="Meadowood Drive"/><tag k="addr:housenumber" v="7301"/><tag k="coa:place_id" v="445844"/></node><node id="-10" lat="30.323574" lon="-97.674189" changeset="false"><tag k="addr:street" v="Bucknell Drive"/><tag k="addr:housenumber" v="7411"/><tag k="coa:place_id" v="403574"/></node><node id="-11" lat="30.3156" lon="-97.673234" changeset="false"><tag k="addr:street" v="Langston Drive"/><tag k="addr:housenumber" v="6708"/><tag k="coa:place_id" v="446378"/></node><node id="-12" lat="30.321219" lon="-97.67643" changeset="false"><tag k="addr:street" v="Marywood Circle"/><tag k="addr:housenumber" v="7306"/><tag k="coa:place_id" v="404162"/></node><node id="-13" lat="30.320417" lon="-97.671452" changeset="false"><tag k="addr:street" v="Meadowood Drive"/><tag k="addr:housenumber" v="7112"/><tag k="coa:place_id" v="445760"/></node><node id="-14" lat="30.316913" lon="-97.671569" changeset="false"><tag k="addr:street" v="Langston Drive"/><tag k="addr:housenumber" v="6814"/><tag k="coa:place_id" v="446312"/></node><node id="-15" lat="30.319194" lon="-97.672163" changeset="false"><tag k="addr:street" v="Geneva Drive"/><tag k="addr:housenumber" v="7101"/><tag k="coa:place_id" v="326302"/></node><node id="-16" lat="30.318318" lon="-97.675784" changeset="false"><tag k="addr:street" v="Drexel Drive"/><tag k="addr:housenumber" v="6904"/><tag k="coa:place_id" v="495308"/></node><node id="-17" lat="30.318221" lon="-97.67614" changeset="false"><tag k="addr:street" v="Loyola Lane"/><tag k="addr:housenumber" v="2506"/><tag k="coa:place_id" v="495536"/></node><node id="-18" lat="30.318157" lon="-97.671104" changeset="false"><tag k="addr:street" v="Burnell Drive"/><tag k="addr:housenumber" v="6902"/><tag k="coa:place_id" v="446132"/></node><node id="-19" lat="30.322957" lon="-97.673518" changeset="false"><tag k="addr:street" v="Bucknell Drive"/><tag k="addr:housenumber" v="7403"/><tag k="coa:place_id" v="403550"/></node><node id="-20" lat="30.319542" lon="-97.672332" changeset="false"><tag k="addr:street" v="Geneva Drive"/><tag k="addr:housenumber" v="7105"/><tag k="coa:place_id" v="403430"/></node><node id="-21" lat="30.322949" lon="-97.677811" changeset="false"><tag k="addr:street" v="Geneva Drive"/><tag k="addr:housenumber" v="7406"/><tag k="coa:place_id" v="3266644"/></node><node id="-22" lat="30.316761" lon="-97.672589" changeset="false"><tag k="addr:street" v="Willamette Drive"/><tag k="addr:housenumber" v="6825"/><tag k="coa:place_id" v="495206"/></node><node id="-23" lat="30.318932" lon="-97.671743" changeset="false"><tag k="addr:street" v="Fred Morse Drive"/><tag k="addr:housenumber" v="7002"/><tag k="coa:place_id" v="108587"/></node><node id="-24" lat="30.316535" lon="-97.674178" changeset="false"><tag k="addr:street" v="Willamette Drive"/><tag k="addr:housenumber" v="6814"/><tag k="coa:place_id" v="495458"/></node><node id="-25" lat="30.319523" lon="-97.671417" changeset="false"><tag k="addr:street" v="Meadowood Drive"/><tag k="addr:housenumber" v="7104"/><tag k="coa:place_id" v="445778"/></node><node id="-26" lat="30.321953" lon="-97.672809" changeset="false"><tag k="addr:street" v="Bucknell Drive"/><tag k="addr:housenumber" v="7305"/><tag k="coa:place_id" v="403514"/></node><node id="-27" lat="30.321711" lon="-97.669658" changeset="false"><tag k="addr:street" v="Meadowood Cove"/><tag k="addr:housenumber" v="7304"/><tag k="coa:place_id" v="445706"/></node><node id="-28" lat="30.321524" lon="-97.669248" changeset="false"><tag k="addr:street" v="Meadowood Cove"/><tag k="addr:housenumber" v="7305"/><tag k="coa:place_id" v="445700"/></node><node id="-29" lat="30.321662" lon="-97.677773" changeset="false"><tag k="addr:street" v="Creighton Lane"/><tag k="addr:housenumber" v="7105"/><tag k="coa:place_id" v="495638"/></node><node id="-30" lat="30.315518" lon="-97.673427" changeset="false"><tag k="addr:street" v="Langston Drive"/><tag k="addr:housenumber" v="6706"/><tag k="coa:place_id" v="446384"/></node><node id="-31" lat="30.316453" lon="-97.673025" changeset="false"><tag k="addr:street" v="Willamette Drive"/><tag k="addr:housenumber" v="6821"/><tag k="coa:place_id" v="495194"/></node><node id="-32" lat="30.317496" lon="-97.672622" changeset="false"><tag k="addr:street" v="Dunbarton Drive"/><tag k="addr:housenumber" v="2708"/><tag k="coa:place_id" v="495224"/></node><node id="-33" lat="30.320996" lon="-97.677212" changeset="false"><tag k="addr:street" v="Creighton Lane"/><tag k="addr:housenumber" v="7017"/><tag k="coa:place_id" v="495614"/></node><node id="-34" lat="30.316451" lon="-97.674385" changeset="false"><tag k="addr:street" v="Willamette Drive"/><tag k="addr:housenumber" v="6812"/><tag k="coa:place_id" v="495464"/></node><node id="-35" lat="30.321429" lon="-97.669837" changeset="false"><tag k="addr:street" v="Meadowood Cove"/><tag k="addr:housenumber" v="7302"/><tag k="coa:place_id" v="445712"/></node><node id="-36" lat="30.319853" lon="-97.675568" changeset="false"><tag k="addr:street" v="Marywood Circle"/><tag k="addr:housenumber" v="7210"/><tag k="coa:place_id" v="404204"/></node><node id="-37" lat="30.319704" lon="-97.671437" changeset="false"><tag k="addr:street" v="Meadowood Drive"/><tag k="addr:housenumber" v="7106"/><tag k="coa:place_id" v="445772"/></node><node id="-38" lat="30.315456" lon="-97.673618" changeset="false"><tag k="addr:street" v="Langston Drive"/><tag k="addr:housenumber" v="6704"/><tag k="coa:place_id" v="446390"/></node><node id="-39" lat="30.317086" lon="-97.67155" changeset="false"><tag k="addr:street" v="Geneva Drive"/><tag k="addr:housenumber" v="6900"/><tag k="coa:place_id" v="446306"/></node><node id="-40" lat="30.318987" lon="-97.668824" changeset="false"><tag k="addr:street" v="Langston Drive"/><tag k="addr:housenumber" v="7104"/><tag k="coa:place_id" v="446066"/></node><node id="-41" lat="30.321907" lon="-97.674201" changeset="false"><tag k="addr:street" v="Geneva Drive"/><tag k="addr:housenumber" v="7303"/><tag k="coa:place_id" v="403700"/></node><node id="-42" lat="30.322568" lon="-97.67345" changeset="false"><tag k="addr:street" v="Bucknell Drive"/><tag k="addr:housenumber" v="7313"/><tag k="coa:place_id" v="403538"/></node><node id="-43" lat="30.321674" lon="-97.672511" changeset="false"><tag k="addr:street" v="Bucknell Drive"/><tag k="addr:housenumber" v="7301"/><tag k="coa:place_id" v="403502"/></node><node id="-44" lat="30.316299" lon="-97.672065" changeset="false"><tag k="addr:street" v="Langston Drive"/><tag k="addr:housenumber" v="6806"/><tag k="coa:place_id" v="446336"/></node><node id="-45" lat="30.317838" lon="-97.6736" changeset="false"><tag k="addr:street" v="Dunbarton Drive"/><tag k="addr:housenumber" v="2700"/><tag k="coa:place_id" v="495248"/></node><node id="-46" lat="30.317619" lon="-97.671671" changeset="false"><tag k="addr:street" v="Geneva Drive"/><tag k="addr:housenumber" v="6906"/><tag k="coa:place_id" v="446288"/></node><node id="-47" lat="30.320495" lon="-97.670825" changeset="false"><tag k="addr:street" v="Meadowood Drive"/><tag k="addr:housenumber" v="7200"/><tag k="coa:place_id" v="445748"/></node><node id="-48" lat="30.318793" lon="-97.672021" changeset="false"><tag k="addr:street" v="Geneva Drive"/><tag k="addr:housenumber" v="7005"/><tag k="coa:place_id" v="3369292"/></node><node id="-49" lat="30.315921" lon="-97.672554" changeset="false"><tag k="addr:street" v="Langston Drive"/><tag k="addr:housenumber" v="6800"/><tag k="coa:place_id" v="446354"/></node><node id="-50" lat="30.315676" lon="-97.673051" changeset="false"><tag k="addr:street" v="Langston Drive"/><tag k="addr:housenumber" v="6710"/><tag k="coa:place_id" v="446372"/></node><node id="-51" lat="30.321838" lon="-97.67789" changeset="false"><tag k="addr:street" v="Creighton Lane"/><tag k="addr:housenumber" v="7107"/><tag k="coa:place_id" v="495644"/></node><node id="-52" lat="30.322433" lon="-97.673312" changeset="false"><tag k="addr:street" v="Bucknell Drive"/><tag k="addr:housenumber" v="7311"/><tag k="coa:place_id" v="403532"/></node><node id="-53" lat="30.321337" lon="-97.677487" changeset="false"><tag k="addr:street" v="Creighton Lane"/><tag k="addr:housenumber" v="7101"/><tag k="coa:place_id" v="495626"/></node><node id="-54" lat="30.320968" lon="-97.668565" changeset="false"><tag k="addr:street" v="Meadowood Drive"/><tag k="addr:housenumber" v="7306"/><tag k="coa:place_id" v="445670"/></node><node id="-55" lat="30.316641" lon="-97.673986" changeset="false"><tag k="addr:street" v="Willamette Drive"/><tag k="addr:housenumber" v="6816"/><tag k="coa:place_id" v="495452"/></node><node id="-56" lat="30.320826" lon="-97.668113" changeset="false"><tag k="addr:street" v="Meadowood Drive"/><tag k="addr:housenumber" v="7310"/><tag k="coa:place_id" v="445658"/></node><node id="-57" lat="30.315403" lon="-97.673818" changeset="false"><tag k="addr:street" v="Langston Drive"/><tag k="addr:housenumber" v="6702"/><tag k="coa:place_id" v="446396"/></node><node id="-58" lat="30.32016" lon="-97.673755" changeset="false"><tag k="addr:street" v="Hartnell Drive"/><tag k="addr:housenumber" v="7205"/><tag k="coa:place_id" v="403976"/></node><node id="-59" lat="30.319539" lon="-97.668618" changeset="false"><tag k="addr:street" v="Fred Morse Drive"/><tag k="addr:housenumber" v="7209"/><tag k="coa:place_id" v="446018"/></node><node id="-60" lat="30.319599" lon="-97.675382" changeset="false"><tag k="addr:street" v="Marywood Circle"/><tag k="addr:housenumber" v="7208"/><tag k="coa:place_id" v="404234"/></node><node id="-61" lat="30.319539" lon="-97.674986" changeset="false"><tag k="addr:street" v="Marywood Circle"/><tag k="addr:housenumber" v="7206"/><tag k="coa:place_id" v="404210"/></node><node id="-62" lat="30.320379" lon="-97.676617" changeset="false"><tag k="addr:street" v="Creighton Lane"/><tag k="addr:housenumber" v="7009"/><tag k="coa:place_id" v="495590"/></node><node id="-63" lat="30.318232" lon="-97.674171" changeset="false"><tag k="addr:street" v="Dunbarton Drive"/><tag k="addr:housenumber" v="2604"/><tag k="coa:place_id" v="495266"/></node><node id="-64" lat="30.316151" lon="-97.672216" changeset="false"><tag k="addr:street" v="Langston Drive"/><tag k="addr:housenumber" v="6804"/><tag k="coa:place_id" v="446342"/></node><node id="-65" lat="30.324005" lon="-97.674311" changeset="false"><tag k="addr:street" v="East US 290 Frontage Road"/><tag k="addr:housenumber" v="7535"/><tag k="coa:place_id" v="127970"/></node><node id="-66" lat="30.317655" lon="-97.67314" changeset="false"><tag k="addr:street" v="Dunbarton Drive"/><tag k="addr:housenumber" v="2704"/><tag k="coa:place_id" v="495236"/></node><node id="-67" lat="30.321194" lon="-97.677336" changeset="false"><tag k="addr:street" v="Creighton Lane"/><tag k="addr:housenumber" v="7019"/><tag k="coa:place_id" v="495620"/></node><node id="-68" lat="30.321313" lon="-97.674198" changeset="false"><tag k="addr:street" v="Geneva Drive"/><tag k="addr:housenumber" v="7214"/><tag k="coa:place_id" v="403922"/></node><node id="-69" lat="30.322824" lon="-97.676622" changeset="false"><tag k="addr:street" v="Geneva Drive"/><tag k="addr:housenumber" v="7333"/><tag k="coa:place_id" v="499960"/></node><node id="-70" lat="30.317518" lon="-97.669711" changeset="false"><tag k="addr:street" v="Langston Drive"/><tag k="addr:housenumber" v="6914"/><tag k="coa:place_id" v="446222"/></node><node id="-71" lat="30.319832" lon="-97.667523" changeset="false"><tag k="addr:street" v="Fred Morse Drive"/><tag k="addr:housenumber" v="7304"/><tag k="coa:place_id" v="445622"/></node><node id="-72" lat="30.319566" lon="-97.669015" changeset="false"><tag k="addr:street" v="Fred Morse Drive"/><tag k="addr:housenumber" v="7205"/><tag k="coa:place_id" v="446006"/></node><node id="-73" lat="30.319627" lon="-97.668225" changeset="false"><tag k="addr:street" v="Fred Morse Drive"/><tag k="addr:housenumber" v="7301"/><tag k="coa:place_id" v="446030"/></node><node id="-74" lat="30.316456" lon="-97.671932" changeset="false"><tag k="addr:street" v="Langston Drive"/><tag k="addr:housenumber" v="6808"/><tag k="coa:place_id" v="446330"/></node><node id="-75" lat="30.319518" lon="-97.668403" changeset="false"><tag k="addr:street" v="Fred Morse Drive"/><tag k="addr:housenumber" v="7211"/><tag k="coa:place_id" v="446024"/></node><node id="-76" lat="30.322282" lon="-97.677427" changeset="false"><tag k="addr:street" v="Blinn Circle"/><tag k="addr:housenumber" v="7302"/><tag k="coa:place_id" v="180767"/></node><node id="-77" lat="30.322297" lon="-97.679357" changeset="false"><tag k="addr:street" v="Northeast Drive"/><tag k="addr:housenumber" v="7219"/><tag k="coa:place_id" v="127952"/></node><node id="-78" lat="30.319045" lon="-97.6683" changeset="false"><tag k="addr:street" v="Langston Drive"/><tag k="addr:housenumber" v="7108"/><tag k="coa:place_id" v="446054"/></node><node id="-79" lat="30.319162" lon="-97.674207" changeset="false"><tag k="addr:street" v="Geneva Circle"/><tag k="addr:housenumber" v="7114"/><tag k="coa:place_id" v="404258"/></node><node id="-80" lat="30.321019" lon="-97.669687" changeset="false"><tag k="addr:street" v="Meadowood Drive"/><tag k="addr:housenumber" v="7210"/><tag k="coa:place_id" v="445718"/></node><node id="-81" lat="30.320929" lon="-97.668311" changeset="false"><tag k="addr:street" v="Meadowood Drive"/><tag k="addr:housenumber" v="7308"/><tag k="coa:place_id" v="445664"/></node><node id="-82" lat="30.320959" lon="-97.672246" changeset="false"><tag k="addr:street" v="Bucknell Drive"/><tag k="addr:housenumber" v="7207"/><tag k="coa:place_id" v="403484"/></node><node id="-83" lat="30.319018" lon="-97.668558" changeset="false"><tag k="addr:street" v="Langston Drive"/><tag k="addr:housenumber" v="7106"/><tag k="coa:place_id" v="446060"/></node><node id="-84" lat="30.318913" lon="-97.669231" changeset="false"><tag k="addr:street" v="Langston Drive"/><tag k="addr:housenumber" v="7102"/><tag k="coa:place_id" v="446072"/></node><node id="-85" lat="30.320783" lon="-97.67478" changeset="false"><tag k="addr:street" v="Hartnell Drive"/><tag k="addr:housenumber" v="7212"/><tag k="coa:place_id" v="404084"/></node><node id="-86" lat="30.319718" lon="-97.672369" changeset="false"><tag k="addr:street" v="Geneva Drive"/><tag k="addr:housenumber" v="7107"/><tag k="coa:place_id" v="403436"/></node><node id="-87" lat="30.319593" lon="-97.669267" changeset="false"><tag k="addr:street" v="Fred Morse Drive"/><tag k="addr:housenumber" v="7203"/><tag k="coa:place_id" v="446000"/></node><node id="-88" lat="30.319257" lon="-97.669766" changeset="false"><tag k="addr:street" v="Fred Morse Drive"/><tag k="addr:housenumber" v="7109"/><tag k="coa:place_id" v="445982"/></node><node id="-89" lat="30.318432" lon="-97.670283" changeset="false"><tag k="addr:street" v="Burnell Drive"/><tag k="addr:housenumber" v="7002"/><tag k="coa:place_id" v="446108"/></node><node id="-90" lat="30.317936" lon="-97.673822" changeset="false"><tag k="addr:street" v="Dunbarton Drive"/><tag k="addr:housenumber" v="2608"/><tag k="coa:place_id" v="495254"/></node><node id="-91" lat="30.321825" lon="-97.672651" changeset="false"><tag k="addr:street" v="Bucknell Drive"/><tag k="addr:housenumber" v="7303"/><tag k="coa:place_id" v="403508"/></node><node id="-92" lat="30.318611" lon="-97.676259" changeset="false"><tag k="addr:street" v="Creighton Lane"/><tag k="addr:housenumber" v="6903"/><tag k="coa:place_id" v="270166"/></node><node id="-93" lat="30.31818" lon="-97.672577" changeset="false"><tag k="addr:street" v="Geneva Drive"/><tag k="addr:housenumber" v="7004"/><tag k="coa:place_id" v="183279"/></node><node id="-94" lat="30.320026" lon="-97.676344" changeset="false"><tag k="addr:street" v="Creighton Lane"/><tag k="addr:housenumber" v="7005"/><tag k="coa:place_id" v="495578"/></node><node id="-95" lat="30.317767" lon="-97.671782" changeset="false"><tag k="addr:street" v="Geneva Drive"/><tag k="addr:housenumber" v="6908"/><tag k="coa:place_id" v="446282"/></node><node id="-96" lat="30.320239" lon="-97.675834" changeset="false"><tag k="addr:street" v="Marywood Circle"/><tag k="addr:housenumber" v="7214"/><tag k="coa:place_id" v="404192"/></node><node id="-97" lat="30.315913" lon="-97.67417" changeset="false"><tag k="addr:street" v="Willamette Drive"/><tag k="addr:housenumber" v="6811"/><tag k="coa:place_id" v="495164"/></node><node id="-98" lat="30.320483" lon="-97.669608" changeset="false"><tag k="addr:street" v="Meadowood Drive"/><tag k="addr:housenumber" v="7209"/><tag k="coa:place_id" v="445838"/></node><node id="-99" lat="30.322731" lon="-97.679853" changeset="false"><tag k="addr:street" v="East US 290 Frontage Road"/><tag k="addr:housenumber" v="7237"/><tag k="coa:place_id" v="127958"/></node><node id="-100" lat="30.31702" lon="-97.67236" changeset="false"><tag k="addr:street" v="Willamette Drive"/><tag k="addr:housenumber" v="6827"/><tag k="coa:place_id" v="495212"/></node><node id="-101" lat="30.320362" lon="-97.668516" changeset="false"><tag k="addr:street" v="Meadowood Drive"/><tag k="addr:housenumber" v="7309"/><tag k="coa:place_id" v="445868"/></node><node id="-102" lat="30.316615" lon="-97.671813" changeset="false"><tag k="addr:street" v="Langston Drive"/><tag k="addr:housenumber" v="6810"/><tag k="coa:place_id" v="446324"/></node><node id="-103" lat="30.318557" lon="-97.669815" changeset="false"><tag k="addr:street" v="Burnell Drive"/><tag k="addr:housenumber" v="7006"/><tag k="coa:place_id" v="446096"/></node><node id="-104" lat="30.317377" lon="-97.675232" changeset="false"><tag k="addr:street" v="De Paul Cove"/><tag k="addr:housenumber" v="6801"/><tag k="coa:place_id" v="495386"/></node><node id="-105" lat="30.321508" lon="-97.677657" changeset="false"><tag k="addr:street" v="Creighton Lane"/><tag k="addr:housenumber" v="7103"/><tag k="coa:place_id" v="495632"/></node><node id="-106" lat="30.320124" lon="-97.672553" changeset="false"><tag k="addr:street" v="Geneva Drive"/><tag k="addr:housenumber" v="7111"/><tag k="coa:place_id" v="403448"/></node><node id="-107" lat="30.315828" lon="-97.672723" changeset="false"><tag k="addr:street" v="Langston Drive"/><tag k="addr:housenumber" v="6714"/><tag k="coa:place_id" v="446360"/></node><node id="-108" lat="30.318556" lon="-97.67507" changeset="false"><tag k="addr:street" v="Drexel Drive"/><tag k="addr:housenumber" v="6910"/><tag k="coa:place_id" v="495290"/></node><node id="-109" lat="30.319371" lon="-97.672223" changeset="false"><tag k="addr:street" v="Geneva Drive"/><tag k="addr:housenumber" v="7103"/><tag k="coa:place_id" v="403424"/></node><node id="-110" lat="30.316121" lon="-97.673723" changeset="false"><tag k="addr:street" v="Willamette Drive"/><tag k="addr:housenumber" v="6815"/><tag k="coa:place_id" v="495176"/></node><node id="-111" lat="30.322289" lon="-97.678272" changeset="false"><tag k="addr:street" v="Creighton Lane"/><tag k="addr:housenumber" v="7111"/><tag k="coa:place_id" v="495656"/></node><node id="-112" lat="30.319507" lon="-97.670654" changeset="false"><tag k="addr:street" v="Meadowood Drive"/><tag k="addr:housenumber" v="7103"/><tag k="coa:place_id" v="445790"/></node><node id="-113" lat="30.318481" lon="-97.672156" changeset="false"><tag k="addr:street" v="Geneva Drive"/><tag k="addr:housenumber" v="7012"/><tag k="coa:place_id" v="138397"/></node><node id="-114" lat="30.323831" lon="-97.675181" changeset="false"><tag k="addr:street" v="East US 290 Frontage Road"/><tag k="addr:housenumber" v="7525"/><tag k="coa:place_id" v="227390"/></node><node id="-115" lat="30.321083" lon="-97.669988" changeset="false"><tag k="addr:street" v="Meadowood Drive"/><tag k="addr:housenumber" v="7208"/><tag k="coa:place_id" v="445724"/></node><node id="-116" lat="30.319697" lon="-97.670667" changeset="false"><tag k="addr:street" v="Meadowood Drive"/><tag k="addr:housenumber" v="7105"/><tag k="coa:place_id" v="445796"/></node><node id="-117" lat="30.319548" lon="-97.668823" changeset="false"><tag k="addr:street" v="Fred Morse Drive"/><tag k="addr:housenumber" v="7207"/><tag k="coa:place_id" v="446012"/></node><node id="-118" lat="30.317532" lon="-97.675694" changeset="false"><tag k="addr:street" v="Loyola Lane"/><tag k="addr:housenumber" v="2602"/><tag k="coa:place_id" v="495518"/></node><node id="-119" lat="30.319405" lon="-97.669596" changeset="false"><tag k="addr:street" v="Fred Morse Drive"/><tag k="addr:housenumber" v="7111"/><tag k="coa:place_id" v="445988"/></node><node id="-120" lat="30.318589" lon="-97.671362" changeset="false"><tag k="addr:street" v="Fred Morse Drive"/><tag k="addr:housenumber" v="7003"/><tag k="coa:place_id" v="108586"/></node><node id="-121" lat="30.318865" lon="-97.670369" changeset="false"><tag k="addr:street" v="Fred Morse Drive"/><tag k="addr:housenumber" v="7103"/><tag k="coa:place_id" v="445964"/></node><node id="-122" lat="30.321949" lon="-97.677157" changeset="false"><tag k="addr:street" v="Blinn Circle"/><tag k="addr:housenumber" v="7300"/><tag k="coa:place_id" v="180763"/></node><node id="-123" lat="30.320842" lon="-97.677085" changeset="false"><tag k="addr:street" v="Creighton Lane"/><tag k="addr:housenumber" v="7015"/><tag k="coa:place_id" v="495608"/></node><node id="-124" lat="30.31899" lon="-97.670139" changeset="false"><tag k="addr:street" v="Fred Morse Drive"/><tag k="addr:housenumber" v="7105"/><tag k="coa:place_id" v="445970"/></node><node id="-125" lat="30.318499" lon="-97.670061" changeset="false"><tag k="addr:street" v="Burnell Drive"/><tag k="addr:housenumber" v="7004"/><tag k="coa:place_id" v="446102"/></node><node id="-126" lat="30.318356" lon="-97.670487" changeset="false"><tag k="addr:street" v="Burnell Drive"/><tag k="addr:housenumber" v="7000"/><tag k="coa:place_id" v="446114"/></node><node id="-127" lat="30.318636" lon="-97.673625" changeset="false"><tag k="addr:street" v="Geneva Circle"/><tag k="addr:housenumber" v="7108"/><tag k="coa:place_id" v="404276"/></node><node id="-128" lat="30.322053" lon="-97.678038" changeset="false"><tag k="addr:street" v="Creighton Lane"/><tag k="addr:housenumber" v="7109"/><tag k="coa:place_id" v="495650"/></node><node id="-129" lat="30.321401" lon="-97.67541" changeset="false"><tag k="addr:street" v="Hartnell Drive"/><tag k="addr:housenumber" v="7304"/><tag k="coa:place_id" v="404060"/></node><node id="-130" lat="30.316611" lon="-97.672816" changeset="false"><tag k="addr:street" v="Willamette Drive"/><tag k="addr:housenumber" v="6823"/><tag k="coa:place_id" v="495200"/></node><node id="-131" lat="30.318602" lon="-97.674482" changeset="false"><tag k="addr:street" v="Dunbarton Drive"/><tag k="addr:housenumber" v="2600"/><tag k="coa:place_id" v="495278"/></node><node id="-132" lat="30.3176" lon="-97.672874" changeset="false"><tag k="addr:street" v="Dunbarton Drive"/><tag k="addr:housenumber" v="2706"/><tag k="coa:place_id" v="495230"/></node><node id="-133" lat="30.320091" lon="-97.667417" changeset="false"><tag k="addr:street" v="Langston Drive"/><tag k="addr:housenumber" v="7402"/><tag k="coa:place_id" v="445616"/></node><node id="-134" lat="30.320798" lon="-97.670722" changeset="false"><tag k="addr:street" v="Meadowood Drive"/><tag k="addr:housenumber" v="7202"/><tag k="coa:place_id" v="445742"/></node><node id="-135" lat="30.318281" lon="-97.670691" changeset="false"><tag k="addr:street" v="Burnell Drive"/><tag k="addr:housenumber" v="6906"/><tag k="coa:place_id" v="446120"/></node><node id="-136" lat="30.319205" lon="-97.675632" changeset="false"><tag k="addr:street" v="Colby Cove"/><tag k="addr:housenumber" v="2500"/><tag k="coa:place_id" v="3369289"/></node><node id="-137" lat="30.316013" lon="-97.673943" changeset="false"><tag k="addr:street" v="Willamette Drive"/><tag k="addr:housenumber" v="6813"/><tag k="coa:place_id" v="495170"/></node><node id="-138" lat="30.318224" lon="-97.67089" changeset="false"><tag k="addr:street" v="Burnell Drive"/><tag k="addr:housenumber" v="6904"/><tag k="coa:place_id" v="446126"/></node><node id="-139" lat="30.315353" lon="-97.674065" changeset="false"><tag k="addr:street" v="Langston Drive"/><tag k="addr:housenumber" v="6700"/><tag k="coa:place_id" v="446402"/></node><node id="-140" lat="30.318595" lon="-97.66955" changeset="false"><tag k="addr:street" v="Burnell Drive"/><tag k="addr:housenumber" v="7008"/><tag k="coa:place_id" v="446090"/></node><node id="-141" lat="30.319317" lon="-97.67143" changeset="false"><tag k="addr:street" v="Meadowood Drive"/><tag k="addr:housenumber" v="7102"/><tag k="coa:place_id" v="445784"/></node><node id="-142" lat="30.32044" lon="-97.675984" changeset="false"><tag k="addr:street" v="Marywood Circle"/><tag k="addr:housenumber" v="7216"/><tag k="coa:place_id" v="404186"/></node><node id="-143" lat="30.320198" lon="-97.676512" changeset="false"><tag k="addr:street" v="Creighton Lane"/><tag k="addr:housenumber" v="7007"/><tag k="coa:place_id" v="495584"/></node><node id="-144" lat="30.319367" lon="-97.674414" changeset="false"><tag k="addr:street" v="Geneva Circle"/><tag k="addr:housenumber" v="7200"/><tag k="coa:place_id" v="404252"/></node><node id="-145" lat="30.320629" lon="-97.673711" changeset="false"><tag k="addr:street" v="Geneva Drive"/><tag k="addr:housenumber" v="7206"/><tag k="coa:place_id" v="403946"/></node><node id="-146" lat="30.320585" lon="-97.672523" changeset="false"><tag k="addr:street" v="Bucknell Drive"/><tag k="addr:housenumber" v="7203"/><tag k="coa:place_id" v="403472"/></node><node id="-147" lat="30.321102" lon="-97.670268" changeset="false"><tag k="addr:street" v="Meadowood Drive"/><tag k="addr:housenumber" v="7206"/><tag k="coa:place_id" v="445730"/></node><node id="-148" lat="30.321063" lon="-97.675809" changeset="false"><tag k="addr:street" v="Marywood Circle"/><tag k="addr:housenumber" v="7303"/><tag k="coa:place_id" v="404132"/></node><node id="-149" lat="30.318394" lon="-97.674309" changeset="false"><tag k="addr:street" v="Dunbarton Drive"/><tag k="addr:housenumber" v="2602"/><tag k="coa:place_id" v="495272"/></node><node id="-150" lat="30.318428" lon="-97.67618" changeset="false"><tag k="addr:street" v="Loyola Lane"/><tag k="addr:housenumber" v="2504"/><tag k="coa:place_id" v="495542"/></node><node id="-151" lat="30.321864" lon="-97.679142" changeset="false"><tag k="addr:street" v="Northeast Drive"/><tag k="addr:housenumber" v="7201"/><tag k="coa:place_id" v="495968"/></node><node id="-152" lat="30.321516" lon="-97.672294" changeset="false"><tag k="addr:street" v="Bucknell Drive"/><tag k="addr:housenumber" v="7211"/><tag k="coa:place_id" v="403496"/></node><node id="-153" lat="30.320761" lon="-97.672359" changeset="false"><tag k="addr:street" v="Bucknell Drive"/><tag k="addr:housenumber" v="7205"/><tag k="coa:place_id" v="403478"/></node><node id="-154" lat="30.31637" lon="-97.674575" changeset="false"><tag k="addr:street" v="Willamette Drive"/><tag k="addr:housenumber" v="6810"/><tag k="coa:place_id" v="495470"/></node><node id="-155" lat="30.320192" lon="-97.671611" changeset="false"><tag k="addr:street" v="Meadowood Drive"/><tag k="addr:housenumber" v="7110"/><tag k="coa:place_id" v="921704"/></node><node id="-156" lat="30.320942" lon="-97.670506" changeset="false"><tag k="addr:street" v="Meadowood Drive"/><tag k="addr:housenumber" v="7204"/><tag k="coa:place_id" v="445736"/></node><node id="-157" lat="30.317729" lon="-97.673389" changeset="false"><tag k="addr:street" v="Dunbarton Drive"/><tag k="addr:housenumber" v="2702"/><tag k="coa:place_id" v="495242"/></node><node id="-158" lat="30.320061" lon="-97.670585" changeset="false"><tag k="addr:street" v="Meadowood Drive"/><tag k="addr:housenumber" v="7109"/><tag k="coa:place_id" v="445808"/></node><node id="-159" lat="30.318451" lon="-97.675304" changeset="false"><tag k="addr:street" v="Drexel Drive"/><tag k="addr:housenumber" v="6908"/><tag k="coa:place_id" v="495296"/></node><node id="-160" lat="30.319121" lon="-97.669947" changeset="false"><tag k="addr:street" v="Fred Morse Drive"/><tag k="addr:housenumber" v="7107"/><tag k="coa:place_id" v="445976"/></node><node id="-161" lat="30.322415" lon="-97.67947" changeset="false"><tag k="addr:street" v="Northeast Drive"/><tag k="addr:housenumber" v="7221"/><tag k="coa:place_id" v="127946"/></node><node id="-162" lat="30.322116" lon="-97.672989" changeset="false"><tag k="addr:street" v="Bucknell Drive"/><tag k="addr:housenumber" v="7307"/><tag k="coa:place_id" v="403520"/></node><node id="-163" lat="30.322217" lon="-97.678545" changeset="false"><tag k="addr:street" v="Creighton Lane"/><tag k="addr:housenumber" v="7113"/><tag k="coa:place_id" v="495662"/></node><node id="-164" lat="30.321236" lon="-97.67219" changeset="false"><tag k="addr:street" v="Bucknell Drive"/><tag k="addr:housenumber" v="7209"/><tag k="coa:place_id" v="403490"/></node><node id="-165" lat="30.32336" lon="-97.67567" changeset="false"><tag k="addr:street" v="Middlebury Cove"/><tag k="addr:housenumber" v="7305"/><tag k="coa:place_id" v="403784"/></node><node id="-166" lat="30.319926" lon="-97.672454" changeset="false"><tag k="addr:street" v="Geneva Drive"/><tag k="addr:housenumber" v="7109"/><tag k="coa:place_id" v="403442"/></node><node id="-167" lat="30.322627" lon="-97.67734" changeset="false"><tag k="addr:street" v="Geneva Drive"/><tag k="addr:housenumber" v="7402"/><tag k="coa:place_id" v="985005"/></node><node id="-168" lat="30.322273" lon="-97.673131" changeset="false"><tag k="addr:street" v="Bucknell Drive"/><tag k="addr:housenumber" v="7309"/><tag k="coa:place_id" v="403526"/></node><node id="-169" lat="30.319038" lon="-97.676316" changeset="false"><tag k="addr:street" v="Creighton Lane"/><tag k="addr:housenumber" v="6905"/><tag k="coa:place_id" v="495548"/></node><node id="-170" lat="30.318099" lon="-97.673989" changeset="false"><tag k="addr:street" v="Dunbarton Drive"/><tag k="addr:housenumber" v="2606"/><tag k="coa:place_id" v="495260"/></node><node id="-171" lat="30.320315" lon="-97.670257" changeset="false"><tag k="addr:street" v="Meadowood Drive"/><tag k="addr:housenumber" v="7203"/><tag k="coa:place_id" v="445820"/></node><node id="-172" lat="30.320068" lon="-97.675712" changeset="false"><tag k="addr:street" v="Marywood Circle"/><tag k="addr:housenumber" v="7212"/><tag k="coa:place_id" v="404198"/></node><node id="-173" lat="30.317312" lon="-97.672363" changeset="false"><tag k="addr:street" v="Dunbarton Drive"/><tag k="addr:housenumber" v="2710"/><tag k="coa:place_id" v="495218"/></node><node id="-174" lat="30.317086" lon="-97.673154" changeset="false"><tag k="addr:street" v="Willamette Drive"/><tag k="addr:housenumber" v="6824"/><tag k="coa:place_id" v="494930"/></node><node id="-175" lat="30.322124" lon="-97.67923" changeset="false"><tag k="addr:street" v="Northeast Drive"/><tag k="addr:housenumber" v="7211"/><tag k="coa:place_id" v="495974"/></node><node id="-176" lat="30.31576" lon="-97.672877" changeset="false"><tag k="addr:street" v="Langston Drive"/><tag k="addr:housenumber" v="6712"/><tag k="coa:place_id" v="446366"/></node><node id="-177" lat="30.316047" lon="-97.672395" changeset="false"><tag k="addr:street" v="Langston Drive"/><tag k="addr:housenumber" v="6802"/><tag k="coa:place_id" v="446348"/></node></osm>