<?xml version="1.0" encoding="UTF-8"?><osm version="0.6" generator="github.com/aaronlidman/osm-and-geojson"><node id="-1" lat="30.470206" lon="-97.672066" changeset="false"><tag k="addr:street" v="North Interstate Highway 35 Service Road"/><tag k="addr:housenumber" v="16560"/><tag k="coa:place_id" v="1145771"/></node><node id="-2" lat="30.447554" lon="-97.667785" changeset="false"><tag k="addr:street" v="North Interstate Highway 35 Service Road"/><tag k="addr:housenumber" v="15310"/><tag k="coa:place_id" v="706611"/></node><node id="-3" lat="30.447852" lon="-97.667797" changeset="false"><tag k="addr:street" v="North Interstate Highway 35 Service Road"/><tag k="addr:housenumber" v="15316"/><tag k="coa:place_id" v="706617"/></node><node id="-4" lat="30.44923" lon="-97.667474" changeset="false"><tag k="addr:street" v="North Interstate Highway 35 Service Road"/><tag k="addr:housenumber" v="15416"/><tag k="coa:place_id" v="471068"/></node><node id="-5" lat="30.448872" lon="-97.667403" changeset="false"><tag k="addr:street" v="North Interstate Highway 35 Service Road"/><tag k="addr:housenumber" v="15412"/><tag k="coa:place_id" v="255234"/></node><node id="-6" lat="30.443736" lon="-97.674215" changeset="false"><tag k="addr:street" v="Bescott Drive"/><tag k="addr:housenumber" v="14855"/><tag k="coa:place_id" v="139681"/></node><node id="-7" lat="30.444864" lon="-97.674534" changeset="false"><tag k="addr:street" v="Bescott Drive"/><tag k="addr:housenumber" v="14915"/><tag k="coa:place_id" v="139689"/></node><node id="-8" lat="30.452628" lon="-97.670361" changeset="false"><tag k="addr:street" v="Scarlet Street"/><tag k="addr:housenumber" v="15502"/><tag k="coa:place_id" v="3105987"/></node><node id="-9" lat="30.453749" lon="-97.670095" changeset="false"><tag k="addr:street" v="Brenda Street"/><tag k="addr:housenumber" v="15603"/><tag k="coa:place_id" v="3105963"/></node><node id="-10" lat="30.453309" lon="-97.66926" changeset="false"><tag k="addr:street" v="Scarlet Street"/><tag k="addr:housenumber" v="15603"/><tag k="coa:place_id" v="199349"/></node><node id="-11" lat="30.449711" lon="-97.671607" changeset="false"><tag k="addr:street" v="Scarlet Street"/><tag k="addr:housenumber" v="15305"/><tag k="coa:place_id" v="256296"/></node><node id="-12" lat="30.45189" lon="-97.671914" changeset="false"><tag k="addr:street" v="Brenda Street"/><tag k="addr:housenumber" v="15404"/><tag k="coa:place_id" v="256283"/></node><node id="-13" lat="30.454626" lon="-97.671981" changeset="false"><tag k="addr:street" v="Long Vista Drive"/><tag k="addr:housenumber" v="15601"/><tag k="coa:place_id" v="256445"/></node><node id="-14" lat="30.449957" lon="-97.672074" changeset="false"><tag k="addr:street" v="Scarlet Street"/><tag k="addr:housenumber" v="15304"/><tag k="coa:place_id" v="256291"/></node><node id="-15" lat="30.443277" lon="-97.668746" changeset="false"><tag k="addr:street" v="North Interstate Highway 35 Service Road"/><tag k="addr:housenumber" v="15008"/><tag k="coa:place_id" v="1011458"/></node><node id="-16" lat="30.451385" lon="-97.671729" changeset="false"><tag k="addr:street" v="Brenda Street"/><tag k="addr:housenumber" v="15401"/><tag k="coa:place_id" v="3081563"/></node><node id="-17" lat="30.441353" lon="-97.674202" changeset="false"><tag k="addr:street" v="Bescott Drive"/><tag k="addr:housenumber" v="14721"/><tag k="coa:place_id" v="139651"/></node><node id="-18" lat="30.454138" lon="-97.667662" changeset="false"><tag k="addr:street" v="Patrica Street"/><tag k="addr:housenumber" v="15705"/><tag k="coa:place_id" v="3106003"/></node><node id="-19" lat="30.453649" lon="-97.667045" changeset="false"><tag k="addr:street" v="Connie Street"/><tag k="addr:housenumber" v="15705"/><tag k="coa:place_id" v="3116382"/></node><node id="-20" lat="30.452945" lon="-97.666708" changeset="false"><tag k="addr:street" v="North Interstate Highway 35 Service Road"/><tag k="addr:housenumber" v="15700"/><tag k="coa:place_id" v="470978"/></node><node id="-21" lat="30.449088" lon="-97.676315" changeset="false"><tag k="addr:street" v="Nathan Drive"/><tag k="addr:housenumber" v="2114"/><tag k="coa:place_id" v="718774"/></node><node id="-22" lat="30.468294" lon="-97.671139" changeset="false"><tag k="addr:street" v="North Interstate Highway 35 Service Road"/><tag k="addr:housenumber" v="16466 1/2"/><tag k="coa:place_id" v="3122675"/></node><node id="-23" lat="30.439044" lon="-97.672395" changeset="false"><tag k="addr:street" v="Wells Branch Parkway"/><tag k="addr:housenumber" v="1720"/><tag k="coa:place_id" v="3071276"/></node><node id="-24" lat="30.441478" lon="-97.674918" changeset="false"><tag k="addr:street" v="Bescott Drive"/><tag k="addr:housenumber" v="14716"/><tag k="coa:place_id" v="3372802"/></node><node id="-25" lat="30.437353" lon="-97.675473" changeset="false"><tag k="addr:street" v="Wells Port Drive"/><tag k="addr:housenumber" v="14321"/><tag k="coa:place_id" v="3392148"/></node><node id="-26" lat="30.450405" lon="-97.668473" changeset="false"><tag k="addr:street" v="Marsha Street"/><tag k="addr:housenumber" v="15406"/><tag k="coa:place_id" v="3499289"/></node><node id="-27" lat="30.449953" lon="-97.671452" changeset="false"><tag k="addr:street" v="Scarlet Street"/><tag k="addr:housenumber" v="15307"/><tag k="coa:place_id" v="256295"/></node><node id="-28" lat="30.452957" lon="-97.669062" changeset="false"><tag k="addr:street" v="Patrica Street"/><tag k="addr:housenumber" v="15600"/><tag k="coa:place_id" v="3105978"/></node><node id="-29" lat="30.452857" lon="-97.669579" changeset="false"><tag k="addr:street" v="Scarlet Street"/><tag k="addr:housenumber" v="15511"/><tag k="coa:place_id" v="1112967"/></node><node id="-30" lat="30.452263" lon="-97.668392" changeset="false"><tag k="addr:street" v="Connie Street"/><tag k="addr:housenumber" v="15506"/><tag k="coa:place_id" v="256302"/></node><node id="-31" lat="30.45326" lon="-97.671028" changeset="false"><tag k="addr:street" v="Brenda Street"/><tag k="addr:housenumber" v="15504"/><tag k="coa:place_id" v="3105984"/></node><node id="-32" lat="30.455282" lon="-97.678719" changeset="false"><tag k="addr:street" v="Long Vista Drive"/><tag k="addr:housenumber" v="15400"/><tag k="coa:place_id" v="3031113"/></node><node id="-33" lat="30.45522" lon="-97.675839" changeset="false"><tag k="addr:street" v="Wells Port Drive"/><tag k="addr:housenumber" v="15500"/><tag k="coa:place_id" v="224533"/></node><node id="-34" lat="30.448829" lon="-97.674569" changeset="false"><tag k="addr:street" v="Natural Spring Way"/><tag k="addr:housenumber" v="15201"/><tag k="coa:place_id" v="121275"/></node><node id="-35" lat="30.445124" lon="-97.671094" changeset="false"><tag k="addr:street" v="Fleischer Drive"/><tag k="addr:housenumber" v="1814"/><tag k="coa:place_id" v="470930"/></node><node id="-36" lat="30.456125" lon="-97.667703" changeset="false"><tag k="addr:street" v="Grand Avenue Parkway"/><tag k="addr:housenumber" v="2004 1/2"/><tag k="coa:place_id" v="3128905"/></node><node id="-37" lat="30.442556" lon="-97.673919" changeset="false"><tag k="addr:street" v="Bescott Drive"/><tag k="addr:housenumber" v="14821"/><tag k="coa:place_id" v="139666"/></node><node id="-38" lat="30.452067" lon="-97.668534" changeset="false"><tag k="addr:street" v="Connie Street"/><tag k="addr:housenumber" v="15504"/><tag k="coa:place_id" v="3106000"/></node><node id="-39" lat="30.45195" lon="-97.669718" changeset="false"><tag k="addr:street" v="Patrica Street"/><tag k="addr:housenumber" v="15500"/><tag k="coa:place_id" v="3105992"/></node><node id="-40" lat="30.452762" lon="-97.671372" changeset="false"><tag k="addr:street" v="Brenda Street"/><tag k="addr:housenumber" v="15500"/><tag k="coa:place_id" v="3105982"/></node><node id="-41" lat="30.454691" lon="-97.670109" changeset="false"><tag k="addr:street" v="Brenda Street"/><tag k="addr:housenumber" v="15700"/><tag k="coa:place_id" v="3105904"/></node><node id="-42" lat="30.465453" lon="-97.673548" changeset="false"><tag k="addr:street" v="Bratton Lane"/><tag k="addr:housenumber" v="16211"/><tag k="coa:place_id" v="92899"/></node><node id="-43" lat="30.44961" lon="-97.674016" changeset="false"><tag k="addr:street" v="Natural Spring Way"/><tag k="addr:housenumber" v="15211"/><tag k="coa:place_id" v="52575"/></node><node id="-44" lat="30.448387" lon="-97.667645" changeset="false"><tag k="addr:street" v="North Interstate Highway 35 Service Road"/><tag k="addr:housenumber" v="15342"/><tag k="coa:place_id" v="140176"/></node><node id="-45" lat="30.450696" lon="-97.671615" changeset="false"><tag k="addr:street" v="Scarlet Street"/><tag k="addr:housenumber" v="15310"/><tag k="coa:place_id" v="256290"/></node><node id="-46" lat="30.449395" lon="-97.675356" changeset="false"><tag k="addr:street" v="Rick Whinery Drive"/><tag k="addr:housenumber" v="2108"/><tag k="coa:place_id" v="628804"/></node><node id="-47" lat="30.445105" lon="-97.672203" changeset="false"><tag k="addr:street" v="Fleischer Drive"/><tag k="addr:housenumber" v="1901"/><tag k="coa:place_id" v="963572"/></node><node id="-48" lat="30.453081" lon="-97.669387" changeset="false"><tag k="addr:street" v="Scarlet Street"/><tag k="addr:housenumber" v="15601"/><tag k="coa:place_id" v="195674"/></node><node id="-49" lat="30.449266" lon="-97.671962" changeset="false"><tag k="addr:street" v="Ouida Drive"/><tag k="addr:housenumber" v="2004"/><tag k="coa:place_id" v="214871"/></node><node id="-50" lat="30.452218" lon="-97.668913" changeset="false"><tag k="addr:street" v="Patrica Street"/><tag k="addr:housenumber" v="15505"/><tag k="coa:place_id" v="3105997"/></node><node id="-51" lat="30.446094" lon="-97.67587" changeset="false"><tag k="addr:street" v="Wells Port Drive"/><tag k="addr:housenumber" v="15001"/><tag k="coa:place_id" v="3076732"/></node><node id="-52" lat="30.470818" lon="-97.672163" changeset="false"><tag k="addr:street" v="North Interstate Highway 35 Service Road"/><tag k="addr:housenumber" v="16602"/><tag k="coa:place_id" v="1145770"/></node><node id="-53" lat="30.443899" lon="-97.67409" changeset="false"><tag k="addr:street" v="Bescott Drive"/><tag k="addr:housenumber" v="14851"/><tag k="coa:place_id" v="139680"/></node><node id="-54" lat="30.448944" lon="-97.671177" changeset="false"><tag k="addr:street" v="Patrica Street"/><tag k="addr:housenumber" v="15305"/><tag k="coa:place_id" v="193893"/></node><node id="-55" lat="30.446285" lon="-97.675953" changeset="false"><tag k="addr:street" v="Wells Port Drive"/><tag k="addr:housenumber" v="15003"/><tag k="coa:place_id" v="240100"/></node><node id="-56" lat="30.452304" lon="-97.667769" changeset="false"><tag k="addr:street" v="Connie Street"/><tag k="addr:housenumber" v="15601"/><tag k="coa:place_id" v="3106007"/></node><node id="-57" lat="30.449913" lon="-97.672596" changeset="false"><tag k="addr:street" v="Brenda Street"/><tag k="addr:housenumber" v="15303"/><tag k="coa:place_id" v="3106019"/></node><node id="-58" lat="30.447664" lon="-97.669455" changeset="false"><tag k="addr:street" v="Ouida Drive"/><tag k="addr:housenumber" v="1801"/><tag k="coa:place_id" v="3339062"/></node><node id="-59" lat="30.453831" lon="-97.66896" changeset="false"><tag k="addr:street" v="Scarlet Street"/><tag k="addr:housenumber" v="15607"/><tag k="coa:place_id" v="3105974"/></node><node id="-60" lat="30.453632" lon="-97.667973" changeset="false"><tag k="addr:street" v="Patrica Street"/><tag k="addr:housenumber" v="15701"/><tag k="coa:place_id" v="193900"/></node><node id="-61" lat="30.45316" lon="-97.668297" changeset="false"><tag k="addr:street" v="Patrica Street"/><tag k="addr:housenumber" v="15605"/><tag k="coa:place_id" v="193902"/></node><node id="-62" lat="30.451245" lon="-97.667028" changeset="false"><tag k="addr:street" v="North Interstate Highway 35 Service Road"/><tag k="addr:housenumber" v="15524"/><tag k="coa:place_id" v="3133044"/></node><node id="-63" lat="30.444663" lon="-97.675135" changeset="false"><tag k="addr:street" v="Bescott Drive"/><tag k="addr:housenumber" v="14916"/><tag k="coa:place_id" v="139702"/></node><node id="-64" lat="30.457382" lon="-97.674886" changeset="false"><tag k="addr:street" v="Grand Avenue Parkway"/><tag k="addr:housenumber" v="2300"/><tag k="coa:place_id" v="215795"/></node><node id="-65" lat="30.448342" lon="-97.670988" changeset="false"><tag k="addr:street" v="Ouida Drive"/><tag k="addr:housenumber" v="1905"/><tag k="coa:place_id" v="3118194"/></node><node id="-66" lat="30.450778" lon="-97.668507" changeset="false"><tag k="addr:street" v="Marsha Street"/><tag k="addr:housenumber" v="15408"/><tag k="coa:place_id" v="3071529"/></node><node id="-67" lat="30.450704" lon="-97.672713" changeset="false"><tag k="addr:street" v="Brenda Street"/><tag k="addr:housenumber" v="15306"/><tag k="coa:place_id" v="3106016"/></node><node id="-68" lat="30.447165" lon="-97.667721" changeset="false"><tag k="addr:street" v="North Interstate Highway 35 Service Road"/><tag k="addr:housenumber" v="15300"/><tag k="coa:place_id" v="237016"/></node><node id="-69" lat="30.45397" lon="-97.670572" changeset="false"><tag k="addr:street" v="Brenda Street"/><tag k="addr:housenumber" v="15602"/><tag k="coa:place_id" v="3105944"/></node><node id="-70" lat="30.450292" lon="-97.670164" changeset="false"><tag k="addr:street" v="Patrica Street"/><tag k="addr:housenumber" v="15401"/><tag k="coa:place_id" v="193888"/></node><node id="-71" lat="30.452122" lon="-97.667418" changeset="false"><tag k="addr:street" v="Marsha Street"/><tag k="addr:housenumber" v="15600"/><tag k="coa:place_id" v="1160993"/></node><node id="-72" lat="30.4483" lon="-97.669767" changeset="false"><tag k="addr:street" v="Marsha Street"/><tag k="addr:housenumber" v="15304"/><tag k="coa:place_id" v="162956"/></node><node id="-73" lat="30.44954" lon="-97.667899" changeset="false"><tag k="addr:street" v="Ginger Street"/><tag k="addr:housenumber" v="15402"/><tag k="coa:place_id" v="3118330"/></node><node id="-74" lat="30.454301" lon="-97.668685" changeset="false"><tag k="addr:street" v="Scarlet Street"/><tag k="addr:housenumber" v="15703"/><tag k="coa:place_id" v="3105971"/></node><node id="-75" lat="30.450508" lon="-97.667101" changeset="false"><tag k="addr:street" v="North Interstate Highway 35 Service Road"/><tag k="addr:housenumber" v="15508"/><tag k="coa:place_id" v="225069"/></node><node id="-76" lat="30.45422" lon="-97.670408" changeset="false"><tag k="addr:street" v="Brenda Street"/><tag k="addr:housenumber" v="15604"/><tag k="coa:place_id" v="3105945"/></node><node id="-77" lat="30.453402" lon="-97.668135" changeset="false"><tag k="addr:street" v="Patrica Street"/><tag k="addr:housenumber" v="15607"/><tag k="coa:place_id" v="193897"/></node><node id="-78" lat="30.449548" lon="-97.66851" changeset="false"><tag k="addr:street" v="Marsha Street"/><tag k="addr:housenumber" v="15401"/><tag k="coa:place_id" v="189541"/></node><node id="-79" lat="30.469002" lon="-97.674668" changeset="false"><tag k="addr:street" v="Bratton Lane"/><tag k="addr:housenumber" v="16411"/><tag k="coa:place_id" v="90743"/></node><node id="-80" lat="30.442383" lon="-97.673938" changeset="false"><tag k="addr:street" v="Bescott Drive"/><tag k="addr:housenumber" v="14817"/><tag k="coa:place_id" v="139663"/></node><node id="-81" lat="30.441173" lon="-97.669659" changeset="false"><tag k="addr:street" v="North Interstate Highway 35 Service Road"/><tag k="addr:housenumber" v="14824"/><tag k="coa:place_id" v="223249"/></node><node id="-82" lat="30.443853" lon="-97.670863" changeset="false"><tag k="addr:street" v="Purslane Meadow Trail"/><tag k="addr:housenumber" v="14905"/><tag k="coa:place_id" v="162455"/></node><node id="-83" lat="30.447946" lon="-97.674962" changeset="false"><tag k="addr:street" v="Natural Spring Way"/><tag k="addr:housenumber" v="15017"/><tag k="coa:place_id" v="75804"/></node><node id="-84" lat="30.447446" lon="-97.669166" changeset="false"><tag k="addr:street" v="Ouida Drive"/><tag k="addr:housenumber" v="1711"/><tag k="coa:place_id" v="3127282"/></node><node id="-85" lat="30.443068" lon="-97.673921" changeset="false"><tag k="addr:street" v="Bescott Drive"/><tag k="addr:housenumber" v="14831"/><tag k="coa:place_id" v="139669"/></node><node id="-86" lat="30.438497" lon="-97.675798" changeset="false"><tag k="addr:street" v="Regents Walk"/><tag k="addr:housenumber" v="14504"/><tag k="coa:place_id" v="162665"/></node><node id="-87" lat="30.438793" lon="-97.674307" changeset="false"><tag k="addr:street" v="Gaylord Drive"/><tag k="addr:housenumber" v="1701"/><tag k="coa:place_id" v="162605"/></node><node id="-88" lat="30.450395" lon="-97.669051" changeset="false"><tag k="addr:street" v="Connie Street"/><tag k="addr:housenumber" v="15405"/><tag k="coa:place_id" v="3371983"/></node><node id="-89" lat="30.450388" lon="-97.673486" changeset="false"><tag k="addr:street" v="Natural Spring Way"/><tag k="addr:housenumber" v="15221"/><tag k="coa:place_id" v="52580"/></node><node id="-90" lat="30.449891" lon="-97.673788" changeset="false"><tag k="addr:street" v="Natural Spring Way"/><tag k="addr:housenumber" v="15215"/><tag k="coa:place_id" v="52577"/></node><node id="-91" lat="30.457081" lon="-97.677516" changeset="false"><tag k="addr:street" v="Bratton Lane"/><tag k="addr:housenumber" v="15511"/><tag k="coa:place_id" v="193165"/></node><node id="-92" lat="30.452532" lon="-97.670904" changeset="false"><tag k="addr:street" v="Brenda Street"/><tag k="addr:housenumber" v="15501"/><tag k="coa:place_id" v="1100787"/></node><node id="-93" lat="30.453821" lon="-97.669579" changeset="false"><tag k="addr:street" v="Scarlet Street"/><tag k="addr:housenumber" v="15604"/><tag k="coa:place_id" v="3105969"/></node><node id="-94" lat="30.453694" lon="-97.67065" changeset="false"><tag k="addr:street" v="Brenda Street"/><tag k="addr:housenumber" v="15600"/><tag k="coa:place_id" v="256285"/></node><node id="-95" lat="30.442652" lon="-97.67281" changeset="false"><tag k="addr:street" v="Camas Drive"/><tag k="addr:housenumber" v="1833"/><tag k="coa:place_id" v="162414"/></node><node id="-96" lat="30.436621" lon="-97.675264" changeset="false"><tag k="addr:street" v="Wells Port Drive"/><tag k="addr:housenumber" v="14311"/><tag k="coa:place_id" v="117774"/></node><node id="-97" lat="30.448886" lon="-97.674252" changeset="false"><tag k="addr:street" v="Rick Whinery Drive"/><tag k="addr:housenumber" v="2028"/><tag k="coa:place_id" v="121277"/></node><node id="-98" lat="30.451241" lon="-97.670173" changeset="false"><tag k="addr:street" v="Patrica Street"/><tag k="addr:housenumber" v="15406"/><tag k="coa:place_id" v="256667"/></node><node id="-99" lat="30.440575" lon="-97.669395" changeset="false"><tag k="addr:street" v="North Interstate Highway 35 Service Road"/><tag k="addr:housenumber" v="14816 1/2"/><tag k="coa:place_id" v="3118879"/></node><node id="-100" lat="30.454017" lon="-97.669913" changeset="false"><tag k="addr:street" v="Brenda Street"/><tag k="addr:housenumber" v="15605"/><tag k="coa:place_id" v="3105964"/></node><node id="-101" lat="30.457901" lon="-97.676316" changeset="false"><tag k="addr:street" v="Grand Avenue Parkway"/><tag k="addr:housenumber" v="2400"/><tag k="coa:place_id" v="215796"/></node><node id="-102" lat="30.451814" lon="-97.668715" changeset="false"><tag k="addr:street" v="Connie Street"/><tag k="addr:housenumber" v="15502"/><tag k="coa:place_id" v="3105999"/></node><node id="-103" lat="30.45325" lon="-97.667773" changeset="false"><tag k="addr:street" v="Connie Street"/><tag k="addr:housenumber" v="15606"/><tag k="coa:place_id" v="3106002"/></node><node id="-104" lat="30.45391" lon="-97.667803" changeset="false"><tag k="addr:street" v="Patrica Street"/><tag k="addr:housenumber" v="15703"/><tag k="coa:place_id" v="193901"/></node><node id="-105" lat="30.451005" lon="-97.670349" changeset="false"><tag k="addr:street" v="Patrica Street"/><tag k="addr:housenumber" v="15404"/><tag k="coa:place_id" v="256300"/></node><node id="-106" lat="30.457688" lon="-97.677227" changeset="false"><tag k="addr:street" v="Grand Avenue Parkway"/><tag k="addr:housenumber" v="2601"/><tag k="coa:place_id" v="175294"/></node><node id="-107" lat="30.454369" lon="-97.668143" changeset="false"><tag k="addr:street" v="Patrica Street"/><tag k="addr:housenumber" v="15704 1/2"/><tag k="coa:place_id" v="3105977"/></node><node id="-108" lat="30.450758" lon="-97.66984" changeset="false"><tag k="addr:street" v="Patrica Street"/><tag k="addr:housenumber" v="15405"/><tag k="coa:place_id" v="193890"/></node><node id="-109" lat="30.454472" lon="-97.670275" changeset="false"><tag k="addr:street" v="Brenda Street"/><tag k="addr:housenumber" v="15606"/><tag k="coa:place_id" v="3105946"/></node><node id="-110" lat="30.464848" lon="-97.669882" changeset="false"><tag k="addr:street" v="North Interstate Highway 35 Service Road"/><tag k="addr:housenumber" v="16320"/><tag k="coa:place_id" v="103440"/></node><node id="-111" lat="30.449681" lon="-97.672765" changeset="false"><tag k="addr:street" v="Brenda Street"/><tag k="addr:housenumber" v="15301"/><tag k="coa:place_id" v="3106018"/></node><node id="-112" lat="30.464699" lon="-97.672575" changeset="false"><tag k="addr:street" v="Bratton Lane"/><tag k="addr:housenumber" v="16201"/><tag k="coa:place_id" v="181248"/></node><node id="-113" lat="30.444218" lon="-97.674199" changeset="false"><tag k="addr:street" v="Bescott Drive"/><tag k="addr:housenumber" v="14901"/><tag k="coa:place_id" v="139683"/></node><node id="-114" lat="30.44437" lon="-97.674199" changeset="false"><tag k="addr:street" v="Bescott Drive"/><tag k="addr:housenumber" v="14905"/><tag k="coa:place_id" v="139685"/></node><node id="-115" lat="30.447583" lon="-97.668252" changeset="false"><tag k="addr:street" v="Ouida Drive"/><tag k="addr:housenumber" v="1704"/><tag k="coa:place_id" v="3372504"/></node><node id="-116" lat="30.439935" lon="-97.671145" changeset="false"><tag k="addr:street" v="Wells Branch Parkway"/><tag k="addr:housenumber" v="1630"/><tag k="coa:place_id" v="3279123"/></node><node id="-117" lat="30.467101" lon="-97.675124" changeset="false"><tag k="addr:street" v="North Interstate Highway 35 Service Road"/><tag k="addr:housenumber" v="16500"/><tag k="coa:place_id" v="3345857"/></node><node id="-118" lat="30.437401" lon="-97.67374" changeset="false"><tag k="addr:street" v="Wells Branch Parkway"/><tag k="addr:housenumber" v="1750"/><tag k="coa:place_id" v="3392149"/></node><node id="-119" lat="30.456373" lon="-97.671504" changeset="false"><tag k="addr:street" v="Grand Avenue Parkway"/><tag k="addr:housenumber" v="2121"/><tag k="coa:place_id" v="194520"/></node><node id="-120" lat="30.445719" lon="-97.668501" changeset="false"><tag k="addr:street" v="North Interstate Highway 35 Service Road"/><tag k="addr:housenumber" v="15200"/><tag k="coa:place_id" v="3690868"/></node><node id="-121" lat="30.467259" lon="-97.670741" changeset="false"><tag k="addr:street" v="North Interstate Highway 35 Service Road"/><tag k="addr:housenumber" v="16436"/><tag k="coa:place_id" v="3032343"/></node><node id="-122" lat="30.465529" lon="-97.674128" changeset="false"><tag k="addr:street" v="Bratton Lane"/><tag k="addr:housenumber" v="16215"/><tag k="coa:place_id" v="92903"/></node><node id="-123" lat="30.465265" lon="-97.673037" changeset="false"><tag k="addr:street" v="Bratton Lane"/><tag k="addr:housenumber" v="16205"/><tag k="coa:place_id" v="92898"/></node><node id="-124" lat="30.45205" lon="-97.667907" changeset="false"><tag k="addr:street" v="Connie Street"/><tag k="addr:housenumber" v="15507"/><tag k="coa:place_id" v="3106011"/></node><node id="-125" lat="30.452629" lon="-97.669708" changeset="false"><tag k="addr:street" v="Scarlet Street"/><tag k="addr:housenumber" v="15505"/><tag k="coa:place_id" v="3105991"/></node><node id="-126" lat="30.448182" lon="-97.674814" changeset="false"><tag k="addr:street" v="Natural Spring Way"/><tag k="addr:housenumber" v="15103"/><tag k="coa:place_id" v="75802"/></node><node id="-127" lat="30.453026" lon="-97.667919" changeset="false"><tag k="addr:street" v="Connie Street"/><tag k="addr:housenumber" v="15604"/><tag k="coa:place_id" v="3106001"/></node><node id="-128" lat="30.443396" lon="-97.674652" changeset="false"><tag k="addr:street" v="Bescott Drive"/><tag k="addr:housenumber" v="14842"/><tag k="coa:place_id" v="139709"/></node><node id="-129" lat="30.458173" lon="-97.667672" changeset="false"><tag k="addr:street" v="North Interstate Highway 35 Service Road"/><tag k="addr:housenumber" v="15996"/><tag k="coa:place_id" v="3126021"/></node><node id="-130" lat="30.438633" lon="-97.674327" changeset="false"><tag k="addr:street" v="Gaylord Drive"/><tag k="addr:housenumber" v="1705"/><tag k="coa:place_id" v="162606"/></node><node id="-131" lat="30.449546" lon="-97.675836" changeset="false"><tag k="addr:street" v="Rick Whinery Drive"/><tag k="addr:housenumber" v="2117"/><tag k="coa:place_id" v="1105534"/></node><node id="-132" lat="30.451574" lon="-97.668251" changeset="false"><tag k="addr:street" v="Connie Street"/><tag k="addr:housenumber" v="15503"/><tag k="coa:place_id" v="3106009"/></node><node id="-133" lat="30.448999" lon="-97.668806" changeset="false"><tag k="addr:street" v="Marsha Street"/><tag k="addr:housenumber" v="15309"/><tag k="coa:place_id" v="196307"/></node><node id="-134" lat="30.45145" lon="-97.67627" changeset="false"><tag k="addr:street" v="Emmett Parkway"/><tag k="addr:housenumber" v="2301"/><tag k="coa:place_id" v="52677"/></node><node id="-135" lat="30.445088" lon="-97.673221" changeset="false"><tag k="addr:street" v="Purslane Meadow Trail"/><tag k="addr:housenumber" v="15009"/><tag k="coa:place_id" v="162475"/></node><node id="-136" lat="30.452102" lon="-97.671767" changeset="false"><tag k="addr:street" v="Brenda Street"/><tag k="addr:housenumber" v="15406"/><tag k="coa:place_id" v="256284"/></node><node id="-137" lat="30.45445" lon="-97.669647" changeset="false"><tag k="addr:street" v="Brenda Street"/><tag k="addr:housenumber" v="15701"/><tag k="coa:place_id" v="3105947"/></node><node id="-138" lat="30.454953" lon="-97.669955" changeset="false"><tag k="addr:street" v="Brenda Street"/><tag k="addr:housenumber" v="15702"/><tag k="coa:place_id" v="3105905"/></node><node id="-139" lat="30.450408" lon="-97.672852" changeset="false"><tag k="addr:street" v="Brenda Street"/><tag k="addr:housenumber" v="15304"/><tag k="coa:place_id" v="3041219"/></node><node id="-140" lat="30.472901" lon="-97.672526" changeset="false"><tag k="addr:street" v="North Interstate Highway 35 Service Road"/><tag k="addr:housenumber" v="16694"/><tag k="coa:place_id" v="1145806"/></node><node id="-141" lat="30.440291" lon="-97.675597" changeset="false"><tag k="addr:street" v="Wells Port Drive"/><tag k="addr:housenumber" v="14611"/><tag k="coa:place_id" v="464362"/></node><node id="-142" lat="30.455119" lon="-97.667687" changeset="false"><tag k="addr:street" v="North Interstate Highway 35 Service Road"/><tag k="addr:housenumber" v="15718"/><tag k="coa:place_id" v="206392"/></node><node id="-143" lat="30.447911" lon="-97.668953" changeset="false"><tag k="addr:street" v="Ginger Street"/><tag k="addr:housenumber" v="15308"/><tag k="coa:place_id" v="196303"/></node><node id="-144" lat="30.452443" lon="-97.668741" changeset="false"><tag k="addr:street" v="Patrica Street"/><tag k="addr:housenumber" v="15507"/><tag k="coa:place_id" v="235565"/></node><node id="-145" lat="30.460091" lon="-97.668532" changeset="false"><tag k="addr:street" v="North Interstate Highway 35 Service Road"/><tag k="addr:housenumber" v="16050"/><tag k="coa:place_id" v="3036635"/></node><node id="-146" lat="30.449467" lon="-97.673488" changeset="false"><tag k="addr:street" v="Brenda Street"/><tag k="addr:housenumber" v="15214"/><tag k="coa:place_id" v="3072921"/></node><node id="-147" lat="30.469229" lon="-97.671974" changeset="false"><tag k="addr:street" v="North Interstate Highway 35 Service Road"/><tag k="addr:housenumber" v="16528"/><tag k="coa:place_id" v="90762"/></node><node id="-148" lat="30.448155" lon="-97.670534" changeset="false"><tag k="addr:street" v="Ouida Drive"/><tag k="addr:housenumber" v="1903"/><tag k="coa:place_id" v="3130654"/></node><node id="-149" lat="30.443555" lon="-97.674667" changeset="false"><tag k="addr:street" v="Bescott Drive"/><tag k="addr:housenumber" v="14846"/><tag k="coa:place_id" v="139707"/></node><node id="-150" lat="30.442723" lon="-97.673926" changeset="false"><tag k="addr:street" v="Bescott Drive"/><tag k="addr:housenumber" v="14825"/><tag k="coa:place_id" v="139667"/></node><node id="-151" lat="30.448567" lon="-97.675188" changeset="false"><tag k="addr:street" v="Natural Spring Way"/><tag k="addr:housenumber" v="15104"/><tag k="coa:place_id" v="75796"/></node><node id="-152" lat="30.443471" lon="-97.671323" changeset="false"><tag k="addr:street" v="Camas Drive"/><tag k="addr:housenumber" v="1800"/><tag k="coa:place_id" v="3372704"/></node><node id="-153" lat="30.453642" lon="-97.668608" changeset="false"><tag k="addr:street" v="Patrica Street"/><tag k="addr:housenumber" v="15606"/><tag k="coa:place_id" v="3105981"/></node><node id="-154" lat="30.456214" lon="-97.668585" changeset="false"><tag k="addr:street" v="Grand Avenue Parkway"/><tag k="addr:housenumber" v="2006"/><tag k="coa:place_id" v="5075963"/></node><node id="-155" lat="30.443466" lon="-97.670062" changeset="false"><tag k="addr:street" v="Camas Drive"/><tag k="addr:housenumber" v="1700 1/2"/><tag k="coa:place_id" v="3142538"/></node><node id="-156" lat="30.438493" lon="-97.674354" changeset="false"><tag k="addr:street" v="Gaylord Drive"/><tag k="addr:housenumber" v="1709"/><tag k="coa:place_id" v="162607"/></node><node id="-157" lat="30.454692" lon="-97.669472" changeset="false"><tag k="addr:street" v="Brenda Street"/><tag k="addr:housenumber" v="15703"/><tag k="coa:place_id" v="3105948"/></node><node id="-158" lat="30.443565" lon="-97.670079" changeset="false"><tag k="addr:street" v="Camas Drive"/><tag k="addr:housenumber" v="1700"/><tag k="coa:place_id" v="162444"/></node><node id="-159" lat="30.451073" lon="-97.671883" changeset="false"><tag k="addr:street" v="Brenda Street"/><tag k="addr:housenumber" v="15321"/><tag k="coa:place_id" v="3150717"/></node><node id="-160" lat="30.450572" lon="-97.669506" changeset="false"><tag k="addr:street" v="Connie Street"/><tag k="addr:housenumber" v="15404"/><tag k="coa:place_id" v="256304"/></node><node id="-161" lat="30.442643" lon="-97.673255" changeset="false"><tag k="addr:street" v="Camas Drive"/><tag k="addr:housenumber" v="1841"/><tag k="coa:place_id" v="162409"/></node><node id="-162" lat="30.465009" lon="-97.669933" changeset="false"><tag k="addr:street" v="North Interstate Highway 35 Service Road"/><tag k="addr:housenumber" v="16328"/><tag k="coa:place_id" v="103441"/></node><node id="-163" lat="30.46395" lon="-97.669667" changeset="false"><tag k="addr:street" v="North Interstate Highway 35 Service Road"/><tag k="addr:housenumber" v="16256"/><tag k="coa:place_id" v="103439"/></node><node id="-164" lat="30.445277" lon="-97.674912" changeset="false"><tag k="addr:street" v="Bescott Drive"/><tag k="addr:housenumber" v="14925 1/2"/><tag k="coa:place_id" v="3142537"/></node><node id="-165" lat="30.466853" lon="-97.670555" changeset="false"><tag k="addr:street" v="North Interstate Highway 35 Service Road"/><tag k="addr:housenumber" v="16428"/><tag k="coa:place_id" v="3032342"/></node><node id="-166" lat="30.45213" lon="-97.670044" changeset="false"><tag k="addr:street" v="Scarlet Street"/><tag k="addr:housenumber" v="15501"/><tag k="coa:place_id" v="3105989"/></node><node id="-167" lat="30.46927" lon="-97.671595" changeset="false"><tag k="addr:street" v="North Interstate Highway 35 Service Road"/><tag k="addr:housenumber" v="16528 1/2"/><tag k="coa:place_id" v="3122672"/></node><node id="-168" lat="30.44418" lon="-97.672503" changeset="false"><tag k="addr:street" v="Purslane Meadow Trail"/><tag k="addr:housenumber" v="14936"/><tag k="coa:place_id" v="162474"/></node><node id="-169" lat="30.443536" lon="-97.673353" changeset="false"><tag k="addr:street" v="Rose Pavonia Place"/><tag k="addr:housenumber" v="14916"/><tag k="coa:place_id" v="162366"/></node><node id="-170" lat="30.449731" lon="-97.668374" changeset="false"><tag k="addr:street" v="Marsha Street"/><tag k="addr:housenumber" v="15403"/><tag k="coa:place_id" v="3374304"/></node><node id="-171" lat="30.448289" lon="-97.669408" changeset="false"><tag k="addr:street" v="Marsha Street"/><tag k="addr:housenumber" v="15303"/><tag k="coa:place_id" v="5064098"/></node><node id="-172" lat="30.449041" lon="-97.672462" changeset="false"><tag k="addr:street" v="Ouida Drive"/><tag k="addr:housenumber" v="2005"/><tag k="coa:place_id" v="3372487"/></node><node id="-173" lat="30.449325" lon="-97.668113" changeset="false"><tag k="addr:street" v="Ginger Street"/><tag k="addr:housenumber" v="15330"/><tag k="coa:place_id" v="5077863"/></node><node id="-174" lat="30.451568" lon="-97.668879" changeset="false"><tag k="addr:street" v="Connie Street"/><tag k="addr:housenumber" v="15500"/><tag k="coa:place_id" v="3105998"/></node><node id="-175" lat="30.452376" lon="-97.670544" changeset="false"><tag k="addr:street" v="Scarlet Street"/><tag k="addr:housenumber" v="15500"/><tag k="coa:place_id" v="234822"/></node><node id="-176" lat="30.452217" lon="-97.66951" changeset="false"><tag k="addr:street" v="Patrica Street"/><tag k="addr:housenumber" v="15502"/><tag k="coa:place_id" v="3105993"/></node><node id="-177" lat="30.437573" lon="-97.67575" changeset="false"><tag k="addr:street" v="Gaylord Drive"/><tag k="addr:housenumber" v="1753"/><tag k="coa:place_id" v="162625"/></node><node id="-178" lat="30.454782" lon="-97.668968" changeset="false"><tag k="addr:street" v="Scarlet Street"/><tag k="addr:housenumber" v="15704"/><tag k="coa:place_id" v="3105968"/></node><node id="-179" lat="30.439018" lon="-97.674355" changeset="false"><tag k="addr:street" v="Gaylord Drive"/><tag k="addr:housenumber" v="1653"/><tag k="coa:place_id" v="162601"/></node><node id="-180" lat="30.45071" lon="-97.667075" changeset="false"><tag k="addr:street" v="North Interstate Highway 35 Service Road"/><tag k="addr:housenumber" v="15510 1/2"/><tag k="coa:place_id" v="3122693"/></node><node id="-181" lat="30.456794" lon="-97.672139" changeset="false"><tag k="addr:street" v="Grand Avenue Parkway"/><tag k="addr:housenumber" v="2200"/><tag k="coa:place_id" v="192474"/></node><node id="-182" lat="30.443506" lon="-97.670315" changeset="false"><tag k="addr:street" v="Camas Drive"/><tag k="addr:housenumber" v="1704"/><tag k="coa:place_id" v="3049285"/></node><node id="-183" lat="30.441673" lon="-97.67406" changeset="false"><tag k="addr:street" v="Bescott Drive"/><tag k="addr:housenumber" v="14805"/><tag k="coa:place_id" v="139656"/></node><node id="-184" lat="30.453411" lon="-97.668745" changeset="false"><tag k="addr:street" v="Patrica Street"/><tag k="addr:housenumber" v="15604"/><tag k="coa:place_id" v="3105980"/></node><node id="-185" lat="30.464327" lon="-97.669615" changeset="false"><tag k="addr:street" v="North Interstate Highway 35 Service Road"/><tag k="addr:housenumber" v="16306"/><tag k="coa:place_id" v="50502"/></node><node id="-186" lat="30.444741" lon="-97.674346" changeset="false"><tag k="addr:street" v="Bescott Drive"/><tag k="addr:housenumber" v="14911"/><tag k="coa:place_id" v="139687"/></node><node id="-187" lat="30.451827" lon="-97.66807" changeset="false"><tag k="addr:street" v="Connie Street"/><tag k="addr:housenumber" v="15505"/><tag k="coa:place_id" v="3106010"/></node><node id="-188" lat="30.44318" lon="-97.672644" changeset="false"><tag k="addr:street" v="Camas Drive"/><tag k="addr:housenumber" v="1828"/><tag k="coa:place_id" v="162487"/></node><node id="-189" lat="30.454233" lon="-97.669785" changeset="false"><tag k="addr:street" v="Brenda Street"/><tag k="addr:housenumber" v="15607"/><tag k="coa:place_id" v="3105965"/></node><node id="-190" lat="30.465845" lon="-97.670227" changeset="false"><tag k="addr:street" v="North Interstate Highway 35 Service Road"/><tag k="addr:housenumber" v="16356"/><tag k="coa:place_id" v="103446"/></node><node id="-191" lat="30.449086" lon="-97.67093" changeset="false"><tag k="addr:street" v="Patrica Street"/><tag k="addr:housenumber" v="15303"/><tag k="coa:place_id" v="193894"/></node><node id="-192" lat="30.451623" lon="-97.667966" changeset="false"><tag k="addr:street" v="Marsha Street"/><tag k="addr:housenumber" v="15508"/><tag k="coa:place_id" v="3053445"/></node><node id="-193" lat="30.456809" lon="-97.671508" changeset="false"><tag k="addr:street" v="Grand Avenue Parkway"/><tag k="addr:housenumber" v="2120"/><tag k="coa:place_id" v="256599"/></node><node id="-194" lat="30.456594" lon="-97.667668" changeset="false"><tag k="addr:street" v="North Interstate Highway 35 Service Road"/><tag k="addr:housenumber" v="15900"/><tag k="coa:place_id" v="3103737"/></node><node id="-195" lat="30.455815" lon="-97.678268" changeset="false"><tag k="addr:street" v="Bratton Lane"/><tag k="addr:housenumber" v="15509"/><tag k="coa:place_id" v="1105487"/></node><node id="-196" lat="30.43911" lon="-97.676073" changeset="false"><tag k="addr:street" v="Regents Walk"/><tag k="addr:housenumber" v="14524"/><tag k="coa:place_id" v="162655"/></node><node id="-197" lat="30.453661" lon="-97.672679" changeset="false"><tag k="addr:street" v="Long Vista Drive"/><tag k="addr:housenumber" v="15505"/><tag k="coa:place_id" v="256446"/></node><node id="-198" lat="30.445691" lon="-97.672543" changeset="false"><tag k="addr:street" v="Fleischer Drive"/><tag k="addr:housenumber" v="1902"/><tag k="coa:place_id" v="129666"/></node><node id="-199" lat="30.453053" lon="-97.670564" changeset="false"><tag k="addr:street" v="Brenda Street"/><tag k="addr:housenumber" v="15505"/><tag k="coa:place_id" v="256286"/></node><node id="-200" lat="30.452671" lon="-97.6686" changeset="false"><tag k="addr:street" v="Patrica Street"/><tag k="addr:housenumber" v="15601"/><tag k="coa:place_id" v="193903"/></node><node id="-201" lat="30.457427" lon="-97.667537" changeset="false"><tag k="addr:street" v="North Interstate Highway 35 Service Road"/><tag k="addr:housenumber" v="15946"/><tag k="coa:place_id" v="3126022"/></node><node id="-202" lat="30.442213" lon="-97.673936" changeset="false"><tag k="addr:street" v="Bescott Drive"/><tag k="addr:housenumber" v="14815"/><tag k="coa:place_id" v="139662"/></node><node id="-203" lat="30.443959" lon="-97.668673" changeset="false"><tag k="addr:street" v="North Interstate Highway 35 Service Road"/><tag k="addr:housenumber" v="15020"/><tag k="coa:place_id" v="1011464"/></node><node id="-204" lat="30.466092" lon="-97.670388" changeset="false"><tag k="addr:street" v="North Interstate Highway 35 Service Road"/><tag k="addr:housenumber" v="16400"/><tag k="coa:place_id" v="103447"/></node><node id="-205" lat="30.449969" lon="-97.673188" changeset="false"><tag k="addr:street" v="Brenda Street"/><tag k="addr:housenumber" v="15300"/><tag k="coa:place_id" v="3106012"/></node><node id="-206" lat="30.451821" lon="-97.673556" changeset="false"><tag k="addr:street" v="Long Vista Drive"/><tag k="addr:housenumber" v="15419"/><tag k="coa:place_id" v="86699"/></node><node id="-207" lat="30.47134" lon="-97.672256" changeset="false"><tag k="addr:street" v="North Interstate Highway 35 Service Road"/><tag k="addr:housenumber" v="16616"/><tag k="coa:place_id" v="1145768"/></node><node id="-208" lat="30.448518" lon="-97.670471" changeset="false"><tag k="addr:street" v="Ouida Drive"/><tag k="addr:housenumber" v="1904"/><tag k="coa:place_id" v="226427"/></node><node id="-209" lat="30.450222" lon="-97.673041" changeset="false"><tag k="addr:street" v="Brenda Street"/><tag k="addr:housenumber" v="15302"/><tag k="coa:place_id" v="3106013"/></node><node id="-210" lat="30.452865" lon="-97.670234" changeset="false"><tag k="addr:street" v="Scarlet Street"/><tag k="addr:housenumber" v="15504"/><tag k="coa:place_id" v="256289"/></node><node id="-211" lat="30.452702" lon="-97.669209" changeset="false"><tag k="addr:street" v="Patrica Street"/><tag k="addr:housenumber" v="15506"/><tag k="coa:place_id" v="3105995"/></node><node id="-212" lat="30.452463" lon="-97.669355" changeset="false"><tag k="addr:street" v="Patrica Street"/><tag k="addr:housenumber" v="15504"/><tag k="coa:place_id" v="3105994"/></node><node id="-213" lat="30.447216" lon="-97.668601" changeset="false"><tag k="addr:street" v="Ouida Drive"/><tag k="addr:housenumber" v="1707"/><tag k="coa:place_id" v="3101877"/></node><node id="-214" lat="30.450958" lon="-97.671466" changeset="false"><tag k="addr:street" v="Scarlet Street"/><tag k="addr:housenumber" v="15400"/><tag k="coa:place_id" v="3133937"/></node><node id="-215" lat="30.438722" lon="-97.675237" changeset="false"><tag k="addr:street" v="Regents Walk"/><tag k="addr:housenumber" v="14501"/><tag k="coa:place_id" v="162667"/></node><node id="-216" lat="30.4567" lon="-97.667373" changeset="false"><tag k="addr:street" v="North Interstate Highway 35 Service Road"/><tag k="addr:housenumber" v="15900 1/2"/><tag k="coa:place_id" v="3122692"/></node><node id="-217" lat="30.471047" lon="-97.672204" changeset="false"><tag k="addr:street" v="North Interstate Highway 35 Service Road"/><tag k="addr:housenumber" v="16612"/><tag k="coa:place_id" v="1145769"/></node><node id="-218" lat="30.449718" lon="-97.673297" changeset="false"><tag k="addr:street" v="Brenda Street"/><tag k="addr:housenumber" v="15216"/><tag k="coa:place_id" v="3072922"/></node><node id="-219" lat="30.464487" lon="-97.669666" changeset="false"><tag k="addr:street" v="North Interstate Highway 35 Service Road"/><tag k="addr:housenumber" v="16314"/><tag k="coa:place_id" v="50503"/></node><node id="-220" lat="30.440216" lon="-97.670926" changeset="false"><tag k="addr:street" v="Wells Branch Parkway"/><tag k="addr:housenumber" v="1620"/><tag k="coa:place_id" v="1159150"/></node><node id="-221" lat="30.442885" lon="-97.673925" changeset="false"><tag k="addr:street" v="Bescott Drive"/><tag k="addr:housenumber" v="14827"/><tag k="coa:place_id" v="139668"/></node><node id="-222" lat="30.448219" lon="-97.66982" changeset="false"><tag k="addr:street" v="Marsha Street"/><tag k="addr:housenumber" v="15300"/><tag k="coa:place_id" v="226423"/></node><node id="-223" lat="30.452768" lon="-97.668095" changeset="false"><tag k="addr:street" v="Connie Street"/><tag k="addr:housenumber" v="15602"/><tag k="coa:place_id" v="1104787"/></node><node id="-224" lat="30.453286" lon="-97.670439" changeset="false"><tag k="addr:street" v="Brenda Street"/><tag k="addr:housenumber" v="15507"/><tag k="coa:place_id" v="3105986"/></node><node id="-225" lat="30.446765" lon="-97.667797" changeset="false"><tag k="addr:street" v="North Interstate Highway 35 Service Road"/><tag k="addr:housenumber" v="15232"/><tag k="coa:place_id" v="471374"/></node><node id="-226" lat="30.447943" lon="-97.668932" changeset="false"><tag k="addr:street" v="Ginger Street"/><tag k="addr:housenumber" v="15310"/><tag k="coa:place_id" v="183546"/></node><node id="-227" lat="30.443218" lon="-97.673922" changeset="false"><tag k="addr:street" v="Bescott Drive"/><tag k="addr:housenumber" v="14835"/><tag k="coa:place_id" v="139674"/></node><node id="-228" lat="30.449475" lon="-97.671741" changeset="false"><tag k="addr:street" v="Scarlet Street"/><tag k="addr:housenumber" v="15303"/><tag k="coa:place_id" v="256297"/></node><node id="-229" lat="30.437667" lon="-97.67544" changeset="false"><tag k="addr:street" v="Gaylord Drive"/><tag k="addr:housenumber" v="1745"/><tag k="coa:place_id" v="162623"/></node><node id="-230" lat="30.448986" lon="-97.676188" changeset="false"><tag k="addr:street" v="Nathan Drive"/><tag k="addr:housenumber" v="2112"/><tag k="coa:place_id" v="584182"/></node><node id="-231" lat="30.450864" lon="-97.672071" changeset="false"><tag k="addr:street" v="Brenda Street"/><tag k="addr:housenumber" v="15315"/><tag k="coa:place_id" v="3081564"/></node><node id="-232" lat="30.451292" lon="-97.672351" changeset="false"><tag k="addr:street" v="Brenda Street"/><tag k="addr:housenumber" v="15310"/><tag k="coa:place_id" v="256279"/></node><node id="-233" lat="30.447409" lon="-97.675307" changeset="false"><tag k="addr:street" v="Natural Spring Way"/><tag k="addr:housenumber" v="15009"/><tag k="coa:place_id" v="118614"/></node><node id="-234" lat="30.452122" lon="-97.671199" changeset="false"><tag k="addr:street" v="Brenda Street"/><tag k="addr:housenumber" v="15411"/><tag k="coa:place_id" v="3148715"/></node><node id="-235" lat="30.45251" lon="-97.668244" changeset="false"><tag k="addr:street" v="Connie Street"/><tag k="addr:housenumber" v="15600"/><tag k="coa:place_id" v="235475"/></node><node id="-236" lat="30.453633" lon="-97.667468" changeset="false"><tag k="addr:street" v="Connie Street"/><tag k="addr:housenumber" v="15702"/><tag k="coa:place_id" v="3106005"/></node><node id="-237" lat="30.453468" lon="-97.670802" changeset="false"><tag k="addr:street" v="Brenda Street"/><tag k="addr:housenumber" v="15506"/><tag k="coa:place_id" v="3037735"/></node><node id="-238" lat="30.446039" lon="-97.673006" changeset="false"><tag k="addr:street" v="Fleischer Drive"/><tag k="addr:housenumber" v="1904"/><tag k="coa:place_id" v="3046007"/></node><node id="-239" lat="30.454434" lon="-97.668175" changeset="false"><tag k="addr:street" v="Three Points Road"/><tag k="addr:housenumber" v="2003"/><tag k="coa:place_id" v="3190941"/></node><node id="-240" lat="30.438404" lon="-97.675681" changeset="false"><tag k="addr:street" v="Regents Walk"/><tag k="addr:housenumber" v="14500"/><tag k="coa:place_id" v="162666"/></node><node id="-241" lat="30.449772" lon="-97.672252" changeset="false"><tag k="addr:street" v="Scarlet Street"/><tag k="addr:housenumber" v="15302"/><tag k="coa:place_id" v="3106014"/></node><node id="-242" lat="30.46534" lon="-97.670172" changeset="false"><tag k="addr:street" v="North Interstate Highway 35 Service Road"/><tag k="addr:housenumber" v="16336"/><tag k="coa:place_id" v="103444"/></node><node id="-243" lat="30.465501" lon="-97.670223" changeset="false"><tag k="addr:street" v="North Interstate Highway 35 Service Road"/><tag k="addr:housenumber" v="16344"/><tag k="coa:place_id" v="103445"/></node><node id="-244" lat="30.470457" lon="-97.673662" changeset="false"><tag k="addr:street" v="Bratton Lane"/><tag k="addr:housenumber" v="16513"/><tag k="coa:place_id" v="202223"/></node><node id="-245" lat="30.470383" lon="-97.673515" changeset="false"><tag k="addr:street" v="Bratton Lane"/><tag k="addr:housenumber" v="16511"/><tag k="coa:place_id" v="3290390"/></node></osm>