<?xml version="1.0" encoding="UTF-8"?><osm version="0.6" generator="github.com/aaronlidman/osm-and-geojson"><node id="-1" lat="30.290916" lon="-97.759478" changeset="false"><tag k="addr:street" v="Hartford Road"/><tag k="addr:housenumber" v="2320"/><tag k="addr:postcode" v="78703"/></node><node id="-2" lat="30.288748" lon="-97.758752" changeset="false"><tag k="addr:street" v="Watchhill Road"/><tag k="addr:housenumber" v="1627"/><tag k="addr:postcode" v="78703"/></node><node id="-3" lat="30.287187" lon="-97.757579" changeset="false"><tag k="addr:street" v="Northumberland Road"/><tag k="addr:housenumber" v="1601 1/2"/><tag k="addr:postcode" v="78703"/></node><node id="-4" lat="30.287769" lon="-97.762032" changeset="false"><tag k="addr:street" v="Newfield Lane"/><tag k="addr:housenumber" v="1712"/><tag k="addr:postcode" v="78703"/></node><node id="-5" lat="30.286394" lon="-97.757432" changeset="false"><tag k="addr:street" v="Niles Road"/><tag k="addr:housenumber" v="1604"/><tag k="addr:postcode" v="78703"/></node><node id="-6" lat="30.28552" lon="-97.759404" changeset="false"><tag k="addr:street" v="Cromwell Hill"/><tag k="addr:housenumber" v="1701"/><tag k="addr:postcode" v="78703"/></node><node id="-7" lat="30.289401" lon="-97.757743" changeset="false"><tag k="addr:street" v="Poquonock Road"/><tag k="addr:housenumber" v="1611"/><tag k="addr:postcode" v="78703"/></node><node id="-8" lat="30.284402" lon="-97.75943" changeset="false"><tag k="addr:street" v="Woodlawn Boulevard"/><tag k="addr:housenumber" v="1513"/><tag k="addr:postcode" v="78703"/></node><node id="-9" lat="30.284892" lon="-97.76149" changeset="false"><tag k="addr:street" v="Hartford Road"/><tag k="addr:housenumber" v="1501 1/2"/><tag k="addr:postcode" v="78703"/></node><node id="-10" lat="30.284921" lon="-97.758036" changeset="false"><tag k="addr:street" v="Pease Road"/><tag k="addr:housenumber" v="1607"/><tag k="addr:postcode" v="78703"/></node><node id="-11" lat="30.282922" lon="-97.757837" changeset="false"><tag k="addr:street" v="Enfield Road"/><tag k="addr:housenumber" v="1600"/><tag k="addr:postcode" v="78703"/></node><node id="-12" lat="30.285431" lon="-97.75851" changeset="false"><tag k="addr:street" v="Pease Road"/><tag k="addr:housenumber" v="1700"/><tag k="addr:postcode" v="78703"/></node><node id="-13" lat="30.285568" lon="-97.760536" changeset="false"><tag k="addr:street" v="Summit View"/><tag k="addr:housenumber" v="1708"/><tag k="addr:postcode" v="78703"/></node><node id="-14" lat="30.287699" lon="-97.757774" changeset="false"><tag k="addr:street" v="Northumberland Road"/><tag k="addr:housenumber" v="1604"/><tag k="addr:postcode" v="78703"/></node><node id="-15" lat="30.283157" lon="-97.758095" changeset="false"><tag k="addr:street" v="West Lynn Street"/><tag k="addr:housenumber" v="1500"/><tag k="addr:postcode" v="78703"/></node><node id="-16" lat="30.288277" lon="-97.759012" changeset="false"><tag k="addr:street" v="Northumberland Road"/><tag k="addr:housenumber" v="1618"/><tag k="addr:postcode" v="78703"/></node><node id="-17" lat="30.284618" lon="-97.761267" changeset="false"><tag k="addr:street" v="Enfield Road"/><tag k="addr:housenumber" v="1714"/><tag k="addr:postcode" v="78703"/></node><node id="-18" lat="30.288042" lon="-97.760035" changeset="false"><tag k="addr:street" v="Hartford Road"/><tag k="addr:housenumber" v="2112"/><tag k="addr:postcode" v="78703"/></node><node id="-19" lat="30.290223" lon="-97.758933" changeset="false"><tag k="addr:street" v="Hartford Road"/><tag k="addr:housenumber" v="2313"/><tag k="addr:postcode" v="78703"/></node><node id="-20" lat="30.285523" lon="-97.760747" changeset="false"><tag k="addr:street" v="Summit View"/><tag k="addr:housenumber" v="1714"/><tag k="addr:postcode" v="78703"/></node><node id="-21" lat="30.285181" lon="-97.76124" changeset="false"><tag k="addr:street" v="Summit View"/><tag k="addr:housenumber" v="1715"/><tag k="addr:postcode" v="78703"/></node><node id="-22" lat="30.28947" lon="-97.756634" changeset="false"><tag k="addr:street" v="Poquonock Road"/><tag k="addr:housenumber" v="1604"/><tag k="addr:postcode" v="78703"/></node><node id="-23" lat="30.287853" lon="-97.76092" changeset="false"><tag k="addr:street" v="Niles Road"/><tag k="addr:housenumber" v="1810"/><tag k="addr:postcode" v="78703"/></node><node id="-24" lat="30.285736" lon="-97.760819" changeset="false"><tag k="addr:street" v="Hartford Road"/><tag k="addr:housenumber" v="1607"/><tag k="addr:postcode" v="78703"/></node><node id="-25" lat="30.290965" lon="-97.759305" changeset="false"><tag k="addr:street" v="Hartford Road"/><tag k="addr:housenumber" v="2322"/><tag k="addr:postcode" v="78703"/></node><node id="-26" lat="30.288335" lon="-97.759157" changeset="false"><tag k="addr:street" v="Northumberland Road"/><tag k="addr:housenumber" v="1620"/><tag k="addr:postcode" v="78703"/></node><node id="-27" lat="30.285679" lon="-97.760843" changeset="false"><tag k="addr:street" v="Summit View"/><tag k="addr:housenumber" v="1718"/><tag k="addr:postcode" v="78703"/></node><node id="-28" lat="30.284713" lon="-97.761347" changeset="false"><tag k="addr:street" v="Enfield Road"/><tag k="addr:housenumber" v="1716"/><tag k="addr:postcode" v="78703"/></node><node id="-29" lat="30.291307" lon="-97.759225" changeset="false"><tag k="addr:street" v="Hartford Road"/><tag k="addr:housenumber" v="2326"/><tag k="addr:postcode" v="78703"/></node><node id="-30" lat="30.291238" lon="-97.759234" changeset="false"><tag k="addr:street" v="Hartford Road"/><tag k="addr:housenumber" v="2324"/><tag k="addr:postcode" v="78703"/></node><node id="-31" lat="30.2896" lon="-97.759825" changeset="false"><tag k="addr:street" v="Watchhill Road"/><tag k="addr:housenumber" v="1800"/><tag k="addr:postcode" v="78703"/></node><node id="-32" lat="30.289576" lon="-97.759758" changeset="false"><tag k="addr:street" v="Hartford Road"/><tag k="addr:housenumber" v="2300"/><tag k="addr:postcode" v="78703"/></node><node id="-33" lat="30.289715" lon="-97.760086" changeset="false"><tag k="addr:street" v="Watchhill Road"/><tag k="addr:housenumber" v="1806"/><tag k="addr:postcode" v="78703"/></node><node id="-34" lat="30.289753" lon="-97.760151" changeset="false"><tag k="addr:street" v="Watchhill Road"/><tag k="addr:housenumber" v="1808"/><tag k="addr:postcode" v="78703"/></node><node id="-35" lat="30.28995" lon="-97.760472" changeset="false"><tag k="addr:street" v="Newfield Lane"/><tag k="addr:housenumber" v="2301"/><tag k="addr:postcode" v="78703"/></node><node id="-36" lat="30.289835" lon="-97.760348" changeset="false"><tag k="addr:street" v="Watchhill Road"/><tag k="addr:housenumber" v="1900"/><tag k="addr:postcode" v="78703"/></node><node id="-37" lat="30.288208" lon="-97.76064" changeset="false"><tag k="addr:street" v="Polo Road"/><tag k="addr:housenumber" v="1809"/><tag k="addr:postcode" v="78703"/></node><node id="-38" lat="30.288192" lon="-97.760642" changeset="false"><tag k="addr:street" v="Polo Road"/><tag k="addr:housenumber" v="1811"/><tag k="addr:postcode" v="78703"/></node><node id="-39" lat="30.28771" lon="-97.760072" changeset="false"><tag k="addr:street" v="Hartford Road"/><tag k="addr:housenumber" v="2104"/><tag k="addr:postcode" v="78703"/></node><node id="-40" lat="30.287775" lon="-97.760045" changeset="false"><tag k="addr:street" v="Hartford Road"/><tag k="addr:housenumber" v="2106"/><tag k="addr:postcode" v="78703"/></node><node id="-41" lat="30.287927" lon="-97.760044" changeset="false"><tag k="addr:street" v="Hartford Road"/><tag k="addr:housenumber" v="2110"/><tag k="addr:postcode" v="78703"/></node><node id="-42" lat="30.287849" lon="-97.760043" changeset="false"><tag k="addr:street" v="Hartford Road"/><tag k="addr:housenumber" v="2108"/><tag k="addr:postcode" v="78703"/></node><node id="-43" lat="30.288134" lon="-97.760532" changeset="false"><tag k="addr:street" v="Polo Road"/><tag k="addr:housenumber" v="1807"/><tag k="addr:postcode" v="78703"/></node><node id="-44" lat="30.288228" lon="-97.760698" changeset="false"><tag k="addr:street" v="Polo Road"/><tag k="addr:housenumber" v="1813"/><tag k="addr:postcode" v="78703"/></node><node id="-45" lat="30.288102" lon="-97.760408" changeset="false"><tag k="addr:street" v="Polo Road"/><tag k="addr:housenumber" v="1803"/><tag k="addr:postcode" v="78703"/></node><node id="-46" lat="30.288078" lon="-97.760331" changeset="false"><tag k="addr:street" v="Polo Road"/><tag k="addr:housenumber" v="1801"/><tag k="addr:postcode" v="78703"/></node><node id="-47" lat="30.288151" lon="-97.760523" changeset="false"><tag k="addr:street" v="Polo Road"/><tag k="addr:housenumber" v="1805"/><tag k="addr:postcode" v="78703"/></node><node id="-48" lat="30.287798" lon="-97.761154" changeset="false"><tag k="addr:street" v="Niles Road"/><tag k="addr:housenumber" v="1812"/><tag k="addr:postcode" v="78703"/></node><node id="-49" lat="30.287874" lon="-97.761278" changeset="false"><tag k="addr:street" v="Newfield Lane"/><tag k="addr:housenumber" v="2101"/><tag k="addr:postcode" v="78703"/></node><node id="-50" lat="30.284661" lon="-97.760161" changeset="false"><tag k="addr:street" v="Summit View"/><tag k="addr:housenumber" v="1701"/><tag k="addr:postcode" v="78703"/></node><node id="-51" lat="30.284588" lon="-97.760041" changeset="false"><tag k="addr:street" v="Woodlawn Boulevard"/><tag k="addr:housenumber" v="1512"/><tag k="addr:postcode" v="78703"/></node></osm>