<?xml version="1.0" encoding="UTF-8"?><osm version="0.6" generator="github.com/aaronlidman/osm-and-geojson"><node id="-1" lat="30.343855" lon="-97.503524" changeset="false"><tag k="addr:street" v="Old Kimbro Road"/><tag k="addr:housenumber" v="12701"/><tag k="coa:place_id" v="1138187"/></node><node id="-2" lat="30.349829" lon="-97.431914" changeset="false"><tag k="addr:street" v="Jelly Palm Trail"/><tag k="addr:housenumber" v="13025"/><tag k="coa:place_id" v="3152862"/></node><node id="-3" lat="30.339658" lon="-97.506925" changeset="false"><tag k="addr:street" v="Old Kimbro Road"/><tag k="addr:housenumber" v="12423"/><tag k="coa:place_id" v="1138196"/></node><node id="-4" lat="30.346874" lon="-97.461422" changeset="false"><tag k="addr:street" v="Ballerstedt Road"/><tag k="addr:housenumber" v="12901"/><tag k="coa:place_id" v="1128791"/></node><node id="-5" lat="30.322726" lon="-97.458524" changeset="false"><tag k="addr:street" v="Littig Road"/><tag k="addr:housenumber" v="17400"/><tag k="coa:place_id" v="3101362"/></node><node id="-6" lat="30.326878" lon="-97.487342" changeset="false"><tag k="addr:street" v="Littig Road"/><tag k="addr:housenumber" v="15702"/><tag k="coa:place_id" v="1139071"/></node><node id="-7" lat="30.347036" lon="-97.46595" changeset="false"><tag k="addr:street" v="Voelker Lane"/><tag k="addr:housenumber" v="16106"/><tag k="coa:place_id" v="1128660"/></node><node id="-8" lat="30.345356" lon="-97.462906" changeset="false"><tag k="addr:street" v="Ballerstedt Road"/><tag k="addr:housenumber" v="12820"/><tag k="coa:place_id" v="1140052"/></node><node id="-9" lat="30.335723" lon="-97.44219" changeset="false"><tag k="addr:street" v="Albert Voelker Road"/><tag k="addr:housenumber" v="17805"/><tag k="coa:place_id" v="1127940"/></node><node id="-10" lat="30.338148" lon="-97.446403" changeset="false"><tag k="addr:street" v="Albert Voelker Road"/><tag k="addr:housenumber" v="17509"/><tag k="coa:place_id" v="1128005"/></node><node id="-11" lat="30.322837" lon="-97.45907" changeset="false"><tag k="addr:street" v="Littig Road"/><tag k="addr:housenumber" v="17312"/><tag k="coa:place_id" v="1140032"/></node><node id="-12" lat="30.350468" lon="-97.428089" changeset="false"><tag k="addr:street" v="Basket Flower Bend"/><tag k="addr:housenumber" v="18373"/><tag k="coa:place_id" v="3152946"/></node><node id="-13" lat="30.346925" lon="-97.431263" changeset="false"><tag k="addr:street" v="Sago Palm Trail"/><tag k="addr:housenumber" v="12809"/><tag k="coa:place_id" v="3269169"/></node><node id="-14" lat="30.34646" lon="-97.431469" changeset="false"><tag k="addr:street" v="Sago Palm Trail"/><tag k="addr:housenumber" v="12800"/><tag k="coa:place_id" v="3269170"/></node><node id="-15" lat="30.346622" lon="-97.431569" changeset="false"><tag k="addr:street" v="Sago Palm Trail"/><tag k="addr:housenumber" v="12804"/><tag k="coa:place_id" v="3269171"/></node><node id="-16" lat="30.34598" lon="-97.431549" changeset="false"><tag k="addr:street" v="Basket Flower Bend"/><tag k="addr:housenumber" v="18037"/><tag k="coa:place_id" v="3269193"/></node><node id="-17" lat="30.341043" lon="-97.465094" changeset="false"><tag k="addr:street" v="Ballerstedt Road"/><tag k="addr:housenumber" v="12529"/><tag k="coa:place_id" v="3195762"/></node><node id="-18" lat="30.346539" lon="-97.432708" changeset="false"><tag k="addr:street" v="Grandifloras Cove"/><tag k="addr:housenumber" v="12812"/><tag k="coa:place_id" v="3269216"/></node><node id="-19" lat="30.329796" lon="-97.472453" changeset="false"><tag k="addr:street" v="Ballerstedt Road"/><tag k="addr:housenumber" v="12201"/><tag k="coa:place_id" v="3345513"/></node><node id="-20" lat="30.348959" lon="-97.481992" changeset="false"><tag k="addr:street" v="Highway 290"/><tag k="addr:housenumber" v="15105"/><tag k="coa:place_id" v="1127921"/></node><node id="-21" lat="30.341674" lon="-97.505457" changeset="false"><tag k="addr:street" v="Old Kimbro Road"/><tag k="addr:housenumber" v="12529"/><tag k="coa:place_id" v="1138193"/></node><node id="-22" lat="30.33658" lon="-97.443964" changeset="false"><tag k="addr:street" v="Albert Voelker Road"/><tag k="addr:housenumber" v="17701"/><tag k="coa:place_id" v="1128002"/></node><node id="-23" lat="30.349573" lon="-97.498498" changeset="false"><tag k="addr:street" v="Highway 290"/><tag k="addr:housenumber" v="14215"/><tag k="coa:place_id" v="1127913"/></node><node id="-24" lat="30.350193" lon="-97.497093" changeset="false"><tag k="addr:street" v="Highway 290"/><tag k="addr:housenumber" v="14305"/><tag k="coa:place_id" v="1127914"/></node><node id="-25" lat="30.321903" lon="-97.449218" changeset="false"><tag k="addr:street" v="Wesley Street"/><tag k="addr:housenumber" v="11908"/><tag k="coa:place_id" v="1129770"/></node><node id="-26" lat="30.33173" lon="-97.425665" changeset="false"><tag k="addr:street" v="County Line Road"/><tag k="addr:housenumber" v="12218"/><tag k="coa:place_id" v="1129849"/></node><node id="-27" lat="30.350519" lon="-97.466731" changeset="false"><tag k="addr:street" v="Highway 290"/><tag k="addr:housenumber" v="15911"/><tag k="coa:place_id" v="1128727"/></node><node id="-28" lat="30.345071" lon="-97.464783" changeset="false"><tag k="addr:street" v="Voelker Lane"/><tag k="addr:housenumber" v="16215"/><tag k="coa:place_id" v="1128450"/></node><node id="-29" lat="30.3512" lon="-97.428093" changeset="false"><tag k="addr:street" v="Basket Flower Bend"/><tag k="addr:housenumber" v="18417"/><tag k="coa:place_id" v="3152952"/></node><node id="-30" lat="30.350465" lon="-97.466025" changeset="false"><tag k="addr:street" v="Highway 290"/><tag k="addr:housenumber" v="16005"/><tag k="coa:place_id" v="1128721"/></node><node id="-31" lat="30.345468" lon="-97.433725" changeset="false"><tag k="addr:street" v="Basket Flower Bend"/><tag k="addr:housenumber" v="17916"/><tag k="coa:place_id" v="3269181"/></node><node id="-32" lat="30.346118" lon="-97.4313" changeset="false"><tag k="addr:street" v="Basket Flower Bend"/><tag k="addr:housenumber" v="18045"/><tag k="coa:place_id" v="3269195"/></node><node id="-33" lat="30.346666" lon="-97.43248" changeset="false"><tag k="addr:street" v="Grandifloras Cove"/><tag k="addr:housenumber" v="12813"/><tag k="coa:place_id" v="3269199"/></node><node id="-34" lat="30.345927" lon="-97.432984" changeset="false"><tag k="addr:street" v="Basket Flower Cove"/><tag k="addr:housenumber" v="12805"/><tag k="coa:place_id" v="3269201"/></node><node id="-35" lat="30.346593" lon="-97.433572" changeset="false"><tag k="addr:street" v="Basket Flower Cove"/><tag k="addr:housenumber" v="12825"/><tag k="coa:place_id" v="3269206"/></node><node id="-36" lat="30.346286" lon="-97.432683" changeset="false"><tag k="addr:street" v="Grandifloras Cove"/><tag k="addr:housenumber" v="12808"/><tag k="coa:place_id" v="3269215"/></node><node id="-37" lat="30.346134" lon="-97.432542" changeset="false"><tag k="addr:street" v="Grandifloras Cove"/><tag k="addr:housenumber" v="12804"/><tag k="coa:place_id" v="3269214"/></node><node id="-38" lat="30.346511" lon="-97.502982" changeset="false"><tag k="addr:street" v="Old Kimbro Road"/><tag k="addr:housenumber" v="12815"/><tag k="coa:place_id" v="3364527"/></node><node id="-39" lat="30.333836" lon="-97.509343" changeset="false"><tag k="addr:street" v="Littig Road"/><tag k="addr:housenumber" v="14206"/><tag k="coa:place_id" v="3282943"/></node><node id="-40" lat="30.335666" lon="-97.43678" changeset="false"><tag k="addr:street" v="Albert Voelker Road"/><tag k="addr:housenumber" v="18116"/><tag k="coa:place_id" v="3364329"/></node><node id="-41" lat="30.320363" lon="-97.448849" changeset="false"><tag k="addr:street" v="Littig Road"/><tag k="addr:housenumber" v="18004"/><tag k="coa:place_id" v="3198647"/></node><node id="-42" lat="30.326989" lon="-97.47104" changeset="false"><tag k="addr:street" v="Ballerstedt Road"/><tag k="addr:housenumber" v="12147"/><tag k="coa:place_id" v="3345512"/></node><node id="-43" lat="30.331066" lon="-97.47193" changeset="false"><tag k="addr:street" v="Ballerstedt Road"/><tag k="addr:housenumber" v="12225"/><tag k="coa:place_id" v="3345514"/></node><node id="-44" lat="30.351651" lon="-97.418108" changeset="false"><tag k="addr:street" v="Highway 290"/><tag k="addr:housenumber" v="18517"/><tag k="coa:place_id" v="5253302"/></node><node id="-45" lat="30.349151" lon="-97.472813" changeset="false"><tag k="addr:street" v="Voelker Lane"/><tag k="addr:housenumber" v="15629"/><tag k="coa:place_id" v="5052509"/></node><node id="-46" lat="30.351688" lon="-97.415022" changeset="false"><tag k="addr:street" v="Highway 290"/><tag k="addr:housenumber" v="18709"/><tag k="coa:place_id" v="1127828"/></node><node id="-47" lat="30.337062" lon="-97.421154" changeset="false"><tag k="addr:street" v="County Line Road"/><tag k="addr:housenumber" v="12363"/><tag k="coa:place_id" v="1128524"/></node><node id="-48" lat="30.320888" lon="-97.450535" changeset="false"><tag k="addr:street" v="Littig Road"/><tag k="addr:housenumber" v="17906"/><tag k="coa:place_id" v="1128367"/></node><node id="-49" lat="30.320087" lon="-97.449898" changeset="false"><tag k="addr:street" v="Littig Road"/><tag k="addr:housenumber" v="17914"/><tag k="coa:place_id" v="1128389"/></node><node id="-50" lat="30.350062" lon="-97.431933" changeset="false"><tag k="addr:street" v="Jelly Palm Trail"/><tag k="addr:housenumber" v="13033"/><tag k="coa:place_id" v="3152864"/></node><node id="-51" lat="30.34952" lon="-97.432392" changeset="false"><tag k="addr:street" v="Jelly Palm Trail"/><tag k="addr:housenumber" v="13016"/><tag k="coa:place_id" v="3152852"/></node><node id="-52" lat="30.334567" lon="-97.447045" changeset="false"><tag k="addr:street" v="Morrow Lane"/><tag k="addr:housenumber" v="12340"/><tag k="coa:place_id" v="1130424"/></node><node id="-53" lat="30.351065" lon="-97.428112" changeset="false"><tag k="addr:street" v="Basket Flower Bend"/><tag k="addr:housenumber" v="18413"/><tag k="coa:place_id" v="3152951"/></node><node id="-54" lat="30.350765" lon="-97.470476" changeset="false"><tag k="addr:street" v="Highway 290"/><tag k="addr:housenumber" v="15711"/><tag k="coa:place_id" v="1128586"/></node><node id="-55" lat="30.345563" lon="-97.461946" changeset="false"><tag k="addr:street" v="Ballerstedt Road"/><tag k="addr:housenumber" v="12831"/><tag k="coa:place_id" v="1129094"/></node><node id="-56" lat="30.344958" lon="-97.434718" changeset="false"><tag k="addr:street" v="Basket Flower Bend"/><tag k="addr:housenumber" v="17825"/><tag k="coa:place_id" v="3109550"/></node><node id="-57" lat="30.350715" lon="-97.468251" changeset="false"><tag k="addr:street" v="Highway 290"/><tag k="addr:housenumber" v="15819"/><tag k="coa:place_id" v="1128728"/></node><node id="-58" lat="30.346046" lon="-97.431428" changeset="false"><tag k="addr:street" v="Basket Flower Bend"/><tag k="addr:housenumber" v="18041"/><tag k="coa:place_id" v="3269194"/></node><node id="-59" lat="30.34142" lon="-97.464835" changeset="false"><tag k="addr:street" v="Ballerstedt Road"/><tag k="addr:housenumber" v="12533"/><tag k="coa:place_id" v="3195763"/></node><node id="-60" lat="30.342694" lon="-97.456481" changeset="false"><tag k="addr:street" v="Albert Voelker Road"/><tag k="addr:housenumber" v="16871"/><tag k="coa:place_id" v="3212959"/></node><node id="-61" lat="30.320748" lon="-97.448955" changeset="false"><tag k="addr:street" v="Morrow Street"/><tag k="addr:housenumber" v="18003"/><tag k="coa:place_id" v="3198644"/></node><node id="-62" lat="30.320354" lon="-97.449178" changeset="false"><tag k="addr:street" v="Littig Road"/><tag k="addr:housenumber" v="18000"/><tag k="coa:place_id" v="3198645"/></node><node id="-63" lat="30.333119" lon="-97.433707" changeset="false"><tag k="addr:street" v="Albert Voelker Road"/><tag k="addr:housenumber" v="18400"/><tag k="coa:place_id" v="1128837"/></node><node id="-64" lat="30.349737" lon="-97.428718" changeset="false"><tag k="addr:street" v="Basket Flower Bend"/><tag k="addr:housenumber" v="18342"/><tag k="coa:place_id" v="3346347"/></node><node id="-65" lat="30.34818" lon="-97.451507" changeset="false"><tag k="addr:street" v="Albert Voelker Road"/><tag k="addr:housenumber" v="16732"/><tag k="coa:place_id" v="3368064"/></node><node id="-66" lat="30.31984" lon="-97.443365" changeset="false"><tag k="addr:street" v="Morrow Lane"/><tag k="addr:housenumber" v="11817"/><tag k="coa:place_id" v="5091271"/></node><node id="-67" lat="30.322933" lon="-97.456858" changeset="false"><tag k="addr:street" v="Littig Road"/><tag k="addr:housenumber" v="17500"/><tag k="coa:place_id" v="1140180"/></node><node id="-68" lat="30.350918" lon="-97.476215" changeset="false"><tag k="addr:street" v="Highway 290"/><tag k="addr:housenumber" v="15421"/><tag k="coa:place_id" v="1127911"/></node><node id="-69" lat="30.335996" lon="-97.470395" changeset="false"><tag k="addr:street" v="Ballerstedt Road"/><tag k="addr:housenumber" v="12326"/><tag k="coa:place_id" v="3155649"/></node><node id="-70" lat="30.342676" lon="-97.504955" changeset="false"><tag k="addr:street" v="Old Kimbro Road"/><tag k="addr:housenumber" v="12555"/><tag k="coa:place_id" v="1128704"/></node><node id="-71" lat="30.333096" lon="-97.438535" changeset="false"><tag k="addr:street" v="Albert Voelker Road"/><tag k="addr:housenumber" v="18101"/><tag k="coa:place_id" v="1128028"/></node><node id="-72" lat="30.32657" lon="-97.470671" changeset="false"><tag k="addr:street" v="Ballerstedt Road"/><tag k="addr:housenumber" v="12047"/><tag k="coa:place_id" v="1128785"/></node><node id="-73" lat="30.348795" lon="-97.469975" changeset="false"><tag k="addr:street" v="Voelker Lane"/><tag k="addr:housenumber" v="15812"/><tag k="coa:place_id" v="1129825"/></node><node id="-74" lat="30.350698" lon="-97.469823" changeset="false"><tag k="addr:street" v="Highway 290"/><tag k="addr:housenumber" v="15721"/><tag k="coa:place_id" v="1128587"/></node><node id="-75" lat="30.336067" lon="-97.44269" changeset="false"><tag k="addr:street" v="Albert Voelker Road"/><tag k="addr:housenumber" v="17801"/><tag k="coa:place_id" v="1128027"/></node><node id="-76" lat="30.33293" lon="-97.425099" changeset="false"><tag k="addr:street" v="County Line Road"/><tag k="addr:housenumber" v="12238"/><tag k="coa:place_id" v="1129846"/></node><node id="-77" lat="30.346132" lon="-97.433698" changeset="false"><tag k="addr:street" v="Basket Flower Cove"/><tag k="addr:housenumber" v="12816"/><tag k="coa:place_id" v="3269210"/></node><node id="-78" lat="30.350242" lon="-97.48286" changeset="false"><tag k="addr:street" v="Highway 290"/><tag k="addr:housenumber" v="15021"/><tag k="coa:place_id" v="3221056"/></node><node id="-79" lat="30.345712" lon="-97.432125" changeset="false"><tag k="addr:street" v="Basket Flower Bend"/><tag k="addr:housenumber" v="18021"/><tag k="coa:place_id" v="3269189"/></node><node id="-80" lat="30.340219" lon="-97.465628" changeset="false"><tag k="addr:street" v="Ballerstedt Road"/><tag k="addr:housenumber" v="12509"/><tag k="coa:place_id" v="3195746"/></node><node id="-81" lat="30.333516" lon="-97.439673" changeset="false"><tag k="addr:street" v="Albert Voelker Road"/><tag k="addr:housenumber" v="18005"/><tag k="coa:place_id" v="3364327"/></node><node id="-82" lat="30.341713" lon="-97.462981" changeset="false"><tag k="addr:street" v="Ballerstedt Road"/><tag k="addr:housenumber" v="12605"/><tag k="coa:place_id" v="3195767"/></node><node id="-83" lat="30.348049" lon="-97.428556" changeset="false"><tag k="addr:street" v="Basket Flower Bend"/><tag k="addr:housenumber" v="18221"/><tag k="coa:place_id" v="3346300"/></node><node id="-84" lat="30.348927" lon="-97.428891" changeset="false"><tag k="addr:street" v="Basket Flower Bend"/><tag k="addr:housenumber" v="18306"/><tag k="coa:place_id" v="3346341"/></node><node id="-85" lat="30.326269" lon="-97.486034" changeset="false"><tag k="addr:street" v="Littig Road"/><tag k="addr:housenumber" v="15718"/><tag k="coa:place_id" v="1139073"/></node><node id="-86" lat="30.325986" lon="-97.485188" changeset="false"><tag k="addr:street" v="Littig Road"/><tag k="addr:housenumber" v="15812"/><tag k="coa:place_id" v="1139074"/></node><node id="-87" lat="30.343028" lon="-97.504064" changeset="false"><tag k="addr:street" v="Old Kimbro Road"/><tag k="addr:housenumber" v="12601"/><tag k="coa:place_id" v="1138188"/></node><node id="-88" lat="30.350324" lon="-97.464667" changeset="false"><tag k="addr:street" v="Highway 290"/><tag k="addr:housenumber" v="16023"/><tag k="coa:place_id" v="1128617"/></node><node id="-89" lat="30.338282" lon="-97.46919" changeset="false"><tag k="addr:street" v="Ballerstedt Road"/><tag k="addr:housenumber" v="12400"/><tag k="coa:place_id" v="1129091"/></node><node id="-90" lat="30.350758" lon="-97.471139" changeset="false"><tag k="addr:street" v="Highway 290"/><tag k="addr:housenumber" v="15701"/><tag k="coa:place_id" v="1127832"/></node><node id="-91" lat="30.350624" lon="-97.46908" changeset="false"><tag k="addr:street" v="Highway 290"/><tag k="addr:housenumber" v="15805"/><tag k="coa:place_id" v="1128616"/></node><node id="-92" lat="30.350928" lon="-97.428117" changeset="false"><tag k="addr:street" v="Basket Flower Bend"/><tag k="addr:housenumber" v="18409"/><tag k="coa:place_id" v="3152950"/></node><node id="-93" lat="30.327536" lon="-97.472772" changeset="false"><tag k="addr:street" v="Ballerstedt Road"/><tag k="addr:housenumber" v="12114"/><tag k="coa:place_id" v="1129090"/></node><node id="-94" lat="30.322996" lon="-97.459809" changeset="false"><tag k="addr:street" v="Littig Road"/><tag k="addr:housenumber" v="17304"/><tag k="coa:place_id" v="1140033"/></node><node id="-95" lat="30.319997" lon="-97.45141" changeset="false"><tag k="addr:street" v="Littig Road"/><tag k="addr:housenumber" v="17824"/><tag k="coa:place_id" v="1128368"/></node><node id="-96" lat="30.319806" lon="-97.437312" changeset="false"><tag k="addr:street" v="Littig Road"/><tag k="addr:housenumber" v="18706"/><tag k="coa:place_id" v="1140229"/></node><node id="-97" lat="30.3492" lon="-97.495244" changeset="false"><tag k="addr:street" v="Highway 290"/><tag k="addr:housenumber" v="14411"/><tag k="coa:place_id" v="1127918"/></node><node id="-98" lat="30.344217" lon="-97.464752" changeset="false"><tag k="addr:street" v="Ballerstedt Road"/><tag k="addr:housenumber" v="12700"/><tag k="coa:place_id" v="1128765"/></node><node id="-99" lat="30.337245" lon="-97.507883" changeset="false"><tag k="addr:street" v="Old Kimbro Road"/><tag k="addr:housenumber" v="12341"/><tag k="coa:place_id" v="1128347"/></node><node id="-100" lat="30.332936" lon="-97.433017" changeset="false"><tag k="addr:street" v="Albert Voelker Road"/><tag k="addr:housenumber" v="18406"/><tag k="coa:place_id" v="1128838"/></node><node id="-101" lat="30.331067" lon="-97.425659" changeset="false"><tag k="addr:street" v="County Line Road"/><tag k="addr:housenumber" v="12210"/><tag k="coa:place_id" v="1129852"/></node><node id="-102" lat="30.324881" lon="-97.465599" changeset="false"><tag k="addr:street" v="Littig Road"/><tag k="addr:housenumber" v="16910"/><tag k="coa:place_id" v="1140029"/></node><node id="-103" lat="30.347116" lon="-97.502378" changeset="false"><tag k="addr:street" v="Old Kimbro Road"/><tag k="addr:housenumber" v="12905"/><tag k="coa:place_id" v="1138208"/></node><node id="-104" lat="30.336452" lon="-97.443298" changeset="false"><tag k="addr:street" v="Albert Voelker Road"/><tag k="addr:housenumber" v="17715"/><tag k="coa:place_id" v="1127942"/></node><node id="-105" lat="30.320084" lon="-97.45062" changeset="false"><tag k="addr:street" v="Littig Road"/><tag k="addr:housenumber" v="17904"/><tag k="coa:place_id" v="1128369"/></node><node id="-106" lat="30.340875" lon="-97.463446" changeset="false"><tag k="addr:street" v="Ballerstedt Road"/><tag k="addr:housenumber" v="12537"/><tag k="coa:place_id" v="3195764"/></node><node id="-107" lat="30.341892" lon="-97.464587" changeset="false"><tag k="addr:street" v="Ballerstedt Road"/><tag k="addr:housenumber" v="12541"/><tag k="coa:place_id" v="3195765"/></node><node id="-108" lat="30.343615" lon="-97.463627" changeset="false"><tag k="addr:street" v="Ballerstedt Road"/><tag k="addr:housenumber" v="12709"/><tag k="coa:place_id" v="3195768"/></node><node id="-109" lat="30.331308" lon="-97.433622" changeset="false"><tag k="addr:street" v="Albert Voelker Road"/><tag k="addr:housenumber" v="18501"/><tag k="coa:place_id" v="3267194"/></node><node id="-110" lat="30.345126" lon="-97.433293" changeset="false"><tag k="addr:street" v="Basket Flower Bend"/><tag k="addr:housenumber" v="17921"/><tag k="coa:place_id" v="3269178"/></node><node id="-111" lat="30.345201" lon="-97.433105" changeset="false"><tag k="addr:street" v="Basket Flower Bend"/><tag k="addr:housenumber" v="17925"/><tag k="coa:place_id" v="3269179"/></node><node id="-112" lat="30.34552" lon="-97.433499" changeset="false"><tag k="addr:street" v="Basket Flower Bend"/><tag k="addr:housenumber" v="17920"/><tag k="coa:place_id" v="3269182"/></node><node id="-113" lat="30.320727" lon="-97.447951" changeset="false"><tag k="addr:street" v="Morrow Street"/><tag k="addr:housenumber" v="18017"/><tag k="coa:place_id" v="3198636"/></node><node id="-114" lat="30.320728" lon="-97.44779" changeset="false"><tag k="addr:street" v="Morrow Street"/><tag k="addr:housenumber" v="18019"/><tag k="coa:place_id" v="3198637"/></node><node id="-115" lat="30.320348" lon="-97.448528" changeset="false"><tag k="addr:street" v="Wesley Street"/><tag k="addr:housenumber" v="11800"/><tag k="coa:place_id" v="3198642"/></node><node id="-116" lat="30.320361" lon="-97.449006" changeset="false"><tag k="addr:street" v="Littig Road"/><tag k="addr:housenumber" v="18002"/><tag k="coa:place_id" v="3198646"/></node><node id="-117" lat="30.332183" lon="-97.471144" changeset="false"><tag k="addr:street" v="Ballerstedt Road"/><tag k="addr:housenumber" v="12321"/><tag k="coa:place_id" v="3345515"/></node><node id="-118" lat="30.343289" lon="-97.463793" changeset="false"><tag k="addr:street" v="Ballerstedt Road"/><tag k="addr:housenumber" v="12629"/><tag k="coa:place_id" v="3528536"/></node><node id="-119" lat="30.319615" lon="-97.443577" changeset="false"><tag k="addr:street" v="Morrow Lane"/><tag k="addr:housenumber" v="11813"/><tag k="coa:place_id" v="5109373"/></node><node id="-120" lat="30.320605" lon="-97.44337" changeset="false"><tag k="addr:street" v="Morrow Lane"/><tag k="addr:housenumber" v="11828"/><tag k="coa:place_id" v="3427593"/></node><node id="-121" lat="30.349436" lon="-97.499334" changeset="false"><tag k="addr:street" v="Highway 290"/><tag k="addr:housenumber" v="14103"/><tag k="coa:place_id" v="1127910"/></node><node id="-122" lat="30.331484" lon="-97.421656" changeset="false"><tag k="addr:street" v="Monkey Road"/><tag k="addr:housenumber" v="644"/><tag k="coa:place_id" v="1130404"/></node><node id="-123" lat="30.322471" lon="-97.457752" changeset="false"><tag k="addr:street" v="Littig Road"/><tag k="addr:housenumber" v="17412"/><tag k="coa:place_id" v="3101363"/></node><node id="-124" lat="30.347497" lon="-97.429525" changeset="false"><tag k="addr:street" v="Basket Flower Bend"/><tag k="addr:housenumber" v="18148"/><tag k="coa:place_id" v="3346280"/></node><node id="-125" lat="30.320445" lon="-97.442518" changeset="false"><tag k="addr:street" v="Morrow Lane"/><tag k="addr:housenumber" v="11833"/><tag k="coa:place_id" v="5119145"/></node><node id="-126" lat="30.32072" lon="-97.446421" changeset="false"><tag k="addr:street" v="Morrow Street"/><tag k="addr:housenumber" v="18037"/><tag k="coa:place_id" v="5105372"/></node><node id="-127" lat="30.349173" lon="-97.428822" changeset="false"><tag k="addr:street" v="Basket Flower Bend"/><tag k="addr:housenumber" v="18318"/><tag k="coa:place_id" v="3346343"/></node><node id="-128" lat="30.349476" lon="-97.428755" changeset="false"><tag k="addr:street" v="Basket Flower Bend"/><tag k="addr:housenumber" v="18330"/><tag k="coa:place_id" v="3346345"/></node><node id="-129" lat="30.350022" lon="-97.498317" changeset="false"><tag k="addr:street" v="Highway 290"/><tag k="addr:housenumber" v="14231"/><tag k="coa:place_id" v="3354384"/></node><node id="-130" lat="30.350024" lon="-97.428722" changeset="false"><tag k="addr:street" v="Basket Flower Bend"/><tag k="addr:housenumber" v="18354"/><tag k="coa:place_id" v="3346349"/></node><node id="-131" lat="30.345083" lon="-97.433459" changeset="false"><tag k="addr:street" v="Basket Flower Bend"/><tag k="addr:housenumber" v="17917"/><tag k="coa:place_id" v="3269177"/></node><node id="-132" lat="30.340657" lon="-97.46545" changeset="false"><tag k="addr:street" v="Ballerstedt Road"/><tag k="addr:housenumber" v="12517"/><tag k="coa:place_id" v="3195747"/></node><node id="-133" lat="30.351026" lon="-97.473738" changeset="false"><tag k="addr:street" v="Highway 290"/><tag k="addr:housenumber" v="15533"/><tag k="coa:place_id" v="5085944"/></node><node id="-134" lat="30.321026" lon="-97.442105" changeset="false"><tag k="addr:street" v="Morrow Lane"/><tag k="addr:housenumber" v="11841"/><tag k="coa:place_id" v="5119146"/></node><node id="-135" lat="30.3228" lon="-97.441548" changeset="false"><tag k="addr:street" v="Morrow Lane"/><tag k="addr:housenumber" v="11919"/><tag k="coa:place_id" v="5119150"/></node><node id="-136" lat="30.347543" lon="-97.430574" changeset="false"><tag k="addr:street" v="Wooley Bucket Cove"/><tag k="addr:housenumber" v="12813"/><tag k="coa:place_id" v="3346292"/></node><node id="-137" lat="30.320714" lon="-97.447625" changeset="false"><tag k="addr:street" v="Morrow Street"/><tag k="addr:housenumber" v="18021"/><tag k="coa:place_id" v="3198638"/></node><node id="-138" lat="30.320328" lon="-97.447798" changeset="false"><tag k="addr:street" v="Littig Road"/><tag k="addr:housenumber" v="18018"/><tag k="coa:place_id" v="3198640"/></node><node id="-139" lat="30.320367" lon="-97.448682" changeset="false"><tag k="addr:street" v="Littig Road"/><tag k="addr:housenumber" v="18006"/><tag k="coa:place_id" v="3198648"/></node><node id="-140" lat="30.349229" lon="-97.472984" changeset="false"><tag k="addr:street" v="Voelker Lane"/><tag k="addr:housenumber" v="15625"/><tag k="coa:place_id" v="5002682"/></node><node id="-141" lat="30.350154" lon="-97.428738" changeset="false"><tag k="addr:street" v="Basket Flower Bend"/><tag k="addr:housenumber" v="18360"/><tag k="coa:place_id" v="3346350"/></node><node id="-142" lat="30.349884" lon="-97.428722" changeset="false"><tag k="addr:street" v="Basket Flower Bend"/><tag k="addr:housenumber" v="18348"/><tag k="coa:place_id" v="3346348"/></node><node id="-143" lat="30.347164" lon="-97.419368" changeset="false"><tag k="addr:street" v="County Line Road"/><tag k="addr:housenumber" v="12700"/><tag k="coa:place_id" v="5097323"/></node><node id="-144" lat="30.351649" lon="-97.421105" changeset="false"><tag k="addr:street" v="Highway 290"/><tag k="addr:housenumber" v="18401"/><tag k="coa:place_id" v="5097324"/></node><node id="-145" lat="30.32083" lon="-97.443239" changeset="false"><tag k="addr:street" v="Morrow Lane"/><tag k="addr:housenumber" v="11832"/><tag k="coa:place_id" v="5055346"/></node><node id="-146" lat="30.345849" lon="-97.43185" changeset="false"><tag k="addr:street" v="Basket Flower Bend"/><tag k="addr:housenumber" v="18029"/><tag k="coa:place_id" v="3269191"/></node><node id="-147" lat="30.346602" lon="-97.432204" changeset="false"><tag k="addr:street" v="Grandifloras Cove"/><tag k="addr:housenumber" v="12809"/><tag k="coa:place_id" v="3269198"/></node><node id="-148" lat="30.320122" lon="-97.443938" changeset="false"><tag k="addr:street" v="Morrow Lane"/><tag k="addr:housenumber" v="11812"/><tag k="coa:place_id" v="3363859"/></node><node id="-149" lat="30.349076" lon="-97.472644" changeset="false"><tag k="addr:street" v="Voelker Lane"/><tag k="addr:housenumber" v="15633"/><tag k="coa:place_id" v="5052510"/></node><node id="-150" lat="30.335234" lon="-97.470615" changeset="false"><tag k="addr:street" v="Ballerstedt Road"/><tag k="addr:housenumber" v="12312"/><tag k="coa:place_id" v="3367100"/></node><node id="-151" lat="30.349051" lon="-97.428838" changeset="false"><tag k="addr:street" v="Basket Flower Bend"/><tag k="addr:housenumber" v="18312"/><tag k="coa:place_id" v="3346342"/></node><node id="-152" lat="30.350327" lon="-97.431977" changeset="false"><tag k="addr:street" v="Jelly Palm Trail"/><tag k="addr:housenumber" v="13041"/><tag k="coa:place_id" v="3222186"/></node><node id="-153" lat="30.320332" lon="-97.447958" changeset="false"><tag k="addr:street" v="Littig Road"/><tag k="addr:housenumber" v="18016"/><tag k="coa:place_id" v="3198639"/></node><node id="-154" lat="30.320307" lon="-97.448122" changeset="false"><tag k="addr:street" v="Littig Road"/><tag k="addr:housenumber" v="18014"/><tag k="coa:place_id" v="3198641"/></node><node id="-155" lat="30.325904" lon="-97.444392" changeset="false"><tag k="addr:street" v="Morrow Lane"/><tag k="addr:housenumber" v="12016"/><tag k="coa:place_id" v="1130425"/></node><node id="-156" lat="30.351327" lon="-97.428084" changeset="false"><tag k="addr:street" v="Basket Flower Bend"/><tag k="addr:housenumber" v="18421"/><tag k="coa:place_id" v="3152953"/></node><node id="-157" lat="30.351449" lon="-97.427338" changeset="false"><tag k="addr:street" v="Highway 290"/><tag k="addr:housenumber" v="18015"/><tag k="coa:place_id" v="3044267"/></node><node id="-158" lat="30.350793" lon="-97.428127" changeset="false"><tag k="addr:street" v="Basket Flower Bend"/><tag k="addr:housenumber" v="18405"/><tag k="coa:place_id" v="3152949"/></node><node id="-159" lat="30.350784" lon="-97.427846" changeset="false"><tag k="addr:street" v="Basket Flower Bend"/><tag k="addr:housenumber" v="18401"/><tag k="coa:place_id" v="3152948"/></node><node id="-160" lat="30.350551" lon="-97.435107" changeset="false"><tag k="addr:street" v="Milkweed Cove"/><tag k="addr:housenumber" v="17616"/><tag k="coa:place_id" v="3109343"/></node><node id="-161" lat="30.335163" lon="-97.433721" changeset="false"><tag k="addr:street" v="Albert Voelker Road"/><tag k="addr:housenumber" v="18308"/><tag k="coa:place_id" v="1128029"/></node><node id="-162" lat="30.337301" lon="-97.445222" changeset="false"><tag k="addr:street" v="Albert Voelker Road"/><tag k="addr:housenumber" v="17607"/><tag k="coa:place_id" v="1128004"/></node><node id="-163" lat="30.325829" lon="-97.480009" changeset="false"><tag k="addr:street" v="Littig Road"/><tag k="addr:housenumber" v="16012"/><tag k="coa:place_id" v="1139077"/></node><node id="-164" lat="30.335689" lon="-97.509174" changeset="false"><tag k="addr:street" v="Old Kimbro Road"/><tag k="addr:housenumber" v="12311"/><tag k="coa:place_id" v="1128370"/></node><node id="-165" lat="30.344954" lon="-97.434545" changeset="false"><tag k="addr:street" v="Basket Flower Bend"/><tag k="addr:housenumber" v="17829"/><tag k="coa:place_id" v="3109551"/></node><node id="-166" lat="30.323277" lon="-97.45639" changeset="false"><tag k="addr:street" v="Littig Road"/><tag k="addr:housenumber" v="17506"/><tag k="coa:place_id" v="1140178"/></node><node id="-167" lat="30.327965" lon="-97.490328" changeset="false"><tag k="addr:street" v="Littig Road"/><tag k="addr:housenumber" v="15416"/><tag k="coa:place_id" v="1139069"/></node><node id="-168" lat="30.350946" lon="-97.474912" changeset="false"><tag k="addr:street" v="Highway 290"/><tag k="addr:housenumber" v="15501"/><tag k="coa:place_id" v="1128790"/></node><node id="-169" lat="30.3507" lon="-97.471997" changeset="false"><tag k="addr:street" v="Highway 290"/><tag k="addr:housenumber" v="15619"/><tag k="coa:place_id" v="1127834"/></node><node id="-170" lat="30.345136" lon="-97.46548" changeset="false"><tag k="addr:street" v="Voelker Lane"/><tag k="addr:housenumber" v="16201"/><tag k="coa:place_id" v="1128840"/></node><node id="-171" lat="30.324193" lon="-97.430389" changeset="false"><tag k="addr:street" v="County Line Road"/><tag k="addr:housenumber" v="12010"/><tag k="coa:place_id" v="1129856"/></node><node id="-172" lat="30.324909" lon="-97.479719" changeset="false"><tag k="addr:street" v="Littig Road"/><tag k="addr:housenumber" v="16104"/><tag k="coa:place_id" v="1139076"/></node><node id="-173" lat="30.350599" lon="-97.428118" changeset="false"><tag k="addr:street" v="Basket Flower Bend"/><tag k="addr:housenumber" v="18377"/><tag k="coa:place_id" v="3152947"/></node><node id="-174" lat="30.32836" lon="-97.491026" changeset="false"><tag k="addr:street" v="Littig Road"/><tag k="addr:housenumber" v="15410"/><tag k="coa:place_id" v="1139068"/></node><node id="-175" lat="30.339036" lon="-97.507023" changeset="false"><tag k="addr:street" v="Old Kimbro Road"/><tag k="addr:housenumber" v="12429"/><tag k="coa:place_id" v="1138199"/></node><node id="-176" lat="30.338051" lon="-97.507254" changeset="false"><tag k="addr:street" v="Old Kimbro Road"/><tag k="addr:housenumber" v="12409"/><tag k="coa:place_id" v="1138202"/></node><node id="-177" lat="30.350798" lon="-97.451328" changeset="false"><tag k="addr:street" v="Highway 290"/><tag k="addr:housenumber" v="16711"/><tag k="coa:place_id" v="1127873"/></node><node id="-178" lat="30.332227" lon="-97.448892" changeset="false"><tag k="addr:street" v="Morrow Lane"/><tag k="addr:housenumber" v="12300"/><tag k="coa:place_id" v="1130432"/></node><node id="-179" lat="30.323032" lon="-97.457125" changeset="false"><tag k="addr:street" v="Littig Road"/><tag k="addr:housenumber" v="17420"/><tag k="coa:place_id" v="1140179"/></node><node id="-180" lat="30.335214" lon="-97.441461" changeset="false"><tag k="addr:street" v="Albert Voelker Road"/><tag k="addr:housenumber" v="17815"/><tag k="coa:place_id" v="1127941"/></node><node id="-181" lat="30.333768" lon="-97.446257" changeset="false"><tag k="addr:street" v="Morrow Lane"/><tag k="addr:housenumber" v="12331"/><tag k="coa:place_id" v="1130431"/></node><node id="-182" lat="30.326184" lon="-97.47171" changeset="false"><tag k="addr:street" v="Ballerstedt Road"/><tag k="addr:housenumber" v="12044"/><tag k="coa:place_id" v="1128786"/></node><node id="-183" lat="30.350417" lon="-97.465364" changeset="false"><tag k="addr:street" v="Highway 290"/><tag k="addr:housenumber" v="16011"/><tag k="coa:place_id" v="1128722"/></node><node id="-184" lat="30.350544" lon="-97.492042" changeset="false"><tag k="addr:street" v="Highway 290"/><tag k="addr:housenumber" v="14601"/><tag k="coa:place_id" v="1127917"/></node><node id="-185" lat="30.35089" lon="-97.453209" changeset="false"><tag k="addr:street" v="Highway 290"/><tag k="addr:housenumber" v="16615"/><tag k="coa:place_id" v="1127871"/></node><node id="-186" lat="30.348373" lon="-97.452451" changeset="false"><tag k="addr:street" v="Albert Voelker Road"/><tag k="addr:housenumber" v="16735"/><tag k="coa:place_id" v="1128834"/></node><node id="-187" lat="30.350933" lon="-97.461261" changeset="false"><tag k="addr:street" v="Highway 290"/><tag k="addr:housenumber" v="16211"/><tag k="coa:place_id" v="1128736"/></node><node id="-188" lat="30.340408" lon="-97.448691" changeset="false"><tag k="addr:street" v="Albert Voelker Road"/><tag k="addr:housenumber" v="17308"/><tag k="coa:place_id" v="1128006"/></node><node id="-189" lat="30.331655" lon="-97.43469" changeset="false"><tag k="addr:street" v="Albert Voelker Road"/><tag k="addr:housenumber" v="18405"/><tag k="coa:place_id" v="3267192"/></node><node id="-190" lat="30.345612" lon="-97.433278" changeset="false"><tag k="addr:street" v="Basket Flower Bend"/><tag k="addr:housenumber" v="17924"/><tag k="coa:place_id" v="3269183"/></node><node id="-191" lat="30.344965" lon="-97.434315" changeset="false"><tag k="addr:street" v="Basket Flower Bend"/><tag k="addr:housenumber" v="17833"/><tag k="coa:place_id" v="3269134"/></node><node id="-192" lat="30.333124" lon="-97.448429" changeset="false"><tag k="addr:street" v="Morrow Lane"/><tag k="addr:housenumber" v="12312"/><tag k="coa:place_id" v="1130434"/></node><node id="-193" lat="30.351619" lon="-97.413063" changeset="false"><tag k="addr:street" v="Highway 290"/><tag k="addr:housenumber" v="18811"/><tag k="coa:place_id" v="1127831"/></node><node id="-194" lat="30.340027" lon="-97.463995" changeset="false"><tag k="addr:street" v="Ballerstedt Road"/><tag k="addr:housenumber" v="12525"/><tag k="coa:place_id" v="3195761"/></node><node id="-195" lat="30.342244" lon="-97.464315" changeset="false"><tag k="addr:street" v="Ballerstedt Road"/><tag k="addr:housenumber" v="12601"/><tag k="coa:place_id" v="3195766"/></node><node id="-196" lat="30.342896" lon="-97.464061" changeset="false"><tag k="addr:street" v="Ballerstedt Road"/><tag k="addr:housenumber" v="12621"/><tag k="coa:place_id" v="3195769"/></node><node id="-197" lat="30.343693" lon="-97.456313" changeset="false"><tag k="addr:street" v="Albert Voelker Road"/><tag k="addr:housenumber" v="16863"/><tag k="coa:place_id" v="1129162"/></node></osm>