<?xml version="1.0" encoding="UTF-8"?><osm version="0.6" generator="github.com/aaronlidman/osm-and-geojson"><node id="-1" lat="30.134667" lon="-97.824458" changeset="false"><tag k="addr:street" v="Hickory Ridge Road"/><tag k="addr:housenumber" v="603"/></node><node id="-2" lat="30.13416" lon="-97.822969" changeset="false"><tag k="addr:street" v="Twin Creek Cove"/><tag k="addr:housenumber" v="406"/></node><node id="-3" lat="30.153219" lon="-97.824684" changeset="false"><tag k="addr:street" v="Chappell Lane"/><tag k="addr:housenumber" v="1215"/></node><node id="-4" lat="30.145182" lon="-97.812401" changeset="false"><tag k="addr:street" v="Jockey Bluff Drive"/><tag k="addr:housenumber" v="11313"/></node><node id="-5" lat="30.145311" lon="-97.794647" changeset="false"><tag k="addr:street" v="Interstate 35 Frontage Road"/><tag k="addr:housenumber" v="10732"/></node><node id="-6" lat="30.132537" lon="-97.827593" changeset="false"><tag k="addr:street" v="Mistletoe Trail"/><tag k="addr:housenumber" v="12519"/></node><node id="-7" lat="30.1402" lon="-97.803705" changeset="false"><tag k="addr:street" v="Old San Antonio Road"/><tag k="addr:housenumber" v="11400"/></node><node id="-8" lat="30.133439" lon="-97.826614" changeset="false"><tag k="addr:street" v="Twin Creeks Road"/><tag k="addr:housenumber" v="12409"/></node><node id="-9" lat="30.147076" lon="-97.812577" changeset="false"><tag k="addr:street" v="Venetian Cove"/><tag k="addr:housenumber" v="304"/></node><node id="-10" lat="30.133088" lon="-97.828686" changeset="false"><tag k="addr:street" v="Mistletoe Trail"/><tag k="addr:housenumber" v="12514"/></node><node id="-11" lat="30.149432" lon="-97.80659" changeset="false"><tag k="addr:street" v="Mint Julep Drive"/><tag k="addr:housenumber" v="10809"/></node><node id="-12" lat="30.150468" lon="-97.79848" changeset="false"><tag k="addr:street" v="Old San Antonio Road"/><tag k="addr:housenumber" v="10414"/></node><node id="-13" lat="30.14579" lon="-97.810807" changeset="false"><tag k="addr:street" v="Jockey Bluff Drive"/><tag k="addr:housenumber" v="11204"/></node><node id="-14" lat="30.14569" lon="-97.812382" changeset="false"><tag k="addr:street" v="Racetrack Drive"/><tag k="addr:housenumber" v="421"/></node><node id="-15" lat="30.146645" lon="-97.810597" changeset="false"><tag k="addr:street" v="Real Quiet Cove"/><tag k="addr:housenumber" v="204"/></node><node id="-16" lat="30.141862" lon="-97.803619" changeset="false"><tag k="addr:street" v="Old San Antonio Road"/><tag k="addr:housenumber" v="11214"/></node><node id="-17" lat="30.133628" lon="-97.821614" changeset="false"><tag k="addr:street" v="Twin Creek Park Drive"/><tag k="addr:housenumber" v="12301"/></node><node id="-18" lat="30.137553" lon="-97.819758" changeset="false"><tag k="addr:street" v="Leanna Woods Cove"/><tag k="addr:housenumber" v="505"/></node><node id="-19" lat="30.132764" lon="-97.82259" changeset="false"><tag k="addr:street" v="Twin Creek Park Drive"/><tag k="addr:housenumber" v="12308"/></node><node id="-20" lat="30.148258" lon="-97.807701" changeset="false"><tag k="addr:street" v="Mint Julep Drive"/><tag k="addr:housenumber" v="10937"/></node><node id="-21" lat="30.127012" lon="-97.828149" changeset="false"><tag k="addr:street" v="Arroyo Vista Drive"/><tag k="addr:housenumber" v="507"/></node><node id="-22" lat="30.131775" lon="-97.825118" changeset="false"><tag k="addr:street" v="Twin Creeks Road"/><tag k="addr:housenumber" v="12505"/></node><node id="-23" lat="30.147127" lon="-97.808822" changeset="false"><tag k="addr:street" v="Mint Julep Drive"/><tag k="addr:housenumber" v="11041"/></node><node id="-24" lat="30.146909" lon="-97.810933" changeset="false"><tag k="addr:street" v="Real Quiet Cove"/><tag k="addr:housenumber" v="216"/></node><node id="-25" lat="30.149969" lon="-97.807324" changeset="false"><tag k="addr:street" v="Colonel Winn Loop"/><tag k="addr:housenumber" v="10912"/></node><node id="-26" lat="30.130938" lon="-97.822667" changeset="false"><tag k="addr:street" v="Twin Creek Park Drive"/><tag k="addr:housenumber" v="12406"/></node><node id="-27" lat="30.131667" lon="-97.831422" changeset="false"><tag k="addr:street" v="Scissortail Drive"/><tag k="addr:housenumber" v="12608"/></node><node id="-28" lat="30.142386" lon="-97.805078" changeset="false"><tag k="addr:street" v="Conroy Lane"/><tag k="addr:housenumber" v="11213"/></node><node id="-29" lat="30.140382" lon="-97.825694" changeset="false"><tag k="addr:street" v="Farm-to-Market Road 1626"/><tag k="addr:housenumber" v="725"/></node><node id="-30" lat="30.144531" lon="-97.806579" changeset="false"><tag k="addr:street" v="Desert Willow Loop"/><tag k="addr:housenumber" v="11133"/></node><node id="-31" lat="30.150573" lon="-97.807837" changeset="false"><tag k="addr:street" v="Pedigree Drive"/><tag k="addr:housenumber" v="317"/></node><node id="-32" lat="30.128486" lon="-97.82505" changeset="false"><tag k="addr:street" v="Arroyo Vista Drive"/><tag k="addr:housenumber" v="402"/></node><node id="-33" lat="30.144862" lon="-97.812743" changeset="false"><tag k="addr:street" v="Racetrack Drive"/><tag k="addr:housenumber" v="444 1/2"/></node><node id="-34" lat="30.14576" lon="-97.820394" changeset="false"><tag k="addr:street" v="Hunting Creek Lane"/><tag k="addr:housenumber" v="11503"/></node><node id="-35" lat="30.144959" lon="-97.812944" changeset="false"><tag k="addr:street" v="San Leanna Drive"/><tag k="addr:housenumber" v="324"/></node><node id="-36" lat="30.135145" lon="-97.807805" changeset="false"><tag k="addr:street" v="Old San Antonio Road"/><tag k="addr:housenumber" v="11808"/></node><node id="-37" lat="30.150408" lon="-97.808371" changeset="false"><tag k="addr:street" v="Pedigree Drive"/><tag k="addr:housenumber" v="329"/></node><node id="-38" lat="30.150386" lon="-97.808562" changeset="false"><tag k="addr:street" v="Pedigree Drive"/><tag k="addr:housenumber" v="333"/></node><node id="-39" lat="30.147246" lon="-97.8058" changeset="false"><tag k="addr:street" v="Desert Willow Loop"/><tag k="addr:housenumber" v="10813"/></node><node id="-40" lat="30.136339" lon="-97.828069" changeset="false"><tag k="addr:street" v="Twin Creeks Road"/><tag k="addr:housenumber" v="12237"/></node><node id="-41" lat="30.143861" lon="-97.810694" changeset="false"><tag k="addr:street" v="Farm-to-Market Road 1626"/><tag k="addr:housenumber" v="301"/></node><node id="-42" lat="30.139968" lon="-97.828754" changeset="false"><tag k="addr:street" v="Twin Creeks Road"/><tag k="addr:housenumber" v="12106"/></node><node id="-43" lat="30.146351" lon="-97.804519" changeset="false"><tag k="addr:street" v="Desert Willow Loop"/><tag k="addr:housenumber" v="10616"/></node><node id="-44" lat="30.146481" lon="-97.804451" changeset="false"><tag k="addr:street" v="Desert Willow Loop"/><tag k="addr:housenumber" v="10620"/></node><node id="-45" lat="30.143448" lon="-97.807158" changeset="false"><tag k="addr:street" v="Farm-to-Market Road 1626"/><tag k="addr:housenumber" v="105"/></node><node id="-46" lat="30.14765" lon="-97.805687" changeset="false"><tag k="addr:street" v="Desert Willow Loop"/><tag k="addr:housenumber" v="10812"/></node><node id="-47" lat="30.147235" lon="-97.805642" changeset="false"><tag k="addr:street" v="Desert Willow Loop"/><tag k="addr:housenumber" v="10809"/></node><node id="-48" lat="30.144299" lon="-97.806145" changeset="false"><tag k="addr:street" v="Farm-to-Market Road 1626"/><tag k="addr:housenumber" v="100"/></node><node id="-49" lat="30.144657" lon="-97.820682" changeset="false"><tag k="addr:street" v="Sunset Drive"/><tag k="addr:housenumber" v="11606"/></node><node id="-50" lat="30.144008" lon="-97.821334" changeset="false"><tag k="addr:street" v="Sunset Drive"/><tag k="addr:housenumber" v="11613"/></node><node id="-51" lat="30.143602" lon="-97.820924" changeset="false"><tag k="addr:street" v="Chapel Lane"/><tag k="addr:housenumber" v="11701"/></node><node id="-52" lat="30.1449" lon="-97.823037" changeset="false"><tag k="addr:street" v="Chapel Lane"/><tag k="addr:housenumber" v="11606"/></node><node id="-53" lat="30.146315" lon="-97.823002" changeset="false"><tag k="addr:street" v="Chapel Lane"/><tag k="addr:housenumber" v="11502"/></node><node id="-54" lat="30.141456" lon="-97.800806" changeset="false"><tag k="addr:street" v="Farrah Lane"/><tag k="addr:housenumber" v="11300"/></node><node id="-55" lat="30.139367" lon="-97.823" changeset="false"><tag k="addr:street" v="Bethel Church Road"/><tag k="addr:housenumber" v="11911"/></node><node id="-56" lat="30.1476" lon="-97.815978" changeset="false"><tag k="addr:street" v="Redbud Trail"/><tag k="addr:housenumber" v="603"/></node><node id="-57" lat="30.139388" lon="-97.797675" changeset="false"><tag k="addr:street" v="Interstate 35 Frontage Road"/><tag k="addr:housenumber" v="11206"/></node><node id="-58" lat="30.151069" lon="-97.804944" changeset="false"><tag k="addr:street" v="Trophy Cove"/><tag k="addr:housenumber" v="10713"/></node><node id="-59" lat="30.151063" lon="-97.805443" changeset="false"><tag k="addr:street" v="Trophy Cove"/><tag k="addr:housenumber" v="10705"/></node><node id="-60" lat="30.138102" lon="-97.819707" changeset="false"><tag k="addr:street" v="Leanna Woods Cove"/><tag k="addr:housenumber" v="504"/></node><node id="-61" lat="30.146805" lon="-97.819825" changeset="false"><tag k="addr:street" v="Hunting Creek Lane"/><tag k="addr:housenumber" v="11403"/></node><node id="-62" lat="30.140953" lon="-97.824967" changeset="false"><tag k="addr:street" v="Farm-to-Market Road 1626"/><tag k="addr:housenumber" v="718"/></node><node id="-63" lat="30.146022" lon="-97.822115" changeset="false"><tag k="addr:street" v="Hunting Creek Lane"/><tag k="addr:housenumber" v="11512"/></node><node id="-64" lat="30.14681" lon="-97.810677" changeset="false"><tag k="addr:street" v="Real Quiet Cove"/><tag k="addr:housenumber" v="208"/></node><node id="-65" lat="30.146609" lon="-97.810037" changeset="false"><tag k="addr:street" v="Jockey Bluff Drive"/><tag k="addr:housenumber" v="11016"/></node><node id="-66" lat="30.131027" lon="-97.821616" changeset="false"><tag k="addr:street" v="Twin Creek Park Drive"/><tag k="addr:housenumber" v="12407"/></node><node id="-67" lat="30.148214" lon="-97.799657" changeset="false"><tag k="addr:street" v="Old San Antonio Road"/><tag k="addr:housenumber" v="10800"/></node><node id="-68" lat="30.146437" lon="-97.808827" changeset="false"><tag k="addr:street" v="Wayne Riddell Loop"/><tag k="addr:housenumber" v="11140 1/2"/></node><node id="-69" lat="30.129453" lon="-97.822462" changeset="false"><tag k="addr:street" v="Twin Creeks Road"/><tag k="addr:housenumber" v="12521"/></node><node id="-70" lat="30.129175" lon="-97.823979" changeset="false"><tag k="addr:street" v="Mistletoe Trail"/><tag k="addr:housenumber" v="12620"/></node><node id="-71" lat="30.128465" lon="-97.825635" changeset="false"><tag k="addr:street" v="Arroyo Vista Drive"/><tag k="addr:housenumber" v="404"/></node><node id="-72" lat="30.128141" lon="-97.831326" changeset="false"><tag k="addr:street" v="Scissortail Drive"/><tag k="addr:housenumber" v="12810"/></node><node id="-73" lat="30.133801" lon="-97.822158" changeset="false"><tag k="addr:street" v="Twin Creek Cove"/><tag k="addr:housenumber" v="401"/></node><node id="-74" lat="30.133735" lon="-97.830945" changeset="false"><tag k="addr:street" v="Scissortail Drive"/><tag k="addr:housenumber" v="12506"/></node><node id="-75" lat="30.133524" lon="-97.823391" changeset="false"><tag k="addr:street" v="Twin Creek Drive,1100"/><tag k="addr:housenumber" v="12307"/></node><node id="-76" lat="30.132682" lon="-97.831207" changeset="false"><tag k="addr:street" v="Scissortail Drive"/><tag k="addr:housenumber" v="12602"/></node><node id="-77" lat="30.132325" lon="-97.825723" changeset="false"><tag k="addr:street" v="Twin Creeks Road"/><tag k="addr:housenumber" v="12501"/></node><node id="-78" lat="30.131906" lon="-97.823328" changeset="false"><tag k="addr:street" v="Twin Creek Drive,1100"/><tag k="addr:housenumber" v="12407"/></node><node id="-79" lat="30.144239" lon="-97.813296" changeset="false"><tag k="addr:street" v="Katy Lane"/><tag k="addr:housenumber" v="11420"/></node><node id="-80" lat="30.146044" lon="-97.811469" changeset="false"><tag k="addr:street" v="Middle Ground Cove"/><tag k="addr:housenumber" v="312"/></node><node id="-81" lat="30.146064" lon="-97.79481" changeset="false"><tag k="addr:street" v="Interstate 35 Frontage Road"/><tag k="addr:housenumber" v="10728"/></node><node id="-82" lat="30.145192" lon="-97.81119" changeset="false"><tag k="addr:street" v="Jockey Bluff Drive"/><tag k="addr:housenumber" v="11217"/></node><node id="-83" lat="30.133245" lon="-97.827137" changeset="false"><tag k="addr:street" v="Twin Creeks Road"/><tag k="addr:housenumber" v="12412"/></node><node id="-84" lat="30.134235" lon="-97.808249" changeset="false"><tag k="addr:street" v="Old San Antonio Road"/><tag k="addr:housenumber" v="11817"/></node><node id="-85" lat="30.153276" lon="-97.824803" changeset="false"><tag k="addr:street" v="Chappell Lane"/><tag k="addr:housenumber" v="1221"/></node><node id="-86" lat="30.138175" lon="-97.821501" changeset="false"><tag k="addr:street" v="Bluebonnet Lane"/><tag k="addr:housenumber" v="12001"/></node><node id="-87" lat="30.136126" lon="-97.829203" changeset="false"><tag k="addr:street" v="Morning Dove Cove"/><tag k="addr:housenumber" v="714"/></node><node id="-88" lat="30.151243" lon="-97.807236" changeset="false"><tag k="addr:street" v="Thoroughbred Drive"/><tag k="addr:housenumber" v="10724"/></node><node id="-89" lat="30.130299" lon="-97.821907" changeset="false"><tag k="addr:street" v="Twin Creek Park Drive"/><tag k="addr:housenumber" v="12503"/></node><node id="-90" lat="30.134148" lon="-97.82983" changeset="false"><tag k="addr:street" v="Scissortail Drive"/><tag k="addr:housenumber" v="12503"/></node><node id="-91" lat="30.128808" lon="-97.823214" changeset="false"><tag k="addr:street" v="Arroyo Vista Drive"/><tag k="addr:housenumber" v="300"/></node><node id="-92" lat="30.146043" lon="-97.821787" changeset="false"><tag k="addr:street" v="Hunting Creek Lane"/><tag k="addr:housenumber" v="11510"/></node><node id="-93" lat="30.141427" lon="-97.822338" changeset="false"><tag k="addr:street" v="Arnold Lane"/><tag k="addr:housenumber" v="11807"/></node><node id="-94" lat="30.14727" lon="-97.806246" changeset="false"><tag k="addr:street" v="Desert Willow Loop"/><tag k="addr:housenumber" v="10825"/></node><node id="-95" lat="30.141968" lon="-97.823722" changeset="false"><tag k="addr:street" v="Old Manchaca Road"/><tag k="addr:housenumber" v="678"/></node><node id="-96" lat="30.140796" lon="-97.825731" changeset="false"><tag k="addr:street" v="Farm-to-Market Road 1626"/><tag k="addr:housenumber" v="724"/></node><node id="-97" lat="30.139641" lon="-97.819224" changeset="false"><tag k="addr:street" v="Tunnel Trail"/><tag k="addr:housenumber" v="11816"/></node><node id="-98" lat="30.145314" lon="-97.803698" changeset="false"><tag k="addr:street" v="South 1st Street"/><tag k="addr:housenumber" v="11001"/></node><node id="-99" lat="30.14705" lon="-97.806853" changeset="false"><tag k="addr:street" v="Desert Willow Loop"/><tag k="addr:housenumber" v="11009"/></node><node id="-100" lat="30.139957" lon="-97.806578" changeset="false"><tag k="addr:street" v="Conroy Lane"/><tag k="addr:housenumber" v="11405"/></node><node id="-101" lat="30.14255" lon="-97.817204" changeset="false"><tag k="addr:street" v="Farm-to-Market Road 1626"/><tag k="addr:housenumber" v="504"/></node><node id="-102" lat="30.134888" lon="-97.82131" changeset="false"><tag k="addr:street" v="Twin Creek Park Drive"/><tag k="addr:housenumber" v="12201"/></node><node id="-103" lat="30.134697" lon="-97.825909" changeset="false"><tag k="addr:street" v="Elm Valley Drive"/><tag k="addr:housenumber" v="12300"/></node><node id="-104" lat="30.140388" lon="-97.823026" changeset="false"><tag k="addr:street" v="Farm-to-Market Road 1626"/><tag k="addr:housenumber" v="659"/></node><node id="-105" lat="30.13737" lon="-97.824069" changeset="false"><tag k="addr:street" v="Bethel Church Road"/><tag k="addr:housenumber" v="12028"/></node><node id="-106" lat="30.143543" lon="-97.801643" changeset="false"><tag k="addr:street" v="Old San Antonio Road"/><tag k="addr:housenumber" v="11112"/></node><node id="-107" lat="30.14688" lon="-97.805788" changeset="false"><tag k="addr:street" v="Rose Mallow Way"/><tag k="addr:housenumber" v="124"/></node><node id="-108" lat="30.143417" lon="-97.803287" changeset="false"><tag k="addr:street" v="Farm-to-Market Road 1626"/><tag k="addr:housenumber" v="300"/></node><node id="-109" lat="30.149455" lon="-97.808306" changeset="false"><tag k="addr:street" v="Colonel Winn Loop"/><tag k="addr:housenumber" v="10940"/></node><node id="-110" lat="30.128497" lon="-97.829412" changeset="false"><tag k="addr:street" v="Arroyo Vista Drive"/><tag k="addr:housenumber" v="602"/></node><node id="-111" lat="30.139146" lon="-97.819181" changeset="false"><tag k="addr:street" v="Tunnel Trail"/><tag k="addr:housenumber" v="11906"/></node><node id="-112" lat="30.138145" lon="-97.822121" changeset="false"><tag k="addr:street" v="Bluebonnet Lane"/><tag k="addr:housenumber" v="12000"/></node><node id="-113" lat="30.153665" lon="-97.805114" changeset="false"><tag k="addr:street" v="Thoroughbred Drive"/><tag k="addr:housenumber" v="10508"/></node><node id="-114" lat="30.132148" lon="-97.82474" changeset="false"><tag k="addr:street" v="Elm Valley Drive"/><tag k="addr:housenumber" v="12408"/></node><node id="-115" lat="30.135257" lon="-97.830821" changeset="false"><tag k="addr:street" v="Morning Dove Cove"/><tag k="addr:housenumber" v="713"/></node><node id="-116" lat="30.129209" lon="-97.825596" changeset="false"><tag k="addr:street" v="Mistletoe Trail"/><tag k="addr:housenumber" v="12614"/></node><node id="-117" lat="30.12735" lon="-97.830914" changeset="false"><tag k="addr:street" v="Arroyo Vista Drive"/><tag k="addr:housenumber" v="607"/></node><node id="-118" lat="30.151204" lon="-97.792766" changeset="false"><tag k="addr:street" v="Interstate 35 Frontage Road"/><tag k="addr:housenumber" v="10300"/></node><node id="-119" lat="30.13426" lon="-97.821407" changeset="false"><tag k="addr:street" v="Twin Creek Park Drive"/><tag k="addr:housenumber" v="12205"/></node><node id="-120" lat="30.133921" lon="-97.823407" changeset="false"><tag k="addr:street" v="Twin Creek Drive,1100"/><tag k="addr:housenumber" v="12305"/></node><node id="-121" lat="30.146457" lon="-97.794541" changeset="false"><tag k="addr:street" v="Interstate 35 Frontage Road"/><tag k="addr:housenumber" v="10704 1/2"/></node><node id="-122" lat="30.144467" lon="-97.807473" changeset="false"><tag k="addr:street" v="Farm-to-Market Road 1626"/><tag k="addr:housenumber" v="200 1/2"/></node><node id="-123" lat="30.151281" lon="-97.804787" changeset="false"><tag k="addr:street" v="Trophy Cove"/><tag k="addr:housenumber" v="10712"/></node><node id="-124" lat="30.137576" lon="-97.822984" changeset="false"><tag k="addr:street" v="Bethel Church Road"/><tag k="addr:housenumber" v="12027"/></node><node id="-125" lat="30.147435" lon="-97.811162" changeset="false"><tag k="addr:street" v="Racetrack Drive"/><tag k="addr:housenumber" v="228"/></node><node id="-126" lat="30.131107" lon="-97.825591" changeset="false"><tag k="addr:street" v="Twin Creeks Road"/><tag k="addr:housenumber" v="12506"/></node><node id="-127" lat="30.13089" lon="-97.83054" changeset="false"><tag k="addr:street" v="Scissortail Drive"/><tag k="addr:housenumber" v="12705"/></node><node id="-128" lat="30.129394" lon="-97.823266" changeset="false"><tag k="addr:street" v="Mistletoe Trail"/><tag k="addr:housenumber" v="12622"/></node><node id="-129" lat="30.129124" lon="-97.831567" changeset="false"><tag k="addr:street" v="Scissortail Drive"/><tag k="addr:housenumber" v="12804"/></node><node id="-130" lat="30.148484" lon="-97.808704" changeset="false"><tag k="addr:street" v="Colonel Winn Loop"/><tag k="addr:housenumber" v="11001"/></node><node id="-131" lat="30.148076" lon="-97.81125" changeset="false"><tag k="addr:street" v="Real Quiet Drive"/><tag k="addr:housenumber" v="11209"/></node><node id="-132" lat="30.132418" lon="-97.825037" changeset="false"><tag k="addr:street" v="Elm Valley Drive"/><tag k="addr:housenumber" v="12406"/></node><node id="-133" lat="30.131701" lon="-97.822196" changeset="false"><tag k="addr:street" v="Twin Creek Park Drive"/><tag k="addr:housenumber" v="12405"/></node><node id="-134" lat="30.153182" lon="-97.824604" changeset="false"><tag k="addr:street" v="Chappell Lane"/><tag k="addr:housenumber" v="1211"/></node><node id="-135" lat="30.148762" lon="-97.80718" changeset="false"><tag k="addr:street" v="Mint Julep Drive"/><tag k="addr:housenumber" v="10917"/></node><node id="-136" lat="30.1285" lon="-97.826158" changeset="false"><tag k="addr:street" v="Arroyo Vista Drive"/><tag k="addr:housenumber" v="406"/></node><node id="-137" lat="30.1271" lon="-97.828861" changeset="false"><tag k="addr:street" v="Arroyo Vista Drive"/><tag k="addr:housenumber" v="601"/></node><node id="-138" lat="30.146024" lon="-97.820236" changeset="false"><tag k="addr:street" v="Hunting Creek Lane"/><tag k="addr:housenumber" v="11501"/></node><node id="-139" lat="30.146013" lon="-97.82237" changeset="false"><tag k="addr:street" v="Chapel Lane"/><tag k="addr:housenumber" v="11505"/></node><node id="-140" lat="30.145318" lon="-97.820847" changeset="false"><tag k="addr:street" v="Hunting Creek Lane"/><tag k="addr:housenumber" v="11507"/></node><node id="-141" lat="30.14517" lon="-97.809129" changeset="false"><tag k="addr:street" v="Visa Rose Drive"/><tag k="addr:housenumber" v="11121"/></node><node id="-142" lat="30.146414" lon="-97.80927" changeset="false"><tag k="addr:street" v="Jockey Bluff Cove"/><tag k="addr:housenumber" v="201"/></node><node id="-143" lat="30.138773" lon="-97.822221" changeset="false"><tag k="addr:street" v="Bluebonnet Lane"/><tag k="addr:housenumber" v="11916"/></node><node id="-144" lat="30.146891" lon="-97.805955" changeset="false"><tag k="addr:street" v="Rose Mallow Way"/><tag k="addr:housenumber" v="200"/></node><node id="-145" lat="30.140441" lon="-97.827399" changeset="false"><tag k="addr:street" v="Farm-to-Market Road 1626"/><tag k="addr:housenumber" v="745"/></node><node id="-146" lat="30.146591" lon="-97.804379" changeset="false"><tag k="addr:street" v="Desert Willow Loop"/><tag k="addr:housenumber" v="10624"/></node><node id="-147" lat="30.134374" lon="-97.823395" changeset="false"><tag k="addr:street" v="Twin Creek Drive,1100"/><tag k="addr:housenumber" v="12303"/></node><node id="-148" lat="30.144664" lon="-97.806524" changeset="false"><tag k="addr:street" v="Desert Willow Loop"/><tag k="addr:housenumber" v="11129"/></node><node id="-149" lat="30.132968" lon="-97.826139" changeset="false"><tag k="addr:street" v="Sparkle Drive"/><tag k="addr:housenumber" v="603"/></node><node id="-150" lat="30.133715" lon="-97.809635" changeset="false"><tag k="addr:street" v="Old San Antonio Road"/><tag k="addr:housenumber" v="11901"/></node><node id="-151" lat="30.146873" lon="-97.805612" changeset="false"><tag k="addr:street" v="Rose Mallow Way"/><tag k="addr:housenumber" v="120"/></node><node id="-152" lat="30.139197" lon="-97.803311" changeset="false"><tag k="addr:street" v="Old San Antonio Road"/><tag k="addr:housenumber" v="11401"/></node><node id="-153" lat="30.14019" lon="-97.80166" changeset="false"><tag k="addr:street" v="Farrah Lane"/><tag k="addr:housenumber" v="11330"/></node><node id="-154" lat="30.129753" lon="-97.822373" changeset="false"><tag k="addr:street" v="Elm View Way"/><tag k="addr:housenumber" v="403"/></node><node id="-155" lat="30.135553" lon="-97.806004" changeset="false"><tag k="addr:street" v="Old San Antonio Road"/><tag k="addr:housenumber" v="11705"/></node><node id="-156" lat="30.137008" lon="-97.821497" changeset="false"><tag k="addr:street" v="Bluebonnet Lane"/><tag k="addr:housenumber" v="12101"/></node><node id="-157" lat="30.131288" lon="-97.822718" changeset="false"><tag k="addr:street" v="Twin Creek Park Drive"/><tag k="addr:housenumber" v="12404"/></node><node id="-158" lat="30.143403" lon="-97.817595" changeset="false"><tag k="addr:street" v="Circle Drive"/><tag k="addr:housenumber" v="11601"/></node><node id="-159" lat="30.132735" lon="-97.82438" changeset="false"><tag k="addr:street" v="Elm Valley Drive"/><tag k="addr:housenumber" v="12407"/></node><node id="-160" lat="30.13226" lon="-97.82386" changeset="false"><tag k="addr:street" v="Twin Creek Drive,1100"/><tag k="addr:housenumber" v="12412"/></node><node id="-161" lat="30.131332" lon="-97.831493" changeset="false"><tag k="addr:street" v="Scissortail Drive"/><tag k="addr:housenumber" v="12700"/></node><node id="-162" lat="30.129253" lon="-97.830358" changeset="false"><tag k="addr:street" v="Scissortail Drive"/><tag k="addr:housenumber" v="12803"/></node><node id="-163" lat="30.127421" lon="-97.825841" changeset="false"><tag k="addr:street" v="Arroyo Vista Drive"/><tag k="addr:housenumber" v="407"/></node><node id="-164" lat="30.127188" lon="-97.829536" changeset="false"><tag k="addr:street" v="Arroyo Vista Drive"/><tag k="addr:housenumber" v="603"/></node><node id="-165" lat="30.132317" lon="-97.82337" changeset="false"><tag k="addr:street" v="Twin Creek Drive,1100"/><tag k="addr:housenumber" v="12405"/></node><node id="-166" lat="30.145281" lon="-97.821773" changeset="false"><tag k="addr:street" v="Hunting Creek Lane"/><tag k="addr:housenumber" v="11513"/></node><node id="-167" lat="30.145577" lon="-97.808849" changeset="false"><tag k="addr:street" v="Visa Rose Drive"/><tag k="addr:housenumber" v="11109"/></node><node id="-168" lat="30.153621" lon="-97.797695" changeset="false"><tag k="addr:street" v="Old San Antonio Road"/><tag k="addr:housenumber" v="10300"/></node><node id="-169" lat="30.134738" lon="-97.830662" changeset="false"><tag k="addr:street" v="Scissortail Drive"/><tag k="addr:housenumber" v="12500"/></node><node id="-170" lat="30.133891" lon="-97.824217" changeset="false"><tag k="addr:street" v="Twin Creek Drive,1100"/><tag k="addr:housenumber" v="12304"/></node><node id="-171" lat="30.133507" lon="-97.82488" changeset="false"><tag k="addr:street" v="Elm Valley Drive"/><tag k="addr:housenumber" v="12403"/></node><node id="-172" lat="30.150951" lon="-97.805207" changeset="false"><tag k="addr:street" v="Trophy Cove"/><tag k="addr:housenumber" v="10709"/></node><node id="-173" lat="30.146669" lon="-97.794738" changeset="false"><tag k="addr:street" v="Interstate 35 Frontage Road"/><tag k="addr:housenumber" v="10704"/></node><node id="-174" lat="30.149116" lon="-97.806903" changeset="false"><tag k="addr:street" v="Mint Julep Drive"/><tag k="addr:housenumber" v="10905"/></node><node id="-175" lat="30.152841" lon="-97.804888" changeset="false"><tag k="addr:street" v="Lord Derby Drive"/><tag k="addr:housenumber" v="10613"/></node><node id="-176" lat="30.152268" lon="-97.804107" changeset="false"><tag k="addr:street" v="Turf Cove"/><tag k="addr:housenumber" v="200"/></node><node id="-177" lat="30.147611" lon="-97.808269" changeset="false"><tag k="addr:street" v="Mint Julep Drive"/><tag k="addr:housenumber" v="11021"/></node><node id="-178" lat="30.144961" lon="-97.794858" changeset="false"><tag k="addr:street" v="Interstate 35 Frontage Road"/><tag k="addr:housenumber" v="10810"/></node><node id="-179" lat="30.132371" lon="-97.8226" changeset="false"><tag k="addr:street" v="Twin Creek Park Drive"/><tag k="addr:housenumber" v="12310"/></node><node id="-180" lat="30.130501" lon="-97.830526" changeset="false"><tag k="addr:street" v="Scissortail Drive"/><tag k="addr:housenumber" v="12707"/></node><node id="-181" lat="30.14833" lon="-97.809285" changeset="false"><tag k="addr:street" v="Colonel Winn Loop"/><tag k="addr:housenumber" v="11012"/></node><node id="-182" lat="30.148231" lon="-97.810044" changeset="false"><tag k="addr:street" v="Sea Hero Lane"/><tag k="addr:housenumber" v="11113"/></node><node id="-183" lat="30.132496" lon="-97.826773" changeset="false"><tag k="addr:street" v="Twin Creeks Road"/><tag k="addr:housenumber" v="12416"/></node><node id="-184" lat="30.131334" lon="-97.827911" changeset="false"><tag k="addr:street" v="Mistletoe Trail"/><tag k="addr:housenumber" v="12600"/></node><node id="-185" lat="30.133838" lon="-97.824962" changeset="false"><tag k="addr:street" v="Elm Valley Drive"/><tag k="addr:housenumber" v="12401"/></node><node id="-186" lat="30.127498" lon="-97.825004" changeset="false"><tag k="addr:street" v="Arroyo Vista Drive"/><tag k="addr:housenumber" v="403"/></node><node id="-187" lat="30.145693" lon="-97.819134" changeset="false"><tag k="addr:street" v="Sunset Drive"/><tag k="addr:housenumber" v="11501"/></node><node id="-188" lat="30.151629" lon="-97.805221" changeset="false"><tag k="addr:street" v="Trophy Cove"/><tag k="addr:housenumber" v="10700"/></node><node id="-189" lat="30.145754" lon="-97.810046" changeset="false"><tag k="addr:street" v="Jockey Bluff Drive"/><tag k="addr:housenumber" v="11113"/></node><node id="-190" lat="30.147299" lon="-97.806413" changeset="false"><tag k="addr:street" v="Desert Willow Loop"/><tag k="addr:housenumber" v="10901"/></node><node id="-191" lat="30.146842" lon="-97.804253" changeset="false"><tag k="addr:street" v="Desert Willow Loop"/><tag k="addr:housenumber" v="10632"/></node><node id="-192" lat="30.141761" lon="-97.798644" changeset="false"><tag k="addr:street" v="Farm-to-Market Road 1626"/><tag k="addr:housenumber" v="622"/></node><node id="-193" lat="30.138483" lon="-97.822193" changeset="false"><tag k="addr:street" v="Bluebonnet Lane"/><tag k="addr:housenumber" v="11918"/></node><node id="-194" lat="30.135354" lon="-97.829158" changeset="false"><tag k="addr:street" v="Scissortail Drive"/><tag k="addr:housenumber" v="12405"/></node><node id="-195" lat="30.134339" lon="-97.825928" changeset="false"><tag k="addr:street" v="Elm Valley Drive"/><tag k="addr:housenumber" v="12302"/></node><node id="-196" lat="30.134784" lon="-97.822928" changeset="false"><tag k="addr:street" v="Hickory Ridge Road"/><tag k="addr:housenumber" v="507"/></node><node id="-197" lat="30.144293" lon="-97.80664" changeset="false"><tag k="addr:street" v="Farm-to-Market Road 1626"/><tag k="addr:housenumber" v="102 1/2"/></node><node id="-198" lat="30.130047" lon="-97.831567" changeset="false"><tag k="addr:street" v="Scissortail Drive"/><tag k="addr:housenumber" v="12710"/></node><node id="-199" lat="30.13345" lon="-97.830105" changeset="false"><tag k="addr:street" v="Scissortail Drive"/><tag k="addr:housenumber" v="12507"/></node><node id="-200" lat="30.146334" lon="-97.811645" changeset="false"><tag k="addr:street" v="Middle Ground Cove"/><tag k="addr:housenumber" v="320"/></node><node id="-201" lat="30.147252" lon="-97.805933" changeset="false"><tag k="addr:street" v="Desert Willow Loop"/><tag k="addr:housenumber" v="10817"/></node><node id="-202" lat="30.147265" lon="-97.822044" changeset="false"><tag k="addr:street" v="Ridge Drive"/><tag k="addr:housenumber" v="11502"/></node><node id="-203" lat="30.143996" lon="-97.820697" changeset="false"><tag k="addr:street" v="Sunset Drive"/><tag k="addr:housenumber" v="11609"/></node><node id="-204" lat="30.128403" lon="-97.831582" changeset="false"><tag k="addr:street" v="Scissortail Drive"/><tag k="addr:housenumber" v="12808"/></node><node id="-205" lat="30.145169" lon="-97.822371" changeset="false"><tag k="addr:street" v="Hunting Creek Lane"/><tag k="addr:housenumber" v="11517"/></node><node id="-206" lat="30.143335" lon="-97.81576" changeset="false"><tag k="addr:street" v="Sombrero Drive"/><tag k="addr:housenumber" v="11504"/></node><node id="-207" lat="30.143893" lon="-97.822613" changeset="false"><tag k="addr:street" v="Chapel Lane"/><tag k="addr:housenumber" v="11610"/></node><node id="-208" lat="30.140356" lon="-97.800514" changeset="false"><tag k="addr:street" v="Farrah Lane"/><tag k="addr:housenumber" v="11301"/></node><node id="-209" lat="30.144677" lon="-97.821502" changeset="false"><tag k="addr:street" v="Sunset Drive"/><tag k="addr:housenumber" v="11614"/></node><node id="-210" lat="30.152692" lon="-97.806408" changeset="false"><tag k="addr:street" v="Thoroughbred Drive"/><tag k="addr:housenumber" v="10616"/></node><node id="-211" lat="30.134243" lon="-97.824234" changeset="false"><tag k="addr:street" v="Twin Creek Drive,1100"/><tag k="addr:housenumber" v="12302"/></node><node id="-212" lat="30.133479" lon="-97.822625" changeset="false"><tag k="addr:street" v="Little Bear Cove"/><tag k="addr:housenumber" v="402"/></node><node id="-213" lat="30.132039" lon="-97.822749" changeset="false"><tag k="addr:street" v="Twin Creek Park Drive"/><tag k="addr:housenumber" v="12400"/></node><node id="-214" lat="30.131485" lon="-97.823287" changeset="false"><tag k="addr:street" v="Twin Creek Drive,1100"/><tag k="addr:housenumber" v="12409"/></node><node id="-215" lat="30.143163" lon="-97.79548" changeset="false"><tag k="addr:street" v="Interstate 35 Frontage Road"/><tag k="addr:housenumber" v="10900"/></node><node id="-216" lat="30.133096" lon="-97.824716" changeset="false"><tag k="addr:street" v="Elm Valley Drive"/><tag k="addr:housenumber" v="12405"/></node><node id="-217" lat="30.149798" lon="-97.806858" changeset="false"><tag k="addr:street" v="Mint Julep Drive"/><tag k="addr:housenumber" v="10808"/></node><node id="-218" lat="30.127094" lon="-97.82741" changeset="false"><tag k="addr:street" v="Arroyo Vista Drive"/><tag k="addr:housenumber" v="505"/></node><node id="-219" lat="30.13311" lon="-97.824126" changeset="false"><tag k="addr:street" v="Twin Creek Drive,1100"/><tag k="addr:housenumber" v="12400"/></node><node id="-220" lat="30.14585" lon="-97.812397" changeset="false"><tag k="addr:street" v="Racetrack Drive"/><tag k="addr:housenumber" v="417"/></node><node id="-221" lat="30.15307" lon="-97.805758" changeset="false"><tag k="addr:street" v="Thoroughbred Drive"/><tag k="addr:housenumber" v="10601"/></node><node id="-222" lat="30.146193" lon="-97.811569" changeset="false"><tag k="addr:street" v="Middle Ground Cove"/><tag k="addr:housenumber" v="316"/></node><node id="-223" lat="30.145916" lon="-97.809952" changeset="false"><tag k="addr:street" v="Jockey Bluff Drive"/><tag k="addr:housenumber" v="11109"/></node><node id="-224" lat="30.140755" lon="-97.796379" changeset="false"><tag k="addr:street" v="Interstate 35 Frontage Road"/><tag k="addr:housenumber" v="11112"/></node><node id="-225" lat="30.135358" lon="-97.823855" changeset="false"><tag k="addr:street" v="Hickory Ridge Road"/><tag k="addr:housenumber" v="510"/></node><node id="-226" lat="30.133361" lon="-97.831037" changeset="false"><tag k="addr:street" v="Scissortail Drive"/><tag k="addr:housenumber" v="12508"/></node><node id="-227" lat="30.132824" lon="-97.826955" changeset="false"><tag k="addr:street" v="Twin Creeks Road"/><tag k="addr:housenumber" v="12414"/></node><node id="-228" lat="30.135432" lon="-97.821749" changeset="false"><tag k="addr:street" v="Hickory Ridge Road"/><tag k="addr:housenumber" v="500"/></node><node id="-229" lat="30.135384" lon="-97.823395" changeset="false"><tag k="addr:street" v="Hickory Ridge Road"/><tag k="addr:housenumber" v="508"/></node><node id="-230" lat="30.135338" lon="-97.824793" changeset="false"><tag k="addr:street" v="Hickory Ridge Road"/><tag k="addr:housenumber" v="602"/></node><node id="-231" lat="30.130162" lon="-97.827089" changeset="false"><tag k="addr:street" v="Mistletoe Trail"/><tag k="addr:housenumber" v="12606"/></node><node id="-232" lat="30.130187" lon="-97.830421" changeset="false"><tag k="addr:street" v="Scissortail Drive"/><tag k="addr:housenumber" v="12709"/></node><node id="-233" lat="30.129552" lon="-97.831568" changeset="false"><tag k="addr:street" v="Scissortail Drive"/><tag k="addr:housenumber" v="12802"/></node><node id="-234" lat="30.127232" lon="-97.830224" changeset="false"><tag k="addr:street" v="Arroyo Vista Drive"/><tag k="addr:housenumber" v="605"/></node><node id="-235" lat="30.130544" lon="-97.827345" changeset="false"><tag k="addr:street" v="Mistletoe Trail"/><tag k="addr:housenumber" v="12604"/></node><node id="-236" lat="30.129984" lon="-97.825277" changeset="false"><tag k="addr:street" v="Mistletoe Trail"/><tag k="addr:housenumber" v="12611"/></node><node id="-237" lat="30.147693" lon="-97.810009" changeset="false"><tag k="addr:street" v="Racetrack Drive"/><tag k="addr:housenumber" v="204"/></node><node id="-238" lat="30.132962" lon="-97.821832" changeset="false"><tag k="addr:street" v="Twin Creek Park Drive"/><tag k="addr:housenumber" v="12305"/></node><node id="-239" lat="30.132673" lon="-97.821965" changeset="false"><tag k="addr:street" v="Twin Creek Park Drive"/><tag k="addr:housenumber" v="12307"/></node><node id="-240" lat="30.131793" lon="-97.826238" changeset="false"><tag k="addr:street" v="Twin Creeks Road"/><tag k="addr:housenumber" v="12502"/></node><node id="-241" lat="30.144712" lon="-97.794966" changeset="false"><tag k="addr:street" v="Interstate 35 Frontage Road"/><tag k="addr:housenumber" v="10812"/></node><node id="-242" lat="30.149265" lon="-97.808041" changeset="false"><tag k="addr:street" v="Colonel Winn Loop"/><tag k="addr:housenumber" v="10933"/></node><node id="-243" lat="30.129112" lon="-97.824557" changeset="false"><tag k="addr:street" v="Mistletoe Trail"/><tag k="addr:housenumber" v="12618"/></node><node id="-244" lat="30.138373" lon="-97.827418" changeset="false"><tag k="addr:street" v="Twin Creeks Road"/><tag k="addr:housenumber" v="12209"/></node><node id="-245" lat="30.149773" lon="-97.811045" changeset="false"><tag k="addr:street" v="Fonso Lane"/><tag k="addr:housenumber" v="11017"/></node><node id="-246" lat="30.150009" lon="-97.807517" changeset="false"><tag k="addr:street" v="Colonel Winn Loop"/><tag k="addr:housenumber" v="10916"/></node><node id="-247" lat="30.133161" lon="-97.823355" changeset="false"><tag k="addr:street" v="Twin Creek Drive,1100"/><tag k="addr:housenumber" v="12401"/></node><node id="-248" lat="30.133467" lon="-97.826277" changeset="false"><tag k="addr:street" v="Sparkle Drive"/><tag k="addr:housenumber" v="602"/></node><node id="-249" lat="30.144923" lon="-97.806423" changeset="false"><tag k="addr:street" v="Desert Willow Loop"/><tag k="addr:housenumber" v="11121"/></node><node id="-250" lat="30.135323" lon="-97.825211" changeset="false"><tag k="addr:street" v="Hickory Ridge Road"/><tag k="addr:housenumber" v="604"/></node><node id="-251" lat="30.137866" lon="-97.828062" changeset="false"><tag k="addr:street" v="Twin Creeks Road"/><tag k="addr:housenumber" v="12215"/></node><node id="-252" lat="30.153302" lon="-97.806233" changeset="false"><tag k="addr:street" v="Thoroughbred Drive"/><tag k="addr:housenumber" v="10604"/></node><node id="-253" lat="30.152744" lon="-97.805406" changeset="false"><tag k="addr:street" v="Lord Derby Drive"/><tag k="addr:housenumber" v="10612"/></node><node id="-254" lat="30.152312" lon="-97.811345" changeset="false"><tag k="addr:street" v="Paul Jones Pass"/><tag k="addr:housenumber" v="500"/></node><node id="-255" lat="30.13927" lon="-97.804668" changeset="false"><tag k="addr:street" v="Old San Antonio Road"/><tag k="addr:housenumber" v="11410"/></node><node id="-256" lat="30.134786" lon="-97.822144" changeset="false"><tag k="addr:street" v="Hickory Ridge Road"/><tag k="addr:housenumber" v="503"/></node><node id="-257" lat="30.134358" lon="-97.822273" changeset="false"><tag k="addr:street" v="Twin Creek Cove"/><tag k="addr:housenumber" v="402"/></node><node id="-258" lat="30.150414" lon="-97.801454" changeset="false"><tag k="addr:street" v="South 1st Street"/><tag k="addr:housenumber" v="10701"/></node><node id="-259" lat="30.128765" lon="-97.831563" changeset="false"><tag k="addr:street" v="Scissortail Drive"/><tag k="addr:housenumber" v="12806"/></node><node id="-260" lat="30.146053" lon="-97.821463" changeset="false"><tag k="addr:street" v="Hunting Creek Lane"/><tag k="addr:housenumber" v="11508"/></node><node id="-261" lat="30.135363" lon="-97.824362" changeset="false"><tag k="addr:street" v="Hickory Ridge Road"/><tag k="addr:housenumber" v="600"/></node><node id="-262" lat="30.140938" lon="-97.824409" changeset="false"><tag k="addr:street" v="Farm-to-Market Road 1626"/><tag k="addr:housenumber" v="708"/></node><node id="-263" lat="30.146918" lon="-97.806783" changeset="false"><tag k="addr:street" v="Desert Willow Loop"/><tag k="addr:housenumber" v="11013"/></node><node id="-264" lat="30.140429" lon="-97.827197" changeset="false"><tag k="addr:street" v="Farm-to-Market Road 1626"/><tag k="addr:housenumber" v="743"/></node><node id="-265" lat="30.141107" lon="-97.827849" changeset="false"><tag k="addr:street" v="Farm-to-Market Road 1626"/><tag k="addr:housenumber" v="780"/></node><node id="-266" lat="30.134782" lon="-97.8234" changeset="false"><tag k="addr:street" v="Twin Creek Drive,1100"/><tag k="addr:housenumber" v="12301"/></node><node id="-267" lat="30.147058" lon="-97.804977" changeset="false"><tag k="addr:street" v="Desert Willow Loop"/><tag k="addr:housenumber" v="10721"/></node><node id="-268" lat="30.147263" lon="-97.806104" changeset="false"><tag k="addr:street" v="Desert Willow Loop"/><tag k="addr:housenumber" v="10821"/></node><node id="-269" lat="30.146469" lon="-97.805576" changeset="false"><tag k="addr:street" v="Rose Mallow Way"/><tag k="addr:housenumber" v="113"/></node><node id="-270" lat="30.138876" lon="-97.828162" changeset="false"><tag k="addr:street" v="Twin Creeks Road"/><tag k="addr:housenumber" v="12207"/></node><node id="-271" lat="30.135393" lon="-97.822952" changeset="false"><tag k="addr:street" v="Hickory Ridge Road"/><tag k="addr:housenumber" v="506"/></node><node id="-272" lat="30.134229" lon="-97.827205" changeset="false"><tag k="addr:street" v="Twin Creeks Road"/><tag k="addr:housenumber" v="12407"/></node><node id="-273" lat="30.147914" lon="-97.819095" changeset="false"><tag k="addr:street" v="Lake Drive"/><tag k="addr:housenumber" v="11307"/></node><node id="-274" lat="30.147339" lon="-97.818454" changeset="false"><tag k="addr:street" v="Circle Drive"/><tag k="addr:housenumber" v="11306"/></node><node id="-275" lat="30.146083" lon="-97.817264" changeset="false"><tag k="addr:street" v="Circle Drive"/><tag k="addr:housenumber" v="11401"/></node><node id="-276" lat="30.12976" lon="-97.824676" changeset="false"><tag k="addr:street" v="Mistletoe Trail"/><tag k="addr:housenumber" v="12613"/></node><node id="-277" lat="30.147809" lon="-97.823028" changeset="false"><tag k="addr:street" v="Chapel Lane"/><tag k="addr:housenumber" v="11400"/></node><node id="-278" lat="30.146323" lon="-97.809717" changeset="false"><tag k="addr:street" v="Jockey Bluff Cove"/><tag k="addr:housenumber" v="209"/></node><node id="-279" lat="30.146334" lon="-97.810793" changeset="false"><tag k="addr:street" v="Real Quiet Cove"/><tag k="addr:housenumber" v="201"/></node><node id="-280" lat="30.146764" lon="-97.809398" changeset="false"><tag k="addr:street" v="Jockey Bluff Cove"/><tag k="addr:housenumber" v="204"/></node><node id="-281" lat="30.14955" lon="-97.807693" changeset="false"><tag k="addr:street" v="Colonel Winn Loop"/><tag k="addr:housenumber" v="10921"/></node><node id="-282" lat="30.137628" lon="-97.822883" changeset="false"><tag k="addr:street" v="Bethel Church Road"/><tag k="addr:housenumber" v="12023"/></node><node id="-283" lat="30.136421" lon="-97.829143" changeset="false"><tag k="addr:street" v="Morning Dove Cove"/><tag k="addr:housenumber" v="716"/></node><node id="-284" lat="30.132624" lon="-97.825949" changeset="false"><tag k="addr:street" v="Twin Creeks Road"/><tag k="addr:housenumber" v="12415"/></node><node id="-285" lat="30.151356" lon="-97.810045" changeset="false"><tag k="addr:street" v="Sea Hero Court"/><tag k="addr:housenumber" v="10805"/></node><node id="-286" lat="30.129475" lon="-97.826398" changeset="false"><tag k="addr:street" v="Mistletoe Trail"/><tag k="addr:housenumber" v="12610"/></node><node id="-287" lat="30.133923" lon="-97.821513" changeset="false"><tag k="addr:street" v="Twin Creek Park Drive"/><tag k="addr:housenumber" v="12207"/></node><node id="-288" lat="30.13421" lon="-97.828177" changeset="false"><tag k="addr:street" v="Twin Creeks Road"/><tag k="addr:housenumber" v="12406"/></node><node id="-289" lat="30.133505" lon="-97.824162" changeset="false"><tag k="addr:street" v="Twin Creek Drive,1100"/><tag k="addr:housenumber" v="12306"/></node><node id="-290" lat="30.127321" lon="-97.82663" changeset="false"><tag k="addr:street" v="Arroyo Vista Drive"/><tag k="addr:housenumber" v="503"/></node><node id="-291" lat="30.145643" lon="-97.809297" changeset="false"><tag k="addr:street" v="Visa Rose Drive"/><tag k="addr:housenumber" v="11120"/></node><node id="-292" lat="30.145286" lon="-97.821469" changeset="false"><tag k="addr:street" v="Hunting Creek Lane"/><tag k="addr:housenumber" v="11511"/></node><node id="-293" lat="30.144214" lon="-97.806355" changeset="false"><tag k="addr:street" v="Farm-to-Market Road 1626"/><tag k="addr:housenumber" v="100 1/2"/></node><node id="-294" lat="30.15042" lon="-97.806124" changeset="false"><tag k="addr:street" v="Pedigree Cove"/><tag k="addr:housenumber" v="10701"/></node><node id="-295" lat="30.140392" lon="-97.82441" changeset="false"><tag k="addr:street" v="Farm-to-Market Road 1626"/><tag k="addr:housenumber" v="707"/></node><node id="-296" lat="30.140391" lon="-97.823605" changeset="false"><tag k="addr:street" v="Farm-to-Market Road 1626"/><tag k="addr:housenumber" v="665"/></node><node id="-297" lat="30.128291" lon="-97.826998" changeset="false"><tag k="addr:street" v="Arroyo Vista Drive"/><tag k="addr:housenumber" v="500"/></node><node id="-298" lat="30.146482" lon="-97.818423" changeset="false"><tag k="addr:street" v="Circle Drive"/><tag k="addr:housenumber" v="11312"/></node><node id="-299" lat="30.143445" lon="-97.818373" changeset="false"><tag k="addr:street" v="Circle Drive"/><tag k="addr:housenumber" v="11600"/></node><node id="-300" lat="30.138017" lon="-97.800005" changeset="false"><tag k="addr:street" v="Onion Creek Parkway"/><tag k="addr:housenumber" v="1900"/></node><node id="-301" lat="30.145799" lon="-97.804701" changeset="false"><tag k="addr:street" v="Desert Willow Loop"/><tag k="addr:housenumber" v="10600"/></node><node id="-302" lat="30.144664" lon="-97.821172" changeset="false"><tag k="addr:street" v="Sunset Drive"/><tag k="addr:housenumber" v="11610"/></node><node id="-303" lat="30.147328" lon="-97.817726" changeset="false"><tag k="addr:street" v="Circle Drive"/><tag k="addr:housenumber" v="11305"/></node><node id="-304" lat="30.146347" lon="-97.805253" changeset="false"><tag k="addr:street" v="Rose Mallow Way"/><tag k="addr:housenumber" v="105"/></node><node id="-305" lat="30.140586" lon="-97.802592" changeset="false"><tag k="addr:street" v="Old San Antonio Road"/><tag k="addr:housenumber" v="11301"/></node><node id="-306" lat="30.128098" lon="-97.828026" changeset="false"><tag k="addr:street" v="Arroyo Vista Drive"/><tag k="addr:housenumber" v="504"/></node><node id="-307" lat="30.148313" lon="-97.822535" changeset="false"><tag k="addr:street" v="River Oaks Drive"/><tag k="addr:housenumber" v="736"/></node><node id="-308" lat="30.139841" lon="-97.828361" changeset="false"><tag k="addr:street" v="Twin Creeks Road"/><tag k="addr:housenumber" v="12109"/></node><node id="-309" lat="30.146712" lon="-97.815376" changeset="false"><tag k="addr:street" v="Hacienda Drive"/><tag k="addr:housenumber" v="504"/></node><node id="-310" lat="30.13904" lon="-97.822148" changeset="false"><tag k="addr:street" v="Bluebonnet Lane"/><tag k="addr:housenumber" v="11914"/></node><node id="-311" lat="30.139037" lon="-97.821554" changeset="false"><tag k="addr:street" v="Bluebonnet Lane"/><tag k="addr:housenumber" v="11915"/></node><node id="-312" lat="30.14238" lon="-97.818659" changeset="false"><tag k="addr:street" v="Old Manchaca Road"/><tag k="addr:housenumber" v="520"/></node><node id="-313" lat="30.138671" lon="-97.819312" changeset="false"><tag k="addr:street" v="Tunnel Trail"/><tag k="addr:housenumber" v="11910"/></node><node id="-314" lat="30.14468" lon="-97.821829" changeset="false"><tag k="addr:street" v="Sunset Drive"/><tag k="addr:housenumber" v="11618"/></node><node id="-315" lat="30.14677" lon="-97.805113" changeset="false"><tag k="addr:street" v="Rose Mallow Way"/><tag k="addr:housenumber" v="108"/></node><node id="-316" lat="30.14644" lon="-97.805413" changeset="false"><tag k="addr:street" v="Rose Mallow Way"/><tag k="addr:housenumber" v="109"/></node><node id="-317" lat="30.140975" lon="-97.826927" changeset="false"><tag k="addr:street" v="Farm-to-Market Road 1626"/><tag k="addr:housenumber" v="770"/></node><node id="-318" lat="30.142557" lon="-97.816961" changeset="false"><tag k="addr:street" v="Farm-to-Market Road 1626"/><tag k="addr:housenumber" v="500"/></node><node id="-319" lat="30.128871" lon="-97.830358" changeset="false"><tag k="addr:street" v="Scissortail Drive"/><tag k="addr:housenumber" v="12805"/></node><node id="-320" lat="30.128498" lon="-97.824406" changeset="false"><tag k="addr:street" v="Arroyo Vista Drive"/><tag k="addr:housenumber" v="400"/></node><node id="-321" lat="30.136586" lon="-97.820951" changeset="false"><tag k="addr:street" v="Leanna Oaks Loop"/><tag k="addr:housenumber" v="516"/></node><node id="-322" lat="30.143243" lon="-97.820928" changeset="false"><tag k="addr:street" v="Chapel Lane"/><tag k="addr:housenumber" v="11705"/></node><node id="-323" lat="30.135167" lon="-97.829675" changeset="false"><tag k="addr:street" v="Scissortail Drive"/><tag k="addr:housenumber" v="12409"/></node><node id="-324" lat="30.13465" lon="-97.808663" changeset="false"><tag k="addr:street" v="Old San Antonio Road"/><tag k="addr:housenumber" v="11815"/></node><node id="-325" lat="30.141284" lon="-97.822626" changeset="false"><tag k="addr:street" v="Arnold Lane"/><tag k="addr:housenumber" v="11812"/></node><node id="-326" lat="30.140892" lon="-97.804736" changeset="false"><tag k="addr:street" v="Old San Antonio Road"/><tag k="addr:housenumber" v="11308"/></node><node id="-327" lat="30.147142" lon="-97.823003" changeset="false"><tag k="addr:street" v="Chapel Lane"/><tag k="addr:housenumber" v="11404"/></node><node id="-328" lat="30.137576" lon="-97.800319" changeset="false"><tag k="addr:street" v="Onion Creek Parkway"/><tag k="addr:housenumber" v="1901"/></node><node id="-329" lat="30.149542" lon="-97.806433" changeset="false"><tag k="addr:street" v="Mint Julep Drive"/><tag k="addr:housenumber" v="10805"/></node><node id="-330" lat="30.13481" lon="-97.822557" changeset="false"><tag k="addr:street" v="Hickory Ridge Road"/><tag k="addr:housenumber" v="505"/></node><node id="-331" lat="30.134924" lon="-97.829133" changeset="false"><tag k="addr:street" v="Mistletoe Trail"/><tag k="addr:housenumber" v="12503"/></node><node id="-332" lat="30.134364" lon="-97.830776" changeset="false"><tag k="addr:street" v="Scissortail Drive"/><tag k="addr:housenumber" v="12502"/></node><node id="-333" lat="30.150554" lon="-97.806887" changeset="false"><tag k="addr:street" v="Pedigree Drive"/><tag k="addr:housenumber" v="229"/></node><node id="-334" lat="30.134915" lon="-97.827907" changeset="false"><tag k="addr:street" v="Twin Creeks Road"/><tag k="addr:housenumber" v="12403"/></node><node id="-335" lat="30.146734" lon="-97.814225" changeset="false"><tag k="addr:street" v="River Oaks Drive"/><tag k="addr:housenumber" v="504"/></node><node id="-336" lat="30.144786" lon="-97.806482" changeset="false"><tag k="addr:street" v="Desert Willow Loop"/><tag k="addr:housenumber" v="11125"/></node><node id="-337" lat="30.139894" lon="-97.828364" changeset="false"><tag k="addr:street" v="Twin Creeks Road"/><tag k="addr:housenumber" v="12107"/></node><node id="-338" lat="30.136042" lon="-97.821912" changeset="false"><tag k="addr:street" v="Leanna Oaks Loop"/><tag k="addr:housenumber" v="531"/></node><node id="-339" lat="30.141897" lon="-97.798738" changeset="false"><tag k="addr:street" v="Farm-to-Market Road 1626"/><tag k="addr:housenumber" v="622 1/2"/></node><node id="-340" lat="30.133417" lon="-97.822291" changeset="false"><tag k="addr:street" v="Twin Creek Park Drive"/><tag k="addr:housenumber" v="12304"/></node><node id="-341" lat="30.146894" lon="-97.806105" changeset="false"><tag k="addr:street" v="Rose Mallow Way"/><tag k="addr:housenumber" v="204"/></node><node id="-342" lat="30.143418" lon="-97.804643" changeset="false"><tag k="addr:street" v="Farm-to-Market Road 1626"/><tag k="addr:housenumber" v="221"/></node><node id="-343" lat="30.152297" lon="-97.79689" changeset="false"><tag k="addr:street" v="Old San Antonio Road"/><tag k="addr:housenumber" v="10301"/></node><node id="-344" lat="30.148252" lon="-97.819086" changeset="false"><tag k="addr:street" v="Lake Drive"/><tag k="addr:housenumber" v="11303"/></node><node id="-345" lat="30.133671" lon="-97.827342" changeset="false"><tag k="addr:street" v="Twin Creeks Road"/><tag k="addr:housenumber" v="12410"/></node><node id="-346" lat="30.135442" lon="-97.821091" changeset="false"><tag k="addr:street" v="Hickory Ridge Road"/><tag k="addr:housenumber" v="418"/></node><node id="-347" lat="30.135414" lon="-97.822037" changeset="false"><tag k="addr:street" v="Hickory Ridge Road"/><tag k="addr:housenumber" v="502"/></node><node id="-348" lat="30.149057" lon="-97.819039" changeset="false"><tag k="addr:street" v="River Oaks Drive"/><tag k="addr:housenumber" v="708"/></node><node id="-349" lat="30.129584" lon="-97.830408" changeset="false"><tag k="addr:street" v="Scissortail Drive"/><tag k="addr:housenumber" v="12801"/></node><node id="-350" lat="30.129306" lon="-97.826036" changeset="false"><tag k="addr:street" v="Mistletoe Trail"/><tag k="addr:housenumber" v="12612"/></node><node id="-351" lat="30.133951" lon="-97.825834" changeset="false"><tag k="addr:street" v="Elm Valley Drive"/><tag k="addr:housenumber" v="12304"/></node><node id="-352" lat="30.147065" lon="-97.814212" changeset="false"><tag k="addr:street" v="River Oaks Drive"/><tag k="addr:housenumber" v="508"/></node><node id="-353" lat="30.14653" lon="-97.819848" changeset="false"><tag k="addr:street" v="Hunting Creek Lane"/><tag k="addr:housenumber" v="11405"/></node><node id="-354" lat="30.132723" lon="-97.828607" changeset="false"><tag k="addr:street" v="Mistletoe Trail"/><tag k="addr:housenumber" v="12516"/></node><node id="-355" lat="30.132014" lon="-97.825427" changeset="false"><tag k="addr:street" v="Twin Creeks Road"/><tag k="addr:housenumber" v="12503"/></node><node id="-356" lat="30.131554" lon="-97.824761" changeset="false"><tag k="addr:street" v="Twin Creeks Road"/><tag k="addr:housenumber" v="12507"/></node><node id="-357" lat="30.132068" lon="-97.82652" changeset="false"><tag k="addr:street" v="Twin Creeks Road"/><tag k="addr:housenumber" v="12500"/></node><node id="-358" lat="30.131868" lon="-97.823841" changeset="false"><tag k="addr:street" v="Twin Creek Drive,1100"/><tag k="addr:housenumber" v="12502"/></node><node id="-359" lat="30.131755" lon="-97.82709" changeset="false"><tag k="addr:street" v="Mistletoe Trail"/><tag k="addr:housenumber" v="12601"/></node><node id="-360" lat="30.146516" lon="-97.81197" changeset="false"><tag k="addr:street" v="Middle Ground Cove"/><tag k="addr:housenumber" v="328"/></node><node id="-361" lat="30.141357" lon="-97.803931" changeset="false"><tag k="addr:street" v="Old San Antonio Road"/><tag k="addr:housenumber" v="11300"/></node><node id="-362" lat="30.14929" lon="-97.81093" changeset="false"><tag k="addr:street" v="Real Quiet Drive"/><tag k="addr:housenumber" v="11101"/></node><node id="-363" lat="30.13076" lon="-97.825168" changeset="false"><tag k="addr:street" v="Twin Creeks Road"/><tag k="addr:housenumber" v="12508"/></node><node id="-364" lat="30.131313" lon="-97.82437" changeset="false"><tag k="addr:street" v="Twin Creeks Road"/><tag k="addr:housenumber" v="12509"/></node><node id="-365" lat="30.144619" lon="-97.812588" changeset="false"><tag k="addr:street" v="San Leanna Drive"/><tag k="addr:housenumber" v="323"/></node><node id="-366" lat="30.14936" lon="-97.807934" changeset="false"><tag k="addr:street" v="Colonel Winn Loop"/><tag k="addr:housenumber" v="10929"/></node><node id="-367" lat="30.149009" lon="-97.808702" changeset="false"><tag k="addr:street" v="Colonel Winn Loop"/><tag k="addr:housenumber" v="10956"/></node><node id="-368" lat="30.136265" lon="-97.830327" changeset="false"><tag k="addr:street" v="Morning Dove Cove"/><tag k="addr:housenumber" v="723"/></node><node id="-369" lat="30.145771" lon="-97.812898" changeset="false"><tag k="addr:street" v="Racetrack Drive"/><tag k="addr:housenumber" v="420"/></node><node id="-370" lat="30.145438" lon="-97.812899" changeset="false"><tag k="addr:street" v="Racetrack Drive"/><tag k="addr:housenumber" v="428"/></node><node id="-371" lat="30.145464" lon="-97.820588" changeset="false"><tag k="addr:street" v="Hunting Creek Lane"/><tag k="addr:housenumber" v="11505"/></node><node id="-372" lat="30.151556" lon="-97.806065" changeset="false"><tag k="addr:street" v="Trophy Pass"/><tag k="addr:housenumber" v="225"/></node><node id="-373" lat="30.137885" lon="-97.821502" changeset="false"><tag k="addr:street" v="Bluebonnet Lane"/><tag k="addr:housenumber" v="12005"/></node><node id="-374" lat="30.139293" lon="-97.828321" changeset="false"><tag k="addr:street" v="Twin Creeks Road"/><tag k="addr:housenumber" v="12121"/></node><node id="-375" lat="30.132044" lon="-97.822137" changeset="false"><tag k="addr:street" v="Twin Creek Park Drive"/><tag k="addr:housenumber" v="12401"/></node><node id="-376" lat="30.140374" lon="-97.825276" changeset="false"><tag k="addr:street" v="Farm-to-Market Road 1626"/><tag k="addr:housenumber" v="721"/></node><node id="-377" lat="30.144361" lon="-97.801348" changeset="false"><tag k="addr:street" v="Old San Antonio Road"/><tag k="addr:housenumber" v="11012"/></node><node id="-378" lat="30.137161" lon="-97.797897" changeset="false"><tag k="addr:street" v="Interstate 35 Frontage Road"/><tag k="addr:housenumber" v="11400"/></node><node id="-379" lat="30.150873" lon="-97.805906" changeset="false"><tag k="addr:street" v="Pedigree Cove"/><tag k="addr:housenumber" v="10700"/></node><node id="-380" lat="30.144886" lon="-97.808737" changeset="false"><tag k="addr:street" v="Farm-to-Market Road 1626"/><tag k="addr:housenumber" v="202 1/2"/></node><node id="-381" lat="30.12981" lon="-97.826788" changeset="false"><tag k="addr:street" v="Mistletoe Trail"/><tag k="addr:housenumber" v="12608"/></node><node id="-382" lat="30.128621" lon="-97.823782" changeset="false"><tag k="addr:street" v="Arroyo Vista Drive"/><tag k="addr:housenumber" v="302"/></node><node id="-383" lat="30.128479" lon="-97.828964" changeset="false"><tag k="addr:street" v="Arroyo Vista Drive"/><tag k="addr:housenumber" v="600"/></node><node id="-384" lat="30.147512" lon="-97.808368" changeset="false"><tag k="addr:street" v="Mint Julep Drive"/><tag k="addr:housenumber" v="11025"/></node><node id="-385" lat="30.13417" lon="-97.829158" changeset="false"><tag k="addr:street" v="Mistletoe Trail"/><tag k="addr:housenumber" v="12504"/></node><node id="-386" lat="30.133924" lon="-97.827919" changeset="false"><tag k="addr:street" v="Twin Creeks Road"/><tag k="addr:housenumber" v="12408"/></node><node id="-387" lat="30.136995" lon="-97.828828" changeset="false"><tag k="addr:street" v="Twin Creeks Road"/><tag k="addr:housenumber" v="12228"/></node><node id="-388" lat="30.145708" lon="-97.794806" changeset="false"><tag k="addr:street" v="Interstate 35 Frontage Road"/><tag k="addr:housenumber" v="10730"/></node><node id="-389" lat="30.144871" lon="-97.808144" changeset="false"><tag k="addr:street" v="Farm-to-Market Road 1626"/><tag k="addr:housenumber" v="204"/></node><node id="-390" lat="30.146403" lon="-97.814239" changeset="false"><tag k="addr:street" v="River Oaks Drive"/><tag k="addr:housenumber" v="500"/></node><node id="-391" lat="30.149921" lon="-97.807702" changeset="false"><tag k="addr:street" v="Colonel Winn Loop"/><tag k="addr:housenumber" v="10920"/></node><node id="-392" lat="30.153636" lon="-97.804907" changeset="false"><tag k="addr:street" v="Thoroughbred Drive"/><tag k="addr:housenumber" v="10504"/></node><node id="-393" lat="30.13676" lon="-97.830526" changeset="false"><tag k="addr:street" v="Morning Dove Cove"/><tag k="addr:housenumber" v="724"/></node><node id="-394" lat="30.145976" lon="-97.821137" changeset="false"><tag k="addr:street" v="Hunting Creek Lane"/><tag k="addr:housenumber" v="11504"/></node><node id="-395" lat="30.151646" lon="-97.805021" changeset="false"><tag k="addr:street" v="Trophy Cove"/><tag k="addr:housenumber" v="10704"/></node><node id="-396" lat="30.134676" lon="-97.824901" changeset="false"><tag k="addr:street" v="Hickory Ridge Road"/><tag k="addr:housenumber" v="605"/></node><node id="-397" lat="30.138326" lon="-97.828605" changeset="false"><tag k="addr:street" v="Twin Creeks Road"/><tag k="addr:housenumber" v="12220"/></node><node id="-398" lat="30.148815" lon="-97.82683" changeset="false"><tag k="addr:street" v="Chappell Lane"/><tag k="addr:housenumber" v="1213"/></node><node id="-399" lat="30.152229" lon="-97.812032" changeset="false"><tag k="addr:street" v="Paul Jones Pass"/><tag k="addr:housenumber" v="512"/></node><node id="-400" lat="30.137286" lon="-97.821497" changeset="false"><tag k="addr:street" v="Bluebonnet Lane"/><tag k="addr:housenumber" v="12013"/></node><node id="-401" lat="30.131389" lon="-97.82681" changeset="false"><tag k="addr:street" v="Mistletoe Trail"/><tag k="addr:housenumber" v="12603"/></node><node id="-402" lat="30.130922" lon="-97.827546" changeset="false"><tag k="addr:street" v="Mistletoe Trail"/><tag k="addr:housenumber" v="12602"/></node><node id="-403" lat="30.143265" lon="-97.804562" changeset="false"><tag k="addr:street" v="Farm-to-Market Road 1626"/><tag k="addr:housenumber" v="221 1/2"/></node><node id="-404" lat="30.133083" lon="-97.831096" changeset="false"><tag k="addr:street" v="Scissortail Drive"/><tag k="addr:housenumber" v="12600"/></node><node id="-405" lat="30.141057" lon="-97.823514" changeset="false"><tag k="addr:street" v="Old Manchaca Road"/><tag k="addr:housenumber" v="694"/></node><node id="-406" lat="30.136376" lon="-97.807674" changeset="false"><tag k="addr:street" v="Old San Antonio Road"/><tag k="addr:housenumber" v="11704"/></node><node id="-407" lat="30.135116" lon="-97.830506" changeset="false"><tag k="addr:street" v="Morning Dove Cove"/><tag k="addr:housenumber" v="711"/></node><node id="-408" lat="30.147468" lon="-97.811594" changeset="false"><tag k="addr:street" v="Racetrack Drive"/><tag k="addr:housenumber" v="300 1/2"/></node><node id="-409" lat="30.134243" lon="-97.824988" changeset="false"><tag k="addr:street" v="Elm Valley Drive"/><tag k="addr:housenumber" v="12303"/></node><node id="-410" lat="30.136073" lon="-97.819761" changeset="false"><tag k="addr:street" v="Leanna Oaks Loop"/><tag k="addr:housenumber" v="501"/></node><node id="-411" lat="30.135449" lon="-97.821406" changeset="false"><tag k="addr:street" v="Hickory Ridge Road"/><tag k="addr:housenumber" v="420"/></node><node id="-412" lat="30.152152" lon="-97.805882" changeset="false"><tag k="addr:street" v="Trophy Pass"/><tag k="addr:housenumber" v="228"/></node><node id="-413" lat="30.145596" lon="-97.811423" changeset="false"><tag k="addr:street" v="Jockey Bluff Drive"/><tag k="addr:housenumber" v="11216"/></node><node id="-414" lat="30.130538" lon="-97.826163" changeset="false"><tag k="addr:street" v="Mistletoe Trail"/><tag k="addr:housenumber" v="12607"/></node><node id="-415" lat="30.130185" lon="-97.825692" changeset="false"><tag k="addr:street" v="Mistletoe Trail"/><tag k="addr:housenumber" v="12609"/></node><node id="-416" lat="30.129881" lon="-97.83039" changeset="false"><tag k="addr:street" v="Scissortail Drive"/><tag k="addr:housenumber" v="12711"/></node><node id="-417" lat="30.146287" lon="-97.820062" changeset="false"><tag k="addr:street" v="Hunting Creek Lane"/><tag k="addr:housenumber" v="11407"/></node><node id="-418" lat="30.145708" lon="-97.811007" changeset="false"><tag k="addr:street" v="Jockey Bluff Drive"/><tag k="addr:housenumber" v="11208"/></node><node id="-419" lat="30.134408" lon="-97.822654" changeset="false"><tag k="addr:street" v="Twin Creek Cove"/><tag k="addr:housenumber" v="404"/></node><node id="-420" lat="30.148597" lon="-97.808606" changeset="false"><tag k="addr:street" v="Colonel Winn Loop"/><tag k="addr:housenumber" v="10957"/></node><node id="-421" lat="30.148255" lon="-97.811235" changeset="false"><tag k="addr:street" v="Real Quiet Drive"/><tag k="addr:housenumber" v="11205"/></node><node id="-422" lat="30.132873" lon="-97.827756" changeset="false"><tag k="addr:street" v="Mistletoe Trail"/><tag k="addr:housenumber" v="12517"/></node><node id="-423" lat="30.13867" lon="-97.802613" changeset="false"><tag k="addr:street" v="Onion Creek Parkway"/><tag k="addr:housenumber" v="1700"/></node><node id="-424" lat="30.132015" lon="-97.831328" changeset="false"><tag k="addr:street" v="Scissortail Drive"/><tag k="addr:housenumber" v="12606"/></node><node id="-425" lat="30.147102" lon="-97.805126" changeset="false"><tag k="addr:street" v="Desert Willow Loop"/><tag k="addr:housenumber" v="10725"/></node><node id="-426" lat="30.146731" lon="-97.804311" changeset="false"><tag k="addr:street" v="Desert Willow Loop"/><tag k="addr:housenumber" v="10628"/></node><node id="-427" lat="30.130982" lon="-97.826547" changeset="false"><tag k="addr:street" v="Mistletoe Trail"/><tag k="addr:housenumber" v="12605"/></node><node id="-428" lat="30.127748" lon="-97.823038" changeset="false"><tag k="addr:street" v="Arroyo Vista Drive"/><tag k="addr:housenumber" v="301"/></node><node id="-429" lat="30.127586" lon="-97.831495" changeset="false"><tag k="addr:street" v="Scissortail Drive"/><tag k="addr:housenumber" v="12812"/></node><node id="-430" lat="30.145948" lon="-97.812916" changeset="false"><tag k="addr:street" v="Racetrack Drive"/><tag k="addr:housenumber" v="416"/></node><node id="-431" lat="30.145279" lon="-97.822084" changeset="false"><tag k="addr:street" v="Hunting Creek Lane"/><tag k="addr:housenumber" v="11515"/></node><node id="-432" lat="30.140837" lon="-97.823897" changeset="false"><tag k="addr:street" v="Farm-to-Market Road 1626"/><tag k="addr:housenumber" v="700"/></node><node id="-433" lat="30.140675" lon="-97.822155" changeset="false"><tag k="addr:street" v="Farm-to-Market Road 1626"/><tag k="addr:housenumber" v="647"/></node><node id="-434" lat="30.147181" lon="-97.806875" changeset="false"><tag k="addr:street" v="Desert Willow Loop"/><tag k="addr:housenumber" v="11005"/></node><node id="-435" lat="30.134136" lon="-97.809258" changeset="false"><tag k="addr:street" v="Old San Antonio Road"/><tag k="addr:housenumber" v="11904"/></node><node id="-436" lat="30.139887" lon="-97.819249" changeset="false"><tag k="addr:street" v="Tunnel Trail"/><tag k="addr:housenumber" v="11808"/></node><node id="-437" lat="30.142976" lon="-97.80447" changeset="false"><tag k="addr:street" v="Conroy Lane"/><tag k="addr:housenumber" v="11209"/></node><node id="-438" lat="30.142903" lon="-97.804389" changeset="false"><tag k="addr:street" v="Farm-to-Market Road 1626"/><tag k="addr:housenumber" v="303"/></node></osm>