<?xml version="1.0" encoding="UTF-8"?><osm version="0.6" generator="github.com/aaronlidman/osm-and-geojson"><node id="-1" lat="30.188655" lon="-97.750183" changeset="false"><tag k="addr:street" v="Dovemeadow Drive"/><tag k="addr:housenumber" v="4506 1/2"/><tag k="coa:place_id" v="3354577"/></node><node id="-2" lat="30.193589" lon="-97.747171" changeset="false"><tag k="addr:street" v="East Stassney Lane"/><tag k="addr:housenumber" v="2523"/><tag k="coa:place_id" v="112695"/></node><node id="-3" lat="30.193676" lon="-97.744912" changeset="false"><tag k="addr:street" v="East Stassney Lane"/><tag k="addr:housenumber" v="4605"/><tag k="coa:place_id" v="696435"/></node><node id="-4" lat="30.191056" lon="-97.744919" changeset="false"><tag k="addr:street" v="Palo Blanco Lane"/><tag k="addr:housenumber" v="5743"/><tag k="coa:place_id" v="957962"/></node><node id="-5" lat="30.193342" lon="-97.744881" changeset="false"><tag k="addr:street" v="Village Lane"/><tag k="addr:housenumber" v="5400"/><tag k="coa:place_id" v="696441"/></node></osm>