<?xml version="1.0" encoding="UTF-8"?><osm version="0.6" generator="github.com/aaronlidman/osm-and-geojson"><node id="-1" lat="30.270478" lon="-97.697762" changeset="false"><tag k="addr:street" v="Bengston Street"/><tag k="addr:housenumber" v="3312"/><tag k="addr:postcode" v="78702"/></node><node id="-2" lat="30.270527" lon="-97.697907" changeset="false"><tag k="addr:street" v="Bengston Street"/><tag k="addr:housenumber" v="3310"/><tag k="addr:postcode" v="78702"/></node><node id="-3" lat="30.269698" lon="-97.697118" changeset="false"><tag k="addr:street" v="Airport Boulevard"/><tag k="addr:housenumber" v="1136"/><tag k="addr:postcode" v="78702"/></node><node id="-4" lat="30.269141" lon="-97.697363" changeset="false"><tag k="addr:street" v="Kay Street"/><tag k="addr:housenumber" v="3501"/><tag k="addr:postcode" v="78702"/></node><node id="-5" lat="30.269647" lon="-97.697738" changeset="false"><tag k="addr:street" v="Kay Street"/><tag k="addr:housenumber" v="3402"/><tag k="addr:postcode" v="78702"/></node><node id="-6" lat="30.26929" lon="-97.697808" changeset="false"><tag k="addr:street" v="Kay Street"/><tag k="addr:housenumber" v="3405"/><tag k="addr:postcode" v="78702"/></node><node id="-7" lat="30.269238" lon="-97.697662" changeset="false"><tag k="addr:street" v="Kay Street"/><tag k="addr:housenumber" v="3407"/><tag k="addr:postcode" v="78702"/></node><node id="-8" lat="30.269989" lon="-97.697797" changeset="false"><tag k="addr:street" v="Bengston Street"/><tag k="addr:housenumber" v="3401"/><tag k="addr:postcode" v="78702"/></node><node id="-9" lat="30.269183" lon="-97.697519" changeset="false"><tag k="addr:street" v="Kay Street"/><tag k="addr:housenumber" v="3409"/><tag k="addr:postcode" v="78702"/></node><node id="-10" lat="30.26908" lon="-97.697206" changeset="false"><tag k="addr:street" v="Kay Street"/><tag k="addr:housenumber" v="3503"/><tag k="addr:postcode" v="78702"/></node><node id="-11" lat="30.268353" lon="-97.697696" changeset="false"><tag k="addr:street" v="Goodwin Avenue"/><tag k="addr:housenumber" v="3503"/><tag k="addr:postcode" v="78702"/></node><node id="-12" lat="30.268412" lon="-97.69787" changeset="false"><tag k="addr:street" v="Goodwin Avenue"/><tag k="addr:housenumber" v="3501"/><tag k="addr:postcode" v="78702"/></node><node id="-13" lat="30.268292" lon="-97.697524" changeset="false"><tag k="addr:street" v="Goodwin Avenue"/><tag k="addr:housenumber" v="3505"/><tag k="addr:postcode" v="78702"/></node><node id="-14" lat="30.268754" lon="-97.69754" changeset="false"><tag k="addr:street" v="Goodwin Avenue"/><tag k="addr:housenumber" v="3502"/><tag k="addr:postcode" v="78702"/></node><node id="-15" lat="30.268701" lon="-97.697383" changeset="false"><tag k="addr:street" v="Goodwin Avenue"/><tag k="addr:housenumber" v="3504"/><tag k="addr:postcode" v="78702"/></node><node id="-16" lat="30.268804" lon="-97.697691" changeset="false"><tag k="addr:street" v="Goodwin Avenue"/><tag k="addr:housenumber" v="3500"/><tag k="addr:postcode" v="78702"/></node><node id="-17" lat="30.268851" lon="-97.697829" changeset="false"><tag k="addr:street" v="Goodwin Avenue"/><tag k="addr:housenumber" v="3406"/><tag k="addr:postcode" v="78702"/></node><node id="-18" lat="30.267991" lon="-97.697635" changeset="false"><tag k="addr:street" v="Charles Street"/><tag k="addr:housenumber" v="3504"/><tag k="addr:postcode" v="78702"/></node><node id="-19" lat="30.26732" lon="-97.69754" changeset="false"><tag k="addr:street" v="Gunter Street"/><tag k="addr:housenumber" v="1129"/><tag k="addr:postcode" v="78702"/></node><node id="-20" lat="30.267685" lon="-97.697862" changeset="false"><tag k="addr:street" v="Charles Street"/><tag k="addr:housenumber" v="3505"/><tag k="addr:postcode" v="78702"/></node><node id="-21" lat="30.267087" lon="-97.697632" changeset="false"><tag k="addr:street" v="Gunter Street"/><tag k="addr:housenumber" v="1127"/><tag k="addr:postcode" v="78702"/></node><node id="-22" lat="30.268065" lon="-97.697854" changeset="false"><tag k="addr:street" v="Charles Street"/><tag k="addr:housenumber" v="3502"/><tag k="addr:postcode" v="78702"/></node><node id="-23" lat="30.266843" lon="-97.697806" changeset="false"><tag k="addr:street" v="Gunter Street"/><tag k="addr:housenumber" v="1123 3/4"/><tag k="addr:postcode" v="78702"/></node><node id="-24" lat="30.267196" lon="-97.697585" changeset="false"><tag k="addr:street" v="Gunter Street"/><tag k="addr:housenumber" v="1127 1/2"/><tag k="addr:postcode" v="78702"/></node><node id="-25" lat="30.26768" lon="-97.696524" changeset="false"><tag k="addr:street" v="Airport Boulevard"/><tag k="addr:housenumber" v="1130"/><tag k="addr:postcode" v="78702"/></node><node id="-26" lat="30.267683" lon="-97.697212" changeset="false"><tag k="addr:street" v="Gunter Street"/><tag k="addr:housenumber" v="1135"/><tag k="addr:postcode" v="78702"/></node><node id="-27" lat="30.268079" lon="-97.696952" changeset="false"><tag k="addr:street" v="Goodwin Avenue"/><tag k="addr:housenumber" v="3603"/><tag k="addr:postcode" v="78702"/></node><node id="-28" lat="30.268164" lon="-97.697176" changeset="false"><tag k="addr:street" v="Goodwin Avenue"/><tag k="addr:housenumber" v="3601"/><tag k="addr:postcode" v="78702"/></node><node id="-29" lat="30.270582" lon="-97.698045" changeset="false"><tag k="addr:street" v="Bengston Street"/><tag k="addr:housenumber" v="3308"/><tag k="addr:postcode" v="78702"/></node><node id="-30" lat="30.270339" lon="-97.698504" changeset="false"><tag k="addr:street" v="Bengston Street"/><tag k="addr:housenumber" v="3305"/><tag k="addr:postcode" v="78702"/></node><node id="-31" lat="30.270294" lon="-97.69835" changeset="false"><tag k="addr:street" v="Bengston Street"/><tag k="addr:housenumber" v="3307"/><tag k="addr:postcode" v="78702"/></node><node id="-32" lat="30.270635" lon="-97.698215" changeset="false"><tag k="addr:street" v="Bengston Street"/><tag k="addr:housenumber" v="3306"/><tag k="addr:postcode" v="78702"/></node><node id="-33" lat="30.270743" lon="-97.698503" changeset="false"><tag k="addr:street" v="Bengston Street"/><tag k="addr:housenumber" v="3302"/><tag k="addr:postcode" v="78702"/></node><node id="-34" lat="30.27068" lon="-97.698358" changeset="false"><tag k="addr:street" v="Bengston Street"/><tag k="addr:housenumber" v="3304"/><tag k="addr:postcode" v="78702"/></node><node id="-35" lat="30.272206" lon="-97.698058" changeset="false"><tag k="addr:street" v="Airport Boulevard"/><tag k="addr:housenumber" v="1144"/><tag k="addr:postcode" v="78702"/></node><node id="-36" lat="30.269343" lon="-97.697961" changeset="false"><tag k="addr:street" v="Kay Street"/><tag k="addr:housenumber" v="3403"/><tag k="addr:postcode" v="78702"/></node><node id="-37" lat="30.269387" lon="-97.698076" changeset="false"><tag k="addr:street" v="Kay Street"/><tag k="addr:housenumber" v="3401"/><tag k="addr:postcode" v="78702"/></node><node id="-38" lat="30.269813" lon="-97.698231" changeset="false"><tag k="addr:street" v="Kay Street"/><tag k="addr:housenumber" v="3310"/><tag k="addr:postcode" v="78702"/></node><node id="-39" lat="30.269489" lon="-97.698387" changeset="false"><tag k="addr:street" v="Kay Street"/><tag k="addr:housenumber" v="3309"/><tag k="addr:postcode" v="78702"/></node><node id="-40" lat="30.269918" lon="-97.698521" changeset="false"><tag k="addr:street" v="Kay Street"/><tag k="addr:housenumber" v="3306"/><tag k="addr:postcode" v="78702"/></node><node id="-41" lat="30.269545" lon="-97.698533" changeset="false"><tag k="addr:street" v="Kay Street"/><tag k="addr:housenumber" v="3307"/><tag k="addr:postcode" v="78702"/></node><node id="-42" lat="30.269766" lon="-97.69808" changeset="false"><tag k="addr:street" v="Kay Street"/><tag k="addr:housenumber" v="3312"/><tag k="addr:postcode" v="78702"/></node><node id="-43" lat="30.26944" lon="-97.698241" changeset="false"><tag k="addr:street" v="Kay Street"/><tag k="addr:housenumber" v="3311"/><tag k="addr:postcode" v="78702"/></node><node id="-44" lat="30.26986" lon="-97.698367" changeset="false"><tag k="addr:street" v="Kay Street"/><tag k="addr:housenumber" v="3308"/><tag k="addr:postcode" v="78702"/></node><node id="-45" lat="30.270171" lon="-97.698075" changeset="false"><tag k="addr:street" v="Bengston Street"/><tag k="addr:housenumber" v="3311"/><tag k="addr:postcode" v="78702"/></node><node id="-46" lat="30.270113" lon="-97.697931" changeset="false"><tag k="addr:street" v="Bengston Street"/><tag k="addr:housenumber" v="3313"/><tag k="addr:postcode" v="78702"/></node><node id="-47" lat="30.269711" lon="-97.697935" changeset="false"><tag k="addr:street" v="Kay Street"/><tag k="addr:housenumber" v="3400"/><tag k="addr:postcode" v="78702"/></node><node id="-48" lat="30.27022" lon="-97.698223" changeset="false"><tag k="addr:street" v="Bengston Street"/><tag k="addr:housenumber" v="3309"/><tag k="addr:postcode" v="78702"/></node><node id="-49" lat="30.268497" lon="-97.698034" changeset="false"><tag k="addr:street" v="Goodwin Avenue"/><tag k="addr:housenumber" v="3407"/><tag k="addr:postcode" v="78702"/></node><node id="-50" lat="30.268545" lon="-97.698181" changeset="false"><tag k="addr:street" v="Goodwin Avenue"/><tag k="addr:housenumber" v="3405"/><tag k="addr:postcode" v="78702"/></node><node id="-51" lat="30.268603" lon="-97.698356" changeset="false"><tag k="addr:street" v="Goodwin Avenue"/><tag k="addr:housenumber" v="3403"/><tag k="addr:postcode" v="78702"/></node><node id="-52" lat="30.268954" lon="-97.698143" changeset="false"><tag k="addr:street" v="Goodwin Avenue"/><tag k="addr:housenumber" v="3402"/><tag k="addr:postcode" v="78702"/></node><node id="-53" lat="30.269061" lon="-97.698417" changeset="false"><tag k="addr:street" v="Goodwin Avenue"/><tag k="addr:housenumber" v="3310"/><tag k="addr:postcode" v="78702"/></node><node id="-54" lat="30.2689" lon="-97.697972" changeset="false"><tag k="addr:street" v="Goodwin Avenue"/><tag k="addr:housenumber" v="3404"/><tag k="addr:postcode" v="78702"/></node><node id="-55" lat="30.268661" lon="-97.698503" changeset="false"><tag k="addr:street" v="Goodwin Avenue"/><tag k="addr:housenumber" v="3401"/><tag k="addr:postcode" v="78702"/></node><node id="-56" lat="30.269116" lon="-97.69857" changeset="false"><tag k="addr:street" v="Goodwin Avenue"/><tag k="addr:housenumber" v="3308"/><tag k="addr:postcode" v="78702"/></node><node id="-57" lat="30.267497" lon="-97.697929" changeset="false"><tag k="addr:street" v="Gunter Street"/><tag k="addr:housenumber" v="1128"/><tag k="addr:postcode" v="78702"/></node><node id="-58" lat="30.266802" lon="-97.698264" changeset="false"><tag k="addr:street" v="Gunter Street"/><tag k="addr:housenumber" v="1122 1/2"/><tag k="addr:postcode" v="78702"/></node><node id="-59" lat="30.266931" lon="-97.698188" changeset="false"><tag k="addr:street" v="Gunter Street"/><tag k="addr:housenumber" v="1122 3/4"/><tag k="addr:postcode" v="78702"/></node><node id="-60" lat="30.267805" lon="-97.698212" changeset="false"><tag k="addr:street" v="Charles Street"/><tag k="addr:housenumber" v="3501"/><tag k="addr:postcode" v="78702"/></node><node id="-61" lat="30.267746" lon="-97.698027" changeset="false"><tag k="addr:street" v="Charles Street"/><tag k="addr:housenumber" v="3503"/><tag k="addr:postcode" v="78702"/></node><node id="-62" lat="30.267195" lon="-97.698086" changeset="false"><tag k="addr:street" v="Gunter Street"/><tag k="addr:housenumber" v="1126"/><tag k="addr:postcode" v="78702"/></node><node id="-63" lat="30.267873" lon="-97.698417" changeset="false"><tag k="addr:street" v="Charles Street"/><tag k="addr:housenumber" v="3407"/><tag k="addr:postcode" v="78702"/></node><node id="-64" lat="30.268234" lon="-97.698335" changeset="false"><tag k="addr:street" v="Charles Street"/><tag k="addr:housenumber" v="3404"/><tag k="addr:postcode" v="78702"/></node><node id="-65" lat="30.268179" lon="-97.698175" changeset="false"><tag k="addr:street" v="Charles Street"/><tag k="addr:housenumber" v="3406"/><tag k="addr:postcode" v="78702"/></node><node id="-66" lat="30.26812" lon="-97.698013" changeset="false"><tag k="addr:street" v="Charles Street"/><tag k="addr:housenumber" v="3500"/><tag k="addr:postcode" v="78702"/></node><node id="-67" lat="30.270472" lon="-97.698952" changeset="false"><tag k="addr:street" v="Bengston Street"/><tag k="addr:housenumber" v="3211"/><tag k="addr:postcode" v="78702"/></node><node id="-68" lat="30.270522" lon="-97.699109" changeset="false"><tag k="addr:street" v="Bengston Street"/><tag k="addr:housenumber" v="3209"/><tag k="addr:postcode" v="78702"/></node><node id="-69" lat="30.270793" lon="-97.698634" changeset="false"><tag k="addr:street" v="Bengston Street"/><tag k="addr:housenumber" v="3300"/><tag k="addr:postcode" v="78702"/></node><node id="-70" lat="30.271008" lon="-97.699225" changeset="false"><tag k="addr:street" v="Bengston Street"/><tag k="addr:housenumber" v="3204"/><tag k="addr:postcode" v="78702"/></node><node id="-71" lat="30.27058" lon="-97.699251" changeset="false"><tag k="addr:street" v="Bengston Street"/><tag k="addr:housenumber" v="3207"/><tag k="addr:postcode" v="78702"/></node><node id="-72" lat="30.272884" lon="-97.698592" changeset="false"><tag k="addr:street" v="Airport Boulevard"/><tag k="addr:housenumber" v="1148"/><tag k="addr:postcode" v="78702"/></node><node id="-73" lat="30.270953" lon="-97.699078" changeset="false"><tag k="addr:street" v="Bengston Street"/><tag k="addr:housenumber" v="3206"/><tag k="addr:postcode" v="78702"/></node><node id="-74" lat="30.270906" lon="-97.698934" changeset="false"><tag k="addr:street" v="Bengston Street"/><tag k="addr:housenumber" v="3208"/><tag k="addr:postcode" v="78702"/></node><node id="-75" lat="30.269974" lon="-97.698676" changeset="false"><tag k="addr:street" v="Kay Street"/><tag k="addr:housenumber" v="3304"/><tag k="addr:postcode" v="78702"/></node><node id="-76" lat="30.270079" lon="-97.698962" changeset="false"><tag k="addr:street" v="Kay Street"/><tag k="addr:housenumber" v="3300"/><tag k="addr:postcode" v="78702"/></node><node id="-77" lat="30.270026" lon="-97.698824" changeset="false"><tag k="addr:street" v="Kay Street"/><tag k="addr:housenumber" v="3302"/><tag k="addr:postcode" v="78702"/></node><node id="-78" lat="30.270142" lon="-97.699106" changeset="false"><tag k="addr:street" v="Kay Street"/><tag k="addr:housenumber" v="3210"/><tag k="addr:postcode" v="78702"/></node><node id="-79" lat="30.269757" lon="-97.699234" changeset="false"><tag k="addr:street" v="Kay Street"/><tag k="addr:housenumber" v="3211"/><tag k="addr:postcode" v="78702"/></node><node id="-80" lat="30.270201" lon="-97.699275" changeset="false"><tag k="addr:street" v="Kay Street"/><tag k="addr:housenumber" v="3208"/><tag k="addr:postcode" v="78702"/></node><node id="-81" lat="30.27038" lon="-97.698644" changeset="false"><tag k="addr:street" v="Bengston Street"/><tag k="addr:housenumber" v="3303"/><tag k="addr:postcode" v="78702"/></node><node id="-82" lat="30.270422" lon="-97.698802" changeset="false"><tag k="addr:street" v="Bengston Street"/><tag k="addr:housenumber" v="3301"/><tag k="addr:postcode" v="78702"/></node><node id="-83" lat="30.268733" lon="-97.698678" changeset="false"><tag k="addr:street" v="Goodwin Avenue"/><tag k="addr:housenumber" v="3311"/><tag k="addr:postcode" v="78702"/></node><node id="-84" lat="30.268785" lon="-97.698892" changeset="false"><tag k="addr:street" v="Goodwin Avenue"/><tag k="addr:housenumber" v="3309"/><tag k="addr:postcode" v="78702"/></node><node id="-85" lat="30.269208" lon="-97.698878" changeset="false"><tag k="addr:street" v="Goodwin Avenue"/><tag k="addr:housenumber" v="3304"/><tag k="addr:postcode" v="78702"/></node><node id="-86" lat="30.269278" lon="-97.699063" changeset="false"><tag k="addr:street" v="Goodwin Avenue"/><tag k="addr:housenumber" v="3302"/><tag k="addr:postcode" v="78702"/></node><node id="-87" lat="30.269353" lon="-97.699251" changeset="false"><tag k="addr:street" v="Goodwin Avenue"/><tag k="addr:housenumber" v="3300"/><tag k="addr:postcode" v="78702"/></node><node id="-88" lat="30.269158" lon="-97.698711" changeset="false"><tag k="addr:street" v="Goodwin Avenue"/><tag k="addr:housenumber" v="3306"/><tag k="addr:postcode" v="78702"/></node><node id="-89" lat="30.269639" lon="-97.698859" changeset="false"><tag k="addr:street" v="Kay Street"/><tag k="addr:housenumber" v="3303"/><tag k="addr:postcode" v="78702"/></node><node id="-90" lat="30.269589" lon="-97.698687" changeset="false"><tag k="addr:street" v="Kay Street"/><tag k="addr:housenumber" v="3305"/><tag k="addr:postcode" v="78702"/></node><node id="-91" lat="30.269705" lon="-97.699086" changeset="false"><tag k="addr:street" v="Kay Street"/><tag k="addr:housenumber" v="3301"/><tag k="addr:postcode" v="78702"/></node><node id="-92" lat="30.267103" lon="-97.699087" changeset="false"><tag k="addr:street" v="Henninger Street"/><tag k="addr:housenumber" v="1125"/><tag k="addr:postcode" v="78702"/></node><node id="-93" lat="30.267026" lon="-97.69857" changeset="false"><tag k="addr:street" v="Pickle Drive"/><tag k="addr:housenumber" v="3501"/><tag k="addr:postcode" v="78702"/></node><node id="-94" lat="30.267481" lon="-97.698874" changeset="false"><tag k="addr:street" v="Pickle Drive"/><tag k="addr:housenumber" v="3402"/><tag k="addr:postcode" v="78702"/></node><node id="-95" lat="30.267212" lon="-97.699055" changeset="false"><tag k="addr:street" v="Henninger Street"/><tag k="addr:housenumber" v="1127"/><tag k="addr:postcode" v="78702"/></node><node id="-96" lat="30.267428" lon="-97.698746" changeset="false"><tag k="addr:street" v="Pickle Drive"/><tag k="addr:housenumber" v="3404"/><tag k="addr:postcode" v="78702"/></node><node id="-97" lat="30.267527" lon="-97.69898" changeset="false"><tag k="addr:street" v="Pickle Drive"/><tag k="addr:housenumber" v="3400"/><tag k="addr:postcode" v="78702"/></node><node id="-98" lat="30.267756" lon="-97.699284" changeset="false"><tag k="addr:street" v="Henninger Street"/><tag k="addr:housenumber" v="1200"/><tag k="addr:postcode" v="78702"/></node><node id="-99" lat="30.267932" lon="-97.698603" changeset="false"><tag k="addr:street" v="Charles Street"/><tag k="addr:housenumber" v="3405"/><tag k="addr:postcode" v="78702"/></node><node id="-100" lat="30.267994" lon="-97.698812" changeset="false"><tag k="addr:street" v="Charles Street"/><tag k="addr:housenumber" v="3403"/><tag k="addr:postcode" v="78702"/></node><node id="-101" lat="30.268423" lon="-97.69856" changeset="false"><tag k="addr:street" v="Charles Street"/><tag k="addr:housenumber" v="3402"/><tag k="addr:postcode" v="78702"/></node><node id="-102" lat="30.270302" lon="-97.699533" changeset="false"><tag k="addr:street" v="Kay Street"/><tag k="addr:housenumber" v="3204"/><tag k="addr:postcode" v="78702"/></node><node id="-103" lat="30.270352" lon="-97.699677" changeset="false"><tag k="addr:street" v="Kay Street"/><tag k="addr:housenumber" v="3202"/><tag k="addr:postcode" v="78702"/></node><node id="-104" lat="30.270424" lon="-97.699843" changeset="false"><tag k="addr:street" v="Kay Street"/><tag k="addr:housenumber" v="3200"/><tag k="addr:postcode" v="78702"/></node><node id="-105" lat="30.271113" lon="-97.699516" changeset="false"><tag k="addr:street" v="Bengston Street"/><tag k="addr:housenumber" v="3200"/><tag k="addr:postcode" v="78702"/></node><node id="-106" lat="30.271064" lon="-97.69937" changeset="false"><tag k="addr:street" v="Bengston Street"/><tag k="addr:housenumber" v="3202"/><tag k="addr:postcode" v="78702"/></node><node id="-107" lat="30.270724" lon="-97.699704" changeset="false"><tag k="addr:street" v="Bengston Street"/><tag k="addr:housenumber" v="3201"/><tag k="addr:postcode" v="78702"/></node><node id="-108" lat="30.27063" lon="-97.699404" changeset="false"><tag k="addr:street" v="Bengston Street"/><tag k="addr:housenumber" v="3205"/><tag k="addr:postcode" v="78702"/></node><node id="-109" lat="30.270677" lon="-97.699544" changeset="false"><tag k="addr:street" v="Bengston Street"/><tag k="addr:housenumber" v="3203"/><tag k="addr:postcode" v="78702"/></node><node id="-110" lat="30.269613" lon="-97.700006" changeset="false"><tag k="addr:street" v="Goodwin Avenue"/><tag k="addr:housenumber" v="3202"/><tag k="addr:postcode" v="78702"/></node><node id="-111" lat="30.269669" lon="-97.700163" changeset="false"><tag k="addr:street" v="Goodwin Avenue"/><tag k="addr:housenumber" v="3200"/><tag k="addr:postcode" v="78702"/></node><node id="-112" lat="30.269818" lon="-97.699378" changeset="false"><tag k="addr:street" v="Kay Street"/><tag k="addr:housenumber" v="3209"/><tag k="addr:postcode" v="78702"/></node><node id="-113" lat="30.269879" lon="-97.699555" changeset="false"><tag k="addr:street" v="Kay Street"/><tag k="addr:housenumber" v="3207"/><tag k="addr:postcode" v="78702"/></node><node id="-114" lat="30.270031" lon="-97.699988" changeset="false"><tag k="addr:street" v="Kay Street"/><tag k="addr:housenumber" v="3201"/><tag k="addr:postcode" v="78702"/></node><node id="-115" lat="30.269934" lon="-97.699686" changeset="false"><tag k="addr:street" v="Kay Street"/><tag k="addr:housenumber" v="3205"/><tag k="addr:postcode" v="78702"/></node><node id="-116" lat="30.269979" lon="-97.69984" changeset="false"><tag k="addr:street" v="Kay Street"/><tag k="addr:housenumber" v="3203"/><tag k="addr:postcode" v="78702"/></node><node id="-117" lat="30.270242" lon="-97.699404" changeset="false"><tag k="addr:street" v="Kay Street"/><tag k="addr:housenumber" v="3206"/><tag k="addr:postcode" v="78702"/></node><node id="-118" lat="30.269171" lon="-97.700007" changeset="false"><tag k="addr:street" v="Goodwin Avenue"/><tag k="addr:housenumber" v="3205"/><tag k="addr:postcode" v="78702"/></node><node id="-119" lat="30.269078" lon="-97.70044" changeset="false"><tag k="addr:street" v="Tillery Street"/><tag k="addr:housenumber" v="1131"/><tag k="addr:postcode" v="78702"/></node><node id="-120" lat="30.269054" lon="-97.699679" changeset="false"><tag k="addr:street" v="Goodwin Avenue"/><tag k="addr:housenumber" v="3207"/><tag k="addr:postcode" v="78702"/></node><node id="-121" lat="30.269403" lon="-97.699394" changeset="false"><tag k="addr:street" v="Goodwin Avenue"/><tag k="addr:housenumber" v="3210"/><tag k="addr:postcode" v="78702"/></node><node id="-122" lat="30.269464" lon="-97.699565" changeset="false"><tag k="addr:street" v="Goodwin Avenue"/><tag k="addr:housenumber" v="3208"/><tag k="addr:postcode" v="78702"/></node><node id="-123" lat="30.269511" lon="-97.699718" changeset="false"><tag k="addr:street" v="Goodwin Avenue"/><tag k="addr:housenumber" v="3206"/><tag k="addr:postcode" v="78702"/></node><node id="-124" lat="30.269566" lon="-97.69986" changeset="false"><tag k="addr:street" v="Goodwin Avenue"/><tag k="addr:housenumber" v="3204"/><tag k="addr:postcode" v="78702"/></node><node id="-125" lat="30.266913" lon="-97.699615" changeset="false"><tag k="addr:street" v="Thompson Street"/><tag k="addr:housenumber" v="3310"/><tag k="addr:postcode" v="78702"/></node><node id="-126" lat="30.267254" lon="-97.699635" changeset="false"><tag k="addr:street" v="Henninger Street"/><tag k="addr:housenumber" v="1110"/><tag k="addr:postcode" v="78702"/></node><node id="-127" lat="30.267065" lon="-97.70007" changeset="false"><tag k="addr:street" v="Thompson Street"/><tag k="addr:housenumber" v="3304"/><tag k="addr:postcode" v="78702"/></node><node id="-128" lat="30.267198" lon="-97.700399" changeset="false"><tag k="addr:street" v="Thompson Street"/><tag k="addr:housenumber" v="3300"/><tag k="addr:postcode" v="78702"/></node><node id="-129" lat="30.267374" lon="-97.699446" changeset="false"><tag k="addr:street" v="Henninger Street"/><tag k="addr:housenumber" v="1112"/><tag k="addr:postcode" v="78702"/></node><node id="-130" lat="30.267027" lon="-97.699945" changeset="false"><tag k="addr:street" v="Thompson Street"/><tag k="addr:housenumber" v="3306"/><tag k="addr:postcode" v="78702"/></node><node id="-131" lat="30.267118" lon="-97.700246" changeset="false"><tag k="addr:street" v="Thompson Street"/><tag k="addr:housenumber" v="3302"/><tag k="addr:postcode" v="78702"/></node><node id="-132" lat="30.266954" lon="-97.699761" changeset="false"><tag k="addr:street" v="Thompson Street"/><tag k="addr:housenumber" v="3308"/><tag k="addr:postcode" v="78702"/></node><node id="-133" lat="30.267234" lon="-97.700539" changeset="false"><tag k="addr:street" v="Thompson Street"/><tag k="addr:housenumber" v="3210"/><tag k="addr:postcode" v="78702"/></node><node id="-134" lat="30.267497" lon="-97.699394" changeset="false"><tag k="addr:street" v="Henninger Street"/><tag k="addr:housenumber" v="1114"/><tag k="addr:postcode" v="78702"/></node><node id="-135" lat="30.267628" lon="-97.699335" changeset="false"><tag k="addr:street" v="Henninger Street"/><tag k="addr:housenumber" v="1116"/><tag k="addr:postcode" v="78702"/></node><node id="-136" lat="30.265841" lon="-97.696565" changeset="false"><tag k="addr:street" v="Thompson Street"/><tag k="addr:housenumber" v="3700"/><tag k="addr:postcode" v="78702"/></node><node id="-137" lat="30.265919" lon="-97.6969" changeset="false"><tag k="addr:street" v="Thompson Street"/><tag k="addr:housenumber" v="3614"/><tag k="addr:postcode" v="78702"/></node><node id="-138" lat="30.265967" lon="-97.697088" changeset="false"><tag k="addr:street" v="Thompson Street"/><tag k="addr:housenumber" v="3612"/><tag k="addr:postcode" v="78702"/></node><node id="-139" lat="30.266237" lon="-97.696052" changeset="false"><tag k="addr:street" v="Airport Boulevard"/><tag k="addr:housenumber" v="1122"/><tag k="addr:postcode" v="78702"/></node><node id="-140" lat="30.265194" lon="-97.696815" changeset="false"><tag k="addr:street" v="Kirk Avenue"/><tag k="addr:housenumber" v="1119"/><tag k="addr:postcode" v="78702"/></node><node id="-141" lat="30.265224" lon="-97.696024" changeset="false"><tag k="addr:street" v="Springdale Road"/><tag k="addr:housenumber" v="970"/><tag k="addr:postcode" v="78702"/></node><node id="-142" lat="30.265377" lon="-97.696506" changeset="false"><tag k="addr:street" v="Thompson Street"/><tag k="addr:housenumber" v="3705"/><tag k="addr:postcode" v="78702"/></node><node id="-143" lat="30.265284" lon="-97.696223" changeset="false"><tag k="addr:street" v="Thompson Street"/><tag k="addr:housenumber" v="3709"/><tag k="addr:postcode" v="78702"/></node><node id="-144" lat="30.265421" lon="-97.696628" changeset="false"><tag k="addr:street" v="Thompson Street"/><tag k="addr:housenumber" v="3703"/><tag k="addr:postcode" v="78702"/></node><node id="-145" lat="30.265462" lon="-97.696763" changeset="false"><tag k="addr:street" v="Thompson Street"/><tag k="addr:housenumber" v="3701"/><tag k="addr:postcode" v="78702"/></node><node id="-146" lat="30.265548" lon="-97.697156" changeset="false"><tag k="addr:street" v="Kirk Avenue"/><tag k="addr:housenumber" v="1120"/><tag k="addr:postcode" v="78702"/></node><node id="-147" lat="30.264634" lon="-97.697115" changeset="false"><tag k="addr:street" v="Kirk Avenue"/><tag k="addr:housenumber" v="1111"/><tag k="addr:postcode" v="78702"/></node><node id="-148" lat="30.264908" lon="-97.696962" changeset="false"><tag k="addr:street" v="Kirk Avenue"/><tag k="addr:housenumber" v="1115"/><tag k="addr:postcode" v="78702"/></node><node id="-149" lat="30.264972" lon="-97.696208" changeset="false"><tag k="addr:street" v="Springdale Road"/><tag k="addr:housenumber" v="966"/><tag k="addr:postcode" v="78702"/></node><node id="-150" lat="30.265067" lon="-97.696139" changeset="false"><tag k="addr:street" v="Springdale Road"/><tag k="addr:housenumber" v="968"/><tag k="addr:postcode" v="78702"/></node><node id="-151" lat="30.264815" lon="-97.6963" changeset="false"><tag k="addr:street" v="Springdale Road"/><tag k="addr:housenumber" v="964"/><tag k="addr:postcode" v="78702"/></node><node id="-152" lat="30.265047" lon="-97.696898" changeset="false"><tag k="addr:street" v="Kirk Avenue"/><tag k="addr:housenumber" v="1117"/><tag k="addr:postcode" v="78702"/></node><node id="-153" lat="30.264742" lon="-97.697051" changeset="false"><tag k="addr:street" v="Kirk Avenue"/><tag k="addr:housenumber" v="1113"/><tag k="addr:postcode" v="78702"/></node><node id="-154" lat="30.263303" lon="-97.697286" changeset="false"><tag k="addr:street" v="Springdale Road"/><tag k="addr:housenumber" v="940"/><tag k="addr:postcode" v="78702"/></node><node id="-155" lat="30.264052" lon="-97.69734" changeset="false"><tag k="addr:street" v="Govalle Avenue"/><tag k="addr:housenumber" v="3705"/><tag k="addr:postcode" v="78702"/></node><node id="-156" lat="30.2645" lon="-97.69719" changeset="false"><tag k="addr:street" v="Govalle Avenue"/><tag k="addr:housenumber" v="3700"/><tag k="addr:postcode" v="78702"/></node><node id="-157" lat="30.264453" lon="-97.697049" changeset="false"><tag k="addr:street" v="Govalle Avenue"/><tag k="addr:housenumber" v="3702"/><tag k="addr:postcode" v="78702"/></node><node id="-158" lat="30.264407" lon="-97.696918" changeset="false"><tag k="addr:street" v="Govalle Avenue"/><tag k="addr:housenumber" v="3704"/><tag k="addr:postcode" v="78702"/></node><node id="-159" lat="30.264325" lon="-97.696692" changeset="false"><tag k="addr:street" v="Govalle Avenue"/><tag k="addr:housenumber" v="3710"/><tag k="addr:postcode" v="78702"/></node><node id="-160" lat="30.263719" lon="-97.696277" changeset="false"><tag k="addr:street" v="Springdale Road"/><tag k="addr:housenumber" v="979"/><tag k="addr:postcode" v="78702"/></node><node id="-161" lat="30.264554" lon="-97.69645" changeset="false"><tag k="addr:street" v="Springdale Road"/><tag k="addr:housenumber" v="960"/><tag k="addr:postcode" v="78702"/></node><node id="-162" lat="30.265821" lon="-97.697901" changeset="false"><tag k="addr:street" v="Thompson Street"/><tag k="addr:housenumber" v="3605"/><tag k="addr:postcode" v="78702"/></node><node id="-163" lat="30.26597" lon="-97.698156" changeset="false"><tag k="addr:street" v="Gunter Street"/><tag k="addr:housenumber" v="1119 1/2"/><tag k="addr:postcode" v="78702"/></node><node id="-164" lat="30.266081" lon="-97.697407" changeset="false"><tag k="addr:street" v="Thompson Street"/><tag k="addr:housenumber" v="3608"/><tag k="addr:postcode" v="78702"/></node><node id="-165" lat="30.266231" lon="-97.69804" changeset="false"><tag k="addr:street" v="Gunter Street"/><tag k="addr:housenumber" v="1121"/><tag k="addr:postcode" v="78702"/></node><node id="-166" lat="30.266133" lon="-97.697548" changeset="false"><tag k="addr:street" v="Thompson Street"/><tag k="addr:housenumber" v="3606"/><tag k="addr:postcode" v="78702"/></node><node id="-167" lat="30.266377" lon="-97.698009" changeset="false"><tag k="addr:street" v="Gunter Street"/><tag k="addr:housenumber" v="1121 1/2"/><tag k="addr:postcode" v="78702"/></node><node id="-168" lat="30.266391" lon="-97.698452" changeset="false"><tag k="addr:street" v="Gunter Street"/><tag k="addr:housenumber" v="1120"/><tag k="addr:postcode" v="78702"/></node><node id="-169" lat="30.266531" lon="-97.697898" changeset="false"><tag k="addr:street" v="Gunter Street"/><tag k="addr:housenumber" v="1123"/><tag k="addr:postcode" v="78702"/></node><node id="-170" lat="30.266672" lon="-97.698327" changeset="false"><tag k="addr:street" v="Gunter Street"/><tag k="addr:housenumber" v="1122"/><tag k="addr:postcode" v="78702"/></node><node id="-171" lat="30.266713" lon="-97.697795" changeset="false"><tag k="addr:street" v="Gunter Street"/><tag k="addr:housenumber" v="1123 1/2"/><tag k="addr:postcode" v="78702"/></node><node id="-172" lat="30.265135" lon="-97.697301" changeset="false"><tag k="addr:street" v="Kirk Avenue"/><tag k="addr:housenumber" v="1114"/><tag k="addr:postcode" v="78702"/></node><node id="-173" lat="30.265471" lon="-97.698404" changeset="false"><tag k="addr:street" v="Gunter Street"/><tag k="addr:housenumber" v="1115"/><tag k="addr:postcode" v="78702"/></node><node id="-174" lat="30.265669" lon="-97.697602" changeset="false"><tag k="addr:street" v="Thompson Street"/><tag k="addr:housenumber" v="3609"/><tag k="addr:postcode" v="78702"/></node><node id="-175" lat="30.265733" lon="-97.698273" changeset="false"><tag k="addr:street" v="Gunter Street"/><tag k="addr:housenumber" v="1119"/><tag k="addr:postcode" v="78702"/></node><node id="-176" lat="30.265646" lon="-97.698368" changeset="false"><tag k="addr:street" v="Gunter Street"/><tag k="addr:housenumber" v="1117 1/4"/><tag k="addr:postcode" v="78702"/></node><node id="-177" lat="30.265619" lon="-97.697439" changeset="false"><tag k="addr:street" v="Thompson Street"/><tag k="addr:housenumber" v="3611"/><tag k="addr:postcode" v="78702"/></node><node id="-178" lat="30.265766" lon="-97.697742" changeset="false"><tag k="addr:street" v="Thompson Street"/><tag k="addr:housenumber" v="3607"/><tag k="addr:postcode" v="78702"/></node><node id="-179" lat="30.264193" lon="-97.697631" changeset="false"><tag k="addr:street" v="Govalle Avenue"/><tag k="addr:housenumber" v="3701"/><tag k="addr:postcode" v="78702"/></node><node id="-180" lat="30.264299" lon="-97.69781" changeset="false"><tag k="addr:street" v="Govalle Avenue"/><tag k="addr:housenumber" v="3611"/><tag k="addr:postcode" v="78702"/></node><node id="-181" lat="30.264777" lon="-97.698056" changeset="false"><tag k="addr:street" v="Govalle Avenue"/><tag k="addr:housenumber" v="3608"/><tag k="addr:postcode" v="78702"/></node><node id="-182" lat="30.264707" lon="-97.697882" changeset="false"><tag k="addr:street" v="Govalle Avenue"/><tag k="addr:housenumber" v="3610"/><tag k="addr:postcode" v="78702"/></node><node id="-183" lat="30.264607" lon="-97.697548" changeset="false"><tag k="addr:street" v="Govalle Avenue"/><tag k="addr:housenumber" v="3614"/><tag k="addr:postcode" v="78702"/></node><node id="-184" lat="30.264821" lon="-97.698196" changeset="false"><tag k="addr:street" v="Govalle Avenue"/><tag k="addr:housenumber" v="3606"/><tag k="addr:postcode" v="78702"/></node><node id="-185" lat="30.264871" lon="-97.697437" changeset="false"><tag k="addr:street" v="Kirk Avenue"/><tag k="addr:housenumber" v="1110"/><tag k="addr:postcode" v="78702"/></node><node id="-186" lat="30.264868" lon="-97.698341" changeset="false"><tag k="addr:street" v="Govalle Avenue"/><tag k="addr:housenumber" v="3604"/><tag k="addr:postcode" v="78702"/></node><node id="-187" lat="30.264663" lon="-97.697745" changeset="false"><tag k="addr:street" v="Govalle Avenue"/><tag k="addr:housenumber" v="3612"/><tag k="addr:postcode" v="78702"/></node><node id="-188" lat="30.265005" lon="-97.697365" changeset="false"><tag k="addr:street" v="Kirk Avenue"/><tag k="addr:housenumber" v="1112"/><tag k="addr:postcode" v="78702"/></node><node id="-189" lat="30.262616" lon="-97.69784" changeset="false"><tag k="addr:street" v="Springdale Road"/><tag k="addr:housenumber" v="926"/><tag k="addr:postcode" v="78702"/></node><node id="-190" lat="30.262755" lon="-97.697669" changeset="false"><tag k="addr:street" v="Springdale Road"/><tag k="addr:housenumber" v="930"/><tag k="addr:postcode" v="78702"/></node><node id="-191" lat="30.262999" lon="-97.697488" changeset="false"><tag k="addr:street" v="Springdale Road"/><tag k="addr:housenumber" v="934"/><tag k="addr:postcode" v="78702"/></node><node id="-192" lat="30.263151" lon="-97.697382" changeset="false"><tag k="addr:street" v="Springdale Road"/><tag k="addr:housenumber" v="936"/><tag k="addr:postcode" v="78702"/></node><node id="-193" lat="30.264119" lon="-97.697485" changeset="false"><tag k="addr:street" v="Govalle Avenue"/><tag k="addr:housenumber" v="3703"/><tag k="addr:postcode" v="78702"/></node><node id="-194" lat="30.266023" lon="-97.698615" changeset="false"><tag k="addr:street" v="Gunter Street"/><tag k="addr:housenumber" v="1118"/><tag k="addr:postcode" v="78702"/></node><node id="-195" lat="30.266515" lon="-97.698339" changeset="false"><tag k="addr:street" v="Gunter Street"/><tag k="addr:housenumber" v="1120 1/2"/><tag k="addr:postcode" v="78702"/></node><node id="-196" lat="30.266292" lon="-97.698525" changeset="false"><tag k="addr:street" v="Gunter Street"/><tag k="addr:housenumber" v="1118 3/4"/><tag k="addr:postcode" v="78702"/></node><node id="-197" lat="30.266151" lon="-97.698561" changeset="false"><tag k="addr:street" v="Gunter Street"/><tag k="addr:housenumber" v="1118 1/2"/><tag k="addr:postcode" v="78702"/></node><node id="-198" lat="30.266302" lon="-97.699457" changeset="false"><tag k="addr:street" v="Henninger Street"/><tag k="addr:housenumber" v="1121"/><tag k="addr:postcode" v="78702"/></node><node id="-199" lat="30.266559" lon="-97.699782" changeset="false"><tag k="addr:street" v="Thompson Street"/><tag k="addr:housenumber" v="3311"/><tag k="addr:postcode" v="78702"/></node><node id="-200" lat="30.266844" lon="-97.699219" changeset="false"><tag k="addr:street" v="Henninger Street"/><tag k="addr:housenumber" v="1123 1/2"/><tag k="addr:postcode" v="78702"/></node><node id="-201" lat="30.264926" lon="-97.698493" changeset="false"><tag k="addr:street" v="Govalle Avenue"/><tag k="addr:housenumber" v="3602"/><tag k="addr:postcode" v="78702"/></node><node id="-202" lat="30.26499" lon="-97.69865" changeset="false"><tag k="addr:street" v="Govalle Avenue"/><tag k="addr:housenumber" v="3600"/><tag k="addr:postcode" v="78702"/></node><node id="-203" lat="30.265229" lon="-97.698518" changeset="false"><tag k="addr:street" v="Gunter Street"/><tag k="addr:housenumber" v="1111"/><tag k="addr:postcode" v="78702"/></node><node id="-204" lat="30.265113" lon="-97.699033" changeset="false"><tag k="addr:street" v="Gunter Street"/><tag k="addr:housenumber" v="1112"/><tag k="addr:postcode" v="78702"/></node><node id="-205" lat="30.265302" lon="-97.698975" changeset="false"><tag k="addr:street" v="Gunter Street"/><tag k="addr:housenumber" v="1114"/><tag k="addr:postcode" v="78702"/></node><node id="-206" lat="30.265542" lon="-97.698906" changeset="false"><tag k="addr:street" v="Gunter Street"/><tag k="addr:housenumber" v="1116"/><tag k="addr:postcode" v="78702"/></node><node id="-207" lat="30.265335" lon="-97.699505" changeset="false"><tag k="addr:street" v="Govalle Avenue"/><tag k="addr:housenumber" v="3404"/><tag k="addr:postcode" v="78702"/></node><node id="-208" lat="30.265359" lon="-97.698445" changeset="false"><tag k="addr:street" v="Gunter Street"/><tag k="addr:housenumber" v="1113"/><tag k="addr:postcode" v="78702"/></node><node id="-209" lat="30.26425" lon="-97.699606" changeset="false"><tag k="addr:street" v="Neal Street"/><tag k="addr:housenumber" v="3502"/><tag k="addr:postcode" v="78702"/></node><node id="-210" lat="30.264377" lon="-97.6992" changeset="false"><tag k="addr:street" v="Gunter Street"/><tag k="addr:housenumber" v="1108"/><tag k="addr:postcode" v="78702"/></node><node id="-211" lat="30.264739" lon="-97.699179" changeset="false"><tag k="addr:street" v="Govalle Avenue"/><tag k="addr:housenumber" v="3505"/><tag k="addr:postcode" v="78702"/></node><node id="-212" lat="30.264673" lon="-97.69902" changeset="false"><tag k="addr:street" v="Govalle Avenue"/><tag k="addr:housenumber" v="3507"/><tag k="addr:postcode" v="78702"/></node><node id="-213" lat="30.2648" lon="-97.699346" changeset="false"><tag k="addr:street" v="Govalle Avenue"/><tag k="addr:housenumber" v="3503"/><tag k="addr:postcode" v="78702"/></node><node id="-214" lat="30.264839" lon="-97.699617" changeset="false"><tag k="addr:street" v="Govalle Avenue"/><tag k="addr:housenumber" v="3501"/><tag k="addr:postcode" v="78702"/></node><node id="-215" lat="30.263306" lon="-97.699695" changeset="false"><tag k="addr:street" v="Gunter Street"/><tag k="addr:housenumber" v="1102"/><tag k="addr:postcode" v="78702"/></node><node id="-216" lat="30.263164" lon="-97.699725" changeset="false"><tag k="addr:street" v="Gunter Street"/><tag k="addr:housenumber" v="1100"/><tag k="addr:postcode" v="78702"/></node><node id="-217" lat="30.264419" lon="-97.698434" changeset="false"><tag k="addr:street" v="Govalle Avenue"/><tag k="addr:housenumber" v="3601"/><tag k="addr:postcode" v="78702"/></node><node id="-218" lat="30.261367" lon="-97.699454" changeset="false"><tag k="addr:street" v="Lyons Road"/><tag k="addr:housenumber" v="3600"/><tag k="addr:postcode" v="78702"/></node><node id="-219" lat="30.264094" lon="-97.699357" changeset="false"><tag k="addr:street" v="Neal Street"/><tag k="addr:housenumber" v="3506"/><tag k="addr:postcode" v="78702"/></node><node id="-220" lat="30.264238" lon="-97.699247" changeset="false"><tag k="addr:street" v="Gunter Street"/><tag k="addr:housenumber" v="1106 1/2"/><tag k="addr:postcode" v="78702"/></node><node id="-221" lat="30.265107" lon="-97.700343" changeset="false"><tag k="addr:street" v="Govalle Avenue"/><tag k="addr:housenumber" v="3401"/><tag k="addr:postcode" v="78702"/></node><node id="-222" lat="30.265525" lon="-97.699822" changeset="false"><tag k="addr:street" v="Govalle Avenue"/><tag k="addr:housenumber" v="3402"/><tag k="addr:postcode" v="78702"/></node><node id="-223" lat="30.2666" lon="-97.699937" changeset="false"><tag k="addr:street" v="Thompson Street"/><tag k="addr:housenumber" v="3309"/><tag k="addr:postcode" v="78702"/></node><node id="-224" lat="30.266701" lon="-97.700267" changeset="false"><tag k="addr:street" v="Thompson Street"/><tag k="addr:housenumber" v="3305"/><tag k="addr:postcode" v="78702"/></node><node id="-225" lat="30.26665" lon="-97.700088" changeset="false"><tag k="addr:street" v="Thompson Street"/><tag k="addr:housenumber" v="3307"/><tag k="addr:postcode" v="78702"/></node><node id="-226" lat="30.266756" lon="-97.700411" changeset="false"><tag k="addr:street" v="Thompson Street"/><tag k="addr:housenumber" v="3303"/><tag k="addr:postcode" v="78702"/></node><node id="-227" lat="30.266811" lon="-97.700562" changeset="false"><tag k="addr:street" v="Thompson Street"/><tag k="addr:housenumber" v="3301"/><tag k="addr:postcode" v="78702"/></node><node id="-228" lat="30.263936" lon="-97.699823" changeset="false"><tag k="addr:street" v="Neal Street"/><tag k="addr:housenumber" v="3501"/><tag k="addr:postcode" v="78702"/></node><node id="-229" lat="30.26403" lon="-97.700436" changeset="false"><tag k="addr:street" v="Neal Street"/><tag k="addr:housenumber" v="3407"/><tag k="addr:postcode" v="78702"/></node><node id="-230" lat="30.264975" lon="-97.699948" changeset="false"><tag k="addr:street" v="Govalle Avenue"/><tag k="addr:housenumber" v="3405"/><tag k="addr:postcode" v="78702"/></node><node id="-231" lat="30.264324" lon="-97.699852" changeset="false"><tag k="addr:street" v="Neal Street"/><tag k="addr:housenumber" v="3500"/><tag k="addr:postcode" v="78702"/></node><node id="-232" lat="30.2645" lon="-97.700383" changeset="false"><tag k="addr:street" v="Neal Street"/><tag k="addr:housenumber" v="3402"/><tag k="addr:postcode" v="78702"/></node><node id="-233" lat="30.264568" lon="-97.700596" changeset="false"><tag k="addr:street" v="Cherico Street"/><tag k="addr:housenumber" v="1105"/><tag k="addr:postcode" v="78702"/></node><node id="-234" lat="30.265043" lon="-97.70018" changeset="false"><tag k="addr:street" v="Govalle Avenue"/><tag k="addr:housenumber" v="3403"/><tag k="addr:postcode" v="78702"/></node><node id="-235" lat="30.262634" lon="-97.700047" changeset="false"><tag k="addr:street" v="Gunter Street"/><tag k="addr:housenumber" v="1004"/><tag k="addr:postcode" v="78702"/></node><node id="-236" lat="30.262776" lon="-97.699985" changeset="false"><tag k="addr:street" v="Gunter Street"/><tag k="addr:housenumber" v="1006"/><tag k="addr:postcode" v="78702"/></node><node id="-237" lat="30.262901" lon="-97.699923" changeset="false"><tag k="addr:street" v="Gunter Street"/><tag k="addr:housenumber" v="1008"/><tag k="addr:postcode" v="78702"/></node><node id="-238" lat="30.26304" lon="-97.699849" changeset="false"><tag k="addr:street" v="Gunter Street"/><tag k="addr:housenumber" v="1010"/><tag k="addr:postcode" v="78702"/></node><node id="-239" lat="30.263898" lon="-97.700253" changeset="false"><tag k="addr:street" v="Neal Street"/><tag k="addr:housenumber" v="3409"/><tag k="addr:postcode" v="78702"/></node><node id="-240" lat="30.26175" lon="-97.700417" changeset="false"><tag k="addr:street" v="Gunter Street"/><tag k="addr:housenumber" v="904"/><tag k="addr:postcode" v="78702"/></node><node id="-241" lat="30.261859" lon="-97.700353" changeset="false"><tag k="addr:street" v="Gunter Street"/><tag k="addr:housenumber" v="906"/><tag k="addr:postcode" v="78702"/></node><node id="-242" lat="30.262252" lon="-97.700214" changeset="false"><tag k="addr:street" v="Gunter Street"/><tag k="addr:housenumber" v="912"/><tag k="addr:postcode" v="78702"/></node><node id="-243" lat="30.261998" lon="-97.700303" changeset="false"><tag k="addr:street" v="Gunter Street"/><tag k="addr:housenumber" v="908"/><tag k="addr:postcode" v="78702"/></node><node id="-244" lat="30.261492" lon="-97.700538" changeset="false"><tag k="addr:street" v="Gunter Street"/><tag k="addr:housenumber" v="900"/><tag k="addr:postcode" v="78702"/></node><node id="-245" lat="30.261622" lon="-97.700474" changeset="false"><tag k="addr:street" v="Gunter Street"/><tag k="addr:housenumber" v="902"/><tag k="addr:postcode" v="78702"/></node><node id="-246" lat="30.262127" lon="-97.700259" changeset="false"><tag k="addr:street" v="Gunter Street"/><tag k="addr:housenumber" v="910"/><tag k="addr:postcode" v="78702"/></node><node id="-247" lat="30.262498" lon="-97.700106" changeset="false"><tag k="addr:street" v="Gunter Street"/><tag k="addr:housenumber" v="1002"/><tag k="addr:postcode" v="78702"/></node><node id="-248" lat="30.26238" lon="-97.700151" changeset="false"><tag k="addr:street" v="Gunter Street"/><tag k="addr:housenumber" v="1000"/><tag k="addr:postcode" v="78702"/></node><node id="-249" lat="30.26827" lon="-97.700862" changeset="false"><tag k="addr:street" v="Tillery Street"/><tag k="addr:housenumber" v="1125 1/2"/><tag k="addr:postcode" v="78702"/></node><node id="-250" lat="30.268947" lon="-97.701051" changeset="false"><tag k="addr:street" v="Tillery Street"/><tag k="addr:housenumber" v="1128"/><tag k="addr:postcode" v="78702"/></node><node id="-251" lat="30.268311" lon="-97.70138" changeset="false"><tag k="addr:street" v="Tillery Street"/><tag k="addr:housenumber" v="1126"/><tag k="addr:postcode" v="78702"/></node><node id="-252" lat="30.269478" lon="-97.701198" changeset="false"><tag k="addr:street" v="Tillery Street"/><tag k="addr:housenumber" v="1130"/><tag k="addr:postcode" v="78702"/></node><node id="-253" lat="30.267105" lon="-97.701324" changeset="false"><tag k="addr:street" v="Thompson Street"/><tag k="addr:housenumber" v="3205"/><tag k="addr:postcode" v="78702"/></node><node id="-254" lat="30.267285" lon="-97.700712" changeset="false"><tag k="addr:street" v="Thompson Street"/><tag k="addr:housenumber" v="3208"/><tag k="addr:postcode" v="78702"/></node><node id="-255" lat="30.267334" lon="-97.700854" changeset="false"><tag k="addr:street" v="Thompson Street"/><tag k="addr:housenumber" v="3206"/><tag k="addr:postcode" v="78702"/></node><node id="-256" lat="30.268109" lon="-97.700939" changeset="false"><tag k="addr:street" v="Tillery Street"/><tag k="addr:housenumber" v="1125"/><tag k="addr:postcode" v="78702"/></node><node id="-257" lat="30.2676" lon="-97.701187" changeset="false"><tag k="addr:street" v="Tillery Street"/><tag k="addr:housenumber" v="1121"/><tag k="addr:postcode" v="78702"/></node><node id="-258" lat="30.268087" lon="-97.701471" changeset="false"><tag k="addr:street" v="Tillery Street"/><tag k="addr:housenumber" v="1124"/><tag k="addr:postcode" v="78702"/></node><node id="-259" lat="30.267741" lon="-97.70165" changeset="false"><tag k="addr:street" v="Tillery Street"/><tag k="addr:housenumber" v="1122"/><tag k="addr:postcode" v="78702"/></node><node id="-260" lat="30.267882" lon="-97.701026" changeset="false"><tag k="addr:street" v="Tillery Street"/><tag k="addr:housenumber" v="1123"/><tag k="addr:postcode" v="78702"/></node><node id="-261" lat="30.266012" lon="-97.701542" changeset="false"><tag k="addr:street" v="Govalle Avenue"/><tag k="addr:housenumber" v="3202"/><tag k="addr:postcode" v="78702"/></node><node id="-262" lat="30.266606" lon="-97.701433" changeset="false"><tag k="addr:street" v="Tillery Street"/><tag k="addr:housenumber" v="1117"/><tag k="addr:postcode" v="78702"/></node><node id="-263" lat="30.266867" lon="-97.700721" changeset="false"><tag k="addr:street" v="Thompson Street"/><tag k="addr:housenumber" v="3211"/><tag k="addr:postcode" v="78702"/></node><node id="-264" lat="30.266964" lon="-97.701463" changeset="false"><tag k="addr:street" v="Tillery Street"/><tag k="addr:housenumber" v="1119"/><tag k="addr:postcode" v="78702"/></node><node id="-265" lat="30.266925" lon="-97.70088" changeset="false"><tag k="addr:street" v="Thompson Street"/><tag k="addr:housenumber" v="3209"/><tag k="addr:postcode" v="78702"/></node><node id="-266" lat="30.266977" lon="-97.701025" changeset="false"><tag k="addr:street" v="Thompson Street"/><tag k="addr:housenumber" v="3207"/><tag k="addr:postcode" v="78702"/></node><node id="-267" lat="30.265378" lon="-97.701092" changeset="false"><tag k="addr:street" v="Govalle Avenue"/><tag k="addr:housenumber" v="3303"/><tag k="addr:postcode" v="78702"/></node><node id="-268" lat="30.265037" lon="-97.701632" changeset="false"><tag k="addr:street" v="Neal Street"/><tag k="addr:housenumber" v="3208"/><tag k="addr:postcode" v="78702"/></node><node id="-269" lat="30.265238" lon="-97.70071" changeset="false"><tag k="addr:street" v="Govalle Avenue"/><tag k="addr:housenumber" v="3307"/><tag k="addr:postcode" v="78702"/></node><node id="-270" lat="30.264924" lon="-97.701491" changeset="false"><tag k="addr:street" v="Neal Street"/><tag k="addr:housenumber" v="3300"/><tag k="addr:postcode" v="78702"/></node><node id="-271" lat="30.265762" lon="-97.700892" changeset="false"><tag k="addr:street" v="Govalle Avenue"/><tag k="addr:housenumber" v="3300"/><tag k="addr:postcode" v="78702"/></node><node id="-272" lat="30.265489" lon="-97.701385" changeset="false"><tag k="addr:street" v="Govalle Avenue"/><tag k="addr:housenumber" v="3209"/><tag k="addr:postcode" v="78702"/></node><node id="-273" lat="30.265422" lon="-97.701231" changeset="false"><tag k="addr:street" v="Govalle Avenue"/><tag k="addr:housenumber" v="3301"/><tag k="addr:postcode" v="78702"/></node><node id="-274" lat="30.265942" lon="-97.701347" changeset="false"><tag k="addr:street" v="Govalle Avenue"/><tag k="addr:housenumber" v="3208"/><tag k="addr:postcode" v="78702"/></node><node id="-275" lat="30.265843" lon="-97.701104" changeset="false"><tag k="addr:street" v="Govalle Avenue"/><tag k="addr:housenumber" v="3210"/><tag k="addr:postcode" v="78702"/></node><node id="-276" lat="30.267517" lon="-97.703471" changeset="false"><tag k="addr:street" v="Linden Street"/><tag k="addr:housenumber" v="1121"/><tag k="addr:postcode" v="78702"/></node><node id="-277" lat="30.267648" lon="-97.70343" changeset="false"><tag k="addr:street" v="Linden Street"/><tag k="addr:housenumber" v="1123"/><tag k="addr:postcode" v="78702"/></node><node id="-278" lat="30.267627" lon="-97.701711" changeset="false"><tag k="addr:street" v="Tillery Street"/><tag k="addr:housenumber" v="1120 1/2"/><tag k="addr:postcode" v="78702"/></node><node id="-279" lat="30.270235" lon="-97.703097" changeset="false"><tag k="addr:street" v="Goodwin Avenue"/><tag k="addr:housenumber" v="2909"/><tag k="addr:postcode" v="78702"/></node><node id="-280" lat="30.270187" lon="-97.702829" changeset="false"><tag k="addr:street" v="Goodwin Avenue"/><tag k="addr:housenumber" v="3001"/><tag k="addr:postcode" v="78702"/></node><node id="-281" lat="30.270349" lon="-97.70342" changeset="false"><tag k="addr:street" v="Goodwin Avenue"/><tag k="addr:housenumber" v="2905"/><tag k="addr:postcode" v="78702"/></node><node id="-282" lat="30.270293" lon="-97.703245" changeset="false"><tag k="addr:street" v="Goodwin Avenue"/><tag k="addr:housenumber" v="2907"/><tag k="addr:postcode" v="78702"/></node><node id="-283" lat="30.272699" lon="-97.701261" changeset="false"><tag k="addr:street" v="Oak Springs Drive"/><tag k="addr:housenumber" v="3001"/><tag k="addr:postcode" v="78702"/></node><node id="-284" lat="30.266645" lon="-97.702251" changeset="false"><tag k="addr:street" v="Tillery Street"/><tag k="addr:housenumber" v="1114"/><tag k="addr:postcode" v="78702"/></node><node id="-285" lat="30.26671" lon="-97.703534" changeset="false"><tag k="addr:street" v="Govalle Avenue"/><tag k="addr:housenumber" v="3006"/><tag k="addr:postcode" v="78702"/></node><node id="-286" lat="30.26688" lon="-97.702173" changeset="false"><tag k="addr:street" v="Tillery Street"/><tag k="addr:housenumber" v="1116"/><tag k="addr:postcode" v="78702"/></node><node id="-287" lat="30.265412" lon="-97.7022" changeset="false"><tag k="addr:street" v="Tillery Street"/><tag k="addr:housenumber" v="1109"/><tag k="addr:postcode" v="78702"/></node><node id="-288" lat="30.265456" lon="-97.702735" changeset="false"><tag k="addr:street" v="Tillery Street"/><tag k="addr:housenumber" v="1106"/><tag k="addr:postcode" v="78702"/></node><node id="-289" lat="30.265525" lon="-97.701806" changeset="false"><tag k="addr:street" v="Govalle Avenue"/><tag k="addr:housenumber" v="3203"/><tag k="addr:postcode" v="78702"/></node><node id="-290" lat="30.265562" lon="-97.701608" changeset="false"><tag k="addr:street" v="Govalle Avenue"/><tag k="addr:housenumber" v="3207"/><tag k="addr:postcode" v="78702"/></node><node id="-291" lat="30.266404" lon="-97.70268" changeset="false"><tag k="addr:street" v="Govalle Avenue"/><tag k="addr:housenumber" v="3108"/><tag k="addr:postcode" v="78702"/></node><node id="-292" lat="30.265832" lon="-97.702648" changeset="false"><tag k="addr:street" v="Tillery Street"/><tag k="addr:housenumber" v="1110"/><tag k="addr:postcode" v="78702"/></node><node id="-293" lat="30.266129" lon="-97.701899" changeset="false"><tag k="addr:street" v="Govalle Avenue"/><tag k="addr:housenumber" v="3200"/><tag k="addr:postcode" v="78702"/></node><node id="-294" lat="30.266282" lon="-97.702251" changeset="false"><tag k="addr:street" v="Govalle Avenue"/><tag k="addr:housenumber" v="3112"/><tag k="addr:postcode" v="78702"/></node><node id="-295" lat="30.266463" lon="-97.702876" changeset="false"><tag k="addr:street" v="Govalle Avenue"/><tag k="addr:housenumber" v="3106"/><tag k="addr:postcode" v="78702"/></node><node id="-296" lat="30.26653" lon="-97.703059" changeset="false"><tag k="addr:street" v="Govalle Avenue"/><tag k="addr:housenumber" v="3104"/><tag k="addr:postcode" v="78702"/></node><node id="-297" lat="30.266591" lon="-97.703226" changeset="false"><tag k="addr:street" v="Govalle Avenue"/><tag k="addr:housenumber" v="3010"/><tag k="addr:postcode" v="78702"/></node><node id="-298" lat="30.264924" lon="-97.702962" changeset="false"><tag k="addr:street" v="Tillery Street"/><tag k="addr:housenumber" v="1104"/><tag k="addr:postcode" v="78702"/></node><node id="-299" lat="30.265093" lon="-97.701811" changeset="false"><tag k="addr:street" v="Neal Street"/><tag k="addr:housenumber" v="3206"/><tag k="addr:postcode" v="78702"/></node><node id="-300" lat="30.265064" lon="-97.702916" changeset="false"><tag k="addr:street" v="Tillery Street"/><tag k="addr:housenumber" v="1104 1/2"/><tag k="addr:postcode" v="78702"/></node><node id="-301" lat="30.265106" lon="-97.702026" changeset="false"><tag k="addr:street" v="Neal Street"/><tag k="addr:housenumber" v="3204"/><tag k="addr:postcode" v="78702"/></node><node id="-302" lat="30.265083" lon="-97.703479" changeset="false"><tag k="addr:street" v="Brass Street"/><tag k="addr:housenumber" v="1105"/><tag k="addr:postcode" v="78702"/></node><node id="-303" lat="30.265196" lon="-97.702277" changeset="false"><tag k="addr:street" v="Tillery Street"/><tag k="addr:housenumber" v="1107"/><tag k="addr:postcode" v="78702"/></node><node id="-304" lat="30.26525" lon="-97.703495" changeset="false"><tag k="addr:street" v="Brass Street"/><tag k="addr:housenumber" v="1105 1/2"/><tag k="addr:postcode" v="78702"/></node><node id="-305" lat="30.265361" lon="-97.702952" changeset="false"><tag k="addr:street" v="Neal Street"/><tag k="addr:housenumber" v="3108"/><tag k="addr:postcode" v="78702"/></node><node id="-306" lat="30.267963" lon="-97.7039" changeset="false"><tag k="addr:street" v="Linden Street"/><tag k="addr:housenumber" v="1126"/><tag k="addr:postcode" v="78702"/></node><node id="-307" lat="30.268097" lon="-97.70382" changeset="false"><tag k="addr:street" v="Linden Street"/><tag k="addr:housenumber" v="1128"/><tag k="addr:postcode" v="78702"/></node><node id="-308" lat="30.270482" lon="-97.70373" changeset="false"><tag k="addr:street" v="Goodwin Avenue"/><tag k="addr:housenumber" v="2901"/><tag k="addr:postcode" v="78702"/></node><node id="-309" lat="30.270529" lon="-97.703884" changeset="false"><tag k="addr:street" v="Goodwin Avenue"/><tag k="addr:housenumber" v="2809"/><tag k="addr:postcode" v="78702"/></node><node id="-310" lat="30.270651" lon="-97.70456" changeset="false"><tag k="addr:street" v="Goodwin Avenue"/><tag k="addr:housenumber" v="2801"/><tag k="addr:postcode" v="78702"/></node><node id="-311" lat="30.270593" lon="-97.70406" changeset="false"><tag k="addr:street" v="Goodwin Avenue"/><tag k="addr:housenumber" v="2807"/><tag k="addr:postcode" v="78702"/></node><node id="-312" lat="30.270641" lon="-97.704223" changeset="false"><tag k="addr:street" v="Goodwin Avenue"/><tag k="addr:housenumber" v="2805"/><tag k="addr:postcode" v="78702"/></node><node id="-313" lat="30.267036" lon="-97.704538" changeset="false"><tag k="addr:street" v="Govalle Avenue"/><tag k="addr:housenumber" v="2910"/><tag k="addr:postcode" v="78702"/></node><node id="-314" lat="30.267066" lon="-97.703865" changeset="false"><tag k="addr:street" v="Linden Street"/><tag k="addr:housenumber" v="1113"/><tag k="addr:postcode" v="78702"/></node><node id="-315" lat="30.267202" lon="-97.703801" changeset="false"><tag k="addr:street" v="Linden Street"/><tag k="addr:housenumber" v="1115"/><tag k="addr:postcode" v="78702"/></node><node id="-316" lat="30.26733" lon="-97.703742" changeset="false"><tag k="addr:street" v="Linden Street"/><tag k="addr:housenumber" v="1117"/><tag k="addr:postcode" v="78702"/></node><node id="-317" lat="30.267198" lon="-97.704283" changeset="false"><tag k="addr:street" v="Linden Street"/><tag k="addr:housenumber" v="1114"/><tag k="addr:postcode" v="78702"/></node><node id="-318" lat="30.267326" lon="-97.704205" changeset="false"><tag k="addr:street" v="Linden Street"/><tag k="addr:housenumber" v="1114 1/2"/><tag k="addr:postcode" v="78702"/></node><node id="-319" lat="30.267431" lon="-97.704107" changeset="false"><tag k="addr:street" v="Linden Street"/><tag k="addr:housenumber" v="1116"/><tag k="addr:postcode" v="78702"/></node><node id="-320" lat="30.267595" lon="-97.704068" changeset="false"><tag k="addr:street" v="Linden Street"/><tag k="addr:housenumber" v="1118"/><tag k="addr:postcode" v="78702"/></node><node id="-321" lat="30.267448" lon="-97.703693" changeset="false"><tag k="addr:street" v="Linden Street"/><tag k="addr:housenumber" v="1119"/><tag k="addr:postcode" v="78702"/></node><node id="-322" lat="30.266774" lon="-97.703709" changeset="false"><tag k="addr:street" v="Govalle Avenue"/><tag k="addr:housenumber" v="3004"/><tag k="addr:postcode" v="78702"/></node><node id="-323" lat="30.266503" lon="-97.704403" changeset="false"><tag k="addr:street" v="Govalle Avenue"/><tag k="addr:housenumber" v="2921"/><tag k="addr:postcode" v="78702"/></node><node id="-324" lat="30.266171" lon="-97.703661" changeset="false"><tag k="addr:street" v="Govalle Avenue"/><tag k="addr:housenumber" v="3101"/><tag k="addr:postcode" v="78702"/></node><node id="-325" lat="30.266834" lon="-97.703954" changeset="false"><tag k="addr:street" v="Govalle Avenue"/><tag k="addr:housenumber" v="3000"/><tag k="addr:postcode" v="78702"/></node><node id="-326" lat="30.266969" lon="-97.704366" changeset="false"><tag k="addr:street" v="Govalle Avenue"/><tag k="addr:housenumber" v="2912"/><tag k="addr:postcode" v="78702"/></node><node id="-327" lat="30.265354" lon="-97.703915" changeset="false"><tag k="addr:street" v="Brass Street"/><tag k="addr:housenumber" v="1104"/><tag k="addr:postcode" v="78702"/></node><node id="-328" lat="30.265043" lon="-97.704105" changeset="false"><tag k="addr:street" v="Brass Street"/><tag k="addr:housenumber" v="1102"/><tag k="addr:postcode" v="78702"/></node><node id="-329" lat="30.264967" lon="-97.704783" changeset="false"><tag k="addr:street" v="Linden Street"/><tag k="addr:housenumber" v="1101"/><tag k="addr:postcode" v="78702"/></node><node id="-330" lat="30.265112" lon="-97.70473" changeset="false"><tag k="addr:street" v="Linden Street"/><tag k="addr:housenumber" v="1101 1/2"/><tag k="addr:postcode" v="78702"/></node><node id="-331" lat="30.265405" lon="-97.704435" changeset="false"><tag k="addr:street" v="Linden Street"/><tag k="addr:housenumber" v="1105"/><tag k="addr:postcode" v="78702"/></node><node id="-332" lat="30.266684" lon="-97.705091" changeset="false"><tag k="addr:street" v="Fiesta Street"/><tag k="addr:housenumber" v="1109 1/2"/><tag k="addr:postcode" v="78702"/></node><node id="-333" lat="30.266768" lon="-97.705538" changeset="false"><tag k="addr:street" v="Fiesta Street"/><tag k="addr:housenumber" v="1110 1/2"/><tag k="addr:postcode" v="78702"/></node><node id="-334" lat="30.270341" lon="-97.705833" changeset="false"><tag k="addr:street" v="Webberville Road"/><tag k="addr:housenumber" v="3503"/><tag k="addr:postcode" v="78702"/></node><node id="-335" lat="30.270554" lon="-97.705614" changeset="false"><tag k="addr:street" v="Webberville Road"/><tag k="addr:housenumber" v="3515"/><tag k="addr:postcode" v="78702"/></node><node id="-336" lat="30.266954" lon="-97.705516" changeset="false"><tag k="addr:street" v="Fiesta Street"/><tag k="addr:housenumber" v="1110 3/4"/><tag k="addr:postcode" v="78702"/></node><node id="-337" lat="30.272009" lon="-97.704554" changeset="false"><tag k="addr:street" v="Webberville Road"/><tag k="addr:housenumber" v="3601"/><tag k="addr:postcode" v="78702"/></node><node id="-338" lat="30.265982" lon="-97.70587" changeset="false"><tag k="addr:street" v="Fiesta Street"/><tag k="addr:housenumber" v="1104"/><tag k="addr:postcode" v="78702"/></node><node id="-339" lat="30.266083" lon="-97.705827" changeset="false"><tag k="addr:street" v="Fiesta Street"/><tag k="addr:housenumber" v="1104 1/2"/><tag k="addr:postcode" v="78702"/></node><node id="-340" lat="30.266163" lon="-97.705277" changeset="false"><tag k="addr:street" v="Fiesta Street"/><tag k="addr:housenumber" v="1107"/><tag k="addr:postcode" v="78702"/></node><node id="-341" lat="30.266258" lon="-97.70575" changeset="false"><tag k="addr:street" v="Fiesta Street"/><tag k="addr:housenumber" v="1106"/><tag k="addr:postcode" v="78702"/></node><node id="-342" lat="30.2663" lon="-97.705251" changeset="false"><tag k="addr:street" v="Fiesta Street"/><tag k="addr:housenumber" v="1107 1/2"/><tag k="addr:postcode" v="78702"/></node><node id="-343" lat="30.267216" lon="-97.707106" changeset="false"><tag k="addr:street" v="Webberville Road"/><tag k="addr:housenumber" v="3101"/><tag k="addr:postcode" v="78702"/></node><node id="-344" lat="30.266423" lon="-97.705162" changeset="false"><tag k="addr:street" v="Fiesta Street"/><tag k="addr:housenumber" v="1107 3/4"/><tag k="addr:postcode" v="78702"/></node><node id="-345" lat="30.266517" lon="-97.705646" changeset="false"><tag k="addr:street" v="Fiesta Street"/><tag k="addr:housenumber" v="1108"/><tag k="addr:postcode" v="78702"/></node><node id="-346" lat="30.266548" lon="-97.70515" changeset="false"><tag k="addr:street" v="Fiesta Street"/><tag k="addr:housenumber" v="1109"/><tag k="addr:postcode" v="78702"/></node><node id="-347" lat="30.26665" lon="-97.705592" changeset="false"><tag k="addr:street" v="Fiesta Street"/><tag k="addr:housenumber" v="1110"/><tag k="addr:postcode" v="78702"/></node><node id="-348" lat="30.265487" lon="-97.705601" changeset="false"><tag k="addr:street" v="Fiesta Street"/><tag k="addr:housenumber" v="1101 1/2"/><tag k="addr:postcode" v="78702"/></node><node id="-349" lat="30.265631" lon="-97.705527" changeset="false"><tag k="addr:street" v="Fiesta Street"/><tag k="addr:housenumber" v="1103"/><tag k="addr:postcode" v="78702"/></node><node id="-350" lat="30.265807" lon="-97.70593" changeset="false"><tag k="addr:street" v="Fiesta Street"/><tag k="addr:housenumber" v="1102"/><tag k="addr:postcode" v="78702"/></node><node id="-351" lat="30.265058" lon="-97.706279" changeset="false"><tag k="addr:street" v="Fiesta Street"/><tag k="addr:housenumber" v="1006"/><tag k="addr:postcode" v="78702"/></node><node id="-352" lat="30.265008" lon="-97.705822" changeset="false"><tag k="addr:street" v="Fiesta Street"/><tag k="addr:housenumber" v="1009"/><tag k="addr:postcode" v="78702"/></node><node id="-353" lat="30.265172" lon="-97.706199" changeset="false"><tag k="addr:street" v="Fiesta Street"/><tag k="addr:housenumber" v="1008"/><tag k="addr:postcode" v="78702"/></node><node id="-354" lat="30.265289" lon="-97.706141" changeset="false"><tag k="addr:street" v="Fiesta Street"/><tag k="addr:housenumber" v="1010"/><tag k="addr:postcode" v="78702"/></node><node id="-355" lat="30.265321" lon="-97.705665" changeset="false"><tag k="addr:street" v="Fiesta Street"/><tag k="addr:housenumber" v="1101"/><tag k="addr:postcode" v="78702"/></node><node id="-356" lat="30.26551" lon="-97.70606" changeset="false"><tag k="addr:street" v="Fiesta Street"/><tag k="addr:housenumber" v="1100"/><tag k="addr:postcode" v="78702"/></node><node id="-357" lat="30.264491" lon="-97.701938" changeset="false"><tag k="addr:street" v="Neal Street"/><tag k="addr:housenumber" v="3207"/><tag k="addr:postcode" v="78702"/></node><node id="-358" lat="30.264558" lon="-97.701755" changeset="false"><tag k="addr:street" v="Neal Street"/><tag k="addr:housenumber" v="3301"/><tag k="addr:postcode" v="78702"/></node><node id="-359" lat="30.264496" lon="-97.701531" changeset="false"><tag k="addr:street" v="Neal Street"/><tag k="addr:housenumber" v="3303"/><tag k="addr:postcode" v="78702"/></node><node id="-360" lat="30.264712" lon="-97.700923" changeset="false"><tag k="addr:street" v="Neal Street"/><tag k="addr:housenumber" v="3306"/><tag k="addr:postcode" v="78702"/></node><node id="-361" lat="30.264776" lon="-97.701121" changeset="false"><tag k="addr:street" v="Neal Street"/><tag k="addr:housenumber" v="3304"/><tag k="addr:postcode" v="78702"/></node><node id="-362" lat="30.264855" lon="-97.701323" changeset="false"><tag k="addr:street" v="Neal Street"/><tag k="addr:housenumber" v="3302"/><tag k="addr:postcode" v="78702"/></node><node id="-363" lat="30.264386" lon="-97.701147" changeset="false"><tag k="addr:street" v="Cherico Street"/><tag k="addr:housenumber" v="1104"/><tag k="addr:postcode" v="78702"/></node><node id="-364" lat="30.263687" lon="-97.701641" changeset="false"><tag k="addr:street" v="Cherico Street"/><tag k="addr:housenumber" v="1010"/><tag k="addr:postcode" v="78702"/></node><node id="-365" lat="30.263799" lon="-97.701582" changeset="false"><tag k="addr:street" v="Cherico Street"/><tag k="addr:housenumber" v="1100"/><tag k="addr:postcode" v="78702"/></node><node id="-366" lat="30.263878" lon="-97.70092" changeset="false"><tag k="addr:street" v="Cherico Street"/><tag k="addr:housenumber" v="1103"/><tag k="addr:postcode" v="78702"/></node><node id="-367" lat="30.263947" lon="-97.70146" changeset="false"><tag k="addr:street" v="Cherico Street"/><tag k="addr:housenumber" v="1100 1/2"/><tag k="addr:postcode" v="78702"/></node><node id="-368" lat="30.264142" lon="-97.701288" changeset="false"><tag k="addr:street" v="Cherico Street"/><tag k="addr:housenumber" v="1102"/><tag k="addr:postcode" v="78702"/></node><node id="-369" lat="30.264193" lon="-97.700708" changeset="false"><tag k="addr:street" v="Neal Street"/><tag k="addr:housenumber" v="3403"/><tag k="addr:postcode" v="78702"/></node><node id="-370" lat="30.263638" lon="-97.700989" changeset="false"><tag k="addr:street" v="Cherico Street"/><tag k="addr:housenumber" v="1101"/><tag k="addr:postcode" v="78702"/></node><node id="-371" lat="30.264435" lon="-97.701349" changeset="false"><tag k="addr:street" v="Neal Street"/><tag k="addr:housenumber" v="3305"/><tag k="addr:postcode" v="78702"/></node><node id="-372" lat="30.262792" lon="-97.701584" changeset="false"><tag k="addr:street" v="Cherico Street"/><tag k="addr:housenumber" v="913"/><tag k="addr:postcode" v="78702"/></node><node id="-373" lat="30.263305" lon="-97.701809" changeset="false"><tag k="addr:street" v="Cherico Street"/><tag k="addr:housenumber" v="1004"/><tag k="addr:postcode" v="78702"/></node><node id="-374" lat="30.263345" lon="-97.701324" changeset="false"><tag k="addr:street" v="Cherico Street"/><tag k="addr:housenumber" v="1009"/><tag k="addr:postcode" v="78702"/></node><node id="-375" lat="30.263169" lon="-97.701864" changeset="false"><tag k="addr:street" v="Cherico Street"/><tag k="addr:housenumber" v="1002"/><tag k="addr:postcode" v="78702"/></node><node id="-376" lat="30.263108" lon="-97.701452" changeset="false"><tag k="addr:street" v="Cherico Street"/><tag k="addr:housenumber" v="1007"/><tag k="addr:postcode" v="78702"/></node><node id="-377" lat="30.263465" lon="-97.701832" changeset="false"><tag k="addr:street" v="Cherico Street"/><tag k="addr:housenumber" v="1006"/><tag k="addr:postcode" v="78702"/></node><node id="-378" lat="30.263478" lon="-97.701261" changeset="false"><tag k="addr:street" v="Cherico Street"/><tag k="addr:housenumber" v="1011"/><tag k="addr:postcode" v="78702"/></node><node id="-379" lat="30.263559" lon="-97.701711" changeset="false"><tag k="addr:street" v="Cherico Street"/><tag k="addr:housenumber" v="1008"/><tag k="addr:postcode" v="78702"/></node><node id="-380" lat="30.261974" lon="-97.70188" changeset="false"><tag k="addr:street" v="Cherico Street"/><tag k="addr:housenumber" v="901"/><tag k="addr:postcode" v="78702"/></node><node id="-381" lat="30.262348" lon="-97.701649" changeset="false"><tag k="addr:street" v="Cherico Street"/><tag k="addr:housenumber" v="907"/><tag k="addr:postcode" v="78702"/></node><node id="-382" lat="30.262121" lon="-97.701875" changeset="false"><tag k="addr:street" v="Cherico Street"/><tag k="addr:housenumber" v="903"/><tag k="addr:postcode" v="78702"/></node><node id="-383" lat="30.262251" lon="-97.701824" changeset="false"><tag k="addr:street" v="Cherico Street"/><tag k="addr:housenumber" v="905"/><tag k="addr:postcode" v="78702"/></node><node id="-384" lat="30.262528" lon="-97.701581" changeset="false"><tag k="addr:street" v="Cherico Street"/><tag k="addr:housenumber" v="909"/><tag k="addr:postcode" v="78702"/></node><node id="-385" lat="30.264491" lon="-97.703433" changeset="false"><tag k="addr:street" v="Stokes Drive"/><tag k="addr:housenumber" v="3104"/><tag k="addr:postcode" v="78702"/></node><node id="-386" lat="30.264494" lon="-97.702653" changeset="false"><tag k="addr:street" v="Tillery Street"/><tag k="addr:housenumber" v="1103"/><tag k="addr:postcode" v="78702"/></node><node id="-387" lat="30.264534" lon="-97.703134" changeset="false"><tag k="addr:street" v="Tillery Street"/><tag k="addr:housenumber" v="1102"/><tag k="addr:postcode" v="78702"/></node><node id="-388" lat="30.264668" lon="-97.702565" changeset="false"><tag k="addr:street" v="Tillery Street"/><tag k="addr:housenumber" v="1103 1/2"/><tag k="addr:postcode" v="78702"/></node><node id="-389" lat="30.264779" lon="-97.703032" changeset="false"><tag k="addr:street" v="Tillery Street"/><tag k="addr:housenumber" v="1102 1/2"/><tag k="addr:postcode" v="78702"/></node><node id="-390" lat="30.26471" lon="-97.702156" changeset="false"><tag k="addr:street" v="Neal Street"/><tag k="addr:housenumber" v="3205"/><tag k="addr:postcode" v="78702"/></node><node id="-391" lat="30.264832" lon="-97.702475" changeset="false"><tag k="addr:street" v="Tillery Street"/><tag k="addr:housenumber" v="1105"/><tag k="addr:postcode" v="78702"/></node><node id="-392" lat="30.263856" lon="-97.703448" changeset="false"><tag k="addr:street" v="Tillery Street"/><tag k="addr:housenumber" v="1006"/><tag k="addr:postcode" v="78702"/></node><node id="-393" lat="30.264393" lon="-97.703206" changeset="false"><tag k="addr:street" v="Tillery Street"/><tag k="addr:housenumber" v="1100"/><tag k="addr:postcode" v="78702"/></node><node id="-394" lat="30.263922" lon="-97.702898" changeset="false"><tag k="addr:street" v="Tillery Street"/><tag k="addr:housenumber" v="1007"/><tag k="addr:postcode" v="78702"/></node><node id="-395" lat="30.264118" lon="-97.703356" changeset="false"><tag k="addr:street" v="Tillery Street"/><tag k="addr:housenumber" v="1010"/><tag k="addr:postcode" v="78702"/></node><node id="-396" lat="30.264158" lon="-97.70353" changeset="false"><tag k="addr:street" v="Stokes Drive"/><tag k="addr:housenumber" v="3105"/><tag k="addr:postcode" v="78702"/></node><node id="-397" lat="30.264239" lon="-97.702792" changeset="false"><tag k="addr:street" v="Tillery Street"/><tag k="addr:housenumber" v="1101"/><tag k="addr:postcode" v="78702"/></node><node id="-398" lat="30.26439" lon="-97.70269" changeset="false"><tag k="addr:street" v="Tillery Street"/><tag k="addr:housenumber" v="1101 1/2"/><tag k="addr:postcode" v="78702"/></node><node id="-399" lat="30.262777" lon="-97.702039" changeset="false"><tag k="addr:street" v="Cherico Street"/><tag k="addr:housenumber" v="910"/><tag k="addr:postcode" v="78702"/></node><node id="-400" lat="30.262795" lon="-97.703454" changeset="false"><tag k="addr:street" v="Tillery Street"/><tag k="addr:housenumber" v="905"/><tag k="addr:postcode" v="78702"/></node><node id="-401" lat="30.263206" lon="-97.703251" changeset="false"><tag k="addr:street" v="Tillery Street"/><tag k="addr:housenumber" v="911"/><tag k="addr:postcode" v="78702"/></node><node id="-402" lat="30.263063" lon="-97.701944" changeset="false"><tag k="addr:street" v="Cherico Street"/><tag k="addr:housenumber" v="1000"/><tag k="addr:postcode" v="78702"/></node><node id="-403" lat="30.262883" lon="-97.701988" changeset="false"><tag k="addr:street" v="Cherico Street"/><tag k="addr:housenumber" v="912"/><tag k="addr:postcode" v="78702"/></node><node id="-404" lat="30.26375" lon="-97.703487" changeset="false"><tag k="addr:street" v="Tillery Street"/><tag k="addr:housenumber" v="1002"/><tag k="addr:postcode" v="78702"/></node><node id="-405" lat="30.263611" lon="-97.703555" changeset="false"><tag k="addr:street" v="Tillery Street"/><tag k="addr:housenumber" v="1000"/><tag k="addr:postcode" v="78702"/></node><node id="-406" lat="30.262313" lon="-97.702766" changeset="false"><tag k="addr:street" v="Lyons Road"/><tag k="addr:housenumber" v="3300"/><tag k="addr:postcode" v="78702"/></node><node id="-407" lat="30.262147" lon="-97.702346" changeset="false"><tag k="addr:street" v="Cherico Street"/><tag k="addr:housenumber" v="900"/><tag k="addr:postcode" v="78702"/></node><node id="-408" lat="30.262246" lon="-97.702588" changeset="false"><tag k="addr:street" v="Lyons Road"/><tag k="addr:housenumber" v="3302"/><tag k="addr:postcode" v="78702"/></node><node id="-409" lat="30.262493" lon="-97.703256" changeset="false"><tag k="addr:street" v="Lyons Road"/><tag k="addr:housenumber" v="3204"/><tag k="addr:postcode" v="78702"/></node><node id="-410" lat="30.262557" lon="-97.703557" changeset="false"><tag k="addr:street" v="Tillery Street"/><tag k="addr:housenumber" v="901"/><tag k="addr:postcode" v="78702"/></node><node id="-411" lat="30.262509" lon="-97.702161" changeset="false"><tag k="addr:street" v="Cherico Street"/><tag k="addr:housenumber" v="906"/><tag k="addr:postcode" v="78702"/></node><node id="-412" lat="30.262435" lon="-97.70307" changeset="false"><tag k="addr:street" v="Lyons Road"/><tag k="addr:housenumber" v="3206"/><tag k="addr:postcode" v="78702"/></node><node id="-413" lat="30.262543" lon="-97.7034" changeset="false"><tag k="addr:street" v="Lyons Road"/><tag k="addr:housenumber" v="3202"/><tag k="addr:postcode" v="78702"/></node><node id="-414" lat="30.26264" lon="-97.702102" changeset="false"><tag k="addr:street" v="Cherico Street"/><tag k="addr:housenumber" v="908"/><tag k="addr:postcode" v="78702"/></node><node id="-415" lat="30.264436" lon="-97.705026" changeset="false"><tag k="addr:street" v="Linden Street"/><tag k="addr:housenumber" v="1005"/><tag k="addr:postcode" v="78702"/></node><node id="-416" lat="30.264488" lon="-97.704344" changeset="false"><tag k="addr:street" v="Brass Street"/><tag k="addr:housenumber" v="1010"/><tag k="addr:postcode" v="78702"/></node><node id="-417" lat="30.264591" lon="-97.703756" changeset="false"><tag k="addr:street" v="Brass Street"/><tag k="addr:housenumber" v="1101"/><tag k="addr:postcode" v="78702"/></node><node id="-418" lat="30.264586" lon="-97.704708" changeset="false"><tag k="addr:street" v="Stokes Drive"/><tag k="addr:housenumber" v="3005"/><tag k="addr:postcode" v="78702"/></node><node id="-419" lat="30.264673" lon="-97.704947" changeset="false"><tag k="addr:street" v="Stokes Drive"/><tag k="addr:housenumber" v="3001"/><tag k="addr:postcode" v="78702"/></node><node id="-420" lat="30.26478" lon="-97.704219" changeset="false"><tag k="addr:street" v="Brass Street"/><tag k="addr:housenumber" v="1100"/><tag k="addr:postcode" v="78702"/></node><node id="-421" lat="30.264717" lon="-97.703724" changeset="false"><tag k="addr:street" v="Brass Street"/><tag k="addr:housenumber" v="1101 1/2"/><tag k="addr:postcode" v="78702"/></node><node id="-422" lat="30.264873" lon="-97.703683" changeset="false"><tag k="addr:street" v="Brass Street"/><tag k="addr:housenumber" v="1103"/><tag k="addr:postcode" v="78702"/></node><node id="-423" lat="30.263958" lon="-97.704124" changeset="false"><tag k="addr:street" v="Brass Street"/><tag k="addr:housenumber" v="1003"/><tag k="addr:postcode" v="78702"/></node><node id="-424" lat="30.264177" lon="-97.705165" changeset="false"><tag k="addr:street" v="Linden Street"/><tag k="addr:housenumber" v="1001"/><tag k="addr:postcode" v="78702"/></node><node id="-425" lat="30.26421" lon="-97.704462" changeset="false"><tag k="addr:street" v="Brass Street"/><tag k="addr:housenumber" v="1004"/><tag k="addr:postcode" v="78702"/></node><node id="-426" lat="30.264211" lon="-97.703995" changeset="false"><tag k="addr:street" v="Brass Street"/><tag k="addr:housenumber" v="1007"/><tag k="addr:postcode" v="78702"/></node><node id="-427" lat="30.264093" lon="-97.704549" changeset="false"><tag k="addr:street" v="Brass Street"/><tag k="addr:housenumber" v="1002"/><tag k="addr:postcode" v="78702"/></node><node id="-428" lat="30.264072" lon="-97.704051" changeset="false"><tag k="addr:street" v="Brass Street"/><tag k="addr:housenumber" v="1005"/><tag k="addr:postcode" v="78702"/></node><node id="-429" lat="30.264328" lon="-97.703928" changeset="false"><tag k="addr:street" v="Brass Street"/><tag k="addr:housenumber" v="1009"/><tag k="addr:postcode" v="78702"/></node><node id="-430" lat="30.264348" lon="-97.704383" changeset="false"><tag k="addr:street" v="Brass Street"/><tag k="addr:housenumber" v="1008"/><tag k="addr:postcode" v="78702"/></node><node id="-431" lat="30.263723" lon="-97.705142" changeset="false"><tag k="addr:street" v="Linden Street"/><tag k="addr:housenumber" v="909"/><tag k="addr:postcode" v="78702"/></node><node id="-432" lat="30.263709" lon="-97.70421" changeset="false"><tag k="addr:street" v="Brass Street"/><tag k="addr:housenumber" v="913"/><tag k="addr:postcode" v="78702"/></node><node id="-433" lat="30.263734" lon="-97.704739" changeset="false"><tag k="addr:street" v="Brass Street"/><tag k="addr:housenumber" v="910"/><tag k="addr:postcode" v="78702"/></node><node id="-434" lat="30.263957" lon="-97.704622" changeset="false"><tag k="addr:street" v="Brass Street"/><tag k="addr:housenumber" v="1000"/><tag k="addr:postcode" v="78702"/></node><node id="-435" lat="30.263835" lon="-97.704162" changeset="false"><tag k="addr:street" v="Brass Street"/><tag k="addr:housenumber" v="1001"/><tag k="addr:postcode" v="78702"/></node><node id="-436" lat="30.262757" lon="-97.704144" changeset="false"><tag k="addr:street" v="Lyons Road"/><tag k="addr:housenumber" v="3100"/><tag k="addr:postcode" v="78702"/></node><node id="-437" lat="30.263028" lon="-97.703861" changeset="false"><tag k="addr:street" v="Tillery Street"/><tag k="addr:housenumber" v="900"/><tag k="addr:postcode" v="78702"/></node><node id="-438" lat="30.26326" lon="-97.703882" changeset="false"><tag k="addr:street" v="Tillery Street"/><tag k="addr:housenumber" v="908"/><tag k="addr:postcode" v="78702"/></node><node id="-439" lat="30.263451" lon="-97.704337" changeset="false"><tag k="addr:street" v="Brass Street"/><tag k="addr:housenumber" v="909"/><tag k="addr:postcode" v="78702"/></node><node id="-440" lat="30.263491" lon="-97.703617" changeset="false"><tag k="addr:street" v="Tillery Street"/><tag k="addr:housenumber" v="912"/><tag k="addr:postcode" v="78702"/></node><node id="-441" lat="30.263587" lon="-97.704265" changeset="false"><tag k="addr:street" v="Brass Street"/><tag k="addr:housenumber" v="911"/><tag k="addr:postcode" v="78702"/></node><node id="-442" lat="30.263583" lon="-97.704753" changeset="false"><tag k="addr:street" v="Brass Street"/><tag k="addr:housenumber" v="908"/><tag k="addr:postcode" v="78702"/></node><node id="-443" lat="30.264577" lon="-97.705467" changeset="false"><tag k="addr:street" v="Linden Street"/><tag k="addr:housenumber" v="1004"/><tag k="addr:postcode" v="78702"/></node><node id="-444" lat="30.264629" lon="-97.705982" changeset="false"><tag k="addr:street" v="Fiesta Street"/><tag k="addr:housenumber" v="1003"/><tag k="addr:postcode" v="78702"/></node><node id="-445" lat="30.26468" lon="-97.706479" changeset="false"><tag k="addr:street" v="Fiesta Street"/><tag k="addr:housenumber" v="1000"/><tag k="addr:postcode" v="78702"/></node><node id="-446" lat="30.264702" lon="-97.705419" changeset="false"><tag k="addr:street" v="Linden Street"/><tag k="addr:housenumber" v="1006"/><tag k="addr:postcode" v="78702"/></node><node id="-447" lat="30.264757" lon="-97.705929" changeset="false"><tag k="addr:street" v="Fiesta Street"/><tag k="addr:housenumber" v="1005"/><tag k="addr:postcode" v="78702"/></node><node id="-448" lat="30.264833" lon="-97.705364" changeset="false"><tag k="addr:street" v="Linden Street"/><tag k="addr:housenumber" v="1008"/><tag k="addr:postcode" v="78702"/></node><node id="-449" lat="30.264896" lon="-97.705869" changeset="false"><tag k="addr:street" v="Fiesta Street"/><tag k="addr:housenumber" v="1007"/><tag k="addr:postcode" v="78702"/></node><node id="-450" lat="30.264791" lon="-97.706411" changeset="false"><tag k="addr:street" v="Fiesta Street"/><tag k="addr:housenumber" v="1002"/><tag k="addr:postcode" v="78702"/></node><node id="-451" lat="30.264897" lon="-97.706305" changeset="false"><tag k="addr:street" v="Fiesta Street"/><tag k="addr:housenumber" v="1004"/><tag k="addr:postcode" v="78702"/></node><node id="-452" lat="30.264268" lon="-97.706644" changeset="false"><tag k="addr:street" v="Fiesta Street"/><tag k="addr:housenumber" v="908"/><tag k="addr:postcode" v="78702"/></node><node id="-453" lat="30.264326" lon="-97.705588" changeset="false"><tag k="addr:street" v="Linden Street"/><tag k="addr:housenumber" v="1000"/><tag k="addr:postcode" v="78702"/></node><node id="-454" lat="30.264559" lon="-97.709016" changeset="false"><tag k="addr:street" v="Lyons Road"/><tag k="addr:housenumber" v="2720"/><tag k="addr:postcode" v="78702"/></node><node id="-455" lat="30.264506" lon="-97.70604" changeset="false"><tag k="addr:street" v="Fiesta Street"/><tag k="addr:housenumber" v="1001"/><tag k="addr:postcode" v="78702"/></node><node id="-456" lat="30.264388" lon="-97.706585" changeset="false"><tag k="addr:street" v="Fiesta Street"/><tag k="addr:housenumber" v="910"/><tag k="addr:postcode" v="78702"/></node><node id="-457" lat="30.264455" lon="-97.705537" changeset="false"><tag k="addr:street" v="Linden Street"/><tag k="addr:housenumber" v="1002"/><tag k="addr:postcode" v="78702"/></node><node id="-458" lat="30.264353" lon="-97.706093" changeset="false"><tag k="addr:street" v="Fiesta Street"/><tag k="addr:housenumber" v="913"/><tag k="addr:postcode" v="78702"/></node><node id="-459" lat="30.264538" lon="-97.706528" changeset="false"><tag k="addr:street" v="Fiesta Street"/><tag k="addr:housenumber" v="912"/><tag k="addr:postcode" v="78702"/></node><node id="-460" lat="30.263991" lon="-97.706281" changeset="false"><tag k="addr:street" v="Fiesta Street"/><tag k="addr:housenumber" v="907"/><tag k="addr:postcode" v="78702"/></node><node id="-461" lat="30.264011" lon="-97.706725" changeset="false"><tag k="addr:street" v="Fiesta Street"/><tag k="addr:housenumber" v="904"/><tag k="addr:postcode" v="78702"/></node><node id="-462" lat="30.26403" lon="-97.705229" changeset="false"><tag k="addr:street" v="Linden Street"/><tag k="addr:housenumber" v="913"/><tag k="addr:postcode" v="78702"/></node><node id="-463" lat="30.264067" lon="-97.705699" changeset="false"><tag k="addr:street" v="Linden Street"/><tag k="addr:housenumber" v="910"/><tag k="addr:postcode" v="78702"/></node><node id="-464" lat="30.264111" lon="-97.706227" changeset="false"><tag k="addr:street" v="Fiesta Street"/><tag k="addr:housenumber" v="909"/><tag k="addr:postcode" v="78702"/></node><node id="-465" lat="30.264137" lon="-97.706672" changeset="false"><tag k="addr:street" v="Fiesta Street"/><tag k="addr:housenumber" v="906"/><tag k="addr:postcode" v="78702"/></node><node id="-466" lat="30.264212" lon="-97.705645" changeset="false"><tag k="addr:street" v="Linden Street"/><tag k="addr:housenumber" v="912"/><tag k="addr:postcode" v="78702"/></node><node id="-467" lat="30.264242" lon="-97.706153" changeset="false"><tag k="addr:street" v="Fiesta Street"/><tag k="addr:housenumber" v="911"/><tag k="addr:postcode" v="78702"/></node><node id="-468" lat="30.263569" lon="-97.705949" changeset="false"><tag k="addr:street" v="Linden Street"/><tag k="addr:housenumber" v="902"/><tag k="addr:postcode" v="78702"/></node><node id="-469" lat="30.263163" lon="-97.705067" changeset="false"><tag k="addr:street" v="Lyons Road"/><tag k="addr:housenumber" v="3010"/><tag k="addr:postcode" v="78702"/></node><node id="-470" lat="30.263422" lon="-97.706018" changeset="false"><tag k="addr:street" v="Linden Street"/><tag k="addr:housenumber" v="900"/><tag k="addr:postcode" v="78702"/></node><node id="-471" lat="30.26359" lon="-97.706285" changeset="false"><tag k="addr:street" v="Lyons Road"/><tag k="addr:housenumber" v="2904"/><tag k="addr:postcode" v="78702"/></node><node id="-472" lat="30.263694" lon="-97.705891" changeset="false"><tag k="addr:street" v="Linden Street"/><tag k="addr:housenumber" v="904"/><tag k="addr:postcode" v="78702"/></node><node id="-473" lat="30.263651" lon="-97.706443" changeset="false"><tag k="addr:street" v="Lyons Road"/><tag k="addr:housenumber" v="2902"/><tag k="addr:postcode" v="78702"/></node><node id="-474" lat="30.263772" lon="-97.706842" changeset="false"><tag k="addr:street" v="Lyons Road"/><tag k="addr:housenumber" v="2808"/><tag k="addr:postcode" v="78702"/></node><node id="-475" lat="30.263861" lon="-97.706347" changeset="false"><tag k="addr:street" v="Fiesta Street"/><tag k="addr:housenumber" v="905"/><tag k="addr:postcode" v="78702"/></node><node id="-476" lat="30.263803" lon="-97.705804" changeset="false"><tag k="addr:street" v="Linden Street"/><tag k="addr:housenumber" v="906"/><tag k="addr:postcode" v="78702"/></node><node id="-477" lat="30.263942" lon="-97.705746" changeset="false"><tag k="addr:street" v="Linden Street"/><tag k="addr:housenumber" v="908"/><tag k="addr:postcode" v="78702"/></node><node id="-478" lat="30.263833" lon="-97.707017" changeset="false"><tag k="addr:street" v="Lyons Road"/><tag k="addr:housenumber" v="2806"/><tag k="addr:postcode" v="78702"/></node><node id="-479" lat="30.263918" lon="-97.705276" changeset="false"><tag k="addr:street" v="Linden Street"/><tag k="addr:housenumber" v="911"/><tag k="addr:postcode" v="78702"/></node></osm>