<?xml version="1.0" encoding="UTF-8"?><osm version="0.6" generator="github.com/aaronlidman/osm-and-geojson"><node id="-1" lat="30.262377" lon="-97.702933" changeset="false"><tag k="addr:street" v="Lyons Road"/><tag k="addr:housenumber" v="3208"/><tag k="coa:place_id" v="139142"/></node><node id="-2" lat="30.265573" lon="-97.702702" changeset="false"><tag k="addr:street" v="Tillery Street"/><tag k="addr:housenumber" v="1108"/><tag k="coa:place_id" v="860354"/></node><node id="-3" lat="30.265709" lon="-97.708184" changeset="false"><tag k="addr:street" v="Webberville Road"/><tag k="addr:housenumber" v="2915"/><tag k="coa:place_id" v="91202"/></node><node id="-4" lat="30.271936" lon="-97.699753" changeset="false"><tag k="addr:street" v="Tillery Street"/><tag k="addr:housenumber" v="1148"/><tag k="coa:place_id" v="3112154"/></node><node id="-5" lat="30.263095" lon="-97.703767" changeset="false"><tag k="addr:street" v="Tillery Street"/><tag k="addr:housenumber" v="906"/><tag k="coa:place_id" v="861092"/></node><node id="-6" lat="30.267696" lon="-97.704015" changeset="false"><tag k="addr:street" v="Linden Street"/><tag k="addr:housenumber" v="1122"/><tag k="coa:place_id" v="860480"/></node><node id="-7" lat="30.268864" lon="-97.700658" changeset="false"><tag k="addr:street" v="Tillery Street"/><tag k="addr:housenumber" v="1129 1/2"/><tag k="coa:place_id" v="3392491"/></node><node id="-8" lat="30.271038" lon="-97.703856" changeset="false"><tag k="addr:street" v="Goodwin Avenue"/><tag k="addr:housenumber" v="2806"/><tag k="coa:place_id" v="3292391"/></node><node id="-9" lat="30.26555" lon="-97.705115" changeset="false"><tag k="addr:street" v="Linden Street"/><tag k="addr:housenumber" v="1016"/><tag k="coa:place_id" v="3363590"/></node><node id="-10" lat="30.26647" lon="-97.704625" changeset="false"><tag k="addr:street" v="Govalle Avenue"/><tag k="addr:housenumber" v="2917"/><tag k="coa:place_id" v="3363598"/></node><node id="-11" lat="30.266431" lon="-97.704468" changeset="false"><tag k="addr:street" v="Govalle Avenue"/><tag k="addr:housenumber" v="2921"/><tag k="coa:place_id" v="3363599"/></node><node id="-12" lat="30.265924" lon="-97.704369" changeset="false"><tag k="addr:street" v="Neal Street"/><tag k="addr:housenumber" v="3002"/><tag k="coa:place_id" v="3363600"/></node><node id="-13" lat="30.265704" lon="-97.703712" changeset="false"><tag k="addr:street" v="Neal Street"/><tag k="addr:housenumber" v="3012"/><tag k="coa:place_id" v="3363607"/></node><node id="-14" lat="30.26399" lon="-97.703402" changeset="false"><tag k="addr:street" v="Tillery Street"/><tag k="addr:housenumber" v="1008"/><tag k="coa:place_id" v="5054585"/></node><node id="-15" lat="30.269767" lon="-97.702721" changeset="false"><tag k="addr:street" v="Goodwin Avenue"/><tag k="addr:housenumber" v="3007"/><tag k="coa:place_id" v="3424633"/></node><node id="-16" lat="30.270682" lon="-97.704369" changeset="false"><tag k="addr:street" v="Goodwin Avenue"/><tag k="addr:housenumber" v="2803"/><tag k="coa:place_id" v="860258"/></node><node id="-17" lat="30.261989" lon="-97.701976" changeset="false"><tag k="addr:street" v="Cherico Street"/><tag k="addr:housenumber" v="901"/><tag k="coa:place_id" v="3080251"/></node><node id="-18" lat="30.262967" lon="-97.70152" changeset="false"><tag k="addr:street" v="Cherico Street"/><tag k="addr:housenumber" v="1005"/><tag k="coa:place_id" v="139370"/></node><node id="-19" lat="30.263669" lon="-97.697022" changeset="false"><tag k="addr:street" v="Springdale Road"/><tag k="addr:housenumber" v="946"/><tag k="coa:place_id" v="3377397"/></node><node id="-20" lat="30.265258" lon="-97.704652" changeset="false"><tag k="addr:street" v="Linden Street"/><tag k="addr:housenumber" v="1103"/><tag k="coa:place_id" v="3363385"/></node><node id="-21" lat="30.263391" lon="-97.70382" changeset="false"><tag k="addr:street" v="Tillery Street"/><tag k="addr:housenumber" v="910"/><tag k="coa:place_id" v="861086"/></node><node id="-22" lat="30.26697" lon="-97.705591" changeset="false"><tag k="addr:street" v="Fiesta Street"/><tag k="addr:housenumber" v="1110 3/4"/><tag k="coa:place_id" v="860648"/></node><node id="-23" lat="30.265792" lon="-97.703969" changeset="false"><tag k="addr:street" v="Neal Street"/><tag k="addr:housenumber" v="3008"/><tag k="coa:place_id" v="3363603"/></node><node id="-24" lat="30.268902" lon="-97.70622" changeset="false"><tag k="addr:street" v="Webberville Road"/><tag k="addr:housenumber" v="3401"/><tag k="coa:place_id" v="204001"/></node><node id="-25" lat="30.265711" lon="-97.703086" changeset="false"><tag k="addr:street" v="Neal Street"/><tag k="addr:housenumber" v="3106"/><tag k="coa:place_id" v="3363643"/></node><node id="-26" lat="30.265943" lon="-97.70488" changeset="false"><tag k="addr:street" v="Linden Street"/><tag k="addr:housenumber" v="1022"/><tag k="coa:place_id" v="3363638"/></node><node id="-27" lat="30.263973" lon="-97.7074" changeset="false"><tag k="addr:street" v="Lyons Road"/><tag k="addr:housenumber" v="2800"/><tag k="coa:place_id" v="5001585"/></node><node id="-28" lat="30.271646" lon="-97.699145" changeset="false"><tag k="addr:street" v="Tillery Street"/><tag k="addr:housenumber" v="1141 1/2"/><tag k="coa:place_id" v="3053281"/></node><node id="-29" lat="30.264579" lon="-97.709189" changeset="false"><tag k="addr:street" v="Lyons Road"/><tag k="addr:housenumber" v="2720"/><tag k="coa:place_id" v="3071128"/></node><node id="-30" lat="30.266178" lon="-97.703306" changeset="false"><tag k="addr:street" v="Govalle Avenue"/><tag k="addr:housenumber" v="3101"/><tag k="coa:place_id" v="91178"/></node><node id="-31" lat="30.269345" lon="-97.700429" changeset="false"><tag k="addr:street" v="Tillery Street"/><tag k="addr:housenumber" v="1131 3/4"/><tag k="coa:place_id" v="140786"/></node><node id="-32" lat="30.263551" lon="-97.699573" changeset="false"><tag k="addr:street" v="Gunter Street"/><tag k="addr:housenumber" v="1104"/><tag k="coa:place_id" v="139634"/></node><node id="-33" lat="30.269514" lon="-97.697522" changeset="false"><tag k="addr:street" v="Kay Street"/><tag k="addr:housenumber" v="3408"/><tag k="coa:place_id" v="69501"/></node><node id="-34" lat="30.265736" lon="-97.702619" changeset="false"><tag k="addr:street" v="Tillery Street"/><tag k="addr:housenumber" v="1110"/><tag k="coa:place_id" v="860702"/></node><node id="-35" lat="30.265677" lon="-97.696103" changeset="false"><tag k="addr:street" v="Springdale Road"/><tag k="addr:housenumber" v="980"/><tag k="coa:place_id" v="140042"/></node><node id="-36" lat="30.267843" lon="-97.703954" changeset="false"><tag k="addr:street" v="Linden Street"/><tag k="addr:housenumber" v="1124"/><tag k="coa:place_id" v="860474"/></node><node id="-37" lat="30.272735" lon="-97.699878" changeset="false"><tag k="addr:street" v="Oak Springs Drive"/><tag k="addr:housenumber" v="3101"/><tag k="coa:place_id" v="860234"/></node><node id="-38" lat="30.268107" lon="-97.702474" changeset="false"><tag k="addr:street" v="Tillery Street"/><tag k="addr:housenumber" v="1120"/><tag k="coa:place_id" v="860342"/></node><node id="-39" lat="30.268739" lon="-97.696794" changeset="false"><tag k="addr:street" v="Airport Boulevard"/><tag k="addr:housenumber" v="1134"/><tag k="coa:place_id" v="169891"/></node><node id="-40" lat="30.271186" lon="-97.705413" changeset="false"><tag k="addr:street" v="Webberville Road"/><tag k="addr:housenumber" v="3525"/><tag k="coa:place_id" v="243291"/></node><node id="-41" lat="30.265752" lon="-97.698805" changeset="false"><tag k="addr:street" v="Gunter Street"/><tag k="addr:housenumber" v="1116 1/2"/><tag k="coa:place_id" v="140642"/></node><node id="-42" lat="30.268003" lon="-97.696719" changeset="false"><tag k="addr:street" v="Goodwin Avenue"/><tag k="addr:housenumber" v="3605"/><tag k="coa:place_id" v="140870"/></node><node id="-43" lat="30.265414" lon="-97.705161" changeset="false"><tag k="addr:street" v="Linden Street"/><tag k="addr:housenumber" v="1014"/><tag k="coa:place_id" v="3313783"/></node><node id="-44" lat="30.261836" lon="-97.701262" changeset="false"><tag k="addr:street" v="Lyons Road"/><tag k="addr:housenumber" v="3414"/><tag k="coa:place_id" v="139124"/></node><node id="-45" lat="30.265714" lon="-97.70384" changeset="false"><tag k="addr:street" v="Neal Street"/><tag k="addr:housenumber" v="3010"/><tag k="coa:place_id" v="3363604"/></node><node id="-46" lat="30.263641" lon="-97.7031" changeset="false"><tag k="addr:street" v="Tillery Street"/><tag k="addr:housenumber" v="1003"/><tag k="coa:place_id" v="3431792"/></node><node id="-47" lat="30.264108" lon="-97.702862" changeset="false"><tag k="addr:street" v="Tillery Street"/><tag k="addr:housenumber" v="1011"/><tag k="coa:place_id" v="3431793"/></node><node id="-48" lat="30.263912" lon="-97.696944" changeset="false"><tag k="addr:street" v="Springdale Road"/><tag k="addr:housenumber" v="950"/><tag k="coa:place_id" v="139772"/></node><node id="-49" lat="30.267851" lon="-97.706758" changeset="false"><tag k="addr:street" v="Govalle Avenue"/><tag k="addr:housenumber" v="2707"/><tag k="coa:place_id" v="204002"/></node><node id="-50" lat="30.270732" lon="-97.704545" changeset="false"><tag k="addr:street" v="Goodwin Avenue"/><tag k="addr:housenumber" v="2801"/><tag k="coa:place_id" v="860252"/></node><node id="-51" lat="30.265136" lon="-97.705256" changeset="false"><tag k="addr:street" v="Linden Street"/><tag k="addr:housenumber" v="1010"/><tag k="coa:place_id" v="3313782"/></node><node id="-52" lat="30.265951" lon="-97.704504" changeset="false"><tag k="addr:street" v="Neal Street"/><tag k="addr:housenumber" v="3000"/><tag k="coa:place_id" v="3313784"/></node><node id="-53" lat="30.265526" lon="-97.70318" changeset="false"><tag k="addr:street" v="Neal Street"/><tag k="addr:housenumber" v="3104"/><tag k="coa:place_id" v="3363642"/></node><node id="-54" lat="30.265791" lon="-97.704979" changeset="false"><tag k="addr:street" v="Linden Street"/><tag k="addr:housenumber" v="1020"/><tag k="coa:place_id" v="3363591"/></node><node id="-55" lat="30.265831" lon="-97.704113" changeset="false"><tag k="addr:street" v="Neal Street"/><tag k="addr:housenumber" v="3006"/><tag k="coa:place_id" v="3363602"/></node><node id="-56" lat="30.265572" lon="-97.703341" changeset="false"><tag k="addr:street" v="Neal Street"/><tag k="addr:housenumber" v="3102"/><tag k="coa:place_id" v="3363610"/></node><node id="-57" lat="30.264026" lon="-97.697224" changeset="false"><tag k="addr:street" v="Govalle Avenue"/><tag k="addr:housenumber" v="3707"/><tag k="coa:place_id" v="3377402"/></node><node id="-58" lat="30.264675" lon="-97.707643" changeset="false"><tag k="addr:street" v="North Pleasant Valley Road"/><tag k="addr:housenumber" v="835"/><tag k="coa:place_id" v="3388434"/></node><node id="-59" lat="30.266062" lon="-97.704687" changeset="false"><tag k="addr:street" v="Linden Street"/><tag k="addr:housenumber" v="1024"/><tag k="coa:place_id" v="3363639"/></node><node id="-60" lat="30.26588" lon="-97.702998" changeset="false"><tag k="addr:street" v="Govalle Avenue"/><tag k="addr:housenumber" v="3129"/><tag k="coa:place_id" v="3363649"/></node><node id="-61" lat="30.266993" lon="-97.69918" changeset="false"><tag k="addr:street" v="Henninger Street"/><tag k="addr:housenumber" v="1123 3/4"/><tag k="coa:place_id" v="140564"/></node><node id="-62" lat="30.266842" lon="-97.704946" changeset="false"><tag k="addr:street" v="Fiesta Street"/><tag k="addr:housenumber" v="1109 3/4"/><tag k="coa:place_id" v="860696"/></node><node id="-63" lat="30.266015" lon="-97.705362" changeset="false"><tag k="addr:street" v="Fiesta Street"/><tag k="addr:housenumber" v="1105 1/2"/><tag k="coa:place_id" v="5064826"/></node><node id="-64" lat="30.262894" lon="-97.69757" changeset="false"><tag k="addr:street" v="Springdale Road"/><tag k="addr:housenumber" v="932"/><tag k="coa:place_id" v="139796"/></node><node id="-65" lat="30.265906" lon="-97.702523" changeset="false"><tag k="addr:street" v="Tillery Street"/><tag k="addr:housenumber" v="1112"/><tag k="coa:place_id" v="5097809"/></node><node id="-66" lat="30.265611" lon="-97.703455" changeset="false"><tag k="addr:street" v="Neal Street"/><tag k="addr:housenumber" v="3100"/><tag k="coa:place_id" v="3363609"/></node><node id="-67" lat="30.266731" lon="-97.707484" changeset="false"><tag k="addr:street" v="Webberville Road"/><tag k="addr:housenumber" v="3003"/><tag k="coa:place_id" v="3198634"/></node><node id="-68" lat="30.26529" lon="-97.705227" changeset="false"><tag k="addr:street" v="Linden Street"/><tag k="addr:housenumber" v="1012"/><tag k="coa:place_id" v="3363588"/></node><node id="-69" lat="30.268993" lon="-97.699465" changeset="false"><tag k="addr:street" v="Goodwin Avenue"/><tag k="addr:housenumber" v="3303"/><tag k="coa:place_id" v="3348461"/></node><node id="-70" lat="30.265867" lon="-97.69815" changeset="false"><tag k="addr:street" v="Gunter Street"/><tag k="addr:housenumber" v="1119 1/4"/><tag k="coa:place_id" v="140174"/></node><node id="-71" lat="30.266043" lon="-97.702927" changeset="false"><tag k="addr:street" v="Govalle Avenue"/><tag k="addr:housenumber" v="3125"/><tag k="coa:place_id" v="3363648"/></node><node id="-72" lat="30.26597" lon="-97.702713" changeset="false"><tag k="addr:street" v="Govalle Avenue"/><tag k="addr:housenumber" v="3133"/><tag k="coa:place_id" v="5097808"/></node><node id="-73" lat="30.265881" lon="-97.704229" changeset="false"><tag k="addr:street" v="Neal Street"/><tag k="addr:housenumber" v="3004"/><tag k="coa:place_id" v="3363601"/></node><node id="-74" lat="30.265666" lon="-97.703589" changeset="false"><tag k="addr:street" v="Neal Street"/><tag k="addr:housenumber" v="3014"/><tag k="coa:place_id" v="3363608"/></node><node id="-75" lat="30.263477" lon="-97.697187" changeset="false"><tag k="addr:street" v="Springdale Road"/><tag k="addr:housenumber" v="944"/><tag k="coa:place_id" v="139778"/></node><node id="-76" lat="30.270552" lon="-97.704749" changeset="false"><tag k="addr:street" v="Goodwin Avenue"/><tag k="addr:housenumber" v="2721"/><tag k="coa:place_id" v="3343220"/></node><node id="-77" lat="30.265682" lon="-97.705045" changeset="false"><tag k="addr:street" v="Linden Street"/><tag k="addr:housenumber" v="1018"/><tag k="coa:place_id" v="3363637"/></node><node id="-78" lat="30.264979" lon="-97.695604" changeset="false"><tag k="addr:street" v="Springdale Road"/><tag k="addr:housenumber" v="981"/><tag k="coa:place_id" v="544467"/></node><node id="-79" lat="30.267452" lon="-97.704154" changeset="false"><tag k="addr:street" v="Linden Street"/><tag k="addr:housenumber" v="1116"/><tag k="coa:place_id" v="860486"/></node><node id="-80" lat="30.262931" lon="-97.70339" changeset="false"><tag k="addr:street" v="Tillery Street"/><tag k="addr:housenumber" v="907"/><tag k="coa:place_id" v="139184"/></node><node id="-81" lat="30.265711" lon="-97.699333" changeset="false"><tag k="addr:street" v="Thompson Street"/><tag k="addr:housenumber" v="3407"/><tag k="coa:place_id" v="140636"/></node><node id="-82" lat="30.261884" lon="-97.698106" changeset="false"><tag k="addr:street" v="Springdale Road"/><tag k="addr:housenumber" v="916"/><tag k="coa:place_id" v="90386"/></node><node id="-83" lat="30.265656" lon="-97.702012" changeset="false"><tag k="addr:street" v="Govalle Avenue"/><tag k="addr:housenumber" v="3201"/><tag k="coa:place_id" v="139526"/></node><node id="-84" lat="30.270419" lon="-97.697168" changeset="false"><tag k="addr:street" v="Airport Boulevard"/><tag k="addr:housenumber" v="1140"/><tag k="coa:place_id" v="859880"/></node><node id="-85" lat="30.265498" lon="-97.699956" changeset="false"><tag k="addr:street" v="Govalle Avenue"/><tag k="addr:housenumber" v="3402"/><tag k="coa:place_id" v="140690"/></node><node id="-86" lat="30.264315" lon="-97.705149" changeset="false"><tag k="addr:street" v="Linden Street"/><tag k="addr:housenumber" v="1003"/><tag k="coa:place_id" v="860942"/></node><node id="-87" lat="30.26851" lon="-97.700674" changeset="false"><tag k="addr:street" v="Tillery Street"/><tag k="addr:housenumber" v="1127"/><tag k="coa:place_id" v="140768"/></node><node id="-88" lat="30.261096" lon="-97.698603" changeset="false"><tag k="addr:street" v="Springdale Road"/><tag k="addr:housenumber" v="908"/><tag k="coa:place_id" v="139820"/></node><node id="-89" lat="30.268017" lon="-97.699164" changeset="false"><tag k="addr:street" v="Henninger Street"/><tag k="addr:housenumber" v="1204"/><tag k="coa:place_id" v="505527"/></node><node id="-90" lat="30.269918" lon="-97.697013" changeset="false"><tag k="addr:street" v="Airport Boulevard"/><tag k="addr:housenumber" v="1138"/><tag k="coa:place_id" v="859868"/></node><node id="-91" lat="30.264516" lon="-97.700709" changeset="false"><tag k="addr:street" v="Neal Street"/><tag k="addr:housenumber" v="3406"/><tag k="coa:place_id" v="139460"/></node><node id="-92" lat="30.26633" lon="-97.70246" changeset="false"><tag k="addr:street" v="Govalle Avenue"/><tag k="addr:housenumber" v="3110"/><tag k="coa:place_id" v="860390"/></node><node id="-93" lat="30.266622" lon="-97.696165" changeset="false"><tag k="addr:street" v="Airport Boulevard"/><tag k="addr:housenumber" v="1124"/><tag k="coa:place_id" v="139874"/></node><node id="-94" lat="30.268677" lon="-97.700605" changeset="false"><tag k="addr:street" v="Tillery Street"/><tag k="addr:housenumber" v="1129"/><tag k="coa:place_id" v="140774"/></node><node id="-95" lat="30.267912" lon="-97.699234" changeset="false"><tag k="addr:street" v="Henninger Street"/><tag k="addr:housenumber" v="1202"/><tag k="coa:place_id" v="140390"/></node><node id="-96" lat="30.266521" lon="-97.704778" changeset="false"><tag k="addr:street" v="Govalle Avenue"/><tag k="addr:housenumber" v="2913"/><tag k="coa:place_id" v="3313785"/></node><node id="-97" lat="30.263786" lon="-97.699405" changeset="false"><tag k="addr:street" v="Gunter Street"/><tag k="addr:housenumber" v="1104 1/2"/><tag k="coa:place_id" v="139628"/></node><node id="-98" lat="30.263799" lon="-97.699452" changeset="false"><tag k="addr:street" v="Neal Street"/><tag k="addr:housenumber" v="3507"/><tag k="coa:place_id" v="139442"/></node></osm>