<?xml version="1.0" encoding="UTF-8"?><osm version="0.6" generator="github.com/aaronlidman/osm-and-geojson"><node id="-1" lat="30.339639" lon="-97.563682" changeset="false"><tag k="addr:street" v="Burton Street"/><tag k="addr:housenumber" v="11200"/><tag k="coa:place_id" v="3145526"/></node><node id="-2" lat="30.338085" lon="-97.561606" changeset="false"><tag k="addr:street" v="Brenham Street East,1100"/><tag k="addr:housenumber" v="11501"/><tag k="coa:place_id" v="3145437"/></node><node id="-3" lat="30.338007" lon="-97.5613" changeset="false"><tag k="addr:street" v="Brenham Street East,1100"/><tag k="addr:housenumber" v="11505"/><tag k="coa:place_id" v="3145439"/></node><node id="-4" lat="30.339684" lon="-97.560935" changeset="false"><tag k="addr:street" v="Carrie Manor Street West,1100"/><tag k="addr:housenumber" v="11501"/><tag k="coa:place_id" v="3145308"/></node><node id="-5" lat="30.33939" lon="-97.561363" changeset="false"><tag k="addr:street" v="Burton Street"/><tag k="addr:housenumber" v="11406"/><tag k="coa:place_id" v="3145318"/></node><node id="-6" lat="30.339315" lon="-97.560858" changeset="false"><tag k="addr:street" v="Burton Street"/><tag k="addr:housenumber" v="11502"/><tag k="coa:place_id" v="3145321"/></node><node id="-7" lat="30.339144" lon="-97.562492" changeset="false"><tag k="addr:street" v="Burton Street"/><tag k="addr:housenumber" v="11305"/><tag k="coa:place_id" v="3145324"/></node><node id="-8" lat="30.338168" lon="-97.561928" changeset="false"><tag k="addr:street" v="Brenham Street East,1100"/><tag k="addr:housenumber" v="11409"/><tag k="coa:place_id" v="3145435"/></node><node id="-9" lat="30.339943" lon="-97.562423" changeset="false"><tag k="addr:street" v="Carrie Manor Street West,1100"/><tag k="addr:housenumber" v="11303"/><tag k="coa:place_id" v="3145299"/></node><node id="-10" lat="30.339761" lon="-97.561444" changeset="false"><tag k="addr:street" v="Carrie Manor Street West,1100"/><tag k="addr:housenumber" v="11405"/><tag k="coa:place_id" v="3145305"/></node><node id="-11" lat="30.339467" lon="-97.561848" changeset="false"><tag k="addr:street" v="Burton Street"/><tag k="addr:housenumber" v="11400"/><tag k="coa:place_id" v="3145315"/></node><node id="-12" lat="30.339443" lon="-97.561676" changeset="false"><tag k="addr:street" v="Burton Street"/><tag k="addr:housenumber" v="11402"/><tag k="coa:place_id" v="3145316"/></node><node id="-13" lat="30.339061" lon="-97.562021" changeset="false"><tag k="addr:street" v="Burton Street"/><tag k="addr:housenumber" v="11401"/><tag k="coa:place_id" v="3145332"/></node><node id="-14" lat="30.338198" lon="-97.562057" changeset="false"><tag k="addr:street" v="Brenham Street East,1100"/><tag k="addr:housenumber" v="11407"/><tag k="coa:place_id" v="3145434"/></node><node id="-15" lat="30.338847" lon="-97.563045" changeset="false"><tag k="addr:street" v="Brenham Street East,1100"/><tag k="addr:housenumber" v="11304"/><tag k="coa:place_id" v="3145529"/></node><node id="-16" lat="30.338637" lon="-97.563905" changeset="false"><tag k="addr:street" v="Athens Street"/><tag k="addr:housenumber" v="12126"/><tag k="coa:place_id" v="3145540"/></node><node id="-17" lat="30.338371" lon="-97.563975" changeset="false"><tag k="addr:street" v="Athens Street"/><tag k="addr:housenumber" v="12122"/><tag k="coa:place_id" v="3145538"/></node><node id="-18" lat="30.337608" lon="-97.560602" changeset="false"><tag k="addr:street" v="Bastrop Street,1100"/><tag k="addr:housenumber" v="12127"/><tag k="coa:place_id" v="3145463"/></node><node id="-19" lat="30.283014" lon="-97.60811" changeset="false"><tag k="addr:street" v="Blue Bluff Road"/><tag k="addr:housenumber" v="6707"/><tag k="coa:place_id" v="305696"/></node><node id="-20" lat="30.338739" lon="-97.563863" changeset="false"><tag k="addr:street" v="Athens Street"/><tag k="addr:housenumber" v="12128"/><tag k="coa:place_id" v="3145541"/></node><node id="-21" lat="30.333733" lon="-97.562545" changeset="false"><tag k="addr:street" v="Morgan's Point Street"/><tag k="addr:housenumber" v="11602"/><tag k="coa:place_id" v="3191663"/></node><node id="-22" lat="30.332647" lon="-97.562846" changeset="false"><tag k="addr:street" v="Navasota Street"/><tag k="addr:housenumber" v="11825"/><tag k="coa:place_id" v="3191580"/></node><node id="-23" lat="30.33141" lon="-97.564623" changeset="false"><tag k="addr:street" v="Athens Street"/><tag k="addr:housenumber" v="11810"/><tag k="coa:place_id" v="3382500"/></node><node id="-24" lat="30.338435" lon="-97.563478" changeset="false"><tag k="addr:street" v="Brenham Street East,1100"/><tag k="addr:housenumber" v="11301"/><tag k="coa:place_id" v="3192093"/></node><node id="-25" lat="30.337912" lon="-97.56099" changeset="false"><tag k="addr:street" v="Brenham Street East,1100"/><tag k="addr:housenumber" v="11509"/><tag k="coa:place_id" v="3192096"/></node><node id="-26" lat="30.338371" lon="-97.560723" changeset="false"><tag k="addr:street" v="Brenham Street East,1100"/><tag k="addr:housenumber" v="11510"/><tag k="coa:place_id" v="3192097"/></node><node id="-27" lat="30.33881" lon="-97.56055" changeset="false"><tag k="addr:street" v="Burton Street"/><tag k="addr:housenumber" v="11509"/><tag k="coa:place_id" v="3192099"/></node><node id="-28" lat="30.332089" lon="-97.562998" changeset="false"><tag k="addr:street" v="Navasota Street"/><tag k="addr:housenumber" v="11817"/><tag k="coa:place_id" v="3191574"/></node><node id="-29" lat="30.336091" lon="-97.564058" changeset="false"><tag k="addr:street" v="Lapoynor Street"/><tag k="addr:housenumber" v="11401"/><tag k="coa:place_id" v="3192043"/></node><node id="-30" lat="30.341465" lon="-97.579455" changeset="false"><tag k="addr:street" v="East Parmer Lane"/><tag k="addr:housenumber" v="9701 1/2"/><tag k="coa:place_id" v="5104958"/></node><node id="-31" lat="30.338136" lon="-97.561747" changeset="false"><tag k="addr:street" v="Brenham Street East,1100"/><tag k="addr:housenumber" v="11411"/><tag k="coa:place_id" v="3145436"/></node><node id="-32" lat="30.339909" lon="-97.562255" changeset="false"><tag k="addr:street" v="Carrie Manor Street West,1100"/><tag k="addr:housenumber" v="11305"/><tag k="coa:place_id" v="3145300"/></node><node id="-33" lat="30.338837" lon="-97.563855" changeset="false"><tag k="addr:street" v="Athens Street"/><tag k="addr:housenumber" v="12200"/><tag k="coa:place_id" v="3145520"/></node><node id="-34" lat="30.338318" lon="-97.562847" changeset="false"><tag k="addr:street" v="Brenham Street East,1100"/><tag k="addr:housenumber" v="11309"/><tag k="coa:place_id" v="3145534"/></node><node id="-35" lat="30.339252" lon="-97.563094" changeset="false"><tag k="addr:street" v="Burton Street"/><tag k="addr:housenumber" v="11203"/><tag k="coa:place_id" v="3145517"/></node><node id="-36" lat="30.339031" lon="-97.561865" changeset="false"><tag k="addr:street" v="Burton Street"/><tag k="addr:housenumber" v="11403"/><tag k="coa:place_id" v="3145333"/></node><node id="-37" lat="30.340739" lon="-97.591186" changeset="false"><tag k="addr:street" v="US Highway 290"/><tag k="addr:housenumber" v="10036 1/2"/><tag k="coa:place_id" v="3181725"/></node><node id="-38" lat="30.341458" lon="-97.586431" changeset="false"><tag k="addr:street" v="US Highway 290"/><tag k="addr:housenumber" v="10091"/><tag k="coa:place_id" v="229268"/></node><node id="-39" lat="30.302223" lon="-97.565984" changeset="false"><tag k="addr:street" v="Farm-to-Market Road 973,1100"/><tag k="addr:housenumber" v="9600"/><tag k="coa:place_id" v="1128928"/></node><node id="-40" lat="30.339734" lon="-97.561276" changeset="false"><tag k="addr:street" v="Carrie Manor Street West,1100"/><tag k="addr:housenumber" v="11407"/><tag k="coa:place_id" v="3145306"/></node><node id="-41" lat="30.339634" lon="-97.560626" changeset="false"><tag k="addr:street" v="Carrie Manor Street West,1100"/><tag k="addr:housenumber" v="11505"/><tag k="coa:place_id" v="3145310"/></node><node id="-42" lat="30.339339" lon="-97.561018" changeset="false"><tag k="addr:street" v="Burton Street"/><tag k="addr:housenumber" v="11500"/><tag k="coa:place_id" v="3145320"/></node><node id="-43" lat="30.320938" lon="-97.588403" changeset="false"><tag k="addr:street" v="Lindell Lane"/><tag k="addr:housenumber" v="10100"/><tag k="coa:place_id" v="186357"/></node><node id="-44" lat="30.33461" lon="-97.562818" changeset="false"><tag k="addr:street" v="Marshall Street"/><tag k="addr:housenumber" v="11508"/><tag k="coa:place_id" v="3191697"/></node><node id="-45" lat="30.335667" lon="-97.561889" changeset="false"><tag k="addr:street" v="Lapoynor Street"/><tag k="addr:housenumber" v="11605"/><tag k="coa:place_id" v="3192018"/></node><node id="-46" lat="30.332669" lon="-97.560161" changeset="false"><tag k="addr:street" v="Farm-to-Market Road 973,1100"/><tag k="addr:housenumber" v="11900"/><tag k="coa:place_id" v="3370284"/></node><node id="-47" lat="30.334444" lon="-97.559717" changeset="false"><tag k="addr:street" v="Farm-to-Market Road 973,1100"/><tag k="addr:housenumber" v="12000"/><tag k="coa:place_id" v="3370287"/></node><node id="-48" lat="30.334135" lon="-97.56227" changeset="false"><tag k="addr:street" v="Marshall Street"/><tag k="addr:housenumber" v="11605"/><tag k="coa:place_id" v="3191706"/></node><node id="-49" lat="30.339276" lon="-97.563251" changeset="false"><tag k="addr:street" v="Burton Street"/><tag k="addr:housenumber" v="11201"/><tag k="coa:place_id" v="3192094"/></node><node id="-50" lat="30.341098" lon="-97.561216" changeset="false"><tag k="addr:street" v="West Parsons Street"/><tag k="addr:housenumber" v="400"/><tag k="coa:place_id" v="3386004"/></node><node id="-51" lat="30.331813" lon="-97.56307" changeset="false"><tag k="addr:street" v="Navasota Street"/><tag k="addr:housenumber" v="11813"/><tag k="coa:place_id" v="3191568"/></node><node id="-52" lat="30.334223" lon="-97.564887" changeset="false"><tag k="addr:street" v="Athens Street"/><tag k="addr:housenumber" v="11908"/><tag k="coa:place_id" v="3364602"/></node><node id="-53" lat="30.338044" lon="-97.561457" changeset="false"><tag k="addr:street" v="Brenham Street East,1100"/><tag k="addr:housenumber" v="11503"/><tag k="coa:place_id" v="3145438"/></node><node id="-54" lat="30.281392" lon="-97.609918" changeset="false"><tag k="addr:street" v="Blue Bluff Road"/><tag k="addr:housenumber" v="6510"/><tag k="coa:place_id" v="242647"/></node><node id="-55" lat="30.340579" lon="-97.591606" changeset="false"><tag k="addr:street" v="US Highway 290"/><tag k="addr:housenumber" v="10028"/><tag k="coa:place_id" v="89607"/></node><node id="-56" lat="30.339867" lon="-97.590658" changeset="false"><tag k="addr:street" v="US Highway 290"/><tag k="addr:housenumber" v="10035"/><tag k="coa:place_id" v="3050008"/></node><node id="-57" lat="30.338309" lon="-97.562692" changeset="false"><tag k="addr:street" v="Brenham Street East,1100"/><tag k="addr:housenumber" v="11311"/><tag k="coa:place_id" v="3145358"/></node><node id="-58" lat="30.339504" lon="-97.562016" changeset="false"><tag k="addr:street" v="Burton Street"/><tag k="addr:housenumber" v="11308"/><tag k="coa:place_id" v="3145314"/></node><node id="-59" lat="30.338456" lon="-97.561025" changeset="false"><tag k="addr:street" v="Brenham Street East,1100"/><tag k="addr:housenumber" v="11506"/><tag k="coa:place_id" v="3145356"/></node><node id="-60" lat="30.338426" lon="-97.560856" changeset="false"><tag k="addr:street" v="Brenham Street East,1100"/><tag k="addr:housenumber" v="11508"/><tag k="coa:place_id" v="3145357"/></node><node id="-61" lat="30.303885" lon="-97.565516" changeset="false"><tag k="addr:street" v="Farm-to-Market Road 973,1100"/><tag k="addr:housenumber" v="9706"/><tag k="coa:place_id" v="195227"/></node><node id="-62" lat="30.334344" lon="-97.56336" changeset="false"><tag k="addr:street" v="Marshall Street"/><tag k="addr:housenumber" v="11503"/><tag k="coa:place_id" v="3191692"/></node><node id="-63" lat="30.339252" lon="-97.560534" changeset="false"><tag k="addr:street" v="Burton Street"/><tag k="addr:housenumber" v="11506"/><tag k="coa:place_id" v="3192098"/></node><node id="-64" lat="30.337381" lon="-97.558873" changeset="false"><tag k="addr:street" v="Farm-to-Market Road 973,1100"/><tag k="addr:housenumber" v="12130"/><tag k="coa:place_id" v="3317711"/></node><node id="-65" lat="30.332551" lon="-97.564379" changeset="false"><tag k="addr:street" v="Athens Street"/><tag k="addr:housenumber" v="11813"/><tag k="coa:place_id" v="3191625"/></node><node id="-66" lat="30.338892" lon="-97.563363" changeset="false"><tag k="addr:street" v="Brenham Street East,1100"/><tag k="addr:housenumber" v="11300"/><tag k="coa:place_id" v="3192092"/></node><node id="-67" lat="30.335924" lon="-97.560437" changeset="false"><tag k="addr:street" v="Lapoynor Street"/><tag k="addr:housenumber" v="11724"/><tag k="coa:place_id" v="3370289"/></node><node id="-68" lat="30.336079" lon="-97.56195" changeset="false"><tag k="addr:street" v="Lapoynor Street"/><tag k="addr:housenumber" v="11602"/><tag k="coa:place_id" v="3192073"/></node><node id="-69" lat="30.335734" lon="-97.559484" changeset="false"><tag k="addr:street" v="Lapoynor Street"/><tag k="addr:housenumber" v="12750"/><tag k="coa:place_id" v="3205732"/></node><node id="-70" lat="30.339714" lon="-97.561115" changeset="false"><tag k="addr:street" v="Carrie Manor Street West,1100"/><tag k="addr:housenumber" v="11409"/><tag k="coa:place_id" v="3145307"/></node><node id="-71" lat="30.338619" lon="-97.561804" changeset="false"><tag k="addr:street" v="Brenham Street East,1100"/><tag k="addr:housenumber" v="11408"/><tag k="coa:place_id" v="3145347"/></node><node id="-72" lat="30.339779" lon="-97.563631" changeset="false"><tag k="addr:street" v="Burton Street"/><tag k="addr:housenumber" v="11202"/><tag k="coa:place_id" v="3145527"/></node><node id="-73" lat="30.338249" lon="-97.562368" changeset="false"><tag k="addr:street" v="Brenham Street East,1100"/><tag k="addr:housenumber" v="11403"/><tag k="coa:place_id" v="3145432"/></node><node id="-74" lat="30.33966" lon="-97.560771" changeset="false"><tag k="addr:street" v="Carrie Manor Street West,1100"/><tag k="addr:housenumber" v="11503"/><tag k="coa:place_id" v="3145309"/></node><node id="-75" lat="30.339825" lon="-97.561773" changeset="false"><tag k="addr:street" v="Carrie Manor Street West,1100"/><tag k="addr:housenumber" v="11401"/><tag k="coa:place_id" v="3145303"/></node><node id="-76" lat="30.338405" lon="-97.56331" changeset="false"><tag k="addr:street" v="Brenham Street East,1100"/><tag k="addr:housenumber" v="11303"/><tag k="coa:place_id" v="3145531"/></node><node id="-77" lat="30.338379" lon="-97.563147" changeset="false"><tag k="addr:street" v="Brenham Street East,1100"/><tag k="addr:housenumber" v="11305"/><tag k="coa:place_id" v="3145532"/></node><node id="-78" lat="30.338233" lon="-97.563999" changeset="false"><tag k="addr:street" v="Athens Street"/><tag k="addr:housenumber" v="12120"/><tag k="coa:place_id" v="3145537"/></node><node id="-79" lat="30.334039" lon="-97.56154" changeset="false"><tag k="addr:street" v="Bastrop Street,1100"/><tag k="addr:housenumber" v="11919"/><tag k="coa:place_id" v="3191675"/></node><node id="-80" lat="30.336232" lon="-97.562887" changeset="false"><tag k="addr:street" v="Lapoynor Street"/><tag k="addr:housenumber" v="11502"/><tag k="coa:place_id" v="3192056"/></node><node id="-81" lat="30.331932" lon="-97.560413" changeset="false"><tag k="addr:street" v="Farm-to-Market Road 973,1100"/><tag k="addr:housenumber" v="11830"/><tag k="coa:place_id" v="3370283"/></node><node id="-82" lat="30.333247" lon="-97.560005" changeset="false"><tag k="addr:street" v="Farm-to-Market Road 973,1100"/><tag k="addr:housenumber" v="11910"/><tag k="coa:place_id" v="3370285"/></node><node id="-83" lat="30.333826" lon="-97.559873" changeset="false"><tag k="addr:street" v="Farm-to-Market Road 973,1100"/><tag k="addr:housenumber" v="11920"/><tag k="coa:place_id" v="3370286"/></node><node id="-84" lat="30.336107" lon="-97.562107" changeset="false"><tag k="addr:street" v="Lapoynor Street"/><tag k="addr:housenumber" v="11600"/><tag k="coa:place_id" v="3192071"/></node><node id="-85" lat="30.335042" lon="-97.559538" changeset="false"><tag k="addr:street" v="Farm-to-Market Road 973,1100"/><tag k="addr:housenumber" v="12010"/><tag k="coa:place_id" v="3370288"/></node><node id="-86" lat="30.341543" lon="-97.563894" changeset="false"><tag k="addr:street" v="West Parsons Street"/><tag k="addr:housenumber" v="430"/><tag k="coa:place_id" v="5097348"/></node><node id="-87" lat="30.339198" lon="-97.562803" changeset="false"><tag k="addr:street" v="Burton Street"/><tag k="addr:housenumber" v="11301"/><tag k="coa:place_id" v="3145519"/></node><node id="-88" lat="30.338509" lon="-97.563926" changeset="false"><tag k="addr:street" v="Athens Street"/><tag k="addr:housenumber" v="12124"/><tag k="coa:place_id" v="3145539"/></node><node id="-89" lat="30.323851" lon="-97.561787" changeset="false"><tag k="addr:street" v="Farm-to-Market Road 973,1100"/><tag k="addr:housenumber" v="11406"/><tag k="coa:place_id" v="1146828"/></node><node id="-90" lat="30.340496" lon="-97.589446" changeset="false"><tag k="addr:street" v="US Highway 290"/><tag k="addr:housenumber" v="10047"/><tag k="coa:place_id" v="229250"/></node><node id="-91" lat="30.285994" lon="-97.619117" changeset="false"><tag k="addr:street" v="Decker Lake Road"/><tag k="addr:housenumber" v="9608"/><tag k="coa:place_id" v="385144"/></node><node id="-92" lat="30.339852" lon="-97.561941" changeset="false"><tag k="addr:street" v="Carrie Manor Street West,1100"/><tag k="addr:housenumber" v="11309"/><tag k="coa:place_id" v="3145302"/></node><node id="-93" lat="30.339275" lon="-97.560697" changeset="false"><tag k="addr:street" v="Burton Street"/><tag k="addr:housenumber" v="11504"/><tag k="coa:place_id" v="3145322"/></node><node id="-94" lat="30.307384" lon="-97.564632" changeset="false"><tag k="addr:street" v="Farm-to-Market Road 973,1100"/><tag k="addr:housenumber" v="10014"/><tag k="coa:place_id" v="1128714"/></node><node id="-95" lat="30.305878" lon="-97.6181" changeset="false"><tag k="addr:street" v="Decker Lane"/><tag k="addr:housenumber" v="8005"/><tag k="coa:place_id" v="391869"/></node><node id="-96" lat="30.338542" lon="-97.561329" changeset="false"><tag k="addr:street" v="Brenham Street East,1100"/><tag k="addr:housenumber" v="11502"/><tag k="coa:place_id" v="3145354"/></node><node id="-97" lat="30.339591" lon="-97.56251" changeset="false"><tag k="addr:street" v="Burton Street"/><tag k="addr:housenumber" v="11302"/><tag k="coa:place_id" v="3145311"/></node><node id="-98" lat="30.339558" lon="-97.562365" changeset="false"><tag k="addr:street" v="Burton Street"/><tag k="addr:housenumber" v="11304"/><tag k="coa:place_id" v="3145312"/></node><node id="-99" lat="30.339534" lon="-97.562181" changeset="false"><tag k="addr:street" v="Burton Street"/><tag k="addr:housenumber" v="11306"/><tag k="coa:place_id" v="3145313"/></node><node id="-100" lat="30.338851" lon="-97.560715" changeset="false"><tag k="addr:street" v="Burton Street"/><tag k="addr:housenumber" v="11507"/><tag k="coa:place_id" v="3145340"/></node><node id="-101" lat="30.32015" lon="-97.588162" changeset="false"><tag k="addr:street" v="Lindell Lane"/><tag k="addr:housenumber" v="10203"/><tag k="coa:place_id" v="119239"/></node><node id="-102" lat="30.299468" lon="-97.622263" changeset="false"><tag k="addr:street" v="Decker Lane"/><tag k="addr:housenumber" v="7407"/><tag k="coa:place_id" v="228622"/></node><node id="-103" lat="30.282846" lon="-97.608715" changeset="false"><tag k="addr:street" v="Blue Bluff Road"/><tag k="addr:housenumber" v="6620"/><tag k="coa:place_id" v="90297"/></node><node id="-104" lat="30.334463" lon="-97.564799" changeset="false"><tag k="addr:street" v="Athens Street"/><tag k="addr:housenumber" v="11912"/><tag k="coa:place_id" v="3364603"/></node><node id="-105" lat="30.334072" lon="-97.561923" changeset="false"><tag k="addr:street" v="Marshall Street"/><tag k="addr:housenumber" v="11609"/><tag k="coa:place_id" v="3191710"/></node><node id="-106" lat="30.331679" lon="-97.563152" changeset="false"><tag k="addr:street" v="Navasota Street"/><tag k="addr:housenumber" v="11811"/><tag k="coa:place_id" v="3191566"/></node><node id="-107" lat="30.337955" lon="-97.558751" changeset="false"><tag k="addr:street" v="Brenham Street East,1100"/><tag k="addr:housenumber" v="103"/><tag k="coa:place_id" v="3302741"/></node><node id="-108" lat="30.336307" lon="-97.563195" changeset="false"><tag k="addr:street" v="Lapoynor Street"/><tag k="addr:housenumber" v="11410"/><tag k="coa:place_id" v="3192052"/></node><node id="-109" lat="30.280813" lon="-97.610169" changeset="false"><tag k="addr:street" v="Blue Bluff Road"/><tag k="addr:housenumber" v="6480"/><tag k="coa:place_id" v="5065962"/></node><node id="-110" lat="30.339359" lon="-97.561187" changeset="false"><tag k="addr:street" v="Burton Street"/><tag k="addr:housenumber" v="11408"/><tag k="coa:place_id" v="3145319"/></node><node id="-111" lat="30.317962" lon="-97.568109" changeset="false"><tag k="addr:street" v="Blue Bluff Road"/><tag k="addr:housenumber" v="10621"/><tag k="coa:place_id" v="3105842"/></node><node id="-112" lat="30.338793" lon="-97.562728" changeset="false"><tag k="addr:street" v="Brenham Street East,1100"/><tag k="addr:housenumber" v="11308"/><tag k="coa:place_id" v="3145341"/></node><node id="-113" lat="30.338566" lon="-97.561494" changeset="false"><tag k="addr:street" v="Brenham Street East,1100"/><tag k="addr:housenumber" v="11500"/><tag k="coa:place_id" v="3145353"/></node><node id="-114" lat="30.33411" lon="-97.564548" changeset="false"><tag k="addr:street" v="Morgan's Point Street"/><tag k="addr:housenumber" v="11400"/><tag k="coa:place_id" v="3191637"/></node><node id="-115" lat="30.320992" lon="-97.587919" changeset="false"><tag k="addr:street" v="Lindell Lane"/><tag k="addr:housenumber" v="10208"/><tag k="coa:place_id" v="228085"/></node><node id="-116" lat="30.331158" lon="-97.563359" changeset="false"><tag k="addr:street" v="Navasota Street"/><tag k="addr:housenumber" v="11803"/><tag k="coa:place_id" v="3191558"/></node><node id="-117" lat="30.331096" lon="-97.563887" changeset="false"><tag k="addr:street" v="Navasota Street"/><tag k="addr:housenumber" v="11800"/><tag k="coa:place_id" v="3191555"/></node><node id="-118" lat="30.341095" lon="-97.578588" changeset="false"><tag k="addr:street" v="East Parmer Lane"/><tag k="addr:housenumber" v="9724"/><tag k="coa:place_id" v="5094800"/></node><node id="-119" lat="30.334365" lon="-97.563501" changeset="false"><tag k="addr:street" v="Marshall Street"/><tag k="addr:housenumber" v="11501"/><tag k="coa:place_id" v="3191690"/></node><node id="-120" lat="30.334321" lon="-97.563197" changeset="false"><tag k="addr:street" v="Marshall Street"/><tag k="addr:housenumber" v="11505"/><tag k="coa:place_id" v="3191694"/></node><node id="-121" lat="30.334225" lon="-97.56273" changeset="false"><tag k="addr:street" v="Marshall Street"/><tag k="addr:housenumber" v="11511"/><tag k="coa:place_id" v="3191700"/></node><node id="-122" lat="30.340002" lon="-97.562579" changeset="false"><tag k="addr:street" v="Carrie Manor Street West,1100"/><tag k="addr:housenumber" v="11301"/><tag k="coa:place_id" v="3371082"/></node><node id="-123" lat="30.337918" lon="-97.558624" changeset="false"><tag k="addr:street" v="Brenham Street East,1100"/><tag k="addr:housenumber" v="101"/><tag k="coa:place_id" v="3302740"/></node><node id="-124" lat="30.33597" lon="-97.563436" changeset="false"><tag k="addr:street" v="Lapoynor Street"/><tag k="addr:housenumber" v="11409"/><tag k="coa:place_id" v="3192051"/></node><node id="-125" lat="30.336274" lon="-97.563038" changeset="false"><tag k="addr:street" v="Lapoynor Street"/><tag k="addr:housenumber" v="11500"/><tag k="coa:place_id" v="3192054"/></node><node id="-126" lat="30.326134" lon="-97.604978" changeset="false"><tag k="addr:street" v="Decker Lane"/><tag k="addr:housenumber" v="10001"/><tag k="coa:place_id" v="229202"/></node><node id="-127" lat="30.338232" lon="-97.562206" changeset="false"><tag k="addr:street" v="Brenham Street East,1100"/><tag k="addr:housenumber" v="11405"/><tag k="coa:place_id" v="3145433"/></node><node id="-128" lat="30.331287" lon="-97.563298" changeset="false"><tag k="addr:street" v="Navasota Street"/><tag k="addr:housenumber" v="11805"/><tag k="coa:place_id" v="3191560"/></node><node id="-129" lat="30.336431" lon="-97.563969" changeset="false"><tag k="addr:street" v="Lapoynor Street"/><tag k="addr:housenumber" v="11400"/><tag k="coa:place_id" v="3192042"/></node><node id="-130" lat="30.339602" lon="-97.560462" changeset="false"><tag k="addr:street" v="Carrie Manor Street West,1100"/><tag k="addr:housenumber" v="11507"/><tag k="coa:place_id" v="3192101"/></node><node id="-131" lat="30.305694" lon="-97.618209" changeset="false"><tag k="addr:street" v="Decker Lane"/><tag k="addr:housenumber" v="8003"/><tag k="coa:place_id" v="558742"/></node><node id="-132" lat="30.338868" lon="-97.563199" changeset="false"><tag k="addr:street" v="Brenham Street East,1100"/><tag k="addr:housenumber" v="11302"/><tag k="coa:place_id" v="3145528"/></node><node id="-133" lat="30.339369" lon="-97.563744" changeset="false"><tag k="addr:street" v="Athens Street"/><tag k="addr:housenumber" v="12208"/><tag k="coa:place_id" v="3145524"/></node><node id="-134" lat="30.309509" lon="-97.564861" changeset="false"><tag k="addr:street" v="Farm-to-Market Road 973,1100"/><tag k="addr:housenumber" v="10206"/><tag k="coa:place_id" v="1128348"/></node><node id="-135" lat="30.308316" lon="-97.590831" changeset="false"><tag k="addr:street" v="Bloor Road"/><tag k="addr:housenumber" v="10501"/><tag k="coa:place_id" v="125711"/></node><node id="-136" lat="30.288828" lon="-97.623399" changeset="false"><tag k="addr:street" v="Decker Lake Road"/><tag k="addr:housenumber" v="9100"/><tag k="coa:place_id" v="206297"/></node><node id="-137" lat="30.305153" lon="-97.618475" changeset="false"><tag k="addr:street" v="Decker Lane"/><tag k="addr:housenumber" v="8001"/><tag k="coa:place_id" v="90698"/></node><node id="-138" lat="30.339007" lon="-97.561708" changeset="false"><tag k="addr:street" v="Burton Street"/><tag k="addr:housenumber" v="11405"/><tag k="coa:place_id" v="3145334"/></node><node id="-139" lat="30.324056" lon="-97.603811" changeset="false"><tag k="addr:street" v="Lindell Lane"/><tag k="addr:housenumber" v="8705"/><tag k="coa:place_id" v="451977"/></node><node id="-140" lat="30.319848" lon="-97.603527" changeset="false"><tag k="addr:street" v="Lindell Lane"/><tag k="addr:housenumber" v="8707"/><tag k="coa:place_id" v="345897"/></node><node id="-141" lat="30.338706" lon="-97.562258" changeset="false"><tag k="addr:street" v="Brenham Street East,1100"/><tag k="addr:housenumber" v="11402"/><tag k="coa:place_id" v="3145344"/></node><node id="-142" lat="30.31144" lon="-97.614526" changeset="false"><tag k="addr:street" v="Decker Lane"/><tag k="addr:housenumber" v="8519 1/2"/><tag k="coa:place_id" v="3127152"/></node><node id="-143" lat="30.339101" lon="-97.563806" changeset="false"><tag k="addr:street" v="Athens Street"/><tag k="addr:housenumber" v="12204"/><tag k="coa:place_id" v="3145522"/></node><node id="-144" lat="30.338971" lon="-97.563828" changeset="false"><tag k="addr:street" v="Athens Street"/><tag k="addr:housenumber" v="12202"/><tag k="coa:place_id" v="3145521"/></node><node id="-145" lat="30.339174" lon="-97.562633" changeset="false"><tag k="addr:street" v="Burton Street"/><tag k="addr:housenumber" v="11303"/><tag k="coa:place_id" v="3145323"/></node><node id="-146" lat="30.338348" lon="-97.563015" changeset="false"><tag k="addr:street" v="Brenham Street East,1100"/><tag k="addr:housenumber" v="11307"/><tag k="coa:place_id" v="3145533"/></node><node id="-147" lat="30.337956" lon="-97.564064" changeset="false"><tag k="addr:street" v="Athens Street"/><tag k="addr:housenumber" v="12116"/><tag k="coa:place_id" v="3145535"/></node><node id="-148" lat="30.305969" lon="-97.564769" changeset="false"><tag k="addr:street" v="Farm-to-Market Road 973,1100"/><tag k="addr:housenumber" v="9926"/><tag k="coa:place_id" v="1128926"/></node><node id="-149" lat="30.338499" lon="-97.561181" changeset="false"><tag k="addr:street" v="Brenham Street East,1100"/><tag k="addr:housenumber" v="11504"/><tag k="coa:place_id" v="3145355"/></node><node id="-150" lat="30.338947" lon="-97.561395" changeset="false"><tag k="addr:street" v="Burton Street"/><tag k="addr:housenumber" v="11409"/><tag k="coa:place_id" v="3145336"/></node><node id="-151" lat="30.338924" lon="-97.561238" changeset="false"><tag k="addr:street" v="Burton Street"/><tag k="addr:housenumber" v="11501"/><tag k="coa:place_id" v="3145337"/></node><node id="-152" lat="30.341443" lon="-97.579582" changeset="false"><tag k="addr:street" v="East Parmer Lane"/><tag k="addr:housenumber" v="9701"/><tag k="coa:place_id" v="3050007"/></node><node id="-153" lat="30.338763" lon="-97.562568" changeset="false"><tag k="addr:street" v="Brenham Street East,1100"/><tag k="addr:housenumber" v="11310"/><tag k="coa:place_id" v="3145342"/></node><node id="-154" lat="30.338287" lon="-97.562529" changeset="false"><tag k="addr:street" v="Brenham Street East,1100"/><tag k="addr:housenumber" v="11401"/><tag k="coa:place_id" v="3145431"/></node><node id="-155" lat="30.337966" lon="-97.561154" changeset="false"><tag k="addr:street" v="Brenham Street East,1100"/><tag k="addr:housenumber" v="11507"/><tag k="coa:place_id" v="3145440"/></node><node id="-156" lat="30.340598" lon="-97.588541" changeset="false"><tag k="addr:street" v="US Highway 290"/><tag k="addr:housenumber" v="10061"/><tag k="coa:place_id" v="750315"/></node><node id="-157" lat="30.340266" lon="-97.590035" changeset="false"><tag k="addr:street" v="US Highway 290"/><tag k="addr:housenumber" v="10041 1/2"/><tag k="coa:place_id" v="226800"/></node><node id="-158" lat="30.286179" lon="-97.593319" changeset="false"><tag k="addr:street" v="Farm-to-Market Road 973,1100"/><tag k="addr:housenumber" v="7308"/><tag k="coa:place_id" v="206811"/></node><node id="-159" lat="30.339423" lon="-97.561512" changeset="false"><tag k="addr:street" v="Burton Street"/><tag k="addr:housenumber" v="11404"/><tag k="coa:place_id" v="3145317"/></node><node id="-160" lat="30.339876" lon="-97.562098" changeset="false"><tag k="addr:street" v="Carrie Manor Street West,1100"/><tag k="addr:housenumber" v="11307"/><tag k="coa:place_id" v="3145301"/></node><node id="-161" lat="30.339791" lon="-97.561589" changeset="false"><tag k="addr:street" v="Carrie Manor Street West,1100"/><tag k="addr:housenumber" v="11403"/><tag k="coa:place_id" v="3145304"/></node><node id="-162" lat="30.301625" lon="-97.621011" changeset="false"><tag k="addr:street" v="Decker Lane"/><tag k="addr:housenumber" v="7621"/><tag k="coa:place_id" v="930339"/></node><node id="-163" lat="30.339121" lon="-97.562327" changeset="false"><tag k="addr:street" v="Burton Street"/><tag k="addr:housenumber" v="11307"/><tag k="coa:place_id" v="3145325"/></node><node id="-164" lat="30.339094" lon="-97.562178" changeset="false"><tag k="addr:street" v="Burton Street"/><tag k="addr:housenumber" v="11309"/><tag k="coa:place_id" v="3145326"/></node><node id="-165" lat="30.33309" lon="-97.563524" changeset="false"><tag k="addr:street" v="Murchison Street"/><tag k="addr:housenumber" v="11504"/><tag k="coa:place_id" v="3191538"/></node><node id="-166" lat="30.283067" lon="-97.608437" changeset="false"><tag k="addr:street" v="Blue Bluff Road"/><tag k="addr:housenumber" v="6700"/><tag k="coa:place_id" v="1044290"/></node><node id="-167" lat="30.302946" lon="-97.565706" changeset="false"><tag k="addr:street" v="Farm-to-Market Road 973,1100"/><tag k="addr:housenumber" v="9608"/><tag k="coa:place_id" v="1128935"/></node><node id="-168" lat="30.334524" lon="-97.564273" changeset="false"><tag k="addr:street" v="Marshall Street"/><tag k="addr:housenumber" v="11403"/><tag k="coa:place_id" v="3191680"/></node><node id="-169" lat="30.334483" lon="-97.564117" changeset="false"><tag k="addr:street" v="Marshall Street"/><tag k="addr:housenumber" v="11405"/><tag k="coa:place_id" v="3191682"/></node><node id="-170" lat="30.33898" lon="-97.561547" changeset="false"><tag k="addr:street" v="Burton Street"/><tag k="addr:housenumber" v="11407"/><tag k="coa:place_id" v="3145335"/></node><node id="-171" lat="30.338894" lon="-97.561085" changeset="false"><tag k="addr:street" v="Burton Street"/><tag k="addr:housenumber" v="11503"/><tag k="coa:place_id" v="3145338"/></node><node id="-172" lat="30.332908" lon="-97.564532" changeset="false"><tag k="addr:street" v="Murchison Street"/><tag k="addr:housenumber" v="11403"/><tag k="coa:place_id" v="3191527"/></node><node id="-173" lat="30.339611" lon="-97.562677" changeset="false"><tag k="addr:street" v="Burton Street"/><tag k="addr:housenumber" v="11300"/><tag k="coa:place_id" v="3192095"/></node><node id="-174" lat="30.336182" lon="-97.593427" changeset="false"><tag k="addr:street" v="US Highway 290"/><tag k="addr:housenumber" v="10001"/><tag k="coa:place_id" v="3212685"/></node><node id="-175" lat="30.334281" lon="-97.563048" changeset="false"><tag k="addr:street" v="Marshall Street"/><tag k="addr:housenumber" v="11507"/><tag k="coa:place_id" v="3191696"/></node><node id="-176" lat="30.33866" lon="-97.561968" changeset="false"><tag k="addr:street" v="Brenham Street East,1100"/><tag k="addr:housenumber" v="11406"/><tag k="coa:place_id" v="3145346"/></node><node id="-177" lat="30.338673" lon="-97.562106" changeset="false"><tag k="addr:street" v="Brenham Street East,1100"/><tag k="addr:housenumber" v="11404"/><tag k="coa:place_id" v="3145345"/></node></osm>