<?xml version="1.0" encoding="UTF-8"?><osm version="0.6" generator="github.com/aaronlidman/osm-and-geojson"><node id="-1" lat="30.351682" lon="-97.720587" changeset="false"><tag k="addr:street" v="West Anderson Lane"/><tag k="addr:housenumber" v="1410"/><tag k="coa:place_id" v="891104"/></node><node id="-2" lat="30.349093" lon="-97.715696" changeset="false"><tag k="addr:street" v="West Anderson Lane"/><tag k="addr:housenumber" v="1012"/><tag k="coa:place_id" v="372130"/></node><node id="-3" lat="30.354168" lon="-97.720747" changeset="false"><tag k="addr:street" v="Dale Drive,1100"/><tag k="addr:housenumber" v="1500"/><tag k="coa:place_id" v="3292521"/></node><node id="-4" lat="30.352305" lon="-97.722446" changeset="false"><tag k="addr:street" v="West Anderson Lane"/><tag k="addr:housenumber" v="1524"/><tag k="coa:place_id" v="3194196"/></node><node id="-5" lat="30.362364" lon="-97.717571" changeset="false"><tag k="addr:street" v="Research Boulevard"/><tag k="addr:housenumber" v="8616"/><tag k="coa:place_id" v="110537"/></node><node id="-6" lat="30.360451" lon="-97.717152" changeset="false"><tag k="addr:street" v="Research Boulevard"/><tag k="addr:housenumber" v="8510"/><tag k="coa:place_id" v="206277"/></node><node id="-7" lat="30.354787" lon="-97.715439" changeset="false"><tag k="addr:street" v="Research Boulevard"/><tag k="addr:housenumber" v="8200"/><tag k="coa:place_id" v="441920"/></node><node id="-8" lat="30.355568" lon="-97.717455" changeset="false"><tag k="addr:street" v="Lazy Lane"/><tag k="addr:housenumber" v="8201"/><tag k="coa:place_id" v="136394"/></node><node id="-9" lat="30.36039" lon="-97.718327" changeset="false"><tag k="addr:street" v="Fairfield Drive"/><tag k="addr:housenumber" v="1505"/><tag k="coa:place_id" v="486950"/></node><node id="-10" lat="30.351543" lon="-97.717834" changeset="false"><tag k="addr:street" v="Dale Drive,1100"/><tag k="addr:housenumber" v="1211"/><tag k="coa:place_id" v="891848"/></node><node id="-11" lat="30.355585" lon="-97.720216" changeset="false"><tag k="addr:street" v="Wooten Drive"/><tag k="addr:housenumber" v="1502"/><tag k="coa:place_id" v="3101180"/></node><node id="-12" lat="30.354459" lon="-97.718011" changeset="false"><tag k="addr:street" v="Wooten Drive"/><tag k="addr:housenumber" v="1348 1/2"/><tag k="coa:place_id" v="3292428"/></node><node id="-13" lat="30.360634" lon="-97.71719" changeset="false"><tag k="addr:street" v="Research Boulevard"/><tag k="addr:housenumber" v="8540"/><tag k="coa:place_id" v="200396"/></node><node id="-14" lat="30.355566" lon="-97.718836" changeset="false"><tag k="addr:street" v="Beckett Street"/><tag k="addr:housenumber" v="1407"/><tag k="coa:place_id" v="136454"/></node><node id="-15" lat="30.355552" lon="-97.718576" changeset="false"><tag k="addr:street" v="Beckett Street"/><tag k="addr:housenumber" v="1405"/><tag k="coa:place_id" v="136448"/></node><node id="-16" lat="30.353672" lon="-97.721448" changeset="false"><tag k="addr:street" v="Burrell Drive"/><tag k="addr:housenumber" v="7917"/><tag k="coa:place_id" v="891188"/></node><node id="-17" lat="30.355318" lon="-97.716688" changeset="false"><tag k="addr:street" v="Research Boulevard"/><tag k="addr:housenumber" v="8228"/><tag k="coa:place_id" v="442256"/></node><node id="-18" lat="30.352631" lon="-97.719659" changeset="false"><tag k="addr:street" v="Lazy Lane"/><tag k="addr:housenumber" v="7920"/><tag k="coa:place_id" v="3101364"/></node><node id="-19" lat="30.350029" lon="-97.714505" changeset="false"><tag k="addr:street" v="Research Boulevard"/><tag k="addr:housenumber" v="7950"/><tag k="coa:place_id" v="200468"/></node><node id="-20" lat="30.349098" lon="-97.715522" changeset="false"><tag k="addr:street" v="West Anderson Lane"/><tag k="addr:housenumber" v="1008"/><tag k="coa:place_id" v="3034130"/></node><node id="-21" lat="30.36046" lon="-97.718509" changeset="false"><tag k="addr:street" v="Fairfield Drive"/><tag k="addr:housenumber" v="1507"/><tag k="coa:place_id" v="486944"/></node><node id="-22" lat="30.358235" lon="-97.716733" changeset="false"><tag k="addr:street" v="Research Boulevard"/><tag k="addr:housenumber" v="8412"/><tag k="coa:place_id" v="3034164"/></node><node id="-23" lat="30.360851" lon="-97.717224" changeset="false"><tag k="addr:street" v="Research Boulevard"/><tag k="addr:housenumber" v="8552"/><tag k="coa:place_id" v="94282"/></node><node id="-24" lat="30.360832" lon="-97.717323" changeset="false"><tag k="addr:street" v="Research Boulevard"/><tag k="addr:housenumber" v="8554"/><tag k="coa:place_id" v="939423"/></node><node id="-25" lat="30.361231" lon="-97.717421" changeset="false"><tag k="addr:street" v="Research Boulevard"/><tag k="addr:housenumber" v="8556"/><tag k="coa:place_id" v="117577"/></node><node id="-26" lat="30.355508" lon="-97.716163" changeset="false"><tag k="addr:street" v="Research Boulevard"/><tag k="addr:housenumber" v="8240"/><tag k="coa:place_id" v="442946"/></node><node id="-27" lat="30.355564" lon="-97.715914" changeset="false"><tag k="addr:street" v="Research Boulevard"/><tag k="addr:housenumber" v="8238"/><tag k="coa:place_id" v="442370"/></node><node id="-28" lat="30.355203" lon="-97.715736" changeset="false"><tag k="addr:street" v="Research Boulevard"/><tag k="addr:housenumber" v="8244"/><tag k="coa:place_id" v="249754"/></node><node id="-29" lat="30.355148" lon="-97.716052" changeset="false"><tag k="addr:street" v="Research Boulevard"/><tag k="addr:housenumber" v="8242"/><tag k="coa:place_id" v="442424"/></node><node id="-30" lat="30.348784" lon="-97.714142" changeset="false"><tag k="addr:street" v="West Anderson Lane"/><tag k="addr:housenumber" v="914"/><tag k="coa:place_id" v="890390"/></node><node id="-31" lat="30.348563" lon="-97.714256" changeset="false"><tag k="addr:street" v="West Anderson Lane"/><tag k="addr:housenumber" v="910"/><tag k="coa:place_id" v="200510"/></node><node id="-32" lat="30.348669" lon="-97.714201" changeset="false"><tag k="addr:street" v="West Anderson Lane"/><tag k="addr:housenumber" v="912"/><tag k="coa:place_id" v="229131"/></node><node id="-33" lat="30.348915" lon="-97.714098" changeset="false"><tag k="addr:street" v="West Anderson Lane"/><tag k="addr:housenumber" v="916"/><tag k="coa:place_id" v="961802"/></node><node id="-34" lat="30.349979" lon="-97.716225" changeset="false"><tag k="addr:street" v="West Anderson Lane"/><tag k="addr:housenumber" v="1100"/><tag k="coa:place_id" v="200480"/></node><node id="-35" lat="30.351016" lon="-97.715479" changeset="false"><tag k="addr:street" v="Anderson Square"/><tag k="addr:housenumber" v="8003"/><tag k="coa:place_id" v="200474"/></node><node id="-36" lat="30.351439" lon="-97.715024" changeset="false"><tag k="addr:street" v="Research Boulevard"/><tag k="addr:housenumber" v="8002"/><tag k="coa:place_id" v="936429"/></node><node id="-37" lat="30.350743" lon="-97.715645" changeset="false"><tag k="addr:street" v="Research Boulevard"/><tag k="addr:housenumber" v="8000"/><tag k="coa:place_id" v="200462"/></node><node id="-38" lat="30.351473" lon="-97.715281" changeset="false"><tag k="addr:street" v="Anderson Square"/><tag k="addr:housenumber" v="8005"/><tag k="coa:place_id" v="200456"/></node><node id="-39" lat="30.355015" lon="-97.717324" changeset="false"><tag k="addr:street" v="Research Boulevard"/><tag k="addr:housenumber" v="8222"/><tag k="coa:place_id" v="442166"/></node><node id="-40" lat="30.355153" lon="-97.717206" changeset="false"><tag k="addr:street" v="Research Boulevard"/><tag k="addr:housenumber" v="8224"/><tag k="coa:place_id" v="442208"/></node><node id="-41" lat="30.354013" lon="-97.716485" changeset="false"><tag k="addr:street" v="Research Boulevard"/><tag k="addr:housenumber" v="8210"/><tag k="coa:place_id" v="442604"/></node><node id="-42" lat="30.35408" lon="-97.716652" changeset="false"><tag k="addr:street" v="Research Boulevard"/><tag k="addr:housenumber" v="8214"/><tag k="coa:place_id" v="442664"/></node><node id="-43" lat="30.354154" lon="-97.71679" changeset="false"><tag k="addr:street" v="Research Boulevard"/><tag k="addr:housenumber" v="8216"/><tag k="coa:place_id" v="200024"/></node></osm>