<?xml version="1.0" encoding="UTF-8"?><osm version="0.6" generator="github.com/aaronlidman/osm-and-geojson"><node id="-1" lat="30.20441" lon="-97.835483" changeset="false"><tag k="addr:street" v="Blumie Street"/><tag k="addr:housenumber" v="3415"/><tag k="coa:place_id" v="192369"/></node><node id="-2" lat="30.202403" lon="-97.836346" changeset="false"><tag k="addr:street" v="Thomas Kincheon Street"/><tag k="addr:housenumber" v="3414"/><tag k="coa:place_id" v="87344"/></node><node id="-3" lat="30.204658" lon="-97.833779" changeset="false"><tag k="addr:street" v="Minnie Street"/><tag k="addr:housenumber" v="3403"/><tag k="coa:place_id" v="87332"/></node><node id="-4" lat="30.20264" lon="-97.834929" changeset="false"><tag k="addr:street" v="Dalton Street"/><tag k="addr:housenumber" v="3402"/><tag k="coa:place_id" v="87356"/></node><node id="-5" lat="30.194652" lon="-97.831951" changeset="false"><tag k="addr:street" v="Bismark Cove"/><tag k="addr:housenumber" v="8502"/><tag k="coa:place_id" v="57607"/></node><node id="-6" lat="30.20199" lon="-97.835619" changeset="false"><tag k="addr:street" v="Thomas Kincheon Street"/><tag k="addr:housenumber" v="3404"/><tag k="coa:place_id" v="202546"/></node><node id="-7" lat="30.19552" lon="-97.834297" changeset="false"><tag k="addr:street" v="Bisbee Court"/><tag k="addr:housenumber" v="8508"/><tag k="coa:place_id" v="57619"/></node><node id="-8" lat="30.193234" lon="-97.834509" changeset="false"><tag k="addr:street" v="Dandelion Trail"/><tag k="addr:housenumber" v="8708"/><tag k="coa:place_id" v="57679"/></node><node id="-9" lat="30.193836" lon="-97.833808" changeset="false"><tag k="addr:street" v="Dandelion Trail"/><tag k="addr:housenumber" v="8604"/><tag k="coa:place_id" v="57686"/></node><node id="-10" lat="30.193644" lon="-97.833975" changeset="false"><tag k="addr:street" v="Dandelion Trail"/><tag k="addr:housenumber" v="8608"/><tag k="coa:place_id" v="57684"/></node><node id="-11" lat="30.200721" lon="-97.833352" changeset="false"><tag k="addr:street" v="Thomas Kincheon Street"/><tag k="addr:housenumber" v="3302"/><tag k="coa:place_id" v="875984"/></node><node id="-12" lat="30.194221" lon="-97.831559" changeset="false"><tag k="addr:street" v="Bismark Cove"/><tag k="addr:housenumber" v="8507"/><tag k="coa:place_id" v="130777"/></node><node id="-13" lat="30.193425" lon="-97.835417" changeset="false"><tag k="addr:street" v="Cretys Cove"/><tag k="addr:housenumber" v="8708"/><tag k="coa:place_id" v="57589"/></node><node id="-14" lat="30.193427" lon="-97.837942" changeset="false"><tag k="addr:street" v="Davis Lane"/><tag k="addr:housenumber" v="3306"/><tag k="coa:place_id" v="876062"/></node><node id="-15" lat="30.20328" lon="-97.833529" changeset="false"><tag k="addr:street" v="Blumie Street"/><tag k="addr:housenumber" v="3315"/><tag k="coa:place_id" v="875864"/></node><node id="-16" lat="30.197721" lon="-97.830868" changeset="false"><tag k="addr:street" v="Longview Road"/><tag k="addr:housenumber" v="8206"/><tag k="coa:place_id" v="777357"/></node><node id="-17" lat="30.195558" lon="-97.833672" changeset="false"><tag k="addr:street" v="Bisbee Court"/><tag k="addr:housenumber" v="8501"/><tag k="coa:place_id" v="57624"/></node><node id="-18" lat="30.205409" lon="-97.835363" changeset="false"><tag k="addr:street" v="Minnie Street"/><tag k="addr:housenumber" v="3423"/><tag k="coa:place_id" v="87334"/></node><node id="-19" lat="30.200933" lon="-97.83331" changeset="false"><tag k="addr:street" v="Thomas Kincheon Street"/><tag k="addr:housenumber" v="3304"/><tag k="coa:place_id" v="87336"/></node><node id="-20" lat="30.194146" lon="-97.832375" changeset="false"><tag k="addr:street" v="Piney Creek Bend"/><tag k="addr:housenumber" v="8606"/><tag k="coa:place_id" v="115375"/></node><node id="-21" lat="30.201987" lon="-97.834619" changeset="false"><tag k="addr:street" v="Dalton Street"/><tag k="addr:housenumber" v="3319"/><tag k="coa:place_id" v="87363"/></node><node id="-22" lat="30.204233" lon="-97.832947" changeset="false"><tag k="addr:street" v="Minnie Street"/><tag k="addr:housenumber" v="3315"/><tag k="coa:place_id" v="87327"/></node><node id="-23" lat="30.194051" lon="-97.835958" changeset="false"><tag k="addr:street" v="Piney Creek Bend"/><tag k="addr:housenumber" v="8702"/><tag k="coa:place_id" v="115451"/></node><node id="-24" lat="30.192964" lon="-97.834774" changeset="false"><tag k="addr:street" v="Dandelion Trail"/><tag k="addr:housenumber" v="8714"/><tag k="coa:place_id" v="57676"/></node><node id="-25" lat="30.193942" lon="-97.833725" changeset="false"><tag k="addr:street" v="Dandelion Trail"/><tag k="addr:housenumber" v="8602"/><tag k="coa:place_id" v="57687"/></node><node id="-26" lat="30.1938" lon="-97.835054" changeset="false"><tag k="addr:street" v="Cretys Cove"/><tag k="addr:housenumber" v="8702"/><tag k="coa:place_id" v="57586"/></node><node id="-27" lat="30.194745" lon="-97.835127" changeset="false"><tag k="addr:street" v="Piney Creek Bend"/><tag k="addr:housenumber" v="8638"/><tag k="coa:place_id" v="115417"/></node><node id="-28" lat="30.203149" lon="-97.831807" changeset="false"><tag k="addr:street" v="Blumie Street"/><tag k="addr:housenumber" v="3300"/><tag k="coa:place_id" v="87297"/></node><node id="-29" lat="30.203137" lon="-97.8332" changeset="false"><tag k="addr:street" v="Blumie Street"/><tag k="addr:housenumber" v="3311"/><tag k="coa:place_id" v="169530"/></node><node id="-30" lat="30.200508" lon="-97.833575" changeset="false"><tag k="addr:street" v="Thomas Kincheon Street"/><tag k="addr:housenumber" v="3301"/><tag k="coa:place_id" v="87378"/></node><node id="-31" lat="30.198785" lon="-97.833143" changeset="false"><tag k="addr:street" v="Plantation Road"/><tag k="addr:housenumber" v="3217"/><tag k="coa:place_id" v="617457"/></node><node id="-32" lat="30.203804" lon="-97.834118" changeset="false"><tag k="addr:street" v="Blumie Street"/><tag k="addr:housenumber" v="3401"/><tag k="coa:place_id" v="87315"/></node><node id="-33" lat="30.197043" lon="-97.831899" changeset="false"><tag k="addr:street" v="Sacbe Cove"/><tag k="addr:housenumber" v="3107"/><tag k="coa:place_id" v="3181359"/></node><node id="-34" lat="30.197234" lon="-97.831304" changeset="false"><tag k="addr:street" v="Longview Road"/><tag k="addr:housenumber" v="8304"/><tag k="coa:place_id" v="3181375"/></node><node id="-35" lat="30.195751" lon="-97.834113" changeset="false"><tag k="addr:street" v="Bisbee Court"/><tag k="addr:housenumber" v="8504"/><tag k="coa:place_id" v="57621"/></node><node id="-36" lat="30.202352" lon="-97.835394" changeset="false"><tag k="addr:street" v="Dalton Street"/><tag k="addr:housenumber" v="3405"/><tag k="coa:place_id" v="1141549"/></node><node id="-37" lat="30.202576" lon="-97.834797" changeset="false"><tag k="addr:street" v="Dalton Street"/><tag k="addr:housenumber" v="3400"/><tag k="coa:place_id" v="87355"/></node><node id="-38" lat="30.200677" lon="-97.833907" changeset="false"><tag k="addr:street" v="Thomas Kincheon Street"/><tag k="addr:housenumber" v="3309"/><tag k="coa:place_id" v="87377"/></node><node id="-39" lat="30.195008" lon="-97.841" changeset="false"><tag k="addr:street" v="Davis Lane"/><tag k="addr:housenumber" v="3416"/><tag k="coa:place_id" v="244565"/></node><node id="-40" lat="30.203451" lon="-97.833665" changeset="false"><tag k="addr:street" v="Blumie Street"/><tag k="addr:housenumber" v="3317"/><tag k="coa:place_id" v="87313"/></node><node id="-41" lat="30.193991" lon="-97.834143" changeset="false"><tag k="addr:street" v="Cretys Cove"/><tag k="addr:housenumber" v="8605"/><tag k="coa:place_id" v="57601"/></node><node id="-42" lat="30.193631" lon="-97.835272" changeset="false"><tag k="addr:street" v="Cretys Cove"/><tag k="addr:housenumber" v="8706"/><tag k="coa:place_id" v="57588"/></node><node id="-43" lat="30.20451" lon="-97.834519" changeset="false"><tag k="addr:street" v="Blumie Street"/><tag k="addr:housenumber" v="3406"/><tag k="coa:place_id" v="87306"/></node><node id="-44" lat="30.202744" lon="-97.837305" changeset="false"><tag k="addr:street" v="Brodie Lane"/><tag k="addr:housenumber" v="8011"/><tag k="coa:place_id" v="3189905"/></node><node id="-45" lat="30.202099" lon="-97.832929" changeset="false"><tag k="addr:street" v="Elija Street"/><tag k="addr:housenumber" v="3305"/><tag k="coa:place_id" v="87273"/></node><node id="-46" lat="30.20158" lon="-97.832881" changeset="false"><tag k="addr:street" v="Dalton Street"/><tag k="addr:housenumber" v="3300"/><tag k="coa:place_id" v="87345"/></node><node id="-47" lat="30.198189" lon="-97.83945" changeset="false"><tag k="addr:street" v="Brodie Lane"/><tag k="addr:housenumber" v="8519 1/2"/><tag k="coa:place_id" v="3282665"/></node><node id="-48" lat="30.20092" lon="-97.833546" changeset="false"><tag k="addr:street" v="Thomas Kincheon Street"/><tag k="addr:housenumber" v="3306"/><tag k="coa:place_id" v="87337"/></node><node id="-49" lat="30.201054" lon="-97.836675" changeset="false"><tag k="addr:street" v="Dunliegh Drive"/><tag k="addr:housenumber" v="3411"/><tag k="coa:place_id" v="774699"/></node><node id="-50" lat="30.196909" lon="-97.831631" changeset="false"><tag k="addr:street" v="Sacbe Cove"/><tag k="addr:housenumber" v="3105"/><tag k="coa:place_id" v="3181358"/></node><node id="-51" lat="30.202828" lon="-97.835551" changeset="false"><tag k="addr:street" v="Dalton Street"/><tag k="addr:housenumber" v="3408"/><tag k="coa:place_id" v="752152"/></node><node id="-52" lat="30.202225" lon="-97.833184" changeset="false"><tag k="addr:street" v="Dunn Street"/><tag k="addr:housenumber" v="7901"/><tag k="coa:place_id" v="87274"/></node><node id="-53" lat="30.197466" lon="-97.832623" changeset="false"><tag k="addr:street" v="Sacbe Cove"/><tag k="addr:housenumber" v="3117"/><tag k="coa:place_id" v="3181366"/></node><node id="-54" lat="30.19563" lon="-97.835418" changeset="false"><tag k="addr:street" v="Cameron Loop"/><tag k="addr:housenumber" v="8600"/><tag k="coa:place_id" v="876080"/></node><node id="-55" lat="30.192515" lon="-97.834603" changeset="false"><tag k="addr:street" v="Dandelion Trail"/><tag k="addr:housenumber" v="8801"/><tag k="coa:place_id" v="57702"/></node><node id="-56" lat="30.201659" lon="-97.834849" changeset="false"><tag k="addr:street" v="Thomas Kincheon Street"/><tag k="addr:housenumber" v="3318"/><tag k="coa:place_id" v="685534"/></node><node id="-57" lat="30.202387" lon="-97.834376" changeset="false"><tag k="addr:street" v="Dalton Street"/><tag k="addr:housenumber" v="3320"/><tag k="coa:place_id" v="87352"/></node><node id="-58" lat="30.193299" lon="-97.836882" changeset="false"><tag k="addr:street" v="Peppergrass Cove"/><tag k="addr:housenumber" v="8808"/><tag k="coa:place_id" v="57576"/></node><node id="-59" lat="30.203441" lon="-97.836838" changeset="false"><tag k="addr:street" v="Dalton Street"/><tag k="addr:housenumber" v="3428"/><tag k="coa:place_id" v="3051036"/></node><node id="-60" lat="30.203558" lon="-97.831565" changeset="false"><tag k="addr:street" v="Minnie Street"/><tag k="addr:housenumber" v="3301"/><tag k="coa:place_id" v="87322"/></node><node id="-61" lat="30.201059" lon="-97.833688" changeset="false"><tag k="addr:street" v="Thomas Kincheon Street"/><tag k="addr:housenumber" v="3308"/><tag k="coa:place_id" v="87338"/></node><node id="-62" lat="30.19998" lon="-97.836634" changeset="false"><tag k="addr:street" v="Wavertree Court"/><tag k="addr:housenumber" v="8202"/><tag k="coa:place_id" v="252172"/></node><node id="-63" lat="30.204009" lon="-97.835784" changeset="false"><tag k="addr:street" v="Elija Street"/><tag k="addr:housenumber" v="3414"/><tag k="coa:place_id" v="87294"/></node><node id="-64" lat="30.202967" lon="-97.836916" changeset="false"><tag k="addr:street" v="Dalton Street"/><tag k="addr:housenumber" v="3425"/><tag k="coa:place_id" v="875960"/></node><node id="-65" lat="30.200843" lon="-97.834027" changeset="false"><tag k="addr:street" v="Thomas Kincheon Street"/><tag k="addr:housenumber" v="3313"/><tag k="coa:place_id" v="87379"/></node><node id="-66" lat="30.194089" lon="-97.834065" changeset="false"><tag k="addr:street" v="Cretys Cove"/><tag k="addr:housenumber" v="8603"/><tag k="coa:place_id" v="57602"/></node><node id="-67" lat="30.193617" lon="-97.836413" changeset="false"><tag k="addr:street" v="Piney Creek Bend"/><tag k="addr:housenumber" v="8710"/><tag k="coa:place_id" v="115458"/></node><node id="-68" lat="30.19347" lon="-97.834201" changeset="false"><tag k="addr:street" v="Dandelion Trail"/><tag k="addr:housenumber" v="8702"/><tag k="coa:place_id" v="57682"/></node><node id="-69" lat="30.201273" lon="-97.8361" changeset="false"><tag k="addr:street" v="Dunliegh Drive"/><tag k="addr:housenumber" v="3406"/><tag k="coa:place_id" v="732519"/></node><node id="-70" lat="30.202431" lon="-97.834527" changeset="false"><tag k="addr:street" v="Dalton Street"/><tag k="addr:housenumber" v="3322"/><tag k="coa:place_id" v="87353"/></node><node id="-71" lat="30.205196" lon="-97.835768" changeset="false"><tag k="addr:street" v="Brodie Lane"/><tag k="addr:housenumber" v="7711"/><tag k="coa:place_id" v="778983"/></node><node id="-72" lat="30.193001" lon="-97.835294" changeset="false"><tag k="addr:street" v="Cretys Cove"/><tag k="addr:housenumber" v="8713"/><tag k="coa:place_id" v="57591"/></node><node id="-73" lat="30.200123" lon="-97.836501" changeset="false"><tag k="addr:street" v="Wavertree Court"/><tag k="addr:housenumber" v="8200"/><tag k="coa:place_id" v="1141555"/></node><node id="-74" lat="30.197617" lon="-97.832385" changeset="false"><tag k="addr:street" v="Sacbe Cove"/><tag k="addr:housenumber" v="3116"/><tag k="coa:place_id" v="3181368"/></node><node id="-75" lat="30.199674" lon="-97.83534" changeset="false"><tag k="addr:street" v="Plantation Road"/><tag k="addr:housenumber" v="3319"/><tag k="coa:place_id" v="401085"/></node><node id="-76" lat="30.202036" lon="-97.832802" changeset="false"><tag k="addr:street" v="Elija Street"/><tag k="addr:housenumber" v="3303"/><tag k="coa:place_id" v="87272"/></node><node id="-77" lat="30.197336" lon="-97.831231" changeset="false"><tag k="addr:street" v="Longview Road"/><tag k="addr:housenumber" v="8302"/><tag k="coa:place_id" v="3181374"/></node><node id="-78" lat="30.203239" lon="-97.836289" changeset="false"><tag k="addr:street" v="Dalton Street"/><tag k="addr:housenumber" v="3420"/><tag k="coa:place_id" v="87358"/></node><node id="-79" lat="30.205472" lon="-97.835615" changeset="false"><tag k="addr:street" v="Brodie Lane"/><tag k="addr:housenumber" v="7703"/><tag k="coa:place_id" v="195654"/></node><node id="-80" lat="30.203663" lon="-97.833986" changeset="false"><tag k="addr:street" v="Blumie Street"/><tag k="addr:housenumber" v="3321"/><tag k="coa:place_id" v="87314"/></node><node id="-81" lat="30.193147" lon="-97.834597" changeset="false"><tag k="addr:street" v="Dandelion Trail"/><tag k="addr:housenumber" v="8710"/><tag k="coa:place_id" v="57678"/></node><node id="-82" lat="30.193866" lon="-97.836215" changeset="false"><tag k="addr:street" v="Piney Creek Bend"/><tag k="addr:housenumber" v="8706"/><tag k="coa:place_id" v="115453"/></node><node id="-83" lat="30.203515" lon="-97.835839" changeset="false"><tag k="addr:street" v="Elija Street"/><tag k="addr:housenumber" v="3417"/><tag k="coa:place_id" v="87280"/></node><node id="-84" lat="30.199803" lon="-97.836732" changeset="false"><tag k="addr:street" v="Wavertree Court"/><tag k="addr:housenumber" v="8204"/><tag k="coa:place_id" v="402327"/></node><node id="-85" lat="30.202534" lon="-97.83291" changeset="false"><tag k="addr:street" v="Elija Street"/><tag k="addr:housenumber" v="3306"/><tag k="coa:place_id" v="87287"/></node><node id="-86" lat="30.202364" lon="-97.832545" changeset="false"><tag k="addr:street" v="Elija Street"/><tag k="addr:housenumber" v="3302"/><tag k="coa:place_id" v="87285"/></node><node id="-87" lat="30.20136" lon="-97.833485" changeset="false"><tag k="addr:street" v="Dalton Street"/><tag k="addr:housenumber" v="3305"/><tag k="coa:place_id" v="87361"/></node><node id="-88" lat="30.20306" lon="-97.836871" changeset="false"><tag k="addr:street" v="Dalton Street"/><tag k="addr:housenumber" v="3423"/><tag k="coa:place_id" v="87371"/></node><node id="-89" lat="30.197233" lon="-97.832275" changeset="false"><tag k="addr:street" v="Sacbe Cove"/><tag k="addr:housenumber" v="3111"/><tag k="coa:place_id" v="3181361"/></node><node id="-90" lat="30.197458" lon="-97.83206" changeset="false"><tag k="addr:street" v="Sacbe Cove"/><tag k="addr:housenumber" v="3110"/><tag k="coa:place_id" v="3181365"/></node><node id="-91" lat="30.19373" lon="-97.833882" changeset="false"><tag k="addr:street" v="Dandelion Trail"/><tag k="addr:housenumber" v="8606"/><tag k="coa:place_id" v="57685"/></node><node id="-92" lat="30.200687" lon="-97.833686" changeset="false"><tag k="addr:street" v="Thomas Kincheon Street"/><tag k="addr:housenumber" v="3305"/><tag k="coa:place_id" v="87380"/></node><node id="-93" lat="30.193284" lon="-97.834413" changeset="false"><tag k="addr:street" v="Dandelion Trail"/><tag k="addr:housenumber" v="8706"/><tag k="coa:place_id" v="57680"/></node><node id="-94" lat="30.202445" lon="-97.833723" changeset="false"><tag k="addr:street" v="Elija Street"/><tag k="addr:housenumber" v="3313"/><tag k="coa:place_id" v="87275"/></node><node id="-95" lat="30.197446" lon="-97.831167" changeset="false"><tag k="addr:street" v="Longview Road"/><tag k="addr:housenumber" v="8300"/><tag k="coa:place_id" v="3181373"/></node><node id="-96" lat="30.201573" lon="-97.838083" changeset="false"><tag k="addr:street" v="Brodie Lane"/><tag k="addr:housenumber" v="8205"/><tag k="coa:place_id" v="689932"/></node><node id="-97" lat="30.197562" lon="-97.83255" changeset="false"><tag k="addr:street" v="Sacbe Cove"/><tag k="addr:housenumber" v="3118"/><tag k="coa:place_id" v="3181369"/></node><node id="-98" lat="30.195354" lon="-97.834497" changeset="false"><tag k="addr:street" v="Bisbee Court"/><tag k="addr:housenumber" v="8514"/><tag k="coa:place_id" v="1141561"/></node><node id="-99" lat="30.195185" lon="-97.834702" changeset="false"><tag k="addr:street" v="Bisbee Court"/><tag k="addr:housenumber" v="8602"/><tag k="coa:place_id" v="57615"/></node><node id="-100" lat="30.204174" lon="-97.836165" changeset="false"><tag k="addr:street" v="Elija Street"/><tag k="addr:housenumber" v="3418"/><tag k="coa:place_id" v="87295"/></node><node id="-101" lat="30.204118" lon="-97.835986" changeset="false"><tag k="addr:street" v="Elija Street"/><tag k="addr:housenumber" v="3416"/><tag k="coa:place_id" v="875894"/></node><node id="-102" lat="30.201647" lon="-97.833019" changeset="false"><tag k="addr:street" v="Dalton Street"/><tag k="addr:housenumber" v="3302"/><tag k="coa:place_id" v="87346"/></node><node id="-103" lat="30.201574" lon="-97.834727" changeset="false"><tag k="addr:street" v="Thomas Kincheon Street"/><tag k="addr:housenumber" v="3316"/><tag k="coa:place_id" v="87340"/></node><node id="-104" lat="30.203383" lon="-97.836435" changeset="false"><tag k="addr:street" v="Dalton Street"/><tag k="addr:housenumber" v="3424"/><tag k="coa:place_id" v="875930"/></node><node id="-105" lat="30.193933" lon="-97.83188" changeset="false"><tag k="addr:street" v="Piney Creek Bend"/><tag k="addr:housenumber" v="8601"/><tag k="coa:place_id" v="3291614"/></node><node id="-106" lat="30.202995" lon="-97.835972" changeset="false"><tag k="addr:street" v="Dalton Street"/><tag k="addr:housenumber" v="3414"/><tag k="coa:place_id" v="3500466"/></node><node id="-107" lat="30.192372" lon="-97.832268" changeset="false"><tag k="addr:street" v="West Gate Boulevard"/><tag k="addr:housenumber" v="8700"/><tag k="coa:place_id" v="3500453"/></node><node id="-108" lat="30.202677" lon="-97.834028" changeset="false"><tag k="addr:street" v="Elija Street"/><tag k="addr:housenumber" v="3319"/><tag k="coa:place_id" v="373479"/></node><node id="-109" lat="30.193529" lon="-97.838229" changeset="false"><tag k="addr:street" v="Davis Lane"/><tag k="addr:housenumber" v="3312"/><tag k="coa:place_id" v="942218"/></node><node id="-110" lat="30.203837" lon="-97.835396" changeset="false"><tag k="addr:street" v="Elija Street"/><tag k="addr:housenumber" v="3410"/><tag k="coa:place_id" v="875906"/></node><node id="-111" lat="30.203404" lon="-97.831118" changeset="false"><tag k="addr:street" v="Clydesdale Drive"/><tag k="addr:housenumber" v="7706"/><tag k="coa:place_id" v="401307"/></node><node id="-112" lat="30.205335" lon="-97.834956" changeset="false"><tag k="addr:street" v="Minnie Street"/><tag k="addr:housenumber" v="3419"/><tag k="coa:place_id" v="875816"/></node><node id="-113" lat="30.203888" lon="-97.836554" changeset="false"><tag k="addr:street" v="Elija Street"/><tag k="addr:housenumber" v="3427"/><tag k="coa:place_id" v="5083330"/></node><node id="-114" lat="30.194618" lon="-97.839944" changeset="false"><tag k="addr:street" v="Davis Lane"/><tag k="addr:housenumber" v="3402"/><tag k="coa:place_id" v="876044"/></node><node id="-115" lat="30.194389" lon="-97.833671" changeset="false"><tag k="addr:street" v="Piney Creek Bend"/><tag k="addr:housenumber" v="8620"/><tag k="coa:place_id" v="115409"/></node><node id="-116" lat="30.194366" lon="-97.837424" changeset="false"><tag k="addr:street" v="Cameron Loop"/><tag k="addr:housenumber" v="8806"/><tag k="coa:place_id" v="876068"/></node><node id="-117" lat="30.196575" lon="-97.832072" changeset="false"><tag k="addr:street" v="Longview Road"/><tag k="addr:housenumber" v="8420"/><tag k="coa:place_id" v="1142508"/></node><node id="-118" lat="30.204338" lon="-97.833124" changeset="false"><tag k="addr:street" v="Minnie Street"/><tag k="addr:housenumber" v="3317"/><tag k="coa:place_id" v="87328"/></node><node id="-119" lat="30.191436" lon="-97.833599" changeset="false"><tag k="addr:street" v="West Gate Boulevard"/><tag k="addr:housenumber" v="8806"/><tag k="coa:place_id" v="3432089"/></node><node id="-120" lat="30.204711" lon="-97.83607" changeset="false"><tag k="addr:street" v="Blumie Street"/><tag k="addr:housenumber" v="3421"/><tag k="coa:place_id" v="87321"/></node><node id="-121" lat="30.19343" lon="-97.83624" changeset="false"><tag k="addr:street" v="Peppergrass Cove"/><tag k="addr:housenumber" v="8800"/><tag k="coa:place_id" v="123414"/></node><node id="-122" lat="30.202847" lon="-97.832269" changeset="false"><tag k="addr:street" v="Blumie Street"/><tag k="addr:housenumber" v="3303"/><tag k="coa:place_id" v="87309"/></node><node id="-123" lat="30.195071" lon="-97.834813" changeset="false"><tag k="addr:street" v="Bisbee Court"/><tag k="addr:housenumber" v="8604"/><tag k="coa:place_id" v="57614"/></node><node id="-124" lat="30.197592" lon="-97.831073" changeset="false"><tag k="addr:street" v="Longview Road"/><tag k="addr:housenumber" v="8208"/><tag k="coa:place_id" v="3181370"/></node><node id="-125" lat="30.203286" lon="-97.834633" changeset="false"><tag k="addr:street" v="Elija Street"/><tag k="addr:housenumber" v="3402"/><tag k="coa:place_id" v="87292"/></node><node id="-126" lat="30.204526" lon="-97.833651" changeset="false"><tag k="addr:street" v="Minnie Street"/><tag k="addr:housenumber" v="3401"/><tag k="coa:place_id" v="87331"/></node><node id="-127" lat="30.203209" lon="-97.833375" changeset="false"><tag k="addr:street" v="Blumie Street"/><tag k="addr:housenumber" v="3313"/><tag k="coa:place_id" v="87312"/></node><node id="-128" lat="30.197151" lon="-97.832115" changeset="false"><tag k="addr:street" v="Sacbe Cove"/><tag k="addr:housenumber" v="3109"/><tag k="coa:place_id" v="3181360"/></node><node id="-129" lat="30.197291" lon="-97.831649" changeset="false"><tag k="addr:street" v="Sacbe Cove"/><tag k="addr:housenumber" v="3106"/><tag k="coa:place_id" v="3181363"/></node><node id="-130" lat="30.197344" lon="-97.83183" changeset="false"><tag k="addr:street" v="Sacbe Cove"/><tag k="addr:housenumber" v="3108"/><tag k="coa:place_id" v="3181364"/></node><node id="-131" lat="30.205127" lon="-97.834594" changeset="false"><tag k="addr:street" v="Minnie Street"/><tag k="addr:housenumber" v="3413"/><tag k="coa:place_id" v="87333"/></node><node id="-132" lat="30.198267" lon="-97.839422" changeset="false"><tag k="addr:street" v="Brodie Lane"/><tag k="addr:housenumber" v="8517 1/2"/><tag k="coa:place_id" v="3154203"/></node><node id="-133" lat="30.193441" lon="-97.836389" changeset="false"><tag k="addr:street" v="Peppergrass Cove"/><tag k="addr:housenumber" v="8802"/><tag k="coa:place_id" v="57573"/></node><node id="-134" lat="30.19541" lon="-97.833704" changeset="false"><tag k="addr:street" v="Bisbee Court"/><tag k="addr:housenumber" v="8503"/><tag k="coa:place_id" v="57625"/></node><node id="-135" lat="30.202611" lon="-97.837124" changeset="false"><tag k="addr:street" v="Thomas Kincheon Street"/><tag k="addr:housenumber" v="3424"/><tag k="coa:place_id" v="875966"/></node><node id="-136" lat="30.203943" lon="-97.835614" changeset="false"><tag k="addr:street" v="Elija Street"/><tag k="addr:housenumber" v="3412"/><tag k="coa:place_id" v="87293"/></node><node id="-137" lat="30.202162" lon="-97.833057" changeset="false"><tag k="addr:street" v="Elija Street"/><tag k="addr:housenumber" v="3307"/><tag k="coa:place_id" v="875912"/></node><node id="-138" lat="30.203238" lon="-97.836385" changeset="false"><tag k="addr:street" v="Dalton Street"/><tag k="addr:housenumber" v="3422"/><tag k="coa:place_id" v="875936"/></node><node id="-139" lat="30.201797" lon="-97.837158" changeset="false"><tag k="addr:street" v="Dunliegh Drive"/><tag k="addr:housenumber" v="3420"/><tag k="coa:place_id" v="1141551"/></node><node id="-140" lat="30.203065" lon="-97.833897" changeset="false"><tag k="addr:street" v="Elija Street"/><tag k="addr:housenumber" v="3316"/><tag k="coa:place_id" v="87290"/></node><node id="-141" lat="30.202321" lon="-97.834247" changeset="false"><tag k="addr:street" v="Dalton Street"/><tag k="addr:housenumber" v="3318"/><tag k="coa:place_id" v="87351"/></node><node id="-142" lat="30.199441" lon="-97.833664" changeset="false"><tag k="addr:street" v="Plantation Road"/><tag k="addr:housenumber" v="3302"/><tag k="coa:place_id" v="118119"/></node><node id="-143" lat="30.193044" lon="-97.834676" changeset="false"><tag k="addr:street" v="Dandelion Trail"/><tag k="addr:housenumber" v="8712"/><tag k="coa:place_id" v="57677"/></node><node id="-144" lat="30.193344" lon="-97.83366" changeset="false"><tag k="addr:street" v="Dandelion Trail"/><tag k="addr:housenumber" v="8611"/><tag k="coa:place_id" v="57692"/></node><node id="-145" lat="30.202707" lon="-97.836158" changeset="false"><tag k="addr:street" v="Dalton Street"/><tag k="addr:housenumber" v="3415"/><tag k="coa:place_id" v="875954"/></node><node id="-146" lat="30.19726" lon="-97.831522" changeset="false"><tag k="addr:street" v="Sacbe Cove"/><tag k="addr:housenumber" v="3104"/><tag k="coa:place_id" v="3181362"/></node><node id="-147" lat="30.200715" lon="-97.838301" changeset="false"><tag k="addr:street" v="Brodie Lane"/><tag k="addr:housenumber" v="8213"/><tag k="coa:place_id" v="151474"/></node><node id="-148" lat="30.201692" lon="-97.835007" changeset="false"><tag k="addr:street" v="Thomas Kincheon Street"/><tag k="addr:housenumber" v="3320"/><tag k="coa:place_id" v="87342"/></node><node id="-149" lat="30.194958" lon="-97.834937" changeset="false"><tag k="addr:street" v="Bisbee Court"/><tag k="addr:housenumber" v="8606"/><tag k="coa:place_id" v="57613"/></node><node id="-150" lat="30.2023" lon="-97.832418" changeset="false"><tag k="addr:street" v="Elija Street"/><tag k="addr:housenumber" v="3300"/><tag k="coa:place_id" v="87284"/></node><node id="-151" lat="30.20129" lon="-97.835272" changeset="false"><tag k="addr:street" v="Thomas Kincheon Street"/><tag k="addr:housenumber" v="3325"/><tag k="coa:place_id" v="281001"/></node><node id="-152" lat="30.203321" lon="-97.832463" changeset="false"><tag k="addr:street" v="Blumie Street"/><tag k="addr:housenumber" v="3306"/><tag k="coa:place_id" v="875858"/></node><node id="-153" lat="30.200145" lon="-97.837027" changeset="false"><tag k="addr:street" v="Kellog Court"/><tag k="addr:housenumber" v="8203"/><tag k="coa:place_id" v="877850"/></node><node id="-154" lat="30.202269" lon="-97.834105" changeset="false"><tag k="addr:street" v="Dalton Street"/><tag k="addr:housenumber" v="3316"/><tag k="coa:place_id" v="87350"/></node><node id="-155" lat="30.193381" lon="-97.834315" changeset="false"><tag k="addr:street" v="Dandelion Trail"/><tag k="addr:housenumber" v="8704"/><tag k="coa:place_id" v="57681"/></node><node id="-156" lat="30.193104" lon="-97.835063" changeset="false"><tag k="addr:street" v="Cretys Cove"/><tag k="addr:housenumber" v="8711"/><tag k="coa:place_id" v="57592"/></node><node id="-157" lat="30.203236" lon="-97.83524" changeset="false"><tag k="addr:street" v="Elija Street"/><tag k="addr:housenumber" v="3409"/><tag k="coa:place_id" v="87278"/></node><node id="-158" lat="30.204527" lon="-97.834702" changeset="false"><tag k="addr:street" v="Blumie Street"/><tag k="addr:housenumber" v="3408"/><tag k="coa:place_id" v="87304"/></node><node id="-159" lat="30.195259" lon="-97.834585" changeset="false"><tag k="addr:street" v="Bisbee Court"/><tag k="addr:housenumber" v="8600"/><tag k="coa:place_id" v="57616"/></node><node id="-160" lat="30.201973" lon="-97.832675" changeset="false"><tag k="addr:street" v="Elija Street"/><tag k="addr:housenumber" v="3301"/><tag k="coa:place_id" v="87271"/></node><node id="-161" lat="30.201137" lon="-97.834899" changeset="false"><tag k="addr:street" v="Thomas Kincheon Street"/><tag k="addr:housenumber" v="3321"/><tag k="coa:place_id" v="558340"/></node><node id="-162" lat="30.193971" lon="-97.836077" changeset="false"><tag k="addr:street" v="Piney Creek Bend"/><tag k="addr:housenumber" v="8704"/><tag k="coa:place_id" v="115452"/></node><node id="-163" lat="30.202215" lon="-97.836024" changeset="false"><tag k="addr:street" v="Thomas Kincheon Street"/><tag k="addr:housenumber" v="3410"/><tag k="coa:place_id" v="126523"/></node><node id="-164" lat="30.202677" lon="-97.834172" changeset="false"><tag k="addr:street" v="Elija Street"/><tag k="addr:housenumber" v="3321"/><tag k="coa:place_id" v="87276"/></node><node id="-165" lat="30.202746" lon="-97.834329" changeset="false"><tag k="addr:street" v="Elija Street"/><tag k="addr:housenumber" v="3323"/><tag k="coa:place_id" v="875924"/></node><node id="-166" lat="30.200836" lon="-97.834226" changeset="false"><tag k="addr:street" v="Dunn Street"/><tag k="addr:housenumber" v="8101"/><tag k="coa:place_id" v="852153"/></node><node id="-167" lat="30.200876" lon="-97.834227" changeset="false"><tag k="addr:street" v="Thomas Kincheon Street"/><tag k="addr:housenumber" v="3317"/><tag k="coa:place_id" v="3259068"/></node><node id="-168" lat="30.195443" lon="-97.834405" changeset="false"><tag k="addr:street" v="Bisbee Court"/><tag k="addr:housenumber" v="8512"/><tag k="coa:place_id" v="57617"/></node><node id="-169" lat="30.195364" lon="-97.834321" changeset="false"><tag k="addr:street" v="Bisbee Court"/><tag k="addr:housenumber" v="8510"/><tag k="coa:place_id" v="57618"/></node><node id="-170" lat="30.202867" lon="-97.834597" changeset="false"><tag k="addr:street" v="Elija Street"/><tag k="addr:housenumber" v="3401"/><tag k="coa:place_id" v="87277"/></node><node id="-171" lat="30.202941" lon="-97.834757" changeset="false"><tag k="addr:street" v="Elija Street"/><tag k="addr:housenumber" v="3403"/><tag k="coa:place_id" v="891423"/></node><node id="-172" lat="30.204889" lon="-97.835476" changeset="false"><tag k="addr:street" v="Blumie Street"/><tag k="addr:housenumber" v="3416"/><tag k="coa:place_id" v="87307"/></node><node id="-173" lat="30.204909" lon="-97.835498" changeset="false"><tag k="addr:street" v="Blumie Street"/><tag k="addr:housenumber" v="3418"/><tag k="coa:place_id" v="875834"/></node><node id="-174" lat="30.202233" lon="-97.837372" changeset="false"><tag k="addr:street" v="Brodie Lane"/><tag k="addr:housenumber" v="8103"/><tag k="coa:place_id" v="465142"/></node><node id="-175" lat="30.202062" lon="-97.837028" changeset="false"><tag k="addr:street" v="Thomas Kincheon Street"/><tag k="addr:housenumber" v="3419"/><tag k="coa:place_id" v="89538"/></node></osm>