<?xml version="1.0" encoding="UTF-8"?><osm version="0.6" generator="github.com/aaronlidman/osm-and-geojson"><node id="-1" lat="30.163347" lon="-97.865279" changeset="false"><tag k="addr:street" v="Eldorado Trail"/><tag k="addr:housenumber" v="3504"/><tag k="addr:postcode" v="78739"/></node><node id="-2" lat="30.161922" lon="-97.865848" changeset="false"><tag k="addr:street" v="Green Emerald Terrace"/><tag k="addr:housenumber" v="3512"/><tag k="addr:postcode" v="78739"/></node><node id="-3" lat="30.16728" lon="-97.866102" changeset="false"><tag k="addr:street" v="Sundown Trail"/><tag k="addr:housenumber" v="11423"/><tag k="addr:postcode" v="78739"/></node><node id="-4" lat="30.167738" lon="-97.86503" changeset="false"><tag k="addr:street" v="Saddlestring Trail"/><tag k="addr:housenumber" v="3702"/><tag k="addr:postcode" v="78739"/></node><node id="-5" lat="30.163257" lon="-97.867318" changeset="false"><tag k="addr:street" v="Silmarillion Trail"/><tag k="addr:housenumber" v="11721"/><tag k="addr:postcode" v="78739"/></node><node id="-6" lat="30.165533" lon="-97.865277" changeset="false"><tag k="addr:street" v="Spotted Horse Trail"/><tag k="addr:housenumber" v="3604"/><tag k="addr:postcode" v="78739"/></node><node id="-7" lat="30.163763" lon="-97.864852" changeset="false"><tag k="addr:street" v="Socorro Trail"/><tag k="addr:housenumber" v="3507"/><tag k="addr:postcode" v="78739"/></node><node id="-8" lat="30.161938" lon="-97.862537" changeset="false"><tag k="addr:street" v="Green Emerald Terrace"/><tag k="addr:housenumber" v="3400"/><tag k="addr:postcode" v="78739"/></node><node id="-9" lat="30.16336" lon="-97.86405" changeset="false"><tag k="addr:street" v="Eldorado Trail"/><tag k="addr:housenumber" v="3416"/><tag k="addr:postcode" v="78739"/></node><node id="-10" lat="30.168239" lon="-97.860995" changeset="false"><tag k="addr:street" v="Capistrano Trail"/><tag k="addr:housenumber" v="3601"/><tag k="addr:postcode" v="78739"/></node><node id="-11" lat="30.168296" lon="-97.865485" changeset="false"><tag k="addr:street" v="Mordor Cove"/><tag k="addr:housenumber" v="3801"/><tag k="addr:postcode" v="78739"/></node><node id="-12" lat="30.169746" lon="-97.864701" changeset="false"><tag k="addr:street" v="Capistrano Trail"/><tag k="addr:housenumber" v="3808"/><tag k="addr:postcode" v="78739"/></node><node id="-13" lat="30.163756" lon="-97.866096" changeset="false"><tag k="addr:street" v="Socorro Trail"/><tag k="addr:housenumber" v="3605"/><tag k="addr:postcode" v="78739"/></node><node id="-14" lat="30.17084" lon="-97.864935" changeset="false"><tag k="addr:street" v="Uvalde Cove"/><tag k="addr:housenumber" v="11208"/><tag k="addr:postcode" v="78739"/></node><node id="-15" lat="30.172129" lon="-97.864453" changeset="false"><tag k="addr:street" v="Stormy Ridge Road"/><tag k="addr:housenumber" v="11200"/><tag k="addr:postcode" v="78739"/></node><node id="-16" lat="30.166659" lon="-97.861425" changeset="false"><tag k="addr:street" v="Spotted Horse Trail"/><tag k="addr:housenumber" v="3404"/><tag k="addr:postcode" v="78739"/></node><node id="-17" lat="30.162692" lon="-97.860913" changeset="false"><tag k="addr:street" v="Eldorado Trail"/><tag k="addr:housenumber" v="3403"/><tag k="addr:postcode" v="78739"/></node><node id="-18" lat="30.163289" lon="-97.866823" changeset="false"><tag k="addr:street" v="Sundown Trail"/><tag k="addr:housenumber" v="11610"/><tag k="addr:postcode" v="78739"/></node><node id="-19" lat="30.163345" lon="-97.860512" changeset="false"><tag k="addr:street" v="Eldorado Trail"/><tag k="addr:housenumber" v="3400"/><tag k="addr:postcode" v="78739"/></node><node id="-20" lat="30.16776" lon="-97.860689" changeset="false"><tag k="addr:street" v="Saddlestring Trail"/><tag k="addr:housenumber" v="3400"/><tag k="addr:postcode" v="78739"/></node><node id="-21" lat="30.165196" lon="-97.862672" changeset="false"><tag k="addr:street" v="Spotted Horse Trail"/><tag k="addr:housenumber" v="3501"/><tag k="addr:postcode" v="78739"/></node><node id="-22" lat="30.166833" lon="-97.863582" changeset="false"><tag k="addr:street" v="Saddle Mountain Trail"/><tag k="addr:housenumber" v="11405"/><tag k="addr:postcode" v="78739"/></node><node id="-23" lat="30.175593" lon="-97.861016" changeset="false"><tag k="addr:street" v="Wyldwood Road"/><tag k="addr:housenumber" v="3825"/><tag k="addr:postcode" v="78739"/></node><node id="-24" lat="30.162684" lon="-97.861337" changeset="false"><tag k="addr:street" v="Eldorado Trail"/><tag k="addr:housenumber" v="3405"/><tag k="addr:postcode" v="78739"/></node><node id="-25" lat="30.161957" lon="-97.861377" changeset="false"><tag k="addr:street" v="Green Emerald Terrace"/><tag k="addr:housenumber" v="3314"/><tag k="addr:postcode" v="78739"/></node><node id="-26" lat="30.168234" lon="-97.864675" changeset="false"><tag k="addr:street" v="Saddle Mountain Trail"/><tag k="addr:housenumber" v="11306"/><tag k="addr:postcode" v="78739"/></node><node id="-27" lat="30.163352" lon="-97.863643" changeset="false"><tag k="addr:street" v="Eldorado Trail"/><tag k="addr:housenumber" v="3414"/><tag k="addr:postcode" v="78739"/></node><node id="-28" lat="30.161922" lon="-97.863445" changeset="false"><tag k="addr:street" v="Green Emerald Terrace"/><tag k="addr:housenumber" v="3408"/><tag k="addr:postcode" v="78739"/></node><node id="-29" lat="30.165068" lon="-97.863008" changeset="false"><tag k="addr:street" v="Spotted Horse Trail"/><tag k="addr:housenumber" v="3503"/><tag k="addr:postcode" v="78739"/></node><node id="-30" lat="30.163345" lon="-97.865696" changeset="false"><tag k="addr:street" v="Eldorado Trail"/><tag k="addr:housenumber" v="3506"/><tag k="addr:postcode" v="78739"/></node><node id="-31" lat="30.166419" lon="-97.862454" changeset="false"><tag k="addr:street" v="Spotted Horse Trail"/><tag k="addr:housenumber" v="3410"/><tag k="addr:postcode" v="78739"/></node><node id="-32" lat="30.163749" lon="-97.865703" changeset="false"><tag k="addr:street" v="Socorro Trail"/><tag k="addr:housenumber" v="3603"/><tag k="addr:postcode" v="78739"/></node><node id="-33" lat="30.165544" lon="-97.863669" changeset="false"><tag k="addr:street" v="Spotted Horse Trail"/><tag k="addr:housenumber" v="3504"/><tag k="addr:postcode" v="78739"/></node><node id="-34" lat="30.162684" lon="-97.8605" changeset="false"><tag k="addr:street" v="Eldorado Trail"/><tag k="addr:housenumber" v="3401"/><tag k="addr:postcode" v="78739"/></node><node id="-35" lat="30.175376" lon="-97.861558" changeset="false"><tag k="addr:street" v="Wyldwood Road"/><tag k="addr:housenumber" v="3901"/><tag k="addr:postcode" v="78739"/></node><node id="-36" lat="30.163974" lon="-97.861745" changeset="false"><tag k="addr:street" v="Saddle Mountain Trail"/><tag k="addr:housenumber" v="11511"/><tag k="addr:postcode" v="78739"/></node><node id="-37" lat="30.164445" lon="-97.865346" changeset="false"><tag k="addr:street" v="Socorro Trail"/><tag k="addr:housenumber" v="3600"/><tag k="addr:postcode" v="78739"/></node><node id="-38" lat="30.165935" lon="-97.863468" changeset="false"><tag k="addr:street" v="Saddle Mountain Trail"/><tag k="addr:housenumber" v="11408"/><tag k="addr:postcode" v="78739"/></node><node id="-39" lat="30.162041" lon="-97.867348" changeset="false"><tag k="addr:street" v="Green Emerald Terrace"/><tag k="addr:housenumber" v="3606"/><tag k="addr:postcode" v="78739"/></node><node id="-40" lat="30.17012" lon="-97.864993" changeset="false"><tag k="addr:street" v="Capistrano Trail"/><tag k="addr:housenumber" v="3902"/><tag k="addr:postcode" v="78739"/></node><node id="-41" lat="30.167741" lon="-97.862374" changeset="false"><tag k="addr:street" v="Saddlestring Trail"/><tag k="addr:housenumber" v="3502"/><tag k="addr:postcode" v="78739"/></node><node id="-42" lat="30.163761" lon="-97.865274" changeset="false"><tag k="addr:street" v="Socorro Trail"/><tag k="addr:housenumber" v="3509"/><tag k="addr:postcode" v="78739"/></node><node id="-43" lat="30.163342" lon="-97.864457" changeset="false"><tag k="addr:street" v="Eldorado Trail"/><tag k="addr:housenumber" v="3500"/><tag k="addr:postcode" v="78739"/></node><node id="-44" lat="30.161916" lon="-97.862997" changeset="false"><tag k="addr:street" v="Green Emerald Terrace"/><tag k="addr:housenumber" v="3404"/><tag k="addr:postcode" v="78739"/></node><node id="-45" lat="30.164435" lon="-97.866132" changeset="false"><tag k="addr:street" v="Sundown Trail"/><tag k="addr:housenumber" v="11603"/><tag k="addr:postcode" v="78739"/></node></osm>