<?xml version="1.0" encoding="UTF-8"?><osm version="0.6" generator="github.com/aaronlidman/osm-and-geojson"><node id="-1" lat="30.248801" lon="-97.764323" changeset="false"><tag k="addr:street" v="South 7th Street"/><tag k="addr:housenumber" v="1901"/><tag k="coa:place_id" v="216878"/></node><node id="-2" lat="30.24391" lon="-97.76266" changeset="false"><tag k="addr:street" v="South 4th Street"/><tag k="addr:housenumber" v="2309"/><tag k="coa:place_id" v="297506"/></node><node id="-3" lat="30.243878" lon="-97.758255" changeset="false"><tag k="addr:street" v="South 1st Street"/><tag k="addr:housenumber" v="2212"/><tag k="coa:place_id" v="219386"/></node><node id="-4" lat="30.245224" lon="-97.759474" changeset="false"><tag k="addr:street" v="West Live Oak Street"/><tag k="addr:housenumber" v="704"/><tag k="coa:place_id" v="182828"/></node><node id="-5" lat="30.244567" lon="-97.759647" changeset="false"><tag k="addr:street" v="South 2nd Street"/><tag k="addr:housenumber" v="2206"/><tag k="coa:place_id" v="182510"/></node><node id="-6" lat="30.246091" lon="-97.763649" changeset="false"><tag k="addr:street" v="South 5th Street"/><tag k="addr:housenumber" v="2110"/><tag k="coa:place_id" v="182078"/></node><node id="-7" lat="30.244413" lon="-97.75809" changeset="false"><tag k="addr:street" v="West Live Oak Street"/><tag k="addr:housenumber" v="603"/><tag k="coa:place_id" v="182738"/></node><node id="-8" lat="30.246261" lon="-97.762548" changeset="false"><tag k="addr:street" v="West Live Oak Street"/><tag k="addr:housenumber" v="908"/><tag k="coa:place_id" v="5067644"/></node><node id="-9" lat="30.248447" lon="-97.763752" changeset="false"><tag k="addr:street" v="South 6th Street"/><tag k="addr:housenumber" v="1904"/><tag k="coa:place_id" v="217094"/></node><node id="-10" lat="30.246828" lon="-97.763819" changeset="false"><tag k="addr:street" v="Brodie Street"/><tag k="addr:housenumber" v="1011"/><tag k="coa:place_id" v="225773"/></node><node id="-11" lat="30.245191" lon="-97.764227" changeset="false"><tag k="addr:street" v="South 5th Street"/><tag k="addr:housenumber" v="2210"/><tag k="coa:place_id" v="510897"/></node><node id="-12" lat="30.242704" lon="-97.75915" changeset="false"><tag k="addr:street" v="South 1st Street"/><tag k="addr:housenumber" v="2310"/><tag k="coa:place_id" v="219446"/></node><node id="-13" lat="30.242504" lon="-97.759987" changeset="false"><tag k="addr:street" v="West Oltorf Street"/><tag k="addr:housenumber" v="604"/><tag k="coa:place_id" v="297422"/></node><node id="-14" lat="30.244939" lon="-97.758422" changeset="false"><tag k="addr:street" v="West Live Oak Street"/><tag k="addr:housenumber" v="610"/><tag k="coa:place_id" v="182756"/></node><node id="-15" lat="30.242892" lon="-97.761123" changeset="false"><tag k="addr:street" v="South 3rd Street"/><tag k="addr:housenumber" v="2317"/><tag k="coa:place_id" v="297452"/></node><node id="-16" lat="30.248281" lon="-97.764239" changeset="false"><tag k="addr:street" v="West Johanna Street"/><tag k="addr:housenumber" v="1108"/><tag k="coa:place_id" v="5105315"/></node><node id="-17" lat="30.248975" lon="-97.761913" changeset="false"><tag k="addr:street" v="South 5th Street"/><tag k="addr:housenumber" v="1800"/><tag k="coa:place_id" v="549116"/></node><node id="-18" lat="30.247689" lon="-97.763978" changeset="false"><tag k="addr:street" v="South 6th Street"/><tag k="addr:housenumber" v="2004"/><tag k="coa:place_id" v="90327"/></node><node id="-19" lat="30.242454" lon="-97.759551" changeset="false"><tag k="addr:street" v="South 1st Street"/><tag k="addr:housenumber" v="2316"/><tag k="coa:place_id" v="738610"/></node><node id="-20" lat="30.247464" lon="-97.7588" changeset="false"><tag k="addr:street" v="West Mary Street"/><tag k="addr:housenumber" v="716"/><tag k="coa:place_id" v="259202"/></node><node id="-21" lat="30.248107" lon="-97.764035" changeset="false"><tag k="addr:street" v="West Johanna Street"/><tag k="addr:housenumber" v="1106"/><tag k="coa:place_id" v="217106"/></node><node id="-22" lat="30.248186" lon="-97.75892" changeset="false"><tag k="addr:street" v="West Annie Street"/><tag k="addr:housenumber" v="801"/><tag k="coa:place_id" v="259280"/></node><node id="-23" lat="30.243909" lon="-97.761221" changeset="false"><tag k="addr:street" v="South 3rd Street"/><tag k="addr:housenumber" v="2303"/><tag k="coa:place_id" v="182342"/></node><node id="-24" lat="30.244411" lon="-97.759208" changeset="false"><tag k="addr:street" v="South 2nd Street"/><tag k="addr:housenumber" v="2205"/><tag k="coa:place_id" v="3089446"/></node><node id="-25" lat="30.24704" lon="-97.763576" changeset="false"><tag k="addr:street" v="Brodie Street"/><tag k="addr:housenumber" v="1008"/><tag k="coa:place_id" v="89664"/></node><node id="-26" lat="30.249117" lon="-97.763294" changeset="false"><tag k="addr:street" v="South 6th Street"/><tag k="addr:housenumber" v="1808 1/2"/><tag k="coa:place_id" v="216812"/></node><node id="-27" lat="30.249286" lon="-97.763929" changeset="false"><tag k="addr:street" v="West Annie Street"/><tag k="addr:housenumber" v="1113"/><tag k="coa:place_id" v="216848"/></node><node id="-28" lat="30.2466" lon="-97.757284" changeset="false"><tag k="addr:street" v="West Mary Street"/><tag k="addr:housenumber" v="609"/><tag k="coa:place_id" v="183320"/></node><node id="-29" lat="30.248781" lon="-97.761641" changeset="false"><tag k="addr:street" v="South 5th Street"/><tag k="addr:housenumber" v="1807"/><tag k="coa:place_id" v="216782"/></node><node id="-30" lat="30.244332" lon="-97.761674" changeset="false"><tag k="addr:street" v="South 3rd Street"/><tag k="addr:housenumber" v="2216"/><tag k="coa:place_id" v="3183302"/></node><node id="-31" lat="30.247372" lon="-97.758355" changeset="false"><tag k="addr:street" v="West Mary Street"/><tag k="addr:housenumber" v="706"/><tag k="coa:place_id" v="259190"/></node><node id="-32" lat="30.247521" lon="-97.756733" changeset="false"><tag k="addr:street" v="West Annie Street"/><tag k="addr:housenumber" v="609"/><tag k="coa:place_id" v="259346"/></node><node id="-33" lat="30.248179" lon="-97.764041" changeset="false"><tag k="addr:street" v="West Johanna Street"/><tag k="addr:housenumber" v="1102"/><tag k="coa:place_id" v="1025276"/></node><node id="-34" lat="30.246127" lon="-97.763626" changeset="false"><tag k="addr:street" v="South 5th Street"/><tag k="addr:housenumber" v="2106"/><tag k="coa:place_id" v="182066"/></node><node id="-35" lat="30.246543" lon="-97.757086" changeset="false"><tag k="addr:street" v="West Mary Street"/><tag k="addr:housenumber" v="607"/><tag k="coa:place_id" v="183326"/></node><node id="-36" lat="30.245821" lon="-97.758238" changeset="false"><tag k="addr:street" v="West Johanna Street"/><tag k="addr:housenumber" v="613"/><tag k="coa:place_id" v="183068"/></node><node id="-37" lat="30.244792" lon="-97.764007" changeset="false"><tag k="addr:street" v="South 5th Street"/><tag k="addr:housenumber" v="2301"/><tag k="coa:place_id" v="3308063"/></node><node id="-38" lat="30.244766" lon="-97.764447" changeset="false"><tag k="addr:street" v="South 5th Street"/><tag k="addr:housenumber" v="2306"/><tag k="coa:place_id" v="5095877"/></node><node id="-39" lat="30.247314" lon="-97.763849" changeset="false"><tag k="addr:street" v="South 6th Street"/><tag k="addr:housenumber" v="2011"/><tag k="coa:place_id" v="5216782"/></node><node id="-40" lat="30.243239" lon="-97.761462" changeset="false"><tag k="addr:street" v="South 3rd Street"/><tag k="addr:housenumber" v="2312"/><tag k="coa:place_id" v="5107667"/></node><node id="-41" lat="30.246464" lon="-97.759935" changeset="false"><tag k="addr:street" v="West Johanna Street"/><tag k="addr:housenumber" v="801 1/2"/><tag k="coa:place_id" v="3028944"/></node><node id="-42" lat="30.24437" lon="-97.757975" changeset="false"><tag k="addr:street" v="West Live Oak Street"/><tag k="addr:housenumber" v="601"/><tag k="coa:place_id" v="3426818"/></node><node id="-43" lat="30.24972" lon="-97.76366" changeset="false"><tag k="addr:street" v="West Annie Street"/><tag k="addr:housenumber" v="1111"/><tag k="coa:place_id" v="253378"/></node><node id="-44" lat="30.248209" lon="-97.76255" changeset="false"><tag k="addr:street" v="West Mary Street"/><tag k="addr:housenumber" v="1005"/><tag k="coa:place_id" v="216938"/></node><node id="-45" lat="30.244728" lon="-97.764453" changeset="false"><tag k="addr:street" v="South 5th Street"/><tag k="addr:housenumber" v="2308"/><tag k="coa:place_id" v="5095878"/></node><node id="-46" lat="30.246999" lon="-97.766198" changeset="false"><tag k="addr:street" v="West Live Oak Street"/><tag k="addr:housenumber" v="1201"/><tag k="coa:place_id" v="549128"/></node><node id="-47" lat="30.245218" lon="-97.757452" changeset="false"><tag k="addr:street" v="South 1st Street"/><tag k="addr:housenumber" v="2006"/><tag k="coa:place_id" v="219356"/></node><node id="-48" lat="30.245" lon="-97.760642" changeset="false"><tag k="addr:street" v="South 3rd Street"/><tag k="addr:housenumber" v="2203"/><tag k="coa:place_id" v="182450"/></node><node id="-49" lat="30.243572" lon="-97.761449" changeset="false"><tag k="addr:street" v="South 3rd Street"/><tag k="addr:housenumber" v="2307"/><tag k="coa:place_id" v="203641"/></node><node id="-50" lat="30.24616" lon="-97.763602" changeset="false"><tag k="addr:street" v="South 5th Street"/><tag k="addr:housenumber" v="2104"/><tag k="coa:place_id" v="182060"/></node><node id="-51" lat="30.247247" lon="-97.764293" changeset="false"><tag k="addr:street" v="South 6th Street"/><tag k="addr:housenumber" v="2006"/><tag k="coa:place_id" v="162405"/></node><node id="-52" lat="30.244105" lon="-97.763912" changeset="false"><tag k="addr:street" v="South 5th Street"/><tag k="addr:housenumber" v="2311"/><tag k="coa:place_id" v="150084"/></node><node id="-53" lat="30.246122" lon="-97.761952" changeset="false"><tag k="addr:street" v="West Live Oak Street"/><tag k="addr:housenumber" v="900"/><tag k="coa:place_id" v="3092324"/></node><node id="-54" lat="30.248991" lon="-97.763679" changeset="false"><tag k="addr:street" v="West Mary Street"/><tag k="addr:housenumber" v="1106"/><tag k="coa:place_id" v="216830"/></node><node id="-55" lat="30.247825" lon="-97.761273" changeset="false"><tag k="addr:street" v="West Mary Street"/><tag k="addr:housenumber" v="905"/><tag k="coa:place_id" v="216980"/></node><node id="-56" lat="30.244637" lon="-97.760747" changeset="false"><tag k="addr:street" v="South 3rd Street"/><tag k="addr:housenumber" v="2209"/><tag k="coa:place_id" v="182432"/></node><node id="-57" lat="30.247117" lon="-97.75931" changeset="false"><tag k="addr:street" v="South 3rd Street"/><tag k="addr:housenumber" v="1905"/><tag k="coa:place_id" v="183278"/></node><node id="-58" lat="30.246868" lon="-97.758199" changeset="false"><tag k="addr:street" v="West Mary Street"/><tag k="addr:housenumber" v="701"/><tag k="coa:place_id" v="1008284"/></node><node id="-59" lat="30.246803" lon="-97.75771" changeset="false"><tag k="addr:street" v="West Mary Street"/><tag k="addr:housenumber" v="615"/><tag k="coa:place_id" v="224267"/></node><node id="-60" lat="30.246202" lon="-97.760224" changeset="false"><tag k="addr:street" v="South 3rd Street"/><tag k="addr:housenumber" v="2004"/><tag k="coa:place_id" v="182876"/></node><node id="-61" lat="30.245389" lon="-97.760016" changeset="false"><tag k="addr:street" v="West Live Oak Street"/><tag k="addr:housenumber" v="712"/><tag k="coa:place_id" v="182846"/></node><node id="-62" lat="30.242431" lon="-97.759688" changeset="false"><tag k="addr:street" v="South 1st Street"/><tag k="addr:housenumber" v="2318"/><tag k="coa:place_id" v="219470"/></node><node id="-63" lat="30.243137" lon="-97.76196" changeset="false"><tag k="addr:street" v="West Oltorf Street"/><tag k="addr:housenumber" v="804"/><tag k="coa:place_id" v="297464"/></node><node id="-64" lat="30.24952" lon="-97.76326" changeset="false"><tag k="addr:street" v="West Annie Street"/><tag k="addr:housenumber" v="1105"/><tag k="coa:place_id" v="216614"/></node><node id="-65" lat="30.248005" lon="-97.760179" changeset="false"><tag k="addr:street" v="West Mary Street"/><tag k="addr:housenumber" v="812"/><tag k="coa:place_id" v="259256"/></node><node id="-66" lat="30.248037" lon="-97.758332" changeset="false"><tag k="addr:street" v="West Annie Street"/><tag k="addr:housenumber" v="713"/><tag k="coa:place_id" v="259298"/></node><node id="-67" lat="30.243225" lon="-97.758801" changeset="false"><tag k="addr:street" v="South 1st Street"/><tag k="addr:housenumber" v="2300"/><tag k="coa:place_id" v="219410"/></node><node id="-68" lat="30.247441" lon="-97.758563" changeset="false"><tag k="addr:street" v="West Mary Street"/><tag k="addr:housenumber" v="708"/><tag k="coa:place_id" v="220708"/></node><node id="-69" lat="30.245259" lon="-97.764186" changeset="false"><tag k="addr:street" v="South 5th Street"/><tag k="addr:housenumber" v="2208"/><tag k="coa:place_id" v="128483"/></node><node id="-70" lat="30.246508" lon="-97.75697" changeset="false"><tag k="addr:street" v="West Mary Street"/><tag k="addr:housenumber" v="603"/><tag k="coa:place_id" v="183332"/></node><node id="-71" lat="30.246308" lon="-97.762829" changeset="false"><tag k="addr:street" v="West Live Oak Street"/><tag k="addr:housenumber" v="912"/><tag k="coa:place_id" v="82380"/></node><node id="-72" lat="30.244721" lon="-97.760679" changeset="false"><tag k="addr:street" v="South 3rd Street"/><tag k="addr:housenumber" v="2207"/><tag k="coa:place_id" v="182438"/></node><node id="-73" lat="30.24667" lon="-97.762794" changeset="false"><tag k="addr:street" v="South 5th Street"/><tag k="addr:housenumber" v="2007"/><tag k="coa:place_id" v="181982"/></node><node id="-74" lat="30.247367" lon="-97.756036" changeset="false"><tag k="addr:street" v="South 1st Street"/><tag k="addr:housenumber" v="1800"/><tag k="coa:place_id" v="219290"/></node><node id="-75" lat="30.247163" lon="-97.756173" changeset="false"><tag k="addr:street" v="South 1st Street"/><tag k="addr:housenumber" v="1804"/><tag k="coa:place_id" v="219296"/></node><node id="-76" lat="30.248122" lon="-97.758589" changeset="false"><tag k="addr:street" v="West Annie Street"/><tag k="addr:housenumber" v="717"/><tag k="coa:place_id" v="259292"/></node><node id="-77" lat="30.24811" lon="-97.758602" changeset="false"><tag k="addr:street" v="West Annie Street"/><tag k="addr:housenumber" v="719"/><tag k="coa:place_id" v="259286"/></node><node id="-78" lat="30.24301" lon="-97.758886" changeset="false"><tag k="addr:street" v="South 1st Street"/><tag k="addr:housenumber" v="2304"/><tag k="coa:place_id" v="241403"/></node><node id="-79" lat="30.242907" lon="-97.758966" changeset="false"><tag k="addr:street" v="South 1st Street"/><tag k="addr:housenumber" v="2306"/><tag k="coa:place_id" v="219434"/></node><node id="-80" lat="30.24354" lon="-97.759814" changeset="false"><tag k="addr:street" v="Fletcher Street"/><tag k="addr:housenumber" v="615"/><tag k="coa:place_id" v="182618"/></node><node id="-81" lat="30.243428" lon="-97.759874" changeset="false"><tag k="addr:street" v="South 2nd Street"/><tag k="addr:housenumber" v="2305"/><tag k="coa:place_id" v="182606"/></node><node id="-82" lat="30.243757" lon="-97.760364" changeset="false"><tag k="addr:street" v="Fletcher Street"/><tag k="addr:housenumber" v="701"/><tag k="coa:place_id" v="182378"/></node><node id="-83" lat="30.243694" lon="-97.760109" changeset="false"><tag k="addr:street" v="South 2nd Street"/><tag k="addr:housenumber" v="2300"/><tag k="coa:place_id" v="182546"/></node><node id="-84" lat="30.248401" lon="-97.761777" changeset="false"><tag k="addr:street" v="West Mary Street"/><tag k="addr:housenumber" v="914"/><tag k="coa:place_id" v="929546"/></node><node id="-85" lat="30.248353" lon="-97.761623" changeset="false"><tag k="addr:street" v="West Mary Street"/><tag k="addr:housenumber" v="912"/><tag k="coa:place_id" v="752966"/></node><node id="-86" lat="30.246781" lon="-97.761145" changeset="false"><tag k="addr:street" v="Bouldin Avenue"/><tag k="addr:housenumber" v="2005"/><tag k="coa:place_id" v="182942"/></node><node id="-87" lat="30.246635" lon="-97.761216" changeset="false"><tag k="addr:street" v="West Johanna Street"/><tag k="addr:housenumber" v="815"/><tag k="coa:place_id" v="182960"/></node><node id="-88" lat="30.244843" lon="-97.764434" changeset="false"><tag k="addr:street" v="South 5th Street"/><tag k="addr:housenumber" v="2302"/><tag k="coa:place_id" v="941745"/></node><node id="-89" lat="30.244809" lon="-97.764439" changeset="false"><tag k="addr:street" v="South 5th Street"/><tag k="addr:housenumber" v="2304"/><tag k="coa:place_id" v="5095876"/></node><node id="-90" lat="30.244873" lon="-97.764429" changeset="false"><tag k="addr:street" v="South 5th Street"/><tag k="addr:housenumber" v="2300"/><tag k="coa:place_id" v="182090"/></node><node id="-91" lat="30.244315" lon="-97.764477" changeset="false"><tag k="addr:street" v="South 5th Street"/><tag k="addr:housenumber" v="2316"/><tag k="coa:place_id" v="297740"/></node><node id="-92" lat="30.244376" lon="-97.764414" changeset="false"><tag k="addr:street" v="South 5th Street"/><tag k="addr:housenumber" v="2314"/><tag k="coa:place_id" v="3255532"/></node></osm>