<?xml version="1.0" encoding="UTF-8"?><osm version="0.6" generator="github.com/aaronlidman/osm-and-geojson"><node id="-1" lat="30.444339" lon="-97.653317" changeset="false"><tag k="addr:street" v="Tacon Lane"/><tag k="addr:housenumber" v="15501"/></node><node id="-2" lat="30.4386" lon="-97.657926" changeset="false"><tag k="addr:street" v="Traci Michelle Drive"/><tag k="addr:housenumber" v="1033"/></node><node id="-3" lat="30.447037" lon="-97.653882" changeset="false"><tag k="addr:street" v="West Pecan Street"/><tag k="addr:housenumber" v="2505"/></node><node id="-4" lat="30.443636" lon="-97.656034" changeset="false"><tag k="addr:street" v="Craig's Crest Path"/><tag k="addr:housenumber" v="15300"/></node><node id="-5" lat="30.448366" lon="-97.658294" changeset="false"><tag k="addr:street" v="Miss Adrienne's Path"/><tag k="addr:housenumber" v="15551"/></node><node id="-6" lat="30.441963" lon="-97.662907" changeset="false"><tag k="addr:street" v="Wells Branch Parkway"/><tag k="addr:housenumber" v="1420"/></node><node id="-7" lat="30.437587" lon="-97.656746" changeset="false"><tag k="addr:street" v="Donna Jane Loop"/><tag k="addr:housenumber" v="15009"/></node><node id="-8" lat="30.445768" lon="-97.650599" changeset="false"><tag k="addr:street" v="West Pecan Street"/><tag k="addr:housenumber" v="2205"/></node><node id="-9" lat="30.442976" lon="-97.657226" changeset="false"><tag k="addr:street" v="Dora's Drive"/><tag k="addr:housenumber" v="1040"/></node><node id="-10" lat="30.448722" lon="-97.658304" changeset="false"><tag k="addr:street" v="Miss Allison's Way"/><tag k="addr:housenumber" v="1400"/></node><node id="-11" lat="30.438619" lon="-97.656158" changeset="false"><tag k="addr:street" v="Donna Jane Loop"/><tag k="addr:housenumber" v="15105"/></node><node id="-12" lat="30.444673" lon="-97.656017" changeset="false"><tag k="addr:street" v="Coaches Crossing"/><tag k="addr:housenumber" v="1121"/></node><node id="-13" lat="30.442194" lon="-97.659489" changeset="false"><tag k="addr:street" v="Ora Lane"/><tag k="addr:housenumber" v="15201"/></node><node id="-14" lat="30.440097" lon="-97.660308" changeset="false"><tag k="addr:street" v="Wells Branch Parkway"/><tag k="addr:housenumber" v="1204"/></node><node id="-15" lat="30.447067" lon="-97.653213" changeset="false"><tag k="addr:street" v="West Pecan Street"/><tag k="addr:housenumber" v="2415"/></node><node id="-16" lat="30.445376" lon="-97.652466" changeset="false"><tag k="addr:street" v="Tacon Lane"/><tag k="addr:housenumber" v="15601"/></node><node id="-17" lat="30.445007" lon="-97.658202" changeset="false"><tag k="addr:street" v="Sarah's Creek Drive"/><tag k="addr:housenumber" v="15352"/></node><node id="-18" lat="30.446564" lon="-97.659008" changeset="false"><tag k="addr:street" v="Roxanne's Run"/><tag k="addr:housenumber" v="1405"/></node><node id="-19" lat="30.440105" lon="-97.657864" changeset="false"><tag k="addr:street" v="Drusilla's Drive"/><tag k="addr:housenumber" v="15029"/></node><node id="-20" lat="30.446063" lon="-97.657647" changeset="false"><tag k="addr:street" v="Vincent Place"/><tag k="addr:housenumber" v="1236"/></node><node id="-21" lat="30.443015" lon="-97.655682" changeset="false"><tag k="addr:street" v="Sweet Caddie's Drive"/><tag k="addr:housenumber" v="15336"/></node><node id="-22" lat="30.4411" lon="-97.649457" changeset="false"><tag k="addr:street" v="Hebbe Lane"/><tag k="addr:housenumber" v="15400"/></node><node id="-23" lat="30.443387" lon="-97.657163" changeset="false"><tag k="addr:street" v="Sarah's Creek Drive"/><tag k="addr:housenumber" v="15240"/></node><node id="-24" lat="30.4456" lon="-97.654635" changeset="false"><tag k="addr:street" v="Vincent Place"/><tag k="addr:housenumber" v="1120"/></node><node id="-25" lat="30.443249" lon="-97.656209" changeset="false"><tag k="addr:street" v="Sarah's Creek Drive"/><tag k="addr:housenumber" v="15208"/></node><node id="-26" lat="30.439166" lon="-97.6498" changeset="false"><tag k="addr:street" v="Hebbe Lane"/><tag k="addr:housenumber" v="15209"/></node><node id="-27" lat="30.447622" lon="-97.654822" changeset="false"><tag k="addr:street" v="West Pecan Street"/><tag k="addr:housenumber" v="2515"/></node><node id="-28" lat="30.447484" lon="-97.654321" changeset="false"><tag k="addr:street" v="West Pecan Street"/><tag k="addr:housenumber" v="2509"/></node><node id="-29" lat="30.445553" lon="-97.653038" changeset="false"><tag k="addr:street" v="Tacon Lane"/><tag k="addr:housenumber" v="15600"/></node><node id="-30" lat="30.438182" lon="-97.656436" changeset="false"><tag k="addr:street" v="Donna Jane Loop"/><tag k="addr:housenumber" v="15029"/></node><node id="-31" lat="30.443762" lon="-97.656258" changeset="false"><tag k="addr:street" v="Sarah's Creek Drive"/><tag k="addr:housenumber" v="15211"/></node><node id="-32" lat="30.440836" lon="-97.661547" changeset="false"><tag k="addr:street" v="Wells Branch Parkway"/><tag k="addr:housenumber" v="1218"/></node><node id="-33" lat="30.439555" lon="-97.658018" changeset="false"><tag k="addr:street" v="Drusilla's Drive"/><tag k="addr:housenumber" v="15013"/></node><node id="-34" lat="30.439013" lon="-97.655008" changeset="false"><tag k="addr:street" v="Spring Hill Lane"/><tag k="addr:housenumber" v="15101"/></node><node id="-35" lat="30.443958" lon="-97.646973" changeset="false"><tag k="addr:street" v="Old Austin Pflugerville Road"/><tag k="addr:housenumber" v="609"/></node><node id="-36" lat="30.440227" lon="-97.650046" changeset="false"><tag k="addr:street" v="Hebbe Lane"/><tag k="addr:housenumber" v="15304"/></node><node id="-37" lat="30.442991" lon="-97.660177" changeset="false"><tag k="addr:street" v="Massengale Street"/><tag k="addr:housenumber" v="1303"/></node><node id="-38" lat="30.445179" lon="-97.659692" changeset="false"><tag k="addr:street" v="Ransom Street"/><tag k="addr:housenumber" v="1402"/></node><node id="-39" lat="30.445812" lon="-97.663041" changeset="false"><tag k="addr:street" v="Mangrum Street"/><tag k="addr:housenumber" v="1504"/></node><node id="-40" lat="30.444273" lon="-97.659194" changeset="false"><tag k="addr:street" v="Ora Lane"/><tag k="addr:housenumber" v="15303"/></node><node id="-41" lat="30.445952" lon="-97.65336" changeset="false"><tag k="addr:street" v="Miss Kimberly's Lane"/><tag k="addr:housenumber" v="1128"/></node><node id="-42" lat="30.440942" lon="-97.658878" changeset="false"><tag k="addr:street" v="Stacia's Way"/><tag k="addr:housenumber" v="1053"/></node><node id="-43" lat="30.437851" lon="-97.656639" changeset="false"><tag k="addr:street" v="Donna Jane Loop"/><tag k="addr:housenumber" v="15017"/></node><node id="-44" lat="30.446262" lon="-97.658055" changeset="false"><tag k="addr:street" v="Sarah's Creek Drive"/><tag k="addr:housenumber" v="15432"/></node><node id="-45" lat="30.438293" lon="-97.656366" changeset="false"><tag k="addr:street" v="Donna Jane Loop"/><tag k="addr:housenumber" v="15033"/></node><node id="-46" lat="30.439193" lon="-97.652166" changeset="false"><tag k="addr:street" v="Delahunty Lane"/><tag k="addr:housenumber" v="15108"/></node><node id="-47" lat="30.445941" lon="-97.655597" changeset="false"><tag k="addr:street" v="Vincent Place"/><tag k="addr:housenumber" v="1142"/></node><node id="-48" lat="30.445484" lon="-97.649736" changeset="false"><tag k="addr:street" v="West Pecan Street"/><tag k="addr:housenumber" v="2129"/></node><node id="-49" lat="30.449" lon="-97.66053" changeset="false"><tag k="addr:street" v="West Pecan Street"/><tag k="addr:housenumber" v="2925"/></node><node id="-50" lat="30.448264" lon="-97.659353" changeset="false"><tag k="addr:street" v="Miss Allison's Way"/><tag k="addr:housenumber" v="1435"/></node><node id="-51" lat="30.441386" lon="-97.648369" changeset="false"><tag k="addr:street" v="Hebbe Lane"/><tag k="addr:housenumber" v="15405"/></node><node id="-52" lat="30.437992" lon="-97.657146" changeset="false"><tag k="addr:street" v="Traci Michelle Drive"/><tag k="addr:housenumber" v="1005"/></node><node id="-53" lat="30.447283" lon="-97.655166" changeset="false"><tag k="addr:street" v="Miss Allison's Way"/><tag k="addr:housenumber" v="1204"/></node><node id="-54" lat="30.447795" lon="-97.657114" changeset="false"><tag k="addr:street" v="Sarah's Creek Drive"/><tag k="addr:housenumber" v="15534"/></node><node id="-55" lat="30.444386" lon="-97.657556" changeset="false"><tag k="addr:street" v="Sarah's Creek Drive"/><tag k="addr:housenumber" v="15305"/></node><node id="-56" lat="30.443441" lon="-97.655197" changeset="false"><tag k="addr:street" v="Sarah's Creek Drive"/><tag k="addr:housenumber" v="15123"/></node><node id="-57" lat="30.445976" lon="-97.654449" changeset="false"><tag k="addr:street" v="Miss Kimberly's Lane"/><tag k="addr:housenumber" v="1153"/></node><node id="-58" lat="30.440577" lon="-97.655719" changeset="false"><tag k="addr:street" v="Tacon Lane"/><tag k="addr:housenumber" v="15109"/></node><node id="-59" lat="30.443372" lon="-97.655087" changeset="false"><tag k="addr:street" v="Sarah's Creek Drive"/><tag k="addr:housenumber" v="15119"/></node><node id="-60" lat="30.447608" lon="-97.656686" changeset="false"><tag k="addr:street" v="Miss Allison's Way"/><tag k="addr:housenumber" v="1239"/></node><node id="-61" lat="30.44076" lon="-97.658585" changeset="false"><tag k="addr:street" v="Stacia's Way"/><tag k="addr:housenumber" v="1045"/></node><node id="-62" lat="30.445457" lon="-97.654249" changeset="false"><tag k="addr:street" v="Miss Kimberly's Lane"/><tag k="addr:housenumber" v="1105"/></node><node id="-63" lat="30.442882" lon="-97.650854" changeset="false"><tag k="addr:street" v="Vincent Place"/><tag k="addr:housenumber" v="805"/></node><node id="-64" lat="30.440383" lon="-97.654745" changeset="false"><tag k="addr:street" v="Spring Hill Lane"/><tag k="addr:housenumber" v="15200"/></node><node id="-65" lat="30.448673" lon="-97.659598" changeset="false"><tag k="addr:street" v="Valerie's Cove"/><tag k="addr:housenumber" v="15604"/></node><node id="-66" lat="30.443906" lon="-97.646608" changeset="false"><tag k="addr:street" v="Old Austin Pflugerville Road"/><tag k="addr:housenumber" v="605"/></node><node id="-67" lat="30.445259" lon="-97.653808" changeset="false"><tag k="addr:street" v="Miss Kimberly's Lane"/><tag k="addr:housenumber" v="1104"/></node><node id="-68" lat="30.445299" lon="-97.65783" changeset="false"><tag k="addr:street" v="Coaches Crossing"/><tag k="addr:housenumber" v="1234"/></node><node id="-69" lat="30.438494" lon="-97.657862" changeset="false"><tag k="addr:street" v="Traci Michelle Drive"/><tag k="addr:housenumber" v="1029"/></node><node id="-70" lat="30.444042" lon="-97.658326" changeset="false"><tag k="addr:street" v="Sarah's Creek Drive"/><tag k="addr:housenumber" v="15324"/></node><node id="-71" lat="30.435011" lon="-97.653168" changeset="false"><tag k="addr:street" v="Wells Branch Parkway"/><tag k="addr:housenumber" v="800 1/2"/></node><node id="-72" lat="30.445328" lon="-97.654298" changeset="false"><tag k="addr:street" v="Miss Kimberly's Lane"/><tag k="addr:housenumber" v="1101"/></node><node id="-73" lat="30.445264" lon="-97.65748" changeset="false"><tag k="addr:street" v="Coaches Crossing"/><tag k="addr:housenumber" v="1226"/></node><node id="-74" lat="30.44419" lon="-97.658341" changeset="false"><tag k="addr:street" v="Sarah's Creek Drive"/><tag k="addr:housenumber" v="15328"/></node><node id="-75" lat="30.438077" lon="-97.656501" changeset="false"><tag k="addr:street" v="Donna Jane Loop"/><tag k="addr:housenumber" v="15025"/></node><node id="-76" lat="30.437939" lon="-97.657002" changeset="false"><tag k="addr:street" v="Traci Michelle Drive"/><tag k="addr:housenumber" v="1001"/></node><node id="-77" lat="30.445785" lon="-97.653462" changeset="false"><tag k="addr:street" v="Miss Kimberly's Lane"/><tag k="addr:housenumber" v="1124"/></node><node id="-78" lat="30.437593" lon="-97.657163" changeset="false"><tag k="addr:street" v="Donna Jane Loop"/><tag k="addr:housenumber" v="15000"/></node><node id="-79" lat="30.448304" lon="-97.655574" changeset="false"><tag k="addr:street" v="West Pecan Street"/><tag k="addr:housenumber" v="2609"/></node><node id="-80" lat="30.443848" lon="-97.655411" changeset="false"><tag k="addr:street" v="Betty Baker Cove"/><tag k="addr:housenumber" v="1029"/></node><node id="-81" lat="30.44629" lon="-97.654214" changeset="false"><tag k="addr:street" v="Miss Kimberly's Lane"/><tag k="addr:housenumber" v="1152"/></node><node id="-82" lat="30.444192" lon="-97.655647" changeset="false"><tag k="addr:street" v="Craig's Crest Path"/><tag k="addr:housenumber" v="15320"/></node><node id="-83" lat="30.445708" lon="-97.655216" changeset="false"><tag k="addr:street" v="Vincent Place"/><tag k="addr:housenumber" v="1130"/></node><node id="-84" lat="30.44101" lon="-97.657325" changeset="false"><tag k="addr:street" v="Maxine's Cove"/><tag k="addr:housenumber" v="1009"/></node><node id="-85" lat="30.44603" lon="-97.654743" changeset="false"><tag k="addr:street" v="Miss Kimberly's Lane"/><tag k="addr:housenumber" v="1163"/></node><node id="-86" lat="30.443815" lon="-97.651023" changeset="false"><tag k="addr:street" v="Horborne Lane"/><tag k="addr:housenumber" v="15502"/></node><node id="-87" lat="30.43886" lon="-97.658256" changeset="false"><tag k="addr:street" v="Traci Michelle Drive"/><tag k="addr:housenumber" v="1105"/></node><node id="-88" lat="30.437465" lon="-97.656881" changeset="false"><tag k="addr:street" v="Donna Jane Loop"/><tag k="addr:housenumber" v="15005"/></node><node id="-89" lat="30.446172" lon="-97.653637" changeset="false"><tag k="addr:street" v="Miss Kimberly's Lane"/><tag k="addr:housenumber" v="1136"/></node><node id="-90" lat="30.440529" lon="-97.650792" changeset="false"><tag k="addr:street" v="Delahunty Lane"/><tag k="addr:housenumber" v="15305"/></node><node id="-91" lat="30.440424" lon="-97.66091" changeset="false"><tag k="addr:street" v="Wells Branch Parkway"/><tag k="addr:housenumber" v="1212"/></node><node id="-92" lat="30.44818" lon="-97.659462" changeset="false"><tag k="addr:street" v="Miss Allison's Way"/><tag k="addr:housenumber" v="1439"/></node><node id="-93" lat="30.443515" lon="-97.655317" changeset="false"><tag k="addr:street" v="Sarah's Creek Drive"/><tag k="addr:housenumber" v="15129"/></node><node id="-94" lat="30.443225" lon="-97.656493" changeset="false"><tag k="addr:street" v="Sarah's Creek Drive"/><tag k="addr:housenumber" v="15216"/></node><node id="-95" lat="30.44739" lon="-97.655419" changeset="false"><tag k="addr:street" v="Miss Allison's Way"/><tag k="addr:housenumber" v="1208"/></node><node id="-96" lat="30.445239" lon="-97.657336" changeset="false"><tag k="addr:street" v="Coaches Crossing"/><tag k="addr:housenumber" v="1222"/></node><node id="-97" lat="30.445193" lon="-97.656587" changeset="false"><tag k="addr:street" v="Coaches Crossing"/><tag k="addr:housenumber" v="1206"/></node><node id="-98" lat="30.437962" lon="-97.656571" changeset="false"><tag k="addr:street" v="Donna Jane Loop"/><tag k="addr:housenumber" v="15021"/></node><node id="-99" lat="30.439213" lon="-97.655486" changeset="false"><tag k="addr:street" v="Spring Hill Lane"/><tag k="addr:housenumber" v="15100"/></node><node id="-100" lat="30.446432" lon="-97.654776" changeset="false"><tag k="addr:street" v="Miss Kimberly's Lane"/><tag k="addr:housenumber" v="1168"/></node><node id="-101" lat="30.438791" lon="-97.65812" changeset="false"><tag k="addr:street" v="Traci Michelle Drive"/><tag k="addr:housenumber" v="1101"/></node><node id="-102" lat="30.437495" lon="-97.657031" changeset="false"><tag k="addr:street" v="Donna Jane Loop"/><tag k="addr:housenumber" v="15001"/></node><node id="-103" lat="30.446134" lon="-97.653384" changeset="false"><tag k="addr:street" v="Miss Kimberly's Lane"/><tag k="addr:housenumber" v="1132"/></node><node id="-104" lat="30.439518" lon="-97.649677" changeset="false"><tag k="addr:street" v="Hebbe Lane"/><tag k="addr:housenumber" v="15301"/></node><node id="-105" lat="30.443825" lon="-97.647032" changeset="false"><tag k="addr:street" v="Hebbe Lane"/><tag k="addr:housenumber" v="15611"/></node><node id="-106" lat="30.444011" lon="-97.656471" changeset="false"><tag k="addr:street" v="Clem's Cove"/><tag k="addr:housenumber" v="15400"/></node><node id="-107" lat="30.444422" lon="-97.656922" changeset="false"><tag k="addr:street" v="Velia's Way"/><tag k="addr:housenumber" v="15325"/></node><node id="-108" lat="30.44048" lon="-97.662017" changeset="false"><tag k="addr:street" v="Wells Branch Parkway"/><tag k="addr:housenumber" v="1300"/></node><node id="-109" lat="30.444224" lon="-97.65484" changeset="false"><tag k="addr:street" v="Betty Baker Cove"/><tag k="addr:housenumber" v="1020"/></node><node id="-110" lat="30.43851" lon="-97.656226" changeset="false"><tag k="addr:street" v="Donna Jane Loop"/><tag k="addr:housenumber" v="15101"/></node><node id="-111" lat="30.438836" lon="-97.655978" changeset="false"><tag k="addr:street" v="Donna Jane Loop"/><tag k="addr:housenumber" v="15113"/></node><node id="-112" lat="30.439515" lon="-97.654666" changeset="false"><tag k="addr:street" v="Spring Hill Lane"/><tag k="addr:housenumber" v="15105"/></node><node id="-113" lat="30.448214" lon="-97.65725" changeset="false"><tag k="addr:street" v="Miss Allison's Way"/><tag k="addr:housenumber" v="1312"/></node><node id="-114" lat="30.445176" lon="-97.656296" changeset="false"><tag k="addr:street" v="Coaches Crossing"/><tag k="addr:housenumber" v="1202"/></node><node id="-115" lat="30.446765" lon="-97.657674" changeset="false"><tag k="addr:street" v="Sarah's Creek Drive"/><tag k="addr:housenumber" v="15508"/></node><node id="-116" lat="30.440944" lon="-97.651164" changeset="false"><tag k="addr:street" v="Delahunty Lane"/><tag k="addr:housenumber" v="15304"/></node><node id="-117" lat="30.4438" lon="-97.655981" changeset="false"><tag k="addr:street" v="Craig's Crest Path"/><tag k="addr:housenumber" v="15304"/></node><node id="-118" lat="30.443755" lon="-97.659245" changeset="false"><tag k="addr:street" v="Ora Lane"/><tag k="addr:housenumber" v="15219"/></node><node id="-119" lat="30.445577" lon="-97.654171" changeset="false"><tag k="addr:street" v="Miss Kimberly's Lane"/><tag k="addr:housenumber" v="1107"/></node><node id="-120" lat="30.44517" lon="-97.654955" changeset="false"><tag k="addr:street" v="Vincent Place"/><tag k="addr:housenumber" v="1121"/></node><node id="-121" lat="30.443279" lon="-97.648935" changeset="false"><tag k="addr:street" v="Delahunty Lane"/><tag k="addr:housenumber" v="15509"/></node><node id="-122" lat="30.4432" lon="-97.648985" changeset="false"><tag k="addr:street" v="Delahunty Lane"/><tag k="addr:housenumber" v="15507"/></node><node id="-123" lat="30.438867" lon="-97.651805" changeset="false"><tag k="addr:street" v="Delahunty Lane"/><tag k="addr:housenumber" v="15109"/></node><node id="-124" lat="30.439029" lon="-97.651699" changeset="false"><tag k="addr:street" v="Delahunty Lane"/><tag k="addr:housenumber" v="15201"/></node><node id="-125" lat="30.442315" lon="-97.659939" changeset="false"><tag k="addr:street" v="Ora Lane"/><tag k="addr:housenumber" v="15200"/></node><node id="-126" lat="30.442375" lon="-97.659935" changeset="false"><tag k="addr:street" v="Barbergale Street"/><tag k="addr:housenumber" v="1300"/></node></osm>