<?xml version="1.0" encoding="UTF-8"?><osm version="0.6" generator="github.com/aaronlidman/osm-and-geojson"><node id="-1" lat="30.318887" lon="-97.684819" changeset="false"><tag k="addr:street" v="Haney Drive"/><tag k="addr:housenumber" v="6712"/><tag k="coa:place_id" v="640508"/></node><node id="-2" lat="30.319518" lon="-97.684232" changeset="false"><tag k="addr:street" v="Marquette Lane"/><tag k="addr:housenumber" v="2102"/><tag k="coa:place_id" v="640526"/></node><node id="-3" lat="30.318476" lon="-97.680794" changeset="false"><tag k="addr:street" v="Northeast Drive"/><tag k="addr:housenumber" v="6808"/><tag k="coa:place_id" v="495992"/></node><node id="-4" lat="30.316093" lon="-97.684197" changeset="false"><tag k="addr:street" v="Haney Drive"/><tag k="addr:housenumber" v="6403"/><tag k="coa:place_id" v="640316"/></node><node id="-5" lat="30.316012" lon="-97.685447" changeset="false"><tag k="addr:street" v="Brunswick Drive"/><tag k="addr:housenumber" v="2104"/><tag k="coa:place_id" v="608642"/></node><node id="-6" lat="30.316889" lon="-97.684212" changeset="false"><tag k="addr:street" v="Haney Drive"/><tag k="addr:housenumber" v="6503"/><tag k="coa:place_id" v="640292"/></node><node id="-7" lat="30.322012" lon="-97.679746" changeset="false"><tag k="addr:street" v="Northeast Drive"/><tag k="addr:housenumber" v="7216"/><tag k="coa:place_id" v="1028306"/></node><node id="-8" lat="30.320649" lon="-97.683714" changeset="false"><tag k="addr:street" v="Mira Loma Lane,1100"/><tag k="addr:housenumber" v="6905"/><tag k="coa:place_id" v="640634"/></node><node id="-9" lat="30.316839" lon="-97.683141" changeset="false"><tag k="addr:street" v="Colgate Lane"/><tag k="addr:housenumber" v="2100"/><tag k="coa:place_id" v="639770"/></node><node id="-10" lat="30.316089" lon="-97.684778" changeset="false"><tag k="addr:street" v="Haney Drive"/><tag k="addr:housenumber" v="6402"/><tag k="coa:place_id" v="640412"/></node><node id="-11" lat="30.315955" lon="-97.685882" changeset="false"><tag k="addr:street" v="Brunswick Drive"/><tag k="addr:housenumber" v="2100"/><tag k="coa:place_id" v="608648"/></node><node id="-12" lat="30.320052" lon="-97.681572" changeset="false"><tag k="addr:street" v="Duquesne Drive"/><tag k="addr:housenumber" v="6907"/><tag k="coa:place_id" v="639968"/></node><node id="-13" lat="30.31416" lon="-97.683532" changeset="false"><tag k="addr:street" v="Towbridge Circle"/><tag k="addr:housenumber" v="2200"/><tag k="coa:place_id" v="608084"/></node><node id="-14" lat="30.316295" lon="-97.684784" changeset="false"><tag k="addr:street" v="Haney Drive"/><tag k="addr:housenumber" v="6404"/><tag k="coa:place_id" v="640418"/></node><node id="-15" lat="30.318942" lon="-97.683238" changeset="false"><tag k="addr:street" v="Columbia Drive"/><tag k="addr:housenumber" v="6801"/><tag k="coa:place_id" v="640166"/></node><node id="-16" lat="30.318761" lon="-97.681266" changeset="false"><tag k="addr:street" v="Notre Dame Drive"/><tag k="addr:housenumber" v="6807"/><tag k="coa:place_id" v="639662"/></node><node id="-17" lat="30.320436" lon="-97.683798" changeset="false"><tag k="addr:street" v="Mira Loma Lane,1100"/><tag k="addr:housenumber" v="6903"/><tag k="coa:place_id" v="640640"/></node><node id="-18" lat="30.318057" lon="-97.684678" changeset="false"><tag k="addr:street" v="Haney Drive"/><tag k="addr:housenumber" v="6704"/><tag k="coa:place_id" v="3146313"/></node><node id="-19" lat="30.317544" lon="-97.682002" changeset="false"><tag k="addr:street" v="Notre Dame Drive"/><tag k="addr:housenumber" v="6705"/><tag k="coa:place_id" v="639704"/></node><node id="-20" lat="30.317846" lon="-97.685545" changeset="false"><tag k="addr:street" v="Mira Loma Lane,1100"/><tag k="addr:housenumber" v="6605"/><tag k="coa:place_id" v="640688"/></node><node id="-21" lat="30.318707" lon="-97.680637" changeset="false"><tag k="addr:street" v="Northeast Drive"/><tag k="addr:housenumber" v="6814"/><tag k="coa:place_id" v="495986"/></node><node id="-22" lat="30.319111" lon="-97.683136" changeset="false"><tag k="addr:street" v="Columbia Drive"/><tag k="addr:housenumber" v="6803"/><tag k="coa:place_id" v="640664"/></node><node id="-23" lat="30.317515" lon="-97.685903" changeset="false"><tag k="addr:street" v="Mira Loma Lane,1100"/><tag k="addr:housenumber" v="6601"/><tag k="coa:place_id" v="3185902"/></node><node id="-24" lat="30.314519" lon="-97.685342" changeset="false"><tag k="addr:street" v="Dorchester Drive"/><tag k="addr:housenumber" v="6307"/><tag k="coa:place_id" v="579508"/></node><node id="-25" lat="30.318096" lon="-97.682758" changeset="false"><tag k="addr:street" v="Duquesne Drive"/><tag k="addr:housenumber" v="6705"/><tag k="coa:place_id" v="640028"/></node><node id="-26" lat="30.314336" lon="-97.684706" changeset="false"><tag k="addr:street" v="Haney Drive"/><tag k="addr:housenumber" v="6300"/><tag k="coa:place_id" v="608426"/></node><node id="-27" lat="30.31794" lon="-97.683324" changeset="false"><tag k="addr:street" v="Columbia Drive"/><tag k="addr:housenumber" v="6703"/><tag k="coa:place_id" v="640184"/></node><node id="-28" lat="30.316" lon="-97.683677" changeset="false"><tag k="addr:street" v="Brunswick Drive"/><tag k="addr:housenumber" v="2118"/><tag k="coa:place_id" v="640334"/></node><node id="-29" lat="30.322225" lon="-97.6805" changeset="false"><tag k="addr:street" v="Northeast Drive"/><tag k="addr:housenumber" v="7240"/><tag k="coa:place_id" v="248427"/></node><node id="-30" lat="30.31704" lon="-97.681666" changeset="false"><tag k="addr:street" v="Northeast Drive"/><tag k="addr:housenumber" v="6700"/><tag k="coa:place_id" v="496028"/></node><node id="-31" lat="30.316736" lon="-97.68294" changeset="false"><tag k="addr:street" v="Colgate Lane"/><tag k="addr:housenumber" v="2102"/><tag k="coa:place_id" v="639782"/></node><node id="-32" lat="30.313618" lon="-97.684716" changeset="false"><tag k="addr:street" v="Haney Drive"/><tag k="addr:housenumber" v="6208"/><tag k="coa:place_id" v="608186"/></node><node id="-33" lat="30.316566" lon="-97.68257" changeset="false"><tag k="addr:street" v="Colgate Lane"/><tag k="addr:housenumber" v="2200"/><tag k="coa:place_id" v="639794"/></node><node id="-34" lat="30.314219" lon="-97.684141" changeset="false"><tag k="addr:street" v="Haney Drive"/><tag k="addr:housenumber" v="6215"/><tag k="coa:place_id" v="608162"/></node><node id="-35" lat="30.316664" lon="-97.682769" changeset="false"><tag k="addr:street" v="Colgate Lane"/><tag k="addr:housenumber" v="2104"/><tag k="coa:place_id" v="639788"/></node><node id="-36" lat="30.321822" lon="-97.682707" changeset="false"><tag k="addr:street" v="East US 290 Frontage Road"/><tag k="addr:housenumber" v="7107"/><tag k="coa:place_id" v="127922"/></node><node id="-37" lat="30.31577" lon="-97.682248" changeset="false"><tag k="addr:street" v="Colgate Lane"/><tag k="addr:housenumber" v="2207"/><tag k="coa:place_id" v="3085095"/></node><node id="-38" lat="30.313105" lon="-97.685715" changeset="false"><tag k="addr:street" v="Dorchester Drive"/><tag k="addr:housenumber" v="6201"/><tag k="coa:place_id" v="608282"/></node><node id="-39" lat="30.319088" lon="-97.684715" changeset="false"><tag k="addr:street" v="Haney Drive"/><tag k="addr:housenumber" v="6714"/><tag k="coa:place_id" v="506422"/></node><node id="-40" lat="30.317092" lon="-97.684221" changeset="false"><tag k="addr:street" v="Haney Drive"/><tag k="addr:housenumber" v="6601"/><tag k="coa:place_id" v="640286"/></node><node id="-41" lat="30.314091" lon="-97.682341" changeset="false"><tag k="addr:street" v="Bristol Drive"/><tag k="addr:housenumber" v="2210"/><tag k="coa:place_id" v="608534"/></node><node id="-42" lat="30.316778" lon="-97.681782" changeset="false"><tag k="addr:street" v="Northeast Drive"/><tag k="addr:housenumber" v="6608"/><tag k="coa:place_id" v="496034"/></node><node id="-43" lat="30.313425" lon="-97.685519" changeset="false"><tag k="addr:street" v="Dorchester Drive"/><tag k="addr:housenumber" v="6205"/><tag k="coa:place_id" v="608294"/></node><node id="-44" lat="30.319285" lon="-97.683033" changeset="false"><tag k="addr:street" v="Columbia Drive"/><tag k="addr:housenumber" v="6805"/><tag k="coa:place_id" v="640160"/></node><node id="-45" lat="30.315494" lon="-97.684055" changeset="false"><tag k="addr:street" v="Brunswick Drive"/><tag k="addr:housenumber" v="2115"/><tag k="coa:place_id" v="640394"/></node><node id="-46" lat="30.314504" lon="-97.684727" changeset="false"><tag k="addr:street" v="Haney Drive"/><tag k="addr:housenumber" v="6302"/><tag k="coa:place_id" v="608420"/></node><node id="-47" lat="30.313593" lon="-97.682693" changeset="false"><tag k="addr:street" v="Bristol Drive"/><tag k="addr:housenumber" v="2213"/><tag k="coa:place_id" v="608054"/></node><node id="-48" lat="30.313384" lon="-97.684028" changeset="false"><tag k="addr:street" v="Haney Drive"/><tag k="addr:housenumber" v="6205"/><tag k="coa:place_id" v="608132"/></node><node id="-49" lat="30.320495" lon="-97.681565" changeset="false"><tag k="addr:street" v="Vanderbilt Lane"/><tag k="addr:housenumber" v="2116"/><tag k="coa:place_id" v="639572"/></node><node id="-50" lat="30.319098" lon="-97.68105" changeset="false"><tag k="addr:street" v="Notre Dame Drive"/><tag k="addr:housenumber" v="6901"/><tag k="coa:place_id" v="639650"/></node><node id="-51" lat="30.31896" lon="-97.680514" changeset="false"><tag k="addr:street" v="Northeast Drive"/><tag k="addr:housenumber" v="6900"/><tag k="coa:place_id" v="96639"/></node><node id="-52" lat="30.318541" lon="-97.682057" changeset="false"><tag k="addr:street" v="Notre Dame Drive"/><tag k="addr:housenumber" v="6800"/><tag k="coa:place_id" v="639914"/></node><node id="-53" lat="30.319746" lon="-97.684226" changeset="false"><tag k="addr:street" v="Mira Loma Lane,1100"/><tag k="addr:housenumber" v="6803"/><tag k="coa:place_id" v="3365140"/></node><node id="-54" lat="30.315492" lon="-97.684249" changeset="false"><tag k="addr:street" v="Brunswick Drive"/><tag k="addr:housenumber" v="2113"/><tag k="coa:place_id" v="640400"/></node><node id="-55" lat="30.314471" lon="-97.682471" changeset="false"><tag k="addr:street" v="Bristol Drive"/><tag k="addr:housenumber" v="2206"/><tag k="coa:place_id" v="608558"/></node><node id="-56" lat="30.321422" lon="-97.679274" changeset="false"><tag k="addr:street" v="Northeast Drive"/><tag k="addr:housenumber" v="7104"/><tag k="coa:place_id" v="248424"/></node><node id="-57" lat="30.314596" lon="-97.684133" changeset="false"><tag k="addr:street" v="Haney Drive"/><tag k="addr:housenumber" v="6303"/><tag k="coa:place_id" v="608438"/></node><node id="-58" lat="30.315683" lon="-97.681889" changeset="false"><tag k="addr:street" v="Colgate Lane"/><tag k="addr:housenumber" v="2209"/><tag k="coa:place_id" v="3085096"/></node><node id="-59" lat="30.3155" lon="-97.683847" changeset="false"><tag k="addr:street" v="Brunswick Drive"/><tag k="addr:housenumber" v="2117"/><tag k="coa:place_id" v="640388"/></node><node id="-60" lat="30.314891" lon="-97.685357" changeset="false"><tag k="addr:street" v="Dorchester Drive"/><tag k="addr:housenumber" v="6311"/><tag k="coa:place_id" v="608342"/></node><node id="-61" lat="30.314422" lon="-97.684086" changeset="false"><tag k="addr:street" v="Haney Drive"/><tag k="addr:housenumber" v="6301"/><tag k="coa:place_id" v="608432"/></node><node id="-62" lat="30.317534" lon="-97.682802" changeset="false"><tag k="addr:street" v="Fordham Lane"/><tag k="addr:housenumber" v="2120"/><tag k="coa:place_id" v="3073853"/></node><node id="-63" lat="30.315829" lon="-97.683254" changeset="false"><tag k="addr:street" v="Brunswick Drive"/><tag k="addr:housenumber" v="2122"/><tag k="coa:place_id" v="640346"/></node><node id="-64" lat="30.317063" lon="-97.682783" changeset="false"><tag k="addr:street" v="Fordham Lane"/><tag k="addr:housenumber" v="2121"/><tag k="coa:place_id" v="639734"/></node><node id="-65" lat="30.313758" lon="-97.682184" changeset="false"><tag k="addr:street" v="Bristol Drive"/><tag k="addr:housenumber" v="2214"/><tag k="coa:place_id" v="608522"/></node><node id="-66" lat="30.315927" lon="-97.683471" changeset="false"><tag k="addr:street" v="Brunswick Drive"/><tag k="addr:housenumber" v="2120"/><tag k="coa:place_id" v="640340"/></node><node id="-67" lat="30.313654" lon="-97.683133" changeset="false"><tag k="addr:street" v="Towbridge Circle"/><tag k="addr:housenumber" v="2206"/><tag k="coa:place_id" v="608066"/></node><node id="-68" lat="30.320316" lon="-97.683014" changeset="false"><tag k="addr:street" v="Columbia Drive"/><tag k="addr:housenumber" v="6902"/><tag k="coa:place_id" v="640598"/></node><node id="-69" lat="30.319003" lon="-97.682201" changeset="false"><tag k="addr:street" v="Duquesne Drive"/><tag k="addr:housenumber" v="6805"/><tag k="coa:place_id" v="640004"/></node><node id="-70" lat="30.313476" lon="-97.683065" changeset="false"><tag k="addr:street" v="Towbridge Circle"/><tag k="addr:housenumber" v="2208"/><tag k="coa:place_id" v="608060"/></node><node id="-71" lat="30.318417" lon="-97.681499" changeset="false"><tag k="addr:street" v="Notre Dame Drive"/><tag k="addr:housenumber" v="6803"/><tag k="coa:place_id" v="639674"/></node><node id="-72" lat="30.315998" lon="-97.685678" changeset="false"><tag k="addr:street" v="Brunswick Drive"/><tag k="addr:housenumber" v="2102"/><tag k="coa:place_id" v="608636"/></node><node id="-73" lat="30.315235" lon="-97.685502" changeset="false"><tag k="addr:street" v="Dorchester Drive"/><tag k="addr:housenumber" v="6315"/><tag k="coa:place_id" v="608354"/></node><node id="-74" lat="30.316868" lon="-97.685356" changeset="false"><tag k="addr:street" v="Benwick Circle"/><tag k="addr:housenumber" v="2106"/><tag k="coa:place_id" v="608696"/></node><node id="-75" lat="30.317257" lon="-97.68152" changeset="false"><tag k="addr:street" v="Northeast Drive"/><tag k="addr:housenumber" v="6704"/><tag k="coa:place_id" v="496022"/></node><node id="-76" lat="30.316655" lon="-97.684201" changeset="false"><tag k="addr:street" v="Haney Drive"/><tag k="addr:housenumber" v="6501"/><tag k="coa:place_id" v="640298"/></node><node id="-77" lat="30.316062" lon="-97.683889" changeset="false"><tag k="addr:street" v="Brunswick Drive"/><tag k="addr:housenumber" v="2116"/><tag k="coa:place_id" v="640328"/></node><node id="-78" lat="30.315013" lon="-97.683424" changeset="false"><tag k="addr:street" v="Bristol Drive"/><tag k="addr:housenumber" v="2108"/><tag k="coa:place_id" v="608606"/></node><node id="-79" lat="30.321485" lon="-97.679293" changeset="false"><tag k="addr:street" v="Northeast Drive"/><tag k="addr:housenumber" v="7108"/><tag k="coa:place_id" v="248425"/></node><node id="-80" lat="30.319335" lon="-97.680137" changeset="false"><tag k="addr:street" v="Vanderbilt Lane"/><tag k="addr:housenumber" v="2211"/><tag k="coa:place_id" v="639626"/></node><node id="-81" lat="30.318474" lon="-97.685204" changeset="false"><tag k="addr:street" v="Mira Loma Lane,1100"/><tag k="addr:housenumber" v="6615"/><tag k="coa:place_id" v="640670"/></node><node id="-82" lat="30.317703" lon="-97.682905" changeset="false"><tag k="addr:street" v="Fordham Lane"/><tag k="addr:housenumber" v="2118"/><tag k="coa:place_id" v="639866"/></node><node id="-83" lat="30.315867" lon="-97.682419" changeset="false"><tag k="addr:street" v="Colgate Lane"/><tag k="addr:housenumber" v="2205"/><tag k="coa:place_id" v="3085094"/></node><node id="-84" lat="30.319669" lon="-97.679811" changeset="false"><tag k="addr:street" v="Vanderbilt Lane"/><tag k="addr:housenumber" v="2206"/><tag k="coa:place_id" v="639614"/></node><node id="-85" lat="30.319454" lon="-97.680852" changeset="false"><tag k="addr:street" v="Notre Dame Drive"/><tag k="addr:housenumber" v="6905"/><tag k="coa:place_id" v="639638"/></node><node id="-86" lat="30.316369" lon="-97.683442" changeset="false"><tag k="addr:street" v="Colgate Lane"/><tag k="addr:housenumber" v="2101"/><tag k="coa:place_id" v="639836"/></node><node id="-87" lat="30.313012" lon="-97.685343" changeset="false"><tag k="addr:street" v="Wheless Lane"/><tag k="addr:housenumber" v="2100"/><tag k="coa:place_id" v="608270"/></node><node id="-88" lat="30.315169" lon="-97.683796" changeset="false"><tag k="addr:street" v="Bristol Drive"/><tag k="addr:housenumber" v="2104"/><tag k="coa:place_id" v="608618"/></node><node id="-89" lat="30.321921" lon="-97.683219" changeset="false"><tag k="addr:street" v="East US 290 Frontage Road"/><tag k="addr:housenumber" v="7105"/><tag k="coa:place_id" v="62141"/></node><node id="-90" lat="30.321614" lon="-97.68009" changeset="false"><tag k="addr:street" v="Northeast Drive"/><tag k="addr:housenumber" v="7224"/><tag k="coa:place_id" v="127934"/></node><node id="-91" lat="30.318226" lon="-97.680935" changeset="false"><tag k="addr:street" v="Northeast Drive"/><tag k="addr:housenumber" v="6806"/><tag k="coa:place_id" v="495998"/></node><node id="-92" lat="30.314271" lon="-97.682403" changeset="false"><tag k="addr:street" v="Bristol Drive"/><tag k="addr:housenumber" v="2208"/><tag k="coa:place_id" v="608546"/></node><node id="-93" lat="30.317786" lon="-97.68516" changeset="false"><tag k="addr:street" v="Fordham Cove"/><tag k="addr:housenumber" v="2102"/><tag k="coa:place_id" v="640472"/></node><node id="-94" lat="30.317909" lon="-97.681795" changeset="false"><tag k="addr:street" v="Notre Dame Drive"/><tag k="addr:housenumber" v="6709"/><tag k="coa:place_id" v="639692"/></node><node id="-95" lat="30.31877" lon="-97.683295" changeset="false"><tag k="addr:street" v="Columbia Drive"/><tag k="addr:housenumber" v="6709"/><tag k="coa:place_id" v="640172"/></node><node id="-96" lat="30.314161" lon="-97.684755" changeset="false"><tag k="addr:street" v="Haney Drive"/><tag k="addr:housenumber" v="6214"/><tag k="coa:place_id" v="608168"/></node><node id="-97" lat="30.31493" lon="-97.683243" changeset="false"><tag k="addr:street" v="Bristol Drive"/><tag k="addr:housenumber" v="2110"/><tag k="coa:place_id" v="608600"/></node><node id="-98" lat="30.318639" lon="-97.682418" changeset="false"><tag k="addr:street" v="Duquesne Drive"/><tag k="addr:housenumber" v="6801"/><tag k="coa:place_id" v="640016"/></node><node id="-99" lat="30.319251" lon="-97.684606" changeset="false"><tag k="addr:street" v="Haney Drive"/><tag k="addr:housenumber" v="6716"/><tag k="coa:place_id" v="640520"/></node><node id="-100" lat="30.316968" lon="-97.685643" changeset="false"><tag k="addr:street" v="Benwick Circle"/><tag k="addr:housenumber" v="2104"/><tag k="coa:place_id" v="608702"/></node><node id="-101" lat="30.314648" lon="-97.682659" changeset="false"><tag k="addr:street" v="Bristol Drive"/><tag k="addr:housenumber" v="2204"/><tag k="coa:place_id" v="608570"/></node><node id="-102" lat="30.317662" lon="-97.684213" changeset="false"><tag k="addr:street" v="Haney Drive"/><tag k="addr:housenumber" v="6701"/><tag k="coa:place_id" v="640274"/></node><node id="-103" lat="30.318206" lon="-97.685294" changeset="false"><tag k="addr:street" v="Mira Loma Lane,1100"/><tag k="addr:housenumber" v="6611"/><tag k="coa:place_id" v="640676"/></node><node id="-104" lat="30.318479" lon="-97.682513" changeset="false"><tag k="addr:street" v="Duquesne Drive"/><tag k="addr:housenumber" v="6709"/><tag k="coa:place_id" v="640022"/></node><node id="-105" lat="30.318449" lon="-97.684245" changeset="false"><tag k="addr:street" v="Haney Drive"/><tag k="addr:housenumber" v="6709"/><tag k="coa:place_id" v="577054"/></node><node id="-106" lat="30.320394" lon="-97.681349" changeset="false"><tag k="addr:street" v="Vanderbilt Lane"/><tag k="addr:housenumber" v="2118"/><tag k="coa:place_id" v="639578"/></node><node id="-107" lat="30.320313" lon="-97.683973" changeset="false"><tag k="addr:street" v="Mira Loma Lane,1100"/><tag k="addr:housenumber" v="6901"/><tag k="coa:place_id" v="640646"/></node><node id="-108" lat="30.313012" lon="-97.684413" changeset="false"><tag k="addr:street" v="Haney Drive"/><tag k="addr:housenumber" v="6202"/><tag k="coa:place_id" v="608204"/></node><node id="-109" lat="30.319337" lon="-97.683855" changeset="false"><tag k="addr:street" v="Marquette Lane"/><tag k="addr:housenumber" v="2106"/><tag k="coa:place_id" v="640538"/></node><node id="-110" lat="30.317993" lon="-97.681069" changeset="false"><tag k="addr:street" v="Northeast Drive"/><tag k="addr:housenumber" v="6800"/><tag k="coa:place_id" v="496004"/></node><node id="-111" lat="30.314762" lon="-97.682863" changeset="false"><tag k="addr:street" v="Bristol Drive"/><tag k="addr:housenumber" v="2202"/><tag k="coa:place_id" v="608582"/></node><node id="-112" lat="30.316" lon="-97.685248" changeset="false"><tag k="addr:street" v="Brunswick Drive"/><tag k="addr:housenumber" v="2106"/><tag k="coa:place_id" v="608654"/></node></osm>