<?xml version="1.0" encoding="UTF-8"?><osm version="0.6" generator="github.com/aaronlidman/osm-and-geojson"><node id="-1" lat="30.28918" lon="-97.848936" changeset="false"><tag k="addr:street" v="Barton Club Drive"/><tag k="addr:housenumber" v="7900"/><tag k="addr:postcode" v="78735"/></node><node id="-2" lat="30.277573" lon="-97.884883" changeset="false"><tag k="addr:street" v="Verano Drive"/><tag k="addr:housenumber" v="4217"/><tag k="addr:postcode" v="78735"/></node><node id="-3" lat="30.286828" lon="-97.8776" changeset="false"><tag k="addr:street" v="Lacevine Lane"/><tag k="addr:housenumber" v="3101"/><tag k="addr:postcode" v="78735"/></node><node id="-4" lat="30.285684" lon="-97.882192" changeset="false"><tag k="addr:street" v="Misty Creek Drive"/><tag k="addr:housenumber" v="3400"/><tag k="addr:postcode" v="78735"/></node><node id="-5" lat="30.283224" lon="-97.859775" changeset="false"><tag k="addr:street" v="Chalk Knoll Drive"/><tag k="addr:housenumber" v="8008"/><tag k="addr:postcode" v="78735"/></node><node id="-6" lat="30.296168" lon="-97.872161" changeset="false"><tag k="addr:street" v="Thickwoods Cove"/><tag k="addr:housenumber" v="9012"/><tag k="addr:postcode" v="78735"/></node><node id="-7" lat="30.285068" lon="-97.876597" changeset="false"><tag k="addr:street" v="Winding Creek Cove"/><tag k="addr:housenumber" v="3203"/><tag k="addr:postcode" v="78735"/></node><node id="-8" lat="30.277552" lon="-97.883391" changeset="false"><tag k="addr:street" v="Barton Creek Boulevard"/><tag k="addr:housenumber" v="4201"/><tag k="addr:postcode" v="78735"/></node><node id="-9" lat="30.276934" lon="-97.880871" changeset="false"><tag k="addr:street" v="Calera Drive"/><tag k="addr:housenumber" v="8817"/><tag k="addr:postcode" v="78735"/></node><node id="-10" lat="30.296272" lon="-97.857724" changeset="false"><tag k="addr:street" v="Mesa Ridge Lane"/><tag k="addr:housenumber" v="1400"/><tag k="addr:postcode" v="78735"/></node><node id="-11" lat="30.269188" lon="-97.862602" changeset="false"><tag k="addr:street" v="Escala Drive"/><tag k="addr:housenumber" v="7700"/><tag k="addr:postcode" v="78735"/></node><node id="-12" lat="30.29473" lon="-97.922837" changeset="false"><tag k="addr:street" v="Grazing Deer Trail"/><tag k="addr:housenumber" v="11317"/><tag k="addr:postcode" v="78735"/></node><node id="-13" lat="30.285476" lon="-97.860933" changeset="false"><tag k="addr:street" v="Chalk Knoll Drive"/><tag k="addr:housenumber" v="8119"/><tag k="addr:postcode" v="78735"/></node><node id="-14" lat="30.277597" lon="-97.856795" changeset="false"><tag k="addr:street" v="Point O Woods"/><tag k="addr:housenumber" v="3104"/><tag k="addr:postcode" v="78735"/></node><node id="-15" lat="30.279986" lon="-97.87792" changeset="false"><tag k="addr:street" v="Calera Drive"/><tag k="addr:housenumber" v="8528"/><tag k="addr:postcode" v="78735"/></node><node id="-16" lat="30.295582" lon="-97.877708" changeset="false"><tag k="addr:street" v="Swirling Wind Cove"/><tag k="addr:housenumber" v="2324"/><tag k="addr:postcode" v="78735"/></node><node id="-17" lat="30.285489" lon="-97.870883" changeset="false"><tag k="addr:street" v="Mendocino Drive"/><tag k="addr:housenumber" v="8617"/><tag k="addr:postcode" v="78735"/></node><node id="-18" lat="30.28956" lon="-97.868023" changeset="false"><tag k="addr:street" v="Barton Creek Boulevard"/><tag k="addr:housenumber" v="2500"/><tag k="addr:postcode" v="78735"/></node><node id="-19" lat="30.289717" lon="-97.861895" changeset="false"><tag k="addr:street" v="Barton Creek Boulevard"/><tag k="addr:housenumber" v="2305"/><tag k="addr:postcode" v="78735"/></node><node id="-20" lat="30.295846" lon="-97.852681" changeset="false"><tag k="addr:street" v="Barton Creek Boulevard"/><tag k="addr:housenumber" v="1201"/><tag k="addr:postcode" v="78735"/></node><node id="-21" lat="30.295696" lon="-97.864031" changeset="false"><tag k="addr:street" v="Barton Creek Boulevard"/><tag k="addr:housenumber" v="1710"/><tag k="addr:postcode" v="78735"/></node><node id="-22" lat="30.260369" lon="-97.871251" changeset="false"><tag k="addr:street" v="Mirador Drive"/><tag k="addr:housenumber" v="4820 1/2"/><tag k="addr:postcode" v="78735"/></node><node id="-23" lat="30.285294" lon="-97.870006" changeset="false"><tag k="addr:street" v="Mendocino Drive"/><tag k="addr:housenumber" v="8609"/><tag k="addr:postcode" v="78735"/></node><node id="-24" lat="30.275697" lon="-97.88531" changeset="false"><tag k="addr:street" v="Verano Drive"/><tag k="addr:housenumber" v="4329"/><tag k="addr:postcode" v="78735"/></node><node id="-25" lat="30.283167" lon="-97.884118" changeset="false"><tag k="addr:street" v="Verano Drive"/><tag k="addr:housenumber" v="3817"/><tag k="addr:postcode" v="78735"/></node><node id="-26" lat="30.273723" lon="-97.858475" changeset="false"><tag k="addr:street" v="Lost Creek Boulevard"/><tag k="addr:housenumber" v="3541"/><tag k="addr:postcode" v="78735"/></node><node id="-27" lat="30.283915" lon="-97.871752" changeset="false"><tag k="addr:street" v="Sweet Autumn Cove"/><tag k="addr:housenumber" v="3103"/><tag k="addr:postcode" v="78735"/></node><node id="-28" lat="30.283785" lon="-97.859476" changeset="false"><tag k="addr:street" v="Chalk Knoll Drive"/><tag k="addr:housenumber" v="8018"/><tag k="addr:postcode" v="78735"/></node><node id="-29" lat="30.295337" lon="-97.858848" changeset="false"><tag k="addr:street" v="Club Ridge Drive"/><tag k="addr:housenumber" v="8308"/><tag k="addr:postcode" v="78735"/></node><node id="-30" lat="30.294212" lon="-97.876606" changeset="false"><tag k="addr:street" v="Swirling Wind Cove"/><tag k="addr:housenumber" v="2408 1/2"/><tag k="addr:postcode" v="78735"/></node><node id="-31" lat="30.291246" lon="-97.873587" changeset="false"><tag k="addr:street" v="Wimberly Lane"/><tag k="addr:housenumber" v="2500 1/2"/><tag k="addr:postcode" v="78735"/></node><node id="-32" lat="30.295501" lon="-97.918056" changeset="false"><tag k="addr:street" v="Texas Wildlife Trail"/><tag k="addr:housenumber" v="4029"/><tag k="addr:postcode" v="78735"/></node><node id="-33" lat="30.287047" lon="-97.878837" changeset="false"><tag k="addr:street" v="Lacevine Lane"/><tag k="addr:housenumber" v="3106"/><tag k="addr:postcode" v="78735"/></node><node id="-34" lat="30.269607" lon="-97.867792" changeset="false"><tag k="addr:street" v="Escala Drive"/><tag k="addr:housenumber" v="7829"/><tag k="addr:postcode" v="78735"/></node><node id="-35" lat="30.296785" lon="-97.870606" changeset="false"><tag k="addr:street" v="Wimberly Cove"/><tag k="addr:housenumber" v="8924"/><tag k="addr:postcode" v="78735"/></node><node id="-36" lat="30.294555" lon="-97.857666" changeset="false"><tag k="addr:street" v="Mesa Ridge Lane"/><tag k="addr:housenumber" v="1500"/><tag k="addr:postcode" v="78735"/></node><node id="-37" lat="30.282949" lon="-97.880557" changeset="false"><tag k="addr:street" v="Misty Creek Drive"/><tag k="addr:housenumber" v="3701"/><tag k="addr:postcode" v="78735"/></node><node id="-38" lat="30.283668" lon="-97.878448" changeset="false"><tag k="addr:street" v="Wintercreeper Cove"/><tag k="addr:housenumber" v="9009"/><tag k="addr:postcode" v="78735"/></node><node id="-39" lat="30.282166" lon="-97.870506" changeset="false"><tag k="addr:street" v="Fleece Flower Cove"/><tag k="addr:housenumber" v="3204"/><tag k="addr:postcode" v="78735"/></node><node id="-40" lat="30.277112" lon="-97.867909" changeset="false"><tag k="addr:street" v="Lost Creek Boulevard"/><tag k="addr:housenumber" v="3676"/><tag k="addr:postcode" v="78735"/></node><node id="-41" lat="30.257977" lon="-97.879578" changeset="false"><tag k="addr:street" v="Southwest Parkway"/><tag k="addr:housenumber" v="7900"/><tag k="addr:postcode" v="78735"/></node><node id="-42" lat="30.261679" lon="-97.870402" changeset="false"><tag k="addr:street" v="Mirador Drive"/><tag k="addr:housenumber" v="4708"/><tag k="addr:postcode" v="78735"/></node><node id="-43" lat="30.270295" lon="-97.867019" changeset="false"><tag k="addr:street" v="Escala Drive"/><tag k="addr:housenumber" v="7836"/><tag k="addr:postcode" v="78735"/></node><node id="-44" lat="30.283007" lon="-97.877258" changeset="false"><tag k="addr:street" v="Winding Creek Drive"/><tag k="addr:housenumber" v="3410"/><tag k="addr:postcode" v="78735"/></node><node id="-45" lat="30.264616" lon="-97.865864" changeset="false"><tag k="addr:street" v="Mirador Drive"/><tag k="addr:housenumber" v="4421"/><tag k="addr:postcode" v="78735"/></node><node id="-46" lat="30.275577" lon="-97.862615" changeset="false"><tag k="addr:street" v="Caribou Trail"/><tag k="addr:housenumber" v="3507"/><tag k="addr:postcode" v="78735"/></node><node id="-47" lat="30.286179" lon="-97.88762" changeset="false"><tag k="addr:street" v="Veletta Pl"/><tag k="addr:housenumber" v="9500"/><tag k="addr:postcode" v="78735"/></node><node id="-48" lat="30.272594" lon="-97.882255" changeset="false"><tag k="addr:street" v="Acuarela Court"/><tag k="addr:housenumber" v="8717"/><tag k="addr:postcode" v="78735"/></node><node id="-49" lat="30.266748" lon="-97.867072" changeset="false"><tag k="addr:street" v="Mirador Drive"/><tag k="addr:housenumber" v="4320"/><tag k="addr:postcode" v="78735"/></node><node id="-50" lat="30.266397" lon="-97.867081" changeset="false"><tag k="addr:street" v="Mirador Drive"/><tag k="addr:housenumber" v="4400"/><tag k="addr:postcode" v="78735"/></node><node id="-51" lat="30.260802" lon="-97.87104" changeset="false"><tag k="addr:street" v="Mirador Drive"/><tag k="addr:housenumber" v="4808"/><tag k="addr:postcode" v="78735"/></node><node id="-52" lat="30.268556" lon="-97.882202" changeset="false"><tag k="addr:street" v="Amarra Drive"/><tag k="addr:housenumber" v="4624"/><tag k="addr:postcode" v="78735"/></node><node id="-53" lat="30.273452" lon="-97.874454" changeset="false"><tag k="addr:street" v="Carranzo Drive"/><tag k="addr:housenumber" v="8221"/><tag k="addr:postcode" v="78735"/></node><node id="-54" lat="30.283681" lon="-97.887266" changeset="false"><tag k="addr:street" v="Verano Drive"/><tag k="addr:housenumber" v="3705"/><tag k="addr:postcode" v="78735"/></node><node id="-55" lat="30.283607" lon="-97.888398" changeset="false"><tag k="addr:street" v="Verano Drive"/><tag k="addr:housenumber" v="3612"/><tag k="addr:postcode" v="78735"/></node><node id="-56" lat="30.271868" lon="-97.881559" changeset="false"><tag k="addr:street" v="Acuarela Court"/><tag k="addr:housenumber" v="8708"/><tag k="addr:postcode" v="78735"/></node><node id="-57" lat="30.266914" lon="-97.88413" changeset="false"><tag k="addr:street" v="Amarra Drive"/><tag k="addr:housenumber" v="4800"/><tag k="addr:postcode" v="78735"/></node><node id="-58" lat="30.291292" lon="-97.849708" changeset="false"><tag k="addr:street" v="Canyon Rim Drive"/><tag k="addr:housenumber" v="859"/><tag k="addr:postcode" v="78735"/></node><node id="-59" lat="30.272565" lon="-97.875728" changeset="false"><tag k="addr:street" v="Carranzo Drive"/><tag k="addr:housenumber" v="8325"/><tag k="addr:postcode" v="78735"/></node><node id="-60" lat="30.273027" lon="-97.8752" changeset="false"><tag k="addr:street" v="Carranzo Drive"/><tag k="addr:housenumber" v="8313"/><tag k="addr:postcode" v="78735"/></node><node id="-61" lat="30.272869" lon="-97.875378" changeset="false"><tag k="addr:street" v="Carranzo Drive"/><tag k="addr:housenumber" v="8317"/><tag k="addr:postcode" v="78735"/></node><node id="-62" lat="30.297882" lon="-97.868877" changeset="false"><tag k="addr:street" v="Wimberly Cove"/><tag k="addr:housenumber" v="8900"/><tag k="addr:postcode" v="78735"/></node><node id="-63" lat="30.283119" lon="-97.885724" changeset="false"><tag k="addr:street" v="Verano Drive"/><tag k="addr:housenumber" v="3800"/><tag k="addr:postcode" v="78735"/></node><node id="-64" lat="30.296189" lon="-97.856106" changeset="false"><tag k="addr:street" v="Scenic Ridge Cove"/><tag k="addr:housenumber" v="8200"/><tag k="addr:postcode" v="78735"/></node><node id="-65" lat="30.284663" lon="-97.859464" changeset="false"><tag k="addr:street" v="Chalk Knoll Drive"/><tag k="addr:housenumber" v="8033"/><tag k="addr:postcode" v="78735"/></node><node id="-66" lat="30.284836" lon="-97.868645" changeset="false"><tag k="addr:street" v="Navidad Drive"/><tag k="addr:housenumber" v="8505"/><tag k="addr:postcode" v="78735"/></node><node id="-67" lat="30.28455" lon="-97.863021" changeset="false"><tag k="addr:street" v="Ravello Ridge Drive"/><tag k="addr:housenumber" v="2626"/><tag k="addr:postcode" v="78735"/></node><node id="-68" lat="30.284639" lon="-97.871587" changeset="false"><tag k="addr:street" v="Sweet Autumn Cove"/><tag k="addr:housenumber" v="3100"/><tag k="addr:postcode" v="78735"/></node><node id="-69" lat="30.278132" lon="-97.861994" changeset="false"><tag k="addr:street" v="Caribou Trail"/><tag k="addr:housenumber" v="3300"/><tag k="addr:postcode" v="78735"/></node><node id="-70" lat="30.289198" lon="-97.865419" changeset="false"><tag k="addr:street" v="Chalk Knoll Drive"/><tag k="addr:housenumber" v="8514"/><tag k="addr:postcode" v="78735"/></node><node id="-71" lat="30.295462" lon="-97.922527" changeset="false"><tag k="addr:street" v="Grazing Deer Trail"/><tag k="addr:housenumber" v="11400"/><tag k="addr:postcode" v="78735"/></node><node id="-72" lat="30.296012" lon="-97.918888" changeset="false"><tag k="addr:street" v="Texas Wildlife Trail"/><tag k="addr:housenumber" v="4020"/><tag k="addr:postcode" v="78735"/></node><node id="-73" lat="30.269908" lon="-97.86182" changeset="false"><tag k="addr:street" v="Escala Drive"/><tag k="addr:housenumber" v="7608"/><tag k="addr:postcode" v="78735"/></node><node id="-74" lat="30.271703" lon="-97.867205" changeset="false"><tag k="addr:street" v="Escala Drive"/><tag k="addr:housenumber" v="7855"/><tag k="addr:postcode" v="78735"/></node><node id="-75" lat="30.294353" lon="-97.921509" changeset="false"><tag k="addr:street" v="Grazing Deer Trail"/><tag k="addr:housenumber" v="11300"/><tag k="addr:postcode" v="78735"/></node><node id="-76" lat="30.274981" lon="-97.855526" changeset="false"><tag k="addr:street" v="Loasa Cove"/><tag k="addr:housenumber" v="7501"/><tag k="addr:postcode" v="78735"/></node><node id="-77" lat="30.285148" lon="-97.875594" changeset="false"><tag k="addr:street" v="Barton Creek Boulevard"/><tag k="addr:housenumber" v="3104"/><tag k="addr:postcode" v="78735"/></node><node id="-78" lat="30.284509" lon="-97.879421" changeset="false"><tag k="addr:street" v="Wintercreeper Cove"/><tag k="addr:housenumber" v="9008"/><tag k="addr:postcode" v="78735"/></node><node id="-79" lat="30.283769" lon="-97.880437" changeset="false"><tag k="addr:street" v="Misty Creek Drive"/><tag k="addr:housenumber" v="3601"/><tag k="addr:postcode" v="78735"/></node><node id="-80" lat="30.281814" lon="-97.877571" changeset="false"><tag k="addr:street" v="Barton Creek Boulevard"/><tag k="addr:housenumber" v="3509"/><tag k="addr:postcode" v="78735"/></node><node id="-81" lat="30.281007" lon="-97.875669" changeset="false"><tag k="addr:street" v="Winding Creek Drive"/><tag k="addr:housenumber" v="3600"/><tag k="addr:postcode" v="78735"/></node><node id="-82" lat="30.277911" lon="-97.875777" changeset="false"><tag k="addr:street" v="Calera Drive"/><tag k="addr:housenumber" v="8409"/><tag k="addr:postcode" v="78735"/></node><node id="-83" lat="30.277421" lon="-97.876895" changeset="false"><tag k="addr:street" v="Calera Drive"/><tag k="addr:housenumber" v="8525"/><tag k="addr:postcode" v="78735"/></node><node id="-84" lat="30.276859" lon="-97.878928" changeset="false"><tag k="addr:street" v="Calera Drive"/><tag k="addr:housenumber" v="8717"/><tag k="addr:postcode" v="78735"/></node><node id="-85" lat="30.2891" lon="-97.868814" changeset="false"><tag k="addr:street" v="Barton Creek Boulevard"/><tag k="addr:housenumber" v="2511"/><tag k="addr:postcode" v="78735"/></node><node id="-86" lat="30.284421" lon="-97.87406" changeset="false"><tag k="addr:street" v="Golden Rain Cove"/><tag k="addr:housenumber" v="8803"/><tag k="addr:postcode" v="78735"/></node><node id="-87" lat="30.282277" lon="-97.875924" changeset="false"><tag k="addr:street" v="Winding Creek Drive"/><tag k="addr:housenumber" v="3505"/><tag k="addr:postcode" v="78735"/></node><node id="-88" lat="30.28307" lon="-97.887213" changeset="false"><tag k="addr:street" v="Verano Drive"/><tag k="addr:housenumber" v="3704"/><tag k="addr:postcode" v="78735"/></node><node id="-89" lat="30.28347" lon="-97.884427" changeset="false"><tag k="addr:street" v="Verano Drive"/><tag k="addr:housenumber" v="3813"/><tag k="addr:postcode" v="78735"/></node><node id="-90" lat="30.297301" lon="-97.918433" changeset="false"><tag k="addr:street" v="Solitary Fawn Trail"/><tag k="addr:housenumber" v="11217"/><tag k="addr:postcode" v="78735"/></node><node id="-91" lat="30.285027" lon="-97.880755" changeset="false"><tag k="addr:street" v="Misty Creek Drive"/><tag k="addr:housenumber" v="3501"/><tag k="addr:postcode" v="78735"/></node><node id="-92" lat="30.280303" lon="-97.869045" changeset="false"><tag k="addr:street" v="Hickory Creek Cove"/><tag k="addr:housenumber" v="3305"/><tag k="addr:postcode" v="78735"/></node><node id="-93" lat="30.279821" lon="-97.864182" changeset="false"><tag k="addr:street" v="Hickory Creek Drive"/><tag k="addr:housenumber" v="8106"/><tag k="addr:postcode" v="78735"/></node><node id="-94" lat="30.2827" lon="-97.879649" changeset="false"><tag k="addr:street" v="Mission Creek Drive"/><tag k="addr:housenumber" v="3700"/><tag k="addr:postcode" v="78735"/></node><node id="-95" lat="30.285714" lon="-97.862273" changeset="false"><tag k="addr:street" v="Ravello Ridge Drive"/><tag k="addr:housenumber" v="2601"/><tag k="addr:postcode" v="78735"/></node><node id="-96" lat="30.284753" lon="-97.8721" changeset="false"><tag k="addr:street" v="Sweet Autumn Cove"/><tag k="addr:housenumber" v="3102"/><tag k="addr:postcode" v="78735"/></node><node id="-97" lat="30.29565" lon="-97.920287" changeset="false"><tag k="addr:street" v="Native Texan Trail"/><tag k="addr:housenumber" v="11216"/><tag k="addr:postcode" v="78735"/></node><node id="-98" lat="30.292967" lon="-97.878617" changeset="false"><tag k="addr:street" v="Wimberly Lane"/><tag k="addr:housenumber" v="1901"/><tag k="addr:postcode" v="78735"/></node><node id="-99" lat="30.28661" lon="-97.878983" changeset="false"><tag k="addr:street" v="Winding Creek Drive"/><tag k="addr:housenumber" v="3209"/><tag k="addr:postcode" v="78735"/></node><node id="-100" lat="30.287273" lon="-97.878441" changeset="false"><tag k="addr:street" v="Lacevine Lane"/><tag k="addr:housenumber" v="3102"/><tag k="addr:postcode" v="78735"/></node><node id="-101" lat="30.288767" lon="-97.868385" changeset="false"><tag k="addr:street" v="Navidad Drive"/><tag k="addr:housenumber" v="8634"/><tag k="addr:postcode" v="78735"/></node><node id="-102" lat="30.262871" lon="-97.870221" changeset="false"><tag k="addr:street" v="Cava Place"/><tag k="addr:housenumber" v="7800"/><tag k="addr:postcode" v="78735"/></node><node id="-103" lat="30.263734" lon="-97.890973" changeset="false"><tag k="addr:street" v="Southwest Parkway"/><tag k="addr:housenumber" v="8820"/><tag k="addr:postcode" v="78735"/></node><node id="-104" lat="30.277431" lon="-97.874787" changeset="false"><tag k="addr:street" v="Calera Drive"/><tag k="addr:housenumber" v="8333"/><tag k="addr:postcode" v="78735"/></node><node id="-105" lat="30.277265" lon="-97.866984" changeset="false"><tag k="addr:street" v="Lost Creek Boulevard"/><tag k="addr:housenumber" v="3671"/><tag k="addr:postcode" v="78735"/></node><node id="-106" lat="30.277079" lon="-97.872438" changeset="false"><tag k="addr:street" v="Calera Drive"/><tag k="addr:housenumber" v="8301"/><tag k="addr:postcode" v="78735"/></node><node id="-107" lat="30.282012" lon="-97.877151" changeset="false"><tag k="addr:street" v="Barton Creek Boulevard"/><tag k="addr:housenumber" v="3505"/><tag k="addr:postcode" v="78735"/></node><node id="-108" lat="30.278894" lon="-97.876745" changeset="false"><tag k="addr:street" v="Calera Drive"/><tag k="addr:housenumber" v="8521 1/2"/><tag k="addr:postcode" v="78735"/></node><node id="-109" lat="30.2697" lon="-97.86064" changeset="false"><tag k="addr:street" v="Escala Drive"/><tag k="addr:housenumber" v="7601"/><tag k="addr:postcode" v="78735"/></node><node id="-110" lat="30.276862" lon="-97.885397" changeset="false"><tag k="addr:street" v="Verano Drive"/><tag k="addr:housenumber" v="4300"/><tag k="addr:postcode" v="78735"/></node><node id="-111" lat="30.272125" lon="-97.876156" changeset="false"><tag k="addr:street" v="Carranzo Drive"/><tag k="addr:housenumber" v="8409"/><tag k="addr:postcode" v="78735"/></node><node id="-112" lat="30.273128" lon="-97.876004" changeset="false"><tag k="addr:street" v="Carranzo Drive"/><tag k="addr:housenumber" v="8320"/><tag k="addr:postcode" v="78735"/></node><node id="-113" lat="30.287026" lon="-97.866276" changeset="false"><tag k="addr:street" v="Chalk Knoll Drive"/><tag k="addr:housenumber" v="8409"/><tag k="addr:postcode" v="78735"/></node><node id="-114" lat="30.26373" lon="-97.869271" changeset="false"><tag k="addr:street" v="Cava Place"/><tag k="addr:housenumber" v="7805"/><tag k="addr:postcode" v="78735"/></node><node id="-115" lat="30.278146" lon="-97.878688" changeset="false"><tag k="addr:street" v="Calera Drive"/><tag k="addr:housenumber" v="8625 1/2"/><tag k="addr:postcode" v="78735"/></node><node id="-116" lat="30.272207" lon="-97.882358" changeset="false"><tag k="addr:street" v="Acuarela Court"/><tag k="addr:housenumber" v="8713"/><tag k="addr:postcode" v="78735"/></node><node id="-117" lat="30.268202" lon="-97.883119" changeset="false"><tag k="addr:street" v="Amarra Drive"/><tag k="addr:housenumber" v="4708"/><tag k="addr:postcode" v="78735"/></node><node id="-118" lat="30.295664" lon="-97.871822" changeset="false"><tag k="addr:street" v="Thickwoods Cove"/><tag k="addr:housenumber" v="9005"/><tag k="addr:postcode" v="78735"/></node><node id="-119" lat="30.269378" lon="-97.880845" changeset="false"><tag k="addr:street" v="Amarra Drive"/><tag k="addr:housenumber" v="4601"/><tag k="addr:postcode" v="78735"/></node><node id="-120" lat="30.274115" lon="-97.874383" changeset="false"><tag k="addr:street" v="Carranzo Drive"/><tag k="addr:housenumber" v="8212"/><tag k="addr:postcode" v="78735"/></node><node id="-121" lat="30.273625" lon="-97.87354" changeset="false"><tag k="addr:street" v="Carranzo Drive"/><tag k="addr:housenumber" v="8205"/><tag k="addr:postcode" v="78735"/></node><node id="-122" lat="30.279413" lon="-97.885292" changeset="false"><tag k="addr:street" v="Verano Drive"/><tag k="addr:housenumber" v="4101"/><tag k="addr:postcode" v="78735"/></node><node id="-123" lat="30.274388" lon="-97.897089" changeset="false"><tag k="addr:street" v="Southwest Parkway"/><tag k="addr:housenumber" v="9624"/><tag k="addr:postcode" v="78735"/></node><node id="-124" lat="30.266943" lon="-97.882791" changeset="false"><tag k="addr:street" v="Amarra Drive"/><tag k="addr:housenumber" v="4725"/><tag k="addr:postcode" v="78735"/></node><node id="-125" lat="30.273508" lon="-97.863891" changeset="false"><tag k="addr:street" v="Escala Drive"/><tag k="addr:housenumber" v="7936"/><tag k="addr:postcode" v="78735"/></node><node id="-126" lat="30.278468" lon="-97.885213" changeset="false"><tag k="addr:street" v="Verano Drive"/><tag k="addr:housenumber" v="4201"/><tag k="addr:postcode" v="78735"/></node><node id="-127" lat="30.279732" lon="-97.88477" changeset="false"><tag k="addr:street" v="Verano Drive"/><tag k="addr:housenumber" v="4017"/><tag k="addr:postcode" v="78735"/></node><node id="-128" lat="30.280906" lon="-97.884867" changeset="false"><tag k="addr:street" v="Verano Drive"/><tag k="addr:housenumber" v="4000"/><tag k="addr:postcode" v="78735"/></node><node id="-129" lat="30.267113" lon="-97.863366" changeset="false"><tag k="addr:street" v="Escala Drive"/><tag k="addr:housenumber" v="7729"/><tag k="addr:postcode" v="78735"/></node><node id="-130" lat="30.271718" lon="-97.884763" changeset="false"><tag k="addr:street" v="Henry Marx Lane"/><tag k="addr:housenumber" v="8500"/><tag k="addr:postcode" v="78735"/></node><node id="-131" lat="30.267851" lon="-97.887987" changeset="false"><tag k="addr:street" v="Barton Creek Boulevard"/><tag k="addr:housenumber" v="5011"/><tag k="addr:postcode" v="78735"/></node><node id="-132" lat="30.294938" lon="-97.85986" changeset="false"><tag k="addr:street" v="Club Ridge Drive"/><tag k="addr:housenumber" v="8317"/><tag k="addr:postcode" v="78735"/></node><node id="-133" lat="30.282591" lon="-97.880726" changeset="false"><tag k="addr:street" v="Misty Creek Drive"/><tag k="addr:housenumber" v="3707"/><tag k="addr:postcode" v="78735"/></node><node id="-134" lat="30.279427" lon="-97.880017" changeset="false"><tag k="addr:street" v="Mission Creek Cove"/><tag k="addr:housenumber" v="8905"/><tag k="addr:postcode" v="78735"/></node><node id="-135" lat="30.292373" lon="-97.877637" changeset="false"><tag k="addr:street" v="Wimberly Lane"/><tag k="addr:housenumber" v="1900"/><tag k="addr:postcode" v="78735"/></node><node id="-136" lat="30.268341" lon="-97.864561" changeset="false"><tag k="addr:street" v="Escala Drive"/><tag k="addr:housenumber" v="7740"/><tag k="addr:postcode" v="78735"/></node><node id="-137" lat="30.267569" lon="-97.862929" changeset="false"><tag k="addr:street" v="Escala Drive"/><tag k="addr:housenumber" v="7723"/><tag k="addr:postcode" v="78735"/></node><node id="-138" lat="30.277213" lon="-97.857737" changeset="false"><tag k="addr:street" v="Point O Woods"/><tag k="addr:housenumber" v="3112"/><tag k="addr:postcode" v="78735"/></node><node id="-139" lat="30.276158" lon="-97.862199" changeset="false"><tag k="addr:street" v="Caribou Trail"/><tag k="addr:housenumber" v="3405"/><tag k="addr:postcode" v="78735"/></node><node id="-140" lat="30.28249" lon="-97.863981" changeset="false"><tag k="addr:street" v="Navidad Cove"/><tag k="addr:housenumber" v="2900"/><tag k="addr:postcode" v="78735"/></node><node id="-141" lat="30.284717" lon="-97.878829" changeset="false"><tag k="addr:street" v="Wintercreeper Cove"/><tag k="addr:housenumber" v="9006"/><tag k="addr:postcode" v="78735"/></node><node id="-142" lat="30.27189" lon="-97.863852" changeset="false"><tag k="addr:street" v="Dadiva Court"/><tag k="addr:housenumber" v="7800"/><tag k="addr:postcode" v="78735"/></node><node id="-143" lat="30.284357" lon="-97.87239" changeset="false"><tag k="addr:street" v="Sweet Autumn Cove"/><tag k="addr:housenumber" v="3104"/><tag k="addr:postcode" v="78735"/></node><node id="-144" lat="30.282726" lon="-97.88168" changeset="false"><tag k="addr:street" v="Misty Creek Drive"/><tag k="addr:housenumber" v="3700"/><tag k="addr:postcode" v="78735"/></node><node id="-145" lat="30.297582" lon="-97.918291" changeset="false"><tag k="addr:street" v="Solitary Fawn Trail"/><tag k="addr:housenumber" v="11216"/><tag k="addr:postcode" v="78735"/></node><node id="-146" lat="30.284173" lon="-97.880865" changeset="false"><tag k="addr:street" v="Misty Creek Drive"/><tag k="addr:housenumber" v="3505"/><tag k="addr:postcode" v="78735"/></node><node id="-147" lat="30.281904" lon="-97.873228" changeset="false"><tag k="addr:street" v="Coralvine Cove"/><tag k="addr:housenumber" v="3306"/><tag k="addr:postcode" v="78735"/></node><node id="-148" lat="30.281254" lon="-97.862174" changeset="false"><tag k="addr:street" v="Ravello Ridge Drive"/><tag k="addr:housenumber" v="2907"/><tag k="addr:postcode" v="78735"/></node><node id="-149" lat="30.285194" lon="-97.859093" changeset="false"><tag k="addr:street" v="Chalk Knoll Drive"/><tag k="addr:housenumber" v="8046"/><tag k="addr:postcode" v="78735"/></node><node id="-150" lat="30.294427" lon="-97.865278" changeset="false"><tag k="addr:street" v="Chalk Knoll Drive"/><tag k="addr:housenumber" v="8842"/><tag k="addr:postcode" v="78735"/></node><node id="-151" lat="30.264699" lon="-97.889358" changeset="false"><tag k="addr:street" v="Barton Creek Boulevard"/><tag k="addr:housenumber" v="5212"/><tag k="addr:postcode" v="78735"/></node><node id="-152" lat="30.277992" lon="-97.866173" changeset="false"><tag k="addr:street" v="Lost Creek Boulevard"/><tag k="addr:housenumber" v="3670"/><tag k="addr:postcode" v="78735"/></node><node id="-153" lat="30.276841" lon="-97.858106" changeset="false"><tag k="addr:street" v="Point O Woods"/><tag k="addr:housenumber" v="3200"/><tag k="addr:postcode" v="78735"/></node><node id="-154" lat="30.276908" lon="-97.862028" changeset="false"><tag k="addr:street" v="Caribou Trail"/><tag k="addr:housenumber" v="3401"/><tag k="addr:postcode" v="78735"/></node><node id="-155" lat="30.272782" lon="-97.856237" changeset="false"><tag k="addr:street" v="Lost Creek Boulevard"/><tag k="addr:housenumber" v="3481"/><tag k="addr:postcode" v="78735"/></node><node id="-156" lat="30.269491" lon="-97.862158" changeset="false"><tag k="addr:street" v="Escala Drive"/><tag k="addr:housenumber" v="7618"/><tag k="addr:postcode" v="78735"/></node><node id="-157" lat="30.28703" lon="-97.87302" changeset="false"><tag k="addr:street" v="Maravillas Loop"/><tag k="addr:housenumber" v="3019"/><tag k="addr:postcode" v="78735"/></node><node id="-158" lat="30.286937" lon="-97.859086" changeset="false"><tag k="addr:street" v="Portofino Ridge Drive"/><tag k="addr:housenumber" v="2316"/><tag k="addr:postcode" v="78735"/></node><node id="-159" lat="30.297335" lon="-97.853839" changeset="false"><tag k="addr:street" v="Barton Creek Boulevard"/><tag k="addr:housenumber" v="1200"/><tag k="addr:postcode" v="78735"/></node><node id="-160" lat="30.292486" lon="-97.859767" changeset="false"><tag k="addr:street" v="Barton Club Drive"/><tag k="addr:housenumber" v="8212"/><tag k="addr:postcode" v="78735"/></node><node id="-161" lat="30.263578" lon="-97.866892" changeset="false"><tag k="addr:street" v="Mirador Drive"/><tag k="addr:housenumber" v="4501"/><tag k="addr:postcode" v="78735"/></node><node id="-162" lat="30.273984" lon="-97.878674" changeset="false"><tag k="addr:street" v="Carranzo Drive"/><tag k="addr:housenumber" v="8608"/><tag k="addr:postcode" v="78735"/></node><node id="-163" lat="30.270948" lon="-97.880295" changeset="false"><tag k="addr:street" v="Amarra Drive"/><tag k="addr:housenumber" v="4416"/><tag k="addr:postcode" v="78735"/></node><node id="-164" lat="30.264359" lon="-97.882338" changeset="false"><tag k="addr:street" v="Amarra Drive"/><tag k="addr:housenumber" v="4922"/><tag k="addr:postcode" v="78735"/></node><node id="-165" lat="30.266219" lon="-97.880465" changeset="false"><tag k="addr:street" v="Parismina Lane"/><tag k="addr:housenumber" v="8409"/><tag k="addr:postcode" v="78735"/></node><node id="-166" lat="30.267151" lon="-97.880678" changeset="false"><tag k="addr:street" v="Parismina Lane"/><tag k="addr:housenumber" v="8425"/><tag k="addr:postcode" v="78735"/></node><node id="-167" lat="30.273067" lon="-97.865022" changeset="false"><tag k="addr:street" v="Escala Drive"/><tag k="addr:housenumber" v="7920"/><tag k="addr:postcode" v="78735"/></node><node id="-168" lat="30.273598" lon="-97.873781" changeset="false"><tag k="addr:street" v="Carranzo Drive"/><tag k="addr:housenumber" v="8209"/><tag k="addr:postcode" v="78735"/></node><node id="-169" lat="30.272392" lon="-97.87656" changeset="false"><tag k="addr:street" v="Carranzo Drive"/><tag k="addr:housenumber" v="8408"/><tag k="addr:postcode" v="78735"/></node><node id="-170" lat="30.285856" lon="-97.887744" changeset="false"><tag k="addr:street" v="Veletta Pl"/><tag k="addr:housenumber" v="9504"/><tag k="addr:postcode" v="78735"/></node><node id="-171" lat="30.285541" lon="-97.887562" changeset="false"><tag k="addr:street" v="Veletta Pl"/><tag k="addr:housenumber" v="9508"/><tag k="addr:postcode" v="78735"/></node><node id="-172" lat="30.284166" lon="-97.888901" changeset="false"><tag k="addr:street" v="Verano Drive"/><tag k="addr:housenumber" v="3604"/><tag k="addr:postcode" v="78735"/></node><node id="-173" lat="30.283874" lon="-97.888702" changeset="false"><tag k="addr:street" v="Verano Drive"/><tag k="addr:housenumber" v="3608"/><tag k="addr:postcode" v="78735"/></node><node id="-174" lat="30.265829" lon="-97.883987" changeset="false"><tag k="addr:street" v="Amarra Drive"/><tag k="addr:housenumber" v="4816"/><tag k="addr:postcode" v="78735"/></node><node id="-175" lat="30.259816" lon="-97.871149" changeset="false"><tag k="addr:street" v="Mirador Drive"/><tag k="addr:housenumber" v="4900"/><tag k="addr:postcode" v="78735"/></node><node id="-176" lat="30.26477" lon="-97.871208" changeset="false"><tag k="addr:street" v="Cava Place"/><tag k="addr:housenumber" v="7908"/><tag k="addr:postcode" v="78735"/></node><node id="-177" lat="30.273818" lon="-97.879959" changeset="false"><tag k="addr:street" v="Carranzo Drive"/><tag k="addr:housenumber" v="8624 1/2"/><tag k="addr:postcode" v="78735"/></node><node id="-178" lat="30.273884" lon="-97.874932" changeset="false"><tag k="addr:street" v="Carranzo Drive"/><tag k="addr:housenumber" v="8224"/><tag k="addr:postcode" v="78735"/></node><node id="-179" lat="30.266058" lon="-97.866038" changeset="false"><tag k="addr:street" v="Mirador Drive"/><tag k="addr:housenumber" v="4401"/><tag k="addr:postcode" v="78735"/></node><node id="-180" lat="30.295362" lon="-97.87319" changeset="false"><tag k="addr:street" v="Wimberly Lane"/><tag k="addr:housenumber" v="2115"/><tag k="addr:postcode" v="78735"/></node><node id="-181" lat="30.278886" lon="-97.885962" changeset="false"><tag k="addr:street" v="Verano Drive"/><tag k="addr:housenumber" v="4108"/><tag k="addr:postcode" v="78735"/></node><node id="-182" lat="30.280548" lon="-97.885066" changeset="false"><tag k="addr:street" v="Verano Drive"/><tag k="addr:housenumber" v="4008"/><tag k="addr:postcode" v="78735"/></node><node id="-183" lat="30.295416" lon="-97.861638" changeset="false"><tag k="addr:street" v="Barton Creek Boulevard"/><tag k="addr:housenumber" v="1600"/><tag k="addr:postcode" v="78735"/></node><node id="-184" lat="30.277099" lon="-97.885465" changeset="false"><tag k="addr:street" v="Verano Drive"/><tag k="addr:housenumber" v="4228"/><tag k="addr:postcode" v="78735"/></node><node id="-185" lat="30.289264" lon="-97.854564" changeset="false"><tag k="addr:street" v="Barton Club Drive"/><tag k="addr:housenumber" v="7901"/><tag k="addr:postcode" v="78735"/></node><node id="-186" lat="30.286624" lon="-97.869208" changeset="false"><tag k="addr:street" v="Navidad Drive"/><tag k="addr:housenumber" v="8613"/><tag k="addr:postcode" v="78735"/></node><node id="-187" lat="30.286932" lon="-97.879846" changeset="false"><tag k="addr:street" v="Winding Creek Drive"/><tag k="addr:housenumber" v="3201"/><tag k="addr:postcode" v="78735"/></node><node id="-188" lat="30.285402" lon="-97.870455" changeset="false"><tag k="addr:street" v="Mendocino Drive"/><tag k="addr:housenumber" v="8613"/><tag k="addr:postcode" v="78735"/></node><node id="-189" lat="30.273878" lon="-97.86347" changeset="false"><tag k="addr:street" v="Escala Drive"/><tag k="addr:housenumber" v="7944 1/2"/><tag k="addr:postcode" v="78735"/></node><node id="-190" lat="30.295876" lon="-97.877078" changeset="false"><tag k="addr:street" v="Swirling Wind Cove"/><tag k="addr:housenumber" v="2316"/><tag k="addr:postcode" v="78735"/></node><node id="-191" lat="30.294919" lon="-97.872987" changeset="false"><tag k="addr:street" v="Wimberly Lane"/><tag k="addr:housenumber" v="2116"/><tag k="addr:postcode" v="78735"/></node><node id="-192" lat="30.276977" lon="-97.863039" changeset="false"><tag k="addr:street" v="Caribou Trail"/><tag k="addr:housenumber" v="3500"/><tag k="addr:postcode" v="78735"/></node><node id="-193" lat="30.279905" lon="-97.863238" changeset="false"><tag k="addr:street" v="Hickory Creek Drive"/><tag k="addr:housenumber" v="8102"/><tag k="addr:postcode" v="78735"/></node><node id="-194" lat="30.284598" lon="-97.882073" changeset="false"><tag k="addr:street" v="Misty Creek Drive"/><tag k="addr:housenumber" v="3404"/><tag k="addr:postcode" v="78735"/></node><node id="-195" lat="30.296678" lon="-97.856661" changeset="false"><tag k="addr:street" v="Scenic Ridge Cove"/><tag k="addr:housenumber" v="8206"/><tag k="addr:postcode" v="78735"/></node><node id="-196" lat="30.280804" lon="-97.876098" changeset="false"><tag k="addr:street" v="Smoketree Cove"/><tag k="addr:housenumber" v="8807"/><tag k="addr:postcode" v="78735"/></node><node id="-197" lat="30.296613" lon="-97.859571" changeset="false"><tag k="addr:street" v="Barton Creek Boulevard"/><tag k="addr:housenumber" v="1500"/><tag k="addr:postcode" v="78735"/></node><node id="-198" lat="30.295537" lon="-97.92285" changeset="false"><tag k="addr:street" v="Grazing Deer Trail"/><tag k="addr:housenumber" v="11404"/><tag k="addr:postcode" v="78735"/></node><node id="-199" lat="30.261503" lon="-97.869051" changeset="false"><tag k="addr:street" v="Mirador Drive"/><tag k="addr:housenumber" v="4701"/><tag k="addr:postcode" v="78735"/></node><node id="-200" lat="30.285079" lon="-97.874608" changeset="false"><tag k="addr:street" v="Barton Creek Boulevard"/><tag k="addr:housenumber" v="3105"/><tag k="addr:postcode" v="78735"/></node><node id="-201" lat="30.28118" lon="-97.871936" changeset="false"><tag k="addr:street" v="Boxelder Cove"/><tag k="addr:housenumber" v="8500"/><tag k="addr:postcode" v="78735"/></node><node id="-202" lat="30.260399" lon="-97.869727" changeset="false"><tag k="addr:street" v="Mirador Drive"/><tag k="addr:housenumber" v="4805"/><tag k="addr:postcode" v="78735"/></node><node id="-203" lat="30.257704" lon="-97.871521" changeset="false"><tag k="addr:street" v="Mirador Drive"/><tag k="addr:housenumber" v="5008"/><tag k="addr:postcode" v="78735"/></node><node id="-204" lat="30.277825" lon="-97.885821" changeset="false"><tag k="addr:street" v="Verano Drive"/><tag k="addr:housenumber" v="4208"/><tag k="addr:postcode" v="78735"/></node><node id="-205" lat="30.277943" lon="-97.880772" changeset="false"><tag k="addr:street" v="Calera Drive"/><tag k="addr:housenumber" v="8900"/><tag k="addr:postcode" v="78735"/></node><node id="-206" lat="30.275497" lon="-97.886149" changeset="false"><tag k="addr:street" v="Verano Drive"/><tag k="addr:housenumber" v="4332"/><tag k="addr:postcode" v="78735"/></node><node id="-207" lat="30.276468" lon="-97.884942" changeset="false"><tag k="addr:street" v="Verano Drive"/><tag k="addr:housenumber" v="4305"/><tag k="addr:postcode" v="78735"/></node><node id="-208" lat="30.276069" lon="-97.885111" changeset="false"><tag k="addr:street" v="Verano Drive"/><tag k="addr:housenumber" v="4317"/><tag k="addr:postcode" v="78735"/></node><node id="-209" lat="30.282301" lon="-97.884494" changeset="false"><tag k="addr:street" v="Verano Drive"/><tag k="addr:housenumber" v="3900"/><tag k="addr:postcode" v="78735"/></node><node id="-210" lat="30.278548" lon="-97.863499" changeset="false"><tag k="addr:street" v="Hickory Creek Drive"/><tag k="addr:housenumber" v="8105"/><tag k="addr:postcode" v="78735"/></node><node id="-211" lat="30.278022" lon="-97.874256" changeset="false"><tag k="addr:street" v="Calera Drive"/><tag k="addr:housenumber" v="8332"/><tag k="addr:postcode" v="78735"/></node><node id="-212" lat="30.276166" lon="-97.856324" changeset="false"><tag k="addr:street" v="Point O Woods"/><tag k="addr:housenumber" v="3105"/><tag k="addr:postcode" v="78735"/></node><node id="-213" lat="30.286123" lon="-97.881432" changeset="false"><tag k="addr:street" v="Misty Creek Drive"/><tag k="addr:housenumber" v="3401"/><tag k="addr:postcode" v="78735"/></node><node id="-214" lat="30.282457" lon="-97.867959" changeset="false"><tag k="addr:street" v="Clumpgrass Cove"/><tag k="addr:housenumber" v="3201"/><tag k="addr:postcode" v="78735"/></node><node id="-215" lat="30.281863" lon="-97.876283" changeset="false"><tag k="addr:street" v="Winding Creek Drive"/><tag k="addr:housenumber" v="3504"/><tag k="addr:postcode" v="78735"/></node><node id="-216" lat="30.274595" lon="-97.859897" changeset="false"><tag k="addr:street" v="Lost Creek Boulevard"/><tag k="addr:housenumber" v="3558"/><tag k="addr:postcode" v="78735"/></node><node id="-217" lat="30.294965" lon="-97.91837" changeset="false"><tag k="addr:street" v="Texas Wildlife Trail"/><tag k="addr:housenumber" v="4101"/><tag k="addr:postcode" v="78735"/></node><node id="-218" lat="30.279512" lon="-97.872994" changeset="false"><tag k="addr:street" v="Winding Creek Drive"/><tag k="addr:housenumber" v="3707"/><tag k="addr:postcode" v="78735"/></node><node id="-219" lat="30.270603" lon="-97.867642" changeset="false"><tag k="addr:street" v="Escala Drive"/><tag k="addr:housenumber" v="7841"/><tag k="addr:postcode" v="78735"/></node><node id="-220" lat="30.270412" lon="-97.861581" changeset="false"><tag k="addr:street" v="Escala Drive"/><tag k="addr:housenumber" v="7600"/><tag k="addr:postcode" v="78735"/></node><node id="-221" lat="30.269105" lon="-97.860548" changeset="false"><tag k="addr:street" v="Escala Drive"/><tag k="addr:housenumber" v="7609"/><tag k="addr:postcode" v="78735"/></node><node id="-222" lat="30.28931" lon="-97.869116" changeset="false"><tag k="addr:street" v="Barton Creek Boulevard"/><tag k="addr:housenumber" v="2600"/><tag k="addr:postcode" v="78735"/></node><node id="-223" lat="30.286297" lon="-97.869152" changeset="false"><tag k="addr:street" v="Navidad Drive"/><tag k="addr:housenumber" v="8609"/><tag k="addr:postcode" v="78735"/></node><node id="-224" lat="30.283022" lon="-97.885161" changeset="false"><tag k="addr:street" v="Verano Drive"/><tag k="addr:housenumber" v="3808"/><tag k="addr:postcode" v="78735"/></node><node id="-225" lat="30.274994" lon="-97.862606" changeset="false"><tag k="addr:street" v="Lost Creek Boulevard"/><tag k="addr:housenumber" v="3630"/><tag k="addr:postcode" v="78735"/></node><node id="-226" lat="30.278597" lon="-97.87651" changeset="false"><tag k="addr:street" v="Calera Drive"/><tag k="addr:housenumber" v="8501"/><tag k="addr:postcode" v="78735"/></node><node id="-227" lat="30.273711" lon="-97.885012" changeset="false"><tag k="addr:street" v="Barton Creek Boulevard"/><tag k="addr:housenumber" v="4601"/><tag k="addr:postcode" v="78735"/></node><node id="-228" lat="30.272877" lon="-97.883014" changeset="false"><tag k="addr:street" v="Henry Marx Lane"/><tag k="addr:housenumber" v="8404"/><tag k="addr:postcode" v="78735"/></node><node id="-229" lat="30.282694" lon="-97.879332" changeset="false"><tag k="addr:street" v="Mission Creek Drive"/><tag k="addr:housenumber" v="3701"/><tag k="addr:postcode" v="78735"/></node><node id="-230" lat="30.265245" lon="-97.865956" changeset="false"><tag k="addr:street" v="Mirador Drive"/><tag k="addr:housenumber" v="4411"/><tag k="addr:postcode" v="78735"/></node><node id="-231" lat="30.27294" lon="-97.88173" changeset="false"><tag k="addr:street" v="Acuarela Court"/><tag k="addr:housenumber" v="8721"/><tag k="addr:postcode" v="78735"/></node><node id="-232" lat="30.267868" lon="-97.88092" changeset="false"><tag k="addr:street" v="Parismina Lane"/><tag k="addr:housenumber" v="8500"/><tag k="addr:postcode" v="78735"/></node><node id="-233" lat="30.285301" lon="-97.887204" changeset="false"><tag k="addr:street" v="Veletta Pl"/><tag k="addr:housenumber" v="9512"/><tag k="addr:postcode" v="78735"/></node><node id="-234" lat="30.284472" lon="-97.888824" changeset="false"><tag k="addr:street" v="Verano Drive"/><tag k="addr:housenumber" v="3600"/><tag k="addr:postcode" v="78735"/></node><node id="-235" lat="30.267417" lon="-97.883794" changeset="false"><tag k="addr:street" v="Amarra Drive"/><tag k="addr:housenumber" v="4724"/><tag k="addr:postcode" v="78735"/></node><node id="-236" lat="30.265796" lon="-97.882868" changeset="false"><tag k="addr:street" v="Amarra Drive"/><tag k="addr:housenumber" v="4825"/><tag k="addr:postcode" v="78735"/></node><node id="-237" lat="30.273251" lon="-97.874837" changeset="false"><tag k="addr:street" v="Carranzo Drive"/><tag k="addr:housenumber" v="8301"/><tag k="addr:postcode" v="78735"/></node><node id="-238" lat="30.27341" lon="-97.875688" changeset="false"><tag k="addr:street" v="Carranzo Drive"/><tag k="addr:housenumber" v="8312"/><tag k="addr:postcode" v="78735"/></node><node id="-239" lat="30.272864" lon="-97.878279" changeset="false"><tag k="addr:street" v="Carranzo Drive"/><tag k="addr:housenumber" v="8500"/><tag k="addr:postcode" v="78735"/></node><node id="-240" lat="30.266647" lon="-97.866121" changeset="false"><tag k="addr:street" v="Mirador Drive"/><tag k="addr:housenumber" v="4321"/><tag k="addr:postcode" v="78735"/></node><node id="-241" lat="30.26324" lon="-97.867781" changeset="false"><tag k="addr:street" v="Mirador Drive"/><tag k="addr:housenumber" v="4509"/><tag k="addr:postcode" v="78735"/></node><node id="-242" lat="30.265063" lon="-97.869722" changeset="false"><tag k="addr:street" v="Cava Place"/><tag k="addr:housenumber" v="7905"/><tag k="addr:postcode" v="78735"/></node><node id="-243" lat="30.26362" lon="-97.870821" changeset="false"><tag k="addr:street" v="Cava Place"/><tag k="addr:housenumber" v="7808"/><tag k="addr:postcode" v="78735"/></node><node id="-244" lat="30.273579" lon="-97.875463" changeset="false"><tag k="addr:street" v="Carranzo Drive"/><tag k="addr:housenumber" v="8308"/><tag k="addr:postcode" v="78735"/></node><node id="-245" lat="30.284492" lon="-97.885852" changeset="false"><tag k="addr:street" v="Veletta Pl"/><tag k="addr:housenumber" v="9605"/><tag k="addr:postcode" v="78735"/></node><node id="-246" lat="30.285217" lon="-97.886145" changeset="false"><tag k="addr:street" v="Veletta Pl"/><tag k="addr:housenumber" v="9521"/><tag k="addr:postcode" v="78735"/></node><node id="-247" lat="30.269012" lon="-97.881215" changeset="false"><tag k="addr:street" v="Amarra Drive"/><tag k="addr:housenumber" v="4609"/><tag k="addr:postcode" v="78735"/></node><node id="-248" lat="30.276459" lon="-97.88565" changeset="false"><tag k="addr:street" v="Verano Drive"/><tag k="addr:housenumber" v="4312"/><tag k="addr:postcode" v="78735"/></node><node id="-249" lat="30.264791" lon="-97.882676" changeset="false"><tag k="addr:street" v="Amarra Drive"/><tag k="addr:housenumber" v="4900"/><tag k="addr:postcode" v="78735"/></node><node id="-250" lat="30.271382" lon="-97.879346" changeset="false"><tag k="addr:street" v="Amarra Drive"/><tag k="addr:housenumber" v="4401"/><tag k="addr:postcode" v="78735"/></node><node id="-251" lat="30.293567" lon="-97.919544" changeset="false"><tag k="addr:street" v="Texas Wildlife Trail"/><tag k="addr:housenumber" v="4303"/><tag k="addr:postcode" v="78735"/></node><node id="-252" lat="30.266314" lon="-97.884243" changeset="false"><tag k="addr:street" v="Amarra Drive"/><tag k="addr:housenumber" v="4808"/><tag k="addr:postcode" v="78735"/></node><node id="-253" lat="30.296896" lon="-97.919211" changeset="false"><tag k="addr:street" v="Texas Wildlife Trail"/><tag k="addr:housenumber" v="4010"/><tag k="addr:postcode" v="78735"/></node><node id="-254" lat="30.263428" lon="-97.87016" changeset="false"><tag k="addr:street" v="Cava Place"/><tag k="addr:housenumber" v="7806 1/2"/><tag k="addr:postcode" v="78735"/></node><node id="-255" lat="30.273655" lon="-97.857659" changeset="false"><tag k="addr:street" v="Lost Creek Boulevard"/><tag k="addr:housenumber" v="3531"/><tag k="addr:postcode" v="78735"/></node><node id="-256" lat="30.278902" lon="-97.88144" changeset="false"><tag k="addr:street" v="Calera Drive"/><tag k="addr:housenumber" v="9000"/><tag k="addr:postcode" v="78735"/></node><node id="-257" lat="30.273855" lon="-97.886427" changeset="false"><tag k="addr:street" v="Barton Creek Boulevard"/><tag k="addr:housenumber" v="4600"/><tag k="addr:postcode" v="78735"/></node><node id="-258" lat="30.279491" lon="-97.882481" changeset="false"><tag k="addr:street" v="Calera Drive"/><tag k="addr:housenumber" v="9101 1/2"/><tag k="addr:postcode" v="78735"/></node><node id="-259" lat="30.291905" lon="-97.862338" changeset="false"><tag k="addr:street" v="Barton Creek Boulevard"/><tag k="addr:housenumber" v="1906"/><tag k="addr:postcode" v="78735"/></node><node id="-260" lat="30.294349" lon="-97.92224" changeset="false"><tag k="addr:street" v="Grazing Deer Trail"/><tag k="addr:housenumber" v="11309"/><tag k="addr:postcode" v="78735"/></node><node id="-261" lat="30.278327" lon="-97.874823" changeset="false"><tag k="addr:street" v="Calera Drive"/><tag k="addr:housenumber" v="8400"/><tag k="addr:postcode" v="78735"/></node><node id="-262" lat="30.275384" lon="-97.855887" changeset="false"><tag k="addr:street" v="Loasa Cove"/><tag k="addr:housenumber" v="7500"/><tag k="addr:postcode" v="78735"/></node><node id="-263" lat="30.284028" lon="-97.859225" changeset="false"><tag k="addr:street" v="Chalk Knoll Drive"/><tag k="addr:housenumber" v="8022"/><tag k="addr:postcode" v="78735"/></node><node id="-264" lat="30.295628" lon="-97.867976" changeset="false"><tag k="addr:street" v="Chalk Rock Cove"/><tag k="addr:housenumber" v="1909"/><tag k="addr:postcode" v="78735"/></node><node id="-265" lat="30.28485" lon="-97.874557" changeset="false"><tag k="addr:street" v="Golden Rain Cove"/><tag k="addr:housenumber" v="8808"/><tag k="addr:postcode" v="78735"/></node><node id="-266" lat="30.284186" lon="-97.881544" changeset="false"><tag k="addr:street" v="Misty Creek Drive"/><tag k="addr:housenumber" v="3502"/><tag k="addr:postcode" v="78735"/></node><node id="-267" lat="30.283322" lon="-97.88036" changeset="false"><tag k="addr:street" v="Misty Creek Drive"/><tag k="addr:housenumber" v="3605"/><tag k="addr:postcode" v="78735"/></node><node id="-268" lat="30.278663" lon="-97.879508" changeset="false"><tag k="addr:street" v="Mission Creek Drive"/><tag k="addr:housenumber" v="3806"/><tag k="addr:postcode" v="78735"/></node><node id="-269" lat="30.281431" lon="-97.884484" changeset="false"><tag k="addr:street" v="Verano Drive"/><tag k="addr:housenumber" v="3912"/><tag k="addr:postcode" v="78735"/></node><node id="-270" lat="30.281755" lon="-97.885167" changeset="false"><tag k="addr:street" v="Verano Drive"/><tag k="addr:housenumber" v="3916"/><tag k="addr:postcode" v="78735"/></node><node id="-271" lat="30.275869" lon="-97.886171" changeset="false"><tag k="addr:street" v="Verano Drive"/><tag k="addr:housenumber" v="4328"/><tag k="addr:postcode" v="78735"/></node><node id="-272" lat="30.279082" lon="-97.878164" changeset="false"><tag k="addr:street" v="Calera Drive"/><tag k="addr:housenumber" v="8608"/><tag k="addr:postcode" v="78735"/></node><node id="-273" lat="30.277707" lon="-97.877816" changeset="false"><tag k="addr:street" v="Calera Drive"/><tag k="addr:housenumber" v="8533"/><tag k="addr:postcode" v="78735"/></node><node id="-274" lat="30.277648" lon="-97.875386" changeset="false"><tag k="addr:street" v="Calera Drive"/><tag k="addr:housenumber" v="8401"/><tag k="addr:postcode" v="78735"/></node><node id="-275" lat="30.28444" lon="-97.859199" changeset="false"><tag k="addr:street" v="Chalk Knoll Drive"/><tag k="addr:housenumber" v="8028"/><tag k="addr:postcode" v="78735"/></node><node id="-276" lat="30.284716" lon="-97.87805" changeset="false"><tag k="addr:street" v="Wintercreeper Cove"/><tag k="addr:housenumber" v="9000"/><tag k="addr:postcode" v="78735"/></node><node id="-277" lat="30.266056" lon="-97.888838" changeset="false"><tag k="addr:street" v="Barton Creek Boulevard"/><tag k="addr:housenumber" v="5104"/><tag k="addr:postcode" v="78735"/></node><node id="-278" lat="30.266043" lon="-97.88931" changeset="false"><tag k="addr:street" v="Barton Creek Boulevard"/><tag k="addr:housenumber" v="5112"/><tag k="addr:postcode" v="78735"/></node><node id="-279" lat="30.288686" lon="-97.873501" changeset="false"><tag k="addr:street" v="Barton Creek Boulevard"/><tag k="addr:housenumber" v="2800"/><tag k="addr:postcode" v="78735"/></node><node id="-280" lat="30.272974" lon="-97.856429" changeset="false"><tag k="addr:street" v="Lost Creek Boulevard"/><tag k="addr:housenumber" v="3495"/><tag k="addr:postcode" v="78735"/></node><node id="-281" lat="30.259235" lon="-97.871157" changeset="false"><tag k="addr:street" v="Mirador Drive"/><tag k="addr:housenumber" v="4908"/><tag k="addr:postcode" v="78735"/></node><node id="-282" lat="30.285662" lon="-97.864307" changeset="false"><tag k="addr:street" v="Chalk Knoll Cove"/><tag k="addr:housenumber" v="2607"/><tag k="addr:postcode" v="78735"/></node><node id="-283" lat="30.285822" lon="-97.874569" changeset="false"><tag k="addr:street" v="Mendocino Drive"/><tag k="addr:housenumber" v="8809"/><tag k="addr:postcode" v="78735"/></node><node id="-284" lat="30.292902" lon="-97.862722" changeset="false"><tag k="addr:street" v="Barton Creek Boulevard"/><tag k="addr:housenumber" v="1907"/><tag k="addr:postcode" v="78735"/></node><node id="-285" lat="30.288034" lon="-97.872373" changeset="false"><tag k="addr:street" v="Maravillas Loop"/><tag k="addr:housenumber" v="3008"/><tag k="addr:postcode" v="78735"/></node><node id="-286" lat="30.264369" lon="-97.867565" changeset="false"><tag k="addr:street" v="Mirador Drive"/><tag k="addr:housenumber" v="4500 1/2"/><tag k="addr:postcode" v="78735"/></node><node id="-287" lat="30.265601" lon="-97.86624" changeset="false"><tag k="addr:street" v="Mirador Drive"/><tag k="addr:housenumber" v="4409 1/2"/><tag k="addr:postcode" v="78735"/></node><node id="-288" lat="30.286553" lon="-97.860009" changeset="false"><tag k="addr:street" v="Chalk Knoll Drive"/><tag k="addr:housenumber" v="8100"/><tag k="addr:postcode" v="78735"/></node><node id="-289" lat="30.297664" lon="-97.856736" changeset="false"><tag k="addr:street" v="Barton Creek Boulevard"/><tag k="addr:housenumber" v="1300"/><tag k="addr:postcode" v="78735"/></node><node id="-290" lat="30.294178" lon="-97.856957" changeset="false"><tag k="addr:street" v="Mesa Ridge Lane"/><tag k="addr:housenumber" v="1507"/><tag k="addr:postcode" v="78735"/></node><node id="-291" lat="30.279694" lon="-97.870275" changeset="false"><tag k="addr:street" v="Lost Creek Boulevard"/><tag k="addr:housenumber" v="3700"/><tag k="addr:postcode" v="78735"/></node><node id="-292" lat="30.29384" lon="-97.857257" changeset="false"><tag k="addr:street" v="Mesa Ridge Lane"/><tag k="addr:housenumber" v="1511"/><tag k="addr:postcode" v="78735"/></node><node id="-293" lat="30.294682" lon="-97.859103" changeset="false"><tag k="addr:street" v="Club Ridge Drive"/><tag k="addr:housenumber" v="8311"/><tag k="addr:postcode" v="78735"/></node><node id="-294" lat="30.282504" lon="-97.880586" changeset="false"><tag k="addr:street" v="Misty Creek Drive"/><tag k="addr:housenumber" v="3705"/><tag k="addr:postcode" v="78735"/></node><node id="-295" lat="30.296328" lon="-97.87393" changeset="false"><tag k="addr:street" v="Warbler Way"/><tag k="addr:housenumber" v="2205"/><tag k="addr:postcode" v="78735"/></node><node id="-296" lat="30.289544" lon="-97.86751" changeset="false"><tag k="addr:street" v="Barton Creek Boulevard"/><tag k="addr:housenumber" v="2510"/><tag k="addr:postcode" v="78735"/></node><node id="-297" lat="30.293799" lon="-97.857534" changeset="false"><tag k="addr:street" v="Mesa Ridge Lane"/><tag k="addr:housenumber" v="1510"/><tag k="addr:postcode" v="78735"/></node><node id="-298" lat="30.271316" lon="-97.882319" changeset="false"><tag k="addr:street" v="Acuarela Court"/><tag k="addr:housenumber" v="8701"/><tag k="addr:postcode" v="78735"/></node><node id="-299" lat="30.273787" lon="-97.875131" changeset="false"><tag k="addr:street" v="Carranzo Drive"/><tag k="addr:housenumber" v="8300"/><tag k="addr:postcode" v="78735"/></node><node id="-300" lat="30.26586" lon="-97.866961" changeset="false"><tag k="addr:street" v="Mirador Drive"/><tag k="addr:housenumber" v="4404"/><tag k="addr:postcode" v="78735"/></node><node id="-301" lat="30.284856" lon="-97.885959" changeset="false"><tag k="addr:street" v="Veletta Pl"/><tag k="addr:housenumber" v="9601"/><tag k="addr:postcode" v="78735"/></node><node id="-302" lat="30.285772" lon="-97.886696" changeset="false"><tag k="addr:street" v="Veletta Pl"/><tag k="addr:housenumber" v="9513"/><tag k="addr:postcode" v="78735"/></node><node id="-303" lat="30.264655" lon="-97.868307" changeset="false"><tag k="addr:street" v="Mirador Drive"/><tag k="addr:housenumber" v="4500"/><tag k="addr:postcode" v="78735"/></node><node id="-304" lat="30.267832" lon="-97.88348" changeset="false"><tag k="addr:street" v="Amarra Drive"/><tag k="addr:housenumber" v="4716"/><tag k="addr:postcode" v="78735"/></node><node id="-305" lat="30.273991" lon="-97.87471" changeset="false"><tag k="addr:street" v="Carranzo Drive"/><tag k="addr:housenumber" v="8220"/><tag k="addr:postcode" v="78735"/></node><node id="-306" lat="30.27336" lon="-97.874651" changeset="false"><tag k="addr:street" v="Carranzo Drive"/><tag k="addr:housenumber" v="8225"/><tag k="addr:postcode" v="78735"/></node><node id="-307" lat="30.276485" lon="-97.879884" changeset="false"><tag k="addr:street" v="Calera Drive"/><tag k="addr:housenumber" v="8801"/><tag k="addr:postcode" v="78735"/></node><node id="-308" lat="30.296534" lon="-97.874628" changeset="false"><tag k="addr:street" v="Warbler Way"/><tag k="addr:housenumber" v="2200"/><tag k="addr:postcode" v="78735"/></node><node id="-309" lat="30.270425" lon="-97.879202" changeset="false"><tag k="addr:street" v="Olla Cero Lane"/><tag k="addr:housenumber" v="8508"/><tag k="addr:postcode" v="78735"/></node><node id="-310" lat="30.270592" lon="-97.880565" changeset="false"><tag k="addr:street" v="Amarra Drive"/><tag k="addr:housenumber" v="4500"/><tag k="addr:postcode" v="78735"/></node><node id="-311" lat="30.273514" lon="-97.874242" changeset="false"><tag k="addr:street" v="Carranzo Drive"/><tag k="addr:housenumber" v="8217"/><tag k="addr:postcode" v="78735"/></node><node id="-312" lat="30.284583" lon="-97.888209" changeset="false"><tag k="addr:street" v="Verano Drive"/><tag k="addr:housenumber" v="3605"/><tag k="addr:postcode" v="78735"/></node><node id="-313" lat="30.271344" lon="-97.881218" changeset="false"><tag k="addr:street" v="Acuarela Court"/><tag k="addr:housenumber" v="8624"/><tag k="addr:postcode" v="78735"/></node><node id="-314" lat="30.271316" lon="-97.880081" changeset="false"><tag k="addr:street" v="Amarra Drive"/><tag k="addr:housenumber" v="4408"/><tag k="addr:postcode" v="78735"/></node><node id="-315" lat="30.268178" lon="-97.881472" changeset="false"><tag k="addr:street" v="Parismina Lane"/><tag k="addr:housenumber" v="8524"/><tag k="addr:postcode" v="78735"/></node><node id="-316" lat="30.270091" lon="-97.880158" changeset="false"><tag k="addr:street" v="Amarra Drive"/><tag k="addr:housenumber" v="4501"/><tag k="addr:postcode" v="78735"/></node><node id="-317" lat="30.29704" lon="-97.917015" changeset="false"><tag k="addr:street" v="Solitary Fawn Trail"/><tag k="addr:housenumber" v="11200"/><tag k="addr:postcode" v="78735"/></node><node id="-318" lat="30.287308" lon="-97.8693" changeset="false"><tag k="addr:street" v="Navidad Drive"/><tag k="addr:housenumber" v="8621"/><tag k="addr:postcode" v="78735"/></node><node id="-319" lat="30.29648" lon="-97.85993" changeset="false"><tag k="addr:street" v="Barton Creek Boulevard"/><tag k="addr:housenumber" v="1504"/><tag k="addr:postcode" v="78735"/></node><node id="-320" lat="30.295314" lon="-97.920518" changeset="false"><tag k="addr:street" v="Native Texan Trail"/><tag k="addr:housenumber" v="11217"/><tag k="addr:postcode" v="78735"/></node><node id="-321" lat="30.272494" lon="-97.85646" changeset="false"><tag k="addr:street" v="Lost Creek Boulevard"/><tag k="addr:housenumber" v="3509"/><tag k="addr:postcode" v="78735"/></node><node id="-322" lat="30.294524" lon="-97.877794" changeset="false"><tag k="addr:street" v="Travertine Cove"/><tag k="addr:housenumber" v="9317 1/2"/><tag k="addr:postcode" v="78735"/></node><node id="-323" lat="30.286633" lon="-97.859453" changeset="false"><tag k="addr:street" v="Portofino Ridge Drive"/><tag k="addr:housenumber" v="2400"/><tag k="addr:postcode" v="78735"/></node><node id="-324" lat="30.286381" lon="-97.862246" changeset="false"><tag k="addr:street" v="Chalk Knoll Drive"/><tag k="addr:housenumber" v="8214"/><tag k="addr:postcode" v="78735"/></node><node id="-325" lat="30.282747" lon="-97.88472" changeset="false"><tag k="addr:street" v="Verano Drive"/><tag k="addr:housenumber" v="3816"/><tag k="addr:postcode" v="78735"/></node><node id="-326" lat="30.290242" lon="-97.85535" changeset="false"><tag k="addr:street" v="Barton Club Drive"/><tag k="addr:housenumber" v="7906"/><tag k="addr:postcode" v="78735"/></node><node id="-327" lat="30.290275" lon="-97.864328" changeset="false"><tag k="addr:street" v="Barton Creek Boulevard"/><tag k="addr:housenumber" v="2300"/><tag k="addr:postcode" v="78735"/></node><node id="-328" lat="30.280585" lon="-97.884318" changeset="false"><tag k="addr:street" v="Verano Drive"/><tag k="addr:housenumber" v="4001"/><tag k="addr:postcode" v="78735"/></node><node id="-329" lat="30.28018" lon="-97.885434" changeset="false"><tag k="addr:street" v="Verano Drive"/><tag k="addr:housenumber" v="4016"/><tag k="addr:postcode" v="78735"/></node><node id="-330" lat="30.269846" lon="-97.879664" changeset="false"><tag k="addr:street" v="Olla Cero Lane"/><tag k="addr:housenumber" v="8513"/><tag k="addr:postcode" v="78735"/></node><node id="-331" lat="30.258776" lon="-97.871152" changeset="false"><tag k="addr:street" v="Mirador Drive"/><tag k="addr:housenumber" v="4916"/><tag k="addr:postcode" v="78735"/></node><node id="-332" lat="30.283816" lon="-97.878885" changeset="false"><tag k="addr:street" v="Wintercreeper Cove"/><tag k="addr:housenumber" v="9011"/><tag k="addr:postcode" v="78735"/></node><node id="-333" lat="30.273798" lon="-97.873307" changeset="false"><tag k="addr:street" v="Carranzo Drive"/><tag k="addr:housenumber" v="8201"/><tag k="addr:postcode" v="78735"/></node><node id="-334" lat="30.273554" lon="-97.874043" changeset="false"><tag k="addr:street" v="Carranzo Drive"/><tag k="addr:housenumber" v="8213"/><tag k="addr:postcode" v="78735"/></node><node id="-335" lat="30.269855" lon="-97.881454" changeset="false"><tag k="addr:street" v="Acuarela Court"/><tag k="addr:housenumber" v="8601"/><tag k="addr:postcode" v="78735"/></node><node id="-336" lat="30.276161" lon="-97.885853" changeset="false"><tag k="addr:street" v="Verano Drive"/><tag k="addr:housenumber" v="4324"/><tag k="addr:postcode" v="78735"/></node><node id="-337" lat="30.276994" lon="-97.884776" changeset="false"><tag k="addr:street" v="Verano Drive"/><tag k="addr:housenumber" v="4229"/><tag k="addr:postcode" v="78735"/></node><node id="-338" lat="30.277242" lon="-97.885498" changeset="false"><tag k="addr:street" v="Verano Drive"/><tag k="addr:housenumber" v="4220"/><tag k="addr:postcode" v="78735"/></node><node id="-339" lat="30.272347" lon="-97.875942" changeset="false"><tag k="addr:street" v="Carranzo Drive"/><tag k="addr:housenumber" v="8405"/><tag k="addr:postcode" v="78735"/></node><node id="-340" lat="30.267356" lon="-97.881213" changeset="false"><tag k="addr:street" v="Parismina Lane"/><tag k="addr:housenumber" v="8501"/><tag k="addr:postcode" v="78735"/></node><node id="-341" lat="30.292441" lon="-97.86728" changeset="false"><tag k="addr:street" v="Chalk Knoll Drive"/><tag k="addr:housenumber" v="8701"/><tag k="addr:postcode" v="78735"/></node><node id="-342" lat="30.284178" lon="-97.888056" changeset="false"><tag k="addr:street" v="Verano Drive"/><tag k="addr:housenumber" v="3609"/><tag k="addr:postcode" v="78735"/></node><node id="-343" lat="30.264343" lon="-97.869717" changeset="false"><tag k="addr:street" v="Cava Place"/><tag k="addr:housenumber" v="7901"/><tag k="addr:postcode" v="78735"/></node><node id="-344" lat="30.277173" lon="-97.885484" changeset="false"><tag k="addr:street" v="Verano Drive"/><tag k="addr:housenumber" v="4224"/><tag k="addr:postcode" v="78735"/></node><node id="-345" lat="30.268455" lon="-97.882717" changeset="false"><tag k="addr:street" v="Amarra Drive"/><tag k="addr:housenumber" v="4700"/><tag k="addr:postcode" v="78735"/></node><node id="-346" lat="30.26751" lon="-97.882288" changeset="false"><tag k="addr:street" v="Amarra Drive"/><tag k="addr:housenumber" v="4709"/><tag k="addr:postcode" v="78735"/></node><node id="-347" lat="30.266952" lon="-97.879862" changeset="false"><tag k="addr:street" v="Parismina Lane"/><tag k="addr:housenumber" v="8408"/><tag k="addr:postcode" v="78735"/></node><node id="-348" lat="30.267398" lon="-97.880019" changeset="false"><tag k="addr:street" v="Parismina Lane"/><tag k="addr:housenumber" v="8416"/><tag k="addr:postcode" v="78735"/></node><node id="-349" lat="30.273159" lon="-97.875028" changeset="false"><tag k="addr:street" v="Carranzo Drive"/><tag k="addr:housenumber" v="8309"/><tag k="addr:postcode" v="78735"/></node><node id="-350" lat="30.270232" lon="-97.881799" changeset="false"><tag k="addr:street" v="Acuarela Court"/><tag k="addr:housenumber" v="8613"/><tag k="addr:postcode" v="78735"/></node><node id="-351" lat="30.270795" lon="-97.881853" changeset="false"><tag k="addr:street" v="Acuarela Court"/><tag k="addr:housenumber" v="8621"/><tag k="addr:postcode" v="78735"/></node><node id="-352" lat="30.273279" lon="-97.875854" changeset="false"><tag k="addr:street" v="Carranzo Drive"/><tag k="addr:housenumber" v="8316"/><tag k="addr:postcode" v="78735"/></node><node id="-353" lat="30.269618" lon="-97.879309" changeset="false"><tag k="addr:street" v="Olla Cero Lane"/><tag k="addr:housenumber" v="8505"/><tag k="addr:postcode" v="78735"/></node><node id="-354" lat="30.266496" lon="-97.88085" changeset="false"><tag k="addr:street" v="Parismina Lane"/><tag k="addr:housenumber" v="8417"/><tag k="addr:postcode" v="78735"/></node><node id="-355" lat="30.284946" lon="-97.886859" changeset="false"><tag k="addr:street" v="Veletta Pl"/><tag k="addr:housenumber" v="9516"/><tag k="addr:postcode" v="78735"/></node><node id="-356" lat="30.284631" lon="-97.888551" changeset="false"><tag k="addr:street" v="Verano Drive"/><tag k="addr:housenumber" v="3601"/><tag k="addr:postcode" v="78735"/></node><node id="-357" lat="30.272571" lon="-97.881367" changeset="false"><tag k="addr:street" v="Acuarela Court"/><tag k="addr:housenumber" v="8720"/><tag k="addr:postcode" v="78735"/></node><node id="-358" lat="30.265337" lon="-97.882075" changeset="false"><tag k="addr:street" v="Amarra Drive"/><tag k="addr:housenumber" v="4901"/><tag k="addr:postcode" v="78735"/></node><node id="-359" lat="30.283733" lon="-97.886605" changeset="false"><tag k="addr:street" v="Verano Drive"/><tag k="addr:housenumber" v="3709"/><tag k="addr:postcode" v="78735"/></node><node id="-360" lat="30.27086" lon="-97.881019" changeset="false"><tag k="addr:street" v="Acuarela Court"/><tag k="addr:housenumber" v="8616"/><tag k="addr:postcode" v="78735"/></node><node id="-361" lat="30.272718" lon="-97.875562" changeset="false"><tag k="addr:street" v="Carranzo Drive"/><tag k="addr:housenumber" v="8321"/><tag k="addr:postcode" v="78735"/></node><node id="-362" lat="30.272979" lon="-97.87615" changeset="false"><tag k="addr:street" v="Carranzo Drive"/><tag k="addr:housenumber" v="8324"/><tag k="addr:postcode" v="78735"/></node><node id="-363" lat="30.283934" lon="-97.885818" changeset="false"><tag k="addr:street" v="Verano Drive"/><tag k="addr:housenumber" v="3801"/><tag k="addr:postcode" v="78735"/></node><node id="-364" lat="30.284592" lon="-97.886678" changeset="false"><tag k="addr:street" v="Veletta Pl"/><tag k="addr:housenumber" v="9600"/><tag k="addr:postcode" v="78735"/></node><node id="-365" lat="30.284229" lon="-97.886603" changeset="false"><tag k="addr:street" v="Veletta Pl"/><tag k="addr:housenumber" v="9604"/><tag k="addr:postcode" v="78735"/></node><node id="-366" lat="30.286227" lon="-97.887038" changeset="false"><tag k="addr:street" v="Veletta Pl"/><tag k="addr:housenumber" v="9501"/><tag k="addr:postcode" v="78735"/></node><node id="-367" lat="30.271253" lon="-97.863973" changeset="false"><tag k="addr:street" v="Dadiva Court"/><tag k="addr:housenumber" v="7809"/><tag k="addr:postcode" v="78735"/></node><node id="-368" lat="30.267828" lon="-97.862394" changeset="false"><tag k="addr:street" v="Escala Drive"/><tag k="addr:housenumber" v="7715"/><tag k="addr:postcode" v="78735"/></node><node id="-369" lat="30.267255" lon="-97.882572" changeset="false"><tag k="addr:street" v="Amarra Drive"/><tag k="addr:housenumber" v="4717"/><tag k="addr:postcode" v="78735"/></node><node id="-370" lat="30.265342" lon="-97.883459" changeset="false"><tag k="addr:street" v="Amarra Drive"/><tag k="addr:housenumber" v="4824"/><tag k="addr:postcode" v="78735"/></node><node id="-371" lat="30.26768" lon="-97.880366" changeset="false"><tag k="addr:street" v="Parismina Lane"/><tag k="addr:housenumber" v="8424"/><tag k="addr:postcode" v="78735"/></node><node id="-372" lat="30.270028" lon="-97.885546" changeset="false"><tag k="addr:street" v="Henry Marx Lane"/><tag k="addr:housenumber" v="8507"/><tag k="addr:postcode" v="78735"/></node><node id="-373" lat="30.292094" lon="-97.866519" changeset="false"><tag k="addr:street" v="Barton Creek Boulevard"/><tag k="addr:housenumber" v="2316"/><tag k="addr:postcode" v="78735"/></node><node id="-374" lat="30.271836" lon="-97.88243" changeset="false"><tag k="addr:street" v="Acuarela Court"/><tag k="addr:housenumber" v="8709"/><tag k="addr:postcode" v="78735"/></node><node id="-375" lat="30.288" lon="-97.869383" changeset="false"><tag k="addr:street" v="Navidad Drive"/><tag k="addr:housenumber" v="8629"/><tag k="addr:postcode" v="78735"/></node><node id="-376" lat="30.278617" lon="-97.882426" changeset="false"><tag k="addr:street" v="Calera Drive"/><tag k="addr:housenumber" v="9009"/><tag k="addr:postcode" v="78735"/></node><node id="-377" lat="30.26772" lon="-97.881876" changeset="false"><tag k="addr:street" v="Amarra Drive"/><tag k="addr:housenumber" v="4701"/><tag k="addr:postcode" v="78735"/></node><node id="-378" lat="30.272554" lon="-97.883416" changeset="false"><tag k="addr:street" v="Henry Marx Lane"/><tag k="addr:housenumber" v="8412"/><tag k="addr:postcode" v="78735"/></node><node id="-379" lat="30.259833" lon="-97.870029" changeset="false"><tag k="addr:street" v="Mirador Drive"/><tag k="addr:housenumber" v="4901"/><tag k="addr:postcode" v="78735"/></node><node id="-380" lat="30.269688" lon="-97.880414" changeset="false"><tag k="addr:street" v="Amarra Drive"/><tag k="addr:housenumber" v="4517"/><tag k="addr:postcode" v="78735"/></node><node id="-381" lat="30.29631" lon="-97.874922" changeset="false"><tag k="addr:street" v="Warbler Way"/><tag k="addr:housenumber" v="2206"/><tag k="addr:postcode" v="78735"/></node><node id="-382" lat="30.274261" lon="-97.873575" changeset="false"><tag k="addr:street" v="Carranzo Drive"/><tag k="addr:housenumber" v="8200"/><tag k="addr:postcode" v="78735"/></node><node id="-383" lat="30.273204" lon="-97.878189" changeset="false"><tag k="addr:street" v="Carranzo Drive"/><tag k="addr:housenumber" v="8520"/><tag k="addr:postcode" v="78735"/></node><node id="-384" lat="30.261831" lon="-97.868511" changeset="false"><tag k="addr:street" v="Mirador Drive"/><tag k="addr:housenumber" v="4617"/><tag k="addr:postcode" v="78735"/></node><node id="-385" lat="30.271912" lon="-97.866067" changeset="false"><tag k="addr:street" v="Escala Drive"/><tag k="addr:housenumber" v="7900"/><tag k="addr:postcode" v="78735"/></node><node id="-386" lat="30.260977" lon="-97.8694" changeset="false"><tag k="addr:street" v="Mirador Drive"/><tag k="addr:housenumber" v="4713"/><tag k="addr:postcode" v="78735"/></node><node id="-387" lat="30.286938" lon="-97.880622" changeset="false"><tag k="addr:street" v="Winding Creek Drive"/><tag k="addr:housenumber" v="3200"/><tag k="addr:postcode" v="78735"/></node><node id="-388" lat="30.272801" lon="-97.876286" changeset="false"><tag k="addr:street" v="Carranzo Drive"/><tag k="addr:housenumber" v="8400"/><tag k="addr:postcode" v="78735"/></node><node id="-389" lat="30.27262" lon="-97.87642" changeset="false"><tag k="addr:street" v="Carranzo Drive"/><tag k="addr:housenumber" v="8404"/><tag k="addr:postcode" v="78735"/></node><node id="-390" lat="30.273689" lon="-97.875272" changeset="false"><tag k="addr:street" v="Carranzo Drive"/><tag k="addr:housenumber" v="8304"/><tag k="addr:postcode" v="78735"/></node><node id="-391" lat="30.264621" lon="-97.881544" changeset="false"><tag k="addr:street" v="Amarra Drive"/><tag k="addr:housenumber" v="4921"/><tag k="addr:postcode" v="78735"/></node><node id="-392" lat="30.2738" lon="-97.882608" changeset="false"><tag k="addr:street" v="Carranzo Drive"/><tag k="addr:housenumber" v="8724 1/2"/><tag k="addr:postcode" v="78735"/></node><node id="-393" lat="30.285496" lon="-97.886413" changeset="false"><tag k="addr:street" v="Veletta Pl"/><tag k="addr:housenumber" v="9517"/><tag k="addr:postcode" v="78735"/></node><node id="-394" lat="30.283887" lon="-97.887725" changeset="false"><tag k="addr:street" v="Verano Drive"/><tag k="addr:housenumber" v="3617"/><tag k="addr:postcode" v="78735"/></node><node id="-395" lat="30.283381" lon="-97.88806" changeset="false"><tag k="addr:street" v="Verano Drive"/><tag k="addr:housenumber" v="3616"/><tag k="addr:postcode" v="78735"/></node><node id="-396" lat="30.296992" lon="-97.855827" changeset="false"><tag k="addr:street" v="Barton Creek Boulevard"/><tag k="addr:housenumber" v="1213"/><tag k="addr:postcode" v="78735"/></node><node id="-397" lat="30.278021" lon="-97.882199" changeset="false"><tag k="addr:street" v="Calera Drive"/><tag k="addr:housenumber" v="8917"/><tag k="addr:postcode" v="78735"/></node><node id="-398" lat="30.278046" lon="-97.88515" changeset="false"><tag k="addr:street" v="Verano Drive"/><tag k="addr:housenumber" v="4209"/><tag k="addr:postcode" v="78735"/></node><node id="-399" lat="30.295015" lon="-97.922969" changeset="false"><tag k="addr:street" v="Grazing Deer Trail"/><tag k="addr:housenumber" v="11401"/><tag k="addr:postcode" v="78735"/></node><node id="-400" lat="30.294015" lon="-97.92084" changeset="false"><tag k="addr:street" v="Grazing Deer Trail"/><tag k="addr:housenumber" v="11210"/><tag k="addr:postcode" v="78735"/></node><node id="-401" lat="30.286354" lon="-97.85467" changeset="false"><tag k="addr:street" v="Portofino Ridge Drive"/><tag k="addr:housenumber" v="2100"/><tag k="addr:postcode" v="78735"/></node><node id="-402" lat="30.286221" lon="-97.8748" changeset="false"><tag k="addr:street" v="Barton Creek Boulevard"/><tag k="addr:housenumber" v="3101"/><tag k="addr:postcode" v="78735"/></node><node id="-403" lat="30.291968" lon="-97.852151" changeset="false"><tag k="addr:street" v="Barton Club Drive"/><tag k="addr:housenumber" v="7904"/><tag k="addr:postcode" v="78735"/></node><node id="-404" lat="30.285964" lon="-97.877259" changeset="false"><tag k="addr:street" v="Winding Creek Cove"/><tag k="addr:housenumber" v="3202"/><tag k="addr:postcode" v="78735"/></node><node id="-405" lat="30.294039" lon="-97.875404" changeset="false"><tag k="addr:street" v="Wimberly Lane"/><tag k="addr:housenumber" v="2024 1/2"/><tag k="addr:postcode" v="78735"/></node><node id="-406" lat="30.261882" lon="-97.885744" changeset="false"><tag k="addr:street" v="Southwest Parkway"/><tag k="addr:housenumber" v="8700"/><tag k="addr:postcode" v="78735"/></node><node id="-407" lat="30.273893" lon="-97.865416" changeset="false"><tag k="addr:street" v="Escala Drive"/><tag k="addr:housenumber" v="7927"/><tag k="addr:postcode" v="78735"/></node><node id="-408" lat="30.297795" lon="-97.867503" changeset="false"><tag k="addr:street" v="Chalk Knoll Drive"/><tag k="addr:housenumber" v="8909"/><tag k="addr:postcode" v="78735"/></node><node id="-409" lat="30.283645" lon="-97.871955" changeset="false"><tag k="addr:street" v="Sweet Autumn Cove"/><tag k="addr:housenumber" v="3105"/><tag k="addr:postcode" v="78735"/></node><node id="-410" lat="30.2949" lon="-97.866729" changeset="false"><tag k="addr:street" v="Chalk Knoll Drive"/><tag k="addr:housenumber" v="8818"/><tag k="addr:postcode" v="78735"/></node><node id="-411" lat="30.28115" lon="-97.861934" changeset="false"><tag k="addr:street" v="Ravello Ridge Drive"/><tag k="addr:housenumber" v="2907 1/2"/><tag k="addr:postcode" v="78735"/></node><node id="-412" lat="30.273799" lon="-97.862361" changeset="false"><tag k="addr:street" v="Lost Creek Boulevard"/><tag k="addr:housenumber" v="3598"/><tag k="addr:postcode" v="78735"/></node><node id="-413" lat="30.281865" lon="-97.878807" changeset="false"><tag k="addr:street" v="Barton Creek Boulevard"/><tag k="addr:housenumber" v="3700"/><tag k="addr:postcode" v="78735"/></node><node id="-414" lat="30.277419" lon="-97.857263" changeset="false"><tag k="addr:street" v="Point O Woods"/><tag k="addr:housenumber" v="3108"/><tag k="addr:postcode" v="78735"/></node><node id="-415" lat="30.278345" lon="-97.873747" changeset="false"><tag k="addr:street" v="Calera Drive"/><tag k="addr:housenumber" v="8324"/><tag k="addr:postcode" v="78735"/></node><node id="-416" lat="30.279115" lon="-97.87322" changeset="false"><tag k="addr:street" v="Winding Creek Drive"/><tag k="addr:housenumber" v="3708"/><tag k="addr:postcode" v="78735"/></node><node id="-417" lat="30.281679" lon="-97.88357" changeset="false"><tag k="addr:street" v="Verano Drive"/><tag k="addr:housenumber" v="3909"/><tag k="addr:postcode" v="78735"/></node><node id="-418" lat="30.283684" lon="-97.884833" changeset="false"><tag k="addr:street" v="Verano Drive"/><tag k="addr:housenumber" v="3809"/><tag k="addr:postcode" v="78735"/></node><node id="-419" lat="30.282675" lon="-97.869717" changeset="false"><tag k="addr:street" v="Fleece Flower Cove"/><tag k="addr:housenumber" v="3203"/><tag k="addr:postcode" v="78735"/></node><node id="-420" lat="30.273471" lon="-97.86591" changeset="false"><tag k="addr:street" v="Escala Drive"/><tag k="addr:housenumber" v="7921"/><tag k="addr:postcode" v="78735"/></node><node id="-421" lat="30.274666" lon="-97.863596" changeset="false"><tag k="addr:street" v="Lost Creek Boulevard"/><tag k="addr:housenumber" v="3629"/><tag k="addr:postcode" v="78735"/></node><node id="-422" lat="30.274434" lon="-97.855657" changeset="false"><tag k="addr:street" v="Loasa Cove"/><tag k="addr:housenumber" v="7503"/><tag k="addr:postcode" v="78735"/></node><node id="-423" lat="30.281932" lon="-97.886049" changeset="false"><tag k="addr:street" v="Verano Drive"/><tag k="addr:housenumber" v="3924"/><tag k="addr:postcode" v="78735"/></node><node id="-424" lat="30.277448" lon="-97.885535" changeset="false"><tag k="addr:street" v="Verano Drive"/><tag k="addr:housenumber" v="4216"/><tag k="addr:postcode" v="78735"/></node><node id="-425" lat="30.284398" lon="-97.865516" changeset="false"><tag k="addr:street" v="Navidad Drive"/><tag k="addr:housenumber" v="8308"/><tag k="addr:postcode" v="78735"/></node><node id="-426" lat="30.295639" lon="-97.873821" changeset="false"><tag k="addr:street" v="Warbler Way"/><tag k="addr:housenumber" v="2217"/><tag k="addr:postcode" v="78735"/></node><node id="-427" lat="30.273958" lon="-97.856217" changeset="false"><tag k="addr:street" v="Lost Creek Boulevard"/><tag k="addr:housenumber" v="3520"/><tag k="addr:postcode" v="78735"/></node><node id="-428" lat="30.294435" lon="-97.86687" changeset="false"><tag k="addr:street" v="Chalk Knoll Drive"/><tag k="addr:housenumber" v="8744"/><tag k="addr:postcode" v="78735"/></node><node id="-429" lat="30.278185" lon="-97.885991" changeset="false"><tag k="addr:street" v="Verano Drive"/><tag k="addr:housenumber" v="4200"/><tag k="addr:postcode" v="78735"/></node><node id="-430" lat="30.289639" lon="-97.872317" changeset="false"><tag k="addr:street" v="Barton Creek Boulevard"/><tag k="addr:housenumber" v="2716"/><tag k="addr:postcode" v="78735"/></node><node id="-431" lat="30.27358" lon="-97.85481" changeset="false"><tag k="addr:street" v="Lost Creek Boulevard"/><tag k="addr:housenumber" v="3502"/><tag k="addr:postcode" v="78735"/></node><node id="-432" lat="30.273028" lon="-97.882997" changeset="false"><tag k="addr:street" v="Henry Marx Lane"/><tag k="addr:housenumber" v="8400"/><tag k="addr:postcode" v="78735"/></node><node id="-433" lat="30.262114" lon="-97.886375" changeset="false"><tag k="addr:street" v="Southwest Parkway"/><tag k="addr:housenumber" v="8718"/><tag k="addr:postcode" v="78735"/></node><node id="-434" lat="30.28307" lon="-97.886759" changeset="false"><tag k="addr:street" v="Verano Drive"/><tag k="addr:housenumber" v="3708"/><tag k="addr:postcode" v="78735"/></node><node id="-435" lat="30.279211" lon="-97.873937" changeset="false"><tag k="addr:street" v="Winding Creek Drive"/><tag k="addr:housenumber" v="3704"/><tag k="addr:postcode" v="78735"/></node><node id="-436" lat="30.277748" lon="-97.862343" changeset="false"><tag k="addr:street" v="Caribou Trail"/><tag k="addr:housenumber" v="3302"/><tag k="addr:postcode" v="78735"/></node><node id="-437" lat="30.283148" lon="-97.887691" changeset="false"><tag k="addr:street" v="Verano Drive"/><tag k="addr:housenumber" v="3700"/><tag k="addr:postcode" v="78735"/></node><node id="-438" lat="30.282366" lon="-97.87538" changeset="false"><tag k="addr:street" v="Smoketree Cove"/><tag k="addr:housenumber" v="8702"/><tag k="addr:postcode" v="78735"/></node><node id="-439" lat="30.28585" lon="-97.861055" changeset="false"><tag k="addr:street" v="Chalk Knoll Drive"/><tag k="addr:housenumber" v="8122"/><tag k="addr:postcode" v="78735"/></node><node id="-440" lat="30.283849" lon="-97.885325" changeset="false"><tag k="addr:street" v="Verano Drive"/><tag k="addr:housenumber" v="3805"/><tag k="addr:postcode" v="78735"/></node><node id="-441" lat="30.282059" lon="-97.883571" changeset="false"><tag k="addr:street" v="Verano Drive"/><tag k="addr:housenumber" v="3905"/><tag k="addr:postcode" v="78735"/></node><node id="-442" lat="30.28192" lon="-97.884424" changeset="false"><tag k="addr:street" v="Verano Drive"/><tag k="addr:housenumber" v="3908"/><tag k="addr:postcode" v="78735"/></node><node id="-443" lat="30.277354" lon="-97.879329" changeset="false"><tag k="addr:street" v="Calera Drive"/><tag k="addr:housenumber" v="8734"/><tag k="addr:postcode" v="78735"/></node><node id="-444" lat="30.27629" lon="-97.855643" changeset="false"><tag k="addr:street" v="Point O Woods"/><tag k="addr:housenumber" v="3103"/><tag k="addr:postcode" v="78735"/></node><node id="-445" lat="30.289098" lon="-97.856054" changeset="false"><tag k="addr:street" v="Barton Club Drive"/><tag k="addr:housenumber" v="7911"/><tag k="addr:postcode" v="78735"/></node><node id="-446" lat="30.286639" lon="-97.866156" changeset="false"><tag k="addr:street" v="Chalk Knoll Drive"/><tag k="addr:housenumber" v="8403"/><tag k="addr:postcode" v="78735"/></node><node id="-447" lat="30.282295" lon="-97.876718" changeset="false"><tag k="addr:street" v="Winding Creek Drive"/><tag k="addr:housenumber" v="3500"/><tag k="addr:postcode" v="78735"/></node><node id="-448" lat="30.281172" lon="-97.879088" changeset="false"><tag k="addr:street" v="Barton Creek Boulevard"/><tag k="addr:housenumber" v="3705"/><tag k="addr:postcode" v="78735"/></node><node id="-449" lat="30.280555" lon="-97.878743" changeset="false"><tag k="addr:street" v="Mission Creek Drive"/><tag k="addr:housenumber" v="3715"/><tag k="addr:postcode" v="78735"/></node><node id="-450" lat="30.293272" lon="-97.878305" changeset="false"><tag k="addr:street" v="Wimberly Lane"/><tag k="addr:housenumber" v="1905"/><tag k="addr:postcode" v="78735"/></node><node id="-451" lat="30.277408" lon="-97.881581" changeset="false"><tag k="addr:street" v="Calera Drive"/><tag k="addr:housenumber" v="8901"/><tag k="addr:postcode" v="78735"/></node><node id="-452" lat="30.285676" lon="-97.863179" changeset="false"><tag k="addr:street" v="Ravello Ridge Drive"/><tag k="addr:housenumber" v="2608"/><tag k="addr:postcode" v="78735"/></node><node id="-453" lat="30.285616" lon="-97.872937" changeset="false"><tag k="addr:street" v="Mendocino Drive"/><tag k="addr:housenumber" v="8717"/><tag k="addr:postcode" v="78735"/></node><node id="-454" lat="30.278307" lon="-97.877786" changeset="false"><tag k="addr:street" v="Calera Drive"/><tag k="addr:housenumber" v="8601"/><tag k="addr:postcode" v="78735"/></node><node id="-455" lat="30.283107" lon="-97.886252" changeset="false"><tag k="addr:street" v="Verano Drive"/><tag k="addr:housenumber" v="3712"/><tag k="addr:postcode" v="78735"/></node><node id="-456" lat="30.296785" lon="-97.859211" changeset="false"><tag k="addr:street" v="Barton Creek Boulevard"/><tag k="addr:housenumber" v="1412"/><tag k="addr:postcode" v="78735"/></node><node id="-457" lat="30.298256" lon="-97.867294" changeset="false"><tag k="addr:street" v="Chalk Knoll Drive"/><tag k="addr:housenumber" v="8919"/><tag k="addr:postcode" v="78735"/></node><node id="-458" lat="30.280522" lon="-97.87436" changeset="false"><tag k="addr:street" v="Bluecreek Cove"/><tag k="addr:housenumber" v="8703"/><tag k="addr:postcode" v="78735"/></node><node id="-459" lat="30.275363" lon="-97.885561" changeset="false"><tag k="addr:street" v="Verano Drive"/><tag k="addr:housenumber" v="4333"/><tag k="addr:postcode" v="78735"/></node><node id="-460" lat="30.289993" lon="-97.846765" changeset="false"><tag k="addr:street" v="Barton Club Drive"/><tag k="addr:housenumber" v="7902"/><tag k="addr:postcode" v="78735"/></node><node id="-461" lat="30.278677" lon="-97.874402" changeset="false"><tag k="addr:street" v="Calera Drive"/><tag k="addr:housenumber" v="8328"/><tag k="addr:postcode" v="78735"/></node><node id="-462" lat="30.277344" lon="-97.855804" changeset="false"><tag k="addr:street" v="Point O Woods"/><tag k="addr:housenumber" v="3100"/><tag k="addr:postcode" v="78735"/></node><node id="-463" lat="30.276728" lon="-97.872801" changeset="false"><tag k="addr:street" v="Calera Drive"/><tag k="addr:housenumber" v="8309"/><tag k="addr:postcode" v="78735"/></node><node id="-464" lat="30.279777" lon="-97.885682" changeset="false"><tag k="addr:street" v="Verano Drive"/><tag k="addr:housenumber" v="4100"/><tag k="addr:postcode" v="78735"/></node><node id="-465" lat="30.287107" lon="-97.902769" changeset="false"><tag k="addr:street" v="Barton Point Drive"/><tag k="addr:housenumber" v="3513"/><tag k="addr:postcode" v="78735"/></node><node id="-466" lat="30.293739" lon="-97.920308" changeset="false"><tag k="addr:street" v="Texas Wildlife Trail"/><tag k="addr:housenumber" v="4300"/><tag k="addr:postcode" v="78735"/></node><node id="-467" lat="30.257881" lon="-97.881515" changeset="false"><tag k="addr:street" v="Southwest Parkway"/><tag k="addr:housenumber" v="8200"/><tag k="addr:postcode" v="78735"/></node><node id="-468" lat="30.25728" lon="-97.876836" changeset="false"><tag k="addr:street" v="Southwest Parkway"/><tag k="addr:housenumber" v="7800"/><tag k="addr:postcode" v="78735"/></node><node id="-469" lat="30.294294" lon="-97.919945" changeset="false"><tag k="addr:street" v="Grazing Deer Trail"/><tag k="addr:housenumber" v="11200"/><tag k="addr:postcode" v="78735"/></node><node id="-470" lat="30.287676" lon="-97.874484" changeset="false"><tag k="addr:street" v="Barton Creek Boulevard"/><tag k="addr:housenumber" v="3000 1/2"/><tag k="addr:postcode" v="78735"/></node><node id="-471" lat="30.278224" lon="-97.876108" changeset="false"><tag k="addr:street" v="Calera Drive"/><tag k="addr:housenumber" v="8417"/><tag k="addr:postcode" v="78735"/></node><node id="-472" lat="30.293982" lon="-97.868714" changeset="false"><tag k="addr:street" v="Shallow Stream Cove"/><tag k="addr:housenumber" v="2015"/><tag k="addr:postcode" v="78735"/></node><node id="-473" lat="30.268896" lon="-97.862996" changeset="false"><tag k="addr:street" v="Escala Drive"/><tag k="addr:housenumber" v="7710"/><tag k="addr:postcode" v="78735"/></node><node id="-474" lat="30.296339" lon="-97.860323" changeset="false"><tag k="addr:street" v="Barton Creek Boulevard"/><tag k="addr:housenumber" v="1508"/><tag k="addr:postcode" v="78735"/></node><node id="-475" lat="30.270889" lon="-97.864626" changeset="false"><tag k="addr:street" v="Dadiva Court"/><tag k="addr:housenumber" v="7815"/><tag k="addr:postcode" v="78735"/></node><node id="-476" lat="30.270403" lon="-97.885213" changeset="false"><tag k="addr:street" v="Henry Marx Lane"/><tag k="addr:housenumber" v="8501"/><tag k="addr:postcode" v="78735"/></node><node id="-477" lat="30.263631" lon="-97.888926" changeset="false"><tag k="addr:street" v="Barton Creek Boulevard"/><tag k="addr:housenumber" v="5321"/><tag k="addr:postcode" v="78735"/></node><node id="-478" lat="30.284185" lon="-97.873307" changeset="false"><tag k="addr:street" v="Golden Rain Cove"/><tag k="addr:housenumber" v="8801"/><tag k="addr:postcode" v="78735"/></node><node id="-479" lat="30.293997" lon="-97.919164" changeset="false"><tag k="addr:street" v="Texas Wildlife Trail"/><tag k="addr:housenumber" v="4205"/><tag k="addr:postcode" v="78735"/></node><node id="-480" lat="30.279594" lon="-97.878166" changeset="false"><tag k="addr:street" v="Calera Drive"/><tag k="addr:housenumber" v="8600"/><tag k="addr:postcode" v="78735"/></node><node id="-481" lat="30.279211" lon="-97.877556" changeset="false"><tag k="addr:street" v="Calera Drive"/><tag k="addr:housenumber" v="8532"/><tag k="addr:postcode" v="78735"/></node><node id="-482" lat="30.279331" lon="-97.871714" changeset="false"><tag k="addr:street" v="Burkwood Cove"/><tag k="addr:housenumber" v="8402"/><tag k="addr:postcode" v="78735"/></node><node id="-483" lat="30.278451" lon="-97.864712" changeset="false"><tag k="addr:street" v="Hickory Creek Drive"/><tag k="addr:housenumber" v="8109"/><tag k="addr:postcode" v="78735"/></node><node id="-484" lat="30.296522" lon="-97.874247" changeset="false"><tag k="addr:street" v="Warbler Way"/><tag k="addr:housenumber" v="2201"/><tag k="addr:postcode" v="78735"/></node><node id="-485" lat="30.296139" lon="-97.860776" changeset="false"><tag k="addr:street" v="Barton Creek Boulevard"/><tag k="addr:housenumber" v="1512"/><tag k="addr:postcode" v="78735"/></node><node id="-486" lat="30.296157" lon="-97.876995" changeset="false"><tag k="addr:street" v="Swirling Wind Cove"/><tag k="addr:housenumber" v="2312"/><tag k="addr:postcode" v="78735"/></node><node id="-487" lat="30.283963" lon="-97.878098" changeset="false"><tag k="addr:street" v="Wintercreeper Cove"/><tag k="addr:housenumber" v="9005"/><tag k="addr:postcode" v="78735"/></node><node id="-488" lat="30.285466" lon="-97.861398" changeset="false"><tag k="addr:street" v="Chalk Knoll Drive"/><tag k="addr:housenumber" v="8127"/><tag k="addr:postcode" v="78735"/></node><node id="-489" lat="30.296475" lon="-97.871169" changeset="false"><tag k="addr:street" v="Wimberly Cove"/><tag k="addr:housenumber" v="8938"/><tag k="addr:postcode" v="78735"/></node><node id="-490" lat="30.295921" lon="-97.877426" changeset="false"><tag k="addr:street" v="Swirling Wind Cove"/><tag k="addr:housenumber" v="2320"/><tag k="addr:postcode" v="78735"/></node><node id="-491" lat="30.287878" lon="-97.871279" changeset="false"><tag k="addr:street" v="Maravillas Cove"/><tag k="addr:housenumber" v="2708"/><tag k="addr:postcode" v="78735"/></node><node id="-492" lat="30.284694" lon="-97.859136" changeset="false"><tag k="addr:street" v="Chalk Knoll Drive"/><tag k="addr:housenumber" v="8034"/><tag k="addr:postcode" v="78735"/></node><node id="-493" lat="30.273659" lon="-97.878178" changeset="false"><tag k="addr:street" v="Carranzo Drive"/><tag k="addr:housenumber" v="8600"/><tag k="addr:postcode" v="78735"/></node><node id="-494" lat="30.261136" lon="-97.87068" changeset="false"><tag k="addr:street" v="Mirador Drive"/><tag k="addr:housenumber" v="4800"/><tag k="addr:postcode" v="78735"/></node><node id="-495" lat="30.259031" lon="-97.870394" changeset="false"><tag k="addr:street" v="Mirador Drive"/><tag k="addr:housenumber" v="4909 1/2"/><tag k="addr:postcode" v="78735"/></node><node id="-496" lat="30.289778" lon="-97.866465" changeset="false"><tag k="addr:street" v="Barton Creek Boulevard"/><tag k="addr:housenumber" v="2500 1/2"/><tag k="addr:postcode" v="78735"/></node><node id="-497" lat="30.293731" lon="-97.920975" changeset="false"><tag k="addr:street" v="Grazing Deer Trail"/><tag k="addr:housenumber" v="11211"/><tag k="addr:postcode" v="78735"/></node><node id="-498" lat="30.279108" lon="-97.870797" changeset="false"><tag k="addr:street" v="Burkwood Cove"/><tag k="addr:housenumber" v="8403"/><tag k="addr:postcode" v="78735"/></node><node id="-499" lat="30.289678" lon="-97.866002" changeset="false"><tag k="addr:street" v="Chalk Knoll Drive"/><tag k="addr:housenumber" v="8529 1/2"/><tag k="addr:postcode" v="78735"/></node><node id="-500" lat="30.294999" lon="-97.867714" changeset="false"><tag k="addr:street" v="Chalk Knoll Drive"/><tag k="addr:housenumber" v="8811"/><tag k="addr:postcode" v="78735"/></node><node id="-501" lat="30.282657" lon="-97.877791" changeset="false"><tag k="addr:street" v="Barton Creek Boulevard"/><tag k="addr:housenumber" v="3504"/><tag k="addr:postcode" v="78735"/></node><node id="-502" lat="30.272268" lon="-97.867153" changeset="false"><tag k="addr:street" v="Escala Drive"/><tag k="addr:housenumber" v="7901"/><tag k="addr:postcode" v="78735"/></node><node id="-503" lat="30.268698" lon="-97.860978" changeset="false"><tag k="addr:street" v="Escala Drive"/><tag k="addr:housenumber" v="7615"/><tag k="addr:postcode" v="78735"/></node><node id="-504" lat="30.264182" lon="-97.866399" changeset="false"><tag k="addr:street" v="Mirador Drive"/><tag k="addr:housenumber" v="4429"/><tag k="addr:postcode" v="78735"/></node><node id="-505" lat="30.28682" lon="-97.863819" changeset="false"><tag k="addr:street" v="Chalk Knoll Drive"/><tag k="addr:housenumber" v="8312"/><tag k="addr:postcode" v="78735"/></node><node id="-506" lat="30.286418" lon="-97.870073" changeset="false"><tag k="addr:street" v="Maravillas Loop"/><tag k="addr:housenumber" v="2904"/><tag k="addr:postcode" v="78735"/></node><node id="-507" lat="30.264082" lon="-97.889626" changeset="false"><tag k="addr:street" v="Barton Creek Boulevard"/><tag k="addr:housenumber" v="5304"/><tag k="addr:postcode" v="78735"/></node><node id="-508" lat="30.28131" lon="-97.879829" changeset="false"><tag k="addr:street" v="Barton Creek Boulevard"/><tag k="addr:housenumber" v="3709"/><tag k="addr:postcode" v="78735"/></node><node id="-509" lat="30.277146" lon="-97.881249" changeset="false"><tag k="addr:street" v="Calera Drive"/><tag k="addr:housenumber" v="8825"/><tag k="addr:postcode" v="78735"/></node><node id="-510" lat="30.276829" lon="-97.855485" changeset="false"><tag k="addr:street" v="Point O Woods"/><tag k="addr:housenumber" v="3101"/><tag k="addr:postcode" v="78735"/></node><node id="-511" lat="30.287854" lon="-97.874742" changeset="false"><tag k="addr:street" v="Barton Creek Boulevard"/><tag k="addr:housenumber" v="3000"/><tag k="addr:postcode" v="78735"/></node><node id="-512" lat="30.295358" lon="-97.858933" changeset="false"><tag k="addr:street" v="Club Ridge Cove"/><tag k="addr:housenumber" v="1404"/><tag k="addr:postcode" v="78735"/></node><node id="-513" lat="30.294968" lon="-97.85769" changeset="false"><tag k="addr:street" v="Mesa Ridge Lane"/><tag k="addr:housenumber" v="1412"/><tag k="addr:postcode" v="78735"/></node><node id="-514" lat="30.295029" lon="-97.857729" changeset="false"><tag k="addr:street" v="Club Ridge Drive"/><tag k="addr:housenumber" v="8300"/><tag k="addr:postcode" v="78735"/></node><node id="-515" lat="30.296504" lon="-97.867477" changeset="false"><tag k="addr:street" v="Chalk Rock Cove"/><tag k="addr:housenumber" v="1809"/><tag k="addr:postcode" v="78735"/></node><node id="-516" lat="30.296654" lon="-97.867392" changeset="false"><tag k="addr:street" v="Chalk Rock Cove"/><tag k="addr:housenumber" v="1801"/><tag k="addr:postcode" v="78735"/></node><node id="-517" lat="30.28708" lon="-97.864627" changeset="false"><tag k="addr:street" v="Chalk Knoll Drive"/><tag k="addr:housenumber" v="8324"/><tag k="addr:postcode" v="78735"/></node><node id="-518" lat="30.286977" lon="-97.864431" changeset="false"><tag k="addr:street" v="Chalk Knoll Drive"/><tag k="addr:housenumber" v="8320"/><tag k="addr:postcode" v="78735"/></node><node id="-519" lat="30.288515" lon="-97.865408" changeset="false"><tag k="addr:street" v="Chalk Knoll Drive"/><tag k="addr:housenumber" v="8500"/><tag k="addr:postcode" v="78735"/></node><node id="-520" lat="30.288825" lon="-97.865413" changeset="false"><tag k="addr:street" v="Chalk Knoll Drive"/><tag k="addr:housenumber" v="8506"/><tag k="addr:postcode" v="78735"/></node></osm>