<?xml version="1.0" encoding="UTF-8"?><osm version="0.6" generator="github.com/aaronlidman/osm-and-geojson"><node id="-1" lat="30.261824" lon="-97.764329" changeset="false"><tag k="addr:street" v="Virginia Avenue"/><tag k="addr:housenumber" v="1707"/><tag k="coa:place_id" v="691856"/></node><node id="-2" lat="30.264919" lon="-97.761342" changeset="false"><tag k="addr:street" v="Toomey Road"/><tag k="addr:housenumber" v="1712"/><tag k="coa:place_id" v="690278"/></node><node id="-3" lat="30.262243" lon="-97.76225" changeset="false"><tag k="addr:street" v="Barton Springs Road"/><tag k="addr:housenumber" v="1605"/><tag k="coa:place_id" v="3050006"/></node><node id="-4" lat="30.263528" lon="-97.762919" changeset="false"><tag k="addr:street" v="Barton Springs Road"/><tag k="addr:housenumber" v="1720"/><tag k="coa:place_id" v="665312"/></node><node id="-5" lat="30.2609" lon="-97.763266" changeset="false"><tag k="addr:street" v="Kinney Avenue"/><tag k="addr:housenumber" v="606"/><tag k="coa:place_id" v="246799"/></node><node id="-6" lat="30.259734" lon="-97.764051" changeset="false"><tag k="addr:street" v="Juliet Street"/><tag k="addr:housenumber" v="1604"/><tag k="coa:place_id" v="692384"/></node><node id="-7" lat="30.264381" lon="-97.764026" changeset="false"><tag k="addr:street" v="Barton Springs Road"/><tag k="addr:housenumber" v="1900"/><tag k="coa:place_id" v="3302003"/></node><node id="-8" lat="30.261842" lon="-97.759512" changeset="false"><tag k="addr:street" v="Jessie Street"/><tag k="addr:housenumber" v="415"/><tag k="coa:place_id" v="3381496"/></node><node id="-9" lat="30.261861" lon="-97.766036" changeset="false"><tag k="addr:street" v="Linscomb Avenue"/><tag k="addr:housenumber" v="1806"/><tag k="coa:place_id" v="90261"/></node><node id="-10" lat="30.261067" lon="-97.75847" changeset="false"><tag k="addr:street" v="Barton Springs Road"/><tag k="addr:housenumber" v="1300"/><tag k="coa:place_id" v="690614"/></node><node id="-11" lat="30.262191" lon="-97.758897" changeset="false"><tag k="addr:street" v="Josephine Street"/><tag k="addr:housenumber" v="400"/><tag k="coa:place_id" v="690578"/></node><node id="-12" lat="30.259719" lon="-97.765133" changeset="false"><tag k="addr:street" v="Juliet Street"/><tag k="addr:housenumber" v="1705"/><tag k="coa:place_id" v="3053174"/></node><node id="-13" lat="30.264411" lon="-97.757388" changeset="false"><tag k="addr:street" v="South Lamar Boulevard"/><tag k="addr:housenumber" v="208"/><tag k="coa:place_id" v="190089"/></node><node id="-14" lat="30.265356" lon="-97.762181" changeset="false"><tag k="addr:street" v="Toomey Road"/><tag k="addr:housenumber" v="1732"/><tag k="coa:place_id" v="690842"/></node><node id="-15" lat="30.259136" lon="-97.764142" changeset="false"><tag k="addr:street" v="Kinney Avenue"/><tag k="addr:housenumber" v="802"/><tag k="coa:place_id" v="692558"/></node><node id="-16" lat="30.26319" lon="-97.75692" changeset="false"><tag k="addr:street" v="Lee Barton Drive"/><tag k="addr:housenumber" v="210"/><tag k="coa:place_id" v="3202434"/></node><node id="-17" lat="30.262681" lon="-97.757423" changeset="false"><tag k="addr:street" v="South Lamar Boulevard"/><tag k="addr:housenumber" v="221"/><tag k="coa:place_id" v="690188"/></node><node id="-18" lat="30.261387" lon="-97.759307" changeset="false"><tag k="addr:street" v="Barton Springs Road"/><tag k="addr:housenumber" v="1404"/><tag k="coa:place_id" v="690632"/></node><node id="-19" lat="30.261872" lon="-97.764555" changeset="false"><tag k="addr:street" v="Virginia Avenue"/><tag k="addr:housenumber" v="1709"/><tag k="coa:place_id" v="691838"/></node><node id="-20" lat="30.262097" lon="-97.761895" changeset="false"><tag k="addr:street" v="Barton Springs Road"/><tag k="addr:housenumber" v="1601"/><tag k="coa:place_id" v="691532"/></node><node id="-21" lat="30.262161" lon="-97.765638" changeset="false"><tag k="addr:street" v="Barton Boulevard"/><tag k="addr:housenumber" v="609"/><tag k="coa:place_id" v="692138"/></node><node id="-22" lat="30.263314" lon="-97.762654" changeset="false"><tag k="addr:street" v="Barton Springs Road"/><tag k="addr:housenumber" v="1718"/><tag k="coa:place_id" v="242286"/></node><node id="-23" lat="30.263574" lon="-97.766143" changeset="false"><tag k="addr:street" v="Robert E Lee Road"/><tag k="addr:housenumber" v="605"/><tag k="coa:place_id" v="110333"/></node><node id="-24" lat="30.261992" lon="-97.75833" changeset="false"><tag k="addr:street" v="South Lamar Boulevard"/><tag k="addr:housenumber" v="404"/><tag k="coa:place_id" v="664904"/></node><node id="-25" lat="30.264101" lon="-97.7564" changeset="false"><tag k="addr:street" v="West Riverside Drive"/><tag k="addr:housenumber" v="1211"/><tag k="coa:place_id" v="690140"/></node><node id="-26" lat="30.260397" lon="-97.763785" changeset="false"><tag k="addr:street" v="Linscomb Avenue"/><tag k="addr:housenumber" v="1605"/><tag k="coa:place_id" v="692288"/></node><node id="-27" lat="30.261899" lon="-97.767221" changeset="false"><tag k="addr:street" v="Robert E Lee Road"/><tag k="addr:housenumber" v="703"/><tag k="coa:place_id" v="691478"/></node><node id="-28" lat="30.261653" lon="-97.765257" changeset="false"><tag k="addr:street" v="Cliff Drive"/><tag k="addr:housenumber" v="612"/><tag k="coa:place_id" v="692078"/></node><node id="-29" lat="30.261887" lon="-97.760509" changeset="false"><tag k="addr:street" v="Barton Springs Road"/><tag k="addr:housenumber" v="1518"/><tag k="coa:place_id" v="665282"/></node><node id="-30" lat="30.264225" lon="-97.764024" changeset="false"><tag k="addr:street" v="Barton Springs Road"/><tag k="addr:housenumber" v="1810"/><tag k="coa:place_id" v="690914"/></node><node id="-31" lat="30.264049" lon="-97.763767" changeset="false"><tag k="addr:street" v="Barton Springs Road"/><tag k="addr:housenumber" v="1804"/><tag k="coa:place_id" v="690884"/></node><node id="-32" lat="30.264729" lon="-97.761955" changeset="false"><tag k="addr:street" v="Toomey Road"/><tag k="addr:housenumber" v="1717"/><tag k="coa:place_id" v="3355636"/></node><node id="-33" lat="30.264978" lon="-97.763111" changeset="false"><tag k="addr:street" v="Sterzing Street"/><tag k="addr:housenumber" v="408"/><tag k="coa:place_id" v="3336690"/></node><node id="-34" lat="30.262042" lon="-97.76574" changeset="false"><tag k="addr:street" v="Barton Boulevard"/><tag k="addr:housenumber" v="611"/><tag k="coa:place_id" v="242255"/></node><node id="-35" lat="30.2619" lon="-97.765145" changeset="false"><tag k="addr:street" v="Cliff Drive"/><tag k="addr:housenumber" v="608"/><tag k="coa:place_id" v="692066"/></node><node id="-36" lat="30.262844" lon="-97.765124" changeset="false"><tag k="addr:street" v="Barton Boulevard"/><tag k="addr:housenumber" v="527"/><tag k="coa:place_id" v="692168"/></node><node id="-37" lat="30.262161" lon="-97.762862" changeset="false"><tag k="addr:street" v="Meghan Lane"/><tag k="addr:housenumber" v="1616"/><tag k="coa:place_id" v="190946"/></node><node id="-38" lat="30.261807" lon="-97.767508" changeset="false"><tag k="addr:street" v="Robert E Lee Road"/><tag k="addr:housenumber" v="801"/><tag k="coa:place_id" v="249949"/></node><node id="-39" lat="30.264874" lon="-97.75839" changeset="false"><tag k="addr:street" v="South Lamar Boulevard"/><tag k="addr:housenumber" v="200"/><tag k="coa:place_id" v="690266"/></node><node id="-40" lat="30.263233" lon="-97.756422" changeset="false"><tag k="addr:street" v="Lee Barton Drive"/><tag k="addr:housenumber" v="201"/><tag k="coa:place_id" v="664856"/></node><node id="-41" lat="30.264241" lon="-97.75992" changeset="false"><tag k="addr:street" v="Toomey Road"/><tag k="addr:housenumber" v="1602"/><tag k="coa:place_id" v="90273"/></node><node id="-42" lat="30.261763" lon="-97.758968" changeset="false"><tag k="addr:street" v="Josephine Street"/><tag k="addr:housenumber" v="410"/><tag k="coa:place_id" v="246653"/></node><node id="-43" lat="30.26138" lon="-97.765806" changeset="false"><tag k="addr:street" v="Linscomb Avenue"/><tag k="addr:housenumber" v="1809"/><tag k="coa:place_id" v="692246"/></node><node id="-44" lat="30.262345" lon="-97.761528" changeset="false"><tag k="addr:street" v="Barton Springs Road"/><tag k="addr:housenumber" v="1600"/><tag k="coa:place_id" v="665288"/></node><node id="-45" lat="30.263411" lon="-97.761478" changeset="false"><tag k="addr:street" v="Barton Springs Road"/><tag k="addr:housenumber" v="1610"/><tag k="coa:place_id" v="3138104"/></node><node id="-46" lat="30.264734" lon="-97.756415" changeset="false"><tag k="addr:street" v="West Riverside Drive"/><tag k="addr:housenumber" v="1300"/><tag k="coa:place_id" v="1123127"/></node><node id="-47" lat="30.26432" lon="-97.762912" changeset="false"><tag k="addr:street" v="Sterzing Street"/><tag k="addr:housenumber" v="427"/><tag k="coa:place_id" v="480795"/></node><node id="-48" lat="30.262523" lon="-97.76328" changeset="false"><tag k="addr:street" v="Cater Drive"/><tag k="addr:housenumber" v="501"/><tag k="coa:place_id" v="691784"/></node><node id="-49" lat="30.264184" lon="-97.755292" changeset="false"><tag k="addr:street" v="West Riverside Drive"/><tag k="addr:housenumber" v="1108"/><tag k="coa:place_id" v="309483"/></node><node id="-50" lat="30.261815" lon="-97.765828" changeset="false"><tag k="addr:street" v="Linscomb Avenue"/><tag k="addr:housenumber" v="1804"/><tag k="coa:place_id" v="247416"/></node><node id="-51" lat="30.264966" lon="-97.761084" changeset="false"><tag k="addr:street" v="Toomey Road"/><tag k="addr:housenumber" v="1704"/><tag k="coa:place_id" v="3363635"/></node><node id="-52" lat="30.261752" lon="-97.762974" changeset="false"><tag k="addr:street" v="Virginia Avenue"/><tag k="addr:housenumber" v="1608"/><tag k="coa:place_id" v="5113729"/></node><node id="-53" lat="30.261638" lon="-97.759056" changeset="false"><tag k="addr:street" v="Josephine Street"/><tag k="addr:housenumber" v="412"/><tag k="coa:place_id" v="690608"/></node><node id="-54" lat="30.260098" lon="-97.765066" changeset="false"><tag k="addr:street" v="Juliet Street"/><tag k="addr:housenumber" v="1708"/><tag k="coa:place_id" v="692438"/></node><node id="-55" lat="30.264629" lon="-97.763399" changeset="false"><tag k="addr:street" v="Sterzing Street"/><tag k="addr:housenumber" v="412"/><tag k="coa:place_id" v="251077"/></node><node id="-56" lat="30.262775" lon="-97.763596" changeset="false"><tag k="addr:street" v="Cater Drive"/><tag k="addr:housenumber" v="510"/><tag k="coa:place_id" v="691808"/></node><node id="-57" lat="30.262423" lon="-97.762388" changeset="false"><tag k="addr:street" v="Barton Springs Road"/><tag k="addr:housenumber" v="1625"/><tag k="coa:place_id" v="691514"/></node><node id="-58" lat="30.262055" lon="-97.765074" changeset="false"><tag k="addr:street" v="Cliff Drive"/><tag k="addr:housenumber" v="606"/><tag k="coa:place_id" v="5108178"/></node><node id="-59" lat="30.262032" lon="-97.762499" changeset="false"><tag k="addr:street" v="Meghan Lane"/><tag k="addr:housenumber" v="1612"/><tag k="coa:place_id" v="114305"/></node><node id="-60" lat="30.264155" lon="-97.763047" changeset="false"><tag k="addr:street" v="Sterzing Street"/><tag k="addr:housenumber" v="435"/><tag k="coa:place_id" v="978290"/></node><node id="-61" lat="30.26225" lon="-97.765152" changeset="false"><tag k="addr:street" v="Cliff Drive"/><tag k="addr:housenumber" v="604"/><tag k="coa:place_id" v="692060"/></node><node id="-62" lat="30.261522" lon="-97.757904" changeset="false"><tag k="addr:street" v="Barton Springs Road"/><tag k="addr:housenumber" v="1200"/><tag k="coa:place_id" v="1028156"/></node><node id="-63" lat="30.261389" lon="-97.767352" changeset="false"><tag k="addr:street" v="Barton Boulevard"/><tag k="addr:housenumber" v="706"/><tag k="coa:place_id" v="692822"/></node><node id="-64" lat="30.261017" lon="-97.765256" changeset="false"><tag k="addr:street" v="Garner Avenue"/><tag k="addr:housenumber" v="702"/><tag k="coa:place_id" v="692486"/></node><node id="-65" lat="30.263438" lon="-97.759125" changeset="false"><tag k="addr:street" v="Toomey Road"/><tag k="addr:housenumber" v="1501"/><tag k="coa:place_id" v="690290"/></node><node id="-66" lat="30.261804" lon="-97.765202" changeset="false"><tag k="addr:street" v="Cliff Drive"/><tag k="addr:housenumber" v="610"/><tag k="coa:place_id" v="692072"/></node><node id="-67" lat="30.264255" lon="-97.763787" changeset="false"><tag k="addr:street" v="Barton Springs Road"/><tag k="addr:housenumber" v="1800"/><tag k="coa:place_id" v="690878"/></node><node id="-68" lat="30.262003" lon="-97.764741" changeset="false"><tag k="addr:street" v="Cliff Drive"/><tag k="addr:housenumber" v="603"/><tag k="coa:place_id" v="692054"/></node><node id="-69" lat="30.262561" lon="-97.762668" changeset="false"><tag k="addr:street" v="Barton Springs Road"/><tag k="addr:housenumber" v="1631"/><tag k="coa:place_id" v="691502"/></node><node id="-70" lat="30.260979" lon="-97.764809" changeset="false"><tag k="addr:street" v="Linscomb Avenue"/><tag k="addr:housenumber" v="1707"/><tag k="coa:place_id" v="149921"/></node><node id="-71" lat="30.264108" lon="-97.763853" changeset="false"><tag k="addr:street" v="Barton Springs Road"/><tag k="addr:housenumber" v="1806"/><tag k="coa:place_id" v="690890"/></node><node id="-72" lat="30.264985" lon="-97.761456" changeset="false"><tag k="addr:street" v="Toomey Road"/><tag k="addr:housenumber" v="1718"/><tag k="coa:place_id" v="3355637"/></node><node id="-73" lat="30.262363" lon="-97.762938" changeset="false"><tag k="addr:street" v="Meghan Lane"/><tag k="addr:housenumber" v="1620"/><tag k="coa:place_id" v="691790"/></node><node id="-74" lat="30.263973" lon="-97.758737" changeset="false"><tag k="addr:street" v="Toomey Road"/><tag k="addr:housenumber" v="1510"/><tag k="coa:place_id" v="664868"/></node><node id="-75" lat="30.264311" lon="-97.758604" changeset="false"><tag k="addr:street" v="Toomey Road"/><tag k="addr:housenumber" v="1500"/><tag k="coa:place_id" v="126327"/></node><node id="-76" lat="30.262868" lon="-97.758603" changeset="false"><tag k="addr:street" v="South Lamar Boulevard"/><tag k="addr:housenumber" v="300"/><tag k="coa:place_id" v="664898"/></node><node id="-77" lat="30.262595" lon="-97.758358" changeset="false"><tag k="addr:street" v="Butler Road"/><tag k="addr:housenumber" v="1412"/><tag k="coa:place_id" v="690458"/></node><node id="-78" lat="30.262731" lon="-97.758838" changeset="false"><tag k="addr:street" v="Jessie Street"/><tag k="addr:housenumber" v="319"/><tag k="coa:place_id" v="690554"/></node><node id="-79" lat="30.262729" lon="-97.758333" changeset="false"><tag k="addr:street" v="South Lamar Boulevard"/><tag k="addr:housenumber" v="302"/><tag k="coa:place_id" v="690560"/></node><node id="-80" lat="30.263435" lon="-97.757248" changeset="false"><tag k="addr:street" v="South Lamar Boulevard"/><tag k="addr:housenumber" v="215"/><tag k="coa:place_id" v="3202450"/></node><node id="-81" lat="30.263623" lon="-97.75713" changeset="false"><tag k="addr:street" v="South Lamar Boulevard"/><tag k="addr:housenumber" v="213"/><tag k="coa:place_id" v="194901"/></node><node id="-82" lat="30.263036" lon="-97.757234" changeset="false"><tag k="addr:street" v="South Lamar Boulevard"/><tag k="addr:housenumber" v="217"/><tag k="coa:place_id" v="267507"/></node><node id="-83" lat="30.264325" lon="-97.761214" changeset="false"><tag k="addr:street" v="Toomey Road"/><tag k="addr:housenumber" v="1623"/><tag k="coa:place_id" v="664886"/></node><node id="-84" lat="30.264207" lon="-97.760979" changeset="false"><tag k="addr:street" v="Toomey Road"/><tag k="addr:housenumber" v="1617"/><tag k="coa:place_id" v="690296"/></node><node id="-85" lat="30.264007" lon="-97.76034" changeset="false"><tag k="addr:street" v="Toomey Road"/><tag k="addr:housenumber" v="1605"/><tag k="coa:place_id" v="3053452"/></node><node id="-86" lat="30.262913" lon="-97.761147" changeset="false"><tag k="addr:street" v="Barton Springs Road"/><tag k="addr:housenumber" v="1602"/><tag k="coa:place_id" v="242285"/></node><node id="-87" lat="30.262931" lon="-97.761167" changeset="false"><tag k="addr:street" v="Barton Springs Road"/><tag k="addr:housenumber" v="1604"/><tag k="coa:place_id" v="690764"/></node><node id="-88" lat="30.259785" lon="-97.764203" changeset="false"><tag k="addr:street" v="Juliet Street"/><tag k="addr:housenumber" v="1606"/><tag k="coa:place_id" v="692390"/></node><node id="-89" lat="30.259824" lon="-97.76432" changeset="false"><tag k="addr:street" v="Juliet Street"/><tag k="addr:housenumber" v="1608"/><tag k="coa:place_id" v="5111014"/></node></osm>