<?xml version="1.0" encoding="UTF-8"?><osm version="0.6" generator="github.com/aaronlidman/osm-and-geojson"><node id="-1" lat="30.263525" lon="-97.756752" changeset="false"><tag k="addr:street" v="Lee Barton Drive"/><tag k="addr:housenumber" v="200"/><tag k="coa:place_id" v="224751"/></node><node id="-2" lat="30.263541" lon="-97.758055" changeset="false"><tag k="addr:street" v="South Lamar Boulevard"/><tag k="addr:housenumber" v="218"/><tag k="coa:place_id" v="447093"/></node><node id="-3" lat="30.263636" lon="-97.758596" changeset="false"><tag k="addr:street" v="Toomey Road"/><tag k="addr:housenumber" v="1426"/><tag k="coa:place_id" v="452475"/></node><node id="-4" lat="30.263954" lon="-97.756787" changeset="false"><tag k="addr:street" v="South Lamar Boulevard"/><tag k="addr:housenumber" v="211"/><tag k="coa:place_id" v="119157"/></node><node id="-5" lat="30.262141" lon="-97.75768" changeset="false"><tag k="addr:street" v="South Lamar Boulevard"/><tag k="addr:housenumber" v="319"/><tag k="coa:place_id" v="690566"/></node><node id="-6" lat="30.262424" lon="-97.757514" changeset="false"><tag k="addr:street" v="South Lamar Boulevard"/><tag k="addr:housenumber" v="311"/><tag k="coa:place_id" v="664844"/></node><node id="-7" lat="30.261467" lon="-97.759146" changeset="false"><tag k="addr:street" v="Barton Springs Road"/><tag k="addr:housenumber" v="1400"/><tag k="coa:place_id" v="690626"/></node><node id="-8" lat="30.264884" lon="-97.762516" changeset="false"><tag k="addr:street" v="Toomey Road"/><tag k="addr:housenumber" v="1725"/><tag k="coa:place_id" v="690308"/></node><node id="-9" lat="30.265297" lon="-97.762926" changeset="false"><tag k="addr:street" v="Sterzing Street"/><tag k="addr:housenumber" v="406"/><tag k="coa:place_id" v="274978"/></node></osm>