<?xml version="1.0" encoding="UTF-8"?><osm version="0.6" generator="github.com/aaronlidman/osm-and-geojson"><node id="-1" lat="30.216452" lon="-97.521069" changeset="false"><tag k="addr:street" v="Whirlaway Drive"/><tag k="addr:housenumber" v="2200"/></node><node id="-2" lat="30.206246" lon="-97.633488" changeset="false"><tag k="addr:street" v="Guerrero Drive"/><tag k="addr:housenumber" v="3022"/></node><node id="-3" lat="30.189681" lon="-97.596784" changeset="false"><tag k="addr:street" v="Doctor Scott Drive"/><tag k="addr:housenumber" v="4201"/></node><node id="-4" lat="30.203903" lon="-97.576493" changeset="false"><tag k="addr:street" v="Norwood Lane"/><tag k="addr:housenumber" v="3114"/></node><node id="-5" lat="30.210826" lon="-97.612307" changeset="false"><tag k="addr:street" v="Fallwell Lane"/><tag k="addr:housenumber" v="1101"/></node><node id="-6" lat="30.205192" lon="-97.638685" changeset="false"><tag k="addr:street" v="Mary Street"/><tag k="addr:housenumber" v="3100"/></node><node id="-7" lat="30.212197" lon="-97.520038" changeset="false"><tag k="addr:street" v="Whirlaway Drive"/><tag k="addr:housenumber" v="2601"/></node><node id="-8" lat="30.214283" lon="-97.519973" changeset="false"><tag k="addr:street" v="Whirlaway Drive"/><tag k="addr:housenumber" v="2403"/></node><node id="-9" lat="30.20919" lon="-97.522334" changeset="false"><tag k="addr:street" v="Whirlaway Drive"/><tag k="addr:housenumber" v="2804"/></node><node id="-10" lat="30.201018" lon="-97.553452" changeset="false"><tag k="addr:street" v="Victorine Lane"/><tag k="addr:housenumber" v="3500"/></node><node id="-11" lat="30.198636" lon="-97.55436" changeset="false"><tag k="addr:street" v="Victorine Lane"/><tag k="addr:housenumber" v="3520"/></node><node id="-12" lat="30.195938" lon="-97.531331" changeset="false"><tag k="addr:street" v="Buck Lane"/><tag k="addr:housenumber" v="3711"/></node><node id="-13" lat="30.212624" lon="-97.52004" changeset="false"><tag k="addr:street" v="Whirlaway Drive"/><tag k="addr:housenumber" v="2505"/></node><node id="-14" lat="30.209537" lon="-97.521966" changeset="false"><tag k="addr:street" v="Whirlaway Drive"/><tag k="addr:housenumber" v="2802"/></node><node id="-15" lat="30.208415" lon="-97.547532" changeset="false"><tag k="addr:street" v="Caldwell Lane"/><tag k="addr:housenumber" v="2914"/></node><node id="-16" lat="30.224201" lon="-97.519771" changeset="false"><tag k="addr:street" v="Man O War Drive"/><tag k="addr:housenumber" v="1306"/></node><node id="-17" lat="30.223766" lon="-97.518572" changeset="false"><tag k="addr:street" v="Man O War Drive"/><tag k="addr:housenumber" v="1401"/></node><node id="-18" lat="30.190523" lon="-97.546482" changeset="false"><tag k="addr:street" v="Caldwell Lane"/><tag k="addr:housenumber" v="3915"/></node><node id="-19" lat="30.200477" lon="-97.508751" changeset="false"><tag k="addr:street" v="River Road"/><tag k="addr:housenumber" v="3509"/></node><node id="-20" lat="30.193129" lon="-97.552124" changeset="false"><tag k="addr:street" v="Caldwell Lane"/><tag k="addr:housenumber" v="3919"/></node><node id="-21" lat="30.218336" lon="-97.523802" changeset="false"><tag k="addr:street" v="Man O War Drive"/><tag k="addr:housenumber" v="2002"/></node><node id="-22" lat="30.20659" lon="-97.637303" changeset="false"><tag k="addr:street" v="Michoacan Drive"/><tag k="addr:housenumber" v="3006"/></node><node id="-23" lat="30.195268" lon="-97.51245" changeset="false"><tag k="addr:street" v="River Road"/><tag k="addr:housenumber" v="3803"/></node><node id="-24" lat="30.19483" lon="-97.512832" changeset="false"><tag k="addr:street" v="River Road"/><tag k="addr:housenumber" v="3807"/></node><node id="-25" lat="30.193881" lon="-97.513466" changeset="false"><tag k="addr:street" v="River Road"/><tag k="addr:housenumber" v="3903"/></node><node id="-26" lat="30.194324" lon="-97.513797" changeset="false"><tag k="addr:street" v="River Road"/><tag k="addr:housenumber" v="3900"/></node><node id="-27" lat="30.204205" lon="-97.638183" changeset="false"><tag k="addr:street" v="Alice Avenue"/><tag k="addr:housenumber" v="3113"/></node><node id="-28" lat="30.217742" lon="-97.521692" changeset="false"><tag k="addr:street" v="Whirlaway Drive"/><tag k="addr:housenumber" v="2004"/></node><node id="-29" lat="30.204114" lon="-97.638288" changeset="false"><tag k="addr:street" v="Alice Avenue"/><tag k="addr:housenumber" v="3115"/></node><node id="-30" lat="30.204021" lon="-97.637033" changeset="false"><tag k="addr:street" v="Bessie Avenue"/><tag k="addr:housenumber" v="3102"/></node><node id="-31" lat="30.187713" lon="-97.517765" changeset="false"><tag k="addr:street" v="Meadow Drive"/><tag k="addr:housenumber" v="4400"/></node><node id="-32" lat="30.197312" lon="-97.510757" changeset="false"><tag k="addr:street" v="River Road"/><tag k="addr:housenumber" v="3605"/></node><node id="-33" lat="30.190181" lon="-97.515632" changeset="false"><tag k="addr:street" v="River Road"/><tag k="addr:housenumber" v="4111"/></node><node id="-34" lat="30.191266" lon="-97.515957" changeset="false"><tag k="addr:street" v="River Road"/><tag k="addr:housenumber" v="4104"/></node><node id="-35" lat="30.18938" lon="-97.516183" changeset="false"><tag k="addr:street" v="River Road"/><tag k="addr:housenumber" v="4205"/></node><node id="-36" lat="30.189639" lon="-97.51702" changeset="false"><tag k="addr:street" v="River Road"/><tag k="addr:housenumber" v="4206"/></node><node id="-37" lat="30.195363" lon="-97.549456" changeset="false"><tag k="addr:street" v="Caldwell Lane"/><tag k="addr:housenumber" v="3711"/></node><node id="-38" lat="30.189224" lon="-97.604329" changeset="false"><tag k="addr:street" v="Burch Drive"/><tag k="addr:housenumber" v="4203"/></node><node id="-39" lat="30.20169" lon="-97.509449" changeset="false"><tag k="addr:street" v="River Road"/><tag k="addr:housenumber" v="3316"/></node><node id="-40" lat="30.224741" lon="-97.521033" changeset="false"><tag k="addr:street" v="Citation Circle"/><tag k="addr:housenumber" v="1303"/></node><node id="-41" lat="30.222678" lon="-97.521262" changeset="false"><tag k="addr:street" v="Citation Circle"/><tag k="addr:housenumber" v="1405"/></node><node id="-42" lat="30.215158" lon="-97.518518" changeset="false"><tag k="addr:street" v="Citation Drive"/><tag k="addr:housenumber" v="2300"/></node><node id="-43" lat="30.211919" lon="-97.518439" changeset="false"><tag k="addr:street" v="Citation Drive"/><tag k="addr:housenumber" v="2600"/></node><node id="-44" lat="30.210208" lon="-97.518167" changeset="false"><tag k="addr:street" v="Citation Drive"/><tag k="addr:housenumber" v="2704"/></node><node id="-45" lat="30.188088" lon="-97.518123" changeset="false"><tag k="addr:street" v="Tucker Hill Lane"/><tag k="addr:housenumber" v="4301"/></node><node id="-46" lat="30.204702" lon="-97.505916" changeset="false"><tag k="addr:street" v="River Road"/><tag k="addr:housenumber" v="3105"/></node><node id="-47" lat="30.198496" lon="-97.511421" changeset="false"><tag k="addr:street" v="River Road"/><tag k="addr:housenumber" v="3530"/></node><node id="-48" lat="30.201508" lon="-97.509654" changeset="false"><tag k="addr:street" v="River Road"/><tag k="addr:housenumber" v="3400"/></node><node id="-49" lat="30.189397" lon="-97.555528" changeset="false"><tag k="addr:street" v="Caldwell Lane"/><tag k="addr:housenumber" v="4210"/></node><node id="-50" lat="30.220185" lon="-97.521143" changeset="false"><tag k="addr:street" v="Man O War Drive"/><tag k="addr:housenumber" v="1603"/></node><node id="-51" lat="30.196936" lon="-97.512135" changeset="false"><tag k="addr:street" v="River Road"/><tag k="addr:housenumber" v="3700"/></node><node id="-52" lat="30.225774" lon="-97.521744" changeset="false"><tag k="addr:street" v="Citation Circle"/><tag k="addr:housenumber" v="1206"/></node><node id="-53" lat="30.221075" lon="-97.522215" changeset="false"><tag k="addr:street" v="Citation Circle"/><tag k="addr:housenumber" v="1504"/></node><node id="-54" lat="30.210865" lon="-97.524346" changeset="false"><tag k="addr:street" v="Citation Drive"/><tag k="addr:housenumber" v="2741"/></node><node id="-55" lat="30.190325" lon="-97.516612" changeset="false"><tag k="addr:street" v="River Road"/><tag k="addr:housenumber" v="4200"/></node><node id="-56" lat="30.197884" lon="-97.579604" changeset="false"><tag k="addr:street" v="Norwood Lane"/><tag k="addr:housenumber" v="3605"/></node><node id="-57" lat="30.215062" lon="-97.527932" changeset="false"><tag k="addr:street" v="Citation Drive"/><tag k="addr:housenumber" v="2775"/></node><node id="-58" lat="30.187792" lon="-97.607286" changeset="false"><tag k="addr:street" v="Burch Drive"/><tag k="addr:housenumber" v="4312"/></node><node id="-59" lat="30.211004" lon="-97.617258" changeset="false"><tag k="addr:street" v="Fallwell Lane"/><tag k="addr:housenumber" v="1409 1/2"/></node><node id="-60" lat="30.212209" lon="-97.52709" changeset="false"><tag k="addr:street" v="Citation Drive"/><tag k="addr:housenumber" v="2757"/></node><node id="-61" lat="30.212395" lon="-97.527435" changeset="false"><tag k="addr:street" v="Citation Drive"/><tag k="addr:housenumber" v="2759"/></node><node id="-62" lat="30.211413" lon="-97.615512" changeset="false"><tag k="addr:street" v="Fallwell Lane"/><tag k="addr:housenumber" v="1221 1/2"/></node><node id="-63" lat="30.2113" lon="-97.61479" changeset="false"><tag k="addr:street" v="Fallwell Lane"/><tag k="addr:housenumber" v="1209 1/2"/></node><node id="-64" lat="30.207983" lon="-97.519768" changeset="false"><tag k="addr:street" v="Citation Drive"/><tag k="addr:housenumber" v="2721"/></node><node id="-65" lat="30.218053" lon="-97.52061" changeset="false"><tag k="addr:street" v="Whirlaway Drive"/><tag k="addr:housenumber" v="2101"/></node><node id="-66" lat="30.218379" lon="-97.520945" changeset="false"><tag k="addr:street" v="Whirlaway Drive"/><tag k="addr:housenumber" v="2007"/></node><node id="-67" lat="30.225112" lon="-97.518515" changeset="false"><tag k="addr:street" v="Man O War Drive"/><tag k="addr:housenumber" v="1303"/></node><node id="-68" lat="30.20621" lon="-97.634282" changeset="false"><tag k="addr:street" v="Guerrero Drive"/><tag k="addr:housenumber" v="3017"/></node><node id="-69" lat="30.20691" lon="-97.636392" changeset="false"><tag k="addr:street" v="Michoacan Drive"/><tag k="addr:housenumber" v="3001"/></node><node id="-70" lat="30.204801" lon="-97.634381" changeset="false"><tag k="addr:street" v="Fallwell Lane"/><tag k="addr:housenumber" v="3105"/></node><node id="-71" lat="30.204859" lon="-97.637865" changeset="false"><tag k="addr:street" v="Mary Street"/><tag k="addr:housenumber" v="3112"/></node><node id="-72" lat="30.204768" lon="-97.637903" changeset="false"><tag k="addr:street" v="Alice Avenue"/><tag k="addr:housenumber" v="3102"/></node><node id="-73" lat="30.191905" lon="-97.602831" changeset="false"><tag k="addr:street" v="Burch Drive"/><tag k="addr:housenumber" v="4005"/></node><node id="-74" lat="30.20294" lon="-97.637423" changeset="false"><tag k="addr:street" v="Bessie Avenue"/><tag k="addr:housenumber" v="3205"/></node><node id="-75" lat="30.206027" lon="-97.635903" changeset="false"><tag k="addr:street" v="Puebla Drive"/><tag k="addr:housenumber" v="3006"/></node><node id="-76" lat="30.206698" lon="-97.634444" changeset="false"><tag k="addr:street" v="Guerrero Drive"/><tag k="addr:housenumber" v="3014"/></node><node id="-77" lat="30.208375" lon="-97.516265" changeset="false"><tag k="addr:street" v="Citation Drive"/><tag k="addr:housenumber" v="2711"/></node><node id="-78" lat="30.207708" lon="-97.519279" changeset="false"><tag k="addr:street" v="Citation Drive"/><tag k="addr:housenumber" v="2719"/></node><node id="-79" lat="30.204965" lon="-97.638093" changeset="false"><tag k="addr:street" v="Mary Street"/><tag k="addr:housenumber" v="3106"/></node><node id="-80" lat="30.212132" lon="-97.539975" changeset="false"><tag k="addr:street" v="Caldwell Lane"/><tag k="addr:housenumber" v="2605"/></node><node id="-81" lat="30.206525" lon="-97.54455" changeset="false"><tag k="addr:street" v="Caldwell Lane"/><tag k="addr:housenumber" v="2960"/></node><node id="-82" lat="30.205942" lon="-97.635134" changeset="false"><tag k="addr:street" v="Puebla Drive"/><tag k="addr:housenumber" v="3012"/></node><node id="-83" lat="30.187574" lon="-97.556073" changeset="false"><tag k="addr:street" v="Caldwell Lane"/><tag k="addr:housenumber" v="4313"/></node><node id="-84" lat="30.222004" lon="-97.518976" changeset="false"><tag k="addr:street" v="Man O War Drive"/><tag k="addr:housenumber" v="1501"/></node><node id="-85" lat="30.223739" lon="-97.519878" changeset="false"><tag k="addr:street" v="Man O War Drive"/><tag k="addr:housenumber" v="1400"/></node><node id="-86" lat="30.200765" lon="-97.508822" changeset="false"><tag k="addr:street" v="River Road"/><tag k="addr:housenumber" v="3507"/></node><node id="-87" lat="30.188784" lon="-97.518037" changeset="false"><tag k="addr:street" v="Meadow Drive"/><tag k="addr:housenumber" v="4301"/></node><node id="-88" lat="30.204602" lon="-97.634608" changeset="false"><tag k="addr:street" v="Fallwell Lane"/><tag k="addr:housenumber" v="3107"/></node><node id="-89" lat="30.204343" lon="-97.638712" changeset="false"><tag k="addr:street" v="Eva Street"/><tag k="addr:housenumber" v="3161"/></node><node id="-90" lat="30.2039" lon="-97.637151" changeset="false"><tag k="addr:street" v="Bessie Avenue"/><tag k="addr:housenumber" v="3104"/></node><node id="-91" lat="30.20543" lon="-97.638685" changeset="false"><tag k="addr:street" v="Mary Street"/><tag k="addr:housenumber" v="3101"/></node><node id="-92" lat="30.215446" lon="-97.517071" changeset="false"><tag k="addr:street" v="Citation Drive"/><tag k="addr:housenumber" v="2301"/></node><node id="-93" lat="30.210818" lon="-97.51659" changeset="false"><tag k="addr:street" v="Citation Drive"/><tag k="addr:housenumber" v="2701"/></node><node id="-94" lat="30.213448" lon="-97.526916" changeset="false"><tag k="addr:street" v="Citation Drive"/><tag k="addr:housenumber" v="2758"/></node><node id="-95" lat="30.214395" lon="-97.518499" changeset="false"><tag k="addr:street" v="Citation Drive"/><tag k="addr:housenumber" v="2400"/></node><node id="-96" lat="30.192" lon="-97.550661" changeset="false"><tag k="addr:street" v="Caldwell Lane"/><tag k="addr:housenumber" v="3921"/></node><node id="-97" lat="30.215947" lon="-97.523194" changeset="false"><tag k="addr:street" v="Man O War Drive"/><tag k="addr:housenumber" v="2301"/></node><node id="-98" lat="30.215786" lon="-97.524633" changeset="false"><tag k="addr:street" v="Man O War Drive"/><tag k="addr:housenumber" v="2302"/></node><node id="-99" lat="30.203184" lon="-97.507997" changeset="false"><tag k="addr:street" v="River Road"/><tag k="addr:housenumber" v="3216"/></node><node id="-100" lat="30.202649" lon="-97.508517" changeset="false"><tag k="addr:street" v="River Road"/><tag k="addr:housenumber" v="3304"/></node><node id="-101" lat="30.216644" lon="-97.522983" changeset="false"><tag k="addr:street" v="Man O War Drive"/><tag k="addr:housenumber" v="2201"/></node><node id="-102" lat="30.2192" lon="-97.522996" changeset="false"><tag k="addr:street" v="Man O War Drive"/><tag k="addr:housenumber" v="1900"/></node><node id="-103" lat="30.218901" lon="-97.52326" changeset="false"><tag k="addr:street" v="Man O War Drive"/><tag k="addr:housenumber" v="1902"/></node><node id="-104" lat="30.204228" lon="-97.507123" changeset="false"><tag k="addr:street" v="River Road"/><tag k="addr:housenumber" v="3122"/></node><node id="-105" lat="30.200816" lon="-97.510605" changeset="false"><tag k="addr:street" v="River Road"/><tag k="addr:housenumber" v="3410"/></node><node id="-106" lat="30.200256" lon="-97.51071" changeset="false"><tag k="addr:street" v="River Road"/><tag k="addr:housenumber" v="3416"/></node><node id="-107" lat="30.191823" lon="-97.553916" changeset="false"><tag k="addr:street" v="Caldwell Lane"/><tag k="addr:housenumber" v="4020"/></node><node id="-108" lat="30.195092" lon="-97.512758" changeset="false"><tag k="addr:street" v="River Road"/><tag k="addr:housenumber" v="3805"/></node><node id="-109" lat="30.193602" lon="-97.514306" changeset="false"><tag k="addr:street" v="River Road"/><tag k="addr:housenumber" v="3906"/></node><node id="-110" lat="30.192328" lon="-97.514237" changeset="false"><tag k="addr:street" v="River Road"/><tag k="addr:housenumber" v="4003"/></node><node id="-111" lat="30.202395" lon="-97.50872" changeset="false"><tag k="addr:street" v="River Road"/><tag k="addr:housenumber" v="3308"/></node><node id="-112" lat="30.190548" lon="-97.602966" changeset="false"><tag k="addr:street" v="Burch Drive"/><tag k="addr:housenumber" v="4101"/></node><node id="-113" lat="30.217045" lon="-97.5189" changeset="false"><tag k="addr:street" v="Citation Drive"/><tag k="addr:housenumber" v="2002"/></node><node id="-114" lat="30.200023" lon="-97.50987" changeset="false"><tag k="addr:street" v="River Road"/><tag k="addr:housenumber" v="3415"/></node><node id="-115" lat="30.213823" lon="-97.523118" changeset="false"><tag k="addr:street" v="River Timber Drive"/><tag k="addr:housenumber" v="18605"/></node><node id="-116" lat="30.218985" lon="-97.518125" changeset="false"><tag k="addr:street" v="Citation Drive"/><tag k="addr:housenumber" v="1805"/></node><node id="-117" lat="30.212894" lon="-97.520898" changeset="false"><tag k="addr:street" v="River Timber Drive"/><tag k="addr:housenumber" v="18709"/></node><node id="-118" lat="30.201554" lon="-97.509115" changeset="false"><tag k="addr:street" v="River Road"/><tag k="addr:housenumber" v="3313"/></node><node id="-119" lat="30.22435" lon="-97.521071" changeset="false"><tag k="addr:street" v="Citation Circle"/><tag k="addr:housenumber" v="1305"/></node><node id="-120" lat="30.209961" lon="-97.519601" changeset="false"><tag k="addr:street" v="Citation Drive"/><tag k="addr:housenumber" v="2716"/></node><node id="-121" lat="30.187453" lon="-97.556673" changeset="false"><tag k="addr:street" v="Albert Brown Drive"/><tag k="addr:housenumber" v="5173"/></node><node id="-122" lat="30.214747" lon="-97.528127" changeset="false"><tag k="addr:street" v="Citation Drive"/><tag k="addr:housenumber" v="2773"/></node><node id="-123" lat="30.225079" lon="-97.521995" changeset="false"><tag k="addr:street" v="Citation Circle"/><tag k="addr:housenumber" v="1302"/></node><node id="-124" lat="30.224693" lon="-97.522023" changeset="false"><tag k="addr:street" v="Citation Circle"/><tag k="addr:housenumber" v="1304"/></node><node id="-125" lat="30.211034" lon="-97.524712" changeset="false"><tag k="addr:street" v="Citation Drive"/><tag k="addr:housenumber" v="2743"/></node><node id="-126" lat="30.211516" lon="-97.525715" changeset="false"><tag k="addr:street" v="Citation Drive"/><tag k="addr:housenumber" v="2749"/></node><node id="-127" lat="30.192073" lon="-97.531386" changeset="false"><tag k="addr:street" v="Buck Lane"/><tag k="addr:housenumber" v="3809"/></node><node id="-128" lat="30.213135" lon="-97.526231" changeset="false"><tag k="addr:street" v="Citation Drive"/><tag k="addr:housenumber" v="2754"/></node><node id="-129" lat="30.187666" lon="-97.606517" changeset="false"><tag k="addr:street" v="Burch Drive"/><tag k="addr:housenumber" v="4316"/></node><node id="-130" lat="30.188845" lon="-97.516872" changeset="false"><tag k="addr:street" v="River Road"/><tag k="addr:housenumber" v="4211"/></node><node id="-131" lat="30.223341" lon="-97.518654" changeset="false"><tag k="addr:street" v="Man O War Drive"/><tag k="addr:housenumber" v="1403"/></node><node id="-132" lat="30.189007" lon="-97.605855" changeset="false"><tag k="addr:street" v="Burch Drive"/><tag k="addr:housenumber" v="4300"/></node><node id="-133" lat="30.216889" lon="-97.521159" changeset="false"><tag k="addr:street" v="Whirlaway Drive"/><tag k="addr:housenumber" v="2102"/></node><node id="-134" lat="30.206312" lon="-97.635425" changeset="false"><tag k="addr:street" v="Guerrero Drive"/><tag k="addr:housenumber" v="3007"/></node><node id="-135" lat="30.206218" lon="-97.63775" changeset="false"><tag k="addr:street" v="Michoacan Drive"/><tag k="addr:housenumber" v="3010"/></node><node id="-136" lat="30.205902" lon="-97.634916" changeset="false"><tag k="addr:street" v="Puebla Drive"/><tag k="addr:housenumber" v="3014"/></node><node id="-137" lat="30.211662" lon="-97.611858" changeset="false"><tag k="addr:street" v="Fallwell Lane"/><tag k="addr:housenumber" v="1017"/></node><node id="-138" lat="30.20495" lon="-97.634234" changeset="false"><tag k="addr:street" v="Fallwell Lane"/><tag k="addr:housenumber" v="3103"/></node><node id="-139" lat="30.20493" lon="-97.638017" changeset="false"><tag k="addr:street" v="Mary Street"/><tag k="addr:housenumber" v="3108"/></node><node id="-140" lat="30.198593" lon="-97.549797" changeset="false"><tag k="addr:street" v="Caldwell Lane"/><tag k="addr:housenumber" v="3520"/></node><node id="-141" lat="30.205903" lon="-97.545858" changeset="false"><tag k="addr:street" v="Caldwell Lane"/><tag k="addr:housenumber" v="3028"/></node><node id="-142" lat="30.18796" lon="-97.556324" changeset="false"><tag k="addr:street" v="Caldwell Lane"/><tag k="addr:housenumber" v="4300"/></node><node id="-143" lat="30.190427" lon="-97.584369" changeset="false"><tag k="addr:street" v="Norwood Lane"/><tag k="addr:housenumber" v="4201"/></node><node id="-144" lat="30.208975" lon="-97.545148" changeset="false"><tag k="addr:street" v="Caldwell Lane"/><tag k="addr:housenumber" v="2900"/></node><node id="-145" lat="30.20714" lon="-97.544066" changeset="false"><tag k="addr:street" v="Caldwell Lane"/><tag k="addr:housenumber" v="2936"/></node><node id="-146" lat="30.206849" lon="-97.544258" changeset="false"><tag k="addr:street" v="Caldwell Lane"/><tag k="addr:housenumber" v="2944"/></node><node id="-147" lat="30.216559" lon="-97.519937" changeset="false"><tag k="addr:street" v="Whirlaway Drive"/><tag k="addr:housenumber" v="2201"/></node><node id="-148" lat="30.204626" lon="-97.638177" changeset="false"><tag k="addr:street" v="Alice Avenue"/><tag k="addr:housenumber" v="3110"/></node><node id="-149" lat="30.19348" lon="-97.551302" changeset="false"><tag k="addr:street" v="Caldwell Lane"/><tag k="addr:housenumber" v="3903"/></node><node id="-150" lat="30.218823" lon="-97.521996" changeset="false"><tag k="addr:street" v="Whirlaway Drive"/><tag k="addr:housenumber" v="2001"/></node><node id="-151" lat="30.18693" lon="-97.518898" changeset="false"><tag k="addr:street" v="Tucker Hill Lane"/><tag k="addr:housenumber" v="4409"/></node><node id="-152" lat="30.188653" lon="-97.517804" changeset="false"><tag k="addr:street" v="Meadow Drive"/><tag k="addr:housenumber" v="4305"/></node><node id="-153" lat="30.188428" lon="-97.517454" changeset="false"><tag k="addr:street" v="Meadow Drive"/><tag k="addr:housenumber" v="4311"/></node><node id="-154" lat="30.187418" lon="-97.517932" changeset="false"><tag k="addr:street" v="Meadow Drive"/><tag k="addr:housenumber" v="4408"/></node><node id="-155" lat="30.19751" lon="-97.511912" changeset="false"><tag k="addr:street" v="River Road"/><tag k="addr:housenumber" v="3606"/></node><node id="-156" lat="30.216558" lon="-97.517527" changeset="false"><tag k="addr:street" v="Citation Drive"/><tag k="addr:housenumber" v="2103"/></node><node id="-157" lat="30.217364" lon="-97.522707" changeset="false"><tag k="addr:street" v="Man O War Drive"/><tag k="addr:housenumber" v="2101"/></node><node id="-158" lat="30.217335" lon="-97.524229" changeset="false"><tag k="addr:street" v="Man O War Drive"/><tag k="addr:housenumber" v="2200"/></node><node id="-159" lat="30.186369" lon="-97.519172" changeset="false"><tag k="addr:street" v="Tucker Hill Lane"/><tag k="addr:housenumber" v="4501"/></node><node id="-160" lat="30.191426" lon="-97.51491" changeset="false"><tag k="addr:street" v="River Road"/><tag k="addr:housenumber" v="4101"/></node><node id="-161" lat="30.191871" lon="-97.515847" changeset="false"><tag k="addr:street" v="River Road"/><tag k="addr:housenumber" v="4100"/></node><node id="-162" lat="30.198456" lon="-97.590135" changeset="false"><tag k="addr:street" v="Doctor Scott Drive"/><tag k="addr:housenumber" v="3701"/></node><node id="-163" lat="30.224649" lon="-97.519727" changeset="false"><tag k="addr:street" v="Man O War Drive"/><tag k="addr:housenumber" v="1304"/></node><node id="-164" lat="30.222903" lon="-97.518771" changeset="false"><tag k="addr:street" v="Man O War Drive"/><tag k="addr:housenumber" v="1405"/></node><node id="-165" lat="30.20502" lon="-97.638421" changeset="false"><tag k="addr:street" v="Mary Street"/><tag k="addr:housenumber" v="3110"/></node><node id="-166" lat="30.213987" lon="-97.518519" changeset="false"><tag k="addr:street" v="Citation Drive"/><tag k="addr:housenumber" v="2402"/></node><node id="-167" lat="30.219437" lon="-97.518249" changeset="false"><tag k="addr:street" v="Citation Drive"/><tag k="addr:housenumber" v="1803"/></node><node id="-168" lat="30.189901" lon="-97.559417" changeset="false"><tag k="addr:street" v="Greenwood Drive"/><tag k="addr:housenumber" v="16324"/></node><node id="-169" lat="30.22351" lon="-97.521153" changeset="false"><tag k="addr:street" v="Citation Circle"/><tag k="addr:housenumber" v="1401"/></node><node id="-170" lat="30.219598" lon="-97.520178" changeset="false"><tag k="addr:street" v="Citation Drive"/><tag k="addr:housenumber" v="1702"/></node><node id="-171" lat="30.188958" lon="-97.561584" changeset="false"><tag k="addr:street" v="Greenwood Drive"/><tag k="addr:housenumber" v="16216"/></node><node id="-172" lat="30.194738" lon="-97.59176" changeset="false"><tag k="addr:street" v="Doctor Scott Drive"/><tag k="addr:housenumber" v="3703"/></node><node id="-173" lat="30.226534" lon="-97.521395" changeset="false"><tag k="addr:street" v="Citation Circle"/><tag k="addr:housenumber" v="1202"/></node><node id="-174" lat="30.210577" lon="-97.523696" changeset="false"><tag k="addr:street" v="Citation Drive"/><tag k="addr:housenumber" v="2737"/></node><node id="-175" lat="30.21067" lon="-97.618057" changeset="false"><tag k="addr:street" v="Fallwell Lane"/><tag k="addr:housenumber" v="1513 1/2"/></node><node id="-176" lat="30.189414" lon="-97.517211" changeset="false"><tag k="addr:street" v="River Road"/><tag k="addr:housenumber" v="4208"/></node><node id="-177" lat="30.196209" lon="-97.51313" changeset="false"><tag k="addr:street" v="River Road"/><tag k="addr:housenumber" v="3708"/></node><node id="-178" lat="30.21404" lon="-97.528539" changeset="false"><tag k="addr:street" v="Citation Drive"/><tag k="addr:housenumber" v="2769"/></node><node id="-179" lat="30.214411" lon="-97.528308" changeset="false"><tag k="addr:street" v="Citation Drive"/><tag k="addr:housenumber" v="2771"/></node><node id="-180" lat="30.212028" lon="-97.523794" changeset="false"><tag k="addr:street" v="Citation Drive"/><tag k="addr:housenumber" v="2740"/></node><node id="-181" lat="30.218707" lon="-97.521625" changeset="false"><tag k="addr:street" v="Whirlaway Drive"/><tag k="addr:housenumber" v="2003"/></node><node id="-182" lat="30.208071" lon="-97.54345" changeset="false"><tag k="addr:street" v="Caldwell Lane"/><tag k="addr:housenumber" v="2902"/></node><node id="-183" lat="30.188065" lon="-97.555976" changeset="false"><tag k="addr:street" v="Caldwell Lane"/><tag k="addr:housenumber" v="4301"/></node><node id="-184" lat="30.221361" lon="-97.521045" changeset="false"><tag k="addr:street" v="Man O War Drive"/><tag k="addr:housenumber" v="1504"/></node><node id="-185" lat="30.213434" lon="-97.520025" changeset="false"><tag k="addr:street" v="Whirlaway Drive"/><tag k="addr:housenumber" v="2501"/></node><node id="-186" lat="30.208174" lon="-97.522333" changeset="false"><tag k="addr:street" v="Whirlaway Drive"/><tag k="addr:housenumber" v="2811"/></node><node id="-187" lat="30.189952" lon="-97.534564" changeset="false"><tag k="addr:street" v="Buck Lane"/><tag k="addr:housenumber" v="4111"/></node><node id="-188" lat="30.190172" lon="-97.554128" changeset="false"><tag k="addr:street" v="Caldwell Lane"/><tag k="addr:housenumber" v="4115"/></node><node id="-189" lat="30.209346" lon="-97.52116" changeset="false"><tag k="addr:street" v="Whirlaway Drive"/><tag k="addr:housenumber" v="2803"/></node><node id="-190" lat="30.206844" lon="-97.635377" changeset="false"><tag k="addr:street" v="Guerrero Drive"/><tag k="addr:housenumber" v="3008"/></node><node id="-191" lat="30.217602" lon="-97.527985" changeset="false"><tag k="addr:street" v="River Timber Drive"/><tag k="addr:housenumber" v="18300"/></node><node id="-192" lat="30.199612" lon="-97.509555" changeset="false"><tag k="addr:street" v="River Road"/><tag k="addr:housenumber" v="3515"/></node><node id="-193" lat="30.215556" lon="-97.520973" changeset="false"><tag k="addr:street" v="Whirlaway Drive"/><tag k="addr:housenumber" v="2300"/></node><node id="-194" lat="30.205801" lon="-97.633905" changeset="false"><tag k="addr:street" v="Fallwell Lane"/><tag k="addr:housenumber" v="3016"/></node><node id="-195" lat="30.205499" lon="-97.635352" changeset="false"><tag k="addr:street" v="Puebla Drive"/><tag k="addr:housenumber" v="3013"/></node><node id="-196" lat="30.18773" lon="-97.516973" changeset="false"><tag k="addr:street" v="Meadow Drive"/><tag k="addr:housenumber" v="4401"/></node><node id="-197" lat="30.21575" lon="-97.523695" changeset="false"><tag k="addr:street" v="Man O War Drive"/><tag k="addr:housenumber" v="2303"/></node><node id="-198" lat="30.20284" lon="-97.544681" changeset="false"><tag k="addr:street" v="Caldwell Lane"/><tag k="addr:housenumber" v="3131"/></node><node id="-199" lat="30.200748" lon="-97.546543" changeset="false"><tag k="addr:street" v="Caldwell Lane"/><tag k="addr:housenumber" v="3305"/></node><node id="-200" lat="30.20373" lon="-97.507652" changeset="false"><tag k="addr:street" v="River Road"/><tag k="addr:housenumber" v="3206"/></node><node id="-201" lat="30.203035" lon="-97.508125" changeset="false"><tag k="addr:street" v="River Road"/><tag k="addr:housenumber" v="3218"/></node><node id="-202" lat="30.189901" lon="-97.516973" changeset="false"><tag k="addr:street" v="River Road"/><tag k="addr:housenumber" v="4204"/></node><node id="-203" lat="30.218627" lon="-97.523539" changeset="false"><tag k="addr:street" v="Man O War Drive"/><tag k="addr:housenumber" v="2000"/></node><node id="-204" lat="30.192625" lon="-97.514189" changeset="false"><tag k="addr:street" v="River Road"/><tag k="addr:housenumber" v="4001"/></node><node id="-205" lat="30.186114" lon="-97.519606" changeset="false"><tag k="addr:street" v="Tucker Hill Lane"/><tag k="addr:housenumber" v="4509"/></node><node id="-206" lat="30.193287" lon="-97.548442" changeset="false"><tag k="addr:street" v="Caldwell Lane"/><tag k="addr:housenumber" v="3813"/></node><node id="-207" lat="30.194333" lon="-97.513176" changeset="false"><tag k="addr:street" v="River Road"/><tag k="addr:housenumber" v="3811"/></node><node id="-208" lat="30.193383" lon="-97.513732" changeset="false"><tag k="addr:street" v="River Road"/><tag k="addr:housenumber" v="3907"/></node><node id="-209" lat="30.192303" lon="-97.524628" changeset="false"><tag k="addr:street" v="Buck Lane"/><tag k="addr:housenumber" v="3815"/></node><node id="-210" lat="30.212725" lon="-97.518457" changeset="false"><tag k="addr:street" v="Citation Drive"/><tag k="addr:housenumber" v="2502"/></node><node id="-211" lat="30.211004" lon="-97.518523" changeset="false"><tag k="addr:street" v="Citation Drive"/><tag k="addr:housenumber" v="2700"/></node><node id="-212" lat="30.21861" lon="-97.51803" changeset="false"><tag k="addr:street" v="Citation Drive"/><tag k="addr:housenumber" v="1901"/></node><node id="-213" lat="30.218245" lon="-97.519269" changeset="false"><tag k="addr:street" v="Citation Drive"/><tag k="addr:housenumber" v="1900"/></node><node id="-214" lat="30.210071" lon="-97.522289" changeset="false"><tag k="addr:street" v="Citation Drive"/><tag k="addr:housenumber" v="2731"/></node><node id="-215" lat="30.220361" lon="-97.522317" changeset="false"><tag k="addr:street" v="Man O War Drive"/><tag k="addr:housenumber" v="1602"/></node><node id="-216" lat="30.226716" lon="-97.520538" changeset="false"><tag k="addr:street" v="Citation Circle"/><tag k="addr:housenumber" v="1200"/></node><node id="-217" lat="30.20122" lon="-97.553291" changeset="false"><tag k="addr:street" v="Victorine Lane"/><tag k="addr:housenumber" v="3401"/></node><node id="-218" lat="30.191862" lon="-97.515464" changeset="false"><tag k="addr:street" v="River Road"/><tag k="addr:housenumber" v="4008"/></node><node id="-219" lat="30.190073" lon="-97.537178" changeset="false"><tag k="addr:street" v="Buck Lane"/><tag k="addr:housenumber" v="4220"/></node><node id="-220" lat="30.223935" lon="-97.521119" changeset="false"><tag k="addr:street" v="Citation Circle"/><tag k="addr:housenumber" v="1307"/></node><node id="-221" lat="30.197717" lon="-97.510943" changeset="false"><tag k="addr:street" v="River Road"/><tag k="addr:housenumber" v="3603"/></node><node id="-222" lat="30.185554" lon="-97.519648" changeset="false"><tag k="addr:street" v="Meadow Drive"/><tag k="addr:housenumber" v="4517"/></node><node id="-223" lat="30.221173" lon="-97.520471" changeset="false"><tag k="addr:street" v="Man O War Drive"/><tag k="addr:housenumber" v="1509"/></node><node id="-224" lat="30.216147" lon="-97.527633" changeset="false"><tag k="addr:street" v="River Timber Drive"/><tag k="addr:housenumber" v="18305"/></node><node id="-225" lat="30.21149" lon="-97.522648" changeset="false"><tag k="addr:street" v="Citation Drive"/><tag k="addr:housenumber" v="2732"/></node><node id="-226" lat="30.212801" lon="-97.525565" changeset="false"><tag k="addr:street" v="Citation Drive"/><tag k="addr:housenumber" v="2750"/></node><node id="-227" lat="30.215898" lon="-97.51862" changeset="false"><tag k="addr:street" v="Citation Drive"/><tag k="addr:housenumber" v="2200"/></node><node id="-228" lat="30.211842" lon="-97.526406" changeset="false"><tag k="addr:street" v="Citation Drive"/><tag k="addr:housenumber" v="2753"/></node><node id="-229" lat="30.197914" lon="-97.530407" changeset="false"><tag k="addr:street" v="Buck Lane"/><tag k="addr:housenumber" v="3607"/></node><node id="-230" lat="30.222367" lon="-97.520358" changeset="false"><tag k="addr:street" v="Man O War Drive"/><tag k="addr:housenumber" v="1500"/></node><node id="-231" lat="30.20666" lon="-97.638297" changeset="false"><tag k="addr:street" v="Farm-to-Market Road 973"/><tag k="addr:housenumber" v="3005 1/2"/></node><node id="-232" lat="30.184484" lon="-97.52055" changeset="false"><tag k="addr:street" v="Tucker Hill Lane"/><tag k="addr:housenumber" v="4601"/></node><node id="-233" lat="30.217274" lon="-97.52015" changeset="false"><tag k="addr:street" v="Whirlaway Drive"/><tag k="addr:housenumber" v="2105"/></node><node id="-234" lat="30.205001" lon="-97.638169" changeset="false"><tag k="addr:street" v="Mary Street"/><tag k="addr:housenumber" v="3104"/></node><node id="-235" lat="30.187865" lon="-97.561775" changeset="false"><tag k="addr:street" v="Albert Brown Drive"/><tag k="addr:housenumber" v="5103"/></node><node id="-236" lat="30.213421" lon="-97.540406" changeset="false"><tag k="addr:street" v="Caldwell Lane"/><tag k="addr:housenumber" v="2400"/></node><node id="-237" lat="30.207711" lon="-97.544939" changeset="false"><tag k="addr:street" v="Caldwell Lane"/><tag k="addr:housenumber" v="2928"/></node><node id="-238" lat="30.207504" lon="-97.543891" changeset="false"><tag k="addr:street" v="Caldwell Lane"/><tag k="addr:housenumber" v="2920"/></node><node id="-239" lat="30.189819" lon="-97.604572" changeset="false"><tag k="addr:street" v="Burch Drive"/><tag k="addr:housenumber" v="4200"/></node><node id="-240" lat="30.205055" lon="-97.63412" changeset="false"><tag k="addr:street" v="Fallwell Lane"/><tag k="addr:housenumber" v="3101"/></node><node id="-241" lat="30.2083" lon="-97.521895" changeset="false"><tag k="addr:street" v="Whirlaway Drive"/><tag k="addr:housenumber" v="2809"/></node><node id="-242" lat="30.206732" lon="-97.634772" changeset="false"><tag k="addr:street" v="Guerrero Drive"/><tag k="addr:housenumber" v="3012"/></node><node id="-243" lat="30.206756" lon="-97.637078" changeset="false"><tag k="addr:street" v="Michoacan Drive"/><tag k="addr:housenumber" v="3004"/></node><node id="-244" lat="30.208675" lon="-97.521664" changeset="false"><tag k="addr:street" v="Whirlaway Drive"/><tag k="addr:housenumber" v="2807"/></node><node id="-245" lat="30.205299" lon="-97.634603" changeset="false"><tag k="addr:street" v="Fallwell Lane"/><tag k="addr:housenumber" v="3100"/></node><node id="-246" lat="30.187994" lon="-97.559549" changeset="false"><tag k="addr:street" v="Albert Brown Drive"/><tag k="addr:housenumber" v="5133"/></node><node id="-247" lat="30.215882" lon="-97.519909" changeset="false"><tag k="addr:street" v="Whirlaway Drive"/><tag k="addr:housenumber" v="2301"/></node><node id="-248" lat="30.190123" lon="-97.538894" changeset="false"><tag k="addr:street" v="Buck Lane"/><tag k="addr:housenumber" v="4224"/></node><node id="-249" lat="30.200978" lon="-97.508631" changeset="false"><tag k="addr:street" v="River Road"/><tag k="addr:housenumber" v="3505"/></node><node id="-250" lat="30.18656" lon="-97.518511" changeset="false"><tag k="addr:street" v="Meadow Drive"/><tag k="addr:housenumber" v="4424"/></node><node id="-251" lat="30.203163" lon="-97.507041" changeset="false"><tag k="addr:street" v="River Road"/><tag k="addr:housenumber" v="3205"/></node><node id="-252" lat="30.204002" lon="-97.507397" changeset="false"><tag k="addr:street" v="River Road"/><tag k="addr:housenumber" v="3202"/></node><node id="-253" lat="30.20337" lon="-97.63781" changeset="false"><tag k="addr:street" v="Bessie Avenue"/><tag k="addr:housenumber" v="3206"/></node><node id="-254" lat="30.196303" lon="-97.548168" changeset="false"><tag k="addr:street" v="Caldwell Lane"/><tag k="addr:housenumber" v="3621"/></node><node id="-255" lat="30.192518" lon="-97.551832" changeset="false"><tag k="addr:street" v="Caldwell Lane"/><tag k="addr:housenumber" v="3935"/></node><node id="-256" lat="30.22247" lon="-97.519075" changeset="false"><tag k="addr:street" v="Man O War Drive"/><tag k="addr:housenumber" v="1407"/></node><node id="-257" lat="30.205725" lon="-97.63434" changeset="false"><tag k="addr:street" v="Puebla Drive"/><tag k="addr:housenumber" v="3018"/></node><node id="-258" lat="30.205697" lon="-97.636421" changeset="false"><tag k="addr:street" v="Puebla Drive"/><tag k="addr:housenumber" v="3007"/></node><node id="-259" lat="30.212662" lon="-97.525184" changeset="false"><tag k="addr:street" v="Citation Drive"/><tag k="addr:housenumber" v="2748"/></node><node id="-260" lat="30.214903" lon="-97.526942" changeset="false"><tag k="addr:street" v="Citation Drive"/><tag k="addr:housenumber" v="2774"/></node><node id="-261" lat="30.213565" lon="-97.518539" changeset="false"><tag k="addr:street" v="Citation Drive"/><tag k="addr:housenumber" v="2404"/></node><node id="-262" lat="30.213149" lon="-97.518494" changeset="false"><tag k="addr:street" v="Citation Drive"/><tag k="addr:housenumber" v="2500"/></node><node id="-263" lat="30.211475" lon="-97.518452" changeset="false"><tag k="addr:street" v="Citation Drive"/><tag k="addr:housenumber" v="2602"/></node><node id="-264" lat="30.19182" lon="-97.603531" changeset="false"><tag k="addr:street" v="Burch Drive"/><tag k="addr:housenumber" v="4008"/></node><node id="-265" lat="30.199984" lon="-97.553642" changeset="false"><tag k="addr:street" v="Victorine Lane"/><tag k="addr:housenumber" v="3504"/></node><node id="-266" lat="30.200949" lon="-97.509097" changeset="false"><tag k="addr:street" v="River Road"/><tag k="addr:housenumber" v="3502"/></node><node id="-267" lat="30.201264" lon="-97.509905" changeset="false"><tag k="addr:street" v="River Road"/><tag k="addr:housenumber" v="3404"/></node><node id="-268" lat="30.216264" lon="-97.527895" changeset="false"><tag k="addr:street" v="River Timber Drive"/><tag k="addr:housenumber" v="18303"/></node><node id="-269" lat="30.225094" lon="-97.520802" changeset="false"><tag k="addr:street" v="Citation Circle"/><tag k="addr:housenumber" v="1301"/></node><node id="-270" lat="30.198043" lon="-97.511659" changeset="false"><tag k="addr:street" v="River Road"/><tag k="addr:housenumber" v="3602"/></node><node id="-271" lat="30.226096" lon="-97.521583" changeset="false"><tag k="addr:street" v="Citation Circle"/><tag k="addr:housenumber" v="1204"/></node><node id="-272" lat="30.217374" lon="-97.537713" changeset="false"><tag k="addr:street" v="Caldwell Lane"/><tag k="addr:housenumber" v="2020"/></node><node id="-273" lat="30.187417" lon="-97.51862" changeset="false"><tag k="addr:street" v="Tucker Hill Lane"/><tag k="addr:housenumber" v="4401"/></node><node id="-274" lat="30.215839" lon="-97.517227" changeset="false"><tag k="addr:street" v="Citation Drive"/><tag k="addr:housenumber" v="2203"/></node><node id="-275" lat="30.216458" lon="-97.524505" changeset="false"><tag k="addr:street" v="Man O War Drive"/><tag k="addr:housenumber" v="2300"/></node><node id="-276" lat="30.221279" lon="-97.52012" changeset="false"><tag k="addr:street" v="Man O War Drive"/><tag k="addr:housenumber" v="1507"/></node><node id="-277" lat="30.216973" lon="-97.522846" changeset="false"><tag k="addr:street" v="Man O War Drive"/><tag k="addr:housenumber" v="2103"/></node><node id="-278" lat="30.216959" lon="-97.524431" changeset="false"><tag k="addr:street" v="Man O War Drive"/><tag k="addr:housenumber" v="2202"/></node><node id="-279" lat="30.187145" lon="-97.554249" changeset="false"><tag k="addr:street" v="Albert Brown Drive"/><tag k="addr:housenumber" v="5203"/></node><node id="-280" lat="30.209946" lon="-97.52163" changeset="false"><tag k="addr:street" v="Whirlaway Drive"/><tag k="addr:housenumber" v="2800"/></node><node id="-281" lat="30.214523" lon="-97.520848" changeset="false"><tag k="addr:street" v="Whirlaway Drive"/><tag k="addr:housenumber" v="2400"/></node><node id="-282" lat="30.18894" lon="-97.5612" changeset="false"><tag k="addr:street" v="Greenwood Drive"/><tag k="addr:housenumber" v="16219"/></node><node id="-283" lat="30.219972" lon="-97.522576" changeset="false"><tag k="addr:street" v="Man O War Drive"/><tag k="addr:housenumber" v="1800"/></node><node id="-284" lat="30.219577" lon="-97.522834" changeset="false"><tag k="addr:street" v="Man O War Drive"/><tag k="addr:housenumber" v="1802"/></node><node id="-285" lat="30.216245" lon="-97.518709" changeset="false"><tag k="addr:street" v="Citation Drive"/><tag k="addr:housenumber" v="2102"/></node><node id="-286" lat="30.213723" lon="-97.541733" changeset="false"><tag k="addr:street" v="Caldwell Lane"/><tag k="addr:housenumber" v="2520"/></node><node id="-287" lat="30.193291" lon="-97.594458" changeset="false"><tag k="addr:street" v="Doctor Scott Drive"/><tag k="addr:housenumber" v="3915"/></node><node id="-288" lat="30.211744" lon="-97.523094" changeset="false"><tag k="addr:street" v="Citation Drive"/><tag k="addr:housenumber" v="2736"/></node><node id="-289" lat="30.197549" lon="-97.554735" changeset="false"><tag k="addr:street" v="Victorine Lane"/><tag k="addr:housenumber" v="3620"/></node><node id="-290" lat="30.205302" lon="-97.638129" changeset="false"><tag k="addr:street" v="Mary Street"/><tag k="addr:housenumber" v="3109"/></node><node id="-291" lat="30.192028" lon="-97.548582" changeset="false"><tag k="addr:street" v="Caldwell Lane"/><tag k="addr:housenumber" v="3913"/></node><node id="-292" lat="30.197261" lon="-97.512064" changeset="false"><tag k="addr:street" v="River Road"/><tag k="addr:housenumber" v="3608"/></node><node id="-293" lat="30.189019" lon="-97.555337" changeset="false"><tag k="addr:street" v="Caldwell Lane"/><tag k="addr:housenumber" v="4215"/></node><node id="-294" lat="30.190845" lon="-97.604258" changeset="false"><tag k="addr:street" v="Burch Drive"/><tag k="addr:housenumber" v="4100"/></node><node id="-295" lat="30.210955" lon="-97.52105" changeset="false"><tag k="addr:street" v="Whirlaway Drive"/><tag k="addr:housenumber" v="2702"/></node><node id="-296" lat="30.216278" lon="-97.538456" changeset="false"><tag k="addr:street" v="Caldwell Lane"/><tag k="addr:housenumber" v="2100"/></node><node id="-297" lat="30.21513" lon="-97.539186" changeset="false"><tag k="addr:street" v="Caldwell Lane"/><tag k="addr:housenumber" v="2200"/></node><node id="-298" lat="30.222784" lon="-97.522245" changeset="false"><tag k="addr:street" v="Citation Circle"/><tag k="addr:housenumber" v="1404"/></node><node id="-299" lat="30.222047" lon="-97.52241" changeset="false"><tag k="addr:street" v="Citation Circle"/><tag k="addr:housenumber" v="1500"/></node><node id="-300" lat="30.221542" lon="-97.522409" changeset="false"><tag k="addr:street" v="Citation Circle"/><tag k="addr:housenumber" v="1502"/></node><node id="-301" lat="30.211697" lon="-97.52606" changeset="false"><tag k="addr:street" v="Citation Drive"/><tag k="addr:housenumber" v="2751"/></node><node id="-302" lat="30.196936" lon="-97.593322" changeset="false"><tag k="addr:street" v="Doctor Scott Drive"/><tag k="addr:housenumber" v="3700"/></node><node id="-303" lat="30.210591" lon="-97.518626" changeset="false"><tag k="addr:street" v="Citation Drive"/><tag k="addr:housenumber" v="2702"/></node><node id="-304" lat="30.192485" lon="-97.530599" changeset="false"><tag k="addr:street" v="Buck Lane"/><tag k="addr:housenumber" v="3811"/></node><node id="-305" lat="30.200375" lon="-97.510405" changeset="false"><tag k="addr:street" v="River Road"/><tag k="addr:housenumber" v="3414"/></node><node id="-306" lat="30.210672" lon="-97.540942" changeset="false"><tag k="addr:street" v="Caldwell Lane"/><tag k="addr:housenumber" v="2705"/></node><node id="-307" lat="30.212876" lon="-97.521353" changeset="false"><tag k="addr:street" v="River Timber Drive"/><tag k="addr:housenumber" v="18707"/></node><node id="-308" lat="30.188338" lon="-97.562016" changeset="false"><tag k="addr:street" v="Greenwood Drive"/><tag k="addr:housenumber" v="16206"/></node><node id="-309" lat="30.199385" lon="-97.54723" changeset="false"><tag k="addr:street" v="Caldwell Lane"/><tag k="addr:housenumber" v="3409"/></node><node id="-310" lat="30.217361" lon="-97.517701" changeset="false"><tag k="addr:street" v="Citation Drive"/><tag k="addr:housenumber" v="2003"/></node><node id="-311" lat="30.214976" lon="-97.517001" changeset="false"><tag k="addr:street" v="Citation Drive"/><tag k="addr:housenumber" v="2303"/></node><node id="-312" lat="30.209779" lon="-97.517076" changeset="false"><tag k="addr:street" v="Citation Drive"/><tag k="addr:housenumber" v="2707"/></node><node id="-313" lat="30.215121" lon="-97.538415" changeset="false"><tag k="addr:street" v="Caldwell Lane"/><tag k="addr:housenumber" v="2137"/></node><node id="-314" lat="30.194056" lon="-97.594027" changeset="false"><tag k="addr:street" v="Doctor Scott Drive"/><tag k="addr:housenumber" v="3901"/></node><node id="-315" lat="30.216641" lon="-97.518788" changeset="false"><tag k="addr:street" v="Citation Drive"/><tag k="addr:housenumber" v="2100"/></node><node id="-316" lat="30.205305" lon="-97.506114" changeset="false"><tag k="addr:street" v="River Road"/><tag k="addr:housenumber" v="3106"/></node><node id="-317" lat="30.196984" lon="-97.511452" changeset="false"><tag k="addr:street" v="River Road"/><tag k="addr:housenumber" v="3609"/></node><node id="-318" lat="30.196521" lon="-97.511796" changeset="false"><tag k="addr:street" v="River Road"/><tag k="addr:housenumber" v="3703"/></node><node id="-319" lat="30.220266" lon="-97.519031" changeset="false"><tag k="addr:street" v="Citation Drive"/><tag k="addr:housenumber" v="1705"/></node><node id="-320" lat="30.217664" lon="-97.524108" changeset="false"><tag k="addr:street" v="Man O War Drive"/><tag k="addr:housenumber" v="2102"/></node><node id="-321" lat="30.21501" lon="-97.524057" changeset="false"><tag k="addr:street" v="River Timber Drive"/><tag k="addr:housenumber" v="18506"/></node><node id="-322" lat="30.212185" lon="-97.524146" changeset="false"><tag k="addr:street" v="Citation Drive"/><tag k="addr:housenumber" v="2742"/></node><node id="-323" lat="30.190776" lon="-97.553783" changeset="false"><tag k="addr:street" v="Caldwell Lane"/><tag k="addr:housenumber" v="4107"/></node><node id="-324" lat="30.225369" lon="-97.520554" changeset="false"><tag k="addr:street" v="Citation Circle"/><tag k="addr:housenumber" v="1205"/></node><node id="-325" lat="30.209033" lon="-97.516171" changeset="false"><tag k="addr:street" v="Citation Drive"/><tag k="addr:housenumber" v="2709"/></node><node id="-326" lat="30.212499" lon="-97.524831" changeset="false"><tag k="addr:street" v="Citation Drive"/><tag k="addr:housenumber" v="2746"/></node><node id="-327" lat="30.225465" lon="-97.52192" changeset="false"><tag k="addr:street" v="Citation Circle"/><tag k="addr:housenumber" v="1300"/></node><node id="-328" lat="30.200452" lon="-97.553471" changeset="false"><tag k="addr:street" v="Victorine Lane"/><tag k="addr:housenumber" v="3502"/></node><node id="-329" lat="30.22208" lon="-97.521301" changeset="false"><tag k="addr:street" v="Citation Circle"/><tag k="addr:housenumber" v="1501"/></node><node id="-330" lat="30.223544" lon="-97.522175" changeset="false"><tag k="addr:street" v="Citation Circle"/><tag k="addr:housenumber" v="1400"/></node><node id="-331" lat="30.222426" lon="-97.522288" changeset="false"><tag k="addr:street" v="Citation Circle"/><tag k="addr:housenumber" v="1406"/></node><node id="-332" lat="30.21046" lon="-97.523225" changeset="false"><tag k="addr:street" v="Citation Drive"/><tag k="addr:housenumber" v="2735"/></node><node id="-333" lat="30.210676" lon="-97.523995" changeset="false"><tag k="addr:street" v="Citation Drive"/><tag k="addr:housenumber" v="2739"/></node><node id="-334" lat="30.211353" lon="-97.525383" changeset="false"><tag k="addr:street" v="Citation Drive"/><tag k="addr:housenumber" v="2747"/></node><node id="-335" lat="30.186821" lon="-97.518385" changeset="false"><tag k="addr:street" v="Meadow Drive"/><tag k="addr:housenumber" v="4420"/></node><node id="-336" lat="30.21201" lon="-97.526745" changeset="false"><tag k="addr:street" v="Citation Drive"/><tag k="addr:housenumber" v="2755"/></node><node id="-337" lat="30.212689" lon="-97.52818" changeset="false"><tag k="addr:street" v="Citation Drive"/><tag k="addr:housenumber" v="2763"/></node><node id="-338" lat="30.212625" lon="-97.540426" changeset="false"><tag k="addr:street" v="Caldwell Lane"/><tag k="addr:housenumber" v="2500"/></node><node id="-339" lat="30.187552" lon="-97.558439" changeset="false"><tag k="addr:street" v="Albert Brown Drive"/><tag k="addr:housenumber" v="5157"/></node><node id="-340" lat="30.219784" lon="-97.520511" changeset="false"><tag k="addr:street" v="Citation Drive"/><tag k="addr:housenumber" v="1700"/></node><node id="-341" lat="30.217834" lon="-97.519124" changeset="false"><tag k="addr:street" v="Citation Drive"/><tag k="addr:housenumber" v="1902"/></node><node id="-342" lat="30.212324" lon="-97.524486" changeset="false"><tag k="addr:street" v="Citation Drive"/><tag k="addr:housenumber" v="2744"/></node><node id="-343" lat="30.215102" lon="-97.519823" changeset="false"><tag k="addr:street" v="Whirlaway Drive"/><tag k="addr:housenumber" v="2305"/></node><node id="-344" lat="30.189121" lon="-97.517457" changeset="false"><tag k="addr:street" v="River Road"/><tag k="addr:housenumber" v="4210"/></node><node id="-345" lat="30.203942" lon="-97.507072" changeset="false"><tag k="addr:street" v="River Road"/><tag k="addr:housenumber" v="3200"/></node><node id="-346" lat="30.196769" lon="-97.511604" changeset="false"><tag k="addr:street" v="River Road"/><tag k="addr:housenumber" v="3701"/></node><node id="-347" lat="30.220584" lon="-97.519668" changeset="false"><tag k="addr:street" v="Citation Drive"/><tag k="addr:housenumber" v="1701"/></node><node id="-348" lat="30.211014" lon="-97.541734" changeset="false"><tag k="addr:street" v="Caldwell Lane"/><tag k="addr:housenumber" v="2702"/></node><node id="-349" lat="30.220104" lon="-97.537011" changeset="false"><tag k="addr:street" v="Caldwell Lane"/><tag k="addr:housenumber" v="1800"/></node><node id="-350" lat="30.214163" lon="-97.521866" changeset="false"><tag k="addr:street" v="River Timber Drive"/><tag k="addr:housenumber" v="18700"/></node><node id="-351" lat="30.189294" lon="-97.516437" changeset="false"><tag k="addr:street" v="River Road"/><tag k="addr:housenumber" v="4207"/></node><node id="-352" lat="30.218548" lon="-97.521306" changeset="false"><tag k="addr:street" v="Whirlaway Drive"/><tag k="addr:housenumber" v="2005"/></node><node id="-353" lat="30.217329" lon="-97.521316" changeset="false"><tag k="addr:street" v="Whirlaway Drive"/><tag k="addr:housenumber" v="2100"/></node><node id="-354" lat="30.19626" lon="-97.511909" changeset="false"><tag k="addr:street" v="River Road"/><tag k="addr:housenumber" v="3705"/></node><node id="-355" lat="30.200912" lon="-97.509794" changeset="false"><tag k="addr:street" v="River Road"/><tag k="addr:housenumber" v="3407"/></node><node id="-356" lat="30.187156" lon="-97.518733" changeset="false"><tag k="addr:street" v="Tucker Hill Lane"/><tag k="addr:housenumber" v="4405"/></node><node id="-357" lat="30.199809" lon="-97.510697" changeset="false"><tag k="addr:street" v="River Road"/><tag k="addr:housenumber" v="3520"/></node><node id="-358" lat="30.198934" lon="-97.511026" changeset="false"><tag k="addr:street" v="River Road"/><tag k="addr:housenumber" v="3526"/></node><node id="-359" lat="30.21591" lon="-97.527158" changeset="false"><tag k="addr:street" v="River Timber Drive"/><tag k="addr:housenumber" v="18307"/></node><node id="-360" lat="30.211043" lon="-97.521589" changeset="false"><tag k="addr:street" v="Citation Drive"/><tag k="addr:housenumber" v="2728"/></node><node id="-361" lat="30.21121" lon="-97.522113" changeset="false"><tag k="addr:street" v="Citation Drive"/><tag k="addr:housenumber" v="2730"/></node><node id="-362" lat="30.211865" lon="-97.523434" changeset="false"><tag k="addr:street" v="Citation Drive"/><tag k="addr:housenumber" v="2738"/></node><node id="-363" lat="30.21296" lon="-97.525886" changeset="false"><tag k="addr:street" v="Citation Drive"/><tag k="addr:housenumber" v="2752"/></node><node id="-364" lat="30.20306" lon="-97.637301" changeset="false"><tag k="addr:street" v="Bessie Avenue"/><tag k="addr:housenumber" v="3203"/></node><node id="-365" lat="30.205036" lon="-97.638245" changeset="false"><tag k="addr:street" v="Mary Street"/><tag k="addr:housenumber" v="3102"/></node><node id="-366" lat="30.209941" lon="-97.518711" changeset="false"><tag k="addr:street" v="Citation Drive"/><tag k="addr:housenumber" v="2712"/></node><node id="-367" lat="30.192642" lon="-97.603622" changeset="false"><tag k="addr:street" v="Burch Drive"/><tag k="addr:housenumber" v="4000"/></node><node id="-368" lat="30.224306" lon="-97.522058" changeset="false"><tag k="addr:street" v="Citation Circle"/><tag k="addr:housenumber" v="1306"/></node><node id="-369" lat="30.211191" lon="-97.525037" changeset="false"><tag k="addr:street" v="Citation Drive"/><tag k="addr:housenumber" v="2745"/></node><node id="-370" lat="30.225451" lon="-97.519572" changeset="false"><tag k="addr:street" v="Man O War Drive"/><tag k="addr:housenumber" v="1300"/></node><node id="-371" lat="30.200915" lon="-97.529103" changeset="false"><tag k="addr:street" v="Buck Lane"/><tag k="addr:housenumber" v="3400"/></node><node id="-372" lat="30.186325" lon="-97.518755" changeset="false"><tag k="addr:street" v="Meadow Drive"/><tag k="addr:housenumber" v="4500"/></node><node id="-373" lat="30.185593" lon="-97.519331" changeset="false"><tag k="addr:street" v="Meadow Drive"/><tag k="addr:housenumber" v="4513"/></node><node id="-374" lat="30.217774" lon="-97.517849" changeset="false"><tag k="addr:street" v="Citation Drive"/><tag k="addr:housenumber" v="2001"/></node><node id="-375" lat="30.216955" lon="-97.517568" changeset="false"><tag k="addr:street" v="Citation Drive"/><tag k="addr:housenumber" v="2101"/></node><node id="-376" lat="30.21405" lon="-97.516952" changeset="false"><tag k="addr:street" v="Citation Drive"/><tag k="addr:housenumber" v="2403"/></node><node id="-377" lat="30.192772" lon="-97.513865" changeset="false"><tag k="addr:street" v="River Road"/><tag k="addr:housenumber" v="3911"/></node><node id="-378" lat="30.213004" lon="-97.528665" changeset="false"><tag k="addr:street" v="Citation Drive"/><tag k="addr:housenumber" v="2765"/></node><node id="-379" lat="30.213586" lon="-97.5288" changeset="false"><tag k="addr:street" v="Citation Drive"/><tag k="addr:housenumber" v="2767"/></node><node id="-380" lat="30.210168" lon="-97.522834" changeset="false"><tag k="addr:street" v="Citation Drive"/><tag k="addr:housenumber" v="2733"/></node><node id="-381" lat="30.200579" lon="-97.528823" changeset="false"><tag k="addr:street" v="Buck Lane"/><tag k="addr:housenumber" v="3505"/></node><node id="-382" lat="30.21305" lon="-97.51998" changeset="false"><tag k="addr:street" v="Whirlaway Drive"/><tag k="addr:housenumber" v="2503"/></node><node id="-383" lat="30.203699" lon="-97.63813" changeset="false"><tag k="addr:street" v="Eva Street"/><tag k="addr:housenumber" v="3176"/></node><node id="-384" lat="30.224173" lon="-97.518512" changeset="false"><tag k="addr:street" v="Man O War Drive"/><tag k="addr:housenumber" v="1307"/></node><node id="-385" lat="30.187714" lon="-97.559088" changeset="false"><tag k="addr:street" v="Albert Brown Drive"/><tag k="addr:housenumber" v="5141"/></node><node id="-386" lat="30.212412" lon="-97.614464" changeset="false"><tag k="addr:street" v="Fallwell Lane"/><tag k="addr:housenumber" v="1100"/></node><node id="-387" lat="30.20711" lon="-97.636752" changeset="false"><tag k="addr:street" v="Michoacan Drive"/><tag k="addr:housenumber" v="3000"/></node><node id="-388" lat="30.204414" lon="-97.634841" changeset="false"><tag k="addr:street" v="Fallwell Lane"/><tag k="addr:housenumber" v="3109"/></node><node id="-389" lat="30.197082" lon="-97.530855" changeset="false"><tag k="addr:street" v="Buck Lane"/><tag k="addr:housenumber" v="3615"/></node><node id="-390" lat="30.199202" lon="-97.555397" changeset="false"><tag k="addr:street" v="Victorine Lane"/><tag k="addr:housenumber" v="3524"/></node><node id="-391" lat="30.208839" lon="-97.522614" changeset="false"><tag k="addr:street" v="Whirlaway Drive"/><tag k="addr:housenumber" v="2806"/></node><node id="-392" lat="30.207605" lon="-97.517689" changeset="false"><tag k="addr:street" v="Citation Drive"/><tag k="addr:housenumber" v="2715"/></node><node id="-393" lat="30.21549" lon="-97.519903" changeset="false"><tag k="addr:street" v="Whirlaway Drive"/><tag k="addr:housenumber" v="2303"/></node><node id="-394" lat="30.189533" lon="-97.554251" changeset="false"><tag k="addr:street" v="Caldwell Lane"/><tag k="addr:housenumber" v="4201"/></node><node id="-395" lat="30.206574" lon="-97.63663" changeset="false"><tag k="addr:street" v="Michoacan Drive"/><tag k="addr:housenumber" v="3005"/></node><node id="-396" lat="30.21603" lon="-97.52104" changeset="false"><tag k="addr:street" v="Whirlaway Drive"/><tag k="addr:housenumber" v="2202"/></node><node id="-397" lat="30.20635" lon="-97.636558" changeset="false"><tag k="addr:street" v="Guerrero Drive"/><tag k="addr:housenumber" v="3000"/></node><node id="-398" lat="30.221606" lon="-97.5194" changeset="false"><tag k="addr:street" v="Man O War Drive"/><tag k="addr:housenumber" v="1503"/></node><node id="-399" lat="30.207587" lon="-97.518613" changeset="false"><tag k="addr:street" v="Citation Drive"/><tag k="addr:housenumber" v="2717"/></node><node id="-400" lat="30.20457" lon="-97.636447" changeset="false"><tag k="addr:street" v="Mary Street"/><tag k="addr:housenumber" v="3133"/></node><node id="-401" lat="30.211747" lon="-97.520075" changeset="false"><tag k="addr:street" v="Whirlaway Drive"/><tag k="addr:housenumber" v="2603"/></node><node id="-402" lat="30.214663" lon="-97.519952" changeset="false"><tag k="addr:street" v="Whirlaway Drive"/><tag k="addr:housenumber" v="2401"/></node><node id="-403" lat="30.225049" lon="-97.519607" changeset="false"><tag k="addr:street" v="Man O War Drive"/><tag k="addr:housenumber" v="1302"/></node><node id="-404" lat="30.197755" lon="-97.554763" changeset="false"><tag k="addr:street" v="Victorine Lane"/><tag k="addr:housenumber" v="3616"/></node><node id="-405" lat="30.196391" lon="-97.555606" changeset="false"><tag k="addr:street" v="Victorine Lane"/><tag k="addr:housenumber" v="3700"/></node><node id="-406" lat="30.202713" lon="-97.533058" changeset="false"><tag k="addr:street" v="Buck Lane"/><tag k="addr:housenumber" v="3504"/></node><node id="-407" lat="30.188055" lon="-97.606165" changeset="false"><tag k="addr:street" v="Burch Drive"/><tag k="addr:housenumber" v="4304"/></node><node id="-408" lat="30.207857" lon="-97.516802" changeset="false"><tag k="addr:street" v="Citation Drive"/><tag k="addr:housenumber" v="2713"/></node><node id="-409" lat="30.189968" lon="-97.539874" changeset="false"><tag k="addr:street" v="Buck Lane"/><tag k="addr:housenumber" v="4300"/></node><node id="-410" lat="30.211292" lon="-97.520082" changeset="false"><tag k="addr:street" v="Whirlaway Drive"/><tag k="addr:housenumber" v="2701"/></node><node id="-411" lat="30.207042" lon="-97.545199" changeset="false"><tag k="addr:street" v="Caldwell Lane"/><tag k="addr:housenumber" v="2952"/></node><node id="-412" lat="30.213855" lon="-97.520005" changeset="false"><tag k="addr:street" v="Whirlaway Drive"/><tag k="addr:housenumber" v="2405"/></node><node id="-413" lat="30.201201" lon="-97.5538" changeset="false"><tag k="addr:street" v="Victorine Lane"/><tag k="addr:housenumber" v="3400"/></node><node id="-414" lat="30.194739" lon="-97.581621" changeset="false"><tag k="addr:street" v="Norwood Lane"/><tag k="addr:housenumber" v="3901"/></node><node id="-415" lat="30.192893" lon="-97.602612" changeset="false"><tag k="addr:street" v="Burch Drive"/><tag k="addr:housenumber" v="3914"/></node><node id="-416" lat="30.223329" lon="-97.520065" changeset="false"><tag k="addr:street" v="Man O War Drive"/><tag k="addr:housenumber" v="1402"/></node><node id="-417" lat="30.208333" lon="-97.520219" changeset="false"><tag k="addr:street" v="Citation Drive"/><tag k="addr:housenumber" v="2723"/></node><node id="-418" lat="30.18741" lon="-97.554911" changeset="false"><tag k="addr:street" v="Albert Brown Drive"/><tag k="addr:housenumber" v="5191"/></node><node id="-419" lat="30.206353" lon="-97.63593" changeset="false"><tag k="addr:street" v="Guerrero Drive"/><tag k="addr:housenumber" v="3003"/></node><node id="-420" lat="30.214952" lon="-97.520884" changeset="false"><tag k="addr:street" v="Whirlaway Drive"/><tag k="addr:housenumber" v="2302"/></node><node id="-421" lat="30.188537" lon="-97.518652" changeset="false"><tag k="addr:street" v="Tucker Hill Lane"/><tag k="addr:housenumber" v="4300"/></node><node id="-422" lat="30.22194" lon="-97.52072" changeset="false"><tag k="addr:street" v="Man O War Drive"/><tag k="addr:housenumber" v="1502"/></node><node id="-423" lat="30.205427" lon="-97.638638" changeset="false"><tag k="addr:street" v="Mary Street"/><tag k="addr:housenumber" v="3105"/></node><node id="-424" lat="30.205085" lon="-97.634684" changeset="false"><tag k="addr:street" v="Fallwell Lane"/><tag k="addr:housenumber" v="3102"/></node><node id="-425" lat="30.191853" lon="-97.514515" changeset="false"><tag k="addr:street" v="River Road"/><tag k="addr:housenumber" v="4007"/></node><node id="-426" lat="30.191699" lon="-97.51481" changeset="false"><tag k="addr:street" v="River Road"/><tag k="addr:housenumber" v="4009"/></node><node id="-427" lat="30.190597" lon="-97.515251" changeset="false"><tag k="addr:street" v="River Road"/><tag k="addr:housenumber" v="4107"/></node><node id="-428" lat="30.190161" lon="-97.516781" changeset="false"><tag k="addr:street" v="River Road"/><tag k="addr:housenumber" v="4202"/></node><node id="-429" lat="30.213297" lon="-97.526577" changeset="false"><tag k="addr:street" v="Citation Drive"/><tag k="addr:housenumber" v="2756"/></node><node id="-430" lat="30.213762" lon="-97.527615" changeset="false"><tag k="addr:street" v="Citation Drive"/><tag k="addr:housenumber" v="2768"/></node><node id="-431" lat="30.214778" lon="-97.518504" changeset="false"><tag k="addr:street" v="Citation Drive"/><tag k="addr:housenumber" v="2302"/></node><node id="-432" lat="30.212324" lon="-97.518468" changeset="false"><tag k="addr:street" v="Citation Drive"/><tag k="addr:housenumber" v="2504"/></node><node id="-433" lat="30.203474" lon="-97.636765" changeset="false"><tag k="addr:street" v="Bessie Avenue"/><tag k="addr:housenumber" v="3107"/></node><node id="-434" lat="30.19462" lon="-97.549673" changeset="false"><tag k="addr:street" v="Caldwell Lane"/><tag k="addr:housenumber" v="3805"/></node><node id="-435" lat="30.20902" lon="-97.521426" changeset="false"><tag k="addr:street" v="Whirlaway Drive"/><tag k="addr:housenumber" v="2805"/></node><node id="-436" lat="30.21036" lon="-97.54868" changeset="false"><tag k="addr:street" v="Caldwell Lane"/><tag k="addr:housenumber" v="2912"/></node><node id="-437" lat="30.202818" lon="-97.637579" changeset="false"><tag k="addr:street" v="Bessie Avenue"/><tag k="addr:housenumber" v="3207"/></node><node id="-438" lat="30.198006" lon="-97.547109" changeset="false"><tag k="addr:street" v="Caldwell Lane"/><tag k="addr:housenumber" v="3511"/></node><node id="-439" lat="30.218192" lon="-97.517973" changeset="false"><tag k="addr:street" v="Citation Drive"/><tag k="addr:housenumber" v="1903"/></node><node id="-440" lat="30.216198" lon="-97.517338" changeset="false"><tag k="addr:street" v="Citation Drive"/><tag k="addr:housenumber" v="2201"/></node><node id="-441" lat="30.214493" lon="-97.516969" changeset="false"><tag k="addr:street" v="Citation Drive"/><tag k="addr:housenumber" v="2401"/></node><node id="-442" lat="30.213648" lon="-97.516971" changeset="false"><tag k="addr:street" v="Citation Drive"/><tag k="addr:housenumber" v="2405"/></node><node id="-443" lat="30.213236" lon="-97.516694" changeset="false"><tag k="addr:street" v="Citation Drive"/><tag k="addr:housenumber" v="2407"/></node><node id="-444" lat="30.211225" lon="-97.515767" changeset="false"><tag k="addr:street" v="Citation Drive"/><tag k="addr:housenumber" v="2605"/></node><node id="-445" lat="30.206298" lon="-97.635171" changeset="false"><tag k="addr:street" v="Guerrero Drive"/><tag k="addr:housenumber" v="3009"/></node><node id="-446" lat="30.186662" lon="-97.518952" changeset="false"><tag k="addr:street" v="Tucker Hill Lane"/><tag k="addr:housenumber" v="4413"/></node><node id="-447" lat="30.204672" lon="-97.63659" changeset="false"><tag k="addr:street" v="Mary Street"/><tag k="addr:housenumber" v="3131"/></node><node id="-448" lat="30.204666" lon="-97.638133" changeset="false"><tag k="addr:street" v="Alice Avenue"/><tag k="addr:housenumber" v="3104"/></node><node id="-449" lat="30.209684" lon="-97.520848" changeset="false"><tag k="addr:street" v="Whirlaway Drive"/><tag k="addr:housenumber" v="2801"/></node><node id="-450" lat="30.203861" lon="-97.507504" changeset="false"><tag k="addr:street" v="River Road"/><tag k="addr:housenumber" v="3204"/></node><node id="-451" lat="30.205262" lon="-97.637953" changeset="false"><tag k="addr:street" v="Mary Street"/><tag k="addr:housenumber" v="3111"/></node><node id="-452" lat="30.195775" lon="-97.512266" changeset="false"><tag k="addr:street" v="River Road"/><tag k="addr:housenumber" v="3709"/></node><node id="-453" lat="30.200878" lon="-97.50928" changeset="false"><tag k="addr:street" v="River Road"/><tag k="addr:housenumber" v="3508"/></node><node id="-454" lat="30.200521" lon="-97.509713" changeset="false"><tag k="addr:street" v="River Road"/><tag k="addr:housenumber" v="3516"/></node><node id="-455" lat="30.203932" lon="-97.637763" changeset="false"><tag k="addr:street" v="Eva Street"/><tag k="addr:housenumber" v="3177"/></node><node id="-456" lat="30.217985" lon="-97.523924" changeset="false"><tag k="addr:street" v="Man O War Drive"/><tag k="addr:housenumber" v="2100"/></node><node id="-457" lat="30.19455" lon="-97.513645" changeset="false"><tag k="addr:street" v="River Road"/><tag k="addr:housenumber" v="3810"/></node></osm>