<?xml version="1.0" encoding="UTF-8"?><osm version="0.6" generator="github.com/aaronlidman/osm-and-geojson"><node id="-1" lat="30.480256" lon="-97.623056" changeset="false"><tag k="addr:street" v="Timothy John Drive"/><tag k="addr:housenumber" v="605"/><tag k="coa:place_id" v="3146880"/></node><node id="-2" lat="30.480388" lon="-97.624756" changeset="false"><tag k="addr:street" v="Timothy John Drive"/><tag k="addr:housenumber" v="717"/><tag k="coa:place_id" v="3146809"/></node><node id="-3" lat="30.480261" lon="-97.623278" changeset="false"><tag k="addr:street" v="Timothy John Drive"/><tag k="addr:housenumber" v="609"/><tag k="coa:place_id" v="3146881"/></node><node id="-4" lat="30.480387" lon="-97.617439" changeset="false"><tag k="addr:street" v="Timothy John Drive"/><tag k="addr:housenumber" v="205"/><tag k="coa:place_id" v="3214723"/></node><node id="-5" lat="30.480801" lon="-97.620385" changeset="false"><tag k="addr:street" v="Timothy John Drive"/><tag k="addr:housenumber" v="320"/><tag k="coa:place_id" v="3214737"/></node><node id="-6" lat="30.477367" lon="-97.611229" changeset="false"><tag k="addr:street" v="Busleigh Castle Way"/><tag k="addr:housenumber" v="616"/><tag k="coa:place_id" v="3202895"/></node><node id="-7" lat="30.45786" lon="-97.612495" changeset="false"><tag k="addr:street" v="East Pflugerville Parkway"/><tag k="addr:housenumber" v="1204"/><tag k="coa:place_id" v="3268737"/></node><node id="-8" lat="30.47449" lon="-97.605903" changeset="false"><tag k="addr:street" v="Chrighton Castle Bend"/><tag k="addr:housenumber" v="18925"/><tag k="coa:place_id" v="3257084"/></node><node id="-9" lat="30.475671" lon="-97.620688" changeset="false"><tag k="addr:street" v="Heatherwilde Boulevard"/><tag k="addr:housenumber" v="18516"/><tag k="coa:place_id" v="3223278"/></node><node id="-10" lat="30.469009" lon="-97.610946" changeset="false"><tag k="addr:street" v="Niobrara River Drive"/><tag k="addr:housenumber" v="929"/><tag k="coa:place_id" v="3502022"/></node><node id="-11" lat="30.469631" lon="-97.611211" changeset="false"><tag k="addr:street" v="Niobrara River Drive"/><tag k="addr:housenumber" v="912"/><tag k="coa:place_id" v="3502023"/></node><node id="-12" lat="30.470277" lon="-97.612595" changeset="false"><tag k="addr:street" v="Niobrara River Drive"/><tag k="addr:housenumber" v="804"/><tag k="coa:place_id" v="3501998"/></node><node id="-13" lat="30.470592" lon="-97.613214" changeset="false"><tag k="addr:street" v="Niobrara River Drive"/><tag k="addr:housenumber" v="720"/><tag k="coa:place_id" v="3501987"/></node><node id="-14" lat="30.468849" lon="-97.61163" changeset="false"><tag k="addr:street" v="Craters of the Moon Boulevard"/><tag k="addr:housenumber" v="910"/><tag k="coa:place_id" v="3357463"/></node><node id="-15" lat="30.47155" lon="-97.611408" changeset="false"><tag k="addr:street" v="Obed River Drive"/><tag k="addr:housenumber" v="18933"/><tag k="coa:place_id" v="5054969"/></node><node id="-16" lat="30.471896" lon="-97.612946" changeset="false"><tag k="addr:street" v="Obed River Drive"/><tag k="addr:housenumber" v="19024"/><tag k="coa:place_id" v="5054992"/></node><node id="-17" lat="30.465855" lon="-97.615182" changeset="false"><tag k="addr:street" v="Walnut Canyon Boulevard"/><tag k="addr:housenumber" v="809"/><tag k="coa:place_id" v="5055116"/></node><node id="-18" lat="30.470397" lon="-97.612843" changeset="false"><tag k="addr:street" v="Niobrara River Drive"/><tag k="addr:housenumber" v="732"/><tag k="coa:place_id" v="3501990"/></node><node id="-19" lat="30.462192" lon="-97.613122" changeset="false"><tag k="addr:street" v="Halekala Trail"/><tag k="addr:housenumber" v="1102"/><tag k="coa:place_id" v="5112069"/></node><node id="-20" lat="30.462093" lon="-97.612916" changeset="false"><tag k="addr:street" v="Halekala Trail"/><tag k="addr:housenumber" v="1106"/><tag k="coa:place_id" v="5112070"/></node><node id="-21" lat="30.462008" lon="-97.612787" changeset="false"><tag k="addr:street" v="Halekala Trail"/><tag k="addr:housenumber" v="1110"/><tag k="coa:place_id" v="5112071"/></node><node id="-22" lat="30.463675" lon="-97.611877" changeset="false"><tag k="addr:street" v="Petroglyph Trail"/><tag k="addr:housenumber" v="1106"/><tag k="coa:place_id" v="5112089"/></node><node id="-23" lat="30.463574" lon="-97.611726" changeset="false"><tag k="addr:street" v="Petroglyph Trail"/><tag k="addr:housenumber" v="1110"/><tag k="coa:place_id" v="5112090"/></node><node id="-24" lat="30.466367" lon="-97.614102" changeset="false"><tag k="addr:street" v="Lassen Volcanic Drive"/><tag k="addr:housenumber" v="829"/><tag k="coa:place_id" v="5115995"/></node><node id="-25" lat="30.467156" lon="-97.614728" changeset="false"><tag k="addr:street" v="Lassen Volcanic Drive"/><tag k="addr:housenumber" v="808"/><tag k="coa:place_id" v="5115998"/></node><node id="-26" lat="30.464628" lon="-97.611497" changeset="false"><tag k="addr:street" v="Walnut Canyon Boulevard"/><tag k="addr:housenumber" v="1112"/><tag k="coa:place_id" v="5112200"/></node><node id="-27" lat="30.467563" lon="-97.608968" changeset="false"><tag k="addr:street" v="Craters of the Moon Boulevard"/><tag k="addr:housenumber" v="1126"/><tag k="coa:place_id" v="5112306"/></node><node id="-28" lat="30.466026" lon="-97.612133" changeset="false"><tag k="addr:street" v="Mammoth Cave Boulevard"/><tag k="addr:housenumber" v="18322"/><tag k="coa:place_id" v="5083057"/></node><node id="-29" lat="30.465077" lon="-97.611876" changeset="false"><tag k="addr:street" v="Mammoth Cave Boulevard"/><tag k="addr:housenumber" v="18307"/><tag k="coa:place_id" v="5083062"/></node><node id="-30" lat="30.46572" lon="-97.611467" changeset="false"><tag k="addr:street" v="Mammoth Cave Boulevard"/><tag k="addr:housenumber" v="18321"/><tag k="coa:place_id" v="5083067"/></node><node id="-31" lat="30.466205" lon="-97.612046" changeset="false"><tag k="addr:street" v="Mammoth Cave Boulevard"/><tag k="addr:housenumber" v="18400"/><tag k="coa:place_id" v="5083073"/></node><node id="-32" lat="30.46591" lon="-97.611336" changeset="false"><tag k="addr:street" v="Mammoth Cave Boulevard"/><tag k="addr:housenumber" v="18401"/><tag k="coa:place_id" v="5083077"/></node><node id="-33" lat="30.466813" lon="-97.611681" changeset="false"><tag k="addr:street" v="Mammoth Cave Boulevard"/><tag k="addr:housenumber" v="18414"/><tag k="coa:place_id" v="5083082"/></node><node id="-34" lat="30.46635" lon="-97.611014" changeset="false"><tag k="addr:street" v="Mammoth Cave Boulevard"/><tag k="addr:housenumber" v="18409"/><tag k="coa:place_id" v="5083087"/></node><node id="-35" lat="30.467807" lon="-97.611044" changeset="false"><tag k="addr:street" v="Mammoth Cave Boulevard"/><tag k="addr:housenumber" v="18508"/><tag k="coa:place_id" v="5083098"/></node><node id="-36" lat="30.467893" lon="-97.61097" changeset="false"><tag k="addr:street" v="Mammoth Cave Boulevard"/><tag k="addr:housenumber" v="18510"/><tag k="coa:place_id" v="5083099"/></node><node id="-37" lat="30.464947" lon="-97.613299" changeset="false"><tag k="addr:street" v="Walnut Canyon Boulevard"/><tag k="addr:housenumber" v="925"/><tag k="coa:place_id" v="5080386"/></node><node id="-38" lat="30.465792" lon="-97.61406" changeset="false"><tag k="addr:street" v="Walnut Canyon Boulevard"/><tag k="addr:housenumber" v="900"/><tag k="coa:place_id" v="5080376"/></node><node id="-39" lat="30.469239" lon="-97.609236" changeset="false"><tag k="addr:street" v="Mammoth Cave Boulevard"/><tag k="addr:housenumber" v="18611"/><tag k="coa:place_id" v="3501259"/></node><node id="-40" lat="30.469407" lon="-97.609834" changeset="false"><tag k="addr:street" v="Mammoth Cave Boulevard"/><tag k="addr:housenumber" v="18608"/><tag k="coa:place_id" v="3357392"/></node><node id="-41" lat="30.479783" lon="-97.623384" changeset="false"><tag k="addr:street" v="Candace Loop"/><tag k="addr:housenumber" v="18741"/><tag k="coa:place_id" v="3146815"/></node><node id="-42" lat="30.471924" lon="-97.60723" changeset="false"><tag k="addr:street" v="Chrighton Castle Bend"/><tag k="addr:housenumber" v="18740"/><tag k="coa:place_id" v="3256952"/></node><node id="-43" lat="30.480686" lon="-97.623383" changeset="false"><tag k="addr:street" v="Timothy John Drive"/><tag k="addr:housenumber" v="612"/><tag k="coa:place_id" v="3146799"/></node><node id="-44" lat="30.480335" lon="-97.619239" changeset="false"><tag k="addr:street" v="Timothy John Drive"/><tag k="addr:housenumber" v="301"/><tag k="coa:place_id" v="3214739"/></node><node id="-45" lat="30.480262" lon="-97.622842" changeset="false"><tag k="addr:street" v="Timothy John Drive"/><tag k="addr:housenumber" v="601"/><tag k="coa:place_id" v="3214824"/></node><node id="-46" lat="30.474578" lon="-97.619789" changeset="false"><tag k="addr:street" v="Heatherwilde Boulevard"/><tag k="addr:housenumber" v="18414"/><tag k="coa:place_id" v="3260565"/></node><node id="-47" lat="30.475232" lon="-97.619429" changeset="false"><tag k="addr:street" v="Heatherwilde Boulevard"/><tag k="addr:housenumber" v="18500"/><tag k="coa:place_id" v="3260619"/></node><node id="-48" lat="30.480757" lon="-97.621058" changeset="false"><tag k="addr:street" v="Timothy John Drive"/><tag k="addr:housenumber" v="404"/><tag k="coa:place_id" v="3214803"/></node><node id="-49" lat="30.469919" lon="-97.598528" changeset="false"><tag k="addr:street" v="Hilltop Commercial Drive"/><tag k="addr:housenumber" v="18818"/><tag k="coa:place_id" v="3312557"/></node><node id="-50" lat="30.471927" lon="-97.612164" changeset="false"><tag k="addr:street" v="Obed River Drive"/><tag k="addr:housenumber" v="19013"/><tag k="coa:place_id" v="5054979"/></node><node id="-51" lat="30.472069" lon="-97.612463" changeset="false"><tag k="addr:street" v="Obed River Drive"/><tag k="addr:housenumber" v="19021"/><tag k="coa:place_id" v="5054981"/></node><node id="-52" lat="30.471595" lon="-97.612294" changeset="false"><tag k="addr:street" v="Obed River Drive"/><tag k="addr:housenumber" v="19008"/><tag k="coa:place_id" v="5054988"/></node><node id="-53" lat="30.46614" lon="-97.614723" changeset="false"><tag k="addr:street" v="Walnut Canyon Boulevard"/><tag k="addr:housenumber" v="816"/><tag k="coa:place_id" v="5055112"/></node><node id="-54" lat="30.46605" lon="-97.614571" changeset="false"><tag k="addr:street" v="Walnut Canyon Boulevard"/><tag k="addr:housenumber" v="820"/><tag k="coa:place_id" v="5055113"/></node><node id="-55" lat="30.465651" lon="-97.614829" changeset="false"><tag k="addr:street" v="Walnut Canyon Boulevard"/><tag k="addr:housenumber" v="817"/><tag k="coa:place_id" v="5055118"/></node><node id="-56" lat="30.467162" lon="-97.615649" changeset="false"><tag k="addr:street" v="Lassen Volcanic Drive"/><tag k="addr:housenumber" v="713"/><tag k="coa:place_id" v="3362006"/></node><node id="-57" lat="30.468773" lon="-97.610351" changeset="false"><tag k="addr:street" v="Mammoth Cave Boulevard"/><tag k="addr:housenumber" v="18532"/><tag k="coa:place_id" v="3357398"/></node><node id="-58" lat="30.465123" lon="-97.613637" changeset="false"><tag k="addr:street" v="Walnut Canyon Boulevard"/><tag k="addr:housenumber" v="917"/><tag k="coa:place_id" v="5080384"/></node><node id="-59" lat="30.465168" lon="-97.612664" changeset="false"><tag k="addr:street" v="Mammoth Cave Boulevard"/><tag k="addr:housenumber" v="18302"/><tag k="coa:place_id" v="5083047"/></node><node id="-60" lat="30.465347" lon="-97.612555" changeset="false"><tag k="addr:street" v="Mammoth Cave Boulevard"/><tag k="addr:housenumber" v="18306"/><tag k="coa:place_id" v="5083049"/></node><node id="-61" lat="30.46477" lon="-97.612056" changeset="false"><tag k="addr:street" v="Mammoth Cave Boulevard"/><tag k="addr:housenumber" v="18301"/><tag k="coa:place_id" v="5083059"/></node><node id="-62" lat="30.465283" lon="-97.611757" changeset="false"><tag k="addr:street" v="Mammoth Cave Boulevard"/><tag k="addr:housenumber" v="18311"/><tag k="coa:place_id" v="5083064"/></node><node id="-63" lat="30.466483" lon="-97.611873" changeset="false"><tag k="addr:street" v="Mammoth Cave Boulevard"/><tag k="addr:housenumber" v="18406"/><tag k="coa:place_id" v="5083076"/></node><node id="-64" lat="30.466023" lon="-97.611289" changeset="false"><tag k="addr:street" v="Mammoth Cave Boulevard"/><tag k="addr:housenumber" v="18403"/><tag k="coa:place_id" v="5083078"/></node><node id="-65" lat="30.46717" lon="-97.611453" changeset="false"><tag k="addr:street" v="Mammoth Cave Boulevard"/><tag k="addr:housenumber" v="18422"/><tag k="coa:place_id" v="5083086"/></node><node id="-66" lat="30.466736" lon="-97.610792" changeset="false"><tag k="addr:street" v="Mammoth Cave Boulevard"/><tag k="addr:housenumber" v="18417"/><tag k="coa:place_id" v="5083091"/></node><node id="-67" lat="30.467435" lon="-97.611279" changeset="false"><tag k="addr:street" v="Mammoth Cave Boulevard"/><tag k="addr:housenumber" v="18500"/><tag k="coa:place_id" v="5083094"/></node><node id="-68" lat="30.467545" lon="-97.611204" changeset="false"><tag k="addr:street" v="Mammoth Cave Boulevard"/><tag k="addr:housenumber" v="18502"/><tag k="coa:place_id" v="5083095"/></node><node id="-69" lat="30.467189" lon="-97.610489" changeset="false"><tag k="addr:street" v="Mammoth Cave Boulevard"/><tag k="addr:housenumber" v="18503"/><tag k="coa:place_id" v="5083107"/></node><node id="-70" lat="30.470097" lon="-97.614231" changeset="false"><tag k="addr:street" v="Kingston Lacy Boulevard"/><tag k="addr:housenumber" v="1112"/><tag k="coa:place_id" v="3502042"/></node><node id="-71" lat="30.467366" lon="-97.610341" changeset="false"><tag k="addr:street" v="Mammoth Cave Boulevard"/><tag k="addr:housenumber" v="18507"/><tag k="coa:place_id" v="5083109"/></node><node id="-72" lat="30.468927" lon="-97.615069" changeset="false"><tag k="addr:street" v="Kingston Lacy Boulevard"/><tag k="addr:housenumber" v="1212"/><tag k="coa:place_id" v="3502046"/></node><node id="-73" lat="30.469125" lon="-97.609243" changeset="false"><tag k="addr:street" v="Mammoth Cave Boulevard"/><tag k="addr:housenumber" v="18609"/><tag k="coa:place_id" v="3357395"/></node><node id="-74" lat="30.469337" lon="-97.609871" changeset="false"><tag k="addr:street" v="Mammoth Cave Boulevard"/><tag k="addr:housenumber" v="18606"/><tag k="coa:place_id" v="3501255"/></node><node id="-75" lat="30.473548" lon="-97.595175" changeset="false"><tag k="addr:street" v="Limestone Commercial Drive"/><tag k="addr:housenumber" v="19109"/><tag k="coa:place_id" v="3312485"/></node><node id="-76" lat="30.461936" lon="-97.612575" changeset="false"><tag k="addr:street" v="Halekala Trail"/><tag k="addr:housenumber" v="1114"/><tag k="coa:place_id" v="5112072"/></node><node id="-77" lat="30.463433" lon="-97.612324" changeset="false"><tag k="addr:street" v="Petroglyph Trail"/><tag k="addr:housenumber" v="1103"/><tag k="coa:place_id" v="5112092"/></node><node id="-78" lat="30.464028" lon="-97.611441" changeset="false"><tag k="addr:street" v="Walnut Canyon Boulevard"/><tag k="addr:housenumber" v="1119"/><tag k="coa:place_id" v="5112105"/></node><node id="-79" lat="30.467453" lon="-97.615399" changeset="false"><tag k="addr:street" v="Lassen Volcanic Drive"/><tag k="addr:housenumber" v="712"/><tag k="coa:place_id" v="5115986"/></node><node id="-80" lat="30.466441" lon="-97.614261" changeset="false"><tag k="addr:street" v="Lassen Volcanic Drive"/><tag k="addr:housenumber" v="825"/><tag k="coa:place_id" v="5115994"/></node><node id="-81" lat="30.464562" lon="-97.611354" changeset="false"><tag k="addr:street" v="Walnut Canyon Boulevard"/><tag k="addr:housenumber" v="1114"/><tag k="coa:place_id" v="5112201"/></node><node id="-82" lat="30.464365" lon="-97.610971" changeset="false"><tag k="addr:street" v="Walnut Canyon Boulevard"/><tag k="addr:housenumber" v="1120"/><tag k="coa:place_id" v="5112204"/></node><node id="-83" lat="30.467346" lon="-97.609608" changeset="false"><tag k="addr:street" v="Craters of the Moon Boulevard"/><tag k="addr:housenumber" v="1119"/><tag k="coa:place_id" v="5112300"/></node><node id="-84" lat="30.452319" lon="-97.607643" changeset="false"><tag k="addr:street" v="Pfennig Lane"/><tag k="addr:housenumber" v="1602"/><tag k="coa:place_id" v="1146335"/></node><node id="-85" lat="30.480682" lon="-97.62404" changeset="false"><tag k="addr:street" v="Timothy John Drive"/><tag k="addr:housenumber" v="704"/><tag k="coa:place_id" v="3146802"/></node><node id="-86" lat="30.478283" lon="-97.6112" changeset="false"><tag k="addr:street" v="Portchester Castle Path"/><tag k="addr:housenumber" v="608"/><tag k="coa:place_id" v="3202805"/></node><node id="-87" lat="30.480734" lon="-97.621873" changeset="false"><tag k="addr:street" v="Timothy John Drive"/><tag k="addr:housenumber" v="500"/><tag k="coa:place_id" v="3214822"/></node><node id="-88" lat="30.480752" lon="-97.620822" changeset="false"><tag k="addr:street" v="Timothy John Drive"/><tag k="addr:housenumber" v="400"/><tag k="coa:place_id" v="3214802"/></node><node id="-89" lat="30.457987" lon="-97.612795" changeset="false"><tag k="addr:street" v="East Pflugerville Parkway"/><tag k="addr:housenumber" v="1200"/><tag k="coa:place_id" v="3268736"/></node><node id="-90" lat="30.473765" lon="-97.620258" changeset="false"><tag k="addr:street" v="Heatherwilde Boulevard"/><tag k="addr:housenumber" v="18318"/><tag k="coa:place_id" v="3260562"/></node><node id="-91" lat="30.474045" lon="-97.620175" changeset="false"><tag k="addr:street" v="Heatherwilde Boulevard"/><tag k="addr:housenumber" v="18320"/><tag k="coa:place_id" v="3260563"/></node><node id="-92" lat="30.473994" lon="-97.595555" changeset="false"><tag k="addr:street" v="Limestone Commercial Drive"/><tag k="addr:housenumber" v="19117"/><tag k="coa:place_id" v="3312550"/></node><node id="-93" lat="30.470254" lon="-97.598723" changeset="false"><tag k="addr:street" v="Hilltop Commercial Drive"/><tag k="addr:housenumber" v="18824"/><tag k="coa:place_id" v="3312558"/></node><node id="-94" lat="30.47939" lon="-97.620775" changeset="false"><tag k="addr:street" v="Jana Patrice Drive"/><tag k="addr:housenumber" v="18700"/><tag k="coa:place_id" v="3214790"/></node><node id="-95" lat="30.467731" lon="-97.600022" changeset="false"><tag k="addr:street" v="Hilltop Commercial Drive"/><tag k="addr:housenumber" v="18608"/><tag k="coa:place_id" v="3312620"/></node><node id="-96" lat="30.475207" lon="-97.60032" changeset="false"><tag k="addr:street" v="Wilke Ridge Lane"/><tag k="addr:housenumber" v="19405"/><tag k="coa:place_id" v="3223477"/></node><node id="-97" lat="30.476026" lon="-97.601867" changeset="false"><tag k="addr:street" v="Wilke Ridge Lane"/><tag k="addr:housenumber" v="19379"/><tag k="coa:place_id" v="3223478"/></node><node id="-98" lat="30.474877" lon="-97.611649" changeset="false"><tag k="addr:street" v="Kingston Lacy Boulevard"/><tag k="addr:housenumber" v="700"/><tag k="coa:place_id" v="3361978"/></node><node id="-99" lat="30.467182" lon="-97.595865" changeset="false"><tag k="addr:street" v="Limestone Commercial Drive"/><tag k="addr:housenumber" v="18709"/><tag k="coa:place_id" v="3312463"/></node><node id="-100" lat="30.46552" lon="-97.596821" changeset="false"><tag k="addr:street" v="Limestone Commercial Drive"/><tag k="addr:housenumber" v="18609"/><tag k="coa:place_id" v="3312460"/></node><node id="-101" lat="30.468039" lon="-97.615775" changeset="false"><tag k="addr:street" v="Kingston Lacy Boulevard"/><tag k="addr:housenumber" v="1304"/><tag k="coa:place_id" v="3502051"/></node><node id="-102" lat="30.470829" lon="-97.613715" changeset="false"><tag k="addr:street" v="Niobrara River Drive"/><tag k="addr:housenumber" v="704"/><tag k="coa:place_id" v="3501983"/></node><node id="-103" lat="30.470461" lon="-97.612974" changeset="false"><tag k="addr:street" v="Niobrara River Drive"/><tag k="addr:housenumber" v="728"/><tag k="coa:place_id" v="3501989"/></node><node id="-104" lat="30.470889" lon="-97.613851" changeset="false"><tag k="addr:street" v="Niobrara River Drive"/><tag k="addr:housenumber" v="700"/><tag k="coa:place_id" v="3501982"/></node><node id="-105" lat="30.466116" lon="-97.612086" changeset="false"><tag k="addr:street" v="Mammoth Cave Boulevard"/><tag k="addr:housenumber" v="18324"/><tag k="coa:place_id" v="5083058"/></node><node id="-106" lat="30.466896" lon="-97.6116" changeset="false"><tag k="addr:street" v="Mammoth Cave Boulevard"/><tag k="addr:housenumber" v="18416"/><tag k="coa:place_id" v="5083083"/></node><node id="-107" lat="30.466975" lon="-97.611556" changeset="false"><tag k="addr:street" v="Mammoth Cave Boulevard"/><tag k="addr:housenumber" v="18418"/><tag k="coa:place_id" v="5083084"/></node><node id="-108" lat="30.466451" lon="-97.610957" changeset="false"><tag k="addr:street" v="Mammoth Cave Boulevard"/><tag k="addr:housenumber" v="18411"/><tag k="coa:place_id" v="5083088"/></node><node id="-109" lat="30.466544" lon="-97.610906" changeset="false"><tag k="addr:street" v="Mammoth Cave Boulevard"/><tag k="addr:housenumber" v="18413"/><tag k="coa:place_id" v="5083089"/></node><node id="-110" lat="30.466647" lon="-97.610848" changeset="false"><tag k="addr:street" v="Mammoth Cave Boulevard"/><tag k="addr:housenumber" v="18415"/><tag k="coa:place_id" v="5083090"/></node><node id="-111" lat="30.466251" lon="-97.611081" changeset="false"><tag k="addr:street" v="Mammoth Cave Boulevard"/><tag k="addr:housenumber" v="18407"/><tag k="coa:place_id" v="5083093"/></node><node id="-112" lat="30.46745" lon="-97.610284" changeset="false"><tag k="addr:street" v="Mammoth Cave Boulevard"/><tag k="addr:housenumber" v="18509"/><tag k="coa:place_id" v="5083110"/></node><node id="-113" lat="30.46745" lon="-97.610284" changeset="false"><tag k="addr:street" v="Mammoth Cave Boulevard"/><tag k="addr:housenumber" v="18511"/><tag k="coa:place_id" v="5083111"/></node><node id="-114" lat="30.468844" lon="-97.609378" changeset="false"><tag k="addr:street" v="Mammoth Cave Boulevard"/><tag k="addr:housenumber" v="18603"/><tag k="coa:place_id" v="3501257"/></node><node id="-115" lat="30.469188" lon="-97.61007" changeset="false"><tag k="addr:street" v="Mammoth Cave Boulevard"/><tag k="addr:housenumber" v="18602"/><tag k="coa:place_id" v="3501254"/></node><node id="-116" lat="30.469051" lon="-97.609296" changeset="false"><tag k="addr:street" v="Mammoth Cave Boulevard"/><tag k="addr:housenumber" v="18607"/><tag k="coa:place_id" v="3501258"/></node><node id="-117" lat="30.471815" lon="-97.597121" changeset="false"><tag k="addr:street" v="Limestone Commercial Drive"/><tag k="addr:housenumber" v="19000"/><tag k="coa:place_id" v="3312482"/></node><node id="-118" lat="30.471224" lon="-97.61061" changeset="false"><tag k="addr:street" v="Obed River Drive"/><tag k="addr:housenumber" v="18913"/><tag k="coa:place_id" v="5054964"/></node><node id="-119" lat="30.471339" lon="-97.610931" changeset="false"><tag k="addr:street" v="Obed River Drive"/><tag k="addr:housenumber" v="18921"/><tag k="coa:place_id" v="5054966"/></node><node id="-120" lat="30.471616" lon="-97.611538" changeset="false"><tag k="addr:street" v="Obed River Drive"/><tag k="addr:housenumber" v="18937"/><tag k="coa:place_id" v="5054970"/></node><node id="-121" lat="30.471351" lon="-97.611836" changeset="false"><tag k="addr:street" v="Obed River Drive"/><tag k="addr:housenumber" v="18936"/><tag k="coa:place_id" v="5054975"/></node><node id="-122" lat="30.471692" lon="-97.611696" changeset="false"><tag k="addr:street" v="Obed River Drive"/><tag k="addr:housenumber" v="19001"/><tag k="coa:place_id" v="5054976"/></node><node id="-123" lat="30.466392" lon="-97.615497" changeset="false"><tag k="addr:street" v="Walnut Canyon Boulevard"/><tag k="addr:housenumber" v="800"/><tag k="coa:place_id" v="5055100"/></node><node id="-124" lat="30.465934" lon="-97.615355" changeset="false"><tag k="addr:street" v="Walnut Canyon Boulevard"/><tag k="addr:housenumber" v="805"/><tag k="coa:place_id" v="5055115"/></node><node id="-125" lat="30.46872" lon="-97.609396" changeset="false"><tag k="addr:street" v="Mammoth Cave Boulevard"/><tag k="addr:housenumber" v="18601"/><tag k="coa:place_id" v="3357393"/></node><node id="-126" lat="30.461386" lon="-97.613446" changeset="false"><tag k="addr:street" v="Kingston Lacy Boulevard"/><tag k="addr:housenumber" v="1814"/><tag k="coa:place_id" v="5112044"/></node><node id="-127" lat="30.461254" lon="-97.613306" changeset="false"><tag k="addr:street" v="Kingston Lacy Boulevard"/><tag k="addr:housenumber" v="1818"/><tag k="coa:place_id" v="5112045"/></node><node id="-128" lat="30.461916" lon="-97.613307" changeset="false"><tag k="addr:street" v="Halekala Trail"/><tag k="addr:housenumber" v="1103"/><tag k="coa:place_id" v="5112074"/></node><node id="-129" lat="30.461617" lon="-97.612748" changeset="false"><tag k="addr:street" v="Halekala Trail"/><tag k="addr:housenumber" v="1115"/><tag k="coa:place_id" v="5112078"/></node><node id="-130" lat="30.464113" lon="-97.611592" changeset="false"><tag k="addr:street" v="Walnut Canyon Boulevard"/><tag k="addr:housenumber" v="1115"/><tag k="coa:place_id" v="5112104"/></node><node id="-131" lat="30.474758" lon="-97.60995" changeset="false"><tag k="addr:street" v="Rochester Castle Way"/><tag k="addr:housenumber" v="806"/><tag k="coa:place_id" v="3138302"/></node><node id="-132" lat="30.466673" lon="-97.614759" changeset="false"><tag k="addr:street" v="Lassen Volcanic Drive"/><tag k="addr:housenumber" v="813"/><tag k="coa:place_id" v="5115991"/></node><node id="-133" lat="30.467323" lon="-97.615074" changeset="false"><tag k="addr:street" v="Lassen Volcanic Drive"/><tag k="addr:housenumber" v="800"/><tag k="coa:place_id" v="5115996"/></node><node id="-134" lat="30.465732" lon="-97.613877" changeset="false"><tag k="addr:street" v="Walnut Canyon Boulevard"/><tag k="addr:housenumber" v="904"/><tag k="coa:place_id" v="5080377"/></node><node id="-135" lat="30.465576" lon="-97.613555" changeset="false"><tag k="addr:street" v="Walnut Canyon Boulevard"/><tag k="addr:housenumber" v="912"/><tag k="coa:place_id" v="5080379"/></node><node id="-136" lat="30.480511" lon="-97.624697" changeset="false"><tag k="addr:street" v="Timothy John Drive"/><tag k="addr:housenumber" v="716"/><tag k="coa:place_id" v="3146805"/></node><node id="-137" lat="30.47838" lon="-97.623551" changeset="false"><tag k="addr:street" v="Candace Loop"/><tag k="addr:housenumber" v="18712"/><tag k="coa:place_id" v="3428989"/></node><node id="-138" lat="30.475055" lon="-97.609753" changeset="false"><tag k="addr:street" v="Busleigh Castle Way"/><tag k="addr:housenumber" v="811"/><tag k="coa:place_id" v="3138273"/></node><node id="-139" lat="30.467197" lon="-97.60067" changeset="false"><tag k="addr:street" v="Hilltop Commercial Drive"/><tag k="addr:housenumber" v="18600"/><tag k="coa:place_id" v="3312619"/></node><node id="-140" lat="30.470318" lon="-97.597565" changeset="false"><tag k="addr:street" v="Stone Hill Drive"/><tag k="addr:housenumber" v="1500"/><tag k="coa:place_id" v="3312641"/></node><node id="-141" lat="30.468805" lon="-97.611527" changeset="false"><tag k="addr:street" v="Craters of the Moon Boulevard"/><tag k="addr:housenumber" v="912"/><tag k="coa:place_id" v="3357464"/></node><node id="-142" lat="30.471067" lon="-97.611174" changeset="false"><tag k="addr:street" v="Obed River Drive"/><tag k="addr:housenumber" v="18920"/><tag k="coa:place_id" v="5054971"/></node><node id="-143" lat="30.471498" lon="-97.612141" changeset="false"><tag k="addr:street" v="Obed River Drive"/><tag k="addr:housenumber" v="19004"/><tag k="coa:place_id" v="5054987"/></node><node id="-144" lat="30.471753" lon="-97.612599" changeset="false"><tag k="addr:street" v="Obed River Drive"/><tag k="addr:housenumber" v="19016"/><tag k="coa:place_id" v="5054990"/></node><node id="-145" lat="30.471842" lon="-97.612788" changeset="false"><tag k="addr:street" v="Obed River Drive"/><tag k="addr:housenumber" v="19020"/><tag k="coa:place_id" v="5054991"/></node><node id="-146" lat="30.466304" lon="-97.615107" changeset="false"><tag k="addr:street" v="Walnut Canyon Boulevard"/><tag k="addr:housenumber" v="808"/><tag k="coa:place_id" v="5055110"/></node><node id="-147" lat="30.471406" lon="-97.611107" changeset="false"><tag k="addr:street" v="Obed River Drive"/><tag k="addr:housenumber" v="18925"/><tag k="coa:place_id" v="5054967"/></node><node id="-148" lat="30.465858" lon="-97.612244" changeset="false"><tag k="addr:street" v="Mammoth Cave Boulevard"/><tag k="addr:housenumber" v="18318"/><tag k="coa:place_id" v="5083055"/></node><node id="-149" lat="30.465945" lon="-97.612182" changeset="false"><tag k="addr:street" v="Mammoth Cave Boulevard"/><tag k="addr:housenumber" v="18320"/><tag k="coa:place_id" v="5083056"/></node><node id="-150" lat="30.465619" lon="-97.611513" changeset="false"><tag k="addr:street" v="Mammoth Cave Boulevard"/><tag k="addr:housenumber" v="18319"/><tag k="coa:place_id" v="5083066"/></node><node id="-151" lat="30.466726" lon="-97.611718" changeset="false"><tag k="addr:street" v="Mammoth Cave Boulevard"/><tag k="addr:housenumber" v="18412"/><tag k="coa:place_id" v="5083081"/></node><node id="-152" lat="30.467066" lon="-97.6115" changeset="false"><tag k="addr:street" v="Mammoth Cave Boulevard"/><tag k="addr:housenumber" v="18420"/><tag k="coa:place_id" v="5083085"/></node><node id="-153" lat="30.467632" lon="-97.611137" changeset="false"><tag k="addr:street" v="Mammoth Cave Boulevard"/><tag k="addr:housenumber" v="18504"/><tag k="coa:place_id" v="5083096"/></node><node id="-154" lat="30.456111" lon="-97.603925" changeset="false"><tag k="addr:street" v="East Pflugerville Parkway"/><tag k="addr:housenumber" v="1701"/><tag k="coa:place_id" v="3324268"/></node><node id="-155" lat="30.478308" lon="-97.603694" changeset="false"><tag k="addr:street" v="Wilke Ridge Lane"/><tag k="addr:housenumber" v="19339"/><tag k="coa:place_id" v="3391115"/></node><node id="-156" lat="30.4701" lon="-97.612224" changeset="false"><tag k="addr:street" v="Niobrara River Drive"/><tag k="addr:housenumber" v="816"/><tag k="coa:place_id" v="3502001"/></node><node id="-157" lat="30.463758" lon="-97.612102" changeset="false"><tag k="addr:street" v="Petroglyph Trail"/><tag k="addr:housenumber" v="1102"/><tag k="coa:place_id" v="5112088"/></node><node id="-158" lat="30.4642" lon="-97.611799" changeset="false"><tag k="addr:street" v="Walnut Canyon Boulevard"/><tag k="addr:housenumber" v="1111"/><tag k="coa:place_id" v="5112103"/></node><node id="-159" lat="30.466585" lon="-97.614574" changeset="false"><tag k="addr:street" v="Lassen Volcanic Drive"/><tag k="addr:housenumber" v="817"/><tag k="coa:place_id" v="5115992"/></node><node id="-160" lat="30.466523" lon="-97.614431" changeset="false"><tag k="addr:street" v="Lassen Volcanic Drive"/><tag k="addr:housenumber" v="821"/><tag k="coa:place_id" v="5115993"/></node><node id="-161" lat="30.467242" lon="-97.614918" changeset="false"><tag k="addr:street" v="Lassen Volcanic Drive"/><tag k="addr:housenumber" v="804"/><tag k="coa:place_id" v="5115997"/></node><node id="-162" lat="30.46535" lon="-97.614149" changeset="false"><tag k="addr:street" v="Walnut Canyon Boulevard"/><tag k="addr:housenumber" v="905"/><tag k="coa:place_id" v="5080381"/></node><node id="-163" lat="30.476406" lon="-97.614768" changeset="false"><tag k="addr:street" v="Kingston Lacy Boulevard"/><tag k="addr:housenumber" v="421"/><tag k="coa:place_id" v="3427760"/></node><node id="-164" lat="30.464503" lon="-97.611243" changeset="false"><tag k="addr:street" v="Walnut Canyon Boulevard"/><tag k="addr:housenumber" v="1116"/><tag k="coa:place_id" v="5112202"/></node><node id="-165" lat="30.464447" lon="-97.611117" changeset="false"><tag k="addr:street" v="Walnut Canyon Boulevard"/><tag k="addr:housenumber" v="1118"/><tag k="coa:place_id" v="5112203"/></node><node id="-166" lat="30.467266" lon="-97.609415" changeset="false"><tag k="addr:street" v="Craters of the Moon Boulevard"/><tag k="addr:housenumber" v="1123"/><tag k="coa:place_id" v="5112301"/></node><node id="-167" lat="30.467806" lon="-97.609547" changeset="false"><tag k="addr:street" v="Craters of the Moon Boulevard"/><tag k="addr:housenumber" v="1114"/><tag k="coa:place_id" v="5112303"/></node><node id="-168" lat="30.480713" lon="-97.6232" changeset="false"><tag k="addr:street" v="Timothy John Drive"/><tag k="addr:housenumber" v="608"/><tag k="coa:place_id" v="3146798"/></node><node id="-169" lat="30.480718" lon="-97.624274" changeset="false"><tag k="addr:street" v="Timothy John Drive"/><tag k="addr:housenumber" v="708"/><tag k="coa:place_id" v="3146803"/></node><node id="-170" lat="30.480695" lon="-97.623821" changeset="false"><tag k="addr:street" v="Timothy John Drive"/><tag k="addr:housenumber" v="700"/><tag k="coa:place_id" v="3146801"/></node><node id="-171" lat="30.470551" lon="-97.598067" changeset="false"><tag k="addr:street" v="Hilltop Commercial Drive"/><tag k="addr:housenumber" v="18900"/><tag k="coa:place_id" v="3312561"/></node><node id="-172" lat="30.472314" lon="-97.610814" changeset="false"><tag k="addr:street" v="Windsor Castle Drive"/><tag k="addr:housenumber" v="816"/><tag k="coa:place_id" v="3202679"/></node><node id="-173" lat="30.481866" lon="-97.618944" changeset="false"><tag k="addr:street" v="New Meister Lane"/><tag k="addr:housenumber" v="302"/><tag k="coa:place_id" v="3214650"/></node><node id="-174" lat="30.470507" lon="-97.606105" changeset="false"><tag k="addr:street" v="Chrighton Castle Bend"/><tag k="addr:housenumber" v="18708"/><tag k="coa:place_id" v="3256944"/></node><node id="-175" lat="30.471068" lon="-97.61031" changeset="false"><tag k="addr:street" v="Obed River Drive"/><tag k="addr:housenumber" v="18905"/><tag k="coa:place_id" v="5054961"/></node><node id="-176" lat="30.47129" lon="-97.610787" changeset="false"><tag k="addr:street" v="Obed River Drive"/><tag k="addr:housenumber" v="18917"/><tag k="coa:place_id" v="5054965"/></node><node id="-177" lat="30.472145" lon="-97.612614" changeset="false"><tag k="addr:street" v="Obed River Drive"/><tag k="addr:housenumber" v="19025"/><tag k="coa:place_id" v="5054982"/></node><node id="-178" lat="30.471984" lon="-97.613106" changeset="false"><tag k="addr:street" v="Obed River Drive"/><tag k="addr:housenumber" v="19028"/><tag k="coa:place_id" v="5054993"/></node><node id="-179" lat="30.465979" lon="-97.615571" changeset="false"><tag k="addr:street" v="Walnut Canyon Boulevard"/><tag k="addr:housenumber" v="801"/><tag k="coa:place_id" v="5055099"/></node><node id="-180" lat="30.466374" lon="-97.615304" changeset="false"><tag k="addr:street" v="Walnut Canyon Boulevard"/><tag k="addr:housenumber" v="804"/><tag k="coa:place_id" v="5055109"/></node><node id="-181" lat="30.465748" lon="-97.614994" changeset="false"><tag k="addr:street" v="Walnut Canyon Boulevard"/><tag k="addr:housenumber" v="813"/><tag k="coa:place_id" v="5055117"/></node><node id="-182" lat="30.470645" lon="-97.613327" changeset="false"><tag k="addr:street" v="Niobrara River Drive"/><tag k="addr:housenumber" v="716"/><tag k="coa:place_id" v="3501986"/></node><node id="-183" lat="30.468234" lon="-97.609726" changeset="false"><tag k="addr:street" v="Mammoth Cave Boulevard"/><tag k="addr:housenumber" v="18525"/><tag k="coa:place_id" v="3357407"/></node><node id="-184" lat="30.46932" lon="-97.611552" changeset="false"><tag k="addr:street" v="Niobrara River Drive"/><tag k="addr:housenumber" v="909"/><tag k="coa:place_id" v="3502017"/></node><node id="-185" lat="30.469129" lon="-97.61119" changeset="false"><tag k="addr:street" v="Niobrara River Drive"/><tag k="addr:housenumber" v="921"/><tag k="coa:place_id" v="3502020"/></node><node id="-186" lat="30.46896" lon="-97.610824" changeset="false"><tag k="addr:street" v="Niobrara River Drive"/><tag k="addr:housenumber" v="1001"/><tag k="coa:place_id" v="3502032"/></node><node id="-187" lat="30.470399" lon="-97.61405" changeset="false"><tag k="addr:street" v="Kingston Lacy Boulevard"/><tag k="addr:housenumber" v="1104"/><tag k="coa:place_id" v="3502040"/></node><node id="-188" lat="30.470156" lon="-97.612337" changeset="false"><tag k="addr:street" v="Niobrara River Drive"/><tag k="addr:housenumber" v="812"/><tag k="coa:place_id" v="3502000"/></node><node id="-189" lat="30.469272" lon="-97.610007" changeset="false"><tag k="addr:street" v="Mammoth Cave Boulevard"/><tag k="addr:housenumber" v="18604"/><tag k="coa:place_id" v="3357391"/></node><node id="-190" lat="30.456416" lon="-97.616047" changeset="false"><tag k="addr:street" v="Pfennig Lane"/><tag k="addr:housenumber" v="1100"/><tag k="coa:place_id" v="3300978"/></node><node id="-191" lat="30.468913" lon="-97.595573" changeset="false"><tag k="addr:street" v="Limestone Commercial Drive"/><tag k="addr:housenumber" v="18817"/><tag k="coa:place_id" v="3312467"/></node><node id="-192" lat="30.467482" lon="-97.596706" changeset="false"><tag k="addr:street" v="Limestone Commercial Drive"/><tag k="addr:housenumber" v="18708"/><tag k="coa:place_id" v="3312468"/></node><node id="-193" lat="30.471105" lon="-97.594699" changeset="false"><tag k="addr:street" v="Limestone Commercial Drive"/><tag k="addr:housenumber" v="19001"/><tag k="coa:place_id" v="3312483"/></node><node id="-194" lat="30.457564" lon="-97.613642" changeset="false"><tag k="addr:street" v="East Pflugerville Parkway"/><tag k="addr:housenumber" v="1140"/><tag k="coa:place_id" v="3373447"/></node><node id="-195" lat="30.456098" lon="-97.604555" changeset="false"><tag k="addr:street" v="East Pflugerville Parkway"/><tag k="addr:housenumber" v="1621"/><tag k="coa:place_id" v="3324267"/></node><node id="-196" lat="30.468628" lon="-97.611152" changeset="false"><tag k="addr:street" v="Craters of the Moon Boulevard"/><tag k="addr:housenumber" v="920"/><tag k="coa:place_id" v="3357468"/></node><node id="-197" lat="30.4688" lon="-97.615223" changeset="false"><tag k="addr:street" v="Kingston Lacy Boulevard"/><tag k="addr:housenumber" v="1216"/><tag k="coa:place_id" v="3502047"/></node><node id="-198" lat="30.469491" lon="-97.609769" changeset="false"><tag k="addr:street" v="Mammoth Cave Boulevard"/><tag k="addr:housenumber" v="18610"/><tag k="coa:place_id" v="3501256"/></node><node id="-199" lat="30.463346" lon="-97.612113" changeset="false"><tag k="addr:street" v="Petroglyph Trail"/><tag k="addr:housenumber" v="1107"/><tag k="coa:place_id" v="5112093"/></node><node id="-200" lat="30.467511" lon="-97.615553" changeset="false"><tag k="addr:street" v="Lassen Volcanic Drive"/><tag k="addr:housenumber" v="708"/><tag k="coa:place_id" v="5115985"/></node><node id="-201" lat="30.467369" lon="-97.615233" changeset="false"><tag k="addr:street" v="Lassen Volcanic Drive"/><tag k="addr:housenumber" v="716"/><tag k="coa:place_id" v="5115987"/></node><node id="-202" lat="30.466855" lon="-97.615134" changeset="false"><tag k="addr:street" v="Lassen Volcanic Drive"/><tag k="addr:housenumber" v="805"/><tag k="coa:place_id" v="5115989"/></node><node id="-203" lat="30.465186" lon="-97.613804" changeset="false"><tag k="addr:street" v="Walnut Canyon Boulevard"/><tag k="addr:housenumber" v="913"/><tag k="coa:place_id" v="5080383"/></node><node id="-204" lat="30.469532" lon="-97.597337" changeset="false"><tag k="addr:street" v="Stone Hill Drive"/><tag k="addr:housenumber" v="1513"/><tag k="coa:place_id" v="3323360"/></node><node id="-205" lat="30.465085" lon="-97.612733" changeset="false"><tag k="addr:street" v="Mammoth Cave Boulevard"/><tag k="addr:housenumber" v="18300"/><tag k="coa:place_id" v="5083046"/></node><node id="-206" lat="30.465429" lon="-97.612501" changeset="false"><tag k="addr:street" v="Mammoth Cave Boulevard"/><tag k="addr:housenumber" v="18308"/><tag k="coa:place_id" v="5083050"/></node><node id="-207" lat="30.465684" lon="-97.612324" changeset="false"><tag k="addr:street" v="Mammoth Cave Boulevard"/><tag k="addr:housenumber" v="18314"/><tag k="coa:place_id" v="5083053"/></node><node id="-208" lat="30.46498" lon="-97.611939" changeset="false"><tag k="addr:street" v="Mammoth Cave Boulevard"/><tag k="addr:housenumber" v="18305"/><tag k="coa:place_id" v="5083061"/></node><node id="-209" lat="30.46518" lon="-97.611829" changeset="false"><tag k="addr:street" v="Mammoth Cave Boulevard"/><tag k="addr:housenumber" v="18309"/><tag k="coa:place_id" v="5083063"/></node><node id="-210" lat="30.467069" lon="-97.610531" changeset="false"><tag k="addr:street" v="Mammoth Cave Boulevard"/><tag k="addr:housenumber" v="18501"/><tag k="coa:place_id" v="5083106"/></node><node id="-211" lat="30.467276" lon="-97.610393" changeset="false"><tag k="addr:street" v="Mammoth Cave Boulevard"/><tag k="addr:housenumber" v="18505"/><tag k="coa:place_id" v="5083108"/></node><node id="-212" lat="30.47149" lon="-97.611257" changeset="false"><tag k="addr:street" v="Obed River Drive"/><tag k="addr:housenumber" v="18929"/><tag k="coa:place_id" v="5054968"/></node><node id="-213" lat="30.471779" lon="-97.611837" changeset="false"><tag k="addr:street" v="Obed River Drive"/><tag k="addr:housenumber" v="19005"/><tag k="coa:place_id" v="5054977"/></node><node id="-214" lat="30.472284" lon="-97.612919" changeset="false"><tag k="addr:street" v="Obed River Drive"/><tag k="addr:housenumber" v="19033"/><tag k="coa:place_id" v="5054984"/></node><node id="-215" lat="30.471413" lon="-97.611968" changeset="false"><tag k="addr:street" v="Obed River Drive"/><tag k="addr:housenumber" v="19000"/><tag k="coa:place_id" v="5054986"/></node><node id="-216" lat="30.465972" lon="-97.615793" changeset="false"><tag k="addr:street" v="Walnut Canyon Boulevard"/><tag k="addr:housenumber" v="713"/><tag k="coa:place_id" v="5055093"/></node><node id="-217" lat="30.466226" lon="-97.614932" changeset="false"><tag k="addr:street" v="Walnut Canyon Boulevard"/><tag k="addr:housenumber" v="812"/><tag k="coa:place_id" v="5055111"/></node><node id="-218" lat="30.465964" lon="-97.614403" changeset="false"><tag k="addr:street" v="Walnut Canyon Boulevard"/><tag k="addr:housenumber" v="824"/><tag k="coa:place_id" v="5055114"/></node><node id="-219" lat="30.465579" lon="-97.614649" changeset="false"><tag k="addr:street" v="Walnut Canyon Boulevard"/><tag k="addr:housenumber" v="821"/><tag k="coa:place_id" v="5055119"/></node><node id="-220" lat="30.470228" lon="-97.612463" changeset="false"><tag k="addr:street" v="Niobrara River Drive"/><tag k="addr:housenumber" v="808"/><tag k="coa:place_id" v="3501999"/></node><node id="-221" lat="30.469923" lon="-97.611827" changeset="false"><tag k="addr:street" v="Niobrara River Drive"/><tag k="addr:housenumber" v="828"/><tag k="coa:place_id" v="3502004"/></node><node id="-222" lat="30.466448" lon="-97.596138" changeset="false"><tag k="addr:street" v="Limestone Commercial Drive"/><tag k="addr:housenumber" v="18701"/><tag k="coa:place_id" v="3312462"/></node><node id="-223" lat="30.456399" lon="-97.615254" changeset="false"><tag k="addr:street" v="Pfennig Lane"/><tag k="addr:housenumber" v="1106"/><tag k="coa:place_id" v="3300979"/></node><node id="-224" lat="30.48056" lon="-97.615964" changeset="false"><tag k="addr:street" v="Heatherwilde Boulevard"/><tag k="addr:housenumber" v="18900"/><tag k="coa:place_id" v="3503298"/></node><node id="-225" lat="30.469117" lon="-97.612187" changeset="false"><tag k="addr:street" v="Craters of the Moon Boulevard"/><tag k="addr:housenumber" v="820"/><tag k="coa:place_id" v="3357481"/></node><node id="-226" lat="30.470705" lon="-97.613458" changeset="false"><tag k="addr:street" v="Niobrara River Drive"/><tag k="addr:housenumber" v="712"/><tag k="coa:place_id" v="3501985"/></node><node id="-227" lat="30.470513" lon="-97.613096" changeset="false"><tag k="addr:street" v="Niobrara River Drive"/><tag k="addr:housenumber" v="724"/><tag k="coa:place_id" v="3501988"/></node><node id="-228" lat="30.469072" lon="-97.611064" changeset="false"><tag k="addr:street" v="Niobrara River Drive"/><tag k="addr:housenumber" v="925"/><tag k="coa:place_id" v="3502021"/></node><node id="-229" lat="30.470555" lon="-97.613966" changeset="false"><tag k="addr:street" v="Kingston Lacy Boulevard"/><tag k="addr:housenumber" v="1100"/><tag k="coa:place_id" v="3502039"/></node><node id="-230" lat="30.465603" lon="-97.612382" changeset="false"><tag k="addr:street" v="Mammoth Cave Boulevard"/><tag k="addr:housenumber" v="18312"/><tag k="coa:place_id" v="5083052"/></node><node id="-231" lat="30.465821" lon="-97.611411" changeset="false"><tag k="addr:street" v="Mammoth Cave Boulevard"/><tag k="addr:housenumber" v="18323"/><tag k="coa:place_id" v="5083068"/></node><node id="-232" lat="30.461147" lon="-97.613151" changeset="false"><tag k="addr:street" v="Kingston Lacy Boulevard"/><tag k="addr:housenumber" v="1822"/><tag k="coa:place_id" v="5112046"/></node><node id="-233" lat="30.463264" lon="-97.611957" changeset="false"><tag k="addr:street" v="Petroglyph Trail"/><tag k="addr:housenumber" v="1111"/><tag k="coa:place_id" v="5112094"/></node><node id="-234" lat="30.466939" lon="-97.615327" changeset="false"><tag k="addr:street" v="Lassen Volcanic Drive"/><tag k="addr:housenumber" v="801"/><tag k="coa:place_id" v="5115988"/></node><node id="-235" lat="30.466763" lon="-97.614944" changeset="false"><tag k="addr:street" v="Lassen Volcanic Drive"/><tag k="addr:housenumber" v="809"/><tag k="coa:place_id" v="5115990"/></node><node id="-236" lat="30.468418" lon="-97.599838" changeset="false"><tag k="addr:street" v="Hilltop Commercial Drive"/><tag k="addr:housenumber" v="18700"/><tag k="coa:place_id" v="3312621"/></node><node id="-237" lat="30.476578" lon="-97.610092" changeset="false"><tag k="addr:street" v="Busleigh Castle Way"/><tag k="addr:housenumber" v="720"/><tag k="coa:place_id" v="3202901"/></node><node id="-238" lat="30.478914" lon="-97.619974" changeset="false"><tag k="addr:street" v="Jana Patrice Drive"/><tag k="addr:housenumber" v="18617"/><tag k="coa:place_id" v="3214785"/></node><node id="-239" lat="30.479063" lon="-97.620027" changeset="false"><tag k="addr:street" v="Jana Patrice Drive"/><tag k="addr:housenumber" v="18621"/><tag k="coa:place_id" v="3214786"/></node><node id="-240" lat="30.465025" lon="-97.613471" changeset="false"><tag k="addr:street" v="Walnut Canyon Boulevard"/><tag k="addr:housenumber" v="921"/><tag k="coa:place_id" v="5080385"/></node><node id="-241" lat="30.467168" lon="-97.609202" changeset="false"><tag k="addr:street" v="Craters of the Moon Boulevard"/><tag k="addr:housenumber" v="1127"/><tag k="coa:place_id" v="5112302"/></node><node id="-242" lat="30.467647" lon="-97.60916" changeset="false"><tag k="addr:street" v="Craters of the Moon Boulevard"/><tag k="addr:housenumber" v="1122"/><tag k="coa:place_id" v="5112305"/></node><node id="-243" lat="30.468609" lon="-97.610465" changeset="false"><tag k="addr:street" v="Mammoth Cave Boulevard"/><tag k="addr:housenumber" v="18524"/><tag k="coa:place_id" v="3357397"/></node><node id="-244" lat="30.468767" lon="-97.61144" changeset="false"><tag k="addr:street" v="Craters of the Moon Boulevard"/><tag k="addr:housenumber" v="914"/><tag k="coa:place_id" v="3357465"/></node><node id="-245" lat="30.475084" lon="-97.611439" changeset="false"><tag k="addr:street" v="Huntingtower Castle Boulevard"/><tag k="addr:housenumber" v="18805"/><tag k="coa:place_id" v="3202918"/></node><node id="-246" lat="30.470222" lon="-97.597037" changeset="false"><tag k="addr:street" v="Stone Hill Drive"/><tag k="addr:housenumber" v="1512"/><tag k="coa:place_id" v="3323336"/></node><node id="-247" lat="30.468892" lon="-97.610675" changeset="false"><tag k="addr:street" v="Niobrara River Drive"/><tag k="addr:housenumber" v="1005"/><tag k="coa:place_id" v="3502033"/></node><node id="-248" lat="30.46655" lon="-97.611818" changeset="false"><tag k="addr:street" v="Mammoth Cave Boulevard"/><tag k="addr:housenumber" v="18408"/><tag k="coa:place_id" v="5083079"/></node><node id="-249" lat="30.466627" lon="-97.611767" changeset="false"><tag k="addr:street" v="Mammoth Cave Boulevard"/><tag k="addr:housenumber" v="18410"/><tag k="coa:place_id" v="5083080"/></node><node id="-250" lat="30.467723" lon="-97.611086" changeset="false"><tag k="addr:street" v="Mammoth Cave Boulevard"/><tag k="addr:housenumber" v="18506"/><tag k="coa:place_id" v="5083097"/></node><node id="-251" lat="30.465762" lon="-97.612277" changeset="false"><tag k="addr:street" v="Mammoth Cave Boulevard"/><tag k="addr:housenumber" v="18316"/><tag k="coa:place_id" v="5083054"/></node><node id="-252" lat="30.466394" lon="-97.611945" changeset="false"><tag k="addr:street" v="Mammoth Cave Boulevard"/><tag k="addr:housenumber" v="18404"/><tag k="coa:place_id" v="5083075"/></node><node id="-253" lat="30.468496" lon="-97.615492" changeset="false"><tag k="addr:street" v="Kingston Lacy Boulevard"/><tag k="addr:housenumber" v="1224"/><tag k="coa:place_id" v="3502049"/></node><node id="-254" lat="30.468197" lon="-97.615673" changeset="false"><tag k="addr:street" v="Kingston Lacy Boulevard"/><tag k="addr:housenumber" v="1300"/><tag k="coa:place_id" v="3502050"/></node><node id="-255" lat="30.461811" lon="-97.613155" changeset="false"><tag k="addr:street" v="Halekala Trail"/><tag k="addr:housenumber" v="1107"/><tag k="coa:place_id" v="5112075"/></node><node id="-256" lat="30.46867" lon="-97.611253" changeset="false"><tag k="addr:street" v="Craters of the Moon Boulevard"/><tag k="addr:housenumber" v="918"/><tag k="coa:place_id" v="3357467"/></node><node id="-257" lat="30.467005" lon="-97.614358" changeset="false"><tag k="addr:street" v="Lassen Volcanic Drive"/><tag k="addr:housenumber" v="816"/><tag k="coa:place_id" v="5116000"/></node><node id="-258" lat="30.465671" lon="-97.613742" changeset="false"><tag k="addr:street" v="Walnut Canyon Boulevard"/><tag k="addr:housenumber" v="908"/><tag k="coa:place_id" v="5080378"/></node><node id="-259" lat="30.465416" lon="-97.614316" changeset="false"><tag k="addr:street" v="Walnut Canyon Boulevard"/><tag k="addr:housenumber" v="901"/><tag k="coa:place_id" v="5080380"/></node><node id="-260" lat="30.465266" lon="-97.613983" changeset="false"><tag k="addr:street" v="Walnut Canyon Boulevard"/><tag k="addr:housenumber" v="909"/><tag k="coa:place_id" v="5080382"/></node><node id="-261" lat="30.469677" lon="-97.59533" changeset="false"><tag k="addr:street" v="Limestone Commercial Drive"/><tag k="addr:housenumber" v="18901"/><tag k="coa:place_id" v="3312480"/></node><node id="-262" lat="30.473023" lon="-97.594895" changeset="false"><tag k="addr:street" v="Limestone Commercial Drive"/><tag k="addr:housenumber" v="19101"/><tag k="coa:place_id" v="3312484"/></node><node id="-263" lat="30.467738" lon="-97.609351" changeset="false"><tag k="addr:street" v="Craters of the Moon Boulevard"/><tag k="addr:housenumber" v="1118"/><tag k="coa:place_id" v="5112304"/></node><node id="-264" lat="30.471277" lon="-97.611682" changeset="false"><tag k="addr:street" v="Obed River Drive"/><tag k="addr:housenumber" v="18932"/><tag k="coa:place_id" v="5054974"/></node><node id="-265" lat="30.471856" lon="-97.612004" changeset="false"><tag k="addr:street" v="Obed River Drive"/><tag k="addr:housenumber" v="19009"/><tag k="coa:place_id" v="5054978"/></node><node id="-266" lat="30.471992" lon="-97.612312" changeset="false"><tag k="addr:street" v="Obed River Drive"/><tag k="addr:housenumber" v="19017"/><tag k="coa:place_id" v="5054980"/></node><node id="-267" lat="30.472211" lon="-97.612771" changeset="false"><tag k="addr:street" v="Obed River Drive"/><tag k="addr:housenumber" v="19029"/><tag k="coa:place_id" v="5054983"/></node><node id="-268" lat="30.471674" lon="-97.612455" changeset="false"><tag k="addr:street" v="Obed River Drive"/><tag k="addr:housenumber" v="19012"/><tag k="coa:place_id" v="5054989"/></node><node id="-269" lat="30.47004" lon="-97.612084" changeset="false"><tag k="addr:street" v="Niobrara River Drive"/><tag k="addr:housenumber" v="820"/><tag k="coa:place_id" v="3502002"/></node><node id="-270" lat="30.469077" lon="-97.610139" changeset="false"><tag k="addr:street" v="Mammoth Cave Boulevard"/><tag k="addr:housenumber" v="18600"/><tag k="coa:place_id" v="3357390"/></node><node id="-271" lat="30.470333" lon="-97.612726" changeset="false"><tag k="addr:street" v="Niobrara River Drive"/><tag k="addr:housenumber" v="800"/><tag k="coa:place_id" v="3501997"/></node><node id="-272" lat="30.46998" lon="-97.611958" changeset="false"><tag k="addr:street" v="Niobrara River Drive"/><tag k="addr:housenumber" v="824"/><tag k="coa:place_id" v="3502003"/></node><node id="-273" lat="30.461486" lon="-97.613597" changeset="false"><tag k="addr:street" v="Kingston Lacy Boulevard"/><tag k="addr:housenumber" v="1810"/><tag k="coa:place_id" v="3225033"/></node><node id="-274" lat="30.469208" lon="-97.612374" changeset="false"><tag k="addr:street" v="Craters of the Moon Boulevard"/><tag k="addr:housenumber" v="816"/><tag k="coa:place_id" v="3357479"/></node><node id="-275" lat="30.468951" lon="-97.609344" changeset="false"><tag k="addr:street" v="Mammoth Cave Boulevard"/><tag k="addr:housenumber" v="18605"/><tag k="coa:place_id" v="3357394"/></node><node id="-276" lat="30.476374" lon="-97.614704" changeset="false"><tag k="addr:street" v="Kingston Lacy Boulevard"/><tag k="addr:housenumber" v="425"/><tag k="coa:place_id" v="3427761"/></node><node id="-277" lat="30.467514" lon="-97.595675" changeset="false"><tag k="addr:street" v="Limestone Commercial Drive"/><tag k="addr:housenumber" v="18717"/><tag k="coa:place_id" v="3312464"/></node><node id="-278" lat="30.471158" lon="-97.610479" changeset="false"><tag k="addr:street" v="Obed River Drive"/><tag k="addr:housenumber" v="18909"/><tag k="coa:place_id" v="5054963"/></node><node id="-279" lat="30.471127" lon="-97.611351" changeset="false"><tag k="addr:street" v="Obed River Drive"/><tag k="addr:housenumber" v="18924"/><tag k="coa:place_id" v="5054972"/></node><node id="-280" lat="30.471201" lon="-97.611512" changeset="false"><tag k="addr:street" v="Obed River Drive"/><tag k="addr:housenumber" v="18928"/><tag k="coa:place_id" v="5054973"/></node><node id="-281" lat="30.478372" lon="-97.611393" changeset="false"><tag k="addr:street" v="Portchester Castle Path"/><tag k="addr:housenumber" v="604"/><tag k="coa:place_id" v="3202804"/></node><node id="-282" lat="30.480189" lon="-97.620932" changeset="false"><tag k="addr:street" v="Jana Patrice Drive"/><tag k="addr:housenumber" v="18716"/><tag k="coa:place_id" v="3214794"/></node><node id="-283" lat="30.470765" lon="-97.613585" changeset="false"><tag k="addr:street" v="Niobrara River Drive"/><tag k="addr:housenumber" v="708"/><tag k="coa:place_id" v="3501984"/></node><node id="-284" lat="30.465542" lon="-97.597627" changeset="false"><tag k="addr:street" v="Limestone Commercial Drive"/><tag k="addr:housenumber" v="18600"/><tag k="coa:place_id" v="3312431"/></node><node id="-285" lat="30.480762" lon="-97.621276" changeset="false"><tag k="addr:street" v="Timothy John Drive"/><tag k="addr:housenumber" v="408"/><tag k="coa:place_id" v="3214804"/></node><node id="-286" lat="30.464951" lon="-97.59733" changeset="false"><tag k="addr:street" v="Limestone Commercial Drive"/><tag k="addr:housenumber" v="18601"/><tag k="coa:place_id" v="3312432"/></node><node id="-287" lat="30.469384" lon="-97.611669" changeset="false"><tag k="addr:street" v="Niobrara River Drive"/><tag k="addr:housenumber" v="905"/><tag k="coa:place_id" v="3502016"/></node><node id="-288" lat="30.47026" lon="-97.614147" changeset="false"><tag k="addr:street" v="Kingston Lacy Boulevard"/><tag k="addr:housenumber" v="1108"/><tag k="coa:place_id" v="3502041"/></node><node id="-289" lat="30.465259" lon="-97.61261" changeset="false"><tag k="addr:street" v="Mammoth Cave Boulevard"/><tag k="addr:housenumber" v="18304"/><tag k="coa:place_id" v="5083048"/></node><node id="-290" lat="30.465515" lon="-97.612449" changeset="false"><tag k="addr:street" v="Mammoth Cave Boulevard"/><tag k="addr:housenumber" v="18310"/><tag k="coa:place_id" v="5083051"/></node><node id="-291" lat="30.464868" lon="-97.611981" changeset="false"><tag k="addr:street" v="Mammoth Cave Boulevard"/><tag k="addr:housenumber" v="18303"/><tag k="coa:place_id" v="5083060"/></node><node id="-292" lat="30.465518" lon="-97.611572" changeset="false"><tag k="addr:street" v="Mammoth Cave Boulevard"/><tag k="addr:housenumber" v="18317"/><tag k="coa:place_id" v="5083065"/></node><node id="-293" lat="30.466299" lon="-97.612001" changeset="false"><tag k="addr:street" v="Mammoth Cave Boulevard"/><tag k="addr:housenumber" v="18402"/><tag k="coa:place_id" v="5083074"/></node><node id="-294" lat="30.466818" lon="-97.610739" changeset="false"><tag k="addr:street" v="Mammoth Cave Boulevard"/><tag k="addr:housenumber" v="18419"/><tag k="coa:place_id" v="5083092"/></node><node id="-295" lat="30.470417" lon="-97.610023" changeset="false"><tag k="addr:street" v="Obed River Drive"/><tag k="addr:housenumber" v="18830"/><tag k="coa:place_id" v="3357370"/></node><node id="-296" lat="30.456126" lon="-97.605187" changeset="false"><tag k="addr:street" v="East Pflugerville Parkway"/><tag k="addr:housenumber" v="1613"/><tag k="coa:place_id" v="5243813"/></node><node id="-297" lat="30.464667" lon="-97.611632" changeset="false"><tag k="addr:street" v="Walnut Canyon Boulevard"/><tag k="addr:housenumber" v="1110"/><tag k="coa:place_id" v="5112199"/></node><node id="-298" lat="30.467439" lon="-97.609814" changeset="false"><tag k="addr:street" v="Craters of the Moon Boulevard"/><tag k="addr:housenumber" v="1115"/><tag k="coa:place_id" v="5112299"/></node><node id="-299" lat="30.480701" lon="-97.624534" changeset="false"><tag k="addr:street" v="Timothy John Drive"/><tag k="addr:housenumber" v="712"/><tag k="coa:place_id" v="3146804"/></node><node id="-300" lat="30.461728" lon="-97.612963" changeset="false"><tag k="addr:street" v="Halekala Trail"/><tag k="addr:housenumber" v="1111"/><tag k="coa:place_id" v="5112077"/></node><node id="-301" lat="30.463495" lon="-97.611546" changeset="false"><tag k="addr:street" v="Petroglyph Trail"/><tag k="addr:housenumber" v="1114"/><tag k="coa:place_id" v="5112091"/></node><node id="-302" lat="30.463146" lon="-97.611761" changeset="false"><tag k="addr:street" v="Petroglyph Trail"/><tag k="addr:housenumber" v="1115"/><tag k="coa:place_id" v="5112095"/></node><node id="-303" lat="30.463936" lon="-97.611225" changeset="false"><tag k="addr:street" v="Walnut Canyon Boulevard"/><tag k="addr:housenumber" v="1123"/><tag k="coa:place_id" v="5112106"/></node><node id="-304" lat="30.467079" lon="-97.614536" changeset="false"><tag k="addr:street" v="Lassen Volcanic Drive"/><tag k="addr:housenumber" v="812"/><tag k="coa:place_id" v="5115999"/></node><node id="-305" lat="30.474215" lon="-97.607472" changeset="false"><tag k="addr:street" v="Portchester Castle Path"/><tag k="addr:housenumber" v="926"/><tag k="coa:place_id" v="3138315"/></node><node id="-306" lat="30.482454" lon="-97.616403" changeset="false"><tag k="addr:street" v="New Meister Lane"/><tag k="addr:housenumber" v="114"/><tag k="coa:place_id" v="3428991"/></node><node id="-307" lat="30.476549" lon="-97.614943" changeset="false"><tag k="addr:street" v="Kingston Lacy Boulevard"/><tag k="addr:housenumber" v="419"/><tag k="coa:place_id" v="3428987"/></node><node id="-308" lat="30.46416" lon="-97.612264" changeset="false"><tag k="addr:street" v="Mammoth Cave Boulevard"/><tag k="addr:housenumber" v="18229"/><tag k="coa:place_id" v="3122758"/></node><node id="-309" lat="30.479118" lon="-97.62329" changeset="false"><tag k="addr:street" v="Candace Loop"/><tag k="addr:housenumber" v="18725"/><tag k="coa:place_id" v="3146811"/></node><node id="-310" lat="30.4792" lon="-97.620685" changeset="false"><tag k="addr:street" v="Jana Patrice Drive"/><tag k="addr:housenumber" v="18624"/><tag k="coa:place_id" v="3214780"/></node><node id="-311" lat="30.478966" lon="-97.623192" changeset="false"><tag k="addr:street" v="Candace Loop"/><tag k="addr:housenumber" v="18721"/><tag k="coa:place_id" v="3146810"/></node><node id="-312" lat="30.480773" lon="-97.620613" changeset="false"><tag k="addr:street" v="Timothy John Drive"/><tag k="addr:housenumber" v="324"/><tag k="coa:place_id" v="3214738"/></node><node id="-313" lat="30.480722" lon="-97.622991" changeset="false"><tag k="addr:street" v="Timothy John Drive"/><tag k="addr:housenumber" v="604"/><tag k="coa:place_id" v="3146797"/></node><node id="-314" lat="30.480695" lon="-97.623617" changeset="false"><tag k="addr:street" v="Timothy John Drive"/><tag k="addr:housenumber" v="616"/><tag k="coa:place_id" v="3146800"/></node><node id="-315" lat="30.480743" lon="-97.622099" changeset="false"><tag k="addr:street" v="Timothy John Drive"/><tag k="addr:housenumber" v="504"/><tag k="coa:place_id" v="3146793"/></node><node id="-316" lat="30.480743" lon="-97.622318" changeset="false"><tag k="addr:street" v="Timothy John Drive"/><tag k="addr:housenumber" v="508"/><tag k="coa:place_id" v="3146794"/></node><node id="-317" lat="30.480246" lon="-97.620103" changeset="false"><tag k="addr:street" v="Timothy John Drive"/><tag k="addr:housenumber" v="317"/><tag k="coa:place_id" v="3214743"/></node><node id="-318" lat="30.480462" lon="-97.617105" changeset="false"><tag k="addr:street" v="Timothy John Drive"/><tag k="addr:housenumber" v="202"/><tag k="coa:place_id" v="3214714"/></node><node id="-319" lat="30.479411" lon="-97.620206" changeset="false"><tag k="addr:street" v="Jana Patrice Drive"/><tag k="addr:housenumber" v="18701"/><tag k="coa:place_id" v="3214796"/></node><node id="-320" lat="30.474538" lon="-97.596267" changeset="false"><tag k="addr:street" v="Limestone Commercial Drive"/><tag k="addr:housenumber" v="19116"/><tag k="coa:place_id" v="3312553"/></node></osm>