<?xml version="1.0" encoding="UTF-8"?><osm version="0.6" generator="github.com/aaronlidman/osm-and-geojson"><node id="-1" lat="30.25552" lon="-97.723672" changeset="false"><tag k="addr:street" v="Willow Street"/><tag k="addr:housenumber" v="2001"/><tag k="coa:place_id" v="175322"/></node><node id="-2" lat="30.252951" lon="-97.713029" changeset="false"><tag k="addr:street" v="East Cesar Chavez Street"/><tag k="addr:housenumber" v="2731"/><tag k="coa:place_id" v="212162"/></node><node id="-3" lat="30.253866" lon="-97.715645" changeset="false"><tag k="addr:street" v="East Cesar Chavez Street"/><tag k="addr:housenumber" v="2515"/><tag k="coa:place_id" v="211982"/></node><node id="-4" lat="30.253488" lon="-97.719529" changeset="false"><tag k="addr:street" v="Canterbury Street"/><tag k="addr:housenumber" v="2306"/><tag k="coa:place_id" v="211334"/></node><node id="-5" lat="30.25234" lon="-97.711761" changeset="false"><tag k="addr:street" v="East Cesar Chavez Street"/><tag k="addr:housenumber" v="2913"/><tag k="coa:place_id" v="251072"/></node><node id="-6" lat="30.254888" lon="-97.724691" changeset="false"><tag k="addr:street" v="Canterbury Street"/><tag k="addr:housenumber" v="1911"/><tag k="coa:place_id" v="243432"/></node><node id="-7" lat="30.25614" lon="-97.724221" changeset="false"><tag k="addr:street" v="Willow Street"/><tag k="addr:housenumber" v="1908"/><tag k="coa:place_id" v="1119027"/></node><node id="-8" lat="30.253876" lon="-97.718814" changeset="false"><tag k="addr:street" v="Willow Street"/><tag k="addr:housenumber" v="2313"/><tag k="coa:place_id" v="211490"/></node><node id="-9" lat="30.25313" lon="-97.722907" changeset="false"><tag k="addr:street" v="Garden Street"/><tag k="addr:housenumber" v="2105"/><tag k="coa:place_id" v="175964"/></node><node id="-10" lat="30.25175" lon="-97.706164" changeset="false"><tag k="addr:street" v="East Cesar Chavez Street"/><tag k="addr:housenumber" v="3403"/><tag k="coa:place_id" v="251162"/></node><node id="-11" lat="30.251625" lon="-97.704501" changeset="false"><tag k="addr:street" v="East Cesar Chavez Street"/><tag k="addr:housenumber" v="3517"/><tag k="coa:place_id" v="251198"/></node><node id="-12" lat="30.254996" lon="-97.718978" changeset="false"><tag k="addr:street" v="East Cesar Chavez Street"/><tag k="addr:housenumber" v="2305"/><tag k="coa:place_id" v="211826"/></node><node id="-13" lat="30.252901" lon="-97.716052" changeset="false"><tag k="addr:street" v="Willow Street"/><tag k="addr:housenumber" v="2515"/><tag k="coa:place_id" v="212336"/></node><node id="-14" lat="30.254144" lon="-97.716773" changeset="false"><tag k="addr:street" v="Pedernales Street"/><tag k="addr:housenumber" v="97 1/2"/><tag k="coa:place_id" v="3099342"/></node><node id="-15" lat="30.253324" lon="-97.722342" changeset="false"><tag k="addr:street" v="Garden Street"/><tag k="addr:housenumber" v="2110"/><tag k="coa:place_id" v="175658"/></node><node id="-16" lat="30.254352" lon="-97.725477" changeset="false"><tag k="addr:street" v="Garden Street"/><tag k="addr:housenumber" v="1902 1/2"/><tag k="coa:place_id" v="175796"/></node><node id="-17" lat="30.252412" lon="-97.716634" changeset="false"><tag k="addr:street" v="Canterbury Street"/><tag k="addr:housenumber" v="2510"/><tag k="coa:place_id" v="212564"/></node><node id="-18" lat="30.252893" lon="-97.717759" changeset="false"><tag k="addr:street" v="Canterbury Street"/><tag k="addr:housenumber" v="2410"/><tag k="coa:place_id" v="211262"/></node><node id="-19" lat="30.256963" lon="-97.724507" changeset="false"><tag k="addr:street" v="East Cesar Chavez Street"/><tag k="addr:housenumber" v="1901"/><tag k="coa:place_id" v="197282"/></node><node id="-20" lat="30.25398" lon="-97.719113" changeset="false"><tag k="addr:street" v="Willow Street"/><tag k="addr:housenumber" v="2309"/><tag k="coa:place_id" v="211478"/></node><node id="-21" lat="30.255028" lon="-97.725376" changeset="false"><tag k="addr:street" v="Chicon Street"/><tag k="addr:housenumber" v="77"/><tag k="coa:place_id" v="138722"/></node><node id="-22" lat="30.253372" lon="-97.723688" changeset="false"><tag k="addr:street" v="Garden Street"/><tag k="addr:housenumber" v="2013"/><tag k="coa:place_id" v="3086771"/></node><node id="-23" lat="30.253695" lon="-97.718349" changeset="false"><tag k="addr:street" v="Willow Street"/><tag k="addr:housenumber" v="2331"/><tag k="coa:place_id" v="211508"/></node><node id="-24" lat="30.251677" lon="-97.704891" changeset="false"><tag k="addr:street" v="East Cesar Chavez Street"/><tag k="addr:housenumber" v="3507"/><tag k="coa:place_id" v="251186"/></node><node id="-25" lat="30.254418" lon="-97.717406" changeset="false"><tag k="addr:street" v="East Cesar Chavez Street"/><tag k="addr:housenumber" v="2405"/><tag k="coa:place_id" v="3430946"/></node><node id="-26" lat="30.253504" lon="-97.722905" changeset="false"><tag k="addr:street" v="Garden Street"/><tag k="addr:housenumber" v="2102"/><tag k="coa:place_id" v="523864"/></node><node id="-27" lat="30.256297" lon="-97.722698" changeset="false"><tag k="addr:street" v="East Cesar Chavez Street"/><tag k="addr:housenumber" v="2017"/><tag k="coa:place_id" v="241375"/></node><node id="-28" lat="30.25303" lon="-97.717538" changeset="false"><tag k="addr:street" v="Pedernales Street"/><tag k="addr:housenumber" v="84"/><tag k="coa:place_id" v="704943"/></node><node id="-29" lat="30.25313" lon="-97.724859" changeset="false"><tag k="addr:street" v="Holly Street"/><tag k="addr:housenumber" v="2000"/><tag k="coa:place_id" v="176090"/></node><node id="-30" lat="30.254052" lon="-97.716248" changeset="false"><tag k="addr:street" v="East Cesar Chavez Street"/><tag k="addr:housenumber" v="2507"/><tag k="coa:place_id" v="211958"/></node><node id="-31" lat="30.253808" lon="-97.716853" changeset="false"><tag k="addr:street" v="Pedernales Street"/><tag k="addr:housenumber" v="95"/><tag k="coa:place_id" v="211928"/></node><node id="-32" lat="30.254929" lon="-97.724816" changeset="false"><tag k="addr:street" v="Canterbury Street"/><tag k="addr:housenumber" v="1909"/><tag k="coa:place_id" v="3084935"/></node><node id="-33" lat="30.252225" lon="-97.712063" changeset="false"><tag k="addr:street" v="East Cesar Chavez Street"/><tag k="addr:housenumber" v="2823"/><tag k="coa:place_id" v="3028737"/></node><node id="-34" lat="30.253849" lon="-97.723796" changeset="false"><tag k="addr:street" v="Garden Street"/><tag k="addr:housenumber" v="2008"/><tag k="coa:place_id" v="611608"/></node><node id="-35" lat="30.253743" lon="-97.717204" changeset="false"><tag k="addr:street" v="Willow Street"/><tag k="addr:housenumber" v="2412"/><tag k="coa:place_id" v="211574"/></node><node id="-36" lat="30.254157" lon="-97.722493" changeset="false"><tag k="addr:street" v="Canterbury Street"/><tag k="addr:housenumber" v="2105"/><tag k="coa:place_id" v="175622"/></node><node id="-37" lat="30.255111" lon="-97.719308" changeset="false"><tag k="addr:street" v="East Cesar Chavez Street"/><tag k="addr:housenumber" v="2301"/><tag k="coa:place_id" v="211808"/></node><node id="-38" lat="30.254098" lon="-97.716368" changeset="false"><tag k="addr:street" v="East Cesar Chavez Street"/><tag k="addr:housenumber" v="2505"/><tag k="coa:place_id" v="211946"/></node><node id="-39" lat="30.25193" lon="-97.710472" changeset="false"><tag k="addr:street" v="East Cesar Chavez Street"/><tag k="addr:housenumber" v="3013"/><tag k="coa:place_id" v="3504964"/></node><node id="-40" lat="30.251598" lon="-97.70577" changeset="false"><tag k="addr:street" v="East Cesar Chavez Street"/><tag k="addr:housenumber" v="3411"/><tag k="coa:place_id" v="3577731"/></node><node id="-41" lat="30.254044" lon="-97.725891" changeset="false"><tag k="addr:street" v="Chicon Street"/><tag k="addr:housenumber" v="65"/><tag k="coa:place_id" v="138404"/></node><node id="-42" lat="30.25425" lon="-97.724813" changeset="false"><tag k="addr:street" v="Garden Street"/><tag k="addr:housenumber" v="1914"/><tag k="coa:place_id" v="3086769"/></node><node id="-43" lat="30.254742" lon="-97.72288" changeset="false"><tag k="addr:street" v="Anthony Street"/><tag k="addr:housenumber" v="82"/><tag k="coa:place_id" v="175376"/></node><node id="-44" lat="30.254868" lon="-97.718516" changeset="false"><tag k="addr:street" v="East Cesar Chavez Street"/><tag k="addr:housenumber" v="2321"/><tag k="coa:place_id" v="211862"/></node><node id="-45" lat="30.254865" lon="-97.722845" changeset="false"><tag k="addr:street" v="Anthony Street"/><tag k="addr:housenumber" v="84"/><tag k="coa:place_id" v="175370"/></node><node id="-46" lat="30.256489" lon="-97.723249" changeset="false"><tag k="addr:street" v="East Cesar Chavez Street"/><tag k="addr:housenumber" v="2003"/><tag k="coa:place_id" v="174986"/></node><node id="-47" lat="30.251605" lon="-97.70976" changeset="false"><tag k="addr:street" v="East Cesar Chavez Street"/><tag k="addr:housenumber" v="3107"/><tag k="coa:place_id" v="251090"/></node><node id="-48" lat="30.25351" lon="-97.715446" changeset="false"><tag k="addr:street" v="San Saba Street"/><tag k="addr:housenumber" v="97"/><tag k="coa:place_id" v="211994"/></node><node id="-49" lat="30.255004" lon="-97.719714" changeset="false"><tag k="addr:street" v="Mildred Street"/><tag k="addr:housenumber" v="96"/><tag k="coa:place_id" v="211784"/></node><node id="-50" lat="30.255339" lon="-97.719927" changeset="false"><tag k="addr:street" v="East Cesar Chavez Street"/><tag k="addr:housenumber" v="2211"/><tag k="coa:place_id" v="211772"/></node><node id="-51" lat="30.256209" lon="-97.722419" changeset="false"><tag k="addr:street" v="East Cesar Chavez Street"/><tag k="addr:housenumber" v="2027"/><tag k="coa:place_id" v="175028"/></node><node id="-52" lat="30.253093" lon="-97.716456" changeset="false"><tag k="addr:street" v="Willow Street"/><tag k="addr:housenumber" v="2513"/><tag k="coa:place_id" v="212330"/></node><node id="-53" lat="30.253411" lon="-97.722576" changeset="false"><tag k="addr:street" v="Garden Street"/><tag k="addr:housenumber" v="2106"/><tag k="coa:place_id" v="175682"/></node><node id="-54" lat="30.256261" lon="-97.722549" changeset="false"><tag k="addr:street" v="East Cesar Chavez Street"/><tag k="addr:housenumber" v="2023"/><tag k="coa:place_id" v="175016"/></node><node id="-55" lat="30.254969" lon="-97.720884" changeset="false"><tag k="addr:street" v="Willow Street"/><tag k="addr:housenumber" v="2200"/><tag k="coa:place_id" v="211736"/></node><node id="-56" lat="30.255626" lon="-97.722793" changeset="false"><tag k="addr:street" v="Willow Street"/><tag k="addr:housenumber" v="2012"/><tag k="coa:place_id" v="175190"/></node><node id="-57" lat="30.2547" lon="-97.718067" changeset="false"><tag k="addr:street" v="East Cesar Chavez Street"/><tag k="addr:housenumber" v="2335"/><tag k="coa:place_id" v="211856"/></node><node id="-58" lat="30.254699" lon="-97.723084" changeset="false"><tag k="addr:street" v="Canterbury Street"/><tag k="addr:housenumber" v="2012"/><tag k="coa:place_id" v="175388"/></node><node id="-59" lat="30.256023" lon="-97.721815" changeset="false"><tag k="addr:street" v="East Cesar Chavez Street"/><tag k="addr:housenumber" v="2105"/><tag k="coa:place_id" v="175052"/></node><node id="-60" lat="30.253189" lon="-97.713729" changeset="false"><tag k="addr:street" v="East Cesar Chavez Street"/><tag k="addr:housenumber" v="2711"/><tag k="coa:place_id" v="241386"/></node><node id="-61" lat="30.253368" lon="-97.722459" changeset="false"><tag k="addr:street" v="Garden Street"/><tag k="addr:housenumber" v="2108"/><tag k="coa:place_id" v="175670"/></node><node id="-62" lat="30.256547" lon="-97.723539" changeset="false"><tag k="addr:street" v="East Cesar Chavez Street"/><tag k="addr:housenumber" v="1917"/><tag k="coa:place_id" v="1163207"/></node><node id="-63" lat="30.256808" lon="-97.724071" changeset="false"><tag k="addr:street" v="East Cesar Chavez Street"/><tag k="addr:housenumber" v="1907"/><tag k="coa:place_id" v="839385"/></node><node id="-64" lat="30.252815" lon="-97.714765" changeset="false"><tag k="addr:street" v="Willow Street"/><tag k="addr:housenumber" v="2612"/><tag k="coa:place_id" v="5112025"/></node><node id="-65" lat="30.256662" lon="-97.723483" changeset="false"><tag k="addr:street" v="Lynn Street"/><tag k="addr:housenumber" v="98"/><tag k="coa:place_id" v="1001642"/></node><node id="-66" lat="30.256529" lon="-97.723228" changeset="false"><tag k="addr:street" v="East Cesar Chavez Street"/><tag k="addr:housenumber" v="2001"/><tag k="coa:place_id" v="174980"/></node><node id="-67" lat="30.252465" lon="-97.712011" changeset="false"><tag k="addr:street" v="East Cesar Chavez Street"/><tag k="addr:housenumber" v="2817"/><tag k="coa:place_id" v="3364599"/></node><node id="-68" lat="30.254453" lon="-97.717494" changeset="false"><tag k="addr:street" v="East Cesar Chavez Street"/><tag k="addr:housenumber" v="2403"/><tag k="coa:place_id" v="3430945"/></node><node id="-69" lat="30.251668" lon="-97.710144" changeset="false"><tag k="addr:street" v="East Cesar Chavez Street"/><tag k="addr:housenumber" v="3017"/><tag k="coa:place_id" v="3256282"/></node><node id="-70" lat="30.251696" lon="-97.70515" changeset="false"><tag k="addr:street" v="East Cesar Chavez Street"/><tag k="addr:housenumber" v="3503"/><tag k="coa:place_id" v="251180"/></node><node id="-71" lat="30.253606" lon="-97.724394" changeset="false"><tag k="addr:street" v="Garden Street"/><tag k="addr:housenumber" v="2003"/><tag k="coa:place_id" v="175880"/></node><node id="-72" lat="30.253548" lon="-97.723022" changeset="false"><tag k="addr:street" v="Garden Street"/><tag k="addr:housenumber" v="2100"/><tag k="coa:place_id" v="175706"/></node><node id="-73" lat="30.254174" lon="-97.723099" changeset="false"><tag k="addr:street" v="Anthony Street"/><tag k="addr:housenumber" v="76 1/2"/><tag k="coa:place_id" v="3076974"/></node><node id="-74" lat="30.256767" lon="-97.723943" changeset="false"><tag k="addr:street" v="East Cesar Chavez Street"/><tag k="addr:housenumber" v="1909"/><tag k="coa:place_id" v="174932"/></node><node id="-75" lat="30.255717" lon="-97.722477" changeset="false"><tag k="addr:street" v="Anthony Street"/><tag k="addr:housenumber" v="94"/><tag k="coa:place_id" v="175034"/></node><node id="-76" lat="30.253922" lon="-97.7158" changeset="false"><tag k="addr:street" v="East Cesar Chavez Street"/><tag k="addr:housenumber" v="2513"/><tag k="coa:place_id" v="211976"/></node><node id="-77" lat="30.253301" lon="-97.714022" changeset="false"><tag k="addr:street" v="East Cesar Chavez Street"/><tag k="addr:housenumber" v="2701"/><tag k="coa:place_id" v="212144"/></node><node id="-78" lat="30.25328" lon="-97.722225" changeset="false"><tag k="addr:street" v="Garden Street"/><tag k="addr:housenumber" v="2112"/><tag k="coa:place_id" v="175652"/></node><node id="-79" lat="30.2542" lon="-97.722611" changeset="false"><tag k="addr:street" v="Canterbury Street"/><tag k="addr:housenumber" v="2103"/><tag k="coa:place_id" v="175616"/></node><node id="-80" lat="30.253935" lon="-97.722909" changeset="false"><tag k="addr:street" v="Anthony Street"/><tag k="addr:housenumber" v="75"/><tag k="coa:place_id" v="175586"/></node><node id="-81" lat="30.253341" lon="-97.723553" changeset="false"><tag k="addr:street" v="Garden Street"/><tag k="addr:housenumber" v="2015"/><tag k="coa:place_id" v="175928"/></node><node id="-82" lat="30.252154" lon="-97.71303" changeset="false"><tag k="addr:street" v="North Pleasant Valley Road"/><tag k="addr:housenumber" v="89"/><tag k="coa:place_id" v="640846"/></node><node id="-83" lat="30.253829" lon="-97.718694" changeset="false"><tag k="addr:street" v="Willow Street"/><tag k="addr:housenumber" v="2315"/><tag k="coa:place_id" v="211496"/></node><node id="-84" lat="30.254154" lon="-97.719553" changeset="false"><tag k="addr:street" v="Willow Street"/><tag k="addr:housenumber" v="2303"/><tag k="coa:place_id" v="211460"/></node><node id="-85" lat="30.253887" lon="-97.721779" changeset="false"><tag k="addr:street" v="Canterbury Street"/><tag k="addr:housenumber" v="2115"/><tag k="coa:place_id" v="175646"/></node><node id="-86" lat="30.254054" lon="-97.722331" changeset="false"><tag k="addr:street" v="Canterbury Street"/><tag k="addr:housenumber" v="2107"/><tag k="coa:place_id" v="175628"/></node><node id="-87" lat="30.255359" lon="-97.720233" changeset="false"><tag k="addr:street" v="East Cesar Chavez Street"/><tag k="addr:housenumber" v="2207"/><tag k="coa:place_id" v="1163204"/></node><node id="-88" lat="30.254242" lon="-97.722729" changeset="false"><tag k="addr:street" v="Canterbury Street"/><tag k="addr:housenumber" v="2101"/><tag k="coa:place_id" v="175610"/></node><node id="-89" lat="30.254143" lon="-97.716515" changeset="false"><tag k="addr:street" v="East Cesar Chavez Street"/><tag k="addr:housenumber" v="2503"/><tag k="coa:place_id" v="211940"/></node><node id="-90" lat="30.253955" lon="-97.715965" changeset="false"><tag k="addr:street" v="East Cesar Chavez Street"/><tag k="addr:housenumber" v="2511"/><tag k="coa:place_id" v="211970"/></node><node id="-91" lat="30.253246" lon="-97.713866" changeset="false"><tag k="addr:street" v="East Cesar Chavez Street"/><tag k="addr:housenumber" v="2703"/><tag k="coa:place_id" v="212150"/></node><node id="-92" lat="30.255298" lon="-97.720074" changeset="false"><tag k="addr:street" v="East Cesar Chavez Street"/><tag k="addr:housenumber" v="2209"/><tag k="coa:place_id" v="211766"/></node><node id="-93" lat="30.253615" lon="-97.714933" changeset="false"><tag k="addr:street" v="East Cesar Chavez Street"/><tag k="addr:housenumber" v="2607"/><tag k="coa:place_id" v="212030"/></node><node id="-94" lat="30.253267" lon="-97.714345" changeset="false"><tag k="addr:street" v="Llano Street"/><tag k="addr:housenumber" v="96"/><tag k="coa:place_id" v="212132"/></node><node id="-95" lat="30.252495" lon="-97.716909" changeset="false"><tag k="addr:street" v="Canterbury Street"/><tag k="addr:housenumber" v="2506"/><tag k="coa:place_id" v="582436"/></node><node id="-96" lat="30.254659" lon="-97.71794" changeset="false"><tag k="addr:street" v="East Cesar Chavez Street"/><tag k="addr:housenumber" v="2337"/><tag k="coa:place_id" v="92512"/></node><node id="-97" lat="30.254797" lon="-97.724393" changeset="false"><tag k="addr:street" v="Canterbury Street"/><tag k="addr:housenumber" v="1915"/><tag k="coa:place_id" v="175532"/></node><node id="-98" lat="30.25391" lon="-97.721912" changeset="false"><tag k="addr:street" v="Canterbury Street"/><tag k="addr:housenumber" v="2113"/><tag k="coa:place_id" v="175640"/></node><node id="-99" lat="30.25346" lon="-97.722788" changeset="false"><tag k="addr:street" v="Garden Street"/><tag k="addr:housenumber" v="2104"/><tag k="coa:place_id" v="175694"/></node><node id="-100" lat="30.251556" lon="-97.713165" changeset="false"><tag k="addr:street" v="North Pleasant Valley Road"/><tag k="addr:housenumber" v="83"/><tag k="coa:place_id" v="3046838"/></node><node id="-101" lat="30.253879" lon="-97.720739" changeset="false"><tag k="addr:street" v="Canterbury Street"/><tag k="addr:housenumber" v="2208"/><tag k="coa:place_id" v="211376"/></node><node id="-102" lat="30.254049" lon="-97.719273" changeset="false"><tag k="addr:street" v="Willow Street"/><tag k="addr:housenumber" v="2307"/><tag k="coa:place_id" v="211472"/></node><node id="-103" lat="30.252996" lon="-97.718178" changeset="false"><tag k="addr:street" v="Canterbury Street"/><tag k="addr:housenumber" v="2402"/><tag k="coa:place_id" v="211280"/></node><node id="-104" lat="30.252921" lon="-97.724244" changeset="false"><tag k="addr:street" v="Holly Street"/><tag k="addr:housenumber" v="2008"/><tag k="coa:place_id" v="176066"/></node><node id="-105" lat="30.255728" lon="-97.720959" changeset="false"><tag k="addr:street" v="East Cesar Chavez Street"/><tag k="addr:housenumber" v="2131"/><tag k="coa:place_id" v="175106"/></node><node id="-106" lat="30.255665" lon="-97.720974" changeset="false"><tag k="addr:street" v="East Cesar Chavez Street"/><tag k="addr:housenumber" v="2129"/><tag k="coa:place_id" v="175100"/></node><node id="-107" lat="30.255784" lon="-97.721382" changeset="false"><tag k="addr:street" v="East Cesar Chavez Street"/><tag k="addr:housenumber" v="2117"/><tag k="coa:place_id" v="175082"/></node><node id="-108" lat="30.255837" lon="-97.721531" changeset="false"><tag k="addr:street" v="East Cesar Chavez Street"/><tag k="addr:housenumber" v="2113"/><tag k="coa:place_id" v="175070"/></node><node id="-109" lat="30.25567" lon="-97.722935" changeset="false"><tag k="addr:street" v="Willow Street"/><tag k="addr:housenumber" v="2010"/><tag k="coa:place_id" v="175196"/></node><node id="-110" lat="30.255722" lon="-97.723073" changeset="false"><tag k="addr:street" v="Willow Street"/><tag k="addr:housenumber" v="2008"/><tag k="coa:place_id" v="175202"/></node><node id="-111" lat="30.254629" lon="-97.724095" changeset="false"><tag k="addr:street" v="Canterbury Street"/><tag k="addr:housenumber" v="2001"/><tag k="coa:place_id" v="175550"/></node><node id="-112" lat="30.254563" lon="-97.724122" changeset="false"><tag k="addr:street" v="Lynn Street"/><tag k="addr:housenumber" v="77"/><tag k="coa:place_id" v="175544"/></node><node id="-113" lat="30.254495" lon="-97.725488" changeset="false"><tag k="addr:street" v="Garden Street"/><tag k="addr:housenumber" v="1902"/><tag k="coa:place_id" v="175802"/></node><node id="-114" lat="30.25444" lon="-97.725356" changeset="false"><tag k="addr:street" v="Garden Street"/><tag k="addr:housenumber" v="1904"/><tag k="coa:place_id" v="175790"/></node><node id="-115" lat="30.253743" lon="-97.71975" changeset="false"><tag k="addr:street" v="Canterbury Street"/><tag k="addr:housenumber" v="2302"/><tag k="coa:place_id" v="211346"/></node><node id="-116" lat="30.253649" lon="-97.719949" changeset="false"><tag k="addr:street" v="Canterbury Street"/><tag k="addr:housenumber" v="2300"/><tag k="coa:place_id" v="211352"/></node><node id="-117" lat="30.253735" lon="-97.7203" changeset="false"><tag k="addr:street" v="Canterbury Street"/><tag k="addr:housenumber" v="2216"/><tag k="coa:place_id" v="211358"/></node><node id="-118" lat="30.253793" lon="-97.720453" changeset="false"><tag k="addr:street" v="Canterbury Street"/><tag k="addr:housenumber" v="2212"/><tag k="coa:place_id" v="211364"/></node></osm>