<?xml version="1.0" encoding="UTF-8"?><osm version="0.6" generator="github.com/aaronlidman/osm-and-geojson"><node id="-1" lat="30.252476" lon="-97.713281" changeset="false"><tag k="addr:street" v="Willow Street"/><tag k="addr:housenumber" v="2712"/><tag k="addr:postcode" v="78702"/></node><node id="-2" lat="30.25251" lon="-97.71346" changeset="false"><tag k="addr:street" v="Willow Street"/><tag k="addr:housenumber" v="2710"/><tag k="addr:postcode" v="78702"/></node><node id="-3" lat="30.252541" lon="-97.713648" changeset="false"><tag k="addr:street" v="Willow Street"/><tag k="addr:housenumber" v="2708"/><tag k="addr:postcode" v="78702"/></node><node id="-4" lat="30.252581" lon="-97.713842" changeset="false"><tag k="addr:street" v="Willow Street"/><tag k="addr:housenumber" v="2706"/><tag k="addr:postcode" v="78702"/></node><node id="-5" lat="30.251712" lon="-97.713838" changeset="false"><tag k="addr:street" v="Canterbury Street"/><tag k="addr:housenumber" v="2710"/><tag k="addr:postcode" v="78702"/></node><node id="-6" lat="30.251715" lon="-97.713622" changeset="false"><tag k="addr:street" v="Canterbury Street"/><tag k="addr:housenumber" v="2712"/><tag k="addr:postcode" v="78702"/></node><node id="-7" lat="30.252042" lon="-97.711569" changeset="false"><tag k="addr:street" v="East Cesar Chavez Street"/><tag k="addr:housenumber" v="2915"/><tag k="addr:postcode" v="78702"/></node><node id="-8" lat="30.252156" lon="-97.713635" changeset="false"><tag k="addr:street" v="Willow Street"/><tag k="addr:housenumber" v="2711"/><tag k="addr:postcode" v="78702"/></node><node id="-9" lat="30.252119" lon="-97.71344" changeset="false"><tag k="addr:street" v="Willow Street"/><tag k="addr:housenumber" v="2713"/><tag k="addr:postcode" v="78702"/></node><node id="-10" lat="30.252173" lon="-97.713831" changeset="false"><tag k="addr:street" v="Willow Street"/><tag k="addr:housenumber" v="2709"/><tag k="addr:postcode" v="78702"/></node><node id="-11" lat="30.252232" lon="-97.712111" changeset="false"><tag k="addr:street" v="East Cesar Chavez Street"/><tag k="addr:housenumber" v="2821"/><tag k="addr:postcode" v="78702"/></node><node id="-12" lat="30.251612" lon="-97.706683" changeset="false"><tag k="addr:street" v="East Cesar Chavez Street"/><tag k="addr:housenumber" v="3309"/><tag k="addr:postcode" v="78702"/></node><node id="-13" lat="30.251653" lon="-97.706272" changeset="false"><tag k="addr:street" v="East Cesar Chavez Street"/><tag k="addr:housenumber" v="3323"/><tag k="addr:postcode" v="78702"/></node><node id="-14" lat="30.2516" lon="-97.705993" changeset="false"><tag k="addr:street" v="East Cesar Chavez Street"/><tag k="addr:housenumber" v="3407"/><tag k="addr:postcode" v="78702"/></node><node id="-15" lat="30.251643" lon="-97.704655" changeset="false"><tag k="addr:street" v="East Cesar Chavez Street"/><tag k="addr:housenumber" v="3513"/><tag k="addr:postcode" v="78702"/></node><node id="-16" lat="30.251579" lon="-97.706414" changeset="false"><tag k="addr:street" v="East Cesar Chavez Street"/><tag k="addr:housenumber" v="3321"/><tag k="addr:postcode" v="78702"/></node><node id="-17" lat="30.251695" lon="-97.705355" changeset="false"><tag k="addr:street" v="East Cesar Chavez Street"/><tag k="addr:housenumber" v="3421"/><tag k="addr:postcode" v="78702"/></node><node id="-18" lat="30.251502" lon="-97.707375" changeset="false"><tag k="addr:street" v="East Cesar Chavez Street"/><tag k="addr:housenumber" v="3235"/><tag k="addr:postcode" v="78702"/></node><node id="-19" lat="30.251486" lon="-97.707767" changeset="false"><tag k="addr:street" v="East Cesar Chavez Street"/><tag k="addr:housenumber" v="3211"/><tag k="addr:postcode" v="78702"/></node><node id="-20" lat="30.251458" lon="-97.708039" changeset="false"><tag k="addr:street" v="East Cesar Chavez Street"/><tag k="addr:housenumber" v="3209"/><tag k="addr:postcode" v="78702"/></node><node id="-21" lat="30.251456" lon="-97.708202" changeset="false"><tag k="addr:street" v="East Cesar Chavez Street"/><tag k="addr:housenumber" v="3207"/><tag k="addr:postcode" v="78702"/></node><node id="-22" lat="30.251454" lon="-97.708498" changeset="false"><tag k="addr:street" v="East Cesar Chavez Street"/><tag k="addr:housenumber" v="3203"/><tag k="addr:postcode" v="78702"/></node><node id="-23" lat="30.251412" lon="-97.708728" changeset="false"><tag k="addr:street" v="East Cesar Chavez Street"/><tag k="addr:housenumber" v="3201"/><tag k="addr:postcode" v="78702"/></node><node id="-24" lat="30.251518" lon="-97.709097" changeset="false"><tag k="addr:street" v="East Cesar Chavez Street"/><tag k="addr:housenumber" v="3111"/><tag k="addr:postcode" v="78702"/></node><node id="-25" lat="30.25137" lon="-97.709248" changeset="false"><tag k="addr:street" v="East Cesar Chavez Street"/><tag k="addr:housenumber" v="3109"/><tag k="addr:postcode" v="78702"/></node><node id="-26" lat="30.253348" lon="-97.714698" changeset="false"><tag k="addr:street" v="East Cesar Chavez Street"/><tag k="addr:housenumber" v="2609"/><tag k="addr:postcode" v="78702"/></node><node id="-27" lat="30.253447" lon="-97.714486" changeset="false"><tag k="addr:street" v="East Cesar Chavez Street"/><tag k="addr:housenumber" v="2613"/><tag k="addr:postcode" v="78702"/></node><node id="-28" lat="30.253227" lon="-97.714059" changeset="false"><tag k="addr:street" v="East Cesar Chavez Street"/><tag k="addr:housenumber" v="2701"/><tag k="addr:postcode" v="78702"/></node><node id="-29" lat="30.253168" lon="-97.71393" changeset="false"><tag k="addr:street" v="East Cesar Chavez Street"/><tag k="addr:housenumber" v="2703"/><tag k="addr:postcode" v="78702"/></node><node id="-30" lat="30.25352" lon="-97.714941" changeset="false"><tag k="addr:street" v="East Cesar Chavez Street"/><tag k="addr:housenumber" v="2607"/><tag k="addr:postcode" v="78702"/></node><node id="-31" lat="30.253645" lon="-97.715052" changeset="false"><tag k="addr:street" v="East Cesar Chavez Street"/><tag k="addr:housenumber" v="2605"/><tag k="addr:postcode" v="78702"/></node><node id="-32" lat="30.25251" lon="-97.714935" changeset="false"><tag k="addr:street" v="Willow Street"/><tag k="addr:housenumber" v="2617"/><tag k="addr:postcode" v="78702"/></node><node id="-33" lat="30.252615" lon="-97.714025" changeset="false"><tag k="addr:street" v="Willow Street"/><tag k="addr:housenumber" v="2704"/><tag k="addr:postcode" v="78702"/></node><node id="-34" lat="30.252634" lon="-97.714169" changeset="false"><tag k="addr:street" v="Willow Street"/><tag k="addr:housenumber" v="2702"/><tag k="addr:postcode" v="78702"/></node><node id="-35" lat="30.252681" lon="-97.714314" changeset="false"><tag k="addr:street" v="Willow Street"/><tag k="addr:housenumber" v="2700"/><tag k="addr:postcode" v="78702"/></node><node id="-36" lat="30.252888" lon="-97.714208" changeset="false"><tag k="addr:street" v="Llano Street"/><tag k="addr:housenumber" v="93"/><tag k="addr:postcode" v="78702"/></node><node id="-37" lat="30.252875" lon="-97.714914" changeset="false"><tag k="addr:street" v="Willow Street"/><tag k="addr:housenumber" v="2610"/><tag k="addr:postcode" v="78702"/></node><node id="-38" lat="30.2529" lon="-97.71507" changeset="false"><tag k="addr:street" v="Willow Street"/><tag k="addr:housenumber" v="2608"/><tag k="addr:postcode" v="78702"/></node><node id="-39" lat="30.252787" lon="-97.714628" changeset="false"><tag k="addr:street" v="Willow Street"/><tag k="addr:housenumber" v="2614"/><tag k="addr:postcode" v="78702"/></node><node id="-40" lat="30.252197" lon="-97.714025" changeset="false"><tag k="addr:street" v="Willow Street"/><tag k="addr:housenumber" v="2707"/><tag k="addr:postcode" v="78702"/></node><node id="-41" lat="30.252109" lon="-97.714566" changeset="false"><tag k="addr:street" v="Llano Street"/><tag k="addr:housenumber" v="85"/><tag k="addr:postcode" v="78702"/></node><node id="-42" lat="30.252222" lon="-97.714192" changeset="false"><tag k="addr:street" v="Willow Street"/><tag k="addr:housenumber" v="2705"/><tag k="addr:postcode" v="78702"/></node><node id="-43" lat="30.252277" lon="-97.714316" changeset="false"><tag k="addr:street" v="Willow Street"/><tag k="addr:housenumber" v="2703"/><tag k="addr:postcode" v="78702"/></node><node id="-44" lat="30.252343" lon="-97.714846" changeset="false"><tag k="addr:street" v="Willow Street"/><tag k="addr:housenumber" v="2619"/><tag k="addr:postcode" v="78702"/></node><node id="-45" lat="30.252305" lon="-97.714478" changeset="false"><tag k="addr:street" v="Willow Street"/><tag k="addr:housenumber" v="2701"/><tag k="addr:postcode" v="78702"/></node><node id="-46" lat="30.252542" lon="-97.715064" changeset="false"><tag k="addr:street" v="Willow Street"/><tag k="addr:housenumber" v="2615"/><tag k="addr:postcode" v="78702"/></node><node id="-47" lat="30.251721" lon="-97.714442" changeset="false"><tag k="addr:street" v="Canterbury Street"/><tag k="addr:housenumber" v="2704"/><tag k="addr:postcode" v="78702"/></node><node id="-48" lat="30.251712" lon="-97.714256" changeset="false"><tag k="addr:street" v="Canterbury Street"/><tag k="addr:housenumber" v="2706"/><tag k="addr:postcode" v="78702"/></node><node id="-49" lat="30.25171" lon="-97.714041" changeset="false"><tag k="addr:street" v="Canterbury Street"/><tag k="addr:housenumber" v="2708"/><tag k="addr:postcode" v="78702"/></node><node id="-50" lat="30.251868" lon="-97.715017" changeset="false"><tag k="addr:street" v="Canterbury Street"/><tag k="addr:housenumber" v="2614"/><tag k="addr:postcode" v="78702"/></node><node id="-51" lat="30.25176" lon="-97.714715" changeset="false"><tag k="addr:street" v="Llano Street"/><tag k="addr:housenumber" v="81"/><tag k="addr:postcode" v="78702"/></node><node id="-52" lat="30.251907" lon="-97.714537" changeset="false"><tag k="addr:street" v="Llano Street"/><tag k="addr:housenumber" v="83"/><tag k="addr:postcode" v="78702"/></node><node id="-53" lat="30.253464" lon="-97.71544" changeset="false"><tag k="addr:street" v="San Saba Street"/><tag k="addr:housenumber" v="97"/><tag k="addr:postcode" v="78702"/></node><node id="-54" lat="30.253753" lon="-97.715338" changeset="false"><tag k="addr:street" v="East Cesar Chavez Street"/><tag k="addr:housenumber" v="2601"/><tag k="addr:postcode" v="78702"/></node><node id="-55" lat="30.253794" lon="-97.715668" changeset="false"><tag k="addr:street" v="East Cesar Chavez Street"/><tag k="addr:housenumber" v="2515"/><tag k="addr:postcode" v="78702"/></node><node id="-56" lat="30.253873" lon="-97.71595" changeset="false"><tag k="addr:street" v="East Cesar Chavez Street"/><tag k="addr:housenumber" v="2511"/><tag k="addr:postcode" v="78702"/></node><node id="-57" lat="30.253958" lon="-97.716077" changeset="false"><tag k="addr:street" v="East Cesar Chavez Street"/><tag k="addr:housenumber" v="2509"/><tag k="addr:postcode" v="78702"/></node><node id="-58" lat="30.253963" lon="-97.71622" changeset="false"><tag k="addr:street" v="East Cesar Chavez Street"/><tag k="addr:housenumber" v="2507"/><tag k="addr:postcode" v="78702"/></node><node id="-59" lat="30.252746" lon="-97.715614" changeset="false"><tag k="addr:street" v="Willow Street"/><tag k="addr:housenumber" v="2603"/><tag k="addr:postcode" v="78702"/></node><node id="-60" lat="30.252807" lon="-97.715763" changeset="false"><tag k="addr:street" v="Willow Street"/><tag k="addr:housenumber" v="2601"/><tag k="addr:postcode" v="78702"/></node><node id="-61" lat="30.252955" lon="-97.715211" changeset="false"><tag k="addr:street" v="Willow Street"/><tag k="addr:housenumber" v="2606"/><tag k="addr:postcode" v="78702"/></node><node id="-62" lat="30.252996" lon="-97.715343" changeset="false"><tag k="addr:street" v="Willow Street"/><tag k="addr:housenumber" v="2604"/><tag k="addr:postcode" v="78702"/></node><node id="-63" lat="30.253435" lon="-97.715819" changeset="false"><tag k="addr:street" v="San Saba Street"/><tag k="addr:housenumber" v="94"/><tag k="addr:postcode" v="78702"/></node><node id="-64" lat="30.253043" lon="-97.715483" changeset="false"><tag k="addr:street" v="Willow Street"/><tag k="addr:housenumber" v="2602"/><tag k="addr:postcode" v="78702"/></node><node id="-65" lat="30.253273" lon="-97.716065" changeset="false"><tag k="addr:street" v="Willow Street"/><tag k="addr:housenumber" v="2512"/><tag k="addr:postcode" v="78702"/></node><node id="-66" lat="30.253336" lon="-97.716204" changeset="false"><tag k="addr:street" v="Willow Street"/><tag k="addr:housenumber" v="2510"/><tag k="addr:postcode" v="78702"/></node><node id="-67" lat="30.253344" lon="-97.715536" changeset="false"><tag k="addr:street" v="San Saba Street"/><tag k="addr:housenumber" v="93"/><tag k="addr:postcode" v="78702"/></node><node id="-68" lat="30.253102" lon="-97.715637" changeset="false"><tag k="addr:street" v="Willow Street"/><tag k="addr:housenumber" v="2600"/><tag k="addr:postcode" v="78702"/></node><node id="-69" lat="30.252417" lon="-97.715925" changeset="false"><tag k="addr:street" v="San Saba Street"/><tag k="addr:housenumber" v="83"/><tag k="addr:postcode" v="78702"/></node><node id="-70" lat="30.252705" lon="-97.715503" changeset="false"><tag k="addr:street" v="Willow Street"/><tag k="addr:housenumber" v="2605"/><tag k="addr:postcode" v="78702"/></node><node id="-71" lat="30.252639" lon="-97.715343" changeset="false"><tag k="addr:street" v="Willow Street"/><tag k="addr:housenumber" v="2607"/><tag k="addr:postcode" v="78702"/></node><node id="-72" lat="30.252595" lon="-97.715211" changeset="false"><tag k="addr:street" v="Willow Street"/><tag k="addr:housenumber" v="2609"/><tag k="addr:postcode" v="78702"/></node><node id="-73" lat="30.251926" lon="-97.715166" changeset="false"><tag k="addr:street" v="Canterbury Street"/><tag k="addr:housenumber" v="2612"/><tag k="addr:postcode" v="78702"/></node><node id="-74" lat="30.251973" lon="-97.715323" changeset="false"><tag k="addr:street" v="Canterbury Street"/><tag k="addr:housenumber" v="2610"/><tag k="addr:postcode" v="78702"/></node><node id="-75" lat="30.252125" lon="-97.715762" changeset="false"><tag k="addr:street" v="Canterbury Street"/><tag k="addr:housenumber" v="2604"/><tag k="addr:postcode" v="78702"/></node><node id="-76" lat="30.252075" lon="-97.715614" changeset="false"><tag k="addr:street" v="Canterbury Street"/><tag k="addr:housenumber" v="2606"/><tag k="addr:postcode" v="78702"/></node><node id="-77" lat="30.252017" lon="-97.715454" changeset="false"><tag k="addr:street" v="Canterbury Street"/><tag k="addr:housenumber" v="2608"/><tag k="addr:postcode" v="78702"/></node><node id="-78" lat="30.252221" lon="-97.716034" changeset="false"><tag k="addr:street" v="Canterbury Street"/><tag k="addr:housenumber" v="2600"/><tag k="addr:postcode" v="78702"/></node><node id="-79" lat="30.252171" lon="-97.71588" changeset="false"><tag k="addr:street" v="Canterbury Street"/><tag k="addr:housenumber" v="2602"/><tag k="addr:postcode" v="78702"/></node><node id="-80" lat="30.252282" lon="-97.716334" changeset="false"><tag k="addr:street" v="Canterbury Street"/><tag k="addr:housenumber" v="2514"/><tag k="addr:postcode" v="78702"/></node><node id="-81" lat="30.253821" lon="-97.716881" changeset="false"><tag k="addr:street" v="Pedernales Street"/><tag k="addr:housenumber" v="95"/><tag k="addr:postcode" v="78702"/></node><node id="-82" lat="30.254143" lon="-97.716515" changeset="false"><tag k="addr:street" v="East Cesar Chavez Street"/><tag k="addr:housenumber" v="2503"/><tag k="addr:postcode" v="78702"/></node><node id="-83" lat="30.254321" lon="-97.7171" changeset="false"><tag k="addr:street" v="East Cesar Chavez Street"/><tag k="addr:housenumber" v="2409"/><tag k="addr:postcode" v="78702"/></node><node id="-84" lat="30.254265" lon="-97.716979" changeset="false"><tag k="addr:street" v="East Cesar Chavez Street"/><tag k="addr:housenumber" v="2411"/><tag k="addr:postcode" v="78702"/></node><node id="-85" lat="30.254029" lon="-97.716398" changeset="false"><tag k="addr:street" v="East Cesar Chavez Street"/><tag k="addr:housenumber" v="2505"/><tag k="addr:postcode" v="78702"/></node><node id="-86" lat="30.254159" lon="-97.716656" changeset="false"><tag k="addr:street" v="East Cesar Chavez Street"/><tag k="addr:housenumber" v="2501"/><tag k="addr:postcode" v="78702"/></node><node id="-87" lat="30.25436" lon="-97.717236" changeset="false"><tag k="addr:street" v="East Cesar Chavez Street"/><tag k="addr:housenumber" v="2407"/><tag k="addr:postcode" v="78702"/></node><node id="-88" lat="30.253336" lon="-97.717412" changeset="false"><tag k="addr:street" v="Willow Street"/><tag k="addr:housenumber" v="2411"/><tag k="addr:postcode" v="78702"/></node><node id="-89" lat="30.253385" lon="-97.716331" changeset="false"><tag k="addr:street" v="Willow Street"/><tag k="addr:housenumber" v="2508"/><tag k="addr:postcode" v="78702"/></node><node id="-90" lat="30.253479" lon="-97.716627" changeset="false"><tag k="addr:street" v="Willow Street"/><tag k="addr:housenumber" v="2504"/><tag k="addr:postcode" v="78702"/></node><node id="-91" lat="30.253526" lon="-97.716771" changeset="false"><tag k="addr:street" v="Willow Street"/><tag k="addr:housenumber" v="2502"/><tag k="addr:postcode" v="78702"/></node><node id="-92" lat="30.253584" lon="-97.716921" changeset="false"><tag k="addr:street" v="Willow Street"/><tag k="addr:housenumber" v="2500"/><tag k="addr:postcode" v="78702"/></node><node id="-93" lat="30.253383" lon="-97.717561" changeset="false"><tag k="addr:street" v="Willow Street"/><tag k="addr:housenumber" v="2409"/><tag k="addr:postcode" v="78702"/></node><node id="-94" lat="30.253687" lon="-97.71722" changeset="false"><tag k="addr:street" v="Willow Street"/><tag k="addr:housenumber" v="2412"/><tag k="addr:postcode" v="78702"/></node><node id="-95" lat="30.253775" lon="-97.71733" changeset="false"><tag k="addr:street" v="Willow Street"/><tag k="addr:housenumber" v="2408"/><tag k="addr:postcode" v="78702"/></node><node id="-96" lat="30.253822" lon="-97.717475" changeset="false"><tag k="addr:street" v="Willow Street"/><tag k="addr:housenumber" v="2406"/><tag k="addr:postcode" v="78702"/></node><node id="-97" lat="30.252878" lon="-97.717235" changeset="false"><tag k="addr:street" v="Pedernales Street"/><tag k="addr:housenumber" v="85"/><tag k="addr:postcode" v="78702"/></node><node id="-98" lat="30.253014" lon="-97.716343" changeset="false"><tag k="addr:street" v="Willow Street"/><tag k="addr:housenumber" v="2511"/><tag k="addr:postcode" v="78702"/></node><node id="-99" lat="30.253164" lon="-97.716793" changeset="false"><tag k="addr:street" v="Willow Street"/><tag k="addr:housenumber" v="2505"/><tag k="addr:postcode" v="78702"/></node><node id="-100" lat="30.252992" lon="-97.717529" changeset="false"><tag k="addr:street" v="Pedernales Street"/><tag k="addr:housenumber" v="84"/><tag k="addr:postcode" v="78702"/></node><node id="-101" lat="30.253111" lon="-97.716653" changeset="false"><tag k="addr:street" v="Willow Street"/><tag k="addr:housenumber" v="2507"/><tag k="addr:postcode" v="78702"/></node><node id="-102" lat="30.253202" lon="-97.716914" changeset="false"><tag k="addr:street" v="Willow Street"/><tag k="addr:housenumber" v="2503"/><tag k="addr:postcode" v="78702"/></node><node id="-103" lat="30.253249" lon="-97.717069" changeset="false"><tag k="addr:street" v="Willow Street"/><tag k="addr:housenumber" v="2501"/><tag k="addr:postcode" v="78702"/></node><node id="-104" lat="30.252507" lon="-97.716571" changeset="false"><tag k="addr:street" v="Canterbury Street"/><tag k="addr:housenumber" v="2510"/><tag k="addr:postcode" v="78702"/></node><node id="-105" lat="30.252457" lon="-97.716791" changeset="false"><tag k="addr:street" v="Canterbury Street"/><tag k="addr:housenumber" v="2508"/><tag k="addr:postcode" v="78702"/></node><node id="-106" lat="30.252562" lon="-97.716874" changeset="false"><tag k="addr:street" v="Canterbury Street"/><tag k="addr:housenumber" v="2506"/><tag k="addr:postcode" v="78702"/></node><node id="-107" lat="30.252337" lon="-97.716466" changeset="false"><tag k="addr:street" v="Canterbury Street"/><tag k="addr:housenumber" v="2512"/><tag k="addr:postcode" v="78702"/></node><node id="-108" lat="30.252542" lon="-97.717045" changeset="false"><tag k="addr:street" v="Canterbury Street"/><tag k="addr:housenumber" v="2504"/><tag k="addr:postcode" v="78702"/></node><node id="-109" lat="30.252759" lon="-97.717292" changeset="false"><tag k="addr:street" v="Pedernales Street"/><tag k="addr:housenumber" v="83"/><tag k="addr:postcode" v="78702"/></node><node id="-110" lat="30.252652" lon="-97.717334" changeset="false"><tag k="addr:street" v="Pedernales Street"/><tag k="addr:housenumber" v="81"/><tag k="addr:postcode" v="78702"/></node><node id="-111" lat="30.255209" lon="-97.719655" changeset="false"><tag k="addr:street" v="East Cesar Chavez Street"/><tag k="addr:housenumber" v="2215"/><tag k="addr:postcode" v="78702"/></node><node id="-112" lat="30.255287" lon="-97.719789" changeset="false"><tag k="addr:street" v="East Cesar Chavez Street"/><tag k="addr:housenumber" v="2213"/><tag k="addr:postcode" v="78702"/></node><node id="-113" lat="30.255271" lon="-97.719906" changeset="false"><tag k="addr:street" v="East Cesar Chavez Street"/><tag k="addr:housenumber" v="2211"/><tag k="addr:postcode" v="78702"/></node><node id="-114" lat="30.25548" lon="-97.720358" changeset="false"><tag k="addr:street" v="East Cesar Chavez Street"/><tag k="addr:housenumber" v="2205"/><tag k="addr:postcode" v="78702"/></node><node id="-115" lat="30.255568" lon="-97.72063" changeset="false"><tag k="addr:street" v="East Cesar Chavez Street"/><tag k="addr:housenumber" v="2201"/><tag k="addr:postcode" v="78702"/></node><node id="-116" lat="30.255521" lon="-97.720472" changeset="false"><tag k="addr:street" v="East Cesar Chavez Street"/><tag k="addr:housenumber" v="2203"/><tag k="addr:postcode" v="78702"/></node><node id="-117" lat="30.254835" lon="-97.720458" changeset="false"><tag k="addr:street" v="Willow Street"/><tag k="addr:housenumber" v="2206"/><tag k="addr:postcode" v="78702"/></node><node id="-118" lat="30.254893" lon="-97.719054" changeset="false"><tag k="addr:street" v="East Cesar Chavez Street"/><tag k="addr:housenumber" v="2305"/><tag k="addr:postcode" v="78702"/></node><node id="-119" lat="30.254861" lon="-97.720588" changeset="false"><tag k="addr:street" v="Willow Street"/><tag k="addr:housenumber" v="2204"/><tag k="addr:postcode" v="78702"/></node><node id="-120" lat="30.254791" lon="-97.719806" changeset="false"><tag k="addr:street" v="Mildred Street"/><tag k="addr:housenumber" v="92"/><tag k="addr:postcode" v="78702"/></node><node id="-121" lat="30.254931" lon="-97.720756" changeset="false"><tag k="addr:street" v="Willow Street"/><tag k="addr:housenumber" v="2202"/><tag k="addr:postcode" v="78702"/></node><node id="-122" lat="30.255058" lon="-97.719173" changeset="false"><tag k="addr:street" v="East Cesar Chavez Street"/><tag k="addr:housenumber" v="2303"/><tag k="addr:postcode" v="78702"/></node><node id="-123" lat="30.25495" lon="-97.719717" changeset="false"><tag k="addr:street" v="Mildred Street"/><tag k="addr:housenumber" v="96"/><tag k="addr:postcode" v="78702"/></node><node id="-124" lat="30.255044" lon="-97.719304" changeset="false"><tag k="addr:street" v="East Cesar Chavez Street"/><tag k="addr:housenumber" v="2301"/><tag k="addr:postcode" v="78702"/></node><node id="-125" lat="30.254649" lon="-97.718216" changeset="false"><tag k="addr:street" v="East Cesar Chavez Street"/><tag k="addr:housenumber" v="2331"/><tag k="addr:postcode" v="78702"/></node><node id="-126" lat="30.254663" lon="-97.720016" changeset="false"><tag k="addr:street" v="Willow Street"/><tag k="addr:housenumber" v="2212"/><tag k="addr:postcode" v="78702"/></node><node id="-127" lat="30.254613" lon="-97.718042" changeset="false"><tag k="addr:street" v="East Cesar Chavez Street"/><tag k="addr:housenumber" v="2335"/><tag k="addr:postcode" v="78702"/></node><node id="-128" lat="30.254624" lon="-97.71989" changeset="false"><tag k="addr:street" v="Willow Street"/><tag k="addr:housenumber" v="2214"/><tag k="addr:postcode" v="78702"/></node><node id="-129" lat="30.254705" lon="-97.720161" changeset="false"><tag k="addr:street" v="Willow Street"/><tag k="addr:housenumber" v="2210"/><tag k="addr:postcode" v="78702"/></node><node id="-130" lat="30.254728" lon="-97.719482" changeset="false"><tag k="addr:street" v="Mildred Street"/><tag k="addr:housenumber" v="93"/><tag k="addr:postcode" v="78702"/></node><node id="-131" lat="30.254693" lon="-97.718372" changeset="false"><tag k="addr:street" v="East Cesar Chavez Street"/><tag k="addr:housenumber" v="2329"/><tag k="addr:postcode" v="78702"/></node><node id="-132" lat="30.25476" lon="-97.720301" changeset="false"><tag k="addr:street" v="Willow Street"/><tag k="addr:housenumber" v="2208"/><tag k="addr:postcode" v="78702"/></node><node id="-133" lat="30.254505" lon="-97.717615" changeset="false"><tag k="addr:street" v="East Cesar Chavez Street"/><tag k="addr:housenumber" v="2401"/><tag k="addr:postcode" v="78702"/></node><node id="-134" lat="30.254502" lon="-97.72078" changeset="false"><tag k="addr:street" v="Willow Street"/><tag k="addr:housenumber" v="2205"/><tag k="addr:postcode" v="78702"/></node><node id="-135" lat="30.254458" lon="-97.720638" changeset="false"><tag k="addr:street" v="Willow Street"/><tag k="addr:housenumber" v="2207"/><tag k="addr:postcode" v="78702"/></node><node id="-136" lat="30.254452" lon="-97.719416" changeset="false"><tag k="addr:street" v="Willow Street"/><tag k="addr:housenumber" v="2302"/><tag k="addr:postcode" v="78702"/></node><node id="-137" lat="30.254557" lon="-97.720923" changeset="false"><tag k="addr:street" v="Willow Street"/><tag k="addr:housenumber" v="2203"/><tag k="addr:postcode" v="78702"/></node><node id="-138" lat="30.254402" lon="-97.719277" changeset="false"><tag k="addr:street" v="Willow Street"/><tag k="addr:housenumber" v="2304"/><tag k="addr:postcode" v="78702"/></node><node id="-139" lat="30.254543" lon="-97.717957" changeset="false"><tag k="addr:street" v="East Cesar Chavez Street"/><tag k="addr:housenumber" v="2337"/><tag k="addr:postcode" v="78702"/></node><node id="-140" lat="30.254496" lon="-97.719579" changeset="false"><tag k="addr:street" v="Willow Street"/><tag k="addr:housenumber" v="2300"/><tag k="addr:postcode" v="78702"/></node><node id="-141" lat="30.25612" lon="-97.722358" changeset="false"><tag k="addr:street" v="East Cesar Chavez Street"/><tag k="addr:housenumber" v="2027"/><tag k="addr:postcode" v="78702"/></node><node id="-142" lat="30.256172" lon="-97.722539" changeset="false"><tag k="addr:street" v="East Cesar Chavez Street"/><tag k="addr:housenumber" v="2023"/><tag k="addr:postcode" v="78702"/></node><node id="-143" lat="30.256287" lon="-97.722805" changeset="false"><tag k="addr:street" v="East Cesar Chavez Street"/><tag k="addr:housenumber" v="2013"/><tag k="addr:postcode" v="78702"/></node><node id="-144" lat="30.256335" lon="-97.722976" changeset="false"><tag k="addr:street" v="East Cesar Chavez Street"/><tag k="addr:housenumber" v="2009"/><tag k="addr:postcode" v="78702"/></node><node id="-145" lat="30.255589" lon="-97.721534" changeset="false"><tag k="addr:street" v="East Cesar Chavez Street"/><tag k="addr:housenumber" v="2115"/><tag k="addr:postcode" v="78702"/></node><node id="-146" lat="30.255737" lon="-97.721244" changeset="false"><tag k="addr:street" v="East Cesar Chavez Street"/><tag k="addr:housenumber" v="2121"/><tag k="addr:postcode" v="78702"/></node><node id="-147" lat="30.255765" lon="-97.722075" changeset="false"><tag k="addr:street" v="Anthony Street"/><tag k="addr:housenumber" v="97"/><tag k="addr:postcode" v="78702"/></node><node id="-148" lat="30.255682" lon="-97.7211" changeset="false"><tag k="addr:street" v="East Cesar Chavez Street"/><tag k="addr:housenumber" v="2125"/><tag k="addr:postcode" v="78702"/></node><node id="-149" lat="30.255724" lon="-97.722417" changeset="false"><tag k="addr:street" v="Anthony Street"/><tag k="addr:housenumber" v="94"/><tag k="addr:postcode" v="78702"/></node><node id="-150" lat="30.255895" lon="-97.721676" changeset="false"><tag k="addr:street" v="East Cesar Chavez Street"/><tag k="addr:housenumber" v="2109"/><tag k="addr:postcode" v="78702"/></node><node id="-151" lat="30.255218" lon="-97.721692" changeset="false"><tag k="addr:street" v="Willow Street"/><tag k="addr:housenumber" v="2110"/><tag k="addr:postcode" v="78702"/></node><node id="-152" lat="30.255291" lon="-97.722956" changeset="false"><tag k="addr:street" v="Willow Street"/><tag k="addr:housenumber" v="2011"/><tag k="addr:postcode" v="78702"/></node><node id="-153" lat="30.255267" lon="-97.721822" changeset="false"><tag k="addr:street" v="Willow Street"/><tag k="addr:housenumber" v="2106"/><tag k="addr:postcode" v="78702"/></node><node id="-154" lat="30.255314" lon="-97.721942" changeset="false"><tag k="addr:street" v="Willow Street"/><tag k="addr:housenumber" v="2104"/><tag k="addr:postcode" v="78702"/></node><node id="-155" lat="30.255357" lon="-97.72207" changeset="false"><tag k="addr:street" v="Willow Street"/><tag k="addr:housenumber" v="2102"/><tag k="addr:postcode" v="78702"/></node><node id="-156" lat="30.255421" lon="-97.72222" changeset="false"><tag k="addr:street" v="Willow Street"/><tag k="addr:housenumber" v="2100"/><tag k="addr:postcode" v="78702"/></node><node id="-157" lat="30.255521" lon="-97.722569" changeset="false"><tag k="addr:street" v="Willow Street"/><tag k="addr:housenumber" v="2016"/><tag k="addr:postcode" v="78702"/></node><node id="-158" lat="30.255565" lon="-97.722704" changeset="false"><tag k="addr:street" v="Willow Street"/><tag k="addr:housenumber" v="2014"/><tag k="addr:postcode" v="78702"/></node><node id="-159" lat="30.254609" lon="-97.721064" changeset="false"><tag k="addr:street" v="Willow Street"/><tag k="addr:housenumber" v="2201"/><tag k="addr:postcode" v="78702"/></node><node id="-160" lat="30.254714" lon="-97.722906" changeset="false"><tag k="addr:street" v="Anthony Street"/><tag k="addr:housenumber" v="82"/><tag k="addr:postcode" v="78702"/></node><node id="-161" lat="30.254638" lon="-97.722931" changeset="false"><tag k="addr:street" v="Anthony Street"/><tag k="addr:housenumber" v="80"/><tag k="addr:postcode" v="78702"/></node><node id="-162" lat="30.255157" lon="-97.721536" changeset="false"><tag k="addr:street" v="Willow Street"/><tag k="addr:housenumber" v="2112"/><tag k="addr:postcode" v="78702"/></node><node id="-163" lat="30.255054" lon="-97.721241" changeset="false"><tag k="addr:street" v="Willow Street"/><tag k="addr:housenumber" v="2116"/><tag k="addr:postcode" v="78702"/></node><node id="-164" lat="30.255244" lon="-97.722812" changeset="false"><tag k="addr:street" v="Willow Street"/><tag k="addr:housenumber" v="2013"/><tag k="addr:postcode" v="78702"/></node><node id="-165" lat="30.255197" lon="-97.722724" changeset="false"><tag k="addr:street" v="Willow Street"/><tag k="addr:housenumber" v="2015"/><tag k="addr:postcode" v="78702"/></node><node id="-166" lat="30.255104" lon="-97.721391" changeset="false"><tag k="addr:street" v="Willow Street"/><tag k="addr:housenumber" v="2114"/><tag k="addr:postcode" v="78702"/></node><node id="-167" lat="30.256038" lon="-97.723939" changeset="false"><tag k="addr:street" v="Willow Street"/><tag k="addr:housenumber" v="1912"/><tag k="addr:postcode" v="78702"/></node><node id="-168" lat="30.256091" lon="-97.724078" changeset="false"><tag k="addr:street" v="Willow Street"/><tag k="addr:housenumber" v="1910"/><tag k="addr:postcode" v="78702"/></node><node id="-169" lat="30.256235" lon="-97.72334" changeset="false"><tag k="addr:street" v="Lynn Street"/><tag k="addr:housenumber" v="97"/><tag k="addr:postcode" v="78702"/></node><node id="-170" lat="30.256393" lon="-97.723271" changeset="false"><tag k="addr:street" v="East Cesar Chavez Street"/><tag k="addr:housenumber" v="2003"/><tag k="addr:postcode" v="78702"/></node><node id="-171" lat="30.256384" lon="-97.723108" changeset="false"><tag k="addr:street" v="East Cesar Chavez Street"/><tag k="addr:housenumber" v="2005"/><tag k="addr:postcode" v="78702"/></node><node id="-172" lat="30.256394" lon="-97.723607" changeset="false"><tag k="addr:street" v="Lynn Street"/><tag k="addr:housenumber" v="96"/><tag k="addr:postcode" v="78702"/></node><node id="-173" lat="30.256606" lon="-97.723699" changeset="false"><tag k="addr:street" v="East Cesar Chavez Street"/><tag k="addr:housenumber" v="1913"/><tag k="addr:postcode" v="78702"/></node><node id="-174" lat="30.256653" lon="-97.723842" changeset="false"><tag k="addr:street" v="East Cesar Chavez Street"/><tag k="addr:housenumber" v="1911"/><tag k="addr:postcode" v="78702"/></node><node id="-175" lat="30.255396" lon="-97.72326" changeset="false"><tag k="addr:street" v="Willow Street"/><tag k="addr:housenumber" v="2007"/><tag k="addr:postcode" v="78702"/></node><node id="-176" lat="30.255473" lon="-97.723526" changeset="false"><tag k="addr:street" v="Willow Street"/><tag k="addr:housenumber" v="2003"/><tag k="addr:postcode" v="78702"/></node><node id="-177" lat="30.255702" lon="-97.72413" changeset="false"><tag k="addr:street" v="Willow Street"/><tag k="addr:housenumber" v="1913"/><tag k="addr:postcode" v="78702"/></node><node id="-178" lat="30.255663" lon="-97.723977" changeset="false"><tag k="addr:street" v="Willow Street"/><tag k="addr:housenumber" v="1915"/><tag k="addr:postcode" v="78702"/></node><node id="-179" lat="30.255891" lon="-97.723519" changeset="false"><tag k="addr:street" v="Willow Street"/><tag k="addr:housenumber" v="2000"/><tag k="addr:postcode" v="78702"/></node><node id="-180" lat="30.255775" lon="-97.723236" changeset="false"><tag k="addr:street" v="Willow Street"/><tag k="addr:housenumber" v="2004"/><tag k="addr:postcode" v="78702"/></node><node id="-181" lat="30.256" lon="-97.723825" changeset="false"><tag k="addr:street" v="Willow Street"/><tag k="addr:housenumber" v="1914"/><tag k="addr:postcode" v="78702"/></node><node id="-182" lat="30.255833" lon="-97.723377" changeset="false"><tag k="addr:street" v="Willow Street"/><tag k="addr:housenumber" v="2002"/><tag k="addr:postcode" v="78702"/></node><node id="-183" lat="30.25479" lon="-97.723358" changeset="false"><tag k="addr:street" v="Canterbury Street"/><tag k="addr:housenumber" v="2008"/><tag k="addr:postcode" v="78702"/></node><node id="-184" lat="30.254834" lon="-97.723501" changeset="false"><tag k="addr:street" v="Canterbury Street"/><tag k="addr:housenumber" v="2006"/><tag k="addr:postcode" v="78702"/></node><node id="-185" lat="30.254988" lon="-97.723925" changeset="false"><tag k="addr:street" v="Canterbury Street"/><tag k="addr:housenumber" v="2000"/><tag k="addr:postcode" v="78702"/></node><node id="-186" lat="30.254889" lon="-97.723641" changeset="false"><tag k="addr:street" v="Canterbury Street"/><tag k="addr:housenumber" v="2004"/><tag k="addr:postcode" v="78702"/></node><node id="-187" lat="30.255088" lon="-97.724237" changeset="false"><tag k="addr:street" v="Canterbury Street"/><tag k="addr:housenumber" v="1914"/><tag k="addr:postcode" v="78702"/></node><node id="-188" lat="30.254941" lon="-97.723782" changeset="false"><tag k="addr:street" v="Canterbury Street"/><tag k="addr:housenumber" v="2002"/><tag k="addr:postcode" v="78702"/></node><node id="-189" lat="30.255338" lon="-97.723098" changeset="false"><tag k="addr:street" v="Willow Street"/><tag k="addr:housenumber" v="2009"/><tag k="addr:postcode" v="78702"/></node><node id="-190" lat="30.255423" lon="-97.723378" changeset="false"><tag k="addr:street" v="Willow Street"/><tag k="addr:housenumber" v="2005"/><tag k="addr:postcode" v="78702"/></node><node id="-191" lat="30.254582" lon="-97.723954" changeset="false"><tag k="addr:street" v="Canterbury Street"/><tag k="addr:housenumber" v="2003"/><tag k="addr:postcode" v="78702"/></node><node id="-192" lat="30.25443" lon="-97.723514" changeset="false"><tag k="addr:street" v="Canterbury Street"/><tag k="addr:housenumber" v="2009"/><tag k="addr:postcode" v="78702"/></node><node id="-193" lat="30.254482" lon="-97.723648" changeset="false"><tag k="addr:street" v="Canterbury Street"/><tag k="addr:housenumber" v="2007"/><tag k="addr:postcode" v="78702"/></node><node id="-194" lat="30.254649" lon="-97.723103" changeset="false"><tag k="addr:street" v="Canterbury Street"/><tag k="addr:housenumber" v="2012"/><tag k="addr:postcode" v="78702"/></node><node id="-195" lat="30.254535" lon="-97.72382" changeset="false"><tag k="addr:street" v="Canterbury Street"/><tag k="addr:housenumber" v="2005"/><tag k="addr:postcode" v="78702"/></node><node id="-196" lat="30.254395" lon="-97.723397" changeset="false"><tag k="addr:street" v="Canterbury Street"/><tag k="addr:housenumber" v="2011"/><tag k="addr:postcode" v="78702"/></node><node id="-197" lat="30.254737" lon="-97.723202" changeset="false"><tag k="addr:street" v="Canterbury Street"/><tag k="addr:housenumber" v="2010"/><tag k="addr:postcode" v="78702"/></node><node id="-198" lat="30.255802" lon="-97.724413" changeset="false"><tag k="addr:street" v="Willow Street"/><tag k="addr:housenumber" v="1909"/><tag k="addr:postcode" v="78702"/></node><node id="-199" lat="30.255851" lon="-97.724565" changeset="false"><tag k="addr:street" v="Willow Street"/><tag k="addr:housenumber" v="1907"/><tag k="addr:postcode" v="78702"/></node><node id="-200" lat="30.256336" lon="-97.7248" changeset="false"><tag k="addr:street" v="Willow Street"/><tag k="addr:housenumber" v="1900"/><tag k="addr:postcode" v="78702"/></node><node id="-201" lat="30.25594" lon="-97.72484" changeset="false"><tag k="addr:street" v="Willow Street"/><tag k="addr:housenumber" v="1903"/><tag k="addr:postcode" v="78702"/></node><node id="-202" lat="30.256229" lon="-97.724509" changeset="false"><tag k="addr:street" v="Willow Street"/><tag k="addr:housenumber" v="1904"/><tag k="addr:postcode" v="78702"/></node><node id="-203" lat="30.256832" lon="-97.724426" changeset="false"><tag k="addr:street" v="East Cesar Chavez Street"/><tag k="addr:housenumber" v="1903"/><tag k="addr:postcode" v="78702"/></node><node id="-204" lat="30.256275" lon="-97.724648" changeset="false"><tag k="addr:street" v="Willow Street"/><tag k="addr:housenumber" v="1902"/><tag k="addr:postcode" v="78702"/></node><node id="-205" lat="30.255864" lon="-97.72471" changeset="false"><tag k="addr:street" v="Willow Street"/><tag k="addr:housenumber" v="1905"/><tag k="addr:postcode" v="78702"/></node><node id="-206" lat="30.256179" lon="-97.724365" changeset="false"><tag k="addr:street" v="Willow Street"/><tag k="addr:housenumber" v="1906"/><tag k="addr:postcode" v="78702"/></node><node id="-207" lat="30.255989" lon="-97.724974" changeset="false"><tag k="addr:street" v="Willow Street"/><tag k="addr:housenumber" v="1901"/><tag k="addr:postcode" v="78702"/></node><node id="-208" lat="30.255237" lon="-97.724664" changeset="false"><tag k="addr:street" v="Canterbury Street"/><tag k="addr:housenumber" v="1908"/><tag k="addr:postcode" v="78702"/></node><node id="-209" lat="30.255458" lon="-97.725222" changeset="false"><tag k="addr:street" v="Canterbury Street"/><tag k="addr:housenumber" v="1900"/><tag k="addr:postcode" v="78702"/></node><node id="-210" lat="30.255339" lon="-97.72492" changeset="false"><tag k="addr:street" v="Canterbury Street"/><tag k="addr:housenumber" v="1904"/><tag k="addr:postcode" v="78702"/></node><node id="-211" lat="30.255397" lon="-97.725089" changeset="false"><tag k="addr:street" v="Canterbury Street"/><tag k="addr:housenumber" v="1902"/><tag k="addr:postcode" v="78702"/></node><node id="-212" lat="30.255292" lon="-97.724793" changeset="false"><tag k="addr:street" v="Canterbury Street"/><tag k="addr:housenumber" v="1906"/><tag k="addr:postcode" v="78702"/></node><node id="-213" lat="30.255761" lon="-97.724285" changeset="false"><tag k="addr:street" v="Willow Street"/><tag k="addr:housenumber" v="1911"/><tag k="addr:postcode" v="78702"/></node><node id="-214" lat="30.254835" lon="-97.724854" changeset="false"><tag k="addr:street" v="Canterbury Street"/><tag k="addr:housenumber" v="1909"/><tag k="addr:postcode" v="78702"/></node><node id="-215" lat="30.255034" lon="-97.725104" changeset="false"><tag k="addr:street" v="Canterbury Street"/><tag k="addr:housenumber" v="1905"/><tag k="addr:postcode" v="78702"/></node><node id="-216" lat="30.254815" lon="-97.724714" changeset="false"><tag k="addr:street" v="Canterbury Street"/><tag k="addr:housenumber" v="1911"/><tag k="addr:postcode" v="78702"/></node><node id="-217" lat="30.254982" lon="-97.72495" changeset="false"><tag k="addr:street" v="Canterbury Street"/><tag k="addr:housenumber" v="1907"/><tag k="addr:postcode" v="78702"/></node><node id="-218" lat="30.255064" lon="-97.725218" changeset="false"><tag k="addr:street" v="Canterbury Street"/><tag k="addr:housenumber" v="1903"/><tag k="addr:postcode" v="78702"/></node><node id="-219" lat="30.255147" lon="-97.724392" changeset="false"><tag k="addr:street" v="Canterbury Street"/><tag k="addr:housenumber" v="1912"/><tag k="addr:postcode" v="78702"/></node><node id="-220" lat="30.255128" lon="-97.725387" changeset="false"><tag k="addr:street" v="Canterbury Street"/><tag k="addr:housenumber" v="1901"/><tag k="addr:postcode" v="78702"/></node><node id="-221" lat="30.255191" lon="-97.724529" changeset="false"><tag k="addr:street" v="Canterbury Street"/><tag k="addr:housenumber" v="1910"/><tag k="addr:postcode" v="78702"/></node><node id="-222" lat="30.254393" lon="-97.725221" changeset="false"><tag k="addr:street" v="Garden Street"/><tag k="addr:housenumber" v="1906"/><tag k="addr:postcode" v="78702"/></node><node id="-223" lat="30.254536" lon="-97.725619" changeset="false"><tag k="addr:street" v="Garden Street"/><tag k="addr:housenumber" v="1900"/><tag k="addr:postcode" v="78702"/></node><node id="-224" lat="30.254719" lon="-97.724424" changeset="false"><tag k="addr:street" v="Canterbury Street"/><tag k="addr:housenumber" v="1915"/><tag k="addr:postcode" v="78702"/></node><node id="-225" lat="30.254844" lon="-97.724533" changeset="false"><tag k="addr:street" v="Canterbury Street"/><tag k="addr:housenumber" v="1913"/><tag k="addr:postcode" v="78702"/></node><node id="-226" lat="30.254099" lon="-97.71831" changeset="false"><tag k="addr:street" v="Willow Street"/><tag k="addr:housenumber" v="2318"/><tag k="addr:postcode" v="78702"/></node><node id="-227" lat="30.254151" lon="-97.718475" changeset="false"><tag k="addr:street" v="Willow Street"/><tag k="addr:housenumber" v="2316"/><tag k="addr:postcode" v="78702"/></node><node id="-228" lat="30.254215" lon="-97.718638" changeset="false"><tag k="addr:street" v="Willow Street"/><tag k="addr:housenumber" v="2312"/><tag k="addr:postcode" v="78702"/></node><node id="-229" lat="30.254271" lon="-97.718803" changeset="false"><tag k="addr:street" v="Willow Street"/><tag k="addr:housenumber" v="2310"/><tag k="addr:postcode" v="78702"/></node><node id="-230" lat="30.254243" lon="-97.717719" changeset="false"><tag k="addr:street" v="Clara Street"/><tag k="addr:housenumber" v="95"/><tag k="addr:postcode" v="78702"/></node><node id="-231" lat="30.254376" lon="-97.719104" changeset="false"><tag k="addr:street" v="Willow Street"/><tag k="addr:housenumber" v="2306"/><tag k="addr:postcode" v="78702"/></node><node id="-232" lat="30.253926" lon="-97.717743" changeset="false"><tag k="addr:street" v="Willow Street"/><tag k="addr:housenumber" v="2402"/><tag k="addr:postcode" v="78702"/></node><node id="-233" lat="30.253775" lon="-97.718595" changeset="false"><tag k="addr:street" v="Willow Street"/><tag k="addr:housenumber" v="2317"/><tag k="addr:postcode" v="78702"/></node><node id="-234" lat="30.253754" lon="-97.718728" changeset="false"><tag k="addr:street" v="Willow Street"/><tag k="addr:housenumber" v="2315"/><tag k="addr:postcode" v="78702"/></node><node id="-235" lat="30.253874" lon="-97.717605" changeset="false"><tag k="addr:street" v="Willow Street"/><tag k="addr:housenumber" v="2404"/><tag k="addr:postcode" v="78702"/></node><node id="-236" lat="30.25394" lon="-97.718994" changeset="false"><tag k="addr:street" v="Willow Street"/><tag k="addr:housenumber" v="2311"/><tag k="addr:postcode" v="78702"/></node><node id="-237" lat="30.253979" lon="-97.717889" changeset="false"><tag k="addr:street" v="Willow Street"/><tag k="addr:housenumber" v="2400"/><tag k="addr:postcode" v="78702"/></node><node id="-238" lat="30.254025" lon="-97.718175" changeset="false"><tag k="addr:street" v="Willow Street"/><tag k="addr:housenumber" v="2320"/><tag k="addr:postcode" v="78702"/></node><node id="-239" lat="30.253283" lon="-97.718989" changeset="false"><tag k="addr:street" v="Canterbury Street"/><tag k="addr:housenumber" v="2314"/><tag k="addr:postcode" v="78702"/></node><node id="-240" lat="30.253336" lon="-97.719143" changeset="false"><tag k="addr:street" v="Canterbury Street"/><tag k="addr:housenumber" v="2312"/><tag k="addr:postcode" v="78702"/></node><node id="-241" lat="30.253435" lon="-97.717704" changeset="false"><tag k="addr:street" v="Willow Street"/><tag k="addr:housenumber" v="2407"/><tag k="addr:postcode" v="78702"/></node><node id="-242" lat="30.253479" lon="-97.717844" changeset="false"><tag k="addr:street" v="Willow Street"/><tag k="addr:housenumber" v="2405"/><tag k="addr:postcode" v="78702"/></node><node id="-243" lat="30.253566" lon="-97.718091" changeset="false"><tag k="addr:street" v="Willow Street"/><tag k="addr:housenumber" v="2401"/><tag k="addr:postcode" v="78702"/></node><node id="-244" lat="30.252947" lon="-97.71804" changeset="false"><tag k="addr:street" v="Canterbury Street"/><tag k="addr:housenumber" v="2404"/><tag k="addr:postcode" v="78702"/></node><node id="-245" lat="30.252963" lon="-97.718176" changeset="false"><tag k="addr:street" v="Canterbury Street"/><tag k="addr:housenumber" v="2402"/><tag k="addr:postcode" v="78702"/></node><node id="-246" lat="30.252804" lon="-97.71765" changeset="false"><tag k="addr:street" v="Canterbury Street"/><tag k="addr:housenumber" v="2412"/><tag k="addr:postcode" v="78702"/></node><node id="-247" lat="30.252905" lon="-97.71791" changeset="false"><tag k="addr:street" v="Canterbury Street"/><tag k="addr:housenumber" v="2408"/><tag k="addr:postcode" v="78702"/></node><node id="-248" lat="30.253054" lon="-97.718314" changeset="false"><tag k="addr:street" v="Canterbury Street"/><tag k="addr:housenumber" v="2400"/><tag k="addr:postcode" v="78702"/></node><node id="-249" lat="30.253245" lon="-97.718861" changeset="false"><tag k="addr:street" v="Canterbury Street"/><tag k="addr:housenumber" v="2316"/><tag k="addr:postcode" v="78702"/></node><node id="-250" lat="30.253192" lon="-97.718723" changeset="false"><tag k="addr:street" v="Canterbury Street"/><tag k="addr:housenumber" v="2318"/><tag k="addr:postcode" v="78702"/></node><node id="-251" lat="30.253165" lon="-97.718613" changeset="false"><tag k="addr:street" v="Canterbury Street"/><tag k="addr:housenumber" v="2320"/><tag k="addr:postcode" v="78702"/></node><node id="-252" lat="30.25419" lon="-97.719707" changeset="false"><tag k="addr:street" v="Willow Street"/><tag k="addr:housenumber" v="2301"/><tag k="addr:postcode" v="78702"/></node><node id="-253" lat="30.254364" lon="-97.720334" changeset="false"><tag k="addr:street" v="Willow Street"/><tag k="addr:housenumber" v="2211"/><tag k="addr:postcode" v="78702"/></node><node id="-254" lat="30.254265" lon="-97.720073" changeset="false"><tag k="addr:street" v="Willow Street"/><tag k="addr:housenumber" v="2215"/><tag k="addr:postcode" v="78702"/></node><node id="-255" lat="30.254317" lon="-97.720209" changeset="false"><tag k="addr:street" v="Willow Street"/><tag k="addr:housenumber" v="2213"/><tag k="addr:postcode" v="78702"/></node><node id="-256" lat="30.253967" lon="-97.721011" changeset="false"><tag k="addr:street" v="Canterbury Street"/><tag k="addr:housenumber" v="2204"/><tag k="addr:postcode" v="78702"/></node><node id="-257" lat="30.254071" lon="-97.721277" changeset="false"><tag k="addr:street" v="Canterbury Street"/><tag k="addr:housenumber" v="2200"/><tag k="addr:postcode" v="78702"/></node><node id="-258" lat="30.253987" lon="-97.719331" changeset="false"><tag k="addr:street" v="Willow Street"/><tag k="addr:housenumber" v="2307"/><tag k="addr:postcode" v="78702"/></node><node id="-259" lat="30.254105" lon="-97.719436" changeset="false"><tag k="addr:street" v="Willow Street"/><tag k="addr:housenumber" v="2305"/><tag k="addr:postcode" v="78702"/></node><node id="-260" lat="30.254002" lon="-97.721125" changeset="false"><tag k="addr:street" v="Canterbury Street"/><tag k="addr:housenumber" v="2202"/><tag k="addr:postcode" v="78702"/></node><node id="-261" lat="30.253993" lon="-97.720685" changeset="false"><tag k="addr:street" v="Canterbury Street"/><tag k="addr:housenumber" v="2208"/><tag k="addr:postcode" v="78702"/></node><node id="-262" lat="30.253918" lon="-97.720877" changeset="false"><tag k="addr:street" v="Canterbury Street"/><tag k="addr:housenumber" v="2206"/><tag k="addr:postcode" v="78702"/></node><node id="-263" lat="30.25408" lon="-97.719588" changeset="false"><tag k="addr:street" v="Willow Street"/><tag k="addr:housenumber" v="2303"/><tag k="addr:postcode" v="78702"/></node><node id="-264" lat="30.253834" lon="-97.720595" changeset="false"><tag k="addr:street" v="Canterbury Street"/><tag k="addr:housenumber" v="2210"/><tag k="addr:postcode" v="78702"/></node><node id="-265" lat="30.253908" lon="-97.719161" changeset="false"><tag k="addr:street" v="Willow Street"/><tag k="addr:housenumber" v="2309"/><tag k="addr:postcode" v="78702"/></node><node id="-266" lat="30.253993" lon="-97.722196" changeset="false"><tag k="addr:street" v="Canterbury Street"/><tag k="addr:housenumber" v="2109"/><tag k="addr:postcode" v="78702"/></node><node id="-267" lat="30.253447" lon="-97.719392" changeset="false"><tag k="addr:street" v="Canterbury Street"/><tag k="addr:housenumber" v="2308"/><tag k="addr:postcode" v="78702"/></node><node id="-268" lat="30.252938" lon="-97.722359" changeset="false"><tag k="addr:street" v="Garden Street"/><tag k="addr:housenumber" v="2113"/><tag k="addr:postcode" v="78702"/></node><node id="-269" lat="30.252883" lon="-97.722219" changeset="false"><tag k="addr:street" v="Garden Street"/><tag k="addr:housenumber" v="2115"/><tag k="addr:postcode" v="78702"/></node><node id="-270" lat="30.253409" lon="-97.719261" changeset="false"><tag k="addr:street" v="Canterbury Street"/><tag k="addr:housenumber" v="2310"/><tag k="addr:postcode" v="78702"/></node><node id="-271" lat="30.253443" lon="-97.719558" changeset="false"><tag k="addr:street" v="Canterbury Street"/><tag k="addr:housenumber" v="2306"/><tag k="addr:postcode" v="78702"/></node><node id="-272" lat="30.253535" lon="-97.719654" changeset="false"><tag k="addr:street" v="Canterbury Street"/><tag k="addr:housenumber" v="2304"/><tag k="addr:postcode" v="78702"/></node><node id="-273" lat="30.253921" lon="-97.723924" changeset="false"><tag k="addr:street" v="Garden Street"/><tag k="addr:housenumber" v="2006"/><tag k="addr:postcode" v="78702"/></node><node id="-274" lat="30.253934" lon="-97.723748" changeset="false"><tag k="addr:street" v="Garden Street"/><tag k="addr:housenumber" v="2008"/><tag k="addr:postcode" v="78702"/></node><node id="-275" lat="30.253935" lon="-97.723274" changeset="false"><tag k="addr:street" v="Anthony Street"/><tag k="addr:housenumber" v="72"/><tag k="addr:postcode" v="78702"/></node><node id="-276" lat="30.253976" lon="-97.72406" changeset="false"><tag k="addr:street" v="Garden Street"/><tag k="addr:housenumber" v="2004"/><tag k="addr:postcode" v="78702"/></node><node id="-277" lat="30.254339" lon="-97.72323" changeset="false"><tag k="addr:street" v="Canterbury Street"/><tag k="addr:housenumber" v="2013"/><tag k="addr:postcode" v="78702"/></node><node id="-278" lat="30.253142" lon="-97.723636" changeset="false"><tag k="addr:street" v="Anthony Street"/><tag k="addr:housenumber" v="66"/><tag k="addr:postcode" v="78702"/></node><node id="-279" lat="30.253197" lon="-97.723064" changeset="false"><tag k="addr:street" v="Garden Street"/><tag k="addr:housenumber" v="2103"/><tag k="addr:postcode" v="78702"/></node><node id="-280" lat="30.253396" lon="-97.723575" changeset="false"><tag k="addr:street" v="Garden Street"/><tag k="addr:housenumber" v="2015"/><tag k="addr:postcode" v="78702"/></node><node id="-281" lat="30.253737" lon="-97.723509" changeset="false"><tag k="addr:street" v="Garden Street"/><tag k="addr:housenumber" v="2012"/><tag k="addr:postcode" v="78702"/></node><node id="-282" lat="30.253693" lon="-97.723371" changeset="false"><tag k="addr:street" v="Garden Street"/><tag k="addr:housenumber" v="2014"/><tag k="addr:postcode" v="78702"/></node><node id="-283" lat="30.253465" lon="-97.72396" changeset="false"><tag k="addr:street" v="Garden Street"/><tag k="addr:housenumber" v="2009"/><tag k="addr:postcode" v="78702"/></node><node id="-284" lat="30.253427" lon="-97.72382" changeset="false"><tag k="addr:street" v="Garden Street"/><tag k="addr:housenumber" v="2011"/><tag k="addr:postcode" v="78702"/></node><node id="-285" lat="30.253243" lon="-97.723196" changeset="false"><tag k="addr:street" v="Anthony Street"/><tag k="addr:housenumber" v="67"/><tag k="addr:postcode" v="78702"/></node><node id="-286" lat="30.253784" lon="-97.723653" changeset="false"><tag k="addr:street" v="Garden Street"/><tag k="addr:housenumber" v="2010"/><tag k="addr:postcode" v="78702"/></node><node id="-287" lat="30.253026" lon="-97.722627" changeset="false"><tag k="addr:street" v="Garden Street"/><tag k="addr:housenumber" v="2109"/><tag k="addr:postcode" v="78702"/></node><node id="-288" lat="30.252976" lon="-97.723688" changeset="false"><tag k="addr:street" v="Anthony Street"/><tag k="addr:housenumber" v="64"/><tag k="addr:postcode" v="78702"/></node><node id="-289" lat="30.252987" lon="-97.722499" changeset="false"><tag k="addr:street" v="Garden Street"/><tag k="addr:housenumber" v="2111"/><tag k="addr:postcode" v="78702"/></node><node id="-290" lat="30.253034" lon="-97.723291" changeset="false"><tag k="addr:street" v="Garden Street"/><tag k="addr:housenumber" v="2101"/><tag k="addr:postcode" v="78702"/></node><node id="-291" lat="30.253064" lon="-97.722764" changeset="false"><tag k="addr:street" v="Garden Street"/><tag k="addr:housenumber" v="2107"/><tag k="addr:postcode" v="78702"/></node><node id="-292" lat="30.253081" lon="-97.722954" changeset="false"><tag k="addr:street" v="Garden Street"/><tag k="addr:housenumber" v="2105"/><tag k="addr:postcode" v="78702"/></node><node id="-293" lat="30.252593" lon="-97.723182" changeset="false"><tag k="addr:street" v="Holly Street"/><tag k="addr:housenumber" v="2104"/><tag k="addr:postcode" v="78702"/></node><node id="-294" lat="30.252491" lon="-97.722906" changeset="false"><tag k="addr:street" v="Holly Street"/><tag k="addr:housenumber" v="2108"/><tag k="addr:postcode" v="78702"/></node><node id="-295" lat="30.252438" lon="-97.722754" changeset="false"><tag k="addr:street" v="Holly Street"/><tag k="addr:housenumber" v="2110"/><tag k="addr:postcode" v="78702"/></node><node id="-296" lat="30.25254" lon="-97.723044" changeset="false"><tag k="addr:street" v="Holly Street"/><tag k="addr:housenumber" v="2106"/><tag k="addr:postcode" v="78702"/></node><node id="-297" lat="30.252391" lon="-97.722618" changeset="false"><tag k="addr:street" v="Holly Street"/><tag k="addr:housenumber" v="2112"/><tag k="addr:postcode" v="78702"/></node><node id="-298" lat="30.252678" lon="-97.723467" changeset="false"><tag k="addr:street" v="Holly Street"/><tag k="addr:housenumber" v="2100"/><tag k="addr:postcode" v="78702"/></node><node id="-299" lat="30.252637" lon="-97.723322" changeset="false"><tag k="addr:street" v="Holly Street"/><tag k="addr:housenumber" v="2102"/><tag k="addr:postcode" v="78702"/></node><node id="-300" lat="30.252774" lon="-97.723788" changeset="false"><tag k="addr:street" v="Holly Street"/><tag k="addr:housenumber" v="2014"/><tag k="addr:postcode" v="78702"/></node><node id="-301" lat="30.252813" lon="-97.723936" changeset="false"><tag k="addr:street" v="Holly Street"/><tag k="addr:housenumber" v="2012"/><tag k="addr:postcode" v="78702"/></node><node id="-302" lat="30.254073" lon="-97.724337" changeset="false"><tag k="addr:street" v="Garden Street"/><tag k="addr:housenumber" v="2000"/><tag k="addr:postcode" v="78702"/></node><node id="-303" lat="30.254105" lon="-97.725529" changeset="false"><tag k="addr:street" v="Garden Street"/><tag k="addr:housenumber" v="1905"/><tag k="addr:postcode" v="78702"/></node><node id="-304" lat="30.254157" lon="-97.725657" changeset="false"><tag k="addr:street" v="Garden Street"/><tag k="addr:housenumber" v="1903"/><tag k="addr:postcode" v="78702"/></node><node id="-305" lat="30.254085" lon="-97.725877" changeset="false"><tag k="addr:street" v="Chicon Street"/><tag k="addr:housenumber" v="65"/><tag k="addr:postcode" v="78702"/></node><node id="-306" lat="30.254215" lon="-97.724807" changeset="false"><tag k="addr:street" v="Garden Street"/><tag k="addr:housenumber" v="1914"/><tag k="addr:postcode" v="78702"/></node><node id="-307" lat="30.254203" lon="-97.724669" changeset="false"><tag k="addr:street" v="Garden Street"/><tag k="addr:housenumber" v="1916"/><tag k="addr:postcode" v="78702"/></node><node id="-308" lat="30.25421" lon="-97.725809" changeset="false"><tag k="addr:street" v="Garden Street"/><tag k="addr:housenumber" v="1901"/><tag k="addr:postcode" v="78702"/></node><node id="-309" lat="30.254346" lon="-97.725073" changeset="false"><tag k="addr:street" v="Garden Street"/><tag k="addr:housenumber" v="1908"/><tag k="addr:postcode" v="78702"/></node><node id="-310" lat="30.254299" lon="-97.724929" changeset="false"><tag k="addr:street" v="Garden Street"/><tag k="addr:housenumber" v="1910"/><tag k="addr:postcode" v="78702"/></node><node id="-311" lat="30.253668" lon="-97.724373" changeset="false"><tag k="addr:street" v="Garden Street"/><tag k="addr:housenumber" v="2003"/><tag k="addr:postcode" v="78702"/></node><node id="-312" lat="30.253956" lon="-97.725103" changeset="false"><tag k="addr:street" v="Garden Street"/><tag k="addr:housenumber" v="1911"/><tag k="addr:postcode" v="78702"/></node><node id="-313" lat="30.253831" lon="-97.724839" changeset="false"><tag k="addr:street" v="Garden Street"/><tag k="addr:housenumber" v="1915"/><tag k="addr:postcode" v="78702"/></node><node id="-314" lat="30.253875" lon="-97.724984" changeset="false"><tag k="addr:street" v="Garden Street"/><tag k="addr:housenumber" v="1913"/><tag k="addr:postcode" v="78702"/></node><node id="-315" lat="30.254006" lon="-97.725245" changeset="false"><tag k="addr:street" v="Garden Street"/><tag k="addr:housenumber" v="1909"/><tag k="addr:postcode" v="78702"/></node><node id="-316" lat="30.254055" lon="-97.725379" changeset="false"><tag k="addr:street" v="Garden Street"/><tag k="addr:housenumber" v="1907"/><tag k="addr:postcode" v="78702"/></node><node id="-317" lat="30.254034" lon="-97.724205" changeset="false"><tag k="addr:street" v="Garden Street"/><tag k="addr:housenumber" v="2002"/><tag k="addr:postcode" v="78702"/></node><node id="-318" lat="30.253393" lon="-97.725522" changeset="false"><tag k="addr:street" v="Holly Street"/><tag k="addr:housenumber" v="1908"/><tag k="addr:postcode" v="78702"/></node><node id="-319" lat="30.253431" lon="-97.725634" changeset="false"><tag k="addr:street" v="Holly Street"/><tag k="addr:housenumber" v="1906"/><tag k="addr:postcode" v="78702"/></node><node id="-320" lat="30.25344" lon="-97.724998" changeset="false"><tag k="addr:street" v="Lynn Street"/><tag k="addr:housenumber" v="64"/><tag k="addr:postcode" v="78702"/></node><node id="-321" lat="30.253645" lon="-97.724525" changeset="false"><tag k="addr:street" v="Garden Street"/><tag k="addr:housenumber" v="2001"/><tag k="addr:postcode" v="78702"/></node><node id="-322" lat="30.25353" lon="-97.725932" changeset="false"><tag k="addr:street" v="Holly Street"/><tag k="addr:housenumber" v="1902"/><tag k="addr:postcode" v="78702"/></node><node id="-323" lat="30.253481" lon="-97.725789" changeset="false"><tag k="addr:street" v="Holly Street"/><tag k="addr:housenumber" v="1904"/><tag k="addr:postcode" v="78702"/></node><node id="-324" lat="30.253582" lon="-97.726067" changeset="false"><tag k="addr:street" v="Holly Street"/><tag k="addr:housenumber" v="1900"/><tag k="addr:postcode" v="78702"/></node><node id="-325" lat="30.253512" lon="-97.724108" changeset="false"><tag k="addr:street" v="Garden Street"/><tag k="addr:housenumber" v="2007"/><tag k="addr:postcode" v="78702"/></node><node id="-326" lat="30.253559" lon="-97.724245" changeset="false"><tag k="addr:street" v="Garden Street"/><tag k="addr:housenumber" v="2005"/><tag k="addr:postcode" v="78702"/></node><node id="-327" lat="30.252871" lon="-97.724106" changeset="false"><tag k="addr:street" v="Holly Street"/><tag k="addr:housenumber" v="2010"/><tag k="addr:postcode" v="78702"/></node><node id="-328" lat="30.253061" lon="-97.724637" changeset="false"><tag k="addr:street" v="Holly Street"/><tag k="addr:housenumber" v="2002"/><tag k="addr:postcode" v="78702"/></node><node id="-329" lat="30.253003" lon="-97.724495" changeset="false"><tag k="addr:street" v="Holly Street"/><tag k="addr:housenumber" v="2004"/><tag k="addr:postcode" v="78702"/></node><node id="-330" lat="30.252962" lon="-97.724384" changeset="false"><tag k="addr:street" v="Holly Street"/><tag k="addr:housenumber" v="2006"/><tag k="addr:postcode" v="78702"/></node><node id="-331" lat="30.253241" lon="-97.725097" changeset="false"><tag k="addr:street" v="Holly Street"/><tag k="addr:housenumber" v="1914"/><tag k="addr:postcode" v="78702"/></node><node id="-332" lat="30.253291" lon="-97.725245" changeset="false"><tag k="addr:street" v="Holly Street"/><tag k="addr:housenumber" v="1912"/><tag k="addr:postcode" v="78702"/></node><node id="-333" lat="30.253346" lon="-97.725384" changeset="false"><tag k="addr:street" v="Holly Street"/><tag k="addr:housenumber" v="1910"/><tag k="addr:postcode" v="78702"/></node><node id="-334" lat="30.253299" lon="-97.724692" changeset="false"><tag k="addr:street" v="Lynn Street"/><tag k="addr:housenumber" v="63"/><tag k="addr:postcode" v="78702"/></node></osm>