<?xml version="1.0" encoding="UTF-8"?><osm version="0.6" generator="github.com/aaronlidman/osm-and-geojson"><node id="-1" lat="30.254502" lon="-97.734885" changeset="false"><tag k="addr:street" v="Waller Street"/><tag k="addr:housenumber" v="41"/><tag k="coa:place_id" v="105368"/></node><node id="-2" lat="30.255924" lon="-97.733911" changeset="false"><tag k="addr:street" v="Holly Street"/><tag k="addr:housenumber" v="1205"/><tag k="coa:place_id" v="176188"/></node><node id="-3" lat="30.254188" lon="-97.735389" changeset="false"><tag k="addr:street" v="Clermont Avenue"/><tag k="addr:housenumber" v="1111"/><tag k="coa:place_id" v="105338"/></node><node id="-4" lat="30.251052" lon="-97.728385" changeset="false"><tag k="addr:street" v="Salina Street"/><tag k="addr:housenumber" v="14"/><tag k="coa:place_id" v="974060"/></node><node id="-5" lat="30.252912" lon="-97.731426" changeset="false"><tag k="addr:street" v="Robert Weaver Avenue"/><tag k="addr:housenumber" v="1507"/><tag k="coa:place_id" v="137438"/></node><node id="-6" lat="30.255339" lon="-97.733672" changeset="false"><tag k="addr:street" v="Haskell Street"/><tag k="addr:housenumber" v="1210"/><tag k="coa:place_id" v="1142633"/></node><node id="-7" lat="30.252184" lon="-97.727628" changeset="false"><tag k="addr:street" v="Riverview Street"/><tag k="addr:housenumber" v="1804"/><tag k="coa:place_id" v="137636"/></node><node id="-8" lat="30.25485" lon="-97.732217" changeset="false"><tag k="addr:street" v="Haskell Street"/><tag k="addr:housenumber" v="1402"/><tag k="coa:place_id" v="137228"/></node><node id="-9" lat="30.252846" lon="-97.728187" changeset="false"><tag k="addr:street" v="Haskell Street"/><tag k="addr:housenumber" v="1707"/><tag k="coa:place_id" v="137720"/></node><node id="-10" lat="30.253311" lon="-97.727789" changeset="false"><tag k="addr:street" v="Haskell Street"/><tag k="addr:housenumber" v="1708"/><tag k="coa:place_id" v="137816"/></node><node id="-11" lat="30.253001" lon="-97.726909" changeset="false"><tag k="addr:street" v="Haskell Street"/><tag k="addr:housenumber" v="1808"/><tag k="coa:place_id" v="137780"/></node><node id="-12" lat="30.254201" lon="-97.730296" changeset="false"><tag k="addr:street" v="Haskell Street"/><tag k="addr:housenumber" v="1602"/><tag k="coa:place_id" v="137900"/></node><node id="-13" lat="30.251699" lon="-97.729213" changeset="false"><tag k="addr:street" v="Chalmers Avenue"/><tag k="addr:housenumber" v="32"/><tag k="coa:place_id" v="137462"/></node><node id="-14" lat="30.253463" lon="-97.726503" changeset="false"><tag k="addr:street" v="Holly Street"/><tag k="addr:housenumber" v="1811"/><tag k="coa:place_id" v="138080"/></node><node id="-15" lat="30.254145" lon="-97.730143" changeset="false"><tag k="addr:street" v="Haskell Street"/><tag k="addr:housenumber" v="1604"/><tag k="coa:place_id" v="137894"/></node><node id="-16" lat="30.254951" lon="-97.731081" changeset="false"><tag k="addr:street" v="Holly Street"/><tag k="addr:housenumber" v="1505"/><tag k="coa:place_id" v="137120"/></node><node id="-17" lat="30.253209" lon="-97.727496" changeset="false"><tag k="addr:street" v="Haskell Street"/><tag k="addr:housenumber" v="1800"/><tag k="coa:place_id" v="137804"/></node><node id="-18" lat="30.251574" lon="-97.729281" changeset="false"><tag k="addr:street" v="Chalmers Avenue"/><tag k="addr:housenumber" v="30"/><tag k="coa:place_id" v="137468"/></node><node id="-19" lat="30.254221" lon="-97.736182" changeset="false"><tag k="addr:street" v="North Interstate Highway 35 Service Road"/><tag k="addr:housenumber" v="31 1/2"/><tag k="coa:place_id" v="3035460"/></node><node id="-20" lat="30.253166" lon="-97.733926" changeset="false"><tag k="addr:street" v="Waller Street"/><tag k="addr:housenumber" v="21"/><tag k="coa:place_id" v="879368"/></node><node id="-21" lat="30.25501" lon="-97.736048" changeset="false"><tag k="addr:street" v="Clermont Avenue"/><tag k="addr:housenumber" v="1012"/><tag k="coa:place_id" v="105584"/></node><node id="-22" lat="30.254575" lon="-97.731409" changeset="false"><tag k="addr:street" v="Haskell Street"/><tag k="addr:housenumber" v="1414"/><tag k="coa:place_id" v="137192"/></node><node id="-23" lat="30.254424" lon="-97.729659" changeset="false"><tag k="addr:street" v="Holly Street"/><tag k="addr:housenumber" v="1609"/><tag k="coa:place_id" v="137960"/></node><node id="-24" lat="30.253923" lon="-97.735861" changeset="false"><tag k="addr:street" v="Flores Street"/><tag k="addr:housenumber" v="1106"/><tag k="coa:place_id" v="1142642"/></node><node id="-25" lat="30.254396" lon="-97.735987" changeset="false"><tag k="addr:street" v="Clermont Avenue"/><tag k="addr:housenumber" v="1103"/><tag k="coa:place_id" v="105320"/></node><node id="-26" lat="30.254253" lon="-97.730446" changeset="false"><tag k="addr:street" v="Haskell Street"/><tag k="addr:housenumber" v="1600"/><tag k="coa:place_id" v="137912"/></node><node id="-27" lat="30.253882" lon="-97.729387" changeset="false"><tag k="addr:street" v="Haskell Street"/><tag k="addr:housenumber" v="1614"/><tag k="coa:place_id" v="137870"/></node><node id="-28" lat="30.252619" lon="-97.728806" changeset="false"><tag k="addr:street" v="Riverview Street"/><tag k="addr:housenumber" v="1700"/><tag k="coa:place_id" v="137696"/></node><node id="-29" lat="30.253054" lon="-97.727054" changeset="false"><tag k="addr:street" v="Haskell Street"/><tag k="addr:housenumber" v="1806"/><tag k="coa:place_id" v="137786"/></node><node id="-30" lat="30.252131" lon="-97.727479" changeset="false"><tag k="addr:street" v="Riverview Street"/><tag k="addr:housenumber" v="1806"/><tag k="coa:place_id" v="137630"/></node><node id="-31" lat="30.253587" lon="-97.731247" changeset="false"><tag k="addr:street" v="Robert Weaver Avenue"/><tag k="addr:housenumber" v="1508"/><tag k="coa:place_id" v="137396"/></node><node id="-32" lat="30.254646" lon="-97.736427" changeset="false"><tag k="addr:street" v="Clermont Avenue"/><tag k="addr:housenumber" v="803"/><tag k="coa:place_id" v="92870"/></node><node id="-33" lat="30.254937" lon="-97.735825" changeset="false"><tag k="addr:street" v="Clermont Avenue"/><tag k="addr:housenumber" v="1102"/><tag k="coa:place_id" v="105566"/></node><node id="-34" lat="30.25336" lon="-97.727936" changeset="false"><tag k="addr:street" v="Haskell Street"/><tag k="addr:housenumber" v="1706"/><tag k="coa:place_id" v="138969"/></node><node id="-35" lat="30.253673" lon="-97.727457" changeset="false"><tag k="addr:street" v="Holly Street"/><tag k="addr:housenumber" v="1711"/><tag k="coa:place_id" v="138044"/></node><node id="-36" lat="30.254972" lon="-97.735931" changeset="false"><tag k="addr:street" v="Clermont Avenue"/><tag k="addr:housenumber" v="1100"/><tag k="coa:place_id" v="105578"/></node><node id="-37" lat="30.253898" lon="-97.731797" changeset="false"><tag k="addr:street" v="Haskell Street"/><tag k="addr:housenumber" v="1411"/><tag k="coa:place_id" v="137348"/></node><node id="-38" lat="30.255577" lon="-97.736302" changeset="false"><tag k="addr:street" v="Lambie Street"/><tag k="addr:housenumber" v="1007"/><tag k="coa:place_id" v="1142632"/></node><node id="-39" lat="30.255372" lon="-97.735714" changeset="false"><tag k="addr:street" v="Lambie Street"/><tag k="addr:housenumber" v="1101"/><tag k="coa:place_id" v="105614"/></node><node id="-40" lat="30.254649" lon="-97.736434" changeset="false"><tag k="addr:street" v="Clermont Avenue"/><tag k="addr:housenumber" v="801"/><tag k="coa:place_id" v="92864"/></node><node id="-41" lat="30.254528" lon="-97.731276" changeset="false"><tag k="addr:street" v="Haskell Street"/><tag k="addr:housenumber" v="1502"/><tag k="coa:place_id" v="137186"/></node><node id="-42" lat="30.255017" lon="-97.735176" changeset="false"><tag k="addr:street" v="Waller Street"/><tag k="addr:housenumber" v="46"/><tag k="coa:place_id" v="105350"/></node><node id="-43" lat="30.252517" lon="-97.728511" changeset="false"><tag k="addr:street" v="Riverview Street"/><tag k="addr:housenumber" v="1704"/><tag k="coa:place_id" v="137684"/></node><node id="-44" lat="30.255825" lon="-97.733616" changeset="false"><tag k="addr:street" v="Holly Street"/><tag k="addr:housenumber" v="1209"/><tag k="coa:place_id" v="137000"/></node><node id="-45" lat="30.255675" lon="-97.733174" changeset="false"><tag k="addr:street" v="Holly Street"/><tag k="addr:housenumber" v="1215"/><tag k="coa:place_id" v="137018"/></node><node id="-46" lat="30.253885" lon="-97.735071" changeset="false"><tag k="addr:street" v="Waller Street"/><tag k="addr:housenumber" v="35"/><tag k="coa:place_id" v="3390895"/></node><node id="-47" lat="30.253473" lon="-97.728862" changeset="false"><tag k="addr:street" v="Haskell Street"/><tag k="addr:housenumber" v="1622"/><tag k="coa:place_id" v="137840"/></node><node id="-48" lat="30.253386" lon="-97.728268" changeset="false"><tag k="addr:street" v="Haskell Street"/><tag k="addr:housenumber" v="1702"/><tag k="coa:place_id" v="137828"/></node><node id="-49" lat="30.254241" lon="-97.735541" changeset="false"><tag k="addr:street" v="Clermont Avenue"/><tag k="addr:housenumber" v="1109"/><tag k="coa:place_id" v="105332"/></node><node id="-50" lat="30.254076" lon="-97.728657" changeset="false"><tag k="addr:street" v="Chalmers Avenue"/><tag k="addr:housenumber" v="54"/><tag k="coa:place_id" v="138002"/></node><node id="-51" lat="30.254621" lon="-97.73528" changeset="false"><tag k="addr:street" v="Waller Street"/><tag k="addr:housenumber" v="40"/><tag k="coa:place_id" v="105362"/></node><node id="-52" lat="30.254397" lon="-97.730877" changeset="false"><tag k="addr:street" v="Haskell Street"/><tag k="addr:housenumber" v="1508"/><tag k="coa:place_id" v="137168"/></node><node id="-53" lat="30.253556" lon="-97.73174" changeset="false"><tag k="addr:street" v="Robert Weaver Avenue"/><tag k="addr:housenumber" v="1502"/><tag k="coa:place_id" v="137414"/></node><node id="-54" lat="30.255053" lon="-97.730872" changeset="false"><tag k="addr:street" v="Holly Street"/><tag k="addr:housenumber" v="1507 1/2"/><tag k="coa:place_id" v="137144"/></node><node id="-55" lat="30.25234" lon="-97.727119" changeset="false"><tag k="addr:street" v="Chicon Street"/><tag k="addr:housenumber" v="46"/><tag k="coa:place_id" v="176408"/></node><node id="-56" lat="30.255425" lon="-97.735859" changeset="false"><tag k="addr:street" v="Lambie Street"/><tag k="addr:housenumber" v="1013"/><tag k="coa:place_id" v="105608"/></node><node id="-57" lat="30.255333" lon="-97.736441" changeset="false"><tag k="addr:street" v="North Interstate Highway 35 Service Road"/><tag k="addr:housenumber" v="45 1/2"/><tag k="coa:place_id" v="3035720"/></node><node id="-58" lat="30.255476" lon="-97.732583" changeset="false"><tag k="addr:street" v="Holly Street"/><tag k="addr:housenumber" v="1311"/><tag k="coa:place_id" v="137042"/></node><node id="-59" lat="30.255474" lon="-97.73601" changeset="false"><tag k="addr:street" v="Lambie Street"/><tag k="addr:housenumber" v="1011"/><tag k="coa:place_id" v="105602"/></node><node id="-60" lat="30.25519" lon="-97.733229" changeset="false"><tag k="addr:street" v="Haskell Street"/><tag k="addr:housenumber" v="1302"/><tag k="coa:place_id" v="137264"/></node><node id="-61" lat="30.254485" lon="-97.731143" changeset="false"><tag k="addr:street" v="Haskell Street"/><tag k="addr:housenumber" v="1504"/><tag k="coa:place_id" v="137180"/></node><node id="-62" lat="30.2548" lon="-97.732073" changeset="false"><tag k="addr:street" v="Haskell Street"/><tag k="addr:housenumber" v="1404"/><tag k="coa:place_id" v="137222"/></node><node id="-63" lat="30.254756" lon="-97.731939" changeset="false"><tag k="addr:street" v="Haskell Street"/><tag k="addr:housenumber" v="1406"/><tag k="coa:place_id" v="137216"/></node><node id="-64" lat="30.253487" lon="-97.731168" changeset="false"><tag k="addr:street" v="Robert Weaver Avenue"/><tag k="addr:housenumber" v="1510"/><tag k="coa:place_id" v="137390"/></node><node id="-65" lat="30.253546" lon="-97.729057" changeset="false"><tag k="addr:street" v="Haskell Street"/><tag k="addr:housenumber" v="1620"/><tag k="coa:place_id" v="137846"/></node><node id="-66" lat="30.255488" lon="-97.734116" changeset="false"><tag k="addr:street" v="Haskell Street"/><tag k="addr:housenumber" v="1204"/><tag k="coa:place_id" v="137312"/></node><node id="-67" lat="30.25387" lon="-97.735711" changeset="false"><tag k="addr:street" v="Flores Street"/><tag k="addr:housenumber" v="1108"/><tag k="coa:place_id" v="105290"/></node><node id="-68" lat="30.253156" lon="-97.727349" changeset="false"><tag k="addr:street" v="Haskell Street"/><tag k="addr:housenumber" v="1802"/><tag k="coa:place_id" v="137798"/></node><node id="-69" lat="30.253103" lon="-97.7272" changeset="false"><tag k="addr:street" v="Haskell Street"/><tag k="addr:housenumber" v="1804"/><tag k="coa:place_id" v="137792"/></node><node id="-70" lat="30.254856" lon="-97.735603" changeset="false"><tag k="addr:street" v="Clermont Avenue"/><tag k="addr:housenumber" v="1104"/><tag k="coa:place_id" v="105560"/></node><node id="-71" lat="30.253034" lon="-97.731879" changeset="false"><tag k="addr:street" v="Robert Weaver Avenue"/><tag k="addr:housenumber" v="1501"/><tag k="coa:place_id" v="481959"/></node><node id="-72" lat="30.253957" lon="-97.729709" changeset="false"><tag k="addr:street" v="Haskell Street"/><tag k="addr:housenumber" v="1610"/><tag k="coa:place_id" v="137882"/></node><node id="-73" lat="30.254942" lon="-97.733778" changeset="false"><tag k="addr:street" v="Haskell Street"/><tag k="addr:housenumber" v="1211"/><tag k="coa:place_id" v="549104"/></node><node id="-74" lat="30.25448" lon="-97.729816" changeset="false"><tag k="addr:street" v="Holly Street"/><tag k="addr:housenumber" v="1607"/><tag k="coa:place_id" v="137954"/></node><node id="-75" lat="30.253957" lon="-97.731971" changeset="false"><tag k="addr:street" v="Haskell Street"/><tag k="addr:housenumber" v="1407"/><tag k="coa:place_id" v="137342"/></node><node id="-76" lat="30.255564" lon="-97.734336" changeset="false"><tag k="addr:street" v="Haskell Street"/><tag k="addr:housenumber" v="1200"/><tag k="coa:place_id" v="137318"/></node><node id="-77" lat="30.25357" lon="-97.727162" changeset="false"><tag k="addr:street" v="Holly Street"/><tag k="addr:housenumber" v="1803"/><tag k="coa:place_id" v="138056"/></node><node id="-78" lat="30.253777" lon="-97.729086" changeset="false"><tag k="addr:street" v="Haskell Street"/><tag k="addr:housenumber" v="1618"/><tag k="coa:place_id" v="137852"/></node><node id="-79" lat="30.251518" lon="-97.727356" changeset="false"><tag k="addr:street" v="Riverview Street"/><tag k="addr:housenumber" v="1813"/><tag k="coa:place_id" v="137612"/></node><node id="-80" lat="30.253901" lon="-97.729559" changeset="false"><tag k="addr:street" v="Haskell Street"/><tag k="addr:housenumber" v="1612"/><tag k="coa:place_id" v="809271"/></node><node id="-81" lat="30.251823" lon="-97.729121" changeset="false"><tag k="addr:street" v="Chalmers Avenue"/><tag k="addr:housenumber" v="34"/><tag k="coa:place_id" v="137456"/></node><node id="-82" lat="30.251785" lon="-97.728151" changeset="false"><tag k="addr:street" v="Riverview Street"/><tag k="addr:housenumber" v="1801"/><tag k="coa:place_id" v="137576"/></node><node id="-83" lat="30.255097" lon="-97.736233" changeset="false"><tag k="addr:street" v="Clermont Avenue"/><tag k="addr:housenumber" v="1010"/><tag k="coa:place_id" v="1142636"/></node><node id="-84" lat="30.254903" lon="-97.736315" changeset="false"><tag k="addr:street" v="Clermont Avenue"/><tag k="addr:housenumber" v="802"/><tag k="coa:place_id" v="92912"/></node><node id="-85" lat="30.253439" lon="-97.728421" changeset="false"><tag k="addr:street" v="Haskell Street"/><tag k="addr:housenumber" v="1700"/><tag k="coa:place_id" v="137834"/></node><node id="-86" lat="30.252286" lon="-97.727922" changeset="false"><tag k="addr:street" v="Riverview Street"/><tag k="addr:housenumber" v="1800"/><tag k="coa:place_id" v="137648"/></node><node id="-87" lat="30.255314" lon="-97.732155" changeset="false"><tag k="addr:street" v="Holly Street"/><tag k="addr:housenumber" v="1401"/><tag k="coa:place_id" v="137072"/></node><node id="-88" lat="30.254448" lon="-97.736136" changeset="false"><tag k="addr:street" v="Clermont Avenue"/><tag k="addr:housenumber" v="1101"/><tag k="coa:place_id" v="105308"/></node><node id="-89" lat="30.25409" lon="-97.729979" changeset="false"><tag k="addr:street" v="Haskell Street"/><tag k="addr:housenumber" v="1606"/><tag k="coa:place_id" v="90351"/></node><node id="-90" lat="30.253821" lon="-97.735559" changeset="false"><tag k="addr:street" v="Flores Street"/><tag k="addr:housenumber" v="1110"/><tag k="coa:place_id" v="105284"/></node><node id="-91" lat="30.254666" lon="-97.731674" changeset="false"><tag k="addr:street" v="Haskell Street"/><tag k="addr:housenumber" v="1410"/><tag k="coa:place_id" v="1142638"/></node><node id="-92" lat="30.254897" lon="-97.732359" changeset="false"><tag k="addr:street" v="Haskell Street"/><tag k="addr:housenumber" v="1400"/><tag k="coa:place_id" v="137234"/></node><node id="-93" lat="30.253258" lon="-97.727641" changeset="false"><tag k="addr:street" v="Haskell Street"/><tag k="addr:housenumber" v="1710"/><tag k="coa:place_id" v="137810"/></node><node id="-94" lat="30.253249" lon="-97.733082" changeset="false"><tag k="addr:street" v="Waller Street"/><tag k="addr:housenumber" v="25"/><tag k="coa:place_id" v="879380"/></node><node id="-95" lat="30.252023" lon="-97.727168" changeset="false"><tag k="addr:street" v="Riverview Street"/><tag k="addr:housenumber" v="1810"/><tag k="coa:place_id" v="137618"/></node><node id="-96" lat="30.255269" lon="-97.732524" changeset="false"><tag k="addr:street" v="Navasota Street"/><tag k="addr:housenumber" v="54"/><tag k="coa:place_id" v="137054"/></node><node id="-97" lat="30.255248" lon="-97.735167" changeset="false"><tag k="addr:street" v="Lambie Street"/><tag k="addr:housenumber" v="1107"/><tag k="coa:place_id" v="105632"/></node><node id="-98" lat="30.254313" lon="-97.729346" changeset="false"><tag k="addr:street" v="Holly Street"/><tag k="addr:housenumber" v="1615"/><tag k="coa:place_id" v="137978"/></node><node id="-99" lat="30.252362" lon="-97.728069" changeset="false"><tag k="addr:street" v="Riverview Street"/><tag k="addr:housenumber" v="1710"/><tag k="coa:place_id" v="137654"/></node><node id="-100" lat="30.254904" lon="-97.730948" changeset="false"><tag k="addr:street" v="Holly Street"/><tag k="addr:housenumber" v="1507"/><tag k="coa:place_id" v="246253"/></node><node id="-101" lat="30.252741" lon="-97.727893" changeset="false"><tag k="addr:street" v="Haskell Street"/><tag k="addr:housenumber" v="1711"/><tag k="coa:place_id" v="137738"/></node><node id="-102" lat="30.255184" lon="-97.734975" changeset="false"><tag k="addr:street" v="Waller Street"/><tag k="addr:housenumber" v="48"/><tag k="coa:place_id" v="105344"/></node><node id="-103" lat="30.251208" lon="-97.728857" changeset="false"><tag k="addr:street" v="Chalmers Avenue"/><tag k="addr:housenumber" v="15"/><tag k="coa:place_id" v="118581"/></node><node id="-104" lat="30.252079" lon="-97.72733" changeset="false"><tag k="addr:street" v="Riverview Street"/><tag k="addr:housenumber" v="1808"/><tag k="coa:place_id" v="137624"/></node><node id="-105" lat="30.25509" lon="-97.732934" changeset="false"><tag k="addr:street" v="Haskell Street"/><tag k="addr:housenumber" v="1306"/><tag k="coa:place_id" v="445563"/></node><node id="-106" lat="30.25504" lon="-97.732787" changeset="false"><tag k="addr:street" v="Haskell Street"/><tag k="addr:housenumber" v="1308"/><tag k="coa:place_id" v="137246"/></node><node id="-107" lat="30.254028" lon="-97.72986" changeset="false"><tag k="addr:street" v="Haskell Street"/><tag k="addr:housenumber" v="1608"/><tag k="coa:place_id" v="3165062"/></node><node id="-108" lat="30.254849" lon="-97.734608" changeset="false"><tag k="addr:street" v="Waller Street"/><tag k="addr:housenumber" v="45"/><tag k="coa:place_id" v="1142637"/></node><node id="-109" lat="30.254803" lon="-97.735454" changeset="false"><tag k="addr:street" v="Clermont Avenue"/><tag k="addr:housenumber" v="1106"/><tag k="coa:place_id" v="105554"/></node><node id="-110" lat="30.251317" lon="-97.72926" changeset="false"><tag k="addr:street" v="Chalmers Avenue"/><tag k="addr:housenumber" v="20"/><tag k="coa:place_id" v="137474"/></node><node id="-111" lat="30.254441" lon="-97.731011" changeset="false"><tag k="addr:street" v="Haskell Street"/><tag k="addr:housenumber" v="1506"/><tag k="coa:place_id" v="137174"/></node><node id="-112" lat="30.254619" lon="-97.731541" changeset="false"><tag k="addr:street" v="Haskell Street"/><tag k="addr:housenumber" v="1412"/><tag k="coa:place_id" v="663064"/></node><node id="-113" lat="30.25362" lon="-97.727309" changeset="false"><tag k="addr:street" v="Holly Street"/><tag k="addr:housenumber" v="1801"/><tag k="coa:place_id" v="138050"/></node><node id="-114" lat="30.254991" lon="-97.732643" changeset="false"><tag k="addr:street" v="Haskell Street"/><tag k="addr:housenumber" v="1310"/><tag k="coa:place_id" v="137240"/></node><node id="-115" lat="30.254958" lon="-97.73267" changeset="false"><tag k="addr:street" v="Navasota Street"/><tag k="addr:housenumber" v="52"/><tag k="coa:place_id" v="137060"/></node><node id="-116" lat="30.254799" lon="-97.735988" changeset="false"><tag k="addr:street" v="Clermont Avenue"/><tag k="addr:housenumber" v="902"/><tag k="coa:place_id" v="244038"/></node><node id="-117" lat="30.254826" lon="-97.736031" changeset="false"><tag k="addr:street" v="Clermont Avenue"/><tag k="addr:housenumber" v="900"/><tag k="coa:place_id" v="92894"/></node><node id="-118" lat="30.252945" lon="-97.726712" changeset="false"><tag k="addr:street" v="Chicon Street"/><tag k="addr:housenumber" v="54"/><tag k="coa:place_id" v="138092"/></node><node id="-119" lat="30.252949" lon="-97.726751" changeset="false"><tag k="addr:street" v="Haskell Street"/><tag k="addr:housenumber" v="1810"/><tag k="coa:place_id" v="137774"/></node></osm>