<?xml version="1.0" encoding="UTF-8"?><osm version="0.6" generator="github.com/aaronlidman/osm-and-geojson"><node id="-1" lat="30.202249" lon="-97.787717" changeset="false"><tag k="addr:street" v="Eberhart Lane"/><tag k="addr:housenumber" v="808"/></node><node id="-2" lat="30.203372" lon="-97.785852" changeset="false"><tag k="addr:street" v="Turtle Creek Boulevard"/><tag k="addr:housenumber" v="801"/></node><node id="-3" lat="30.199606" lon="-97.790623" changeset="false"><tag k="addr:street" v="Cooper Lane"/><tag k="addr:housenumber" v="6604"/></node><node id="-4" lat="30.199247" lon="-97.791119" changeset="false"><tag k="addr:street" v="Armadillo Road"/><tag k="addr:housenumber" v="901"/></node><node id="-5" lat="30.199133" lon="-97.791603" changeset="false"><tag k="addr:street" v="Antelope Circle"/><tag k="addr:housenumber" v="6605"/></node><node id="-6" lat="30.19954" lon="-97.793253" changeset="false"><tag k="addr:street" v="Emerald Forest Drive"/><tag k="addr:housenumber" v="6707"/></node><node id="-7" lat="30.204336" lon="-97.791303" changeset="false"><tag k="addr:street" v="Emerald Forest Drive"/><tag k="addr:housenumber" v="6303"/></node><node id="-8" lat="30.200303" lon="-97.786127" changeset="false"><tag k="addr:street" v="South 1st Street"/><tag k="addr:housenumber" v="6400"/></node><node id="-9" lat="30.203228" lon="-97.790615" changeset="false"><tag k="addr:street" v="Sirocco Drive"/><tag k="addr:housenumber" v="909"/></node><node id="-10" lat="30.201612" lon="-97.789858" changeset="false"><tag k="addr:street" v="Milford Way"/><tag k="addr:housenumber" v="904"/></node><node id="-11" lat="30.198477" lon="-97.787446" changeset="false"><tag k="addr:street" v="South 1st Street"/><tag k="addr:housenumber" v="6516"/></node><node id="-12" lat="30.197597" lon="-97.787943" changeset="false"><tag k="addr:street" v="West William Cannon Drive"/><tag k="addr:housenumber" v="700"/></node><node id="-13" lat="30.201967" lon="-97.788883" changeset="false"><tag k="addr:street" v="Eberhart Lane"/><tag k="addr:housenumber" v="900"/></node><node id="-14" lat="30.20166" lon="-97.785347" changeset="false"><tag k="addr:street" v="South 1st Street"/><tag k="addr:housenumber" v="6212"/></node><node id="-15" lat="30.205254" lon="-97.786842" changeset="false"><tag k="addr:street" v="Sahara Avenue"/><tag k="addr:housenumber" v="819"/></node><node id="-16" lat="30.200873" lon="-97.789794" changeset="false"><tag k="addr:street" v="Cooper Lane"/><tag k="addr:housenumber" v="6500 1/2"/></node><node id="-17" lat="30.206033" lon="-97.788545" changeset="false"><tag k="addr:street" v="Sahara Avenue"/><tag k="addr:housenumber" v="1001"/></node><node id="-18" lat="30.201274" lon="-97.786562" changeset="false"><tag k="addr:street" v="Eberhart Lane"/><tag k="addr:housenumber" v="724"/></node><node id="-19" lat="30.199414" lon="-97.791358" changeset="false"><tag k="addr:street" v="Armadillo Road"/><tag k="addr:housenumber" v="909"/></node><node id="-20" lat="30.19989" lon="-97.791375" changeset="false"><tag k="addr:street" v="Armadillo Road"/><tag k="addr:housenumber" v="910"/></node><node id="-21" lat="30.198239" lon="-97.789901" changeset="false"><tag k="addr:street" v="West William Cannon Drive"/><tag k="addr:housenumber" v="800"/></node><node id="-22" lat="30.199859" lon="-97.786463" changeset="false"><tag k="addr:street" v="South 1st Street"/><tag k="addr:housenumber" v="6420"/></node><node id="-23" lat="30.2015" lon="-97.785605" changeset="false"><tag k="addr:street" v="South 1st Street"/><tag k="addr:housenumber" v="6304"/></node><node id="-24" lat="30.201271" lon="-97.785924" changeset="false"><tag k="addr:street" v="South 1st Street"/><tag k="addr:housenumber" v="6314"/></node><node id="-25" lat="30.199869" lon="-97.789491" changeset="false"><tag k="addr:street" v="King George Drive"/><tag k="addr:housenumber" v="6510"/></node><node id="-26" lat="30.199874" lon="-97.789444" changeset="false"><tag k="addr:street" v="King Edward Place"/><tag k="addr:housenumber" v="810"/></node><node id="-27" lat="30.200841" lon="-97.793002" changeset="false"><tag k="addr:street" v="Emerald Forest Drive"/><tag k="addr:housenumber" v="6523"/></node><node id="-28" lat="30.20055" lon="-97.792665" changeset="false"><tag k="addr:street" v="Armadillo Road"/><tag k="addr:housenumber" v="1100"/></node></osm>