<?xml version="1.0" encoding="UTF-8"?><osm version="0.6" generator="github.com/aaronlidman/osm-and-geojson"><node id="-1" lat="30.330545" lon="-97.791696" changeset="false"><tag k="addr:street" v="Toro Canyon Road"/><tag k="addr:housenumber" v="3816"/><tag k="coa:place_id" v="200959"/></node><node id="-2" lat="30.321587" lon="-97.795324" changeset="false"><tag k="addr:street" v="Fossil Rim Road"/><tag k="addr:housenumber" v="5115"/><tag k="coa:place_id" v="128780"/></node><node id="-3" lat="30.329096" lon="-97.807201" changeset="false"><tag k="addr:street" v="Cavalcade Court"/><tag k="addr:housenumber" v="3105"/><tag k="coa:place_id" v="1147731"/></node><node id="-4" lat="30.328342" lon="-97.804818" changeset="false"><tag k="addr:street" v="Lookout Lane"/><tag k="addr:housenumber" v="3203"/><tag k="coa:place_id" v="74750"/></node><node id="-5" lat="30.318472" lon="-97.817131" changeset="false"><tag k="addr:street" v="Ayres Drive"/><tag k="addr:housenumber" v="6307"/><tag k="coa:place_id" v="752740"/></node><node id="-6" lat="30.317535" lon="-97.81451" changeset="false"><tag k="addr:street" v="Real Wind Cove"/><tag k="addr:housenumber" v="1705"/><tag k="coa:place_id" v="59458"/></node><node id="-7" lat="30.326485" lon="-97.809497" changeset="false"><tag k="addr:street" v="Riva Ridge Road"/><tag k="addr:housenumber" v="2901"/><tag k="coa:place_id" v="74722"/></node><node id="-8" lat="30.329784" lon="-97.794254" changeset="false"><tag k="addr:street" v="Cassava Drive"/><tag k="addr:housenumber" v="3609"/><tag k="coa:place_id" v="54956"/></node><node id="-9" lat="30.317801" lon="-97.805838" changeset="false"><tag k="addr:street" v="The High Road"/><tag k="addr:housenumber" v="1607"/><tag k="coa:place_id" v="1147506"/></node><node id="-10" lat="30.317054" lon="-97.7933" changeset="false"><tag k="addr:street" v="Fast Fox Trail"/><tag k="addr:housenumber" v="4812"/><tag k="coa:place_id" v="100512"/></node><node id="-11" lat="30.316616" lon="-97.809912" changeset="false"><tag k="addr:street" v="Far Gallant Drive"/><tag k="addr:housenumber" v="1900"/><tag k="coa:place_id" v="182034"/></node><node id="-12" lat="30.312952" lon="-97.803712" changeset="false"><tag k="addr:street" v="The High Road"/><tag k="addr:housenumber" v="1331"/><tag k="coa:place_id" v="804639"/></node><node id="-13" lat="30.333617" lon="-97.804979" changeset="false"><tag k="addr:street" v="Carry Back Lane"/><tag k="addr:housenumber" v="6005"/><tag k="coa:place_id" v="86609"/></node><node id="-14" lat="30.33254" lon="-97.792039" changeset="false"><tag k="addr:street" v="Cassava Drive"/><tag k="addr:housenumber" v="3805"/><tag k="coa:place_id" v="614824"/></node><node id="-15" lat="30.332279" lon="-97.798891" changeset="false"><tag k="addr:street" v="Avatar Lane"/><tag k="addr:housenumber" v="3701"/><tag k="coa:place_id" v="3084171"/></node><node id="-16" lat="30.309378" lon="-97.811311" changeset="false"><tag k="addr:street" v="Petticoat Lane"/><tag k="addr:housenumber" v="5429"/><tag k="coa:place_id" v="384304"/></node><node id="-17" lat="30.308866" lon="-97.798259" changeset="false"><tag k="addr:street" v="The High Road"/><tag k="addr:housenumber" v="807"/><tag k="coa:place_id" v="3137037"/></node><node id="-18" lat="30.318912" lon="-97.814746" changeset="false"><tag k="addr:street" v="Northern Dancer Drive"/><tag k="addr:housenumber" v="6000"/><tag k="coa:place_id" v="59472"/></node><node id="-19" lat="30.318943" lon="-97.798322" changeset="false"><tag k="addr:street" v="Quail Run"/><tag k="addr:housenumber" v="5110"/><tag k="coa:place_id" v="1147494"/></node><node id="-20" lat="30.318588" lon="-97.799134" changeset="false"><tag k="addr:street" v="Deer Pass"/><tag k="addr:housenumber" v="2408"/><tag k="coa:place_id" v="1147498"/></node><node id="-21" lat="30.318328" lon="-97.797822" changeset="false"><tag k="addr:street" v="Quail Run"/><tag k="addr:housenumber" v="5107"/><tag k="coa:place_id" v="1147502"/></node><node id="-22" lat="30.317854" lon="-97.808916" changeset="false"><tag k="addr:street" v="Far Gallant Drive"/><tag k="addr:housenumber" v="2005"/><tag k="coa:place_id" v="182052"/></node><node id="-23" lat="30.317623" lon="-97.81049" changeset="false"><tag k="addr:street" v="Far Gallant Drive"/><tag k="addr:housenumber" v="2300"/><tag k="coa:place_id" v="182077"/></node><node id="-24" lat="30.317301" lon="-97.812716" changeset="false"><tag k="addr:street" v="Canonero Drive"/><tag k="addr:housenumber" v="1808"/><tag k="coa:place_id" v="166355"/></node><node id="-25" lat="30.317313" lon="-97.799052" changeset="false"><tag k="addr:street" v="Deer Pass"/><tag k="addr:housenumber" v="2403"/><tag k="coa:place_id" v="186690"/></node><node id="-26" lat="30.316934" lon="-97.7991" changeset="false"><tag k="addr:street" v="Deer Pass"/><tag k="addr:housenumber" v="2401"/><tag k="coa:place_id" v="160814"/></node><node id="-27" lat="30.317164" lon="-97.815496" changeset="false"><tag k="addr:street" v="Real Wind Cove"/><tag k="addr:housenumber" v="1702"/><tag k="coa:place_id" v="59454"/></node><node id="-28" lat="30.316896" lon="-97.812931" changeset="false"><tag k="addr:street" v="Canonero Drive"/><tag k="addr:housenumber" v="1800"/><tag k="coa:place_id" v="1123209"/></node><node id="-29" lat="30.329252" lon="-97.805776" changeset="false"><tag k="addr:street" v="Lookout Lane"/><tag k="addr:housenumber" v="3304"/><tag k="coa:place_id" v="86608"/></node><node id="-30" lat="30.328247" lon="-97.808475" changeset="false"><tag k="addr:street" v="Riva Ridge Road"/><tag k="addr:housenumber" v="3002"/><tag k="coa:place_id" v="74727"/></node><node id="-31" lat="30.31402" lon="-97.803697" changeset="false"><tag k="addr:street" v="The High Road"/><tag k="addr:housenumber" v="1354"/><tag k="coa:place_id" v="224599"/></node><node id="-32" lat="30.32311" lon="-97.795131" changeset="false"><tag k="addr:street" v="Buckman Mountain Road"/><tag k="addr:housenumber" v="5110"/><tag k="coa:place_id" v="3038302"/></node><node id="-33" lat="30.3224" lon="-97.807946" changeset="false"><tag k="addr:street" v="Waymaker Cove,1100"/><tag k="addr:housenumber" v="2531"/><tag k="coa:place_id" v="181985"/></node><node id="-34" lat="30.318282" lon="-97.816155" changeset="false"><tag k="addr:street" v="Northern Dancer Drive"/><tag k="addr:housenumber" v="6101"/><tag k="coa:place_id" v="1143887"/></node><node id="-35" lat="30.311017" lon="-97.802935" changeset="false"><tag k="addr:street" v="Scenic View Drive"/><tag k="addr:housenumber" v="5200"/><tag k="coa:place_id" v="1147519"/></node><node id="-36" lat="30.318246" lon="-97.816688" changeset="false"><tag k="addr:street" v="Ayres Drive"/><tag k="addr:housenumber" v="6311"/><tag k="coa:place_id" v="59414"/></node><node id="-37" lat="30.310391" lon="-97.80814" changeset="false"><tag k="addr:street" v="Petticoat Lane"/><tag k="addr:housenumber" v="5355"/><tag k="coa:place_id" v="5188402"/></node><node id="-38" lat="30.31437" lon="-97.807367" changeset="false"><tag k="addr:street" v="Scenic View Drive"/><tag k="addr:housenumber" v="5607"/><tag k="coa:place_id" v="5198958"/></node><node id="-39" lat="30.313486" lon="-97.806767" changeset="false"><tag k="addr:street" v="Scenic View Drive"/><tag k="addr:housenumber" v="5600"/><tag k="coa:place_id" v="5198963"/></node><node id="-40" lat="30.33299" lon="-97.803554" changeset="false"><tag k="addr:street" v="Buckpasser Cove"/><tag k="addr:housenumber" v="5815"/><tag k="coa:place_id" v="77705"/></node><node id="-41" lat="30.321409" lon="-97.797315" changeset="false"><tag k="addr:street" v="Fossil Rim Road"/><tag k="addr:housenumber" v="5215"/><tag k="coa:place_id" v="179323"/></node><node id="-42" lat="30.33458" lon="-97.797544" changeset="false"><tag k="addr:street" v="Westlake Drive"/><tag k="addr:housenumber" v="4170"/><tag k="coa:place_id" v="1148170"/></node><node id="-43" lat="30.321333" lon="-97.810574" changeset="false"><tag k="addr:street" v="Far Gallant Drive"/><tag k="addr:housenumber" v="2304"/><tag k="coa:place_id" v="1147741"/></node><node id="-44" lat="30.318362" lon="-97.81308" changeset="false"><tag k="addr:street" v="Canonero Drive"/><tag k="addr:housenumber" v="1904"/><tag k="coa:place_id" v="741988"/></node><node id="-45" lat="30.31689" lon="-97.815169" changeset="false"><tag k="addr:street" v="Real Wind Cove"/><tag k="addr:housenumber" v="1700"/><tag k="coa:place_id" v="59455"/></node><node id="-46" lat="30.316792" lon="-97.813128" changeset="false"><tag k="addr:street" v="Canonero Drive"/><tag k="addr:housenumber" v="1804"/><tag k="coa:place_id" v="1123208"/></node><node id="-47" lat="30.319294" lon="-97.818108" changeset="false"><tag k="addr:street" v="Northern Dancer Drive"/><tag k="addr:housenumber" v="6216"/><tag k="coa:place_id" v="59478"/></node><node id="-48" lat="30.326245" lon="-97.809961" changeset="false"><tag k="addr:street" v="Waymaker Cove,1100"/><tag k="addr:housenumber" v="2810"/><tag k="coa:place_id" v="323548"/></node><node id="-49" lat="30.324216" lon="-97.806863" changeset="false"><tag k="addr:street" v="Clarion Cove"/><tag k="addr:housenumber" v="5616"/><tag k="coa:place_id" v="181963"/></node><node id="-50" lat="30.324123" lon="-97.808717" changeset="false"><tag k="addr:street" v="Waymaker Cove"/><tag k="addr:housenumber" v="5904"/><tag k="coa:place_id" v="181951"/></node><node id="-51" lat="30.322365" lon="-97.794894" changeset="false"><tag k="addr:street" v="Toro Canyon Road"/><tag k="addr:housenumber" v="3024"/><tag k="coa:place_id" v="558220"/></node><node id="-52" lat="30.309744" lon="-97.798807" changeset="false"><tag k="addr:street" v="The High Road"/><tag k="addr:housenumber" v="903"/><tag k="coa:place_id" v="251401"/></node><node id="-53" lat="30.319518" lon="-97.809047" changeset="false"><tag k="addr:street" v="Far Gallant Drive"/><tag k="addr:housenumber" v="2113"/><tag k="coa:place_id" v="182059"/></node><node id="-54" lat="30.318172" lon="-97.806009" changeset="false"><tag k="addr:street" v="The High Road"/><tag k="addr:housenumber" v="1615"/><tag k="coa:place_id" v="160760"/></node><node id="-55" lat="30.311691" lon="-97.803214" changeset="false"><tag k="addr:street" v="The High Road"/><tag k="addr:housenumber" v="1201"/><tag k="coa:place_id" v="220428"/></node><node id="-56" lat="30.314655" lon="-97.7972" changeset="false"><tag k="addr:street" v="Matador Circle"/><tag k="addr:housenumber" v="2303"/><tag k="coa:place_id" v="226797"/></node><node id="-57" lat="30.314462" lon="-97.801052" changeset="false"><tag k="addr:street" v="Paisano Road"/><tag k="addr:housenumber" v="2111"/><tag k="coa:place_id" v="3039607"/></node><node id="-58" lat="30.313763" lon="-97.802308" changeset="false"><tag k="addr:street" v="Paisano Road"/><tag k="addr:housenumber" v="2112"/><tag k="coa:place_id" v="181209"/></node><node id="-59" lat="30.3179" lon="-97.817575" changeset="false"><tag k="addr:street" v="Ayres Drive"/><tag k="addr:housenumber" v="6308"/><tag k="coa:place_id" v="59421"/></node><node id="-60" lat="30.328691" lon="-97.807088" changeset="false"><tag k="addr:street" v="Cavalcade Court"/><tag k="addr:housenumber" v="3103"/><tag k="coa:place_id" v="74756"/></node><node id="-61" lat="30.333639" lon="-97.798226" changeset="false"><tag k="addr:street" v="Westlake Drive"/><tag k="addr:housenumber" v="4182"/><tag k="coa:place_id" v="1148172"/></node><node id="-62" lat="30.31578" lon="-97.811152" changeset="false"><tag k="addr:street" v="Canonero Drive"/><tag k="addr:housenumber" v="1729"/><tag k="coa:place_id" v="239123"/></node><node id="-63" lat="30.321961" lon="-97.797249" changeset="false"><tag k="addr:street" v="Fossil Rim Road"/><tag k="addr:housenumber" v="5210"/><tag k="coa:place_id" v="161570"/></node><node id="-64" lat="30.324437" lon="-97.808864" changeset="false"><tag k="addr:street" v="Waymaker Cove"/><tag k="addr:housenumber" v="5908"/><tag k="coa:place_id" v="181952"/></node><node id="-65" lat="30.321702" lon="-97.806837" changeset="false"><tag k="addr:street" v="Never Bend Cove"/><tag k="addr:housenumber" v="2417"/><tag k="coa:place_id" v="233181"/></node><node id="-66" lat="30.32138" lon="-97.806711" changeset="false"><tag k="addr:street" v="Never Bend Cove"/><tag k="addr:housenumber" v="2413"/><tag k="coa:place_id" v="181981"/></node><node id="-67" lat="30.321452" lon="-97.812036" changeset="false"><tag k="addr:street" v="Bold Ruler Way"/><tag k="addr:housenumber" v="5930"/><tag k="coa:place_id" v="182081"/></node><node id="-68" lat="30.332014" lon="-97.79966" changeset="false"><tag k="addr:street" v="Avatar Lane"/><tag k="addr:housenumber" v="3704"/><tag k="coa:place_id" v="3084169"/></node><node id="-69" lat="30.319263" lon="-97.813324" changeset="false"><tag k="addr:street" v="Canonero Drive"/><tag k="addr:housenumber" v="2000"/><tag k="coa:place_id" v="138828"/></node><node id="-70" lat="30.318304" lon="-97.804727" changeset="false"><tag k="addr:street" v="The High Road"/><tag k="addr:housenumber" v="1609"/><tag k="coa:place_id" v="255213"/></node><node id="-71" lat="30.31885" lon="-97.815124" changeset="false"><tag k="addr:street" v="Northern Dancer Drive"/><tag k="addr:housenumber" v="6004"/><tag k="coa:place_id" v="59471"/></node><node id="-72" lat="30.318563" lon="-97.817583" changeset="false"><tag k="addr:street" v="Ayres Drive"/><tag k="addr:housenumber" v="6305"/><tag k="coa:place_id" v="208987"/></node><node id="-73" lat="30.319145" lon="-97.805826" changeset="false"><tag k="addr:street" v="The High Road"/><tag k="addr:housenumber" v="1616"/><tag k="coa:place_id" v="3099982"/></node><node id="-74" lat="30.319856" lon="-97.809187" changeset="false"><tag k="addr:street" v="Far Gallant Drive"/><tag k="addr:housenumber" v="2201"/><tag k="coa:place_id" v="182062"/></node><node id="-75" lat="30.318492" lon="-97.808937" changeset="false"><tag k="addr:street" v="Far Gallant Drive"/><tag k="addr:housenumber" v="2101"/><tag k="coa:place_id" v="182056"/></node><node id="-76" lat="30.308189" lon="-97.797774" changeset="false"><tag k="addr:street" v="The High Road"/><tag k="addr:housenumber" v="803"/><tag k="coa:place_id" v="251400"/></node><node id="-77" lat="30.327671" lon="-97.808262" changeset="false"><tag k="addr:street" v="Riva Ridge Road"/><tag k="addr:housenumber" v="3004"/><tag k="coa:place_id" v="74726"/></node><node id="-78" lat="30.327536" lon="-97.805333" changeset="false"><tag k="addr:street" v="Lookout Lane"/><tag k="addr:housenumber" v="3103"/><tag k="coa:place_id" v="611074"/></node><node id="-79" lat="30.31653" lon="-97.812705" changeset="false"><tag k="addr:street" v="Canonero Drive"/><tag k="addr:housenumber" v="1742"/><tag k="coa:place_id" v="157321"/></node><node id="-80" lat="30.303881" lon="-97.796163" changeset="false"><tag k="addr:street" v="Westlake Drive"/><tag k="addr:housenumber" v="1804"/><tag k="coa:place_id" v="420039"/></node><node id="-81" lat="30.334033" lon="-97.804006" changeset="false"><tag k="addr:street" v="Westlake Drive"/><tag k="addr:housenumber" v="4250"/><tag k="coa:place_id" v="122795"/></node><node id="-82" lat="30.321956" lon="-97.813135" changeset="false"><tag k="addr:street" v="Canonero Drive"/><tag k="addr:housenumber" v="2200"/><tag k="coa:place_id" v="3192627"/></node><node id="-83" lat="30.315247" lon="-97.825373" changeset="false"><tag k="addr:street" v="Capital of Texas Highway"/><tag k="addr:housenumber" v="1107"/><tag k="coa:place_id" v="3292079"/></node><node id="-84" lat="30.330175" lon="-97.791096" changeset="false"><tag k="addr:street" v="Toro Canyon Road"/><tag k="addr:housenumber" v="3814"/><tag k="coa:place_id" v="131538"/></node><node id="-85" lat="30.316753" lon="-97.808859" changeset="false"><tag k="addr:street" v="Far Gallant Drive"/><tag k="addr:housenumber" v="1905"/><tag k="coa:place_id" v="182047"/></node><node id="-86" lat="30.315467" lon="-97.807168" changeset="false"><tag k="addr:street" v="Scenic View Drive"/><tag k="addr:housenumber" v="5705"/><tag k="coa:place_id" v="5198954"/></node><node id="-87" lat="30.312363" lon="-97.806112" changeset="false"><tag k="addr:street" v="Scenic View Drive"/><tag k="addr:housenumber" v="5409"/><tag k="coa:place_id" v="5198964"/></node><node id="-88" lat="30.31305" lon="-97.801906" changeset="false"><tag k="addr:street" v="Paisano Road"/><tag k="addr:housenumber" v="2001"/><tag k="coa:place_id" v="3498899"/></node><node id="-89" lat="30.322391" lon="-97.81112" changeset="false"><tag k="addr:street" v="Bold Ruler Way"/><tag k="addr:housenumber" v="5910"/><tag k="coa:place_id" v="182083"/></node><node id="-90" lat="30.3225" lon="-97.794713" changeset="false"><tag k="addr:street" v="Toro Canyon Road"/><tag k="addr:housenumber" v="3100"/><tag k="coa:place_id" v="251593"/></node><node id="-91" lat="30.321747" lon="-97.805632" changeset="false"><tag k="addr:street" v="Waymaker Cove,1100"/><tag k="addr:housenumber" v="2482"/><tag k="coa:place_id" v="181989"/></node><node id="-92" lat="30.320764" lon="-97.813565" changeset="false"><tag k="addr:street" v="Canonero Drive"/><tag k="addr:housenumber" v="2104"/><tag k="coa:place_id" v="59517"/></node><node id="-93" lat="30.332135" lon="-97.80378" changeset="false"><tag k="addr:street" v="Carry Back Lane"/><tag k="addr:housenumber" v="5910"/><tag k="coa:place_id" v="208991"/></node><node id="-94" lat="30.331661" lon="-97.79934" changeset="false"><tag k="addr:street" v="Avatar Lane"/><tag k="addr:housenumber" v="3700"/><tag k="coa:place_id" v="3084170"/></node><node id="-95" lat="30.331604" lon="-97.804821" changeset="false"><tag k="addr:street" v="Native Dancer Cove"/><tag k="addr:housenumber" v="3506"/><tag k="coa:place_id" v="987075"/></node><node id="-96" lat="30.31836" lon="-97.797059" changeset="false"><tag k="addr:street" v="Quail Run"/><tag k="addr:housenumber" v="5103"/><tag k="coa:place_id" v="1147501"/></node><node id="-97" lat="30.310974" lon="-97.796721" changeset="false"><tag k="addr:street" v="Toro Canyon Road"/><tag k="addr:housenumber" v="1908"/><tag k="coa:place_id" v="117837"/></node><node id="-98" lat="30.313833" lon="-97.80442" changeset="false"><tag k="addr:street" v="The High Road"/><tag k="addr:housenumber" v="1357 1/2"/><tag k="coa:place_id" v="3101650"/></node><node id="-99" lat="30.32363" lon="-97.809783" changeset="false"><tag k="addr:street" v="Waymaker Cove"/><tag k="addr:housenumber" v="5905"/><tag k="coa:place_id" v="181945"/></node><node id="-100" lat="30.329539" lon="-97.808014" changeset="false"><tag k="addr:street" v="Cavalcade Court"/><tag k="addr:housenumber" v="3110"/><tag k="coa:place_id" v="74753"/></node><node id="-101" lat="30.317604" lon="-97.813412" changeset="false"><tag k="addr:street" v="Canonero Drive"/><tag k="addr:housenumber" v="1814"/><tag k="coa:place_id" v="159049"/></node><node id="-102" lat="30.317143" lon="-97.80886" changeset="false"><tag k="addr:street" v="Far Gallant Drive"/><tag k="addr:housenumber" v="1909"/><tag k="coa:place_id" v="182048"/></node><node id="-103" lat="30.321598" lon="-97.810084" changeset="false"><tag k="addr:street" v="Far Gallant Drive"/><tag k="addr:housenumber" v="2310"/><tag k="coa:place_id" v="1147740"/></node><node id="-104" lat="30.332059" lon="-97.803594" changeset="false"><tag k="addr:street" v="Carry Back Lane"/><tag k="addr:housenumber" v="5900"/><tag k="coa:place_id" v="562108"/></node><node id="-105" lat="30.319669" lon="-97.813659" changeset="false"><tag k="addr:street" v="Canonero Drive"/><tag k="addr:housenumber" v="2004"/><tag k="coa:place_id" v="59514"/></node><node id="-106" lat="30.312514" lon="-97.804963" changeset="false"><tag k="addr:street" v="Scenic View Drive"/><tag k="addr:housenumber" v="5310"/><tag k="coa:place_id" v="108180"/></node><node id="-107" lat="30.334187" lon="-97.795953" changeset="false"><tag k="addr:street" v="Westlake Drive"/><tag k="addr:housenumber" v="4136"/><tag k="coa:place_id" v="192396"/></node><node id="-108" lat="30.329546" lon="-97.79685" changeset="false"><tag k="addr:street" v="Cassava Drive"/><tag k="addr:housenumber" v="3500"/><tag k="coa:place_id" v="54958"/></node><node id="-109" lat="30.319119" lon="-97.813802" changeset="false"><tag k="addr:street" v="Northern Dancer Drive"/><tag k="addr:housenumber" v="5904"/><tag k="coa:place_id" v="59511"/></node><node id="-110" lat="30.318635" lon="-97.817891" changeset="false"><tag k="addr:street" v="Northern Dancer Drive"/><tag k="addr:housenumber" v="6299"/><tag k="coa:place_id" v="210120"/></node><node id="-111" lat="30.316342" lon="-97.812451" changeset="false"><tag k="addr:street" v="Canonero Drive"/><tag k="addr:housenumber" v="1740"/><tag k="coa:place_id" v="181878"/></node><node id="-112" lat="30.318901" lon="-97.798018" changeset="false"><tag k="addr:street" v="Quail Run"/><tag k="addr:housenumber" v="5108"/><tag k="coa:place_id" v="1147495"/></node><node id="-113" lat="30.317847" lon="-97.814453" changeset="false"><tag k="addr:street" v="Real Wind Cove"/><tag k="addr:housenumber" v="1801"/><tag k="coa:place_id" v="59459"/></node><node id="-114" lat="30.311271" lon="-97.804521" changeset="false"><tag k="addr:street" v="Scenic View Drive"/><tag k="addr:housenumber" v="5300"/><tag k="coa:place_id" v="108169"/></node><node id="-115" lat="30.311474" lon="-97.804056" changeset="false"><tag k="addr:street" v="The High Road"/><tag k="addr:housenumber" v="1157"/><tag k="coa:place_id" v="160544"/></node><node id="-116" lat="30.322693" lon="-97.795393" changeset="false"><tag k="addr:street" v="Buckman Mountain Road"/><tag k="addr:housenumber" v="5101"/><tag k="coa:place_id" v="122543"/></node><node id="-117" lat="30.320596" lon="-97.810042" changeset="false"><tag k="addr:street" v="Far Gallant Drive"/><tag k="addr:housenumber" v="1801"/><tag k="coa:place_id" v="182042"/></node><node id="-118" lat="30.321617" lon="-97.796717" changeset="false"><tag k="addr:street" v="Fossil Rim Road"/><tag k="addr:housenumber" v="5201"/><tag k="coa:place_id" v="666321"/></node><node id="-119" lat="30.326136" lon="-97.807148" changeset="false"><tag k="addr:street" v="Round Table Road"/><tag k="addr:housenumber" v="2907"/><tag k="coa:place_id" v="120167"/></node><node id="-120" lat="30.316324" lon="-97.809031" changeset="false"><tag k="addr:street" v="Far Gallant Drive"/><tag k="addr:housenumber" v="1901"/><tag k="coa:place_id" v="182046"/></node><node id="-121" lat="30.323611" lon="-97.796543" changeset="false"><tag k="addr:street" v="Buckman Mountain Road"/><tag k="addr:housenumber" v="5206"/><tag k="coa:place_id" v="117197"/></node><node id="-122" lat="30.322971" lon="-97.796397" changeset="false"><tag k="addr:street" v="Buckman Mountain Road"/><tag k="addr:housenumber" v="5129"/><tag k="coa:place_id" v="5095954"/></node><node id="-123" lat="30.315722" lon="-97.806308" changeset="false"><tag k="addr:street" v="Scenic View Drive"/><tag k="addr:housenumber" v="5710"/><tag k="coa:place_id" v="5198956"/></node><node id="-124" lat="30.310309" lon="-97.809599" changeset="false"><tag k="addr:street" v="Petticoat Lane"/><tag k="addr:housenumber" v="5418"/><tag k="coa:place_id" v="5198965"/></node><node id="-125" lat="30.31238" lon="-97.807133" changeset="false"><tag k="addr:street" v="Scenic View Drive"/><tag k="addr:housenumber" v="5419"/><tag k="coa:place_id" v="5198962"/></node><node id="-126" lat="30.319037" lon="-97.806731" changeset="false"><tag k="addr:street" v="The High Road"/><tag k="addr:housenumber" v="1627"/><tag k="coa:place_id" v="5198922"/></node><node id="-127" lat="30.323868" lon="-97.807771" changeset="false"><tag k="addr:street" v="Clarion Cove"/><tag k="addr:housenumber" v="5621"/><tag k="coa:place_id" v="181961"/></node><node id="-128" lat="30.318012" lon="-97.817936" changeset="false"><tag k="addr:street" v="Ayres Drive"/><tag k="addr:housenumber" v="6304"/><tag k="coa:place_id" v="59410"/></node><node id="-129" lat="30.317585" lon="-97.816776" changeset="false"><tag k="addr:street" v="Ayres Drive"/><tag k="addr:housenumber" v="6318"/><tag k="coa:place_id" v="59420"/></node><node id="-130" lat="30.323874" lon="-97.806524" changeset="false"><tag k="addr:street" v="Clarion Cove"/><tag k="addr:housenumber" v="5612"/><tag k="coa:place_id" v="181964"/></node><node id="-131" lat="30.3081" lon="-97.797575" changeset="false"><tag k="addr:street" v="The High Road"/><tag k="addr:housenumber" v="801"/><tag k="coa:place_id" v="160412"/></node><node id="-132" lat="30.31585" lon="-97.810249" changeset="false"><tag k="addr:street" v="Far Gallant Drive"/><tag k="addr:housenumber" v="1816"/><tag k="coa:place_id" v="182029"/></node><node id="-133" lat="30.322896" lon="-97.806157" changeset="false"><tag k="addr:street" v="Waymaker Cove,1100"/><tag k="addr:housenumber" v="2495"/><tag k="coa:place_id" v="227311"/></node><node id="-134" lat="30.331691" lon="-97.791519" changeset="false"><tag k="addr:street" v="Toro Canyon Road"/><tag k="addr:housenumber" v="3900"/><tag k="coa:place_id" v="131543"/></node><node id="-135" lat="30.312877" lon="-97.804513" changeset="false"><tag k="addr:street" v="The High Road"/><tag k="addr:housenumber" v="1355"/><tag k="coa:place_id" v="160664"/></node><node id="-136" lat="30.320039" lon="-97.81151" changeset="false"><tag k="addr:street" v="Sir Ivor Cove"/><tag k="addr:housenumber" v="5900"/><tag k="coa:place_id" v="88894"/></node><node id="-137" lat="30.311926" lon="-97.810319" changeset="false"><tag k="addr:street" v="Petticoat Lane"/><tag k="addr:housenumber" v="5424"/><tag k="coa:place_id" v="230987"/></node><node id="-138" lat="30.309999" lon="-97.807374" changeset="false"><tag k="addr:street" v="Petticoat Lane"/><tag k="addr:housenumber" v="5309"/><tag k="coa:place_id" v="134532"/></node><node id="-139" lat="30.33237" lon="-97.801961" changeset="false"><tag k="addr:street" v="Buckpasser Cove"/><tag k="addr:housenumber" v="5805"/><tag k="coa:place_id" v="597754"/></node><node id="-140" lat="30.316268" lon="-97.811353" changeset="false"><tag k="addr:street" v="Canonero Drive"/><tag k="addr:housenumber" v="1733"/><tag k="coa:place_id" v="166363"/></node><node id="-141" lat="30.332887" lon="-97.798729" changeset="false"><tag k="addr:street" v="Westlake Drive"/><tag k="addr:housenumber" v="4192"/><tag k="coa:place_id" v="1148175"/></node><node id="-142" lat="30.318171" lon="-97.818641" changeset="false"><tag k="addr:street" v="Ayres Drive"/><tag k="addr:housenumber" v="6300"/><tag k="coa:place_id" v="59412"/></node><node id="-143" lat="30.317542" lon="-97.816304" changeset="false"><tag k="addr:street" v="Ayres Drive"/><tag k="addr:housenumber" v="6320"/><tag k="coa:place_id" v="59406"/></node><node id="-144" lat="30.313034" lon="-97.79522" changeset="false"><tag k="addr:street" v="Toro Canyon Road"/><tag k="addr:housenumber" v="2202"/><tag k="coa:place_id" v="1147514"/></node><node id="-145" lat="30.312265" lon="-97.797916" changeset="false"><tag k="addr:street" v="South Oak Canyon Road"/><tag k="addr:housenumber" v="2005"/><tag k="coa:place_id" v="199497"/></node><node id="-146" lat="30.325302" lon="-97.809851" changeset="false"><tag k="addr:street" v="Waymaker Cove,1100"/><tag k="addr:housenumber" v="2708"/><tag k="coa:place_id" v="1147736"/></node><node id="-147" lat="30.313817" lon="-97.798096" changeset="false"><tag k="addr:street" v="North Oak Canyon Road"/><tag k="addr:housenumber" v="2106"/><tag k="coa:place_id" v="107772"/></node><node id="-148" lat="30.323042" lon="-97.808708" changeset="false"><tag k="addr:street" v="Waymaker Cove,1100"/><tag k="addr:housenumber" v="2547"/><tag k="coa:place_id" v="203389"/></node><node id="-149" lat="30.322518" lon="-97.81011" changeset="false"><tag k="addr:street" v="Bold Ruler Way"/><tag k="addr:housenumber" v="5901"/><tag k="coa:place_id" v="203383"/></node><node id="-150" lat="30.329283" lon="-97.807884" changeset="false"><tag k="addr:street" v="Cavalcade Court"/><tag k="addr:housenumber" v="3106"/><tag k="coa:place_id" v="74754"/></node><node id="-151" lat="30.328784" lon="-97.807002" changeset="false"><tag k="addr:street" v="Riva Ridge Road"/><tag k="addr:housenumber" v="3200"/><tag k="coa:place_id" v="692404"/></node><node id="-152" lat="30.321853" lon="-97.810507" changeset="false"><tag k="addr:street" v="Bold Ruler Way"/><tag k="addr:housenumber" v="5909"/><tag k="coa:place_id" v="203381"/></node><node id="-153" lat="30.32643" lon="-97.810761" changeset="false"><tag k="addr:street" v="Waymaker Cove,1100"/><tag k="addr:housenumber" v="2820"/><tag k="coa:place_id" v="1147734"/></node><node id="-154" lat="30.325965" lon="-97.808811" changeset="false"><tag k="addr:street" v="Round Table Road"/><tag k="addr:housenumber" v="2802"/><tag k="coa:place_id" v="74711"/></node><node id="-155" lat="30.319383" lon="-97.795132" changeset="false"><tag k="addr:street" v="Fast Fox Trail"/><tag k="addr:housenumber" v="4914"/><tag k="coa:place_id" v="100511"/></node><node id="-156" lat="30.318327" lon="-97.799312" changeset="false"><tag k="addr:street" v="Deer Pass"/><tag k="addr:housenumber" v="2406"/><tag k="coa:place_id" v="1147503"/></node><node id="-157" lat="30.321389" lon="-97.812521" changeset="false"><tag k="addr:street" v="Canonero Drive"/><tag k="addr:housenumber" v="2201"/><tag k="coa:place_id" v="59521"/></node><node id="-158" lat="30.315958" lon="-97.807117" changeset="false"><tag k="addr:street" v="Scenic View Drive"/><tag k="addr:housenumber" v="5711"/><tag k="coa:place_id" v="5198955"/></node><node id="-159" lat="30.310813" lon="-97.808928" changeset="false"><tag k="addr:street" v="Petticoat Lane"/><tag k="addr:housenumber" v="5400"/><tag k="coa:place_id" v="5198966"/></node><node id="-160" lat="30.333166" lon="-97.802397" changeset="false"><tag k="addr:street" v="Buckpasser Cove"/><tag k="addr:housenumber" v="5810"/><tag k="coa:place_id" v="77682"/></node><node id="-161" lat="30.332268" lon="-97.791094" changeset="false"><tag k="addr:street" v="Westlake Drive"/><tag k="addr:housenumber" v="4066"/><tag k="coa:place_id" v="146434"/></node><node id="-162" lat="30.330612" lon="-97.793289" changeset="false"><tag k="addr:street" v="Cassava Drive"/><tag k="addr:housenumber" v="3607"/><tag k="coa:place_id" v="1147729"/></node><node id="-163" lat="30.322205" lon="-97.807658" changeset="false"><tag k="addr:street" v="Waymaker Cove,1100"/><tag k="addr:housenumber" v="2525"/><tag k="coa:place_id" v="181986"/></node><node id="-164" lat="30.323232" lon="-97.808987" changeset="false"><tag k="addr:street" v="Waymaker Cove,1100"/><tag k="addr:housenumber" v="2551"/><tag k="coa:place_id" v="203391"/></node><node id="-165" lat="30.33258" lon="-97.794505" changeset="false"><tag k="addr:street" v="Arbutus Cove"/><tag k="addr:housenumber" v="5308"/><tag k="coa:place_id" v="54964"/></node><node id="-166" lat="30.33362" lon="-97.794359" changeset="false"><tag k="addr:street" v="Westlake Drive"/><tag k="addr:housenumber" v="4108"/><tag k="coa:place_id" v="123342"/></node><node id="-167" lat="30.313822" lon="-97.800708" changeset="false"><tag k="addr:street" v="Paisano Road"/><tag k="addr:housenumber" v="2102"/><tag k="coa:place_id" v="122681"/></node><node id="-168" lat="30.329208" lon="-97.805348" changeset="false"><tag k="addr:street" v="Riva Ridge Road"/><tag k="addr:housenumber" v="3300"/><tag k="coa:place_id" v="816375"/></node><node id="-169" lat="30.329016" lon="-97.80482" changeset="false"><tag k="addr:street" v="Riva Ridge Road"/><tag k="addr:housenumber" v="3305"/><tag k="coa:place_id" v="255964"/></node><node id="-170" lat="30.318187" lon="-97.813962" changeset="false"><tag k="addr:street" v="Northern Dancer Drive"/><tag k="addr:housenumber" v="5909"/><tag k="coa:place_id" v="59509"/></node><node id="-171" lat="30.325418" lon="-97.808409" changeset="false"><tag k="addr:street" v="Round Table Road"/><tag k="addr:housenumber" v="2805"/><tag k="coa:place_id" v="74697"/></node><node id="-172" lat="30.322611" lon="-97.80817" changeset="false"><tag k="addr:street" v="Waymaker Cove,1100"/><tag k="addr:housenumber" v="2537"/><tag k="coa:place_id" v="181984"/></node><node id="-173" lat="30.322175" lon="-97.812863" changeset="false"><tag k="addr:street" v="Canonero Drive"/><tag k="addr:housenumber" v="2204"/><tag k="coa:place_id" v="59518"/></node><node id="-174" lat="30.31314" lon="-97.798332" changeset="false"><tag k="addr:street" v="North Oak Canyon Road"/><tag k="addr:housenumber" v="2100"/><tag k="coa:place_id" v="107767"/></node><node id="-175" lat="30.318881" lon="-97.806388" changeset="false"><tag k="addr:street" v="The High Road"/><tag k="addr:housenumber" v="1621"/><tag k="coa:place_id" v="320931"/></node><node id="-176" lat="30.318858" lon="-97.808915" changeset="false"><tag k="addr:street" v="Far Gallant Drive"/><tag k="addr:housenumber" v="2105"/><tag k="coa:place_id" v="182057"/></node><node id="-177" lat="30.318395" lon="-97.798579" changeset="false"><tag k="addr:street" v="Deer Pass"/><tag k="addr:housenumber" v="2409"/><tag k="coa:place_id" v="160850"/></node><node id="-178" lat="30.31846" lon="-97.812062" changeset="false"><tag k="addr:street" v="Canonero Drive"/><tag k="addr:housenumber" v="1905"/><tag k="coa:place_id" v="741994"/></node><node id="-179" lat="30.312311" lon="-97.804833" changeset="false"><tag k="addr:street" v="Scenic View Drive"/><tag k="addr:housenumber" v="5308"/><tag k="coa:place_id" v="108179"/></node><node id="-180" lat="30.312004" lon="-97.795846" changeset="false"><tag k="addr:street" v="Toro Canyon Road"/><tag k="addr:housenumber" v="2102"/><tag k="coa:place_id" v="1164572"/></node><node id="-181" lat="30.311472" lon="-97.804655" changeset="false"><tag k="addr:street" v="Scenic View Drive"/><tag k="addr:housenumber" v="5302"/><tag k="coa:place_id" v="108173"/></node><node id="-182" lat="30.323452" lon="-97.807745" changeset="false"><tag k="addr:street" v="Clarion Cove"/><tag k="addr:housenumber" v="5617"/><tag k="coa:place_id" v="181959"/></node><node id="-183" lat="30.322839" lon="-97.808457" changeset="false"><tag k="addr:street" v="Waymaker Cove,1100"/><tag k="addr:housenumber" v="2541"/><tag k="coa:place_id" v="203388"/></node><node id="-184" lat="30.318049" lon="-97.815511" changeset="false"><tag k="addr:street" v="Ayres Drive"/><tag k="addr:housenumber" v="6328"/><tag k="coa:place_id" v="86501"/></node><node id="-185" lat="30.319763" lon="-97.816472" changeset="false"><tag k="addr:street" v="Northern Dancer Drive"/><tag k="addr:housenumber" v="6204"/><tag k="coa:place_id" v="59467"/></node><node id="-186" lat="30.309438" lon="-97.798834" changeset="false"><tag k="addr:street" v="The High Road"/><tag k="addr:housenumber" v="817"/><tag k="coa:place_id" v="3131005"/></node><node id="-187" lat="30.319488" lon="-97.804642" changeset="false"><tag k="addr:street" v="The High Road"/><tag k="addr:housenumber" v="1612"/><tag k="coa:place_id" v="188355"/></node><node id="-188" lat="30.31946" lon="-97.811736" changeset="false"><tag k="addr:street" v="Sir Ivor Cove"/><tag k="addr:housenumber" v="5901"/><tag k="coa:place_id" v="88895"/></node><node id="-189" lat="30.318542" lon="-97.794178" changeset="false"><tag k="addr:street" v="Fast Fox Trail"/><tag k="addr:housenumber" v="4904"/><tag k="coa:place_id" v="100506"/></node><node id="-190" lat="30.31827" lon="-97.798229" changeset="false"><tag k="addr:street" v="Quail Run"/><tag k="addr:housenumber" v="5109"/><tag k="coa:place_id" v="235528"/></node><node id="-191" lat="30.320589" lon="-97.794093" changeset="false"><tag k="addr:street" v="Toro Canyon Road"/><tag k="addr:housenumber" v="2924"/><tag k="coa:place_id" v="100505"/></node><node id="-192" lat="30.317762" lon="-97.812074" changeset="false"><tag k="addr:street" v="Canonero Drive"/><tag k="addr:housenumber" v="1817"/><tag k="coa:place_id" v="166354"/></node><node id="-193" lat="30.316261" lon="-97.799415" changeset="false"><tag k="addr:street" v="Ridgecrest Drive"/><tag k="addr:housenumber" v="1103"/><tag k="coa:place_id" v="1147507"/></node><node id="-194" lat="30.316936" lon="-97.799982" changeset="false"><tag k="addr:street" v="Ridgecrest Drive"/><tag k="addr:housenumber" v="1201"/><tag k="coa:place_id" v="3072537"/></node><node id="-195" lat="30.314097" lon="-97.79777" changeset="false"><tag k="addr:street" v="North Oak Canyon Road"/><tag k="addr:housenumber" v="2202"/><tag k="coa:place_id" v="1147512"/></node><node id="-196" lat="30.31718" lon="-97.814489" changeset="false"><tag k="addr:street" v="Real Wind Cove"/><tag k="addr:housenumber" v="1703"/><tag k="coa:place_id" v="59457"/></node><node id="-197" lat="30.328625" lon="-97.804774" changeset="false"><tag k="addr:street" v="Lookout Lane"/><tag k="addr:housenumber" v="3205"/><tag k="coa:place_id" v="1147732"/></node><node id="-198" lat="30.32817" lon="-97.80765" changeset="false"><tag k="addr:street" v="Riva Ridge Road"/><tag k="addr:housenumber" v="3106"/><tag k="coa:place_id" v="629884"/></node><node id="-199" lat="30.325872" lon="-97.791895" changeset="false"><tag k="addr:street" v="Toro Canyon Road"/><tag k="addr:housenumber" v="3400"/><tag k="coa:place_id" v="134046"/></node><node id="-200" lat="30.333994" lon="-97.794484" changeset="false"><tag k="addr:street" v="Westlake Drive"/><tag k="addr:housenumber" v="4114"/><tag k="coa:place_id" v="252431"/></node><node id="-201" lat="30.329416" lon="-97.807257" changeset="false"><tag k="addr:street" v="Cavalcade Court"/><tag k="addr:housenumber" v="3107"/><tag k="coa:place_id" v="74757"/></node><node id="-202" lat="30.309784" lon="-97.809337" changeset="false"><tag k="addr:street" v="Petticoat Lane"/><tag k="addr:housenumber" v="5423"/><tag k="coa:place_id" v="61723"/></node><node id="-203" lat="30.332517" lon="-97.79948" changeset="false"><tag k="addr:street" v="Westlake Drive"/><tag k="addr:housenumber" v="4200 1/2"/><tag k="coa:place_id" v="3371676"/></node><node id="-204" lat="30.331457" lon="-97.800692" changeset="false"><tag k="addr:street" v="Fawn Creek Path"/><tag k="addr:housenumber" v="3516"/><tag k="coa:place_id" v="103042"/></node><node id="-205" lat="30.320436" lon="-97.809583" changeset="false"><tag k="addr:street" v="Far Gallant Drive"/><tag k="addr:housenumber" v="2209"/><tag k="coa:place_id" v="182064"/></node><node id="-206" lat="30.320184" lon="-97.807277" changeset="false"><tag k="addr:street" v="Never Bend Cove"/><tag k="addr:housenumber" v="2404"/><tag k="coa:place_id" v="181973"/></node><node id="-207" lat="30.317223" lon="-97.803117" changeset="false"><tag k="addr:street" v="Ridgecrest Drive"/><tag k="addr:housenumber" v="1501"/><tag k="coa:place_id" v="3391197"/></node><node id="-208" lat="30.313296" lon="-97.80791" changeset="false"><tag k="addr:street" v="Scenic View Drive"/><tag k="addr:housenumber" v="5511"/><tag k="coa:place_id" v="5198960"/></node><node id="-209" lat="30.312753" lon="-97.807742" changeset="false"><tag k="addr:street" v="Scenic View Drive"/><tag k="addr:housenumber" v="5505"/><tag k="coa:place_id" v="5198961"/></node><node id="-210" lat="30.33242" lon="-97.795123" changeset="false"><tag k="addr:street" v="Arbutus Cove"/><tag k="addr:housenumber" v="5310"/><tag k="coa:place_id" v="54963"/></node><node id="-211" lat="30.322132" lon="-97.812372" changeset="false"><tag k="addr:street" v="Canonero Drive"/><tag k="addr:housenumber" v="2208"/><tag k="coa:place_id" v="59519"/></node><node id="-212" lat="30.31246" lon="-97.803473" changeset="false"><tag k="addr:street" v="The High Road"/><tag k="addr:housenumber" v="1301"/><tag k="coa:place_id" v="220429"/></node><node id="-213" lat="30.314887" lon="-97.807242" changeset="false"><tag k="addr:street" v="Scenic View Drive"/><tag k="addr:housenumber" v="5615"/><tag k="coa:place_id" v="5198957"/></node><node id="-214" lat="30.3171" lon="-97.8099" changeset="false"><tag k="addr:street" v="Far Gallant Drive"/><tag k="addr:housenumber" v="1910"/><tag k="coa:place_id" v="182035"/></node><node id="-215" lat="30.317811" lon="-97.803163" changeset="false"><tag k="addr:street" v="Ridgecrest Drive"/><tag k="addr:housenumber" v="1410"/><tag k="coa:place_id" v="156729"/></node><node id="-216" lat="30.314725" lon="-97.810369" changeset="false"><tag k="addr:street" v="Far Gallant Drive"/><tag k="addr:housenumber" v="1804"/><tag k="coa:place_id" v="182023"/></node><node id="-217" lat="30.310339" lon="-97.800732" changeset="false"><tag k="addr:street" v="The High Road"/><tag k="addr:housenumber" v="1000"/><tag k="coa:place_id" v="3515950"/></node><node id="-218" lat="30.318951" lon="-97.794715" changeset="false"><tag k="addr:street" v="Fast Fox Trail"/><tag k="addr:housenumber" v="4910"/><tag k="coa:place_id" v="100507"/></node><node id="-219" lat="30.3184" lon="-97.809971" changeset="false"><tag k="addr:street" v="Far Gallant Drive"/><tag k="addr:housenumber" v="2100"/><tag k="coa:place_id" v="182040"/></node><node id="-220" lat="30.323109" lon="-97.797811" changeset="false"><tag k="addr:street" v="Buckman Mountain Road"/><tag k="addr:housenumber" v="5215"/><tag k="coa:place_id" v="3319955"/></node><node id="-221" lat="30.310257" lon="-97.804859" changeset="false"><tag k="addr:street" v="Twilight Ridge Drive"/><tag k="addr:housenumber" v="1600"/><tag k="coa:place_id" v="132523"/></node><node id="-222" lat="30.326634" lon="-97.809948" changeset="false"><tag k="addr:street" v="Waymaker Cove,1100"/><tag k="addr:housenumber" v="2811"/><tag k="coa:place_id" v="255000"/></node><node id="-223" lat="30.312759" lon="-97.802416" changeset="false"><tag k="addr:street" v="Paisano Road"/><tag k="addr:housenumber" v="1905"/><tag k="coa:place_id" v="3383684"/></node><node id="-224" lat="30.31388" lon="-97.807702" changeset="false"><tag k="addr:street" v="Scenic View Drive"/><tag k="addr:housenumber" v="5519"/><tag k="coa:place_id" v="5198959"/></node><node id="-225" lat="30.31778" lon="-97.800739" changeset="false"><tag k="addr:street" v="Ridgecrest Drive"/><tag k="addr:housenumber" v="1400"/><tag k="coa:place_id" v="161000"/></node><node id="-226" lat="30.319114" lon="-97.793409" changeset="false"><tag k="addr:street" v="Toro Canyon Road"/><tag k="addr:housenumber" v="2818"/><tag k="coa:place_id" v="100501"/></node><node id="-227" lat="30.320307" lon="-97.811964" changeset="false"><tag k="addr:street" v="Sir Ivor Cove"/><tag k="addr:housenumber" v="5902"/><tag k="coa:place_id" v="88896"/></node><node id="-228" lat="30.320131" lon="-97.806843" changeset="false"><tag k="addr:street" v="Never Bend Cove"/><tag k="addr:housenumber" v="2400"/><tag k="coa:place_id" v="181974"/></node><node id="-229" lat="30.321141" lon="-97.808818" changeset="false"><tag k="addr:street" v="Far Gallant Drive"/><tag k="addr:housenumber" v="2401"/><tag k="coa:place_id" v="182070"/></node><node id="-230" lat="30.332398" lon="-97.7913" changeset="false"><tag k="addr:street" v="Westlake Drive"/><tag k="addr:housenumber" v="4068"/><tag k="coa:place_id" v="465562"/></node><node id="-231" lat="30.332961" lon="-97.803201" changeset="false"><tag k="addr:street" v="Buckpasser Cove"/><tag k="addr:housenumber" v="5813"/><tag k="coa:place_id" v="763288"/></node><node id="-232" lat="30.317958" lon="-97.813106" changeset="false"><tag k="addr:street" v="Canonero Drive"/><tag k="addr:housenumber" v="1900"/><tag k="coa:place_id" v="59512"/></node><node id="-233" lat="30.317591" lon="-97.815824" changeset="false"><tag k="addr:street" v="Ayres Drive"/><tag k="addr:housenumber" v="6324"/><tag k="coa:place_id" v="59405"/></node><node id="-234" lat="30.321501" lon="-97.798177" changeset="false"><tag k="addr:street" v="Fossil Rim Road"/><tag k="addr:housenumber" v="5225"/><tag k="coa:place_id" v="126345"/></node><node id="-235" lat="30.318116" lon="-97.81203" changeset="false"><tag k="addr:street" v="Canonero Drive"/><tag k="addr:housenumber" v="1901"/><tag k="coa:place_id" v="738256"/></node><node id="-236" lat="30.322734" lon="-97.810673" changeset="false"><tag k="addr:street" v="Bold Ruler Way"/><tag k="addr:housenumber" v="5900"/><tag k="coa:place_id" v="203385"/></node><node id="-237" lat="30.321356" lon="-97.813746" changeset="false"><tag k="addr:street" v="Bold Ruler Way"/><tag k="addr:housenumber" v="6001"/><tag k="coa:place_id" v="711028"/></node><node id="-238" lat="30.316856" lon="-97.811728" changeset="false"><tag k="addr:street" v="Canonero Drive"/><tag k="addr:housenumber" v="1739"/><tag k="coa:place_id" v="166361"/></node><node id="-239" lat="30.323429" lon="-97.806554" changeset="false"><tag k="addr:street" v="Clarion Cove"/><tag k="addr:housenumber" v="5608"/><tag k="coa:place_id" v="181965"/></node><node id="-240" lat="30.331822" lon="-97.801901" changeset="false"><tag k="addr:street" v="Carry Back Lane"/><tag k="addr:housenumber" v="5708"/><tag k="coa:place_id" v="577120"/></node><node id="-241" lat="30.320388" lon="-97.813586" changeset="false"><tag k="addr:street" v="Canonero Drive"/><tag k="addr:housenumber" v="2100"/><tag k="coa:place_id" v="59516"/></node><node id="-242" lat="30.323222" lon="-97.810878" changeset="false"><tag k="addr:street" v="Canonero Drive"/><tag k="addr:housenumber" v="2501"/><tag k="coa:place_id" v="203387"/></node><node id="-243" lat="30.330253" lon="-97.802267" changeset="false"><tag k="addr:street" v="Day Star Cove"/><tag k="addr:housenumber" v="3409"/><tag k="coa:place_id" v="76670"/></node><node id="-244" lat="30.327806" lon="-97.807057" changeset="false"><tag k="addr:street" v="Riva Ridge Road"/><tag k="addr:housenumber" v="3105"/><tag k="coa:place_id" v="727888"/></node><node id="-245" lat="30.331525" lon="-97.801599" changeset="false"><tag k="addr:street" v="Carry Back Lane"/><tag k="addr:housenumber" v="5711"/><tag k="coa:place_id" v="86607"/></node><node id="-246" lat="30.316677" lon="-97.812714" changeset="false"><tag k="addr:street" v="Canonero Drive"/><tag k="addr:housenumber" v="1744"/><tag k="coa:place_id" v="157320"/></node><node id="-247" lat="30.316566" lon="-97.81153" changeset="false"><tag k="addr:street" v="Canonero Drive"/><tag k="addr:housenumber" v="1737"/><tag k="coa:place_id" v="166362"/></node><node id="-248" lat="30.321431" lon="-97.81247" changeset="false"><tag k="addr:street" v="Canonero Drive"/><tag k="addr:housenumber" v="2207"/><tag k="coa:place_id" v="59520"/></node><node id="-249" lat="30.321034" lon="-97.807689" changeset="false"><tag k="addr:street" v="Never Bend Cove"/><tag k="addr:housenumber" v="2412"/><tag k="coa:place_id" v="181968"/></node><node id="-250" lat="30.319195" lon="-97.81236" changeset="false"><tag k="addr:street" v="Canonero Drive"/><tag k="addr:housenumber" v="1913"/><tag k="coa:place_id" v="726538"/></node><node id="-251" lat="30.317431" lon="-97.812021" changeset="false"><tag k="addr:street" v="Canonero Drive"/><tag k="addr:housenumber" v="1805"/><tag k="coa:place_id" v="166356"/></node><node id="-252" lat="30.318504" lon="-97.818905" changeset="false"><tag k="addr:street" v="Northern Dancer Drive"/><tag k="addr:housenumber" v="6222"/><tag k="coa:place_id" v="59460"/></node><node id="-253" lat="30.324107" lon="-97.807453" changeset="false"><tag k="addr:street" v="Clarion Cove"/><tag k="addr:housenumber" v="5620"/><tag k="coa:place_id" v="181962"/></node><node id="-254" lat="30.334885" lon="-97.795931" changeset="false"><tag k="addr:street" v="Westlake Drive"/><tag k="addr:housenumber" v="4140"/><tag k="coa:place_id" v="1105572"/></node><node id="-255" lat="30.311996" lon="-97.798907" changeset="false"><tag k="addr:street" v="South Oak Canyon Road"/><tag k="addr:housenumber" v="2006"/><tag k="coa:place_id" v="107760"/></node><node id="-256" lat="30.311974" lon="-97.805288" changeset="false"><tag k="addr:street" v="Scenic View Drive"/><tag k="addr:housenumber" v="5307"/><tag k="coa:place_id" v="108185"/></node><node id="-257" lat="30.310295" lon="-97.797325" changeset="false"><tag k="addr:street" v="Toro Canyon Road"/><tag k="addr:housenumber" v="1904"/><tag k="coa:place_id" v="140904"/></node><node id="-258" lat="30.333269" lon="-97.798448" changeset="false"><tag k="addr:street" v="Westlake Drive"/><tag k="addr:housenumber" v="4186"/><tag k="coa:place_id" v="1148174"/></node><node id="-259" lat="30.320651" lon="-97.810444" changeset="false"><tag k="addr:street" v="Far Gallant Drive"/><tag k="addr:housenumber" v="2212"/><tag k="coa:place_id" v="1116707"/></node><node id="-260" lat="30.320676" lon="-97.807525" changeset="false"><tag k="addr:street" v="Never Bend Cove"/><tag k="addr:housenumber" v="2408"/><tag k="coa:place_id" v="181969"/></node><node id="-261" lat="30.319745" lon="-97.817408" changeset="false"><tag k="addr:street" v="Northern Dancer Drive"/><tag k="addr:housenumber" v="6212"/><tag k="coa:place_id" v="59465"/></node><node id="-262" lat="30.315248" lon="-97.805073" changeset="false"><tag k="addr:street" v="The High Road"/><tag k="addr:housenumber" v="1405"/><tag k="coa:place_id" v="160700"/></node><node id="-263" lat="30.328635" lon="-97.807669" changeset="false"><tag k="addr:street" v="Cavalcade Court"/><tag k="addr:housenumber" v="3102"/><tag k="coa:place_id" v="89204"/></node><node id="-264" lat="30.321121" lon="-97.811138" changeset="false"><tag k="addr:street" v="Bold Ruler Way"/><tag k="addr:housenumber" v="5923"/><tag k="coa:place_id" v="1147742"/></node><node id="-265" lat="30.317967" lon="-97.818325" changeset="false"><tag k="addr:street" v="Ayres Drive"/><tag k="addr:housenumber" v="6302"/><tag k="coa:place_id" v="59411"/></node><node id="-266" lat="30.32542" lon="-97.80807" changeset="false"><tag k="addr:street" v="Round Table Road"/><tag k="addr:housenumber" v="2807"/><tag k="coa:place_id" v="74698"/></node><node id="-267" lat="30.32477" lon="-97.799914" changeset="false"><tag k="addr:street" v="Buckman Mountain Road"/><tag k="addr:housenumber" v="5416"/><tag k="coa:place_id" v="166338"/></node><node id="-268" lat="30.333839" lon="-97.802931" changeset="false"><tag k="addr:street" v="Moon Lark Court"/><tag k="addr:housenumber" v="3702"/><tag k="coa:place_id" v="77710"/></node><node id="-269" lat="30.319138" lon="-97.815925" changeset="false"><tag k="addr:street" v="Northern Dancer Drive"/><tag k="addr:housenumber" v="6102"/><tag k="coa:place_id" v="59469"/></node><node id="-270" lat="30.317521" lon="-97.8089" changeset="false"><tag k="addr:street" v="Far Gallant Drive"/><tag k="addr:housenumber" v="2001"/><tag k="coa:place_id" v="182051"/></node><node id="-271" lat="30.317126" lon="-97.811906" changeset="false"><tag k="addr:street" v="Canonero Drive"/><tag k="addr:housenumber" v="1801"/><tag k="coa:place_id" v="166359"/></node><node id="-272" lat="30.310914" lon="-97.800908" changeset="false"><tag k="addr:street" v="The High Road"/><tag k="addr:housenumber" v="1060"/><tag k="coa:place_id" v="160592"/></node><node id="-273" lat="30.319484" lon="-97.807917" changeset="false"><tag k="addr:street" v="Far Gallant Drive"/><tag k="addr:housenumber" v="2305"/><tag k="coa:place_id" v="182069"/></node><node id="-274" lat="30.319172" lon="-97.808944" changeset="false"><tag k="addr:street" v="Far Gallant Drive"/><tag k="addr:housenumber" v="2109"/><tag k="coa:place_id" v="182058"/></node><node id="-275" lat="30.32014" lon="-97.809391" changeset="false"><tag k="addr:street" v="Far Gallant Drive"/><tag k="addr:housenumber" v="2205"/><tag k="coa:place_id" v="182063"/></node><node id="-276" lat="30.314327" lon="-97.805017" changeset="false"><tag k="addr:street" v="The High Road"/><tag k="addr:housenumber" v="1363"/><tag k="coa:place_id" v="3115212"/></node><node id="-277" lat="30.318915" lon="-97.815595" changeset="false"><tag k="addr:street" v="Northern Dancer Drive"/><tag k="addr:housenumber" v="6100"/><tag k="coa:place_id" v="59470"/></node><node id="-278" lat="30.320826" lon="-97.809697" changeset="false"><tag k="addr:street" v="Far Gallant Drive"/><tag k="addr:housenumber" v="2301"/><tag k="coa:place_id" v="182065"/></node><node id="-279" lat="30.319463" lon="-97.8102" changeset="false"><tag k="addr:street" v="Far Gallant Drive"/><tag k="addr:housenumber" v="2200"/><tag k="coa:place_id" v="182074"/></node><node id="-280" lat="30.318056" lon="-97.815135" changeset="false"><tag k="addr:street" v="Northern Dancer Drive"/><tag k="addr:housenumber" v="6007"/><tag k="coa:place_id" v="121853"/></node><node id="-281" lat="30.312773" lon="-97.805221" changeset="false"><tag k="addr:street" v="Scenic View Drive"/><tag k="addr:housenumber" v="5312"/><tag k="coa:place_id" v="108181"/></node><node id="-282" lat="30.334199" lon="-97.795431" changeset="false"><tag k="addr:street" v="Westlake Drive"/><tag k="addr:housenumber" v="4126"/><tag k="coa:place_id" v="133422"/></node><node id="-283" lat="30.333964" lon="-97.798004" changeset="false"><tag k="addr:street" v="Westlake Drive"/><tag k="addr:housenumber" v="4176"/><tag k="coa:place_id" v="1148171"/></node><node id="-284" lat="30.334017" lon="-97.804731" changeset="false"><tag k="addr:street" v="Carry Back Lane"/><tag k="addr:housenumber" v="6100"/><tag k="coa:place_id" v="229810"/></node><node id="-285" lat="30.322771" lon="-97.804971" changeset="false"><tag k="addr:street" v="Waymaker Cove,1100"/><tag k="addr:housenumber" v="2476"/><tag k="coa:place_id" v="181991"/></node><node id="-286" lat="30.328866" lon="-97.795395" changeset="false"><tag k="addr:street" v="Cassava Drive"/><tag k="addr:housenumber" v="3502"/><tag k="coa:place_id" v="54959"/></node><node id="-287" lat="30.331924" lon="-97.795101" changeset="false"><tag k="addr:street" v="Arbutus Cove"/><tag k="addr:housenumber" v="5309"/><tag k="coa:place_id" v="54962"/></node><node id="-288" lat="30.331871" lon="-97.792415" changeset="false"><tag k="addr:street" v="Cassava Drive"/><tag k="addr:housenumber" v="3801"/><tag k="coa:place_id" v="54953"/></node><node id="-289" lat="30.318839" lon="-97.812167" changeset="false"><tag k="addr:street" v="Canonero Drive"/><tag k="addr:housenumber" v="1909"/><tag k="coa:place_id" v="59525"/></node><node id="-290" lat="30.318276" lon="-97.794896" changeset="false"><tag k="addr:street" v="Fast Fox Trail"/><tag k="addr:housenumber" v="4907"/><tag k="coa:place_id" v="95963"/></node><node id="-291" lat="30.309529" lon="-97.805293" changeset="false"><tag k="addr:street" v="Twilight Ridge Drive"/><tag k="addr:housenumber" v="1504"/><tag k="coa:place_id" v="636976"/></node><node id="-292" lat="30.309092" lon="-97.798633" changeset="false"><tag k="addr:street" v="The High Road"/><tag k="addr:housenumber" v="809"/><tag k="coa:place_id" v="739318"/></node><node id="-293" lat="30.306393" lon="-97.797344" changeset="false"><tag k="addr:street" v="Shadybrook Cove"/><tag k="addr:housenumber" v="2"/><tag k="coa:place_id" v="160556"/></node><node id="-294" lat="30.320242" lon="-97.805945" changeset="false"><tag k="addr:street" v="The High Road"/><tag k="addr:housenumber" v="1628"/><tag k="coa:place_id" v="229426"/></node><node id="-295" lat="30.31517" lon="-97.810327" changeset="false"><tag k="addr:street" v="Far Gallant Drive"/><tag k="addr:housenumber" v="1808"/><tag k="coa:place_id" v="182027"/></node><node id="-296" lat="30.319057" lon="-97.814295" changeset="false"><tag k="addr:street" v="Northern Dancer Drive"/><tag k="addr:housenumber" v="5908"/><tag k="coa:place_id" v="59510"/></node><node id="-297" lat="30.332322" lon="-97.792818" changeset="false"><tag k="addr:street" v="Cassava Drive"/><tag k="addr:housenumber" v="3800"/><tag k="coa:place_id" v="125264"/></node><node id="-298" lat="30.317021" lon="-97.814795" changeset="false"><tag k="addr:street" v="Real Wind Cove"/><tag k="addr:housenumber" v="1701"/><tag k="coa:place_id" v="59456"/></node><node id="-299" lat="30.326357" lon="-97.808305" changeset="false"><tag k="addr:street" v="Mill Reef Cove"/><tag k="addr:housenumber" v="2901"/><tag k="coa:place_id" v="633058"/></node><node id="-300" lat="30.325857" lon="-97.807253" changeset="false"><tag k="addr:street" v="Round Table Road"/><tag k="addr:housenumber" v="2905"/><tag k="coa:place_id" v="74701"/></node><node id="-301" lat="30.319445" lon="-97.816115" changeset="false"><tag k="addr:street" v="Northern Dancer Drive"/><tag k="addr:housenumber" v="6200"/><tag k="coa:place_id" v="59468"/></node><node id="-302" lat="30.317542" lon="-97.805645" changeset="false"><tag k="addr:street" v="The High Road"/><tag k="addr:housenumber" v="1605"/><tag k="coa:place_id" v="730576"/></node><node id="-303" lat="30.318156" lon="-97.808921" changeset="false"><tag k="addr:street" v="Far Gallant Drive"/><tag k="addr:housenumber" v="2009"/><tag k="coa:place_id" v="182053"/></node><node id="-304" lat="30.333603" lon="-97.793505" changeset="false"><tag k="addr:street" v="Westlake Drive"/><tag k="addr:housenumber" v="4100"/><tag k="coa:place_id" v="125263"/></node><node id="-305" lat="30.311181" lon="-97.800994" changeset="false"><tag k="addr:street" v="The High Road"/><tag k="addr:housenumber" v="1068"/><tag k="coa:place_id" v="3066842"/></node><node id="-306" lat="30.318664" lon="-97.813186" changeset="false"><tag k="addr:street" v="Canonero Drive"/><tag k="addr:housenumber" v="1908"/><tag k="coa:place_id" v="116976"/></node><node id="-307" lat="30.325413" lon="-97.808707" changeset="false"><tag k="addr:street" v="Round Table Road"/><tag k="addr:housenumber" v="2803"/><tag k="coa:place_id" v="74696"/></node><node id="-308" lat="30.331632" lon="-97.790792" changeset="false"><tag k="addr:street" v="Toro Canyon Road"/><tag k="addr:housenumber" v="3904"/><tag k="coa:place_id" v="240415"/></node><node id="-309" lat="30.318819" lon="-97.81005" changeset="false"><tag k="addr:street" v="Far Gallant Drive"/><tag k="addr:housenumber" v="2106"/><tag k="coa:place_id" v="182041"/></node><node id="-310" lat="30.330227" lon="-97.794547" changeset="false"><tag k="addr:street" v="Cassava Drive"/><tag k="addr:housenumber" v="3600"/><tag k="coa:place_id" v="120115"/></node><node id="-311" lat="30.317716" lon="-97.817173" changeset="false"><tag k="addr:street" v="Ayres Drive"/><tag k="addr:housenumber" v="6312"/><tag k="coa:place_id" v="59418"/></node><node id="-312" lat="30.317665" lon="-97.81527" changeset="false"><tag k="addr:street" v="Real Wind Cove"/><tag k="addr:housenumber" v="1704"/><tag k="coa:place_id" v="59453"/></node><node id="-313" lat="30.320063" lon="-97.813565" changeset="false"><tag k="addr:street" v="Canonero Drive"/><tag k="addr:housenumber" v="2008"/><tag k="coa:place_id" v="742930"/></node><node id="-314" lat="30.326964" lon="-97.807437" changeset="false"><tag k="addr:street" v="Round Table Road"/><tag k="addr:housenumber" v="2915"/><tag k="coa:place_id" v="74703"/></node><node id="-315" lat="30.326895" lon="-97.807278" changeset="false"><tag k="addr:street" v="Round Table Road"/><tag k="addr:housenumber" v="2913"/><tag k="coa:place_id" v="123377"/></node><node id="-316" lat="30.330513" lon="-97.801502" changeset="false"><tag k="addr:street" v="Fawn Trail"/><tag k="addr:housenumber" v="3407"/><tag k="coa:place_id" v="314956"/></node><node id="-317" lat="30.312138" lon="-97.804673" changeset="false"><tag k="addr:street" v="Scenic View Drive"/><tag k="addr:housenumber" v="5306"/><tag k="coa:place_id" v="3386049"/></node><node id="-318" lat="30.323133" lon="-97.806343" changeset="false"><tag k="addr:street" v="Clarion Cove"/><tag k="addr:housenumber" v="5604"/><tag k="coa:place_id" v="181967"/></node><node id="-319" lat="30.319901" lon="-97.816952" changeset="false"><tag k="addr:street" v="Northern Dancer Drive"/><tag k="addr:housenumber" v="6208"/><tag k="coa:place_id" v="59466"/></node><node id="-320" lat="30.319529" lon="-97.817726" changeset="false"><tag k="addr:street" v="Northern Dancer Drive"/><tag k="addr:housenumber" v="6214"/><tag k="coa:place_id" v="59464"/></node><node id="-321" lat="30.314375" lon="-97.794439" changeset="false"><tag k="addr:street" v="Toro Canyon Road"/><tag k="addr:housenumber" v="2312"/><tag k="coa:place_id" v="1147510"/></node><node id="-322" lat="30.329531" lon="-97.802305" changeset="false"><tag k="addr:street" v="Day Star Cove"/><tag k="addr:housenumber" v="3401"/><tag k="coa:place_id" v="76667"/></node><node id="-323" lat="30.329801" lon="-97.802334" changeset="false"><tag k="addr:street" v="Day Star Cove"/><tag k="addr:housenumber" v="3403"/><tag k="coa:place_id" v="1147730"/></node><node id="-324" lat="30.32976" lon="-97.802344" changeset="false"><tag k="addr:street" v="Day Star Cove"/><tag k="addr:housenumber" v="3405"/><tag k="coa:place_id" v="76668"/></node><node id="-325" lat="30.315968" lon="-97.798644" changeset="false"><tag k="addr:street" v="Ridgecrest Drive"/><tag k="addr:housenumber" v="1100"/><tag k="coa:place_id" v="1147508"/></node><node id="-326" lat="30.315908" lon="-97.798659" changeset="false"><tag k="addr:street" v="Ridgecrest Drive"/><tag k="addr:housenumber" v="1101"/><tag k="coa:place_id" v="161048"/></node><node id="-327" lat="30.311081" lon="-97.803976" changeset="false"><tag k="addr:street" v="Scenic View Drive"/><tag k="addr:housenumber" v="5206"/><tag k="coa:place_id" v="1004810"/></node><node id="-328" lat="30.311197" lon="-97.803689" changeset="false"><tag k="addr:street" v="Scenic View Drive"/><tag k="addr:housenumber" v="5204"/><tag k="coa:place_id" v="108167"/></node></osm>