<?xml version="1.0" encoding="UTF-8"?><osm version="0.6" generator="github.com/aaronlidman/osm-and-geojson"><node id="-1" lat="30.147124" lon="-97.764297" changeset="false"><tag k="addr:street" v="Cheryl Lynn Road"/><tag k="addr:housenumber" v="9801"/></node><node id="-2" lat="30.145515" lon="-97.765399" changeset="false"><tag k="addr:street" v="Cheryl Lynn Road"/><tag k="addr:housenumber" v="9907"/></node><node id="-3" lat="30.142877" lon="-97.750021" changeset="false"><tag k="addr:street" v="Capitol View Drive"/><tag k="addr:housenumber" v="9600"/></node><node id="-4" lat="30.133133" lon="-97.735829" changeset="false"><tag k="addr:street" v="Thaxton Road"/><tag k="addr:housenumber" v="9810"/></node><node id="-5" lat="30.165206" lon="-97.741476" changeset="false"><tag k="addr:street" v="Marble Ridge Drive"/><tag k="addr:housenumber" v="7301"/></node><node id="-6" lat="30.154024" lon="-97.744909" changeset="false"><tag k="addr:street" v="Panadero Drive"/><tag k="addr:housenumber" v="8500"/></node><node id="-7" lat="30.153876" lon="-97.737298" changeset="false"><tag k="addr:street" v="Felipe Drive"/><tag k="addr:housenumber" v="6912"/></node><node id="-8" lat="30.154262" lon="-97.744775" changeset="false"><tag k="addr:street" v="Panadero Drive"/><tag k="addr:housenumber" v="8416"/></node><node id="-9" lat="30.152447" lon="-97.741565" changeset="false"><tag k="addr:street" v="Wiley Way"/><tag k="addr:housenumber" v="8601"/></node><node id="-10" lat="30.122506" lon="-97.74449" changeset="false"><tag k="addr:street" v="Thaxton Road"/><tag k="addr:housenumber" v="10616"/></node><node id="-11" lat="30.133445" lon="-97.735369" changeset="false"><tag k="addr:street" v="Thaxton Road"/><tag k="addr:housenumber" v="9806"/></node><node id="-12" lat="30.161343" lon="-97.737811" changeset="false"><tag k="addr:street" v="Springtime Trail"/><tag k="addr:housenumber" v="7541"/></node><node id="-13" lat="30.149423" lon="-97.763344" changeset="false"><tag k="addr:street" v="Cheryl Lynn Road"/><tag k="addr:housenumber" v="9508"/></node><node id="-14" lat="30.157014" lon="-97.738638" changeset="false"><tag k="addr:street" v="Forbsdale Drive"/><tag k="addr:housenumber" v="8007"/></node><node id="-15" lat="30.159567" lon="-97.74039" changeset="false"><tag k="addr:street" v="Eudora Lane"/><tag k="addr:housenumber" v="7900"/></node><node id="-16" lat="30.159492" lon="-97.740963" changeset="false"><tag k="addr:street" v="Running Water Drive"/><tag k="addr:housenumber" v="7905"/></node><node id="-17" lat="30.159461" lon="-97.744961" changeset="false"><tag k="addr:street" v="Ken Caryl Drive"/><tag k="addr:housenumber" v="6201"/></node><node id="-18" lat="30.1612" lon="-97.738409" changeset="false"><tag k="addr:street" v="Tara Drive"/><tag k="addr:housenumber" v="6633"/></node><node id="-19" lat="30.160016" lon="-97.737629" changeset="false"><tag k="addr:street" v="Piedras Blanco Drive"/><tag k="addr:housenumber" v="6721"/></node><node id="-20" lat="30.150231" lon="-97.74617" changeset="false"><tag k="addr:street" v="Capitol View Drive"/><tag k="addr:housenumber" v="8804"/></node><node id="-21" lat="30.1623" lon="-97.739285" changeset="false"><tag k="addr:street" v="Running Water Drive"/><tag k="addr:housenumber" v="7541"/></node><node id="-22" lat="30.158508" lon="-97.740656" changeset="false"><tag k="addr:street" v="Eudora Lane"/><tag k="addr:housenumber" v="7915"/></node><node id="-23" lat="30.155016" lon="-97.738582" changeset="false"><tag k="addr:street" v="Flaxen Drive"/><tag k="addr:housenumber" v="8205"/></node><node id="-24" lat="30.152845" lon="-97.744655" changeset="false"><tag k="addr:street" v="Capitol View Drive"/><tag k="addr:housenumber" v="8504"/></node><node id="-25" lat="30.143369" lon="-97.748517" changeset="false"><tag k="addr:street" v="Capitol View Drive"/><tag k="addr:housenumber" v="9505"/></node><node id="-26" lat="30.156088" lon="-97.744105" changeset="false"><tag k="addr:street" v="Alum Rock Drive"/><tag k="addr:housenumber" v="8708"/></node><node id="-27" lat="30.150798" lon="-97.738995" changeset="false"><tag k="addr:street" v="Claude Court"/><tag k="addr:housenumber" v="8612"/></node><node id="-28" lat="30.150734" lon="-97.738533" changeset="false"><tag k="addr:street" v="Claude Court"/><tag k="addr:housenumber" v="8609"/></node><node id="-29" lat="30.159591" lon="-97.744901" changeset="false"><tag k="addr:street" v="Ken Caryl Drive"/><tag k="addr:housenumber" v="6200"/></node><node id="-30" lat="30.161008" lon="-97.740709" changeset="false"><tag k="addr:street" v="Marble Creek Loop"/><tag k="addr:housenumber" v="6536"/></node><node id="-31" lat="30.135501" lon="-97.753739" changeset="false"><tag k="addr:street" v="Capitol View Drive"/><tag k="addr:housenumber" v="10201"/></node><node id="-32" lat="30.161822" lon="-97.738576" changeset="false"><tag k="addr:street" v="Marl Court"/><tag k="addr:housenumber" v="7621"/></node><node id="-33" lat="30.161956" lon="-97.738481" changeset="false"><tag k="addr:street" v="Marl Court"/><tag k="addr:housenumber" v="7617"/></node><node id="-34" lat="30.161991" lon="-97.737407" changeset="false"><tag k="addr:street" v="Springtime Trail"/><tag k="addr:housenumber" v="7521"/></node><node id="-35" lat="30.134771" lon="-97.75424" changeset="false"><tag k="addr:street" v="Capitol View Drive"/><tag k="addr:housenumber" v="10207"/></node><node id="-36" lat="30.134217" lon="-97.755259" changeset="false"><tag k="addr:street" v="Capitol View Drive"/><tag k="addr:housenumber" v="10302"/></node><node id="-37" lat="30.163046" lon="-97.739098" changeset="false"><tag k="addr:street" v="Running Water Drive"/><tag k="addr:housenumber" v="7521"/></node><node id="-38" lat="30.161785" lon="-97.736501" changeset="false"><tag k="addr:street" v="Marble Ridge Drive"/><tag k="addr:housenumber" v="7625"/></node><node id="-39" lat="30.156225" lon="-97.744419" changeset="false"><tag k="addr:street" v="Alum Rock Drive"/><tag k="addr:housenumber" v="8716"/></node><node id="-40" lat="30.163836" lon="-97.741144" changeset="false"><tag k="addr:street" v="Redrick Drive"/><tag k="addr:housenumber" v="7516"/></node><node id="-41" lat="30.158118" lon="-97.741802" changeset="false"><tag k="addr:street" v="Running Water Drive"/><tag k="addr:housenumber" v="8011"/></node><node id="-42" lat="30.156141" lon="-97.737887" changeset="false"><tag k="addr:street" v="Flaxen Drive"/><tag k="addr:housenumber" v="8011"/></node><node id="-43" lat="30.150182" lon="-97.743424" changeset="false"><tag k="addr:street" v="Wiley Way"/><tag k="addr:housenumber" v="8908"/></node><node id="-44" lat="30.149418" lon="-97.762783" changeset="false"><tag k="addr:street" v="Cheryl Lynn Road"/><tag k="addr:housenumber" v="9507"/></node><node id="-45" lat="30.162584" lon="-97.738501" changeset="false"><tag k="addr:street" v="Marl Court"/><tag k="addr:housenumber" v="7600"/></node><node id="-46" lat="30.146633" lon="-97.765237" changeset="false"><tag k="addr:street" v="Cheryl Lynn Road"/><tag k="addr:housenumber" v="9806"/></node><node id="-47" lat="30.162252" lon="-97.738279" changeset="false"><tag k="addr:street" v="Marl Court"/><tag k="addr:housenumber" v="7609"/></node><node id="-48" lat="30.134644" lon="-97.736593" changeset="false"><tag k="addr:street" v="Thaxton Road"/><tag k="addr:housenumber" v="9800"/></node><node id="-49" lat="30.120054" lon="-97.744295" changeset="false"><tag k="addr:street" v="Thaxton Road"/><tag k="addr:housenumber" v="10800"/></node><node id="-50" lat="30.153135" lon="-97.73995" changeset="false"><tag k="addr:street" v="Sabrina Drive"/><tag k="addr:housenumber" v="6817"/></node><node id="-51" lat="30.137667" lon="-97.732475" changeset="false"><tag k="addr:street" v="Thaxton Road"/><tag k="addr:housenumber" v="9400"/></node><node id="-52" lat="30.136954" lon="-97.752843" changeset="false"><tag k="addr:street" v="Capitol View Drive"/><tag k="addr:housenumber" v="10007"/></node><node id="-53" lat="30.154027" lon="-97.738798" changeset="false"><tag k="addr:street" v="Alum Rock Drive"/><tag k="addr:housenumber" v="8408"/></node><node id="-54" lat="30.149363" lon="-97.743095" changeset="false"><tag k="addr:street" v="Norwich Castle Drive"/><tag k="addr:housenumber" v="8924"/></node><node id="-55" lat="30.148929" lon="-97.739608" changeset="false"><tag k="addr:street" v="Stambourne Street"/><tag k="addr:housenumber" v="8812"/></node><node id="-56" lat="30.151209" lon="-97.745559" changeset="false"><tag k="addr:street" v="Capitol View Drive"/><tag k="addr:housenumber" v="8708"/></node><node id="-57" lat="30.14999" lon="-97.746332" changeset="false"><tag k="addr:street" v="Capitol View Drive"/><tag k="addr:housenumber" v="8812"/></node><node id="-58" lat="30.149189" lon="-97.746274" changeset="false"><tag k="addr:street" v="Capitol View Drive"/><tag k="addr:housenumber" v="8833"/></node><node id="-59" lat="30.14759" lon="-97.741541" changeset="false"><tag k="addr:street" v="Winter Haven Road"/><tag k="addr:housenumber" v="9100"/></node><node id="-60" lat="30.14759" lon="-97.741123" changeset="false"><tag k="addr:street" v="Winter Haven Road"/><tag k="addr:housenumber" v="9025"/></node><node id="-61" lat="30.148" lon="-97.740618" changeset="false"><tag k="addr:street" v="Edmundsbury Drive"/><tag k="addr:housenumber" v="8912"/></node><node id="-62" lat="30.147543" lon="-97.740703" changeset="false"><tag k="addr:street" v="Edmundsbury Drive"/><tag k="addr:housenumber" v="9000"/></node><node id="-63" lat="30.153712" lon="-97.744418" changeset="false"><tag k="addr:street" v="Quinton Drive"/><tag k="addr:housenumber" v="6405"/></node><node id="-64" lat="30.157933" lon="-97.751893" changeset="false"><tag k="addr:street" v="Nuckols Crossing Road"/><tag k="addr:housenumber" v="8509"/></node><node id="-65" lat="30.148052" lon="-97.740203" changeset="false"><tag k="addr:street" v="Edmundsbury Drive"/><tag k="addr:housenumber" v="8909"/></node><node id="-66" lat="30.146636" lon="-97.740124" changeset="false"><tag k="addr:street" v="Edmundsbury Drive"/><tag k="addr:housenumber" v="9124"/></node><node id="-67" lat="30.147875" lon="-97.73982" changeset="false"><tag k="addr:street" v="Stambourne Street"/><tag k="addr:housenumber" v="8912"/></node><node id="-68" lat="30.159028" lon="-97.740305" changeset="false"><tag k="addr:street" v="Eudora Lane"/><tag k="addr:housenumber" v="7907"/></node><node id="-69" lat="30.13825" lon="-97.73207" changeset="false"><tag k="addr:street" v="Thaxton Road"/><tag k="addr:housenumber" v="9312"/></node><node id="-70" lat="30.146173" lon="-97.765597" changeset="false"><tag k="addr:street" v="Cheryl Lynn Road"/><tag k="addr:housenumber" v="9902"/></node><node id="-71" lat="30.16143" lon="-97.738861" changeset="false"><tag k="addr:street" v="Tara Drive"/><tag k="addr:housenumber" v="6621"/></node><node id="-72" lat="30.154965" lon="-97.737146" changeset="false"><tag k="addr:street" v="Broad Brook Drive"/><tag k="addr:housenumber" v="6904"/></node><node id="-73" lat="30.146482" lon="-97.732104" changeset="false"><tag k="addr:street" v="Thaxton Road"/><tag k="addr:housenumber" v="8604"/></node><node id="-74" lat="30.152945" lon="-97.744947" changeset="false"><tag k="addr:street" v="Panadero Drive"/><tag k="addr:housenumber" v="8529"/></node><node id="-75" lat="30.155289" lon="-97.744699" changeset="false"><tag k="addr:street" v="Panadero Cove"/><tag k="addr:housenumber" v="6408"/></node><node id="-76" lat="30.155626" lon="-97.743398" changeset="false"><tag k="addr:street" v="Panadero Drive"/><tag k="addr:housenumber" v="8301"/></node><node id="-77" lat="30.152429" lon="-97.739992" changeset="false"><tag k="addr:street" v="Doyal Drive"/><tag k="addr:housenumber" v="6809"/></node><node id="-78" lat="30.160863" lon="-97.736801" changeset="false"><tag k="addr:street" v="Marble Ridge Drive"/><tag k="addr:housenumber" v="7649"/></node><node id="-79" lat="30.164171" lon="-97.740539" changeset="false"><tag k="addr:street" v="Redrick Drive"/><tag k="addr:housenumber" v="7501"/></node><node id="-80" lat="30.150287" lon="-97.743369" changeset="false"><tag k="addr:street" v="Wiley Way"/><tag k="addr:housenumber" v="8904"/></node><node id="-81" lat="30.149797" lon="-97.738725" changeset="false"><tag k="addr:street" v="Walkup Lane"/><tag k="addr:housenumber" v="7025"/></node><node id="-82" lat="30.162979" lon="-97.737146" changeset="false"><tag k="addr:street" v="Marble Ridge Drive"/><tag k="addr:housenumber" v="7541"/></node><node id="-83" lat="30.151776" lon="-97.74073" changeset="false"><tag k="addr:street" v="Quinton Cove"/><tag k="addr:housenumber" v="8608"/></node><node id="-84" lat="30.136399" lon="-97.753064" changeset="false"><tag k="addr:street" v="Capitol View Drive"/><tag k="addr:housenumber" v="10103"/></node><node id="-85" lat="30.134947" lon="-97.754519" changeset="false"><tag k="addr:street" v="Capitol View Drive"/><tag k="addr:housenumber" v="10206"/></node><node id="-86" lat="30.1546" lon="-97.74404" changeset="false"><tag k="addr:street" v="Panadero Drive"/><tag k="addr:housenumber" v="8401"/></node><node id="-87" lat="30.154386" lon="-97.744694" changeset="false"><tag k="addr:street" v="Panadero Drive"/><tag k="addr:housenumber" v="8412"/></node><node id="-88" lat="30.14564" lon="-97.765843" changeset="false"><tag k="addr:street" v="Cheryl Lynn Road"/><tag k="addr:housenumber" v="9906"/></node><node id="-89" lat="30.142025" lon="-97.729746" changeset="false"><tag k="addr:street" v="Thaxton Road"/><tag k="addr:housenumber" v="9004"/></node><node id="-90" lat="30.138407" lon="-97.731971" changeset="false"><tag k="addr:street" v="Thaxton Road"/><tag k="addr:housenumber" v="9308"/></node><node id="-91" lat="30.134103" lon="-97.73481" changeset="false"><tag k="addr:street" v="Thaxton Road"/><tag k="addr:housenumber" v="9712"/></node><node id="-92" lat="30.138777" lon="-97.751588" changeset="false"><tag k="addr:street" v="Capitol View Drive"/><tag k="addr:housenumber" v="9907"/></node><node id="-93" lat="30.146126" lon="-97.730853" changeset="false"><tag k="addr:street" v="Thaxton Road"/><tag k="addr:housenumber" v="8608"/></node><node id="-94" lat="30.126437" lon="-97.739598" changeset="false"><tag k="addr:street" v="Thaxton Road"/><tag k="addr:housenumber" v="10310"/></node><node id="-95" lat="30.149293" lon="-97.738608" changeset="false"><tag k="addr:street" v="Derby Downs Drive"/><tag k="addr:housenumber" v="7108"/></node><node id="-96" lat="30.162121" lon="-97.736454" changeset="false"><tag k="addr:street" v="Marble Ridge Drive"/><tag k="addr:housenumber" v="7617"/></node><node id="-97" lat="30.162726" lon="-97.741713" changeset="false"><tag k="addr:street" v="Tara Drive"/><tag k="addr:housenumber" v="6425"/></node><node id="-98" lat="30.150403" lon="-97.743297" changeset="false"><tag k="addr:street" v="Wiley Way"/><tag k="addr:housenumber" v="8900"/></node><node id="-99" lat="30.144169" lon="-97.748989" changeset="false"><tag k="addr:street" v="Capitol View Drive"/><tag k="addr:housenumber" v="9500"/></node><node id="-100" lat="30.119431" lon="-97.744073" changeset="false"><tag k="addr:street" v="Thaxton Road"/><tag k="addr:housenumber" v="10810"/></node><node id="-101" lat="30.160442" lon="-97.7404" changeset="false"><tag k="addr:street" v="Marble Creek Loop"/><tag k="addr:housenumber" v="6601"/></node><node id="-102" lat="30.156055" lon="-97.743959" changeset="false"><tag k="addr:street" v="Alum Rock Drive"/><tag k="addr:housenumber" v="8704"/></node><node id="-103" lat="30.15585" lon="-97.744795" changeset="false"><tag k="addr:street" v="Alum Rock Drive"/><tag k="addr:housenumber" v="8721"/></node><node id="-104" lat="30.149193" lon="-97.737396" changeset="false"><tag k="addr:street" v="Walkup Lane"/><tag k="addr:housenumber" v="7133"/></node><node id="-105" lat="30.16271" lon="-97.736852" changeset="false"><tag k="addr:street" v="Marble Ridge Drive"/><tag k="addr:housenumber" v="7601"/></node><node id="-106" lat="30.149978" lon="-97.743543" changeset="false"><tag k="addr:street" v="Wiley Way"/><tag k="addr:housenumber" v="8916"/></node><node id="-107" lat="30.149076" lon="-97.743275" changeset="false"><tag k="addr:street" v="Norwich Castle Drive"/><tag k="addr:housenumber" v="9000"/></node><node id="-108" lat="30.13463" lon="-97.734419" changeset="false"><tag k="addr:street" v="Thaxton Road"/><tag k="addr:housenumber" v="9620"/></node><node id="-109" lat="30.149869" lon="-97.746426" changeset="false"><tag k="addr:street" v="Capitol View Drive"/><tag k="addr:housenumber" v="8816"/></node><node id="-110" lat="30.149598" lon="-97.746124" changeset="false"><tag k="addr:street" v="Capitol View Drive"/><tag k="addr:housenumber" v="8821"/></node><node id="-111" lat="30.149036" lon="-97.746314" changeset="false"><tag k="addr:street" v="Capitol View Drive"/><tag k="addr:housenumber" v="8901"/></node><node id="-112" lat="30.149004" lon="-97.74413" changeset="false"><tag k="addr:street" v="Wiley Way"/><tag k="addr:housenumber" v="9012"/></node><node id="-113" lat="30.148842" lon="-97.743747" changeset="false"><tag k="addr:street" v="Wiley Way"/><tag k="addr:housenumber" v="9013"/></node><node id="-114" lat="30.148662" lon="-97.743054" changeset="false"><tag k="addr:street" v="Norwich Castle Drive"/><tag k="addr:housenumber" v="9009"/></node><node id="-115" lat="30.147304" lon="-97.74121" changeset="false"><tag k="addr:street" v="Winter Haven Road"/><tag k="addr:housenumber" v="9105"/></node><node id="-116" lat="30.147653" lon="-97.740694" changeset="false"><tag k="addr:street" v="Edmundsbury Drive"/><tag k="addr:housenumber" v="8924"/></node><node id="-117" lat="30.15142" lon="-97.745001" changeset="false"><tag k="addr:street" v="Capitol View Drive"/><tag k="addr:housenumber" v="8621"/></node><node id="-118" lat="30.15079" lon="-97.745397" changeset="false"><tag k="addr:street" v="Capitol View Drive"/><tag k="addr:housenumber" v="8717"/></node><node id="-119" lat="30.160402" lon="-97.744613" changeset="false"><tag k="addr:street" v="Salt Springs Drive"/><tag k="addr:housenumber" v="8001 1/2"/></node><node id="-120" lat="30.156506" lon="-97.73945" changeset="false"><tag k="addr:street" v="Thaxton Road"/><tag k="addr:housenumber" v="8054"/></node><node id="-121" lat="30.147362" lon="-97.739923" changeset="false"><tag k="addr:street" v="Stambourne Street"/><tag k="addr:housenumber" v="9008"/></node><node id="-122" lat="30.147398" lon="-97.739475" changeset="false"><tag k="addr:street" v="Stambourne Street"/><tag k="addr:housenumber" v="9005"/></node><node id="-123" lat="30.147043" lon="-97.739534" changeset="false"><tag k="addr:street" v="Stambourne Street"/><tag k="addr:housenumber" v="9017"/></node><node id="-124" lat="30.147461" lon="-97.739908" changeset="false"><tag k="addr:street" v="Stambourne Street"/><tag k="addr:housenumber" v="9004"/></node><node id="-125" lat="30.153564" lon="-97.744082" changeset="false"><tag k="addr:street" v="Quinton Drive"/><tag k="addr:housenumber" v="6413"/></node><node id="-126" lat="30.161686" lon="-97.739485" changeset="false"><tag k="addr:street" v="Tara Drive"/><tag k="addr:housenumber" v="6605"/></node><node id="-127" lat="30.157966" lon="-97.742516" changeset="false"><tag k="addr:street" v="Ken Caryl Drive"/><tag k="addr:housenumber" v="6403"/></node><node id="-128" lat="30.156088" lon="-97.740621" changeset="false"><tag k="addr:street" v="Broad Brook Drive"/><tag k="addr:housenumber" v="6732"/></node><node id="-129" lat="30.155349" lon="-97.744112" changeset="false"><tag k="addr:street" v="Panadero Drive"/><tag k="addr:housenumber" v="8312"/></node><node id="-130" lat="30.153071" lon="-97.744876" changeset="false"><tag k="addr:street" v="Panadero Drive"/><tag k="addr:housenumber" v="8525"/></node><node id="-131" lat="30.124227" lon="-97.743498" changeset="false"><tag k="addr:street" v="Thaxton Road"/><tag k="addr:housenumber" v="10516"/></node><node id="-132" lat="30.158753" lon="-97.740426" changeset="false"><tag k="addr:street" v="Eudora Lane"/><tag k="addr:housenumber" v="7911"/></node><node id="-133" lat="30.158394" lon="-97.740801" changeset="false"><tag k="addr:street" v="Eudora Lane"/><tag k="addr:housenumber" v="7917"/></node><node id="-134" lat="30.153638" lon="-97.737917" changeset="false"><tag k="addr:street" v="Alum Rock Drive"/><tag k="addr:housenumber" v="8312"/></node><node id="-135" lat="30.151458" lon="-97.740412" changeset="false"><tag k="addr:street" v="Quinton Cove"/><tag k="addr:housenumber" v="8613"/></node><node id="-136" lat="30.149897" lon="-97.763095" changeset="false"><tag k="addr:street" v="Cheryl Lynn Road"/><tag k="addr:housenumber" v="9504"/></node><node id="-137" lat="30.149257" lon="-97.743977" changeset="false"><tag k="addr:street" v="Wiley Way"/><tag k="addr:housenumber" v="9004"/></node><node id="-138" lat="30.149097" lon="-97.743597" changeset="false"><tag k="addr:street" v="Wiley Way"/><tag k="addr:housenumber" v="9005"/></node><node id="-139" lat="30.137787" lon="-97.751599" changeset="false"><tag k="addr:street" v="Capitol View Drive"/><tag k="addr:housenumber" v="10001"/></node><node id="-140" lat="30.152863" lon="-97.745116" changeset="false"><tag k="addr:street" v="Panadero Drive"/><tag k="addr:housenumber" v="8533"/></node><node id="-141" lat="30.157166" lon="-97.738558" changeset="false"><tag k="addr:street" v="Forbsdale Drive"/><tag k="addr:housenumber" v="8005"/></node><node id="-142" lat="30.158796" lon="-97.74084" changeset="false"><tag k="addr:street" v="Eudora Lane"/><tag k="addr:housenumber" v="7912"/></node><node id="-143" lat="30.13445" lon="-97.754418" changeset="false"><tag k="addr:street" v="Capitol View Drive"/><tag k="addr:housenumber" v="10209"/></node><node id="-144" lat="30.15658" lon="-97.737466" changeset="false"><tag k="addr:street" v="Briarton Drive"/><tag k="addr:housenumber" v="8008"/></node><node id="-145" lat="30.141546" lon="-97.750794" changeset="false"><tag k="addr:street" v="Capitol View Drive"/><tag k="addr:housenumber" v="9702"/></node><node id="-146" lat="30.146221" lon="-97.764911" changeset="false"><tag k="addr:street" v="Cheryl Lynn Road"/><tag k="addr:housenumber" v="9901"/></node><node id="-147" lat="30.152423" lon="-97.74434" changeset="false"><tag k="addr:street" v="Capitol View Drive"/><tag k="addr:housenumber" v="8513"/></node><node id="-148" lat="30.161172" lon="-97.736798" changeset="false"><tag k="addr:street" v="Marble Ridge Drive"/><tag k="addr:housenumber" v="7641"/></node><node id="-149" lat="30.16189" lon="-97.73797" changeset="false"><tag k="addr:street" v="Springtime Trail"/><tag k="addr:housenumber" v="7528"/></node><node id="-150" lat="30.118569" lon="-97.745798" changeset="false"><tag k="addr:street" v="Thaxton Road"/><tag k="addr:housenumber" v="10906"/></node><node id="-151" lat="30.155264" lon="-97.741082" changeset="false"><tag k="addr:street" v="Broad Brook Drive"/><tag k="addr:housenumber" v="6704"/></node><node id="-152" lat="30.162509" lon="-97.739625" changeset="false"><tag k="addr:street" v="Running Water Drive"/><tag k="addr:housenumber" v="7536"/></node><node id="-153" lat="30.162428" lon="-97.736581" changeset="false"><tag k="addr:street" v="Marble Ridge Drive"/><tag k="addr:housenumber" v="7609"/></node><node id="-154" lat="30.156622" lon="-97.737889" changeset="false"><tag k="addr:street" v="Flaxen Drive"/><tag k="addr:housenumber" v="8005"/></node><node id="-155" lat="30.121067" lon="-97.743733" changeset="false"><tag k="addr:street" v="Thaxton Road"/><tag k="addr:housenumber" v="10708"/></node><node id="-156" lat="30.152765" lon="-97.745219" changeset="false"><tag k="addr:street" v="Panadero Drive"/><tag k="addr:housenumber" v="8537 1/2"/></node><node id="-157" lat="30.137316" lon="-97.751883" changeset="false"><tag k="addr:street" v="Capitol View Drive"/><tag k="addr:housenumber" v="10003"/></node><node id="-158" lat="30.162119" lon="-97.738412" changeset="false"><tag k="addr:street" v="Marl Court"/><tag k="addr:housenumber" v="7613"/></node><node id="-159" lat="30.152737" lon="-97.745196" changeset="false"><tag k="addr:street" v="Panadero Drive"/><tag k="addr:housenumber" v="8537"/></node><node id="-160" lat="30.155225" lon="-97.744536" changeset="false"><tag k="addr:street" v="Panadero Cove"/><tag k="addr:housenumber" v="6412"/></node><node id="-161" lat="30.138299" lon="-97.751968" changeset="false"><tag k="addr:street" v="Capitol View Drive"/><tag k="addr:housenumber" v="9909"/></node><node id="-162" lat="30.156719" lon="-97.743458" changeset="false"><tag k="addr:street" v="Panadero Drive"/><tag k="addr:housenumber" v="8213 1/2"/></node><node id="-163" lat="30.158456" lon="-97.751727" changeset="false"><tag k="addr:street" v="Nuckols Crossing Road"/><tag k="addr:housenumber" v="8449"/></node><node id="-164" lat="30.1465" lon="-97.7382" changeset="false"><tag k="addr:street" v="Edmundsbury Drive"/><tag k="addr:housenumber" v="9316"/></node><node id="-165" lat="30.154122" lon="-97.742109" changeset="false"><tag k="addr:street" v="Sabrina Drive"/><tag k="addr:housenumber" v="6705"/></node><node id="-166" lat="30.161119" lon="-97.737243" changeset="false"><tag k="addr:street" v="Marble Ridge Drive"/><tag k="addr:housenumber" v="7648"/></node><node id="-167" lat="30.14843" lon="-97.740871" changeset="false"><tag k="addr:street" v="Winter Haven Road"/><tag k="addr:housenumber" v="9001"/></node><node id="-168" lat="30.148533" lon="-97.741894" changeset="false"><tag k="addr:street" v="Baythorne Drive"/><tag k="addr:housenumber" v="6815"/></node><node id="-169" lat="30.151329" lon="-97.745486" changeset="false"><tag k="addr:street" v="Capitol View Drive"/><tag k="addr:housenumber" v="8704"/></node><node id="-170" lat="30.150692" lon="-97.745886" changeset="false"><tag k="addr:street" v="Capitol View Drive"/><tag k="addr:housenumber" v="8724"/></node><node id="-171" lat="30.151179" lon="-97.745148" changeset="false"><tag k="addr:street" v="Capitol View Drive"/><tag k="addr:housenumber" v="8705"/></node><node id="-172" lat="30.139915" lon="-97.734098" changeset="false"><tag k="addr:street" v="Thaxton Road"/><tag k="addr:housenumber" v="9214"/></node><node id="-173" lat="30.148877" lon="-97.742825" changeset="false"><tag k="addr:street" v="Norwich Castle Drive"/><tag k="addr:housenumber" v="9001"/></node><node id="-174" lat="30.148587" lon="-97.742163" changeset="false"><tag k="addr:street" v="Baythorne Drive"/><tag k="addr:housenumber" v="6809"/></node><node id="-175" lat="30.148888" lon="-97.741402" changeset="false"><tag k="addr:street" v="Baythorne Drive"/><tag k="addr:housenumber" v="6824"/></node><node id="-176" lat="30.148106" lon="-97.740575" changeset="false"><tag k="addr:street" v="Edmundsbury Drive"/><tag k="addr:housenumber" v="8908"/></node><node id="-177" lat="30.153787" lon="-97.744566" changeset="false"><tag k="addr:street" v="Quinton Drive"/><tag k="addr:housenumber" v="6401"/></node><node id="-178" lat="30.11451" lon="-97.747706" changeset="false"><tag k="addr:street" v="Thaxton Road"/><tag k="addr:housenumber" v="11210"/></node><node id="-179" lat="30.146924" lon="-97.739558" changeset="false"><tag k="addr:street" v="Stambourne Street"/><tag k="addr:housenumber" v="9021"/></node><node id="-180" lat="30.147582" lon="-97.740283" changeset="false"><tag k="addr:street" v="Edmundsbury Drive"/><tag k="addr:housenumber" v="8925"/></node><node id="-181" lat="30.148908" lon="-97.746364" changeset="false"><tag k="addr:street" v="Capitol View Drive"/><tag k="addr:housenumber" v="8905"/></node><node id="-182" lat="30.148877" lon="-97.744221" changeset="false"><tag k="addr:street" v="Wiley Way"/><tag k="addr:housenumber" v="9016"/></node><node id="-183" lat="30.150272" lon="-97.740697" changeset="false"><tag k="addr:street" v="Derby Downs Drive"/><tag k="addr:housenumber" v="6824"/></node><node id="-184" lat="30.163879" lon="-97.73927" changeset="false"><tag k="addr:street" v="Marble Ridge Drive"/><tag k="addr:housenumber" v="7437"/></node><node id="-185" lat="30.152318" lon="-97.744422" changeset="false"><tag k="addr:street" v="Capitol View Drive"/><tag k="addr:housenumber" v="8517"/></node><node id="-186" lat="30.132677" lon="-97.736034" changeset="false"><tag k="addr:street" v="Thaxton Road"/><tag k="addr:housenumber" v="9820"/></node><node id="-187" lat="30.161478" lon="-97.737755" changeset="false"><tag k="addr:street" v="Springtime Trail"/><tag k="addr:housenumber" v="7537"/></node><node id="-188" lat="30.161312" lon="-97.736746" changeset="false"><tag k="addr:street" v="Marble Ridge Drive"/><tag k="addr:housenumber" v="7637"/></node><node id="-189" lat="30.148247" lon="-97.732228" changeset="false"><tag k="addr:street" v="Thaxton Road"/><tag k="addr:housenumber" v="8524"/></node><node id="-190" lat="30.156127" lon="-97.74428" changeset="false"><tag k="addr:street" v="Alum Rock Drive"/><tag k="addr:housenumber" v="8712"/></node><node id="-191" lat="30.154992" lon="-97.739599" changeset="false"><tag k="addr:street" v="Georgie Trace Avenue"/><tag k="addr:housenumber" v="8217"/></node><node id="-192" lat="30.142425" lon="-97.748777" changeset="false"><tag k="addr:street" v="Capitol View Drive"/><tag k="addr:housenumber" v="9517"/></node><node id="-193" lat="30.151269" lon="-97.746041" changeset="false"><tag k="addr:street" v="Panadero Drive"/><tag k="addr:housenumber" v="8713"/></node><node id="-194" lat="30.148241" lon="-97.76417" changeset="false"><tag k="addr:street" v="Karen Ann Court"/><tag k="addr:housenumber" v="5614"/></node><node id="-195" lat="30.156932" lon="-97.738273" changeset="false"><tag k="addr:street" v="Flaxen Drive"/><tag k="addr:housenumber" v="8002"/></node><node id="-196" lat="30.160173" lon="-97.750174" changeset="false"><tag k="addr:street" v="Thaxton Road"/><tag k="addr:housenumber" v="7804"/></node><node id="-197" lat="30.140219" lon="-97.75141" changeset="false"><tag k="addr:street" v="Capitol View Drive"/><tag k="addr:housenumber" v="9804"/></node><node id="-198" lat="30.139337" lon="-97.751339" changeset="false"><tag k="addr:street" v="Capitol View Drive"/><tag k="addr:housenumber" v="9903"/></node><node id="-199" lat="30.152529" lon="-97.74477" changeset="false"><tag k="addr:street" v="Capitol View Drive"/><tag k="addr:housenumber" v="8512"/></node><node id="-200" lat="30.152253" lon="-97.744929" changeset="false"><tag k="addr:street" v="Capitol View Drive"/><tag k="addr:housenumber" v="8600"/></node><node id="-201" lat="30.150488" lon="-97.738268" changeset="false"><tag k="addr:street" v="Deja Avenue"/><tag k="addr:housenumber" v="8612"/></node><node id="-202" lat="30.15181" lon="-97.74023" changeset="false"><tag k="addr:street" v="Quinton Cove"/><tag k="addr:housenumber" v="8601"/></node><node id="-203" lat="30.161018" lon="-97.736824" changeset="false"><tag k="addr:street" v="Marble Ridge Drive"/><tag k="addr:housenumber" v="7645"/></node><node id="-204" lat="30.155262" lon="-97.739456" changeset="false"><tag k="addr:street" v="Georgie Trace Avenue"/><tag k="addr:housenumber" v="8209"/></node><node id="-205" lat="30.154477" lon="-97.744122" changeset="false"><tag k="addr:street" v="Panadero Drive"/><tag k="addr:housenumber" v="8405"/></node><node id="-206" lat="30.155204" lon="-97.743625" changeset="false"><tag k="addr:street" v="Panadero Drive"/><tag k="addr:housenumber" v="8313"/></node><node id="-207" lat="30.150078" lon="-97.74348" changeset="false"><tag k="addr:street" v="Wiley Way"/><tag k="addr:housenumber" v="8912"/></node><node id="-208" lat="30.155066" lon="-97.744235" changeset="false"><tag k="addr:street" v="Panadero Cove"/><tag k="addr:housenumber" v="6420"/></node><node id="-209" lat="30.149776" lon="-97.743665" changeset="false"><tag k="addr:street" v="Wiley Way"/><tag k="addr:housenumber" v="8924"/></node><node id="-210" lat="30.158262" lon="-97.736434" changeset="false"><tag k="addr:street" v="Marble Ridge Drive"/><tag k="addr:housenumber" v="7813"/></node><node id="-211" lat="30.153511" lon="-97.738757" changeset="false"><tag k="addr:street" v="Alum Rock Drive"/><tag k="addr:housenumber" v="8401"/></node><node id="-212" lat="30.151525" lon="-97.745872" changeset="false"><tag k="addr:street" v="Panadero Drive"/><tag k="addr:housenumber" v="8705"/></node><node id="-213" lat="30.144122" lon="-97.747712" changeset="false"><tag k="addr:street" v="Capitol View Drive"/><tag k="addr:housenumber" v="9415"/></node><node id="-214" lat="30.158245" lon="-97.739764" changeset="false"><tag k="addr:street" v="Rosenberry Drive"/><tag k="addr:housenumber" v="8001"/></node><node id="-215" lat="30.158749" lon="-97.74549" changeset="false"><tag k="addr:street" v="Salt Springs Drive"/><tag k="addr:housenumber" v="8101"/></node><node id="-216" lat="30.146002" lon="-97.765726" changeset="false"><tag k="addr:street" v="Cheryl Lynn Road"/><tag k="addr:housenumber" v="9904"/></node><node id="-217" lat="30.150198" lon="-97.73239" changeset="false"><tag k="addr:street" v="Thaxton Road"/><tag k="addr:housenumber" v="8318"/></node><node id="-218" lat="30.146589" lon="-97.73936" changeset="false"><tag k="addr:street" v="Edmundsbury Drive"/><tag k="addr:housenumber" v="9212"/></node><node id="-219" lat="30.148872" lon="-97.740766" changeset="false"><tag k="addr:street" v="Winter Haven Road"/><tag k="addr:housenumber" v="8913"/></node><node id="-220" lat="30.149069" lon="-97.739065" changeset="false"><tag k="addr:street" v="Stambourne Street"/><tag k="addr:housenumber" v="8801"/></node><node id="-221" lat="30.151304" lon="-97.742731" changeset="false"><tag k="addr:street" v="Wiley Way"/><tag k="addr:housenumber" v="8718 1/2"/></node><node id="-222" lat="30.147894" lon="-97.740644" changeset="false"><tag k="addr:street" v="Edmundsbury Drive"/><tag k="addr:housenumber" v="8916"/></node><node id="-223" lat="30.147079" lon="-97.740793" changeset="false"><tag k="addr:street" v="Edmundsbury Drive"/><tag k="addr:housenumber" v="9016"/></node><node id="-224" lat="30.147831" lon="-97.740249" changeset="false"><tag k="addr:street" v="Edmundsbury Drive"/><tag k="addr:housenumber" v="8917"/></node><node id="-225" lat="30.147473" lon="-97.740306" changeset="false"><tag k="addr:street" v="Edmundsbury Drive"/><tag k="addr:housenumber" v="9001"/></node><node id="-226" lat="30.147242" lon="-97.740338" changeset="false"><tag k="addr:street" v="Edmundsbury Drive"/><tag k="addr:housenumber" v="9009"/></node><node id="-227" lat="30.14667" lon="-97.74038" changeset="false"><tag k="addr:street" v="Edmundsbury Drive"/><tag k="addr:housenumber" v="9116"/></node><node id="-228" lat="30.146608" lon="-97.739887" changeset="false"><tag k="addr:street" v="Edmundsbury Drive"/><tag k="addr:housenumber" v="9132"/></node><node id="-229" lat="30.146557" lon="-97.739482" changeset="false"><tag k="addr:street" v="Edmundsbury Drive"/><tag k="addr:housenumber" v="9208"/></node><node id="-230" lat="30.163969" lon="-97.741102" changeset="false"><tag k="addr:street" v="Redrick Drive"/><tag k="addr:housenumber" v="7512"/></node><node id="-231" lat="30.163551" lon="-97.738589" changeset="false"><tag k="addr:street" v="Marble Ridge Drive"/><tag k="addr:housenumber" v="7505"/></node><node id="-232" lat="30.148518" lon="-97.741791" changeset="false"><tag k="addr:street" v="Baythorne Drive"/><tag k="addr:housenumber" v="6817"/></node><node id="-233" lat="30.151843" lon="-97.745175" changeset="false"><tag k="addr:street" v="Capitol View Drive"/><tag k="addr:housenumber" v="8612"/></node><node id="-234" lat="30.151088" lon="-97.745636" changeset="false"><tag k="addr:street" v="Capitol View Drive"/><tag k="addr:housenumber" v="8712"/></node><node id="-235" lat="30.150524" lon="-97.74554" changeset="false"><tag k="addr:street" v="Capitol View Drive"/><tag k="addr:housenumber" v="8725"/></node><node id="-236" lat="30.149477" lon="-97.746178" changeset="false"><tag k="addr:street" v="Capitol View Drive"/><tag k="addr:housenumber" v="8825"/></node><node id="-237" lat="30.147894" lon="-97.741457" changeset="false"><tag k="addr:street" v="Winter Haven Road"/><tag k="addr:housenumber" v="9016"/></node><node id="-238" lat="30.148018" lon="-97.741028" changeset="false"><tag k="addr:street" v="Winter Haven Road"/><tag k="addr:housenumber" v="9013"/></node><node id="-239" lat="30.147166" lon="-97.741254" changeset="false"><tag k="addr:street" v="Winter Haven Road"/><tag k="addr:housenumber" v="9109"/></node><node id="-240" lat="30.153489" lon="-97.743932" changeset="false"><tag k="addr:street" v="Quinton Drive"/><tag k="addr:housenumber" v="6501"/></node><node id="-241" lat="30.148617" lon="-97.74233" changeset="false"><tag k="addr:street" v="Baythorne Drive"/><tag k="addr:housenumber" v="6805"/></node><node id="-242" lat="30.132879" lon="-97.735914" changeset="false"><tag k="addr:street" v="Thaxton Road"/><tag k="addr:housenumber" v="9818"/></node><node id="-243" lat="30.148541" lon="-97.73791" changeset="false"><tag k="addr:street" v="Derby Downs Drive"/><tag k="addr:housenumber" v="7301"/></node><node id="-244" lat="30.122085" lon="-97.744745" changeset="false"><tag k="addr:street" v="Thaxton Road"/><tag k="addr:housenumber" v="10624"/></node><node id="-245" lat="30.159538" lon="-97.741416" changeset="false"><tag k="addr:street" v="Running Water Drive"/><tag k="addr:housenumber" v="7906"/></node><node id="-246" lat="30.162277" lon="-97.736499" changeset="false"><tag k="addr:street" v="Marble Ridge Drive"/><tag k="addr:housenumber" v="7613"/></node><node id="-247" lat="30.161861" lon="-97.737497" changeset="false"><tag k="addr:street" v="Springtime Trail"/><tag k="addr:housenumber" v="7525"/></node><node id="-248" lat="30.15539" lon="-97.738076" changeset="false"><tag k="addr:street" v="Broad Brook Drive"/><tag k="addr:housenumber" v="6828"/></node><node id="-249" lat="30.155042" lon="-97.737291" changeset="false"><tag k="addr:street" v="Broad Brook Drive"/><tag k="addr:housenumber" v="6900"/></node><node id="-250" lat="30.14136" lon="-97.730158" changeset="false"><tag k="addr:street" v="Thaxton Road"/><tag k="addr:housenumber" v="9014"/></node><node id="-251" lat="30.15496" lon="-97.743795" changeset="false"><tag k="addr:street" v="Panadero Drive"/><tag k="addr:housenumber" v="8321"/></node><node id="-252" lat="30.143736" lon="-97.749234" changeset="false"><tag k="addr:street" v="Capitol View Drive"/><tag k="addr:housenumber" v="9502"/></node><node id="-253" lat="30.161723" lon="-97.743423" changeset="false"><tag k="addr:street" v="Marble Creek Loop"/><tag k="addr:housenumber" v="6401"/></node><node id="-254" lat="30.151974" lon="-97.740567" changeset="false"><tag k="addr:street" v="Quinton Cove"/><tag k="addr:housenumber" v="8600"/></node><node id="-255" lat="30.157443" lon="-97.740288" changeset="false"><tag k="addr:street" v="Rosenberry Drive"/><tag k="addr:housenumber" v="8101"/></node><node id="-256" lat="30.157432" lon="-97.742028" changeset="false"><tag k="addr:street" v="Thaxton Road"/><tag k="addr:housenumber" v="8022"/></node><node id="-257" lat="30.159153" lon="-97.740216" changeset="false"><tag k="addr:street" v="Eudora Lane"/><tag k="addr:housenumber" v="7905"/></node><node id="-258" lat="30.133323" lon="-97.754336" changeset="false"><tag k="addr:street" v="Capitol View Drive"/><tag k="addr:housenumber" v="10365"/></node><node id="-259" lat="30.162175" lon="-97.739364" changeset="false"><tag k="addr:street" v="Running Water Drive"/><tag k="addr:housenumber" v="7545"/></node><node id="-260" lat="30.162134" lon="-97.737322" changeset="false"><tag k="addr:street" v="Springtime Trail"/><tag k="addr:housenumber" v="7517"/></node><node id="-261" lat="30.162551" lon="-97.739187" changeset="false"><tag k="addr:street" v="Running Water Drive"/><tag k="addr:housenumber" v="7533"/></node><node id="-262" lat="30.140638" lon="-97.730645" changeset="false"><tag k="addr:street" v="Thaxton Road"/><tag k="addr:housenumber" v="9112"/></node><node id="-263" lat="30.139851" lon="-97.730861" changeset="false"><tag k="addr:street" v="Thaxton Road"/><tag k="addr:housenumber" v="9200"/></node><node id="-264" lat="30.136294" lon="-97.733401" changeset="false"><tag k="addr:street" v="Thaxton Road"/><tag k="addr:housenumber" v="9504"/></node><node id="-265" lat="30.135672" lon="-97.733799" changeset="false"><tag k="addr:street" v="Thaxton Road"/><tag k="addr:housenumber" v="9516"/></node><node id="-266" lat="30.139496" lon="-97.751672" changeset="false"><tag k="addr:street" v="Capitol View Drive"/><tag k="addr:housenumber" v="9900"/></node><node id="-267" lat="30.139234" lon="-97.752255" changeset="false"><tag k="addr:street" v="Capitol View Drive"/><tag k="addr:housenumber" v="9902"/></node><node id="-268" lat="30.150638" lon="-97.738629" changeset="false"><tag k="addr:street" v="Claude Court"/><tag k="addr:housenumber" v="8613"/></node><node id="-269" lat="30.149876" lon="-97.74361" changeset="false"><tag k="addr:street" v="Wiley Way"/><tag k="addr:housenumber" v="8920"/></node><node id="-270" lat="30.160141" lon="-97.737924" changeset="false"><tag k="addr:street" v="Piedras Blanco Drive"/><tag k="addr:housenumber" v="6713"/></node><node id="-271" lat="30.152873" lon="-97.739139" changeset="false"><tag k="addr:street" v="Sabrina Drive"/><tag k="addr:housenumber" v="6837"/></node><node id="-272" lat="30.156034" lon="-97.743807" changeset="false"><tag k="addr:street" v="Alum Rock Drive"/><tag k="addr:housenumber" v="8700"/></node><node id="-273" lat="30.156263" lon="-97.744576" changeset="false"><tag k="addr:street" v="Alum Rock Drive"/><tag k="addr:housenumber" v="8720"/></node><node id="-274" lat="30.123751" lon="-97.743788" changeset="false"><tag k="addr:street" v="Thaxton Road"/><tag k="addr:housenumber" v="10524"/></node><node id="-275" lat="30.150927" lon="-97.738935" changeset="false"><tag k="addr:street" v="Claude Court"/><tag k="addr:housenumber" v="8608"/></node><node id="-276" lat="30.156078" lon="-97.739451" changeset="false"><tag k="addr:street" v="Broad Brook Drive"/><tag k="addr:housenumber" v="6764"/></node><node id="-277" lat="30.155484" lon="-97.743492" changeset="false"><tag k="addr:street" v="Panadero Drive"/><tag k="addr:housenumber" v="8305"/></node><node id="-278" lat="30.15534" lon="-97.743568" changeset="false"><tag k="addr:street" v="Panadero Drive"/><tag k="addr:housenumber" v="8309"/></node><node id="-279" lat="30.155089" lon="-97.743724" changeset="false"><tag k="addr:street" v="Panadero Drive"/><tag k="addr:housenumber" v="8317"/></node><node id="-280" lat="30.154351" lon="-97.744208" changeset="false"><tag k="addr:street" v="Panadero Drive"/><tag k="addr:housenumber" v="8409"/></node><node id="-281" lat="30.153888" lon="-97.745006" changeset="false"><tag k="addr:street" v="Panadero Drive"/><tag k="addr:housenumber" v="8504"/></node><node id="-282" lat="30.153446" lon="-97.746749" changeset="false"><tag k="addr:street" v="Bumpstead Drive"/><tag k="addr:housenumber" v="6304"/></node><node id="-283" lat="30.154094" lon="-97.744304" changeset="false"><tag k="addr:street" v="Panadero Drive"/><tag k="addr:housenumber" v="8417"/></node><node id="-284" lat="30.149065" lon="-97.738102" changeset="false"><tag k="addr:street" v="Derby Downs Drive"/><tag k="addr:housenumber" v="7200"/></node><node id="-285" lat="30.157304" lon="-97.740363" changeset="false"><tag k="addr:street" v="Rosenberry Drive"/><tag k="addr:housenumber" v="8103"/></node><node id="-286" lat="30.159412" lon="-97.740064" changeset="false"><tag k="addr:street" v="Eudora Lane"/><tag k="addr:housenumber" v="7901"/></node><node id="-287" lat="30.157959" lon="-97.740322" changeset="false"><tag k="addr:street" v="Rosenberry Drive"/><tag k="addr:housenumber" v="8006"/></node><node id="-288" lat="30.143488" lon="-97.748424" changeset="false"><tag k="addr:street" v="Capitol View Drive"/><tag k="addr:housenumber" v="9503"/></node><node id="-289" lat="30.162401" lon="-97.738226" changeset="false"><tag k="addr:street" v="Marl Court"/><tag k="addr:housenumber" v="7605"/></node><node id="-290" lat="30.139652" lon="-97.751105" changeset="false"><tag k="addr:street" v="Capitol View Drive"/><tag k="addr:housenumber" v="9807"/></node><node id="-291" lat="30.142029" lon="-97.750212" changeset="false"><tag k="addr:street" v="Capitol View Drive"/><tag k="addr:housenumber" v="9604"/></node><node id="-292" lat="30.149093" lon="-97.741262" changeset="false"><tag k="addr:street" v="Winter Haven Road"/><tag k="addr:housenumber" v="8908"/></node><node id="-293" lat="30.148728" lon="-97.740798" changeset="false"><tag k="addr:street" v="Winter Haven Road"/><tag k="addr:housenumber" v="8917"/></node><node id="-294" lat="30.151688" lon="-97.744817" changeset="false"><tag k="addr:street" v="Capitol View Drive"/><tag k="addr:housenumber" v="8613"/></node><node id="-295" lat="30.146583" lon="-97.739745" changeset="false"><tag k="addr:street" v="Edmundsbury Drive"/><tag k="addr:housenumber" v="9200"/></node><node id="-296" lat="30.148752" lon="-97.742906" changeset="false"><tag k="addr:street" v="Norwich Castle Drive"/><tag k="addr:housenumber" v="9005"/></node><node id="-297" lat="30.148663" lon="-97.742506" changeset="false"><tag k="addr:street" v="Baythorne Drive"/><tag k="addr:housenumber" v="6801"/></node><node id="-298" lat="30.149492" lon="-97.741475" changeset="false"><tag k="addr:street" v="Cornish Hen Cove"/><tag k="addr:housenumber" v="8901"/></node><node id="-299" lat="30.149943" lon="-97.745896" changeset="false"><tag k="addr:street" v="Capitol View Drive"/><tag k="addr:housenumber" v="8809"/></node><node id="-300" lat="30.149317" lon="-97.746214" changeset="false"><tag k="addr:street" v="Capitol View Drive"/><tag k="addr:housenumber" v="8829"/></node><node id="-301" lat="30.148706" lon="-97.743839" changeset="false"><tag k="addr:street" v="Wiley Way"/><tag k="addr:housenumber" v="9017"/></node><node id="-302" lat="30.148706" lon="-97.743465" changeset="false"><tag k="addr:street" v="Norwich Castle Drive"/><tag k="addr:housenumber" v="9012"/></node><node id="-303" lat="30.148042" lon="-97.741427" changeset="false"><tag k="addr:street" v="Winter Haven Road"/><tag k="addr:housenumber" v="9012"/></node><node id="-304" lat="30.147451" lon="-97.741583" changeset="false"><tag k="addr:street" v="Winter Haven Road"/><tag k="addr:housenumber" v="9104"/></node><node id="-305" lat="30.151467" lon="-97.7454" changeset="false"><tag k="addr:street" v="Capitol View Drive"/><tag k="addr:housenumber" v="8700"/></node><node id="-306" lat="30.150662" lon="-97.745466" changeset="false"><tag k="addr:street" v="Capitol View Drive"/><tag k="addr:housenumber" v="8721"/></node><node id="-307" lat="30.148494" lon="-97.741375" changeset="false"><tag k="addr:street" v="Winter Haven Road"/><tag k="addr:housenumber" v="9000"/></node><node id="-308" lat="30.150059" lon="-97.742637" changeset="false"><tag k="addr:street" v="Norwich Castle Drive"/><tag k="addr:housenumber" v="8900"/></node><node id="-309" lat="30.153355" lon="-97.736287" changeset="false"><tag k="addr:street" v="Felipe Drive"/><tag k="addr:housenumber" v="6940"/></node><node id="-310" lat="30.147941" lon="-97.740227" changeset="false"><tag k="addr:street" v="Edmundsbury Drive"/><tag k="addr:housenumber" v="8913"/></node><node id="-311" lat="30.146863" lon="-97.740872" changeset="false"><tag k="addr:street" v="Edmundsbury Drive"/><tag k="addr:housenumber" v="9100"/></node><node id="-312" lat="30.146658" lon="-97.74025" changeset="false"><tag k="addr:street" v="Edmundsbury Drive"/><tag k="addr:housenumber" v="9120"/></node><node id="-313" lat="30.147654" lon="-97.739867" changeset="false"><tag k="addr:street" v="Stambourne Street"/><tag k="addr:housenumber" v="8920"/></node><node id="-314" lat="30.14887" lon="-97.741235" changeset="false"><tag k="addr:street" v="Baythorne Drive"/><tag k="addr:housenumber" v="6828"/></node><node id="-315" lat="30.154604" lon="-97.735667" changeset="false"><tag k="addr:street" v="Thaxton Road"/><tag k="addr:housenumber" v="8098"/></node><node id="-316" lat="30.154417" lon="-97.735326" changeset="false"><tag k="addr:street" v="Thaxton Road"/><tag k="addr:housenumber" v="8102"/></node><node id="-317" lat="30.157335" lon="-97.768711" changeset="false"><tag k="addr:street" v="Nuckols Crossing Road"/><tag k="addr:housenumber" v="9139"/></node><node id="-318" lat="30.1634" lon="-97.738285" changeset="false"><tag k="addr:street" v="Marble Ridge Drive"/><tag k="addr:housenumber" v="7513"/></node><node id="-319" lat="30.151616" lon="-97.74649" changeset="false"><tag k="addr:street" v="Panadero Drive"/><tag k="addr:housenumber" v="8708"/></node><node id="-320" lat="30.147736" lon="-97.737633" changeset="false"><tag k="addr:street" v="Derby Downs Drive"/><tag k="addr:housenumber" v="7320"/></node><node id="-321" lat="30.14901" lon="-97.737973" changeset="false"><tag k="addr:street" v="Derby Downs Drive"/><tag k="addr:housenumber" v="7204"/></node><node id="-322" lat="30.150585" lon="-97.738212" changeset="false"><tag k="addr:street" v="Deja Avenue"/><tag k="addr:housenumber" v="8608"/></node><node id="-323" lat="30.162936" lon="-97.742141" changeset="false"><tag k="addr:street" v="Tara Drive"/><tag k="addr:housenumber" v="6413"/></node><node id="-324" lat="30.149665" lon="-97.762642" changeset="false"><tag k="addr:street" v="Cheryl Lynn Road"/><tag k="addr:housenumber" v="9505"/></node><node id="-325" lat="30.158592" lon="-97.74011" changeset="false"><tag k="addr:street" v="Rosenberry Drive"/><tag k="addr:housenumber" v="7910"/></node><node id="-326" lat="30.155143" lon="-97.744395" changeset="false"><tag k="addr:street" v="Panadero Cove"/><tag k="addr:housenumber" v="6416"/></node><node id="-327" lat="30.154876" lon="-97.74038" changeset="false"><tag k="addr:street" v="Georgie Trace Avenue"/><tag k="addr:housenumber" v="8304"/></node><node id="-328" lat="30.146888" lon="-97.764451" changeset="false"><tag k="addr:street" v="Cheryl Lynn Road"/><tag k="addr:housenumber" v="9803"/></node><node id="-329" lat="30.159751" lon="-97.743119" changeset="false"><tag k="addr:street" v="Ringsby Road"/><tag k="addr:housenumber" v="6301"/></node><node id="-330" lat="30.117965" lon="-97.745981" changeset="false"><tag k="addr:street" v="Thaxton Road"/><tag k="addr:housenumber" v="10910"/></node><node id="-331" lat="30.152741" lon="-97.744114" changeset="false"><tag k="addr:street" v="Capitol View Drive"/><tag k="addr:housenumber" v="8505"/></node><node id="-332" lat="30.154344" lon="-97.735107" changeset="false"><tag k="addr:street" v="Thaxton Road"/><tag k="addr:housenumber" v="8108"/></node><node id="-333" lat="30.154658" lon="-97.735812" changeset="false"><tag k="addr:street" v="Thaxton Road"/><tag k="addr:housenumber" v="8096"/></node><node id="-334" lat="30.15451" lon="-97.735502" changeset="false"><tag k="addr:street" v="Thaxton Road"/><tag k="addr:housenumber" v="8100"/></node><node id="-335" lat="30.147765" lon="-97.74067" changeset="false"><tag k="addr:street" v="Edmundsbury Drive"/><tag k="addr:housenumber" v="8920"/></node><node id="-336" lat="30.147195" lon="-97.740777" changeset="false"><tag k="addr:street" v="Edmundsbury Drive"/><tag k="addr:housenumber" v="9012"/></node><node id="-337" lat="30.163483" lon="-97.73845" changeset="false"><tag k="addr:street" v="Marble Ridge Drive"/><tag k="addr:housenumber" v="7509"/></node><node id="-338" lat="30.152456" lon="-97.73901" changeset="false"><tag k="addr:street" v="Winter Haven Road"/><tag k="addr:housenumber" v="8429 1/2"/></node><node id="-339" lat="30.148495" lon="-97.741623" changeset="false"><tag k="addr:street" v="Baythorne Drive"/><tag k="addr:housenumber" v="6821"/></node><node id="-340" lat="30.148348" lon="-97.741408" changeset="false"><tag k="addr:street" v="Winter Haven Road"/><tag k="addr:housenumber" v="9004"/></node><node id="-341" lat="30.148178" lon="-97.7401" changeset="false"><tag k="addr:street" v="Edmundsbury Drive"/><tag k="addr:housenumber" v="8905"/></node><node id="-342" lat="30.149374" lon="-97.743914" changeset="false"><tag k="addr:street" v="Wiley Way"/><tag k="addr:housenumber" v="9000"/></node><node id="-343" lat="30.152586" lon="-97.744221" changeset="false"><tag k="addr:street" v="Capitol View Drive"/><tag k="addr:housenumber" v="8509"/></node><node id="-344" lat="30.147356" lon="-97.740326" changeset="false"><tag k="addr:street" v="Edmundsbury Drive"/><tag k="addr:housenumber" v="9005"/></node><node id="-345" lat="30.146727" lon="-97.740817" changeset="false"><tag k="addr:street" v="Edmundsbury Drive"/><tag k="addr:housenumber" v="9104"/></node><node id="-346" lat="30.151733" lon="-97.745261" changeset="false"><tag k="addr:street" v="Capitol View Drive"/><tag k="addr:housenumber" v="8616"/></node><node id="-347" lat="30.151598" lon="-97.745318" changeset="false"><tag k="addr:street" v="Capitol View Drive"/><tag k="addr:housenumber" v="8620"/></node><node id="-348" lat="30.151299" lon="-97.74507" changeset="false"><tag k="addr:street" v="Capitol View Drive"/><tag k="addr:housenumber" v="8701"/></node><node id="-349" lat="30.150899" lon="-97.74532" changeset="false"><tag k="addr:street" v="Capitol View Drive"/><tag k="addr:housenumber" v="8713"/></node><node id="-350" lat="30.149754" lon="-97.746494" changeset="false"><tag k="addr:street" v="Capitol View Drive"/><tag k="addr:housenumber" v="8820"/></node><node id="-351" lat="30.149847" lon="-97.745962" changeset="false"><tag k="addr:street" v="Capitol View Drive"/><tag k="addr:housenumber" v="8813"/></node><node id="-352" lat="30.123302" lon="-97.744012" changeset="false"><tag k="addr:street" v="Thaxton Road"/><tag k="addr:housenumber" v="10600"/></node><node id="-353" lat="30.122912" lon="-97.744332" changeset="false"><tag k="addr:street" v="Thaxton Road"/><tag k="addr:housenumber" v="10608"/></node><node id="-354" lat="30.146859" lon="-97.741316" changeset="false"><tag k="addr:street" v="Winter Haven Road"/><tag k="addr:housenumber" v="9117"/></node><node id="-355" lat="30.146712" lon="-97.741358" changeset="false"><tag k="addr:street" v="Winter Haven Road"/><tag k="addr:housenumber" v="9121"/></node><node id="-356" lat="30.147312" lon="-97.740759" changeset="false"><tag k="addr:street" v="Edmundsbury Drive"/><tag k="addr:housenumber" v="9008"/></node><node id="-357" lat="30.146972" lon="-97.740821" changeset="false"><tag k="addr:street" v="Edmundsbury Drive"/><tag k="addr:housenumber" v="9020"/></node><node id="-358" lat="30.148558" lon="-97.739707" changeset="false"><tag k="addr:street" v="Stambourne Street"/><tag k="addr:housenumber" v="8824"/></node><node id="-359" lat="30.148556" lon="-97.741989" changeset="false"><tag k="addr:street" v="Baythorne Drive"/><tag k="addr:housenumber" v="6813"/></node><node id="-360" lat="30.14303" lon="-97.748566" changeset="false"><tag k="addr:street" v="Capitol View Drive"/><tag k="addr:housenumber" v="9507"/></node><node id="-361" lat="30.149486" lon="-97.743371" changeset="false"><tag k="addr:street" v="Wiley Way"/><tag k="addr:housenumber" v="8929"/></node><node id="-362" lat="30.147126" lon="-97.740355" changeset="false"><tag k="addr:street" v="Edmundsbury Drive"/><tag k="addr:housenumber" v="9013"/></node><node id="-363" lat="30.147005" lon="-97.740361" changeset="false"><tag k="addr:street" v="Edmundsbury Drive"/><tag k="addr:housenumber" v="9017"/></node><node id="-364" lat="30.146661" lon="-97.740647" changeset="false"><tag k="addr:street" v="Edmundsbury Drive"/><tag k="addr:housenumber" v="9108"/></node><node id="-365" lat="30.146667" lon="-97.740499" changeset="false"><tag k="addr:street" v="Edmundsbury Drive"/><tag k="addr:housenumber" v="9112"/></node><node id="-366" lat="30.146621" lon="-97.740003" changeset="false"><tag k="addr:street" v="Edmundsbury Drive"/><tag k="addr:housenumber" v="9128"/></node><node id="-367" lat="30.146952" lon="-97.73987" changeset="false"><tag k="addr:street" v="Stambourne Street"/><tag k="addr:housenumber" v="9020"/></node><node id="-368" lat="30.149025" lon="-97.74074" changeset="false"><tag k="addr:street" v="Winter Haven Road"/><tag k="addr:housenumber" v="8909"/></node><node id="-369" lat="30.15194" lon="-97.74469" changeset="false"><tag k="addr:street" v="Capitol View Drive"/><tag k="addr:housenumber" v="8605"/></node><node id="-370" lat="30.150958" lon="-97.745722" changeset="false"><tag k="addr:street" v="Capitol View Drive"/><tag k="addr:housenumber" v="8716"/></node><node id="-371" lat="30.15009" lon="-97.746254" changeset="false"><tag k="addr:street" v="Capitol View Drive"/><tag k="addr:housenumber" v="8808"/></node><node id="-372" lat="30.149732" lon="-97.746047" changeset="false"><tag k="addr:street" v="Capitol View Drive"/><tag k="addr:housenumber" v="8817"/></node><node id="-373" lat="30.148971" lon="-97.743668" changeset="false"><tag k="addr:street" v="Wiley Way"/><tag k="addr:housenumber" v="9009"/></node><node id="-374" lat="30.148824" lon="-97.743389" changeset="false"><tag k="addr:street" v="Norwich Castle Drive"/><tag k="addr:housenumber" v="9008"/></node><node id="-375" lat="30.148153" lon="-97.740996" changeset="false"><tag k="addr:street" v="Winter Haven Road"/><tag k="addr:housenumber" v="9009"/></node><node id="-376" lat="30.147731" lon="-97.741089" changeset="false"><tag k="addr:street" v="Winter Haven Road"/><tag k="addr:housenumber" v="9021"/></node><node id="-377" lat="30.147009" lon="-97.741299" changeset="false"><tag k="addr:street" v="Winter Haven Road"/><tag k="addr:housenumber" v="9113"/></node><node id="-378" lat="30.148277" lon="-97.740901" changeset="false"><tag k="addr:street" v="Winter Haven Road"/><tag k="addr:housenumber" v="9005"/></node><node id="-379" lat="30.149847" lon="-97.742801" changeset="false"><tag k="addr:street" v="Norwich Castle Drive"/><tag k="addr:housenumber" v="8908"/></node><node id="-380" lat="30.147243" lon="-97.73994" changeset="false"><tag k="addr:street" v="Stambourne Street"/><tag k="addr:housenumber" v="9012"/></node><node id="-381" lat="30.147125" lon="-97.739956" changeset="false"><tag k="addr:street" v="Stambourne Street"/><tag k="addr:housenumber" v="9016"/></node><node id="-382" lat="30.151037" lon="-97.745238" changeset="false"><tag k="addr:street" v="Capitol View Drive"/><tag k="addr:housenumber" v="8709"/></node><node id="-383" lat="30.153817" lon="-97.747422" changeset="false"><tag k="addr:street" v="Bumpstead Drive"/><tag k="addr:housenumber" v="6218"/></node><node id="-384" lat="30.14914" lon="-97.742453" changeset="false"><tag k="addr:street" v="Baythorne Drive"/><tag k="addr:housenumber" v="6726"/></node><node id="-385" lat="30.148714" lon="-97.742679" changeset="false"><tag k="addr:street" v="Baythorne Drive"/><tag k="addr:housenumber" v="6727"/></node><node id="-386" lat="30.147717" lon="-97.74026" changeset="false"><tag k="addr:street" v="Edmundsbury Drive"/><tag k="addr:housenumber" v="8921"/></node><node id="-387" lat="30.147565" lon="-97.739885" changeset="false"><tag k="addr:street" v="Stambourne Street"/><tag k="addr:housenumber" v="9000"/></node><node id="-388" lat="30.157614" lon="-97.739204" changeset="false"><tag k="addr:street" v="Bramble Bush Drive"/><tag k="addr:housenumber" v="8005"/></node><node id="-389" lat="30.158286" lon="-97.74266" changeset="false"><tag k="addr:street" v="Ken Caryl Drive"/><tag k="addr:housenumber" v="6400"/></node><node id="-390" lat="30.152071" lon="-97.744605" changeset="false"><tag k="addr:street" v="Capitol View Drive"/><tag k="addr:housenumber" v="8601"/></node><node id="-391" lat="30.15182" lon="-97.744764" changeset="false"><tag k="addr:street" v="Capitol View Drive"/><tag k="addr:housenumber" v="8609"/></node><node id="-392" lat="30.151558" lon="-97.744911" changeset="false"><tag k="addr:street" v="Capitol View Drive"/><tag k="addr:housenumber" v="8617"/></node><node id="-393" lat="30.150819" lon="-97.7458" changeset="false"><tag k="addr:street" v="Capitol View Drive"/><tag k="addr:housenumber" v="8720"/></node><node id="-394" lat="30.149138" lon="-97.744044" changeset="false"><tag k="addr:street" v="Wiley Way"/><tag k="addr:housenumber" v="9008"/></node><node id="-395" lat="30.148578" lon="-97.743547" changeset="false"><tag k="addr:street" v="Norwich Castle Drive"/><tag k="addr:housenumber" v="9016"/></node><node id="-396" lat="30.14855" lon="-97.743114" changeset="false"><tag k="addr:street" v="Norwich Castle Drive"/><tag k="addr:housenumber" v="9013"/></node><node id="-397" lat="30.148426" lon="-97.743193" changeset="false"><tag k="addr:street" v="Norwich Castle Drive"/><tag k="addr:housenumber" v="9017"/></node><node id="-398" lat="30.148189" lon="-97.741393" changeset="false"><tag k="addr:street" v="Winter Haven Road"/><tag k="addr:housenumber" v="9008"/></node><node id="-399" lat="30.14774" lon="-97.741496" changeset="false"><tag k="addr:street" v="Winter Haven Road"/><tag k="addr:housenumber" v="9020"/></node><node id="-400" lat="30.147871" lon="-97.74107" changeset="false"><tag k="addr:street" v="Winter Haven Road"/><tag k="addr:housenumber" v="9017"/></node><node id="-401" lat="30.147447" lon="-97.741168" changeset="false"><tag k="addr:street" v="Winter Haven Road"/><tag k="addr:housenumber" v="9101"/></node><node id="-402" lat="30.149203" lon="-97.743534" changeset="false"><tag k="addr:street" v="Wiley Way"/><tag k="addr:housenumber" v="9001"/></node><node id="-403" lat="30.160367" lon="-97.743864" changeset="false"><tag k="addr:street" v="Ringsby Cove"/><tag k="addr:housenumber" v="7905"/></node><node id="-404" lat="30.158393" lon="-97.736947" changeset="false"><tag k="addr:street" v="Roseborough Drive"/><tag k="addr:housenumber" v="6720"/></node><node id="-405" lat="30.149178" lon="-97.742678" changeset="false"><tag k="addr:street" v="Norwich Castle Drive"/><tag k="addr:housenumber" v="8925"/></node><node id="-406" lat="30.148957" lon="-97.743345" changeset="false"><tag k="addr:street" v="Norwich Castle Drive"/><tag k="addr:housenumber" v="9004"/></node><node id="-407" lat="30.155482" lon="-97.745017" changeset="false"><tag k="addr:street" v="Panadero Cove"/><tag k="addr:housenumber" v="6400"/></node><node id="-408" lat="30.155409" lon="-97.744825" changeset="false"><tag k="addr:street" v="Panadero Cove"/><tag k="addr:housenumber" v="6404"/></node><node id="-409" lat="30.151122" lon="-97.738771" changeset="false"><tag k="addr:street" v="Claude Court"/><tag k="addr:housenumber" v="8600"/></node><node id="-410" lat="30.158258" lon="-97.741724" changeset="false"><tag k="addr:street" v="Running Water Drive"/><tag k="addr:housenumber" v="8009"/></node><node id="-411" lat="30.158319" lon="-97.743247" changeset="false"><tag k="addr:street" v="Ken Caryl Drive"/><tag k="addr:housenumber" v="6312"/></node><node id="-412" lat="30.154836" lon="-97.743869" changeset="false"><tag k="addr:street" v="Panadero Drive"/><tag k="addr:housenumber" v="8325"/></node><node id="-413" lat="30.152116" lon="-97.746159" changeset="false"><tag k="addr:street" v="Panadero Drive"/><tag k="addr:housenumber" v="8616"/></node><node id="-414" lat="30.153183" lon="-97.738376" changeset="false"><tag k="addr:street" v="Winter Haven Road"/><tag k="addr:housenumber" v="8405"/></node><node id="-415" lat="30.137327" lon="-97.753041" changeset="false"><tag k="addr:street" v="Capitol View Drive"/><tag k="addr:housenumber" v="10008"/></node><node id="-416" lat="30.14783" lon="-97.764421" changeset="false"><tag k="addr:street" v="Cheryl Lynn Road"/><tag k="addr:housenumber" v="9704"/></node><node id="-417" lat="30.142591" lon="-97.7502" changeset="false"><tag k="addr:street" v="Capitol View Drive"/><tag k="addr:housenumber" v="9602"/></node><node id="-418" lat="30.142144" lon="-97.749138" changeset="false"><tag k="addr:street" v="Rotunda View"/><tag k="addr:housenumber" v="6706"/></node><node id="-419" lat="30.147424" lon="-97.740725" changeset="false"><tag k="addr:street" v="Edmundsbury Drive"/><tag k="addr:housenumber" v="9004"/></node><node id="-420" lat="30.146576" lon="-97.739618" changeset="false"><tag k="addr:street" v="Edmundsbury Drive"/><tag k="addr:housenumber" v="9204"/></node><node id="-421" lat="30.162354" lon="-97.738718" changeset="false"><tag k="addr:street" v="Marl Court"/><tag k="addr:housenumber" v="7608"/></node><node id="-422" lat="30.158276" lon="-97.751807" changeset="false"><tag k="addr:street" v="Nuckols Crossing Road"/><tag k="addr:housenumber" v="8501"/></node><node id="-423" lat="30.156827" lon="-97.737862" changeset="false"><tag k="addr:street" v="Flaxen Drive"/><tag k="addr:housenumber" v="8003"/></node><node id="-424" lat="30.156548" lon="-97.738257" changeset="false"><tag k="addr:street" v="Flaxen Drive"/><tag k="addr:housenumber" v="8006"/></node><node id="-425" lat="30.149039" lon="-97.740442" changeset="false"><tag k="addr:street" v="Edmundsbury Drive"/><tag k="addr:housenumber" v="8820"/></node><node id="-426" lat="30.148694" lon="-97.740513" changeset="false"><tag k="addr:street" v="Edmundsbury Drive"/><tag k="addr:housenumber" v="8832"/></node><node id="-427" lat="30.14838" lon="-97.740553" changeset="false"><tag k="addr:street" v="Edmundsbury Drive"/><tag k="addr:housenumber" v="8900"/></node><node id="-428" lat="30.148305" lon="-97.740085" changeset="false"><tag k="addr:street" v="Edmundsbury Drive"/><tag k="addr:housenumber" v="8901"/></node><node id="-429" lat="30.150084" lon="-97.745787" changeset="false"><tag k="addr:street" v="Capitol View Drive"/><tag k="addr:housenumber" v="8805"/></node><node id="-430" lat="30.148253" lon="-97.740586" changeset="false"><tag k="addr:street" v="Edmundsbury Drive"/><tag k="addr:housenumber" v="8904"/></node><node id="-431" lat="30.161701" lon="-97.738645" changeset="false"><tag k="addr:street" v="Marl Court"/><tag k="addr:housenumber" v="7625"/></node><node id="-432" lat="30.161617" lon="-97.737681" changeset="false"><tag k="addr:street" v="Springtime Trail"/><tag k="addr:housenumber" v="7533"/></node><node id="-433" lat="30.15725" lon="-97.739874" changeset="false"><tag k="addr:street" v="Bramble Bush Drive"/><tag k="addr:housenumber" v="8100"/></node><node id="-434" lat="30.154145" lon="-97.744844" changeset="false"><tag k="addr:street" v="Panadero Drive"/><tag k="addr:housenumber" v="8420"/></node><node id="-435" lat="30.159174" lon="-97.74062" changeset="false"><tag k="addr:street" v="Eudora Lane"/><tag k="addr:housenumber" v="7906"/></node><node id="-436" lat="30.150676" lon="-97.738907" changeset="false"><tag k="addr:street" v="Claude Court"/><tag k="addr:housenumber" v="8616"/></node><node id="-437" lat="30.15155" lon="-97.735906" changeset="false"><tag k="addr:street" v="Thaxton Road"/><tag k="addr:housenumber" v="8114"/></node><node id="-438" lat="30.114003" lon="-97.748206" changeset="false"><tag k="addr:street" v="Thaxton Road"/><tag k="addr:housenumber" v="10300"/></node><node id="-439" lat="30.120518" lon="-97.743764" changeset="false"><tag k="addr:street" v="Thaxton Road"/><tag k="addr:housenumber" v="10714"/></node><node id="-440" lat="30.15906" lon="-97.744477" changeset="false"><tag k="addr:street" v="Ken Caryl Drive"/><tag k="addr:housenumber" v="6209"/></node><node id="-441" lat="30.124591" lon="-97.743293" changeset="false"><tag k="addr:street" v="Thaxton Road"/><tag k="addr:housenumber" v="10508"/></node><node id="-442" lat="30.160691" lon="-97.743823" changeset="false"><tag k="addr:street" v="Ringsby Cove"/><tag k="addr:housenumber" v="7901"/></node><node id="-443" lat="30.161525" lon="-97.743073" changeset="false"><tag k="addr:street" v="Marble Creek Loop"/><tag k="addr:housenumber" v="6409"/></node><node id="-444" lat="30.147601" lon="-97.764605" changeset="false"><tag k="addr:street" v="Cheryl Lynn Road"/><tag k="addr:housenumber" v="9706"/></node><node id="-445" lat="30.152652" lon="-97.744693" changeset="false"><tag k="addr:street" v="Capitol View Drive"/><tag k="addr:housenumber" v="8508"/></node><node id="-446" lat="30.150713" lon="-97.737736" changeset="false"><tag k="addr:street" v="Deja Avenue"/><tag k="addr:housenumber" v="8529"/></node><node id="-447" lat="30.157305" lon="-97.738481" changeset="false"><tag k="addr:street" v="Forbsdale Drive"/><tag k="addr:housenumber" v="8003"/></node><node id="-448" lat="30.15286" lon="-97.734814" changeset="false"><tag k="addr:street" v="Thaxton Road"/><tag k="addr:housenumber" v="8114 1/2"/></node><node id="-449" lat="30.150859" lon="-97.738498" changeset="false"><tag k="addr:street" v="Claude Court"/><tag k="addr:housenumber" v="8605"/></node><node id="-450" lat="30.153421" lon="-97.75413" changeset="false"><tag k="addr:street" v="Baythorne Drive"/><tag k="addr:housenumber" v="5921"/></node><node id="-451" lat="30.154067" lon="-97.754768" changeset="false"><tag k="addr:street" v="Baythorne Drive"/><tag k="addr:housenumber" v="5820"/></node><node id="-452" lat="30.153871" lon="-97.754296" changeset="false"><tag k="addr:street" v="Baythorne Drive"/><tag k="addr:housenumber" v="5908"/></node><node id="-453" lat="30.153751" lon="-97.753977" changeset="false"><tag k="addr:street" v="Baythorne Drive"/><tag k="addr:housenumber" v="5920"/></node><node id="-454" lat="30.153716" lon="-97.753873" changeset="false"><tag k="addr:street" v="Baythorne Drive"/><tag k="addr:housenumber" v="5924"/></node><node id="-455" lat="30.153467" lon="-97.75425" changeset="false"><tag k="addr:street" v="Baythorne Drive"/><tag k="addr:housenumber" v="5917"/></node><node id="-456" lat="30.153335" lon="-97.75392" changeset="false"><tag k="addr:street" v="Baythorne Drive"/><tag k="addr:housenumber" v="5929"/></node><node id="-457" lat="30.153952" lon="-97.754529" changeset="false"><tag k="addr:street" v="Baythorne Drive"/><tag k="addr:housenumber" v="5900"/></node><node id="-458" lat="30.153654" lon="-97.754685" changeset="false"><tag k="addr:street" v="Baythorne Drive"/><tag k="addr:housenumber" v="5901"/></node><node id="-459" lat="30.153605" lon="-97.754565" changeset="false"><tag k="addr:street" v="Baythorne Drive"/><tag k="addr:housenumber" v="5905"/></node><node id="-460" lat="30.154238" lon="-97.755136" changeset="false"><tag k="addr:street" v="Baythorne Drive"/><tag k="addr:housenumber" v="5808"/></node><node id="-461" lat="30.154305" lon="-97.755393" changeset="false"><tag k="addr:street" v="Baythorne Drive"/><tag k="addr:housenumber" v="5800"/></node><node id="-462" lat="30.153791" lon="-97.754076" changeset="false"><tag k="addr:street" v="Baythorne Drive"/><tag k="addr:housenumber" v="5916"/></node><node id="-463" lat="30.157579" lon="-97.744444" changeset="false"><tag k="addr:street" v="Thaxton Road"/><tag k="addr:housenumber" v="7930"/></node><node id="-464" lat="30.153254" lon="-97.753684" changeset="false"><tag k="addr:street" v="Baythorne Drive"/><tag k="addr:housenumber" v="6005"/></node><node id="-465" lat="30.153539" lon="-97.753482" changeset="false"><tag k="addr:street" v="Baythorne Drive"/><tag k="addr:housenumber" v="6004"/></node><node id="-466" lat="30.153297" lon="-97.753787" changeset="false"><tag k="addr:street" v="Baythorne Drive"/><tag k="addr:housenumber" v="6001"/></node><node id="-467" lat="30.153588" lon="-97.753598" changeset="false"><tag k="addr:street" v="Baythorne Drive"/><tag k="addr:housenumber" v="6000"/></node><node id="-468" lat="30.153202" lon="-97.753568" changeset="false"><tag k="addr:street" v="Baythorne Drive"/><tag k="addr:housenumber" v="6009"/></node><node id="-469" lat="30.153496" lon="-97.753385" changeset="false"><tag k="addr:street" v="Baythorne Drive"/><tag k="addr:housenumber" v="6008"/></node><node id="-470" lat="30.154134" lon="-97.754904" changeset="false"><tag k="addr:street" v="Baythorne Drive"/><tag k="addr:housenumber" v="5816"/></node><node id="-471" lat="30.153923" lon="-97.754405" changeset="false"><tag k="addr:street" v="Baythorne Drive"/><tag k="addr:housenumber" v="5904"/></node><node id="-472" lat="30.154192" lon="-97.755003" changeset="false"><tag k="addr:street" v="Baythorne Drive"/><tag k="addr:housenumber" v="5812"/></node><node id="-473" lat="30.153507" lon="-97.754356" changeset="false"><tag k="addr:street" v="Baythorne Drive"/><tag k="addr:housenumber" v="5913"/></node><node id="-474" lat="30.153378" lon="-97.754023" changeset="false"><tag k="addr:street" v="Baythorne Drive"/><tag k="addr:housenumber" v="5925"/></node><node id="-475" lat="30.154278" lon="-97.755239" changeset="false"><tag k="addr:street" v="Baythorne Drive"/><tag k="addr:housenumber" v="5804"/></node><node id="-476" lat="30.153816" lon="-97.75418" changeset="false"><tag k="addr:street" v="Baythorne Drive"/><tag k="addr:housenumber" v="5912"/></node><node id="-477" lat="30.153556" lon="-97.754459" changeset="false"><tag k="addr:street" v="Baythorne Drive"/><tag k="addr:housenumber" v="5909"/></node><node id="-478" lat="30.147131" lon="-97.764904" changeset="false"><tag k="addr:street" v="Cheryl Lynn Road"/><tag k="addr:housenumber" v="9802"/></node><node id="-479" lat="30.161741" lon="-97.737586" changeset="false"><tag k="addr:street" v="Springtime Trail"/><tag k="addr:housenumber" v="7529"/></node><node id="-480" lat="30.152925" lon="-97.744199" changeset="false"><tag k="addr:street" v="Capitol View Drive"/><tag k="addr:housenumber" v="8501"/></node><node id="-481" lat="30.158386" lon="-97.741646" changeset="false"><tag k="addr:street" v="Running Water Drive"/><tag k="addr:housenumber" v="8007"/></node><node id="-482" lat="30.15829" lon="-97.738799" changeset="false"><tag k="addr:street" v="Bramble Bush Drive"/><tag k="addr:housenumber" v="7907"/></node><node id="-483" lat="30.161361" lon="-97.738718" changeset="false"><tag k="addr:street" v="Tara Drive"/><tag k="addr:housenumber" v="6625"/></node><node id="-484" lat="30.161396" lon="-97.742804" changeset="false"><tag k="addr:street" v="Marble Creek Loop"/><tag k="addr:housenumber" v="6417"/></node><node id="-485" lat="30.153824" lon="-97.747223" changeset="false"><tag k="addr:street" v="Thaxton Road"/><tag k="addr:housenumber" v="7864"/></node><node id="-486" lat="30.125012" lon="-97.743053" changeset="false"><tag k="addr:street" v="Thaxton Road"/><tag k="addr:housenumber" v="10500"/></node><node id="-487" lat="30.157631" lon="-97.738858" changeset="false"><tag k="addr:street" v="Forbsdale Drive"/><tag k="addr:housenumber" v="8000"/></node><node id="-488" lat="30.162515" lon="-97.738304" changeset="false"><tag k="addr:street" v="Marl Court"/><tag k="addr:housenumber" v="7601"/></node><node id="-489" lat="30.162508" lon="-97.738654" changeset="false"><tag k="addr:street" v="Marl Court"/><tag k="addr:housenumber" v="7604"/></node><node id="-490" lat="30.155847" lon="-97.740777" changeset="false"><tag k="addr:street" v="Broad Brook Drive"/><tag k="addr:housenumber" v="6724"/></node><node id="-491" lat="30.155492" lon="-97.736106" changeset="false"><tag k="addr:street" v="Marble Ridge Drive"/><tag k="addr:housenumber" v="8103"/></node><node id="-492" lat="30.139049" lon="-97.731976" changeset="false"><tag k="addr:street" v="Thaxton Road"/><tag k="addr:housenumber" v="9216"/></node><node id="-493" lat="30.152118" lon="-97.745007" changeset="false"><tag k="addr:street" v="Capitol View Drive"/><tag k="addr:housenumber" v="8604"/></node><node id="-494" lat="30.147739" lon="-97.748058" changeset="false"><tag k="addr:street" v="Capitol View Drive"/><tag k="addr:housenumber" v="9002"/></node><node id="-495" lat="30.151702" lon="-97.740292" changeset="false"><tag k="addr:street" v="Quinton Cove"/><tag k="addr:housenumber" v="8605"/></node><node id="-496" lat="30.15334" lon="-97.743604" changeset="false"><tag k="addr:street" v="Quinton Drive"/><tag k="addr:housenumber" v="6513"/></node><node id="-497" lat="30.138005" lon="-97.752908" changeset="false"><tag k="addr:street" v="Capitol View Drive"/><tag k="addr:housenumber" v="10002"/></node><node id="-498" lat="30.131347" lon="-97.737517" changeset="false"><tag k="addr:street" v="Thaxton Road"/><tag k="addr:housenumber" v="9910"/></node><node id="-499" lat="30.137162" lon="-97.753472" changeset="false"><tag k="addr:street" v="Capitol View Drive"/><tag k="addr:housenumber" v="10100"/></node><node id="-500" lat="30.13668" lon="-97.73313" changeset="false"><tag k="addr:street" v="Thaxton Road"/><tag k="addr:housenumber" v="9414"/></node><node id="-501" lat="30.152201" lon="-97.744511" changeset="false"><tag k="addr:street" v="Capitol View Drive"/><tag k="addr:housenumber" v="8521"/></node><node id="-502" lat="30.150328" lon="-97.73799" changeset="false"><tag k="addr:street" v="Deja Avenue"/><tag k="addr:housenumber" v="8613"/></node><node id="-503" lat="30.150225" lon="-97.738035" changeset="false"><tag k="addr:street" v="Deja Avenue"/><tag k="addr:housenumber" v="8617"/></node><node id="-504" lat="30.162967" lon="-97.738216" changeset="false"><tag k="addr:street" v="Marble Ridge Drive"/><tag k="addr:housenumber" v="7520"/></node><node id="-505" lat="30.162859" lon="-97.739136" changeset="false"><tag k="addr:street" v="Running Water Drive"/><tag k="addr:housenumber" v="7525"/></node><node id="-506" lat="30.155265" lon="-97.738552" changeset="false"><tag k="addr:street" v="Flaxen Drive"/><tag k="addr:housenumber" v="8201"/></node><node id="-507" lat="30.153406" lon="-97.743764" changeset="false"><tag k="addr:street" v="Quinton Drive"/><tag k="addr:housenumber" v="6509"/></node><node id="-508" lat="30.154737" lon="-97.73597" changeset="false"><tag k="addr:street" v="Thaxton Road"/><tag k="addr:housenumber" v="8094"/></node><node id="-509" lat="30.152284" lon="-97.738268" changeset="false"><tag k="addr:street" v="Sabrina Drive"/><tag k="addr:housenumber" v="6917"/></node><node id="-510" lat="30.156727" lon="-97.738289" changeset="false"><tag k="addr:street" v="Flaxen Drive"/><tag k="addr:housenumber" v="8004"/></node><node id="-511" lat="30.139392" lon="-97.731722" changeset="false"><tag k="addr:street" v="Thaxton Road"/><tag k="addr:housenumber" v="9218"/></node><node id="-512" lat="30.151984" lon="-97.745085" changeset="false"><tag k="addr:street" v="Capitol View Drive"/><tag k="addr:housenumber" v="8608"/></node><node id="-513" lat="30.156093" lon="-97.737396" changeset="false"><tag k="addr:street" v="Briarton Drive"/><tag k="addr:housenumber" v="8014"/></node><node id="-514" lat="30.15602" lon="-97.739286" changeset="false"><tag k="addr:street" v="Broad Brook Drive"/><tag k="addr:housenumber" v="6768"/></node><node id="-515" lat="30.140228" lon="-97.733569" changeset="false"><tag k="addr:street" v="Thaxton Road"/><tag k="addr:housenumber" v="9212"/></node><node id="-516" lat="30.153513" lon="-97.746903" changeset="false"><tag k="addr:street" v="Bumpstead Drive"/><tag k="addr:housenumber" v="6300"/></node><node id="-517" lat="30.153392" lon="-97.746607" changeset="false"><tag k="addr:street" v="Bumpstead Drive"/><tag k="addr:housenumber" v="6308"/></node><node id="-518" lat="30.154716" lon="-97.743963" changeset="false"><tag k="addr:street" v="Panadero Drive"/><tag k="addr:housenumber" v="8329"/></node><node id="-519" lat="30.152361" lon="-97.745995" changeset="false"><tag k="addr:street" v="Panadero Drive"/><tag k="addr:housenumber" v="8608"/></node><node id="-520" lat="30.150564" lon="-97.746519" changeset="false"><tag k="addr:street" v="Panadero Drive"/><tag k="addr:housenumber" v="8801"/></node><node id="-521" lat="30.147384" lon="-97.764746" changeset="false"><tag k="addr:street" v="Cheryl Lynn Road"/><tag k="addr:housenumber" v="9800"/></node><node id="-522" lat="30.159039" lon="-97.740695" changeset="false"><tag k="addr:street" v="Eudora Lane"/><tag k="addr:housenumber" v="7908"/></node><node id="-523" lat="30.146434" lon="-97.765405" changeset="false"><tag k="addr:street" v="Cheryl Lynn Road"/><tag k="addr:housenumber" v="9900"/></node><node id="-524" lat="30.154622" lon="-97.742487" changeset="false"><tag k="addr:street" v="Fall Meadow Lane"/><tag k="addr:housenumber" v="8416"/></node><node id="-525" lat="30.16264" lon="-97.737578" changeset="false"><tag k="addr:street" v="Marble Ridge Drive"/><tag k="addr:housenumber" v="7536"/></node><node id="-526" lat="30.162696" lon="-97.739172" changeset="false"><tag k="addr:street" v="Running Water Drive"/><tag k="addr:housenumber" v="7529"/></node><node id="-527" lat="30.136859" lon="-97.733009" changeset="false"><tag k="addr:street" v="Thaxton Road"/><tag k="addr:housenumber" v="9410"/></node><node id="-528" lat="30.153643" lon="-97.74424" changeset="false"><tag k="addr:street" v="Quinton Drive"/><tag k="addr:housenumber" v="6409"/></node><node id="-529" lat="30.152974" lon="-97.744474" changeset="false"><tag k="addr:street" v="Capitol View Drive"/><tag k="addr:housenumber" v="8500"/></node><node id="-530" lat="30.161513" lon="-97.743838" changeset="false"><tag k="addr:street" v="Roseborough Drive"/><tag k="addr:housenumber" v="6200"/></node><node id="-531" lat="30.151493" lon="-97.746557" changeset="false"><tag k="addr:street" v="Panadero Drive"/><tag k="addr:housenumber" v="8712"/></node><node id="-532" lat="30.151772" lon="-97.741079" changeset="false"><tag k="addr:street" v="Kammey Cove"/><tag k="addr:housenumber" v="8613"/></node><node id="-533" lat="30.132349" lon="-97.736625" changeset="false"><tag k="addr:street" v="Thaxton Road"/><tag k="addr:housenumber" v="9900"/></node><node id="-534" lat="30.158234" lon="-97.741314" changeset="false"><tag k="addr:street" v="Eudora Cove"/><tag k="addr:housenumber" v="6501"/></node><node id="-535" lat="30.154508" lon="-97.744632" changeset="false"><tag k="addr:street" v="Panadero Drive"/><tag k="addr:housenumber" v="8408"/></node><node id="-536" lat="30.153339" lon="-97.745414" changeset="false"><tag k="addr:street" v="Panadero Drive"/><tag k="addr:housenumber" v="8524"/></node><node id="-537" lat="30.146492" lon="-97.737473" changeset="false"><tag k="addr:street" v="Edmundsbury Drive"/><tag k="addr:housenumber" v="9412"/></node><node id="-538" lat="30.148954" lon="-97.763648" changeset="false"><tag k="addr:street" v="Cheryl Lynn Road"/><tag k="addr:housenumber" v="9602"/></node><node id="-539" lat="30.143311" lon="-97.749877" changeset="false"><tag k="addr:street" v="Capitol View Drive"/><tag k="addr:housenumber" v="9510"/></node><node id="-540" lat="30.141863" lon="-97.749827" changeset="false"><tag k="addr:street" v="Capitol View Drive"/><tag k="addr:housenumber" v="9605"/></node><node id="-541" lat="30.140725" lon="-97.751083" changeset="false"><tag k="addr:street" v="Capitol View Drive"/><tag k="addr:housenumber" v="9800"/></node><node id="-542" lat="30.16444" lon="-97.741408" changeset="false"><tag k="addr:street" v="Marble Crest Drive"/><tag k="addr:housenumber" v="7505"/></node><node id="-543" lat="30.146578" lon="-97.738974" changeset="false"><tag k="addr:street" v="Edmundsbury Drive"/><tag k="addr:housenumber" v="9224"/></node><node id="-544" lat="30.162413" lon="-97.743168" changeset="false"><tag k="addr:street" v="Marble Crest Drive"/><tag k="addr:housenumber" v="7724"/></node><node id="-545" lat="30.150614" lon="-97.737804" changeset="false"><tag k="addr:street" v="Deja Avenue"/><tag k="addr:housenumber" v="8601"/></node><node id="-546" lat="30.150609" lon="-97.738774" changeset="false"><tag k="addr:street" v="Claude Court"/><tag k="addr:housenumber" v="8617"/></node><node id="-547" lat="30.121625" lon="-97.745148" changeset="false"><tag k="addr:street" v="Thaxton Road"/><tag k="addr:housenumber" v="10700"/></node><node id="-548" lat="30.140773" lon="-97.750343" changeset="false"><tag k="addr:street" v="Capitol View Drive"/><tag k="addr:housenumber" v="9705"/></node><node id="-549" lat="30.161618" lon="-97.736581" changeset="false"><tag k="addr:street" v="Marble Ridge Drive"/><tag k="addr:housenumber" v="7629"/></node><node id="-550" lat="30.161342" lon="-97.742675" changeset="false"><tag k="addr:street" v="Marble Creek Loop"/><tag k="addr:housenumber" v="6421"/></node><node id="-551" lat="30.147032" lon="-97.737172" changeset="false"><tag k="addr:street" v="Edmundsbury Drive"/><tag k="addr:housenumber" v="9417"/></node><node id="-552" lat="30.157953" lon="-97.742194" changeset="false"><tag k="addr:street" v="Ken Caryl Drive"/><tag k="addr:housenumber" v="6407"/></node><node id="-553" lat="30.151991" lon="-97.739095" changeset="false"><tag k="addr:street" v="Doyal Drive"/><tag k="addr:housenumber" v="6905"/></node><node id="-554" lat="30.16244" lon="-97.739233" changeset="false"><tag k="addr:street" v="Running Water Drive"/><tag k="addr:housenumber" v="7537"/></node><node id="-555" lat="30.161957" lon="-97.736443" changeset="false"><tag k="addr:street" v="Marble Ridge Drive"/><tag k="addr:housenumber" v="7621"/></node><node id="-556" lat="30.162552" lon="-97.736702" changeset="false"><tag k="addr:street" v="Marble Ridge Drive"/><tag k="addr:housenumber" v="7605"/></node><node id="-557" lat="30.159173" lon="-97.744641" changeset="false"><tag k="addr:street" v="Ken Caryl Drive"/><tag k="addr:housenumber" v="6207"/></node><node id="-558" lat="30.146661" lon="-97.76461" changeset="false"><tag k="addr:street" v="Cheryl Lynn Road"/><tag k="addr:housenumber" v="9805"/></node><node id="-559" lat="30.163919" lon="-97.741702" changeset="false"><tag k="addr:street" v="Marble Crest Drive"/><tag k="addr:housenumber" v="7521"/></node><node id="-560" lat="30.135036" lon="-97.734169" changeset="false"><tag k="addr:street" v="Thaxton Road"/><tag k="addr:housenumber" v="9604"/></node><node id="-561" lat="30.158574" lon="-97.738259" changeset="false"><tag k="addr:street" v="Forbsdale Drive"/><tag k="addr:housenumber" v="7900"/></node><node id="-562" lat="30.160533" lon="-97.744318" changeset="false"><tag k="addr:street" v="Ringsby Cove"/><tag k="addr:housenumber" v="7904"/></node><node id="-563" lat="30.148732" lon="-97.763813" changeset="false"><tag k="addr:street" v="Cheryl Lynn Road"/><tag k="addr:housenumber" v="9604"/></node></osm>