<?xml version="1.0" encoding="UTF-8"?><osm version="0.6" generator="github.com/aaronlidman/osm-and-geojson"><node id="-1" lat="30.244227" lon="-97.736401" changeset="false"><tag k="addr:street" v="Reagan Terrace"/><tag k="addr:housenumber" v="1308"/><tag k="coa:place_id" v="102663"/></node><node id="-2" lat="30.245709" lon="-97.739719" changeset="false"><tag k="addr:street" v="Bonham Terrace"/><tag k="addr:housenumber" v="1017"/><tag k="coa:place_id" v="571046"/></node><node id="-3" lat="30.245676" lon="-97.739411" changeset="false"><tag k="addr:street" v="Kenwood Avenue"/><tag k="addr:housenumber" v="1406"/><tag k="coa:place_id" v="3133727"/></node><node id="-4" lat="30.25042" lon="-97.739863" changeset="false"><tag k="addr:street" v="East Riverside Drive"/><tag k="addr:housenumber" v="808"/><tag k="coa:place_id" v="572018"/></node><node id="-5" lat="30.246368" lon="-97.738087" changeset="false"><tag k="addr:street" v="Kenwood Avenue"/><tag k="addr:housenumber" v="1317"/><tag k="coa:place_id" v="571238"/></node><node id="-6" lat="30.246471" lon="-97.738002" changeset="false"><tag k="addr:street" v="Kenwood Avenue"/><tag k="addr:housenumber" v="1315"/><tag k="coa:place_id" v="571244"/></node><node id="-7" lat="30.246728" lon="-97.737617" changeset="false"><tag k="addr:street" v="Bonham Terrace"/><tag k="addr:housenumber" v="1318"/><tag k="coa:place_id" v="571190"/></node><node id="-8" lat="30.249096" lon="-97.740341" changeset="false"><tag k="addr:street" v="Alta Vista Avenue"/><tag k="addr:housenumber" v="1204"/><tag k="coa:place_id" v="498908"/></node><node id="-9" lat="30.245358" lon="-97.740594" changeset="false"><tag k="addr:street" v="Bonham Terrace"/><tag k="addr:housenumber" v="1005"/><tag k="coa:place_id" v="3775311"/></node><node id="-10" lat="30.246121" lon="-97.74001" changeset="false"><tag k="addr:street" v="Bonham Terrace"/><tag k="addr:housenumber" v="1014"/><tag k="coa:place_id" v="571352"/></node><node id="-11" lat="30.241794" lon="-97.737494" changeset="false"><tag k="addr:street" v="South Interstate Highway 35 Service Road;North Interstate Highway 35 Service Road"/><tag k="addr:housenumber" v="1620"/><tag k="coa:place_id" v="5109214"/></node><node id="-12" lat="30.247218" lon="-97.736871" changeset="false"><tag k="addr:street" v="Bonham Terrace"/><tag k="addr:housenumber" v="1311"/><tag k="coa:place_id" v="571118"/></node><node id="-13" lat="30.248266" lon="-97.737361" changeset="false"><tag k="addr:street" v="Harwood Place"/><tag k="addr:housenumber" v="1022"/><tag k="coa:place_id" v="571676"/></node><node id="-14" lat="30.248244" lon="-97.73667" changeset="false"><tag k="addr:street" v="East Riverside Drive"/><tag k="addr:housenumber" v="1101"/><tag k="coa:place_id" v="1017812"/></node><node id="-15" lat="30.241817" lon="-97.738434" changeset="false"><tag k="addr:street" v="Woodland Avenue"/><tag k="addr:housenumber" v="1300"/><tag k="coa:place_id" v="203253"/></node><node id="-16" lat="30.249456" lon="-97.741548" changeset="false"><tag k="addr:street" v="Avondale Road"/><tag k="addr:housenumber" v="800"/><tag k="coa:place_id" v="1123547"/></node><node id="-17" lat="30.246702" lon="-97.737838" changeset="false"><tag k="addr:street" v="Kenwood Avenue"/><tag k="addr:housenumber" v="1311"/><tag k="coa:place_id" v="571256"/></node><node id="-18" lat="30.247544" lon="-97.738298" changeset="false"><tag k="addr:street" v="Avondale Road"/><tag k="addr:housenumber" v="1017"/><tag k="coa:place_id" v="571562"/></node><node id="-19" lat="30.248124" lon="-97.736823" changeset="false"><tag k="addr:street" v="Kenwood Avenue"/><tag k="addr:housenumber" v="1103"/><tag k="coa:place_id" v="995966"/></node><node id="-20" lat="30.248713" lon="-97.737164" changeset="false"><tag k="addr:street" v="East Riverside Drive"/><tag k="addr:housenumber" v="1025"/><tag k="coa:place_id" v="147942"/></node><node id="-21" lat="30.250539" lon="-97.739996" changeset="false"><tag k="addr:street" v="East Riverside Drive"/><tag k="addr:housenumber" v="806"/><tag k="coa:place_id" v="572024"/></node><node id="-22" lat="30.245938" lon="-97.737582" changeset="false"><tag k="addr:street" v="Bonham Terrace"/><tag k="addr:housenumber" v="1331"/><tag k="coa:place_id" v="68857"/></node><node id="-23" lat="30.248966" lon="-97.740967" changeset="false"><tag k="addr:street" v="Avondale Road"/><tag k="addr:housenumber" v="808"/><tag k="coa:place_id" v="498944"/></node><node id="-24" lat="30.248295" lon="-97.739969" changeset="false"><tag k="addr:street" v="Avondale Road"/><tag k="addr:housenumber" v="908"/><tag k="coa:place_id" v="90949"/></node><node id="-25" lat="30.247253" lon="-97.73659" changeset="false"><tag k="addr:street" v="Bonham Terrace"/><tag k="addr:housenumber" v="1309"/><tag k="coa:place_id" v="121737"/></node><node id="-26" lat="30.250847" lon="-97.740432" changeset="false"><tag k="addr:street" v="East Riverside Drive"/><tag k="addr:housenumber" v="800"/><tag k="coa:place_id" v="572048"/></node><node id="-27" lat="30.243027" lon="-97.738576" changeset="false"><tag k="addr:street" v="Chelsea Lane"/><tag k="addr:housenumber" v="1523"/><tag k="coa:place_id" v="426573"/></node><node id="-28" lat="30.243673" lon="-97.737638" changeset="false"><tag k="addr:street" v="Betty Jo Drive"/><tag k="addr:housenumber" v="1508"/><tag k="coa:place_id" v="570722"/></node><node id="-29" lat="30.246169" lon="-97.739818" changeset="false"><tag k="addr:street" v="Bonham Terrace"/><tag k="addr:housenumber" v="1016"/><tag k="coa:place_id" v="571346"/></node><node id="-30" lat="30.248506" lon="-97.736757" changeset="false"><tag k="addr:street" v="Kenwood Avenue"/><tag k="addr:housenumber" v="1100"/><tag k="coa:place_id" v="220192"/></node><node id="-31" lat="30.243543" lon="-97.741712" changeset="false"><tag k="addr:street" v="Woodland Avenue"/><tag k="addr:housenumber" v="1004"/><tag k="coa:place_id" v="536750"/></node><node id="-32" lat="30.250076" lon="-97.737482" changeset="false"><tag k="addr:street" v="Edgecliff Terrace"/><tag k="addr:housenumber" v="1012"/><tag k="coa:place_id" v="211547"/></node><node id="-33" lat="30.245885" lon="-97.737959" changeset="false"><tag k="addr:street" v="Bonham Terrace"/><tag k="addr:housenumber" v="1333"/><tag k="coa:place_id" v="833553"/></node><node id="-34" lat="30.245858" lon="-97.738926" changeset="false"><tag k="addr:street" v="Bonham Terrace"/><tag k="addr:housenumber" v="1027"/><tag k="coa:place_id" v="571070"/></node><node id="-35" lat="30.248747" lon="-97.737351" changeset="false"><tag k="addr:street" v="East Riverside Drive"/><tag k="addr:housenumber" v="1023"/><tag k="coa:place_id" v="147763"/></node><node id="-36" lat="30.244878" lon="-97.738627" changeset="false"><tag k="addr:street" v="Reagan Terrace"/><tag k="addr:housenumber" v="1122"/><tag k="coa:place_id" v="570812"/></node><node id="-37" lat="30.245526" lon="-97.73905" changeset="false"><tag k="addr:street" v="Kenwood Avenue"/><tag k="addr:housenumber" v="1405"/><tag k="coa:place_id" v="5101320"/></node><node id="-38" lat="30.251105" lon="-97.739731" changeset="false"><tag k="addr:street" v="Edgecliff Terrace"/><tag k="addr:housenumber" v="806"/><tag k="coa:place_id" v="5135042"/></node><node id="-39" lat="30.244903" lon="-97.738483" changeset="false"><tag k="addr:street" v="Reagan Terrace"/><tag k="addr:housenumber" v="1124"/><tag k="coa:place_id" v="249645"/></node><node id="-40" lat="30.244644" lon="-97.741477" changeset="false"><tag k="addr:street" v="Travis Heights Boulevard"/><tag k="addr:housenumber" v="1515"/><tag k="coa:place_id" v="570920"/></node><node id="-41" lat="30.246913" lon="-97.739036" changeset="false"><tag k="addr:street" v="Milam Place"/><tag k="addr:housenumber" v="1011"/><tag k="coa:place_id" v="3148506"/></node><node id="-42" lat="30.24522" lon="-97.736527" changeset="false"><tag k="addr:street" v="Parkinson Drive"/><tag k="addr:housenumber" v="1401"/><tag k="coa:place_id" v="3184510"/></node><node id="-43" lat="30.247684" lon="-97.736121" changeset="false"><tag k="addr:street" v="East Riverside Drive"/><tag k="addr:housenumber" v="1111"/><tag k="coa:place_id" v="3032384"/></node><node id="-44" lat="30.248391" lon="-97.740035" changeset="false"><tag k="addr:street" v="Avondale Road"/><tag k="addr:housenumber" v="906"/><tag k="coa:place_id" v="90948"/></node><node id="-45" lat="30.247786" lon="-97.736252" changeset="false"><tag k="addr:street" v="East Riverside Drive"/><tag k="addr:housenumber" v="1109"/><tag k="coa:place_id" v="3032383"/></node><node id="-46" lat="30.242317" lon="-97.738896" changeset="false"><tag k="addr:street" v="Woodland Avenue"/><tag k="addr:housenumber" v="1204"/><tag k="coa:place_id" v="3348042"/></node><node id="-47" lat="30.24685" lon="-97.737522" changeset="false"><tag k="addr:street" v="Bonham Terrace"/><tag k="addr:housenumber" v="1316"/><tag k="coa:place_id" v="571196"/></node><node id="-48" lat="30.244765" lon="-97.738275" changeset="false"><tag k="addr:street" v="Reagan Terrace"/><tag k="addr:housenumber" v="1126 1/2"/><tag k="coa:place_id" v="570782"/></node><node id="-49" lat="30.244735" lon="-97.740354" changeset="false"><tag k="addr:street" v="Kenwood Avenue"/><tag k="addr:housenumber" v="1509"/><tag k="coa:place_id" v="3515998"/></node><node id="-50" lat="30.245047" lon="-97.736587" changeset="false"><tag k="addr:street" v="Parkinson Drive"/><tag k="addr:housenumber" v="1405"/><tag k="coa:place_id" v="3310866"/></node><node id="-51" lat="30.245358" lon="-97.740201" changeset="false"><tag k="addr:street" v="Kenwood Avenue"/><tag k="addr:housenumber" v="1416"/><tag k="coa:place_id" v="571010"/></node><node id="-52" lat="30.249365" lon="-97.740446" changeset="false"><tag k="addr:street" v="Rutherford Place"/><tag k="addr:housenumber" v="813"/><tag k="coa:place_id" v="3124357"/></node><node id="-53" lat="30.244513" lon="-97.74027" changeset="false"><tag k="addr:street" v="Reagan Terrace"/><tag k="addr:housenumber" v="1100"/><tag k="coa:place_id" v="570866"/></node><node id="-54" lat="30.249891" lon="-97.737911" changeset="false"><tag k="addr:street" v="Edgecliff Terrace"/><tag k="addr:housenumber" v="1009"/><tag k="coa:place_id" v="571748"/></node><node id="-55" lat="30.246578" lon="-97.737899" changeset="false"><tag k="addr:street" v="Kenwood Avenue"/><tag k="addr:housenumber" v="1313"/><tag k="coa:place_id" v="571250"/></node><node id="-56" lat="30.24631" lon="-97.737345" changeset="false"><tag k="addr:street" v="Bonham Terrace"/><tag k="addr:housenumber" v="1325"/><tag k="coa:place_id" v="5108244"/></node><node id="-57" lat="30.245963" lon="-97.737848" changeset="false"><tag k="addr:street" v="Bonham Terrace"/><tag k="addr:housenumber" v="1331 1/2"/><tag k="coa:place_id" v="589834"/></node><node id="-58" lat="30.247011" lon="-97.737777" changeset="false"><tag k="addr:street" v="Kenwood Avenue"/><tag k="addr:housenumber" v="1307"/><tag k="coa:place_id" v="571268"/></node><node id="-59" lat="30.246961" lon="-97.738266" changeset="false"><tag k="addr:street" v="Milam Place"/><tag k="addr:housenumber" v="1019"/><tag k="coa:place_id" v="441718"/></node><node id="-60" lat="30.249241" lon="-97.738129" changeset="false"><tag k="addr:street" v="East Riverside Drive"/><tag k="addr:housenumber" v="1009"/><tag k="coa:place_id" v="3034221"/></node><node id="-61" lat="30.248189" lon="-97.739153" changeset="false"><tag k="addr:street" v="Travis Heights Boulevard"/><tag k="addr:housenumber" v="1205"/><tag k="coa:place_id" v="571616"/></node><node id="-62" lat="30.250301" lon="-97.74065" changeset="false"><tag k="addr:street" v="Alameda Drive"/><tag k="addr:housenumber" v="1105"/><tag k="coa:place_id" v="498788"/></node><node id="-63" lat="30.24226" lon="-97.73875" changeset="false"><tag k="addr:street" v="Woodland Avenue"/><tag k="addr:housenumber" v="1208"/><tag k="coa:place_id" v="570632"/></node><node id="-64" lat="30.244772" lon="-97.739244" changeset="false"><tag k="addr:street" v="Reagan Terrace"/><tag k="addr:housenumber" v="1114"/><tag k="coa:place_id" v="575474"/></node><node id="-65" lat="30.248412" lon="-97.737637" changeset="false"><tag k="addr:street" v="Harwood Place"/><tag k="addr:housenumber" v="1018"/><tag k="coa:place_id" v="3106336"/></node><node id="-66" lat="30.25066" lon="-97.74017" changeset="false"><tag k="addr:street" v="East Riverside Drive"/><tag k="addr:housenumber" v="804"/><tag k="coa:place_id" v="572036"/></node><node id="-67" lat="30.247166" lon="-97.737727" changeset="false"><tag k="addr:street" v="Kenwood Avenue"/><tag k="addr:housenumber" v="1305"/><tag k="coa:place_id" v="491824"/></node><node id="-68" lat="30.248221" lon="-97.739919" changeset="false"><tag k="addr:street" v="Avondale Road"/><tag k="addr:housenumber" v="904"/><tag k="coa:place_id" v="553972"/></node><node id="-69" lat="30.2448" lon="-97.739101" changeset="false"><tag k="addr:street" v="Reagan Terrace"/><tag k="addr:housenumber" v="1116"/><tag k="coa:place_id" v="570830"/></node><node id="-70" lat="30.248808" lon="-97.740501" changeset="false"><tag k="addr:street" v="Alta Vista Avenue"/><tag k="addr:housenumber" v="1206"/><tag k="coa:place_id" v="241769"/></node><node id="-71" lat="30.251027" lon="-97.739523" changeset="false"><tag k="addr:street" v="Edgecliff Terrace"/><tag k="addr:housenumber" v="808"/><tag k="coa:place_id" v="571964"/></node><node id="-72" lat="30.250762" lon="-97.740298" changeset="false"><tag k="addr:street" v="East Riverside Drive"/><tag k="addr:housenumber" v="802"/><tag k="coa:place_id" v="572042"/></node><node id="-73" lat="30.246676" lon="-97.738439" changeset="false"><tag k="addr:street" v="Kenwood Avenue"/><tag k="addr:housenumber" v="1312"/><tag k="coa:place_id" v="571298"/></node><node id="-74" lat="30.246562" lon="-97.738508" changeset="false"><tag k="addr:street" v="Kenwood Avenue"/><tag k="addr:housenumber" v="1314"/><tag k="coa:place_id" v="571304"/></node><node id="-75" lat="30.248141" lon="-97.739743" changeset="false"><tag k="addr:street" v="Travis Heights Boulevard"/><tag k="addr:housenumber" v="1208"/><tag k="coa:place_id" v="499358"/></node><node id="-76" lat="30.248213" lon="-97.739683" changeset="false"><tag k="addr:street" v="Travis Heights Boulevard"/><tag k="addr:housenumber" v="1206"/><tag k="coa:place_id" v="499352"/></node></osm>