<?xml version="1.0" encoding="UTF-8"?><osm version="0.6" generator="github.com/aaronlidman/osm-and-geojson"><node id="-1" lat="30.297685" lon="-97.736323" changeset="false"><tag k="addr:street" v="West 33rd Street"/><tag k="addr:housenumber" v="107"/><tag k="coa:place_id" v="984873"/></node><node id="-2" lat="30.300836" lon="-97.739126" changeset="false"><tag k="addr:street" v="Guadalupe Street"/><tag k="addr:housenumber" v="3415"/><tag k="coa:place_id" v="163232"/></node><node id="-3" lat="30.298235" lon="-97.740781" changeset="false"><tag k="addr:street" v="Guadalupe Street"/><tag k="addr:housenumber" v="3107"/><tag k="coa:place_id" v="89320"/></node><node id="-4" lat="30.29768" lon="-97.740727" changeset="false"><tag k="addr:street" v="Guadalupe Street"/><tag k="addr:housenumber" v="3101"/><tag k="coa:place_id" v="245933"/></node><node id="-5" lat="30.296229" lon="-97.738923" changeset="false"><tag k="addr:street" v="Whitis Avenue"/><tag k="addr:housenumber" v="3102"/><tag k="coa:place_id" v="629714"/></node><node id="-6" lat="30.301766" lon="-97.738461" changeset="false"><tag k="addr:street" v="West 37th Street"/><tag k="addr:housenumber" v="511"/><tag k="coa:place_id" v="253501"/></node><node id="-7" lat="30.299829" lon="-97.739036" changeset="false"><tag k="addr:street" v="West 34th Street"/><tag k="addr:housenumber" v="501"/><tag k="coa:place_id" v="253431"/></node><node id="-8" lat="30.300839" lon="-97.73449" changeset="false"><tag k="addr:street" v="West 38th Street"/><tag k="addr:housenumber" v="111"/><tag k="coa:place_id" v="102393"/></node><node id="-9" lat="30.301797" lon="-97.738549" changeset="false"><tag k="addr:street" v="West 37th Street"/><tag k="addr:housenumber" v="519"/><tag k="coa:place_id" v="214448"/></node><node id="-10" lat="30.302642" lon="-97.738027" changeset="false"><tag k="addr:street" v="Guadalupe Street"/><tag k="addr:housenumber" v="3715"/><tag k="coa:place_id" v="163268"/></node><node id="-11" lat="30.300233" lon="-97.739071" changeset="false"><tag k="addr:street" v="West 34th Street"/><tag k="addr:housenumber" v="506"/><tag k="coa:place_id" v="671198"/></node><node id="-12" lat="30.296533" lon="-97.737688" changeset="false"><tag k="addr:street" v="Laurel Lane"/><tag k="addr:housenumber" v="115 1/2"/><tag k="coa:place_id" v="629774"/></node><node id="-13" lat="30.298389" lon="-97.737991" changeset="false"><tag k="addr:street" v="Hemphill Park"/><tag k="addr:housenumber" v="3209"/><tag k="coa:place_id" v="631976"/></node><node id="-14" lat="30.301657" lon="-97.7384" changeset="false"><tag k="addr:street" v="West 37th Street"/><tag k="addr:housenumber" v="509"/><tag k="coa:place_id" v="671858"/></node><node id="-15" lat="30.297074" lon="-97.739578" changeset="false"><tag k="addr:street" v="Wheeler Street"/><tag k="addr:housenumber" v="3101"/><tag k="coa:place_id" v="632528"/></node><node id="-16" lat="30.299233" lon="-97.73445" changeset="false"><tag k="addr:street" v="West 35th Street"/><tag k="addr:housenumber" v="101"/><tag k="coa:place_id" v="669356"/></node><node id="-17" lat="30.299679" lon="-97.738778" changeset="false"><tag k="addr:street" v="West 34th Street"/><tag k="addr:housenumber" v="409"/><tag k="coa:place_id" v="633032"/></node><node id="-18" lat="30.296647" lon="-97.739108" changeset="false"><tag k="addr:street" v="Hemphill Park"/><tag k="addr:housenumber" v="3109"/><tag k="coa:place_id" v="629744"/></node><node id="-19" lat="30.298652" lon="-97.736514" changeset="false"><tag k="addr:street" v="West 34th Street"/><tag k="addr:housenumber" v="115"/><tag k="coa:place_id" v="632162"/></node><node id="-20" lat="30.299532" lon="-97.734791" changeset="false"><tag k="addr:street" v="West 35th Street"/><tag k="addr:housenumber" v="106"/><tag k="coa:place_id" v="669974"/></node><node id="-21" lat="30.295191" lon="-97.737312" changeset="false"><tag k="addr:street" v="West 31st Street"/><tag k="addr:housenumber" v="105"/><tag k="coa:place_id" v="253337"/></node><node id="-22" lat="30.296024" lon="-97.740688" changeset="false"><tag k="addr:street" v="West 30th Street"/><tag k="addr:housenumber" v="404"/><tag k="coa:place_id" v="632756"/></node><node id="-23" lat="30.296346" lon="-97.739617" changeset="false"><tag k="addr:street" v="Hemphill Park"/><tag k="addr:housenumber" v="3013"/><tag k="coa:place_id" v="632744"/></node><node id="-24" lat="30.29586" lon="-97.738014" changeset="false"><tag k="addr:street" v="West 31st Street"/><tag k="addr:housenumber" v="200"/><tag k="coa:place_id" v="1013450"/></node><node id="-25" lat="30.301534" lon="-97.738586" changeset="false"><tag k="addr:street" v="Guadalupe Street"/><tag k="addr:housenumber" v="3511"/><tag k="coa:place_id" v="671840"/></node><node id="-26" lat="30.295084" lon="-97.737068" changeset="false"><tag k="addr:street" v="West 31st Street"/><tag k="addr:housenumber" v="101"/><tag k="coa:place_id" v="253335"/></node><node id="-27" lat="30.295854" lon="-97.740303" changeset="false"><tag k="addr:street" v="West 30th Street"/><tag k="addr:housenumber" v="400"/><tag k="coa:place_id" v="632750"/></node><node id="-28" lat="30.29614" lon="-97.738973" changeset="false"><tag k="addr:street" v="Whitis Avenue"/><tag k="addr:housenumber" v="3100"/><tag k="coa:place_id" v="629720"/></node><node id="-29" lat="30.300122" lon="-97.738874" changeset="false"><tag k="addr:street" v="West 34th Street"/><tag k="addr:housenumber" v="502"/><tag k="coa:place_id" v="671180"/></node><node id="-30" lat="30.299187" lon="-97.74023" changeset="false"><tag k="addr:street" v="Guadalupe Street"/><tag k="addr:housenumber" v="3203"/><tag k="coa:place_id" v="632972"/></node><node id="-31" lat="30.299938" lon="-97.739267" changeset="false"><tag k="addr:street" v="West 34th Street"/><tag k="addr:housenumber" v="505"/><tag k="coa:place_id" v="632990"/></node><node id="-32" lat="30.298444" lon="-97.736642" changeset="false"><tag k="addr:street" v="West 33rd Street"/><tag k="addr:housenumber" v="114"/><tag k="coa:place_id" v="3345500"/></node><node id="-33" lat="30.29467" lon="-97.73795" changeset="false"><tag k="addr:street" v="West 30th Street"/><tag k="addr:housenumber" v="108"/><tag k="coa:place_id" v="590174"/></node><node id="-34" lat="30.299578" lon="-97.734519" changeset="false"><tag k="addr:street" v="West 35th Street"/><tag k="addr:housenumber" v="104"/><tag k="coa:place_id" v="253453"/></node><node id="-35" lat="30.301828" lon="-97.737836" changeset="false"><tag k="addr:street" v="West 37th Street"/><tag k="addr:housenumber" v="506"/><tag k="coa:place_id" v="166773"/></node><node id="-36" lat="30.298728" lon="-97.740031" changeset="false"><tag k="addr:street" v="West 32nd Street"/><tag k="addr:housenumber" v="416"/><tag k="coa:place_id" v="632462"/></node><node id="-37" lat="30.295762" lon="-97.740255" changeset="false"><tag k="addr:street" v="Hemphill Park"/><tag k="addr:housenumber" v="3000"/><tag k="coa:place_id" v="632720"/></node><node id="-38" lat="30.29648" lon="-97.739142" changeset="false"><tag k="addr:street" v="Hemphill Park"/><tag k="addr:housenumber" v="3107"/><tag k="coa:place_id" v="629732"/></node><node id="-39" lat="30.298877" lon="-97.736801" changeset="false"><tag k="addr:street" v="West 34th Street"/><tag k="addr:housenumber" v="301"/><tag k="coa:place_id" v="633050"/></node><node id="-40" lat="30.295686" lon="-97.738025" changeset="false"><tag k="addr:street" v="Cedar Street"/><tag k="addr:housenumber" v="3100"/><tag k="coa:place_id" v="1004732"/></node><node id="-41" lat="30.299398" lon="-97.734533" changeset="false"><tag k="addr:street" v="West 35th Street"/><tag k="addr:housenumber" v="103"/><tag k="coa:place_id" v="669350"/></node><node id="-42" lat="30.296313" lon="-97.736895" changeset="false"><tag k="addr:street" v="Laurel Lane"/><tag k="addr:housenumber" v="104 1/2"/><tag k="coa:place_id" v="630224"/></node><node id="-43" lat="30.297221" lon="-97.738677" changeset="false"><tag k="addr:street" v="Hemphill Park"/><tag k="addr:housenumber" v="3121"/><tag k="coa:place_id" v="630332"/></node><node id="-44" lat="30.296058" lon="-97.740237" changeset="false"><tag k="addr:street" v="Hemphill Park"/><tag k="addr:housenumber" v="3004"/><tag k="coa:place_id" v="632708"/></node><node id="-45" lat="30.300177" lon="-97.738989" changeset="false"><tag k="addr:street" v="West 34th Street"/><tag k="addr:housenumber" v="504"/><tag k="coa:place_id" v="671186"/></node><node id="-46" lat="30.295632" lon="-97.740064" changeset="false"><tag k="addr:street" v="Hemphill Park"/><tag k="addr:housenumber" v="3001"/><tag k="coa:place_id" v="632732"/></node><node id="-47" lat="30.299519" lon="-97.735894" changeset="false"><tag k="addr:street" v="Cedar Street"/><tag k="addr:housenumber" v="3410"/><tag k="coa:place_id" v="148549"/></node><node id="-48" lat="30.299606" lon="-97.738525" changeset="false"><tag k="addr:street" v="West 34th Street"/><tag k="addr:housenumber" v="407"/><tag k="coa:place_id" v="253428"/></node><node id="-49" lat="30.294652" lon="-97.737374" changeset="false"><tag k="addr:street" v="University Avenue,1100"/><tag k="addr:housenumber" v="3004 1/2"/><tag k="coa:place_id" v="629540"/></node><node id="-50" lat="30.295327" lon="-97.739468" changeset="false"><tag k="addr:street" v="Whitis Avenue"/><tag k="addr:housenumber" v="3000"/><tag k="coa:place_id" v="629402"/></node><node id="-51" lat="30.299398" lon="-97.73604" changeset="false"><tag k="addr:street" v="Cedar Street"/><tag k="addr:housenumber" v="3408"/><tag k="coa:place_id" v="670874"/></node><node id="-52" lat="30.296623" lon="-97.738908" changeset="false"><tag k="addr:street" v="Hemphill Park"/><tag k="addr:housenumber" v="3111"/><tag k="coa:place_id" v="630302"/></node><node id="-53" lat="30.29844" lon="-97.735605" changeset="false"><tag k="addr:street" v="West 34th Street"/><tag k="addr:housenumber" v="109"/><tag k="coa:place_id" v="633056"/></node><node id="-54" lat="30.299505" lon="-97.735352" changeset="false"><tag k="addr:street" v="Cedar Street"/><tag k="addr:housenumber" v="3415"/><tag k="coa:place_id" v="669332"/></node><node id="-55" lat="30.299609" lon="-97.735298" changeset="false"><tag k="addr:street" v="Cedar Street"/><tag k="addr:housenumber" v="3417"/><tag k="coa:place_id" v="669344"/></node><node id="-56" lat="30.302369" lon="-97.737964" changeset="false"><tag k="addr:street" v="Guadalupe Street"/><tag k="addr:housenumber" v="3713"/><tag k="coa:place_id" v="163262"/></node><node id="-57" lat="30.302266" lon="-97.738028" changeset="false"><tag k="addr:street" v="Guadalupe Street"/><tag k="addr:housenumber" v="3711"/><tag k="coa:place_id" v="672128"/></node><node id="-58" lat="30.301223" lon="-97.738693" changeset="false"><tag k="addr:street" v="West 35th Street"/><tag k="addr:housenumber" v="510"/><tag k="coa:place_id" v="671834"/></node><node id="-59" lat="30.301384" lon="-97.738652" changeset="false"><tag k="addr:street" v="Guadalupe Street"/><tag k="addr:housenumber" v="3501"/><tag k="coa:place_id" v="207095"/></node><node id="-60" lat="30.299905" lon="-97.739728" changeset="false"><tag k="addr:street" v="West 33rd Street"/><tag k="addr:housenumber" v="512"/><tag k="coa:place_id" v="604797"/></node><node id="-61" lat="30.299993" lon="-97.739382" changeset="false"><tag k="addr:street" v="West 34th Street"/><tag k="addr:housenumber" v="507"/><tag k="coa:place_id" v="480381"/></node><node id="-62" lat="30.299793" lon="-97.739495" changeset="false"><tag k="addr:street" v="West 33rd Street"/><tag k="addr:housenumber" v="504"/><tag k="coa:place_id" v="604743"/></node><node id="-63" lat="30.299839" lon="-97.739622" changeset="false"><tag k="addr:street" v="West 33rd Street"/><tag k="addr:housenumber" v="508"/><tag k="coa:place_id" v="604779"/></node><node id="-64" lat="30.299863" lon="-97.739705" changeset="false"><tag k="addr:street" v="West 33rd Street"/><tag k="addr:housenumber" v="510"/><tag k="coa:place_id" v="564807"/></node><node id="-65" lat="30.299813" lon="-97.739561" changeset="false"><tag k="addr:street" v="West 33rd Street"/><tag k="addr:housenumber" v="506"/><tag k="coa:place_id" v="604767"/></node><node id="-66" lat="30.300464" lon="-97.739385" changeset="false"><tag k="addr:street" v="Guadalupe Street"/><tag k="addr:housenumber" v="3403"/><tag k="coa:place_id" v="671228"/></node><node id="-67" lat="30.300575" lon="-97.739237" changeset="false"><tag k="addr:street" v="Guadalupe Street"/><tag k="addr:housenumber" v="3407"/><tag k="coa:place_id" v="3083528"/></node><node id="-68" lat="30.300534" lon="-97.73934" changeset="false"><tag k="addr:street" v="Guadalupe Street"/><tag k="addr:housenumber" v="3405"/><tag k="coa:place_id" v="163220"/></node><node id="-69" lat="30.300658" lon="-97.739242" changeset="false"><tag k="addr:street" v="Guadalupe Street"/><tag k="addr:housenumber" v="3409"/><tag k="coa:place_id" v="163226"/></node><node id="-70" lat="30.300396" lon="-97.739414" changeset="false"><tag k="addr:street" v="Guadalupe Street"/><tag k="addr:housenumber" v="3401"/><tag k="coa:place_id" v="665716"/></node><node id="-71" lat="30.295359" lon="-97.737676" changeset="false"><tag k="addr:street" v="West 31st Street"/><tag k="addr:housenumber" v="109"/><tag k="coa:place_id" v="629486"/></node><node id="-72" lat="30.295277" lon="-97.73774" changeset="false"><tag k="addr:street" v="Cedar Street"/><tag k="addr:housenumber" v="3009"/><tag k="coa:place_id" v="629366"/></node><node id="-73" lat="30.295951" lon="-97.73822" changeset="false"><tag k="addr:street" v="West 31st Street"/><tag k="addr:housenumber" v="202"/><tag k="coa:place_id" v="253338"/></node><node id="-74" lat="30.295962" lon="-97.738243" changeset="false"><tag k="addr:street" v="West 31st Street"/><tag k="addr:housenumber" v="202 1/2"/><tag k="coa:place_id" v="253339"/></node><node id="-75" lat="30.297024" lon="-97.741446" changeset="false"><tag k="addr:street" v="Guadalupe Street"/><tag k="addr:housenumber" v="3023"/><tag k="coa:place_id" v="163172"/></node><node id="-76" lat="30.297108" lon="-97.741382" changeset="false"><tag k="addr:street" v="Guadalupe Street"/><tag k="addr:housenumber" v="3025"/><tag k="coa:place_id" v="163178"/></node><node id="-77" lat="30.296582" lon="-97.741618" changeset="false"><tag k="addr:street" v="Guadalupe Street"/><tag k="addr:housenumber" v="3001"/><tag k="coa:place_id" v="590150"/></node><node id="-78" lat="30.29674" lon="-97.741676" changeset="false"><tag k="addr:street" v="Guadalupe Street"/><tag k="addr:housenumber" v="3009"/><tag k="coa:place_id" v="115609"/></node><node id="-79" lat="30.296678" lon="-97.741631" changeset="false"><tag k="addr:street" v="Guadalupe Street"/><tag k="addr:housenumber" v="3005"/><tag k="coa:place_id" v="632948"/></node></osm>