<?xml version="1.0" encoding="UTF-8"?><osm version="0.6" generator="github.com/aaronlidman/osm-and-geojson"><node id="-1" lat="30.224284" lon="-97.802143" changeset="false"><tag k="addr:street" v="Jones Road"/><tag k="addr:housenumber" v="2607"/><tag k="addr:postcode" v="78745"/></node><node id="-2" lat="30.219104" lon="-97.804875" changeset="false"><tag k="addr:street" v="Stoutwood Circle"/><tag k="addr:housenumber" v="2506"/><tag k="addr:postcode" v="78745"/></node><node id="-3" lat="30.220315" lon="-97.797978" changeset="false"><tag k="addr:street" v="Pin Oak Path"/><tag k="addr:housenumber" v="5206"/><tag k="addr:postcode" v="78745"/></node><node id="-4" lat="30.224987" lon="-97.804125" changeset="false"><tag k="addr:street" v="West Gate Boulevard"/><tag k="addr:housenumber" v="5121 1/2"/><tag k="addr:postcode" v="78745"/></node><node id="-5" lat="30.219638" lon="-97.805289" changeset="false"><tag k="addr:street" v="Stoutwood Circle"/><tag k="addr:housenumber" v="2534"/><tag k="addr:postcode" v="78745"/></node><node id="-6" lat="30.22356" lon="-97.80252" changeset="false"><tag k="addr:street" v="Tahoe Trail"/><tag k="addr:housenumber" v="5205"/><tag k="addr:postcode" v="78745"/></node><node id="-7" lat="30.223484" lon="-97.800366" changeset="false"><tag k="addr:street" v="Jones Road"/><tag k="addr:housenumber" v="2501"/><tag k="addr:postcode" v="78745"/></node><node id="-8" lat="30.222857" lon="-97.802712" changeset="false"><tag k="addr:street" v="Ektom Drive"/><tag k="addr:housenumber" v="2603"/><tag k="addr:postcode" v="78745"/></node><node id="-9" lat="30.219591" lon="-97.805487" changeset="false"><tag k="addr:street" v="Stoutwood Circle"/><tag k="addr:housenumber" v="2538"/><tag k="addr:postcode" v="78745"/></node><node id="-10" lat="30.22347" lon="-97.800292" changeset="false"><tag k="addr:street" v="Jones Road"/><tag k="addr:housenumber" v="2501 1/2"/><tag k="addr:postcode" v="78745"/></node><node id="-11" lat="30.219148" lon="-97.805041" changeset="false"><tag k="addr:street" v="Stoutwood Circle"/><tag k="addr:housenumber" v="2505"/><tag k="addr:postcode" v="78745"/></node><node id="-12" lat="30.218129" lon="-97.795883" changeset="false"><tag k="addr:street" v="Manchaca Road"/><tag k="addr:housenumber" v="5310"/><tag k="addr:postcode" v="78745"/></node><node id="-13" lat="30.219738" lon="-97.806471" changeset="false"><tag k="addr:street" v="West Gate Boulevard"/><tag k="addr:housenumber" v="5611"/><tag k="addr:postcode" v="78745"/></node><node id="-14" lat="30.217129" lon="-97.798718" changeset="false"><tag k="addr:street" v="West Stassney Lane"/><tag k="addr:housenumber" v="2048"/><tag k="addr:postcode" v="78745"/></node><node id="-15" lat="30.221154" lon="-97.796317" changeset="false"><tag k="addr:street" v="Plumas Lane"/><tag k="addr:housenumber" v="5104"/><tag k="addr:postcode" v="78745"/></node><node id="-16" lat="30.22048" lon="-97.796698" changeset="false"><tag k="addr:street" v="Fair Oaks Drive"/><tag k="addr:housenumber" v="2100"/><tag k="addr:postcode" v="78745"/></node><node id="-17" lat="30.224564" lon="-97.802941" changeset="false"><tag k="addr:street" v="Jones Road"/><tag k="addr:housenumber" v="2615"/><tag k="addr:postcode" v="78745"/></node><node id="-18" lat="30.220706" lon="-97.795488" changeset="false"><tag k="addr:street" v="Oakglen Drive"/><tag k="addr:housenumber" v="2008"/><tag k="addr:postcode" v="78745"/></node><node id="-19" lat="30.219429" lon="-97.805042" changeset="false"><tag k="addr:street" v="Stoutwood Circle"/><tag k="addr:housenumber" v="2531"/><tag k="addr:postcode" v="78745"/></node><node id="-20" lat="30.218365" lon="-97.799064" changeset="false"><tag k="addr:street" v="Fairmont Circle"/><tag k="addr:housenumber" v="5422"/><tag k="addr:postcode" v="78745"/></node><node id="-21" lat="30.219451" lon="-97.804888" changeset="false"><tag k="addr:street" v="Stoutwood Circle"/><tag k="addr:housenumber" v="2518"/><tag k="addr:postcode" v="78745"/></node><node id="-22" lat="30.224358" lon="-97.802264" changeset="false"><tag k="addr:street" v="Jones Road"/><tag k="addr:housenumber" v="2609"/><tag k="addr:postcode" v="78745"/></node><node id="-23" lat="30.225182" lon="-97.803881" changeset="false"><tag k="addr:street" v="Jones Road"/><tag k="addr:housenumber" v="2629"/><tag k="addr:postcode" v="78745"/></node><node id="-24" lat="30.220635" lon="-97.79787" changeset="false"><tag k="addr:street" v="Pin Oak Path"/><tag k="addr:housenumber" v="5208"/><tag k="addr:postcode" v="78745"/></node><node id="-25" lat="30.224627" lon="-97.803074" changeset="false"><tag k="addr:street" v="Jones Road"/><tag k="addr:housenumber" v="2617"/><tag k="addr:postcode" v="78745"/></node><node id="-26" lat="30.219624" lon="-97.805151" changeset="false"><tag k="addr:street" v="Stoutwood Circle"/><tag k="addr:housenumber" v="2532"/><tag k="addr:postcode" v="78745"/></node><node id="-27" lat="30.2196" lon="-97.80541" changeset="false"><tag k="addr:street" v="Stoutwood Circle"/><tag k="addr:housenumber" v="2536"/><tag k="addr:postcode" v="78745"/></node><node id="-28" lat="30.218443" lon="-97.795934" changeset="false"><tag k="addr:street" v="Manchaca Road"/><tag k="addr:housenumber" v="5304"/><tag k="addr:postcode" v="78745"/></node><node id="-29" lat="30.218552" lon="-97.795859" changeset="false"><tag k="addr:street" v="Manchaca Road"/><tag k="addr:housenumber" v="5300"/><tag k="addr:postcode" v="78745"/></node><node id="-30" lat="30.218213" lon="-97.796232" changeset="false"><tag k="addr:street" v="Manchaca Road"/><tag k="addr:housenumber" v="5314"/><tag k="addr:postcode" v="78745"/></node><node id="-31" lat="30.218283" lon="-97.796185" changeset="false"><tag k="addr:street" v="Manchaca Road"/><tag k="addr:housenumber" v="5312"/><tag k="addr:postcode" v="78745"/></node><node id="-32" lat="30.218145" lon="-97.796265" changeset="false"><tag k="addr:street" v="Manchaca Road"/><tag k="addr:housenumber" v="5316"/><tag k="addr:postcode" v="78745"/></node><node id="-33" lat="30.2177" lon="-97.79657" changeset="false"><tag k="addr:street" v="Manchaca Road"/><tag k="addr:housenumber" v="5330"/><tag k="addr:postcode" v="78745"/></node><node id="-34" lat="30.218063" lon="-97.796325" changeset="false"><tag k="addr:street" v="Manchaca Road"/><tag k="addr:housenumber" v="5318"/><tag k="addr:postcode" v="78745"/></node><node id="-35" lat="30.217922" lon="-97.796418" changeset="false"><tag k="addr:street" v="Manchaca Road"/><tag k="addr:housenumber" v="5322"/><tag k="addr:postcode" v="78745"/></node><node id="-36" lat="30.217862" lon="-97.796455" changeset="false"><tag k="addr:street" v="Manchaca Road"/><tag k="addr:housenumber" v="5324"/><tag k="addr:postcode" v="78745"/></node><node id="-37" lat="30.21775" lon="-97.796533" changeset="false"><tag k="addr:street" v="Manchaca Road"/><tag k="addr:housenumber" v="5328"/><tag k="addr:postcode" v="78745"/></node><node id="-38" lat="30.217993" lon="-97.79637" changeset="false"><tag k="addr:street" v="Manchaca Road"/><tag k="addr:housenumber" v="5320"/><tag k="addr:postcode" v="78745"/></node><node id="-39" lat="30.217802" lon="-97.796492" changeset="false"><tag k="addr:street" v="Manchaca Road"/><tag k="addr:housenumber" v="5326"/><tag k="addr:postcode" v="78745"/></node><node id="-40" lat="30.224443" lon="-97.80267" changeset="false"><tag k="addr:street" v="Jones Road"/><tag k="addr:housenumber" v="2611"/><tag k="addr:postcode" v="78745"/></node><node id="-41" lat="30.224492" lon="-97.802804" changeset="false"><tag k="addr:street" v="Jones Road"/><tag k="addr:housenumber" v="2613"/><tag k="addr:postcode" v="78745"/></node><node id="-42" lat="30.22432" lon="-97.804393" changeset="false"><tag k="addr:street" v="Tahoe Trail"/><tag k="addr:housenumber" v="5221"/><tag k="addr:postcode" v="78745"/></node><node id="-43" lat="30.224235" lon="-97.80425" changeset="false"><tag k="addr:street" v="Tahoe Trail"/><tag k="addr:housenumber" v="5219"/><tag k="addr:postcode" v="78745"/></node><node id="-44" lat="30.22471" lon="-97.80323" changeset="false"><tag k="addr:street" v="Jones Road"/><tag k="addr:housenumber" v="2619"/><tag k="addr:postcode" v="78745"/></node><node id="-45" lat="30.224756" lon="-97.803342" changeset="false"><tag k="addr:street" v="Jones Road"/><tag k="addr:housenumber" v="2621"/><tag k="addr:postcode" v="78745"/></node><node id="-46" lat="30.225169" lon="-97.803646" changeset="false"><tag k="addr:street" v="Jones Road"/><tag k="addr:housenumber" v="2627"/><tag k="addr:postcode" v="78745"/></node><node id="-47" lat="30.225108" lon="-97.803497" changeset="false"><tag k="addr:street" v="Jones Road"/><tag k="addr:housenumber" v="2625"/><tag k="addr:postcode" v="78745"/></node><node id="-48" lat="30.219633" lon="-97.804531" changeset="false"><tag k="addr:street" v="Stoutwood Circle"/><tag k="addr:housenumber" v="2520"/><tag k="addr:postcode" v="78745"/></node><node id="-49" lat="30.219711" lon="-97.804582" changeset="false"><tag k="addr:street" v="Stoutwood Circle"/><tag k="addr:housenumber" v="2522"/><tag k="addr:postcode" v="78745"/></node><node id="-50" lat="30.219445" lon="-97.804535" changeset="false"><tag k="addr:street" v="Stoutwood Circle"/><tag k="addr:housenumber" v="2516"/><tag k="addr:postcode" v="78745"/></node><node id="-51" lat="30.219344" lon="-97.804554" changeset="false"><tag k="addr:street" v="Stoutwood Circle"/><tag k="addr:housenumber" v="2514"/><tag k="addr:postcode" v="78745"/></node><node id="-52" lat="30.219492" lon="-97.805859" changeset="false"><tag k="addr:street" v="Stoutwood Circle"/><tag k="addr:housenumber" v="2544"/><tag k="addr:postcode" v="78745"/></node><node id="-53" lat="30.21944" lon="-97.805858" changeset="false"><tag k="addr:street" v="Stoutwood Circle"/><tag k="addr:housenumber" v="2546"/><tag k="addr:postcode" v="78745"/></node><node id="-54" lat="30.219617" lon="-97.804955" changeset="false"><tag k="addr:street" v="Stoutwood Circle"/><tag k="addr:housenumber" v="2528"/><tag k="addr:postcode" v="78745"/></node><node id="-55" lat="30.219617" lon="-97.80503" changeset="false"><tag k="addr:street" v="Stoutwood Circle"/><tag k="addr:housenumber" v="2530"/><tag k="addr:postcode" v="78745"/></node><node id="-56" lat="30.21902" lon="-97.80537" changeset="false"><tag k="addr:street" v="Stoutwood Circle"/><tag k="addr:housenumber" v="2560"/><tag k="addr:postcode" v="78745"/></node><node id="-57" lat="30.219041" lon="-97.805478" changeset="false"><tag k="addr:street" v="Stoutwood Circle"/><tag k="addr:housenumber" v="2558"/><tag k="addr:postcode" v="78745"/></node><node id="-58" lat="30.219124" lon="-97.805674" changeset="false"><tag k="addr:street" v="Stoutwood Circle"/><tag k="addr:housenumber" v="2554"/><tag k="addr:postcode" v="78745"/></node><node id="-59" lat="30.219103" lon="-97.805603" changeset="false"><tag k="addr:street" v="Stoutwood Circle"/><tag k="addr:housenumber" v="2556"/><tag k="addr:postcode" v="78745"/></node><node id="-60" lat="30.219136" lon="-97.805796" changeset="false"><tag k="addr:street" v="Stoutwood Circle"/><tag k="addr:housenumber" v="2552"/><tag k="addr:postcode" v="78745"/></node><node id="-61" lat="30.219157" lon="-97.805878" changeset="false"><tag k="addr:street" v="Stoutwood Circle"/><tag k="addr:housenumber" v="2550"/><tag k="addr:postcode" v="78745"/></node><node id="-62" lat="30.219031" lon="-97.805157" changeset="false"><tag k="addr:street" v="Stoutwood Circle"/><tag k="addr:housenumber" v="2564"/><tag k="addr:postcode" v="78745"/></node><node id="-63" lat="30.219051" lon="-97.805224" changeset="false"><tag k="addr:street" v="Stoutwood Circle"/><tag k="addr:housenumber" v="2562"/><tag k="addr:postcode" v="78745"/></node><node id="-64" lat="30.21924" lon="-97.804628" changeset="false"><tag k="addr:street" v="Stoutwood Circle"/><tag k="addr:housenumber" v="2512"/><tag k="addr:postcode" v="78745"/></node><node id="-65" lat="30.219168" lon="-97.804634" changeset="false"><tag k="addr:street" v="Stoutwood Circle"/><tag k="addr:housenumber" v="2510"/><tag k="addr:postcode" v="78745"/></node><node id="-66" lat="30.218832" lon="-97.80475" changeset="false"><tag k="addr:street" v="Stoutwood Circle"/><tag k="addr:housenumber" v="2502"/><tag k="addr:postcode" v="78745"/></node><node id="-67" lat="30.218928" lon="-97.804706" changeset="false"><tag k="addr:street" v="Stoutwood Circle"/><tag k="addr:housenumber" v="2504"/><tag k="addr:postcode" v="78745"/></node></osm>