<?xml version="1.0" encoding="UTF-8"?><osm version="0.6" generator="github.com/aaronlidman/osm-and-geojson"><node id="-1" lat="30.289665" lon="-97.709875" changeset="false"><tag k="addr:street" v="Basford Road"/><tag k="addr:housenumber" v="3802"/><tag k="coa:place_id" v="809294"/></node><node id="-2" lat="30.285982" lon="-97.711446" changeset="false"><tag k="addr:street" v="Randolph Road"/><tag k="addr:housenumber" v="3304"/><tag k="coa:place_id" v="5088913"/></node><node id="-3" lat="30.286993" lon="-97.716407" changeset="false"><tag k="addr:street" v="Cherrywood Road"/><tag k="addr:housenumber" v="3203"/><tag k="coa:place_id" v="724592"/></node><node id="-4" lat="30.291026" lon="-97.713469" changeset="false"><tag k="addr:street" v="East 38th Street"/><tag k="addr:housenumber" v="1702"/><tag k="coa:place_id" v="977367"/></node><node id="-5" lat="30.285413" lon="-97.713268" changeset="false"><tag k="addr:street" v="Larry Lane"/><tag k="addr:housenumber" v="3200"/><tag k="coa:place_id" v="723350"/></node><node id="-6" lat="30.285744" lon="-97.711946" changeset="false"><tag k="addr:street" v="Merrie Lynn Avenue"/><tag k="addr:housenumber" v="3203"/><tag k="coa:place_id" v="722942"/></node><node id="-7" lat="30.285432" lon="-97.712945" changeset="false"><tag k="addr:street" v="Larry Lane"/><tag k="addr:housenumber" v="3201"/><tag k="coa:place_id" v="723128"/></node><node id="-8" lat="30.289479" lon="-97.713035" changeset="false"><tag k="addr:street" v="Giles Street"/><tag k="addr:housenumber" v="1715"/><tag k="coa:place_id" v="808754"/></node><node id="-9" lat="30.28544" lon="-97.712728" changeset="false"><tag k="addr:street" v="Manor Road"/><tag k="addr:housenumber" v="2716"/><tag k="coa:place_id" v="5108183"/></node><node id="-10" lat="30.287229" lon="-97.71432" changeset="false"><tag k="addr:street" v="Walnut Avenue"/><tag k="addr:housenumber" v="3211"/><tag k="coa:place_id" v="723800"/></node><node id="-11" lat="30.289299" lon="-97.711207" changeset="false"><tag k="addr:street" v="Vineland Drive"/><tag k="addr:housenumber" v="3702"/><tag k="coa:place_id" v="809192"/></node><node id="-12" lat="30.288118" lon="-97.707578" changeset="false"><tag k="addr:street" v="Airport Boulevard"/><tag k="addr:housenumber" v="3810"/><tag k="coa:place_id" v="581926"/></node><node id="-13" lat="30.286466" lon="-97.708385" changeset="false"><tag k="addr:street" v="Banton Road"/><tag k="addr:housenumber" v="3404"/><tag k="coa:place_id" v="809588"/></node><node id="-14" lat="30.286323" lon="-97.708361" changeset="false"><tag k="addr:street" v="Banton Road"/><tag k="addr:housenumber" v="3402"/><tag k="coa:place_id" v="809594"/></node><node id="-15" lat="30.286433" lon="-97.707284" changeset="false"><tag k="addr:street" v="Airport Boulevard"/><tag k="addr:housenumber" v="3712"/><tag k="coa:place_id" v="177218"/></node><node id="-16" lat="30.286082" lon="-97.717003" changeset="false"><tag k="addr:street" v="Cherrywood Road"/><tag k="addr:housenumber" v="3101"/><tag k="coa:place_id" v="695680"/></node><node id="-17" lat="30.284458" lon="-97.718209" changeset="false"><tag k="addr:street" v="Cherrywood Road"/><tag k="addr:housenumber" v="2901"/><tag k="coa:place_id" v="724358"/></node><node id="-18" lat="30.285936" lon="-97.71034" changeset="false"><tag k="addr:street" v="Manor Road"/><tag k="addr:housenumber" v="2900"/><tag k="coa:place_id" v="613660"/></node><node id="-19" lat="30.289264" lon="-97.714995" changeset="false"><tag k="addr:street" v="Cherrywood Road"/><tag k="addr:housenumber" v="3321"/><tag k="coa:place_id" v="724688"/></node><node id="-20" lat="30.288969" lon="-97.713705" changeset="false"><tag k="addr:street" v="East 34th Street"/><tag k="addr:housenumber" v="1715"/><tag k="coa:place_id" v="723926"/></node><node id="-21" lat="30.286566" lon="-97.707339" changeset="false"><tag k="addr:street" v="Airport Boulevard"/><tag k="addr:housenumber" v="3722"/><tag k="coa:place_id" v="678039"/></node><node id="-22" lat="30.289338" lon="-97.714843" changeset="false"><tag k="addr:street" v="East 34th Street"/><tag k="addr:housenumber" v="1701"/><tag k="coa:place_id" v="57565"/></node><node id="-23" lat="30.28859" lon="-97.708558" changeset="false"><tag k="addr:street" v="Grayson Lane"/><tag k="addr:housenumber" v="3709"/><tag k="coa:place_id" v="810416"/></node><node id="-24" lat="30.289555" lon="-97.71471" changeset="false"><tag k="addr:street" v="East 34th Street"/><tag k="addr:housenumber" v="1700 1/2"/><tag k="coa:place_id" v="3043026"/></node><node id="-25" lat="30.285337" lon="-97.714385" changeset="false"><tag k="addr:street" v="Walnut Avenue"/><tag k="addr:housenumber" v="3104"/><tag k="coa:place_id" v="723368"/></node><node id="-26" lat="30.285235" lon="-97.714155" changeset="false"><tag k="addr:street" v="Manor Road"/><tag k="addr:housenumber" v="2700"/><tag k="coa:place_id" v="164144"/></node><node id="-27" lat="30.28891" lon="-97.70775" changeset="false"><tag k="addr:street" v="Airport Boulevard"/><tag k="addr:housenumber" v="3842"/><tag k="coa:place_id" v="90950"/></node><node id="-28" lat="30.288787" lon="-97.707727" changeset="false"><tag k="addr:street" v="Airport Boulevard"/><tag k="addr:housenumber" v="3840"/><tag k="coa:place_id" v="177242"/></node><node id="-29" lat="30.290753" lon="-97.713984" changeset="false"><tag k="addr:street" v="East 38th Street"/><tag k="addr:housenumber" v="1701"/><tag k="coa:place_id" v="808892"/></node><node id="-30" lat="30.290666" lon="-97.713996" changeset="false"><tag k="addr:street" v="Giles Street"/><tag k="addr:housenumber" v="1611"/><tag k="coa:place_id" v="299506"/></node><node id="-31" lat="30.289143" lon="-97.714515" changeset="false"><tag k="addr:street" v="East 34th Street"/><tag k="addr:housenumber" v="1707"/><tag k="coa:place_id" v="3320075"/></node><node id="-32" lat="30.289095" lon="-97.714381" changeset="false"><tag k="addr:street" v="Hemlock Avenue"/><tag k="addr:housenumber" v="3320"/><tag k="coa:place_id" v="246148"/></node><node id="-33" lat="30.286357" lon="-97.714633" changeset="false"><tag k="addr:street" v="Walnut Avenue"/><tag k="addr:housenumber" v="3202"/><tag k="coa:place_id" v="724490"/></node><node id="-34" lat="30.286407" lon="-97.714629" changeset="false"><tag k="addr:street" v="East 32nd Street"/><tag k="addr:housenumber" v="1726"/><tag k="coa:place_id" v="253365"/></node></osm>