<?xml version="1.0" encoding="UTF-8"?><osm version="0.6" generator="github.com/aaronlidman/osm-and-geojson"><node id="-1" lat="30.243159" lon="-97.905557" changeset="false"><tag k="addr:street" v="Mowinkle Drive"/><tag k="addr:housenumber" v="7403"/><tag k="coa:place_id" v="872120"/></node><node id="-2" lat="30.237498" lon="-97.910173" changeset="false"><tag k="addr:street" v="Mowinkle Drive"/><tag k="addr:housenumber" v="8106"/><tag k="coa:place_id" v="874328"/></node><node id="-3" lat="30.25185" lon="-97.906753" changeset="false"><tag k="addr:street" v="Bright Star Lane"/><tag k="addr:housenumber" v="6805"/><tag k="coa:place_id" v="54100"/></node><node id="-4" lat="30.25133" lon="-97.90792" changeset="false"><tag k="addr:street" v="Bright Star Lane"/><tag k="addr:housenumber" v="6900"/><tag k="coa:place_id" v="122718"/></node><node id="-5" lat="30.251286" lon="-97.90981" changeset="false"><tag k="addr:street" v="Midwood Parkway"/><tag k="addr:housenumber" v="6905"/><tag k="coa:place_id" v="75967"/></node><node id="-6" lat="30.240351" lon="-97.913552" changeset="false"><tag k="addr:street" v="Dorella Lane"/><tag k="addr:housenumber" v="9001"/><tag k="coa:place_id" v="924236"/></node><node id="-7" lat="30.246781" lon="-97.910808" changeset="false"><tag k="addr:street" v="Claxton Drive"/><tag k="addr:housenumber" v="9402"/><tag k="coa:place_id" v="85283"/></node><node id="-8" lat="30.246077" lon="-97.89719" changeset="false"><tag k="addr:street" v="Covered Bridge Drive"/><tag k="addr:housenumber" v="6922"/><tag k="coa:place_id" v="222616"/></node><node id="-9" lat="30.245299" lon="-97.911102" changeset="false"><tag k="addr:street" v="Lauralan Drive"/><tag k="addr:housenumber" v="9400"/><tag k="coa:place_id" v="128001"/></node><node id="-10" lat="30.248001" lon="-97.922401" changeset="false"><tag k="addr:street" v="Thomas Springs Road"/><tag k="addr:housenumber" v="7711"/><tag k="coa:place_id" v="3078381"/></node><node id="-11" lat="30.247" lon="-97.920816" changeset="false"><tag k="addr:street" v="Wier Loop Road"/><tag k="addr:housenumber" v="9611"/><tag k="coa:place_id" v="872984"/></node><node id="-12" lat="30.245546" lon="-97.918635" changeset="false"><tag k="addr:street" v="Wier Loop Road"/><tag k="addr:housenumber" v="9416"/><tag k="coa:place_id" v="872948"/></node><node id="-13" lat="30.244527" lon="-97.924548" changeset="false"><tag k="addr:street" v="Circle Drive"/><tag k="addr:housenumber" v="9726"/><tag k="coa:place_id" v="872744"/></node><node id="-14" lat="30.24387" lon="-97.923709" changeset="false"><tag k="addr:street" v="Circle Drive"/><tag k="addr:housenumber" v="9704"/><tag k="coa:place_id" v="665836"/></node><node id="-15" lat="30.243263" lon="-97.917052" changeset="false"><tag k="addr:street" v="Williamson Creek Drive"/><tag k="addr:housenumber" v="7907"/><tag k="coa:place_id" v="94695"/></node><node id="-16" lat="30.238556" lon="-97.910112" changeset="false"><tag k="addr:street" v="Mowinkle Drive"/><tag k="addr:housenumber" v="8004"/><tag k="coa:place_id" v="874322"/></node><node id="-17" lat="30.241888" lon="-97.916472" changeset="false"><tag k="addr:street" v="Pitter Pat Lane"/><tag k="addr:housenumber" v="8106"/><tag k="coa:place_id" v="1138933"/></node><node id="-18" lat="30.24747" lon="-97.896501" changeset="false"><tag k="addr:street" v="Covered Bridge Drive"/><tag k="addr:housenumber" v="6808"/><tag k="coa:place_id" v="222604"/></node><node id="-19" lat="30.247392" lon="-97.914757" changeset="false"><tag k="addr:street" v="Williamson Creek Drive"/><tag k="addr:housenumber" v="7502"/><tag k="coa:place_id" v="874448"/></node><node id="-20" lat="30.238994" lon="-97.902626" changeset="false"><tag k="addr:street" v="Crackling Creek Drive"/><tag k="addr:housenumber" v="7701"/><tag k="coa:place_id" v="222773"/></node><node id="-21" lat="30.249025" lon="-97.908619" changeset="false"><tag k="addr:street" v="Bright Star Lane"/><tag k="addr:housenumber" v="7015"/><tag k="coa:place_id" v="54122"/></node><node id="-22" lat="30.248921" lon="-97.91269" changeset="false"><tag k="addr:street" v="Murmuring Creek Drive"/><tag k="addr:housenumber" v="9603"/><tag k="coa:place_id" v="54244"/></node><node id="-23" lat="30.244252" lon="-97.900566" changeset="false"><tag k="addr:street" v="Roaring Springs Drive"/><tag k="addr:housenumber" v="7200"/><tag k="coa:place_id" v="222413"/></node><node id="-24" lat="30.244176" lon="-97.898736" changeset="false"><tag k="addr:street" v="Covered Bridge Drive"/><tag k="addr:housenumber" v="7116"/><tag k="coa:place_id" v="222644"/></node><node id="-25" lat="30.236109" lon="-97.913195" changeset="false"><tag k="addr:street" v="Circle Drive"/><tag k="addr:housenumber" v="8912"/><tag k="coa:place_id" v="243957"/></node><node id="-26" lat="30.238262" lon="-97.914087" changeset="false"><tag k="addr:street" v="Sam Carter Drive"/><tag k="addr:housenumber" v="8921"/><tag k="coa:place_id" v="872360"/></node><node id="-27" lat="30.243917" lon="-97.89897" changeset="false"><tag k="addr:street" v="Covered Bridge Drive"/><tag k="addr:housenumber" v="7124"/><tag k="coa:place_id" v="222647"/></node><node id="-28" lat="30.243425" lon="-97.900304" changeset="false"><tag k="addr:street" v="Foggy Mountain Drive"/><tag k="addr:housenumber" v="8714"/><tag k="coa:place_id" v="222415"/></node><node id="-29" lat="30.243073" lon="-97.901628" changeset="false"><tag k="addr:street" v="Roaring Springs Drive"/><tag k="addr:housenumber" v="7304"/><tag k="coa:place_id" v="222405"/></node><node id="-30" lat="30.246606" lon="-97.897807" changeset="false"><tag k="addr:street" v="Covered Bridge Drive"/><tag k="addr:housenumber" v="6820"/><tag k="coa:place_id" v="222607"/></node><node id="-31" lat="30.24611" lon="-97.908616" changeset="false"><tag k="addr:street" v="Claxton Drive"/><tag k="addr:housenumber" v="9204"/><tag k="coa:place_id" v="991580"/></node><node id="-32" lat="30.245884" lon="-97.897306" changeset="false"><tag k="addr:street" v="Covered Bridge Drive"/><tag k="addr:housenumber" v="6926"/><tag k="coa:place_id" v="222617"/></node><node id="-33" lat="30.24269" lon="-97.918126" changeset="false"><tag k="addr:street" v="Williamson Creek Drive"/><tag k="addr:housenumber" v="8100"/><tag k="coa:place_id" v="872504"/></node><node id="-34" lat="30.245848" lon="-97.926097" changeset="false"><tag k="addr:street" v="Circle Drive"/><tag k="addr:housenumber" v="9830"/><tag k="coa:place_id" v="319978"/></node><node id="-35" lat="30.239246" lon="-97.90254" changeset="false"><tag k="addr:street" v="Crackling Creek Drive"/><tag k="addr:housenumber" v="7625"/><tag k="coa:place_id" v="222774"/></node><node id="-36" lat="30.240657" lon="-97.918707" changeset="false"><tag k="addr:street" v="Williamson Creek Drive"/><tag k="addr:housenumber" v="8209"/><tag k="coa:place_id" v="872654"/></node><node id="-37" lat="30.240481" lon="-97.918864" changeset="false"><tag k="addr:street" v="Williamson Creek Drive"/><tag k="addr:housenumber" v="8303"/><tag k="coa:place_id" v="94701"/></node><node id="-38" lat="30.239461" lon="-97.917713" changeset="false"><tag k="addr:street" v="Pitter Pat Lane"/><tag k="addr:housenumber" v="8305"/><tag k="coa:place_id" v="874364"/></node><node id="-39" lat="30.242261" lon="-97.918424" changeset="false"><tag k="addr:street" v="Williamson Creek Drive"/><tag k="addr:housenumber" v="8102"/><tag k="coa:place_id" v="947126"/></node><node id="-40" lat="30.242215" lon="-97.917337" changeset="false"><tag k="addr:street" v="Williamson Creek Drive"/><tag k="addr:housenumber" v="8101"/><tag k="coa:place_id" v="947114"/></node><node id="-41" lat="30.241854" lon="-97.917563" changeset="false"><tag k="addr:street" v="Williamson Creek Drive"/><tag k="addr:housenumber" v="8103"/><tag k="coa:place_id" v="106098"/></node><node id="-42" lat="30.258234" lon="-97.909395" changeset="false"><tag k="addr:street" v="Anchusa Trail"/><tag k="addr:housenumber" v="9711"/><tag k="coa:place_id" v="218011"/></node><node id="-43" lat="30.241675" lon="-97.917689" changeset="false"><tag k="addr:street" v="Williamson Creek Drive"/><tag k="addr:housenumber" v="8105"/><tag k="coa:place_id" v="106097"/></node><node id="-44" lat="30.241329" lon="-97.91904" changeset="false"><tag k="addr:street" v="Williamson Creek Drive"/><tag k="addr:housenumber" v="8204"/><tag k="coa:place_id" v="106086"/></node><node id="-45" lat="30.256262" lon="-97.909114" changeset="false"><tag k="addr:street" v="Conifer Cove"/><tag k="addr:housenumber" v="6516"/><tag k="coa:place_id" v="218043"/></node><node id="-46" lat="30.255899" lon="-97.905349" changeset="false"><tag k="addr:street" v="Midwood Parkway"/><tag k="addr:housenumber" v="6401"/><tag k="coa:place_id" v="216549"/></node><node id="-47" lat="30.239189" lon="-97.901859" changeset="false"><tag k="addr:street" v="Covered Bridge Drive"/><tag k="addr:housenumber" v="7600"/><tag k="coa:place_id" v="222565"/></node><node id="-48" lat="30.259006" lon="-97.910666" changeset="false"><tag k="addr:street" v="Thomas Springs Road"/><tag k="addr:housenumber" v="6501"/><tag k="coa:place_id" v="873110"/></node><node id="-49" lat="30.258042" lon="-97.90826" changeset="false"><tag k="addr:street" v="Anchusa Trail"/><tag k="addr:housenumber" v="9700"/><tag k="coa:place_id" v="218023"/></node><node id="-50" lat="30.246455" lon="-97.89695" changeset="false"><tag k="addr:street" v="Covered Bridge Drive"/><tag k="addr:housenumber" v="6910"/><tag k="coa:place_id" v="222613"/></node><node id="-51" lat="30.246547" lon="-97.910332" changeset="false"><tag k="addr:street" v="Claxton Drive"/><tag k="addr:housenumber" v="9400"/><tag k="coa:place_id" v="872036"/></node><node id="-52" lat="30.246533" lon="-97.914826" changeset="false"><tag k="addr:street" v="Williamson Creek Drive"/><tag k="addr:housenumber" v="7601"/><tag k="coa:place_id" v="106116"/></node><node id="-53" lat="30.24479" lon="-97.891391" changeset="false"><tag k="addr:street" v="Smokey Hill Road"/><tag k="addr:housenumber" v="6806"/><tag k="coa:place_id" v="525027"/></node><node id="-54" lat="30.244394" lon="-97.891989" changeset="false"><tag k="addr:street" v="Smokey Hill Road"/><tag k="addr:housenumber" v="6809"/><tag k="coa:place_id" v="524973"/></node><node id="-55" lat="30.248042" lon="-97.913876" changeset="false"><tag k="addr:street" v="Williamson Creek Drive"/><tag k="addr:housenumber" v="7403"/><tag k="coa:place_id" v="1009634"/></node><node id="-56" lat="30.25153" lon="-97.917763" changeset="false"><tag k="addr:street" v="Murmuring Creek Drive"/><tag k="addr:housenumber" v="10006"/><tag k="coa:place_id" v="869175"/></node><node id="-57" lat="30.240995" lon="-97.913732" changeset="false"><tag k="addr:street" v="Dorella Lane"/><tag k="addr:housenumber" v="9005"/><tag k="coa:place_id" v="874286"/></node><node id="-58" lat="30.242555" lon="-97.897214" changeset="false"><tag k="addr:street" v="Red Willow Drive"/><tag k="addr:housenumber" v="8504"/><tag k="coa:place_id" v="3131838"/></node><node id="-59" lat="30.237837" lon="-97.905539" changeset="false"><tag k="addr:street" v="Thunderbird Road"/><tag k="addr:housenumber" v="8714"/><tag k="coa:place_id" v="225959"/></node><node id="-60" lat="30.237631" lon="-97.897319" changeset="false"><tag k="addr:street" v="Roan Lane"/><tag k="addr:housenumber" v="8319"/><tag k="coa:place_id" v="372651"/></node><node id="-61" lat="30.236121" lon="-97.903541" changeset="false"><tag k="addr:street" v="Thunderbird Road"/><tag k="addr:housenumber" v="8645"/><tag k="coa:place_id" v="91797"/></node><node id="-62" lat="30.237664" lon="-97.910824" changeset="false"><tag k="addr:street" v="Sam Carter Drive"/><tag k="addr:housenumber" v="8810"/><tag k="coa:place_id" v="872408"/></node><node id="-63" lat="30.237378" lon="-97.909181" changeset="false"><tag k="addr:street" v="Mowinkle Drive"/><tag k="addr:housenumber" v="8105"/><tag k="coa:place_id" v="872270"/></node><node id="-64" lat="30.240783" lon="-97.912723" changeset="false"><tag k="addr:street" v="Dorella Lane"/><tag k="addr:housenumber" v="8920"/><tag k="coa:place_id" v="148113"/></node><node id="-65" lat="30.250693" lon="-97.912898" changeset="false"><tag k="addr:street" v="Streamside Drive"/><tag k="addr:housenumber" v="9613"/><tag k="coa:place_id" v="54280"/></node><node id="-66" lat="30.250364" lon="-97.91046" changeset="false"><tag k="addr:street" v="Midwood Parkway"/><tag k="addr:housenumber" v="7005"/><tag k="coa:place_id" v="75964"/></node><node id="-67" lat="30.240328" lon="-97.919701" changeset="false"><tag k="addr:street" v="Circle Drive"/><tag k="addr:housenumber" v="9308 1/2"/><tag k="coa:place_id" v="3203327"/></node><node id="-68" lat="30.239512" lon="-97.90772" changeset="false"><tag k="addr:street" v="Mowinkle Drive"/><tag k="addr:housenumber" v="7811"/><tag k="coa:place_id" v="262659"/></node><node id="-69" lat="30.257043" lon="-97.909723" changeset="false"><tag k="addr:street" v="Chamois Way"/><tag k="addr:housenumber" v="9604"/><tag k="coa:place_id" v="5087983"/></node><node id="-70" lat="30.257366" lon="-97.910591" changeset="false"><tag k="addr:street" v="Chamois Way"/><tag k="addr:housenumber" v="9616"/><tag k="coa:place_id" v="5088068"/></node><node id="-71" lat="30.242602" lon="-97.89489" changeset="false"><tag k="addr:street" v="Moccasin Path"/><tag k="addr:housenumber" v="8421"/><tag k="coa:place_id" v="5262454"/></node><node id="-72" lat="30.243481" lon="-97.896331" changeset="false"><tag k="addr:street" v="Moccasin Path"/><tag k="addr:housenumber" v="8607"/><tag k="coa:place_id" v="5262462"/></node><node id="-73" lat="30.243649" lon="-97.896433" changeset="false"><tag k="addr:street" v="Moccasin Path"/><tag k="addr:housenumber" v="8611"/><tag k="coa:place_id" v="5262463"/></node><node id="-74" lat="30.244782" lon="-97.89667" changeset="false"><tag k="addr:street" v="Moccasin Path"/><tag k="addr:housenumber" v="8709"/><tag k="coa:place_id" v="5262465"/></node><node id="-75" lat="30.245125" lon="-97.896499" changeset="false"><tag k="addr:street" v="Moccasin Path"/><tag k="addr:housenumber" v="8717"/><tag k="coa:place_id" v="5262467"/></node><node id="-76" lat="30.242314" lon="-97.910061" changeset="false"><tag k="addr:street" v="Towana Trail"/><tag k="addr:housenumber" v="9202"/><tag k="coa:place_id" v="85280"/></node><node id="-77" lat="30.237217" lon="-97.91186" changeset="false"><tag k="addr:street" v="Sam Carter Drive"/><tag k="addr:housenumber" v="8815"/><tag k="coa:place_id" v="874346"/></node><node id="-78" lat="30.244402" lon="-97.906854" changeset="false"><tag k="addr:street" v="Claxton Drive"/><tag k="addr:housenumber" v="9103"/><tag k="coa:place_id" v="146769"/></node><node id="-79" lat="30.246626" lon="-97.896835" changeset="false"><tag k="addr:street" v="Covered Bridge Drive"/><tag k="addr:housenumber" v="6906"/><tag k="coa:place_id" v="222612"/></node><node id="-80" lat="30.246796" lon="-97.91302" changeset="false"><tag k="addr:street" v="Pitter Pat Lane"/><tag k="addr:housenumber" v="7500"/><tag k="coa:place_id" v="1048532"/></node><node id="-81" lat="30.241983" lon="-97.907082" changeset="false"><tag k="addr:street" v="Mowinkle Drive"/><tag k="addr:housenumber" v="7602"/><tag k="coa:place_id" v="118569"/></node><node id="-82" lat="30.245716" lon="-97.897409" changeset="false"><tag k="addr:street" v="Covered Bridge Drive"/><tag k="addr:housenumber" v="7000"/><tag k="coa:place_id" v="222630"/></node><node id="-83" lat="30.240753" lon="-97.919402" changeset="false"><tag k="addr:street" v="Williamson Creek Drive"/><tag k="addr:housenumber" v="8302"/><tag k="coa:place_id" v="700629"/></node><node id="-84" lat="30.239039" lon="-97.901946" changeset="false"><tag k="addr:street" v="Covered Bridge Drive"/><tag k="addr:housenumber" v="7604"/><tag k="coa:place_id" v="222577"/></node><node id="-85" lat="30.238927" lon="-97.900954" changeset="false"><tag k="addr:street" v="Black Mountain Drive"/><tag k="addr:housenumber" v="7516"/><tag k="coa:place_id" v="222526"/></node><node id="-86" lat="30.243093" lon="-97.891386" changeset="false"><tag k="addr:street" v="Silvermine Drive"/><tag k="addr:housenumber" v="6906"/><tag k="coa:place_id" v="524931"/></node><node id="-87" lat="30.23876" lon="-97.901447" changeset="false"><tag k="addr:street" v="Covered Bridge Drive"/><tag k="addr:housenumber" v="7605"/><tag k="coa:place_id" v="222589"/></node><node id="-88" lat="30.251584" lon="-97.906949" changeset="false"><tag k="addr:street" v="Bright Star Lane"/><tag k="addr:housenumber" v="6809"/><tag k="coa:place_id" v="54101"/></node><node id="-89" lat="30.251574" lon="-97.909607" changeset="false"><tag k="addr:street" v="Midwood Parkway"/><tag k="addr:housenumber" v="6901"/><tag k="coa:place_id" v="130575"/></node><node id="-90" lat="30.256358" lon="-97.906185" changeset="false"><tag k="addr:street" v="Anchusa Trail"/><tag k="addr:housenumber" v="9500"/><tag k="coa:place_id" v="1103447"/></node><node id="-91" lat="30.242462" lon="-97.898414" changeset="false"><tag k="addr:street" v="Foggy Mountain Drive"/><tag k="addr:housenumber" v="8618"/><tag k="coa:place_id" v="222661"/></node><node id="-92" lat="30.242402" lon="-97.906116" changeset="false"><tag k="addr:street" v="Mowinkle Drive"/><tag k="addr:housenumber" v="7503"/><tag k="coa:place_id" v="872108"/></node><node id="-93" lat="30.243566" lon="-97.907916" changeset="false"><tag k="addr:street" v="Lauralan Drive"/><tag k="addr:housenumber" v="9207"/><tag k="coa:place_id" v="926978"/></node><node id="-94" lat="30.25329" lon="-97.908866" changeset="false"><tag k="addr:street" v="Midwood Parkway"/><tag k="addr:housenumber" v="6713"/><tag k="coa:place_id" v="122629"/></node><node id="-95" lat="30.246506" lon="-97.895713" changeset="false"><tag k="addr:street" v="Nandas Trail"/><tag k="addr:housenumber" v="8701"/><tag k="coa:place_id" v="1140463"/></node><node id="-96" lat="30.240389" lon="-97.901898" changeset="false"><tag k="addr:street" v="Towana Trail"/><tag k="addr:housenumber" v="8707"/><tag k="coa:place_id" v="222714"/></node><node id="-97" lat="30.238109" lon="-97.916823" changeset="false"><tag k="addr:street" v="Circle Drive"/><tag k="addr:housenumber" v="9020"/><tag k="coa:place_id" v="3076978"/></node><node id="-98" lat="30.244306" lon="-97.898626" changeset="false"><tag k="addr:street" v="Covered Bridge Drive"/><tag k="addr:housenumber" v="7112"/><tag k="coa:place_id" v="222643"/></node><node id="-99" lat="30.238372" lon="-97.912588" changeset="false"><tag k="addr:street" v="Sam Carter Drive"/><tag k="addr:housenumber" v="8910"/><tag k="coa:place_id" v="872390"/></node><node id="-100" lat="30.254069" lon="-97.916925" changeset="false"><tag k="addr:street" v="Thomas Springs Road"/><tag k="addr:housenumber" v="7107"/><tag k="coa:place_id" v="873050"/></node><node id="-101" lat="30.249925" lon="-97.908054" changeset="false"><tag k="addr:street" v="Bright Star Lane"/><tag k="addr:housenumber" v="7001"/><tag k="coa:place_id" v="54119"/></node><node id="-102" lat="30.24934" lon="-97.912482" changeset="false"><tag k="addr:street" v="Murmuring Creek Drive"/><tag k="addr:housenumber" v="9600"/><tag k="coa:place_id" v="54243"/></node><node id="-103" lat="30.258628" lon="-97.908555" changeset="false"><tag k="addr:street" v="Anchusa Trail"/><tag k="addr:housenumber" v="9720"/><tag k="coa:place_id" v="218015"/></node><node id="-104" lat="30.257765" lon="-97.908032" changeset="false"><tag k="addr:street" v="Anchusa Trail"/><tag k="addr:housenumber" v="9624"/><tag k="coa:place_id" v="218016"/></node><node id="-105" lat="30.257239" lon="-97.908718" changeset="false"><tag k="addr:street" v="Anchusa Trail"/><tag k="addr:housenumber" v="9619"/><tag k="coa:place_id" v="218009"/></node><node id="-106" lat="30.239598" lon="-97.91169" changeset="false"><tag k="addr:street" v="Dorella Lane"/><tag k="addr:housenumber" v="8907"/><tag k="coa:place_id" v="172369"/></node><node id="-107" lat="30.240516" lon="-97.90389" changeset="false"><tag k="addr:street" v="Towana Trail"/><tag k="addr:housenumber" v="8818"/><tag k="coa:place_id" v="3163503"/></node><node id="-108" lat="30.240357" lon="-97.919704" changeset="false"><tag k="addr:street" v="Circle Drive"/><tag k="addr:housenumber" v="9308"/><tag k="coa:place_id" v="1011668"/></node><node id="-109" lat="30.241889" lon="-97.910903" changeset="false"><tag k="addr:street" v="Towana Trail"/><tag k="addr:housenumber" v="9301"/><tag k="coa:place_id" v="85274"/></node><node id="-110" lat="30.25361" lon="-97.909335" changeset="false"><tag k="addr:street" v="Midwood Parkway"/><tag k="addr:housenumber" v="6712"/><tag k="coa:place_id" v="75968"/></node><node id="-111" lat="30.255561" lon="-97.909546" changeset="false"><tag k="addr:street" v="Conifer Cove"/><tag k="addr:housenumber" v="6614"/><tag k="coa:place_id" v="218041"/></node><node id="-112" lat="30.252503" lon="-97.906396" changeset="false"><tag k="addr:street" v="Bright Star Lane"/><tag k="addr:housenumber" v="6705"/><tag k="coa:place_id" v="54096"/></node><node id="-113" lat="30.24711" lon="-97.91498" changeset="false"><tag k="addr:street" v="Williamson Creek Drive"/><tag k="addr:housenumber" v="7506"/><tag k="coa:place_id" v="106057"/></node><node id="-114" lat="30.241363" lon="-97.89211" changeset="false"><tag k="addr:street" v="Moccasin Path"/><tag k="addr:housenumber" v="8303"/><tag k="coa:place_id" v="89721"/></node><node id="-115" lat="30.246103" lon="-97.909134" changeset="false"><tag k="addr:street" v="Claxton Drive"/><tag k="addr:housenumber" v="9300"/><tag k="coa:place_id" v="180465"/></node><node id="-116" lat="30.247795" lon="-97.909746" changeset="false"><tag k="addr:street" v="Murmuring Creek Drive"/><tag k="addr:housenumber" v="9311"/><tag k="coa:place_id" v="54248"/></node><node id="-117" lat="30.243839" lon="-97.892991" changeset="false"><tag k="addr:street" v="Smokey Hill Road"/><tag k="addr:housenumber" v="6904"/><tag k="coa:place_id" v="525009"/></node><node id="-118" lat="30.248535" lon="-97.913407" changeset="false"><tag k="addr:street" v="Williamson Creek Drive"/><tag k="addr:housenumber" v="7401"/><tag k="coa:place_id" v="872546"/></node><node id="-119" lat="30.255123" lon="-97.909817" changeset="false"><tag k="addr:street" v="Conifer Cove"/><tag k="addr:housenumber" v="6700"/><tag k="coa:place_id" v="218040"/></node><node id="-120" lat="30.23536" lon="-97.908342" changeset="false"><tag k="addr:street" v="Thunderbird Road"/><tag k="addr:housenumber" v="8816"/><tag k="coa:place_id" v="611253"/></node><node id="-121" lat="30.251002" lon="-97.912096" changeset="false"><tag k="addr:street" v="Streamside Drive"/><tag k="addr:housenumber" v="9612"/><tag k="coa:place_id" v="685444"/></node><node id="-122" lat="30.250748" lon="-97.911423" changeset="false"><tag k="addr:street" v="Streamside Drive"/><tag k="addr:housenumber" v="9604"/><tag k="coa:place_id" v="54281"/></node><node id="-123" lat="30.24263" lon="-97.895792" changeset="false"><tag k="addr:street" v="Red Willow Drive"/><tag k="addr:housenumber" v="8418"/><tag k="coa:place_id" v="883515"/></node><node id="-124" lat="30.24113" lon="-97.900548" changeset="false"><tag k="addr:street" v="Covered Bridge Drive"/><tag k="addr:housenumber" v="7340"/><tag k="coa:place_id" v="222455"/></node><node id="-125" lat="30.241124" lon="-97.900916" changeset="false"><tag k="addr:street" v="Samuel Bishop Drive"/><tag k="addr:housenumber" v="8708"/><tag k="coa:place_id" v="222437"/></node><node id="-126" lat="30.244249" lon="-97.916382" changeset="false"><tag k="addr:street" v="Williamson Creek Drive"/><tag k="addr:housenumber" v="7807"/><tag k="coa:place_id" v="106105"/></node><node id="-127" lat="30.243715" lon="-97.917382" changeset="false"><tag k="addr:street" v="Williamson Creek Drive"/><tag k="addr:housenumber" v="7910"/><tag k="coa:place_id" v="682011"/></node><node id="-128" lat="30.236098" lon="-97.90187" changeset="false"><tag k="addr:street" v="Thunderbird Road"/><tag k="addr:housenumber" v="8618"/><tag k="coa:place_id" v="125475"/></node><node id="-129" lat="30.240788" lon="-97.908035" changeset="false"><tag k="addr:street" v="Mowinkle Drive"/><tag k="addr:housenumber" v="7802"/><tag k="coa:place_id" v="963723"/></node><node id="-130" lat="30.243442" lon="-97.899349" changeset="false"><tag k="addr:street" v="Covered Bridge Drive"/><tag k="addr:housenumber" v="7212"/><tag k="coa:place_id" v="222652"/></node><node id="-131" lat="30.237619" lon="-97.897092" changeset="false"><tag k="addr:street" v="Roan Lane"/><tag k="addr:housenumber" v="8317"/><tag k="coa:place_id" v="372519"/></node><node id="-132" lat="30.238439" lon="-97.913106" changeset="false"><tag k="addr:street" v="Sam Carter Drive"/><tag k="addr:housenumber" v="8916"/><tag k="coa:place_id" v="258087"/></node><node id="-133" lat="30.250327" lon="-97.912008" changeset="false"><tag k="addr:street" v="Streamside Drive"/><tag k="addr:housenumber" v="9605"/><tag k="coa:place_id" v="54278"/></node><node id="-134" lat="30.242744" lon="-97.90168" changeset="false"><tag k="addr:street" v="Roaring Springs Drive"/><tag k="addr:housenumber" v="7312"/><tag k="coa:place_id" v="222402"/></node><node id="-135" lat="30.242212" lon="-97.898302" changeset="false"><tag k="addr:street" v="Foggy Mountain Drive"/><tag k="addr:housenumber" v="8614"/><tag k="coa:place_id" v="222664"/></node><node id="-136" lat="30.241111" lon="-97.909991" changeset="false"><tag k="addr:street" v="Mowinkle Cove"/><tag k="addr:housenumber" v="7704"/><tag k="coa:place_id" v="895365"/></node><node id="-137" lat="30.245352" lon="-97.917978" changeset="false"><tag k="addr:street" v="Wier Loop Road"/><tag k="addr:housenumber" v="9410"/><tag k="coa:place_id" v="872954"/></node><node id="-138" lat="30.240502" lon="-97.904577" changeset="false"><tag k="addr:street" v="Roaring Springs Drive"/><tag k="addr:housenumber" v="7532"/><tag k="coa:place_id" v="3222691"/></node><node id="-139" lat="30.245625" lon="-97.922484" changeset="false"><tag k="addr:street" v="Rockwood Circle"/><tag k="addr:housenumber" v="7900"/><tag k="coa:place_id" v="3218396"/></node><node id="-140" lat="30.255167" lon="-97.914185" changeset="false"><tag k="addr:street" v="Thomas Springs Road"/><tag k="addr:housenumber" v="6817"/><tag k="coa:place_id" v="3365309"/></node><node id="-141" lat="30.249582" lon="-97.920805" changeset="false"><tag k="addr:street" v="Thomas Springs Road"/><tag k="addr:housenumber" v="7511"/><tag k="coa:place_id" v="3427115"/></node><node id="-142" lat="30.244589" lon="-97.896137" changeset="false"><tag k="addr:street" v="Moccasin Path"/><tag k="addr:housenumber" v="8706"/><tag k="coa:place_id" v="5262522"/></node><node id="-143" lat="30.242413" lon="-97.894469" changeset="false"><tag k="addr:street" v="Moccasin Path"/><tag k="addr:housenumber" v="8413"/><tag k="coa:place_id" v="5262452"/></node><node id="-144" lat="30.243105" lon="-97.895882" changeset="false"><tag k="addr:street" v="Moccasin Path"/><tag k="addr:housenumber" v="8517"/><tag k="coa:place_id" v="5262459"/></node><node id="-145" lat="30.256598" lon="-97.913114" changeset="false"><tag k="addr:street" v="Fallow Run"/><tag k="addr:housenumber" v="9828"/><tag k="coa:place_id" v="5113542"/></node><node id="-146" lat="30.25131" lon="-97.907116" changeset="false"><tag k="addr:street" v="Bright Star Lane"/><tag k="addr:housenumber" v="6813"/><tag k="coa:place_id" v="54102"/></node><node id="-147" lat="30.259589" lon="-97.908777" changeset="false"><tag k="addr:street" v="Anchusa Trail"/><tag k="addr:housenumber" v="9744"/><tag k="coa:place_id" v="224586"/></node><node id="-148" lat="30.258796" lon="-97.911746" changeset="false"><tag k="addr:street" v="Thomas Springs Road"/><tag k="addr:housenumber" v="6513"/><tag k="coa:place_id" v="3049533"/></node><node id="-149" lat="30.242198" lon="-97.90958" changeset="false"><tag k="addr:street" v="Towana Trail"/><tag k="addr:housenumber" v="9200"/><tag k="coa:place_id" v="143991"/></node><node id="-150" lat="30.248625" lon="-97.911314" changeset="false"><tag k="addr:street" v="Murmuring Creek Drive"/><tag k="addr:housenumber" v="9505"/><tag k="coa:place_id" v="114839"/></node><node id="-151" lat="30.244669" lon="-97.906314" changeset="false"><tag k="addr:street" v="Claxton Drive"/><tag k="addr:housenumber" v="9102"/><tag k="coa:place_id" v="134373"/></node><node id="-152" lat="30.243646" lon="-97.899185" changeset="false"><tag k="addr:street" v="Covered Bridge Drive"/><tag k="addr:housenumber" v="7204"/><tag k="coa:place_id" v="222649"/></node><node id="-153" lat="30.244452" lon="-97.914624" changeset="false"><tag k="addr:street" v="Pitter Pat Lane"/><tag k="addr:housenumber" v="7802"/><tag k="coa:place_id" v="646821"/></node><node id="-154" lat="30.242809" lon="-97.905844" changeset="false"><tag k="addr:street" v="Mowinkle Drive"/><tag k="addr:housenumber" v="7501"/><tag k="coa:place_id" v="872114"/></node><node id="-155" lat="30.241416" lon="-97.904314" changeset="false"><tag k="addr:street" v="Roaring Springs Drive"/><tag k="addr:housenumber" v="7520"/><tag k="coa:place_id" v="1138934"/></node><node id="-156" lat="30.249503" lon="-97.894282" changeset="false"><tag k="addr:street" v="Covered Bridge Drive"/><tag k="addr:housenumber" v="6601 1/2"/><tag k="coa:place_id" v="3072266"/></node><node id="-157" lat="30.239673" lon="-97.899718" changeset="false"><tag k="addr:street" v="Black Mountain Drive"/><tag k="addr:housenumber" v="7409"/><tag k="coa:place_id" v="222517"/></node><node id="-158" lat="30.247039" lon="-97.915286" changeset="false"><tag k="addr:street" v="Williamson Creek Drive"/><tag k="addr:housenumber" v="7508"/><tag k="coa:place_id" v="106061"/></node><node id="-159" lat="30.244806" lon="-97.904945" changeset="false"><tag k="addr:street" v="Mowinkle Drive"/><tag k="addr:housenumber" v="7219"/><tag k="coa:place_id" v="131532"/></node><node id="-160" lat="30.252537" lon="-97.909171" changeset="false"><tag k="addr:street" v="Midwood Parkway"/><tag k="addr:housenumber" v="6805"/><tag k="coa:place_id" v="75976"/></node><node id="-161" lat="30.254282" lon="-97.906623" changeset="false"><tag k="addr:street" v="Summer Sky Drive"/><tag k="addr:housenumber" v="9500"/><tag k="coa:place_id" v="54274"/></node><node id="-162" lat="30.253823" lon="-97.904628" changeset="false"><tag k="addr:street" v="Summer Sky Drive"/><tag k="addr:housenumber" v="9310"/><tag k="coa:place_id" v="54270"/></node><node id="-163" lat="30.244471" lon="-97.908347" changeset="false"><tag k="addr:street" v="Lauralan Drive"/><tag k="addr:housenumber" v="9204"/><tag k="coa:place_id" v="402820"/></node><node id="-164" lat="30.244492" lon="-97.911332" changeset="false"><tag k="addr:street" v="Lauralan Drive"/><tag k="addr:housenumber" v="9305"/><tag k="coa:place_id" v="108369"/></node><node id="-165" lat="30.234528" lon="-97.908157" changeset="false"><tag k="addr:street" v="Thunderbird Road"/><tag k="addr:housenumber" v="8819"/><tag k="coa:place_id" v="403509"/></node><node id="-166" lat="30.2473" lon="-97.896559" changeset="false"><tag k="addr:street" v="Covered Bridge Drive"/><tag k="addr:housenumber" v="6812"/><tag k="coa:place_id" v="222605"/></node><node id="-167" lat="30.236836" lon="-97.903331" changeset="false"><tag k="addr:street" v="Thunderbird Road"/><tag k="addr:housenumber" v="8646"/><tag k="coa:place_id" v="872306"/></node><node id="-168" lat="30.249095" lon="-97.916846" changeset="false"><tag k="addr:street" v="Trenton Drive"/><tag k="addr:housenumber" v="7308"/><tag k="coa:place_id" v="3089002"/></node><node id="-169" lat="30.244856" lon="-97.89726" changeset="false"><tag k="addr:street" v="Covered Bridge Drive"/><tag k="addr:housenumber" v="7009"/><tag k="coa:place_id" v="3182750"/></node><node id="-170" lat="30.248013" lon="-97.921565" changeset="false"><tag k="addr:street" v="Wier Loop Road"/><tag k="addr:housenumber" v="9621"/><tag k="coa:place_id" v="3065813"/></node><node id="-171" lat="30.246034" lon="-97.913492" changeset="false"><tag k="addr:street" v="Pitter Pat Lane"/><tag k="addr:housenumber" v="7602"/><tag k="coa:place_id" v="85271"/></node><node id="-172" lat="30.247475" lon="-97.914216" changeset="false"><tag k="addr:street" v="Williamson Creek Drive"/><tag k="addr:housenumber" v="7501"/><tag k="coa:place_id" v="874418"/></node><node id="-173" lat="30.244834" lon="-97.898163" changeset="false"><tag k="addr:street" v="Covered Bridge Drive"/><tag k="addr:housenumber" v="7024"/><tag k="coa:place_id" v="222637"/></node><node id="-174" lat="30.247682" lon="-97.922684" changeset="false"><tag k="addr:street" v="Thomas Springs Road"/><tag k="addr:housenumber" v="7809"/><tag k="coa:place_id" v="167928"/></node><node id="-175" lat="30.257548" lon="-97.907877" changeset="false"><tag k="addr:street" v="Anchusa Trail"/><tag k="addr:housenumber" v="9616"/><tag k="coa:place_id" v="218017"/></node><node id="-176" lat="30.250053" lon="-97.908453" changeset="false"><tag k="addr:street" v="Bright Star Lane"/><tag k="addr:housenumber" v="7000"/><tag k="coa:place_id" v="736990"/></node><node id="-177" lat="30.249602" lon="-97.915392" changeset="false"><tag k="addr:street" v="Murmuring Creek Drive"/><tag k="addr:housenumber" v="9803"/><tag k="coa:place_id" v="1138928"/></node><node id="-178" lat="30.246337" lon="-97.914958" changeset="false"><tag k="addr:street" v="Williamson Creek Drive"/><tag k="addr:housenumber" v="7603"/><tag k="coa:place_id" v="106115"/></node><node id="-179" lat="30.246224" lon="-97.910579" changeset="false"><tag k="addr:street" v="Claxton Drive"/><tag k="addr:housenumber" v="9401"/><tag k="coa:place_id" v="143979"/></node><node id="-180" lat="30.241124" lon="-97.918082" changeset="false"><tag k="addr:street" v="Williamson Creek Drive"/><tag k="addr:housenumber" v="8203"/><tag k="coa:place_id" v="118545"/></node><node id="-181" lat="30.248504" lon="-97.894552" changeset="false"><tag k="addr:street" v="Covered Bridge Drive"/><tag k="addr:housenumber" v="6705"/><tag k="coa:place_id" v="3159882"/></node><node id="-182" lat="30.255126" lon="-97.908868" changeset="false"><tag k="addr:street" v="Conifer Cove"/><tag k="addr:housenumber" v="6607"/><tag k="coa:place_id" v="241266"/></node><node id="-183" lat="30.251382" lon="-97.917474" changeset="false"><tag k="addr:street" v="Murmuring Creek Drive"/><tag k="addr:housenumber" v="10004"/><tag k="coa:place_id" v="794757"/></node><node id="-184" lat="30.241386" lon="-97.905173" changeset="false"><tag k="addr:street" v="Towana Trail"/><tag k="addr:housenumber" v="8930"/><tag k="coa:place_id" v="222702"/></node><node id="-185" lat="30.240785" lon="-97.906851" changeset="false"><tag k="addr:street" v="Towana Trail"/><tag k="addr:housenumber" v="9001"/><tag k="coa:place_id" v="942644"/></node><node id="-186" lat="30.245462" lon="-97.89146" changeset="false"><tag k="addr:street" v="Raccoon Run"/><tag k="addr:housenumber" v="6712"/><tag k="coa:place_id" v="89230"/></node><node id="-187" lat="30.246642" lon="-97.925568" changeset="false"><tag k="addr:street" v="Thomas Springs Road"/><tag k="addr:housenumber" v="8007"/><tag k="coa:place_id" v="626433"/></node><node id="-188" lat="30.253395" lon="-97.904967" changeset="false"><tag k="addr:street" v="Summer Sky Drive"/><tag k="addr:housenumber" v="9311"/><tag k="coa:place_id" v="54275"/></node><node id="-189" lat="30.253109" lon="-97.909478" changeset="false"><tag k="addr:street" v="Midwood Parkway"/><tag k="addr:housenumber" v="6800"/><tag k="coa:place_id" v="727042"/></node><node id="-190" lat="30.252757" lon="-97.910928" changeset="false"><tag k="addr:street" v="Dawning Court"/><tag k="addr:housenumber" v="9612"/><tag k="coa:place_id" v="54106"/></node><node id="-191" lat="30.247291" lon="-97.908823" changeset="false"><tag k="addr:street" v="Murmuring Creek Drive"/><tag k="addr:housenumber" v="9303"/><tag k="coa:place_id" v="54250"/></node><node id="-192" lat="30.246388" lon="-97.913438" changeset="false"><tag k="addr:street" v="Pitter Pat Lane"/><tag k="addr:housenumber" v="7600"/><tag k="coa:place_id" v="872090"/></node><node id="-193" lat="30.244041" lon="-97.898854" changeset="false"><tag k="addr:street" v="Covered Bridge Drive"/><tag k="addr:housenumber" v="7120"/><tag k="coa:place_id" v="222646"/></node><node id="-194" lat="30.243811" lon="-97.90589" changeset="false"><tag k="addr:street" v="Mowinkle Drive"/><tag k="addr:housenumber" v="7400"/><tag k="coa:place_id" v="143985"/></node><node id="-195" lat="30.244209" lon="-97.918135" changeset="false"><tag k="addr:street" v="Wier Loop Road"/><tag k="addr:housenumber" v="9407"/><tag k="coa:place_id" v="3085561"/></node><node id="-196" lat="30.243728" lon="-97.917064" changeset="false"><tag k="addr:street" v="Williamson Creek Drive"/><tag k="addr:housenumber" v="7906"/><tag k="coa:place_id" v="3107531"/></node><node id="-197" lat="30.247066" lon="-97.914441" changeset="false"><tag k="addr:street" v="Williamson Creek Drive"/><tag k="addr:housenumber" v="7507"/><tag k="coa:place_id" v="872534"/></node><node id="-198" lat="30.235568" lon="-97.900751" changeset="false"><tag k="addr:street" v="Thunderbird Road"/><tag k="addr:housenumber" v="8606"/><tag k="coa:place_id" v="872288"/></node><node id="-199" lat="30.236755" lon="-97.910744" changeset="false"><tag k="addr:street" v="Sam Carter Drive"/><tag k="addr:housenumber" v="8803"/><tag k="coa:place_id" v="923678"/></node><node id="-200" lat="30.235858" lon="-97.902604" changeset="false"><tag k="addr:street" v="Thunderbird Road"/><tag k="addr:housenumber" v="8633"/><tag k="coa:place_id" v="872468"/></node><node id="-201" lat="30.237193" lon="-97.907834" changeset="false"><tag k="addr:street" v="Thunderbird Road"/><tag k="addr:housenumber" v="8802"/><tag k="coa:place_id" v="417927"/></node><node id="-202" lat="30.236727" lon="-97.908089" changeset="false"><tag k="addr:street" v="Thunderbird Road"/><tag k="addr:housenumber" v="8806"/><tag k="coa:place_id" v="100567"/></node><node id="-203" lat="30.244257" lon="-97.913443" changeset="false"><tag k="addr:street" v="Pitter Pat Lane"/><tag k="addr:housenumber" v="7803"/><tag k="coa:place_id" v="861123"/></node><node id="-204" lat="30.24358" lon="-97.91141" changeset="false"><tag k="addr:street" v="Towana Circle"/><tag k="addr:housenumber" v="7600"/><tag k="coa:place_id" v="1029255"/></node><node id="-205" lat="30.245524" lon="-97.920004" changeset="false"><tag k="addr:street" v="Wier Loop Road"/><tag k="addr:housenumber" v="9511"/><tag k="coa:place_id" v="3387591"/></node><node id="-206" lat="30.24355" lon="-97.898247" changeset="false"><tag k="addr:street" v="Covered Bridge Drive"/><tag k="addr:housenumber" v="7125"/><tag k="coa:place_id" v="3278417"/></node><node id="-207" lat="30.255058" lon="-97.911408" changeset="false"><tag k="addr:street" v="Fallow Run"/><tag k="addr:housenumber" v="9705"/><tag k="coa:place_id" v="5087929"/></node><node id="-208" lat="30.255233" lon="-97.91181" changeset="false"><tag k="addr:street" v="Fallow Run"/><tag k="addr:housenumber" v="9713"/><tag k="coa:place_id" v="5087930"/></node><node id="-209" lat="30.255635" lon="-97.913142" changeset="false"><tag k="addr:street" v="Fallow Run"/><tag k="addr:housenumber" v="9801"/><tag k="coa:place_id" v="5087933"/></node><node id="-210" lat="30.256992" lon="-97.911807" changeset="false"><tag k="addr:street" v="Chamois Way"/><tag k="addr:housenumber" v="9633"/><tag k="coa:place_id" v="5087986"/></node><node id="-211" lat="30.258262" lon="-97.912285" changeset="false"><tag k="addr:street" v="Chamois Way"/><tag k="addr:housenumber" v="9700"/><tag k="coa:place_id" v="5088051"/></node><node id="-212" lat="30.242826" lon="-97.900326" changeset="false"><tag k="addr:street" v="Foggy Mountain Drive"/><tag k="addr:housenumber" v="8713"/><tag k="coa:place_id" v="3427666"/></node><node id="-213" lat="30.244105" lon="-97.896101" changeset="false"><tag k="addr:street" v="Moccasin Path"/><tag k="addr:housenumber" v="8614"/><tag k="coa:place_id" v="5262520"/></node><node id="-214" lat="30.24547" lon="-97.895716" changeset="false"><tag k="addr:street" v="Moccasin Path"/><tag k="addr:housenumber" v="8810"/><tag k="coa:place_id" v="5262524"/></node><node id="-215" lat="30.257273" lon="-97.91235" changeset="false"><tag k="addr:street" v="Chamois Way"/><tag k="addr:housenumber" v="9637"/><tag k="coa:place_id" v="5113543"/></node><node id="-216" lat="30.250952" lon="-97.909995" changeset="false"><tag k="addr:street" v="Midwood Parkway"/><tag k="addr:housenumber" v="6907"/><tag k="coa:place_id" v="75966"/></node><node id="-217" lat="30.250613" lon="-97.907511" changeset="false"><tag k="addr:street" v="Bright Star Lane"/><tag k="addr:housenumber" v="6907"/><tag k="coa:place_id" v="728830"/></node><node id="-218" lat="30.258623" lon="-97.910237" changeset="false"><tag k="addr:street" v="Thomas Springs Road"/><tag k="addr:housenumber" v="6413"/><tag k="coa:place_id" v="142854"/></node><node id="-219" lat="30.25665" lon="-97.908844" changeset="false"><tag k="addr:street" v="Conifer Cove"/><tag k="addr:housenumber" v="6510"/><tag k="coa:place_id" v="218027"/></node><node id="-220" lat="30.252149" lon="-97.918648" changeset="false"><tag k="addr:street" v="Murmuring Creek Drive"/><tag k="addr:housenumber" v="10104"/><tag k="coa:place_id" v="1046001"/></node><node id="-221" lat="30.251749" lon="-97.919014" changeset="false"><tag k="addr:street" v="Murmuring Creek Drive"/><tag k="addr:housenumber" v="10105"/><tag k="coa:place_id" v="751947"/></node><node id="-222" lat="30.239826" lon="-97.899619" changeset="false"><tag k="addr:street" v="Black Mountain Drive"/><tag k="addr:housenumber" v="7405"/><tag k="coa:place_id" v="222516"/></node><node id="-223" lat="30.247593" lon="-97.90924" changeset="false"><tag k="addr:street" v="Murmuring Creek Drive"/><tag k="addr:housenumber" v="9307"/><tag k="coa:place_id" v="54249"/></node><node id="-224" lat="30.242055" lon="-97.917425" changeset="false"><tag k="addr:street" v="Williamson Creek Drive"/><tag k="addr:housenumber" v="8007"/><tag k="coa:place_id" v="106099"/></node><node id="-225" lat="30.241692" lon="-97.918759" changeset="false"><tag k="addr:street" v="Williamson Creek Drive"/><tag k="addr:housenumber" v="8200"/><tag k="coa:place_id" v="106085"/></node><node id="-226" lat="30.241188" lon="-97.906584" changeset="false"><tag k="addr:street" v="Towana Trail"/><tag k="addr:housenumber" v="9000"/><tag k="coa:place_id" v="110801"/></node><node id="-227" lat="30.247532" lon="-97.9124" changeset="false"><tag k="addr:street" v="Claxton Drive"/><tag k="addr:housenumber" v="9600"/><tag k="coa:place_id" v="144687"/></node><node id="-228" lat="30.236978" lon="-97.903845" changeset="false"><tag k="addr:street" v="Thunderbird Road"/><tag k="addr:housenumber" v="8650"/><tag k="coa:place_id" v="3045077"/></node><node id="-229" lat="30.242737" lon="-97.915075" changeset="false"><tag k="addr:street" v="Dorella Lane"/><tag k="addr:housenumber" v="9108"/><tag k="coa:place_id" v="3076332"/></node><node id="-230" lat="30.252473" lon="-97.911186" changeset="false"><tag k="addr:street" v="Dawning Court"/><tag k="addr:housenumber" v="9616"/><tag k="coa:place_id" v="54107"/></node><node id="-231" lat="30.25218" lon="-97.906593" changeset="false"><tag k="addr:street" v="Bright Star Lane"/><tag k="addr:housenumber" v="6801"/><tag k="coa:place_id" v="54099"/></node><node id="-232" lat="30.246806" lon="-97.896721" changeset="false"><tag k="addr:street" v="Covered Bridge Drive"/><tag k="addr:housenumber" v="6900"/><tag k="coa:place_id" v="222611"/></node><node id="-233" lat="30.25382" lon="-97.912684" changeset="false"><tag k="addr:street" v="Thomas Springs Road"/><tag k="addr:housenumber" v="6939"/><tag k="coa:place_id" v="3095127"/></node><node id="-234" lat="30.252254" lon="-97.907163" changeset="false"><tag k="addr:street" v="Bright Star Lane"/><tag k="addr:housenumber" v="6800"/><tag k="coa:place_id" v="54093"/></node><node id="-235" lat="30.239409" lon="-97.904909" changeset="false"><tag k="addr:street" v="Fenton Drive"/><tag k="addr:housenumber" v="8812"/><tag k="coa:place_id" v="1138942"/></node><node id="-236" lat="30.244439" lon="-97.898511" changeset="false"><tag k="addr:street" v="Covered Bridge Drive"/><tag k="addr:housenumber" v="7108"/><tag k="coa:place_id" v="222642"/></node><node id="-237" lat="30.244428" lon="-97.91671" changeset="false"><tag k="addr:street" v="Williamson Creek Drive"/><tag k="addr:housenumber" v="7808"/><tag k="coa:place_id" v="120253"/></node><node id="-238" lat="30.244214" lon="-97.916857" changeset="false"><tag k="addr:street" v="Williamson Creek Drive"/><tag k="addr:housenumber" v="7900"/><tag k="coa:place_id" v="143997"/></node><node id="-239" lat="30.247679" lon="-97.914645" changeset="false"><tag k="addr:street" v="Williamson Creek Drive"/><tag k="addr:housenumber" v="7414"/><tag k="coa:place_id" v="718096"/></node><node id="-240" lat="30.2419" lon="-97.918689" changeset="false"><tag k="addr:street" v="Williamson Creek Drive"/><tag k="addr:housenumber" v="8108"/><tag k="coa:place_id" v="120259"/></node><node id="-241" lat="30.24096" lon="-97.919316" changeset="false"><tag k="addr:street" v="Williamson Creek Drive"/><tag k="addr:housenumber" v="8300"/><tag k="coa:place_id" v="103161"/></node><node id="-242" lat="30.256556" lon="-97.906609" changeset="false"><tag k="addr:street" v="Anchusa Trail"/><tag k="addr:housenumber" v="9512"/><tag k="coa:place_id" v="218025"/></node><node id="-243" lat="30.242324" lon="-97.893966" changeset="false"><tag k="addr:street" v="Smokey Hill Road"/><tag k="addr:housenumber" v="7106"/><tag k="coa:place_id" v="737799"/></node><node id="-244" lat="30.240222" lon="-97.901256" changeset="false"><tag k="addr:street" v="Covered Bridge Drive"/><tag k="addr:housenumber" v="7408"/><tag k="coa:place_id" v="222557"/></node><node id="-245" lat="30.240847" lon="-97.90161" changeset="false"><tag k="addr:street" v="Samuel Bishop Drive"/><tag k="addr:housenumber" v="8715"/><tag k="coa:place_id" v="3084254"/></node><node id="-246" lat="30.244004" lon="-97.914923" changeset="false"><tag k="addr:street" v="Pitter Pat Lane"/><tag k="addr:housenumber" v="7804"/><tag k="coa:place_id" v="614739"/></node><node id="-247" lat="30.243897" lon="-97.909239" changeset="false"><tag k="addr:street" v="Lauralan Drive"/><tag k="addr:housenumber" v="9213"/><tag k="coa:place_id" v="102219"/></node><node id="-248" lat="30.245106" lon="-97.917322" changeset="false"><tag k="addr:street" v="Wier Loop Road"/><tag k="addr:housenumber" v="9400"/><tag k="coa:place_id" v="134718"/></node><node id="-249" lat="30.245192" lon="-97.890686" changeset="false"><tag k="addr:street" v="Raccoon Run"/><tag k="addr:housenumber" v="6802"/><tag k="coa:place_id" v="525045"/></node><node id="-250" lat="30.245739" lon="-97.925687" changeset="false"><tag k="addr:street" v="Circle Drive"/><tag k="addr:housenumber" v="9820"/><tag k="coa:place_id" v="243959"/></node><node id="-251" lat="30.249707" lon="-97.910474" changeset="false"><tag k="addr:street" v="Midwood Parkway"/><tag k="addr:housenumber" v="7101"/><tag k="coa:place_id" v="75962"/></node><node id="-252" lat="30.248983" lon="-97.909168" changeset="false"><tag k="addr:street" v="Bright Star Lane"/><tag k="addr:housenumber" v="7100"/><tag k="coa:place_id" v="54116"/></node><node id="-253" lat="30.247969" lon="-97.910041" changeset="false"><tag k="addr:street" v="Murmuring Creek Drive"/><tag k="addr:housenumber" v="9401"/><tag k="coa:place_id" v="54247"/></node><node id="-254" lat="30.246616" lon="-97.915593" changeset="false"><tag k="addr:street" v="Williamson Creek Drive"/><tag k="addr:housenumber" v="7602"/><tag k="coa:place_id" v="106063"/></node><node id="-255" lat="30.246417" lon="-97.90986" changeset="false"><tag k="addr:street" v="Claxton Drive"/><tag k="addr:housenumber" v="9302"/><tag k="coa:place_id" v="85282"/></node><node id="-256" lat="30.246439" lon="-97.915689" changeset="false"><tag k="addr:street" v="Williamson Creek Drive"/><tag k="addr:housenumber" v="7604"/><tag k="coa:place_id" v="106067"/></node><node id="-257" lat="30.239692" lon="-97.901578" changeset="false"><tag k="addr:street" v="Covered Bridge Drive"/><tag k="addr:housenumber" v="7512"/><tag k="coa:place_id" v="222562"/></node><node id="-258" lat="30.24694" lon="-97.911183" changeset="false"><tag k="addr:street" v="Claxton Drive"/><tag k="addr:housenumber" v="9500"/><tag k="coa:place_id" v="85284"/></node><node id="-259" lat="30.246401" lon="-97.911056" changeset="false"><tag k="addr:street" v="Claxton Drive"/><tag k="addr:housenumber" v="9403"/><tag k="coa:place_id" v="235407"/></node><node id="-260" lat="30.251336" lon="-97.910402" changeset="false"><tag k="addr:street" v="Midwood Parkway"/><tag k="addr:housenumber" v="6900"/><tag k="coa:place_id" v="115932"/></node><node id="-261" lat="30.235048" lon="-97.908716" changeset="false"><tag k="addr:street" v="Thunderbird Road"/><tag k="addr:housenumber" v="8818"/><tag k="coa:place_id" v="1138132"/></node><node id="-262" lat="30.23739" lon="-97.915373" changeset="false"><tag k="addr:street" v="Circle Drive"/><tag k="addr:housenumber" v="9006"/><tag k="coa:place_id" v="872618"/></node><node id="-263" lat="30.236245" lon="-97.907028" changeset="false"><tag k="addr:street" v="Thunderbird Road"/><tag k="addr:housenumber" v="8807"/><tag k="coa:place_id" v="445449"/></node><node id="-264" lat="30.247732" lon="-97.914077" changeset="false"><tag k="addr:street" v="Williamson Creek Drive"/><tag k="addr:housenumber" v="7405"/><tag k="coa:place_id" v="659679"/></node><node id="-265" lat="30.244512" lon="-97.918971" changeset="false"><tag k="addr:street" v="Wier Loop Road"/><tag k="addr:housenumber" v="9411"/><tag k="coa:place_id" v="872960"/></node><node id="-266" lat="30.236854" lon="-97.906366" changeset="false"><tag k="addr:street" v="Thunderbird Cove"/><tag k="addr:housenumber" v="8800"/><tag k="coa:place_id" v="100561"/></node><node id="-267" lat="30.241836" lon="-97.921037" changeset="false"><tag k="addr:street" v="Circle Drive"/><tag k="addr:housenumber" v="9430"/><tag k="coa:place_id" v="3198817"/></node><node id="-268" lat="30.255143" lon="-97.911117" changeset="false"><tag k="addr:street" v="Fallow Run"/><tag k="addr:housenumber" v="9701"/><tag k="coa:place_id" v="5087928"/></node><node id="-269" lat="30.256445" lon="-97.914014" changeset="false"><tag k="addr:street" v="Fallow Run"/><tag k="addr:housenumber" v="9825"/><tag k="coa:place_id" v="5087935"/></node><node id="-270" lat="30.256472" lon="-97.910563" changeset="false"><tag k="addr:street" v="Chamois Way"/><tag k="addr:housenumber" v="9609"/><tag k="coa:place_id" v="5087977"/></node><node id="-271" lat="30.256722" lon="-97.909725" changeset="false"><tag k="addr:street" v="Chamois Way"/><tag k="addr:housenumber" v="9600"/><tag k="coa:place_id" v="5087982"/></node><node id="-272" lat="30.257568" lon="-97.911142" changeset="false"><tag k="addr:street" v="Chamois Way"/><tag k="addr:housenumber" v="9624"/><tag k="coa:place_id" v="5088069"/></node><node id="-273" lat="30.245853" lon="-97.922064" changeset="false"><tag k="addr:street" v="Rockwood Circle"/><tag k="addr:housenumber" v="7901"/><tag k="coa:place_id" v="3218397"/></node><node id="-274" lat="30.232741" lon="-97.901755" changeset="false"><tag k="addr:street" v="Scenic Brook Drive"/><tag k="addr:housenumber" v="8112"/><tag k="coa:place_id" v="3655446"/></node><node id="-275" lat="30.25733" lon="-97.913372" changeset="false"><tag k="addr:street" v="Chamois Way"/><tag k="addr:housenumber" v="9724"/><tag k="coa:place_id" v="5113544"/></node><node id="-276" lat="30.252493" lon="-97.909844" changeset="false"><tag k="addr:street" v="Dawning Court"/><tag k="addr:housenumber" v="9601"/><tag k="coa:place_id" v="5199763"/></node><node id="-277" lat="30.241013" lon="-97.917044" changeset="false"><tag k="addr:street" v="Pitter Pat Lane"/><tag k="addr:housenumber" v="8100"/><tag k="coa:place_id" v="5081117"/></node><node id="-278" lat="30.242694" lon="-97.895087" changeset="false"><tag k="addr:street" v="Moccasin Path"/><tag k="addr:housenumber" v="8501"/><tag k="coa:place_id" v="5262455"/></node><node id="-279" lat="30.242793" lon="-97.895288" changeset="false"><tag k="addr:street" v="Moccasin Path"/><tag k="addr:housenumber" v="8505"/><tag k="coa:place_id" v="5262456"/></node><node id="-280" lat="30.245266" lon="-97.896383" changeset="false"><tag k="addr:street" v="Moccasin Path"/><tag k="addr:housenumber" v="8801"/><tag k="coa:place_id" v="5262468"/></node><node id="-281" lat="30.246033" lon="-97.895966" changeset="false"><tag k="addr:street" v="Moccasin Path"/><tag k="addr:housenumber" v="8901"/><tag k="coa:place_id" v="5262473"/></node><node id="-282" lat="30.251185" lon="-97.917994" changeset="false"><tag k="addr:street" v="Murmuring Creek Drive"/><tag k="addr:housenumber" v="10007"/><tag k="coa:place_id" v="833841"/></node><node id="-283" lat="30.2467" lon="-97.911337" changeset="false"><tag k="addr:street" v="Claxton Drive"/><tag k="addr:housenumber" v="9501"/><tag k="coa:place_id" v="102231"/></node><node id="-284" lat="30.242896" lon="-97.917246" changeset="false"><tag k="addr:street" v="Williamson Creek Drive"/><tag k="addr:housenumber" v="8003"/><tag k="coa:place_id" v="924248"/></node><node id="-285" lat="30.238647" lon="-97.917437" changeset="false"><tag k="addr:street" v="Circle Drive"/><tag k="addr:housenumber" v="9122"/><tag k="coa:place_id" v="760101"/></node><node id="-286" lat="30.245596" lon="-97.911523" changeset="false"><tag k="addr:street" v="Lauralan Drive"/><tag k="addr:housenumber" v="9402"/><tag k="coa:place_id" v="672249"/></node><node id="-287" lat="30.248155" lon="-97.910461" changeset="false"><tag k="addr:street" v="Murmuring Creek Drive"/><tag k="addr:housenumber" v="9405"/><tag k="coa:place_id" v="54246"/></node><node id="-288" lat="30.241479" lon="-97.902174" changeset="false"><tag k="addr:street" v="Roaring Springs Drive"/><tag k="addr:housenumber" v="7401"/><tag k="coa:place_id" v="3103376"/></node><node id="-289" lat="30.248856" lon="-97.921507" changeset="false"><tag k="addr:street" v="Thomas Springs Road"/><tag k="addr:housenumber" v="7613"/><tag k="coa:place_id" v="872990"/></node><node id="-290" lat="30.239358" lon="-97.904415" changeset="false"><tag k="addr:street" v="Roaring Springs Drive"/><tag k="addr:housenumber" v="7612"/><tag k="coa:place_id" v="222737"/></node><node id="-291" lat="30.249344" lon="-97.908434" changeset="false"><tag k="addr:street" v="Bright Star Lane"/><tag k="addr:housenumber" v="7009"/><tag k="coa:place_id" v="54121"/></node><node id="-292" lat="30.248638" lon="-97.90937" changeset="false"><tag k="addr:street" v="Bright Star Lane"/><tag k="addr:housenumber" v="7104"/><tag k="coa:place_id" v="54117"/></node><node id="-293" lat="30.250466" lon="-97.908301" changeset="false"><tag k="addr:street" v="Bright Star Lane"/><tag k="addr:housenumber" v="6910"/><tag k="coa:place_id" v="54112"/></node><node id="-294" lat="30.247667" lon="-97.896467" changeset="false"><tag k="addr:street" v="Covered Bridge Drive"/><tag k="addr:housenumber" v="6804"/><tag k="coa:place_id" v="222601"/></node><node id="-295" lat="30.257745" lon="-97.910569" changeset="false"><tag k="addr:street" v="Thomas Springs Road"/><tag k="addr:housenumber" v="6701"/><tag k="coa:place_id" v="3066846"/></node><node id="-296" lat="30.256841" lon="-97.90832" changeset="false"><tag k="addr:street" v="Conifer Cove"/><tag k="addr:housenumber" v="6500"/><tag k="coa:place_id" v="235555"/></node><node id="-297" lat="30.254645" lon="-97.907957" changeset="false"><tag k="addr:street" v="Midwood Parkway"/><tag k="addr:housenumber" v="6700"/><tag k="coa:place_id" v="75971"/></node><node id="-298" lat="30.254267" lon="-97.907736" changeset="false"><tag k="addr:street" v="Midwood Parkway"/><tag k="addr:housenumber" v="6701"/><tag k="coa:place_id" v="649780"/></node><node id="-299" lat="30.239762" lon="-97.905716" changeset="false"><tag k="addr:street" v="Towana Trail"/><tag k="addr:housenumber" v="8917"/><tag k="coa:place_id" v="222704"/></node><node id="-300" lat="30.239569" lon="-97.903198" changeset="false"><tag k="addr:street" v="Crackling Creek Drive"/><tag k="addr:housenumber" v="7622"/><tag k="coa:place_id" v="222755"/></node><node id="-301" lat="30.237598" lon="-97.905123" changeset="false"><tag k="addr:street" v="Thunderbird Road"/><tag k="addr:housenumber" v="8708"/><tag k="coa:place_id" v="251476"/></node><node id="-302" lat="30.243778" lon="-97.899083" changeset="false"><tag k="addr:street" v="Covered Bridge Drive"/><tag k="addr:housenumber" v="7200"/><tag k="coa:place_id" v="222648"/></node><node id="-303" lat="30.242488" lon="-97.912092" changeset="false"><tag k="addr:street" v="Towana Trail"/><tag k="addr:housenumber" v="9307"/><tag k="coa:place_id" v="872096"/></node><node id="-304" lat="30.239701" lon="-97.90231" changeset="false"><tag k="addr:street" v="Crackling Creek Drive"/><tag k="addr:housenumber" v="7615"/><tag k="coa:place_id" v="222777"/></node><node id="-305" lat="30.244529" lon="-97.913155" changeset="false"><tag k="addr:street" v="Pitter Pat Lane"/><tag k="addr:housenumber" v="7801"/><tag k="coa:place_id" v="118575"/></node><node id="-306" lat="30.247197" lon="-97.89577" changeset="false"><tag k="addr:street" v="Covered Bridge Drive"/><tag k="addr:housenumber" v="6811"/><tag k="coa:place_id" v="222622"/></node><node id="-307" lat="30.243145" lon="-97.91293" changeset="false"><tag k="addr:street" v="Towana Trail"/><tag k="addr:housenumber" v="9403"/><tag k="coa:place_id" v="118563"/></node><node id="-308" lat="30.250797" lon="-97.917084" changeset="false"><tag k="addr:street" v="Murmuring Creek Drive"/><tag k="addr:housenumber" v="10001"/><tag k="coa:place_id" v="933987"/></node><node id="-309" lat="30.238972" lon="-97.893195" changeset="false"><tag k="addr:street" v="Spring Valley Drive"/><tag k="addr:housenumber" v="8209"/><tag k="coa:place_id" v="724653"/></node><node id="-310" lat="30.240965" lon="-97.909699" changeset="false"><tag k="addr:street" v="Mowinkle Cove"/><tag k="addr:housenumber" v="7706"/><tag k="coa:place_id" v="874136"/></node><node id="-311" lat="30.243767" lon="-97.900233" changeset="false"><tag k="addr:street" v="Roaring Springs Drive"/><tag k="addr:housenumber" v="7203 1/2"/><tag k="coa:place_id" v="3082749"/></node><node id="-312" lat="30.243925" lon="-97.916252" changeset="false"><tag k="addr:street" v="Williamson Creek Drive"/><tag k="addr:housenumber" v="7809"/><tag k="coa:place_id" v="874412"/></node><node id="-313" lat="30.24564" lon="-97.923648" changeset="false"><tag k="addr:street" v="Circle Drive"/><tag k="addr:housenumber" v="9814"/><tag k="coa:place_id" v="872750"/></node><node id="-314" lat="30.246634" lon="-97.925593" changeset="false"><tag k="addr:street" v="Thomas Springs Road"/><tag k="addr:housenumber" v="8009"/><tag k="coa:place_id" v="333489"/></node><node id="-315" lat="30.249753" lon="-97.91567" changeset="false"><tag k="addr:street" v="Murmuring Creek Drive"/><tag k="addr:housenumber" v="9805"/><tag k="coa:place_id" v="269577"/></node><node id="-316" lat="30.248829" lon="-97.913973" changeset="false"><tag k="addr:street" v="Williamson Creek Drive"/><tag k="addr:housenumber" v="7400"/><tag k="coa:place_id" v="874454"/></node><node id="-317" lat="30.246116" lon="-97.915071" changeset="false"><tag k="addr:street" v="Williamson Creek Drive"/><tag k="addr:housenumber" v="7605"/><tag k="coa:place_id" v="106111"/></node><node id="-318" lat="30.245678" lon="-97.890844" changeset="false"><tag k="addr:street" v="Raccoon Run"/><tag k="addr:housenumber" v="6713"/><tag k="coa:place_id" v="89231"/></node><node id="-319" lat="30.244913" lon="-97.912234" changeset="false"><tag k="addr:street" v="Lauralan Drive"/><tag k="addr:housenumber" v="9403"/><tag k="coa:place_id" v="872066"/></node><node id="-320" lat="30.240308" lon="-97.91753" changeset="false"><tag k="addr:street" v="Pitter Pat Lane"/><tag k="addr:housenumber" v="8204"/><tag k="coa:place_id" v="874400"/></node><node id="-321" lat="30.254829" lon="-97.916015" changeset="false"><tag k="addr:street" v="Thomas Springs Road"/><tag k="addr:housenumber" v="7001"/><tag k="coa:place_id" v="3049529"/></node><node id="-322" lat="30.25402" lon="-97.905018" changeset="false"><tag k="addr:street" v="Summer Sky Drive"/><tag k="addr:housenumber" v="9314"/><tag k="coa:place_id" v="54271"/></node><node id="-323" lat="30.251922" lon="-97.90919" changeset="false"><tag k="addr:street" v="Midwood Parkway"/><tag k="addr:housenumber" v="6811"/><tag k="coa:place_id" v="121605"/></node><node id="-324" lat="30.244353" lon="-97.897697" changeset="false"><tag k="addr:street" v="Covered Bridge Drive"/><tag k="addr:housenumber" v="7101"/><tag k="coa:place_id" v="3132873"/></node><node id="-325" lat="30.2351" lon="-97.901053" changeset="false"><tag k="addr:street" v="Thunderbird Road"/><tag k="addr:housenumber" v="8607"/><tag k="coa:place_id" v="872552"/></node><node id="-326" lat="30.239816" lon="-97.906351" changeset="false"><tag k="addr:street" v="Towana Trail"/><tag k="addr:housenumber" v="8925"/><tag k="coa:place_id" v="222703"/></node><node id="-327" lat="30.235749" lon="-97.911339" changeset="false"><tag k="addr:street" v="Circle Drive"/><tag k="addr:housenumber" v="8834"/><tag k="coa:place_id" v="825513"/></node><node id="-328" lat="30.235262" lon="-97.90145" changeset="false"><tag k="addr:street" v="Thunderbird Road"/><tag k="addr:housenumber" v="8615"/><tag k="coa:place_id" v="872540"/></node><node id="-329" lat="30.240144" lon="-97.898145" changeset="false"><tag k="addr:street" v="Selway Drive"/><tag k="addr:housenumber" v="8517"/><tag k="coa:place_id" v="795525"/></node><node id="-330" lat="30.235881" lon="-97.903104" changeset="false"><tag k="addr:street" v="Thunderbird Road"/><tag k="addr:housenumber" v="8639"/><tag k="coa:place_id" v="872462"/></node><node id="-331" lat="30.236117" lon="-97.907956" changeset="false"><tag k="addr:street" v="Thunderbird Road"/><tag k="addr:housenumber" v="8810"/><tag k="coa:place_id" v="427197"/></node><node id="-332" lat="30.241775" lon="-97.902311" changeset="false"><tag k="addr:street" v="Roaring Springs Drive"/><tag k="addr:housenumber" v="7400"/><tag k="coa:place_id" v="3099721"/></node><node id="-333" lat="30.243279" lon="-97.911129" changeset="false"><tag k="addr:street" v="Towana Circle"/><tag k="addr:housenumber" v="7601"/><tag k="coa:place_id" v="85289"/></node><node id="-334" lat="30.242328" lon="-97.90916" changeset="false"><tag k="addr:street" v="Towana Trail"/><tag k="addr:housenumber" v="9106"/><tag k="coa:place_id" v="151797"/></node><node id="-335" lat="30.238485" lon="-97.902899" changeset="false"><tag k="addr:street" v="Crackling Creek Drive"/><tag k="addr:housenumber" v="7711"/><tag k="coa:place_id" v="222768"/></node><node id="-336" lat="30.238322" lon="-97.902413" changeset="false"><tag k="addr:street" v="Covered Bridge Drive"/><tag k="addr:housenumber" v="7704"/><tag k="coa:place_id" v="222585"/></node><node id="-337" lat="30.237687" lon="-97.91305" changeset="false"><tag k="addr:street" v="Sam Carter Drive"/><tag k="addr:housenumber" v="8911"/><tag k="coa:place_id" v="874340"/></node><node id="-338" lat="30.248726" lon="-97.895935" changeset="false"><tag k="addr:street" v="Covered Bridge Drive"/><tag k="addr:housenumber" v="6714"/><tag k="coa:place_id" v="3220064"/></node><node id="-339" lat="30.255926" lon="-97.911411" changeset="false"><tag k="addr:street" v="Fallow Run"/><tag k="addr:housenumber" v="9712"/><tag k="coa:place_id" v="5087924"/></node><node id="-340" lat="30.256188" lon="-97.91387" changeset="false"><tag k="addr:street" v="Fallow Run"/><tag k="addr:housenumber" v="9817"/><tag k="coa:place_id" v="5087934"/></node><node id="-341" lat="30.25642" lon="-97.910103" changeset="false"><tag k="addr:street" v="Chamois Way"/><tag k="addr:housenumber" v="9601"/><tag k="coa:place_id" v="5087976"/></node><node id="-342" lat="30.257794" lon="-97.911612" changeset="false"><tag k="addr:street" v="Chamois Way"/><tag k="addr:housenumber" v="9632"/><tag k="coa:place_id" v="5087984"/></node><node id="-343" lat="30.244604" lon="-97.896712" changeset="false"><tag k="addr:street" v="Moccasin Path"/><tag k="addr:housenumber" v="8705"/><tag k="coa:place_id" v="5262464"/></node><node id="-344" lat="30.245721" lon="-97.896138" changeset="false"><tag k="addr:street" v="Moccasin Path"/><tag k="addr:housenumber" v="8813"/><tag k="coa:place_id" v="5262471"/></node><node id="-345" lat="30.238301" lon="-97.90855" changeset="false"><tag k="addr:street" v="Mowinkle Drive"/><tag k="addr:housenumber" v="8001"/><tag k="coa:place_id" v="5083377"/></node><node id="-346" lat="30.238418" lon="-97.916909" changeset="false"><tag k="addr:street" v="Circle Drive"/><tag k="addr:housenumber" v="9100"/><tag k="coa:place_id" v="872666"/></node><node id="-347" lat="30.242443" lon="-97.917177" changeset="false"><tag k="addr:street" v="Williamson Creek Drive"/><tag k="addr:housenumber" v="8005"/><tag k="coa:place_id" v="748336"/></node><node id="-348" lat="30.245695" lon="-97.909272" changeset="false"><tag k="addr:street" v="Claxton Drive"/><tag k="addr:housenumber" v="9301"/><tag k="coa:place_id" v="85287"/></node><node id="-349" lat="30.250291" lon="-97.919416" changeset="false"><tag k="addr:street" v="Thomas Springs Road"/><tag k="addr:housenumber" v="7413"/><tag k="coa:place_id" v="873026"/></node><node id="-350" lat="30.250845" lon="-97.91177" changeset="false"><tag k="addr:street" v="Streamside Drive"/><tag k="addr:housenumber" v="9608"/><tag k="coa:place_id" v="54282"/></node><node id="-351" lat="30.243472" lon="-97.913265" changeset="false"><tag k="addr:street" v="Towana Trail"/><tag k="addr:housenumber" v="9405"/><tag k="coa:place_id" v="1029261"/></node><node id="-352" lat="30.250553" lon="-97.91246" changeset="false"><tag k="addr:street" v="Streamside Drive"/><tag k="addr:housenumber" v="9609"/><tag k="coa:place_id" v="54279"/></node><node id="-353" lat="30.244009" lon="-97.916918" changeset="false"><tag k="addr:street" v="Williamson Creek Drive"/><tag k="addr:housenumber" v="7902"/><tag k="coa:place_id" v="872678"/></node><node id="-354" lat="30.253055" lon="-97.910278" changeset="false"><tag k="addr:street" v="Dawning Court"/><tag k="addr:housenumber" v="9604"/><tag k="coa:place_id" v="54104"/></node><node id="-355" lat="30.256118" lon="-97.911901" changeset="false"><tag k="addr:street" v="Fallow Run"/><tag k="addr:housenumber" v="9720"/><tag k="coa:place_id" v="5087925"/></node><node id="-356" lat="30.256241" lon="-97.912331" changeset="false"><tag k="addr:street" v="Fallow Run"/><tag k="addr:housenumber" v="9728"/><tag k="coa:place_id" v="5087926"/></node><node id="-357" lat="30.256349" lon="-97.912782" changeset="false"><tag k="addr:street" v="Fallow Run"/><tag k="addr:housenumber" v="9800"/><tag k="coa:place_id" v="5087927"/></node><node id="-358" lat="30.256771" lon="-97.910958" changeset="false"><tag k="addr:street" v="Chamois Way"/><tag k="addr:housenumber" v="9617"/><tag k="coa:place_id" v="5088066"/></node><node id="-359" lat="30.243932" lon="-97.896022" changeset="false"><tag k="addr:street" v="Moccasin Path"/><tag k="addr:housenumber" v="8610"/><tag k="coa:place_id" v="5262519"/></node><node id="-360" lat="30.245661" lon="-97.89561" changeset="false"><tag k="addr:street" v="Moccasin Path"/><tag k="addr:housenumber" v="8818"/><tag k="coa:place_id" v="5262525"/></node><node id="-361" lat="30.243002" lon="-97.895685" changeset="false"><tag k="addr:street" v="Moccasin Path"/><tag k="addr:housenumber" v="8513"/><tag k="coa:place_id" v="5262458"/></node><node id="-362" lat="30.245412" lon="-97.896316" changeset="false"><tag k="addr:street" v="Moccasin Path"/><tag k="addr:housenumber" v="8805"/><tag k="coa:place_id" v="5262469"/></node><node id="-363" lat="30.245898" lon="-97.896083" changeset="false"><tag k="addr:street" v="Moccasin Path"/><tag k="addr:housenumber" v="8817"/><tag k="coa:place_id" v="5262472"/></node><node id="-364" lat="30.255438" lon="-97.910961" changeset="false"><tag k="addr:street" v="Fallow Run"/><tag k="addr:housenumber" v="9700"/><tag k="coa:place_id" v="5087922"/></node><node id="-365" lat="30.255743" lon="-97.911015" changeset="false"><tag k="addr:street" v="Fallow Run"/><tag k="addr:housenumber" v="9704"/><tag k="coa:place_id" v="5087923"/></node><node id="-366" lat="30.257985" lon="-97.912801" changeset="false"><tag k="addr:street" v="Chamois Way"/><tag k="addr:housenumber" v="9708"/><tag k="coa:place_id" v="5087980"/></node><node id="-367" lat="30.258003" lon="-97.911983" changeset="false"><tag k="addr:street" v="Chamois Way"/><tag k="addr:housenumber" v="9640"/><tag k="coa:place_id" v="5087985"/></node><node id="-368" lat="30.256918" lon="-97.911373" changeset="false"><tag k="addr:street" v="Chamois Way"/><tag k="addr:housenumber" v="9625"/><tag k="coa:place_id" v="5088065"/></node><node id="-369" lat="30.256818" lon="-97.914029" changeset="false"><tag k="addr:street" v="Fallow Run"/><tag k="addr:housenumber" v="9901"/><tag k="coa:place_id" v="5088047"/></node><node id="-370" lat="30.247539" lon="-97.895772" changeset="false"><tag k="addr:street" v="Covered Bridge Drive"/><tag k="addr:housenumber" v="6807"/><tag k="coa:place_id" v="3355655"/></node><node id="-371" lat="30.239991" lon="-97.919007" changeset="false"><tag k="addr:street" v="Williamson Creek Drive"/><tag k="addr:housenumber" v="8307"/><tag k="coa:place_id" v="5098116"/></node><node id="-372" lat="30.251329" lon="-97.918353" changeset="false"><tag k="addr:street" v="Murmuring Creek Drive"/><tag k="addr:housenumber" v="10101"/><tag k="coa:place_id" v="3392616"/></node><node id="-373" lat="30.242496" lon="-97.894675" changeset="false"><tag k="addr:street" v="Moccasin Path"/><tag k="addr:housenumber" v="8417"/><tag k="coa:place_id" v="5262453"/></node><node id="-374" lat="30.242895" lon="-97.895482" changeset="false"><tag k="addr:street" v="Moccasin Path"/><tag k="addr:housenumber" v="8509"/><tag k="coa:place_id" v="5262457"/></node><node id="-375" lat="30.243369" lon="-97.896066" changeset="false"><tag k="addr:street" v="Moccasin Path"/><tag k="addr:housenumber" v="8601"/><tag k="coa:place_id" v="5262461"/></node><node id="-376" lat="30.244942" lon="-97.896602" changeset="false"><tag k="addr:street" v="Moccasin Path"/><tag k="addr:housenumber" v="8713"/><tag k="coa:place_id" v="5262466"/></node><node id="-377" lat="30.245582" lon="-97.896243" changeset="false"><tag k="addr:street" v="Moccasin Path"/><tag k="addr:housenumber" v="8809"/><tag k="coa:place_id" v="5262470"/></node><node id="-378" lat="30.246191" lon="-97.895841" changeset="false"><tag k="addr:street" v="Moccasin Path"/><tag k="addr:housenumber" v="8905"/><tag k="coa:place_id" v="5262474"/></node><node id="-379" lat="30.242922" lon="-97.922438" changeset="false"><tag k="addr:street" v="Circle Drive"/><tag k="addr:housenumber" v="9528"/><tag k="coa:place_id" v="3294611"/></node><node id="-380" lat="30.245879" lon="-97.910088" changeset="false"><tag k="addr:street" v="Claxton Drive"/><tag k="addr:housenumber" v="9303"/><tag k="coa:place_id" v="872042"/></node><node id="-381" lat="30.242351" lon="-97.904596" changeset="false"><tag k="addr:street" v="Towana Trail"/><tag k="addr:housenumber" v="8938"/><tag k="coa:place_id" v="222699"/></node><node id="-382" lat="30.237574" lon="-97.903085" changeset="false"><tag k="addr:street" v="Fenton Drive"/><tag k="addr:housenumber" v="8709 1/2"/><tag k="coa:place_id" v="3172082"/></node><node id="-383" lat="30.24254" lon="-97.894072" changeset="false"><tag k="addr:street" v="Moccasin Path"/><tag k="addr:housenumber" v="8411 1/2"/><tag k="coa:place_id" v="3212448"/></node><node id="-384" lat="30.256958" lon="-97.914231" changeset="false"><tag k="addr:street" v="Thomas Springs Road"/><tag k="addr:housenumber" v="6721"/><tag k="coa:place_id" v="3426933"/></node><node id="-385" lat="30.240426" lon="-97.899908" changeset="false"><tag k="addr:street" v="Black Mountain Drive"/><tag k="addr:housenumber" v="7324"/><tag k="coa:place_id" v="3164822"/></node><node id="-386" lat="30.247506" lon="-97.895842" changeset="false"><tag k="addr:street" v="Covered Bridge Drive"/><tag k="addr:housenumber" v="6811 1/2"/><tag k="coa:place_id" v="3082540"/></node><node id="-387" lat="30.256427" lon="-97.911387" changeset="false"><tag k="addr:street" v="Thomas Springs Road"/><tag k="addr:housenumber" v="6715"/><tag k="coa:place_id" v="3049531"/></node><node id="-388" lat="30.255307" lon="-97.912188" changeset="false"><tag k="addr:street" v="Fallow Run"/><tag k="addr:housenumber" v="9721"/><tag k="coa:place_id" v="5087931"/></node><node id="-389" lat="30.255434" lon="-97.912603" changeset="false"><tag k="addr:street" v="Fallow Run"/><tag k="addr:housenumber" v="9729"/><tag k="coa:place_id" v="5087932"/></node><node id="-390" lat="30.257681" lon="-97.91312" changeset="false"><tag k="addr:street" v="Chamois Way"/><tag k="addr:housenumber" v="9716"/><tag k="coa:place_id" v="5087981"/></node><node id="-391" lat="30.255928" lon="-97.913581" changeset="false"><tag k="addr:street" v="Fallow Run"/><tag k="addr:housenumber" v="9809"/><tag k="coa:place_id" v="5088056"/></node><node id="-392" lat="30.257255" lon="-97.910039" changeset="false"><tag k="addr:street" v="Chamois Way"/><tag k="addr:housenumber" v="9608"/><tag k="coa:place_id" v="5088067"/></node><node id="-393" lat="30.237264" lon="-97.89756" changeset="false"><tag k="addr:street" v="Gallatin Drive"/><tag k="addr:housenumber" v="8314"/><tag k="coa:place_id" v="646449"/></node><node id="-394" lat="30.245268" lon="-97.913967" changeset="false"><tag k="addr:street" v="Pitter Pat Lane"/><tag k="addr:housenumber" v="7702"/><tag k="coa:place_id" v="260739"/></node><node id="-395" lat="30.242672" lon="-97.900923" changeset="false"><tag k="addr:street" v="Roaring Springs Drive"/><tag k="addr:housenumber" v="7311"/><tag k="coa:place_id" v="222429"/></node><node id="-396" lat="30.256214" lon="-97.907871" changeset="false"><tag k="addr:street" v="Conifer Cove"/><tag k="addr:housenumber" v="6501"/><tag k="coa:place_id" v="236753"/></node><node id="-397" lat="30.237655" lon="-97.898437" changeset="false"><tag k="addr:street" v="Roan Lane"/><tag k="addr:housenumber" v="8409"/><tag k="coa:place_id" v="372561"/></node><node id="-398" lat="30.23747" lon="-97.904581" changeset="false"><tag k="addr:street" v="Thunderbird Road"/><tag k="addr:housenumber" v="8704"/><tag k="coa:place_id" v="1138128"/></node><node id="-399" lat="30.238924" lon="-97.901365" changeset="false"><tag k="addr:street" v="Covered Bridge Drive"/><tag k="addr:housenumber" v="7601"/><tag k="coa:place_id" v="222588"/></node><node id="-400" lat="30.236671" lon="-97.902895" changeset="false"><tag k="addr:street" v="Thunderbird Road"/><tag k="addr:housenumber" v="8640"/><tag k="coa:place_id" v="760041"/></node><node id="-401" lat="30.254368" lon="-97.90855" changeset="false"><tag k="addr:street" v="Midwood Parkway"/><tag k="addr:housenumber" v="6704"/><tag k="coa:place_id" v="75970"/></node><node id="-402" lat="30.242683" lon="-97.896026" changeset="false"><tag k="addr:street" v="Red Willow Drive"/><tag k="addr:housenumber" v="8420"/><tag k="coa:place_id" v="941391"/></node><node id="-403" lat="30.249525" lon="-97.916631" changeset="false"><tag k="addr:street" v="Trenton Drive"/><tag k="addr:housenumber" v="7304"/><tag k="coa:place_id" v="3089000"/></node><node id="-404" lat="30.248726" lon="-97.908794" changeset="false"><tag k="addr:street" v="Bright Star Lane"/><tag k="addr:housenumber" v="7101"/><tag k="coa:place_id" v="54123"/></node><node id="-405" lat="30.238939" lon="-97.905808" changeset="false"><tag k="addr:street" v="Fenton Drive"/><tag k="addr:housenumber" v="8821"/><tag k="coa:place_id" v="222786"/></node><node id="-406" lat="30.246523" lon="-97.925551" changeset="false"><tag k="addr:street" v="Thomas Springs Road"/><tag k="addr:housenumber" v="8005"/><tag k="coa:place_id" v="95232"/></node><node id="-407" lat="30.242502" lon="-97.911794" changeset="false"><tag k="addr:street" v="Towana Trail"/><tag k="addr:housenumber" v="9305"/><tag k="coa:place_id" v="85275"/></node><node id="-408" lat="30.242369" lon="-97.908752" changeset="false"><tag k="addr:street" v="Towana Trail"/><tag k="addr:housenumber" v="9104"/><tag k="coa:place_id" v="85279"/></node><node id="-409" lat="30.242227" lon="-97.906506" changeset="false"><tag k="addr:street" v="Mowinkle Drive"/><tag k="addr:housenumber" v="7603"/><tag k="coa:place_id" v="85294"/></node><node id="-410" lat="30.248388" lon="-97.908952" changeset="false"><tag k="addr:street" v="Bright Star Lane"/><tag k="addr:housenumber" v="7105"/><tag k="coa:place_id" v="54124"/></node><node id="-411" lat="30.248338" lon="-97.910809" changeset="false"><tag k="addr:street" v="Murmuring Creek Drive"/><tag k="addr:housenumber" v="9501"/><tag k="coa:place_id" v="54245"/></node><node id="-412" lat="30.241847" lon="-97.909945" changeset="false"><tag k="addr:street" v="Towana Trail"/><tag k="addr:housenumber" v="9201"/><tag k="coa:place_id" v="125110"/></node><node id="-413" lat="30.240551" lon="-97.912918" changeset="false"><tag k="addr:street" v="Dorella Lane"/><tag k="addr:housenumber" v="8921"/><tag k="coa:place_id" v="1138937"/></node><node id="-414" lat="30.258653" lon="-97.912288" changeset="false"><tag k="addr:street" v="Thomas Springs Road"/><tag k="addr:housenumber" v="6605"/><tag k="coa:place_id" v="167649"/></node><node id="-415" lat="30.258731" lon="-97.909509" changeset="false"><tag k="addr:street" v="Anchusa Trail"/><tag k="addr:housenumber" v="9725"/><tag k="coa:place_id" v="218012"/></node><node id="-416" lat="30.258336" lon="-97.908383" changeset="false"><tag k="addr:street" v="Anchusa Trail"/><tag k="addr:housenumber" v="9710"/><tag k="coa:place_id" v="218022"/></node><node id="-417" lat="30.245766" lon="-97.915887" changeset="false"><tag k="addr:street" v="Williamson Creek Drive"/><tag k="addr:housenumber" v="7702"/><tag k="coa:place_id" v="106068"/></node><node id="-418" lat="30.241215" lon="-97.901093" changeset="false"><tag k="addr:street" v="Samuel Bishop Drive"/><tag k="addr:housenumber" v="8712"/><tag k="coa:place_id" v="222435"/></node><node id="-419" lat="30.239392" lon="-97.897516" changeset="false"><tag k="addr:street" v="Spring Valley Drive"/><tag k="addr:housenumber" v="8419"/><tag k="coa:place_id" v="884523"/></node><node id="-420" lat="30.244268" lon="-97.924237" changeset="false"><tag k="addr:street" v="Circle Drive"/><tag k="addr:housenumber" v="9714"/><tag k="coa:place_id" v="872732"/></node><node id="-421" lat="30.240902" lon="-97.919728" changeset="false"><tag k="addr:street" v="Circle Drive"/><tag k="addr:housenumber" v="9324"/><tag k="coa:place_id" v="872648"/></node><node id="-422" lat="30.245525" lon="-97.909652" changeset="false"><tag k="addr:street" v="Claxton Drive"/><tag k="addr:housenumber" v="9207"/><tag k="coa:place_id" v="1048538"/></node><node id="-423" lat="30.245265" lon="-97.907742" changeset="false"><tag k="addr:street" v="Claxton Drive"/><tag k="addr:housenumber" v="9200"/><tag k="coa:place_id" v="108132"/></node><node id="-424" lat="30.25197" lon="-97.907417" changeset="false"><tag k="addr:street" v="Bright Star Lane"/><tag k="addr:housenumber" v="6804"/><tag k="coa:place_id" v="706744"/></node><node id="-425" lat="30.241112" lon="-97.907848" changeset="false"><tag k="addr:street" v="Mowinkle Drive"/><tag k="addr:housenumber" v="7800"/><tag k="coa:place_id" v="856485"/></node><node id="-426" lat="30.244362" lon="-97.896143" changeset="false"><tag k="addr:street" v="Moccasin Path"/><tag k="addr:housenumber" v="8700"/><tag k="coa:place_id" v="5262521"/></node><node id="-427" lat="30.245843" lon="-97.895467" changeset="false"><tag k="addr:street" v="Moccasin Path"/><tag k="addr:housenumber" v="8902"/><tag k="coa:place_id" v="5262531"/></node><node id="-428" lat="30.237425" lon="-97.903123" changeset="false"><tag k="addr:street" v="Fenton Drive"/><tag k="addr:housenumber" v="8709"/><tag k="coa:place_id" v="222804"/></node><node id="-429" lat="30.238103" lon="-97.898433" changeset="false"><tag k="addr:street" v="Roan Lane"/><tag k="addr:housenumber" v="8408"/><tag k="coa:place_id" v="333729"/></node><node id="-430" lat="30.243496" lon="-97.906082" changeset="false"><tag k="addr:street" v="Mowinkle Drive"/><tag k="addr:housenumber" v="7402"/><tag k="coa:place_id" v="121179"/></node><node id="-431" lat="30.242921" lon="-97.901707" changeset="false"><tag k="addr:street" v="Roaring Springs Drive"/><tag k="addr:housenumber" v="7308"/><tag k="coa:place_id" v="222403"/></node><node id="-432" lat="30.244259" lon="-97.912675" changeset="false"><tag k="addr:street" v="Towana Trail"/><tag k="addr:housenumber" v="9402"/><tag k="coa:place_id" v="1048526"/></node><node id="-433" lat="30.242004" lon="-97.911241" changeset="false"><tag k="addr:street" v="Towana Trail"/><tag k="addr:housenumber" v="9303"/><tag k="coa:place_id" v="583900"/></node><node id="-434" lat="30.251023" lon="-97.917684" changeset="false"><tag k="addr:street" v="Murmuring Creek Drive"/><tag k="addr:housenumber" v="10005"/><tag k="coa:place_id" v="1046031"/></node><node id="-435" lat="30.239382" lon="-97.895794" changeset="false"><tag k="addr:street" v="Spring Valley Drive"/><tag k="addr:housenumber" v="8401"/><tag k="coa:place_id" v="883629"/></node><node id="-436" lat="30.248832" lon="-97.911937" changeset="false"><tag k="addr:street" v="Murmuring Creek Drive"/><tag k="addr:housenumber" v="9509"/><tag k="coa:place_id" v="122593"/></node><node id="-437" lat="30.248548" lon="-97.914068" changeset="false"><tag k="addr:street" v="Williamson Creek Drive"/><tag k="addr:housenumber" v="7404"/><tag k="coa:place_id" v="120211"/></node><node id="-438" lat="30.238442" lon="-97.893274" changeset="false"><tag k="addr:street" v="Burnt Circle"/><tag k="addr:housenumber" v="8201"/><tag k="coa:place_id" v="644235"/></node><node id="-439" lat="30.246121" lon="-97.912686" changeset="false"><tag k="addr:street" v="Lauralan Drive"/><tag k="addr:housenumber" v="9502"/><tag k="coa:place_id" v="1034654"/></node><node id="-440" lat="30.245822" lon="-97.912154" changeset="false"><tag k="addr:street" v="Lauralan Drive"/><tag k="addr:housenumber" v="9500"/><tag k="coa:place_id" v="927986"/></node><node id="-441" lat="30.253904" lon="-97.908035" changeset="false"><tag k="addr:street" v="Midwood Parkway"/><tag k="addr:housenumber" v="6705"/><tag k="coa:place_id" v="638890"/></node><node id="-442" lat="30.247289" lon="-97.911754" changeset="false"><tag k="addr:street" v="Claxton Drive"/><tag k="addr:housenumber" v="9502"/><tag k="coa:place_id" v="326223"/></node><node id="-443" lat="30.246784" lon="-97.915469" changeset="false"><tag k="addr:street" v="Williamson Creek Drive"/><tag k="addr:housenumber" v="7600"/><tag k="coa:place_id" v="106062"/></node><node id="-444" lat="30.245345" lon="-97.915564" changeset="false"><tag k="addr:street" v="Williamson Creek Drive"/><tag k="addr:housenumber" v="7705"/><tag k="coa:place_id" v="106109"/></node><node id="-445" lat="30.239285" lon="-97.90536" changeset="false"><tag k="addr:street" v="Fenton Drive"/><tag k="addr:housenumber" v="8818"/><tag k="coa:place_id" v="222785"/></node><node id="-446" lat="30.240895" lon="-97.918187" changeset="false"><tag k="addr:street" v="Williamson Creek Drive"/><tag k="addr:housenumber" v="8205"/><tag k="coa:place_id" v="118551"/></node><node id="-447" lat="30.257318" lon="-97.90766" changeset="false"><tag k="addr:street" v="Anchusa Trail"/><tag k="addr:housenumber" v="9608"/><tag k="coa:place_id" v="218018"/></node><node id="-448" lat="30.241591" lon="-97.908761" changeset="false"><tag k="addr:street" v="Towana Trail"/><tag k="addr:housenumber" v="9103"/><tag k="coa:place_id" v="611247"/></node><node id="-449" lat="30.240919" lon="-97.918593" changeset="false"><tag k="addr:street" v="Williamson Creek Drive"/><tag k="addr:housenumber" v="8207"/><tag k="coa:place_id" v="118557"/></node><node id="-450" lat="30.256702" lon="-97.906927" changeset="false"><tag k="addr:street" v="Anchusa Trail"/><tag k="addr:housenumber" v="9520"/><tag k="coa:place_id" v="218024"/></node><node id="-451" lat="30.255449" lon="-97.908265" changeset="false"><tag k="addr:street" v="Conifer Cove"/><tag k="addr:housenumber" v="6601"/><tag k="coa:place_id" v="218036"/></node><node id="-452" lat="30.254384" lon="-97.910293" changeset="false"><tag k="addr:street" v="Conifer Cove"/><tag k="addr:housenumber" v="6717"/><tag k="coa:place_id" v="218037"/></node><node id="-453" lat="30.243381" lon="-97.908421" changeset="false"><tag k="addr:street" v="Lauralan Drive"/><tag k="addr:housenumber" v="9209"/><tag k="coa:place_id" v="922550"/></node><node id="-454" lat="30.23655" lon="-97.904414" changeset="false"><tag k="addr:street" v="Thunderbird Road"/><tag k="addr:housenumber" v="8655"/><tag k="coa:place_id" v="114439"/></node><node id="-455" lat="30.251153" lon="-97.912644" changeset="false"><tag k="addr:street" v="Streamside Drive"/><tag k="addr:housenumber" v="9616"/><tag k="coa:place_id" v="54284"/></node><node id="-456" lat="30.243301" lon="-97.917588" changeset="false"><tag k="addr:street" v="Williamson Creek Drive"/><tag k="addr:housenumber" v="8002"/><tag k="coa:place_id" v="872498"/></node><node id="-457" lat="30.255735" lon="-97.914035" changeset="false"><tag k="addr:street" v="Thomas Springs Road"/><tag k="addr:housenumber" v="6805"/><tag k="coa:place_id" v="125565"/></node><node id="-458" lat="30.241375" lon="-97.90694" changeset="false"><tag k="addr:street" v="Mowinkle Drive"/><tag k="addr:housenumber" v="7701"/><tag k="coa:place_id" v="872102"/></node><node id="-459" lat="30.237479" lon="-97.912486" changeset="false"><tag k="addr:street" v="Sam Carter Drive"/><tag k="addr:housenumber" v="8905"/><tag k="coa:place_id" v="872420"/></node><node id="-460" lat="30.23716" lon="-97.90426" changeset="false"><tag k="addr:street" v="Thunderbird Road"/><tag k="addr:housenumber" v="8700"/><tag k="coa:place_id" v="872318"/></node><node id="-461" lat="30.244845" lon="-97.91171" changeset="false"><tag k="addr:street" v="Lauralan Drive"/><tag k="addr:housenumber" v="9401"/><tag k="coa:place_id" v="1047183"/></node><node id="-462" lat="30.244701" lon="-97.898281" changeset="false"><tag k="addr:street" v="Covered Bridge Drive"/><tag k="addr:housenumber" v="7100"/><tag k="coa:place_id" v="222640"/></node><node id="-463" lat="30.240228" lon="-97.918957" changeset="false"><tag k="addr:street" v="Williamson Creek Drive"/><tag k="addr:housenumber" v="8305"/><tag k="coa:place_id" v="94707"/></node><node id="-464" lat="30.2394" lon="-97.918117" changeset="false"><tag k="addr:street" v="Pitter Pat Lane"/><tag k="addr:housenumber" v="8306"/><tag k="coa:place_id" v="219273"/></node><node id="-465" lat="30.245163" lon="-97.913673" changeset="false"><tag k="addr:street" v="Pitter Pat Lane"/><tag k="addr:housenumber" v="7701"/><tag k="coa:place_id" v="85273"/></node><node id="-466" lat="30.244937" lon="-97.908696" changeset="false"><tag k="addr:street" v="Claxton Drive"/><tag k="addr:housenumber" v="9203"/><tag k="coa:place_id" v="135927"/></node><node id="-467" lat="30.253571" lon="-97.90554" changeset="false"><tag k="addr:street" v="Summer Sky Drive"/><tag k="addr:housenumber" v="9401"/><tag k="coa:place_id" v="54276"/></node><node id="-468" lat="30.240574" lon="-97.898607" changeset="false"><tag k="addr:street" v="Red Willow Drive"/><tag k="addr:housenumber" v="8530"/><tag k="coa:place_id" v="684693"/></node><node id="-469" lat="30.251989" lon="-97.918317" changeset="false"><tag k="addr:street" v="Murmuring Creek Drive"/><tag k="addr:housenumber" v="10102"/><tag k="coa:place_id" v="450255"/></node><node id="-470" lat="30.237662" lon="-97.903604" changeset="false"><tag k="addr:street" v="Fenton Drive"/><tag k="addr:housenumber" v="8717"/><tag k="coa:place_id" v="222799"/></node><node id="-471" lat="30.235826" lon="-97.908592" changeset="false"><tag k="addr:street" v="Thunderbird Road"/><tag k="addr:housenumber" v="8814"/><tag k="coa:place_id" v="438747"/></node><node id="-472" lat="30.249648" lon="-97.908238" changeset="false"><tag k="addr:street" v="Bright Star Lane"/><tag k="addr:housenumber" v="7005"/><tag k="coa:place_id" v="54120"/></node><node id="-473" lat="30.24025" lon="-97.902276" changeset="false"><tag k="addr:street" v="Crackling Creek Drive"/><tag k="addr:housenumber" v="7605"/><tag k="coa:place_id" v="222779"/></node><node id="-474" lat="30.245183" lon="-97.907177" changeset="false"><tag k="addr:street" v="Claxton Drive"/><tag k="addr:housenumber" v="9106"/><tag k="coa:place_id" v="872030"/></node><node id="-475" lat="30.242757" lon="-97.906688" changeset="false"><tag k="addr:street" v="Mowinkle Drive"/><tag k="addr:housenumber" v="7502"/><tag k="coa:place_id" v="872054"/></node><node id="-476" lat="30.243495" lon="-97.911845" changeset="false"><tag k="addr:street" v="Towana Circle"/><tag k="addr:housenumber" v="7602"/><tag k="coa:place_id" v="108375"/></node><node id="-477" lat="30.249084" lon="-97.894253" changeset="false"><tag k="addr:street" v="Covered Bridge Drive"/><tag k="addr:housenumber" v="6701"/><tag k="coa:place_id" v="3118334"/></node><node id="-478" lat="30.24996" lon="-97.920863" changeset="false"><tag k="addr:street" v="Thomas Springs Road"/><tag k="addr:housenumber" v="7509"/><tag k="coa:place_id" v="873014"/></node><node id="-479" lat="30.236305" lon="-97.903977" changeset="false"><tag k="addr:street" v="Thunderbird Road"/><tag k="addr:housenumber" v="8647"/><tag k="coa:place_id" v="215112"/></node><node id="-480" lat="30.248473" lon="-97.922177" changeset="false"><tag k="addr:street" v="Thomas Springs Road"/><tag k="addr:housenumber" v="7707"/><tag k="coa:place_id" v="872924"/></node><node id="-481" lat="30.240197" lon="-97.894456" changeset="false"><tag k="addr:street" v="Smokey Hill Road"/><tag k="addr:housenumber" v="7215"/><tag k="coa:place_id" v="914817"/></node><node id="-482" lat="30.249473" lon="-97.921115" changeset="false"><tag k="addr:street" v="Thomas Springs Road"/><tag k="addr:housenumber" v="7609"/><tag k="coa:place_id" v="873008"/></node><node id="-483" lat="30.240683" lon="-97.917289" changeset="false"><tag k="addr:street" v="Pitter Pat Lane"/><tag k="addr:housenumber" v="8200"/><tag k="coa:place_id" v="874394"/></node><node id="-484" lat="30.235603" lon="-97.902238" changeset="false"><tag k="addr:street" v="Thunderbird Road"/><tag k="addr:housenumber" v="8627"/><tag k="coa:place_id" v="872480"/></node><node id="-485" lat="30.241471" lon="-97.916815" changeset="false"><tag k="addr:street" v="Pitter Pat Lane"/><tag k="addr:housenumber" v="8004"/><tag k="coa:place_id" v="1138935"/></node><node id="-486" lat="30.241162" lon="-97.902" changeset="false"><tag k="addr:street" v="Samuel Bishop Drive"/><tag k="addr:housenumber" v="8727"/><tag k="coa:place_id" v="3077560"/></node><node id="-487" lat="30.241164" lon="-97.909572" changeset="false"><tag k="addr:street" v="Mowinkle Cove"/><tag k="addr:housenumber" v="7705"/><tag k="coa:place_id" v="461337"/></node><node id="-488" lat="30.249411" lon="-97.910963" changeset="false"><tag k="addr:street" v="Midwood Parkway"/><tag k="addr:housenumber" v="7105"/><tag k="coa:place_id" v="75961"/></node><node id="-489" lat="30.249312" lon="-97.908955" changeset="false"><tag k="addr:street" v="Bright Star Lane"/><tag k="addr:housenumber" v="7008"/><tag k="coa:place_id" v="54115"/></node><node id="-490" lat="30.248301" lon="-97.909599" changeset="false"><tag k="addr:street" v="Bright Star Lane"/><tag k="addr:housenumber" v="7108"/><tag k="coa:place_id" v="143411"/></node><node id="-491" lat="30.244023" lon="-97.900254" changeset="false"><tag k="addr:street" v="Roaring Springs Drive"/><tag k="addr:housenumber" v="7201"/><tag k="coa:place_id" v="222414"/></node><node id="-492" lat="30.243614" lon="-97.912817" changeset="false"><tag k="addr:street" v="Towana Trail"/><tag k="addr:housenumber" v="9400"/><tag k="coa:place_id" v="85281"/></node><node id="-493" lat="30.24269" lon="-97.921642" changeset="false"><tag k="addr:street" v="Circle Drive"/><tag k="addr:housenumber" v="9524"/><tag k="coa:place_id" v="127464"/></node><node id="-494" lat="30.24629" lon="-97.919311" changeset="false"><tag k="addr:street" v="Wier Loop Road"/><tag k="addr:housenumber" v="9514"/><tag k="coa:place_id" v="208913"/></node><node id="-495" lat="30.245285" lon="-97.913957" changeset="false"><tag k="addr:street" v="Pitter Pat Lane"/><tag k="addr:housenumber" v="7700"/><tag k="coa:place_id" v="85270"/></node><node id="-496" lat="30.245052" lon="-97.907952" changeset="false"><tag k="addr:street" v="Claxton Drive"/><tag k="addr:housenumber" v="9205"/><tag k="coa:place_id" v="85286"/></node><node id="-497" lat="30.239481" lon="-97.918737" changeset="false"><tag k="addr:street" v="Circle Drive"/><tag k="addr:housenumber" v="9206"/><tag k="coa:place_id" v="242572"/></node><node id="-498" lat="30.242122" lon="-97.918529" changeset="false"><tag k="addr:street" v="Williamson Creek Drive"/><tag k="addr:housenumber" v="8106"/><tag k="coa:place_id" v="872492"/></node><node id="-499" lat="30.241424" lon="-97.917806" changeset="false"><tag k="addr:street" v="Williamson Creek Drive"/><tag k="addr:housenumber" v="8107"/><tag k="coa:place_id" v="106093"/></node><node id="-500" lat="30.241127" lon="-97.919152" changeset="false"><tag k="addr:street" v="Williamson Creek Drive"/><tag k="addr:housenumber" v="8206"/><tag k="coa:place_id" v="872660"/></node><node id="-501" lat="30.255932" lon="-97.909379" changeset="false"><tag k="addr:street" v="Conifer Cove"/><tag k="addr:housenumber" v="6600"/><tag k="coa:place_id" v="218042"/></node><node id="-502" lat="30.24482" lon="-97.91006" changeset="false"><tag k="addr:street" v="Lauralan Drive"/><tag k="addr:housenumber" v="9300"/><tag k="coa:place_id" v="235413"/></node><node id="-503" lat="30.259396" lon="-97.910573" changeset="false"><tag k="addr:street" v="Thomas Springs Road"/><tag k="addr:housenumber" v="6415"/><tag k="coa:place_id" v="142855"/></node><node id="-504" lat="30.243939" lon="-97.914286" changeset="false"><tag k="addr:street" v="Pitter Pat Lane"/><tag k="addr:housenumber" v="7805"/><tag k="coa:place_id" v="3182211"/></node><node id="-505" lat="30.250298" lon="-97.907855" changeset="false"><tag k="addr:street" v="Bright Star Lane"/><tag k="addr:housenumber" v="6911"/><tag k="coa:place_id" v="54118"/></node><node id="-506" lat="30.257062" lon="-97.907462" changeset="false"><tag k="addr:street" v="Anchusa Trail"/><tag k="addr:housenumber" v="9600"/><tag k="coa:place_id" v="218019"/></node><node id="-507" lat="30.25702" lon="-97.905423" changeset="false"><tag k="addr:street" v="Midwood Parkway"/><tag k="addr:housenumber" v="6300"/><tag k="coa:place_id" v="215715"/></node><node id="-508" lat="30.240362" lon="-97.907172" changeset="false"><tag k="addr:street" v="Mowinkle Drive"/><tag k="addr:housenumber" v="7803"/><tag k="coa:place_id" v="362115"/></node><node id="-509" lat="30.254861" lon="-97.910368" changeset="false"><tag k="addr:street" v="Conifer Cove"/><tag k="addr:housenumber" v="6716"/><tag k="coa:place_id" v="218039"/></node><node id="-510" lat="30.250049" lon="-97.910549" changeset="false"><tag k="addr:street" v="Midwood Parkway"/><tag k="addr:housenumber" v="7009"/><tag k="coa:place_id" v="75963"/></node><node id="-511" lat="30.25014" lon="-97.916077" changeset="false"><tag k="addr:street" v="Murmuring Creek Drive"/><tag k="addr:housenumber" v="9901"/><tag k="coa:place_id" v="681963"/></node><node id="-512" lat="30.249158" lon="-97.915955" changeset="false"><tag k="addr:street" v="Trenton Drive"/><tag k="addr:housenumber" v="7305"/><tag k="coa:place_id" v="3089001"/></node><node id="-513" lat="30.248804" lon="-97.916287" changeset="false"><tag k="addr:street" v="Trenton Drive"/><tag k="addr:housenumber" v="7309"/><tag k="coa:place_id" v="3089003"/></node><node id="-514" lat="30.238219" lon="-97.911947" changeset="false"><tag k="addr:street" v="Sam Carter Drive"/><tag k="addr:housenumber" v="8904"/><tag k="coa:place_id" v="872456"/></node><node id="-515" lat="30.242378" lon="-97.906772" changeset="false"><tag k="addr:street" v="Mowinkle Drive"/><tag k="addr:housenumber" v="7600"/><tag k="coa:place_id" v="85293"/></node><node id="-516" lat="30.239737" lon="-97.904384" changeset="false"><tag k="addr:street" v="Roaring Springs Drive"/><tag k="addr:housenumber" v="7604"/><tag k="coa:place_id" v="222732"/></node><node id="-517" lat="30.239469" lon="-97.902419" changeset="false"><tag k="addr:street" v="Crackling Creek Drive"/><tag k="addr:housenumber" v="7619"/><tag k="coa:place_id" v="222775"/></node><node id="-518" lat="30.237199" lon="-97.907021" changeset="false"><tag k="addr:street" v="Thunderbird Road"/><tag k="addr:housenumber" v="8801"/><tag k="coa:place_id" v="100566"/></node><node id="-519" lat="30.239945" lon="-97.902163" changeset="false"><tag k="addr:street" v="Crackling Creek Drive"/><tag k="addr:housenumber" v="7609"/><tag k="coa:place_id" v="222778"/></node><node id="-520" lat="30.245949" lon="-97.908082" changeset="false"><tag k="addr:street" v="Claxton Drive"/><tag k="addr:housenumber" v="9202"/><tag k="coa:place_id" v="143973"/></node><node id="-521" lat="30.243078" lon="-97.91714" changeset="false"><tag k="addr:street" v="Williamson Creek Drive"/><tag k="addr:housenumber" v="8001"/><tag k="coa:place_id" v="872690"/></node><node id="-522" lat="30.241565" lon="-97.918869" changeset="false"><tag k="addr:street" v="Williamson Creek Drive"/><tag k="addr:housenumber" v="8202"/><tag k="coa:place_id" v="872510"/></node><node id="-523" lat="30.246959" lon="-97.895656" changeset="false"><tag k="addr:street" v="Nandas Trail"/><tag k="addr:housenumber" v="8700"/><tag k="coa:place_id" v="1140462"/></node><node id="-524" lat="30.253081" lon="-97.906563" changeset="false"><tag k="addr:street" v="Bright Star Lane"/><tag k="addr:housenumber" v="6704"/><tag k="coa:place_id" v="54091"/></node><node id="-525" lat="30.252686" lon="-97.90686" changeset="false"><tag k="addr:street" v="Bright Star Lane"/><tag k="addr:housenumber" v="6708"/><tag k="coa:place_id" v="710248"/></node><node id="-526" lat="30.252376" lon="-97.910566" changeset="false"><tag k="addr:street" v="Dawning Court"/><tag k="addr:housenumber" v="9605"/><tag k="coa:place_id" v="688318"/></node><node id="-527" lat="30.252113" lon="-97.911354" changeset="false"><tag k="addr:street" v="Dawning Court"/><tag k="addr:housenumber" v="9618"/><tag k="coa:place_id" v="54108"/></node><node id="-528" lat="30.240875" lon="-97.898413" changeset="false"><tag k="addr:street" v="Red Willow Drive"/><tag k="addr:housenumber" v="8526"/><tag k="coa:place_id" v="684681"/></node><node id="-529" lat="30.240953" lon="-97.904562" changeset="false"><tag k="addr:street" v="Roaring Springs Drive"/><tag k="addr:housenumber" v="7526"/><tag k="coa:place_id" v="1138936"/></node><node id="-530" lat="30.243622" lon="-97.916818" changeset="false"><tag k="addr:street" v="Williamson Creek Drive"/><tag k="addr:housenumber" v="7903"/><tag k="coa:place_id" v="106103"/></node><node id="-531" lat="30.242545" lon="-97.899209" changeset="false"><tag k="addr:street" v="Foggy Mountain Drive"/><tag k="addr:housenumber" v="8627"/><tag k="coa:place_id" v="3093318"/></node><node id="-532" lat="30.240543" lon="-97.912349" changeset="false"><tag k="addr:street" v="Dorella Lane"/><tag k="addr:housenumber" v="8914"/><tag k="coa:place_id" v="148114"/></node><node id="-533" lat="30.235491" lon="-97.910346" changeset="false"><tag k="addr:street" v="Mowinkle Drive"/><tag k="addr:housenumber" v="8305"/><tag k="coa:place_id" v="507435"/></node><node id="-534" lat="30.248035" lon="-97.909174" changeset="false"><tag k="addr:street" v="Bright Star Lane"/><tag k="addr:housenumber" v="7109"/><tag k="coa:place_id" v="175371"/></node><node id="-535" lat="30.24627" lon="-97.897068" changeset="false"><tag k="addr:street" v="Covered Bridge Drive"/><tag k="addr:housenumber" v="6916"/><tag k="coa:place_id" v="222615"/></node><node id="-536" lat="30.244921" lon="-97.906658" changeset="false"><tag k="addr:street" v="Claxton Drive"/><tag k="addr:housenumber" v="9104"/><tag k="coa:place_id" v="1034660"/></node><node id="-537" lat="30.245593" lon="-97.912999" changeset="false"><tag k="addr:street" v="Lauralan Drive"/><tag k="addr:housenumber" v="9501"/><tag k="coa:place_id" v="872060"/></node><node id="-538" lat="30.244611" lon="-97.916601" changeset="false"><tag k="addr:street" v="Williamson Creek Drive"/><tag k="addr:housenumber" v="7806"/><tag k="coa:place_id" v="106073"/></node><node id="-539" lat="30.244303" lon="-97.910809" changeset="false"><tag k="addr:street" v="Lauralan Drive"/><tag k="addr:housenumber" v="9303"/><tag k="coa:place_id" v="872072"/></node><node id="-540" lat="30.243769" lon="-97.908743" changeset="false"><tag k="addr:street" v="Lauralan Drive"/><tag k="addr:housenumber" v="9211"/><tag k="coa:place_id" v="102213"/></node><node id="-541" lat="30.243262" lon="-97.922832" changeset="false"><tag k="addr:street" v="Circle Drive"/><tag k="addr:housenumber" v="9600"/><tag k="coa:place_id" v="293385"/></node><node id="-542" lat="30.240601" lon="-97.916173" changeset="false"><tag k="addr:street" v="Sam Carter Drive"/><tag k="addr:housenumber" v="9108"/><tag k="coa:place_id" v="1138938"/></node><node id="-543" lat="30.239641" lon="-97.908865" changeset="false"><tag k="addr:street" v="Mowinkle Drive"/><tag k="addr:housenumber" v="7902"/><tag k="coa:place_id" v="3147153"/></node><node id="-544" lat="30.239483" lon="-97.901703" changeset="false"><tag k="addr:street" v="Covered Bridge Drive"/><tag k="addr:housenumber" v="7516"/><tag k="coa:place_id" v="222563"/></node><node id="-545" lat="30.238181" lon="-97.902504" changeset="false"><tag k="addr:street" v="Covered Bridge Drive"/><tag k="addr:housenumber" v="7708"/><tag k="coa:place_id" v="222586"/></node><node id="-546" lat="30.239872" lon="-97.90132" changeset="false"><tag k="addr:street" v="Covered Bridge Drive"/><tag k="addr:housenumber" v="7506"/><tag k="coa:place_id" v="222559"/></node><node id="-547" lat="30.243207" lon="-97.906503" changeset="false"><tag k="addr:street" v="Mowinkle Drive"/><tag k="addr:housenumber" v="7500"/><tag k="coa:place_id" v="872048"/></node><node id="-548" lat="30.239825" lon="-97.917441" changeset="false"><tag k="addr:street" v="Pitter Pat Lane"/><tag k="addr:housenumber" v="8303"/><tag k="coa:place_id" v="874376"/></node><node id="-549" lat="30.241272" lon="-97.917922" changeset="false"><tag k="addr:street" v="Williamson Creek Drive"/><tag k="addr:housenumber" v="8201"/><tag k="coa:place_id" v="872672"/></node><node id="-550" lat="30.241223" lon="-97.920298" changeset="false"><tag k="addr:street" v="Circle Drive"/><tag k="addr:housenumber" v="9406"/><tag k="coa:place_id" v="872696"/></node><node id="-551" lat="30.238788" lon="-97.909754" changeset="false"><tag k="addr:street" v="Dorella Lane"/><tag k="addr:housenumber" v="8805"/><tag k="coa:place_id" v="874316"/></node><node id="-552" lat="30.242851" lon="-97.91256" changeset="false"><tag k="addr:street" v="Towana Trail"/><tag k="addr:housenumber" v="9401"/><tag k="coa:place_id" v="85276"/></node><node id="-553" lat="30.236403" lon="-97.909728" changeset="false"><tag k="addr:street" v="Mowinkle Drive"/><tag k="addr:housenumber" v="8201"/><tag k="coa:place_id" v="872396"/></node><node id="-554" lat="30.236097" lon="-97.911852" changeset="false"><tag k="addr:street" v="Circle Drive"/><tag k="addr:housenumber" v="8860"/><tag k="coa:place_id" v="129977"/></node><node id="-555" lat="30.255767" lon="-97.908093" changeset="false"><tag k="addr:street" v="Conifer Cove"/><tag k="addr:housenumber" v="6515"/><tag k="coa:place_id" v="218028"/></node><node id="-556" lat="30.251924" lon="-97.911248" changeset="false"><tag k="addr:street" v="Dawning Court"/><tag k="addr:housenumber" v="9611"/><tag k="coa:place_id" v="747052"/></node><node id="-557" lat="30.251909" lon="-97.910888" changeset="false"><tag k="addr:street" v="Dawning Court"/><tag k="addr:housenumber" v="9607"/><tag k="coa:place_id" v="54110"/></node><node id="-558" lat="30.251044" lon="-97.907318" changeset="false"><tag k="addr:street" v="Bright Star Lane"/><tag k="addr:housenumber" v="6901"/><tag k="coa:place_id" v="121933"/></node><node id="-559" lat="30.250732" lon="-97.908134" changeset="false"><tag k="addr:street" v="Bright Star Lane"/><tag k="addr:housenumber" v="6906"/><tag k="coa:place_id" v="127771"/></node><node id="-560" lat="30.239814" lon="-97.911613" changeset="false"><tag k="addr:street" v="Dorella Lane"/><tag k="addr:housenumber" v="8909"/><tag k="coa:place_id" v="1138940"/></node><node id="-561" lat="30.239109" lon="-97.910143" changeset="false"><tag k="addr:street" v="Dorella Lane"/><tag k="addr:housenumber" v="8811"/><tag k="coa:place_id" v="128921"/></node><node id="-562" lat="30.244151" lon="-97.892229" changeset="false"><tag k="addr:street" v="Smokey Hill Road"/><tag k="addr:housenumber" v="6901"/><tag k="coa:place_id" v="524967"/></node><node id="-563" lat="30.2428" lon="-97.911288" changeset="false"><tag k="addr:street" v="Towana Circle"/><tag k="addr:housenumber" v="7605"/><tag k="coa:place_id" v="135261"/></node><node id="-564" lat="30.24219" lon="-97.908212" changeset="false"><tag k="addr:street" v="Towana Trail"/><tag k="addr:housenumber" v="9102"/><tag k="coa:place_id" v="85278"/></node><node id="-565" lat="30.241968" lon="-97.906156" changeset="false"><tag k="addr:street" v="Mowinkle Drive"/><tag k="addr:housenumber" v="7601"/><tag k="coa:place_id" v="925898"/></node><node id="-566" lat="30.241605" lon="-97.909509" changeset="false"><tag k="addr:street" v="Mowinkle Cove"/><tag k="addr:housenumber" v="7703"/><tag k="coa:place_id" v="991496"/></node><node id="-567" lat="30.256837" lon="-97.907214" changeset="false"><tag k="addr:street" v="Anchusa Trail"/><tag k="addr:housenumber" v="9528"/><tag k="coa:place_id" v="218021"/></node><node id="-568" lat="30.241745" lon="-97.90373" changeset="false"><tag k="addr:street" v="Roaring Springs Drive"/><tag k="addr:housenumber" v="7514"/><tag k="coa:place_id" v="3187884"/></node><node id="-569" lat="30.239875" lon="-97.892529" changeset="false"><tag k="addr:street" v="Farmington Court"/><tag k="addr:housenumber" v="8204"/><tag k="coa:place_id" v="175408"/></node><node id="-570" lat="30.243843" lon="-97.891209" changeset="false"><tag k="addr:street" v="Mescalero Cove"/><tag k="addr:housenumber" v="8302"/><tag k="coa:place_id" v="89695"/></node><node id="-571" lat="30.239662" lon="-97.899255" changeset="false"><tag k="addr:street" v="Red Willow Drive"/><tag k="addr:housenumber" v="8540"/><tag k="coa:place_id" v="715191"/></node><node id="-572" lat="30.239586" lon="-97.899192" changeset="false"><tag k="addr:street" v="Red Willow Drive"/><tag k="addr:housenumber" v="8542"/><tag k="coa:place_id" v="704445"/></node><node id="-573" lat="30.235582" lon="-97.900333" changeset="false"><tag k="addr:street" v="Thunderbird Road"/><tag k="addr:housenumber" v="8608"/><tag k="coa:place_id" v="1138131"/></node><node id="-574" lat="30.235439" lon="-97.900332" changeset="false"><tag k="addr:street" v="Thunderbird Road"/><tag k="addr:housenumber" v="8602"/><tag k="coa:place_id" v="872282"/></node></osm>