<?xml version="1.0" encoding="UTF-8"?><osm version="0.6" generator="github.com/aaronlidman/osm-and-geojson"><node id="-1" lat="30.357515" lon="-97.910067" changeset="false"><tag k="addr:street" v="Arbor Lake Cove"/><tag k="addr:housenumber" v="12805"/><tag k="addr:postcode" v="78732"/></node><node id="-2" lat="30.386524" lon="-97.911373" changeset="false"><tag k="addr:street" v="Blue Jay Lane"/><tag k="addr:housenumber" v="3416"/><tag k="addr:postcode" v="78732"/></node><node id="-3" lat="30.369674" lon="-97.906843" changeset="false"><tag k="addr:street" v="Country Trails Lane"/><tag k="addr:housenumber" v="13104"/><tag k="addr:postcode" v="78732"/></node><node id="-4" lat="30.370073" lon="-97.912003" changeset="false"><tag k="addr:street" v="Flat Top Ranch Road"/><tag k="addr:housenumber" v="14708"/><tag k="addr:postcode" v="78732"/></node><node id="-5" lat="30.371536" lon="-97.912086" changeset="false"><tag k="addr:street" v="Flat Top Ranch Road"/><tag k="addr:housenumber" v="14616"/><tag k="addr:postcode" v="78732"/></node><node id="-6" lat="30.382196" lon="-97.910052" changeset="false"><tag k="addr:street" v="Montview Drive"/><tag k="addr:housenumber" v="13801"/><tag k="addr:postcode" v="78732"/></node><node id="-7" lat="30.380593" lon="-97.899536" changeset="false"><tag k="addr:street" v="Halsell Drive"/><tag k="addr:housenumber" v="13164"/><tag k="addr:postcode" v="78732"/></node><node id="-8" lat="30.361109" lon="-97.901632" changeset="false"><tag k="addr:street" v="North Quinlan Park Road"/><tag k="addr:housenumber" v="2100"/><tag k="addr:postcode" v="78732"/></node><node id="-9" lat="30.383342" lon="-97.91099" changeset="false"><tag k="addr:street" v="Hummingbird Lane"/><tag k="addr:housenumber" v="13909"/><tag k="addr:postcode" v="78732"/></node><node id="-10" lat="30.362041" lon="-97.91008" changeset="false"><tag k="addr:street" v="Bright Sky Overlook"/><tag k="addr:housenumber" v="13221"/><tag k="addr:postcode" v="78732"/></node><node id="-11" lat="30.367129" lon="-97.912022" changeset="false"><tag k="addr:street" v="Flat Top Ranch Road"/><tag k="addr:housenumber" v="14900"/><tag k="addr:postcode" v="78732"/></node><node id="-12" lat="30.337116" lon="-97.920689" changeset="false"><tag k="addr:street" v="South Quinlan Park Road"/><tag k="addr:housenumber" v="812"/><tag k="addr:postcode" v="78732"/></node><node id="-13" lat="30.339079" lon="-97.923102" changeset="false"><tag k="addr:street" v="Zen Gardens Way"/><tag k="addr:housenumber" v="733"/><tag k="addr:postcode" v="78732"/></node><node id="-14" lat="30.33991" lon="-97.922316" changeset="false"><tag k="addr:street" v="Zen Gardens Way"/><tag k="addr:housenumber" v="724"/><tag k="addr:postcode" v="78732"/></node><node id="-15" lat="30.377725" lon="-97.902855" changeset="false"><tag k="addr:street" v="Indigo Waters Drive"/><tag k="addr:housenumber" v="3209"/><tag k="addr:postcode" v="78732"/></node><node id="-16" lat="30.341352" lon="-97.92357" changeset="false"><tag k="addr:street" v="Zen Gardens Way"/><tag k="addr:housenumber" v="13017"/><tag k="addr:postcode" v="78732"/></node><node id="-17" lat="30.357703" lon="-97.910327" changeset="false"><tag k="addr:street" v="Arbor Lake Cove"/><tag k="addr:housenumber" v="12801"/><tag k="addr:postcode" v="78732"/></node><node id="-18" lat="30.371011" lon="-97.900261" changeset="false"><tag k="addr:street" v="Lantana Ridge Court"/><tag k="addr:housenumber" v="12821"/><tag k="addr:postcode" v="78732"/></node><node id="-19" lat="30.33558" lon="-97.925813" changeset="false"><tag k="addr:street" v="Shore Vista Drive"/><tag k="addr:housenumber" v="12926 1/2"/><tag k="addr:postcode" v="78732"/></node><node id="-20" lat="30.382265" lon="-97.9132" changeset="false"><tag k="addr:street" v="Fritz Hughes Park Road"/><tag k="addr:housenumber" v="3100"/><tag k="addr:postcode" v="78732"/></node><node id="-21" lat="30.379819" lon="-97.912004" changeset="false"><tag k="addr:street" v="Flat Top Ranch Road"/><tag k="addr:housenumber" v="14100"/><tag k="addr:postcode" v="78732"/></node><node id="-22" lat="30.352505" lon="-97.912399" changeset="false"><tag k="addr:street" v="Lakewood Hills Terrace"/><tag k="addr:housenumber" v="708"/><tag k="addr:postcode" v="78732"/></node><node id="-23" lat="30.351435" lon="-97.912083" changeset="false"><tag k="addr:street" v="North Quinlan Park Road"/><tag k="addr:housenumber" v="500"/><tag k="addr:postcode" v="78732"/></node><node id="-24" lat="30.350484" lon="-97.914026" changeset="false"><tag k="addr:street" v="Dawn River Cove"/><tag k="addr:housenumber" v="109"/><tag k="addr:postcode" v="78732"/></node><node id="-25" lat="30.382722" lon="-97.910828" changeset="false"><tag k="addr:street" v="Fritz Hughes Park Road"/><tag k="addr:housenumber" v="3301"/><tag k="addr:postcode" v="78732"/></node><node id="-26" lat="30.379092" lon="-97.9114" changeset="false"><tag k="addr:street" v="Flat Top Ranch Road"/><tag k="addr:housenumber" v="13928 1/2"/><tag k="addr:postcode" v="78732"/></node><node id="-27" lat="30.363098" lon="-97.900218" changeset="false"><tag k="addr:street" v="North Quinlan Park Road"/><tag k="addr:housenumber" v="2400"/><tag k="addr:postcode" v="78732"/></node><node id="-28" lat="30.348245" lon="-97.918649" changeset="false"><tag k="addr:street" v="Dawn River Cove"/><tag k="addr:housenumber" v="416"/><tag k="addr:postcode" v="78732"/></node><node id="-29" lat="30.373868" lon="-97.912678" changeset="false"><tag k="addr:street" v="Flat Top Ranch Road"/><tag k="addr:housenumber" v="14500"/><tag k="addr:postcode" v="78732"/></node><node id="-30" lat="30.357074" lon="-97.910662" changeset="false"><tag k="addr:street" v="Arbor Lake Cove"/><tag k="addr:housenumber" v="12808"/><tag k="addr:postcode" v="78732"/></node><node id="-31" lat="30.338075" lon="-97.921869" changeset="false"><tag k="addr:street" v="Perryton Drive"/><tag k="addr:housenumber" v="12901 1/2"/><tag k="addr:postcode" v="78732"/></node><node id="-32" lat="30.372395" lon="-97.898377" changeset="false"><tag k="addr:street" v="Majestic Oaks Pass"/><tag k="addr:housenumber" v="2920"/><tag k="addr:postcode" v="78732"/></node><node id="-33" lat="30.349731" lon="-97.91482" changeset="false"><tag k="addr:street" v="Dawn River Cove"/><tag k="addr:housenumber" v="201"/><tag k="addr:postcode" v="78732"/></node><node id="-34" lat="30.386628" lon="-97.911352" changeset="false"><tag k="addr:street" v="Blue Jay Lane"/><tag k="addr:housenumber" v="3420"/><tag k="addr:postcode" v="78732"/></node><node id="-35" lat="30.340946" lon="-97.922333" changeset="false"><tag k="addr:street" v="Zen Gardens Way"/><tag k="addr:housenumber" v="12929"/><tag k="addr:postcode" v="78732"/></node><node id="-36" lat="30.340734" lon="-97.921216" changeset="false"><tag k="addr:street" v="Zen Gardens Way"/><tag k="addr:housenumber" v="12920"/><tag k="addr:postcode" v="78732"/></node><node id="-37" lat="30.375412" lon="-97.913007" changeset="false"><tag k="addr:street" v="Flat Top Ranch Road"/><tag k="addr:housenumber" v="14316"/><tag k="addr:postcode" v="78732"/></node><node id="-38" lat="30.370209" lon="-97.893213" changeset="false"><tag k="addr:street" v="Steiner Ranch Boulevard"/><tag k="addr:housenumber" v="3026"/><tag k="addr:postcode" v="78732"/></node><node id="-39" lat="30.369933" lon="-97.891682" changeset="false"><tag k="addr:street" v="Steiner Ranch Boulevard"/><tag k="addr:housenumber" v="3005 1/2"/><tag k="addr:postcode" v="78732"/></node><node id="-40" lat="30.355156" lon="-97.910781" changeset="false"><tag k="addr:street" v="Lakewood Hills Pass"/><tag k="addr:housenumber" v="12808 1/2"/><tag k="addr:postcode" v="78732"/></node><node id="-41" lat="30.347593" lon="-97.917025" changeset="false"><tag k="addr:street" v="Dawn River Pass"/><tag k="addr:housenumber" v="12901 1/2"/><tag k="addr:postcode" v="78732"/></node><node id="-42" lat="30.382135" lon="-97.906288" changeset="false"><tag k="addr:street" v="Montview Drive"/><tag k="addr:housenumber" v="13508"/><tag k="addr:postcode" v="78732"/></node><node id="-43" lat="30.341297" lon="-97.924017" changeset="false"><tag k="addr:street" v="Zen Gardens Way"/><tag k="addr:housenumber" v="13025 1/2"/><tag k="addr:postcode" v="78732"/></node><node id="-44" lat="30.360559" lon="-97.910056" changeset="false"><tag k="addr:street" v="Bright Sky Overlook"/><tag k="addr:housenumber" v="13109"/><tag k="addr:postcode" v="78732"/></node><node id="-45" lat="30.349913" lon="-97.916504" changeset="false"><tag k="addr:street" v="Dawn River Cove"/><tag k="addr:housenumber" v="224"/><tag k="addr:postcode" v="78732"/></node><node id="-46" lat="30.378684" lon="-97.896878" changeset="false"><tag k="addr:street" v="Zebecca Creek Drive"/><tag k="addr:housenumber" v="3442"/><tag k="addr:postcode" v="78732"/></node><node id="-47" lat="30.369771" lon="-97.897365" changeset="false"><tag k="addr:street" v="Persimmon Valley Trail"/><tag k="addr:housenumber" v="2908"/><tag k="addr:postcode" v="78732"/></node><node id="-48" lat="30.356504" lon="-97.91193" changeset="false"><tag k="addr:street" v="Lakewood Hills Terrace"/><tag k="addr:housenumber" v="1012"/><tag k="addr:postcode" v="78732"/></node><node id="-49" lat="30.379248" lon="-97.894426" changeset="false"><tag k="addr:street" v="Runnels Court"/><tag k="addr:housenumber" v="3701"/><tag k="addr:postcode" v="78732"/></node><node id="-50" lat="30.386507" lon="-97.909342" changeset="false"><tag k="addr:street" v="Fritz Hughes Park Road"/><tag k="addr:housenumber" v="3616"/><tag k="addr:postcode" v="78732"/></node><node id="-51" lat="30.385883" lon="-97.913418" changeset="false"><tag k="addr:street" v="Blue Jay Lane"/><tag k="addr:housenumber" v="3418"/><tag k="addr:postcode" v="78732"/></node><node id="-52" lat="30.385179" lon="-97.913519" changeset="false"><tag k="addr:street" v="Blue Jay Lane"/><tag k="addr:housenumber" v="3434"/><tag k="addr:postcode" v="78732"/></node><node id="-53" lat="30.377814" lon="-97.896274" changeset="false"><tag k="addr:street" v="Cowden Drive"/><tag k="addr:housenumber" v="3423"/><tag k="addr:postcode" v="78732"/></node><node id="-54" lat="30.386305" lon="-97.909191" changeset="false"><tag k="addr:street" v="Fritz Hughes Park Road"/><tag k="addr:housenumber" v="3608"/><tag k="addr:postcode" v="78732"/></node><node id="-55" lat="30.368644" lon="-97.893564" changeset="false"><tag k="addr:street" v="Central Park"/><tag k="addr:housenumber" v="12737 1/2"/><tag k="addr:postcode" v="78732"/></node><node id="-56" lat="30.343849" lon="-97.921966" changeset="false"><tag k="addr:street" v="Zen Gardens Way"/><tag k="addr:housenumber" v="13116"/><tag k="addr:postcode" v="78732"/></node><node id="-57" lat="30.340899" lon="-97.924179" changeset="false"><tag k="addr:street" v="Zen Gardens Way"/><tag k="addr:housenumber" v="13025"/><tag k="addr:postcode" v="78732"/></node><node id="-58" lat="30.352706" lon="-97.912473" changeset="false"><tag k="addr:street" v="Lakewood Hills Terrace"/><tag k="addr:housenumber" v="712"/><tag k="addr:postcode" v="78732"/></node><node id="-59" lat="30.352247" lon="-97.912283" changeset="false"><tag k="addr:street" v="Lakewood Hills Terrace"/><tag k="addr:housenumber" v="704"/><tag k="addr:postcode" v="78732"/></node><node id="-60" lat="30.35045" lon="-97.915072" changeset="false"><tag k="addr:street" v="Dawn River Cove"/><tag k="addr:housenumber" v="116"/><tag k="addr:postcode" v="78732"/></node><node id="-61" lat="30.338002" lon="-97.925362" changeset="false"><tag k="addr:street" v="Perryton Drive"/><tag k="addr:housenumber" v="13011"/><tag k="addr:postcode" v="78732"/></node><node id="-62" lat="30.371626" lon="-97.904024" changeset="false"><tag k="addr:street" v="Shire Ridge Drive"/><tag k="addr:housenumber" v="2729"/><tag k="addr:postcode" v="78732"/></node><node id="-63" lat="30.373183" lon="-97.912224" changeset="false"><tag k="addr:street" v="Flat Top Ranch Road"/><tag k="addr:housenumber" v="14516"/><tag k="addr:postcode" v="78732"/></node><node id="-64" lat="30.373318" lon="-97.886459" changeset="false"><tag k="addr:street" v="North Quinlan Park Road"/><tag k="addr:housenumber" v="3610 1/2"/><tag k="addr:postcode" v="78732"/></node><node id="-65" lat="30.341653" lon="-97.923143" changeset="false"><tag k="addr:street" v="Zen Gardens Way"/><tag k="addr:housenumber" v="13009"/><tag k="addr:postcode" v="78732"/></node><node id="-66" lat="30.384718" lon="-97.912395" changeset="false"><tag k="addr:street" v="Blue Jay Lane"/><tag k="addr:housenumber" v="3401"/><tag k="addr:postcode" v="78732"/></node><node id="-67" lat="30.350869" lon="-97.914044" changeset="false"><tag k="addr:street" v="Dawn River Cove"/><tag k="addr:housenumber" v="101"/><tag k="addr:postcode" v="78732"/></node><node id="-68" lat="30.371145" lon="-97.900356" changeset="false"><tag k="addr:street" v="Lantana Ridge Court"/><tag k="addr:housenumber" v="12825"/><tag k="addr:postcode" v="78732"/></node><node id="-69" lat="30.350033" lon="-97.914584" changeset="false"><tag k="addr:street" v="Dawn River Cove"/><tag k="addr:housenumber" v="121"/><tag k="addr:postcode" v="78732"/></node><node id="-70" lat="30.375357" lon="-97.897998" changeset="false"><tag k="addr:street" v="Flat Top Ranch Road"/><tag k="addr:housenumber" v="12901"/><tag k="addr:postcode" v="78732"/></node><node id="-71" lat="30.361785" lon="-97.905968" changeset="false"><tag k="addr:street" v="Capella Trail"/><tag k="addr:housenumber" v="12616"/><tag k="addr:postcode" v="78732"/></node><node id="-72" lat="30.363219" lon="-97.909271" changeset="false"><tag k="addr:street" v="Bright Sky Overlook"/><tag k="addr:housenumber" v="13304"/><tag k="addr:postcode" v="78732"/></node><node id="-73" lat="30.359909" lon="-97.909282" changeset="false"><tag k="addr:street" v="Little Dipper Path"/><tag k="addr:housenumber" v="12925 1/2"/><tag k="addr:postcode" v="78732"/></node><node id="-74" lat="30.381135" lon="-97.90401" changeset="false"><tag k="addr:street" v="Montview Drive"/><tag k="addr:housenumber" v="13402"/><tag k="addr:postcode" v="78732"/></node><node id="-75" lat="30.381247" lon="-97.904322" changeset="false"><tag k="addr:street" v="Montview Drive"/><tag k="addr:housenumber" v="13404"/><tag k="addr:postcode" v="78732"/></node><node id="-76" lat="30.371157" lon="-97.888532" changeset="false"><tag k="addr:street" v="North Quinlan Park Road"/><tag k="addr:housenumber" v="3314"/><tag k="addr:postcode" v="78732"/></node><node id="-77" lat="30.374622" lon="-97.912276" changeset="false"><tag k="addr:street" v="Flat Top Ranch Road"/><tag k="addr:housenumber" v="14400"/><tag k="addr:postcode" v="78732"/></node><node id="-78" lat="30.381404" lon="-97.909989" changeset="false"><tag k="addr:street" v="Flat Top Ranch Road"/><tag k="addr:housenumber" v="13820"/><tag k="addr:postcode" v="78732"/></node><node id="-79" lat="30.364538" lon="-97.912114" changeset="false"><tag k="addr:street" v="Flat Top Ranch Road"/><tag k="addr:housenumber" v="15012"/><tag k="addr:postcode" v="78732"/></node><node id="-80" lat="30.344733" lon="-97.922098" changeset="false"><tag k="addr:street" v="Zen Gardens Way"/><tag k="addr:housenumber" v="13200"/><tag k="addr:postcode" v="78732"/></node><node id="-81" lat="30.344253" lon="-97.92217" changeset="false"><tag k="addr:street" v="Zen Gardens Way"/><tag k="addr:housenumber" v="13140"/><tag k="addr:postcode" v="78732"/></node><node id="-82" lat="30.355477" lon="-97.912918" changeset="false"><tag k="addr:street" v="Lakewood Hills Terrace"/><tag k="addr:housenumber" v="900"/><tag k="addr:postcode" v="78732"/></node><node id="-83" lat="30.360871" lon="-97.90282" changeset="false"><tag k="addr:street" v="Westfalian Trail"/><tag k="addr:housenumber" v="2000"/><tag k="addr:postcode" v="78732"/></node><node id="-84" lat="30.365983" lon="-97.911923" changeset="false"><tag k="addr:street" v="Flat Top Ranch Road"/><tag k="addr:housenumber" v="14916"/><tag k="addr:postcode" v="78732"/></node><node id="-85" lat="30.352939" lon="-97.912546" changeset="false"><tag k="addr:street" v="Lakewood Hills Terrace"/><tag k="addr:housenumber" v="716"/><tag k="addr:postcode" v="78732"/></node><node id="-86" lat="30.377199" lon="-97.892976" changeset="false"><tag k="addr:street" v="John Simpson Trail"/><tag k="addr:housenumber" v="3532 1/2"/><tag k="addr:postcode" v="78732"/></node><node id="-87" lat="30.37882" lon="-97.907651" changeset="false"><tag k="addr:street" v="Country Lake Drive"/><tag k="addr:housenumber" v="13600"/><tag k="addr:postcode" v="78732"/></node><node id="-88" lat="30.337622" lon="-97.926572" changeset="false"><tag k="addr:street" v="Town Bluff Drive"/><tag k="addr:housenumber" v="915"/><tag k="addr:postcode" v="78732"/></node><node id="-89" lat="30.38118" lon="-97.913246" changeset="false"><tag k="addr:street" v="Fritz Hughes Park Road"/><tag k="addr:housenumber" v="3105"/><tag k="addr:postcode" v="78732"/></node><node id="-90" lat="30.336925" lon="-97.928267" changeset="false"><tag k="addr:street" v="Town Bluff Drive"/><tag k="addr:housenumber" v="1010"/><tag k="addr:postcode" v="78732"/></node><node id="-91" lat="30.370215" lon="-97.894258" changeset="false"><tag k="addr:street" v="Steiner Ranch Boulevard"/><tag k="addr:housenumber" v="3048"/><tag k="addr:postcode" v="78732"/></node><node id="-92" lat="30.343205" lon="-97.924477" changeset="false"><tag k="addr:street" v="Zen Gardens Way"/><tag k="addr:housenumber" v="13117"/><tag k="addr:postcode" v="78732"/></node><node id="-93" lat="30.349533" lon="-97.915136" changeset="false"><tag k="addr:street" v="Dawn River Cove"/><tag k="addr:housenumber" v="209"/><tag k="addr:postcode" v="78732"/></node><node id="-94" lat="30.382858" lon="-97.911309" changeset="false"><tag k="addr:street" v="Fritz Hughes Park Road"/><tag k="addr:housenumber" v="3210"/><tag k="addr:postcode" v="78732"/></node><node id="-95" lat="30.368222" lon="-97.912351" changeset="false"><tag k="addr:street" v="Flat Top Ranch Road"/><tag k="addr:housenumber" v="14816"/><tag k="addr:postcode" v="78732"/></node><node id="-96" lat="30.356836" lon="-97.910567" changeset="false"><tag k="addr:street" v="Arbor Lake Cove"/><tag k="addr:housenumber" v="12812"/><tag k="addr:postcode" v="78732"/></node><node id="-97" lat="30.376832" lon="-97.90181" changeset="false"><tag k="addr:street" v="Flat Top Ranch Road"/><tag k="addr:housenumber" v="13120 1/2"/><tag k="addr:postcode" v="78732"/></node><node id="-98" lat="30.358339" lon="-97.911487" changeset="false"><tag k="addr:street" v="Lakewood Hills Terrace"/><tag k="addr:housenumber" v="1121"/><tag k="addr:postcode" v="78732"/></node><node id="-99" lat="30.378806" lon="-97.91242" changeset="false"><tag k="addr:street" v="Flat Top Ranch Road"/><tag k="addr:housenumber" v="14124"/><tag k="addr:postcode" v="78732"/></node><node id="-100" lat="30.375465" lon="-97.903224" changeset="false"><tag k="addr:street" v="Country Lake Drive"/><tag k="addr:housenumber" v="13201"/><tag k="addr:postcode" v="78732"/></node><node id="-101" lat="30.375402" lon="-97.900468" changeset="false"><tag k="addr:street" v="Brigham Court"/><tag k="addr:housenumber" v="3101"/><tag k="addr:postcode" v="78732"/></node><node id="-102" lat="30.368631" lon="-97.893945" changeset="false"><tag k="addr:street" v="Central Park"/><tag k="addr:housenumber" v="12732 1/2"/><tag k="addr:postcode" v="78732"/></node><node id="-103" lat="30.355563" lon="-97.912359" changeset="false"><tag k="addr:street" v="Lakewood Hills Terrace"/><tag k="addr:housenumber" v="908"/><tag k="addr:postcode" v="78732"/></node><node id="-104" lat="30.3399" lon="-97.922757" changeset="false"><tag k="addr:street" v="Zen Gardens Way"/><tag k="addr:housenumber" v="732"/><tag k="addr:postcode" v="78732"/></node><node id="-105" lat="30.341137" lon="-97.921342" changeset="false"><tag k="addr:street" v="Zen Gardens Way"/><tag k="addr:housenumber" v="12928"/><tag k="addr:postcode" v="78732"/></node><node id="-106" lat="30.361483" lon="-97.90525" changeset="false"><tag k="addr:street" v="Capella Trail"/><tag k="addr:housenumber" v="12604"/><tag k="addr:postcode" v="78732"/></node><node id="-107" lat="30.344727" lon="-97.920842" changeset="false"><tag k="addr:street" v="Zen Gardens Way"/><tag k="addr:housenumber" v="13240"/><tag k="addr:postcode" v="78732"/></node><node id="-108" lat="30.339023" lon="-97.926982" changeset="false"><tag k="addr:street" v="Perryton Drive"/><tag k="addr:housenumber" v="13115"/><tag k="addr:postcode" v="78732"/></node><node id="-109" lat="30.34462" lon="-97.923126" changeset="false"><tag k="addr:street" v="Zen Gardens Way"/><tag k="addr:housenumber" v="13149"/><tag k="addr:postcode" v="78732"/></node><node id="-110" lat="30.345079" lon="-97.921594" changeset="false"><tag k="addr:street" v="Zen Gardens Way"/><tag k="addr:housenumber" v="13224"/><tag k="addr:postcode" v="78732"/></node><node id="-111" lat="30.355514" lon="-97.912614" changeset="false"><tag k="addr:street" v="Lakewood Hills Terrace"/><tag k="addr:housenumber" v="904"/><tag k="addr:postcode" v="78732"/></node><node id="-112" lat="30.360875" lon="-97.907722" changeset="false"><tag k="addr:street" v="Austrina Pass"/><tag k="addr:housenumber" v="1512"/><tag k="addr:postcode" v="78732"/></node><node id="-113" lat="30.382849" lon="-97.908496" changeset="false"><tag k="addr:street" v="Montview Drive"/><tag k="addr:housenumber" v="13702"/><tag k="addr:postcode" v="78732"/></node><node id="-114" lat="30.380695" lon="-97.904605" changeset="false"><tag k="addr:street" v="Montview Drive"/><tag k="addr:housenumber" v="13405"/><tag k="addr:postcode" v="78732"/></node><node id="-115" lat="30.353184" lon="-97.912655" changeset="false"><tag k="addr:street" v="Lakewood Hills Terrace"/><tag k="addr:housenumber" v="720"/><tag k="addr:postcode" v="78732"/></node><node id="-116" lat="30.382826" lon="-97.908123" changeset="false"><tag k="addr:street" v="Montview Drive"/><tag k="addr:housenumber" v="13700"/><tag k="addr:postcode" v="78732"/></node><node id="-117" lat="30.384051" lon="-97.911001" changeset="false"><tag k="addr:street" v="Oriole Cove"/><tag k="addr:housenumber" v="3402"/><tag k="addr:postcode" v="78732"/></node><node id="-118" lat="30.368671" lon="-97.912039" changeset="false"><tag k="addr:street" v="Flat Top Ranch Road"/><tag k="addr:housenumber" v="14808"/><tag k="addr:postcode" v="78732"/></node><node id="-119" lat="30.362525" lon="-97.90034" changeset="false"><tag k="addr:street" v="Country Trails Lane"/><tag k="addr:housenumber" v="12501"/><tag k="addr:postcode" v="78732"/></node><node id="-120" lat="30.342089" lon="-97.921696" changeset="false"><tag k="addr:street" v="Zen Gardens Way"/><tag k="addr:housenumber" v="13000"/><tag k="addr:postcode" v="78732"/></node><node id="-121" lat="30.37106" lon="-97.897775" changeset="false"><tag k="addr:street" v="Persimmon Valley Trail"/><tag k="addr:housenumber" v="3000"/><tag k="addr:postcode" v="78732"/></node><node id="-122" lat="30.342529" lon="-97.921884" changeset="false"><tag k="addr:street" v="Zen Gardens Way"/><tag k="addr:housenumber" v="13060"/><tag k="addr:postcode" v="78732"/></node><node id="-123" lat="30.381573" lon="-97.913239" changeset="false"><tag k="addr:street" v="Fritz Hughes Park Road"/><tag k="addr:housenumber" v="3103"/><tag k="addr:postcode" v="78732"/></node><node id="-124" lat="30.38057" lon="-97.909193" changeset="false"><tag k="addr:street" v="Flat Top Ranch Road"/><tag k="addr:housenumber" v="13805"/><tag k="addr:postcode" v="78732"/></node><node id="-125" lat="30.36907" lon="-97.912151" changeset="false"><tag k="addr:street" v="Flat Top Ranch Road"/><tag k="addr:housenumber" v="14800"/><tag k="addr:postcode" v="78732"/></node><node id="-126" lat="30.378266" lon="-97.912512" changeset="false"><tag k="addr:street" v="Flat Top Ranch Road"/><tag k="addr:housenumber" v="14132"/><tag k="addr:postcode" v="78732"/></node><node id="-127" lat="30.377054" lon="-97.910692" changeset="false"><tag k="addr:street" v="Rippling Creek Court"/><tag k="addr:housenumber" v="3100"/><tag k="addr:postcode" v="78732"/></node><node id="-128" lat="30.354889" lon="-97.913627" changeset="false"><tag k="addr:street" v="Lakewood Hills Terrace"/><tag k="addr:housenumber" v="816"/><tag k="addr:postcode" v="78732"/></node><node id="-129" lat="30.372508" lon="-97.89911" changeset="false"><tag k="addr:street" v="Majestic Oaks Drive"/><tag k="addr:housenumber" v="12821"/><tag k="addr:postcode" v="78732"/></node><node id="-130" lat="30.372332" lon="-97.912185" changeset="false"><tag k="addr:street" v="Flat Top Ranch Road"/><tag k="addr:housenumber" v="14600"/><tag k="addr:postcode" v="78732"/></node><node id="-131" lat="30.370878" lon="-97.90018" changeset="false"><tag k="addr:street" v="Lantana Ridge Court"/><tag k="addr:housenumber" v="12817"/><tag k="addr:postcode" v="78732"/></node><node id="-132" lat="30.351127" lon="-97.914695" changeset="false"><tag k="addr:street" v="Dawn River Cove"/><tag k="addr:housenumber" v="104"/><tag k="addr:postcode" v="78732"/></node><node id="-133" lat="30.387705" lon="-97.912779" changeset="false"><tag k="addr:street" v="Low Water Crossing Road"/><tag k="addr:housenumber" v="14111"/><tag k="addr:postcode" v="78732"/></node><node id="-134" lat="30.345399" lon="-97.922736" changeset="false"><tag k="addr:street" v="Zen Gardens Way"/><tag k="addr:housenumber" v="13209"/><tag k="addr:postcode" v="78732"/></node><node id="-135" lat="30.339015" lon="-97.922601" changeset="false"><tag k="addr:street" v="Zen Gardens Way"/><tag k="addr:housenumber" v="725"/><tag k="addr:postcode" v="78732"/></node><node id="-136" lat="30.34163" lon="-97.921445" changeset="false"><tag k="addr:street" v="Zen Gardens Way"/><tag k="addr:housenumber" v="12936"/><tag k="addr:postcode" v="78732"/></node><node id="-137" lat="30.342983" lon="-97.922837" changeset="false"><tag k="addr:street" v="Zen Gardens Way"/><tag k="addr:housenumber" v="13101"/><tag k="addr:postcode" v="78732"/></node><node id="-138" lat="30.348851" lon="-97.916552" changeset="false"><tag k="addr:street" v="Dawn River Cove"/><tag k="addr:housenumber" v="309"/><tag k="addr:postcode" v="78732"/></node><node id="-139" lat="30.379883" lon="-97.912938" changeset="false"><tag k="addr:street" v="Flat Top Ranch Road"/><tag k="addr:housenumber" v="14108"/><tag k="addr:postcode" v="78732"/></node><node id="-140" lat="30.349679" lon="-97.916815" changeset="false"><tag k="addr:street" v="Dawn River Cove"/><tag k="addr:housenumber" v="300"/><tag k="addr:postcode" v="78732"/></node><node id="-141" lat="30.381626" lon="-97.906566" changeset="false"><tag k="addr:street" v="Montview Drive"/><tag k="addr:housenumber" v="13509"/><tag k="addr:postcode" v="78732"/></node><node id="-142" lat="30.345814" lon="-97.9214" changeset="false"><tag k="addr:street" v="Zen Gardens Way"/><tag k="addr:housenumber" v="13225"/><tag k="addr:postcode" v="78732"/></node><node id="-143" lat="30.381271" lon="-97.910526" changeset="false"><tag k="addr:street" v="Flat Top Ranch Road"/><tag k="addr:housenumber" v="13900"/><tag k="addr:postcode" v="78732"/></node><node id="-144" lat="30.369755" lon="-97.890678" changeset="false"><tag k="addr:street" v="North Quinlan Park Road"/><tag k="addr:housenumber" v="3018 1/2"/><tag k="addr:postcode" v="78732"/></node><node id="-145" lat="30.376046" lon="-97.912286" changeset="false"><tag k="addr:street" v="Flat Top Ranch Road"/><tag k="addr:housenumber" v="14308"/><tag k="addr:postcode" v="78732"/></node><node id="-146" lat="30.369481" lon="-97.89829" changeset="false"><tag k="addr:street" v="Lantana Ridge Drive"/><tag k="addr:housenumber" v="2804"/><tag k="addr:postcode" v="78732"/></node><node id="-147" lat="30.343348" lon="-97.92287" changeset="false"><tag k="addr:street" v="Zen Gardens Way"/><tag k="addr:housenumber" v="13109"/><tag k="addr:postcode" v="78732"/></node><node id="-148" lat="30.387335" lon="-97.90904" changeset="false"><tag k="addr:street" v="Low Water Crossing Road"/><tag k="addr:housenumber" v="13910"/><tag k="addr:postcode" v="78732"/></node><node id="-149" lat="30.365536" lon="-97.91186" changeset="false"><tag k="addr:street" v="Flat Top Ranch Road"/><tag k="addr:housenumber" v="15000"/><tag k="addr:postcode" v="78732"/></node><node id="-150" lat="30.376368" lon="-97.890395" changeset="false"><tag k="addr:street" v="Stapp Court"/><tag k="addr:housenumber" v="12500"/><tag k="addr:postcode" v="78732"/></node><node id="-151" lat="30.365092" lon="-97.911761" changeset="false"><tag k="addr:street" v="Flat Top Ranch Road"/><tag k="addr:housenumber" v="15008"/><tag k="addr:postcode" v="78732"/></node><node id="-152" lat="30.373948" lon="-97.885981" changeset="false"><tag k="addr:street" v="North Quinlan Park Road"/><tag k="addr:housenumber" v="3610"/><tag k="addr:postcode" v="78732"/></node><node id="-153" lat="30.359483" lon="-97.909818" changeset="false"><tag k="addr:street" v="Bright Sky Overlook"/><tag k="addr:housenumber" v="13017"/><tag k="addr:postcode" v="78732"/></node><node id="-154" lat="30.383383" lon="-97.910727" changeset="false"><tag k="addr:street" v="Hummingbird Lane"/><tag k="addr:housenumber" v="13907"/><tag k="addr:postcode" v="78732"/></node><node id="-155" lat="30.383157" lon="-97.913791" changeset="false"><tag k="addr:street" v="Hummingbird Lane"/><tag k="addr:housenumber" v="14013"/><tag k="addr:postcode" v="78732"/></node><node id="-156" lat="30.370492" lon="-97.896389" changeset="false"><tag k="addr:street" v="Coralberry Cove"/><tag k="addr:housenumber" v="12707"/><tag k="addr:postcode" v="78732"/></node><node id="-157" lat="30.355595" lon="-97.912073" changeset="false"><tag k="addr:street" v="Lakewood Hills Terrace"/><tag k="addr:housenumber" v="912"/><tag k="addr:postcode" v="78732"/></node><node id="-158" lat="30.354557" lon="-97.913394" changeset="false"><tag k="addr:street" v="Lakewood Hills Terrace"/><tag k="addr:housenumber" v="812"/><tag k="addr:postcode" v="78732"/></node><node id="-159" lat="30.349079" lon="-97.917336" changeset="false"><tag k="addr:street" v="Dawn River Cove"/><tag k="addr:housenumber" v="316"/><tag k="addr:postcode" v="78732"/></node><node id="-160" lat="30.37352" lon="-97.912268" changeset="false"><tag k="addr:street" v="Flat Top Ranch Road"/><tag k="addr:housenumber" v="14508"/><tag k="addr:postcode" v="78732"/></node><node id="-161" lat="30.378597" lon="-97.911989" changeset="false"><tag k="addr:street" v="Flat Top Ranch Road"/><tag k="addr:housenumber" v="14128 1/2"/><tag k="addr:postcode" v="78732"/></node><node id="-162" lat="30.361103" lon="-97.910282" changeset="false"><tag k="addr:street" v="Bright Sky Overlook"/><tag k="addr:housenumber" v="13201"/><tag k="addr:postcode" v="78732"/></node><node id="-163" lat="30.360341" lon="-97.909997" changeset="false"><tag k="addr:street" v="Bright Sky Overlook"/><tag k="addr:housenumber" v="13105"/><tag k="addr:postcode" v="78732"/></node><node id="-164" lat="30.379613" lon="-97.899029" changeset="false"><tag k="addr:street" v="Halsell Drive"/><tag k="addr:housenumber" v="13125"/><tag k="addr:postcode" v="78732"/></node><node id="-165" lat="30.354118" lon="-97.913169" changeset="false"><tag k="addr:street" v="Lakewood Hills Terrace"/><tag k="addr:housenumber" v="804"/><tag k="addr:postcode" v="78732"/></node><node id="-166" lat="30.385282" lon="-97.913448" changeset="false"><tag k="addr:street" v="Blue Jay Lane"/><tag k="addr:housenumber" v="3436"/><tag k="addr:postcode" v="78732"/></node><node id="-167" lat="30.363804" lon="-97.91215" changeset="false"><tag k="addr:street" v="Flat Top Ranch Road"/><tag k="addr:housenumber" v="15016"/><tag k="addr:postcode" v="78732"/></node><node id="-168" lat="30.383755" lon="-97.911112" changeset="false"><tag k="addr:street" v="Hummingbird Lane"/><tag k="addr:housenumber" v="13916"/><tag k="addr:postcode" v="78732"/></node><node id="-169" lat="30.382284" lon="-97.910257" changeset="false"><tag k="addr:street" v="Montview Drive"/><tag k="addr:housenumber" v="13803"/><tag k="addr:postcode" v="78732"/></node><node id="-170" lat="30.368002" lon="-97.906256" changeset="false"><tag k="addr:street" v="Country Trails Lane"/><tag k="addr:housenumber" v="12930 1/2"/><tag k="addr:postcode" v="78732"/></node><node id="-171" lat="30.383296" lon="-97.91046" changeset="false"><tag k="addr:street" v="Fritz Hughes Park Road"/><tag k="addr:housenumber" v="3306"/><tag k="addr:postcode" v="78732"/></node><node id="-172" lat="30.371083" lon="-97.912067" changeset="false"><tag k="addr:street" v="Flat Top Ranch Road"/><tag k="addr:housenumber" v="14624"/><tag k="addr:postcode" v="78732"/></node><node id="-173" lat="30.356285" lon="-97.911772" changeset="false"><tag k="addr:street" v="Lakewood Hills Terrace"/><tag k="addr:housenumber" v="1008"/><tag k="addr:postcode" v="78732"/></node><node id="-174" lat="30.350561" lon="-97.913602" changeset="false"><tag k="addr:street" v="Dawn River Cove"/><tag k="addr:housenumber" v="105"/><tag k="addr:postcode" v="78732"/></node><node id="-175" lat="30.372262" lon="-97.898458" changeset="false"><tag k="addr:street" v="Majestic Oaks Pass"/><tag k="addr:housenumber" v="2916"/><tag k="addr:postcode" v="78732"/></node><node id="-176" lat="30.369522" lon="-97.912028" changeset="false"><tag k="addr:street" v="Flat Top Ranch Road"/><tag k="addr:housenumber" v="14716"/><tag k="addr:postcode" v="78732"/></node><node id="-177" lat="30.388036" lon="-97.912529" changeset="false"><tag k="addr:street" v="Low Water Crossing Road"/><tag k="addr:housenumber" v="14112"/><tag k="addr:postcode" v="78732"/></node><node id="-178" lat="30.379961" lon="-97.899097" changeset="false"><tag k="addr:street" v="Halsell Drive"/><tag k="addr:housenumber" v="13133"/><tag k="addr:postcode" v="78732"/></node><node id="-179" lat="30.339352" lon="-97.92362" changeset="false"><tag k="addr:street" v="Zen Gardens Way"/><tag k="addr:housenumber" v="741"/><tag k="addr:postcode" v="78732"/></node><node id="-180" lat="30.353418" lon="-97.912786" changeset="false"><tag k="addr:street" v="Lakewood Hills Terrace"/><tag k="addr:housenumber" v="724"/><tag k="addr:postcode" v="78732"/></node><node id="-181" lat="30.382306" lon="-97.908299" changeset="false"><tag k="addr:street" v="Montview Drive"/><tag k="addr:housenumber" v="13701"/><tag k="addr:postcode" v="78732"/></node><node id="-182" lat="30.360715" lon="-97.910116" changeset="false"><tag k="addr:street" v="Bright Sky Overlook"/><tag k="addr:housenumber" v="13113"/><tag k="addr:postcode" v="78732"/></node><node id="-183" lat="30.345537" lon="-97.920663" changeset="false"><tag k="addr:street" v="Zen Gardens Way"/><tag k="addr:housenumber" v="13233"/><tag k="addr:postcode" v="78732"/></node><node id="-184" lat="30.362506" lon="-97.900138" changeset="false"><tag k="addr:street" v="North Quinlan Park Road"/><tag k="addr:housenumber" v="2310 1/2"/><tag k="addr:postcode" v="78732"/></node><node id="-185" lat="30.343775" lon="-97.923824" changeset="false"><tag k="addr:street" v="Zen Gardens Way"/><tag k="addr:housenumber" v="13125"/><tag k="addr:postcode" v="78732"/></node><node id="-186" lat="30.341952" lon="-97.922622" changeset="false"><tag k="addr:street" v="Zen Gardens Way"/><tag k="addr:housenumber" v="13001"/><tag k="addr:postcode" v="78732"/></node><node id="-187" lat="30.381524" lon="-97.906267" changeset="false"><tag k="addr:street" v="Montview Drive"/><tag k="addr:housenumber" v="13507"/><tag k="addr:postcode" v="78732"/></node><node id="-188" lat="30.379899" lon="-97.898286" changeset="false"><tag k="addr:street" v="Halsell Drive"/><tag k="addr:housenumber" v="13130"/><tag k="addr:postcode" v="78732"/></node><node id="-189" lat="30.375759" lon="-97.897086" changeset="false"><tag k="addr:street" v="Oxsheer Drive"/><tag k="addr:housenumber" v="3309"/><tag k="addr:postcode" v="78732"/></node><node id="-190" lat="30.372767" lon="-97.9122" changeset="false"><tag k="addr:street" v="Flat Top Ranch Road"/><tag k="addr:housenumber" v="14524"/><tag k="addr:postcode" v="78732"/></node><node id="-191" lat="30.370434" lon="-97.898677" changeset="false"><tag k="addr:street" v="Lantana Ridge Drive"/><tag k="addr:housenumber" v="2836"/><tag k="addr:postcode" v="78732"/></node><node id="-192" lat="30.338508" lon="-97.920555" changeset="false"><tag k="addr:street" v="South Quinlan Park Road"/><tag k="addr:housenumber" v="624"/><tag k="addr:postcode" v="78732"/></node><node id="-193" lat="30.386672" lon="-97.911021" changeset="false"><tag k="addr:street" v="Blue Jay Lane"/><tag k="addr:housenumber" v="3417"/><tag k="addr:postcode" v="78732"/></node><node id="-194" lat="30.360132" lon="-97.909822" changeset="false"><tag k="addr:street" v="Bright Sky Overlook"/><tag k="addr:housenumber" v="13101"/><tag k="addr:postcode" v="78732"/></node><node id="-195" lat="30.383676" lon="-97.911937" changeset="false"><tag k="addr:street" v="Echo Lane"/><tag k="addr:housenumber" v="14000"/><tag k="addr:postcode" v="78732"/></node><node id="-196" lat="30.379357" lon="-97.91306" changeset="false"><tag k="addr:street" v="Flat Top Ranch Road"/><tag k="addr:housenumber" v="14116"/><tag k="addr:postcode" v="78732"/></node><node id="-197" lat="30.338082" lon="-97.92027" changeset="false"><tag k="addr:street" v="South Quinlan Park Road"/><tag k="addr:housenumber" v="632"/><tag k="addr:postcode" v="78732"/></node><node id="-198" lat="30.382251" lon="-97.906568" changeset="false"><tag k="addr:street" v="Montview Drive"/><tag k="addr:housenumber" v="13600"/><tag k="addr:postcode" v="78732"/></node><node id="-199" lat="30.371426" lon="-97.900501" changeset="false"><tag k="addr:street" v="Lantana Ridge Court"/><tag k="addr:housenumber" v="12833"/><tag k="addr:postcode" v="78732"/></node><node id="-200" lat="30.382346" lon="-97.9096" changeset="false"><tag k="addr:street" v="Montview Drive"/><tag k="addr:housenumber" v="13709"/><tag k="addr:postcode" v="78732"/></node><node id="-201" lat="30.382007" lon="-97.906004" changeset="false"><tag k="addr:street" v="Montview Drive"/><tag k="addr:housenumber" v="13506"/><tag k="addr:postcode" v="78732"/></node><node id="-202" lat="30.343429" lon="-97.921851" changeset="false"><tag k="addr:street" v="Zen Gardens Way"/><tag k="addr:housenumber" v="13108"/><tag k="addr:postcode" v="78732"/></node><node id="-203" lat="30.340357" lon="-97.921103" changeset="false"><tag k="addr:street" v="Zen Gardens Way"/><tag k="addr:housenumber" v="12916"/><tag k="addr:postcode" v="78732"/></node><node id="-204" lat="30.340049" lon="-97.92177" changeset="false"><tag k="addr:street" v="Zen Gardens Way"/><tag k="addr:housenumber" v="700"/><tag k="addr:postcode" v="78732"/></node><node id="-205" lat="30.380187" lon="-97.905691" changeset="false"><tag k="addr:street" v="Flat Top Ranch Road"/><tag k="addr:housenumber" v="13508 1/2"/><tag k="addr:postcode" v="78732"/></node><node id="-206" lat="30.385899" lon="-97.909374" changeset="false"><tag k="addr:street" v="Fritz Hughes Park Road"/><tag k="addr:housenumber" v="3604"/><tag k="addr:postcode" v="78732"/></node><node id="-207" lat="30.338233" lon="-97.922299" changeset="false"><tag k="addr:street" v="Perryton Drive"/><tag k="addr:housenumber" v="12901"/><tag k="addr:postcode" v="78732"/></node><node id="-208" lat="30.363876" lon="-97.910273" changeset="false"><tag k="addr:street" v="Bright Sky Overlook"/><tag k="addr:housenumber" v="13321"/><tag k="addr:postcode" v="78732"/></node><node id="-209" lat="30.383295" lon="-97.912248" changeset="false"><tag k="addr:street" v="Hummingbird Lane"/><tag k="addr:housenumber" v="13923"/><tag k="addr:postcode" v="78732"/></node><node id="-210" lat="30.35602" lon="-97.91167" changeset="false"><tag k="addr:street" v="Lakewood Hills Terrace"/><tag k="addr:housenumber" v="1004"/><tag k="addr:postcode" v="78732"/></node><node id="-211" lat="30.379263" lon="-97.898975" changeset="false"><tag k="addr:street" v="Halsell Drive"/><tag k="addr:housenumber" v="13117"/><tag k="addr:postcode" v="78732"/></node><node id="-212" lat="30.378015" lon="-97.910668" changeset="false"><tag k="addr:street" v="Rippling Creek Court"/><tag k="addr:housenumber" v="3116"/><tag k="addr:postcode" v="78732"/></node><node id="-213" lat="30.348333" lon="-97.917079" changeset="false"><tag k="addr:street" v="Dawn River Cove"/><tag k="addr:housenumber" v="325"/><tag k="addr:postcode" v="78732"/></node><node id="-214" lat="30.347006" lon="-97.918849" changeset="false"><tag k="addr:street" v="Dawn River Cove"/><tag k="addr:housenumber" v="501"/><tag k="addr:postcode" v="78732"/></node><node id="-215" lat="30.371919" lon="-97.912137" changeset="false"><tag k="addr:street" v="Flat Top Ranch Road"/><tag k="addr:housenumber" v="14608"/><tag k="addr:postcode" v="78732"/></node><node id="-216" lat="30.359131" lon="-97.904154" changeset="false"><tag k="addr:street" v="North Quinlan Park Road"/><tag k="addr:housenumber" v="1625 1/2"/><tag k="addr:postcode" v="78732"/></node><node id="-217" lat="30.365521" lon="-97.901554" changeset="false"><tag k="addr:street" v="Country Trails Lane"/><tag k="addr:housenumber" v="12601"/><tag k="addr:postcode" v="78732"/></node><node id="-218" lat="30.345269" lon="-97.920128" changeset="false"><tag k="addr:street" v="Zen Gardens Way"/><tag k="addr:housenumber" v="13241"/><tag k="addr:postcode" v="78732"/></node><node id="-219" lat="30.344421" lon="-97.921385" changeset="false"><tag k="addr:street" v="Zen Gardens Way"/><tag k="addr:housenumber" v="13232"/><tag k="addr:postcode" v="78732"/></node><node id="-220" lat="30.355766" lon="-97.911801" changeset="false"><tag k="addr:street" v="Lakewood Hills Terrace"/><tag k="addr:housenumber" v="1000"/><tag k="addr:postcode" v="78732"/></node><node id="-221" lat="30.370625" lon="-97.912023" changeset="false"><tag k="addr:street" v="Flat Top Ranch Road"/><tag k="addr:housenumber" v="14700"/><tag k="addr:postcode" v="78732"/></node><node id="-222" lat="30.375947" lon="-97.893396" changeset="false"><tag k="addr:street" v="Steiner Ranch Boulevard"/><tag k="addr:housenumber" v="3412"/><tag k="addr:postcode" v="78732"/></node><node id="-223" lat="30.354223" lon="-97.912377" changeset="false"><tag k="addr:street" v="Lakewood Hills Terrace"/><tag k="addr:housenumber" v="801"/><tag k="addr:postcode" v="78732"/></node><node id="-224" lat="30.376401" lon="-97.893289" changeset="false"><tag k="addr:street" v="Steiner Ranch Boulevard"/><tag k="addr:housenumber" v="3506"/><tag k="addr:postcode" v="78732"/></node><node id="-225" lat="30.37737" lon="-97.91223" changeset="false"><tag k="addr:street" v="Flat Top Ranch Road"/><tag k="addr:housenumber" v="14016"/><tag k="addr:postcode" v="78732"/></node><node id="-226" lat="30.377068" lon="-97.912586" changeset="false"><tag k="addr:street" v="Flat Top Ranch Road"/><tag k="addr:housenumber" v="14208"/><tag k="addr:postcode" v="78732"/></node><node id="-227" lat="30.34061" lon="-97.922341" changeset="false"><tag k="addr:street" v="Zen Gardens Way"/><tag k="addr:housenumber" v="12921"/><tag k="addr:postcode" v="78732"/></node><node id="-228" lat="30.335636" lon="-97.924486" changeset="false"><tag k="addr:street" v="Shore Vista Drive"/><tag k="addr:housenumber" v="12900"/><tag k="addr:postcode" v="78732"/></node><node id="-229" lat="30.349445" lon="-97.915575" changeset="false"><tag k="addr:street" v="Dawn River Cove"/><tag k="addr:housenumber" v="217"/><tag k="addr:postcode" v="78732"/></node><node id="-230" lat="30.357683" lon="-97.910694" changeset="false"><tag k="addr:street" v="Arbor Lake Cove"/><tag k="addr:housenumber" v="12800"/><tag k="addr:postcode" v="78732"/></node><node id="-231" lat="30.374349" lon="-97.893279" changeset="false"><tag k="addr:street" v="Grimes Ranch Road"/><tag k="addr:housenumber" v="3315 1/2"/><tag k="addr:postcode" v="78732"/></node><node id="-232" lat="30.378265" lon="-97.911417" changeset="false"><tag k="addr:street" v="Flat Top Ranch Road"/><tag k="addr:housenumber" v="14029 1/2"/><tag k="addr:postcode" v="78732"/></node><node id="-233" lat="30.350801" lon="-97.91489" changeset="false"><tag k="addr:street" v="Dawn River Cove"/><tag k="addr:housenumber" v="108"/><tag k="addr:postcode" v="78732"/></node><node id="-234" lat="30.354351" lon="-97.913281" changeset="false"><tag k="addr:street" v="Lakewood Hills Terrace"/><tag k="addr:housenumber" v="808"/><tag k="addr:postcode" v="78732"/></node><node id="-235" lat="30.373296" lon="-97.888624" changeset="false"><tag k="addr:street" v="Latimer Drive"/><tag k="addr:housenumber" v="3410"/><tag k="addr:postcode" v="78732"/></node><node id="-236" lat="30.336714" lon="-97.920557" changeset="false"><tag k="addr:street" v="South Quinlan Park Road"/><tag k="addr:housenumber" v="812 1/2"/><tag k="addr:postcode" v="78732"/></node><node id="-237" lat="30.383029" lon="-97.91089" changeset="false"><tag k="addr:street" v="Fritz Hughes Park Road"/><tag k="addr:housenumber" v="3302"/><tag k="addr:postcode" v="78732"/></node><node id="-238" lat="30.363863" lon="-97.909555" changeset="false"><tag k="addr:street" v="Bright Sky Overlook"/><tag k="addr:housenumber" v="13316"/><tag k="addr:postcode" v="78732"/></node><node id="-239" lat="30.362421" lon="-97.910029" changeset="false"><tag k="addr:street" v="Bright Sky Overlook"/><tag k="addr:housenumber" v="13229"/><tag k="addr:postcode" v="78732"/></node><node id="-240" lat="30.369172" lon="-97.892624" changeset="false"><tag k="addr:street" v="North Quinlan Park Road"/><tag k="addr:housenumber" v="2900"/><tag k="addr:postcode" v="78732"/></node><node id="-241" lat="30.348425" lon="-97.918288" changeset="false"><tag k="addr:street" v="Dawn River Cove"/><tag k="addr:housenumber" v="408"/><tag k="addr:postcode" v="78732"/></node><node id="-242" lat="30.361981" lon="-97.901729" changeset="false"><tag k="addr:street" v="Westfalian Trail"/><tag k="addr:housenumber" v="2124"/><tag k="addr:postcode" v="78732"/></node><node id="-243" lat="30.35365" lon="-97.912845" changeset="false"><tag k="addr:street" v="Lakewood Hills Terrace"/><tag k="addr:housenumber" v="728"/><tag k="addr:postcode" v="78732"/></node><node id="-244" lat="30.374132" lon="-97.895238" changeset="false"><tag k="addr:street" v="Burks Lane"/><tag k="addr:housenumber" v="3220"/><tag k="addr:postcode" v="78732"/></node><node id="-245" lat="30.360873" lon="-97.90488" changeset="false"><tag k="addr:street" v="Capella Trail"/><tag k="addr:housenumber" v="12524"/><tag k="addr:postcode" v="78732"/></node><node id="-246" lat="30.385799" lon="-97.909354" changeset="false"><tag k="addr:street" v="Fritz Hughes Park Road"/><tag k="addr:housenumber" v="3602"/><tag k="addr:postcode" v="78732"/></node><node id="-247" lat="30.339162" lon="-97.921235" changeset="false"><tag k="addr:street" v="Zen Gardens Way"/><tag k="addr:housenumber" v="709"/><tag k="addr:postcode" v="78732"/></node><node id="-248" lat="30.33892" lon="-97.921901" changeset="false"><tag k="addr:street" v="Zen Gardens Way"/><tag k="addr:housenumber" v="717"/><tag k="addr:postcode" v="78732"/></node><node id="-249" lat="30.341351" lon="-97.924513" changeset="false"><tag k="addr:street" v="Zen Gardens Way"/><tag k="addr:housenumber" v="13037"/><tag k="addr:postcode" v="78732"/></node><node id="-250" lat="30.35115" lon="-97.914328" changeset="false"><tag k="addr:street" v="Dawn River Cove"/><tag k="addr:housenumber" v="100"/><tag k="addr:postcode" v="78732"/></node><node id="-251" lat="30.3397" lon="-97.927521" changeset="false"><tag k="addr:street" v="Perryton Drive"/><tag k="addr:housenumber" v="13125"/><tag k="addr:postcode" v="78732"/></node><node id="-252" lat="30.361209" lon="-97.902123" changeset="false"><tag k="addr:street" v="Westfalian Trail"/><tag k="addr:housenumber" v="2105"/><tag k="addr:postcode" v="78732"/></node><node id="-253" lat="30.383292" lon="-97.911984" changeset="false"><tag k="addr:street" v="Hummingbird Lane"/><tag k="addr:housenumber" v="13921"/><tag k="addr:postcode" v="78732"/></node><node id="-254" lat="30.337772" lon="-97.924303" changeset="false"><tag k="addr:street" v="Perryton Drive"/><tag k="addr:housenumber" v="13001"/><tag k="addr:postcode" v="78732"/></node><node id="-255" lat="30.369752" lon="-97.896649" changeset="false"><tag k="addr:street" v="Grimes Ranch Road"/><tag k="addr:housenumber" v="2932"/><tag k="addr:postcode" v="78732"/></node><node id="-256" lat="30.369635" lon="-97.897323" changeset="false"><tag k="addr:street" v="Persimmon Valley Trail"/><tag k="addr:housenumber" v="2904"/><tag k="addr:postcode" v="78732"/></node><node id="-257" lat="30.361275" lon="-97.910129" changeset="false"><tag k="addr:street" v="Bright Sky Overlook"/><tag k="addr:housenumber" v="13205"/><tag k="addr:postcode" v="78732"/></node><node id="-258" lat="30.350317" lon="-97.914356" changeset="false"><tag k="addr:street" v="Dawn River Cove"/><tag k="addr:housenumber" v="113"/><tag k="addr:postcode" v="78732"/></node><node id="-259" lat="30.366422" lon="-97.912006" changeset="false"><tag k="addr:street" v="Flat Top Ranch Road"/><tag k="addr:housenumber" v="14908"/><tag k="addr:postcode" v="78732"/></node><node id="-260" lat="30.347437" lon="-97.918171" changeset="false"><tag k="addr:street" v="Dawn River Cove"/><tag k="addr:housenumber" v="417"/><tag k="addr:postcode" v="78732"/></node><node id="-261" lat="30.346925" lon="-97.919214" changeset="false"><tag k="addr:street" v="Dawn River Cove"/><tag k="addr:housenumber" v="509"/><tag k="addr:postcode" v="78732"/></node><node id="-262" lat="30.350048" lon="-97.916009" changeset="false"><tag k="addr:street" v="Dawn River Cove"/><tag k="addr:housenumber" v="216"/><tag k="addr:postcode" v="78732"/></node><node id="-263" lat="30.369087" lon="-97.892315" changeset="false"><tag k="addr:street" v="North Quinlan Park Road"/><tag k="addr:housenumber" v="2940"/><tag k="addr:postcode" v="78732"/></node><node id="-264" lat="30.360895" lon="-97.910214" changeset="false"><tag k="addr:street" v="Bright Sky Overlook"/><tag k="addr:housenumber" v="13117"/><tag k="addr:postcode" v="78732"/></node><node id="-265" lat="30.376526" lon="-97.901171" changeset="false"><tag k="addr:street" v="Flat Top Ranch Road"/><tag k="addr:housenumber" v="13102"/><tag k="addr:postcode" v="78732"/></node><node id="-266" lat="30.359166" lon="-97.904636" changeset="false"><tag k="addr:street" v="North Quinlan Park Road"/><tag k="addr:housenumber" v="1500 1/2"/><tag k="addr:postcode" v="78732"/></node><node id="-267" lat="30.339289" lon="-97.923814" changeset="false"><tag k="addr:street" v="Zen Gardens Way"/><tag k="addr:housenumber" v="741 1/2"/><tag k="addr:postcode" v="78732"/></node><node id="-268" lat="30.389085" lon="-97.909301" changeset="false"><tag k="addr:street" v="Low Water Crossing Road"/><tag k="addr:housenumber" v="13710"/><tag k="addr:postcode" v="78732"/></node><node id="-269" lat="30.379721" lon="-97.898182" changeset="false"><tag k="addr:street" v="Halsell Drive"/><tag k="addr:housenumber" v="13126"/><tag k="addr:postcode" v="78732"/></node><node id="-270" lat="30.382763" lon="-97.907737" changeset="false"><tag k="addr:street" v="Montview Drive"/><tag k="addr:housenumber" v="13608"/><tag k="addr:postcode" v="78732"/></node><node id="-271" lat="30.374159" lon="-97.895381" changeset="false"><tag k="addr:street" v="Burks Lane"/><tag k="addr:housenumber" v="3212"/><tag k="addr:postcode" v="78732"/></node><node id="-272" lat="30.376974" lon="-97.896043" changeset="false"><tag k="addr:street" v="Grimes Ranch Road"/><tag k="addr:housenumber" v="3501"/><tag k="addr:postcode" v="78732"/></node><node id="-273" lat="30.376931" lon="-97.895949" changeset="false"><tag k="addr:street" v="Cowden Drive"/><tag k="addr:housenumber" v="3400"/><tag k="addr:postcode" v="78732"/></node></osm>