<?xml version="1.0" encoding="UTF-8"?><osm version="0.6" generator="github.com/aaronlidman/osm-and-geojson"><node id="-1" lat="30.412022" lon="-97.753065" changeset="false"><tag k="addr:street" v="Taylor Draper Lane"/><tag k="addr:housenumber" v="11295"/><tag k="coa:place_id" v="269319"/></node><node id="-2" lat="30.419405" lon="-97.752962" changeset="false"><tag k="addr:street" v="Jollyville Road"/><tag k="addr:housenumber" v="11726"/><tag k="coa:place_id" v="921434"/></node><node id="-3" lat="30.41006" lon="-97.748661" changeset="false"><tag k="addr:street" v="Taylor Draper Lane"/><tag k="addr:housenumber" v="11211"/><tag k="coa:place_id" v="180192"/></node><node id="-4" lat="30.416627" lon="-97.75298" changeset="false"><tag k="addr:street" v="Ladera Vista Drive"/><tag k="addr:housenumber" v="11503"/><tag k="coa:place_id" v="471710"/></node><node id="-5" lat="30.415936" lon="-97.748818" changeset="false"><tag k="addr:street" v="Jollyville Road"/><tag k="addr:housenumber" v="11586"/><tag k="coa:place_id" v="471638"/></node><node id="-6" lat="30.416708" lon="-97.749637" changeset="false"><tag k="addr:street" v="Jollyville Road"/><tag k="addr:housenumber" v="11604"/><tag k="coa:place_id" v="158391"/></node><node id="-7" lat="30.421423" lon="-97.755999" changeset="false"><tag k="addr:street" v="Q Ranch Road"/><tag k="addr:housenumber" v="11623"/><tag k="coa:place_id" v="3554597"/></node><node id="-8" lat="30.41467" lon="-97.754661" changeset="false"><tag k="addr:street" v="Taylor Draper Cove"/><tag k="addr:housenumber" v="5708"/><tag k="coa:place_id" v="255279"/></node><node id="-9" lat="30.410652" lon="-97.747873" changeset="false"><tag k="addr:street" v="Jollyville Road"/><tag k="addr:housenumber" v="11300"/><tag k="coa:place_id" v="860301"/></node><node id="-10" lat="30.421479" lon="-97.755824" changeset="false"><tag k="addr:street" v="Q Ranch Road"/><tag k="addr:housenumber" v="11627"/><tag k="coa:place_id" v="3554598"/></node><node id="-11" lat="30.421391" lon="-97.756172" changeset="false"><tag k="addr:street" v="Q Ranch Road"/><tag k="addr:housenumber" v="11619"/><tag k="coa:place_id" v="383828"/></node><node id="-12" lat="30.421922" lon="-97.755235" changeset="false"><tag k="addr:street" v="Jollyville Road"/><tag k="addr:housenumber" v="11814"/><tag k="coa:place_id" v="206424"/></node><node id="-13" lat="30.41538" lon="-97.754543" changeset="false"><tag k="addr:street" v="Ladera Vista Drive"/><tag k="addr:housenumber" v="11307"/><tag k="coa:place_id" v="3087111"/></node><node id="-14" lat="30.418283" lon="-97.75148" changeset="false"><tag k="addr:street" v="Jollyville Road"/><tag k="addr:housenumber" v="11640"/><tag k="coa:place_id" v="471686"/></node><node id="-15" lat="30.414791" lon="-97.754271" changeset="false"><tag k="addr:street" v="Taylor Draper Cove"/><tag k="addr:housenumber" v="5704"/><tag k="coa:place_id" v="255275"/></node><node id="-16" lat="30.410888" lon="-97.748076" changeset="false"><tag k="addr:street" v="Jollyville Road"/><tag k="addr:housenumber" v="11312"/><tag k="coa:place_id" v="3066791"/></node><node id="-17" lat="30.412391" lon="-97.748713" changeset="false"><tag k="addr:street" v="Jollyville Road"/><tag k="addr:housenumber" v="11410"/><tag k="coa:place_id" v="471542"/></node><node id="-18" lat="30.413066" lon="-97.747963" changeset="false"><tag k="addr:street" v="Jollyville Road"/><tag k="addr:housenumber" v="11500"/><tag k="coa:place_id" v="125700"/></node><node id="-19" lat="30.421592" lon="-97.755659" changeset="false"><tag k="addr:street" v="Q Ranch Road"/><tag k="addr:housenumber" v="11631"/><tag k="coa:place_id" v="3554599"/></node><node id="-20" lat="30.414619" lon="-97.754851" changeset="false"><tag k="addr:street" v="Taylor Draper Cove"/><tag k="addr:housenumber" v="5710"/><tag k="coa:place_id" v="255281"/></node><node id="-21" lat="30.417268" lon="-97.750531" changeset="false"><tag k="addr:street" v="Jollyville Road"/><tag k="addr:housenumber" v="11624"/><tag k="coa:place_id" v="148051"/></node><node id="-22" lat="30.411744" lon="-97.752371" changeset="false"><tag k="addr:street" v="Taylor Draper Lane"/><tag k="addr:housenumber" v="11279"/><tag k="coa:place_id" v="471578"/></node><node id="-23" lat="30.414848" lon="-97.754077" changeset="false"><tag k="addr:street" v="Taylor Draper Cove"/><tag k="addr:housenumber" v="5702"/><tag k="coa:place_id" v="255273"/></node><node id="-24" lat="30.419493" lon="-97.757234" changeset="false"><tag k="addr:street" v="Leon Grande Cove"/><tag k="addr:housenumber" v="11513"/><tag k="coa:place_id" v="164807"/></node><node id="-25" lat="30.418022" lon="-97.751167" changeset="false"><tag k="addr:street" v="Jollyville Road"/><tag k="addr:housenumber" v="11634"/><tag k="coa:place_id" v="471674"/></node><node id="-26" lat="30.414735" lon="-97.754466" changeset="false"><tag k="addr:street" v="Taylor Draper Cove"/><tag k="addr:housenumber" v="5706"/><tag k="coa:place_id" v="255276"/></node><node id="-27" lat="30.417549" lon="-97.750922" changeset="false"><tag k="addr:street" v="Jollyville Road"/><tag k="addr:housenumber" v="11652"/><tag k="coa:place_id" v="471692"/></node><node id="-28" lat="30.4181" lon="-97.751385" changeset="false"><tag k="addr:street" v="Jollyville Road"/><tag k="addr:housenumber" v="11672"/><tag k="coa:place_id" v="471704"/></node><node id="-29" lat="30.413464" lon="-97.752957" changeset="false"><tag k="addr:street" v="Taylor Draper Lane"/><tag k="addr:housenumber" v="11305"/><tag k="coa:place_id" v="229513"/></node><node id="-30" lat="30.411061" lon="-97.748082" changeset="false"><tag k="addr:street" v="Jollyville Road"/><tag k="addr:housenumber" v="11316"/><tag k="coa:place_id" v="176914"/></node><node id="-31" lat="30.415091" lon="-97.748126" changeset="false"><tag k="addr:street" v="Jollyville Road"/><tag k="addr:housenumber" v="11556"/><tag k="coa:place_id" v="471530"/></node><node id="-32" lat="30.415185" lon="-97.75485" changeset="false"><tag k="addr:street" v="Ladera Vista Drive"/><tag k="addr:housenumber" v="11305"/><tag k="coa:place_id" v="3087112"/></node></osm>