<?xml version="1.0" encoding="UTF-8"?><osm version="0.6" generator="github.com/aaronlidman/osm-and-geojson"><node id="-1" lat="30.358378" lon="-98.027909" changeset="false"><tag k="addr:street" v="Crosswind Drive"/><tag k="addr:housenumber" v="3411"/><tag k="coa:place_id" v="3388574"/></node><node id="-2" lat="30.34847" lon="-97.99645" changeset="false"><tag k="addr:street" v="Serene Hills Drive"/><tag k="addr:housenumber" v="3301"/><tag k="coa:place_id" v="3307670"/></node><node id="-3" lat="30.406811" lon="-98.059295" changeset="false"><tag k="addr:street" v="Pace Bend Road North,1100"/><tag k="addr:housenumber" v="801"/><tag k="coa:place_id" v="1148741"/></node><node id="-4" lat="30.344036" lon="-98.045778" changeset="false"><tag k="addr:street" v="Hidden Creek Lane"/><tag k="addr:housenumber" v="5101"/><tag k="coa:place_id" v="1148334"/></node><node id="-5" lat="30.385235" lon="-98.085136" changeset="false"><tag k="addr:street" v="Pace Bend Road North,1100"/><tag k="addr:housenumber" v="3611"/><tag k="coa:place_id" v="3307671"/></node><node id="-6" lat="30.386518" lon="-98.085416" changeset="false"><tag k="addr:street" v="Pace Bend Road North,1100"/><tag k="addr:housenumber" v="3612"/><tag k="coa:place_id" v="3200213"/></node></osm>