<?xml version="1.0" encoding="UTF-8"?><osm version="0.6" generator="github.com/aaronlidman/osm-and-geojson"><node id="-1" lat="30.378683" lon="-97.660007" changeset="false"><tag k="addr:street" v="Rotherham Drive"/><tag k="addr:housenumber" v="11805"/></node><node id="-2" lat="30.388645" lon="-97.658249" changeset="false"><tag k="addr:street" v="Abbey Glen Lane"/><tag k="addr:housenumber" v="12229"/></node><node id="-3" lat="30.388563" lon="-97.658027" changeset="false"><tag k="addr:street" v="Chelsea Glen Place"/><tag k="addr:housenumber" v="12234"/></node><node id="-4" lat="30.389594" lon="-97.65714" changeset="false"><tag k="addr:street" v="Abbey Glen Lane"/><tag k="addr:housenumber" v="12297 1/2"/></node><node id="-5" lat="30.388901" lon="-97.657538" changeset="false"><tag k="addr:street" v="Chelsea Glen Place"/><tag k="addr:housenumber" v="12261"/></node><node id="-6" lat="30.388865" lon="-97.658477" changeset="false"><tag k="addr:street" v="Abbey Glen Lane"/><tag k="addr:housenumber" v="12228"/></node><node id="-7" lat="30.388021" lon="-97.658625" changeset="false"><tag k="addr:street" v="Abbey Glen Lane"/><tag k="addr:housenumber" v="12182"/></node><node id="-8" lat="30.389374" lon="-97.657291" changeset="false"><tag k="addr:street" v="Abbey Glen Lane"/><tag k="addr:housenumber" v="12283"/></node><node id="-9" lat="30.38839" lon="-97.657888" changeset="false"><tag k="addr:street" v="Chelsea Glen Place"/><tag k="addr:housenumber" v="12225"/></node><node id="-10" lat="30.387701" lon="-97.658723" changeset="false"><tag k="addr:street" v="Abbey Glen Lane"/><tag k="addr:housenumber" v="12166"/></node><node id="-11" lat="30.389072" lon="-97.658058" changeset="false"><tag k="addr:street" v="Abbey Glen Lane"/><tag k="addr:housenumber" v="12249"/></node><node id="-12" lat="30.386932" lon="-97.659892" changeset="false"><tag k="addr:street" v="Peggotty Place"/><tag k="addr:housenumber" v="1116"/></node><node id="-13" lat="30.387743" lon="-97.658726" changeset="false"><tag k="addr:street" v="Abbey Glen Lane"/><tag k="addr:housenumber" v="12168"/></node><node id="-14" lat="30.388734" lon="-97.65845" changeset="false"><tag k="addr:street" v="Abbey Glen Lane"/><tag k="addr:housenumber" v="12224"/></node><node id="-15" lat="30.38831" lon="-97.658345" changeset="false"><tag k="addr:street" v="Abbey Glen Lane"/><tag k="addr:housenumber" v="12205"/></node><node id="-16" lat="30.382631" lon="-97.663773" changeset="false"><tag k="addr:street" v="Byers Lane"/><tag k="addr:housenumber" v="1107"/></node><node id="-17" lat="30.382436" lon="-97.661259" changeset="false"><tag k="addr:street" v="Shropshire Boulevard"/><tag k="addr:housenumber" v="11934"/></node><node id="-18" lat="30.377503" lon="-97.659302" changeset="false"><tag k="addr:street" v="Shropshire Boulevard"/><tag k="addr:housenumber" v="11804"/></node><node id="-19" lat="30.385496" lon="-97.661759" changeset="false"><tag k="addr:street" v="Thompkins Drive"/><tag k="addr:housenumber" v="12028"/></node><node id="-20" lat="30.387829" lon="-97.658469" changeset="false"><tag k="addr:street" v="Abbey Glen Lane"/><tag k="addr:housenumber" v="12175"/></node><node id="-21" lat="30.383015" lon="-97.660811" changeset="false"><tag k="addr:street" v="Shropshire Boulevard"/><tag k="addr:housenumber" v="12004"/></node><node id="-22" lat="30.389371" lon="-97.65809" changeset="false"><tag k="addr:street" v="Abbey Glen Lane"/><tag k="addr:housenumber" v="12260"/></node><node id="-23" lat="30.388428" lon="-97.657862" changeset="false"><tag k="addr:street" v="Chelsea Glen Place"/><tag k="addr:housenumber" v="12229"/></node><node id="-24" lat="30.388103" lon="-97.658074" changeset="false"><tag k="addr:street" v="Chelsea Glen Place"/><tag k="addr:housenumber" v="12205"/></node><node id="-25" lat="30.387883" lon="-97.658468" changeset="false"><tag k="addr:street" v="Abbey Glen Lane"/><tag k="addr:housenumber" v="12177"/></node><node id="-26" lat="30.387871" lon="-97.658248" changeset="false"><tag k="addr:street" v="Chelsea Glen Place"/><tag k="addr:housenumber" v="12189"/></node><node id="-27" lat="30.387848" lon="-97.658175" changeset="false"><tag k="addr:street" v="Chelsea Glen Place"/><tag k="addr:housenumber" v="12193"/></node><node id="-28" lat="30.388492" lon="-97.657826" changeset="false"><tag k="addr:street" v="Chelsea Glen Place"/><tag k="addr:housenumber" v="12233"/></node><node id="-29" lat="30.38913" lon="-97.658034" changeset="false"><tag k="addr:street" v="Abbey Glen Lane"/><tag k="addr:housenumber" v="12253"/></node><node id="-30" lat="30.389035" lon="-97.658333" changeset="false"><tag k="addr:street" v="Abbey Glen Lane"/><tag k="addr:housenumber" v="12238"/></node><node id="-31" lat="30.388354" lon="-97.658537" changeset="false"><tag k="addr:street" v="Abbey Glen Lane"/><tag k="addr:housenumber" v="12200"/></node><node id="-32" lat="30.390564" lon="-97.659039" changeset="false"><tag k="addr:street" v="Thompkins Drive"/><tag k="addr:housenumber" v="12215"/></node><node id="-33" lat="30.385349" lon="-97.661311" changeset="false"><tag k="addr:street" v="Silverton Court"/><tag k="addr:housenumber" v="1100"/></node><node id="-34" lat="30.387321" lon="-97.658788" changeset="false"><tag k="addr:street" v="Abbey Glen Lane"/><tag k="addr:housenumber" v="12148"/></node><node id="-35" lat="30.387279" lon="-97.658596" changeset="false"><tag k="addr:street" v="Abbey Glen Lane"/><tag k="addr:housenumber" v="12145"/></node><node id="-36" lat="30.389533" lon="-97.657953" changeset="false"><tag k="addr:street" v="Abbey Glen Lane"/><tag k="addr:housenumber" v="12272"/></node><node id="-37" lat="30.389095" lon="-97.658296" changeset="false"><tag k="addr:street" v="Abbey Glen Lane"/><tag k="addr:housenumber" v="12242"/></node><node id="-38" lat="30.388344" lon="-97.657914" changeset="false"><tag k="addr:street" v="Chelsea Glen Place"/><tag k="addr:housenumber" v="12221"/></node><node id="-39" lat="30.388213" lon="-97.658562" changeset="false"><tag k="addr:street" v="Abbey Glen Lane"/><tag k="addr:housenumber" v="12194"/></node><node id="-40" lat="30.387253" lon="-97.658812" changeset="false"><tag k="addr:street" v="Abbey Glen Lane"/><tag k="addr:housenumber" v="12144"/></node><node id="-41" lat="30.388731" lon="-97.658227" changeset="false"><tag k="addr:street" v="Abbey Glen Lane"/><tag k="addr:housenumber" v="12233"/></node><node id="-42" lat="30.389545" lon="-97.657167" changeset="false"><tag k="addr:street" v="Abbey Glen Lane"/><tag k="addr:housenumber" v="12295"/></node><node id="-43" lat="30.378046" lon="-97.661499" changeset="false"><tag k="addr:street" v="Deupree Drive"/><tag k="addr:housenumber" v="1404"/></node><node id="-44" lat="30.388596" lon="-97.658266" changeset="false"><tag k="addr:street" v="Abbey Glen Lane"/><tag k="addr:housenumber" v="12225"/></node><node id="-45" lat="30.385656" lon="-97.659938" changeset="false"><tag k="addr:street" v="Silverton Court"/><tag k="addr:housenumber" v="1208"/></node><node id="-46" lat="30.387726" lon="-97.658483" changeset="false"><tag k="addr:street" v="Abbey Glen Lane"/><tag k="addr:housenumber" v="12173"/></node><node id="-47" lat="30.387639" lon="-97.658491" changeset="false"><tag k="addr:street" v="Abbey Glen Lane"/><tag k="addr:housenumber" v="12169"/></node><node id="-48" lat="30.38759" lon="-97.658726" changeset="false"><tag k="addr:street" v="Abbey Glen Lane"/><tag k="addr:housenumber" v="12164"/></node><node id="-49" lat="30.387412" lon="-97.65878" changeset="false"><tag k="addr:street" v="Abbey Glen Lane"/><tag k="addr:housenumber" v="12152"/></node><node id="-50" lat="30.377256" lon="-97.661491" changeset="false"><tag k="addr:street" v="Rotherham Drive"/><tag k="addr:housenumber" v="11708"/></node><node id="-51" lat="30.377193" lon="-97.66097" changeset="false"><tag k="addr:street" v="Rotherham Drive"/><tag k="addr:housenumber" v="11705"/></node><node id="-52" lat="30.378774" lon="-97.661873" changeset="false"><tag k="addr:street" v="Deupree Drive"/><tag k="addr:housenumber" v="1314"/></node><node id="-53" lat="30.388551" lon="-97.65848" changeset="false"><tag k="addr:street" v="Abbey Glen Lane"/><tag k="addr:housenumber" v="12212"/></node><node id="-54" lat="30.3888" lon="-97.65761" changeset="false"><tag k="addr:street" v="Chelsea Glen Place"/><tag k="addr:housenumber" v="12253"/></node><node id="-55" lat="30.387881" lon="-97.658297" changeset="false"><tag k="addr:street" v="Chelsea Glen Place"/><tag k="addr:housenumber" v="12185"/></node><node id="-56" lat="30.388867" lon="-97.657564" changeset="false"><tag k="addr:street" v="Chelsea Glen Place"/><tag k="addr:housenumber" v="12257"/></node><node id="-57" lat="30.377546" lon="-97.662454" changeset="false"><tag k="addr:street" v="Theodora Cove"/><tag k="addr:housenumber" v="1400"/></node><node id="-58" lat="30.378545" lon="-97.662744" changeset="false"><tag k="addr:street" v="Althea Court"/><tag k="addr:housenumber" v="1302"/></node><node id="-59" lat="30.378511" lon="-97.662464" changeset="false"><tag k="addr:street" v="Althea Court"/><tag k="addr:housenumber" v="1304"/></node><node id="-60" lat="30.380553" lon="-97.66359" changeset="false"><tag k="addr:street" v="Byers Cove"/><tag k="addr:housenumber" v="11804"/></node><node id="-61" lat="30.378077" lon="-97.660499" changeset="false"><tag k="addr:street" v="Rotherham Drive"/><tag k="addr:housenumber" v="11719"/></node><node id="-62" lat="30.379093" lon="-97.660768" changeset="false"><tag k="addr:street" v="Shropshire Boulevard"/><tag k="addr:housenumber" v="11826"/></node><node id="-63" lat="30.378616" lon="-97.661795" changeset="false"><tag k="addr:street" v="Deupree Drive"/><tag k="addr:housenumber" v="1316"/></node><node id="-64" lat="30.388626" lon="-97.657714" changeset="false"><tag k="addr:street" v="Chelsea Glen Place"/><tag k="addr:housenumber" v="12241"/></node><node id="-65" lat="30.388052" lon="-97.658105" changeset="false"><tag k="addr:street" v="Chelsea Glen Place"/><tag k="addr:housenumber" v="12201"/></node><node id="-66" lat="30.387953" lon="-97.658643" changeset="false"><tag k="addr:street" v="Abbey Glen Lane"/><tag k="addr:housenumber" v="12178"/></node><node id="-67" lat="30.38525" lon="-97.660893" changeset="false"><tag k="addr:street" v="Silverton Court"/><tag k="addr:housenumber" v="1106"/></node><node id="-68" lat="30.388394" lon="-97.658527" changeset="false"><tag k="addr:street" v="Abbey Glen Lane"/><tag k="addr:housenumber" v="12204"/></node><node id="-69" lat="30.389316" lon="-97.657339" changeset="false"><tag k="addr:street" v="Abbey Glen Lane"/><tag k="addr:housenumber" v="12279"/></node><node id="-70" lat="30.388955" lon="-97.658104" changeset="false"><tag k="addr:street" v="Abbey Glen Lane"/><tag k="addr:housenumber" v="12241"/></node><node id="-71" lat="30.387595" lon="-97.658512" changeset="false"><tag k="addr:street" v="Abbey Glen Lane"/><tag k="addr:housenumber" v="12165"/></node><node id="-72" lat="30.387899" lon="-97.658361" changeset="false"><tag k="addr:street" v="Chelsea Glen Place"/><tag k="addr:housenumber" v="12181"/></node><node id="-73" lat="30.388619" lon="-97.65847" changeset="false"><tag k="addr:street" v="Abbey Glen Lane"/><tag k="addr:housenumber" v="12216"/></node><node id="-74" lat="30.388669" lon="-97.657693" changeset="false"><tag k="addr:street" v="Chelsea Glen Place"/><tag k="addr:housenumber" v="12245"/></node><node id="-75" lat="30.387478" lon="-97.658762" changeset="false"><tag k="addr:street" v="Abbey Glen Lane"/><tag k="addr:housenumber" v="12156"/></node><node id="-76" lat="30.379067" lon="-97.661405" changeset="false"><tag k="addr:street" v="Byers Lane"/><tag k="addr:housenumber" v="1403"/></node><node id="-77" lat="30.388141" lon="-97.658043" changeset="false"><tag k="addr:street" v="Chelsea Glen Place"/><tag k="addr:housenumber" v="12209"/></node><node id="-78" lat="30.388462" lon="-97.658501" changeset="false"><tag k="addr:street" v="Abbey Glen Lane"/><tag k="addr:housenumber" v="12208"/></node><node id="-79" lat="30.377773" lon="-97.661371" changeset="false"><tag k="addr:street" v="Deupree Drive"/><tag k="addr:housenumber" v="1408"/></node><node id="-80" lat="30.387389" lon="-97.658561" changeset="false"><tag k="addr:street" v="Abbey Glen Lane"/><tag k="addr:housenumber" v="12153"/></node><node id="-81" lat="30.388812" lon="-97.658488" changeset="false"><tag k="addr:street" v="Abbey Glen Lane"/><tag k="addr:housenumber" v="12226"/></node><node id="-82" lat="30.388112" lon="-97.658388" changeset="false"><tag k="addr:street" v="Chelsea Glen Place"/><tag k="addr:housenumber" v="12180"/></node><node id="-83" lat="30.385383" lon="-97.66039" changeset="false"><tag k="addr:street" v="Silverton Court"/><tag k="addr:housenumber" v="1204"/></node><node id="-84" lat="30.378384" lon="-97.662961" changeset="false"><tag k="addr:street" v="Althea Court"/><tag k="addr:housenumber" v="1300"/></node><node id="-85" lat="30.382098" lon="-97.663671" changeset="false"><tag k="addr:street" v="Byers Lane"/><tag k="addr:housenumber" v="1115"/></node><node id="-86" lat="30.389278" lon="-97.657359" changeset="false"><tag k="addr:street" v="Abbey Glen Lane"/><tag k="addr:housenumber" v="12275"/></node><node id="-87" lat="30.38903" lon="-97.658081" changeset="false"><tag k="addr:street" v="Abbey Glen Lane"/><tag k="addr:housenumber" v="12245"/></node><node id="-88" lat="30.378567" lon="-97.662228" changeset="false"><tag k="addr:street" v="Althea Court"/><tag k="addr:housenumber" v="1306"/></node><node id="-89" lat="30.378351" lon="-97.66165" changeset="false"><tag k="addr:street" v="Deupree Drive"/><tag k="addr:housenumber" v="1400"/></node><node id="-90" lat="30.378184" lon="-97.661549" changeset="false"><tag k="addr:street" v="Deupree Drive"/><tag k="addr:housenumber" v="1402"/></node><node id="-91" lat="30.388663" lon="-97.65846" changeset="false"><tag k="addr:street" v="Abbey Glen Lane"/><tag k="addr:housenumber" v="12220"/></node><node id="-92" lat="30.388169" lon="-97.658572" changeset="false"><tag k="addr:street" v="Abbey Glen Lane"/><tag k="addr:housenumber" v="12190"/></node><node id="-93" lat="30.388352" lon="-97.658322" changeset="false"><tag k="addr:street" v="Abbey Glen Lane"/><tag k="addr:housenumber" v="12209"/></node><node id="-94" lat="30.387909" lon="-97.65865" changeset="false"><tag k="addr:street" v="Abbey Glen Lane"/><tag k="addr:housenumber" v="12174"/></node><node id="-95" lat="30.387208" lon="-97.658813" changeset="false"><tag k="addr:street" v="Abbey Glen Lane"/><tag k="addr:housenumber" v="12140"/></node><node id="-96" lat="30.387515" lon="-97.658747" changeset="false"><tag k="addr:street" v="Abbey Glen Lane"/><tag k="addr:housenumber" v="12160"/></node><node id="-97" lat="30.389464" lon="-97.65802" changeset="false"><tag k="addr:street" v="Abbey Glen Lane"/><tag k="addr:housenumber" v="12268"/></node><node id="-98" lat="30.389515" lon="-97.657206" changeset="false"><tag k="addr:street" v="Abbey Glen Lane"/><tag k="addr:housenumber" v="12291"/></node><node id="-99" lat="30.388205" lon="-97.658012" changeset="false"><tag k="addr:street" v="Chelsea Glen Place"/><tag k="addr:housenumber" v="12213"/></node><node id="-100" lat="30.3853" lon="-97.661164" changeset="false"><tag k="addr:street" v="Silverton Court"/><tag k="addr:housenumber" v="1102"/></node><node id="-101" lat="30.387532" lon="-97.658527" changeset="false"><tag k="addr:street" v="Abbey Glen Lane"/><tag k="addr:housenumber" v="12161"/></node><node id="-102" lat="30.387836" lon="-97.658662" changeset="false"><tag k="addr:street" v="Abbey Glen Lane"/><tag k="addr:housenumber" v="12170"/></node><node id="-103" lat="30.377053" lon="-97.661535" changeset="false"><tag k="addr:street" v="Rotherham Drive"/><tag k="addr:housenumber" v="11706"/></node><node id="-104" lat="30.388506" lon="-97.658051" changeset="false"><tag k="addr:street" v="Chelsea Glen Place"/><tag k="addr:housenumber" v="12230"/></node><node id="-105" lat="30.388418" lon="-97.659546" changeset="false"><tag k="addr:street" v="Thompkins Drive"/><tag k="addr:housenumber" v="12135"/></node><node id="-106" lat="30.388993" lon="-97.658351" changeset="false"><tag k="addr:street" v="Abbey Glen Lane"/><tag k="addr:housenumber" v="12234"/></node><node id="-107" lat="30.383881" lon="-97.663563" changeset="false"><tag k="addr:street" v="Byers Lane"/><tag k="addr:housenumber" v="1001"/></node><node id="-108" lat="30.387321" lon="-97.658582" changeset="false"><tag k="addr:street" v="Abbey Glen Lane"/><tag k="addr:housenumber" v="12149"/></node><node id="-109" lat="30.387209" lon="-97.658606" changeset="false"><tag k="addr:street" v="Abbey Glen Lane"/><tag k="addr:housenumber" v="12141"/></node><node id="-110" lat="30.388534" lon="-97.658271" changeset="false"><tag k="addr:street" v="Abbey Glen Lane"/><tag k="addr:housenumber" v="12221"/></node><node id="-111" lat="30.38347" lon="-97.66393" changeset="false"><tag k="addr:street" v="Byers Lane"/><tag k="addr:housenumber" v="1007"/></node><node id="-112" lat="30.389432" lon="-97.658053" changeset="false"><tag k="addr:street" v="Abbey Glen Lane"/><tag k="addr:housenumber" v="12264"/></node><node id="-113" lat="30.389455" lon="-97.657246" changeset="false"><tag k="addr:street" v="Abbey Glen Lane"/><tag k="addr:housenumber" v="12287"/></node><node id="-114" lat="30.388103" lon="-97.65859" changeset="false"><tag k="addr:street" v="Abbey Glen Lane"/><tag k="addr:housenumber" v="12186"/></node><node id="-115" lat="30.389297" lon="-97.657802" changeset="false"><tag k="addr:street" v="Abbey Glen Lane"/><tag k="addr:housenumber" v="12261"/></node><node id="-116" lat="30.389213" lon="-97.65763" changeset="false"><tag k="addr:street" v="Abbey Glen Lane"/><tag k="addr:housenumber" v="12269"/></node><node id="-117" lat="30.38933" lon="-97.657878" changeset="false"><tag k="addr:street" v="Abbey Glen Lane"/><tag k="addr:housenumber" v="12259"/></node><node id="-118" lat="30.38925" lon="-97.657935" changeset="false"><tag k="addr:street" v="Abbey Glen Lane"/><tag k="addr:housenumber" v="12257"/></node><node id="-119" lat="30.389246" lon="-97.657724" changeset="false"><tag k="addr:street" v="Abbey Glen Lane"/><tag k="addr:housenumber" v="12265"/></node><node id="-120" lat="30.38896" lon="-97.657482" changeset="false"><tag k="addr:street" v="Chelsea Glen Place"/><tag k="addr:housenumber" v="12265"/></node><node id="-121" lat="30.388737" lon="-97.657661" changeset="false"><tag k="addr:street" v="Chelsea Glen Place"/><tag k="addr:housenumber" v="12249"/></node><node id="-122" lat="30.388868" lon="-97.657854" changeset="false"><tag k="addr:street" v="East Yager Lane"/><tag k="addr:housenumber" v="1215"/></node><node id="-123" lat="30.38883" lon="-97.65783" changeset="false"><tag k="addr:street" v="Chelsea Glen Place"/><tag k="addr:housenumber" v="12243"/></node><node id="-124" lat="30.388225" lon="-97.658345" changeset="false"><tag k="addr:street" v="Abbey Glen Lane"/><tag k="addr:housenumber" v="12201"/></node><node id="-125" lat="30.388415" lon="-97.658312" changeset="false"><tag k="addr:street" v="Abbey Glen Lane"/><tag k="addr:housenumber" v="12213"/></node><node id="-126" lat="30.389282" lon="-97.658201" changeset="false"><tag k="addr:street" v="Abbey Glen Lane"/><tag k="addr:housenumber" v="12254"/></node><node id="-127" lat="30.389223" lon="-97.658227" changeset="false"><tag k="addr:street" v="Abbey Glen Lane"/><tag k="addr:housenumber" v="12250"/></node><node id="-128" lat="30.389163" lon="-97.658262" changeset="false"><tag k="addr:street" v="Abbey Glen Lane"/><tag k="addr:housenumber" v="12246"/></node><node id="-129" lat="30.38893" lon="-97.658371" changeset="false"><tag k="addr:street" v="Abbey Glen Lane"/><tag k="addr:housenumber" v="12230"/></node><node id="-130" lat="30.382369" lon="-97.663722" changeset="false"><tag k="addr:street" v="Byers Lane"/><tag k="addr:housenumber" v="1111"/></node><node id="-131" lat="30.382501" lon="-97.66375" changeset="false"><tag k="addr:street" v="Byers Lane"/><tag k="addr:housenumber" v="1109"/></node></osm>