<?xml version="1.0" encoding="UTF-8"?><osm version="0.6" generator="github.com/aaronlidman/osm-and-geojson"><node id="-1" lat="30.255303" lon="-97.739075" changeset="false"><tag k="addr:street" v="East Avenue"/><tag k="addr:housenumber" v="30"/><tag k="addr:postcode" v="78701"/></node><node id="-2" lat="30.261291" lon="-97.739047" changeset="false"><tag k="addr:street" v="Red River Street"/><tag k="addr:housenumber" v="96 1/2"/><tag k="addr:postcode" v="78701"/></node><node id="-3" lat="30.257538" lon="-97.738916" changeset="false"><tag k="addr:street" v="Rainey Street"/><tag k="addr:housenumber" v="59"/><tag k="addr:postcode" v="78701"/></node><node id="-4" lat="30.260371" lon="-97.738489" changeset="false"><tag k="addr:street" v="Rainey Street"/><tag k="addr:housenumber" v="90"/><tag k="addr:postcode" v="78701"/></node><node id="-5" lat="30.258393" lon="-97.739041" changeset="false"><tag k="addr:street" v="Rainey Street"/><tag k="addr:housenumber" v="70"/><tag k="addr:postcode" v="78701"/></node><node id="-6" lat="30.262401" lon="-97.74127" changeset="false"><tag k="addr:street" v="East Cesar Chavez Street"/><tag k="addr:housenumber" v="327"/><tag k="addr:postcode" v="78701"/></node><node id="-7" lat="30.261584" lon="-97.739205" changeset="false"><tag k="addr:street" v="Red River Street"/><tag k="addr:housenumber" v="98"/><tag k="addr:postcode" v="78701"/></node><node id="-8" lat="30.255628" lon="-97.739885" changeset="false"><tag k="addr:street" v="Cummings Street"/><tag k="addr:housenumber" v="701"/><tag k="addr:postcode" v="78701"/></node><node id="-9" lat="30.25787" lon="-97.738302" changeset="false"><tag k="addr:street" v="East Avenue"/><tag k="addr:housenumber" v="60"/><tag k="addr:postcode" v="78701"/></node><node id="-10" lat="30.26136" lon="-97.738296" changeset="false"><tag k="addr:street" v="Driskill Street"/><tag k="addr:housenumber" v="604"/><tag k="addr:postcode" v="78701"/></node><node id="-11" lat="30.258047" lon="-97.738237" changeset="false"><tag k="addr:street" v="East Avenue"/><tag k="addr:housenumber" v="62"/><tag k="addr:postcode" v="78701"/></node><node id="-12" lat="30.261264" lon="-97.741465" changeset="false"><tag k="addr:street" v="Trinity Street"/><tag k="addr:housenumber" v="74"/><tag k="addr:postcode" v="78701"/></node><node id="-13" lat="30.259642" lon="-97.739546" changeset="false"><tag k="addr:street" v="Davis Street"/><tag k="addr:housenumber" v="603 1/2"/><tag k="addr:postcode" v="78701"/></node><node id="-14" lat="30.258218" lon="-97.739836" changeset="false"><tag k="addr:street" v="Red River Street"/><tag k="addr:housenumber" v="600"/><tag k="addr:postcode" v="78701"/></node><node id="-15" lat="30.261026" lon="-97.739965" changeset="false"><tag k="addr:street" v="Willow Street"/><tag k="addr:housenumber" v="507"/><tag k="addr:postcode" v="78701"/></node><node id="-16" lat="30.262532" lon="-97.741913" changeset="false"><tag k="addr:street" v="East Cesar Chavez Street"/><tag k="addr:housenumber" v="305"/><tag k="addr:postcode" v="78701"/></node><node id="-17" lat="30.252948" lon="-97.736976" changeset="false"><tag k="addr:street" v="North Interstate Highway 35 Service Road"/><tag k="addr:housenumber" v="16"/><tag k="addr:postcode" v="78701"/></node><node id="-18" lat="30.261157" lon="-97.737037" changeset="false"><tag k="addr:street" v="East Cesar Chavez Street"/><tag k="addr:housenumber" v="707"/><tag k="addr:postcode" v="78701"/></node><node id="-19" lat="30.261718" lon="-97.739026" changeset="false"><tag k="addr:street" v="Red River Street"/><tag k="addr:housenumber" v="100"/><tag k="addr:postcode" v="78701"/></node><node id="-20" lat="30.258637" lon="-97.738019" changeset="false"><tag k="addr:street" v="North Interstate Highway 35 Service Road"/><tag k="addr:housenumber" v="74"/><tag k="addr:postcode" v="78701"/></node><node id="-21" lat="30.25954" lon="-97.737684" changeset="false"><tag k="addr:street" v="North Interstate Highway 35 Service Road"/><tag k="addr:housenumber" v="82"/><tag k="addr:postcode" v="78701"/></node><node id="-22" lat="30.255927" lon="-97.737834" changeset="false"><tag k="addr:street" v="Lambie Street"/><tag k="addr:housenumber" v="805"/><tag k="addr:postcode" v="78701"/></node><node id="-23" lat="30.261185" lon="-97.737669" changeset="false"><tag k="addr:street" v="East Cesar Chavez Street"/><tag k="addr:housenumber" v="705"/><tag k="addr:postcode" v="78701"/></node><node id="-24" lat="30.256223" lon="-97.737822" changeset="false"><tag k="addr:street" v="Lambie Street"/><tag k="addr:housenumber" v="801"/><tag k="addr:postcode" v="78701"/></node><node id="-25" lat="30.257793" lon="-97.739388" changeset="false"><tag k="addr:street" v="Rainey Street"/><tag k="addr:housenumber" v="58 1/2"/><tag k="addr:postcode" v="78701"/></node><node id="-26" lat="30.261256" lon="-97.737936" changeset="false"><tag k="addr:street" v="Driskill Street"/><tag k="addr:housenumber" v="612"/><tag k="addr:postcode" v="78701"/></node><node id="-27" lat="30.261295" lon="-97.738074" changeset="false"><tag k="addr:street" v="East Cesar Chavez Street"/><tag k="addr:housenumber" v="609"/><tag k="addr:postcode" v="78701"/></node><node id="-28" lat="30.254398" lon="-97.737116" changeset="false"><tag k="addr:street" v="North Interstate Highway 35 Service Road"/><tag k="addr:housenumber" v="30"/><tag k="addr:postcode" v="78701"/></node><node id="-29" lat="30.257638" lon="-97.739359" changeset="false"><tag k="addr:street" v="Rainey Street"/><tag k="addr:housenumber" v="56"/><tag k="addr:postcode" v="78701"/></node><node id="-30" lat="30.258711" lon="-97.739092" changeset="false"><tag k="addr:street" v="Rainey Street"/><tag k="addr:housenumber" v="72"/><tag k="addr:postcode" v="78701"/></node><node id="-31" lat="30.255606" lon="-97.74005" changeset="false"><tag k="addr:street" v="Rainey Street"/><tag k="addr:housenumber" v="38"/><tag k="addr:postcode" v="78701"/></node><node id="-32" lat="30.261449" lon="-97.738621" changeset="false"><tag k="addr:street" v="Red River Street"/><tag k="addr:housenumber" v="97"/><tag k="addr:postcode" v="78701"/></node><node id="-33" lat="30.258178" lon="-97.738188" changeset="false"><tag k="addr:street" v="East Avenue"/><tag k="addr:housenumber" v="64"/><tag k="addr:postcode" v="78701"/></node><node id="-34" lat="30.262384" lon="-97.741245" changeset="false"><tag k="addr:street" v="Trinity Street"/><tag k="addr:housenumber" v="94"/><tag k="addr:postcode" v="78701"/></node><node id="-35" lat="30.261739" lon="-97.739257" changeset="false"><tag k="addr:street" v="East Cesar Chavez Street"/><tag k="addr:housenumber" v="511"/><tag k="addr:postcode" v="78701"/></node><node id="-36" lat="30.258323" lon="-97.738134" changeset="false"><tag k="addr:street" v="East Avenue"/><tag k="addr:housenumber" v="68"/><tag k="addr:postcode" v="78701"/></node><node id="-37" lat="30.258929" lon="-97.737917" changeset="false"><tag k="addr:street" v="North Interstate Highway 35 Service Road"/><tag k="addr:housenumber" v="76"/><tag k="addr:postcode" v="78701"/></node><node id="-38" lat="30.259078" lon="-97.738348" changeset="false"><tag k="addr:street" v="Rainey Street"/><tag k="addr:housenumber" v="81"/><tag k="addr:postcode" v="78701"/></node><node id="-39" lat="30.262598" lon="-97.742218" changeset="false"><tag k="addr:street" v="East Cesar Chavez Street"/><tag k="addr:housenumber" v="223"/><tag k="addr:postcode" v="78701"/></node><node id="-40" lat="30.260005" lon="-97.739401" changeset="false"><tag k="addr:street" v="Davis Street"/><tag k="addr:housenumber" v="603"/><tag k="addr:postcode" v="78701"/></node><node id="-41" lat="30.25687" lon="-97.738087" changeset="false"><tag k="addr:street" v="Lambie Street"/><tag k="addr:housenumber" v="734"/><tag k="addr:postcode" v="78701"/></node><node id="-42" lat="30.25994" lon="-97.7386" changeset="false"><tag k="addr:street" v="Rainey Street"/><tag k="addr:housenumber" v="88 1/2"/><tag k="addr:postcode" v="78701"/></node><node id="-43" lat="30.254918" lon="-97.738019" changeset="false"><tag k="addr:street" v="North Interstate Highway 35 Service Road"/><tag k="addr:housenumber" v="40"/><tag k="addr:postcode" v="78701"/></node><node id="-44" lat="30.256126" lon="-97.737918" changeset="false"><tag k="addr:street" v="Lambie Street"/><tag k="addr:housenumber" v="803"/><tag k="addr:postcode" v="78701"/></node><node id="-45" lat="30.258461" lon="-97.738009" changeset="false"><tag k="addr:street" v="East Avenue"/><tag k="addr:housenumber" v="72"/><tag k="addr:postcode" v="78701"/></node><node id="-46" lat="30.258826" lon="-97.739066" changeset="false"><tag k="addr:street" v="Rainey Street"/><tag k="addr:housenumber" v="74"/><tag k="addr:postcode" v="78701"/></node><node id="-47" lat="30.260104" lon="-97.73921" changeset="false"><tag k="addr:street" v="Davis Street"/><tag k="addr:housenumber" v="605"/><tag k="addr:postcode" v="78701"/></node><node id="-48" lat="30.259412" lon="-97.73774" changeset="false"><tag k="addr:street" v="North Interstate Highway 35 Service Road"/><tag k="addr:housenumber" v="80"/><tag k="addr:postcode" v="78701"/></node><node id="-49" lat="30.254316" lon="-97.737269" changeset="false"><tag k="addr:street" v="North Interstate Highway 35 Service Road"/><tag k="addr:housenumber" v="30 1/2"/><tag k="addr:postcode" v="78701"/></node><node id="-50" lat="30.262491" lon="-97.741774" changeset="false"><tag k="addr:street" v="East Cesar Chavez Street"/><tag k="addr:housenumber" v="309"/><tag k="addr:postcode" v="78701"/></node><node id="-51" lat="30.252447" lon="-97.736663" changeset="false"><tag k="addr:street" v="North Interstate Highway 35 Service Road"/><tag k="addr:housenumber" v="10"/><tag k="addr:postcode" v="78701"/></node><node id="-52" lat="30.262322" lon="-97.742323" changeset="false"><tag k="addr:street" v="San Jacinto Boulevard"/><tag k="addr:housenumber" v="98"/><tag k="addr:postcode" v="78701"/></node><node id="-53" lat="30.260901" lon="-97.738442" changeset="false"><tag k="addr:street" v="Driskill Street"/><tag k="addr:housenumber" v="603"/><tag k="addr:postcode" v="78701"/></node><node id="-54" lat="30.261321" lon="-97.739795" changeset="false"><tag k="addr:street" v="Willow Street"/><tag k="addr:housenumber" v="502"/><tag k="addr:postcode" v="78701"/></node><node id="-55" lat="30.262555" lon="-97.74201" changeset="false"><tag k="addr:street" v="East Cesar Chavez Street"/><tag k="addr:housenumber" v="303"/><tag k="addr:postcode" v="78701"/></node><node id="-56" lat="30.261807" lon="-97.739719" changeset="false"><tag k="addr:street" v="East Cesar Chavez Street"/><tag k="addr:housenumber" v="503"/><tag k="addr:postcode" v="78701"/></node><node id="-57" lat="30.256828" lon="-97.738252" changeset="false"><tag k="addr:street" v="East Avenue"/><tag k="addr:housenumber" v="55"/><tag k="addr:postcode" v="78701"/></node><node id="-58" lat="30.261843" lon="-97.741106" changeset="false"><tag k="addr:street" v="Trinity Street"/><tag k="addr:housenumber" v="85"/><tag k="addr:postcode" v="78701"/></node><node id="-59" lat="30.257377" lon="-97.739436" changeset="false"><tag k="addr:street" v="Rainey Street"/><tag k="addr:housenumber" v="54"/><tag k="addr:postcode" v="78701"/></node><node id="-60" lat="30.257801" lon="-97.739409" changeset="false"><tag k="addr:street" v="Rainey Street"/><tag k="addr:housenumber" v="58"/><tag k="addr:postcode" v="78701"/></node><node id="-61" lat="30.258355" lon="-97.739182" changeset="false"><tag k="addr:street" v="Rainey Street"/><tag k="addr:housenumber" v="68"/><tag k="addr:postcode" v="78701"/></node><node id="-62" lat="30.263099" lon="-97.744053" changeset="false"><tag k="addr:street" v="East Cesar Chavez Street"/><tag k="addr:housenumber" v="111"/><tag k="addr:postcode" v="78701"/></node><node id="-63" lat="30.25762" lon="-97.738761" changeset="false"><tag k="addr:street" v="Red River Street"/><tag k="addr:housenumber" v="703"/><tag k="addr:postcode" v="78701"/></node><node id="-64" lat="30.261221" lon="-97.737805" changeset="false"><tag k="addr:street" v="East Cesar Chavez Street"/><tag k="addr:housenumber" v="701"/><tag k="addr:postcode" v="78701"/></node><node id="-65" lat="30.260655" lon="-97.738872" changeset="false"><tag k="addr:street" v="Red River Street"/><tag k="addr:housenumber" v="91 1/2"/><tag k="addr:postcode" v="78701"/></node><node id="-66" lat="30.260593" lon="-97.739149" changeset="false"><tag k="addr:street" v="Davis Street"/><tag k="addr:housenumber" v="600"/><tag k="addr:postcode" v="78701"/></node><node id="-67" lat="30.259855" lon="-97.738667" changeset="false"><tag k="addr:street" v="Rainey Street"/><tag k="addr:housenumber" v="88"/><tag k="addr:postcode" v="78701"/></node><node id="-68" lat="30.2604" lon="-97.739093" changeset="false"><tag k="addr:street" v="Davis Street"/><tag k="addr:housenumber" v="602"/><tag k="addr:postcode" v="78701"/></node><node id="-69" lat="30.258134" lon="-97.738085" changeset="false"><tag k="addr:street" v="East Avenue"/><tag k="addr:housenumber" v="66"/><tag k="addr:postcode" v="78701"/></node><node id="-70" lat="30.261364" lon="-97.739721" changeset="false"><tag k="addr:street" v="Willow Street"/><tag k="addr:housenumber" v="504"/><tag k="addr:postcode" v="78701"/></node><node id="-71" lat="30.262443" lon="-97.741617" changeset="false"><tag k="addr:street" v="East Cesar Chavez Street"/><tag k="addr:housenumber" v="315"/><tag k="addr:postcode" v="78701"/></node><node id="-72" lat="30.260395" lon="-97.737357" changeset="false"><tag k="addr:street" v="North Interstate Highway 35 Service Road"/><tag k="addr:housenumber" v="94"/><tag k="addr:postcode" v="78701"/></node><node id="-73" lat="30.260024" lon="-97.737506" changeset="false"><tag k="addr:street" v="North Interstate Highway 35 Service Road"/><tag k="addr:housenumber" v="90"/><tag k="addr:postcode" v="78701"/></node><node id="-74" lat="30.260557" lon="-97.737206" changeset="false"><tag k="addr:street" v="North Interstate Highway 35 Service Road"/><tag k="addr:housenumber" v="96"/><tag k="addr:postcode" v="78701"/></node><node id="-75" lat="30.260205" lon="-97.737929" changeset="false"><tag k="addr:street" v="Rainey Street"/><tag k="addr:housenumber" v="91"/><tag k="addr:postcode" v="78701"/></node><node id="-76" lat="30.260791" lon="-97.73799" changeset="false"><tag k="addr:street" v="Rainey Street"/><tag k="addr:housenumber" v="97 1/2"/><tag k="addr:postcode" v="78701"/></node><node id="-77" lat="30.259903" lon="-97.737548" changeset="false"><tag k="addr:street" v="North Interstate Highway 35 Service Road"/><tag k="addr:housenumber" v="88"/><tag k="addr:postcode" v="78701"/></node><node id="-78" lat="30.260038" lon="-97.737988" changeset="false"><tag k="addr:street" v="Rainey Street"/><tag k="addr:housenumber" v="89 1/2"/><tag k="addr:postcode" v="78701"/></node><node id="-79" lat="30.260375" lon="-97.737865" changeset="false"><tag k="addr:street" v="Rainey Street"/><tag k="addr:housenumber" v="93"/><tag k="addr:postcode" v="78701"/></node><node id="-80" lat="30.260667" lon="-97.737621" changeset="false"><tag k="addr:street" v="Driskill Street"/><tag k="addr:housenumber" v="705"/><tag k="addr:postcode" v="78701"/></node><node id="-81" lat="30.260256" lon="-97.73742" changeset="false"><tag k="addr:street" v="North Interstate Highway 35 Service Road"/><tag k="addr:housenumber" v="92"/><tag k="addr:postcode" v="78701"/></node><node id="-82" lat="30.260616" lon="-97.737437" changeset="false"><tag k="addr:street" v="Driskill Street"/><tag k="addr:housenumber" v="709"/><tag k="addr:postcode" v="78701"/></node><node id="-83" lat="30.260538" lon="-97.737805" changeset="false"><tag k="addr:street" v="Rainey Street"/><tag k="addr:housenumber" v="95"/><tag k="addr:postcode" v="78701"/></node><node id="-84" lat="30.260723" lon="-97.737813" changeset="false"><tag k="addr:street" v="Rainey Street"/><tag k="addr:housenumber" v="97"/><tag k="addr:postcode" v="78701"/></node><node id="-85" lat="30.25794" lon="-97.738771" changeset="false"><tag k="addr:street" v="Rainey Street"/><tag k="addr:housenumber" v="67"/><tag k="addr:postcode" v="78701"/></node><node id="-86" lat="30.257957" lon="-97.738927" changeset="false"><tag k="addr:street" v="Rainey Street"/><tag k="addr:housenumber" v="61"/><tag k="addr:postcode" v="78701"/></node><node id="-87" lat="30.2572" lon="-97.739048" changeset="false"><tag k="addr:street" v="Rainey Street"/><tag k="addr:housenumber" v="55"/><tag k="addr:postcode" v="78701"/></node><node id="-88" lat="30.257312" lon="-97.739011" changeset="false"><tag k="addr:street" v="Rainey Street"/><tag k="addr:housenumber" v="57"/><tag k="addr:postcode" v="78701"/></node><node id="-89" lat="30.257036" lon="-97.739099" changeset="false"><tag k="addr:street" v="Rainey Street"/><tag k="addr:housenumber" v="53"/><tag k="addr:postcode" v="78701"/></node><node id="-90" lat="30.256578" lon="-97.739859" changeset="false"><tag k="addr:street" v="Rainey Street"/><tag k="addr:housenumber" v="46"/><tag k="addr:postcode" v="78701"/></node><node id="-91" lat="30.256409" lon="-97.739919" changeset="false"><tag k="addr:street" v="Rainey Street"/><tag k="addr:housenumber" v="44"/><tag k="addr:postcode" v="78701"/></node><node id="-92" lat="30.256134" lon="-97.73942" changeset="false"><tag k="addr:street" v="Rainey Street"/><tag k="addr:housenumber" v="43 1/2"/><tag k="addr:postcode" v="78701"/></node><node id="-93" lat="30.256806" lon="-97.739174" changeset="false"><tag k="addr:street" v="Rainey Street"/><tag k="addr:housenumber" v="51"/><tag k="addr:postcode" v="78701"/></node><node id="-94" lat="30.256258" lon="-97.739375" changeset="false"><tag k="addr:street" v="Rainey Street"/><tag k="addr:housenumber" v="45"/><tag k="addr:postcode" v="78701"/></node><node id="-95" lat="30.256654" lon="-97.73923" changeset="false"><tag k="addr:street" v="Rainey Street"/><tag k="addr:housenumber" v="49"/><tag k="addr:postcode" v="78701"/></node><node id="-96" lat="30.256523" lon="-97.739279" changeset="false"><tag k="addr:street" v="Rainey Street"/><tag k="addr:housenumber" v="47"/><tag k="addr:postcode" v="78701"/></node><node id="-97" lat="30.257851" lon="-97.739984" changeset="false"><tag k="addr:street" v="Red River Street"/><tag k="addr:housenumber" v="507"/><tag k="addr:postcode" v="78701"/></node><node id="-98" lat="30.258282" lon="-97.740052" changeset="false"><tag k="addr:street" v="Red River Street"/><tag k="addr:housenumber" v="500"/><tag k="addr:postcode" v="78701"/></node><node id="-99" lat="30.25827" lon="-97.739987" changeset="false"><tag k="addr:street" v="Red River Street"/><tag k="addr:housenumber" v="500 1/2"/><tag k="addr:postcode" v="78701"/></node></osm>