<?xml version="1.0" encoding="UTF-8"?><osm version="0.6" generator="github.com/aaronlidman/osm-and-geojson"><node id="-1" lat="30.259725" lon="-97.737595" changeset="false"><tag k="addr:street" v="North Interstate Highway 35 Service Road"/><tag k="addr:housenumber" v="84"/><tag k="coa:place_id" v="1142679"/></node><node id="-2" lat="30.259662" lon="-97.738133" changeset="false"><tag k="addr:street" v="Rainey Street"/><tag k="addr:housenumber" v="87"/><tag k="coa:place_id" v="1142591"/></node><node id="-3" lat="30.259183" lon="-97.737816" changeset="false"><tag k="addr:street" v="North Interstate Highway 35 Service Road"/><tag k="addr:housenumber" v="78"/><tag k="coa:place_id" v="3033341"/></node><node id="-4" lat="30.260065" lon="-97.738593" changeset="false"><tag k="addr:street" v="Davis Street"/><tag k="addr:housenumber" v="609"/><tag k="coa:place_id" v="92504"/></node><node id="-5" lat="30.260902" lon="-97.738801" changeset="false"><tag k="addr:street" v="Red River Street"/><tag k="addr:housenumber" v="93"/><tag k="coa:place_id" v="93278"/></node><node id="-6" lat="30.260847" lon="-97.738251" changeset="false"><tag k="addr:street" v="Rainey Street"/><tag k="addr:housenumber" v="96"/><tag k="coa:place_id" v="92510"/></node><node id="-7" lat="30.258764" lon="-97.738465" changeset="false"><tag k="addr:street" v="Rainey Street"/><tag k="addr:housenumber" v="77"/><tag k="coa:place_id" v="93176"/></node><node id="-8" lat="30.258592" lon="-97.738505" changeset="false"><tag k="addr:street" v="Rainey Street"/><tag k="addr:housenumber" v="75 1/2"/><tag k="coa:place_id" v="249547"/></node><node id="-9" lat="30.25892" lon="-97.738407" changeset="false"><tag k="addr:street" v="Rainey Street"/><tag k="addr:housenumber" v="79"/><tag k="coa:place_id" v="93182"/></node><node id="-10" lat="30.259184" lon="-97.738304" changeset="false"><tag k="addr:street" v="Rainey Street"/><tag k="addr:housenumber" v="81 1/2"/><tag k="coa:place_id" v="93194"/></node><node id="-11" lat="30.259534" lon="-97.73818" changeset="false"><tag k="addr:street" v="Rainey Street"/><tag k="addr:housenumber" v="85"/><tag k="coa:place_id" v="93206"/></node><node id="-12" lat="30.258292" lon="-97.73864" changeset="false"><tag k="addr:street" v="Rainey Street"/><tag k="addr:housenumber" v="73"/><tag k="coa:place_id" v="93152"/></node><node id="-13" lat="30.258153" lon="-97.738699" changeset="false"><tag k="addr:street" v="Rainey Street"/><tag k="addr:housenumber" v="71"/><tag k="coa:place_id" v="93146"/></node><node id="-14" lat="30.258047" lon="-97.738764" changeset="false"><tag k="addr:street" v="Rainey Street"/><tag k="addr:housenumber" v="69"/><tag k="coa:place_id" v="93140"/></node><node id="-15" lat="30.260853" lon="-97.739748" changeset="false"><tag k="addr:street" v="Willow Street"/><tag k="addr:housenumber" v="505"/><tag k="coa:place_id" v="92498"/></node><node id="-16" lat="30.262443" lon="-97.741617" changeset="false"><tag k="addr:street" v="East Cesar Chavez Street"/><tag k="addr:housenumber" v="315"/><tag k="coa:place_id" v="3428135"/></node><node id="-17" lat="30.260792" lon="-97.739444" changeset="false"><tag k="addr:street" v="Red River Street"/><tag k="addr:housenumber" v="94"/><tag k="coa:place_id" v="249655"/></node><node id="-18" lat="30.262839" lon="-97.743981" changeset="false"><tag k="addr:street" v="East Cesar Chavez Street"/><tag k="addr:housenumber" v="101"/><tag k="coa:place_id" v="3053441"/></node><node id="-19" lat="30.260617" lon="-97.739644" changeset="false"><tag k="addr:street" v="Red River Street"/><tag k="addr:housenumber" v="92"/><tag k="coa:place_id" v="879326"/></node><node id="-20" lat="30.2605" lon="-97.738956" changeset="false"><tag k="addr:street" v="Red River Street"/><tag k="addr:housenumber" v="91"/><tag k="coa:place_id" v="93290"/></node><node id="-21" lat="30.260011" lon="-97.740033" changeset="false"><tag k="addr:street" v="Red River Street"/><tag k="addr:housenumber" v="80"/><tag k="coa:place_id" v="524421"/></node><node id="-22" lat="30.255999" lon="-97.739481" changeset="false"><tag k="addr:street" v="Rainey Street"/><tag k="addr:housenumber" v="43"/><tag k="coa:place_id" v="92762"/></node><node id="-23" lat="30.258918" lon="-97.739015" changeset="false"><tag k="addr:street" v="Rainey Street"/><tag k="addr:housenumber" v="76"/><tag k="coa:place_id" v="92576"/></node><node id="-24" lat="30.259077" lon="-97.738956" changeset="false"><tag k="addr:street" v="Rainey Street"/><tag k="addr:housenumber" v="78"/><tag k="coa:place_id" v="92570"/></node></osm>