<?xml version="1.0" encoding="UTF-8"?><osm version="0.6" generator="github.com/aaronlidman/osm-and-geojson"><node id="-1" lat="30.196646" lon="-97.906613" changeset="false"><tag k="addr:street" v="Brecourt Manor Way"/><tag k="addr:housenumber" v="7428"/><tag k="addr:postcode" v="78739"/></node><node id="-2" lat="30.184656" lon="-97.903619" changeset="false"><tag k="addr:street" v="Lafitte Lane"/><tag k="addr:housenumber" v="11528"/><tag k="addr:postcode" v="78739"/></node><node id="-3" lat="30.19744" lon="-97.890889" changeset="false"><tag k="addr:street" v="Tasajillo Trail"/><tag k="addr:housenumber" v="6336"/><tag k="addr:postcode" v="78739"/></node><node id="-4" lat="30.198054" lon="-97.896904" changeset="false"><tag k="addr:street" v="Hansa Cove"/><tag k="addr:housenumber" v="10313"/><tag k="addr:postcode" v="78739"/></node><node id="-5" lat="30.196713" lon="-97.921532" changeset="false"><tag k="addr:street" v="Via Grande Drive"/><tag k="addr:housenumber" v="11500"/><tag k="addr:postcode" v="78739"/></node><node id="-6" lat="30.186277" lon="-97.897357" changeset="false"><tag k="addr:street" v="Tracton Lane"/><tag k="addr:housenumber" v="11230"/><tag k="addr:postcode" v="78739"/></node><node id="-7" lat="30.190416" lon="-97.898472" changeset="false"><tag k="addr:street" v="Walebridge Lane"/><tag k="addr:housenumber" v="6808"/><tag k="addr:postcode" v="78739"/></node><node id="-8" lat="30.200477" lon="-97.919478" changeset="false"><tag k="addr:street" v="Spruce Canyon Drive"/><tag k="addr:housenumber" v="10000 1/2"/><tag k="addr:postcode" v="78739"/></node><node id="-9" lat="30.184786" lon="-97.904707" changeset="false"><tag k="addr:street" v="Quincy Cove"/><tag k="addr:housenumber" v="6601"/><tag k="addr:postcode" v="78739"/></node><node id="-10" lat="30.184061" lon="-97.90331" changeset="false"><tag k="addr:street" v="Lafitte Lane"/><tag k="addr:housenumber" v="11541"/><tag k="addr:postcode" v="78739"/></node><node id="-11" lat="30.191738" lon="-97.909401" changeset="false"><tag k="addr:street" v="Viridian Way"/><tag k="addr:housenumber" v="11308"/><tag k="addr:postcode" v="78739"/></node><node id="-12" lat="30.195481" lon="-97.90977" changeset="false"><tag k="addr:street" v="Bastogne Loop"/><tag k="addr:housenumber" v="11113"/><tag k="addr:postcode" v="78739"/></node><node id="-13" lat="30.193112" lon="-97.91025" changeset="false"><tag k="addr:street" v="Bastogne Loop"/><tag k="addr:housenumber" v="11321"/><tag k="addr:postcode" v="78739"/></node><node id="-14" lat="30.208898" lon="-97.906362" changeset="false"><tag k="addr:street" v="Mc Grath Drive"/><tag k="addr:housenumber" v="10117"/><tag k="addr:postcode" v="78739"/></node><node id="-15" lat="30.208901" lon="-97.906505" changeset="false"><tag k="addr:street" v="Mc Grath Drive"/><tag k="addr:housenumber" v="10115"/><tag k="addr:postcode" v="78739"/></node><node id="-16" lat="30.208431" lon="-97.90663" changeset="false"><tag k="addr:street" v="Mc Grath Drive"/><tag k="addr:housenumber" v="10112"/><tag k="addr:postcode" v="78739"/></node><node id="-17" lat="30.20713" lon="-97.907161" changeset="false"><tag k="addr:street" v="Mc Grath Drive"/><tag k="addr:housenumber" v="10201"/><tag k="addr:postcode" v="78739"/></node><node id="-18" lat="30.207075" lon="-97.907351" changeset="false"><tag k="addr:street" v="Mc Grath Drive"/><tag k="addr:housenumber" v="10203"/><tag k="addr:postcode" v="78739"/></node><node id="-19" lat="30.20718" lon="-97.908058" changeset="false"><tag k="addr:street" v="Mc Grath Drive"/><tag k="addr:housenumber" v="10208"/><tag k="addr:postcode" v="78739"/></node><node id="-20" lat="30.20705" lon="-97.908114" changeset="false"><tag k="addr:street" v="Mc Grath Drive"/><tag k="addr:housenumber" v="10210"/><tag k="addr:postcode" v="78739"/></node><node id="-21" lat="30.207307" lon="-97.905066" changeset="false"><tag k="addr:street" v="Fleenor Drive"/><tag k="addr:housenumber" v="10110"/><tag k="addr:postcode" v="78739"/></node><node id="-22" lat="30.207217" lon="-97.905182" changeset="false"><tag k="addr:street" v="Fleenor Drive"/><tag k="addr:housenumber" v="10112"/><tag k="addr:postcode" v="78739"/></node><node id="-23" lat="30.207066" lon="-97.90551" changeset="false"><tag k="addr:street" v="Fleenor Drive"/><tag k="addr:housenumber" v="10116"/><tag k="addr:postcode" v="78739"/></node><node id="-24" lat="30.207565" lon="-97.906599" changeset="false"><tag k="addr:street" v="Mc Grath Drive"/><tag k="addr:housenumber" v="10143"/><tag k="addr:postcode" v="78739"/></node><node id="-25" lat="30.207416" lon="-97.906694" changeset="false"><tag k="addr:street" v="Mc Grath Drive"/><tag k="addr:housenumber" v="10145"/><tag k="addr:postcode" v="78739"/></node><node id="-26" lat="30.20603" lon="-97.906532" changeset="false"><tag k="addr:street" v="Fleenor Drive"/><tag k="addr:housenumber" v="10213"/><tag k="addr:postcode" v="78739"/></node><node id="-27" lat="30.206402" lon="-97.905768" changeset="false"><tag k="addr:street" v="Fleenor Drive"/><tag k="addr:housenumber" v="10203"/><tag k="addr:postcode" v="78739"/></node><node id="-28" lat="30.208493" lon="-97.907112" changeset="false"><tag k="addr:street" v="Mc Grath Drive"/><tag k="addr:housenumber" v="10107"/><tag k="addr:postcode" v="78739"/></node><node id="-29" lat="30.205845" lon="-97.907148" changeset="false"><tag k="addr:street" v="Fleenor Drive"/><tag k="addr:housenumber" v="10219"/><tag k="addr:postcode" v="78739"/></node><node id="-30" lat="30.205979" lon="-97.907658" changeset="false"><tag k="addr:street" v="Fleenor Drive"/><tag k="addr:housenumber" v="10225"/><tag k="addr:postcode" v="78739"/></node><node id="-31" lat="30.206113" lon="-97.908168" changeset="false"><tag k="addr:street" v="Fleenor Drive"/><tag k="addr:housenumber" v="10231"/><tag k="addr:postcode" v="78739"/></node><node id="-32" lat="30.206357" lon="-97.908886" changeset="false"><tag k="addr:street" v="Fleenor Drive"/><tag k="addr:housenumber" v="10239"/><tag k="addr:postcode" v="78739"/></node><node id="-33" lat="30.206554" lon="-97.909281" changeset="false"><tag k="addr:street" v="Fleenor Drive"/><tag k="addr:housenumber" v="10243"/><tag k="addr:postcode" v="78739"/></node><node id="-34" lat="30.206668" lon="-97.909422" changeset="false"><tag k="addr:street" v="Fleenor Drive"/><tag k="addr:housenumber" v="10247"/><tag k="addr:postcode" v="78739"/></node><node id="-35" lat="30.184919" lon="-97.903281" changeset="false"><tag k="addr:street" v="Lafitte Lane"/><tag k="addr:housenumber" v="11520"/><tag k="addr:postcode" v="78739"/></node><node id="-36" lat="30.194102" lon="-97.893843" changeset="false"><tag k="addr:street" v="Natick Lane"/><tag k="addr:housenumber" v="10700"/><tag k="addr:postcode" v="78739"/></node><node id="-37" lat="30.193692" lon="-97.89378" changeset="false"><tag k="addr:street" v="Natick Lane"/><tag k="addr:housenumber" v="10708"/><tag k="addr:postcode" v="78739"/></node><node id="-38" lat="30.197116" lon="-97.919298" changeset="false"><tag k="addr:street" v="Via Grande Drive"/><tag k="addr:housenumber" v="11625"/><tag k="addr:postcode" v="78739"/></node><node id="-39" lat="30.192689" lon="-97.88852" changeset="false"><tag k="addr:street" v="Walpole Lane"/><tag k="addr:housenumber" v="10507"/><tag k="addr:postcode" v="78739"/></node><node id="-40" lat="30.192693" lon="-97.902493" changeset="false"><tag k="addr:street" v="Pairnoy Lane"/><tag k="addr:housenumber" v="11002 1/2"/><tag k="addr:postcode" v="78739"/></node><node id="-41" lat="30.192478" lon="-97.888825" changeset="false"><tag k="addr:street" v="Walpole Lane"/><tag k="addr:housenumber" v="10511"/><tag k="addr:postcode" v="78739"/></node><node id="-42" lat="30.192126" lon="-97.8933" changeset="false"><tag k="addr:street" v="Needham Lane"/><tag k="addr:housenumber" v="6503"/><tag k="addr:postcode" v="78739"/></node><node id="-43" lat="30.18907" lon="-97.914434" changeset="false"><tag k="addr:street" v="Hollister Drive"/><tag k="addr:housenumber" v="11613"/><tag k="addr:postcode" v="78739"/></node><node id="-44" lat="30.196532" lon="-97.921285" changeset="false"><tag k="addr:street" v="Via Grande Drive"/><tag k="addr:housenumber" v="11504"/><tag k="addr:postcode" v="78739"/></node><node id="-45" lat="30.194927" lon="-97.884568" changeset="false"><tag k="addr:street" v="Tasajillo Trail"/><tag k="addr:housenumber" v="6013"/><tag k="addr:postcode" v="78739"/></node><node id="-46" lat="30.193764" lon="-97.911017" changeset="false"><tag k="addr:street" v="Bastogne Loop"/><tag k="addr:housenumber" v="11301"/><tag k="addr:postcode" v="78739"/></node><node id="-47" lat="30.200783" lon="-97.915337" changeset="false"><tag k="addr:street" v="Via Verde Drive"/><tag k="addr:housenumber" v="8004"/><tag k="addr:postcode" v="78739"/></node><node id="-48" lat="30.198207" lon="-97.91948" changeset="false"><tag k="addr:street" v="Via Grande Drive"/><tag k="addr:housenumber" v="11801 1/2"/><tag k="addr:postcode" v="78739"/></node><node id="-49" lat="30.208395" lon="-97.906465" changeset="false"><tag k="addr:street" v="Mc Grath Drive"/><tag k="addr:housenumber" v="10114"/><tag k="addr:postcode" v="78739"/></node><node id="-50" lat="30.207944" lon="-97.905812" changeset="false"><tag k="addr:street" v="Mc Grath Drive"/><tag k="addr:housenumber" v="10133"/><tag k="addr:postcode" v="78739"/></node><node id="-51" lat="30.207746" lon="-97.906451" changeset="false"><tag k="addr:street" v="Mc Grath Drive"/><tag k="addr:housenumber" v="10139"/><tag k="addr:postcode" v="78739"/></node><node id="-52" lat="30.207491" lon="-97.907537" changeset="false"><tag k="addr:street" v="Mc Grath Drive"/><tag k="addr:housenumber" v="10202"/><tag k="addr:postcode" v="78739"/></node><node id="-53" lat="30.206521" lon="-97.907863" changeset="false"><tag k="addr:street" v="Mc Grath Drive"/><tag k="addr:housenumber" v="10211"/><tag k="addr:postcode" v="78739"/></node><node id="-54" lat="30.206416" lon="-97.906855" changeset="false"><tag k="addr:street" v="Fleenor Drive"/><tag k="addr:housenumber" v="10212"/><tag k="addr:postcode" v="78739"/></node><node id="-55" lat="30.206071" lon="-97.907988" changeset="false"><tag k="addr:street" v="Fleenor Drive"/><tag k="addr:housenumber" v="10229"/><tag k="addr:postcode" v="78739"/></node><node id="-56" lat="30.186863" lon="-97.897404" changeset="false"><tag k="addr:street" v="Tracton Lane"/><tag k="addr:housenumber" v="11218"/><tag k="addr:postcode" v="78739"/></node><node id="-57" lat="30.198421" lon="-97.916831" changeset="false"><tag k="addr:street" v="Caminita Cove"/><tag k="addr:housenumber" v="8000"/><tag k="addr:postcode" v="78739"/></node><node id="-58" lat="30.193512" lon="-97.891986" changeset="false"><tag k="addr:street" v="Danvers Court"/><tag k="addr:housenumber" v="6401"/><tag k="addr:postcode" v="78739"/></node><node id="-59" lat="30.192581" lon="-97.89478" changeset="false"><tag k="addr:street" v="Greymere Court"/><tag k="addr:housenumber" v="10800"/><tag k="addr:postcode" v="78739"/></node><node id="-60" lat="30.184782" lon="-97.902148" changeset="false"><tag k="addr:street" v="Lafitte Lane"/><tag k="addr:housenumber" v="11505"/><tag k="addr:postcode" v="78739"/></node><node id="-61" lat="30.188588" lon="-97.914515" changeset="false"><tag k="addr:street" v="Hollister Drive"/><tag k="addr:housenumber" v="11621"/><tag k="addr:postcode" v="78739"/></node><node id="-62" lat="30.185188" lon="-97.904269" changeset="false"><tag k="addr:street" v="Quincy Cove"/><tag k="addr:housenumber" v="6613"/><tag k="addr:postcode" v="78739"/></node><node id="-63" lat="30.209218" lon="-97.904387" changeset="false"><tag k="addr:street" v="Ranch to Market Road 1826"/><tag k="addr:housenumber" v="10007"/><tag k="addr:postcode" v="78739"/></node><node id="-64" lat="30.195842" lon="-97.88784" changeset="false"><tag k="addr:street" v="Tasajillo Trail"/><tag k="addr:housenumber" v="6211"/><tag k="addr:postcode" v="78739"/></node><node id="-65" lat="30.189919" lon="-97.898289" changeset="false"><tag k="addr:street" v="Back Bay Lane"/><tag k="addr:housenumber" v="6700"/><tag k="addr:postcode" v="78739"/></node><node id="-66" lat="30.19189" lon="-97.889736" changeset="false"><tag k="addr:street" v="Walpole Lane"/><tag k="addr:housenumber" v="10603"/><tag k="addr:postcode" v="78739"/></node><node id="-67" lat="30.194338" lon="-97.909227" changeset="false"><tag k="addr:street" v="Brecourt Manor Way"/><tag k="addr:housenumber" v="7613"/><tag k="addr:postcode" v="78739"/></node><node id="-68" lat="30.194852" lon="-97.908961" changeset="false"><tag k="addr:street" v="Brecourt Manor Way"/><tag k="addr:housenumber" v="7601"/><tag k="addr:postcode" v="78739"/></node><node id="-69" lat="30.206242" lon="-97.908474" changeset="false"><tag k="addr:street" v="Fleenor Drive"/><tag k="addr:housenumber" v="10235"/><tag k="addr:postcode" v="78739"/></node><node id="-70" lat="30.206756" lon="-97.906106" changeset="false"><tag k="addr:street" v="Fleenor Drive"/><tag k="addr:housenumber" v="10202"/><tag k="addr:postcode" v="78739"/></node><node id="-71" lat="30.206894" lon="-97.909922" changeset="false"><tag k="addr:street" v="Fleenor Drive"/><tag k="addr:housenumber" v="10253"/><tag k="addr:postcode" v="78739"/></node><node id="-72" lat="30.206901" lon="-97.904397" changeset="false"><tag k="addr:street" v="Fleenor Drive"/><tag k="addr:housenumber" v="10105"/><tag k="addr:postcode" v="78739"/></node><node id="-73" lat="30.207309" lon="-97.907957" changeset="false"><tag k="addr:street" v="Mc Grath Drive"/><tag k="addr:housenumber" v="10206"/><tag k="addr:postcode" v="78739"/></node><node id="-74" lat="30.206785" lon="-97.907638" changeset="false"><tag k="addr:street" v="Mc Grath Drive"/><tag k="addr:housenumber" v="10207"/><tag k="addr:postcode" v="78739"/></node><node id="-75" lat="30.20699" lon="-97.905648" changeset="false"><tag k="addr:street" v="Fleenor Drive"/><tag k="addr:housenumber" v="10118"/><tag k="addr:postcode" v="78739"/></node><node id="-76" lat="30.20632" lon="-97.905914" changeset="false"><tag k="addr:street" v="Fleenor Drive"/><tag k="addr:housenumber" v="10205"/><tag k="addr:postcode" v="78739"/></node><node id="-77" lat="30.206478" lon="-97.906657" changeset="false"><tag k="addr:street" v="Fleenor Drive"/><tag k="addr:housenumber" v="10210"/><tag k="addr:postcode" v="78739"/></node><node id="-78" lat="30.207767" lon="-97.906202" changeset="false"><tag k="addr:street" v="Mc Grath Drive"/><tag k="addr:housenumber" v="10137"/><tag k="addr:postcode" v="78739"/></node><node id="-79" lat="30.195023" lon="-97.909348" changeset="false"><tag k="addr:street" v="Bastogne Loop"/><tag k="addr:housenumber" v="11100"/><tag k="addr:postcode" v="78739"/></node><node id="-80" lat="30.207395" lon="-97.904898" changeset="false"><tag k="addr:street" v="Fleenor Drive"/><tag k="addr:housenumber" v="10108"/><tag k="addr:postcode" v="78739"/></node><node id="-81" lat="30.188112" lon="-97.900303" changeset="false"><tag k="addr:street" v="Orchard Hill Drive"/><tag k="addr:housenumber" v="6617"/><tag k="addr:postcode" v="78739"/></node><node id="-82" lat="30.19664" lon="-97.89736" changeset="false"><tag k="addr:street" v="Tollesboro Cove"/><tag k="addr:housenumber" v="10600"/><tag k="addr:postcode" v="78739"/></node><node id="-83" lat="30.197234" lon="-97.921361" changeset="false"><tag k="addr:street" v="Via Grande Drive"/><tag k="addr:housenumber" v="11420"/><tag k="addr:postcode" v="78739"/></node><node id="-84" lat="30.18971" lon="-97.907355" changeset="false"><tag k="addr:street" v="Viridian Way"/><tag k="addr:housenumber" v="11508"/><tag k="addr:postcode" v="78739"/></node><node id="-85" lat="30.188083" lon="-97.898192" changeset="false"><tag k="addr:street" v="Scenic Cove"/><tag k="addr:housenumber" v="6500"/><tag k="addr:postcode" v="78739"/></node><node id="-86" lat="30.195955" lon="-97.900354" changeset="false"><tag k="addr:street" v="Cap Stone Drive"/><tag k="addr:housenumber" v="10729"/><tag k="addr:postcode" v="78739"/></node><node id="-87" lat="30.195889" lon="-97.888002" changeset="false"><tag k="addr:street" v="Tasajillo Trail"/><tag k="addr:housenumber" v="6213"/><tag k="addr:postcode" v="78739"/></node><node id="-88" lat="30.194605" lon="-97.885856" changeset="false"><tag k="addr:street" v="Dedham Lane"/><tag k="addr:housenumber" v="6110"/><tag k="addr:postcode" v="78739"/></node><node id="-89" lat="30.188501" lon="-97.896037" changeset="false"><tag k="addr:street" v="Marden Lane"/><tag k="addr:housenumber" v="11004"/><tag k="addr:postcode" v="78739"/></node><node id="-90" lat="30.19636" lon="-97.921103" changeset="false"><tag k="addr:street" v="Via Grande Drive"/><tag k="addr:housenumber" v="11508"/><tag k="addr:postcode" v="78739"/></node><node id="-91" lat="30.203187" lon="-97.917161" changeset="false"><tag k="addr:street" v="Ranch to Market Road 1826"/><tag k="addr:housenumber" v="10815"/><tag k="addr:postcode" v="78739"/></node><node id="-92" lat="30.193609" lon="-97.910926" changeset="false"><tag k="addr:street" v="Bastogne Loop"/><tag k="addr:housenumber" v="11305"/><tag k="addr:postcode" v="78739"/></node><node id="-93" lat="30.206687" lon="-97.906252" changeset="false"><tag k="addr:street" v="Fleenor Drive"/><tag k="addr:housenumber" v="10204"/><tag k="addr:postcode" v="78739"/></node><node id="-94" lat="30.205893" lon="-97.90689" changeset="false"><tag k="addr:street" v="Fleenor Drive"/><tag k="addr:housenumber" v="10217"/><tag k="addr:postcode" v="78739"/></node><node id="-95" lat="30.208091" lon="-97.905658" changeset="false"><tag k="addr:street" v="Mc Grath Drive"/><tag k="addr:housenumber" v="10131"/><tag k="addr:postcode" v="78739"/></node><node id="-96" lat="30.208917" lon="-97.906686" changeset="false"><tag k="addr:street" v="Mc Grath Drive"/><tag k="addr:housenumber" v="10113"/><tag k="addr:postcode" v="78739"/></node><node id="-97" lat="30.207295" lon="-97.906848" changeset="false"><tag k="addr:street" v="Mc Grath Drive"/><tag k="addr:housenumber" v="10147"/><tag k="addr:postcode" v="78739"/></node><node id="-98" lat="30.206785" lon="-97.908302" changeset="false"><tag k="addr:street" v="Mc Grath Drive"/><tag k="addr:housenumber" v="10214"/><tag k="addr:postcode" v="78739"/></node><node id="-99" lat="30.206377" lon="-97.907188" changeset="false"><tag k="addr:street" v="Fleenor Drive"/><tag k="addr:housenumber" v="10218"/><tag k="addr:postcode" v="78739"/></node><node id="-100" lat="30.206413" lon="-97.907353" changeset="false"><tag k="addr:street" v="Fleenor Drive"/><tag k="addr:housenumber" v="10220"/><tag k="addr:postcode" v="78739"/></node><node id="-101" lat="30.194233" lon="-97.885517" changeset="false"><tag k="addr:street" v="Dedham Lane"/><tag k="addr:housenumber" v="6106"/><tag k="addr:postcode" v="78739"/></node><node id="-102" lat="30.190417" lon="-97.894246" changeset="false"><tag k="addr:street" v="Wareham Lane"/><tag k="addr:housenumber" v="6418"/><tag k="addr:postcode" v="78739"/></node><node id="-103" lat="30.189718" lon="-97.914629" changeset="false"><tag k="addr:street" v="Hollister Drive"/><tag k="addr:housenumber" v="11601"/><tag k="addr:postcode" v="78739"/></node><node id="-104" lat="30.186457" lon="-97.897444" changeset="false"><tag k="addr:street" v="Tracton Lane"/><tag k="addr:housenumber" v="11226"/><tag k="addr:postcode" v="78739"/></node><node id="-105" lat="30.195697" lon="-97.888312" changeset="false"><tag k="addr:street" v="La Crosse Avenue"/><tag k="addr:housenumber" v="6300"/><tag k="addr:postcode" v="78739"/></node><node id="-106" lat="30.192528" lon="-97.890292" changeset="false"><tag k="addr:street" v="Ames Lane"/><tag k="addr:housenumber" v="10606"/><tag k="addr:postcode" v="78739"/></node><node id="-107" lat="30.195961" lon="-97.886129" changeset="false"><tag k="addr:street" v="Tasajillo Trail"/><tag k="addr:housenumber" v="6110"/><tag k="addr:postcode" v="78739"/></node><node id="-108" lat="30.191339" lon="-97.919234" changeset="false"><tag k="addr:street" v="Adelaide Drive"/><tag k="addr:housenumber" v="7913"/><tag k="addr:postcode" v="78739"/></node><node id="-109" lat="30.197003" lon="-97.921431" changeset="false"><tag k="addr:street" v="Via Grande Drive"/><tag k="addr:housenumber" v="11424"/><tag k="addr:postcode" v="78739"/></node><node id="-110" lat="30.19211" lon="-97.894792" changeset="false"><tag k="addr:street" v="Greymere Court"/><tag k="addr:housenumber" v="10804"/><tag k="addr:postcode" v="78739"/></node><node id="-111" lat="30.193134" lon="-97.887347" changeset="false"><tag k="addr:street" v="Escarpment Boulevard"/><tag k="addr:housenumber" v="10504 1/2"/><tag k="addr:postcode" v="78739"/></node><node id="-112" lat="30.194677" lon="-97.91059" changeset="false"><tag k="addr:street" v="Bastogne Loop"/><tag k="addr:housenumber" v="11212"/><tag k="addr:postcode" v="78739"/></node><node id="-113" lat="30.193612" lon="-97.90861" changeset="false"><tag k="addr:street" v="La Crosse Avenue"/><tag k="addr:housenumber" v="7817"/><tag k="addr:postcode" v="78739"/></node><node id="-114" lat="30.203132" lon="-97.91617" changeset="false"><tag k="addr:street" v="Ranch to Market Road 1826"/><tag k="addr:housenumber" v="10701"/><tag k="addr:postcode" v="78739"/></node><node id="-115" lat="30.205888" lon="-97.907328" changeset="false"><tag k="addr:street" v="Fleenor Drive"/><tag k="addr:housenumber" v="10221"/><tag k="addr:postcode" v="78739"/></node><node id="-116" lat="30.206048" lon="-97.907837" changeset="false"><tag k="addr:street" v="Fleenor Drive"/><tag k="addr:housenumber" v="10227"/><tag k="addr:postcode" v="78739"/></node><node id="-117" lat="30.206731" lon="-97.909609" changeset="false"><tag k="addr:street" v="Fleenor Drive"/><tag k="addr:housenumber" v="10249"/><tag k="addr:postcode" v="78739"/></node><node id="-118" lat="30.208171" lon="-97.907067" changeset="false"><tag k="addr:street" v="Mc Grath Drive"/><tag k="addr:housenumber" v="10103"/><tag k="addr:postcode" v="78739"/></node><node id="-119" lat="30.193648" lon="-97.892331" changeset="false"><tag k="addr:street" v="Danvers Court"/><tag k="addr:housenumber" v="6403"/><tag k="addr:postcode" v="78739"/></node><node id="-120" lat="30.199358" lon="-97.920008" changeset="false"><tag k="addr:street" v="Via Grande Drive"/><tag k="addr:housenumber" v="11828"/><tag k="addr:postcode" v="78739"/></node><node id="-121" lat="30.197954" lon="-97.920877" changeset="false"><tag k="addr:street" v="Via Grande Drive"/><tag k="addr:housenumber" v="11404"/><tag k="addr:postcode" v="78739"/></node><node id="-122" lat="30.207836" lon="-97.905996" changeset="false"><tag k="addr:street" v="Mc Grath Drive"/><tag k="addr:housenumber" v="10135"/><tag k="addr:postcode" v="78739"/></node><node id="-123" lat="30.193713" lon="-97.910137" changeset="false"><tag k="addr:street" v="Bastogne Loop"/><tag k="addr:housenumber" v="11310"/><tag k="addr:postcode" v="78739"/></node><node id="-124" lat="30.194459" lon="-97.911185" changeset="false"><tag k="addr:street" v="Bastogne Loop"/><tag k="addr:housenumber" v="11221"/><tag k="addr:postcode" v="78739"/></node><node id="-125" lat="30.200695" lon="-97.915127" changeset="false"><tag k="addr:street" v="Via Verde Drive"/><tag k="addr:housenumber" v="8000"/><tag k="addr:postcode" v="78739"/></node><node id="-126" lat="30.208404" lon="-97.906231" changeset="false"><tag k="addr:street" v="Mc Grath Drive"/><tag k="addr:housenumber" v="10118"/><tag k="addr:postcode" v="78739"/></node><node id="-127" lat="30.206618" lon="-97.906404" changeset="false"><tag k="addr:street" v="Fleenor Drive"/><tag k="addr:housenumber" v="10206"/><tag k="addr:postcode" v="78739"/></node><node id="-128" lat="30.208046" lon="-97.907063" changeset="false"><tag k="addr:street" v="Mc Grath Drive"/><tag k="addr:housenumber" v="10101"/><tag k="addr:postcode" v="78739"/></node><node id="-129" lat="30.206149" lon="-97.90831" changeset="false"><tag k="addr:street" v="Fleenor Drive"/><tag k="addr:housenumber" v="10233"/><tag k="addr:postcode" v="78739"/></node><node id="-130" lat="30.207213" lon="-97.907031" changeset="false"><tag k="addr:street" v="Mc Grath Drive"/><tag k="addr:housenumber" v="10149"/><tag k="addr:postcode" v="78739"/></node><node id="-131" lat="30.207656" lon="-97.907239" changeset="false"><tag k="addr:street" v="Mc Grath Drive"/><tag k="addr:housenumber" v="10146"/><tag k="addr:postcode" v="78739"/></node><node id="-132" lat="30.206649" lon="-97.907739" changeset="false"><tag k="addr:street" v="Mc Grath Drive"/><tag k="addr:housenumber" v="10209"/><tag k="addr:postcode" v="78739"/></node><node id="-133" lat="30.208267" lon="-97.905585" changeset="false"><tag k="addr:street" v="Mc Grath Drive"/><tag k="addr:housenumber" v="10129"/><tag k="addr:postcode" v="78739"/></node><node id="-134" lat="30.206218" lon="-97.906075" changeset="false"><tag k="addr:street" v="Fleenor Drive"/><tag k="addr:housenumber" v="10207"/><tag k="addr:postcode" v="78739"/></node><node id="-135" lat="30.206555" lon="-97.906572" changeset="false"><tag k="addr:street" v="Fleenor Drive"/><tag k="addr:housenumber" v="10208"/><tag k="addr:postcode" v="78739"/></node><node id="-136" lat="30.206149" lon="-97.90622" changeset="false"><tag k="addr:street" v="Fleenor Drive"/><tag k="addr:housenumber" v="10209"/><tag k="addr:postcode" v="78739"/></node><node id="-137" lat="30.206086" lon="-97.906372" changeset="false"><tag k="addr:street" v="Fleenor Drive"/><tag k="addr:housenumber" v="10211"/><tag k="addr:postcode" v="78739"/></node><node id="-138" lat="30.205947" lon="-97.906663" changeset="false"><tag k="addr:street" v="Fleenor Drive"/><tag k="addr:housenumber" v="10215"/><tag k="addr:postcode" v="78739"/></node><node id="-139" lat="30.208342" lon="-97.907093" changeset="false"><tag k="addr:street" v="Mc Grath Drive"/><tag k="addr:housenumber" v="10105"/><tag k="addr:postcode" v="78739"/></node><node id="-140" lat="30.205937" lon="-97.907501" changeset="false"><tag k="addr:street" v="Fleenor Drive"/><tag k="addr:housenumber" v="10223"/><tag k="addr:postcode" v="78739"/></node><node id="-141" lat="30.206812" lon="-97.909773" changeset="false"><tag k="addr:street" v="Fleenor Drive"/><tag k="addr:housenumber" v="10251"/><tag k="addr:postcode" v="78739"/></node><node id="-142" lat="30.206458" lon="-97.905608" changeset="false"><tag k="addr:street" v="Fleenor Drive"/><tag k="addr:housenumber" v="10201"/><tag k="addr:postcode" v="78739"/></node><node id="-143" lat="30.206941" lon="-97.907543" changeset="false"><tag k="addr:street" v="Mc Grath Drive"/><tag k="addr:housenumber" v="10205"/><tag k="addr:postcode" v="78739"/></node><node id="-144" lat="30.207155" lon="-97.905334" changeset="false"><tag k="addr:street" v="Fleenor Drive"/><tag k="addr:housenumber" v="10114"/><tag k="addr:postcode" v="78739"/></node><node id="-145" lat="30.195863" lon="-97.907344" changeset="false"><tag k="addr:street" v="Brecourt Manor Way"/><tag k="addr:housenumber" v="7445 1/2"/><tag k="addr:postcode" v="78739"/></node><node id="-146" lat="30.206485" lon="-97.909094" changeset="false"><tag k="addr:street" v="Fleenor Drive"/><tag k="addr:housenumber" v="10241"/><tag k="addr:postcode" v="78739"/></node><node id="-147" lat="30.191752" lon="-97.894031" changeset="false"><tag k="addr:street" v="Needham Lane"/><tag k="addr:housenumber" v="6511"/><tag k="addr:postcode" v="78739"/></node><node id="-148" lat="30.208889" lon="-97.906211" changeset="false"><tag k="addr:street" v="Mc Grath Drive"/><tag k="addr:housenumber" v="10119"/><tag k="addr:postcode" v="78739"/></node><node id="-149" lat="30.207547" lon="-97.907377" changeset="false"><tag k="addr:street" v="Mc Grath Drive"/><tag k="addr:housenumber" v="10200"/><tag k="addr:postcode" v="78739"/></node><node id="-150" lat="30.207423" lon="-97.907735" changeset="false"><tag k="addr:street" v="Mc Grath Drive"/><tag k="addr:housenumber" v="10204"/><tag k="addr:postcode" v="78739"/></node><node id="-151" lat="30.20692" lon="-97.9082" changeset="false"><tag k="addr:street" v="Mc Grath Drive"/><tag k="addr:housenumber" v="10212"/><tag k="addr:postcode" v="78739"/></node><node id="-152" lat="30.206656" lon="-97.908411" changeset="false"><tag k="addr:street" v="Mc Grath Drive"/><tag k="addr:housenumber" v="10216"/><tag k="addr:postcode" v="78739"/></node><node id="-153" lat="30.206901" lon="-97.905816" changeset="false"><tag k="addr:street" v="Fleenor Drive"/><tag k="addr:housenumber" v="10120"/><tag k="addr:postcode" v="78739"/></node><node id="-154" lat="30.206839" lon="-97.905961" changeset="false"><tag k="addr:street" v="Fleenor Drive"/><tag k="addr:housenumber" v="10200"/><tag k="addr:postcode" v="78739"/></node><node id="-155" lat="30.184763" lon="-97.9041" changeset="false"><tag k="addr:street" v="Quincy Cove"/><tag k="addr:housenumber" v="6608"/><tag k="addr:postcode" v="78739"/></node><node id="-156" lat="30.208374" lon="-97.906051" changeset="false"><tag k="addr:street" v="Mc Grath Drive"/><tag k="addr:housenumber" v="10120"/><tag k="addr:postcode" v="78739"/></node><node id="-157" lat="30.192239" lon="-97.909325" changeset="false"><tag k="addr:street" v="Viridian Way"/><tag k="addr:housenumber" v="11301"/><tag k="addr:postcode" v="78739"/></node><node id="-158" lat="30.187388" lon="-97.90035" changeset="false"><tag k="addr:street" v="Casimir Cove"/><tag k="addr:housenumber" v="6604"/><tag k="addr:postcode" v="78739"/></node><node id="-159" lat="30.184669" lon="-97.902623" changeset="false"><tag k="addr:street" v="Lafitte Lane"/><tag k="addr:housenumber" v="11513"/><tag k="addr:postcode" v="78739"/></node><node id="-160" lat="30.187008" lon="-97.907967" changeset="false"><tag k="addr:street" v="Magenta Lane"/><tag k="addr:housenumber" v="7105"/><tag k="addr:postcode" v="78739"/></node><node id="-161" lat="30.195077" lon="-97.883661" changeset="false"><tag k="addr:street" v="Tasajillo Trail"/><tag k="addr:housenumber" v="6000"/><tag k="addr:postcode" v="78739"/></node><node id="-162" lat="30.191653" lon="-97.895662" changeset="false"><tag k="addr:street" v="Walebridge Lane"/><tag k="addr:housenumber" v="6517"/><tag k="addr:postcode" v="78739"/></node><node id="-163" lat="30.187318" lon="-97.898743" changeset="false"><tag k="addr:street" v="Orchard Hill Drive"/><tag k="addr:housenumber" v="6504"/><tag k="addr:postcode" v="78739"/></node><node id="-164" lat="30.19623" lon="-97.920904" changeset="false"><tag k="addr:street" v="Via Grande Drive"/><tag k="addr:housenumber" v="11512"/><tag k="addr:postcode" v="78739"/></node><node id="-165" lat="30.186181" lon="-97.897095" changeset="false"><tag k="addr:street" v="Tracton Lane"/><tag k="addr:housenumber" v="11234"/><tag k="addr:postcode" v="78739"/></node><node id="-166" lat="30.206324" lon="-97.910479" changeset="false"><tag k="addr:street" v="Ranch to Market Road 1826"/><tag k="addr:housenumber" v="10315"/><tag k="addr:postcode" v="78739"/></node><node id="-167" lat="30.188514" lon="-97.914353" changeset="false"><tag k="addr:street" v="Hollister Drive"/><tag k="addr:housenumber" v="11621 1/2"/><tag k="addr:postcode" v="78739"/></node><node id="-168" lat="30.197146" lon="-97.899907" changeset="false"><tag k="addr:street" v="La Crosse Avenue"/><tag k="addr:housenumber" v="7021"/><tag k="addr:postcode" v="78739"/></node><node id="-169" lat="30.183585" lon="-97.902301" changeset="false"><tag k="addr:street" v="Alberta Drive"/><tag k="addr:housenumber" v="11528"/><tag k="addr:postcode" v="78739"/></node><node id="-170" lat="30.185053" lon="-97.903926" changeset="false"><tag k="addr:street" v="Quincy Cove"/><tag k="addr:housenumber" v="6616"/><tag k="addr:postcode" v="78739"/></node><node id="-171" lat="30.187176" lon="-97.898802" changeset="false"><tag k="addr:street" v="Orchard Hill Drive"/><tag k="addr:housenumber" v="6500"/><tag k="addr:postcode" v="78739"/></node><node id="-172" lat="30.194617" lon="-97.8875" changeset="false"><tag k="addr:street" v="Dedham Lane"/><tag k="addr:housenumber" v="6207"/><tag k="addr:postcode" v="78739"/></node><node id="-173" lat="30.200392" lon="-97.918335" changeset="false"><tag k="addr:street" v="Spruce Canyon Drive"/><tag k="addr:housenumber" v="10101 1/2"/><tag k="addr:postcode" v="78739"/></node><node id="-174" lat="30.195794" lon="-97.887496" changeset="false"><tag k="addr:street" v="Tasajillo Trail"/><tag k="addr:housenumber" v="6207"/><tag k="addr:postcode" v="78739"/></node><node id="-175" lat="30.197802" lon="-97.921035" changeset="false"><tag k="addr:street" v="Via Grande Drive"/><tag k="addr:housenumber" v="11408"/><tag k="addr:postcode" v="78739"/></node><node id="-176" lat="30.197611" lon="-97.921173" changeset="false"><tag k="addr:street" v="Via Grande Drive"/><tag k="addr:housenumber" v="11412"/><tag k="addr:postcode" v="78739"/></node><node id="-177" lat="30.194672" lon="-97.923047" changeset="false"><tag k="addr:street" v="Ranch to Market Road 1826"/><tag k="addr:housenumber" v="11511"/><tag k="addr:postcode" v="78739"/></node><node id="-178" lat="30.198307" lon="-97.917371" changeset="false"><tag k="addr:street" v="Caminita Cove"/><tag k="addr:housenumber" v="8005"/><tag k="addr:postcode" v="78739"/></node><node id="-179" lat="30.195797" lon="-97.88766" changeset="false"><tag k="addr:street" v="Tasajillo Trail"/><tag k="addr:housenumber" v="6209"/><tag k="addr:postcode" v="78739"/></node><node id="-180" lat="30.196686" lon="-97.919756" changeset="false"><tag k="addr:street" v="Via Grande Drive"/><tag k="addr:housenumber" v="11609"/><tag k="addr:postcode" v="78739"/></node><node id="-181" lat="30.198619" lon="-97.916744" changeset="false"><tag k="addr:street" v="Caminita Cove"/><tag k="addr:housenumber" v="8004"/><tag k="addr:postcode" v="78739"/></node><node id="-182" lat="30.205008" lon="-97.911642" changeset="false"><tag k="addr:street" v="Ranch to Market Road 1826"/><tag k="addr:housenumber" v="10501"/><tag k="addr:postcode" v="78739"/></node><node id="-183" lat="30.190455" lon="-97.894089" changeset="false"><tag k="addr:street" v="Wareham Lane"/><tag k="addr:housenumber" v="6416"/><tag k="addr:postcode" v="78739"/></node><node id="-184" lat="30.198157" lon="-97.91959" changeset="false"><tag k="addr:street" v="Via Grande Drive"/><tag k="addr:housenumber" v="11801"/><tag k="addr:postcode" v="78739"/></node><node id="-185" lat="30.191302" lon="-97.908898" changeset="false"><tag k="addr:street" v="Viridian Way"/><tag k="addr:housenumber" v="11316"/><tag k="addr:postcode" v="78739"/></node><node id="-186" lat="30.191332" lon="-97.9089" changeset="false"><tag k="addr:street" v="Viridian Way"/><tag k="addr:housenumber" v="11316 1/2"/><tag k="addr:postcode" v="78739"/></node><node id="-187" lat="30.18888" lon="-97.915147" changeset="false"><tag k="addr:street" v="Hollister Drive"/><tag k="addr:housenumber" v="11616"/><tag k="addr:postcode" v="78739"/></node><node id="-188" lat="30.188851" lon="-97.915053" changeset="false"><tag k="addr:street" v="Hollister Drive"/><tag k="addr:housenumber" v="11616 1/2"/><tag k="addr:postcode" v="78739"/></node></osm>