<?xml version="1.0" encoding="UTF-8"?><osm version="0.6" generator="github.com/aaronlidman/osm-and-geojson"><node id="-1" lat="30.288225" lon="-97.808535" changeset="false"><tag k="addr:street" v="Cortona Drive"/><tag k="addr:housenumber" v="377"/></node><node id="-2" lat="30.29656" lon="-97.81426" changeset="false"><tag k="addr:street" v="Live Oak Ridge Road"/><tag k="addr:housenumber" v="980"/></node><node id="-3" lat="30.299268" lon="-97.819357" changeset="false"><tag k="addr:street" v="Redbud Trail"/><tag k="addr:housenumber" v="1403"/></node><node id="-4" lat="30.296162" lon="-97.815627" changeset="false"><tag k="addr:street" v="Yaupon Valley Road"/><tag k="addr:housenumber" v="1102"/></node><node id="-5" lat="30.29883" lon="-97.815607" changeset="false"><tag k="addr:street" v="Redbud Trail"/><tag k="addr:housenumber" v="1125"/></node><node id="-6" lat="30.296961" lon="-97.818131" changeset="false"><tag k="addr:street" v="Yaupon Valley Road"/><tag k="addr:housenumber" v="1215"/></node><node id="-7" lat="30.288414" lon="-97.815891" changeset="false"><tag k="addr:street" v="Bee Caves Road"/><tag k="addr:housenumber" v="4704"/></node><node id="-8" lat="30.290245" lon="-97.808173" changeset="false"><tag k="addr:street" v="Buckeye Trail"/><tag k="addr:housenumber" v="507"/></node><node id="-9" lat="30.29097" lon="-97.804453" changeset="false"><tag k="addr:street" v="Buckeye Trail"/><tag k="addr:housenumber" v="201"/></node><node id="-10" lat="30.289151" lon="-97.80465" changeset="false"><tag k="addr:street" v="Cortona Drive"/><tag k="addr:housenumber" v="655"/></node><node id="-11" lat="30.289147" lon="-97.807443" changeset="false"><tag k="addr:street" v="Cortona Cove"/><tag k="addr:housenumber" v="444"/></node><node id="-12" lat="30.286325" lon="-97.807368" changeset="false"><tag k="addr:street" v="Downie Place"/><tag k="addr:housenumber" v="5"/></node><node id="-13" lat="30.290858" lon="-97.814171" changeset="false"><tag k="addr:street" v="Swiftcurrent Trail"/><tag k="addr:housenumber" v="111"/></node><node id="-14" lat="30.293189" lon="-97.799425" changeset="false"><tag k="addr:street" v="Redbud Trail"/><tag k="addr:housenumber" v="119"/></node><node id="-15" lat="30.293132" lon="-97.817323" changeset="false"><tag k="addr:street" v="Blackacre Trail"/><tag k="addr:housenumber" v="1100"/></node><node id="-16" lat="30.291238" lon="-97.802038" changeset="false"><tag k="addr:street" v="Westlake Drive"/><tag k="addr:housenumber" v="808"/></node><node id="-17" lat="30.29238" lon="-97.805113" changeset="false"><tag k="addr:street" v="Buckeye Trail"/><tag k="addr:housenumber" v="218"/></node><node id="-18" lat="30.296945" lon="-97.817445" changeset="false"><tag k="addr:street" v="Yaupon Valley Road"/><tag k="addr:housenumber" v="1206"/></node><node id="-19" lat="30.294756" lon="-97.816468" changeset="false"><tag k="addr:street" v="Madrone Road"/><tag k="addr:housenumber" v="1000"/></node><node id="-20" lat="30.292787" lon="-97.806972" changeset="false"><tag k="addr:street" v="Yaupon Valley Road"/><tag k="addr:housenumber" v="501"/></node><node id="-21" lat="30.298215" lon="-97.81977" changeset="false"><tag k="addr:street" v="Yaupon Valley Road"/><tag k="addr:housenumber" v="1240"/></node><node id="-22" lat="30.292642" lon="-97.811326" changeset="false"><tag k="addr:street" v="Yaupon Valley Road"/><tag k="addr:housenumber" v="701"/></node><node id="-23" lat="30.289948" lon="-97.805094" changeset="false"><tag k="addr:street" v="Buckeye Trail"/><tag k="addr:housenumber" v="203"/></node><node id="-24" lat="30.288534" lon="-97.808961" changeset="false"><tag k="addr:street" v="Cortona Drive"/><tag k="addr:housenumber" v="355"/></node><node id="-25" lat="30.291829" lon="-97.816664" changeset="false"><tag k="addr:street" v="Bluff Park Circle"/><tag k="addr:housenumber" v="107"/></node><node id="-26" lat="30.295808" lon="-97.803732" changeset="false"><tag k="addr:street" v="Cedar Oak Drive"/><tag k="addr:housenumber" v="301"/></node><node id="-27" lat="30.298411" lon="-97.816973" changeset="false"><tag k="addr:street" v="Redbud Trail"/><tag k="addr:housenumber" v="1213"/></node><node id="-28" lat="30.293671" lon="-97.818884" changeset="false"><tag k="addr:street" v="Blackacre Trail"/><tag k="addr:housenumber" v="1105"/></node><node id="-29" lat="30.291755" lon="-97.800337" changeset="false"><tag k="addr:street" v="Westlake Drive"/><tag k="addr:housenumber" v="906"/></node><node id="-30" lat="30.291281" lon="-97.803522" changeset="false"><tag k="addr:street" v="Buckeye Trail"/><tag k="addr:housenumber" v="210"/></node><node id="-31" lat="30.290924" lon="-97.807553" changeset="false"><tag k="addr:street" v="Buckeye Trail"/><tag k="addr:housenumber" v="407"/></node><node id="-32" lat="30.29271" lon="-97.816013" changeset="false"><tag k="addr:street" v="Bluff Park Circle"/><tag k="addr:housenumber" v="109"/></node><node id="-33" lat="30.291385" lon="-97.813806" changeset="false"><tag k="addr:street" v="Swiftcurrent Trail"/><tag k="addr:housenumber" v="113"/></node><node id="-34" lat="30.292258" lon="-97.814183" changeset="false"><tag k="addr:street" v="Swiftcurrent Trail"/><tag k="addr:housenumber" v="114"/></node><node id="-35" lat="30.287537" lon="-97.806714" changeset="false"><tag k="addr:street" v="Cortona Drive"/><tag k="addr:housenumber" v="499"/></node><node id="-36" lat="30.294151" lon="-97.821143" changeset="false"><tag k="addr:street" v="Redbud Trail"/><tag k="addr:housenumber" v="1475"/></node><node id="-37" lat="30.299812" lon="-97.813045" changeset="false"><tag k="addr:street" v="Redbud Trail"/><tag k="addr:housenumber" v="1111"/></node><node id="-38" lat="30.294312" lon="-97.813699" changeset="false"><tag k="addr:street" v="Yaupon Valley Road"/><tag k="addr:housenumber" v="902"/></node><node id="-39" lat="30.292864" lon="-97.821259" changeset="false"><tag k="addr:street" v="Bee Caves Road"/><tag k="addr:housenumber" v="5324"/></node><node id="-40" lat="30.292762" lon="-97.817848" changeset="false"><tag k="addr:street" v="Blackacre Trail"/><tag k="addr:housenumber" v="1101"/></node><node id="-41" lat="30.295451" lon="-97.815118" changeset="false"><tag k="addr:street" v="Yaupon Valley Road"/><tag k="addr:housenumber" v="1002"/></node><node id="-42" lat="30.296871" lon="-97.81733" changeset="false"><tag k="addr:street" v="Yaupon Valley Road"/><tag k="addr:housenumber" v="1204"/></node><node id="-43" lat="30.289616" lon="-97.806621" changeset="false"><tag k="addr:street" v="Cortona Drive"/><tag k="addr:housenumber" v="622"/></node><node id="-44" lat="30.289049" lon="-97.808841" changeset="false"><tag k="addr:street" v="Cortona Drive"/><tag k="addr:housenumber" v="344"/></node><node id="-45" lat="30.288474" lon="-97.807605" changeset="false"><tag k="addr:street" v="Cortona Cove"/><tag k="addr:housenumber" v="422"/></node><node id="-46" lat="30.299236" lon="-97.814354" changeset="false"><tag k="addr:street" v="Redbud Trail"/><tag k="addr:housenumber" v="1117"/></node><node id="-47" lat="30.289745" lon="-97.818734" changeset="false"><tag k="addr:street" v="Bee Caves Road"/><tag k="addr:housenumber" v="5016"/></node><node id="-48" lat="30.297425" lon="-97.818599" changeset="false"><tag k="addr:street" v="Yaupon Valley Road"/><tag k="addr:housenumber" v="1208"/></node><node id="-49" lat="30.298014" lon="-97.818318" changeset="false"><tag k="addr:street" v="Double Bend Back Road"/><tag k="addr:housenumber" v="800"/></node><node id="-50" lat="30.294021" lon="-97.802294" changeset="false"><tag k="addr:street" v="Laurel Valley Road"/><tag k="addr:housenumber" v="300"/></node><node id="-51" lat="30.29228" lon="-97.809814" changeset="false"><tag k="addr:street" v="Buckeye Trail"/><tag k="addr:housenumber" v="500"/></node><node id="-52" lat="30.291618" lon="-97.815023" changeset="false"><tag k="addr:street" v="Swiftcurrent Trail"/><tag k="addr:housenumber" v="100"/></node><node id="-53" lat="30.297876" lon="-97.80436" changeset="false"><tag k="addr:street" v="Redbud Trail"/><tag k="addr:housenumber" v="601"/></node><node id="-54" lat="30.297923" lon="-97.802991" changeset="false"><tag k="addr:street" v="Redbud Trail"/><tag k="addr:housenumber" v="501"/></node><node id="-55" lat="30.287603" lon="-97.807107" changeset="false"><tag k="addr:street" v="Cortona Drive"/><tag k="addr:housenumber" v="477"/></node><node id="-56" lat="30.296523" lon="-97.814258" changeset="false"><tag k="addr:street" v="Live Oak Ridge Road"/><tag k="addr:housenumber" v="940"/></node><node id="-57" lat="30.291202" lon="-97.80774" changeset="false"><tag k="addr:street" v="Buckeye Trail"/><tag k="addr:housenumber" v="409"/></node><node id="-58" lat="30.291858" lon="-97.820684" changeset="false"><tag k="addr:street" v="Bee Caves Road"/><tag k="addr:housenumber" v="5300"/></node><node id="-59" lat="30.2895" lon="-97.805816" changeset="false"><tag k="addr:street" v="Cortona Drive"/><tag k="addr:housenumber" v="688"/></node><node id="-60" lat="30.293541" lon="-97.798315" changeset="false"><tag k="addr:street" v="Redbud Trail"/><tag k="addr:housenumber" v="107"/></node><node id="-61" lat="30.294411" lon="-97.819028" changeset="false"><tag k="addr:street" v="Blackacre Trail"/><tag k="addr:housenumber" v="1108"/></node><node id="-62" lat="30.289911" lon="-97.809733" changeset="false"><tag k="addr:street" v="Buckeye Trail"/><tag k="addr:housenumber" v="515"/></node><node id="-63" lat="30.288254" lon="-97.805367" changeset="false"><tag k="addr:street" v="Cortona Drive"/><tag k="addr:housenumber" v="577"/></node><node id="-64" lat="30.295319" lon="-97.82022" changeset="false"><tag k="addr:street" v="Redbud Trail"/><tag k="addr:housenumber" v="1449"/></node><node id="-65" lat="30.298943" lon="-97.810343" changeset="false"><tag k="addr:street" v="Redbud Trail"/><tag k="addr:housenumber" v="903"/></node><node id="-66" lat="30.299274" lon="-97.820035" changeset="false"><tag k="addr:street" v="Redbud Trail"/><tag k="addr:housenumber" v="1405"/></node><node id="-67" lat="30.289495" lon="-97.810255" changeset="false"><tag k="addr:street" v="Buckeye Trail"/><tag k="addr:housenumber" v="517"/></node><node id="-68" lat="30.29261" lon="-97.806401" changeset="false"><tag k="addr:street" v="Yaupon Valley Road"/><tag k="addr:housenumber" v="425"/></node><node id="-69" lat="30.292606" lon="-97.805958" changeset="false"><tag k="addr:street" v="Yaupon Valley Road"/><tag k="addr:housenumber" v="401"/></node><node id="-70" lat="30.29577" lon="-97.815404" changeset="false"><tag k="addr:street" v="Yaupon Valley Road"/><tag k="addr:housenumber" v="1004"/></node><node id="-71" lat="30.294953" lon="-97.820415" changeset="false"><tag k="addr:street" v="Blackacre Trail"/><tag k="addr:housenumber" v="1212"/></node><node id="-72" lat="30.287758" lon="-97.814553" changeset="false"><tag k="addr:street" v="Bee Caves Road"/><tag k="addr:housenumber" v="4600"/></node><node id="-73" lat="30.300244" lon="-97.811157" changeset="false"><tag k="addr:street" v="Redbud Trail"/><tag k="addr:housenumber" v="915"/></node><node id="-74" lat="30.291519" lon="-97.802347" changeset="false"><tag k="addr:street" v="Laurel Valley Road"/><tag k="addr:housenumber" v="103"/></node><node id="-75" lat="30.291666" lon="-97.803657" changeset="false"><tag k="addr:street" v="Buckeye Trail"/><tag k="addr:housenumber" v="212"/></node><node id="-76" lat="30.290631" lon="-97.80407" changeset="false"><tag k="addr:street" v="Buckeye Trail"/><tag k="addr:housenumber" v="205"/></node><node id="-77" lat="30.28925" lon="-97.808412" changeset="false"><tag k="addr:street" v="Cortona Drive"/><tag k="addr:housenumber" v="366"/></node><node id="-78" lat="30.288973" lon="-97.810037" changeset="false"><tag k="addr:street" v="Buckeye Trail"/><tag k="addr:housenumber" v="519"/></node><node id="-79" lat="30.28878" lon="-97.805777" changeset="false"><tag k="addr:street" v="Cortona Drive"/><tag k="addr:housenumber" v="588"/></node><node id="-80" lat="30.288696" lon="-97.809544" changeset="false"><tag k="addr:street" v="Buckeye Trail"/><tag k="addr:housenumber" v="523"/></node><node id="-81" lat="30.294838" lon="-97.810982" changeset="false"><tag k="addr:street" v="Live Oak Circle"/><tag k="addr:housenumber" v="915"/></node><node id="-82" lat="30.293549" lon="-97.800824" changeset="false"><tag k="addr:street" v="Redbud Trail"/><tag k="addr:housenumber" v="125"/></node><node id="-83" lat="30.292116" lon="-97.801498" changeset="false"><tag k="addr:street" v="Yaupon Valley Road"/><tag k="addr:housenumber" v="102"/></node><node id="-84" lat="30.292069" lon="-97.808741" changeset="false"><tag k="addr:street" v="Buckeye Trail"/><tag k="addr:housenumber" v="412"/></node><node id="-85" lat="30.296805" lon="-97.817268" changeset="false"><tag k="addr:street" v="Yaupon Valley Road"/><tag k="addr:housenumber" v="1202"/></node><node id="-86" lat="30.288969" lon="-97.817078" changeset="false"><tag k="addr:street" v="Bee Caves Road"/><tag k="addr:housenumber" v="4800"/></node><node id="-87" lat="30.298095" lon="-97.813816" changeset="false"><tag k="addr:street" v="Redbud Trail"/><tag k="addr:housenumber" v="1123"/></node><node id="-88" lat="30.299513" lon="-97.817307" changeset="false"><tag k="addr:street" v="Redbud Trail"/><tag k="addr:housenumber" v="1300"/></node><node id="-89" lat="30.297473" lon="-97.802111" changeset="false"><tag k="addr:street" v="Redbud Trail"/><tag k="addr:housenumber" v="411"/></node><node id="-90" lat="30.294719" lon="-97.807197" changeset="false"><tag k="addr:street" v="Laurel Valley Road"/><tag k="addr:housenumber" v="508"/></node><node id="-91" lat="30.295199" lon="-97.812955" changeset="false"><tag k="addr:street" v="Live Oak Ridge Road"/><tag k="addr:housenumber" v="902"/></node><node id="-92" lat="30.291953" lon="-97.813466" changeset="false"><tag k="addr:street" v="Swiftcurrent Trail"/><tag k="addr:housenumber" v="115"/></node><node id="-93" lat="30.292497" lon="-97.801985" changeset="false"><tag k="addr:street" v="Yaupon Valley Road"/><tag k="addr:housenumber" v="200"/></node><node id="-94" lat="30.292806" lon="-97.808169" changeset="false"><tag k="addr:street" v="Yaupon Valley Road"/><tag k="addr:housenumber" v="509"/></node><node id="-95" lat="30.297796" lon="-97.803785" changeset="false"><tag k="addr:street" v="Redbud Trail"/><tag k="addr:housenumber" v="509"/></node><node id="-96" lat="30.293514" lon="-97.804907" changeset="false"><tag k="addr:street" v="Laurel Valley Road"/><tag k="addr:housenumber" v="315"/></node><node id="-97" lat="30.293751" lon="-97.814969" changeset="false"><tag k="addr:street" v="Madrone Road"/><tag k="addr:housenumber" v="1008"/></node><node id="-98" lat="30.293037" lon="-97.812979" changeset="false"><tag k="addr:street" v="Yaupon Valley Road"/><tag k="addr:housenumber" v="805"/></node><node id="-99" lat="30.295045" lon="-97.801677" changeset="false"><tag k="addr:street" v="Redbud Trail"/><tag k="addr:housenumber" v="201"/></node><node id="-100" lat="30.290279" lon="-97.819497" changeset="false"><tag k="addr:street" v="Bee Caves Road"/><tag k="addr:housenumber" v="5118"/></node><node id="-101" lat="30.289431" lon="-97.815862" changeset="false"><tag k="addr:street" v="Swiftcurrent Trail"/><tag k="addr:housenumber" v="103"/></node><node id="-102" lat="30.297097" lon="-97.812814" changeset="false"><tag k="addr:street" v="Live Oak Circle"/><tag k="addr:housenumber" v="970"/></node><node id="-103" lat="30.292175" lon="-97.799599" changeset="false"><tag k="addr:street" v="Laurel Valley Road"/><tag k="addr:housenumber" v="102"/></node><node id="-104" lat="30.291605" lon="-97.805171" changeset="false"><tag k="addr:street" v="Buckeye Trail"/><tag k="addr:housenumber" v="308"/></node><node id="-105" lat="30.298459" lon="-97.809936" changeset="false"><tag k="addr:street" v="Redbud Trail"/><tag k="addr:housenumber" v="901"/></node><node id="-106" lat="30.286764" lon="-97.811567" changeset="false"><tag k="addr:street" v="Buckeye Trail"/><tag k="addr:housenumber" v="720"/></node><node id="-107" lat="30.290463" lon="-97.809168" changeset="false"><tag k="addr:street" v="Buckeye Trail"/><tag k="addr:housenumber" v="509"/></node><node id="-108" lat="30.290376" lon="-97.810016" changeset="false"><tag k="addr:street" v="Buckeye Trail"/><tag k="addr:housenumber" v="514"/></node><node id="-109" lat="30.290112" lon="-97.809314" changeset="false"><tag k="addr:street" v="Buckeye Trail"/><tag k="addr:housenumber" v="513"/></node><node id="-110" lat="30.29124" lon="-97.81723" changeset="false"><tag k="addr:street" v="Bluff Park Circle"/><tag k="addr:housenumber" v="105"/></node><node id="-111" lat="30.290961" lon="-97.819799" changeset="false"><tag k="addr:street" v="Bee Caves Road"/><tag k="addr:housenumber" v="5122"/></node><node id="-112" lat="30.289677" lon="-97.810673" changeset="false"><tag k="addr:street" v="Buckeye Trail"/><tag k="addr:housenumber" v="560"/></node><node id="-113" lat="30.290727" lon="-97.820055" changeset="false"><tag k="addr:street" v="Bee Caves Road"/><tag k="addr:housenumber" v="5120"/></node><node id="-114" lat="30.29616" lon="-97.817759" changeset="false"><tag k="addr:street" v="Allegro Lane"/><tag k="addr:housenumber" v="201"/></node><node id="-115" lat="30.288282" lon="-97.810313" changeset="false"><tag k="addr:street" v="Buckeye Trail"/><tag k="addr:housenumber" v="520"/></node><node id="-116" lat="30.296032" lon="-97.803442" changeset="false"><tag k="addr:street" v="Cedar Oak Drive"/><tag k="addr:housenumber" v="303"/></node><node id="-117" lat="30.287325" lon="-97.811157" changeset="false"><tag k="addr:street" v="Buckeye Trail"/><tag k="addr:housenumber" v="660"/></node><node id="-118" lat="30.299405" lon="-97.813732" changeset="false"><tag k="addr:street" v="Redbud Trail"/><tag k="addr:housenumber" v="1113"/></node><node id="-119" lat="30.295978" lon="-97.820242" changeset="false"><tag k="addr:street" v="Juniper Road"/><tag k="addr:housenumber" v="401"/></node><node id="-120" lat="30.295806" lon="-97.815855" changeset="false"><tag k="addr:street" v="Yaupon Valley Road"/><tag k="addr:housenumber" v="1100"/></node><node id="-121" lat="30.295815" lon="-97.810583" changeset="false"><tag k="addr:street" v="Live Oak Circle"/><tag k="addr:housenumber" v="935"/></node><node id="-122" lat="30.29393" lon="-97.806481" changeset="false"><tag k="addr:street" v="Laurel Valley Road"/><tag k="addr:housenumber" v="505"/></node><node id="-123" lat="30.2912" lon="-97.814901" changeset="false"><tag k="addr:street" v="Swiftcurrent Trail"/><tag k="addr:housenumber" v="110"/></node><node id="-124" lat="30.292903" lon="-97.812258" changeset="false"><tag k="addr:street" v="Yaupon Valley Road"/><tag k="addr:housenumber" v="801"/></node><node id="-125" lat="30.295101" lon="-97.815319" changeset="false"><tag k="addr:street" v="Yaupon Valley Road"/><tag k="addr:housenumber" v="906"/></node><node id="-126" lat="30.287893" lon="-97.815235" changeset="false"><tag k="addr:street" v="Bee Caves Road"/><tag k="addr:housenumber" v="4618"/></node><node id="-127" lat="30.291542" lon="-97.808445" changeset="false"><tag k="addr:street" v="Buckeye Trail"/><tag k="addr:housenumber" v="501"/></node><node id="-128" lat="30.288973" lon="-97.807062" changeset="false"><tag k="addr:street" v="Cortona Cove"/><tag k="addr:housenumber" v="466"/></node><node id="-129" lat="30.288513" lon="-97.809322" changeset="false"><tag k="addr:street" v="Buckeye Trail"/><tag k="addr:housenumber" v="521"/></node><node id="-130" lat="30.293465" lon="-97.814678" changeset="false"><tag k="addr:street" v="Madrone Road"/><tag k="addr:housenumber" v="1010"/></node><node id="-131" lat="30.28757" lon="-97.806299" changeset="false"><tag k="addr:street" v="Cortona Drive"/><tag k="addr:housenumber" v="533"/></node><node id="-132" lat="30.29278" lon="-97.810643" changeset="false"><tag k="addr:street" v="Yaupon Valley Road"/><tag k="addr:housenumber" v="601"/></node><node id="-133" lat="30.297718" lon="-97.820656" changeset="false"><tag k="addr:street" v="Yaupon Valley Road"/><tag k="addr:housenumber" v="1400"/></node><node id="-134" lat="30.293568" lon="-97.817441" changeset="false"><tag k="addr:street" v="Blackacre Trail"/><tag k="addr:housenumber" v="1102"/></node><node id="-135" lat="30.296465" lon="-97.801947" changeset="false"><tag k="addr:street" v="Redbud Trail"/><tag k="addr:housenumber" v="401"/></node><node id="-136" lat="30.294108" lon="-97.815218" changeset="false"><tag k="addr:street" v="Madrone Road"/><tag k="addr:housenumber" v="1006"/></node><node id="-137" lat="30.29194" lon="-97.806681" changeset="false"><tag k="addr:street" v="Buckeye Trail"/><tag k="addr:housenumber" v="404"/></node><node id="-138" lat="30.286212" lon="-97.806215" changeset="false"><tag k="addr:street" v="Westlake Drive"/><tag k="addr:housenumber" v="402"/></node><node id="-139" lat="30.287908" lon="-97.805394" changeset="false"><tag k="addr:street" v="Westlake Drive"/><tag k="addr:housenumber" v="500"/></node><node id="-140" lat="30.287304" lon="-97.813272" changeset="false"><tag k="addr:street" v="Bee Caves Road"/><tag k="addr:housenumber" v="4310"/></node><node id="-141" lat="30.29073" lon="-97.817439" changeset="false"><tag k="addr:street" v="Bluff Park Circle"/><tag k="addr:housenumber" v="103"/></node><node id="-142" lat="30.297188" lon="-97.821675" changeset="false"><tag k="addr:street" v="Redbud Trail"/><tag k="addr:housenumber" v="1427"/></node><node id="-143" lat="30.293809" lon="-97.801321" changeset="false"><tag k="addr:street" v="Redbud Trail"/><tag k="addr:housenumber" v="127"/></node></osm>