<?xml version="1.0" encoding="UTF-8"?><osm version="0.6" generator="github.com/aaronlidman/osm-and-geojson"><node id="-1" lat="30.367723" lon="-97.754185" changeset="false"><tag k="addr:street" v="Spicewood Springs Road"/><tag k="addr:housenumber" v="4017"/><tag k="addr:postcode" v="78731"/></node><node id="-2" lat="30.367742" lon="-97.754408" changeset="false"><tag k="addr:street" v="Williamsburg Circle"/><tag k="addr:housenumber" v="3726"/><tag k="addr:postcode" v="78731"/></node><node id="-3" lat="30.364325" lon="-97.749913" changeset="false"><tag k="addr:street" v="Spicewood Springs Road"/><tag k="addr:housenumber" v="3807"/><tag k="addr:postcode" v="78731"/></node><node id="-4" lat="30.365301" lon="-97.750885" changeset="false"><tag k="addr:street" v="Spicewood Springs Road"/><tag k="addr:housenumber" v="3819"/><tag k="addr:postcode" v="78731"/></node><node id="-5" lat="30.367915" lon="-97.756351" changeset="false"><tag k="addr:street" v="Comfort Cove"/><tag k="addr:housenumber" v="7920"/><tag k="addr:postcode" v="78731"/></node><node id="-6" lat="30.366022" lon="-97.751931" changeset="false"><tag k="addr:street" v="Timson Court"/><tag k="addr:housenumber" v="3702"/><tag k="addr:postcode" v="78731"/></node><node id="-7" lat="30.367647" lon="-97.754396" changeset="false"><tag k="addr:street" v="Williamsburg Circle"/><tag k="addr:housenumber" v="3730"/><tag k="addr:postcode" v="78731"/></node><node id="-8" lat="30.367716" lon="-97.753425" changeset="false"><tag k="addr:street" v="Spicewood Springs Road"/><tag k="addr:housenumber" v="4005"/><tag k="addr:postcode" v="78731"/></node><node id="-9" lat="30.365037" lon="-97.758368" changeset="false"><tag k="addr:street" v="Pebble Path"/><tag k="addr:housenumber" v="4001"/><tag k="addr:postcode" v="78731"/></node><node id="-10" lat="30.366738" lon="-97.754189" changeset="false"><tag k="addr:street" v="Williamsburg Circle"/><tag k="addr:housenumber" v="3801"/><tag k="addr:postcode" v="78731"/></node><node id="-11" lat="30.368718" lon="-97.754983" changeset="false"><tag k="addr:street" v="Spicewood Springs Road"/><tag k="addr:housenumber" v="4111"/><tag k="addr:postcode" v="78731"/></node><node id="-12" lat="30.370699" lon="-97.755746" changeset="false"><tag k="addr:street" v="Spicewood Springs Road"/><tag k="addr:housenumber" v="4137"/><tag k="addr:postcode" v="78731"/></node><node id="-13" lat="30.363677" lon="-97.75502" changeset="false"><tag k="addr:street" v="Pleasant Meadow Circle"/><tag k="addr:housenumber" v="7704"/><tag k="addr:postcode" v="78731"/></node><node id="-14" lat="30.366483" lon="-97.752714" changeset="false"><tag k="addr:street" v="Williamsburg Circle"/><tag k="addr:housenumber" v="3880"/><tag k="addr:postcode" v="78731"/></node><node id="-15" lat="30.363811" lon="-97.750448" changeset="false"><tag k="addr:street" v="Hart Lane"/><tag k="addr:housenumber" v="7808"/><tag k="addr:postcode" v="78731"/></node><node id="-16" lat="30.36592" lon="-97.7518" changeset="false"><tag k="addr:street" v="Timson Court"/><tag k="addr:housenumber" v="3700"/><tag k="addr:postcode" v="78731"/></node><node id="-17" lat="30.368077" lon="-97.75635" changeset="false"><tag k="addr:street" v="Comfort Cove"/><tag k="addr:housenumber" v="7924"/><tag k="addr:postcode" v="78731"/></node><node id="-18" lat="30.365882" lon="-97.751215" changeset="false"><tag k="addr:street" v="Spicewood Springs Road"/><tag k="addr:housenumber" v="3901"/><tag k="addr:postcode" v="78731"/></node><node id="-19" lat="30.370527" lon="-97.755629" changeset="false"><tag k="addr:street" v="Spicewood Springs Road"/><tag k="addr:housenumber" v="4135"/><tag k="addr:postcode" v="78731"/></node><node id="-20" lat="30.37134" lon="-97.757199" changeset="false"><tag k="addr:street" v="Forest Mesa Drive"/><tag k="addr:housenumber" v="8045"/><tag k="addr:postcode" v="78731"/></node><node id="-21" lat="30.368693" lon="-97.758284" changeset="false"><tag k="addr:street" v="Mesa Trails Circle"/><tag k="addr:housenumber" v="7962"/><tag k="addr:postcode" v="78731"/></node><node id="-22" lat="30.364568" lon="-97.761251" changeset="false"><tag k="addr:street" v="Rockpoint Circle"/><tag k="addr:housenumber" v="7601"/><tag k="addr:postcode" v="78731"/></node><node id="-23" lat="30.370105" lon="-97.75551" changeset="false"><tag k="addr:street" v="Spicewood Springs Road"/><tag k="addr:housenumber" v="4131"/><tag k="addr:postcode" v="78731"/></node><node id="-24" lat="30.370503" lon="-97.755585" changeset="false"><tag k="addr:street" v="Spicewood Springs Road"/><tag k="addr:housenumber" v="4133"/><tag k="addr:postcode" v="78731"/></node><node id="-25" lat="30.366085" lon="-97.752056" changeset="false"><tag k="addr:street" v="Timson Court"/><tag k="addr:housenumber" v="3704"/><tag k="addr:postcode" v="78731"/></node><node id="-26" lat="30.366162" lon="-97.751564" changeset="false"><tag k="addr:street" v="Spicewood Springs Road"/><tag k="addr:housenumber" v="3933"/><tag k="addr:postcode" v="78731"/></node><node id="-27" lat="30.366466" lon="-97.756385" changeset="false"><tag k="addr:street" v="Myrick Drive"/><tag k="addr:housenumber" v="3916"/><tag k="addr:postcode" v="78731"/></node><node id="-28" lat="30.366264" lon="-97.752356" changeset="false"><tag k="addr:street" v="Williamsburg Circle"/><tag k="addr:housenumber" v="3874"/><tag k="addr:postcode" v="78731"/></node><node id="-29" lat="30.371162" lon="-97.757128" changeset="false"><tag k="addr:street" v="Spicewood Springs Road"/><tag k="addr:housenumber" v="4213"/><tag k="addr:postcode" v="78731"/></node><node id="-30" lat="30.366165" lon="-97.7522" changeset="false"><tag k="addr:street" v="Williamsburg Circle"/><tag k="addr:housenumber" v="3870"/><tag k="addr:postcode" v="78731"/></node><node id="-31" lat="30.370918" lon="-97.756592" changeset="false"><tag k="addr:street" v="Spicewood Springs Road"/><tag k="addr:housenumber" v="4221"/><tag k="addr:postcode" v="78731"/></node><node id="-32" lat="30.366799" lon="-97.753799" changeset="false"><tag k="addr:street" v="Williamsburg Circle"/><tag k="addr:housenumber" v="3707"/><tag k="addr:postcode" v="78731"/></node><node id="-33" lat="30.36766" lon="-97.756555" changeset="false"><tag k="addr:street" v="Comfort Cove"/><tag k="addr:housenumber" v="7912"/><tag k="addr:postcode" v="78731"/></node><node id="-34" lat="30.366129" lon="-97.758935" changeset="false"><tag k="addr:street" v="Stoneywood Drive"/><tag k="addr:housenumber" v="7704"/><tag k="addr:postcode" v="78731"/></node><node id="-35" lat="30.360677" lon="-97.755699" changeset="false"><tag k="addr:street" v="Stonecliff Circle"/><tag k="addr:housenumber" v="7503"/><tag k="addr:postcode" v="78731"/></node><node id="-36" lat="30.367742" lon="-97.754334" changeset="false"><tag k="addr:street" v="Williamsburg Circle"/><tag k="addr:housenumber" v="3728"/><tag k="addr:postcode" v="78731"/></node><node id="-37" lat="30.366414" lon="-97.756276" changeset="false"><tag k="addr:street" v="Myrick Drive"/><tag k="addr:housenumber" v="3912"/><tag k="addr:postcode" v="78731"/></node><node id="-38" lat="30.365662" lon="-97.751959" changeset="false"><tag k="addr:street" v="Timson Court"/><tag k="addr:housenumber" v="3701"/><tag k="addr:postcode" v="78731"/></node><node id="-39" lat="30.365717" lon="-97.752114" changeset="false"><tag k="addr:street" v="Timson Court"/><tag k="addr:housenumber" v="3703"/><tag k="addr:postcode" v="78731"/></node><node id="-40" lat="30.364992" lon="-97.753249" changeset="false"><tag k="addr:street" v="Cavalry Court"/><tag k="addr:housenumber" v="7901"/><tag k="addr:postcode" v="78731"/></node><node id="-41" lat="30.364894" lon="-97.753016" changeset="false"><tag k="addr:street" v="Cavalry Court"/><tag k="addr:housenumber" v="7905"/><tag k="addr:postcode" v="78731"/></node><node id="-42" lat="30.364943" lon="-97.753134" changeset="false"><tag k="addr:street" v="Cavalry Court"/><tag k="addr:housenumber" v="7903"/><tag k="addr:postcode" v="78731"/></node><node id="-43" lat="30.365159" lon="-97.75239" changeset="false"><tag k="addr:street" v="Cavalry Court"/><tag k="addr:housenumber" v="7919"/><tag k="addr:postcode" v="78731"/></node><node id="-44" lat="30.365069" lon="-97.752445" changeset="false"><tag k="addr:street" v="Cavalry Court"/><tag k="addr:housenumber" v="7917"/><tag k="addr:postcode" v="78731"/></node><node id="-45" lat="30.364972" lon="-97.752505" changeset="false"><tag k="addr:street" v="Cavalry Court"/><tag k="addr:housenumber" v="7915"/><tag k="addr:postcode" v="78731"/></node><node id="-46" lat="30.365345" lon="-97.752336" changeset="false"><tag k="addr:street" v="Orrell Court"/><tag k="addr:housenumber" v="3703"/><tag k="addr:postcode" v="78731"/></node><node id="-47" lat="30.365279" lon="-97.752207" changeset="false"><tag k="addr:street" v="Orrell Court"/><tag k="addr:housenumber" v="3701"/><tag k="addr:postcode" v="78731"/></node><node id="-48" lat="30.365547" lon="-97.75279" changeset="false"><tag k="addr:street" v="Orrell Court"/><tag k="addr:housenumber" v="3803"/><tag k="addr:postcode" v="78731"/></node><node id="-49" lat="30.365453" lon="-97.752641" changeset="false"><tag k="addr:street" v="Orrell Court"/><tag k="addr:housenumber" v="3801"/><tag k="addr:postcode" v="78731"/></node><node id="-50" lat="30.366701" lon="-97.753143" changeset="false"><tag k="addr:street" v="Williamsburg Circle"/><tag k="addr:housenumber" v="3886"/><tag k="addr:postcode" v="78731"/></node><node id="-51" lat="30.366607" lon="-97.753016" changeset="false"><tag k="addr:street" v="Williamsburg Circle"/><tag k="addr:housenumber" v="3884"/><tag k="addr:postcode" v="78731"/></node><node id="-52" lat="30.366566" lon="-97.752868" changeset="false"><tag k="addr:street" v="Williamsburg Circle"/><tag k="addr:housenumber" v="3882"/><tag k="addr:postcode" v="78731"/></node><node id="-53" lat="30.366319" lon="-97.752484" changeset="false"><tag k="addr:street" v="Williamsburg Circle"/><tag k="addr:housenumber" v="3876"/><tag k="addr:postcode" v="78731"/></node><node id="-54" lat="30.36641" lon="-97.752618" changeset="false"><tag k="addr:street" v="Williamsburg Circle"/><tag k="addr:housenumber" v="3878"/><tag k="addr:postcode" v="78731"/></node><node id="-55" lat="30.366076" lon="-97.752989" changeset="false"><tag k="addr:street" v="Griffin Court"/><tag k="addr:housenumber" v="7906"/><tag k="addr:postcode" v="78731"/></node><node id="-56" lat="30.365838" lon="-97.753169" changeset="false"><tag k="addr:street" v="Griffin Court"/><tag k="addr:housenumber" v="7902"/><tag k="addr:postcode" v="78731"/></node><node id="-57" lat="30.365732" lon="-97.753245" changeset="false"><tag k="addr:street" v="Griffin Court"/><tag k="addr:housenumber" v="7900"/><tag k="addr:postcode" v="78731"/></node><node id="-58" lat="30.366182" lon="-97.752906" changeset="false"><tag k="addr:street" v="Griffin Court"/><tag k="addr:housenumber" v="7908"/><tag k="addr:postcode" v="78731"/></node><node id="-59" lat="30.365968" lon="-97.753077" changeset="false"><tag k="addr:street" v="Griffin Court"/><tag k="addr:housenumber" v="7904"/><tag k="addr:postcode" v="78731"/></node><node id="-60" lat="30.365931" lon="-97.752734" changeset="false"><tag k="addr:street" v="Griffin Court"/><tag k="addr:housenumber" v="7907"/><tag k="addr:postcode" v="78731"/></node><node id="-61" lat="30.366044" lon="-97.752638" changeset="false"><tag k="addr:street" v="Griffin Court"/><tag k="addr:housenumber" v="7909"/><tag k="addr:postcode" v="78731"/></node><node id="-62" lat="30.365808" lon="-97.752812" changeset="false"><tag k="addr:street" v="Griffin Court"/><tag k="addr:housenumber" v="7905"/><tag k="addr:postcode" v="78731"/></node><node id="-63" lat="30.365583" lon="-97.752961" changeset="false"><tag k="addr:street" v="Griffin Court"/><tag k="addr:housenumber" v="7901"/><tag k="addr:postcode" v="78731"/></node><node id="-64" lat="30.365695" lon="-97.752907" changeset="false"><tag k="addr:street" v="Griffin Court"/><tag k="addr:housenumber" v="7903"/><tag k="addr:postcode" v="78731"/></node><node id="-65" lat="30.366098" lon="-97.753264" changeset="false"><tag k="addr:street" v="Bracken Court"/><tag k="addr:housenumber" v="7903"/><tag k="addr:postcode" v="78731"/></node><node id="-66" lat="30.36597" lon="-97.753347" changeset="false"><tag k="addr:street" v="Bracken Court"/><tag k="addr:housenumber" v="7901"/><tag k="addr:postcode" v="78731"/></node><node id="-67" lat="30.366326" lon="-97.753099" changeset="false"><tag k="addr:street" v="Bracken Court"/><tag k="addr:housenumber" v="7907"/><tag k="addr:postcode" v="78731"/></node><node id="-68" lat="30.366204" lon="-97.753182" changeset="false"><tag k="addr:street" v="Bracken Court"/><tag k="addr:housenumber" v="7905"/><tag k="addr:postcode" v="78731"/></node><node id="-69" lat="30.36551" lon="-97.752055" changeset="false"><tag k="addr:street" v="Orrell Court"/><tag k="addr:housenumber" v="3700"/><tag k="addr:postcode" v="78731"/></node><node id="-70" lat="30.365579" lon="-97.752212" changeset="false"><tag k="addr:street" v="Orrell Court"/><tag k="addr:housenumber" v="3702"/><tag k="addr:postcode" v="78731"/></node><node id="-71" lat="30.365708" lon="-97.752491" changeset="false"><tag k="addr:street" v="Orrell Court"/><tag k="addr:housenumber" v="3800"/><tag k="addr:postcode" v="78731"/></node><node id="-72" lat="30.365802" lon="-97.75262" changeset="false"><tag k="addr:street" v="Orrell Court"/><tag k="addr:housenumber" v="3802"/><tag k="addr:postcode" v="78731"/></node><node id="-73" lat="30.364771" lon="-97.752775" changeset="false"><tag k="addr:street" v="Cavalry Court"/><tag k="addr:housenumber" v="7909"/><tag k="addr:postcode" v="78731"/></node><node id="-74" lat="30.364725" lon="-97.752672" changeset="false"><tag k="addr:street" v="Cavalry Court"/><tag k="addr:housenumber" v="7911"/><tag k="addr:postcode" v="78731"/></node><node id="-75" lat="30.364822" lon="-97.752881" changeset="false"><tag k="addr:street" v="Cavalry Court"/><tag k="addr:housenumber" v="7907"/><tag k="addr:postcode" v="78731"/></node><node id="-76" lat="30.365513" lon="-97.753433" changeset="false"><tag k="addr:street" v="Williamsburg Circle"/><tag k="addr:housenumber" v="3859"/><tag k="addr:postcode" v="78731"/></node><node id="-77" lat="30.365458" lon="-97.75332" changeset="false"><tag k="addr:street" v="Williamsburg Circle"/><tag k="addr:housenumber" v="3861"/><tag k="addr:postcode" v="78731"/></node><node id="-78" lat="30.365624" lon="-97.753641" changeset="false"><tag k="addr:street" v="Williamsburg Circle"/><tag k="addr:housenumber" v="3855"/><tag k="addr:postcode" v="78731"/></node><node id="-79" lat="30.365423" lon="-97.753218" changeset="false"><tag k="addr:street" v="Williamsburg Circle"/><tag k="addr:housenumber" v="3863"/><tag k="addr:postcode" v="78731"/></node><node id="-80" lat="30.365567" lon="-97.753529" changeset="false"><tag k="addr:street" v="Williamsburg Circle"/><tag k="addr:housenumber" v="3857"/><tag k="addr:postcode" v="78731"/></node><node id="-81" lat="30.365374" lon="-97.753106" changeset="false"><tag k="addr:street" v="Williamsburg Circle"/><tag k="addr:housenumber" v="3865"/><tag k="addr:postcode" v="78731"/></node><node id="-82" lat="30.365331" lon="-97.752989" changeset="false"><tag k="addr:street" v="Williamsburg Circle"/><tag k="addr:housenumber" v="3867"/><tag k="addr:postcode" v="78731"/></node><node id="-83" lat="30.367158" lon="-97.753703" changeset="false"><tag k="addr:street" v="Williamsburg Circle"/><tag k="addr:housenumber" v="3708"/><tag k="addr:postcode" v="78731"/></node><node id="-84" lat="30.36694" lon="-97.753435" changeset="false"><tag k="addr:street" v="Williamsburg Circle"/><tag k="addr:housenumber" v="3702"/><tag k="addr:postcode" v="78731"/></node><node id="-85" lat="30.367016" lon="-97.753522" changeset="false"><tag k="addr:street" v="Williamsburg Circle"/><tag k="addr:housenumber" v="3704"/><tag k="addr:postcode" v="78731"/></node><node id="-86" lat="30.367079" lon="-97.753621" changeset="false"><tag k="addr:street" v="Williamsburg Circle"/><tag k="addr:housenumber" v="3706"/><tag k="addr:postcode" v="78731"/></node><node id="-87" lat="30.365887" lon="-97.754129" changeset="false"><tag k="addr:street" v="Williamsburg Circle"/><tag k="addr:housenumber" v="3845"/><tag k="addr:postcode" v="78731"/></node><node id="-88" lat="30.36571" lon="-97.753812" changeset="false"><tag k="addr:street" v="Williamsburg Circle"/><tag k="addr:housenumber" v="3851"/><tag k="addr:postcode" v="78731"/></node><node id="-89" lat="30.365773" lon="-97.753927" changeset="false"><tag k="addr:street" v="Williamsburg Circle"/><tag k="addr:housenumber" v="3849"/><tag k="addr:postcode" v="78731"/></node><node id="-90" lat="30.365936" lon="-97.754238" changeset="false"><tag k="addr:street" v="Williamsburg Circle"/><tag k="addr:housenumber" v="3843"/><tag k="addr:postcode" v="78731"/></node><node id="-91" lat="30.365833" lon="-97.754017" changeset="false"><tag k="addr:street" v="Williamsburg Circle"/><tag k="addr:housenumber" v="3847"/><tag k="addr:postcode" v="78731"/></node><node id="-92" lat="30.366124" lon="-97.753603" changeset="false"><tag k="addr:street" v="Bracken Court"/><tag k="addr:housenumber" v="7900"/><tag k="addr:postcode" v="78731"/></node><node id="-93" lat="30.366454" lon="-97.753327" changeset="false"><tag k="addr:street" v="Bracken Court"/><tag k="addr:housenumber" v="7906"/><tag k="addr:postcode" v="78731"/></node><node id="-94" lat="30.366229" lon="-97.753498" changeset="false"><tag k="addr:street" v="Bracken Court"/><tag k="addr:housenumber" v="7902"/><tag k="addr:postcode" v="78731"/></node><node id="-95" lat="30.366337" lon="-97.75341" changeset="false"><tag k="addr:street" v="Bracken Court"/><tag k="addr:housenumber" v="7904"/><tag k="addr:postcode" v="78731"/></node><node id="-96" lat="30.366843" lon="-97.753952" changeset="false"><tag k="addr:street" v="Williamsburg Circle"/><tag k="addr:housenumber" v="3709"/><tag k="addr:postcode" v="78731"/></node><node id="-97" lat="30.366908" lon="-97.754037" changeset="false"><tag k="addr:street" v="Williamsburg Circle"/><tag k="addr:housenumber" v="3711"/><tag k="addr:postcode" v="78731"/></node><node id="-98" lat="30.367251" lon="-97.753844" changeset="false"><tag k="addr:street" v="Williamsburg Circle"/><tag k="addr:housenumber" v="3712"/><tag k="addr:postcode" v="78731"/></node><node id="-99" lat="30.367365" lon="-97.754023" changeset="false"><tag k="addr:street" v="Williamsburg Circle"/><tag k="addr:housenumber" v="3716"/><tag k="addr:postcode" v="78731"/></node><node id="-100" lat="30.367441" lon="-97.75412" changeset="false"><tag k="addr:street" v="Williamsburg Circle"/><tag k="addr:housenumber" v="3718"/><tag k="addr:postcode" v="78731"/></node><node id="-101" lat="30.367313" lon="-97.753934" changeset="false"><tag k="addr:street" v="Williamsburg Circle"/><tag k="addr:housenumber" v="3714"/><tag k="addr:postcode" v="78731"/></node><node id="-102" lat="30.365241" lon="-97.753721" changeset="false"><tag k="addr:street" v="Williamsburg Circle"/><tag k="addr:housenumber" v="3858"/><tag k="addr:postcode" v="78731"/></node><node id="-103" lat="30.365412" lon="-97.754029" changeset="false"><tag k="addr:street" v="Williamsburg Circle"/><tag k="addr:housenumber" v="3852"/><tag k="addr:postcode" v="78731"/></node><node id="-104" lat="30.365292" lon="-97.753821" changeset="false"><tag k="addr:street" v="Williamsburg Circle"/><tag k="addr:housenumber" v="3856"/><tag k="addr:postcode" v="78731"/></node><node id="-105" lat="30.36535" lon="-97.75393" changeset="false"><tag k="addr:street" v="Williamsburg Circle"/><tag k="addr:housenumber" v="3854"/><tag k="addr:postcode" v="78731"/></node><node id="-106" lat="30.365073" lon="-97.753358" changeset="false"><tag k="addr:street" v="Williamsburg Circle"/><tag k="addr:housenumber" v="3866"/><tag k="addr:postcode" v="78731"/></node><node id="-107" lat="30.365166" lon="-97.753578" changeset="false"><tag k="addr:street" v="Williamsburg Circle"/><tag k="addr:housenumber" v="3862"/><tag k="addr:postcode" v="78731"/></node><node id="-108" lat="30.365123" lon="-97.753472" changeset="false"><tag k="addr:street" v="Williamsburg Circle"/><tag k="addr:housenumber" v="3864"/><tag k="addr:postcode" v="78731"/></node><node id="-109" lat="30.36562" lon="-97.754388" changeset="false"><tag k="addr:street" v="Williamsburg Circle"/><tag k="addr:housenumber" v="3844"/><tag k="addr:postcode" v="78731"/></node><node id="-110" lat="30.365566" lon="-97.754286" changeset="false"><tag k="addr:street" v="Williamsburg Circle"/><tag k="addr:housenumber" v="3846"/><tag k="addr:postcode" v="78731"/></node><node id="-111" lat="30.365503" lon="-97.754178" changeset="false"><tag k="addr:street" v="Williamsburg Circle"/><tag k="addr:housenumber" v="3848"/><tag k="addr:postcode" v="78731"/></node><node id="-112" lat="30.36568" lon="-97.75449" changeset="false"><tag k="addr:street" v="Williamsburg Circle"/><tag k="addr:housenumber" v="3842"/><tag k="addr:postcode" v="78731"/></node><node id="-113" lat="30.367589" lon="-97.754538" changeset="false"><tag k="addr:street" v="Williamsburg Circle"/><tag k="addr:housenumber" v="3804"/><tag k="addr:postcode" v="78731"/></node><node id="-114" lat="30.367428" lon="-97.754606" changeset="false"><tag k="addr:street" v="Williamsburg Circle"/><tag k="addr:housenumber" v="3808"/><tag k="addr:postcode" v="78731"/></node><node id="-115" lat="30.367501" lon="-97.754549" changeset="false"><tag k="addr:street" v="Williamsburg Circle"/><tag k="addr:housenumber" v="3806"/><tag k="addr:postcode" v="78731"/></node><node id="-116" lat="30.367268" lon="-97.754693" changeset="false"><tag k="addr:street" v="Williamsburg Circle"/><tag k="addr:housenumber" v="3812"/><tag k="addr:postcode" v="78731"/></node><node id="-117" lat="30.367167" lon="-97.754732" changeset="false"><tag k="addr:street" v="Williamsburg Circle"/><tag k="addr:housenumber" v="3814"/><tag k="addr:postcode" v="78731"/></node><node id="-118" lat="30.366976" lon="-97.754817" changeset="false"><tag k="addr:street" v="Williamsburg Circle"/><tag k="addr:housenumber" v="3818"/><tag k="addr:postcode" v="78731"/></node><node id="-119" lat="30.367363" lon="-97.754638" changeset="false"><tag k="addr:street" v="Williamsburg Circle"/><tag k="addr:housenumber" v="3810"/><tag k="addr:postcode" v="78731"/></node><node id="-120" lat="30.367077" lon="-97.754779" changeset="false"><tag k="addr:street" v="Williamsburg Circle"/><tag k="addr:housenumber" v="3816"/><tag k="addr:postcode" v="78731"/></node><node id="-121" lat="30.365876" lon="-97.754829" changeset="false"><tag k="addr:street" v="Williamsburg Circle"/><tag k="addr:housenumber" v="3834"/><tag k="addr:postcode" v="78731"/></node><node id="-122" lat="30.365757" lon="-97.754627" changeset="false"><tag k="addr:street" v="Williamsburg Circle"/><tag k="addr:housenumber" v="3838"/><tag k="addr:postcode" v="78731"/></node><node id="-123" lat="30.365939" lon="-97.754933" changeset="false"><tag k="addr:street" v="Williamsburg Circle"/><tag k="addr:housenumber" v="3832"/><tag k="addr:postcode" v="78731"/></node><node id="-124" lat="30.36582" lon="-97.754736" changeset="false"><tag k="addr:street" v="Williamsburg Circle"/><tag k="addr:housenumber" v="3836"/><tag k="addr:postcode" v="78731"/></node><node id="-125" lat="30.366993" lon="-97.754157" changeset="false"><tag k="addr:street" v="Williamsburg Circle"/><tag k="addr:housenumber" v="3715"/><tag k="addr:postcode" v="78731"/></node><node id="-126" lat="30.367134" lon="-97.754336" changeset="false"><tag k="addr:street" v="Williamsburg Circle"/><tag k="addr:housenumber" v="3719"/><tag k="addr:postcode" v="78731"/></node><node id="-127" lat="30.367061" lon="-97.754241" changeset="false"><tag k="addr:street" v="Williamsburg Circle"/><tag k="addr:housenumber" v="3717"/><tag k="addr:postcode" v="78731"/></node><node id="-128" lat="30.366805" lon="-97.754926" changeset="false"><tag k="addr:street" v="Williamsburg Circle"/><tag k="addr:housenumber" v="3822"/><tag k="addr:postcode" v="78731"/></node><node id="-129" lat="30.366511" lon="-97.755042" changeset="false"><tag k="addr:street" v="Williamsburg Circle"/><tag k="addr:housenumber" v="3828"/><tag k="addr:postcode" v="78731"/></node><node id="-130" lat="30.366606" lon="-97.755009" changeset="false"><tag k="addr:street" v="Williamsburg Circle"/><tag k="addr:housenumber" v="3826"/><tag k="addr:postcode" v="78731"/></node><node id="-131" lat="30.366404" lon="-97.75507" changeset="false"><tag k="addr:street" v="Williamsburg Circle"/><tag k="addr:housenumber" v="3830"/><tag k="addr:postcode" v="78731"/></node><node id="-132" lat="30.366707" lon="-97.754967" changeset="false"><tag k="addr:street" v="Williamsburg Circle"/><tag k="addr:housenumber" v="3824"/><tag k="addr:postcode" v="78731"/></node><node id="-133" lat="30.366851" lon="-97.75445" changeset="false"><tag k="addr:street" v="Williamsburg Circle"/><tag k="addr:housenumber" v="3817"/><tag k="addr:postcode" v="78731"/></node><node id="-134" lat="30.366929" lon="-97.754373" changeset="false"><tag k="addr:street" v="Williamsburg Circle"/><tag k="addr:housenumber" v="3815"/><tag k="addr:postcode" v="78731"/></node><node id="-135" lat="30.366177" lon="-97.755269" changeset="false"><tag k="addr:street" v="Charleston Place"/><tag k="addr:housenumber" v="7904"/><tag k="addr:postcode" v="78731"/></node><node id="-136" lat="30.366258" lon="-97.755214" changeset="false"><tag k="addr:street" v="Charleston Place"/><tag k="addr:housenumber" v="7906"/><tag k="addr:postcode" v="78731"/></node><node id="-137" lat="30.366093" lon="-97.755337" changeset="false"><tag k="addr:street" v="Charleston Place"/><tag k="addr:housenumber" v="7902"/><tag k="addr:postcode" v="78731"/></node><node id="-138" lat="30.368574" lon="-97.758093" changeset="false"><tag k="addr:street" v="Mesa Trails Circle"/><tag k="addr:housenumber" v="7960"/><tag k="addr:postcode" v="78731"/></node><node id="-139" lat="30.368471" lon="-97.758147" changeset="false"><tag k="addr:street" v="Mesa Trails Circle"/><tag k="addr:housenumber" v="7958"/><tag k="addr:postcode" v="78731"/></node></osm>