<?xml version="1.0" encoding="UTF-8"?><osm version="0.6" generator="github.com/aaronlidman/osm-and-geojson"><node id="-1" lat="30.287911" lon="-97.744843" changeset="false"><tag k="addr:street" v="Rio Grande Street"/><tag k="addr:housenumber" v="2312"/><tag k="addr:postcode" v="78705"/></node><node id="-2" lat="30.284406" lon="-97.745538" changeset="false"><tag k="addr:street" v="West 21st Street"/><tag k="addr:housenumber" v="702"/><tag k="addr:postcode" v="78705"/></node><node id="-3" lat="30.28527" lon="-97.747301" changeset="false"><tag k="addr:street" v="West 22nd Street"/><tag k="addr:housenumber" v="907"/><tag k="addr:postcode" v="78705"/></node><node id="-4" lat="30.287934" lon="-97.747452" changeset="false"><tag k="addr:street" v="West 24th Street"/><tag k="addr:housenumber" v="911"/><tag k="addr:postcode" v="78705"/></node><node id="-5" lat="30.28425" lon="-97.745953" changeset="false"><tag k="addr:street" v="West 21st Street"/><tag k="addr:housenumber" v="706"/><tag k="addr:postcode" v="78705"/></node><node id="-6" lat="30.283943" lon="-97.745923" changeset="false"><tag k="addr:street" v="West 21st Street"/><tag k="addr:housenumber" v="707"/><tag k="addr:postcode" v="78705"/></node><node id="-7" lat="30.286853" lon="-97.745011" changeset="false"><tag k="addr:street" v="Rio Grande Street"/><tag k="addr:housenumber" v="2222"/><tag k="addr:postcode" v="78705"/></node><node id="-8" lat="30.286422" lon="-97.746122" changeset="false"><tag k="addr:street" v="Rio Grande Street"/><tag k="addr:housenumber" v="2216"/><tag k="addr:postcode" v="78705"/></node><node id="-9" lat="30.285016" lon="-97.746708" changeset="false"><tag k="addr:street" v="Pearl Street"/><tag k="addr:housenumber" v="2104"/><tag k="addr:postcode" v="78705"/></node><node id="-10" lat="30.285127" lon="-97.746699" changeset="false"><tag k="addr:street" v="Pearl Street"/><tag k="addr:housenumber" v="2106"/><tag k="addr:postcode" v="78705"/></node><node id="-11" lat="30.283296" lon="-97.746183" changeset="false"><tag k="addr:street" v="West Martin Luther King Jr Boulevard"/><tag k="addr:housenumber" v="706"/><tag k="addr:postcode" v="78705"/></node><node id="-12" lat="30.285293" lon="-97.747237" changeset="false"><tag k="addr:street" v="West 22nd Street"/><tag k="addr:housenumber" v="905"/><tag k="addr:postcode" v="78705"/></node><node id="-13" lat="30.287376" lon="-97.744935" changeset="false"><tag k="addr:street" v="Rio Grande Street"/><tag k="addr:housenumber" v="2300"/><tag k="addr:postcode" v="78705"/></node><node id="-14" lat="30.283662" lon="-97.745465" changeset="false"><tag k="addr:street" v="Rio Grande Street"/><tag k="addr:housenumber" v="1906"/><tag k="addr:postcode" v="78705"/></node><node id="-15" lat="30.283659" lon="-97.746999" changeset="false"><tag k="addr:street" v="Pearl Street"/><tag k="addr:housenumber" v="1904"/><tag k="addr:postcode" v="78705"/></node><node id="-16" lat="30.284739" lon="-97.747898" changeset="false"><tag k="addr:street" v="West 21st Street"/><tag k="addr:housenumber" v="915"/><tag k="addr:postcode" v="78705"/></node><node id="-17" lat="30.284909" lon="-97.746904" changeset="false"><tag k="addr:street" v="West 21st Street"/><tag k="addr:housenumber" v="904"/><tag k="addr:postcode" v="78705"/></node><node id="-18" lat="30.285351" lon="-97.746674" changeset="false"><tag k="addr:street" v="Pearl Street"/><tag k="addr:housenumber" v="2110"/><tag k="addr:postcode" v="78705"/></node><node id="-19" lat="30.287455" lon="-97.745582" changeset="false"><tag k="addr:street" v="West 23rd Street"/><tag k="addr:housenumber" v="706"/><tag k="addr:postcode" v="78705"/></node><node id="-20" lat="30.284919" lon="-97.747044" changeset="false"><tag k="addr:street" v="West 21st Street"/><tag k="addr:housenumber" v="906"/><tag k="addr:postcode" v="78705"/></node><node id="-21" lat="30.287937" lon="-97.747586" changeset="false"><tag k="addr:street" v="West 24th Street"/><tag k="addr:housenumber" v="915"/><tag k="addr:postcode" v="78705"/></node><node id="-22" lat="30.285197" lon="-97.746995" changeset="false"><tag k="addr:street" v="West 22nd Street"/><tag k="addr:housenumber" v="901"/><tag k="addr:postcode" v="78705"/></node><node id="-23" lat="30.28754" lon="-97.745151" changeset="false"><tag k="addr:street" v="West 23rd Street"/><tag k="addr:housenumber" v="708"/><tag k="addr:postcode" v="78705"/></node><node id="-24" lat="30.287693" lon="-97.744926" changeset="false"><tag k="addr:street" v="Rio Grande Street"/><tag k="addr:housenumber" v="2308"/><tag k="addr:postcode" v="78705"/></node><node id="-25" lat="30.286064" lon="-97.746634" changeset="false"><tag k="addr:street" v="Pearl Street"/><tag k="addr:housenumber" v="2208"/><tag k="addr:postcode" v="78705"/></node><node id="-26" lat="30.286104" lon="-97.746824" changeset="false"><tag k="addr:street" v="West 22nd Street"/><tag k="addr:housenumber" v="903"/><tag k="addr:postcode" v="78705"/></node><node id="-27" lat="30.286815" lon="-97.746534" changeset="false"><tag k="addr:street" v="Pearl Street"/><tag k="addr:housenumber" v="2220"/><tag k="addr:postcode" v="78705"/></node><node id="-28" lat="30.287205" lon="-97.746853" changeset="false"><tag k="addr:street" v="West 23rd Street"/><tag k="addr:housenumber" v="907"/><tag k="addr:postcode" v="78705"/></node><node id="-29" lat="30.287573" lon="-97.746759" changeset="false"><tag k="addr:street" v="West 23rd Street"/><tag k="addr:housenumber" v="900"/><tag k="addr:postcode" v="78705"/></node><node id="-30" lat="30.287637" lon="-97.746814" changeset="false"><tag k="addr:street" v="West 23rd Street"/><tag k="addr:housenumber" v="904"/><tag k="addr:postcode" v="78705"/></node><node id="-31" lat="30.287859" lon="-97.746298" changeset="false"><tag k="addr:street" v="West 24th Street"/><tag k="addr:housenumber" v="801"/><tag k="addr:postcode" v="78705"/></node><node id="-32" lat="30.284899" lon="-97.746776" changeset="false"><tag k="addr:street" v="West 21st Street"/><tag k="addr:housenumber" v="902"/><tag k="addr:postcode" v="78705"/></node><node id="-33" lat="30.284902" lon="-97.746725" changeset="false"><tag k="addr:street" v="Pearl Street"/><tag k="addr:housenumber" v="2102"/><tag k="addr:postcode" v="78705"/></node><node id="-34" lat="30.285012" lon="-97.746304" changeset="false"><tag k="addr:street" v="West 22nd Street"/><tag k="addr:housenumber" v="717"/><tag k="addr:postcode" v="78705"/></node><node id="-35" lat="30.284986" lon="-97.745964" changeset="false"><tag k="addr:street" v="West 22nd Street"/><tag k="addr:housenumber" v="709"/><tag k="addr:postcode" v="78705"/></node><node id="-36" lat="30.285617" lon="-97.747017" changeset="false"><tag k="addr:street" v="West 22nd Street"/><tag k="addr:housenumber" v="904"/><tag k="addr:postcode" v="78705"/></node><node id="-37" lat="30.28553" lon="-97.746735" changeset="false"><tag k="addr:street" v="West 22nd Street"/><tag k="addr:housenumber" v="900"/><tag k="addr:postcode" v="78705"/></node><node id="-38" lat="30.28563" lon="-97.746709" changeset="false"><tag k="addr:street" v="Pearl Street"/><tag k="addr:housenumber" v="2200"/><tag k="addr:postcode" v="78705"/></node><node id="-39" lat="30.285583" lon="-97.745976" changeset="false"><tag k="addr:street" v="West 22nd Street"/><tag k="addr:housenumber" v="710"/><tag k="addr:postcode" v="78705"/></node><node id="-40" lat="30.285571" lon="-97.74615" changeset="false"><tag k="addr:street" v="West 22nd Street"/><tag k="addr:housenumber" v="712"/><tag k="addr:postcode" v="78705"/></node><node id="-41" lat="30.285731" lon="-97.746323" changeset="false"><tag k="addr:street" v="Pearl Street"/><tag k="addr:housenumber" v="2205"/><tag k="addr:postcode" v="78705"/></node><node id="-42" lat="30.285507" lon="-97.746309" changeset="false"><tag k="addr:street" v="West 22nd Street"/><tag k="addr:housenumber" v="714"/><tag k="addr:postcode" v="78705"/></node><node id="-43" lat="30.285833" lon="-97.74538" changeset="false"><tag k="addr:street" v="Rio Grande Street"/><tag k="addr:housenumber" v="2206"/><tag k="addr:postcode" v="78705"/></node><node id="-44" lat="30.285845" lon="-97.745064" changeset="false"><tag k="addr:street" v="Rio Grande Street"/><tag k="addr:housenumber" v="2204"/><tag k="addr:postcode" v="78705"/></node><node id="-45" lat="30.284382" lon="-97.746439" changeset="false"><tag k="addr:street" v="West 21st Street"/><tag k="addr:housenumber" v="714"/><tag k="addr:postcode" v="78705"/></node><node id="-46" lat="30.284389" lon="-97.746331" changeset="false"><tag k="addr:street" v="West 21st Street"/><tag k="addr:housenumber" v="712"/><tag k="addr:postcode" v="78705"/></node><node id="-47" lat="30.287652" lon="-97.747111" changeset="false"><tag k="addr:street" v="West 23rd Street"/><tag k="addr:housenumber" v="908"/><tag k="addr:postcode" v="78705"/></node><node id="-48" lat="30.287638" lon="-97.746961" changeset="false"><tag k="addr:street" v="West 23rd Street"/><tag k="addr:housenumber" v="906"/><tag k="addr:postcode" v="78705"/></node><node id="-49" lat="30.287645" lon="-97.747408" changeset="false"><tag k="addr:street" v="West 23rd Street"/><tag k="addr:housenumber" v="912"/><tag k="addr:postcode" v="78705"/></node><node id="-50" lat="30.28768" lon="-97.747647" changeset="false"><tag k="addr:street" v="West 23rd Street"/><tag k="addr:housenumber" v="916"/><tag k="addr:postcode" v="78705"/></node><node id="-51" lat="30.287661" lon="-97.747265" changeset="false"><tag k="addr:street" v="West 23rd Street"/><tag k="addr:housenumber" v="910"/><tag k="addr:postcode" v="78705"/></node><node id="-52" lat="30.287172" lon="-97.747576" changeset="false"><tag k="addr:street" v="West 23rd Street"/><tag k="addr:housenumber" v="915"/><tag k="addr:postcode" v="78705"/></node><node id="-53" lat="30.286912" lon="-97.747636" changeset="false"><tag k="addr:street" v="San Gabriel Street"/><tag k="addr:housenumber" v="2217"/><tag k="addr:postcode" v="78705"/></node><node id="-54" lat="30.283713" lon="-97.747756" changeset="false"><tag k="addr:street" v="West Martin Luther King Jr Boulevard"/><tag k="addr:housenumber" v="910"/><tag k="addr:postcode" v="78705"/></node><node id="-55" lat="30.283684" lon="-97.747548" changeset="false"><tag k="addr:street" v="West Martin Luther King Jr Boulevard"/><tag k="addr:housenumber" v="908"/><tag k="addr:postcode" v="78705"/></node><node id="-56" lat="30.283648" lon="-97.747389" changeset="false"><tag k="addr:street" v="West Martin Luther King Jr Boulevard"/><tag k="addr:housenumber" v="906"/><tag k="addr:postcode" v="78705"/></node><node id="-57" lat="30.283899" lon="-97.748051" changeset="false"><tag k="addr:street" v="San Gabriel Street"/><tag k="addr:housenumber" v="1903"/><tag k="addr:postcode" v="78705"/></node><node id="-58" lat="30.283757" lon="-97.748021" changeset="false"><tag k="addr:street" v="West Martin Luther King Jr Boulevard"/><tag k="addr:housenumber" v="912"/><tag k="addr:postcode" v="78705"/></node><node id="-59" lat="30.284685" lon="-97.747461" changeset="false"><tag k="addr:street" v="West 21st Street"/><tag k="addr:housenumber" v="911"/><tag k="addr:postcode" v="78705"/></node><node id="-60" lat="30.28465" lon="-97.746849" changeset="false"><tag k="addr:street" v="West 21st Street"/><tag k="addr:housenumber" v="901"/><tag k="addr:postcode" v="78705"/></node><node id="-61" lat="30.284986" lon="-97.747608" changeset="false"><tag k="addr:street" v="West 21st Street"/><tag k="addr:housenumber" v="910"/><tag k="addr:postcode" v="78705"/></node><node id="-62" lat="30.285005" lon="-97.747861" changeset="false"><tag k="addr:street" v="San Gabriel Street"/><tag k="addr:housenumber" v="2101"/><tag k="addr:postcode" v="78705"/></node></osm>