<?xml version="1.0" encoding="UTF-8"?><osm version="0.6" generator="github.com/aaronlidman/osm-and-geojson"><node id="-1" lat="30.314631" lon="-97.755329" changeset="false"><tag k="addr:street" v="Jackson Avenue"/><tag k="addr:housenumber" v="4102"/><tag k="coa:place_id" v="437608"/></node><node id="-2" lat="30.310664" lon="-97.750335" changeset="false"><tag k="addr:street" v="Petes Path"/><tag k="addr:housenumber" v="3813"/><tag k="coa:place_id" v="248933"/></node><node id="-3" lat="30.308671" lon="-97.754042" changeset="false"><tag k="addr:street" v="West 35th Street,1110"/><tag k="addr:housenumber" v="1818"/><tag k="coa:place_id" v="253479"/></node><node id="-4" lat="30.316004" lon="-97.75506" changeset="false"><tag k="addr:street" v="Jackson Avenue"/><tag k="addr:housenumber" v="4208"/><tag k="coa:place_id" v="714002"/></node><node id="-5" lat="30.315339" lon="-97.755263" changeset="false"><tag k="addr:street" v="Jackson Avenue"/><tag k="addr:housenumber" v="4200"/><tag k="coa:place_id" v="408111"/></node><node id="-6" lat="30.311325" lon="-97.75161" changeset="false"><tag k="addr:street" v="Ridgelea Drive"/><tag k="addr:housenumber" v="3822"/><tag k="coa:place_id" v="249817"/></node><node id="-7" lat="30.311192" lon="-97.755997" changeset="false"><tag k="addr:street" v="Jackson Avenue"/><tag k="addr:housenumber" v="3706"/><tag k="coa:place_id" v="3094075"/></node><node id="-8" lat="30.312093" lon="-97.74906" changeset="false"><tag k="addr:street" v="Jefferson Street"/><tag k="addr:housenumber" v="4003"/><tag k="coa:place_id" v="224748"/></node><node id="-9" lat="30.316462" lon="-97.754807" changeset="false"><tag k="addr:street" v="Bull Creek Road"/><tag k="addr:housenumber" v="4224 1/2"/><tag k="coa:place_id" v="3430721"/></node><node id="-10" lat="30.313468" lon="-97.75344" changeset="false"><tag k="addr:street" v="West 40th Street"/><tag k="addr:housenumber" v="1900"/><tag k="coa:place_id" v="713810"/></node><node id="-11" lat="30.313457" lon="-97.753051" changeset="false"><tag k="addr:street" v="Bull Creek Road"/><tag k="addr:housenumber" v="4003 1/2"/><tag k="coa:place_id" v="3124096"/></node><node id="-12" lat="30.311578" lon="-97.751252" changeset="false"><tag k="addr:street" v="Ridgelea Drive"/><tag k="addr:housenumber" v="3901"/><tag k="coa:place_id" v="630974"/></node><node id="-13" lat="30.311104" lon="-97.753136" changeset="false"><tag k="addr:street" v="West 38th Street"/><tag k="addr:housenumber" v="1817"/><tag k="coa:place_id" v="3045652"/></node><node id="-14" lat="30.312576" lon="-97.750939" changeset="false"><tag k="addr:street" v="Ridgelea Drive"/><tag k="addr:housenumber" v="4000"/><tag k="coa:place_id" v="631154"/></node><node id="-15" lat="30.308052" lon="-97.749627" changeset="false"><tag k="addr:street" v="Old West 38th Street"/><tag k="addr:housenumber" v="1509"/><tag k="coa:place_id" v="614469"/></node><node id="-16" lat="30.310855" lon="-97.750571" changeset="false"><tag k="addr:street" v="Petes Path"/><tag k="addr:housenumber" v="3810"/><tag k="coa:place_id" v="631208"/></node><node id="-17" lat="30.308847" lon="-97.752178" changeset="false"><tag k="addr:street" v="Lawton Avenue"/><tag k="addr:housenumber" v="3511"/><tag k="coa:place_id" v="631358"/></node><node id="-18" lat="30.308847" lon="-97.755059" changeset="false"><tag k="addr:street" v="West 35th Street,1110"/><tag k="addr:housenumber" v="1904"/><tag k="coa:place_id" v="631586"/></node><node id="-19" lat="30.307201" lon="-97.750593" changeset="false"><tag k="addr:street" v="Kerbey Lane"/><tag k="addr:housenumber" v="3503"/><tag k="coa:place_id" v="596888"/></node><node id="-20" lat="30.307164" lon="-97.750404" changeset="false"><tag k="addr:street" v="West 35th Street,1110"/><tag k="addr:housenumber" v="1514"/><tag k="coa:place_id" v="596876"/></node><node id="-21" lat="30.311752" lon="-97.749079" changeset="false"><tag k="addr:street" v="Jefferson Street"/><tag k="addr:housenumber" v="3913"/><tag k="coa:place_id" v="630740"/></node><node id="-22" lat="30.311582" lon="-97.749084" changeset="false"><tag k="addr:street" v="Jefferson Street"/><tag k="addr:housenumber" v="3911"/><tag k="coa:place_id" v="630734"/></node><node id="-23" lat="30.31353" lon="-97.755351" changeset="false"><tag k="addr:street" v="Jackson Avenue"/><tag k="addr:housenumber" v="3914 1/2"/><tag k="coa:place_id" v="5116976"/></node><node id="-24" lat="30.307287" lon="-97.749792" changeset="false"><tag k="addr:street" v="West 35th Street Cutoff"/><tag k="addr:housenumber" v="1510"/><tag k="coa:place_id" v="596870"/></node><node id="-25" lat="30.310689" lon="-97.751048" changeset="false"><tag k="addr:street" v="Ridgelea Drive"/><tag k="addr:housenumber" v="3812"/><tag k="coa:place_id" v="3115340"/></node><node id="-26" lat="30.30884" lon="-97.751058" changeset="false"><tag k="addr:street" v="Jefferson Street"/><tag k="addr:housenumber" v="3700"/><tag k="coa:place_id" v="631334"/></node><node id="-27" lat="30.307946" lon="-97.751601" changeset="false"><tag k="addr:street" v="West 35th Street,1110"/><tag k="addr:housenumber" v="1700"/><tag k="coa:place_id" v="811971"/></node><node id="-28" lat="30.308846" lon="-97.750692" changeset="false"><tag k="addr:street" v="Jefferson Street"/><tag k="addr:housenumber" v="3703"/><tag k="coa:place_id" v="246570"/></node><node id="-29" lat="30.310005" lon="-97.753014" changeset="false"><tag k="addr:street" v="West 37th Street"/><tag k="addr:housenumber" v="1811"/><tag k="coa:place_id" v="672566"/></node><node id="-30" lat="30.309164" lon="-97.750909" changeset="false"><tag k="addr:street" v="Jefferson Street"/><tag k="addr:housenumber" v="3724"/><tag k="coa:place_id" v="348944"/></node><node id="-31" lat="30.311107" lon="-97.753985" changeset="false"><tag k="addr:street" v="Oakmont Boulevard"/><tag k="addr:housenumber" v="3712"/><tag k="coa:place_id" v="3099354"/></node><node id="-32" lat="30.31229" lon="-97.752848" changeset="false"><tag k="addr:street" v="West 39th Street"/><tag k="addr:housenumber" v="1818"/><tag k="coa:place_id" v="1103693"/></node><node id="-33" lat="30.310825" lon="-97.750313" changeset="false"><tag k="addr:street" v="Petes Path"/><tag k="addr:housenumber" v="3811"/><tag k="coa:place_id" v="248929"/></node><node id="-34" lat="30.310547" lon="-97.75197" changeset="false"><tag k="addr:street" v="Lawton Avenue"/><tag k="addr:housenumber" v="3710"/><tag k="coa:place_id" v="672998"/></node><node id="-35" lat="30.308747" lon="-97.754728" changeset="false"><tag k="addr:street" v="Oakmont Boulevard"/><tag k="addr:housenumber" v="3500"/><tag k="coa:place_id" v="245812"/></node><node id="-36" lat="30.306005" lon="-97.749351" changeset="false"><tag k="addr:street" v="Mills Avenue"/><tag k="addr:housenumber" v="3419"/><tag k="coa:place_id" v="631486"/></node><node id="-37" lat="30.308526" lon="-97.753153" changeset="false"><tag k="addr:street" v="West 35th Street,1110"/><tag k="addr:housenumber" v="1806"/><tag k="coa:place_id" v="631370"/></node><node id="-38" lat="30.312001" lon="-97.75516" changeset="false"><tag k="addr:street" v="Jackson Avenue"/><tag k="addr:housenumber" v="3801"/><tag k="coa:place_id" v="311014"/></node><node id="-39" lat="30.310776" lon="-97.750764" changeset="false"><tag k="addr:street" v="Ridgelea Drive"/><tag k="addr:housenumber" v="3811"/><tag k="coa:place_id" v="3282468"/></node><node id="-40" lat="30.312087" lon="-97.752321" changeset="false"><tag k="addr:street" v="Idlewild Road"/><tag k="addr:housenumber" v="3900 1/2"/><tag k="coa:place_id" v="5076226"/></node><node id="-41" lat="30.310504" lon="-97.749502" changeset="false"><tag k="addr:street" v="Emilie Lane"/><tag k="addr:housenumber" v="1704"/><tag k="coa:place_id" v="245015"/></node><node id="-42" lat="30.311317" lon="-97.75057" changeset="false"><tag k="addr:street" v="Petes Path"/><tag k="addr:housenumber" v="3900"/><tag k="coa:place_id" v="630956"/></node><node id="-43" lat="30.307324" lon="-97.750877" changeset="false"><tag k="addr:street" v="Kerbey Lane"/><tag k="addr:housenumber" v="3500"/><tag k="coa:place_id" v="596978"/></node><node id="-44" lat="30.320199" lon="-97.753085" changeset="false"><tag k="addr:street" v="West 45th Street"/><tag k="addr:housenumber" v="2701 1/2"/><tag k="coa:place_id" v="3093948"/></node><node id="-45" lat="30.309303" lon="-97.750681" changeset="false"><tag k="addr:street" v="Bull Creek Road"/><tag k="addr:housenumber" v="3604"/><tag k="coa:place_id" v="182019"/></node><node id="-46" lat="30.311064" lon="-97.749179" changeset="false"><tag k="addr:street" v="Jefferson Street"/><tag k="addr:housenumber" v="3905"/><tag k="coa:place_id" v="630716"/></node><node id="-47" lat="30.310759" lon="-97.749345" changeset="false"><tag k="addr:street" v="Jefferson Street"/><tag k="addr:housenumber" v="3901"/><tag k="coa:place_id" v="630692"/></node><node id="-48" lat="30.312051" lon="-97.753131" changeset="false"><tag k="addr:street" v="West 39th Street"/><tag k="addr:housenumber" v="1821"/><tag k="coa:place_id" v="253590"/></node><node id="-49" lat="30.308952" lon="-97.750635" changeset="false"><tag k="addr:street" v="Jefferson Street"/><tag k="addr:housenumber" v="3705"/><tag k="coa:place_id" v="630470"/></node><node id="-50" lat="30.31082" lon="-97.75153" changeset="false"><tag k="addr:street" v="Bull Creek Road"/><tag k="addr:housenumber" v="3709"/><tag k="coa:place_id" v="3107732"/></node><node id="-51" lat="30.314352" lon="-97.755361" changeset="false"><tag k="addr:street" v="Jackson Avenue"/><tag k="addr:housenumber" v="4100"/><tag k="coa:place_id" v="131889"/></node><node id="-52" lat="30.311774" lon="-97.752314" changeset="false"><tag k="addr:street" v="West 39th Street"/><tag k="addr:housenumber" v="1811"/><tag k="coa:place_id" v="253589"/></node><node id="-53" lat="30.311892" lon="-97.749061" changeset="false"><tag k="addr:street" v="Jefferson Street"/><tag k="addr:housenumber" v="4001"/><tag k="coa:place_id" v="224747"/></node><node id="-54" lat="30.311414" lon="-97.749096" changeset="false"><tag k="addr:street" v="Jefferson Street"/><tag k="addr:housenumber" v="3909"/><tag k="coa:place_id" v="630728"/></node><node id="-55" lat="30.309446" lon="-97.75486" changeset="false"><tag k="addr:street" v="West 36th Street"/><tag k="addr:housenumber" v="1905"/><tag k="coa:place_id" v="631646"/></node><node id="-56" lat="30.311097" lon="-97.752126" changeset="false"><tag k="addr:street" v="Bull Creek Road"/><tag k="addr:housenumber" v="3802"/><tag k="coa:place_id" v="673022"/></node><node id="-57" lat="30.308986" lon="-97.752126" changeset="false"><tag k="addr:street" v="Lawton Avenue"/><tag k="addr:housenumber" v="3513"/><tag k="coa:place_id" v="631364"/></node><node id="-58" lat="30.306057" lon="-97.748597" changeset="false"><tag k="addr:street" v="Mills Avenue"/><tag k="addr:housenumber" v="3501"/><tag k="coa:place_id" v="388466"/></node><node id="-59" lat="30.310554" lon="-97.751268" changeset="false"><tag k="addr:street" v="Bull Creek Road"/><tag k="addr:housenumber" v="3705"/><tag k="coa:place_id" v="3153338"/></node><node id="-60" lat="30.310406" lon="-97.751204" changeset="false"><tag k="addr:street" v="Bull Creek Road"/><tag k="addr:housenumber" v="3703"/><tag k="coa:place_id" v="3153337"/></node><node id="-61" lat="30.312192" lon="-97.755567" changeset="false"><tag k="addr:street" v="Jackson Avenue"/><tag k="addr:housenumber" v="3803"/><tag k="coa:place_id" v="673166"/></node><node id="-62" lat="30.313365" lon="-97.749118" changeset="false"><tag k="addr:street" v="Jefferson Street"/><tag k="addr:housenumber" v="4103"/><tag k="coa:place_id" v="630788"/></node><node id="-63" lat="30.317932" lon="-97.755624" changeset="false"><tag k="addr:street" v="Bull Creek Road"/><tag k="addr:housenumber" v="4300"/><tag k="coa:place_id" v="675160"/></node><node id="-64" lat="30.312094" lon="-97.752393" changeset="false"><tag k="addr:street" v="Bull Creek Road"/><tag k="addr:housenumber" v="3845"/><tag k="coa:place_id" v="243215"/></node><node id="-65" lat="30.311236" lon="-97.749137" changeset="false"><tag k="addr:street" v="Jefferson Street"/><tag k="addr:housenumber" v="3907"/><tag k="coa:place_id" v="630722"/></node><node id="-66" lat="30.310815" lon="-97.755851" changeset="false"><tag k="addr:street" v="Jackson Avenue"/><tag k="addr:housenumber" v="3700"/><tag k="coa:place_id" v="208977"/></node><node id="-67" lat="30.314029" lon="-97.750441" changeset="false"><tag k="addr:street" v="Idlewild Road"/><tag k="addr:housenumber" v="4105"/><tag k="coa:place_id" v="673394"/></node><node id="-68" lat="30.313918" lon="-97.750532" changeset="false"><tag k="addr:street" v="Idlewild Road"/><tag k="addr:housenumber" v="4103"/><tag k="coa:place_id" v="673388"/></node><node id="-69" lat="30.308527" lon="-97.750653" changeset="false"><tag k="addr:street" v="Jefferson Street"/><tag k="addr:housenumber" v="3511"/><tag k="coa:place_id" v="630446"/></node><node id="-70" lat="30.308646" lon="-97.750244" changeset="false"><tag k="addr:street" v="West 38th Street"/><tag k="addr:housenumber" v="1601"/><tag k="coa:place_id" v="630518"/></node><node id="-71" lat="30.310779" lon="-97.751199" changeset="false"><tag k="addr:street" v="Ridgelea Drive"/><tag k="addr:housenumber" v="3814"/><tag k="coa:place_id" v="249816"/></node><node id="-72" lat="30.310687" lon="-97.751432" changeset="false"><tag k="addr:street" v="Bull Creek Road"/><tag k="addr:housenumber" v="3707"/><tag k="coa:place_id" v="3107734"/></node><node id="-73" lat="30.308138" lon="-97.750978" changeset="false"><tag k="addr:street" v="Jefferson Street"/><tag k="addr:housenumber" v="3513"/><tag k="coa:place_id" v="630452"/></node><node id="-74" lat="30.308046" lon="-97.751033" changeset="false"><tag k="addr:street" v="Jefferson Street"/><tag k="addr:housenumber" v="3507"/><tag k="coa:place_id" v="630434"/></node><node id="-75" lat="30.307677" lon="-97.751028" changeset="false"><tag k="addr:street" v="West 35th Street,1110"/><tag k="addr:housenumber" v="1610"/><tag k="coa:place_id" v="597002"/></node><node id="-76" lat="30.307589" lon="-97.750891" changeset="false"><tag k="addr:street" v="West 35th Street,1110"/><tag k="addr:housenumber" v="1608"/><tag k="coa:place_id" v="596990"/></node><node id="-77" lat="30.31257" lon="-97.753498" changeset="false"><tag k="addr:street" v="Oakmont Boulevard"/><tag k="addr:housenumber" v="3900"/><tag k="coa:place_id" v="1102507"/></node><node id="-78" lat="30.312549" lon="-97.753535" changeset="false"><tag k="addr:street" v="West 39th Street"/><tag k="addr:housenumber" v="1900"/><tag k="coa:place_id" v="673580"/></node><node id="-79" lat="30.311565" lon="-97.753458" changeset="false"><tag k="addr:street" v="West 38th Street"/><tag k="addr:housenumber" v="1822"/><tag k="coa:place_id" v="673106"/></node><node id="-80" lat="30.311689" lon="-97.753458" changeset="false"><tag k="addr:street" v="Oakmont Boulevard"/><tag k="addr:housenumber" v="3801"/><tag k="coa:place_id" v="673112"/></node><node id="-81" lat="30.31896" lon="-97.754923" changeset="false"><tag k="addr:street" v="Bull Creek Road"/><tag k="addr:housenumber" v="4320"/><tag k="coa:place_id" v="714350"/></node><node id="-82" lat="30.318619" lon="-97.75498" changeset="false"><tag k="addr:street" v="Bull Creek Road"/><tag k="addr:housenumber" v="4318"/><tag k="coa:place_id" v="714344"/></node><node id="-83" lat="30.319978" lon="-97.755285" changeset="false"><tag k="addr:street" v="West 44th Street"/><tag k="addr:housenumber" v="2905 1/2"/><tag k="coa:place_id" v="3154308"/></node><node id="-84" lat="30.319264" lon="-97.754807" changeset="false"><tag k="addr:street" v="Bull Creek Road"/><tag k="addr:housenumber" v="4330"/><tag k="coa:place_id" v="714668"/></node><node id="-85" lat="30.311565" lon="-97.755356" changeset="false"><tag k="addr:street" v="West 38th Street"/><tag k="addr:housenumber" v="1919"/><tag k="coa:place_id" v="253564"/></node><node id="-86" lat="30.311472" lon="-97.755377" changeset="false"><tag k="addr:street" v="Jackson Avenue"/><tag k="addr:housenumber" v="3705"/><tag k="coa:place_id" v="3120750"/></node><node id="-87" lat="30.311065" lon="-97.751398" changeset="false"><tag k="addr:street" v="Ridgelea Drive"/><tag k="addr:housenumber" v="3818"/><tag k="coa:place_id" v="631244"/></node><node id="-88" lat="30.310964" lon="-97.751614" changeset="false"><tag k="addr:street" v="Bull Creek Road"/><tag k="addr:housenumber" v="3711"/><tag k="coa:place_id" v="3107733"/></node><node id="-89" lat="30.311221" lon="-97.751517" changeset="false"><tag k="addr:street" v="Ridgelea Drive"/><tag k="addr:housenumber" v="3820"/><tag k="coa:place_id" v="631238"/></node><node id="-90" lat="30.311118" lon="-97.751698" changeset="false"><tag k="addr:street" v="Bull Creek Road"/><tag k="addr:housenumber" v="3801"/><tag k="coa:place_id" v="3107731"/></node><node id="-91" lat="30.308195" lon="-97.752304" changeset="false"><tag k="addr:street" v="West 35th Street,1110"/><tag k="addr:housenumber" v="1712"/><tag k="coa:place_id" v="348908"/></node><node id="-92" lat="30.30809" lon="-97.751602" changeset="false"><tag k="addr:street" v="Jefferson Street"/><tag k="addr:housenumber" v="3500"/><tag k="coa:place_id" v="272140"/></node><node id="-93" lat="30.308098" lon="-97.752122" changeset="false"><tag k="addr:street" v="West 35th Street,1110"/><tag k="addr:housenumber" v="1708"/><tag k="coa:place_id" v="631346"/></node><node id="-94" lat="30.308047" lon="-97.75189" changeset="false"><tag k="addr:street" v="West 35th Street,1110"/><tag k="addr:housenumber" v="1702"/><tag k="coa:place_id" v="631340"/></node><node id="-95" lat="30.309319" lon="-97.751439" changeset="false"><tag k="addr:street" v="Jefferson Street"/><tag k="addr:housenumber" v="3704"/><tag k="coa:place_id" v="348926"/></node><node id="-96" lat="30.309562" lon="-97.75135" changeset="false"><tag k="addr:street" v="Jefferson Street"/><tag k="addr:housenumber" v="3708"/><tag k="coa:place_id" v="348938"/></node><node id="-97" lat="30.309224" lon="-97.751486" changeset="false"><tag k="addr:street" v="Jefferson Street"/><tag k="addr:housenumber" v="3702"/><tag k="coa:place_id" v="631328"/></node><node id="-98" lat="30.309395" lon="-97.751414" changeset="false"><tag k="addr:street" v="Jefferson Street"/><tag k="addr:housenumber" v="3706"/><tag k="coa:place_id" v="348932"/></node><node id="-99" lat="30.309249" lon="-97.751949" changeset="false"><tag k="addr:street" v="Lawton Avenue"/><tag k="addr:housenumber" v="3601"/><tag k="coa:place_id" v="722079"/></node><node id="-100" lat="30.309431" lon="-97.75188" changeset="false"><tag k="addr:street" v="Lawton Avenue"/><tag k="addr:housenumber" v="3603"/><tag k="coa:place_id" v="631778"/></node><node id="-101" lat="30.30842" lon="-97.752701" changeset="false"><tag k="addr:street" v="West 35th Street,1110"/><tag k="addr:housenumber" v="1800"/><tag k="coa:place_id" v="348920"/></node><node id="-102" lat="30.308451" lon="-97.752842" changeset="false"><tag k="addr:street" v="West 35th Street,1110"/><tag k="addr:housenumber" v="1802"/><tag k="coa:place_id" v="631376"/></node><node id="-103" lat="30.311215" lon="-97.753617" changeset="false"><tag k="addr:street" v="Oakmont Boulevard"/><tag k="addr:housenumber" v="3707"/><tag k="coa:place_id" v="672728"/></node><node id="-104" lat="30.311167" lon="-97.753603" changeset="false"><tag k="addr:street" v="West 38th Street"/><tag k="addr:housenumber" v="1823"/><tag k="coa:place_id" v="672920"/></node><node id="-105" lat="30.310256" lon="-97.754274" changeset="false"><tag k="addr:street" v="West 37th Street"/><tag k="addr:housenumber" v="1901"/><tag k="coa:place_id" v="253517"/></node><node id="-106" lat="30.310153" lon="-97.754342" changeset="false"><tag k="addr:street" v="Oakmont Boulevard"/><tag k="addr:housenumber" v="3612"/><tag k="coa:place_id" v="3424562"/></node><node id="-107" lat="30.31021" lon="-97.753906" changeset="false"><tag k="addr:street" v="West 37th Street"/><tag k="addr:housenumber" v="1823"/><tag k="coa:place_id" v="253513"/></node><node id="-108" lat="30.310096" lon="-97.753942" changeset="false"><tag k="addr:street" v="Oakmont Boulevard"/><tag k="addr:housenumber" v="3607"/><tag k="coa:place_id" v="943190"/></node><node id="-109" lat="30.309194" lon="-97.754606" changeset="false"><tag k="addr:street" v="Oakmont Boulevard"/><tag k="addr:housenumber" v="3512"/><tag k="coa:place_id" v="3212411"/></node><node id="-110" lat="30.309376" lon="-97.754547" changeset="false"><tag k="addr:street" v="West 36th Street"/><tag k="addr:housenumber" v="1901"/><tag k="coa:place_id" v="631664"/></node><node id="-111" lat="30.309669" lon="-97.754092" changeset="false"><tag k="addr:street" v="West 36th Street"/><tag k="addr:housenumber" v="1822"/><tag k="coa:place_id" v="253487"/></node><node id="-112" lat="30.30975" lon="-97.754067" changeset="false"><tag k="addr:street" v="Oakmont Boulevard"/><tag k="addr:housenumber" v="3601"/><tag k="coa:place_id" v="672416"/></node><node id="-113" lat="30.308592" lon="-97.753436" changeset="false"><tag k="addr:street" v="West 35th Street,1110"/><tag k="addr:housenumber" v="1810"/><tag k="coa:place_id" v="631454"/></node><node id="-114" lat="30.30865" lon="-97.753709" changeset="false"><tag k="addr:street" v="West 35th Street,1110"/><tag k="addr:housenumber" v="1814"/><tag k="coa:place_id" v="631388"/></node><node id="-115" lat="30.308622" lon="-97.753579" changeset="false"><tag k="addr:street" v="West 35th Street,1110"/><tag k="addr:housenumber" v="1812"/><tag k="coa:place_id" v="631496"/></node><node id="-116" lat="30.308607" lon="-97.753518" changeset="false"><tag k="addr:street" v="West 35th Street,1110"/><tag k="addr:housenumber" v="1810 1/2"/><tag k="coa:place_id" v="631460"/></node></osm>