<?xml version="1.0" encoding="UTF-8"?><osm version="0.6" generator="github.com/aaronlidman/osm-and-geojson"><node id="-1" lat="30.210938" lon="-97.778104" changeset="false"><tag k="addr:street" v="Creekline Drive"/><tag k="addr:housenumber" v="5209"/><tag k="coa:place_id" v="827612"/></node><node id="-2" lat="30.208268" lon="-97.778157" changeset="false"><tag k="addr:street" v="Humming Bird Lane"/><tag k="addr:housenumber" v="5500"/><tag k="coa:place_id" v="119778"/></node><node id="-3" lat="30.208965" lon="-97.775572" changeset="false"><tag k="addr:street" v="Mockingbird Lane East,1100"/><tag k="addr:housenumber" v="302"/><tag k="coa:place_id" v="749252"/></node><node id="-4" lat="30.207145" lon="-97.776913" changeset="false"><tag k="addr:street" v="Blue Bird Lane"/><tag k="addr:housenumber" v="5506"/><tag k="coa:place_id" v="749558"/></node><node id="-5" lat="30.208164" lon="-97.773458" changeset="false"><tag k="addr:street" v="South Congress Avenue"/><tag k="addr:housenumber" v="5302"/><tag k="coa:place_id" v="1152269"/></node><node id="-6" lat="30.20815" lon="-97.774303" changeset="false"><tag k="addr:street" v="Mockingbird Lane East,1100"/><tag k="addr:housenumber" v="106"/><tag k="coa:place_id" v="749222"/></node><node id="-7" lat="30.205579" lon="-97.775149" changeset="false"><tag k="addr:street" v="South Congress Avenue"/><tag k="addr:housenumber" v="5526"/><tag k="coa:place_id" v="554188"/></node><node id="-8" lat="30.20846" lon="-97.773277" changeset="false"><tag k="addr:street" v="South Congress Avenue"/><tag k="addr:housenumber" v="5300"/><tag k="coa:place_id" v="749174"/></node><node id="-9" lat="30.210854" lon="-97.778149" changeset="false"><tag k="addr:street" v="Ramble Lane"/><tag k="addr:housenumber" v="504"/><tag k="coa:place_id" v="827606"/></node><node id="-10" lat="30.207819" lon="-97.773974" changeset="false"><tag k="addr:street" v="Mockingbird Lane East,1100"/><tag k="addr:housenumber" v="104"/><tag k="coa:place_id" v="749216"/></node><node id="-11" lat="30.208119" lon="-97.773656" changeset="false"><tag k="addr:street" v="South Congress Avenue"/><tag k="addr:housenumber" v="5304"/><tag k="coa:place_id" v="1152271"/></node><node id="-12" lat="30.207698" lon="-97.777569" changeset="false"><tag k="addr:street" v="Red Bird Lane"/><tag k="addr:housenumber" v="313"/><tag k="coa:place_id" v="749450"/></node><node id="-13" lat="30.209543" lon="-97.773236" changeset="false"><tag k="addr:street" v="Ramble Lane"/><tag k="addr:housenumber" v="100"/><tag k="coa:place_id" v="3172522"/></node><node id="-14" lat="30.20924" lon="-97.776124" changeset="false"><tag k="addr:street" v="Mockingbird Lane East,1100"/><tag k="addr:housenumber" v="308"/><tag k="coa:place_id" v="749270"/></node><node id="-15" lat="30.20744" lon="-97.777047" changeset="false"><tag k="addr:street" v="Red Bird Lane"/><tag k="addr:housenumber" v="307"/><tag k="coa:place_id" v="749462"/></node><node id="-16" lat="30.208061" lon="-97.777808" changeset="false"><tag k="addr:street" v="Humming Bird Lane"/><tag k="addr:housenumber" v="5501"/><tag k="coa:place_id" v="749426"/></node><node id="-17" lat="30.207866" lon="-97.777984" changeset="false"><tag k="addr:street" v="Humming Bird Lane"/><tag k="addr:housenumber" v="5505"/><tag k="coa:place_id" v="749600"/></node><node id="-18" lat="30.208251" lon="-97.780121" changeset="false"><tag k="addr:street" v="West Stassney Lane"/><tag k="addr:housenumber" v="512"/><tag k="coa:place_id" v="372435"/></node><node id="-19" lat="30.20774" lon="-97.773875" changeset="false"><tag k="addr:street" v="South Congress Avenue"/><tag k="addr:housenumber" v="5310"/><tag k="coa:place_id" v="189718"/></node><node id="-20" lat="30.207772" lon="-97.779182" changeset="false"><tag k="addr:street" v="West Stassney Lane"/><tag k="addr:housenumber" v="414"/><tag k="coa:place_id" v="110376"/></node><node id="-21" lat="30.211473" lon="-97.776101" changeset="false"><tag k="addr:street" v="Greenheart Drive"/><tag k="addr:housenumber" v="5112"/><tag k="coa:place_id" v="827486"/></node><node id="-22" lat="30.206798" lon="-97.776699" changeset="false"><tag k="addr:street" v="Blue Bird Lane"/><tag k="addr:housenumber" v="5509"/><tag k="coa:place_id" v="749552"/></node><node id="-23" lat="30.210225" lon="-97.776398" changeset="false"><tag k="addr:street" v="Ramble Lane"/><tag k="addr:housenumber" v="401"/><tag k="coa:place_id" v="1152253"/></node><node id="-24" lat="30.207611" lon="-97.774442" changeset="false"><tag k="addr:street" v="Mockingbird Lane East,1100"/><tag k="addr:housenumber" v="111"/><tag k="coa:place_id" v="1152277"/></node><node id="-25" lat="30.207567" lon="-97.775923" changeset="false"><tag k="addr:street" v="Red Bird Lane"/><tag k="addr:housenumber" v="206"/><tag k="coa:place_id" v="749390"/></node><node id="-26" lat="30.208686" lon="-97.77523" changeset="false"><tag k="addr:street" v="Mockingbird Lane East,1100"/><tag k="addr:housenumber" v="208"/><tag k="coa:place_id" v="72009"/></node><node id="-27" lat="30.207128" lon="-97.775173" changeset="false"><tag k="addr:street" v="Red Bird Lane"/><tag k="addr:housenumber" v="110"/><tag k="coa:place_id" v="749366"/></node><node id="-28" lat="30.206958" lon="-97.774926" changeset="false"><tag k="addr:street" v="Red Bird Lane"/><tag k="addr:housenumber" v="106"/><tag k="coa:place_id" v="580306"/></node><node id="-29" lat="30.208168" lon="-97.774468" changeset="false"><tag k="addr:street" v="Mockingbird Lane East,1100"/><tag k="addr:housenumber" v="110"/><tag k="coa:place_id" v="749228"/></node><node id="-30" lat="30.210052" lon="-97.775337" changeset="false"><tag k="addr:street" v="Ramble Lane"/><tag k="addr:housenumber" v="319"/><tag k="coa:place_id" v="1164439"/></node><node id="-31" lat="30.206922" lon="-97.776588" changeset="false"><tag k="addr:street" v="Blue Bird Lane"/><tag k="addr:housenumber" v="5507"/><tag k="coa:place_id" v="749540"/></node><node id="-32" lat="30.206402" lon="-97.776481" changeset="false"><tag k="addr:street" v="West Stassney Lane"/><tag k="addr:housenumber" v="206"/><tag k="coa:place_id" v="749522"/></node><node id="-33" lat="30.207951" lon="-97.77417" changeset="false"><tag k="addr:street" v="Mockingbird Lane East,1100"/><tag k="addr:housenumber" v="102"/><tag k="coa:place_id" v="749210"/></node><node id="-34" lat="30.206824" lon="-97.775805" changeset="false"><tag k="addr:street" v="Red Bird Lane"/><tag k="addr:housenumber" v="203"/><tag k="coa:place_id" v="1152294"/></node><node id="-35" lat="30.206778" lon="-97.774731" changeset="false"><tag k="addr:street" v="Red Bird Lane"/><tag k="addr:housenumber" v="116"/><tag k="coa:place_id" v="1152295"/></node><node id="-36" lat="30.209406" lon="-97.780449" changeset="false"><tag k="addr:street" v="South 1st Street"/><tag k="addr:housenumber" v="5509"/><tag k="coa:place_id" v="1164356"/></node><node id="-37" lat="30.205991" lon="-97.776097" changeset="false"><tag k="addr:street" v="West Stassney Lane"/><tag k="addr:housenumber" v="200"/><tag k="coa:place_id" v="749510"/></node><node id="-38" lat="30.207512" lon="-97.778992" changeset="false"><tag k="addr:street" v="West Stassney Lane"/><tag k="addr:housenumber" v="404"/><tag k="coa:place_id" v="749612"/></node><node id="-39" lat="30.207162" lon="-97.775619" changeset="false"><tag k="addr:street" v="Red Bird Lane"/><tag k="addr:housenumber" v="202"/><tag k="coa:place_id" v="459183"/></node><node id="-40" lat="30.206233" lon="-97.776852" changeset="false"><tag k="addr:street" v="West Stassney Lane"/><tag k="addr:housenumber" v="208"/><tag k="coa:place_id" v="1152305"/></node><node id="-41" lat="30.20731" lon="-97.775469" changeset="false"><tag k="addr:street" v="Red Bird Lane"/><tag k="addr:housenumber" v="200"/><tag k="coa:place_id" v="1152283"/></node><node id="-42" lat="30.207159" lon="-97.77633" changeset="false"><tag k="addr:street" v="Blue Bird Lane"/><tag k="addr:housenumber" v="5501"/><tag k="coa:place_id" v="242645"/></node><node id="-43" lat="30.207091" lon="-97.776349" changeset="false"><tag k="addr:street" v="Red Bird Lane"/><tag k="addr:housenumber" v="211"/><tag k="coa:place_id" v="749444"/></node></osm>