<?xml version="1.0" encoding="UTF-8"?><osm version="0.6" generator="github.com/aaronlidman/osm-and-geojson"><node id="-1" lat="30.36323" lon="-97.709485" changeset="false"><tag k="addr:street" v="Trone Circle"/><tag k="addr:housenumber" v="8907"/></node><node id="-2" lat="30.366687" lon="-97.708956" changeset="false"><tag k="addr:street" v="Quail Meadow Drive"/><tag k="addr:housenumber" v="9201"/></node><node id="-3" lat="30.368662" lon="-97.706385" changeset="false"><tag k="addr:street" v="Parkfield Drive"/><tag k="addr:housenumber" v="9432"/></node><node id="-4" lat="30.368938" lon="-97.706302" changeset="false"><tag k="addr:street" v="Parkfield Drive"/><tag k="addr:housenumber" v="9440"/></node><node id="-5" lat="30.371746" lon="-97.715562" changeset="false"><tag k="addr:street" v="West Rundberg Lane"/><tag k="addr:housenumber" v="1827"/></node><node id="-6" lat="30.36786" lon="-97.70962" changeset="false"><tag k="addr:street" v="Hunters Trace,1100"/><tag k="addr:housenumber" v="9300"/></node><node id="-7" lat="30.368036" lon="-97.709516" changeset="false"><tag k="addr:street" v="Hunters Trace,1100"/><tag k="addr:housenumber" v="9302"/></node><node id="-8" lat="30.369527" lon="-97.711495" changeset="false"><tag k="addr:street" v="West Rundberg Lane"/><tag k="addr:housenumber" v="1605 1/2"/></node><node id="-9" lat="30.366918" lon="-97.712683" changeset="false"><tag k="addr:street" v="Colony Creek Drive"/><tag k="addr:housenumber" v="1607"/></node><node id="-10" lat="30.369215" lon="-97.705872" changeset="false"><tag k="addr:street" v="Rutland Drive"/><tag k="addr:housenumber" v="1303"/></node><node id="-11" lat="30.3688" lon="-97.706343" changeset="false"><tag k="addr:street" v="Parkfield Drive"/><tag k="addr:housenumber" v="9436"/></node><node id="-12" lat="30.368454" lon="-97.706447" changeset="false"><tag k="addr:street" v="Parkfield Drive"/><tag k="addr:housenumber" v="9426"/></node><node id="-13" lat="30.370707" lon="-97.713624" changeset="false"><tag k="addr:street" v="West Rundberg Lane"/><tag k="addr:housenumber" v="1721"/></node><node id="-14" lat="30.364178" lon="-97.713786" changeset="false"><tag k="addr:street" v="Payton Gin Road"/><tag k="addr:housenumber" v="1500"/></node><node id="-15" lat="30.369621" lon="-97.70677" changeset="false"><tag k="addr:street" v="Rutland Drive"/><tag k="addr:housenumber" v="1327"/></node><node id="-16" lat="30.366712" lon="-97.717852" changeset="false"><tag k="addr:street" v="Research Boulevard"/><tag k="addr:housenumber" v="8747"/></node><node id="-17" lat="30.369215" lon="-97.706219" changeset="false"><tag k="addr:street" v="Parkfield Drive"/><tag k="addr:housenumber" v="9448"/></node><node id="-18" lat="30.366502" lon="-97.716886" changeset="false"><tag k="addr:street" v="Payton Gin Road"/><tag k="addr:housenumber" v="1812"/></node><node id="-19" lat="30.368731" lon="-97.706364" changeset="false"><tag k="addr:street" v="Parkfield Drive"/><tag k="addr:housenumber" v="9434"/></node><node id="-20" lat="30.364454" lon="-97.708658" changeset="false"><tag k="addr:street" v="Norseman Terrace"/><tag k="addr:housenumber" v="1410"/></node><node id="-21" lat="30.369609" lon="-97.706546" changeset="false"><tag k="addr:street" v="Rutland Drive"/><tag k="addr:housenumber" v="1321"/></node><node id="-22" lat="30.36629" lon="-97.715508" changeset="false"><tag k="addr:street" v="Galewood Drive"/><tag k="addr:housenumber" v="8929"/></node><node id="-23" lat="30.370297" lon="-97.713055" changeset="false"><tag k="addr:street" v="Singing Quail Drive"/><tag k="addr:housenumber" v="9225"/></node><node id="-24" lat="30.369145" lon="-97.70624" changeset="false"><tag k="addr:street" v="Parkfield Drive"/><tag k="addr:housenumber" v="9446"/></node><node id="-25" lat="30.369147" lon="-97.706816" changeset="false"><tag k="addr:street" v="Rutland Drive"/><tag k="addr:housenumber" v="1319"/></node><node id="-26" lat="30.364466" lon="-97.711731" changeset="false"><tag k="addr:street" v="Covey Court"/><tag k="addr:housenumber" v="8906"/></node><node id="-27" lat="30.367903" lon="-97.709238" changeset="false"><tag k="addr:street" v="Hunters Trace,1100"/><tag k="addr:housenumber" v="9303"/></node><node id="-28" lat="30.368316" lon="-97.706488" changeset="false"><tag k="addr:street" v="Parkfield Drive"/><tag k="addr:housenumber" v="9422"/></node><node id="-29" lat="30.368523" lon="-97.706426" changeset="false"><tag k="addr:street" v="Parkfield Drive"/><tag k="addr:housenumber" v="9428"/></node><node id="-30" lat="30.368385" lon="-97.706467" changeset="false"><tag k="addr:street" v="Parkfield Drive"/><tag k="addr:housenumber" v="9424"/></node><node id="-31" lat="30.367427" lon="-97.709506" changeset="false"><tag k="addr:street" v="Hunters Trace,1100"/><tag k="addr:housenumber" v="9217"/></node><node id="-32" lat="30.362831" lon="-97.709327" changeset="false"><tag k="addr:street" v="Parkfield Drive"/><tag k="addr:housenumber" v="8904"/></node><node id="-33" lat="30.370637" lon="-97.715968" changeset="false"><tag k="addr:street" v="Northgate Boulevard"/><tag k="addr:housenumber" v="9117"/></node><node id="-34" lat="30.369132" lon="-97.707324" changeset="false"><tag k="addr:street" v="Quail Meadow Drive"/><tag k="addr:housenumber" v="9409"/></node><node id="-35" lat="30.367547" lon="-97.70941" changeset="false"><tag k="addr:street" v="Hunters Trace,1100"/><tag k="addr:housenumber" v="9219"/></node><node id="-36" lat="30.369628" lon="-97.713324" changeset="false"><tag k="addr:street" v="Singing Quail Drive"/><tag k="addr:housenumber" v="9209"/></node><node id="-37" lat="30.367331" lon="-97.707765" changeset="false"><tag k="addr:street" v="Quailfield Circle"/><tag k="addr:housenumber" v="1308"/></node><node id="-38" lat="30.369525" lon="-97.713386" changeset="false"><tag k="addr:street" v="Singing Quail Drive"/><tag k="addr:housenumber" v="9207"/></node><node id="-39" lat="30.369446" lon="-97.70635" changeset="false"><tag k="addr:street" v="Rutland Drive"/><tag k="addr:housenumber" v="1325"/></node><node id="-40" lat="30.369412" lon="-97.706372" changeset="false"><tag k="addr:street" v="Rutland Drive"/><tag k="addr:housenumber" v="1305"/></node><node id="-41" lat="30.363265" lon="-97.708919" changeset="false"><tag k="addr:street" v="Parkfield Drive"/><tag k="addr:housenumber" v="8908"/></node><node id="-42" lat="30.363023" lon="-97.7092" changeset="false"><tag k="addr:street" v="Parkfield Drive"/><tag k="addr:housenumber" v="8906"/></node><node id="-43" lat="30.369819" lon="-97.713249" changeset="false"><tag k="addr:street" v="Singing Quail Drive"/><tag k="addr:housenumber" v="9213"/></node><node id="-44" lat="30.369738" lon="-97.713284" changeset="false"><tag k="addr:street" v="Singing Quail Drive"/><tag k="addr:housenumber" v="9211"/></node><node id="-45" lat="30.369911" lon="-97.713135" changeset="false"><tag k="addr:street" v="Singing Quail Drive"/><tag k="addr:housenumber" v="9215"/></node><node id="-46" lat="30.369976" lon="-97.713091" changeset="false"><tag k="addr:street" v="Singing Quail Drive"/><tag k="addr:housenumber" v="9217"/></node><node id="-47" lat="30.37018" lon="-97.713006" changeset="false"><tag k="addr:street" v="Singing Quail Drive"/><tag k="addr:housenumber" v="9223"/></node><node id="-48" lat="30.370126" lon="-97.71306" changeset="false"><tag k="addr:street" v="Singing Quail Drive"/><tag k="addr:housenumber" v="9221"/></node><node id="-49" lat="30.37008" lon="-97.71361" changeset="false"><tag k="addr:street" v="Singing Quail Drive"/><tag k="addr:housenumber" v="9214"/></node><node id="-50" lat="30.370006" lon="-97.71365" changeset="false"><tag k="addr:street" v="Singing Quail Drive"/><tag k="addr:housenumber" v="9212"/></node><node id="-51" lat="30.370279" lon="-97.713529" changeset="false"><tag k="addr:street" v="Singing Quail Drive"/><tag k="addr:housenumber" v="9218"/></node><node id="-52" lat="30.370203" lon="-97.713568" changeset="false"><tag k="addr:street" v="Singing Quail Drive"/><tag k="addr:housenumber" v="9216"/></node><node id="-53" lat="30.370277" lon="-97.714487" changeset="false"><tag k="addr:street" v="Harliquin Run"/><tag k="addr:housenumber" v="1723"/></node><node id="-54" lat="30.370185" lon="-97.714466" changeset="false"><tag k="addr:street" v="Harliquin Run"/><tag k="addr:housenumber" v="1721"/></node><node id="-55" lat="30.370391" lon="-97.713892" changeset="false"><tag k="addr:street" v="Harliquin Run"/><tag k="addr:housenumber" v="1728"/></node><node id="-56" lat="30.370307" lon="-97.713938" changeset="false"><tag k="addr:street" v="Harliquin Run"/><tag k="addr:housenumber" v="1726"/></node><node id="-57" lat="30.370427" lon="-97.713522" changeset="false"><tag k="addr:street" v="Singing Quail Drive"/><tag k="addr:housenumber" v="9220"/></node><node id="-58" lat="30.370487" lon="-97.713476" changeset="false"><tag k="addr:street" v="Singing Quail Drive"/><tag k="addr:housenumber" v="9222"/></node><node id="-59" lat="30.370407" lon="-97.714413" changeset="false"><tag k="addr:street" v="Harliquin Run"/><tag k="addr:housenumber" v="1725"/></node><node id="-60" lat="30.370483" lon="-97.714357" changeset="false"><tag k="addr:street" v="Harliquin Run"/><tag k="addr:housenumber" v="1727"/></node><node id="-61" lat="30.370573" lon="-97.713782" changeset="false"><tag k="addr:street" v="Harliquin Run"/><tag k="addr:housenumber" v="1732"/></node><node id="-62" lat="30.370502" lon="-97.71383" changeset="false"><tag k="addr:street" v="Harliquin Run"/><tag k="addr:housenumber" v="1730"/></node><node id="-63" lat="30.370972" lon="-97.714055" changeset="false"><tag k="addr:street" v="Harliquin Run"/><tag k="addr:housenumber" v="1739"/></node><node id="-64" lat="30.370918" lon="-97.71412" changeset="false"><tag k="addr:street" v="Harliquin Run"/><tag k="addr:housenumber" v="1737"/></node><node id="-65" lat="30.37057" lon="-97.714306" changeset="false"><tag k="addr:street" v="Harliquin Run"/><tag k="addr:housenumber" v="1729"/></node><node id="-66" lat="30.370635" lon="-97.714276" changeset="false"><tag k="addr:street" v="Harliquin Run"/><tag k="addr:housenumber" v="1731"/></node><node id="-67" lat="30.370736" lon="-97.714205" changeset="false"><tag k="addr:street" v="Harliquin Run"/><tag k="addr:housenumber" v="1733"/></node><node id="-68" lat="30.370804" lon="-97.714166" changeset="false"><tag k="addr:street" v="Harliquin Run"/><tag k="addr:housenumber" v="1735"/></node><node id="-69" lat="30.369431" lon="-97.713468" changeset="false"><tag k="addr:street" v="Singing Quail Drive"/><tag k="addr:housenumber" v="9205"/></node><node id="-70" lat="30.36936" lon="-97.713497" changeset="false"><tag k="addr:street" v="Singing Quail Drive"/><tag k="addr:housenumber" v="9203"/></node><node id="-71" lat="30.369904" lon="-97.714027" changeset="false"><tag k="addr:street" v="Harliquin Run"/><tag k="addr:housenumber" v="1711"/></node><node id="-72" lat="30.369955" lon="-97.714078" changeset="false"><tag k="addr:street" v="Harliquin Run"/><tag k="addr:housenumber" v="1713"/></node><node id="-73" lat="30.369745" lon="-97.713895" changeset="false"><tag k="addr:street" v="Harliquin Run"/><tag k="addr:housenumber" v="1705"/></node><node id="-74" lat="30.369809" lon="-97.713954" changeset="false"><tag k="addr:street" v="Harliquin Run"/><tag k="addr:housenumber" v="1707"/></node><node id="-75" lat="30.370085" lon="-97.714249" changeset="false"><tag k="addr:street" v="Harliquin Run"/><tag k="addr:housenumber" v="1717"/></node><node id="-76" lat="30.370032" lon="-97.71421" changeset="false"><tag k="addr:street" v="Harliquin Run"/><tag k="addr:housenumber" v="1715"/></node><node id="-77" lat="30.36959" lon="-97.71373" changeset="false"><tag k="addr:street" v="Harliquin Run"/><tag k="addr:housenumber" v="1701"/></node><node id="-78" lat="30.369644" lon="-97.713809" changeset="false"><tag k="addr:street" v="Harliquin Run"/><tag k="addr:housenumber" v="1703"/></node><node id="-79" lat="30.365352" lon="-97.716022" changeset="false"><tag k="addr:street" v="Galewood Drive"/><tag k="addr:housenumber" v="8901"/></node><node id="-80" lat="30.365315" lon="-97.716022" changeset="false"><tag k="addr:street" v="Payton Gin Road"/><tag k="addr:housenumber" v="1706"/></node></osm>