<?xml version="1.0" encoding="UTF-8"?><osm version="0.6" generator="github.com/aaronlidman/osm-and-geojson"><node id="-1" lat="30.392621" lon="-97.697565" changeset="false"><tag k="addr:street" v="Norwegian Wood Drive"/><tag k="addr:housenumber" v="11707"/><tag k="addr:postcode" v="78758"/></node><node id="-2" lat="30.389055" lon="-97.683343" changeset="false"><tag k="addr:street" v="North Lamar Boulevard"/><tag k="addr:housenumber" v="11808"/><tag k="addr:postcode" v="78758"/></node><node id="-3" lat="30.394504" lon="-97.693657" changeset="false"><tag k="addr:street" v="Swearingen Drive"/><tag k="addr:housenumber" v="11900"/><tag k="addr:postcode" v="78758"/></node><node id="-4" lat="30.390772" lon="-97.682852" changeset="false"><tag k="addr:street" v="North Lamar Boulevard"/><tag k="addr:housenumber" v="11908"/><tag k="addr:postcode" v="78758"/></node><node id="-5" lat="30.395931" lon="-97.69389" changeset="false"><tag k="addr:street" v="Gracy Farms Lane"/><tag k="addr:housenumber" v="1411"/><tag k="addr:postcode" v="78758"/></node><node id="-6" lat="30.392947" lon="-97.697409" changeset="false"><tag k="addr:street" v="Norwegian Wood Drive"/><tag k="addr:housenumber" v="11715"/><tag k="addr:postcode" v="78758"/></node><node id="-7" lat="30.393719" lon="-97.697345" changeset="false"><tag k="addr:street" v="Norwegian Wood Drive"/><tag k="addr:housenumber" v="11728"/><tag k="addr:postcode" v="78758"/></node><node id="-8" lat="30.402324" lon="-97.699544" changeset="false"><tag k="addr:street" v="Bittern Hollow"/><tag k="addr:housenumber" v="12041"/><tag k="addr:postcode" v="78758"/></node><node id="-9" lat="30.393604" lon="-97.697483" changeset="false"><tag k="addr:street" v="Norwegian Wood Drive"/><tag k="addr:housenumber" v="11724"/><tag k="addr:postcode" v="78758"/></node><node id="-10" lat="30.39669" lon="-97.694568" changeset="false"><tag k="addr:street" v="Lincolnshire Drive"/><tag k="addr:housenumber" v="11907"/><tag k="addr:postcode" v="78758"/></node><node id="-11" lat="30.388806" lon="-97.683489" changeset="false"><tag k="addr:street" v="North Lamar Boulevard"/><tag k="addr:housenumber" v="11804"/><tag k="addr:postcode" v="78758"/></node><node id="-12" lat="30.397039" lon="-97.690806" changeset="false"><tag k="addr:street" v="Elfcroft Drive"/><tag k="addr:housenumber" v="12000"/><tag k="addr:postcode" v="78758"/></node><node id="-13" lat="30.393456" lon="-97.697002" changeset="false"><tag k="addr:street" v="Norwegian Wood Drive"/><tag k="addr:housenumber" v="11727"/><tag k="addr:postcode" v="78758"/></node><node id="-14" lat="30.394444" lon="-97.692279" changeset="false"><tag k="addr:street" v="Swearingen Drive"/><tag k="addr:housenumber" v="11901"/><tag k="addr:postcode" v="78758"/></node><node id="-15" lat="30.385883" lon="-97.68752" changeset="false"><tag k="addr:street" v="North Bend Drive"/><tag k="addr:housenumber" v="906"/><tag k="addr:postcode" v="78758"/></node><node id="-16" lat="30.389408" lon="-97.68309" changeset="false"><tag k="addr:street" v="North Lamar Boulevard"/><tag k="addr:housenumber" v="11840"/><tag k="addr:postcode" v="78758"/></node><node id="-17" lat="30.393373" lon="-97.694767" changeset="false"><tag k="addr:street" v="Swearingen Drive"/><tag k="addr:housenumber" v="11804"/><tag k="addr:postcode" v="78758"/></node><node id="-18" lat="30.399997" lon="-97.696894" changeset="false"><tag k="addr:street" v="Bittern Hollow"/><tag k="addr:housenumber" v="12003"/><tag k="addr:postcode" v="78758"/></node><node id="-19" lat="30.396659" lon="-97.691666" changeset="false"><tag k="addr:street" v="Elfcroft Drive"/><tag k="addr:housenumber" v="11902"/><tag k="addr:postcode" v="78758"/></node><node id="-20" lat="30.386011" lon="-97.684574" changeset="false"><tag k="addr:street" v="North Lamar Boulevard"/><tag k="addr:housenumber" v="11630"/><tag k="addr:postcode" v="78758"/></node><node id="-21" lat="30.386032" lon="-97.684437" changeset="false"><tag k="addr:street" v="North Lamar Boulevard"/><tag k="addr:housenumber" v="11632"/><tag k="addr:postcode" v="78758"/></node><node id="-22" lat="30.391775" lon="-97.698047" changeset="false"><tag k="addr:street" v="Norwegian Wood Drive"/><tag k="addr:housenumber" v="11603"/><tag k="addr:postcode" v="78758"/></node><node id="-23" lat="30.39246" lon="-97.697622" changeset="false"><tag k="addr:street" v="Norwegian Wood Drive"/><tag k="addr:housenumber" v="11703"/><tag k="addr:postcode" v="78758"/></node><node id="-24" lat="30.393327" lon="-97.697156" changeset="false"><tag k="addr:street" v="Norwegian Wood Drive"/><tag k="addr:housenumber" v="11723"/><tag k="addr:postcode" v="78758"/></node><node id="-25" lat="30.384946" lon="-97.685534" changeset="false"><tag k="addr:street" v="North Bend Drive"/><tag k="addr:housenumber" v="818"/><tag k="addr:postcode" v="78758"/></node><node id="-26" lat="30.393344" lon="-97.697713" changeset="false"><tag k="addr:street" v="Norwegian Wood Drive"/><tag k="addr:housenumber" v="11720"/><tag k="addr:postcode" v="78758"/></node><node id="-27" lat="30.392489" lon="-97.689054" changeset="false"><tag k="addr:street" v="Knollpark Drive"/><tag k="addr:housenumber" v="11900"/><tag k="addr:postcode" v="78758"/></node><node id="-28" lat="30.393711" lon="-97.681548" changeset="false"><tag k="addr:street" v="North Lamar Boulevard"/><tag k="addr:housenumber" v="12046"/><tag k="addr:postcode" v="78758"/></node><node id="-29" lat="30.391943" lon="-97.697897" changeset="false"><tag k="addr:street" v="Norwegian Wood Drive"/><tag k="addr:housenumber" v="11607"/><tag k="addr:postcode" v="78758"/></node><node id="-30" lat="30.39211" lon="-97.69777" changeset="false"><tag k="addr:street" v="Norwegian Wood Drive"/><tag k="addr:housenumber" v="11611"/><tag k="addr:postcode" v="78758"/></node><node id="-31" lat="30.390865" lon="-97.689043" changeset="false"><tag k="addr:street" v="Knollpark Drive"/><tag k="addr:housenumber" v="11816"/><tag k="addr:postcode" v="78758"/></node><node id="-32" lat="30.3908" lon="-97.682554" changeset="false"><tag k="addr:street" v="North Lamar Boulevard"/><tag k="addr:housenumber" v="12002"/><tag k="addr:postcode" v="78758"/></node><node id="-33" lat="30.392524" lon="-97.69808" changeset="false"><tag k="addr:street" v="Norwegian Wood Drive"/><tag k="addr:housenumber" v="11700"/><tag k="addr:postcode" v="78758"/></node><node id="-34" lat="30.392352" lon="-97.698152" changeset="false"><tag k="addr:street" v="Norwegian Wood Drive"/><tag k="addr:housenumber" v="11610"/><tag k="addr:postcode" v="78758"/></node><node id="-35" lat="30.392043" lon="-97.69839" changeset="false"><tag k="addr:street" v="Norwegian Wood Drive"/><tag k="addr:housenumber" v="11602"/><tag k="addr:postcode" v="78758"/></node><node id="-36" lat="30.386145" lon="-97.684533" changeset="false"><tag k="addr:street" v="North Lamar Boulevard"/><tag k="addr:housenumber" v="11700"/><tag k="addr:postcode" v="78758"/></node><node id="-37" lat="30.389438" lon="-97.683165" changeset="false"><tag k="addr:street" v="North Lamar Boulevard"/><tag k="addr:housenumber" v="11814"/><tag k="addr:postcode" v="78758"/></node><node id="-38" lat="30.390051" lon="-97.683611" changeset="false"><tag k="addr:street" v="North Lamar Boulevard"/><tag k="addr:housenumber" v="11900"/><tag k="addr:postcode" v="78758"/></node><node id="-39" lat="30.386468" lon="-97.684253" changeset="false"><tag k="addr:street" v="North Lamar Boulevard"/><tag k="addr:housenumber" v="11710"/><tag k="addr:postcode" v="78758"/></node><node id="-40" lat="30.384822" lon="-97.685188" changeset="false"><tag k="addr:street" v="North Bend Drive"/><tag k="addr:housenumber" v="810"/><tag k="addr:postcode" v="78758"/></node><node id="-41" lat="30.395833" lon="-97.691429" changeset="false"><tag k="addr:street" v="Elm Brook Drive"/><tag k="addr:housenumber" v="1408"/><tag k="addr:postcode" v="78758"/></node><node id="-42" lat="30.400606" lon="-97.697076" changeset="false"><tag k="addr:street" v="Bittern Hollow"/><tag k="addr:housenumber" v="12009"/><tag k="addr:postcode" v="78758"/></node><node id="-43" lat="30.387601" lon="-97.683998" changeset="false"><tag k="addr:street" v="North Lamar Boulevard"/><tag k="addr:housenumber" v="11800 1/2"/><tag k="addr:postcode" v="78758"/></node><node id="-44" lat="30.385127" lon="-97.686001" changeset="false"><tag k="addr:street" v="North Bend Drive"/><tag k="addr:housenumber" v="836"/><tag k="addr:postcode" v="78758"/></node><node id="-45" lat="30.389201" lon="-97.683275" changeset="false"><tag k="addr:street" v="North Lamar Boulevard"/><tag k="addr:housenumber" v="11812"/><tag k="addr:postcode" v="78758"/></node><node id="-46" lat="30.398578" lon="-97.690812" changeset="false"><tag k="addr:street" v="Sky West Drive"/><tag k="addr:housenumber" v="12020"/><tag k="addr:postcode" v="78758"/></node><node id="-47" lat="30.397422" lon="-97.691925" changeset="false"><tag k="addr:street" v="Sky West Drive"/><tag k="addr:housenumber" v="12003"/><tag k="addr:postcode" v="78758"/></node><node id="-48" lat="30.3922" lon="-97.698253" changeset="false"><tag k="addr:street" v="Norwegian Wood Drive"/><tag k="addr:housenumber" v="11606"/><tag k="addr:postcode" v="78758"/></node><node id="-49" lat="30.405744" lon="-97.697238" changeset="false"><tag k="addr:street" v="Metric Boulevard"/><tag k="addr:housenumber" v="12133"/><tag k="addr:postcode" v="78758"/></node><node id="-50" lat="30.393953" lon="-97.681367" changeset="false"><tag k="addr:street" v="North Lamar Boulevard"/><tag k="addr:housenumber" v="12052"/><tag k="addr:postcode" v="78758"/></node><node id="-51" lat="30.393458" lon="-97.681721" changeset="false"><tag k="addr:street" v="North Lamar Boulevard"/><tag k="addr:housenumber" v="12038"/><tag k="addr:postcode" v="78758"/></node><node id="-52" lat="30.392421" lon="-97.682126" changeset="false"><tag k="addr:street" v="North Lamar Boulevard"/><tag k="addr:housenumber" v="12020"/><tag k="addr:postcode" v="78758"/></node><node id="-53" lat="30.391322" lon="-97.682653" changeset="false"><tag k="addr:street" v="North Lamar Boulevard"/><tag k="addr:housenumber" v="11912"/><tag k="addr:postcode" v="78758"/></node><node id="-54" lat="30.391499" lon="-97.682292" changeset="false"><tag k="addr:street" v="North Lamar Boulevard"/><tag k="addr:housenumber" v="12004"/><tag k="addr:postcode" v="78758"/></node><node id="-55" lat="30.385938" lon="-97.684496" changeset="false"><tag k="addr:street" v="North Lamar Boulevard"/><tag k="addr:housenumber" v="11628"/><tag k="addr:postcode" v="78758"/></node><node id="-56" lat="30.386524" lon="-97.684786" changeset="false"><tag k="addr:street" v="North Lamar Boulevard"/><tag k="addr:housenumber" v="11702"/><tag k="addr:postcode" v="78758"/></node><node id="-57" lat="30.387353" lon="-97.685284" changeset="false"><tag k="addr:street" v="North Lamar Boulevard"/><tag k="addr:housenumber" v="11706"/><tag k="addr:postcode" v="78758"/></node><node id="-58" lat="30.397878" lon="-97.694887" changeset="false"><tag k="addr:street" v="Bittern Hollow"/><tag k="addr:housenumber" v="11923"/><tag k="addr:postcode" v="78758"/></node><node id="-59" lat="30.396911" lon="-97.693351" changeset="false"><tag k="addr:street" v="Sky West Drive"/><tag k="addr:housenumber" v="11910"/><tag k="addr:postcode" v="78758"/></node><node id="-60" lat="30.384783" lon="-97.685104" changeset="false"><tag k="addr:street" v="North Lamar Boulevard"/><tag k="addr:housenumber" v="11520"/><tag k="addr:postcode" v="78758"/></node><node id="-61" lat="30.386674" lon="-97.684527" changeset="false"><tag k="addr:street" v="North Lamar Boulevard"/><tag k="addr:housenumber" v="11704"/><tag k="addr:postcode" v="78758"/></node><node id="-62" lat="30.38486" lon="-97.685" changeset="false"><tag k="addr:street" v="North Lamar Boulevard"/><tag k="addr:housenumber" v="11522"/><tag k="addr:postcode" v="78758"/></node><node id="-63" lat="30.393624" lon="-97.696753" changeset="false"><tag k="addr:street" v="Norwegian Wood Drive"/><tag k="addr:housenumber" v="11731"/><tag k="addr:postcode" v="78758"/></node><node id="-64" lat="30.403889" lon="-97.697989" changeset="false"><tag k="addr:street" v="Metric Boulevard"/><tag k="addr:housenumber" v="12113"/><tag k="addr:postcode" v="78758"/></node><node id="-65" lat="30.397337" lon="-97.692043" changeset="false"><tag k="addr:street" v="Sky West Drive"/><tag k="addr:housenumber" v="12001"/><tag k="addr:postcode" v="78758"/></node><node id="-66" lat="30.392685" lon="-97.698004" changeset="false"><tag k="addr:street" v="Norwegian Wood Drive"/><tag k="addr:housenumber" v="11704"/><tag k="addr:postcode" v="78758"/></node><node id="-67" lat="30.393534" lon="-97.696911" changeset="false"><tag k="addr:street" v="Norwegian Wood Drive"/><tag k="addr:housenumber" v="11729"/><tag k="addr:postcode" v="78758"/></node><node id="-68" lat="30.393541" lon="-97.697535" changeset="false"><tag k="addr:street" v="Norwegian Wood Drive"/><tag k="addr:housenumber" v="11722"/><tag k="addr:postcode" v="78758"/></node><node id="-69" lat="30.393676" lon="-97.697388" changeset="false"><tag k="addr:street" v="Norwegian Wood Drive"/><tag k="addr:housenumber" v="11726"/><tag k="addr:postcode" v="78758"/></node><node id="-70" lat="30.393284" lon="-97.697736" changeset="false"><tag k="addr:street" v="Norwegian Wood Drive"/><tag k="addr:housenumber" v="11718"/><tag k="addr:postcode" v="78758"/></node><node id="-71" lat="30.393265" lon="-97.697193" changeset="false"><tag k="addr:street" v="Norwegian Wood Drive"/><tag k="addr:housenumber" v="11721"/><tag k="addr:postcode" v="78758"/></node><node id="-72" lat="30.392295" lon="-97.698191" changeset="false"><tag k="addr:street" v="Norwegian Wood Drive"/><tag k="addr:housenumber" v="11608"/><tag k="addr:postcode" v="78758"/></node><node id="-73" lat="30.392459" lon="-97.69812" changeset="false"><tag k="addr:street" v="Norwegian Wood Drive"/><tag k="addr:housenumber" v="11612"/><tag k="addr:postcode" v="78758"/></node><node id="-74" lat="30.392391" lon="-97.69764" changeset="false"><tag k="addr:street" v="Norwegian Wood Drive"/><tag k="addr:housenumber" v="11701"/><tag k="addr:postcode" v="78758"/></node><node id="-75" lat="30.392558" lon="-97.697582" changeset="false"><tag k="addr:street" v="Norwegian Wood Drive"/><tag k="addr:housenumber" v="11705"/><tag k="addr:postcode" v="78758"/></node><node id="-76" lat="30.392625" lon="-97.698047" changeset="false"><tag k="addr:street" v="Norwegian Wood Drive"/><tag k="addr:housenumber" v="11702"/><tag k="addr:postcode" v="78758"/></node><node id="-77" lat="30.392882" lon="-97.697425" changeset="false"><tag k="addr:street" v="Norwegian Wood Drive"/><tag k="addr:housenumber" v="11713"/><tag k="addr:postcode" v="78758"/></node><node id="-78" lat="30.39173" lon="-97.698121" changeset="false"><tag k="addr:street" v="Norwegian Wood Drive"/><tag k="addr:housenumber" v="11601"/><tag k="addr:postcode" v="78758"/></node><node id="-79" lat="30.39199" lon="-97.698452" changeset="false"><tag k="addr:street" v="Norwegian Wood Drive"/><tag k="addr:housenumber" v="11600"/><tag k="addr:postcode" v="78758"/></node><node id="-80" lat="30.392032" lon="-97.697824" changeset="false"><tag k="addr:street" v="Norwegian Wood Drive"/><tag k="addr:housenumber" v="11609"/><tag k="addr:postcode" v="78758"/></node><node id="-81" lat="30.392132" lon="-97.698296" changeset="false"><tag k="addr:street" v="Norwegian Wood Drive"/><tag k="addr:housenumber" v="11604"/><tag k="addr:postcode" v="78758"/></node><node id="-82" lat="30.393159" lon="-97.697793" changeset="false"><tag k="addr:street" v="Norwegian Wood Drive"/><tag k="addr:housenumber" v="11716"/><tag k="addr:postcode" v="78758"/></node><node id="-83" lat="30.393105" lon="-97.697827" changeset="false"><tag k="addr:street" v="Norwegian Wood Drive"/><tag k="addr:housenumber" v="11714"/><tag k="addr:postcode" v="78758"/></node><node id="-84" lat="30.392787" lon="-97.697485" changeset="false"><tag k="addr:street" v="Norwegian Wood Drive"/><tag k="addr:housenumber" v="11711"/><tag k="addr:postcode" v="78758"/></node><node id="-85" lat="30.392713" lon="-97.697505" changeset="false"><tag k="addr:street" v="Norwegian Wood Drive"/><tag k="addr:housenumber" v="11709"/><tag k="addr:postcode" v="78758"/></node><node id="-86" lat="30.392843" lon="-97.697945" changeset="false"><tag k="addr:street" v="Norwegian Wood Drive"/><tag k="addr:housenumber" v="11708"/><tag k="addr:postcode" v="78758"/></node><node id="-87" lat="30.392778" lon="-97.697973" changeset="false"><tag k="addr:street" v="Norwegian Wood Drive"/><tag k="addr:housenumber" v="11706"/><tag k="addr:postcode" v="78758"/></node><node id="-88" lat="30.392933" lon="-97.697895" changeset="false"><tag k="addr:street" v="Norwegian Wood Drive"/><tag k="addr:housenumber" v="11710"/><tag k="addr:postcode" v="78758"/></node><node id="-89" lat="30.393004" lon="-97.697866" changeset="false"><tag k="addr:street" v="Norwegian Wood Drive"/><tag k="addr:housenumber" v="11712"/><tag k="addr:postcode" v="78758"/></node><node id="-90" lat="30.393079" lon="-97.697366" changeset="false"><tag k="addr:street" v="Norwegian Wood Drive"/><tag k="addr:housenumber" v="11717"/><tag k="addr:postcode" v="78758"/></node><node id="-91" lat="30.393136" lon="-97.697325" changeset="false"><tag k="addr:street" v="Norwegian Wood Drive"/><tag k="addr:housenumber" v="11719"/><tag k="addr:postcode" v="78758"/></node><node id="-92" lat="30.392225" lon="-97.697733" changeset="false"><tag k="addr:street" v="Norwegian Wood Drive"/><tag k="addr:housenumber" v="11613"/><tag k="addr:postcode" v="78758"/></node><node id="-93" lat="30.392287" lon="-97.697682" changeset="false"><tag k="addr:street" v="Norwegian Wood Drive"/><tag k="addr:housenumber" v="11615"/><tag k="addr:postcode" v="78758"/></node></osm>