<?xml version="1.0" encoding="UTF-8"?><osm version="0.6" generator="github.com/aaronlidman/osm-and-geojson"><node id="-1" lat="30.470936" lon="-97.510759" changeset="false"><tag k="addr:street" v="Melber Lane"/><tag k="addr:housenumber" v="21317"/><tag k="addr:postcode" v="78653"/></node><node id="-2" lat="30.459197" lon="-97.477064" changeset="false"><tag k="addr:street" v="Cameron Road"/><tag k="addr:housenumber" v="21016"/><tag k="addr:postcode" v="78615"/></node><node id="-3" lat="30.46376" lon="-97.5029" changeset="false"><tag k="addr:street" v="Engelmann Lane"/><tag k="addr:housenumber" v="20229"/><tag k="addr:postcode" v="78615"/></node><node id="-4" lat="30.407098" lon="-97.53726" changeset="false"><tag k="addr:street" v="Schmidt Lane"/><tag k="addr:housenumber" v="9700"/><tag k="addr:postcode" v="78653"/></node><node id="-5" lat="30.422022" lon="-97.526852" changeset="false"><tag k="addr:street" v="Steger Lane"/><tag k="addr:housenumber" v="17610"/><tag k="addr:postcode" v="78653"/></node><node id="-6" lat="30.443859" lon="-97.499362" changeset="false"><tag k="addr:street" v="Cameron Road"/><tag k="addr:housenumber" v="20427"/><tag k="addr:postcode" v="78615"/></node><node id="-7" lat="30.432583" lon="-97.502122" changeset="false"><tag k="addr:street" v="Farm-to-Market Road 973"/><tag k="addr:housenumber" v="18200"/><tag k="addr:postcode" v="78653"/></node><node id="-8" lat="30.427734" lon="-97.505428" changeset="false"><tag k="addr:street" v="Farm-to-Market Road 973"/><tag k="addr:housenumber" v="17900"/><tag k="addr:postcode" v="78653"/></node><node id="-9" lat="30.425006" lon="-97.509396" changeset="false"><tag k="addr:street" v="Farm-to-Market Road 973"/><tag k="addr:housenumber" v="17610"/><tag k="addr:postcode" v="78653"/></node><node id="-10" lat="30.445007" lon="-97.500685" changeset="false"><tag k="addr:street" v="Cameron Road"/><tag k="addr:housenumber" v="20430"/><tag k="addr:postcode" v="78615"/></node><node id="-11" lat="30.412624" lon="-97.530916" changeset="false"><tag k="addr:street" v="Cameron Road"/><tag k="addr:housenumber" v="17311"/><tag k="addr:postcode" v="78653"/></node><node id="-12" lat="30.472778" lon="-97.50199" changeset="false"><tag k="addr:street" v="Engelmann Lane"/><tag k="addr:housenumber" v="20801"/><tag k="addr:postcode" v="78615"/></node><node id="-13" lat="30.461662" lon="-97.473877" changeset="false"><tag k="addr:street" v="Richland Road"/><tag k="addr:housenumber" v="11501"/><tag k="addr:postcode" v="78615"/></node><node id="-14" lat="30.460669" lon="-97.489061" changeset="false"><tag k="addr:street" v="Cameron Road"/><tag k="addr:housenumber" v="20812"/><tag k="addr:postcode" v="78615"/></node><node id="-15" lat="30.460775" lon="-97.490001" changeset="false"><tag k="addr:street" v="Cameron Road"/><tag k="addr:housenumber" v="20800"/><tag k="addr:postcode" v="78615"/></node><node id="-16" lat="30.460776" lon="-97.552371" changeset="false"><tag k="addr:street" v="Hodde Lane"/><tag k="addr:housenumber" v="19715"/><tag k="addr:postcode" v="78660"/></node><node id="-17" lat="30.417338" lon="-97.517804" changeset="false"><tag k="addr:street" v="Saint Therese Road"/><tag k="addr:housenumber" v="17109"/><tag k="addr:postcode" v="78653"/></node><node id="-18" lat="30.439983" lon="-97.502415" changeset="false"><tag k="addr:street" v="Hamann Lane"/><tag k="addr:housenumber" v="10617"/><tag k="addr:postcode" v="78653"/></node><node id="-19" lat="30.439786" lon="-97.502064" changeset="false"><tag k="addr:street" v="Hamann Lane"/><tag k="addr:housenumber" v="10701"/><tag k="addr:postcode" v="78653"/></node><node id="-20" lat="30.439289" lon="-97.500958" changeset="false"><tag k="addr:street" v="Hamann Lane"/><tag k="addr:housenumber" v="10809"/><tag k="addr:postcode" v="78653"/></node><node id="-21" lat="30.414698" lon="-97.520337" changeset="false"><tag k="addr:street" v="Steger Lane"/><tag k="addr:housenumber" v="17200"/><tag k="addr:postcode" v="78653"/></node><node id="-22" lat="30.460367" lon="-97.486302" changeset="false"><tag k="addr:street" v="Cameron Road"/><tag k="addr:housenumber" v="20848"/><tag k="addr:postcode" v="78615"/></node><node id="-23" lat="30.440308" lon="-97.50315" changeset="false"><tag k="addr:street" v="Hamann Lane"/><tag k="addr:housenumber" v="10601"/><tag k="addr:postcode" v="78653"/></node><node id="-24" lat="30.441105" lon="-97.505368" changeset="false"><tag k="addr:street" v="Cameron Road"/><tag k="addr:housenumber" v="20117"/><tag k="addr:postcode" v="78615"/></node><node id="-25" lat="30.440062" lon="-97.506004" changeset="false"><tag k="addr:street" v="Cameron Road"/><tag k="addr:housenumber" v="20025"/><tag k="addr:postcode" v="78653"/></node><node id="-26" lat="30.440376" lon="-97.505836" changeset="false"><tag k="addr:street" v="Cameron Road"/><tag k="addr:housenumber" v="20033"/><tag k="addr:postcode" v="78653"/></node><node id="-27" lat="30.446287" lon="-97.515335" changeset="false"><tag k="addr:street" v="Engelmann Lane"/><tag k="addr:housenumber" v="19103"/><tag k="addr:postcode" v="78615"/></node><node id="-28" lat="30.458948" lon="-97.476022" changeset="false"><tag k="addr:street" v="Cameron Road"/><tag k="addr:housenumber" v="21028"/><tag k="addr:postcode" v="78615"/></node><node id="-29" lat="30.461048" lon="-97.47173" changeset="false"><tag k="addr:street" v="Richland Road"/><tag k="addr:housenumber" v="11603"/><tag k="addr:postcode" v="78615"/></node><node id="-30" lat="30.425389" lon="-97.532525" changeset="false"><tag k="addr:street" v="Cameron Road"/><tag k="addr:housenumber" v="17733"/><tag k="addr:postcode" v="78653"/></node><node id="-31" lat="30.448171" lon="-97.535404" changeset="false"><tag k="addr:street" v="Cele Road"/><tag k="addr:housenumber" v="7700"/><tag k="addr:postcode" v="78653"/></node><node id="-32" lat="30.461885" lon="-97.475" changeset="false"><tag k="addr:street" v="Richland Road"/><tag k="addr:housenumber" v="11405"/><tag k="addr:postcode" v="78615"/></node><node id="-33" lat="30.460764" lon="-97.489495" changeset="false"><tag k="addr:street" v="Cameron Road"/><tag k="addr:housenumber" v="20806"/><tag k="addr:postcode" v="78615"/></node><node id="-34" lat="30.460607" lon="-97.488617" changeset="false"><tag k="addr:street" v="Cameron Road"/><tag k="addr:housenumber" v="20818"/><tag k="addr:postcode" v="78615"/></node><node id="-35" lat="30.460456" lon="-97.487609" changeset="false"><tag k="addr:street" v="Cameron Road"/><tag k="addr:housenumber" v="20830"/><tag k="addr:postcode" v="78615"/></node><node id="-36" lat="30.46049" lon="-97.487201" changeset="false"><tag k="addr:street" v="Cameron Road"/><tag k="addr:housenumber" v="20836"/><tag k="addr:postcode" v="78615"/></node><node id="-37" lat="30.460629" lon="-97.552405" changeset="false"><tag k="addr:street" v="Hodde Lane"/><tag k="addr:housenumber" v="19711"/><tag k="addr:postcode" v="78660"/></node><node id="-38" lat="30.416883" lon="-97.519378" changeset="false"><tag k="addr:street" v="Steger Lane"/><tag k="addr:housenumber" v="17211"/><tag k="addr:postcode" v="78653"/></node><node id="-39" lat="30.43911" lon="-97.500645" changeset="false"><tag k="addr:street" v="Hamann Lane"/><tag k="addr:housenumber" v="10901"/><tag k="addr:postcode" v="78653"/></node><node id="-40" lat="30.416294" lon="-97.515445" changeset="false"><tag k="addr:street" v="Saint Therese Road"/><tag k="addr:housenumber" v="17005"/><tag k="addr:postcode" v="78653"/></node><node id="-41" lat="30.449766" lon="-97.497033" changeset="false"><tag k="addr:street" v="Cameron Road"/><tag k="addr:housenumber" v="20565"/><tag k="addr:postcode" v="78615"/></node><node id="-42" lat="30.445642" lon="-97.515898" changeset="false"><tag k="addr:street" v="Engelmann Lane"/><tag k="addr:housenumber" v="19065"/><tag k="addr:postcode" v="78653"/></node><node id="-43" lat="30.476487" lon="-97.501291" changeset="false"><tag k="addr:street" v="Engelmann Lane"/><tag k="addr:housenumber" v="21017"/><tag k="addr:postcode" v="78615"/></node><node id="-44" lat="30.434473" lon="-97.48339" changeset="false"><tag k="addr:street" v="Walton Hill Pass"/><tag k="addr:housenumber" v="12100"/><tag k="addr:postcode" v="78615"/></node><node id="-45" lat="30.422386" lon="-97.504383" changeset="false"><tag k="addr:street" v="Farm-to-Market Road 973"/><tag k="addr:housenumber" v="17604"/><tag k="addr:postcode" v="78653"/></node><node id="-46" lat="30.406935" lon="-97.516548" changeset="false"><tag k="addr:street" v="Farm-to-Market Road 973"/><tag k="addr:housenumber" v="16508"/><tag k="addr:postcode" v="78653"/></node><node id="-47" lat="30.459859" lon="-97.482468" changeset="false"><tag k="addr:street" v="Cameron Road"/><tag k="addr:housenumber" v="20930"/><tag k="addr:postcode" v="78615"/></node><node id="-48" lat="30.44517" lon="-97.499322" changeset="false"><tag k="addr:street" v="Cameron Road"/><tag k="addr:housenumber" v="20441"/><tag k="addr:postcode" v="78615"/></node><node id="-49" lat="30.434607" lon="-97.499733" changeset="false"><tag k="addr:street" v="Farm-to-Market Road 973"/><tag k="addr:housenumber" v="18300"/><tag k="addr:postcode" v="78653"/></node><node id="-50" lat="30.427352" lon="-97.501414" changeset="false"><tag k="addr:street" v="Farm-to-Market Road 973"/><tag k="addr:housenumber" v="17912"/><tag k="addr:postcode" v="78653"/></node><node id="-51" lat="30.403225" lon="-97.531505" changeset="false"><tag k="addr:street" v="Schmidt Lane"/><tag k="addr:housenumber" v="10308"/><tag k="addr:postcode" v="78653"/></node><node id="-52" lat="30.413925" lon="-97.516938" changeset="false"><tag k="addr:street" v="Steger Lane"/><tag k="addr:housenumber" v="17037"/><tag k="addr:postcode" v="78653"/></node><node id="-53" lat="30.412932" lon="-97.540366" changeset="false"><tag k="addr:street" v="Cameron Road"/><tag k="addr:housenumber" v="17027"/><tag k="addr:postcode" v="78653"/></node><node id="-54" lat="30.400794" lon="-97.52575" changeset="false"><tag k="addr:street" v="Schmidt Lane"/><tag k="addr:housenumber" v="10902"/><tag k="addr:postcode" v="78653"/></node><node id="-55" lat="30.416928" lon="-97.516867" changeset="false"><tag k="addr:street" v="Saint Therese Road"/><tag k="addr:housenumber" v="17101"/><tag k="addr:postcode" v="78653"/></node><node id="-56" lat="30.41714" lon="-97.517375" changeset="false"><tag k="addr:street" v="Saint Therese Road"/><tag k="addr:housenumber" v="17105"/><tag k="addr:postcode" v="78653"/></node><node id="-57" lat="30.417599" lon="-97.518259" changeset="false"><tag k="addr:street" v="Saint Therese Road"/><tag k="addr:housenumber" v="17113"/><tag k="addr:postcode" v="78653"/></node><node id="-58" lat="30.440707" lon="-97.505638" changeset="false"><tag k="addr:street" v="Cameron Road"/><tag k="addr:housenumber" v="20101"/><tag k="addr:postcode" v="78653"/></node><node id="-59" lat="30.417538" lon="-97.516625" changeset="false"><tag k="addr:street" v="Saint Therese Road"/><tag k="addr:housenumber" v="17100"/><tag k="addr:postcode" v="78653"/></node><node id="-60" lat="30.415175" lon="-97.519952" changeset="false"><tag k="addr:street" v="Steger Lane"/><tag k="addr:housenumber" v="17201"/><tag k="addr:postcode" v="78653"/></node><node id="-61" lat="30.418713" lon="-97.518147" changeset="false"><tag k="addr:street" v="Saint Raguel Road"/><tag k="addr:housenumber" v="19001"/><tag k="addr:postcode" v="78653"/></node><node id="-62" lat="30.44605" lon="-97.51569" changeset="false"><tag k="addr:street" v="Engelmann Lane"/><tag k="addr:housenumber" v="19069"/><tag k="addr:postcode" v="78653"/></node><node id="-63" lat="30.43974" lon="-97.506212" changeset="false"><tag k="addr:street" v="Cameron Road"/><tag k="addr:housenumber" v="20017"/><tag k="addr:postcode" v="78653"/></node><node id="-64" lat="30.416708" lon="-97.509014" changeset="false"><tag k="addr:street" v="Farm-to-Market Road 973"/><tag k="addr:housenumber" v="17220"/><tag k="addr:postcode" v="78653"/></node><node id="-65" lat="30.402351" lon="-97.517757" changeset="false"><tag k="addr:street" v="Farm-to-Market Road 973"/><tag k="addr:housenumber" v="16312"/><tag k="addr:postcode" v="78653"/></node><node id="-66" lat="30.461648" lon="-97.473127" changeset="false"><tag k="addr:street" v="Richland Road"/><tag k="addr:housenumber" v="11507"/><tag k="addr:postcode" v="78615"/></node><node id="-67" lat="30.462359" lon="-97.484053" changeset="false"><tag k="addr:street" v="Cameron Road"/><tag k="addr:housenumber" v="20860"/><tag k="addr:postcode" v="78615"/></node><node id="-68" lat="30.463522" lon="-97.471176" changeset="false"><tag k="addr:street" v="Burr Oak Drive"/><tag k="addr:housenumber" v="20201"/><tag k="addr:postcode" v="78615"/></node><node id="-69" lat="30.455409" lon="-97.515514" changeset="false"><tag k="addr:street" v="Engelmann Lane"/><tag k="addr:housenumber" v="19700"/><tag k="addr:postcode" v="78653"/></node><node id="-70" lat="30.455461" lon="-97.528178" changeset="false"><tag k="addr:street" v="Melber Lane"/><tag k="addr:housenumber" v="19717"/><tag k="addr:postcode" v="78653"/></node><node id="-71" lat="30.465472" lon="-97.471937" changeset="false"><tag k="addr:street" v="Burr Oak Drive"/><tag k="addr:housenumber" v="20306"/><tag k="addr:postcode" v="78615"/></node><node id="-72" lat="30.463994" lon="-97.472493" changeset="false"><tag k="addr:street" v="Burr Oak Drive"/><tag k="addr:housenumber" v="20208"/><tag k="addr:postcode" v="78615"/></node><node id="-73" lat="30.437455" lon="-97.495062" changeset="false"><tag k="addr:street" v="Hamann Lane"/><tag k="addr:housenumber" v="11218"/><tag k="addr:postcode" v="78615"/></node><node id="-74" lat="30.466211" lon="-97.507268" changeset="false"><tag k="addr:street" v="Engelmann Lane"/><tag k="addr:housenumber" v="20102"/><tag k="addr:postcode" v="78653"/></node><node id="-75" lat="30.460411" lon="-97.486757" changeset="false"><tag k="addr:street" v="Cameron Road"/><tag k="addr:housenumber" v="20842"/><tag k="addr:postcode" v="78615"/></node><node id="-76" lat="30.460528" lon="-97.488143" changeset="false"><tag k="addr:street" v="Cameron Road"/><tag k="addr:housenumber" v="20824"/><tag k="addr:postcode" v="78615"/></node><node id="-77" lat="30.415237" lon="-97.519228" changeset="false"><tag k="addr:street" v="Steger Lane"/><tag k="addr:housenumber" v="17137"/><tag k="addr:postcode" v="78653"/></node><node id="-78" lat="30.440737" lon="-97.503891" changeset="false"><tag k="addr:street" v="Cameron Road"/><tag k="addr:housenumber" v="20217"/><tag k="addr:postcode" v="78653"/></node><node id="-79" lat="30.419139" lon="-97.516958" changeset="false"><tag k="addr:street" v="Saint Raguel Road"/><tag k="addr:housenumber" v="19012"/><tag k="addr:postcode" v="78653"/></node><node id="-80" lat="30.45612" lon="-97.493123" changeset="false"><tag k="addr:street" v="Cameron Road"/><tag k="addr:housenumber" v="20681"/><tag k="addr:postcode" v="78615"/></node><node id="-81" lat="30.466379" lon="-97.473812" changeset="false"><tag k="addr:street" v="Wilson Road"/><tag k="addr:housenumber" v="20406"/><tag k="addr:postcode" v="78615"/></node><node id="-82" lat="30.438893" lon="-97.500176" changeset="false"><tag k="addr:street" v="Hamann Lane"/><tag k="addr:housenumber" v="10909"/><tag k="addr:postcode" v="78653"/></node><node id="-83" lat="30.417283" lon="-97.516169" changeset="false"><tag k="addr:street" v="Saint Therese Road"/><tag k="addr:housenumber" v="17012"/><tag k="addr:postcode" v="78653"/></node><node id="-84" lat="30.438174" lon="-97.524311" changeset="false"><tag k="addr:street" v="Cameron Road"/><tag k="addr:housenumber" v="18609"/><tag k="addr:postcode" v="78653"/></node><node id="-85" lat="30.47572" lon="-97.541823" changeset="false"><tag k="addr:street" v="Hodde Lane"/><tag k="addr:housenumber" v="20905"/><tag k="addr:postcode" v="78660"/></node><node id="-86" lat="30.461594" lon="-97.545824" changeset="false"><tag k="addr:street" v="Hodde Lane"/><tag k="addr:housenumber" v="19919"/><tag k="addr:postcode" v="78660"/></node><node id="-87" lat="30.448592" lon="-97.497473" changeset="false"><tag k="addr:street" v="Cameron Road"/><tag k="addr:housenumber" v="20541"/><tag k="addr:postcode" v="78615"/></node><node id="-88" lat="30.459894" lon="-97.482003" changeset="false"><tag k="addr:street" v="Cameron Road"/><tag k="addr:housenumber" v="20936"/><tag k="addr:postcode" v="78615"/></node><node id="-89" lat="30.47232" lon="-97.501902" changeset="false"><tag k="addr:street" v="Engelmann Lane"/><tag k="addr:housenumber" v="20725"/><tag k="addr:postcode" v="78615"/></node><node id="-90" lat="30.402958" lon="-97.517106" changeset="false"><tag k="addr:street" v="Farm-to-Market Road 973"/><tag k="addr:housenumber" v="16330"/><tag k="addr:postcode" v="78653"/></node><node id="-91" lat="30.458712" lon="-97.473312" changeset="false"><tag k="addr:street" v="Cameron Road"/><tag k="addr:housenumber" v="21058"/><tag k="addr:postcode" v="78615"/></node><node id="-92" lat="30.416693" lon="-97.516461" changeset="false"><tag k="addr:street" v="Saint Therese Road"/><tag k="addr:housenumber" v="17013"/><tag k="addr:postcode" v="78653"/></node><node id="-93" lat="30.398458" lon="-97.520701" changeset="false"><tag k="addr:street" v="Schmidt Lane"/><tag k="addr:housenumber" v="11212"/><tag k="addr:postcode" v="78653"/></node><node id="-94" lat="30.460246" lon="-97.485909" changeset="false"><tag k="addr:street" v="Cameron Road"/><tag k="addr:housenumber" v="20854"/><tag k="addr:postcode" v="78615"/></node><node id="-95" lat="30.414927" lon="-97.539146" changeset="false"><tag k="addr:street" v="Cameron Road"/><tag k="addr:housenumber" v="17115"/><tag k="addr:postcode" v="78653"/></node><node id="-96" lat="30.444467" lon="-97.477306" changeset="false"><tag k="addr:street" v="Farm-to-Market Road 973"/><tag k="addr:housenumber" v="19000"/><tag k="addr:postcode" v="78615"/></node><node id="-97" lat="30.453936" lon="-97.494926" changeset="false"><tag k="addr:street" v="Cameron Road"/><tag k="addr:housenumber" v="20642"/><tag k="addr:postcode" v="78615"/></node><node id="-98" lat="30.439622" lon="-97.501632" changeset="false"><tag k="addr:street" v="Hamann Lane"/><tag k="addr:housenumber" v="10709"/><tag k="addr:postcode" v="78653"/></node><node id="-99" lat="30.418533" lon="-97.516174" changeset="false"><tag k="addr:street" v="Saint Raguel Road"/><tag k="addr:housenumber" v="19104"/><tag k="addr:postcode" v="78653"/></node><node id="-100" lat="30.417987" lon="-97.514833" changeset="false"><tag k="addr:street" v="Saint Raguel Road"/><tag k="addr:housenumber" v="19205"/><tag k="addr:postcode" v="78653"/></node><node id="-101" lat="30.477921" lon="-97.53918" changeset="false"><tag k="addr:street" v="Gate Dancer Lane"/><tag k="addr:housenumber" v="4800"/><tag k="addr:postcode" v="78634"/></node><node id="-102" lat="30.441168" lon="-97.504731" changeset="false"><tag k="addr:street" v="Cameron Road"/><tag k="addr:housenumber" v="20201"/><tag k="addr:postcode" v="78615"/></node><node id="-103" lat="30.444643" lon="-97.516216" changeset="false"><tag k="addr:street" v="Engelmann Lane"/><tag k="addr:housenumber" v="19101"/><tag k="addr:postcode" v="78653"/></node><node id="-104" lat="30.419538" lon="-97.517918" changeset="false"><tag k="addr:street" v="Saint Raguel Road"/><tag k="addr:housenumber" v="19000"/><tag k="addr:postcode" v="78653"/></node><node id="-105" lat="30.415569" lon="-97.512007" changeset="false"><tag k="addr:street" v="Farm-to-Market Road 973"/><tag k="addr:housenumber" v="17210"/><tag k="addr:postcode" v="78653"/></node><node id="-106" lat="30.450878" lon="-97.496177" changeset="false"><tag k="addr:street" v="Cameron Road"/><tag k="addr:housenumber" v="20585"/><tag k="addr:postcode" v="78615"/></node><node id="-107" lat="30.467776" lon="-97.52357" changeset="false"><tag k="addr:street" v="Melber Lane"/><tag k="addr:housenumber" v="20501"/><tag k="addr:postcode" v="78660"/></node><node id="-108" lat="30.447519" lon="-97.498987" changeset="false"><tag k="addr:street" v="Cameron Road"/><tag k="addr:housenumber" v="20512"/><tag k="addr:postcode" v="78615"/></node><node id="-109" lat="30.455559" lon="-97.549612" changeset="false"><tag k="addr:street" v="Cele Road"/><tag k="addr:housenumber" v="6000"/><tag k="addr:postcode" v="78660"/></node><node id="-110" lat="30.454369" lon="-97.500801" changeset="false"><tag k="addr:street" v="Cameron Road"/><tag k="addr:housenumber" v="20628"/><tag k="addr:postcode" v="78615"/></node><node id="-111" lat="30.43945" lon="-97.50126" changeset="false"><tag k="addr:street" v="Hamann Lane"/><tag k="addr:housenumber" v="10801"/><tag k="addr:postcode" v="78653"/></node><node id="-112" lat="30.438722" lon="-97.499833" changeset="false"><tag k="addr:street" v="Hamann Lane"/><tag k="addr:housenumber" v="10917"/><tag k="addr:postcode" v="78653"/></node><node id="-113" lat="30.458607" lon="-97.472808" changeset="false"><tag k="addr:street" v="Cameron Road"/><tag k="addr:housenumber" v="21100"/><tag k="addr:postcode" v="78615"/></node><node id="-114" lat="30.417063" lon="-97.515604" changeset="false"><tag k="addr:street" v="Saint Therese Road"/><tag k="addr:housenumber" v="17008"/><tag k="addr:postcode" v="78653"/></node><node id="-115" lat="30.416291" lon="-97.514989" changeset="false"><tag k="addr:street" v="Saint Therese Road"/><tag k="addr:housenumber" v="17001"/><tag k="addr:postcode" v="78653"/></node><node id="-116" lat="30.414497" lon="-97.51872" changeset="false"><tag k="addr:street" v="Steger Lane"/><tag k="addr:housenumber" v="17125"/><tag k="addr:postcode" v="78653"/></node><node id="-117" lat="30.418172" lon="-97.516739" changeset="false"><tag k="addr:street" v="Saint Raguel Road"/><tag k="addr:housenumber" v="19101"/><tag k="addr:postcode" v="78653"/></node><node id="-118" lat="30.417891" lon="-97.51611" changeset="false"><tag k="addr:street" v="Saint Raguel Road"/><tag k="addr:housenumber" v="19109"/><tag k="addr:postcode" v="78653"/></node><node id="-119" lat="30.41678" lon="-97.514714" changeset="false"><tag k="addr:street" v="Saint Therese Road"/><tag k="addr:housenumber" v="17000"/><tag k="addr:postcode" v="78653"/></node><node id="-120" lat="30.474881" lon="-97.49483" changeset="false"><tag k="addr:street" v="County Road 129"/><tag k="addr:housenumber" v="1600"/><tag k="addr:postcode" v="78615"/></node><node id="-121" lat="30.463059" lon="-97.503917" changeset="false"><tag k="addr:street" v="Engelmann Lane"/><tag k="addr:housenumber" v="20217"/><tag k="addr:postcode" v="78615"/></node><node id="-122" lat="30.418062" lon="-97.517949" changeset="false"><tag k="addr:street" v="Saint Therese Road"/><tag k="addr:housenumber" v="17201"/><tag k="addr:postcode" v="78653"/></node><node id="-123" lat="30.439094" lon="-97.506548" changeset="false"><tag k="addr:street" v="Cameron Road"/><tag k="addr:housenumber" v="20003"/><tag k="addr:postcode" v="78653"/></node><node id="-124" lat="30.439408" lon="-97.50638" changeset="false"><tag k="addr:street" v="Cameron Road"/><tag k="addr:housenumber" v="20009"/><tag k="addr:postcode" v="78653"/></node><node id="-125" lat="30.417003" lon="-97.515127" changeset="false"><tag k="addr:street" v="Saint Therese Road"/><tag k="addr:housenumber" v="17004"/><tag k="addr:postcode" v="78653"/></node><node id="-126" lat="30.418433" lon="-97.515642" changeset="false"><tag k="addr:street" v="Saint Raguel Road"/><tag k="addr:housenumber" v="19200"/><tag k="addr:postcode" v="78653"/></node><node id="-127" lat="30.419396" lon="-97.517341" changeset="false"><tag k="addr:street" v="Saint Raguel Road"/><tag k="addr:housenumber" v="19008"/><tag k="addr:postcode" v="78653"/></node><node id="-128" lat="30.445638" lon="-97.500434" changeset="false"><tag k="addr:street" v="Cameron Road"/><tag k="addr:housenumber" v="20440"/><tag k="addr:postcode" v="78615"/></node><node id="-129" lat="30.40508" lon="-97.528904" changeset="false"><tag k="addr:street" v="Mahlow Road"/><tag k="addr:housenumber" v="16500"/><tag k="addr:postcode" v="78653"/></node><node id="-130" lat="30.440944" lon="-97.504321" changeset="false"><tag k="addr:street" v="Cameron Road"/><tag k="addr:housenumber" v="20209"/><tag k="addr:postcode" v="78615"/></node><node id="-131" lat="30.440583" lon="-97.503509" changeset="false"><tag k="addr:street" v="Cameron Road"/><tag k="addr:housenumber" v="20225"/><tag k="addr:postcode" v="78653"/></node><node id="-132" lat="30.464309" lon="-97.471063" changeset="false"><tag k="addr:street" v="Burr Oak Drive"/><tag k="addr:housenumber" v="20215"/><tag k="addr:postcode" v="78615"/></node><node id="-133" lat="30.471194" lon="-97.503467" changeset="false"><tag k="addr:street" v="Melber Lane"/><tag k="addr:housenumber" v="21474"/><tag k="addr:postcode" v="78653"/></node><node id="-134" lat="30.418673" lon="-97.515203" changeset="false"><tag k="addr:street" v="Saint Raguel Road"/><tag k="addr:housenumber" v="19204"/><tag k="addr:postcode" v="78653"/></node><node id="-135" lat="30.444618" lon="-97.529357" changeset="false"><tag k="addr:street" v="Cele Road"/><tag k="addr:housenumber" v="8310"/><tag k="addr:postcode" v="78653"/></node><node id="-136" lat="30.440146" lon="-97.502817" changeset="false"><tag k="addr:street" v="Hamann Lane"/><tag k="addr:housenumber" v="10609"/><tag k="addr:postcode" v="78653"/></node><node id="-137" lat="30.416476" lon="-97.516012" changeset="false"><tag k="addr:street" v="Saint Therese Road"/><tag k="addr:housenumber" v="17009"/><tag k="addr:postcode" v="78653"/></node><node id="-138" lat="30.407313" lon="-97.535799" changeset="false"><tag k="addr:street" v="Schmidt Lane"/><tag k="addr:housenumber" v="9708"/><tag k="addr:postcode" v="78653"/></node><node id="-139" lat="30.429267" lon="-97.529125" changeset="false"><tag k="addr:street" v="Steger Lane"/><tag k="addr:housenumber" v="18111"/><tag k="addr:postcode" v="78653"/></node><node id="-140" lat="30.418277" lon="-97.534987" changeset="false"><tag k="addr:street" v="Cameron Road"/><tag k="addr:housenumber" v="17409"/><tag k="addr:postcode" v="78653"/></node><node id="-141" lat="30.440665" lon="-97.509792" changeset="false"><tag k="addr:street" v="Cameron Road"/><tag k="addr:housenumber" v="19814"/><tag k="addr:postcode" v="78653"/></node><node id="-142" lat="30.444877" lon="-97.499504" changeset="false"><tag k="addr:street" v="Cameron Road"/><tag k="addr:housenumber" v="20437"/><tag k="addr:postcode" v="78615"/></node><node id="-143" lat="30.414351" lon="-97.518048" changeset="false"><tag k="addr:street" v="Steger Lane"/><tag k="addr:housenumber" v="17113"/><tag k="addr:postcode" v="78653"/></node><node id="-144" lat="30.448013" lon="-97.514359" changeset="false"><tag k="addr:street" v="Engelmann Lane"/><tag k="addr:housenumber" v="19223"/><tag k="addr:postcode" v="78615"/></node><node id="-145" lat="30.447069" lon="-97.498488" changeset="false"><tag k="addr:street" v="Cameron Road"/><tag k="addr:housenumber" v="20509"/><tag k="addr:postcode" v="78615"/></node><node id="-146" lat="30.470856" lon="-97.503851" changeset="false"><tag k="addr:street" v="Melber Lane"/><tag k="addr:housenumber" v="21468"/><tag k="addr:postcode" v="78653"/></node><node id="-147" lat="30.421274" lon="-97.535147" changeset="false"><tag k="addr:street" v="Cameron Road"/><tag k="addr:housenumber" v="17601"/><tag k="addr:postcode" v="78653"/></node><node id="-148" lat="30.463648" lon="-97.474391" changeset="false"><tag k="addr:street" v="Richland Road"/><tag k="addr:housenumber" v="11404"/><tag k="addr:postcode" v="78615"/></node><node id="-149" lat="30.45997" lon="-97.480904" changeset="false"><tag k="addr:street" v="Cameron Road"/><tag k="addr:housenumber" v="20948"/><tag k="addr:postcode" v="78615"/></node><node id="-150" lat="30.460257" lon="-97.483648" changeset="false"><tag k="addr:street" v="Cameron Road"/><tag k="addr:housenumber" v="20918"/><tag k="addr:postcode" v="78615"/></node><node id="-151" lat="30.465575" lon="-97.504138" changeset="false"><tag k="addr:street" v="Engelmann Lane"/><tag k="addr:housenumber" v="20312"/><tag k="addr:postcode" v="78615"/></node><node id="-152" lat="30.405757" lon="-97.535463" changeset="false"><tag k="addr:street" v="Schmidt Lane"/><tag k="addr:housenumber" v="9908"/><tag k="addr:postcode" v="78653"/></node><node id="-153" lat="30.462414" lon="-97.475416" changeset="false"><tag k="addr:street" v="Richland Road"/><tag k="addr:housenumber" v="11400"/><tag k="addr:postcode" v="78615"/></node><node id="-154" lat="30.458812" lon="-97.47496" changeset="false"><tag k="addr:street" v="Cameron Road"/><tag k="addr:housenumber" v="21040"/><tag k="addr:postcode" v="78615"/></node><node id="-155" lat="30.414507" lon="-97.518269" changeset="false"><tag k="addr:street" v="Steger Lane"/><tag k="addr:housenumber" v="17117"/><tag k="addr:postcode" v="78653"/></node><node id="-156" lat="30.445578" lon="-97.499344" changeset="false"><tag k="addr:street" v="Cameron Road"/><tag k="addr:housenumber" v="20445"/><tag k="addr:postcode" v="78615"/></node><node id="-157" lat="30.443166" lon="-97.500717" changeset="false"><tag k="addr:street" v="Cameron Road"/><tag k="addr:housenumber" v="20401"/><tag k="addr:postcode" v="78615"/></node><node id="-158" lat="30.436465" lon="-97.482319" changeset="false"><tag k="addr:street" v="Farm-to-Market Road 973"/><tag k="addr:housenumber" v="18618"/><tag k="addr:postcode" v="78615"/></node><node id="-159" lat="30.471668" lon="-97.512758" changeset="false"><tag k="addr:street" v="Melber Lane"/><tag k="addr:housenumber" v="21279"/><tag k="addr:postcode" v="78653"/></node><node id="-160" lat="30.459284" lon="-97.47814" changeset="false"><tag k="addr:street" v="Cameron Road"/><tag k="addr:housenumber" v="21004"/><tag k="addr:postcode" v="78615"/></node><node id="-161" lat="30.459234" lon="-97.477623" changeset="false"><tag k="addr:street" v="Cameron Road"/><tag k="addr:housenumber" v="21010"/><tag k="addr:postcode" v="78615"/></node><node id="-162" lat="30.461802" lon="-97.470783" changeset="false"><tag k="addr:street" v="Richland Road"/><tag k="addr:housenumber" v="11700"/><tag k="addr:postcode" v="78615"/></node><node id="-163" lat="30.472834" lon="-97.521187" changeset="false"><tag k="addr:street" v="Melber Lane"/><tag k="addr:housenumber" v="21127"/><tag k="addr:postcode" v="78653"/></node><node id="-164" lat="30.447255" lon="-97.515129" changeset="false"><tag k="addr:street" v="Engelmann Lane"/><tag k="addr:housenumber" v="19105"/><tag k="addr:postcode" v="78615"/></node><node id="-165" lat="30.411742" lon="-97.541156" changeset="false"><tag k="addr:street" v="Cameron Road"/><tag k="addr:housenumber" v="17021"/><tag k="addr:postcode" v="78653"/></node><node id="-166" lat="30.449433" lon="-97.512717" changeset="false"><tag k="addr:street" v="Engelmann Lane"/><tag k="addr:housenumber" v="19317"/><tag k="addr:postcode" v="78615"/></node><node id="-167" lat="30.461389" lon="-97.474956" changeset="false"><tag k="addr:street" v="Richland Road"/><tag k="addr:housenumber" v="11407"/><tag k="addr:postcode" v="78615"/></node></osm>