<?xml version="1.0" encoding="UTF-8"?><osm version="0.6" generator="github.com/aaronlidman/osm-and-geojson"><node id="-1" lat="30.267958" lon="-97.672519" changeset="false"><tag k="addr:street" v="Harold Court"/><tag k="addr:housenumber" v="6300"/></node><node id="-2" lat="30.274541" lon="-97.689154" changeset="false"><tag k="addr:street" v="Reyes Street"/><tag k="addr:housenumber" v="4605"/></node><node id="-3" lat="30.276185" lon="-97.684865" changeset="false"><tag k="addr:street" v="Nickols Avenue"/><tag k="addr:housenumber" v="1149"/></node><node id="-4" lat="30.275738" lon="-97.68014" changeset="false"><tag k="addr:street" v="Eleanor Street"/><tag k="addr:housenumber" v="1224"/></node><node id="-5" lat="30.275812" lon="-97.679603" changeset="false"><tag k="addr:street" v="Eleanor Street"/><tag k="addr:housenumber" v="1229"/></node><node id="-6" lat="30.276564" lon="-97.683782" changeset="false"><tag k="addr:street" v="Lott Avenue"/><tag k="addr:housenumber" v="4902"/></node><node id="-7" lat="30.27112" lon="-97.670454" changeset="false"><tag k="addr:street" v="Wilcab Road"/><tag k="addr:housenumber" v="6505"/></node><node id="-8" lat="30.270534" lon="-97.68063" changeset="false"><tag k="addr:street" v="Eleanor Street"/><tag k="addr:housenumber" v="1100"/></node><node id="-9" lat="30.271289" lon="-97.683734" changeset="false"><tag k="addr:street" v="Ledesma Road"/><tag k="addr:housenumber" v="5224"/></node><node id="-10" lat="30.273437" lon="-97.682602" changeset="false"><tag k="addr:street" v="Delores Avenue"/><tag k="addr:housenumber" v="5211"/></node><node id="-11" lat="30.276146" lon="-97.686985" changeset="false"><tag k="addr:street" v="Louis Avenue"/><tag k="addr:housenumber" v="4708"/></node><node id="-12" lat="30.274906" lon="-97.681088" changeset="false"><tag k="addr:street" v="Fort Branch Boulevard"/><tag k="addr:housenumber" v="1206"/></node><node id="-13" lat="30.269746" lon="-97.675717" changeset="false"><tag k="addr:street" v="Harold Court"/><tag k="addr:housenumber" v="5816"/></node><node id="-14" lat="30.27193" lon="-97.680187" changeset="false"><tag k="addr:street" v="Eleanor Street"/><tag k="addr:housenumber" v="1120"/></node><node id="-15" lat="30.271397" lon="-97.67887" changeset="false"><tag k="addr:street" v="Delano Street"/><tag k="addr:housenumber" v="1103"/></node><node id="-16" lat="30.271047" lon="-97.674276" changeset="false"><tag k="addr:street" v="Hudson Street"/><tag k="addr:housenumber" v="6005"/></node><node id="-17" lat="30.27714" lon="-97.684613" changeset="false"><tag k="addr:street" v="Nickols Avenue"/><tag k="addr:housenumber" v="1160"/></node><node id="-18" lat="30.281181" lon="-97.678139" changeset="false"><tag k="addr:street" v="Downs Drive"/><tag k="addr:housenumber" v="5200"/></node><node id="-19" lat="30.274078" lon="-97.689895" changeset="false"><tag k="addr:street" v="Ledesma Road"/><tag k="addr:housenumber" v="4600"/></node><node id="-20" lat="30.275232" lon="-97.683298" changeset="false"><tag k="addr:street" v="Lott Avenue"/><tag k="addr:housenumber" v="5103"/></node><node id="-21" lat="30.275055" lon="-97.679969" changeset="false"><tag k="addr:street" v="Eleanor Street"/><tag k="addr:housenumber" v="1214"/></node><node id="-22" lat="30.276753" lon="-97.677177" changeset="false"><tag k="addr:street" v="Jackie Robinson Street"/><tag k="addr:housenumber" v="5520"/></node><node id="-23" lat="30.276325" lon="-97.684778" changeset="false"><tag k="addr:street" v="Nickols Avenue"/><tag k="addr:housenumber" v="1151"/></node><node id="-24" lat="30.273279" lon="-97.683764" changeset="false"><tag k="addr:street" v="Star Light Terrace"/><tag k="addr:housenumber" v="5215"/></node><node id="-25" lat="30.276095" lon="-97.684903" changeset="false"><tag k="addr:street" v="Nickols Avenue"/><tag k="addr:housenumber" v="1147"/></node><node id="-26" lat="30.274814" lon="-97.688473" changeset="false"><tag k="addr:street" v="Reyes Street"/><tag k="addr:housenumber" v="4702"/></node><node id="-27" lat="30.274473" lon="-97.689404" changeset="false"><tag k="addr:street" v="Reyes Street"/><tag k="addr:housenumber" v="4603"/></node><node id="-28" lat="30.269026" lon="-97.67433" changeset="false"><tag k="addr:street" v="Harold Court"/><tag k="addr:housenumber" v="6104"/></node><node id="-29" lat="30.273678" lon="-97.682064" changeset="false"><tag k="addr:street" v="Delores Avenue"/><tag k="addr:housenumber" v="5214"/></node><node id="-30" lat="30.26923" lon="-97.674916" changeset="false"><tag k="addr:street" v="Harold Court"/><tag k="addr:housenumber" v="5916"/></node><node id="-31" lat="30.277753" lon="-97.679388" changeset="false"><tag k="addr:street" v="Delano Street"/><tag k="addr:housenumber" v="1331"/></node><node id="-32" lat="30.277744" lon="-97.685089" changeset="false"><tag k="addr:street" v="Webberville Road"/><tag k="addr:housenumber" v="1169"/></node><node id="-33" lat="30.27924" lon="-97.679865" changeset="false"><tag k="addr:street" v="Meander Drive"/><tag k="addr:housenumber" v="1406"/></node><node id="-34" lat="30.276003" lon="-97.676574" changeset="false"><tag k="addr:street" v="Jackie Robinson Street"/><tag k="addr:housenumber" v="5601"/></node><node id="-35" lat="30.271419" lon="-97.683995" changeset="false"><tag k="addr:street" v="Ledesma Road"/><tag k="addr:housenumber" v="5220"/></node><node id="-36" lat="30.270695" lon="-97.680834" changeset="false"><tag k="addr:street" v="Eleanor Street"/><tag k="addr:housenumber" v="1102"/></node><node id="-37" lat="30.270671" lon="-97.679954" changeset="false"><tag k="addr:street" v="Eleanor Street"/><tag k="addr:housenumber" v="1105"/></node><node id="-38" lat="30.274766" lon="-97.675466" changeset="false"><tag k="addr:street" v="Axel Lane"/><tag k="addr:housenumber" v="3617"/></node><node id="-39" lat="30.273178" lon="-97.6868" changeset="false"><tag k="addr:street" v="Mendoza Drive"/><tag k="addr:housenumber" v="4903"/></node><node id="-40" lat="30.274285" lon="-97.681519" changeset="false"><tag k="addr:street" v="Lott Avenue"/><tag k="addr:housenumber" v="1149"/></node><node id="-41" lat="30.273089" lon="-97.686597" changeset="false"><tag k="addr:street" v="Mendoza Drive"/><tag k="addr:housenumber" v="4907"/></node><node id="-42" lat="30.272903" lon="-97.681491" changeset="false"><tag k="addr:street" v="Delores Avenue"/><tag k="addr:housenumber" v="5307"/></node><node id="-43" lat="30.267864" lon="-97.672304" changeset="false"><tag k="addr:street" v="Harold Court"/><tag k="addr:housenumber" v="6308"/></node><node id="-44" lat="30.274649" lon="-97.678683" changeset="false"><tag k="addr:street" v="Delano Street"/><tag k="addr:housenumber" v="1220"/></node><node id="-45" lat="30.272279" lon="-97.685858" changeset="false"><tag k="addr:street" v="Mason Avenue"/><tag k="addr:housenumber" v="1100"/></node><node id="-46" lat="30.2719" lon="-97.672418" changeset="false"><tag k="addr:street" v="Wilcab Road"/><tag k="addr:housenumber" v="6303"/></node><node id="-47" lat="30.27572" lon="-97.688404" changeset="false"><tag k="addr:street" v="Santa Anna Street"/><tag k="addr:housenumber" v="4604"/></node><node id="-48" lat="30.270575" lon="-97.672433" changeset="false"><tag k="addr:street" v="Hudson Street"/><tag k="addr:housenumber" v="6404"/></node><node id="-49" lat="30.270759" lon="-97.681933" changeset="false"><tag k="addr:street" v="Ledesma Road"/><tag k="addr:housenumber" v="5310"/></node><node id="-50" lat="30.279177" lon="-97.680921" changeset="false"><tag k="addr:street" v="Fort Branch Boulevard"/><tag k="addr:housenumber" v="1418"/></node><node id="-51" lat="30.279477" lon="-97.677314" changeset="false"><tag k="addr:street" v="Bunche Road"/><tag k="addr:housenumber" v="1720"/></node><node id="-52" lat="30.27578" lon="-97.668763" changeset="false"><tag k="addr:street" v="Techni Center Drive"/><tag k="addr:housenumber" v="6105"/></node><node id="-53" lat="30.275628" lon="-97.682503" changeset="false"><tag k="addr:street" v="Lott Avenue"/><tag k="addr:housenumber" v="5108"/></node><node id="-54" lat="30.273046" lon="-97.677188" changeset="false"><tag k="addr:street" v="Hudson Street"/><tag k="addr:housenumber" v="5608"/></node><node id="-55" lat="30.274743" lon="-97.676109" changeset="false"><tag k="addr:street" v="Axel Lane"/><tag k="addr:housenumber" v="3604"/></node><node id="-56" lat="30.276693" lon="-97.676017" changeset="false"><tag k="addr:street" v="Jackie Robinson Street"/><tag k="addr:housenumber" v="5608"/></node><node id="-57" lat="30.275713" lon="-97.679131" changeset="false"><tag k="addr:street" v="Delano Street"/><tag k="addr:housenumber" v="1302"/></node><node id="-58" lat="30.273799" lon="-97.682357" changeset="false"><tag k="addr:street" v="Delores Avenue"/><tag k="addr:housenumber" v="5210"/></node><node id="-59" lat="30.275144" lon="-97.670962" changeset="false"><tag k="addr:street" v="Bluestein Drive"/><tag k="addr:housenumber" v="3722"/></node><node id="-60" lat="30.270002" lon="-97.672646" changeset="false"><tag k="addr:street" v="Hudson Street"/><tag k="addr:housenumber" v="6111"/></node><node id="-61" lat="30.279165" lon="-97.680185" changeset="false"><tag k="addr:street" v="Meander Drive"/><tag k="addr:housenumber" v="1402"/></node><node id="-62" lat="30.273693" lon="-97.669868" changeset="false"><tag k="addr:street" v="Bluestein Drive"/><tag k="addr:housenumber" v="3733"/></node><node id="-63" lat="30.279343" lon="-97.677743" changeset="false"><tag k="addr:street" v="Downs Drive"/><tag k="addr:housenumber" v="5314"/></node><node id="-64" lat="30.272879" lon="-97.678475" changeset="false"><tag k="addr:street" v="Delano Street"/><tag k="addr:housenumber" v="1124"/></node><node id="-65" lat="30.28028" lon="-97.677924" changeset="false"><tag k="addr:street" v="Downs Drive"/><tag k="addr:housenumber" v="5301"/></node><node id="-66" lat="30.277093" lon="-97.679518" changeset="false"><tag k="addr:street" v="Delano Street"/><tag k="addr:housenumber" v="1322"/></node><node id="-67" lat="30.273076" lon="-97.681869" changeset="false"><tag k="addr:street" v="Delores Avenue"/><tag k="addr:housenumber" v="5303"/></node><node id="-68" lat="30.272756" lon="-97.680066" changeset="false"><tag k="addr:street" v="Eleanor Street"/><tag k="addr:housenumber" v="1132"/></node><node id="-69" lat="30.271435" lon="-97.681915" changeset="false"><tag k="addr:street" v="Lott Avenue"/><tag k="addr:housenumber" v="1110"/></node><node id="-70" lat="30.275547" lon="-97.684211" changeset="false"><tag k="addr:street" v="Mason Avenue"/><tag k="addr:housenumber" v="1143"/></node><node id="-71" lat="30.275717" lon="-97.675147" changeset="false"><tag k="addr:street" v="Axel Lane"/><tag k="addr:housenumber" v="3721"/></node><node id="-72" lat="30.277738" lon="-97.674697" changeset="false"><tag k="addr:street" v="Tannehill Lane"/><tag k="addr:housenumber" v="3901"/></node><node id="-73" lat="30.270203" lon="-97.681379" changeset="false"><tag k="addr:street" v="Ledesma Road"/><tag k="addr:housenumber" v="5404"/></node><node id="-74" lat="30.273305" lon="-97.678708" changeset="false"><tag k="addr:street" v="Hudson Street"/><tag k="addr:housenumber" v="5509"/></node><node id="-75" lat="30.271757" lon="-97.681987" changeset="false"><tag k="addr:street" v="Lott Avenue"/><tag k="addr:housenumber" v="1114"/></node><node id="-76" lat="30.277783" lon="-97.679785" changeset="false"><tag k="addr:street" v="Fort Branch Boulevard"/><tag k="addr:housenumber" v="1317"/></node><node id="-77" lat="30.277317" lon="-97.685322" changeset="false"><tag k="addr:street" v="Eastfield Avenue"/><tag k="addr:housenumber" v="1157"/></node><node id="-78" lat="30.281891" lon="-97.675883" changeset="false"><tag k="addr:street" v="Webberville Road"/><tag k="addr:housenumber" v="1813"/></node><node id="-79" lat="30.271816" lon="-97.671744" changeset="false"><tag k="addr:street" v="Wilcab Road"/><tag k="addr:housenumber" v="6315"/></node><node id="-80" lat="30.270614" lon="-97.680131" changeset="false"><tag k="addr:street" v="Eleanor Street"/><tag k="addr:housenumber" v="1103"/></node><node id="-81" lat="30.271006" lon="-97.673484" changeset="false"><tag k="addr:street" v="Hudson Street"/><tag k="addr:housenumber" v="6108"/></node><node id="-82" lat="30.271923" lon="-97.675924" changeset="false"><tag k="addr:street" v="Hudson Street"/><tag k="addr:housenumber" v="5805"/></node><node id="-83" lat="30.2763" lon="-97.678738" changeset="false"><tag k="addr:street" v="Jackie Robinson Street"/><tag k="addr:housenumber" v="5507"/></node><node id="-84" lat="30.273989" lon="-97.672526" changeset="false"><tag k="addr:street" v="Bluestein Drive"/><tag k="addr:housenumber" v="3702"/></node><node id="-85" lat="30.273597" lon="-97.687224" changeset="false"><tag k="addr:street" v="Mendoza Drive"/><tag k="addr:housenumber" v="4900"/></node><node id="-86" lat="30.274612" lon="-97.679257" changeset="false"><tag k="addr:street" v="Eleanor Street"/><tag k="addr:housenumber" v="1211"/></node><node id="-87" lat="30.271179" lon="-97.675122" changeset="false"><tag k="addr:street" v="Hudson Street"/><tag k="addr:housenumber" v="5901"/></node><node id="-88" lat="30.275041" lon="-97.681103" changeset="false"><tag k="addr:street" v="Fort Branch Boulevard"/><tag k="addr:housenumber" v="1208"/></node><node id="-89" lat="30.276823" lon="-97.680361" changeset="false"><tag k="addr:street" v="Fort Branch Boulevard"/><tag k="addr:housenumber" v="1302"/></node><node id="-90" lat="30.275451" lon="-97.683509" changeset="false"><tag k="addr:street" v="Lott Avenue"/><tag k="addr:housenumber" v="5009"/></node><node id="-91" lat="30.275337" lon="-97.681127" changeset="false"><tag k="addr:street" v="Fort Branch Boulevard"/><tag k="addr:housenumber" v="1212"/></node><node id="-92" lat="30.268758" lon="-97.671499" changeset="false"><tag k="addr:street" v="Hudson Street"/><tag k="addr:housenumber" v="6309"/></node><node id="-93" lat="30.282693" lon="-97.67525" changeset="false"><tag k="addr:street" v="Webberville Road"/><tag k="addr:housenumber" v="1907"/></node><node id="-94" lat="30.275191" lon="-97.680018" changeset="false"><tag k="addr:street" v="Eleanor Street"/><tag k="addr:housenumber" v="1216"/></node><node id="-95" lat="30.274751" lon="-97.68833" changeset="false"><tag k="addr:street" v="Reyes Street"/><tag k="addr:housenumber" v="4704"/></node><node id="-96" lat="30.273952" lon="-97.681719" changeset="false"><tag k="addr:street" v="Lott Avenue"/><tag k="addr:housenumber" v="1142"/></node><node id="-97" lat="30.275311" lon="-97.680039" changeset="false"><tag k="addr:street" v="Eleanor Street"/><tag k="addr:housenumber" v="1218"/></node><node id="-98" lat="30.274051" lon="-97.683623" changeset="false"><tag k="addr:street" v="Delores Avenue"/><tag k="addr:housenumber" v="5109"/></node><node id="-99" lat="30.273974" lon="-97.68277" changeset="false"><tag k="addr:street" v="Delores Avenue"/><tag k="addr:housenumber" v="5204"/></node><node id="-100" lat="30.280354" lon="-97.675326" changeset="false"><tag k="addr:street" v="Samuel Huston Avenue"/><tag k="addr:housenumber" v="5500"/></node><node id="-101" lat="30.274319" lon="-97.687691" changeset="false"><tag k="addr:street" v="Reyes Street"/><tag k="addr:housenumber" v="4714"/></node><node id="-102" lat="30.275136" lon="-97.680665" changeset="false"><tag k="addr:street" v="Fort Branch Boulevard"/><tag k="addr:housenumber" v="1211"/></node><node id="-103" lat="30.272188" lon="-97.680108" changeset="false"><tag k="addr:street" v="Eleanor Street"/><tag k="addr:housenumber" v="1124"/></node><node id="-104" lat="30.275185" lon="-97.684125" changeset="false"><tag k="addr:street" v="Delores Avenue"/><tag k="addr:housenumber" v="5002"/></node><node id="-105" lat="30.271444" lon="-97.671317" changeset="false"><tag k="addr:street" v="Wilcab Road"/><tag k="addr:housenumber" v="6401"/></node><node id="-106" lat="30.279467" lon="-97.677683" changeset="false"><tag k="addr:street" v="Downs Drive"/><tag k="addr:housenumber" v="5312"/></node><node id="-107" lat="30.275999" lon="-97.676347" changeset="false"><tag k="addr:street" v="Jackie Robinson Street"/><tag k="addr:housenumber" v="5605"/></node><node id="-108" lat="30.270392" lon="-97.673395" changeset="false"><tag k="addr:street" v="Hudson Street"/><tag k="addr:housenumber" v="6101"/></node><node id="-109" lat="30.272055" lon="-97.681956" changeset="false"><tag k="addr:street" v="Lott Avenue"/><tag k="addr:housenumber" v="1116"/></node><node id="-110" lat="30.272476" lon="-97.677215" changeset="false"><tag k="addr:street" v="Hudson Street"/><tag k="addr:housenumber" v="5605"/></node><node id="-111" lat="30.274225" lon="-97.679181" changeset="false"><tag k="addr:street" v="Eleanor Street"/><tag k="addr:housenumber" v="1205"/></node><node id="-112" lat="30.281074" lon="-97.678007" changeset="false"><tag k="addr:street" v="Downs Drive"/><tag k="addr:housenumber" v="5202"/></node><node id="-113" lat="30.272314" lon="-97.681868" changeset="false"><tag k="addr:street" v="Lott Avenue"/><tag k="addr:housenumber" v="1122"/></node><node id="-114" lat="30.271652" lon="-97.678714" changeset="false"><tag k="addr:street" v="Delano Street"/><tag k="addr:housenumber" v="1107"/></node><node id="-115" lat="30.27092" lon="-97.67004" changeset="false"><tag k="addr:street" v="Darby Street"/><tag k="addr:housenumber" v="3512"/></node><node id="-116" lat="30.279046" lon="-97.674908" changeset="false"><tag k="addr:street" v="Tannehill Lane"/><tag k="addr:housenumber" v="4000"/></node><node id="-117" lat="30.278661" lon="-97.680596" changeset="false"><tag k="addr:street" v="Fort Branch Boulevard"/><tag k="addr:housenumber" v="1410"/></node><node id="-118" lat="30.276461" lon="-97.679342" changeset="false"><tag k="addr:street" v="Delano Street"/><tag k="addr:housenumber" v="1314"/></node><node id="-119" lat="30.275323" lon="-97.668974" changeset="false"><tag k="addr:street" v="Ed Bluestein Boulevard"/><tag k="addr:housenumber" v="3926"/></node><node id="-120" lat="30.277683" lon="-97.68025" changeset="false"><tag k="addr:street" v="Fort Branch Boulevard"/><tag k="addr:housenumber" v="1314"/></node><node id="-121" lat="30.274617" lon="-97.678208" changeset="false"><tag k="addr:street" v="Delano Street"/><tag k="addr:housenumber" v="1217"/></node><node id="-122" lat="30.268707" lon="-97.679524" changeset="false"><tag k="addr:street" v="Terry Drive"/><tag k="addr:housenumber" v="1127"/></node><node id="-123" lat="30.276306" lon="-97.688038" changeset="false"><tag k="addr:street" v="Webberville Road"/><tag k="addr:housenumber" v="1141"/></node><node id="-124" lat="30.273173" lon="-97.679933" changeset="false"><tag k="addr:street" v="Eleanor Street"/><tag k="addr:housenumber" v="1138"/></node><node id="-125" lat="30.273579" lon="-97.687416" changeset="false"><tag k="addr:street" v="Mendoza Drive"/><tag k="addr:housenumber" v="4808"/></node><node id="-126" lat="30.273558" lon="-97.686547" changeset="false"><tag k="addr:street" v="Mendoza Drive"/><tag k="addr:housenumber" v="4906"/></node><node id="-127" lat="30.274309" lon="-97.672322" changeset="false"><tag k="addr:street" v="Bluestein Drive"/><tag k="addr:housenumber" v="3708"/></node><node id="-128" lat="30.274482" lon="-97.678164" changeset="false"><tag k="addr:street" v="Delano Street"/><tag k="addr:housenumber" v="1215"/></node><node id="-129" lat="30.274569" lon="-97.685838" changeset="false"><tag k="addr:street" v="Nickols Avenue"/><tag k="addr:housenumber" v="1127"/></node><node id="-130" lat="30.278819" lon="-97.679477" changeset="false"><tag k="addr:street" v="Meander Drive"/><tag k="addr:housenumber" v="1409"/></node><node id="-131" lat="30.276613" lon="-97.6794" changeset="false"><tag k="addr:street" v="Delano Street"/><tag k="addr:housenumber" v="1316"/></node><node id="-132" lat="30.275938" lon="-97.685498" changeset="false"><tag k="addr:street" v="Delores Avenue"/><tag k="addr:housenumber" v="4809"/></node><node id="-133" lat="30.279283" lon="-97.680373" changeset="false"><tag k="addr:street" v="Fort Branch Boulevard"/><tag k="addr:housenumber" v="1415"/></node><node id="-134" lat="30.27479" lon="-97.682695" changeset="false"><tag k="addr:street" v="Lott Avenue"/><tag k="addr:housenumber" v="1160"/></node><node id="-135" lat="30.272118" lon="-97.676684" changeset="false"><tag k="addr:street" v="Hudson Street"/><tag k="addr:housenumber" v="5711"/></node><node id="-136" lat="30.274043" lon="-97.680491" changeset="false"><tag k="addr:street" v="Hudson Street"/><tag k="addr:housenumber" v="5401"/></node><node id="-137" lat="30.274415" lon="-97.68804" changeset="false"><tag k="addr:street" v="Reyes Street"/><tag k="addr:housenumber" v="4710"/></node><node id="-138" lat="30.27576" lon="-97.682779" changeset="false"><tag k="addr:street" v="Lott Avenue"/><tag k="addr:housenumber" v="5104"/></node><node id="-139" lat="30.275397" lon="-97.68651" changeset="false"><tag k="addr:street" v="Louis Avenue"/><tag k="addr:housenumber" v="4801"/></node><node id="-140" lat="30.281725" lon="-97.676323" changeset="false"><tag k="addr:street" v="Webberville Road"/><tag k="addr:housenumber" v="1809"/></node><node id="-141" lat="30.272891" lon="-97.676791" changeset="false"><tag k="addr:street" v="Hudson Street"/><tag k="addr:housenumber" v="5616"/></node><node id="-142" lat="30.273743" lon="-97.682206" changeset="false"><tag k="addr:street" v="Delores Avenue"/><tag k="addr:housenumber" v="5212"/></node><node id="-143" lat="30.273992" lon="-97.688514" changeset="false"><tag k="addr:street" v="Mansell Avenue"/><tag k="addr:housenumber" v="1106"/></node><node id="-144" lat="30.273801" lon="-97.688032" changeset="false"><tag k="addr:street" v="Mansell Avenue"/><tag k="addr:housenumber" v="1109"/></node><node id="-145" lat="30.276959" lon="-97.685225" changeset="false"><tag k="addr:street" v="Lott Avenue"/><tag k="addr:housenumber" v="4803"/></node><node id="-146" lat="30.276038" lon="-97.678739" changeset="false"><tag k="addr:street" v="Delano Street"/><tag k="addr:housenumber" v="1305"/></node><node id="-147" lat="30.271684" lon="-97.675457" changeset="false"><tag k="addr:street" v="Hudson Street"/><tag k="addr:housenumber" v="5813"/></node><node id="-148" lat="30.268914" lon="-97.674087" changeset="false"><tag k="addr:street" v="Harold Court"/><tag k="addr:housenumber" v="6108"/></node><node id="-149" lat="30.269533" lon="-97.675439" changeset="false"><tag k="addr:street" v="Harold Court"/><tag k="addr:housenumber" v="5820"/></node><node id="-150" lat="30.281294" lon="-97.678007" changeset="false"><tag k="addr:street" v="Webberville Road"/><tag k="addr:housenumber" v="1705"/></node><node id="-151" lat="30.281392" lon="-97.677805" changeset="false"><tag k="addr:street" v="Webberville Road"/><tag k="addr:housenumber" v="1713"/></node><node id="-152" lat="30.270649" lon="-97.677668" changeset="false"><tag k="addr:street" v="Harold Court"/><tag k="addr:housenumber" v="5700"/></node><node id="-153" lat="30.272368" lon="-97.678757" changeset="false"><tag k="addr:street" v="Delano Street"/><tag k="addr:housenumber" v="1116"/></node><node id="-154" lat="30.281483" lon="-97.677703" changeset="false"><tag k="addr:street" v="Samuel Huston Avenue"/><tag k="addr:housenumber" v="5201"/></node><node id="-155" lat="30.272987" lon="-97.681669" changeset="false"><tag k="addr:street" v="Delores Avenue"/><tag k="addr:housenumber" v="5305"/></node><node id="-156" lat="30.272676" lon="-97.685928" changeset="false"><tag k="addr:street" v="Mendoza Drive"/><tag k="addr:housenumber" v="5007"/></node><node id="-157" lat="30.277686" lon="-97.683967" changeset="false"><tag k="addr:street" v="Nickols Avenue"/><tag k="addr:housenumber" v="1175"/></node><node id="-158" lat="30.271527" lon="-97.678787" changeset="false"><tag k="addr:street" v="Delano Street"/><tag k="addr:housenumber" v="1105"/></node><node id="-159" lat="30.277836" lon="-97.685014" changeset="false"><tag k="addr:street" v="Webberville Road"/><tag k="addr:housenumber" v="1171"/></node><node id="-160" lat="30.27474" lon="-97.678254" changeset="false"><tag k="addr:street" v="Delano Street"/><tag k="addr:housenumber" v="1219"/></node><node id="-161" lat="30.274656" lon="-97.669441" changeset="false"><tag k="addr:street" v="Bluestein Drive"/><tag k="addr:housenumber" v="3750"/></node><node id="-162" lat="30.27477" lon="-97.681062" changeset="false"><tag k="addr:street" v="Fort Branch Boulevard"/><tag k="addr:housenumber" v="1204"/></node><node id="-163" lat="30.272238" lon="-97.677041" changeset="false"><tag k="addr:street" v="Hudson Street"/><tag k="addr:housenumber" v="5607"/></node><node id="-164" lat="30.272086" lon="-97.675461" changeset="false"><tag k="addr:street" v="Hudson Street"/><tag k="addr:housenumber" v="5808"/></node><node id="-165" lat="30.274466" lon="-97.68242" changeset="false"><tag k="addr:street" v="Lott Avenue"/><tag k="addr:housenumber" v="1154"/></node><node id="-166" lat="30.268688" lon="-97.679538" changeset="false"><tag k="addr:street" v="Ledesma Road"/><tag k="addr:housenumber" v="5701"/></node><node id="-167" lat="30.271962" lon="-97.681199" changeset="false"><tag k="addr:street" v="Lott Avenue"/><tag k="addr:housenumber" v="1121"/></node><node id="-168" lat="30.269794" lon="-97.671025" changeset="false"><tag k="addr:street" v="Hudson Street"/><tag k="addr:housenumber" v="6414"/></node><node id="-169" lat="30.271893" lon="-97.679712" changeset="false"><tag k="addr:street" v="Eleanor Street"/><tag k="addr:housenumber" v="1119"/></node><node id="-170" lat="30.27274" lon="-97.674918" changeset="false"><tag k="addr:street" v="Wilcab Road"/><tag k="addr:housenumber" v="5825"/></node><node id="-171" lat="30.271892" lon="-97.670677" changeset="false"><tag k="addr:street" v="Wilcab Road"/><tag k="addr:housenumber" v="6410"/></node><node id="-172" lat="30.285527" lon="-97.667511" changeset="false"><tag k="addr:street" v="East Martin Luther King Jr Boulevard"/><tag k="addr:housenumber" v="5701"/></node><node id="-173" lat="30.270811" lon="-97.682063" changeset="false"><tag k="addr:street" v="Ledesma Road"/><tag k="addr:housenumber" v="5308"/></node><node id="-174" lat="30.280121" lon="-97.67381" changeset="false"><tag k="addr:street" v="Tannehill Lane"/><tag k="addr:housenumber" v="4108"/></node><node id="-175" lat="30.278301" lon="-97.672149" changeset="false"><tag k="addr:street" v="Samuel Huston Avenue"/><tag k="addr:housenumber" v="5745"/></node><node id="-176" lat="30.275539" lon="-97.683636" changeset="false"><tag k="addr:street" v="Lott Avenue"/><tag k="addr:housenumber" v="5007"/></node><node id="-177" lat="30.278753" lon="-97.679625" changeset="false"><tag k="addr:street" v="Meander Drive"/><tag k="addr:housenumber" v="1407"/></node><node id="-178" lat="30.269071" lon="-97.679457" changeset="false"><tag k="addr:street" v="Ledesma Road"/><tag k="addr:housenumber" v="5700"/></node><node id="-179" lat="30.273991" lon="-97.688068" changeset="false"><tag k="addr:street" v="Mansell Avenue"/><tag k="addr:housenumber" v="1111"/></node><node id="-180" lat="30.274732" lon="-97.679316" changeset="false"><tag k="addr:street" v="Eleanor Street"/><tag k="addr:housenumber" v="1213"/></node><node id="-181" lat="30.27335" lon="-97.673728" changeset="false"><tag k="addr:street" v="Bluestein Drive"/><tag k="addr:housenumber" v="3608"/></node><node id="-182" lat="30.271999" lon="-97.676229" changeset="false"><tag k="addr:street" v="Hudson Street"/><tag k="addr:housenumber" v="5801"/></node><node id="-183" lat="30.279761" lon="-97.680203" changeset="false"><tag k="addr:street" v="Webberville Road"/><tag k="addr:housenumber" v="1431"/></node><node id="-184" lat="30.275187" lon="-97.681135" changeset="false"><tag k="addr:street" v="Fort Branch Boulevard"/><tag k="addr:housenumber" v="1210"/></node><node id="-185" lat="30.276315" lon="-97.679379" changeset="false"><tag k="addr:street" v="Delano Street"/><tag k="addr:housenumber" v="1312"/></node><node id="-186" lat="30.278872" lon="-97.679299" changeset="false"><tag k="addr:street" v="Meander Drive"/><tag k="addr:housenumber" v="1411"/></node><node id="-187" lat="30.271267" lon="-97.682942" changeset="false"><tag k="addr:street" v="Ledesma Road"/><tag k="addr:housenumber" v="5232"/></node><node id="-188" lat="30.26961" lon="-97.671597" changeset="false"><tag k="addr:street" v="Hudson Street"/><tag k="addr:housenumber" v="6305"/></node><node id="-189" lat="30.271177" lon="-97.681986" changeset="false"><tag k="addr:street" v="Lott Avenue"/><tag k="addr:housenumber" v="1106"/></node><node id="-190" lat="30.271097" lon="-97.671116" changeset="false"><tag k="addr:street" v="Wilcab Road"/><tag k="addr:housenumber" v="6409"/></node><node id="-191" lat="30.26929" lon="-97.675017" changeset="false"><tag k="addr:street" v="Harold Court"/><tag k="addr:housenumber" v="5912"/></node><node id="-192" lat="30.275779" lon="-97.680589" changeset="false"><tag k="addr:street" v="Fort Branch Boulevard"/><tag k="addr:housenumber" v="1221"/></node><node id="-193" lat="30.274307" lon="-97.683335" changeset="false"><tag k="addr:street" v="Delores Avenue"/><tag k="addr:housenumber" v="5106"/></node><node id="-194" lat="30.270476" lon="-97.68037" changeset="false"><tag k="addr:street" v="Eleanor Street"/><tag k="addr:housenumber" v="1101"/></node><node id="-195" lat="30.273639" lon="-97.682902" changeset="false"><tag k="addr:street" v="Delores Avenue"/><tag k="addr:housenumber" v="5207"/></node><node id="-196" lat="30.268775" lon="-97.673805" changeset="false"><tag k="addr:street" v="Harold Court"/><tag k="addr:housenumber" v="6116"/></node><node id="-197" lat="30.271842" lon="-97.672253" changeset="false"><tag k="addr:street" v="Wilcab Road"/><tag k="addr:housenumber" v="6305"/></node><node id="-198" lat="30.28124" lon="-97.677242" changeset="false"><tag k="addr:street" v="Samuel Huston Avenue"/><tag k="addr:housenumber" v="5207"/></node><node id="-199" lat="30.276784" lon="-97.679426" changeset="false"><tag k="addr:street" v="Delano Street"/><tag k="addr:housenumber" v="1318"/></node><node id="-200" lat="30.271879" lon="-97.675213" changeset="false"><tag k="addr:street" v="Hudson Street"/><tag k="addr:housenumber" v="5812"/></node><node id="-201" lat="30.276926" lon="-97.679941" changeset="false"><tag k="addr:street" v="Fort Branch Boulevard"/><tag k="addr:housenumber" v="1307"/></node><node id="-202" lat="30.278883" lon="-97.68074" changeset="false"><tag k="addr:street" v="Fort Branch Boulevard"/><tag k="addr:housenumber" v="1414"/></node><node id="-203" lat="30.273709" lon="-97.68821" changeset="false"><tag k="addr:street" v="Mansell Avenue"/><tag k="addr:housenumber" v="1107"/></node><node id="-204" lat="30.275563" lon="-97.688916" changeset="false"><tag k="addr:street" v="Santa Anna Street"/><tag k="addr:housenumber" v="4601"/></node><node id="-205" lat="30.272097" lon="-97.685323" changeset="false"><tag k="addr:street" v="Ledesma Road"/><tag k="addr:housenumber" v="5200"/></node><node id="-206" lat="30.272273" lon="-97.681089" changeset="false"><tag k="addr:street" v="Lott Avenue"/><tag k="addr:housenumber" v="1125"/></node><node id="-207" lat="30.276201" lon="-97.679326" changeset="false"><tag k="addr:street" v="Delano Street"/><tag k="addr:housenumber" v="1310"/></node><node id="-208" lat="30.272448" lon="-97.67362" changeset="false"><tag k="addr:street" v="Wilcab Road"/><tag k="addr:housenumber" v="6025"/></node><node id="-209" lat="30.273911" lon="-97.68088" changeset="false"><tag k="addr:street" v="Fort Branch Boulevard"/><tag k="addr:housenumber" v="1146"/></node><node id="-210" lat="30.280676" lon="-97.672244" changeset="false"><tag k="addr:street" v="Tannehill Lane"/><tag k="addr:housenumber" v="4301"/></node><node id="-211" lat="30.271805" lon="-97.675685" changeset="false"><tag k="addr:street" v="Hudson Street"/><tag k="addr:housenumber" v="5809"/></node><node id="-212" lat="30.273235" lon="-97.684179" changeset="false"><tag k="addr:street" v="Star Light Terrace"/><tag k="addr:housenumber" v="5203"/></node><node id="-213" lat="30.270727" lon="-97.672797" changeset="false"><tag k="addr:street" v="Hudson Street"/><tag k="addr:housenumber" v="6200"/></node><node id="-214" lat="30.274294" lon="-97.687592" changeset="false"><tag k="addr:street" v="Mansell Avenue"/><tag k="addr:housenumber" v="1112"/></node><node id="-215" lat="30.274049" lon="-97.68291" changeset="false"><tag k="addr:street" v="Delores Avenue"/><tag k="addr:housenumber" v="5202"/></node><node id="-216" lat="30.273857" lon="-97.682502" changeset="false"><tag k="addr:street" v="Delores Avenue"/><tag k="addr:housenumber" v="5208"/></node><node id="-217" lat="30.275045" lon="-97.687907" changeset="false"><tag k="addr:street" v="Santa Anna Street"/><tag k="addr:housenumber" v="4703"/></node><node id="-218" lat="30.273942" lon="-97.687426" changeset="false"><tag k="addr:street" v="Mansell Avenue"/><tag k="addr:housenumber" v="1115"/></node><node id="-219" lat="30.273235" lon="-97.687031" changeset="false"><tag k="addr:street" v="Mendoza Drive"/><tag k="addr:housenumber" v="4901"/></node><node id="-220" lat="30.276676" lon="-97.676816" changeset="false"><tag k="addr:street" v="Jackie Robinson Street"/><tag k="addr:housenumber" v="5600"/></node><node id="-221" lat="30.276137" lon="-97.688531" changeset="false"><tag k="addr:street" v="Webberville Road"/><tag k="addr:housenumber" v="1133"/></node><node id="-222" lat="30.270534" lon="-97.669591" changeset="false"><tag k="addr:street" v="Ed Bluestein Boulevard"/><tag k="addr:housenumber" v="3502 1/2"/></node><node id="-223" lat="30.276691" lon="-97.685382" changeset="false"><tag k="addr:street" v="Eastfield Avenue"/><tag k="addr:housenumber" v="1151"/></node><node id="-224" lat="30.27455" lon="-97.685678" changeset="false"><tag k="addr:street" v="Santa Anna Street"/><tag k="addr:housenumber" v="4902"/></node><node id="-225" lat="30.269869" lon="-97.67244" changeset="false"><tag k="addr:street" v="Hudson Street"/><tag k="addr:housenumber" v="6115"/></node><node id="-226" lat="30.272035" lon="-97.671121" changeset="false"><tag k="addr:street" v="Wilcab Road"/><tag k="addr:housenumber" v="6400"/></node><node id="-227" lat="30.272635" lon="-97.676242" changeset="false"><tag k="addr:street" v="Hudson Street"/><tag k="addr:housenumber" v="5710"/></node><node id="-228" lat="30.273254" lon="-97.677598" changeset="false"><tag k="addr:street" v="Hudson Street"/><tag k="addr:housenumber" v="5602"/></node><node id="-229" lat="30.279123" lon="-97.679121" changeset="false"><tag k="addr:street" v="Meander Drive"/><tag k="addr:housenumber" v="1415"/></node><node id="-230" lat="30.278777" lon="-97.671947" changeset="false"><tag k="addr:street" v="Techni Center Drive"/><tag k="addr:housenumber" v="5800"/></node><node id="-231" lat="30.272475" lon="-97.680068" changeset="false"><tag k="addr:street" v="Eleanor Street"/><tag k="addr:housenumber" v="1128"/></node><node id="-232" lat="30.272405" lon="-97.681067" changeset="false"><tag k="addr:street" v="Lott Avenue"/><tag k="addr:housenumber" v="1127"/></node><node id="-233" lat="30.273918" lon="-97.682627" changeset="false"><tag k="addr:street" v="Delores Avenue"/><tag k="addr:housenumber" v="5206"/></node><node id="-234" lat="30.27964" lon="-97.681515" changeset="false"><tag k="addr:street" v="Webberville Road"/><tag k="addr:housenumber" v="1415"/></node><node id="-235" lat="30.281347" lon="-97.676697" changeset="false"><tag k="addr:street" v="Samuel Huston Avenue"/><tag k="addr:housenumber" v="5300"/></node><node id="-236" lat="30.274495" lon="-97.681007" changeset="false"><tag k="addr:street" v="Fort Branch Boulevard"/><tag k="addr:housenumber" v="1200"/></node><node id="-237" lat="30.274287" lon="-97.686268" changeset="false"><tag k="addr:street" v="Santa Anna Street"/><tag k="addr:housenumber" v="4811"/></node><node id="-238" lat="30.274045" lon="-97.68092" changeset="false"><tag k="addr:street" v="Fort Branch Boulevard"/><tag k="addr:housenumber" v="1148"/></node><node id="-239" lat="30.272588" lon="-97.67263" changeset="false"><tag k="addr:street" v="Bluestein Drive"/><tag k="addr:housenumber" v="3601"/></node><node id="-240" lat="30.275583" lon="-97.682042" changeset="false"><tag k="addr:street" v="Lott Avenue"/><tag k="addr:housenumber" v="1177"/></node><node id="-241" lat="30.275639" lon="-97.681175" changeset="false"><tag k="addr:street" v="Fort Branch Boulevard"/><tag k="addr:housenumber" v="1216"/></node><node id="-242" lat="30.278109" lon="-97.67523" changeset="false"><tag k="addr:street" v="Tannehill Lane"/><tag k="addr:housenumber" v="3900 1/2"/></node><node id="-243" lat="30.26793" lon="-97.680012" changeset="false"><tag k="addr:street" v="Terry Drive"/><tag k="addr:housenumber" v="1115"/></node><node id="-244" lat="30.279733" lon="-97.677153" changeset="false"><tag k="addr:street" v="Bunche Road"/><tag k="addr:housenumber" v="1724"/></node><node id="-245" lat="30.273723" lon="-97.679525" changeset="false"><tag k="addr:street" v="Eleanor Street"/><tag k="addr:housenumber" v="1144"/></node><node id="-246" lat="30.271184" lon="-97.679066" changeset="false"><tag k="addr:street" v="Delano Street"/><tag k="addr:housenumber" v="1101"/></node><node id="-247" lat="30.270733" lon="-97.678967" changeset="false"><tag k="addr:street" v="Harold Court"/><tag k="addr:housenumber" v="5605"/></node><node id="-248" lat="30.273947" lon="-97.689556" changeset="false"><tag k="addr:street" v="Ledesma Road"/><tag k="addr:housenumber" v="4606"/></node><node id="-249" lat="30.273297" lon="-97.676176" changeset="false"><tag k="addr:street" v="Wilcab Road"/><tag k="addr:housenumber" v="5805"/></node><node id="-250" lat="30.270974" lon="-97.682354" changeset="false"><tag k="addr:street" v="Ledesma Road"/><tag k="addr:housenumber" v="5304"/></node><node id="-251" lat="30.270881" lon="-97.682233" changeset="false"><tag k="addr:street" v="Ledesma Road"/><tag k="addr:housenumber" v="5306"/></node><node id="-252" lat="30.271089" lon="-97.680726" changeset="false"><tag k="addr:street" v="Eleanor Street"/><tag k="addr:housenumber" v="1106"/></node><node id="-253" lat="30.273885" lon="-97.684388" changeset="false"><tag k="addr:street" v="Star Light Terrace"/><tag k="addr:housenumber" v="5108"/></node><node id="-254" lat="30.27376" lon="-97.680884" changeset="false"><tag k="addr:street" v="Fort Branch Boulevard"/><tag k="addr:housenumber" v="1144"/></node><node id="-255" lat="30.274424" lon="-97.688273" changeset="false"><tag k="addr:street" v="Reyes Street"/><tag k="addr:housenumber" v="4708"/></node><node id="-256" lat="30.275455" lon="-97.681194" changeset="false"><tag k="addr:street" v="Fort Branch Boulevard"/><tag k="addr:housenumber" v="1214"/></node><node id="-257" lat="30.275328" lon="-97.683422" changeset="false"><tag k="addr:street" v="Lott Avenue"/><tag k="addr:housenumber" v="5101"/></node><node id="-258" lat="30.283753" lon="-97.67182" changeset="false"><tag k="addr:street" v="Webberville Road"/><tag k="addr:housenumber" v="1963"/></node><node id="-259" lat="30.276102" lon="-97.680868" changeset="false"><tag k="addr:street" v="Fort Branch Boulevard"/><tag k="addr:housenumber" v="1224"/></node><node id="-260" lat="30.275736" lon="-97.669412" changeset="false"><tag k="addr:street" v="Techni Center Drive"/><tag k="addr:housenumber" v="6101"/></node><node id="-261" lat="30.270117" lon="-97.670616" changeset="false"><tag k="addr:street" v="Darby Street"/><tag k="addr:housenumber" v="3506"/></node><node id="-262" lat="30.273564" lon="-97.686822" changeset="false"><tag k="addr:street" v="Mendoza Drive"/><tag k="addr:housenumber" v="4904"/></node><node id="-263" lat="30.269693" lon="-97.672222" changeset="false"><tag k="addr:street" v="Hudson Street"/><tag k="addr:housenumber" v="6117"/></node><node id="-264" lat="30.283888" lon="-97.670585" changeset="false"><tag k="addr:street" v="Tannehill Lane"/><tag k="addr:housenumber" v="4523"/></node><node id="-265" lat="30.272747" lon="-97.681889" changeset="false"><tag k="addr:street" v="Lott Avenue"/><tag k="addr:housenumber" v="1126"/></node><node id="-266" lat="30.275893" lon="-97.681063" changeset="false"><tag k="addr:street" v="Fort Branch Boulevard"/><tag k="addr:housenumber" v="1220"/></node><node id="-267" lat="30.278737" lon="-97.680693" changeset="false"><tag k="addr:street" v="Fort Branch Boulevard"/><tag k="addr:housenumber" v="1412"/></node><node id="-268" lat="30.278209" lon="-97.678566" changeset="false"><tag k="addr:street" v="Delano Street"/><tag k="addr:housenumber" v="1335"/></node><node id="-269" lat="30.271482" lon="-97.683128" changeset="false"><tag k="addr:street" v="Ledesma Road"/><tag k="addr:housenumber" v="5228"/></node><node id="-270" lat="30.271165" lon="-97.680575" changeset="false"><tag k="addr:street" v="Eleanor Street"/><tag k="addr:housenumber" v="1108"/></node><node id="-271" lat="30.273438" lon="-97.679744" changeset="false"><tag k="addr:street" v="Eleanor Street"/><tag k="addr:housenumber" v="1142"/></node><node id="-272" lat="30.273494" lon="-97.676417" changeset="false"><tag k="addr:street" v="Wilcab Road"/><tag k="addr:housenumber" v="5801"/></node><node id="-273" lat="30.277682" lon="-97.684351" changeset="false"><tag k="addr:street" v="Nickols Avenue"/><tag k="addr:housenumber" v="1168"/></node><node id="-274" lat="30.267451" lon="-97.673978" changeset="false"><tag k="addr:street" v="Harold Court"/><tag k="addr:housenumber" v="6103"/></node><node id="-275" lat="30.27309" lon="-97.68097" changeset="false"><tag k="addr:street" v="Lott Avenue"/><tag k="addr:housenumber" v="1137"/></node><node id="-276" lat="30.269052" lon="-97.670762" changeset="false"><tag k="addr:street" v="Hudson Street"/><tag k="addr:housenumber" v="6401"/></node><node id="-277" lat="30.274488" lon="-97.679281" changeset="false"><tag k="addr:street" v="Eleanor Street"/><tag k="addr:housenumber" v="1209"/></node><node id="-278" lat="30.273851" lon="-97.678807" changeset="false"><tag k="addr:street" v="Hudson Street"/><tag k="addr:housenumber" v="5500"/></node><node id="-279" lat="30.271131" lon="-97.678784" changeset="false"><tag k="addr:street" v="Harold Court"/><tag k="addr:housenumber" v="5602"/></node><node id="-280" lat="30.271017" lon="-97.674921" changeset="false"><tag k="addr:street" v="Hudson Street"/><tag k="addr:housenumber" v="5909"/></node><node id="-281" lat="30.274351" lon="-97.680972" changeset="false"><tag k="addr:street" v="Fort Branch Boulevard"/><tag k="addr:housenumber" v="1152"/></node><node id="-282" lat="30.267544" lon="-97.679903" changeset="false"><tag k="addr:street" v="Tura Lane"/><tag k="addr:housenumber" v="5704"/></node><node id="-283" lat="30.271233" lon="-97.683476" changeset="false"><tag k="addr:street" v="Ledesma Road"/><tag k="addr:housenumber" v="5226"/></node><node id="-284" lat="30.271772" lon="-97.678648" changeset="false"><tag k="addr:street" v="Delano Street"/><tag k="addr:housenumber" v="1109"/></node><node id="-285" lat="30.272054" lon="-97.678452" changeset="false"><tag k="addr:street" v="Delano Street"/><tag k="addr:housenumber" v="1115"/></node><node id="-286" lat="30.275774" lon="-97.681147" changeset="false"><tag k="addr:street" v="Fort Branch Boulevard"/><tag k="addr:housenumber" v="1218"/></node><node id="-287" lat="30.273142" lon="-97.675765" changeset="false"><tag k="addr:street" v="Wilcab Road"/><tag k="addr:housenumber" v="5815"/></node><node id="-288" lat="30.271049" lon="-97.682511" changeset="false"><tag k="addr:street" v="Ledesma Road"/><tag k="addr:housenumber" v="5302"/></node><node id="-289" lat="30.280147" lon="-97.675637" changeset="false"><tag k="addr:street" v="Samuel Huston Avenue"/><tag k="addr:housenumber" v="5501"/></node><node id="-290" lat="30.2737" lon="-97.683841" changeset="false"><tag k="addr:street" v="Star Light Terrace"/><tag k="addr:housenumber" v="5202"/></node><node id="-291" lat="30.276213" lon="-97.680773" changeset="false"><tag k="addr:street" v="Fort Branch Boulevard"/><tag k="addr:housenumber" v="1226"/></node><node id="-292" lat="30.277502" lon="-97.685317" changeset="false"><tag k="addr:street" v="Eastfield Avenue"/><tag k="addr:housenumber" v="1159"/></node><node id="-293" lat="30.277316" lon="-97.685933" changeset="false"><tag k="addr:street" v="Webberville Road"/><tag k="addr:housenumber" v="1163"/></node><node id="-294" lat="30.278525" lon="-97.683866" changeset="false"><tag k="addr:street" v="Webberville Road"/><tag k="addr:housenumber" v="1213"/></node><node id="-295" lat="30.278238" lon="-97.679845" changeset="false"><tag k="addr:street" v="Delano Street"/><tag k="addr:housenumber" v="1405"/></node><node id="-296" lat="30.279078" lon="-97.677387" changeset="false"><tag k="addr:street" v="Bunche Road"/><tag k="addr:housenumber" v="1716"/></node><node id="-297" lat="30.279594" lon="-97.679699" changeset="false"><tag k="addr:street" v="Meander Drive"/><tag k="addr:housenumber" v="1418"/></node><node id="-298" lat="30.274465" lon="-97.689041" changeset="false"><tag k="addr:street" v="Reyes Street"/><tag k="addr:housenumber" v="4607"/></node><node id="-299" lat="30.274635" lon="-97.681027" changeset="false"><tag k="addr:street" v="Fort Branch Boulevard"/><tag k="addr:housenumber" v="1202"/></node><node id="-300" lat="30.279627" lon="-97.68171" changeset="false"><tag k="addr:street" v="Webberville Road"/><tag k="addr:housenumber" v="1413"/></node><node id="-301" lat="30.279538" lon="-97.682235" changeset="false"><tag k="addr:street" v="Webberville Road"/><tag k="addr:housenumber" v="1405"/></node><node id="-302" lat="30.281116" lon="-97.676302" changeset="false"><tag k="addr:street" v="Samuel Huston Avenue"/><tag k="addr:housenumber" v="5306"/></node><node id="-303" lat="30.277486" lon="-97.667868" changeset="false"><tag k="addr:street" v="Ed Bluestein Boulevard"/><tag k="addr:housenumber" v="4100"/></node><node id="-304" lat="30.271211" lon="-97.67448" changeset="false"><tag k="addr:street" v="Hudson Street"/><tag k="addr:housenumber" v="6003"/></node><node id="-305" lat="30.273606" lon="-97.687034" changeset="false"><tag k="addr:street" v="Mendoza Drive"/><tag k="addr:housenumber" v="4902"/></node><node id="-306" lat="30.274705" lon="-97.689487" changeset="false"><tag k="addr:street" v="Reyes Street"/><tag k="addr:housenumber" v="4601"/></node><node id="-307" lat="30.271901" lon="-97.678532" changeset="false"><tag k="addr:street" v="Delano Street"/><tag k="addr:housenumber" v="1111"/></node><node id="-308" lat="30.273855" lon="-97.675691" changeset="false"><tag k="addr:street" v="Wilcab Road"/><tag k="addr:housenumber" v="5808"/></node><node id="-309" lat="30.275985" lon="-97.679232" changeset="false"><tag k="addr:street" v="Delano Street"/><tag k="addr:housenumber" v="1306"/></node><node id="-310" lat="30.276095" lon="-97.679284" changeset="false"><tag k="addr:street" v="Delano Street"/><tag k="addr:housenumber" v="1308"/></node><node id="-311" lat="30.279177" lon="-97.680025" changeset="false"><tag k="addr:street" v="Meander Drive"/><tag k="addr:housenumber" v="1404"/></node><node id="-312" lat="30.273627" lon="-97.683238" changeset="false"><tag k="addr:street" v="Delores Avenue"/><tag k="addr:housenumber" v="5203"/></node><node id="-313" lat="30.270977" lon="-97.678508" changeset="false"><tag k="addr:street" v="Harold Court"/><tag k="addr:housenumber" v="5606"/></node><node id="-314" lat="30.27433" lon="-97.678538" changeset="false"><tag k="addr:street" v="Delano Street"/><tag k="addr:housenumber" v="1214"/></node><node id="-315" lat="30.274289" lon="-97.688769" changeset="false"><tag k="addr:street" v="Reyes Street"/><tag k="addr:housenumber" v="4703"/></node><node id="-316" lat="30.283321" lon="-97.672876" changeset="false"><tag k="addr:street" v="Webberville Road"/><tag k="addr:housenumber" v="1941"/></node><node id="-317" lat="30.279238" lon="-97.67968" changeset="false"><tag k="addr:street" v="Meander Drive"/><tag k="addr:housenumber" v="1410"/></node><node id="-318" lat="30.274197" lon="-97.680935" changeset="false"><tag k="addr:street" v="Fort Branch Boulevard"/><tag k="addr:housenumber" v="1150"/></node><node id="-319" lat="30.270909" lon="-97.680796" changeset="false"><tag k="addr:street" v="Eleanor Street"/><tag k="addr:housenumber" v="1104"/></node><node id="-320" lat="30.281989" lon="-97.676853" changeset="false"><tag k="addr:street" v="Webberville Road"/><tag k="addr:housenumber" v="1807"/></node><node id="-321" lat="30.276796" lon="-97.677538" changeset="false"><tag k="addr:street" v="Jackie Robinson Street"/><tag k="addr:housenumber" v="5516"/></node><node id="-322" lat="30.272212" lon="-97.673321" changeset="false"><tag k="addr:street" v="Wilcab Road"/><tag k="addr:housenumber" v="6101"/></node><node id="-323" lat="30.276637" lon="-97.671365" changeset="false"><tag k="addr:street" v="Techni Center Drive"/><tag k="addr:housenumber" v="6001"/></node><node id="-324" lat="30.276931" lon="-97.671287" changeset="false"><tag k="addr:street" v="Techni Center Drive"/><tag k="addr:housenumber" v="5905"/></node><node id="-325" lat="30.276579" lon="-97.6789" changeset="false"><tag k="addr:street" v="Delano Street"/><tag k="addr:housenumber" v="1313"/></node><node id="-326" lat="30.276587" lon="-97.678788" changeset="false"><tag k="addr:street" v="Jackie Robinson Street"/><tag k="addr:housenumber" v="5506"/></node></osm>