<?xml version="1.0" encoding="UTF-8"?><osm version="0.6" generator="github.com/aaronlidman/osm-and-geojson"><node id="-1" lat="30.192572" lon="-97.739681" changeset="false"><tag k="addr:street" v="Nuckols Crossing Road"/><tag k="addr:housenumber" v="5308"/></node><node id="-2" lat="30.18764" lon="-97.744428" changeset="false"><tag k="addr:street" v="Hidden Valley Trail"/><tag k="addr:housenumber" v="5909"/></node><node id="-3" lat="30.187841" lon="-97.744447" changeset="false"><tag k="addr:street" v="Hidden Valley Trail"/><tag k="addr:housenumber" v="5905"/></node><node id="-4" lat="30.187577" lon="-97.745099" changeset="false"><tag k="addr:street" v="Hidden Valley Trail"/><tag k="addr:housenumber" v="5916"/></node><node id="-5" lat="30.186417" lon="-97.745426" changeset="false"><tag k="addr:street" v="Cooing Court"/><tag k="addr:housenumber" v="6001"/></node><node id="-6" lat="30.193034" lon="-97.739682" changeset="false"><tag k="addr:street" v="East Stassney Lane"/><tag k="addr:housenumber" v="5105"/></node><node id="-7" lat="30.188112" lon="-97.74462" changeset="false"><tag k="addr:street" v="Hidden Valley Trail"/><tag k="addr:housenumber" v="5900"/></node><node id="-8" lat="30.188207" lon="-97.744014" changeset="false"><tag k="addr:street" v="Village Square Drive"/><tag k="addr:housenumber" v="5101"/></node><node id="-9" lat="30.187128" lon="-97.744673" changeset="false"><tag k="addr:street" v="Little Creek Trail"/><tag k="addr:housenumber" v="5924"/></node><node id="-10" lat="30.187572" lon="-97.744178" changeset="false"><tag k="addr:street" v="Little Creek Trail"/><tag k="addr:housenumber" v="5908"/></node><node id="-11" lat="30.191679" lon="-97.742707" changeset="false"><tag k="addr:street" v="Parell Path"/><tag k="addr:housenumber" v="4907"/></node><node id="-12" lat="30.187828" lon="-97.743948" changeset="false"><tag k="addr:street" v="Little Creek Trail"/><tag k="addr:housenumber" v="5900"/></node><node id="-13" lat="30.18726" lon="-97.743859" changeset="false"><tag k="addr:street" v="Little Creek Trail"/><tag k="addr:housenumber" v="5911"/></node><node id="-14" lat="30.187305" lon="-97.743774" changeset="false"><tag k="addr:street" v="Little Creek Trail"/><tag k="addr:housenumber" v="5909"/></node><node id="-15" lat="30.187164" lon="-97.744022" changeset="false"><tag k="addr:street" v="Little Creek Trail"/><tag k="addr:housenumber" v="5915"/></node><node id="-16" lat="30.187229" lon="-97.743931" changeset="false"><tag k="addr:street" v="Little Creek Trail"/><tag k="addr:housenumber" v="5913"/></node><node id="-17" lat="30.187425" lon="-97.744273" changeset="false"><tag k="addr:street" v="Little Creek Trail"/><tag k="addr:housenumber" v="5912"/></node><node id="-18" lat="30.187499" lon="-97.744228" changeset="false"><tag k="addr:street" v="Little Creek Trail"/><tag k="addr:housenumber" v="5910"/></node><node id="-19" lat="30.187347" lon="-97.744334" changeset="false"><tag k="addr:street" v="Little Creek Trail"/><tag k="addr:housenumber" v="5914"/></node><node id="-20" lat="30.187574" lon="-97.743774" changeset="false"><tag k="addr:street" v="Little Creek Trail"/><tag k="addr:housenumber" v="5903"/></node><node id="-21" lat="30.187519" lon="-97.743782" changeset="false"><tag k="addr:street" v="Little Creek Trail"/><tag k="addr:housenumber" v="5905"/></node><node id="-22" lat="30.187417" lon="-97.743769" changeset="false"><tag k="addr:street" v="Little Creek Trail"/><tag k="addr:housenumber" v="5907"/></node><node id="-23" lat="30.187633" lon="-97.74369" changeset="false"><tag k="addr:street" v="Little Creek Trail"/><tag k="addr:housenumber" v="5901"/></node><node id="-24" lat="30.187676" lon="-97.744033" changeset="false"><tag k="addr:street" v="Little Creek Trail"/><tag k="addr:housenumber" v="5904"/></node><node id="-25" lat="30.187747" lon="-97.743994" changeset="false"><tag k="addr:street" v="Little Creek Trail"/><tag k="addr:housenumber" v="5902"/></node><node id="-26" lat="30.187608" lon="-97.744069" changeset="false"><tag k="addr:street" v="Little Creek Trail"/><tag k="addr:housenumber" v="5906"/></node><node id="-27" lat="30.187957" lon="-97.74447" changeset="false"><tag k="addr:street" v="Hidden Valley Trail"/><tag k="addr:housenumber" v="5903"/></node><node id="-28" lat="30.188019" lon="-97.744382" changeset="false"><tag k="addr:street" v="Hidden Valley Trail"/><tag k="addr:housenumber" v="5901"/></node><node id="-29" lat="30.18782" lon="-97.74453" changeset="false"><tag k="addr:street" v="Hidden Valley Trail"/><tag k="addr:housenumber" v="5907"/></node><node id="-30" lat="30.187053" lon="-97.743975" changeset="false"><tag k="addr:street" v="Little Creek Trail"/><tag k="addr:housenumber" v="5917"/></node><node id="-31" lat="30.186977" lon="-97.744028" changeset="false"><tag k="addr:street" v="Little Creek Trail"/><tag k="addr:housenumber" v="5919"/></node><node id="-32" lat="30.186939" lon="-97.744073" changeset="false"><tag k="addr:street" v="Little Creek Trail"/><tag k="addr:housenumber" v="5921"/></node><node id="-33" lat="30.186854" lon="-97.744106" changeset="false"><tag k="addr:street" v="Little Creek Trail"/><tag k="addr:housenumber" v="5923"/></node><node id="-34" lat="30.187178" lon="-97.744302" changeset="false"><tag k="addr:street" v="Little Creek Trail"/><tag k="addr:housenumber" v="5918"/></node><node id="-35" lat="30.187258" lon="-97.744292" changeset="false"><tag k="addr:street" v="Little Creek Trail"/><tag k="addr:housenumber" v="5916"/></node><node id="-36" lat="30.187014" lon="-97.744359" changeset="false"><tag k="addr:street" v="Little Creek Trail"/><tag k="addr:housenumber" v="5922"/></node><node id="-37" lat="30.18709" lon="-97.744298" changeset="false"><tag k="addr:street" v="Little Creek Trail"/><tag k="addr:housenumber" v="5920"/></node><node id="-38" lat="30.188047" lon="-97.744684" changeset="false"><tag k="addr:street" v="Hidden Valley Trail"/><tag k="addr:housenumber" v="5902"/></node><node id="-39" lat="30.187971" lon="-97.744752" changeset="false"><tag k="addr:street" v="Hidden Valley Trail"/><tag k="addr:housenumber" v="5904"/></node><node id="-40" lat="30.187915" lon="-97.744811" changeset="false"><tag k="addr:street" v="Hidden Valley Trail"/><tag k="addr:housenumber" v="5906"/></node><node id="-41" lat="30.187606" lon="-97.744528" changeset="false"><tag k="addr:street" v="Hidden Valley Trail"/><tag k="addr:housenumber" v="5911"/></node><node id="-42" lat="30.187551" lon="-97.74463" changeset="false"><tag k="addr:street" v="Hidden Valley Trail"/><tag k="addr:housenumber" v="5913"/></node><node id="-43" lat="30.18746" lon="-97.744638" changeset="false"><tag k="addr:street" v="Hidden Valley Trail"/><tag k="addr:housenumber" v="5915"/></node><node id="-44" lat="30.1875" lon="-97.745113" changeset="false"><tag k="addr:street" v="Hidden Valley Trail"/><tag k="addr:housenumber" v="5918"/></node><node id="-45" lat="30.187344" lon="-97.74515" changeset="false"><tag k="addr:street" v="Hidden Valley Trail"/><tag k="addr:housenumber" v="5922"/></node><node id="-46" lat="30.187426" lon="-97.745127" changeset="false"><tag k="addr:street" v="Hidden Valley Trail"/><tag k="addr:housenumber" v="5920"/></node><node id="-47" lat="30.187356" lon="-97.744799" changeset="false"><tag k="addr:street" v="Hidden Valley Trail"/><tag k="addr:housenumber" v="5919"/></node><node id="-48" lat="30.187306" lon="-97.744875" changeset="false"><tag k="addr:street" v="Hidden Valley Trail"/><tag k="addr:housenumber" v="5921"/></node><node id="-49" lat="30.187422" lon="-97.744772" changeset="false"><tag k="addr:street" v="Hidden Valley Trail"/><tag k="addr:housenumber" v="5917"/></node><node id="-50" lat="30.187227" lon="-97.74486" changeset="false"><tag k="addr:street" v="Hidden Valley Trail"/><tag k="addr:housenumber" v="5923"/></node><node id="-51" lat="30.187689" lon="-97.744937" changeset="false"><tag k="addr:street" v="Hidden Valley Trail"/><tag k="addr:housenumber" v="5912"/></node><node id="-52" lat="30.187762" lon="-97.744894" changeset="false"><tag k="addr:street" v="Hidden Valley Trail"/><tag k="addr:housenumber" v="5910"/></node><node id="-53" lat="30.187833" lon="-97.744854" changeset="false"><tag k="addr:street" v="Hidden Valley Trail"/><tag k="addr:housenumber" v="5908"/></node><node id="-54" lat="30.187614" lon="-97.745009" changeset="false"><tag k="addr:street" v="Hidden Valley Trail"/><tag k="addr:housenumber" v="5914"/></node></osm>