<?xml version="1.0" encoding="UTF-8"?><osm version="0.6" generator="github.com/aaronlidman/osm-and-geojson"><node id="-1" lat="30.282993" lon="-97.678871" changeset="false"><tag k="addr:street" v="Baker Street"/><tag k="addr:housenumber" v="5006"/></node><node id="-2" lat="30.285835" lon="-97.680733" changeset="false"><tag k="addr:street" v="East Martin Luther King Jr Boulevard"/><tag k="addr:housenumber" v="4701"/></node><node id="-3" lat="30.285403" lon="-97.679711" changeset="false"><tag k="addr:street" v="Hillspring Circle"/><tag k="addr:housenumber" v="4807"/></node><node id="-4" lat="30.282338" lon="-97.677288" changeset="false"><tag k="addr:street" v="Webberville Road"/><tag k="addr:housenumber" v="1806"/></node><node id="-5" lat="30.277686" lon="-97.686068" changeset="false"><tag k="addr:street" v="Webberville Road"/><tag k="addr:housenumber" v="1170"/></node><node id="-6" lat="30.281263" lon="-97.682732" changeset="false"><tag k="addr:street" v="Redondo Drive North,1100"/><tag k="addr:housenumber" v="1408"/></node><node id="-7" lat="30.281141" lon="-97.681089" changeset="false"><tag k="addr:street" v="Meander Drive"/><tag k="addr:housenumber" v="1701"/></node><node id="-8" lat="30.278261" lon="-97.685858" changeset="false"><tag k="addr:street" v="East 12th Street"/><tag k="addr:housenumber" v="4703"/></node><node id="-9" lat="30.282637" lon="-97.678352" changeset="false"><tag k="addr:street" v="Baker Street"/><tag k="addr:housenumber" v="5014"/></node><node id="-10" lat="30.285687" lon="-97.682585" changeset="false"><tag k="addr:street" v="Heflin Lane"/><tag k="addr:housenumber" v="4603"/></node><node id="-11" lat="30.283928" lon="-97.68128" changeset="false"><tag k="addr:street" v="Oak Cliff Drive"/><tag k="addr:housenumber" v="4712"/></node><node id="-12" lat="30.284159" lon="-97.679665" changeset="false"><tag k="addr:street" v="Rhodes Road"/><tag k="addr:housenumber" v="1821"/></node><node id="-13" lat="30.283485" lon="-97.680031" changeset="false"><tag k="addr:street" v="Rhodes Road"/><tag k="addr:housenumber" v="1811"/></node><node id="-14" lat="30.283222" lon="-97.679253" changeset="false"><tag k="addr:street" v="Baker Street"/><tag k="addr:housenumber" v="5000"/></node><node id="-15" lat="30.27996" lon="-97.681508" changeset="false"><tag k="addr:street" v="Webberville Road"/><tag k="addr:housenumber" v="1418"/></node><node id="-16" lat="30.282696" lon="-97.677253" changeset="false"><tag k="addr:street" v="Heflin Lane"/><tag k="addr:housenumber" v="5107"/></node><node id="-17" lat="30.283837" lon="-97.672554" changeset="false"><tag k="addr:street" v="Webberville Road"/><tag k="addr:housenumber" v="1942"/></node><node id="-18" lat="30.28119" lon="-97.684222" changeset="false"><tag k="addr:street" v="Penny Street"/><tag k="addr:housenumber" v="1403"/></node><node id="-19" lat="30.278224" lon="-97.687155" changeset="false"><tag k="addr:street" v="Springdale Road"/><tag k="addr:housenumber" v="1181"/></node><node id="-20" lat="30.284838" lon="-97.678125" changeset="false"><tag k="addr:street" v="Elmsgrove Drive"/><tag k="addr:housenumber" v="4400"/></node><node id="-21" lat="30.28424" lon="-97.67186" changeset="false"><tag k="addr:street" v="Webberville Road"/><tag k="addr:housenumber" v="1950"/></node><node id="-22" lat="30.284862" lon="-97.670921" changeset="false"><tag k="addr:street" v="Tannehill Lane"/><tag k="addr:housenumber" v="4606"/></node><node id="-23" lat="30.277511" lon="-97.687535" changeset="false"><tag k="addr:street" v="Springdale Road"/><tag k="addr:housenumber" v="1169"/></node><node id="-24" lat="30.283351" lon="-97.677453" changeset="false"><tag k="addr:street" v="Heflin Lane"/><tag k="addr:housenumber" v="5106"/></node><node id="-25" lat="30.278354" lon="-97.684923" changeset="false"><tag k="addr:street" v="Webberville Road"/><tag k="addr:housenumber" v="1208"/></node><node id="-26" lat="30.280776" lon="-97.679174" changeset="false"><tag k="addr:street" v="Webberville Road"/><tag k="addr:housenumber" v="1614"/></node><node id="-27" lat="30.277916" lon="-97.685761" changeset="false"><tag k="addr:street" v="Webberville Road"/><tag k="addr:housenumber" v="1172"/></node><node id="-28" lat="30.27877" lon="-97.684266" changeset="false"><tag k="addr:street" v="Webberville Road"/><tag k="addr:housenumber" v="1216"/></node><node id="-29" lat="30.280693" lon="-97.679261" changeset="false"><tag k="addr:street" v="Webberville Road"/><tag k="addr:housenumber" v="1612"/></node><node id="-30" lat="30.276471" lon="-97.688419" changeset="false"><tag k="addr:street" v="Springdale Road"/><tag k="addr:housenumber" v="1155"/></node><node id="-31" lat="30.284897" lon="-97.670821" changeset="false"><tag k="addr:street" v="Tannehill Lane"/><tag k="addr:housenumber" v="4610"/></node><node id="-32" lat="30.278072" lon="-97.685499" changeset="false"><tag k="addr:street" v="Webberville Road"/><tag k="addr:housenumber" v="1174"/></node><node id="-33" lat="30.278088" lon="-97.687241" changeset="false"><tag k="addr:street" v="Springdale Road"/><tag k="addr:housenumber" v="1179"/></node><node id="-34" lat="30.278398" lon="-97.687068" changeset="false"><tag k="addr:street" v="Springdale Road"/><tag k="addr:housenumber" v="1185"/></node><node id="-35" lat="30.281371" lon="-97.678537" changeset="false"><tag k="addr:street" v="Webberville Road"/><tag k="addr:housenumber" v="1700"/></node><node id="-36" lat="30.282001" lon="-97.67774" changeset="false"><tag k="addr:street" v="Webberville Road"/><tag k="addr:housenumber" v="1800"/></node><node id="-37" lat="30.280718" lon="-97.679445" changeset="false"><tag k="addr:street" v="Webberville Road"/><tag k="addr:housenumber" v="1610"/></node><node id="-38" lat="30.282546" lon="-97.684373" changeset="false"><tag k="addr:street" v="Leslie Avenue"/><tag k="addr:housenumber" v="4602"/></node><node id="-39" lat="30.27933" lon="-97.686526" changeset="false"><tag k="addr:street" v="Springdale Road"/><tag k="addr:housenumber" v="1203"/></node><node id="-40" lat="30.286101" lon="-97.67808" changeset="false"><tag k="addr:street" v="East Martin Luther King Jr Boulevard"/><tag k="addr:housenumber" v="5016"/></node><node id="-41" lat="30.27844" lon="-97.686285" changeset="false"><tag k="addr:street" v="East 12th Street"/><tag k="addr:housenumber" v="4611"/></node><node id="-42" lat="30.281639" lon="-97.678212" changeset="false"><tag k="addr:street" v="Webberville Road"/><tag k="addr:housenumber" v="1704"/></node><node id="-43" lat="30.282808" lon="-97.678405" changeset="false"><tag k="addr:street" v="Baker Street"/><tag k="addr:housenumber" v="5012"/></node><node id="-44" lat="30.285095" lon="-97.681317" changeset="false"><tag k="addr:street" v="Heflin Lane"/><tag k="addr:housenumber" v="4717"/></node><node id="-45" lat="30.283642" lon="-97.679431" changeset="false"><tag k="addr:street" v="Adina Street"/><tag k="addr:housenumber" v="1818"/></node><node id="-46" lat="30.284002" lon="-97.678562" changeset="false"><tag k="addr:street" v="Heflin Lane"/><tag k="addr:housenumber" v="5010"/></node><node id="-47" lat="30.286237" lon="-97.672768" changeset="false"><tag k="addr:street" v="East Martin Luther King Jr Boulevard"/><tag k="addr:housenumber" v="5415"/></node><node id="-48" lat="30.282945" lon="-97.678697" changeset="false"><tag k="addr:street" v="Baker Street"/><tag k="addr:housenumber" v="5008"/></node><node id="-49" lat="30.28291" lon="-97.678525" changeset="false"><tag k="addr:street" v="Baker Street"/><tag k="addr:housenumber" v="5010"/></node><node id="-50" lat="30.28193" lon="-97.683257" changeset="false"><tag k="addr:street" v="Berene Avenue"/><tag k="addr:housenumber" v="1600 1/2"/></node><node id="-51" lat="30.285443" lon="-97.682721" changeset="false"><tag k="addr:street" v="Springdale Road"/><tag k="addr:housenumber" v="1813"/></node><node id="-52" lat="30.282473" lon="-97.683246" changeset="false"><tag k="addr:street" v="Kitty Avenue"/><tag k="addr:housenumber" v="4705"/></node><node id="-53" lat="30.278271" lon="-97.685052" changeset="false"><tag k="addr:street" v="Webberville Road"/><tag k="addr:housenumber" v="1200"/></node><node id="-54" lat="30.280215" lon="-97.680235" changeset="false"><tag k="addr:street" v="Meander Drive"/><tag k="addr:housenumber" v="1600"/></node><node id="-55" lat="30.280038" lon="-97.680839" changeset="false"><tag k="addr:street" v="Webberville Road"/><tag k="addr:housenumber" v="1426"/></node><node id="-56" lat="30.277588" lon="-97.686443" changeset="false"><tag k="addr:street" v="Webberville Road"/><tag k="addr:housenumber" v="1166"/></node><node id="-57" lat="30.281868" lon="-97.684867" changeset="false"><tag k="addr:street" v="Wally Avenue"/><tag k="addr:housenumber" v="4600"/></node><node id="-58" lat="30.281829" lon="-97.677961" changeset="false"><tag k="addr:street" v="Webberville Road"/><tag k="addr:housenumber" v="1708"/></node><node id="-59" lat="30.282819" lon="-97.676244" changeset="false"><tag k="addr:street" v="Webberville Road"/><tag k="addr:housenumber" v="1902"/></node><node id="-60" lat="30.285296" lon="-97.681847" changeset="false"><tag k="addr:street" v="Heflin Lane"/><tag k="addr:housenumber" v="4705"/></node><node id="-61" lat="30.282795" lon="-97.679294" changeset="false"><tag k="addr:street" v="Baker Street"/><tag k="addr:housenumber" v="5003"/></node><node id="-62" lat="30.282741" lon="-97.683456" changeset="false"><tag k="addr:street" v="Kitty Avenue"/><tag k="addr:housenumber" v="4701"/></node><node id="-63" lat="30.282556" lon="-97.683391" changeset="false"><tag k="addr:street" v="Kitty Avenue"/><tag k="addr:housenumber" v="4703"/></node><node id="-64" lat="30.283044" lon="-97.678984" changeset="false"><tag k="addr:street" v="Baker Street"/><tag k="addr:housenumber" v="5004"/></node><node id="-65" lat="30.28533" lon="-97.679394" changeset="false"><tag k="addr:street" v="Scottsdale Road"/><tag k="addr:housenumber" v="4402"/></node><node id="-66" lat="30.285422" lon="-97.679426" changeset="false"><tag k="addr:street" v="Hillspring Circle"/><tag k="addr:housenumber" v="4809"/></node><node id="-67" lat="30.284204" lon="-97.682661" changeset="false"><tag k="addr:street" v="Oak Cliff Drive"/><tag k="addr:housenumber" v="4609"/></node><node id="-68" lat="30.284127" lon="-97.682543" changeset="false"><tag k="addr:street" v="Oak Cliff Drive"/><tag k="addr:housenumber" v="4611"/></node><node id="-69" lat="30.279416" lon="-97.6832" changeset="false"><tag k="addr:street" v="Ribbecke Avenue"/><tag k="addr:housenumber" v="4807"/></node><node id="-70" lat="30.279381" lon="-97.683156" changeset="false"><tag k="addr:street" v="Ribbecke Avenue"/><tag k="addr:housenumber" v="4805"/></node><node id="-71" lat="30.277248" lon="-97.687038" changeset="false"><tag k="addr:street" v="Webberville Road"/><tag k="addr:housenumber" v="1154"/></node><node id="-72" lat="30.277221" lon="-97.687076" changeset="false"><tag k="addr:street" v="Springdale Road"/><tag k="addr:housenumber" v="1154"/></node><node id="-73" lat="30.277185" lon="-97.687172" changeset="false"><tag k="addr:street" v="Webberville Road"/><tag k="addr:housenumber" v="1152"/></node></osm>