<?xml version="1.0" encoding="UTF-8"?><osm version="0.6" generator="github.com/aaronlidman/osm-and-geojson"><node id="-1" lat="30.365448" lon="-97.738607" changeset="false"><tag k="addr:street" v="Shoal Creek Boulevard"/><tag k="addr:housenumber" v="8121"/><tag k="coa:place_id" v="307886"/></node><node id="-2" lat="30.366366" lon="-97.739544" changeset="false"><tag k="addr:street" v="Steck Avenue"/><tag k="addr:housenumber" v="3305"/><tag k="coa:place_id" v="132001"/></node><node id="-3" lat="30.362665" lon="-97.74074" changeset="false"><tag k="addr:street" v="Shoal Creek Boulevard"/><tag k="addr:housenumber" v="7940"/><tag k="coa:place_id" v="749637"/></node><node id="-4" lat="30.360976" lon="-97.730202" changeset="false"><tag k="addr:street" v="Burnet Road"/><tag k="addr:housenumber" v="8140"/><tag k="coa:place_id" v="271970"/></node><node id="-5" lat="30.358166" lon="-97.733665" changeset="false"><tag k="addr:street" v="West Anderson Lane"/><tag k="addr:housenumber" v="2620"/><tag k="coa:place_id" v="272012"/></node><node id="-6" lat="30.358671" lon="-97.737106" changeset="false"><tag k="addr:street" v="West Anderson Lane"/><tag k="addr:housenumber" v="2801"/><tag k="coa:place_id" v="278955"/></node><node id="-7" lat="30.361983" lon="-97.742464" changeset="false"><tag k="addr:street" v="West Anderson Lane"/><tag k="addr:housenumber" v="3300"/><tag k="coa:place_id" v="119463"/></node><node id="-8" lat="30.361758" lon="-97.741521" changeset="false"><tag k="addr:street" v="West Anderson Lane"/><tag k="addr:housenumber" v="3202"/><tag k="coa:place_id" v="106887"/></node><node id="-9" lat="30.362047" lon="-97.741415" changeset="false"><tag k="addr:street" v="West Anderson Lane"/><tag k="addr:housenumber" v="3200"/><tag k="coa:place_id" v="1030646"/></node><node id="-10" lat="30.36121" lon="-97.739439" changeset="false"><tag k="addr:street" v="West Anderson Lane"/><tag k="addr:housenumber" v="3010"/><tag k="coa:place_id" v="1043186"/></node><node id="-11" lat="30.361225" lon="-97.740418" changeset="false"><tag k="addr:street" v="West Anderson Lane"/><tag k="addr:housenumber" v="3022"/><tag k="coa:place_id" v="236837"/></node><node id="-12" lat="30.360149" lon="-97.737768" changeset="false"><tag k="addr:street" v="Rockwood Lane"/><tag k="addr:housenumber" v="7907"/><tag k="coa:place_id" v="3361560"/></node><node id="-13" lat="30.359771" lon="-97.737898" changeset="false"><tag k="addr:street" v="West Anderson Lane"/><tag k="addr:housenumber" v="2906"/><tag k="coa:place_id" v="763634"/></node><node id="-14" lat="30.360808" lon="-97.741478" changeset="false"><tag k="addr:street" v="Shoal Creek Boulevard"/><tag k="addr:housenumber" v="7858"/><tag k="coa:place_id" v="945236"/></node></osm>