<?xml version="1.0" encoding="UTF-8"?><osm version="0.6" generator="github.com/aaronlidman/osm-and-geojson"><node id="-1" lat="30.359562" lon="-97.738214" changeset="false"><tag k="addr:street" v="West Anderson Lane"/><tag k="addr:housenumber" v="2919"/></node><node id="-2" lat="30.359175" lon="-97.731028" changeset="false"><tag k="addr:street" v="Ashdale Drive"/><tag k="addr:housenumber" v="2416 1/2"/></node><node id="-3" lat="30.35906" lon="-97.734598" changeset="false"><tag k="addr:street" v="West Anderson Lane"/><tag k="addr:housenumber" v="2700"/></node><node id="-4" lat="30.360707" lon="-97.730179" changeset="false"><tag k="addr:street" v="Burnet Road"/><tag k="addr:housenumber" v="8138"/></node><node id="-5" lat="30.356523" lon="-97.731154" changeset="false"><tag k="addr:street" v="West Anderson Lane"/><tag k="addr:housenumber" v="2436"/></node><node id="-6" lat="30.366895" lon="-97.740398" changeset="false"><tag k="addr:street" v="Steck Avenue"/><tag k="addr:housenumber" v="3405"/></node><node id="-7" lat="30.364675" lon="-97.739828" changeset="false"><tag k="addr:street" v="Shoal Creek Boulevard"/><tag k="addr:housenumber" v="8030"/></node><node id="-8" lat="30.364302" lon="-97.739902" changeset="false"><tag k="addr:street" v="Shoal Creek Boulevard"/><tag k="addr:housenumber" v="8016"/></node><node id="-9" lat="30.356866" lon="-97.731876" changeset="false"><tag k="addr:street" v="West Anderson Lane"/><tag k="addr:housenumber" v="2430"/></node><node id="-10" lat="30.359522" lon="-97.738242" changeset="false"><tag k="addr:street" v="West Anderson Lane"/><tag k="addr:housenumber" v="2921"/></node><node id="-11" lat="30.365309" lon="-97.739494" changeset="false"><tag k="addr:street" v="Shoal Creek Boulevard"/><tag k="addr:housenumber" v="8100"/></node><node id="-12" lat="30.364017" lon="-97.739946" changeset="false"><tag k="addr:street" v="Shoal Creek Boulevard"/><tag k="addr:housenumber" v="8008"/></node><node id="-13" lat="30.363959" lon="-97.739803" changeset="false"><tag k="addr:street" v="Shoal Creek Boulevard"/><tag k="addr:housenumber" v="8012"/></node><node id="-14" lat="30.360059" lon="-97.739238" changeset="false"><tag k="addr:street" v="West Anderson Lane"/><tag k="addr:housenumber" v="2953"/></node><node id="-15" lat="30.359655" lon="-97.738601" changeset="false"><tag k="addr:street" v="West Anderson Lane"/><tag k="addr:housenumber" v="2925"/></node><node id="-16" lat="30.36584" lon="-97.737893" changeset="false"><tag k="addr:street" v="Steck Avenue"/><tag k="addr:housenumber" v="3201"/></node><node id="-17" lat="30.364024" lon="-97.738925" changeset="false"><tag k="addr:street" v="Shoal Creek Boulevard"/><tag k="addr:housenumber" v="8015"/></node><node id="-18" lat="30.364741" lon="-97.736705" changeset="false"><tag k="addr:street" v="Firwood Drive"/><tag k="addr:housenumber" v="3012"/></node><node id="-19" lat="30.358148" lon="-97.738345" changeset="false"><tag k="addr:street" v="Rockwood Lane"/><tag k="addr:housenumber" v="7811"/></node><node id="-20" lat="30.363427" lon="-97.740285" changeset="false"><tag k="addr:street" v="Shoal Creek Boulevard"/><tag k="addr:housenumber" v="7960"/></node><node id="-21" lat="30.366779" lon="-97.740045" changeset="false"><tag k="addr:street" v="Steck Avenue"/><tag k="addr:housenumber" v="3401"/></node><node id="-22" lat="30.362914" lon="-97.739805" changeset="false"><tag k="addr:street" v="Shoal Creek Boulevard"/><tag k="addr:housenumber" v="7951"/></node><node id="-23" lat="30.366001" lon="-97.738378" changeset="false"><tag k="addr:street" v="Steck Avenue"/><tag k="addr:housenumber" v="3215"/></node><node id="-24" lat="30.359692" lon="-97.738703" changeset="false"><tag k="addr:street" v="West Anderson Lane"/><tag k="addr:housenumber" v="2927"/></node><node id="-25" lat="30.364168" lon="-97.739956" changeset="false"><tag k="addr:street" v="Shoal Creek Boulevard"/><tag k="addr:housenumber" v="8014"/></node><node id="-26" lat="30.364392" lon="-97.739871" changeset="false"><tag k="addr:street" v="Shoal Creek Boulevard"/><tag k="addr:housenumber" v="8018"/></node><node id="-27" lat="30.359634" lon="-97.73891" changeset="false"><tag k="addr:street" v="West Anderson Lane"/><tag k="addr:housenumber" v="2931"/></node><node id="-28" lat="30.362339" lon="-97.730758" changeset="false"><tag k="addr:street" v="Steck Avenue"/><tag k="addr:housenumber" v="2505"/></node><node id="-29" lat="30.359694" lon="-97.740672" changeset="false"><tag k="addr:street" v="Shoal Creek Boulevard"/><tag k="addr:housenumber" v="7845"/></node><node id="-30" lat="30.358341" lon="-97.736452" changeset="false"><tag k="addr:street" v="West Anderson Lane"/><tag k="addr:housenumber" v="2711"/></node><node id="-31" lat="30.3636" lon="-97.739287" changeset="false"><tag k="addr:street" v="Shoal Creek Boulevard"/><tag k="addr:housenumber" v="8001"/></node><node id="-32" lat="30.359676" lon="-97.738669" changeset="false"><tag k="addr:street" v="West Anderson Lane"/><tag k="addr:housenumber" v="2917"/></node><node id="-33" lat="30.359728" lon="-97.738718" changeset="false"><tag k="addr:street" v="West Anderson Lane"/><tag k="addr:housenumber" v="2929"/></node><node id="-34" lat="30.359338" lon="-97.738173" changeset="false"><tag k="addr:street" v="West Anderson Lane"/><tag k="addr:housenumber" v="2909"/></node><node id="-35" lat="30.364852" lon="-97.739487" changeset="false"><tag k="addr:street" v="Shoal Creek Boulevard"/><tag k="addr:housenumber" v="8044"/></node><node id="-36" lat="30.359901" lon="-97.738947" changeset="false"><tag k="addr:street" v="West Anderson Lane"/><tag k="addr:housenumber" v="2939"/></node><node id="-37" lat="30.359652" lon="-97.738502" changeset="false"><tag k="addr:street" v="West Anderson Lane"/><tag k="addr:housenumber" v="2923"/></node><node id="-38" lat="30.365614" lon="-97.739202" changeset="false"><tag k="addr:street" v="Shoal Creek Boulevard"/><tag k="addr:housenumber" v="8118"/></node><node id="-39" lat="30.360494" lon="-97.730193" changeset="false"><tag k="addr:street" v="Burnet Road"/><tag k="addr:housenumber" v="8118"/></node><node id="-40" lat="30.362321" lon="-97.740118" changeset="false"><tag k="addr:street" v="Shoal Creek Boulevard"/><tag k="addr:housenumber" v="7935"/></node><node id="-41" lat="30.366347" lon="-97.739207" changeset="false"><tag k="addr:street" v="Steck Avenue"/><tag k="addr:housenumber" v="3301"/></node><node id="-42" lat="30.358768" lon="-97.738243" changeset="false"><tag k="addr:street" v="Rockwood Lane"/><tag k="addr:housenumber" v="7817"/></node><node id="-43" lat="30.358167" lon="-97.730848" changeset="false"><tag k="addr:street" v="Burnet Road"/><tag k="addr:housenumber" v="7950"/></node><node id="-44" lat="30.359756" lon="-97.738822" changeset="false"><tag k="addr:street" v="West Anderson Lane"/><tag k="addr:housenumber" v="2935"/></node><node id="-45" lat="30.359198" lon="-97.742047" changeset="false"><tag k="addr:street" v="Foster Lane"/><tag k="addr:housenumber" v="3200"/></node><node id="-46" lat="30.359724" lon="-97.738762" changeset="false"><tag k="addr:street" v="West Anderson Lane"/><tag k="addr:housenumber" v="2933"/></node><node id="-47" lat="30.359748" lon="-97.732073" changeset="false"><tag k="addr:street" v="Ashdale Drive"/><tag k="addr:housenumber" v="2450"/></node><node id="-48" lat="30.359582" lon="-97.737408" changeset="false"><tag k="addr:street" v="West Anderson Lane"/><tag k="addr:housenumber" v="2900"/></node><node id="-49" lat="30.36445" lon="-97.739859" changeset="false"><tag k="addr:street" v="Shoal Creek Boulevard"/><tag k="addr:housenumber" v="8020"/></node><node id="-50" lat="30.362067" lon="-97.740579" changeset="false"><tag k="addr:street" v="Shoal Creek Boulevard"/><tag k="addr:housenumber" v="7912"/></node><node id="-51" lat="30.361797" lon="-97.729858" changeset="false"><tag k="addr:street" v="Burnet Road"/><tag k="addr:housenumber" v="8218"/></node><node id="-52" lat="30.35977" lon="-97.738851" changeset="false"><tag k="addr:street" v="West Anderson Lane"/><tag k="addr:housenumber" v="2937"/></node><node id="-53" lat="30.365445" lon="-97.737241" changeset="false"><tag k="addr:street" v="Steck Avenue"/><tag k="addr:housenumber" v="3119"/></node><node id="-54" lat="30.35746" lon="-97.730672" changeset="false"><tag k="addr:street" v="Burnet Road"/><tag k="addr:housenumber" v="7932"/></node><node id="-55" lat="30.363206" lon="-97.742301" changeset="false"><tag k="addr:street" v="Great Northern Boulevard"/><tag k="addr:housenumber" v="7934"/></node><node id="-56" lat="30.363165" lon="-97.742158" changeset="false"><tag k="addr:street" v="Great Northern Boulevard"/><tag k="addr:housenumber" v="7938"/></node><node id="-57" lat="30.362926" lon="-97.741455" changeset="false"><tag k="addr:street" v="Great Northern Boulevard"/><tag k="addr:housenumber" v="7946"/></node><node id="-58" lat="30.363057" lon="-97.741834" changeset="false"><tag k="addr:street" v="Great Northern Boulevard"/><tag k="addr:housenumber" v="7942"/></node><node id="-59" lat="30.362959" lon="-97.741511" changeset="false"><tag k="addr:street" v="Great Northern Boulevard"/><tag k="addr:housenumber" v="7948"/></node><node id="-60" lat="30.36289" lon="-97.741385" changeset="false"><tag k="addr:street" v="Great Northern Boulevard"/><tag k="addr:housenumber" v="7950"/></node><node id="-61" lat="30.363012" lon="-97.741675" changeset="false"><tag k="addr:street" v="Great Northern Boulevard"/><tag k="addr:housenumber" v="7944"/></node><node id="-62" lat="30.363112" lon="-97.741997" changeset="false"><tag k="addr:street" v="Great Northern Boulevard"/><tag k="addr:housenumber" v="7940"/></node><node id="-63" lat="30.35999" lon="-97.730961" changeset="false"><tag k="addr:street" v="Burnet Road"/><tag k="addr:housenumber" v="8100"/></node><node id="-64" lat="30.359818" lon="-97.731105" changeset="false"><tag k="addr:street" v="Burnet Road"/><tag k="addr:housenumber" v="8038"/></node><node id="-65" lat="30.357103" lon="-97.731308" changeset="false"><tag k="addr:street" v="West Anderson Lane"/><tag k="addr:housenumber" v="2438"/></node><node id="-66" lat="30.357314" lon="-97.731112" changeset="false"><tag k="addr:street" v="Burnet Road"/><tag k="addr:housenumber" v="7930"/></node><node id="-67" lat="30.359608" lon="-97.742927" changeset="false"><tag k="addr:street" v="Foster Lane"/><tag k="addr:housenumber" v="3308"/></node><node id="-68" lat="30.359535" lon="-97.742739" changeset="false"><tag k="addr:street" v="Foster Lane"/><tag k="addr:housenumber" v="3302"/></node><node id="-69" lat="30.359559" lon="-97.742798" changeset="false"><tag k="addr:street" v="Foster Lane"/><tag k="addr:housenumber" v="3304"/></node><node id="-70" lat="30.359506" lon="-97.742665" changeset="false"><tag k="addr:street" v="Foster Lane"/><tag k="addr:housenumber" v="3300"/></node><node id="-71" lat="30.359582" lon="-97.742861" changeset="false"><tag k="addr:street" v="Foster Lane"/><tag k="addr:housenumber" v="3306"/></node><node id="-72" lat="30.359979" lon="-97.739937" changeset="false"><tag k="addr:street" v="West Anderson Lane"/><tag k="addr:housenumber" v="2947"/></node><node id="-73" lat="30.360034" lon="-97.739948" changeset="false"><tag k="addr:street" v="West Anderson Lane"/><tag k="addr:housenumber" v="3001"/></node><node id="-74" lat="30.360191" lon="-97.739944" changeset="false"><tag k="addr:street" v="West Anderson Lane"/><tag k="addr:housenumber" v="2951"/></node><node id="-75" lat="30.35988" lon="-97.739932" changeset="false"><tag k="addr:street" v="West Anderson Lane"/><tag k="addr:housenumber" v="2945"/></node><node id="-76" lat="30.35977" lon="-97.739927" changeset="false"><tag k="addr:street" v="West Anderson Lane"/><tag k="addr:housenumber" v="2943"/></node><node id="-77" lat="30.359657" lon="-97.739927" changeset="false"><tag k="addr:street" v="West Anderson Lane"/><tag k="addr:housenumber" v="2941"/></node><node id="-78" lat="30.35979" lon="-97.743382" changeset="false"><tag k="addr:street" v="Foster Lane"/><tag k="addr:housenumber" v="3322"/></node><node id="-79" lat="30.359741" lon="-97.743273" changeset="false"><tag k="addr:street" v="Foster Lane"/><tag k="addr:housenumber" v="3318"/></node><node id="-80" lat="30.359648" lon="-97.743032" changeset="false"><tag k="addr:street" v="Foster Lane"/><tag k="addr:housenumber" v="3310"/></node><node id="-81" lat="30.359811" lon="-97.743445" changeset="false"><tag k="addr:street" v="Foster Lane"/><tag k="addr:housenumber" v="3324"/></node><node id="-82" lat="30.3597" lon="-97.743155" changeset="false"><tag k="addr:street" v="Foster Lane"/><tag k="addr:housenumber" v="3314"/></node><node id="-83" lat="30.359675" lon="-97.743098" changeset="false"><tag k="addr:street" v="Foster Lane"/><tag k="addr:housenumber" v="3312"/></node><node id="-84" lat="30.359863" lon="-97.743559" changeset="false"><tag k="addr:street" v="Foster Lane"/><tag k="addr:housenumber" v="3328"/></node><node id="-85" lat="30.359721" lon="-97.743211" changeset="false"><tag k="addr:street" v="Foster Lane"/><tag k="addr:housenumber" v="3316"/></node><node id="-86" lat="30.359842" lon="-97.743503" changeset="false"><tag k="addr:street" v="Foster Lane"/><tag k="addr:housenumber" v="3326"/></node><node id="-87" lat="30.359767" lon="-97.743328" changeset="false"><tag k="addr:street" v="Foster Lane"/><tag k="addr:housenumber" v="3320"/></node><node id="-88" lat="30.360191" lon="-97.740678" changeset="false"><tag k="addr:street" v="Shoal Creek Boulevard"/><tag k="addr:housenumber" v="7847"/></node><node id="-89" lat="30.360228" lon="-97.740389" changeset="false"><tag k="addr:street" v="Shoal Creek Boulevard"/><tag k="addr:housenumber" v="7849"/></node><node id="-90" lat="30.359462" lon="-97.742511" changeset="false"><tag k="addr:street" v="Foster Lane"/><tag k="addr:housenumber" v="3216"/></node><node id="-91" lat="30.35943" lon="-97.742424" changeset="false"><tag k="addr:street" v="Foster Lane"/><tag k="addr:housenumber" v="3214"/></node><node id="-92" lat="30.359389" lon="-97.742319" changeset="false"><tag k="addr:street" v="Foster Lane"/><tag k="addr:housenumber" v="3212"/></node><node id="-93" lat="30.359337" lon="-97.742205" changeset="false"><tag k="addr:street" v="Foster Lane"/><tag k="addr:housenumber" v="3210"/></node><node id="-94" lat="30.3593" lon="-97.742114" changeset="false"><tag k="addr:street" v="Foster Lane"/><tag k="addr:housenumber" v="3208"/></node></osm>