<?xml version="1.0" encoding="UTF-8"?><osm version="0.6" generator="github.com/aaronlidman/osm-and-geojson"><node id="-1" lat="30.318607" lon="-97.687931" changeset="false"><tag k="addr:street" v="Patton Lane"/><tag k="addr:housenumber" v="1800"/><tag k="addr:postcode" v="78723"/></node><node id="-2" lat="30.319112" lon="-97.685617" changeset="false"><tag k="addr:street" v="Mira Loma Lane"/><tag k="addr:housenumber" v="6702"/><tag k="addr:postcode" v="78723"/></node><node id="-3" lat="30.321212" lon="-97.685915" changeset="false"><tag k="addr:street" v="East US 290 Frontage Road"/><tag k="addr:housenumber" v="7001"/><tag k="addr:postcode" v="78723"/></node><node id="-4" lat="30.318162" lon="-97.687798" changeset="false"><tag k="addr:street" v="Linda Lane"/><tag k="addr:housenumber" v="6512"/><tag k="addr:postcode" v="78723"/></node><node id="-5" lat="30.321009" lon="-97.684077" changeset="false"><tag k="addr:street" v="Mira Loma Lane"/><tag k="addr:housenumber" v="6900"/><tag k="addr:postcode" v="78723"/></node><node id="-6" lat="30.320243" lon="-97.684954" changeset="false"><tag k="addr:street" v="Mira Loma Lane"/><tag k="addr:housenumber" v="6804"/><tag k="addr:postcode" v="78723"/></node><node id="-7" lat="30.315062" lon="-97.68858" changeset="false"><tag k="addr:street" v="Utopia Court"/><tag k="addr:housenumber" v="1900"/><tag k="addr:postcode" v="78723"/></node><node id="-8" lat="30.319104" lon="-97.689092" changeset="false"><tag k="addr:street" v="Patton Lane"/><tag k="addr:housenumber" v="1704"/><tag k="addr:postcode" v="78723"/></node><node id="-9" lat="30.320191" lon="-97.686243" changeset="false"><tag k="addr:street" v="Enterprise Court"/><tag k="addr:housenumber" v="6815"/><tag k="addr:postcode" v="78723"/></node><node id="-10" lat="30.318217" lon="-97.68724" changeset="false"><tag k="addr:street" v="Patton Lane"/><tag k="addr:housenumber" v="1904"/><tag k="addr:postcode" v="78723"/></node><node id="-11" lat="30.319911" lon="-97.685003" changeset="false"><tag k="addr:street" v="Mira Loma Lane"/><tag k="addr:housenumber" v="6802"/><tag k="addr:postcode" v="78723"/></node><node id="-12" lat="30.319141" lon="-97.688983" changeset="false"><tag k="addr:street" v="Berkman Drive"/><tag k="addr:housenumber" v="6603"/><tag k="addr:postcode" v="78723"/></node><node id="-13" lat="30.317074" lon="-97.687611" changeset="false"><tag k="addr:street" v="Linda Lane"/><tag k="addr:housenumber" v="6501"/><tag k="addr:postcode" v="78723"/></node><node id="-14" lat="30.320488" lon="-97.684744" changeset="false"><tag k="addr:street" v="Mira Loma Lane"/><tag k="addr:housenumber" v="6806"/><tag k="addr:postcode" v="78723"/></node><node id="-15" lat="30.319958" lon="-97.688731" changeset="false"><tag k="addr:street" v="Berkman Drive"/><tag k="addr:housenumber" v="6707"/><tag k="addr:postcode" v="78723"/></node><node id="-16" lat="30.314277" lon="-97.688548" changeset="false"><tag k="addr:street" v="Briarcliff Boulevard"/><tag k="addr:housenumber" v="1916"/><tag k="addr:postcode" v="78723"/></node><node id="-17" lat="30.315902" lon="-97.686776" changeset="false"><tag k="addr:street" v="Kenilworth Drive"/><tag k="addr:housenumber" v="6315"/><tag k="addr:postcode" v="78723"/></node><node id="-18" lat="30.319905" lon="-97.68672" changeset="false"><tag k="addr:street" v="Enterprise Court"/><tag k="addr:housenumber" v="6801"/><tag k="addr:postcode" v="78723"/></node><node id="-19" lat="30.318744" lon="-97.687337" changeset="false"><tag k="addr:street" v="Patton Lane"/><tag k="addr:housenumber" v="1806"/><tag k="addr:postcode" v="78723"/></node><node id="-20" lat="30.321089" lon="-97.685699" changeset="false"><tag k="addr:street" v="East US 290 Frontage Road"/><tag k="addr:housenumber" v="7015"/><tag k="addr:postcode" v="78723"/></node><node id="-21" lat="30.318375" lon="-97.68821" changeset="false"><tag k="addr:street" v="Patton Lane"/><tag k="addr:housenumber" v="1801"/><tag k="addr:postcode" v="78723"/></node><node id="-22" lat="30.316559" lon="-97.690755" changeset="false"><tag k="addr:street" v="Berkman Drive"/><tag k="addr:housenumber" v="6301"/><tag k="addr:postcode" v="78723"/></node><node id="-23" lat="30.315637" lon="-97.691108" changeset="false"><tag k="addr:street" v="Wheless Lane"/><tag k="addr:housenumber" v="1700"/><tag k="addr:postcode" v="78723"/></node><node id="-24" lat="30.315799" lon="-97.69125" changeset="false"><tag k="addr:street" v="Berkman Drive"/><tag k="addr:housenumber" v="6201"/><tag k="addr:postcode" v="78723"/></node></osm>