<?xml version="1.0" encoding="UTF-8"?><osm version="0.6" generator="github.com/aaronlidman/osm-and-geojson"><node id="-1" lat="30.271137" lon="-97.711212" changeset="false"><tag k="addr:street" v="Rosewood Avenue"/><tag k="addr:housenumber" v="2338"/><tag k="coa:place_id" v="177182"/></node><node id="-2" lat="30.271747" lon="-97.708005" changeset="false"><tag k="addr:street" v="Bedford Street"/><tag k="addr:housenumber" v="904"/><tag k="coa:place_id" v="242393"/></node><node id="-3" lat="30.268064" lon="-97.709474" changeset="false"><tag k="addr:street" v="Kuhlman Avenue"/><tag k="addr:housenumber" v="3013"/><tag k="coa:place_id" v="176942"/></node><node id="-4" lat="30.27131" lon="-97.705759" changeset="false"><tag k="addr:street" v="Webberville Road"/><tag k="addr:housenumber" v="3506"/><tag k="coa:place_id" v="108083"/></node><node id="-5" lat="30.268968" lon="-97.71077" changeset="false"><tag k="addr:street" v="Glen Oaks Court"/><tag k="addr:housenumber" v="1011"/><tag k="coa:place_id" v="3087496"/></node><node id="-6" lat="30.269952" lon="-97.707701" changeset="false"><tag k="addr:street" v="Thompson Street"/><tag k="addr:housenumber" v="803"/><tag k="coa:place_id" v="107819"/></node><node id="-7" lat="30.270396" lon="-97.707115" changeset="false"><tag k="addr:street" v="Bedford Street"/><tag k="addr:housenumber" v="707"/><tag k="coa:place_id" v="242389"/></node><node id="-8" lat="30.268607" lon="-97.710237" changeset="false"><tag k="addr:street" v="Neal Street"/><tag k="addr:housenumber" v="908"/><tag k="coa:place_id" v="3303055"/></node><node id="-9" lat="30.275267" lon="-97.709741" changeset="false"><tag k="addr:street" v="East 12th Street"/><tag k="addr:housenumber" v="2801"/><tag k="coa:place_id" v="200855"/></node><node id="-10" lat="30.271553" lon="-97.705647" changeset="false"><tag k="addr:street" v="Webberville Road"/><tag k="addr:housenumber" v="3510"/><tag k="coa:place_id" v="108084"/></node><node id="-11" lat="30.269517" lon="-97.713381" changeset="false"><tag k="addr:street" v="Nile Street"/><tag k="addr:housenumber" v="1114"/><tag k="coa:place_id" v="90315"/></node><node id="-12" lat="30.266335" lon="-97.710999" changeset="false"><tag k="addr:street" v="Nile Street"/><tag k="addr:housenumber" v="805"/><tag k="coa:place_id" v="978423"/></node><node id="-13" lat="30.26847" lon="-97.710059" changeset="false"><tag k="addr:street" v="Neal Street"/><tag k="addr:housenumber" v="904"/><tag k="coa:place_id" v="3310333"/></node><node id="-14" lat="30.267098" lon="-97.709995" changeset="false"><tag k="addr:street" v="Kuhlman Avenue"/><tag k="addr:housenumber" v="2909"/><tag k="coa:place_id" v="5113189"/></node><node id="-15" lat="30.270195" lon="-97.707242" changeset="false"><tag k="addr:street" v="Bedford Street"/><tag k="addr:housenumber" v="706"/><tag k="coa:place_id" v="242388"/></node><node id="-16" lat="30.266678" lon="-97.70867" changeset="false"><tag k="addr:street" v="Webberville Road"/><tag k="addr:housenumber" v="3002"/><tag k="coa:place_id" v="994575"/></node><node id="-17" lat="30.267231" lon="-97.713566" changeset="false"><tag k="addr:street" v="Nile Street"/><tag k="addr:housenumber" v="1000"/><tag k="coa:place_id" v="3116529"/></node><node id="-18" lat="30.273944" lon="-97.713386" changeset="false"><tag k="addr:street" v="New York Drive"/><tag k="addr:housenumber" v="2504"/><tag k="coa:place_id" v="91064"/></node><node id="-19" lat="30.267972" lon="-97.711852" changeset="false"><tag k="addr:street" v="Walter Street"/><tag k="addr:housenumber" v="923"/><tag k="coa:place_id" v="924351"/></node><node id="-20" lat="30.27446" lon="-97.708604" changeset="false"><tag k="addr:street" v="Hargrave Street"/><tag k="addr:housenumber" v="1190 1/2"/><tag k="coa:place_id" v="3261337"/></node><node id="-21" lat="30.267123" lon="-97.709471" changeset="false"><tag k="addr:street" v="Glen Rae Street"/><tag k="addr:housenumber" v="3000"/><tag k="coa:place_id" v="176876"/></node><node id="-22" lat="30.269112" lon="-97.711219" changeset="false"><tag k="addr:street" v="Glen Oaks Court"/><tag k="addr:housenumber" v="1012"/><tag k="coa:place_id" v="1134949"/></node><node id="-23" lat="30.269123" lon="-97.710948" changeset="false"><tag k="addr:street" v="Glen Oaks Court"/><tag k="addr:housenumber" v="1013"/><tag k="coa:place_id" v="1134948"/></node><node id="-24" lat="30.272635" lon="-97.709697" changeset="false"><tag k="addr:street" v="Hargrave Street"/><tag k="addr:housenumber" v="1156"/><tag k="coa:place_id" v="846711"/></node><node id="-25" lat="30.266683" lon="-97.710291" changeset="false"><tag k="addr:street" v="Kuhlman Avenue"/><tag k="addr:housenumber" v="2901"/><tag k="coa:place_id" v="733707"/></node><node id="-26" lat="30.271957" lon="-97.710063" changeset="false"><tag k="addr:street" v="Hargrave Street"/><tag k="addr:housenumber" v="1128"/><tag k="coa:place_id" v="710307"/></node><node id="-27" lat="30.271142" lon="-97.711183" changeset="false"><tag k="addr:street" v="Rosewood Avenue"/><tag k="addr:housenumber" v="2340"/><tag k="coa:place_id" v="177188"/></node><node id="-28" lat="30.272281" lon="-97.705888" changeset="false"><tag k="addr:street" v="Rosewood Avenue"/><tag k="addr:housenumber" v="2609"/><tag k="coa:place_id" v="250103"/></node><node id="-29" lat="30.271281" lon="-97.707553" changeset="false"><tag k="addr:street" v="Bedford Street"/><tag k="addr:housenumber" v="901"/><tag k="coa:place_id" v="612094"/></node><node id="-30" lat="30.267122" lon="-97.708345" changeset="false"><tag k="addr:street" v="Webberville Road"/><tag k="addr:housenumber" v="3010"/><tag k="coa:place_id" v="176732"/></node><node id="-31" lat="30.270274" lon="-97.706313" changeset="false"><tag k="addr:street" v="Webberville Road"/><tag k="addr:housenumber" v="3404"/><tag k="coa:place_id" v="108072"/></node><node id="-32" lat="30.26403" lon="-97.712018" changeset="false"><tag k="addr:street" v="Webberville Road"/><tag k="addr:housenumber" v="2700"/><tag k="coa:place_id" v="176714"/></node><node id="-33" lat="30.265463" lon="-97.709206" changeset="false"><tag k="addr:street" v="Webberville Road"/><tag k="addr:housenumber" v="2808"/><tag k="coa:place_id" v="70921"/></node><node id="-34" lat="30.268716" lon="-97.710357" changeset="false"><tag k="addr:street" v="Neal Street"/><tag k="addr:housenumber" v="912"/><tag k="coa:place_id" v="3303056"/></node><node id="-35" lat="30.270682" lon="-97.714198" changeset="false"><tag k="addr:street" v="Rosewood Avenue"/><tag k="addr:housenumber" v="2300"/><tag k="coa:place_id" v="143663"/></node><node id="-36" lat="30.26885" lon="-97.710486" changeset="false"><tag k="addr:street" v="Neal Street"/><tag k="addr:housenumber" v="916"/><tag k="coa:place_id" v="3303057"/></node><node id="-37" lat="30.270706" lon="-97.708817" changeset="false"><tag k="addr:street" v="Thompson Street"/><tag k="addr:housenumber" v="907"/><tag k="coa:place_id" v="710056"/></node><node id="-38" lat="30.272958" lon="-97.714093" changeset="false"><tag k="addr:street" v="North Pleasant Valley Road"/><tag k="addr:housenumber" v="1182"/><tag k="coa:place_id" v="630807"/></node><node id="-39" lat="30.267309" lon="-97.711432" changeset="false"><tag k="addr:street" v="Walter Street"/><tag k="addr:housenumber" v="913"/><tag k="coa:place_id" v="95369"/></node><node id="-40" lat="30.268853" lon="-97.711345" changeset="false"><tag k="addr:street" v="Glen Oaks Court"/><tag k="addr:housenumber" v="1010"/><tag k="coa:place_id" v="1134950"/></node><node id="-41" lat="30.269714" lon="-97.710562" changeset="false"><tag k="addr:street" v="Neal Street"/><tag k="addr:housenumber" v="901"/><tag k="coa:place_id" v="3028859"/></node><node id="-42" lat="30.271446" lon="-97.710529" changeset="false"><tag k="addr:street" v="Rosewood Avenue"/><tag k="addr:housenumber" v="2370"/><tag k="coa:place_id" v="580425"/></node><node id="-43" lat="30.263602" lon="-97.712449" changeset="false"><tag k="addr:street" v="Webberville Road"/><tag k="addr:housenumber" v="2610"/><tag k="coa:place_id" v="252208"/></node><node id="-44" lat="30.275302" lon="-97.709438" changeset="false"><tag k="addr:street" v="East 12th Street"/><tag k="addr:housenumber" v="2811"/><tag k="coa:place_id" v="638222"/></node></osm>