<?xml version="1.0" encoding="UTF-8"?><osm version="0.6" generator="github.com/aaronlidman/osm-and-geojson"><node id="-1" lat="30.300266" lon="-97.847512" changeset="false"><tag k="addr:street" v="Barton Creek Boulevard"/><tag k="addr:housenumber" v="724"/><tag k="addr:postcode" v="78746"/></node><node id="-2" lat="30.310155" lon="-97.858264" changeset="false"><tag k="addr:street" v="Grace Lane"/><tag k="addr:housenumber" v="425"/><tag k="addr:postcode" v="78746"/></node><node id="-3" lat="30.310858" lon="-97.852779" changeset="false"><tag k="addr:street" v="Beardsley Lane"/><tag k="addr:housenumber" v="409"/><tag k="addr:postcode" v="78746"/></node><node id="-4" lat="30.306941" lon="-97.851203" changeset="false"><tag k="addr:street" v="Beardsley Lane"/><tag k="addr:housenumber" v="516"/><tag k="addr:postcode" v="78746"/></node><node id="-5" lat="30.306404" lon="-97.845342" changeset="false"><tag k="addr:street" v="Newhall Lane"/><tag k="addr:housenumber" v="7500"/><tag k="addr:postcode" v="78746"/></node><node id="-6" lat="30.296761" lon="-97.839368" changeset="false"><tag k="addr:street" v="Stonewall Ridge Lane"/><tag k="addr:housenumber" v="821"/><tag k="addr:postcode" v="78746"/></node><node id="-7" lat="30.298601" lon="-97.844057" changeset="false"><tag k="addr:street" v="King Arthur Court"/><tag k="addr:housenumber" v="374"/><tag k="addr:postcode" v="78746"/></node><node id="-8" lat="30.308178" lon="-97.850441" changeset="false"><tag k="addr:street" v="Beardsley Lane"/><tag k="addr:housenumber" v="515"/><tag k="addr:postcode" v="78746"/></node><node id="-9" lat="30.307989" lon="-97.854044" changeset="false"><tag k="addr:street" v="Danforth Cove"/><tag k="addr:housenumber" v="8100"/><tag k="addr:postcode" v="78746"/></node><node id="-10" lat="30.311352" lon="-97.856712" changeset="false"><tag k="addr:street" v="Grace Lane"/><tag k="addr:housenumber" v="407"/><tag k="addr:postcode" v="78746"/></node><node id="-11" lat="30.307366" lon="-97.856786" changeset="false"><tag k="addr:street" v="Talbot Lane"/><tag k="addr:housenumber" v="8215"/><tag k="addr:postcode" v="78746"/></node><node id="-12" lat="30.30559" lon="-97.851591" changeset="false"><tag k="addr:street" v="Beardsley Lane"/><tag k="addr:housenumber" v="604"/><tag k="addr:postcode" v="78746"/></node><node id="-13" lat="30.294214" lon="-97.841927" changeset="false"><tag k="addr:street" v="Whippoorwill Trail"/><tag k="addr:housenumber" v="475"/><tag k="addr:postcode" v="78746"/></node><node id="-14" lat="30.302049" lon="-97.848836" changeset="false"><tag k="addr:street" v="Furlong Drive"/><tag k="addr:housenumber" v="704"/><tag k="addr:postcode" v="78746"/></node><node id="-15" lat="30.306557" lon="-97.857219" changeset="false"><tag k="addr:street" v="Talbot Cove"/><tag k="addr:housenumber" v="8200"/><tag k="addr:postcode" v="78746"/></node><node id="-16" lat="30.307666" lon="-97.856242" changeset="false"><tag k="addr:street" v="Talbot Lane"/><tag k="addr:housenumber" v="8207"/><tag k="addr:postcode" v="78746"/></node><node id="-17" lat="30.310611" lon="-97.852551" changeset="false"><tag k="addr:street" v="Beardsley Lane"/><tag k="addr:housenumber" v="413"/><tag k="addr:postcode" v="78746"/></node><node id="-18" lat="30.312461" lon="-97.863829" changeset="false"><tag k="addr:street" v="Crystal Creek Drive"/><tag k="addr:housenumber" v="605"/><tag k="addr:postcode" v="78746"/></node><node id="-19" lat="30.295525" lon="-97.841681" changeset="false"><tag k="addr:street" v="Whippoorwill Trail"/><tag k="addr:housenumber" v="425"/><tag k="addr:postcode" v="78746"/></node><node id="-20" lat="30.297096" lon="-97.841184" changeset="false"><tag k="addr:street" v="Canyon Rim Drive"/><tag k="addr:housenumber" v="340"/><tag k="addr:postcode" v="78746"/></node><node id="-21" lat="30.301445" lon="-97.842017" changeset="false"><tag k="addr:street" v="Kings Row"/><tag k="addr:housenumber" v="7120"/><tag k="addr:postcode" v="78746"/></node><node id="-22" lat="30.307211" lon="-97.855615" changeset="false"><tag k="addr:street" v="Danforth Cove"/><tag k="addr:housenumber" v="8109"/><tag k="addr:postcode" v="78746"/></node><node id="-23" lat="30.303414" lon="-97.851711" changeset="false"><tag k="addr:street" v="Beardsley Lane"/><tag k="addr:housenumber" v="700"/><tag k="addr:postcode" v="78746"/></node><node id="-24" lat="30.313904" lon="-97.862946" changeset="false"><tag k="addr:street" v="Crystal Creek Drive"/><tag k="addr:housenumber" v="507"/><tag k="addr:postcode" v="78746"/></node><node id="-25" lat="30.297936" lon="-97.839324" changeset="false"><tag k="addr:street" v="Stonewall Ridge Lane"/><tag k="addr:housenumber" v="800"/><tag k="addr:postcode" v="78746"/></node><node id="-26" lat="30.301107" lon="-97.846046" changeset="false"><tag k="addr:street" v="Barton Creek Boulevard"/><tag k="addr:housenumber" v="710"/><tag k="addr:postcode" v="78746"/></node><node id="-27" lat="30.313495" lon="-97.855884" changeset="false"><tag k="addr:street" v="Grace Lane"/><tag k="addr:housenumber" v="317"/><tag k="addr:postcode" v="78746"/></node><node id="-28" lat="30.309531" lon="-97.850994" changeset="false"><tag k="addr:street" v="Beardsley Cove"/><tag k="addr:housenumber" v="8000"/><tag k="addr:postcode" v="78746"/></node><node id="-29" lat="30.301798" lon="-97.859649" changeset="false"><tag k="addr:street" v="Critter Canyon"/><tag k="addr:housenumber" v="8403"/><tag k="addr:postcode" v="78746"/></node><node id="-30" lat="30.299176" lon="-97.839914" changeset="false"><tag k="addr:street" v="Canyon Rim Drive"/><tag k="addr:housenumber" v="105"/><tag k="addr:postcode" v="78746"/></node><node id="-31" lat="30.307727" lon="-97.853415" changeset="false"><tag k="addr:street" v="Danforth Cove"/><tag k="addr:housenumber" v="8012"/><tag k="addr:postcode" v="78746"/></node><node id="-32" lat="30.312065" lon="-97.858189" changeset="false"><tag k="addr:street" v="Grace Lane"/><tag k="addr:housenumber" v="500"/><tag k="addr:postcode" v="78746"/></node><node id="-33" lat="30.308276" lon="-97.856961" changeset="false"><tag k="addr:street" v="Talbot Lane"/><tag k="addr:housenumber" v="8212"/><tag k="addr:postcode" v="78746"/></node><node id="-34" lat="30.307029" lon="-97.857868" changeset="false"><tag k="addr:street" v="Talbot Lane"/><tag k="addr:housenumber" v="8305"/><tag k="addr:postcode" v="78746"/></node><node id="-35" lat="30.305115" lon="-97.848084" changeset="false"><tag k="addr:street" v="Newhall Cove"/><tag k="addr:housenumber" v="508"/><tag k="addr:postcode" v="78746"/></node><node id="-36" lat="30.304423" lon="-97.846845" changeset="false"><tag k="addr:street" v="Newhall Cove"/><tag k="addr:housenumber" v="509"/><tag k="addr:postcode" v="78746"/></node><node id="-37" lat="30.304172" lon="-97.847519" changeset="false"><tag k="addr:street" v="Newhall Cove"/><tag k="addr:housenumber" v="513"/><tag k="addr:postcode" v="78746"/></node><node id="-38" lat="30.312401" lon="-97.854214" changeset="false"><tag k="addr:street" v="Beardsley Lane"/><tag k="addr:housenumber" v="304"/><tag k="addr:postcode" v="78746"/></node><node id="-39" lat="30.298501" lon="-97.862768" changeset="false"><tag k="addr:street" v="Crystal Creek Circle"/><tag k="addr:housenumber" v="8703"/><tag k="addr:postcode" v="78746"/></node><node id="-40" lat="30.308231" lon="-97.857045" changeset="false"><tag k="addr:street" v="Talbot Lane"/><tag k="addr:housenumber" v="8214"/><tag k="addr:postcode" v="78746"/></node><node id="-41" lat="30.308579" lon="-97.850724" changeset="false"><tag k="addr:street" v="Beardsley Lane"/><tag k="addr:housenumber" v="511"/><tag k="addr:postcode" v="78746"/></node><node id="-42" lat="30.299192" lon="-97.863353" changeset="false"><tag k="addr:street" v="Crystal Creek Circle"/><tag k="addr:housenumber" v="8707"/><tag k="addr:postcode" v="78746"/></node><node id="-43" lat="30.301325" lon="-97.842419" changeset="false"><tag k="addr:street" v="Kings Row"/><tag k="addr:housenumber" v="7024"/><tag k="addr:postcode" v="78746"/></node><node id="-44" lat="30.305733" lon="-97.859863" changeset="false"><tag k="addr:street" v="Talbot Lane"/><tag k="addr:housenumber" v="8324"/><tag k="addr:postcode" v="78746"/></node><node id="-45" lat="30.302082" lon="-97.861778" changeset="false"><tag k="addr:street" v="Crystal Creek Drive"/><tag k="addr:housenumber" v="1101"/><tag k="addr:postcode" v="78746"/></node><node id="-46" lat="30.300313" lon="-97.861723" changeset="false"><tag k="addr:street" v="Crystal Creek Drive"/><tag k="addr:housenumber" v="1203"/><tag k="addr:postcode" v="78746"/></node><node id="-47" lat="30.297768" lon="-97.842482" changeset="false"><tag k="addr:street" v="King Arthur Court"/><tag k="addr:housenumber" v="373"/><tag k="addr:postcode" v="78746"/></node><node id="-48" lat="30.301966" lon="-97.846497" changeset="false"><tag k="addr:street" v="Furlong Drive"/><tag k="addr:housenumber" v="615"/><tag k="addr:postcode" v="78746"/></node><node id="-49" lat="30.310347" lon="-97.854673" changeset="false"><tag k="addr:street" v="Malish Court"/><tag k="addr:housenumber" v="8205"/><tag k="addr:postcode" v="78746"/></node><node id="-50" lat="30.308884" lon="-97.854548" changeset="false"><tag k="addr:street" v="Talbot Lane"/><tag k="addr:housenumber" v="8110"/><tag k="addr:postcode" v="78746"/></node><node id="-51" lat="30.305131" lon="-97.845762" changeset="false"><tag k="addr:street" v="Newhall Cove"/><tag k="addr:housenumber" v="501"/><tag k="addr:postcode" v="78746"/></node><node id="-52" lat="30.304428" lon="-97.844154" changeset="false"><tag k="addr:street" v="Furlong Drive"/><tag k="addr:housenumber" v="504"/><tag k="addr:postcode" v="78746"/></node><node id="-53" lat="30.298654" lon="-97.842061" changeset="false"><tag k="addr:street" v="King Arthur Court"/><tag k="addr:housenumber" v="330"/><tag k="addr:postcode" v="78746"/></node><node id="-54" lat="30.304061" lon="-97.850168" changeset="false"><tag k="addr:street" v="Beardsley Lane"/><tag k="addr:housenumber" v="701"/><tag k="addr:postcode" v="78746"/></node><node id="-55" lat="30.308063" lon="-97.85845" changeset="false"><tag k="addr:street" v="Talbot Lane"/><tag k="addr:housenumber" v="8304"/><tag k="addr:postcode" v="78746"/></node><node id="-56" lat="30.303958" lon="-97.84371" changeset="false"><tag k="addr:street" v="Furlong Drive"/><tag k="addr:housenumber" v="500"/><tag k="addr:postcode" v="78746"/></node><node id="-57" lat="30.302291" lon="-97.850243" changeset="false"><tag k="addr:street" v="Beardsley Lane"/><tag k="addr:housenumber" v="717"/><tag k="addr:postcode" v="78746"/></node><node id="-58" lat="30.305509" lon="-97.861489" changeset="false"><tag k="addr:street" v="Critter Canyon"/><tag k="addr:housenumber" v="8402"/><tag k="addr:postcode" v="78746"/></node><node id="-59" lat="30.305368" lon="-97.845076" changeset="false"><tag k="addr:street" v="Newhall Lane"/><tag k="addr:housenumber" v="7505"/><tag k="addr:postcode" v="78746"/></node><node id="-60" lat="30.305229" lon="-97.847443" changeset="false"><tag k="addr:street" v="Newhall Cove"/><tag k="addr:housenumber" v="504"/><tag k="addr:postcode" v="78746"/></node><node id="-61" lat="30.310323" lon="-97.852273" changeset="false"><tag k="addr:street" v="Beardsley Lane"/><tag k="addr:housenumber" v="417"/><tag k="addr:postcode" v="78746"/></node><node id="-62" lat="30.309577" lon="-97.853124" changeset="false"><tag k="addr:street" v="Beardsley Lane"/><tag k="addr:housenumber" v="420"/><tag k="addr:postcode" v="78746"/></node><node id="-63" lat="30.309851" lon="-97.859148" changeset="false"><tag k="addr:street" v="Grace Lane"/><tag k="addr:housenumber" v="433"/><tag k="addr:postcode" v="78746"/></node><node id="-64" lat="30.309298" lon="-97.854182" changeset="false"><tag k="addr:street" v="Talbot Lane"/><tag k="addr:housenumber" v="8106"/><tag k="addr:postcode" v="78746"/></node><node id="-65" lat="30.308947" lon="-97.851105" changeset="false"><tag k="addr:street" v="Beardsley Cove"/><tag k="addr:housenumber" v="8001"/><tag k="addr:postcode" v="78746"/></node><node id="-66" lat="30.309126" lon="-97.85512" changeset="false"><tag k="addr:street" v="Talbot Lane"/><tag k="addr:housenumber" v="8114"/><tag k="addr:postcode" v="78746"/></node><node id="-67" lat="30.310997" lon="-97.855136" changeset="false"><tag k="addr:street" v="Malish Court"/><tag k="addr:housenumber" v="8204"/><tag k="addr:postcode" v="78746"/></node><node id="-68" lat="30.308389" lon="-97.865497" changeset="false"><tag k="addr:street" v="Crystal Creek Drive"/><tag k="addr:housenumber" v="803"/><tag k="addr:postcode" v="78746"/></node><node id="-69" lat="30.305854" lon="-97.855271" changeset="false"><tag k="addr:street" v="Danforth Cove"/><tag k="addr:housenumber" v="8105"/><tag k="addr:postcode" v="78746"/></node><node id="-70" lat="30.300947" lon="-97.861511" changeset="false"><tag k="addr:street" v="Crystal Creek Drive"/><tag k="addr:housenumber" v="1201"/><tag k="addr:postcode" v="78746"/></node><node id="-71" lat="30.29815" lon="-97.847709" changeset="false"><tag k="addr:street" v="Barton Creek Boulevard"/><tag k="addr:housenumber" v="901"/><tag k="addr:postcode" v="78746"/></node><node id="-72" lat="30.303157" lon="-97.861618" changeset="false"><tag k="addr:street" v="Critter Canyon"/><tag k="addr:housenumber" v="8401"/><tag k="addr:postcode" v="78746"/></node><node id="-73" lat="30.301435" lon="-97.84905" changeset="false"><tag k="addr:street" v="Furlong Drive"/><tag k="addr:housenumber" v="708"/><tag k="addr:postcode" v="78746"/></node><node id="-74" lat="30.311517" lon="-97.853029" changeset="false"><tag k="addr:street" v="Beardsley Lane"/><tag k="addr:housenumber" v="401"/><tag k="addr:postcode" v="78746"/></node><node id="-75" lat="30.315429" lon="-97.863613" changeset="false"><tag k="addr:street" v="Crystal Creek Drive"/><tag k="addr:housenumber" v="415"/><tag k="addr:postcode" v="78746"/></node><node id="-76" lat="30.311336" lon="-97.864007" changeset="false"><tag k="addr:street" v="Crystal Creek Drive"/><tag k="addr:housenumber" v="611"/><tag k="addr:postcode" v="78746"/></node><node id="-77" lat="30.307444" lon="-97.84988" changeset="false"><tag k="addr:street" v="Beardsley Lane"/><tag k="addr:housenumber" v="523"/><tag k="addr:postcode" v="78746"/></node><node id="-78" lat="30.310237" lon="-97.853647" changeset="false"><tag k="addr:street" v="Beardsley Lane"/><tag k="addr:housenumber" v="412"/><tag k="addr:postcode" v="78746"/></node><node id="-79" lat="30.301773" lon="-97.845083" changeset="false"><tag k="addr:street" v="Barton Creek Boulevard"/><tag k="addr:housenumber" v="700"/><tag k="addr:postcode" v="78746"/></node><node id="-80" lat="30.301752" lon="-97.85153" changeset="false"><tag k="addr:street" v="Beardsley Lane"/><tag k="addr:housenumber" v="800"/><tag k="addr:postcode" v="78746"/></node><node id="-81" lat="30.305588" lon="-97.846804" changeset="false"><tag k="addr:street" v="Newhall Lane"/><tag k="addr:housenumber" v="7601"/><tag k="addr:postcode" v="78746"/></node><node id="-82" lat="30.296311" lon="-97.847059" changeset="false"><tag k="addr:street" v="Lancelot Way"/><tag k="addr:housenumber" v="610"/><tag k="addr:postcode" v="78746"/></node><node id="-83" lat="30.308124" lon="-97.858039" changeset="false"><tag k="addr:street" v="Talbot Lane"/><tag k="addr:housenumber" v="8300"/><tag k="addr:postcode" v="78746"/></node><node id="-84" lat="30.31115" lon="-97.857163" changeset="false"><tag k="addr:street" v="Grace Lane"/><tag k="addr:housenumber" v="409"/><tag k="addr:postcode" v="78746"/></node><node id="-85" lat="30.302521" lon="-97.848493" changeset="false"><tag k="addr:street" v="Furlong Drive"/><tag k="addr:housenumber" v="700"/><tag k="addr:postcode" v="78746"/></node><node id="-86" lat="30.302276" lon="-97.846079" changeset="false"><tag k="addr:street" v="Furlong Drive"/><tag k="addr:housenumber" v="609"/><tag k="addr:postcode" v="78746"/></node><node id="-87" lat="30.304837" lon="-97.863136" changeset="false"><tag k="addr:street" v="Crystal Creek Drive"/><tag k="addr:housenumber" v="1001"/><tag k="addr:postcode" v="78746"/></node><node id="-88" lat="30.304476" lon="-97.858391" changeset="false"><tag k="addr:street" v="Talbot Lane"/><tag k="addr:housenumber" v="8327"/><tag k="addr:postcode" v="78746"/></node><node id="-89" lat="30.301346" lon="-97.861536" changeset="false"><tag k="addr:street" v="Crystal Creek Drive"/><tag k="addr:housenumber" v="1103"/><tag k="addr:postcode" v="78746"/></node><node id="-90" lat="30.306218" lon="-97.849078" changeset="false"><tag k="addr:street" v="Beardsley Lane"/><tag k="addr:housenumber" v="531"/><tag k="addr:postcode" v="78746"/></node><node id="-91" lat="30.305001" lon="-97.850283" changeset="false"><tag k="addr:street" v="Beardsley Lane"/><tag k="addr:housenumber" v="601"/><tag k="addr:postcode" v="78746"/></node><node id="-92" lat="30.303224" lon="-97.844254" changeset="false"><tag k="addr:street" v="Furlong Drive"/><tag k="addr:housenumber" v="505"/><tag k="addr:postcode" v="78746"/></node><node id="-93" lat="30.298318" lon="-97.837981" changeset="false"><tag k="addr:street" v="Stonewall Ridge Lane"/><tag k="addr:housenumber" v="713"/><tag k="addr:postcode" v="78746"/></node><node id="-94" lat="30.304721" lon="-97.846357" changeset="false"><tag k="addr:street" v="Newhall Cove"/><tag k="addr:housenumber" v="505"/><tag k="addr:postcode" v="78746"/></node><node id="-95" lat="30.306273" lon="-97.864154" changeset="false"><tag k="addr:street" v="Crystal Creek Drive"/><tag k="addr:housenumber" v="905"/><tag k="addr:postcode" v="78746"/></node><node id="-96" lat="30.310916" lon="-97.861779" changeset="false"><tag k="addr:street" v="Crystal Creek Drive"/><tag k="addr:housenumber" v="519"/><tag k="addr:postcode" v="78746"/></node><node id="-97" lat="30.306604" lon="-97.84759" changeset="false"><tag k="addr:street" v="Newhall Lane"/><tag k="addr:housenumber" v="7609"/><tag k="addr:postcode" v="78746"/></node><node id="-98" lat="30.301498" lon="-97.847494" changeset="false"><tag k="addr:street" v="Furlong Drive"/><tag k="addr:housenumber" v="701"/><tag k="addr:postcode" v="78746"/></node><node id="-99" lat="30.296962" lon="-97.849777" changeset="false"><tag k="addr:street" v="Barton Creek Boulevard"/><tag k="addr:housenumber" v="1001"/><tag k="addr:postcode" v="78746"/></node><node id="-100" lat="30.313101" lon="-97.854118" changeset="false"><tag k="addr:street" v="Beardsley Lane"/><tag k="addr:housenumber" v="300"/><tag k="addr:postcode" v="78746"/></node><node id="-101" lat="30.302914" lon="-97.847873" changeset="false"><tag k="addr:street" v="Furlong Drive"/><tag k="addr:housenumber" v="616"/><tag k="addr:postcode" v="78746"/></node><node id="-102" lat="30.296225" lon="-97.844023" changeset="false"><tag k="addr:street" v="Canyon Rim Drive"/><tag k="addr:housenumber" v="536"/><tag k="addr:postcode" v="78746"/></node><node id="-103" lat="30.310353" lon="-97.864648" changeset="false"><tag k="addr:street" v="Crystal Creek Drive"/><tag k="addr:housenumber" v="707"/><tag k="addr:postcode" v="78746"/></node><node id="-104" lat="30.307534" lon="-97.851575" changeset="false"><tag k="addr:street" v="Beardsley Lane"/><tag k="addr:housenumber" v="512"/><tag k="addr:postcode" v="78746"/></node><node id="-105" lat="30.299677" lon="-97.851147" changeset="false"><tag k="addr:street" v="Beardsley Lane"/><tag k="addr:housenumber" v="812"/><tag k="addr:postcode" v="78746"/></node><node id="-106" lat="30.303263" lon="-97.846899" changeset="false"><tag k="addr:street" v="Furlong Drive"/><tag k="addr:housenumber" v="608"/><tag k="addr:postcode" v="78746"/></node><node id="-107" lat="30.29646" lon="-97.845049" changeset="false"><tag k="addr:street" v="Canyon Rim Drive"/><tag k="addr:housenumber" v="566"/><tag k="addr:postcode" v="78746"/></node><node id="-108" lat="30.298229" lon="-97.838832" changeset="false"><tag k="addr:street" v="Stonewall Ridge Lane"/><tag k="addr:housenumber" v="724"/><tag k="addr:postcode" v="78746"/></node><node id="-109" lat="30.310887" lon="-97.857666" changeset="false"><tag k="addr:street" v="Grace Lane"/><tag k="addr:housenumber" v="411"/><tag k="addr:postcode" v="78746"/></node><node id="-110" lat="30.304181" lon="-97.859924" changeset="false"><tag k="addr:street" v="Talbot Lane"/><tag k="addr:housenumber" v="8334"/><tag k="addr:postcode" v="78746"/></node><node id="-111" lat="30.30535" lon="-97.851997" changeset="false"><tag k="addr:street" v="Beardsley Lane"/><tag k="addr:housenumber" v="606"/><tag k="addr:postcode" v="78746"/></node><node id="-112" lat="30.310048" lon="-97.852002" changeset="false"><tag k="addr:street" v="Beardsley Lane"/><tag k="addr:housenumber" v="421"/><tag k="addr:postcode" v="78746"/></node><node id="-113" lat="30.299298" lon="-97.848056" changeset="false"><tag k="addr:street" v="Barton Creek Boulevard"/><tag k="addr:housenumber" v="808"/><tag k="addr:postcode" v="78746"/></node><node id="-114" lat="30.298366" lon="-97.849663" changeset="false"><tag k="addr:street" v="Barton Creek Boulevard"/><tag k="addr:housenumber" v="916"/><tag k="addr:postcode" v="78746"/></node><node id="-115" lat="30.309629" lon="-97.856216" changeset="false"><tag k="addr:street" v="Talbot Lane"/><tag k="addr:housenumber" v="8116"/><tag k="addr:postcode" v="78746"/></node><node id="-116" lat="30.306154" lon="-97.850483" changeset="false"><tag k="addr:street" v="Beardsley Lane"/><tag k="addr:housenumber" v="524"/><tag k="addr:postcode" v="78746"/></node><node id="-117" lat="30.305694" lon="-97.844478" changeset="false"><tag k="addr:street" v="Newhall Lane"/><tag k="addr:housenumber" v="7501"/><tag k="addr:postcode" v="78746"/></node><node id="-118" lat="30.303961" lon="-97.845743" changeset="false"><tag k="addr:street" v="Furlong Drive"/><tag k="addr:housenumber" v="516"/><tag k="addr:postcode" v="78746"/></node><node id="-119" lat="30.308998" lon="-97.865868" changeset="false"><tag k="addr:street" v="Crystal Creek Drive"/><tag k="addr:housenumber" v="801"/><tag k="addr:postcode" v="78746"/></node><node id="-120" lat="30.306032" lon="-97.854258" changeset="false"><tag k="addr:street" v="Danforth Cove"/><tag k="addr:housenumber" v="8001"/><tag k="addr:postcode" v="78746"/></node><node id="-121" lat="30.311707" lon="-97.85415" changeset="false"><tag k="addr:street" v="Beardsley Lane"/><tag k="addr:housenumber" v="400"/><tag k="addr:postcode" v="78746"/></node><node id="-122" lat="30.3104" lon="-97.857848" changeset="false"><tag k="addr:street" v="Grace Lane"/><tag k="addr:housenumber" v="421"/><tag k="addr:postcode" v="78746"/></node><node id="-123" lat="30.298574" lon="-97.84793" changeset="false"><tag k="addr:street" v="Barton Creek Boulevard"/><tag k="addr:housenumber" v="800"/><tag k="addr:postcode" v="78746"/></node><node id="-124" lat="30.305978" lon="-97.847314" changeset="false"><tag k="addr:street" v="Newhall Lane"/><tag k="addr:housenumber" v="7605"/><tag k="addr:postcode" v="78746"/></node><node id="-125" lat="30.302674" lon="-97.850118" changeset="false"><tag k="addr:street" v="Beardsley Lane"/><tag k="addr:housenumber" v="713"/><tag k="addr:postcode" v="78746"/></node><node id="-126" lat="30.295254" lon="-97.847584" changeset="false"><tag k="addr:street" v="Canyon Rim Drive"/><tag k="addr:housenumber" v="631"/><tag k="addr:postcode" v="78746"/></node><node id="-127" lat="30.303147" lon="-97.849967" changeset="false"><tag k="addr:street" v="Beardsley Lane"/><tag k="addr:housenumber" v="709"/><tag k="addr:postcode" v="78746"/></node><node id="-128" lat="30.297015" lon="-97.842719" changeset="false"><tag k="addr:street" v="Canyon Rim Drive"/><tag k="addr:housenumber" v="436"/><tag k="addr:postcode" v="78746"/></node><node id="-129" lat="30.300864" lon="-97.849001" changeset="false"><tag k="addr:street" v="Furlong Drive"/><tag k="addr:housenumber" v="712"/><tag k="addr:postcode" v="78746"/></node><node id="-130" lat="30.300144" lon="-97.839314" changeset="false"><tag k="addr:street" v="Canyon Rim Drive"/><tag k="addr:housenumber" v="101"/><tag k="addr:postcode" v="78746"/></node><node id="-131" lat="30.299943" lon="-97.849304" changeset="false"><tag k="addr:street" v="Furlong Drive"/><tag k="addr:housenumber" v="709"/><tag k="addr:postcode" v="78746"/></node><node id="-132" lat="30.305644" lon="-97.856921" changeset="false"><tag k="addr:street" v="Talbot Cove"/><tag k="addr:housenumber" v="8201"/><tag k="addr:postcode" v="78746"/></node><node id="-133" lat="30.300509" lon="-97.841309" changeset="false"><tag k="addr:street" v="Clifton Lane"/><tag k="addr:housenumber" v="7115"/><tag k="addr:postcode" v="78746"/></node><node id="-134" lat="30.296317" lon="-97.845638" changeset="false"><tag k="addr:street" v="Canyon Rim Drive"/><tag k="addr:housenumber" v="586"/><tag k="addr:postcode" v="78746"/></node><node id="-135" lat="30.301708" lon="-97.846984" changeset="false"><tag k="addr:street" v="Furlong Drive"/><tag k="addr:housenumber" v="617"/><tag k="addr:postcode" v="78746"/></node><node id="-136" lat="30.307357" lon="-97.853196" changeset="false"><tag k="addr:street" v="Danforth Cove"/><tag k="addr:housenumber" v="8008"/><tag k="addr:postcode" v="78746"/></node><node id="-137" lat="30.305251" lon="-97.857825" changeset="false"><tag k="addr:street" v="Talbot Cove"/><tag k="addr:housenumber" v="8207"/><tag k="addr:postcode" v="78746"/></node><node id="-138" lat="30.304414" lon="-97.850233" changeset="false"><tag k="addr:street" v="Beardsley Lane"/><tag k="addr:housenumber" v="607"/><tag k="addr:postcode" v="78746"/></node><node id="-139" lat="30.295968" lon="-97.84634" changeset="false"><tag k="addr:street" v="Canyon Rim Drive"/><tag k="addr:housenumber" v="600"/><tag k="addr:postcode" v="78746"/></node><node id="-140" lat="30.306804" lon="-97.843572" changeset="false"><tag k="addr:street" v="Newhall Lane"/><tag k="addr:housenumber" v="7406"/><tag k="addr:postcode" v="78746"/></node><node id="-141" lat="30.307682" lon="-97.859766" changeset="false"><tag k="addr:street" v="Talbot Lane"/><tag k="addr:housenumber" v="8312"/><tag k="addr:postcode" v="78746"/></node><node id="-142" lat="30.303654" lon="-97.850029" changeset="false"><tag k="addr:street" v="Beardsley Lane"/><tag k="addr:housenumber" v="705"/><tag k="addr:postcode" v="78746"/></node><node id="-143" lat="30.302564" lon="-97.845723" changeset="false"><tag k="addr:street" v="Furlong Drive"/><tag k="addr:housenumber" v="605"/><tag k="addr:postcode" v="78746"/></node><node id="-144" lat="30.299948" lon="-97.840192" changeset="false"><tag k="addr:street" v="Canyon Rim Drive"/><tag k="addr:housenumber" v="214"/><tag k="addr:postcode" v="78746"/></node><node id="-145" lat="30.301099" lon="-97.839514" changeset="false"><tag k="addr:street" v="Canyon Rim Drive"/><tag k="addr:housenumber" v="100"/><tag k="addr:postcode" v="78746"/></node><node id="-146" lat="30.30076" lon="-97.850132" changeset="false"><tag k="addr:street" v="Beardsley Lane"/><tag k="addr:housenumber" v="809"/><tag k="addr:postcode" v="78746"/></node><node id="-147" lat="30.299705" lon="-97.839714" changeset="false"><tag k="addr:street" v="Canyon Rim Drive"/><tag k="addr:housenumber" v="103"/><tag k="addr:postcode" v="78746"/></node><node id="-148" lat="30.298751" lon="-97.839838" changeset="false"><tag k="addr:street" v="Canyon Rim Drive"/><tag k="addr:housenumber" v="201"/><tag k="addr:postcode" v="78746"/></node><node id="-149" lat="30.306245" lon="-97.84608" changeset="false"><tag k="addr:street" v="Newhall Lane"/><tag k="addr:housenumber" v="7600"/><tag k="addr:postcode" v="78746"/></node><node id="-150" lat="30.305885" lon="-97.851039" changeset="false"><tag k="addr:street" v="Beardsley Lane"/><tag k="addr:housenumber" v="600"/><tag k="addr:postcode" v="78746"/></node><node id="-151" lat="30.304273" lon="-97.84523" changeset="false"><tag k="addr:street" v="Furlong Drive"/><tag k="addr:housenumber" v="512"/><tag k="addr:postcode" v="78746"/></node><node id="-152" lat="30.309885" lon="-97.853386" changeset="false"><tag k="addr:street" v="Beardsley Lane"/><tag k="addr:housenumber" v="416"/><tag k="addr:postcode" v="78746"/></node><node id="-153" lat="30.313591" lon="-97.862733" changeset="false"><tag k="addr:street" v="Crystal Creek Drive"/><tag k="addr:housenumber" v="509"/><tag k="addr:postcode" v="78746"/></node><node id="-154" lat="30.306992" lon="-97.849547" changeset="false"><tag k="addr:street" v="Beardsley Lane"/><tag k="addr:housenumber" v="527"/><tag k="addr:postcode" v="78746"/></node><node id="-155" lat="30.301932" lon="-97.850327" changeset="false"><tag k="addr:street" v="Beardsley Lane"/><tag k="addr:housenumber" v="801"/><tag k="addr:postcode" v="78746"/></node><node id="-156" lat="30.303097" lon="-97.847408" changeset="false"><tag k="addr:street" v="Furlong Drive"/><tag k="addr:housenumber" v="612"/><tag k="addr:postcode" v="78746"/></node><node id="-157" lat="30.29833" lon="-97.8623" changeset="false"><tag k="addr:street" v="Crystal Creek Circle"/><tag k="addr:housenumber" v="8701"/><tag k="addr:postcode" v="78746"/></node><node id="-158" lat="30.306581" lon="-97.860291" changeset="false"><tag k="addr:street" v="Talbot Lane"/><tag k="addr:housenumber" v="8320"/><tag k="addr:postcode" v="78746"/></node><node id="-159" lat="30.303865" lon="-97.858836" changeset="false"><tag k="addr:street" v="Talbot Lane"/><tag k="addr:housenumber" v="8333"/><tag k="addr:postcode" v="78746"/></node><node id="-160" lat="30.308225" lon="-97.851356" changeset="false"><tag k="addr:street" v="Beardsley Lane"/><tag k="addr:housenumber" v="526"/><tag k="addr:postcode" v="78746"/></node><node id="-161" lat="30.306934" lon="-97.846408" changeset="false"><tag k="addr:street" v="Newhall Lane"/><tag k="addr:housenumber" v="7604"/><tag k="addr:postcode" v="78746"/></node><node id="-162" lat="30.305408" lon="-97.849718" changeset="false"><tag k="addr:street" v="Beardsley Lane"/><tag k="addr:housenumber" v="539"/><tag k="addr:postcode" v="78746"/></node><node id="-163" lat="30.305608" lon="-97.849253" changeset="false"><tag k="addr:street" v="Beardsley Lane"/><tag k="addr:housenumber" v="535"/><tag k="addr:postcode" v="78746"/></node><node id="-164" lat="30.299145" lon="-97.848415" changeset="false"><tag k="addr:street" v="Barton Creek Boulevard"/><tag k="addr:housenumber" v="900"/><tag k="addr:postcode" v="78746"/></node><node id="-165" lat="30.31132" lon="-97.85419" changeset="false"><tag k="addr:street" v="Beardsley Lane"/><tag k="addr:housenumber" v="404"/><tag k="addr:postcode" v="78746"/></node><node id="-166" lat="30.295252" lon="-97.849731" changeset="false"><tag k="addr:street" v="Canyon Rim Drive"/><tag k="addr:housenumber" v="700"/><tag k="addr:postcode" v="78746"/></node><node id="-167" lat="30.301059" lon="-97.847822" changeset="false"><tag k="addr:street" v="Furlong Drive"/><tag k="addr:housenumber" v="705"/><tag k="addr:postcode" v="78746"/></node><node id="-168" lat="30.299047" lon="-97.843626" changeset="false"><tag k="addr:street" v="King Arthur Court"/><tag k="addr:housenumber" v="370"/><tag k="addr:postcode" v="78746"/></node><node id="-169" lat="30.29526" lon="-97.848274" changeset="false"><tag k="addr:street" v="Canyon Rim Drive"/><tag k="addr:housenumber" v="845"/><tag k="addr:postcode" v="78746"/></node><node id="-170" lat="30.306427" lon="-97.858041" changeset="false"><tag k="addr:street" v="Talbot Cove"/><tag k="addr:housenumber" v="8202"/><tag k="addr:postcode" v="78746"/></node><node id="-171" lat="30.296356" lon="-97.841333" changeset="false"><tag k="addr:street" v="Canyon Rim Drive"/><tag k="addr:housenumber" v="400"/><tag k="addr:postcode" v="78746"/></node><node id="-172" lat="30.29962" lon="-97.862304" changeset="false"><tag k="addr:street" v="Crystal Creek Circle"/><tag k="addr:housenumber" v="8702"/><tag k="addr:postcode" v="78746"/></node><node id="-173" lat="30.29541" lon="-97.848946" changeset="false"><tag k="addr:street" v="Canyon Rim Drive"/><tag k="addr:housenumber" v="849"/><tag k="addr:postcode" v="78746"/></node><node id="-174" lat="30.312844" lon="-97.852693" changeset="false"><tag k="addr:street" v="Beardsley Lane"/><tag k="addr:housenumber" v="307"/><tag k="addr:postcode" v="78746"/></node><node id="-175" lat="30.304442" lon="-97.861494" changeset="false"><tag k="addr:street" v="Critter Canyon"/><tag k="addr:housenumber" v="8400"/><tag k="addr:postcode" v="78746"/></node><node id="-176" lat="30.307779" lon="-97.850147" changeset="false"><tag k="addr:street" v="Beardsley Lane"/><tag k="addr:housenumber" v="519"/><tag k="addr:postcode" v="78746"/></node><node id="-177" lat="30.307989" lon="-97.859187" changeset="false"><tag k="addr:street" v="Talbot Lane"/><tag k="addr:housenumber" v="8308"/><tag k="addr:postcode" v="78746"/></node><node id="-178" lat="30.30013" lon="-97.85042" changeset="false"><tag k="addr:street" v="Beardsley Lane"/><tag k="addr:housenumber" v="811"/><tag k="addr:postcode" v="78746"/></node><node id="-179" lat="30.304084" lon="-97.85193" changeset="false"><tag k="addr:street" v="Beardsley Lane"/><tag k="addr:housenumber" v="614"/><tag k="addr:postcode" v="78746"/></node><node id="-180" lat="30.305563" lon="-97.843265" changeset="false"><tag k="addr:street" v="Newhall Lane"/><tag k="addr:housenumber" v="7401"/><tag k="addr:postcode" v="78746"/></node><node id="-181" lat="30.310674" lon="-97.853946" changeset="false"><tag k="addr:street" v="Beardsley Lane"/><tag k="addr:housenumber" v="408"/><tag k="addr:postcode" v="78746"/></node><node id="-182" lat="30.294675" lon="-97.843249" changeset="false"><tag k="addr:street" v="Whippoorwill Trail"/><tag k="addr:housenumber" v="495"/><tag k="addr:postcode" v="78746"/></node><node id="-183" lat="30.307107" lon="-97.852923" changeset="false"><tag k="addr:street" v="Danforth Cove"/><tag k="addr:housenumber" v="8006"/><tag k="addr:postcode" v="78746"/></node><node id="-184" lat="30.303674" lon="-97.846096" changeset="false"><tag k="addr:street" v="Furlong Drive"/><tag k="addr:housenumber" v="600"/><tag k="addr:postcode" v="78746"/></node><node id="-185" lat="30.303478" lon="-97.846463" changeset="false"><tag k="addr:street" v="Furlong Drive"/><tag k="addr:housenumber" v="604"/><tag k="addr:postcode" v="78746"/></node><node id="-186" lat="30.308832" lon="-97.855547" changeset="false"><tag k="addr:street" v="Talbot Lane"/><tag k="addr:housenumber" v="8118"/><tag k="addr:postcode" v="78746"/></node><node id="-187" lat="30.310548" lon="-97.855097" changeset="false"><tag k="addr:street" v="Malish Court"/><tag k="addr:housenumber" v="8206"/><tag k="addr:postcode" v="78746"/></node><node id="-188" lat="30.306705" lon="-97.843154" changeset="false"><tag k="addr:street" v="Newhall Lane"/><tag k="addr:housenumber" v="7400"/><tag k="addr:postcode" v="78746"/></node><node id="-189" lat="30.308934" lon="-97.852983" changeset="false"><tag k="addr:street" v="Talbot Lane"/><tag k="addr:housenumber" v="8105"/><tag k="addr:postcode" v="78746"/></node><node id="-190" lat="30.302727" lon="-97.851602" changeset="false"><tag k="addr:street" v="Beardsley Lane"/><tag k="addr:housenumber" v="714"/><tag k="addr:postcode" v="78746"/></node><node id="-191" lat="30.309675" lon="-97.851757" changeset="false"><tag k="addr:street" v="Beardsley Cove"/><tag k="addr:housenumber" v="8004"/><tag k="addr:postcode" v="78746"/></node><node id="-192" lat="30.298965" lon="-97.848786" changeset="false"><tag k="addr:street" v="Barton Creek Boulevard"/><tag k="addr:housenumber" v="906"/><tag k="addr:postcode" v="78746"/></node><node id="-193" lat="30.301503" lon="-97.850318" changeset="false"><tag k="addr:street" v="Beardsley Lane"/><tag k="addr:housenumber" v="805"/><tag k="addr:postcode" v="78746"/></node><node id="-194" lat="30.30724" lon="-97.860092" changeset="false"><tag k="addr:street" v="Talbot Lane"/><tag k="addr:housenumber" v="8316"/><tag k="addr:postcode" v="78746"/></node><node id="-195" lat="30.306623" lon="-97.86437" changeset="false"><tag k="addr:street" v="Crystal Creek Drive"/><tag k="addr:housenumber" v="903"/><tag k="addr:postcode" v="78746"/></node><node id="-196" lat="30.308385" lon="-97.852191" changeset="false"><tag k="addr:street" v="Beardsley Lane"/><tag k="addr:housenumber" v="504"/><tag k="addr:postcode" v="78746"/></node><node id="-197" lat="30.312331" lon="-97.856964" changeset="false"><tag k="addr:street" v="Grace Lane"/><tag k="addr:housenumber" v="405"/><tag k="addr:postcode" v="78746"/></node><node id="-198" lat="30.311796" lon="-97.858668" changeset="false"><tag k="addr:street" v="Grace Lane"/><tag k="addr:housenumber" v="502"/><tag k="addr:postcode" v="78746"/></node><node id="-199" lat="30.304574" lon="-97.842886" changeset="false"><tag k="addr:street" v="Barton Creek Boulevard"/><tag k="addr:housenumber" v="506"/><tag k="addr:postcode" v="78746"/></node></osm>