<?xml version="1.0" encoding="UTF-8"?><osm version="0.6" generator="github.com/aaronlidman/osm-and-geojson"><node id="-1" lat="30.26473" lon="-97.730719" changeset="false"><tag k="addr:street" v="East 6th Street"/><tag k="addr:housenumber" v="1108"/><tag k="coa:place_id" v="3428965"/></node><node id="-2" lat="30.264975" lon="-97.732953" changeset="false"><tag k="addr:street" v="East 6th Street"/><tag k="addr:housenumber" v="907"/><tag k="coa:place_id" v="401312"/></node><node id="-3" lat="30.261387" lon="-97.726928" changeset="false"><tag k="addr:street" v="East 4th Street"/><tag k="addr:housenumber" v="1602"/><tag k="coa:place_id" v="1118651"/></node><node id="-4" lat="30.257945" lon="-97.724533" changeset="false"><tag k="addr:street" v="Chicon Street"/><tag k="addr:housenumber" v="110"/><tag k="coa:place_id" v="3087494"/></node><node id="-5" lat="30.258885" lon="-97.726271" changeset="false"><tag k="addr:street" v="East 2nd Street"/><tag k="addr:housenumber" v="1640"/><tag k="coa:place_id" v="218211"/></node><node id="-6" lat="30.25875" lon="-97.72817" changeset="false"><tag k="addr:street" v="East Cesar Chavez Street"/><tag k="addr:housenumber" v="1602"/><tag k="coa:place_id" v="170427"/></node><node id="-7" lat="30.265154" lon="-97.73335" changeset="false"><tag k="addr:street" v="East 6th Street"/><tag k="addr:housenumber" v="901"/><tag k="coa:place_id" v="241521"/></node><node id="-8" lat="30.261385" lon="-97.729899" changeset="false"><tag k="addr:street" v="East 3rd Street"/><tag k="addr:housenumber" v="1308"/><tag k="coa:place_id" v="400766"/></node><node id="-9" lat="30.260987" lon="-97.735625" changeset="false"><tag k="addr:street" v="North Interstate Highway 35 Service Road"/><tag k="addr:housenumber" v="101"/><tag k="coa:place_id" v="363014"/></node><node id="-10" lat="30.263997" lon="-97.730023" changeset="false"><tag k="addr:street" v="East 6th Street"/><tag k="addr:housenumber" v="1213"/><tag k="coa:place_id" v="401468"/></node><node id="-11" lat="30.262465" lon="-97.733913" changeset="false"><tag k="addr:street" v="San Marcos Street"/><tag k="addr:housenumber" v="300"/><tag k="coa:place_id" v="400874"/></node><node id="-12" lat="30.260198" lon="-97.723961" changeset="false"><tag k="addr:street" v="East 4th Street"/><tag k="addr:housenumber" v="1800"/><tag k="coa:place_id" v="362600"/></node><node id="-13" lat="30.261326" lon="-97.729409" changeset="false"><tag k="addr:street" v="Navasota Street"/><tag k="addr:housenumber" v="303"/><tag k="coa:place_id" v="362540"/></node><node id="-14" lat="30.259074" lon="-97.723766" changeset="false"><tag k="addr:street" v="East 3rd Street"/><tag k="addr:housenumber" v="1824"/><tag k="coa:place_id" v="743806"/></node><node id="-15" lat="30.257574" lon="-97.725083" changeset="false"><tag k="addr:street" v="East Cesar Chavez Street"/><tag k="addr:housenumber" v="1804"/><tag k="coa:place_id" v="241374"/></node><node id="-16" lat="30.26064" lon="-97.730747" changeset="false"><tag k="addr:street" v="East 2nd Street"/><tag k="addr:housenumber" v="1302"/><tag k="coa:place_id" v="363278"/></node><node id="-17" lat="30.263821" lon="-97.727823" changeset="false"><tag k="addr:street" v="East 6th Street"/><tag k="addr:housenumber" v="1408"/><tag k="coa:place_id" v="402548"/></node><node id="-18" lat="30.261112" lon="-97.735169" changeset="false"><tag k="addr:street" v="East Cesar Chavez Street"/><tag k="addr:housenumber" v="902"/><tag k="coa:place_id" v="362996"/></node><node id="-19" lat="30.260376" lon="-97.733049" changeset="false"><tag k="addr:street" v="East Cesar Chavez Street"/><tag k="addr:housenumber" v="1104"/><tag k="coa:place_id" v="362882"/></node><node id="-20" lat="30.260294" lon="-97.731436" changeset="false"><tag k="addr:street" v="East 2nd Street"/><tag k="addr:housenumber" v="1213"/><tag k="coa:place_id" v="363206"/></node><node id="-21" lat="30.26387" lon="-97.733274" changeset="false"><tag k="addr:street" v="San Marcos Street"/><tag k="addr:housenumber" v="412"/><tag k="coa:place_id" v="378291"/></node><node id="-22" lat="30.260538" lon="-97.727876" changeset="false"><tag k="addr:street" v="Comal Street"/><tag k="addr:housenumber" v="300"/><tag k="coa:place_id" v="362492"/></node><node id="-23" lat="30.263902" lon="-97.726557" changeset="false"><tag k="addr:street" v="East 7th Street"/><tag k="addr:housenumber" v="1509"/><tag k="coa:place_id" v="402644"/></node><node id="-24" lat="30.257708" lon="-97.725483" changeset="false"><tag k="addr:street" v="East Cesar Chavez Street"/><tag k="addr:housenumber" v="1800"/><tag k="coa:place_id" v="1163158"/></node><node id="-25" lat="30.262335" lon="-97.734021" changeset="false"><tag k="addr:street" v="East 3rd Street"/><tag k="addr:housenumber" v="911"/><tag k="coa:place_id" v="363500"/></node><node id="-26" lat="30.262227" lon="-97.73238" changeset="false"><tag k="addr:street" v="East 3rd Street"/><tag k="addr:housenumber" v="1104"/><tag k="coa:place_id" v="400862"/></node><node id="-27" lat="30.26226" lon="-97.722269" changeset="false"><tag k="addr:street" v="Chicon Street"/><tag k="addr:housenumber" v="613"/><tag k="coa:place_id" v="562676"/></node><node id="-28" lat="30.261447" lon="-97.728748" changeset="false"><tag k="addr:street" v="East 4th Street"/><tag k="addr:housenumber" v="1409"/><tag k="coa:place_id" v="1118650"/></node><node id="-29" lat="30.262651" lon="-97.731024" changeset="false"><tag k="addr:street" v="East 4th Street"/><tag k="addr:housenumber" v="1204 1/2"/><tag k="coa:place_id" v="3046744"/></node><node id="-30" lat="30.261721" lon="-97.72345" changeset="false"><tag k="addr:street" v="East 6th Street"/><tag k="addr:housenumber" v="1805"/><tag k="coa:place_id" v="402254"/></node><node id="-31" lat="30.258844" lon="-97.724254" changeset="false"><tag k="addr:street" v="East 3rd Street"/><tag k="addr:housenumber" v="1809"/><tag k="coa:place_id" v="362456"/></node><node id="-32" lat="30.258913" lon="-97.727466" changeset="false"><tag k="addr:street" v="East 2nd Street"/><tag k="addr:housenumber" v="1631"/><tag k="coa:place_id" v="153496"/></node><node id="-33" lat="30.263268" lon="-97.725022" changeset="false"><tag k="addr:street" v="East 7th Street"/><tag k="addr:housenumber" v="1615"/><tag k="coa:place_id" v="402722"/></node><node id="-34" lat="30.263081" lon="-97.724304" changeset="false"><tag k="addr:street" v="East 7th Street"/><tag k="addr:housenumber" v="1625"/><tag k="coa:place_id" v="1163453"/></node><node id="-35" lat="30.261926" lon="-97.734491" changeset="false"><tag k="addr:street" v="East 2nd Street"/><tag k="addr:housenumber" v="906"/><tag k="coa:place_id" v="363440"/></node><node id="-36" lat="30.257763" lon="-97.72579" changeset="false"><tag k="addr:street" v="East Cesar Chavez Street"/><tag k="addr:housenumber" v="1710"/><tag k="coa:place_id" v="241368"/></node><node id="-37" lat="30.262194" lon="-97.72305" changeset="false"><tag k="addr:street" v="East 6th Street"/><tag k="addr:housenumber" v="1802"/><tag k="coa:place_id" v="402302"/></node><node id="-38" lat="30.262031" lon="-97.722583" changeset="false"><tag k="addr:street" v="East 6th Street"/><tag k="addr:housenumber" v="1816"/><tag k="coa:place_id" v="241529"/></node><node id="-39" lat="30.259858" lon="-97.728229" changeset="false"><tag k="addr:street" v="Comal Street"/><tag k="addr:housenumber" v="200"/><tag k="coa:place_id" v="367419"/></node><node id="-40" lat="30.259845" lon="-97.728435" changeset="false"><tag k="addr:street" v="East 2nd Street"/><tag k="addr:housenumber" v="1508"/><tag k="coa:place_id" v="362258"/></node><node id="-41" lat="30.262464" lon="-97.734691" changeset="false"><tag k="addr:street" v="Brushy Street"/><tag k="addr:housenumber" v="211"/><tag k="coa:place_id" v="363470"/></node><node id="-42" lat="30.258183" lon="-97.725579" changeset="false"><tag k="addr:street" v="East 2nd Street"/><tag k="addr:housenumber" v="1713"/><tag k="coa:place_id" v="1118867"/></node><node id="-43" lat="30.260837" lon="-97.728395" changeset="false"><tag k="addr:street" v="East 3rd Street"/><tag k="addr:housenumber" v="1502"/><tag k="coa:place_id" v="1118768"/></node><node id="-44" lat="30.261828" lon="-97.734373" changeset="false"><tag k="addr:street" v="East 2nd Street"/><tag k="addr:housenumber" v="908"/><tag k="coa:place_id" v="3313802"/></node><node id="-45" lat="30.264103" lon="-97.730289" changeset="false"><tag k="addr:street" v="East 6th Street"/><tag k="addr:housenumber" v="1205"/><tag k="coa:place_id" v="3345629"/></node><node id="-46" lat="30.264287" lon="-97.734354" changeset="false"><tag k="addr:street" v="East 4th Street"/><tag k="addr:housenumber" v="800"/><tag k="coa:place_id" v="3393245"/></node><node id="-47" lat="30.263633" lon="-97.727757" changeset="false"><tag k="addr:street" v="East 6th Street"/><tag k="addr:housenumber" v="1410"/><tag k="coa:place_id" v="3503574"/></node><node id="-48" lat="30.26397" lon="-97.731928" changeset="false"><tag k="addr:street" v="East 5th Street"/><tag k="addr:housenumber" v="1020"/><tag k="coa:place_id" v="5072264"/></node><node id="-49" lat="30.261916" lon="-97.723954" changeset="false"><tag k="addr:street" v="East 6th Street"/><tag k="addr:housenumber" v="1709"/><tag k="coa:place_id" v="402242"/></node><node id="-50" lat="30.260475" lon="-97.73333" changeset="false"><tag k="addr:street" v="East Cesar Chavez Street"/><tag k="addr:housenumber" v="1100"/><tag k="coa:place_id" v="362894"/></node><node id="-51" lat="30.260351" lon="-97.729898" changeset="false"><tag k="addr:street" v="East 2nd Street"/><tag k="addr:housenumber" v="1402"/><tag k="coa:place_id" v="241435"/></node><node id="-52" lat="30.261697" lon="-97.730788" changeset="false"><tag k="addr:street" v="East 3rd Street"/><tag k="addr:housenumber" v="1212"/><tag k="coa:place_id" v="400802"/></node><node id="-53" lat="30.261724" lon="-97.733903" changeset="false"><tag k="addr:street" v="East 2nd Street"/><tag k="addr:housenumber" v="1000"/><tag k="coa:place_id" v="363416"/></node><node id="-54" lat="30.265191" lon="-97.7318" changeset="false"><tag k="addr:street" v="East 6th Street"/><tag k="addr:housenumber" v="1008"/><tag k="coa:place_id" v="448731"/></node><node id="-55" lat="30.261713" lon="-97.72656" changeset="false"><tag k="addr:street" v="East 5th Street"/><tag k="addr:housenumber" v="1601"/><tag k="coa:place_id" v="1118570"/></node><node id="-56" lat="30.261645" lon="-97.727696" changeset="false"><tag k="addr:street" v="East 4th Street"/><tag k="addr:housenumber" v="1512"/><tag k="coa:place_id" v="1118588"/></node><node id="-57" lat="30.265778" lon="-97.73403" changeset="false"><tag k="addr:street" v="North Interstate Highway 35 Service Road"/><tag k="addr:housenumber" v="601"/><tag k="coa:place_id" v="879656"/></node><node id="-58" lat="30.261659" lon="-97.722699" changeset="false"><tag k="addr:street" v="Chicon Street"/><tag k="addr:housenumber" v="506"/><tag k="coa:place_id" v="562592"/></node><node id="-59" lat="30.257228" lon="-97.724736" changeset="false"><tag k="addr:street" v="Chicon Street"/><tag k="addr:housenumber" v="100"/><tag k="coa:place_id" v="361898"/></node><node id="-60" lat="30.260569" lon="-97.728903" changeset="false"><tag k="addr:street" v="East 3rd Street"/><tag k="addr:housenumber" v="1421"/><tag k="coa:place_id" v="362348"/></node><node id="-61" lat="30.260696" lon="-97.732496" changeset="false"><tag k="addr:street" v="East 2nd Street"/><tag k="addr:housenumber" v="1113"/><tag k="coa:place_id" v="363158"/></node><node id="-62" lat="30.263748" lon="-97.73099" changeset="false"><tag k="addr:street" v="Waller Street"/><tag k="addr:housenumber" v="502"/><tag k="coa:place_id" v="401096"/></node><node id="-63" lat="30.264096" lon="-97.728639" changeset="false"><tag k="addr:street" v="East 6th Street"/><tag k="addr:housenumber" v="1308"/><tag k="coa:place_id" v="401498"/></node><node id="-64" lat="30.261957" lon="-97.723584" changeset="false"><tag k="addr:street" v="East 6th Street"/><tag k="addr:housenumber" v="1717"/><tag k="coa:place_id" v="402248"/></node><node id="-65" lat="30.261408" lon="-97.732113" changeset="false"><tag k="addr:street" v="Waller Street"/><tag k="addr:housenumber" v="206"/><tag k="coa:place_id" v="1136307"/></node><node id="-66" lat="30.259813" lon="-97.725836" changeset="false"><tag k="addr:street" v="East 3rd Street"/><tag k="addr:housenumber" v="1654"/><tag k="coa:place_id" v="744136"/></node><node id="-67" lat="30.262239" lon="-97.734808" changeset="false"><tag k="addr:street" v="Brushy Street"/><tag k="addr:housenumber" v="209"/><tag k="coa:place_id" v="363464"/></node><node id="-68" lat="30.262014" lon="-97.73339" changeset="false"><tag k="addr:street" v="East 3rd Street"/><tag k="addr:housenumber" v="1007"/><tag k="coa:place_id" v="363506"/></node><node id="-69" lat="30.26168" lon="-97.724668" changeset="false"><tag k="addr:street" v="East 5th Street"/><tag k="addr:housenumber" v="1702"/><tag k="coa:place_id" v="1118568"/></node><node id="-70" lat="30.263399" lon="-97.726889" changeset="false"><tag k="addr:street" v="East 6th Street"/><tag k="addr:housenumber" v="1506"/><tag k="coa:place_id" v="362666"/></node><node id="-71" lat="30.259558" lon="-97.725104" changeset="false"><tag k="addr:street" v="East 3rd Street"/><tag k="addr:housenumber" v="1716"/><tag k="coa:place_id" v="115314"/></node><node id="-72" lat="30.259995" lon="-97.726372" changeset="false"><tag k="addr:street" v="East 3rd Street"/><tag k="addr:housenumber" v="1638"/><tag k="coa:place_id" v="115309"/></node><node id="-73" lat="30.258312" lon="-97.727691" changeset="false"><tag k="addr:street" v="East Cesar Chavez Street"/><tag k="addr:housenumber" v="1622"/><tag k="coa:place_id" v="362042"/></node><node id="-74" lat="30.266246" lon="-97.73365" changeset="false"><tag k="addr:street" v="East 7th Street"/><tag k="addr:housenumber" v="813"/><tag k="coa:place_id" v="1100907"/></node><node id="-75" lat="30.260491" lon="-97.730322" changeset="false"><tag k="addr:street" v="East 2nd Street"/><tag k="addr:housenumber" v="1308"/><tag k="coa:place_id" v="363260"/></node><node id="-76" lat="30.263362" lon="-97.731177" changeset="false"><tag k="addr:street" v="Waller Street"/><tag k="addr:housenumber" v="414"/><tag k="coa:place_id" v="401072"/></node><node id="-77" lat="30.264958" lon="-97.731126" changeset="false"><tag k="addr:street" v="East 6th Street"/><tag k="addr:housenumber" v="1102"/><tag k="coa:place_id" v="401594"/></node><node id="-78" lat="30.264242" lon="-97.729058" changeset="false"><tag k="addr:street" v="East 6th Street"/><tag k="addr:housenumber" v="1302"/><tag k="coa:place_id" v="241523"/></node><node id="-79" lat="30.262017" lon="-97.734756" changeset="false"><tag k="addr:street" v="East 2nd Street"/><tag k="addr:housenumber" v="902"/><tag k="coa:place_id" v="363452"/></node><node id="-80" lat="30.26292" lon="-97.726959" changeset="false"><tag k="addr:street" v="East 6th Street"/><tag k="addr:housenumber" v="1509"/><tag k="coa:place_id" v="879680"/></node><node id="-81" lat="30.262515" lon="-97.725487" changeset="false"><tag k="addr:street" v="East 6th Street"/><tag k="addr:housenumber" v="1621"/><tag k="coa:place_id" v="402206"/></node><node id="-82" lat="30.262637" lon="-97.731004" changeset="false"><tag k="addr:street" v="East 4th Street"/><tag k="addr:housenumber" v="1204"/><tag k="coa:place_id" v="373515"/></node><node id="-83" lat="30.263511" lon="-97.726917" changeset="false"><tag k="addr:street" v="East 6th Street"/><tag k="addr:housenumber" v="1504"/><tag k="coa:place_id" v="402494"/></node><node id="-84" lat="30.261435" lon="-97.730039" changeset="false"><tag k="addr:street" v="East 3rd Street"/><tag k="addr:housenumber" v="1306"/><tag k="coa:place_id" v="400772"/></node><node id="-85" lat="30.258938" lon="-97.724525" changeset="false"><tag k="addr:street" v="East 3rd Street"/><tag k="addr:housenumber" v="1805"/><tag k="coa:place_id" v="362438"/></node><node id="-86" lat="30.258248" lon="-97.724265" changeset="false"><tag k="addr:street" v="Chicon Street"/><tag k="addr:housenumber" v="200"/><tag k="coa:place_id" v="1118848"/></node><node id="-87" lat="30.261833" lon="-97.734224" changeset="false"><tag k="addr:street" v="East 2nd Street"/><tag k="addr:housenumber" v="912"/><tag k="coa:place_id" v="363434"/></node><node id="-88" lat="30.258577" lon="-97.72624" changeset="false"><tag k="addr:street" v="East 2nd Street"/><tag k="addr:housenumber" v="1701"/><tag k="coa:place_id" v="116728"/></node><node id="-89" lat="30.263951" lon="-97.728188" changeset="false"><tag k="addr:street" v="East 6th Street"/><tag k="addr:housenumber" v="1400"/><tag k="coa:place_id" v="138987"/></node><node id="-90" lat="30.260428" lon="-97.733197" changeset="false"><tag k="addr:street" v="East Cesar Chavez Street"/><tag k="addr:housenumber" v="1102"/><tag k="coa:place_id" v="362888"/></node><node id="-91" lat="30.263315" lon="-97.730866" changeset="false"><tag k="addr:street" v="Waller Street"/><tag k="addr:housenumber" v="415"/><tag k="coa:place_id" v="401078"/></node><node id="-92" lat="30.263179" lon="-97.733772" changeset="false"><tag k="addr:street" v="East 4th Street"/><tag k="addr:housenumber" v="915"/><tag k="coa:place_id" v="491422"/></node><node id="-93" lat="30.263502" lon="-97.733399" changeset="false"><tag k="addr:street" v="East 4th Street"/><tag k="addr:housenumber" v="920"/><tag k="coa:place_id" v="879632"/></node><node id="-94" lat="30.261873" lon="-97.731038" changeset="false"><tag k="addr:street" v="East 3rd Street"/><tag k="addr:housenumber" v="1208"/><tag k="coa:place_id" v="400814"/></node><node id="-95" lat="30.259038" lon="-97.727801" changeset="false"><tag k="addr:street" v="East 2nd Street"/><tag k="addr:housenumber" v="1607"/><tag k="coa:place_id" v="162549"/></node><node id="-96" lat="30.259832" lon="-97.724578" changeset="false"><tag k="addr:street" v="Chicon Street"/><tag k="addr:housenumber" v="300"/><tag k="coa:place_id" v="1118810"/></node><node id="-97" lat="30.264276" lon="-97.727766" changeset="false"><tag k="addr:street" v="East 7th Street"/><tag k="addr:housenumber" v="1405"/><tag k="coa:place_id" v="402584"/></node><node id="-98" lat="30.262514" lon="-97.722815" changeset="false"><tag k="addr:street" v="East 7th Street"/><tag k="addr:housenumber" v="1807"/><tag k="coa:place_id" v="402794"/></node><node id="-99" lat="30.263065" lon="-97.72406" changeset="false"><tag k="addr:street" v="East 7th Street"/><tag k="addr:housenumber" v="1703"/><tag k="coa:place_id" v="402740"/></node><node id="-100" lat="30.260884" lon="-97.728537" changeset="false"><tag k="addr:street" v="East 3rd Street"/><tag k="addr:housenumber" v="1500"/><tag k="coa:place_id" v="93717"/></node><node id="-101" lat="30.262106" lon="-97.734127" changeset="false"><tag k="addr:street" v="San Marcos Street"/><tag k="addr:housenumber" v="206"/><tag k="coa:place_id" v="363428"/></node><node id="-102" lat="30.260029" lon="-97.72897" changeset="false"><tag k="addr:street" v="East 2nd Street"/><tag k="addr:housenumber" v="1500"/><tag k="coa:place_id" v="362276"/></node><node id="-103" lat="30.260416" lon="-97.728469" changeset="false"><tag k="addr:street" v="East 3rd Street"/><tag k="addr:housenumber" v="1507"/><tag k="coa:place_id" v="362378"/></node><node id="-104" lat="30.262352" lon="-97.723513" changeset="false"><tag k="addr:street" v="East 6th Street"/><tag k="addr:housenumber" v="1708"/><tag k="coa:place_id" v="402350"/></node><node id="-105" lat="30.26159" lon="-97.730317" changeset="false"><tag k="addr:street" v="East 3rd Street"/><tag k="addr:housenumber" v="1302"/><tag k="coa:place_id" v="400796"/></node><node id="-106" lat="30.260128" lon="-97.73234" changeset="false"><tag k="addr:street" v="East Cesar Chavez Street"/><tag k="addr:housenumber" v="1200"/><tag k="coa:place_id" v="362822"/></node><node id="-107" lat="30.260149" lon="-97.729306" changeset="false"><tag k="addr:street" v="East 2nd Street"/><tag k="addr:housenumber" v="1408"/><tag k="coa:place_id" v="362282"/></node><node id="-108" lat="30.261551" lon="-97.727419" changeset="false"><tag k="addr:street" v="East 4th Street"/><tag k="addr:housenumber" v="1516"/><tag k="coa:place_id" v="1118628"/></node><node id="-109" lat="30.264595" lon="-97.730077" changeset="false"><tag k="addr:street" v="East 6th Street"/><tag k="addr:housenumber" v="1202"/><tag k="coa:place_id" v="401552"/></node><node id="-110" lat="30.262667" lon="-97.732244" changeset="false"><tag k="addr:street" v="East 4th Street"/><tag k="addr:housenumber" v="1103"/><tag k="coa:place_id" v="400958"/></node><node id="-111" lat="30.265914" lon="-97.732638" changeset="false"><tag k="addr:street" v="East 7th Street"/><tag k="addr:housenumber" v="915"/><tag k="coa:place_id" v="3363585"/></node><node id="-112" lat="30.263329" lon="-97.734161" changeset="false"><tag k="addr:street" v="East 4th Street"/><tag k="addr:housenumber" v="905"/><tag k="coa:place_id" v="5069889"/></node><node id="-113" lat="30.263335" lon="-97.725162" changeset="false"><tag k="addr:street" v="East 7th Street"/><tag k="addr:housenumber" v="1613"/><tag k="coa:place_id" v="402716"/></node><node id="-114" lat="30.261431" lon="-97.735182" changeset="false"><tag k="addr:street" v="Brushy Street"/><tag k="addr:housenumber" v="107"/><tag k="coa:place_id" v="363032"/></node><node id="-115" lat="30.261301" lon="-97.73317" changeset="false"><tag k="addr:street" v="East 2nd Street"/><tag k="addr:housenumber" v="1016"/><tag k="coa:place_id" v="363398"/></node><node id="-116" lat="30.265138" lon="-97.733905" changeset="false"><tag k="addr:street" v="Brushy Street"/><tag k="addr:housenumber" v="510"/><tag k="coa:place_id" v="1040006"/></node><node id="-117" lat="30.266339" lon="-97.733781" changeset="false"><tag k="addr:street" v="North Interstate Highway 35 Service Road"/><tag k="addr:housenumber" v="619"/><tag k="coa:place_id" v="622180"/></node><node id="-118" lat="30.263238" lon="-97.726304" changeset="false"><tag k="addr:street" v="Comal Street"/><tag k="addr:housenumber" v="603"/><tag k="coa:place_id" v="402452"/></node><node id="-119" lat="30.264067" lon="-97.733165" changeset="false"><tag k="addr:street" v="East 5th Street"/><tag k="addr:housenumber" v="911"/><tag k="coa:place_id" v="189394"/></node><node id="-120" lat="30.264642" lon="-97.730218" changeset="false"><tag k="addr:street" v="East 6th Street"/><tag k="addr:housenumber" v="1200"/><tag k="coa:place_id" v="401564"/></node><node id="-121" lat="30.261496" lon="-97.72889" changeset="false"><tag k="addr:street" v="East 4th Street"/><tag k="addr:housenumber" v="1407"/><tag k="coa:place_id" v="1118647"/></node><node id="-122" lat="30.26197" lon="-97.734623" changeset="false"><tag k="addr:street" v="East 2nd Street"/><tag k="addr:housenumber" v="904"/><tag k="coa:place_id" v="363446"/></node><node id="-123" lat="30.259762" lon="-97.725685" changeset="false"><tag k="addr:street" v="East 3rd Street"/><tag k="addr:housenumber" v="1700"/><tag k="coa:place_id" v="743446"/></node><node id="-124" lat="30.260288" lon="-97.732801" changeset="false"><tag k="addr:street" v="East Cesar Chavez Street"/><tag k="addr:housenumber" v="1110"/><tag k="coa:place_id" v="971553"/></node><node id="-125" lat="30.259282" lon="-97.730434" changeset="false"><tag k="addr:street" v="East Cesar Chavez Street"/><tag k="addr:housenumber" v="1400"/><tag k="coa:place_id" v="362120"/></node><node id="-126" lat="30.259333" lon="-97.724473" changeset="false"><tag k="addr:street" v="East 3rd Street"/><tag k="addr:housenumber" v="1806"/><tag k="coa:place_id" v="743632"/></node><node id="-127" lat="30.259785" lon="-97.723675" changeset="false"><tag k="addr:street" v="East 4th Street"/><tag k="addr:housenumber" v="1811"/><tag k="coa:place_id" v="743878"/></node><node id="-128" lat="30.260323" lon="-97.728182" changeset="false"><tag k="addr:street" v="East 3rd Street"/><tag k="addr:housenumber" v="1511"/><tag k="coa:place_id" v="362390"/></node><node id="-129" lat="30.265069" lon="-97.731603" changeset="false"><tag k="addr:street" v="East 6th Street"/><tag k="addr:housenumber" v="1014"/><tag k="coa:place_id" v="401630"/></node><node id="-130" lat="30.259795" lon="-97.723706" changeset="false"><tag k="addr:street" v="East 4th Street"/><tag k="addr:housenumber" v="1809"/><tag k="coa:place_id" v="744028"/></node><node id="-131" lat="30.259502" lon="-97.729152" changeset="false"><tag k="addr:street" v="East 2nd Street"/><tag k="addr:housenumber" v="1503"/><tag k="coa:place_id" v="362174"/></node><node id="-132" lat="30.259365" lon="-97.728755" changeset="false"><tag k="addr:street" v="East 2nd Street"/><tag k="addr:housenumber" v="1509"/><tag k="coa:place_id" v="362198"/></node><node id="-133" lat="30.261071" lon="-97.729088" changeset="false"><tag k="addr:street" v="East 3rd Street"/><tag k="addr:housenumber" v="1410"/><tag k="coa:place_id" v="241460"/></node><node id="-134" lat="30.261513" lon="-97.734992" changeset="false"><tag k="addr:street" v="East 2nd Street"/><tag k="addr:housenumber" v="903"/><tag k="coa:place_id" v="241428"/></node><node id="-135" lat="30.263219" lon="-97.724874" changeset="false"><tag k="addr:street" v="East 7th Street"/><tag k="addr:housenumber" v="1617"/><tag k="coa:place_id" v="402728"/></node><node id="-136" lat="30.263743" lon="-97.729298" changeset="false"><tag k="addr:street" v="East 6th Street"/><tag k="addr:housenumber" v="1305"/><tag k="coa:place_id" v="274900"/></node><node id="-137" lat="30.263893" lon="-97.726383" changeset="false"><tag k="addr:street" v="Comal Street"/><tag k="addr:housenumber" v="612"/><tag k="coa:place_id" v="402464"/></node><node id="-138" lat="30.265607" lon="-97.733136" changeset="false"><tag k="addr:street" v="Brushy Street"/><tag k="addr:housenumber" v="601"/><tag k="coa:place_id" v="3141032"/></node><node id="-139" lat="30.263095" lon="-97.734873" changeset="false"><tag k="addr:street" v="Brushy Street"/><tag k="addr:housenumber" v="300"/><tag k="coa:place_id" v="257720"/></node><node id="-140" lat="30.261835" lon="-97.729843" changeset="false"><tag k="addr:street" v="East 4th Street"/><tag k="addr:housenumber" v="1307"/><tag k="coa:place_id" v="401000"/></node><node id="-141" lat="30.258241" lon="-97.725419" changeset="false"><tag k="addr:street" v="East 2nd Street"/><tag k="addr:housenumber" v="1719"/><tag k="coa:place_id" v="632889"/></node><node id="-142" lat="30.265634" lon="-97.732128" changeset="false"><tag k="addr:street" v="San Marcos Street"/><tag k="addr:housenumber" v="611"/><tag k="coa:place_id" v="401678"/></node><node id="-143" lat="30.261377" lon="-97.732891" changeset="false"><tag k="addr:street" v="East 2nd Street"/><tag k="addr:housenumber" v="1100"/><tag k="coa:place_id" v="241433"/></node><node id="-144" lat="30.261285" lon="-97.733918" changeset="false"><tag k="addr:street" v="East 2nd Street"/><tag k="addr:housenumber" v="1005"/><tag k="coa:place_id" v="241429"/></node><node id="-145" lat="30.260991" lon="-97.731762" changeset="false"><tag k="addr:street" v="East 2nd Street"/><tag k="addr:housenumber" v="1202"/><tag k="coa:place_id" v="363332"/></node><node id="-146" lat="30.259736" lon="-97.725613" changeset="false"><tag k="addr:street" v="East 3rd Street"/><tag k="addr:housenumber" v="1702"/><tag k="coa:place_id" v="743452"/></node><node id="-147" lat="30.260309" lon="-97.725224" changeset="false"><tag k="addr:street" v="East 4th Street"/><tag k="addr:housenumber" v="1709"/><tag k="coa:place_id" v="743596"/></node><node id="-148" lat="30.261931" lon="-97.730123" changeset="false"><tag k="addr:street" v="East 4th Street"/><tag k="addr:housenumber" v="1303"/><tag k="coa:place_id" v="400988"/></node><node id="-149" lat="30.260245" lon="-97.727108" changeset="false"><tag k="addr:street" v="East 3rd Street"/><tag k="addr:housenumber" v="1616"/><tag k="coa:place_id" v="115307"/></node><node id="-150" lat="30.264291" lon="-97.729202" changeset="false"><tag k="addr:street" v="East 6th Street"/><tag k="addr:housenumber" v="1300"/><tag k="coa:place_id" v="401534"/></node><node id="-151" lat="30.261944" lon="-97.724149" changeset="false"><tag k="addr:street" v="East 6th Street"/><tag k="addr:housenumber" v="1707"/><tag k="coa:place_id" v="968205"/></node><node id="-152" lat="30.263008" lon="-97.725794" changeset="false"><tag k="addr:street" v="East 6th Street"/><tag k="addr:housenumber" v="1612"/><tag k="coa:place_id" v="402404"/></node><node id="-153" lat="30.262405" lon="-97.734527" changeset="false"><tag k="addr:street" v="East 3rd Street"/><tag k="addr:housenumber" v="903"/><tag k="coa:place_id" v="363482"/></node><node id="-154" lat="30.264183" lon="-97.727504" changeset="false"><tag k="addr:street" v="East 7th Street"/><tag k="addr:housenumber" v="1409"/><tag k="coa:place_id" v="402608"/></node><node id="-155" lat="30.262306" lon="-97.734235" changeset="false"><tag k="addr:street" v="East 3rd Street"/><tag k="addr:housenumber" v="907"/><tag k="coa:place_id" v="363494"/></node><node id="-156" lat="30.261834" lon="-97.723754" changeset="false"><tag k="addr:street" v="East 6th Street"/><tag k="addr:housenumber" v="1715"/><tag k="coa:place_id" v="879704"/></node><node id="-157" lat="30.261437" lon="-97.727071" changeset="false"><tag k="addr:street" v="East 4th Street"/><tag k="addr:housenumber" v="1600"/><tag k="coa:place_id" v="1118648"/></node><node id="-158" lat="30.257914" lon="-97.726436" changeset="false"><tag k="addr:street" v="East Cesar Chavez Street"/><tag k="addr:housenumber" v="1700"/><tag k="coa:place_id" v="783699"/></node><node id="-159" lat="30.260597" lon="-97.723192" changeset="false"><tag k="addr:street" v="Chicon Street"/><tag k="addr:housenumber" v="410 1/2"/><tag k="coa:place_id" v="3214237"/></node><node id="-160" lat="30.262105" lon="-97.72441" changeset="false"><tag k="addr:street" v="East 6th Street"/><tag k="addr:housenumber" v="1703"/><tag k="coa:place_id" v="241525"/></node><node id="-161" lat="30.260478" lon="-97.724924" changeset="false"><tag k="addr:street" v="East 4th Street"/><tag k="addr:housenumber" v="1704 1/2"/><tag k="coa:place_id" v="5111004"/></node><node id="-162" lat="30.261619" lon="-97.729244" changeset="false"><tag k="addr:street" v="East 4th Street"/><tag k="addr:housenumber" v="1401"/><tag k="coa:place_id" v="362546"/></node><node id="-163" lat="30.261853" lon="-97.72353" changeset="false"><tag k="addr:street" v="East 6th Street"/><tag k="addr:housenumber" v="1801"/><tag k="coa:place_id" v="143568"/></node><node id="-164" lat="30.258326" lon="-97.726241" changeset="false"><tag k="addr:street" v="Chalmers Avenue"/><tag k="addr:housenumber" v="111"/><tag k="coa:place_id" v="274161"/></node><node id="-165" lat="30.261379" lon="-97.734166" changeset="false"><tag k="addr:street" v="East 2nd Street"/><tag k="addr:housenumber" v="1001"/><tag k="coa:place_id" v="363110"/></node><node id="-166" lat="30.262587" lon="-97.725697" changeset="false"><tag k="addr:street" v="East 6th Street"/><tag k="addr:housenumber" v="1617"/><tag k="coa:place_id" v="426760"/></node><node id="-167" lat="30.261109" lon="-97.734204" changeset="false"><tag k="addr:street" v="San Marcos Street"/><tag k="addr:housenumber" v="105"/><tag k="coa:place_id" v="362966"/></node><node id="-168" lat="30.26454" lon="-97.728593" changeset="false"><tag k="addr:street" v="East 7th Street"/><tag k="addr:housenumber" v="1307"/><tag k="coa:place_id" v="401780"/></node><node id="-169" lat="30.26396" lon="-97.733625" changeset="false"><tag k="addr:street" v="East 5th Street"/><tag k="addr:housenumber" v="901"/><tag k="coa:place_id" v="879638"/></node><node id="-170" lat="30.262671" lon="-97.732298" changeset="false"><tag k="addr:street" v="East 4th Street"/><tag k="addr:housenumber" v="1101"/><tag k="coa:place_id" v="656481"/></node><node id="-171" lat="30.262841" lon="-97.726414" changeset="false"><tag k="addr:street" v="East 6th Street"/><tag k="addr:housenumber" v="1601"/><tag k="coa:place_id" v="879692"/></node><node id="-172" lat="30.265405" lon="-97.730956" changeset="false"><tag k="addr:street" v="East 7th Street"/><tag k="addr:housenumber" v="1109"/><tag k="coa:place_id" v="698908"/></node><node id="-173" lat="30.266055" lon="-97.733157" changeset="false"><tag k="addr:street" v="East 7th Street"/><tag k="addr:housenumber" v="901"/><tag k="coa:place_id" v="1163280"/></node><node id="-174" lat="30.259743" lon="-97.723554" changeset="false"><tag k="addr:street" v="East 4th Street"/><tag k="addr:housenumber" v="1819"/><tag k="coa:place_id" v="743902"/></node><node id="-175" lat="30.260525" lon="-97.726591" changeset="false"><tag k="addr:street" v="East 3rd Street"/><tag k="addr:housenumber" v="1600"/><tag k="coa:place_id" v="744454"/></node><node id="-176" lat="30.25765" lon="-97.7253" changeset="false"><tag k="addr:street" v="East Cesar Chavez Street"/><tag k="addr:housenumber" v="1802"/><tag k="coa:place_id" v="1163159"/></node><node id="-177" lat="30.260121" lon="-97.732699" changeset="false"><tag k="addr:street" v="East Cesar Chavez Street"/><tag k="addr:housenumber" v="1114"/><tag k="coa:place_id" v="362852"/></node><node id="-178" lat="30.260799" lon="-97.726702" changeset="false"><tag k="addr:street" v="East 4th Street"/><tag k="addr:housenumber" v="1621"/><tag k="coa:place_id" v="744394"/></node><node id="-179" lat="30.261204" lon="-97.732401" changeset="false"><tag k="addr:street" v="East 2nd Street"/><tag k="addr:housenumber" v="1106"/><tag k="coa:place_id" v="363350"/></node><node id="-180" lat="30.261242" lon="-97.732564" changeset="false"><tag k="addr:street" v="East 2nd Street"/><tag k="addr:housenumber" v="1104"/><tag k="coa:place_id" v="363356"/></node><node id="-181" lat="30.259733" lon="-97.723523" changeset="false"><tag k="addr:street" v="East 4th Street"/><tag k="addr:housenumber" v="1821"/><tag k="coa:place_id" v="743908"/></node><node id="-182" lat="30.260319" lon="-97.725255" changeset="false"><tag k="addr:street" v="East 4th Street"/><tag k="addr:housenumber" v="1707"/><tag k="coa:place_id" v="743590"/></node><node id="-183" lat="30.260828" lon="-97.734335" changeset="false"><tag k="addr:street" v="East Cesar Chavez Street"/><tag k="addr:housenumber" v="1000"/><tag k="coa:place_id" v="362960"/></node><node id="-184" lat="30.260244" lon="-97.732662" changeset="false"><tag k="addr:street" v="East Cesar Chavez Street"/><tag k="addr:housenumber" v="1112"/><tag k="coa:place_id" v="241357"/></node><node id="-185" lat="30.259458" lon="-97.729019" changeset="false"><tag k="addr:street" v="East 2nd Street"/><tag k="addr:housenumber" v="1505"/><tag k="coa:place_id" v="241436"/></node><node id="-186" lat="30.259412" lon="-97.728887" changeset="false"><tag k="addr:street" v="East 2nd Street"/><tag k="addr:housenumber" v="1507"/><tag k="coa:place_id" v="362192"/></node><node id="-187" lat="30.259363" lon="-97.725577" changeset="false"><tag k="addr:street" v="East 3rd Street"/><tag k="addr:housenumber" v="1701"/><tag k="coa:place_id" v="362396"/></node><node id="-188" lat="30.264402" lon="-97.73007" changeset="false"><tag k="addr:street" v="East 6th Street"/><tag k="addr:housenumber" v="1206"/><tag k="coa:place_id" v="401540"/></node><node id="-189" lat="30.262609" lon="-97.732109" changeset="false"><tag k="addr:street" v="East 4th Street"/><tag k="addr:housenumber" v="1107"/><tag k="coa:place_id" v="400976"/></node><node id="-190" lat="30.263605" lon="-97.727616" changeset="false"><tag k="addr:street" v="East 6th Street"/><tag k="addr:housenumber" v="1412"/><tag k="coa:place_id" v="402542"/></node><node id="-191" lat="30.261713" lon="-97.728369" changeset="false"><tag k="addr:street" v="East 4th Street"/><tag k="addr:housenumber" v="1414"/><tag k="coa:place_id" v="224007"/></node><node id="-192" lat="30.261288" lon="-97.726641" changeset="false"><tag k="addr:street" v="East 4th Street"/><tag k="addr:housenumber" v="1606"/><tag k="coa:place_id" v="362618"/></node><node id="-193" lat="30.261633" lon="-97.723205" changeset="false"><tag k="addr:street" v="East 6th Street"/><tag k="addr:housenumber" v="1809"/><tag k="coa:place_id" v="402260"/></node><node id="-194" lat="30.263155" lon="-97.725919" changeset="false"><tag k="addr:street" v="East 6th Street"/><tag k="addr:housenumber" v="1606"/><tag k="coa:place_id" v="402428"/></node><node id="-195" lat="30.262583" lon="-97.724173" changeset="false"><tag k="addr:street" v="East 6th Street"/><tag k="addr:housenumber" v="1700"/><tag k="coa:place_id" v="402368"/></node><node id="-196" lat="30.263061" lon="-97.726128" changeset="false"><tag k="addr:street" v="East 6th Street"/><tag k="addr:housenumber" v="1608"/><tag k="coa:place_id" v="402422"/></node><node id="-197" lat="30.258108" lon="-97.726316" changeset="false"><tag k="addr:street" v="Chalmers Avenue"/><tag k="addr:housenumber" v="103"/><tag k="coa:place_id" v="361970"/></node><node id="-198" lat="30.258899" lon="-97.728738" changeset="false"><tag k="addr:street" v="East Cesar Chavez Street"/><tag k="addr:housenumber" v="1510"/><tag k="coa:place_id" v="879416"/></node><node id="-199" lat="30.262124" lon="-97.722853" changeset="false"><tag k="addr:street" v="East 6th Street"/><tag k="addr:housenumber" v="1812"/><tag k="coa:place_id" v="402296"/></node><node id="-200" lat="30.263964" lon="-97.731245" changeset="false"><tag k="addr:street" v="East 5th Street"/><tag k="addr:housenumber" v="1108"/><tag k="coa:place_id" v="401174"/></node><node id="-201" lat="30.262242" lon="-97.72948" changeset="false"><tag k="addr:street" v="East 4th Street"/><tag k="addr:housenumber" v="1308"/><tag k="coa:place_id" v="401024"/></node><node id="-202" lat="30.261159" lon="-97.735302" changeset="false"><tag k="addr:street" v="East Cesar Chavez Street"/><tag k="addr:housenumber" v="900"/><tag k="coa:place_id" v="363002"/></node><node id="-203" lat="30.26589" lon="-97.733021" changeset="false"><tag k="addr:street" v="East 7th Street"/><tag k="addr:housenumber" v="903"/><tag k="coa:place_id" v="3361487"/></node><node id="-204" lat="30.265916" lon="-97.73239" changeset="false"><tag k="addr:street" v="East 7th Street"/><tag k="addr:housenumber" v="919"/><tag k="coa:place_id" v="3361491"/></node><node id="-205" lat="30.262195" lon="-97.73055" changeset="false"><tag k="addr:street" v="East 4th Street"/><tag k="addr:housenumber" v="1217"/><tag k="coa:place_id" v="3374941"/></node><node id="-206" lat="30.261826" lon="-97.731181" changeset="false"><tag k="addr:street" v="East 3rd Street"/><tag k="addr:housenumber" v="1206"/><tag k="coa:place_id" v="400826"/></node><node id="-207" lat="30.261376" lon="-97.728638" changeset="false"><tag k="addr:street" v="East 4th Street"/><tag k="addr:housenumber" v="1411"/><tag k="coa:place_id" v="3502116"/></node><node id="-208" lat="30.262271" lon="-97.729834" changeset="false"><tag k="addr:street" v="East 4th Street"/><tag k="addr:housenumber" v="1304"/><tag k="coa:place_id" v="3285946"/></node><node id="-209" lat="30.263409" lon="-97.73427" changeset="false"><tag k="addr:street" v="East 4th Street"/><tag k="addr:housenumber" v="901"/><tag k="coa:place_id" v="5069888"/></node><node id="-210" lat="30.26326" lon="-97.733943" changeset="false"><tag k="addr:street" v="East 4th Street"/><tag k="addr:housenumber" v="911"/><tag k="coa:place_id" v="5069890"/></node><node id="-211" lat="30.262926" lon="-97.731796" changeset="false"><tag k="addr:street" v="East 4th Street"/><tag k="addr:housenumber" v="1110"/><tag k="coa:place_id" v="3504070"/></node><node id="-212" lat="30.259636" lon="-97.730892" changeset="false"><tag k="addr:street" v="East Cesar Chavez Street"/><tag k="addr:housenumber" v="1306"/><tag k="coa:place_id" v="362780"/></node><node id="-213" lat="30.262854" lon="-97.729828" changeset="false"><tag k="addr:street" v="East 5th Street"/><tag k="addr:housenumber" v="1301"/><tag k="coa:place_id" v="3393221"/></node><node id="-214" lat="30.263275" lon="-97.730827" changeset="false"><tag k="addr:street" v="East 5th Street"/><tag k="addr:housenumber" v="1201"/><tag k="coa:place_id" v="3393220"/></node><node id="-215" lat="30.26339" lon="-97.733159" changeset="false"><tag k="addr:street" v="East 4th Street"/><tag k="addr:housenumber" v="1000"/><tag k="coa:place_id" v="3393222"/></node><node id="-216" lat="30.260894" lon="-97.731483" changeset="false"><tag k="addr:street" v="East 2nd Street"/><tag k="addr:housenumber" v="1206"/><tag k="coa:place_id" v="363320"/></node><node id="-217" lat="30.262849" lon="-97.728078" changeset="false"><tag k="addr:street" v="East 5th Street"/><tag k="addr:housenumber" v="1412"/><tag k="coa:place_id" v="3292484"/></node><node id="-218" lat="30.261124" lon="-97.72292" changeset="false"><tag k="addr:street" v="Chicon Street"/><tag k="addr:housenumber" v="500 1/2"/><tag k="coa:place_id" v="3215885"/></node><node id="-219" lat="30.264126" lon="-97.727082" changeset="false"><tag k="addr:street" v="East 7th Street"/><tag k="addr:housenumber" v="1501"/><tag k="coa:place_id" v="402626"/></node><node id="-220" lat="30.261804" lon="-97.722548" changeset="false"><tag k="addr:street" v="East 6th Street"/><tag k="addr:housenumber" v="1816 1/2"/><tag k="coa:place_id" v="402284"/></node><node id="-221" lat="30.265322" lon="-97.734056" changeset="false"><tag k="addr:street" v="East 6th Street"/><tag k="addr:housenumber" v="805"/><tag k="coa:place_id" v="401270"/></node><node id="-222" lat="30.264313" lon="-97.72838" changeset="false"><tag k="addr:street" v="Navasota Street"/><tag k="addr:housenumber" v="610"/><tag k="coa:place_id" v="924098"/></node><node id="-223" lat="30.264682" lon="-97.733987" changeset="false"><tag k="addr:street" v="Brushy Street"/><tag k="addr:housenumber" v="500"/><tag k="coa:place_id" v="244017"/></node><node id="-224" lat="30.260787" lon="-97.728253" changeset="false"><tag k="addr:street" v="East 3rd Street"/><tag k="addr:housenumber" v="1504"/><tag k="coa:place_id" v="1118770"/></node><node id="-225" lat="30.261241" lon="-97.726499" changeset="false"><tag k="addr:street" v="East 4th Street"/><tag k="addr:housenumber" v="1608"/><tag k="coa:place_id" v="362612"/></node><node id="-226" lat="30.26056" lon="-97.733816" changeset="false"><tag k="addr:street" v="East Cesar Chavez Street"/><tag k="addr:housenumber" v="1008"/><tag k="coa:place_id" v="3127270"/></node><node id="-227" lat="30.2601" lon="-97.728242" changeset="false"><tag k="addr:street" v="Comal Street"/><tag k="addr:housenumber" v="212"/><tag k="coa:place_id" v="362246"/></node><node id="-228" lat="30.262901" lon="-97.727351" changeset="false"><tag k="addr:street" v="East 6th Street"/><tag k="addr:housenumber" v="1501"/><tag k="coa:place_id" v="127191"/></node><node id="-229" lat="30.262139" lon="-97.732119" changeset="false"><tag k="addr:street" v="East 3rd Street"/><tag k="addr:housenumber" v="1116"/><tag k="coa:place_id" v="400850"/></node><node id="-230" lat="30.260131" lon="-97.726774" changeset="false"><tag k="addr:street" v="East 3rd Street"/><tag k="addr:housenumber" v="1626"/><tag k="coa:place_id" v="744160"/></node><node id="-231" lat="30.259533" lon="-97.725031" changeset="false"><tag k="addr:street" v="East 3rd Street"/><tag k="addr:housenumber" v="1718"/><tag k="coa:place_id" v="743974"/></node><node id="-232" lat="30.261744" lon="-97.730934" changeset="false"><tag k="addr:street" v="East 3rd Street"/><tag k="addr:housenumber" v="1210"/><tag k="coa:place_id" v="422013"/></node><node id="-233" lat="30.261037" lon="-97.7319" changeset="false"><tag k="addr:street" v="East 2nd Street"/><tag k="addr:housenumber" v="1200"/><tag k="coa:place_id" v="363338"/></node><node id="-234" lat="30.263338" lon="-97.726576" changeset="false"><tag k="addr:street" v="Comal Street"/><tag k="addr:housenumber" v="602"/><tag k="coa:place_id" v="923733"/></node><node id="-235" lat="30.26205" lon="-97.725016" changeset="false"><tag k="addr:street" v="East 6th Street"/><tag k="addr:housenumber" v="1645"/><tag k="coa:place_id" v="402212"/></node><node id="-236" lat="30.261793" lon="-97.727304" changeset="false"><tag k="addr:street" v="Comal Street"/><tag k="addr:housenumber" v="408"/><tag k="coa:place_id" v="362648"/></node><node id="-237" lat="30.259376" lon="-97.72543" changeset="false"><tag k="addr:street" v="East 3rd Street"/><tag k="addr:housenumber" v="1707"/><tag k="coa:place_id" v="1118828"/></node><node id="-238" lat="30.26394" lon="-97.726796" changeset="false"><tag k="addr:street" v="East 7th Street"/><tag k="addr:housenumber" v="1505"/><tag k="coa:place_id" v="402632"/></node><node id="-239" lat="30.262652" lon="-97.732174" changeset="false"><tag k="addr:street" v="East 4th Street"/><tag k="addr:housenumber" v="1105"/><tag k="coa:place_id" v="400970"/></node><node id="-240" lat="30.257498" lon="-97.724854" changeset="false"><tag k="addr:street" v="East Cesar Chavez Street"/><tag k="addr:housenumber" v="1808"/><tag k="coa:place_id" v="361904"/></node><node id="-241" lat="30.258274" lon="-97.72745" changeset="false"><tag k="addr:street" v="East Cesar Chavez Street"/><tag k="addr:housenumber" v="1630"/><tag k="coa:place_id" v="362030"/></node><node id="-242" lat="30.262516" lon="-97.723985" changeset="false"><tag k="addr:street" v="East 6th Street"/><tag k="addr:housenumber" v="1702"/><tag k="coa:place_id" v="402362"/></node><node id="-243" lat="30.263051" lon="-97.725969" changeset="false"><tag k="addr:street" v="East 6th Street"/><tag k="addr:housenumber" v="1610"/><tag k="coa:place_id" v="402410"/></node><node id="-244" lat="30.264546" lon="-97.729937" changeset="false"><tag k="addr:street" v="East 6th Street"/><tag k="addr:housenumber" v="1204"/><tag k="coa:place_id" v="401546"/></node><node id="-245" lat="30.264477" lon="-97.731152" changeset="false"><tag k="addr:street" v="East 6th Street"/><tag k="addr:housenumber" v="1107"/><tag k="coa:place_id" v="401426"/></node><node id="-246" lat="30.259348" lon="-97.728455" changeset="false"><tag k="addr:street" v="East 2nd Street"/><tag k="addr:housenumber" v="1513"/><tag k="coa:place_id" v="362210"/></node><node id="-247" lat="30.259126" lon="-97.728129" changeset="false"><tag k="addr:street" v="East 2nd Street"/><tag k="addr:housenumber" v="1601"/><tag k="coa:place_id" v="1118829"/></node><node id="-248" lat="30.258214" lon="-97.725233" changeset="false"><tag k="addr:street" v="East 2nd Street"/><tag k="addr:housenumber" v="1801"/><tag k="coa:place_id" v="173569"/></node><node id="-249" lat="30.260539" lon="-97.72596" changeset="false"><tag k="addr:street" v="East 4th Street"/><tag k="addr:housenumber" v="1639"/><tag k="coa:place_id" v="744184"/></node><node id="-250" lat="30.26432" lon="-97.7279" changeset="false"><tag k="addr:street" v="East 7th Street"/><tag k="addr:housenumber" v="1403"/><tag k="coa:place_id" v="402578"/></node><node id="-251" lat="30.262353" lon="-97.734382" changeset="false"><tag k="addr:street" v="East 3rd Street"/><tag k="addr:housenumber" v="905"/><tag k="coa:place_id" v="363488"/></node><node id="-252" lat="30.262189" lon="-97.732268" changeset="false"><tag k="addr:street" v="East 3rd Street"/><tag k="addr:housenumber" v="1112"/><tag k="coa:place_id" v="400856"/></node><node id="-253" lat="30.262138" lon="-97.73485" changeset="false"><tag k="addr:street" v="Brushy Street"/><tag k="addr:housenumber" v="207"/><tag k="coa:place_id" v="363458"/></node><node id="-254" lat="30.25836" lon="-97.724212" changeset="false"><tag k="addr:street" v="Chicon Street"/><tag k="addr:housenumber" v="208"/><tag k="coa:place_id" v="361844"/></node><node id="-255" lat="30.258329" lon="-97.724221" changeset="false"><tag k="addr:street" v="Chicon Street"/><tag k="addr:housenumber" v="206"/><tag k="coa:place_id" v="361850"/></node><node id="-256" lat="30.261481" lon="-97.730179" changeset="false"><tag k="addr:street" v="East 3rd Street"/><tag k="addr:housenumber" v="1304"/><tag k="coa:place_id" v="400778"/></node><node id="-257" lat="30.261119" lon="-97.735279" changeset="false"><tag k="addr:street" v="Brushy Street"/><tag k="addr:housenumber" v="105"/><tag k="coa:place_id" v="363020"/></node><node id="-258" lat="30.265275" lon="-97.733911" changeset="false"><tag k="addr:street" v="East 6th Street"/><tag k="addr:housenumber" v="809"/><tag k="coa:place_id" v="401294"/></node><node id="-259" lat="30.263266" lon="-97.726242" changeset="false"><tag k="addr:street" v="East 6th Street"/><tag k="addr:housenumber" v="1600"/><tag k="coa:place_id" v="402446"/></node><node id="-260" lat="30.263148" lon="-97.724542" changeset="false"><tag k="addr:street" v="East 7th Street"/><tag k="addr:housenumber" v="1621"/><tag k="coa:place_id" v="417441"/></node><node id="-261" lat="30.260699" lon="-97.727978" changeset="false"><tag k="addr:street" v="East 3rd Street"/><tag k="addr:housenumber" v="1508"/><tag k="coa:place_id" v="1118787"/></node><node id="-262" lat="30.260393" lon="-97.728584" changeset="false"><tag k="addr:street" v="East 3rd Street"/><tag k="addr:housenumber" v="1505"/><tag k="coa:place_id" v="362372"/></node><node id="-263" lat="30.25958" lon="-97.729409" changeset="false"><tag k="addr:street" v="East 2nd Street"/><tag k="addr:housenumber" v="1411"/><tag k="coa:place_id" v="3170762"/></node><node id="-264" lat="30.262226" lon="-97.726738" changeset="false"><tag k="addr:street" v="Comal Street"/><tag k="addr:housenumber" v="501"/><tag k="coa:place_id" v="1163457"/></node><node id="-265" lat="30.262635" lon="-97.724965" changeset="false"><tag k="addr:street" v="East 6th Street"/><tag k="addr:housenumber" v="1620"/><tag k="coa:place_id" v="1032116"/></node><node id="-266" lat="30.261225" lon="-97.73106" changeset="false"><tag k="addr:street" v="East 3rd Street"/><tag k="addr:housenumber" v="1213"/><tag k="coa:place_id" v="363650"/></node><node id="-267" lat="30.260089" lon="-97.732682" changeset="false"><tag k="addr:street" v="Waller Street"/><tag k="addr:housenumber" v="102"/><tag k="coa:place_id" v="362840"/></node><node id="-268" lat="30.25896" lon="-97.729349" changeset="false"><tag k="addr:street" v="East Cesar Chavez Street"/><tag k="addr:housenumber" v="1500"/><tag k="coa:place_id" v="362096"/></node><node id="-269" lat="30.261495" lon="-97.727776" changeset="false"><tag k="addr:street" v="East 4th Street"/><tag k="addr:housenumber" v="1506"/><tag k="coa:place_id" v="362684"/></node><node id="-270" lat="30.259028" lon="-97.724795" changeset="false"><tag k="addr:street" v="East 3rd Street"/><tag k="addr:housenumber" v="1801"/><tag k="coa:place_id" v="362426"/></node><node id="-271" lat="30.263438" lon="-97.726214" changeset="false"><tag k="addr:street" v="Comal Street"/><tag k="addr:housenumber" v="607"/><tag k="coa:place_id" v="402458"/></node><node id="-272" lat="30.260944" lon="-97.731623" changeset="false"><tag k="addr:street" v="East 2nd Street"/><tag k="addr:housenumber" v="1204"/><tag k="coa:place_id" v="363326"/></node><node id="-273" lat="30.260928" lon="-97.734646" changeset="false"><tag k="addr:street" v="East Cesar Chavez Street"/><tag k="addr:housenumber" v="910"/><tag k="coa:place_id" v="362978"/></node><node id="-274" lat="30.260847" lon="-97.731343" changeset="false"><tag k="addr:street" v="East 2nd Street"/><tag k="addr:housenumber" v="1208"/><tag k="coa:place_id" v="363314"/></node><node id="-275" lat="30.261562" lon="-97.733485" changeset="false"><tag k="addr:street" v="East 2nd Street"/><tag k="addr:housenumber" v="1010"/><tag k="coa:place_id" v="363410"/></node><node id="-276" lat="30.258427" lon="-97.726938" changeset="false"><tag k="addr:street" v="East Cesar Chavez Street"/><tag k="addr:housenumber" v="1634"/><tag k="coa:place_id" v="362018"/></node><node id="-277" lat="30.26394" lon="-97.726667" changeset="false"><tag k="addr:street" v="East 7th Street"/><tag k="addr:housenumber" v="1507"/><tag k="coa:place_id" v="402638"/></node><node id="-278" lat="30.26313" lon="-97.733626" changeset="false"><tag k="addr:street" v="East 4th Street"/><tag k="addr:housenumber" v="919"/><tag k="coa:place_id" v="486237"/></node><node id="-279" lat="30.260228" lon="-97.729554" changeset="false"><tag k="addr:street" v="East 2nd Street"/><tag k="addr:housenumber" v="1406"/><tag k="coa:place_id" v="362294"/></node><node id="-280" lat="30.263921" lon="-97.729815" changeset="false"><tag k="addr:street" v="East 6th Street"/><tag k="addr:housenumber" v="1217"/><tag k="coa:place_id" v="401474"/></node><node id="-281" lat="30.260208" lon="-97.728035" changeset="false"><tag k="addr:street" v="Comal Street"/><tag k="addr:housenumber" v="218"/><tag k="coa:place_id" v="362222"/></node><node id="-282" lat="30.26499" lon="-97.729892" changeset="false"><tag k="addr:street" v="East 7th Street"/><tag k="addr:housenumber" v="1203"/><tag k="coa:place_id" v="401732"/></node><node id="-283" lat="30.264631" lon="-97.73059" changeset="false"><tag k="addr:street" v="East 6th Street"/><tag k="addr:housenumber" v="1112"/><tag k="coa:place_id" v="401582"/></node><node id="-284" lat="30.261633" lon="-97.724534" changeset="false"><tag k="addr:street" v="East 5th Street"/><tag k="addr:housenumber" v="1704"/><tag k="coa:place_id" v="158764"/></node><node id="-285" lat="30.260635" lon="-97.729166" changeset="false"><tag k="addr:street" v="East 3rd Street"/><tag k="addr:housenumber" v="1415"/><tag k="coa:place_id" v="258412"/></node><node id="-286" lat="30.263781" lon="-97.726436" changeset="false"><tag k="addr:street" v="Comal Street"/><tag k="addr:housenumber" v="610"/><tag k="coa:place_id" v="402470"/></node><node id="-287" lat="30.26181" lon="-97.723493" changeset="false"><tag k="addr:street" v="East 6th Street"/><tag k="addr:housenumber" v="1803"/><tag k="coa:place_id" v="143569"/></node><node id="-288" lat="30.259102" lon="-97.723845" changeset="false"><tag k="addr:street" v="East 3rd Street"/><tag k="addr:housenumber" v="1822"/><tag k="coa:place_id" v="743794"/></node><node id="-289" lat="30.261048" lon="-97.734977" changeset="false"><tag k="addr:street" v="East Cesar Chavez Street"/><tag k="addr:housenumber" v="904"/><tag k="coa:place_id" v="362984"/></node><node id="-290" lat="30.263647" lon="-97.72607" changeset="false"><tag k="addr:street" v="East 7th Street"/><tag k="addr:housenumber" v="1601"/><tag k="coa:place_id" v="499012"/></node><node id="-291" lat="30.263714" lon="-97.726637" changeset="false"><tag k="addr:street" v="Comal Street"/><tag k="addr:housenumber" v="608"/><tag k="coa:place_id" v="402476"/></node><node id="-292" lat="30.26164" lon="-97.722708" changeset="false"><tag k="addr:street" v="Chicon Street"/><tag k="addr:housenumber" v="504"/><tag k="coa:place_id" v="562598"/></node><node id="-293" lat="30.260032" lon="-97.732063" changeset="false"><tag k="addr:street" v="East Cesar Chavez Street"/><tag k="addr:housenumber" v="1204"/><tag k="coa:place_id" v="879410"/></node><node id="-294" lat="30.263862" lon="-97.730951" changeset="false"><tag k="addr:street" v="Waller Street"/><tag k="addr:housenumber" v="504"/><tag k="coa:place_id" v="401102"/></node><node id="-295" lat="30.26326" lon="-97.730027" changeset="false"><tag k="addr:street" v="Attayac Street"/><tag k="addr:housenumber" v="500"/><tag k="coa:place_id" v="267994"/></node><node id="-296" lat="30.265106" lon="-97.731551" changeset="false"><tag k="addr:street" v="East 6th Street"/><tag k="addr:housenumber" v="1016"/><tag k="coa:place_id" v="401618"/></node><node id="-297" lat="30.262285" lon="-97.723315" changeset="false"><tag k="addr:street" v="East 6th Street"/><tag k="addr:housenumber" v="1800"/><tag k="coa:place_id" v="241527"/></node><node id="-298" lat="30.263712" lon="-97.733348" changeset="false"><tag k="addr:street" v="San Marcos Street"/><tag k="addr:housenumber" v="408"/><tag k="coa:place_id" v="1021911"/></node><node id="-299" lat="30.260018" lon="-97.726439" changeset="false"><tag k="addr:street" v="East 3rd Street"/><tag k="addr:housenumber" v="1636"/><tag k="coa:place_id" v="115308"/></node><node id="-300" lat="30.262128" lon="-97.733717" changeset="false"><tag k="addr:street" v="East 3rd Street"/><tag k="addr:housenumber" v="1001"/><tag k="coa:place_id" v="133429"/></node><node id="-301" lat="30.260535" lon="-97.728807" changeset="false"><tag k="addr:street" v="East 3rd Street"/><tag k="addr:housenumber" v="1501"/><tag k="coa:place_id" v="362354"/></node><node id="-302" lat="30.260418" lon="-97.728679" changeset="false"><tag k="addr:street" v="East 3rd Street"/><tag k="addr:housenumber" v="1503"/><tag k="coa:place_id" v="362366"/></node><node id="-303" lat="30.259003" lon="-97.726608" changeset="false"><tag k="addr:street" v="East 2nd Street"/><tag k="addr:housenumber" v="1614"/><tag k="coa:place_id" v="228939"/></node><node id="-304" lat="30.258914" lon="-97.72578" changeset="false"><tag k="addr:street" v="East 2nd Street"/><tag k="addr:housenumber" v="1700"/><tag k="coa:place_id" v="879572"/></node><node id="-305" lat="30.257683" lon="-97.724756" changeset="false"><tag k="addr:street" v="Chicon Street"/><tag k="addr:housenumber" v="104"/><tag k="coa:place_id" v="361880"/></node><node id="-306" lat="30.260317" lon="-97.728242" changeset="false"><tag k="addr:street" v="East 3rd Street"/><tag k="addr:housenumber" v="1509"/><tag k="coa:place_id" v="362384"/></node><node id="-307" lat="30.263762" lon="-97.728172" changeset="false"><tag k="addr:street" v="East 6th Street"/><tag k="addr:housenumber" v="1402"/><tag k="coa:place_id" v="402566"/></node><node id="-308" lat="30.263067" lon="-97.724131" changeset="false"><tag k="addr:street" v="East 7th Street"/><tag k="addr:housenumber" v="1705"/><tag k="coa:place_id" v="402746"/></node><node id="-309" lat="30.263609" lon="-97.731068" changeset="false"><tag k="addr:street" v="Waller Street"/><tag k="addr:housenumber" v="500"/><tag k="coa:place_id" v="401084"/></node><node id="-310" lat="30.261648" lon="-97.729601" changeset="false"><tag k="addr:street" v="Navasota Street"/><tag k="addr:housenumber" v="306"/><tag k="coa:place_id" v="539914"/></node><node id="-311" lat="30.263207" lon="-97.726064" changeset="false"><tag k="addr:street" v="East 6th Street"/><tag k="addr:housenumber" v="1604"/><tag k="coa:place_id" v="402434"/></node><node id="-312" lat="30.264146" lon="-97.730445" changeset="false"><tag k="addr:street" v="East 6th Street"/><tag k="addr:housenumber" v="1201"/><tag k="coa:place_id" v="879662"/></node><node id="-313" lat="30.26395" lon="-97.729883" changeset="false"><tag k="addr:street" v="East 6th Street"/><tag k="addr:housenumber" v="1211"/><tag k="coa:place_id" v="225339"/></node><node id="-314" lat="30.264367" lon="-97.728032" changeset="false"><tag k="addr:street" v="East 7th Street"/><tag k="addr:housenumber" v="1401"/><tag k="coa:place_id" v="402572"/></node><node id="-315" lat="30.258267" lon="-97.724253" changeset="false"><tag k="addr:street" v="Chicon Street"/><tag k="addr:housenumber" v="202"/><tag k="coa:place_id" v="361862"/></node><node id="-316" lat="30.261192" lon="-97.726356" changeset="false"><tag k="addr:street" v="East 4th Street"/><tag k="addr:housenumber" v="1610"/><tag k="coa:place_id" v="239002"/></node><node id="-317" lat="30.257422" lon="-97.724643" changeset="false"><tag k="addr:street" v="Chicon Street"/><tag k="addr:housenumber" v="102"/><tag k="coa:place_id" v="361886"/></node><node id="-318" lat="30.261466" lon="-97.730474" changeset="false"><tag k="addr:street" v="East 3rd Street"/><tag k="addr:housenumber" v="1300"/><tag k="coa:place_id" v="400790"/></node><node id="-319" lat="30.260852" lon="-97.725143" changeset="false"><tag k="addr:street" v="East 4th Street"/><tag k="addr:housenumber" v="1700"/><tag k="coa:place_id" v="879566"/></node><node id="-320" lat="30.26029" lon="-97.727242" changeset="false"><tag k="addr:street" v="East 3rd Street"/><tag k="addr:housenumber" v="1612"/><tag k="coa:place_id" v="115303"/></node><node id="-321" lat="30.260272" lon="-97.729686" changeset="false"><tag k="addr:street" v="East 2nd Street"/><tag k="addr:housenumber" v="1404"/><tag k="coa:place_id" v="362300"/></node><node id="-322" lat="30.259275" lon="-97.724316" changeset="false"><tag k="addr:street" v="East 3rd Street"/><tag k="addr:housenumber" v="1810"/><tag k="coa:place_id" v="115319"/></node><node id="-323" lat="30.258295" lon="-97.724237" changeset="false"><tag k="addr:street" v="Chicon Street"/><tag k="addr:housenumber" v="204"/><tag k="coa:place_id" v="361856"/></node><node id="-324" lat="30.262915" lon="-97.723859" changeset="false"><tag k="addr:street" v="East 7th Street"/><tag k="addr:housenumber" v="1701"/><tag k="coa:place_id" v="402734"/></node><node id="-325" lat="30.262851" lon="-97.725036" changeset="false"><tag k="addr:street" v="East 6th Street"/><tag k="addr:housenumber" v="1618"/><tag k="coa:place_id" v="402380"/></node><node id="-326" lat="30.263506" lon="-97.730774" changeset="false"><tag k="addr:street" v="Waller Street"/><tag k="addr:housenumber" v="501"/><tag k="coa:place_id" v="401132"/></node><node id="-327" lat="30.262365" lon="-97.733618" changeset="false"><tag k="addr:street" v="San Marcos Street"/><tag k="addr:housenumber" v="301"/><tag k="coa:place_id" v="400868"/></node><node id="-328" lat="30.265317" lon="-97.734136" changeset="false"><tag k="addr:street" v="North Interstate Highway 35 Service Road"/><tag k="addr:housenumber" v="517"/><tag k="coa:place_id" v="424635"/></node><node id="-329" lat="30.25963" lon="-97.730579" changeset="false"><tag k="addr:street" v="Navasota Street"/><tag k="addr:housenumber" v="106"/><tag k="coa:place_id" v="362756"/></node><node id="-330" lat="30.262084" lon="-97.731967" changeset="false"><tag k="addr:street" v="East 3rd Street"/><tag k="addr:housenumber" v="1118"/><tag k="coa:place_id" v="400838"/></node><node id="-331" lat="30.265944" lon="-97.732529" changeset="false"><tag k="addr:street" v="East 7th Street"/><tag k="addr:housenumber" v="917"/><tag k="coa:place_id" v="3361490"/></node><node id="-332" lat="30.259304" lon="-97.724395" changeset="false"><tag k="addr:street" v="East 3rd Street"/><tag k="addr:housenumber" v="1808"/><tag k="coa:place_id" v="115315"/></node><node id="-333" lat="30.263912" lon="-97.731098" changeset="false"><tag k="addr:street" v="East 5th Street"/><tag k="addr:housenumber" v="1110"/><tag k="coa:place_id" v="401162"/></node><node id="-334" lat="30.259815" lon="-97.723766" changeset="false"><tag k="addr:street" v="East 4th Street"/><tag k="addr:housenumber" v="1805"/><tag k="coa:place_id" v="744934"/></node><node id="-335" lat="30.259836" lon="-97.723827" changeset="false"><tag k="addr:street" v="East 4th Street"/><tag k="addr:housenumber" v="1801"/><tag k="coa:place_id" v="744952"/></node><node id="-336" lat="30.259805" lon="-97.723736" changeset="false"><tag k="addr:street" v="East 4th Street"/><tag k="addr:housenumber" v="1807"/><tag k="coa:place_id" v="744022"/></node><node id="-337" lat="30.261468" lon="-97.722781" changeset="false"><tag k="addr:street" v="Chicon Street"/><tag k="addr:housenumber" v="510"/><tag k="coa:place_id" v="562586"/></node><node id="-338" lat="30.261646" lon="-97.722989" changeset="false"><tag k="addr:street" v="East 6th Street"/><tag k="addr:housenumber" v="1815"/><tag k="coa:place_id" v="402278"/></node><node id="-339" lat="30.261621" lon="-97.722716" changeset="false"><tag k="addr:street" v="Chicon Street"/><tag k="addr:housenumber" v="502"/><tag k="coa:place_id" v="562628"/></node><node id="-340" lat="30.261554" lon="-97.722933" changeset="false"><tag k="addr:street" v="East 6th Street"/><tag k="addr:housenumber" v="1817"/><tag k="coa:place_id" v="1118587"/></node><node id="-341" lat="30.26162" lon="-97.72273" changeset="false"><tag k="addr:street" v="East 6th Street"/><tag k="addr:housenumber" v="1813"/><tag k="coa:place_id" v="402272"/></node><node id="-342" lat="30.261683" lon="-97.723062" changeset="false"><tag k="addr:street" v="East 6th Street"/><tag k="addr:housenumber" v="1811"/><tag k="coa:place_id" v="402266"/></node><node id="-343" lat="30.258797" lon="-97.724141" changeset="false"><tag k="addr:street" v="East 3rd Street"/><tag k="addr:housenumber" v="1811"/><tag k="coa:place_id" v="241462"/></node><node id="-344" lat="30.258785" lon="-97.72408" changeset="false"><tag k="addr:street" v="Chicon Street"/><tag k="addr:housenumber" v="210"/><tag k="coa:place_id" v="1118835"/></node><node id="-345" lat="30.25916" lon="-97.724002" changeset="false"><tag k="addr:street" v="East 3rd Street"/><tag k="addr:housenumber" v="1818"/><tag k="coa:place_id" v="743782"/></node><node id="-346" lat="30.259218" lon="-97.724159" changeset="false"><tag k="addr:street" v="East 3rd Street"/><tag k="addr:housenumber" v="1814"/><tag k="coa:place_id" v="743764"/></node><node id="-347" lat="30.259131" lon="-97.723923" changeset="false"><tag k="addr:street" v="East 3rd Street"/><tag k="addr:housenumber" v="1820"/><tag k="coa:place_id" v="743788"/></node><node id="-348" lat="30.259189" lon="-97.72408" changeset="false"><tag k="addr:street" v="East 3rd Street"/><tag k="addr:housenumber" v="1816"/><tag k="coa:place_id" v="743776"/></node><node id="-349" lat="30.259754" lon="-97.723584" changeset="false"><tag k="addr:street" v="East 4th Street"/><tag k="addr:housenumber" v="1817"/><tag k="coa:place_id" v="743896"/></node><node id="-350" lat="30.259764" lon="-97.723614" changeset="false"><tag k="addr:street" v="East 4th Street"/><tag k="addr:housenumber" v="1815"/><tag k="coa:place_id" v="743890"/></node><node id="-351" lat="30.259643" lon="-97.723648" changeset="false"><tag k="addr:street" v="Chicon Street"/><tag k="addr:housenumber" v="318"/><tag k="coa:place_id" v="743920"/></node><node id="-352" lat="30.259774" lon="-97.723645" changeset="false"><tag k="addr:street" v="East 4th Street"/><tag k="addr:housenumber" v="1813"/><tag k="coa:place_id" v="743884"/></node><node id="-353" lat="30.259599" lon="-97.723663" changeset="false"><tag k="addr:street" v="Chicon Street"/><tag k="addr:housenumber" v="316"/><tag k="coa:place_id" v="743914"/></node><node id="-354" lat="30.259689" lon="-97.723623" changeset="false"><tag k="addr:street" v="Chicon Street"/><tag k="addr:housenumber" v="320"/><tag k="coa:place_id" v="743926"/></node><node id="-355" lat="30.25973" lon="-97.723605" changeset="false"><tag k="addr:street" v="Chicon Street"/><tag k="addr:housenumber" v="322"/><tag k="coa:place_id" v="743932"/></node><node id="-356" lat="30.259512" lon="-97.723707" changeset="false"><tag k="addr:street" v="Chicon Street"/><tag k="addr:housenumber" v="314"/><tag k="coa:place_id" v="743722"/></node><node id="-357" lat="30.25946" lon="-97.723734" changeset="false"><tag k="addr:street" v="Chicon Street"/><tag k="addr:housenumber" v="312"/><tag k="coa:place_id" v="743716"/></node><node id="-358" lat="30.2593" lon="-97.723799" changeset="false"><tag k="addr:street" v="Chicon Street"/><tag k="addr:housenumber" v="306"/><tag k="coa:place_id" v="743698"/></node><node id="-359" lat="30.259411" lon="-97.723753" changeset="false"><tag k="addr:street" v="Chicon Street"/><tag k="addr:housenumber" v="310"/><tag k="coa:place_id" v="743710"/></node><node id="-360" lat="30.259253" lon="-97.723826" changeset="false"><tag k="addr:street" v="Chicon Street"/><tag k="addr:housenumber" v="304"/><tag k="coa:place_id" v="743692"/></node><node id="-361" lat="30.259351" lon="-97.723781" changeset="false"><tag k="addr:street" v="Chicon Street"/><tag k="addr:housenumber" v="308"/><tag k="coa:place_id" v="743704"/></node><node id="-362" lat="30.260228" lon="-97.725348" changeset="false"><tag k="addr:street" v="Chalmers Avenue"/><tag k="addr:housenumber" v="317"/><tag k="coa:place_id" v="743416"/></node><node id="-363" lat="30.260285" lon="-97.725319" changeset="false"><tag k="addr:street" v="Chalmers Avenue"/><tag k="addr:housenumber" v="319"/><tag k="coa:place_id" v="743422"/></node><node id="-364" lat="30.260174" lon="-97.725341" changeset="false"><tag k="addr:street" v="Chalmers Avenue"/><tag k="addr:housenumber" v="315"/><tag k="coa:place_id" v="743410"/></node><node id="-365" lat="30.260331" lon="-97.725297" changeset="false"><tag k="addr:street" v="Chalmers Avenue"/><tag k="addr:housenumber" v="321"/><tag k="coa:place_id" v="743434"/></node><node id="-366" lat="30.260329" lon="-97.725285" changeset="false"><tag k="addr:street" v="East 4th Street"/><tag k="addr:housenumber" v="1705"/><tag k="coa:place_id" v="743584"/></node><node id="-367" lat="30.260278" lon="-97.725133" changeset="false"><tag k="addr:street" v="East 4th Street"/><tag k="addr:housenumber" v="1715"/><tag k="coa:place_id" v="241477"/></node><node id="-368" lat="30.260299" lon="-97.725194" changeset="false"><tag k="addr:street" v="East 4th Street"/><tag k="addr:housenumber" v="1711"/><tag k="coa:place_id" v="743608"/></node><node id="-369" lat="30.25942" lon="-97.724709" changeset="false"><tag k="addr:street" v="East 3rd Street"/><tag k="addr:housenumber" v="1800"/><tag k="coa:place_id" v="743614"/></node><node id="-370" lat="30.259391" lon="-97.724631" changeset="false"><tag k="addr:street" v="East 3rd Street"/><tag k="addr:housenumber" v="1802"/><tag k="coa:place_id" v="631113"/></node><node id="-371" lat="30.259362" lon="-97.724552" changeset="false"><tag k="addr:street" v="East 3rd Street"/><tag k="addr:housenumber" v="1804"/><tag k="coa:place_id" v="743626"/></node><node id="-372" lat="30.259457" lon="-97.724813" changeset="false"><tag k="addr:street" v="East 3rd Street"/><tag k="addr:housenumber" v="1724"/><tag k="coa:place_id" v="743992"/></node><node id="-373" lat="30.259482" lon="-97.724885" changeset="false"><tag k="addr:street" v="East 3rd Street"/><tag k="addr:housenumber" v="1722"/><tag k="coa:place_id" v="743986"/></node><node id="-374" lat="30.259507" lon="-97.724958" changeset="false"><tag k="addr:street" v="East 3rd Street"/><tag k="addr:housenumber" v="1720"/><tag k="coa:place_id" v="743980"/></node><node id="-375" lat="30.260547" lon="-97.725992" changeset="false"><tag k="addr:street" v="East 4th Street"/><tag k="addr:housenumber" v="1637"/><tag k="coa:place_id" v="744178"/></node><node id="-376" lat="30.260586" lon="-97.726106" changeset="false"><tag k="addr:street" v="East 4th Street"/><tag k="addr:housenumber" v="1635"/><tag k="coa:place_id" v="744172"/></node><node id="-377" lat="30.260597" lon="-97.726162" changeset="false"><tag k="addr:street" v="East 4th Street"/><tag k="addr:housenumber" v="1633"/><tag k="coa:place_id" v="744166"/></node><node id="-378" lat="30.260091" lon="-97.725769" changeset="false"><tag k="addr:street" v="Chalmers Avenue"/><tag k="addr:housenumber" v="306"/><tag k="coa:place_id" v="743824"/></node><node id="-379" lat="30.260139" lon="-97.725739" changeset="false"><tag k="addr:street" v="Chalmers Avenue"/><tag k="addr:housenumber" v="308"/><tag k="coa:place_id" v="743830"/></node><node id="-380" lat="30.259992" lon="-97.725815" changeset="false"><tag k="addr:street" v="Chalmers Avenue"/><tag k="addr:housenumber" v="302"/><tag k="coa:place_id" v="549260"/></node><node id="-381" lat="30.25993" lon="-97.725838" changeset="false"><tag k="addr:street" v="Chalmers Avenue"/><tag k="addr:housenumber" v="300"/><tag k="coa:place_id" v="743812"/></node><node id="-382" lat="30.260041" lon="-97.725792" changeset="false"><tag k="addr:street" v="Chalmers Avenue"/><tag k="addr:housenumber" v="304"/><tag k="coa:place_id" v="743818"/></node><node id="-383" lat="30.260186" lon="-97.72571" changeset="false"><tag k="addr:street" v="Chalmers Avenue"/><tag k="addr:housenumber" v="310"/><tag k="coa:place_id" v="743836"/></node><node id="-384" lat="30.259887" lon="-97.725502" changeset="false"><tag k="addr:street" v="Chalmers Avenue"/><tag k="addr:housenumber" v="305"/><tag k="coa:place_id" v="743380"/></node><node id="-385" lat="30.260045" lon="-97.725432" changeset="false"><tag k="addr:street" v="Chalmers Avenue"/><tag k="addr:housenumber" v="311"/><tag k="coa:place_id" v="743398"/></node><node id="-386" lat="30.260089" lon="-97.725405" changeset="false"><tag k="addr:street" v="Chalmers Avenue"/><tag k="addr:housenumber" v="313"/><tag k="coa:place_id" v="743404"/></node><node id="-387" lat="30.259947" lon="-97.725475" changeset="false"><tag k="addr:street" v="Chalmers Avenue"/><tag k="addr:housenumber" v="307"/><tag k="coa:place_id" v="743386"/></node><node id="-388" lat="30.259991" lon="-97.725459" changeset="false"><tag k="addr:street" v="Chalmers Avenue"/><tag k="addr:housenumber" v="309"/><tag k="coa:place_id" v="743392"/></node><node id="-389" lat="30.259838" lon="-97.725527" changeset="false"><tag k="addr:street" v="Chalmers Avenue"/><tag k="addr:housenumber" v="303"/><tag k="coa:place_id" v="743374"/></node><node id="-390" lat="30.25966" lon="-97.725394" changeset="false"><tag k="addr:street" v="East 3rd Street"/><tag k="addr:housenumber" v="1708"/><tag k="coa:place_id" v="743470"/></node><node id="-391" lat="30.259711" lon="-97.72554" changeset="false"><tag k="addr:street" v="East 3rd Street"/><tag k="addr:housenumber" v="1704"/><tag k="coa:place_id" v="743458"/></node><node id="-392" lat="30.259634" lon="-97.725322" changeset="false"><tag k="addr:street" v="East 3rd Street"/><tag k="addr:housenumber" v="1710"/><tag k="coa:place_id" v="743476"/></node><node id="-393" lat="30.259609" lon="-97.725249" changeset="false"><tag k="addr:street" v="East 3rd Street"/><tag k="addr:housenumber" v="1712"/><tag k="coa:place_id" v="115313"/></node><node id="-394" lat="30.259685" lon="-97.725467" changeset="false"><tag k="addr:street" v="East 3rd Street"/><tag k="addr:housenumber" v="1706"/><tag k="coa:place_id" v="743464"/></node><node id="-395" lat="30.259927" lon="-97.726171" changeset="false"><tag k="addr:street" v="East 3rd Street"/><tag k="addr:housenumber" v="1644"/><tag k="coa:place_id" v="744100"/></node><node id="-396" lat="30.259836" lon="-97.725903" changeset="false"><tag k="addr:street" v="East 3rd Street"/><tag k="addr:housenumber" v="1652"/><tag k="coa:place_id" v="744130"/></node><node id="-397" lat="30.259859" lon="-97.72597" changeset="false"><tag k="addr:street" v="East 3rd Street"/><tag k="addr:housenumber" v="1650"/><tag k="coa:place_id" v="744124"/></node><node id="-398" lat="30.259881" lon="-97.726037" changeset="false"><tag k="addr:street" v="East 3rd Street"/><tag k="addr:housenumber" v="1648"/><tag k="coa:place_id" v="744118"/></node><node id="-399" lat="30.259904" lon="-97.726104" changeset="false"><tag k="addr:street" v="East 3rd Street"/><tag k="addr:housenumber" v="1646"/><tag k="coa:place_id" v="744112"/></node><node id="-400" lat="30.26004" lon="-97.726506" changeset="false"><tag k="addr:street" v="East 3rd Street"/><tag k="addr:housenumber" v="1634"/><tag k="coa:place_id" v="744040"/></node><node id="-401" lat="30.260108" lon="-97.726707" changeset="false"><tag k="addr:street" v="East 3rd Street"/><tag k="addr:housenumber" v="1628"/><tag k="coa:place_id" v="743962"/></node><node id="-402" lat="30.260086" lon="-97.72664" changeset="false"><tag k="addr:street" v="East 3rd Street"/><tag k="addr:housenumber" v="1630"/><tag k="coa:place_id" v="743968"/></node><node id="-403" lat="30.260063" lon="-97.726573" changeset="false"><tag k="addr:street" v="East 3rd Street"/><tag k="addr:housenumber" v="1632"/><tag k="coa:place_id" v="744034"/></node><node id="-404" lat="30.260442" lon="-97.7256" changeset="false"><tag k="addr:street" v="Chalmers Avenue"/><tag k="addr:housenumber" v="318"/><tag k="coa:place_id" v="743872"/></node><node id="-405" lat="30.260393" lon="-97.725623" changeset="false"><tag k="addr:street" v="Chalmers Avenue"/><tag k="addr:housenumber" v="316"/><tag k="coa:place_id" v="743860"/></node><node id="-406" lat="30.260289" lon="-97.725678" changeset="false"><tag k="addr:street" v="Chalmers Avenue"/><tag k="addr:housenumber" v="312"/><tag k="coa:place_id" v="743848"/></node><node id="-407" lat="30.260344" lon="-97.725652" changeset="false"><tag k="addr:street" v="Chalmers Avenue"/><tag k="addr:housenumber" v="314"/><tag k="coa:place_id" v="743854"/></node><node id="-408" lat="30.257937" lon="-97.726034" changeset="false"><tag k="addr:street" v="East Cesar Chavez Street"/><tag k="addr:housenumber" v="1704"/><tag k="coa:place_id" v="361964"/></node><node id="-409" lat="30.257867" lon="-97.725977" changeset="false"><tag k="addr:street" v="East Cesar Chavez Street"/><tag k="addr:housenumber" v="1708"/><tag k="coa:place_id" v="241367"/></node><node id="-410" lat="30.263685" lon="-97.727479" changeset="false"><tag k="addr:street" v="Onion Street"/><tag k="addr:housenumber" v="600 1/2"/><tag k="coa:place_id" v="402530"/></node><node id="-411" lat="30.263727" lon="-97.727559" changeset="false"><tag k="addr:street" v="Onion Street"/><tag k="addr:housenumber" v="600"/><tag k="coa:place_id" v="402536"/></node><node id="-412" lat="30.263395" lon="-97.727188" changeset="false"><tag k="addr:street" v="East 6th Street"/><tag k="addr:housenumber" v="1502"/><tag k="coa:place_id" v="402500"/></node><node id="-413" lat="30.263423" lon="-97.727277" changeset="false"><tag k="addr:street" v="East 6th Street"/><tag k="addr:housenumber" v="1500"/><tag k="coa:place_id" v="402512"/></node><node id="-414" lat="30.260675" lon="-97.72746" changeset="false"><tag k="addr:street" v="Comal Street"/><tag k="addr:housenumber" v="307"/><tag k="coa:place_id" v="744418"/></node><node id="-415" lat="30.260615" lon="-97.727494" changeset="false"><tag k="addr:street" v="Comal Street"/><tag k="addr:housenumber" v="305"/><tag k="coa:place_id" v="744412"/></node><node id="-416" lat="30.260724" lon="-97.727431" changeset="false"><tag k="addr:street" v="Comal Street"/><tag k="addr:housenumber" v="309"/><tag k="coa:place_id" v="744424"/></node><node id="-417" lat="30.260572" lon="-97.72752" changeset="false"><tag k="addr:street" v="Comal Street"/><tag k="addr:housenumber" v="303"/><tag k="coa:place_id" v="744406"/></node><node id="-418" lat="30.260855" lon="-97.726864" changeset="false"><tag k="addr:street" v="East 4th Street"/><tag k="addr:housenumber" v="1617"/><tag k="coa:place_id" v="744382"/></node><node id="-419" lat="30.260883" lon="-97.726945" changeset="false"><tag k="addr:street" v="East 4th Street"/><tag k="addr:housenumber" v="1615"/><tag k="coa:place_id" v="744376"/></node><node id="-420" lat="30.260827" lon="-97.726783" changeset="false"><tag k="addr:street" v="East 4th Street"/><tag k="addr:housenumber" v="1619"/><tag k="coa:place_id" v="744388"/></node><node id="-421" lat="30.260828" lon="-97.727388" changeset="false"><tag k="addr:street" v="Comal Street"/><tag k="addr:housenumber" v="313"/><tag k="coa:place_id" v="744436"/></node><node id="-422" lat="30.260811" lon="-97.727405" changeset="false"><tag k="addr:street" v="Comal Street"/><tag k="addr:housenumber" v="311"/><tag k="coa:place_id" v="744430"/></node><node id="-423" lat="30.260893" lon="-97.727358" changeset="false"><tag k="addr:street" v="Comal Street"/><tag k="addr:housenumber" v="315"/><tag k="coa:place_id" v="744442"/></node><node id="-424" lat="30.260956" lon="-97.727325" changeset="false"><tag k="addr:street" v="Comal Street"/><tag k="addr:housenumber" v="317"/><tag k="coa:place_id" v="744448"/></node><node id="-425" lat="30.260381" lon="-97.72751" changeset="false"><tag k="addr:street" v="East 3rd Street"/><tag k="addr:housenumber" v="1604"/><tag k="coa:place_id" v="744466"/></node><node id="-426" lat="30.260313" lon="-97.727309" changeset="false"><tag k="addr:street" v="East 3rd Street"/><tag k="addr:housenumber" v="1610"/><tag k="coa:place_id" v="744484"/></node><node id="-427" lat="30.260404" lon="-97.727577" changeset="false"><tag k="addr:street" v="East 3rd Street"/><tag k="addr:housenumber" v="1602"/><tag k="coa:place_id" v="744460"/></node><node id="-428" lat="30.260358" lon="-97.727443" changeset="false"><tag k="addr:street" v="East 3rd Street"/><tag k="addr:housenumber" v="1606"/><tag k="coa:place_id" v="744472"/></node><node id="-429" lat="30.260336" lon="-97.727376" changeset="false"><tag k="addr:street" v="East 3rd Street"/><tag k="addr:housenumber" v="1608"/><tag k="coa:place_id" v="744478"/></node><node id="-430" lat="30.260177" lon="-97.726907" changeset="false"><tag k="addr:street" v="East 3rd Street"/><tag k="addr:housenumber" v="1622"/><tag k="coa:place_id" v="744148"/></node><node id="-431" lat="30.260199" lon="-97.726974" changeset="false"><tag k="addr:street" v="East 3rd Street"/><tag k="addr:housenumber" v="1620"/><tag k="coa:place_id" v="744142"/></node><node id="-432" lat="30.260154" lon="-97.726841" changeset="false"><tag k="addr:street" v="East 3rd Street"/><tag k="addr:housenumber" v="1624"/><tag k="coa:place_id" v="744154"/></node><node id="-433" lat="30.264686" lon="-97.729017" changeset="false"><tag k="addr:street" v="East 7th Street"/><tag k="addr:housenumber" v="1301"/><tag k="coa:place_id" v="401768"/></node><node id="-434" lat="30.264637" lon="-97.728872" changeset="false"><tag k="addr:street" v="East 7th Street"/><tag k="addr:housenumber" v="1303"/><tag k="coa:place_id" v="401774"/></node><node id="-435" lat="30.262898" lon="-97.727903" changeset="false"><tag k="addr:street" v="Onion Street"/><tag k="addr:housenumber" v="504"/><tag k="coa:place_id" v="879596"/></node><node id="-436" lat="30.262973" lon="-97.728559" changeset="false"><tag k="addr:street" v="East 5th Street"/><tag k="addr:housenumber" v="1400"/><tag k="coa:place_id" v="362702"/></node><node id="-437" lat="30.262725" lon="-97.727947" changeset="false"><tag k="addr:street" v="Onion Street"/><tag k="addr:housenumber" v="502"/><tag k="coa:place_id" v="412096"/></node><node id="-438" lat="30.262977" lon="-97.72841" changeset="false"><tag k="addr:street" v="East 5th Street"/><tag k="addr:housenumber" v="1402"/><tag k="coa:place_id" v="440266"/></node><node id="-439" lat="30.262939" lon="-97.728358" changeset="false"><tag k="addr:street" v="East 5th Street"/><tag k="addr:housenumber" v="1404"/><tag k="coa:place_id" v="879608"/></node><node id="-440" lat="30.262913" lon="-97.728227" changeset="false"><tag k="addr:street" v="East 5th Street"/><tag k="addr:housenumber" v="1406"/><tag k="coa:place_id" v="90837"/></node><node id="-441" lat="30.263363" lon="-97.728186" changeset="false"><tag k="addr:street" v="East 6th Street"/><tag k="addr:housenumber" v="1405"/><tag k="coa:place_id" v="402188"/></node><node id="-442" lat="30.263278" lon="-97.727918" changeset="false"><tag k="addr:street" v="East 6th Street"/><tag k="addr:housenumber" v="1409"/><tag k="coa:place_id" v="879668"/></node><node id="-443" lat="30.263436" lon="-97.728381" changeset="false"><tag k="addr:street" v="East 6th Street"/><tag k="addr:housenumber" v="1403"/><tag k="coa:place_id" v="601875"/></node><node id="-444" lat="30.263523" lon="-97.72844" changeset="false"><tag k="addr:street" v="East 6th Street"/><tag k="addr:housenumber" v="1401"/><tag k="coa:place_id" v="212986"/></node><node id="-445" lat="30.261794" lon="-97.728121" changeset="false"><tag k="addr:street" v="East 4th Street"/><tag k="addr:housenumber" v="1500"/><tag k="coa:place_id" v="879578"/></node><node id="-446" lat="30.261744" lon="-97.727977" changeset="false"><tag k="addr:street" v="East 4th Street"/><tag k="addr:housenumber" v="1510"/><tag k="coa:place_id" v="1118569"/></node><node id="-447" lat="30.261414" lon="-97.729717" changeset="false"><tag k="addr:street" v="Navasota Street"/><tag k="addr:housenumber" v="302"/><tag k="coa:place_id" v="248244"/></node><node id="-448" lat="30.261335" lon="-97.729757" changeset="false"><tag k="addr:street" v="East 3rd Street"/><tag k="addr:housenumber" v="1310"/><tag k="coa:place_id" v="400760"/></node><node id="-449" lat="30.265153" lon="-97.731691" changeset="false"><tag k="addr:street" v="East 6th Street"/><tag k="addr:housenumber" v="1010"/><tag k="coa:place_id" v="401648"/></node><node id="-450" lat="30.265108" lon="-97.731715" changeset="false"><tag k="addr:street" v="East 6th Street"/><tag k="addr:housenumber" v="1012"/><tag k="coa:place_id" v="401636"/></node><node id="-451" lat="30.263606" lon="-97.730728" changeset="false"><tag k="addr:street" v="Waller Street"/><tag k="addr:housenumber" v="503"/><tag k="coa:place_id" v="401126"/></node><node id="-452" lat="30.263699" lon="-97.73066" changeset="false"><tag k="addr:street" v="Waller Street"/><tag k="addr:housenumber" v="505"/><tag k="coa:place_id" v="251998"/></node><node id="-453" lat="30.264554" lon="-97.731382" changeset="false"><tag k="addr:street" v="East 6th Street"/><tag k="addr:housenumber" v="1103"/><tag k="coa:place_id" v="401390"/></node><node id="-454" lat="30.2645" lon="-97.731473" changeset="false"><tag k="addr:street" v="East 6th Street"/><tag k="addr:housenumber" v="1101"/><tag k="coa:place_id" v="401384"/></node><node id="-455" lat="30.264515" lon="-97.731267" changeset="false"><tag k="addr:street" v="East 6th Street"/><tag k="addr:housenumber" v="1105"/><tag k="coa:place_id" v="401402"/></node><node id="-456" lat="30.265097" lon="-97.732019" changeset="false"><tag k="addr:street" v="East 6th Street"/><tag k="addr:housenumber" v="1006"/><tag k="coa:place_id" v="401666"/></node><node id="-457" lat="30.265212" lon="-97.732319" changeset="false"><tag k="addr:street" v="East 6th Street"/><tag k="addr:housenumber" v="1000"/><tag k="coa:place_id" v="401672"/></node><node id="-458" lat="30.265724" lon="-97.732007" changeset="false"><tag k="addr:street" v="East 7th Street"/><tag k="addr:housenumber" v="1003"/><tag k="coa:place_id" v="414856"/></node><node id="-459" lat="30.265755" lon="-97.732066" changeset="false"><tag k="addr:street" v="East 7th Street"/><tag k="addr:housenumber" v="1001"/><tag k="coa:place_id" v="401714"/></node><node id="-460" lat="30.264697" lon="-97.731973" changeset="false"><tag k="addr:street" v="East 6th Street"/><tag k="addr:housenumber" v="1013"/><tag k="coa:place_id" v="401372"/></node><node id="-461" lat="30.26477" lon="-97.732246" changeset="false"><tag k="addr:street" v="East 6th Street"/><tag k="addr:housenumber" v="1007"/><tag k="coa:place_id" v="229013"/></node><node id="-462" lat="30.264795" lon="-97.732329" changeset="false"><tag k="addr:street" v="East 6th Street"/><tag k="addr:housenumber" v="1005"/><tag k="coa:place_id" v="5086090"/></node><node id="-463" lat="30.264743" lon="-97.732143" changeset="false"><tag k="addr:street" v="East 6th Street"/><tag k="addr:housenumber" v="1009"/><tag k="coa:place_id" v="5085935"/></node><node id="-464" lat="30.264346" lon="-97.732261" changeset="false"><tag k="addr:street" v="East 5th Street"/><tag k="addr:housenumber" v="1000"/><tag k="coa:place_id" v="241487"/></node><node id="-465" lat="30.264836" lon="-97.732449" changeset="false"><tag k="addr:street" v="East 6th Street"/><tag k="addr:housenumber" v="1001"/><tag k="coa:place_id" v="401324"/></node><node id="-466" lat="30.264663" lon="-97.731866" changeset="false"><tag k="addr:street" v="East 6th Street"/><tag k="addr:housenumber" v="1017"/><tag k="coa:place_id" v="241522"/></node><node id="-467" lat="30.263536" lon="-97.734548" changeset="false"><tag k="addr:street" v="East 4th Street"/><tag k="addr:housenumber" v="815"/><tag k="coa:place_id" v="400940"/></node><node id="-468" lat="30.263554" lon="-97.734721" changeset="false"><tag k="addr:street" v="East 4th Street"/><tag k="addr:housenumber" v="807"/><tag k="coa:place_id" v="400934"/></node><node id="-469" lat="30.264883" lon="-97.73421" changeset="false"><tag k="addr:street" v="North Interstate Highway 35 Service Road"/><tag k="addr:housenumber" v="501"/><tag k="coa:place_id" v="3365969"/></node><node id="-470" lat="30.264745" lon="-97.734142" changeset="false"><tag k="addr:street" v="East 5th Street"/><tag k="addr:housenumber" v="810"/><tag k="coa:place_id" v="401258"/></node><node id="-471" lat="30.26491" lon="-97.734012" changeset="false"><tag k="addr:street" v="Brushy Street"/><tag k="addr:housenumber" v="504"/><tag k="coa:place_id" v="5053005"/></node><node id="-472" lat="30.261476" lon="-97.735503" changeset="false"><tag k="addr:street" v="Brushy Street"/><tag k="addr:housenumber" v="102"/><tag k="coa:place_id" v="363008"/></node><node id="-473" lat="30.261656" lon="-97.735426" changeset="false"><tag k="addr:street" v="Brushy Street"/><tag k="addr:housenumber" v="104"/><tag k="coa:place_id" v="363050"/></node><node id="-474" lat="30.261118" lon="-97.729504" changeset="false"><tag k="addr:street" v="Navasota Street"/><tag k="addr:housenumber" v="301"/><tag k="coa:place_id" v="146620"/></node><node id="-475" lat="30.261203" lon="-97.72953" changeset="false"><tag k="addr:street" v="Navasota Street"/><tag k="addr:housenumber" v="301 1/2"/><tag k="coa:place_id" v="362534"/></node><node id="-476" lat="30.260549" lon="-97.73212" changeset="false"><tag k="addr:street" v="East 2nd Street"/><tag k="addr:housenumber" v="1201"/><tag k="coa:place_id" v="363182"/></node><node id="-477" lat="30.260376" lon="-97.732221" changeset="false"><tag k="addr:street" v="Waller Street"/><tag k="addr:housenumber" v="115"/><tag k="coa:place_id" v="149320"/></node></osm>