<?xml version="1.0" encoding="UTF-8"?><osm version="0.6" generator="github.com/aaronlidman/osm-and-geojson"><node id="-1" lat="30.319526" lon="-97.721722" changeset="false"><tag k="addr:street" v="Nelray Boulevard"/><tag k="addr:housenumber" v="105"/><tag k="coa:place_id" v="887114"/></node><node id="-2" lat="30.316038" lon="-97.723034" changeset="false"><tag k="addr:street" v="East 51st Street"/><tag k="addr:housenumber" v="102"/><tag k="coa:place_id" v="519260"/></node><node id="-3" lat="30.318367" lon="-97.726265" changeset="false"><tag k="addr:street" v="Genard Street"/><tag k="addr:housenumber" v="403"/><tag k="coa:place_id" v="802406"/></node><node id="-4" lat="30.320626" lon="-97.725359" changeset="false"><tag k="addr:street" v="Franklin Boulevard"/><tag k="addr:housenumber" v="408"/><tag k="coa:place_id" v="675291"/></node><node id="-5" lat="30.322008" lon="-97.726926" changeset="false"><tag k="addr:street" v="Nelray Boulevard"/><tag k="addr:housenumber" v="615"/><tag k="coa:place_id" v="235724"/></node><node id="-6" lat="30.319383" lon="-97.722686" changeset="false"><tag k="addr:street" v="Franklin Boulevard"/><tag k="addr:housenumber" v="200"/><tag k="coa:place_id" v="848384"/></node><node id="-7" lat="30.319898" lon="-97.729759" changeset="false"><tag k="addr:street" v="North Lamar Boulevard"/><tag k="addr:housenumber" v="5213"/><tag k="coa:place_id" v="545223"/></node><node id="-8" lat="30.32232" lon="-97.727714" changeset="false"><tag k="addr:street" v="Nelray Boulevard"/><tag k="addr:housenumber" v="707"/><tag k="coa:place_id" v="5217176"/></node><node id="-9" lat="30.320691" lon="-97.729269" changeset="false"><tag k="addr:street" v="North Lamar Boulevard"/><tag k="addr:housenumber" v="5251 1/2"/><tag k="coa:place_id" v="5217185"/></node><node id="-10" lat="30.322144" lon="-97.72727" changeset="false"><tag k="addr:street" v="Nelray Boulevard"/><tag k="addr:housenumber" v="701"/><tag k="coa:place_id" v="109648"/></node><node id="-11" lat="30.318677" lon="-97.725844" changeset="false"><tag k="addr:street" v="Genard Street"/><tag k="addr:housenumber" v="400"/><tag k="coa:place_id" v="802448"/></node><node id="-12" lat="30.317382" lon="-97.727052" changeset="false"><tag k="addr:street" v="West 51st Street"/><tag k="addr:housenumber" v="404"/><tag k="coa:place_id" v="801494"/></node><node id="-13" lat="30.321478" lon="-97.728775" changeset="false"><tag k="addr:street" v="North Lamar Boulevard"/><tag k="addr:housenumber" v="5315"/><tag k="coa:place_id" v="142797"/></node><node id="-14" lat="30.321432" lon="-97.727007" changeset="false"><tag k="addr:street" v="Franklin Boulevard"/><tag k="addr:housenumber" v="610"/><tag k="coa:place_id" v="848666"/></node><node id="-15" lat="30.317674" lon="-97.727111" changeset="false"><tag k="addr:street" v="Zennia Street"/><tag k="addr:housenumber" v="407"/><tag k="coa:place_id" v="802076"/></node><node id="-16" lat="30.322371" lon="-97.727858" changeset="false"><tag k="addr:street" v="Nelray Boulevard"/><tag k="addr:housenumber" v="709"/><tag k="coa:place_id" v="5217177"/></node><node id="-17" lat="30.318184" lon="-97.725781" changeset="false"><tag k="addr:street" v="Genard Street"/><tag k="addr:housenumber" v="303"/><tag k="coa:place_id" v="802424"/></node><node id="-18" lat="30.32109" lon="-97.726419" changeset="false"><tag k="addr:street" v="Franklin Boulevard"/><tag k="addr:housenumber" v="600"/><tag k="coa:place_id" v="848582"/></node><node id="-19" lat="30.322459" lon="-97.728283" changeset="false"><tag k="addr:street" v="North Lamar Boulevard"/><tag k="addr:housenumber" v="5415"/><tag k="coa:place_id" v="848744"/></node><node id="-20" lat="30.317642" lon="-97.721389" changeset="false"><tag k="addr:street" v="East North Loop Boulevard"/><tag k="addr:housenumber" v="123"/><tag k="coa:place_id" v="519086"/></node><node id="-21" lat="30.321319" lon="-97.72544" changeset="false"><tag k="addr:street" v="Nelray Boulevard"/><tag k="addr:housenumber" v="505"/><tag k="coa:place_id" v="3380297"/></node><node id="-22" lat="30.316318" lon="-97.724784" changeset="false"><tag k="addr:street" v="West 51st Street"/><tag k="addr:housenumber" v="200"/><tag k="coa:place_id" v="5098729"/></node><node id="-23" lat="30.317184" lon="-97.726865" changeset="false"><tag k="addr:street" v="West 51st Street"/><tag k="addr:housenumber" v="400"/><tag k="coa:place_id" v="801482"/></node><node id="-24" lat="30.318362" lon="-97.723198" changeset="false"><tag k="addr:street" v="East North Loop Boulevard,1100"/><tag k="addr:housenumber" v="114"/><tag k="coa:place_id" v="248375"/></node><node id="-25" lat="30.320968" lon="-97.724618" changeset="false"><tag k="addr:street" v="Nelray Boulevard"/><tag k="addr:housenumber" v="403"/><tag k="coa:place_id" v="887012"/></node><node id="-26" lat="30.322132" lon="-97.7284" changeset="false"><tag k="addr:street" v="North Lamar Boulevard"/><tag k="addr:housenumber" v="5405"/><tag k="coa:place_id" v="848738"/></node><node id="-27" lat="30.319563" lon="-97.726774" changeset="false"><tag k="addr:street" v="East North Loop Boulevard,1100"/><tag k="addr:housenumber" v="507"/><tag k="coa:place_id" v="846914"/></node><node id="-28" lat="30.31922" lon="-97.72398" changeset="false"><tag k="addr:street" v="Chesterfield Avenue"/><tag k="addr:housenumber" v="5307"/><tag k="coa:place_id" v="847310"/></node><node id="-29" lat="30.319641" lon="-97.721627" changeset="false"><tag k="addr:street" v="Nelray Boulevard"/><tag k="addr:housenumber" v="105 1/2"/><tag k="coa:place_id" v="3184147"/></node><node id="-30" lat="30.321135" lon="-97.727411" changeset="false"><tag k="addr:street" v="Franklin Boulevard"/><tag k="addr:housenumber" v="611"/><tag k="coa:place_id" v="847832"/></node><node id="-31" lat="30.317649" lon="-97.721474" changeset="false"><tag k="addr:street" v="East North Loop Boulevard"/><tag k="addr:housenumber" v="121"/><tag k="coa:place_id" v="519098"/></node><node id="-32" lat="30.320574" lon="-97.729343" changeset="false"><tag k="addr:street" v="North Lamar Boulevard"/><tag k="addr:housenumber" v="5241"/><tag k="coa:place_id" v="846740"/></node><node id="-33" lat="30.320769" lon="-97.728151" changeset="false"><tag k="addr:street" v="East North Loop Boulevard,1100"/><tag k="addr:housenumber" v="616"/><tag k="coa:place_id" v="434866"/></node><node id="-34" lat="30.322676" lon="-97.728006" changeset="false"><tag k="addr:street" v="North Lamar Boulevard"/><tag k="addr:housenumber" v="5421"/><tag k="coa:place_id" v="848768"/></node><node id="-35" lat="30.321066" lon="-97.727269" changeset="false"><tag k="addr:street" v="Franklin Boulevard"/><tag k="addr:housenumber" v="609"/><tag k="coa:place_id" v="610822"/></node><node id="-36" lat="30.317181" lon="-97.727027" changeset="false"><tag k="addr:street" v="West 51st Street"/><tag k="addr:housenumber" v="402"/><tag k="coa:place_id" v="5084033"/></node><node id="-37" lat="30.321571" lon="-97.727279" changeset="false"><tag k="addr:street" v="Franklin Boulevard"/><tag k="addr:housenumber" v="614"/><tag k="coa:place_id" v="5217179"/></node><node id="-38" lat="30.319186" lon="-97.729869" changeset="false"><tag k="addr:street" v="Zennia Street"/><tag k="addr:housenumber" v="703"/><tag k="coa:place_id" v="801962"/></node><node id="-39" lat="30.32073" lon="-97.728008" changeset="false"><tag k="addr:street" v="East North Loop Boulevard,1100"/><tag k="addr:housenumber" v="614"/><tag k="coa:place_id" v="434860"/></node><node id="-40" lat="30.321643" lon="-97.727512" changeset="false"><tag k="addr:street" v="Franklin Boulevard"/><tag k="addr:housenumber" v="700"/><tag k="coa:place_id" v="235736"/></node><node id="-41" lat="30.318474" lon="-97.724072" changeset="false"><tag k="addr:street" v="East North Loop Boulevard,1100"/><tag k="addr:housenumber" v="209"/><tag k="coa:place_id" v="373065"/></node><node id="-42" lat="30.322625" lon="-97.728044" changeset="false"><tag k="addr:street" v="North Lamar Boulevard"/><tag k="addr:housenumber" v="5419"/><tag k="coa:place_id" v="848762"/></node><node id="-43" lat="30.317649" lon="-97.721545" changeset="false"><tag k="addr:street" v="East North Loop Boulevard"/><tag k="addr:housenumber" v="119"/><tag k="coa:place_id" v="519092"/></node><node id="-44" lat="30.31595" lon="-97.722916" changeset="false"><tag k="addr:street" v="East 51st Street"/><tag k="addr:housenumber" v="104"/><tag k="coa:place_id" v="253678"/></node><node id="-45" lat="30.321589" lon="-97.728347" changeset="false"><tag k="addr:street" v="Franklin Boulevard"/><tag k="addr:housenumber" v="709"/><tag k="coa:place_id" v="245479"/></node><node id="-46" lat="30.318528" lon="-97.724228" changeset="false"><tag k="addr:street" v="East North Loop Boulevard,1100"/><tag k="addr:housenumber" v="205"/><tag k="coa:place_id" v="380781"/></node><node id="-47" lat="30.319493" lon="-97.729702" changeset="false"><tag k="addr:street" v="Zennia Street"/><tag k="addr:housenumber" v="702"/><tag k="coa:place_id" v="846710"/></node><node id="-48" lat="30.317485" lon="-97.722135" changeset="false"><tag k="addr:street" v="East North Loop Boulevard"/><tag k="addr:housenumber" v="103"/><tag k="coa:place_id" v="143277"/></node><node id="-49" lat="30.317465" lon="-97.722078" changeset="false"><tag k="addr:street" v="East North Loop Boulevard"/><tag k="addr:housenumber" v="105"/><tag k="coa:place_id" v="248367"/></node><node id="-50" lat="30.317458" lon="-97.722005" changeset="false"><tag k="addr:street" v="East North Loop Boulevard"/><tag k="addr:housenumber" v="107"/><tag k="coa:place_id" v="235700"/></node><node id="-51" lat="30.317465" lon="-97.721963" changeset="false"><tag k="addr:street" v="East North Loop Boulevard"/><tag k="addr:housenumber" v="111"/><tag k="coa:place_id" v="519080"/></node><node id="-52" lat="30.317855" lon="-97.722084" changeset="false"><tag k="addr:street" v="East North Loop Boulevard"/><tag k="addr:housenumber" v="102"/><tag k="coa:place_id" v="519032"/></node><node id="-53" lat="30.317932" lon="-97.722211" changeset="false"><tag k="addr:street" v="East North Loop Boulevard,1100"/><tag k="addr:housenumber" v="100"/><tag k="coa:place_id" v="847040"/></node><node id="-54" lat="30.317895" lon="-97.721739" changeset="false"><tag k="addr:street" v="East North Loop Boulevard"/><tag k="addr:housenumber" v="110"/><tag k="coa:place_id" v="518990"/></node><node id="-55" lat="30.317913" lon="-97.721548" changeset="false"><tag k="addr:street" v="East North Loop Boulevard"/><tag k="addr:housenumber" v="114"/><tag k="coa:place_id" v="248369"/></node><node id="-56" lat="30.317895" lon="-97.722137" changeset="false"><tag k="addr:street" v="East North Loop Boulevard"/><tag k="addr:housenumber" v="100"/><tag k="coa:place_id" v="248365"/></node><node id="-57" lat="30.317899" lon="-97.72165" changeset="false"><tag k="addr:street" v="East North Loop Boulevard"/><tag k="addr:housenumber" v="112"/><tag k="coa:place_id" v="519014"/></node><node id="-58" lat="30.317906" lon="-97.721858" changeset="false"><tag k="addr:street" v="East North Loop Boulevard"/><tag k="addr:housenumber" v="108"/><tag k="coa:place_id" v="519026"/></node><node id="-59" lat="30.317877" lon="-97.721935" changeset="false"><tag k="addr:street" v="East North Loop Boulevard"/><tag k="addr:housenumber" v="106"/><tag k="coa:place_id" v="519020"/></node><node id="-60" lat="30.318741" lon="-97.722744" changeset="false"><tag k="addr:street" v="Franklin Boulevard"/><tag k="addr:housenumber" v="113"/><tag k="coa:place_id" v="848108"/></node><node id="-61" lat="30.318784" lon="-97.722851" changeset="false"><tag k="addr:street" v="Franklin Boulevard"/><tag k="addr:housenumber" v="115"/><tag k="coa:place_id" v="848102"/></node><node id="-62" lat="30.318602" lon="-97.724572" changeset="false"><tag k="addr:street" v="East North Loop Boulevard,1100"/><tag k="addr:housenumber" v="221"/><tag k="coa:place_id" v="847010"/></node><node id="-63" lat="30.318349" lon="-97.724443" changeset="false"><tag k="addr:street" v="East North Loop Boulevard,1100"/><tag k="addr:housenumber" v="211"/><tag k="coa:place_id" v="235694"/></node><node id="-64" lat="30.318559" lon="-97.724498" changeset="false"><tag k="addr:street" v="East North Loop Boulevard,1100"/><tag k="addr:housenumber" v="217"/><tag k="coa:place_id" v="847022"/></node><node id="-65" lat="30.318422" lon="-97.724489" changeset="false"><tag k="addr:street" v="East North Loop Boulevard,1100"/><tag k="addr:housenumber" v="213"/><tag k="coa:place_id" v="847034"/></node><node id="-66" lat="30.318493" lon="-97.724503" changeset="false"><tag k="addr:street" v="East North Loop Boulevard,1100"/><tag k="addr:housenumber" v="215"/><tag k="coa:place_id" v="847028"/></node><node id="-67" lat="30.318375" lon="-97.724525" changeset="false"><tag k="addr:street" v="East North Loop Boulevard,1100"/><tag k="addr:housenumber" v="219"/><tag k="coa:place_id" v="847016"/></node><node id="-68" lat="30.319481" lon="-97.724256" changeset="false"><tag k="addr:street" v="Franklin Boulevard"/><tag k="addr:housenumber" v="301"/><tag k="coa:place_id" v="847976"/></node><node id="-69" lat="30.319191" lon="-97.724454" changeset="false"><tag k="addr:street" v="East North Loop Boulevard,1100"/><tag k="addr:housenumber" v="300"/><tag k="coa:place_id" v="847346"/></node><node id="-70" lat="30.321166" lon="-97.726652" changeset="false"><tag k="addr:street" v="Franklin Boulevard"/><tag k="addr:housenumber" v="602"/><tag k="coa:place_id" v="848588"/></node><node id="-71" lat="30.321217" lon="-97.726594" changeset="false"><tag k="addr:street" v="Franklin Boulevard"/><tag k="addr:housenumber" v="604"/><tag k="coa:place_id" v="848612"/></node><node id="-72" lat="30.319377" lon="-97.728475" changeset="false"><tag k="addr:street" v="Genard Street"/><tag k="addr:housenumber" v="607 1/2"/><tag k="coa:place_id" v="245998"/></node><node id="-73" lat="30.319351" lon="-97.728254" changeset="false"><tag k="addr:street" v="Genard Street"/><tag k="addr:housenumber" v="607"/><tag k="coa:place_id" v="802340"/></node><node id="-74" lat="30.317755" lon="-97.728157" changeset="false"><tag k="addr:street" v="Guadalupe Street"/><tag k="addr:housenumber" v="5101"/><tag k="coa:place_id" v="199389"/></node><node id="-75" lat="30.3178" lon="-97.728139" changeset="false"><tag k="addr:street" v="West 51st Street"/><tag k="addr:housenumber" v="508"/><tag k="coa:place_id" v="801554"/></node></osm>