<?xml version="1.0" encoding="UTF-8"?><osm version="0.6" generator="github.com/aaronlidman/osm-and-geojson"><node id="-1" lat="30.455968" lon="-97.826344" changeset="false"><tag k="addr:street" v="Anderson Mill Road"/><tag k="addr:housenumber" v="11800"/><tag k="addr:postcode" v="78613"/></node><node id="-2" lat="30.457168" lon="-97.824854" changeset="false"><tag k="addr:street" v="Ranch Road 620"/><tag k="addr:housenumber" v="11630"/><tag k="addr:postcode" v="78613"/></node><node id="-3" lat="30.464035" lon="-97.835208" changeset="false"><tag k="addr:street" v="Blazing Star Trail"/><tag k="addr:housenumber" v="3001"/><tag k="addr:postcode" v="78613"/></node><node id="-4" lat="30.46102" lon="-97.830176" changeset="false"><tag k="addr:street" v="Anderson Mill Road"/><tag k="addr:housenumber" v="12112"/><tag k="addr:postcode" v="78613"/></node><node id="-5" lat="30.4567" lon="-97.825318" changeset="false"><tag k="addr:street" v="Ranch Road 620"/><tag k="addr:housenumber" v="11620"/><tag k="addr:postcode" v="78613"/></node><node id="-6" lat="30.460097" lon="-97.829141" changeset="false"><tag k="addr:street" v="Anderson Mill Road"/><tag k="addr:housenumber" v="12102"/><tag k="addr:postcode" v="78613"/></node><node id="-7" lat="30.458292" lon="-97.82306" changeset="false"><tag k="addr:street" v="Ranch Road 620"/><tag k="addr:housenumber" v="11806"/><tag k="addr:postcode" v="78613"/></node><node id="-8" lat="30.45796" lon="-97.824047" changeset="false"><tag k="addr:street" v="Ranch Road 620"/><tag k="addr:housenumber" v="11720"/><tag k="addr:postcode" v="78613"/></node><node id="-9" lat="30.457917" lon="-97.824028" changeset="false"><tag k="addr:street" v="Ranch Road 620"/><tag k="addr:housenumber" v="11720 1/2"/><tag k="addr:postcode" v="78613"/></node></osm>