<?xml version="1.0" encoding="UTF-8"?><osm version="0.6" generator="github.com/aaronlidman/osm-and-geojson"><node id="-1" lat="30.185363" lon="-97.799585" changeset="false"><tag k="addr:street" v="Huddleston Lane"/><tag k="addr:housenumber" v="8008"/><tag k="addr:postcode" v="78748"/></node><node id="-2" lat="30.175793" lon="-97.80298" changeset="false"><tag k="addr:street" v="Yarsa Boulevard"/><tag k="addr:housenumber" v="716"/><tag k="addr:postcode" v="78748"/></node><node id="-3" lat="30.175387" lon="-97.802492" changeset="false"><tag k="addr:street" v="Yarsa Boulevard"/><tag k="addr:housenumber" v="711"/><tag k="addr:postcode" v="78748"/></node><node id="-4" lat="30.176061" lon="-97.802031" changeset="false"><tag k="addr:street" v="Simonetti Drive"/><tag k="addr:housenumber" v="721"/><tag k="addr:postcode" v="78748"/></node><node id="-5" lat="30.175514" lon="-97.801813" changeset="false"><tag k="addr:street" v="Yarsa Boulevard"/><tag k="addr:housenumber" v="704"/><tag k="addr:postcode" v="78748"/></node><node id="-6" lat="30.175101" lon="-97.801367" changeset="false"><tag k="addr:street" v="Yarsa Boulevard"/><tag k="addr:housenumber" v="701"/><tag k="addr:postcode" v="78748"/></node><node id="-7" lat="30.183317" lon="-97.799274" changeset="false"><tag k="addr:street" v="Huddleston Lane"/><tag k="addr:housenumber" v="8157"/><tag k="addr:postcode" v="78748"/></node><node id="-8" lat="30.185367" lon="-97.80026" changeset="false"><tag k="addr:street" v="Dittmar Road"/><tag k="addr:housenumber" v="915"/><tag k="addr:postcode" v="78748"/></node><node id="-9" lat="30.18442" lon="-97.801778" changeset="false"><tag k="addr:street" v="Dittmar Road"/><tag k="addr:housenumber" v="1009"/><tag k="addr:postcode" v="78748"/></node><node id="-10" lat="30.175591" lon="-97.804976" changeset="false"><tag k="addr:street" v="Yarsa Boulevard"/><tag k="addr:housenumber" v="736"/><tag k="addr:postcode" v="78748"/></node><node id="-11" lat="30.174677" lon="-97.804818" changeset="false"><tag k="addr:street" v="Yarsa Boulevard"/><tag k="addr:housenumber" v="739"/><tag k="addr:postcode" v="78748"/></node><node id="-12" lat="30.175216" lon="-97.801817" changeset="false"><tag k="addr:street" v="Yarsa Boulevard"/><tag k="addr:housenumber" v="705"/><tag k="addr:postcode" v="78748"/></node><node id="-13" lat="30.18319" lon="-97.798312" changeset="false"><tag k="addr:street" v="Latteridge Drive"/><tag k="addr:housenumber" v="785"/><tag k="addr:postcode" v="78748"/></node><node id="-14" lat="30.174676" lon="-97.803117" changeset="false"><tag k="addr:street" v="West Slaughter Lane"/><tag k="addr:housenumber" v="718"/><tag k="addr:postcode" v="78748"/></node><node id="-15" lat="30.175158" lon="-97.801592" changeset="false"><tag k="addr:street" v="Yarsa Boulevard"/><tag k="addr:housenumber" v="703"/><tag k="addr:postcode" v="78748"/></node><node id="-16" lat="30.184137" lon="-97.798897" changeset="false"><tag k="addr:street" v="Tockington Way"/><tag k="addr:housenumber" v="8128"/><tag k="addr:postcode" v="78748"/></node><node id="-17" lat="30.17293" lon="-97.799661" changeset="false"><tag k="addr:street" v="West Slaughter Lane"/><tag k="addr:housenumber" v="606"/><tag k="addr:postcode" v="78748"/></node><node id="-18" lat="30.175127" lon="-97.80355" changeset="false"><tag k="addr:street" v="Simonetti Drive"/><tag k="addr:housenumber" v="753"/><tag k="addr:postcode" v="78748"/></node><node id="-19" lat="30.173572" lon="-97.799273" changeset="false"><tag k="addr:street" v="South 1st Street"/><tag k="addr:housenumber" v="8904"/><tag k="addr:postcode" v="78748"/></node><node id="-20" lat="30.183313" lon="-97.798956" changeset="false"><tag k="addr:street" v="Tockington Way"/><tag k="addr:housenumber" v="8152"/><tag k="addr:postcode" v="78748"/></node><node id="-21" lat="30.184252" lon="-97.793312" changeset="false"><tag k="addr:street" v="Dittmar Road"/><tag k="addr:housenumber" v="629"/><tag k="addr:postcode" v="78748"/></node><node id="-22" lat="30.180994" lon="-97.80169" changeset="false"><tag k="addr:street" v="Cockney Drive"/><tag k="addr:housenumber" v="8504"/><tag k="addr:postcode" v="78748"/></node><node id="-23" lat="30.183385" lon="-97.794539" changeset="false"><tag k="addr:street" v="Boggy Ridge Drive"/><tag k="addr:housenumber" v="8000"/><tag k="addr:postcode" v="78748"/></node><node id="-24" lat="30.172968" lon="-97.799708" changeset="false"><tag k="addr:street" v="West Slaughter Lane"/><tag k="addr:housenumber" v="608"/><tag k="addr:postcode" v="78748"/></node><node id="-25" lat="30.174463" lon="-97.80423" changeset="false"><tag k="addr:street" v="Simonetti Drive"/><tag k="addr:housenumber" v="760"/><tag k="addr:postcode" v="78748"/></node><node id="-26" lat="30.184614" lon="-97.793966" changeset="false"><tag k="addr:street" v="Dittmar Road"/><tag k="addr:housenumber" v="635"/><tag k="addr:postcode" v="78748"/></node><node id="-27" lat="30.174431" lon="-97.805131" changeset="false"><tag k="addr:street" v="Yarsa Boulevard"/><tag k="addr:housenumber" v="748"/><tag k="addr:postcode" v="78748"/></node><node id="-28" lat="30.175205" lon="-97.799116" changeset="false"><tag k="addr:street" v="South 1st Street"/><tag k="addr:housenumber" v="8800"/><tag k="addr:postcode" v="78748"/></node><node id="-29" lat="30.179781" lon="-97.798581" changeset="false"><tag k="addr:street" v="Wales Way"/><tag k="addr:housenumber" v="700"/><tag k="addr:postcode" v="78748"/></node><node id="-30" lat="30.180975" lon="-97.795075" changeset="false"><tag k="addr:street" v="South 1st Street"/><tag k="addr:housenumber" v="8210"/><tag k="addr:postcode" v="78748"/></node><node id="-31" lat="30.176103" lon="-97.802194" changeset="false"><tag k="addr:street" v="Simonetti Drive"/><tag k="addr:housenumber" v="723"/><tag k="addr:postcode" v="78748"/></node><node id="-32" lat="30.175869" lon="-97.801292" changeset="false"><tag k="addr:street" v="Simonetti Drive"/><tag k="addr:housenumber" v="713"/><tag k="addr:postcode" v="78748"/></node><node id="-33" lat="30.175801" lon="-97.80081" changeset="false"><tag k="addr:street" v="Simonetti Drive"/><tag k="addr:housenumber" v="706"/><tag k="addr:postcode" v="78748"/></node><node id="-34" lat="30.176145" lon="-97.802356" changeset="false"><tag k="addr:street" v="Simonetti Drive"/><tag k="addr:housenumber" v="725"/><tag k="addr:postcode" v="78748"/></node><node id="-35" lat="30.184729" lon="-97.794927" changeset="false"><tag k="addr:street" v="Dittmar Road"/><tag k="addr:housenumber" v="707"/><tag k="addr:postcode" v="78748"/></node><node id="-36" lat="30.185467" lon="-97.79691" changeset="false"><tag k="addr:street" v="Dittmar Road"/><tag k="addr:housenumber" v="741"/><tag k="addr:postcode" v="78748"/></node><node id="-37" lat="30.175273" lon="-97.802042" changeset="false"><tag k="addr:street" v="Yarsa Boulevard"/><tag k="addr:housenumber" v="707"/><tag k="addr:postcode" v="78748"/></node><node id="-38" lat="30.17533" lon="-97.802267" changeset="false"><tag k="addr:street" v="Yarsa Boulevard"/><tag k="addr:housenumber" v="709"/><tag k="addr:postcode" v="78748"/></node><node id="-39" lat="30.184496" lon="-97.794515" changeset="false"><tag k="addr:street" v="Dittmar Road"/><tag k="addr:housenumber" v="705"/><tag k="addr:postcode" v="78748"/></node><node id="-40" lat="30.181056" lon="-97.799824" changeset="false"><tag k="addr:street" v="Dulwich Street"/><tag k="addr:housenumber" v="712"/><tag k="addr:postcode" v="78748"/></node><node id="-41" lat="30.184622" lon="-97.798829" changeset="false"><tag k="addr:street" v="Tockington Way"/><tag k="addr:housenumber" v="8112"/><tag k="addr:postcode" v="78748"/></node><node id="-42" lat="30.176018" lon="-97.801869" changeset="false"><tag k="addr:street" v="Simonetti Drive"/><tag k="addr:housenumber" v="719"/><tag k="addr:postcode" v="78748"/></node><node id="-43" lat="30.175953" lon="-97.801617" changeset="false"><tag k="addr:street" v="Simonetti Drive"/><tag k="addr:housenumber" v="717"/><tag k="addr:postcode" v="78748"/></node><node id="-44" lat="30.185324" lon="-97.796768" changeset="false"><tag k="addr:street" v="Patchway Lane"/><tag k="addr:housenumber" v="728"/><tag k="addr:postcode" v="78748"/></node><node id="-45" lat="30.175911" lon="-97.801454" changeset="false"><tag k="addr:street" v="Simonetti Drive"/><tag k="addr:housenumber" v="715"/><tag k="addr:postcode" v="78748"/></node><node id="-46" lat="30.174408" lon="-97.804747" changeset="false"><tag k="addr:street" v="Yarsa Boulevard"/><tag k="addr:housenumber" v="741"/><tag k="addr:postcode" v="78748"/></node><node id="-47" lat="30.175585" lon="-97.802161" changeset="false"><tag k="addr:street" v="Yarsa Boulevard"/><tag k="addr:housenumber" v="708"/><tag k="addr:postcode" v="78748"/></node><node id="-48" lat="30.178522" lon="-97.800228" changeset="false"><tag k="addr:street" v="Soho Drive"/><tag k="addr:housenumber" v="8515"/><tag k="addr:postcode" v="78748"/></node><node id="-49" lat="30.178496" lon="-97.80023" changeset="false"><tag k="addr:street" v="Cornwall Drive"/><tag k="addr:housenumber" v="8528"/><tag k="addr:postcode" v="78748"/></node></osm>