<?xml version="1.0" encoding="UTF-8"?><osm version="0.6" generator="github.com/aaronlidman/osm-and-geojson"><node id="-1" lat="30.305585" lon="-97.724596" changeset="false"><tag k="addr:street" v="Barrow Avenue"/><tag k="addr:housenumber" v="4400"/><tag k="addr:postcode" v="78751"/></node><node id="-2" lat="30.302235" lon="-97.727036" changeset="false"><tag k="addr:street" v="East 41st Street"/><tag k="addr:housenumber" v="504"/><tag k="addr:postcode" v="78751"/></node><node id="-3" lat="30.303526" lon="-97.724047" changeset="false"><tag k="addr:street" v="East 43rd Street"/><tag k="addr:housenumber" v="615"/><tag k="addr:postcode" v="78751"/></node><node id="-4" lat="30.306364" lon="-97.723265" changeset="false"><tag k="addr:street" v="East 45th Street"/><tag k="addr:housenumber" v="605"/><tag k="addr:postcode" v="78751"/></node><node id="-5" lat="30.303962" lon="-97.722577" changeset="false"><tag k="addr:street" v="East 44th Street"/><tag k="addr:housenumber" v="707"/><tag k="addr:postcode" v="78751"/></node><node id="-6" lat="30.303779" lon="-97.724621" changeset="false"><tag k="addr:street" v="East 43rd Street"/><tag k="addr:housenumber" v="607"/><tag k="addr:postcode" v="78751"/></node><node id="-7" lat="30.303695" lon="-97.7206" changeset="false"><tag k="addr:street" v="Red River Street"/><tag k="addr:housenumber" v="4404"/><tag k="addr:postcode" v="78751"/></node><node id="-8" lat="30.305956" lon="-97.723823" changeset="false"><tag k="addr:street" v="Barrow Avenue"/><tag k="addr:housenumber" v="4409"/><tag k="addr:postcode" v="78751"/></node><node id="-9" lat="30.305325" lon="-97.724732" changeset="false"><tag k="addr:street" v="Barrow Avenue"/><tag k="addr:housenumber" v="4314"/><tag k="addr:postcode" v="78751"/></node><node id="-10" lat="30.305194" lon="-97.724447" changeset="false"><tag k="addr:street" v="Barrow Avenue"/><tag k="addr:housenumber" v="4315"/><tag k="addr:postcode" v="78751"/></node><node id="-11" lat="30.304656" lon="-97.720192" changeset="false"><tag k="addr:street" v="Red River Street"/><tag k="addr:housenumber" v="4420"/><tag k="addr:postcode" v="78751"/></node><node id="-12" lat="30.306102" lon="-97.723659" changeset="false"><tag k="addr:street" v="Barrow Avenue"/><tag k="addr:housenumber" v="4413"/><tag k="addr:postcode" v="78751"/></node><node id="-13" lat="30.305547" lon="-97.724111" changeset="false"><tag k="addr:street" v="Barrow Avenue"/><tag k="addr:housenumber" v="4401"/><tag k="addr:postcode" v="78751"/></node><node id="-14" lat="30.305467" lon="-97.724676" changeset="false"><tag k="addr:street" v="Barrow Avenue"/><tag k="addr:housenumber" v="4316"/><tag k="addr:postcode" v="78751"/></node><node id="-15" lat="30.302879" lon="-97.725001" changeset="false"><tag k="addr:street" v="Park Boulevard"/><tag k="addr:housenumber" v="609"/><tag k="addr:postcode" v="78751"/></node><node id="-16" lat="30.301101" lon="-97.724887" changeset="false"><tag k="addr:street" v="East 41st Street"/><tag k="addr:housenumber" v="710"/><tag k="addr:postcode" v="78751"/></node><node id="-17" lat="30.30455" lon="-97.722719" changeset="false"><tag k="addr:street" v="East 44th Street"/><tag k="addr:housenumber" v="702"/><tag k="addr:postcode" v="78751"/></node><node id="-18" lat="30.304611" lon="-97.72282" changeset="false"><tag k="addr:street" v="East 44th Street"/><tag k="addr:housenumber" v="700"/><tag k="addr:postcode" v="78751"/></node><node id="-19" lat="30.303736" lon="-97.721048" changeset="false"><tag k="addr:street" v="East 44th Street"/><tag k="addr:housenumber" v="812"/><tag k="addr:postcode" v="78751"/></node><node id="-20" lat="30.303771" lon="-97.72114" changeset="false"><tag k="addr:street" v="East 44th Street"/><tag k="addr:housenumber" v="810"/><tag k="addr:postcode" v="78751"/></node><node id="-21" lat="30.305032" lon="-97.722961" changeset="false"><tag k="addr:street" v="Eilers Avenue"/><tag k="addr:housenumber" v="4406"/><tag k="addr:postcode" v="78751"/></node><node id="-22" lat="30.305185" lon="-97.722907" changeset="false"><tag k="addr:street" v="Eilers Avenue"/><tag k="addr:housenumber" v="4408"/><tag k="addr:postcode" v="78751"/></node><node id="-23" lat="30.304099" lon="-97.723201" changeset="false"><tag k="addr:street" v="Eilers Avenue"/><tag k="addr:housenumber" v="4307"/><tag k="addr:postcode" v="78751"/></node><node id="-24" lat="30.304245" lon="-97.723097" changeset="false"><tag k="addr:street" v="East 44th Street"/><tag k="addr:housenumber" v="701"/><tag k="addr:postcode" v="78751"/></node><node id="-25" lat="30.306645" lon="-97.724364" changeset="false"><tag k="addr:street" v="Duval Street"/><tag k="addr:housenumber" v="4429"/><tag k="addr:postcode" v="78751"/></node><node id="-26" lat="30.306571" lon="-97.7244" changeset="false"><tag k="addr:street" v="Duval Street"/><tag k="addr:housenumber" v="4427"/><tag k="addr:postcode" v="78751"/></node><node id="-27" lat="30.302106" lon="-97.725531" changeset="false"><tag k="addr:street" v="East 42nd Street"/><tag k="addr:housenumber" v="609"/><tag k="addr:postcode" v="78751"/></node><node id="-28" lat="30.301966" lon="-97.725569" changeset="false"><tag k="addr:street" v="Peck Avenue"/><tag k="addr:housenumber" v="4104"/><tag k="addr:postcode" v="78751"/></node></osm>