<?xml version="1.0" encoding="UTF-8"?><osm version="0.6" generator="github.com/aaronlidman/osm-and-geojson"><node id="-1" lat="30.344852" lon="-97.736711" changeset="false"><tag k="addr:street" v="Justin Lane"/><tag k="addr:housenumber" v="2213"/><tag k="coa:place_id" v="271604"/></node><node id="-2" lat="30.344839" lon="-97.736683" changeset="false"><tag k="addr:street" v="Justin Lane"/><tag k="addr:housenumber" v="2211"/><tag k="coa:place_id" v="271610"/></node><node id="-3" lat="30.343925" lon="-97.73651" changeset="false"><tag k="addr:street" v="Burnet Lane"/><tag k="addr:housenumber" v="6801"/><tag k="coa:place_id" v="483164"/></node><node id="-4" lat="30.341734" lon="-97.737117" changeset="false"><tag k="addr:street" v="Burnet Lane"/><tag k="addr:housenumber" v="6603"/><tag k="coa:place_id" v="482864"/></node><node id="-5" lat="30.343799" lon="-97.736561" changeset="false"><tag k="addr:street" v="Burnet Lane"/><tag k="addr:housenumber" v="6735"/><tag k="coa:place_id" v="123405"/></node><node id="-6" lat="30.343699" lon="-97.738218" changeset="false"><tag k="addr:street" v="Burnet Road"/><tag k="addr:housenumber" v="6723"/><tag k="coa:place_id" v="482894"/></node><node id="-7" lat="30.336143" lon="-97.729436" changeset="false"><tag k="addr:street" v="Payne Avenue"/><tag k="addr:housenumber" v="1400"/><tag k="coa:place_id" v="355958"/></node><node id="-8" lat="30.341774" lon="-97.737727" changeset="false"><tag k="addr:street" v="Burnet Lane"/><tag k="addr:housenumber" v="6600 1/2"/><tag k="coa:place_id" v="1103607"/></node><node id="-9" lat="30.338357" lon="-97.733301" changeset="false"><tag k="addr:street" v="Karen Avenue"/><tag k="addr:housenumber" v="1713"/><tag k="coa:place_id" v="3587370"/></node><node id="-10" lat="30.341367" lon="-97.73758" changeset="false"><tag k="addr:street" v="Burnet Lane"/><tag k="addr:housenumber" v="6605"/><tag k="coa:place_id" v="164333"/></node><node id="-11" lat="30.343514" lon="-97.733885" changeset="false"><tag k="addr:street" v="Justin Lane"/><tag k="addr:housenumber" v="1915"/><tag k="coa:place_id" v="625215"/></node><node id="-12" lat="30.340861" lon="-97.738423" changeset="false"><tag k="addr:street" v="Burnet Road"/><tag k="addr:housenumber" v="6539"/><tag k="coa:place_id" v="271562"/></node><node id="-13" lat="30.341202" lon="-97.737336" changeset="false"><tag k="addr:street" v="Burnet Lane"/><tag k="addr:housenumber" v="6519"/><tag k="coa:place_id" v="482852"/></node><node id="-14" lat="30.339422" lon="-97.733047" changeset="false"><tag k="addr:street" v="Brentwood Street"/><tag k="addr:housenumber" v="1723"/><tag k="coa:place_id" v="3365876"/></node><node id="-15" lat="30.340946" lon="-97.737461" changeset="false"><tag k="addr:street" v="Burnet Lane"/><tag k="addr:housenumber" v="6513"/><tag k="coa:place_id" v="482846"/></node><node id="-16" lat="30.33957" lon="-97.736171" changeset="false"><tag k="addr:street" v="Karen Avenue"/><tag k="addr:housenumber" v="2009"/><tag k="coa:place_id" v="482414"/></node><node id="-17" lat="30.342056" lon="-97.73127" changeset="false"><tag k="addr:street" v="Yates Avenue"/><tag k="addr:housenumber" v="6807"/><tag k="coa:place_id" v="355088"/></node><node id="-18" lat="30.338387" lon="-97.733603" changeset="false"><tag k="addr:street" v="Goodnight Lane"/><tag k="addr:housenumber" v="6509"/><tag k="coa:place_id" v="482504"/></node><node id="-19" lat="30.341539" lon="-97.737265" changeset="false"><tag k="addr:street" v="Burnet Lane"/><tag k="addr:housenumber" v="6601"/><tag k="coa:place_id" v="243306"/></node><node id="-20" lat="30.343205" lon="-97.737104" changeset="false"><tag k="addr:street" v="Burnet Lane"/><tag k="addr:housenumber" v="6710"/><tag k="coa:place_id" v="237412"/></node><node id="-21" lat="30.343037" lon="-97.73736" changeset="false"><tag k="addr:street" v="Burnet Lane"/><tag k="addr:housenumber" v="6706"/><tag k="coa:place_id" v="134535"/></node><node id="-22" lat="30.338449" lon="-97.733526" changeset="false"><tag k="addr:street" v="Karen Avenue"/><tag k="addr:housenumber" v="1715"/><tag k="coa:place_id" v="482498"/></node><node id="-23" lat="30.344827" lon="-97.736654" changeset="false"><tag k="addr:street" v="Justin Lane"/><tag k="addr:housenumber" v="2209"/><tag k="coa:place_id" v="483170"/></node><node id="-24" lat="30.3432" lon="-97.734525" changeset="false"><tag k="addr:street" v="Hardy Drive"/><tag k="addr:housenumber" v="6805"/><tag k="coa:place_id" v="359750"/></node><node id="-25" lat="30.343223" lon="-97.734445" changeset="false"><tag k="addr:street" v="Santa Clara Street"/><tag k="addr:housenumber" v="1915"/><tag k="coa:place_id" v="359756"/></node><node id="-26" lat="30.344601" lon="-97.736493" changeset="false"><tag k="addr:street" v="Justin Lane"/><tag k="addr:housenumber" v="2207"/><tag k="coa:place_id" v="483176"/></node><node id="-27" lat="30.344558" lon="-97.736246" changeset="false"><tag k="addr:street" v="Justin Lane"/><tag k="addr:housenumber" v="2205"/><tag k="coa:place_id" v="483182"/></node><node id="-28" lat="30.342121" lon="-97.737186" changeset="false"><tag k="addr:street" v="Burnet Lane"/><tag k="addr:housenumber" v="6611"/><tag k="coa:place_id" v="482798"/></node><node id="-29" lat="30.342085" lon="-97.737072" changeset="false"><tag k="addr:street" v="Burnet Lane"/><tag k="addr:housenumber" v="6615"/><tag k="coa:place_id" v="482804"/></node><node id="-30" lat="30.34129" lon="-97.738281" changeset="false"><tag k="addr:street" v="Burnet Road"/><tag k="addr:housenumber" v="6549"/><tag k="coa:place_id" v="482792"/></node><node id="-31" lat="30.341437" lon="-97.738208" changeset="false"><tag k="addr:street" v="Burnet Road"/><tag k="addr:housenumber" v="6555"/><tag k="coa:place_id" v="271574"/></node><node id="-32" lat="30.341183" lon="-97.738296" changeset="false"><tag k="addr:street" v="Burnet Road"/><tag k="addr:housenumber" v="6547"/><tag k="coa:place_id" v="271568"/></node><node id="-33" lat="30.338983" lon="-97.733822" changeset="false"><tag k="addr:street" v="Goodnight Lane"/><tag k="addr:housenumber" v="6512"/><tag k="coa:place_id" v="482612"/></node><node id="-34" lat="30.339085" lon="-97.733718" changeset="false"><tag k="addr:street" v="Karen Avenue"/><tag k="addr:housenumber" v="1900"/><tag k="coa:place_id" v="482618"/></node><node id="-35" lat="30.340427" lon="-97.738495" changeset="false"><tag k="addr:street" v="Burnet Road"/><tag k="addr:housenumber" v="6511"/><tag k="coa:place_id" v="482762"/></node><node id="-36" lat="30.340498" lon="-97.738452" changeset="false"><tag k="addr:street" v="Burnet Road"/><tag k="addr:housenumber" v="6513"/><tag k="coa:place_id" v="482768"/></node><node id="-37" lat="30.340531" lon="-97.73844" changeset="false"><tag k="addr:street" v="Burnet Road"/><tag k="addr:housenumber" v="6515"/><tag k="coa:place_id" v="482774"/></node><node id="-38" lat="30.340303" lon="-97.73856" changeset="false"><tag k="addr:street" v="Burnet Road"/><tag k="addr:housenumber" v="6507"/><tag k="coa:place_id" v="271550"/></node><node id="-39" lat="30.340365" lon="-97.738531" changeset="false"><tag k="addr:street" v="Burnet Road"/><tag k="addr:housenumber" v="6509"/><tag k="coa:place_id" v="613539"/></node></osm>