<?xml version="1.0" encoding="UTF-8"?><osm version="0.6" generator="github.com/aaronlidman/osm-and-geojson"><node id="-1" lat="30.364372" lon="-97.628915" changeset="false"><tag k="addr:street" v="East Yager Lane"/><tag k="addr:housenumber" v="4868"/><tag k="addr:postcode" v="78754"/></node><node id="-2" lat="30.402071" lon="-97.622725" changeset="false"><tag k="addr:street" v="Crystal Bend Drive"/><tag k="addr:housenumber" v="2615"/><tag k="addr:postcode" v="78660"/></node><node id="-3" lat="30.365547" lon="-97.629017" changeset="false"><tag k="addr:street" v="East Yager Lane"/><tag k="addr:housenumber" v="4843"/><tag k="addr:postcode" v="78754"/></node><node id="-4" lat="30.396797" lon="-97.636587" changeset="false"><tag k="addr:street" v="Old Gregg Lane"/><tag k="addr:housenumber" v="13130"/><tag k="addr:postcode" v="78653"/></node><node id="-5" lat="30.368754" lon="-97.626986" changeset="false"><tag k="addr:street" v="East Yager Lane"/><tag k="addr:housenumber" v="4800"/><tag k="addr:postcode" v="78754"/></node><node id="-6" lat="30.407146" lon="-97.627235" changeset="false"><tag k="addr:street" v="Immanuel Road"/><tag k="addr:housenumber" v="14015"/><tag k="addr:postcode" v="78660"/></node><node id="-7" lat="30.390921" lon="-97.625552" changeset="false"><tag k="addr:street" v="East Howard Lane"/><tag k="addr:housenumber" v="2908"/><tag k="addr:postcode" v="78653"/></node><node id="-8" lat="30.401497" lon="-97.631299" changeset="false"><tag k="addr:street" v="Immanuel Road"/><tag k="addr:housenumber" v="13514"/><tag k="addr:postcode" v="78660"/></node><node id="-9" lat="30.371265" lon="-97.612864" changeset="false"><tag k="addr:street" v="Drummond Drive"/><tag k="addr:housenumber" v="12317"/><tag k="addr:postcode" v="78653"/></node><node id="-10" lat="30.370536" lon="-97.613367" changeset="false"><tag k="addr:street" v="Clyde Lane"/><tag k="addr:housenumber" v="5725"/><tag k="addr:postcode" v="78653"/></node><node id="-11" lat="30.412071" lon="-97.606163" changeset="false"><tag k="addr:street" v="Killingsworth Lane"/><tag k="addr:housenumber" v="3351"/><tag k="addr:postcode" v="78660"/></node><node id="-12" lat="30.368502" lon="-97.627412" changeset="false"><tag k="addr:street" v="East Yager Lane"/><tag k="addr:housenumber" v="4850"/><tag k="addr:postcode" v="78754"/></node><node id="-13" lat="30.363085" lon="-97.642108" changeset="false"><tag k="addr:street" v="Centrum Dr"/><tag k="addr:housenumber" v="3005"/><tag k="addr:postcode" v="78754"/></node><node id="-14" lat="30.362561" lon="-97.642039" changeset="false"><tag k="addr:street" v="Centrum Dr"/><tag k="addr:housenumber" v="3017"/><tag k="addr:postcode" v="78754"/></node><node id="-15" lat="30.361608" lon="-97.644777" changeset="false"><tag k="addr:street" v="Long Day Dr"/><tag k="addr:housenumber" v="3118"/><tag k="addr:postcode" v="78754"/></node><node id="-16" lat="30.361951" lon="-97.644359" changeset="false"><tag k="addr:street" v="Cain Harvest Cove"/><tag k="addr:housenumber" v="11009"/><tag k="addr:postcode" v="78754"/></node><node id="-17" lat="30.355532" lon="-97.636433" changeset="false"><tag k="addr:street" v="Cameron Road"/><tag k="addr:housenumber" v="11114"/><tag k="addr:postcode" v="78754"/></node><node id="-18" lat="30.37309" lon="-97.625195" changeset="false"><tag k="addr:street" v="East Parmer Lane"/><tag k="addr:housenumber" v="4748 1/2"/><tag k="addr:postcode" v="78754"/></node><node id="-19" lat="30.369084" lon="-97.619382" changeset="false"><tag k="addr:street" v="East Parmer Lane"/><tag k="addr:housenumber" v="5433 1/2"/><tag k="addr:postcode" v="78754"/></node><node id="-20" lat="30.400278" lon="-97.635892" changeset="false"><tag k="addr:street" v="Old Gregg Lane"/><tag k="addr:housenumber" v="13301"/><tag k="addr:postcode" v="78653"/></node><node id="-21" lat="30.362873" lon="-97.642563" changeset="false"><tag k="addr:street" v="Centrum Dr"/><tag k="addr:housenumber" v="3008"/><tag k="addr:postcode" v="78754"/></node><node id="-22" lat="30.392385" lon="-97.633903" changeset="false"><tag k="addr:street" v="East Howard Lane"/><tag k="addr:housenumber" v="2401"/><tag k="addr:postcode" v="78653"/></node><node id="-23" lat="30.358864" lon="-97.639804" changeset="false"><tag k="addr:street" v="Taebaek Dr"/><tag k="addr:housenumber" v="3601 1/2"/><tag k="addr:postcode" v="78754"/></node><node id="-24" lat="30.38651" lon="-97.614283" changeset="false"><tag k="addr:street" v="East Howard Lane"/><tag k="addr:housenumber" v="4812"/><tag k="addr:postcode" v="78660"/></node><node id="-25" lat="30.381801" lon="-97.607335" changeset="false"><tag k="addr:street" v="Gregg Lane"/><tag k="addr:housenumber" v="5525"/><tag k="addr:postcode" v="78653"/></node><node id="-26" lat="30.370353" lon="-97.614402" changeset="false"><tag k="addr:street" v="Granton Cove"/><tag k="addr:housenumber" v="12337"/><tag k="addr:postcode" v="78653"/></node><node id="-27" lat="30.374012" lon="-97.623816" changeset="false"><tag k="addr:street" v="Hulsey Road"/><tag k="addr:housenumber" v="12219"/><tag k="addr:postcode" v="78653"/></node><node id="-28" lat="30.394984" lon="-97.630494" changeset="false"><tag k="addr:street" v="East Howard Lane"/><tag k="addr:housenumber" v="2411"/><tag k="addr:postcode" v="78653"/></node><node id="-29" lat="30.387232" lon="-97.648116" changeset="false"><tag k="addr:street" v="East Parmer Lane"/><tag k="addr:housenumber" v="1700"/><tag k="addr:postcode" v="78754"/></node><node id="-30" lat="30.366317" lon="-97.628002" changeset="false"><tag k="addr:street" v="East Yager Lane"/><tag k="addr:housenumber" v="4840"/><tag k="addr:postcode" v="78754"/></node><node id="-31" lat="30.398673" lon="-97.636715" changeset="false"><tag k="addr:street" v="Old Gregg Lane"/><tag k="addr:housenumber" v="13201"/><tag k="addr:postcode" v="78653"/></node><node id="-32" lat="30.384946" lon="-97.643188" changeset="false"><tag k="addr:street" v="East Yager Lane"/><tag k="addr:housenumber" v="2100"/><tag k="addr:postcode" v="78754"/></node><node id="-33" lat="30.393259" lon="-97.596818" changeset="false"><tag k="addr:street" v="Cameron Road"/><tag k="addr:housenumber" v="14100"/><tag k="addr:postcode" v="78660"/></node><node id="-34" lat="30.389132" lon="-97.623468" changeset="false"><tag k="addr:street" v="East Howard Lane"/><tag k="addr:housenumber" v="3109"/><tag k="addr:postcode" v="78653"/></node><node id="-35" lat="30.386976" lon="-97.618534" changeset="false"><tag k="addr:street" v="East Howard Lane"/><tag k="addr:housenumber" v="4601"/><tag k="addr:postcode" v="78653"/></node><node id="-36" lat="30.371101" lon="-97.626258" changeset="false"><tag k="addr:street" v="East Yager Lane"/><tag k="addr:housenumber" v="4815"/><tag k="addr:postcode" v="78754"/></node><node id="-37" lat="30.365057" lon="-97.643994" changeset="false"><tag k="addr:street" v="Barn Owl Dr"/><tag k="addr:housenumber" v="11106"/><tag k="addr:postcode" v="78754"/></node><node id="-38" lat="30.363442" lon="-97.642103" changeset="false"><tag k="addr:street" v="Centrum Dr"/><tag k="addr:housenumber" v="2913"/><tag k="addr:postcode" v="78754"/></node><node id="-39" lat="30.394788" lon="-97.62896" changeset="false"><tag k="addr:street" v="East Howard Lane"/><tag k="addr:housenumber" v="2536"/><tag k="addr:postcode" v="78660"/></node><node id="-40" lat="30.400051" lon="-97.63205" changeset="false"><tag k="addr:street" v="Immanuel Road"/><tag k="addr:housenumber" v="13400"/><tag k="addr:postcode" v="78660"/></node><node id="-41" lat="30.392272" lon="-97.645423" changeset="false"><tag k="addr:street" v="Dessau Road"/><tag k="addr:housenumber" v="12541"/><tag k="addr:postcode" v="78754"/></node><node id="-42" lat="30.403759" lon="-97.62737" changeset="false"><tag k="addr:street" v="Patterson Industrial Drive"/><tag k="addr:housenumber" v="2300"/><tag k="addr:postcode" v="78660"/></node><node id="-43" lat="30.401333" lon="-97.630588" changeset="false"><tag k="addr:street" v="Immanuel Road"/><tag k="addr:housenumber" v="13521"/><tag k="addr:postcode" v="78660"/></node><node id="-44" lat="30.400275" lon="-97.631207" changeset="false"><tag k="addr:street" v="Immanuel Road"/><tag k="addr:housenumber" v="13419"/><tag k="addr:postcode" v="78660"/></node><node id="-45" lat="30.396143" lon="-97.630835" changeset="false"><tag k="addr:street" v="East Howard Lane"/><tag k="addr:housenumber" v="2400"/><tag k="addr:postcode" v="78660"/></node><node id="-46" lat="30.38276" lon="-97.6093" changeset="false"><tag k="addr:street" v="Gregg Lane"/><tag k="addr:housenumber" v="5421"/><tag k="addr:postcode" v="78653"/></node><node id="-47" lat="30.373746" lon="-97.621089" changeset="false"><tag k="addr:street" v="Fay Street"/><tag k="addr:housenumber" v="12306"/><tag k="addr:postcode" v="78653"/></node><node id="-48" lat="30.401664" lon="-97.639416" changeset="false"><tag k="addr:street" v="Dessau Road"/><tag k="addr:housenumber" v="13301"/><tag k="addr:postcode" v="78754"/></node><node id="-49" lat="30.378446" lon="-97.610584" changeset="false"><tag k="addr:street" v="Harris Branch Parkway"/><tag k="addr:housenumber" v="12704"/><tag k="addr:postcode" v="78653"/></node><node id="-50" lat="30.367831" lon="-97.62797" changeset="false"><tag k="addr:street" v="East Yager Lane"/><tag k="addr:housenumber" v="4861"/><tag k="addr:postcode" v="78754"/></node><node id="-51" lat="30.415773" lon="-97.622534" changeset="false"><tag k="addr:street" v="Immanuel Road"/><tag k="addr:housenumber" v="14709"/><tag k="addr:postcode" v="78660"/></node><node id="-52" lat="30.363778" lon="-97.642033" changeset="false"><tag k="addr:street" v="Centrum Dr"/><tag k="addr:housenumber" v="2905"/><tag k="addr:postcode" v="78754"/></node><node id="-53" lat="30.363614" lon="-97.642065" changeset="false"><tag k="addr:street" v="Centrum Dr"/><tag k="addr:housenumber" v="2909"/><tag k="addr:postcode" v="78754"/></node><node id="-54" lat="30.371393" lon="-97.615118" changeset="false"><tag k="addr:street" v="Granton Cove"/><tag k="addr:housenumber" v="12420"/><tag k="addr:postcode" v="78653"/></node><node id="-55" lat="30.361959" lon="-97.644563" changeset="false"><tag k="addr:street" v="Cain Harvest Cove"/><tag k="addr:housenumber" v="11005"/><tag k="addr:postcode" v="78754"/></node><node id="-56" lat="30.399866" lon="-97.631294" changeset="false"><tag k="addr:street" v="Immanuel Road"/><tag k="addr:housenumber" v="13415"/><tag k="addr:postcode" v="78660"/></node><node id="-57" lat="30.362618" lon="-97.642478" changeset="false"><tag k="addr:street" v="Cain Harvest Cove"/><tag k="addr:housenumber" v="11120"/><tag k="addr:postcode" v="78754"/></node><node id="-58" lat="30.362181" lon="-97.641982" changeset="false"><tag k="addr:street" v="Centrum Dr"/><tag k="addr:housenumber" v="3105"/><tag k="addr:postcode" v="78754"/></node><node id="-59" lat="30.373641" lon="-97.624019" changeset="false"><tag k="addr:street" v="Hulsey Road"/><tag k="addr:housenumber" v="12201"/><tag k="addr:postcode" v="78653"/></node><node id="-60" lat="30.389021" lon="-97.622978" changeset="false"><tag k="addr:street" v="East Howard Lane"/><tag k="addr:housenumber" v="3119"/><tag k="addr:postcode" v="78653"/></node><node id="-61" lat="30.397405" lon="-97.633614" changeset="false"><tag k="addr:street" v="East Howard Lane"/><tag k="addr:housenumber" v="2219"/><tag k="addr:postcode" v="78653"/></node><node id="-62" lat="30.37787" lon="-97.622069" changeset="false"><tag k="addr:street" v="Hulsey Road"/><tag k="addr:housenumber" v="12400"/><tag k="addr:postcode" v="78653"/></node><node id="-63" lat="30.376756" lon="-97.610497" changeset="false"><tag k="addr:street" v="Harris Branch Parkway"/><tag k="addr:housenumber" v="12608"/><tag k="addr:postcode" v="78653"/></node><node id="-64" lat="30.374713" lon="-97.623121" changeset="false"><tag k="addr:street" v="Hulsey Road"/><tag k="addr:housenumber" v="12309"/><tag k="addr:postcode" v="78653"/></node><node id="-65" lat="30.371507" lon="-97.612808" changeset="false"><tag k="addr:street" v="Drummond Drive"/><tag k="addr:housenumber" v="12325"/><tag k="addr:postcode" v="78653"/></node><node id="-66" lat="30.387767" lon="-97.616139" changeset="false"><tag k="addr:street" v="East Howard Lane"/><tag k="addr:housenumber" v="4608"/><tag k="addr:postcode" v="78660"/></node><node id="-67" lat="30.363748" lon="-97.63729" changeset="false"><tag k="addr:street" v="Samsung Boulevard"/><tag k="addr:housenumber" v="11550 1/2"/><tag k="addr:postcode" v="78754"/></node><node id="-68" lat="30.391023" lon="-97.627536" changeset="false"><tag k="addr:street" v="East Howard Lane"/><tag k="addr:housenumber" v="2801"/><tag k="addr:postcode" v="78653"/></node><node id="-69" lat="30.374696" lon="-97.630806" changeset="false"><tag k="addr:street" v="East Parmer Lane"/><tag k="addr:housenumber" v="3215"/><tag k="addr:postcode" v="78754"/></node><node id="-70" lat="30.355838" lon="-97.644823" changeset="false"><tag k="addr:street" v="Night Camp Dr"/><tag k="addr:housenumber" v="10901 1/2"/><tag k="addr:postcode" v="78754"/></node><node id="-71" lat="30.40599" lon="-97.629764" changeset="false"><tag k="addr:street" v="Crystal Bend Drive"/><tag k="addr:housenumber" v="2101 1/2"/><tag k="addr:postcode" v="78660"/></node><node id="-72" lat="30.372231" lon="-97.625589" changeset="false"><tag k="addr:street" v="East Yager Lane"/><tag k="addr:housenumber" v="4801"/><tag k="addr:postcode" v="78754"/></node><node id="-73" lat="30.405971" lon="-97.629866" changeset="false"><tag k="addr:street" v="Crystal Bend Drive"/><tag k="addr:housenumber" v="2101"/><tag k="addr:postcode" v="78660"/></node><node id="-74" lat="30.375197" lon="-97.63078" changeset="false"><tag k="addr:street" v="East Parmer Lane"/><tag k="addr:housenumber" v="3401"/><tag k="addr:postcode" v="78754"/></node><node id="-75" lat="30.361553" lon="-97.645289" changeset="false"><tag k="addr:street" v="Long Day Dr"/><tag k="addr:housenumber" v="3119"/><tag k="addr:postcode" v="78754"/></node><node id="-76" lat="30.364263" lon="-97.641973" changeset="false"><tag k="addr:street" v="Barn Owl Dr"/><tag k="addr:housenumber" v="11232"/><tag k="addr:postcode" v="78754"/></node><node id="-77" lat="30.363266" lon="-97.642117" changeset="false"><tag k="addr:street" v="Centrum Dr"/><tag k="addr:housenumber" v="3001"/><tag k="addr:postcode" v="78754"/></node><node id="-78" lat="30.362904" lon="-97.642094" changeset="false"><tag k="addr:street" v="Centrum Dr"/><tag k="addr:housenumber" v="3009"/><tag k="addr:postcode" v="78754"/></node><node id="-79" lat="30.362851" lon="-97.643986" changeset="false"><tag k="addr:street" v="Cain Harvest Cove"/><tag k="addr:housenumber" v="3004"/><tag k="addr:postcode" v="78754"/></node><node id="-80" lat="30.362384" lon="-97.643925" changeset="false"><tag k="addr:street" v="Cain Harvest Cove"/><tag k="addr:housenumber" v="11012"/><tag k="addr:postcode" v="78754"/></node><node id="-81" lat="30.399048" lon="-97.636388" changeset="false"><tag k="addr:street" v="Old Gregg Lane"/><tag k="addr:housenumber" v="13205"/><tag k="addr:postcode" v="78653"/></node><node id="-82" lat="30.406157" lon="-97.630537" changeset="false"><tag k="addr:street" v="Crystal Bend Drive"/><tag k="addr:housenumber" v="2021"/><tag k="addr:postcode" v="78660"/></node><node id="-83" lat="30.396527" lon="-97.631884" changeset="false"><tag k="addr:street" v="East Howard Lane"/><tag k="addr:housenumber" v="2310"/><tag k="addr:postcode" v="78660"/></node><node id="-84" lat="30.37549" lon="-97.62345" changeset="false"><tag k="addr:street" v="Hulsey Road"/><tag k="addr:housenumber" v="12316"/><tag k="addr:postcode" v="78653"/></node><node id="-85" lat="30.38423" lon="-97.612784" changeset="false"><tag k="addr:street" v="Gregg Lane"/><tag k="addr:housenumber" v="5205"/><tag k="addr:postcode" v="78653"/></node><node id="-86" lat="30.390337" lon="-97.62416" changeset="false"><tag k="addr:street" v="East Howard Lane"/><tag k="addr:housenumber" v="3010"/><tag k="addr:postcode" v="78653"/></node><node id="-87" lat="30.373235" lon="-97.636073" changeset="false"><tag k="addr:street" v="Samsung Boulevard"/><tag k="addr:housenumber" v="12100"/><tag k="addr:postcode" v="78754"/></node><node id="-88" lat="30.384834" lon="-97.613785" changeset="false"><tag k="addr:street" v="Gregg Lane"/><tag k="addr:housenumber" v="5101"/><tag k="addr:postcode" v="78653"/></node><node id="-89" lat="30.388177" lon="-97.625919" changeset="false"><tag k="addr:street" v="East Howard Lane"/><tag k="addr:housenumber" v="3001"/><tag k="addr:postcode" v="78653"/></node><node id="-90" lat="30.38692" lon="-97.647223" changeset="false"><tag k="addr:street" v="East Parmer Lane"/><tag k="addr:housenumber" v="1714"/><tag k="addr:postcode" v="78754"/></node><node id="-91" lat="30.402149" lon="-97.634404" changeset="false"><tag k="addr:street" v="East Howard Lane"/><tag k="addr:housenumber" v="1900"/><tag k="addr:postcode" v="78660"/></node><node id="-92" lat="30.390986" lon="-97.625821" changeset="false"><tag k="addr:street" v="East Howard Lane"/><tag k="addr:housenumber" v="2906"/><tag k="addr:postcode" v="78653"/></node><node id="-93" lat="30.403976" lon="-97.629675" changeset="false"><tag k="addr:street" v="Immanuel Road"/><tag k="addr:housenumber" v="13720"/><tag k="addr:postcode" v="78660"/></node><node id="-94" lat="30.400337" lon="-97.630566" changeset="false"><tag k="addr:street" v="Immanuel Road"/><tag k="addr:housenumber" v="13501"/><tag k="addr:postcode" v="78660"/></node><node id="-95" lat="30.369405" lon="-97.63444" changeset="false"><tag k="addr:street" v="Samsung Boulevard"/><tag k="addr:housenumber" v="11909"/><tag k="addr:postcode" v="78754"/></node><node id="-96" lat="30.382141" lon="-97.643101" changeset="false"><tag k="addr:street" v="East Parmer Lane"/><tag k="addr:housenumber" v="2101"/><tag k="addr:postcode" v="78754"/></node><node id="-97" lat="30.37023" lon="-97.614416" changeset="false"><tag k="addr:street" v="Granton Cove"/><tag k="addr:housenumber" v="12333"/><tag k="addr:postcode" v="78653"/></node><node id="-98" lat="30.374201" lon="-97.623233" changeset="false"><tag k="addr:street" v="Bales Street"/><tag k="addr:housenumber" v="4900"/><tag k="addr:postcode" v="78653"/></node><node id="-99" lat="30.378443" lon="-97.629451" changeset="false"><tag k="addr:street" v="Samsung Boulevard"/><tag k="addr:housenumber" v="12301"/><tag k="addr:postcode" v="78653"/></node><node id="-100" lat="30.386234" lon="-97.645807" changeset="false"><tag k="addr:street" v="East Parmer Lane"/><tag k="addr:housenumber" v="1800"/><tag k="addr:postcode" v="78754"/></node><node id="-101" lat="30.361967" lon="-97.644164" changeset="false"><tag k="addr:street" v="Cain Harvest Cove"/><tag k="addr:housenumber" v="11013"/><tag k="addr:postcode" v="78754"/></node><node id="-102" lat="30.36426" lon="-97.641806" changeset="false"><tag k="addr:street" v="Barn Owl Dr"/><tag k="addr:housenumber" v="11236"/><tag k="addr:postcode" v="78754"/></node><node id="-103" lat="30.399058" lon="-97.630889" changeset="false"><tag k="addr:street" v="Immanuel Road"/><tag k="addr:housenumber" v="13403"/><tag k="addr:postcode" v="78660"/></node><node id="-104" lat="30.36236" lon="-97.644347" changeset="false"><tag k="addr:street" v="Cain Harvest Cove"/><tag k="addr:housenumber" v="11004"/><tag k="addr:postcode" v="78754"/></node><node id="-105" lat="30.362424" lon="-97.643748" changeset="false"><tag k="addr:street" v="Cain Harvest Cove"/><tag k="addr:housenumber" v="11016"/><tag k="addr:postcode" v="78754"/></node><node id="-106" lat="30.402645" lon="-97.630454" changeset="false"><tag k="addr:street" v="Immanuel Road"/><tag k="addr:housenumber" v="13620"/><tag k="addr:postcode" v="78660"/></node><node id="-107" lat="30.397904" lon="-97.633577" changeset="false"><tag k="addr:street" v="East Howard Lane"/><tag k="addr:housenumber" v="2201"/><tag k="addr:postcode" v="78660"/></node><node id="-108" lat="30.369499" lon="-97.620678" changeset="false"><tag k="addr:street" v="East Parmer Lane"/><tag k="addr:housenumber" v="5401"/><tag k="addr:postcode" v="78754"/></node><node id="-109" lat="30.37669" lon="-97.627501" changeset="false"><tag k="addr:street" v="East Yager Lane"/><tag k="addr:housenumber" v="4000"/><tag k="addr:postcode" v="78653"/></node><node id="-110" lat="30.374459" lon="-97.621145" changeset="false"><tag k="addr:street" v="Ryden Street"/><tag k="addr:housenumber" v="12331"/><tag k="addr:postcode" v="78653"/></node><node id="-111" lat="30.402299" lon="-97.630739" changeset="false"><tag k="addr:street" v="Immanuel Road"/><tag k="addr:housenumber" v="13610"/><tag k="addr:postcode" v="78660"/></node><node id="-112" lat="30.377113" lon="-97.614008" changeset="false"><tag k="addr:street" v="Harris Branch Parkway"/><tag k="addr:housenumber" v="12550"/><tag k="addr:postcode" v="78653"/></node><node id="-113" lat="30.360531" lon="-97.631031" changeset="false"><tag k="addr:street" v="Cameron Road"/><tag k="addr:housenumber" v="11518"/><tag k="addr:postcode" v="78754"/></node><node id="-114" lat="30.373121" lon="-97.62055" changeset="false"><tag k="addr:street" v="Fay Street"/><tag k="addr:housenumber" v="12305"/><tag k="addr:postcode" v="78653"/></node><node id="-115" lat="30.362388" lon="-97.644541" changeset="false"><tag k="addr:street" v="Cain Harvest Cove"/><tag k="addr:housenumber" v="11000"/><tag k="addr:postcode" v="78754"/></node><node id="-116" lat="30.399747" lon="-97.636056" changeset="false"><tag k="addr:street" v="Old Gregg Lane"/><tag k="addr:housenumber" v="13213"/><tag k="addr:postcode" v="78653"/></node><node id="-117" lat="30.356994" lon="-97.634796" changeset="false"><tag k="addr:street" v="Cameron Road"/><tag k="addr:housenumber" v="11216"/><tag k="addr:postcode" v="78754"/></node><node id="-118" lat="30.36203" lon="-97.64375" changeset="false"><tag k="addr:street" v="Cain Harvest Cove"/><tag k="addr:housenumber" v="11021"/><tag k="addr:postcode" v="78754"/></node><node id="-119" lat="30.364377" lon="-97.642438" changeset="false"><tag k="addr:street" v="Barn Owl Dr"/><tag k="addr:housenumber" v="11224"/><tag k="addr:postcode" v="78754"/></node><node id="-120" lat="30.402988" lon="-97.628748" changeset="false"><tag k="addr:street" v="Patterson Industrial Drive"/><tag k="addr:housenumber" v="2337"/><tag k="addr:postcode" v="78660"/></node><node id="-121" lat="30.36133" lon="-97.640159" changeset="false"><tag k="addr:street" v="Samsung Boulevard"/><tag k="addr:housenumber" v="11300"/><tag k="addr:postcode" v="78754"/></node><node id="-122" lat="30.399082" lon="-97.631946" changeset="false"><tag k="addr:street" v="Immanuel Road"/><tag k="addr:housenumber" v="13325"/><tag k="addr:postcode" v="78660"/></node><node id="-123" lat="30.400979" lon="-97.631538" changeset="false"><tag k="addr:street" v="Immanuel Road"/><tag k="addr:housenumber" v="13500"/><tag k="addr:postcode" v="78660"/></node><node id="-124" lat="30.376552" lon="-97.631801" changeset="false"><tag k="addr:street" v="East Parmer Lane"/><tag k="addr:housenumber" v="3124 1/2"/><tag k="addr:postcode" v="78754"/></node><node id="-125" lat="30.388839" lon="-97.622469" changeset="false"><tag k="addr:street" v="East Howard Lane"/><tag k="addr:housenumber" v="3131"/><tag k="addr:postcode" v="78653"/></node><node id="-126" lat="30.398423" lon="-97.63284" changeset="false"><tag k="addr:street" v="East Howard Lane"/><tag k="addr:housenumber" v="2110"/><tag k="addr:postcode" v="78660"/></node><node id="-127" lat="30.389741" lon="-97.646469" changeset="false"><tag k="addr:street" v="Dessau Road"/><tag k="addr:housenumber" v="12433"/><tag k="addr:postcode" v="78754"/></node><node id="-128" lat="30.403728" lon="-97.629165" changeset="false"><tag k="addr:street" v="Immanuel Road"/><tag k="addr:housenumber" v="13711"/><tag k="addr:postcode" v="78660"/></node><node id="-129" lat="30.382969" lon="-97.608801" changeset="false"><tag k="addr:street" v="Gregg Lane"/><tag k="addr:housenumber" v="5424"/><tag k="addr:postcode" v="78660"/></node><node id="-130" lat="30.388904" lon="-97.62268" changeset="false"><tag k="addr:street" v="East Howard Lane"/><tag k="addr:housenumber" v="3125"/><tag k="addr:postcode" v="78653"/></node><node id="-131" lat="30.400564" lon="-97.63505" changeset="false"><tag k="addr:street" v="Old Gregg Lane"/><tag k="addr:housenumber" v="13313"/><tag k="addr:postcode" v="78653"/></node><node id="-132" lat="30.362735" lon="-97.64209" changeset="false"><tag k="addr:street" v="Centrum Dr"/><tag k="addr:housenumber" v="3013"/><tag k="addr:postcode" v="78754"/></node><node id="-133" lat="30.362673" lon="-97.643936" changeset="false"><tag k="addr:street" v="Cain Harvest Cove"/><tag k="addr:housenumber" v="3008"/><tag k="addr:postcode" v="78754"/></node><node id="-134" lat="30.398104" lon="-97.633588" changeset="false"><tag k="addr:street" v="East Howard Lane"/><tag k="addr:housenumber" v="2115"/><tag k="addr:postcode" v="78660"/></node><node id="-135" lat="30.362002" lon="-97.642339" changeset="false"><tag k="addr:street" v="Centrum Dr"/><tag k="addr:housenumber" v="3106"/><tag k="addr:postcode" v="78754"/></node><node id="-136" lat="30.39802" lon="-97.631425" changeset="false"><tag k="addr:street" v="Immanuel Road"/><tag k="addr:housenumber" v="13317"/><tag k="addr:postcode" v="78660"/></node><node id="-137" lat="30.362322" lon="-97.646142" changeset="false"><tag k="addr:street" v="Short Springs Dr"/><tag k="addr:housenumber" v="10905"/><tag k="addr:postcode" v="78754"/></node><node id="-138" lat="30.360376" lon="-97.645158" changeset="false"><tag k="addr:street" v="Long Day Dr"/><tag k="addr:housenumber" v="3219"/><tag k="addr:postcode" v="78754"/></node><node id="-139" lat="30.386519" lon="-97.646403" changeset="false"><tag k="addr:street" v="East Parmer Lane"/><tag k="addr:housenumber" v="1728"/><tag k="addr:postcode" v="78754"/></node><node id="-140" lat="30.367754" lon="-97.627665" changeset="false"><tag k="addr:street" v="East Yager Lane"/><tag k="addr:housenumber" v="4860"/><tag k="addr:postcode" v="78754"/></node><node id="-141" lat="30.363336" lon="-97.637651" changeset="false"><tag k="addr:street" v="Samsung Boulevard"/><tag k="addr:housenumber" v="11544"/><tag k="addr:postcode" v="78754"/></node><node id="-142" lat="30.360199" lon="-97.641911" changeset="false"><tag k="addr:street" v="Samsung Boulevard"/><tag k="addr:housenumber" v="11201 1/2"/><tag k="addr:postcode" v="78754"/></node><node id="-143" lat="30.401941" lon="-97.621313" changeset="false"><tag k="addr:street" v="Crystal Bend Drive"/><tag k="addr:housenumber" v="2701"/><tag k="addr:postcode" v="78660"/></node><node id="-144" lat="30.398728" lon="-97.64121" changeset="false"><tag k="addr:street" v="Dessau Road"/><tag k="addr:housenumber" v="13015"/><tag k="addr:postcode" v="78754"/></node><node id="-145" lat="30.403019" lon="-97.624477" changeset="false"><tag k="addr:street" v="Crystal Bend Drive"/><tag k="addr:housenumber" v="2509"/><tag k="addr:postcode" v="78660"/></node><node id="-146" lat="30.395872" lon="-97.598205" changeset="false"><tag k="addr:street" v="Killingsworth Lane"/><tag k="addr:housenumber" v="5601"/><tag k="addr:postcode" v="78660"/></node><node id="-147" lat="30.388736" lon="-97.621996" changeset="false"><tag k="addr:street" v="East Howard Lane"/><tag k="addr:housenumber" v="3211"/><tag k="addr:postcode" v="78653"/></node><node id="-148" lat="30.381515" lon="-97.615604" changeset="false"><tag k="addr:street" v="East Howard Lane"/><tag k="addr:housenumber" v="5121"/><tag k="addr:postcode" v="78653"/></node><node id="-149" lat="30.37372" lon="-97.61213" changeset="false"><tag k="addr:street" v="Harris Branch Parkway"/><tag k="addr:housenumber" v="12408"/><tag k="addr:postcode" v="78653"/></node><node id="-150" lat="30.393987" lon="-97.628076" changeset="false"><tag k="addr:street" v="East Howard Lane"/><tag k="addr:housenumber" v="2700"/><tag k="addr:postcode" v="78660"/></node><node id="-151" lat="30.399428" lon="-97.636212" changeset="false"><tag k="addr:street" v="Old Gregg Lane"/><tag k="addr:housenumber" v="13209"/><tag k="addr:postcode" v="78653"/></node><node id="-152" lat="30.380313" lon="-97.607681" changeset="false"><tag k="addr:street" v="Harris Branch Parkway"/><tag k="addr:housenumber" v="13010"/><tag k="addr:postcode" v="78653"/></node><node id="-153" lat="30.36587" lon="-97.628044" changeset="false"><tag k="addr:street" v="East Yager Lane"/><tag k="addr:housenumber" v="4844"/><tag k="addr:postcode" v="78754"/></node><node id="-154" lat="30.405045" lon="-97.628448" changeset="false"><tag k="addr:street" v="Immanuel Road"/><tag k="addr:housenumber" v="13815"/><tag k="addr:postcode" v="78660"/></node><node id="-155" lat="30.404472" lon="-97.627213" changeset="false"><tag k="addr:street" v="Crystal Bend Drive"/><tag k="addr:housenumber" v="2301"/><tag k="addr:postcode" v="78660"/></node><node id="-156" lat="30.399043" lon="-97.640509" changeset="false"><tag k="addr:street" v="Dessau Road"/><tag k="addr:housenumber" v="13021"/><tag k="addr:postcode" v="78754"/></node><node id="-157" lat="30.403195" lon="-97.625541" changeset="false"><tag k="addr:street" v="Crystal Bend Drive"/><tag k="addr:housenumber" v="2405"/><tag k="addr:postcode" v="78660"/></node><node id="-158" lat="30.371751" lon="-97.622502" changeset="false"><tag k="addr:street" v="Bobwar Street"/><tag k="addr:housenumber" v="5203"/><tag k="addr:postcode" v="78653"/></node><node id="-159" lat="30.396966" lon="-97.64139" changeset="false"><tag k="addr:street" v="Dessau Road"/><tag k="addr:housenumber" v="12909"/><tag k="addr:postcode" v="78754"/></node><node id="-160" lat="30.397056" lon="-97.632475" changeset="false"><tag k="addr:street" v="East Howard Lane"/><tag k="addr:housenumber" v="2222"/><tag k="addr:postcode" v="78660"/></node><node id="-161" lat="30.35945" lon="-97.639949" changeset="false"><tag k="addr:street" v="Taebaek Dr"/><tag k="addr:housenumber" v="3509 1/2"/><tag k="addr:postcode" v="78754"/></node><node id="-162" lat="30.360228" lon="-97.640517" changeset="false"><tag k="addr:street" v="Samsung Boulevard"/><tag k="addr:housenumber" v="11221"/><tag k="addr:postcode" v="78754"/></node><node id="-163" lat="30.385363" lon="-97.615219" changeset="false"><tag k="addr:street" v="East Howard Lane"/><tag k="addr:housenumber" v="5001"/><tag k="addr:postcode" v="78653"/></node><node id="-164" lat="30.383614" lon="-97.642335" changeset="false"><tag k="addr:street" v="East Yager Lane"/><tag k="addr:housenumber" v="2205"/><tag k="addr:postcode" v="78754"/></node><node id="-165" lat="30.375948" lon="-97.622347" changeset="false"><tag k="addr:street" v="Hulsey Road"/><tag k="addr:housenumber" v="12325"/><tag k="addr:postcode" v="78653"/></node><node id="-166" lat="30.363202" lon="-97.630025" changeset="false"><tag k="addr:street" v="East Yager Lane"/><tag k="addr:housenumber" v="4915"/><tag k="addr:postcode" v="78754"/></node><node id="-167" lat="30.374351" lon="-97.623423" changeset="false"><tag k="addr:street" v="Hulsey Road"/><tag k="addr:housenumber" v="12301"/><tag k="addr:postcode" v="78653"/></node><node id="-168" lat="30.364003" lon="-97.629778" changeset="false"><tag k="addr:street" v="East Yager Lane"/><tag k="addr:housenumber" v="4905"/><tag k="addr:postcode" v="78754"/></node><node id="-169" lat="30.372592" lon="-97.622824" changeset="false"><tag k="addr:street" v="Bobwar Street"/><tag k="addr:housenumber" v="5100"/><tag k="addr:postcode" v="78653"/></node><node id="-170" lat="30.353271" lon="-97.641182" changeset="false"><tag k="addr:street" v="Cameron Road"/><tag k="addr:housenumber" v="10714"/><tag k="addr:postcode" v="78754"/></node><node id="-171" lat="30.379641" lon="-97.609146" changeset="false"><tag k="addr:street" v="Harris Branch Parkway"/><tag k="addr:housenumber" v="12800"/><tag k="addr:postcode" v="78653"/></node><node id="-172" lat="30.388969" lon="-97.620733" changeset="false"><tag k="addr:street" v="East Howard Lane"/><tag k="addr:housenumber" v="3304"/><tag k="addr:postcode" v="78660"/></node><node id="-173" lat="30.384435" lon="-97.611791" changeset="false"><tag k="addr:street" v="Gregg Lane"/><tag k="addr:housenumber" v="5300"/><tag k="addr:postcode" v="78660"/></node><node id="-174" lat="30.404456" lon="-97.625509" changeset="false"><tag k="addr:street" v="Crystal Bend Drive"/><tag k="addr:housenumber" v="2400"/><tag k="addr:postcode" v="78660"/></node><node id="-175" lat="30.394564" lon="-97.643987" changeset="false"><tag k="addr:street" v="Dessau Road"/><tag k="addr:housenumber" v="12609"/><tag k="addr:postcode" v="78754"/></node><node id="-176" lat="30.366983" lon="-97.628398" changeset="false"><tag k="addr:street" v="East Yager Lane"/><tag k="addr:housenumber" v="4829"/><tag k="addr:postcode" v="78754"/></node><node id="-177" lat="30.401295" lon="-97.61959" changeset="false"><tag k="addr:street" v="Crystal Bend Drive"/><tag k="addr:housenumber" v="2901"/><tag k="addr:postcode" v="78660"/></node><node id="-178" lat="30.387863" lon="-97.647626" changeset="false"><tag k="addr:street" v="Dessau Road"/><tag k="addr:housenumber" v="12309"/><tag k="addr:postcode" v="78754"/></node><node id="-179" lat="30.361701" lon="-97.645262" changeset="false"><tag k="addr:street" v="Long Day Dr"/><tag k="addr:housenumber" v="3117"/><tag k="addr:postcode" v="78754"/></node><node id="-180" lat="30.376519" lon="-97.619682" changeset="false"><tag k="addr:street" v="Hulsey Road"/><tag k="addr:housenumber" v="12401"/><tag k="addr:postcode" v="78653"/></node><node id="-181" lat="30.362363" lon="-97.642008" changeset="false"><tag k="addr:street" v="Centrum Dr"/><tag k="addr:housenumber" v="3101"/><tag k="addr:postcode" v="78754"/></node><node id="-182" lat="30.361986" lon="-97.64395" changeset="false"><tag k="addr:street" v="Cain Harvest Cove"/><tag k="addr:housenumber" v="11017"/><tag k="addr:postcode" v="78754"/></node><node id="-183" lat="30.36234" lon="-97.64413" changeset="false"><tag k="addr:street" v="Cain Harvest Cove"/><tag k="addr:housenumber" v="11008"/><tag k="addr:postcode" v="78754"/></node><node id="-184" lat="30.364092" lon="-97.644336" changeset="false"><tag k="addr:street" v="Long Day Dr"/><tag k="addr:housenumber" v="2915"/><tag k="addr:postcode" v="78754"/></node><node id="-185" lat="30.40323" lon="-97.629263" changeset="false"><tag k="addr:street" v="Immanuel Road"/><tag k="addr:housenumber" v="13701"/><tag k="addr:postcode" v="78660"/></node><node id="-186" lat="30.390427" lon="-97.626019" changeset="false"><tag k="addr:street" v="East Howard Lane"/><tag k="addr:housenumber" v="2909"/><tag k="addr:postcode" v="78653"/></node><node id="-187" lat="30.390389" lon="-97.626056" changeset="false"><tag k="addr:street" v="East Howard Lane"/><tag k="addr:housenumber" v="2809"/><tag k="addr:postcode" v="78653"/></node><node id="-188" lat="30.361399" lon="-97.630709" changeset="false"><tag k="addr:street" v="Cameron Road"/><tag k="addr:housenumber" v="11608"/><tag k="addr:postcode" v="78754"/></node><node id="-189" lat="30.361352" lon="-97.630591" changeset="false"><tag k="addr:street" v="Cameron Road"/><tag k="addr:housenumber" v="11604"/><tag k="addr:postcode" v="78754"/></node><node id="-190" lat="30.362015" lon="-97.6381" changeset="false"><tag k="addr:street" v="Church Canyon Dr"/><tag k="addr:housenumber" v="11500"/><tag k="addr:postcode" v="78754"/></node><node id="-191" lat="30.362002" lon="-97.63807" changeset="false"><tag k="addr:street" v="Church Canyon Dr"/><tag k="addr:housenumber" v="11500 1/2"/><tag k="addr:postcode" v="78754"/></node></osm>