<?xml version="1.0" encoding="UTF-8"?><osm version="0.6" generator="github.com/aaronlidman/osm-and-geojson"><node id="-1" lat="30.403654" lon="-97.760804" changeset="false"><tag k="addr:street" v="Raindrop Cove"/><tag k="addr:housenumber" v="5604"/><tag k="addr:postcode" v="78759"/></node><node id="-2" lat="30.406387" lon="-97.764481" changeset="false"><tag k="addr:street" v="Grand Teton Court"/><tag k="addr:housenumber" v="10103"/><tag k="addr:postcode" v="78759"/></node><node id="-3" lat="30.410876" lon="-97.768073" changeset="false"><tag k="addr:street" v="Lost Horizon Drive"/><tag k="addr:housenumber" v="6542"/><tag k="addr:postcode" v="78759"/></node><node id="-4" lat="30.410644" lon="-97.768138" changeset="false"><tag k="addr:street" v="Lost Horizon Drive"/><tag k="addr:housenumber" v="6540"/><tag k="addr:postcode" v="78759"/></node><node id="-5" lat="30.403592" lon="-97.761415" changeset="false"><tag k="addr:street" v="Raindrop Cove"/><tag k="addr:housenumber" v="5701"/><tag k="addr:postcode" v="78759"/></node><node id="-6" lat="30.401255" lon="-97.76723" changeset="false"><tag k="addr:street" v="Bluegrass Drive"/><tag k="addr:housenumber" v="9601"/><tag k="addr:postcode" v="78759"/></node><node id="-7" lat="30.402817" lon="-97.761311" changeset="false"><tag k="addr:street" v="Misty Hill Cove"/><tag k="addr:housenumber" v="5715"/><tag k="addr:postcode" v="78759"/></node><node id="-8" lat="30.401927" lon="-97.761629" changeset="false"><tag k="addr:street" v="Misty Hill Cove"/><tag k="addr:housenumber" v="5705"/><tag k="addr:postcode" v="78759"/></node><node id="-9" lat="30.410026" lon="-97.768321" changeset="false"><tag k="addr:street" v="Lost Horizon Drive"/><tag k="addr:housenumber" v="6534"/><tag k="addr:postcode" v="78759"/></node><node id="-10" lat="30.405895" lon="-97.765864" changeset="false"><tag k="addr:street" v="Sausalito Drive"/><tag k="addr:housenumber" v="10007"/><tag k="addr:postcode" v="78759"/></node><node id="-11" lat="30.401095" lon="-97.765819" changeset="false"><tag k="addr:street" v="Lost Horizon Drive"/><tag k="addr:housenumber" v="5807"/><tag k="addr:postcode" v="78759"/></node><node id="-12" lat="30.404432" lon="-97.762822" changeset="false"><tag k="addr:street" v="Raindrop Cove"/><tag k="addr:housenumber" v="5713"/><tag k="addr:postcode" v="78759"/></node><node id="-13" lat="30.401321" lon="-97.763403" changeset="false"><tag k="addr:street" v="Lost Horizon Drive"/><tag k="addr:housenumber" v="5717"/><tag k="addr:postcode" v="78759"/></node><node id="-14" lat="30.402415" lon="-97.767463" changeset="false"><tag k="addr:street" v="Lost Horizon Drive"/><tag k="addr:housenumber" v="6000"/><tag k="addr:postcode" v="78759"/></node><node id="-15" lat="30.409005" lon="-97.769756" changeset="false"><tag k="addr:street" v="Lost Horizon Drive"/><tag k="addr:housenumber" v="6516"/><tag k="addr:postcode" v="78759"/></node><node id="-16" lat="30.407009" lon="-97.766526" changeset="false"><tag k="addr:street" v="Sausalito Drive"/><tag k="addr:housenumber" v="10106"/><tag k="addr:postcode" v="78759"/></node><node id="-17" lat="30.398817" lon="-97.764796" changeset="false"><tag k="addr:street" v="Ketona Cove"/><tag k="addr:housenumber" v="9500"/><tag k="addr:postcode" v="78759"/></node><node id="-18" lat="30.403758" lon="-97.7623" changeset="false"><tag k="addr:street" v="Misty Hill Cove"/><tag k="addr:housenumber" v="5728"/><tag k="addr:postcode" v="78759"/></node><node id="-19" lat="30.402693" lon="-97.761278" changeset="false"><tag k="addr:street" v="Greenledge Cove"/><tag k="addr:housenumber" v="5700"/><tag k="addr:postcode" v="78759"/></node><node id="-20" lat="30.402661" lon="-97.761379" changeset="false"><tag k="addr:street" v="Greenledge Cove"/><tag k="addr:housenumber" v="5704"/><tag k="addr:postcode" v="78759"/></node></osm>