<?xml version="1.0" encoding="UTF-8"?><osm version="0.6" generator="github.com/aaronlidman/osm-and-geojson"><node id="-1" lat="30.30993" lon="-97.921601" changeset="false"><tag k="addr:street" v="Sonoma Drive"/><tag k="addr:housenumber" v="11801 1/2"/><tag k="coa:place_id" v="3041375"/></node><node id="-2" lat="30.33755" lon="-97.961516" changeset="false"><tag k="addr:street" v="Sebastians Run"/><tag k="addr:housenumber" v="137"/><tag k="coa:place_id" v="3116935"/></node><node id="-3" lat="30.338106" lon="-97.95588" changeset="false"><tag k="addr:street" v="Varco Drive"/><tag k="addr:housenumber" v="222"/><tag k="coa:place_id" v="3153182"/></node><node id="-4" lat="30.338392" lon="-97.960985" changeset="false"><tag k="addr:street" v="Sebastians Run"/><tag k="addr:housenumber" v="205"/><tag k="coa:place_id" v="3116938"/></node><node id="-5" lat="30.337782" lon="-97.960762" changeset="false"><tag k="addr:street" v="Lakota Pass"/><tag k="addr:housenumber" v="152"/><tag k="coa:place_id" v="3126114"/></node><node id="-6" lat="30.312054" lon="-97.923246" changeset="false"><tag k="addr:street" v="Tulare Drive"/><tag k="addr:housenumber" v="12024"/><tag k="coa:place_id" v="164243"/></node><node id="-7" lat="30.307917" lon="-97.930576" changeset="false"><tag k="addr:street" v="Torrance Court"/><tag k="addr:housenumber" v="12301"/><tag k="coa:place_id" v="204121"/></node><node id="-8" lat="30.322617" lon="-97.954834" changeset="false"><tag k="addr:street" v="Ranch Road 620 South"/><tag k="addr:housenumber" v="3555"/><tag k="coa:place_id" v="194569"/></node><node id="-9" lat="30.334943" lon="-97.957696" changeset="false"><tag k="addr:street" v="Whitley Drive"/><tag k="addr:housenumber" v="107"/><tag k="coa:place_id" v="3117003"/></node><node id="-10" lat="30.334577" lon="-97.956691" changeset="false"><tag k="addr:street" v="Whitley Drive"/><tag k="addr:housenumber" v="102"/><tag k="coa:place_id" v="3149197"/></node><node id="-11" lat="30.311558" lon="-97.923931" changeset="false"><tag k="addr:street" v="Tulare Drive"/><tag k="addr:housenumber" v="12040"/><tag k="coa:place_id" v="164236"/></node><node id="-12" lat="30.336256" lon="-97.961247" changeset="false"><tag k="addr:street" v="Sebastians Run"/><tag k="addr:housenumber" v="138"/><tag k="coa:place_id" v="3116921"/></node><node id="-13" lat="30.33549" lon="-97.959009" changeset="false"><tag k="addr:street" v="Whitley Drive"/><tag k="addr:housenumber" v="126"/><tag k="coa:place_id" v="3116980"/></node><node id="-14" lat="30.31122" lon="-97.925261" changeset="false"><tag k="addr:street" v="Napa Drive"/><tag k="addr:housenumber" v="3016"/><tag k="coa:place_id" v="212033"/></node><node id="-15" lat="30.310163" lon="-97.932837" changeset="false"><tag k="addr:street" v="Normandy Ridge Lane"/><tag k="addr:housenumber" v="3606"/><tag k="coa:place_id" v="183151"/></node><node id="-16" lat="30.308844" lon="-97.931445" changeset="false"><tag k="addr:street" v="Fowler Drive"/><tag k="addr:housenumber" v="3601"/><tag k="coa:place_id" v="200345"/></node><node id="-17" lat="30.309601" lon="-97.926493" changeset="false"><tag k="addr:street" v="Avenal Drive"/><tag k="addr:housenumber" v="3300"/><tag k="coa:place_id" v="164869"/></node><node id="-18" lat="30.309414" lon="-97.926081" changeset="false"><tag k="addr:street" v="Avenal Drive"/><tag k="addr:housenumber" v="3305"/><tag k="coa:place_id" v="164874"/></node><node id="-19" lat="30.336815" lon="-97.95389" changeset="false"><tag k="addr:street" v="Burgess Lane"/><tag k="addr:housenumber" v="117"/><tag k="coa:place_id" v="3117098"/></node><node id="-20" lat="30.335784" lon="-97.961061" changeset="false"><tag k="addr:street" v="Sebastians Run"/><tag k="addr:housenumber" v="134"/><tag k="coa:place_id" v="3116919"/></node><node id="-21" lat="30.310236" lon="-97.930171" changeset="false"><tag k="addr:street" v="Pleasant Hill Court"/><tag k="addr:housenumber" v="12308"/><tag k="coa:place_id" v="183108"/></node><node id="-22" lat="30.335653" lon="-97.961677" changeset="false"><tag k="addr:street" v="Sebastians Run"/><tag k="addr:housenumber" v="125"/><tag k="coa:place_id" v="3116929"/></node><node id="-23" lat="30.337402" lon="-97.957429" changeset="false"><tag k="addr:street" v="Varco Drive"/><tag k="addr:housenumber" v="215"/><tag k="coa:place_id" v="3117110"/></node><node id="-24" lat="30.308654" lon="-97.922811" changeset="false"><tag k="addr:street" v="Tehama Court"/><tag k="addr:housenumber" v="3225"/><tag k="coa:place_id" v="164253"/></node><node id="-25" lat="30.31193" lon="-97.923419" changeset="false"><tag k="addr:street" v="Tulare Drive"/><tag k="addr:housenumber" v="12028"/><tag k="coa:place_id" v="164239"/></node><node id="-26" lat="30.313922" lon="-97.930631" changeset="false"><tag k="addr:street" v="Huron Club Court"/><tag k="addr:housenumber" v="3008"/><tag k="coa:place_id" v="213162"/></node><node id="-27" lat="30.310401" lon="-97.921219" changeset="false"><tag k="addr:street" v="Norco Drive"/><tag k="addr:housenumber" v="3025"/><tag k="coa:place_id" v="175309"/></node><node id="-28" lat="30.310459" lon="-97.92516" changeset="false"><tag k="addr:street" v="Santee Drive"/><tag k="addr:housenumber" v="3200"/><tag k="coa:place_id" v="167971"/></node><node id="-29" lat="30.337834" lon="-97.96139" changeset="false"><tag k="addr:street" v="Sebastians Run"/><tag k="addr:housenumber" v="201"/><tag k="coa:place_id" v="3116936"/></node><node id="-30" lat="30.308879" lon="-97.92569" changeset="false"><tag k="addr:street" v="Santee Drive"/><tag k="addr:housenumber" v="3316"/><tag k="coa:place_id" v="167963"/></node><node id="-31" lat="30.329885" lon="-97.96147" changeset="false"><tag k="addr:street" v="Sunrise Ridge Loop"/><tag k="addr:housenumber" v="226"/><tag k="coa:place_id" v="3219442"/></node><node id="-32" lat="30.330097" lon="-97.961355" changeset="false"><tag k="addr:street" v="Sunrise Ridge Loop"/><tag k="addr:housenumber" v="232"/><tag k="coa:place_id" v="3219445"/></node><node id="-33" lat="30.309041" lon="-97.92684" changeset="false"><tag k="addr:street" v="Benecia Court"/><tag k="addr:housenumber" v="3413"/><tag k="coa:place_id" v="164797"/></node><node id="-34" lat="30.328822" lon="-97.961229" changeset="false"><tag k="addr:street" v="Sunrise Ridge Cove"/><tag k="addr:housenumber" v="216"/><tag k="coa:place_id" v="3219462"/></node><node id="-35" lat="30.328933" lon="-97.960837" changeset="false"><tag k="addr:street" v="Sunrise Ridge Cove"/><tag k="addr:housenumber" v="226"/><tag k="coa:place_id" v="3219466"/></node><node id="-36" lat="30.336319" lon="-97.961832" changeset="false"><tag k="addr:street" v="Sebastians Run"/><tag k="addr:housenumber" v="129"/><tag k="coa:place_id" v="3116931"/></node><node id="-37" lat="30.308696" lon="-97.927081" changeset="false"><tag k="addr:street" v="Benecia Court"/><tag k="addr:housenumber" v="3420"/><tag k="coa:place_id" v="164865"/></node><node id="-38" lat="30.306678" lon="-97.937918" changeset="false"><tag k="addr:street" v="Galleria Circle"/><tag k="addr:housenumber" v="12613"/><tag k="coa:place_id" v="3305282"/></node><node id="-39" lat="30.31398" lon="-97.947431" changeset="false"><tag k="addr:street" v="Ranch Road 620 South"/><tag k="addr:housenumber" v="3911"/><tag k="coa:place_id" v="3323639"/></node><node id="-40" lat="30.335262" lon="-97.959464" changeset="false"><tag k="addr:street" v="Whitley Drive"/><tag k="addr:housenumber" v="130"/><tag k="coa:place_id" v="3184693"/></node><node id="-41" lat="30.335085" lon="-97.955851" changeset="false"><tag k="addr:street" v="Varco Drive"/><tag k="addr:housenumber" v="106"/><tag k="coa:place_id" v="3117074"/></node><node id="-42" lat="30.334573" lon="-97.955669" changeset="false"><tag k="addr:street" v="Aria Drive"/><tag k="addr:housenumber" v="405"/><tag k="coa:place_id" v="3145194"/></node><node id="-43" lat="30.312543" lon="-97.930689" changeset="false"><tag k="addr:street" v="Fairfax Ridge Place"/><tag k="addr:housenumber" v="12416"/><tag k="coa:place_id" v="183234"/></node><node id="-44" lat="30.336713" lon="-97.961202" changeset="false"><tag k="addr:street" v="Sebastians Run"/><tag k="addr:housenumber" v="142"/><tag k="coa:place_id" v="3116923"/></node><node id="-45" lat="30.309033" lon="-97.925682" changeset="false"><tag k="addr:street" v="Santee Drive"/><tag k="addr:housenumber" v="3312"/><tag k="coa:place_id" v="167964"/></node><node id="-46" lat="30.308835" lon="-97.923214" changeset="false"><tag k="addr:street" v="Tehama Court"/><tag k="addr:housenumber" v="3218"/><tag k="coa:place_id" v="164251"/></node><node id="-47" lat="30.309883" lon="-97.928197" changeset="false"><tag k="addr:street" v="Adelanto Court"/><tag k="addr:housenumber" v="3316"/><tag k="coa:place_id" v="165137"/></node><node id="-48" lat="30.308665" lon="-97.92325" changeset="false"><tag k="addr:street" v="Tehama Court"/><tag k="addr:housenumber" v="3222"/><tag k="coa:place_id" v="164252"/></node><node id="-49" lat="30.311024" lon="-97.9204" changeset="false"><tag k="addr:street" v="Etna Drive"/><tag k="addr:housenumber" v="2921"/><tag k="coa:place_id" v="164385"/></node><node id="-50" lat="30.310674" lon="-97.931958" changeset="false"><tag k="addr:street" v="Normandy Ridge Lane"/><tag k="addr:housenumber" v="3500"/><tag k="coa:place_id" v="183150"/></node><node id="-51" lat="30.337265" lon="-97.960011" changeset="false"><tag k="addr:street" v="Lakota Pass"/><tag k="addr:housenumber" v="146"/><tag k="coa:place_id" v="3116944"/></node><node id="-52" lat="30.337008" lon="-97.953268" changeset="false"><tag k="addr:street" v="Burgess Lane"/><tag k="addr:housenumber" v="121"/><tag k="coa:place_id" v="3117100"/></node><node id="-53" lat="30.336169" lon="-97.953827" changeset="false"><tag k="addr:street" v="Burgess Lane"/><tag k="addr:housenumber" v="126"/><tag k="coa:place_id" v="3117092"/></node><node id="-54" lat="30.335192" lon="-97.957213" changeset="false"><tag k="addr:street" v="Whitley Drive"/><tag k="addr:housenumber" v="108"/><tag k="coa:place_id" v="3116993"/></node><node id="-55" lat="30.333533" lon="-97.958194" changeset="false"><tag k="addr:street" v="Aria Drive"/><tag k="addr:housenumber" v="301"/><tag k="coa:place_id" v="3149186"/></node><node id="-56" lat="30.335986" lon="-97.961774" changeset="false"><tag k="addr:street" v="Sebastians Run"/><tag k="addr:housenumber" v="127"/><tag k="coa:place_id" v="3116930"/></node><node id="-57" lat="30.309165" lon="-97.925538" changeset="false"><tag k="addr:street" v="Santee Drive"/><tag k="addr:housenumber" v="3308"/><tag k="coa:place_id" v="165463"/></node><node id="-58" lat="30.308581" lon="-97.922148" changeset="false"><tag k="addr:street" v="Lomita Drive"/><tag k="addr:housenumber" v="3130"/><tag k="coa:place_id" v="168505"/></node><node id="-59" lat="30.31693" lon="-97.949209" changeset="false"><tag k="addr:street" v="Ranch Road 620 South"/><tag k="addr:housenumber" v="3729"/><tag k="coa:place_id" v="708134"/></node><node id="-60" lat="30.313061" lon="-97.946592" changeset="false"><tag k="addr:street" v="Ranch Road 620 South"/><tag k="addr:housenumber" v="3927"/><tag k="coa:place_id" v="878024"/></node><node id="-61" lat="30.309863" lon="-97.919104" changeset="false"><tag k="addr:street" v="Resaca Boulevard"/><tag k="addr:housenumber" v="2816"/><tag k="coa:place_id" v="164390"/></node><node id="-62" lat="30.310093" lon="-97.928242" changeset="false"><tag k="addr:street" v="Adelanto Court"/><tag k="addr:housenumber" v="3312"/><tag k="coa:place_id" v="165138"/></node><node id="-63" lat="30.310111" lon="-97.930663" changeset="false"><tag k="addr:street" v="Pleasant Hill Court"/><tag k="addr:housenumber" v="12316"/><tag k="coa:place_id" v="183106"/></node><node id="-64" lat="30.335697" lon="-97.955577" changeset="false"><tag k="addr:street" v="Burgess Cove"/><tag k="addr:housenumber" v="110"/><tag k="coa:place_id" v="3117084"/></node><node id="-65" lat="30.335289" lon="-97.958254" changeset="false"><tag k="addr:street" v="Whitley Drive"/><tag k="addr:housenumber" v="113"/><tag k="coa:place_id" v="3117006"/></node><node id="-66" lat="30.307966" lon="-97.929344" changeset="false"><tag k="addr:street" v="Savoy Court"/><tag k="addr:housenumber" v="3520"/><tag k="coa:place_id" v="183036"/></node><node id="-67" lat="30.338011" lon="-97.957685" changeset="false"><tag k="addr:street" v="Lakota Pass"/><tag k="addr:housenumber" v="109"/><tag k="coa:place_id" v="3117136"/></node><node id="-68" lat="30.328878" lon="-97.960996" changeset="false"><tag k="addr:street" v="Sunrise Ridge Cove"/><tag k="addr:housenumber" v="222"/><tag k="coa:place_id" v="3219465"/></node><node id="-69" lat="30.328861" lon="-97.961935" changeset="false"><tag k="addr:street" v="Sunrise Ridge Cove"/><tag k="addr:housenumber" v="111"/><tag k="coa:place_id" v="3219455"/></node><node id="-70" lat="30.308877" lon="-97.937282" changeset="false"><tag k="addr:street" v="Galleria Circle"/><tag k="addr:housenumber" v="13600"/><tag k="coa:place_id" v="3305277"/></node><node id="-71" lat="30.308174" lon="-97.940597" changeset="false"><tag k="addr:street" v="Galleria Circle"/><tag k="addr:housenumber" v="12800"/><tag k="coa:place_id" v="3305365"/></node><node id="-72" lat="30.307861" lon="-97.931726" changeset="false"><tag k="addr:street" v="Bee Cave Parkway"/><tag k="addr:housenumber" v="12300"/><tag k="coa:place_id" v="3318713"/></node><node id="-73" lat="30.313222" lon="-97.944183" changeset="false"><tag k="addr:street" v="Bee Cave Parkway"/><tag k="addr:housenumber" v="13100"/><tag k="coa:place_id" v="3318726"/></node><node id="-74" lat="30.309998" lon="-97.926518" changeset="false"><tag k="addr:street" v="Avenal Drive"/><tag k="addr:housenumber" v="3208"/><tag k="coa:place_id" v="3393147"/></node><node id="-75" lat="30.309154" lon="-97.937909" changeset="false"><tag k="addr:street" v="Galleria Circle"/><tag k="addr:housenumber" v="13520"/><tag k="coa:place_id" v="5083335"/></node><node id="-76" lat="30.33676" lon="-97.959867" changeset="false"><tag k="addr:street" v="Lakota Pass"/><tag k="addr:housenumber" v="142"/><tag k="coa:place_id" v="3116942"/></node><node id="-77" lat="30.338185" lon="-97.960272" changeset="false"><tag k="addr:street" v="Sebastians Run"/><tag k="addr:housenumber" v="206"/><tag k="coa:place_id" v="3116941"/></node><node id="-78" lat="30.338511" lon="-97.958128" changeset="false"><tag k="addr:street" v="Lakota Pass"/><tag k="addr:housenumber" v="118"/><tag k="coa:place_id" v="3117128"/></node><node id="-79" lat="30.338338" lon="-97.958355" changeset="false"><tag k="addr:street" v="Lakota Pass"/><tag k="addr:housenumber" v="120"/><tag k="coa:place_id" v="3117129"/></node><node id="-80" lat="30.338161" lon="-97.956812" changeset="false"><tag k="addr:street" v="Varco Drive"/><tag k="addr:housenumber" v="223"/><tag k="coa:place_id" v="3153181"/></node><node id="-81" lat="30.33758" lon="-97.9579" changeset="false"><tag k="addr:street" v="Lakota Pass"/><tag k="addr:housenumber" v="113"/><tag k="coa:place_id" v="3117138"/></node><node id="-82" lat="30.336905" lon="-97.95746" changeset="false"><tag k="addr:street" v="Varco Drive"/><tag k="addr:housenumber" v="211"/><tag k="coa:place_id" v="3117108"/></node><node id="-83" lat="30.336709" lon="-97.954599" changeset="false"><tag k="addr:street" v="Burgess Lane"/><tag k="addr:housenumber" v="113"/><tag k="coa:place_id" v="3117096"/></node><node id="-84" lat="30.336701" lon="-97.955322" changeset="false"><tag k="addr:street" v="Burgess Lane"/><tag k="addr:housenumber" v="109"/><tag k="coa:place_id" v="3117081"/></node><node id="-85" lat="30.336991" lon="-97.958785" changeset="false"><tag k="addr:street" v="Lakota Pass"/><tag k="addr:housenumber" v="132"/><tag k="coa:place_id" v="3116959"/></node><node id="-86" lat="30.321685" lon="-97.953581" changeset="false"><tag k="addr:street" v="Ranch Road 620 South"/><tag k="addr:housenumber" v="3575"/><tag k="coa:place_id" v="175410"/></node><node id="-87" lat="30.313218" lon="-97.922407" changeset="false"><tag k="addr:street" v="Carlsbad Drive"/><tag k="addr:housenumber" v="12103"/><tag k="coa:place_id" v="212100"/></node><node id="-88" lat="30.310215" lon="-97.926082" changeset="false"><tag k="addr:street" v="Avenal Drive"/><tag k="addr:housenumber" v="3207"/><tag k="coa:place_id" v="170765"/></node><node id="-89" lat="30.315559" lon="-97.948703" changeset="false"><tag k="addr:street" v="Ranch Road 620 South"/><tag k="addr:housenumber" v="3827"/><tag k="coa:place_id" v="446115"/></node><node id="-90" lat="30.310536" lon="-97.92153" changeset="false"><tag k="addr:street" v="Norco Drive"/><tag k="addr:housenumber" v="3021"/><tag k="coa:place_id" v="175308"/></node><node id="-91" lat="30.313776" lon="-97.931063" changeset="false"><tag k="addr:street" v="Fairfax Ridge Place"/><tag k="addr:housenumber" v="12449"/><tag k="coa:place_id" v="183220"/></node><node id="-92" lat="30.314768" lon="-97.92898" changeset="false"><tag k="addr:street" v="Brittany Point Lane"/><tag k="addr:housenumber" v="2915"/><tag k="coa:place_id" v="212153"/></node><node id="-93" lat="30.309159" lon="-97.945112" changeset="false"><tag k="addr:street" v="Ranch Road 620 South"/><tag k="addr:housenumber" v="4025"/><tag k="coa:place_id" v="161217"/></node><node id="-94" lat="30.335617" lon="-97.956312" changeset="false"><tag k="addr:street" v="Burgess Lane"/><tag k="addr:housenumber" v="102"/><tag k="coa:place_id" v="3153198"/></node><node id="-95" lat="30.311418" lon="-97.924124" changeset="false"><tag k="addr:street" v="Tulare Drive"/><tag k="addr:housenumber" v="12044"/><tag k="coa:place_id" v="164235"/></node><node id="-96" lat="30.310671" lon="-97.928272" changeset="false"><tag k="addr:street" v="Adelanto Court"/><tag k="addr:housenumber" v="3300"/><tag k="coa:place_id" v="165145"/></node><node id="-97" lat="30.310347" lon="-97.945211" changeset="false"><tag k="addr:street" v="Ranch Road 620 South"/><tag k="addr:housenumber" v="4005"/><tag k="coa:place_id" v="249623"/></node><node id="-98" lat="30.314976" lon="-97.928923" changeset="false"><tag k="addr:street" v="Brittany Point Lane"/><tag k="addr:housenumber" v="2913"/><tag k="coa:place_id" v="212152"/></node><node id="-99" lat="30.329679" lon="-97.961636" changeset="false"><tag k="addr:street" v="Sunrise Ridge Loop"/><tag k="addr:housenumber" v="220"/><tag k="coa:place_id" v="3219440"/></node><node id="-100" lat="30.336799" lon="-97.956943" changeset="false"><tag k="addr:street" v="Varco Drive"/><tag k="addr:housenumber" v="208"/><tag k="coa:place_id" v="3117113"/></node><node id="-101" lat="30.336667" lon="-97.957549" changeset="false"><tag k="addr:street" v="Varco Drive"/><tag k="addr:housenumber" v="209"/><tag k="coa:place_id" v="3117107"/></node><node id="-102" lat="30.310579" lon="-97.9279" changeset="false"><tag k="addr:street" v="Adelanto Court"/><tag k="addr:housenumber" v="3305"/><tag k="coa:place_id" v="165147"/></node><node id="-103" lat="30.336969" lon="-97.961763" changeset="false"><tag k="addr:street" v="Sebastians Run"/><tag k="addr:housenumber" v="133"/><tag k="coa:place_id" v="3116933"/></node><node id="-104" lat="30.333321" lon="-97.959377" changeset="false"><tag k="addr:street" v="Sebastians Run"/><tag k="addr:housenumber" v="108"/><tag k="coa:place_id" v="3116903"/></node><node id="-105" lat="30.33694" lon="-97.961138" changeset="false"><tag k="addr:street" v="Sebastians Run"/><tag k="addr:housenumber" v="144"/><tag k="coa:place_id" v="3116924"/></node><node id="-106" lat="30.316061" lon="-97.928961" changeset="false"><tag k="addr:street" v="Brittany Point Lane"/><tag k="addr:housenumber" v="2902"/><tag k="coa:place_id" v="212141"/></node><node id="-107" lat="30.310083" lon="-97.931675" changeset="false"><tag k="addr:street" v="Normandy Ridge Lane"/><tag k="addr:housenumber" v="3505"/><tag k="coa:place_id" v="183132"/></node><node id="-108" lat="30.312509" lon="-97.921144" changeset="false"><tag k="addr:street" v="Fortuna Drive"/><tag k="addr:housenumber" v="2813"/><tag k="coa:place_id" v="162705"/></node><node id="-109" lat="30.312532" lon="-97.924558" changeset="false"><tag k="addr:street" v="Carlsbad Drive"/><tag k="addr:housenumber" v="12208"/><tag k="coa:place_id" v="212080"/></node><node id="-110" lat="30.338506" lon="-97.956995" changeset="false"><tag k="addr:street" v="Lakota Pass"/><tag k="addr:housenumber" v="103"/><tag k="coa:place_id" v="3117133"/></node><node id="-111" lat="30.333867" lon="-97.955619" changeset="false"><tag k="addr:street" v="Aria Drive"/><tag k="addr:housenumber" v="406"/><tag k="coa:place_id" v="3149201"/></node><node id="-112" lat="30.3385" lon="-97.955721" changeset="false"><tag k="addr:street" v="Varco Drive"/><tag k="addr:housenumber" v="226"/><tag k="coa:place_id" v="3271144"/></node><node id="-113" lat="30.309374" lon="-97.938341" changeset="false"><tag k="addr:street" v="Galleria Circle"/><tag k="addr:housenumber" v="13512"/><tag k="coa:place_id" v="3305276"/></node><node id="-114" lat="30.322188" lon="-97.954149" changeset="false"><tag k="addr:street" v="Ranch Road 620 South"/><tag k="addr:housenumber" v="3573"/><tag k="coa:place_id" v="878102"/></node><node id="-115" lat="30.311948" lon="-97.940755" changeset="false"><tag k="addr:street" v="Bee Cave Parkway"/><tag k="addr:housenumber" v="12900"/><tag k="coa:place_id" v="3326471"/></node><node id="-116" lat="30.309305" lon="-97.938299" changeset="false"><tag k="addr:street" v="Galleria Circle"/><tag k="addr:housenumber" v="13514"/><tag k="coa:place_id" v="5083332"/></node><node id="-117" lat="30.309249" lon="-97.938179" changeset="false"><tag k="addr:street" v="Galleria Circle"/><tag k="addr:housenumber" v="13516"/><tag k="coa:place_id" v="5083333"/></node><node id="-118" lat="30.30911" lon="-97.937807" changeset="false"><tag k="addr:street" v="Galleria Circle"/><tag k="addr:housenumber" v="13522"/><tag k="coa:place_id" v="5083336"/></node><node id="-119" lat="30.315071" lon="-97.945429" changeset="false"><tag k="addr:street" v="Bee Cave Parkway"/><tag k="addr:housenumber" v="13300"/><tag k="coa:place_id" v="5061338"/></node><node id="-120" lat="30.310222" lon="-97.940729" changeset="false"><tag k="addr:street" v="Galleria Circle"/><tag k="addr:housenumber" v="13400"/><tag k="coa:place_id" v="3305702"/></node><node id="-121" lat="30.337608" lon="-97.958512" changeset="false"><tag k="addr:street" v="Lakota Pass"/><tag k="addr:housenumber" v="126"/><tag k="coa:place_id" v="3117132"/></node><node id="-122" lat="30.33744" lon="-97.956572" changeset="false"><tag k="addr:street" v="Varco Drive"/><tag k="addr:housenumber" v="214"/><tag k="coa:place_id" v="3117116"/></node><node id="-123" lat="30.337156" lon="-97.958031" changeset="false"><tag k="addr:street" v="Lakota Pass"/><tag k="addr:housenumber" v="117"/><tag k="coa:place_id" v="3117140"/></node><node id="-124" lat="30.332819" lon="-97.958761" changeset="false"><tag k="addr:street" v="Aria Drive"/><tag k="addr:housenumber" v="201"/><tag k="coa:place_id" v="3130027"/></node><node id="-125" lat="30.336982" lon="-97.96" changeset="false"><tag k="addr:street" v="Lakota Pass"/><tag k="addr:housenumber" v="144"/><tag k="coa:place_id" v="3116943"/></node><node id="-126" lat="30.336667" lon="-97.959206" changeset="false"><tag k="addr:street" v="Lakota Pass"/><tag k="addr:housenumber" v="136"/><tag k="coa:place_id" v="3116961"/></node><node id="-127" lat="30.336619" lon="-97.959491" changeset="false"><tag k="addr:street" v="Lakota Pass"/><tag k="addr:housenumber" v="138"/><tag k="coa:place_id" v="3116962"/></node><node id="-128" lat="30.314366" lon="-97.924705" changeset="false"><tag k="addr:street" v="Carlsbad Drive"/><tag k="addr:housenumber" v="12402"/><tag k="coa:place_id" v="216439"/></node><node id="-129" lat="30.310859" lon="-97.925094" changeset="false"><tag k="addr:street" v="Napa Drive"/><tag k="addr:housenumber" v="3100"/><tag k="coa:place_id" v="166131"/></node><node id="-130" lat="30.310526" lon="-97.92072" changeset="false"><tag k="addr:street" v="Etna Drive"/><tag k="addr:housenumber" v="2924"/><tag k="coa:place_id" v="168750"/></node><node id="-131" lat="30.312223" lon="-97.922458" changeset="false"><tag k="addr:street" v="Fortuna Cove"/><tag k="addr:housenumber" v="12013"/><tag k="coa:place_id" v="162689"/></node><node id="-132" lat="30.308979" lon="-97.924573" changeset="false"><tag k="addr:street" v="Marin Court"/><tag k="addr:housenumber" v="3312"/><tag k="coa:place_id" v="166548"/></node><node id="-133" lat="30.31374" lon="-97.923736" changeset="false"><tag k="addr:street" v="Carlsbad Drive"/><tag k="addr:housenumber" v="12118"/><tag k="coa:place_id" v="212087"/></node><node id="-134" lat="30.33584" lon="-97.95757" changeset="false"><tag k="addr:street" v="Whitley Drive"/><tag k="addr:housenumber" v="114"/><tag k="coa:place_id" v="3116996"/></node><node id="-135" lat="30.338015" lon="-97.96015" changeset="false"><tag k="addr:street" v="Sebastians Run"/><tag k="addr:housenumber" v="204"/><tag k="coa:place_id" v="3116940"/></node><node id="-136" lat="30.333353" lon="-97.960219" changeset="false"><tag k="addr:street" v="Sebastians Run"/><tag k="addr:housenumber" v="109"/><tag k="coa:place_id" v="3116895"/></node><node id="-137" lat="30.333004" lon="-97.959951" changeset="false"><tag k="addr:street" v="Sebastians Run"/><tag k="addr:housenumber" v="107"/><tag k="coa:place_id" v="3116894"/></node><node id="-138" lat="30.335114" lon="-97.961314" changeset="false"><tag k="addr:street" v="Sebastians Run"/><tag k="addr:housenumber" v="121"/><tag k="coa:place_id" v="3116927"/></node><node id="-139" lat="30.337857" lon="-97.958497" changeset="false"><tag k="addr:street" v="Lakota Pass"/><tag k="addr:housenumber" v="124"/><tag k="coa:place_id" v="3117131"/></node><node id="-140" lat="30.337804" lon="-97.957802" changeset="false"><tag k="addr:street" v="Lakota Pass"/><tag k="addr:housenumber" v="111"/><tag k="coa:place_id" v="3117137"/></node><node id="-141" lat="30.336325" lon="-97.953129" changeset="false"><tag k="addr:street" v="Burgess Lane"/><tag k="addr:housenumber" v="130"/><tag k="coa:place_id" v="3117094"/></node><node id="-142" lat="30.336973" lon="-97.960669" changeset="false"><tag k="addr:street" v="Lakota Pass"/><tag k="addr:housenumber" v="145"/><tag k="coa:place_id" v="3116947"/></node><node id="-143" lat="30.336099" lon="-97.959764" changeset="false"><tag k="addr:street" v="Lakota Pass"/><tag k="addr:housenumber" v="133"/><tag k="coa:place_id" v="3116955"/></node><node id="-144" lat="30.336033" lon="-97.959428" changeset="false"><tag k="addr:street" v="Lakota Pass"/><tag k="addr:housenumber" v="131"/><tag k="coa:place_id" v="3116954"/></node><node id="-145" lat="30.328949" lon="-97.962035" changeset="false"><tag k="addr:street" v="Sunrise Ridge Cove"/><tag k="addr:housenumber" v="107"/><tag k="coa:place_id" v="3219451"/></node><node id="-146" lat="30.335751" lon="-97.957043" changeset="false"><tag k="addr:street" v="Varco Drive"/><tag k="addr:housenumber" v="201"/><tag k="coa:place_id" v="3117103"/></node><node id="-147" lat="30.335529" lon="-97.956871" changeset="false"><tag k="addr:street" v="Varco Drive"/><tag k="addr:housenumber" v="109"/><tag k="coa:place_id" v="3153197"/></node><node id="-148" lat="30.313974" lon="-97.926052" changeset="false"><tag k="addr:street" v="Carlsbad Drive"/><tag k="addr:housenumber" v="12321"/><tag k="coa:place_id" v="212053"/></node><node id="-149" lat="30.310551" lon="-97.932159" changeset="false"><tag k="addr:street" v="Normandy Ridge Lane"/><tag k="addr:housenumber" v="3506"/><tag k="coa:place_id" v="199259"/></node><node id="-150" lat="30.308832" lon="-97.927146" changeset="false"><tag k="addr:street" v="Benecia Court"/><tag k="addr:housenumber" v="3416"/><tag k="coa:place_id" v="164863"/></node><node id="-151" lat="30.308494" lon="-97.934633" changeset="false"><tag k="addr:street" v="Juniper Trace"/><tag k="addr:housenumber" v="3805"/><tag k="coa:place_id" v="218307"/></node><node id="-152" lat="30.309609" lon="-97.926043" changeset="false"><tag k="addr:street" v="Avenal Drive"/><tag k="addr:housenumber" v="3301"/><tag k="coa:place_id" v="164875"/></node><node id="-153" lat="30.314318" lon="-97.930208" changeset="false"><tag k="addr:street" v="Huron Club Court"/><tag k="addr:housenumber" v="3005"/><tag k="coa:place_id" v="183259"/></node><node id="-154" lat="30.309131" lon="-97.931043" changeset="false"><tag k="addr:street" v="Pleasant Hill Court"/><tag k="addr:housenumber" v="12329"/><tag k="coa:place_id" v="199345"/></node><node id="-155" lat="30.311884" lon="-97.930755" changeset="false"><tag k="addr:street" v="Fairfax Ridge Place"/><tag k="addr:housenumber" v="12413"/><tag k="coa:place_id" v="183221"/></node><node id="-156" lat="30.311518" lon="-97.924878" changeset="false"><tag k="addr:street" v="Napa Drive"/><tag k="addr:housenumber" v="3011"/><tag k="coa:place_id" v="212039"/></node><node id="-157" lat="30.30831" lon="-97.930837" changeset="false"><tag k="addr:street" v="Torrance Court"/><tag k="addr:housenumber" v="12304"/><tag k="coa:place_id" v="194479"/></node><node id="-158" lat="30.307628" lon="-97.934523" changeset="false"><tag k="addr:street" v="Juniper Trace"/><tag k="addr:housenumber" v="3810"/><tag k="coa:place_id" v="3072650"/></node><node id="-159" lat="30.307276" lon="-97.932375" changeset="false"><tag k="addr:street" v="Bee Cave Parkway"/><tag k="addr:housenumber" v="12301"/><tag k="coa:place_id" v="3312552"/></node><node id="-160" lat="30.311456" lon="-97.921997" changeset="false"><tag k="addr:street" v="Loomis Drive"/><tag k="addr:housenumber" v="11917"/><tag k="coa:place_id" v="241017"/></node><node id="-161" lat="30.309673" lon="-97.928122" changeset="false"><tag k="addr:street" v="Adelanto Court"/><tag k="addr:housenumber" v="3320"/><tag k="coa:place_id" v="165133"/></node><node id="-162" lat="30.328734" lon="-97.962192" changeset="false"><tag k="addr:street" v="Sunrise Ridge Cove"/><tag k="addr:housenumber" v="110"/><tag k="coa:place_id" v="3219454"/></node><node id="-163" lat="30.309196" lon="-97.938049" changeset="false"><tag k="addr:street" v="Galleria Circle"/><tag k="addr:housenumber" v="13518"/><tag k="coa:place_id" v="5083334"/></node><node id="-164" lat="30.310233" lon="-97.926538" changeset="false"><tag k="addr:street" v="Avenal Drive"/><tag k="addr:housenumber" v="3204"/><tag k="coa:place_id" v="3393146"/></node><node id="-165" lat="30.336108" lon="-97.955021" changeset="false"><tag k="addr:street" v="Burgess Cove"/><tag k="addr:housenumber" v="120"/><tag k="coa:place_id" v="3319798"/></node><node id="-166" lat="30.337062" lon="-97.956783" changeset="false"><tag k="addr:street" v="Varco Drive"/><tag k="addr:housenumber" v="210"/><tag k="coa:place_id" v="3117114"/></node><node id="-167" lat="30.336623" lon="-97.955681" changeset="false"><tag k="addr:street" v="Burgess Lane"/><tag k="addr:housenumber" v="107"/><tag k="coa:place_id" v="3117080"/></node><node id="-168" lat="30.333019" lon="-97.95774" changeset="false"><tag k="addr:street" v="Aria Drive"/><tag k="addr:housenumber" v="204"/><tag k="coa:place_id" v="3117010"/></node><node id="-169" lat="30.333702" lon="-97.959638" changeset="false"><tag k="addr:street" v="Sebastians Run"/><tag k="addr:housenumber" v="112"/><tag k="coa:place_id" v="3116905"/></node><node id="-170" lat="30.336644" lon="-97.961817" changeset="false"><tag k="addr:street" v="Sebastians Run"/><tag k="addr:housenumber" v="131"/><tag k="coa:place_id" v="3116932"/></node><node id="-171" lat="30.335436" lon="-97.956112" changeset="false"><tag k="addr:street" v="Varco Drive"/><tag k="addr:housenumber" v="110"/><tag k="coa:place_id" v="3153184"/></node><node id="-172" lat="30.337275" lon="-97.961625" changeset="false"><tag k="addr:street" v="Sebastians Run"/><tag k="addr:housenumber" v="135"/><tag k="coa:place_id" v="3116934"/></node><node id="-173" lat="30.337216" lon="-97.958725" changeset="false"><tag k="addr:street" v="Lakota Pass"/><tag k="addr:housenumber" v="130"/><tag k="coa:place_id" v="3116958"/></node><node id="-174" lat="30.311683" lon="-97.930306" changeset="false"><tag k="addr:street" v="Fairfax Ridge Place"/><tag k="addr:housenumber" v="12405"/><tag k="coa:place_id" v="183223"/></node><node id="-175" lat="30.338679" lon="-97.95602" changeset="false"><tag k="addr:street" v="Lakota Pass"/><tag k="addr:housenumber" v="102"/><tag k="coa:place_id" v="3117120"/></node><node id="-176" lat="30.338331" lon="-97.960546" changeset="false"><tag k="addr:street" v="Sebastians Run"/><tag k="addr:housenumber" v="207"/><tag k="coa:place_id" v="3116939"/></node><node id="-177" lat="30.312996" lon="-97.931991" changeset="false"><tag k="addr:street" v="San Benito Court"/><tag k="addr:housenumber" v="3301"/><tag k="coa:place_id" v="183204"/></node><node id="-178" lat="30.310387" lon="-97.927937" changeset="false"><tag k="addr:street" v="Adelanto Court"/><tag k="addr:housenumber" v="3309"/><tag k="coa:place_id" v="165149"/></node><node id="-179" lat="30.309745" lon="-97.929213" changeset="false"><tag k="addr:street" v="Lyon Club Court"/><tag k="addr:housenumber" v="3400"/><tag k="coa:place_id" v="184733"/></node><node id="-180" lat="30.310836" lon="-97.931789" changeset="false"><tag k="addr:street" v="Normandy Ridge Lane"/><tag k="addr:housenumber" v="3416"/><tag k="coa:place_id" v="183149"/></node><node id="-181" lat="30.335369" lon="-97.961479" changeset="false"><tag k="addr:street" v="Sebastians Run"/><tag k="addr:housenumber" v="123"/><tag k="coa:place_id" v="3116928"/></node><node id="-182" lat="30.334884" lon="-97.955725" changeset="false"><tag k="addr:street" v="Varco Drive"/><tag k="addr:housenumber" v="104"/><tag k="coa:place_id" v="3117073"/></node><node id="-183" lat="30.309942" lon="-97.928826" changeset="false"><tag k="addr:street" v="Lyon Club Court"/><tag k="addr:housenumber" v="3401"/><tag k="coa:place_id" v="183120"/></node><node id="-184" lat="30.336804" lon="-97.95251" changeset="false"><tag k="addr:street" v="Burgess Lane"/><tag k="addr:housenumber" v="134"/><tag k="coa:place_id" v="3117102"/></node><node id="-185" lat="30.336211" lon="-97.960067" changeset="false"><tag k="addr:street" v="Lakota Cove"/><tag k="addr:housenumber" v="135"/><tag k="coa:place_id" v="3116956"/></node><node id="-186" lat="30.335141" lon="-97.95657" changeset="false"><tag k="addr:street" v="Varco Drive"/><tag k="addr:housenumber" v="105"/><tag k="coa:place_id" v="3117071"/></node><node id="-187" lat="30.336943" lon="-97.95357" changeset="false"><tag k="addr:street" v="Burgess Lane"/><tag k="addr:housenumber" v="119"/><tag k="coa:place_id" v="3117099"/></node><node id="-188" lat="30.334318" lon="-97.960817" changeset="false"><tag k="addr:street" v="Sebastians Run"/><tag k="addr:housenumber" v="115"/><tag k="coa:place_id" v="3116898"/></node><node id="-189" lat="30.335878" lon="-97.958309" changeset="false"><tag k="addr:street" v="Whitley Drive"/><tag k="addr:housenumber" v="120"/><tag k="coa:place_id" v="3116999"/></node><node id="-190" lat="30.308919" lon="-97.928539" changeset="false"><tag k="addr:street" v="Reims Court"/><tag k="addr:housenumber" v="3404"/><tag k="coa:place_id" v="183004"/></node><node id="-191" lat="30.316752" lon="-97.949044" changeset="false"><tag k="addr:street" v="Ranch Road 620 South"/><tag k="addr:housenumber" v="3733"/><tag k="coa:place_id" v="849537"/></node><node id="-192" lat="30.31183" lon="-97.930079" changeset="false"><tag k="addr:street" v="Fairfax Ridge Place"/><tag k="addr:housenumber" v="12401"/><tag k="coa:place_id" v="183227"/></node><node id="-193" lat="30.313022" lon="-97.921519" changeset="false"><tag k="addr:street" v="Fortuna Drive"/><tag k="addr:housenumber" v="2801"/><tag k="coa:place_id" v="162701"/></node><node id="-194" lat="30.331461" lon="-97.960648" changeset="false"><tag k="addr:street" v="Aria Drive"/><tag k="addr:housenumber" v="105 1/2"/><tag k="coa:place_id" v="3116775"/></node><node id="-195" lat="30.310721" lon="-97.924629" changeset="false"><tag k="addr:street" v="Napa Drive"/><tag k="addr:housenumber" v="3106"/><tag k="coa:place_id" v="189109"/></node><node id="-196" lat="30.328857" lon="-97.961078" changeset="false"><tag k="addr:street" v="Sunrise Ridge Cove"/><tag k="addr:housenumber" v="220"/><tag k="coa:place_id" v="3219464"/></node><node id="-197" lat="30.307504" lon="-97.939867" changeset="false"><tag k="addr:street" v="Galleria Circle"/><tag k="addr:housenumber" v="12713"/><tag k="coa:place_id" v="3305283"/></node><node id="-198" lat="30.328656" lon="-97.961763" changeset="false"><tag k="addr:street" v="Sunrise Ridge Cove"/><tag k="addr:housenumber" v="202"/><tag k="coa:place_id" v="3219456"/></node><node id="-199" lat="30.314255" lon="-97.944264" changeset="false"><tag k="addr:street" v="Bee Cave Parkway"/><tag k="addr:housenumber" v="13216"/><tag k="coa:place_id" v="235032"/></node><node id="-200" lat="30.315184" lon="-97.946314" changeset="false"><tag k="addr:street" v="Bee Cave Parkway"/><tag k="addr:housenumber" v="13301"/><tag k="coa:place_id" v="5061339"/></node><node id="-201" lat="30.30807" lon="-97.932863" changeset="false"><tag k="addr:street" v="Bee Cave Parkway"/><tag k="addr:housenumber" v="12325"/><tag k="coa:place_id" v="5061336"/></node><node id="-202" lat="30.336457" lon="-97.952767" changeset="false"><tag k="addr:street" v="Burgess Lane"/><tag k="addr:housenumber" v="132"/><tag k="coa:place_id" v="3360280"/></node><node id="-203" lat="30.310722" lon="-97.9408" changeset="false"><tag k="addr:street" v="Galleria Circle"/><tag k="addr:housenumber" v="13401"/><tag k="coa:place_id" v="3305703"/></node><node id="-204" lat="30.334286" lon="-97.955243" changeset="false"><tag k="addr:street" v="Aria Drive"/><tag k="addr:housenumber" v="409"/><tag k="coa:place_id" v="3150320"/></node><node id="-205" lat="30.334459" lon="-97.95542" changeset="false"><tag k="addr:street" v="Aria Drive"/><tag k="addr:housenumber" v="407"/><tag k="coa:place_id" v="3117068"/></node><node id="-206" lat="30.336643" lon="-97.959697" changeset="false"><tag k="addr:street" v="Lakota Pass"/><tag k="addr:housenumber" v="140"/><tag k="coa:place_id" v="3116963"/></node><node id="-207" lat="30.337831" lon="-97.957149" changeset="false"><tag k="addr:street" v="Varco Drive"/><tag k="addr:housenumber" v="219"/><tag k="coa:place_id" v="3153179"/></node><node id="-208" lat="30.336406" lon="-97.957388" changeset="false"><tag k="addr:street" v="Varco Drive"/><tag k="addr:housenumber" v="207"/><tag k="coa:place_id" v="3117106"/></node><node id="-209" lat="30.334287" lon="-97.96002" changeset="false"><tag k="addr:street" v="Sebastians Run"/><tag k="addr:housenumber" v="118"/><tag k="coa:place_id" v="3116908"/></node><node id="-210" lat="30.328804" lon="-97.961296" changeset="false"><tag k="addr:street" v="Sunrise Ridge Cove"/><tag k="addr:housenumber" v="214"/><tag k="coa:place_id" v="3219461"/></node><node id="-211" lat="30.311277" lon="-97.94219" changeset="false"><tag k="addr:street" v="Galleria Circle"/><tag k="addr:housenumber" v="13301"/><tag k="coa:place_id" v="5061340"/></node><node id="-212" lat="30.310136" lon="-97.939434" changeset="false"><tag k="addr:street" v="Galleria Circle"/><tag k="addr:housenumber" v="13413"/><tag k="coa:place_id" v="3305705"/></node><node id="-213" lat="30.309704" lon="-97.935423" changeset="false"><tag k="addr:street" v="Bee Cave Parkway"/><tag k="addr:housenumber" v="12525"/><tag k="coa:place_id" v="5061337"/></node><node id="-214" lat="30.310716" lon="-97.941923" changeset="false"><tag k="addr:street" v="Galleria Circle"/><tag k="addr:housenumber" v="13300"/><tag k="coa:place_id" v="3305263"/></node><node id="-215" lat="30.335822" lon="-97.954911" changeset="false"><tag k="addr:street" v="Burgess Cove"/><tag k="addr:housenumber" v="118"/><tag k="coa:place_id" v="3319796"/></node><node id="-216" lat="30.30829" lon="-97.934003" changeset="false"><tag k="addr:street" v="Juniper Trace"/><tag k="addr:housenumber" v="3813"/><tag k="coa:place_id" v="5072809"/></node><node id="-217" lat="30.309944" lon="-97.938642" changeset="false"><tag k="addr:street" v="Galleria Circle"/><tag k="addr:housenumber" v="13501"/><tag k="coa:place_id" v="3305363"/></node><node id="-218" lat="30.325767" lon="-97.957882" changeset="false"><tag k="addr:street" v="Ranch Road 620 South"/><tag k="addr:housenumber" v="3499"/><tag k="coa:place_id" v="878114"/></node><node id="-219" lat="30.328722" lon="-97.961519" changeset="false"><tag k="addr:street" v="Sunrise Ridge Cove"/><tag k="addr:housenumber" v="208"/><tag k="coa:place_id" v="3219459"/></node><node id="-220" lat="30.311134" lon="-97.932277" changeset="false"><tag k="addr:street" v="San Mateo Drive"/><tag k="addr:housenumber" v="3409"/><tag k="coa:place_id" v="183167"/></node><node id="-221" lat="30.31073" lon="-97.920886" changeset="false"><tag k="addr:street" v="Etna Drive"/><tag k="addr:housenumber" v="2920"/><tag k="coa:place_id" v="162174"/></node><node id="-222" lat="30.31028" lon="-97.928264" changeset="false"><tag k="addr:street" v="Adelanto Court"/><tag k="addr:housenumber" v="3308"/><tag k="coa:place_id" v="165143"/></node><node id="-223" lat="30.336138" lon="-97.957791" changeset="false"><tag k="addr:street" v="Whitley Drive"/><tag k="addr:housenumber" v="116"/><tag k="coa:place_id" v="3116997"/></node><node id="-224" lat="30.336" lon="-97.957167" changeset="false"><tag k="addr:street" v="Varco Drive"/><tag k="addr:housenumber" v="203"/><tag k="coa:place_id" v="3117104"/></node><node id="-225" lat="30.337483" lon="-97.960205" changeset="false"><tag k="addr:street" v="Lakota Pass"/><tag k="addr:housenumber" v="148"/><tag k="coa:place_id" v="3116945"/></node><node id="-226" lat="30.335569" lon="-97.957487" changeset="false"><tag k="addr:street" v="Whitley Drive"/><tag k="addr:housenumber" v="112"/><tag k="coa:place_id" v="3116995"/></node><node id="-227" lat="30.331541" lon="-97.960436" changeset="false"><tag k="addr:street" v="Aria Drive"/><tag k="addr:housenumber" v="107"/><tag k="coa:place_id" v="3131325"/></node><node id="-228" lat="30.314546" lon="-97.929739" changeset="false"><tag k="addr:street" v="Brittany Point Lane"/><tag k="addr:housenumber" v="3000"/><tag k="coa:place_id" v="208944"/></node><node id="-229" lat="30.333744" lon="-97.960423" changeset="false"><tag k="addr:street" v="Sebastians Run"/><tag k="addr:housenumber" v="111"/><tag k="coa:place_id" v="3116896"/></node><node id="-230" lat="30.314356" lon="-97.929107" changeset="false"><tag k="addr:street" v="Brittany Point Lane"/><tag k="addr:housenumber" v="2919"/><tag k="coa:place_id" v="212155"/></node><node id="-231" lat="30.336004" lon="-97.961187" changeset="false"><tag k="addr:street" v="Sebastians Run"/><tag k="addr:housenumber" v="136"/><tag k="coa:place_id" v="3116920"/></node><node id="-232" lat="30.338306" lon="-97.956543" changeset="false"><tag k="addr:street" v="Varco Drive"/><tag k="addr:housenumber" v="225"/><tag k="coa:place_id" v="3298901"/></node><node id="-233" lat="30.338098" lon="-97.958463" changeset="false"><tag k="addr:street" v="Lakota Pass"/><tag k="addr:housenumber" v="122"/><tag k="coa:place_id" v="3117130"/></node><node id="-234" lat="30.336593" lon="-97.956834" changeset="false"><tag k="addr:street" v="Varco Drive"/><tag k="addr:housenumber" v="206"/><tag k="coa:place_id" v="3117112"/></node><node id="-235" lat="30.336189" lon="-97.957294" changeset="false"><tag k="addr:street" v="Varco Drive"/><tag k="addr:housenumber" v="205"/><tag k="coa:place_id" v="3117105"/></node><node id="-236" lat="30.337448" lon="-97.958681" changeset="false"><tag k="addr:street" v="Lakota Pass"/><tag k="addr:housenumber" v="128"/><tag k="coa:place_id" v="3116957"/></node><node id="-237" lat="30.309422" lon="-97.926472" changeset="false"><tag k="addr:street" v="Avenal Drive"/><tag k="addr:housenumber" v="3304"/><tag k="coa:place_id" v="164871"/></node><node id="-238" lat="30.30903" lon="-97.925232" changeset="false"><tag k="addr:street" v="Santee Drive"/><tag k="addr:housenumber" v="3311"/><tag k="coa:place_id" v="167959"/></node><node id="-239" lat="30.330031" lon="-97.961394" changeset="false"><tag k="addr:street" v="Sunrise Ridge Loop"/><tag k="addr:housenumber" v="230"/><tag k="coa:place_id" v="3219444"/></node><node id="-240" lat="30.335009" lon="-97.957058" changeset="false"><tag k="addr:street" v="Whitley Drive"/><tag k="addr:housenumber" v="106"/><tag k="coa:place_id" v="3116992"/></node><node id="-241" lat="30.336829" lon="-97.958995" changeset="false"><tag k="addr:street" v="Lakota Pass"/><tag k="addr:housenumber" v="134"/><tag k="coa:place_id" v="3116960"/></node><node id="-242" lat="30.314042" lon="-97.92311" changeset="false"><tag k="addr:street" v="Carlsbad Drive"/><tag k="addr:housenumber" v="12112"/><tag k="coa:place_id" v="212090"/></node><node id="-243" lat="30.318989" lon="-97.950758" changeset="false"><tag k="addr:street" v="Ranch Road 620 South"/><tag k="addr:housenumber" v="3621"/><tag k="coa:place_id" v="249619"/></node><node id="-244" lat="30.33389" lon="-97.957817" changeset="false"><tag k="addr:street" v="Aria Drive"/><tag k="addr:housenumber" v="305"/><tag k="coa:place_id" v="3117017"/></node><node id="-245" lat="30.331609" lon="-97.958983" changeset="false"><tag k="addr:street" v="Aria Drive"/><tag k="addr:housenumber" v="108 1/2"/><tag k="coa:place_id" v="3116776"/></node><node id="-246" lat="30.337948" lon="-97.95608" changeset="false"><tag k="addr:street" v="Varco Drive"/><tag k="addr:housenumber" v="220"/><tag k="coa:place_id" v="3117119"/></node><node id="-247" lat="30.334572" lon="-97.95738" changeset="false"><tag k="addr:street" v="Whitley Drive"/><tag k="addr:housenumber" v="103"/><tag k="coa:place_id" v="3117001"/></node><node id="-248" lat="30.31103" lon="-97.92321" changeset="false"><tag k="addr:street" v="Loomis Drive"/><tag k="addr:housenumber" v="11934"/><tag k="coa:place_id" v="170740"/></node><node id="-249" lat="30.310243" lon="-97.922473" changeset="false"><tag k="addr:street" v="Portola Court"/><tag k="addr:housenumber" v="3111"/><tag k="coa:place_id" v="198121"/></node><node id="-250" lat="30.337136" lon="-97.95746" changeset="false"><tag k="addr:street" v="Varco Drive"/><tag k="addr:housenumber" v="213"/><tag k="coa:place_id" v="3117109"/></node><node id="-251" lat="30.328909" lon="-97.961985" changeset="false"><tag k="addr:street" v="Sunrise Ridge Cove"/><tag k="addr:housenumber" v="109"/><tag k="coa:place_id" v="3219453"/></node><node id="-252" lat="30.335635" lon="-97.958763" changeset="false"><tag k="addr:street" v="Whitley Drive"/><tag k="addr:housenumber" v="124"/><tag k="coa:place_id" v="3116979"/></node><node id="-253" lat="30.313961" lon="-97.9248" changeset="false"><tag k="addr:street" v="Lenwood Court"/><tag k="addr:housenumber" v="2805"/><tag k="coa:place_id" v="212115"/></node><node id="-254" lat="30.313785" lon="-97.924915" changeset="false"><tag k="addr:street" v="Lenwood Court"/><tag k="addr:housenumber" v="2806"/><tag k="coa:place_id" v="220483"/></node><node id="-255" lat="30.313786" lon="-97.92614" changeset="false"><tag k="addr:street" v="Carlsbad Drive"/><tag k="addr:housenumber" v="12319"/><tag k="coa:place_id" v="212052"/></node><node id="-256" lat="30.308824" lon="-97.924071" changeset="false"><tag k="addr:street" v="Marin Court"/><tag k="addr:housenumber" v="3315"/><tag k="coa:place_id" v="166546"/></node><node id="-257" lat="30.337217" lon="-97.961038" changeset="false"><tag k="addr:street" v="Sebastians Run"/><tag k="addr:housenumber" v="146"/><tag k="coa:place_id" v="3124535"/></node><node id="-258" lat="30.31172" lon="-97.924495" changeset="false"><tag k="addr:street" v="Glendora Court"/><tag k="addr:housenumber" v="2902"/><tag k="coa:place_id" v="212118"/></node><node id="-259" lat="30.311137" lon="-97.923885" changeset="false"><tag k="addr:street" v="Portola Court"/><tag k="addr:housenumber" v="3000"/><tag k="coa:place_id" v="3137160"/></node><node id="-260" lat="30.311127" lon="-97.930435" changeset="false"><tag k="addr:street" v="San Mateo Drive"/><tag k="addr:housenumber" v="3307"/><tag k="coa:place_id" v="198903"/></node><node id="-261" lat="30.315736" lon="-97.929224" changeset="false"><tag k="addr:street" v="Brittany Point Lane"/><tag k="addr:housenumber" v="2906"/><tag k="coa:place_id" v="212137"/></node><node id="-262" lat="30.311664" lon="-97.923739" changeset="false"><tag k="addr:street" v="Tulare Drive"/><tag k="addr:housenumber" v="12036"/><tag k="coa:place_id" v="164237"/></node><node id="-263" lat="30.312656" lon="-97.922544" changeset="false"><tag k="addr:street" v="Fortuna Cove"/><tag k="addr:housenumber" v="12008"/><tag k="coa:place_id" v="162690"/></node><node id="-264" lat="30.336326" lon="-97.95637" changeset="false"><tag k="addr:street" v="Burgess Lane"/><tag k="addr:housenumber" v="103"/><tag k="coa:place_id" v="3117078"/></node><node id="-265" lat="30.335415" lon="-97.955508" changeset="false"><tag k="addr:street" v="Burgess Cove"/><tag k="addr:housenumber" v="112"/><tag k="coa:place_id" v="3117085"/></node><node id="-266" lat="30.313449" lon="-97.922869" changeset="false"><tag k="addr:street" v="Carlsbad Drive"/><tag k="addr:housenumber" v="12107"/><tag k="coa:place_id" v="212103"/></node><node id="-267" lat="30.313406" lon="-97.923963" changeset="false"><tag k="addr:street" v="Carlsbad Drive"/><tag k="addr:housenumber" v="12122"/><tag k="coa:place_id" v="212085"/></node><node id="-268" lat="30.314973" lon="-97.948729" changeset="false"><tag k="addr:street" v="Ranch Road 620 South"/><tag k="addr:housenumber" v="3839"/><tag k="coa:place_id" v="3096142"/></node><node id="-269" lat="30.331656" lon="-97.959879" changeset="false"><tag k="addr:street" v="Aria Drive"/><tag k="addr:housenumber" v="111"/><tag k="coa:place_id" v="3131327"/></node><node id="-270" lat="30.329958" lon="-97.96143" changeset="false"><tag k="addr:street" v="Sunrise Ridge Loop"/><tag k="addr:housenumber" v="228"/><tag k="coa:place_id" v="3219443"/></node><node id="-271" lat="30.337636" lon="-97.957291" changeset="false"><tag k="addr:street" v="Varco Drive"/><tag k="addr:housenumber" v="217"/><tag k="coa:place_id" v="3153178"/></node><node id="-272" lat="30.33485" lon="-97.956882" changeset="false"><tag k="addr:street" v="Whitley Drive"/><tag k="addr:housenumber" v="104"/><tag k="coa:place_id" v="3116991"/></node><node id="-273" lat="30.32974" lon="-97.961584" changeset="false"><tag k="addr:street" v="Sunrise Ridge Loop"/><tag k="addr:housenumber" v="222"/><tag k="coa:place_id" v="3219441"/></node><node id="-274" lat="30.334699" lon="-97.956299" changeset="false"><tag k="addr:street" v="Varco Drive"/><tag k="addr:housenumber" v="101"/><tag k="coa:place_id" v="3145195"/></node><node id="-275" lat="30.3114" lon="-97.925484" changeset="false"><tag k="addr:street" v="Napa Drive"/><tag k="addr:housenumber" v="3012"/><tag k="coa:place_id" v="212034"/></node><node id="-276" lat="30.337036" lon="-97.952878" changeset="false"><tag k="addr:street" v="Burgess Lane"/><tag k="addr:housenumber" v="123"/><tag k="coa:place_id" v="3117101"/></node><node id="-277" lat="30.336489" lon="-97.956034" changeset="false"><tag k="addr:street" v="Burgess Lane"/><tag k="addr:housenumber" v="105"/><tag k="coa:place_id" v="3117079"/></node><node id="-278" lat="30.326472" lon="-97.961784" changeset="false"><tag k="addr:street" v="Ranch Road 620 South"/><tag k="addr:housenumber" v="3403"/><tag k="coa:place_id" v="3180422"/></node><node id="-279" lat="30.310714" lon="-97.92809" changeset="false"><tag k="addr:street" v="Adelanto Court"/><tag k="addr:housenumber" v="3303"/><tag k="coa:place_id" v="165139"/></node><node id="-280" lat="30.314596" lon="-97.929028" changeset="false"><tag k="addr:street" v="Brittany Point Lane"/><tag k="addr:housenumber" v="2917"/><tag k="coa:place_id" v="212154"/></node><node id="-281" lat="30.337666" lon="-97.96049" changeset="false"><tag k="addr:street" v="Lakota Pass"/><tag k="addr:housenumber" v="150"/><tag k="coa:place_id" v="3116946"/></node><node id="-282" lat="30.311278" lon="-97.924296" changeset="false"><tag k="addr:street" v="Tulare Drive"/><tag k="addr:housenumber" v="12048"/><tag k="coa:place_id" v="164233"/></node><node id="-283" lat="30.336729" lon="-97.954948" changeset="false"><tag k="addr:street" v="Burgess Lane"/><tag k="addr:housenumber" v="111"/><tag k="coa:place_id" v="3117095"/></node><node id="-284" lat="30.337989" lon="-97.957004" changeset="false"><tag k="addr:street" v="Varco Drive"/><tag k="addr:housenumber" v="221"/><tag k="coa:place_id" v="3153180"/></node><node id="-285" lat="30.336717" lon="-97.954258" changeset="false"><tag k="addr:street" v="Burgess Lane"/><tag k="addr:housenumber" v="115"/><tag k="coa:place_id" v="3117097"/></node><node id="-286" lat="30.311627" lon="-97.931579" changeset="false"><tag k="addr:street" v="San Mateo Drive"/><tag k="addr:housenumber" v="3315"/><tag k="coa:place_id" v="183172"/></node><node id="-287" lat="30.315258" lon="-97.928969" changeset="false"><tag k="addr:street" v="Brittany Point Lane"/><tag k="addr:housenumber" v="2909"/><tag k="coa:place_id" v="212149"/></node><node id="-288" lat="30.315129" lon="-97.929447" changeset="false"><tag k="addr:street" v="Brittany Point Lane"/><tag k="addr:housenumber" v="2912"/><tag k="coa:place_id" v="212133"/></node><node id="-289" lat="30.310997" lon="-97.931587" changeset="false"><tag k="addr:street" v="Normandy Ridge Lane"/><tag k="addr:housenumber" v="3412"/><tag k="coa:place_id" v="183145"/></node><node id="-290" lat="30.335738" lon="-97.958506" changeset="false"><tag k="addr:street" v="Whitley Drive"/><tag k="addr:housenumber" v="122"/><tag k="coa:place_id" v="3117000"/></node><node id="-291" lat="30.335496" lon="-97.954879" changeset="false"><tag k="addr:street" v="Burgess Cove"/><tag k="addr:housenumber" v="116"/><tag k="coa:place_id" v="3117087"/></node><node id="-292" lat="30.335222" lon="-97.955289" changeset="false"><tag k="addr:street" v="Burgess Cove"/><tag k="addr:housenumber" v="114"/><tag k="coa:place_id" v="3117086"/></node><node id="-293" lat="30.333162" lon="-97.958364" changeset="false"><tag k="addr:street" v="Aria Drive"/><tag k="addr:housenumber" v="205"/><tag k="coa:place_id" v="3130285"/></node><node id="-294" lat="30.332449" lon="-97.958966" changeset="false"><tag k="addr:street" v="Sebastians Run"/><tag k="addr:housenumber" v="101"/><tag k="coa:place_id" v="3130026"/></node><node id="-295" lat="30.309648" lon="-97.93047" changeset="false"><tag k="addr:street" v="Pleasant Hill Court"/><tag k="addr:housenumber" v="12317"/><tag k="coa:place_id" v="239681"/></node><node id="-296" lat="30.31221" lon="-97.923067" changeset="false"><tag k="addr:street" v="Tulare Drive"/><tag k="addr:housenumber" v="12020"/><tag k="coa:place_id" v="164244"/></node><node id="-297" lat="30.312091" lon="-97.925556" changeset="false"><tag k="addr:street" v="Carlsbad Drive"/><tag k="addr:housenumber" v="12301"/><tag k="coa:place_id" v="3029318"/></node><node id="-298" lat="30.313977" lon="-97.930321" changeset="false"><tag k="addr:street" v="Huron Club Court"/><tag k="addr:housenumber" v="3009"/><tag k="coa:place_id" v="210899"/></node><node id="-299" lat="30.335399" lon="-97.958009" changeset="false"><tag k="addr:street" v="Whitley Drive"/><tag k="addr:housenumber" v="111"/><tag k="coa:place_id" v="3117005"/></node><node id="-300" lat="30.308839" lon="-97.924607" changeset="false"><tag k="addr:street" v="Marin Court"/><tag k="addr:housenumber" v="3316"/><tag k="coa:place_id" v="166547"/></node><node id="-301" lat="30.335991" lon="-97.960394" changeset="false"><tag k="addr:street" v="Lakota Cove"/><tag k="addr:housenumber" v="137"/><tag k="coa:place_id" v="3116948"/></node><node id="-302" lat="30.332364" lon="-97.9582" changeset="false"><tag k="addr:street" v="Aria Drive"/><tag k="addr:housenumber" v="112"/><tag k="coa:place_id" v="3117011"/></node><node id="-303" lat="30.311965" lon="-97.92499" changeset="false"><tag k="addr:street" v="Napa Drive"/><tag k="addr:housenumber" v="3003"/><tag k="coa:place_id" v="223226"/></node><node id="-304" lat="30.328684" lon="-97.961685" changeset="false"><tag k="addr:street" v="Sunrise Ridge Cove"/><tag k="addr:housenumber" v="204"/><tag k="coa:place_id" v="3219457"/></node><node id="-305" lat="30.328708" lon="-97.961607" changeset="false"><tag k="addr:street" v="Sunrise Ridge Cove"/><tag k="addr:housenumber" v="206"/><tag k="coa:place_id" v="3219458"/></node><node id="-306" lat="30.328752" lon="-97.961437" changeset="false"><tag k="addr:street" v="Sunrise Ridge Cove"/><tag k="addr:housenumber" v="210"/><tag k="coa:place_id" v="3219460"/></node><node id="-307" lat="30.324668" lon="-97.956813" changeset="false"><tag k="addr:street" v="Ranch Road 620 South"/><tag k="addr:housenumber" v="3501"/><tag k="coa:place_id" v="3141723"/></node><node id="-308" lat="30.331592" lon="-97.960178" changeset="false"><tag k="addr:street" v="Aria Drive"/><tag k="addr:housenumber" v="109"/><tag k="coa:place_id" v="3131326"/></node><node id="-309" lat="30.32884" lon="-97.961152" changeset="false"><tag k="addr:street" v="Sunrise Ridge Cove"/><tag k="addr:housenumber" v="218"/><tag k="coa:place_id" v="3219463"/></node><node id="-310" lat="30.338109" lon="-97.961275" changeset="false"><tag k="addr:street" v="Sebastians Run"/><tag k="addr:housenumber" v="203"/><tag k="coa:place_id" v="3116937"/></node><node id="-311" lat="30.335039" lon="-97.958674" changeset="false"><tag k="addr:street" v="Whitley Drive"/><tag k="addr:housenumber" v="117"/><tag k="coa:place_id" v="3116982"/></node><node id="-312" lat="30.314619" lon="-97.930233" changeset="false"><tag k="addr:street" v="Huron Club Court"/><tag k="addr:housenumber" v="3001"/><tag k="coa:place_id" v="183263"/></node><node id="-313" lat="30.3102" lon="-97.930434" changeset="false"><tag k="addr:street" v="Pleasant Hill Court"/><tag k="addr:housenumber" v="12312"/><tag k="coa:place_id" v="183107"/></node><node id="-314" lat="30.309286" lon="-97.926292" changeset="false"><tag k="addr:street" v="Avenal Drive"/><tag k="addr:housenumber" v="3308"/><tag k="coa:place_id" v="164873"/></node><node id="-315" lat="30.307156" lon="-97.935932" changeset="false"><tag k="addr:street" v="Market Street"/><tag k="addr:housenumber" v="3929"/><tag k="coa:place_id" v="3368260"/></node><node id="-316" lat="30.307285" lon="-97.93614" changeset="false"><tag k="addr:street" v="Market Street"/><tag k="addr:housenumber" v="3925"/><tag k="coa:place_id" v="3368259"/></node><node id="-317" lat="30.328967" lon="-97.960773" changeset="false"><tag k="addr:street" v="Sunrise Ridge Cove"/><tag k="addr:housenumber" v="228"/><tag k="coa:place_id" v="3219467"/></node><node id="-318" lat="30.329038" lon="-97.96065" changeset="false"><tag k="addr:street" v="Sunrise Ridge Cove"/><tag k="addr:housenumber" v="232"/><tag k="coa:place_id" v="3219469"/></node><node id="-319" lat="30.329155" lon="-97.960441" changeset="false"><tag k="addr:street" v="Sunrise Ridge Cove"/><tag k="addr:housenumber" v="238"/><tag k="coa:place_id" v="3219471"/></node><node id="-320" lat="30.329065" lon="-97.960572" changeset="false"><tag k="addr:street" v="Sunrise Ridge Cove"/><tag k="addr:housenumber" v="234"/><tag k="coa:place_id" v="3219470"/></node><node id="-321" lat="30.329004" lon="-97.960706" changeset="false"><tag k="addr:street" v="Sunrise Ridge Cove"/><tag k="addr:housenumber" v="230"/><tag k="coa:place_id" v="3219468"/></node><node id="-322" lat="30.329315" lon="-97.960312" changeset="false"><tag k="addr:street" v="Sunrise Ridge Cove"/><tag k="addr:housenumber" v="244"/><tag k="coa:place_id" v="3219474"/></node><node id="-323" lat="30.329208" lon="-97.960389" changeset="false"><tag k="addr:street" v="Sunrise Ridge Cove"/><tag k="addr:housenumber" v="240"/><tag k="coa:place_id" v="3219472"/></node><node id="-324" lat="30.329262" lon="-97.960347" changeset="false"><tag k="addr:street" v="Sunrise Ridge Cove"/><tag k="addr:housenumber" v="242"/><tag k="coa:place_id" v="3219473"/></node></osm>