<?xml version="1.0" encoding="UTF-8"?><osm version="0.6" generator="github.com/aaronlidman/osm-and-geojson"><node id="-1" lat="30.313186" lon="-97.931408" changeset="false"><tag k="addr:street" v="Fairfax Ridge Place"/><tag k="addr:housenumber" v="12437"/></node><node id="-2" lat="30.31214" lon="-97.931806" changeset="false"><tag k="addr:street" v="San Mateo Drive"/><tag k="addr:housenumber" v="3310"/></node><node id="-3" lat="30.312252" lon="-97.931597" changeset="false"><tag k="addr:street" v="San Mateo Drive"/><tag k="addr:housenumber" v="3306"/></node><node id="-4" lat="30.31182" lon="-97.932338" changeset="false"><tag k="addr:street" v="San Mateo Drive"/><tag k="addr:housenumber" v="3400"/></node><node id="-5" lat="30.309577" lon="-97.920964" changeset="false"><tag k="addr:street" v="Sonoma Drive"/><tag k="addr:housenumber" v="11801"/></node><node id="-6" lat="30.307448" lon="-97.931368" changeset="false"><tag k="addr:street" v="Bee Cave Parkway"/><tag k="addr:housenumber" v="12200"/></node><node id="-7" lat="30.306605" lon="-97.935727" changeset="false"><tag k="addr:street" v="Market Street"/><tag k="addr:housenumber" v="4005"/></node><node id="-8" lat="30.307726" lon="-97.936618" changeset="false"><tag k="addr:street" v="Market Street"/><tag k="addr:housenumber" v="3921"/></node><node id="-9" lat="30.309855" lon="-97.939927" changeset="false"><tag k="addr:street" v="Galleria Circle"/><tag k="addr:housenumber" v="13412"/></node><node id="-10" lat="30.308837" lon="-97.943654" changeset="false"><tag k="addr:street" v="Galleria Circle"/><tag k="addr:housenumber" v="12921"/></node><node id="-11" lat="30.309567" lon="-97.939332" changeset="false"><tag k="addr:street" v="Galleria Circle"/><tag k="addr:housenumber" v="13420"/></node><node id="-12" lat="30.309253" lon="-97.938745" changeset="false"><tag k="addr:street" v="Galleria Circle"/><tag k="addr:housenumber" v="13500"/></node><node id="-13" lat="30.308495" lon="-97.939905" changeset="false"><tag k="addr:street" v="Galleria Parkway"/><tag k="addr:housenumber" v="4000"/></node><node id="-14" lat="30.308643" lon="-97.942889" changeset="false"><tag k="addr:street" v="Galleria Circle"/><tag k="addr:housenumber" v="12913"/></node></osm>