<?xml version="1.0" encoding="UTF-8"?><osm version="0.6" generator="github.com/aaronlidman/osm-and-geojson"><node id="-1" lat="30.215907" lon="-97.758176" changeset="false"><tag k="addr:street" v="Industrial Boulevard"/><tag k="addr:housenumber" v="707"/><tag k="coa:place_id" v="290212"/></node><node id="-2" lat="30.220568" lon="-97.761734" changeset="false"><tag k="addr:street" v="East Ben White Boulevard"/><tag k="addr:housenumber" v="209"/><tag k="coa:place_id" v="155493"/></node><node id="-3" lat="30.219794" lon="-97.762913" changeset="false"><tag k="addr:street" v="Industrial Boulevard"/><tag k="addr:housenumber" v="204"/><tag k="coa:place_id" v="745496"/></node><node id="-4" lat="30.219671" lon="-97.762611" changeset="false"><tag k="addr:street" v="Industrial Boulevard"/><tag k="addr:housenumber" v="210"/><tag k="coa:place_id" v="745490"/></node><node id="-5" lat="30.219571" lon="-97.762383" changeset="false"><tag k="addr:street" v="Industrial Boulevard"/><tag k="addr:housenumber" v="212"/><tag k="coa:place_id" v="795728"/></node><node id="-6" lat="30.21975" lon="-97.765458" changeset="false"><tag k="addr:street" v="South Congress Avenue"/><tag k="addr:housenumber" v="4241"/><tag k="coa:place_id" v="745160"/></node></osm>