<?xml version="1.0" encoding="UTF-8"?><osm version="0.6" generator="github.com/aaronlidman/osm-and-geojson"><node id="-1" lat="30.386537" lon="-97.689421" changeset="false"><tag k="addr:street" v="North Bend Drive"/><tag k="addr:housenumber" v="1002"/><tag k="coa:place_id" v="417933"/></node><node id="-2" lat="30.386217" lon="-97.693658" changeset="false"><tag k="addr:street" v="Parkfield Drive"/><tag k="addr:housenumber" v="11401"/><tag k="coa:place_id" v="426044"/></node><node id="-3" lat="30.383204" lon="-97.688529" changeset="false"><tag k="addr:street" v="West Braker Lane"/><tag k="addr:housenumber" v="900 1/2"/><tag k="coa:place_id" v="3051604"/></node><node id="-4" lat="30.381948" lon="-97.686541" changeset="false"><tag k="addr:street" v="North Lamar Boulevard"/><tag k="addr:housenumber" v="11222"/><tag k="coa:place_id" v="375746"/></node><node id="-5" lat="30.381881" lon="-97.68662" changeset="false"><tag k="addr:street" v="North Lamar Boulevard"/><tag k="addr:housenumber" v="11220 1/2"/><tag k="coa:place_id" v="3217083"/></node><node id="-6" lat="30.386921" lon="-97.693664" changeset="false"><tag k="addr:street" v="Gemini Drive"/><tag k="addr:housenumber" v="1209"/><tag k="coa:place_id" v="974006"/></node><node id="-7" lat="30.387786" lon="-97.691686" changeset="false"><tag k="addr:street" v="Knollpark Circle"/><tag k="addr:housenumber" v="1203"/><tag k="coa:place_id" v="1048448"/></node><node id="-8" lat="30.383791" lon="-97.693069" changeset="false"><tag k="addr:street" v="Plains Trail"/><tag k="addr:housenumber" v="11205"/><tag k="coa:place_id" v="3139795"/></node><node id="-9" lat="30.381892" lon="-97.686629" changeset="false"><tag k="addr:street" v="North Lamar Boulevard"/><tag k="addr:housenumber" v="11220"/><tag k="coa:place_id" v="375740"/></node><node id="-10" lat="30.381765" lon="-97.686641" changeset="false"><tag k="addr:street" v="North Lamar Boulevard"/><tag k="addr:housenumber" v="11212"/><tag k="coa:place_id" v="247084"/></node><node id="-11" lat="30.380719" lon="-97.689495" changeset="false"><tag k="addr:street" v="Kramer Lane"/><tag k="addr:housenumber" v="834"/><tag k="coa:place_id" v="246865"/></node><node id="-12" lat="30.38193" lon="-97.691158" changeset="false"><tag k="addr:street" v="Kramer Lane"/><tag k="addr:housenumber" v="1014"/><tag k="coa:place_id" v="426206"/></node><node id="-13" lat="30.382051" lon="-97.686971" changeset="false"><tag k="addr:street" v="West Braker Lane"/><tag k="addr:housenumber" v="801"/><tag k="coa:place_id" v="3116160"/></node><node id="-14" lat="30.381743" lon="-97.686764" changeset="false"><tag k="addr:street" v="North Lamar Boulevard"/><tag k="addr:housenumber" v="11218"/><tag k="coa:place_id" v="357363"/></node><node id="-15" lat="30.383316" lon="-97.688415" changeset="false"><tag k="addr:street" v="West Braker Lane"/><tag k="addr:housenumber" v="900"/><tag k="coa:place_id" v="3326926"/></node><node id="-16" lat="30.38094" lon="-97.687534" changeset="false"><tag k="addr:street" v="North Lamar Boulevard"/><tag k="addr:housenumber" v="11112"/><tag k="coa:place_id" v="247079"/></node><node id="-17" lat="30.387657" lon="-97.69225" changeset="false"><tag k="addr:street" v="Space Lane"/><tag k="addr:housenumber" v="1202"/><tag k="coa:place_id" v="1014170"/></node><node id="-18" lat="30.386166" lon="-97.695036" changeset="false"><tag k="addr:street" v="West Braker Lane"/><tag k="addr:housenumber" v="1316"/><tag k="coa:place_id" v="257153"/></node><node id="-19" lat="30.387871" lon="-97.691846" changeset="false"><tag k="addr:street" v="Knollpark Circle"/><tag k="addr:housenumber" v="1205"/><tag k="coa:place_id" v="1006472"/></node><node id="-20" lat="30.383999" lon="-97.691537" changeset="false"><tag k="addr:street" v="West Braker Lane"/><tag k="addr:housenumber" v="1013 1/2"/><tag k="coa:place_id" v="5217372"/></node><node id="-21" lat="30.38448" lon="-97.685276" changeset="false"><tag k="addr:street" v="North Lamar Boulevard"/><tag k="addr:housenumber" v="11512"/><tag k="coa:place_id" v="1163412"/></node><node id="-22" lat="30.380518" lon="-97.68752" changeset="false"><tag k="addr:street" v="North Lamar Boulevard"/><tag k="addr:housenumber" v="11104"/><tag k="coa:place_id" v="93099"/></node><node id="-23" lat="30.388439" lon="-97.692164" changeset="false"><tag k="addr:street" v="Knollpark Circle"/><tag k="addr:housenumber" v="1212"/><tag k="coa:place_id" v="1043708"/></node><node id="-24" lat="30.387754" lon="-97.688557" changeset="false"><tag k="addr:street" v="Minda Drive"/><tag k="addr:housenumber" v="1004"/><tag k="coa:place_id" v="375374"/></node><node id="-25" lat="30.383277" lon="-97.695655" changeset="false"><tag k="addr:street" v="Renel Drive"/><tag k="addr:housenumber" v="11103"/><tag k="coa:place_id" v="249727"/></node><node id="-26" lat="30.382695" lon="-97.693724" changeset="false"><tag k="addr:street" v="Kramer Lane"/><tag k="addr:housenumber" v="1114"/><tag k="coa:place_id" v="3701426"/></node><node id="-27" lat="30.382641" lon="-97.688849" changeset="false"><tag k="addr:street" v="West Braker Lane"/><tag k="addr:housenumber" v="901"/><tag k="coa:place_id" v="3132078"/></node><node id="-28" lat="30.384383" lon="-97.692685" changeset="false"><tag k="addr:street" v="West Braker Lane"/><tag k="addr:housenumber" v="1139"/><tag k="coa:place_id" v="3207731"/></node><node id="-29" lat="30.387374" lon="-97.694149" changeset="false"><tag k="addr:street" v="Parkfield Drive"/><tag k="addr:housenumber" v="11407"/><tag k="coa:place_id" v="1006352"/></node><node id="-30" lat="30.381215" lon="-97.687562" changeset="false"><tag k="addr:street" v="North Lamar Boulevard"/><tag k="addr:housenumber" v="11114"/><tag k="coa:place_id" v="247080"/></node><node id="-31" lat="30.386274" lon="-97.688527" changeset="false"><tag k="addr:street" v="North Bend Drive"/><tag k="addr:housenumber" v="912"/><tag k="coa:place_id" v="374852"/></node><node id="-32" lat="30.382901" lon="-97.694352" changeset="false"><tag k="addr:street" v="Kramer Lane"/><tag k="addr:housenumber" v="1200"/><tag k="coa:place_id" v="662199"/></node><node id="-33" lat="30.38465" lon="-97.693517" changeset="false"><tag k="addr:street" v="West Braker Lane"/><tag k="addr:housenumber" v="1201"/><tag k="coa:place_id" v="3100727"/></node><node id="-34" lat="30.383315" lon="-97.693374" changeset="false"><tag k="addr:street" v="Plains Trail"/><tag k="addr:housenumber" v="11113"/><tag k="coa:place_id" v="3139794"/></node><node id="-35" lat="30.387622" lon="-97.688292" changeset="false"><tag k="addr:street" v="Minda Drive"/><tag k="addr:housenumber" v="1002"/><tag k="coa:place_id" v="375356"/></node><node id="-36" lat="30.386747" lon="-97.69017" changeset="false"><tag k="addr:street" v="Circle Bend Drive"/><tag k="addr:housenumber" v="11506"/><tag k="coa:place_id" v="3031904"/></node><node id="-37" lat="30.380006" lon="-97.687896" changeset="false"><tag k="addr:street" v="North Lamar Boulevard"/><tag k="addr:housenumber" v="11100"/><tag k="coa:place_id" v="99207"/></node><node id="-38" lat="30.38328" lon="-97.688868" changeset="false"><tag k="addr:street" v="West Braker Lane"/><tag k="addr:housenumber" v="908"/><tag k="coa:place_id" v="177943"/></node><node id="-39" lat="30.383135" lon="-97.693487" changeset="false"><tag k="addr:street" v="Plains Trail"/><tag k="addr:housenumber" v="11109"/><tag k="coa:place_id" v="3139793"/></node><node id="-40" lat="30.383115" lon="-97.690797" changeset="false"><tag k="addr:street" v="West Braker Lane"/><tag k="addr:housenumber" v="1001"/><tag k="coa:place_id" v="201852"/></node><node id="-41" lat="30.383216" lon="-97.686013" changeset="false"><tag k="addr:street" v="North Lamar Boulevard"/><tag k="addr:housenumber" v="11336"/><tag k="coa:place_id" v="177947"/></node><node id="-42" lat="30.384245" lon="-97.685847" changeset="false"><tag k="addr:street" v="North Lamar Boulevard"/><tag k="addr:housenumber" v="11422"/><tag k="coa:place_id" v="623350"/></node><node id="-43" lat="30.383662" lon="-97.686243" changeset="false"><tag k="addr:street" v="North Lamar Boulevard"/><tag k="addr:housenumber" v="11400"/><tag k="coa:place_id" v="247085"/></node><node id="-44" lat="30.38484" lon="-97.689435" changeset="false"><tag k="addr:street" v="Titian Drive"/><tag k="addr:housenumber" v="11403"/><tag k="coa:place_id" v="374948"/></node><node id="-45" lat="30.384888" lon="-97.689463" changeset="false"><tag k="addr:street" v="Titian Drive"/><tag k="addr:housenumber" v="11309"/><tag k="coa:place_id" v="374942"/></node></osm>