<?xml version="1.0" encoding="UTF-8"?><osm version="0.6" generator="github.com/aaronlidman/osm-and-geojson"><node id="-1" lat="30.300706" lon="-97.746883" changeset="false"><tag k="addr:street" v="West 31st Street"/><tag k="addr:housenumber" v="1014"/><tag k="addr:postcode" v="78705"/></node><node id="-2" lat="30.303005" lon="-97.747416" changeset="false"><tag k="addr:street" v="Bailey Lane"/><tag k="addr:housenumber" v="3300"/><tag k="addr:postcode" v="78705"/></node><node id="-3" lat="30.30125" lon="-97.746455" changeset="false"><tag k="addr:street" v="West 32nd Street"/><tag k="addr:housenumber" v="1009"/><tag k="addr:postcode" v="78705"/></node><node id="-4" lat="30.301079" lon="-97.747609" changeset="false"><tag k="addr:street" v="West 31st Street"/><tag k="addr:housenumber" v="1103"/><tag k="addr:postcode" v="78705"/></node><node id="-5" lat="30.309962" lon="-97.742209" changeset="false"><tag k="addr:street" v="West 41st Street"/><tag k="addr:housenumber" v="1108"/><tag k="addr:postcode" v="78756"/></node><node id="-6" lat="30.312963" lon="-97.738439" changeset="false"><tag k="addr:street" v="North Lamar Boulevard"/><tag k="addr:housenumber" v="4414"/><tag k="addr:postcode" v="78756"/></node><node id="-7" lat="30.312053" lon="-97.739749" changeset="false"><tag k="addr:street" v="Marathon Boulevard"/><tag k="addr:housenumber" v="4309"/><tag k="addr:postcode" v="78756"/></node><node id="-8" lat="30.302845" lon="-97.749003" changeset="false"><tag k="addr:street" v="Shoal Creek Boulevard"/><tag k="addr:housenumber" v="3211"/><tag k="addr:postcode" v="78705"/></node><node id="-9" lat="30.314685" lon="-97.740481" changeset="false"><tag k="addr:street" v="West 45th Street"/><tag k="addr:housenumber" v="1209"/><tag k="addr:postcode" v="78756"/></node><node id="-10" lat="30.30128" lon="-97.746801" changeset="false"><tag k="addr:street" v="West 32nd Street"/><tag k="addr:housenumber" v="1011"/><tag k="addr:postcode" v="78705"/></node><node id="-11" lat="30.307962" lon="-97.742594" changeset="false"><tag k="addr:street" v="Medical Parkway"/><tag k="addr:housenumber" v="3921"/><tag k="addr:postcode" v="78756"/></node><node id="-12" lat="30.303035" lon="-97.744619" changeset="false"><tag k="addr:street" v="North Lamar Boulevard"/><tag k="addr:housenumber" v="3402"/><tag k="addr:postcode" v="78705"/></node><node id="-13" lat="30.313864" lon="-97.741916" changeset="false"><tag k="addr:street" v="West 44th Street"/><tag k="addr:housenumber" v="1302"/><tag k="addr:postcode" v="78756"/></node><node id="-14" lat="30.30825" lon="-97.747567" changeset="false"><tag k="addr:street" v="Shoal Creek Boulevard"/><tag k="addr:housenumber" v="3901"/><tag k="addr:postcode" v="78756"/></node><node id="-15" lat="30.309392" lon="-97.742263" changeset="false"><tag k="addr:street" v="Marathon Boulevard"/><tag k="addr:housenumber" v="4012"/><tag k="addr:postcode" v="78756"/></node><node id="-16" lat="30.312021" lon="-97.739088" changeset="false"><tag k="addr:street" v="North Lamar Boulevard"/><tag k="addr:housenumber" v="4326"/><tag k="addr:postcode" v="78756"/></node><node id="-17" lat="30.30412" lon="-97.747941" changeset="false"><tag k="addr:street" v="West 34th Street"/><tag k="addr:housenumber" v="1309"/><tag k="addr:postcode" v="78705"/></node><node id="-18" lat="30.303677" lon="-97.747046" changeset="false"><tag k="addr:street" v="West 34th Street"/><tag k="addr:housenumber" v="1203"/><tag k="addr:postcode" v="78705"/></node><node id="-19" lat="30.313546" lon="-97.738131" changeset="false"><tag k="addr:street" v="West 45th Street"/><tag k="addr:housenumber" v="1007"/><tag k="addr:postcode" v="78756"/></node><node id="-20" lat="30.303611" lon="-97.744229" changeset="false"><tag k="addr:street" v="North Lamar Boulevard"/><tag k="addr:housenumber" v="3500"/><tag k="addr:postcode" v="78705"/></node><node id="-21" lat="30.308034" lon="-97.741399" changeset="false"><tag k="addr:street" v="North Lamar Boulevard"/><tag k="addr:housenumber" v="4000 1/2"/><tag k="addr:postcode" v="78756"/></node><node id="-22" lat="30.306941" lon="-97.743234" changeset="false"><tag k="addr:street" v="Medical Parkway"/><tag k="addr:housenumber" v="3903"/><tag k="addr:postcode" v="78756"/></node><node id="-23" lat="30.303972" lon="-97.746929" changeset="false"><tag k="addr:street" v="West 34th Street"/><tag k="addr:housenumber" v="1206"/><tag k="addr:postcode" v="78705"/></node><node id="-24" lat="30.309337" lon="-97.740757" changeset="false"><tag k="addr:street" v="North Lamar Boulevard"/><tag k="addr:housenumber" v="4104"/><tag k="addr:postcode" v="78756"/></node><node id="-25" lat="30.307825" lon="-97.742667" changeset="false"><tag k="addr:street" v="Medical Parkway"/><tag k="addr:housenumber" v="3919"/><tag k="addr:postcode" v="78756"/></node><node id="-26" lat="30.305506" lon="-97.744074" changeset="false"><tag k="addr:street" v="Medical Parkway"/><tag k="addr:housenumber" v="3717"/><tag k="addr:postcode" v="78705"/></node><node id="-27" lat="30.307891" lon="-97.745671" changeset="false"><tag k="addr:street" v="Tonkawa Trail"/><tag k="addr:housenumber" v="3813"/><tag k="addr:postcode" v="78756"/></node><node id="-28" lat="30.31239" lon="-97.738854" changeset="false"><tag k="addr:street" v="North Lamar Boulevard"/><tag k="addr:housenumber" v="4400"/><tag k="addr:postcode" v="78756"/></node><node id="-29" lat="30.303677" lon="-97.748712" changeset="false"><tag k="addr:street" v="Shoal Creek Boulevard"/><tag k="addr:housenumber" v="3307"/><tag k="addr:postcode" v="78705"/></node><node id="-30" lat="30.30358" lon="-97.744405" changeset="false"><tag k="addr:street" v="West 35th Street"/><tag k="addr:housenumber" v="1000"/><tag k="addr:postcode" v="78705"/></node><node id="-31" lat="30.303382" lon="-97.7467" changeset="false"><tag k="addr:street" v="West 34th Street"/><tag k="addr:housenumber" v="1111"/><tag k="addr:postcode" v="78705"/></node><node id="-32" lat="30.309177" lon="-97.746465" changeset="false"><tag k="addr:street" v="Peterson Avenue"/><tag k="addr:housenumber" v="3910 1/2"/><tag k="addr:postcode" v="78756"/></node><node id="-33" lat="30.306226" lon="-97.742515" changeset="false"><tag k="addr:street" v="North Lamar Boulevard"/><tag k="addr:housenumber" v="3820 1/2"/><tag k="addr:postcode" v="78756"/></node><node id="-34" lat="30.298541" lon="-97.74732" changeset="false"><tag k="addr:street" v="North Lamar Boulevard"/><tag k="addr:housenumber" v="2919"/><tag k="addr:postcode" v="78705"/></node><node id="-35" lat="30.303819" lon="-97.746693" changeset="false"><tag k="addr:street" v="West 34th Street"/><tag k="addr:housenumber" v="1204"/><tag k="addr:postcode" v="78705"/></node><node id="-36" lat="30.303716" lon="-97.747111" changeset="false"><tag k="addr:street" v="West 34th Street"/><tag k="addr:housenumber" v="1211"/><tag k="addr:postcode" v="78705"/></node><node id="-37" lat="30.308783" lon="-97.740947" changeset="false"><tag k="addr:street" v="North Lamar Boulevard"/><tag k="addr:housenumber" v="4014"/><tag k="addr:postcode" v="78756"/></node><node id="-38" lat="30.301312" lon="-97.745836" changeset="false"><tag k="addr:street" v="West 32nd Street"/><tag k="addr:housenumber" v="1004"/><tag k="addr:postcode" v="78705"/></node><node id="-39" lat="30.303767" lon="-97.747214" changeset="false"><tag k="addr:street" v="West 34th Street"/><tag k="addr:housenumber" v="1213"/><tag k="addr:postcode" v="78705"/></node><node id="-40" lat="30.314097" lon="-97.739192" changeset="false"><tag k="addr:street" v="West 45th Street"/><tag k="addr:housenumber" v="1103"/><tag k="addr:postcode" v="78756"/></node><node id="-41" lat="30.311354" lon="-97.739623" changeset="false"><tag k="addr:street" v="North Lamar Boulevard"/><tag k="addr:housenumber" v="4300"/><tag k="addr:postcode" v="78756"/></node><node id="-42" lat="30.308607" lon="-97.746425" changeset="false"><tag k="addr:street" v="Peterson Avenue"/><tag k="addr:housenumber" v="3903"/><tag k="addr:postcode" v="78756"/></node><node id="-43" lat="30.312906" lon="-97.738475" changeset="false"><tag k="addr:street" v="North Lamar Boulevard"/><tag k="addr:housenumber" v="4412"/><tag k="addr:postcode" v="78756"/></node><node id="-44" lat="30.309575" lon="-97.741728" changeset="false"><tag k="addr:street" v="West 41st Street"/><tag k="addr:housenumber" v="1100"/><tag k="addr:postcode" v="78756"/></node><node id="-45" lat="30.305172" lon="-97.743733" changeset="false"><tag k="addr:street" v="West 38th Street"/><tag k="addr:housenumber" v="1005"/><tag k="addr:postcode" v="78705"/></node><node id="-46" lat="30.3144" lon="-97.741064" changeset="false"><tag k="addr:street" v="Maybelle Avenue"/><tag k="addr:housenumber" v="4416"/><tag k="addr:postcode" v="78756"/></node><node id="-47" lat="30.307981" lon="-97.741495" changeset="false"><tag k="addr:street" v="North Lamar Boulevard"/><tag k="addr:housenumber" v="4000"/><tag k="addr:postcode" v="78756"/></node><node id="-48" lat="30.309658" lon="-97.742457" changeset="false"><tag k="addr:street" v="Medical Parkway"/><tag k="addr:housenumber" v="4021"/><tag k="addr:postcode" v="78756"/></node><node id="-49" lat="30.312499" lon="-97.738799" changeset="false"><tag k="addr:street" v="North Lamar Boulevard"/><tag k="addr:housenumber" v="4402"/><tag k="addr:postcode" v="78756"/></node><node id="-50" lat="30.306845" lon="-97.746512" changeset="false"><tag k="addr:street" v="Tonkawa Trail"/><tag k="addr:housenumber" v="3800"/><tag k="addr:postcode" v="78756"/></node><node id="-51" lat="30.302455" lon="-97.746972" changeset="false"><tag k="addr:street" v="West 33rd Street"/><tag k="addr:housenumber" v="1101"/><tag k="addr:postcode" v="78705"/></node><node id="-52" lat="30.308149" lon="-97.742442" changeset="false"><tag k="addr:street" v="Marathon Boulevard"/><tag k="addr:housenumber" v="3905"/><tag k="addr:postcode" v="78756"/></node><node id="-53" lat="30.30368" lon="-97.747068" changeset="false"><tag k="addr:street" v="West 34th Street"/><tag k="addr:housenumber" v="1205"/><tag k="addr:postcode" v="78705"/></node><node id="-54" lat="30.312683" lon="-97.741771" changeset="false"><tag k="addr:street" v="Maybelle Avenue"/><tag k="addr:housenumber" v="4411"/><tag k="addr:postcode" v="78756"/></node><node id="-55" lat="30.308021" lon="-97.742433" changeset="false"><tag k="addr:street" v="Medical Parkway"/><tag k="addr:housenumber" v="3923"/><tag k="addr:postcode" v="78756"/></node><node id="-56" lat="30.308522" lon="-97.741149" changeset="false"><tag k="addr:street" v="North Lamar Boulevard"/><tag k="addr:housenumber" v="4016"/><tag k="addr:postcode" v="78756"/></node><node id="-57" lat="30.30977" lon="-97.741916" changeset="false"><tag k="addr:street" v="Marathon Boulevard"/><tag k="addr:housenumber" v="4102"/><tag k="addr:postcode" v="78756"/></node><node id="-58" lat="30.3107" lon="-97.741067" changeset="false"><tag k="addr:street" v="Marathon Boulevard"/><tag k="addr:housenumber" v="4202"/><tag k="addr:postcode" v="78756"/></node><node id="-59" lat="30.302969" lon="-97.747182" changeset="false"><tag k="addr:street" v="West 33rd Street"/><tag k="addr:housenumber" v="1208"/><tag k="addr:postcode" v="78705"/></node><node id="-60" lat="30.307874" lon="-97.74301" changeset="false"><tag k="addr:street" v="Medical Parkway"/><tag k="addr:housenumber" v="3916"/><tag k="addr:postcode" v="78756"/></node><node id="-61" lat="30.30907" lon="-97.740797" changeset="false"><tag k="addr:street" v="North Lamar Boulevard"/><tag k="addr:housenumber" v="4102"/><tag k="addr:postcode" v="78756"/></node><node id="-62" lat="30.301513" lon="-97.746254" changeset="false"><tag k="addr:street" v="West 32nd Street"/><tag k="addr:housenumber" v="1006"/><tag k="addr:postcode" v="78705"/></node><node id="-63" lat="30.313499" lon="-97.738206" changeset="false"><tag k="addr:street" v="North Lamar Boulevard"/><tag k="addr:housenumber" v="4444"/><tag k="addr:postcode" v="78756"/></node><node id="-64" lat="30.314342" lon="-97.741691" changeset="false"><tag k="addr:street" v="Medical Parkway"/><tag k="addr:housenumber" v="4405"/><tag k="addr:postcode" v="78756"/></node><node id="-65" lat="30.303061" lon="-97.745378" changeset="false"><tag k="addr:street" v="West 34th Street"/><tag k="addr:housenumber" v="1024"/><tag k="addr:postcode" v="78705"/></node><node id="-66" lat="30.308129" lon="-97.742252" changeset="false"><tag k="addr:street" v="West 40th Street"/><tag k="addr:housenumber" v="1011"/><tag k="addr:postcode" v="78756"/></node><node id="-67" lat="30.312824" lon="-97.739765" changeset="false"><tag k="addr:street" v="Marathon Boulevard"/><tag k="addr:housenumber" v="4400"/><tag k="addr:postcode" v="78756"/></node><node id="-68" lat="30.298331" lon="-97.748548" changeset="false"><tag k="addr:street" v="North Lamar Boulevard"/><tag k="addr:housenumber" v="2900"/><tag k="addr:postcode" v="78705"/></node><node id="-69" lat="30.304064" lon="-97.747076" changeset="false"><tag k="addr:street" v="West 34th Street"/><tag k="addr:housenumber" v="1208"/><tag k="addr:postcode" v="78705"/></node><node id="-70" lat="30.307877" lon="-97.743084" changeset="false"><tag k="addr:street" v="Medical Parkway"/><tag k="addr:housenumber" v="3910"/><tag k="addr:postcode" v="78756"/></node><node id="-71" lat="30.30294" lon="-97.749322" changeset="false"><tag k="addr:street" v="Shoal Creek Boulevard"/><tag k="addr:housenumber" v="3210"/><tag k="addr:postcode" v="78705"/></node><node id="-72" lat="30.303696" lon="-97.747079" changeset="false"><tag k="addr:street" v="West 34th Street"/><tag k="addr:housenumber" v="1207"/><tag k="addr:postcode" v="78705"/></node><node id="-73" lat="30.311" lon="-97.741907" changeset="false"><tag k="addr:street" v="West 42nd Street"/><tag k="addr:housenumber" v="1200"/><tag k="addr:postcode" v="78756"/></node><node id="-74" lat="30.305708" lon="-97.743614" changeset="false"><tag k="addr:street" v="West 38th Street"/><tag k="addr:housenumber" v="1010"/><tag k="addr:postcode" v="78756"/></node><node id="-75" lat="30.308745" lon="-97.740992" changeset="false"><tag k="addr:street" v="North Lamar Boulevard"/><tag k="addr:housenumber" v="4012"/><tag k="addr:postcode" v="78756"/></node><node id="-76" lat="30.308662" lon="-97.742481" changeset="false"><tag k="addr:street" v="Marathon Boulevard"/><tag k="addr:housenumber" v="4001"/><tag k="addr:postcode" v="78756"/></node><node id="-77" lat="30.304682" lon="-97.748252" changeset="false"><tag k="addr:street" v="West 34th Street"/><tag k="addr:housenumber" v="1330 1/2"/><tag k="addr:postcode" v="78705"/></node><node id="-78" lat="30.310447" lon="-97.74071" changeset="false"><tag k="addr:street" v="Marathon Boulevard"/><tag k="addr:housenumber" v="4201"/><tag k="addr:postcode" v="78756"/></node><node id="-79" lat="30.304432" lon="-97.747869" changeset="false"><tag k="addr:street" v="West 34th Street"/><tag k="addr:housenumber" v="1320"/><tag k="addr:postcode" v="78705"/></node><node id="-80" lat="30.302528" lon="-97.74627" changeset="false"><tag k="addr:street" v="West 33rd Street"/><tag k="addr:housenumber" v="1006"/><tag k="addr:postcode" v="78705"/></node><node id="-81" lat="30.312469" lon="-97.739067" changeset="false"><tag k="addr:street" v="West 44th Street"/><tag k="addr:housenumber" v="1002"/><tag k="addr:postcode" v="78756"/></node><node id="-82" lat="30.312734" lon="-97.738619" changeset="false"><tag k="addr:street" v="North Lamar Boulevard"/><tag k="addr:housenumber" v="4406"/><tag k="addr:postcode" v="78756"/></node><node id="-83" lat="30.312629" lon="-97.741686" changeset="false"><tag k="addr:street" v="Maybelle Avenue"/><tag k="addr:housenumber" v="4305"/><tag k="addr:postcode" v="78756"/></node><node id="-84" lat="30.308632" lon="-97.742462" changeset="false"><tag k="addr:street" v="Medical Parkway"/><tag k="addr:housenumber" v="4001"/><tag k="addr:postcode" v="78756"/></node><node id="-85" lat="30.307858" lon="-97.745692" changeset="false"><tag k="addr:street" v="Tonkawa Trail"/><tag k="addr:housenumber" v="3811"/><tag k="addr:postcode" v="78756"/></node><node id="-86" lat="30.313329" lon="-97.738354" changeset="false"><tag k="addr:street" v="North Lamar Boulevard"/><tag k="addr:housenumber" v="4420"/><tag k="addr:postcode" v="78756"/></node><node id="-87" lat="30.313421" lon="-97.73829" changeset="false"><tag k="addr:street" v="North Lamar Boulevard"/><tag k="addr:housenumber" v="4428"/><tag k="addr:postcode" v="78756"/></node><node id="-88" lat="30.31256" lon="-97.739223" changeset="false"><tag k="addr:street" v="West 44th Street"/><tag k="addr:housenumber" v="1006"/><tag k="addr:postcode" v="78756"/></node><node id="-89" lat="30.312632" lon="-97.739399" changeset="false"><tag k="addr:street" v="Marathon Boulevard"/><tag k="addr:housenumber" v="4401"/><tag k="addr:postcode" v="78756"/></node><node id="-90" lat="30.311615" lon="-97.739488" changeset="false"><tag k="addr:street" v="North Lamar Boulevard"/><tag k="addr:housenumber" v="4318"/><tag k="addr:postcode" v="78756"/></node><node id="-91" lat="30.311809" lon="-97.739219" changeset="false"><tag k="addr:street" v="North Lamar Boulevard"/><tag k="addr:housenumber" v="4322"/><tag k="addr:postcode" v="78756"/></node><node id="-92" lat="30.31192" lon="-97.739146" changeset="false"><tag k="addr:street" v="North Lamar Boulevard"/><tag k="addr:housenumber" v="4324"/><tag k="addr:postcode" v="78756"/></node><node id="-93" lat="30.311456" lon="-97.739518" changeset="false"><tag k="addr:street" v="North Lamar Boulevard"/><tag k="addr:housenumber" v="4316"/><tag k="addr:postcode" v="78756"/></node><node id="-94" lat="30.311666" lon="-97.739354" changeset="false"><tag k="addr:street" v="North Lamar Boulevard"/><tag k="addr:housenumber" v="4320"/><tag k="addr:postcode" v="78756"/></node><node id="-95" lat="30.310566" lon="-97.740608" changeset="false"><tag k="addr:street" v="Marathon Boulevard"/><tag k="addr:housenumber" v="4203"/><tag k="addr:postcode" v="78756"/></node><node id="-96" lat="30.310703" lon="-97.7407" changeset="false"><tag k="addr:street" v="Marathon Boulevard"/><tag k="addr:housenumber" v="4205"/><tag k="addr:postcode" v="78756"/></node><node id="-97" lat="30.313002" lon="-97.740819" changeset="false"><tag k="addr:street" v="Bellvue Avenue"/><tag k="addr:housenumber" v="4314 1/2"/><tag k="addr:postcode" v="78756"/></node><node id="-98" lat="30.313024" lon="-97.74083" changeset="false"><tag k="addr:street" v="Bellvue Avenue"/><tag k="addr:housenumber" v="4314"/><tag k="addr:postcode" v="78756"/></node><node id="-99" lat="30.310097" lon="-97.740939" changeset="false"><tag k="addr:street" v="Marathon Boulevard"/><tag k="addr:housenumber" v="4113"/><tag k="addr:postcode" v="78756"/></node><node id="-100" lat="30.309959" lon="-97.741034" changeset="false"><tag k="addr:street" v="Marathon Boulevard"/><tag k="addr:housenumber" v="4111"/><tag k="addr:postcode" v="78756"/></node><node id="-101" lat="30.309805" lon="-97.740457" changeset="false"><tag k="addr:street" v="North Lamar Boulevard"/><tag k="addr:housenumber" v="4150"/><tag k="addr:postcode" v="78756"/></node><node id="-102" lat="30.309476" lon="-97.740685" changeset="false"><tag k="addr:street" v="North Lamar Boulevard"/><tag k="addr:housenumber" v="4106"/><tag k="addr:postcode" v="78756"/></node><node id="-103" lat="30.309642" lon="-97.740579" changeset="false"><tag k="addr:street" v="North Lamar Boulevard"/><tag k="addr:housenumber" v="4108"/><tag k="addr:postcode" v="78756"/></node><node id="-104" lat="30.308967" lon="-97.741086" changeset="false"><tag k="addr:street" v="North Lamar Boulevard"/><tag k="addr:housenumber" v="4018"/><tag k="addr:postcode" v="78756"/></node><node id="-105" lat="30.308786" lon="-97.741243" changeset="false"><tag k="addr:street" v="North Lamar Boulevard"/><tag k="addr:housenumber" v="4010"/><tag k="addr:postcode" v="78756"/></node><node id="-106" lat="30.309509" lon="-97.742195" changeset="false"><tag k="addr:street" v="Marathon Boulevard"/><tag k="addr:housenumber" v="4014"/><tag k="addr:postcode" v="78756"/></node><node id="-107" lat="30.309308" lon="-97.742125" changeset="false"><tag k="addr:street" v="West 41st Street"/><tag k="addr:housenumber" v="1105"/><tag k="addr:postcode" v="78756"/></node><node id="-108" lat="30.308401" lon="-97.741926" changeset="false"><tag k="addr:street" v="West 40th Street"/><tag k="addr:housenumber" v="1010"/><tag k="addr:postcode" v="78756"/></node><node id="-109" lat="30.308522" lon="-97.741923" changeset="false"><tag k="addr:street" v="Marathon Boulevard"/><tag k="addr:housenumber" v="4005"/><tag k="addr:postcode" v="78756"/></node><node id="-110" lat="30.308439" lon="-97.741344" changeset="false"><tag k="addr:street" v="North Lamar Boulevard"/><tag k="addr:housenumber" v="4004"/><tag k="addr:postcode" v="78756"/></node><node id="-111" lat="30.308504" lon="-97.741296" changeset="false"><tag k="addr:street" v="North Lamar Boulevard"/><tag k="addr:housenumber" v="4006"/><tag k="addr:postcode" v="78756"/></node><node id="-112" lat="30.308738" lon="-97.741747" changeset="false"><tag k="addr:street" v="Marathon Boulevard"/><tag k="addr:housenumber" v="4009"/><tag k="addr:postcode" v="78756"/></node><node id="-113" lat="30.308908" lon="-97.74164" changeset="false"><tag k="addr:street" v="Marathon Boulevard"/><tag k="addr:housenumber" v="4013"/><tag k="addr:postcode" v="78756"/></node><node id="-114" lat="30.308651" lon="-97.741904" changeset="false"><tag k="addr:street" v="Marathon Boulevard"/><tag k="addr:housenumber" v="4007"/><tag k="addr:postcode" v="78756"/></node><node id="-115" lat="30.304847" lon="-97.743693" changeset="false"><tag k="addr:street" v="North Lamar Boulevard"/><tag k="addr:housenumber" v="3706"/><tag k="addr:postcode" v="78705"/></node><node id="-116" lat="30.305059" lon="-97.743573" changeset="false"><tag k="addr:street" v="North Lamar Boulevard"/><tag k="addr:housenumber" v="3718"/><tag k="addr:postcode" v="78705"/></node><node id="-117" lat="30.302639" lon="-97.745216" changeset="false"><tag k="addr:street" v="West 34th Street"/><tag k="addr:housenumber" v="1005"/><tag k="addr:postcode" v="78705"/></node><node id="-118" lat="30.302857" lon="-97.745391" changeset="false"><tag k="addr:street" v="West 34th Street"/><tag k="addr:housenumber" v="1011"/><tag k="addr:postcode" v="78705"/></node><node id="-119" lat="30.302903" lon="-97.745451" changeset="false"><tag k="addr:street" v="West 34th Street"/><tag k="addr:housenumber" v="1013"/><tag k="addr:postcode" v="78705"/></node><node id="-120" lat="30.30282" lon="-97.745347" changeset="false"><tag k="addr:street" v="West 34th Street"/><tag k="addr:housenumber" v="1009"/><tag k="addr:postcode" v="78705"/></node><node id="-121" lat="30.302781" lon="-97.745303" changeset="false"><tag k="addr:street" v="West 34th Street"/><tag k="addr:housenumber" v="1007"/><tag k="addr:postcode" v="78705"/></node><node id="-122" lat="30.302593" lon="-97.745094" changeset="false"><tag k="addr:street" v="West 34th Street"/><tag k="addr:housenumber" v="1003"/><tag k="addr:postcode" v="78705"/></node><node id="-123" lat="30.303458" lon="-97.745722" changeset="false"><tag k="addr:street" v="West 34th Street"/><tag k="addr:housenumber" v="1104"/><tag k="addr:postcode" v="78705"/></node><node id="-124" lat="30.303364" lon="-97.745766" changeset="false"><tag k="addr:street" v="West 34th Street"/><tag k="addr:housenumber" v="1106"/><tag k="addr:postcode" v="78705"/></node><node id="-125" lat="30.303393" lon="-97.745826" changeset="false"><tag k="addr:street" v="West 34th Street"/><tag k="addr:housenumber" v="1108"/><tag k="addr:postcode" v="78705"/></node><node id="-126" lat="30.306537" lon="-97.745496" changeset="false"><tag k="addr:street" v="Bailey Lane"/><tag k="addr:housenumber" v="3801"/><tag k="addr:postcode" v="78756"/></node><node id="-127" lat="30.306561" lon="-97.745472" changeset="false"><tag k="addr:street" v="West 38th Street"/><tag k="addr:housenumber" v="1212"/><tag k="addr:postcode" v="78756"/></node><node id="-128" lat="30.303789" lon="-97.747927" changeset="false"><tag k="addr:street" v="West 34th Street"/><tag k="addr:housenumber" v="1305"/><tag k="addr:postcode" v="78705"/></node><node id="-129" lat="30.303766" lon="-97.747601" changeset="false"><tag k="addr:street" v="West 34th Street"/><tag k="addr:housenumber" v="1301"/><tag k="addr:postcode" v="78705"/></node><node id="-130" lat="30.301994" lon="-97.748276" changeset="false"><tag k="addr:street" v="West 31st Street"/><tag k="addr:housenumber" v="1112"/><tag k="addr:postcode" v="78705"/></node><node id="-131" lat="30.301469" lon="-97.747483" changeset="false"><tag k="addr:street" v="Wabash Avenue"/><tag k="addr:housenumber" v="3104"/><tag k="addr:postcode" v="78705"/></node></osm>