<?xml version="1.0" encoding="UTF-8"?><osm version="0.6" generator="github.com/aaronlidman/osm-and-geojson"><node id="-1" lat="30.458055" lon="-97.801561" changeset="false"><tag k="addr:street" v="Double Tree Lane"/><tag k="addr:housenumber" v="12317"/><tag k="coa:place_id" v="1023770"/></node><node id="-2" lat="30.460241" lon="-97.813594" changeset="false"><tag k="addr:street" v="Timbrook Trail"/><tag k="addr:housenumber" v="11303"/><tag k="coa:place_id" v="81979"/></node><node id="-3" lat="30.461386" lon="-97.806771" changeset="false"><tag k="addr:street" v="Burlywood Trail"/><tag k="addr:housenumber" v="12300"/><tag k="coa:place_id" v="3072483"/></node><node id="-4" lat="30.460932" lon="-97.81527" changeset="false"><tag k="addr:street" v="Powder Mill Trail"/><tag k="addr:housenumber" v="11406"/><tag k="coa:place_id" v="82650"/></node><node id="-5" lat="30.458282" lon="-97.807207" changeset="false"><tag k="addr:street" v="School House Lane"/><tag k="addr:housenumber" v="10900"/><tag k="coa:place_id" v="512048"/></node><node id="-6" lat="30.462413" lon="-97.806361" changeset="false"><tag k="addr:street" v="Burlywood Trail"/><tag k="addr:housenumber" v="12406"/><tag k="coa:place_id" v="68760"/></node><node id="-7" lat="30.46205" lon="-97.809266" changeset="false"><tag k="addr:street" v="Froke Cedar Trail"/><tag k="addr:housenumber" v="11104"/><tag k="coa:place_id" v="1019378"/></node><node id="-8" lat="30.46161" lon="-97.807325" changeset="false"><tag k="addr:street" v="Hillside Oak Lane"/><tag k="addr:housenumber" v="10912"/><tag k="coa:place_id" v="92363"/></node><node id="-9" lat="30.459618" lon="-97.803403" changeset="false"><tag k="addr:street" v="Wipple Tree Cove"/><tag k="addr:housenumber" v="12309"/><tag k="coa:place_id" v="512360"/></node><node id="-10" lat="30.462656" lon="-97.811392" changeset="false"><tag k="addr:street" v="Bent Cedar Cove"/><tag k="addr:housenumber" v="12304"/><tag k="coa:place_id" v="79919"/></node><node id="-11" lat="30.458315" lon="-97.802764" changeset="false"><tag k="addr:street" v="School House Lane"/><tag k="addr:housenumber" v="10604"/><tag k="coa:place_id" v="512402"/></node><node id="-12" lat="30.459345" lon="-97.803254" changeset="false"><tag k="addr:street" v="Double Tree Lane"/><tag k="addr:housenumber" v="12335"/><tag k="coa:place_id" v="512474"/></node><node id="-13" lat="30.457728" lon="-97.803526" changeset="false"><tag k="addr:street" v="School House Lane"/><tag k="addr:housenumber" v="10701"/><tag k="coa:place_id" v="1111182"/></node><node id="-14" lat="30.462441" lon="-97.806787" changeset="false"><tag k="addr:street" v="Mossy Bark Trail"/><tag k="addr:housenumber" v="12403"/><tag k="coa:place_id" v="93489"/></node><node id="-15" lat="30.462458" lon="-97.808959" changeset="false"><tag k="addr:street" v="Split Rail Parkway"/><tag k="addr:housenumber" v="12534"/><tag k="coa:place_id" v="92400"/></node><node id="-16" lat="30.462714" lon="-97.807316" changeset="false"><tag k="addr:street" v="Mossy Bark Trail"/><tag k="addr:housenumber" v="12402"/><tag k="coa:place_id" v="92473"/></node><node id="-17" lat="30.457923" lon="-97.809096" changeset="false"><tag k="addr:street" v="Waterside Trail"/><tag k="addr:housenumber" v="12203"/><tag k="coa:place_id" v="1111181"/></node><node id="-18" lat="30.46237" lon="-97.810162" changeset="false"><tag k="addr:street" v="Deerbrook Trail"/><tag k="addr:housenumber" v="12324"/><tag k="coa:place_id" v="92419"/></node><node id="-19" lat="30.462707" lon="-97.810367" changeset="false"><tag k="addr:street" v="Deerbrook Trail"/><tag k="addr:housenumber" v="12328"/><tag k="coa:place_id" v="92424"/></node><node id="-20" lat="30.461102" lon="-97.807386" changeset="false"><tag k="addr:street" v="Hillside Oak Lane"/><tag k="addr:housenumber" v="11001"/><tag k="coa:place_id" v="1045526"/></node><node id="-21" lat="30.46133" lon="-97.810181" changeset="false"><tag k="addr:street" v="Timbrook Trail"/><tag k="addr:housenumber" v="11207"/><tag k="coa:place_id" v="92376"/></node><node id="-22" lat="30.459003" lon="-97.811322" changeset="false"><tag k="addr:street" v="Thorny Brook Trail"/><tag k="addr:housenumber" v="11207"/><tag k="coa:place_id" v="1111163"/></node><node id="-23" lat="30.459364" lon="-97.803495" changeset="false"><tag k="addr:street" v="Double Tree Lane"/><tag k="addr:housenumber" v="12337"/><tag k="coa:place_id" v="512468"/></node><node id="-24" lat="30.462125" lon="-97.810753" changeset="false"><tag k="addr:street" v="Bent Cedar Cove"/><tag k="addr:housenumber" v="12301"/><tag k="coa:place_id" v="3071015"/></node><node id="-25" lat="30.461938" lon="-97.810402" changeset="false"><tag k="addr:street" v="Timbrook Trail"/><tag k="addr:housenumber" v="11204"/><tag k="coa:place_id" v="69479"/></node><node id="-26" lat="30.461548" lon="-97.807087" changeset="false"><tag k="addr:street" v="Hillside Oak Lane"/><tag k="addr:housenumber" v="10910"/><tag k="coa:place_id" v="92359"/></node><node id="-27" lat="30.462766" lon="-97.812582" changeset="false"><tag k="addr:street" v="Owl Cove"/><tag k="addr:housenumber" v="12302"/><tag k="coa:place_id" v="79921"/></node><node id="-28" lat="30.462838" lon="-97.806264" changeset="false"><tag k="addr:street" v="Burlywood Trail"/><tag k="addr:housenumber" v="12410"/><tag k="coa:place_id" v="92563"/></node><node id="-29" lat="30.458836" lon="-97.803249" changeset="false"><tag k="addr:street" v="Double Tree Lane"/><tag k="addr:housenumber" v="12332"/><tag k="coa:place_id" v="512462"/></node><node id="-30" lat="30.462965" lon="-97.805261" changeset="false"><tag k="addr:street" v="Split Rail Parkway"/><tag k="addr:housenumber" v="12502"/><tag k="coa:place_id" v="92383"/></node><node id="-31" lat="30.462352" lon="-97.810711" changeset="false"><tag k="addr:street" v="Bent Cedar Cove"/><tag k="addr:housenumber" v="12303"/><tag k="coa:place_id" v="79910"/></node><node id="-32" lat="30.461609" lon="-97.806679" changeset="false"><tag k="addr:street" v="Burlywood Trail"/><tag k="addr:housenumber" v="12302"/><tag k="coa:place_id" v="92555"/></node><node id="-33" lat="30.459839" lon="-97.803441" changeset="false"><tag k="addr:street" v="Wipple Tree Cove"/><tag k="addr:housenumber" v="12311"/><tag k="coa:place_id" v="512354"/></node><node id="-34" lat="30.458409" lon="-97.801685" changeset="false"><tag k="addr:street" v="Double Tree Lane"/><tag k="addr:housenumber" v="12321"/><tag k="coa:place_id" v="512582"/></node><node id="-35" lat="30.458204" lon="-97.801595" changeset="false"><tag k="addr:street" v="Double Tree Lane"/><tag k="addr:housenumber" v="12319"/><tag k="coa:place_id" v="512588"/></node><node id="-36" lat="30.461114" lon="-97.814328" changeset="false"><tag k="addr:street" v="Powder Mill Trail"/><tag k="addr:housenumber" v="11314"/><tag k="coa:place_id" v="82654"/></node><node id="-37" lat="30.460596" lon="-97.810342" changeset="false"><tag k="addr:street" v="Saber Trail"/><tag k="addr:housenumber" v="12300"/><tag k="coa:place_id" v="82016"/></node><node id="-38" lat="30.462065" lon="-97.815789" changeset="false"><tag k="addr:street" v="Lake Creek Parkway,1100"/><tag k="addr:housenumber" v="11428 1/2"/><tag k="coa:place_id" v="3115257"/></node><node id="-39" lat="30.461535" lon="-97.80809" changeset="false"><tag k="addr:street" v="Hillside Oak Lane"/><tag k="addr:housenumber" v="11004"/><tag k="coa:place_id" v="122481"/></node><node id="-40" lat="30.463399" lon="-97.8112" changeset="false"><tag k="addr:street" v="Bent Cedar Cove"/><tag k="addr:housenumber" v="12313"/><tag k="coa:place_id" v="79915"/></node><node id="-41" lat="30.461152" lon="-97.809847" changeset="false"><tag k="addr:street" v="Saber Trail"/><tag k="addr:housenumber" v="12306"/><tag k="coa:place_id" v="960242"/></node></osm>