<?xml version="1.0" encoding="UTF-8"?><osm version="0.6" generator="github.com/aaronlidman/osm-and-geojson"><node id="-1" lat="30.183631" lon="-97.837836" changeset="false"><tag k="addr:street" v="Lagerway Cove"/><tag k="addr:housenumber" v="2962"/><tag k="addr:postcode" v="78748"/></node><node id="-2" lat="30.184787" lon="-97.836148" changeset="false"><tag k="addr:street" v="Notches Drive"/><tag k="addr:housenumber" v="9332"/><tag k="addr:postcode" v="78748"/></node><node id="-3" lat="30.186096" lon="-97.83558" changeset="false"><tag k="addr:street" v="Bernoulli Drive"/><tag k="addr:housenumber" v="9308"/><tag k="addr:postcode" v="78748"/></node><node id="-4" lat="30.192327" lon="-97.841897" changeset="false"><tag k="addr:street" v="Brodie Lane"/><tag k="addr:housenumber" v="9201 1/2"/><tag k="addr:postcode" v="78748"/></node><node id="-5" lat="30.1856" lon="-97.835567" changeset="false"><tag k="addr:street" v="Notches Drive"/><tag k="addr:housenumber" v="9304"/><tag k="addr:postcode" v="78748"/></node><node id="-6" lat="30.185377" lon="-97.83472" changeset="false"><tag k="addr:street" v="Sanford Drive"/><tag k="addr:housenumber" v="9308"/><tag k="addr:postcode" v="78748"/></node><node id="-7" lat="30.184137" lon="-97.835429" changeset="false"><tag k="addr:street" v="Sanford Drive"/><tag k="addr:housenumber" v="9348"/><tag k="addr:postcode" v="78748"/></node><node id="-8" lat="30.189207" lon="-97.842266" changeset="false"><tag k="addr:street" v="Lightwood Loop"/><tag k="addr:housenumber" v="9300"/><tag k="addr:postcode" v="78748"/></node><node id="-9" lat="30.188234" lon="-97.840295" changeset="false"><tag k="addr:street" v="Silkgrass Bend"/><tag k="addr:housenumber" v="3112"/><tag k="addr:postcode" v="78748"/></node><node id="-10" lat="30.186001" lon="-97.834282" changeset="false"><tag k="addr:street" v="Sanford Drive"/><tag k="addr:housenumber" v="9200"/><tag k="addr:postcode" v="78748"/></node><node id="-11" lat="30.18398" lon="-97.836541" changeset="false"><tag k="addr:street" v="Notches Drive"/><tag k="addr:housenumber" v="9416"/><tag k="addr:postcode" v="78748"/></node><node id="-12" lat="30.18708" lon="-97.832303" changeset="false"><tag k="addr:street" v="Pectoral Drive"/><tag k="addr:housenumber" v="2815"/><tag k="addr:postcode" v="78748"/></node><node id="-13" lat="30.186397" lon="-97.842001" changeset="false"><tag k="addr:street" v="Grasshopper Drive"/><tag k="addr:housenumber" v="3211"/><tag k="addr:postcode" v="78748"/></node><node id="-14" lat="30.189818" lon="-97.841844" changeset="false"><tag k="addr:street" v="Lightwood Loop"/><tag k="addr:housenumber" v="9308"/><tag k="addr:postcode" v="78748"/></node><node id="-15" lat="30.187267" lon="-97.836289" changeset="false"><tag k="addr:street" v="Cohoba Drive"/><tag k="addr:housenumber" v="3000"/><tag k="addr:postcode" v="78748"/></node><node id="-16" lat="30.18843" lon="-97.831705" changeset="false"><tag k="addr:street" v="Kentish Drive"/><tag k="addr:housenumber" v="2815 1/2"/><tag k="addr:postcode" v="78748"/></node><node id="-17" lat="30.193209" lon="-97.839288" changeset="false"><tag k="addr:street" v="Davis Lane"/><tag k="addr:housenumber" v="3321"/><tag k="addr:postcode" v="78748"/></node><node id="-18" lat="30.187855" lon="-97.846436" changeset="false"><tag k="addr:street" v="Brodie Lane"/><tag k="addr:housenumber" v="9607"/><tag k="addr:postcode" v="78748"/></node><node id="-19" lat="30.186433" lon="-97.841489" changeset="false"><tag k="addr:street" v="Grasshopper Drive"/><tag k="addr:housenumber" v="3204"/><tag k="addr:postcode" v="78748"/></node><node id="-20" lat="30.188733" lon="-97.840962" changeset="false"><tag k="addr:street" v="Lightwood Cove"/><tag k="addr:housenumber" v="9401"/><tag k="addr:postcode" v="78748"/></node><node id="-21" lat="30.18632" lon="-97.835958" changeset="false"><tag k="addr:street" v="Bernoulli Drive"/><tag k="addr:housenumber" v="9320"/><tag k="addr:postcode" v="78748"/></node><node id="-22" lat="30.189878" lon="-97.845225" changeset="false"><tag k="addr:street" v="Brodie Lane"/><tag k="addr:housenumber" v="9417"/><tag k="addr:postcode" v="78748"/></node><node id="-23" lat="30.181532" lon="-97.84472" changeset="false"><tag k="addr:street" v="West Slaughter Lane"/><tag k="addr:housenumber" v="3226"/><tag k="addr:postcode" v="78748"/></node><node id="-24" lat="30.186048" lon="-97.84246" changeset="false"><tag k="addr:street" v="Silkgrass Bend"/><tag k="addr:housenumber" v="3302"/><tag k="addr:postcode" v="78748"/></node><node id="-25" lat="30.180108" lon="-97.836694" changeset="false"><tag k="addr:street" v="Nightjar Drive"/><tag k="addr:housenumber" v="9806"/><tag k="addr:postcode" v="78748"/></node><node id="-26" lat="30.183898" lon="-97.835573" changeset="false"><tag k="addr:street" v="Sanford Drive"/><tag k="addr:housenumber" v="9404"/><tag k="addr:postcode" v="78748"/></node><node id="-27" lat="30.183667" lon="-97.835737" changeset="false"><tag k="addr:street" v="Sanford Drive"/><tag k="addr:housenumber" v="9412"/><tag k="addr:postcode" v="78748"/></node><node id="-28" lat="30.188088" lon="-97.839435" changeset="false"><tag k="addr:street" v="Lightwood Loop"/><tag k="addr:housenumber" v="9433"/><tag k="addr:postcode" v="78748"/></node><node id="-29" lat="30.185317" lon="-97.835721" changeset="false"><tag k="addr:street" v="Notches Drive"/><tag k="addr:housenumber" v="9312"/><tag k="addr:postcode" v="78748"/></node><node id="-30" lat="30.189725" lon="-97.842858" changeset="false"><tag k="addr:street" v="Tea Rose Trail"/><tag k="addr:housenumber" v="9310"/><tag k="addr:postcode" v="78748"/></node><node id="-31" lat="30.189515" lon="-97.841996" changeset="false"><tag k="addr:street" v="Lightwood Loop"/><tag k="addr:housenumber" v="9304"/><tag k="addr:postcode" v="78748"/></node><node id="-32" lat="30.186435" lon="-97.843325" changeset="false"><tag k="addr:street" v="Silkgrass Bend"/><tag k="addr:housenumber" v="3315"/><tag k="addr:postcode" v="78748"/></node><node id="-33" lat="30.18617" lon="-97.833919" changeset="false"><tag k="addr:street" v="Cohoba Drive"/><tag k="addr:housenumber" v="2900"/><tag k="addr:postcode" v="78748"/></node><node id="-34" lat="30.183247" lon="-97.837171" changeset="false"><tag k="addr:street" v="Notches Drive"/><tag k="addr:housenumber" v="9504"/><tag k="addr:postcode" v="78748"/></node><node id="-35" lat="30.187939" lon="-97.837748" changeset="false"><tag k="addr:street" v="Cohoba Drive"/><tag k="addr:housenumber" v="3124"/><tag k="addr:postcode" v="78748"/></node><node id="-36" lat="30.193112" lon="-97.843103" changeset="false"><tag k="addr:street" v="Brodie Lane"/><tag k="addr:housenumber" v="9025"/><tag k="addr:postcode" v="78748"/></node><node id="-37" lat="30.187843" lon="-97.837458" changeset="false"><tag k="addr:street" v="Cohoba Drive"/><tag k="addr:housenumber" v="3116"/><tag k="addr:postcode" v="78748"/></node><node id="-38" lat="30.180207" lon="-97.840638" changeset="false"><tag k="addr:street" v="West Gate Boulevard"/><tag k="addr:housenumber" v="9818"/><tag k="addr:postcode" v="78748"/></node><node id="-39" lat="30.190165" lon="-97.842585" changeset="false"><tag k="addr:street" v="Tea Rose Trail"/><tag k="addr:housenumber" v="9304"/><tag k="addr:postcode" v="78748"/></node><node id="-40" lat="30.189274" lon="-97.845702" changeset="false"><tag k="addr:street" v="Brodie Lane"/><tag k="addr:housenumber" v="9501"/><tag k="addr:postcode" v="78748"/></node><node id="-41" lat="30.185202" lon="-97.84768" changeset="false"><tag k="addr:street" v="Brodie Lane"/><tag k="addr:housenumber" v="9901"/><tag k="addr:postcode" v="78748"/></node><node id="-42" lat="30.185205" lon="-97.847916" changeset="false"><tag k="addr:street" v="Brodie Lane"/><tag k="addr:housenumber" v="9901 1/2"/><tag k="addr:postcode" v="78748"/></node><node id="-43" lat="30.184825" lon="-97.838563" changeset="false"><tag k="addr:street" v="Linkmeadow Drive"/><tag k="addr:housenumber" v="9428"/><tag k="addr:postcode" v="78748"/></node><node id="-44" lat="30.180907" lon="-97.843346" changeset="false"><tag k="addr:street" v="West Slaughter Lane"/><tag k="addr:housenumber" v="3206"/><tag k="addr:postcode" v="78748"/></node><node id="-45" lat="30.186215" lon="-97.836223" changeset="false"><tag k="addr:street" v="Bernoulli Drive"/><tag k="addr:housenumber" v="9328"/><tag k="addr:postcode" v="78748"/></node><node id="-46" lat="30.1866" lon="-97.842298" changeset="false"><tag k="addr:street" v="Grasshopper Drive"/><tag k="addr:housenumber" v="3303"/><tag k="addr:postcode" v="78748"/></node><node id="-47" lat="30.189548" lon="-97.842978" changeset="false"><tag k="addr:street" v="Tea Rose Trail"/><tag k="addr:housenumber" v="9312"/><tag k="addr:postcode" v="78748"/></node><node id="-48" lat="30.187795" lon="-97.841765" changeset="false"><tag k="addr:street" v="Silk Oak Drive"/><tag k="addr:housenumber" v="3308"/><tag k="addr:postcode" v="78748"/></node><node id="-49" lat="30.187351" lon="-97.836501" changeset="false"><tag k="addr:street" v="Cohoba Drive"/><tag k="addr:housenumber" v="3004"/><tag k="addr:postcode" v="78748"/></node><node id="-50" lat="30.192671" lon="-97.837645" changeset="false"><tag k="addr:street" v="Davis Lane"/><tag k="addr:housenumber" v="3217"/><tag k="addr:postcode" v="78748"/></node><node id="-51" lat="30.184974" lon="-97.838423" changeset="false"><tag k="addr:street" v="Linkmeadow Drive"/><tag k="addr:housenumber" v="9424"/><tag k="addr:postcode" v="78748"/></node><node id="-52" lat="30.186829" lon="-97.839562" changeset="false"><tag k="addr:street" v="Silk Oak Drive"/><tag k="addr:housenumber" v="3204"/><tag k="addr:postcode" v="78748"/></node><node id="-53" lat="30.186837" lon="-97.837212" changeset="false"><tag k="addr:street" v="Linkmeadow Drive"/><tag k="addr:housenumber" v="9212"/><tag k="addr:postcode" v="78748"/></node><node id="-54" lat="30.18841" lon="-97.841316" changeset="false"><tag k="addr:street" v="Lightwood Cove"/><tag k="addr:housenumber" v="9406"/><tag k="addr:postcode" v="78748"/></node><node id="-55" lat="30.18992" lon="-97.841725" changeset="false"><tag k="addr:street" v="Lightwood Loop"/><tag k="addr:housenumber" v="9310"/><tag k="addr:postcode" v="78748"/></node><node id="-56" lat="30.188772" lon="-97.841119" changeset="false"><tag k="addr:street" v="Lightwood Cove"/><tag k="addr:housenumber" v="9400"/><tag k="addr:postcode" v="78748"/></node><node id="-57" lat="30.187496" lon="-97.836752" changeset="false"><tag k="addr:street" v="Cohoba Drive"/><tag k="addr:housenumber" v="3012"/><tag k="addr:postcode" v="78748"/></node><node id="-58" lat="30.182769" lon="-97.836365" changeset="false"><tag k="addr:street" v="Sanford Drive"/><tag k="addr:housenumber" v="9508"/><tag k="addr:postcode" v="78748"/></node><node id="-59" lat="30.185242" lon="-97.838213" changeset="false"><tag k="addr:street" v="Linkmeadow Drive"/><tag k="addr:housenumber" v="9416"/><tag k="addr:postcode" v="78748"/></node><node id="-60" lat="30.183689" lon="-97.836849" changeset="false"><tag k="addr:street" v="Notches Drive"/><tag k="addr:housenumber" v="9428"/><tag k="addr:postcode" v="78748"/></node><node id="-61" lat="30.185714" lon="-97.83447" changeset="false"><tag k="addr:street" v="Sanford Drive"/><tag k="addr:housenumber" v="9208"/><tag k="addr:postcode" v="78748"/></node><node id="-62" lat="30.18344" lon="-97.835905" changeset="false"><tag k="addr:street" v="Sanford Drive"/><tag k="addr:housenumber" v="9420"/><tag k="addr:postcode" v="78748"/></node><node id="-63" lat="30.18634" lon="-97.837516" changeset="false"><tag k="addr:street" v="Linkmeadow Drive"/><tag k="addr:housenumber" v="9312"/><tag k="addr:postcode" v="78748"/></node><node id="-64" lat="30.194287" lon="-97.842328" changeset="false"><tag k="addr:street" v="Brodie Lane"/><tag k="addr:housenumber" v="8919"/><tag k="addr:postcode" v="78748"/></node><node id="-65" lat="30.188861" lon="-97.846098" changeset="false"><tag k="addr:street" v="Brodie Lane"/><tag k="addr:housenumber" v="9511"/><tag k="addr:postcode" v="78748"/></node><node id="-66" lat="30.187894" lon="-97.844021" changeset="false"><tag k="addr:street" v="Tea Rose Trail"/><tag k="addr:housenumber" v="9508"/><tag k="addr:postcode" v="78748"/></node><node id="-67" lat="30.190133" lon="-97.835301" changeset="false"><tag k="addr:street" v="Davis Lane"/><tag k="addr:housenumber" v="3101"/><tag k="addr:postcode" v="78748"/></node><node id="-68" lat="30.193861" lon="-97.84056" changeset="false"><tag k="addr:street" v="Davis Lane"/><tag k="addr:housenumber" v="3409"/><tag k="addr:postcode" v="78748"/></node><node id="-69" lat="30.190337" lon="-97.832522" changeset="false"><tag k="addr:street" v="Davis Lane"/><tag k="addr:housenumber" v="3015"/><tag k="addr:postcode" v="78748"/></node><node id="-70" lat="30.183493" lon="-97.837773" changeset="false"><tag k="addr:street" v="Lagerway Cove"/><tag k="addr:housenumber" v="2958"/><tag k="addr:postcode" v="78748"/></node><node id="-71" lat="30.19077" lon="-97.844687" changeset="false"><tag k="addr:street" v="Silk Oak Drive"/><tag k="addr:housenumber" v="3428"/><tag k="addr:postcode" v="78748"/></node><node id="-72" lat="30.187066" lon="-97.842359" changeset="false"><tag k="addr:street" v="Grasshopper Drive"/><tag k="addr:housenumber" v="3306"/><tag k="addr:postcode" v="78748"/></node><node id="-73" lat="30.186884" lon="-97.844687" changeset="false"><tag k="addr:street" v="Tea Rose Trail"/><tag k="addr:housenumber" v="9606"/><tag k="addr:postcode" v="78748"/></node><node id="-74" lat="30.189056" lon="-97.843275" changeset="false"><tag k="addr:street" v="Tea Rose Trail"/><tag k="addr:housenumber" v="9402"/><tag k="addr:postcode" v="78748"/></node><node id="-75" lat="30.186937" lon="-97.835559" changeset="false"><tag k="addr:street" v="Cohoba Drive"/><tag k="addr:housenumber" v="2952"/><tag k="addr:postcode" v="78748"/></node><node id="-76" lat="30.188407" lon="-97.831706" changeset="false"><tag k="addr:street" v="Kentish Drive"/><tag k="addr:housenumber" v="2815"/><tag k="addr:postcode" v="78748"/></node><node id="-77" lat="30.18819" lon="-97.843855" changeset="false"><tag k="addr:street" v="Tea Rose Trail"/><tag k="addr:housenumber" v="9504"/><tag k="addr:postcode" v="78748"/></node><node id="-78" lat="30.184265" lon="-97.835352" changeset="false"><tag k="addr:street" v="Sanford Drive"/><tag k="addr:housenumber" v="9344"/><tag k="addr:postcode" v="78748"/></node><node id="-79" lat="30.185625" lon="-97.841633" changeset="false"><tag k="addr:street" v="Silkgrass Bend"/><tag k="addr:housenumber" v="3226"/><tag k="addr:postcode" v="78748"/></node><node id="-80" lat="30.192083" lon="-97.841878" changeset="false"><tag k="addr:street" v="Brodie Lane"/><tag k="addr:housenumber" v="9201"/><tag k="addr:postcode" v="78748"/></node><node id="-81" lat="30.188904" lon="-97.843343" changeset="false"><tag k="addr:street" v="Tea Rose Trail"/><tag k="addr:housenumber" v="9404"/><tag k="addr:postcode" v="78748"/></node><node id="-82" lat="30.18607" lon="-97.843955" changeset="false"><tag k="addr:street" v="Kangaroo Lane"/><tag k="addr:housenumber" v="9608"/><tag k="addr:postcode" v="78748"/></node><node id="-83" lat="30.186652" lon="-97.843443" changeset="false"><tag k="addr:street" v="Silkgrass Bend"/><tag k="addr:housenumber" v="3317"/><tag k="addr:postcode" v="78748"/></node><node id="-84" lat="30.190132" lon="-97.844959" changeset="false"><tag k="addr:street" v="Brodie Lane"/><tag k="addr:housenumber" v="9405"/><tag k="addr:postcode" v="78748"/></node><node id="-85" lat="30.186449" lon="-97.834548" changeset="false"><tag k="addr:street" v="Cohoba Drive"/><tag k="addr:housenumber" v="2920"/><tag k="addr:postcode" v="78748"/></node><node id="-86" lat="30.185252" lon="-97.834792" changeset="false"><tag k="addr:street" v="Sanford Drive"/><tag k="addr:housenumber" v="9312"/><tag k="addr:postcode" v="78748"/></node><node id="-87" lat="30.187201" lon="-97.84108" changeset="false"><tag k="addr:street" v="Silk Oak Drive"/><tag k="addr:housenumber" v="3216"/><tag k="addr:postcode" v="78748"/></node><node id="-88" lat="30.184061" lon="-97.836473" changeset="false"><tag k="addr:street" v="Notches Drive"/><tag k="addr:housenumber" v="9412"/><tag k="addr:postcode" v="78748"/></node><node id="-89" lat="30.183866" lon="-97.836619" changeset="false"><tag k="addr:street" v="Notches Drive"/><tag k="addr:housenumber" v="9420"/><tag k="addr:postcode" v="78748"/></node><node id="-90" lat="30.190304" lon="-97.842506" changeset="false"><tag k="addr:street" v="Tea Rose Trail"/><tag k="addr:housenumber" v="9302"/><tag k="addr:postcode" v="78748"/></node><node id="-91" lat="30.187921" lon="-97.838204" changeset="false"><tag k="addr:street" v="Cohoba Drive"/><tag k="addr:housenumber" v="3127"/><tag k="addr:postcode" v="78748"/></node><node id="-92" lat="30.189752" lon="-97.830604" changeset="false"><tag k="addr:street" v="Guidepost Trail"/><tag k="addr:housenumber" v="2807"/><tag k="addr:postcode" v="78745"/></node><node id="-93" lat="30.182431" lon="-97.839128" changeset="false"><tag k="addr:street" v="West Gate Boulevard"/><tag k="addr:housenumber" v="9701"/><tag k="addr:postcode" v="78748"/></node><node id="-94" lat="30.190473" lon="-97.842443" changeset="false"><tag k="addr:street" v="Tea Rose Trail"/><tag k="addr:housenumber" v="9300"/><tag k="addr:postcode" v="78748"/></node><node id="-95" lat="30.18661" lon="-97.840821" changeset="false"><tag k="addr:street" v="Silkgrass Bend"/><tag k="addr:housenumber" v="3202"/><tag k="addr:postcode" v="78748"/></node><node id="-96" lat="30.189879" lon="-97.831606" changeset="false"><tag k="addr:street" v="Davis Lane"/><tag k="addr:housenumber" v="2901"/><tag k="addr:postcode" v="78748"/></node><node id="-97" lat="30.18573" lon="-97.841793" changeset="false"><tag k="addr:street" v="Silkgrass Bend"/><tag k="addr:housenumber" v="3228"/><tag k="addr:postcode" v="78748"/></node><node id="-98" lat="30.188215" lon="-97.839328" changeset="false"><tag k="addr:street" v="Lightwood Loop"/><tag k="addr:housenumber" v="9429"/><tag k="addr:postcode" v="78748"/></node><node id="-99" lat="30.182881" lon="-97.836305" changeset="false"><tag k="addr:street" v="Sanford Drive"/><tag k="addr:housenumber" v="9504"/><tag k="addr:postcode" v="78748"/></node><node id="-100" lat="30.190695" lon="-97.843235" changeset="false"><tag k="addr:street" v="Silk Oak Cove"/><tag k="addr:housenumber" v="9300"/><tag k="addr:postcode" v="78748"/></node><node id="-101" lat="30.184522" lon="-97.848586" changeset="false"><tag k="addr:street" v="Brodie Lane"/><tag k="addr:housenumber" v="9911"/><tag k="addr:postcode" v="78748"/></node><node id="-102" lat="30.185616" lon="-97.834554" changeset="false"><tag k="addr:street" v="Sanford Drive"/><tag k="addr:housenumber" v="9300"/><tag k="addr:postcode" v="78748"/></node><node id="-103" lat="30.184636" lon="-97.838326" changeset="false"><tag k="addr:street" v="Linkmeadow Drive"/><tag k="addr:housenumber" v="9433"/><tag k="addr:postcode" v="78748"/></node><node id="-104" lat="30.189875" lon="-97.843534" changeset="false"><tag k="addr:street" v="Silk Oak Cove"/><tag k="addr:housenumber" v="9321"/><tag k="addr:postcode" v="78748"/></node><node id="-105" lat="30.180783" lon="-97.842181" changeset="false"><tag k="addr:street" v="West Slaughter Lane"/><tag k="addr:housenumber" v="3200"/><tag k="addr:postcode" v="78748"/></node><node id="-106" lat="30.182414" lon="-97.836501" changeset="false"><tag k="addr:street" v="Lagerway Cove"/><tag k="addr:housenumber" v="2900"/><tag k="addr:postcode" v="78748"/></node><node id="-107" lat="30.184017" lon="-97.835492" changeset="false"><tag k="addr:street" v="Sanford Drive"/><tag k="addr:housenumber" v="9400"/><tag k="addr:postcode" v="78748"/></node><node id="-108" lat="30.179829" lon="-97.841497" changeset="false"><tag k="addr:street" v="West Slaughter Lane"/><tag k="addr:housenumber" v="3026"/><tag k="addr:postcode" v="78748"/></node><node id="-109" lat="30.184544" lon="-97.839058" changeset="false"><tag k="addr:street" v="Linkmeadow Drive"/><tag k="addr:housenumber" v="9504"/><tag k="addr:postcode" v="78748"/></node><node id="-110" lat="30.184439" lon="-97.836256" changeset="false"><tag k="addr:street" v="Notches Drive"/><tag k="addr:housenumber" v="9400"/><tag k="addr:postcode" v="78748"/></node><node id="-111" lat="30.186356" lon="-97.841327" changeset="false"><tag k="addr:street" v="Grasshopper Drive"/><tag k="addr:housenumber" v="3202"/><tag k="addr:postcode" v="78748"/></node><node id="-112" lat="30.186419" lon="-97.840898" changeset="false"><tag k="addr:street" v="Silkgrass Bend"/><tag k="addr:housenumber" v="3204"/><tag k="addr:postcode" v="78748"/></node><node id="-113" lat="30.189826" lon="-97.831317" changeset="false"><tag k="addr:street" v="Guidepost Trail"/><tag k="addr:housenumber" v="2813"/><tag k="addr:postcode" v="78748"/></node><node id="-114" lat="30.188094" lon="-97.837947" changeset="false"><tag k="addr:street" v="Cohoba Drive"/><tag k="addr:housenumber" v="3128"/><tag k="addr:postcode" v="78748"/></node><node id="-115" lat="30.189999" lon="-97.842688" changeset="false"><tag k="addr:street" v="Tea Rose Trail"/><tag k="addr:housenumber" v="9306"/><tag k="addr:postcode" v="78748"/></node><node id="-116" lat="30.186989" lon="-97.835719" changeset="false"><tag k="addr:street" v="Cohoba Drive"/><tag k="addr:housenumber" v="2956"/><tag k="addr:postcode" v="78748"/></node><node id="-117" lat="30.185961" lon="-97.836298" changeset="false"><tag k="addr:street" v="Bernoulli Drive"/><tag k="addr:housenumber" v="9336"/><tag k="addr:postcode" v="78748"/></node><node id="-118" lat="30.181047" lon="-97.837723" changeset="false"><tag k="addr:street" v="Aftonshire Way"/><tag k="addr:housenumber" v="2914"/><tag k="addr:postcode" v="78748"/></node><node id="-119" lat="30.186387" lon="-97.834428" changeset="false"><tag k="addr:street" v="Cohoba Drive"/><tag k="addr:housenumber" v="2916"/><tag k="addr:postcode" v="78748"/></node><node id="-120" lat="30.186236" lon="-97.834054" changeset="false"><tag k="addr:street" v="Cohoba Drive"/><tag k="addr:housenumber" v="2904"/><tag k="addr:postcode" v="78748"/></node><node id="-121" lat="30.186924" lon="-97.842263" changeset="false"><tag k="addr:street" v="Grasshopper Drive"/><tag k="addr:housenumber" v="3304"/><tag k="addr:postcode" v="78748"/></node><node id="-122" lat="30.188545" lon="-97.838781" changeset="false"><tag k="addr:street" v="Lightwood Loop"/><tag k="addr:housenumber" v="9416"/><tag k="addr:postcode" v="78748"/></node><node id="-123" lat="30.183758" lon="-97.836721" changeset="false"><tag k="addr:street" v="Notches Drive"/><tag k="addr:housenumber" v="9424"/><tag k="addr:postcode" v="78748"/></node><node id="-124" lat="30.183542" lon="-97.835817" changeset="false"><tag k="addr:street" v="Sanford Drive"/><tag k="addr:housenumber" v="9416"/><tag k="addr:postcode" v="78748"/></node><node id="-125" lat="30.183781" lon="-97.835643" changeset="false"><tag k="addr:street" v="Sanford Drive"/><tag k="addr:housenumber" v="9408"/><tag k="addr:postcode" v="78748"/></node><node id="-126" lat="30.18529" lon="-97.839391" changeset="false"><tag k="addr:street" v="Bradner Drive"/><tag k="addr:housenumber" v="9424"/><tag k="addr:postcode" v="78748"/></node><node id="-127" lat="30.186491" lon="-97.83529" changeset="false"><tag k="addr:street" v="Cohoba Drive"/><tag k="addr:housenumber" v="2939"/><tag k="addr:postcode" v="78748"/></node><node id="-128" lat="30.186677" lon="-97.84352" changeset="false"><tag k="addr:street" v="Kangaroo Lane"/><tag k="addr:housenumber" v="9600"/><tag k="addr:postcode" v="78748"/></node><node id="-129" lat="30.190314" lon="-97.8432" changeset="false"><tag k="addr:street" v="Silk Oak Cove"/><tag k="addr:housenumber" v="9309"/><tag k="addr:postcode" v="78748"/></node><node id="-130" lat="30.188717" lon="-97.841266" changeset="false"><tag k="addr:street" v="Lightwood Cove"/><tag k="addr:housenumber" v="9402"/><tag k="addr:postcode" v="78748"/></node><node id="-131" lat="30.188587" lon="-97.839516" changeset="false"><tag k="addr:street" v="Lightwood Loop"/><tag k="addr:housenumber" v="9405"/><tag k="addr:postcode" v="78748"/></node><node id="-132" lat="30.186718" lon="-97.846899" changeset="false"><tag k="addr:street" v="Brodie Lane"/><tag k="addr:housenumber" v="9715"/><tag k="addr:postcode" v="78748"/></node><node id="-133" lat="30.185791" lon="-97.847931" changeset="false"><tag k="addr:street" v="Brodie Lane"/><tag k="addr:housenumber" v="9815 1/2"/><tag k="addr:postcode" v="78748"/></node><node id="-134" lat="30.185497" lon="-97.834633" changeset="false"><tag k="addr:street" v="Sanford Drive"/><tag k="addr:housenumber" v="9304"/><tag k="addr:postcode" v="78748"/></node><node id="-135" lat="30.185456" lon="-97.835636" changeset="false"><tag k="addr:street" v="Notches Drive"/><tag k="addr:housenumber" v="9308"/><tag k="addr:postcode" v="78748"/></node><node id="-136" lat="30.185924" lon="-97.833848" changeset="false"><tag k="addr:street" v="Sanford Drive"/><tag k="addr:housenumber" v="9205"/><tag k="addr:postcode" v="78748"/></node><node id="-137" lat="30.185095" lon="-97.835873" changeset="false"><tag k="addr:street" v="Notches Drive"/><tag k="addr:housenumber" v="9320"/><tag k="addr:postcode" v="78748"/></node><node id="-138" lat="30.184638" lon="-97.836125" changeset="false"><tag k="addr:street" v="Notches Drive"/><tag k="addr:housenumber" v="9336"/><tag k="addr:postcode" v="78748"/></node><node id="-139" lat="30.187204" lon="-97.836972" changeset="false"><tag k="addr:street" v="Linkmeadow Drive"/><tag k="addr:housenumber" v="9200"/><tag k="addr:postcode" v="78748"/></node><node id="-140" lat="30.187145" lon="-97.840906" changeset="false"><tag k="addr:street" v="Silk Oak Drive"/><tag k="addr:housenumber" v="3214"/><tag k="addr:postcode" v="78748"/></node><node id="-141" lat="30.186071" lon="-97.847841" changeset="false"><tag k="addr:street" v="Brodie Lane"/><tag k="addr:housenumber" v="9805"/><tag k="addr:postcode" v="78748"/></node><node id="-142" lat="30.180217" lon="-97.836526" changeset="false"><tag k="addr:street" v="Nightjar Drive"/><tag k="addr:housenumber" v="9804"/><tag k="addr:postcode" v="78748"/></node><node id="-143" lat="30.186885" lon="-97.835431" changeset="false"><tag k="addr:street" v="Cohoba Drive"/><tag k="addr:housenumber" v="2948"/><tag k="addr:postcode" v="78748"/></node><node id="-144" lat="30.186073" lon="-97.836247" changeset="false"><tag k="addr:street" v="Bernoulli Drive"/><tag k="addr:housenumber" v="9332"/><tag k="addr:postcode" v="78748"/></node><node id="-145" lat="30.187942" lon="-97.83942" changeset="false"><tag k="addr:street" v="Lightwood Loop"/><tag k="addr:housenumber" v="9437"/><tag k="addr:postcode" v="78748"/></node><node id="-146" lat="30.185849" lon="-97.834383" changeset="false"><tag k="addr:street" v="Sanford Drive"/><tag k="addr:housenumber" v="9204"/><tag k="addr:postcode" v="78748"/></node><node id="-147" lat="30.188643" lon="-97.838988" changeset="false"><tag k="addr:street" v="Lightwood Loop"/><tag k="addr:housenumber" v="9412"/><tag k="addr:postcode" v="78748"/></node><node id="-148" lat="30.189694" lon="-97.844031" changeset="false"><tag k="addr:street" v="Silk Oak Drive"/><tag k="addr:housenumber" v="3403"/><tag k="addr:postcode" v="78748"/></node><node id="-149" lat="30.18712" lon="-97.832419" changeset="false"><tag k="addr:street" v="Wilcrest Drive"/><tag k="addr:housenumber" v="2831"/><tag k="addr:postcode" v="78748"/></node><node id="-150" lat="30.186415" lon="-97.835199" changeset="false"><tag k="addr:street" v="Cohoba Drive"/><tag k="addr:housenumber" v="2935"/><tag k="addr:postcode" v="78748"/></node><node id="-151" lat="30.186681" lon="-97.843542" changeset="false"><tag k="addr:street" v="Silkgrass Bend"/><tag k="addr:housenumber" v="3319"/><tag k="addr:postcode" v="78748"/></node><node id="-152" lat="30.186392" lon="-97.843334" changeset="false"><tag k="addr:street" v="Kangaroo Lane"/><tag k="addr:housenumber" v="9601"/><tag k="addr:postcode" v="78748"/></node><node id="-153" lat="30.186352" lon="-97.843254" changeset="false"><tag k="addr:street" v="Silkgrass Bend"/><tag k="addr:housenumber" v="3311"/><tag k="addr:postcode" v="78748"/></node><node id="-154" lat="30.186393" lon="-97.84329" changeset="false"><tag k="addr:street" v="Silkgrass Bend"/><tag k="addr:housenumber" v="3313"/><tag k="addr:postcode" v="78748"/></node><node id="-155" lat="30.182952" lon="-97.847351" changeset="false"><tag k="addr:street" v="West Slaughter Lane"/><tag k="addr:housenumber" v="3400"/><tag k="addr:postcode" v="78748"/></node><node id="-156" lat="30.182909" lon="-97.847414" changeset="false"><tag k="addr:street" v="West Slaughter Lane"/><tag k="addr:housenumber" v="3400 1/2"/><tag k="addr:postcode" v="78748"/></node></osm>