<?xml version="1.0" encoding="UTF-8"?><osm version="0.6" generator="github.com/aaronlidman/osm-and-geojson"><node id="-1" lat="30.335579" lon="-97.75489" changeset="false"><tag k="addr:street" v="Northland Drive"/><tag k="addr:housenumber" v="3101"/><tag k="addr:postcode" v="78731"/></node><node id="-2" lat="30.328011" lon="-97.749577" changeset="false"><tag k="addr:street" v="Hancock Drive"/><tag k="addr:housenumber" v="2806"/><tag k="addr:postcode" v="78731"/></node><node id="-3" lat="30.329619" lon="-97.752858" changeset="false"><tag k="addr:street" v="Hancock Drive"/><tag k="addr:housenumber" v="3000"/><tag k="addr:postcode" v="78731"/></node><node id="-4" lat="30.325421" lon="-97.750367" changeset="false"><tag k="addr:street" v="Bull Creek Road"/><tag k="addr:housenumber" v="4905"/><tag k="addr:postcode" v="78731"/></node><node id="-5" lat="30.326642" lon="-97.749308" changeset="false"><tag k="addr:street" v="Bull Creek Road"/><tag k="addr:housenumber" v="5001"/><tag k="addr:postcode" v="78731"/></node><node id="-6" lat="30.33556" lon="-97.754801" changeset="false"><tag k="addr:street" v="Northland Drive"/><tag k="addr:housenumber" v="3101 1/2"/><tag k="addr:postcode" v="78731"/></node><node id="-7" lat="30.324307" lon="-97.746185" changeset="false"><tag k="addr:street" v="Strass Drive"/><tag k="addr:housenumber" v="4927"/><tag k="addr:postcode" v="78731"/></node><node id="-8" lat="30.325338" lon="-97.748608" changeset="false"><tag k="addr:street" v="Finley Drive"/><tag k="addr:housenumber" v="4911"/><tag k="addr:postcode" v="78731"/></node><node id="-9" lat="30.320339" lon="-97.751746" changeset="false"><tag k="addr:street" v="Oakmont Boulevard"/><tag k="addr:housenumber" v="4502"/><tag k="addr:postcode" v="78731"/></node><node id="-10" lat="30.334721" lon="-97.753086" changeset="false"><tag k="addr:street" v="Northland Drive"/><tag k="addr:housenumber" v="3003"/><tag k="addr:postcode" v="78731"/></node><node id="-11" lat="30.329255" lon="-97.747432" changeset="false"><tag k="addr:street" v="Turnabout Lane"/><tag k="addr:housenumber" v="5307"/><tag k="addr:postcode" v="78731"/></node><node id="-12" lat="30.326896" lon="-97.748269" changeset="false"><tag k="addr:street" v="Hancock Drive"/><tag k="addr:housenumber" v="2701"/><tag k="addr:postcode" v="78731"/></node><node id="-13" lat="30.32394" lon="-97.748449" changeset="false"><tag k="addr:street" v="West 49th Street"/><tag k="addr:housenumber" v="2630"/><tag k="addr:postcode" v="78731"/></node><node id="-14" lat="30.322176" lon="-97.748151" changeset="false"><tag k="addr:street" v="Rue Street"/><tag k="addr:housenumber" v="4702"/><tag k="addr:postcode" v="78731"/></node><node id="-15" lat="30.327955" lon="-97.747471" changeset="false"><tag k="addr:street" v="Turnabout Lane"/><tag k="addr:housenumber" v="5109"/><tag k="addr:postcode" v="78731"/></node><node id="-16" lat="30.325799" lon="-97.750107" changeset="false"><tag k="addr:street" v="Bull Creek Road"/><tag k="addr:housenumber" v="4929"/><tag k="addr:postcode" v="78731"/></node><node id="-17" lat="30.326415" lon="-97.748451" changeset="false"><tag k="addr:street" v="Finley Drive"/><tag k="addr:housenumber" v="5002"/><tag k="addr:postcode" v="78731"/></node><node id="-18" lat="30.322013" lon="-97.748228" changeset="false"><tag k="addr:street" v="Rue Street"/><tag k="addr:housenumber" v="4700"/><tag k="addr:postcode" v="78731"/></node><node id="-19" lat="30.320361" lon="-97.751823" changeset="false"><tag k="addr:street" v="West 45th Street"/><tag k="addr:housenumber" v="2640"/><tag k="addr:postcode" v="78731"/></node><node id="-20" lat="30.326574" lon="-97.747869" changeset="false"><tag k="addr:street" v="Finley Drive"/><tag k="addr:housenumber" v="5011"/><tag k="addr:postcode" v="78731"/></node><node id="-21" lat="30.326686" lon="-97.747832" changeset="false"><tag k="addr:street" v="Hancock Drive"/><tag k="addr:housenumber" v="2609"/><tag k="addr:postcode" v="78731"/></node></osm>