<?xml version="1.0" encoding="UTF-8"?><osm version="0.6" generator="github.com/aaronlidman/osm-and-geojson"><node id="-1" lat="30.234552" lon="-97.693076" changeset="false"><tag k="addr:street" v="Vargas Road"/><tag k="addr:housenumber" v="715"/><tag k="addr:postcode" v="78741"/></node><node id="-2" lat="30.234439" lon="-97.692571" changeset="false"><tag k="addr:street" v="Valdez Street"/><tag k="addr:housenumber" v="800"/><tag k="addr:postcode" v="78741"/></node><node id="-3" lat="30.2335" lon="-97.692642" changeset="false"><tag k="addr:street" v="Felix Avenue"/><tag k="addr:housenumber" v="6700"/><tag k="addr:postcode" v="78741"/></node><node id="-4" lat="30.236776" lon="-97.691106" changeset="false"><tag k="addr:street" v="Vargas Road"/><tag k="addr:housenumber" v="513"/><tag k="addr:postcode" v="78741"/></node><node id="-5" lat="30.227297" lon="-97.697344" changeset="false"><tag k="addr:street" v="Canal Street"/><tag k="addr:housenumber" v="6704"/><tag k="addr:postcode" v="78741"/></node><node id="-6" lat="30.226849" lon="-97.698699" changeset="false"><tag k="addr:street" v="Vargas Road"/><tag k="addr:housenumber" v="1509 1/2"/><tag k="addr:postcode" v="78741"/></node><node id="-7" lat="30.226012" lon="-97.694428" changeset="false"><tag k="addr:street" v="Frontier Valley Drive"/><tag k="addr:housenumber" v="1508"/><tag k="addr:postcode" v="78741"/></node><node id="-8" lat="30.225677" lon="-97.696678" changeset="false"><tag k="addr:street" v="Lawrence Street"/><tag k="addr:housenumber" v="1511"/><tag k="addr:postcode" v="78741"/></node><node id="-9" lat="30.225058" lon="-97.697358" changeset="false"><tag k="addr:street" v="Lawrence Street"/><tag k="addr:housenumber" v="1611"/><tag k="addr:postcode" v="78741"/></node><node id="-10" lat="30.225032" lon="-97.695544" changeset="false"><tag k="addr:street" v="Frontier Valley Drive"/><tag k="addr:housenumber" v="1606"/><tag k="addr:postcode" v="78741"/></node><node id="-11" lat="30.224565" lon="-97.696027" changeset="false"><tag k="addr:street" v="Frontier Valley Drive"/><tag k="addr:housenumber" v="1702"/><tag k="addr:postcode" v="78741"/></node><node id="-12" lat="30.23465" lon="-97.693023" changeset="false"><tag k="addr:street" v="Vargas Road"/><tag k="addr:housenumber" v="713"/><tag k="addr:postcode" v="78741"/></node><node id="-13" lat="30.231409" lon="-97.693652" changeset="false"><tag k="addr:street" v="Vasquez Street"/><tag k="addr:housenumber" v="1008"/><tag k="addr:postcode" v="78741"/></node><node id="-14" lat="30.230049" lon="-97.695775" changeset="false"><tag k="addr:street" v="Valdez Street"/><tag k="addr:housenumber" v="1204"/><tag k="addr:postcode" v="78741"/></node><node id="-15" lat="30.232495" lon="-97.693252" changeset="false"><tag k="addr:street" v="Valdez Street"/><tag k="addr:housenumber" v="913"/><tag k="addr:postcode" v="78741"/></node><node id="-16" lat="30.225841" lon="-97.694601" changeset="false"><tag k="addr:street" v="Frontier Valley Drive"/><tag k="addr:housenumber" v="1512"/><tag k="addr:postcode" v="78741"/></node><node id="-17" lat="30.22562" lon="-97.694873" changeset="false"><tag k="addr:street" v="Frontier Valley Drive"/><tag k="addr:housenumber" v="1518"/><tag k="addr:postcode" v="78741"/></node><node id="-18" lat="30.226061" lon="-97.696228" changeset="false"><tag k="addr:street" v="Lawrence Street"/><tag k="addr:housenumber" v="1501"/><tag k="addr:postcode" v="78741"/></node><node id="-19" lat="30.225982" lon="-97.696315" changeset="false"><tag k="addr:street" v="Lawrence Street"/><tag k="addr:housenumber" v="1503"/><tag k="addr:postcode" v="78741"/></node><node id="-20" lat="30.225828" lon="-97.696493" changeset="false"><tag k="addr:street" v="Lawrence Street"/><tag k="addr:housenumber" v="1507"/><tag k="addr:postcode" v="78741"/></node><node id="-21" lat="30.225592" lon="-97.696768" changeset="false"><tag k="addr:street" v="Lawrence Street"/><tag k="addr:housenumber" v="1513"/><tag k="addr:postcode" v="78741"/></node><node id="-22" lat="30.225114" lon="-97.695448" changeset="false"><tag k="addr:street" v="Frontier Valley Drive"/><tag k="addr:housenumber" v="1604"/><tag k="addr:postcode" v="78741"/></node><node id="-23" lat="30.224958" lon="-97.695626" changeset="false"><tag k="addr:street" v="Frontier Valley Drive"/><tag k="addr:housenumber" v="1608"/><tag k="addr:postcode" v="78741"/></node><node id="-24" lat="30.224329" lon="-97.696303" changeset="false"><tag k="addr:street" v="Frontier Valley Drive"/><tag k="addr:housenumber" v="1708"/><tag k="addr:postcode" v="78741"/></node><node id="-25" lat="30.224173" lon="-97.696483" changeset="false"><tag k="addr:street" v="Frontier Valley Drive"/><tag k="addr:housenumber" v="1712"/><tag k="addr:postcode" v="78741"/></node><node id="-26" lat="30.233903" lon="-97.692805" changeset="false"><tag k="addr:street" v="Valdez Street"/><tag k="addr:housenumber" v="808"/><tag k="addr:postcode" v="78741"/></node><node id="-27" lat="30.230546" lon="-97.695391" changeset="false"><tag k="addr:street" v="Valdez Street"/><tag k="addr:housenumber" v="1108"/><tag k="addr:postcode" v="78741"/></node><node id="-28" lat="30.233532" lon="-97.693472" changeset="false"><tag k="addr:street" v="Felix Avenue"/><tag k="addr:housenumber" v="6603"/><tag k="addr:postcode" v="78741"/></node><node id="-29" lat="30.23111" lon="-97.690776" changeset="false"><tag k="addr:street" v="Villita Avenida St"/><tag k="addr:housenumber" v="6902"/><tag k="addr:postcode" v="78741"/></node><node id="-30" lat="30.235128" lon="-97.692339" changeset="false"><tag k="addr:street" v="Vargas Road"/><tag k="addr:housenumber" v="703"/><tag k="addr:postcode" v="78741"/></node><node id="-31" lat="30.226286" lon="-97.699057" changeset="false"><tag k="addr:street" v="Vargas Road"/><tag k="addr:housenumber" v="1701"/><tag k="addr:postcode" v="78741"/></node><node id="-32" lat="30.225704" lon="-97.694778" changeset="false"><tag k="addr:street" v="Frontier Valley Drive"/><tag k="addr:housenumber" v="1516"/><tag k="addr:postcode" v="78741"/></node><node id="-33" lat="30.225263" lon="-97.695271" changeset="false"><tag k="addr:street" v="Frontier Valley Drive"/><tag k="addr:housenumber" v="1600"/><tag k="addr:postcode" v="78741"/></node><node id="-34" lat="30.224872" lon="-97.695727" changeset="false"><tag k="addr:street" v="Frontier Valley Drive"/><tag k="addr:housenumber" v="1610"/><tag k="addr:postcode" v="78741"/></node><node id="-35" lat="30.224904" lon="-97.697532" changeset="false"><tag k="addr:street" v="Lawrence Street"/><tag k="addr:housenumber" v="1615"/><tag k="addr:postcode" v="78741"/></node><node id="-36" lat="30.233176" lon="-97.693263" changeset="false"><tag k="addr:street" v="Valdez Street"/><tag k="addr:housenumber" v="914"/><tag k="addr:postcode" v="78741"/></node><node id="-37" lat="30.224785" lon="-97.694972" changeset="false"><tag k="addr:street" v="Frontier Valley Drive"/><tag k="addr:housenumber" v="1705"/><tag k="addr:postcode" v="78741"/></node><node id="-38" lat="30.230499" lon="-97.692336" changeset="false"><tag k="addr:street" v="Suena Drive"/><tag k="addr:housenumber" v="6817"/><tag k="addr:postcode" v="78741"/></node><node id="-39" lat="30.234497" lon="-97.691025" changeset="false"><tag k="addr:street" v="Ponca Street"/><tag k="addr:housenumber" v="6707"/><tag k="addr:postcode" v="78741"/></node><node id="-40" lat="30.230905" lon="-97.694682" changeset="false"><tag k="addr:street" v="Valdez Street"/><tag k="addr:housenumber" v="1101"/><tag k="addr:postcode" v="78741"/></node><node id="-41" lat="30.229199" lon="-97.69035" changeset="false"><tag k="addr:street" v="Frontier Valley Drive"/><tag k="addr:housenumber" v="1103"/><tag k="addr:postcode" v="78741"/></node><node id="-42" lat="30.226303" lon="-97.694031" changeset="false"><tag k="addr:street" v="Frontier Valley Drive"/><tag k="addr:housenumber" v="1418"/><tag k="addr:postcode" v="78741"/></node><node id="-43" lat="30.234908" lon="-97.692215" changeset="false"><tag k="addr:street" v="Valdez Street"/><tag k="addr:housenumber" v="704"/><tag k="addr:postcode" v="78741"/></node><node id="-44" lat="30.226082" lon="-97.69433" changeset="false"><tag k="addr:street" v="Frontier Valley Drive"/><tag k="addr:housenumber" v="1506"/><tag k="addr:postcode" v="78741"/></node><node id="-45" lat="30.225779" lon="-97.694688" changeset="false"><tag k="addr:street" v="Frontier Valley Drive"/><tag k="addr:housenumber" v="1514"/><tag k="addr:postcode" v="78741"/></node><node id="-46" lat="30.225536" lon="-97.694967" changeset="false"><tag k="addr:street" v="Frontier Valley Drive"/><tag k="addr:housenumber" v="1520"/><tag k="addr:postcode" v="78741"/></node><node id="-47" lat="30.225511" lon="-97.696853" changeset="false"><tag k="addr:street" v="Lawrence Street"/><tag k="addr:housenumber" v="1515"/><tag k="addr:postcode" v="78741"/></node><node id="-48" lat="30.225428" lon="-97.69691" changeset="false"><tag k="addr:street" v="Lawrence Street"/><tag k="addr:housenumber" v="1601"/><tag k="addr:postcode" v="78741"/></node><node id="-49" lat="30.225289" lon="-97.697093" changeset="false"><tag k="addr:street" v="Lawrence Street"/><tag k="addr:housenumber" v="1605"/><tag k="addr:postcode" v="78741"/></node><node id="-50" lat="30.225212" lon="-97.697172" changeset="false"><tag k="addr:street" v="Lawrence Street"/><tag k="addr:housenumber" v="1607"/><tag k="addr:postcode" v="78741"/></node><node id="-51" lat="30.224647" lon="-97.695953" changeset="false"><tag k="addr:street" v="Frontier Valley Drive"/><tag k="addr:housenumber" v="1700"/><tag k="addr:postcode" v="78741"/></node><node id="-52" lat="30.227351" lon="-97.692818" changeset="false"><tag k="addr:street" v="Frontier Valley Drive"/><tag k="addr:housenumber" v="1324"/><tag k="addr:postcode" v="78741"/></node><node id="-53" lat="30.230605" lon="-97.695976" changeset="false"><tag k="addr:street" v="Vargas Road"/><tag k="addr:housenumber" v="1113"/><tag k="addr:postcode" v="78741"/></node><node id="-54" lat="30.227099" lon="-97.698164" changeset="false"><tag k="addr:street" v="Santos Street"/><tag k="addr:housenumber" v="6605"/><tag k="addr:postcode" v="78741"/></node><node id="-55" lat="30.234424" lon="-97.690795" changeset="false"><tag k="addr:street" v="Ponca Street"/><tag k="addr:housenumber" v="6709"/><tag k="addr:postcode" v="78741"/></node><node id="-56" lat="30.233022" lon="-97.692982" changeset="false"><tag k="addr:street" v="Valdez Street"/><tag k="addr:housenumber" v="905"/><tag k="addr:postcode" v="78741"/></node><node id="-57" lat="30.230378" lon="-97.69612" changeset="false"><tag k="addr:street" v="Vargas Road"/><tag k="addr:housenumber" v="1201"/><tag k="addr:postcode" v="78741"/></node><node id="-58" lat="30.225744" lon="-97.696591" changeset="false"><tag k="addr:street" v="Lawrence Street"/><tag k="addr:housenumber" v="1509"/><tag k="addr:postcode" v="78741"/></node><node id="-59" lat="30.224406" lon="-97.696204" changeset="false"><tag k="addr:street" v="Frontier Valley Drive"/><tag k="addr:housenumber" v="1706"/><tag k="addr:postcode" v="78741"/></node><node id="-60" lat="30.234827" lon="-97.691356" changeset="false"><tag k="addr:street" v="Ponca Street"/><tag k="addr:housenumber" v="6705"/><tag k="addr:postcode" v="78741"/></node><node id="-61" lat="30.225926" lon="-97.694519" changeset="false"><tag k="addr:street" v="Frontier Valley Drive"/><tag k="addr:housenumber" v="1510"/><tag k="addr:postcode" v="78741"/></node><node id="-62" lat="30.225142" lon="-97.697265" changeset="false"><tag k="addr:street" v="Lawrence Street"/><tag k="addr:housenumber" v="1609"/><tag k="addr:postcode" v="78741"/></node><node id="-63" lat="30.22479" lon="-97.695817" changeset="false"><tag k="addr:street" v="Frontier Valley Drive"/><tag k="addr:housenumber" v="1612"/><tag k="addr:postcode" v="78741"/></node><node id="-64" lat="30.224713" lon="-97.695907" changeset="false"><tag k="addr:street" v="Frontier Valley Drive"/><tag k="addr:housenumber" v="1614"/><tag k="addr:postcode" v="78741"/></node><node id="-65" lat="30.224488" lon="-97.696125" changeset="false"><tag k="addr:street" v="Frontier Valley Drive"/><tag k="addr:housenumber" v="1704"/><tag k="addr:postcode" v="78741"/></node><node id="-66" lat="30.224255" lon="-97.69639" changeset="false"><tag k="addr:street" v="Frontier Valley Drive"/><tag k="addr:housenumber" v="1710"/><tag k="addr:postcode" v="78741"/></node><node id="-67" lat="30.224337" lon="-97.698419" changeset="false"><tag k="addr:street" v="Lawrence Street"/><tag k="addr:housenumber" v="1709"/><tag k="addr:postcode" v="78741"/></node><node id="-68" lat="30.223689" lon="-97.696142" changeset="false"><tag k="addr:street" v="Frontier Valley Drive"/><tag k="addr:housenumber" v="1749"/><tag k="addr:postcode" v="78741"/></node><node id="-69" lat="30.223473" lon="-97.69933" changeset="false"><tag k="addr:street" v="East Riverside Drive"/><tag k="addr:housenumber" v="6814"/><tag k="addr:postcode" v="78741"/></node><node id="-70" lat="30.226198" lon="-97.694185" changeset="false"><tag k="addr:street" v="Frontier Valley Drive"/><tag k="addr:housenumber" v="1500"/><tag k="addr:postcode" v="78741"/></node><node id="-71" lat="30.225454" lon="-97.695051" changeset="false"><tag k="addr:street" v="Frontier Valley Drive"/><tag k="addr:housenumber" v="1522"/><tag k="addr:postcode" v="78741"/></node><node id="-72" lat="30.225905" lon="-97.696414" changeset="false"><tag k="addr:street" v="Lawrence Street"/><tag k="addr:housenumber" v="1505"/><tag k="addr:postcode" v="78741"/></node><node id="-73" lat="30.224103" lon="-97.696573" changeset="false"><tag k="addr:street" v="Frontier Valley Drive"/><tag k="addr:housenumber" v="1714"/><tag k="addr:postcode" v="78741"/></node><node id="-74" lat="30.22943" lon="-97.696055" changeset="false"><tag k="addr:street" v="Porter Street"/><tag k="addr:housenumber" v="6611"/><tag k="addr:postcode" v="78741"/></node><node id="-75" lat="30.229046" lon="-97.696844" changeset="false"><tag k="addr:street" v="Galindo Street"/><tag k="addr:housenumber" v="6606"/><tag k="addr:postcode" v="78741"/></node><node id="-76" lat="30.226638" lon="-97.693595" changeset="false"><tag k="addr:street" v="Frontier Valley Drive"/><tag k="addr:housenumber" v="1406"/><tag k="addr:postcode" v="78741"/></node><node id="-77" lat="30.232727" lon="-97.693062" changeset="false"><tag k="addr:street" v="Valdez Street"/><tag k="addr:housenumber" v="909"/><tag k="addr:postcode" v="78741"/></node><node id="-78" lat="30.225361" lon="-97.696981" changeset="false"><tag k="addr:street" v="Lawrence Street"/><tag k="addr:housenumber" v="1603"/><tag k="addr:postcode" v="78741"/></node><node id="-79" lat="30.224976" lon="-97.697442" changeset="false"><tag k="addr:street" v="Lawrence Street"/><tag k="addr:housenumber" v="1613"/><tag k="addr:postcode" v="78741"/></node><node id="-80" lat="30.225189" lon="-97.695364" changeset="false"><tag k="addr:street" v="Frontier Valley Drive"/><tag k="addr:housenumber" v="1602"/><tag k="addr:postcode" v="78741"/></node><node id="-81" lat="30.236566" lon="-97.691461" changeset="false"><tag k="addr:street" v="Vargas Road"/><tag k="addr:housenumber" v="517"/><tag k="addr:postcode" v="78741"/></node><node id="-82" lat="30.231569" lon="-97.695248" changeset="false"><tag k="addr:street" v="Vargas Road"/><tag k="addr:housenumber" v="1013"/><tag k="addr:postcode" v="78741"/></node><node id="-83" lat="30.226691" lon="-97.696182" changeset="false"><tag k="addr:street" v="Lawrence Street"/><tag k="addr:housenumber" v="1428"/><tag k="addr:postcode" v="78741"/></node><node id="-84" lat="30.234278" lon="-97.693232" changeset="false"><tag k="addr:street" v="Vargas Road"/><tag k="addr:housenumber" v="803"/><tag k="addr:postcode" v="78741"/></node><node id="-85" lat="30.230401" lon="-97.690388" changeset="false"><tag k="addr:street" v="Villita Avenida St"/><tag k="addr:housenumber" v="6914"/><tag k="addr:postcode" v="78741"/></node><node id="-86" lat="30.229246" lon="-97.69556" changeset="false"><tag k="addr:street" v="Porter Street"/><tag k="addr:housenumber" v="6701"/><tag k="addr:postcode" v="78741"/></node><node id="-87" lat="30.233606" lon="-97.693913" changeset="false"><tag k="addr:street" v="Felix Avenue"/><tag k="addr:housenumber" v="6601"/><tag k="addr:postcode" v="78741"/></node><node id="-88" lat="30.228952" lon="-97.690638" changeset="false"><tag k="addr:street" v="Frontier Valley Drive"/><tag k="addr:housenumber" v="1119"/><tag k="addr:postcode" v="78741"/></node><node id="-89" lat="30.232827" lon="-97.691978" changeset="false"><tag k="addr:street" v="Vasquez Street"/><tag k="addr:housenumber" v="901"/><tag k="addr:postcode" v="78741"/></node><node id="-90" lat="30.230491" lon="-97.696055" changeset="false"><tag k="addr:street" v="Vargas Road"/><tag k="addr:housenumber" v="1115"/><tag k="addr:postcode" v="78741"/></node><node id="-91" lat="30.228145" lon="-97.692024" changeset="false"><tag k="addr:street" v="Frontier Valley Drive"/><tag k="addr:housenumber" v="1208 1/2"/><tag k="addr:postcode" v="78741"/></node><node id="-92" lat="30.228167" lon="-97.692074" changeset="false"><tag k="addr:street" v="Frontier Valley Drive"/><tag k="addr:housenumber" v="1208"/><tag k="addr:postcode" v="78741"/></node><node id="-93" lat="30.232409" lon="-97.693966" changeset="false"><tag k="addr:street" v="Valdez Street"/><tag k="addr:housenumber" v="916"/><tag k="addr:postcode" v="78741"/></node><node id="-94" lat="30.232396" lon="-97.694142" changeset="false"><tag k="addr:street" v="Valdez Street"/><tag k="addr:housenumber" v="1000"/><tag k="addr:postcode" v="78741"/></node></osm>