<?xml version="1.0" encoding="UTF-8"?><osm version="0.6" generator="github.com/aaronlidman/osm-and-geojson"><node id="-1" lat="30.265061" lon="-97.794664" changeset="false"><tag k="addr:street" v="Regents Park"/><tag k="addr:housenumber" v="2804"/></node><node id="-2" lat="30.260432" lon="-97.800552" changeset="false"><tag k="addr:street" v="Holly Hill Drive"/><tag k="addr:housenumber" v="1924"/></node><node id="-3" lat="30.26437" lon="-97.795903" changeset="false"><tag k="addr:street" v="Regents Park"/><tag k="addr:housenumber" v="2904"/></node><node id="-4" lat="30.26398" lon="-97.797343" changeset="false"><tag k="addr:street" v="Regents Park"/><tag k="addr:housenumber" v="2914"/></node><node id="-5" lat="30.264367" lon="-97.806341" changeset="false"><tag k="addr:street" v="Stoneridge Road"/><tag k="addr:housenumber" v="1903"/></node><node id="-6" lat="30.26102" lon="-97.801747" changeset="false"><tag k="addr:street" v="Holly Hill Drive"/><tag k="addr:housenumber" v="1915"/></node><node id="-7" lat="30.257569" lon="-97.800603" changeset="false"><tag k="addr:street" v="South MoPac Expressway"/><tag k="addr:housenumber" v="2306 1/2"/></node><node id="-8" lat="30.26199" lon="-97.806569" changeset="false"><tag k="addr:street" v="Wychwood Drive"/><tag k="addr:housenumber" v="2103"/></node><node id="-9" lat="30.2614" lon="-97.80918" changeset="false"><tag k="addr:street" v="Walsh Tarlton Lane"/><tag k="addr:housenumber" v="2329"/></node><node id="-10" lat="30.263476" lon="-97.79728" changeset="false"><tag k="addr:street" v="Regents Park"/><tag k="addr:housenumber" v="2915"/></node><node id="-11" lat="30.263586" lon="-97.802412" changeset="false"><tag k="addr:street" v="Holly Hill Drive"/><tag k="addr:housenumber" v="1800"/></node><node id="-12" lat="30.261534" lon="-97.798535" changeset="false"><tag k="addr:street" v="Crested Butte Drive"/><tag k="addr:housenumber" v="1805"/></node><node id="-13" lat="30.263329" lon="-97.796816" changeset="false"><tag k="addr:street" v="Regents Park"/><tag k="addr:housenumber" v="2913"/></node><node id="-14" lat="30.265234" lon="-97.792176" changeset="false"><tag k="addr:street" v="Regents Park"/><tag k="addr:housenumber" v="2725"/></node><node id="-15" lat="30.262293" lon="-97.7996" changeset="false"><tag k="addr:street" v="Intervail Drive"/><tag k="addr:housenumber" v="1812"/></node><node id="-16" lat="30.265338" lon="-97.797143" changeset="false"><tag k="addr:street" v="Thousand Oaks Drive"/><tag k="addr:housenumber" v="2927"/></node><node id="-17" lat="30.258993" lon="-97.798069" changeset="false"><tag k="addr:street" v="South MoPac Expressway"/><tag k="addr:housenumber" v="2000 1/2"/></node><node id="-18" lat="30.265477" lon="-97.795962" changeset="false"><tag k="addr:street" v="Foxcroft Place"/><tag k="addr:housenumber" v="1302"/></node><node id="-19" lat="30.263318" lon="-97.798044" changeset="false"><tag k="addr:street" v="Angelfire Lane"/><tag k="addr:housenumber" v="2905"/></node><node id="-20" lat="30.261069" lon="-97.795164" changeset="false"><tag k="addr:street" v="South MoPac Expressway"/><tag k="addr:housenumber" v="1700"/></node><node id="-21" lat="30.265651" lon="-97.796322" changeset="false"><tag k="addr:street" v="Thousand Oaks Drive"/><tag k="addr:housenumber" v="2921"/></node><node id="-22" lat="30.26208" lon="-97.800287" changeset="false"><tag k="addr:street" v="Winter Park Road"/><tag k="addr:housenumber" v="1807"/></node><node id="-23" lat="30.260633" lon="-97.799962" changeset="false"><tag k="addr:street" v="Steamboat Springs Cove"/><tag k="addr:housenumber" v="1915"/></node><node id="-24" lat="30.259355" lon="-97.798186" changeset="false"><tag k="addr:street" v="Capital Parkway"/><tag k="addr:housenumber" v="1908 1/2"/></node><node id="-25" lat="30.259907" lon="-97.804482" changeset="false"><tag k="addr:street" v="Tamarron Boulevard"/><tag k="addr:housenumber" v="3090"/></node><node id="-26" lat="30.262428" lon="-97.794036" changeset="false"><tag k="addr:street" v="South MoPac Expressway"/><tag k="addr:housenumber" v="1300"/></node><node id="-27" lat="30.264819" lon="-97.805516" changeset="false"><tag k="addr:street" v="Stoneridge Road"/><tag k="addr:housenumber" v="1805"/></node><node id="-28" lat="30.265621" lon="-97.806205" changeset="false"><tag k="addr:street" v="Thousand Oaks Circle"/><tag k="addr:housenumber" v="1708"/></node><node id="-29" lat="30.265157" lon="-97.797468" changeset="false"><tag k="addr:street" v="Prestwood Place"/><tag k="addr:housenumber" v="1400"/></node><node id="-30" lat="30.264514" lon="-97.806137" changeset="false"><tag k="addr:street" v="Stoneridge Road"/><tag k="addr:housenumber" v="1901"/></node><node id="-31" lat="30.257645" lon="-97.811586" changeset="false"><tag k="addr:street" v="Capital of Texas Highway"/><tag k="addr:housenumber" v="2739"/></node><node id="-32" lat="30.262913" lon="-97.799572" changeset="false"><tag k="addr:street" v="Intervail Drive"/><tag k="addr:housenumber" v="1803"/></node><node id="-33" lat="30.264124" lon="-97.79681" changeset="false"><tag k="addr:street" v="Regents Park"/><tag k="addr:housenumber" v="2912"/></node><node id="-34" lat="30.263974" lon="-97.794925" changeset="false"><tag k="addr:street" v="Regents Park"/><tag k="addr:housenumber" v="2901"/></node><node id="-35" lat="30.264696" lon="-97.787832" changeset="false"><tag k="addr:street" v="South MoPac Expressway"/><tag k="addr:housenumber" v="1208 1/2"/></node><node id="-36" lat="30.261026" lon="-97.805365" changeset="false"><tag k="addr:street" v="Wychwood Drive"/><tag k="addr:housenumber" v="2119"/></node><node id="-37" lat="30.263688" lon="-97.796188" changeset="false"><tag k="addr:street" v="Regents Park"/><tag k="addr:housenumber" v="2909 1/2"/></node><node id="-38" lat="30.260917" lon="-97.79821" changeset="false"><tag k="addr:street" v="Capital Parkway"/><tag k="addr:housenumber" v="1804"/></node><node id="-39" lat="30.265813" lon="-97.805199" changeset="false"><tag k="addr:street" v="Stoneridge Road"/><tag k="addr:housenumber" v="1702"/></node><node id="-40" lat="30.264839" lon="-97.795133" changeset="false"><tag k="addr:street" v="Regents Park"/><tag k="addr:housenumber" v="2808"/></node><node id="-41" lat="30.260663" lon="-97.805669" changeset="false"><tag k="addr:street" v="Wychwood Drive"/><tag k="addr:housenumber" v="2120"/></node><node id="-42" lat="30.260043" lon="-97.804766" changeset="false"><tag k="addr:street" v="Tamarron Boulevard"/><tag k="addr:housenumber" v="3100"/></node><node id="-43" lat="30.264315" lon="-97.807351" changeset="false"><tag k="addr:street" v="Walsh Tarlton Lane"/><tag k="addr:housenumber" v="1915"/></node><node id="-44" lat="30.264787" lon="-97.806589" changeset="false"><tag k="addr:street" v="Stone Ridge Circle"/><tag k="addr:housenumber" v="1804"/></node><node id="-45" lat="30.262146" lon="-97.793103" changeset="false"><tag k="addr:street" v="South MoPac Expressway"/><tag k="addr:housenumber" v="1300 1/2"/></node><node id="-46" lat="30.260756" lon="-97.7948" changeset="false"><tag k="addr:street" v="South MoPac Expressway"/><tag k="addr:housenumber" v="1618 1/2"/></node><node id="-47" lat="30.265825" lon="-97.804544" changeset="false"><tag k="addr:street" v="Thousand Oaks Drive"/><tag k="addr:housenumber" v="3203"/></node><node id="-48" lat="30.264707" lon="-97.804067" changeset="false"><tag k="addr:street" v="Mistywood Circle"/><tag k="addr:housenumber" v="3106"/></node><node id="-49" lat="30.265522" lon="-97.794482" changeset="false"><tag k="addr:street" v="Thousand Oaks Drive"/><tag k="addr:housenumber" v="2907"/></node><node id="-50" lat="30.265495" lon="-97.794388" changeset="false"><tag k="addr:street" v="Thousand Oaks Drive"/><tag k="addr:housenumber" v="2905"/></node></osm>