<?xml version="1.0" encoding="UTF-8"?><osm version="0.6" generator="github.com/aaronlidman/osm-and-geojson"><node id="-1" lat="30.321206" lon="-97.695194" changeset="false"><tag k="addr:street" v="Cameron Road"/><tag k="addr:housenumber" v="6313"/><tag k="coa:place_id" v="727496"/></node><node id="-2" lat="30.320226" lon="-97.69518" changeset="false"><tag k="addr:street" v="Cameron Road"/><tag k="addr:housenumber" v="6307"/><tag k="coa:place_id" v="1114268"/></node><node id="-3" lat="30.319174" lon="-97.69082" changeset="false"><tag k="addr:street" v="Wheless Lane"/><tag k="addr:housenumber" v="1610"/><tag k="coa:place_id" v="135402"/></node><node id="-4" lat="30.320628" lon="-97.690941" changeset="false"><tag k="addr:street" v="East US 290 Frontage Road"/><tag k="addr:housenumber" v="6731"/><tag k="coa:place_id" v="447830"/></node><node id="-5" lat="30.31924" lon="-97.690208" changeset="false"><tag k="addr:street" v="Wheless Lane"/><tag k="addr:housenumber" v="1616"/><tag k="coa:place_id" v="533624"/></node><node id="-6" lat="30.316362" lon="-97.69574" changeset="false"><tag k="addr:street" v="Berkshire Drive"/><tag k="addr:housenumber" v="1421"/><tag k="coa:place_id" v="774776"/></node><node id="-7" lat="30.320122" lon="-97.693068" changeset="false"><tag k="addr:street" v="Wheless Lane"/><tag k="addr:housenumber" v="1504"/><tag k="coa:place_id" v="88865"/></node><node id="-8" lat="30.320148" lon="-97.694864" changeset="false"><tag k="addr:street" v="Cameron Road"/><tag k="addr:housenumber" v="6309"/><tag k="coa:place_id" v="1114269"/></node><node id="-9" lat="30.320087" lon="-97.694592" changeset="false"><tag k="addr:street" v="Cameron Road"/><tag k="addr:housenumber" v="6311"/><tag k="coa:place_id" v="1114287"/></node><node id="-10" lat="30.312654" lon="-97.694541" changeset="false"><tag k="addr:street" v="Northridge Drive"/><tag k="addr:housenumber" v="1606"/><tag k="coa:place_id" v="896870"/></node><node id="-11" lat="30.316889" lon="-97.699868" changeset="false"><tag k="addr:street" v="Cameron Road"/><tag k="addr:housenumber" v="5901"/><tag k="coa:place_id" v="774026"/></node><node id="-12" lat="30.315557" lon="-97.698062" changeset="false"><tag k="addr:street" v="Yorkshire Drive"/><tag k="addr:housenumber" v="1405"/><tag k="coa:place_id" v="773750"/></node><node id="-13" lat="30.319648" lon="-97.691725" changeset="false"><tag k="addr:street" v="Wheless Lane"/><tag k="addr:housenumber" v="1600"/><tag k="coa:place_id" v="99832"/></node><node id="-14" lat="30.313514" lon="-97.692989" changeset="false"><tag k="addr:street" v="Sweetbriar Avenue"/><tag k="addr:housenumber" v="1678"/><tag k="coa:place_id" v="69915"/></node><node id="-15" lat="30.318741" lon="-97.69363" changeset="false"><tag k="addr:street" v="Brookside Drive"/><tag k="addr:housenumber" v="6213"/><tag k="coa:place_id" v="726914"/></node><node id="-16" lat="30.316326" lon="-97.694288" changeset="false"><tag k="addr:street" v="Belfast Drive"/><tag k="addr:housenumber" v="6013"/><tag k="coa:place_id" v="5226345"/></node><node id="-17" lat="30.320299" lon="-97.695411" changeset="false"><tag k="addr:street" v="Cameron Road"/><tag k="addr:housenumber" v="6305"/><tag k="coa:place_id" v="121517"/></node><node id="-18" lat="30.319067" lon="-97.69737" changeset="false"><tag k="addr:street" v="Glencrest Drive"/><tag k="addr:housenumber" v="1301"/><tag k="coa:place_id" v="3432263"/></node><node id="-19" lat="30.319229" lon="-97.689777" changeset="false"><tag k="addr:street" v="Berkman Drive"/><tag k="addr:housenumber" v="6516"/><tag k="coa:place_id" v="533582"/></node><node id="-20" lat="30.312828" lon="-97.694711" changeset="false"><tag k="addr:street" v="Northridge Drive"/><tag k="addr:housenumber" v="1604"/><tag k="coa:place_id" v="896876"/></node><node id="-21" lat="30.319379" lon="-97.689713" changeset="false"><tag k="addr:street" v="Berkman Drive"/><tag k="addr:housenumber" v="6600"/><tag k="coa:place_id" v="533564"/></node><node id="-22" lat="30.315664" lon="-97.695267" changeset="false"><tag k="addr:street" v="Briarcliff Boulevard"/><tag k="addr:housenumber" v="1426"/><tag k="coa:place_id" v="774518"/></node><node id="-23" lat="30.318691" lon="-97.689897" changeset="false"><tag k="addr:street" v="Berkman Drive"/><tag k="addr:housenumber" v="6512"/><tag k="coa:place_id" v="533600"/></node><node id="-24" lat="30.320961" lon="-97.692643" changeset="false"><tag k="addr:street" v="East US 290 Frontage Road"/><tag k="addr:housenumber" v="6651"/><tag k="coa:place_id" v="218804"/></node><node id="-25" lat="30.319094" lon="-97.68993" changeset="false"><tag k="addr:street" v="Berkman Drive"/><tag k="addr:housenumber" v="6510"/><tag k="coa:place_id" v="533606"/></node><node id="-26" lat="30.312336" lon="-97.693919" changeset="false"><tag k="addr:street" v="Berkman Drive"/><tag k="addr:housenumber" v="5810"/><tag k="coa:place_id" v="689576"/></node><node id="-27" lat="30.312481" lon="-97.69399" changeset="false"><tag k="addr:street" v="Berkman Drive"/><tag k="addr:housenumber" v="5812"/><tag k="coa:place_id" v="242532"/></node><node id="-28" lat="30.3173" lon="-97.699085" changeset="false"><tag k="addr:street" v="Briarcliff Boulevard"/><tag k="addr:housenumber" v="1300"/><tag k="coa:place_id" v="774638"/></node><node id="-29" lat="30.317407" lon="-97.699227" changeset="false"><tag k="addr:street" v="Cameron Road"/><tag k="addr:housenumber" v="6001"/><tag k="coa:place_id" v="774644"/></node><node id="-30" lat="30.316476" lon="-97.700248" changeset="false"><tag k="addr:street" v="Cameron Road"/><tag k="addr:housenumber" v="5817"/><tag k="coa:place_id" v="897614"/></node><node id="-31" lat="30.316519" lon="-97.700179" changeset="false"><tag k="addr:street" v="Yorkshire Drive"/><tag k="addr:housenumber" v="1301"/><tag k="coa:place_id" v="897620"/></node><node id="-32" lat="30.316287" lon="-97.700396" changeset="false"><tag k="addr:street" v="Danbury Square"/><tag k="addr:housenumber" v="1200"/><tag k="coa:place_id" v="134428"/></node><node id="-33" lat="30.316398" lon="-97.700462" changeset="false"><tag k="addr:street" v="Cameron Road"/><tag k="addr:housenumber" v="5815"/><tag k="coa:place_id" v="1113930"/></node></osm>