<?xml version="1.0" encoding="UTF-8"?><osm version="0.6" generator="github.com/aaronlidman/osm-and-geojson"><node id="-1" lat="30.382791" lon="-97.965747" changeset="false"><tag k="addr:street" v="Casablanca Lane"/><tag k="addr:housenumber" v="811"/><tag k="addr:postcode" v="78734"/></node><node id="-2" lat="30.387033" lon="-97.966311" changeset="false"><tag k="addr:street" v="Rabbit Run Circle"/><tag k="addr:housenumber" v="1306"/><tag k="addr:postcode" v="78734"/></node><node id="-3" lat="30.385545" lon="-97.967117" changeset="false"><tag k="addr:street" v="Rabbit Run Circle"/><tag k="addr:housenumber" v="1322"/><tag k="addr:postcode" v="78734"/></node><node id="-4" lat="30.389287" lon="-97.96246" changeset="false"><tag k="addr:street" v="Center Point Lane"/><tag k="addr:housenumber" v="1701"/><tag k="addr:postcode" v="78734"/></node><node id="-5" lat="30.357988" lon="-97.978268" changeset="false"><tag k="addr:street" v="Lakeway Boulevard"/><tag k="addr:housenumber" v="2114"/><tag k="addr:postcode" v="78734"/></node><node id="-6" lat="30.389003" lon="-97.962612" changeset="false"><tag k="addr:street" v="Center Point Lane"/><tag k="addr:housenumber" v="1605"/><tag k="addr:postcode" v="78734"/></node><node id="-7" lat="30.381786" lon="-97.966084" changeset="false"><tag k="addr:street" v="Casablanca Lane"/><tag k="addr:housenumber" v="803"/><tag k="addr:postcode" v="78734"/></node><node id="-8" lat="30.36202" lon="-97.970582" changeset="false"><tag k="addr:street" v="Nakoma Drive"/><tag k="addr:housenumber" v="108"/><tag k="addr:postcode" v="78734"/></node><node id="-9" lat="30.387619" lon="-97.963607" changeset="false"><tag k="addr:street" v="Chipmunk Road"/><tag k="addr:housenumber" v="1407"/><tag k="addr:postcode" v="78734"/></node><node id="-10" lat="30.374312" lon="-97.970023" changeset="false"><tag k="addr:street" v="Hurst Creek Road"/><tag k="addr:housenumber" v="402"/><tag k="addr:postcode" v="78734"/></node><node id="-11" lat="30.384748" lon="-97.964903" changeset="false"><tag k="addr:street" v="Oak Hurst Road"/><tag k="addr:housenumber" v="1105"/><tag k="addr:postcode" v="78734"/></node><node id="-12" lat="30.371383" lon="-97.97189" changeset="false"><tag k="addr:street" v="Ajuga Court"/><tag k="addr:housenumber" v="106"/><tag k="addr:postcode" v="78734"/></node><node id="-13" lat="30.371876" lon="-97.970159" changeset="false"><tag k="addr:street" v="Rupen Court"/><tag k="addr:housenumber" v="102"/><tag k="addr:postcode" v="78734"/></node><node id="-14" lat="30.390091" lon="-97.965526" changeset="false"><tag k="addr:street" v="Chipmunk Road"/><tag k="addr:housenumber" v="1525"/><tag k="addr:postcode" v="78734"/></node><node id="-15" lat="30.361984" lon="-97.969744" changeset="false"><tag k="addr:street" v="Palos Verdes Drive"/><tag k="addr:housenumber" v="901"/><tag k="addr:postcode" v="78734"/></node><node id="-16" lat="30.360534" lon="-97.969727" changeset="false"><tag k="addr:street" v="Palos Verdes Drive"/><tag k="addr:housenumber" v="1003"/><tag k="addr:postcode" v="78734"/></node><node id="-17" lat="30.361463" lon="-97.969737" changeset="false"><tag k="addr:street" v="Palos Verdes Drive"/><tag k="addr:housenumber" v="905"/><tag k="addr:postcode" v="78734"/></node><node id="-18" lat="30.367002" lon="-97.969867" changeset="false"><tag k="addr:street" v="Palos Verdes Drive"/><tag k="addr:housenumber" v="409"/><tag k="addr:postcode" v="78734"/></node><node id="-19" lat="30.388521" lon="-97.963433" changeset="false"><tag k="addr:street" v="Armadillo Cove"/><tag k="addr:housenumber" v="16901"/><tag k="addr:postcode" v="78734"/></node><node id="-20" lat="30.363742" lon="-97.969646" changeset="false"><tag k="addr:street" v="Palos Verdes Drive"/><tag k="addr:housenumber" v="703"/><tag k="addr:postcode" v="78734"/></node><node id="-21" lat="30.386947" lon="-97.966859" changeset="false"><tag k="addr:street" v="Rabbit Run Circle"/><tag k="addr:housenumber" v="1314"/><tag k="addr:postcode" v="78734"/></node><node id="-22" lat="30.390149" lon="-97.963218" changeset="false"><tag k="addr:street" v="Blue Cat Lane"/><tag k="addr:housenumber" v="1708"/><tag k="addr:postcode" v="78734"/></node><node id="-23" lat="30.389398" lon="-97.96552" changeset="false"><tag k="addr:street" v="Chipmunk Road"/><tag k="addr:housenumber" v="1519"/><tag k="addr:postcode" v="78734"/></node><node id="-24" lat="30.364018" lon="-97.974153" changeset="false"><tag k="addr:street" v="Los Altos Drive"/><tag k="addr:housenumber" v="114"/><tag k="addr:postcode" v="78734"/></node><node id="-25" lat="30.362282" lon="-97.969688" changeset="false"><tag k="addr:street" v="Palos Verdes Drive"/><tag k="addr:housenumber" v="807"/><tag k="addr:postcode" v="78734"/></node><node id="-26" lat="30.36213" lon="-97.968894" changeset="false"><tag k="addr:street" v="Squires Drive"/><tag k="addr:housenumber" v="119"/><tag k="addr:postcode" v="78734"/></node><node id="-27" lat="30.388282" lon="-97.962049" changeset="false"><tag k="addr:street" v="Graveyard Point Road"/><tag k="addr:housenumber" v="1605"/><tag k="addr:postcode" v="78734"/></node><node id="-28" lat="30.364851" lon="-97.97944" changeset="false"><tag k="addr:street" v="Deerfield Cove"/><tag k="addr:housenumber" v="112"/><tag k="addr:postcode" v="78734"/></node><node id="-29" lat="30.365778" lon="-97.970072" changeset="false"><tag k="addr:street" v="Palos Verdes Drive"/><tag k="addr:housenumber" v="502"/><tag k="addr:postcode" v="78734"/></node><node id="-30" lat="30.371386" lon="-97.969973" changeset="false"><tag k="addr:street" v="Cutty Trail"/><tag k="addr:housenumber" v="601"/><tag k="addr:postcode" v="78734"/></node><node id="-31" lat="30.372903" lon="-97.967965" changeset="false"><tag k="addr:street" v="Ladin Lane"/><tag k="addr:housenumber" v="603"/><tag k="addr:postcode" v="78734"/></node><node id="-32" lat="30.360892" lon="-97.969701" changeset="false"><tag k="addr:street" v="Palos Verdes Drive"/><tag k="addr:housenumber" v="1001"/><tag k="addr:postcode" v="78734"/></node><node id="-33" lat="30.384846" lon="-97.963604" changeset="false"><tag k="addr:street" v="Chipmunk Road"/><tag k="addr:housenumber" v="1117"/><tag k="addr:postcode" v="78734"/></node><node id="-34" lat="30.386033" lon="-97.965975" changeset="false"><tag k="addr:street" v="Oak Hurst Road"/><tag k="addr:housenumber" v="1202"/><tag k="addr:postcode" v="78734"/></node><node id="-35" lat="30.370326" lon="-97.969525" changeset="false"><tag k="addr:street" v="Rupen Drive"/><tag k="addr:housenumber" v="570"/><tag k="addr:postcode" v="78734"/></node><node id="-36" lat="30.389411" lon="-97.965617" changeset="false"><tag k="addr:street" v="Chipmunk Road"/><tag k="addr:housenumber" v="1521"/><tag k="addr:postcode" v="78734"/></node><node id="-37" lat="30.359824" lon="-97.978743" changeset="false"><tag k="addr:street" v="Lohmans Crossing Road"/><tag k="addr:housenumber" v="1209"/><tag k="addr:postcode" v="78734"/></node><node id="-38" lat="30.383083" lon="-97.96839" changeset="false"><tag k="addr:street" v="Hurst Creek Road"/><tag k="addr:housenumber" v="800"/><tag k="addr:postcode" v="78734"/></node><node id="-39" lat="30.381379" lon="-97.966231" changeset="false"><tag k="addr:street" v="Casablanca Lane"/><tag k="addr:housenumber" v="801"/><tag k="addr:postcode" v="78734"/></node><node id="-40" lat="30.386821" lon="-97.965636" changeset="false"><tag k="addr:street" v="Oak Hurst Road"/><tag k="addr:housenumber" v="1302"/><tag k="addr:postcode" v="78734"/></node><node id="-41" lat="30.388708" lon="-97.961692" changeset="false"><tag k="addr:street" v="Graveyard Point Road"/><tag k="addr:housenumber" v="1703"/><tag k="addr:postcode" v="78734"/></node><node id="-42" lat="30.365609" lon="-97.97865" changeset="false"><tag k="addr:street" v="Sailors Run"/><tag k="addr:housenumber" v="132"/><tag k="addr:postcode" v="78734"/></node><node id="-43" lat="30.362135" lon="-97.971229" changeset="false"><tag k="addr:street" v="Nakoma Drive"/><tag k="addr:housenumber" v="105"/><tag k="addr:postcode" v="78734"/></node><node id="-44" lat="30.364025" lon="-97.971024" changeset="false"><tag k="addr:street" v="Los Altos Drive"/><tag k="addr:housenumber" v="203"/><tag k="addr:postcode" v="78734"/></node><node id="-45" lat="30.371254" lon="-97.966332" changeset="false"><tag k="addr:street" v="Ladin Lane"/><tag k="addr:housenumber" v="526"/><tag k="addr:postcode" v="78734"/></node><node id="-46" lat="30.389935" lon="-97.962874" changeset="false"><tag k="addr:street" v="Graveyard Point Road"/><tag k="addr:housenumber" v="1840"/><tag k="addr:postcode" v="78734"/></node><node id="-47" lat="30.388408" lon="-97.966265" changeset="false"><tag k="addr:street" v="Oak Hurst Road"/><tag k="addr:housenumber" v="1412"/><tag k="addr:postcode" v="78734"/></node><node id="-48" lat="30.38451" lon="-97.96503" changeset="false"><tag k="addr:street" v="Oak Hurst Road"/><tag k="addr:housenumber" v="1103"/><tag k="addr:postcode" v="78734"/></node><node id="-49" lat="30.363288" lon="-97.979238" changeset="false"><tag k="addr:street" v="Lohmans Crossing Road"/><tag k="addr:housenumber" v="1121"/><tag k="addr:postcode" v="78734"/></node><node id="-50" lat="30.387503" lon="-97.963858" changeset="false"><tag k="addr:street" v="Chipmunk Road"/><tag k="addr:housenumber" v="1405"/><tag k="addr:postcode" v="78734"/></node><node id="-51" lat="30.383664" lon="-97.968293" changeset="false"><tag k="addr:street" v="Hurst Creek Road"/><tag k="addr:housenumber" v="900"/><tag k="addr:postcode" v="78734"/></node><node id="-52" lat="30.385936" lon="-97.964853" changeset="false"><tag k="addr:street" v="Max Drive"/><tag k="addr:housenumber" v="17003"/><tag k="addr:postcode" v="78734"/></node><node id="-53" lat="30.365147" lon="-97.970976" changeset="false"><tag k="addr:street" v="Racebrook Court"/><tag k="addr:housenumber" v="104"/><tag k="addr:postcode" v="78734"/></node><node id="-54" lat="30.374899" lon="-97.967621" changeset="false"><tag k="addr:street" v="Ladin Lane"/><tag k="addr:housenumber" v="616"/><tag k="addr:postcode" v="78734"/></node><node id="-55" lat="30.382029" lon="-97.967352" changeset="false"><tag k="addr:street" v="Casablanca Lane"/><tag k="addr:housenumber" v="800"/><tag k="addr:postcode" v="78734"/></node><node id="-56" lat="30.38297" lon="-97.966704" changeset="false"><tag k="addr:street" v="Casablanca Lane"/><tag k="addr:housenumber" v="901"/><tag k="addr:postcode" v="78734"/></node><node id="-57" lat="30.370382" lon="-97.976966" changeset="false"><tag k="addr:street" v="Hurst Creek Road"/><tag k="addr:housenumber" v="202"/><tag k="addr:postcode" v="78734"/></node><node id="-58" lat="30.390773" lon="-97.966366" changeset="false"><tag k="addr:street" v="Hurst Creek Road"/><tag k="addr:housenumber" v="1506"/><tag k="addr:postcode" v="78734"/></node><node id="-59" lat="30.362296" lon="-97.970965" changeset="false"><tag k="addr:street" v="Nakoma Drive"/><tag k="addr:housenumber" v="107"/><tag k="addr:postcode" v="78734"/></node><node id="-60" lat="30.388378" lon="-97.961907" changeset="false"><tag k="addr:street" v="Graveyard Point Road"/><tag k="addr:housenumber" v="1701"/><tag k="addr:postcode" v="78734"/></node><node id="-61" lat="30.366612" lon="-97.970498" changeset="false"><tag k="addr:street" v="Palos Verdes Drive"/><tag k="addr:housenumber" v="404"/><tag k="addr:postcode" v="78734"/></node><node id="-62" lat="30.375487" lon="-97.969738" changeset="false"><tag k="addr:street" v="Hurst Creek Road"/><tag k="addr:housenumber" v="408"/><tag k="addr:postcode" v="78734"/></node><node id="-63" lat="30.360563" lon="-97.978428" changeset="false"><tag k="addr:street" v="Lohmans Crossing Road"/><tag k="addr:housenumber" v="1207"/><tag k="addr:postcode" v="78734"/></node><node id="-64" lat="30.390012" lon="-97.966559" changeset="false"><tag k="addr:street" v="Hurst Creek Road"/><tag k="addr:housenumber" v="1505"/><tag k="addr:postcode" v="78734"/></node><node id="-65" lat="30.389346" lon="-97.965162" changeset="false"><tag k="addr:street" v="Chipmunk Road"/><tag k="addr:housenumber" v="1515"/><tag k="addr:postcode" v="78734"/></node><node id="-66" lat="30.389382" lon="-97.965369" changeset="false"><tag k="addr:street" v="Chipmunk Road"/><tag k="addr:housenumber" v="1517"/><tag k="addr:postcode" v="78734"/></node><node id="-67" lat="30.389804" lon="-97.961138" changeset="false"><tag k="addr:street" v="Graveyard Point Road"/><tag k="addr:housenumber" v="1801"/><tag k="addr:postcode" v="78734"/></node><node id="-68" lat="30.387918" lon="-97.962533" changeset="false"><tag k="addr:street" v="Graveyard Point Road"/><tag k="addr:housenumber" v="1505"/><tag k="addr:postcode" v="78734"/></node><node id="-69" lat="30.385253" lon="-97.967562" changeset="false"><tag k="addr:street" v="Hurst Creek Road"/><tag k="addr:housenumber" v="1007"/><tag k="addr:postcode" v="78734"/></node><node id="-70" lat="30.388616" lon="-97.963486" changeset="false"><tag k="addr:street" v="Armadillo Cove"/><tag k="addr:housenumber" v="16903"/><tag k="addr:postcode" v="78734"/></node><node id="-71" lat="30.388791" lon="-97.966328" changeset="false"><tag k="addr:street" v="Oak Hurst Road"/><tag k="addr:housenumber" v="1419"/><tag k="addr:postcode" v="78734"/></node><node id="-72" lat="30.390155" lon="-97.961075" changeset="false"><tag k="addr:street" v="Graveyard Point Road"/><tag k="addr:housenumber" v="1803"/><tag k="addr:postcode" v="78734"/></node><node id="-73" lat="30.371522" lon="-97.973661" changeset="false"><tag k="addr:street" v="Hurst Creek Road"/><tag k="addr:housenumber" v="226"/><tag k="addr:postcode" v="78734"/></node><node id="-74" lat="30.370177" lon="-97.977369" changeset="false"><tag k="addr:street" v="Hurst Creek Road"/><tag k="addr:housenumber" v="132"/><tag k="addr:postcode" v="78734"/></node><node id="-75" lat="30.38564" lon="-97.967417" changeset="false"><tag k="addr:street" v="Hurst Creek Road"/><tag k="addr:housenumber" v="1101"/><tag k="addr:postcode" v="78734"/></node><node id="-76" lat="30.361991" lon="-97.971553" changeset="false"><tag k="addr:street" v="Nakoma Drive"/><tag k="addr:housenumber" v="103"/><tag k="addr:postcode" v="78734"/></node><node id="-77" lat="30.366353" lon="-97.972403" changeset="false"><tag k="addr:street" v="Palos Verdes Drive"/><tag k="addr:housenumber" v="303"/><tag k="addr:postcode" v="78734"/></node><node id="-78" lat="30.384381" lon="-97.963915" changeset="false"><tag k="addr:street" v="Chipmunk Road"/><tag k="addr:housenumber" v="1113"/><tag k="addr:postcode" v="78734"/></node><node id="-79" lat="30.381943" lon="-97.968376" changeset="false"><tag k="addr:street" v="Hurst Creek Road"/><tag k="addr:housenumber" v="700"/><tag k="addr:postcode" v="78734"/></node><node id="-80" lat="30.365078" lon="-97.978933" changeset="false"><tag k="addr:street" v="Deerfield Cove"/><tag k="addr:housenumber" v="122"/><tag k="addr:postcode" v="78734"/></node><node id="-81" lat="30.38248" lon="-97.968407" changeset="false"><tag k="addr:street" v="Hurst Creek Road"/><tag k="addr:housenumber" v="706"/><tag k="addr:postcode" v="78734"/></node><node id="-82" lat="30.386449" lon="-97.963719" changeset="false"><tag k="addr:street" v="Chipmunk Road"/><tag k="addr:housenumber" v="1301"/><tag k="addr:postcode" v="78734"/></node><node id="-83" lat="30.361698" lon="-97.970534" changeset="false"><tag k="addr:street" v="Palos Verdes Drive"/><tag k="addr:housenumber" v="904"/><tag k="addr:postcode" v="78734"/></node><node id="-84" lat="30.359721" lon="-97.969591" changeset="false"><tag k="addr:street" v="Duck Lake Drive"/><tag k="addr:housenumber" v="603"/><tag k="addr:postcode" v="78734"/></node><node id="-85" lat="30.363379" lon="-97.970334" changeset="false"><tag k="addr:street" v="Palos Verdes Drive"/><tag k="addr:housenumber" v="704"/><tag k="addr:postcode" v="78734"/></node><node id="-86" lat="30.386665" lon="-97.966817" changeset="false"><tag k="addr:street" v="Rabbit Run Circle"/><tag k="addr:housenumber" v="1316"/><tag k="addr:postcode" v="78734"/></node><node id="-87" lat="30.37095" lon="-97.972349" changeset="false"><tag k="addr:street" v="Mango Court"/><tag k="addr:housenumber" v="107"/><tag k="addr:postcode" v="78734"/></node><node id="-88" lat="30.383766" lon="-97.964124" changeset="false"><tag k="addr:street" v="Chipmunk Road"/><tag k="addr:housenumber" v="1103"/><tag k="addr:postcode" v="78734"/></node><node id="-89" lat="30.383935" lon="-97.964277" changeset="false"><tag k="addr:street" v="Chipmunk Road"/><tag k="addr:housenumber" v="1105"/><tag k="addr:postcode" v="78734"/></node><node id="-90" lat="30.385423" lon="-97.967494" changeset="false"><tag k="addr:street" v="Hurst Creek Road"/><tag k="addr:housenumber" v="1009"/><tag k="addr:postcode" v="78734"/></node><node id="-91" lat="30.366416" lon="-97.969387" changeset="false"><tag k="addr:street" v="Palos Verdes Drive"/><tag k="addr:housenumber" v="413"/><tag k="addr:postcode" v="78734"/></node><node id="-92" lat="30.388757" lon="-97.963531" changeset="false"><tag k="addr:street" v="Armadillo Cove"/><tag k="addr:housenumber" v="16905"/><tag k="addr:postcode" v="78734"/></node><node id="-93" lat="30.362448" lon="-97.968857" changeset="false"><tag k="addr:street" v="Squires Drive"/><tag k="addr:housenumber" v="121"/><tag k="addr:postcode" v="78734"/></node><node id="-94" lat="30.366213" lon="-97.970498" changeset="false"><tag k="addr:street" v="Kerry Court"/><tag k="addr:housenumber" v="104"/><tag k="addr:postcode" v="78734"/></node><node id="-95" lat="30.387096" lon="-97.966592" changeset="false"><tag k="addr:street" v="Rabbit Run Circle"/><tag k="addr:housenumber" v="1310"/><tag k="addr:postcode" v="78734"/></node><node id="-96" lat="30.382649" lon="-97.9674" changeset="false"><tag k="addr:street" v="Casablanca Lane"/><tag k="addr:housenumber" v="806"/><tag k="addr:postcode" v="78734"/></node><node id="-97" lat="30.382332" lon="-97.966833" changeset="false"><tag k="addr:street" v="Casablanca Lane"/><tag k="addr:housenumber" v="805"/><tag k="addr:postcode" v="78734"/></node><node id="-98" lat="30.383201" lon="-97.967343" changeset="false"><tag k="addr:street" v="Casablanca Lane"/><tag k="addr:housenumber" v="900"/><tag k="addr:postcode" v="78734"/></node></osm>