<?xml version="1.0" encoding="UTF-8"?><osm version="0.6" generator="github.com/aaronlidman/osm-and-geojson"><node id="-1" lat="30.317487" lon="-97.666901" changeset="false"><tag k="addr:street" v="Val Drive"/><tag k="addr:housenumber" v="3100"/><tag k="addr:postcode" v="78723"/></node><node id="-2" lat="30.31719" lon="-97.664795" changeset="false"><tag k="addr:street" v="Lynridge Drive"/><tag k="addr:housenumber" v="3402"/><tag k="addr:postcode" v="78723"/></node><node id="-3" lat="30.313278" lon="-97.667275" changeset="false"><tag k="addr:street" v="Tulane Drive"/><tag k="addr:housenumber" v="6904"/><tag k="addr:postcode" v="78723"/></node><node id="-4" lat="30.312682" lon="-97.670177" changeset="false"><tag k="addr:street" v="Tampa Cove"/><tag k="addr:housenumber" v="6704"/><tag k="addr:postcode" v="78723"/></node><node id="-5" lat="30.316559" lon="-97.667136" changeset="false"><tag k="addr:street" v="Susquehanna Lane"/><tag k="addr:housenumber" v="3016"/><tag k="addr:postcode" v="78723"/></node><node id="-6" lat="30.318711" lon="-97.665719" changeset="false"><tag k="addr:street" v="Vintage Hills Cove"/><tag k="addr:housenumber" v="3305"/><tag k="addr:postcode" v="78723"/></node><node id="-7" lat="30.318062" lon="-97.665349" changeset="false"><tag k="addr:street" v="Vintage Hills Drive"/><tag k="addr:housenumber" v="7400"/><tag k="addr:postcode" v="78723"/></node><node id="-8" lat="30.313658" lon="-97.666976" changeset="false"><tag k="addr:street" v="Rockhurst Lane"/><tag k="addr:housenumber" v="3301"/><tag k="addr:postcode" v="78723"/></node><node id="-9" lat="30.312818" lon="-97.670097" changeset="false"><tag k="addr:street" v="Tampa Cove"/><tag k="addr:housenumber" v="6706"/><tag k="addr:postcode" v="78723"/></node><node id="-10" lat="30.313488" lon="-97.669146" changeset="false"><tag k="addr:street" v="Wake Forest Lane"/><tag k="addr:housenumber" v="6810"/><tag k="addr:postcode" v="78723"/></node><node id="-11" lat="30.319198" lon="-97.666191" changeset="false"><tag k="addr:street" v="Vintage Hills Drive"/><tag k="addr:housenumber" v="7416 1/2"/><tag k="addr:postcode" v="78723"/></node><node id="-12" lat="30.315232" lon="-97.666381" changeset="false"><tag k="addr:street" v="Susquehanna Lane"/><tag k="addr:housenumber" v="3204"/><tag k="addr:postcode" v="78723"/></node><node id="-13" lat="30.318979" lon="-97.666029" changeset="false"><tag k="addr:street" v="Vintage Hills Cove"/><tag k="addr:housenumber" v="3306"/><tag k="addr:postcode" v="78723"/></node><node id="-14" lat="30.31388" lon="-97.667001" changeset="false"><tag k="addr:street" v="Rockhurst Lane"/><tag k="addr:housenumber" v="3209"/><tag k="addr:postcode" v="78723"/></node><node id="-15" lat="30.312527" lon="-97.667" changeset="false"><tag k="addr:street" v="Kings Point"/><tag k="addr:housenumber" v="6804"/><tag k="addr:postcode" v="78723"/></node><node id="-16" lat="30.319235" lon="-97.666297" changeset="false"><tag k="addr:street" v="Vintage Hills Drive"/><tag k="addr:housenumber" v="7416"/><tag k="addr:postcode" v="78723"/></node><node id="-17" lat="30.318716" lon="-97.66637" changeset="false"><tag k="addr:street" v="Vintage Hills Cove"/><tag k="addr:housenumber" v="3302"/><tag k="addr:postcode" v="78723"/></node><node id="-18" lat="30.314855" lon="-97.667152" changeset="false"><tag k="addr:street" v="Dubuque Lane"/><tag k="addr:housenumber" v="6911"/><tag k="addr:postcode" v="78723"/></node><node id="-19" lat="30.318411" lon="-97.666094" changeset="false"><tag k="addr:street" v="Vintage Hills Cove"/><tag k="addr:housenumber" v="3301"/><tag k="addr:postcode" v="78723"/></node><node id="-20" lat="30.31522" lon="-97.666371" changeset="false"><tag k="addr:street" v="Susquehanna Lane"/><tag k="addr:housenumber" v="3206"/><tag k="addr:postcode" v="78723"/></node><node id="-21" lat="30.312608" lon="-97.668943" changeset="false"><tag k="addr:street" v="Tulane Drive"/><tag k="addr:housenumber" v="6708"/><tag k="addr:postcode" v="78723"/></node><node id="-22" lat="30.315207" lon="-97.666361" changeset="false"><tag k="addr:street" v="Susquehanna Lane"/><tag k="addr:housenumber" v="3208"/><tag k="addr:postcode" v="78723"/></node><node id="-23" lat="30.313332" lon="-97.669059" changeset="false"><tag k="addr:street" v="Wake Forest Lane"/><tag k="addr:housenumber" v="6808"/><tag k="addr:postcode" v="78723"/></node><node id="-24" lat="30.318423" lon="-97.6655" changeset="false"><tag k="addr:street" v="Vintage Hills Drive"/><tag k="addr:housenumber" v="7404"/><tag k="addr:postcode" v="78723"/></node><node id="-25" lat="30.319636" lon="-97.667067" changeset="false"><tag k="addr:street" v="Langston Drive"/><tag k="addr:housenumber" v="7401"/><tag k="addr:postcode" v="78723"/></node><node id="-26" lat="30.318879" lon="-97.666242" changeset="false"><tag k="addr:street" v="Vintage Hills Cove"/><tag k="addr:housenumber" v="3304"/><tag k="addr:postcode" v="78723"/></node><node id="-27" lat="30.318178" lon="-97.665624" changeset="false"><tag k="addr:street" v="Vintage Hills Drive"/><tag k="addr:housenumber" v="7402"/><tag k="addr:postcode" v="78723"/></node><node id="-28" lat="30.314799" lon="-97.670426" changeset="false"><tag k="addr:street" v="Bryn Mawr Drive"/><tag k="addr:housenumber" v="6802"/><tag k="addr:postcode" v="78723"/></node><node id="-29" lat="30.319724" lon="-97.666547" changeset="false"><tag k="addr:street" v="Vintage Hills Drive"/><tag k="addr:housenumber" v="7415"/><tag k="addr:postcode" v="78723"/></node><node id="-30" lat="30.315245" lon="-97.666391" changeset="false"><tag k="addr:street" v="Susquehanna Lane"/><tag k="addr:housenumber" v="3202"/><tag k="addr:postcode" v="78723"/></node><node id="-31" lat="30.317167" lon="-97.668192" changeset="false"><tag k="addr:street" v="Susquehanna Lane"/><tag k="addr:housenumber" v="3004"/><tag k="addr:postcode" v="78723"/></node><node id="-32" lat="30.316159" lon="-97.664135" changeset="false"><tag k="addr:street" v="Lynridge Drive"/><tag k="addr:housenumber" v="3412"/><tag k="addr:postcode" v="78723"/></node><node id="-33" lat="30.319565" lon="-97.666726" changeset="false"><tag k="addr:street" v="Vintage Hills Drive"/><tag k="addr:housenumber" v="7417"/><tag k="addr:postcode" v="78723"/></node><node id="-34" lat="30.318509" lon="-97.666321" changeset="false"><tag k="addr:street" v="Vintage Hills Cove"/><tag k="addr:housenumber" v="3300"/><tag k="addr:postcode" v="78723"/></node><node id="-35" lat="30.312626" lon="-97.665646" changeset="false"><tag k="addr:street" v="Manor Road"/><tag k="addr:housenumber" v="6706"/><tag k="addr:postcode" v="78723"/></node><node id="-36" lat="30.31271" lon="-97.66559" changeset="false"><tag k="addr:street" v="Manor Road"/><tag k="addr:housenumber" v="6906"/><tag k="addr:postcode" v="78723"/></node></osm>