<?xml version="1.0" encoding="UTF-8"?><osm version="0.6" generator="github.com/aaronlidman/osm-and-geojson"><node id="-1" lat="30.338164" lon="-97.756999" changeset="false"><tag k="addr:street" v="Balcones Drive"/><tag k="addr:housenumber" v="5718"/><tag k="coa:place_id" v="53313"/></node><node id="-2" lat="30.348967" lon="-97.759066" changeset="false"><tag k="addr:street" v="Highland Hills Drive"/><tag k="addr:housenumber" v="6102"/><tag k="coa:place_id" v="155456"/></node><node id="-3" lat="30.345499" lon="-97.759475" changeset="false"><tag k="addr:street" v="Hillbrook Drive"/><tag k="addr:housenumber" v="3601"/><tag k="coa:place_id" v="671721"/></node><node id="-4" lat="30.342418" lon="-97.755197" changeset="false"><tag k="addr:street" v="Overlook Drive"/><tag k="addr:housenumber" v="5911"/><tag k="coa:place_id" v="81200"/></node><node id="-5" lat="30.345963" lon="-97.764114" changeset="false"><tag k="addr:street" v="Mountainclimb Drive"/><tag k="addr:housenumber" v="6007"/><tag k="coa:place_id" v="153542"/></node><node id="-6" lat="30.344029" lon="-97.764667" changeset="false"><tag k="addr:street" v="Mountainclimb Drive"/><tag k="addr:housenumber" v="5909"/><tag k="coa:place_id" v="608931"/></node><node id="-7" lat="30.343691" lon="-97.761208" changeset="false"><tag k="addr:street" v="Highland Pass"/><tag k="addr:housenumber" v="5901"/><tag k="coa:place_id" v="1143247"/></node><node id="-8" lat="30.345295" lon="-97.756149" changeset="false"><tag k="addr:street" v="Westside Cove"/><tag k="addr:housenumber" v="3414"/><tag k="coa:place_id" v="405358"/></node><node id="-9" lat="30.347947" lon="-97.760855" changeset="false"><tag k="addr:street" v="Shadow Mountain Cove"/><tag k="addr:housenumber" v="6203"/><tag k="coa:place_id" v="461907"/></node><node id="-10" lat="30.349229" lon="-97.763619" changeset="false"><tag k="addr:street" v="Mountainclimb Drive"/><tag k="addr:housenumber" v="6301"/><tag k="coa:place_id" v="218807"/></node><node id="-11" lat="30.346129" lon="-97.754676" changeset="false"><tag k="addr:street" v="Hart Lane"/><tag k="addr:housenumber" v="6468"/><tag k="coa:place_id" v="484293"/></node><node id="-12" lat="30.347125" lon="-97.763778" changeset="false"><tag k="addr:street" v="Mountainclimb Drive"/><tag k="addr:housenumber" v="6105"/><tag k="coa:place_id" v="153566"/></node><node id="-13" lat="30.345071" lon="-97.756119" changeset="false"><tag k="addr:street" v="Westside Cove"/><tag k="addr:housenumber" v="3411"/><tag k="coa:place_id" v="334996"/></node><node id="-14" lat="30.342027" lon="-97.758598" changeset="false"><tag k="addr:street" v="Trailridge Drive"/><tag k="addr:housenumber" v="5816"/><tag k="coa:place_id" v="118304"/></node><node id="-15" lat="30.339767" lon="-97.757528" changeset="false"><tag k="addr:street" v="Highland Hills Circle"/><tag k="addr:housenumber" v="5709"/><tag k="coa:place_id" v="118436"/></node><node id="-16" lat="30.347853" lon="-97.760006" changeset="false"><tag k="addr:street" v="Laurel Ledge Lane"/><tag k="addr:housenumber" v="3508"/><tag k="coa:place_id" v="517653"/></node><node id="-17" lat="30.346949" lon="-97.762811" changeset="false"><tag k="addr:street" v="Highlandale Drive"/><tag k="addr:housenumber" v="6107"/><tag k="coa:place_id" v="997928"/></node><node id="-18" lat="30.347713" lon="-97.760285" changeset="false"><tag k="addr:street" v="Laurel Ledge Lane"/><tag k="addr:housenumber" v="3600"/><tag k="coa:place_id" v="122581"/></node><node id="-19" lat="30.348846" lon="-97.763588" changeset="false"><tag k="addr:street" v="Walnut Clay Drive"/><tag k="addr:housenumber" v="3811"/><tag k="coa:place_id" v="153596"/></node><node id="-20" lat="30.347639" lon="-97.756216" changeset="false"><tag k="addr:street" v="Hart Lane"/><tag k="addr:housenumber" v="6506"/><tag k="coa:place_id" v="3258944"/></node><node id="-21" lat="30.344997" lon="-97.758043" changeset="false"><tag k="addr:street" v="Tumbling Circle"/><tag k="addr:housenumber" v="5902"/><tag k="coa:place_id" v="155078"/></node><node id="-22" lat="30.344596" lon="-97.763956" changeset="false"><tag k="addr:street" v="Hillbrook Drive"/><tag k="addr:housenumber" v="3811"/><tag k="coa:place_id" v="154994"/></node><node id="-23" lat="30.345116" lon="-97.755052" changeset="false"><tag k="addr:street" v="Westside Drive"/><tag k="addr:housenumber" v="6400"/><tag k="coa:place_id" v="115684"/></node><node id="-24" lat="30.34349" lon="-97.760064" changeset="false"><tag k="addr:street" v="Highland Hills Drive"/><tag k="addr:housenumber" v="5904"/><tag k="coa:place_id" v="118712"/></node><node id="-25" lat="30.343706" lon="-97.756172" changeset="false"><tag k="addr:street" v="Westside Drive"/><tag k="addr:housenumber" v="6007"/><tag k="coa:place_id" v="143635"/></node><node id="-26" lat="30.344435" lon="-97.760497" changeset="false"><tag k="addr:street" v="Hillbrook Drive"/><tag k="addr:housenumber" v="3611"/><tag k="coa:place_id" v="3092160"/></node><node id="-27" lat="30.337742" lon="-97.757171" changeset="false"><tag k="addr:street" v="Northland Drive"/><tag k="addr:housenumber" v="3400"/><tag k="coa:place_id" v="117908"/></node><node id="-28" lat="30.347253" lon="-97.756192" changeset="false"><tag k="addr:street" v="Hart Lane"/><tag k="addr:housenumber" v="6498"/><tag k="coa:place_id" v="3258943"/></node><node id="-29" lat="30.344209" lon="-97.757705" changeset="false"><tag k="addr:street" v="Highland Hills Drive"/><tag k="addr:housenumber" v="5922"/><tag k="coa:place_id" v="118622"/></node><node id="-30" lat="30.344086" lon="-97.756085" changeset="false"><tag k="addr:street" v="Westside Drive"/><tag k="addr:housenumber" v="6002"/><tag k="coa:place_id" v="625276"/></node><node id="-31" lat="30.341843" lon="-97.758337" changeset="false"><tag k="addr:street" v="Trailridge Drive"/><tag k="addr:housenumber" v="5814"/><tag k="coa:place_id" v="118310"/></node><node id="-32" lat="30.338471" lon="-97.756571" changeset="false"><tag k="addr:street" v="Balcones Drive"/><tag k="addr:housenumber" v="5750"/><tag k="coa:place_id" v="582183"/></node><node id="-33" lat="30.349204" lon="-97.760466" changeset="false"><tag k="addr:street" v="Highland Hills Drive"/><tag k="addr:housenumber" v="6112"/><tag k="coa:place_id" v="155426"/></node><node id="-34" lat="30.343803" lon="-97.753168" changeset="false"><tag k="addr:street" v="Balcones Drive"/><tag k="addr:housenumber" v="6204"/><tag k="coa:place_id" v="225942"/></node><node id="-35" lat="30.345073" lon="-97.754701" changeset="false"><tag k="addr:street" v="Westside Drive"/><tag k="addr:housenumber" v="6413"/><tag k="coa:place_id" v="90111"/></node><node id="-36" lat="30.340101" lon="-97.756222" changeset="false"><tag k="addr:street" v="Trailridge Circle"/><tag k="addr:housenumber" v="5801"/><tag k="coa:place_id" v="118040"/></node><node id="-37" lat="30.346229" lon="-97.754855" changeset="false"><tag k="addr:street" v="Hart Lane"/><tag k="addr:housenumber" v="6470"/><tag k="coa:place_id" v="246049"/></node><node id="-38" lat="30.347183" lon="-97.756659" changeset="false"><tag k="addr:street" v="Wendel Cove"/><tag k="addr:housenumber" v="3510"/><tag k="coa:place_id" v="280150"/></node><node id="-39" lat="30.34906" lon="-97.762588" changeset="false"><tag k="addr:street" v="Laurel Ledge Lane"/><tag k="addr:housenumber" v="3804"/><tag k="coa:place_id" v="123252"/></node><node id="-40" lat="30.344832" lon="-97.754853" changeset="false"><tag k="addr:street" v="Westside Drive"/><tag k="addr:housenumber" v="6401"/><tag k="coa:place_id" v="265096"/></node><node id="-41" lat="30.343724" lon="-97.76483" changeset="false"><tag k="addr:street" v="Mountainclimb Drive"/><tag k="addr:housenumber" v="5901"/><tag k="coa:place_id" v="608997"/></node><node id="-42" lat="30.346464" lon="-97.755903" changeset="false"><tag k="addr:street" v="Hart Lane"/><tag k="addr:housenumber" v="6480"/><tag k="coa:place_id" v="447045"/></node><node id="-43" lat="30.350019" lon="-97.761027" changeset="false"><tag k="addr:street" v="Highland Hills Drive"/><tag k="addr:housenumber" v="6206"/><tag k="coa:place_id" v="153656"/></node><node id="-44" lat="30.340835" lon="-97.75908" changeset="false"><tag k="addr:street" v="Highland Hills Drive"/><tag k="addr:housenumber" v="5724"/><tag k="coa:place_id" v="118856"/></node><node id="-45" lat="30.346262" lon="-97.754917" changeset="false"><tag k="addr:street" v="Hart Lane"/><tag k="addr:housenumber" v="6472"/><tag k="coa:place_id" v="5078281"/></node><node id="-46" lat="30.35079" lon="-97.757673" changeset="false"><tag k="addr:street" v="Hart Lane"/><tag k="addr:housenumber" v="6716"/><tag k="coa:place_id" v="492453"/></node><node id="-47" lat="30.345488" lon="-97.755505" changeset="false"><tag k="addr:street" v="Westside Cove"/><tag k="addr:housenumber" v="3406"/><tag k="coa:place_id" v="152926"/></node><node id="-48" lat="30.350054" lon="-97.758288" changeset="false"><tag k="addr:street" v="Shadow Valley Drive"/><tag k="addr:housenumber" v="6201"/><tag k="coa:place_id" v="250541"/></node><node id="-49" lat="30.340562" lon="-97.756864" changeset="false"><tag k="addr:street" v="Trailridge Drive"/><tag k="addr:housenumber" v="5803"/><tag k="coa:place_id" v="118220"/></node><node id="-50" lat="30.340376" lon="-97.756663" changeset="false"><tag k="addr:street" v="Trailridge Circle"/><tag k="addr:housenumber" v="5802"/><tag k="coa:place_id" v="118100"/></node><node id="-51" lat="30.340362" lon="-97.759122" changeset="false"><tag k="addr:street" v="Highland Hills Drive"/><tag k="addr:housenumber" v="5720"/><tag k="coa:place_id" v="118868"/></node><node id="-52" lat="30.343421" lon="-97.753446" changeset="false"><tag k="addr:street" v="Balcones Drive"/><tag k="addr:housenumber" v="6200"/><tag k="coa:place_id" v="165108"/></node><node id="-53" lat="30.350876" lon="-97.75796" changeset="false"><tag k="addr:street" v="Hart Lane"/><tag k="addr:housenumber" v="6800"/><tag k="coa:place_id" v="246066"/></node><node id="-54" lat="30.344914" lon="-97.755824" changeset="false"><tag k="addr:street" v="Westside Cove"/><tag k="addr:housenumber" v="3407"/><tag k="coa:place_id" v="680853"/></node><node id="-55" lat="30.344734" lon="-97.755498" changeset="false"><tag k="addr:street" v="Westside Drive"/><tag k="addr:housenumber" v="6300"/><tag k="coa:place_id" v="801027"/></node><node id="-56" lat="30.337942" lon="-97.757423" changeset="false"><tag k="addr:street" v="Highland Hills Drive"/><tag k="addr:housenumber" v="5701"/><tag k="coa:place_id" v="3034202"/></node><node id="-57" lat="30.349636" lon="-97.756884" changeset="false"><tag k="addr:street" v="Hart Lane"/><tag k="addr:housenumber" v="6614"/><tag k="coa:place_id" v="447741"/></node><node id="-58" lat="30.348247" lon="-97.760043" changeset="false"><tag k="addr:street" v="Shadow Mountain Drive"/><tag k="addr:housenumber" v="6106"/><tag k="coa:place_id" v="155468"/></node><node id="-59" lat="30.345181" lon="-97.755166" changeset="false"><tag k="addr:street" v="Westside Cove"/><tag k="addr:housenumber" v="3400"/><tag k="coa:place_id" v="3029796"/></node><node id="-60" lat="30.345216" lon="-97.755251" changeset="false"><tag k="addr:street" v="Westside Cove"/><tag k="addr:housenumber" v="3402"/><tag k="coa:place_id" v="115690"/></node><node id="-61" lat="30.34513" lon="-97.754407" changeset="false"><tag k="addr:street" v="Westside Drive"/><tag k="addr:housenumber" v="6417"/><tag k="coa:place_id" v="539000"/></node><node id="-62" lat="30.345091" lon="-97.754503" changeset="false"><tag k="addr:street" v="Westside Drive"/><tag k="addr:housenumber" v="6415"/><tag k="coa:place_id" v="539006"/></node><node id="-63" lat="30.345374" lon="-97.754213" changeset="false"><tag k="addr:street" v="Westside Drive"/><tag k="addr:housenumber" v="6423"/><tag k="coa:place_id" v="109807"/></node><node id="-64" lat="30.34526" lon="-97.754303" changeset="false"><tag k="addr:street" v="Westside Drive"/><tag k="addr:housenumber" v="6419"/><tag k="coa:place_id" v="538988"/></node><node id="-65" lat="30.345314" lon="-97.754263" changeset="false"><tag k="addr:street" v="Westside Drive"/><tag k="addr:housenumber" v="6421"/><tag k="coa:place_id" v="538982"/></node><node id="-66" lat="30.345445" lon="-97.754183" changeset="false"><tag k="addr:street" v="Westside Drive"/><tag k="addr:housenumber" v="6425"/><tag k="coa:place_id" v="538976"/></node><node id="-67" lat="30.345504" lon="-97.755872" changeset="false"><tag k="addr:street" v="Westside Cove"/><tag k="addr:housenumber" v="3410"/><tag k="coa:place_id" v="680865"/></node><node id="-68" lat="30.345514" lon="-97.755723" changeset="false"><tag k="addr:street" v="Westside Cove"/><tag k="addr:housenumber" v="3408"/><tag k="coa:place_id" v="680709"/></node><node id="-69" lat="30.345639" lon="-97.754005" changeset="false"><tag k="addr:street" v="Hart Lane"/><tag k="addr:housenumber" v="6456"/><tag k="coa:place_id" v="538958"/></node><node id="-70" lat="30.345682" lon="-97.754061" changeset="false"><tag k="addr:street" v="Hart Lane"/><tag k="addr:housenumber" v="6458"/><tag k="coa:place_id" v="538964"/></node><node id="-71" lat="30.345619" lon="-97.753931" changeset="false"><tag k="addr:street" v="Hart Lane"/><tag k="addr:housenumber" v="6454"/><tag k="coa:place_id" v="538952"/></node><node id="-72" lat="30.345719" lon="-97.754138" changeset="false"><tag k="addr:street" v="Hart Lane"/><tag k="addr:housenumber" v="6460"/><tag k="coa:place_id" v="538970"/></node><node id="-73" lat="30.344583" lon="-97.755503" changeset="false"><tag k="addr:street" v="Westside Drive"/><tag k="addr:housenumber" v="6206"/><tag k="coa:place_id" v="801753"/></node><node id="-74" lat="30.34462" lon="-97.755579" changeset="false"><tag k="addr:street" v="Westside Drive"/><tag k="addr:housenumber" v="6204"/><tag k="coa:place_id" v="812913"/></node><node id="-75" lat="30.346635" lon="-97.75619" changeset="false"><tag k="addr:street" v="Hart Lane"/><tag k="addr:housenumber" v="6486"/><tag k="coa:place_id" v="486915"/></node><node id="-76" lat="30.346589" lon="-97.756091" changeset="false"><tag k="addr:street" v="Hart Lane"/><tag k="addr:housenumber" v="6484"/><tag k="coa:place_id" v="447057"/></node><node id="-77" lat="30.346734" lon="-97.756173" changeset="false"><tag k="addr:street" v="Hart Lane"/><tag k="addr:housenumber" v="6488"/><tag k="coa:place_id" v="447069"/></node><node id="-78" lat="30.346814" lon="-97.756205" changeset="false"><tag k="addr:street" v="Hart Lane"/><tag k="addr:housenumber" v="6490"/><tag k="coa:place_id" v="447075"/></node><node id="-79" lat="30.346984" lon="-97.756287" changeset="false"><tag k="addr:street" v="Hart Lane"/><tag k="addr:housenumber" v="6494"/><tag k="coa:place_id" v="447087"/></node><node id="-80" lat="30.346904" lon="-97.756264" changeset="false"><tag k="addr:street" v="Hart Lane"/><tag k="addr:housenumber" v="6492"/><tag k="coa:place_id" v="447081"/></node><node id="-81" lat="30.34507" lon="-97.757107" changeset="false"><tag k="addr:street" v="Highland Hills Drive"/><tag k="addr:housenumber" v="5936"/><tag k="coa:place_id" v="180173"/></node><node id="-82" lat="30.345016" lon="-97.757071" changeset="false"><tag k="addr:street" v="Highland Hills Drive"/><tag k="addr:housenumber" v="5932"/><tag k="coa:place_id" v="155108"/></node><node id="-83" lat="30.348232" lon="-97.759437" changeset="false"><tag k="addr:street" v="Shadow Mountain Drive"/><tag k="addr:housenumber" v="6102"/><tag k="coa:place_id" v="921464"/></node><node id="-84" lat="30.348229" lon="-97.759719" changeset="false"><tag k="addr:street" v="Shadow Mountain Drive"/><tag k="addr:housenumber" v="6104"/><tag k="coa:place_id" v="246231"/></node><node id="-85" lat="30.344415" lon="-97.76463" changeset="false"><tag k="addr:street" v="Mountainclimb Drive"/><tag k="addr:housenumber" v="5915"/><tag k="coa:place_id" v="615705"/></node><node id="-86" lat="30.344521" lon="-97.7646" changeset="false"><tag k="addr:street" v="Mountainclimb Drive"/><tag k="addr:housenumber" v="5917"/><tag k="coa:place_id" v="581451"/></node><node id="-87" lat="30.343827" lon="-97.764779" changeset="false"><tag k="addr:street" v="Mountainclimb Drive"/><tag k="addr:housenumber" v="5903"/><tag k="coa:place_id" v="608913"/></node><node id="-88" lat="30.34393" lon="-97.764728" changeset="false"><tag k="addr:street" v="Mountainclimb Drive"/><tag k="addr:housenumber" v="5905"/><tag k="coa:place_id" v="608919"/></node><node id="-89" lat="30.343967" lon="-97.764718" changeset="false"><tag k="addr:street" v="Mountainclimb Drive"/><tag k="addr:housenumber" v="5907"/><tag k="coa:place_id" v="608925"/></node><node id="-90" lat="30.343746" lon="-97.764754" changeset="false"><tag k="addr:street" v="Dry Creek Drive"/><tag k="addr:housenumber" v="3836"/><tag k="coa:place_id" v="608985"/></node><node id="-91" lat="30.344176" lon="-97.764634" changeset="false"><tag k="addr:street" v="Mountainclimb Drive"/><tag k="addr:housenumber" v="5911"/><tag k="coa:place_id" v="608937"/></node><node id="-92" lat="30.34425" lon="-97.76463" changeset="false"><tag k="addr:street" v="Mountainclimb Drive"/><tag k="addr:housenumber" v="5913"/><tag k="coa:place_id" v="608943"/></node><node id="-93" lat="30.343653" lon="-97.764441" changeset="false"><tag k="addr:street" v="Dry Creek Drive"/><tag k="addr:housenumber" v="3832"/><tag k="coa:place_id" v="608973"/></node><node id="-94" lat="30.34367" lon="-97.764528" changeset="false"><tag k="addr:street" v="Dry Creek Drive"/><tag k="addr:housenumber" v="3834"/><tag k="coa:place_id" v="608979"/></node><node id="-95" lat="30.343474" lon="-97.764074" changeset="false"><tag k="addr:street" v="Dry Creek Drive"/><tag k="addr:housenumber" v="3822"/><tag k="coa:place_id" v="638739"/></node><node id="-96" lat="30.343498" lon="-97.764122" changeset="false"><tag k="addr:street" v="Dry Creek Drive"/><tag k="addr:housenumber" v="3824"/><tag k="coa:place_id" v="608949"/></node><node id="-97" lat="30.343546" lon="-97.764218" changeset="false"><tag k="addr:street" v="Dry Creek Drive"/><tag k="addr:housenumber" v="3828"/><tag k="coa:place_id" v="608961"/></node><node id="-98" lat="30.343511" lon="-97.764151" changeset="false"><tag k="addr:street" v="Dry Creek Drive"/><tag k="addr:housenumber" v="3826"/><tag k="coa:place_id" v="608955"/></node><node id="-99" lat="30.343623" lon="-97.764376" changeset="false"><tag k="addr:street" v="Dry Creek Drive"/><tag k="addr:housenumber" v="3830"/><tag k="coa:place_id" v="608967"/></node></osm>