<?xml version="1.0" encoding="UTF-8"?><osm version="0.6" generator="github.com/aaronlidman/osm-and-geojson"><node id="-1" lat="30.323509" lon="-97.476579" changeset="false"><tag k="addr:street" v="Jones Road"/><tag k="addr:housenumber" v="12031"/></node><node id="-2" lat="30.320736" lon="-97.529757" changeset="false"><tag k="addr:street" v="Great Falls Drive"/><tag k="addr:housenumber" v="18205"/></node><node id="-3" lat="30.322462" lon="-97.479663" changeset="false"><tag k="addr:street" v="Jones Road"/><tag k="addr:housenumber" v="11912"/></node><node id="-4" lat="30.324831" lon="-97.529218" changeset="false"><tag k="addr:street" v="Great Valley Drive"/><tag k="addr:housenumber" v="18208"/></node><node id="-5" lat="30.319373" lon="-97.529682" changeset="false"><tag k="addr:street" v="Briarcreek Loop"/><tag k="addr:housenumber" v="13309"/></node><node id="-6" lat="30.324218" lon="-97.529966" changeset="false"><tag k="addr:street" v="Briarcreek Loop"/><tag k="addr:housenumber" v="12805"/></node><node id="-7" lat="30.313523" lon="-97.537016" changeset="false"><tag k="addr:street" v="Briarcreek Loop"/><tag k="addr:housenumber" v="11309"/></node><node id="-8" lat="30.322233" lon="-97.528554" changeset="false"><tag k="addr:street" v="Briarcreek Loop"/><tag k="addr:housenumber" v="13112"/></node><node id="-9" lat="30.284436" lon="-97.450346" changeset="false"><tag k="addr:street" v="Alicia Drive"/><tag k="addr:housenumber" v="23207"/></node><node id="-10" lat="30.289523" lon="-97.448945" changeset="false"><tag k="addr:street" v="Ingram Drive"/><tag k="addr:housenumber" v="23306"/></node><node id="-11" lat="30.31261" lon="-97.531645" changeset="false"><tag k="addr:street" v="Briarcreek Loop"/><tag k="addr:housenumber" v="13905"/></node><node id="-12" lat="30.315026" lon="-97.535221" changeset="false"><tag k="addr:street" v="Hungry Horse Drive"/><tag k="addr:housenumber" v="11509"/></node><node id="-13" lat="30.314699" lon="-97.530811" changeset="false"><tag k="addr:street" v="Briarcreek Loop"/><tag k="addr:housenumber" v="13625"/></node><node id="-14" lat="30.314721" lon="-97.534312" changeset="false"><tag k="addr:street" v="Cutback Drive"/><tag k="addr:housenumber" v="17924"/></node><node id="-15" lat="30.314737" lon="-97.535638" changeset="false"><tag k="addr:street" v="Hungry Horse Drive"/><tag k="addr:housenumber" v="11500"/></node><node id="-16" lat="30.314485" lon="-97.535641" changeset="false"><tag k="addr:street" v="Hungry Horse Drive"/><tag k="addr:housenumber" v="11420"/></node><node id="-17" lat="30.314125" lon="-97.535694" changeset="false"><tag k="addr:street" v="Hungry Horse Drive"/><tag k="addr:housenumber" v="11408"/></node><node id="-18" lat="30.31625" lon="-97.536625" changeset="false"><tag k="addr:street" v="Briarcreek Loop"/><tag k="addr:housenumber" v="11608"/></node><node id="-19" lat="30.315862" lon="-97.529318" changeset="false"><tag k="addr:street" v="Briarcreek Loop"/><tag k="addr:housenumber" v="13508"/></node><node id="-20" lat="30.315592" lon="-97.535606" changeset="false"><tag k="addr:street" v="Hungry Horse Drive"/><tag k="addr:housenumber" v="11524"/></node><node id="-21" lat="30.293453" lon="-97.463504" changeset="false"><tag k="addr:street" v="Bitting School Road"/><tag k="addr:housenumber" v="10010"/></node><node id="-22" lat="30.317873" lon="-97.536314" changeset="false"><tag k="addr:street" v="Lima Drive"/><tag k="addr:housenumber" v="12108"/></node><node id="-23" lat="30.324238" lon="-97.529813" changeset="false"><tag k="addr:street" v="Briarcreek Loop"/><tag k="addr:housenumber" v="12809"/></node><node id="-24" lat="30.319083" lon="-97.532604" changeset="false"><tag k="addr:street" v="Powder Creek Drive"/><tag k="addr:housenumber" v="17928"/></node><node id="-25" lat="30.316126" lon="-97.529857" changeset="false"><tag k="addr:street" v="Briarcreek Loop"/><tag k="addr:housenumber" v="13509"/></node><node id="-26" lat="30.323376" lon="-97.532752" changeset="false"><tag k="addr:street" v="Briarcreek Loop"/><tag k="addr:housenumber" v="12512"/></node><node id="-27" lat="30.321684" lon="-97.529155" changeset="false"><tag k="addr:street" v="Briarcreek Loop"/><tag k="addr:housenumber" v="13129"/></node><node id="-28" lat="30.326449" lon="-97.488582" changeset="false"><tag k="addr:street" v="Littig Road"/><tag k="addr:housenumber" v="15611"/></node><node id="-29" lat="30.301742" lon="-97.491709" changeset="false"><tag k="addr:street" v="Jones Road"/><tag k="addr:housenumber" v="10408"/></node><node id="-30" lat="30.313029" lon="-97.536096" changeset="false"><tag k="addr:street" v="Hungry Horse Drive"/><tag k="addr:housenumber" v="11309"/></node><node id="-31" lat="30.314744" lon="-97.53614" changeset="false"><tag k="addr:street" v="Briarcreek Loop"/><tag k="addr:housenumber" v="11417"/></node><node id="-32" lat="30.288875" lon="-97.450084" changeset="false"><tag k="addr:street" v="Morin Drive"/><tag k="addr:housenumber" v="9505"/></node><node id="-33" lat="30.287951" lon="-97.451044" changeset="false"><tag k="addr:street" v="Morin Drive"/><tag k="addr:housenumber" v="9406"/></node><node id="-34" lat="30.291414" lon="-97.463832" changeset="false"><tag k="addr:street" v="Hog Eye Road"/><tag k="addr:housenumber" v="22400"/></node><node id="-35" lat="30.314452" lon="-97.537638" changeset="false"><tag k="addr:street" v="Melstone Drive"/><tag k="addr:housenumber" v="11500"/></node><node id="-36" lat="30.318844" lon="-97.535106" changeset="false"><tag k="addr:street" v="Briarcreek Loop"/><tag k="addr:housenumber" v="11920"/></node><node id="-37" lat="30.316387" lon="-97.536621" changeset="false"><tag k="addr:street" v="Briarcreek Loop"/><tag k="addr:housenumber" v="11612"/></node><node id="-38" lat="30.317221" lon="-97.535817" changeset="false"><tag k="addr:street" v="Briarcreek Loop"/><tag k="addr:housenumber" v="11713"/></node><node id="-39" lat="30.316852" lon="-97.536554" changeset="false"><tag k="addr:street" v="Briarcreek Loop"/><tag k="addr:housenumber" v="11700"/></node><node id="-40" lat="30.316663" lon="-97.528817" changeset="false"><tag k="addr:street" v="Briarcreek Loop"/><tag k="addr:housenumber" v="13428"/></node><node id="-41" lat="30.309227" lon="-97.534599" changeset="false"><tag k="addr:street" v="Briarcreek Loop"/><tag k="addr:housenumber" v="14304"/></node><node id="-42" lat="30.315983" lon="-97.537111" changeset="false"><tag k="addr:street" v="Melstone Drive"/><tag k="addr:housenumber" v="11601"/></node><node id="-43" lat="30.315753" lon="-97.529408" changeset="false"><tag k="addr:street" v="Briarcreek Loop"/><tag k="addr:housenumber" v="13512"/></node><node id="-44" lat="30.315628" lon="-97.529482" changeset="false"><tag k="addr:street" v="Briarcreek Loop"/><tag k="addr:housenumber" v="13516"/></node><node id="-45" lat="30.315653" lon="-97.534438" changeset="false"><tag k="addr:street" v="Cutback Drive"/><tag k="addr:housenumber" v="17900"/></node><node id="-46" lat="30.312956" lon="-97.536538" changeset="false"><tag k="addr:street" v="Hungry Horse Drive"/><tag k="addr:housenumber" v="11300"/></node><node id="-47" lat="30.315508" lon="-97.53435" changeset="false"><tag k="addr:street" v="Cutback Drive"/><tag k="addr:housenumber" v="17904"/></node><node id="-48" lat="30.31539" lon="-97.529646" changeset="false"><tag k="addr:street" v="Briarcreek Loop"/><tag k="addr:housenumber" v="13524"/></node><node id="-49" lat="30.283518" lon="-97.45121" changeset="false"><tag k="addr:street" v="Hog Eye Road"/><tag k="addr:housenumber" v="23106"/></node><node id="-50" lat="30.283498" lon="-97.451806" changeset="false"><tag k="addr:street" v="Hog Eye Road"/><tag k="addr:housenumber" v="23100"/></node><node id="-51" lat="30.316527" lon="-97.530692" changeset="false"><tag k="addr:street" v="Belfry Pass"/><tag k="addr:housenumber" v="18216"/></node><node id="-52" lat="30.286887" lon="-97.450579" changeset="false"><tag k="addr:street" v="Morin Drive"/><tag k="addr:housenumber" v="9401"/></node><node id="-53" lat="30.315135" lon="-97.531526" changeset="false"><tag k="addr:street" v="Belfry Pass"/><tag k="addr:housenumber" v="18100"/></node><node id="-54" lat="30.315367" lon="-97.531396" changeset="false"><tag k="addr:street" v="Belfry Pass"/><tag k="addr:housenumber" v="18108"/></node><node id="-55" lat="30.315697" lon="-97.5306" changeset="false"><tag k="addr:street" v="Belfry Pass"/><tag k="addr:housenumber" v="18125"/></node><node id="-56" lat="30.321313" lon="-97.526347" changeset="false"><tag k="addr:street" v="Great Falls Drive"/><tag k="addr:housenumber" v="18420"/></node><node id="-57" lat="30.315581" lon="-97.530674" changeset="false"><tag k="addr:street" v="Belfry Pass"/><tag k="addr:housenumber" v="18121"/></node><node id="-58" lat="30.321618" lon="-97.479087" changeset="false"><tag k="addr:street" v="Jones Road"/><tag k="addr:housenumber" v="11900"/></node><node id="-59" lat="30.317332" lon="-97.533878" changeset="false"><tag k="addr:street" v="Golden Valley Drive"/><tag k="addr:housenumber" v="17741"/></node><node id="-60" lat="30.317709" lon="-97.526976" changeset="false"><tag k="addr:street" v="Great Falls Drive"/><tag k="addr:housenumber" v="18720"/></node><node id="-61" lat="30.317538" lon="-97.535205" changeset="false"><tag k="addr:street" v="Golden Valley Drive"/><tag k="addr:housenumber" v="17709"/></node><node id="-62" lat="30.317492" lon="-97.535042" changeset="false"><tag k="addr:street" v="Golden Valley Drive"/><tag k="addr:housenumber" v="17713"/></node><node id="-63" lat="30.317078" lon="-97.530242" changeset="false"><tag k="addr:street" v="Belfry Pass"/><tag k="addr:housenumber" v="18300"/></node><node id="-64" lat="30.31995" lon="-97.525709" changeset="false"><tag k="addr:street" v="Great Falls Drive"/><tag k="addr:housenumber" v="18513"/></node><node id="-65" lat="30.31982" lon="-97.525158" changeset="false"><tag k="addr:street" v="Great Falls Drive"/><tag k="addr:housenumber" v="18512"/></node><node id="-66" lat="30.317531" lon="-97.529348" changeset="false"><tag k="addr:street" v="Belfry Pass"/><tag k="addr:housenumber" v="18321"/></node><node id="-67" lat="30.314908" lon="-97.529449" changeset="false"><tag k="addr:street" v="Great Falls Drive"/><tag k="addr:housenumber" v="19037"/></node><node id="-68" lat="30.315437" lon="-97.528581" changeset="false"><tag k="addr:street" v="Great Falls Drive"/><tag k="addr:housenumber" v="19012"/></node><node id="-69" lat="30.314952" lon="-97.528855" changeset="false"><tag k="addr:street" v="Great Falls Drive"/><tag k="addr:housenumber" v="19028"/></node><node id="-70" lat="30.314832" lon="-97.528929" changeset="false"><tag k="addr:street" v="Great Falls Drive"/><tag k="addr:housenumber" v="19032"/></node><node id="-71" lat="30.313883" lon="-97.530049" changeset="false"><tag k="addr:street" v="Great Falls Drive"/><tag k="addr:housenumber" v="19129"/></node><node id="-72" lat="30.312317" lon="-97.533198" changeset="false"><tag k="addr:street" v="Flat Head Drive"/><tag k="addr:housenumber" v="18209"/></node><node id="-73" lat="30.312869" lon="-97.537095" changeset="false"><tag k="addr:street" v="Blake Manor Road"/><tag k="addr:housenumber" v="17724"/></node><node id="-74" lat="30.322491" lon="-97.532744" changeset="false"><tag k="addr:street" v="Briarcreek Loop"/><tag k="addr:housenumber" v="12421"/></node><node id="-75" lat="30.319142" lon="-97.534748" changeset="false"><tag k="addr:street" v="Briarcreek Loop"/><tag k="addr:housenumber" v="12004"/></node><node id="-76" lat="30.319041" lon="-97.534865" changeset="false"><tag k="addr:street" v="Briarcreek Loop"/><tag k="addr:housenumber" v="12000"/></node><node id="-77" lat="30.312891" lon="-97.530644" changeset="false"><tag k="addr:street" v="Briarcreek Loop"/><tag k="addr:housenumber" v="13812"/></node><node id="-78" lat="30.314912" lon="-97.52995" changeset="false"><tag k="addr:street" v="Briarcreek Loop"/><tag k="addr:housenumber" v="13608"/></node><node id="-79" lat="30.314431" lon="-97.537424" changeset="false"><tag k="addr:street" v="Melstone Drive"/><tag k="addr:housenumber" v="11501"/></node><node id="-80" lat="30.314257" lon="-97.535224" changeset="false"><tag k="addr:street" v="Hungry Horse Drive"/><tag k="addr:housenumber" v="11417"/></node><node id="-81" lat="30.314058" lon="-97.536376" changeset="false"><tag k="addr:street" v="Briarcreek Loop"/><tag k="addr:housenumber" v="11329"/></node><node id="-82" lat="30.313927" lon="-97.536466" changeset="false"><tag k="addr:street" v="Briarcreek Loop"/><tag k="addr:housenumber" v="11325"/></node><node id="-83" lat="30.324816" lon="-97.527999" changeset="false"><tag k="addr:street" v="Great Valley Drive"/><tag k="addr:housenumber" v="18304"/></node><node id="-84" lat="30.324602" lon="-97.527785" changeset="false"><tag k="addr:street" v="Great Valley Drive"/><tag k="addr:housenumber" v="18312"/></node><node id="-85" lat="30.324498" lon="-97.527681" changeset="false"><tag k="addr:street" v="Great Valley Drive"/><tag k="addr:housenumber" v="18316"/></node><node id="-86" lat="30.324541" lon="-97.530562" changeset="false"><tag k="addr:street" v="Briarcreek Loop"/><tag k="addr:housenumber" v="12724"/></node><node id="-87" lat="30.324342" lon="-97.528887" changeset="false"><tag k="addr:street" v="Briarcreek Loop"/><tag k="addr:housenumber" v="12904"/></node><node id="-88" lat="30.324015" lon="-97.532083" changeset="false"><tag k="addr:street" v="Briarcreek Loop"/><tag k="addr:housenumber" v="12604"/></node><node id="-89" lat="30.32017" lon="-97.528673" changeset="false"><tag k="addr:street" v="Briarcreek Loop"/><tag k="addr:housenumber" v="13216"/></node><node id="-90" lat="30.318749" lon="-97.534368" changeset="false"><tag k="addr:street" v="Briarcreek Loop"/><tag k="addr:housenumber" v="12005"/></node><node id="-91" lat="30.318238" lon="-97.537048" changeset="false"><tag k="addr:street" v="Lima Drive"/><tag k="addr:housenumber" v="12020"/></node><node id="-92" lat="30.311469" lon="-97.533775" changeset="false"><tag k="addr:street" v="Briarcreek Loop"/><tag k="addr:housenumber" v="14105"/></node><node id="-93" lat="30.311345" lon="-97.533854" changeset="false"><tag k="addr:street" v="Briarcreek Loop"/><tag k="addr:housenumber" v="14109"/></node><node id="-94" lat="30.311218" lon="-97.533236" changeset="false"><tag k="addr:street" v="Briarcreek Loop"/><tag k="addr:housenumber" v="14104"/></node><node id="-95" lat="30.287482" lon="-97.451501" changeset="false"><tag k="addr:street" v="Morin Drive"/><tag k="addr:housenumber" v="9400"/></node><node id="-96" lat="30.317932" lon="-97.536448" changeset="false"><tag k="addr:street" v="Lima Drive"/><tag k="addr:housenumber" v="12104"/></node><node id="-97" lat="30.317454" lon="-97.537932" changeset="false"><tag k="addr:street" v="Lima Drive"/><tag k="addr:housenumber" v="11911"/></node><node id="-98" lat="30.285241" lon="-97.450659" changeset="false"><tag k="addr:street" v="Alicia Drive"/><tag k="addr:housenumber" v="23201"/></node><node id="-99" lat="30.289219" lon="-97.448623" changeset="false"><tag k="addr:street" v="Ingram Drive"/><tag k="addr:housenumber" v="23312"/></node><node id="-100" lat="30.288356" lon="-97.450234" changeset="false"><tag k="addr:street" v="Morin Drive"/><tag k="addr:housenumber" v="9415"/></node><node id="-101" lat="30.323144" lon="-97.528693" changeset="false"><tag k="addr:street" v="Briarcreek Loop"/><tag k="addr:housenumber" v="13017"/></node><node id="-102" lat="30.317322" lon="-97.535743" changeset="false"><tag k="addr:street" v="Briarcreek Loop"/><tag k="addr:housenumber" v="11717"/></node><node id="-103" lat="30.312754" lon="-97.530706" changeset="false"><tag k="addr:street" v="Briarcreek Loop"/><tag k="addr:housenumber" v="13816"/></node><node id="-104" lat="30.321401" lon="-97.533285" changeset="false"><tag k="addr:street" v="Briarcreek Loop"/><tag k="addr:housenumber" v="12309"/></node><node id="-105" lat="30.322391" lon="-97.528528" changeset="false"><tag k="addr:street" v="Briarcreek Loop"/><tag k="addr:housenumber" v="13108"/></node><node id="-106" lat="30.321812" lon="-97.528587" changeset="false"><tag k="addr:street" v="Briarcreek Loop"/><tag k="addr:housenumber" v="13124"/></node><node id="-107" lat="30.315877" lon="-97.534844" changeset="false"><tag k="addr:street" v="Cutback Drive"/><tag k="addr:housenumber" v="17812"/></node><node id="-108" lat="30.315763" lon="-97.530094" changeset="false"><tag k="addr:street" v="Briarcreek Loop"/><tag k="addr:housenumber" v="13521"/></node><node id="-109" lat="30.315872" lon="-97.530004" changeset="false"><tag k="addr:street" v="Briarcreek Loop"/><tag k="addr:housenumber" v="13517"/></node><node id="-110" lat="30.315938" lon="-97.535794" changeset="false"><tag k="addr:street" v="Cutback Drive"/><tag k="addr:housenumber" v="17708"/></node><node id="-111" lat="30.320196" lon="-97.529329" changeset="false"><tag k="addr:street" v="Briarcreek Loop"/><tag k="addr:housenumber" v="13217"/></node><node id="-112" lat="30.306576" lon="-97.470272" changeset="false"><tag k="addr:street" v="Hibbs Lane"/><tag k="addr:housenumber" v="10901"/></node><node id="-113" lat="30.314788" lon="-97.530018" changeset="false"><tag k="addr:street" v="Briarcreek Loop"/><tag k="addr:housenumber" v="13612"/></node><node id="-114" lat="30.314738" lon="-97.535237" changeset="false"><tag k="addr:street" v="Hungry Horse Drive"/><tag k="addr:housenumber" v="11501"/></node><node id="-115" lat="30.315433" lon="-97.446006" changeset="false"><tag k="addr:street" v="Bitting School Road"/><tag k="addr:housenumber" v="11503"/></node><node id="-116" lat="30.320503" lon="-97.529203" changeset="false"><tag k="addr:street" v="Briarcreek Loop"/><tag k="addr:housenumber" v="13209"/></node><node id="-117" lat="30.310595" lon="-97.534396" changeset="false"><tag k="addr:street" v="Briarcreek Loop"/><tag k="addr:housenumber" v="14201"/></node><node id="-118" lat="30.319298" lon="-97.529059" changeset="false"><tag k="addr:street" v="Briarcreek Loop"/><tag k="addr:housenumber" v="13308"/></node><node id="-119" lat="30.287064" lon="-97.451606" changeset="false"><tag k="addr:street" v="Morin Drive"/><tag k="addr:housenumber" v="9316"/></node><node id="-120" lat="30.296377" lon="-97.474825" changeset="false"><tag k="addr:street" v="Hog Eye Road"/><tag k="addr:housenumber" v="21700"/></node><node id="-121" lat="30.31434" lon="-97.536891" changeset="false"><tag k="addr:street" v="Briarcreek Loop"/><tag k="addr:housenumber" v="11320"/></node><node id="-122" lat="30.313877" lon="-97.531155" changeset="false"><tag k="addr:street" v="Briarcreek Loop"/><tag k="addr:housenumber" v="13709"/></node><node id="-123" lat="30.3164" lon="-97.530766" changeset="false"><tag k="addr:street" v="Belfry Pass"/><tag k="addr:housenumber" v="18212"/></node><node id="-124" lat="30.316654" lon="-97.530611" changeset="false"><tag k="addr:street" v="Belfry Pass"/><tag k="addr:housenumber" v="18220"/></node><node id="-125" lat="30.322522" lon="-97.531974" changeset="false"><tag k="addr:street" v="Powder Creek Drive"/><tag k="addr:housenumber" v="17616"/></node><node id="-126" lat="30.30196" lon="-97.494104" changeset="false"><tag k="addr:street" v="Lockwood Road,1100"/><tag k="addr:housenumber" v="20420"/></node><node id="-127" lat="30.32208" lon="-97.524576" changeset="false"><tag k="addr:street" v="Big Sky Drive"/><tag k="addr:housenumber" v="11917"/></node><node id="-128" lat="30.318751" lon="-97.526421" changeset="false"><tag k="addr:street" v="Great Falls Drive"/><tag k="addr:housenumber" v="18609"/></node><node id="-129" lat="30.319277" lon="-97.451037" changeset="false"><tag k="addr:street" v="Littig Road"/><tag k="addr:housenumber" v="18101"/></node><node id="-130" lat="30.317435" lon="-97.527156" changeset="false"><tag k="addr:street" v="Great Falls Drive"/><tag k="addr:housenumber" v="18800"/></node><node id="-131" lat="30.318056" lon="-97.526383" changeset="false"><tag k="addr:street" v="Great Falls Drive"/><tag k="addr:housenumber" v="18624"/></node><node id="-132" lat="30.317418" lon="-97.534698" changeset="false"><tag k="addr:street" v="Golden Valley Drive"/><tag k="addr:housenumber" v="17721"/></node><node id="-133" lat="30.317292" lon="-97.533405" changeset="false"><tag k="addr:street" v="Golden Valley Drive"/><tag k="addr:housenumber" v="17809"/></node><node id="-134" lat="30.317271" lon="-97.533222" changeset="false"><tag k="addr:street" v="Golden Valley Drive"/><tag k="addr:housenumber" v="17813"/></node><node id="-135" lat="30.320729" lon="-97.52808" changeset="false"><tag k="addr:street" v="Great Falls Drive"/><tag k="addr:housenumber" v="18317"/></node><node id="-136" lat="30.313394" lon="-97.537322" changeset="false"><tag k="addr:street" v="Briarcreek Loop"/><tag k="addr:housenumber" v="11301"/></node><node id="-137" lat="30.315002" lon="-97.531588" changeset="false"><tag k="addr:street" v="Belfry Pass"/><tag k="addr:housenumber" v="18028"/></node><node id="-138" lat="30.320656" lon="-97.524733" changeset="false"><tag k="addr:street" v="Big Sky Drive"/><tag k="addr:housenumber" v="11813"/></node><node id="-139" lat="30.309634" lon="-97.485822" changeset="false"><tag k="addr:street" v="Jones Road"/><tag k="addr:housenumber" v="11127"/></node><node id="-140" lat="30.318378" lon="-97.528835" changeset="false"><tag k="addr:street" v="Briarcreek Loop"/><tag k="addr:housenumber" v="13328"/></node><node id="-141" lat="30.328046" lon="-97.537035" changeset="false"><tag k="addr:street" v="Blake Manor Road"/><tag k="addr:housenumber" v="17334"/></node><node id="-142" lat="30.317256" lon="-97.527956" changeset="false"><tag k="addr:street" v="Great Falls Drive"/><tag k="addr:housenumber" v="18817"/></node><node id="-143" lat="30.316343" lon="-97.527997" changeset="false"><tag k="addr:street" v="Great Falls Drive"/><tag k="addr:housenumber" v="18912"/></node><node id="-144" lat="30.315509" lon="-97.529059" changeset="false"><tag k="addr:street" v="Great Falls Drive"/><tag k="addr:housenumber" v="19017"/></node><node id="-145" lat="30.315143" lon="-97.529279" changeset="false"><tag k="addr:street" v="Great Falls Drive"/><tag k="addr:housenumber" v="19029"/></node><node id="-146" lat="30.315669" lon="-97.528427" changeset="false"><tag k="addr:street" v="Great Falls Drive"/><tag k="addr:housenumber" v="19004"/></node><node id="-147" lat="30.315554" lon="-97.528503" changeset="false"><tag k="addr:street" v="Great Falls Drive"/><tag k="addr:housenumber" v="19008"/></node><node id="-148" lat="30.313727" lon="-97.530082" changeset="false"><tag k="addr:street" v="Great Falls Drive"/><tag k="addr:housenumber" v="19133"/></node><node id="-149" lat="30.317359" lon="-97.433847" changeset="false"><tag k="addr:street" v="Maize Lane"/><tag k="addr:housenumber" v="11613"/></node><node id="-150" lat="30.29948" lon="-97.47559" changeset="false"><tag k="addr:street" v="Hibbs Lane"/><tag k="addr:housenumber" v="10300"/></node><node id="-151" lat="30.314928" lon="-97.530642" changeset="false"><tag k="addr:street" v="Briarcreek Loop"/><tag k="addr:housenumber" v="13617"/></node><node id="-152" lat="30.314096" lon="-97.537148" changeset="false"><tag k="addr:street" v="Briarcreek Loop"/><tag k="addr:housenumber" v="11312"/></node><node id="-153" lat="30.313963" lon="-97.535293" changeset="false"><tag k="addr:street" v="Hungry Horse Drive"/><tag k="addr:housenumber" v="11409"/></node><node id="-154" lat="30.318761" lon="-97.432726" changeset="false"><tag k="addr:street" v="Maize Lane"/><tag k="addr:housenumber" v="11701"/></node><node id="-155" lat="30.31383" lon="-97.535408" changeset="false"><tag k="addr:street" v="Hungry Horse Drive"/><tag k="addr:housenumber" v="11405"/></node><node id="-156" lat="30.31961" lon="-97.528966" changeset="false"><tag k="addr:street" v="Briarcreek Loop"/><tag k="addr:housenumber" v="13300"/></node><node id="-157" lat="30.324917" lon="-97.528166" changeset="false"><tag k="addr:street" v="Great Valley Drive"/><tag k="addr:housenumber" v="18300"/></node><node id="-158" lat="30.324538" lon="-97.530369" changeset="false"><tag k="addr:street" v="Briarcreek Loop"/><tag k="addr:housenumber" v="12800"/></node><node id="-159" lat="30.324238" lon="-97.528751" changeset="false"><tag k="addr:street" v="Briarcreek Loop"/><tag k="addr:housenumber" v="12908"/></node><node id="-160" lat="30.312589" lon="-97.532186" changeset="false"><tag k="addr:street" v="Flat Head Drive"/><tag k="addr:housenumber" v="18316"/></node><node id="-161" lat="30.301067" lon="-97.482485" changeset="false"><tag k="addr:street" v="Hog Eye Road"/><tag k="addr:housenumber" v="21200"/></node><node id="-162" lat="30.302675" lon="-97.490107" changeset="false"><tag k="addr:street" v="Jones Road"/><tag k="addr:housenumber" v="10517"/></node><node id="-163" lat="30.319452" lon="-97.529008" changeset="false"><tag k="addr:street" v="Briarcreek Loop"/><tag k="addr:housenumber" v="13304"/></node><node id="-164" lat="30.315047" lon="-97.530551" changeset="false"><tag k="addr:street" v="Briarcreek Loop"/><tag k="addr:housenumber" v="13613"/></node><node id="-165" lat="30.318012" lon="-97.537996" changeset="false"><tag k="addr:street" v="Lima Drive"/><tag k="addr:housenumber" v="11928"/></node><node id="-166" lat="30.317511" lon="-97.528487" changeset="false"><tag k="addr:street" v="Briarcreek Loop"/><tag k="addr:housenumber" v="13404"/></node><node id="-167" lat="30.28448" lon="-97.452428" changeset="false"><tag k="addr:street" v="Morin Drive"/><tag k="addr:housenumber" v="9205"/></node><node id="-168" lat="30.289077" lon="-97.450644" changeset="false"><tag k="addr:street" v="Morin Drive"/><tag k="addr:housenumber" v="9506"/></node><node id="-169" lat="30.288982" lon="-97.449697" changeset="false"><tag k="addr:street" v="Ingram Drive"/><tag k="addr:housenumber" v="23301"/></node><node id="-170" lat="30.315156" lon="-97.530466" changeset="false"><tag k="addr:street" v="Briarcreek Loop"/><tag k="addr:housenumber" v="13609"/></node><node id="-171" lat="30.315227" lon="-97.537137" changeset="false"><tag k="addr:street" v="Melstone Drive"/><tag k="addr:housenumber" v="11517"/></node><node id="-172" lat="30.318678" lon="-97.535347" changeset="false"><tag k="addr:street" v="Briarcreek Loop"/><tag k="addr:housenumber" v="11912"/></node><node id="-173" lat="30.318164" lon="-97.5369" changeset="false"><tag k="addr:street" v="Lima Drive"/><tag k="addr:housenumber" v="12022"/></node><node id="-174" lat="30.309098" lon="-97.534691" changeset="false"><tag k="addr:street" v="Briarcreek Loop"/><tag k="addr:housenumber" v="14308"/></node><node id="-175" lat="30.310997" lon="-97.534102" changeset="false"><tag k="addr:street" v="Briarcreek Loop"/><tag k="addr:housenumber" v="14121"/></node><node id="-176" lat="30.321134" lon="-97.529908" changeset="false"><tag k="addr:street" v="Great Falls Drive"/><tag k="addr:housenumber" v="18200"/></node><node id="-177" lat="30.320751" lon="-97.528539" changeset="false"><tag k="addr:street" v="Great Falls Drive"/><tag k="addr:housenumber" v="18305"/></node><node id="-178" lat="30.304242" lon="-97.472913" changeset="false"><tag k="addr:street" v="Hibbs Lane"/><tag k="addr:housenumber" v="10610"/></node><node id="-179" lat="30.319426" lon="-97.532832" changeset="false"><tag k="addr:street" v="Powder Creek Drive"/><tag k="addr:housenumber" v="17921"/></node><node id="-180" lat="30.31923" lon="-97.529677" changeset="false"><tag k="addr:street" v="Briarcreek Loop"/><tag k="addr:housenumber" v="13313"/></node><node id="-181" lat="30.319226" lon="-97.534633" changeset="false"><tag k="addr:street" v="Briarcreek Loop"/><tag k="addr:housenumber" v="12008"/></node><node id="-182" lat="30.31038" lon="-97.534553" changeset="false"><tag k="addr:street" v="Briarcreek Loop"/><tag k="addr:housenumber" v="14209"/></node><node id="-183" lat="30.315056" lon="-97.536679" changeset="false"><tag k="addr:street" v="Briarcreek Loop"/><tag k="addr:housenumber" v="11500"/></node><node id="-184" lat="30.318302" lon="-97.537388" changeset="false"><tag k="addr:street" v="Lima Drive"/><tag k="addr:housenumber" v="12012"/></node><node id="-185" lat="30.318068" lon="-97.536735" changeset="false"><tag k="addr:street" v="Lima Drive"/><tag k="addr:housenumber" v="12024"/></node><node id="-186" lat="30.30476" lon="-97.493424" changeset="false"><tag k="addr:street" v="Lockwood Road,1100"/><tag k="addr:housenumber" v="20400"/></node><node id="-187" lat="30.321273" lon="-97.528613" changeset="false"><tag k="addr:street" v="Briarcreek Loop"/><tag k="addr:housenumber" v="13140"/></node><node id="-188" lat="30.322574" lon="-97.427511" changeset="false"><tag k="addr:street" v="Littig Road"/><tag k="addr:housenumber" v="19101"/></node><node id="-189" lat="30.316163" lon="-97.538031" changeset="false"><tag k="addr:street" v="Lima Drive"/><tag k="addr:housenumber" v="11805"/></node><node id="-190" lat="30.315831" lon="-97.534704" changeset="false"><tag k="addr:street" v="Cutback Drive"/><tag k="addr:housenumber" v="17816"/></node><node id="-191" lat="30.313158" lon="-97.531243" changeset="false"><tag k="addr:street" v="Briarcreek Loop"/><tag k="addr:housenumber" v="13809"/></node><node id="-192" lat="30.314895" lon="-97.534196" changeset="false"><tag k="addr:street" v="Cutback Drive"/><tag k="addr:housenumber" v="17920"/></node><node id="-193" lat="30.314669" lon="-97.530108" changeset="false"><tag k="addr:street" v="Briarcreek Loop"/><tag k="addr:housenumber" v="13616"/></node><node id="-194" lat="30.317992" lon="-97.442401" changeset="false"><tag k="addr:street" v="Littig Road"/><tag k="addr:housenumber" v="18409"/></node><node id="-195" lat="30.315034" lon="-97.51435" changeset="false"><tag k="addr:street" v="Parsons Road"/><tag k="addr:housenumber" v="11409"/></node><node id="-196" lat="30.320445" lon="-97.533714" changeset="false"><tag k="addr:street" v="Briarcreek Loop"/><tag k="addr:housenumber" v="12208"/></node><node id="-197" lat="30.314595" lon="-97.537798" changeset="false"><tag k="addr:street" v="Melstone Drive"/><tag k="addr:housenumber" v="11502"/></node><node id="-198" lat="30.313999" lon="-97.530494" changeset="false"><tag k="addr:street" v="Briarcreek Loop"/><tag k="addr:housenumber" v="13704"/></node><node id="-199" lat="30.313818" lon="-97.530517" changeset="false"><tag k="addr:street" v="Briarcreek Loop"/><tag k="addr:housenumber" v="13708"/></node><node id="-200" lat="30.314683" lon="-97.534558" changeset="false"><tag k="addr:street" v="Cutback Drive"/><tag k="addr:housenumber" v="17921"/></node><node id="-201" lat="30.317049" lon="-97.528585" changeset="false"><tag k="addr:street" v="Briarcreek Loop"/><tag k="addr:housenumber" v="13416"/></node><node id="-202" lat="30.319397" lon="-97.43519" changeset="false"><tag k="addr:street" v="Littig Road"/><tag k="addr:housenumber" v="18805"/></node><node id="-203" lat="30.317779" lon="-97.528056" changeset="false"><tag k="addr:street" v="Belfry Pass"/><tag k="addr:housenumber" v="18417"/></node><node id="-204" lat="30.323716" lon="-97.53176" changeset="false"><tag k="addr:street" v="Briarcreek Loop"/><tag k="addr:housenumber" v="12601"/></node><node id="-205" lat="30.316278" lon="-97.530828" changeset="false"><tag k="addr:street" v="Belfry Pass"/><tag k="addr:housenumber" v="18208"/></node><node id="-206" lat="30.312225" lon="-97.534058" changeset="false"><tag k="addr:street" v="Flat Head Drive"/><tag k="addr:housenumber" v="18124"/></node><node id="-207" lat="30.317687" lon="-97.527678" changeset="false"><tag k="addr:street" v="Great Falls Drive"/><tag k="addr:housenumber" v="18801"/></node><node id="-208" lat="30.320894" lon="-97.524591" changeset="false"><tag k="addr:street" v="Big Sky Drive"/><tag k="addr:housenumber" v="11821"/></node><node id="-209" lat="30.31546" lon="-97.530762" changeset="false"><tag k="addr:street" v="Belfry Pass"/><tag k="addr:housenumber" v="18117"/></node><node id="-210" lat="30.322496" lon="-97.529021" changeset="false"><tag k="addr:street" v="Briarcreek Loop"/><tag k="addr:housenumber" v="13105"/></node><node id="-211" lat="30.314343" lon="-97.531394" changeset="false"><tag k="addr:street" v="Belfry Pass"/><tag k="addr:housenumber" v="18008"/></node><node id="-212" lat="30.302254" lon="-97.473177" changeset="false"><tag k="addr:street" v="Hibbs Lane"/><tag k="addr:housenumber" v="10511"/></node><node id="-213" lat="30.295524" lon="-97.460333" changeset="false"><tag k="addr:street" v="Bitting School Road"/><tag k="addr:housenumber" v="10011"/></node><node id="-214" lat="30.323027" lon="-97.528156" changeset="false"><tag k="addr:street" v="Briarcreek Loop"/><tag k="addr:housenumber" v="13020"/></node><node id="-215" lat="30.32142" lon="-97.477692" changeset="false"><tag k="addr:street" v="Jones Road"/><tag k="addr:housenumber" v="11911"/></node><node id="-216" lat="30.315488" lon="-97.534713" changeset="false"><tag k="addr:street" v="Cutback Drive"/><tag k="addr:housenumber" v="17901"/></node><node id="-217" lat="30.31706" lon="-97.527534" changeset="false"><tag k="addr:street" v="Great Falls Drive"/><tag k="addr:housenumber" v="18816"/></node><node id="-218" lat="30.316773" lon="-97.528244" changeset="false"><tag k="addr:street" v="Great Falls Drive"/><tag k="addr:housenumber" v="18905"/></node><node id="-219" lat="30.316216" lon="-97.528073" changeset="false"><tag k="addr:street" v="Great Falls Drive"/><tag k="addr:housenumber" v="18916"/></node><node id="-220" lat="30.315871" lon="-97.528862" changeset="false"><tag k="addr:street" v="Great Falls Drive"/><tag k="addr:housenumber" v="19005"/></node><node id="-221" lat="30.315634" lon="-97.529005" changeset="false"><tag k="addr:street" v="Great Falls Drive"/><tag k="addr:housenumber" v="19013"/></node><node id="-222" lat="30.315317" lon="-97.528657" changeset="false"><tag k="addr:street" v="Great Falls Drive"/><tag k="addr:housenumber" v="19016"/></node><node id="-223" lat="30.315192" lon="-97.528729" changeset="false"><tag k="addr:street" v="Great Falls Drive"/><tag k="addr:housenumber" v="19020"/></node><node id="-224" lat="30.314102" lon="-97.529421" changeset="false"><tag k="addr:street" v="Great Falls Drive"/><tag k="addr:housenumber" v="19116"/></node><node id="-225" lat="30.312727" lon="-97.533512" changeset="false"><tag k="addr:street" v="Flat Head Drive"/><tag k="addr:housenumber" v="18208"/></node><node id="-226" lat="30.317344" lon="-97.528482" changeset="false"><tag k="addr:street" v="Briarcreek Loop"/><tag k="addr:housenumber" v="13408"/></node><node id="-227" lat="30.316542" lon="-97.528891" changeset="false"><tag k="addr:street" v="Briarcreek Loop"/><tag k="addr:housenumber" v="13432"/></node><node id="-228" lat="30.303223" lon="-97.474339" changeset="false"><tag k="addr:street" v="Hibbs Lane"/><tag k="addr:housenumber" v="10512"/></node><node id="-229" lat="30.306757" lon="-97.488541" changeset="false"><tag k="addr:street" v="Jones Road"/><tag k="addr:housenumber" v="10908"/></node><node id="-230" lat="30.303619" lon="-97.485077" changeset="false"><tag k="addr:street" v="Jones Road"/><tag k="addr:housenumber" v="10807"/></node><node id="-231" lat="30.316002" lon="-97.529936" changeset="false"><tag k="addr:street" v="Briarcreek Loop"/><tag k="addr:housenumber" v="13513"/></node><node id="-232" lat="30.315755" lon="-97.534557" changeset="false"><tag k="addr:street" v="Cutback Drive"/><tag k="addr:housenumber" v="17820"/></node><node id="-233" lat="30.310895" lon="-97.534174" changeset="false"><tag k="addr:street" v="Briarcreek Loop"/><tag k="addr:housenumber" v="14125"/></node><node id="-234" lat="30.29009" lon="-97.449664" changeset="false"><tag k="addr:street" v="Ingram Drive"/><tag k="addr:housenumber" v="23214"/></node><node id="-235" lat="30.289359" lon="-97.451179" changeset="false"><tag k="addr:street" v="Ingram Drive"/><tag k="addr:housenumber" v="23203"/></node><node id="-236" lat="30.287795" lon="-97.45049" changeset="false"><tag k="addr:street" v="Morin Drive"/><tag k="addr:housenumber" v="9409"/></node><node id="-237" lat="30.318859" lon="-97.534278" changeset="false"><tag k="addr:street" v="Briarcreek Loop"/><tag k="addr:housenumber" v="12009"/></node><node id="-238" lat="30.323682" lon="-97.527319" changeset="false"><tag k="addr:street" v="Great Valley Drive"/><tag k="addr:housenumber" v="18340"/></node><node id="-239" lat="30.313543" lon="-97.483987" changeset="false"><tag k="addr:street" v="Jones Road"/><tag k="addr:housenumber" v="11316"/></node><node id="-240" lat="30.31646" lon="-97.514118" changeset="false"><tag k="addr:street" v="Parsons Road"/><tag k="addr:housenumber" v="11521"/></node><node id="-241" lat="30.320314" lon="-97.53312" changeset="false"><tag k="addr:street" v="Briarcreek Loop"/><tag k="addr:housenumber" v="12209"/></node><node id="-242" lat="30.311932" lon="-97.531772" changeset="false"><tag k="addr:street" v="Briarcreek Loop"/><tag k="addr:housenumber" v="13920"/></node><node id="-243" lat="30.31184" lon="-97.532044" changeset="false"><tag k="addr:street" v="Briarcreek Loop"/><tag k="addr:housenumber" v="13928"/></node><node id="-244" lat="30.286686" lon="-97.451949" changeset="false"><tag k="addr:street" v="Morin Drive"/><tag k="addr:housenumber" v="9312"/></node><node id="-245" lat="30.308635" lon="-97.53503" changeset="false"><tag k="addr:street" v="Briarcreek Loop"/><tag k="addr:housenumber" v="14404"/></node><node id="-246" lat="30.314118" lon="-97.535258" changeset="false"><tag k="addr:street" v="Hungry Horse Drive"/><tag k="addr:housenumber" v="11413"/></node><node id="-247" lat="30.313013" lon="-97.531281" changeset="false"><tag k="addr:street" v="Briarcreek Loop"/><tag k="addr:housenumber" v="13813"/></node><node id="-248" lat="30.312606" lon="-97.530792" changeset="false"><tag k="addr:street" v="Briarcreek Loop"/><tag k="addr:housenumber" v="13820"/></node><node id="-249" lat="30.313391" lon="-97.517174" changeset="false"><tag k="addr:street" v="Parsons Road"/><tag k="addr:housenumber" v="11300"/></node><node id="-250" lat="30.32169" lon="-97.532144" changeset="false"><tag k="addr:street" v="Powder Creek Drive"/><tag k="addr:housenumber" v="17708"/></node><node id="-251" lat="30.308799" lon="-97.444248" changeset="false"><tag k="addr:street" v="Bitting School Road"/><tag k="addr:housenumber" v="11241"/></node><node id="-252" lat="30.286267" lon="-97.45129" changeset="false"><tag k="addr:street" v="Morin Drive"/><tag k="addr:housenumber" v="9311"/></node><node id="-253" lat="30.285484" lon="-97.451423" changeset="false"><tag k="addr:street" v="Morin Drive"/><tag k="addr:housenumber" v="9301"/></node><node id="-254" lat="30.323053" lon="-97.47612" changeset="false"><tag k="addr:street" v="Jones Road"/><tag k="addr:housenumber" v="12001"/></node><node id="-255" lat="30.321536" lon="-97.528611" changeset="false"><tag k="addr:street" v="Briarcreek Loop"/><tag k="addr:housenumber" v="13132"/></node><node id="-256" lat="30.287288" lon="-97.450464" changeset="false"><tag k="addr:street" v="Morin Drive"/><tag k="addr:housenumber" v="9405"/></node><node id="-257" lat="30.324146" lon="-97.528623" changeset="false"><tag k="addr:street" v="Briarcreek Loop"/><tag k="addr:housenumber" v="12912"/></node><node id="-258" lat="30.323352" lon="-97.528248" changeset="false"><tag k="addr:street" v="Briarcreek Loop"/><tag k="addr:housenumber" v="13012"/></node><node id="-259" lat="30.315927" lon="-97.535634" changeset="false"><tag k="addr:street" v="Cutback Drive"/><tag k="addr:housenumber" v="17712"/></node><node id="-260" lat="30.318791" lon="-97.53298" changeset="false"><tag k="addr:street" v="Powder Creek Drive"/><tag k="addr:housenumber" v="18008"/></node><node id="-261" lat="30.314803" lon="-97.530727" changeset="false"><tag k="addr:street" v="Briarcreek Loop"/><tag k="addr:housenumber" v="13621"/></node><node id="-262" lat="30.314894" lon="-97.535224" changeset="false"><tag k="addr:street" v="Hungry Horse Drive"/><tag k="addr:housenumber" v="11505"/></node><node id="-263" lat="30.314813" lon="-97.537169" changeset="false"><tag k="addr:street" v="Melstone Drive"/><tag k="addr:housenumber" v="11507"/></node><node id="-264" lat="30.314549" lon="-97.530187" changeset="false"><tag k="addr:street" v="Briarcreek Loop"/><tag k="addr:housenumber" v="13620"/></node><node id="-265" lat="30.317206" lon="-97.528514" changeset="false"><tag k="addr:street" v="Briarcreek Loop"/><tag k="addr:housenumber" v="13412"/></node><node id="-266" lat="30.314441" lon="-97.536173" changeset="false"><tag k="addr:street" v="Briarcreek Loop"/><tag k="addr:housenumber" v="11409"/></node><node id="-267" lat="30.313686" lon="-97.535496" changeset="false"><tag k="addr:street" v="Hungry Horse Drive"/><tag k="addr:housenumber" v="11401"/></node><node id="-268" lat="30.310857" lon="-97.533454" changeset="false"><tag k="addr:street" v="Briarcreek Loop"/><tag k="addr:housenumber" v="14116"/></node><node id="-269" lat="30.310509" lon="-97.534462" changeset="false"><tag k="addr:street" v="Briarcreek Loop"/><tag k="addr:housenumber" v="14205"/></node><node id="-270" lat="30.306064" lon="-97.487768" changeset="false"><tag k="addr:street" v="Jones Road"/><tag k="addr:housenumber" v="10901"/></node><node id="-271" lat="30.303682" lon="-97.488887" changeset="false"><tag k="addr:street" v="Jones Road"/><tag k="addr:housenumber" v="10709"/></node><node id="-272" lat="30.302903" lon="-97.494579" changeset="false"><tag k="addr:street" v="Lockwood Road,1100"/><tag k="addr:housenumber" v="20410"/></node><node id="-273" lat="30.301918" lon="-97.480569" changeset="false"><tag k="addr:street" v="Hog Eye Road"/><tag k="addr:housenumber" v="21206"/></node><node id="-274" lat="30.322854" lon="-97.527518" changeset="false"><tag k="addr:street" v="Great Valley Drive"/><tag k="addr:housenumber" v="18420"/></node><node id="-275" lat="30.283337" lon="-97.45335" changeset="false"><tag k="addr:street" v="Morin Drive"/><tag k="addr:housenumber" v="9101"/></node><node id="-276" lat="30.317823" lon="-97.534099" changeset="false"><tag k="addr:street" v="Golden Valley Drive"/><tag k="addr:housenumber" v="17728"/></node><node id="-277" lat="30.314968" lon="-97.53106" changeset="false"><tag k="addr:street" v="Belfry Pass"/><tag k="addr:housenumber" v="18101"/></node><node id="-278" lat="30.320685" lon="-97.526803" changeset="false"><tag k="addr:street" v="Great Falls Drive"/><tag k="addr:housenumber" v="18409"/></node><node id="-279" lat="30.303336" lon="-97.497467" changeset="false"><tag k="addr:street" v="Lockwood Road,1100"/><tag k="addr:housenumber" v="20212"/></node><node id="-280" lat="30.317996" lon="-97.52672" changeset="false"><tag k="addr:street" v="Great Falls Drive"/><tag k="addr:housenumber" v="18704"/></node><node id="-281" lat="30.31792" lon="-97.526935" changeset="false"><tag k="addr:street" v="Great Falls Drive"/><tag k="addr:housenumber" v="18712"/></node><node id="-282" lat="30.317255" lon="-97.532866" changeset="false"><tag k="addr:street" v="Golden Valley Drive"/><tag k="addr:housenumber" v="17821"/></node><node id="-283" lat="30.317304" lon="-97.533578" changeset="false"><tag k="addr:street" v="Golden Valley Drive"/><tag k="addr:housenumber" v="17805"/></node><node id="-284" lat="30.317007" lon="-97.52975" changeset="false"><tag k="addr:street" v="Belfry Pass"/><tag k="addr:housenumber" v="18305"/></node><node id="-285" lat="30.319811" lon="-97.525777" changeset="false"><tag k="addr:street" v="Great Falls Drive"/><tag k="addr:housenumber" v="18517"/></node><node id="-286" lat="30.319334" lon="-97.525456" changeset="false"><tag k="addr:street" v="Great Falls Drive"/><tag k="addr:housenumber" v="18528"/></node><node id="-287" lat="30.318382" lon="-97.526187" changeset="false"><tag k="addr:street" v="Great Falls Drive"/><tag k="addr:housenumber" v="18616"/></node><node id="-288" lat="30.318342" lon="-97.527156" changeset="false"><tag k="addr:street" v="Great Falls Drive"/><tag k="addr:housenumber" v="18709"/></node><node id="-289" lat="30.313226" lon="-97.515678" changeset="false"><tag k="addr:street" v="Parsons Road"/><tag k="addr:housenumber" v="11311"/></node><node id="-290" lat="30.314865" lon="-97.446332" changeset="false"><tag k="addr:street" v="Bitting School Road"/><tag k="addr:housenumber" v="11425"/></node><node id="-291" lat="30.313135" lon="-97.532502" changeset="false"><tag k="addr:street" v="Flat Head Drive"/><tag k="addr:housenumber" v="18300"/></node><node id="-292" lat="30.317605" lon="-97.527732" changeset="false"><tag k="addr:street" v="Great Falls Drive"/><tag k="addr:housenumber" v="18805"/></node><node id="-293" lat="30.317495" lon="-97.527792" changeset="false"><tag k="addr:street" v="Great Falls Drive"/><tag k="addr:housenumber" v="18809"/></node><node id="-294" lat="30.3169" lon="-97.52819" changeset="false"><tag k="addr:street" v="Great Falls Drive"/><tag k="addr:housenumber" v="18901"/></node><node id="-295" lat="30.315801" lon="-97.528351" changeset="false"><tag k="addr:street" v="Great Falls Drive"/><tag k="addr:housenumber" v="19000"/></node><node id="-296" lat="30.325038" lon="-97.52871" changeset="false"><tag k="addr:street" v="Great Valley Drive"/><tag k="addr:housenumber" v="18220"/></node><node id="-297" lat="30.325007" lon="-97.528912" changeset="false"><tag k="addr:street" v="Great Valley Drive"/><tag k="addr:housenumber" v="18216"/></node><node id="-298" lat="30.324586" lon="-97.529727" changeset="false"><tag k="addr:street" v="Briarcreek Loop"/><tag k="addr:housenumber" v="12816"/></node><node id="-299" lat="30.315078" lon="-97.534244" changeset="false"><tag k="addr:street" v="Cutback Drive"/><tag k="addr:housenumber" v="17916"/></node><node id="-300" lat="30.322096" lon="-97.529127" changeset="false"><tag k="addr:street" v="Briarcreek Loop"/><tag k="addr:housenumber" v="13117"/></node><node id="-301" lat="30.31332" lon="-97.531195" changeset="false"><tag k="addr:street" v="Briarcreek Loop"/><tag k="addr:housenumber" v="13805"/></node><node id="-302" lat="30.313189" lon="-97.530564" changeset="false"><tag k="addr:street" v="Briarcreek Loop"/><tag k="addr:housenumber" v="13804"/></node><node id="-303" lat="30.313032" lon="-97.530597" changeset="false"><tag k="addr:street" v="Briarcreek Loop"/><tag k="addr:housenumber" v="13808"/></node><node id="-304" lat="30.316803" lon="-97.529442" changeset="false"><tag k="addr:street" v="Briarcreek Loop"/><tag k="addr:housenumber" v="13433"/></node><node id="-305" lat="30.319726" lon="-97.533279" changeset="false"><tag k="addr:street" v="Briarcreek Loop"/><tag k="addr:housenumber" v="12117"/></node><node id="-306" lat="30.31534" lon="-97.432781" changeset="false"><tag k="addr:street" v="Maize Lane"/><tag k="addr:housenumber" v="11501"/></node><node id="-307" lat="30.320019" lon="-97.529405" changeset="false"><tag k="addr:street" v="Briarcreek Loop"/><tag k="addr:housenumber" v="13225"/></node><node id="-308" lat="30.313747" lon="-97.53603" changeset="false"><tag k="addr:street" v="Hungry Horse Drive"/><tag k="addr:housenumber" v="11328"/></node><node id="-309" lat="30.313703" lon="-97.536723" changeset="false"><tag k="addr:street" v="Briarcreek Loop"/><tag k="addr:housenumber" v="11317"/></node><node id="-310" lat="30.312323" lon="-97.530982" changeset="false"><tag k="addr:street" v="Briarcreek Loop"/><tag k="addr:housenumber" v="13900"/></node><node id="-311" lat="30.312206" lon="-97.531105" changeset="false"><tag k="addr:street" v="Briarcreek Loop"/><tag k="addr:housenumber" v="13904"/></node><node id="-312" lat="30.312068" lon="-97.533036" changeset="false"><tag k="addr:street" v="Briarcreek Loop"/><tag k="addr:housenumber" v="14013"/></node><node id="-313" lat="30.315938" lon="-97.535955" changeset="false"><tag k="addr:street" v="Cutback Drive"/><tag k="addr:housenumber" v="17704"/></node><node id="-314" lat="30.315914" lon="-97.535321" changeset="false"><tag k="addr:street" v="Cutback Drive"/><tag k="addr:housenumber" v="17800"/></node><node id="-315" lat="30.318791" lon="-97.533651" changeset="false"><tag k="addr:street" v="Powder Creek Drive"/><tag k="addr:housenumber" v="18024"/></node><node id="-316" lat="30.286025" lon="-97.450925" changeset="false"><tag k="addr:street" v="Alicia Drive"/><tag k="addr:housenumber" v="23108"/></node><node id="-317" lat="30.304214" lon="-97.493781" changeset="false"><tag k="addr:street" v="Lockwood Road,1100"/><tag k="addr:housenumber" v="20402"/></node><node id="-318" lat="30.308752" lon="-97.534953" changeset="false"><tag k="addr:street" v="Briarcreek Loop"/><tag k="addr:housenumber" v="14400"/></node><node id="-319" lat="30.285379" lon="-97.453268" changeset="false"><tag k="addr:street" v="Morin Drive"/><tag k="addr:housenumber" v="9210"/></node><node id="-320" lat="30.315529" lon="-97.530252" changeset="false"><tag k="addr:street" v="Briarcreek Loop"/><tag k="addr:housenumber" v="13529"/></node><node id="-321" lat="30.283157" lon="-97.452706" changeset="false"><tag k="addr:street" v="Hog Eye Road"/><tag k="addr:housenumber" v="23006"/></node><node id="-322" lat="30.321825" lon="-97.529146" changeset="false"><tag k="addr:street" v="Briarcreek Loop"/><tag k="addr:housenumber" v="13125"/></node><node id="-323" lat="30.324561" lon="-97.530212" changeset="false"><tag k="addr:street" v="Briarcreek Loop"/><tag k="addr:housenumber" v="12804"/></node><node id="-324" lat="30.323773" lon="-97.528831" changeset="false"><tag k="addr:street" v="Briarcreek Loop"/><tag k="addr:housenumber" v="12917"/></node><node id="-325" lat="30.323834" lon="-97.53234" changeset="false"><tag k="addr:street" v="Briarcreek Loop"/><tag k="addr:housenumber" v="12528"/></node><node id="-326" lat="30.322222" lon="-97.531925" changeset="false"><tag k="addr:street" v="Powder Creek Drive"/><tag k="addr:housenumber" v="17624"/></node><node id="-327" lat="30.316928" lon="-97.529387" changeset="false"><tag k="addr:street" v="Briarcreek Loop"/><tag k="addr:housenumber" v="13429"/></node><node id="-328" lat="30.317289" lon="-97.529155" changeset="false"><tag k="addr:street" v="Briarcreek Loop"/><tag k="addr:housenumber" v="13417"/></node><node id="-329" lat="30.306515" lon="-97.530408" changeset="false"><tag k="addr:street" v="Lockwood Road,1100"/><tag k="addr:housenumber" v="18200"/></node><node id="-330" lat="30.312515" lon="-97.531811" changeset="false"><tag k="addr:street" v="Briarcreek Loop"/><tag k="addr:housenumber" v="13913"/></node><node id="-331" lat="30.312489" lon="-97.532835" changeset="false"><tag k="addr:street" v="Flat Head Drive"/><tag k="addr:housenumber" v="18217"/></node><node id="-332" lat="30.312428" lon="-97.533031" changeset="false"><tag k="addr:street" v="Flat Head Drive"/><tag k="addr:housenumber" v="18213"/></node><node id="-333" lat="30.298993" lon="-97.478555" changeset="false"><tag k="addr:street" v="Hog Eye Road"/><tag k="addr:housenumber" v="21400"/></node><node id="-334" lat="30.313271" lon="-97.535921" changeset="false"><tag k="addr:street" v="Hungry Horse Drive"/><tag k="addr:housenumber" v="11317"/></node><node id="-335" lat="30.318839" lon="-97.437755" changeset="false"><tag k="addr:street" v="Littig Road"/><tag k="addr:housenumber" v="18611"/></node><node id="-336" lat="30.314933" lon="-97.537612" changeset="false"><tag k="addr:street" v="Melstone Drive"/><tag k="addr:housenumber" v="11508"/></node><node id="-337" lat="30.314777" lon="-97.53475" changeset="false"><tag k="addr:street" v="Cutback Drive"/><tag k="addr:housenumber" v="17917"/></node><node id="-338" lat="30.286376" lon="-97.452217" changeset="false"><tag k="addr:street" v="Morin Drive"/><tag k="addr:housenumber" v="9308"/></node><node id="-339" lat="30.285839" lon="-97.453049" changeset="false"><tag k="addr:street" v="Morin Drive"/><tag k="addr:housenumber" v="9216"/></node><node id="-340" lat="30.319203" lon="-97.532503" changeset="false"><tag k="addr:street" v="Powder Creek Drive"/><tag k="addr:housenumber" v="17924"/></node><node id="-341" lat="30.302925" lon="-97.496649" changeset="false"><tag k="addr:street" v="Lockwood Road,1100"/><tag k="addr:housenumber" v="20218"/></node><node id="-342" lat="30.317736" lon="-97.535212" changeset="false"><tag k="addr:street" v="Golden Valley Drive"/><tag k="addr:housenumber" v="17705 1/2"/></node><node id="-343" lat="30.303052" lon="-97.455973" changeset="false"><tag k="addr:street" v="Bitting School Road"/><tag k="addr:housenumber" v="10521"/></node><node id="-344" lat="30.317153" lon="-97.536426" changeset="false"><tag k="addr:street" v="Briarcreek Loop"/><tag k="addr:housenumber" v="11708"/></node><node id="-345" lat="30.315934" lon="-97.530438" changeset="false"><tag k="addr:street" v="Belfry Pass"/><tag k="addr:housenumber" v="18205"/></node><node id="-346" lat="30.316044" lon="-97.530351" changeset="false"><tag k="addr:street" v="Belfry Pass"/><tag k="addr:housenumber" v="18209"/></node><node id="-347" lat="30.316177" lon="-97.530283" changeset="false"><tag k="addr:street" v="Belfry Pass"/><tag k="addr:housenumber" v="18213"/></node><node id="-348" lat="30.315338" lon="-97.53083" changeset="false"><tag k="addr:street" v="Belfry Pass"/><tag k="addr:housenumber" v="18113"/></node><node id="-349" lat="30.320535" lon="-97.527376" changeset="false"><tag k="addr:street" v="Great Falls Drive"/><tag k="addr:housenumber" v="18333"/></node><node id="-350" lat="30.314712" lon="-97.531609" changeset="false"><tag k="addr:street" v="Belfry Pass"/><tag k="addr:housenumber" v="18020"/></node><node id="-351" lat="30.30251" lon="-97.495794" changeset="false"><tag k="addr:street" v="Lockwood Road,1100"/><tag k="addr:housenumber" v="20312"/></node><node id="-352" lat="30.317332" lon="-97.530092" changeset="false"><tag k="addr:street" v="Belfry Pass"/><tag k="addr:housenumber" v="18308"/></node><node id="-353" lat="30.318068" lon="-97.528681" changeset="false"><tag k="addr:street" v="Belfry Pass"/><tag k="addr:housenumber" v="18400"/></node><node id="-354" lat="30.321337" lon="-97.52441" changeset="false"><tag k="addr:street" v="Big Sky Drive"/><tag k="addr:housenumber" v="11901"/></node><node id="-355" lat="30.319566" lon="-97.525307" changeset="false"><tag k="addr:street" v="Great Falls Drive"/><tag k="addr:housenumber" v="18520"/></node><node id="-356" lat="30.318169" lon="-97.526186" changeset="false"><tag k="addr:street" v="Great Falls Drive"/><tag k="addr:housenumber" v="18620"/></node><node id="-357" lat="30.317969" lon="-97.527515" changeset="false"><tag k="addr:street" v="Great Falls Drive"/><tag k="addr:housenumber" v="18721"/></node><node id="-358" lat="30.317613" lon="-97.527101" changeset="false"><tag k="addr:street" v="Great Falls Drive"/><tag k="addr:housenumber" v="18724"/></node><node id="-359" lat="30.317389" lon="-97.534535" changeset="false"><tag k="addr:street" v="Golden Valley Drive"/><tag k="addr:housenumber" v="17725"/></node><node id="-360" lat="30.317337" lon="-97.534045" changeset="false"><tag k="addr:street" v="Golden Valley Drive"/><tag k="addr:housenumber" v="17737"/></node><node id="-361" lat="30.32072" lon="-97.527899" changeset="false"><tag k="addr:street" v="Great Falls Drive"/><tag k="addr:housenumber" v="18321"/></node><node id="-362" lat="30.323529" lon="-97.527681" changeset="false"><tag k="addr:street" v="Great Valley Drive"/><tag k="addr:housenumber" v="18401"/></node><node id="-363" lat="30.322667" lon="-97.528435" changeset="false"><tag k="addr:street" v="Great Valley Drive"/><tag k="addr:housenumber" v="18440"/></node><node id="-364" lat="30.305078" lon="-97.488925" changeset="false"><tag k="addr:street" v="Jones Road"/><tag k="addr:housenumber" v="10743"/></node><node id="-365" lat="30.317379" lon="-97.527887" changeset="false"><tag k="addr:street" v="Great Falls Drive"/><tag k="addr:housenumber" v="18813"/></node><node id="-366" lat="30.317303" lon="-97.527383" changeset="false"><tag k="addr:street" v="Great Falls Drive"/><tag k="addr:housenumber" v="18808"/></node><node id="-367" lat="30.316937" lon="-97.52761" changeset="false"><tag k="addr:street" v="Great Falls Drive"/><tag k="addr:housenumber" v="18820"/></node><node id="-368" lat="30.316653" lon="-97.528326" changeset="false"><tag k="addr:street" v="Great Falls Drive"/><tag k="addr:housenumber" v="18909"/></node><node id="-369" lat="30.316412" lon="-97.528484" changeset="false"><tag k="addr:street" v="Great Falls Drive"/><tag k="addr:housenumber" v="18917"/></node><node id="-370" lat="30.316578" lon="-97.527841" changeset="false"><tag k="addr:street" v="Great Falls Drive"/><tag k="addr:housenumber" v="18904"/></node><node id="-371" lat="30.316101" lon="-97.528152" changeset="false"><tag k="addr:street" v="Great Falls Drive"/><tag k="addr:housenumber" v="18920"/></node><node id="-372" lat="30.316007" lon="-97.528783" changeset="false"><tag k="addr:street" v="Great Falls Drive"/><tag k="addr:housenumber" v="19001"/></node><node id="-373" lat="30.31479" lon="-97.529532" changeset="false"><tag k="addr:street" v="Great Falls Drive"/><tag k="addr:housenumber" v="19101"/></node><node id="-374" lat="30.314669" lon="-97.529594" changeset="false"><tag k="addr:street" v="Great Falls Drive"/><tag k="addr:housenumber" v="19105"/></node><node id="-375" lat="30.283108" lon="-97.454634" changeset="false"><tag k="addr:street" v="Hog Eye Road"/><tag k="addr:housenumber" v="22918"/></node><node id="-376" lat="30.283392" lon="-97.455773" changeset="false"><tag k="addr:street" v="Hog Eye Road"/><tag k="addr:housenumber" v="22812"/></node><node id="-377" lat="30.2827" lon="-97.450966" changeset="false"><tag k="addr:street" v="Hog Eye Road"/><tag k="addr:housenumber" v="23112"/></node><node id="-378" lat="30.312234" lon="-97.533376" changeset="false"><tag k="addr:street" v="Flat Head Drive"/><tag k="addr:housenumber" v="18205"/></node><node id="-379" lat="30.324348" lon="-97.480416" changeset="false"><tag k="addr:street" v="Jones Road"/><tag k="addr:housenumber" v="12043"/></node><node id="-380" lat="30.312732" lon="-97.531504" changeset="false"><tag k="addr:street" v="Briarcreek Loop"/><tag k="addr:housenumber" v="13901"/></node><node id="-381" lat="30.312632" lon="-97.533659" changeset="false"><tag k="addr:street" v="Flat Head Drive"/><tag k="addr:housenumber" v="18204"/></node><node id="-382" lat="30.322974" lon="-97.528765" changeset="false"><tag k="addr:street" v="Briarcreek Loop"/><tag k="addr:housenumber" v="13025"/></node><node id="-383" lat="30.322741" lon="-97.527678" changeset="false"><tag k="addr:street" v="Great Valley Drive"/><tag k="addr:housenumber" v="18424"/></node><node id="-384" lat="30.314189" lon="-97.530407" changeset="false"><tag k="addr:street" v="Briarcreek Loop"/><tag k="addr:housenumber" v="13700"/></node><node id="-385" lat="30.321497" lon="-97.525038" changeset="false"><tag k="addr:street" v="Big Sky Drive"/><tag k="addr:housenumber" v="11900"/></node><node id="-386" lat="30.321743" lon="-97.525031" changeset="false"><tag k="addr:street" v="Big Sky Drive"/><tag k="addr:housenumber" v="11904"/></node><node id="-387" lat="30.320512" lon="-97.524815" changeset="false"><tag k="addr:street" v="Big Sky Drive"/><tag k="addr:housenumber" v="11809"/></node><node id="-388" lat="30.321187" lon="-97.524454" changeset="false"><tag k="addr:street" v="Big Sky Drive"/><tag k="addr:housenumber" v="11829"/></node><node id="-389" lat="30.30893" lon="-97.504643" changeset="false"><tag k="addr:street" v="Lockwood Road,1100"/><tag k="addr:housenumber" v="19714"/></node><node id="-390" lat="30.314457" lon="-97.531487" changeset="false"><tag k="addr:street" v="Belfry Pass"/><tag k="addr:housenumber" v="18012"/></node><node id="-391" lat="30.321113" lon="-97.526959" changeset="false"><tag k="addr:street" v="Great Falls Drive"/><tag k="addr:housenumber" v="18404"/></node><node id="-392" lat="30.316157" lon="-97.530909" changeset="false"><tag k="addr:street" v="Belfry Pass"/><tag k="addr:housenumber" v="18204"/></node><node id="-393" lat="30.317369" lon="-97.534381" changeset="false"><tag k="addr:street" v="Golden Valley Drive"/><tag k="addr:housenumber" v="17729"/></node><node id="-394" lat="30.317349" lon="-97.534209" changeset="false"><tag k="addr:street" v="Golden Valley Drive"/><tag k="addr:housenumber" v="17733"/></node><node id="-395" lat="30.317804" lon="-97.533617" changeset="false"><tag k="addr:street" v="Golden Valley Drive"/><tag k="addr:housenumber" v="17804"/></node><node id="-396" lat="30.317002" lon="-97.528094" changeset="false"><tag k="addr:street" v="Great Falls Drive"/><tag k="addr:housenumber" v="18825"/></node><node id="-397" lat="30.316266" lon="-97.528569" changeset="false"><tag k="addr:street" v="Great Falls Drive"/><tag k="addr:housenumber" v="18921"/></node><node id="-398" lat="30.316702" lon="-97.527779" changeset="false"><tag k="addr:street" v="Great Falls Drive"/><tag k="addr:housenumber" v="18900"/></node><node id="-399" lat="30.314715" lon="-97.529007" changeset="false"><tag k="addr:street" v="Great Falls Drive"/><tag k="addr:housenumber" v="19036"/></node><node id="-400" lat="30.314423" lon="-97.529748" changeset="false"><tag k="addr:street" v="Great Falls Drive"/><tag k="addr:housenumber" v="19113"/></node><node id="-401" lat="30.314304" lon="-97.529818" changeset="false"><tag k="addr:street" v="Great Falls Drive"/><tag k="addr:housenumber" v="19117"/></node><node id="-402" lat="30.314183" lon="-97.529903" changeset="false"><tag k="addr:street" v="Great Falls Drive"/><tag k="addr:housenumber" v="19121"/></node><node id="-403" lat="30.314046" lon="-97.529995" changeset="false"><tag k="addr:street" v="Great Falls Drive"/><tag k="addr:housenumber" v="19125"/></node><node id="-404" lat="30.314347" lon="-97.529259" changeset="false"><tag k="addr:street" v="Great Falls Drive"/><tag k="addr:housenumber" v="19108"/></node><node id="-405" lat="30.31423" lon="-97.529339" changeset="false"><tag k="addr:street" v="Great Falls Drive"/><tag k="addr:housenumber" v="19112"/></node><node id="-406" lat="30.313985" lon="-97.529482" changeset="false"><tag k="addr:street" v="Great Falls Drive"/><tag k="addr:housenumber" v="19120"/></node><node id="-407" lat="30.31998" lon="-97.525063" changeset="false"><tag k="addr:street" v="Great Falls Drive"/><tag k="addr:housenumber" v="18508"/></node><node id="-408" lat="30.318803" lon="-97.525755" changeset="false"><tag k="addr:street" v="Great Falls Drive"/><tag k="addr:housenumber" v="18600"/></node><node id="-409" lat="30.318538" lon="-97.525905" changeset="false"><tag k="addr:street" v="Great Falls Drive"/><tag k="addr:housenumber" v="18608"/></node><node id="-410" lat="30.295891" lon="-97.470807" changeset="false"><tag k="addr:street" v="Hog Eye Road"/><tag k="addr:housenumber" v="21900"/></node><node id="-411" lat="30.323253" lon="-97.527291" changeset="false"><tag k="addr:street" v="Great Valley Drive"/><tag k="addr:housenumber" v="18408"/></node><node id="-412" lat="30.319152" lon="-97.539925" changeset="false"><tag k="addr:street" v="Blake Manor Road"/><tag k="addr:housenumber" v="17522"/></node><node id="-413" lat="30.307764" lon="-97.470091" changeset="false"><tag k="addr:street" v="Hibbs Lane"/><tag k="addr:housenumber" v="11000"/></node><node id="-414" lat="30.317182" lon="-97.527452" changeset="false"><tag k="addr:street" v="Great Falls Drive"/><tag k="addr:housenumber" v="18812"/></node><node id="-415" lat="30.316522" lon="-97.528396" changeset="false"><tag k="addr:street" v="Great Falls Drive"/><tag k="addr:housenumber" v="18913"/></node><node id="-416" lat="30.316461" lon="-97.527922" changeset="false"><tag k="addr:street" v="Great Falls Drive"/><tag k="addr:housenumber" v="18908"/></node><node id="-417" lat="30.315756" lon="-97.528935" changeset="false"><tag k="addr:street" v="Great Falls Drive"/><tag k="addr:housenumber" v="19009"/></node><node id="-418" lat="30.315375" lon="-97.529127" changeset="false"><tag k="addr:street" v="Great Falls Drive"/><tag k="addr:housenumber" v="19021"/></node><node id="-419" lat="30.315022" lon="-97.529351" changeset="false"><tag k="addr:street" v="Great Falls Drive"/><tag k="addr:housenumber" v="19033"/></node><node id="-420" lat="30.315081" lon="-97.528801" changeset="false"><tag k="addr:street" v="Great Falls Drive"/><tag k="addr:housenumber" v="19024"/></node><node id="-421" lat="30.308282" lon="-97.507901" changeset="false"><tag k="addr:street" v="Lockwood Road,1100"/><tag k="addr:housenumber" v="19610"/></node><node id="-422" lat="30.31902" lon="-97.540631" changeset="false"><tag k="addr:street" v="Blake Manor Road"/><tag k="addr:housenumber" v="17518"/></node><node id="-423" lat="30.317768" lon="-97.533137" changeset="false"><tag k="addr:street" v="Golden Valley Drive"/><tag k="addr:housenumber" v="17816"/></node><node id="-424" lat="30.318654" lon="-97.525824" changeset="false"><tag k="addr:street" v="Great Falls Drive"/><tag k="addr:housenumber" v="18604"/></node><node id="-425" lat="30.300992" lon="-97.458427" changeset="false"><tag k="addr:street" v="Bitting School Road"/><tag k="addr:housenumber" v="10404"/></node><node id="-426" lat="30.305455" lon="-97.483777" changeset="false"><tag k="addr:street" v="Jones Road"/><tag k="addr:housenumber" v="10903"/></node><node id="-427" lat="30.321026" lon="-97.524516" changeset="false"><tag k="addr:street" v="Big Sky Drive"/><tag k="addr:housenumber" v="11825"/></node><node id="-428" lat="30.317128" lon="-97.52802" changeset="false"><tag k="addr:street" v="Great Falls Drive"/><tag k="addr:housenumber" v="18821"/></node><node id="-429" lat="30.317408" lon="-97.527307" changeset="false"><tag k="addr:street" v="Great Falls Drive"/><tag k="addr:housenumber" v="18804"/></node><node id="-430" lat="30.316816" lon="-97.527683" changeset="false"><tag k="addr:street" v="Great Falls Drive"/><tag k="addr:housenumber" v="18824"/></node><node id="-431" lat="30.315267" lon="-97.529203" changeset="false"><tag k="addr:street" v="Great Falls Drive"/><tag k="addr:housenumber" v="19025"/></node><node id="-432" lat="30.314542" lon="-97.529655" changeset="false"><tag k="addr:street" v="Great Falls Drive"/><tag k="addr:housenumber" v="19109"/></node><node id="-433" lat="30.314587" lon="-97.529093" changeset="false"><tag k="addr:street" v="Great Falls Drive"/><tag k="addr:housenumber" v="19100"/></node><node id="-434" lat="30.31447" lon="-97.529169" changeset="false"><tag k="addr:street" v="Great Falls Drive"/><tag k="addr:housenumber" v="19104"/></node><node id="-435" lat="30.321485" lon="-97.524258" changeset="false"><tag k="addr:street" v="Big Sky Drive"/><tag k="addr:housenumber" v="11905"/></node><node id="-436" lat="30.317243" lon="-97.532703" changeset="false"><tag k="addr:street" v="Golden Valley Drive"/><tag k="addr:housenumber" v="17825"/></node><node id="-437" lat="30.315217" lon="-97.530904" changeset="false"><tag k="addr:street" v="Belfry Pass"/><tag k="addr:housenumber" v="18109"/></node><node id="-438" lat="30.299776" lon="-97.488285" changeset="false"><tag k="addr:street" v="Hog Eye Road"/><tag k="addr:housenumber" v="20814"/></node><node id="-439" lat="30.31448" lon="-97.53681" changeset="false"><tag k="addr:street" v="Briarcreek Loop"/><tag k="addr:housenumber" v="11400"/></node><node id="-440" lat="30.318032" lon="-97.526552" changeset="false"><tag k="addr:street" v="Great Falls Drive"/><tag k="addr:housenumber" v="18700"/></node><node id="-441" lat="30.323767" lon="-97.528383" changeset="false"><tag k="addr:street" v="Briarcreek Loop"/><tag k="addr:housenumber" v="13000"/></node><node id="-442" lat="30.323557" lon="-97.527291" changeset="false"><tag k="addr:street" v="Great Valley Drive"/><tag k="addr:housenumber" v="18400"/></node><node id="-443" lat="30.314533" lon="-97.51495" changeset="false"><tag k="addr:street" v="Parsons Road"/><tag k="addr:housenumber" v="11401"/></node><node id="-444" lat="30.314191" lon="-97.517144" changeset="false"><tag k="addr:street" v="Parsons Road"/><tag k="addr:housenumber" v="11318"/></node><node id="-445" lat="30.309542" lon="-97.513245" changeset="false"><tag k="addr:street" v="Lockwood Road,1100"/><tag k="addr:housenumber" v="19218"/></node><node id="-446" lat="30.314449" lon="-97.446754" changeset="false"><tag k="addr:street" v="Bitting School Road"/><tag k="addr:housenumber" v="11411"/></node><node id="-447" lat="30.316113" lon="-97.536638" changeset="false"><tag k="addr:street" v="Briarcreek Loop"/><tag k="addr:housenumber" v="11604"/></node><node id="-448" lat="30.308072" lon="-97.533967" changeset="false"><tag k="addr:street" v="Blake Manor Road"/><tag k="addr:housenumber" v="18010"/></node><node id="-449" lat="30.320752" lon="-97.533711" changeset="false"><tag k="addr:street" v="Briarcreek Loop"/><tag k="addr:housenumber" v="12216"/></node><node id="-450" lat="30.322356" lon="-97.532849" changeset="false"><tag k="addr:street" v="Briarcreek Loop"/><tag k="addr:housenumber" v="12417"/></node><node id="-451" lat="30.318285" lon="-97.537573" changeset="false"><tag k="addr:street" v="Lima Drive"/><tag k="addr:housenumber" v="12008"/></node><node id="-452" lat="30.321948" lon="-97.528578" changeset="false"><tag k="addr:street" v="Briarcreek Loop"/><tag k="addr:housenumber" v="13120"/></node><node id="-453" lat="30.311834" lon="-97.534009" changeset="false"><tag k="addr:street" v="Flat Head Drive"/><tag k="addr:housenumber" v="18112"/></node><node id="-454" lat="30.311783" lon="-97.532209" changeset="false"><tag k="addr:street" v="Briarcreek Loop"/><tag k="addr:housenumber" v="14000"/></node><node id="-455" lat="30.311754" lon="-97.533861" changeset="false"><tag k="addr:street" v="Flat Head Drive"/><tag k="addr:housenumber" v="18108"/></node><node id="-456" lat="30.295559" lon="-97.472799" changeset="false"><tag k="addr:street" v="Hog Eye Road"/><tag k="addr:housenumber" v="21800"/></node><node id="-457" lat="30.314778" lon="-97.536711" changeset="false"><tag k="addr:street" v="Briarcreek Loop"/><tag k="addr:housenumber" v="11408"/></node><node id="-458" lat="30.31443" lon="-97.530272" changeset="false"><tag k="addr:street" v="Briarcreek Loop"/><tag k="addr:housenumber" v="13624"/></node><node id="-459" lat="30.314196" lon="-97.536977" changeset="false"><tag k="addr:street" v="Briarcreek Loop"/><tag k="addr:housenumber" v="11316"/></node><node id="-460" lat="30.285135" lon="-97.449267" changeset="false"><tag k="addr:street" v="Alicia Drive"/><tag k="addr:housenumber" v="23215"/></node><node id="-461" lat="30.284155" lon="-97.453873" changeset="false"><tag k="addr:street" v="Morin Drive"/><tag k="addr:housenumber" v="9110"/></node><node id="-462" lat="30.288332" lon="-97.448307" changeset="false"><tag k="addr:street" v="Ingram Drive"/><tag k="addr:housenumber" v="23319"/></node><node id="-463" lat="30.324601" lon="-97.529888" changeset="false"><tag k="addr:street" v="Briarcreek Loop"/><tag k="addr:housenumber" v="12812"/></node><node id="-464" lat="30.311131" lon="-97.534017" changeset="false"><tag k="addr:street" v="Briarcreek Loop"/><tag k="addr:housenumber" v="14117"/></node><node id="-465" lat="30.310976" lon="-97.533394" changeset="false"><tag k="addr:street" v="Briarcreek Loop"/><tag k="addr:housenumber" v="14112"/></node><node id="-466" lat="30.3169" lon="-97.528669" changeset="false"><tag k="addr:street" v="Briarcreek Loop"/><tag k="addr:housenumber" v="13420"/></node><node id="-467" lat="30.312197" lon="-97.532693" changeset="false"><tag k="addr:street" v="Briarcreek Loop"/><tag k="addr:housenumber" v="14005"/></node><node id="-468" lat="30.311891" lon="-97.531923" changeset="false"><tag k="addr:street" v="Briarcreek Loop"/><tag k="addr:housenumber" v="13924"/></node><node id="-469" lat="30.315138" lon="-97.534732" changeset="false"><tag k="addr:street" v="Cutback Drive"/><tag k="addr:housenumber" v="17909"/></node><node id="-470" lat="30.309978" lon="-97.534057" changeset="false"><tag k="addr:street" v="Briarcreek Loop"/><tag k="addr:housenumber" v="14212"/></node><node id="-471" lat="30.324593" lon="-97.530058" changeset="false"><tag k="addr:street" v="Briarcreek Loop"/><tag k="addr:housenumber" v="12808"/></node><node id="-472" lat="30.324442" lon="-97.529014" changeset="false"><tag k="addr:street" v="Briarcreek Loop"/><tag k="addr:housenumber" v="12900"/></node><node id="-473" lat="30.32423" lon="-97.529616" changeset="false"><tag k="addr:street" v="Briarcreek Loop"/><tag k="addr:housenumber" v="12817"/></node><node id="-474" lat="30.299384" lon="-97.461038" changeset="false"><tag k="addr:street" v="Bitting School Road"/><tag k="addr:housenumber" v="10212"/></node><node id="-475" lat="30.298282" lon="-97.460485" changeset="false"><tag k="addr:street" v="Bitting School Road"/><tag k="addr:housenumber" v="10200"/></node><node id="-476" lat="30.302311" lon="-97.495004" changeset="false"><tag k="addr:street" v="Lockwood Road,1100"/><tag k="addr:housenumber" v="20406"/></node><node id="-477" lat="30.32364" lon="-97.527724" changeset="false"><tag k="addr:street" v="Great Valley Drive"/><tag k="addr:housenumber" v="18337"/></node><node id="-478" lat="30.287748" lon="-97.459496" changeset="false"><tag k="addr:street" v="Hog Eye Road"/><tag k="addr:housenumber" v="22518"/></node><node id="-479" lat="30.316532" lon="-97.536602" changeset="false"><tag k="addr:street" v="Briarcreek Loop"/><tag k="addr:housenumber" v="11616"/></node><node id="-480" lat="30.320718" lon="-97.432178" changeset="false"><tag k="addr:street" v="Littig Road"/><tag k="addr:housenumber" v="18901"/></node><node id="-481" lat="30.318972" lon="-97.529041" changeset="false"><tag k="addr:street" v="Briarcreek Loop"/><tag k="addr:housenumber" v="13316"/></node><node id="-482" lat="30.318292" lon="-97.537214" changeset="false"><tag k="addr:street" v="Lima Drive"/><tag k="addr:housenumber" v="12016"/></node><node id="-483" lat="30.305306" lon="-97.492036" changeset="false"><tag k="addr:street" v="Jones Road"/><tag k="addr:housenumber" v="10610"/></node><node id="-484" lat="30.315415" lon="-97.530331" changeset="false"><tag k="addr:street" v="Briarcreek Loop"/><tag k="addr:housenumber" v="13601"/></node><node id="-485" lat="30.315281" lon="-97.529719" changeset="false"><tag k="addr:street" v="Briarcreek Loop"/><tag k="addr:housenumber" v="13528"/></node><node id="-486" lat="30.316011" lon="-97.444553" changeset="false"><tag k="addr:street" v="Bitting School Road"/><tag k="addr:housenumber" v="11601"/></node><node id="-487" lat="30.313077" lon="-97.484387" changeset="false"><tag k="addr:street" v="Jones Road"/><tag k="addr:housenumber" v="11308"/></node><node id="-488" lat="30.313596" lon="-97.531215" changeset="false"><tag k="addr:street" v="Briarcreek Loop"/><tag k="addr:housenumber" v="13717"/></node><node id="-489" lat="30.323413" lon="-97.527287" changeset="false"><tag k="addr:street" v="Great Valley Drive"/><tag k="addr:housenumber" v="18404"/></node><node id="-490" lat="30.315377" lon="-97.534285" changeset="false"><tag k="addr:street" v="Cutback Drive"/><tag k="addr:housenumber" v="17908"/></node><node id="-491" lat="30.319703" lon="-97.430583" changeset="false"><tag k="addr:street" v="Maize Lane"/><tag k="addr:housenumber" v="11715"/></node><node id="-492" lat="30.311546" lon="-97.532831" changeset="false"><tag k="addr:street" v="Briarcreek Loop"/><tag k="addr:housenumber" v="14016"/></node><node id="-493" lat="30.31144" lon="-97.532947" changeset="false"><tag k="addr:street" v="Briarcreek Loop"/><tag k="addr:housenumber" v="14020"/></node><node id="-494" lat="30.310729" lon="-97.533545" changeset="false"><tag k="addr:street" v="Briarcreek Loop"/><tag k="addr:housenumber" v="14120"/></node><node id="-495" lat="30.308515" lon="-97.535099" changeset="false"><tag k="addr:street" v="Briarcreek Loop"/><tag k="addr:housenumber" v="14408"/></node><node id="-496" lat="30.305954" lon="-97.531119" changeset="false"><tag k="addr:street" v="Blake Manor Road"/><tag k="addr:housenumber" v="18106"/></node><node id="-497" lat="30.286504" lon="-97.450708" changeset="false"><tag k="addr:street" v="Morin Drive"/><tag k="addr:housenumber" v="9317"/></node><node id="-498" lat="30.316577" lon="-97.537989" changeset="false"><tag k="addr:street" v="Lima Drive"/><tag k="addr:housenumber" v="11817"/></node><node id="-499" lat="30.323932" lon="-97.532216" changeset="false"><tag k="addr:street" v="Briarcreek Loop"/><tag k="addr:housenumber" v="12600"/></node><node id="-500" lat="30.324179" lon="-97.529438" changeset="false"><tag k="addr:street" v="Briarcreek Loop"/><tag k="addr:housenumber" v="12821"/></node><node id="-501" lat="30.323485" lon="-97.528271" changeset="false"><tag k="addr:street" v="Briarcreek Loop"/><tag k="addr:housenumber" v="13008"/></node><node id="-502" lat="30.324098" lon="-97.531946" changeset="false"><tag k="addr:street" v="Briarcreek Loop"/><tag k="addr:housenumber" v="12608"/></node><node id="-503" lat="30.29054" lon="-97.450118" changeset="false"><tag k="addr:street" v="Ingram Drive"/><tag k="addr:housenumber" v="23208"/></node><node id="-504" lat="30.316686" lon="-97.536588" changeset="false"><tag k="addr:street" v="Briarcreek Loop"/><tag k="addr:housenumber" v="11620"/></node><node id="-505" lat="30.315921" lon="-97.535474" changeset="false"><tag k="addr:street" v="Cutback Drive"/><tag k="addr:housenumber" v="17716"/></node><node id="-506" lat="30.315037" lon="-97.529883" changeset="false"><tag k="addr:street" v="Briarcreek Loop"/><tag k="addr:housenumber" v="13604"/></node><node id="-507" lat="30.321269" lon="-97.532322" changeset="false"><tag k="addr:street" v="Powder Creek Drive"/><tag k="addr:housenumber" v="17720"/></node><node id="-508" lat="30.311955" lon="-97.485159" changeset="false"><tag k="addr:street" v="Jones Road"/><tag k="addr:housenumber" v="11222"/></node><node id="-509" lat="30.320462" lon="-97.528612" changeset="false"><tag k="addr:street" v="Briarcreek Loop"/><tag k="addr:housenumber" v="13208"/></node><node id="-510" lat="30.314309" lon="-97.536239" changeset="false"><tag k="addr:street" v="Briarcreek Loop"/><tag k="addr:housenumber" v="11405"/></node><node id="-511" lat="30.285465" lon="-97.451066" changeset="false"><tag k="addr:street" v="Alicia Drive"/><tag k="addr:housenumber" v="23109"/></node><node id="-512" lat="30.312055" lon="-97.531435" changeset="false"><tag k="addr:street" v="Briarcreek Loop"/><tag k="addr:housenumber" v="13912"/></node><node id="-513" lat="30.311692" lon="-97.532519" changeset="false"><tag k="addr:street" v="Briarcreek Loop"/><tag k="addr:housenumber" v="14008"/></node><node id="-514" lat="30.31317" lon="-97.536027" changeset="false"><tag k="addr:street" v="Hungry Horse Drive"/><tag k="addr:housenumber" v="11313"/></node><node id="-515" lat="30.311094" lon="-97.533315" changeset="false"><tag k="addr:street" v="Briarcreek Loop"/><tag k="addr:housenumber" v="14108"/></node><node id="-516" lat="30.324705" lon="-97.527908" changeset="false"><tag k="addr:street" v="Great Valley Drive"/><tag k="addr:housenumber" v="18308"/></node><node id="-517" lat="30.324241" lon="-97.527491" changeset="false"><tag k="addr:street" v="Great Valley Drive"/><tag k="addr:housenumber" v="18324"/></node><node id="-518" lat="30.315736" lon="-97.515847" changeset="false"><tag k="addr:street" v="Parsons Road"/><tag k="addr:housenumber" v="11500"/></node><node id="-519" lat="30.31545" lon="-97.516509" changeset="false"><tag k="addr:street" v="Parsons Road"/><tag k="addr:housenumber" v="11404"/></node><node id="-520" lat="30.313854" lon="-97.535923" changeset="false"><tag k="addr:street" v="Hungry Horse Drive"/><tag k="addr:housenumber" v="11332"/></node><node id="-521" lat="30.304191" lon="-97.500055" changeset="false"><tag k="addr:street" v="Lockwood Road,1100"/><tag k="addr:housenumber" v="20100"/></node><node id="-522" lat="30.308378" lon="-97.511858" changeset="false"><tag k="addr:street" v="Lockwood Road,1100"/><tag k="addr:housenumber" v="19306"/></node><node id="-523" lat="30.311907" lon="-97.534151" changeset="false"><tag k="addr:street" v="Flat Head Drive"/><tag k="addr:housenumber" v="18116"/></node><node id="-524" lat="30.308862" lon="-97.534855" changeset="false"><tag k="addr:street" v="Briarcreek Loop"/><tag k="addr:housenumber" v="14316"/></node><node id="-525" lat="30.316256" lon="-97.529801" changeset="false"><tag k="addr:street" v="Briarcreek Loop"/><tag k="addr:housenumber" v="13505"/></node><node id="-526" lat="30.315911" lon="-97.535168" changeset="false"><tag k="addr:street" v="Cutback Drive"/><tag k="addr:housenumber" v="17804"/></node><node id="-527" lat="30.322893" lon="-97.532506" changeset="false"><tag k="addr:street" v="Briarcreek Loop"/><tag k="addr:housenumber" v="12501"/></node><node id="-528" lat="30.322632" lon="-97.528224" changeset="false"><tag k="addr:street" v="Great Valley Drive"/><tag k="addr:housenumber" v="18436"/></node><node id="-529" lat="30.289031" lon="-97.447841" changeset="false"><tag k="addr:street" v="Ingram Drive"/><tag k="addr:housenumber" v="23318"/></node><node id="-530" lat="30.320843" lon="-97.532287" changeset="false"><tag k="addr:street" v="Powder Creek Drive"/><tag k="addr:housenumber" v="17804"/></node><node id="-531" lat="30.318828" lon="-97.528979" changeset="false"><tag k="addr:street" v="Briarcreek Loop"/><tag k="addr:housenumber" v="13320"/></node><node id="-532" lat="30.318668" lon="-97.534491" changeset="false"><tag k="addr:street" v="Briarcreek Loop"/><tag k="addr:housenumber" v="12001"/></node><node id="-533" lat="30.319135" lon="-97.52905" changeset="false"><tag k="addr:street" v="Briarcreek Loop"/><tag k="addr:housenumber" v="13312"/></node><node id="-534" lat="30.319034" lon="-97.52964" changeset="false"><tag k="addr:street" v="Briarcreek Loop"/><tag k="addr:housenumber" v="13317"/></node><node id="-535" lat="30.322026" lon="-97.533618" changeset="false"><tag k="addr:street" v="Briarcreek Loop"/><tag k="addr:housenumber" v="12400"/></node><node id="-536" lat="30.321573" lon="-97.532745" changeset="false"><tag k="addr:street" v="Powder Creek Drive"/><tag k="addr:housenumber" v="17717"/></node><node id="-537" lat="30.311619" lon="-97.532672" changeset="false"><tag k="addr:street" v="Briarcreek Loop"/><tag k="addr:housenumber" v="14012"/></node><node id="-538" lat="30.306671" lon="-97.531938" changeset="false"><tag k="addr:street" v="Blake Manor Road"/><tag k="addr:housenumber" v="18020"/></node><node id="-539" lat="30.313995" lon="-97.537295" changeset="false"><tag k="addr:street" v="Briarcreek Loop"/><tag k="addr:housenumber" v="11308"/></node><node id="-540" lat="30.313939" lon="-97.537421" changeset="false"><tag k="addr:street" v="Briarcreek Loop"/><tag k="addr:housenumber" v="11304"/></node><node id="-541" lat="30.283219" lon="-97.454066" changeset="false"><tag k="addr:street" v="Morin Drive"/><tag k="addr:housenumber" v="9100"/></node><node id="-542" lat="30.317306" lon="-97.536364" changeset="false"><tag k="addr:street" v="Briarcreek Loop"/><tag k="addr:housenumber" v="11712"/></node><node id="-543" lat="30.314857" lon="-97.531605" changeset="false"><tag k="addr:street" v="Belfry Pass"/><tag k="addr:housenumber" v="18024"/></node><node id="-544" lat="30.289759" lon="-97.449374" changeset="false"><tag k="addr:street" v="Ingram Drive"/><tag k="addr:housenumber" v="23300"/></node><node id="-545" lat="30.28854" lon="-97.449244" changeset="false"><tag k="addr:street" v="Ingram Drive"/><tag k="addr:housenumber" v="23307"/></node><node id="-546" lat="30.289814" lon="-97.460539" changeset="false"><tag k="addr:street" v="Hog Eye Road"/><tag k="addr:housenumber" v="22440"/></node><node id="-547" lat="30.297315" lon="-97.461407" changeset="false"><tag k="addr:street" v="Bitting School Road"/><tag k="addr:housenumber" v="10100"/></node><node id="-548" lat="30.312462" lon="-97.530888" changeset="false"><tag k="addr:street" v="Briarcreek Loop"/><tag k="addr:housenumber" v="13824"/></node><node id="-549" lat="30.301387" lon="-97.528275" changeset="false"><tag k="addr:street" v="Blake Manor Road"/><tag k="addr:housenumber" v="18312"/></node><node id="-550" lat="30.315996" lon="-97.529233" changeset="false"><tag k="addr:street" v="Briarcreek Loop"/><tag k="addr:housenumber" v="13504"/></node><node id="-551" lat="30.320165" lon="-97.533111" changeset="false"><tag k="addr:street" v="Briarcreek Loop"/><tag k="addr:housenumber" v="12205"/></node><node id="-552" lat="30.315907" lon="-97.534996" changeset="false"><tag k="addr:street" v="Cutback Drive"/><tag k="addr:housenumber" v="17808"/></node><node id="-553" lat="30.315156" lon="-97.529798" changeset="false"><tag k="addr:street" v="Briarcreek Loop"/><tag k="addr:housenumber" v="13600"/></node><node id="-554" lat="30.316781" lon="-97.530536" changeset="false"><tag k="addr:street" v="Belfry Pass"/><tag k="addr:housenumber" v="18224"/></node><node id="-555" lat="30.315824" lon="-97.530525" changeset="false"><tag k="addr:street" v="Belfry Pass"/><tag k="addr:housenumber" v="18201"/></node><node id="-556" lat="30.316298" lon="-97.530189" changeset="false"><tag k="addr:street" v="Belfry Pass"/><tag k="addr:housenumber" v="18217"/></node><node id="-557" lat="30.316414" lon="-97.530102" changeset="false"><tag k="addr:street" v="Belfry Pass"/><tag k="addr:housenumber" v="18221"/></node><node id="-558" lat="30.319522" lon="-97.529626" changeset="false"><tag k="addr:street" v="Briarcreek Loop"/><tag k="addr:housenumber" v="13305"/></node><node id="-559" lat="30.321807" lon="-97.532066" changeset="false"><tag k="addr:street" v="Powder Creek Drive"/><tag k="addr:housenumber" v="17704"/></node><node id="-560" lat="30.321567" lon="-97.53324" changeset="false"><tag k="addr:street" v="Briarcreek Loop"/><tag k="addr:housenumber" v="12313"/></node><node id="-561" lat="30.321287" lon="-97.532811" changeset="false"><tag k="addr:street" v="Powder Creek Drive"/><tag k="addr:housenumber" v="17725"/></node><node id="-562" lat="30.316364" lon="-97.446288" changeset="false"><tag k="addr:street" v="Bitting School Road"/><tag k="addr:housenumber" v="11512"/></node><node id="-563" lat="30.31881" lon="-97.436452" changeset="false"><tag k="addr:street" v="Littig Road"/><tag k="addr:housenumber" v="18713"/></node><node id="-564" lat="30.321329" lon="-97.52734" changeset="false"><tag k="addr:street" v="Great Falls Drive"/><tag k="addr:housenumber" v="18332"/></node><node id="-565" lat="30.319707" lon="-97.525864" changeset="false"><tag k="addr:street" v="Great Falls Drive"/><tag k="addr:housenumber" v="18521"/></node><node id="-566" lat="30.319456" lon="-97.525388" changeset="false"><tag k="addr:street" v="Great Falls Drive"/><tag k="addr:housenumber" v="18524"/></node><node id="-567" lat="30.319213" lon="-97.52555" changeset="false"><tag k="addr:street" v="Great Falls Drive"/><tag k="addr:housenumber" v="18532"/></node><node id="-568" lat="30.31908" lon="-97.525624" changeset="false"><tag k="addr:street" v="Great Falls Drive"/><tag k="addr:housenumber" v="18536"/></node><node id="-569" lat="30.318416" lon="-97.525953" changeset="false"><tag k="addr:street" v="Great Falls Drive"/><tag k="addr:housenumber" v="18612"/></node><node id="-570" lat="30.317052" lon="-97.529275" changeset="false"><tag k="addr:street" v="Briarcreek Loop"/><tag k="addr:housenumber" v="13425"/></node><node id="-571" lat="30.318006" lon="-97.536592" changeset="false"><tag k="addr:street" v="Lima Drive"/><tag k="addr:housenumber" v="12100"/></node><node id="-572" lat="30.313586" lon="-97.53561" changeset="false"><tag k="addr:street" v="Hungry Horse Drive"/><tag k="addr:housenumber" v="11329"/></node><node id="-573" lat="30.316783" lon="-97.528733" changeset="false"><tag k="addr:street" v="Briarcreek Loop"/><tag k="addr:housenumber" v="13424"/></node><node id="-574" lat="30.312133" lon="-97.531276" changeset="false"><tag k="addr:street" v="Briarcreek Loop"/><tag k="addr:housenumber" v="13908"/></node><node id="-575" lat="30.311999" lon="-97.5316" changeset="false"><tag k="addr:street" v="Briarcreek Loop"/><tag k="addr:housenumber" v="13916"/></node><node id="-576" lat="30.311233" lon="-97.533951" changeset="false"><tag k="addr:street" v="Briarcreek Loop"/><tag k="addr:housenumber" v="14113"/></node><node id="-577" lat="30.308986" lon="-97.534776" changeset="false"><tag k="addr:street" v="Briarcreek Loop"/><tag k="addr:housenumber" v="14312"/></node><node id="-578" lat="30.315251" lon="-97.531464" changeset="false"><tag k="addr:street" v="Belfry Pass"/><tag k="addr:housenumber" v="18104"/></node><node id="-579" lat="30.320692" lon="-97.527145" changeset="false"><tag k="addr:street" v="Great Falls Drive"/><tag k="addr:housenumber" v="18401"/></node><node id="-580" lat="30.320772" lon="-97.524653" changeset="false"><tag k="addr:street" v="Big Sky Drive"/><tag k="addr:housenumber" v="11817"/></node><node id="-581" lat="30.319672" lon="-97.532679" changeset="false"><tag k="addr:street" v="Powder Creek Drive"/><tag k="addr:housenumber" v="17909"/></node></osm>