<?xml version="1.0" encoding="UTF-8"?><osm version="0.6" generator="github.com/aaronlidman/osm-and-geojson"><node id="-1" lat="30.511906" lon="-97.726115" changeset="false"><tag k="addr:street" v="Priest River Drive"/><tag k="addr:housenumber" v="8305"/><tag k="addr:postcode" v="78681"/></node><node id="-2" lat="30.513991" lon="-97.734045" changeset="false"><tag k="addr:street" v="Hillside Drive"/><tag k="addr:housenumber" v="17323"/><tag k="addr:postcode" v="78681"/></node><node id="-3" lat="30.509678" lon="-97.723847" changeset="false"><tag k="addr:street" v="Overland Street"/><tag k="addr:housenumber" v="8121"/><tag k="addr:postcode" v="78681"/></node><node id="-4" lat="30.508021" lon="-97.724472" changeset="false"><tag k="addr:street" v="Cutaway Cove"/><tag k="addr:housenumber" v="8103"/><tag k="addr:postcode" v="78681"/></node><node id="-5" lat="30.509982" lon="-97.725668" changeset="false"><tag k="addr:street" v="Freemont Circle"/><tag k="addr:housenumber" v="8207"/><tag k="addr:postcode" v="78681"/></node><node id="-6" lat="30.515389" lon="-97.734239" changeset="false"><tag k="addr:street" v="Great Oaks Drive"/><tag k="addr:housenumber" v="17315"/><tag k="addr:postcode" v="78681"/></node><node id="-7" lat="30.508703" lon="-97.725462" changeset="false"><tag k="addr:street" v="Cutaway Cove"/><tag k="addr:housenumber" v="8114"/><tag k="addr:postcode" v="78681"/></node><node id="-8" lat="30.509797" lon="-97.724848" changeset="false"><tag k="addr:street" v="Overland Street"/><tag k="addr:housenumber" v="8128"/><tag k="addr:postcode" v="78681"/></node><node id="-9" lat="30.508465" lon="-97.727297" changeset="false"><tag k="addr:street" v="Liberty Walk Drive"/><tag k="addr:housenumber" v="8301"/><tag k="addr:postcode" v="78681"/></node><node id="-10" lat="30.51614" lon="-97.733605" changeset="false"><tag k="addr:street" v="Great Oaks Drive"/><tag k="addr:housenumber" v="17405"/><tag k="addr:postcode" v="78681"/></node><node id="-11" lat="30.508052" lon="-97.724629" changeset="false"><tag k="addr:street" v="Cutaway Cove"/><tag k="addr:housenumber" v="8105"/><tag k="addr:postcode" v="78681"/></node><node id="-12" lat="30.510597" lon="-97.730414" changeset="false"><tag k="addr:street" v="Priest River Drive"/><tag k="addr:housenumber" v="8511"/><tag k="addr:postcode" v="78681"/></node><node id="-13" lat="30.514183" lon="-97.734359" changeset="false"><tag k="addr:street" v="Hillside Drive"/><tag k="addr:housenumber" v="17327"/><tag k="addr:postcode" v="78681"/></node><node id="-14" lat="30.508047" lon="-97.724222" changeset="false"><tag k="addr:street" v="Cutaway Cove"/><tag k="addr:housenumber" v="8101"/><tag k="addr:postcode" v="78681"/></node><node id="-15" lat="30.514811" lon="-97.734792" changeset="false"><tag k="addr:street" v="Great Oaks Drive"/><tag k="addr:housenumber" v="17305"/><tag k="addr:postcode" v="78681"/></node><node id="-16" lat="30.516856" lon="-97.73342" changeset="false"><tag k="addr:street" v="Great Oaks Drive"/><tag k="addr:housenumber" v="17503"/><tag k="addr:postcode" v="78681"/></node></osm>