<?xml version="1.0" encoding="UTF-8"?><osm version="0.6" generator="github.com/aaronlidman/osm-and-geojson"><node id="-1" lat="30.325067" lon="-97.722001" changeset="false"><tag k="addr:street" v="Guadalupe Street"/><tag k="addr:housenumber" v="5807"/><tag k="addr:postcode" v="78752"/></node><node id="-2" lat="30.334711" lon="-97.719903" changeset="false"><tag k="addr:street" v="Shirley Avenue"/><tag k="addr:housenumber" v="6720"/><tag k="addr:postcode" v="78752"/></node><node id="-3" lat="30.331649" lon="-97.716685" changeset="false"><tag k="addr:street" v="Canion Street"/><tag k="addr:housenumber" v="308"/><tag k="addr:postcode" v="78752"/></node><node id="-4" lat="30.336128" lon="-97.71951" changeset="false"><tag k="addr:street" v="North Lamar Boulevard"/><tag k="addr:housenumber" v="6817"/><tag k="addr:postcode" v="78752"/></node><node id="-5" lat="30.328218" lon="-97.724504" changeset="false"><tag k="addr:street" v="North Lamar Boulevard"/><tag k="addr:housenumber" v="5917"/><tag k="addr:postcode" v="78752"/></node><node id="-6" lat="30.336032" lon="-97.718843" changeset="false"><tag k="addr:street" v="Shirley Avenue"/><tag k="addr:housenumber" v="6908"/><tag k="addr:postcode" v="78752"/></node><node id="-7" lat="30.333879" lon="-97.718337" changeset="false"><tag k="addr:street" v="Canion Street"/><tag k="addr:housenumber" v="609"/><tag k="addr:postcode" v="78752"/></node><node id="-8" lat="30.326361" lon="-97.719229" changeset="false"><tag k="addr:street" v="Dillard Circle"/><tag k="addr:housenumber" v="5901"/><tag k="addr:postcode" v="78752"/></node><node id="-9" lat="30.321012" lon="-97.714854" changeset="false"><tag k="addr:street" v="East Koenig Lane"/><tag k="addr:housenumber" v="614"/><tag k="addr:postcode" v="78752"/></node><node id="-10" lat="30.326844" lon="-97.71655" changeset="false"><tag k="addr:street" v="Denson Drive"/><tag k="addr:housenumber" v="101"/><tag k="addr:postcode" v="78752"/></node><node id="-11" lat="30.330986" lon="-97.716814" changeset="false"><tag k="addr:street" v="Chesterfield Avenue"/><tag k="addr:housenumber" v="6506"/><tag k="addr:postcode" v="78752"/></node><node id="-12" lat="30.329509" lon="-97.72105" changeset="false"><tag k="addr:street" v="Denson Drive"/><tag k="addr:housenumber" v="610"/><tag k="addr:postcode" v="78752"/></node><node id="-13" lat="30.332539" lon="-97.717694" changeset="false"><tag k="addr:street" v="Guadalupe Street"/><tag k="addr:housenumber" v="6607"/><tag k="addr:postcode" v="78752"/></node><node id="-14" lat="30.323636" lon="-97.723568" changeset="false"><tag k="addr:street" v="Guadalupe Street"/><tag k="addr:housenumber" v="5601 1/2"/><tag k="addr:postcode" v="78752"/></node><node id="-15" lat="30.322076" lon="-97.718601" changeset="false"><tag k="addr:street" v="East Koenig Lane"/><tag k="addr:housenumber" v="110 1/2"/><tag k="addr:postcode" v="78752"/></node><node id="-16" lat="30.323939" lon="-97.723962" changeset="false"><tag k="addr:street" v="West Koenig Lane"/><tag k="addr:housenumber" v="600"/><tag k="addr:postcode" v="78752"/></node><node id="-17" lat="30.333935" lon="-97.717132" changeset="false"><tag k="addr:street" v="Airport Boulevard"/><tag k="addr:housenumber" v="6800"/><tag k="addr:postcode" v="78752"/></node><node id="-18" lat="30.334779" lon="-97.719636" changeset="false"><tag k="addr:street" v="Shirley Avenue"/><tag k="addr:housenumber" v="6726"/><tag k="addr:postcode" v="78752"/></node><node id="-19" lat="30.33003" lon="-97.719557" changeset="false"><tag k="addr:street" v="Guadalupe Street"/><tag k="addr:housenumber" v="6303"/><tag k="addr:postcode" v="78752"/></node><node id="-20" lat="30.334833" lon="-97.719822" changeset="false"><tag k="addr:street" v="Shirley Avenue"/><tag k="addr:housenumber" v="6722"/><tag k="addr:postcode" v="78752"/></node><node id="-21" lat="30.332259" lon="-97.717429" changeset="false"><tag k="addr:street" v="Canion Street"/><tag k="addr:housenumber" v="503"/><tag k="addr:postcode" v="78752"/></node><node id="-22" lat="30.333563" lon="-97.718069" changeset="false"><tag k="addr:street" v="Canion Street"/><tag k="addr:housenumber" v="605"/><tag k="addr:postcode" v="78752"/></node><node id="-23" lat="30.331126" lon="-97.722386" changeset="false"><tag k="addr:street" v="Lamar Place"/><tag k="addr:housenumber" v="721"/><tag k="addr:postcode" v="78752"/></node><node id="-24" lat="30.325648" lon="-97.722002" changeset="false"><tag k="addr:street" v="Guadalupe Street"/><tag k="addr:housenumber" v="5806"/><tag k="addr:postcode" v="78752"/></node><node id="-25" lat="30.326883" lon="-97.716941" changeset="false"><tag k="addr:street" v="Denson Drive"/><tag k="addr:housenumber" v="107"/><tag k="addr:postcode" v="78752"/></node><node id="-26" lat="30.333328" lon="-97.718367" changeset="false"><tag k="addr:street" v="Gaylor Street"/><tag k="addr:housenumber" v="606"/><tag k="addr:postcode" v="78752"/></node><node id="-27" lat="30.324029" lon="-97.71578" changeset="false"><tag k="addr:street" v="Airport Boulevard"/><tag k="addr:housenumber" v="5906"/><tag k="addr:postcode" v="78752"/></node><node id="-28" lat="30.334286" lon="-97.720842" changeset="false"><tag k="addr:street" v="North Lamar Boulevard"/><tag k="addr:housenumber" v="6609"/><tag k="addr:postcode" v="78752"/></node><node id="-29" lat="30.33198" lon="-97.716866" changeset="false"><tag k="addr:street" v="Canion Street"/><tag k="addr:housenumber" v="314"/><tag k="addr:postcode" v="78752"/></node><node id="-30" lat="30.329278" lon="-97.720913" changeset="false"><tag k="addr:street" v="Denson Drive"/><tag k="addr:housenumber" v="608"/><tag k="addr:postcode" v="78752"/></node><node id="-31" lat="30.324201" lon="-97.716034" changeset="false"><tag k="addr:street" v="Airport Boulevard"/><tag k="addr:housenumber" v="5908"/><tag k="addr:postcode" v="78752"/></node><node id="-32" lat="30.327404" lon="-97.71771" changeset="false"><tag k="addr:street" v="Denson Drive"/><tag k="addr:housenumber" v="109"/><tag k="addr:postcode" v="78752"/></node><node id="-33" lat="30.3305" lon="-97.723142" changeset="false"><tag k="addr:street" v="North Lamar Boulevard"/><tag k="addr:housenumber" v="6205"/><tag k="addr:postcode" v="78752"/></node><node id="-34" lat="30.331861" lon="-97.72127" changeset="false"><tag k="addr:street" v="Burns Street"/><tag k="addr:housenumber" v="6408"/><tag k="addr:postcode" v="78752"/></node><node id="-35" lat="30.331402" lon="-97.721019" changeset="false"><tag k="addr:street" v="Burns Street"/><tag k="addr:housenumber" v="6401"/><tag k="addr:postcode" v="78752"/></node><node id="-36" lat="30.331761" lon="-97.716757" changeset="false"><tag k="addr:street" v="Canion Street"/><tag k="addr:housenumber" v="310"/><tag k="addr:postcode" v="78752"/></node><node id="-37" lat="30.320765" lon="-97.71589" changeset="false"><tag k="addr:street" v="East Koenig Lane"/><tag k="addr:housenumber" v="404"/><tag k="addr:postcode" v="78752"/></node><node id="-38" lat="30.331697" lon="-97.720763" changeset="false"><tag k="addr:street" v="Burns Street"/><tag k="addr:housenumber" v="6409"/><tag k="addr:postcode" v="78752"/></node><node id="-39" lat="30.327911" lon="-97.718072" changeset="false"><tag k="addr:street" v="Denson Drive"/><tag k="addr:housenumber" v="208"/><tag k="addr:postcode" v="78752"/></node><node id="-40" lat="30.325624" lon="-97.717935" changeset="false"><tag k="addr:street" v="Dillard Circle"/><tag k="addr:housenumber" v="5925"/><tag k="addr:postcode" v="78752"/></node><node id="-41" lat="30.325378" lon="-97.716854" changeset="false"><tag k="addr:street" v="Dillard Circle"/><tag k="addr:housenumber" v="6003 1/2"/><tag k="addr:postcode" v="78752"/></node><node id="-42" lat="30.326083" lon="-97.717574" changeset="false"><tag k="addr:street" v="Dillard Circle"/><tag k="addr:housenumber" v="6016"/><tag k="addr:postcode" v="78752"/></node><node id="-43" lat="30.329167" lon="-97.720677" changeset="false"><tag k="addr:street" v="Denson Drive"/><tag k="addr:housenumber" v="604"/><tag k="addr:postcode" v="78752"/></node><node id="-44" lat="30.327938" lon="-97.718983" changeset="false"><tag k="addr:street" v="Denson Drive"/><tag k="addr:housenumber" v="301"/><tag k="addr:postcode" v="78752"/></node><node id="-45" lat="30.33188" lon="-97.716808" changeset="false"><tag k="addr:street" v="Canion Street"/><tag k="addr:housenumber" v="312"/><tag k="addr:postcode" v="78752"/></node><node id="-46" lat="30.329222" lon="-97.720795" changeset="false"><tag k="addr:street" v="Denson Drive"/><tag k="addr:housenumber" v="606"/><tag k="addr:postcode" v="78752"/></node><node id="-47" lat="30.329723" lon="-97.717082" changeset="false"><tag k="addr:street" v="Chesterfield Avenue"/><tag k="addr:housenumber" v="6405"/><tag k="addr:postcode" v="78752"/></node><node id="-48" lat="30.333817" lon="-97.717736" changeset="false"><tag k="addr:street" v="Canion Street"/><tag k="addr:housenumber" v="612"/><tag k="addr:postcode" v="78752"/></node><node id="-49" lat="30.333717" lon="-97.718184" changeset="false"><tag k="addr:street" v="Canion Street"/><tag k="addr:housenumber" v="607"/><tag k="addr:postcode" v="78752"/></node><node id="-50" lat="30.322674" lon="-97.719566" changeset="false"><tag k="addr:street" v="Link Avenue"/><tag k="addr:housenumber" v="5700 1/2"/><tag k="addr:postcode" v="78752"/></node><node id="-51" lat="30.333686" lon="-97.720785" changeset="false"><tag k="addr:street" v="Brentwood Street"/><tag k="addr:housenumber" v="706"/><tag k="addr:postcode" v="78752"/></node><node id="-52" lat="30.333821" lon="-97.721186" changeset="false"><tag k="addr:street" v="North Lamar Boulevard"/><tag k="addr:housenumber" v="6541"/><tag k="addr:postcode" v="78752"/></node><node id="-53" lat="30.320643" lon="-97.714715" changeset="false"><tag k="addr:street" v="East Koenig Lane"/><tag k="addr:housenumber" v="614 1/2"/><tag k="addr:postcode" v="78752"/></node><node id="-54" lat="30.331007" lon="-97.716865" changeset="false"><tag k="addr:street" v="Brentwood Street"/><tag k="addr:housenumber" v="301"/><tag k="addr:postcode" v="78752"/></node><node id="-55" lat="30.332196" lon="-97.717445" changeset="false"><tag k="addr:street" v="Canion Street"/><tag k="addr:housenumber" v="501"/><tag k="addr:postcode" v="78752"/></node><node id="-56" lat="30.330147" lon="-97.719409" changeset="false"><tag k="addr:street" v="Wilmes Drive"/><tag k="addr:housenumber" v="505"/><tag k="addr:postcode" v="78752"/></node><node id="-57" lat="30.329299" lon="-97.720555" changeset="false"><tag k="addr:street" v="Guadalupe Street"/><tag k="addr:housenumber" v="6200"/><tag k="addr:postcode" v="78752"/></node><node id="-58" lat="30.331566" lon="-97.717207" changeset="false"><tag k="addr:street" v="Brentwood Street"/><tag k="addr:housenumber" v="302"/><tag k="addr:postcode" v="78752"/></node><node id="-59" lat="30.331543" lon="-97.717153" changeset="false"><tag k="addr:street" v="Brentwood Street"/><tag k="addr:housenumber" v="300"/><tag k="addr:postcode" v="78752"/></node><node id="-60" lat="30.334932" lon="-97.71822" changeset="false"><tag k="addr:street" v="Canion Street"/><tag k="addr:housenumber" v="652"/><tag k="addr:postcode" v="78752"/></node><node id="-61" lat="30.334818" lon="-97.718164" changeset="false"><tag k="addr:street" v="Canion Street"/><tag k="addr:housenumber" v="650"/><tag k="addr:postcode" v="78752"/></node><node id="-62" lat="30.335274" lon="-97.718394" changeset="false"><tag k="addr:street" v="Canion Street"/><tag k="addr:housenumber" v="656"/><tag k="addr:postcode" v="78752"/></node><node id="-63" lat="30.335123" lon="-97.718286" changeset="false"><tag k="addr:street" v="Canion Street"/><tag k="addr:housenumber" v="654"/><tag k="addr:postcode" v="78752"/></node><node id="-64" lat="30.331731" lon="-97.718382" changeset="false"><tag k="addr:street" v="Brentwood Street"/><tag k="addr:housenumber" v="507"/><tag k="addr:postcode" v="78752"/></node><node id="-65" lat="30.331535" lon="-97.718515" changeset="false"><tag k="addr:street" v="Guadalupe Street"/><tag k="addr:housenumber" v="6603"/><tag k="addr:postcode" v="78752"/></node><node id="-66" lat="30.331853" lon="-97.718692" changeset="false"><tag k="addr:street" v="Guadalupe Street"/><tag k="addr:housenumber" v="6604"/><tag k="addr:postcode" v="78752"/></node><node id="-67" lat="30.331922" lon="-97.718728" changeset="false"><tag k="addr:street" v="Brentwood Street"/><tag k="addr:housenumber" v="601"/><tag k="addr:postcode" v="78752"/></node><node id="-68" lat="30.321099" lon="-97.716374" changeset="false"><tag k="addr:street" v="Duval Street"/><tag k="addr:housenumber" v="5701 1/2"/><tag k="addr:postcode" v="78752"/></node><node id="-69" lat="30.321136" lon="-97.716404" changeset="false"><tag k="addr:street" v="Duval Street"/><tag k="addr:housenumber" v="5701"/><tag k="addr:postcode" v="78752"/></node><node id="-70" lat="30.326524" lon="-97.716851" changeset="false"><tag k="addr:street" v="Dillard Circle"/><tag k="addr:housenumber" v="6021"/><tag k="addr:postcode" v="78752"/></node><node id="-71" lat="30.32628" lon="-97.717118" changeset="false"><tag k="addr:street" v="Dillard Circle"/><tag k="addr:housenumber" v="6019"/><tag k="addr:postcode" v="78752"/></node><node id="-72" lat="30.326736" lon="-97.716789" changeset="false"><tag k="addr:street" v="Denson Drive"/><tag k="addr:housenumber" v="105"/><tag k="addr:postcode" v="78752"/></node><node id="-73" lat="30.334285" lon="-97.72075" changeset="false"><tag k="addr:street" v="North Lamar Boulevard"/><tag k="addr:housenumber" v="6611"/><tag k="addr:postcode" v="78752"/></node><node id="-74" lat="30.334391" lon="-97.72067" changeset="false"><tag k="addr:street" v="North Lamar Boulevard"/><tag k="addr:housenumber" v="6613"/><tag k="addr:postcode" v="78752"/></node><node id="-75" lat="30.33416" lon="-97.720824" changeset="false"><tag k="addr:street" v="North Lamar Boulevard"/><tag k="addr:housenumber" v="6607"/><tag k="addr:postcode" v="78752"/></node><node id="-76" lat="30.334619" lon="-97.720538" changeset="false"><tag k="addr:street" v="North Lamar Boulevard"/><tag k="addr:housenumber" v="6623"/><tag k="addr:postcode" v="78752"/></node><node id="-77" lat="30.334538" lon="-97.72061" changeset="false"><tag k="addr:street" v="North Lamar Boulevard"/><tag k="addr:housenumber" v="6615"/><tag k="addr:postcode" v="78752"/></node><node id="-78" lat="30.334665" lon="-97.720477" changeset="false"><tag k="addr:street" v="North Lamar Boulevard"/><tag k="addr:housenumber" v="6701"/><tag k="addr:postcode" v="78752"/></node><node id="-79" lat="30.333992" lon="-97.720816" changeset="false"><tag k="addr:street" v="Gaylor Street"/><tag k="addr:housenumber" v="720"/><tag k="addr:postcode" v="78752"/></node><node id="-80" lat="30.334014" lon="-97.720931" changeset="false"><tag k="addr:street" v="North Lamar Boulevard"/><tag k="addr:housenumber" v="6601"/><tag k="addr:postcode" v="78752"/></node><node id="-81" lat="30.329493" lon="-97.720233" changeset="false"><tag k="addr:street" v="Guadalupe Street"/><tag k="addr:housenumber" v="6208"/><tag k="addr:postcode" v="78752"/></node><node id="-82" lat="30.329594" lon="-97.720189" changeset="false"><tag k="addr:street" v="Hammack Drive"/><tag k="addr:housenumber" v="601"/><tag k="addr:postcode" v="78752"/></node><node id="-83" lat="30.333549" lon="-97.721187" changeset="false"><tag k="addr:street" v="North Lamar Boulevard"/><tag k="addr:housenumber" v="6535"/><tag k="addr:postcode" v="78752"/></node><node id="-84" lat="30.333712" lon="-97.721131" changeset="false"><tag k="addr:street" v="North Lamar Boulevard"/><tag k="addr:housenumber" v="6539"/><tag k="addr:postcode" v="78752"/></node><node id="-85" lat="30.330764" lon="-97.722989" changeset="false"><tag k="addr:street" v="North Lamar Boulevard"/><tag k="addr:housenumber" v="6217"/><tag k="addr:postcode" v="78752"/></node><node id="-86" lat="30.330717" lon="-97.723004" changeset="false"><tag k="addr:street" v="North Lamar Boulevard"/><tag k="addr:housenumber" v="6215"/><tag k="addr:postcode" v="78752"/></node></osm>