<?xml version="1.0" encoding="UTF-8"?><osm version="0.6" generator="github.com/aaronlidman/osm-and-geojson"><node id="-1" lat="30.442868" lon="-97.772044" changeset="false"><tag k="addr:street" v="Hunters Chase Drive"/><tag k="addr:housenumber" v="12342"/><tag k="coa:place_id" v="821259"/></node><node id="-2" lat="30.444436" lon="-97.775231" changeset="false"><tag k="addr:street" v="Cahill Drive"/><tag k="addr:housenumber" v="8518"/><tag k="coa:place_id" v="53318"/></node><node id="-3" lat="30.445589" lon="-97.772643" changeset="false"><tag k="addr:street" v="Cahill Drive"/><tag k="addr:housenumber" v="8408"/><tag k="coa:place_id" v="151608"/></node><node id="-4" lat="30.446717" lon="-97.772919" changeset="false"><tag k="addr:street" v="Labrador Cove"/><tag k="addr:housenumber" v="12520"/><tag k="coa:place_id" v="155737"/></node><node id="-5" lat="30.443493" lon="-97.77512" changeset="false"><tag k="addr:street" v="Pond Springs Road"/><tag k="addr:housenumber" v="13091"/><tag k="coa:place_id" v="512446"/></node><node id="-6" lat="30.445706" lon="-97.773941" changeset="false"><tag k="addr:street" v="Mallard Lane"/><tag k="addr:housenumber" v="12404"/><tag k="coa:place_id" v="155722"/></node><node id="-7" lat="30.44804" lon="-97.77213" changeset="false"><tag k="addr:street" v="Deer Falls Drive"/><tag k="addr:housenumber" v="12606"/><tag k="coa:place_id" v="971751"/></node><node id="-8" lat="30.442309" lon="-97.773797" changeset="false"><tag k="addr:street" v="Pond Springs Road"/><tag k="addr:housenumber" v="13037"/><tag k="coa:place_id" v="302092"/></node><node id="-9" lat="30.444822" lon="-97.770102" changeset="false"><tag k="addr:street" v="Hunters Chase Drive"/><tag k="addr:housenumber" v="12404"/><tag k="coa:place_id" v="3067926"/></node><node id="-10" lat="30.444318" lon="-97.774606" changeset="false"><tag k="addr:street" v="Cahill Drive"/><tag k="addr:housenumber" v="8519"/><tag k="coa:place_id" v="360526"/></node><node id="-11" lat="30.443845" lon="-97.775826" changeset="false"><tag k="addr:street" v="Pond Springs Road"/><tag k="addr:housenumber" v="13125"/><tag k="coa:place_id" v="556828"/></node><node id="-12" lat="30.445934" lon="-97.771348" changeset="false"><tag k="addr:street" v="Deer Falls Drive"/><tag k="addr:housenumber" v="12501"/><tag k="coa:place_id" v="984753"/></node><node id="-13" lat="30.445114" lon="-97.770086" changeset="false"><tag k="addr:street" v="Hunters Chase Drive"/><tag k="addr:housenumber" v="12410"/><tag k="coa:place_id" v="924015"/></node><node id="-14" lat="30.4456" lon="-97.770161" changeset="false"><tag k="addr:street" v="Hunters Chase Drive"/><tag k="addr:housenumber" v="12500"/><tag k="coa:place_id" v="399712"/></node><node id="-15" lat="30.442541" lon="-97.774146" changeset="false"><tag k="addr:street" v="Pond Springs Road"/><tag k="addr:housenumber" v="13041"/><tag k="coa:place_id" v="347876"/></node><node id="-16" lat="30.444348" lon="-97.776347" changeset="false"><tag k="addr:street" v="Pond Springs Road"/><tag k="addr:housenumber" v="13131"/><tag k="coa:place_id" v="298354"/></node><node id="-17" lat="30.446233" lon="-97.774897" changeset="false"><tag k="addr:street" v="Foxhound Trail"/><tag k="addr:housenumber" v="8512"/><tag k="coa:place_id" v="155593"/></node><node id="-18" lat="30.447694" lon="-97.771193" changeset="false"><tag k="addr:street" v="Dove Valley Trail"/><tag k="addr:housenumber" v="12608"/><tag k="coa:place_id" v="938409"/></node><node id="-19" lat="30.442224" lon="-97.773729" changeset="false"><tag k="addr:street" v="Pond Springs Road"/><tag k="addr:housenumber" v="13035"/><tag k="coa:place_id" v="289912"/></node><node id="-20" lat="30.442153" lon="-97.7737" changeset="false"><tag k="addr:street" v="Pond Springs Road"/><tag k="addr:housenumber" v="13033"/><tag k="coa:place_id" v="289900"/></node><node id="-21" lat="30.442685" lon="-97.774313" changeset="false"><tag k="addr:street" v="Pond Springs Road"/><tag k="addr:housenumber" v="13047"/><tag k="coa:place_id" v="130432"/></node><node id="-22" lat="30.442589" lon="-97.774202" changeset="false"><tag k="addr:street" v="Pond Springs Road"/><tag k="addr:housenumber" v="13043"/><tag k="coa:place_id" v="346341"/></node><node id="-23" lat="30.442733" lon="-97.774362" changeset="false"><tag k="addr:street" v="Pond Springs Road"/><tag k="addr:housenumber" v="13049"/><tag k="coa:place_id" v="347888"/></node><node id="-24" lat="30.442637" lon="-97.774257" changeset="false"><tag k="addr:street" v="Pond Springs Road"/><tag k="addr:housenumber" v="13045"/><tag k="coa:place_id" v="222400"/></node></osm>