<?xml version="1.0" encoding="UTF-8"?><osm version="0.6" generator="github.com/aaronlidman/osm-and-geojson"><node id="-1" lat="30.236541" lon="-97.752767" changeset="false"><tag k="addr:street" v="Long Bow Lane"/><tag k="addr:housenumber" v="400"/><tag k="coa:place_id" v="217362"/></node><node id="-2" lat="30.238346" lon="-97.753388" changeset="false"><tag k="addr:street" v="South Congress Avenue"/><tag k="addr:housenumber" v="2401"/><tag k="coa:place_id" v="414734"/></node><node id="-3" lat="30.237135" lon="-97.752531" changeset="false"><tag k="addr:street" v="South Congress Avenue"/><tag k="addr:housenumber" v="2409"/><tag k="coa:place_id" v="753374"/></node><node id="-4" lat="30.238004" lon="-97.752783" changeset="false"><tag k="addr:street" v="East Oltorf Street"/><tag k="addr:housenumber" v="117"/><tag k="coa:place_id" v="753362"/></node><node id="-5" lat="30.238028" lon="-97.753647" changeset="false"><tag k="addr:street" v="South Congress Avenue"/><tag k="addr:housenumber" v="2407"/><tag k="coa:place_id" v="753356"/></node><node id="-6" lat="30.237781" lon="-97.752497" changeset="false"><tag k="addr:street" v="East Oltorf Street"/><tag k="addr:housenumber" v="201"/><tag k="coa:place_id" v="611524"/></node><node id="-7" lat="30.233973" lon="-97.742983" changeset="false"><tag k="addr:street" v="East Oltorf Street"/><tag k="addr:housenumber" v="1301"/><tag k="coa:place_id" v="543034"/></node><node id="-8" lat="30.228455" lon="-97.745254" changeset="false"><tag k="addr:street" v="I 35 Frontage Road"/><tag k="addr:housenumber" v="2800"/><tag k="coa:place_id" v="753506"/></node></osm>