<?xml version="1.0" encoding="UTF-8"?><osm version="0.6" generator="github.com/aaronlidman/osm-and-geojson"><node id="-1" lat="30.317105" lon="-97.653879" changeset="false"><tag k="addr:street" v="Lazy Creek Drive"/><tag k="addr:housenumber" v="7705"/></node><node id="-2" lat="30.31244" lon="-97.65189" changeset="false"><tag k="addr:street" v="Inspiration Drive"/><tag k="addr:housenumber" v="7407"/></node><node id="-3" lat="30.311544" lon="-97.653462" changeset="false"><tag k="addr:street" v="Tumbleweed Drive"/><tag k="addr:housenumber" v="7305"/></node><node id="-4" lat="30.316844" lon="-97.653471" changeset="false"><tag k="addr:street" v="Rio Pass"/><tag k="addr:housenumber" v="7628"/></node><node id="-5" lat="30.317036" lon="-97.654254" changeset="false"><tag k="addr:street" v="Lazy Creek Drive"/><tag k="addr:housenumber" v="7701"/></node><node id="-6" lat="30.325776" lon="-97.65504" changeset="false"><tag k="addr:street" v="Springdale Road"/><tag k="addr:housenumber" v="8291"/></node><node id="-7" lat="30.316533" lon="-97.65496" changeset="false"><tag k="addr:street" v="Rio Pass"/><tag k="addr:housenumber" v="7604"/></node><node id="-8" lat="30.322724" lon="-97.661388" changeset="false"><tag k="addr:street" v="Andtree Boulevard"/><tag k="addr:housenumber" v="3407"/></node><node id="-9" lat="30.31588" lon="-97.65581" changeset="false"><tag k="addr:street" v="Rio Pass"/><tag k="addr:housenumber" v="7516"/></node><node id="-10" lat="30.317729" lon="-97.6534" changeset="false"><tag k="addr:street" v="Lazy Creek Drive"/><tag k="addr:housenumber" v="7710"/></node><node id="-11" lat="30.327387" lon="-97.655243" changeset="false"><tag k="addr:street" v="Springdale Road"/><tag k="addr:housenumber" v="8305"/></node><node id="-12" lat="30.31766" lon="-97.653775" changeset="false"><tag k="addr:street" v="Lazy Creek Drive"/><tag k="addr:housenumber" v="7706"/></node><node id="-13" lat="30.310693" lon="-97.654101" changeset="false"><tag k="addr:street" v="Tumbleweed Drive"/><tag k="addr:housenumber" v="7205"/></node><node id="-14" lat="30.32077" lon="-97.658568" changeset="false"><tag k="addr:street" v="Old Manor Road"/><tag k="addr:housenumber" v="7718"/></node><node id="-15" lat="30.316183" lon="-97.6556" changeset="false"><tag k="addr:street" v="Rio Pass"/><tag k="addr:housenumber" v="7522"/></node><node id="-16" lat="30.315517" lon="-97.656442" changeset="false"><tag k="addr:street" v="Lazy Creek Drive"/><tag k="addr:housenumber" v="7505"/></node><node id="-17" lat="30.316955" lon="-97.65462" changeset="false"><tag k="addr:street" v="Lazy Creek Drive"/><tag k="addr:housenumber" v="7611"/></node><node id="-18" lat="30.328275" lon="-97.655653" changeset="false"><tag k="addr:street" v="US Highway 290"/><tag k="addr:housenumber" v="9105"/></node><node id="-19" lat="30.31199" lon="-97.658254" changeset="false"><tag k="addr:street" v="Raton Pass"/><tag k="addr:housenumber" v="5209"/></node><node id="-20" lat="30.316913" lon="-97.654811" changeset="false"><tag k="addr:street" v="Lazy Creek Drive"/><tag k="addr:housenumber" v="7609"/></node><node id="-21" lat="30.316844" lon="-97.655203" changeset="false"><tag k="addr:street" v="Lazy Creek Drive"/><tag k="addr:housenumber" v="7605"/></node><node id="-22" lat="30.316009" lon="-97.653337" changeset="false"><tag k="addr:street" v="Uray Drive"/><tag k="addr:housenumber" v="7609"/></node><node id="-23" lat="30.315681" lon="-97.653575" changeset="false"><tag k="addr:street" v="Uray Drive"/><tag k="addr:housenumber" v="7603"/></node><node id="-24" lat="30.315772" lon="-97.653467" changeset="false"><tag k="addr:street" v="Uray Drive"/><tag k="addr:housenumber" v="7605"/></node><node id="-25" lat="30.328335" lon="-97.654045" changeset="false"><tag k="addr:street" v="US Highway 290"/><tag k="addr:housenumber" v="9211"/></node><node id="-26" lat="30.322662" lon="-97.662726" changeset="false"><tag k="addr:street" v="Duke Road"/><tag k="addr:housenumber" v="3312"/></node><node id="-27" lat="30.316572" lon="-97.654823" changeset="false"><tag k="addr:street" v="Rio Pass"/><tag k="addr:housenumber" v="7606"/></node><node id="-28" lat="30.315257" lon="-97.655585" changeset="false"><tag k="addr:street" v="Rio Pass"/><tag k="addr:housenumber" v="7509"/></node><node id="-29" lat="30.31617" lon="-97.654512" changeset="false"><tag k="addr:street" v="Rio Pass"/><tag k="addr:housenumber" v="7607"/></node><node id="-30" lat="30.3152" lon="-97.656231" changeset="false"><tag k="addr:street" v="Rio Pass"/><tag k="addr:housenumber" v="7502"/></node><node id="-31" lat="30.317693" lon="-97.653608" changeset="false"><tag k="addr:street" v="Lazy Creek Drive"/><tag k="addr:housenumber" v="7708"/></node><node id="-32" lat="30.316904" lon="-97.653207" changeset="false"><tag k="addr:street" v="Rio Pass"/><tag k="addr:housenumber" v="7632"/></node><node id="-33" lat="30.311327" lon="-97.653637" changeset="false"><tag k="addr:street" v="Tumbleweed Drive"/><tag k="addr:housenumber" v="7303"/></node><node id="-34" lat="30.315863" lon="-97.655201" changeset="false"><tag k="addr:street" v="Rio Pass"/><tag k="addr:housenumber" v="7521"/></node><node id="-35" lat="30.322234" lon="-97.660166" changeset="false"><tag k="addr:street" v="Andtree Boulevard"/><tag k="addr:housenumber" v="3419"/></node><node id="-36" lat="30.32401" lon="-97.656718" changeset="false"><tag k="addr:street" v="Commercial Park Drive"/><tag k="addr:housenumber" v="4701"/></node><node id="-37" lat="30.327771" lon="-97.659785" changeset="false"><tag k="addr:street" v="US Highway 290"/><tag k="addr:housenumber" v="8607"/></node><node id="-38" lat="30.316644" lon="-97.65446" changeset="false"><tag k="addr:street" v="Rio Pass"/><tag k="addr:housenumber" v="7612"/></node><node id="-39" lat="30.316498" lon="-97.653066" changeset="false"><tag k="addr:street" v="Rio Pass"/><tag k="addr:housenumber" v="7627"/></node><node id="-40" lat="30.316886" lon="-97.654983" changeset="false"><tag k="addr:street" v="Lazy Creek Drive"/><tag k="addr:housenumber" v="7607"/></node><node id="-41" lat="30.316749" lon="-97.653969" changeset="false"><tag k="addr:street" v="Rio Pass"/><tag k="addr:housenumber" v="7620"/></node><node id="-42" lat="30.31757" lon="-97.65415" changeset="false"><tag k="addr:street" v="Lazy Creek Drive"/><tag k="addr:housenumber" v="7702"/></node><node id="-43" lat="30.316261" lon="-97.653277" changeset="false"><tag k="addr:street" v="Uray Drive"/><tag k="addr:housenumber" v="7613"/></node><node id="-44" lat="30.316427" lon="-97.65332" changeset="false"><tag k="addr:street" v="Uray Drive"/><tag k="addr:housenumber" v="7615"/></node><node id="-45" lat="30.328302" lon="-97.654715" changeset="false"><tag k="addr:street" v="US Highway 290"/><tag k="addr:housenumber" v="9207"/></node><node id="-46" lat="30.315891" lon="-97.653392" changeset="false"><tag k="addr:street" v="Uray Drive"/><tag k="addr:housenumber" v="7607"/></node><node id="-47" lat="30.312015" lon="-97.658501" changeset="false"><tag k="addr:street" v="Raton Pass"/><tag k="addr:housenumber" v="5207"/></node><node id="-48" lat="30.317466" lon="-97.656097" changeset="false"><tag k="addr:street" v="Crainway Drive"/><tag k="addr:housenumber" v="5300"/></node><node id="-49" lat="30.316874" lon="-97.653351" changeset="false"><tag k="addr:street" v="Rio Pass"/><tag k="addr:housenumber" v="7630"/></node><node id="-50" lat="30.316124" lon="-97.654773" changeset="false"><tag k="addr:street" v="Rio Pass"/><tag k="addr:housenumber" v="7603"/></node><node id="-51" lat="30.32597" lon="-97.657321" changeset="false"><tag k="addr:street" v="Springdale Road"/><tag k="addr:housenumber" v="8110"/></node><node id="-52" lat="30.317068" lon="-97.654069" changeset="false"><tag k="addr:street" v="Lazy Creek Drive"/><tag k="addr:housenumber" v="7703"/></node><node id="-53" lat="30.322143" lon="-97.65994" changeset="false"><tag k="addr:street" v="Andtree Boulevard"/><tag k="addr:housenumber" v="3421"/></node><node id="-54" lat="30.309099" lon="-97.653517" changeset="false"><tag k="addr:street" v="Purple Sage Drive"/><tag k="addr:housenumber" v="5704"/></node><node id="-55" lat="30.317623" lon="-97.653965" changeset="false"><tag k="addr:street" v="Lazy Creek Drive"/><tag k="addr:housenumber" v="7704"/></node><node id="-56" lat="30.324363" lon="-97.664809" changeset="false"><tag k="addr:street" v="Duke Road"/><tag k="addr:housenumber" v="3206"/></node><node id="-57" lat="30.317137" lon="-97.653706" changeset="false"><tag k="addr:street" v="Lazy Creek Drive"/><tag k="addr:housenumber" v="7707"/></node><node id="-58" lat="30.315398" lon="-97.656119" changeset="false"><tag k="addr:street" v="Rio Pass"/><tag k="addr:housenumber" v="7506"/></node><node id="-59" lat="30.322183" lon="-97.650071" changeset="false"><tag k="addr:street" v="Old Manor Road"/><tag k="addr:housenumber" v="8213"/></node><node id="-60" lat="30.321782" lon="-97.658262" changeset="false"><tag k="addr:street" v="Springdale Road"/><tag k="addr:housenumber" v="7815"/></node><node id="-61" lat="30.31683" lon="-97.653595" changeset="false"><tag k="addr:street" v="Rio Pass"/><tag k="addr:housenumber" v="7626"/></node><node id="-62" lat="30.315072" lon="-97.655705" changeset="false"><tag k="addr:street" v="Rio Pass"/><tag k="addr:housenumber" v="7505"/></node><node id="-63" lat="30.31503" lon="-97.654561" changeset="false"><tag k="addr:street" v="Burgundy Drive"/><tag k="addr:housenumber" v="5412"/></node><node id="-64" lat="30.316259" lon="-97.654142" changeset="false"><tag k="addr:street" v="Rio Pass"/><tag k="addr:housenumber" v="7613"/></node><node id="-65" lat="30.316193" lon="-97.654381" changeset="false"><tag k="addr:street" v="Rio Pass"/><tag k="addr:housenumber" v="7609"/></node><node id="-66" lat="30.316468" lon="-97.655258" changeset="false"><tag k="addr:street" v="Rio Pass"/><tag k="addr:housenumber" v="7600"/></node><node id="-67" lat="30.326365" lon="-97.655712" changeset="false"><tag k="addr:street" v="Springdale Road"/><tag k="addr:housenumber" v="8301"/></node><node id="-68" lat="30.324081" lon="-97.657058" changeset="false"><tag k="addr:street" v="Commercial Park Drive"/><tag k="addr:housenumber" v="4605"/></node><node id="-69" lat="30.316594" lon="-97.654692" changeset="false"><tag k="addr:street" v="Rio Pass"/><tag k="addr:housenumber" v="7608"/></node><node id="-70" lat="30.316461" lon="-97.653191" changeset="false"><tag k="addr:street" v="Rio Pass"/><tag k="addr:housenumber" v="7625"/></node><node id="-71" lat="30.315297" lon="-97.656175" changeset="false"><tag k="addr:street" v="Rio Pass"/><tag k="addr:housenumber" v="7504"/></node><node id="-72" lat="30.3099" lon="-97.654563" changeset="false"><tag k="addr:street" v="Tumbleweed Drive"/><tag k="addr:housenumber" v="7105"/></node><node id="-73" lat="30.317521" lon="-97.654356" changeset="false"><tag k="addr:street" v="Lazy Creek Drive"/><tag k="addr:housenumber" v="7700"/></node><node id="-74" lat="30.319262" lon="-97.659145" changeset="false"><tag k="addr:street" v="Old Manor Road"/><tag k="addr:housenumber" v="7701 1/2"/></node><node id="-75" lat="30.315164" lon="-97.655646" changeset="false"><tag k="addr:street" v="Rio Pass"/><tag k="addr:housenumber" v="7507"/></node><node id="-76" lat="30.316795" lon="-97.653737" changeset="false"><tag k="addr:street" v="Rio Pass"/><tag k="addr:housenumber" v="7624"/></node><node id="-77" lat="30.325595" lon="-97.657772" changeset="false"><tag k="addr:street" v="Springdale Road"/><tag k="addr:housenumber" v="8108"/></node><node id="-78" lat="30.321801" lon="-97.659755" changeset="false"><tag k="addr:street" v="Springdale Road"/><tag k="addr:housenumber" v="7718"/></node><node id="-79" lat="30.315554" lon="-97.655411" changeset="false"><tag k="addr:street" v="Rio Pass"/><tag k="addr:housenumber" v="7515"/></node><node id="-80" lat="30.316295" lon="-97.653884" changeset="false"><tag k="addr:street" v="Rio Pass"/><tag k="addr:housenumber" v="7617"/></node><node id="-81" lat="30.316277" lon="-97.654014" changeset="false"><tag k="addr:street" v="Rio Pass"/><tag k="addr:housenumber" v="7615"/></node><node id="-82" lat="30.316147" lon="-97.654637" changeset="false"><tag k="addr:street" v="Rio Pass"/><tag k="addr:housenumber" v="7605"/></node><node id="-83" lat="30.328109" lon="-97.660937" changeset="false"><tag k="addr:street" v="US Highway 290"/><tag k="addr:housenumber" v="8601"/></node><node id="-84" lat="30.322361" lon="-97.659411" changeset="false"><tag k="addr:street" v="Andtree Boulevard"/><tag k="addr:housenumber" v="3500"/></node><node id="-85" lat="30.327966" lon="-97.658329" changeset="false"><tag k="addr:street" v="US Highway 290"/><tag k="addr:housenumber" v="8801"/></node><node id="-86" lat="30.316997" lon="-97.654441" changeset="false"><tag k="addr:street" v="Lazy Creek Drive"/><tag k="addr:housenumber" v="7613"/></node><node id="-87" lat="30.316077" lon="-97.655668" changeset="false"><tag k="addr:street" v="Rio Pass"/><tag k="addr:housenumber" v="7520"/></node><node id="-88" lat="30.315971" lon="-97.655074" changeset="false"><tag k="addr:street" v="Rio Pass"/><tag k="addr:housenumber" v="7523"/></node><node id="-89" lat="30.311663" lon="-97.658904" changeset="false"><tag k="addr:street" v="Purple Sage Drive"/><tag k="addr:housenumber" v="5204"/></node><node id="-90" lat="30.315747" lon="-97.655287" changeset="false"><tag k="addr:street" v="Rio Pass"/><tag k="addr:housenumber" v="7519"/></node><node id="-91" lat="30.316657" lon="-97.655599" changeset="false"><tag k="addr:street" v="Lazy Creek Drive"/><tag k="addr:housenumber" v="7601"/></node><node id="-92" lat="30.321871" lon="-97.65545" changeset="false"><tag k="addr:street" v="Old Manor Road"/><tag k="addr:housenumber" v="7900"/></node><node id="-93" lat="30.322902" lon="-97.652618" changeset="false"><tag k="addr:street" v="Ferguson Cutoff"/><tag k="addr:housenumber" v="8104"/></node><node id="-94" lat="30.320263" lon="-97.65646" changeset="false"><tag k="addr:street" v="Old Manor Road"/><tag k="addr:housenumber" v="7805 1/2"/></node><node id="-95" lat="30.31282" lon="-97.659121" changeset="false"><tag k="addr:street" v="Chisos Pass"/><tag k="addr:housenumber" v="7207"/></node><node id="-96" lat="30.312852" lon="-97.651736" changeset="false"><tag k="addr:street" v="Inspiration Drive"/><tag k="addr:housenumber" v="7501"/></node><node id="-97" lat="30.322567" lon="-97.652646" changeset="false"><tag k="addr:street" v="Ferguson Cutoff"/><tag k="addr:housenumber" v="8100"/></node><node id="-98" lat="30.321359" lon="-97.657344" changeset="false"><tag k="addr:street" v="Old Manor Road"/><tag k="addr:housenumber" v="7800"/></node><node id="-99" lat="30.328256" lon="-97.65631" changeset="false"><tag k="addr:street" v="US Highway 290"/><tag k="addr:housenumber" v="9001"/></node><node id="-100" lat="30.327925" lon="-97.658746" changeset="false"><tag k="addr:street" v="US Highway 290"/><tag k="addr:housenumber" v="8701"/></node><node id="-101" lat="30.31662" lon="-97.654585" changeset="false"><tag k="addr:street" v="Rio Pass"/><tag k="addr:housenumber" v="7610"/></node><node id="-102" lat="30.312988" lon="-97.652055" changeset="false"><tag k="addr:street" v="Inspiration Drive"/><tag k="addr:housenumber" v="7500"/></node><node id="-103" lat="30.311476" lon="-97.658531" changeset="false"><tag k="addr:street" v="Purple Sage Drive"/><tag k="addr:housenumber" v="5208"/></node><node id="-104" lat="30.322615" lon="-97.659867" changeset="false"><tag k="addr:street" v="Andtree Boulevard"/><tag k="addr:housenumber" v="3418"/></node><node id="-105" lat="30.316575" lon="-97.657978" changeset="false"><tag k="addr:street" v="Pecan Brook Drive"/><tag k="addr:housenumber" v="5100"/></node><node id="-106" lat="30.328017" lon="-97.657868" changeset="false"><tag k="addr:street" v="US Highway 290"/><tag k="addr:housenumber" v="8815"/></node><node id="-107" lat="30.312104" lon="-97.658717" changeset="false"><tag k="addr:street" v="Raton Pass"/><tag k="addr:housenumber" v="5205"/></node><node id="-108" lat="30.316723" lon="-97.654103" changeset="false"><tag k="addr:street" v="Rio Pass"/><tag k="addr:housenumber" v="7618"/></node><node id="-109" lat="30.31778" lon="-97.660758" changeset="false"><tag k="addr:street" v="Pecan Brook Drive"/><tag k="addr:housenumber" v="4601"/></node><node id="-110" lat="30.317214" lon="-97.65332" changeset="false"><tag k="addr:street" v="Lazy Creek Drive"/><tag k="addr:housenumber" v="7711"/></node><node id="-111" lat="30.315359" lon="-97.655511" changeset="false"><tag k="addr:street" v="Rio Pass"/><tag k="addr:housenumber" v="7511"/></node><node id="-112" lat="30.324359" lon="-97.65734" changeset="false"><tag k="addr:street" v="Commercial Park Drive"/><tag k="addr:housenumber" v="4609"/></node><node id="-113" lat="30.316133" lon="-97.6533" changeset="false"><tag k="addr:street" v="Uray Drive"/><tag k="addr:housenumber" v="7611"/></node><node id="-114" lat="30.31605" lon="-97.654953" changeset="false"><tag k="addr:street" v="Rio Pass"/><tag k="addr:housenumber" v="7601"/></node><node id="-115" lat="30.315976" lon="-97.655742" changeset="false"><tag k="addr:street" v="Rio Pass"/><tag k="addr:housenumber" v="7518"/></node><node id="-116" lat="30.316661" lon="-97.654329" changeset="false"><tag k="addr:street" v="Rio Pass"/><tag k="addr:housenumber" v="7614"/></node><node id="-117" lat="30.316231" lon="-97.654261" changeset="false"><tag k="addr:street" v="Rio Pass"/><tag k="addr:housenumber" v="7611"/></node><node id="-118" lat="30.314209" lon="-97.655396" changeset="false"><tag k="addr:street" v="Pecan Brook Drive"/><tag k="addr:housenumber" v="5313"/></node><node id="-119" lat="30.327153" lon="-97.658711" changeset="false"><tag k="addr:street" v="Tuscany Way"/><tag k="addr:housenumber" v="8201"/></node><node id="-120" lat="30.320305" lon="-97.65954" changeset="false"><tag k="addr:street" v="Springdale Road"/><tag k="addr:housenumber" v="7701"/></node><node id="-121" lat="30.322453" lon="-97.660785" changeset="false"><tag k="addr:street" v="Andtree Boulevard"/><tag k="addr:housenumber" v="3413"/></node><node id="-122" lat="30.315783" lon="-97.655866" changeset="false"><tag k="addr:street" v="Rio Pass"/><tag k="addr:housenumber" v="7514"/></node><node id="-123" lat="30.315651" lon="-97.655367" changeset="false"><tag k="addr:street" v="Rio Pass"/><tag k="addr:housenumber" v="7517"/></node><node id="-124" lat="30.312298" lon="-97.658254" changeset="false"><tag k="addr:street" v="Raton Pass"/><tag k="addr:housenumber" v="5208"/></node><node id="-125" lat="30.319195" lon="-97.661713" changeset="false"><tag k="addr:street" v="Manor Road,1100"/><tag k="addr:housenumber" v="7516 1/2"/></node><node id="-126" lat="30.327149" lon="-97.659478" changeset="false"><tag k="addr:street" v="Tuscany Way"/><tag k="addr:housenumber" v="8200"/></node><node id="-127" lat="30.324502" lon="-97.652869" changeset="false"><tag k="addr:street" v="Ferguson Cutoff"/><tag k="addr:housenumber" v="8200"/></node><node id="-128" lat="30.324434" lon="-97.653732" changeset="false"><tag k="addr:street" v="Altoga Drive"/><tag k="addr:housenumber" v="8115"/></node><node id="-129" lat="30.31718" lon="-97.65354" changeset="false"><tag k="addr:street" v="Lazy Creek Drive"/><tag k="addr:housenumber" v="7709"/></node><node id="-130" lat="30.31678" lon="-97.653844" changeset="false"><tag k="addr:street" v="Rio Pass"/><tag k="addr:housenumber" v="7622"/></node><node id="-131" lat="30.316776" lon="-97.655406" changeset="false"><tag k="addr:street" v="Lazy Creek Drive"/><tag k="addr:housenumber" v="7603"/></node><node id="-132" lat="30.316289" lon="-97.655509" changeset="false"><tag k="addr:street" v="Rio Pass"/><tag k="addr:housenumber" v="7524"/></node><node id="-133" lat="30.315681" lon="-97.65591" changeset="false"><tag k="addr:street" v="Rio Pass"/><tag k="addr:housenumber" v="7512"/></node><node id="-134" lat="30.322301" lon="-97.653246" changeset="false"><tag k="addr:street" v="Old Manor Road"/><tag k="addr:housenumber" v="8016"/></node><node id="-135" lat="30.31669" lon="-97.654222" changeset="false"><tag k="addr:street" v="Rio Pass"/><tag k="addr:housenumber" v="7616"/></node><node id="-136" lat="30.315586" lon="-97.655996" changeset="false"><tag k="addr:street" v="Rio Pass"/><tag k="addr:housenumber" v="7510"/></node><node id="-137" lat="30.30939" lon="-97.653332" changeset="false"><tag k="addr:street" v="Inspiration Drive"/><tag k="addr:housenumber" v="7200"/></node><node id="-138" lat="30.318944" lon="-97.661901" changeset="false"><tag k="addr:street" v="Manor Road,1100"/><tag k="addr:housenumber" v="7500"/></node><node id="-139" lat="30.322242" lon="-97.661445" changeset="false"><tag k="addr:street" v="Duke Road"/><tag k="addr:housenumber" v="3406"/></node><node id="-140" lat="30.31638" lon="-97.655406" changeset="false"><tag k="addr:street" v="Rio Pass"/><tag k="addr:housenumber" v="7526"/></node><node id="-141" lat="30.325424" lon="-97.656299" changeset="false"><tag k="addr:street" v="Springdale Road"/><tag k="addr:housenumber" v="8115"/></node><node id="-142" lat="30.314971" lon="-97.655785" changeset="false"><tag k="addr:street" v="Rio Pass"/><tag k="addr:housenumber" v="7503"/></node><node id="-143" lat="30.311889" lon="-97.652216" changeset="false"><tag k="addr:street" v="Inspiration Drive"/><tag k="addr:housenumber" v="7401"/></node><node id="-144" lat="30.3155" lon="-97.656057" changeset="false"><tag k="addr:street" v="Rio Pass"/><tag k="addr:housenumber" v="7508"/></node><node id="-145" lat="30.315455" lon="-97.655461" changeset="false"><tag k="addr:street" v="Rio Pass"/><tag k="addr:housenumber" v="7513"/></node><node id="-146" lat="30.316505" lon="-97.655103" changeset="false"><tag k="addr:street" v="Rio Pass"/><tag k="addr:housenumber" v="7602"/></node><node id="-147" lat="30.316263" lon="-97.653678" changeset="false"><tag k="addr:street" v="Uray Drive"/><tag k="addr:housenumber" v="7606"/></node><node id="-148" lat="30.312199" lon="-97.658917" changeset="false"><tag k="addr:street" v="Raton Pass"/><tag k="addr:housenumber" v="5203"/></node><node id="-149" lat="30.323065" lon="-97.654762" changeset="false"><tag k="addr:street" v="Commercial Park Drive"/><tag k="addr:housenumber" v="4905"/></node><node id="-150" lat="30.323238" lon="-97.654898" changeset="false"><tag k="addr:street" v="Commercial Park Drive"/><tag k="addr:housenumber" v="4901"/></node><node id="-151" lat="30.323729" lon="-97.662066" changeset="false"><tag k="addr:street" v="Danz Boulevard"/><tag k="addr:housenumber" v="7808"/></node><node id="-152" lat="30.323845" lon="-97.661988" changeset="false"><tag k="addr:street" v="Danz Boulevard"/><tag k="addr:housenumber" v="7810"/></node><node id="-153" lat="30.322427" lon="-97.661898" changeset="false"><tag k="addr:street" v="Duke Road"/><tag k="addr:housenumber" v="3402"/></node><node id="-154" lat="30.322292" lon="-97.66164" changeset="false"><tag k="addr:street" v="Duke Road"/><tag k="addr:housenumber" v="3404"/></node></osm>