<?xml version="1.0" encoding="UTF-8"?><osm version="0.6" generator="github.com/aaronlidman/osm-and-geojson"><node id="-1" lat="30.307752" lon="-97.645664" changeset="false"><tag k="addr:street" v="Farrell Glen Drive"/><tag k="addr:housenumber" v="6413"/></node><node id="-2" lat="30.305504" lon="-97.619223" changeset="false"><tag k="addr:street" v="Decker Lane"/><tag k="addr:housenumber" v="8000"/></node><node id="-3" lat="30.307872" lon="-97.617782" changeset="false"><tag k="addr:street" v="Decker Lane"/><tag k="addr:housenumber" v="8110"/></node><node id="-4" lat="30.306059" lon="-97.646558" changeset="false"><tag k="addr:street" v="Zachary Drive"/><tag k="addr:housenumber" v="7016"/></node><node id="-5" lat="30.317285" lon="-97.611747" changeset="false"><tag k="addr:street" v="Decker Lane"/><tag k="addr:housenumber" v="9100"/></node><node id="-6" lat="30.313706" lon="-97.618212" changeset="false"><tag k="addr:street" v="Daffan Lane"/><tag k="addr:housenumber" v="8200"/></node><node id="-7" lat="30.33564" lon="-97.600636" changeset="false"><tag k="addr:street" v="Decker Lane"/><tag k="addr:housenumber" v="11014"/></node><node id="-8" lat="30.299797" lon="-97.646942" changeset="false"><tag k="addr:street" v="Loyola Lane"/><tag k="addr:housenumber" v="6600"/></node><node id="-9" lat="30.327846" lon="-97.633045" changeset="false"><tag k="addr:street" v="Old Manor Road"/><tag k="addr:housenumber" v="9103"/></node><node id="-10" lat="30.307848" lon="-97.644505" changeset="false"><tag k="addr:street" v="Farrell Glen Drive"/><tag k="addr:housenumber" v="6508"/></node><node id="-11" lat="30.306466" lon="-97.645243" changeset="false"><tag k="addr:street" v="Boyle Drive"/><tag k="addr:housenumber" v="7128"/></node><node id="-12" lat="30.308411" lon="-97.646197" changeset="false"><tag k="addr:street" v="Farrell Glen Drive"/><tag k="addr:housenumber" v="6312"/></node><node id="-13" lat="30.30652" lon="-97.64563" changeset="false"><tag k="addr:street" v="Zachary Drive"/><tag k="addr:housenumber" v="7117"/></node><node id="-14" lat="30.305916" lon="-97.644928" changeset="false"><tag k="addr:street" v="Boyle Drive"/><tag k="addr:housenumber" v="7117"/></node><node id="-15" lat="30.308344" lon="-97.639396" changeset="false"><tag k="addr:street" v="Starcrest Lane"/><tag k="addr:housenumber" v="6805"/></node><node id="-16" lat="30.307623" lon="-97.645471" changeset="false"><tag k="addr:street" v="Zachary Drive"/><tag k="addr:housenumber" v="7216"/></node><node id="-17" lat="30.30689" lon="-97.644948" changeset="false"><tag k="addr:street" v="Boyle Drive"/><tag k="addr:housenumber" v="7212"/></node><node id="-18" lat="30.307614" lon="-97.637735" changeset="false"><tag k="addr:street" v="Northview Lane"/><tag k="addr:housenumber" v="7503"/></node><node id="-19" lat="30.309855" lon="-97.639165" changeset="false"><tag k="addr:street" v="Northview Lane"/><tag k="addr:housenumber" v="7617"/></node><node id="-20" lat="30.306624" lon="-97.645553" changeset="false"><tag k="addr:street" v="Zachary Drive"/><tag k="addr:housenumber" v="7121"/></node><node id="-21" lat="30.310792" lon="-97.639863" changeset="false"><tag k="addr:street" v="Compass Drive"/><tag k="addr:housenumber" v="7624"/></node><node id="-22" lat="30.310758" lon="-97.639983" changeset="false"><tag k="addr:street" v="Compass Drive"/><tag k="addr:housenumber" v="7622"/></node><node id="-23" lat="30.30897" lon="-97.638755" changeset="false"><tag k="addr:street" v="Northview Lane"/><tag k="addr:housenumber" v="7600"/></node><node id="-24" lat="30.330296" lon="-97.619125" changeset="false"><tag k="addr:street" v="Crofford Lane"/><tag k="addr:housenumber" v="9800"/></node><node id="-25" lat="30.330143" lon="-97.622158" changeset="false"><tag k="addr:street" v="Johnny Morris Road"/><tag k="addr:housenumber" v="9601"/></node><node id="-26" lat="30.308147" lon="-97.645117" changeset="false"><tag k="addr:street" v="Farrell Glen Drive"/><tag k="addr:housenumber" v="6420"/></node><node id="-27" lat="30.307777" lon="-97.637775" changeset="false"><tag k="addr:street" v="Northview Lane"/><tag k="addr:housenumber" v="7505"/></node><node id="-28" lat="30.307734" lon="-97.640202" changeset="false"><tag k="addr:street" v="Point North Drive"/><tag k="addr:housenumber" v="6800"/></node><node id="-29" lat="30.310139" lon="-97.641094" changeset="false"><tag k="addr:street" v="Compass Drive"/><tag k="addr:housenumber" v="7602"/></node><node id="-30" lat="30.309821" lon="-97.639961" changeset="false"><tag k="addr:street" v="Northview Lane"/><tag k="addr:housenumber" v="7622"/></node><node id="-31" lat="30.309571" lon="-97.639365" changeset="false"><tag k="addr:street" v="Northview Lane"/><tag k="addr:housenumber" v="7612"/></node><node id="-32" lat="30.312221" lon="-97.638456" changeset="false"><tag k="addr:street" v="Johnny Morris Road"/><tag k="addr:housenumber" v="7800"/></node><node id="-33" lat="30.309467" lon="-97.638656" changeset="false"><tag k="addr:street" v="Northview Lane"/><tag k="addr:housenumber" v="7607"/></node><node id="-34" lat="30.309269" lon="-97.641924" changeset="false"><tag k="addr:street" v="Compass Drive"/><tag k="addr:housenumber" v="7536"/></node><node id="-35" lat="30.305607" lon="-97.645834" changeset="false"><tag k="addr:street" v="Boyle Drive"/><tag k="addr:housenumber" v="7016"/></node><node id="-36" lat="30.306674" lon="-97.645095" changeset="false"><tag k="addr:street" v="Boyle Drive"/><tag k="addr:housenumber" v="7204"/></node><node id="-37" lat="30.307344" lon="-97.645681" changeset="false"><tag k="addr:street" v="Zachary Drive"/><tag k="addr:housenumber" v="7208"/></node><node id="-38" lat="30.32685" lon="-97.626357" changeset="false"><tag k="addr:street" v="Johnny Morris Road"/><tag k="addr:housenumber" v="9301"/></node><node id="-39" lat="30.305698" lon="-97.646788" changeset="false"><tag k="addr:street" v="Zachary Drive"/><tag k="addr:housenumber" v="7004"/></node><node id="-40" lat="30.308598" lon="-97.640877" changeset="false"><tag k="addr:street" v="Compass Drive"/><tag k="addr:housenumber" v="7516"/></node><node id="-41" lat="30.308488" lon="-97.638001" changeset="false"><tag k="addr:street" v="Northview Lane"/><tag k="addr:housenumber" v="7515"/></node><node id="-42" lat="30.309686" lon="-97.639592" changeset="false"><tag k="addr:street" v="Northview Lane"/><tag k="addr:housenumber" v="7616"/></node><node id="-43" lat="30.304911" lon="-97.646518" changeset="false"><tag k="addr:street" v="Keegans Drive"/><tag k="addr:housenumber" v="6409"/></node><node id="-44" lat="30.327804" lon="-97.634533" changeset="false"><tag k="addr:street" v="Old Manor Road"/><tag k="addr:housenumber" v="9016"/></node><node id="-45" lat="30.301274" lon="-97.648671" changeset="false"><tag k="addr:street" v="Loyola Lane"/><tag k="addr:housenumber" v="6420"/></node><node id="-46" lat="30.309792" lon="-97.616628" changeset="false"><tag k="addr:street" v="Decker Lane"/><tag k="addr:housenumber" v="8304"/></node><node id="-47" lat="30.329891" lon="-97.624037" changeset="false"><tag k="addr:street" v="Johnny Morris Road"/><tag k="addr:housenumber" v="9600"/></node><node id="-48" lat="30.307758" lon="-97.621527" changeset="false"><tag k="addr:street" v="North Lake Drive"/><tag k="addr:housenumber" v="8010"/></node><node id="-49" lat="30.323777" lon="-97.63013" changeset="false"><tag k="addr:street" v="Johnny Morris Road"/><tag k="addr:housenumber" v="8900"/></node><node id="-50" lat="30.308308" lon="-97.617594" changeset="false"><tag k="addr:street" v="Decker Lane"/><tag k="addr:housenumber" v="8206"/></node><node id="-51" lat="30.305711" lon="-97.645752" changeset="false"><tag k="addr:street" v="Boyle Drive"/><tag k="addr:housenumber" v="7100"/></node><node id="-52" lat="30.335368" lon="-97.603021" changeset="false"><tag k="addr:street" v="US Highway 290"/><tag k="addr:housenumber" v="9861"/></node><node id="-53" lat="30.308334" lon="-97.637322" changeset="false"><tag k="addr:street" v="Point North Drive"/><tag k="addr:housenumber" v="6907"/></node><node id="-54" lat="30.315628" lon="-97.619875" changeset="false"><tag k="addr:street" v="Daffan Lane"/><tag k="addr:housenumber" v="8000"/></node><node id="-55" lat="30.304969" lon="-97.645577" changeset="false"><tag k="addr:street" v="Boyle Drive"/><tag k="addr:housenumber" v="7005"/></node><node id="-56" lat="30.309117" lon="-97.63677" changeset="false"><tag k="addr:street" v="Point North Drive"/><tag k="addr:housenumber" v="6919"/></node><node id="-57" lat="30.310509" lon="-97.639655" changeset="false"><tag k="addr:street" v="Compass Drive"/><tag k="addr:housenumber" v="7613"/></node><node id="-58" lat="30.310659" lon="-97.641223" changeset="false"><tag k="addr:street" v="Johnny Morris Road"/><tag k="addr:housenumber" v="7612"/></node><node id="-59" lat="30.308226" lon="-97.646743" changeset="false"><tag k="addr:street" v="Farrell Glen Drive"/><tag k="addr:housenumber" v="6301"/></node><node id="-60" lat="30.306257" lon="-97.645406" changeset="false"><tag k="addr:street" v="Boyle Drive"/><tag k="addr:housenumber" v="7120"/></node><node id="-61" lat="30.308948" lon="-97.641564" changeset="false"><tag k="addr:street" v="Compass Drive"/><tag k="addr:housenumber" v="7528"/></node><node id="-62" lat="30.335332" lon="-97.603392" changeset="false"><tag k="addr:street" v="US Highway 290"/><tag k="addr:housenumber" v="9855"/></node><node id="-63" lat="30.321419" lon="-97.610095" changeset="false"><tag k="addr:street" v="Decker Lane"/><tag k="addr:housenumber" v="9500"/></node><node id="-64" lat="30.306831" lon="-97.645408" changeset="false"><tag k="addr:street" v="Zachary Drive"/><tag k="addr:housenumber" v="7129"/></node><node id="-65" lat="30.307261" lon="-97.645126" changeset="false"><tag k="addr:street" v="Zachary Drive"/><tag k="addr:housenumber" v="7213"/></node><node id="-66" lat="30.30718" lon="-97.642112" changeset="false"><tag k="addr:street" v="Point North Drive"/><tag k="addr:housenumber" v="6607"/></node><node id="-67" lat="30.307624" lon="-97.638213" changeset="false"><tag k="addr:street" v="Northview Lane"/><tag k="addr:housenumber" v="7504"/></node><node id="-68" lat="30.308037" lon="-97.63759" changeset="false"><tag k="addr:street" v="Point North Drive"/><tag k="addr:housenumber" v="6903"/></node><node id="-69" lat="30.305819" lon="-97.645678" changeset="false"><tag k="addr:street" v="Boyle Drive"/><tag k="addr:housenumber" v="7104"/></node><node id="-70" lat="30.308717" lon="-97.637506" changeset="false"><tag k="addr:street" v="Point North Drive"/><tag k="addr:housenumber" v="6908"/></node><node id="-71" lat="30.305823" lon="-97.646722" changeset="false"><tag k="addr:street" v="Zachary Drive"/><tag k="addr:housenumber" v="7008"/></node><node id="-72" lat="30.305766" lon="-97.646132" changeset="false"><tag k="addr:street" v="Zachary Drive"/><tag k="addr:housenumber" v="7017"/></node><node id="-73" lat="30.305499" lon="-97.645899" changeset="false"><tag k="addr:street" v="Boyle Drive"/><tag k="addr:housenumber" v="7012"/></node><node id="-74" lat="30.311179" lon="-97.615632" changeset="false"><tag k="addr:street" v="Decker Lane"/><tag k="addr:housenumber" v="8500"/></node><node id="-75" lat="30.306194" lon="-97.644755" changeset="false"><tag k="addr:street" v="Boyle Drive"/><tag k="addr:housenumber" v="7129"/></node><node id="-76" lat="30.306042" lon="-97.645546" changeset="false"><tag k="addr:street" v="Boyle Drive"/><tag k="addr:housenumber" v="7112"/></node><node id="-77" lat="30.30498" lon="-97.646654" changeset="false"><tag k="addr:street" v="Keegans Drive"/><tag k="addr:housenumber" v="6405"/></node><node id="-78" lat="30.309149" lon="-97.636566" changeset="false"><tag k="addr:street" v="Point North Drive"/><tag k="addr:housenumber" v="6919 1/2"/></node><node id="-79" lat="30.307532" lon="-97.639604" changeset="false"><tag k="addr:street" v="Point North Drive"/><tag k="addr:housenumber" v="6807"/></node><node id="-80" lat="30.307426" lon="-97.63796" changeset="false"><tag k="addr:street" v="Northview Lane"/><tag k="addr:housenumber" v="7500"/></node><node id="-81" lat="30.307364" lon="-97.645039" changeset="false"><tag k="addr:street" v="Zachary Drive"/><tag k="addr:housenumber" v="7217"/></node><node id="-82" lat="30.306929" lon="-97.644286" changeset="false"><tag k="addr:street" v="Boyle Drive"/><tag k="addr:housenumber" v="7221"/></node><node id="-83" lat="30.309418" lon="-97.640714" changeset="false"><tag k="addr:street" v="Starcrest Lane"/><tag k="addr:housenumber" v="6607"/></node><node id="-84" lat="30.310723" lon="-97.64011" changeset="false"><tag k="addr:street" v="Compass Drive"/><tag k="addr:housenumber" v="7620"/></node><node id="-85" lat="30.306201" lon="-97.645825" changeset="false"><tag k="addr:street" v="Zachary Drive"/><tag k="addr:housenumber" v="7105"/></node><node id="-86" lat="30.316789" lon="-97.612081" changeset="false"><tag k="addr:street" v="Decker Lane"/><tag k="addr:housenumber" v="9000"/></node><node id="-87" lat="30.307413" lon="-97.618132" changeset="false"><tag k="addr:street" v="Decker Lane"/><tag k="addr:housenumber" v="8104"/></node><node id="-88" lat="30.326563" lon="-97.638529" changeset="false"><tag k="addr:street" v="Old Manor Road"/><tag k="addr:housenumber" v="8712"/></node><node id="-89" lat="30.321038" lon="-97.630754" changeset="false"><tag k="addr:street" v="Johnny Morris Road"/><tag k="addr:housenumber" v="8711"/></node><node id="-90" lat="30.308811" lon="-97.637473" changeset="false"><tag k="addr:street" v="Point North Drive"/><tag k="addr:housenumber" v="6910"/></node><node id="-91" lat="30.310955" lon="-97.638999" changeset="false"><tag k="addr:street" v="Breezy Hill Drive"/><tag k="addr:housenumber" v="6602"/></node><node id="-92" lat="30.309378" lon="-97.639135" changeset="false"><tag k="addr:street" v="Northview Lane"/><tag k="addr:housenumber" v="7608"/></node><node id="-93" lat="30.309277" lon="-97.637159" changeset="false"><tag k="addr:street" v="Point North Drive"/><tag k="addr:housenumber" v="6916"/></node><node id="-94" lat="30.313271" lon="-97.617548" changeset="false"><tag k="addr:street" v="Daffan Lane"/><tag k="addr:housenumber" v="8314"/></node><node id="-95" lat="30.305815" lon="-97.644996" changeset="false"><tag k="addr:street" v="Boyle Drive"/><tag k="addr:housenumber" v="7113"/></node><node id="-96" lat="30.304311" lon="-97.645874" changeset="false"><tag k="addr:street" v="Johnny Morris Road"/><tag k="addr:housenumber" v="7010"/></node><node id="-97" lat="30.309043" lon="-97.64099" changeset="false"><tag k="addr:street" v="Compass Drive"/><tag k="addr:housenumber" v="7529"/></node><node id="-98" lat="30.308937" lon="-97.637401" changeset="false"><tag k="addr:street" v="Point North Drive"/><tag k="addr:housenumber" v="6912"/></node><node id="-99" lat="30.308683" lon="-97.638112" changeset="false"><tag k="addr:street" v="Northview Lane"/><tag k="addr:housenumber" v="7519"/></node><node id="-100" lat="30.308596" lon="-97.637627" changeset="false"><tag k="addr:street" v="Point North Drive"/><tag k="addr:housenumber" v="6906"/></node><node id="-101" lat="30.305399" lon="-97.645981" changeset="false"><tag k="addr:street" v="Boyle Drive"/><tag k="addr:housenumber" v="7008"/></node><node id="-102" lat="30.305291" lon="-97.646047" changeset="false"><tag k="addr:street" v="Boyle Drive"/><tag k="addr:housenumber" v="7004"/></node><node id="-103" lat="30.305085" lon="-97.645509" changeset="false"><tag k="addr:street" v="Boyle Drive"/><tag k="addr:housenumber" v="7009"/></node><node id="-104" lat="30.307416" lon="-97.643352" changeset="false"><tag k="addr:street" v="Johnny Morris Road"/><tag k="addr:housenumber" v="7307"/></node><node id="-105" lat="30.307148" lon="-97.640723" changeset="false"><tag k="addr:street" v="Point North Drive"/><tag k="addr:housenumber" v="6711"/></node><node id="-106" lat="30.306999" lon="-97.641338" changeset="false"><tag k="addr:street" v="Point North Drive"/><tag k="addr:housenumber" v="6705"/></node><node id="-107" lat="30.307545" lon="-97.639059" changeset="false"><tag k="addr:street" v="Point North Drive"/><tag k="addr:housenumber" v="6813"/></node><node id="-108" lat="30.301135" lon="-97.648741" changeset="false"><tag k="addr:street" v="Loyola Lane"/><tag k="addr:housenumber" v="6420 1/2"/></node><node id="-109" lat="30.300728" lon="-97.647609" changeset="false"><tag k="addr:street" v="Johnny Morris Road"/><tag k="addr:housenumber" v="6711"/></node><node id="-110" lat="30.301829" lon="-97.651119" changeset="false"><tag k="addr:street" v="Loyola Lane"/><tag k="addr:housenumber" v="6200 1/2"/></node><node id="-111" lat="30.309873" lon="-97.641329" changeset="false"><tag k="addr:street" v="Compass Drive"/><tag k="addr:housenumber" v="7550"/></node><node id="-112" lat="30.309603" lon="-97.637841" changeset="false"><tag k="addr:street" v="Breezy Hill Drive"/><tag k="addr:housenumber" v="6809"/></node><node id="-113" lat="30.304848" lon="-97.645657" changeset="false"><tag k="addr:street" v="Boyle Drive"/><tag k="addr:housenumber" v="7001"/></node><node id="-114" lat="30.308118" lon="-97.641596" changeset="false"><tag k="addr:street" v="Arctic Court"/><tag k="addr:housenumber" v="7410"/></node><node id="-115" lat="30.308932" lon="-97.63978" changeset="false"><tag k="addr:street" v="Starcrest Lane"/><tag k="addr:housenumber" v="6709"/></node><node id="-116" lat="30.324245" lon="-97.628168" changeset="false"><tag k="addr:street" v="Johnny Morris Road"/><tag k="addr:housenumber" v="9011"/></node><node id="-117" lat="30.305941" lon="-97.646643" changeset="false"><tag k="addr:street" v="Zachary Drive"/><tag k="addr:housenumber" v="7012"/></node><node id="-118" lat="30.308635" lon="-97.638586" changeset="false"><tag k="addr:street" v="Northview Lane"/><tag k="addr:housenumber" v="7520"/></node><node id="-119" lat="30.322499" lon="-97.608732" changeset="false"><tag k="addr:street" v="Decker Lane"/><tag k="addr:housenumber" v="9600"/></node><node id="-120" lat="30.332297" lon="-97.603858" changeset="false"><tag k="addr:street" v="Decker Lane"/><tag k="addr:housenumber" v="10506"/></node><node id="-121" lat="30.320427" lon="-97.609435" changeset="false"><tag k="addr:street" v="Decker Lane"/><tag k="addr:housenumber" v="9408"/></node><node id="-122" lat="30.306131" lon="-97.618681" changeset="false"><tag k="addr:street" v="Decker Lane"/><tag k="addr:housenumber" v="8008"/></node><node id="-123" lat="30.307742" lon="-97.642578" changeset="false"><tag k="addr:street" v="Point North Drive"/><tag k="addr:housenumber" v="6602"/></node><node id="-124" lat="30.308461" lon="-97.640635" changeset="false"><tag k="addr:street" v="Compass Drive"/><tag k="addr:housenumber" v="7512"/></node><node id="-125" lat="30.309528" lon="-97.636652" changeset="false"><tag k="addr:street" v="Breezy Hill Drive"/><tag k="addr:housenumber" v="6908"/></node><node id="-126" lat="30.306514" lon="-97.644277" changeset="false"><tag k="addr:street" v="Johnny Morris Road"/><tag k="addr:housenumber" v="7206"/></node><node id="-127" lat="30.309476" lon="-97.640083" changeset="false"><tag k="addr:street" v="Starcrest Lane"/><tag k="addr:housenumber" v="6700"/></node><node id="-128" lat="30.335082" lon="-97.605053" changeset="false"><tag k="addr:street" v="US Highway 290"/><tag k="addr:housenumber" v="9845 1/2"/></node><node id="-129" lat="30.305664" lon="-97.646198" changeset="false"><tag k="addr:street" v="Zachary Drive"/><tag k="addr:housenumber" v="7013"/></node><node id="-130" lat="30.308" lon="-97.642955" changeset="false"><tag k="addr:street" v="Point North Drive"/><tag k="addr:housenumber" v="6500"/></node><node id="-131" lat="30.307262" lon="-97.642319" changeset="false"><tag k="addr:street" v="Point North Drive"/><tag k="addr:housenumber" v="6605"/></node><node id="-132" lat="30.307004" lon="-97.644866" changeset="false"><tag k="addr:street" v="Boyle Drive"/><tag k="addr:housenumber" v="7216"/></node><node id="-133" lat="30.306711" lon="-97.645485" changeset="false"><tag k="addr:street" v="Zachary Drive"/><tag k="addr:housenumber" v="7125"/></node><node id="-134" lat="30.307765" lon="-97.645819" changeset="false"><tag k="addr:street" v="Farrell Glen Drive"/><tag k="addr:housenumber" v="6409"/></node><node id="-135" lat="30.309776" lon="-97.641408" changeset="false"><tag k="addr:street" v="Compass Drive"/><tag k="addr:housenumber" v="7548"/></node><node id="-136" lat="30.310529" lon="-97.640586" changeset="false"><tag k="addr:street" v="Compass Drive"/><tag k="addr:housenumber" v="7612"/></node><node id="-137" lat="30.308008" lon="-97.644802" changeset="false"><tag k="addr:street" v="Farrell Glen Drive"/><tag k="addr:housenumber" v="6500"/></node><node id="-138" lat="30.320018" lon="-97.625324" changeset="false"><tag k="addr:street" v="Daffan Lane"/><tag k="addr:housenumber" v="7304"/></node><node id="-139" lat="30.309111" lon="-97.641127" changeset="false"><tag k="addr:street" v="Compass Drive"/><tag k="addr:housenumber" v="7531"/></node><node id="-140" lat="30.305396" lon="-97.647467" changeset="false"><tag k="addr:street" v="Keegans Drive"/><tag k="addr:housenumber" v="6309"/></node><node id="-141" lat="30.305254" lon="-97.647207" changeset="false"><tag k="addr:street" v="Keegans Drive"/><tag k="addr:housenumber" v="6317"/></node><node id="-142" lat="30.305443" lon="-97.646336" changeset="false"><tag k="addr:street" v="Zachary Drive"/><tag k="addr:housenumber" v="7005"/></node><node id="-143" lat="30.306409" lon="-97.645699" changeset="false"><tag k="addr:street" v="Zachary Drive"/><tag k="addr:housenumber" v="7113"/></node><node id="-144" lat="30.306358" lon="-97.64534" changeset="false"><tag k="addr:street" v="Boyle Drive"/><tag k="addr:housenumber" v="7124"/></node><node id="-145" lat="30.327237" lon="-97.626641" changeset="false"><tag k="addr:street" v="Johnny Morris Road"/><tag k="addr:housenumber" v="9405"/></node><node id="-146" lat="30.329007" lon="-97.630432" changeset="false"><tag k="addr:street" v="Old Manor Road"/><tag k="addr:housenumber" v="9306"/></node><node id="-147" lat="30.307936" lon="-97.641551" changeset="false"><tag k="addr:street" v="Arctic Court"/><tag k="addr:housenumber" v="7408"/></node><node id="-148" lat="30.307778" lon="-97.64436" changeset="false"><tag k="addr:street" v="Farrell Glen Drive"/><tag k="addr:housenumber" v="6512"/></node><node id="-149" lat="30.308361" lon="-97.646677" changeset="false"><tag k="addr:street" v="Farrell Glen Drive"/><tag k="addr:housenumber" v="6300"/></node><node id="-150" lat="30.304843" lon="-97.646381" changeset="false"><tag k="addr:street" v="Keegans Drive"/><tag k="addr:housenumber" v="6413"/></node><node id="-151" lat="30.310113" lon="-97.64038" changeset="false"><tag k="addr:street" v="Northview Lane"/><tag k="addr:housenumber" v="7630"/></node><node id="-152" lat="30.310059" lon="-97.641182" changeset="false"><tag k="addr:street" v="Compass Drive"/><tag k="addr:housenumber" v="7600"/></node><node id="-153" lat="30.309809" lon="-97.638299" changeset="false"><tag k="addr:street" v="Breezy Hill Drive"/><tag k="addr:housenumber" v="6803"/></node><node id="-154" lat="30.305562" lon="-97.64627" changeset="false"><tag k="addr:street" v="Zachary Drive"/><tag k="addr:housenumber" v="7009"/></node><node id="-155" lat="30.307292" lon="-97.644022" changeset="false"><tag k="addr:street" v="Boyle Drive"/><tag k="addr:housenumber" v="7233"/></node><node id="-156" lat="30.307528" lon="-97.639405" changeset="false"><tag k="addr:street" v="Point North Drive"/><tag k="addr:housenumber" v="6809"/></node><node id="-157" lat="30.307529" lon="-97.643977" changeset="false"><tag k="addr:street" v="Farrell Glen Drive"/><tag k="addr:housenumber" v="6520"/></node><node id="-158" lat="30.308301" lon="-97.640348" changeset="false"><tag k="addr:street" v="Compass Drive"/><tag k="addr:housenumber" v="7508"/></node><node id="-159" lat="30.308228" lon="-97.645776" changeset="false"><tag k="addr:street" v="Farrell Glen Drive"/><tag k="addr:housenumber" v="6404"/></node><node id="-160" lat="30.306799" lon="-97.644404" changeset="false"><tag k="addr:street" v="Boyle Drive"/><tag k="addr:housenumber" v="7217"/></node><node id="-161" lat="30.319594" lon="-97.610286" changeset="false"><tag k="addr:street" v="Decker Lane"/><tag k="addr:housenumber" v="9300"/></node><node id="-162" lat="30.329004" lon="-97.619495" changeset="false"><tag k="addr:street" v="Crofford Lane"/><tag k="addr:housenumber" v="9705"/></node><node id="-163" lat="30.314963" lon="-97.64101" changeset="false"><tag k="addr:street" v="Johnny Morris Road"/><tag k="addr:housenumber" v="7724"/></node><node id="-164" lat="30.308252" lon="-97.64594" changeset="false"><tag k="addr:street" v="Farrell Glen Drive"/><tag k="addr:housenumber" v="6400"/></node><node id="-165" lat="30.307263" lon="-97.640548" changeset="false"><tag k="addr:street" v="Point North Drive"/><tag k="addr:housenumber" v="6713"/></node><node id="-166" lat="30.307141" lon="-97.645194" changeset="false"><tag k="addr:street" v="Zachary Drive"/><tag k="addr:housenumber" v="7209"/></node><node id="-167" lat="30.307708" lon="-97.644196" changeset="false"><tag k="addr:street" v="Farrell Glen Drive"/><tag k="addr:housenumber" v="6516"/></node><node id="-168" lat="30.307539" lon="-97.638903" changeset="false"><tag k="addr:street" v="Point North Drive"/><tag k="addr:housenumber" v="6815"/></node><node id="-169" lat="30.309793" lon="-97.643354" changeset="false"><tag k="addr:street" v="Johnny Morris Road"/><tag k="addr:housenumber" v="7414"/></node><node id="-170" lat="30.309707" lon="-97.639741" changeset="false"><tag k="addr:street" v="Northview Lane"/><tag k="addr:housenumber" v="7618"/></node><node id="-171" lat="30.308059" lon="-97.640232" changeset="false"><tag k="addr:street" v="Compass Drive"/><tag k="addr:housenumber" v="7504"/></node><node id="-172" lat="30.308295" lon="-97.637844" changeset="false"><tag k="addr:street" v="Point North Drive"/><tag k="addr:housenumber" v="6902"/></node><node id="-173" lat="30.328439" lon="-97.61998" changeset="false"><tag k="addr:street" v="Crofford Lane"/><tag k="addr:housenumber" v="9701"/></node><node id="-174" lat="30.329053" lon="-97.619467" changeset="false"><tag k="addr:street" v="Crofford Lane"/><tag k="addr:housenumber" v="9709"/></node><node id="-175" lat="30.326097" lon="-97.606026" changeset="false"><tag k="addr:street" v="Decker Lane"/><tag k="addr:housenumber" v="10000"/></node><node id="-176" lat="30.323847" lon="-97.608695" changeset="false"><tag k="addr:street" v="Decker Lane"/><tag k="addr:housenumber" v="9940"/></node><node id="-177" lat="30.306086" lon="-97.647045" changeset="false"><tag k="addr:street" v="Keegans Drive"/><tag k="addr:housenumber" v="6308"/></node><node id="-178" lat="30.306" lon="-97.646859" changeset="false"><tag k="addr:street" v="Keegans Drive"/><tag k="addr:housenumber" v="6312"/></node><node id="-179" lat="30.308721" lon="-97.640311" changeset="false"><tag k="addr:street" v="Compass Drive"/><tag k="addr:housenumber" v="7517"/></node><node id="-180" lat="30.317702" lon="-97.624582" changeset="false"><tag k="addr:street" v="Daffan Lane"/><tag k="addr:housenumber" v="7500"/></node><node id="-181" lat="30.305064" lon="-97.646784" changeset="false"><tag k="addr:street" v="Keegans Drive"/><tag k="addr:housenumber" v="6401"/></node><node id="-182" lat="30.309291" lon="-97.638201" changeset="false"><tag k="addr:street" v="Northview Cove"/><tag k="addr:housenumber" v="6802"/></node><node id="-183" lat="30.309382" lon="-97.641845" changeset="false"><tag k="addr:street" v="Compass Drive"/><tag k="addr:housenumber" v="7538"/></node><node id="-184" lat="30.308193" lon="-97.638062" changeset="false"><tag k="addr:street" v="Point North Drive"/><tag k="addr:housenumber" v="6900"/></node><node id="-185" lat="30.308213" lon="-97.645298" changeset="false"><tag k="addr:street" v="Farrell Glen Drive"/><tag k="addr:housenumber" v="6416"/></node><node id="-186" lat="30.307998" lon="-97.639296" changeset="false"><tag k="addr:street" v="Starcrest Lane"/><tag k="addr:housenumber" v="6811"/></node><node id="-187" lat="30.307919" lon="-97.63891" changeset="false"><tag k="addr:street" v="Starcrest Lane"/><tag k="addr:housenumber" v="6814"/></node><node id="-188" lat="30.309655" lon="-97.641056" changeset="false"><tag k="addr:street" v="Starcrest Lane"/><tag k="addr:housenumber" v="6601"/></node><node id="-189" lat="30.309082" lon="-97.638812" changeset="false"><tag k="addr:street" v="Northview Lane"/><tag k="addr:housenumber" v="7602"/></node><node id="-190" lat="30.326363" lon="-97.639389" changeset="false"><tag k="addr:street" v="Karling Drive"/><tag k="addr:housenumber" v="8603"/></node><node id="-191" lat="30.322366" lon="-97.629957" changeset="false"><tag k="addr:street" v="Johnny Morris Road"/><tag k="addr:housenumber" v="8817"/></node><node id="-192" lat="30.337714" lon="-97.599644" changeset="false"><tag k="addr:street" v="US Highway 290"/><tag k="addr:housenumber" v="9910"/></node><node id="-193" lat="30.310844" lon="-97.639454" changeset="false"><tag k="addr:street" v="Compass Drive"/><tag k="addr:housenumber" v="7630"/></node><node id="-194" lat="30.30902" lon="-97.641827" changeset="false"><tag k="addr:street" v="Compass Drive"/><tag k="addr:housenumber" v="7532"/></node><node id="-195" lat="30.30512" lon="-97.619684" changeset="false"><tag k="addr:street" v="Decker Lane"/><tag k="addr:housenumber" v="7916"/></node><node id="-196" lat="30.31977" lon="-97.625881" changeset="false"><tag k="addr:street" v="Daffan Lane"/><tag k="addr:housenumber" v="7310"/></node><node id="-197" lat="30.300645" lon="-97.647676" changeset="false"><tag k="addr:street" v="Johnny Morris Road"/><tag k="addr:housenumber" v="6711 1/2"/></node><node id="-198" lat="30.30808" lon="-97.621309" changeset="false"><tag k="addr:street" v="North Lake Drive"/><tag k="addr:housenumber" v="8014"/></node><node id="-199" lat="30.308107" lon="-97.639338" changeset="false"><tag k="addr:street" v="Starcrest Lane"/><tag k="addr:housenumber" v="6809"/></node><node id="-200" lat="30.324325" lon="-97.607043" changeset="false"><tag k="addr:street" v="Decker Lane"/><tag k="addr:housenumber" v="9950"/></node><node id="-201" lat="30.309902" lon="-97.639275" changeset="false"><tag k="addr:street" v="Northview Lane"/><tag k="addr:housenumber" v="7619"/></node><node id="-202" lat="30.30781" lon="-97.643624" changeset="false"><tag k="addr:street" v="Johnny Morris Road"/><tag k="addr:housenumber" v="7314 1/2"/></node><node id="-203" lat="30.309005" lon="-97.639923" changeset="false"><tag k="addr:street" v="Starcrest Lane"/><tag k="addr:housenumber" v="6707"/></node><node id="-204" lat="30.308277" lon="-97.642925" changeset="false"><tag k="addr:street" v="Johnny Morris Road"/><tag k="addr:housenumber" v="7401"/></node><node id="-205" lat="30.30787" lon="-97.646734" changeset="false"><tag k="addr:street" v="Farrell Glen Drive"/><tag k="addr:housenumber" v="6309"/></node><node id="-206" lat="30.308258" lon="-97.646195" changeset="false"><tag k="addr:street" v="Farrell Glen Drive"/><tag k="addr:housenumber" v="6316"/></node><node id="-207" lat="30.308516" lon="-97.638531" changeset="false"><tag k="addr:street" v="Northview Lane"/><tag k="addr:housenumber" v="7518"/></node><node id="-208" lat="30.306292" lon="-97.644693" changeset="false"><tag k="addr:street" v="Boyle Drive"/><tag k="addr:housenumber" v="7201"/></node><node id="-209" lat="30.306305" lon="-97.645767" changeset="false"><tag k="addr:street" v="Zachary Drive"/><tag k="addr:housenumber" v="7109"/></node><node id="-210" lat="30.308744" lon="-97.638635" changeset="false"><tag k="addr:street" v="Northview Lane"/><tag k="addr:housenumber" v="7522"/></node><node id="-211" lat="30.306082" lon="-97.645903" changeset="false"><tag k="addr:street" v="Zachary Drive"/><tag k="addr:housenumber" v="7101"/></node><node id="-212" lat="30.305922" lon="-97.618792" changeset="false"><tag k="addr:street" v="Decker Lane"/><tag k="addr:housenumber" v="8002 1/2"/></node><node id="-213" lat="30.305628" lon="-97.645131" changeset="false"><tag k="addr:street" v="Boyle Drive"/><tag k="addr:housenumber" v="7105"/></node><node id="-214" lat="30.307171" lon="-97.644102" changeset="false"><tag k="addr:street" v="Boyle Drive"/><tag k="addr:housenumber" v="7229"/></node><node id="-215" lat="30.307055" lon="-97.6442" changeset="false"><tag k="addr:street" v="Boyle Drive"/><tag k="addr:housenumber" v="7225"/></node><node id="-216" lat="30.309641" lon="-97.63883" changeset="false"><tag k="addr:street" v="Northview Lane"/><tag k="addr:housenumber" v="7611"/></node><node id="-217" lat="30.316788" lon="-97.623943" changeset="false"><tag k="addr:street" v="Daffan Lane"/><tag k="addr:housenumber" v="7601"/></node><node id="-218" lat="30.313379" lon="-97.614301" changeset="false"><tag k="addr:street" v="Decker Lane"/><tag k="addr:housenumber" v="8706"/></node><node id="-219" lat="30.309454" lon="-97.64173" changeset="false"><tag k="addr:street" v="Compass Drive"/><tag k="addr:housenumber" v="7540"/></node><node id="-220" lat="30.305719" lon="-97.645069" changeset="false"><tag k="addr:street" v="Boyle Drive"/><tag k="addr:housenumber" v="7109"/></node><node id="-221" lat="30.308974" lon="-97.637902" changeset="false"><tag k="addr:street" v="Northview Cove"/><tag k="addr:housenumber" v="6805"/></node><node id="-222" lat="30.309178" lon="-97.640282" changeset="false"><tag k="addr:street" v="Starcrest Lane"/><tag k="addr:housenumber" v="6701"/></node><node id="-223" lat="30.305914" lon="-97.647459" changeset="false"><tag k="addr:street" v="Keegans Drive"/><tag k="addr:housenumber" v="6300"/></node><node id="-224" lat="30.307054" lon="-97.641846" changeset="false"><tag k="addr:street" v="Point North Drive"/><tag k="addr:housenumber" v="6701"/></node><node id="-225" lat="30.307468" lon="-97.644971" changeset="false"><tag k="addr:street" v="Zachary Drive"/><tag k="addr:housenumber" v="7221"/></node><node id="-226" lat="30.307112" lon="-97.644808" changeset="false"><tag k="addr:street" v="Boyle Drive"/><tag k="addr:housenumber" v="7220"/></node><node id="-227" lat="30.306942" lon="-97.645339" changeset="false"><tag k="addr:street" v="Zachary Drive"/><tag k="addr:housenumber" v="7201"/></node><node id="-228" lat="30.308185" lon="-97.640319" changeset="false"><tag k="addr:street" v="Compass Drive"/><tag k="addr:housenumber" v="7506"/></node><node id="-229" lat="30.307933" lon="-97.644668" changeset="false"><tag k="addr:street" v="Farrell Glen Drive"/><tag k="addr:housenumber" v="6504"/></node><node id="-230" lat="30.307806" lon="-97.639941" changeset="false"><tag k="addr:street" v="Point North Drive"/><tag k="addr:housenumber" v="6804"/></node><node id="-231" lat="30.307777" lon="-97.646441" changeset="false"><tag k="addr:street" v="Farrell Glen Drive"/><tag k="addr:housenumber" v="6313"/></node><node id="-232" lat="30.320113" lon="-97.625938" changeset="false"><tag k="addr:street" v="Daffan Lane"/><tag k="addr:housenumber" v="7300"/></node><node id="-233" lat="30.308858" lon="-97.638716" changeset="false"><tag k="addr:street" v="Northview Lane"/><tag k="addr:housenumber" v="7524"/></node><node id="-234" lat="30.308913" lon="-97.64146" changeset="false"><tag k="addr:street" v="Compass Drive"/><tag k="addr:housenumber" v="7526"/></node><node id="-235" lat="30.308853" lon="-97.641329" changeset="false"><tag k="addr:street" v="Compass Drive"/><tag k="addr:housenumber" v="7524"/></node><node id="-236" lat="30.306173" lon="-97.646479" changeset="false"><tag k="addr:street" v="Zachary Drive"/><tag k="addr:housenumber" v="7020"/></node><node id="-237" lat="30.30597" lon="-97.645981" changeset="false"><tag k="addr:street" v="Zachary Drive"/><tag k="addr:housenumber" v="7025"/></node><node id="-238" lat="30.306098" lon="-97.644805" changeset="false"><tag k="addr:street" v="Boyle Drive"/><tag k="addr:housenumber" v="7125"/></node><node id="-239" lat="30.309509" lon="-97.639239" changeset="false"><tag k="addr:street" v="Northview Lane"/><tag k="addr:housenumber" v="7610"/></node><node id="-240" lat="30.308532" lon="-97.646527" changeset="false"><tag k="addr:street" v="Farrell Glen Drive"/><tag k="addr:housenumber" v="6304"/></node><node id="-241" lat="30.30592" lon="-97.64562" changeset="false"><tag k="addr:street" v="Boyle Drive"/><tag k="addr:housenumber" v="7108"/></node><node id="-242" lat="30.334749" lon="-97.601598" changeset="false"><tag k="addr:street" v="Decker Lane"/><tag k="addr:housenumber" v="10800"/></node><node id="-243" lat="30.304774" lon="-97.646244" changeset="false"><tag k="addr:street" v="Keegans Drive"/><tag k="addr:housenumber" v="6417"/></node><node id="-244" lat="30.306297" lon="-97.6464" changeset="false"><tag k="addr:street" v="Zachary Drive"/><tag k="addr:housenumber" v="7100"/></node><node id="-245" lat="30.310567" lon="-97.638702" changeset="false"><tag k="addr:street" v="Breezy Hill Drive"/><tag k="addr:housenumber" v="6704"/></node><node id="-246" lat="30.309625" lon="-97.639491" changeset="false"><tag k="addr:street" v="Northview Lane"/><tag k="addr:housenumber" v="7614"/></node><node id="-247" lat="30.305327" lon="-97.647331" changeset="false"><tag k="addr:street" v="Keegans Drive"/><tag k="addr:housenumber" v="6313"/></node><node id="-248" lat="30.306012" lon="-97.644872" changeset="false"><tag k="addr:street" v="Boyle Drive"/><tag k="addr:housenumber" v="7121"/></node><node id="-249" lat="30.307468" lon="-97.6456" changeset="false"><tag k="addr:street" v="Zachary Drive"/><tag k="addr:housenumber" v="7212"/></node><node id="-250" lat="30.307213" lon="-97.644734" changeset="false"><tag k="addr:street" v="Boyle Drive"/><tag k="addr:housenumber" v="7224"/></node><node id="-251" lat="30.307054" lon="-97.645262" changeset="false"><tag k="addr:street" v="Zachary Drive"/><tag k="addr:housenumber" v="7205"/></node><node id="-252" lat="30.300508" lon="-97.648462" changeset="false"><tag k="addr:street" v="Loyola Lane"/><tag k="addr:housenumber" v="6500"/></node><node id="-253" lat="30.309668" lon="-97.638007" changeset="false"><tag k="addr:street" v="Breezy Hill Drive"/><tag k="addr:housenumber" v="6807"/></node><node id="-254" lat="30.309703" lon="-97.641486" changeset="false"><tag k="addr:street" v="Compass Drive"/><tag k="addr:housenumber" v="7546"/></node><node id="-255" lat="30.309526" lon="-97.641633" changeset="false"><tag k="addr:street" v="Compass Drive"/><tag k="addr:housenumber" v="7542"/></node><node id="-256" lat="30.300525" lon="-97.648213" changeset="false"><tag k="addr:street" v="Johnny Morris Road"/><tag k="addr:housenumber" v="6706"/></node><node id="-257" lat="30.311096" lon="-97.637412" changeset="false"><tag k="addr:street" v="Johnny Morris Road"/><tag k="addr:housenumber" v="7759"/></node><node id="-258" lat="30.306782" lon="-97.645029" changeset="false"><tag k="addr:street" v="Boyle Drive"/><tag k="addr:housenumber" v="7208"/></node><node id="-259" lat="30.308067" lon="-97.64496" changeset="false"><tag k="addr:street" v="Farrell Glen Drive"/><tag k="addr:housenumber" v="6424"/></node><node id="-260" lat="30.307939" lon="-97.642822" changeset="false"><tag k="addr:street" v="Point North Drive"/><tag k="addr:housenumber" v="6502"/></node><node id="-261" lat="30.308826" lon="-97.641216" changeset="false"><tag k="addr:street" v="Compass Drive"/><tag k="addr:housenumber" v="7522"/></node><node id="-262" lat="30.306064" lon="-97.647298" changeset="false"><tag k="addr:street" v="Keegans Drive"/><tag k="addr:housenumber" v="6304"/></node><node id="-263" lat="30.326391" lon="-97.637194" changeset="false"><tag k="addr:street" v="Old Manor Road"/><tag k="addr:housenumber" v="8805 1/2"/></node><node id="-264" lat="30.326115" lon="-97.638207" changeset="false"><tag k="addr:street" v="Old Manor Road"/><tag k="addr:housenumber" v="8713"/></node><node id="-265" lat="30.308314" lon="-97.638459" changeset="false"><tag k="addr:street" v="Northview Lane"/><tag k="addr:housenumber" v="7514"/></node><node id="-266" lat="30.308549" lon="-97.6463" changeset="false"><tag k="addr:street" v="Farrell Glen Drive"/><tag k="addr:housenumber" v="6308"/></node><node id="-267" lat="30.32071" lon="-97.610389" changeset="false"><tag k="addr:street" v="Decker Lane"/><tag k="addr:housenumber" v="9400"/></node><node id="-268" lat="30.329883" lon="-97.618811" changeset="false"><tag k="addr:street" v="Crofford Lane"/><tag k="addr:housenumber" v="9715"/></node><node id="-269" lat="30.307314" lon="-97.644676" changeset="false"><tag k="addr:street" v="Boyle Drive"/><tag k="addr:housenumber" v="7228"/></node><node id="-270" lat="30.307471" lon="-97.638133" changeset="false"><tag k="addr:street" v="Northview Lane"/><tag k="addr:housenumber" v="7502"/></node><node id="-271" lat="30.307506" lon="-97.639937" changeset="false"><tag k="addr:street" v="Point North Drive"/><tag k="addr:housenumber" v="6803"/></node><node id="-272" lat="30.329428" lon="-97.629583" changeset="false"><tag k="addr:street" v="Old Manor Road"/><tag k="addr:housenumber" v="9320 1/2"/></node><node id="-273" lat="30.305557" lon="-97.647595" changeset="false"><tag k="addr:street" v="Keegans Drive"/><tag k="addr:housenumber" v="6305"/></node><node id="-274" lat="30.308743" lon="-97.638324" changeset="false"><tag k="addr:street" v="Northview Lane"/><tag k="addr:housenumber" v="7521"/></node><node id="-275" lat="30.307006" lon="-97.641133" changeset="false"><tag k="addr:street" v="Point North Drive"/><tag k="addr:housenumber" v="6707"/></node><node id="-276" lat="30.308435" lon="-97.637693" changeset="false"><tag k="addr:street" v="Point North Drive"/><tag k="addr:housenumber" v="6904"/></node><node id="-277" lat="30.308714" lon="-97.63958" changeset="false"><tag k="addr:street" v="Starcrest Lane"/><tag k="addr:housenumber" v="6713"/></node><node id="-278" lat="30.307803" lon="-97.646151" changeset="false"><tag k="addr:street" v="Farrell Glen Drive"/><tag k="addr:housenumber" v="6401"/></node><node id="-279" lat="30.308452" lon="-97.639943" changeset="false"><tag k="addr:street" v="Compass Drive"/><tag k="addr:housenumber" v="7511"/></node><node id="-280" lat="30.308224" lon="-97.64561" changeset="false"><tag k="addr:street" v="Farrell Glen Drive"/><tag k="addr:housenumber" v="6408"/></node><node id="-281" lat="30.309466" lon="-97.637581" changeset="false"><tag k="addr:street" v="Breezy Hill Drive"/><tag k="addr:housenumber" v="6813"/></node><node id="-282" lat="30.309241" lon="-97.64039" changeset="false"><tag k="addr:street" v="Starcrest Lane"/><tag k="addr:housenumber" v="6613"/></node><node id="-283" lat="30.307953" lon="-97.637802" changeset="false"><tag k="addr:street" v="Point North Drive"/><tag k="addr:housenumber" v="6901"/></node><node id="-284" lat="30.305769" lon="-97.647552" changeset="false"><tag k="addr:street" v="Keegans Drive"/><tag k="addr:housenumber" v="6301"/></node><node id="-285" lat="30.305196" lon="-97.647057" changeset="false"><tag k="addr:street" v="Keegans Drive"/><tag k="addr:housenumber" v="6321"/></node><node id="-286" lat="30.310269" lon="-97.639137" changeset="false"><tag k="addr:street" v="Breezy Hill Drive"/><tag k="addr:housenumber" v="6705"/></node><node id="-287" lat="30.310227" lon="-97.640988" changeset="false"><tag k="addr:street" v="Compass Drive"/><tag k="addr:housenumber" v="7604"/></node><node id="-288" lat="30.307833" lon="-97.639279" changeset="false"><tag k="addr:street" v="Point North Drive"/><tag k="addr:housenumber" v="6806"/></node><node id="-289" lat="30.308221" lon="-97.645445" changeset="false"><tag k="addr:street" v="Farrell Glen Drive"/><tag k="addr:housenumber" v="6412"/></node><node id="-290" lat="30.307944" lon="-97.646329" changeset="false"><tag k="addr:street" v="Farrell Glen Drive"/><tag k="addr:housenumber" v="6317"/></node><node id="-291" lat="30.310645" lon="-97.640362" changeset="false"><tag k="addr:street" v="Compass Drive"/><tag k="addr:housenumber" v="7616"/></node><node id="-292" lat="30.309971" lon="-97.617432" changeset="false"><tag k="addr:street" v="Decker Lane"/><tag k="addr:housenumber" v="8302"/></node><node id="-293" lat="30.309055" lon="-97.637304" changeset="false"><tag k="addr:street" v="Point North Drive"/><tag k="addr:housenumber" v="6914"/></node><node id="-294" lat="30.32423" lon="-97.629492" changeset="false"><tag k="addr:street" v="Johnny Morris Road"/><tag k="addr:housenumber" v="9000"/></node><node id="-295" lat="30.337544" lon="-97.600152" changeset="false"><tag k="addr:street" v="US Highway 290"/><tag k="addr:housenumber" v="9900"/></node><node id="-296" lat="30.307662" lon="-97.638584" changeset="false"><tag k="addr:street" v="Point North Drive"/><tag k="addr:housenumber" v="6819"/></node><node id="-297" lat="30.307777" lon="-97.645974" changeset="false"><tag k="addr:street" v="Farrell Glen Drive"/><tag k="addr:housenumber" v="6405"/></node><node id="-298" lat="30.308634" lon="-97.617281" changeset="false"><tag k="addr:street" v="Decker Lane"/><tag k="addr:housenumber" v="8208"/></node><node id="-299" lat="30.306393" lon="-97.644631" changeset="false"><tag k="addr:street" v="Boyle Drive"/><tag k="addr:housenumber" v="7205"/></node><node id="-300" lat="30.30615" lon="-97.64548" changeset="false"><tag k="addr:street" v="Boyle Drive"/><tag k="addr:housenumber" v="7116"/></node><node id="-301" lat="30.308408" lon="-97.638502" changeset="false"><tag k="addr:street" v="Northview Lane"/><tag k="addr:housenumber" v="7516"/></node><node id="-302" lat="30.30809" lon="-97.646797" changeset="false"><tag k="addr:street" v="Farrell Glen Drive"/><tag k="addr:housenumber" v="6305"/></node><node id="-303" lat="30.305867" lon="-97.646058" changeset="false"><tag k="addr:street" v="Zachary Drive"/><tag k="addr:housenumber" v="7021"/></node><node id="-304" lat="30.32766" lon="-97.636416" changeset="false"><tag k="addr:street" v="Old Manor Road"/><tag k="addr:housenumber" v="8824"/></node><node id="-305" lat="30.305116" lon="-97.646915" changeset="false"><tag k="addr:street" v="Keegans Drive"/><tag k="addr:housenumber" v="6325"/></node><node id="-306" lat="30.310226" lon="-97.63803" changeset="false"><tag k="addr:street" v="Breezy Hill Drive"/><tag k="addr:housenumber" v="6802"/></node><node id="-307" lat="30.310302" lon="-97.638149" changeset="false"><tag k="addr:street" v="Breezy Hill Drive"/><tag k="addr:housenumber" v="6800"/></node></osm>