<?xml version="1.0" encoding="UTF-8"?><osm version="0.6" generator="github.com/aaronlidman/osm-and-geojson"><node id="-1" lat="30.168298" lon="-97.624482" changeset="false"><tag k="addr:street" v="Los Cielos Boulevard"/><tag k="addr:housenumber" v="6110"/><tag k="coa:place_id" v="3122961"/></node><node id="-2" lat="30.157296" lon="-97.646065" changeset="false"><tag k="addr:street" v="Maybach Drive"/><tag k="addr:housenumber" v="11735"/><tag k="coa:place_id" v="209667"/></node><node id="-3" lat="30.172303" lon="-97.636843" changeset="false"><tag k="addr:street" v="Foley Drive"/><tag k="addr:housenumber" v="11716"/><tag k="coa:place_id" v="730102"/></node><node id="-4" lat="30.155466" lon="-97.646595" changeset="false"><tag k="addr:street" v="Wardman Drive"/><tag k="addr:housenumber" v="7229"/><tag k="coa:place_id" v="209725"/></node><node id="-5" lat="30.161696" lon="-97.641115" changeset="false"><tag k="addr:street" v="Savanna Canyon Drive"/><tag k="addr:housenumber" v="6720"/><tag k="coa:place_id" v="3156364"/></node><node id="-6" lat="30.168081" lon="-97.622947" changeset="false"><tag k="addr:street" v="Buenos Aires Parkway"/><tag k="addr:housenumber" v="12816"/><tag k="coa:place_id" v="3116032"/></node><node id="-7" lat="30.136611" lon="-97.653476" changeset="false"><tag k="addr:street" v="Farm-to-Market Road 812"/><tag k="addr:housenumber" v="12102"/><tag k="coa:place_id" v="660002"/></node><node id="-8" lat="30.165305" lon="-97.625602" changeset="false"><tag k="addr:street" v="Vida Nueva Avenue"/><tag k="addr:housenumber" v="6329"/><tag k="coa:place_id" v="3181719"/></node><node id="-9" lat="30.167866" lon="-97.628942" changeset="false"><tag k="addr:street" v="Paloma Blanca Way"/><tag k="addr:housenumber" v="12421"/><tag k="coa:place_id" v="3181698"/></node><node id="-10" lat="30.160224" lon="-97.641867" changeset="false"><tag k="addr:street" v="Savanna Canyon Court"/><tag k="addr:housenumber" v="11821"/><tag k="coa:place_id" v="3156342"/></node><node id="-11" lat="30.160731" lon="-97.641454" changeset="false"><tag k="addr:street" v="Savanna Canyon Court"/><tag k="addr:housenumber" v="11824"/><tag k="coa:place_id" v="3156336"/></node><node id="-12" lat="30.147469" lon="-97.667755" changeset="false"><tag k="addr:street" v="San Jose Avenue"/><tag k="addr:housenumber" v="10715"/><tag k="coa:place_id" v="250414"/></node><node id="-13" lat="30.154249" lon="-97.642846" changeset="false"><tag k="addr:street" v="White Panda Run"/><tag k="addr:housenumber" v="7229"/><tag k="coa:place_id" v="3032984"/></node><node id="-14" lat="30.159109" lon="-97.640636" changeset="false"><tag k="addr:street" v="Stoney Meadow Drive"/><tag k="addr:housenumber" v="11921"/><tag k="coa:place_id" v="3156407"/></node><node id="-15" lat="30.160788" lon="-97.642062" changeset="false"><tag k="addr:street" v="Savanna Canyon Court"/><tag k="addr:housenumber" v="11808"/><tag k="coa:place_id" v="3156332"/></node><node id="-16" lat="30.159532" lon="-97.646748" changeset="false"><tag k="addr:street" v="Tickford Drive"/><tag k="addr:housenumber" v="11616"/><tag k="coa:place_id" v="209601"/></node><node id="-17" lat="30.160406" lon="-97.649985" changeset="false"><tag k="addr:street" v="Darrin Lane"/><tag k="addr:housenumber" v="11408"/><tag k="coa:place_id" v="110718"/></node><node id="-18" lat="30.162786" lon="-97.64109" changeset="false"><tag k="addr:street" v="Plains Valley Drive"/><tag k="addr:housenumber" v="11812"/><tag k="coa:place_id" v="3156299"/></node><node id="-19" lat="30.17819" lon="-97.642685" changeset="false"><tag k="addr:street" v="Pearce Lane"/><tag k="addr:housenumber" v="11105"/><tag k="coa:place_id" v="1161257"/></node><node id="-20" lat="30.17072" lon="-97.634401" changeset="false"><tag k="addr:street" v="Foley Drive"/><tag k="addr:housenumber" v="11918"/><tag k="coa:place_id" v="751671"/></node><node id="-21" lat="30.161875" lon="-97.640283" changeset="false"><tag k="addr:street" v="Savanna Canyon Drive"/><tag k="addr:housenumber" v="6705"/><tag k="coa:place_id" v="3156355"/></node><node id="-22" lat="30.159532" lon="-97.650173" changeset="false"><tag k="addr:street" v="Cozette Drive"/><tag k="addr:housenumber" v="11408"/><tag k="coa:place_id" v="213367"/></node><node id="-23" lat="30.170569" lon="-97.635637" changeset="false"><tag k="addr:street" v="Foley Drive"/><tag k="addr:housenumber" v="11905"/><tag k="coa:place_id" v="122728"/></node><node id="-24" lat="30.162184" lon="-97.641781" changeset="false"><tag k="addr:street" v="Plains Valley Drive"/><tag k="addr:housenumber" v="11801"/><tag k="coa:place_id" v="3156345"/></node><node id="-25" lat="30.160826" lon="-97.638142" changeset="false"><tag k="addr:street" v="Plains Crest Drive"/><tag k="addr:housenumber" v="6804"/><tag k="coa:place_id" v="3296751"/></node><node id="-26" lat="30.160659" lon="-97.637631" changeset="false"><tag k="addr:street" v="Plains Crest Drive"/><tag k="addr:housenumber" v="6805"/><tag k="coa:place_id" v="3296765"/></node><node id="-27" lat="30.160554" lon="-97.637708" changeset="false"><tag k="addr:street" v="Plains Crest Drive"/><tag k="addr:housenumber" v="6809"/><tag k="coa:place_id" v="3296766"/></node><node id="-28" lat="30.159694" lon="-97.638042" changeset="false"><tag k="addr:street" v="Plains Crest Drive"/><tag k="addr:housenumber" v="6913"/><tag k="coa:place_id" v="3296773"/></node><node id="-29" lat="30.170734" lon="-97.636223" changeset="false"><tag k="addr:street" v="Foley Drive"/><tag k="addr:housenumber" v="11901"/><tag k="coa:place_id" v="3219364"/></node><node id="-30" lat="30.15651" lon="-97.646646" changeset="false"><tag k="addr:street" v="Apperson Street"/><tag k="addr:housenumber" v="7208"/><tag k="coa:place_id" v="174755"/></node><node id="-31" lat="30.177372" lon="-97.640144" changeset="false"><tag k="addr:street" v="Pearce Lane"/><tag k="addr:housenumber" v="11209 1/2"/><tag k="coa:place_id" v="3273097"/></node><node id="-32" lat="30.157929" lon="-97.645658" changeset="false"><tag k="addr:street" v="Railton Drive"/><tag k="addr:housenumber" v="11725"/><tag k="coa:place_id" v="209644"/></node><node id="-33" lat="30.16369" lon="-97.690644" changeset="false"><tag k="addr:street" v="Farm-to-Market Road 812"/><tag k="addr:housenumber" v="8714"/><tag k="coa:place_id" v="3381539"/></node><node id="-34" lat="30.161184" lon="-97.63729" changeset="false"><tag k="addr:street" v="Plains Crest Drive"/><tag k="addr:housenumber" v="6729"/><tag k="coa:place_id" v="3296746"/></node><node id="-35" lat="30.138731" lon="-97.657406" changeset="false"><tag k="addr:street" v="Farm-to-Market Road 812"/><tag k="addr:housenumber" v="11800"/><tag k="coa:place_id" v="660020"/></node><node id="-36" lat="30.161233" lon="-97.649707" changeset="false"><tag k="addr:street" v="Tickford Drive"/><tag k="addr:housenumber" v="11406"/><tag k="coa:place_id" v="99749"/></node><node id="-37" lat="30.16109" lon="-97.659827" changeset="false"><tag k="addr:street" v="Rowood Drive"/><tag k="addr:housenumber" v="6609"/><tag k="coa:place_id" v="109797"/></node><node id="-38" lat="30.166384" lon="-97.621326" changeset="false"><tag k="addr:street" v="Constellation Circle"/><tag k="addr:housenumber" v="6208"/><tag k="coa:place_id" v="3352947"/></node><node id="-39" lat="30.166055" lon="-97.621661" changeset="false"><tag k="addr:street" v="Constellation Circle"/><tag k="addr:housenumber" v="6209"/><tag k="coa:place_id" v="3352962"/></node><node id="-40" lat="30.167035" lon="-97.62262" changeset="false"><tag k="addr:street" v="Constellation Circle"/><tag k="addr:housenumber" v="6308"/><tag k="coa:place_id" v="3352967"/></node><node id="-41" lat="30.145686" lon="-97.664577" changeset="false"><tag k="addr:street" v="San Jose Avenue"/><tag k="addr:housenumber" v="10900"/><tag k="coa:place_id" v="3352897"/></node><node id="-42" lat="30.159207" lon="-97.636936" changeset="false"><tag k="addr:street" v="Stoney Meadow Drive"/><tag k="addr:housenumber" v="12212"/><tag k="coa:place_id" v="3296816"/></node><node id="-43" lat="30.166311" lon="-97.620298" changeset="false"><tag k="addr:street" v="Buenos Aires Parkway"/><tag k="addr:housenumber" v="13013"/><tag k="coa:place_id" v="3352944"/></node><node id="-44" lat="30.16649" lon="-97.620736" changeset="false"><tag k="addr:street" v="Buenos Aires Parkway"/><tag k="addr:housenumber" v="13001"/><tag k="coa:place_id" v="3352941"/></node><node id="-45" lat="30.160114" lon="-97.636147" changeset="false"><tag k="addr:street" v="Ferrystone Cove"/><tag k="addr:housenumber" v="12220"/><tag k="coa:place_id" v="3296852"/></node><node id="-46" lat="30.16086" lon="-97.636527" changeset="false"><tag k="addr:street" v="Prairie Glen Court"/><tag k="addr:housenumber" v="12201"/><tag k="coa:place_id" v="3296854"/></node><node id="-47" lat="30.159307" lon="-97.637971" changeset="false"><tag k="addr:street" v="Stoney Meadow Drive"/><tag k="addr:housenumber" v="12116"/><tag k="coa:place_id" v="3296802"/></node><node id="-48" lat="30.15904" lon="-97.651463" changeset="false"><tag k="addr:street" v="Cozette Court"/><tag k="addr:housenumber" v="7002 1/2"/><tag k="coa:place_id" v="3108283"/></node><node id="-49" lat="30.161297" lon="-97.634465" changeset="false"><tag k="addr:street" v="Ferrystone Glen Drive"/><tag k="addr:housenumber" v="12308"/><tag k="coa:place_id" v="5095412"/></node><node id="-50" lat="30.161565" lon="-97.634351" changeset="false"><tag k="addr:street" v="Ferrystone Glen Drive"/><tag k="addr:housenumber" v="12312"/><tag k="coa:place_id" v="5095449"/></node><node id="-51" lat="30.166064" lon="-97.657843" changeset="false"><tag k="addr:street" v="Elroy Road"/><tag k="addr:housenumber" v="6349"/><tag k="coa:place_id" v="3511737"/></node><node id="-52" lat="30.16675" lon="-97.620206" changeset="false"><tag k="addr:street" v="Buenos Aires Parkway"/><tag k="addr:housenumber" v="13008"/><tag k="coa:place_id" v="3352936"/></node><node id="-53" lat="30.169242" lon="-97.628245" changeset="false"><tag k="addr:street" v="Campana Drive"/><tag k="addr:housenumber" v="12429"/><tag k="coa:place_id" v="3116074"/></node><node id="-54" lat="30.156647" lon="-97.648197" changeset="false"><tag k="addr:street" v="Apperson Street"/><tag k="addr:housenumber" v="7114"/><tag k="coa:place_id" v="99894"/></node><node id="-55" lat="30.159429" lon="-97.65692" changeset="false"><tag k="addr:street" v="Linda Vista Drive"/><tag k="addr:housenumber" v="11001"/><tag k="coa:place_id" v="621908"/></node><node id="-56" lat="30.15469" lon="-97.643706" changeset="false"><tag k="addr:street" v="Black Panda Trail"/><tag k="addr:housenumber" v="7225"/><tag k="coa:place_id" v="3033001"/></node><node id="-57" lat="30.149121" lon="-97.670263" changeset="false"><tag k="addr:street" v="Farm-to-Market Road 812"/><tag k="addr:housenumber" v="10434"/><tag k="coa:place_id" v="660446"/></node><node id="-58" lat="30.152761" lon="-97.636552" changeset="false"><tag k="addr:street" v="Elroy Road"/><tag k="addr:housenumber" v="7415"/><tag k="coa:place_id" v="623576"/></node><node id="-59" lat="30.15915" lon="-97.641069" changeset="false"><tag k="addr:street" v="Stoney Meadow Drive"/><tag k="addr:housenumber" v="11909"/><tag k="coa:place_id" v="3156404"/></node><node id="-60" lat="30.15918" lon="-97.681971" changeset="false"><tag k="addr:street" v="Farm-to-Market Road 812"/><tag k="addr:housenumber" v="9410"/><tag k="coa:place_id" v="224713"/></node><node id="-61" lat="30.167965" lon="-97.628194" changeset="false"><tag k="addr:street" v="Paloma Blanca Way"/><tag k="addr:housenumber" v="12504"/><tag k="coa:place_id" v="3181685"/></node><node id="-62" lat="30.162077" lon="-97.634486" changeset="false"><tag k="addr:street" v="Heine Farm Road"/><tag k="addr:housenumber" v="6629"/><tag k="coa:place_id" v="134969"/></node><node id="-63" lat="30.144003" lon="-97.671358" changeset="false"><tag k="addr:street" v="Farm-to-Market Road 812"/><tag k="addr:housenumber" v="10606"/><tag k="coa:place_id" v="226923"/></node><node id="-64" lat="30.161592" lon="-97.659104" changeset="false"><tag k="addr:street" v="Linda Vista Drive"/><tag k="addr:housenumber" v="10706"/><tag k="coa:place_id" v="215539"/></node><node id="-65" lat="30.173274" lon="-97.634006" changeset="false"><tag k="addr:street" v="Pearce Lane"/><tag k="addr:housenumber" v="11901"/><tag k="coa:place_id" v="214262"/></node><node id="-66" lat="30.162832" lon="-97.66263" changeset="false"><tag k="addr:street" v="Linda Vista Drive"/><tag k="addr:housenumber" v="10500"/><tag k="coa:place_id" v="469209"/></node><node id="-67" lat="30.158807" lon="-97.637061" changeset="false"><tag k="addr:street" v="Stoney Meadow Drive"/><tag k="addr:housenumber" v="12213"/><tag k="coa:place_id" v="3312857"/></node><node id="-68" lat="30.161857" lon="-97.635824" changeset="false"><tag k="addr:street" v="Ferrystone Pass"/><tag k="addr:housenumber" v="6617"/><tag k="coa:place_id" v="3296725"/></node><node id="-69" lat="30.169399" lon="-97.628712" changeset="false"><tag k="addr:street" v="Las Alas Trail"/><tag k="addr:housenumber" v="5905 1/2"/><tag k="coa:place_id" v="3174062"/></node><node id="-70" lat="30.158653" lon="-97.646804" changeset="false"><tag k="addr:street" v="Gemmer Street"/><tag k="addr:housenumber" v="11701"/><tag k="coa:place_id" v="209634"/></node><node id="-71" lat="30.162092" lon="-97.641608" changeset="false"><tag k="addr:street" v="Plains Valley Drive"/><tag k="addr:housenumber" v="11805"/><tag k="coa:place_id" v="3156346"/></node><node id="-72" lat="30.170522" lon="-97.637287" changeset="false"><tag k="addr:street" v="Foley Drive"/><tag k="addr:housenumber" v="11805"/><tag k="coa:place_id" v="84726"/></node><node id="-73" lat="30.171687" lon="-97.636444" changeset="false"><tag k="addr:street" v="Foley Drive"/><tag k="addr:housenumber" v="11810"/><tag k="coa:place_id" v="552448"/></node><node id="-74" lat="30.161772" lon="-97.635532" changeset="false"><tag k="addr:street" v="Ferrystone Glen Drive"/><tag k="addr:housenumber" v="12208"/><tag k="coa:place_id" v="3296728"/></node><node id="-75" lat="30.169294" lon="-97.628373" changeset="false"><tag k="addr:street" v="Campana Drive"/><tag k="addr:housenumber" v="12425"/><tag k="coa:place_id" v="3138992"/></node><node id="-76" lat="30.169073" lon="-97.634607" changeset="false"><tag k="addr:street" v="Foley Drive"/><tag k="addr:housenumber" v="12009"/><tag k="coa:place_id" v="677860"/></node><node id="-77" lat="30.168344" lon="-97.628957" changeset="false"><tag k="addr:street" v="Paloma Blanca Way"/><tag k="addr:housenumber" v="12408"/><tag k="coa:place_id" v="3181611"/></node><node id="-78" lat="30.160707" lon="-97.638227" changeset="false"><tag k="addr:street" v="Plains Crest Drive"/><tag k="addr:housenumber" v="6808"/><tag k="coa:place_id" v="3296752"/></node><node id="-79" lat="30.169458" lon="-97.62393" changeset="false"><tag k="addr:street" v="Universe Circle"/><tag k="addr:housenumber" v="12708"/><tag k="coa:place_id" v="3115991"/></node><node id="-80" lat="30.1598" lon="-97.646817" changeset="false"><tag k="addr:street" v="Tickford Drive"/><tag k="addr:housenumber" v="11612"/><tag k="coa:place_id" v="209599"/></node><node id="-81" lat="30.154405" lon="-97.642782" changeset="false"><tag k="addr:street" v="White Panda Run"/><tag k="addr:housenumber" v="7225"/><tag k="coa:place_id" v="3032983"/></node><node id="-82" lat="30.170661" lon="-97.690432" changeset="false"><tag k="addr:street" v="Hillmoore Drive"/><tag k="addr:housenumber" v="8505"/><tag k="coa:place_id" v="109957"/></node><node id="-83" lat="30.160146" lon="-97.658315" changeset="false"><tag k="addr:street" v="Linda Vista Drive"/><tag k="addr:housenumber" v="10809"/><tag k="coa:place_id" v="621920"/></node><node id="-84" lat="30.158827" lon="-97.645194" changeset="false"><tag k="addr:street" v="Gemmer Street"/><tag k="addr:housenumber" v="11736"/><tag k="coa:place_id" v="209619"/></node><node id="-85" lat="30.155532" lon="-97.647342" changeset="false"><tag k="addr:street" v="Wardman Drive"/><tag k="addr:housenumber" v="7224"/><tag k="coa:place_id" v="209742"/></node><node id="-86" lat="30.155344" lon="-97.647298" changeset="false"><tag k="addr:street" v="Wardman Drive"/><tag k="addr:housenumber" v="7228"/><tag k="coa:place_id" v="209741"/></node><node id="-87" lat="30.158547" lon="-97.647009" changeset="false"><tag k="addr:street" v="Railton Drive"/><tag k="addr:housenumber" v="11620"/><tag k="coa:place_id" v="209689"/></node><node id="-88" lat="30.160233" lon="-97.647663" changeset="false"><tag k="addr:street" v="Tickford Drive"/><tag k="addr:housenumber" v="11520"/><tag k="coa:place_id" v="209676"/></node><node id="-89" lat="30.160287" lon="-97.642431" changeset="false"><tag k="addr:street" v="Savanna Canyon Court"/><tag k="addr:housenumber" v="11805"/><tag k="coa:place_id" v="3156338"/></node><node id="-90" lat="30.159137" lon="-97.640768" changeset="false"><tag k="addr:street" v="Stoney Meadow Drive"/><tag k="addr:housenumber" v="11917"/><tag k="coa:place_id" v="3156406"/></node><node id="-91" lat="30.157097" lon="-97.672913" changeset="false"><tag k="addr:street" v="Farm-to-Market Road 812"/><tag k="addr:housenumber" v="10108 1/2"/><tag k="coa:place_id" v="3108285"/></node><node id="-92" lat="30.14722" lon="-97.667476" changeset="false"><tag k="addr:street" v="San Jose Avenue"/><tag k="addr:housenumber" v="10803"/><tag k="coa:place_id" v="791811"/></node><node id="-93" lat="30.167827" lon="-97.627992" changeset="false"><tag k="addr:street" v="Paloma Blanca Way"/><tag k="addr:housenumber" v="12512"/><tag k="coa:place_id" v="3181687"/></node><node id="-94" lat="30.16707" lon="-97.625572" changeset="false"><tag k="addr:street" v="Sky Harbor Drive"/><tag k="addr:housenumber" v="12725"/><tag k="coa:place_id" v="3139020"/></node><node id="-95" lat="30.137378" lon="-97.654784" changeset="false"><tag k="addr:street" v="Farm-to-Market Road 812"/><tag k="addr:housenumber" v="11916"/><tag k="coa:place_id" v="3219610"/></node><node id="-96" lat="30.169936" lon="-97.631004" changeset="false"><tag k="addr:street" v="Ross Road"/><tag k="addr:housenumber" v="5821"/><tag k="coa:place_id" v="3065758"/></node><node id="-97" lat="30.162367" lon="-97.660991" changeset="false"><tag k="addr:street" v="Linda Vista Drive"/><tag k="addr:housenumber" v="10602"/><tag k="coa:place_id" v="198876"/></node><node id="-98" lat="30.160588" lon="-97.638287" changeset="false"><tag k="addr:street" v="Plains Crest Drive"/><tag k="addr:housenumber" v="6812"/><tag k="coa:place_id" v="3296753"/></node><node id="-99" lat="30.159961" lon="-97.638566" changeset="false"><tag k="addr:street" v="Plains Crest Drive"/><tag k="addr:housenumber" v="6912"/><tag k="coa:place_id" v="3296758"/></node><node id="-100" lat="30.160344" lon="-97.637844" changeset="false"><tag k="addr:street" v="Plains Crest Drive"/><tag k="addr:housenumber" v="6817"/><tag k="coa:place_id" v="3296768"/></node><node id="-101" lat="30.159574" lon="-97.638062" changeset="false"><tag k="addr:street" v="Plains Crest Drive"/><tag k="addr:housenumber" v="6917"/><tag k="coa:place_id" v="3296774"/></node><node id="-102" lat="30.16134" lon="-97.685997" changeset="false"><tag k="addr:street" v="Farm-to-Market Road 812"/><tag k="addr:housenumber" v="9110"/><tag k="coa:place_id" v="153251"/></node><node id="-103" lat="30.161376" lon="-97.635687" changeset="false"><tag k="addr:street" v="Ferrystone Glen Drive"/><tag k="addr:housenumber" v="12213"/><tag k="coa:place_id" v="3296869"/></node><node id="-104" lat="30.167193" lon="-97.623144" changeset="false"><tag k="addr:street" v="Constellation Circle"/><tag k="addr:housenumber" v="6320"/><tag k="coa:place_id" v="3352970"/></node><node id="-105" lat="30.166575" lon="-97.623137" changeset="false"><tag k="addr:street" v="Constellation Circle"/><tag k="addr:housenumber" v="6313"/><tag k="coa:place_id" v="3352973"/></node><node id="-106" lat="30.166726" lon="-97.622036" changeset="false"><tag k="addr:street" v="Constellation Circle"/><tag k="addr:housenumber" v="6228"/><tag k="coa:place_id" v="3352952"/></node><node id="-107" lat="30.166065" lon="-97.620025" changeset="false"><tag k="addr:street" v="Constellation Circle"/><tag k="addr:housenumber" v="6100"/><tag k="coa:place_id" v="3352954"/></node><node id="-108" lat="30.166073" lon="-97.620577" changeset="false"><tag k="addr:street" v="Constellation Circle"/><tag k="addr:housenumber" v="6112"/><tag k="coa:place_id" v="3352957"/></node><node id="-109" lat="30.160387" lon="-97.636646" changeset="false"><tag k="addr:street" v="Ferrystone Cove"/><tag k="addr:housenumber" v="12204"/><tag k="coa:place_id" v="3296848"/></node><node id="-110" lat="30.166324" lon="-97.621185" changeset="false"><tag k="addr:street" v="Constellation Circle"/><tag k="addr:housenumber" v="6204"/><tag k="coa:place_id" v="3352946"/></node><node id="-111" lat="30.166449" lon="-97.621467" changeset="false"><tag k="addr:street" v="Constellation Circle"/><tag k="addr:housenumber" v="6212"/><tag k="coa:place_id" v="3352948"/></node><node id="-112" lat="30.159412" lon="-97.63662" changeset="false"><tag k="addr:street" v="Heine Farm Road"/><tag k="addr:housenumber" v="7004"/><tag k="coa:place_id" v="3296830"/></node><node id="-113" lat="30.161197" lon="-97.636313" changeset="false"><tag k="addr:street" v="Prairie Glen Court"/><tag k="addr:housenumber" v="12200"/><tag k="coa:place_id" v="3296860"/></node><node id="-114" lat="30.160944" lon="-97.635789" changeset="false"><tag k="addr:street" v="Prairie Glen Court"/><tag k="addr:housenumber" v="12216"/><tag k="coa:place_id" v="3296864"/></node><node id="-115" lat="30.160794" lon="-97.63639" changeset="false"><tag k="addr:street" v="Prairie Glen Court"/><tag k="addr:housenumber" v="12205"/><tag k="coa:place_id" v="3296855"/></node><node id="-116" lat="30.166818" lon="-97.620352" changeset="false"><tag k="addr:street" v="Buenos Aires Parkway"/><tag k="addr:housenumber" v="13004"/><tag k="coa:place_id" v="3352935"/></node><node id="-117" lat="30.159286" lon="-97.637645" changeset="false"><tag k="addr:street" v="Stoney Meadow Drive"/><tag k="addr:housenumber" v="12124"/><tag k="coa:place_id" v="3296804"/></node><node id="-118" lat="30.161353" lon="-97.634587" changeset="false"><tag k="addr:street" v="Ferrystone Glen Drive"/><tag k="addr:housenumber" v="12304"/><tag k="coa:place_id" v="5095411"/></node><node id="-119" lat="30.161047" lon="-97.634942" changeset="false"><tag k="addr:street" v="Ferrystone Glen Drive"/><tag k="addr:housenumber" v="12301"/><tag k="coa:place_id" v="5095413"/></node><node id="-120" lat="30.160994" lon="-97.634827" changeset="false"><tag k="addr:street" v="Ferrystone Glen Drive"/><tag k="addr:housenumber" v="12305"/><tag k="coa:place_id" v="5095414"/></node><node id="-121" lat="30.154675" lon="-97.660442" changeset="false"><tag k="addr:street" v="Bain Road"/><tag k="addr:housenumber" v="7300"/><tag k="coa:place_id" v="5113590"/></node><node id="-122" lat="30.160938" lon="-97.638049" changeset="false"><tag k="addr:street" v="Plains Crest Drive"/><tag k="addr:housenumber" v="6800"/><tag k="coa:place_id" v="3296750"/></node><node id="-123" lat="30.162228" lon="-97.636606" changeset="false"><tag k="addr:street" v="Plains Crest Drive"/><tag k="addr:housenumber" v="6617"/><tag k="coa:place_id" v="3296715"/></node><node id="-124" lat="30.171471" lon="-97.63133" changeset="false"><tag k="addr:street" v="Ross Road"/><tag k="addr:housenumber" v="5800"/><tag k="coa:place_id" v="908925"/></node><node id="-125" lat="30.167204" lon="-97.62746" changeset="false"><tag k="addr:street" v="Sky Park Street"/><tag k="addr:housenumber" v="6300 1/2"/><tag k="coa:place_id" v="3182286"/></node><node id="-126" lat="30.162991" lon="-97.689989" changeset="false"><tag k="addr:street" v="Farm-to-Market Road 812"/><tag k="addr:housenumber" v="8806"/><tag k="coa:place_id" v="701048"/></node><node id="-127" lat="30.159633" lon="-97.641738" changeset="false"><tag k="addr:street" v="Savanna Canyon Drive"/><tag k="addr:housenumber" v="6924"/><tag k="coa:place_id" v="3156380"/></node><node id="-128" lat="30.16344" lon="-97.690984" changeset="false"><tag k="addr:street" v="Farm-to-Market Road 812"/><tag k="addr:housenumber" v="8710"/><tag k="coa:place_id" v="701516"/></node><node id="-129" lat="30.161425" lon="-97.640534" changeset="false"><tag k="addr:street" v="Savanna Canyon Drive"/><tag k="addr:housenumber" v="6721"/><tag k="coa:place_id" v="3156359"/></node><node id="-130" lat="30.16825" lon="-97.628722" changeset="false"><tag k="addr:street" v="Paloma Blanca Way"/><tag k="addr:housenumber" v="12416"/><tag k="coa:place_id" v="3181613"/></node><node id="-131" lat="30.162012" lon="-97.6415" changeset="false"><tag k="addr:street" v="Plains Valley Drive"/><tag k="addr:housenumber" v="11809"/><tag k="coa:place_id" v="3156347"/></node><node id="-132" lat="30.168903" lon="-97.687967" changeset="false"><tag k="addr:street" v="Hillmoore Drive"/><tag k="addr:housenumber" v="8616"/><tag k="coa:place_id" v="701528"/></node><node id="-133" lat="30.159616" lon="-97.648274" changeset="false"><tag k="addr:street" v="Tickford Drive"/><tag k="addr:housenumber" v="11517"/><tag k="coa:place_id" v="209681"/></node><node id="-134" lat="30.159693" lon="-97.657469" changeset="false"><tag k="addr:street" v="Linda Vista Drive"/><tag k="addr:housenumber" v="10905"/><tag k="coa:place_id" v="479289"/></node><node id="-135" lat="30.155267" lon="-97.660097" changeset="false"><tag k="addr:street" v="Bain Road"/><tag k="addr:housenumber" v="7250"/><tag k="coa:place_id" v="1160642"/></node><node id="-136" lat="30.161762" lon="-97.662245" changeset="false"><tag k="addr:street" v="Linda Vista Drive"/><tag k="addr:housenumber" v="10507"/><tag k="coa:place_id" v="621938"/></node><node id="-137" lat="30.1503" lon="-97.66967" changeset="false"><tag k="addr:street" v="Farm-to-Market Road 812"/><tag k="addr:housenumber" v="10422"/><tag k="coa:place_id" v="660452"/></node><node id="-138" lat="30.147698" lon="-97.672308" changeset="false"><tag k="addr:street" v="Farm-to-Market Road 812"/><tag k="addr:housenumber" v="10452"/><tag k="coa:place_id" v="660434"/></node><node id="-139" lat="30.15564" lon="-97.646326" changeset="false"><tag k="addr:street" v="Corum Ridge Cove"/><tag k="addr:housenumber" v="11711"/><tag k="coa:place_id" v="209755"/></node><node id="-140" lat="30.155165" lon="-97.647181" changeset="false"><tag k="addr:street" v="Wardman Drive"/><tag k="addr:housenumber" v="7232"/><tag k="coa:place_id" v="209739"/></node><node id="-141" lat="30.161385" lon="-97.686383" changeset="false"><tag k="addr:street" v="Farm-to-Market Road 812"/><tag k="addr:housenumber" v="9006"/><tag k="coa:place_id" v="701444"/></node><node id="-142" lat="30.154573" lon="-97.643782" changeset="false"><tag k="addr:street" v="Black Panda Trail"/><tag k="addr:housenumber" v="7229"/><tag k="coa:place_id" v="3033002"/></node><node id="-143" lat="30.147317" lon="-97.672505" changeset="false"><tag k="addr:street" v="Farm-to-Market Road 812"/><tag k="addr:housenumber" v="10456"/><tag k="coa:place_id" v="366141"/></node><node id="-144" lat="30.15485" lon="-97.644789" changeset="false"><tag k="addr:street" v="Great Panda Cove"/><tag k="addr:housenumber" v="7237"/><tag k="coa:place_id" v="3033022"/></node><node id="-145" lat="30.168879" lon="-97.663259" changeset="false"><tag k="addr:street" v="Moores Bridge Road"/><tag k="addr:housenumber" v="10224"/><tag k="coa:place_id" v="623480"/></node><node id="-146" lat="30.158616" lon="-97.646233" changeset="false"><tag k="addr:street" v="Gemmer Street"/><tag k="addr:housenumber" v="11713"/><tag k="coa:place_id" v="209629"/></node><node id="-147" lat="30.171392" lon="-97.639027" changeset="false"><tag k="addr:street" v="Foley Drive"/><tag k="addr:housenumber" v="11701"/><tag k="coa:place_id" v="110346"/></node><node id="-148" lat="30.172146" lon="-97.629313" changeset="false"><tag k="addr:street" v="Pearce Lane"/><tag k="addr:housenumber" v="12301 1/2"/><tag k="coa:place_id" v="3140773"/></node><node id="-149" lat="30.161547" lon="-97.638356" changeset="false"><tag k="addr:street" v="Plains Valley Drive"/><tag k="addr:housenumber" v="12028"/><tag k="coa:place_id" v="3156306"/></node><node id="-150" lat="30.158485" lon="-97.646404" changeset="false"><tag k="addr:street" v="Railton Drive"/><tag k="addr:housenumber" v="11704"/><tag k="coa:place_id" v="217989"/></node><node id="-151" lat="30.169026" lon="-97.632016" changeset="false"><tag k="addr:street" v="Ross Road"/><tag k="addr:housenumber" v="6009"/><tag k="coa:place_id" v="375519"/></node><node id="-152" lat="30.142542" lon="-97.668888" changeset="false"><tag k="addr:street" v="Farm-to-Market Road 812"/><tag k="addr:housenumber" v="10800"/><tag k="coa:place_id" v="94085"/></node><node id="-153" lat="30.155301" lon="-97.644887" changeset="false"><tag k="addr:street" v="Great Panda Cove"/><tag k="addr:housenumber" v="7224"/><tag k="coa:place_id" v="3033029"/></node><node id="-154" lat="30.155257" lon="-97.6435" changeset="false"><tag k="addr:street" v="Black Panda Trail"/><tag k="addr:housenumber" v="7209"/><tag k="coa:place_id" v="3032997"/></node><node id="-155" lat="30.162474" lon="-97.636469" changeset="false"><tag k="addr:street" v="Plains Crest Drive"/><tag k="addr:housenumber" v="6609"/><tag k="coa:place_id" v="3296713"/></node><node id="-156" lat="30.155018" lon="-97.644509" changeset="false"><tag k="addr:street" v="Great Panda Cove"/><tag k="addr:housenumber" v="7229"/><tag k="coa:place_id" v="3033020"/></node><node id="-157" lat="30.162186" lon="-97.635602" changeset="false"><tag k="addr:street" v="Ferrystone Pass"/><tag k="addr:housenumber" v="6605"/><tag k="coa:place_id" v="3296722"/></node><node id="-158" lat="30.163919" lon="-97.658709" changeset="false"><tag k="addr:street" v="Elroy Road"/><tag k="addr:housenumber" v="6348"/><tag k="coa:place_id" v="623510"/></node><node id="-159" lat="30.143774" lon="-97.670773" changeset="false"><tag k="addr:street" v="Farm-to-Market Road 812"/><tag k="addr:housenumber" v="10610"/><tag k="coa:place_id" v="660410"/></node><node id="-160" lat="30.159458" lon="-97.638621" changeset="false"><tag k="addr:street" v="Plains Crest Drive"/><tag k="addr:housenumber" v="6928"/><tag k="coa:place_id" v="3296762"/></node><node id="-161" lat="30.160442" lon="-97.637776" changeset="false"><tag k="addr:street" v="Plains Crest Drive"/><tag k="addr:housenumber" v="6813"/><tag k="coa:place_id" v="3296767"/></node><node id="-162" lat="30.147496" lon="-97.666874" changeset="false"><tag k="addr:street" v="San Jose Avenue"/><tag k="addr:housenumber" v="10802"/><tag k="coa:place_id" v="660536"/></node><node id="-163" lat="30.168963" lon="-97.687944" changeset="false"><tag k="addr:street" v="Hillmoore Drive"/><tag k="addr:housenumber" v="8614"/><tag k="coa:place_id" v="701480"/></node><node id="-164" lat="30.162572" lon="-97.6364" changeset="false"><tag k="addr:street" v="Plains Crest Drive"/><tag k="addr:housenumber" v="6605"/><tag k="coa:place_id" v="3296712"/></node><node id="-165" lat="30.162486" lon="-97.661238" changeset="false"><tag k="addr:street" v="Linda Vista Drive"/><tag k="addr:housenumber" v="10600"/><tag k="coa:place_id" v="198875"/></node><node id="-166" lat="30.154004" lon="-97.649844" changeset="false"><tag k="addr:street" v="Arrowmound Pass"/><tag k="addr:housenumber" v="11701"/><tag k="coa:place_id" v="3120983"/></node><node id="-167" lat="30.159717" lon="-97.637167" changeset="false"><tag k="addr:street" v="Ferrystone Pass"/><tag k="addr:housenumber" v="6917"/><tag k="coa:place_id" v="3296819"/></node><node id="-168" lat="30.166113" lon="-97.622876" changeset="false"><tag k="addr:street" v="Night Sky Way"/><tag k="addr:housenumber" v="5912"/><tag k="coa:place_id" v="3352982"/></node><node id="-169" lat="30.166589" lon="-97.621743" changeset="false"><tag k="addr:street" v="Constellation Circle"/><tag k="addr:housenumber" v="6220"/><tag k="coa:place_id" v="3352950"/></node><node id="-170" lat="30.166054" lon="-97.620226" changeset="false"><tag k="addr:street" v="Constellation Circle"/><tag k="addr:housenumber" v="6104"/><tag k="coa:place_id" v="3352955"/></node><node id="-171" lat="30.166897" lon="-97.622335" changeset="false"><tag k="addr:street" v="Constellation Circle"/><tag k="addr:housenumber" v="6300"/><tag k="coa:place_id" v="3352965"/></node><node id="-172" lat="30.166967" lon="-97.622484" changeset="false"><tag k="addr:street" v="Constellation Circle"/><tag k="addr:housenumber" v="6304"/><tag k="coa:place_id" v="3352966"/></node><node id="-173" lat="30.166418" lon="-97.619686" changeset="false"><tag k="addr:street" v="Buenos Aires Parkway"/><tag k="addr:housenumber" v="13024"/><tag k="coa:place_id" v="3352940"/></node><node id="-174" lat="30.165037" lon="-97.640243" changeset="false"><tag k="addr:street" v="Ross Road"/><tag k="addr:housenumber" v="6504"/><tag k="coa:place_id" v="3072851"/></node><node id="-175" lat="30.161098" lon="-97.658108" changeset="false"><tag k="addr:street" v="Linda Vista Drive"/><tag k="addr:housenumber" v="10806"/><tag k="coa:place_id" v="317608"/></node><node id="-176" lat="30.162595" lon="-97.661918" changeset="false"><tag k="addr:street" v="Linda Vista Drive"/><tag k="addr:housenumber" v="10504"/><tag k="coa:place_id" v="198872"/></node><node id="-177" lat="30.161111" lon="-97.636826" changeset="false"><tag k="addr:street" v="Ferrystone Pass"/><tag k="addr:housenumber" v="6800"/><tag k="coa:place_id" v="3296781"/></node><node id="-178" lat="30.158977" lon="-97.638471" changeset="false"><tag k="addr:street" v="Stoney Meadow Drive"/><tag k="addr:housenumber" v="12109"/><tag k="coa:place_id" v="3296800"/></node><node id="-179" lat="30.159318" lon="-97.638143" changeset="false"><tag k="addr:street" v="Stoney Meadow Drive"/><tag k="addr:housenumber" v="12112"/><tag k="coa:place_id" v="3296801"/></node><node id="-180" lat="30.159231" lon="-97.637042" changeset="false"><tag k="addr:street" v="Stoney Meadow Drive"/><tag k="addr:housenumber" v="12208"/><tag k="coa:place_id" v="3296815"/></node><node id="-181" lat="30.15913" lon="-97.656722" changeset="false"><tag k="addr:street" v="Linda Vista Drive"/><tag k="addr:housenumber" v="11003"/><tag k="coa:place_id" v="751509"/></node><node id="-182" lat="30.158412" lon="-97.648944" changeset="false"><tag k="addr:street" v="Apperson Street"/><tag k="addr:housenumber" v="7007"/><tag k="coa:place_id" v="99887"/></node><node id="-183" lat="30.166816" lon="-97.621415" changeset="false"><tag k="addr:street" v="Buenos Aires Parkway"/><tag k="addr:housenumber" v="12913"/><tag k="coa:place_id" v="3352929"/></node><node id="-184" lat="30.166613" lon="-97.621007" changeset="false"><tag k="addr:street" v="Buenos Aires Parkway"/><tag k="addr:housenumber" v="12925"/><tag k="coa:place_id" v="3352932"/></node><node id="-185" lat="30.166678" lon="-97.620068" changeset="false"><tag k="addr:street" v="Buenos Aires Parkway"/><tag k="addr:housenumber" v="13012"/><tag k="coa:place_id" v="3352937"/></node><node id="-186" lat="30.16147" lon="-97.637682" changeset="false"><tag k="addr:street" v="Plains Crest Drive"/><tag k="addr:housenumber" v="6724"/><tag k="coa:place_id" v="3296736"/></node><node id="-187" lat="30.162692" lon="-97.636332" changeset="false"><tag k="addr:street" v="Plains Crest Drive"/><tag k="addr:housenumber" v="6601"/><tag k="coa:place_id" v="3296711"/></node><node id="-188" lat="30.161672" lon="-97.637529" changeset="false"><tag k="addr:street" v="Plains Crest Drive"/><tag k="addr:housenumber" v="6716"/><tag k="coa:place_id" v="3296734"/></node><node id="-189" lat="30.180433" lon="-97.685535" changeset="false"><tag k="addr:street" v="Burleson Road"/><tag k="addr:housenumber" v="8509"/><tag k="coa:place_id" v="701678"/></node><node id="-190" lat="30.157193" lon="-97.645697" changeset="false"><tag k="addr:street" v="Maybach Drive"/><tag k="addr:housenumber" v="11727"/><tag k="coa:place_id" v="209670"/></node><node id="-191" lat="30.159001" lon="-97.639351" changeset="false"><tag k="addr:street" v="Stoney Meadow Drive"/><tag k="addr:housenumber" v="12029"/><tag k="coa:place_id" v="3156410"/></node><node id="-192" lat="30.159219" lon="-97.641634" changeset="false"><tag k="addr:street" v="Stoney Meadow Drive"/><tag k="addr:housenumber" v="11809"/><tag k="coa:place_id" v="3156383"/></node><node id="-193" lat="30.159569" lon="-97.647866" changeset="false"><tag k="addr:street" v="Tickford Drive"/><tag k="addr:housenumber" v="11525"/><tag k="coa:place_id" v="209679"/></node><node id="-194" lat="30.162279" lon="-97.688259" changeset="false"><tag k="addr:street" v="Farm-to-Market Road 812"/><tag k="addr:housenumber" v="8910"/><tag k="coa:place_id" v="3132482"/></node><node id="-195" lat="30.160168" lon="-97.640978" changeset="false"><tag k="addr:street" v="Savanna Canyon Drive"/><tag k="addr:housenumber" v="6905"/><tag k="coa:place_id" v="3156371"/></node><node id="-196" lat="30.161414" lon="-97.659499" changeset="false"><tag k="addr:street" v="Linda Vista Drive"/><tag k="addr:housenumber" v="10704"/><tag k="coa:place_id" v="3080810"/></node><node id="-197" lat="30.168075" lon="-97.628408" changeset="false"><tag k="addr:street" v="Paloma Blanca Way"/><tag k="addr:housenumber" v="12428"/><tag k="coa:place_id" v="3181683"/></node><node id="-198" lat="30.156273" lon="-97.641713" changeset="false"><tag k="addr:street" v="Elroy Road"/><tag k="addr:housenumber" v="7050"/><tag k="coa:place_id" v="3143899"/></node><node id="-199" lat="30.167289" lon="-97.628932" changeset="false"><tag k="addr:street" v="La Paz Lane"/><tag k="addr:housenumber" v="12500"/><tag k="coa:place_id" v="3181557"/></node><node id="-200" lat="30.154882" lon="-97.644596" changeset="false"><tag k="addr:street" v="Great Panda Cove"/><tag k="addr:housenumber" v="7233"/><tag k="coa:place_id" v="3033021"/></node><node id="-201" lat="30.14858" lon="-97.671823" changeset="false"><tag k="addr:street" v="Farm-to-Market Road 812"/><tag k="addr:housenumber" v="10442"/><tag k="coa:place_id" v="81925"/></node><node id="-202" lat="30.157479" lon="-97.649728" changeset="false"><tag k="addr:street" v="Humber Cove"/><tag k="addr:housenumber" v="11501"/><tag k="coa:place_id" v="99786"/></node><node id="-203" lat="30.179387" lon="-97.684253" changeset="false"><tag k="addr:street" v="Burleson Road"/><tag k="addr:housenumber" v="8515"/><tag k="coa:place_id" v="615958"/></node><node id="-204" lat="30.162155" lon="-97.660755" changeset="false"><tag k="addr:street" v="Linda Vista Drive"/><tag k="addr:housenumber" v="10604"/><tag k="coa:place_id" v="198877"/></node><node id="-205" lat="30.154137" lon="-97.650117" changeset="false"><tag k="addr:street" v="Arrowmound Pass"/><tag k="addr:housenumber" v="11613"/><tag k="coa:place_id" v="3120979"/></node><node id="-206" lat="30.160374" lon="-97.642612" changeset="false"><tag k="addr:street" v="Savanna Canyon Court"/><tag k="addr:housenumber" v="11801"/><tag k="coa:place_id" v="3156337"/></node><node id="-207" lat="30.160332" lon="-97.642136" changeset="false"><tag k="addr:street" v="Savanna Canyon Court"/><tag k="addr:housenumber" v="11813"/><tag k="coa:place_id" v="3156340"/></node><node id="-208" lat="30.15904" lon="-97.63983" changeset="false"><tag k="addr:street" v="Stoney Meadow Drive"/><tag k="addr:housenumber" v="12017"/><tag k="coa:place_id" v="3156415"/></node><node id="-209" lat="30.136146" lon="-97.649117" changeset="false"><tag k="addr:street" v="Farm-to-Market Road 812"/><tag k="addr:housenumber" v="12312"/><tag k="coa:place_id" v="301575"/></node><node id="-210" lat="30.142831" lon="-97.668817" changeset="false"><tag k="addr:street" v="Farm-to-Market Road 812"/><tag k="addr:housenumber" v="10808"/><tag k="coa:place_id" v="720250"/></node><node id="-211" lat="30.160606" lon="-97.649346" changeset="false"><tag k="addr:street" v="Tickford Drive"/><tag k="addr:housenumber" v="11415"/><tag k="coa:place_id" v="164967"/></node><node id="-212" lat="30.158743" lon="-97.643371" changeset="false"><tag k="addr:street" v="Elroy Road"/><tag k="addr:housenumber" v="7019"/><tag k="coa:place_id" v="623540"/></node><node id="-213" lat="30.156483" lon="-97.64572" changeset="false"><tag k="addr:street" v="Apperson Street"/><tag k="addr:housenumber" v="7228"/><tag k="coa:place_id" v="209723"/></node><node id="-214" lat="30.159165" lon="-97.641215" changeset="false"><tag k="addr:street" v="Stoney Meadow Drive"/><tag k="addr:housenumber" v="11905"/><tag k="coa:place_id" v="3156403"/></node><node id="-215" lat="30.169355" lon="-97.628487" changeset="false"><tag k="addr:street" v="Campana Drive"/><tag k="addr:housenumber" v="12421"/><tag k="coa:place_id" v="3138991"/></node><node id="-216" lat="30.156034" lon="-97.646498" changeset="false"><tag k="addr:street" v="Corum Ridge Cove"/><tag k="addr:housenumber" v="11704"/><tag k="coa:place_id" v="209761"/></node><node id="-217" lat="30.169437" lon="-97.628596" changeset="false"><tag k="addr:street" v="Campana Drive"/><tag k="addr:housenumber" v="12417"/><tag k="coa:place_id" v="3189294"/></node><node id="-218" lat="30.157259" lon="-97.659681" changeset="false"><tag k="addr:street" v="Bain Road"/><tag k="addr:housenumber" v="7201"/><tag k="coa:place_id" v="893613"/></node><node id="-219" lat="30.156718" lon="-97.650168" changeset="false"><tag k="addr:street" v="Dove Flight Drive"/><tag k="addr:housenumber" v="11500"/><tag k="coa:place_id" v="3076343"/></node><node id="-220" lat="30.150772" lon="-97.669494" changeset="false"><tag k="addr:street" v="Farm-to-Market Road 812"/><tag k="addr:housenumber" v="10420"/><tag k="coa:place_id" v="603741"/></node><node id="-221" lat="30.160254" lon="-97.658502" changeset="false"><tag k="addr:street" v="Linda Vista Drive"/><tag k="addr:housenumber" v="10807"/><tag k="coa:place_id" v="504148"/></node><node id="-222" lat="30.160127" lon="-97.657736" changeset="false"><tag k="addr:street" v="Linda Vista Drive"/><tag k="addr:housenumber" v="10903"/><tag k="coa:place_id" v="155560"/></node><node id="-223" lat="30.16205" lon="-97.636227" changeset="false"><tag k="addr:street" v="Ferrystone Pass"/><tag k="addr:housenumber" v="6616"/><tag k="coa:place_id" v="3296720"/></node><node id="-224" lat="30.163153" lon="-97.65378" changeset="false"><tag k="addr:street" v="Elroy Road"/><tag k="addr:housenumber" v="6504 1/2"/><tag k="coa:place_id" v="3048525"/></node><node id="-225" lat="30.16049" lon="-97.638347" changeset="false"><tag k="addr:street" v="Plains Crest Drive"/><tag k="addr:housenumber" v="6816"/><tag k="coa:place_id" v="3296754"/></node><node id="-226" lat="30.159599" lon="-97.638593" changeset="false"><tag k="addr:street" v="Plains Crest Drive"/><tag k="addr:housenumber" v="6924"/><tag k="coa:place_id" v="3296761"/></node><node id="-227" lat="30.160098" lon="-97.637982" changeset="false"><tag k="addr:street" v="Plains Crest Drive"/><tag k="addr:housenumber" v="6901"/><tag k="coa:place_id" v="3296770"/></node><node id="-228" lat="30.160593" lon="-97.657298" changeset="false"><tag k="addr:street" v="Linda Vista Drive"/><tag k="addr:housenumber" v="10902"/><tag k="coa:place_id" v="621902"/></node><node id="-229" lat="30.172552" lon="-97.690039" changeset="false"><tag k="addr:street" v="Colton Road"/><tag k="addr:housenumber" v="5612"/><tag k="coa:place_id" v="208402"/></node><node id="-230" lat="30.17124" lon="-97.690324" changeset="false"><tag k="addr:street" v="Colton Road"/><tag k="addr:housenumber" v="5811"/><tag k="coa:place_id" v="701540"/></node><node id="-231" lat="30.160554" lon="-97.659092" changeset="false"><tag k="addr:street" v="Linda Vista Drive"/><tag k="addr:housenumber" v="10803"/><tag k="coa:place_id" v="540807"/></node><node id="-232" lat="30.156697" lon="-97.673754" changeset="false"><tag k="addr:street" v="Farm-to-Market Road 812"/><tag k="addr:housenumber" v="10108"/><tag k="coa:place_id" v="745720"/></node><node id="-233" lat="30.149564" lon="-97.669996" changeset="false"><tag k="addr:street" v="Farm-to-Market Road 812"/><tag k="addr:housenumber" v="10430"/><tag k="coa:place_id" v="660440"/></node><node id="-234" lat="30.146389" lon="-97.665199" changeset="false"><tag k="addr:street" v="San Jose Avenue"/><tag k="addr:housenumber" v="10808"/><tag k="coa:place_id" v="122490"/></node><node id="-235" lat="30.165997" lon="-97.621519" changeset="false"><tag k="addr:street" v="Constellation Circle"/><tag k="addr:housenumber" v="6205"/><tag k="coa:place_id" v="3352961"/></node><node id="-236" lat="30.160836" lon="-97.6422" changeset="false"><tag k="addr:street" v="Savanna Canyon Court"/><tag k="addr:housenumber" v="11804"/><tag k="coa:place_id" v="3156331"/></node><node id="-237" lat="30.168022" lon="-97.628288" changeset="false"><tag k="addr:street" v="Paloma Blanca Way"/><tag k="addr:housenumber" v="12500"/><tag k="coa:place_id" v="3181684"/></node><node id="-238" lat="30.168142" lon="-97.628527" changeset="false"><tag k="addr:street" v="Paloma Blanca Way"/><tag k="addr:housenumber" v="12424"/><tag k="coa:place_id" v="3181682"/></node><node id="-239" lat="30.158952" lon="-97.638317" changeset="false"><tag k="addr:street" v="Stoney Meadow Drive"/><tag k="addr:housenumber" v="12113"/><tag k="coa:place_id" v="3296805"/></node><node id="-240" lat="30.158939" lon="-97.638031" changeset="false"><tag k="addr:street" v="Stoney Meadow Drive"/><tag k="addr:housenumber" v="12121"/><tag k="coa:place_id" v="3296807"/></node><node id="-241" lat="30.158929" lon="-97.637884" changeset="false"><tag k="addr:street" v="Stoney Meadow Drive"/><tag k="addr:housenumber" v="12125"/><tag k="coa:place_id" v="3296808"/></node><node id="-242" lat="30.158866" lon="-97.637272" changeset="false"><tag k="addr:street" v="Stoney Meadow Drive"/><tag k="addr:housenumber" v="12209"/><tag k="coa:place_id" v="3296812"/></node><node id="-243" lat="30.142624" lon="-97.66846" changeset="false"><tag k="addr:street" v="Farm-to-Market Road 812"/><tag k="addr:housenumber" v="10812"/><tag k="coa:place_id" v="5077956"/></node><node id="-244" lat="30.148106" lon="-97.656521" changeset="false"><tag k="addr:street" v="Towery Lane"/><tag k="addr:housenumber" v="7617"/><tag k="coa:place_id" v="3502725"/></node><node id="-245" lat="30.160223" lon="-97.636283" changeset="false"><tag k="addr:street" v="Ferrystone Cove"/><tag k="addr:housenumber" v="12216"/><tag k="coa:place_id" v="3296851"/></node><node id="-246" lat="30.158976" lon="-97.648452" changeset="false"><tag k="addr:street" v="Gemmer Street"/><tag k="addr:housenumber" v="11505"/><tag k="coa:place_id" v="192445"/></node><node id="-247" lat="30.160727" lon="-97.636252" changeset="false"><tag k="addr:street" v="Prairie Glen Court"/><tag k="addr:housenumber" v="12209"/><tag k="coa:place_id" v="3296856"/></node><node id="-248" lat="30.160573" lon="-97.636036" changeset="false"><tag k="addr:street" v="Prairie Glen Court"/><tag k="addr:housenumber" v="12217"/><tag k="coa:place_id" v="3296858"/></node><node id="-249" lat="30.161057" lon="-97.636055" changeset="false"><tag k="addr:street" v="Prairie Glen Court"/><tag k="addr:housenumber" v="12208"/><tag k="coa:place_id" v="3296862"/></node><node id="-250" lat="30.160447" lon="-97.636792" changeset="false"><tag k="addr:street" v="Ferrystone Cove"/><tag k="addr:housenumber" v="12200"/><tag k="coa:place_id" v="3296847"/></node><node id="-251" lat="30.161302" lon="-97.635574" changeset="false"><tag k="addr:street" v="Ferrystone Glen Drive"/><tag k="addr:housenumber" v="12217"/><tag k="coa:place_id" v="3296870"/></node><node id="-252" lat="30.166035" lon="-97.622334" changeset="false"><tag k="addr:street" v="Night Sky Way"/><tag k="addr:housenumber" v="5909"/><tag k="coa:place_id" v="3352977"/></node><node id="-253" lat="30.1663" lon="-97.622879" changeset="false"><tag k="addr:street" v="Night Sky Way"/><tag k="addr:housenumber" v="5908"/><tag k="coa:place_id" v="3352981"/></node><node id="-254" lat="30.16645" lon="-97.622756" changeset="false"><tag k="addr:street" v="Night Sky Way"/><tag k="addr:housenumber" v="5904"/><tag k="coa:place_id" v="3352980"/></node><node id="-255" lat="30.166046" lon="-97.620391" changeset="false"><tag k="addr:street" v="Constellation Circle"/><tag k="addr:housenumber" v="6108"/><tag k="coa:place_id" v="3352956"/></node><node id="-256" lat="30.166128" lon="-97.621807" changeset="false"><tag k="addr:street" v="Constellation Circle"/><tag k="addr:housenumber" v="6213"/><tag k="coa:place_id" v="3352963"/></node><node id="-257" lat="30.166188" lon="-97.621948" changeset="false"><tag k="addr:street" v="Constellation Circle"/><tag k="addr:housenumber" v="6217"/><tag k="coa:place_id" v="3352964"/></node><node id="-258" lat="30.155622" lon="-97.641216" changeset="false"><tag k="addr:street" v="Elroy Road"/><tag k="addr:housenumber" v="7200"/><tag k="coa:place_id" v="3500464"/></node><node id="-259" lat="30.166756" lon="-97.621274" changeset="false"><tag k="addr:street" v="Buenos Aires Parkway"/><tag k="addr:housenumber" v="12917"/><tag k="coa:place_id" v="3352930"/></node><node id="-260" lat="30.166688" lon="-97.621136" changeset="false"><tag k="addr:street" v="Buenos Aires Parkway"/><tag k="addr:housenumber" v="12921"/><tag k="coa:place_id" v="3352931"/></node><node id="-261" lat="30.166531" lon="-97.619789" changeset="false"><tag k="addr:street" v="Buenos Aires Parkway"/><tag k="addr:housenumber" v="13020"/><tag k="coa:place_id" v="3352939"/></node><node id="-262" lat="30.162451" lon="-97.637058" changeset="false"><tag k="addr:street" v="Plains Crest Drive"/><tag k="addr:housenumber" v="6616"/><tag k="coa:place_id" v="3296710"/></node><node id="-263" lat="30.159209" lon="-97.641488" changeset="false"><tag k="addr:street" v="Stoney Meadow Drive"/><tag k="addr:housenumber" v="11813"/><tag k="coa:place_id" v="3156384"/></node><node id="-264" lat="30.162096" lon="-97.635694" changeset="false"><tag k="addr:street" v="Ferrystone Pass"/><tag k="addr:housenumber" v="6609"/><tag k="coa:place_id" v="3296723"/></node><node id="-265" lat="30.161101" lon="-97.63739" changeset="false"><tag k="addr:street" v="Plains Crest Drive"/><tag k="addr:housenumber" v="6733"/><tag k="coa:place_id" v="3296747"/></node><node id="-266" lat="30.170298" lon="-97.630217" changeset="false"><tag k="addr:street" v="Ross Road"/><tag k="addr:housenumber" v="5807"/><tag k="coa:place_id" v="623312"/></node><node id="-267" lat="30.168199" lon="-97.62863" changeset="false"><tag k="addr:street" v="Paloma Blanca Way"/><tag k="addr:housenumber" v="12420"/><tag k="coa:place_id" v="3181614"/></node><node id="-268" lat="30.15694" lon="-97.658939" changeset="false"><tag k="addr:street" v="Bain Road"/><tag k="addr:housenumber" v="7200"/><tag k="coa:place_id" v="91281"/></node><node id="-269" lat="30.171981" lon="-97.690378" changeset="false"><tag k="addr:street" v="Colton Road"/><tag k="addr:housenumber" v="5714"/><tag k="coa:place_id" v="701606"/></node><node id="-270" lat="30.161174" lon="-97.658824" changeset="false"><tag k="addr:street" v="Linda Vista Drive"/><tag k="addr:housenumber" v="10802"/><tag k="coa:place_id" v="621890"/></node><node id="-271" lat="30.172746" lon="-97.682916" changeset="false"><tag k="addr:street" v="Colton Road"/><tag k="addr:housenumber" v="5511"/><tag k="coa:place_id" v="244134"/></node><node id="-272" lat="30.169132" lon="-97.623097" changeset="false"><tag k="addr:street" v="Los Cielos Boulevard"/><tag k="addr:housenumber" v="6001 1/2"/><tag k="coa:place_id" v="3138261"/></node><node id="-273" lat="30.162569" lon="-97.687898" changeset="false"><tag k="addr:street" v="Farm-to-Market Road 812"/><tag k="addr:housenumber" v="8914"/><tag k="coa:place_id" v="701414"/></node><node id="-274" lat="30.141734" lon="-97.666847" changeset="false"><tag k="addr:street" v="Farm-to-Market Road 812"/><tag k="addr:housenumber" v="10840"/><tag k="coa:place_id" v="1164519"/></node><node id="-275" lat="30.15997" lon="-97.682909" changeset="false"><tag k="addr:street" v="Farm-to-Market Road 812"/><tag k="addr:housenumber" v="9322"/><tag k="coa:place_id" v="701462"/></node><node id="-276" lat="30.159509" lon="-97.680566" changeset="false"><tag k="addr:street" v="Farm-to-Market Road 812"/><tag k="addr:housenumber" v="9600"/><tag k="coa:place_id" v="206419"/></node><node id="-277" lat="30.160351" lon="-97.684376" changeset="false"><tag k="addr:street" v="Farm-to-Market Road 812"/><tag k="addr:housenumber" v="9302"/><tag k="coa:place_id" v="701468"/></node><node id="-278" lat="30.14777" lon="-97.667643" changeset="false"><tag k="addr:street" v="San Jose Avenue"/><tag k="addr:housenumber" v="10714"/><tag k="coa:place_id" v="1005249"/></node><node id="-279" lat="30.147173" lon="-97.667207" changeset="false"><tag k="addr:street" v="San Jose Avenue"/><tag k="addr:housenumber" v="10807"/><tag k="coa:place_id" v="94079"/></node><node id="-280" lat="30.156416" lon="-97.646426" changeset="false"><tag k="addr:street" v="Apperson Street"/><tag k="addr:housenumber" v="7212"/><tag k="coa:place_id" v="209719"/></node><node id="-281" lat="30.169406" lon="-97.631162" changeset="false"><tag k="addr:street" v="Paloma Blanca Way"/><tag k="addr:housenumber" v="12216"/><tag k="coa:place_id" v="3181663"/></node><node id="-282" lat="30.159891" lon="-97.650111" changeset="false"><tag k="addr:street" v="Darrin Lane"/><tag k="addr:housenumber" v="11409"/><tag k="coa:place_id" v="203411"/></node><node id="-283" lat="30.160202" lon="-97.641721" changeset="false"><tag k="addr:street" v="Savanna Canyon Court"/><tag k="addr:housenumber" v="11825"/><tag k="coa:place_id" v="3156343"/></node><node id="-284" lat="30.160221" lon="-97.656784" changeset="false"><tag k="addr:street" v="Linda Vista Drive"/><tag k="addr:housenumber" v="10906"/><tag k="coa:place_id" v="992079"/></node><node id="-285" lat="30.159914" lon="-97.64699" changeset="false"><tag k="addr:street" v="Tickford Drive"/><tag k="addr:housenumber" v="11608"/><tag k="coa:place_id" v="209598"/></node><node id="-286" lat="30.159574" lon="-97.650576" changeset="false"><tag k="addr:street" v="Cozette Drive"/><tag k="addr:housenumber" v="11404"/><tag k="coa:place_id" v="192612"/></node><node id="-287" lat="30.160563" lon="-97.65053" changeset="false"><tag k="addr:street" v="Darrin Lane"/><tag k="addr:housenumber" v="11402"/><tag k="coa:place_id" v="110706"/></node><node id="-288" lat="30.162834" lon="-97.641272" changeset="false"><tag k="addr:street" v="Plains Valley Drive"/><tag k="addr:housenumber" v="11808"/><tag k="coa:place_id" v="3156298"/></node><node id="-289" lat="30.162341" lon="-97.635548" changeset="false"><tag k="addr:street" v="Ferrystone Pass"/><tag k="addr:housenumber" v="6601"/><tag k="coa:place_id" v="3296721"/></node><node id="-290" lat="30.15909" lon="-97.640387" changeset="false"><tag k="addr:street" v="Stoney Meadow Drive"/><tag k="addr:housenumber" v="12001"/><tag k="coa:place_id" v="3156411"/></node><node id="-291" lat="30.161191" lon="-97.640711" changeset="false"><tag k="addr:street" v="Savanna Canyon Drive"/><tag k="addr:housenumber" v="6729"/><tag k="coa:place_id" v="3156361"/></node><node id="-292" lat="30.155224" lon="-97.642538" changeset="false"><tag k="addr:street" v="White Panda Run"/><tag k="addr:housenumber" v="7201"/><tag k="coa:place_id" v="3032995"/></node><node id="-293" lat="30.154827" lon="-97.643661" changeset="false"><tag k="addr:street" v="Black Panda Trail"/><tag k="addr:housenumber" v="7221"/><tag k="coa:place_id" v="3033000"/></node><node id="-294" lat="30.170408" lon="-97.62583" changeset="false"><tag k="addr:street" v="Pearce Lane"/><tag k="addr:housenumber" v="12501"/><tag k="coa:place_id" v="623330"/></node><node id="-295" lat="30.170376" lon="-97.626814" changeset="false"><tag k="addr:street" v="Los Dios Place"/><tag k="addr:housenumber" v="5905"/><tag k="coa:place_id" v="3116124"/></node><node id="-296" lat="30.170273" lon="-97.626891" changeset="false"><tag k="addr:street" v="Los Dios Place"/><tag k="addr:housenumber" v="5909"/><tag k="coa:place_id" v="3116125"/></node><node id="-297" lat="30.175876" lon="-97.688409" changeset="false"><tag k="addr:street" v="Colton Road"/><tag k="addr:housenumber" v="5507"/><tag k="coa:place_id" v="701636"/></node><node id="-298" lat="30.178769" lon="-97.683302" changeset="false"><tag k="addr:street" v="Burleson Road"/><tag k="addr:housenumber" v="8605"/><tag k="coa:place_id" v="224712"/></node><node id="-299" lat="30.155051" lon="-97.650689" changeset="false"><tag k="addr:street" v="Schebler Street"/><tag k="addr:housenumber" v="7324"/><tag k="coa:place_id" v="3076375"/></node><node id="-300" lat="30.158652" lon="-97.646626" changeset="false"><tag k="addr:street" v="Gemmer Street"/><tag k="addr:housenumber" v="11705"/><tag k="coa:place_id" v="209633"/></node><node id="-301" lat="30.153808" lon="-97.648899" changeset="false"><tag k="addr:street" v="Arrowmound Pass"/><tag k="addr:housenumber" v="11800"/><tag k="coa:place_id" v="3150718"/></node><node id="-302" lat="30.137658" lon="-97.656005" changeset="false"><tag k="addr:street" v="Farm-to-Market Road 812"/><tag k="addr:housenumber" v="11900"/><tag k="coa:place_id" v="660014"/></node><node id="-303" lat="30.14252" lon="-97.668842" changeset="false"><tag k="addr:street" v="Farm-to-Market Road 812"/><tag k="addr:housenumber" v="10804"/><tag k="coa:place_id" v="94086"/></node><node id="-304" lat="30.157384" lon="-97.649255" changeset="false"><tag k="addr:street" v="Humber Cove"/><tag k="addr:housenumber" v="11505"/><tag k="coa:place_id" v="169221"/></node><node id="-305" lat="30.149904" lon="-97.669811" changeset="false"><tag k="addr:street" v="Farm-to-Market Road 812"/><tag k="addr:housenumber" v="10426"/><tag k="coa:place_id" v="478761"/></node><node id="-306" lat="30.15937" lon="-97.647535" changeset="false"><tag k="addr:street" v="Gemmer Street"/><tag k="addr:housenumber" v="11608"/><tag k="coa:place_id" v="209604"/></node><node id="-307" lat="30.154557" lon="-97.643263" changeset="false"><tag k="addr:street" v="White Panda Run"/><tag k="addr:housenumber" v="7224"/><tag k="coa:place_id" v="3032992"/></node><node id="-308" lat="30.151352" lon="-97.669962" changeset="false"><tag k="addr:street" v="Farm-to-Market Road 812"/><tag k="addr:housenumber" v="10416"/><tag k="coa:place_id" v="121941"/></node><node id="-309" lat="30.159727" lon="-97.638581" changeset="false"><tag k="addr:street" v="Plains Crest Drive"/><tag k="addr:housenumber" v="6920"/><tag k="coa:place_id" v="3296760"/></node><node id="-310" lat="30.159971" lon="-97.638018" changeset="false"><tag k="addr:street" v="Plains Crest Drive"/><tag k="addr:housenumber" v="6905"/><tag k="coa:place_id" v="3296771"/></node><node id="-311" lat="30.167282" lon="-97.618782" changeset="false"><tag k="addr:street" v="Pearce Lane"/><tag k="addr:housenumber" v="13103 1/2"/><tag k="coa:place_id" v="3108591"/></node><node id="-312" lat="30.16207" lon="-97.660398" changeset="false"><tag k="addr:street" v="Linda Vista Drive"/><tag k="addr:housenumber" v="10606"/><tag k="coa:place_id" v="518631"/></node><node id="-313" lat="30.171308" lon="-97.690696" changeset="false"><tag k="addr:street" v="Colton Road"/><tag k="addr:housenumber" v="5800"/><tag k="coa:place_id" v="802245"/></node><node id="-314" lat="30.168967" lon="-97.688461" changeset="false"><tag k="addr:street" v="Hillmoore Drive"/><tag k="addr:housenumber" v="8617"/><tag k="coa:place_id" v="101257"/></node><node id="-315" lat="30.141958" lon="-97.663535" changeset="false"><tag k="addr:street" v="Farm-to-Market Road 812"/><tag k="addr:housenumber" v="11200"/><tag k="coa:place_id" v="998726"/></node><node id="-316" lat="30.156501" lon="-97.645422" changeset="false"><tag k="addr:street" v="Proud Panda Drive"/><tag k="addr:housenumber" v="7200"/><tag k="coa:place_id" v="227712"/></node><node id="-317" lat="30.166524" lon="-97.621602" changeset="false"><tag k="addr:street" v="Constellation Circle"/><tag k="addr:housenumber" v="6216"/><tag k="coa:place_id" v="3352949"/></node><node id="-318" lat="30.16099" lon="-97.649236" changeset="false"><tag k="addr:street" v="Tickford Drive"/><tag k="addr:housenumber" v="11412"/><tag k="coa:place_id" v="99755"/></node><node id="-319" lat="30.16037" lon="-97.638408" changeset="false"><tag k="addr:street" v="Plains Crest Drive"/><tag k="addr:housenumber" v="6900"/><tag k="coa:place_id" v="3296755"/></node><node id="-320" lat="30.166589" lon="-97.622656" changeset="false"><tag k="addr:street" v="Night Sky Way"/><tag k="addr:housenumber" v="5900"/><tag k="coa:place_id" v="3352979"/></node><node id="-321" lat="30.16597" lon="-97.622737" changeset="false"><tag k="addr:street" v="Night Sky Way"/><tag k="addr:housenumber" v="5916"/><tag k="coa:place_id" v="3352983"/></node><node id="-322" lat="30.161242" lon="-97.635429" changeset="false"><tag k="addr:street" v="Ferrystone Glen Drive"/><tag k="addr:housenumber" v="12221"/><tag k="coa:place_id" v="3296871"/></node><node id="-323" lat="30.167177" lon="-97.62293" changeset="false"><tag k="addr:street" v="Constellation Circle"/><tag k="addr:housenumber" v="6316"/><tag k="coa:place_id" v="3352969"/></node><node id="-324" lat="30.16641" lon="-97.620548" changeset="false"><tag k="addr:street" v="Buenos Aires Parkway"/><tag k="addr:housenumber" v="13005"/><tag k="coa:place_id" v="3352942"/></node><node id="-325" lat="30.16655" lon="-97.620877" changeset="false"><tag k="addr:street" v="Buenos Aires Parkway"/><tag k="addr:housenumber" v="12929"/><tag k="coa:place_id" v="3352933"/></node><node id="-326" lat="30.159831" lon="-97.636526" changeset="false"><tag k="addr:street" v="Ferrystone Cove"/><tag k="addr:housenumber" v="12217"/><tag k="coa:place_id" v="3296839"/></node><node id="-327" lat="30.16075" lon="-97.634308" changeset="false"><tag k="addr:street" v="Ferrystone Glen Drive"/><tag k="addr:housenumber" v="12321"/><tag k="coa:place_id" v="5095418"/></node><node id="-328" lat="30.147427" lon="-97.667671" changeset="false"><tag k="addr:street" v="San Jose Avenue"/><tag k="addr:housenumber" v="10717"/><tag k="coa:place_id" v="3329393"/></node><node id="-329" lat="30.158968" lon="-97.680952" changeset="false"><tag k="addr:street" v="Farm-to-Market Road 812"/><tag k="addr:housenumber" v="9600 1/2"/><tag k="coa:place_id" v="3108287"/></node><node id="-330" lat="30.160849" lon="-97.63566" changeset="false"><tag k="addr:street" v="Prairie Glen Court"/><tag k="addr:housenumber" v="12220"/><tag k="coa:place_id" v="3296865"/></node><node id="-331" lat="30.16684" lon="-97.61834" changeset="false"><tag k="addr:street" v="Noche Clara Drive"/><tag k="addr:housenumber" v="13120"/><tag k="coa:place_id" v="3281805"/></node><node id="-332" lat="30.16099" lon="-97.635926" changeset="false"><tag k="addr:street" v="Prairie Glen Court"/><tag k="addr:housenumber" v="12212"/><tag k="coa:place_id" v="3296863"/></node><node id="-333" lat="30.158994" lon="-97.638642" changeset="false"><tag k="addr:street" v="Stoney Meadow Drive"/><tag k="addr:housenumber" v="12105"/><tag k="coa:place_id" v="3296799"/></node><node id="-334" lat="30.15888" lon="-97.637607" changeset="false"><tag k="addr:street" v="Stoney Meadow Drive"/><tag k="addr:housenumber" v="12201"/><tag k="coa:place_id" v="3296810"/></node><node id="-335" lat="30.158863" lon="-97.637452" changeset="false"><tag k="addr:street" v="Stoney Meadow Drive"/><tag k="addr:housenumber" v="12205"/><tag k="coa:place_id" v="3296811"/></node><node id="-336" lat="30.157926" lon="-97.637793" changeset="false"><tag k="addr:street" v="Heine Farm Road"/><tag k="addr:housenumber" v="7110"/><tag k="coa:place_id" v="1128529"/></node><node id="-337" lat="30.156511" lon="-97.645989" changeset="false"><tag k="addr:street" v="Apperson Street"/><tag k="addr:housenumber" v="7222"/><tag k="coa:place_id" v="209722"/></node><node id="-338" lat="30.159033" lon="-97.639658" changeset="false"><tag k="addr:street" v="Stoney Meadow Drive"/><tag k="addr:housenumber" v="12021"/><tag k="coa:place_id" v="3156408"/></node><node id="-339" lat="30.157306" lon="-97.646167" changeset="false"><tag k="addr:street" v="Maybach Drive"/><tag k="addr:housenumber" v="11731"/><tag k="coa:place_id" v="209669"/></node><node id="-340" lat="30.158638" lon="-97.650399" changeset="false"><tag k="addr:street" v="Hewers Drive"/><tag k="addr:housenumber" v="7006"/><tag k="coa:place_id" v="192642"/></node><node id="-341" lat="30.160988" lon="-97.637442" changeset="false"><tag k="addr:street" v="Plains Crest Drive"/><tag k="addr:housenumber" v="6735"/><tag k="coa:place_id" v="3296748"/></node><node id="-342" lat="30.154562" lon="-97.643995" changeset="false"><tag k="addr:street" v="Black Panda Trail"/><tag k="addr:housenumber" v="7233"/><tag k="coa:place_id" v="3033003"/></node><node id="-343" lat="30.154274" lon="-97.643271" changeset="false"><tag k="addr:street" v="White Panda Run"/><tag k="addr:housenumber" v="7232"/><tag k="coa:place_id" v="3032994"/></node><node id="-344" lat="30.155457" lon="-97.644318" changeset="false"><tag k="addr:street" v="Great Panda Cove"/><tag k="addr:housenumber" v="7217"/><tag k="coa:place_id" v="3033017"/></node><node id="-345" lat="30.155178" lon="-97.645008" changeset="false"><tag k="addr:street" v="Great Panda Cove"/><tag k="addr:housenumber" v="7228"/><tag k="coa:place_id" v="3033030"/></node><node id="-346" lat="30.16082" lon="-97.642362" changeset="false"><tag k="addr:street" v="Savanna Canyon Court"/><tag k="addr:housenumber" v="11800"/><tag k="coa:place_id" v="3156330"/></node><node id="-347" lat="30.166193" lon="-97.620917" changeset="false"><tag k="addr:street" v="Constellation Circle"/><tag k="addr:housenumber" v="6120"/><tag k="coa:place_id" v="3352959"/></node><node id="-348" lat="30.166649" lon="-97.621882" changeset="false"><tag k="addr:street" v="Constellation Circle"/><tag k="addr:housenumber" v="6224"/><tag k="coa:place_id" v="3352951"/></node><node id="-349" lat="30.166125" lon="-97.62076" changeset="false"><tag k="addr:street" v="Constellation Circle"/><tag k="addr:housenumber" v="6116"/><tag k="coa:place_id" v="3352958"/></node><node id="-350" lat="30.159805" lon="-97.636322" changeset="false"><tag k="addr:street" v="Ferrystone Cove"/><tag k="addr:housenumber" v="12221"/><tag k="coa:place_id" v="3296840"/></node><node id="-351" lat="30.175694" lon="-97.688481" changeset="false"><tag k="addr:street" v="Colton Road"/><tag k="addr:housenumber" v="5509"/><tag k="coa:place_id" v="3371605"/></node><node id="-352" lat="30.15847" lon="-97.646218" changeset="false"><tag k="addr:street" v="Railton Drive"/><tag k="addr:housenumber" v="11708"/><tag k="coa:place_id" v="213365"/></node><node id="-353" lat="30.156821" lon="-97.648638" changeset="false"><tag k="addr:street" v="Schebler Street"/><tag k="addr:housenumber" v="7201"/><tag k="coa:place_id" v="180393"/></node><node id="-354" lat="30.160688" lon="-97.659379" changeset="false"><tag k="addr:street" v="Linda Vista Drive"/><tag k="addr:housenumber" v="10801"/><tag k="coa:place_id" v="664059"/></node><node id="-355" lat="30.15953" lon="-97.637638" changeset="false"><tag k="addr:street" v="Ferrystone Pass"/><tag k="addr:housenumber" v="6928"/><tag k="coa:place_id" v="3296796"/></node><node id="-356" lat="30.15929" lon="-97.637833" changeset="false"><tag k="addr:street" v="Stoney Meadow Drive"/><tag k="addr:housenumber" v="12120"/><tag k="coa:place_id" v="3296803"/></node><node id="-357" lat="30.160807" lon="-97.634451" changeset="false"><tag k="addr:street" v="Ferrystone Glen Drive"/><tag k="addr:housenumber" v="12317"/><tag k="coa:place_id" v="5095417"/></node><node id="-358" lat="30.166974" lon="-97.618641" changeset="false"><tag k="addr:street" v="Noche Clara Drive"/><tag k="addr:housenumber" v="13112"/><tag k="coa:place_id" v="3281803"/></node><node id="-359" lat="30.159019" lon="-97.648894" changeset="false"><tag k="addr:street" v="Gemmer Street"/><tag k="addr:housenumber" v="11501"/><tag k="coa:place_id" v="168077"/></node><node id="-360" lat="30.166873" lon="-97.620491" changeset="false"><tag k="addr:street" v="Buenos Aires Parkway"/><tag k="addr:housenumber" v="13000"/><tag k="coa:place_id" v="3352934"/></node><node id="-361" lat="30.16199" lon="-97.635763" changeset="false"><tag k="addr:street" v="Ferrystone Pass"/><tag k="addr:housenumber" v="6613"/><tag k="coa:place_id" v="3296724"/></node><node id="-362" lat="30.167009" lon="-97.623313" changeset="false"><tag k="addr:street" v="Constellation Circle"/><tag k="addr:housenumber" v="6324"/><tag k="coa:place_id" v="3352971"/></node><node id="-363" lat="30.166351" lon="-97.62216" changeset="false"><tag k="addr:street" v="Night Sky Way"/><tag k="addr:housenumber" v="5901"/><tag k="coa:place_id" v="3352975"/></node><node id="-364" lat="30.158188" lon="-97.640803" changeset="false"><tag k="addr:street" v="Elroy Road"/><tag k="addr:housenumber" v="7012"/><tag k="coa:place_id" v="5121403"/></node><node id="-365" lat="30.161571" lon="-97.661088" changeset="false"><tag k="addr:street" v="Linda Vista Drive"/><tag k="addr:housenumber" v="10605"/><tag k="coa:place_id" v="621932"/></node><node id="-366" lat="30.15999" lon="-97.656639" changeset="false"><tag k="addr:street" v="Linda Vista Drive"/><tag k="addr:housenumber" v="11000"/><tag k="coa:place_id" v="441136"/></node><node id="-367" lat="30.159925" lon="-97.63663" changeset="false"><tag k="addr:street" v="Ferrystone Cove"/><tag k="addr:housenumber" v="12213"/><tag k="coa:place_id" v="3296838"/></node><node id="-368" lat="30.167239" lon="-97.622074" changeset="false"><tag k="addr:street" v="Buenos Aires Parkway"/><tag k="addr:housenumber" v="12849 1/2"/><tag k="coa:place_id" v="3277705"/></node><node id="-369" lat="30.161282" lon="-97.637213" changeset="false"><tag k="addr:street" v="Plains Crest Drive"/><tag k="addr:housenumber" v="6725"/><tag k="coa:place_id" v="3296745"/></node><node id="-370" lat="30.167411" lon="-97.628076" changeset="false"><tag k="addr:street" v="Paloma Blanca Way"/><tag k="addr:housenumber" v="12517"/><tag k="coa:place_id" v="3181706"/></node><node id="-371" lat="30.167908" lon="-97.628095" changeset="false"><tag k="addr:street" v="Paloma Blanca Way"/><tag k="addr:housenumber" v="12508"/><tag k="coa:place_id" v="3181686"/></node><node id="-372" lat="30.160596" lon="-97.648557" changeset="false"><tag k="addr:street" v="Tickford Drive"/><tag k="addr:housenumber" v="11500"/><tag k="coa:place_id" v="156895"/></node><node id="-373" lat="30.159126" lon="-97.636783" changeset="false"><tag k="addr:street" v="Stoney Meadow Drive"/><tag k="addr:housenumber" v="12216"/><tag k="coa:place_id" v="3296817"/></node><node id="-374" lat="30.147747" lon="-97.668697" changeset="false"><tag k="addr:street" v="San Jose Avenue"/><tag k="addr:housenumber" v="10705"/><tag k="coa:place_id" v="239301"/></node><node id="-375" lat="30.170784" lon="-97.689766" changeset="false"><tag k="addr:street" v="Hillmoore Drive"/><tag k="addr:housenumber" v="8510"/><tag k="coa:place_id" v="701546"/></node><node id="-376" lat="30.160579" lon="-97.6372" changeset="false"><tag k="addr:street" v="Ferrystone Pass"/><tag k="addr:housenumber" v="6820"/><tag k="coa:place_id" v="3296786"/></node><node id="-377" lat="30.15771" lon="-97.645357" changeset="false"><tag k="addr:street" v="Proud Panda Drive"/><tag k="addr:housenumber" v="7100"/><tag k="coa:place_id" v="227713"/></node><node id="-378" lat="30.160779" lon="-97.637571" changeset="false"><tag k="addr:street" v="Plains Crest Drive"/><tag k="addr:housenumber" v="6801"/><tag k="coa:place_id" v="3296764"/></node><node id="-379" lat="30.159829" lon="-97.638039" changeset="false"><tag k="addr:street" v="Plains Crest Drive"/><tag k="addr:housenumber" v="6909"/><tag k="coa:place_id" v="3296772"/></node><node id="-380" lat="30.160647" lon="-97.636157" changeset="false"><tag k="addr:street" v="Prairie Glen Court"/><tag k="addr:housenumber" v="12213"/><tag k="coa:place_id" v="3296857"/></node><node id="-381" lat="30.147492" lon="-97.668161" changeset="false"><tag k="addr:street" v="San Jose Avenue"/><tag k="addr:housenumber" v="10711"/><tag k="coa:place_id" v="660476"/></node><node id="-382" lat="30.167874" lon="-97.679602" changeset="false"><tag k="addr:street" v="Farm-to-Market Road 812"/><tag k="addr:housenumber" v="9310"/><tag k="coa:place_id" v="3291834"/></node><node id="-383" lat="30.160268" lon="-97.636404" changeset="false"><tag k="addr:street" v="Ferrystone Cove"/><tag k="addr:housenumber" v="12212"/><tag k="coa:place_id" v="3296850"/></node><node id="-384" lat="30.146998" lon="-97.665741" changeset="false"><tag k="addr:street" v="San Jose Avenue"/><tag k="addr:housenumber" v="10806"/><tag k="coa:place_id" v="3329391"/></node><node id="-385" lat="30.158942" lon="-97.638162" changeset="false"><tag k="addr:street" v="Stoney Meadow Drive"/><tag k="addr:housenumber" v="12117"/><tag k="coa:place_id" v="3296806"/></node><node id="-386" lat="30.159286" lon="-97.637302" changeset="false"><tag k="addr:street" v="Stoney Meadow Drive"/><tag k="addr:housenumber" v="12200"/><tag k="coa:place_id" v="3296813"/></node><node id="-387" lat="30.153585" lon="-97.643392" changeset="false"><tag k="addr:street" v="Apperson Street"/><tag k="addr:housenumber" v="7420"/><tag k="coa:place_id" v="3292662"/></node><node id="-388" lat="30.16141" lon="-97.634719" changeset="false"><tag k="addr:street" v="Ferrystone Glen Drive"/><tag k="addr:housenumber" v="12300"/><tag k="coa:place_id" v="5095410"/></node><node id="-389" lat="30.160932" lon="-97.634701" changeset="false"><tag k="addr:street" v="Ferrystone Glen Drive"/><tag k="addr:housenumber" v="12309"/><tag k="coa:place_id" v="5095415"/></node><node id="-390" lat="30.160866" lon="-97.634576" changeset="false"><tag k="addr:street" v="Ferrystone Glen Drive"/><tag k="addr:housenumber" v="12313"/><tag k="coa:place_id" v="5095416"/></node><node id="-391" lat="30.161722" lon="-97.634256" changeset="false"><tag k="addr:street" v="Ferrystone Glen Drive"/><tag k="addr:housenumber" v="12314"/><tag k="coa:place_id" v="5095450"/></node><node id="-392" lat="30.167111" lon="-97.622767" changeset="false"><tag k="addr:street" v="Constellation Circle"/><tag k="addr:housenumber" v="6312"/><tag k="coa:place_id" v="3352968"/></node><node id="-393" lat="30.166938" lon="-97.620635" changeset="false"><tag k="addr:street" v="Buenos Aires Parkway"/><tag k="addr:housenumber" v="12928"/><tag k="coa:place_id" v="3352924"/></node><node id="-394" lat="30.161421" lon="-97.635816" changeset="false"><tag k="addr:street" v="Ferrystone Glen Drive"/><tag k="addr:housenumber" v="12209"/><tag k="coa:place_id" v="3296868"/></node><node id="-395" lat="30.148199" lon="-97.668397" changeset="false"><tag k="addr:street" v="San Jose Avenue"/><tag k="addr:housenumber" v="10704"/><tag k="coa:place_id" v="94075"/></node><node id="-396" lat="30.160104" lon="-97.637025" changeset="false"><tag k="addr:street" v="Ferrystone Cove"/><tag k="addr:housenumber" v="12201"/><tag k="coa:place_id" v="3296835"/></node><node id="-397" lat="30.165946" lon="-97.622526" changeset="false"><tag k="addr:street" v="Night Sky Way"/><tag k="addr:housenumber" v="5913"/><tag k="coa:place_id" v="3352978"/></node><node id="-398" lat="30.161123" lon="-97.636168" changeset="false"><tag k="addr:street" v="Prairie Glen Court"/><tag k="addr:housenumber" v="12204"/><tag k="coa:place_id" v="3296861"/></node><node id="-399" lat="30.178743" lon="-97.683952" changeset="false"><tag k="addr:street" v="Burleson Road"/><tag k="addr:housenumber" v="8523"/><tag k="coa:place_id" v="5055513"/></node><node id="-400" lat="30.166953" lon="-97.621711" changeset="false"><tag k="addr:street" v="Buenos Aires Parkway"/><tag k="addr:housenumber" v="12905"/><tag k="coa:place_id" v="3352927"/></node><node id="-401" lat="30.159985" lon="-97.636743" changeset="false"><tag k="addr:street" v="Ferrystone Cove"/><tag k="addr:housenumber" v="12209"/><tag k="coa:place_id" v="3296837"/></node><node id="-402" lat="30.174462" lon="-97.688705" changeset="false"><tag k="addr:street" v="Colton Road"/><tag k="addr:housenumber" v="5515"/><tag k="coa:place_id" v="5071594"/></node><node id="-403" lat="30.146162" lon="-97.66996" changeset="false"><tag k="addr:street" v="Lonesome Lane"/><tag k="addr:housenumber" v="7711"/><tag k="coa:place_id" v="3363680"/></node><node id="-404" lat="30.161495" lon="-97.635937" changeset="false"><tag k="addr:street" v="Ferrystone Glen Drive"/><tag k="addr:housenumber" v="12205"/><tag k="coa:place_id" v="3296867"/></node><node id="-405" lat="30.159848" lon="-97.63857" changeset="false"><tag k="addr:street" v="Plains Crest Drive"/><tag k="addr:housenumber" v="6916"/><tag k="coa:place_id" v="3296759"/></node><node id="-406" lat="30.160225" lon="-97.637913" changeset="false"><tag k="addr:street" v="Plains Crest Drive"/><tag k="addr:housenumber" v="6821"/><tag k="coa:place_id" v="3296769"/></node><node id="-407" lat="30.161658" lon="-97.636475" changeset="false"><tag k="addr:street" v="Ferrystone Pass"/><tag k="addr:housenumber" v="6704"/><tag k="coa:place_id" v="3296776"/></node><node id="-408" lat="30.163514" lon="-97.65568" changeset="false"><tag k="addr:street" v="Elroy Road"/><tag k="addr:housenumber" v="6414"/><tag k="coa:place_id" v="623516"/></node><node id="-409" lat="30.162413" lon="-97.640058" changeset="false"><tag k="addr:street" v="Plains Valley Drive"/><tag k="addr:housenumber" v="11900"/><tag k="coa:place_id" v="3156291"/></node><node id="-410" lat="30.166265" lon="-97.62105" changeset="false"><tag k="addr:street" v="Constellation Circle"/><tag k="addr:housenumber" v="6200"/><tag k="coa:place_id" v="3352945"/></node><node id="-411" lat="30.160284" lon="-97.641997" changeset="false"><tag k="addr:street" v="Savanna Canyon Court"/><tag k="addr:housenumber" v="11817"/><tag k="coa:place_id" v="3156341"/></node><node id="-412" lat="30.171938" lon="-97.68995" changeset="false"><tag k="addr:street" v="Colton Road"/><tag k="addr:housenumber" v="5709"/><tag k="coa:place_id" v="701564"/></node><node id="-413" lat="30.160037" lon="-97.636872" changeset="false"><tag k="addr:street" v="Ferrystone Cove"/><tag k="addr:housenumber" v="12205"/><tag k="coa:place_id" v="3296836"/></node><node id="-414" lat="30.147323" lon="-97.666319" changeset="false"><tag k="addr:street" v="San Jose Avenue"/><tag k="addr:housenumber" v="10804"/><tag k="coa:place_id" v="484359"/></node><node id="-415" lat="30.146945" lon="-97.666918" changeset="false"><tag k="addr:street" v="San Jose Avenue"/><tag k="addr:housenumber" v="10809"/><tag k="coa:place_id" v="3361376"/></node><node id="-416" lat="30.161554" lon="-97.636066" changeset="false"><tag k="addr:street" v="Ferrystone Glen Drive"/><tag k="addr:housenumber" v="12201"/><tag k="coa:place_id" v="3296866"/></node><node id="-417" lat="30.1551" lon="-97.643549" changeset="false"><tag k="addr:street" v="Black Panda Trail"/><tag k="addr:housenumber" v="7213"/><tag k="coa:place_id" v="3032998"/></node><node id="-418" lat="30.15394" lon="-97.649705" changeset="false"><tag k="addr:street" v="Arrowmound Pass"/><tag k="addr:housenumber" v="11705"/><tag k="coa:place_id" v="3120985"/></node><node id="-419" lat="30.165942" lon="-97.621373" changeset="false"><tag k="addr:street" v="Constellation Circle"/><tag k="addr:housenumber" v="6201"/><tag k="coa:place_id" v="3352960"/></node><node id="-420" lat="30.16793" lon="-97.622653" changeset="false"><tag k="addr:street" v="Buenos Aires Parkway"/><tag k="addr:housenumber" v="12824"/><tag k="coa:place_id" v="3116034"/></node><node id="-421" lat="30.147955" lon="-97.669204" changeset="false"><tag k="addr:street" v="San Jose Avenue"/><tag k="addr:housenumber" v="10701"/><tag k="coa:place_id" v="3044511"/></node><node id="-422" lat="30.158676" lon="-97.64699" changeset="false"><tag k="addr:street" v="Gemmer Street"/><tag k="addr:housenumber" v="11621"/><tag k="coa:place_id" v="209635"/></node><node id="-423" lat="30.158609" lon="-97.64757" changeset="false"><tag k="addr:street" v="Railton Drive"/><tag k="addr:housenumber" v="11608"/><tag k="coa:place_id" v="209686"/></node><node id="-424" lat="30.16009" lon="-97.657895" changeset="false"><tag k="addr:street" v="Linda Vista Drive"/><tag k="addr:housenumber" v="10901"/><tag k="coa:place_id" v="621914"/></node><node id="-425" lat="30.162452" lon="-97.661637" changeset="false"><tag k="addr:street" v="Linda Vista Drive"/><tag k="addr:housenumber" v="10506"/><tag k="coa:place_id" v="621878"/></node><node id="-426" lat="30.159008" lon="-97.638772" changeset="false"><tag k="addr:street" v="Stoney Meadow Drive"/><tag k="addr:housenumber" v="12101"/><tag k="coa:place_id" v="3296798"/></node><node id="-427" lat="30.159262" lon="-97.637163" changeset="false"><tag k="addr:street" v="Stoney Meadow Drive"/><tag k="addr:housenumber" v="12204"/><tag k="coa:place_id" v="3296814"/></node><node id="-428" lat="30.16955" lon="-97.635407" changeset="false"><tag k="addr:street" v="Foley Drive"/><tag k="addr:housenumber" v="12001"/><tag k="coa:place_id" v="564820"/></node><node id="-429" lat="30.166522" lon="-97.623004" changeset="false"><tag k="addr:street" v="Constellation Circle"/><tag k="addr:housenumber" v="6309"/><tag k="coa:place_id" v="3352972"/></node><node id="-430" lat="30.166207" lon="-97.622227" changeset="false"><tag k="addr:street" v="Night Sky Way"/><tag k="addr:housenumber" v="5905"/><tag k="coa:place_id" v="3352976"/></node><node id="-431" lat="30.158912" lon="-97.637754" changeset="false"><tag k="addr:street" v="Stoney Meadow Drive"/><tag k="addr:housenumber" v="12129"/><tag k="coa:place_id" v="3296809"/></node><node id="-432" lat="30.155964" lon="-97.659515" changeset="false"><tag k="addr:street" v="Bain Road"/><tag k="addr:housenumber" v="7220"/><tag k="coa:place_id" v="5121261"/></node><node id="-433" lat="30.171442" lon="-97.627815" changeset="false"><tag k="addr:street" v="Pearce Lane"/><tag k="addr:housenumber" v="12321 1/2"/><tag k="coa:place_id" v="3140774"/></node><node id="-434" lat="30.173519" lon="-97.634794" changeset="false"><tag k="addr:street" v="Pearce Lane"/><tag k="addr:housenumber" v="11815"/><tag k="coa:place_id" v="3031078"/></node><node id="-435" lat="30.157273" lon="-97.645869" changeset="false"><tag k="addr:street" v="Maybach Drive"/><tag k="addr:housenumber" v="11743"/><tag k="coa:place_id" v="209664"/></node><node id="-436" lat="30.159241" lon="-97.641773" changeset="false"><tag k="addr:street" v="Stoney Meadow Drive"/><tag k="addr:housenumber" v="11805"/><tag k="coa:place_id" v="3156382"/></node><node id="-437" lat="30.168232" lon="-97.623242" changeset="false"><tag k="addr:street" v="Buenos Aires Parkway"/><tag k="addr:housenumber" v="12808"/><tag k="coa:place_id" v="3131199"/></node><node id="-438" lat="30.179161" lon="-97.643845" changeset="false"><tag k="addr:street" v="Pearce Lane"/><tag k="addr:housenumber" v="11005"/><tag k="coa:place_id" v="623276"/></node><node id="-439" lat="30.162042" lon="-97.635148" changeset="false"><tag k="addr:street" v="Heine Farm Road"/><tag k="addr:housenumber" v="6624"/><tag k="coa:place_id" v="3296727"/></node><node id="-440" lat="30.169463" lon="-97.624156" changeset="false"><tag k="addr:street" v="Universe Circle"/><tag k="addr:housenumber" v="12704"/><tag k="coa:place_id" v="3115990"/></node><node id="-441" lat="30.173697" lon="-97.63499" changeset="false"><tag k="addr:street" v="Pearce Lane"/><tag k="addr:housenumber" v="11813"/><tag k="coa:place_id" v="227681"/></node><node id="-442" lat="30.160001" lon="-97.641639" changeset="false"><tag k="addr:street" v="Savanna Canyon Drive"/><tag k="addr:housenumber" v="6912"/><tag k="coa:place_id" v="3156377"/></node><node id="-443" lat="30.160299" lon="-97.649616" changeset="false"><tag k="addr:street" v="Darrin Lane"/><tag k="addr:housenumber" v="11412"/><tag k="coa:place_id" v="110723"/></node><node id="-444" lat="30.168541" lon="-97.625522" changeset="false"><tag k="addr:street" v="Campana Drive"/><tag k="addr:housenumber" v="12616 1/2"/><tag k="coa:place_id" v="3124423"/></node><node id="-445" lat="30.155558" lon="-97.643428" changeset="false"><tag k="addr:street" v="Black Panda Trail"/><tag k="addr:housenumber" v="7201"/><tag k="coa:place_id" v="3033013"/></node><node id="-446" lat="30.167131" lon="-97.629046" changeset="false"><tag k="addr:street" v="La Paz Lane"/><tag k="addr:housenumber" v="12501"/><tag k="coa:place_id" v="3181567"/></node><node id="-447" lat="30.156002" lon="-97.644599" changeset="false"><tag k="addr:street" v="Great Panda Cove"/><tag k="addr:housenumber" v="7204"/><tag k="coa:place_id" v="3033024"/></node><node id="-448" lat="30.157237" lon="-97.648547" changeset="false"><tag k="addr:street" v="Apperson Street"/><tag k="addr:housenumber" v="7109"/><tag k="coa:place_id" v="99905"/></node><node id="-449" lat="30.173006" lon="-97.672095" changeset="false"><tag k="addr:street" v="Burleson Road"/><tag k="addr:housenumber" v="10001"/><tag k="coa:place_id" v="701708"/></node><node id="-450" lat="30.159068" lon="-97.640234" changeset="false"><tag k="addr:street" v="Stoney Meadow Drive"/><tag k="addr:housenumber" v="12005"/><tag k="coa:place_id" v="3156412"/></node><node id="-451" lat="30.169188" lon="-97.623012" changeset="false"><tag k="addr:street" v="Pearce Lane"/><tag k="addr:housenumber" v="12713 1/2"/><tag k="coa:place_id" v="3124359"/></node><node id="-452" lat="30.169023" lon="-97.687921" changeset="false"><tag k="addr:street" v="Hillmoore Drive"/><tag k="addr:housenumber" v="8612"/><tag k="coa:place_id" v="546081"/></node><node id="-453" lat="30.167697" lon="-97.63473" changeset="false"><tag k="addr:street" v="Ross Road"/><tag k="addr:housenumber" v="6100"/><tag k="coa:place_id" v="689530"/></node><node id="-454" lat="30.159913" lon="-97.650344" changeset="false"><tag k="addr:street" v="Darrin Lane"/><tag k="addr:housenumber" v="11407"/><tag k="coa:place_id" v="110717"/></node><node id="-455" lat="30.159602" lon="-97.657304" changeset="false"><tag k="addr:street" v="Linda Vista Drive"/><tag k="addr:housenumber" v="10907"/><tag k="coa:place_id" v="908301"/></node><node id="-456" lat="30.145272" lon="-97.672957" changeset="false"><tag k="addr:street" v="Farm-to-Market Road 812"/><tag k="addr:housenumber" v="10504 1/2"/><tag k="coa:place_id" v="3198186"/></node><node id="-457" lat="30.158275" lon="-97.645658" changeset="false"><tag k="addr:street" v="Railton Drive"/><tag k="addr:housenumber" v="11720"/><tag k="coa:place_id" v="218309"/></node><node id="-458" lat="30.159017" lon="-97.639504" changeset="false"><tag k="addr:street" v="Stoney Meadow Drive"/><tag k="addr:housenumber" v="12025"/><tag k="coa:place_id" v="3156409"/></node><node id="-459" lat="30.161031" lon="-97.685021" changeset="false"><tag k="addr:street" v="Farm-to-Market Road 812"/><tag k="addr:housenumber" v="9202"/><tag k="coa:place_id" v="701456"/></node><node id="-460" lat="30.159187" lon="-97.641354" changeset="false"><tag k="addr:street" v="Stoney Meadow Drive"/><tag k="addr:housenumber" v="11901"/><tag k="coa:place_id" v="3156402"/></node><node id="-461" lat="30.162916" lon="-97.689683" changeset="false"><tag k="addr:street" v="Farm-to-Market Road 812"/><tag k="addr:housenumber" v="8810"/><tag k="coa:place_id" v="701474"/></node><node id="-462" lat="30.172836" lon="-97.689778" changeset="false"><tag k="addr:street" v="Colton Road"/><tag k="addr:housenumber" v="5610"/><tag k="coa:place_id" v="701642"/></node><node id="-463" lat="30.159268" lon="-97.647158" changeset="false"><tag k="addr:street" v="Gemmer Street"/><tag k="addr:housenumber" v="11616"/><tag k="coa:place_id" v="218880"/></node><node id="-464" lat="30.144243" lon="-97.67188" changeset="false"><tag k="addr:street" v="Farm-to-Market Road 812"/><tag k="addr:housenumber" v="10602"/><tag k="coa:place_id" v="660416"/></node><node id="-465" lat="30.167584" lon="-97.627537" changeset="false"><tag k="addr:street" v="Paloma Blanca Way"/><tag k="addr:housenumber" v="12528"/><tag k="coa:place_id" v="3181691"/></node><node id="-466" lat="30.16186" lon="-97.659277" changeset="false"><tag k="addr:street" v="Rowood Drive"/><tag k="addr:housenumber" v="6603"/><tag k="coa:place_id" v="621884"/></node><node id="-467" lat="30.161467" lon="-97.660718" changeset="false"><tag k="addr:street" v="Linda Vista Drive"/><tag k="addr:housenumber" v="10607"/><tag k="coa:place_id" v="848013"/></node><node id="-468" lat="30.154559" lon="-97.642769" changeset="false"><tag k="addr:street" v="White Panda Run"/><tag k="addr:housenumber" v="7221"/><tag k="coa:place_id" v="3032982"/></node><node id="-469" lat="30.171172" lon="-97.629374" changeset="false"><tag k="addr:street" v="Cielo Grande Street"/><tag k="addr:housenumber" v="12300"/><tag k="coa:place_id" v="3165222"/></node><node id="-470" lat="30.173053" lon="-97.632748" changeset="false"><tag k="addr:street" v="Pearce Lane"/><tag k="addr:housenumber" v="12007"/><tag k="coa:place_id" v="480580"/></node><node id="-471" lat="30.169378" lon="-97.623385" changeset="false"><tag k="addr:street" v="Pearce Lane"/><tag k="addr:housenumber" v="12701 1/2"/><tag k="coa:place_id" v="3124358"/></node><node id="-472" lat="30.169345" lon="-97.623708" changeset="false"><tag k="addr:street" v="Universe Circle"/><tag k="addr:housenumber" v="12712"/><tag k="coa:place_id" v="3115992"/></node><node id="-473" lat="30.157287" lon="-97.64597" changeset="false"><tag k="addr:street" v="Maybach Drive"/><tag k="addr:housenumber" v="11739"/><tag k="coa:place_id" v="209665"/></node><node id="-474" lat="30.159103" lon="-97.640093" changeset="false"><tag k="addr:street" v="Stoney Meadow Drive"/><tag k="addr:housenumber" v="12009"/><tag k="coa:place_id" v="3156413"/></node><node id="-475" lat="30.159031" lon="-97.63997" changeset="false"><tag k="addr:street" v="Stoney Meadow Drive"/><tag k="addr:housenumber" v="12013"/><tag k="coa:place_id" v="3156414"/></node><node id="-476" lat="30.154959" lon="-97.644138" changeset="false"><tag k="addr:street" v="Black Panda Trail"/><tag k="addr:housenumber" v="7224"/><tag k="coa:place_id" v="3033010"/></node><node id="-477" lat="30.154187" lon="-97.650257" changeset="false"><tag k="addr:street" v="Arrowmound Pass"/><tag k="addr:housenumber" v="11609"/><tag k="coa:place_id" v="3120977"/></node><node id="-478" lat="30.16939" lon="-97.631907" changeset="false"><tag k="addr:street" v="Paloma Blanca Way"/><tag k="addr:housenumber" v="12201"/><tag k="coa:place_id" v="3181669"/></node><node id="-479" lat="30.159637" lon="-97.648469" changeset="false"><tag k="addr:street" v="Tickford Drive"/><tag k="addr:housenumber" v="11513"/><tag k="coa:place_id" v="209682"/></node><node id="-480" lat="30.180438" lon="-97.686027" changeset="false"><tag k="addr:street" v="Burleson Road"/><tag k="addr:housenumber" v="8505"/><tag k="coa:place_id" v="701660"/></node><node id="-481" lat="30.143533" lon="-97.670178" changeset="false"><tag k="addr:street" v="Farm-to-Market Road 812"/><tag k="addr:housenumber" v="10704"/><tag k="coa:place_id" v="272608"/></node><node id="-482" lat="30.162107" lon="-97.640769" changeset="false"><tag k="addr:street" v="Plains Valley Drive"/><tag k="addr:housenumber" v="11829"/><tag k="coa:place_id" v="3156352"/></node><node id="-483" lat="30.160753" lon="-97.641908" changeset="false"><tag k="addr:street" v="Savanna Canyon Court"/><tag k="addr:housenumber" v="11812"/><tag k="coa:place_id" v="3156333"/></node><node id="-484" lat="30.170354" lon="-97.664403" changeset="false"><tag k="addr:street" v="Burleson Road"/><tag k="addr:housenumber" v="10219 1/2"/><tag k="coa:place_id" v="3091639"/></node><node id="-485" lat="30.162491" lon="-97.66275" changeset="false"><tag k="addr:street" v="Linda Vista Drive"/><tag k="addr:housenumber" v="10501"/><tag k="coa:place_id" v="356451"/></node><node id="-486" lat="30.159603" lon="-97.648057" changeset="false"><tag k="addr:street" v="Tickford Drive"/><tag k="addr:housenumber" v="11521"/><tag k="coa:place_id" v="209680"/></node><node id="-487" lat="30.160748" lon="-97.657674" changeset="false"><tag k="addr:street" v="Linda Vista Drive"/><tag k="addr:housenumber" v="10900"/><tag k="coa:place_id" v="147687"/></node><node id="-488" lat="30.16051" lon="-97.650349" changeset="false"><tag k="addr:street" v="Darrin Lane"/><tag k="addr:housenumber" v="11404"/><tag k="coa:place_id" v="110711"/></node><node id="-489" lat="30.162754" lon="-97.641422" changeset="false"><tag k="addr:street" v="Plains Valley Drive"/><tag k="addr:housenumber" v="11804"/><tag k="coa:place_id" v="3156297"/></node><node id="-490" lat="30.170835" lon="-97.632048" changeset="false"><tag k="addr:street" v="Ross Road"/><tag k="addr:housenumber" v="5816"/><tag k="coa:place_id" v="1020921"/></node><node id="-491" lat="30.170411" lon="-97.664781" changeset="false"><tag k="addr:street" v="Burleson Road"/><tag k="addr:housenumber" v="10219"/><tag k="coa:place_id" v="925869"/></node><node id="-492" lat="30.161182" lon="-97.658273" changeset="false"><tag k="addr:street" v="Linda Vista Drive"/><tag k="addr:housenumber" v="10804"/><tag k="coa:place_id" v="621896"/></node><node id="-493" lat="30.14686" lon="-97.672773" changeset="false"><tag k="addr:street" v="Farm-to-Market Road 812"/><tag k="addr:housenumber" v="10458"/><tag k="coa:place_id" v="499443"/></node><node id="-494" lat="30.154375" lon="-97.649774" changeset="false"><tag k="addr:street" v="Arrowmound Pass"/><tag k="addr:housenumber" v="11616"/><tag k="coa:place_id" v="3120980"/></node><node id="-495" lat="30.15245" lon="-97.670144" changeset="false"><tag k="addr:street" v="Farm-to-Market Road 812"/><tag k="addr:housenumber" v="10404"/><tag k="coa:place_id" v="911487"/></node><node id="-496" lat="30.148458" lon="-97.669074" changeset="false"><tag k="addr:street" v="San Jose Avenue"/><tag k="addr:housenumber" v="10702"/><tag k="coa:place_id" v="750813"/></node><node id="-497" lat="30.14677" lon="-97.666456" changeset="false"><tag k="addr:street" v="San Jose Avenue"/><tag k="addr:housenumber" v="10811"/><tag k="coa:place_id" v="94080"/></node><node id="-498" lat="30.15864" lon="-97.646434" changeset="false"><tag k="addr:street" v="Gemmer Street"/><tag k="addr:housenumber" v="11709"/><tag k="coa:place_id" v="209631"/></node><node id="-499" lat="30.160876" lon="-97.637503" changeset="false"><tag k="addr:street" v="Plains Crest Drive"/><tag k="addr:housenumber" v="6739"/><tag k="coa:place_id" v="3296749"/></node><node id="-500" lat="30.153876" lon="-97.649571" changeset="false"><tag k="addr:street" v="Arrowmound Pass"/><tag k="addr:housenumber" v="11709"/><tag k="coa:place_id" v="3120986"/></node><node id="-501" lat="30.15417" lon="-97.642988" changeset="false"><tag k="addr:street" v="White Panda Run"/><tag k="addr:housenumber" v="7233"/><tag k="coa:place_id" v="3032985"/></node><node id="-502" lat="30.157246" lon="-97.645667" changeset="false"><tag k="addr:street" v="Maybach Drive"/><tag k="addr:housenumber" v="11751"/><tag k="coa:place_id" v="209662"/></node><node id="-503" lat="30.156699" lon="-97.637351" changeset="false"><tag k="addr:street" v="Heine Farm Road"/><tag k="addr:housenumber" v="7117"/><tag k="coa:place_id" v="623594"/></node><node id="-504" lat="30.173422" lon="-97.633551" changeset="false"><tag k="addr:street" v="Pearce Lane"/><tag k="addr:housenumber" v="11907"/><tag k="coa:place_id" v="214263"/></node><node id="-505" lat="30.172553" lon="-97.637381" changeset="false"><tag k="addr:street" v="Foley Drive"/><tag k="addr:housenumber" v="11712"/><tag k="coa:place_id" v="770565"/></node><node id="-506" lat="30.168841" lon="-97.623879" changeset="false"><tag k="addr:street" v="Universe Circle"/><tag k="addr:housenumber" v="12713"/><tag k="coa:place_id" v="3115997"/></node><node id="-507" lat="30.160873" lon="-97.659564" changeset="false"><tag k="addr:street" v="Linda Vista Drive"/><tag k="addr:housenumber" v="10707"/><tag k="coa:place_id" v="213097"/></node><node id="-508" lat="30.161706" lon="-97.635411" changeset="false"><tag k="addr:street" v="Ferrystone Glen Drive"/><tag k="addr:housenumber" v="12212"/><tag k="coa:place_id" v="3296729"/></node><node id="-509" lat="30.173331" lon="-97.634463" changeset="false"><tag k="addr:street" v="Pearce Lane"/><tag k="addr:housenumber" v="11821"/><tag k="coa:place_id" v="232794"/></node><node id="-510" lat="30.160066" lon="-97.650942" changeset="false"><tag k="addr:street" v="Darrin Lane"/><tag k="addr:housenumber" v="11401"/><tag k="coa:place_id" v="193908"/></node><node id="-511" lat="30.161658" lon="-97.661571" changeset="false"><tag k="addr:street" v="Linda Vista Drive"/><tag k="addr:housenumber" v="10601"/><tag k="coa:place_id" v="380631"/></node><node id="-512" lat="30.160251" lon="-97.638493" changeset="false"><tag k="addr:street" v="Plains Crest Drive"/><tag k="addr:housenumber" v="6904"/><tag k="coa:place_id" v="3296756"/></node><node id="-513" lat="30.168612" lon="-97.62566" changeset="false"><tag k="addr:street" v="Campana Drive"/><tag k="addr:housenumber" v="12614 1/2"/><tag k="coa:place_id" v="3124422"/></node><node id="-514" lat="30.143703" lon="-97.670613" changeset="false"><tag k="addr:street" v="Farm-to-Market Road 812"/><tag k="addr:housenumber" v="10700"/><tag k="coa:place_id" v="211516"/></node><node id="-515" lat="30.16751" lon="-97.662781" changeset="false"><tag k="addr:street" v="Moores Bridge Road"/><tag k="addr:housenumber" v="10400"/><tag k="coa:place_id" v="97395"/></node><node id="-516" lat="30.16264" lon="-97.650959" changeset="false"><tag k="addr:street" v="Elroy Road"/><tag k="addr:housenumber" v="6623"/><tag k="coa:place_id" v="1040205"/></node><node id="-517" lat="30.162754" lon="-97.66216" changeset="false"><tag k="addr:street" v="Linda Vista Drive"/><tag k="addr:housenumber" v="10502"/><tag k="coa:place_id" v="221955"/></node><node id="-518" lat="30.174567" lon="-97.63594" changeset="false"><tag k="addr:street" v="Pearce Lane"/><tag k="addr:housenumber" v="11709"/><tag k="coa:place_id" v="282537"/></node><node id="-519" lat="30.157994" lon="-97.647247" changeset="false"><tag k="addr:street" v="Railton Drive"/><tag k="addr:housenumber" v="11617"/><tag k="coa:place_id" v="209695"/></node><node id="-520" lat="30.160096" lon="-97.638538" changeset="false"><tag k="addr:street" v="Plains Crest Drive"/><tag k="addr:housenumber" v="6908"/><tag k="coa:place_id" v="3296757"/></node><node id="-521" lat="30.161724" lon="-97.636947" changeset="false"><tag k="addr:street" v="Plains Crest Drive"/><tag k="addr:housenumber" v="6709"/><tag k="coa:place_id" v="3296741"/></node><node id="-522" lat="30.158677" lon="-97.643811" changeset="false"><tag k="addr:street" v="Elroy Road"/><tag k="addr:housenumber" v="7008"/><tag k="coa:place_id" v="623534"/></node><node id="-523" lat="30.157259" lon="-97.645768" changeset="false"><tag k="addr:street" v="Maybach Drive"/><tag k="addr:housenumber" v="11747"/><tag k="coa:place_id" v="209663"/></node><node id="-524" lat="30.160455" lon="-97.658774" changeset="false"><tag k="addr:street" v="Linda Vista Drive"/><tag k="addr:housenumber" v="10805"/><tag k="coa:place_id" v="203560"/></node><node id="-525" lat="30.156905" lon="-97.649149" changeset="false"><tag k="addr:street" v="Schebler Street"/><tag k="addr:housenumber" v="7200 1/2"/><tag k="coa:place_id" v="3076960"/></node><node id="-526" lat="30.156957" lon="-97.64919" changeset="false"><tag k="addr:street" v="Schebler Street"/><tag k="addr:housenumber" v="7202"/><tag k="coa:place_id" v="99791"/></node></osm>