<?xml version="1.0" encoding="UTF-8"?><osm version="0.6" generator="github.com/aaronlidman/osm-and-geojson"><node id="-1" lat="30.375803" lon="-97.763501" changeset="false"><tag k="addr:street" v="Old Spicewood Springs Road,1100"/><tag k="addr:housenumber" v="4801"/><tag k="coa:place_id" v="168892"/></node><node id="-2" lat="30.372927" lon="-97.758871" changeset="false"><tag k="addr:street" v="Old Spicewood Springs Road,1100"/><tag k="addr:housenumber" v="4411"/><tag k="coa:place_id" v="122712"/></node><node id="-3" lat="30.382614" lon="-97.767581" changeset="false"><tag k="addr:street" v="Old Spicewood Springs Road"/><tag k="addr:housenumber" v="5217"/><tag k="coa:place_id" v="143442"/></node><node id="-4" lat="30.375503" lon="-97.762678" changeset="false"><tag k="addr:street" v="Old Spicewood Springs Road,1100"/><tag k="addr:housenumber" v="4705"/><tag k="coa:place_id" v="210138"/></node><node id="-5" lat="30.381235" lon="-97.76581" changeset="false"><tag k="addr:street" v="Old Spicewood Springs Road,1100"/><tag k="addr:housenumber" v="5009"/><tag k="coa:place_id" v="177932"/></node><node id="-6" lat="30.369667" lon="-97.758668" changeset="false"><tag k="addr:street" v="Tealwood Trail"/><tag k="addr:housenumber" v="7901"/><tag k="coa:place_id" v="370239"/></node><node id="-7" lat="30.376491" lon="-97.764235" changeset="false"><tag k="addr:street" v="Old Spicewood Springs Road,1100"/><tag k="addr:housenumber" v="4807"/><tag k="coa:place_id" v="324532"/></node><node id="-8" lat="30.372551" lon="-97.772912" changeset="false"><tag k="addr:street" v="Rim Cove,1100"/><tag k="addr:housenumber" v="7601"/><tag k="coa:place_id" v="991808"/></node><node id="-9" lat="30.379922" lon="-97.765578" changeset="false"><tag k="addr:street" v="Old Spicewood Springs Road,1100"/><tag k="addr:housenumber" v="4919"/><tag k="coa:place_id" v="3197624"/></node><node id="-10" lat="30.380508" lon="-97.765422" changeset="false"><tag k="addr:street" v="Old Spicewood Springs Road,1100"/><tag k="addr:housenumber" v="4947"/><tag k="coa:place_id" v="1137807"/></node><node id="-11" lat="30.376128" lon="-97.771773" changeset="false"><tag k="addr:street" v="Valburn Drive"/><tag k="addr:housenumber" v="7905"/><tag k="coa:place_id" v="585766"/></node><node id="-12" lat="30.372447" lon="-97.770909" changeset="false"><tag k="addr:street" v="Raffee Cove"/><tag k="addr:housenumber" v="4901"/><tag k="coa:place_id" v="121506"/></node><node id="-13" lat="30.368938" lon="-97.760589" changeset="false"><tag k="addr:street" v="Ridgeline Drive,1100"/><tag k="addr:housenumber" v="4108"/><tag k="coa:place_id" v="222776"/></node><node id="-14" lat="30.373125" lon="-97.767255" changeset="false"><tag k="addr:street" v="West Rim Drive"/><tag k="addr:housenumber" v="7929"/><tag k="coa:place_id" v="1131888"/></node><node id="-15" lat="30.37673" lon="-97.770117" changeset="false"><tag k="addr:street" v="Valburn Court"/><tag k="addr:housenumber" v="5109"/><tag k="coa:place_id" v="174739"/></node><node id="-16" lat="30.372293" lon="-97.772533" changeset="false"><tag k="addr:street" v="Rim Cove,1100"/><tag k="addr:housenumber" v="7600"/><tag k="coa:place_id" v="107789"/></node><node id="-17" lat="30.376508" lon="-97.770009" changeset="false"><tag k="addr:street" v="Valburn Court"/><tag k="addr:housenumber" v="5105"/><tag k="coa:place_id" v="174738"/></node><node id="-18" lat="30.369954" lon="-97.768092" changeset="false"><tag k="addr:street" v="Valley Dale Drive"/><tag k="addr:housenumber" v="7607"/><tag k="coa:place_id" v="86392"/></node><node id="-19" lat="30.369161" lon="-97.758789" changeset="false"><tag k="addr:street" v="Mesa Drive"/><tag k="addr:housenumber" v="7918"/><tag k="coa:place_id" v="222692"/></node><node id="-20" lat="30.375049" lon="-97.762227" changeset="false"><tag k="addr:street" v="Old Spicewood Springs Road,1100"/><tag k="addr:housenumber" v="4701"/><tag k="coa:place_id" v="200622"/></node><node id="-21" lat="30.373411" lon="-97.769891" changeset="false"><tag k="addr:street" v="Tenison Court"/><tag k="addr:housenumber" v="4902"/><tag k="coa:place_id" v="71309"/></node><node id="-22" lat="30.376517" lon="-97.769874" changeset="false"><tag k="addr:street" v="Valburn Court"/><tag k="addr:housenumber" v="5101"/><tag k="coa:place_id" v="174737"/></node><node id="-23" lat="30.371959" lon="-97.75832" changeset="false"><tag k="addr:street" v="Old Spicewood Springs Road,1100"/><tag k="addr:housenumber" v="4323"/><tag k="coa:place_id" v="169191"/></node><node id="-24" lat="30.376621" lon="-97.770431" changeset="false"><tag k="addr:street" v="Valburn Court"/><tag k="addr:housenumber" v="5117"/><tag k="coa:place_id" v="174741"/></node><node id="-25" lat="30.375522" lon="-97.763021" changeset="false"><tag k="addr:street" v="Old Spicewood Springs Road,1100"/><tag k="addr:housenumber" v="4711"/><tag k="coa:place_id" v="131014"/></node><node id="-26" lat="30.375327" lon="-97.772133" changeset="false"><tag k="addr:street" v="Valburn Drive"/><tag k="addr:housenumber" v="7809"/><tag k="coa:place_id" v="646486"/></node><node id="-27" lat="30.373101" lon="-97.771273" changeset="false"><tag k="addr:street" v="Raffee Cove"/><tag k="addr:housenumber" v="4904"/><tag k="coa:place_id" v="927974"/></node><node id="-28" lat="30.371515" lon="-97.774211" changeset="false"><tag k="addr:street" v="Arax Cove"/><tag k="addr:housenumber" v="5002"/><tag k="coa:place_id" v="3029061"/></node><node id="-29" lat="30.377139" lon="-97.764949" changeset="false"><tag k="addr:street" v="Old Spicewood Springs Road,1100"/><tag k="addr:housenumber" v="4813"/><tag k="coa:place_id" v="126862"/></node><node id="-30" lat="30.377639" lon="-97.765219" changeset="false"><tag k="addr:street" v="Old Spicewood Springs Road,1100"/><tag k="addr:housenumber" v="4819"/><tag k="coa:place_id" v="507950"/></node><node id="-31" lat="30.376522" lon="-97.76974" changeset="false"><tag k="addr:street" v="Valburn Court"/><tag k="addr:housenumber" v="5017"/><tag k="coa:place_id" v="174736"/></node><node id="-32" lat="30.376446" lon="-97.770882" changeset="false"><tag k="addr:street" v="Valburn Court"/><tag k="addr:housenumber" v="5129"/><tag k="coa:place_id" v="174744"/></node><node id="-33" lat="30.374268" lon="-97.770495" changeset="false"><tag k="addr:street" v="North Rim Drive"/><tag k="addr:housenumber" v="5002"/><tag k="coa:place_id" v="71298"/></node><node id="-34" lat="30.373185" lon="-97.769689" changeset="false"><tag k="addr:street" v="Tenison Court"/><tag k="addr:housenumber" v="4900"/><tag k="coa:place_id" v="680554"/></node><node id="-35" lat="30.376475" lon="-97.769469" changeset="false"><tag k="addr:street" v="Valburn Court"/><tag k="addr:housenumber" v="5009"/><tag k="coa:place_id" v="174734"/></node><node id="-36" lat="30.36896" lon="-97.768687" changeset="false"><tag k="addr:street" v="Valley Dale Drive"/><tag k="addr:housenumber" v="7503"/><tag k="coa:place_id" v="222164"/></node><node id="-37" lat="30.380504" lon="-97.765727" changeset="false"><tag k="addr:street" v="Old Spicewood Springs Road,1100"/><tag k="addr:housenumber" v="5003"/><tag k="coa:place_id" v="1117007"/></node><node id="-38" lat="30.377736" lon="-97.764843" changeset="false"><tag k="addr:street" v="Old Spicewood Springs Road,1100"/><tag k="addr:housenumber" v="4819 1/2"/><tag k="coa:place_id" v="186168"/></node><node id="-39" lat="30.376627" lon="-97.770289" changeset="false"><tag k="addr:street" v="Valburn Court"/><tag k="addr:housenumber" v="5113"/><tag k="coa:place_id" v="174740"/></node><node id="-40" lat="30.376492" lon="-97.770728" changeset="false"><tag k="addr:street" v="Valburn Court"/><tag k="addr:housenumber" v="5125"/><tag k="coa:place_id" v="174743"/></node><node id="-41" lat="30.374728" lon="-97.760356" changeset="false"><tag k="addr:street" v="Old Spicewood Springs Road,1100"/><tag k="addr:housenumber" v="4601"/><tag k="coa:place_id" v="1113287"/></node><node id="-42" lat="30.374312" lon="-97.771324" changeset="false"><tag k="addr:street" v="North Rim Drive"/><tag k="addr:housenumber" v="5006"/><tag k="coa:place_id" v="741388"/></node><node id="-43" lat="30.369055" lon="-97.76218" changeset="false"><tag k="addr:street" v="Sterling Drive"/><tag k="addr:housenumber" v="7810 1/2"/><tag k="coa:place_id" v="118302"/></node><node id="-44" lat="30.380738" lon="-97.765796" changeset="false"><tag k="addr:street" v="Old Spicewood Springs Road,1100"/><tag k="addr:housenumber" v="5005"/><tag k="coa:place_id" v="3254401"/></node><node id="-45" lat="30.370845" lon="-97.765712" changeset="false"><tag k="addr:street" v="West Rim Drive"/><tag k="addr:housenumber" v="7804"/><tag k="coa:place_id" v="1131659"/></node><node id="-46" lat="30.373794" lon="-97.759592" changeset="false"><tag k="addr:street" v="Old Spicewood Springs Road,1100"/><tag k="addr:housenumber" v="4501"/><tag k="coa:place_id" v="633963"/></node><node id="-47" lat="30.370564" lon="-97.76793" changeset="false"><tag k="addr:street" v="Long Point Drive"/><tag k="addr:housenumber" v="7708"/><tag k="coa:place_id" v="86399"/></node><node id="-48" lat="30.36797" lon="-97.759692" changeset="false"><tag k="addr:street" v="Mesa Drive"/><tag k="addr:housenumber" v="7808"/><tag k="coa:place_id" v="952670"/></node><node id="-49" lat="30.372044" lon="-97.773281" changeset="false"><tag k="addr:street" v="Lea Cove"/><tag k="addr:housenumber" v="5002"/><tag k="coa:place_id" v="107785"/></node><node id="-50" lat="30.36906" lon="-97.760905" changeset="false"><tag k="addr:street" v="Ridgeline Drive,1100"/><tag k="addr:housenumber" v="4199"/><tag k="coa:place_id" v="222860"/></node><node id="-51" lat="30.379007" lon="-97.765342" changeset="false"><tag k="addr:street" v="Old Spicewood Springs Road,1100"/><tag k="addr:housenumber" v="4845"/><tag k="coa:place_id" v="5070703"/></node><node id="-52" lat="30.372524" lon="-97.772937" changeset="false"><tag k="addr:street" v="Rim Cove,1100"/><tag k="addr:housenumber" v="7603"/><tag k="coa:place_id" v="3029054"/></node><node id="-53" lat="30.37732" lon="-97.765064" changeset="false"><tag k="addr:street" v="Old Spicewood Springs Road,1100"/><tag k="addr:housenumber" v="4815"/><tag k="coa:place_id" v="126863"/></node><node id="-54" lat="30.375637" lon="-97.771961" changeset="false"><tag k="addr:street" v="Valburn Drive"/><tag k="addr:housenumber" v="7901"/><tag k="coa:place_id" v="459226"/></node><node id="-55" lat="30.376508" lon="-97.769598" changeset="false"><tag k="addr:street" v="Valburn Court"/><tag k="addr:housenumber" v="5013"/><tag k="coa:place_id" v="174735"/></node><node id="-56" lat="30.368216" lon="-97.759509" changeset="false"><tag k="addr:street" v="Mesa Drive"/><tag k="addr:housenumber" v="7900"/><tag k="coa:place_id" v="505533"/></node><node id="-57" lat="30.374361" lon="-97.759541" changeset="false"><tag k="addr:street" v="Old Spicewood Springs Road,1100"/><tag k="addr:housenumber" v="4413 1/2"/><tag k="coa:place_id" v="1110727"/></node><node id="-58" lat="30.379325" lon="-97.765507" changeset="false"><tag k="addr:street" v="Old Spicewood Springs Road,1100"/><tag k="addr:housenumber" v="4901"/><tag k="coa:place_id" v="820749"/></node><node id="-59" lat="30.37617" lon="-97.771242" changeset="false"><tag k="addr:street" v="Valburn Court"/><tag k="addr:housenumber" v="5145"/><tag k="coa:place_id" v="174749"/></node><node id="-60" lat="30.369614" lon="-97.758492" changeset="false"><tag k="addr:street" v="Mesa Drive"/><tag k="addr:housenumber" v="8000"/><tag k="coa:place_id" v="220988"/></node><node id="-61" lat="30.37422" lon="-97.75999" changeset="false"><tag k="addr:street" v="Old Spicewood Springs Road,1100"/><tag k="addr:housenumber" v="4505"/><tag k="coa:place_id" v="235264"/></node><node id="-62" lat="30.370136" lon="-97.758889" changeset="false"><tag k="addr:street" v="Tealwood Trail"/><tag k="addr:housenumber" v="7908"/><tag k="coa:place_id" v="406827"/></node><node id="-63" lat="30.370014" lon="-97.758968" changeset="false"><tag k="addr:street" v="Tealwood Trail"/><tag k="addr:housenumber" v="7904"/><tag k="coa:place_id" v="406839"/></node><node id="-64" lat="30.370201" lon="-97.758856" changeset="false"><tag k="addr:street" v="Tealwood Trail"/><tag k="addr:housenumber" v="7910"/><tag k="coa:place_id" v="406821"/></node><node id="-65" lat="30.369881" lon="-97.759072" changeset="false"><tag k="addr:street" v="Tealwood Trail"/><tag k="addr:housenumber" v="7900"/><tag k="coa:place_id" v="406851"/></node><node id="-66" lat="30.370068" lon="-97.75893" changeset="false"><tag k="addr:street" v="Tealwood Trail"/><tag k="addr:housenumber" v="7906"/><tag k="coa:place_id" v="406833"/></node><node id="-67" lat="30.369946" lon="-97.759009" changeset="false"><tag k="addr:street" v="Tealwood Trail"/><tag k="addr:housenumber" v="7902"/><tag k="coa:place_id" v="406845"/></node><node id="-68" lat="30.370735" lon="-97.758525" changeset="false"><tag k="addr:street" v="Mesa Drive"/><tag k="addr:housenumber" v="8022"/><tag k="coa:place_id" v="3204872"/></node><node id="-69" lat="30.370458" lon="-97.758531" changeset="false"><tag k="addr:street" v="Mesa Drive"/><tag k="addr:housenumber" v="8016"/><tag k="coa:place_id" v="308168"/></node><node id="-70" lat="30.370426" lon="-97.758648" changeset="false"><tag k="addr:street" v="Mesa Drive"/><tag k="addr:housenumber" v="8012"/><tag k="coa:place_id" v="222710"/></node><node id="-71" lat="30.370789" lon="-97.758494" changeset="false"><tag k="addr:street" v="Mesa Drive"/><tag k="addr:housenumber" v="8024"/><tag k="coa:place_id" v="221012"/></node><node id="-72" lat="30.370851" lon="-97.758455" changeset="false"><tag k="addr:street" v="Mesa Drive"/><tag k="addr:housenumber" v="8028"/><tag k="coa:place_id" v="931016"/></node><node id="-73" lat="30.370532" lon="-97.758483" changeset="false"><tag k="addr:street" v="Mesa Drive"/><tag k="addr:housenumber" v="8018"/><tag k="coa:place_id" v="220994"/></node><node id="-74" lat="30.370583" lon="-97.758461" changeset="false"><tag k="addr:street" v="Mesa Drive"/><tag k="addr:housenumber" v="8020"/><tag k="coa:place_id" v="221000"/></node><node id="-75" lat="30.370986" lon="-97.758378" changeset="false"><tag k="addr:street" v="Mesa Drive"/><tag k="addr:housenumber" v="8038"/><tag k="coa:place_id" v="308174"/></node><node id="-76" lat="30.370897" lon="-97.758418" changeset="false"><tag k="addr:street" v="Mesa Drive"/><tag k="addr:housenumber" v="8030"/><tag k="coa:place_id" v="221018"/></node><node id="-77" lat="30.370393" lon="-97.758575" changeset="false"><tag k="addr:street" v="Mesa Drive"/><tag k="addr:housenumber" v="8014"/><tag k="coa:place_id" v="308162"/></node><node id="-78" lat="30.369938" lon="-97.758498" changeset="false"><tag k="addr:street" v="Tealwood Trail"/><tag k="addr:housenumber" v="7909"/><tag k="coa:place_id" v="370203"/></node><node id="-79" lat="30.369756" lon="-97.758612" changeset="false"><tag k="addr:street" v="Tealwood Trail"/><tag k="addr:housenumber" v="7903"/><tag k="coa:place_id" v="370221"/></node><node id="-80" lat="30.369884" lon="-97.758536" changeset="false"><tag k="addr:street" v="Tealwood Trail"/><tag k="addr:housenumber" v="7907"/><tag k="coa:place_id" v="370227"/></node><node id="-81" lat="30.369998" lon="-97.758457" changeset="false"><tag k="addr:street" v="Tealwood Trail"/><tag k="addr:housenumber" v="7911"/><tag k="coa:place_id" v="370197"/></node><node id="-82" lat="30.369808" lon="-97.758582" changeset="false"><tag k="addr:street" v="Tealwood Trail"/><tag k="addr:housenumber" v="7905"/><tag k="coa:place_id" v="370233"/></node><node id="-83" lat="30.36839" lon="-97.759613" changeset="false"><tag k="addr:street" v="Ridgeline Drive,1100"/><tag k="addr:housenumber" v="4002"/><tag k="coa:place_id" v="222728"/></node><node id="-84" lat="30.368431" lon="-97.75971" changeset="false"><tag k="addr:street" v="Ridgeline Drive,1100"/><tag k="addr:housenumber" v="4004"/><tag k="coa:place_id" v="222734"/></node><node id="-85" lat="30.369859" lon="-97.760463" changeset="false"><tag k="addr:street" v="Ridgeline Trail"/><tag k="addr:housenumber" v="4102"/><tag k="coa:place_id" v="249507"/></node><node id="-86" lat="30.369899" lon="-97.760531" changeset="false"><tag k="addr:street" v="Ridgeline Trail"/><tag k="addr:housenumber" v="4104"/><tag k="coa:place_id" v="249519"/></node><node id="-87" lat="30.369825" lon="-97.760394" changeset="false"><tag k="addr:street" v="Ridgeline Trail"/><tag k="addr:housenumber" v="4100"/><tag k="coa:place_id" v="249495"/></node><node id="-88" lat="30.369936" lon="-97.7606" changeset="false"><tag k="addr:street" v="Ridgeline Trail"/><tag k="addr:housenumber" v="4106"/><tag k="coa:place_id" v="249531"/></node><node id="-89" lat="30.369965" lon="-97.760675" changeset="false"><tag k="addr:street" v="Ridgeline Trail"/><tag k="addr:housenumber" v="4108"/><tag k="coa:place_id" v="249543"/></node><node id="-90" lat="30.370011" lon="-97.760744" changeset="false"><tag k="addr:street" v="Ridgeline Trail"/><tag k="addr:housenumber" v="4110"/><tag k="coa:place_id" v="249555"/></node><node id="-91" lat="30.369555" lon="-97.760653" changeset="false"><tag k="addr:street" v="Ridgeline Trail"/><tag k="addr:housenumber" v="4103"/><tag k="coa:place_id" v="249513"/></node><node id="-92" lat="30.369517" lon="-97.760558" changeset="false"><tag k="addr:street" v="Ridgeline Trail"/><tag k="addr:housenumber" v="4101"/><tag k="coa:place_id" v="249501"/></node><node id="-93" lat="30.369606" lon="-97.760769" changeset="false"><tag k="addr:street" v="Ridgeline Trail"/><tag k="addr:housenumber" v="4107"/><tag k="coa:place_id" v="249537"/></node><node id="-94" lat="30.369701" lon="-97.760949" changeset="false"><tag k="addr:street" v="Ridgeline Trail"/><tag k="addr:housenumber" v="4113"/><tag k="coa:place_id" v="371427"/></node><node id="-95" lat="30.369627" lon="-97.760808" changeset="false"><tag k="addr:street" v="Ridgeline Trail"/><tag k="addr:housenumber" v="4109"/><tag k="coa:place_id" v="249549"/></node><node id="-96" lat="30.369254" lon="-97.760868" changeset="false"><tag k="addr:street" v="Ridgeline Drive,1100"/><tag k="addr:housenumber" v="4112"/><tag k="coa:place_id" v="222788"/></node><node id="-97" lat="30.369314" lon="-97.760972" changeset="false"><tag k="addr:street" v="Ridgeline Drive,1100"/><tag k="addr:housenumber" v="4114"/><tag k="coa:place_id" v="222794"/></node><node id="-98" lat="30.368036" lon="-97.759786" changeset="false"><tag k="addr:street" v="Ridgeline Drive,1100"/><tag k="addr:housenumber" v="4001"/><tag k="coa:place_id" v="222896"/></node><node id="-99" lat="30.368324" lon="-97.760312" changeset="false"><tag k="addr:street" v="Ridgeline Drive,1100"/><tag k="addr:housenumber" v="4101"/><tag k="coa:place_id" v="222872"/></node><node id="-100" lat="30.36822" lon="-97.760164" changeset="false"><tag k="addr:street" v="Ridgeline Drive,1100"/><tag k="addr:housenumber" v="4005"/><tag k="coa:place_id" v="222878"/></node><node id="-101" lat="30.3681" lon="-97.759958" changeset="false"><tag k="addr:street" v="Ridgeline Drive,1100"/><tag k="addr:housenumber" v="4003"/><tag k="coa:place_id" v="222890"/></node><node id="-102" lat="30.368662" lon="-97.760677" changeset="false"><tag k="addr:street" v="Ridgeline Drive,1100"/><tag k="addr:housenumber" v="4107"/><tag k="coa:place_id" v="222818"/></node><node id="-103" lat="30.368569" lon="-97.760729" changeset="false"><tag k="addr:street" v="Ridgeline Drive,1100"/><tag k="addr:housenumber" v="4109"/><tag k="coa:place_id" v="222824"/></node></osm>