<?xml version="1.0" encoding="UTF-8"?><osm version="0.6" generator="github.com/aaronlidman/osm-and-geojson"><node id="-1" lat="30.425409" lon="-97.803823" changeset="false"><tag k="addr:street" v="Grand Oak Drive"/><tag k="addr:housenumber" v="10107"/><tag k="coa:place_id" v="80153"/></node><node id="-2" lat="30.424979" lon="-97.803207" changeset="false"><tag k="addr:street" v="Mystic Oaks Circle"/><tag k="addr:housenumber" v="10200"/><tag k="coa:place_id" v="68910"/></node><node id="-3" lat="30.427569" lon="-97.801218" changeset="false"><tag k="addr:street" v="Grand Oak Circle"/><tag k="addr:housenumber" v="10510"/><tag k="coa:place_id" v="129610"/></node><node id="-4" lat="30.427376" lon="-97.800775" changeset="false"><tag k="addr:street" v="Grand Oak Circle"/><tag k="addr:housenumber" v="10514"/><tag k="coa:place_id" v="75957"/></node><node id="-5" lat="30.427326" lon="-97.803138" changeset="false"><tag k="addr:street" v="Grand Oak Drive"/><tag k="addr:housenumber" v="10302"/><tag k="coa:place_id" v="54286"/></node><node id="-6" lat="30.42705" lon="-97.797377" changeset="false"><tag k="addr:street" v="Brigadoon Cove"/><tag k="addr:housenumber" v="9205"/><tag k="coa:place_id" v="69551"/></node><node id="-7" lat="30.421108" lon="-97.801188" changeset="false"><tag k="addr:street" v="Talleyran Drive"/><tag k="addr:housenumber" v="9811"/><tag k="coa:place_id" v="68793"/></node><node id="-8" lat="30.427922" lon="-97.803344" changeset="false"><tag k="addr:street" v="Vista View Drive"/><tag k="addr:housenumber" v="9623"/><tag k="coa:place_id" v="673222"/></node><node id="-9" lat="30.423003" lon="-97.795615" changeset="false"><tag k="addr:street" v="Lockleven Loop"/><tag k="addr:housenumber" v="9005"/><tag k="coa:place_id" v="69559"/></node><node id="-10" lat="30.425585" lon="-97.803672" changeset="false"><tag k="addr:street" v="Grand Oak Drive"/><tag k="addr:housenumber" v="10201"/><tag k="coa:place_id" v="80154"/></node><node id="-11" lat="30.421194" lon="-97.799672" changeset="false"><tag k="addr:street" v="Hundred Oaks Circle"/><tag k="addr:housenumber" v="9905"/><tag k="coa:place_id" v="80172"/></node><node id="-12" lat="30.427707" lon="-97.805296" changeset="false"><tag k="addr:street" v="Vista View Drive"/><tag k="addr:housenumber" v="9638"/><tag k="coa:place_id" v="971744"/></node><node id="-13" lat="30.429237" lon="-97.801012" changeset="false"><tag k="addr:street" v="Grand Oak Drive"/><tag k="addr:housenumber" v="10617"/><tag k="coa:place_id" v="130595"/></node><node id="-14" lat="30.428018" lon="-97.800955" changeset="false"><tag k="addr:street" v="Grand Oak Circle"/><tag k="addr:housenumber" v="10536"/><tag k="coa:place_id" v="127775"/></node><node id="-15" lat="30.424453" lon="-97.803428" changeset="false"><tag k="addr:street" v="Rolling Oaks Trail"/><tag k="addr:housenumber" v="9404"/><tag k="coa:place_id" v="68765"/></node><node id="-16" lat="30.423549" lon="-97.805286" changeset="false"><tag k="addr:street" v="Grand Oak Drive"/><tag k="addr:housenumber" v="9901"/><tag k="coa:place_id" v="207011"/></node><node id="-17" lat="30.422222" lon="-97.801073" changeset="false"><tag k="addr:street" v="Talleyran Drive"/><tag k="addr:housenumber" v="9905"/><tag k="coa:place_id" v="80118"/></node><node id="-18" lat="30.424998" lon="-97.801642" changeset="false"><tag k="addr:street" v="Talleyran Drive"/><tag k="addr:housenumber" v="10203"/><tag k="coa:place_id" v="209770"/></node><node id="-19" lat="30.432801" lon="-97.795844" changeset="false"><tag k="addr:street" v="Arch Terrace"/><tag k="addr:housenumber" v="11101"/><tag k="coa:place_id" v="68880"/></node><node id="-20" lat="30.422476" lon="-97.801086" changeset="false"><tag k="addr:street" v="Talleyran Drive"/><tag k="addr:housenumber" v="10001"/><tag k="coa:place_id" v="68977"/></node><node id="-21" lat="30.423903" lon="-97.797207" changeset="false"><tag k="addr:street" v="Lockleven Loop"/><tag k="addr:housenumber" v="9025"/><tag k="coa:place_id" v="68988"/></node><node id="-22" lat="30.423954" lon="-97.805042" changeset="false"><tag k="addr:street" v="Grand Oak Drive"/><tag k="addr:housenumber" v="9905"/><tag k="coa:place_id" v="80149"/></node><node id="-23" lat="30.42185" lon="-97.803784" changeset="false"><tag k="addr:street" v="Ravenwood Cove"/><tag k="addr:housenumber" v="9805"/><tag k="coa:place_id" v="69267"/></node><node id="-24" lat="30.428484" lon="-97.802517" changeset="false"><tag k="addr:street" v="Grand Oak Drive"/><tag k="addr:housenumber" v="10504"/><tag k="coa:place_id" v="130578"/></node><node id="-25" lat="30.429689" lon="-97.802325" changeset="false"><tag k="addr:street" v="Vista View Drive"/><tag k="addr:housenumber" v="9609"/><tag k="coa:place_id" v="1012280"/></node><node id="-26" lat="30.423504" lon="-97.803047" changeset="false"><tag k="addr:street" v="Rolling Oaks Trail"/><tag k="addr:housenumber" v="9311"/><tag k="coa:place_id" v="208677"/></node><node id="-27" lat="30.421422" lon="-97.801213" changeset="false"><tag k="addr:street" v="Talleyran Drive"/><tag k="addr:housenumber" v="9813"/><tag k="coa:place_id" v="80117"/></node><node id="-28" lat="30.429241" lon="-97.800739" changeset="false"><tag k="addr:street" v="Grand Oak Drive"/><tag k="addr:housenumber" v="10619"/><tag k="coa:place_id" v="130593"/></node><node id="-29" lat="30.431681" lon="-97.799404" changeset="false"><tag k="addr:street" v="Ashton Cove"/><tag k="addr:housenumber" v="10704"/><tag k="coa:place_id" v="77615"/></node><node id="-30" lat="30.432513" lon="-97.800588" changeset="false"><tag k="addr:street" v="Spicewood Parkway"/><tag k="addr:housenumber" v="10801"/><tag k="coa:place_id" v="70708"/></node><node id="-31" lat="30.43055" lon="-97.798108" changeset="false"><tag k="addr:street" v="Keystone Bend"/><tag k="addr:housenumber" v="10713"/><tag k="coa:place_id" v="69306"/></node><node id="-32" lat="30.430594" lon="-97.804277" changeset="false"><tag k="addr:street" v="Talleyran Drive"/><tag k="addr:housenumber" v="10602"/><tag k="coa:place_id" v="110149"/></node><node id="-33" lat="30.424016" lon="-97.802073" changeset="false"><tag k="addr:street" v="Talleyran Drive"/><tag k="addr:housenumber" v="10106"/><tag k="coa:place_id" v="68983"/></node><node id="-34" lat="30.42823" lon="-97.805003" changeset="false"><tag k="addr:street" v="Talleyran Drive"/><tag k="addr:housenumber" v="10402"/><tag k="coa:place_id" v="1001276"/></node><node id="-35" lat="30.433288" lon="-97.795965" changeset="false"><tag k="addr:street" v="Topridge Drive"/><tag k="addr:housenumber" v="9309"/><tag k="coa:place_id" v="68889"/></node><node id="-36" lat="30.426439" lon="-97.802909" changeset="false"><tag k="addr:street" v="Talleyran Drive"/><tag k="addr:housenumber" v="10216"/><tag k="coa:place_id" v="80111"/></node><node id="-37" lat="30.421679" lon="-97.80112" changeset="false"><tag k="addr:street" v="Talleyran Drive"/><tag k="addr:housenumber" v="9901"/><tag k="coa:place_id" v="69848"/></node><node id="-38" lat="30.421267" lon="-97.803103" changeset="false"><tag k="addr:street" v="Grand Oak Drive"/><tag k="addr:housenumber" v="9613"/><tag k="coa:place_id" v="56345"/></node><node id="-39" lat="30.42414" lon="-97.804897" changeset="false"><tag k="addr:street" v="Grand Oak Drive"/><tag k="addr:housenumber" v="9907"/><tag k="coa:place_id" v="69673"/></node><node id="-40" lat="30.424751" lon="-97.803907" changeset="false"><tag k="addr:street" v="Rolling Oaks Trail"/><tag k="addr:housenumber" v="9500"/><tag k="coa:place_id" v="80110"/></node><node id="-41" lat="30.428328" lon="-97.8012" changeset="false"><tag k="addr:street" v="Grand Oak Circle"/><tag k="addr:housenumber" v="10539"/><tag k="coa:place_id" v="75954"/></node><node id="-42" lat="30.428309" lon="-97.800957" changeset="false"><tag k="addr:street" v="Grand Oak Circle"/><tag k="addr:housenumber" v="10537"/><tag k="coa:place_id" v="75953"/></node><node id="-43" lat="30.427683" lon="-97.802938" changeset="false"><tag k="addr:street" v="Grand Oak Drive"/><tag k="addr:housenumber" v="10402"/><tag k="coa:place_id" v="129097"/></node><node id="-44" lat="30.431083" lon="-97.79882" changeset="false"><tag k="addr:street" v="Keystone Bend"/><tag k="addr:housenumber" v="10805"/><tag k="coa:place_id" v="77605"/></node><node id="-45" lat="30.429757" lon="-97.806327" changeset="false"><tag k="addr:street" v="Bordeaux Lane"/><tag k="addr:housenumber" v="9803"/><tag k="coa:place_id" v="1026950"/></node><node id="-46" lat="30.429715" lon="-97.805456" changeset="false"><tag k="addr:street" v="Talleyran Cove"/><tag k="addr:housenumber" v="9704"/><tag k="coa:place_id" v="950312"/></node><node id="-47" lat="30.426053" lon="-97.801891" changeset="false"><tag k="addr:street" v="Talleyran Drive"/><tag k="addr:housenumber" v="10206"/><tag k="coa:place_id" v="69419"/></node><node id="-48" lat="30.43083" lon="-97.798816" changeset="false"><tag k="addr:street" v="Keystone Bend"/><tag k="addr:housenumber" v="10803"/><tag k="coa:place_id" v="69404"/></node><node id="-49" lat="30.432883" lon="-97.800413" changeset="false"><tag k="addr:street" v="Spicewood Parkway"/><tag k="addr:housenumber" v="10803"/><tag k="coa:place_id" v="381236"/></node><node id="-50" lat="30.427471" lon="-97.800997" changeset="false"><tag k="addr:street" v="Grand Oak Circle"/><tag k="addr:housenumber" v="10512"/><tag k="coa:place_id" v="75956"/></node><node id="-51" lat="30.425016" lon="-97.804127" changeset="false"><tag k="addr:street" v="Grand Oak Drive"/><tag k="addr:housenumber" v="10103"/><tag k="coa:place_id" v="80151"/></node><node id="-52" lat="30.424643" lon="-97.796515" changeset="false"><tag k="addr:street" v="Scotland Well Cove"/><tag k="addr:housenumber" v="9001"/><tag k="coa:place_id" v="85320"/></node><node id="-53" lat="30.427391" lon="-97.803747" changeset="false"><tag k="addr:street" v="Vista View Drive"/><tag k="addr:housenumber" v="9627"/><tag k="coa:place_id" v="1007492"/></node><node id="-54" lat="30.427651" lon="-97.80354" changeset="false"><tag k="addr:street" v="Vista View Drive"/><tag k="addr:housenumber" v="9625"/><tag k="coa:place_id" v="962102"/></node><node id="-55" lat="30.423158" lon="-97.79553" changeset="false"><tag k="addr:street" v="Lockleven Loop"/><tag k="addr:housenumber" v="9003"/><tag k="coa:place_id" v="69439"/></node><node id="-56" lat="30.425968" lon="-97.803128" changeset="false"><tag k="addr:street" v="Mystic Oaks Trail"/><tag k="addr:housenumber" v="9410"/><tag k="coa:place_id" v="80140"/></node><node id="-57" lat="30.420971" lon="-97.799819" changeset="false"><tag k="addr:street" v="Hundred Oaks Circle"/><tag k="addr:housenumber" v="9903"/><tag k="coa:place_id" v="80171"/></node><node id="-58" lat="30.423737" lon="-97.796415" changeset="false"><tag k="addr:street" v="Lockleven Loop"/><tag k="addr:housenumber" v="9026"/><tag k="coa:place_id" v="76831"/></node><node id="-59" lat="30.420745" lon="-97.801192" changeset="false"><tag k="addr:street" v="Talleyran Drive"/><tag k="addr:housenumber" v="9807"/><tag k="coa:place_id" v="80116"/></node><node id="-60" lat="30.427512" lon="-97.803043" changeset="false"><tag k="addr:street" v="Grand Oak Drive"/><tag k="addr:housenumber" v="10400"/><tag k="coa:place_id" v="129101"/></node><node id="-61" lat="30.430169" lon="-97.803777" changeset="false"><tag k="addr:street" v="Talleyran Drive"/><tag k="addr:housenumber" v="10601"/><tag k="coa:place_id" v="1001852"/></node><node id="-62" lat="30.430164" lon="-97.806723" changeset="false"><tag k="addr:street" v="Bordeaux Lane"/><tag k="addr:housenumber" v="9804"/><tag k="coa:place_id" v="958514"/></node><node id="-63" lat="30.424023" lon="-97.796843" changeset="false"><tag k="addr:street" v="Lockleven Loop"/><tag k="addr:housenumber" v="9027"/><tag k="coa:place_id" v="69038"/></node><node id="-64" lat="30.423142" lon="-97.802396" changeset="false"><tag k="addr:street" v="Rolling Oaks Trail"/><tag k="addr:housenumber" v="9306"/><tag k="coa:place_id" v="68866"/></node><node id="-65" lat="30.429808" lon="-97.801187" changeset="false"><tag k="addr:street" v="Grand Oak Drive"/><tag k="addr:housenumber" v="10614"/><tag k="coa:place_id" v="130588"/></node><node id="-66" lat="30.422161" lon="-97.802168" changeset="false"><tag k="addr:street" v="Rolling Oaks Trail"/><tag k="addr:housenumber" v="9206"/><tag k="coa:place_id" v="80104"/></node><node id="-67" lat="30.423279" lon="-97.795396" changeset="false"><tag k="addr:street" v="Lockleven Loop"/><tag k="addr:housenumber" v="9001"/><tag k="coa:place_id" v="125783"/></node><node id="-68" lat="30.423113" lon="-97.7963" changeset="false"><tag k="addr:street" v="Lockleven Loop"/><tag k="addr:housenumber" v="9006"/><tag k="coa:place_id" v="76836"/></node><node id="-69" lat="30.422863" lon="-97.803457" changeset="false"><tag k="addr:street" v="Winding Oak Circle"/><tag k="addr:housenumber" v="9905"/><tag k="coa:place_id" v="80092"/></node><node id="-70" lat="30.429212" lon="-97.802636" changeset="false"><tag k="addr:street" v="Vista View Drive"/><tag k="addr:housenumber" v="9613"/><tag k="coa:place_id" v="989096"/></node><node id="-71" lat="30.433914" lon="-97.799809" changeset="false"><tag k="addr:street" v="Spicewood Parkway"/><tag k="addr:housenumber" v="10903"/><tag k="coa:place_id" v="382286"/></node><node id="-72" lat="30.432765" lon="-97.798619" changeset="false"><tag k="addr:street" v="Keystone Bend"/><tag k="addr:housenumber" v="10904"/><tag k="coa:place_id" v="69294"/></node><node id="-73" lat="30.427147" lon="-97.803259" changeset="false"><tag k="addr:street" v="Grand Oak Drive"/><tag k="addr:housenumber" v="10300"/><tag k="coa:place_id" v="131557"/></node><node id="-74" lat="30.429914" lon="-97.798212" changeset="false"><tag k="addr:street" v="Keystone Bend"/><tag k="addr:housenumber" v="10708"/><tag k="coa:place_id" v="69104"/></node><node id="-75" lat="30.425283" lon="-97.801346" changeset="false"><tag k="addr:street" v="Mystic Oaks Trail"/><tag k="addr:housenumber" v="9308"/><tag k="coa:place_id" v="127282"/></node><node id="-76" lat="30.429398" lon="-97.797597" changeset="false"><tag k="addr:street" v="Keystone Bend"/><tag k="addr:housenumber" v="10703"/><tag k="coa:place_id" v="69175"/></node><node id="-77" lat="30.429451" lon="-97.800568" changeset="false"><tag k="addr:street" v="Grand Oak Drive"/><tag k="addr:housenumber" v="10620"/><tag k="coa:place_id" v="130591"/></node><node id="-78" lat="30.424255" lon="-97.800365" changeset="false"><tag k="addr:street" v="Mystic Oaks Trail"/><tag k="addr:housenumber" v="9211"/><tag k="coa:place_id" v="208663"/></node><node id="-79" lat="30.423879" lon="-97.801243" changeset="false"><tag k="addr:street" v="Talleyran Drive"/><tag k="addr:housenumber" v="10105"/><tag k="coa:place_id" v="80120"/></node><node id="-80" lat="30.426935" lon="-97.800573" changeset="false"><tag k="addr:street" v="Grand Oak Circle"/><tag k="addr:housenumber" v="10517"/><tag k="coa:place_id" v="75942"/></node><node id="-81" lat="30.432569" lon="-97.795761" changeset="false"><tag k="addr:street" v="Arch Terrace"/><tag k="addr:housenumber" v="11009"/><tag k="coa:place_id" v="81149"/></node><node id="-82" lat="30.423138" lon="-97.805643" changeset="false"><tag k="addr:street" v="Winding Oak Trail"/><tag k="addr:housenumber" v="9507"/><tag k="coa:place_id" v="79897"/></node><node id="-83" lat="30.422462" lon="-97.796611" changeset="false"><tag k="addr:street" v="Lockleven Loop"/><tag k="addr:housenumber" v="9011"/><tag k="coa:place_id" v="68964"/></node><node id="-84" lat="30.427278" lon="-97.800553" changeset="false"><tag k="addr:street" v="Grand Oak Circle"/><tag k="addr:housenumber" v="10516"/><tag k="coa:place_id" v="75958"/></node><node id="-85" lat="30.429924" lon="-97.804589" changeset="false"><tag k="addr:street" v="Bordeaux Lane"/><tag k="addr:housenumber" v="9701"/><tag k="coa:place_id" v="1031156"/></node><node id="-86" lat="30.42442" lon="-97.800675" changeset="false"><tag k="addr:street" v="Mystic Oaks Trail"/><tag k="addr:housenumber" v="9301"/><tag k="coa:place_id" v="80144"/></node><node id="-87" lat="30.42622" lon="-97.796709" changeset="false"><tag k="addr:street" v="Caira Cove"/><tag k="addr:housenumber" v="9101"/><tag k="coa:place_id" v="69493"/></node><node id="-88" lat="30.428424" lon="-97.798003" changeset="false"><tag k="addr:street" v="Leafwood Lane"/><tag k="addr:housenumber" v="10604"/><tag k="coa:place_id" v="69339"/></node><node id="-89" lat="30.430932" lon="-97.805908" changeset="false"><tag k="addr:street" v="Spicewood Parkway"/><tag k="addr:housenumber" v="10601"/><tag k="coa:place_id" v="381212"/></node><node id="-90" lat="30.431291" lon="-97.801398" changeset="false"><tag k="addr:street" v="Spicewood Parkway"/><tag k="addr:housenumber" v="10703"/><tag k="coa:place_id" v="135231"/></node><node id="-91" lat="30.430954" lon="-97.801736" changeset="false"><tag k="addr:street" v="Spicewood Parkway"/><tag k="addr:housenumber" v="10623"/><tag k="coa:place_id" v="271774"/></node><node id="-92" lat="30.424484" lon="-97.79974" changeset="false"><tag k="addr:street" v="Mystic Oaks Trail"/><tag k="addr:housenumber" v="9218"/><tag k="coa:place_id" v="80130"/></node><node id="-93" lat="30.429724" lon="-97.8007" changeset="false"><tag k="addr:street" v="Grand Oak Drive"/><tag k="addr:housenumber" v="10618"/><tag k="coa:place_id" v="130590"/></node><node id="-94" lat="30.429148" lon="-97.805677" changeset="false"><tag k="addr:street" v="Talleyran Cove"/><tag k="addr:housenumber" v="9707"/><tag k="coa:place_id" v="1000658"/></node><node id="-95" lat="30.424626" lon="-97.803697" changeset="false"><tag k="addr:street" v="Rolling Oaks Trail"/><tag k="addr:housenumber" v="9406"/><tag k="coa:place_id" v="68855"/></node><node id="-96" lat="30.430266" lon="-97.79599" changeset="false"><tag k="addr:street" v="Leafwood Lane"/><tag k="addr:housenumber" v="10805"/><tag k="coa:place_id" v="68887"/></node><node id="-97" lat="30.429947" lon="-97.806056" changeset="false"><tag k="addr:street" v="Bordeaux Lane"/><tag k="addr:housenumber" v="9801"/><tag k="coa:place_id" v="135129"/></node><node id="-98" lat="30.429628" lon="-97.806601" changeset="false"><tag k="addr:street" v="Vista View Drive"/><tag k="addr:housenumber" v="9802"/><tag k="coa:place_id" v="992828"/></node><node id="-99" lat="30.422792" lon="-97.795641" changeset="false"><tag k="addr:street" v="Lockleven Loop"/><tag k="addr:housenumber" v="9007"/><tag k="coa:place_id" v="69277"/></node><node id="-100" lat="30.426839" lon="-97.802558" changeset="false"><tag k="addr:street" v="Talleyran Drive"/><tag k="addr:housenumber" v="10223"/><tag k="coa:place_id" v="123619"/></node><node id="-101" lat="30.419956" lon="-97.800772" changeset="false"><tag k="addr:street" v="Hundred Oaks Circle"/><tag k="addr:housenumber" v="9800"/><tag k="coa:place_id" v="207018"/></node><node id="-102" lat="30.430675" lon="-97.801957" changeset="false"><tag k="addr:street" v="Spicewood Parkway"/><tag k="addr:housenumber" v="10621"/><tag k="coa:place_id" v="961100"/></node><node id="-103" lat="30.424541" lon="-97.800965" changeset="false"><tag k="addr:street" v="Mystic Oaks Trail"/><tag k="addr:housenumber" v="9303"/><tag k="coa:place_id" v="80143"/></node><node id="-104" lat="30.434474" lon="-97.799648" changeset="false"><tag k="addr:street" v="Spicewood Parkway"/><tag k="addr:housenumber" v="10907"/><tag k="coa:place_id" v="382292"/></node><node id="-105" lat="30.429262" lon="-97.802061" changeset="false"><tag k="addr:street" v="Grand Oak Drive"/><tag k="addr:housenumber" v="10604"/><tag k="coa:place_id" v="130581"/></node><node id="-106" lat="30.424681" lon="-97.800088" changeset="false"><tag k="addr:street" v="Mystic Oaks Trail"/><tag k="addr:housenumber" v="9220"/><tag k="coa:place_id" v="80131"/></node><node id="-107" lat="30.431367" lon="-97.795331" changeset="false"><tag k="addr:street" v="Leafwood Lane"/><tag k="addr:housenumber" v="10907"/><tag k="coa:place_id" v="81179"/></node><node id="-108" lat="30.427196" lon="-97.80281" changeset="false"><tag k="addr:street" v="Grand Oak Drive"/><tag k="addr:housenumber" v="10303"/><tag k="coa:place_id" v="54315"/></node><node id="-109" lat="30.425412" lon="-97.796593" changeset="false"><tag k="addr:street" v="Scotland Well Drive"/><tag k="addr:housenumber" v="10504"/><tag k="coa:place_id" v="69157"/></node><node id="-110" lat="30.426327" lon="-97.802664" changeset="false"><tag k="addr:street" v="Talleyran Drive"/><tag k="addr:housenumber" v="10214"/><tag k="coa:place_id" v="69422"/></node><node id="-111" lat="30.422598" lon="-97.805468" changeset="false"><tag k="addr:street" v="Grand Oak Drive"/><tag k="addr:housenumber" v="9801"/><tag k="coa:place_id" v="69384"/></node><node id="-112" lat="30.423956" lon="-97.799867" changeset="false"><tag k="addr:street" v="Mystic Oaks Trail"/><tag k="addr:housenumber" v="9214"/><tag k="coa:place_id" v="68845"/></node><node id="-113" lat="30.430804" lon="-97.804587" changeset="false"><tag k="addr:street" v="Spicewood Parkway"/><tag k="addr:housenumber" v="10609"/><tag k="coa:place_id" v="976502"/></node><node id="-114" lat="30.430175" lon="-97.807307" changeset="false"><tag k="addr:street" v="Vista View Drive"/><tag k="addr:housenumber" v="9806"/><tag k="coa:place_id" v="962654"/></node><node id="-115" lat="30.429288" lon="-97.80128" changeset="false"><tag k="addr:street" v="Grand Oak Drive"/><tag k="addr:housenumber" v="10615"/><tag k="coa:place_id" v="130596"/></node><node id="-116" lat="30.423739" lon="-97.800012" changeset="false"><tag k="addr:street" v="Mystic Oaks Trail"/><tag k="addr:housenumber" v="9212"/><tag k="coa:place_id" v="80128"/></node><node id="-117" lat="30.427479" lon="-97.801672" changeset="false"><tag k="addr:street" v="Grand Oak Circle"/><tag k="addr:housenumber" v="10507"/><tag k="coa:place_id" v="75937"/></node><node id="-118" lat="30.431043" lon="-97.801863" changeset="false"><tag k="addr:street" v="Spicewood Parkway"/><tag k="addr:housenumber" v="10623 1/2"/><tag k="coa:place_id" v="3098253"/></node><node id="-119" lat="30.427431" lon="-97.805212" changeset="false"><tag k="addr:street" v="Vista View Drive"/><tag k="addr:housenumber" v="9636"/><tag k="coa:place_id" v="961382"/></node><node id="-120" lat="30.434467" lon="-97.799561" changeset="false"><tag k="addr:street" v="Topridge Drive"/><tag k="addr:housenumber" v="9515"/><tag k="coa:place_id" v="619917"/></node><node id="-121" lat="30.423491" lon="-97.800126" changeset="false"><tag k="addr:street" v="Mystic Oaks Trail"/><tag k="addr:housenumber" v="9210"/><tag k="coa:place_id" v="80127"/></node><node id="-122" lat="30.429972" lon="-97.807037" changeset="false"><tag k="addr:street" v="Bordeaux Lane"/><tag k="addr:housenumber" v="9806"/><tag k="coa:place_id" v="1006976"/></node><node id="-123" lat="30.423269" lon="-97.800311" changeset="false"><tag k="addr:street" v="Mystic Oaks Trail"/><tag k="addr:housenumber" v="9208"/><tag k="coa:place_id" v="80126"/></node><node id="-124" lat="30.428472" lon="-97.803058" changeset="false"><tag k="addr:street" v="Vista View Drive"/><tag k="addr:housenumber" v="9619"/><tag k="coa:place_id" v="1003088"/></node><node id="-125" lat="30.428973" lon="-97.802792" changeset="false"><tag k="addr:street" v="Vista View Drive"/><tag k="addr:housenumber" v="9615"/><tag k="coa:place_id" v="968282"/></node><node id="-126" lat="30.422639" lon="-97.795848" changeset="false"><tag k="addr:street" v="Lockleven Cove"/><tag k="addr:housenumber" v="10203"/><tag k="coa:place_id" v="69051"/></node><node id="-127" lat="30.423704" lon="-97.797281" changeset="false"><tag k="addr:street" v="Lockleven Loop"/><tag k="addr:housenumber" v="9023"/><tag k="coa:place_id" v="69558"/></node><node id="-128" lat="30.420961" lon="-97.801994" changeset="false"><tag k="addr:street" v="Grand Oak Drive"/><tag k="addr:housenumber" v="9605"/><tag k="coa:place_id" v="56343"/></node><node id="-129" lat="30.420274" lon="-97.800737" changeset="false"><tag k="addr:street" v="Hundred Oaks Circle"/><tag k="addr:housenumber" v="9802"/><tag k="coa:place_id" v="80180"/></node><node id="-130" lat="30.419924" lon="-97.801246" changeset="false"><tag k="addr:street" v="Talleyran Drive"/><tag k="addr:housenumber" v="9801"/><tag k="coa:place_id" v="208974"/></node><node id="-131" lat="30.425304" lon="-97.797512" changeset="false"><tag k="addr:street" v="Skye Cove"/><tag k="addr:housenumber" v="9107"/><tag k="coa:place_id" v="76842"/></node><node id="-132" lat="30.425209" lon="-97.803989" changeset="false"><tag k="addr:street" v="Grand Oak Drive"/><tag k="addr:housenumber" v="10105"/><tag k="coa:place_id" v="80152"/></node><node id="-133" lat="30.424296" lon="-97.803159" changeset="false"><tag k="addr:street" v="Rolling Oaks Trail"/><tag k="addr:housenumber" v="9402"/><tag k="coa:place_id" v="80109"/></node><node id="-134" lat="30.424148" lon="-97.802902" changeset="false"><tag k="addr:street" v="Rolling Oaks Trail"/><tag k="addr:housenumber" v="9400"/><tag k="coa:place_id" v="80108"/></node><node id="-135" lat="30.427585" lon="-97.798121" changeset="false"><tag k="addr:street" v="Leafwood Lane"/><tag k="addr:housenumber" v="10600"/><tag k="coa:place_id" v="99401"/></node><node id="-136" lat="30.425184" lon="-97.796589" changeset="false"><tag k="addr:street" v="Scotland Well Drive"/><tag k="addr:housenumber" v="10502"/><tag k="coa:place_id" v="69128"/></node><node id="-137" lat="30.424215" lon="-97.796683" changeset="false"><tag k="addr:street" v="Lockleven Loop"/><tag k="addr:housenumber" v="9029"/><tag k="coa:place_id" v="69045"/></node><node id="-138" lat="30.423832" lon="-97.796098" changeset="false"><tag k="addr:street" v="Scotland Well Drive"/><tag k="addr:housenumber" v="10424"/><tag k="coa:place_id" v="76816"/></node><node id="-139" lat="30.431831" lon="-97.795609" changeset="false"><tag k="addr:street" v="Arch Terrace"/><tag k="addr:housenumber" v="11003"/><tag k="coa:place_id" v="206917"/></node><node id="-140" lat="30.423699" lon="-97.802448" changeset="false"><tag k="addr:street" v="Rolling Oaks Trail"/><tag k="addr:housenumber" v="9310"/><tag k="coa:place_id" v="68971"/></node><node id="-141" lat="30.423028" lon="-97.800385" changeset="false"><tag k="addr:street" v="Mystic Oaks Trail"/><tag k="addr:housenumber" v="9206"/><tag k="coa:place_id" v="68841"/></node><node id="-142" lat="30.425125" lon="-97.801137" changeset="false"><tag k="addr:street" v="Mystic Oaks Trail"/><tag k="addr:housenumber" v="9306"/><tag k="coa:place_id" v="80135"/></node><node id="-143" lat="30.43228" lon="-97.798529" changeset="false"><tag k="addr:street" v="Keystone Bend"/><tag k="addr:housenumber" v="10900"/><tag k="coa:place_id" v="69485"/></node><node id="-144" lat="30.421935" lon="-97.802108" changeset="false"><tag k="addr:street" v="Rolling Oaks Trail"/><tag k="addr:housenumber" v="9204"/><tag k="coa:place_id" v="80103"/></node><node id="-145" lat="30.425617" lon="-97.802084" changeset="false"><tag k="addr:street" v="Mystic Oaks Trail"/><tag k="addr:housenumber" v="9402"/><tag k="coa:place_id" v="80136"/></node><node id="-146" lat="30.421567" lon="-97.800592" changeset="false"><tag k="addr:street" v="Hundred Oaks Circle"/><tag k="addr:housenumber" v="9906"/><tag k="coa:place_id" v="80175"/></node><node id="-147" lat="30.421301" lon="-97.801784" changeset="false"><tag k="addr:street" v="Rolling Oaks Trail"/><tag k="addr:housenumber" v="9201"/><tag k="coa:place_id" v="103246"/></node><node id="-148" lat="30.421316" lon="-97.802661" changeset="false"><tag k="addr:street" v="Grand Oak Drive"/><tag k="addr:housenumber" v="9609"/><tag k="coa:place_id" v="56344"/></node><node id="-149" lat="30.430813" lon="-97.798237" changeset="false"><tag k="addr:street" v="Keystone Bend"/><tag k="addr:housenumber" v="10800"/><tag k="coa:place_id" v="69093"/></node><node id="-150" lat="30.429831" lon="-97.801704" changeset="false"><tag k="addr:street" v="Grand Oak Drive"/><tag k="addr:housenumber" v="10610"/><tag k="coa:place_id" v="130585"/></node><node id="-151" lat="30.42019" lon="-97.80122" changeset="false"><tag k="addr:street" v="Talleyran Drive"/><tag k="addr:housenumber" v="9803"/><tag k="coa:place_id" v="80114"/></node><node id="-152" lat="30.429652" lon="-97.801848" changeset="false"><tag k="addr:street" v="Grand Oak Drive"/><tag k="addr:housenumber" v="10608"/><tag k="coa:place_id" v="130584"/></node><node id="-153" lat="30.425004" lon="-97.800866" changeset="false"><tag k="addr:street" v="Mystic Oaks Trail"/><tag k="addr:housenumber" v="9304"/><tag k="coa:place_id" v="80134"/></node><node id="-154" lat="30.429892" lon="-97.801458" changeset="false"><tag k="addr:street" v="Grand Oak Drive"/><tag k="addr:housenumber" v="10612"/><tag k="coa:place_id" v="130587"/></node><node id="-155" lat="30.428762" lon="-97.8058" changeset="false"><tag k="addr:street" v="Vista View Drive"/><tag k="addr:housenumber" v="9706"/><tag k="coa:place_id" v="960980"/></node><node id="-156" lat="30.430761" lon="-97.795182" changeset="false"><tag k="addr:street" v="Scotland Well Drive"/><tag k="addr:housenumber" v="10900"/><tag k="coa:place_id" v="74571"/></node><node id="-157" lat="30.422823" lon="-97.802864" changeset="false"><tag k="addr:street" v="Rolling Oaks Trail"/><tag k="addr:housenumber" v="9305"/><tag k="coa:place_id" v="266602"/></node><node id="-158" lat="30.422644" lon="-97.794391" changeset="false"><tag k="addr:street" v="Scotland Well Drive"/><tag k="addr:housenumber" v="10402 1/2"/><tag k="coa:place_id" v="3143879"/></node><node id="-159" lat="30.4229" lon="-97.805056" changeset="false"><tag k="addr:street" v="Winding Oak Trail"/><tag k="addr:housenumber" v="9503"/><tag k="coa:place_id" v="80091"/></node><node id="-160" lat="30.422196" lon="-97.803641" changeset="false"><tag k="addr:street" v="Winding Oak Circle"/><tag k="addr:housenumber" v="9900"/><tag k="coa:place_id" v="80094"/></node><node id="-161" lat="30.421941" lon="-97.801147" changeset="false"><tag k="addr:street" v="Talleyran Drive"/><tag k="addr:housenumber" v="9903"/><tag k="coa:place_id" v="69268"/></node><node id="-162" lat="30.422602" lon="-97.803297" changeset="false"><tag k="addr:street" v="Winding Oak Circle"/><tag k="addr:housenumber" v="9903"/><tag k="coa:place_id" v="68877"/></node><node id="-163" lat="30.430146" lon="-97.797729" changeset="false"><tag k="addr:street" v="Keystone Bend"/><tag k="addr:housenumber" v="10709"/><tag k="coa:place_id" v="77608"/></node><node id="-164" lat="30.429466" lon="-97.801977" changeset="false"><tag k="addr:street" v="Grand Oak Drive"/><tag k="addr:housenumber" v="10606"/><tag k="coa:place_id" v="130583"/></node><node id="-165" lat="30.43262" lon="-97.794024" changeset="false"><tag k="addr:street" v="Topridge Drive"/><tag k="addr:housenumber" v="9201"/><tag k="coa:place_id" v="105085"/></node><node id="-166" lat="30.423945" lon="-97.802661" changeset="false"><tag k="addr:street" v="Rolling Oaks Trail"/><tag k="addr:housenumber" v="9312"/><tag k="coa:place_id" v="80107"/></node><node id="-167" lat="30.429789" lon="-97.800951" changeset="false"><tag k="addr:street" v="Grand Oak Drive"/><tag k="addr:housenumber" v="10616"/><tag k="coa:place_id" v="130589"/></node><node id="-168" lat="30.424209" lon="-97.7996" changeset="false"><tag k="addr:street" v="Mystic Oaks Trail"/><tag k="addr:housenumber" v="9216"/><tag k="coa:place_id" v="80129"/></node><node id="-169" lat="30.429643" lon="-97.797477" changeset="false"><tag k="addr:street" v="Keystone Bend"/><tag k="addr:housenumber" v="10705"/><tag k="coa:place_id" v="69386"/></node><node id="-170" lat="30.426736" lon="-97.803138" changeset="false"><tag k="addr:street" v="Talleyran Drive"/><tag k="addr:housenumber" v="10220"/><tag k="coa:place_id" v="619923"/></node><node id="-171" lat="30.431358" lon="-97.799227" changeset="false"><tag k="addr:street" v="Ashton Cove"/><tag k="addr:housenumber" v="10705"/><tag k="coa:place_id" v="69264"/></node><node id="-172" lat="30.432337" lon="-97.795737" changeset="false"><tag k="addr:street" v="Arch Terrace"/><tag k="addr:housenumber" v="11007"/><tag k="coa:place_id" v="81148"/></node><node id="-173" lat="30.420445" lon="-97.801199" changeset="false"><tag k="addr:street" v="Talleyran Drive"/><tag k="addr:housenumber" v="9805"/><tag k="coa:place_id" v="80115"/></node><node id="-174" lat="30.421502" lon="-97.800162" changeset="false"><tag k="addr:street" v="Hundred Oaks Circle"/><tag k="addr:housenumber" v="9908"/><tag k="coa:place_id" v="80174"/></node><node id="-175" lat="30.428387" lon="-97.802099" changeset="false"><tag k="addr:street" v="Grand Oak Circle"/><tag k="addr:housenumber" v="10500"/><tag k="coa:place_id" v="128601"/></node><node id="-176" lat="30.428924" lon="-97.80229" changeset="false"><tag k="addr:street" v="Grand Oak Drive"/><tag k="addr:housenumber" v="10602"/><tag k="coa:place_id" v="130579"/></node><node id="-177" lat="30.426882" lon="-97.802184" changeset="false"><tag k="addr:street" v="Talleyran Drive"/><tag k="addr:housenumber" v="10225"/><tag k="coa:place_id" v="122615"/></node><node id="-178" lat="30.424785" lon="-97.800352" changeset="false"><tag k="addr:street" v="Mystic Oaks Trail"/><tag k="addr:housenumber" v="9300"/><tag k="coa:place_id" v="80132"/></node><node id="-179" lat="30.432042" lon="-97.795396" changeset="false"><tag k="addr:street" v="Leafwood Lane"/><tag k="addr:housenumber" v="11004"/><tag k="coa:place_id" v="81175"/></node><node id="-180" lat="30.432084" lon="-97.795431" changeset="false"><tag k="addr:street" v="Leafwood Lane"/><tag k="addr:housenumber" v="11008"/><tag k="coa:place_id" v="1150752"/></node></osm>