<?xml version="1.0" encoding="UTF-8"?><osm version="0.6" generator="github.com/aaronlidman/osm-and-geojson"><node id="-1" lat="30.288299" lon="-97.843225" changeset="false"><tag k="addr:street" v="Falcon Ledge Drive"/><tag k="addr:housenumber" v="1314"/><tag k="addr:postcode" v="78746"/></node><node id="-2" lat="30.277492" lon="-97.844539" changeset="false"><tag k="addr:street" v="Cypress Point Cove"/><tag k="addr:housenumber" v="2307"/><tag k="addr:postcode" v="78746"/></node><node id="-3" lat="30.293424" lon="-97.837642" changeset="false"><tag k="addr:street" v="Valley Ridge Court"/><tag k="addr:housenumber" v="6505"/><tag k="addr:postcode" v="78746"/></node><node id="-4" lat="30.283912" lon="-97.844045" changeset="false"><tag k="addr:street" v="Saint Andrew's Way"/><tag k="addr:housenumber" v="6600"/><tag k="addr:postcode" v="78746"/></node><node id="-5" lat="30.29289" lon="-97.841682" changeset="false"><tag k="addr:street" v="Falcon Ledge Drive"/><tag k="addr:housenumber" v="1103"/><tag k="addr:postcode" v="78746"/></node><node id="-6" lat="30.27761" lon="-97.844721" changeset="false"><tag k="addr:street" v="Cypress Point Cove"/><tag k="addr:housenumber" v="2305"/><tag k="addr:postcode" v="78746"/></node><node id="-7" lat="30.286972" lon="-97.844123" changeset="false"><tag k="addr:street" v="Ben Crenshaw Way"/><tag k="addr:housenumber" v="1534"/><tag k="addr:postcode" v="78746"/></node><node id="-8" lat="30.275482" lon="-97.844597" changeset="false"><tag k="addr:street" v="Five Acre Wood"/><tag k="addr:housenumber" v="6309"/><tag k="addr:postcode" v="78746"/></node><node id="-9" lat="30.290041" lon="-97.841295" changeset="false"><tag k="addr:street" v="Falcon Ledge Drive"/><tag k="addr:housenumber" v="1208"/><tag k="addr:postcode" v="78746"/></node><node id="-10" lat="30.28169" lon="-97.848166" changeset="false"><tag k="addr:street" v="Cypress Point Cove"/><tag k="addr:housenumber" v="6801"/><tag k="addr:postcode" v="78746"/></node><node id="-11" lat="30.289096" lon="-97.84234" changeset="false"><tag k="addr:street" v="Falcon Ledge Drive"/><tag k="addr:housenumber" v="1304"/><tag k="addr:postcode" v="78746"/></node><node id="-12" lat="30.287271" lon="-97.843413" changeset="false"><tag k="addr:street" v="Falcon Ledge Drive"/><tag k="addr:housenumber" v="1402"/><tag k="addr:postcode" v="78746"/></node><node id="-13" lat="30.285291" lon="-97.84527" changeset="false"><tag k="addr:street" v="Falcon Ledge Drive"/><tag k="addr:housenumber" v="1603"/><tag k="addr:postcode" v="78746"/></node><node id="-14" lat="30.290232" lon="-97.841146" changeset="false"><tag k="addr:street" v="Falcon Ledge Drive"/><tag k="addr:housenumber" v="1206"/><tag k="addr:postcode" v="78746"/></node><node id="-15" lat="30.285433" lon="-97.847621" changeset="false"><tag k="addr:street" v="Crosby Circle"/><tag k="addr:housenumber" v="6905"/><tag k="addr:postcode" v="78746"/></node><node id="-16" lat="30.293053" lon="-97.837071" changeset="false"><tag k="addr:street" v="Castle Ridge Road"/><tag k="addr:housenumber" v="912"/><tag k="addr:postcode" v="78746"/></node><node id="-17" lat="30.283829" lon="-97.842648" changeset="false"><tag k="addr:street" v="Whitemarsh Valley Walk"/><tag k="addr:housenumber" v="6505"/><tag k="addr:postcode" v="78746"/></node><node id="-18" lat="30.285124" lon="-97.84666" changeset="false"><tag k="addr:street" v="Ben Crenshaw Way"/><tag k="addr:housenumber" v="1703"/><tag k="addr:postcode" v="78746"/></node><node id="-19" lat="30.289747" lon="-97.84174" changeset="false"><tag k="addr:street" v="Falcon Ledge Drive"/><tag k="addr:housenumber" v="1210"/><tag k="addr:postcode" v="78746"/></node><node id="-20" lat="30.277317" lon="-97.845501" changeset="false"><tag k="addr:street" v="Cypress Point Cove"/><tag k="addr:housenumber" v="2302"/><tag k="addr:postcode" v="78746"/></node><node id="-21" lat="30.287107" lon="-97.844166" changeset="false"><tag k="addr:street" v="Ben Crenshaw Way"/><tag k="addr:housenumber" v="1518"/><tag k="addr:postcode" v="78746"/></node><node id="-22" lat="30.283857" lon="-97.844078" changeset="false"><tag k="addr:street" v="Ben Crenshaw Way"/><tag k="addr:housenumber" v="1725"/><tag k="addr:postcode" v="78746"/></node><node id="-23" lat="30.285267" lon="-97.842618" changeset="false"><tag k="addr:street" v="Ben Crenshaw Way"/><tag k="addr:housenumber" v="1503"/><tag k="addr:postcode" v="78746"/></node><node id="-24" lat="30.285388" lon="-97.842591" changeset="false"><tag k="addr:street" v="Johnny Miller Trail"/><tag k="addr:housenumber" v="1501"/><tag k="addr:postcode" v="78746"/></node><node id="-25" lat="30.284795" lon="-97.846206" changeset="false"><tag k="addr:street" v="Ben Crenshaw Way"/><tag k="addr:housenumber" v="1707"/><tag k="addr:postcode" v="78746"/></node><node id="-26" lat="30.284787" lon="-97.846182" changeset="false"><tag k="addr:street" v="Ben Crenshaw Way"/><tag k="addr:housenumber" v="1709"/><tag k="addr:postcode" v="78746"/></node><node id="-27" lat="30.275393" lon="-97.844116" changeset="false"><tag k="addr:street" v="Five Acre Wood"/><tag k="addr:housenumber" v="6301"/><tag k="addr:postcode" v="78746"/></node><node id="-28" lat="30.275315" lon="-97.844354" changeset="false"><tag k="addr:street" v="Five Acre Wood"/><tag k="addr:housenumber" v="6305"/><tag k="addr:postcode" v="78746"/></node><node id="-29" lat="30.275329" lon="-97.844223" changeset="false"><tag k="addr:street" v="Five Acre Wood"/><tag k="addr:housenumber" v="6303"/><tag k="addr:postcode" v="78746"/></node><node id="-30" lat="30.27595" lon="-97.844935" changeset="false"><tag k="addr:street" v="Five Acre Wood"/><tag k="addr:housenumber" v="6401"/><tag k="addr:postcode" v="78746"/></node><node id="-31" lat="30.276029" lon="-97.845" changeset="false"><tag k="addr:street" v="Five Acre Wood"/><tag k="addr:housenumber" v="6403"/><tag k="addr:postcode" v="78746"/></node><node id="-32" lat="30.276145" lon="-97.845044" changeset="false"><tag k="addr:street" v="Five Acre Wood"/><tag k="addr:housenumber" v="6405"/><tag k="addr:postcode" v="78746"/></node><node id="-33" lat="30.27589" lon="-97.844493" changeset="false"><tag k="addr:street" v="Weatherwood Cove"/><tag k="addr:housenumber" v="6400"/><tag k="addr:postcode" v="78746"/></node><node id="-34" lat="30.275975" lon="-97.844347" changeset="false"><tag k="addr:street" v="Weatherwood Cove"/><tag k="addr:housenumber" v="6402"/><tag k="addr:postcode" v="78746"/></node><node id="-35" lat="30.275398" lon="-97.844507" changeset="false"><tag k="addr:street" v="Five Acre Wood"/><tag k="addr:housenumber" v="6307"/><tag k="addr:postcode" v="78746"/></node><node id="-36" lat="30.27556" lon="-97.844674" changeset="false"><tag k="addr:street" v="Five Acre Wood"/><tag k="addr:housenumber" v="6311"/><tag k="addr:postcode" v="78746"/></node><node id="-37" lat="30.276215" lon="-97.844271" changeset="false"><tag k="addr:street" v="Weatherwood Cove"/><tag k="addr:housenumber" v="6404"/><tag k="addr:postcode" v="78746"/></node><node id="-38" lat="30.276378" lon="-97.84431" changeset="false"><tag k="addr:street" v="Weatherwood Cove"/><tag k="addr:housenumber" v="6406"/><tag k="addr:postcode" v="78746"/></node><node id="-39" lat="30.276515" lon="-97.844389" changeset="false"><tag k="addr:street" v="Weatherwood Cove"/><tag k="addr:housenumber" v="6408"/><tag k="addr:postcode" v="78746"/></node><node id="-40" lat="30.27575" lon="-97.844831" changeset="false"><tag k="addr:street" v="Five Acre Wood"/><tag k="addr:housenumber" v="6315"/><tag k="addr:postcode" v="78746"/></node><node id="-41" lat="30.275633" lon="-97.844742" changeset="false"><tag k="addr:street" v="Five Acre Wood"/><tag k="addr:housenumber" v="6313"/><tag k="addr:postcode" v="78746"/></node><node id="-42" lat="30.276348" lon="-97.845421" changeset="false"><tag k="addr:street" v="Five Acre Wood"/><tag k="addr:housenumber" v="6413"/><tag k="addr:postcode" v="78746"/></node><node id="-43" lat="30.276282" lon="-97.845294" changeset="false"><tag k="addr:street" v="Five Acre Wood"/><tag k="addr:housenumber" v="6411"/><tag k="addr:postcode" v="78746"/></node><node id="-44" lat="30.276222" lon="-97.845183" changeset="false"><tag k="addr:street" v="Five Acre Wood"/><tag k="addr:housenumber" v="6409"/><tag k="addr:postcode" v="78746"/></node><node id="-45" lat="30.276532" lon="-97.845" changeset="false"><tag k="addr:street" v="Five Acre Wood"/><tag k="addr:housenumber" v="6410"/><tag k="addr:postcode" v="78746"/></node><node id="-46" lat="30.276556" lon="-97.845123" changeset="false"><tag k="addr:street" v="Five Acre Wood"/><tag k="addr:housenumber" v="6412"/><tag k="addr:postcode" v="78746"/></node><node id="-47" lat="30.276581" lon="-97.845242" changeset="false"><tag k="addr:street" v="Five Acre Wood"/><tag k="addr:housenumber" v="6414"/><tag k="addr:postcode" v="78746"/></node><node id="-48" lat="30.283278" lon="-97.847671" changeset="false"><tag k="addr:street" v="Overland Hills Circle"/><tag k="addr:housenumber" v="1907"/><tag k="addr:postcode" v="78746"/></node><node id="-49" lat="30.283223" lon="-97.847672" changeset="false"><tag k="addr:street" v="Cypress Point Cove"/><tag k="addr:housenumber" v="6802"/><tag k="addr:postcode" v="78746"/></node></osm>