<?xml version="1.0" encoding="UTF-8"?><osm version="0.6" generator="github.com/aaronlidman/osm-and-geojson"><node id="-1" lat="30.326592" lon="-97.692333" changeset="false"><tag k="addr:street" v="Cameron Road"/><tag k="addr:housenumber" v="7212"/></node><node id="-2" lat="30.326508" lon="-97.692414" changeset="false"><tag k="addr:street" v="Cameron Road"/><tag k="addr:housenumber" v="7210"/></node><node id="-3" lat="30.327735" lon="-97.694266" changeset="false"><tag k="addr:street" v="Grand Canyon Drive"/><tag k="addr:housenumber" v="7111"/></node><node id="-4" lat="30.333199" lon="-97.691983" changeset="false"><tag k="addr:street" v="Blessing Avenue"/><tag k="addr:housenumber" v="7601"/></node><node id="-5" lat="30.330026" lon="-97.692284" changeset="false"><tag k="addr:street" v="Mc Kie Cove"/><tag k="addr:housenumber" v="1300"/></node><node id="-6" lat="30.334481" lon="-97.691175" changeset="false"><tag k="addr:street" v="Blessing Avenue"/><tag k="addr:housenumber" v="7619"/></node><node id="-7" lat="30.32609" lon="-97.692555" changeset="false"><tag k="addr:street" v="Cameron Road"/><tag k="addr:housenumber" v="7118"/></node><node id="-8" lat="30.327565" lon="-97.693179" changeset="false"><tag k="addr:street" v="East Saint John's Avenue"/><tag k="addr:housenumber" v="1208"/></node><node id="-9" lat="30.326676" lon="-97.692264" changeset="false"><tag k="addr:street" v="Cameron Road"/><tag k="addr:housenumber" v="7214"/></node><node id="-10" lat="30.326347" lon="-97.692394" changeset="false"><tag k="addr:street" v="Cameron Road"/><tag k="addr:housenumber" v="7204"/></node><node id="-11" lat="30.332702" lon="-97.692274" changeset="false"><tag k="addr:street" v="Blessing Avenue"/><tag k="addr:housenumber" v="7515"/></node><node id="-12" lat="30.32934" lon="-97.694118" changeset="false"><tag k="addr:street" v="Blessing Avenue"/><tag k="addr:housenumber" v="7215"/></node><node id="-13" lat="30.326381" lon="-97.692511" changeset="false"><tag k="addr:street" v="Cameron Road"/><tag k="addr:housenumber" v="7208"/></node><node id="-14" lat="30.333783" lon="-97.691627" changeset="false"><tag k="addr:street" v="Blessing Avenue"/><tag k="addr:housenumber" v="7611"/></node><node id="-15" lat="30.333514" lon="-97.691503" changeset="false"><tag k="addr:street" v="Blessing Avenue"/><tag k="addr:housenumber" v="7607"/></node><node id="-16" lat="30.329254" lon="-97.691269" changeset="false"><tag k="addr:street" v="Mc Kie Drive"/><tag k="addr:housenumber" v="1319"/></node><node id="-17" lat="30.330869" lon="-97.692066" changeset="false"><tag k="addr:street" v="Mc Kie Drive"/><tag k="addr:housenumber" v="1302"/></node><node id="-18" lat="30.329862" lon="-97.693511" changeset="false"><tag k="addr:street" v="Grand Canyon Drive"/><tag k="addr:housenumber" v="7304"/></node><node id="-19" lat="30.333297" lon="-97.691921" changeset="false"><tag k="addr:street" v="Blessing Avenue"/><tag k="addr:housenumber" v="7603"/></node><node id="-20" lat="30.334209" lon="-97.691868" changeset="false"><tag k="addr:street" v="Blessing Avenue"/><tag k="addr:housenumber" v="7614"/></node><node id="-21" lat="30.3341" lon="-97.691933" changeset="false"><tag k="addr:street" v="Blessing Avenue"/><tag k="addr:housenumber" v="7612"/></node><node id="-22" lat="30.33366" lon="-97.692999" changeset="false"><tag k="addr:street" v="Meador Avenue"/><tag k="addr:housenumber" v="7601"/></node><node id="-23" lat="30.329469" lon="-97.694045" changeset="false"><tag k="addr:street" v="Blessing Avenue"/><tag k="addr:housenumber" v="7217"/></node><node id="-24" lat="30.328723" lon="-97.694772" changeset="false"><tag k="addr:street" v="Blessing Avenue"/><tag k="addr:housenumber" v="7203"/></node><node id="-25" lat="30.33482" lon="-97.691562" changeset="false"><tag k="addr:street" v="East Anderson Lane"/><tag k="addr:housenumber" v="1129 1/2"/></node><node id="-26" lat="30.32718" lon="-97.693784" changeset="false"><tag k="addr:street" v="East Saint John's Avenue"/><tag k="addr:housenumber" v="1209"/></node><node id="-27" lat="30.330701" lon="-97.692461" changeset="false"><tag k="addr:street" v="Mc Kie Drive"/><tag k="addr:housenumber" v="1300"/></node><node id="-28" lat="30.330811" lon="-97.693179" changeset="false"><tag k="addr:street" v="Blessing Avenue"/><tag k="addr:housenumber" v="7401"/></node><node id="-29" lat="30.329221" lon="-97.694188" changeset="false"><tag k="addr:street" v="Blessing Avenue"/><tag k="addr:housenumber" v="7213"/></node><node id="-30" lat="30.330355" lon="-97.692372" changeset="false"><tag k="addr:street" v="Mc Kie Drive"/><tag k="addr:housenumber" v="1301"/></node><node id="-31" lat="30.329938" lon="-97.691606" changeset="false"><tag k="addr:street" v="Mc Kie Drive"/><tag k="addr:housenumber" v="1313"/></node><node id="-32" lat="30.326784" lon="-97.692196" changeset="false"><tag k="addr:street" v="Cameron Road"/><tag k="addr:housenumber" v="7216"/></node><node id="-33" lat="30.331594" lon="-97.69045" changeset="false"><tag k="addr:street" v="Blessing Avenue"/><tag k="addr:housenumber" v="7503"/></node><node id="-34" lat="30.331462" lon="-97.690569" changeset="false"><tag k="addr:street" v="Blessing Avenue"/><tag k="addr:housenumber" v="7501"/></node><node id="-35" lat="30.328888" lon="-97.690924" changeset="false"><tag k="addr:street" v="Cameron Road"/><tag k="addr:housenumber" v="7316"/></node><node id="-36" lat="30.328846" lon="-97.690892" changeset="false"><tag k="addr:street" v="Cameron Road"/><tag k="addr:housenumber" v="7316 1/2"/></node><node id="-37" lat="30.329482" lon="-97.6915" changeset="false"><tag k="addr:street" v="Mc Kie Cove"/><tag k="addr:housenumber" v="1327"/></node><node id="-38" lat="30.329426" lon="-97.691615" changeset="false"><tag k="addr:street" v="Mc Kie Cove"/><tag k="addr:housenumber" v="1325"/></node><node id="-39" lat="30.329605" lon="-97.691461" changeset="false"><tag k="addr:street" v="Mc Kie Cove"/><tag k="addr:housenumber" v="1331"/></node><node id="-40" lat="30.329648" lon="-97.691446" changeset="false"><tag k="addr:street" v="Mc Kie Cove"/><tag k="addr:housenumber" v="1329"/></node><node id="-41" lat="30.329537" lon="-97.692287" changeset="false"><tag k="addr:street" v="Mc Kie Cove"/><tag k="addr:housenumber" v="1311"/></node><node id="-42" lat="30.329603" lon="-97.692425" changeset="false"><tag k="addr:street" v="Mc Kie Cove"/><tag k="addr:housenumber" v="1309"/></node><node id="-43" lat="30.329778" lon="-97.692534" changeset="false"><tag k="addr:street" v="Mc Kie Cove"/><tag k="addr:housenumber" v="1305"/></node><node id="-44" lat="30.32966" lon="-97.692534" changeset="false"><tag k="addr:street" v="Mc Kie Cove"/><tag k="addr:housenumber" v="1307"/></node><node id="-45" lat="30.329778" lon="-97.691874" changeset="false"><tag k="addr:street" v="Mc Kie Cove"/><tag k="addr:housenumber" v="1308"/></node><node id="-46" lat="30.329776" lon="-97.691773" changeset="false"><tag k="addr:street" v="Mc Kie Cove"/><tag k="addr:housenumber" v="1310"/></node><node id="-47" lat="30.330212" lon="-97.691987" changeset="false"><tag k="addr:street" v="Mc Kie Drive"/><tag k="addr:housenumber" v="1305"/></node><node id="-48" lat="30.330272" lon="-97.692079" changeset="false"><tag k="addr:street" v="Mc Kie Drive"/><tag k="addr:housenumber" v="1303"/></node><node id="-49" lat="30.329909" lon="-97.69192" changeset="false"><tag k="addr:street" v="Mc Kie Cove"/><tag k="addr:housenumber" v="1306"/></node><node id="-50" lat="30.330002" lon="-97.692051" changeset="false"><tag k="addr:street" v="Mc Kie Cove"/><tag k="addr:housenumber" v="1304"/></node><node id="-51" lat="30.330085" lon="-97.691792" changeset="false"><tag k="addr:street" v="Mc Kie Drive"/><tag k="addr:housenumber" v="1309"/></node><node id="-52" lat="30.330163" lon="-97.691879" changeset="false"><tag k="addr:street" v="Mc Kie Drive"/><tag k="addr:housenumber" v="1307"/></node><node id="-53" lat="30.329877" lon="-97.692535" changeset="false"><tag k="addr:street" v="Mc Kie Cove"/><tag k="addr:housenumber" v="1303"/></node><node id="-54" lat="30.329955" lon="-97.692451" changeset="false"><tag k="addr:street" v="Mc Kie Cove"/><tag k="addr:housenumber" v="1301"/></node><node id="-55" lat="30.329321" lon="-97.691995" changeset="false"><tag k="addr:street" v="Mc Kie Cove"/><tag k="addr:housenumber" v="1317"/></node><node id="-56" lat="30.329305" lon="-97.691873" changeset="false"><tag k="addr:street" v="Mc Kie Cove"/><tag k="addr:housenumber" v="1319"/></node><node id="-57" lat="30.329334" lon="-97.691665" changeset="false"><tag k="addr:street" v="Mc Kie Cove"/><tag k="addr:housenumber" v="1323"/></node><node id="-58" lat="30.329315" lon="-97.691791" changeset="false"><tag k="addr:street" v="Mc Kie Cove"/><tag k="addr:housenumber" v="1321"/></node><node id="-59" lat="30.329501" lon="-97.692179" changeset="false"><tag k="addr:street" v="Mc Kie Cove"/><tag k="addr:housenumber" v="1313"/></node><node id="-60" lat="30.329441" lon="-97.692062" changeset="false"><tag k="addr:street" v="Mc Kie Cove"/><tag k="addr:housenumber" v="1315"/></node><node id="-61" lat="30.328546" lon="-97.693625" changeset="false"><tag k="addr:street" v="Radcliff Drive"/><tag k="addr:housenumber" v="1201"/></node><node id="-62" lat="30.328549" lon="-97.693766" changeset="false"><tag k="addr:street" v="Grand Canyon Drive"/><tag k="addr:housenumber" v="7205"/></node></osm>