<?xml version="1.0" encoding="UTF-8"?><osm version="0.6" generator="github.com/aaronlidman/osm-and-geojson"><node id="-1" lat="30.264033" lon="-97.690249" changeset="false"><tag k="addr:street" v="Brookswood Avenue"/><tag k="addr:housenumber" v="1100"/><tag k="coa:place_id" v="3084796"/></node><node id="-2" lat="30.266047" lon="-97.688551" changeset="false"><tag k="addr:street" v="Brookswood Avenue"/><tag k="addr:housenumber" v="1135"/><tag k="coa:place_id" v="3084798"/></node><node id="-3" lat="30.2729" lon="-97.694665" changeset="false"><tag k="addr:street" v="Abbate Circle"/><tag k="addr:housenumber" v="3602"/><tag k="coa:place_id" v="257408"/></node><node id="-4" lat="30.267661" lon="-97.693483" changeset="false"><tag k="addr:street" v="Springdale Road"/><tag k="addr:housenumber" v="1023"/><tag k="coa:place_id" v="710380"/></node><node id="-5" lat="30.268083" lon="-97.691554" changeset="false"><tag k="addr:street" v="Alf Avenue"/><tag k="addr:housenumber" v="4800"/><tag k="coa:place_id" v="258164"/></node><node id="-6" lat="30.266437" lon="-97.688922" changeset="false"><tag k="addr:street" v="Alf Avenue"/><tag k="addr:housenumber" v="5007"/><tag k="coa:place_id" v="226240"/></node><node id="-7" lat="30.268253" lon="-97.689921" changeset="false"><tag k="addr:street" v="Don Ann Street"/><tag k="addr:housenumber" v="1133"/><tag k="coa:place_id" v="258374"/></node><node id="-8" lat="30.272975" lon="-97.694888" changeset="false"><tag k="addr:street" v="Gunter Street"/><tag k="addr:housenumber" v="1147 3/4"/><tag k="coa:place_id" v="257486"/></node><node id="-9" lat="30.26967" lon="-97.693292" changeset="false"><tag k="addr:street" v="Munson Street"/><tag k="addr:housenumber" v="3719"/><tag k="coa:place_id" v="5115798"/></node><node id="-10" lat="30.266904" lon="-97.689926" changeset="false"><tag k="addr:street" v="Alf Avenue"/><tag k="addr:housenumber" v="4909"/><tag k="coa:place_id" v="5121618"/></node><node id="-11" lat="30.265789" lon="-97.695114" changeset="false"><tag k="addr:street" v="Springdale Road"/><tag k="addr:housenumber" v="1005"/><tag k="coa:place_id" v="90416"/></node><node id="-12" lat="30.273689" lon="-97.694388" changeset="false"><tag k="addr:street" v="Oak Springs Drive"/><tag k="addr:housenumber" v="3611"/><tag k="coa:place_id" v="257180"/></node><node id="-13" lat="30.265475" lon="-97.688948" changeset="false"><tag k="addr:street" v="Brookswood Avenue"/><tag k="addr:housenumber" v="1125"/><tag k="coa:place_id" v="3084801"/></node><node id="-14" lat="30.266876" lon="-97.695615" changeset="false"><tag k="addr:street" v="Airport Boulevard"/><tag k="addr:housenumber" v="1127"/><tag k="coa:place_id" v="169895"/></node><node id="-15" lat="30.272127" lon="-97.694426" changeset="false"><tag k="addr:street" v="Wayneroy Drive"/><tag k="addr:housenumber" v="1144"/><tag k="coa:place_id" v="257462"/></node><node id="-16" lat="30.267847" lon="-97.689284" changeset="false"><tag k="addr:street" v="Saucedo Street"/><tag k="addr:housenumber" v="1128"/><tag k="coa:place_id" v="258092"/></node><node id="-17" lat="30.270854" lon="-97.692659" changeset="false"><tag k="addr:street" v="Springdale Road"/><tag k="addr:housenumber" v="1050"/><tag k="coa:place_id" v="3086844"/></node><node id="-18" lat="30.271743" lon="-97.695486" changeset="false"><tag k="addr:street" v="Gunter Street"/><tag k="addr:housenumber" v="1143 1/2"/><tag k="coa:place_id" v="257570"/></node><node id="-19" lat="30.270946" lon="-97.691774" changeset="false"><tag k="addr:street" v="Springdale Road"/><tag k="addr:housenumber" v="1053"/><tag k="coa:place_id" v="3391895"/></node><node id="-20" lat="30.272963" lon="-97.691419" changeset="false"><tag k="addr:street" v="Springdale Road"/><tag k="addr:housenumber" v="1076"/><tag k="coa:place_id" v="5124386"/></node><node id="-21" lat="30.269719" lon="-97.693457" changeset="false"><tag k="addr:street" v="Munson Street"/><tag k="addr:housenumber" v="3715"/><tag k="coa:place_id" v="5115796"/></node><node id="-22" lat="30.269694" lon="-97.69071" changeset="false"><tag k="addr:street" v="Prock Lane"/><tag k="addr:housenumber" v="4713"/><tag k="coa:place_id" v="258620"/></node><node id="-23" lat="30.270746" lon="-97.695284" changeset="false"><tag k="addr:street" v="Munson Street"/><tag k="addr:housenumber" v="3608"/><tag k="coa:place_id" v="257690"/></node><node id="-24" lat="30.270643" lon="-97.694953" changeset="false"><tag k="addr:street" v="Munson Street"/><tag k="addr:housenumber" v="3614"/><tag k="coa:place_id" v="136830"/></node><node id="-25" lat="30.266624" lon="-97.688685" changeset="false"><tag k="addr:street" v="Brookswood Avenue"/><tag k="addr:housenumber" v="1140"/><tag k="coa:place_id" v="1025066"/></node><node id="-26" lat="30.264044" lon="-97.689852" changeset="false"><tag k="addr:street" v="Brookswood Avenue"/><tag k="addr:housenumber" v="1103"/><tag k="coa:place_id" v="257786"/></node><node id="-27" lat="30.273593" lon="-97.696613" changeset="false"><tag k="addr:street" v="Oak Springs Drive"/><tag k="addr:housenumber" v="3313"/><tag k="coa:place_id" v="110641"/></node><node id="-28" lat="30.273492" lon="-97.693898" changeset="false"><tag k="addr:street" v="Oak Springs Drive"/><tag k="addr:housenumber" v="3609"/><tag k="coa:place_id" v="257192"/></node><node id="-29" lat="30.270604" lon="-97.696056" changeset="false"><tag k="addr:street" v="Gunter Street"/><tag k="addr:housenumber" v="1139 3/4"/><tag k="coa:place_id" v="5096146"/></node><node id="-30" lat="30.267612" lon="-97.687552" changeset="false"><tag k="addr:street" v="Brookswood Avenue"/><tag k="addr:housenumber" v="1157"/><tag k="coa:place_id" v="484942"/></node><node id="-31" lat="30.268417" lon="-97.693305" changeset="false"><tag k="addr:street" v="Alf Avenue"/><tag k="addr:housenumber" v="4603"/><tag k="coa:place_id" v="257828"/></node><node id="-32" lat="30.269802" lon="-97.690992" changeset="false"><tag k="addr:street" v="Prock Lane"/><tag k="addr:housenumber" v="4709"/><tag k="coa:place_id" v="3377433"/></node><node id="-33" lat="30.2693" lon="-97.690213" changeset="false"><tag k="addr:street" v="Prock Lane"/><tag k="addr:housenumber" v="4805"/><tag k="coa:place_id" v="3357871"/></node><node id="-34" lat="30.265762" lon="-97.689265" changeset="false"><tag k="addr:street" v="Brookswood Avenue"/><tag k="addr:housenumber" v="1128"/><tag k="coa:place_id" v="3070722"/></node><node id="-35" lat="30.268091" lon="-97.692871" changeset="false"><tag k="addr:street" v="Alf Avenue"/><tag k="addr:housenumber" v="4609"/><tag k="coa:place_id" v="257846"/></node><node id="-36" lat="30.266911" lon="-97.694206" changeset="false"><tag k="addr:street" v="Springdale Road"/><tag k="addr:housenumber" v="1017"/><tag k="coa:place_id" v="90422"/></node><node id="-37" lat="30.273708" lon="-97.695434" changeset="false"><tag k="addr:street" v="Oak Springs Drive"/><tag k="addr:housenumber" v="3507"/><tag k="coa:place_id" v="147862"/></node><node id="-38" lat="30.2675" lon="-97.693944" changeset="false"><tag k="addr:street" v="Springdale Road"/><tag k="addr:housenumber" v="1019"/><tag k="coa:place_id" v="90434"/></node><node id="-39" lat="30.273676" lon="-97.69586" changeset="false"><tag k="addr:street" v="Oak Springs Drive"/><tag k="addr:housenumber" v="3405"/><tag k="coa:place_id" v="257228"/></node><node id="-40" lat="30.269544" lon="-97.696355" changeset="false"><tag k="addr:street" v="Airport Boulevard"/><tag k="addr:housenumber" v="1135"/><tag k="coa:place_id" v="257270"/></node><node id="-41" lat="30.263975" lon="-97.690109" changeset="false"><tag k="addr:street" v="Brookswood Avenue"/><tag k="addr:housenumber" v="1101"/><tag k="coa:place_id" v="422392"/></node><node id="-42" lat="30.268612" lon="-97.689707" changeset="false"><tag k="addr:street" v="Don Ann Street"/><tag k="addr:housenumber" v="1139"/><tag k="coa:place_id" v="258392"/></node><node id="-43" lat="30.264796" lon="-97.688861" changeset="false"><tag k="addr:street" v="Wilcox Avenue"/><tag k="addr:housenumber" v="5109 1/2"/><tag k="coa:place_id" v="5243876"/></node><node id="-44" lat="30.270417" lon="-97.696041" changeset="false"><tag k="addr:street" v="Gunter Street"/><tag k="addr:housenumber" v="1139 1/2"/><tag k="coa:place_id" v="257606"/></node><node id="-45" lat="30.269746" lon="-97.693545" changeset="false"><tag k="addr:street" v="Munson Street"/><tag k="addr:housenumber" v="3713"/><tag k="coa:place_id" v="5115795"/></node><node id="-46" lat="30.269692" lon="-97.693373" changeset="false"><tag k="addr:street" v="Munson Street"/><tag k="addr:housenumber" v="3717"/><tag k="coa:place_id" v="5115797"/></node><node id="-47" lat="30.269626" lon="-97.693133" changeset="false"><tag k="addr:street" v="Munson Street"/><tag k="addr:housenumber" v="3723"/><tag k="coa:place_id" v="5115800"/></node><node id="-48" lat="30.268373" lon="-97.688548" changeset="false"><tag k="addr:street" v="Saucedo Street"/><tag k="addr:housenumber" v="1137"/><tag k="coa:place_id" v="3391897"/></node><node id="-49" lat="30.269904" lon="-97.690215" changeset="false"><tag k="addr:street" v="Prock Lane"/><tag k="addr:housenumber" v="4800"/><tag k="coa:place_id" v="258692"/></node><node id="-50" lat="30.265752" lon="-97.690644" changeset="false"><tag k="addr:street" v="Saucedo Street"/><tag k="addr:housenumber" v="1100"/><tag k="coa:place_id" v="3032324"/></node><node id="-51" lat="30.265582" lon="-97.690293" changeset="false"><tag k="addr:street" v="Saucedo Street"/><tag k="addr:housenumber" v="1101"/><tag k="coa:place_id" v="3032325"/></node><node id="-52" lat="30.270259" lon="-97.696187" changeset="false"><tag k="addr:street" v="Gunter Street"/><tag k="addr:housenumber" v="1139"/><tag k="coa:place_id" v="3345497"/></node><node id="-53" lat="30.269669" lon="-97.689808" changeset="false"><tag k="addr:street" v="Prock Lane"/><tag k="addr:housenumber" v="4804"/><tag k="coa:place_id" v="3391896"/></node><node id="-54" lat="30.271497" lon="-97.695945" changeset="false"><tag k="addr:street" v="Gunter Street"/><tag k="addr:housenumber" v="1142 1/4"/><tag k="coa:place_id" v="257330"/></node><node id="-55" lat="30.26816" lon="-97.691727" changeset="false"><tag k="addr:street" v="Alf Avenue"/><tag k="addr:housenumber" v="4708"/><tag k="coa:place_id" v="3377431"/></node><node id="-56" lat="30.270716" lon="-97.696476" changeset="false"><tag k="addr:street" v="Gunter Street"/><tag k="addr:housenumber" v="1138 1/4"/><tag k="coa:place_id" v="245975"/></node><node id="-57" lat="30.266215" lon="-97.694594" changeset="false"><tag k="addr:street" v="Springdale Road"/><tag k="addr:housenumber" v="1011"/><tag k="coa:place_id" v="90410"/></node><node id="-58" lat="30.267901" lon="-97.692111" changeset="false"><tag k="addr:street" v="Alf Avenue"/><tag k="addr:housenumber" v="4707"/><tag k="coa:place_id" v="3377430"/></node><node id="-59" lat="30.272413" lon="-97.695747" changeset="false"><tag k="addr:street" v="Gunter Street"/><tag k="addr:housenumber" v="1144 3/4"/><tag k="coa:place_id" v="447832"/></node><node id="-60" lat="30.268535" lon="-97.692373" changeset="false"><tag k="addr:street" v="Alf Avenue"/><tag k="addr:housenumber" v="4700"/><tag k="coa:place_id" v="258188"/></node><node id="-61" lat="30.266856" lon="-97.689923" changeset="false"><tag k="addr:street" v="Saucedo Street"/><tag k="addr:housenumber" v="1116"/><tag k="coa:place_id" v="192771"/></node><node id="-62" lat="30.26956" lon="-97.690984" changeset="false"><tag k="addr:street" v="Prock Lane"/><tag k="addr:housenumber" v="4711"/><tag k="coa:place_id" v="258614"/></node><node id="-63" lat="30.269645" lon="-97.693204" changeset="false"><tag k="addr:street" v="Munson Street"/><tag k="addr:housenumber" v="3721"/><tag k="coa:place_id" v="5115799"/></node><node id="-64" lat="30.268123" lon="-97.688677" changeset="false"><tag k="addr:street" v="Saucedo Street"/><tag k="addr:housenumber" v="1135"/><tag k="coa:place_id" v="3032327"/></node><node id="-65" lat="30.271857" lon="-97.693044" changeset="false"><tag k="addr:street" v="Springdale Road"/><tag k="addr:housenumber" v="1054"/><tag k="coa:place_id" v="3258823"/></node><node id="-66" lat="30.269099" lon="-97.696256" changeset="false"><tag k="addr:street" v="Airport Boulevard"/><tag k="addr:housenumber" v="1131"/><tag k="coa:place_id" v="694047"/></node><node id="-67" lat="30.270359" lon="-97.692118" changeset="false"><tag k="addr:street" v="Springdale Road"/><tag k="addr:housenumber" v="1049 1/2"/><tag k="coa:place_id" v="3096170"/></node><node id="-68" lat="30.273584" lon="-97.695669" changeset="false"><tag k="addr:street" v="Oak Springs Drive"/><tag k="addr:housenumber" v="3501"/><tag k="coa:place_id" v="257222"/></node><node id="-69" lat="30.270304" lon="-97.694015" changeset="false"><tag k="addr:street" v="Munson Street"/><tag k="addr:housenumber" v="3704"/><tag k="coa:place_id" v="257744"/></node><node id="-70" lat="30.272282" lon="-97.694162" changeset="false"><tag k="addr:street" v="Abbate Circle"/><tag k="addr:housenumber" v="3614"/><tag k="coa:place_id" v="241622"/></node><node id="-71" lat="30.264931" lon="-97.689238" changeset="false"><tag k="addr:street" v="Brookswood Avenue"/><tag k="addr:housenumber" v="1117"/><tag k="coa:place_id" v="3084795"/></node><node id="-72" lat="30.267965" lon="-97.69428" changeset="false"><tag k="addr:street" v="Springdale Road"/><tag k="addr:housenumber" v="1020"/><tag k="coa:place_id" v="3185406"/></node><node id="-73" lat="30.271368" lon="-97.691325" changeset="false"><tag k="addr:street" v="Springdale Road"/><tag k="addr:housenumber" v="1057"/><tag k="coa:place_id" v="3072801"/></node><node id="-74" lat="30.267833" lon="-97.691926" changeset="false"><tag k="addr:street" v="Alf Avenue"/><tag k="addr:housenumber" v="4709"/><tag k="coa:place_id" v="257870"/></node><node id="-75" lat="30.26818" lon="-97.692633" changeset="false"><tag k="addr:street" v="Alf Avenue"/><tag k="addr:housenumber" v="4701"/><tag k="coa:place_id" v="257852"/></node><node id="-76" lat="30.268503" lon="-97.689778" changeset="false"><tag k="addr:street" v="Don Ann Street"/><tag k="addr:housenumber" v="1137"/><tag k="coa:place_id" v="258386"/></node><node id="-77" lat="30.265645" lon="-97.689339" changeset="false"><tag k="addr:street" v="Brookswood Avenue"/><tag k="addr:housenumber" v="1126"/><tag k="coa:place_id" v="3070723"/></node><node id="-78" lat="30.267362" lon="-97.689128" changeset="false"><tag k="addr:street" v="Saucedo Street"/><tag k="addr:housenumber" v="1125"/><tag k="coa:place_id" v="127348"/></node><node id="-79" lat="30.270714" lon="-97.691875" changeset="false"><tag k="addr:street" v="Prock Lane"/><tag k="addr:housenumber" v="4604"/><tag k="coa:place_id" v="3210185"/></node><node id="-80" lat="30.270752" lon="-97.69197" changeset="false"><tag k="addr:street" v="Springdale Road"/><tag k="addr:housenumber" v="1051"/><tag k="coa:place_id" v="258566"/></node><node id="-81" lat="30.270298" lon="-97.6953" changeset="false"><tag k="addr:street" v="Munson Street"/><tag k="addr:housenumber" v="3609"/><tag k="coa:place_id" v="257660"/></node><node id="-82" lat="30.27034" lon="-97.695494" changeset="false"><tag k="addr:street" v="Munson Street"/><tag k="addr:housenumber" v="3611"/><tag k="coa:place_id" v="257654"/></node></osm>