<?xml version="1.0" encoding="UTF-8"?><osm version="0.6" generator="github.com/aaronlidman/osm-and-geojson"><node id="-1" lat="30.472805" lon="-97.630075" changeset="false"><tag k="addr:street" v="Catumet Drive"/><tag k="addr:housenumber" v="805"/></node><node id="-2" lat="30.469731" lon="-97.633381" changeset="false"><tag k="addr:street" v="Dansworth Cove"/><tag k="addr:housenumber" v="903"/></node><node id="-3" lat="30.470313" lon="-97.633519" changeset="false"><tag k="addr:street" v="Dansworth Cove"/><tag k="addr:housenumber" v="906"/></node><node id="-4" lat="30.468773" lon="-97.62262" changeset="false"><tag k="addr:street" v="Glacier Bay Street"/><tag k="addr:housenumber" v="18020"/></node><node id="-5" lat="30.468713" lon="-97.620542" changeset="false"><tag k="addr:street" v="Great Basin Avenue"/><tag k="addr:housenumber" v="18032"/></node><node id="-6" lat="30.462523" lon="-97.620057" changeset="false"><tag k="addr:street" v="North Cascades Avenue"/><tag k="addr:housenumber" v="513"/></node><node id="-7" lat="30.477903" lon="-97.625077" changeset="false"><tag k="addr:street" v="Pencil Cactus Drive"/><tag k="addr:housenumber" v="19108"/></node><node id="-8" lat="30.476813" lon="-97.624573" changeset="false"><tag k="addr:street" v="Pencil Cactus Drive"/><tag k="addr:housenumber" v="19132"/></node><node id="-9" lat="30.467817" lon="-97.620229" changeset="false"><tag k="addr:street" v="Great Basin Avenue"/><tag k="addr:housenumber" v="18004"/></node><node id="-10" lat="30.476737" lon="-97.62704" changeset="false"><tag k="addr:street" v="Pencil Cactus Drive"/><tag k="addr:housenumber" v="18812"/></node><node id="-11" lat="30.463421" lon="-97.620767" changeset="false"><tag k="addr:street" v="North Cascades Avenue"/><tag k="addr:housenumber" v="420"/></node><node id="-12" lat="30.475033" lon="-97.623969" changeset="false"><tag k="addr:street" v="Pencil Cactus Drive"/><tag k="addr:housenumber" v="19224"/></node><node id="-13" lat="30.474794" lon="-97.626528" changeset="false"><tag k="addr:street" v="Autumn Sage Way"/><tag k="addr:housenumber" v="612"/></node><node id="-14" lat="30.474846" lon="-97.627046" changeset="false"><tag k="addr:street" v="Autumn Sage Way"/><tag k="addr:housenumber" v="617"/></node><node id="-15" lat="30.475635" lon="-97.626188" changeset="false"><tag k="addr:street" v="Star Gazer Way"/><tag k="addr:housenumber" v="18801"/></node><node id="-16" lat="30.475293" lon="-97.626867" changeset="false"><tag k="addr:street" v="Autumn Sage Way"/><tag k="addr:housenumber" v="704"/></node><node id="-17" lat="30.477315" lon="-97.627133" changeset="false"><tag k="addr:street" v="Pencil Cactus Drive"/><tag k="addr:housenumber" v="18813"/></node><node id="-18" lat="30.479273" lon="-97.628054" changeset="false"><tag k="addr:street" v="Star Gazer Way"/><tag k="addr:housenumber" v="18520"/></node><node id="-19" lat="30.479023" lon="-97.627738" changeset="false"><tag k="addr:street" v="Star Gazer Way"/><tag k="addr:housenumber" v="18528"/></node><node id="-20" lat="30.478682" lon="-97.627462" changeset="false"><tag k="addr:street" v="Star Gazer Way"/><tag k="addr:housenumber" v="18536"/></node><node id="-21" lat="30.47792" lon="-97.627171" changeset="false"><tag k="addr:street" v="Star Gazer Way"/><tag k="addr:housenumber" v="18612"/></node><node id="-22" lat="30.467784" lon="-97.631054" changeset="false"><tag k="addr:street" v="West Pflugerville Parkway"/><tag k="addr:housenumber" v="550 1/2"/></node><node id="-23" lat="30.473716" lon="-97.626352" changeset="false"><tag k="addr:street" v="Willow Walk Drive"/><tag k="addr:housenumber" v="609"/></node><node id="-24" lat="30.474519" lon="-97.62796" changeset="false"><tag k="addr:street" v="Willow Walk Drive"/><tag k="addr:housenumber" v="720"/></node><node id="-25" lat="30.465035" lon="-97.621221" changeset="false"><tag k="addr:street" v="Crater Lake Drive (E)"/><tag k="addr:housenumber" v="316"/></node><node id="-26" lat="30.464726" lon="-97.620652" changeset="false"><tag k="addr:street" v="Crater Lake Drive (E)"/><tag k="addr:housenumber" v="403"/></node><node id="-27" lat="30.464784" lon="-97.620468" changeset="false"><tag k="addr:street" v="Crater Lake Drive (E)"/><tag k="addr:housenumber" v="409"/></node><node id="-28" lat="30.464992" lon="-97.621349" changeset="false"><tag k="addr:street" v="Crater Lake Drive (E)"/><tag k="addr:housenumber" v="312"/></node><node id="-29" lat="30.469637" lon="-97.629548" changeset="false"><tag k="addr:street" v="Betterman Drive"/><tag k="addr:housenumber" v="608"/></node><node id="-30" lat="30.469843" lon="-97.632591" changeset="false"><tag k="addr:street" v="Palitine Lane"/><tag k="addr:housenumber" v="715"/></node><node id="-31" lat="30.470496" lon="-97.621748" changeset="false"><tag k="addr:street" v="Great Basin Avenue"/><tag k="addr:housenumber" v="18140"/></node><node id="-32" lat="30.467328" lon="-97.620044" changeset="false"><tag k="addr:street" v="Great Basin Avenue"/><tag k="addr:housenumber" v="17952"/></node><node id="-33" lat="30.464808" lon="-97.619184" changeset="false"><tag k="addr:street" v="Great Basin Avenue"/><tag k="addr:housenumber" v="17832"/></node><node id="-34" lat="30.462748" lon="-97.61844" changeset="false"><tag k="addr:street" v="Great Basin Avenue"/><tag k="addr:housenumber" v="17712"/></node><node id="-35" lat="30.468717" lon="-97.632383" changeset="false"><tag k="addr:street" v="Dansworth Drive"/><tag k="addr:housenumber" v="17625"/></node><node id="-36" lat="30.478631" lon="-97.624873" changeset="false"><tag k="addr:street" v="Pencil Cactus Drive"/><tag k="addr:housenumber" v="19025"/></node><node id="-37" lat="30.47856" lon="-97.625734" changeset="false"><tag k="addr:street" v="Pencil Cactus Drive"/><tag k="addr:housenumber" v="19009"/></node><node id="-38" lat="30.478736" lon="-97.625344" changeset="false"><tag k="addr:street" v="Pencil Cactus Drive"/><tag k="addr:housenumber" v="19017"/></node><node id="-39" lat="30.477472" lon="-97.624403" changeset="false"><tag k="addr:street" v="Pencil Cactus Drive"/><tag k="addr:housenumber" v="19121"/></node><node id="-40" lat="30.477355" lon="-97.62482" changeset="false"><tag k="addr:street" v="Pencil Cactus Drive"/><tag k="addr:housenumber" v="19120"/></node><node id="-41" lat="30.474544" lon="-97.626485" changeset="false"><tag k="addr:street" v="Autumn Sage Way"/><tag k="addr:housenumber" v="608"/></node><node id="-42" lat="30.475016" lon="-97.62659" changeset="false"><tag k="addr:street" v="Autumn Sage Way"/><tag k="addr:housenumber" v="616"/></node><node id="-43" lat="30.476299" lon="-97.625981" changeset="false"><tag k="addr:street" v="Star Gazer Way"/><tag k="addr:housenumber" v="18724"/></node><node id="-44" lat="30.475832" lon="-97.626288" changeset="false"><tag k="addr:street" v="Star Gazer Way"/><tag k="addr:housenumber" v="18729"/></node><node id="-45" lat="30.475169" lon="-97.626703" changeset="false"><tag k="addr:street" v="Autumn Sage Way"/><tag k="addr:housenumber" v="700"/></node><node id="-46" lat="30.474516" lon="-97.624888" changeset="false"><tag k="addr:street" v="Lonesome Lilly Way"/><tag k="addr:housenumber" v="709"/></node><node id="-47" lat="30.47583" lon="-97.625268" changeset="false"><tag k="addr:street" v="Lonesome Lilly Way"/><tag k="addr:housenumber" v="817"/></node><node id="-48" lat="30.476033" lon="-97.624813" changeset="false"><tag k="addr:street" v="Lonesome Lilly Way"/><tag k="addr:housenumber" v="816"/></node><node id="-49" lat="30.476207" lon="-97.625469" changeset="false"><tag k="addr:street" v="Lonesome Lilly Way"/><tag k="addr:housenumber" v="901"/></node><node id="-50" lat="30.473582" lon="-97.625952" changeset="false"><tag k="addr:street" v="Willow Walk Drive"/><tag k="addr:housenumber" v="601"/></node><node id="-51" lat="30.465047" lon="-97.621145" changeset="false"><tag k="addr:street" v="Crater Lake Drive (E)"/><tag k="addr:housenumber" v="318"/></node><node id="-52" lat="30.465198" lon="-97.620494" changeset="false"><tag k="addr:street" v="Crater Lake Drive (E)"/><tag k="addr:housenumber" v="410"/></node><node id="-53" lat="30.46471" lon="-97.620713" changeset="false"><tag k="addr:street" v="Crater Lake Drive (E)"/><tag k="addr:housenumber" v="401"/></node><node id="-54" lat="30.464747" lon="-97.620595" changeset="false"><tag k="addr:street" v="Crater Lake Drive (E)"/><tag k="addr:housenumber" v="405"/></node><node id="-55" lat="30.479089" lon="-97.629076" changeset="false"><tag k="addr:street" v="Star Gazer Way"/><tag k="addr:housenumber" v="18501"/></node><node id="-56" lat="30.478975" lon="-97.628315" changeset="false"><tag k="addr:street" v="Star Gazer Way"/><tag k="addr:housenumber" v="18521"/></node><node id="-57" lat="30.478807" lon="-97.628105" changeset="false"><tag k="addr:street" v="Star Gazer Way"/><tag k="addr:housenumber" v="18529"/></node><node id="-58" lat="30.47937" lon="-97.628261" changeset="false"><tag k="addr:street" v="Star Gazer Way"/><tag k="addr:housenumber" v="18516"/></node><node id="-59" lat="30.477686" lon="-97.627555" changeset="false"><tag k="addr:street" v="Star Gazer Way"/><tag k="addr:housenumber" v="18613"/></node><node id="-60" lat="30.478104" lon="-97.627252" changeset="false"><tag k="addr:street" v="Star Gazer Way"/><tag k="addr:housenumber" v="18608"/></node><node id="-61" lat="30.473125" lon="-97.624019" changeset="false"><tag k="addr:street" v="Willow Walk Drive"/><tag k="addr:housenumber" v="409"/></node><node id="-62" lat="30.469288" lon="-97.623193" changeset="false"><tag k="addr:street" v="Wilke Ridge Lane"/><tag k="addr:housenumber" v="18008"/></node><node id="-63" lat="30.472963" lon="-97.628119" changeset="false"><tag k="addr:street" v="Catumet Cove"/><tag k="addr:housenumber" v="18021"/></node><node id="-64" lat="30.47252" lon="-97.627547" changeset="false"><tag k="addr:street" v="Catumet Drive"/><tag k="addr:housenumber" v="600"/></node><node id="-65" lat="30.471111" lon="-97.624279" changeset="false"><tag k="addr:street" v="Catumet Drive"/><tag k="addr:housenumber" v="300"/></node><node id="-66" lat="30.464862" lon="-97.625994" changeset="false"><tag k="addr:street" v="West Pflugerville Parkway"/><tag k="addr:housenumber" v="100"/></node><node id="-67" lat="30.46743" lon="-97.623474" changeset="false"><tag k="addr:street" v="Glacier Bay Street"/><tag k="addr:housenumber" v="17912"/></node><node id="-68" lat="30.465441" lon="-97.621431" changeset="false"><tag k="addr:street" v="Kenai Fjords Drive"/><tag k="addr:housenumber" v="17904"/></node><node id="-69" lat="30.47884" lon="-97.628853" changeset="false"><tag k="addr:street" v="Springbrook Road"/><tag k="addr:housenumber" v="309"/></node><node id="-70" lat="30.463128" lon="-97.620175" changeset="false"><tag k="addr:street" v="North Cascades Avenue"/><tag k="addr:housenumber" v="504"/></node><node id="-71" lat="30.47846" lon="-97.625932" changeset="false"><tag k="addr:street" v="Pencil Cactus Drive"/><tag k="addr:housenumber" v="19005"/></node><node id="-72" lat="30.477902" lon="-97.625636" changeset="false"><tag k="addr:street" v="Lonesome Lilly Way"/><tag k="addr:housenumber" v="1012"/></node><node id="-73" lat="30.477654" lon="-97.624486" changeset="false"><tag k="addr:street" v="Pencil Cactus Drive"/><tag k="addr:housenumber" v="19117"/></node><node id="-74" lat="30.478082" lon="-97.625153" changeset="false"><tag k="addr:street" v="Pencil Cactus Drive"/><tag k="addr:housenumber" v="19104"/></node><node id="-75" lat="30.477538" lon="-97.62491" changeset="false"><tag k="addr:street" v="Pencil Cactus Drive"/><tag k="addr:housenumber" v="19116"/></node><node id="-76" lat="30.475418" lon="-97.624064" changeset="false"><tag k="addr:street" v="Pencil Cactus Drive"/><tag k="addr:housenumber" v="19216"/></node><node id="-77" lat="30.462344" lon="-97.619669" changeset="false"><tag k="addr:street" v="North Cascades Avenue"/><tag k="addr:housenumber" v="521"/></node><node id="-78" lat="30.462245" lon="-97.619475" changeset="false"><tag k="addr:street" v="North Cascades Avenue"/><tag k="addr:housenumber" v="601"/></node><node id="-79" lat="30.461647" lon="-97.618265" changeset="false"><tag k="addr:street" v="North Cascades Avenue"/><tag k="addr:housenumber" v="701"/></node><node id="-80" lat="30.474016" lon="-97.624539" changeset="false"><tag k="addr:street" v="Lonesome Lilly Way"/><tag k="addr:housenumber" v="617"/></node><node id="-81" lat="30.474308" lon="-97.624279" changeset="false"><tag k="addr:street" v="Lonesome Lilly Way"/><tag k="addr:housenumber" v="700"/></node><node id="-82" lat="30.474533" lon="-97.624352" changeset="false"><tag k="addr:street" v="Lonesome Lilly Way"/><tag k="addr:housenumber" v="704"/></node><node id="-83" lat="30.475444" lon="-97.62518" changeset="false"><tag k="addr:street" v="Lonesome Lilly Way"/><tag k="addr:housenumber" v="809"/></node><node id="-84" lat="30.477004" lon="-97.625784" changeset="false"><tag k="addr:street" v="Lonesome Lilly Way"/><tag k="addr:housenumber" v="917"/></node><node id="-85" lat="30.477677" lon="-97.62562" changeset="false"><tag k="addr:street" v="Lonesome Lilly Way"/><tag k="addr:housenumber" v="1008"/></node><node id="-86" lat="30.480641" lon="-97.626959" changeset="false"><tag k="addr:street" v="New Meister Lane"/><tag k="addr:housenumber" v="901"/></node><node id="-87" lat="30.478416" lon="-97.627879" changeset="false"><tag k="addr:street" v="Star Gazer Way"/><tag k="addr:housenumber" v="18537"/></node><node id="-88" lat="30.478246" lon="-97.627792" changeset="false"><tag k="addr:street" v="Star Gazer Way"/><tag k="addr:housenumber" v="18601"/></node><node id="-89" lat="30.47831" lon="-97.627311" changeset="false"><tag k="addr:street" v="Star Gazer Way"/><tag k="addr:housenumber" v="18604"/></node><node id="-90" lat="30.474623" lon="-97.626953" changeset="false"><tag k="addr:street" v="Autumn Sage Way"/><tag k="addr:housenumber" v="613"/></node><node id="-91" lat="30.476457" lon="-97.626095" changeset="false"><tag k="addr:street" v="Star Gazer Way"/><tag k="addr:housenumber" v="18720"/></node><node id="-92" lat="30.475458" lon="-97.626148" changeset="false"><tag k="addr:street" v="Star Gazer Way"/><tag k="addr:housenumber" v="18805"/></node><node id="-93" lat="30.474882" lon="-97.626009" changeset="false"><tag k="addr:street" v="Star Gazer Way"/><tag k="addr:housenumber" v="18817"/></node><node id="-94" lat="30.467542" lon="-97.628049" changeset="false"><tag k="addr:street" v="Betterman Drive"/><tag k="addr:housenumber" v="303"/></node><node id="-95" lat="30.468575" lon="-97.629292" changeset="false"><tag k="addr:street" v="Betterman Drive"/><tag k="addr:housenumber" v="503"/></node><node id="-96" lat="30.467625" lon="-97.62668" changeset="false"><tag k="addr:street" v="Deren Cove"/><tag k="addr:housenumber" v="17803"/></node><node id="-97" lat="30.471341" lon="-97.630346" changeset="false"><tag k="addr:street" v="Betterman Drive"/><tag k="addr:housenumber" v="808"/></node><node id="-98" lat="30.468246" lon="-97.627295" changeset="false"><tag k="addr:street" v="Deren Lane"/><tag k="addr:housenumber" v="305"/></node><node id="-99" lat="30.465021" lon="-97.621283" changeset="false"><tag k="addr:street" v="Crater Lake Drive (E)"/><tag k="addr:housenumber" v="314"/></node><node id="-100" lat="30.465214" lon="-97.620438" changeset="false"><tag k="addr:street" v="Crater Lake Drive (E)"/><tag k="addr:housenumber" v="412"/></node><node id="-101" lat="30.465253" lon="-97.620297" changeset="false"><tag k="addr:street" v="Crater Lake Drive (E)"/><tag k="addr:housenumber" v="416"/></node><node id="-102" lat="30.469281" lon="-97.627946" changeset="false"><tag k="addr:street" v="Holderness Lane"/><tag k="addr:housenumber" v="17909"/></node><node id="-103" lat="30.470231" lon="-97.629128" changeset="false"><tag k="addr:street" v="Narsitin Lane"/><tag k="addr:housenumber" v="17917"/></node><node id="-104" lat="30.466991" lon="-97.627342" changeset="false"><tag k="addr:street" v="Betterman Drive"/><tag k="addr:housenumber" v="207"/></node><node id="-105" lat="30.464284" lon="-97.618995" changeset="false"><tag k="addr:street" v="Great Basin Avenue"/><tag k="addr:housenumber" v="17812"/></node><node id="-106" lat="30.46454" lon="-97.619074" changeset="false"><tag k="addr:street" v="Great Basin Avenue"/><tag k="addr:housenumber" v="17824"/></node><node id="-107" lat="30.46989" lon="-97.621968" changeset="false"><tag k="addr:street" v="Joshua Tree Circle"/><tag k="addr:housenumber" v="124"/></node><node id="-108" lat="30.467908" lon="-97.620268" changeset="false"><tag k="addr:street" v="Great Basin Avenue"/><tag k="addr:housenumber" v="18008"/></node><node id="-109" lat="30.468111" lon="-97.620333" changeset="false"><tag k="addr:street" v="Great Basin Avenue"/><tag k="addr:housenumber" v="18016"/></node><node id="-110" lat="30.476634" lon="-97.624494" changeset="false"><tag k="addr:street" v="Pencil Cactus Drive"/><tag k="addr:housenumber" v="19136"/></node><node id="-111" lat="30.476471" lon="-97.627647" changeset="false"><tag k="addr:street" v="Pencil Cactus Drive"/><tag k="addr:housenumber" v="18800"/></node><node id="-112" lat="30.461974" lon="-97.618901" changeset="false"><tag k="addr:street" v="North Cascades Avenue"/><tag k="addr:housenumber" v="613"/></node><node id="-113" lat="30.478482" lon="-97.628639" changeset="false"><tag k="addr:street" v="Springbrook Road"/><tag k="addr:housenumber" v="317"/></node><node id="-114" lat="30.467045" lon="-97.619932" changeset="false"><tag k="addr:street" v="Great Basin Avenue"/><tag k="addr:housenumber" v="17940"/></node><node id="-115" lat="30.473955" lon="-97.624124" changeset="false"><tag k="addr:street" v="Lonesome Lilly Way"/><tag k="addr:housenumber" v="609"/></node><node id="-116" lat="30.475254" lon="-97.625093" changeset="false"><tag k="addr:street" v="Lonesome Lilly Way"/><tag k="addr:housenumber" v="805"/></node><node id="-117" lat="30.475439" lon="-97.624671" changeset="false"><tag k="addr:street" v="Lonesome Lilly Way"/><tag k="addr:housenumber" v="804"/></node><node id="-118" lat="30.477319" lon="-97.626014" changeset="false"><tag k="addr:street" v="Lonesome Lilly Way"/><tag k="addr:housenumber" v="1005"/></node><node id="-119" lat="30.479496" lon="-97.628903" changeset="false"><tag k="addr:street" v="Star Gazer Way"/><tag k="addr:housenumber" v="18504"/></node><node id="-120" lat="30.47944" lon="-97.628464" changeset="false"><tag k="addr:street" v="Star Gazer Way"/><tag k="addr:housenumber" v="18512"/></node><node id="-121" lat="30.476096" lon="-97.625901" changeset="false"><tag k="addr:street" v="Star Gazer Way"/><tag k="addr:housenumber" v="18728"/></node><node id="-122" lat="30.475564" lon="-97.625659" changeset="false"><tag k="addr:street" v="Star Gazer Way"/><tag k="addr:housenumber" v="18804"/></node><node id="-123" lat="30.474995" lon="-97.625516" changeset="false"><tag k="addr:street" v="Star Gazer Way"/><tag k="addr:housenumber" v="18816"/></node><node id="-124" lat="30.474618" lon="-97.625404" changeset="false"><tag k="addr:street" v="Star Gazer Way"/><tag k="addr:housenumber" v="18824"/></node><node id="-125" lat="30.474437" lon="-97.625352" changeset="false"><tag k="addr:street" v="Star Gazer Way"/><tag k="addr:housenumber" v="18828"/></node><node id="-126" lat="30.474221" lon="-97.625321" changeset="false"><tag k="addr:street" v="Star Gazer Way"/><tag k="addr:housenumber" v="18832"/></node><node id="-127" lat="30.465113" lon="-97.620867" changeset="false"><tag k="addr:street" v="Crater Lake Drive (E)"/><tag k="addr:housenumber" v="400"/></node><node id="-128" lat="30.464823" lon="-97.620352" changeset="false"><tag k="addr:street" v="Crater Lake Drive (E)"/><tag k="addr:housenumber" v="411"/></node><node id="-129" lat="30.464851" lon="-97.620227" changeset="false"><tag k="addr:street" v="Crater Lake Drive (E)"/><tag k="addr:housenumber" v="415"/></node><node id="-130" lat="30.464888" lon="-97.62011" changeset="false"><tag k="addr:street" v="Crater Lake Drive (E)"/><tag k="addr:housenumber" v="419"/></node><node id="-131" lat="30.469913" lon="-97.629319" changeset="false"><tag k="addr:street" v="Narsitin Lane"/><tag k="addr:housenumber" v="17909"/></node><node id="-132" lat="30.472115" lon="-97.629749" changeset="false"><tag k="addr:street" v="Justeford Drive"/><tag k="addr:housenumber" v="800"/></node><node id="-133" lat="30.470705" lon="-97.629722" changeset="false"><tag k="addr:street" v="Betterman Cove"/><tag k="addr:housenumber" v="17909"/></node><node id="-134" lat="30.469403" lon="-97.631044" changeset="false"><tag k="addr:street" v="Palitine Lane"/><tag k="addr:housenumber" v="616"/></node><node id="-135" lat="30.472635" lon="-97.63001" changeset="false"><tag k="addr:street" v="Catumet Drive"/><tag k="addr:housenumber" v="801"/></node><node id="-136" lat="30.468438" lon="-97.629177" changeset="false"><tag k="addr:street" v="Betterman Drive"/><tag k="addr:housenumber" v="501"/></node><node id="-137" lat="30.471945" lon="-97.628636" changeset="false"><tag k="addr:street" v="Catumet Drive"/><tag k="addr:housenumber" v="617"/></node><node id="-138" lat="30.468969" lon="-97.626295" changeset="false"><tag k="addr:street" v="Deren Lane"/><tag k="addr:housenumber" v="208"/></node><node id="-139" lat="30.468094" lon="-97.626882" changeset="false"><tag k="addr:street" v="Deren Cove"/><tag k="addr:housenumber" v="17804"/></node><node id="-140" lat="30.469934" lon="-97.621702" changeset="false"><tag k="addr:street" v="Joshua Tree Circle"/><tag k="addr:housenumber" v="200"/></node><node id="-141" lat="30.464461" lon="-97.619049" changeset="false"><tag k="addr:street" v="Great Basin Avenue"/><tag k="addr:housenumber" v="17820"/></node><node id="-142" lat="30.465806" lon="-97.619535" changeset="false"><tag k="addr:street" v="Great Basin Avenue"/><tag k="addr:housenumber" v="17900"/></node><node id="-143" lat="30.476993" lon="-97.62466" changeset="false"><tag k="addr:street" v="Pencil Cactus Drive"/><tag k="addr:housenumber" v="19128"/></node><node id="-144" lat="30.462808" lon="-97.620655" changeset="false"><tag k="addr:street" v="North Cascades Avenue"/><tag k="addr:housenumber" v="501"/></node><node id="-145" lat="30.462609" lon="-97.620251" changeset="false"><tag k="addr:street" v="North Cascades Avenue"/><tag k="addr:housenumber" v="509"/></node><node id="-146" lat="30.468223" lon="-97.620376" changeset="false"><tag k="addr:street" v="Great Basin Avenue"/><tag k="addr:housenumber" v="18020"/></node><node id="-147" lat="30.476642" lon="-97.626143" changeset="false"><tag k="addr:street" v="Star Gazer Way"/><tag k="addr:housenumber" v="18716"/></node><node id="-148" lat="30.47655" lon="-97.626635" changeset="false"><tag k="addr:street" v="Star Gazer Way"/><tag k="addr:housenumber" v="18713"/></node><node id="-149" lat="30.476011" lon="-97.626389" changeset="false"><tag k="addr:street" v="Star Gazer Way"/><tag k="addr:housenumber" v="18725"/></node><node id="-150" lat="30.475273" lon="-97.626108" changeset="false"><tag k="addr:street" v="Star Gazer Way"/><tag k="addr:housenumber" v="18809"/></node><node id="-151" lat="30.475078" lon="-97.626056" changeset="false"><tag k="addr:street" v="Star Gazer Way"/><tag k="addr:housenumber" v="18813"/></node><node id="-152" lat="30.474316" lon="-97.625821" changeset="false"><tag k="addr:street" v="Star Gazer Way"/><tag k="addr:housenumber" v="18829"/></node><node id="-153" lat="30.475265" lon="-97.627594" changeset="false"><tag k="addr:street" v="Autumn Sage Way"/><tag k="addr:housenumber" v="709"/></node><node id="-154" lat="30.477167" lon="-97.627317" changeset="false"><tag k="addr:street" v="Pencil Cactus Drive"/><tag k="addr:housenumber" v="18809"/></node><node id="-155" lat="30.467833" lon="-97.621788" changeset="false"><tag k="addr:street" v="Kenai Fjords Drive"/><tag k="addr:housenumber" v="17949"/></node><node id="-156" lat="30.476923" lon="-97.627751" changeset="false"><tag k="addr:street" v="Pencil Cactus Drive"/><tag k="addr:housenumber" v="18801"/></node><node id="-157" lat="30.464637" lon="-97.621086" changeset="false"><tag k="addr:street" v="Crater Lake Drive (E)"/><tag k="addr:housenumber" v="317"/></node><node id="-158" lat="30.465129" lon="-97.620803" changeset="false"><tag k="addr:street" v="Crater Lake Drive (E)"/><tag k="addr:housenumber" v="402"/></node><node id="-159" lat="30.479088" lon="-97.628834" changeset="false"><tag k="addr:street" v="Star Gazer Way"/><tag k="addr:housenumber" v="18505"/></node><node id="-160" lat="30.479055" lon="-97.628566" changeset="false"><tag k="addr:street" v="Star Gazer Way"/><tag k="addr:housenumber" v="18509"/></node><node id="-161" lat="30.477874" lon="-97.627646" changeset="false"><tag k="addr:street" v="Star Gazer Way"/><tag k="addr:housenumber" v="18609"/></node><node id="-162" lat="30.477525" lon="-97.627414" changeset="false"><tag k="addr:street" v="Star Gazer Way"/><tag k="addr:housenumber" v="18617"/></node><node id="-163" lat="30.474706" lon="-97.624949" changeset="false"><tag k="addr:street" v="Lonesome Lilly Way"/><tag k="addr:housenumber" v="713"/></node><node id="-164" lat="30.475623" lon="-97.625208" changeset="false"><tag k="addr:street" v="Lonesome Lilly Way"/><tag k="addr:housenumber" v="813"/></node><node id="-165" lat="30.476601" lon="-97.625657" changeset="false"><tag k="addr:street" v="Lonesome Lilly Way"/><tag k="addr:housenumber" v="909"/></node><node id="-166" lat="30.473163" lon="-97.624676" changeset="false"><tag k="addr:street" v="Willow Walk Drive"/><tag k="addr:housenumber" v="501"/></node><node id="-167" lat="30.473276" lon="-97.625069" changeset="false"><tag k="addr:street" v="Willow Walk Drive"/><tag k="addr:housenumber" v="509"/></node><node id="-168" lat="30.464355" lon="-97.619034" changeset="false"><tag k="addr:street" v="Great Basin Avenue"/><tag k="addr:housenumber" v="17816"/></node><node id="-169" lat="30.466806" lon="-97.621357" changeset="false"><tag k="addr:street" v="Kenai Fjords Drive"/><tag k="addr:housenumber" v="17925"/></node><node id="-170" lat="30.467143" lon="-97.619967" changeset="false"><tag k="addr:street" v="Great Basin Avenue"/><tag k="addr:housenumber" v="17944"/></node><node id="-171" lat="30.476621" lon="-97.627224" changeset="false"><tag k="addr:street" v="Pencil Cactus Drive"/><tag k="addr:housenumber" v="18808"/></node><node id="-172" lat="30.47723" lon="-97.626318" changeset="false"><tag k="addr:street" v="Star Gazer Way"/><tag k="addr:housenumber" v="18704"/></node><node id="-173" lat="30.462901" lon="-97.620849" changeset="false"><tag k="addr:street" v="North Cascades Avenue"/><tag k="addr:housenumber" v="425"/></node><node id="-174" lat="30.462053" lon="-97.619111" changeset="false"><tag k="addr:street" v="North Cascades Avenue"/><tag k="addr:housenumber" v="609"/></node><node id="-175" lat="30.47621" lon="-97.62429" changeset="false"><tag k="addr:street" v="Pencil Cactus Drive"/><tag k="addr:housenumber" v="19200"/></node><node id="-176" lat="30.476963" lon="-97.626281" changeset="false"><tag k="addr:street" v="Star Gazer Way"/><tag k="addr:housenumber" v="18708"/></node><node id="-177" lat="30.47576" lon="-97.625707" changeset="false"><tag k="addr:street" v="Star Gazer Way"/><tag k="addr:housenumber" v="18800"/></node><node id="-178" lat="30.475197" lon="-97.625539" changeset="false"><tag k="addr:street" v="Star Gazer Way"/><tag k="addr:housenumber" v="18812"/></node><node id="-179" lat="30.4748" lon="-97.625452" changeset="false"><tag k="addr:street" v="Star Gazer Way"/><tag k="addr:housenumber" v="18820"/></node><node id="-180" lat="30.474505" lon="-97.625901" changeset="false"><tag k="addr:street" v="Star Gazer Way"/><tag k="addr:housenumber" v="18825"/></node><node id="-181" lat="30.473954" lon="-97.624349" changeset="false"><tag k="addr:street" v="Lonesome Lilly Way"/><tag k="addr:housenumber" v="613"/></node><node id="-182" lat="30.474712" lon="-97.624426" changeset="false"><tag k="addr:street" v="Lonesome Lilly Way"/><tag k="addr:housenumber" v="708"/></node><node id="-183" lat="30.477156" lon="-97.625899" changeset="false"><tag k="addr:street" v="Lonesome Lilly Way"/><tag k="addr:housenumber" v="1001"/></node><node id="-184" lat="30.473462" lon="-97.623012" changeset="false"><tag k="addr:street" v="Pencil Cactus Drive"/><tag k="addr:housenumber" v="19321"/></node><node id="-185" lat="30.47445" lon="-97.623826" changeset="false"><tag k="addr:street" v="Pencil Cactus Drive"/><tag k="addr:housenumber" v="19236"/></node><node id="-186" lat="30.475794" lon="-97.624178" changeset="false"><tag k="addr:street" v="Pencil Cactus Drive"/><tag k="addr:housenumber" v="19208"/></node><node id="-187" lat="30.469345" lon="-97.62776" changeset="false"><tag k="addr:street" v="Holderness Lane"/><tag k="addr:housenumber" v="17911"/></node><node id="-188" lat="30.478403" lon="-97.624815" changeset="false"><tag k="addr:street" v="Pencil Cactus Drive"/><tag k="addr:housenumber" v="19101"/></node><node id="-189" lat="30.476519" lon="-97.627453" changeset="false"><tag k="addr:street" v="Pencil Cactus Drive"/><tag k="addr:housenumber" v="18804"/></node><node id="-190" lat="30.466529" lon="-97.619774" changeset="false"><tag k="addr:street" v="Great Basin Avenue"/><tag k="addr:housenumber" v="17928"/></node><node id="-191" lat="30.46303" lon="-97.619986" changeset="false"><tag k="addr:street" v="North Cascades Avenue"/><tag k="addr:housenumber" v="508"/></node><node id="-192" lat="30.479467" lon="-97.628667" changeset="false"><tag k="addr:street" v="Star Gazer Way"/><tag k="addr:housenumber" v="18508"/></node><node id="-193" lat="30.478857" lon="-97.62757" changeset="false"><tag k="addr:street" v="Star Gazer Way"/><tag k="addr:housenumber" v="18532"/></node><node id="-194" lat="30.464609" lon="-97.621137" changeset="false"><tag k="addr:street" v="Crater Lake Drive (E)"/><tag k="addr:housenumber" v="315"/></node><node id="-195" lat="30.465239" lon="-97.620366" changeset="false"><tag k="addr:street" v="Crater Lake Drive (E)"/><tag k="addr:housenumber" v="414"/></node><node id="-196" lat="30.464867" lon="-97.620151" changeset="false"><tag k="addr:street" v="Crater Lake Drive (E)"/><tag k="addr:housenumber" v="417"/></node><node id="-197" lat="30.470374" lon="-97.631033" changeset="false"><tag k="addr:street" v="Grener Cove"/><tag k="addr:housenumber" v="17804"/></node><node id="-198" lat="30.465299" lon="-97.626529" changeset="false"><tag k="addr:street" v="West Pflugerville Parkway"/><tag k="addr:housenumber" v="110"/></node><node id="-199" lat="30.47772" lon="-97.62499" changeset="false"><tag k="addr:street" v="Pencil Cactus Drive"/><tag k="addr:housenumber" v="19112"/></node><node id="-200" lat="30.47404" lon="-97.625306" changeset="false"><tag k="addr:street" v="Star Gazer Way"/><tag k="addr:housenumber" v="18836"/></node><node id="-201" lat="30.473992" lon="-97.623871" changeset="false"><tag k="addr:street" v="Lonesome Lilly Way"/><tag k="addr:housenumber" v="605"/></node><node id="-202" lat="30.476998" lon="-97.62754" changeset="false"><tag k="addr:street" v="Pencil Cactus Drive"/><tag k="addr:housenumber" v="18805"/></node><node id="-203" lat="30.478646" lon="-97.627985" changeset="false"><tag k="addr:street" v="Star Gazer Way"/><tag k="addr:housenumber" v="18533"/></node><node id="-204" lat="30.478067" lon="-97.627716" changeset="false"><tag k="addr:street" v="Star Gazer Way"/><tag k="addr:housenumber" v="18605"/></node><node id="-205" lat="30.478494" lon="-97.627387" changeset="false"><tag k="addr:street" v="Star Gazer Way"/><tag k="addr:housenumber" v="18600"/></node><node id="-206" lat="30.477745" lon="-97.627036" changeset="false"><tag k="addr:street" v="Star Gazer Way"/><tag k="addr:housenumber" v="18616"/></node><node id="-207" lat="30.465152" lon="-97.620744" changeset="false"><tag k="addr:street" v="Crater Lake Drive (E)"/><tag k="addr:housenumber" v="404"/></node><node id="-208" lat="30.465187" lon="-97.620603" changeset="false"><tag k="addr:street" v="Crater Lake Drive (E)"/><tag k="addr:housenumber" v="408"/></node><node id="-209" lat="30.477176" lon="-97.624751" changeset="false"><tag k="addr:street" v="Pencil Cactus Drive"/><tag k="addr:housenumber" v="19124"/></node><node id="-210" lat="30.46298" lon="-97.621043" changeset="false"><tag k="addr:street" v="North Cascades Avenue"/><tag k="addr:housenumber" v="421"/></node><node id="-211" lat="30.476731" lon="-97.626704" changeset="false"><tag k="addr:street" v="Star Gazer Way"/><tag k="addr:housenumber" v="18709"/></node><node id="-212" lat="30.476193" lon="-97.62647" changeset="false"><tag k="addr:street" v="Star Gazer Way"/><tag k="addr:housenumber" v="18721"/></node><node id="-213" lat="30.475386" lon="-97.625615" changeset="false"><tag k="addr:street" v="Star Gazer Way"/><tag k="addr:housenumber" v="18808"/></node><node id="-214" lat="30.474693" lon="-97.625945" changeset="false"><tag k="addr:street" v="Star Gazer Way"/><tag k="addr:housenumber" v="18821"/></node><node id="-215" lat="30.474909" lon="-97.6245" changeset="false"><tag k="addr:street" v="Lonesome Lilly Way"/><tag k="addr:housenumber" v="712"/></node><node id="-216" lat="30.475081" lon="-97.624542" changeset="false"><tag k="addr:street" v="Lonesome Lilly Way"/><tag k="addr:housenumber" v="716"/></node><node id="-217" lat="30.474913" lon="-97.624983" changeset="false"><tag k="addr:street" v="Lonesome Lilly Way"/><tag k="addr:housenumber" v="717"/></node><node id="-218" lat="30.475266" lon="-97.624603" changeset="false"><tag k="addr:street" v="Lonesome Lilly Way"/><tag k="addr:housenumber" v="800"/></node><node id="-219" lat="30.476415" lon="-97.625563" changeset="false"><tag k="addr:street" v="Lonesome Lilly Way"/><tag k="addr:housenumber" v="905"/></node><node id="-220" lat="30.476937" lon="-97.62529" changeset="false"><tag k="addr:street" v="Lonesome Lilly Way"/><tag k="addr:housenumber" v="912"/></node><node id="-221" lat="30.47534" lon="-97.627795" changeset="false"><tag k="addr:street" v="Autumn Sage Way"/><tag k="addr:housenumber" v="713"/></node><node id="-222" lat="30.479519" lon="-97.629134" changeset="false"><tag k="addr:street" v="Star Gazer Way"/><tag k="addr:housenumber" v="18500"/></node><node id="-223" lat="30.479166" lon="-97.627879" changeset="false"><tag k="addr:street" v="Star Gazer Way"/><tag k="addr:housenumber" v="18524"/></node><node id="-224" lat="30.464602" lon="-97.621218" changeset="false"><tag k="addr:street" v="Crater Lake Drive (E)"/><tag k="addr:housenumber" v="313"/></node><node id="-225" lat="30.46465" lon="-97.621004" changeset="false"><tag k="addr:street" v="Crater Lake Drive (E)"/><tag k="addr:housenumber" v="319"/></node><node id="-226" lat="30.465173" lon="-97.62069" changeset="false"><tag k="addr:street" v="Crater Lake Drive (E)"/><tag k="addr:housenumber" v="406"/></node><node id="-227" lat="30.465262" lon="-97.620236" changeset="false"><tag k="addr:street" v="Crater Lake Drive (E)"/><tag k="addr:housenumber" v="418"/></node><node id="-228" lat="30.464772" lon="-97.620534" changeset="false"><tag k="addr:street" v="Crater Lake Drive (E)"/><tag k="addr:housenumber" v="407"/></node><node id="-229" lat="30.46484" lon="-97.620288" changeset="false"><tag k="addr:street" v="Crater Lake Drive (E)"/><tag k="addr:housenumber" v="413"/></node><node id="-230" lat="30.478264" lon="-97.625223" changeset="false"><tag k="addr:street" v="Pencil Cactus Drive"/><tag k="addr:housenumber" v="19100"/></node><node id="-231" lat="30.463079" lon="-97.621237" changeset="false"><tag k="addr:street" v="North Cascades Avenue"/><tag k="addr:housenumber" v="417"/></node><node id="-232" lat="30.475075" lon="-97.625032" changeset="false"><tag k="addr:street" v="Lonesome Lilly Way"/><tag k="addr:housenumber" v="801"/></node><node id="-233" lat="30.477543" lon="-97.62606" changeset="false"><tag k="addr:street" v="Lonesome Lilly Way"/><tag k="addr:housenumber" v="1009"/></node><node id="-234" lat="30.465823" lon="-97.620995" changeset="false"><tag k="addr:street" v="Kenai Fjords Drive"/><tag k="addr:housenumber" v="17909"/></node><node id="-235" lat="30.474392" lon="-97.626491" changeset="false"><tag k="addr:street" v="Autumn Sage Way"/><tag k="addr:housenumber" v="604"/></node><node id="-236" lat="30.476824" lon="-97.626215" changeset="false"><tag k="addr:street" v="Star Gazer Way"/><tag k="addr:housenumber" v="18712"/></node><node id="-237" lat="30.476368" lon="-97.626567" changeset="false"><tag k="addr:street" v="Star Gazer Way"/><tag k="addr:housenumber" v="18717"/></node><node id="-238" lat="30.474999" lon="-97.627193" changeset="false"><tag k="addr:street" v="Autumn Sage Way"/><tag k="addr:housenumber" v="701"/></node><node id="-239" lat="30.475145" lon="-97.627401" changeset="false"><tag k="addr:street" v="Autumn Sage Way"/><tag k="addr:housenumber" v="705"/></node><node id="-240" lat="30.474334" lon="-97.626871" changeset="false"><tag k="addr:street" v="Willow Walk Drive"/><tag k="addr:housenumber" v="700"/></node><node id="-241" lat="30.472807" lon="-97.62349" changeset="false"><tag k="addr:street" v="Pencil Cactus Drive"/><tag k="addr:housenumber" v="19328"/></node><node id="-242" lat="30.46882" lon="-97.620952" changeset="false"><tag k="addr:street" v="Glacier Bay Street"/><tag k="addr:housenumber" v="18129"/></node><node id="-243" lat="30.46668" lon="-97.621841" changeset="false"><tag k="addr:street" v="Kenai Fjords Drive"/><tag k="addr:housenumber" v="17924"/></node><node id="-244" lat="30.477899" lon="-97.626666" changeset="false"><tag k="addr:street" v="Pencil Cactus Drive"/><tag k="addr:housenumber" v="18909"/></node><node id="-245" lat="30.47028" lon="-97.629791" changeset="false"><tag k="addr:street" v="Narsitin Lane"/><tag k="addr:housenumber" v="17904"/></node><node id="-246" lat="30.468284" lon="-97.627095" changeset="false"><tag k="addr:street" v="Deren Lane"/><tag k="addr:housenumber" v="303"/></node><node id="-247" lat="30.469777" lon="-97.628435" changeset="false"><tag k="addr:street" v="Dansworth Drive"/><tag k="addr:housenumber" v="17903"/></node><node id="-248" lat="30.473013" lon="-97.629132" changeset="false"><tag k="addr:street" v="Catumet Cove"/><tag k="addr:housenumber" v="18008"/></node><node id="-249" lat="30.470544" lon="-97.624054" changeset="false"><tag k="addr:street" v="Catumet Drive"/><tag k="addr:housenumber" v="213"/></node><node id="-250" lat="30.469506" lon="-97.629468" changeset="false"><tag k="addr:street" v="Betterman Drive"/><tag k="addr:housenumber" v="604"/></node><node id="-251" lat="30.477629" lon="-97.626815" changeset="false"><tag k="addr:street" v="Star Gazer Way"/><tag k="addr:housenumber" v="18620"/></node><node id="-252" lat="30.471451" lon="-97.63052" changeset="false"><tag k="addr:street" v="Betterman Drive"/><tag k="addr:housenumber" v="812"/></node><node id="-253" lat="30.471983" lon="-97.628837" changeset="false"><tag k="addr:street" v="Catumet Drive"/><tag k="addr:housenumber" v="621"/></node><node id="-254" lat="30.469425" lon="-97.627591" changeset="false"><tag k="addr:street" v="Holderness Lane"/><tag k="addr:housenumber" v="17913"/></node><node id="-255" lat="30.465571" lon="-97.620894" changeset="false"><tag k="addr:street" v="Kenai Fjords Drive"/><tag k="addr:housenumber" v="17905"/></node><node id="-256" lat="30.466851" lon="-97.623855" changeset="false"><tag k="addr:street" v="Glacier Bay Street"/><tag k="addr:housenumber" v="17844"/></node><node id="-257" lat="30.464953" lon="-97.619518" changeset="false"><tag k="addr:street" v="Crater Lake Drive (E)"/><tag k="addr:housenumber" v="509"/></node><node id="-258" lat="30.462858" lon="-97.618482" changeset="false"><tag k="addr:street" v="Great Basin Avenue"/><tag k="addr:housenumber" v="17716"/></node><node id="-259" lat="30.478373" lon="-97.626143" changeset="false"><tag k="addr:street" v="Pencil Cactus Drive"/><tag k="addr:housenumber" v="19001"/></node><node id="-260" lat="30.469822" lon="-97.621473" changeset="false"><tag k="addr:street" v="Joshua Tree Circle"/><tag k="addr:housenumber" v="204"/></node><node id="-261" lat="30.466068" lon="-97.619629" changeset="false"><tag k="addr:street" v="Great Basin Avenue"/><tag k="addr:housenumber" v="17908"/></node></osm>