<?xml version="1.0" encoding="UTF-8"?><osm version="0.6" generator="github.com/aaronlidman/osm-and-geojson"><node id="-1" lat="30.205113" lon="-97.684023" changeset="false"><tag k="addr:street" v="Mc Call Lane"/><tag k="addr:housenumber" v="3122"/><tag k="addr:postcode" v="78744"/></node><node id="-2" lat="30.211359" lon="-97.710361" changeset="false"><tag k="addr:street" v="East Ben White Boulevard"/><tag k="addr:housenumber" v="6407"/><tag k="addr:postcode" v="78744"/></node><node id="-3" lat="30.199107" lon="-97.693448" changeset="false"><tag k="addr:street" v="Aspen Brook Drive"/><tag k="addr:housenumber" v="7516"/><tag k="addr:postcode" v="78744"/></node><node id="-4" lat="30.205823" lon="-97.714738" changeset="false"><tag k="addr:street" v="Old Burleson Road"/><tag k="addr:housenumber" v="6406"/><tag k="addr:postcode" v="78744"/></node><node id="-5" lat="30.203458" lon="-97.711825" changeset="false"><tag k="addr:street" v="Burleson Road"/><tag k="addr:housenumber" v="6606"/><tag k="addr:postcode" v="78744"/></node><node id="-6" lat="30.217836" lon="-97.68672" changeset="false"><tag k="addr:street" v="Palma Verde Drive"/><tag k="addr:housenumber" v="8001"/><tag k="addr:postcode" v="78744"/></node><node id="-7" lat="30.210465" lon="-97.691406" changeset="false"><tag k="addr:street" v="Palomino Trail"/><tag k="addr:housenumber" v="2807"/><tag k="addr:postcode" v="78744"/></node><node id="-8" lat="30.213075" lon="-97.694045" changeset="false"><tag k="addr:street" v="Metro Center Drive"/><tag k="addr:housenumber" v="7551"/><tag k="addr:postcode" v="78744"/></node><node id="-9" lat="30.198831" lon="-97.697019" changeset="false"><tag k="addr:street" v="Autumn Bay Drive"/><tag k="addr:housenumber" v="3816"/><tag k="addr:postcode" v="78744"/></node><node id="-10" lat="30.209695" lon="-97.691353" changeset="false"><tag k="addr:street" v="Singlefoot Lane"/><tag k="addr:housenumber" v="2810"/><tag k="addr:postcode" v="78744"/></node><node id="-11" lat="30.209255" lon="-97.685471" changeset="false"><tag k="addr:street" v="Metropolis Drive"/><tag k="addr:housenumber" v="8311 1/2"/><tag k="addr:postcode" v="78744"/></node><node id="-12" lat="30.218683" lon="-97.687851" changeset="false"><tag k="addr:street" v="East Ben White Boulevard"/><tag k="addr:housenumber" v="7811"/><tag k="addr:postcode" v="78744"/></node><node id="-13" lat="30.197378" lon="-97.694705" changeset="false"><tag k="addr:street" v="Bronco Bend Loop"/><tag k="addr:housenumber" v="3700"/><tag k="addr:postcode" v="78744"/></node><node id="-14" lat="30.200303" lon="-97.694604" changeset="false"><tag k="addr:street" v="Elk Pass Drive"/><tag k="addr:housenumber" v="7404"/><tag k="addr:postcode" v="78744"/></node><node id="-15" lat="30.200092" lon="-97.694139" changeset="false"><tag k="addr:street" v="Elk Pass Drive"/><tag k="addr:housenumber" v="7424"/><tag k="addr:postcode" v="78744"/></node><node id="-16" lat="30.212701" lon="-97.70515" changeset="false"><tag k="addr:street" v="East Ben White Boulevard"/><tag k="addr:housenumber" v="6711"/><tag k="addr:postcode" v="78744"/></node><node id="-17" lat="30.199495" lon="-97.696162" changeset="false"><tag k="addr:street" v="Autumn Bay Drive"/><tag k="addr:housenumber" v="3712"/><tag k="addr:postcode" v="78744"/></node><node id="-18" lat="30.203321" lon="-97.712119" changeset="false"><tag k="addr:street" v="Burleson Road"/><tag k="addr:housenumber" v="6601"/><tag k="addr:postcode" v="78744"/></node><node id="-19" lat="30.204837" lon="-97.710541" changeset="false"><tag k="addr:street" v="Dime Circle"/><tag k="addr:housenumber" v="3601"/><tag k="addr:postcode" v="78744"/></node><node id="-20" lat="30.214912" lon="-97.687576" changeset="false"><tag k="addr:street" v="Hoeke Lane"/><tag k="addr:housenumber" v="2515"/><tag k="addr:postcode" v="78744"/></node><node id="-21" lat="30.219673" lon="-97.686607" changeset="false"><tag k="addr:street" v="La Posada Drive"/><tag k="addr:housenumber" v="3"/><tag k="addr:postcode" v="78744"/></node><node id="-22" lat="30.219741" lon="-97.686697" changeset="false"><tag k="addr:street" v="La Posada Drive"/><tag k="addr:housenumber" v="5"/><tag k="addr:postcode" v="78744"/></node><node id="-23" lat="30.2195" lon="-97.687402" changeset="false"><tag k="addr:street" v="La Posada Drive"/><tag k="addr:housenumber" v="19"/><tag k="addr:postcode" v="78744"/></node><node id="-24" lat="30.219577" lon="-97.686036" changeset="false"><tag k="addr:street" v="Palma Circle"/><tag k="addr:housenumber" v="66"/><tag k="addr:postcode" v="78744"/></node><node id="-25" lat="30.217936" lon="-97.684712" changeset="false"><tag k="addr:street" v="Espinosa Drive"/><tag k="addr:housenumber" v="27"/><tag k="addr:postcode" v="78744"/></node><node id="-26" lat="30.218242" lon="-97.690018" changeset="false"><tag k="addr:street" v="East Ben White Boulevard"/><tag k="addr:housenumber" v="7703 1/2"/><tag k="addr:postcode" v="78744"/></node><node id="-27" lat="30.219779" lon="-97.686208" changeset="false"><tag k="addr:street" v="Palma Circle"/><tag k="addr:housenumber" v="4"/><tag k="addr:postcode" v="78744"/></node><node id="-28" lat="30.205803" lon="-97.693626" changeset="false"><tag k="addr:street" v="Metropolis Drive"/><tag k="addr:housenumber" v="7701"/><tag k="addr:postcode" v="78744"/></node><node id="-29" lat="30.19767" lon="-97.700894" changeset="false"><tag k="addr:street" v="Creede Drive"/><tag k="addr:housenumber" v="4209"/><tag k="addr:postcode" v="78744"/></node><node id="-30" lat="30.197417" lon="-97.70022" changeset="false"><tag k="addr:street" v="Crestone Road"/><tag k="addr:housenumber" v="7221"/><tag k="addr:postcode" v="78744"/></node><node id="-31" lat="30.197915" lon="-97.700316" changeset="false"><tag k="addr:street" v="Crestone Road"/><tag k="addr:housenumber" v="7208"/><tag k="addr:postcode" v="78744"/></node><node id="-32" lat="30.197686" lon="-97.700033" changeset="false"><tag k="addr:street" v="Crestone Road"/><tag k="addr:housenumber" v="7220"/><tag k="addr:postcode" v="78744"/></node><node id="-33" lat="30.197607" lon="-97.699944" changeset="false"><tag k="addr:street" v="Crestone Road"/><tag k="addr:housenumber" v="7224"/><tag k="addr:postcode" v="78744"/></node><node id="-34" lat="30.197457" lon="-97.699764" changeset="false"><tag k="addr:street" v="Crestone Road"/><tag k="addr:housenumber" v="7232"/><tag k="addr:postcode" v="78744"/></node><node id="-35" lat="30.198207" lon="-97.700691" changeset="false"><tag k="addr:street" v="Crestone Road"/><tag k="addr:housenumber" v="7120"/><tag k="addr:postcode" v="78744"/></node><node id="-36" lat="30.220481" lon="-97.685222" changeset="false"><tag k="addr:street" v="Palma Circle"/><tag k="addr:housenumber" v="21"/><tag k="addr:postcode" v="78744"/></node><node id="-37" lat="30.220504" lon="-97.685048" changeset="false"><tag k="addr:street" v="Palma Circle"/><tag k="addr:housenumber" v="23"/><tag k="addr:postcode" v="78744"/></node><node id="-38" lat="30.220466" lon="-97.684924" changeset="false"><tag k="addr:street" v="Palma Circle"/><tag k="addr:housenumber" v="25"/><tag k="addr:postcode" v="78744"/></node><node id="-39" lat="30.198008" lon="-97.701761" changeset="false"><tag k="addr:street" v="Creede Drive"/><tag k="addr:housenumber" v="4320"/><tag k="addr:postcode" v="78744"/></node><node id="-40" lat="30.197566" lon="-97.701142" changeset="false"><tag k="addr:street" v="Creede Drive"/><tag k="addr:housenumber" v="4217"/><tag k="addr:postcode" v="78744"/></node><node id="-41" lat="30.197574" lon="-97.701683" changeset="false"><tag k="addr:street" v="Creede Drive"/><tag k="addr:housenumber" v="4309"/><tag k="addr:postcode" v="78744"/></node><node id="-42" lat="30.197644" lon="-97.701935" changeset="false"><tag k="addr:street" v="Creede Drive"/><tag k="addr:housenumber" v="4317"/><tag k="addr:postcode" v="78744"/></node><node id="-43" lat="30.198109" lon="-97.703064" changeset="false"><tag k="addr:street" v="Crestone Road"/><tag k="addr:housenumber" v="6804"/><tag k="addr:postcode" v="78744"/></node><node id="-44" lat="30.198233" lon="-97.702995" changeset="false"><tag k="addr:street" v="Crestone Road"/><tag k="addr:housenumber" v="6808"/><tag k="addr:postcode" v="78744"/></node><node id="-45" lat="30.198378" lon="-97.702797" changeset="false"><tag k="addr:street" v="Crestone Road"/><tag k="addr:housenumber" v="6816"/><tag k="addr:postcode" v="78744"/></node><node id="-46" lat="30.1986" lon="-97.702525" changeset="false"><tag k="addr:street" v="Crestone Road"/><tag k="addr:housenumber" v="6904"/><tag k="addr:postcode" v="78744"/></node><node id="-47" lat="30.198361" lon="-97.702145" changeset="false"><tag k="addr:street" v="Crestone Road"/><tag k="addr:housenumber" v="6905"/><tag k="addr:postcode" v="78744"/></node><node id="-48" lat="30.218977" lon="-97.684687" changeset="false"><tag k="addr:street" v="Espinosa Drive"/><tag k="addr:housenumber" v="9"/><tag k="addr:postcode" v="78744"/></node><node id="-49" lat="30.202287" lon="-97.696483" changeset="false"><tag k="addr:street" v="Alpine Autumn"/><tag k="addr:housenumber" v="3504"/><tag k="addr:postcode" v="78744"/></node><node id="-50" lat="30.201531" lon="-97.697356" changeset="false"><tag k="addr:street" v="Alpine Autumn"/><tag k="addr:housenumber" v="3620"/><tag k="addr:postcode" v="78744"/></node><node id="-51" lat="30.201469" lon="-97.695616" changeset="false"><tag k="addr:street" v="Breckenridge Drive"/><tag k="addr:housenumber" v="3509"/><tag k="addr:postcode" v="78744"/></node><node id="-52" lat="30.20107" lon="-97.696679" changeset="false"><tag k="addr:street" v="Breckenridge Drive"/><tag k="addr:housenumber" v="3616"/><tag k="addr:postcode" v="78744"/></node><node id="-53" lat="30.199615" lon="-97.698345" changeset="false"><tag k="addr:street" v="Breckenridge Drive"/><tag k="addr:housenumber" v="3824"/><tag k="addr:postcode" v="78744"/></node><node id="-54" lat="30.200089" lon="-97.700046" changeset="false"><tag k="addr:street" v="Vail Ridge St"/><tag k="addr:housenumber" v="7020"/><tag k="addr:postcode" v="78744"/></node><node id="-55" lat="30.200983" lon="-97.701133" changeset="false"><tag k="addr:street" v="Vail Ridge St"/><tag k="addr:housenumber" v="6900"/><tag k="addr:postcode" v="78744"/></node><node id="-56" lat="30.200906" lon="-97.701024" changeset="false"><tag k="addr:street" v="Vail Ridge St"/><tag k="addr:housenumber" v="6904"/><tag k="addr:postcode" v="78744"/></node><node id="-57" lat="30.20318" lon="-97.709585" changeset="false"><tag k="addr:street" v="Metropolis Drive"/><tag k="addr:housenumber" v="6500"/><tag k="addr:postcode" v="78744"/></node><node id="-58" lat="30.218412" lon="-97.686838" changeset="false"><tag k="addr:street" v="Olmos Drive"/><tag k="addr:housenumber" v="12"/><tag k="addr:postcode" v="78744"/></node><node id="-59" lat="30.198206" lon="-97.699335" changeset="false"><tag k="addr:street" v="Outfitter Drive"/><tag k="addr:housenumber" v="7220"/><tag k="addr:postcode" v="78744"/></node><node id="-60" lat="30.197689" lon="-97.695839" changeset="false"><tag k="addr:street" v="Carbondale Avenue"/><tag k="addr:housenumber" v="3808"/><tag k="addr:postcode" v="78744"/></node><node id="-61" lat="30.196305" lon="-97.695025" changeset="false"><tag k="addr:street" v="Bronco Bend Loop"/><tag k="addr:housenumber" v="3908"/><tag k="addr:postcode" v="78744"/></node><node id="-62" lat="30.196025" lon="-97.695325" changeset="false"><tag k="addr:street" v="Bronco Bend Loop"/><tag k="addr:housenumber" v="3920"/><tag k="addr:postcode" v="78744"/></node><node id="-63" lat="30.216479" lon="-97.689058" changeset="false"><tag k="addr:street" v="East Riverside Drive"/><tag k="addr:housenumber" v="7800"/><tag k="addr:postcode" v="78744"/></node><node id="-64" lat="30.216386" lon="-97.693353" changeset="false"><tag k="addr:street" v="East Ben White Boulevard"/><tag k="addr:housenumber" v="7501"/><tag k="addr:postcode" v="78744"/></node><node id="-65" lat="30.211331" lon="-97.691216" changeset="false"><tag k="addr:street" v="Rusty Drive"/><tag k="addr:housenumber" v="2800"/><tag k="addr:postcode" v="78744"/></node><node id="-66" lat="30.212487" lon="-97.707508" changeset="false"><tag k="addr:street" v="East Ben White Boulevard"/><tag k="addr:housenumber" v="6631"/><tag k="addr:postcode" v="78744"/></node><node id="-67" lat="30.212779" lon="-97.703417" changeset="false"><tag k="addr:street" v="East Ben White Boulevard"/><tag k="addr:housenumber" v="6801"/><tag k="addr:postcode" v="78744"/></node><node id="-68" lat="30.198482" lon="-97.692778" changeset="false"><tag k="addr:street" v="Aspen Brook Drive"/><tag k="addr:housenumber" v="7545"/><tag k="addr:postcode" v="78744"/></node><node id="-69" lat="30.203737" lon="-97.685447" changeset="false"><tag k="addr:street" v="Mc Call Lane"/><tag k="addr:housenumber" v="3204"/><tag k="addr:postcode" v="78744"/></node><node id="-70" lat="30.208418" lon="-97.690975" changeset="false"><tag k="addr:street" v="Metropolis Drive"/><tag k="addr:housenumber" v="7900"/><tag k="addr:postcode" v="78744"/></node><node id="-71" lat="30.205386" lon="-97.701158" changeset="false"><tag k="addr:street" v="Metropolis Drive"/><tag k="addr:housenumber" v="7101"/><tag k="addr:postcode" v="78744"/></node><node id="-72" lat="30.219226" lon="-97.687273" changeset="false"><tag k="addr:street" v="Corto Street"/><tag k="addr:housenumber" v="15"/><tag k="addr:postcode" v="78744"/></node><node id="-73" lat="30.219372" lon="-97.687196" changeset="false"><tag k="addr:street" v="La Posada Drive"/><tag k="addr:housenumber" v="16"/><tag k="addr:postcode" v="78744"/></node><node id="-74" lat="30.220126" lon="-97.685543" changeset="false"><tag k="addr:street" v="Palma Circle"/><tag k="addr:housenumber" v="16"/><tag k="addr:postcode" v="78744"/></node><node id="-75" lat="30.219891" lon="-97.685983" changeset="false"><tag k="addr:street" v="Palma Circle"/><tag k="addr:housenumber" v="8"/><tag k="addr:postcode" v="78744"/></node><node id="-76" lat="30.197702" lon="-97.702055" changeset="false"><tag k="addr:street" v="Creede Drive"/><tag k="addr:housenumber" v="4321"/><tag k="addr:postcode" v="78744"/></node><node id="-77" lat="30.198757" lon="-97.702345" changeset="false"><tag k="addr:street" v="Crestone Road"/><tag k="addr:housenumber" v="6912"/><tag k="addr:postcode" v="78744"/></node><node id="-78" lat="30.198839" lon="-97.702244" changeset="false"><tag k="addr:street" v="Crestone Road"/><tag k="addr:housenumber" v="6916"/><tag k="addr:postcode" v="78744"/></node><node id="-79" lat="30.199019" lon="-97.702087" changeset="false"><tag k="addr:street" v="Crestone Road"/><tag k="addr:housenumber" v="6924"/><tag k="addr:postcode" v="78744"/></node><node id="-80" lat="30.198451" lon="-97.702059" changeset="false"><tag k="addr:street" v="Crestone Road"/><tag k="addr:housenumber" v="6909"/><tag k="addr:postcode" v="78744"/></node><node id="-81" lat="30.198535" lon="-97.701973" changeset="false"><tag k="addr:street" v="Crestone Road"/><tag k="addr:housenumber" v="6913"/><tag k="addr:postcode" v="78744"/></node><node id="-82" lat="30.219597" lon="-97.687211" changeset="false"><tag k="addr:street" v="La Posada Drive"/><tag k="addr:housenumber" v="15"/><tag k="addr:postcode" v="78744"/></node><node id="-83" lat="30.219272" lon="-97.687387" changeset="false"><tag k="addr:street" v="La Posada Drive"/><tag k="addr:housenumber" v="20"/><tag k="addr:postcode" v="78744"/></node><node id="-84" lat="30.197731" lon="-97.700774" changeset="false"><tag k="addr:street" v="Creede Drive"/><tag k="addr:housenumber" v="4205"/><tag k="addr:postcode" v="78744"/></node><node id="-85" lat="30.198008" lon="-97.700976" changeset="false"><tag k="addr:street" v="Creede Drive"/><tag k="addr:housenumber" v="4200"/><tag k="addr:postcode" v="78744"/></node><node id="-86" lat="30.197259" lon="-97.700023" changeset="false"><tag k="addr:street" v="Crestone Road"/><tag k="addr:housenumber" v="7229"/><tag k="addr:postcode" v="78744"/></node><node id="-87" lat="30.197172" lon="-97.699926" changeset="false"><tag k="addr:street" v="Crestone Road"/><tag k="addr:housenumber" v="7233"/><tag k="addr:postcode" v="78744"/></node><node id="-88" lat="30.198794" lon="-97.701374" changeset="false"><tag k="addr:street" v="Crestone Road"/><tag k="addr:housenumber" v="7024"/><tag k="addr:postcode" v="78744"/></node><node id="-89" lat="30.198522" lon="-97.700345" changeset="false"><tag k="addr:street" v="Outfitter Drive"/><tag k="addr:housenumber" v="7121"/><tag k="addr:postcode" v="78744"/></node><node id="-90" lat="30.198224" lon="-97.699986" changeset="false"><tag k="addr:street" v="Outfitter Drive"/><tag k="addr:housenumber" v="7205"/><tag k="addr:postcode" v="78744"/></node><node id="-91" lat="30.197997" lon="-97.699712" changeset="false"><tag k="addr:street" v="Outfitter Drive"/><tag k="addr:housenumber" v="7217"/><tag k="addr:postcode" v="78744"/></node><node id="-92" lat="30.197846" lon="-97.699528" changeset="false"><tag k="addr:street" v="Outfitter Drive"/><tag k="addr:housenumber" v="7225"/><tag k="addr:postcode" v="78744"/></node><node id="-93" lat="30.212925" lon="-97.706145" changeset="false"><tag k="addr:street" v="East Ben White Boulevard"/><tag k="addr:housenumber" v="6649 1/2"/><tag k="addr:postcode" v="78744"/></node><node id="-94" lat="30.198505" lon="-97.699717" changeset="false"><tag k="addr:street" v="Outfitter Drive"/><tag k="addr:housenumber" v="7204"/><tag k="addr:postcode" v="78744"/></node><node id="-95" lat="30.200163" lon="-97.700149" changeset="false"><tag k="addr:street" v="Vail Ridge St"/><tag k="addr:housenumber" v="7016"/><tag k="addr:postcode" v="78744"/></node><node id="-96" lat="30.20169" lon="-97.701305" changeset="false"><tag k="addr:street" v="Vail Ridge St"/><tag k="addr:housenumber" v="6805"/><tag k="addr:postcode" v="78744"/></node><node id="-97" lat="30.200624" lon="-97.700727" changeset="false"><tag k="addr:street" v="Vail Ridge St"/><tag k="addr:housenumber" v="6916"/><tag k="addr:postcode" v="78744"/></node><node id="-98" lat="30.201122" lon="-97.700735" changeset="false"><tag k="addr:street" v="Vail Ridge St"/><tag k="addr:housenumber" v="6905"/><tag k="addr:postcode" v="78744"/></node><node id="-99" lat="30.200421" lon="-97.70045" changeset="false"><tag k="addr:street" v="Vail Ridge St"/><tag k="addr:housenumber" v="7004"/><tag k="addr:postcode" v="78744"/></node><node id="-100" lat="30.211964" lon="-97.688184" changeset="false"><tag k="addr:street" v="Lee Hill Drive"/><tag k="addr:housenumber" v="7917"/><tag k="addr:postcode" v="78744"/></node><node id="-101" lat="30.202373" lon="-97.696397" changeset="false"><tag k="addr:street" v="Alpine Autumn"/><tag k="addr:housenumber" v="3500"/><tag k="addr:postcode" v="78744"/></node><node id="-102" lat="30.201978" lon="-97.696824" changeset="false"><tag k="addr:street" v="Alpine Autumn"/><tag k="addr:housenumber" v="3520"/><tag k="addr:postcode" v="78744"/></node><node id="-103" lat="30.201982" lon="-97.696275" changeset="false"><tag k="addr:street" v="Alpine Autumn"/><tag k="addr:housenumber" v="3509"/><tag k="addr:postcode" v="78744"/></node><node id="-104" lat="30.201255" lon="-97.697076" changeset="false"><tag k="addr:street" v="Alpine Autumn"/><tag k="addr:housenumber" v="3621"/><tag k="addr:postcode" v="78744"/></node><node id="-105" lat="30.202328" lon="-97.695754" changeset="false"><tag k="addr:street" v="Razors Edge Dr"/><tag k="addr:housenumber" v="7208"/><tag k="addr:postcode" v="78744"/></node><node id="-106" lat="30.201776" lon="-97.695919" changeset="false"><tag k="addr:street" v="Breckenridge Drive"/><tag k="addr:housenumber" v="3504"/><tag k="addr:postcode" v="78744"/></node><node id="-107" lat="30.20147" lon="-97.696248" changeset="false"><tag k="addr:street" v="Breckenridge Drive"/><tag k="addr:housenumber" v="3520"/><tag k="addr:postcode" v="78744"/></node><node id="-108" lat="30.201101" lon="-97.696111" changeset="false"><tag k="addr:street" v="Breckenridge Drive"/><tag k="addr:housenumber" v="3609"/><tag k="addr:postcode" v="78744"/></node><node id="-109" lat="30.20093" lon="-97.696892" changeset="false"><tag k="addr:street" v="Breckenridge Drive"/><tag k="addr:housenumber" v="3700"/><tag k="addr:postcode" v="78744"/></node><node id="-110" lat="30.205079" lon="-97.703528" changeset="false"><tag k="addr:street" v="Metropolis Drive"/><tag k="addr:housenumber" v="7001"/><tag k="addr:postcode" v="78744"/></node><node id="-111" lat="30.218571" lon="-97.687025" changeset="false"><tag k="addr:street" v="Olmos Drive"/><tag k="addr:housenumber" v="8"/><tag k="addr:postcode" v="78744"/></node><node id="-112" lat="30.218259" lon="-97.686651" changeset="false"><tag k="addr:street" v="Olmos Drive"/><tag k="addr:housenumber" v="16"/><tag k="addr:postcode" v="78744"/></node><node id="-113" lat="30.200566" lon="-97.696498" changeset="false"><tag k="addr:street" v="Breckenridge Drive"/><tag k="addr:housenumber" v="3705"/><tag k="addr:postcode" v="78744"/></node><node id="-114" lat="30.201162" lon="-97.687989" changeset="false"><tag k="addr:street" v="Mc Call Lane"/><tag k="addr:housenumber" v="3407"/><tag k="addr:postcode" v="78744"/></node><node id="-115" lat="30.203729" lon="-97.711736" changeset="false"><tag k="addr:street" v="Dime Circle"/><tag k="addr:housenumber" v="3703"/><tag k="addr:postcode" v="78744"/></node><node id="-116" lat="30.211841" lon="-97.687573" changeset="false"><tag k="addr:street" v="Hoeke Lane"/><tag k="addr:housenumber" v="2607"/><tag k="addr:postcode" v="78744"/></node><node id="-117" lat="30.196107" lon="-97.695246" changeset="false"><tag k="addr:street" v="Bronco Bend Loop"/><tag k="addr:housenumber" v="3916"/><tag k="addr:postcode" v="78744"/></node><node id="-118" lat="30.199378" lon="-97.692324" changeset="false"><tag k="addr:street" v="Sand Dunes Avenue"/><tag k="addr:housenumber" v="3529"/><tag k="addr:postcode" v="78744"/></node><node id="-119" lat="30.205715" lon="-97.710316" changeset="false"><tag k="addr:street" v="Dime Circle"/><tag k="addr:housenumber" v="3600"/><tag k="addr:postcode" v="78744"/></node><node id="-120" lat="30.212375" lon="-97.707881" changeset="false"><tag k="addr:street" v="East Ben White Boulevard"/><tag k="addr:housenumber" v="6605 1/2"/><tag k="addr:postcode" v="78744"/></node><node id="-121" lat="30.1994" lon="-97.694411" changeset="false"><tag k="addr:street" v="Aspen Brook Drive"/><tag k="addr:housenumber" v="7436"/><tag k="addr:postcode" v="78744"/></node><node id="-122" lat="30.197372" lon="-97.695211" changeset="false"><tag k="addr:street" v="Yarborough Avenue"/><tag k="addr:housenumber" v="3820"/><tag k="addr:postcode" v="78744"/></node><node id="-123" lat="30.210369" lon="-97.690579" changeset="false"><tag k="addr:street" v="Singlefoot Lane"/><tag k="addr:housenumber" v="2802"/><tag k="addr:postcode" v="78744"/></node><node id="-124" lat="30.199364" lon="-97.69284" changeset="false"><tag k="addr:street" v="Sand Dunes Avenue"/><tag k="addr:housenumber" v="3600"/><tag k="addr:postcode" v="78744"/></node><node id="-125" lat="30.201042" lon="-97.708882" changeset="false"><tag k="addr:street" v="Burleson Road"/><tag k="addr:housenumber" v="6810"/><tag k="addr:postcode" v="78744"/></node><node id="-126" lat="30.215208" lon="-97.692358" changeset="false"><tag k="addr:street" v="Metro Center Drive"/><tag k="addr:housenumber" v="7601"/><tag k="addr:postcode" v="78744"/></node><node id="-127" lat="30.209894" lon="-97.69291" changeset="false"><tag k="addr:street" v="Palomino Trail"/><tag k="addr:housenumber" v="2820"/><tag k="addr:postcode" v="78744"/></node><node id="-128" lat="30.213629" lon="-97.688569" changeset="false"><tag k="addr:street" v="Hoeke Lane"/><tag k="addr:housenumber" v="2601"/><tag k="addr:postcode" v="78744"/></node><node id="-129" lat="30.215799" lon="-97.687871" changeset="false"><tag k="addr:street" v="East Riverside Drive"/><tag k="addr:housenumber" v="7900"/><tag k="addr:postcode" v="78744"/></node><node id="-130" lat="30.197257" lon="-97.695267" changeset="false"><tag k="addr:street" v="Yarborough Avenue"/><tag k="addr:housenumber" v="3824"/><tag k="addr:postcode" v="78744"/></node><node id="-131" lat="30.208978" lon="-97.68793" changeset="false"><tag k="addr:street" v="Metropolis Drive"/><tag k="addr:housenumber" v="8000"/><tag k="addr:postcode" v="78744"/></node><node id="-132" lat="30.219829" lon="-97.685589" changeset="false"><tag k="addr:street" v="Palma Circle"/><tag k="addr:housenumber" v="58"/><tag k="addr:postcode" v="78744"/></node><node id="-133" lat="30.219283" lon="-97.687183" changeset="false"><tag k="addr:street" v="Corto Street"/><tag k="addr:housenumber" v="13"/><tag k="addr:postcode" v="78744"/></node><node id="-134" lat="30.220065" lon="-97.685663" changeset="false"><tag k="addr:street" v="Palma Circle"/><tag k="addr:housenumber" v="14"/><tag k="addr:postcode" v="78744"/></node><node id="-135" lat="30.219478" lon="-97.686408" changeset="false"><tag k="addr:street" v="Royal Palms Drive"/><tag k="addr:housenumber" v="2"/><tag k="addr:postcode" v="78744"/></node><node id="-136" lat="30.2202" lon="-97.684751" changeset="false"><tag k="addr:street" v="Palma Circle"/><tag k="addr:housenumber" v="28"/><tag k="addr:postcode" v="78744"/></node><node id="-137" lat="30.220187" lon="-97.685427" changeset="false"><tag k="addr:street" v="Palma Circle"/><tag k="addr:housenumber" v="18"/><tag k="addr:postcode" v="78744"/></node><node id="-138" lat="30.219655" lon="-97.684575" changeset="false"><tag k="addr:street" v="Palma Circle"/><tag k="addr:housenumber" v="57"/><tag k="addr:postcode" v="78744"/></node><node id="-139" lat="30.210651" lon="-97.690868" changeset="false"><tag k="addr:street" v="Palomino Trail"/><tag k="addr:housenumber" v="2803"/><tag k="addr:postcode" v="78744"/></node><node id="-140" lat="30.197502" lon="-97.700313" changeset="false"><tag k="addr:street" v="Crestone Road"/><tag k="addr:housenumber" v="7217"/><tag k="addr:postcode" v="78744"/></node><node id="-141" lat="30.198276" lon="-97.700785" changeset="false"><tag k="addr:street" v="Crestone Road"/><tag k="addr:housenumber" v="7116"/><tag k="addr:postcode" v="78744"/></node><node id="-142" lat="30.198069" lon="-97.699807" changeset="false"><tag k="addr:street" v="Outfitter Drive"/><tag k="addr:housenumber" v="7213"/><tag k="addr:postcode" v="78744"/></node><node id="-143" lat="30.197699" lon="-97.699329" changeset="false"><tag k="addr:street" v="Outfitter Drive"/><tag k="addr:housenumber" v="7233"/><tag k="addr:postcode" v="78744"/></node><node id="-144" lat="30.197923" lon="-97.701176" changeset="false"><tag k="addr:street" v="Creede Drive"/><tag k="addr:housenumber" v="4212"/><tag k="addr:postcode" v="78744"/></node><node id="-145" lat="30.197911" lon="-97.701481" changeset="false"><tag k="addr:street" v="Creede Drive"/><tag k="addr:housenumber" v="4300"/><tag k="addr:postcode" v="78744"/></node><node id="-146" lat="30.197787" lon="-97.70215" changeset="false"><tag k="addr:street" v="Creede Drive"/><tag k="addr:housenumber" v="4401"/><tag k="addr:postcode" v="78744"/></node><node id="-147" lat="30.198699" lon="-97.701779" changeset="false"><tag k="addr:street" v="Crestone Road"/><tag k="addr:housenumber" v="6921"/><tag k="addr:postcode" v="78744"/></node><node id="-148" lat="30.197946" lon="-97.702515" changeset="false"><tag k="addr:street" v="Crestone Road"/><tag k="addr:housenumber" v="6813"/><tag k="addr:postcode" v="78744"/></node><node id="-149" lat="30.198052" lon="-97.70245" changeset="false"><tag k="addr:street" v="Crestone Road"/><tag k="addr:housenumber" v="6817"/><tag k="addr:postcode" v="78744"/></node><node id="-150" lat="30.205391" lon="-97.706792" changeset="false"><tag k="addr:street" v="Metropolis Drive"/><tag k="addr:housenumber" v="6800"/><tag k="addr:postcode" v="78744"/></node><node id="-151" lat="30.200973" lon="-97.698316" changeset="false"><tag k="addr:street" v="Aspen Glenn Boulevard"/><tag k="addr:housenumber" v="7009"/><tag k="addr:postcode" v="78744"/></node><node id="-152" lat="30.202147" lon="-97.696089" changeset="false"><tag k="addr:street" v="Alpine Autumn"/><tag k="addr:housenumber" v="3501"/><tag k="addr:postcode" v="78744"/></node><node id="-153" lat="30.201315" lon="-97.697013" changeset="false"><tag k="addr:street" v="Alpine Autumn"/><tag k="addr:housenumber" v="3617"/><tag k="addr:postcode" v="78744"/></node><node id="-154" lat="30.201039" lon="-97.697913" changeset="false"><tag k="addr:street" v="Alpine Autumn"/><tag k="addr:housenumber" v="3720"/><tag k="addr:postcode" v="78744"/></node><node id="-155" lat="30.2011" lon="-97.697243" changeset="false"><tag k="addr:street" v="Alpine Autumn"/><tag k="addr:housenumber" v="3705"/><tag k="addr:postcode" v="78744"/></node><node id="-156" lat="30.201025" lon="-97.697335" changeset="false"><tag k="addr:street" v="Alpine Autumn"/><tag k="addr:housenumber" v="3709"/><tag k="addr:postcode" v="78744"/></node><node id="-157" lat="30.200935" lon="-97.69742" changeset="false"><tag k="addr:street" v="Alpine Autumn"/><tag k="addr:housenumber" v="3713"/><tag k="addr:postcode" v="78744"/></node><node id="-158" lat="30.202743" lon="-97.696168" changeset="false"><tag k="addr:street" v="Razors Edge Dr"/><tag k="addr:housenumber" v="7112"/><tag k="addr:postcode" v="78744"/></node><node id="-159" lat="30.202468" lon="-97.69592" changeset="false"><tag k="addr:street" v="Razors Edge Dr"/><tag k="addr:housenumber" v="7200"/><tag k="addr:postcode" v="78744"/></node><node id="-160" lat="30.20169" lon="-97.695315" changeset="false"><tag k="addr:street" v="Breckenridge Drive"/><tag k="addr:housenumber" v="3425"/><tag k="addr:postcode" v="78744"/></node><node id="-161" lat="30.201708" lon="-97.696001" changeset="false"><tag k="addr:street" v="Breckenridge Drive"/><tag k="addr:housenumber" v="3508"/><tag k="addr:postcode" v="78744"/></node><node id="-162" lat="30.20154" lon="-97.69616" changeset="false"><tag k="addr:street" v="Breckenridge Drive"/><tag k="addr:housenumber" v="3516"/><tag k="addr:postcode" v="78744"/></node><node id="-163" lat="30.200994" lon="-97.696767" changeset="false"><tag k="addr:street" v="Breckenridge Drive"/><tag k="addr:housenumber" v="3620"/><tag k="addr:postcode" v="78744"/></node><node id="-164" lat="30.201166" lon="-97.695993" changeset="false"><tag k="addr:street" v="Breckenridge Drive"/><tag k="addr:housenumber" v="3605"/><tag k="addr:postcode" v="78744"/></node><node id="-165" lat="30.200843" lon="-97.696956" changeset="false"><tag k="addr:street" v="Breckenridge Drive"/><tag k="addr:housenumber" v="3704"/><tag k="addr:postcode" v="78744"/></node><node id="-166" lat="30.200531" lon="-97.697292" changeset="false"><tag k="addr:street" v="Breckenridge Drive"/><tag k="addr:housenumber" v="3720"/><tag k="addr:postcode" v="78744"/></node><node id="-167" lat="30.200079" lon="-97.69956" changeset="false"><tag k="addr:street" v="Black Granite Dr"/><tag k="addr:housenumber" v="3917"/><tag k="addr:postcode" v="78744"/></node><node id="-168" lat="30.20161" lon="-97.701193" changeset="false"><tag k="addr:street" v="Vail Ridge St"/><tag k="addr:housenumber" v="6809"/><tag k="addr:postcode" v="78744"/></node><node id="-169" lat="30.201396" lon="-97.701036" changeset="false"><tag k="addr:street" v="Vail Ridge St"/><tag k="addr:housenumber" v="6817"/><tag k="addr:postcode" v="78744"/></node><node id="-170" lat="30.201202" lon="-97.700828" changeset="false"><tag k="addr:street" v="Vail Ridge St"/><tag k="addr:housenumber" v="6901"/><tag k="addr:postcode" v="78744"/></node><node id="-171" lat="30.198356" lon="-97.699528" changeset="false"><tag k="addr:street" v="Outfitter Drive"/><tag k="addr:housenumber" v="7212"/><tag k="addr:postcode" v="78744"/></node><node id="-172" lat="30.210547" lon="-97.690316" changeset="false"><tag k="addr:street" v="Singlefoot Lane"/><tag k="addr:housenumber" v="2800"/><tag k="addr:postcode" v="78744"/></node><node id="-173" lat="30.218302" lon="-97.687957" changeset="false"><tag k="addr:street" v="East Ben White Boulevard"/><tag k="addr:housenumber" v="7809"/><tag k="addr:postcode" v="78744"/></node><node id="-174" lat="30.196663" lon="-97.694643" changeset="false"><tag k="addr:street" v="Bronco Bend Loop"/><tag k="addr:housenumber" v="3828"/><tag k="addr:postcode" v="78744"/></node><node id="-175" lat="30.216945" lon="-97.692752" changeset="false"><tag k="addr:street" v="East Ben White Boulevard"/><tag k="addr:housenumber" v="7601"/><tag k="addr:postcode" v="78744"/></node><node id="-176" lat="30.2103" lon="-97.713171" changeset="false"><tag k="addr:street" v="Montopolis Drive"/><tag k="addr:housenumber" v="3201"/><tag k="addr:postcode" v="78744"/></node><node id="-177" lat="30.20275" lon="-97.687503" changeset="false"><tag k="addr:street" v="Seeling Drive"/><tag k="addr:housenumber" v="8106"/><tag k="addr:postcode" v="78744"/></node><node id="-178" lat="30.212549" lon="-97.707212" changeset="false"><tag k="addr:street" v="East Ben White Boulevard"/><tag k="addr:housenumber" v="6641"/><tag k="addr:postcode" v="78744"/></node><node id="-179" lat="30.199718" lon="-97.695237" changeset="false"><tag k="addr:street" v="Aspen Brook Drive"/><tag k="addr:housenumber" v="7404"/><tag k="addr:postcode" v="78744"/></node><node id="-180" lat="30.196471" lon="-97.694825" changeset="false"><tag k="addr:street" v="Bronco Bend Loop"/><tag k="addr:housenumber" v="3900"/><tag k="addr:postcode" v="78744"/></node><node id="-181" lat="30.210261" lon="-97.692154" changeset="false"><tag k="addr:street" v="Palomino Trail"/><tag k="addr:housenumber" v="2812"/><tag k="addr:postcode" v="78744"/></node><node id="-182" lat="30.209349" lon="-97.693129" changeset="false"><tag k="addr:street" v="Palomino Trail"/><tag k="addr:housenumber" v="2827"/><tag k="addr:postcode" v="78744"/></node><node id="-183" lat="30.205623" lon="-97.712203" changeset="false"><tag k="addr:street" v="Silver Dollar Circle"/><tag k="addr:housenumber" v="3609"/><tag k="addr:postcode" v="78744"/></node><node id="-184" lat="30.196765" lon="-97.694569" changeset="false"><tag k="addr:street" v="Bronco Bend Loop"/><tag k="addr:housenumber" v="3824"/><tag k="addr:postcode" v="78744"/></node><node id="-185" lat="30.204975" lon="-97.71289" changeset="false"><tag k="addr:street" v="Silver Dollar Circle"/><tag k="addr:housenumber" v="3621"/><tag k="addr:postcode" v="78744"/></node><node id="-186" lat="30.204369" lon="-97.684897" changeset="false"><tag k="addr:street" v="Mc Call Lane"/><tag k="addr:housenumber" v="3120"/><tag k="addr:postcode" v="78744"/></node><node id="-187" lat="30.21857" lon="-97.685775" changeset="false"><tag k="addr:street" v="Yucca Drive"/><tag k="addr:housenumber" v="21"/><tag k="addr:postcode" v="78744"/></node><node id="-188" lat="30.218165" lon="-97.684717" changeset="false"><tag k="addr:street" v="Espinosa Drive"/><tag k="addr:housenumber" v="23"/><tag k="addr:postcode" v="78744"/></node><node id="-189" lat="30.219387" lon="-97.687003" changeset="false"><tag k="addr:street" v="Corto Street"/><tag k="addr:housenumber" v="9"/><tag k="addr:postcode" v="78744"/></node><node id="-190" lat="30.21933" lon="-97.687088" changeset="false"><tag k="addr:street" v="Corto Street"/><tag k="addr:housenumber" v="11"/><tag k="addr:postcode" v="78744"/></node><node id="-191" lat="30.212311" lon="-97.687615" changeset="false"><tag k="addr:street" v="Lee Hill Drive"/><tag k="addr:housenumber" v="7920"/><tag k="addr:postcode" v="78744"/></node><node id="-192" lat="30.212183" lon="-97.687449" changeset="false"><tag k="addr:street" v="Lee Hill Drive"/><tag k="addr:housenumber" v="7924"/><tag k="addr:postcode" v="78744"/></node><node id="-193" lat="30.21987" lon="-97.683907" changeset="false"><tag k="addr:street" v="Palma Circle"/><tag k="addr:housenumber" v="43"/><tag k="addr:postcode" v="78744"/></node><node id="-194" lat="30.219653" lon="-97.684049" changeset="false"><tag k="addr:street" v="Palma Circle"/><tag k="addr:housenumber" v="49"/><tag k="addr:postcode" v="78744"/></node><node id="-195" lat="30.219951" lon="-97.684907" changeset="false"><tag k="addr:street" v="Palma Circle"/><tag k="addr:housenumber" v="48"/><tag k="addr:postcode" v="78744"/></node><node id="-196" lat="30.219653" lon="-97.687113" changeset="false"><tag k="addr:street" v="La Posada Drive"/><tag k="addr:housenumber" v="13"/><tag k="addr:postcode" v="78744"/></node><node id="-197" lat="30.219434" lon="-97.687096" changeset="false"><tag k="addr:street" v="La Posada Drive"/><tag k="addr:housenumber" v="14"/><tag k="addr:postcode" v="78744"/></node><node id="-198" lat="30.20003" lon="-97.706941" changeset="false"><tag k="addr:street" v="Burleson Road"/><tag k="addr:housenumber" v="7000"/><tag k="addr:postcode" v="78744"/></node><node id="-199" lat="30.218397" lon="-97.684957" changeset="false"><tag k="addr:street" v="Espinosa Drive"/><tag k="addr:housenumber" v="24"/><tag k="addr:postcode" v="78744"/></node><node id="-200" lat="30.203709" lon="-97.708257" changeset="false"><tag k="addr:street" v="Metropolis Drive"/><tag k="addr:housenumber" v="6600"/><tag k="addr:postcode" v="78744"/></node><node id="-201" lat="30.197773" lon="-97.699418" changeset="false"><tag k="addr:street" v="Outfitter Drive"/><tag k="addr:housenumber" v="7229"/><tag k="addr:postcode" v="78744"/></node><node id="-202" lat="30.197806" lon="-97.700666" changeset="false"><tag k="addr:street" v="Creede Drive"/><tag k="addr:housenumber" v="4201"/><tag k="addr:postcode" v="78744"/></node><node id="-203" lat="30.197833" lon="-97.700226" changeset="false"><tag k="addr:street" v="Crestone Road"/><tag k="addr:housenumber" v="7212"/><tag k="addr:postcode" v="78744"/></node><node id="-204" lat="30.198354" lon="-97.700878" changeset="false"><tag k="addr:street" v="Crestone Road"/><tag k="addr:housenumber" v="7112"/><tag k="addr:postcode" v="78744"/></node><node id="-205" lat="30.219331" lon="-97.684664" changeset="false"><tag k="addr:street" v="Espinosa Drive"/><tag k="addr:housenumber" v="3"/><tag k="addr:postcode" v="78744"/></node><node id="-206" lat="30.198041" lon="-97.699138" changeset="false"><tag k="addr:street" v="Outfitter Drive"/><tag k="addr:housenumber" v="7228"/><tag k="addr:postcode" v="78744"/></node><node id="-207" lat="30.219819" lon="-97.68611" changeset="false"><tag k="addr:street" v="Palma Circle"/><tag k="addr:housenumber" v="6"/><tag k="addr:postcode" v="78744"/></node><node id="-208" lat="30.197945" lon="-97.701616" changeset="false"><tag k="addr:street" v="Creede Drive"/><tag k="addr:housenumber" v="4310"/><tag k="addr:postcode" v="78744"/></node><node id="-209" lat="30.197563" lon="-97.701546" changeset="false"><tag k="addr:street" v="Creede Drive"/><tag k="addr:housenumber" v="4305"/><tag k="addr:postcode" v="78744"/></node><node id="-210" lat="30.197876" lon="-97.70222" changeset="false"><tag k="addr:street" v="Creede Drive"/><tag k="addr:housenumber" v="4405"/><tag k="addr:postcode" v="78744"/></node><node id="-211" lat="30.197974" lon="-97.703039" changeset="false"><tag k="addr:street" v="Crestone Road"/><tag k="addr:housenumber" v="6800"/><tag k="addr:postcode" v="78744"/></node><node id="-212" lat="30.198525" lon="-97.702615" changeset="false"><tag k="addr:street" v="Crestone Road"/><tag k="addr:housenumber" v="6900"/><tag k="addr:postcode" v="78744"/></node><node id="-213" lat="30.199171" lon="-97.70189" changeset="false"><tag k="addr:street" v="Crestone Road"/><tag k="addr:housenumber" v="7004"/><tag k="addr:postcode" v="78744"/></node><node id="-214" lat="30.199089" lon="-97.701619" changeset="false"><tag k="addr:street" v="Crestone Road"/><tag k="addr:housenumber" v="7012"/><tag k="addr:postcode" v="78744"/></node><node id="-215" lat="30.198615" lon="-97.70187" changeset="false"><tag k="addr:street" v="Crestone Road"/><tag k="addr:housenumber" v="6917"/><tag k="addr:postcode" v="78744"/></node><node id="-216" lat="30.202069" lon="-97.69618" changeset="false"><tag k="addr:street" v="Alpine Autumn"/><tag k="addr:housenumber" v="3505"/><tag k="addr:postcode" v="78744"/></node><node id="-217" lat="30.201914" lon="-97.696949" changeset="false"><tag k="addr:street" v="Alpine Autumn"/><tag k="addr:housenumber" v="3600"/><tag k="addr:postcode" v="78744"/></node><node id="-218" lat="30.201847" lon="-97.696999" changeset="false"><tag k="addr:street" v="Alpine Autumn"/><tag k="addr:housenumber" v="3604"/><tag k="addr:postcode" v="78744"/></node><node id="-219" lat="30.201672" lon="-97.697176" changeset="false"><tag k="addr:street" v="Alpine Autumn"/><tag k="addr:housenumber" v="3612"/><tag k="addr:postcode" v="78744"/></node><node id="-220" lat="30.201482" lon="-97.696817" changeset="false"><tag k="addr:street" v="Alpine Autumn"/><tag k="addr:housenumber" v="3609"/><tag k="addr:postcode" v="78744"/></node><node id="-221" lat="30.200789" lon="-97.6976" changeset="false"><tag k="addr:street" v="Alpine Autumn"/><tag k="addr:housenumber" v="3721"/><tag k="addr:postcode" v="78744"/></node><node id="-222" lat="30.20255" lon="-97.696007" changeset="false"><tag k="addr:street" v="Razors Edge Dr"/><tag k="addr:housenumber" v="7120"/><tag k="addr:postcode" v="78744"/></node><node id="-223" lat="30.201381" lon="-97.696346" changeset="false"><tag k="addr:street" v="Breckenridge Drive"/><tag k="addr:housenumber" v="3600"/><tag k="addr:postcode" v="78744"/></node><node id="-224" lat="30.200877" lon="-97.696351" changeset="false"><tag k="addr:street" v="Breckenridge Drive"/><tag k="addr:housenumber" v="3621"/><tag k="addr:postcode" v="78744"/></node><node id="-225" lat="30.200764" lon="-97.697044" changeset="false"><tag k="addr:street" v="Breckenridge Drive"/><tag k="addr:housenumber" v="3708"/><tag k="addr:postcode" v="78744"/></node><node id="-226" lat="30.200606" lon="-97.697207" changeset="false"><tag k="addr:street" v="Breckenridge Drive"/><tag k="addr:housenumber" v="3716"/><tag k="addr:postcode" v="78744"/></node><node id="-227" lat="30.20031" lon="-97.697679" changeset="false"><tag k="addr:street" v="Breckenridge Drive"/><tag k="addr:housenumber" v="3800"/><tag k="addr:postcode" v="78744"/></node><node id="-228" lat="30.199808" lon="-97.698108" changeset="false"><tag k="addr:street" v="Breckenridge Drive"/><tag k="addr:housenumber" v="3816"/><tag k="addr:postcode" v="78744"/></node><node id="-229" lat="30.199826" lon="-97.699724" changeset="false"><tag k="addr:street" v="Vail Ridge St"/><tag k="addr:housenumber" v="7104"/><tag k="addr:postcode" v="78744"/></node><node id="-230" lat="30.199228" lon="-97.698998" changeset="false"><tag k="addr:street" v="Vail Ridge St"/><tag k="addr:housenumber" v="7208"/><tag k="addr:postcode" v="78744"/></node><node id="-231" lat="30.195238" lon="-97.696534" changeset="false"><tag k="addr:street" v="Cedar Edge Drive"/><tag k="addr:housenumber" v="7513"/><tag k="addr:postcode" v="78744"/></node><node id="-232" lat="30.218696" lon="-97.686719" changeset="false"><tag k="addr:street" v="Olmos Drive"/><tag k="addr:housenumber" v="9"/><tag k="addr:postcode" v="78744"/></node><node id="-233" lat="30.214121" lon="-97.701892" changeset="false"><tag k="addr:street" v="East Ben White Boulevard"/><tag k="addr:housenumber" v="6925"/><tag k="addr:postcode" v="78744"/></node><node id="-234" lat="30.205335" lon="-97.71311" changeset="false"><tag k="addr:street" v="Silver Dollar Circle"/><tag k="addr:housenumber" v="3624"/><tag k="addr:postcode" v="78744"/></node><node id="-235" lat="30.198106" lon="-97.696476" changeset="false"><tag k="addr:street" v="Bronco Bend Loop"/><tag k="addr:housenumber" v="3508"/><tag k="addr:postcode" v="78744"/></node><node id="-236" lat="30.211525" lon="-97.691604" changeset="false"><tag k="addr:street" v="Hoeke Lane"/><tag k="addr:housenumber" v="2800"/><tag k="addr:postcode" v="78744"/></node><node id="-237" lat="30.214034" lon="-97.688313" changeset="false"><tag k="addr:street" v="Hoeke Lane"/><tag k="addr:housenumber" v="2507"/><tag k="addr:postcode" v="78744"/></node><node id="-238" lat="30.19891" lon="-97.692925" changeset="false"><tag k="addr:street" v="Sand Dunes Avenue"/><tag k="addr:housenumber" v="3616"/><tag k="addr:postcode" v="78744"/></node><node id="-239" lat="30.209339" lon="-97.693466" changeset="false"><tag k="addr:street" v="Palomino Trail"/><tag k="addr:housenumber" v="2829"/><tag k="addr:postcode" v="78744"/></node><node id="-240" lat="30.215462" lon="-97.690037" changeset="false"><tag k="addr:street" v="East Riverside Drive"/><tag k="addr:housenumber" v="7901"/><tag k="addr:postcode" v="78744"/></node><node id="-241" lat="30.205888" lon="-97.711407" changeset="false"><tag k="addr:street" v="Silver Dollar Circle"/><tag k="addr:housenumber" v="3601"/><tag k="addr:postcode" v="78744"/></node><node id="-242" lat="30.209719" lon="-97.692139" changeset="false"><tag k="addr:street" v="Palomino Trail"/><tag k="addr:housenumber" v="2819"/><tag k="addr:postcode" v="78744"/></node><node id="-243" lat="30.202423" lon="-97.70925" changeset="false"><tag k="addr:street" v="Burleson Road"/><tag k="addr:housenumber" v="6718"/><tag k="addr:postcode" v="78744"/></node><node id="-244" lat="30.199509" lon="-97.694767" changeset="false"><tag k="addr:street" v="Aspen Brook Drive"/><tag k="addr:housenumber" v="7424"/><tag k="addr:postcode" v="78744"/></node><node id="-245" lat="30.203577" lon="-97.7119" changeset="false"><tag k="addr:street" v="Dime Circle"/><tag k="addr:housenumber" v="3717"/><tag k="addr:postcode" v="78744"/></node><node id="-246" lat="30.20185" lon="-97.687246" changeset="false"><tag k="addr:street" v="Mc Call Lane"/><tag k="addr:housenumber" v="3401"/><tag k="addr:postcode" v="78744"/></node><node id="-247" lat="30.196411" lon="-97.696112" changeset="false"><tag k="addr:street" v="Yarborough Avenue"/><tag k="addr:housenumber" v="3928"/><tag k="addr:postcode" v="78744"/></node><node id="-248" lat="30.211048" lon="-97.690285" changeset="false"><tag k="addr:street" v="Rusty Drive"/><tag k="addr:housenumber" v="2809"/><tag k="addr:postcode" v="78744"/></node><node id="-249" lat="30.2112" lon="-97.690475" changeset="false"><tag k="addr:street" v="Rusty Drive"/><tag k="addr:housenumber" v="2807"/><tag k="addr:postcode" v="78744"/></node><node id="-250" lat="30.2098" lon="-97.690452" changeset="false"><tag k="addr:street" v="Singlefoot Lane"/><tag k="addr:housenumber" v="2805"/><tag k="addr:postcode" v="78744"/></node><node id="-251" lat="30.209652" lon="-97.692365" changeset="false"><tag k="addr:street" v="Palomino Trail"/><tag k="addr:housenumber" v="2821"/><tag k="addr:postcode" v="78744"/></node><node id="-252" lat="30.209605" lon="-97.692591" changeset="false"><tag k="addr:street" v="Palomino Trail"/><tag k="addr:housenumber" v="2823"/><tag k="addr:postcode" v="78744"/></node><node id="-253" lat="30.219153" lon="-97.686025" changeset="false"><tag k="addr:street" v="Royal Palms Drive"/><tag k="addr:housenumber" v="10"/><tag k="addr:postcode" v="78744"/></node><node id="-254" lat="30.198306" lon="-97.702892" changeset="false"><tag k="addr:street" v="Crestone Road"/><tag k="addr:housenumber" v="6812"/><tag k="addr:postcode" v="78744"/></node><node id="-255" lat="30.198921" lon="-97.702163" changeset="false"><tag k="addr:street" v="Crestone Road"/><tag k="addr:housenumber" v="6920"/><tag k="addr:postcode" v="78744"/></node><node id="-256" lat="30.199172" lon="-97.701725" changeset="false"><tag k="addr:street" v="Crestone Road"/><tag k="addr:housenumber" v="7008"/><tag k="addr:postcode" v="78744"/></node><node id="-257" lat="30.198988" lon="-97.701541" changeset="false"><tag k="addr:street" v="Crestone Road"/><tag k="addr:housenumber" v="7016"/><tag k="addr:postcode" v="78744"/></node><node id="-258" lat="30.198265" lon="-97.702238" changeset="false"><tag k="addr:street" v="Crestone Road"/><tag k="addr:housenumber" v="6901"/><tag k="addr:postcode" v="78744"/></node><node id="-259" lat="30.197843" lon="-97.702948" changeset="false"><tag k="addr:street" v="Crestone Road"/><tag k="addr:housenumber" v="6801"/><tag k="addr:postcode" v="78744"/></node><node id="-260" lat="30.197814" lon="-97.702771" changeset="false"><tag k="addr:street" v="Crestone Road"/><tag k="addr:housenumber" v="6805"/><tag k="addr:postcode" v="78744"/></node><node id="-261" lat="30.219787" lon="-97.686596" changeset="false"><tag k="addr:street" v="East Ben White Boulevard"/><tag k="addr:housenumber" v="7901"/><tag k="addr:postcode" v="78744"/></node><node id="-262" lat="30.201223" lon="-97.688623" changeset="false"><tag k="addr:street" v="Mc Call Lane"/><tag k="addr:housenumber" v="3500"/><tag k="addr:postcode" v="78744"/></node><node id="-263" lat="30.197581" lon="-97.700403" changeset="false"><tag k="addr:street" v="Crestone Road"/><tag k="addr:housenumber" v="7213"/><tag k="addr:postcode" v="78744"/></node><node id="-264" lat="30.197985" lon="-97.700408" changeset="false"><tag k="addr:street" v="Crestone Road"/><tag k="addr:housenumber" v="7204"/><tag k="addr:postcode" v="78744"/></node><node id="-265" lat="30.198877" lon="-97.701472" changeset="false"><tag k="addr:street" v="Crestone Road"/><tag k="addr:housenumber" v="7020"/><tag k="addr:postcode" v="78744"/></node><node id="-266" lat="30.211804" lon="-97.686969" changeset="false"><tag k="addr:street" v="Lee Hill Drive"/><tag k="addr:housenumber" v="8012"/><tag k="addr:postcode" v="78744"/></node><node id="-267" lat="30.219811" lon="-97.686774" changeset="false"><tag k="addr:street" v="La Posada Drive"/><tag k="addr:housenumber" v="7"/><tag k="addr:postcode" v="78744"/></node><node id="-268" lat="30.219542" lon="-97.687323" changeset="false"><tag k="addr:street" v="La Posada Drive"/><tag k="addr:housenumber" v="17"/><tag k="addr:postcode" v="78744"/></node><node id="-269" lat="30.218154" lon="-97.685004" changeset="false"><tag k="addr:street" v="Espinosa Drive"/><tag k="addr:housenumber" v="28"/><tag k="addr:postcode" v="78744"/></node><node id="-270" lat="30.198799" lon="-97.700103" changeset="false"><tag k="addr:street" v="Outfitter Drive"/><tag k="addr:housenumber" v="7120"/><tag k="addr:postcode" v="78744"/></node><node id="-271" lat="30.218823" lon="-97.685631" changeset="false"><tag k="addr:street" v="Royal Palms Drive"/><tag k="addr:housenumber" v="18"/><tag k="addr:postcode" v="78744"/></node><node id="-272" lat="30.219225" lon="-97.686136" changeset="false"><tag k="addr:street" v="Royal Palms Drive"/><tag k="addr:housenumber" v="8"/><tag k="addr:postcode" v="78744"/></node><node id="-273" lat="30.220368" lon="-97.685606" changeset="false"><tag k="addr:street" v="Palma Circle"/><tag k="addr:housenumber" v="15"/><tag k="addr:postcode" v="78744"/></node><node id="-274" lat="30.220214" lon="-97.685135" changeset="false"><tag k="addr:street" v="Palma Circle"/><tag k="addr:housenumber" v="22"/><tag k="addr:postcode" v="78744"/></node><node id="-275" lat="30.218132" lon="-97.685653" changeset="false"><tag k="addr:street" v="Yucca Drive"/><tag k="addr:housenumber" v="28"/><tag k="addr:postcode" v="78744"/></node><node id="-276" lat="30.211564" lon="-97.686654" changeset="false"><tag k="addr:street" v="Lee Hill Drive"/><tag k="addr:housenumber" v="8100"/><tag k="addr:postcode" v="78744"/></node><node id="-277" lat="30.197909" lon="-97.701325" changeset="false"><tag k="addr:street" v="Creede Drive"/><tag k="addr:housenumber" v="4220"/><tag k="addr:postcode" v="78744"/></node><node id="-278" lat="30.219917" lon="-97.68451" changeset="false"><tag k="addr:street" v="Palma Circle"/><tag k="addr:housenumber" v="42"/><tag k="addr:postcode" v="78744"/></node><node id="-279" lat="30.205646" lon="-97.699467" changeset="false"><tag k="addr:street" v="Metropolis Drive"/><tag k="addr:housenumber" v="7201"/><tag k="addr:postcode" v="78744"/></node><node id="-280" lat="30.206197" lon="-97.698441" changeset="false"><tag k="addr:street" v="Metropolis Drive"/><tag k="addr:housenumber" v="7301"/><tag k="addr:postcode" v="78744"/></node><node id="-281" lat="30.202211" lon="-97.696565" changeset="false"><tag k="addr:street" v="Alpine Autumn"/><tag k="addr:housenumber" v="3508"/><tag k="addr:postcode" v="78744"/></node><node id="-282" lat="30.202133" lon="-97.696653" changeset="false"><tag k="addr:street" v="Alpine Autumn"/><tag k="addr:housenumber" v="3512"/><tag k="addr:postcode" v="78744"/></node><node id="-283" lat="30.200958" lon="-97.697998" changeset="false"><tag k="addr:street" v="Alpine Autumn"/><tag k="addr:housenumber" v="3724"/><tag k="addr:postcode" v="78744"/></node><node id="-284" lat="30.201165" lon="-97.697152" changeset="false"><tag k="addr:street" v="Alpine Autumn"/><tag k="addr:housenumber" v="3701"/><tag k="addr:postcode" v="78744"/></node><node id="-285" lat="30.202629" lon="-97.696094" changeset="false"><tag k="addr:street" v="Razors Edge Dr"/><tag k="addr:housenumber" v="7116"/><tag k="addr:postcode" v="78744"/></node><node id="-286" lat="30.202386" lon="-97.695836" changeset="false"><tag k="addr:street" v="Razors Edge Dr"/><tag k="addr:housenumber" v="7204"/><tag k="addr:postcode" v="78744"/></node><node id="-287" lat="30.202129" lon="-97.695461" changeset="false"><tag k="addr:street" v="Razors Edge Dr"/><tag k="addr:housenumber" v="7220"/><tag k="addr:postcode" v="78744"/></node><node id="-288" lat="30.201871" lon="-97.69518" changeset="false"><tag k="addr:street" v="Breckenridge Drive"/><tag k="addr:housenumber" v="3417"/><tag k="addr:postcode" v="78744"/></node><node id="-289" lat="30.201764" lon="-97.695245" changeset="false"><tag k="addr:street" v="Breckenridge Drive"/><tag k="addr:housenumber" v="3421"/><tag k="addr:postcode" v="78744"/></node><node id="-290" lat="30.201629" lon="-97.696074" changeset="false"><tag k="addr:street" v="Breckenridge Drive"/><tag k="addr:housenumber" v="3512"/><tag k="addr:postcode" v="78744"/></node><node id="-291" lat="30.201294" lon="-97.696419" changeset="false"><tag k="addr:street" v="Breckenridge Drive"/><tag k="addr:housenumber" v="3604"/><tag k="addr:postcode" v="78744"/></node><node id="-292" lat="30.201143" lon="-97.696587" changeset="false"><tag k="addr:street" v="Breckenridge Drive"/><tag k="addr:housenumber" v="3612"/><tag k="addr:postcode" v="78744"/></node><node id="-293" lat="30.199913" lon="-97.698009" changeset="false"><tag k="addr:street" v="Breckenridge Drive"/><tag k="addr:housenumber" v="3812"/><tag k="addr:postcode" v="78744"/></node><node id="-294" lat="30.199714" lon="-97.698209" changeset="false"><tag k="addr:street" v="Breckenridge Drive"/><tag k="addr:housenumber" v="3820"/><tag k="addr:postcode" v="78744"/></node><node id="-295" lat="30.199549" lon="-97.698894" changeset="false"><tag k="addr:street" v="Alpine Autumn"/><tag k="addr:housenumber" v="3917"/><tag k="addr:postcode" v="78744"/></node><node id="-296" lat="30.20139" lon="-97.701676" changeset="false"><tag k="addr:street" v="Vail Ridge St"/><tag k="addr:housenumber" v="6804"/><tag k="addr:postcode" v="78744"/></node><node id="-297" lat="30.201233" lon="-97.701446" changeset="false"><tag k="addr:street" v="Vail Ridge St"/><tag k="addr:housenumber" v="6812"/><tag k="addr:postcode" v="78744"/></node><node id="-298" lat="30.201037" lon="-97.70063" changeset="false"><tag k="addr:street" v="Vail Ridge St"/><tag k="addr:housenumber" v="6909"/><tag k="addr:postcode" v="78744"/></node><node id="-299" lat="30.200251" lon="-97.700248" changeset="false"><tag k="addr:street" v="Vail Ridge St"/><tag k="addr:housenumber" v="7012"/><tag k="addr:postcode" v="78744"/></node><node id="-300" lat="30.199661" lon="-97.699528" changeset="false"><tag k="addr:street" v="Vail Ridge St"/><tag k="addr:housenumber" v="7112"/><tag k="addr:postcode" v="78744"/></node><node id="-301" lat="30.211985" lon="-97.687421" changeset="false"><tag k="addr:street" v="Lee Hill Drive"/><tag k="addr:housenumber" v="8002"/><tag k="addr:postcode" v="78744"/></node><node id="-302" lat="30.203063" lon="-97.709491" changeset="false"><tag k="addr:street" v="Metropolis Drive"/><tag k="addr:housenumber" v="6500 1/2"/><tag k="addr:postcode" v="78744"/></node><node id="-303" lat="30.198303" lon="-97.700082" changeset="false"><tag k="addr:street" v="Outfitter Drive"/><tag k="addr:housenumber" v="7201"/><tag k="addr:postcode" v="78744"/></node><node id="-304" lat="30.198431" lon="-97.69962" changeset="false"><tag k="addr:street" v="Outfitter Drive"/><tag k="addr:housenumber" v="7208"/><tag k="addr:postcode" v="78744"/></node><node id="-305" lat="30.198282" lon="-97.699433" changeset="false"><tag k="addr:street" v="Outfitter Drive"/><tag k="addr:housenumber" v="7216"/><tag k="addr:postcode" v="78744"/></node><node id="-306" lat="30.21327" lon="-97.705063" changeset="false"><tag k="addr:street" v="East Ben White Boulevard"/><tag k="addr:housenumber" v="6727 1/2"/><tag k="addr:postcode" v="78744"/></node><node id="-307" lat="30.212397" lon="-97.706381" changeset="false"><tag k="addr:street" v="East Ben White Boulevard"/><tag k="addr:housenumber" v="6645"/><tag k="addr:postcode" v="78744"/></node><node id="-308" lat="30.197554" lon="-97.696035" changeset="false"><tag k="addr:street" v="Montezuma Street"/><tag k="addr:housenumber" v="7444"/><tag k="addr:postcode" v="78744"/></node><node id="-309" lat="30.197354" lon="-97.693559" changeset="false"><tag k="addr:street" v="Bronco Bend Loop"/><tag k="addr:housenumber" v="3729"/><tag k="addr:postcode" v="78744"/></node><node id="-310" lat="30.197596" lon="-97.701004" changeset="false"><tag k="addr:street" v="Creede Drive"/><tag k="addr:housenumber" v="4213"/><tag k="addr:postcode" v="78744"/></node><node id="-311" lat="30.198676" lon="-97.702422" changeset="false"><tag k="addr:street" v="Crestone Road"/><tag k="addr:housenumber" v="6908"/><tag k="addr:postcode" v="78744"/></node><node id="-312" lat="30.201852" lon="-97.696367" changeset="false"><tag k="addr:street" v="Alpine Autumn"/><tag k="addr:housenumber" v="3513"/><tag k="addr:postcode" v="78744"/></node><node id="-313" lat="30.201758" lon="-97.697088" changeset="false"><tag k="addr:street" v="Alpine Autumn"/><tag k="addr:housenumber" v="3608"/><tag k="addr:postcode" v="78744"/></node><node id="-314" lat="30.201609" lon="-97.697255" changeset="false"><tag k="addr:street" v="Alpine Autumn"/><tag k="addr:housenumber" v="3616"/><tag k="addr:postcode" v="78744"/></node><node id="-315" lat="30.201635" lon="-97.696644" changeset="false"><tag k="addr:street" v="Alpine Autumn"/><tag k="addr:housenumber" v="3601"/><tag k="addr:postcode" v="78744"/></node><node id="-316" lat="30.201546" lon="-97.696711" changeset="false"><tag k="addr:street" v="Alpine Autumn"/><tag k="addr:housenumber" v="3605"/><tag k="addr:postcode" v="78744"/></node><node id="-317" lat="30.219224" lon="-97.687465" changeset="false"><tag k="addr:street" v="La Posada Drive"/><tag k="addr:housenumber" v="22"/><tag k="addr:postcode" v="78744"/></node><node id="-318" lat="30.21907" lon="-97.687598" changeset="false"><tag k="addr:street" v="La Posada Drive"/><tag k="addr:housenumber" v="30"/><tag k="addr:postcode" v="78744"/></node><node id="-319" lat="30.219491" lon="-97.686809" changeset="false"><tag k="addr:street" v="Corto Street"/><tag k="addr:housenumber" v="5"/><tag k="addr:postcode" v="78744"/></node><node id="-320" lat="30.219433" lon="-97.686908" changeset="false"><tag k="addr:street" v="Corto Street"/><tag k="addr:housenumber" v="7"/><tag k="addr:postcode" v="78744"/></node><node id="-321" lat="30.201417" lon="-97.696917" changeset="false"><tag k="addr:street" v="Alpine Autumn"/><tag k="addr:housenumber" v="3613"/><tag k="addr:postcode" v="78744"/></node><node id="-322" lat="30.201469" lon="-97.697465" changeset="false"><tag k="addr:street" v="Alpine Autumn"/><tag k="addr:housenumber" v="3700"/><tag k="addr:postcode" v="78744"/></node><node id="-323" lat="30.201237" lon="-97.697721" changeset="false"><tag k="addr:street" v="Alpine Autumn"/><tag k="addr:housenumber" v="3712"/><tag k="addr:postcode" v="78744"/></node><node id="-324" lat="30.202261" lon="-97.695642" changeset="false"><tag k="addr:street" v="Razors Edge Dr"/><tag k="addr:housenumber" v="7212"/><tag k="addr:postcode" v="78744"/></node><node id="-325" lat="30.202171" lon="-97.695546" changeset="false"><tag k="addr:street" v="Razors Edge Dr"/><tag k="addr:housenumber" v="7216"/><tag k="addr:postcode" v="78744"/></node><node id="-326" lat="30.201879" lon="-97.695833" changeset="false"><tag k="addr:street" v="Breckenridge Drive"/><tag k="addr:housenumber" v="3500"/><tag k="addr:postcode" v="78744"/></node><node id="-327" lat="30.201388" lon="-97.695711" changeset="false"><tag k="addr:street" v="Breckenridge Drive"/><tag k="addr:housenumber" v="3513"/><tag k="addr:postcode" v="78744"/></node><node id="-328" lat="30.201218" lon="-97.696489" changeset="false"><tag k="addr:street" v="Breckenridge Drive"/><tag k="addr:housenumber" v="3608"/><tag k="addr:postcode" v="78744"/></node><node id="-329" lat="30.201001" lon="-97.696171" changeset="false"><tag k="addr:street" v="Breckenridge Drive"/><tag k="addr:housenumber" v="3613"/><tag k="addr:postcode" v="78744"/></node><node id="-330" lat="30.200018" lon="-97.697911" changeset="false"><tag k="addr:street" v="Breckenridge Drive"/><tag k="addr:housenumber" v="3808"/><tag k="addr:postcode" v="78744"/></node><node id="-331" lat="30.199411" lon="-97.698551" changeset="false"><tag k="addr:street" v="Breckenridge Drive"/><tag k="addr:housenumber" v="3904"/><tag k="addr:postcode" v="78744"/></node><node id="-332" lat="30.201478" lon="-97.701766" changeset="false"><tag k="addr:street" v="Vail Ridge St"/><tag k="addr:housenumber" v="6800"/><tag k="addr:postcode" v="78744"/></node><node id="-333" lat="30.201295" lon="-97.700934" changeset="false"><tag k="addr:street" v="Vail Ridge St"/><tag k="addr:housenumber" v="6821"/><tag k="addr:postcode" v="78744"/></node><node id="-334" lat="30.199483" lon="-97.699321" changeset="false"><tag k="addr:street" v="Vail Ridge St"/><tag k="addr:housenumber" v="7120"/><tag k="addr:postcode" v="78744"/></node><node id="-335" lat="30.199396" lon="-97.699227" changeset="false"><tag k="addr:street" v="Vail Ridge St"/><tag k="addr:housenumber" v="7200"/><tag k="addr:postcode" v="78744"/></node><node id="-336" lat="30.19914" lon="-97.698887" changeset="false"><tag k="addr:street" v="Vail Ridge St"/><tag k="addr:housenumber" v="7212"/><tag k="addr:postcode" v="78744"/></node><node id="-337" lat="30.199055" lon="-97.6988" changeset="false"><tag k="addr:street" v="Vail Ridge St"/><tag k="addr:housenumber" v="7216"/><tag k="addr:postcode" v="78744"/></node><node id="-338" lat="30.218109" lon="-97.686062" changeset="false"><tag k="addr:street" v="Olmos Drive"/><tag k="addr:housenumber" v="23"/><tag k="addr:postcode" v="78744"/></node><node id="-339" lat="30.219535" lon="-97.686921" changeset="false"><tag k="addr:street" v="La Posada Drive"/><tag k="addr:housenumber" v="10"/><tag k="addr:postcode" v="78744"/></node><node id="-340" lat="30.219195" lon="-97.68819" changeset="false"><tag k="addr:street" v="East Ben White Boulevard"/><tag k="addr:housenumber" v="7819 1/2"/><tag k="addr:postcode" v="78744"/></node><node id="-341" lat="30.219775" lon="-97.683855" changeset="false"><tag k="addr:street" v="Palma Circle"/><tag k="addr:housenumber" v="45"/><tag k="addr:postcode" v="78744"/></node><node id="-342" lat="30.21996" lon="-97.685218" changeset="false"><tag k="addr:street" v="Palma Circle"/><tag k="addr:housenumber" v="52"/><tag k="addr:postcode" v="78744"/></node><node id="-343" lat="30.219927" lon="-97.685351" changeset="false"><tag k="addr:street" v="Palma Circle"/><tag k="addr:housenumber" v="54"/><tag k="addr:postcode" v="78744"/></node><node id="-344" lat="30.218695" lon="-97.686334" changeset="false"><tag k="addr:street" v="Yucca Drive"/><tag k="addr:housenumber" v="14"/><tag k="addr:postcode" v="78744"/></node><node id="-345" lat="30.218642" lon="-97.685862" changeset="false"><tag k="addr:street" v="Yucca Drive"/><tag k="addr:housenumber" v="19"/><tag k="addr:postcode" v="78744"/></node><node id="-346" lat="30.206923" lon="-97.701416" changeset="false"><tag k="addr:street" v="Metropolis Drive"/><tag k="addr:housenumber" v="7100"/><tag k="addr:postcode" v="78744"/></node><node id="-347" lat="30.208215" lon="-97.703935" changeset="false"><tag k="addr:street" v="Metropolis Drive"/><tag k="addr:housenumber" v="7050"/><tag k="addr:postcode" v="78744"/></node><node id="-348" lat="30.219449" lon="-97.684668" changeset="false"><tag k="addr:street" v="Espinosa Drive"/><tag k="addr:housenumber" v="1"/><tag k="addr:postcode" v="78744"/></node><node id="-349" lat="30.218356" lon="-97.686345" changeset="false"><tag k="addr:street" v="Olmos Drive"/><tag k="addr:housenumber" v="17"/><tag k="addr:postcode" v="78744"/></node><node id="-350" lat="30.21805" lon="-97.685977" changeset="false"><tag k="addr:street" v="Olmos Drive"/><tag k="addr:housenumber" v="25"/><tag k="addr:postcode" v="78744"/></node><node id="-351" lat="30.197759" lon="-97.700137" changeset="false"><tag k="addr:street" v="Crestone Road"/><tag k="addr:housenumber" v="7216"/><tag k="addr:postcode" v="78744"/></node><node id="-352" lat="30.197528" lon="-97.699853" changeset="false"><tag k="addr:street" v="Crestone Road"/><tag k="addr:housenumber" v="7228"/><tag k="addr:postcode" v="78744"/></node><node id="-353" lat="30.197376" lon="-97.699678" changeset="false"><tag k="addr:street" v="Crestone Road"/><tag k="addr:housenumber" v="7236"/><tag k="addr:postcode" v="78744"/></node><node id="-354" lat="30.198225" lon="-97.701206" changeset="false"><tag k="addr:street" v="Crestone Road"/><tag k="addr:housenumber" v="7109"/><tag k="addr:postcode" v="78744"/></node><node id="-355" lat="30.206078" lon="-97.704425" changeset="false"><tag k="addr:street" v="Metropolis Drive"/><tag k="addr:housenumber" v="7000"/><tag k="addr:postcode" v="78744"/></node><node id="-356" lat="30.219313" lon="-97.687794" changeset="false"><tag k="addr:street" v="La Posada Drive"/><tag k="addr:housenumber" v="24"/><tag k="addr:postcode" v="78744"/></node><node id="-357" lat="30.219301" lon="-97.686643" changeset="false"><tag k="addr:street" v="Yucca Drive"/><tag k="addr:housenumber" v="1"/><tag k="addr:postcode" v="78744"/></node><node id="-358" lat="30.201383" lon="-97.697542" changeset="false"><tag k="addr:street" v="Alpine Autumn"/><tag k="addr:housenumber" v="3704"/><tag k="addr:postcode" v="78744"/></node><node id="-359" lat="30.201312" lon="-97.697633" changeset="false"><tag k="addr:street" v="Alpine Autumn"/><tag k="addr:housenumber" v="3708"/><tag k="addr:postcode" v="78744"/></node><node id="-360" lat="30.201107" lon="-97.697828" changeset="false"><tag k="addr:street" v="Alpine Autumn"/><tag k="addr:housenumber" v="3716"/><tag k="addr:postcode" v="78744"/></node><node id="-361" lat="30.200733" lon="-97.697698" changeset="false"><tag k="addr:street" v="Alpine Autumn"/><tag k="addr:housenumber" v="3725"/><tag k="addr:postcode" v="78744"/></node><node id="-362" lat="30.201566" lon="-97.695525" changeset="false"><tag k="addr:street" v="Breckenridge Drive"/><tag k="addr:housenumber" v="3505"/><tag k="addr:postcode" v="78744"/></node><node id="-363" lat="30.201256" lon="-97.695926" changeset="false"><tag k="addr:street" v="Breckenridge Drive"/><tag k="addr:housenumber" v="3601"/><tag k="addr:postcode" v="78744"/></node><node id="-364" lat="30.200685" lon="-97.697125" changeset="false"><tag k="addr:street" v="Breckenridge Drive"/><tag k="addr:housenumber" v="3712"/><tag k="addr:postcode" v="78744"/></node><node id="-365" lat="30.20012" lon="-97.697807" changeset="false"><tag k="addr:street" v="Breckenridge Drive"/><tag k="addr:housenumber" v="3804"/><tag k="addr:postcode" v="78744"/></node><node id="-366" lat="30.199529" lon="-97.698433" changeset="false"><tag k="addr:street" v="Breckenridge Drive"/><tag k="addr:housenumber" v="3900"/><tag k="addr:postcode" v="78744"/></node><node id="-367" lat="30.199296" lon="-97.698668" changeset="false"><tag k="addr:street" v="Breckenridge Drive"/><tag k="addr:housenumber" v="3908"/><tag k="addr:postcode" v="78744"/></node><node id="-368" lat="30.199853" lon="-97.699252" changeset="false"><tag k="addr:street" v="Alpine Autumn"/><tag k="addr:housenumber" v="3916"/><tag k="addr:postcode" v="78744"/></node><node id="-369" lat="30.200605" lon="-97.700189" changeset="false"><tag k="addr:street" v="Colorado High Ave"/><tag k="addr:housenumber" v="3917"/><tag k="addr:postcode" v="78744"/></node><node id="-370" lat="30.20106" lon="-97.701242" changeset="false"><tag k="addr:street" v="Vail Ridge St"/><tag k="addr:housenumber" v="6820"/><tag k="addr:postcode" v="78744"/></node><node id="-371" lat="30.201715" lon="-97.701476" changeset="false"><tag k="addr:street" v="Vail Ridge St"/><tag k="addr:housenumber" v="6801"/><tag k="addr:postcode" v="78744"/></node><node id="-372" lat="30.200717" lon="-97.700829" changeset="false"><tag k="addr:street" v="Vail Ridge St"/><tag k="addr:housenumber" v="6912"/><tag k="addr:postcode" v="78744"/></node><node id="-373" lat="30.200952" lon="-97.70053" changeset="false"><tag k="addr:street" v="Vail Ridge St"/><tag k="addr:housenumber" v="6913"/><tag k="addr:postcode" v="78744"/></node><node id="-374" lat="30.200333" lon="-97.70035" changeset="false"><tag k="addr:street" v="Vail Ridge St"/><tag k="addr:housenumber" v="7008"/><tag k="addr:postcode" v="78744"/></node><node id="-375" lat="30.199914" lon="-97.699838" changeset="false"><tag k="addr:street" v="Vail Ridge St"/><tag k="addr:housenumber" v="7100"/><tag k="addr:postcode" v="78744"/></node><node id="-376" lat="30.199743" lon="-97.699627" changeset="false"><tag k="addr:street" v="Vail Ridge St"/><tag k="addr:housenumber" v="7108"/><tag k="addr:postcode" v="78744"/></node><node id="-377" lat="30.219734" lon="-97.68696" changeset="false"><tag k="addr:street" v="La Posada Drive"/><tag k="addr:housenumber" v="9"/><tag k="addr:postcode" v="78744"/></node><node id="-378" lat="30.219687" lon="-97.687032" changeset="false"><tag k="addr:street" v="La Posada Drive"/><tag k="addr:housenumber" v="11"/><tag k="addr:postcode" v="78744"/></node><node id="-379" lat="30.21933" lon="-97.6873" changeset="false"><tag k="addr:street" v="La Posada Drive"/><tag k="addr:housenumber" v="18"/><tag k="addr:postcode" v="78744"/></node><node id="-380" lat="30.218973" lon="-97.68496" changeset="false"><tag k="addr:street" v="Espinosa Drive"/><tag k="addr:housenumber" v="14"/><tag k="addr:postcode" v="78744"/></node><node id="-381" lat="30.218852" lon="-97.684967" changeset="false"><tag k="addr:street" v="Espinosa Drive"/><tag k="addr:housenumber" v="16"/><tag k="addr:postcode" v="78744"/></node><node id="-382" lat="30.218756" lon="-97.684962" changeset="false"><tag k="addr:street" v="Espinosa Drive"/><tag k="addr:housenumber" v="18"/><tag k="addr:postcode" v="78744"/></node><node id="-383" lat="30.217923" lon="-97.684999" changeset="false"><tag k="addr:street" v="Espinosa Drive"/><tag k="addr:housenumber" v="32"/><tag k="addr:postcode" v="78744"/></node><node id="-384" lat="30.219611" lon="-97.686547" changeset="false"><tag k="addr:street" v="La Posada Drive"/><tag k="addr:housenumber" v="1"/><tag k="addr:postcode" v="78744"/></node><node id="-385" lat="30.22002" lon="-97.685785" changeset="false"><tag k="addr:street" v="Palma Circle"/><tag k="addr:housenumber" v="12"/><tag k="addr:postcode" v="78744"/></node><node id="-386" lat="30.220465" lon="-97.68535" changeset="false"><tag k="addr:street" v="Palma Circle"/><tag k="addr:housenumber" v="19"/><tag k="addr:postcode" v="78744"/></node><node id="-387" lat="30.220196" lon="-97.685288" changeset="false"><tag k="addr:street" v="Palma Circle"/><tag k="addr:housenumber" v="20"/><tag k="addr:postcode" v="78744"/></node><node id="-388" lat="30.219325" lon="-97.686219" changeset="false"><tag k="addr:street" v="Royal Palms Drive"/><tag k="addr:housenumber" v="6"/><tag k="addr:postcode" v="78744"/></node><node id="-389" lat="30.19813" lon="-97.699244" changeset="false"><tag k="addr:street" v="Outfitter Drive"/><tag k="addr:housenumber" v="7224"/><tag k="addr:postcode" v="78744"/></node><node id="-390" lat="30.198583" lon="-97.699812" changeset="false"><tag k="addr:street" v="Outfitter Drive"/><tag k="addr:housenumber" v="7200"/><tag k="addr:postcode" v="78744"/></node><node id="-391" lat="30.197338" lon="-97.70012" changeset="false"><tag k="addr:street" v="Crestone Road"/><tag k="addr:housenumber" v="7225"/><tag k="addr:postcode" v="78744"/></node><node id="-392" lat="30.198064" lon="-97.700498" changeset="false"><tag k="addr:street" v="Crestone Road"/><tag k="addr:housenumber" v="7200"/><tag k="addr:postcode" v="78744"/></node><node id="-393" lat="30.198587" lon="-97.701157" changeset="false"><tag k="addr:street" v="Crestone Road"/><tag k="addr:housenumber" v="7100"/><tag k="addr:postcode" v="78744"/></node><node id="-394" lat="30.198506" lon="-97.70106" changeset="false"><tag k="addr:street" v="Crestone Road"/><tag k="addr:housenumber" v="7104"/><tag k="addr:postcode" v="78744"/></node><node id="-395" lat="30.198429" lon="-97.700965" changeset="false"><tag k="addr:street" v="Crestone Road"/><tag k="addr:housenumber" v="7108"/><tag k="addr:postcode" v="78744"/></node><node id="-396" lat="30.198389" lon="-97.701394" changeset="false"><tag k="addr:street" v="Crestone Road"/><tag k="addr:housenumber" v="7101"/><tag k="addr:postcode" v="78744"/></node><node id="-397" lat="30.198522" lon="-97.701594" changeset="false"><tag k="addr:street" v="Crestone Road"/><tag k="addr:housenumber" v="7025"/><tag k="addr:postcode" v="78744"/></node><node id="-398" lat="30.19815" lon="-97.6999" changeset="false"><tag k="addr:street" v="Outfitter Drive"/><tag k="addr:housenumber" v="7209"/><tag k="addr:postcode" v="78744"/></node><node id="-399" lat="30.197917" lon="-97.699617" changeset="false"><tag k="addr:street" v="Outfitter Drive"/><tag k="addr:housenumber" v="7221"/><tag k="addr:postcode" v="78744"/></node><node id="-400" lat="30.19816" lon="-97.701989" changeset="false"><tag k="addr:street" v="Creede Drive"/><tag k="addr:housenumber" v="4404"/><tag k="addr:postcode" v="78744"/></node><node id="-401" lat="30.197608" lon="-97.701818" changeset="false"><tag k="addr:street" v="Creede Drive"/><tag k="addr:housenumber" v="4313"/><tag k="addr:postcode" v="78744"/></node><node id="-402" lat="30.197845" lon="-97.702612" changeset="false"><tag k="addr:street" v="Crestone Road"/><tag k="addr:housenumber" v="6809"/><tag k="addr:postcode" v="78744"/></node><node id="-403" lat="30.219937" lon="-97.685874" changeset="false"><tag k="addr:street" v="Palma Circle"/><tag k="addr:housenumber" v="10"/><tag k="addr:postcode" v="78744"/></node><node id="-404" lat="30.217519" lon="-97.685755" changeset="false"><tag k="addr:street" v="Olmos Drive"/><tag k="addr:housenumber" v="34"/><tag k="addr:postcode" v="78744"/></node><node id="-405" lat="30.199563" lon="-97.703911" changeset="false"><tag k="addr:street" v="Burleson Road"/><tag k="addr:housenumber" v="7050"/><tag k="addr:postcode" v="78744"/></node><node id="-406" lat="30.211211" lon="-97.693781" changeset="false"><tag k="addr:street" v="Metro Center Drive"/><tag k="addr:housenumber" v="7501 1/2"/><tag k="addr:postcode" v="78744"/></node><node id="-407" lat="30.214183" lon="-97.688112" changeset="false"><tag k="addr:street" v="Hoeke Lane"/><tag k="addr:housenumber" v="2505"/><tag k="addr:postcode" v="78744"/></node><node id="-408" lat="30.220451" lon="-97.684654" changeset="false"><tag k="addr:street" v="Palma Circle"/><tag k="addr:housenumber" v="29"/><tag k="addr:postcode" v="78744"/></node><node id="-409" lat="30.220269" lon="-97.684281" changeset="false"><tag k="addr:street" v="Palma Circle"/><tag k="addr:housenumber" v="35"/><tag k="addr:postcode" v="78744"/></node><node id="-410" lat="30.210011" lon="-97.690931" changeset="false"><tag k="addr:street" v="Singlefoot Lane"/><tag k="addr:housenumber" v="2806"/><tag k="addr:postcode" v="78744"/></node><node id="-411" lat="30.219323" lon="-97.684965" changeset="false"><tag k="addr:street" v="Espinosa Drive"/><tag k="addr:housenumber" v="8"/><tag k="addr:postcode" v="78744"/></node><node id="-412" lat="30.202057" lon="-97.696736" changeset="false"><tag k="addr:street" v="Alpine Autumn"/><tag k="addr:housenumber" v="3516"/><tag k="addr:postcode" v="78744"/></node><node id="-413" lat="30.201784" lon="-97.696464" changeset="false"><tag k="addr:street" v="Alpine Autumn"/><tag k="addr:housenumber" v="3517"/><tag k="addr:postcode" v="78744"/></node><node id="-414" lat="30.201697" lon="-97.696531" changeset="false"><tag k="addr:street" v="Alpine Autumn"/><tag k="addr:housenumber" v="3521"/><tag k="addr:postcode" v="78744"/></node><node id="-415" lat="30.20086" lon="-97.697508" changeset="false"><tag k="addr:street" v="Alpine Autumn"/><tag k="addr:housenumber" v="3717"/><tag k="addr:postcode" v="78744"/></node><node id="-416" lat="30.201642" lon="-97.695436" changeset="false"><tag k="addr:street" v="Breckenridge Drive"/><tag k="addr:housenumber" v="3501"/><tag k="addr:postcode" v="78744"/></node><node id="-417" lat="30.201318" lon="-97.695819" changeset="false"><tag k="addr:street" v="Breckenridge Drive"/><tag k="addr:housenumber" v="3517"/><tag k="addr:postcode" v="78744"/></node><node id="-418" lat="30.200928" lon="-97.696262" changeset="false"><tag k="addr:street" v="Breckenridge Drive"/><tag k="addr:housenumber" v="3617"/><tag k="addr:postcode" v="78744"/></node><node id="-419" lat="30.21178" lon="-97.687188" changeset="false"><tag k="addr:street" v="Lee Hill Drive"/><tag k="addr:housenumber" v="8006"/><tag k="addr:postcode" v="78744"/></node><node id="-420" lat="30.211683" lon="-97.686828" changeset="false"><tag k="addr:street" v="Lee Hill Drive"/><tag k="addr:housenumber" v="8016"/><tag k="addr:postcode" v="78744"/></node><node id="-421" lat="30.206925" lon="-97.690584" changeset="false"><tag k="addr:street" v="Metropolis Drive"/><tag k="addr:housenumber" v="7901"/><tag k="addr:postcode" v="78744"/></node><node id="-422" lat="30.198126" lon="-97.700601" changeset="false"><tag k="addr:street" v="Crestone Road"/><tag k="addr:housenumber" v="7124"/><tag k="addr:postcode" v="78744"/></node><node id="-423" lat="30.19831" lon="-97.701314" changeset="false"><tag k="addr:street" v="Crestone Road"/><tag k="addr:housenumber" v="7105"/><tag k="addr:postcode" v="78744"/></node><node id="-424" lat="30.198445" lon="-97.701503" changeset="false"><tag k="addr:street" v="Crestone Road"/><tag k="addr:housenumber" v="7029"/><tag k="addr:postcode" v="78744"/></node><node id="-425" lat="30.198094" lon="-97.701856" changeset="false"><tag k="addr:street" v="Creede Drive"/><tag k="addr:housenumber" v="4400"/><tag k="addr:postcode" v="78744"/></node><node id="-426" lat="30.197552" lon="-97.701276" changeset="false"><tag k="addr:street" v="Creede Drive"/><tag k="addr:housenumber" v="4221"/><tag k="addr:postcode" v="78744"/></node><node id="-427" lat="30.197556" lon="-97.701405" changeset="false"><tag k="addr:street" v="Creede Drive"/><tag k="addr:housenumber" v="4301"/><tag k="addr:postcode" v="78744"/></node><node id="-428" lat="30.198453" lon="-97.702714" changeset="false"><tag k="addr:street" v="Crestone Road"/><tag k="addr:housenumber" v="6820"/><tag k="addr:postcode" v="78744"/></node><node id="-429" lat="30.199109" lon="-97.702012" changeset="false"><tag k="addr:street" v="Crestone Road"/><tag k="addr:housenumber" v="7000"/><tag k="addr:postcode" v="78744"/></node><node id="-430" lat="30.217676" lon="-97.685625" changeset="false"><tag k="addr:street" v="Olmos Drive"/><tag k="addr:housenumber" v="33"/><tag k="addr:postcode" v="78744"/></node><node id="-431" lat="30.219149" lon="-97.687661" changeset="false"><tag k="addr:street" v="La Posada Drive"/><tag k="addr:housenumber" v="28"/><tag k="addr:postcode" v="78744"/></node><node id="-432" lat="30.219447" lon="-97.687502" changeset="false"><tag k="addr:street" v="La Posada Drive"/><tag k="addr:housenumber" v="21"/><tag k="addr:postcode" v="78744"/></node><node id="-433" lat="30.219493" lon="-97.686997" changeset="false"><tag k="addr:street" v="La Posada Drive"/><tag k="addr:housenumber" v="12"/><tag k="addr:postcode" v="78744"/></node><node id="-434" lat="30.203399" lon="-97.685358" changeset="false"><tag k="addr:street" v="Mc Call Lane"/><tag k="addr:housenumber" v="3207"/><tag k="addr:postcode" v="78744"/></node><node id="-435" lat="30.219169" lon="-97.687358" changeset="false"><tag k="addr:street" v="Corto Street"/><tag k="addr:housenumber" v="17"/><tag k="addr:postcode" v="78744"/></node><node id="-436" lat="30.198378" lon="-97.700162" changeset="false"><tag k="addr:street" v="Outfitter Drive"/><tag k="addr:housenumber" v="7129"/><tag k="addr:postcode" v="78744"/></node><node id="-437" lat="30.201052" lon="-97.70629" changeset="false"><tag k="addr:street" v="Burleson Road"/><tag k="addr:housenumber" v="6902"/><tag k="addr:postcode" v="78744"/></node><node id="-438" lat="30.220205" lon="-97.684189" changeset="false"><tag k="addr:street" v="Palma Circle"/><tag k="addr:housenumber" v="37"/><tag k="addr:postcode" v="78744"/></node><node id="-439" lat="30.218616" lon="-97.686225" changeset="false"><tag k="addr:street" v="Yucca Drive"/><tag k="addr:housenumber" v="16"/><tag k="addr:postcode" v="78744"/></node><node id="-440" lat="30.218407" lon="-97.685607" changeset="false"><tag k="addr:street" v="Yucca Drive"/><tag k="addr:housenumber" v="25"/><tag k="addr:postcode" v="78744"/></node><node id="-441" lat="30.195852" lon="-97.695559" changeset="false"><tag k="addr:street" v="Bronco Bend Loop"/><tag k="addr:housenumber" v="3928"/><tag k="addr:postcode" v="78744"/></node><node id="-442" lat="30.196556" lon="-97.695917" changeset="false"><tag k="addr:street" v="Yarborough Avenue"/><tag k="addr:housenumber" v="3920"/><tag k="addr:postcode" v="78744"/></node><node id="-443" lat="30.207764" lon="-97.714669" changeset="false"><tag k="addr:street" v="Montopolis Drive"/><tag k="addr:housenumber" v="3505"/><tag k="addr:postcode" v="78744"/></node><node id="-444" lat="30.199284" lon="-97.694048" changeset="false"><tag k="addr:street" v="Aspen Brook Drive"/><tag k="addr:housenumber" v="7448"/><tag k="addr:postcode" v="78744"/></node><node id="-445" lat="30.203933" lon="-97.68964" changeset="false"><tag k="addr:street" v="Bouleware Drive"/><tag k="addr:housenumber" v="3300"/><tag k="addr:postcode" v="78744"/></node><node id="-446" lat="30.219165" lon="-97.688136" changeset="false"><tag k="addr:street" v="Palma Verde Drive"/><tag k="addr:housenumber" v="7801 1/2"/><tag k="addr:postcode" v="78744"/></node><node id="-447" lat="30.218847" lon="-97.68813" changeset="false"><tag k="addr:street" v="East Ben White Boulevard"/><tag k="addr:housenumber" v="7807"/><tag k="addr:postcode" v="78744"/></node><node id="-448" lat="30.217885" lon="-97.685758" changeset="false"><tag k="addr:street" v="Olmos Drive"/><tag k="addr:housenumber" v="29"/><tag k="addr:postcode" v="78744"/></node><node id="-449" lat="30.20035" lon="-97.69987" changeset="false"><tag k="addr:street" v="Black Granite Dr"/><tag k="addr:housenumber" v="3916"/><tag k="addr:postcode" v="78744"/></node><node id="-450" lat="30.201305" lon="-97.70158" changeset="false"><tag k="addr:street" v="Vail Ridge St"/><tag k="addr:housenumber" v="6808"/><tag k="addr:postcode" v="78744"/></node><node id="-451" lat="30.201145" lon="-97.701353" changeset="false"><tag k="addr:street" v="Vail Ridge St"/><tag k="addr:housenumber" v="6816"/><tag k="addr:postcode" v="78744"/></node><node id="-452" lat="30.201496" lon="-97.701125" changeset="false"><tag k="addr:street" v="Vail Ridge St"/><tag k="addr:housenumber" v="6813"/><tag k="addr:postcode" v="78744"/></node><node id="-453" lat="30.20081" lon="-97.700928" changeset="false"><tag k="addr:street" v="Vail Ridge St"/><tag k="addr:housenumber" v="6908"/><tag k="addr:postcode" v="78744"/></node><node id="-454" lat="30.20087" lon="-97.700431" changeset="false"><tag k="addr:street" v="Vail Ridge St"/><tag k="addr:housenumber" v="6917"/><tag k="addr:postcode" v="78744"/></node><node id="-455" lat="30.200508" lon="-97.700549" changeset="false"><tag k="addr:street" v="Vail Ridge St"/><tag k="addr:housenumber" v="7000"/><tag k="addr:postcode" v="78744"/></node><node id="-456" lat="30.200003" lon="-97.699919" changeset="false"><tag k="addr:street" v="Vail Ridge St"/><tag k="addr:housenumber" v="7024"/><tag k="addr:postcode" v="78744"/></node><node id="-457" lat="30.199568" lon="-97.699423" changeset="false"><tag k="addr:street" v="Vail Ridge St"/><tag k="addr:housenumber" v="7116"/><tag k="addr:postcode" v="78744"/></node><node id="-458" lat="30.199305" lon="-97.699107" changeset="false"><tag k="addr:street" v="Vail Ridge St"/><tag k="addr:housenumber" v="7204"/><tag k="addr:postcode" v="78744"/></node><node id="-459" lat="30.200428" lon="-97.697396" changeset="false"><tag k="addr:street" v="Breckenridge Drive"/><tag k="addr:housenumber" v="3724"/><tag k="addr:postcode" v="78744"/></node><node id="-460" lat="30.211994" lon="-97.708255" changeset="false"><tag k="addr:street" v="East Ben White Boulevard"/><tag k="addr:housenumber" v="6511"/><tag k="addr:postcode" v="78744"/></node><node id="-461" lat="30.199458" lon="-97.696248" changeset="false"><tag k="addr:street" v="Autumn Bay Drive"/><tag k="addr:housenumber" v="3716"/><tag k="addr:postcode" v="78744"/></node><node id="-462" lat="30.212416" lon="-97.687783" changeset="false"><tag k="addr:street" v="Lee Hill Drive"/><tag k="addr:housenumber" v="7916"/><tag k="addr:postcode" v="78744"/></node><node id="-463" lat="30.212636" lon="-97.689897" changeset="false"><tag k="addr:street" v="Hoeke Lane"/><tag k="addr:housenumber" v="2705"/><tag k="addr:postcode" v="78744"/></node><node id="-464" lat="30.197729" lon="-97.696258" changeset="false"><tag k="addr:street" v="Montezuma Street"/><tag k="addr:housenumber" v="7436"/><tag k="addr:postcode" v="78744"/></node><node id="-465" lat="30.217699" lon="-97.684995" changeset="false"><tag k="addr:street" v="Espinosa Drive"/><tag k="addr:housenumber" v="36"/><tag k="addr:postcode" v="78744"/></node><node id="-466" lat="30.196998" lon="-97.694405" changeset="false"><tag k="addr:street" v="Bronco Bend Loop"/><tag k="addr:housenumber" v="3816"/><tag k="addr:postcode" v="78744"/></node><node id="-467" lat="30.217065" lon="-97.689343" changeset="false"><tag k="addr:street" v="East Riverside Drive"/><tag k="addr:housenumber" v="7712"/><tag k="addr:postcode" v="78744"/></node><node id="-468" lat="30.199114" lon="-97.696683" changeset="false"><tag k="addr:street" v="Autumn Bay Drive"/><tag k="addr:housenumber" v="3804"/><tag k="addr:postcode" v="78744"/></node><node id="-469" lat="30.204728" lon="-97.710254" changeset="false"><tag k="addr:street" v="Dime Circle"/><tag k="addr:housenumber" v="3615"/><tag k="addr:postcode" v="78744"/></node><node id="-470" lat="30.21435" lon="-97.687938" changeset="false"><tag k="addr:street" v="Hoeke Lane"/><tag k="addr:housenumber" v="2501"/><tag k="addr:postcode" v="78744"/></node><node id="-471" lat="30.21159" lon="-97.694824" changeset="false"><tag k="addr:street" v="Metro Center Drive"/><tag k="addr:housenumber" v="7501"/><tag k="addr:postcode" v="78744"/></node><node id="-472" lat="30.218246" lon="-97.688695" changeset="false"><tag k="addr:street" v="East Ben White Boulevard"/><tag k="addr:housenumber" v="7715"/><tag k="addr:postcode" v="78744"/></node><node id="-473" lat="30.215116" lon="-97.69879" changeset="false"><tag k="addr:street" v="East Ben White Boulevard"/><tag k="addr:housenumber" v="7135"/><tag k="addr:postcode" v="78744"/></node><node id="-474" lat="30.202092" lon="-97.687357" changeset="false"><tag k="addr:street" v="Mc Call Lane"/><tag k="addr:housenumber" v="3400"/><tag k="addr:postcode" v="78744"/></node><node id="-475" lat="30.199212" lon="-97.693804" changeset="false"><tag k="addr:street" v="Aspen Brook Drive"/><tag k="addr:housenumber" v="7504"/><tag k="addr:postcode" v="78744"/></node><node id="-476" lat="30.207638" lon="-97.715067" changeset="false"><tag k="addr:street" v="Montopolis Drive"/><tag k="addr:housenumber" v="3401"/><tag k="addr:postcode" v="78744"/></node><node id="-477" lat="30.20391" lon="-97.684685" changeset="false"><tag k="addr:street" v="Mc Call Lane"/><tag k="addr:housenumber" v="3123"/><tag k="addr:postcode" v="78744"/></node><node id="-478" lat="30.200174" lon="-97.694346" changeset="false"><tag k="addr:street" v="Elk Pass Drive"/><tag k="addr:housenumber" v="7416"/><tag k="addr:postcode" v="78744"/></node><node id="-479" lat="30.197785" lon="-97.69576" changeset="false"><tag k="addr:street" v="Carbondale Avenue"/><tag k="addr:housenumber" v="3804"/><tag k="addr:postcode" v="78744"/></node><node id="-480" lat="30.209796" lon="-97.697846" changeset="false"><tag k="addr:street" v="Metro Center Drive"/><tag k="addr:housenumber" v="7301"/><tag k="addr:postcode" v="78744"/></node><node id="-481" lat="30.203788" lon="-97.684894" changeset="false"><tag k="addr:street" v="Mc Call Lane"/><tag k="addr:housenumber" v="3201"/><tag k="addr:postcode" v="78744"/></node><node id="-482" lat="30.216118" lon="-97.689467" changeset="false"><tag k="addr:street" v="East Riverside Drive"/><tag k="addr:housenumber" v="7777"/><tag k="addr:postcode" v="78744"/></node><node id="-483" lat="30.206151" lon="-97.709889" changeset="false"><tag k="addr:street" v="Dime Circle"/><tag k="addr:housenumber" v="3510"/><tag k="addr:postcode" v="78744"/></node><node id="-484" lat="30.205345" lon="-97.710545" changeset="false"><tag k="addr:street" v="Dime Circle"/><tag k="addr:housenumber" v="3610"/><tag k="addr:postcode" v="78744"/></node><node id="-485" lat="30.211691" lon="-97.71091" changeset="false"><tag k="addr:street" v="East Ben White Boulevard"/><tag k="addr:housenumber" v="6317"/><tag k="addr:postcode" v="78744"/></node><node id="-486" lat="30.218751" lon="-97.684687" changeset="false"><tag k="addr:street" v="Espinosa Drive"/><tag k="addr:housenumber" v="13"/><tag k="addr:postcode" v="78744"/></node><node id="-487" lat="30.213477" lon="-97.688682" changeset="false"><tag k="addr:street" v="Hoeke Lane"/><tag k="addr:housenumber" v="2609"/><tag k="addr:postcode" v="78744"/></node><node id="-488" lat="30.210171" lon="-97.690829" changeset="false"><tag k="addr:street" v="Singlefoot Lane"/><tag k="addr:housenumber" v="2804"/><tag k="addr:postcode" v="78744"/></node><node id="-489" lat="30.209864" lon="-97.69112" changeset="false"><tag k="addr:street" v="Singlefoot Lane"/><tag k="addr:housenumber" v="2808"/><tag k="addr:postcode" v="78744"/></node><node id="-490" lat="30.21924" lon="-97.687714" changeset="false"><tag k="addr:street" v="La Posada Drive"/><tag k="addr:housenumber" v="26"/><tag k="addr:postcode" v="78744"/></node><node id="-491" lat="30.199008" lon="-97.692899" changeset="false"><tag k="addr:street" v="Sand Dunes Avenue"/><tag k="addr:housenumber" v="3612"/><tag k="addr:postcode" v="78744"/></node><node id="-492" lat="30.199486" lon="-97.692309" changeset="false"><tag k="addr:street" v="Sand Dunes Avenue"/><tag k="addr:housenumber" v="3525"/><tag k="addr:postcode" v="78744"/></node><node id="-493" lat="30.212156" lon="-97.688513" changeset="false"><tag k="addr:street" v="Lee Hill Drive"/><tag k="addr:housenumber" v="7913"/><tag k="addr:postcode" v="78744"/></node><node id="-494" lat="30.212117" lon="-97.688468" changeset="false"><tag k="addr:street" v="Lee Hill Drive"/><tag k="addr:housenumber" v="7915"/><tag k="addr:postcode" v="78744"/></node></osm>